{
"type": "FeatureCollection",
"features": [
{ "type":"Feature","properties":{"osm_id":"29791894","name":"ALDI","other":{"addr:city":"Redcar","addr:postcode":"TS10 4SD","addr:street":"Larkswood Road","brand":"ALDI","brand:wikidata":"Q41171672","brand:wikipedia":"en:Aldi","shop":"supermarket"}}, "geometry":{"type":"Point","coordinates":[-1.06881,54.59407 ]}},
{ "type":"Feature","properties":{"osm_id":"269244423","name":"Sainsbury's","other":{"addr:city":"Hartlepool","addr:housename":"Middle Warren Centre","addr:postcode":"TS26 0BF","addr:street":"Mulberry Rise","addr:unit":"3","brand":"Sainsbury's","brand:wikidata":"Q152096","brand:wikipedia":"en:Sainsbury's","fhrs:id":"259682","shop":"supermarket","source:addr":"FHRS Open Data"}}, "geometry":{"type":"Point","coordinates":[-1.24892,54.70692 ]}},
{ "type":"Feature","properties":{"osm_id":"272056216","name":"Co-op Food","other":{"brand":"Co-op Food","brand:wikidata":"Q3277439","brand:wikipedia":"en:Co-op Food","operator":"Co-op","shop":"supermarket"}}, "geometry":{"type":"Point","coordinates":[-0.98346,54.56083 ]}},
{ "type":"Feature","properties":{"osm_id":"274333805","name":"Tesco Express","other":{"addr:city":"Hartlepool","addr:housenumber":"420-426","addr:postcode":"TS25 2LS","addr:street":"Catcote Road","brand":"Tesco Express","brand:wikidata":"Q98456772","contact:website":"https:\/\/www.tesco.com\/store-locator\/hartlepool\/420-426-catcote-rd","fhrs:id":"259343","opening_hours":"Mo-Su 06:00-23:00","operator":"Tesco","shop":"supermarket","source:addr":"FHRS Open Data"}}, "geometry":{"type":"Point","coordinates":[-1.23344,54.65498 ]}},
{ "type":"Feature","properties":{"osm_id":"292354800","name":"Morrisons","other":{"addr:city":"Redcar","addr:country":"GB","addr:postcode":"TS10 3ER","addr:street":"Lord Street","alt_name":"Morrisons Redcar","brand":"Morrisons","brand:wikidata":"Q922344","brand:wikipedia":"en:Morrisons","contact:website":"https:\/\/my.morrisons.com\/storefinder\/80","shop":"supermarket"}}, "geometry":{"type":"Point","coordinates":[-1.06636,54.61678 ]}},
{ "type":"Feature","properties":{"osm_id":"363805858","name":"Co-op","other":{"addr:city":"Marske-by-the-Sea","addr:housenumber":"69","addr:street":"High Street","shop":"supermarket"}}, "geometry":{"type":"Point","coordinates":[-1.01973,54.5906 ]}},
{ "type":"Feature","properties":{"osm_id":"456058249","name":"Co-Op","other":{"shop":"supermarket"}}, "geometry":{"type":"Point","coordinates":[-1.30558,54.53367 ]}},
{ "type":"Feature","properties":{"osm_id":"528335723","man_made":"surveillance","other":{"camera:mount":"building","camera:type":"dome","surveillance:type":"camera"}}, "geometry":{"type":"Point","coordinates":[-1.20963,54.6901 ]}},
{ "type":"Feature","properties":{"osm_id":"528335729","man_made":"surveillance","other":{"camera:mount":"building","camera:type":"dome","surveillance:type":"camera"}}, "geometry":{"type":"Point","coordinates":[-1.21103,54.69004 ]}},
{ "type":"Feature","properties":{"osm_id":"528679097","name":"Co-Op","other":{"shop":"supermarket"}}, "geometry":{"type":"Point","coordinates":[-1.22303,54.67517 ]}},
{ "type":"Feature","properties":{"osm_id":"528997242","name":"Spar","other":{"addr:city":"Hartlepool","addr:housenumber":"50-52","addr:postcode":"TS25 2AX","addr:street":"Elizabeth Way","brand":"Spar","brand:wikidata":"Q610492","brand:wikipedia":"en:Spar (retailer)","fhrs:id":"259686","shop":"supermarket","source:addr":"FHRS Open Data"}}, "geometry":{"type":"Point","coordinates":[-1.19543,54.65632 ]}},
{ "type":"Feature","properties":{"osm_id":"684003948","name":"The Co-operative Food","other":{"addr:city":"Hartlepool","addr:housenumber":"58-60","addr:postcode":"TS24 0LP","addr:street":"Northgate","shop":"supermarket"}}, "geometry":{"type":"Point","coordinates":[-1.18737,54.69908 ]}},
{ "type":"Feature","properties":{"osm_id":"751174923","name":"Co-op Food","other":{"brand":"Co-op Food","brand:wikidata":"Q3277439","brand:wikipedia":"en:Co-op Food","operator":"Co-op","shop":"supermarket"}}, "geometry":{"type":"Point","coordinates":[-1.34166,54.58822 ]}},
{ "type":"Feature","properties":{"osm_id":"751197523","name":"Co-op","other":{"addr:city":"Middlesbrough","addr:country":"GB","addr:housenumber":"469","addr:postcode":"TS5 6HX","addr:street":"Linthorpe Road","fhrs:id":"256951","operator":"Co-op","shop":"supermarket"}}, "geometry":{"type":"Point","coordinates":[-1.24307,54.56039 ]}},
{ "type":"Feature","properties":{"osm_id":"751211442","name":"Co-op Food","other":{"addr:city":"Stockton-On-Tees","addr:housename":"Cooperative Store","addr:housenumber":"10","addr:postcode":"TS18 5EQ","addr:street":"Harper Parade","brand":"Co-op Food","brand:wikidata":"Q3277439","brand:wikipedia":"en:Co-op Food","designation":"shopping = supermarket","fhrs:id":"251162","operator":"The Co-operative Group","operator:wikidata":"Q117202","operator:wikipedia":"en:The Co-operative Group","shop":"supermarket","source:addr":"FHRS Open Data","website":"https:\/\/www.co-operative.coop\/"}}, "geometry":{"type":"Point","coordinates":[-1.34108,54.55521 ]}},
{ "type":"Feature","properties":{"osm_id":"752352258","name":"Heron Foods","other":{"addr:city":"Stockton","addr:country":"GB","addr:housenumber":"8A","addr:postcode":"TS18 1AL","addr:street":"Castle Way","brand":"Heron Foods","brand:wikidata":"Q5743472","brand:wikipedia":"en:Heron Foods","contact:website":"https:\/\/heronfoods.com\/storelocator\/store-details\/stockton","fhrs:id":"251252","layer":"1","operator":"Heron","shop":"supermarket"}}, "geometry":{"type":"Point","coordinates":[-1.31179,54.56219 ]}},
{ "type":"Feature","properties":{"osm_id":"752366890","name":"Heron Foods","other":{"addr:city":"Middlesbough","addr:country":"GB","addr:housenumber":"57","addr:postcode":"TS1 1HR","addr:street":"Dundas Street","brand":"Heron Foods","brand:wikidata":"Q5743472","brand:wikipedia":"en:Heron Foods","contact:website":"https:\/\/heronfoods.com\/storelocator\/store-details\/dundas-street","fhrs:id":"256949","operator":"Heron","shop":"supermarket"}}, "geometry":{"type":"Point","coordinates":[-1.23552,54.57682 ]}},
{ "type":"Feature","properties":{"osm_id":"752366912","name":"Heron Foods","other":{"addr:city":"Middlesbough","addr:country":"GB","addr:housenumber":"449","addr:postcode":"TS5 6HX","addr:street":"Linthorpe Road","brand":"Heron Foods","brand:wikidata":"Q5743472","brand:wikipedia":"en:Heron Foods","contact:website":"https:\/\/heronfoods.com\/index.php\/storelocator\/store-details\/linthorpe","fhrs:id":"257623","shop":"supermarket"}}, "geometry":{"type":"Point","coordinates":[-1.24299,54.56071 ]}},
{ "type":"Feature","properties":{"osm_id":"752932158","name":"Home Bargins","other":{"operator":"TJ Morris","shop":"supermarket"}}, "geometry":{"type":"Point","coordinates":[-1.21674,54.5241 ]}},
{ "type":"Feature","properties":{"osm_id":"752932171","name":"Iceland","other":{"addr:housename":"Parkway Centre","addr:housenumber":"Unit 11","addr:postcode":"TS8 0TJ","alt_name":"Iceland Coulby Newham","brand":"Iceland","brand:wikidata":"Q721810","operator":"Iceland","shop":"supermarket"}}, "geometry":{"type":"Point","coordinates":[-1.2157,54.52474 ]}},
{ "type":"Feature","properties":{"osm_id":"789067988","name":"The co-operative food","other":{"addr:city":"Darlington","addr:street":"North Road","shop":"supermarket"}}, "geometry":{"type":"Point","coordinates":[-1.54759,54.548 ]}},
{ "type":"Feature","properties":{"osm_id":"1366792879","name":"Co-op Food","other":{"addr:city":"Darlington","addr:housenumber":"25-58","addr:postcode":"DL3 9EP","addr:street":"West Auckland Road","brand":"Co-op Food","brand:wikidata":"Q3277439","brand:wikipedia":"en:Co-op Food","fhrs:id":"232473","opening_hours":"Mo-Su 07:00-23:00","shop":"supermarket"}}, "geometry":{"type":"Point","coordinates":[-1.57817,54.53514 ]}},
{ "type":"Feature","properties":{"osm_id":"1366792884","name":"The Co-operative Food","other":{"addr:city":"Darlington","addr:housenumber":"11","addr:postcode":"DL3 9AA","addr:street":"Cockerton Green","branch":"Cockerton","fhrs:id":"232589","opening_hours":"Mo-Sa 07:00-22:00; Su 10:00-16:00","shop":"supermarket"}}, "geometry":{"type":"Point","coordinates":[-1.57887,54.5336 ]}},
{ "type":"Feature","properties":{"osm_id":"1449651202","other":{"power":"pole"}}, "geometry":{"type":"Point","coordinates":[1.11262,51.90161 ]}},
{ "type":"Feature","properties":{"osm_id":"1449651203","other":{"natural":"tree"}}, "geometry":{"type":"Point","coordinates":[1.11171,51.90168 ]}},
{ "type":"Feature","properties":{"osm_id":"1449651207","other":{"power":"pole"}}, "geometry":{"type":"Point","coordinates":[1.11193,51.90217 ]}},
{ "type":"Feature","properties":{"osm_id":"1479991660","name":"M&S Foodhall","other":{"addr:housename":"Marks & Spencer","addr:housenumber":"5-7","addr:postcode":"TS17 7BW","addr:street":"Goodwood Square","brand":"M&S Foodhall","brand:wikidata":"Q714491","brand:wikipedia":"en:Marks & Spencer","shop":"supermarket","website":"https:\/\/www.marksandspencer.com\/stores\/teesside-6156"}}, "geometry":{"type":"Point","coordinates":[-1.27574,54.55492 ]}},
{ "type":"Feature","properties":{"osm_id":"1560693872","man_made":"surveillance","other":{"camera:mount":"building","camera:type":"dome","surveillance:type":"camera"}}, "geometry":{"type":"Point","coordinates":[-0.97547,54.58372 ]}},
{ "type":"Feature","properties":{"osm_id":"1586024819","name":"The Cooperative Food","other":{"shop":"supermarket"}}, "geometry":{"type":"Point","coordinates":[-0.93934,54.56698 ]}},
{ "type":"Feature","properties":{"osm_id":"1686593830","name":"Asda","other":{"addr:city":"Redcar","addr:country":"GB","addr:postcode":"TS10 4NY","addr:street":"Roseberry Road","alt_name":"Asda Redcar","brand":"Asda","brand:wikidata":"Q297410","brand:wikipedia":"en:Asda","contact:facebook":"https:\/\/www.facebook.com\/asda\/","contact:twitter":"@asda","contact:website":"https:\/\/storelocator.asda.com\/north-east\/redcar\/the-courts-roseberry-road","fhrs:id":"273623","old_name":"Netto","operator":"Asda Stores Ltd","shop":"supermarket"}}, "geometry":{"type":"Point","coordinates":[-1.07556,54.60296 ]}},
{ "type":"Feature","properties":{"osm_id":"1736126872","name":"Asda","other":{"addr:city":"Middlesbrough","addr:country":"GB","addr:postcode":"TS3 0DY","addr:street":"Ormesby Road","brand":"Asda","brand:wikidata":"Q297410","brand:wikipedia":"en:Asda","contact:facebook":"https:\/\/www.facebook.com\/asda\/","contact:twitter":"@asda","contact:website":"https:\/\/storelocator.asda.com\/north-east\/middlesbrough\/377-ormesby-road-park-end","fhrs:id":"257670","operator":"Asda Stores Ltd","shop":"supermarket"}}, "geometry":{"type":"Point","coordinates":[-1.19087,54.54916 ]}},
{ "type":"Feature","properties":{"osm_id":"1736142117","name":"Tesco Extra","other":{"brand":"Tesco Extra","brand:wikidata":"Q25172225","brand:wikipedia":"en:Tesco Extra","opening_hours":"Mo-Sa 06:00-24:00; Su 10:00-16:00","shop":"supermarket","website":"https:\/\/www.tesco.com\/store-locator\/middlesbrough\/trunk-rd"}}, "geometry":{"type":"Point","coordinates":[-1.16387,54.57231 ]}},
{ "type":"Feature","properties":{"osm_id":"1793629351","name":"M&S Foodhall","other":{"brand":"M&S Foodhall","brand:wikidata":"Q714491","brand:wikipedia":"en:Marks & Spencer","shop":"supermarket"}}, "geometry":{"type":"Point","coordinates":[-1.21069,54.69071 ]}},
{ "type":"Feature","properties":{"osm_id":"1811207148","name":"The Food Warehouse","other":{"addr:city":"Stockton-on-Tees","addr:postcode":"TS18 2PA","addr:street":"Holme House Road","addr:unit":"C","brand":"The Food Warehouse","brand:wikidata":"Q87263899","fhrs:id":"251029","opening_hours":"Mo-Sa 08:00-20:00; Su 10:00-16:00","shop":"supermarket","source:addr":"FHRS Open Data"}}, "geometry":{"type":"Point","coordinates":[-1.28764,54.57396 ]}},
{ "type":"Feature","properties":{"osm_id":"2430578418","name":"Aldi","other":{"addr:city":"Yarm","addr:housenumber":"9","addr:postcode":"TS15 9XN","addr:street":"Healaugh Park","brand":"ALDI","brand:wikidata":"Q41171672","brand:wikipedia":"en:Aldi","shop":"supermarket"}}, "geometry":{"type":"Point","coordinates":[-1.34405,54.49783 ]}},
{ "type":"Feature","properties":{"osm_id":"2642309313","name":"Co-operative Food","other":{"shop":"supermarket"}}, "geometry":{"type":"Point","coordinates":[-1.15594,54.55769 ]}},
{ "type":"Feature","properties":{"osm_id":"3089584111","name":"M&S Foodhall","other":{"brand":"M&S Foodhall","brand:wikidata":"Q714491","brand:wikipedia":"en:Marks & Spencer","shop":"supermarket"}}, "geometry":{"type":"Point","coordinates":[-1.18199,54.57092 ]}},
{ "type":"Feature","properties":{"osm_id":"3360202730","name":"Premier","other":{"addr:parentstreet":"Laburnum Avenue","addr:postcode":"TS17 8ND","addr:street":"South View","addr:town":"Thornaby","fhrs:id":"251516","opening_hours":"Mo-Su 06:00-22:00","shop":"supermarket","source:addr":"FHRS Open Data"}}, "geometry":{"type":"Point","coordinates":[-1.303,54.54321 ]}},
{ "type":"Feature","properties":{"osm_id":"3554536833","name":"Co-Op","other":{"shop":"supermarket"}}, "geometry":{"type":"Point","coordinates":[-1.24053,54.52563 ]}},
{ "type":"Feature","properties":{"osm_id":"3842351670","name":"The Co-operative","other":{"addr:city":"Darlington","addr:housenumber":"10","addr:postcode":"DL2 2GL","addr:street":"Tillage Green","fhrs:id":"232931","shop":"supermarket","source:addr":"FHRS Open Data"}}, "geometry":{"type":"Point","coordinates":[-1.58723,54.5475 ]}},
{ "type":"Feature","properties":{"osm_id":"3844848041","name":"Heron Foods","other":{"addr:city":"Darlington","addr:country":"GB","addr:housenumber":"16-22","addr:postcode":"DL3 9EH","addr:street":"Cockerton Green","brand":"Heron Foods","brand:wikidata":"Q5743472","brand:wikipedia":"en:Heron Foods","contact:website":"https:\/\/heronfoods.com\/storelocator\/store-details\/cockerton-green","fhrs:id":"700947","shop":"supermarket"}}, "geometry":{"type":"Point","coordinates":[-1.57922,54.53407 ]}},
{ "type":"Feature","properties":{"osm_id":"3872876460","name":"The Co-operative","other":{"addr:city":"Darlington","addr:housenumber":"102-106","addr:postcode":"DL3 9XT","addr:street":"Fulthorpe Avenue","fhrs:id":"232830","shop":"supermarket","source:addr":"FHRS Open Data"}}, "geometry":{"type":"Point","coordinates":[-1.59429,54.52695 ]}},
{ "type":"Feature","properties":{"osm_id":"3881992179","name":"Asda","other":{"addr:city":"Darlington","addr:country":"GB","addr:postcode":"DL1 4DF","addr:street":"Neasham Road","brand":"Asda","brand:wikidata":"Q297410","brand:wikipedia":"en:Asda","contact:facebook":"https:\/\/www.facebook.com\/asda\/","contact:twitter":"@asda","contact:website":"https:\/\/storelocator.asda.com\/north-east\/darlington\/neasham-road","fhrs:id":"232656","operator":"Asda Stores Ltd","shop":"supermarket"}}, "geometry":{"type":"Point","coordinates":[-1.54456,54.52036 ]}},
{ "type":"Feature","properties":{"osm_id":"5473833640","name":"M&S Foodhall","other":{"addr:city":"Guisborough","addr:country":"GB","addr:housename":"Cleveland Gate Retail Park","addr:postcode":"TS14 7FE","addr:street":"Rectory Lane","addr:unit":"4","brand":"M&S Foodhall","brand:wikidata":"Q714491","opening_hours":"Mo-Sa 08:00-21:00, Su 10:00-16:00","operator":"Marks & Spencer","payment:cash":"yes","payment:credit_cards":"yes","payment:debit_cards":"yes","phone":"+44 1287 599261","shop":"supermarket"}}, "geometry":{"type":"Point","coordinates":[-1.05656,54.53157 ]}},
{ "type":"Feature","properties":{"osm_id":"5473848831","name":"B&M Homestore","other":{"addr:city":"Guisborough","addr:country":"GB","addr:housename":"Cleveland Gate Retail Park","addr:postcode":"TS14 7DL","addr:street":"Rectory Lane","addr:unit":"3","opening_hours":"Mo-Sa 08:00-20:00, Su 10:00-16:00","payment:cash":"yes","payment:credit_cards":"yes","payment:debit_cards":"yes","phone":"+44 330 838 9084","shop":"supermarket"}}, "geometry":{"type":"Point","coordinates":[-1.05715,54.53144 ]}},
{ "type":"Feature","properties":{"osm_id":"5589806410","name":"Spar","other":{"brand":"Spar","brand:wikidata":"Q610492","shop":"supermarket"}}, "geometry":{"type":"Point","coordinates":[-1.0286,54.59129 ]}},
{ "type":"Feature","properties":{"osm_id":"6278489865","name":"Spar","other":{"brand":"Spar","brand:wikidata":"Q610492","brand:wikipedia":"en:Spar (retailer)","shop":"supermarket"}}, "geometry":{"type":"Point","coordinates":[-1.26202,54.53782 ]}},
{ "type":"Feature","properties":{"osm_id":"6327096046","name":"Heron Foods","other":{"addr:city":"Billingham","addr:country":"GB","addr:housenumber":"60","addr:postcode":"TS23 2NP","addr:street":"Queensway","brand":"Heron Foods","brand:wikidata":"Q5743472","brand:wikipedia":"en:Heron Foods","contact:website":"https:\/\/heronfoods.com\/storelocator\/store-details\/billingham","fhrs:id":"251049","shop":"supermarket"}}, "geometry":{"type":"Point","coordinates":[-1.29295,54.60708 ]}},
{ "type":"Feature","properties":{"osm_id":"7125926300","other":{"building":"entrance"}}, "geometry":{"type":"Point","coordinates":[-1.55276,54.5378 ]}},
{ "type":"Feature","properties":{"osm_id":"7881857410","name":"Heron Foods","other":{"brand":"Heron Foods","brand:wikidata":"Q5743472","brand:wikipedia":"en:Heron Foods","shop":"supermarket"}}, "geometry":{"type":"Point","coordinates":[-1.05324,54.53554 ]}},
{ "type":"Feature","properties":{"osm_id":"7986157819","name":"Monkey Tree","other":{"operator":"McColls","shop":"supermarket"}}, "geometry":{"type":"Point","coordinates":[-1.33698,54.58076 ]}},
{ "type":"Feature","properties":{"osm_id":"8195443125","name":"The Food Warehouse","other":{"brand":"The Food Warehouse","brand:wikidata":"Q87263899","shop":"supermarket","website":"https:\/\/www.thefoodwarehouse.com\/store-locator\/middlesbrough"}}, "geometry":{"type":"Point","coordinates":[-1.21253,54.57521 ]}},
{ "type":"Feature","properties":{"osm_id":"8832030477","name":"Aldi","other":{"addr:city":"Hartlepool","addr:parentstreet":"Brenda Road","addr:street":"Teesbay Retail Park","brand":"ALDI","brand:wikidata":"Q41171672","brand:wikipedia":"en:Aldi","fhrs:id":"1303367","operator":"Aldi","payment:coins":"yes","payment:notes":"yes","payment:visa_debit":"yes","payment:visa_electron":"yes","shop":"supermarket","source:addr":"interpolation","wheelchair":"yes"}}, "geometry":{"type":"Point","coordinates":[-1.2129,54.6674 ]}},
{ "type":"Feature","properties":{"osm_id":"9110441075","name":"Old Ford Jazz Club","other":{"amenity":"events_venue","music":"jazz"}}, "geometry":{"type":"Point","coordinates":[-0.03304,51.535 ]}},
{ "type":"Feature","properties":{"osm_id":"9210157277","name":"Co-op Food","other":{"brand":"Co-op Food","brand:wikidata":"Q3277439","brand:wikipedia":"en:Co-op Food","operator":"The Co-operative Group","operator:wikidata":"Q117202","operator:wikipedia":"en:The Co-operative Group","shop":"supermarket"}}, "geometry":{"type":"Point","coordinates":[-1.32187,54.52223 ]}},
{ "type":"Feature","properties":{"osm_way_id":"32794062","name":"Fiveways Co-op","building":"retail","shop":"supermarket"},"geometry":{"type":"MultiPolygon","coordinates":[[[[0.84404,51.87852],[0.84403,51.87864],[0.84554,51.87869],[0.84557,51.87837],[0.84451,51.87833],[0.84449,51.87854],[0.84404,51.87852]]]]}},
{ "type":"Feature","properties":{"osm_way_id":"42327375","name":"Asda","building":"yes","shop":"supermarket","other":{"addr:city":"Hartlepool","addr:country":"GB","addr:postcode":"TS24 0XR","addr:street":"Marina Way","alt_name":"ASDA Hartlepool Superstore","brand":"Asda","brand:wikidata":"Q297410","brand:wikipedia":"en:Asda","contact:facebook":"https:\/\/www.facebook.com\/asda\/","contact:twitter":"@asda","contact:website":"https:\/\/storelocator.asda.com\/north-east\/hartlepool\/marina-way","fhrs:id":"259194","opening_hours":"Mo 08:00-24:00; Tu-Fr 00:00-24:00; Sa 00:00-22:00; Su 10:00-16:00","operator":"Asda Stores Ltd","wheelchair":"yes"}}, "geometry":{"type":"MultiPolygon","coordinates":[[[[-1.21092,54.68907],[-1.20981,54.68911],[-1.20967,54.68904],[-1.20947,54.68917],[-1.20958,54.68923],[-1.20962,54.68955],[-1.20957,54.68956],[-1.20963,54.6901],[-1.21103,54.69004],[-1.211,54.68981],[-1.21128,54.6898],[-1.21123,54.6894],[-1.21095,54.68941],[-1.21092,54.68907]]]]}},
{ "type":"Feature","properties":{"osm_way_id":"43472268","name":"Tesco Extra","building":"yes","shop":"supermarket","other":{"brand":"Tesco Extra","brand:wikidata":"Q25172225","brand:wikipedia":"en:Tesco Extra","building:levels":"2","building:roof":"flat","building:use":"shop","fhrs:id":"250782","is_in":"Stockton-on-Tees","opening_hours":"Mo 06:00-24:00; Tu-Sa 00:00-24:00; Su 10:00-16:00","operator":"Tesco","postal_code":"TS21 3LU"}}, "geometry":{"type":"MultiPolygon","coordinates":[[[[-1.35463,54.59294],[-1.35286,54.59389],[-1.35192,54.5933],[-1.35357,54.59242],[-1.35349,54.59237],[-1.35361,54.59231],[-1.35463,54.59294]]]]}},
{ "type":"Feature","properties":{"osm_way_id":"48836649","name":"Sainsbury's","building":"yes","shop":"supermarket","other":{"brand":"Sainsbury's","brand:wikidata":"Q152096","brand:wikipedia":"en:Sainsbury's","opening_hours":"Mo-Fr 08:00-21:00; Sa 08:00-20:00; Su 10:00-16:00","operator":"Sainsburys"}}, "geometry":{"type":"MultiPolygon","coordinates":[[[[-1.33974,54.57238],[-1.33983,54.57238],[-1.33985,54.57252],[-1.3389,54.57256],[-1.33889,54.57252],[-1.33888,54.57243],[-1.33886,54.57229],[-1.33885,54.57222],[-1.33876,54.57223],[-1.33873,54.57205],[-1.33872,54.57196],[-1.33889,54.57195],[-1.33967,54.57191],[-1.33974,54.57238]]]]}},
{ "type":"Feature","properties":{"osm_way_id":"55431708","name":"Asda","building":"supermarket","shop":"supermarket","other":{"addr:city":"Darlington","addr:country":"GB","addr:postcode":"DL1 3RB","addr:street":"Whinbush Way","brand":"Asda","brand:wikidata":"Q297410","brand:wikipedia":"en:Asda","contact:facebook":"https:\/\/www.facebook.com\/asda\/","contact:twitter":"@asda","contact:website":"https:\/\/storelocator.asda.com\/north-east\/darlington\/whinbush-way","fhrs:id":"232446","operator":"Asda Stores Ltd"}}, "geometry":{"type":"MultiPolygon","coordinates":[[[[-1.5235,54.54571],[-1.52374,54.54524],[-1.52378,54.54523],[-1.52395,54.5449],[-1.52368,54.54485],[-1.52366,54.5449],[-1.52323,54.54483],[-1.52317,54.54494],[-1.52264,54.54486],[-1.52252,54.54511],[-1.52268,54.54514],[-1.52249,54.54554],[-1.52249,54.54555],[-1.5235,54.54571]]]]}},
{ "type":"Feature","properties":{"osm_way_id":"59536489","name":"Tesco","building":"yes","shop":"supermarket","other":{"addr:postcode":"TS17 0WA","addr:street":"Myton Road","addr:town":"Ingleby Barwick","brand":"Tesco","brand:wikidata":"Q487494","brand:wikipedia":"en:Tesco","fhrs:id":"250858","operator":"Tesco","source:addr":"FHRS Open Data"}}, "geometry":{"type":"MultiPolygon","coordinates":[[[[-1.31644,54.51709],[-1.31689,54.51704],[-1.31698,54.51724],[-1.31719,54.51793],[-1.31699,54.51795],[-1.31622,54.51803],[-1.31596,54.5173],[-1.31648,54.51724],[-1.31644,54.51709]]]]}},
{ "type":"Feature","properties":{"osm_way_id":"63385984","name":"Morrisons","building":"yes","shop":"supermarket","other":{"addr:city":"Darlington","addr:housenumber":"97","addr:postcode":"DL1 2PY","addr:street":"North Road","branch":"Darlington","brand":"Morrisons","brand:wikidata":"Q922344","brand:wikipedia":"en:Morrisons","fhrs:id":"232417","opening_hours":"Mo-Sa 07:00-22:00; Su 10:00-16:00"}}, "geometry":{"type":"MultiPolygon","coordinates":[[[[-1.55429,54.53807],[-1.55414,54.53827],[-1.55403,54.53824],[-1.55364,54.53869],[-1.55363,54.53872],[-1.55284,54.5385],[-1.55272,54.53865],[-1.5527,54.53868],[-1.5523,54.53856],[-1.55274,54.5379],[-1.55276,54.5378],[-1.55282,54.53735],[-1.55361,54.53739],[-1.55362,54.53739],[-1.55357,54.53777],[-1.55376,54.53778],[-1.55374,54.53801],[-1.55392,54.53805],[-1.55398,54.53799],[-1.55429,54.53807]]]]}},
{ "type":"Feature","properties":{"osm_way_id":"63386021","name":"Sainsbury's","building":"retail","shop":"supermarket","other":{"addr:city":"Darlington","addr:postcode":"DL1 5JG","addr:street":"Victoria Road","branch":"Darlington Superstore","brand":"Sainsbury's","brand:wikidata":"Q152096","brand:wikipedia":"en:Sainsbury's","opening_hours":"Mo-Sa 07:00-22:00; Su 10:00-16:00"}}, "geometry":{"type":"MultiPolygon","coordinates":[[[[-1.55714,54.52039],[-1.55696,54.52062],[-1.55713,54.52067],[-1.55697,54.52086],[-1.5568,54.5208],[-1.55662,54.52104],[-1.55673,54.52107],[-1.55657,54.52132],[-1.55759,54.52157],[-1.5578,54.52131],[-1.55793,54.52116],[-1.55785,54.52113],[-1.55819,54.52067],[-1.55714,54.52039]]]]}},
{ "type":"Feature","properties":{"osm_way_id":"89565588","name":"Sainsbury's","building":"yes","shop":"supermarket","other":{"addr:city":"Guisborough","addr:postcode":"TS14 7DH","addr:street":"Morgan Drive","branch":"Guisborough Superstore","brand":"Sainsbury's","brand:wikidata":"Q152096","opening_hours":"Mo-Sa 08:00-21:00; Su 10:00-16:00","operator":"Sainsbury's"}}, "geometry":{"type":"MultiPolygon","coordinates":[[[[-1.05845,54.53112],[-1.05822,54.5308],[-1.05786,54.53089],[-1.05773,54.5307],[-1.05738,54.53078],[-1.05759,54.53108],[-1.05754,54.53109],[-1.05769,54.5313],[-1.05845,54.53112]]]]}},
{ "type":"Feature","properties":{"osm_way_id":"90618088","name":"Morrisons","building":"yes","shop":"supermarket","other":{"addr:city":"Guisborough","addr:housenumber":"71-81","addr:postcode":"TS14 6AF","addr:street":"Westgate","branch":"Guisborough","brand":"Morrisons","brand:wikidata":"Q922344","brand:wikipedia":"en:Morrisons","opening_hours":"Mo-Sa 07:00-22:00; Su 10:00-16:00","operator":"Morrison Supermarkets PLC"}}, "geometry":{"type":"MultiPolygon","coordinates":[[[[-1.05354,54.53435],[-1.05357,54.53437],[-1.05349,54.5344],[-1.05363,54.53455],[-1.0537,54.53453],[-1.05386,54.53471],[-1.05401,54.53466],[-1.05404,54.5347],[-1.05417,54.53466],[-1.05459,54.53454],[-1.05457,54.53452],[-1.05424,54.53414],[-1.05354,54.53435]]]]}},
{ "type":"Feature","properties":{"osm_way_id":"92723658","name":"Morrisons","building":"supermarket","shop":"supermarket","other":{"addr:city":"Darlington","addr:postcode":"DL1 4PJ","addr:street":"Morton Park","brand":"Morrisons","brand:wikidata":"Q922344","brand:wikipedia":"en:Morrisons","building:levels":"1","building:roof:shape":"flat","building:use":"shop","fhrs:id":"318579","operator":"Morrisons"}}, "geometry":{"type":"MultiPolygon","coordinates":[[[[-1.50148,54.52011],[-1.50213,54.52055],[-1.50207,54.52092],[-1.50134,54.52088],[-1.50132,54.521],[-1.49999,54.52093],[-1.50001,54.52084],[-1.49973,54.52083],[-1.49976,54.52065],[-1.49953,54.52064],[-1.49957,54.52041],[-1.50007,54.52044],[-1.50009,54.52034],[-1.50031,54.52035],[-1.50033,54.52023],[-1.50113,54.52028],[-1.50148,54.52011]]]]}},
{ "type":"Feature","properties":{"osm_way_id":"97538827","name":"Asda","building":"retail","shop":"supermarket","other":{"addr:city":"South Bank","addr:country":"GB","addr:housenumber":"2","addr:postcode":"TS6 6AB","addr:street":"North Street","brand":"Asda","brand:wikidata":"Q297410","brand:wikipedia":"en:Asda","contact:facebook":"https:\/\/www.facebook.com\/asda\/","contact:twitter":"@asda","contact:website":"https:\/\/storelocator.asda.com\/north-east\/middlesbrough\/2-north-street","fhrs:id":"272859","operator":"Asda Stores Ltd"}}, "geometry":{"type":"MultiPolygon","coordinates":[[[[-1.17734,54.58168],[-1.17729,54.58153],[-1.1772,54.58154],[-1.17706,54.58107],[-1.17675,54.5811],[-1.17669,54.58089],[-1.17622,54.58093],[-1.17629,54.58114],[-1.17605,54.58117],[-1.17556,54.58122],[-1.17573,54.58175],[-1.17606,54.58172],[-1.17609,54.58181],[-1.17734,54.58168]]]]}},
{ "type":"Feature","properties":{"osm_way_id":"97704176","name":"Tesco","building":"retail","shop":"supermarket","other":{"addr:city":"Billingham","addr:postcode":"TS23 3TA","addr:street":"Leeholme Road","brand":"Tesco","brand:wikidata":"Q487494","brand:wikipedia":"en:Tesco","building:levels":"1","fhrs:id":"251090","opening_hours":"Tu-Fr 06:00-24:00; Sa 06:00-22:00; Su 10:00-16:00","operator":"Tesco","roof:shape":"flat","source:addr":"FHRS Open Data"}}, "geometry":{"type":"MultiPolygon","coordinates":[[[[-1.27949,54.60706],[-1.27867,54.60747],[-1.27888,54.60761],[-1.27879,54.60765],[-1.27878,54.60773],[-1.27909,54.60793],[-1.27924,54.60786],[-1.27937,54.60794],[-1.2801,54.60757],[-1.28015,54.6076],[-1.28035,54.6075],[-1.28023,54.60743],[-1.28017,54.60746],[-1.27962,54.60709],[-1.27957,54.60711],[-1.27949,54.60706]]]]}},
{ "type":"Feature","properties":{"osm_way_id":"99353488","name":"Asda","building":"yes","shop":"supermarket","other":{"addr:city":"Stockton-On-Tees","addr:country":"GB","addr:housenumber":"5","addr:postcode":"TS18 2DS","addr:street":"Bath Lane","alt_name":"ASDA Stockton Bath Lane Supermarket","brand":"Asda","brand:wikidata":"Q297410","brand:wikipedia":"en:Asda","contact:facebook":"https:\/\/www.facebook.com\/asda\/","contact:twitter":"@asda","contact:website":"https:\/\/storelocator.asda.com\/north-east\/stockton-on-tees\/5-bath-lane","fhrs:id":"250617","operator":"Asda Stores Ltd"}}, "geometry":{"type":"MultiPolygon","coordinates":[[[[-1.3081,54.56801],[-1.30809,54.56799],[-1.30806,54.56786],[-1.30817,54.56786],[-1.3081,54.56765],[-1.30765,54.5677],[-1.30773,54.56797],[-1.30764,54.56798],[-1.30766,54.56805],[-1.30775,54.56804],[-1.3081,54.56801]]]]}},
{ "type":"Feature","properties":{"osm_way_id":"99638654","name":"Aldi","building":"retail","shop":"supermarket","other":{"brand":"ALDI","brand:wikidata":"Q41171672","brand:wikipedia":"en:Aldi","operator":"Aldi"}}, "geometry":{"type":"MultiPolygon","coordinates":[[[[-1.32413,54.58565],[-1.32448,54.58583],[-1.324,54.58614],[-1.32359,54.58593],[-1.32374,54.58583],[-1.3238,54.58586],[-1.32413,54.58565]]]]}},
{ "type":"Feature","properties":{"osm_way_id":"126758720","name":"Sainsbury's","building":"retail","shop":"supermarket","other":{"addr:city":"Middlesbrough","addr:country":"GB","addr:housenumber":"32","addr:postcode":"TS1 1RP","addr:street":"Wilson Street","brand":"Sainsbury's","brand:wikidata":"Q152096","brand:wikipedia":"en:Sainsbury's","building:cladding":"brick","building:levels":"1","building:use":"shop","fhrs:id":"257660","opening_hours":"Mo-Sa 08:00-20:00; Su 11:00-17:00","operator":"Sainsbury's","wheelchair":"yes"}}, "geometry":{"type":"MultiPolygon","coordinates":[[[[-1.24192,54.5766],[-1.24207,54.57655],[-1.24209,54.57656],[-1.24289,54.57626],[-1.24351,54.57681],[-1.24336,54.57687],[-1.24341,54.57691],[-1.24298,54.57707],[-1.24301,54.5771],[-1.24264,54.57724],[-1.24215,54.5768],[-1.24192,54.5766]]]]}},
{ "type":"Feature","properties":{"osm_way_id":"126795643","name":"Lidl","building":"yes","shop":"supermarket","other":{"addr:city":"Middlesbrough","addr:country":"GB","addr:postcode":"TS1 5PR","addr:street":"Newport Road","brand":"Lidl","brand:wikidata":"Q151954","brand:wikipedia":"en:Lidl","fhrs:id":"257455","operator":"Lidl"}}, "geometry":{"type":"MultiPolygon","coordinates":[[[[-1.25386,54.57127],[-1.25329,54.57085],[-1.25313,54.57093],[-1.25321,54.57098],[-1.25301,54.57108],[-1.2533,54.57129],[-1.25324,54.57132],[-1.25344,54.57146],[-1.25386,54.57127]]]]}},
{ "type":"Feature","properties":{"osm_way_id":"131884781","name":"Asda","building":"yes","shop":"supermarket","other":{"addr:city":"Billingham","addr:country":"GB","addr:postcode":"TS23 2LF","addr:street":"The Causeway","brand":"Asda","brand:wikidata":"Q297410","brand:wikipedia":"en:Asda","building:levels":"3","building:use":"shop","contact:facebook":"https:\/\/www.facebook.com\/asda\/","contact:twitter":"@asda","contact:website":"https:\/\/storelocator.asda.com\/north-east\/billingham\/the-causeway","fhrs:id":"251599","opening_hours":"Mo-Sa 07:00-23:00; Su 10:00-16:00","operator":"Asda Stores Ltd","roof:shape":"flat","wheelchair":"yes"}}, "geometry":{"type":"MultiPolygon","coordinates":[[[[-1.29215,54.60793],[-1.29206,54.60819],[-1.29108,54.60807],[-1.2911,54.60801],[-1.29116,54.60785],[-1.29117,54.60782],[-1.29127,54.60783],[-1.29215,54.60793]]]]}},
{ "type":"Feature","properties":{"osm_way_id":"142608981","name":"Sainsbury's","building":"supermarket","shop":"supermarket","other":{"brand":"Sainsbury's","brand:wikidata":"Q152096","brand:wikipedia":"en:Sainsbury's","building:material":"brick","operator":"Sainsbury's","source:geometry":"Bing"}}, "geometry":{"type":"MultiPolygon","coordinates":[[[[-0.97422,54.58362],[-0.97425,54.58387],[-0.97548,54.58383],[-0.97547,54.58372],[-0.97505,54.58374],[-0.97503,54.58358],[-0.97422,54.58362]]]]}},
{ "type":"Feature","properties":{"osm_way_id":"143408709","name":"Lidl","building":"retail","shop":"supermarket","other":{"addr:city":"Guisborough","addr:country":"GB","addr:postcode":"TS14 7LG","addr:street":"Enfield Chase","branch":"Guisborough","brand":"Lidl","brand:wikidata":"Q151954","building:levels":"1","fhrs:id":"273510","nohousenumber":"yes","opening_hours":"Mo-Sa 08:00-21:00; Su 10:00-16:00","operator":"LIDL","source:geometry":"Bing","wheelchair":"yes"}}, "geometry":{"type":"MultiPolygon","coordinates":[[[[-1.0596,54.53017],[-1.05915,54.53029],[-1.05923,54.53039],[-1.05915,54.53041],[-1.05923,54.5305],[-1.0593,54.53048],[-1.05944,54.53065],[-1.05955,54.53062],[-1.05959,54.53068],[-1.05994,54.53058],[-1.0596,54.53017]]]]}},
{ "type":"Feature","properties":{"osm_way_id":"147698919","name":"Asda","building":"retail","shop":"supermarket","other":{"addr:city":"Stockton-On-Tees","addr:country":"GB","addr:postcode":"TS18 2PB","addr:street":"Portrack Lane","alt_name":"ASDA Stockton Supercentre","brand":"Asda","brand:wikidata":"Q297410","brand:wikipedia":"en:Asda","building:levels":"2","building:use":"shop","contact:facebook":"https:\/\/www.facebook.com\/asda\/","contact:twitter":"@asda","contact:website":"https:\/\/storelocator.asda.com\/north-east\/stockton-on-tees\/portrack-lane","fhrs:id":"250548","opening_hours":"Mo 08:00-24:00; Tu-Fr 00:00-24:00; Sa 00:00-22:00; Su 10:00-16:00","operator":"Asda Stores Ltd","roof:shape":"flat","source:addr":"FHRS Open Data"}}, "geometry":{"type":"MultiPolygon","coordinates":[[[[-1.28482,54.57123],[-1.28446,54.57088],[-1.2844,54.5709],[-1.28432,54.57082],[-1.28437,54.5708],[-1.28417,54.57061],[-1.28454,54.57048],[-1.28466,54.57061],[-1.28474,54.57058],[-1.28482,54.57066],[-1.28495,54.57061],[-1.28465,54.57032],[-1.28481,54.57026],[-1.28503,54.57048],[-1.28543,54.57034],[-1.28551,54.57042],[-1.28555,54.5704],[-1.28564,54.57049],[-1.2856,54.57051],[-1.28595,54.57084],[-1.28482,54.57123]]]]}},
{ "type":"Feature","properties":{"osm_way_id":"152202811","name":"Morrisons","building":"retail","shop":"supermarket","other":{"addr:city":"Thornaby","addr:postcode":"TS17 7BP","addr:street":"Newmarket Avenue","alt_name":"Morrisons Stockton","brand":"Morrisons","brand:wikidata":"Q922344","brand:wikipedia":"en:Morrisons","building:levels":"1","building:use":"shop","designation":"shopping=supermarket","opening_hours":"Mo-Sa 08:00-21:00;Su 11:00-17:00","roof:shape":"flat","website":"https:\/\/www.morrisons.co.uk\/"}}, "geometry":{"type":"MultiPolygon","coordinates":[[[[-1.27505,54.55753],[-1.27524,54.55765],[-1.27569,54.55744],[-1.27632,54.55788],[-1.27644,54.55782],[-1.27661,54.55795],[-1.2766,54.55801],[-1.27666,54.55801],[-1.27665,54.55809],[-1.27659,54.55809],[-1.27659,54.55815],[-1.27632,54.55828],[-1.27625,54.55824],[-1.27602,54.55834],[-1.27592,54.55825],[-1.27564,54.55837],[-1.27474,54.55771],[-1.27475,54.55766],[-1.27505,54.55753]]]]}},
{ "type":"Feature","properties":{"osm_way_id":"158954009","name":"Sainsbury's","building":"yes","shop":"supermarket","other":{"addr:city":"Yarm","addr:housenumber":"88-92","addr:postcode":"TS15 9AP","addr:street":"High Street","brand":"Sainsbury's","brand:wikidata":"Q152096","brand:wikipedia":"en:Sainsbury's","fhrs:id":"251182","source:addr":"FHRS Open Data"}}, "geometry":{"type":"MultiPolygon","coordinates":[[[[-1.35492,54.51037],[-1.35474,54.5101],[-1.35405,54.51025],[-1.35423,54.51052],[-1.35492,54.51037]]]]}},
{ "type":"Feature","properties":{"osm_way_id":"163357463","name":"ALDI","building":"yes","shop":"supermarket","other":{"addr:city":"Hartlepool","addr:postcode":"TS26 0EN","addr:street":"Dunston Road","alt_name":"ALDI Hartlepool","brand":"ALDI","brand:wikidata":"Q41171672","brand:wikipedia":"en:Aldi"}}, "geometry":{"type":"MultiPolygon","coordinates":[[[[-1.24244,54.69194],[-1.2425,54.69192],[-1.24258,54.692],[-1.24294,54.69184],[-1.24285,54.69177],[-1.24244,54.69143],[-1.24209,54.69158],[-1.24238,54.69181],[-1.24232,54.69184],[-1.24244,54.69194]]]]}},
{ "type":"Feature","properties":{"osm_way_id":"167809803","name":"Morrisons","building":"yes","shop":"supermarket","other":{"addr:city":"Hartlepool","addr:postcode":"TS24 8BZ","addr:street":"Clarence Road","alt_name":"Morrisons Hartlepool","brand":"Morrisons","brand:wikidata":"Q922344","brand:wikipedia":"en:Morrisons","building:levels":"1","fhrs:id":"259634","opening_hours":"Mo-Sa 07:00-22:00; Su 10:00-16:00","operator":"Morrisons","wheelchair":"yes"}}, "geometry":{"type":"MultiPolygon","coordinates":[[[[-1.21319,54.68764],[-1.21303,54.68764],[-1.21304,54.68768],[-1.21308,54.6882],[-1.21309,54.68834],[-1.21335,54.68834],[-1.21337,54.68843],[-1.2138,54.68843],[-1.21379,54.68847],[-1.21461,54.68848],[-1.21462,54.68831],[-1.21433,54.6883],[-1.21432,54.68778],[-1.21411,54.68777],[-1.21411,54.68764],[-1.21319,54.68764]]]]}},
{ "type":"Feature","properties":{"osm_way_id":"168773767","name":"Tesco Extra","building":"supermarket","shop":"supermarket","other":{"brand":"Tesco Extra","brand:wikidata":"Q25172225","brand:wikipedia":"en:Tesco Extra","internet_access":"wlan","operator":"Tesco","roof:shape":"flat","website":"https:\/\/www.tesco.com\/store-locator\/hartlepool\/belle-vue-way","wheelchair":"yes"}}, "geometry":{"type":"MultiPolygon","coordinates":[[[[-1.21084,54.67716],[-1.20996,54.67727],[-1.20998,54.67732],[-1.20925,54.67741],[-1.20922,54.67733],[-1.20891,54.67736],[-1.20889,54.6773],[-1.20853,54.67735],[-1.20825,54.67656],[-1.2087,54.67651],[-1.20873,54.67658],[-1.20917,54.67653],[-1.20925,54.67673],[-1.20936,54.67672],[-1.20934,54.67668],[-1.20992,54.67661],[-1.20989,54.67653],[-1.21021,54.67649],[-1.21016,54.67633],[-1.21048,54.67629],[-1.21057,54.67656],[-1.21063,54.67656],[-1.21084,54.67716]]]]}},
{ "type":"Feature","properties":{"osm_way_id":"171486732","name":"Lidl Hartlepool","building":"yes","shop":"supermarket","other":{"addr:city":"Hartlepool","addr:postcode":"TS24 8PJ","addr:street":"Jesmond Gardens","brand":"Lidl","brand:wikidata":"Q151954","brand:wikipedia":"en:Lidl","fhrs:id":"259256","source:addr":"FHRS Open Data"}}, "geometry":{"type":"MultiPolygon","coordinates":[[[[-1.22995,54.69959],[-1.2294,54.69958],[-1.22936,54.69895],[-1.2297,54.69895],[-1.22994,54.69895],[-1.22995,54.69959]]]]}},
{ "type":"Feature","properties":{"osm_way_id":"184043888","name":"Aldi","building":"yes","shop":"supermarket","other":{"brand":"ALDI","brand:wikidata":"Q41171672","brand:wikipedia":"en:Aldi","designation":"supermarket","operator":"Aldi"}}, "geometry":{"type":"MultiPolygon","coordinates":[[[[-1.32092,54.56118],[-1.32097,54.56168],[-1.3205,54.5617],[-1.32049,54.56161],[-1.32058,54.56161],[-1.32053,54.5612],[-1.32092,54.56118]]]]}},
{ "type":"Feature","properties":{"osm_way_id":"187089532","name":"Lidl","building":"yes","shop":"supermarket","other":{"addr:city":"Darlington","addr:postcode":"DL1 1BA","addr:street":"Yarm Road","brand":"Lidl","brand:wikidata":"Q151954","brand:wikipedia":"en:Lidl","fhrs:id":"233105"}}, "geometry":{"type":"MultiPolygon","coordinates":[[[[-1.52529,54.52326],[-1.5255,54.52272],[-1.52494,54.52264],[-1.52487,54.5228],[-1.52497,54.52282],[-1.52484,54.52314],[-1.52513,54.52318],[-1.52511,54.52324],[-1.52529,54.52326]]]]}},
{ "type":"Feature","properties":{"osm_way_id":"187089534","name":"Aldi","building":"yes","shop":"supermarket","other":{"addr:city":"Darlington","addr:housenumber":"255","addr:postcode":"DL1 1BA","addr:street":"Yarm Road","brand":"ALDI","brand:wikidata":"Q41171672","brand:wikipedia":"en:Aldi","fhrs:id":"232218"}}, "geometry":{"type":"MultiPolygon","coordinates":[[[[-1.5259,54.52302],[-1.52551,54.52297],[-1.52527,54.52354],[-1.52552,54.52357],[-1.52554,54.52351],[-1.52569,54.52354],[-1.5259,54.52302]]]]}},
{ "type":"Feature","properties":{"osm_way_id":"232073880","name":"Asda","building":"retail","shop":"supermarket","other":{"addr:city":"Skelton-In-Cleveland","addr:country":"GB","addr:postcode":"TS12 2LQ","addr:street":"Pheasant Fields Lane","brand":"Asda","brand:wikidata":"Q297410","brand:wikipedia":"en:Asda","contact:facebook":"https:\/\/www.facebook.com\/asda\/","contact:twitter":"@asda","contact:website":"https:\/\/storelocator.asda.com\/north-east\/saltburn-by-the-sea\/pheasant-fields-lane-skelton","fhrs:id":"547743","operator":"Asda Stores Ltd"}}, "geometry":{"type":"MultiPolygon","coordinates":[[[[-0.96612,54.56801],[-0.9652,54.56787],[-0.96549,54.56721],[-0.96559,54.56723],[-0.96566,54.56707],[-0.96572,54.56708],[-0.96568,54.56716],[-0.96585,54.56718],[-0.96589,54.56711],[-0.96625,54.56716],[-0.96618,54.56733],[-0.96624,54.56734],[-0.9663,54.56738],[-0.96625,54.56749],[-0.96635,54.5675],[-0.96612,54.56801]]]]}},
{ "type":"Feature","properties":{"osm_way_id":"301016337","name":"Asda","building":"retail","shop":"supermarket","other":{"addr:city":"Thornaby","addr:country":"GB","addr:postcode":"TS17 9EN","addr:street":"Allensway","alt_name":"Asda Thornaby","brand":"Asda","brand:wikidata":"Q297410","brand:wikipedia":"en:Asda","contact:facebook":"https:\/\/www.facebook.com\/asda\/","contact:twitter":"@asda","fhrs:id":"251019","operator":"Asda Stores Ltd","website":"https:\/\/storelocator.asda.com\/north-east\/stockton-on-tees\/allensway-thornaby"}}, "geometry":{"type":"MultiPolygon","coordinates":[[[[-1.29142,54.53813],[-1.29137,54.53803],[-1.29111,54.5375],[-1.29043,54.53762],[-1.29041,54.53759],[-1.28997,54.53766],[-1.28988,54.53749],[-1.28942,54.53756],[-1.28952,54.53776],[-1.28948,54.53777],[-1.28949,54.5378],[-1.2895,54.53782],[-1.28933,54.53785],[-1.28956,54.53833],[-1.28961,54.53843],[-1.29035,54.53831],[-1.29033,54.53828],[-1.29068,54.53822],[-1.2907,54.53825],[-1.29142,54.53813]]]]}},
{ "type":"Feature","properties":{"osm_way_id":"301016338","name":"LIDL","building":"retail","shop":"supermarket","other":{"addr:housename":"Grace House","addr:place":"Pavilion Shopping Centre","addr:postcode":"TS17 9FF","addr:town":"Thornaby","brand":"Lidl","brand:wikidata":"Q151954","building:levels":"1","fhrs:id":"250963","roof:shape":"flat","source:addr":"FHRS Open Data"}}, "geometry":{"type":"MultiPolygon","coordinates":[[[[-1.29194,54.53984],[-1.29225,54.53978],[-1.29239,54.53976],[-1.29254,54.54006],[-1.29261,54.54005],[-1.29264,54.54011],[-1.29257,54.54012],[-1.29267,54.54033],[-1.29221,54.5404],[-1.29194,54.53984]]]]}},
{ "type":"Feature","properties":{"osm_way_id":"304199640","name":"Tesco Extra","shop":"supermarket","other":{"addr:city":"Middlesborough","addr:housename":"Parkway Centre","addr:postcode":"TS8 0TJ","alt_name":"Tesco Middlesbrough Coulby Newham Extra","brand":"Tesco Extra","brand:wikidata":"Q25172225","opening_hours":"Mo-Sa 06:30-22:30; Su 10:00-16:00"}}, "geometry":{"type":"MultiPolygon","coordinates":[[[[-1.21613,54.52503],[-1.21593,54.5249],[-1.21592,54.52486],[-1.21546,54.52485],[-1.21506,54.52485],[-1.21494,54.52476],[-1.21487,54.52479],[-1.21487,54.52485],[-1.21482,54.52485],[-1.2148,54.52552],[-1.21477,54.52561],[-1.21494,54.52559],[-1.21616,54.52561],[-1.21616,54.52541],[-1.21623,54.52541],[-1.21624,54.52504],[-1.21613,54.52503]]]]}},
{ "type":"Feature","properties":{"osm_way_id":"305999356","name":"Morrisons","building":"yes","shop":"supermarket","other":{"addr:city":"Middlesborough","addr:housename":"Berwick Hills Centre","addr:postcode":"TS3 7RP","addr:street":"Ormesby Road","brand":"Morrisons","brand:wikidata":"Q922344","brand:wikipedia":"en:Morrisons","website":"https:\/\/my.morrisons.com\/storefinder\/128"}}, "geometry":{"type":"MultiPolygon","coordinates":[[[[-1.20354,54.55929],[-1.20485,54.55977],[-1.2047,54.55991],[-1.20467,54.55989],[-1.20429,54.56024],[-1.20384,54.56007],[-1.20373,54.56017],[-1.20312,54.55994],[-1.20307,54.55998],[-1.20279,54.55987],[-1.20298,54.5597],[-1.20306,54.55973],[-1.20354,54.55929]]]]}},
{ "type":"Feature","properties":{"osm_way_id":"325217128","name":"ALDI","building":"retail","shop":"supermarket","other":{"brand":"ALDI","brand:wikidata":"Q41171672","brand:wikipedia":"en:Aldi","building:levels":"1","roof:shape":"gabled","wheelchair":"yes"}}, "geometry":{"type":"MultiPolygon","coordinates":[[[[-1.22223,54.55927],[-1.22205,54.559],[-1.2213,54.55917],[-1.22147,54.55944],[-1.22223,54.55927]]]]}},
{ "type":"Feature","properties":{"osm_way_id":"475709531","name":"Iceland","building":"yes","shop":"supermarket","other":{"addr:city":"Guisborough","addr:housename":"Cleveland Gate Retail Park","addr:housenumber":"Unit 2","addr:postcode":"TS14 7FE","addr:street":"Spring Wood Road","branch":"Guisborough","brand":"Iceland","brand:wikidata":"Q721810","opening_hours":"Mo-Sa 08:00-20:00; Su 10:00-16:00"}}, "geometry":{"type":"MultiPolygon","coordinates":[[[[-1.05457,54.53185],[-1.05528,54.53166],[-1.05512,54.53145],[-1.0544,54.53164],[-1.05457,54.53185]]]]}},
{ "type":"Feature","properties":{"osm_way_id":"475709532","name":"ALDI","building":"yes","shop":"supermarket","other":{"addr:city":"Guisborough","addr:housenumber":"Unit 1","addr:postcode":"TS14 7FE","addr:street":"Hillview Road","branch":"Guisborough","brand":"ALDI","brand:wikidata":"Q41171672","brand:wikipedia":"en:Aldi","opening_hours":"Mo-Sa 08:00-21:00; Su 10:00-16:00"}}, "geometry":{"type":"MultiPolygon","coordinates":[[[[-1.05545,54.53187],[-1.05528,54.53166],[-1.05457,54.53185],[-1.05471,54.53203],[-1.05474,54.53206],[-1.05545,54.53187]]]]}},
{ "type":"Feature","properties":{"osm_way_id":"537391847","name":"Queensgate Lidl","building":"retail","shop":"supermarket","other":{"addr:city":"Stockton-On-Tees","addr:postcode":"TS18 3RU","addr:street":"Yarm Road","brand":"Lidl","brand:wikidata":"Q151954","brand:wikipedia":"en:Lidl","fhrs:id":"1110823","layer":"1","source:addr":"FHRS Open Data"}}, "geometry":{"type":"MultiPolygon","coordinates":[[[[-1.33287,54.54939],[-1.33185,54.54911],[-1.33204,54.54883],[-1.33294,54.54906],[-1.33299,54.54901],[-1.3332,54.54907],[-1.33306,54.54925],[-1.33298,54.54923],[-1.33287,54.54939]]]]}},
{ "type":"Feature","properties":{"osm_way_id":"552144003","name":"Spar","building":"yes","shop":"supermarket","other":{"addr:city":"Stockton-On-Tees","addr:postcode":"TS19 8JZ","addr:street":"High Newham Road","brand":"Spar","brand:wikidata":"Q610492","brand:wikipedia":"en:Spar (retailer)","fhrs:id":"250536","source:addr":"FHRS Open Data"}}, "geometry":{"type":"MultiPolygon","coordinates":[[[[-1.35112,54.58333],[-1.35087,54.58333],[-1.35075,54.58323],[-1.35098,54.58318],[-1.35112,54.58318],[-1.35112,54.58333]]]]}},
{ "type":"Feature","properties":{"osm_way_id":"573259894","name":"Lidl","building":"retail","shop":"supermarket","other":{"addr:city":"Middlesbrough","addr:country":"GB","addr:postcode":"TS3 8AL","addr:street":"Cargo Fleet Lane","brand":"Lidl","brand:wikidata":"Q151954","brand:wikipedia":"en:Lidl","fhrs:id":"257544","opening_hours":"Mo-Sa 08:00-22:00; Su 10:00-16:00","operator":"Lidl"}}, "geometry":{"type":"MultiPolygon","coordinates":[[[[-1.20071,54.56946],[-1.20027,54.56962],[-1.20029,54.56908],[-1.20045,54.56922],[-1.20052,54.56919],[-1.20061,54.56927],[-1.20052,54.56929],[-1.20071,54.56946]]]]}},
{ "type":"Feature","properties":{"osm_way_id":"583761114","name":"Aldi","building":"yes","shop":"supermarket","other":{"addr:city":"Middlesborough","addr:postcode":"TS8 0TW","addr:street":"Dalby Way","brand":"ALDI","brand:wikidata":"Q41171672","brand:wikipedia":"en:Aldi","opening_hours":"Mo-Sa 08:00-22:00; Su 10:00-16:00"}}, "geometry":{"type":"MultiPolygon","coordinates":[[[[-1.21674,54.52208],[-1.21672,54.52263],[-1.21661,54.52262],[-1.21661,54.52265],[-1.21627,54.52265],[-1.21627,54.52244],[-1.21631,54.52244],[-1.21632,54.52212],[-1.2166,54.52212],[-1.2166,54.52208],[-1.21674,54.52208]]]]}},
{ "type":"Feature","properties":{"osm_way_id":"604097848","name":"M&S Foodhall","building":"retail","shop":"supermarket","other":{"brand":"M&S Foodhall","brand:wikidata":"Q714491","brand:wikipedia":"en:Marks & Spencer"}}, "geometry":{"type":"MultiPolygon","coordinates":[[[[-1.58743,54.54862],[-1.58758,54.5489],[-1.58742,54.54893],[-1.58744,54.54898],[-1.58723,54.54902],[-1.58718,54.54892],[-1.58708,54.54894],[-1.58696,54.54871],[-1.58743,54.54862]]]]}},
{ "type":"Feature","properties":{"osm_way_id":"604097855","name":"Aldi","building":"supermarket","shop":"supermarket","other":{"addr:city":"Darlington","brand":"ALDI","brand:wikidata":"Q41171672","brand:wikipedia":"en:Aldi"}}, "geometry":{"type":"MultiPolygon","coordinates":[[[[-1.58772,54.54789],[-1.58723,54.54797],[-1.58749,54.54847],[-1.58798,54.54838],[-1.58782,54.54809],[-1.58791,54.54807],[-1.58785,54.54796],[-1.58777,54.54798],[-1.58772,54.54789]]]]}},
{ "type":"Feature","properties":{"osm_way_id":"640290908","name":"Lidl","building":"retail","shop":"supermarket","other":{"addr:city":"Hartlepool","addr:housenumber":"11","addr:parentstreet":"Brenda Road","addr:postcode":"TS25 1XJ","addr:street":"Teesbay Retail Park","brand":"Lidl","brand:wikidata":"Q151954","brand:wikipedia":"en:Lidl","building:levels":"1","fhrs:id":"1089355","opening_hours":"Mo-Sa 08:00-22:00; Su 10:00-16:00","source:addr":"FHRS Open Data"}}, "geometry":{"type":"MultiPolygon","coordinates":[[[[-1.20819,54.66541],[-1.20707,54.66552],[-1.20715,54.66579],[-1.20795,54.66571],[-1.20796,54.66575],[-1.20828,54.66572],[-1.20819,54.66541]]]]}},
{ "type":"Feature","properties":{"osm_way_id":"675493379","name":"Heron Foods","building":"yes","shop":"supermarket","other":{"addr:city":"Redcar","addr:country":"GB","addr:housenumber":"101","addr:postcode":"TS10 3DE","addr:street":"High Street","brand":"Heron Foods","brand:wikidata":"Q5743472","brand:wikipedia":"en:Heron Foods","contact:website":"https:\/\/heronfoods.com\/storelocator\/store-details\/redcar","fhrs:id":"273726"}}, "geometry":{"type":"MultiPolygon","coordinates":[[[[-1.06265,54.61801],[-1.06268,54.61796],[-1.06275,54.61781],[-1.06251,54.61777],[-1.06242,54.61798],[-1.06265,54.61801]]]]}},
{ "type":"Feature","properties":{"osm_way_id":"676301817","name":"Tesco Redcar Superstore","building":"yes","shop":"supermarket","other":{"addr:city":"Redcar","addr:postcode":"TS10 2AA","addr:street":"West Dyke Road","brand":"Tesco","brand:wikidata":"Q487494","brand:wikipedia":"en:Tesco","contact:website":"https:\/\/www.tesco.com\/store-locator\/redcar\/west-dyke-rd","operator":"Tesco"}}, "geometry":{"type":"MultiPolygon","coordinates":[[[[-1.06587,54.61383],[-1.06581,54.61352],[-1.06567,54.61352],[-1.06563,54.61324],[-1.06482,54.61329],[-1.06484,54.61339],[-1.06469,54.6134],[-1.0647,54.61343],[-1.06464,54.61343],[-1.06474,54.6139],[-1.06587,54.61383]]]]}},
{ "type":"Feature","properties":{"osm_way_id":"690921019","name":"Aldi","shop":"supermarket","other":{"addr:street":"The Causeway","brand":"ALDI","brand:wikidata":"Q41171672","brand:wikipedia":"en:Aldi","opening_hours":"Mo-Sa 08:00-22:00; Su 10:00-16:00","payment:cash":"yes","wheelchair":"yes"}}, "geometry":{"type":"MultiPolygon","coordinates":[[[[-1.28954,54.6079],[-1.28971,54.60741],[-1.28932,54.60737],[-1.28921,54.60766],[-1.2891,54.60764],[-1.28907,54.60771],[-1.28918,54.60773],[-1.28914,54.60785],[-1.28954,54.6079]]]]}},
{ "type":"Feature","properties":{"osm_way_id":"729004263","name":"Lidl","building":"retail","shop":"supermarket","other":{"addr:city":"Norton","addr:country":"GB","addr:postcode":"TS19 9NA","addr:street":"Junction Road","brand":"Lidl","brand:wikidata":"Q151954","brand:wikipedia":"en:Lidl","fhrs:id":"1048564","roof:shape":"flat"}}, "geometry":{"type":"MultiPolygon","coordinates":[[[[-1.34367,54.59348],[-1.34354,54.59321],[-1.34249,54.59338],[-1.34257,54.59355],[-1.34249,54.59356],[-1.34253,54.59366],[-1.34367,54.59348]]]]}},
{ "type":"Feature","properties":{"osm_way_id":"748871095","name":"Tesco","building":"yes","shop":"supermarket","other":{"addr:city":"Stockton-on-Tees","addr:postcode":"TS16 0PE","addr:street":"Urlay Nook Road","addr:suburb":"Eaglescliffe","brand":"Tesco","brand:wikidata":"Q487494","brand:wikipedia":"en:Tesco","fhrs:id":"250531","opening_hours":"Mo-Sa 08:00-22:00; Su 10:00-16:00","operator":"Tesco"}}, "geometry":{"type":"MultiPolygon","coordinates":[[[[-1.35885,54.51765],[-1.35842,54.51777],[-1.35839,54.51773],[-1.35806,54.51783],[-1.35809,54.51786],[-1.35799,54.51789],[-1.35841,54.51838],[-1.35873,54.51829],[-1.35863,54.51818],[-1.35859,54.51819],[-1.35851,54.5181],[-1.35909,54.51794],[-1.35885,54.51765]]]]}},
{ "type":"Feature","properties":{"osm_way_id":"760403445","name":"Aldi","building":"yes","shop":"supermarket","other":{"brand":"ALDI","brand:wikidata":"Q41171672","brand:wikipedia":"en:Aldi"}}, "geometry":{"type":"MultiPolygon","coordinates":[[[[-1.55203,54.53518],[-1.55129,54.5349],[-1.55119,54.53499],[-1.55126,54.53501],[-1.55109,54.53517],[-1.55176,54.53542],[-1.55203,54.53518]]]]}},
{ "type":"Feature","properties":{"osm_way_id":"841502670","name":"Aldi","building":"retail","shop":"supermarket","other":{"addr:city":"Skelton-In-Cleveland","addr:postcode":"TS12 2ZL","addr:street":"Pheasant Fields Lane","brand":"ALDI","brand:wikidata":"Q41171672","brand:wikipedia":"en:Aldi","opening_hours":"Mo-Sa 08:00-22:00; Su 10:00-16:00","opening_hours:covid19":"same","payment:cash":"yes","payment:credit_cards":"yes","payment:debit_cards":"yes"}}, "geometry":{"type":"MultiPolygon","coordinates":[[[[-0.96561,54.56691],[-0.96476,54.56679],[-0.96485,54.56658],[-0.9648,54.56657],[-0.96483,54.5665],[-0.96522,54.56656],[-0.96524,54.56652],[-0.96547,54.56655],[-0.96545,54.56659],[-0.96573,54.56663],[-0.96561,54.56691]]]]}},
{ "type":"Feature","properties":{"osm_way_id":"859677060","name":"Aldi","building":"yes","shop":"supermarket","other":{"addr:city":"Middlesbrough","addr:housenumber":"106a","addr:postcode":"TS1 5JF","addr:street":"Newport Road","brand":"ALDI","brand:wikidata":"Q41171672","brand:wikipedia":"en:Aldi","fhrs:id":"257445","source:addr":"FHRS Open Data"}}, "geometry":{"type":"MultiPolygon","coordinates":[[[[-1.24403,54.57507],[-1.24357,54.57469],[-1.24338,54.57476],[-1.24334,54.57473],[-1.24317,54.5748],[-1.24366,54.57522],[-1.24403,54.57507]]]]}},
{ "type":"Feature","properties":{"osm_way_id":"921513181","name":"Lidl","building":"retail","shop":"supermarket","other":{"addr:city":"Stockton-On-Tees","addr:country":"GB","addr:postcode":"TS18 3AA","addr:street":"Tower Street","brand":"Lidl","brand:wikidata":"Q151954","brand:wikipedia":"en:Lidl","fhrs:id":"1377180","start_date":"2021-02-18"}}, "geometry":{"type":"MultiPolygon","coordinates":[[[[-1.31245,54.56066],[-1.31236,54.56007],[-1.3123,54.56007],[-1.3123,54.56007],[-1.3123,54.5601],[-1.31179,54.56012],[-1.31181,54.56028],[-1.31185,54.56057],[-1.31193,54.56056],[-1.31194,54.56064],[-1.31225,54.56063],[-1.31226,54.56067],[-1.31245,54.56066]]]]}},
{ "type":"Feature","properties":{"osm_way_id":"972352361","name":"Aldi","building":"retail","shop":"supermarket","other":{"addr:city":"Eston, Middlesbrough","addr:street":"Trunk Road","brand":"ALDI","brand:wikidata":"Q41171672","brand:wikipedia":"en:Aldi","contact:website":"https:\/\/www.aldi.co.uk\/store\/s-uk-E1398"}}, "geometry":{"type":"MultiPolygon","coordinates":[[[[-1.15976,54.57289],[-1.16017,54.57331],[-1.15975,54.57345],[-1.15961,54.57331],[-1.15953,54.57334],[-1.15943,54.57323],[-1.15951,54.57321],[-1.15933,54.57303],[-1.15976,54.57289]]]]}},
{ "type":"Feature","properties":{"osm_way_id":"1015039294","name":"Premier express","building":"retail","shop":"supermarket","other":{"addr:street":"York Road"}}, "geometry":{"type":"MultiPolygon","coordinates":[[[[-1.21674,54.67868],[-1.21675,54.67873],[-1.2166,54.67874],[-1.21659,54.67868],[-1.21674,54.67868]]]]}}
]
}
