{
"type": "FeatureCollection",
"features": [
{ "type":"Feature","properties":{"osm_way_id":"92792393","name":"Argos Distribution Centre","building":"commercial","other":{"addr:city":"Darlington","addr:postcode":"DL3 0UR","addr:street":"Roundhouse Road","phone":"+44 1325 345044"}}, "geometry":{"type":"MultiPolygon","coordinates":[[[[-1.571,54.55199],[-1.57091,54.55187],[-1.5714,54.55175],[-1.57149,54.55187],[-1.57389,54.55126],[-1.57407,54.55151],[-1.5743,54.55145],[-1.57496,54.55232],[-1.57473,54.55238],[-1.57482,54.5525],[-1.57239,54.55311],[-1.57249,54.55324],[-1.5718,54.55342],[-1.5717,54.55329],[-1.5689,54.55399],[-1.56798,54.55275],[-1.571,54.55199]]]]}},
{ "type":"Feature","properties":{"osm_way_id":"96053697","name":"Tesco Distribution Centre","landuse":"commercial","other":{"operator":"Tesco"}}, "geometry":{"type":"MultiPolygon","coordinates":[[[[-1.13969,54.60546],[-1.13487,54.60814],[-1.14599,54.61188],[-1.14749,54.61038],[-1.14787,54.60978],[-1.14792,54.60966],[-1.14785,54.6094],[-1.14767,54.60924],[-1.1465,54.60883],[-1.14616,54.60859],[-1.1438,54.60779],[-1.14331,54.60767],[-1.14293,54.60749],[-1.14288,54.60716],[-1.14163,54.60666],[-1.13969,54.60546]]]]}},
{ "type":"Feature","properties":{"osm_way_id":"152946814","name":"Asda Distribution Centre","landuse":"commercial"},"geometry":{"type":"MultiPolygon","coordinates":[[[[-1.13519,54.60742],[-1.13302,54.60612],[-1.13522,54.60487],[-1.13708,54.60381],[-1.13923,54.60512],[-1.13519,54.60742]]]]}}
]
}
