{
"type": "FeatureCollection",
"features": [
{ "type":"Feature","properties":{"osm_way_id":"23019423","name":"S. P. & C. Morgan Autosalvage","building":"warehouse","shop":"car","other":{"service":"parts","url":"http:\/\/www.morgan-autosalvage.co.uk\/"}}, "geometry":{"type":"MultiPolygon","coordinates":[[[[-1.01176,54.53367],[-1.01225,54.5337],[-1.01224,54.53377],[-1.01223,54.53382],[-1.01174,54.53379],[-1.01174,54.53377],[-1.01176,54.53367]]]]}},
{ "type":"Feature","properties":{"osm_way_id":"23243474","building":"warehouse"},"geometry":{"type":"MultiPolygon","coordinates":[[[[-1.0136,54.53348],[-1.01358,54.53361],[-1.01328,54.53359],[-1.01329,54.53351],[-1.0133,54.53346],[-1.0136,54.53348]]]]}},
{ "type":"Feature","properties":{"osm_way_id":"41766822","name":"Automotive Steel Store","building":"warehouse","other":{"operator":"AV Dawson"}}, "geometry":{"type":"MultiPolygon","coordinates":[[[[-1.24304,54.5829],[-1.24063,54.58482],[-1.24072,54.58486],[-1.24096,54.58496],[-1.2411,54.58502],[-1.24352,54.5831],[-1.24304,54.5829]]]]}},
{ "type":"Feature","properties":{"osm_way_id":"59833104","name":"Makro","building":"warehouse","shop":"wholesale","other":{"addr:postcode":"TS18 3TG","addr:street":"Westland Way","brand":"Makro","brand:wikidata":"Q704606","brand:wikipedia":"en:Makro","website":"https:\/\/www.makro.co.uk\/teesside-store.html"}}, "geometry":{"type":"MultiPolygon","coordinates":[[[[-1.32439,54.54731],[-1.32499,54.54788],[-1.32355,54.54839],[-1.32295,54.54782],[-1.32439,54.54731]]]]}},
{ "type":"Feature","properties":{"osm_way_id":"92749049","name":"Darlington Delivery Office","amenity":"post_depot","building":"warehouse","other":{"addr:city":"Darlington","addr:postcode":"DL1 1AA","addr:street":"St Cuthberts Way","alt_name":"Darlington Mail Centre","operator":"Royal Mail"}}, "geometry":{"type":"MultiPolygon","coordinates":[[[[-1.55112,54.52252],[-1.55032,54.52239],[-1.55058,54.52181],[-1.55139,54.52193],[-1.55112,54.52252]]]]}},
{ "type":"Feature","properties":{"osm_way_id":"201351696","name":"Carter Steel","building":"warehouse","other":{"designation":"warehouse=steel stockists"}}, "geometry":{"type":"MultiPolygon","coordinates":[[[[-1.33558,54.54527],[-1.3346,54.54506],[-1.33477,54.5448],[-1.33574,54.54502],[-1.33558,54.54527]]]]}},
{ "type":"Feature","properties":{"osm_way_id":"472197216","name":"Clipper Logistics","building":"warehouse"},"geometry":{"type":"MultiPolygon","coordinates":[[[[-1.30836,54.63309],[-1.30863,54.63422],[-1.3049,54.63452],[-1.30463,54.63339],[-1.30836,54.63309]]]]}},
{ "type":"Feature","properties":{"osm_way_id":"552837107","building":"warehouse","other":{"addr:street":"Tofts Farm Road East"}}, "geometry":{"type":"MultiPolygon","coordinates":[[[[-1.20384,54.65096],[-1.2032,54.65118],[-1.20295,54.65094],[-1.20359,54.65071],[-1.20384,54.65096]]]]}},
{ "type":"Feature","properties":{"osm_way_id":"552837108","building":"warehouse","other":{"addr:street":"Tofts Farm Road East"}}, "geometry":{"type":"MultiPolygon","coordinates":[[[[-1.20343,54.65056],[-1.20279,54.65078],[-1.20254,54.65054],[-1.20318,54.65032],[-1.20343,54.65056]]]]}},
{ "type":"Feature","properties":{"osm_way_id":"552837109","building":"warehouse","other":{"addr:street":"Tofts Farm Road East"}}, "geometry":{"type":"MultiPolygon","coordinates":[[[[-1.20301,54.65018],[-1.20237,54.6504],[-1.20212,54.65016],[-1.20276,54.64994],[-1.20301,54.65018]]]]}},
{ "type":"Feature","properties":{"osm_way_id":"552837110","building":"warehouse","other":{"addr:street":"Tofts Farm Road East"}}, "geometry":{"type":"MultiPolygon","coordinates":[[[[-1.20261,54.64978],[-1.20195,54.65001],[-1.2017,54.64977],[-1.20236,54.64954],[-1.20261,54.64978]]]]}},
{ "type":"Feature","properties":{"osm_way_id":"552837111","building":"warehouse","other":{"addr:street":"Tofts Farm Road East"}}, "geometry":{"type":"MultiPolygon","coordinates":[[[[-1.2023,54.64949],[-1.20166,54.64972],[-1.2014,54.64948],[-1.20203,54.64924],[-1.2023,54.64949]]]]}},
{ "type":"Feature","properties":{"osm_way_id":"552837113","name":"Sir Robert McAlpine","building":"warehouse","other":{"addr:street":"Tofts Road West"}}, "geometry":{"type":"MultiPolygon","coordinates":[[[[-1.20393,54.64516],[-1.20369,54.64523],[-1.20355,54.64509],[-1.20378,54.64501],[-1.20393,54.64516]]]]}},
{ "type":"Feature","properties":{"osm_way_id":"552837116","name":"Factory Cover Ltd","building":"warehouse","other":{"addr:street":"Tofts Road West","description":"Sheeting & Cladding Contractors"}}, "geometry":{"type":"MultiPolygon","coordinates":[[[[-1.20564,54.64451],[-1.20539,54.64459],[-1.20524,54.64444],[-1.20549,54.64436],[-1.20564,54.64451]]]]}},
{ "type":"Feature","properties":{"osm_way_id":"552837120","name":"G Abbott & Co Ltd","building":"warehouse","other":{"addr:street":"Brenda Road"}}, "geometry":{"type":"MultiPolygon","coordinates":[[[[-1.207,54.65637],[-1.2067,54.65635],[-1.20679,54.65593],[-1.20628,54.6559],[-1.2063,54.6558],[-1.20711,54.65586],[-1.207,54.65637]]]]}},
{ "type":"Feature","properties":{"osm_way_id":"552856956","building":"warehouse","other":{"addr:street":"Royce Avenue"}}, "geometry":{"type":"MultiPolygon","coordinates":[[[[-1.25837,54.61326],[-1.25678,54.61355],[-1.25621,54.61253],[-1.2578,54.61224],[-1.25837,54.61326]]]]}},
{ "type":"Feature","properties":{"osm_way_id":"552856958","name":"Geoffrey Robinson Ltd","building":"warehouse","other":{"addr:street":"Macklin Avenue"}}, "geometry":{"type":"MultiPolygon","coordinates":[[[[-1.25887,54.61151],[-1.25873,54.61154],[-1.25839,54.61161],[-1.25824,54.61134],[-1.25871,54.61125],[-1.25887,54.61151]]]]}},
{ "type":"Feature","properties":{"osm_way_id":"552856966","name":"PD Logistics","building":"warehouse","other":{"addr:street":"Nuffield Road"}}, "geometry":{"type":"MultiPolygon","coordinates":[[[[-1.27135,54.60614],[-1.26966,54.60683],[-1.26939,54.60661],[-1.26952,54.60655],[-1.26924,54.60633],[-1.26948,54.60623],[-1.26921,54.606],[-1.27052,54.60547],[-1.27135,54.60614]]]]}},
{ "type":"Feature","properties":{"osm_way_id":"552856967","name":"PD Logistics","building":"warehouse","other":{"addr:street":"Nuffield Road"}}, "geometry":{"type":"MultiPolygon","coordinates":[[[[-1.27286,54.60607],[-1.27206,54.6064],[-1.2708,54.60536],[-1.2716,54.60503],[-1.27286,54.60607]]]]}},
{ "type":"Feature","properties":{"osm_way_id":"553565586","name":"Booker Wholesale","building":"warehouse","other":{"addr:street":"Lustrum Avenue"}}, "geometry":{"type":"MultiPolygon","coordinates":[[[[-1.27486,54.57656],[-1.27533,54.57623],[-1.27414,54.57565],[-1.27367,54.57597],[-1.27486,54.57656]]]]}},
{ "type":"Feature","properties":{"osm_way_id":"553565587","building":"warehouse","other":{"addr:street":"Pennine Avenue"}}, "geometry":{"type":"MultiPolygon","coordinates":[[[[-1.27512,54.576],[-1.27544,54.57578],[-1.27459,54.57536],[-1.27428,54.57558],[-1.27512,54.576]]]]}},
{ "type":"Feature","properties":{"osm_way_id":"553565593","name":"Armadillo Stockton","building":"warehouse","shop":"storage_rental","other":{"addr:postcode":"TS18 2RS","addr:street":"Teesway","alt_name":"Armadillo Stockton Central","operator":"ASS1"}}, "geometry":{"type":"MultiPolygon","coordinates":[[[[-1.27371,54.57359],[-1.27414,54.57329],[-1.27366,54.57306],[-1.27323,54.57336],[-1.27371,54.57359]]]]}},
{ "type":"Feature","properties":{"osm_way_id":"764460772","building":"warehouse"},"geometry":{"type":"MultiPolygon","coordinates":[[[[-1.22419,54.52183],[-1.22389,54.52189],[-1.22366,54.52154],[-1.22396,54.52147],[-1.22419,54.52183]]]]}},
{ "type":"Feature","properties":{"osm_way_id":"764460775","building":"warehouse"},"geometry":{"type":"MultiPolygon","coordinates":[[[[-1.22364,54.52188],[-1.22349,54.52164],[-1.22314,54.52171],[-1.22318,54.52176],[-1.22312,54.52177],[-1.22321,54.52192],[-1.22325,54.52191],[-1.22328,54.52196],[-1.22364,54.52188]]]]}},
{ "type":"Feature","properties":{"osm_way_id":"764460776","building":"warehouse"},"geometry":{"type":"MultiPolygon","coordinates":[[[[-1.22265,54.52197],[-1.22262,54.52192],[-1.22274,54.52189],[-1.22269,54.52181],[-1.22254,54.52185],[-1.22245,54.52173],[-1.22238,54.52174],[-1.2224,54.52177],[-1.2223,54.5218],[-1.22228,54.52177],[-1.2219,54.52186],[-1.22161,54.52193],[-1.22179,54.52218],[-1.22247,54.52202],[-1.22245,54.52199],[-1.22253,54.52198],[-1.22254,54.52199],[-1.22265,54.52197]]]]}},
{ "type":"Feature","properties":{"osm_way_id":"764460777","building":"warehouse"},"geometry":{"type":"MultiPolygon","coordinates":[[[[-1.22161,54.52193],[-1.22151,54.52196],[-1.22125,54.5216],[-1.22167,54.5215],[-1.22183,54.52174],[-1.22181,54.52174],[-1.2219,54.52186],[-1.22161,54.52193]]]]}},
{ "type":"Feature","properties":{"osm_way_id":"772478193","name":"Salt Store Depot","building":"warehouse"},"geometry":{"type":"MultiPolygon","coordinates":[[[[-1.27393,54.60864],[-1.27359,54.60894],[-1.27336,54.60885],[-1.27369,54.60855],[-1.27393,54.60864]]]]}},
{ "type":"Feature","properties":{"osm_way_id":"817351987","building":"warehouse","other":{"addr:postcode":"TS17 9LY","addr:street":"Allison Avenue"}}, "geometry":{"type":"MultiPolygon","coordinates":[[[[-1.29311,54.51731],[-1.29355,54.51715],[-1.29334,54.51696],[-1.2929,54.51712],[-1.29311,54.51731]]]]}}
]
}
