{
"type": "FeatureCollection",
"features": [
{ "type":"Feature","properties":{"osm_way_id":"5202515","name":"Movianto","building":"warehouse"},"geometry":{"type":"MultiPolygon","coordinates":[[[[-0.47902,52.11026],[-0.47803,52.11043],[-0.4779,52.11016],[-0.47781,52.11017],[-0.47762,52.10977],[-0.47772,52.10975],[-0.47746,52.10921],[-0.4789,52.10896],[-0.47928,52.10978],[-0.47883,52.10986],[-0.47902,52.11026]]]]}},
{ "type":"Feature","properties":{"osm_way_id":"111205400","name":"Asda Bedford Distribution Centre","building":"warehouse","other":{"addr:city":"Kempston","addr:country":"GB","addr:housename":"Distribution Centre, Marsh Leys Farm","addr:postcode":"MK43 9AA","addr:street":"Woburn Road","fhrs:authority":"Bedford","fhrs:id":"108106","fhrs:local_authority_id":"38421"}}, "geometry":{"type":"MultiPolygon","coordinates":[[[[-0.4983,52.10077],[-0.49981,52.10017],[-0.50204,52.10229],[-0.50054,52.10289],[-0.49902,52.10145],[-0.49877,52.10155],[-0.49856,52.10136],[-0.49881,52.10126],[-0.4983,52.10077]]]]}},
{ "type":"Feature","properties":{"osm_way_id":"111205403","name":"Sainsbury's Bedford Distribution Centre","building":"warehouse","other":{"addr:city":"Kempston","addr:country":"GB","addr:housename":"Unit 3, Marsh Leys Farm","addr:postcode":"MK43 9AA","addr:street":"Woburn Road","fhrs:authority":"Bedford","fhrs:id":"846800","fhrs:local_authority_id":"122538"}}, "geometry":{"type":"MultiPolygon","coordinates":[[[[-0.50161,52.09919],[-0.50085,52.09899],[-0.50094,52.09886],[-0.50018,52.09865],[-0.50223,52.0958],[-0.50375,52.09621],[-0.50161,52.09919]]]]}},
{ "type":"Feature","properties":{"osm_way_id":"111205404","name":"Argos Marsh Leys Distribution Centre","building":"warehouse","other":{"addr:city":"Kempston","addr:country":"GB","addr:postcode":"MK43 9AA","addr:street":"Woburn Road","addr:unit":"Distribution Centre, Marsh Leys Farm","fhrs:authority":"Bedford","fhrs:id":"108103","fhrs:local_authority_id":"38417"}}, "geometry":{"type":"MultiPolygon","coordinates":[[[[-0.50559,52.0967],[-0.50759,52.09743],[-0.50645,52.09861],[-0.50664,52.09868],[-0.50652,52.09881],[-0.50632,52.09874],[-0.50487,52.10023],[-0.50286,52.0995],[-0.50431,52.09801],[-0.50411,52.09793],[-0.50424,52.0978],[-0.50444,52.09788],[-0.50559,52.0967]]]]}},
{ "type":"Feature","properties":{"osm_way_id":"115601314","name":"Movianto","building":"warehouse","other":{"addr:city":"Elstow","addr:country":"GB","addr:housenumber":"1","addr:postcode":"MK42 9XE","addr:street":"Progress Park","fhrs:authority":"Bedford","fhrs:id":"996919","fhrs:local_authority_id":"126542"}}, "geometry":{"type":"MultiPolygon","coordinates":[[[[-0.47907,52.10884],[-0.47869,52.10803],[-0.47714,52.1083],[-0.47752,52.10911],[-0.47907,52.10884]]]]}},
{ "type":"Feature","properties":{"osm_way_id":"116016763","name":"Lund Conlon","building":"warehouse","other":{"addr:city":"Bedford","addr:country":"GB","addr:postcode":"MK42 7EF","addr:street":"Wolseley Road","addr:unit":"Lund-Conlon Removers & Storers","description":"We offer removals and storage to customers in the Bedfordshire and surrounding areas. Contact us today for a free removals survey and quotation.","email":"sales@lundconlonremovals.co.uk","phone":"+44 1234 819334","website":"https:\/\/lundconlonremovals.co.uk\/"}}, "geometry":{"type":"MultiPolygon","coordinates":[[[[-0.4921,52.10708],[-0.49197,52.10688],[-0.49168,52.10696],[-0.49171,52.107],[-0.49142,52.10708],[-0.49145,52.10711],[-0.49137,52.10713],[-0.49131,52.10717],[-0.49139,52.10727],[-0.4921,52.10708]]]]}},
{ "type":"Feature","properties":{"osm_way_id":"168213517","building":"warehouse"},"geometry":{"type":"MultiPolygon","coordinates":[[[[-0.24201,52.52876],[-0.24147,52.52879],[-0.24146,52.52874],[-0.24124,52.52876],[-0.24116,52.52829],[-0.24125,52.52828],[-0.24124,52.52822],[-0.24134,52.52821],[-0.24127,52.5278],[-0.24158,52.52778],[-0.24155,52.52763],[-0.24181,52.52761],[-0.24201,52.52876]]]]}},
{ "type":"Feature","properties":{"osm_way_id":"168213519","building":"warehouse"},"geometry":{"type":"MultiPolygon","coordinates":[[[[-0.23707,52.52515],[-0.23731,52.52488],[-0.23701,52.52479],[-0.23706,52.52473],[-0.2368,52.52465],[-0.23652,52.52497],[-0.23707,52.52515]]]]}},
{ "type":"Feature","properties":{"osm_way_id":"168213524","building":"warehouse"},"geometry":{"type":"MultiPolygon","coordinates":[[[[-0.24065,52.52773],[-0.24096,52.52741],[-0.24061,52.52728],[-0.2403,52.5276],[-0.24065,52.52773]]]]}},
{ "type":"Feature","properties":{"osm_way_id":"168213526","building":"warehouse"},"geometry":{"type":"MultiPolygon","coordinates":[[[[-0.24158,52.52694],[-0.24152,52.52667],[-0.24115,52.5267],[-0.24121,52.52697],[-0.24158,52.52694]]]]}},
{ "type":"Feature","properties":{"osm_way_id":"168213527","building":"warehouse"},"geometry":{"type":"MultiPolygon","coordinates":[[[[-0.2406,52.52728],[-0.24029,52.5276],[-0.23999,52.52749],[-0.2403,52.52717],[-0.2406,52.52728]]]]}},
{ "type":"Feature","properties":{"osm_way_id":"168213529","building":"warehouse","other":{"addr:postcode":"PE7 3EL"}}, "geometry":{"type":"MultiPolygon","coordinates":[[[[-0.24086,52.5267],[-0.23979,52.52628],[-0.23999,52.52609],[-0.24096,52.52646],[-0.24089,52.52653],[-0.24099,52.52657],[-0.24086,52.5267]]]]}},
{ "type":"Feature","properties":{"osm_way_id":"168213531","building":"warehouse","other":{"addr:postcode":"PE7 3EN"}}, "geometry":{"type":"MultiPolygon","coordinates":[[[[-0.2403,52.52716],[-0.23997,52.52748],[-0.23967,52.52737],[-0.24001,52.52705],[-0.2403,52.52716]]]]}},
{ "type":"Feature","properties":{"osm_way_id":"168213532","building":"warehouse"},"geometry":{"type":"MultiPolygon","coordinates":[[[[-0.2374,52.52551],[-0.23755,52.52534],[-0.23706,52.52518],[-0.23691,52.52535],[-0.2374,52.52551]]]]}},
{ "type":"Feature","properties":{"osm_way_id":"168213543","building":"warehouse","other":{"addr:postcode":"PE7 3EJ"}}, "geometry":{"type":"MultiPolygon","coordinates":[[[[-0.2407,52.52482],[-0.24026,52.5246],[-0.24044,52.52446],[-0.24035,52.52441],[-0.24018,52.52455],[-0.23997,52.52444],[-0.23972,52.52463],[-0.23962,52.52458],[-0.23939,52.52475],[-0.23935,52.52478],[-0.23954,52.52487],[-0.23935,52.52502],[-0.24009,52.52538],[-0.2404,52.52515],[-0.24032,52.52511],[-0.2407,52.52482]]]]}},
{ "type":"Feature","properties":{"osm_way_id":"294236354","building":"warehouse"},"geometry":{"type":"MultiPolygon","coordinates":[[[[-0.45372,52.21333],[-0.45354,52.21327],[-0.45371,52.21306],[-0.45389,52.21312],[-0.45372,52.21333]]]]}},
{ "type":"Feature","properties":{"osm_way_id":"798374909","building":"warehouse"},"geometry":{"type":"MultiPolygon","coordinates":[[[[-0.5025,52.15373],[-0.50247,52.15361],[-0.50258,52.1536],[-0.50261,52.15372],[-0.5025,52.15373]]]]}},
{ "type":"Feature","properties":{"osm_way_id":"839673318","building":"warehouse"},"geometry":{"type":"MultiPolygon","coordinates":[[[[-0.50892,52.10303],[-0.50833,52.10359],[-0.50769,52.10333],[-0.50828,52.10277],[-0.50892,52.10303]]]]}},
{ "type":"Feature","properties":{"osm_way_id":"839673319","name":"Workstories","building":"warehouse"},"geometry":{"type":"MultiPolygon","coordinates":[[[[-0.51024,52.10353],[-0.50974,52.10403],[-0.50927,52.10384],[-0.50979,52.10334],[-0.51024,52.10353]]]]}},
{ "type":"Feature","properties":{"osm_way_id":"839673320","name":"Leidos","building":"warehouse"},"geometry":{"type":"MultiPolygon","coordinates":[[[[-0.5139,52.10422],[-0.51257,52.10504],[-0.51186,52.10462],[-0.51322,52.10379],[-0.5139,52.10422]]]]}},
{ "type":"Feature","properties":{"osm_way_id":"939031470","name":"B&M Distribution Centre","building":"warehouse","other":{"addr:city":"Bedford","addr:housename":"The Fort","addr:locality":"Wixams","addr:postcode":"MK42 6EY","addr:street":"Zander Way","source:addr":"https:\/\/careers.bmstores.co.uk\/grow-your-career\/our-distribution-centres\/"}}, "geometry":{"type":"MultiPolygon","coordinates":[[[[-0.48069,52.09644],[-0.47335,52.09545],[-0.47388,52.09387],[-0.48126,52.09485],[-0.48069,52.09644]]]]}}
]
}
