{
"type": "FeatureCollection",
"features": [
{ "type":"Feature","properties":{"osm_id":"726840981","name":"Co-op Food","other":{"brand":"Co-op Food","brand:wikidata":"Q3277439","brand:wikipedia":"en:Co-op Food","shop":"supermarket","source:name":"voice"}}, "geometry":{"type":"Point","coordinates":[-0.12629,52.55724 ]}},
{ "type":"Feature","properties":{"osm_id":"1575974943","name":"Heron Foods","other":{"addr:city":"Peterborough","addr:country":"GB","addr:housenumber":"23","addr:postcode":"PE7 1AJ","addr:street":"High Causeway","brand":"Heron Foods","brand:wikidata":"Q5743472","brand:wikipedia":"en:Heron Foods","contact:website":"https:\/\/heronfoods.com\/storelocator\/store-details\/whittlesey-relocation","fhrs:id":"1041318","shop":"supermarket"}}, "geometry":{"type":"Point","coordinates":[-0.12741,52.55767 ]}},
{ "type":"Feature","properties":{"osm_way_id":"47366412","name":"Asda","building":"supermarket","shop":"supermarket","other":{"addr:city":"Wisbech","addr:country":"GB","addr:postcode":"PE13 1PE","addr:street":"North End","alt_name":"ASDA Wisbech Supercentre","brand":"Asda","brand:wikidata":"Q297410","brand:wikipedia":"en:Asda","contact:facebook":"https:\/\/www.facebook.com\/asda\/","contact:twitter":"@asda","contact:website":"https:\/\/storelocator.asda.com\/east-of-england\/wisbech\/northend-leverington-road","fhrs:id":"774315","operator":"Asda Stores Ltd"}}, "geometry":{"type":"MultiPolygon","coordinates":[[[[0.15489,52.66917],[0.15474,52.66914],[0.15466,52.66931],[0.15462,52.6693],[0.15431,52.66988],[0.1545,52.66992],[0.15456,52.66979],[0.15479,52.66983],[0.15478,52.66986],[0.1548,52.66986],[0.15479,52.6699],[0.15501,52.66994],[0.15502,52.66992],[0.1551,52.66994],[0.15512,52.6699],[0.1553,52.66993],[0.15536,52.66981],[0.1556,52.66935],[0.15567,52.66936],[0.1557,52.66929],[0.15564,52.66927],[0.1557,52.66915],[0.15496,52.66901],[0.15489,52.66917]]]]}},
{ "type":"Feature","properties":{"osm_way_id":"48781345","name":"Aldi","building":"yes","shop":"supermarket","other":{"addr:postcode":"PE16 6AZ","brand":"ALDI","brand:wikidata":"Q41171672","brand:wikipedia":"en:Aldi"}}, "geometry":{"type":"MultiPolygon","coordinates":[[[[0.04507,52.4641],[0.04528,52.46437],[0.04612,52.46411],[0.04591,52.46385],[0.04588,52.46386],[0.04581,52.46377],[0.04548,52.46387],[0.04555,52.46396],[0.04507,52.4641]]]]}},
{ "type":"Feature","properties":{"osm_way_id":"50996351","name":"Aldi","building":"shop","shop":"supermarket","other":{"addr:city":"Wisbech","addr:postcode":"PE13 1NX","addr:street":"Sandyland","brand":"ALDI","brand:wikidata":"Q41171672","brand:wikipedia":"en:Aldi"}}, "geometry":{"type":"MultiPolygon","coordinates":[[[[0.15773,52.66735],[0.15766,52.66751],[0.15765,52.66752],[0.15759,52.66751],[0.15756,52.66757],[0.15707,52.66748],[0.15704,52.66753],[0.15684,52.66749],[0.15686,52.66745],[0.15677,52.66743],[0.15688,52.6672],[0.15773,52.66735]]]]}},
{ "type":"Feature","properties":{"osm_way_id":"151534087","name":"Tesco","building":"yes","shop":"supermarket","other":{"brand":"Tesco","brand:wikidata":"Q487494","brand:wikipedia":"en:Tesco","opening_hours":"Mo 06:00-00:00; Tu-Sa 00:00-00:00; Su 10:00-16:00","operator":"Tesco Stores Ltd"}}, "geometry":{"type":"MultiPolygon","coordinates":[[[[0.06905,52.56217],[0.07016,52.56218],[0.07018,52.56158],[0.07048,52.56159],[0.07049,52.56148],[0.06908,52.56146],[0.06905,52.56217]]]]}},
{ "type":"Feature","properties":{"osm_way_id":"190610242","name":"Sainsbury's","building":"retail","shop":"supermarket","other":{"brand":"Sainsbury's","brand:wikidata":"Q152096","brand:wikipedia":"en:Sainsbury's","building:levels":"1","opening_hours":"Mo-Sa 07:00-21:00; Su 10:00-16:00","wheelchair":"yes"}}, "geometry":{"type":"MultiPolygon","coordinates":[[[[0.08964,52.55023],[0.08989,52.55015],[0.0906,52.55003],[0.09044,52.54992],[0.09055,52.54989],[0.09067,52.54995],[0.09091,52.55031],[0.09063,52.55038],[0.09067,52.55044],[0.09056,52.55046],[0.09052,52.5504],[0.09048,52.55042],[0.0904,52.55043],[0.09042,52.55046],[0.08989,52.55059],[0.08981,52.55046],[0.08985,52.55045],[0.08964,52.55023]]]]}},
{ "type":"Feature","properties":{"osm_way_id":"232638446","name":"Heron Foods","building":"retail","shop":"supermarket","other":{"addr:postcode":"PE15 8TP","brand":"Heron Foods","brand:wikidata":"Q5743472","brand:wikipedia":"en:Heron Foods"}}, "geometry":{"type":"MultiPolygon","coordinates":[[[[0.08878,52.55054],[0.08877,52.55048],[0.08876,52.55046],[0.08863,52.55047],[0.08822,52.5505],[0.08823,52.55059],[0.08878,52.55054]]]]}},
{ "type":"Feature","properties":{"osm_way_id":"362553681","name":"The Co-operative Food","building":"yes","shop":"supermarket","other":{"operator":"Central England Co-operative Society","addr:city":"March","addr:street":"Badgeney Road","addr:postcode":"PE15 9AT","addr:housenumber":"53"}}, "geometry":{"type":"MultiPolygon","coordinates":[[[[0.09771,52.54916],[0.09773,52.54921],[0.09768,52.54921],[0.0977,52.54929],[0.09771,52.54929],[0.09773,52.5494],[0.09801,52.54938],[0.09795,52.5491],[0.09784,52.54911],[0.09785,52.54915],[0.09771,52.54916]]]]}},
{ "type":"Feature","properties":{"osm_way_id":"392696881","name":"Lidl","building":"retail","shop":"supermarket","other":{"addr:city":"Wisbech","addr:country":"GB","addr:postcode":"PE14 0RG","addr:street":"Cromwell Road","alt_name":"LIDL Wisbech","brand":"Lidl","brand:wikidata":"Q151954","brand:wikipedia":"en:Lidl","fhrs:id":"774935"}}, "geometry":{"type":"MultiPolygon","coordinates":[[[[0.14684,52.65432],[0.14661,52.65408],[0.14592,52.65432],[0.14613,52.65453],[0.14657,52.65437],[0.1466,52.6544],[0.14684,52.65432]]]]}},
{ "type":"Feature","properties":{"osm_way_id":"399141351","name":"Food Plus (Pasikonik)","building":"retail","shop":"supermarket","other":{"building:levels":"2","website":"https:\/\/www.foodplus.eu"}}, "geometry":{"type":"MultiPolygon","coordinates":[[[[0.15934,52.66493],[0.15944,52.665],[0.15934,52.66506],[0.15918,52.66514],[0.15915,52.66512],[0.15913,52.66511],[0.1591,52.66506],[0.15911,52.66506],[0.15934,52.66493]]]]}},
{ "type":"Feature","properties":{"osm_way_id":"403978192","name":"Heron Foods","building":"retail","shop":"supermarket","other":{"addr:city":"Wisbech","addr:housename":"Units","addr:housenumber":"9-10","addr:street":"Horsefair","brand":"Heron Foods","brand:wikidata":"Q5743472","brand:wikipedia":"en:Heron Foods","building:levels":"2","fhrs:id":"1096173","source:addr":"FHRS Open Data"}}, "geometry":{"type":"MultiPolygon","coordinates":[[[[0.16195,52.66516],[0.1614,52.66527],[0.1614,52.66539],[0.16157,52.66539],[0.16156,52.66536],[0.16202,52.66527],[0.16195,52.66516]]]]}},
{ "type":"Feature","properties":{"osm_way_id":"425609001","name":"Tesco Extra","building":"shop","shop":"supermarket","other":{"brand":"Tesco Extra","alt_name":"Tesco Extra Wisbech","operator":"Tesco Stores Ltd","addr:city":"Wisbech","addr:street":"Cromwell Road","addr:postcode":"PE14 0RG","brand:wikidata":"Q25172225","brand:wikipedia":"en:Tesco Extra"}}, "geometry":{"type":"MultiPolygon","coordinates":[[[[0.14116,52.65119],[0.14112,52.65121],[0.14187,52.65187],[0.14212,52.6521],[0.14271,52.65186],[0.14286,52.65179],[0.14278,52.65172],[0.14261,52.65157],[0.14304,52.65139],[0.14295,52.65131],[0.14309,52.65125],[0.14234,52.65059],[0.14221,52.65065],[0.14204,52.65049],[0.14128,52.65081],[0.14121,52.65075],[0.14112,52.65079],[0.14118,52.65085],[0.141,52.65092],[0.14106,52.65097],[0.14103,52.65098],[0.14107,52.65112],[0.14116,52.65119]]]]}},
{ "type":"Feature","properties":{"osm_way_id":"587574012","name":"Lidl","building":"retail","shop":"supermarket","other":{"addr:country":"GB","addr:postcode":"PE15 5AN","addr:street":"Dartford Road","brand":"Lidl","brand:wikidata":"Q151954","brand:wikipedia":"en:Lidl","fhrs:id":"774480","noaddress":"yes","opening_hours":"Mo-Sa 08:00-22:00; Su 10:00-16:00"}}, "geometry":{"type":"MultiPolygon","coordinates":[[[[0.08517,52.55113],[0.08479,52.55115],[0.08479,52.55113],[0.08451,52.55113],[0.08454,52.55144],[0.08493,52.55143],[0.08494,52.55147],[0.0852,52.55147],[0.08517,52.5512],[0.08517,52.55113]]]]}},
{ "type":"Feature","properties":{"osm_way_id":"626657650","name":"Jack's","building":"retail","shop":"supermarket","other":{"brand":"Jack's","brand:wikidata":"Q60741213","brand:wikipedia":"en:Jack's (store)"}}, "geometry":{"type":"MultiPolygon","coordinates":[[[[0.04124,52.45802],[0.0411,52.45742],[0.04083,52.45745],[0.0408,52.4573],[0.04065,52.45732],[0.04068,52.45746],[0.04058,52.45747],[0.04071,52.45807],[0.04124,52.45802]]]]}}
]
}
