{
"type": "FeatureCollection",
"features": [
{ "type":"Feature","properties":{"osm_id":"677228899","name":"Iceland","other":{"addr:housenumber":"274-278","addr:postcode":"HA2 8EB","addr:street":"Northolt Road","addr:suburb":"South Harrow","brand":"Iceland","brand:wikidata":"Q721810","fhrs:id":"276387","shop":"supermarket","source:addr":"FHRS Open Data","wheelchair":"yes"}}, "geometry":{"type":"Point","coordinates":[-0.35518,51.56359 ]}},
{ "type":"Feature","properties":{"osm_id":"1312678769","name":"Lidl","other":{"addr:city":"Pinner","addr:country":"GB","addr:housenumber":"69","addr:postcode":"HA5 3HZ","addr:street":"Bridge Street","brand":"Lidl","brand:wikidata":"Q151954","brand:wikipedia":"en:Lidl","fhrs:id":"276932","opening_hours":"Mo-Sa 08:00-22:00; Su 11:00-17:00","shop":"supermarket","wheelchair":"yes"}}, "geometry":{"type":"Point","coordinates":[-0.38493,51.59537 ]}},
{ "type":"Feature","properties":{"osm_id":"1490044833","name":"Lidl","other":{"brand":"Lidl","brand:wikidata":"Q151954","brand:wikipedia":"en:Lidl","old_name":"Primark","shop":"supermarket","wheelchair":"yes"}}, "geometry":{"type":"Point","coordinates":[-0.33692,51.58029 ]}},
{ "type":"Feature","properties":{"osm_id":"4639651360","name":"Abis Cash & Carry","other":{"addr:housenumber":"301-303","addr:postcode":"HA2 8JA","addr:street":"Northolt Road","addr:suburb":"South Harrow","fhrs:id":"277344","level":"0","shop":"supermarket","source:addr":"FHRS Open Data"}}, "geometry":{"type":"Point","coordinates":[-0.35556,51.56278 ]}},
{ "type":"Feature","properties":{"osm_id":"4693286244","name":"Costcutter","other":{"level":"0","shop":"supermarket","wheelchair":"no"}}, "geometry":{"type":"Point","coordinates":[-0.36447,51.57116 ]}},
{ "type":"Feature","properties":{"osm_id":"4742984364","name":"Rayners Food Centre","other":{"level":"0","shop":"supermarket"}}, "geometry":{"type":"Point","coordinates":[-0.37096,51.57716 ]}},
{ "type":"Feature","properties":{"osm_id":"4756123398","name":"Rayners Lane Supermarket","other":{"level":"0","shop":"supermarket"}}, "geometry":{"type":"Point","coordinates":[-0.37133,51.57673 ]}},
{ "type":"Feature","properties":{"osm_id":"5061630777","name":"Moon Cash & Carry","other":{"shop":"supermarket"}}, "geometry":{"type":"Point","coordinates":[-0.37156,51.5734 ]}},
{ "type":"Feature","properties":{"osm_id":"5061630783","name":"Sriram Cash & Carry","other":{"shop":"supermarket","wheelchair":"limited"}}, "geometry":{"type":"Point","coordinates":[-0.37093,51.57673 ]}},
{ "type":"Feature","properties":{"osm_id":"5122195005","name":"North West International Supermarket","other":{"level":"0","shop":"supermarket"}}, "geometry":{"type":"Point","coordinates":[-0.33308,51.58188 ]}},
{ "type":"Feature","properties":{"osm_id":"5283782511","name":"Triple A Cash and Carry","other":{"addr:city":"Stanmore","addr:housenumber":"401","addr:street":"Honeypot Lane","shop":"supermarket"}}, "geometry":{"type":"Point","coordinates":[-0.29484,51.59586 ]}},
{ "type":"Feature","properties":{"osm_id":"5777433430","name":"A Day Fresh","other":{"shop":"supermarket"}}, "geometry":{"type":"Point","coordinates":[-0.27747,51.59777 ]}},
{ "type":"Feature","properties":{"osm_id":"5777433451","name":"Gayatri","other":{"shop":"supermarket"}}, "geometry":{"type":"Point","coordinates":[-0.33363,51.58091 ]}},
{ "type":"Feature","properties":{"osm_id":"5777436357","name":"Hak Food Centre","other":{"shop":"supermarket"}}, "geometry":{"type":"Point","coordinates":[-0.27831,51.59812 ]}},
{ "type":"Feature","properties":{"osm_id":"5917851216","name":"Iceland","other":{"brand":"Iceland","brand:wikidata":"Q721810","shop":"supermarket"}}, "geometry":{"type":"Point","coordinates":[-0.27035,51.60273 ]}},
{ "type":"Feature","properties":{"osm_id":"9405520532","name":"M&S Foodhall","other":{"addr:housenumber":"4","addr:street":"Bishops Walk","shop":"supermarket"}}, "geometry":{"type":"Point","coordinates":[-0.3812,51.59416 ]}},
{ "type":"Feature","properties":{"osm_way_id":"22316756","name":"Morrisons","building":"shop","shop":"supermarket","other":{"addr:housenumber":"299","addr:postcode":"HA5 4QT","addr:street":"Uxbridge Road","brand":"Morrisons","brand:wikidata":"Q922344","brand:wikipedia":"en:Morrisons","fhrs:id":"276520","opening_hours":"Mo-Sa 07:00-22:00; Su 10:00-16:00","opening_hours:url":"https:\/\/my.morrisons.com\/storefinder\/299","phone":"+44 20 8420 1077","source:addr:postcode":"FHRS"}}, "geometry":{"type":"MultiPolygon","coordinates":[[[[-0.36432,51.60807],[-0.36459,51.6079],[-0.36445,51.60781],[-0.36478,51.6076],[-0.36562,51.60811],[-0.36551,51.60817],[-0.36547,51.60815],[-0.36493,51.60846],[-0.36487,51.60842],[-0.36478,51.60849],[-0.36471,51.60844],[-0.36473,51.60843],[-0.36432,51.60817],[-0.36432,51.60807]]]]}},
{ "type":"Feature","properties":{"osm_way_id":"24250924","name":"ALDI","building":"yes","shop":"supermarket","other":{"addr:housenumber":"330","addr:postcode":"HA2 8EQ","addr:street":"Northolt Road","addr:suburb":"South Harrow","brand":"ALDI","brand:wikidata":"Q41171672","brand:wikipedia":"en:Aldi","fhrs:id":"276587","operator":"Sainsbury's","source:addr":"FHRS Open Data","wheelchair":"yes"}}, "geometry":{"type":"MultiPolygon","coordinates":[[[[-0.35715,51.56221],[-0.35693,51.5624],[-0.35719,51.56251],[-0.35699,51.56266],[-0.35643,51.56241],[-0.35682,51.56206],[-0.35715,51.56221]]]]}},
{ "type":"Feature","properties":{"osm_way_id":"30159763","name":"Waitrose & Partners","building":"yes","shop":"supermarket","other":{"addr:housenumber":"140","addr:postcode":"HA2 0EG","addr:street":"Northolt Road","addr:suburb":"South Harrow","brand":"Waitrose","brand:wikidata":"Q771734","brand:wikipedia":"en:Waitrose & Partners","fhrs:id":"277007","official_name":"Waitrose & Partners","operator":"Waitrose & Partners","phone":"+44 20 8423 1955","source:addr":"FHRS Open Data","website":"https:\/\/www.waitrose.com\/southharrow","wheelchair":"yes"}}, "geometry":{"type":"MultiPolygon","coordinates":[[[[-0.35256,51.56796],[-0.35269,51.56765],[-0.35241,51.5676],[-0.35249,51.5674],[-0.35188,51.56731],[-0.35168,51.56782],[-0.35256,51.56796]]]]}},
{ "type":"Feature","properties":{"osm_way_id":"45695226","name":"Tesco","building":"yes","shop":"supermarket","other":{"brand":"Tesco","brand:wikidata":"Q487494","brand:wikipedia":"en:Tesco"}}, "geometry":{"type":"MultiPolygon","coordinates":[[[[-0.39578,51.59725],[-0.39583,51.59712],[-0.3959,51.59696],[-0.39599,51.59697],[-0.39605,51.59683],[-0.39597,51.59682],[-0.39599,51.59679],[-0.39585,51.59676],[-0.39584,51.59679],[-0.39575,51.59677],[-0.39574,51.59678],[-0.39502,51.59667],[-0.3948,51.59721],[-0.3949,51.59722],[-0.39489,51.59725],[-0.395,51.59726],[-0.39501,51.59725],[-0.3952,51.59728],[-0.39525,51.59716],[-0.39576,51.59724],[-0.39578,51.59725]]]]}},
{ "type":"Feature","properties":{"osm_way_id":"186972124","name":"Tesco Superstore","building":"retail","shop":"supermarket","other":{"addr:city":"Harrow","addr:postcode":"HA1 2TU","addr:street":"Station Road","brand":"Tesco","brand:wikidata":"Q487494","brand:wikipedia":"en:Tesco","building:levels":"1","diet:halal":"yes","fhrs:id":"276928","nohousenumber":"yes","opening_hours":"Mo-Sa 06:00-23:00; Su 11:00-17:00","operator":"Tesco","roof:levels":"0","source:addr":"FHRS Open Data","wheelchair":"yes"}}, "geometry":{"type":"MultiPolygon","coordinates":[[[[-0.33453,51.58653],[-0.33413,51.58578],[-0.33361,51.58589],[-0.33353,51.58573],[-0.33344,51.58575],[-0.33358,51.58602],[-0.33318,51.58611],[-0.3332,51.58614],[-0.33287,51.58621],[-0.33286,51.58634],[-0.33297,51.58635],[-0.33312,51.58659],[-0.33315,51.58659],[-0.3332,51.58669],[-0.33346,51.58664],[-0.33349,51.5867],[-0.33396,51.58661],[-0.33397,51.58663],[-0.33412,51.5866],[-0.3341,51.58657],[-0.33436,51.58652],[-0.33438,51.58656],[-0.33453,51.58653]]]]}},
{ "type":"Feature","properties":{"osm_way_id":"211058071","name":"Morrisons - Harrow","building":"apartments","shop":"supermarket","other":{"addr:housename":"Trident Point","addr:housenumber":"19","addr:postcode":"HA1 4FR","addr:street":"Pinner Road","addr:unit":"1","brand":"Morrisons","brand:wikidata":"Q922344","brand:wikipedia":"en:Morrisons","fhrs:id":"471049","opening_hours":"Mo-Sa 08:00-22:00; Su 11:00-17:00","phone":"+44 20 8861 0536","source:addr":"FHRS Open Data"}}, "geometry":{"type":"MultiPolygon","coordinates":[[[[-0.34295,51.58079],[-0.34313,51.5807],[-0.34323,51.58004],[-0.34266,51.58],[-0.34261,51.5803],[-0.34263,51.58035],[-0.34247,51.58046],[-0.34293,51.58078],[-0.34295,51.58079]]]]}},
{ "type":"Feature","properties":{"osm_way_id":"223455428","name":"Sainsbury's","building":"yes","shop":"supermarket","other":{"addr:city":"Stanmore","addr:housenumber":"1","addr:postcode":"HA7 4DA","addr:street":"The Broadway","atm":"yes","branch":"Stanmore Superstore","brand":"Sainsbury's","brand:wikidata":"Q152096","brand:wikipedia":"en:Sainsbury's","opening_hours":"Mo-Sa 08:00-22:00; Su 10:00-16:00","opening_hours:url":"https:\/\/stores.sainsburys.co.uk\/2041\/stanmore","phone":"+44 20 8954 5300","website":"https:\/\/stores.sainsburys.co.uk\/2041\/stanmore"}}, "geometry":{"type":"MultiPolygon","coordinates":[[[[-0.31146,51.61689],[-0.31122,51.61665],[-0.31073,51.61685],[-0.3107,51.61687],[-0.31066,51.61691],[-0.31064,51.61696],[-0.3106,51.61749],[-0.31074,51.6175],[-0.31075,51.61747],[-0.311,51.61749],[-0.31102,51.61726],[-0.31106,51.61724],[-0.31108,51.61726],[-0.31122,51.61721],[-0.3112,51.61719],[-0.3114,51.61711],[-0.31127,51.61697],[-0.31146,51.61689]]]]}},
{ "type":"Feature","properties":{"osm_way_id":"223456007","name":"Waitrose","building":"retail","shop":"supermarket","other":{"addr:housenumber":"350","addr:postcode":"HA3 6HF","addr:street":"High Road","alt_name":"Waitrose South Harrow","brand":"Waitrose","brand:wikidata":"Q771734","brand:wikipedia":"en:Waitrose","building:levels":"2","fhrs:id":"276426","official_name":"Waitrose & Partners","opening_hours":"Mo-Sa 08:00-21:00; Su 11:00-17:00; PH 08:00-18:00","opening_hours:url":"http:\/\/www.waitrose.com\/bf_home\/bf\/143.html","operator":"Waitrose & Partners","phone":"+44 20 8861 3911","roof:levels":"0","roof:shape":"gabled"}}, "geometry":{"type":"MultiPolygon","coordinates":[[[[-0.33926,51.60556],[-0.33913,51.60542],[-0.33916,51.60536],[-0.3393,51.60532],[-0.33932,51.60528],[-0.33968,51.60517],[-0.33968,51.60515],[-0.3397,51.60514],[-0.33975,51.60512],[-0.33981,51.60513],[-0.33984,51.60516],[-0.33999,51.60535],[-0.33937,51.60556],[-0.33932,51.60554],[-0.33926,51.60556]]]]}},
{ "type":"Feature","properties":{"osm_way_id":"223456960","name":"Lidl","building":"retail","shop":"supermarket","other":{"addr:city":"Stanmore","addr:country":"GB","addr:housenumber":"80-82","addr:postcode":"HA7 4DU","addr:street":"The Broadway","branch":"Stanmore","brand":"Lidl","brand:wikidata":"Q151954","brand:wikipedia":"en:Lidl","fhrs:id":"276834","opening_hours":"Mo-Sa 08:00-21:00; Su 11:00-17:00"}}, "geometry":{"type":"MultiPolygon","coordinates":[[[[-0.30885,51.61839],[-0.30863,51.61807],[-0.30828,51.61817],[-0.30835,51.61827],[-0.30827,51.61829],[-0.30843,51.61851],[-0.30885,51.61839]]]]}},
{ "type":"Feature","properties":{"osm_way_id":"224014957","name":"Asda","building":"supermarket","shop":"supermarket","other":{"addr:city":"South Harrow","addr:country":"GB","addr:housenumber":"469-491","addr:postcode":"HA2 8JN","addr:street":"Northolt Road","brand":"Asda","brand:wikidata":"Q297410","brand:wikipedia":"en:Asda","contact:facebook":"https:\/\/www.facebook.com\/asda\/","contact:twitter":"@asda","contact:website":"https:\/\/storelocator.asda.com\/london\/london\/469\/491-northolt-road-south-harrow","fhrs:id":"277437","operator":"Asda Stores Ltd","wheelchair":"yes"}}, "geometry":{"type":"MultiPolygon","coordinates":[[[[-0.36098,51.55798],[-0.36051,51.55775],[-0.36078,51.55754],[-0.36121,51.55775],[-0.36107,51.55786],[-0.36111,51.55788],[-0.36098,51.55798]]]]}},
{ "type":"Feature","properties":{"osm_way_id":"228952326","name":"Tesco Express","building":"yes","shop":"supermarket","other":{"addr:city":"Stanmore","addr:postcode":"HA7 1JN","addr:street":"Honeypot Lane","brand":"Tesco Express","brand:wikidata":"Q98456772"}}, "geometry":{"type":"MultiPolygon","coordinates":[[[[-0.29433,51.59634],[-0.29426,51.59617],[-0.29421,51.59616],[-0.29405,51.59618],[-0.29407,51.59624],[-0.29404,51.59625],[-0.29409,51.59637],[-0.29433,51.59634]]]]}},
{ "type":"Feature","properties":{"osm_way_id":"228953865","name":"Lidl","building":"yes","shop":"supermarket","other":{"addr:city":"Edgware","addr:country":"GB","addr:housenumber":"51-55","addr:postcode":"HA8 7DD","addr:street":"High Street","branch":"Edgware","brand":"Lidl","brand:wikidata":"Q151954","fhrs:id":"276960","opening_hours":"Mo-Sa 07:00-23:00; Su 11:00-17:00","website":"https:\/\/www.lidl.co.uk\/"}}, "geometry":{"type":"MultiPolygon","coordinates":[[[[-0.27864,51.60993],[-0.2784,51.60971],[-0.27915,51.6094],[-0.27925,51.60948],[-0.27918,51.60951],[-0.27928,51.6096],[-0.27892,51.60975],[-0.27897,51.60979],[-0.27864,51.60993]]]]}},
{ "type":"Feature","properties":{"osm_way_id":"228954713","name":"Iceland","building":"yes","shop":"supermarket","other":{"addr:housename":"Supermarket","addr:place":"Kingsbury Circle","addr:postcode":"NW9 9QB","addr:street":"Kinsbury Circle","brand":"Iceland","brand:wikidata":"Q721810","fhrs:id":"276986","source:addr":"FHRS Open Data"}}, "geometry":{"type":"MultiPolygon","coordinates":[[[[-0.28298,51.58559],[-0.28291,51.58548],[-0.28266,51.58554],[-0.2826,51.58545],[-0.28251,51.58547],[-0.28264,51.58567],[-0.28298,51.58559]]]]}},
{ "type":"Feature","properties":{"osm_way_id":"241870401","name":"Asda","building":"commercial","shop":"supermarket","other":{"addr:city":"Wealdstone","addr:country":"GB","addr:postcode":"HA3 5DE","addr:street":"High Street","brand":"Asda","brand:wikidata":"Q297410","brand:wikipedia":"en:Asda","building:levels":"2","contact:facebook":"https:\/\/www.facebook.com\/asda\/","contact:twitter":"@asda","contact:website":"https:\/\/storelocator.asda.com\/london\/wealdstone\/35-40-high-street","diet:halal":"yes","fhrs:id":"816514","old_name":"InShops Centre Wealdstone","opening_hours":"Mo-Sa 07:00-23:00; Su 11:00-17:00","operator":"Asda Stores Ltd","roof:levels":"0","survey:date":"2015-01-02"}}, "geometry":{"type":"MultiPolygon","coordinates":[[[[-0.33601,51.5947],[-0.33536,51.59478],[-0.33537,51.59498],[-0.33555,51.59498],[-0.33562,51.59498],[-0.33584,51.59499],[-0.33601,51.59499],[-0.33601,51.5947]]]]}},
{ "type":"Feature","properties":{"osm_way_id":"242807689","name":"Tariq Supermarket","shop":"supermarket","other":{"building:part":"retail","diet:halal":"yes","old_name":"Sainsburys","opening_hours":"Mo-Su 07:00-22:00"}}, "geometry":{"type":"MultiPolygon","coordinates":[[[[-0.33497,51.59337],[-0.33472,51.59339],[-0.33475,51.59353],[-0.33501,51.59351],[-0.33497,51.59337]]]]}},
{ "type":"Feature","properties":{"osm_way_id":"484919611","name":"Sainsbury's","building":"retail","shop":"supermarket","other":{"addr:city":"Pinner","addr:housenumber":"12","addr:postcode":"HA5 5LU","addr:street":"Barters Walk","brand":"Sainsbury's","brand:wikidata":"Q152096","opening_hours":"Mo-Sa 07:00-22:00; Su 10:00-16:00; PH 09:00-19:00","phone":"+44 20 8868 1399","website":"https:\/\/stores.sainsburys.co.uk\/0504\/pinner"}}, "geometry":{"type":"MultiPolygon","coordinates":[[[[-0.38089,51.5931],[-0.38078,51.59313],[-0.38073,51.59304],[-0.38029,51.59316],[-0.38032,51.59323],[-0.38008,51.59329],[-0.38009,51.59335],[-0.38029,51.59367],[-0.38076,51.59356],[-0.38111,51.59347],[-0.38125,51.59349],[-0.38146,51.59334],[-0.38123,51.59326],[-0.38125,51.59324],[-0.38089,51.5931]]]]}},
{ "type":"Feature","properties":{"osm_way_id":"627732387","name":"M&S Foodhall","building":"yes","shop":"supermarket","other":{"brand":"M&S Foodhall","brand:wikidata":"Q714491","brand:wikipedia":"en:Marks & Spencer","layer":"1"}}, "geometry":{"type":"MultiPolygon","coordinates":[[[[-0.38189,51.5948],[-0.38198,51.5949],[-0.38194,51.59495],[-0.3819,51.59499],[-0.38175,51.59505],[-0.3818,51.5951],[-0.38175,51.59514],[-0.38174,51.59513],[-0.38168,51.59512],[-0.38149,51.59495],[-0.38152,51.59494],[-0.38153,51.59493],[-0.38137,51.59478],[-0.38176,51.59463],[-0.38181,51.59468],[-0.3819,51.59465],[-0.382,51.59475],[-0.38189,51.5948]]]]}},
{ "type":"Feature","properties":{"osm_way_id":"820876019","name":"Lidl","building":"retail","shop":"supermarket","other":{"addr:city":"Harrow","addr:housenumber":"354","addr:postcode":"HA3 6HF","addr:street":"High Road","brand":"Lidl","brand:wikidata":"Q151954","brand:wikipedia":"en:Lidl","fhrs:id":"1265278","old_name":"Homebase","source:addr":"FHRS Open Data"}}, "geometry":{"type":"MultiPolygon","coordinates":[[[[-0.33941,51.60617],[-0.33969,51.60668],[-0.33939,51.60674],[-0.33906,51.60682],[-0.33878,51.60631],[-0.33941,51.60617]]]]}}
]
}
