{
"type": "FeatureCollection",
"features": [
{ "type":"Feature","properties":{"osm_way_id":"201983849","building":"warehouse","other":{"building:colour":"grey","building:levels":"3","building:material":"metal","roof:shape":"gabled"}}, "geometry":{"type":"MultiPolygon","coordinates":[[[[1.72866,52.59143],[1.72847,52.59141],[1.72843,52.59153],[1.72862,52.59156],[1.72866,52.59143]]]]}},
{ "type":"Feature","properties":{"osm_way_id":"205409276","name":"Gardline","building":"warehouse","other":{"addr:housename":"Hewett Park"}}, "geometry":{"type":"MultiPolygon","coordinates":[[[[1.69808,52.59159],[1.69843,52.59162],[1.69855,52.5912],[1.69876,52.59047],[1.69841,52.59043],[1.69808,52.59159]]]]}},
{ "type":"Feature","properties":{"osm_way_id":"242691576","name":"Better Logistics","building":"warehouse","other":{"addr:city":"Great Yarmouth","addr:country":"GB","addr:street":"Bessemer Way"}}, "geometry":{"type":"MultiPolygon","coordinates":[[[[1.71379,52.59466],[1.71471,52.59464],[1.71468,52.59436],[1.71423,52.59437],[1.71422,52.59427],[1.71376,52.59428],[1.71379,52.59466]]]]}},
{ "type":"Feature","properties":{"osm_way_id":"243397650","name":"SD Enterprises","building":"warehouse","other":{"addr:city":"Norwich","addr:country":"GB","addr:postcode":"NR31 0LY","addr:street":"Boundary Road"}}, "geometry":{"type":"MultiPolygon","coordinates":[[[[1.71662,52.59336],[1.7166,52.59313],[1.71555,52.59316],[1.71555,52.59311],[1.715,52.59312],[1.71502,52.5934],[1.71556,52.59338],[1.71556,52.59334],[1.71577,52.59334],[1.71577,52.59338],[1.71662,52.59336]]]]}},
{ "type":"Feature","properties":{"osm_way_id":"916400332","building":"warehouse"},"geometry":{"type":"MultiPolygon","coordinates":[[[[1.72433,52.59329],[1.72431,52.5934],[1.72438,52.59341],[1.7244,52.59329],[1.72437,52.59329],[1.72433,52.59329]]]]}},
{ "type":"Feature","properties":{"osm_way_id":"917318404","name":"Silverton Aggregates","building":"warehouse","other":{"addr:city":"Great Yarmouth","addr:street":"Southtown Road","height":"6","phone":"+44 1493 441186"}}, "geometry":{"type":"MultiPolygon","coordinates":[[[[1.72568,52.59612],[1.72567,52.59603],[1.72573,52.59603],[1.72572,52.59585],[1.72567,52.59585],[1.72566,52.59575],[1.72534,52.59576],[1.72536,52.59613],[1.72568,52.59612]]]]}},
{ "type":"Feature","properties":{"osm_way_id":"917318407","name":"Silverton Aggregates","building":"warehouse"},"geometry":{"type":"MultiPolygon","coordinates":[[[[1.72533,52.59713],[1.72534,52.59713],[1.72558,52.59716],[1.72582,52.59718],[1.72588,52.59701],[1.72537,52.59696],[1.72537,52.59693],[1.72526,52.59693],[1.72522,52.59708],[1.72528,52.59709],[1.72531,52.597],[1.72536,52.597],[1.72533,52.59713]]]]}},
{ "type":"Feature","properties":{"osm_way_id":"917942254","name":"Perenco Neptune Warehouse","building":"warehouse","other":{"addr:city":"Great Yarmouth","addr:street":"South Denes Road","building:levels":"2"}}, "geometry":{"type":"MultiPolygon","coordinates":[[[[1.72723,52.59274],[1.72782,52.59281],[1.7279,52.59254],[1.72732,52.59246],[1.72723,52.59274]]]]}},
{ "type":"Feature","properties":{"osm_way_id":"917942268","building":"warehouse","other":{"building:levels":"2","building:material":"metal","roof:shape":"gabled"}}, "geometry":{"type":"MultiPolygon","coordinates":[[[[1.72973,52.59128],[1.73009,52.59133],[1.73014,52.59118],[1.72978,52.59113],[1.72973,52.59128]]]]}},
{ "type":"Feature","properties":{"osm_way_id":"917942276","building":"warehouse","other":{"building:levels":"2","building:material":"brick","roof:shape":"hipped"}}, "geometry":{"type":"MultiPolygon","coordinates":[[[[1.73031,52.59071],[1.73029,52.59077],[1.73049,52.5908],[1.73051,52.59074],[1.73031,52.59071]]]]}}
]
}
