{
"type": "FeatureCollection",
"features": [
{ "type":"Feature","properties":{"osm_id":"665712252","name":"Tesco Express","other":{"brand":"Tesco Express","brand:wikidata":"Q98456772","contact:website":"https:\/\/www.tesco.com\/store-locator\/slough\/1-7-grassmere-parade","shop":"supermarket"}}, "geometry":{"type":"Point","coordinates":[-0.5786,51.51818 ]}},
{ "type":"Feature","properties":{"osm_id":"1703569126","name":"Virk","other":{"shop":"supermarket"}}, "geometry":{"type":"Point","coordinates":[-0.57861,51.5177 ]}},
{ "type":"Feature","properties":{"osm_id":"1703569664","name":"Sabar","other":{"shop":"supermarket"}}, "geometry":{"type":"Point","coordinates":[-0.57889,51.51688 ]}},
{ "type":"Feature","properties":{"osm_id":"2968721547","name":"Britwell Supermarket","other":{"addr:city":"SLOUGH","addr:housenumber":"279","addr:postcode":"SL2 2LY","addr:street":"Long Furlong Drive","operator":"Premier Stores","shop":"supermarket","website":"https:\/\/www.premier-stores.co.uk\/","wheelchair":"limited"}}, "geometry":{"type":"Point","coordinates":[-0.6409,51.53198 ]}},
{ "type":"Feature","properties":{"osm_id":"3397941098","name":"Budgens","other":{"brand":"Budgens","brand:wikidata":"Q4985016","brand:wikipedia":"en:Budgens","shop":"supermarket"}}, "geometry":{"type":"Point","coordinates":[-0.54324,51.50479 ]}},
{ "type":"Feature","properties":{"osm_id":"3397946642","name":"Tesco Express","other":{"brand":"Tesco Express","brand:wikidata":"Q98456772","contact:website":"https:\/\/www.tesco.com\/store-locator\/slough\/24-parlaunt-rd","opening_hours":"Mo-Su 06:00-23:00","shop":"supermarket"}}, "geometry":{"type":"Point","coordinates":[-0.53908,51.49941 ]}},
{ "type":"Feature","properties":{"osm_id":"7117939220","name":"Lidl","other":{"addr:city":"Slough","addr:country":"GB","addr:housenumber":"2","addr:postcode":"SL1 5AL","addr:street":"Twinches Lane","brand":"Lidl","brand:wikidata":"Q151954","brand:wikipedia":"en:Lidl","fhrs:id":"1454137","old_name":"Harveys","shop":"supermarket"}}, "geometry":{"type":"Point","coordinates":[-0.62211,51.51277 ]}},
{ "type":"Feature","properties":{"osm_id":"7471708679","name":"Tani Sklep","other":{"air_conditioning":"yes","shop":"supermarket"}}, "geometry":{"type":"Point","coordinates":[-0.58691,51.5074 ]}},
{ "type":"Feature","properties":{"osm_id":"7471708683","name":"Mleczko","other":{"air_conditioning":"yes","shop":"supermarket"}}, "geometry":{"type":"Point","coordinates":[-0.5859,51.50746 ]}},
{ "type":"Feature","properties":{"osm_way_id":"37960097","name":"Tesco Extra","building":"yes","shop":"supermarket","other":{"addr:city":"Slough","addr:housenumber":"Brunel Way","addr:postcode":"SL1 1XW","addr:street":"Wellington Street","brand":"Tesco Extra","brand:wikidata":"Q25172225","brand:wikipedia":"en:Tesco Extra","level":"1","opening_hours":"Mo 00:00-23:59; Tu-Fr 00:00-24:00; Sa 00:00-23:59; Su 10:00-16:00","wheelchair":"yes"}}, "geometry":{"type":"MultiPolygon","coordinates":[[[[-0.59186,51.51036],[-0.58988,51.51004],[-0.58978,51.51009],[-0.58935,51.51121],[-0.59021,51.51133],[-0.59022,51.51125],[-0.59045,51.51129],[-0.59054,51.51106],[-0.59157,51.51121],[-0.59186,51.51036]]]]}},
{ "type":"Feature","properties":{"osm_way_id":"95845237","name":"Sainsbury's","building":"yes","shop":"supermarket","other":{"addr:city":"Slough","addr:postcode":"SL1 1SU","addr:street":"Uxbridge Road","brand":"Sainsbury's","brand:wikidata":"Q152096","brand:wikipedia":"en:Sainsbury's","layer":"1","opening_hours:covid19":"open","operator":"Sainsbury Superstores","payment:all":"yes"}}, "geometry":{"type":"MultiPolygon","coordinates":[[[[-0.57923,51.5087],[-0.57891,51.50846],[-0.57857,51.50862],[-0.57845,51.50853],[-0.5786,51.50846],[-0.57818,51.50796],[-0.57904,51.50752],[-0.57929,51.50768],[-0.58003,51.50823],[-0.58005,51.50824],[-0.58011,51.50826],[-0.58011,51.50832],[-0.58006,51.50836],[-0.57997,51.50837],[-0.57992,51.50834],[-0.57923,51.5087]]]]}},
{ "type":"Feature","properties":{"osm_way_id":"170089983","name":"Asda","building":"yes","shop":"supermarket","other":{"addr:city":"Slough","addr:country":"GB","addr:postcode":"SL1 9LA","addr:street":"Telford Drive","brand":"Asda","brand:wikidata":"Q297410","brand:wikipedia":"en:Asda","contact:facebook":"https:\/\/www.facebook.com\/asda\/","contact:twitter":"@asda","contact:website":"https:\/\/storelocator.asda.com\/south-east\/slough\/telford-drive","fhrs:id":"511762","operator":"Asda Stores Ltd"}}, "geometry":{"type":"MultiPolygon","coordinates":[[[[-0.62926,51.50761],[-0.62931,51.5075],[-0.62923,51.50748],[-0.62936,51.50722],[-0.62945,51.50724],[-0.62967,51.50678],[-0.63003,51.50685],[-0.63006,51.5068],[-0.6312,51.50702],[-0.63091,51.50761],[-0.63077,51.50758],[-0.63071,51.50771],[-0.63033,51.50764],[-0.63025,51.5078],[-0.62926,51.50761]]]]}},
{ "type":"Feature","properties":{"osm_way_id":"459600825","name":"Sainsbury's","building":"yes","shop":"supermarket","other":{"brand":"Sainsbury's","brand:wikidata":"Q152096","brand:wikipedia":"en:Sainsbury's","operator":"Sainsburys"}}, "geometry":{"type":"MultiPolygon","coordinates":[[[[-0.61566,51.52387],[-0.61567,51.52395],[-0.61554,51.52395],[-0.61553,51.52383],[-0.6155,51.5235],[-0.61577,51.5235],[-0.61577,51.5236],[-0.6159,51.52359],[-0.61589,51.52348],[-0.61616,51.52348],[-0.61617,51.52359],[-0.61632,51.52358],[-0.61632,51.52363],[-0.61634,51.52385],[-0.61566,51.52387]]]]}},
{ "type":"Feature","properties":{"osm_way_id":"544016345","name":"Lidl","building":"yes","shop":"supermarket","other":{"addr:country":"GB","addr:housenumber":"360","addr:postcode":"SL2 1BT","addr:street":"Farnham Road","brand":"Lidl","brand:wikidata":"Q151954","brand:wikipedia":"en:Lidl","fhrs:id":"511627"}}, "geometry":{"type":"MultiPolygon","coordinates":[[[[-0.61568,51.5266],[-0.61528,51.52664],[-0.61543,51.52718],[-0.6155,51.52718],[-0.61554,51.52731],[-0.61594,51.52726],[-0.61585,51.52693],[-0.61577,51.52694],[-0.61568,51.52661],[-0.61568,51.5266]]]]}},
{ "type":"Feature","properties":{"osm_way_id":"785700857","name":"Chalvey Supermarket","building":"yes","shop":"supermarket"},"geometry":{"type":"MultiPolygon","coordinates":[[[[-0.60617,51.50654],[-0.60572,51.50653],[-0.60575,51.50622],[-0.60619,51.50624],[-0.60617,51.50654]]]]}},
{ "type":"Feature","properties":{"osm_way_id":"787922381","building":"yes"},"geometry":{"type":"MultiPolygon","coordinates":[[[[-0.59214,51.50342],[-0.59148,51.50335],[-0.5915,51.50331],[-0.59215,51.50338],[-0.59214,51.50342]]]]}}
]
}
