{
"type": "FeatureCollection",
"features": [
{ "type":"Feature","properties":{"osm_id":"308854516","name":"Spar","other":{"addr:postcode":"DY8 5PD","brand":"Spar","brand:wikidata":"Q610492","brand:wikipedia":"en:SPAR (retailer)","fhrs:id":"501593","shop":"supermarket","source:addr:postcode":"FHRS Open Data"}}, "geometry":{"type":"Point","coordinates":[-2.16505,52.4806 ]}},
{ "type":"Feature","properties":{"osm_id":"308854554","name":"Spar","other":{"addr:housenumber":"102","addr:postcode":"DY8 5NA","addr:street":"Lawnswood Road","brand":"Spar","brand:wikidata":"Q610492","brand:wikipedia":"en:SPAR (retailer)","fhrs:id":"500891","shop":"supermarket","source:addr":"FHRS Open Data","wheelchair":"yes"}}, "geometry":{"type":"Point","coordinates":[-2.1731,52.48272 ]}},
{ "type":"Feature","properties":{"osm_id":"361120313","name":"Munir Bros","other":{"addr:housenumber":"48-49","addr:postcode":"B62 9LS","addr:street":"Long Lane","fhrs:id":"896343","shop":"supermarket","source:addr":"FHRS Open Data"}}, "geometry":{"type":"Point","coordinates":[-2.03471,52.47159 ]}},
{ "type":"Feature","properties":{"osm_id":"390344179","name":"Asda","other":{"addr:city":"Halesowen","addr:country":"GB","addr:postcode":"B63 4AB","addr:street":"The Cornbow Centre","brand":"Asda","brand:wikidata":"Q297410","brand:wikipedia":"en:Asda","contact:facebook":"https:\/\/www.facebook.com\/asda\/","contact:twitter":"@asda","contact:website":"https:\/\/storelocator.asda.com\/west-midlands\/halesowen\/queensway-mount","fhrs:id":"501763","operator":"Asda Stores Ltd","shop":"supermarket"}}, "geometry":{"type":"Point","coordinates":[-2.05255,52.44843 ]}},
{ "type":"Feature","properties":{"osm_id":"559240982","name":"Spar","other":{"brand":"Spar","brand:wikidata":"Q610492","brand:wikipedia":"en:SPAR (retailer)","shop":"supermarket"}}, "geometry":{"type":"Point","coordinates":[-2.11437,52.54342 ]}},
{ "type":"Feature","properties":{"osm_id":"851130870","name":"Food City","other":{"shop":"supermarket"}}, "geometry":{"type":"Point","coordinates":[-2.11275,52.45703 ]}},
{ "type":"Feature","properties":{"osm_id":"2101763787","other":{"power":"substation"}}, "geometry":{"type":"Point","coordinates":[-2.14901,52.45776 ]}},
{ "type":"Feature","properties":{"osm_id":"2696680003","name":"Hawthorne & Walker Fine Food Ltd","other":{"addr:housenumber":"173-176","addr:postcode":"DY5 2AB","addr:street":"High Street","fhrs:id":"500678","shop":"supermarket","source:addr":"FHRS Open Data"}}, "geometry":{"type":"Point","coordinates":[-2.1033,52.47216 ]}},
{ "type":"Feature","properties":{"osm_id":"2830788133","name":"Waitrose","other":{"addr:housenumber":"44","addr:postcode":"DY8 1HJ","addr:street":"Ryemarket","brand":"Waitrose","brand:wikidata":"Q771734","brand:wikipedia":"en:Waitrose","fhrs:id":"501253","official_name":"Waitrose & Partners","operator":"Waitrose & Partners","shop":"supermarket","source:addr":"FHRS Open Data"}}, "geometry":{"type":"Point","coordinates":[-2.14749,52.45592 ]}},
{ "type":"Feature","properties":{"osm_id":"2830793199","other":{"power":"substation"}}, "geometry":{"type":"Point","coordinates":[-2.14891,52.45776 ]}},
{ "type":"Feature","properties":{"osm_id":"4560892708","name":"Asda","other":{"addr:city":"Brierley Hill","addr:place":"Merry Hill Centre","addr:postcode":"DY5 1QL","brand":"Asda","brand:wikidata":"Q297410","brand:wikipedia":"en:Asda","contact:facebook":"https:\/\/www.facebook.com\/asda\/","contact:twitter":"@asda","contact:website":"https:\/\/storelocator.asda.com\/west-midlands\/dudley\/merryhill-centre","fhrs:id":"501002","operator":"Asda Stores Ltd","shop":"supermarket"}}, "geometry":{"type":"Point","coordinates":[-2.10976,52.48006 ]}},
{ "type":"Feature","properties":{"osm_id":"7441068465","name":"Asda","other":{"addr:city":"Coseley","addr:country":"GB","addr:postcode":"WV14 8QQ","addr:street":"Daisy Street","brand":"Asda","brand:wikidata":"Q297410","brand:wikipedia":"en:Asda","contact:facebook":"https:\/\/www.facebook.com\/asda\/","contact:twitter":"@asda","contact:website":"https:\/\/storelocator.asda.com\/west-midlands\/coseley\/daisy-street-north-bilston","fhrs:id":"501963","operator":"Asda Stores Ltd","shop":"supermarket"}}, "geometry":{"type":"Point","coordinates":[-2.07551,52.55206 ]}},
{ "type":"Feature","properties":{"osm_way_id":"32842347","name":"Tesco Extra","building":"retail","shop":"supermarket","other":{"addr:city":"Dudley","addr:postcode":"DY1 4RP","addr:street":"Birmingham New Road","brand":"Tesco Extra","brand:wikidata":"Q25172225","brand:wikipedia":"en:Tesco Extra","fhrs:id":"500104","opening_hours":"Mo-Sa 00:00-24:00, Su 10:00-16:00"}}, "geometry":{"type":"MultiPolygon","coordinates":[[[[-2.06553,52.51522],[-2.06562,52.51495],[-2.06552,52.51494],[-2.06578,52.51415],[-2.06588,52.51387],[-2.06607,52.51389],[-2.06617,52.5139],[-2.06643,52.51394],[-2.06667,52.51397],[-2.06683,52.51399],[-2.06724,52.51403],[-2.06722,52.51412],[-2.06738,52.51414],[-2.06733,52.51428],[-2.06715,52.51426],[-2.06701,52.51468],[-2.06729,52.51471],[-2.06721,52.51493],[-2.06701,52.51491],[-2.06689,52.51527],[-2.06713,52.5153],[-2.06724,52.51532],[-2.06721,52.51542],[-2.06683,52.51538],[-2.06666,52.51536],[-2.0666,52.51535],[-2.06649,52.51534],[-2.06599,52.51527],[-2.06599,52.51527],[-2.0657,52.51524],[-2.06562,52.51523],[-2.06553,52.51522]]]]}},
{ "type":"Feature","properties":{"osm_way_id":"50000332","name":"Lidl","building":"retail","shop":"supermarket","other":{"addr:postcode":"B63 4RH","addr:street":"Hagley Road","brand":"Lidl","brand:wikidata":"Q151954","brand:wikipedia":"en:Lidl","fhrs:id":"501789","source:addr":"FHRS Open Data"}}, "geometry":{"type":"MultiPolygon","coordinates":[[[[-2.05448,52.44696],[-2.05414,52.44676],[-2.05434,52.44664],[-2.05438,52.44666],[-2.05471,52.44645],[-2.05493,52.44658],[-2.05488,52.44662],[-2.05494,52.44666],[-2.0548,52.44674],[-2.05487,52.44678],[-2.05472,52.44688],[-2.05465,52.44684],[-2.05448,52.44696]]]]}},
{ "type":"Feature","properties":{"osm_way_id":"64743248","name":"Asda","building":"yes","shop":"supermarket","other":{"addr:city":"Dudley","addr:country":"GB","addr:postcode":"DY2 9RR","addr:street":"Saltwells Road","brand":"Asda","brand:wikidata":"Q297410","brand:wikipedia":"en:Asda","contact:facebook":"https:\/\/www.facebook.com\/asda\/","contact:twitter":"@asda","contact:website":"https:\/\/storelocator.asda.com\/west-midlands\/dudley\/saltwells-road-cradley-road-netherton","fhrs:id":"501936","old_name":"Netto","operator":"Asda Stores Ltd"}}, "geometry":{"type":"MultiPolygon","coordinates":[[[[-2.08061,52.48124],[-2.07992,52.48156],[-2.07972,52.4814],[-2.08042,52.48108],[-2.08061,52.48124]]]]}},
{ "type":"Feature","properties":{"osm_way_id":"70025998","name":"Lidl","building":"yes","shop":"supermarket","other":{"addr:housenumber":"301","addr:postcode":"DY2 9NP","addr:street":"Halesowen Road","brand":"Lidl","brand:wikidata":"Q151954","brand:wikipedia":"en:Lidl","fhrs:id":"896345","source:addr":"FHRS Open Data"}}, "geometry":{"type":"MultiPolygon","coordinates":[[[[-2.07228,52.48307],[-2.07151,52.48344],[-2.07126,52.48324],[-2.07203,52.48288],[-2.07228,52.48307]]]]}},
{ "type":"Feature","properties":{"osm_way_id":"70517314","name":"ALDI","building":"yes","shop":"supermarket","other":{"addr:postcode":"DY2 9PE","addr:street":"Saltwells Road","brand":"ALDI","brand:wikidata":"Q41171672","brand:wikipedia":"en:Aldi","fhrs:id":"901377","source:addr":"FHRS Open Data"}}, "geometry":{"type":"MultiPolygon","coordinates":[[[[-2.07408,52.48367],[-2.07378,52.48382],[-2.07336,52.4835],[-2.07365,52.48336],[-2.07408,52.48367]]]]}},
{ "type":"Feature","properties":{"osm_way_id":"73389339","name":"Windmill Supermarket","building":"yes","shop":"supermarket","other":{"addr:housenumber":"90","addr:postcode":"B63 2BY","addr:street":"Windmill Hill","fhrs:id":"501552","source:addr":"FHRS Open Data"}}, "geometry":{"type":"MultiPolygon","coordinates":[[[[-2.08438,52.45906],[-2.08415,52.45917],[-2.08402,52.45908],[-2.08425,52.45897],[-2.08438,52.45906]]]]}},
{ "type":"Feature","properties":{"osm_way_id":"90691074","name":"Sainsbury's","building":"yes","shop":"supermarket","other":{"addr:postcode":"DY5 3JR","addr:street":"Sandringham Way","brand":"Sainsbury's","brand:wikidata":"Q152096","brand:wikipedia":"en:Sainsbury's","fhrs:id":"501267","source:addr":"FHRS Open Data"}}, "geometry":{"type":"MultiPolygon","coordinates":[[[[-2.13044,52.47073],[-2.13007,52.47082],[-2.13014,52.47094],[-2.12968,52.47105],[-2.12961,52.47094],[-2.129,52.47109],[-2.12869,52.4706],[-2.12985,52.47032],[-2.12994,52.47046],[-2.13022,52.4704],[-2.13044,52.47073]]]]}},
{ "type":"Feature","properties":{"osm_way_id":"90833791","name":"ALDI","building":"retail","shop":"supermarket","other":{"brand":"ALDI","brand:wikidata":"Q41171672","brand:wikipedia":"en:Aldi"}}, "geometry":{"type":"MultiPolygon","coordinates":[[[[-2.09185,52.49945],[-2.09138,52.49952],[-2.09139,52.49955],[-2.09112,52.4996],[-2.09099,52.49931],[-2.09182,52.49917],[-2.09186,52.49926],[-2.09178,52.49928],[-2.09185,52.49945]]]]}},
{ "type":"Feature","properties":{"osm_way_id":"91217371","name":"ALDI","building":"retail","shop":"supermarket","other":{"addr:postcode":"DY8 1PB","addr:street":"New Road","brand":"ALDI","brand:wikidata":"Q41171672","brand:wikipedia":"en:Aldi","fhrs:id":"501817","source:addr":"FHRS Open Data"}}, "geometry":{"type":"MultiPolygon","coordinates":[[[[-2.14646,52.45533],[-2.14638,52.45532],[-2.14638,52.45534],[-2.14563,52.4553],[-2.14554,52.45523],[-2.14557,52.45503],[-2.14632,52.45507],[-2.1463,52.45519],[-2.14648,52.4552],[-2.14646,52.45533]]]]}},
{ "type":"Feature","properties":{"osm_way_id":"93296847","name":"ALDI","building":"yes","shop":"supermarket","other":{"addr:postcode":"DY6 8BT","addr:street":"Dudley Road","brand":"ALDI","brand:wikidata":"Q41171672","brand:wikipedia":"en:Aldi","fhrs:id":"1063937","opening_hours":"Mo-Sa 08:00-22:00 Su 10:00-16:00","source:addr":"FHRS Open Data"}}, "geometry":{"type":"MultiPolygon","coordinates":[[[[-2.15508,52.50099],[-2.15424,52.50107],[-2.15415,52.50071],[-2.15462,52.50067],[-2.15509,52.50063],[-2.15512,52.50072],[-2.15508,52.50099]]]]}},
{ "type":"Feature","properties":{"osm_way_id":"148447739","name":"Asda","building":"retail","shop":"supermarket","other":{"addr:city":"Dudley","addr:country":"GB","addr:postcode":"DY1 1QS","addr:street":"High Street","brand":"Asda","brand:wikidata":"Q297410","brand:wikipedia":"en:Asda","contact:facebook":"https:\/\/www.facebook.com\/asda\/","contact:twitter":"@asda","contact:website":"https:\/\/storelocator.asda.com\/west-midlands\/dudley\/high-street","fhrs:id":"501901","operator":"Asda Stores Ltd"}}, "geometry":{"type":"MultiPolygon","coordinates":[[[[-2.0881,52.50878],[-2.08799,52.50871],[-2.08779,52.50858],[-2.08827,52.5083],[-2.08834,52.50835],[-2.0883,52.50838],[-2.08846,52.50848],[-2.08823,52.50862],[-2.0883,52.50867],[-2.0881,52.50878]]]]}},
{ "type":"Feature","properties":{"osm_way_id":"150357849","name":"Lidl","building":"yes","shop":"supermarket","other":{"addr:housenumber":"120","addr:postcode":"DY8 4BA","addr:street":"Brettell Lane","brand":"Lidl","brand:wikidata":"Q151954","brand:wikipedia":"en:Lidl","fhrs:id":"500138","source:addr":"FHRS Open Data"}}, "geometry":{"type":"MultiPolygon","coordinates":[[[[-2.15482,52.47119],[-2.15438,52.4713],[-2.15433,52.47123],[-2.15439,52.47121],[-2.15416,52.47089],[-2.15447,52.47081],[-2.15449,52.47084],[-2.15457,52.47082],[-2.15482,52.47119]]]]}},
{ "type":"Feature","properties":{"osm_way_id":"150398053","name":"Co-op Food","building":"yes","shop":"supermarket","other":{"brand":"Co-op Food","brand:wikidata":"Q3277439","brand:wikipedia":"en:Co-op Food"}}, "geometry":{"type":"MultiPolygon","coordinates":[[[[-2.1448,52.45572],[-2.14472,52.45566],[-2.14478,52.4556],[-2.1448,52.45557],[-2.14477,52.45554],[-2.14478,52.45551],[-2.14481,52.45539],[-2.14483,52.45527],[-2.14492,52.45528],[-2.14493,52.45525],[-2.14541,52.45532],[-2.14536,52.45546],[-2.145,52.45541],[-2.14493,52.45561],[-2.1449,52.45565],[-2.14492,52.45566],[-2.1448,52.45572]]]]}},
{ "type":"Feature","properties":{"osm_way_id":"152988326","name":"Co-operative","building":"retail","shop":"supermarket"},"geometry":{"type":"MultiPolygon","coordinates":[[[[-2.16745,52.49749],[-2.16701,52.49752],[-2.16701,52.49751],[-2.16687,52.49752],[-2.16683,52.49732],[-2.16681,52.49724],[-2.16681,52.49719],[-2.16697,52.49717],[-2.16696,52.49714],[-2.16727,52.49712],[-2.16732,52.49721],[-2.16747,52.4972],[-2.16755,52.49744],[-2.16754,52.49746],[-2.16744,52.49747],[-2.16745,52.49749]]]]}},
{ "type":"Feature","properties":{"osm_way_id":"153382469","name":"Morrisons","building":"yes","shop":"supermarket","other":{"addr:postcode":"DY6 7SH","addr:street":"Stallings Lane","brand":"Morrisons","brand:wikidata":"Q922344","brand:wikipedia":"en:Morrisons","fhrs:id":"501317","source:addr":"FHRS Open Data"}}, "geometry":{"type":"MultiPolygon","coordinates":[[[[-2.16338,52.50705],[-2.16362,52.50698],[-2.16371,52.50696],[-2.16374,52.50692],[-2.16365,52.50677],[-2.16375,52.50675],[-2.16347,52.50631],[-2.16271,52.5065],[-2.16301,52.50695],[-2.163,52.50699],[-2.16308,52.50712],[-2.16338,52.50705]]]]}},
{ "type":"Feature","properties":{"osm_way_id":"200180631","name":"Tesco Extra","building":"retail","shop":"supermarket","other":{"addr:postcode":"DY8 1YD","brand":"Tesco Extra","brand:wikidata":"Q25172225","brand:wikipedia":"en:Tesco Extra","contact:website":"https:\/\/www.tesco.com\/store-locator\/stourbridge\/crown-centre","fhrs:id":"720409","source:addr:postcode":"FHRS Open Data"}}, "geometry":{"type":"MultiPolygon","coordinates":[[[[-2.14932,52.45783],[-2.14914,52.45781],[-2.14914,52.45776],[-2.14901,52.45776],[-2.14891,52.45776],[-2.14878,52.45775],[-2.14873,52.45771],[-2.1485,52.45769],[-2.14849,52.45772],[-2.14837,52.45771],[-2.14838,52.45766],[-2.14844,52.4572],[-2.14845,52.45714],[-2.14854,52.45714],[-2.14856,52.45707],[-2.14858,52.45706],[-2.14866,52.45706],[-2.14866,52.45703],[-2.14867,52.45697],[-2.14868,52.45695],[-2.14879,52.45695],[-2.14883,52.45696],[-2.14936,52.45696],[-2.1494,52.45696],[-2.1494,52.45705],[-2.14938,52.45714],[-2.14935,52.45714],[-2.14931,52.45736],[-2.14939,52.45736],[-2.14933,52.45775],[-2.14932,52.45783]]]]}},
{ "type":"Feature","properties":{"osm_way_id":"267373644","name":"ALDI","building":"retail","shop":"supermarket","other":{"brand":"ALDI","brand:wikidata":"Q41171672","brand:wikipedia":"en:Aldi"}}, "geometry":{"type":"MultiPolygon","coordinates":[[[[-2.04765,52.45326],[-2.04701,52.45287],[-2.04677,52.45302],[-2.04748,52.45346],[-2.04757,52.4534],[-2.04749,52.45335],[-2.04765,52.45326]]]]}},
{ "type":"Feature","properties":{"osm_way_id":"267382533","name":"ALDI","building":"commercial","shop":"supermarket","other":{"brand":"ALDI"}}, "geometry":{"type":"MultiPolygon","coordinates":[[[[-2.11899,52.49028],[-2.11881,52.4902],[-2.1186,52.49011],[-2.11849,52.49021],[-2.11832,52.49013],[-2.11862,52.48987],[-2.11918,52.49011],[-2.11899,52.49028]]]]}},
{ "type":"Feature","properties":{"osm_way_id":"267392086","name":"Asda","building":"retail","shop":"supermarket","other":{"addr:city":"Dudley","addr:country":"GB","addr:postcode":"DY5 3BJ","addr:street":"Pearson Street","addr:village":"Brierley Hill","alt_name":"Asda Brierley Hill","brand":"Asda","brand:wikidata":"Q297410","brand:wikipedia":"en:Asda","contact:facebook":"https:\/\/www.facebook.com\/asdabrierleyhill\/","contact:phone":"+44 1384 571111","contact:twitter":"@asdabrierley","contact:website":"https:\/\/storelocator.asda.com\/west-midlands\/brierley-hill\/pearson-street","fhrs:id":"501162","operator":"Asda Stores Ltd"}}, "geometry":{"type":"MultiPolygon","coordinates":[[[[-2.12034,52.4836],[-2.11963,52.48367],[-2.11955,52.48339],[-2.11938,52.4834],[-2.11929,52.48309],[-2.11921,52.4831],[-2.11915,52.48291],[-2.11947,52.48287],[-2.11953,52.48305],[-2.12023,52.48298],[-2.12033,52.48334],[-2.12026,52.48334],[-2.12034,52.4836]]]]}},
{ "type":"Feature","properties":{"osm_way_id":"278883589","name":"Simply Fresh","building":"retail","shop":"supermarket","other":{"addr:city":"Stourbridge","addr:postcode":"DY8 1QU","addr:street":"Hagley Road"}}, "geometry":{"type":"MultiPolygon","coordinates":[[[[-2.14112,52.44903],[-2.14082,52.44906],[-2.14079,52.44895],[-2.1412,52.4489],[-2.14132,52.44889],[-2.14135,52.449],[-2.14112,52.44903]]]]}},
{ "type":"Feature","properties":{"osm_way_id":"280780566","name":"ALDI","building":"retail","shop":"supermarket","other":{"brand":"ALDI","brand:wikidata":"Q41171672","brand:wikipedia":"en:Aldi"}}, "geometry":{"type":"MultiPolygon","coordinates":[[[[-2.16262,52.46007],[-2.16216,52.46013],[-2.16214,52.46005],[-2.16204,52.45977],[-2.16257,52.4597],[-2.16265,52.45994],[-2.16258,52.45995],[-2.16262,52.46007]]]]}},
{ "type":"Feature","properties":{"osm_way_id":"280783601","name":"Asda","building":"yes","shop":"supermarket","other":{"addr:city":"Sedgley","addr:country":"GB","addr:postcode":"DY3 1SS","addr:street":"High Holborn","brand":"Asda","brand:wikidata":"Q297410","brand:wikipedia":"en:Asda","contact:facebook":"https:\/\/www.facebook.com\/asda\/","contact:twitter":"@asda","contact:website":"https:\/\/storelocator.asda.com\/west-midlands\/sedgley\/high-holborn-street","fhrs:id":"1097383","operator":"Asda Stores Ltd"}}, "geometry":{"type":"MultiPolygon","coordinates":[[[[-2.1209,52.53947],[-2.12041,52.53957],[-2.12033,52.53958],[-2.12012,52.53919],[-2.12088,52.53904],[-2.12091,52.5391],[-2.12099,52.53908],[-2.12103,52.53916],[-2.12115,52.53914],[-2.12125,52.53933],[-2.12093,52.53939],[-2.12095,52.53943],[-2.12089,52.53944],[-2.1209,52.53947]]]]}},
{ "type":"Feature","properties":{"osm_way_id":"300337132","name":"Lidl","building":"retail","shop":"supermarket","other":{"addr:postcode":"DY6 7BG","addr:street":"Stallings Lane","brand":"Lidl","brand:wikidata":"Q151954","brand:wikipedia":"en:Lidl","fhrs:id":"873904","source:addr":"FHRS Open Data"}}, "geometry":{"type":"MultiPolygon","coordinates":[[[[-2.16769,52.5044],[-2.16776,52.50458],[-2.16728,52.50465],[-2.16698,52.50395],[-2.1671,52.50393],[-2.16712,52.50398],[-2.16728,52.50396],[-2.16733,52.50406],[-2.16753,52.50403],[-2.16769,52.5044]]]]}},
{ "type":"Feature","properties":{"osm_way_id":"305948449","name":"Co-op Food","building":"yes","shop":"supermarket","other":{"addr:postcode":"B62 9SS","addr:street":"Spies Lane","brand":"Co-op Food","brand:wikidata":"Q3277439","brand:wikipedia":"en:Co-op Food","fhrs:id":"650571","source:addr":"FHRS Open Data"}}, "geometry":{"type":"MultiPolygon","coordinates":[[[[-2.0226,52.45537],[-2.02223,52.45522],[-2.0224,52.45507],[-2.02261,52.45515],[-2.02256,52.45519],[-2.02273,52.45525],[-2.0226,52.45537]]]]}},
{ "type":"Feature","properties":{"osm_way_id":"367996809","name":"ALDI","building":"retail","shop":"supermarket","other":{"brand":"ALDI","brand:wikidata":"Q41171672","brand:wikipedia":"en:Aldi"}}, "geometry":{"type":"MultiPolygon","coordinates":[[[[-2.08588,52.5272],[-2.08514,52.52693],[-2.08536,52.52672],[-2.0861,52.52698],[-2.08588,52.5272]]]]}},
{ "type":"Feature","properties":{"osm_way_id":"385590969","name":"Co-op Food","building":"yes","shop":"supermarket","other":{"addr:postcode":"DY1 2RH","addr:street":"Dibdale Road West","brand":"Co-op Food","brand:wikidata":"Q3277439","brand:wikipedia":"en:Co-op Food","fhrs:id":"500359","operator":"Central England Co-operative","source:addr":"FHRS Open Data"}}, "geometry":{"type":"MultiPolygon","coordinates":[[[[-2.1147,52.51817],[-2.11409,52.5183],[-2.1141,52.51833],[-2.11394,52.51836],[-2.11387,52.51823],[-2.11392,52.51822],[-2.11386,52.51811],[-2.11458,52.51796],[-2.1147,52.51817]]]]}},
{ "type":"Feature","properties":{"osm_way_id":"461258128","name":"Lidl","building":"retail","shop":"supermarket","other":{"addr:postcode":"DY5 1SY","addr:street":"The Boulevard","brand":"Lidl","brand:wikidata":"Q151954","brand:wikipedia":"en:Lidl","old_name":"Ultimate Outdoors","source:addr":"FHRS Open Data"}}, "geometry":{"type":"MultiPolygon","coordinates":[[[[-2.10867,52.47732],[-2.10804,52.47722],[-2.10828,52.47666],[-2.10839,52.47641],[-2.10847,52.47643],[-2.10887,52.47649],[-2.10902,52.47651],[-2.10897,52.47664],[-2.10867,52.47732]]]]}},
{ "type":"Feature","properties":{"osm_way_id":"669245575","name":"Sharif & Sons. Supermarket","building":"yes","shop":"supermarket","other":{"addr:housenumber":"24-29","addr:postcode":"DY2 8NY","addr:street":"King Street","fhrs:id":"1039282","source:addr":"FHRS Open Data"}}, "geometry":{"type":"MultiPolygon","coordinates":[[[[-2.08187,52.50899],[-2.08187,52.50904],[-2.08188,52.5091],[-2.08189,52.50926],[-2.0819,52.50934],[-2.08226,52.50929],[-2.08221,52.50916],[-2.08214,52.50898],[-2.08187,52.50899]]]]}},
{ "type":"Feature","properties":{"osm_way_id":"669356699","name":"Heron Foods","building":"yes","shop":"supermarket","other":{"addr:city":"Dudley","addr:country":"GB","addr:housenumber":"246,248","addr:postcode":"DY1 1LQ","addr:street":"Castle Street","brand":"Heron Foods","brand:wikidata":"Q5743472","brand:wikipedia":"en:Heron Foods","contact:website":"https:\/\/heronfoods.com\/storelocator\/store-details\/dudley","fhrs:id":"500235"}}, "geometry":{"type":"MultiPolygon","coordinates":[[[[-2.08148,52.51125],[-2.08163,52.51131],[-2.08161,52.51133],[-2.08165,52.51135],[-2.08169,52.51137],[-2.08181,52.51127],[-2.08178,52.51125],[-2.08159,52.51116],[-2.08148,52.51125]]]]}},
{ "type":"Feature","properties":{"osm_way_id":"929903725","building":"yes"},"geometry":{"type":"MultiPolygon","coordinates":[[[[-3.39203,51.76324],[-3.39204,51.76332],[-3.39196,51.76333],[-3.39195,51.76325],[-3.39203,51.76324]]]]}}
]
}
