{
"type": "FeatureCollection",
"features": [
{ "type":"Feature","properties":{"osm_way_id":"92718268","building":"warehouse"},"geometry":{"type":"MultiPolygon","coordinates":[[[[-2.3696,51.38007],[-2.36949,51.38011],[-2.36963,51.38026],[-2.36967,51.38031],[-2.36954,51.38035],[-2.36938,51.38016],[-2.36918,51.37997],[-2.36939,51.37986],[-2.3696,51.38007]]]]}},
{ "type":"Feature","properties":{"osm_way_id":"92718280","building":"warehouse"},"geometry":{"type":"MultiPolygon","coordinates":[[[[-2.37017,51.38],[-2.3701,51.37997],[-2.37008,51.38],[-2.36974,51.37989],[-2.36988,51.37971],[-2.37025,51.37983],[-2.37023,51.37985],[-2.3703,51.37987],[-2.37017,51.38]]]]}},
{ "type":"Feature","properties":{"osm_way_id":"235482775","building":"warehouse","other":{"addr:city":"Bristol","addr:postcode":"BS39 5PJ"}}, "geometry":{"type":"MultiPolygon","coordinates":[[[[-2.53225,51.33296],[-2.53166,51.33261],[-2.53198,51.33241],[-2.53271,51.33283],[-2.53259,51.33291],[-2.53246,51.33283],[-2.53225,51.33296]]]]}},
{ "type":"Feature","properties":{"osm_way_id":"236982413","building":"warehouse"},"geometry":{"type":"MultiPolygon","coordinates":[[[[-2.5873,51.3658],[-2.58669,51.3659],[-2.58661,51.36568],[-2.58722,51.36559],[-2.5873,51.3658]]]]}},
{ "type":"Feature","properties":{"osm_way_id":"281201504","building":"warehouse"},"geometry":{"type":"MultiPolygon","coordinates":[[[[-2.3131,51.42248],[-2.31299,51.42257],[-2.31276,51.42246],[-2.31288,51.42237],[-2.3131,51.42248]]]]}},
{ "type":"Feature","properties":{"osm_way_id":"346837158","name":"Genesis Trust Furniture Project","building":"warehouse","other":{"website":"http:\/\/genesistrust.org.uk\/"}}, "geometry":{"type":"MultiPolygon","coordinates":[[[[-2.38295,51.37806],[-2.38269,51.37802],[-2.38272,51.37795],[-2.38298,51.37798],[-2.38295,51.37806]]]]}},
{ "type":"Feature","properties":{"osm_way_id":"451072475","name":"Mercy in Action Jubilee Centre","building":"warehouse","other":{"addr:postcode":"BA2 9ES","addr:street":"Lower Bristol Road","fhrs:id":"1132247"}}, "geometry":{"type":"MultiPolygon","coordinates":[[[[-2.39564,51.38146],[-2.39473,51.38124],[-2.39479,51.38113],[-2.3957,51.38136],[-2.39564,51.38146]]]]}},
{ "type":"Feature","properties":{"osm_way_id":"451718045","name":"Bath Soft Cheese","building":"warehouse","other":{"website":"https:\/\/parkfarm.co.uk\/"}}, "geometry":{"type":"MultiPolygon","coordinates":[[[[-2.4354,51.40417],[-2.43509,51.40419],[-2.43505,51.40388],[-2.43535,51.40386],[-2.4354,51.40417]]]]}},
{ "type":"Feature","properties":{"osm_way_id":"462649834","building":"warehouse"},"geometry":{"type":"MultiPolygon","coordinates":[[[[-2.30826,51.40224],[-2.30817,51.40212],[-2.30785,51.40222],[-2.30794,51.40234],[-2.30826,51.40224]]]]}},
{ "type":"Feature","properties":{"osm_way_id":"470070047","building":"warehouse"},"geometry":{"type":"MultiPolygon","coordinates":[[[[-2.30047,51.4053],[-2.30046,51.40522],[-2.30026,51.40522],[-2.30025,51.40516],[-2.3,51.40516],[-2.30001,51.40531],[-2.30047,51.4053]]]]}},
{ "type":"Feature","properties":{"osm_way_id":"470070048","building":"warehouse"},"geometry":{"type":"MultiPolygon","coordinates":[[[[-2.29975,51.40518],[-2.29977,51.40503],[-2.29944,51.40502],[-2.29942,51.40517],[-2.2995,51.40517],[-2.29975,51.40518]]]]}},
{ "type":"Feature","properties":{"osm_way_id":"475273302","building":"warehouse"},"geometry":{"type":"MultiPolygon","coordinates":[[[[-2.39744,51.40771],[-2.39736,51.40767],[-2.39748,51.40756],[-2.39756,51.40747],[-2.39763,51.4074],[-2.39772,51.40742],[-2.39765,51.4075],[-2.39756,51.4076],[-2.39744,51.40771]]]]}},
{ "type":"Feature","properties":{"osm_way_id":"475273303","building":"warehouse"},"geometry":{"type":"MultiPolygon","coordinates":[[[[-2.39761,51.40731],[-2.39753,51.40734],[-2.3974,51.40718],[-2.39747,51.40716],[-2.39761,51.40731]]]]}},
{ "type":"Feature","properties":{"osm_way_id":"475273305","building":"warehouse"},"geometry":{"type":"MultiPolygon","coordinates":[[[[-2.39773,51.4072],[-2.39722,51.40701],[-2.39727,51.40696],[-2.39777,51.40715],[-2.39773,51.4072]]]]}},
{ "type":"Feature","properties":{"osm_way_id":"498339255","building":"warehouse"},"geometry":{"type":"MultiPolygon","coordinates":[[[[-2.38037,51.37387],[-2.37981,51.3737],[-2.37993,51.37355],[-2.38049,51.37372],[-2.38037,51.37387]]]]}},
{ "type":"Feature","properties":{"osm_way_id":"498339256","building":"warehouse"},"geometry":{"type":"MultiPolygon","coordinates":[[[[-2.38062,51.37325],[-2.38053,51.37322],[-2.38057,51.37317],[-2.38067,51.3732],[-2.38062,51.37325]]]]}},
{ "type":"Feature","properties":{"osm_way_id":"844322352","building":"warehouse"},"geometry":{"type":"MultiPolygon","coordinates":[[[[-2.36706,51.38171],[-2.36706,51.38178],[-2.36693,51.38178],[-2.36693,51.38172],[-2.36706,51.38171]]]]}},
{ "type":"Feature","properties":{"osm_way_id":"927795859","name":"Lifestyle Bathrooms","building":"warehouse","other":{"addr:city":"Bath","addr:housenumber":"16","addr:postcode":"BA2 3PH","addr:street":"Livingstone Road","building:levels":"1","phone":"+44 7496 057281","roof:shape":"gabled","website":"https:\/\/www.lifestylebathrooms.net\/"}}, "geometry":{"type":"MultiPolygon","coordinates":[[[[-2.37862,51.37761],[-2.37866,51.37758],[-2.37876,51.37763],[-2.37872,51.37766],[-2.37862,51.37761]]]]}}
]
}
