{
"type": "FeatureCollection",
"features": [
{ "type":"Feature","properties":{"osm_id":"34852656","name":"Asda","other":{"addr:city":"Liverpool","addr:country":"GB","addr:housename":"Penny Lane Neighbourhood Centre","addr:postcode":"L15 9EB","addr:street":"Church Road","brand":"Asda","brand:wikidata":"Q297410","brand:wikipedia":"en:Asda","contact:website":"https:\/\/storelocator.asda.com\/north-west\/wavertree\/penny-lane-centre","fhrs:id":"498503","operator":"Asda Stores Ltd","shop":"supermarket"}}, "geometry":{"type":"Point","coordinates":[-2.91668,53.39035 ]}},
{ "type":"Feature","properties":{"osm_id":"286670955","name":"Londis","other":{"operator":"Londis","shop":"supermarket"}}, "geometry":{"type":"Point","coordinates":[-2.97987,53.38774 ]}},
{ "type":"Feature","properties":{"osm_id":"296234623","name":"Spar","other":{"brand":"Spar","brand:wikidata":"Q610492","brand:wikipedia":"en:SPAR (retailer)","shop":"supermarket"}}, "geometry":{"type":"Point","coordinates":[-2.99679,53.4174 ]}},
{ "type":"Feature","properties":{"osm_id":"335921383","name":"M&S Foodhall","other":{"brand":"M&S Foodhall","brand:wikidata":"Q714491","brand:wikipedia":"en:Marks & Spencer","shop":"supermarket"}}, "geometry":{"type":"Point","coordinates":[-2.87571,53.34949 ]}},
{ "type":"Feature","properties":{"osm_id":"419028093","name":"Co-op","other":{"shop":"supermarket"}}, "geometry":{"type":"Point","coordinates":[-2.89146,53.40079 ]}},
{ "type":"Feature","properties":{"osm_id":"681266131","name":"M&S Simply Food","other":{"brand":"M&S Simply Food","brand:wikidata":"Q714491","brand:wikipedia":"en:Marks & Spencer","shop":"supermarket","wheelchair":"yes"}}, "geometry":{"type":"Point","coordinates":[-2.97835,53.40789 ]}},
{ "type":"Feature","properties":{"osm_id":"998952015","name":"ALDI","other":{"brand":"ALDI","brand:wikidata":"Q41171672","brand:wikipedia":"en:Aldi","shop":"supermarket"}}, "geometry":{"type":"Point","coordinates":[-2.98037,53.40636 ]}},
{ "type":"Feature","properties":{"osm_id":"1283661181","name":"Co-op Food","other":{"brand":"Co-op Food","brand:wikidata":"Q3277439","brand:wikipedia":"en:Co-op Food","shop":"supermarket"}}, "geometry":{"type":"Point","coordinates":[-2.85576,53.35965 ]}},
{ "type":"Feature","properties":{"osm_id":"1423240231","name":"T.A.K Supermarket","other":{"addr:housenumber":"26","addr:street":"Smithdown Road","shop":"supermarket"}}, "geometry":{"type":"Point","coordinates":[-2.94829,53.39784 ]}},
{ "type":"Feature","properties":{"osm_id":"1563156893","name":"Asda","other":{"addr:city":"Liverpool","addr:country":"GB","addr:postcode":"L13 6RH","addr:street":"Green Lane","brand":"Asda","brand:wikidata":"Q297410","brand:wikipedia":"en:Asda","contact:website":"https:\/\/storelocator.asda.com\/north-west\/liverpool\/regent-house-green-lane-stoneycroft","fhrs:id":"498501","operator":"Asda Stores Ltd","shop":"supermarket","wheelchair":"yes"}}, "geometry":{"type":"Point","coordinates":[-2.91917,53.4157 ]}},
{ "type":"Feature","properties":{"osm_id":"2104965402","name":"W H Lung","other":{"building":"yes","cuisine":"chinese","shop":"supermarket"}}, "geometry":{"type":"Point","coordinates":[-2.99593,53.42492 ]}},
{ "type":"Feature","properties":{"osm_id":"2417665406","name":"L7 Village Market","other":{"addr:housename":"L7 Village Market","addr:housenumber":"110 Prescot Road","addr:postcode":"L7 0JB","addr:street":"Prescot Road","shop":"supermarket","website":"http:\/\/maps.google.co.uk\/local_url?dq=L7+Village+Market&q=http:\/\/thevillagemarket.co.uk\/&oi=miw&sa=X&ct=miw_link&cd=1&cad=homepage,cid:6712664168421692089&ei=gxsKUvn_IYaxiwab_oH4CQ&s=ANYYN7npb8_CuBOc8thevillagemarket.co.uk"}}, "geometry":{"type":"Point","coordinates":[-2.93671,53.41272 ]}},
{ "type":"Feature","properties":{"osm_id":"2704298370","name":"SIDA - Chinese Supermarket","other":{"addr:city":"Liverpool","addr:country":"GB","addr:housenumber":"188-192","addr:postcode":"L3 8JN","addr:street":"London Road","fhrs:id":"1099195","shop":"supermarket"}}, "geometry":{"type":"Point","coordinates":[-2.96953,53.40985 ]}},
{ "type":"Feature","properties":{"osm_id":"4313979964","name":"Sida Express","other":{"shop":"supermarket"}}, "geometry":{"type":"Point","coordinates":[-2.96669,53.40082 ]}},
{ "type":"Feature","properties":{"osm_id":"4484184993","name":"Spar","other":{"brand":"Spar","brand:wikidata":"Q610492","brand:wikipedia":"en:SPAR (retailer)","shop":"supermarket"}}, "geometry":{"type":"Point","coordinates":[-2.85594,53.3375 ]}},
{ "type":"Feature","properties":{"osm_id":"4501132271","name":"Tesco","other":{"branch":"Liverpool One","brand":"Tesco","brand:wikidata":"Q487494","brand:wikipedia":"en:Tesco","contact:website":"https:\/\/www.tesco.com\/store-locator\/liverpool\/msu-46-hanover-st","shop":"supermarket","wheelchair":"yes"}}, "geometry":{"type":"Point","coordinates":[-2.98333,53.40352 ]}},
{ "type":"Feature","properties":{"osm_id":"4562060232","name":"Co-op Food","other":{"brand":"Co-op Food","brand:wikidata":"Q3277439","brand:wikipedia":"en:Co-op Food","shop":"supermarket"}}, "geometry":{"type":"Point","coordinates":[-2.94481,53.38204 ]}},
{ "type":"Feature","properties":{"osm_id":"5370142956","name":"Spar","other":{"addr:city":"Liverpool","addr:postcode":"L24 1XZ","addr:street":"Speke Boulevard","brand":"Spar","brand:wikidata":"Q610492","brand:wikipedia":"en:SPAR (retailer)","fhrs:id":"1243798","shop":"supermarket","source:addr":"FHRS Open Data"}}, "geometry":{"type":"Point","coordinates":[-2.8622,53.34919 ]}},
{ "type":"Feature","properties":{"osm_id":"5617506225","name":"OneStop","other":{"shop":"supermarket"}}, "geometry":{"type":"Point","coordinates":[-2.96908,53.42257 ]}},
{ "type":"Feature","properties":{"osm_id":"5683169768","name":"Heron Foods","other":{"addr:city":"Liverpool","addr:country":"GB","addr:housenumber":"5","addr:postcode":"L7 7EL","addr:street":"Myrtle Parade","brand":"Heron Foods","brand:wikidata":"Q5743472","brand:wikipedia":"en:Heron Foods","contact:website":"https:\/\/heronfoods.com\/storelocator\/store-details\/myrtle","fhrs:id":"1026064","shop":"supermarket"}}, "geometry":{"type":"Point","coordinates":[-2.96522,53.40062 ]}},
{ "type":"Feature","properties":{"osm_id":"5806746606","name":"McColl's","other":{"shop":"supermarket"}}, "geometry":{"type":"Point","coordinates":[-2.88121,53.43378 ]}},
{ "type":"Feature","properties":{"osm_id":"5882572692","name":"LIV Organic & Natural Food Market","other":{"addr:city":"Liverpool","addr:street":"Bold Street","opening_hours":"Mo-Sa 08:00-20:00; Su 10:00-17:00","shop":"supermarket"}}, "geometry":{"type":"Point","coordinates":[-2.98075,53.40417 ]}},
{ "type":"Feature","properties":{"osm_id":"6359213223","name":"Lidl","other":{"addr:country":"GB","addr:housenumber":"63-77","addr:postcode":"L1 1JQ","addr:street":"Lime Street","brand":"Lidl","brand:wikidata":"Q151954","brand:wikipedia":"en:Lidl","fhrs:id":"1137872","note:building":"large Lidl supermarket occupies the SE half of the ground floor","shop":"supermarket"}}, "geometry":{"type":"Point","coordinates":[-2.97858,53.40615 ]}},
{ "type":"Feature","properties":{"osm_id":"6938193486","name":"The Food Warehouse","other":{"brand":"The Food Warehouse","brand:wikidata":"Q87263899","shop":"supermarket"}}, "geometry":{"type":"Point","coordinates":[-2.8954,53.46384 ]}},
{ "type":"Feature","properties":{"osm_id":"7625403845","name":"The Food Warehouse","other":{"addr:city":"Liverpool","addr:housenumber":"27","addr:parentstreet":"Speke Boulevard","addr:postcode":"L24 9HZ","addr:street":"Boulevard Retail Park","brand":"The Food Warehouse","brand:wikidata":"Q87263899","fhrs:id":"1244079","shop":"supermarket","source:addr":"FHRS Open Data","website":"https:\/\/www.thefoodwarehouse.com\/store-locator\/speke"}}, "geometry":{"type":"Point","coordinates":[-2.85813,53.3503 ]}},
{ "type":"Feature","properties":{"osm_id":"8721613878","name":"Sida Chinese Supermarket","other":{"addr:city":"Liverpool","addr:housenumber":"124","addr:postcode":"L1 4JA","addr:street":"Bold Street","cuisine":"chinese","fhrs:id":"1105632","fhrs:local_authority_id":"PI\/000013868","shop":"supermarket"}}, "geometry":{"type":"Point","coordinates":[-2.97629,53.402 ]}},
{ "type":"Feature","properties":{"osm_id":"8856383345","highway":"crossing","other":{"crossing":"marked"}}, "geometry":{"type":"Point","coordinates":[-2.91568,53.41324 ]}},
{ "type":"Feature","properties":{"osm_id":"9399710517","name":"eJoy Asian Foods","other":{"addr:housenumber":"1","addr:street":"Myrtle Parade","name:en":"Ejoy supermarket","shop":"supermarket"}}, "geometry":{"type":"Point","coordinates":[-2.96574,53.40056 ]}},
{ "type":"Feature","properties":{"osm_id":"9560119976","name":"Lidl","other":{"addr:city":"Liverpool","addr:country":"GB","addr:housenumber":"17","addr:postcode":"L19 2NJ","addr:street":"Saint Mary's Road","brand":"Lidl","brand:wikidata":"Q151954","brand:wikipedia":"en:Lidl","fhrs:id":"1439453","shop":"supermarket"}}, "geometry":{"type":"Point","coordinates":[-2.89802,53.35365 ]}},
{ "type":"Feature","properties":{"osm_id":"6746412","name":"Chung Wah","type":"multipolygon","building":"yes","shop":"supermarket"},"geometry":{"type":"MultiPolygon","coordinates":[[[[-2.98017,53.39741],[-2.97982,53.39721],[-2.97957,53.39736],[-2.97974,53.39746],[-2.97991,53.39756],[-2.98017,53.39741]]],[[[-2.97991,53.39756],[-2.97978,53.39764],[-2.97961,53.39754],[-2.97974,53.39746],[-2.97991,53.39756]]]]}},
{ "type":"Feature","properties":{"osm_way_id":"12158919","name":"Tesco","building":"yes","shop":"supermarket","other":{"addr:postcode":"L13 2BY","brand":"Tesco","brand:wikidata":"Q487494","brand:wikipedia":"en:Tesco","wheelchair":"yes"}}, "geometry":{"type":"MultiPolygon","coordinates":[[[[-2.91558,53.41336],[-2.91568,53.41324],[-2.91582,53.41307],[-2.91587,53.41308],[-2.91623,53.41265],[-2.91723,53.41293],[-2.91672,53.41357],[-2.91696,53.41365],[-2.91688,53.41374],[-2.91558,53.41336]]]]}},
{ "type":"Feature","properties":{"osm_way_id":"25994582","name":"Tesco","building":"yes","shop":"supermarket","other":{"addr:postcode":"L25 7SF","addr:street":"Allerton Road","alt_name":"Tesco Liverpool Woolton Superstore","brand":"Tesco","brand:wikidata":"Q487494","brand:wikipedia":"en:Tesco"}}, "geometry":{"type":"MultiPolygon","coordinates":[[[[-2.87371,53.37344],[-2.87386,53.37384],[-2.87266,53.374],[-2.87251,53.3736],[-2.87284,53.37356],[-2.87282,53.37352],[-2.8733,53.37346],[-2.87341,53.37344],[-2.87343,53.37348],[-2.87371,53.37344]]]]}},
{ "type":"Feature","properties":{"osm_way_id":"28810893","name":"Jack's","building":"yes","shop":"supermarket","other":{"brand":"Jack's","brand:wikidata":"Q60741213","brand:wikipedia":"en:Jack's (store)","contact:website":"https:\/\/www.jacks-uk.com\/","operator":"Jack's"}}, "geometry":{"type":"MultiPolygon","coordinates":[[[[-2.95449,53.40503],[-2.95447,53.40456],[-2.95511,53.40455],[-2.95512,53.40502],[-2.95479,53.40503],[-2.95449,53.40503]]]]}},
{ "type":"Feature","properties":{"osm_way_id":"36947163","name":"Morrisons","building":"yes","shop":"supermarket","other":{"alt_name":"Morrisons Belle Vale","brand":"Morrisons","brand:wikidata":"Q922344","brand:wikipedia":"en:Morrisons","wheelchair":"yes"}}, "geometry":{"type":"MultiPolygon","coordinates":[[[[-2.85977,53.38928],[-2.85967,53.38936],[-2.85962,53.38934],[-2.85899,53.38979],[-2.85742,53.38907],[-2.85754,53.38896],[-2.8577,53.38886],[-2.8579,53.38885],[-2.85811,53.38896],[-2.85826,53.38886],[-2.8584,53.38892],[-2.85844,53.38889],[-2.85864,53.38898],[-2.85868,53.38895],[-2.85882,53.38903],[-2.85896,53.38892],[-2.85977,53.38928]]]]}},
{ "type":"Feature","properties":{"osm_way_id":"36975240","name":"Sainsbury's","building":"yes","shop":"supermarket","other":{"brand":"Sainsbury's","brand:wikidata":"Q152096","brand:wikipedia":"en:Sainsbury's"}}, "geometry":{"type":"MultiPolygon","coordinates":[[[[-2.96142,53.45063],[-2.96251,53.45092],[-2.96187,53.45186],[-2.96137,53.45173],[-2.9613,53.45172],[-2.96094,53.45136],[-2.96107,53.45118],[-2.96101,53.45116],[-2.96106,53.4511],[-2.96091,53.45106],[-2.96119,53.45069],[-2.96137,53.45072],[-2.96142,53.45063]]]]}},
{ "type":"Feature","properties":{"osm_way_id":"51817262","name":"ALDI","building":"yes","shop":"supermarket","other":{"brand":"ALDI","brand:wikidata":"Q41171672","brand:wikipedia":"en:Aldi"}}, "geometry":{"type":"MultiPolygon","coordinates":[[[[-2.93534,53.39477],[-2.9349,53.39464],[-2.93525,53.39424],[-2.93551,53.39432],[-2.93547,53.39437],[-2.93556,53.39441],[-2.93554,53.39443],[-2.93536,53.39464],[-2.93544,53.39467],[-2.93534,53.39477]]]]}},
{ "type":"Feature","properties":{"osm_way_id":"114262705","name":"Tesco Extra","building":"yes","shop":"supermarket","other":{"addr:city":"Liverpool","addr:housenumber":"215","addr:postcode":"L8 4XF","addr:street":"Park Road","alt_name":"Tesco Park Road Extra","brand":"Tesco Extra","brand:wikidata":"Q25172225","brand:wikipedia":"en:Tesco Extra","fhrs:id":"498378","layer":"-1","source:opened":"twitter","wheelchair":"yes"}}, "geometry":{"type":"MultiPolygon","coordinates":[[[[-2.96529,53.38532],[-2.96519,53.38527],[-2.96524,53.38523],[-2.96468,53.38494],[-2.96416,53.38467],[-2.9641,53.38471],[-2.96397,53.38464],[-2.964,53.38462],[-2.96391,53.38457],[-2.96386,53.3846],[-2.9638,53.38457],[-2.96326,53.38493],[-2.9633,53.38495],[-2.96311,53.38508],[-2.96316,53.38511],[-2.96289,53.38529],[-2.96363,53.38568],[-2.96388,53.38551],[-2.96452,53.38584],[-2.96529,53.38532]]]]}},
{ "type":"Feature","properties":{"osm_way_id":"123721877","name":"Asda","building":"yes","shop":"supermarket","other":{"addr:city":"Liverpool","addr:country":"GB","addr:postcode":"L4 9XU","addr:street":"Utting Avenue","brand":"Asda","brand:wikidata":"Q297410","brand:wikipedia":"en:Asda","contact:website":"https:\/\/storelocator.asda.com\/north-west\/liverpool\/utting-avenue","fhrs:id":"497380","operator":"Asda Stores Ltd"}}, "geometry":{"type":"MultiPolygon","coordinates":[[[[-2.93977,53.44204],[-2.93999,53.44201],[-2.94017,53.44199],[-2.94016,53.44197],[-2.94034,53.44195],[-2.94053,53.44193],[-2.94086,53.44189],[-2.94104,53.44243],[-2.94091,53.44245],[-2.94095,53.44255],[-2.94089,53.44255],[-2.94095,53.44272],[-2.94056,53.44276],[-2.94057,53.44282],[-2.94021,53.44286],[-2.9402,53.44281],[-2.93957,53.44289],[-2.93952,53.44275],[-2.93942,53.44276],[-2.93943,53.4428],[-2.93939,53.44281],[-2.9393,53.44253],[-2.93924,53.44254],[-2.93913,53.44223],[-2.93929,53.44221],[-2.93928,53.44219],[-2.9398,53.44212],[-2.93977,53.44204]]]]}},
{ "type":"Feature","properties":{"osm_way_id":"124796201","name":"Jack's","building":"yes","shop":"supermarket","other":{"addr:city":"Liverpool","addr:country":"GB","addr:housenumber":"124","addr:postcode":"L4 3QW","addr:street":"County Road","brand":"Jack's","brand:wikidata":"Q60741213","brand:wikipedia":"en:Jack's (store)","fhrs:id":"498176"}}, "geometry":{"type":"MultiPolygon","coordinates":[[[[-2.96981,53.44227],[-2.96987,53.44209],[-2.96974,53.44207],[-2.96978,53.44192],[-2.96924,53.44186],[-2.96913,53.44219],[-2.96981,53.44227]]]]}},
{ "type":"Feature","properties":{"osm_way_id":"166680035","name":"Tesco Metro","building":"yes","shop":"supermarket","other":{"addr:city":"Liverpool","addr:housenumber":"184-198","addr:postcode":"L17 9PE","addr:street":"Aigburth Road","brand":"Tesco Metro","brand:wikidata":"Q57551648","operator":"Tesco","wheelchair":"yes"}}, "geometry":{"type":"MultiPolygon","coordinates":[[[[-2.9484,53.378],[-2.94833,53.37798],[-2.94835,53.37796],[-2.94825,53.37793],[-2.94824,53.37794],[-2.94816,53.37791],[-2.94776,53.37829],[-2.94793,53.37836],[-2.94813,53.37817],[-2.94815,53.37815],[-2.94822,53.37817],[-2.94823,53.37816],[-2.9483,53.3781],[-2.9484,53.378]]]]}},
{ "type":"Feature","properties":{"osm_way_id":"166680440","name":"Lidl","building":"yes","shop":"supermarket","other":{"addr:country":"GB","addr:housenumber":"10","addr:postcode":"L8 4TF","addr:street":"Park Hill Road","brand":"Lidl","brand:wikidata":"Q151954","brand:wikipedia":"en:Lidl","fhrs:id":"1297039"}}, "geometry":{"type":"MultiPolygon","coordinates":[[[[-2.96297,53.38292],[-2.96227,53.38256],[-2.9619,53.38281],[-2.96239,53.38307],[-2.96233,53.38311],[-2.96252,53.3832],[-2.96258,53.38316],[-2.96259,53.38317],[-2.96297,53.38292]]]]}},
{ "type":"Feature","properties":{"osm_way_id":"166680621","name":"Asda","building":"yes","shop":"supermarket","other":{"addr:city":"Liverpool","addr:country":"GB","addr:housenumber":"126","addr:postcode":"L15 3JR","addr:street":"Smithdown Road","brand":"Asda","brand:wikidata":"Q297410","brand:wikipedia":"en:Asda","contact:website":"https:\/\/storelocator.asda.com\/north-west\/liverpool\/126-smithdown-road","fhrs:id":"497866","operator":"Asda Stores Ltd","wheelchair":"yes"}}, "geometry":{"type":"MultiPolygon","coordinates":[[[[-2.93622,53.39396],[-2.9354,53.39343],[-2.93582,53.3932],[-2.93577,53.39317],[-2.93581,53.39315],[-2.9356,53.39302],[-2.93602,53.39279],[-2.93597,53.39276],[-2.93592,53.39279],[-2.9358,53.39271],[-2.93588,53.39267],[-2.9362,53.39287],[-2.93612,53.39291],[-2.93623,53.39298],[-2.93636,53.39291],[-2.93686,53.39323],[-2.93711,53.39339],[-2.93622,53.39396]]]]}},
{ "type":"Feature","properties":{"osm_way_id":"166680652","name":"Tesco","building":"yes","shop":"supermarket","other":{"addr:postcode":"L18 6HF","addr:street":"Mather Avenue","alt_name":"Tesco Liverpool Allerton Road Superstore","brand":"Tesco","brand:wikidata":"Q487494","brand:wikipedia":"en:Tesco"}}, "geometry":{"type":"MultiPolygon","coordinates":[[[[-2.90986,53.38157],[-2.90979,53.3815],[-2.90998,53.38142],[-2.90974,53.38119],[-2.90979,53.38117],[-2.90968,53.38107],[-2.90963,53.38109],[-2.90912,53.3806],[-2.9083,53.38091],[-2.90898,53.38155],[-2.90888,53.38159],[-2.90901,53.38171],[-2.90908,53.38169],[-2.90921,53.38181],[-2.90986,53.38157]]]]}},
{ "type":"Feature","properties":{"osm_way_id":"196560957","name":"Lidl","building":"yes","shop":"supermarket","other":{"addr:country":"GB","addr:postcode":"L3 8JN","addr:street":"London Road","brand":"Lidl","brand:wikidata":"Q151954","brand:wikipedia":"en:Lidl","fhrs:id":"509418"}}, "geometry":{"type":"MultiPolygon","coordinates":[[[[-2.9707,53.40968],[-2.97044,53.40924],[-2.97034,53.40926],[-2.97036,53.40931],[-2.97005,53.40938],[-2.97021,53.40964],[-2.97015,53.40966],[-2.97023,53.40978],[-2.9707,53.40968]]]]}},
{ "type":"Feature","properties":{"osm_way_id":"210898352","name":"Lidl","building":"retail","shop":"supermarket","other":{"addr:city":"Liverpool","addr:postcode":"L7 2RN","addr:street":"Kensington","branch":"Kensington","brand":"Lidl","brand:wikidata":"Q151954","brand:wikipedia":"en:Lidl","building:colour":"white","building:levels":"1","building:material":"concrete","fhrs:id":"497785","organic":"yes","roof:colour":"grey","roof:material":"metal","roof:orientation":"along","roof:shape":"gabled","toilets":"no","wheelchair":"yes"}}, "geometry":{"type":"MultiPolygon","coordinates":[[[[-2.94521,53.41153],[-2.94498,53.4116],[-2.94476,53.41166],[-2.94436,53.41178],[-2.94418,53.41156],[-2.94529,53.41124],[-2.94547,53.41146],[-2.9455,53.4115],[-2.94524,53.41157],[-2.94521,53.41153]]]]}},
{ "type":"Feature","properties":{"osm_way_id":"218389319","name":"Morrisons","building":"commercial","shop":"supermarket","other":{"brand":"Morrisons","brand:wikidata":"Q922344","brand:wikipedia":"en:Morrisons"}}, "geometry":{"type":"MultiPolygon","coordinates":[[[[-2.83767,53.34501],[-2.83788,53.34502],[-2.83785,53.3452],[-2.8381,53.34522],[-2.83808,53.34532],[-2.83831,53.34533],[-2.83829,53.34544],[-2.83895,53.34548],[-2.83894,53.34555],[-2.83937,53.34557],[-2.83941,53.34536],[-2.83926,53.34535],[-2.83937,53.34483],[-2.83794,53.34473],[-2.83792,53.34484],[-2.83771,53.34483],[-2.83767,53.34501]]]]}},
{ "type":"Feature","properties":{"osm_way_id":"279557904","name":"Asda","building":"yes","shop":"supermarket","other":{"addr:city":"Liverpool","addr:country":"GB","addr:housenumber":"14","addr:postcode":"L6 5DR","addr:street":"The Mall","brand":"Asda","brand:wikidata":"Q297410","brand:wikipedia":"en:Asda","contact:website":"https:\/\/storelocator.asda.com\/north-west\/liverpool\/breck-road","fhrs:id":"497533","operator":"Asda Stores Ltd"}}, "geometry":{"type":"MultiPolygon","coordinates":[[[[-2.95814,53.42226],[-2.95737,53.42255],[-2.95674,53.42194],[-2.95676,53.42179],[-2.95688,53.42169],[-2.95691,53.42168],[-2.95708,53.42184],[-2.95754,53.42167],[-2.95762,53.42174],[-2.95814,53.42226]]]]}},
{ "type":"Feature","properties":{"osm_way_id":"325413344","name":"Sainsbury's","building":"yes","shop":"supermarket","other":{"addr:housename":"Sainsbury's Centre","addr:housenumber":"1","addr:postcode":"L25 5QA","addr:street":"James Road","alt_name":"Sainsbury's Woolton Superstore","brand":"Sainsbury's","brand:wikidata":"Q152096","brand:wikipedia":"en:Sainsbury's"}}, "geometry":{"type":"MultiPolygon","coordinates":[[[[-2.86535,53.37537],[-2.86525,53.37529],[-2.86566,53.37513],[-2.86603,53.37548],[-2.86595,53.37552],[-2.86612,53.37568],[-2.86608,53.37577],[-2.86579,53.37588],[-2.86571,53.37587],[-2.86545,53.37597],[-2.86501,53.37555],[-2.86511,53.37551],[-2.86508,53.37548],[-2.86535,53.37537]]]]}},
{ "type":"Feature","properties":{"osm_way_id":"325413345","name":"Asda","building":"yes","shop":"supermarket","other":{"addr:city":"Liverpool","addr:country":"GB","addr:housename":"Hunts Cross Shopping Centre","addr:postcode":"L24 9WA","alt_name":"ASDA Hunts Cross Superstore","brand":"Asda","brand:wikidata":"Q297410","brand:wikipedia":"en:Asda","contact:website":"https:\/\/storelocator.asda.com\/north-west\/liverpool\/hunts-cross-shopping-centre","fhrs:id":"497621","operator":"Asda Stores Ltd"}}, "geometry":{"type":"MultiPolygon","coordinates":[[[[-2.86865,53.35693],[-2.86752,53.35709],[-2.86788,53.35798],[-2.86774,53.358],[-2.8678,53.35814],[-2.86793,53.35812],[-2.8679,53.35805],[-2.86903,53.35788],[-2.86865,53.35693]]]]}},
{ "type":"Feature","properties":{"osm_way_id":"356035770","name":"Heron Foods","building":"yes","shop":"supermarket","other":{"addr:city":"Liverpool","addr:country":"GB","addr:housenumber":"180-182","addr:postcode":"L17 9PE","addr:street":"Aigburth Road","brand":"Heron Foods","brand:wikidata":"Q5743472","brand:wikipedia":"en:Heron Foods","contact:website":"https:\/\/heronfoods.com\/storelocator\/store-details\/aigburth-road","fhrs:id":"634313"}}, "geometry":{"type":"MultiPolygon","coordinates":[[[[-2.94813,53.37817],[-2.94826,53.37821],[-2.94821,53.37826],[-2.94806,53.37841],[-2.94793,53.37836],[-2.94813,53.37817]]]]}},
{ "type":"Feature","properties":{"osm_way_id":"356574318","name":"Asda","building":"retail","shop":"supermarket","other":{"addr:city":"Garston","addr:country":"GB","addr:postcode":"L19 1SJ","addr:street":"Saint Mary's Road","alt_name":"Asda Garston Supermarket","brand":"Asda","brand:wikidata":"Q297410","brand:wikipedia":"en:Asda","contact:phone":"+44 151 5521150","contact:website":"https:\/\/storelocator.asda.com\/north-west\/garston\/st-mary's-road","fhrs:id":"498502","opening_hours":"Mo-Sa 08:00-21:00; Su 10:00-16:00","operator":"Asda Stores Ltd"}}, "geometry":{"type":"MultiPolygon","coordinates":[[[[-2.90371,53.35578],[-2.90324,53.35558],[-2.90305,53.35574],[-2.90307,53.35575],[-2.90303,53.35578],[-2.90321,53.35586],[-2.90326,53.35583],[-2.90352,53.35594],[-2.90371,53.35578]]]]}},
{ "type":"Feature","properties":{"osm_way_id":"357124759","name":"ALDI","building":"retail","shop":"supermarket","other":{"brand":"ALDI","brand:wikidata":"Q41171672","brand:wikipedia":"en:Aldi"}}, "geometry":{"type":"MultiPolygon","coordinates":[[[[-2.9102,53.35837],[-2.91014,53.35841],[-2.90977,53.3582],[-2.90945,53.35841],[-2.90948,53.35842],[-2.90945,53.35844],[-2.90974,53.3586],[-2.90978,53.35857],[-2.91008,53.35874],[-2.9104,53.35854],[-2.91032,53.35843],[-2.9102,53.35837]]]]}},
{ "type":"Feature","properties":{"osm_way_id":"458060380","name":"ALDI","building":"yes","shop":"supermarket","other":{"addr:postcode":"L13 5SG","addr:street":"Broad Green Road","brand":"ALDI","brand:wikidata":"Q41171672","brand:wikipedia":"en:Aldi"}}, "geometry":{"type":"MultiPolygon","coordinates":[[[[-2.91322,53.41262],[-2.91287,53.41281],[-2.91234,53.41247],[-2.91273,53.41226],[-2.91298,53.41242],[-2.91294,53.41244],[-2.91322,53.41262]]]]}},
{ "type":"Feature","properties":{"osm_way_id":"472696048","name":"Tesco","building":"yes","shop":"supermarket","other":{"brand":"Tesco","brand:wikidata":"Q487494","brand:wikipedia":"en:Tesco","opening_hours":"Mo-Sa 08:00-22:00; Su 10:00-16:00"}}, "geometry":{"type":"MultiPolygon","coordinates":[[[[-2.88843,53.43518],[-2.888,53.43464],[-2.88852,53.43449],[-2.88848,53.43445],[-2.88842,53.43446],[-2.88836,53.43439],[-2.88873,53.43428],[-2.88864,53.43417],[-2.88879,53.43413],[-2.8889,53.43426],[-2.88884,53.43428],[-2.8889,53.43431],[-2.889,53.43444],[-2.88918,53.43452],[-2.88947,53.43489],[-2.88843,53.43518]]]]}},
{ "type":"Feature","properties":{"osm_way_id":"479747647","name":"ALDI","building":"yes","shop":"supermarket","other":{"brand":"ALDI","brand:wikidata":"Q41171672","brand:wikipedia":"en:Aldi"}}, "geometry":{"type":"MultiPolygon","coordinates":[[[[-2.88596,53.41938],[-2.88601,53.41958],[-2.88614,53.42005],[-2.88618,53.42005],[-2.88617,53.42002],[-2.88636,53.42],[-2.88634,53.41995],[-2.8863,53.41978],[-2.88646,53.41976],[-2.88639,53.41948],[-2.88643,53.41947],[-2.88639,53.41934],[-2.88596,53.41938]]]]}},
{ "type":"Feature","properties":{"osm_way_id":"493479392","name":"Sainsbury's","building":"yes","shop":"supermarket","other":{"brand":"Sainsbury's","brand:wikidata":"Q152096","brand:wikipedia":"en:Sainsbury's"}}, "geometry":{"type":"MultiPolygon","coordinates":[[[[-2.89895,53.41521],[-2.89821,53.41473],[-2.89817,53.41475],[-2.89773,53.41446],[-2.8977,53.41448],[-2.89763,53.41443],[-2.89751,53.4145],[-2.8977,53.41463],[-2.89768,53.41464],[-2.8975,53.41474],[-2.89742,53.41468],[-2.89717,53.41482],[-2.89756,53.41506],[-2.89747,53.41511],[-2.8983,53.41565],[-2.89877,53.4154],[-2.8988,53.41541],[-2.89899,53.4153],[-2.8989,53.41524],[-2.89895,53.41521]]]]}},
{ "type":"Feature","properties":{"osm_way_id":"577572071","name":"ALDI","building":"yes","shop":"supermarket","other":{"brand":"ALDI","brand:wikidata":"Q41171672","brand:wikipedia":"en:Aldi","building:levels":"1"}}, "geometry":{"type":"MultiPolygon","coordinates":[[[[-2.96613,53.45177],[-2.96582,53.45199],[-2.96658,53.45234],[-2.96685,53.45213],[-2.96613,53.45177]]]]}},
{ "type":"Feature","properties":{"osm_way_id":"596656658","name":"M&S Foodhall","building":"yes","shop":"supermarket","other":{"brand":"M&S Foodhall","brand:wikidata":"Q714491","brand:wikipedia":"en:Marks & Spencer"}}, "geometry":{"type":"MultiPolygon","coordinates":[[[[-2.92644,53.41009],[-2.92566,53.41013],[-2.92563,53.40995],[-2.9264,53.40991],[-2.92644,53.41009]]]]}},
{ "type":"Feature","properties":{"osm_way_id":"598589232","name":"Sainsbury's","building":"yes","shop":"supermarket","other":{"brand":"Sainsbury's","brand:wikidata":"Q152096","brand:wikipedia":"en:Sainsbury's"}}, "geometry":{"type":"MultiPolygon","coordinates":[[[[-2.97912,53.42338],[-2.98021,53.42332],[-2.98013,53.42277],[-2.98035,53.42276],[-2.98034,53.42266],[-2.97928,53.42272],[-2.97929,53.42279],[-2.97905,53.42288],[-2.97912,53.42338]]]]}},
{ "type":"Feature","properties":{"osm_way_id":"729739681","name":"ALDI","building":"yes","shop":"supermarket","other":{"brand":"ALDI","brand:wikidata":"Q41171672","brand:wikipedia":"en:Aldi","operator":"ALDI"}}, "geometry":{"type":"MultiPolygon","coordinates":[[[[-2.87238,53.39149],[-2.87241,53.39105],[-2.87196,53.39104],[-2.87196,53.39116],[-2.87187,53.39116],[-2.87186,53.39125],[-2.87194,53.39125],[-2.87194,53.39149],[-2.87238,53.39149]]]]}},
{ "type":"Feature","properties":{"osm_way_id":"852006933","name":"ALDI","building":"yes","shop":"supermarket","other":{"brand":"ALDI","brand:wikidata":"Q41171672","brand:wikipedia":"en:Aldi"}}, "geometry":{"type":"MultiPolygon","coordinates":[[[[-2.97126,53.4358],[-2.97101,53.43579],[-2.97102,53.43573],[-2.9708,53.43573],[-2.97075,53.43619],[-2.97121,53.43621],[-2.97126,53.4358]]]]}},
{ "type":"Feature","properties":{"osm_way_id":"853027991","name":"Lidl","building":"supermarket","shop":"supermarket","other":{"addr:country":"GB","addr:housenumber":"273","addr:postcode":"L9 9BY","addr:street":"Longmoor Lane","brand":"Lidl","brand:wikidata":"Q151954","brand:wikipedia":"en:Lidl","fhrs:id":"1099191","survey:date":"2019-01-16"}}, "geometry":{"type":"MultiPolygon","coordinates":[[[[-2.93831,53.46928],[-2.93877,53.46925],[-2.93885,53.46979],[-2.93861,53.46981],[-2.93862,53.46986],[-2.9384,53.46987],[-2.93831,53.46928]]]]}}
]
}
