{
"type": "FeatureCollection",
"features": [
{ "type":"Feature","properties":{"osm_id":"706394524","name":"Co-Op","other":{"addr:city":"Ipswich","addr:housenumber":"3","addr:postcode":"IP8 3SL","addr:street":"Laburnum Close","fhrs:id":"526362","shop":"supermarket","source:addr":"FSA Food Hygiene Ratings Database"}}, "geometry":{"type":"Point","coordinates":[1.10922,52.04282 ]}},
{ "type":"Feature","properties":{"osm_id":"2015780391","name":"Sainsbury's","other":{"addr:city":"Sudbury","addr:housenumber":"66","addr:postcode":"CO10 2XB","addr:street":"Cornard Road","branch":"Sudbury Superstore","brand":"Sainsbury's","brand:wikidata":"Q152096","cafe":"yes","contact:website":"https:\/\/stores.sainsburys.co.uk\/2301\/sudbury","fhrs:id":"526896","opening_hours":"Mo-Sa 07:00-23:00; Su 10:00-16:00","shop":"supermarket","toilets":"yes"}}, "geometry":{"type":"Point","coordinates":[0.74037,52.03688 ]}},
{ "type":"Feature","properties":{"osm_id":"5715443918","other":{"emergency":"defibrillator","indoor":"no","location":"On exterior wall of Coop, facing the car park on The Street, just to the right of the Main entrance."}}, "geometry":{"type":"Point","coordinates":[1.05005,52.00367 ]}},
{ "type":"Feature","properties":{"osm_id":"5996264235","name":"Co-Op","other":{"opening_hours":"Mo-Su 06:00-22:00","shop":"supermarket","website":"https:\/\/finder.coop.co.uk\/food\/store\/CO10-0ER\/canhams-road"}}, "geometry":{"type":"Point","coordinates":[0.75504,52.02884 ]}},
{ "type":"Feature","properties":{"osm_id":"5996264236","name":"Co-Op","other":{"addr:city":"Sudbury","addr:postcode":"CO10 0EU","addr:street":"The Drift","addr:village":"Great Cornard","fhrs:id":"526444","opening_hours":"Mo-Su 07:00-22:00","operator":"East of England Co-operative Society Ltd","shop":"supermarket","source:addr":"FHRS Open Data","website":"https:\/\/www.eastofengland.coop\/foodstores\/great-cornard"}}, "geometry":{"type":"Point","coordinates":[0.75559,52.03024 ]}},
{ "type":"Feature","properties":{"osm_id":"7061596482","other":{"emergency":"defibrillator"}}, "geometry":{"type":"Point","coordinates":[0.95429,52.04453 ]}},
{ "type":"Feature","properties":{"osm_id":"9442692876","other":{"defibrillator:location":"On exterior wall of Co-op Village Shop, facing Hall Street.","emergency":"defibrillator"}}, "geometry":{"type":"Point","coordinates":[0.71684,52.07718 ]}},
{ "type":"Feature","properties":{"osm_way_id":"23151702","name":"Tesco Extra","building":"yes","shop":"supermarket","other":{"addr:city":"Ipswich","addr:postcode":"IP8 3TS","addr:street":"Copdock Interchange","brand":"Tesco Extra","brand:wikidata":"Q25172225","brand:wikipedia":"en:Tesco Extra","fhrs:id":"526198","operator":"Tesco Stores Ltd"}}, "geometry":{"type":"MultiPolygon","coordinates":[[[[1.09766,52.04049],[1.09744,52.04034],[1.09738,52.04037],[1.0969,52.04002],[1.09698,52.03998],[1.09679,52.03986],[1.09683,52.03984],[1.09677,52.0398],[1.09698,52.03969],[1.09723,52.03985],[1.09789,52.03946],[1.09799,52.03953],[1.09812,52.03945],[1.09817,52.03949],[1.09821,52.03947],[1.09846,52.03947],[1.09876,52.03931],[1.09923,52.03962],[1.0988,52.03985],[1.09867,52.03997],[1.09866,52.03996],[1.09829,52.04017],[1.09825,52.04015],[1.09766,52.04049]]]]}},
{ "type":"Feature","properties":{"osm_way_id":"54967500","name":"Suffolk Food Hall","building":"yes","shop":"supermarket","other":{"addr:city":"Ipswich","addr:postcode":"IP9 2AB","addr:street":"Peppers Lane","addr:village":"Wherstead","fhrs:id":"526511","source:addr":"FSA Food Hygiene Ratings Database","wheelchair":"yes"}}, "geometry":{"type":"MultiPolygon","coordinates":[[[[1.15575,52.02402],[1.15622,52.02362],[1.15646,52.02372],[1.15626,52.02389],[1.15598,52.02412],[1.15575,52.02402]]]]}},
{ "type":"Feature","properties":{"osm_way_id":"70192601","name":"Tesco","building":"yes","shop":"supermarket","other":{"addr:city":"Sudbury","addr:housename":"Woodhall Business Park","addr:postcode":"CO10 1GY","addr:street":"Springlands Way","branch":"Sudbury Superstore","brand":"Tesco","brand:wikidata":"Q487494","brand:wikipedia":"en:Tesco","fhrs:id":"526505","opening_hours":"Mo-Sa 06:00-24:00; Su 10:00-16:00","operator":"Tesco Stores Ltd"}}, "geometry":{"type":"MultiPolygon","coordinates":[[[[0.73237,52.05384],[0.73258,52.05372],[0.73281,52.05388],[0.73289,52.05385],[0.73305,52.05396],[0.73327,52.05384],[0.73337,52.05391],[0.73344,52.05387],[0.73319,52.05369],[0.7334,52.05358],[0.73344,52.0536],[0.73357,52.05353],[0.73345,52.05345],[0.73368,52.05334],[0.73361,52.0533],[0.73365,52.05326],[0.73326,52.05299],[0.7332,52.05302],[0.73298,52.05286],[0.73283,52.05294],[0.73259,52.05307],[0.7325,52.05312],[0.73258,52.05319],[0.73183,52.05359],[0.73207,52.05374],[0.73237,52.05384]]]]}},
{ "type":"Feature","properties":{"osm_way_id":"111633499","name":"Morrisons","building":"yes","shop":"supermarket","other":{"addr:country":"GB","addr:postcode":"IP7 6LB","addr:street":"Calais Street","alt_name":"Morrisons Hadleigh","brand":"Morrisons","brand:wikidata":"Q922344","brand:wikipedia":"en:Morrisons","fhrs:id":"527052"}}, "geometry":{"type":"MultiPolygon","coordinates":[[[[0.95524,52.04972],[0.95563,52.04924],[0.95456,52.0489],[0.95415,52.0494],[0.95524,52.04972]]]]}},
{ "type":"Feature","properties":{"osm_way_id":"157099776","name":"ALDI","building":"supermarket","shop":"supermarket","other":{"addr:city":"Sudbury","addr:postcode":"CO10 1NB","addr:street":"Girling Street","branch":"Sudbury","brand":"ALDI","brand:wikidata":"Q41171672","brand:wikipedia":"en:Aldi","fhrs:id":"1394635","opening_hours":"Mo-Sa 08:00-22:00; Su 10:00-16:00"}}, "geometry":{"type":"MultiPolygon","coordinates":[[[[0.72932,52.0422],[0.73002,52.04179],[0.73022,52.04192],[0.7301,52.04199],[0.73016,52.04202],[0.7298,52.04223],[0.72985,52.04227],[0.72962,52.0424],[0.72949,52.04231],[0.72932,52.0422]]]]}},
{ "type":"Feature","properties":{"osm_way_id":"157099779","name":"Waitrose","building":"yes","shop":"supermarket","other":{"addr:city":"Sudbury","addr:postcode":"CO10 2SS","addr:street":"Station Road","branch":"Sudbury","brand":"Waitrose & Partners","brand:wikidata":"Q771734","brand:wikipedia":"en:Waitrose & Partners","fhrs:id":"1394703","opening_hours":"Mo-Sa 07:00-21:00; Su 10:00-16:00","operator":"Waitrose & Partners","toilets:wheelchair":"yes","wheelchair":"yes"}}, "geometry":{"type":"MultiPolygon","coordinates":[[[[0.73155,52.03533],[0.7321,52.03521],[0.73242,52.03581],[0.73225,52.03579],[0.7319,52.03586],[0.73187,52.03581],[0.73135,52.03591],[0.73121,52.03565],[0.73156,52.03558],[0.73145,52.03538],[0.73156,52.03536],[0.73155,52.03533]]]]}},
{ "type":"Feature","properties":{"osm_way_id":"190982477","name":"Co-op","building":"yes","shop":"supermarket","other":{"addr:city":"Sudbury","addr:housenumber":"80A","addr:postcode":"CO10 9PT","addr:street":"High Street","addr:village":"Lavenham","fhrs:id":"1394818","website":"https:\/\/www.coop.co.uk\/store-finder\/CO10-9PT\/80a-high-street"}}, "geometry":{"type":"MultiPolygon","coordinates":[[[[0.79566,52.10952],[0.79576,52.10949],[0.7958,52.10949],[0.79588,52.10947],[0.79589,52.10947],[0.79593,52.10946],[0.79595,52.10947],[0.79598,52.10945],[0.79602,52.10951],[0.796,52.10952],[0.796,52.10953],[0.7958,52.10961],[0.79572,52.10962],[0.79566,52.10952]]]]}},
{ "type":"Feature","properties":{"osm_way_id":"190988872","name":"Iceland","building":"yes","shop":"supermarket","other":{"addr:city":"Sudbury","addr:housenumber":"94-95","addr:postcode":"CO10 1RF","addr:street":"North Street","branch":"Sudbury","brand":"Iceland","brand:wikidata":"Q721810","fhrs:id":"1394926","opening_hours":"Mo-Sa 08:00-19:00; Su 10:00-16:00","source:addr":"FHRS Open Data","website":"https:\/\/www.iceland.co.uk\/store-finder\/store?StoreID=1246&StoreName=SUDBURY"}}, "geometry":{"type":"MultiPolygon","coordinates":[[[[0.73134,52.03972],[0.73148,52.0396],[0.73163,52.03968],[0.73217,52.03995],[0.73195,52.04004],[0.73171,52.0399],[0.73157,52.03983],[0.73134,52.03972]]]]}},
{ "type":"Feature","properties":{"osm_way_id":"215667716","name":"Co-op Daily","building":"retail","shop":"supermarket","other":{"addr:city":"Ipswich","addr:housenumber":"38","addr:postcode":"IP9 2EP","addr:street":"The Street","addr:village":"Capel St Mary","fhrs:id":"526663","opening_hours":"Mo-Sa 06:00-23:00; Su 10:00-16:00","operator":"East of England Co-Op","source:addr":"FSA Food Hygiene Ratings Database"}}, "geometry":{"type":"MultiPolygon","coordinates":[[[[1.05002,52.00391],[1.05027,52.00392],[1.0503,52.00365],[1.05006,52.00364],[1.05005,52.00367],[1.05004,52.00381],[1.05002,52.00391]]]]}},
{ "type":"Feature","properties":{"osm_way_id":"290175826","name":"East of England CO-OP","building":"yes","shop":"supermarket","other":{"addr:city":"Ipswich","addr:housenumber":"72","addr:postcode":"IP7 5EF","addr:street":"High Street","addr:town":"Hadleigh","brand":"East of England CO-OP","brand:wikidata":"Q5329759","brand:wikipedia":"en:East of England Co-operative Society","fhrs:id":"1394842","operator":"East of England Co-operative Society","operator:wikidata":"Q5329759","operator:wikipedia":"en:East of England Co-operative Society"}}, "geometry":{"type":"MultiPolygon","coordinates":[[[[0.95406,52.04477],[0.95429,52.04453],[0.95433,52.04449],[0.95379,52.04427],[0.95362,52.04422],[0.95356,52.04429],[0.9538,52.04438],[0.95375,52.04443],[0.9537,52.04449],[0.95364,52.04455],[0.95385,52.04467],[0.95406,52.04477]]]]}},
{ "type":"Feature","properties":{"osm_way_id":"326392146","name":"Co-op Village Shop","building":"yes","shop":"supermarket","other":{"addr:city":"Sudbury","addr:postcode":"CO10 9JR","addr:street":"Hall Street","addr:village":"Long Melford","atm":"yes","fhrs:id":"1394678","opening_hours":"Mo-Sa 07:00-22:00; Su 10:00-16:00","operator":"East Of England Co-operative Society","source:addr":"FHRS Open Data","website":"https:\/\/www.eastofengland.coop\/food\/long-melford"}}, "geometry":{"type":"MultiPolygon","coordinates":[[[[0.71618,52.07733],[0.7161,52.07717],[0.71629,52.07714],[0.71631,52.07719],[0.7168,52.0771],[0.71684,52.07718],[0.71686,52.07722],[0.71673,52.07724],[0.71657,52.07727],[0.71656,52.07726],[0.71646,52.07728],[0.71618,52.07733]]]]}},
{ "type":"Feature","properties":{"osm_way_id":"396807040","name":"Coop Village Shop","building":"yes","shop":"supermarket","other":{"addr:city":"Brantham","addr:housenumber":"3-4","addr:street":"Acacia Court","operator":"The Co-Operative"}}, "geometry":{"type":"MultiPolygon","coordinates":[[[[1.06514,51.96526],[1.06538,51.96533],[1.06546,51.96523],[1.06521,51.96516],[1.06514,51.96526]]]]}},
{ "type":"Feature","properties":{"osm_way_id":"524070577","name":"Aldi","building":"shop","shop":"supermarket","other":{"addr:city":"Ipswich","addr:housenumber":"2","addr:postcode":"IP8 3LQ","addr:street":"Donald Mackintosh Way","brand":"ALDI","brand:wikidata":"Q41171672","brand:wikipedia":"en:Aldi","contact:website":"https:\/\/www.aldi.co.uk\/store\/s-uk-E1007","fhrs:id":"911046","opening_hours":"Mo-Sa 08:00-22:00; Su 10:00-16:00","source:addr:postcode":"FSA Food Hygiene Ratings Database"}}, "geometry":{"type":"MultiPolygon","coordinates":[[[[1.10268,52.04372],[1.10315,52.04331],[1.10342,52.04343],[1.10344,52.04341],[1.10354,52.04346],[1.10335,52.04362],[1.10343,52.04366],[1.10318,52.04386],[1.10311,52.04383],[1.10305,52.04388],[1.10268,52.04372]]]]}},
{ "type":"Feature","properties":{"osm_way_id":"560556340","name":"Co-operative","building":"yes","shop":"supermarket"},"geometry":{"type":"MultiPolygon","coordinates":[[[[1.15617,51.98524],[1.15647,51.98492],[1.15671,51.985],[1.1566,51.98511],[1.15665,51.98513],[1.15659,51.9852],[1.15638,51.98513],[1.15634,51.98518],[1.1564,51.9852],[1.15634,51.98526],[1.15617,51.98524]]]]}}
]
}
