{
"type": "FeatureCollection",
"features": [
{ "type":"Feature","properties":{"osm_id":"3124257203","name":"Cottage Shop","other":{"name:hu":"Lengyel bolt ( Cottage Shop )","shop":"supermarket"}}, "geometry":{"type":"Point","coordinates":[-0.80851,53.07413 ]}},
{ "type":"Feature","properties":{"osm_id":"4127783489","name":"Heron Foods","other":{"addr:postcode":"NG22 9PL","addr:street":"Forest Road","brand":"Heron Foods","brand:wikidata":"Q5743472","brand:wikipedia":"en:Heron Foods","contact:website":"https:\/\/heronfoods.com\/storelocator\/store-details\/new-ollerton","fhrs:id":"557276","shop":"supermarket","source:postcode":"FHRS Open Data"}}, "geometry":{"type":"Point","coordinates":[-1.00837,53.20405 ]}},
{ "type":"Feature","properties":{"osm_id":"4338644491","name":"Eastern European Mini Market","other":{"shop":"supermarket"}}, "geometry":{"type":"Point","coordinates":[-0.80707,53.0757 ]}},
{ "type":"Feature","properties":{"osm_id":"4338682289","name":"Maximal Shop","other":{"shop":"supermarket"}}, "geometry":{"type":"Point","coordinates":[-0.80138,53.07778 ]}},
{ "type":"Feature","properties":{"osm_id":"4379469719","name":"Costcutter","other":{"shop":"supermarket"}}, "geometry":{"type":"Point","coordinates":[-0.82464,53.06136 ]}},
{ "type":"Feature","properties":{"osm_id":"5647855248","other":{"emergency":"defibrillator"}}, "geometry":{"type":"Point","coordinates":[-0.80847,53.07874 ]}},
{ "type":"Feature","properties":{"osm_way_id":"36921649","name":"Co-op","building":"yes","shop":"supermarket","other":{"addr:housenumber":"38","addr:postcode":"NG14 7AG","addr:street":"Main Street","source:addr":"FHRS Open Data"}}, "geometry":{"type":"MultiPolygon","coordinates":[[[[-1.00388,53.01117],[-1.00371,53.01125],[-1.00378,53.01131],[-1.00376,53.01133],[-1.00385,53.0114],[-1.00397,53.01136],[-1.00407,53.01132],[-1.00388,53.01117]]]]}},
{ "type":"Feature","properties":{"osm_way_id":"67491592","name":"Morrisons","building":"yes","shop":"supermarket","other":{"addr:postcode":"NG24 1EW","addr:street":"King's Road","brand":"Morrisons","brand:wikidata":"Q922344","brand:wikipedia":"en:Morrisons","fhrs:id":"557142","opening_hours":"Mo-Sa 06:00-22:00; Su 10:00-16:00","operator":"Morrisons","source:postcode":"FHRS Open Data"}}, "geometry":{"type":"MultiPolygon","coordinates":[[[[-0.80871,53.07884],[-0.80866,53.07882],[-0.80847,53.07874],[-0.80774,53.07844],[-0.80767,53.0785],[-0.80757,53.07846],[-0.80828,53.07784],[-0.8095,53.07837],[-0.80932,53.07853],[-0.80922,53.07849],[-0.80909,53.0786],[-0.80903,53.07857],[-0.80871,53.07884]]]]}},
{ "type":"Feature","properties":{"osm_way_id":"67491599","name":"Waitrose","building":"supermarket","shop":"supermarket","other":{"addr:city":"Newark on Trent","addr:housename":"Wiatrose","addr:postcode":"NG24 1FF","addr:street":"Ossington Way","brand":"Waitrose","brand:wikidata":"Q771734","brand:wikipedia":"en:Waitrose & Partners","fhrs:id":"557147","operator":"Waitrose & Partners"}}, "geometry":{"type":"MultiPolygon","coordinates":[[[[-0.81258,53.07964],[-0.81223,53.07955],[-0.81219,53.07948],[-0.81185,53.07964],[-0.81156,53.08008],[-0.81217,53.08023],[-0.81258,53.07964]]]]}},
{ "type":"Feature","properties":{"osm_way_id":"95223717","name":"M&S Foodhall","building":"yes","shop":"supermarket","other":{"addr:housenumber":"84-90","addr:postcode":"SE22 8HF","addr:street":"Lordship Lane","brand":"M&S Foodhall","brand:wikidata":"Q714491","fhrs:id":"1028965","not:addr:postcode":"SE22 8EW","operator":"Marks & Spencer"}}, "geometry":{"type":"MultiPolygon","coordinates":[[[[-0.07537,51.45793],[-0.07546,51.45771],[-0.07575,51.45775],[-0.07566,51.45798],[-0.07537,51.45793]]]]}},
{ "type":"Feature","properties":{"osm_way_id":"184216700","name":"Sainsbury's","building":"yes","shop":"supermarket","other":{"addr:city":"Balderton","addr:housenumber":"256","addr:postcode":"NG24 3HG","addr:street":"London Road","brand":"Sainsbury's","brand:wikidata":"Q152096","brand:wikipedia":"en:Sainsbury's","fhrs:id":"557132"}}, "geometry":{"type":"MultiPolygon","coordinates":[[[[-0.78435,53.05404],[-0.78389,53.05407],[-0.78386,53.05388],[-0.78431,53.05384],[-0.78435,53.05404]]]]}},
{ "type":"Feature","properties":{"osm_way_id":"186704122","name":"Tesco","building":"yes","shop":"supermarket","other":{"addr:postcode":"NG22 9PL","addr:street":"Edison Road","brand":"Tesco","brand:wikidata":"Q487494","brand:wikipedia":"en:Tesco","fhrs:id":"551749"}}, "geometry":{"type":"MultiPolygon","coordinates":[[[[-1.00902,53.20222],[-1.00895,53.20221],[-1.00841,53.20206],[-1.00847,53.20198],[-1.00828,53.20193],[-1.00773,53.20266],[-1.00853,53.20288],[-1.00902,53.20222]]]]}},
{ "type":"Feature","properties":{"osm_way_id":"186704463","name":"Asda","building":"yes","shop":"supermarket","other":{"addr:city":"Ollerton","addr:country":"GB","addr:postcode":"NG22 9PL","addr:street":"Forest Road","brand":"Asda","brand:wikidata":"Q297410","brand:wikipedia":"en:Asda","contact:facebook":"https:\/\/www.facebook.com\/asda\/","contact:twitter":"@asda","contact:website":"https:\/\/storelocator.asda.com\/east-midlands\/newark\/forest-road-new-ollerton","fhrs:id":"557150","operator":"Asda Stores Ltd"}}, "geometry":{"type":"MultiPolygon","coordinates":[[[[-1.01361,53.20421],[-1.01326,53.20406],[-1.01317,53.20402],[-1.01282,53.20429],[-1.01326,53.20449],[-1.01361,53.20421]]]]}},
{ "type":"Feature","properties":{"osm_way_id":"186704790","name":"Spar","building":"yes","shop":"supermarket","other":{"addr:postcode":"NG22 9PL","addr:street":"Forest Road","branch":"New Ollerton","brand":"Spar","brand:wikidata":"Q610492","brand:wikipedia":"en:SPAR (retailer)"}}, "geometry":{"type":"MultiPolygon","coordinates":[[[[-1.00685,53.20421],[-1.007,53.20401],[-1.00701,53.20399],[-1.0069,53.20396],[-1.00674,53.20418],[-1.00685,53.20421]]]]}},
{ "type":"Feature","properties":{"osm_way_id":"188000769","name":"Asda","building":"supermarket","shop":"supermarket","other":{"addr:city":"Newark On Trent","addr:postcode":"NG24 1XG","addr:street":"Lombard Street","brand":"Asda","brand:wikidata":"Q297410","brand:wikipedia":"en:Asda","contact:facebook":"https:\/\/www.facebook.com\/asda\/","contact:phone":"+44 1636 662410","contact:twitter":"@asda","contact:website":"https:\/\/storelocator.asda.com\/east-midlands\/newark\/lombard-street","fhrs:id":"722666","opening_hours":"Mo 07:00-24:00; Tu-Fr 00:00-24:00; Sa 00:00-22:00; Su 10:00-16:00","opening_hours:covid19":"Mo-Th,Sa 08:00-22:00; Fr 08:00-20:00; Su 10:00-16:00","operator":"Asda Stores Ltd"}}, "geometry":{"type":"MultiPolygon","coordinates":[[[[-0.81349,53.07445],[-0.81312,53.07444],[-0.81311,53.07475],[-0.81248,53.07475],[-0.81201,53.07474],[-0.81201,53.0746],[-0.81196,53.0746],[-0.81185,53.0746],[-0.81186,53.07447],[-0.81186,53.07441],[-0.81203,53.07442],[-0.81206,53.07442],[-0.81206,53.07428],[-0.81206,53.07414],[-0.8135,53.07415],[-0.81349,53.07445]]]]}},
{ "type":"Feature","properties":{"osm_way_id":"244465780","name":"Co-op Food","building":"yes","shop":"supermarket","other":{"brand":"Co-op Food","brand:wikidata":"Q3277439","brand:wikipedia":"en:Co-op Food","operator":"The Co-operative Group"}}, "geometry":{"type":"MultiPolygon","coordinates":[[[[-0.95683,53.08038],[-0.95685,53.08034],[-0.95682,53.08033],[-0.95686,53.08026],[-0.95689,53.08027],[-0.95691,53.08023],[-0.95697,53.08024],[-0.95706,53.08009],[-0.9576,53.08021],[-0.95742,53.08051],[-0.95733,53.08049],[-0.95729,53.08054],[-0.95712,53.08051],[-0.95715,53.08045],[-0.95683,53.08038]]]]}},
{ "type":"Feature","properties":{"osm_way_id":"263895346","name":"Co-op","building":"yes","shop":"supermarket","other":{"addr:postcode":"NG21 9QS","addr:street":"High Street","fhrs:id":"NG21 9QS","operator":"The Co-operative Group","source:addr":"FHRS Open Data"}}, "geometry":{"type":"MultiPolygon","coordinates":[[[[-1.06396,53.19346],[-1.06388,53.19327],[-1.06431,53.19322],[-1.06439,53.1934],[-1.06428,53.19342],[-1.06396,53.19346]]]]}},
{ "type":"Feature","properties":{"osm_way_id":"336816377","name":"ALDI","building":"retail","shop":"supermarket","other":{"addr:postcode":"NG24 1HD","addr:street":"North Gate","brand":"ALDI","brand:wikidata":"Q41171672","brand:wikipedia":"en:Aldi","fhrs:id":"557146","operator":"Aldi","source:addr":"FHRS Open Data"}}, "geometry":{"type":"MultiPolygon","coordinates":[[[[-0.809,53.0804],[-0.80856,53.0808],[-0.80823,53.08067],[-0.80824,53.08066],[-0.80819,53.08064],[-0.80831,53.08054],[-0.80836,53.08056],[-0.80863,53.08031],[-0.80878,53.08038],[-0.80883,53.08033],[-0.809,53.0804]]]]}},
{ "type":"Feature","properties":{"osm_way_id":"342989899","name":"B&M","building":"yes","shop":"supermarket"},"geometry":{"type":"MultiPolygon","coordinates":[[[[-0.81383,53.07288],[-0.8132,53.07313],[-0.81294,53.07288],[-0.81356,53.07264],[-0.81383,53.07288]]]]}},
{ "type":"Feature","properties":{"osm_way_id":"342993328","name":"Lincolnshire Co-op","building":"yes","shop":"supermarket","other":{"brand":"Lincolnshire Co-op","brand:wikidata":"Q6551231","brand:wikipedia":"en:Lincolnshire Co-operative","operator":"Lincolnshire Co-operative"}}, "geometry":{"type":"MultiPolygon","coordinates":[[[[-0.80581,53.06886],[-0.80546,53.06886],[-0.80546,53.06869],[-0.80555,53.06869],[-0.80576,53.06869],[-0.80581,53.06869],[-0.80581,53.06886]]]]}},
{ "type":"Feature","properties":{"osm_way_id":"348506178","name":"Lincolnshire Co-op","building":"yes","shop":"supermarket","other":{"brand":"Lincolnshire Co-op","brand:wikidata":"Q6551231","brand:wikipedia":"en:Lincolnshire Co-operative","operator":"Lincolnshire Co-operative Society"}}, "geometry":{"type":"MultiPolygon","coordinates":[[[[-0.81334,53.07231],[-0.81317,53.07241],[-0.81295,53.0723],[-0.81294,53.07231],[-0.81282,53.07226],[-0.81284,53.07225],[-0.8128,53.07224],[-0.81295,53.07213],[-0.81334,53.07231]]]]}},
{ "type":"Feature","properties":{"osm_way_id":"357742343","name":"Lincolnshire Co-op","building":"retail","shop":"supermarket","other":{"addr:city":"Newark-on-Trent","addr:postcode":"NG24 2DP","addr:street":"Lincoln Road","brand":"Lincolnshire Co-op","brand:wikidata":"Q6551231","brand:wikipedia":"en:Lincolnshire Co-operative","fhrs:id":"557143","opening_hours":"Mo-Su 07:00-22:00","operator":"Lincolnshire Co-operative Society"}}, "geometry":{"type":"MultiPolygon","coordinates":[[[[-0.79599,53.08706],[-0.79566,53.08729],[-0.79548,53.0872],[-0.79561,53.0871],[-0.79553,53.08706],[-0.79572,53.08692],[-0.79599,53.08706]]]]}},
{ "type":"Feature","properties":{"osm_way_id":"376630567","name":"The Co-operative Food","building":"yes","shop":"supermarket","other":{"operator":"The Co-operative Group"}}, "geometry":{"type":"MultiPolygon","coordinates":[[[[-1.1249,53.15978],[-1.125,53.15993],[-1.12466,53.16001],[-1.12457,53.15986],[-1.1249,53.15978]]]]}},
{ "type":"Feature","properties":{"osm_way_id":"376633820","name":"Lincolnshire Co-op","building":"yes","shop":"supermarket","other":{"addr:city":"Sutton-on-Trent","addr:housenumber":"61","addr:street":"High Street","brand":"Lincolnshire Co-op","brand:wikidata":"Q6551231","brand:wikipedia":"en:Lincolnshire Co-operative","operator":"Lincolnshire Co-operative Society"}}, "geometry":{"type":"MultiPolygon","coordinates":[[[[-0.8106,53.18448],[-0.81058,53.18458],[-0.81047,53.18457],[-0.81046,53.18465],[-0.81027,53.18463],[-0.81031,53.18446],[-0.8106,53.18448]]]]}},
{ "type":"Feature","properties":{"osm_way_id":"481271731","name":"Lidl","building":"supermarket","shop":"supermarket","other":{"addr:city":"Balderton","addr:postcode":"NG24 3AQ","addr:street":"London Road","brand":"Lidl","brand:wikidata":"Q151954","brand:wikipedia":"en:Lidl","fhrs:id":"957987","operator":"Lidl"}}, "geometry":{"type":"MultiPolygon","coordinates":[[[[-0.78896,53.06155],[-0.78902,53.06144],[-0.78893,53.06142],[-0.78903,53.06124],[-0.78802,53.06105],[-0.78787,53.06135],[-0.78896,53.06155]]]]}},
{ "type":"Feature","properties":{"osm_way_id":"670515496","name":"Lincolnshire Co-op","building":"yes","shop":"supermarket","other":{"addr:city":"Collingham","addr:postcode":"NG23 7LB","addr:street":"High Street","fhrs:id":"557136","opening_hours":"Mo-Sa 07:00-22:00; Su 10:00-16:00","operator":"Lincolnshire Co-operative Society"}}, "geometry":{"type":"MultiPolygon","coordinates":[[[[-0.75767,53.14612],[-0.75772,53.14595],[-0.75767,53.14594],[-0.7577,53.14585],[-0.7576,53.14584],[-0.75729,53.14581],[-0.75725,53.14595],[-0.75711,53.14594],[-0.75707,53.14606],[-0.75767,53.14612]]]]}},
{ "type":"Feature","properties":{"osm_way_id":"733068037","name":"Lincolnshire Co-op","building":"yes","shop":"supermarket","other":{"brand":"Lincolnshire Co-op","brand:wikidata":"Q6551231","brand:wikipedia":"en:Lincolnshire Co-operative","operator":"Lincolnshire Co-operative Society"}}, "geometry":{"type":"MultiPolygon","coordinates":[[[[-0.7999,53.07339],[-0.79979,53.07354],[-0.80012,53.07363],[-0.80023,53.07347],[-0.7999,53.07339]]]]}},
{ "type":"Feature","properties":{"osm_way_id":"908396959","building":"yes"},"geometry":{"type":"MultiPolygon","coordinates":[[[[-1.03181,53.02976],[-1.03172,53.02973],[-1.03182,53.02962],[-1.03192,53.02966],[-1.03181,53.02976]]]]}}
]
}
