{
"type": "FeatureCollection",
"features": [
{ "type":"Feature","properties":{"osm_id":"1819244933","name":"Nisa Warley Supermarket","other":{"addr:housenumber":"105","addr:postcode":"B68 9HF","addr:street":"Pottery Road","fhrs:id":"134848","shop":"supermarket","source:addr":"FHRS Open Data"}}, "geometry":{"type":"Point","coordinates":[-1.99258,52.47431 ]}},
{ "type":"Feature","properties":{"osm_id":"1870285268","name":"Teri' Supermarket","other":{"addr:city":"birmingham","addr:housenumber":"134","addr:postcode":"B68 8AE","addr:street":"Brook Road","opening_hours":"Mo-Th,Su 07:00-21:00; Fr-Sa 07:00-22:00","shop":"supermarket"}}, "geometry":{"type":"Point","coordinates":[-2.01309,52.47735 ]}},
{ "type":"Feature","properties":{"osm_id":"2199446531","name":"Costcutter","other":{"brand":"Costcutter","brand:wikidata":"Q5175072","brand:wikipedia":"en:Costcutter","shop":"supermarket"}}, "geometry":{"type":"Point","coordinates":[-2.06427,52.54185 ]}},
{ "type":"Feature","properties":{"osm_id":"2290022419","other":{"artwork_type":"relief","tourism":"artwork"}}, "geometry":{"type":"Point","coordinates":[-2.02166,52.55069 ]}},
{ "type":"Feature","properties":{"osm_id":"2290022422","other":{"artwork_type":"relief","tourism":"artwork"}}, "geometry":{"type":"Point","coordinates":[-2.02254,52.55106 ]}},
{ "type":"Feature","properties":{"osm_id":"2290022427","other":{"artwork_type":"relief","tourism":"artwork"}}, "geometry":{"type":"Point","coordinates":[-2.02279,52.55123 ]}},
{ "type":"Feature","properties":{"osm_id":"2694625612","name":"Costcutter","other":{"addr:city":"Cradley Heath","addr:country":"GB","addr:housenumber":"182","addr:postcode":"B64 6HU","addr:street":"Halesowen Road","brand":"Costcutter","brand:wikidata":"Q5175072","brand:wikipedia":"en:Costcutter","fhrs:id":"575853","shop":"supermarket"}}, "geometry":{"type":"Point","coordinates":[-2.06804,52.47637 ]}},
{ "type":"Feature","properties":{"osm_id":"2696583998","name":"Ransons","other":{"shop":"supermarket"}}, "geometry":{"type":"Point","coordinates":[-2.0848,52.47096 ]}},
{ "type":"Feature","properties":{"osm_id":"3503327830","name":"Eurosave Sahil Supermarket","other":{"shop":"supermarket"}}, "geometry":{"type":"Point","coordinates":[-2.0,52.49495 ]}},
{ "type":"Feature","properties":{"osm_id":"3672007422","name":"Kwiksave","other":{"shop":"supermarket"}}, "geometry":{"type":"Point","coordinates":[-1.98399,52.54507 ]}},
{ "type":"Feature","properties":{"osm_id":"4000969267","name":"Spar","other":{"addr:city":"Tipton","addr:street":"Sheepwash Lane","brand":"Spar","brand:wikidata":"Q610492","brand:wikipedia":"en:SPAR (retailer)","shop":"supermarket"}}, "geometry":{"type":"Point","coordinates":[-2.0316,52.52825 ]}},
{ "type":"Feature","properties":{"osm_id":"4548171823","other":{"artwork_type":"relief","tourism":"artwork"}}, "geometry":{"type":"Point","coordinates":[-2.02213,52.55087 ]}},
{ "type":"Feature","properties":{"osm_id":"5503813406","name":"Lidl","other":{"addr:postcode":"B65 0LG","addr:street":"Oldbury Road","brand":"Lidl","brand:wikidata":"Q151954","brand:wikipedia":"en:Lidl","fhrs:id":"1107854","opening_hours":"Mo-Sa 08:00-22:00; Su 10:00-16:00; PH 08:00-20:00","shop":"supermarket","source:addr":"FHRS Open Data"}}, "geometry":{"type":"Point","coordinates":[-2.03675,52.47653 ]}},
{ "type":"Feature","properties":{"osm_id":"5509597351","name":"Sainsbury's","other":{"addr:city":"Rowley Regis","addr:postcode":"B65 0HG","addr:street":"Halesowen Street","brand":"Sainsbury's","brand:wikidata":"Q152096","brand:wikipedia":"en:Sainsbury's","fhrs:id":"936771","opening_hours":"Mo-Sa 07:00-22:00; Su 10:00-16:00","shop":"supermarket","source:addr":"FHRS Open Data"}}, "geometry":{"type":"Point","coordinates":[-2.03996,52.47444 ]}},
{ "type":"Feature","properties":{"osm_id":"5596299413","name":"Heron Foods","other":{"addr:city":"Rowley Regis","addr:country":"GB","addr:housenumber":"168,169","addr:postcode":"B65 0DX","addr:street":"High Street","brand":"Heron Foods","brand:wikidata":"Q5743472","brand:wikipedia":"en:Heron Foods","contact:website":"https:\/\/heronfoods.com\/storelocator\/store-details\/blackheath","fhrs:id":"936787","opening_hours":"Mo-Sa 08:00-18:00; Su 09:00-17:00","shop":"supermarket"}}, "geometry":{"type":"Point","coordinates":[-2.04062,52.4757 ]}},
{ "type":"Feature","properties":{"osm_id":"5640091963","name":"Heron Foods","other":{"addr:city":"Wednesbury","addr:country":"GB","addr:housenumber":"19","addr:postcode":"WS10 7HD","addr:street":"Union Street","brand":"Heron Foods","brand:wikidata":"Q5743472","brand:wikipedia":"en:Heron Foods","contact:website":"https:\/\/heronfoods.com\/storelocator\/store-details\/wednesbury","fhrs:id":"575816","shop":"supermarket"}}, "geometry":{"type":"Point","coordinates":[-2.02034,52.55262 ]}},
{ "type":"Feature","properties":{"osm_id":"5765383086","name":"Lidl","other":{"addr:postcode":"WS10 0TB","addr:street":"Friar Park Road","brand":"Lidl","brand:wikidata":"Q151954","brand:wikipedia":"en:Lidl","fhrs:id":"575504","shop":"supermarket"}}, "geometry":{"type":"Point","coordinates":[-1.99657,52.55438 ]}},
{ "type":"Feature","properties":{"osm_id":"6443260837","name":"ALDI","other":{"addr:housenumber":"545","addr:postcode":"B66 4BH","addr:street":"Bearwood Road","brand":"ALDI","brand:wikidata":"Q41171672","brand:wikipedia":"en:Aldi","fhrs:id":"575804","shop":"supermarket","source:addr":"FHRS Open Data"}}, "geometry":{"type":"Point","coordinates":[-1.96916,52.4752 ]}},
{ "type":"Feature","properties":{"osm_id":"7531939984","name":"New Bloomfield Off License","other":{"addr:city":"Sandwell","addr:housenumber":"37","addr:postcode":"DY4 9BS","addr:street":"Bloomfield Road","shop":"supermarket"}}, "geometry":{"type":"Point","coordinates":[-2.07426,52.53512 ]}},
{ "type":"Feature","properties":{"osm_id":"9066324178","name":"Co-op","other":{"opening_hours":"Mo-Su 07:00-22:00","shop":"supermarket"}}, "geometry":{"type":"Point","coordinates":[-1.93819,52.54111 ]}},
{ "type":"Feature","properties":{"osm_way_id":"42447725","name":"Tesco Extra","building":"yes","shop":"supermarket","other":{"addr:housenumber":"1","addr:postcode":"B64 5DF","addr:street":"Fox Oak Street","brand":"Tesco Extra","brand:wikidata":"Q25172225","brand:wikipedia":"en:Tesco Extra","fhrs:id":"133602","source:addr":"FHRS Open Data"}}, "geometry":{"type":"MultiPolygon","coordinates":[[[[-2.08218,52.47332],[-2.08132,52.47263],[-2.08129,52.47261],[-2.08113,52.47272],[-2.08054,52.47298],[-2.08058,52.47304],[-2.08053,52.47306],[-2.08051,52.47314],[-2.08067,52.47328],[-2.0807,52.47339],[-2.08066,52.47339],[-2.08065,52.47344],[-2.08059,52.47347],[-2.0806,52.47353],[-2.08074,52.47352],[-2.08078,52.47362],[-2.08134,52.47354],[-2.08218,52.47332]]]]}},
{ "type":"Feature","properties":{"osm_way_id":"42919039","name":"Asda","building":"retail","shop":"supermarket","other":{"addr:city":"Oldbury","addr:country":"GB","addr:postcode":"B69 4PU","addr:street":"Wolverhampton Road","brand":"Asda","brand:wikidata":"Q297410","brand:wikipedia":"en:Asda","contact:facebook":"https:\/\/www.facebook.com\/asda\/","contact:twitter":"@asda","contact:website":"https:\/\/storelocator.asda.com\/west-midlands\/oldbury\/wolverhampton-road","fhrs:id":"55304","int_name":"Asda Wal Mart","operator":"Asda Stores Ltd"}}, "geometry":{"type":"MultiPolygon","coordinates":[[[[-2.01922,52.49065],[-2.01962,52.49056],[-2.01951,52.49039],[-2.01957,52.49038],[-2.01919,52.48979],[-2.019,52.4895],[-2.01892,52.48952],[-2.01888,52.48946],[-2.01879,52.48933],[-2.01844,52.48942],[-2.01853,52.48955],[-2.01833,52.4896],[-2.01887,52.49042],[-2.01882,52.49046],[-2.0189,52.4905],[-2.01878,52.4906],[-2.01905,52.49071],[-2.01915,52.49063],[-2.01922,52.49065]]]]}},
{ "type":"Feature","properties":{"osm_way_id":"61472861","name":"Morrisons","building":"yes","shop":"supermarket","other":{"addr:housenumber":"239","addr:postcode":"WS10 7BD","addr:street":"Holyhead Road","brand":"Morrisons","brand:wikidata":"Q922344","brand:wikipedia":"en:Morrisons","fhrs:id":"132533","operator":"Morrisons","source:addr":"FHRS Open Data","website":"https:\/\/my.morrisons.com\/storefinder\/153"}}, "geometry":{"type":"MultiPolygon","coordinates":[[[[-2.02284,52.55119],[-2.02254,52.55106],[-2.02213,52.55087],[-2.02174,52.5507],[-2.02166,52.55069],[-2.0215,52.55071],[-2.02122,52.55089],[-2.02118,52.55091],[-2.02155,52.55107],[-2.02136,52.55122],[-2.02198,52.5515],[-2.02186,52.55161],[-2.02196,52.55164],[-2.02187,52.55172],[-2.02229,52.55191],[-2.02249,52.55175],[-2.0227,52.55157],[-2.02272,52.55154],[-2.02273,52.55149],[-2.02274,52.55143],[-2.02272,52.55139],[-2.02265,52.55133],[-2.02279,52.55123],[-2.02282,52.55121],[-2.02284,52.55119]]]]}},
{ "type":"Feature","properties":{"osm_way_id":"78550225","name":"Asda","building":"retail","shop":"supermarket","other":{"addr:city":"West Bromwich","addr:country":"GB","addr:postcode":"DY4 7HW","addr:street":"Brickhouse Lane South","addr:town":"Tipton","brand":"Asda","brand:wikidata":"Q297410","brand:wikipedia":"en:Asda","contact:facebook":"https:\/\/www.facebook.com\/asda\/","contact:twitter":"@asda","contact:website":"https:\/\/storelocator.asda.com\/west-midlands\/tipton\/brickhouse-lane","fhrs:id":"146424","opening_hours":"24\/7","operator":"Asda Stores Ltd"}}, "geometry":{"type":"MultiPolygon","coordinates":[[[[-2.02906,52.53029],[-2.0289,52.53025],[-2.02896,52.53018],[-2.02911,52.53023],[-2.02915,52.53017],[-2.029,52.53013],[-2.02911,52.52998],[-2.02894,52.52994],[-2.02897,52.52991],[-2.0282,52.52969],[-2.02819,52.5297],[-2.02801,52.52965],[-2.02781,52.52991],[-2.02741,52.52979],[-2.02752,52.52997],[-2.02717,52.53041],[-2.02832,52.53075],[-2.02849,52.53054],[-2.02864,52.53058],[-2.02887,52.5303],[-2.02902,52.53034],[-2.02906,52.53029]]]]}},
{ "type":"Feature","properties":{"osm_way_id":"80789887","name":"ALDI","building":"retail","shop":"supermarket","other":{"addr:housenumber":"2A","addr:postcode":"B43 6NR","addr:street":"Birmingham Road","brand":"ALDI","brand:wikidata":"Q41171672","brand:wikipedia":"en:Aldi","building:levels":"1","fhrs:id":"639418","opening_hours":"Mo-Sa 08:00-22:00; Su 10:00-16:00","roof:shape":"flat","source:addr":"FHRS Open Data","wheelchair":"yes"}}, "geometry":{"type":"MultiPolygon","coordinates":[[[[-1.93513,52.54628],[-1.93478,52.54633],[-1.93428,52.54639],[-1.9342,52.54617],[-1.93505,52.54606],[-1.93513,52.54628]]]]}},
{ "type":"Feature","properties":{"osm_way_id":"92341977","name":"Lidl","building":"retail","shop":"supermarket","other":{"addr:housenumber":"373","addr:postcode":"B70 9QL","addr:street":"High Street","brand":"Lidl","brand:wikidata":"Q151954","brand:wikipedia":"en:Lidl","fhrs:id":"936765","opening_hours":"Mo-Su 'please add opening times'","source:addr":"FHRS Open Data"}}, "geometry":{"type":"MultiPolygon","coordinates":[[[[-2.0016,52.52312],[-2.0012,52.5229],[-2.00058,52.52329],[-2.00078,52.52341],[-2.00071,52.52346],[-2.0009,52.52357],[-2.0016,52.52312]]]]}},
{ "type":"Feature","properties":{"osm_way_id":"93798706","name":"Lidl","building":"yes","shop":"supermarket","other":{"addr:country":"GB","addr:postcode":"B42 1EA","addr:street":"Old Walsall Road","brand":"Lidl","brand:wikidata":"Q151954","brand:wikipedia":"en:Lidl","fhrs:id":"936775"}}, "geometry":{"type":"MultiPolygon","coordinates":[[[[-1.93185,52.53268],[-1.93202,52.53253],[-1.93162,52.53235],[-1.93157,52.53239],[-1.93127,52.53226],[-1.93108,52.53244],[-1.93166,52.5327],[-1.93174,52.53263],[-1.93185,52.53268]]]]}},
{ "type":"Feature","properties":{"osm_way_id":"135530708","name":"Co-op Food","building":"yes","shop":"supermarket","other":{"addr:postcode":"B68 0RT","addr:street":"Tame Road","brand":"Co-op Food","brand:wikidata":"Q3277439","brand:wikipedia":"en:Co-op Food","fhrs:id":"189923","operator":"Central England Co-operative Society","source:addr":"FHRS Open Data"}}, "geometry":{"type":"MultiPolygon","coordinates":[[[[-2.00659,52.4685],[-2.00656,52.46847],[-2.00667,52.46842],[-2.0067,52.46844],[-2.00685,52.46844],[-2.00683,52.46874],[-2.00682,52.46876],[-2.00677,52.46876],[-2.00677,52.46879],[-2.00663,52.46879],[-2.00663,52.46874],[-2.00657,52.46873],[-2.00659,52.4685]]]]}},
{ "type":"Feature","properties":{"osm_way_id":"146604130","name":"ALDI","building":"yes","shop":"supermarket","other":{"addr:city":"West Bromwich","addr:country":"GB","addr:postcode":"B70 9SJ","addr:street":"Tildasley Street","brand":"ALDI","brand:wikidata":"Q41171672","brand:wikipedia":"en:Aldi","contact:website":"https:\/\/www.aldi.co.uk\/store\/s-uk-E1324","fhrs:id":"1204704","opening_hours":"Mo 08:00-20:00; Tu-Sa 08:00-22:00; Su 10:00-16:00","payment:cash":"yes","payment:credit_cards":"yes","payment:debit_cards":"yes","phone":"+44 20 3137 8268"}}, "geometry":{"type":"MultiPolygon","coordinates":[[[[-2.00638,52.52659],[-2.00597,52.52643],[-2.00647,52.52596],[-2.00689,52.52613],[-2.00638,52.52659]]]]}},
{ "type":"Feature","properties":{"osm_way_id":"152304065","name":"Lidl","building":"yes","shop":"supermarket","other":{"addr:city":"Tipton","addr:housenumber":"119","addr:postcode":"DY4 7AH","addr:street":"Horseley Heath","brand":"Lidl","brand:wikidata":"Q151954","brand:wikipedia":"en:Lidl","fhrs:id":"142820","fhrs:local_authority_id":"79834","operator":"Lidl UK GmbH"}}, "geometry":{"type":"MultiPolygon","coordinates":[[[[-2.03849,52.53052],[-2.03823,52.53062],[-2.0382,52.53059],[-2.0381,52.53063],[-2.03765,52.53022],[-2.038,52.53008],[-2.03804,52.5301],[-2.03849,52.53052]]]]}},
{ "type":"Feature","properties":{"osm_way_id":"170400727","name":"The Co-operative Food","building":"yes","shop":"supermarket","other":{"addr:housenumber":"11","addr:postcode":"DY4 8QL","addr:street":"Unity Walk","fhrs:id":"209779","operator":"Midcounties Co-operative Society","source:addr":"FHRS Open Data"}}, "geometry":{"type":"MultiPolygon","coordinates":[[[[-2.06718,52.52909],[-2.06691,52.52897],[-2.06652,52.5293],[-2.06679,52.52942],[-2.06702,52.52923],[-2.06718,52.52909]]]]}},
{ "type":"Feature","properties":{"osm_way_id":"170401215","name":"Asda","building":"retail","shop":"supermarket","other":{"addr:city":"Tipton","addr:country":"GB","addr:postcode":"DY4 0BP","addr:street":"Wednesbury Oak Road","brand":"Asda","brand:wikidata":"Q297410","brand:wikipedia":"en:Asda","contact:facebook":"https:\/\/www.facebook.com\/asda\/","contact:twitter":"@asda","contact:website":"https:\/\/storelocator.asda.com\/west-midlands\/tipton\/wednesbury-oak-road","fhrs:id":"580966","operator":"Asda Stores Ltd"}}, "geometry":{"type":"MultiPolygon","coordinates":[[[[-2.05718,52.54504],[-2.05606,52.54427],[-2.05569,52.54447],[-2.05592,52.54462],[-2.05569,52.54475],[-2.05614,52.54505],[-2.05608,52.54509],[-2.05662,52.54546],[-2.05693,52.5453],[-2.05683,52.54523],[-2.05718,52.54504]]]]}},
{ "type":"Feature","properties":{"osm_way_id":"170422347","name":"Asda","building":"yes","shop":"supermarket","other":{"addr:city":"Oldbury","addr:country":"GB","addr:postcode":"B68 0PH","addr:street":"Hagley Road West","brand":"Asda","brand:wikidata":"Q297410","brand:wikipedia":"en:Asda","contact:facebook":"https:\/\/www.facebook.com\/asda\/","contact:twitter":"@asda","contact:website":"https:\/\/storelocator.asda.com\/west-midlands\/birmingham\/hagley-road-west-quinton","fhrs:id":"189935","operator":"Asda Stores Ltd"}}, "geometry":{"type":"MultiPolygon","coordinates":[[[[-2.01266,52.4626],[-2.01209,52.4627],[-2.01232,52.46315],[-2.01264,52.46308],[-2.01256,52.46289],[-2.0128,52.46283],[-2.01266,52.4626]]]]}},
{ "type":"Feature","properties":{"osm_way_id":"214843634","name":"The Co-operative Food","building":"yes","shop":"supermarket","other":{"addr:housenumber":"118","addr:postcode":"B71 3AH","addr:street":"Holly Road","operator":"Midcounties Co-operative Society"}}, "geometry":{"type":"MultiPolygon","coordinates":[[[[-1.98216,52.5407],[-1.98196,52.54067],[-1.98198,52.54059],[-1.98208,52.5406],[-1.9822,52.54062],[-1.98216,52.5407]]]]}},
{ "type":"Feature","properties":{"osm_way_id":"219843980","name":"Tesco Extra","building":"retail","shop":"supermarket","other":{"brand":"Tesco Extra","brand:wikidata":"Q25172225","brand:wikipedia":"en:Tesco Extra"}}, "geometry":{"type":"MultiPolygon","coordinates":[[[[-1.99087,52.52158],[-1.99079,52.52154],[-1.99084,52.52151],[-1.99082,52.52149],[-1.99086,52.52147],[-1.99079,52.52142],[-1.99094,52.52131],[-1.99015,52.52088],[-1.98995,52.52103],[-1.98977,52.52093],[-1.9899,52.52083],[-1.98959,52.52067],[-1.98949,52.52074],[-1.98931,52.52064],[-1.99032,52.51995],[-1.9904,52.51991],[-1.99065,52.52005],[-1.99069,52.52008],[-1.99079,52.52014],[-1.99094,52.52023],[-1.99102,52.52028],[-1.99109,52.52032],[-1.99116,52.52036],[-1.99121,52.52039],[-1.99126,52.52042],[-1.99131,52.52045],[-1.99139,52.5205],[-1.99152,52.52042],[-1.99198,52.52075],[-1.99111,52.52134],[-1.99094,52.52149],[-1.99095,52.52153],[-1.99087,52.52158]]]]}},
{ "type":"Feature","properties":{"osm_way_id":"221256315","building":"residential","other":{"addr:postcode":"B70 6LN","addr:street":"Springfield Crescent"}}, "geometry":{"type":"MultiPolygon","coordinates":[[[[-1.98479,52.51072],[-1.98489,52.51077],[-1.98495,52.51073],[-1.98485,52.51068],[-1.98479,52.51072]]]]}},
{ "type":"Feature","properties":{"osm_way_id":"224272733","name":"Pak supermarket","building":"retail","shop":"supermarket","other":{"addr:postcode":"B66 4PH"}}, "geometry":{"type":"MultiPolygon","coordinates":[[[[-1.95783,52.48635],[-1.95735,52.48632],[-1.95735,52.48634],[-1.95714,52.48633],[-1.95719,52.48606],[-1.95765,52.48609],[-1.95766,52.48604],[-1.95788,52.48605],[-1.95783,52.48635]]]]}},
{ "type":"Feature","properties":{"osm_way_id":"240574329","name":"Sainsbury's","building":"retail","shop":"supermarket","other":{"addr:postcode":"B69 3DB","addr:street":"Freeth Street","brand":"Sainsbury's","brand:wikidata":"Q152096","brand:wikipedia":"en:Sainsbury's","building:levels":"2","fhrs:id":"134906","old_name":"SavaCenter","opening_hours":"Mo-Sa 07:00-22:00; Su 10:00-16:00","roof:levels":"0","source:addr":"FHRS Open Data"}}, "geometry":{"type":"MultiPolygon","coordinates":[[[[-2.01679,52.50403],[-2.01675,52.50401],[-2.0168,52.50397],[-2.01679,52.50396],[-2.01681,52.50394],[-2.01683,52.50395],[-2.01685,52.50394],[-2.01683,52.50393],[-2.01685,52.5039],[-2.01687,52.50391],[-2.01689,52.5039],[-2.01686,52.50389],[-2.01688,52.50387],[-2.0169,52.50388],[-2.01692,52.50386],[-2.0169,52.50386],[-2.01692,52.50383],[-2.01695,52.50384],[-2.01696,52.50383],[-2.01693,52.50382],[-2.01695,52.5038],[-2.01698,52.50381],[-2.01699,52.5038],[-2.01697,52.50379],[-2.01699,52.50377],[-2.01701,52.50377],[-2.01702,52.50376],[-2.017,52.50375],[-2.01702,52.50373],[-2.01705,52.50374],[-2.01713,52.50367],[-2.01716,52.50363],[-2.01719,52.50363],[-2.01718,52.50361],[-2.01725,52.50355],[-2.01731,52.50355],[-2.01735,52.50356],[-2.01736,52.50355],[-2.01792,52.50378],[-2.01788,52.50381],[-2.01799,52.50385],[-2.01801,52.50383],[-2.0185,52.50403],[-2.01847,52.50406],[-2.01886,52.50422],[-2.01891,52.50418],[-2.01905,52.50423],[-2.01935,52.50435],[-2.01932,52.50438],[-2.01927,52.50443],[-2.01905,52.50463],[-2.0188,52.50453],[-2.0186,52.50472],[-2.01858,52.50475],[-2.01837,52.50467],[-2.01838,52.50465],[-2.0182,52.50459],[-2.01809,52.50469],[-2.01759,52.5045],[-2.01756,52.50452],[-2.01715,52.50436],[-2.01718,52.50433],[-2.01699,52.50426],[-2.01706,52.5042],[-2.01676,52.50408],[-2.01674,52.50408],[-2.01679,52.50403]]]]}},
{ "type":"Feature","properties":{"osm_way_id":"242516679","name":"The Co-operative Food","building":"yes","shop":"supermarket","other":{"addr:housenumber":"513-519","addr:postcode":"B66 4BE","addr:street":"Bearwood Road","fhrs:id":"142956","operator":"The Co-operative Group","source:addr":"FHRS Open Data"}}, "geometry":{"type":"MultiPolygon","coordinates":[[[[-1.96964,52.47627],[-1.96959,52.47611],[-1.96929,52.47613],[-1.96921,52.47613],[-1.96921,52.4761],[-1.96896,52.47612],[-1.96901,52.47633],[-1.9695,52.47628],[-1.96964,52.47627]]]]}},
{ "type":"Feature","properties":{"osm_way_id":"243668367","name":"Markant","building":"yes","shop":"supermarket"},"geometry":{"type":"MultiPolygon","coordinates":[[[[-2.04737,52.52558],[-2.04722,52.5256],[-2.04717,52.52548],[-2.0472,52.52539],[-2.0473,52.52538],[-2.04737,52.52558]]]]}},
{ "type":"Feature","properties":{"osm_way_id":"253475949","name":"The Food Warehouse","building":"retail","shop":"supermarket","other":{"brand":"The Food Warehouse","brand:wikidata":"Q87263899"}}, "geometry":{"type":"MultiPolygon","coordinates":[[[[-2.02129,52.50357],[-2.02156,52.5037],[-2.02197,52.5034],[-2.0217,52.50327],[-2.02161,52.50333],[-2.02129,52.50357]]]]}},
{ "type":"Feature","properties":{"osm_way_id":"267568397","name":"Lidl","building":"retail","shop":"supermarket","other":{"addr:housenumber":"17","addr:postcode":"B64 5AB","addr:street":"Lower High Street","brand":"Lidl","brand:wikidata":"Q151954","brand:wikipedia":"en:Lidl","fhrs:id":"143626","source:addr":"FHRS Open Data"}}, "geometry":{"type":"MultiPolygon","coordinates":[[[[-2.08689,52.47019],[-2.08696,52.4704],[-2.08705,52.47039],[-2.0871,52.47056],[-2.08657,52.47063],[-2.08645,52.47024],[-2.08689,52.47019]]]]}},
{ "type":"Feature","properties":{"osm_way_id":"299884268","name":"The Co-operative Food","building":"yes","shop":"supermarket","other":{"addr:housenumber":"190","addr:postcode":"B69 1SB","addr:street":"Regent Road","brand":"The Co-operative Food","brand:wikidata":"Q107617274","contact:website":"https:\/\/stores.centralengland.coop\/the-co-operative-food-tividale-953aefc0b873","fhrs:id":"534600","operator":"Central England Co-operative","operator:wikidata":"Q16986583","source:addr":"FHRS Open Data"}}, "geometry":{"type":"MultiPolygon","coordinates":[[[[-2.05904,52.50389],[-2.05864,52.50395],[-2.05858,52.5038],[-2.05891,52.50376],[-2.05898,52.50375],[-2.05901,52.50383],[-2.05916,52.50381],[-2.05917,52.50385],[-2.05903,52.50387],[-2.05904,52.50389]]]]}},
{ "type":"Feature","properties":{"osm_way_id":"311477574","name":"The Co-operative Food","building":"yes","shop":"supermarket","other":{"addr:housenumber":"104","addr:postcode":"DY4 7TH","addr:street":"Dudley Road West","fhrs:id":"575705","operator":"Midcounties Co-operative Society"}}, "geometry":{"type":"MultiPolygon","coordinates":[[[[-2.05281,52.515],[-2.05279,52.51512],[-2.0526,52.51519],[-2.05239,52.51499],[-2.05257,52.51492],[-2.05273,52.51492],[-2.05281,52.515]]]]}},
{ "type":"Feature","properties":{"osm_way_id":"320797750","name":"The Co-operative Food","building":"yes","shop":"supermarket","other":{"operator":"The Co-operative Group"}}, "geometry":{"type":"MultiPolygon","coordinates":[[[[-2.05326,52.52116],[-2.05305,52.52104],[-2.0534,52.52083],[-2.05348,52.52088],[-2.05338,52.52094],[-2.0535,52.52102],[-2.05326,52.52116]]]]}},
{ "type":"Feature","properties":{"osm_way_id":"327108658","name":"Hill Top Supermarket","building":"yes","shop":"supermarket","other":{"addr:city":"West Bromwich","addr:housenumber":"125","addr:postcode":"B70 0RU","addr:street":"Hill Top","addr:suburb":"Hill Top","fhrs:id":"1315769"}}, "geometry":{"type":"MultiPolygon","coordinates":[[[[-2.01134,52.53828],[-2.01141,52.53827],[-2.01145,52.53842],[-2.01138,52.53843],[-2.01137,52.53841],[-2.0112,52.53843],[-2.01119,52.53841],[-2.01104,52.53843],[-2.01101,52.53834],[-2.01115,52.53833],[-2.01114,52.5383],[-2.01134,52.53828]]]]}},
{ "type":"Feature","properties":{"osm_way_id":"351726906","name":"Asda","building":"yes","shop":"supermarket","other":{"addr:city":"Smethwick","addr:country":"GB","addr:housename":"Windmills Shopping Centre","addr:postcode":"B66 3EN","addr:street":"Cape Hill","brand":"Asda","brand:wikidata":"Q297410","brand:wikipedia":"en:Asda","contact:facebook":"https:\/\/www.facebook.com\/asda\/","contact:twitter":"@asda","contact:website":"https:\/\/storelocator.asda.com\/west-midlands\/birmingham\/off-windmill-lane-smethwick","fhrs:id":"142830","operator":"Asda Stores Ltd"}}, "geometry":{"type":"MultiPolygon","coordinates":[[[[-1.9618,52.48853],[-1.96132,52.48914],[-1.96113,52.48908],[-1.96103,52.48922],[-1.96042,52.48905],[-1.96053,52.4889],[-1.96017,52.48879],[-1.96054,52.48831],[-1.96085,52.48824],[-1.96089,52.48826],[-1.96097,52.48816],[-1.96123,52.48823],[-1.96115,52.48833],[-1.9618,52.48853]]]]}},
{ "type":"Feature","properties":{"osm_way_id":"372945012","name":"Budgens","building":"yes","shop":"supermarket","other":{"brand":"Budgens","brand:wikidata":"Q4985016","brand:wikipedia":"en:Budgens"}}, "geometry":{"type":"MultiPolygon","coordinates":[[[[-2.01357,52.55572],[-2.01328,52.5556],[-2.01343,52.55547],[-2.01371,52.5556],[-2.01357,52.55572]]]]}},
{ "type":"Feature","properties":{"osm_way_id":"497642779","name":"The Co-operative Food","building":"yes","shop":"supermarket","other":{"addr:housenumber":"139","addr:postcode":"B70 0RZ","addr:street":"Hill Top","fhrs:id":"189956","operator":"Central England Co-operative Society"}}, "geometry":{"type":"MultiPolygon","coordinates":[[[[-2.01102,52.53912],[-2.01105,52.53923],[-2.01158,52.53918],[-2.01155,52.53906],[-2.01102,52.53912]]]]}},
{ "type":"Feature","properties":{"osm_way_id":"823006984","name":"ALDI","building":"yes","shop":"supermarket","other":{"addr:postcode":"B69 4RJ","addr:street":"Wolverhampton Road","brand":"ALDI","brand:wikidata":"Q41171672","brand:wikipedia":"en:Aldi","fhrs:id":"845989","source:addr":"FHRS Open Data"}}, "geometry":{"type":"MultiPolygon","coordinates":[[[[-2.02083,52.48939],[-2.02008,52.48958],[-2.02002,52.4895],[-2.01995,52.4894],[-2.0199,52.48941],[-2.01984,52.48932],[-2.02072,52.4891],[-2.02079,52.48919],[-2.02071,52.48921],[-2.02083,52.48939]]]]}}
]
}
