{
"type": "FeatureCollection",
"features": [
{ "type":"Feature","properties":{"osm_way_id":"20794161","name":"ALDI","building":"yes","shop":"supermarket","other":{"addr:postcode":"N12 0ER","addr:street":"Ballards Lane, Tally Ho Corner","brand":"ALDI","brand:wikidata":"Q41171672","brand:wikipedia":"en:Aldi","name:fa":"آلدی","wheelchair":"yes"}}, "geometry":{"type":"MultiPolygon","coordinates":[[[[-0.17737,51.61261],[-0.17731,51.61274],[-0.17713,51.61311],[-0.17672,51.61306],[-0.1769,51.61255],[-0.17737,51.61261]]]]}},
{ "type":"Feature","properties":{"osm_way_id":"91691220","name":"Asda","building":"yes","shop":"supermarket","other":{"addr:country":"GB","addr:postcode":"NG17 2AH","addr:street":"Priestsic Road","brand":"Asda","brand:wikidata":"Q297410","brand:wikipedia":"en:Asda","contact:facebook":"https:\/\/www.facebook.com\/asda\/","contact:twitter":"@asda","contact:website":"https:\/\/storelocator.asda.com\/east-midlands\/sutton-in-ashfield\/priestsic-road","fhrs:id":"94299","opening_hours:covid19":"Mo-Sa 08:00-22:00; Su 10:00-16:00","operator":"Asda Stores Ltd"}}, "geometry":{"type":"MultiPolygon","coordinates":[[[[-1.2624,53.12673],[-1.26224,53.12683],[-1.26208,53.12694],[-1.26103,53.12759],[-1.26038,53.12722],[-1.26061,53.12708],[-1.2613,53.12664],[-1.26174,53.12636],[-1.2624,53.12673]]]]}},
{ "type":"Feature","properties":{"osm_way_id":"95940811","name":"Tesco Extra","building":"retail","shop":"supermarket","other":{"addr:postcode":"NG15 7SJ","addr:street":"Ashgate Road","brand":"Tesco Extra","brand:wikidata":"Q25172225","brand:wikipedia":"en:Tesco Extra","building:levels":"2","fhrs:id":"146975","opening_hours":"24\/7","roof:levels":"0","source:addr":"FHRS Open Data","source:building":"Bing"}}, "geometry":{"type":"MultiPolygon","coordinates":[[[[-1.19645,53.03534],[-1.19609,53.0354],[-1.1961,53.03541],[-1.19596,53.03543],[-1.19599,53.03551],[-1.19637,53.03545],[-1.19642,53.03555],[-1.19569,53.03567],[-1.19566,53.03561],[-1.19558,53.03563],[-1.19565,53.03577],[-1.19586,53.03626],[-1.19596,53.03624],[-1.19597,53.03628],[-1.19627,53.03623],[-1.19625,53.03619],[-1.19653,53.03615],[-1.19655,53.03619],[-1.1968,53.03615],[-1.19678,53.03611],[-1.19698,53.03607],[-1.19683,53.03575],[-1.19645,53.03534]]]]}},
{ "type":"Feature","properties":{"osm_way_id":"177205013","name":"The Co-operative Food","building":"yes","shop":"supermarket","other":{"addr:city":"Selston","addr:postcode":"NG16 6BT","addr:street":"Nottingham Road","fhrs:id":"86986","operator":"The Co-operative Group","source:postcode":"FHRS Open Data"}}, "geometry":{"type":"MultiPolygon","coordinates":[[[[-1.3025,53.07079],[-1.30218,53.07079],[-1.30218,53.07059],[-1.30208,53.07059],[-1.30207,53.07035],[-1.30219,53.07035],[-1.30219,53.07037],[-1.30243,53.07037],[-1.30254,53.07037],[-1.30255,53.0705],[-1.30285,53.0705],[-1.30285,53.07069],[-1.3025,53.07069],[-1.3025,53.07079]]]]}},
{ "type":"Feature","properties":{"osm_way_id":"194342743","name":"The Co-operative Food","building":"retail","shop":"supermarket","other":{"addr:street":"Watnall Road","brand":"The Co-operative Food","brand:wikidata":"Q107617274"}}, "geometry":{"type":"MultiPolygon","coordinates":[[[[-1.21959,53.02659],[-1.21942,53.02677],[-1.21919,53.02669],[-1.21926,53.02661],[-1.21936,53.02651],[-1.21959,53.02659]]]]}},
{ "type":"Feature","properties":{"osm_way_id":"236370576","name":"Morrisons","building":"retail","shop":"supermarket","other":{"brand":"Morrisons","brand:wikidata":"Q922344","brand:wikipedia":"en:Morrisons"}}, "geometry":{"type":"MultiPolygon","coordinates":[[[[-1.24286,53.09973],[-1.24361,53.09986],[-1.24363,53.09982],[-1.2438,53.09985],[-1.24376,53.09995],[-1.24371,53.09994],[-1.24347,53.10044],[-1.24177,53.10015],[-1.24183,53.09985],[-1.24247,53.09995],[-1.24252,53.09985],[-1.24277,53.0999],[-1.24286,53.09973]]]]}},
{ "type":"Feature","properties":{"osm_way_id":"251917319","name":"The Co-operative Food","building":"yes","shop":"supermarket","other":{"operator":"Central England Co-operative Society"}}, "geometry":{"type":"MultiPolygon","coordinates":[[[[-1.27296,53.12343],[-1.27307,53.12334],[-1.27333,53.12346],[-1.27323,53.12354],[-1.27319,53.12352],[-1.27303,53.12346],[-1.27296,53.12343]]]]}},
{ "type":"Feature","properties":{"osm_way_id":"259278583","name":"ALDI","building":"supermarket","shop":"supermarket","other":{"addr:postcode":"NG15 7LZ","addr:street":"Ashgate Road","brand":"ALDI","brand:wikidata":"Q41171672","brand:wikipedia":"en:Aldi","fhrs:id":"87800","source:addr":"FHRS Open Data"}}, "geometry":{"type":"MultiPolygon","coordinates":[[[[-1.19656,53.03327],[-1.19636,53.03309],[-1.19615,53.03318],[-1.19609,53.03313],[-1.19553,53.03336],[-1.19561,53.03343],[-1.19567,53.03341],[-1.19581,53.03353],[-1.19632,53.03332],[-1.19635,53.03335],[-1.19656,53.03327]]]]}},
{ "type":"Feature","properties":{"osm_way_id":"259847030","name":"The Co-operative Food","building":"yes","shop":"supermarket","other":{"brand":"The Co-operative Food","brand:wikidata":"Q3277439","brand:wikipedia":"en:Co-op Food","old_name":"Netto"}}, "geometry":{"type":"MultiPolygon","coordinates":[[[[-1.27807,53.14173],[-1.27872,53.14166],[-1.27866,53.14147],[-1.27855,53.14148],[-1.27854,53.14143],[-1.27814,53.14147],[-1.27816,53.14153],[-1.27805,53.14154],[-1.27807,53.1416],[-1.27804,53.14161],[-1.27807,53.14173]]]]}},
{ "type":"Feature","properties":{"osm_way_id":"261166173","name":"Aldi","building":"retail","shop":"supermarket","other":{"addr:postcode":"NG17 8DA","brand":"ALDI","brand:wikidata":"Q41171672","brand:wikipedia":"en:Aldi","building:levels":"1","contact:website":"https:\/\/www.aldi.co.uk\/store\/s-uk-E0755","opening_hours":"Mo-Sa 08:00-22:00; Su 10:00-16:00"}}, "geometry":{"type":"MultiPolygon","coordinates":[[[[-1.25153,53.09997],[-1.25192,53.10003],[-1.25168,53.10054],[-1.25152,53.10051],[-1.25155,53.10046],[-1.25132,53.10042],[-1.25134,53.10037],[-1.25143,53.1002],[-1.25153,53.09997]]]]}},
{ "type":"Feature","properties":{"osm_way_id":"261969086","name":"Lidl","building":"yes","shop":"supermarket","other":{"addr:country":"GB","addr:postcode":"NG17 5FH","addr:street":"Station Road","brand":"Lidl","brand:wikidata":"Q151954","brand:wikipedia":"en:Lidl","fhrs:id":"94159"}}, "geometry":{"type":"MultiPolygon","coordinates":[[[[-1.2564,53.1233],[-1.25593,53.12324],[-1.25611,53.12271],[-1.2565,53.12275],[-1.25642,53.12297],[-1.25638,53.12311],[-1.25646,53.12312],[-1.2564,53.1233]]]]}},
{ "type":"Feature","properties":{"osm_way_id":"261969246","name":"Aldi","shop":"supermarket","other":{"addr:postcode":"NG17 5FF","addr:street":"Station Road","brand":"ALDI","brand:wikidata":"Q41171672","brand:wikipedia":"en:Aldi","fhrs:id":"55864","source:addr":"FHRS Open Data"}}, "geometry":{"type":"MultiPolygon","coordinates":[[[[-1.25403,53.12177],[-1.25431,53.12175],[-1.2545,53.12173],[-1.25472,53.12171],[-1.25488,53.12228],[-1.25494,53.12247],[-1.25499,53.12264],[-1.25476,53.12278],[-1.2547,53.12275],[-1.25389,53.12237],[-1.25391,53.12229],[-1.25408,53.12205],[-1.25405,53.12191],[-1.25403,53.12177]]]]}},
{ "type":"Feature","properties":{"osm_way_id":"261970401","name":"Farmfoods","building":"yes","shop":"supermarket","other":{"brand":"Farmfoods","brand:wikidata":"Q5435841","brand:wikipedia":"en:Farmfoods"}}, "geometry":{"type":"MultiPolygon","coordinates":[[[[-1.25851,53.12328],[-1.25812,53.12338],[-1.25804,53.12325],[-1.25842,53.12315],[-1.25851,53.12328]]]]}},
{ "type":"Feature","properties":{"osm_way_id":"359158677","name":"The Co-operative Food","building":"yes","shop":"supermarket","other":{"addr:housenumber":"2","addr:postcode":"NG16 5LF","addr:street":"Selston Road","fhrs:id":"56388","operator":"Central England Co-operative Society","source:addr":"FHRS Open Data"}}, "geometry":{"type":"MultiPolygon","coordinates":[[[[-1.33726,53.06013],[-1.33709,53.06029],[-1.33677,53.06018],[-1.33694,53.06001],[-1.33726,53.06013]]]]}},
{ "type":"Feature","properties":{"osm_way_id":"533922839","name":"Aldi","building":"retail","shop":"supermarket","other":{"brand":"ALDI","brand:wikidata":"Q41171672","brand:wikipedia":"en:Aldi","opening_hours":"Mo-Sa 08:00-22:00; Su 10:00-16:00"}}, "geometry":{"type":"MultiPolygon","coordinates":[[[[-1.23632,53.13249],[-1.23607,53.13269],[-1.23663,53.13296],[-1.23736,53.13241],[-1.23676,53.13215],[-1.23632,53.13249]]]]}},
{ "type":"Feature","properties":{"osm_way_id":"544632227","name":"Co-operative Food","building":"retail","shop":"supermarket","other":{"addr:street":"Skegby Road"}}, "geometry":{"type":"MultiPolygon","coordinates":[[[[-1.25803,53.07725],[-1.25794,53.07708],[-1.2576,53.07714],[-1.25769,53.07731],[-1.25803,53.07725]]]]}}
]
}
