{
"type": "FeatureCollection",
"features": [
{ "type":"Feature","properties":{"osm_id":"1881279276","name":"Co-op","other":{"shop":"supermarket","addr:street":"Church Street","addr:postcode":"TQ10 9AB","addr:housenumber":"2-4"}}, "geometry":{"type":"Point","coordinates":[-3.83492,50.42644 ]}},
{ "type":"Feature","properties":{"osm_way_id":"35048758","name":"Sainsbury's","building":"yes","shop":"supermarket","other":{"addr:city":"Dartmouth","addr:postcode":"TQ6 9AH","addr:street":"Nelson Road","alt_name":"Sainsbury's Dartmouth Superstore","brand":"Sainsbury's","brand:wikidata":"Q152096","fhrs:id":"814035"}}, "geometry":{"type":"MultiPolygon","coordinates":[[[[-3.60365,50.34726],[-3.60375,50.34761],[-3.60313,50.34769],[-3.60314,50.34773],[-3.60288,50.34776],[-3.6028,50.34771],[-3.60289,50.34769],[-3.60279,50.34737],[-3.60266,50.34738],[-3.60263,50.3473],[-3.60362,50.34716],[-3.60365,50.34726]]]]}},
{ "type":"Feature","properties":{"osm_way_id":"42135017","name":"Tesco Extra","building":"yes","shop":"supermarket","other":{"addr:city":"Ivybridge","addr:housename":"Lee Mill Industrial Estate","addr:postcode":"PL21 9PE","addr:street":"Central Avenue","branch":"Ivybridge Lee Mill Extra","brand":"Tesco Extra","brand:wikidata":"Q25172225","opening_hours":"Mo-Sa 24hr Su 10:00-16:00","operator":"Tesco Stores Ltd.","phone":"+44 345 677 9816","wheelchair":"yes"}}, "geometry":{"type":"MultiPolygon","coordinates":[[[[-3.96536,50.38648],[-3.96487,50.38648],[-3.96487,50.38651],[-3.96452,50.3865],[-3.96452,50.38541],[-3.96479,50.38542],[-3.96479,50.38545],[-3.96581,50.38546],[-3.9658,50.3859],[-3.96598,50.3859],[-3.96597,50.38607],[-3.96584,50.38607],[-3.96583,50.38623],[-3.96561,50.38623],[-3.9656,50.38633],[-3.96536,50.38648]]]]}},
{ "type":"Feature","properties":{"osm_way_id":"44216897","name":"Morrisons","building":"retail","shop":"supermarket","other":{"addr:city":"Totnes","addr:postcode":"TQ9 5GN","addr:street":"Coronation Road","alt_name":"Morrisons Totnes","brand":"Morrisons","brand:wikidata":"Q922344","brand:wikipedia":"en:Morrisons","fhrs:id":"807862","toilets:wheelchair":"yes","website":"https:\/\/my.morrisons.com\/storefinder\/339","wheelchair":"yes"}}, "geometry":{"type":"MultiPolygon","coordinates":[[[[-3.68256,50.43321],[-3.68274,50.43319],[-3.68272,50.43308],[-3.68286,50.43307],[-3.68278,50.43276],[-3.68286,50.43275],[-3.6828,50.43247],[-3.68278,50.43239],[-3.68239,50.43243],[-3.68241,50.4325],[-3.68215,50.43253],[-3.68217,50.43259],[-3.68185,50.43262],[-3.68195,50.43303],[-3.68256,50.43321]]]]}},
{ "type":"Feature","properties":{"osm_way_id":"82630467","name":"Lidl","building":"yes","shop":"supermarket","other":{"addr:city":"Dartmouth","addr:postcode":"TQ6 9LW","addr:street":"Townstal Road","alt_name":"Lidl Dartmouth Devon","brand":"Lidl","brand:wikidata":"Q151954","fhrs:id":"808166","wheelchair":"yes"}}, "geometry":{"type":"MultiPolygon","coordinates":[[[[-3.60078,50.34736],[-3.60099,50.34727],[-3.60087,50.34715],[-3.60077,50.34706],[-3.60053,50.34683],[-3.60027,50.34694],[-3.60031,50.34697],[-3.60025,50.347],[-3.60045,50.34719],[-3.60037,50.34723],[-3.60043,50.34729],[-3.6005,50.34725],[-3.60063,50.34738],[-3.60075,50.34733],[-3.60078,50.34736]]]]}},
{ "type":"Feature","properties":{"osm_way_id":"180218206","name":"The Co-operative Food","building":"yes","shop":"supermarket","other":{"atm":"yes","alt_name":"The Co-operative Food","addr:city":"Modbury","addr:street":"Broad Street","addr:postcode":"PL21 0PY","opening_hours":"Mo-Su 07:00-22:00","addr:housename":"Burns Court"}}, "geometry":{"type":"MultiPolygon","coordinates":[[[[-3.88603,50.34906],[-3.88604,50.34902],[-3.88604,50.34898],[-3.88596,50.34896],[-3.88591,50.34898],[-3.88586,50.34901],[-3.88595,50.34908],[-3.88599,50.34905],[-3.88603,50.34906]]]]}},
{ "type":"Feature","properties":{"osm_way_id":"219928463","name":"Morrisons","building":"retail","shop":"supermarket","other":{"brand":"Morrisons","brand:wikidata":"Q922344","brand:wikipedia":"en:Morrisons","building:levels":"1","opening_hours":"Mo-Sa 06:00-23:00; Su 07:00-23:00","website":"https:\/\/my.morrisons.com\/storefinder\/339"}}, "geometry":{"type":"MultiPolygon","coordinates":[[[[-3.68668,50.43379],[-3.68674,50.43368],[-3.68654,50.43363],[-3.68649,50.43376],[-3.68646,50.43376],[-3.68644,50.4338],[-3.68656,50.43383],[-3.68658,50.43377],[-3.68668,50.43379]]]]}},
{ "type":"Feature","properties":{"osm_way_id":"232106121","shop":"supermarket"},"geometry":{"type":"MultiPolygon","coordinates":[[[[-3.70878,50.4475],[-3.70869,50.44755],[-3.70851,50.44743],[-3.7086,50.44738],[-3.70878,50.4475]]]]}},
{ "type":"Feature","properties":{"osm_way_id":"264985797","name":"Lidl","building":"yes","shop":"supermarket","other":{"addr:city":"Plymouth","addr:country":"GB","addr:postcode":"PL6 7RF","addr:street":"Towerfield Drive","alt_name":"LIDL Plymouth","brand":"Lidl","brand:wikidata":"Q151954","fhrs:id":"679079"}}, "geometry":{"type":"MultiPolygon","coordinates":[[[[-4.10741,50.43576],[-4.10741,50.43576]]]]}},
{ "type":"Feature","properties":{"osm_way_id":"329910649","name":"The Co-operative Food","building":"yes","shop":"supermarket","other":{"atm":"yes","branch":"ivybridge - Glanvilles Mill","addr:city":"Ivybridge","addr:street":"Glanvilles Mill","addr:postcode":"PL21 9PS","opening_hours":"Mo-Sa 06:00-22:00 Su 10:00-16:00","addr:housenumber":"14"}}, "geometry":{"type":"MultiPolygon","coordinates":[[[[-3.92077,50.38904],[-3.9205,50.38885],[-3.92028,50.38897],[-3.92021,50.38906],[-3.92023,50.38908],[-3.92021,50.3891],[-3.92016,50.38922],[-3.92042,50.38925],[-3.92077,50.38904]]]]}},
{ "type":"Feature","properties":{"osm_way_id":"515237363","name":"Co-op","building":"yes","shop":"supermarket","other":{"fhrs:id":"807912","alt_name":"The Co-operative Food","addr:city":"Dartmouth","addr:street":"Fairfax Place","addr:postcode":"TQ6 9AB","building:levels":"2","addr:housenumber":"19-20"}}, "geometry":{"type":"MultiPolygon","coordinates":[[[[-3.57755,50.35067],[-3.57754,50.35058],[-3.57793,50.35059],[-3.57822,50.35059],[-3.57822,50.35067],[-3.57804,50.35067],[-3.57775,50.35067],[-3.57755,50.35067]]]]}},
{ "type":"Feature","properties":{"osm_way_id":"601097223","name":"M&S","building":"yes","shop":"supermarket","other":{"addr:city":"Dartmouth","addr:housename":"Mayors Court","addr:postcode":"TQ6 9NF","addr:street":"Mayors Avenue","alt_name":"Dartmouth M&S Simply Food","brand":"Marks & Spencer","brand:wikidata":"Q714491","fhrs:id":"954369"}}, "geometry":{"type":"MultiPolygon","coordinates":[[[[-3.5789,50.35291],[-3.57907,50.35311],[-3.57865,50.35323],[-3.57864,50.35321],[-3.57848,50.35301],[-3.57851,50.353],[-3.57852,50.353],[-3.57849,50.35295],[-3.57852,50.35294],[-3.57851,50.35293],[-3.5788,50.35284],[-3.57885,50.35285],[-3.5789,50.35291]]]]}},
{ "type":"Feature","properties":{"osm_way_id":"654346863","name":"Tesco","building":"yes","shop":"supermarket","other":{"brand":"Tesco","alt_name":"Tesco Kingsbridge Superstore","addr:city":"Kingsbridge","wheelchair":"yes","addr:street":"Cookworthy Road","addr:postcode":"TQ7 1QN","opening_hours":"Mo-We,Sa 08:00-20:00; Th-Fr 08:00-21:00; Su 10:00-16:00","brand:wikidata":"Q487494","brand:wikipedia":"en:Tesco","toilets:wheelchair":"yes"}}, "geometry":{"type":"MultiPolygon","coordinates":[[[[-3.77942,50.28614],[-3.77941,50.28555],[-3.77989,50.28554],[-3.77991,50.2855],[-3.77991,50.28533],[-3.78001,50.28533],[-3.78002,50.28614],[-3.77942,50.28614]]]]}},
{ "type":"Feature","properties":{"osm_way_id":"654347224","name":"Morrisons","building":"yes","shop":"supermarket","other":{"brand":"Morrisons","phone":"+44 1548 855614","website":"https:\/\/my.morrisons.com\/storefinder\/499","alt_name":"Morrisons Kingsbridge","addr:city":"Kingsbridge","wheelchair":"yes","addr:county":"Devon","addr:street":"Lime Grove","addr:country":"GB","addr:postcode":"TQ7 1TP","opening_hours":"Mo-Sa 07:00-22:00; Su 10:00-16:00","brand:wikidata":"Q922344","brand:wikipedia":"en:Morrisons","addr:parentstreet":"Cookworthy Road","toilets:wheelchair":"yes"}}, "geometry":{"type":"MultiPolygon","coordinates":[[[[-3.78252,50.28384],[-3.78246,50.284],[-3.78164,50.28388],[-3.78175,50.28359],[-3.78286,50.28376],[-3.78282,50.28388],[-3.78252,50.28384]]]]}},
{ "type":"Feature","properties":{"osm_way_id":"907668029","name":"Happy Apple","building":"yes","shop":"supermarket"},"geometry":{"type":"MultiPolygon","coordinates":[[[[-3.69044,50.43142],[-3.69041,50.43142],[-3.69041,50.43141],[-3.69039,50.43141],[-3.69036,50.43141],[-3.69031,50.4314],[-3.69022,50.4314],[-3.69023,50.43137],[-3.69025,50.43128],[-3.69028,50.43118],[-3.69029,50.43113],[-3.69037,50.43114],[-3.69037,50.43114],[-3.69045,50.43115],[-3.69044,50.43117],[-3.69051,50.43118],[-3.69051,50.43119],[-3.69048,50.43128],[-3.69047,50.43131],[-3.69044,50.43142]]]]}}
]
}
