{
"type": "FeatureCollection",
"features": [
{ "type":"Feature","properties":{"osm_id":"94952771","name":"Waitrose","other":{"addr:city":"Havant","addr:housenumber":"12-22","addr:postcode":"PO9 1PR","addr:street":"North Street","brand":"Waitrose","brand:wikidata":"Q771734","brand:wikipedia":"en:Waitrose","official_name":"Waitrose & Partners","opening_hours":"Su 10:00-16:00; Mo-Sa 08:00-20:00","operator":"Waitrose & Partners","shop":"supermarket","toilets":"no"}}, "geometry":{"type":"Point","coordinates":[-0.98124,50.85211 ]}},
{ "type":"Feature","properties":{"osm_id":"583250158","name":"Co-op Food","other":{"addr:city":"Hayling Island","addr:street":"Elm Grove","brand":"Co-op Food","brand:wikidata":"Q3277439","brand:wikipedia":"en:Co-op Food","opening_hours":"Mo-Sa 07:00-22:00; Su 10:00-16:00","operator":"The Co-operative Group","operator:wikidata":"Q117202","operator:wikipedia":"en:The Co-operative Group","phone":"+44 2392 463730","shop":"supermarket"}}, "geometry":{"type":"Point","coordinates":[-0.97642,50.79364 ]}},
{ "type":"Feature","properties":{"osm_id":"1560642527","name":"Lidl","other":{"addr:city":"Waterlooville","addr:country":"GB","addr:housenumber":"31A,33A","addr:postcode":"PO8 8DF","addr:street":"London Road","addr:suburb":"Cowplain","brand":"Lidl","brand:wikidata":"Q151954","brand:wikipedia":"en:Lidl","fhrs:id":"102718","opening_hours":"Mo-Sa 08:00-22:00; Su 10:00-16:00","shop":"supermarket"}}, "geometry":{"type":"Point","coordinates":[-1.01978,50.89312 ]}},
{ "type":"Feature","properties":{"osm_id":"2387447663","name":"Sainsbury's","other":{"addr:city":"Waterlooville","brand":"Sainsbury's","brand:wikidata":"Q152096","brand:wikipedia":"en:Sainsbury's","opening_hours":"Mo-Sa 08:00-22:00; Su 11:00-17:00","operator":"Sainsbury's Supermarkets Ltd","phone":"+44 2392 202500","shop":"supermarket"}}, "geometry":{"type":"Point","coordinates":[-1.03472,50.88268 ]}},
{ "type":"Feature","properties":{"osm_id":"4505126946","name":"The Co-operative Food","other":{"addr:city":"Havant","addr:street":"Middle Park Way","addr:suburb":"Leigh Park","brand":"The Co-operative Food","brand:wikidata":"Q107617274","operator":"The Southern Co-operative Limited","phone":"+44 2392 483738","shop":"supermarket","website":"https:\/\/www.thesouthernco-operative.co.uk\/"}}, "geometry":{"type":"Point","coordinates":[-0.99988,50.86507 ]}},
{ "type":"Feature","properties":{"osm_id":"4753659525","name":"Spar","other":{"addr:city":"Waterlooville","addr:street":"London Road","addr:suburb":"Cowplain","brand":"Spar","brand:wikidata":"Q610492","brand:wikipedia":"en:SPAR (retailer)","shop":"supermarket"}}, "geometry":{"type":"Point","coordinates":[-1.01683,50.89729 ]}},
{ "type":"Feature","properties":{"osm_id":"4965741167","name":"Emsworth Delicatessen","other":{"addr:city":"Emsworth","addr:housename":"1A Central Buildings","addr:street":"West Street","opening_hours":"Mo-Sa 08:30-16:30","phone":"+44 1243 389181","shop":"supermarket","website":"https:\/\/www.emsworthdeli.co.uk\/"}}, "geometry":{"type":"Point","coordinates":[-0.93762,50.84726 ]}},
{ "type":"Feature","properties":{"osm_id":"5502127215","name":"Budgens","other":{"addr:city":"Emsworth","addr:postcode":"PO10 7RB","addr:street":"Emsworth Services","brand":"Budgens","brand:wikidata":"Q4985016","brand:wikipedia":"en:Budgens","shop":"supermarket"}}, "geometry":{"type":"Point","coordinates":[-0.94454,50.8534 ]}},
{ "type":"Feature","properties":{"osm_id":"5636073503","name":"Lidl","other":{"addr:city":"Waterlooville","addr:country":"GB","addr:postcode":"PO7 7XW","addr:street":"Elettra Avenue","brand":"Lidl","brand:wikidata":"Q151954","brand:wikipedia":"en:Lidl","changing_table":"yes","fhrs:id":"1083287","opening_hours":"Mo-Sa 08:00-22:00; Su 10:00-16:00; PH 08:00-20:00","operator":"Lidl UK GmbH","shop":"supermarket","start_date":"2018-05-17","toilets":"yes","toilets:access":"customers","toilets:location":"Located at the front of this store and at the left end.","toilets:wheelchair":"yes","website":"https:\/\/www.lidl.co.uk\/about-us\/store-finder-opening-hours"}}, "geometry":{"type":"Point","coordinates":[-1.04031,50.88516 ]}},
{ "type":"Feature","properties":{"osm_id":"7307243925","name":"ALDI","other":{"addr:city":"Havant","addr:housename":"Central Retail Park","brand":"ALDI","brand:wikidata":"Q41171672","brand:wikipedia":"en:Aldi","last_checked":"2020-03-18","opening_hours":"Mo-Sa 08:00-22:00; Su 10:00-16:00. Su open from 09:30 for browsing","operator":"Aldi Stores Limited","self_checkout":"none, only staffed checkouts, I understand 8 of these.","shop":"supermarket","source:operator":"receipt","source_1":"knowledge of Aldi","source_2":"visit to store","toilets":"yes, customer toilets are located at the front of the store and at the end on the right.","website":"https:\/\/www.aldi.co.uk\/store\/s-uk-E1388"}}, "geometry":{"type":"Point","coordinates":[-0.98589,50.85424 ]}},
{ "type":"Feature","properties":{"osm_id":"9458420232","name":"Londis","other":{"addr:city":"Emsworth","addr:street":"Havant Road","brand":"Londis","brand:wikidata":"Q21008564","brand:wikipedia":"en:Londis (United Kingdom)","description":"This Londis store is the shop at the Esso petrol station.","shop":"convenience","website":"https:\/\/www.londis.co.uk\/our-stores\/bp-havant-service-station"}}, "geometry":{"type":"Point","coordinates":[-0.95307,50.84876 ]}},
{ "type":"Feature","properties":{"osm_way_id":"5124312","name":"Asda","building":"supermarket","shop":"supermarket","other":{"addr:city":"Havant","addr:country":"GB","addr:postcode":"PO9 3QW","addr:street":"Larchwood Avenue","addr:suburb":"Bedhampton","alt_name":"Asda Havant","brand":"Asda","brand:wikidata":"Q297410","brand:wikipedia":"en:Asda","contact:facebook":"https:\/\/www.facebook.com\/asda\/","contact:phone":"+44 2392 445 800","contact:twitter":"@asda","contact:website":"https:\/\/storelocator.asda.com\/store\/havant-supercentre","fhrs:id":"97121","opening_hours":"Mo 07:30-24:00; Tu-Fr 00:00-24:00; Sa 00:00-22:00; Su 10:00-16:00","operator":"Asda Stores Ltd","toilets":"at front left of the store via the Cafe.","website":"https:\/\/storelocator.asda.com\/south-east\/havant\/larchwood-avenue-bedhampton","wheelchair":"yes"}}, "geometry":{"type":"MultiPolygon","coordinates":[[[[-1.01529,50.86315],[-1.01529,50.86323],[-1.01411,50.86322],[-1.01412,50.8631],[-1.01382,50.86311],[-1.01381,50.8629],[-1.01413,50.8629],[-1.01412,50.86221],[-1.0138,50.86221],[-1.0138,50.862],[-1.01412,50.862],[-1.01412,50.86192],[-1.01546,50.86191],[-1.01546,50.86193],[-1.01558,50.86193],[-1.01558,50.86214],[-1.0157,50.86222],[-1.0157,50.86248],[-1.01546,50.86248],[-1.01547,50.86314],[-1.01529,50.86315]]]]}},
{ "type":"Feature","properties":{"osm_way_id":"23803608","name":"Asda","building":"yes","shop":"supermarket","other":{"addr:city":"Waterlooville","addr:country":"GB","addr:postcode":"PO7 7XR","addr:street":"Maurepas way","brand":"Asda","brand:wikidata":"Q297410","brand:wikipedia":"en:Asda","contact:facebook":"https:\/\/www.facebook.com\/asda\/","contact:phone":"+44 2392 250741","contact:twitter":"@asda","contact:website":"https:\/\/storelocator.asda.com\/south-east\/waterlooville\/portland-road","fhrs:id":"97875","operator":"Asda Stores Ltd","pay_point":"yes","toilets":"at front of store between the main and the side entrances.","website":"https:\/\/storelocator.asda.com\/south-east\/waterlooville\/portland-road"}}, "geometry":{"type":"MultiPolygon","coordinates":[[[[-1.0344,50.87998],[-1.03399,50.87961],[-1.03406,50.87958],[-1.0337,50.87925],[-1.03436,50.87896],[-1.03463,50.87921],[-1.03487,50.87911],[-1.03512,50.87934],[-1.03486,50.87946],[-1.035,50.87958],[-1.03464,50.87974],[-1.03473,50.87983],[-1.0344,50.87998]]]]}},
{ "type":"Feature","properties":{"osm_way_id":"27145658","name":"Tesco Extra","building":"retail","shop":"supermarket","other":{"addr:city":"Havant","addr:postcode":"PO9 1TR","addr:street":"Solent Road","brand":"Tesco Extra","brand:wikidata":"Q25172225","brand:wikipedia":"en:Tesco Extra","building:levels":"2","building:min_level":"1","layer":"1","opening_hours":"Mo-Sa 06:00-24:00; Su 10:00-16:00","operator":"Tesco","phone":"+44 345 026 9570","roof:shape":"flat","source_1":"survey","website":"https:\/\/www.tesco.com\/store-locator\/havant\/solent-rd"}}, "geometry":{"type":"MultiPolygon","coordinates":[[[[-0.98549,50.84955],[-0.98535,50.84954],[-0.98541,50.8492],[-0.98545,50.84894],[-0.98549,50.84872],[-0.98643,50.84878],[-0.98655,50.84877],[-0.98677,50.84878],[-0.98687,50.84883],[-0.98711,50.84884],[-0.98707,50.84915],[-0.98704,50.84931],[-0.98703,50.84938],[-0.98702,50.84946],[-0.987,50.84962],[-0.98634,50.84977],[-0.98547,50.84971],[-0.98549,50.84955]]]]}},
{ "type":"Feature","properties":{"osm_way_id":"180424930","name":"Morrisons","building":"yes","shop":"supermarket","other":{"addr:housename":"Cepen Park North","addr:postcode":"SN14 6UZ","addr:street":"West Cepen Way","brand":"Morrisons","brand:wikidata":"Q922344","brand:wikipedia":"en:Morrisons","fhrs:id":"261636","source:addr:postcode":"FSA Food Hygiene Ratings Database","toilets:wheelchair":"yes","wheelchair":"yes"}}, "geometry":{"type":"MultiPolygon","coordinates":[[[[-2.13072,51.47654],[-2.13047,51.47644],[-2.13058,51.47633],[-2.13028,51.47621],[-2.12965,51.47685],[-2.13015,51.47703],[-2.13007,51.47712],[-2.13029,51.47721],[-2.13039,51.47719],[-2.13041,51.47724],[-2.13064,51.47721],[-2.13063,51.47717],[-2.13083,51.47725],[-2.13132,51.47673],[-2.13104,51.47662],[-2.13114,51.47655],[-2.13083,51.47642],[-2.13072,51.47654]]]]}},
{ "type":"Feature","properties":{"osm_way_id":"436635654","name":"Co-op Food","shop":"supermarket","other":{"addr:city":"Mengham, Hayling Island","addr:street":"Selsmore Road","brand":"Co-op Food","brand:wikidata":"Q3277439","brand:wikipedia":"en:Co-op Food","description":"This store is now a 'blue' Coop and is known as Selsmore Road's Coop.","opening_hours":"07:00-23:00","operator":"The Co-operative Group","operator:wikidata":"Q117202","operator:wikipedia":"en:The Co-operative Group","pay_point":"yes"}}, "geometry":{"type":"MultiPolygon","coordinates":[[[[-0.97519,50.78726],[-0.9753,50.78709],[-0.97503,50.78702],[-0.97494,50.78717],[-0.97499,50.78718],[-0.97498,50.78721],[-0.97519,50.78726]]]]}},
{ "type":"Feature","properties":{"osm_way_id":"665018110","name":"Lidl","building":"retail","shop":"supermarket","other":{"addr:city":"Hayling Island","addr:country":"GB","addr:postcode":"PO11 0QW","addr:street":"Manor Road","brand":"Lidl","brand:wikidata":"Q151954","brand:wikipedia":"en:Lidl","building:levels":"1","fhrs:id":"1092862","opening_hours":"Mo-Sa 08:00-22:00; Su 10:00-16:00; PH 08:00-22:00","smoking":"outside"}}, "geometry":{"type":"MultiPolygon","coordinates":[[[[-0.97795,50.80047],[-0.97691,50.80046],[-0.97692,50.80015],[-0.97796,50.80017],[-0.97795,50.80047]]]]}},
{ "type":"Feature","properties":{"osm_way_id":"808504393","name":"Lidl","building":"yes","shop":"supermarket","other":{"addr:city":"Havant","addr:country":"GB","addr:postcode":"PO9 5AN","addr:street":"Somborne Drive","addr:suburb":"Leigh Park","brand":"Lidl","brand:wikidata":"Q151954","brand:wikipedia":"en:Lidl","fhrs:id":"61800"}}, "geometry":{"type":"MultiPolygon","coordinates":[[[[-0.98296,50.86665],[-0.98252,50.8667],[-0.9825,50.86665],[-0.98244,50.86646],[-0.98237,50.86647],[-0.98234,50.86647],[-0.98234,50.86644],[-0.98232,50.8664],[-0.98232,50.86638],[-0.98239,50.86637],[-0.98235,50.86623],[-0.98278,50.86617],[-0.98284,50.86633],[-0.98296,50.86665]]]]}}
]
}
