{
"type": "FeatureCollection",
"features": [
{ "type":"Feature","properties":{"osm_id":"1244956684","name":"Honeywood","other":{"addr:housenumber":"Honeywood","addr:postcode":"CT6 7NP","addr:street":"Braggs Lane","description":"Local honey available. Private residence.","organic":"only","shop":"supermarket"}}, "geometry":{"type":"Point","coordinates":[1.11067,51.33873 ]}},
{ "type":"Feature","properties":{"osm_id":"3356074293","name":"Morrisons","other":{"brand":"Morrisons","brand:wikidata":"Q922344","brand:wikipedia":"en:Morrisons","shop":"supermarket","wheelchair":"yes"}}, "geometry":{"type":"Point","coordinates":[1.02441,51.35954 ]}},
{ "type":"Feature","properties":{"osm_way_id":"28121197","name":"Sainsbury's","building":"retail","shop":"supermarket","other":{"addr:city":"Canterbury","addr:country":"GB","addr:county":"Kent","addr:postcode":"CT1 1BW","addr:street":"Kingsmead Road","branch":"Canterbury Superstore","brand":"Sainsbury's","brand:wikidata":"Q152096","brand:wikipedia":"en:Sainsbury's","building:levels":"1","fhrs:id":"1102591","noaddress":"yes","opening_hours":"Mo-Sa 07:00-22:00; Su 10:00-16:00"}}, "geometry":{"type":"MultiPolygon","coordinates":[[[[1.08626,51.2848],[1.08646,51.28465],[1.08543,51.28412],[1.08463,51.28479],[1.08465,51.28482],[1.08469,51.28487],[1.08503,51.28503],[1.08536,51.28476],[1.08567,51.2849],[1.08597,51.28466],[1.08626,51.2848]]]]}},
{ "type":"Feature","properties":{"osm_way_id":"87943230","name":"Asda","building":"retail","shop":"supermarket","other":{"addr:city":"Canterbury","addr:country":"GB","addr:county":"Kent","addr:postcode":"CT1 1DG","addr:street":"Sturry Road","branch":"Canterbury Superstore","brand":"Asda","brand:wikidata":"Q297410","brand:wikipedia":"en:Asda","contact:facebook":"https:\/\/www.facebook.com\/asda\/","contact:phone":"+44 1227 479719","contact:twitter":"@asda","contact:website":"https:\/\/storelocator.asda.com\/south-east\/canterbury\/sturry-road","fhrs:id":"1102501;1102963","nohousenumber":"yes","opening_hours":"Mo 07:00-24:00; Tu-Fr 00:00-24:00; Sa 00:00-22:00; Su 10:00-16:00","operator":"Asda Stores Ltd","source:addr":"FHRS Open Data","wheelchair":"yes"}}, "geometry":{"type":"MultiPolygon","coordinates":[[[[1.09556,51.29061],[1.09555,51.29033],[1.09592,51.29033],[1.09592,51.29022],[1.09602,51.29022],[1.09727,51.29023],[1.09727,51.29033],[1.09737,51.29033],[1.09737,51.29065],[1.09748,51.29065],[1.09747,51.29078],[1.09739,51.29085],[1.09726,51.29085],[1.09727,51.29091],[1.09706,51.29091],[1.09706,51.29096],[1.097,51.291],[1.09693,51.291],[1.0968,51.29099],[1.09674,51.29103],[1.0968,51.29106],[1.09679,51.2912],[1.09665,51.29129],[1.09645,51.29116],[1.09643,51.29118],[1.09593,51.29084],[1.09591,51.29084],[1.09556,51.29061]]]]}},
{ "type":"Feature","properties":{"osm_way_id":"104515746","name":"Lidl","building":"retail","shop":"supermarket","other":{"addr:city":"Canterbury","addr:country":"GB","addr:county":"Kent","addr:housename":"Park House","addr:housenumber":"116-118","addr:postcode":"CT1 1HJ","addr:street":"Sturry Road","branch":"Canterbury","brand":"Lidl","brand:wikidata":"Q151954","brand:wikipedia":"en:Lidl","fhrs:id":"1102309","opening_hours":"Mo-Sa 08:00-21:00;Su 10:00-16:00","source:addr":"FHRS Open Data"}}, "geometry":{"type":"MultiPolygon","coordinates":[[[[1.09618,51.28799],[1.09658,51.28815],[1.09654,51.28819],[1.09674,51.28827],[1.09698,51.28803],[1.09631,51.28776],[1.09623,51.28785],[1.0963,51.28788],[1.09618,51.28799]]]]}},
{ "type":"Feature","properties":{"osm_way_id":"120530265","name":"Sainsbury's","building":"retail","shop":"supermarket","other":{"addr:city":"Whitstable","addr:postcode":"CT5 3QS","addr:street":"Reeves Way","addr:village":"Chestfield","brand":"Sainsbury's","brand:wikidata":"Q152096","brand:wikipedia":"en:Sainsbury's","fhrs:id":"1102235"}}, "geometry":{"type":"MultiPolygon","coordinates":[[[[1.06118,51.35792],[1.06121,51.35791],[1.06131,51.35788],[1.06132,51.35789],[1.06137,51.35787],[1.06138,51.35788],[1.06144,51.35786],[1.06148,51.35791],[1.06186,51.35778],[1.06196,51.35774],[1.0621,51.35769],[1.06168,51.35721],[1.06162,51.35724],[1.06149,51.35707],[1.06116,51.35717],[1.06119,51.35721],[1.06114,51.35723],[1.06111,51.3572],[1.06101,51.35723],[1.06103,51.35725],[1.0607,51.35738],[1.06109,51.35782],[1.06118,51.35792]]]]}},
{ "type":"Feature","properties":{"osm_way_id":"120789955","name":"Morrisons","building":"yes","shop":"supermarket","other":{"addr:city":"Canterbury","addr:country":"GB","addr:county":"Kent","addr:housenumber":"10","addr:postcode":"CT1 3TQ","addr:street":"Ten Perch Road","alt_name":"Morrisons Canterbury","brand":"Morrisons","brand:wikidata":"Q922344","brand:wikipedia":"en:Morrisons","fhrs:id":"1102488","opening_hours":"Mo-Sa 07:00-22:00;Su 10:00-16:00"}}, "geometry":{"type":"MultiPolygon","coordinates":[[[[1.06346,51.2713],[1.06353,51.27133],[1.06349,51.27137],[1.06416,51.27161],[1.06397,51.27181],[1.06395,51.27183],[1.06388,51.27192],[1.06369,51.27186],[1.06361,51.27195],[1.06383,51.27203],[1.06371,51.27215],[1.06351,51.27221],[1.06263,51.2719],[1.063,51.27148],[1.06293,51.27145],[1.06309,51.27128],[1.06311,51.27127],[1.06309,51.27121],[1.06324,51.27118],[1.06327,51.27125],[1.06329,51.27124],[1.06346,51.2713]]]]}},
{ "type":"Feature","properties":{"osm_way_id":"150935565","name":"Aldi","building":"yes","shop":"supermarket","other":{"addr:city":"Canterbury","addr:country":"GB","addr:county":"Kent","addr:postcode":"CT1 2LN","addr:street":"St Andrew's Close","brand":"ALDI","brand:wikidata":"Q41171672","brand:wikipedia":"en:Aldi","fhrs:id":"1103028","not:addr:postcode":"CT1 2RL","opening_hours":"Mo-Sa 08:00-22:00; Su 10:00-16:00","ref:GB:uprn":"200000683236"}}, "geometry":{"type":"MultiPolygon","coordinates":[[[[1.07372,51.27544],[1.07319,51.2751],[1.07345,51.27494],[1.07398,51.27528],[1.07392,51.27532],[1.07396,51.27534],[1.07382,51.27542],[1.07378,51.2754],[1.07372,51.27544]]]]}},
{ "type":"Feature","properties":{"osm_way_id":"165014900","name":"Tesco Extra","building":"yes","shop":"supermarket","other":{"addr:city":"Whitstable","addr:postcode":"CT5 3EF","addr:street":"Millstrood Road","brand":"Tesco Extra","brand:wikidata":"Q25172225","brand:wikipedia":"en:Tesco Extra","contact:website":"https:\/\/www.tesco.com\/store-locator\/whitstable\/millstrood-rd","fhrs:id":"1102251","source:addr":"FHRS Open Data"}}, "geometry":{"type":"MultiPolygon","coordinates":[[[[1.04175,51.34685],[1.04194,51.34651],[1.04206,51.34655],[1.04218,51.34635],[1.04244,51.34641],[1.04246,51.34637],[1.04276,51.34644],[1.04277,51.34642],[1.04281,51.34642],[1.0429,51.34629],[1.04294,51.34622],[1.04304,51.34624],[1.04306,51.34622],[1.0438,51.34639],[1.04361,51.34669],[1.04371,51.34671],[1.04348,51.34713],[1.04345,51.34712],[1.04343,51.34716],[1.04289,51.34703],[1.04283,51.34713],[1.04273,51.3471],[1.04248,51.34705],[1.04247,51.34702],[1.04224,51.34697],[1.04223,51.34699],[1.04206,51.34695],[1.04208,51.34693],[1.04175,51.34685]]]]}},
{ "type":"Feature","properties":{"osm_way_id":"165015745","name":"Co-op","building":"retail","shop":"supermarket","other":{"addr:city":"Whitstable","addr:country":"GB","addr:county":"Kent","addr:housenumber":"14-16","addr:postcode":"CT5 4EX","addr:street":"Canterbury Road","fhrs:id":"1102326","operator":"Co-operative Group Ltd."}}, "geometry":{"type":"MultiPolygon","coordinates":[[[[1.02507,51.354],[1.0252,51.35394],[1.02535,51.35393],[1.02539,51.35391],[1.0252,51.35378],[1.02497,51.35392],[1.02507,51.354]]]]}},
{ "type":"Feature","properties":{"osm_way_id":"165015747","name":"Co-op Food","building":"retail","shop":"supermarket","other":{"addr:city":"Whitstable","addr:country":"GB","addr:county":"Kent","addr:housenumber":"58","addr:postcode":"CT5 1DG","addr:street":"Oxford Street","brand":"Co-op Food","brand:wikidata":"Q3277439","brand:wikipedia":"en:Co-op Food","fhrs:id":"1102238"}}, "geometry":{"type":"MultiPolygon","coordinates":[[[[1.02458,51.35535],[1.0247,51.35524],[1.02421,51.35505],[1.02411,51.35514],[1.02415,51.35516],[1.02413,51.35518],[1.02417,51.35519],[1.02415,51.35521],[1.02427,51.35526],[1.0243,51.35524],[1.02458,51.35535]]]]}},
{ "type":"Feature","properties":{"osm_way_id":"166096855","name":"Waitrose","building":"yes","shop":"supermarket","other":{"addr:city":"Canterbury","addr:country":"GB","addr:county":"Kent","addr:housename":"St George's Centre","addr:postcode":"CT1 1UL","branch":"Canterbury","brand":"Waitrose","brand:wikidata":"Q771734","brand:wikipedia":"en:Waitrose & Partners","fhrs:id":"1102960","opening_hours":"Mo-Fr 08:00-21:00; Sa 08:00-20:00; Su 10:00-16:00","operator":"Waitrose & Partners","phone":"+44 1227 785802"}}, "geometry":{"type":"MultiPolygon","coordinates":[[[[1.08644,51.2764],[1.08595,51.27604],[1.08651,51.27576],[1.08655,51.27579],[1.08659,51.27576],[1.08663,51.27579],[1.08666,51.27577],[1.08686,51.27593],[1.0869,51.27591],[1.08709,51.27606],[1.08708,51.27607],[1.08726,51.27621],[1.08706,51.27631],[1.0869,51.27618],[1.08682,51.27623],[1.0868,51.27622],[1.08644,51.2764]]]]}},
{ "type":"Feature","properties":{"osm_way_id":"172715330","name":"Stoke Bishop's Co-op","building":"retail","shop":"supermarket","other":{"addr:city":"Bristol","addr:housenumber":"55-57","addr:postcode":"BS9 2DW","addr:street":"Shirehampton Road","addr:suburb":"Sea Mills","building:levels":"2","fhrs:id":"312036","opening_hours":"PH,Mo-Su 06:00-22:00","toilets:wheelchair":"no","wheelchair":"yes"}}, "geometry":{"type":"MultiPolygon","coordinates":[[[[-2.64155,51.48594],[-2.64148,51.48592],[-2.6415,51.48589],[-2.64143,51.48587],[-2.64123,51.48609],[-2.64137,51.48614],[-2.64155,51.48594]]]]}},
{ "type":"Feature","properties":{"osm_way_id":"192725365","name":"M&S Foodhall","building":"retail","shop":"supermarket","other":{"addr:housenumber":"Unit 5","addr:place":"Maybrook Retail Park","addr:postcode":"CT1 1ZG","addr:street":"Vauxhall Road","alt_name":"M&S Maybrook Canterbury Simply Food","brand":"M&S Foodhall","brand:wikidata":"Q714491","brand:wikipedia":"en:Marks & Spencer","fhrs:id":"1102909","ref:GB:uprn":"10033172977"}}, "geometry":{"type":"MultiPolygon","coordinates":[[[[1.10277,51.29328],[1.10297,51.29307],[1.10366,51.29334],[1.10374,51.29338],[1.10354,51.29358],[1.10277,51.29328]]]]}},
{ "type":"Feature","properties":{"osm_way_id":"223195060","name":"Tesco Metro","building":"yes","shop":"supermarket","other":{"addr:city":"Canterbury","addr:country":"GB","addr:county":"Kent","addr:housename":"Whitefriars Shopping Centre","addr:housenumber":"2","addr:postcode":"CT1 2SN","addr:street":"Gravel Walk","alt_name":"Tesco Canterbury Metro","brand":"Tesco Metro","brand:wikidata":"Q57551648","fhrs:id":"1102651","level":"0","not:addr:postcode":"CT1 2TF","source:addr":"FHRS Open Data","wheelchair":"yes"}}, "geometry":{"type":"MultiPolygon","coordinates":[[[[1.0805,51.27705],[1.08045,51.27714],[1.08043,51.2772],[1.08039,51.27721],[1.07958,51.27673],[1.07969,51.27664],[1.0805,51.27705]]]]}},
{ "type":"Feature","properties":{"osm_way_id":"299660646","name":"Morrisons","building":"retail","shop":"supermarket","other":{"addr:city":"Herne Bay","addr:country":"GB","addr:county":"Kent","addr:housenumber":"10","addr:postcode":"CT6 5PU","addr:street":"Beach Street","brand":"Morrisons","brand:wikidata":"Q922344","brand:wikipedia":"en:Morrisons","building:levels":"1","fhrs:id":"1102671","not:addr:postcode":"CT6 5PF","roof:levels":"0","roof:shape":"flat","source:addr":"FHRS Open Data"}}, "geometry":{"type":"MultiPolygon","coordinates":[[[[1.12617,51.37092],[1.12543,51.37089],[1.12535,51.37089],[1.12531,51.37089],[1.12534,51.37056],[1.12535,51.37043],[1.12622,51.37046],[1.12617,51.37092]]]]}},
{ "type":"Feature","properties":{"osm_way_id":"476383926","name":"Aldi","building":"retail","shop":"supermarket","other":{"addr:city":"Whitstable","addr:country":"GB","addr:county":"Kent","addr:housenumber":"Unit 3, Prospect Retail Park","addr:postcode":"CT5 3SD","addr:street":"Prospect Way","brand":"ALDI","brand:wikidata":"Q41171672","brand:wikipedia":"en:Aldi","fhrs:id":"1103408","source:addr:postcode":"Advertising banner for store opening."}}, "geometry":{"type":"MultiPolygon","coordinates":[[[[1.01519,51.34105],[1.01518,51.34093],[1.01535,51.34093],[1.01536,51.34098],[1.01609,51.34096],[1.01609,51.34103],[1.01605,51.34103],[1.01606,51.34125],[1.01604,51.34125],[1.01604,51.34123],[1.01523,51.34125],[1.01521,51.34105],[1.01519,51.34105]]]]}},
{ "type":"Feature","properties":{"osm_way_id":"476383927","name":"M&S Foodhall","building":"retail","shop":"supermarket","other":{"addr:city":"Whitstable","addr:country":"GB","addr:county":"Kent","addr:housenumber":"2","addr:postcode":"CT5 3SD","addr:street":"Prospect Way","brand":"M&S Foodhall","brand:wikidata":"Q714491","brand:wikipedia":"en:Marks & Spencer","fhrs:id":"1103396"}}, "geometry":{"type":"MultiPolygon","coordinates":[[[[1.01484,51.34126],[1.01523,51.34125],[1.01521,51.34105],[1.01519,51.34105],[1.01518,51.34093],[1.01518,51.34088],[1.0148,51.34089],[1.01481,51.34105],[1.01483,51.34105],[1.01484,51.34126]]]]}},
{ "type":"Feature","properties":{"osm_way_id":"548245593","name":"Aldi","building":"yes","shop":"supermarket","other":{"addr:city":"Herne Bay","addr:country":"GB","addr:county":"Kent","addr:housenumber":"100","addr:postcode":"CT6 5RE","addr:street":"Kings Road","brand":"ALDI","brand:wikidata":"Q41171672","brand:wikipedia":"en:Aldi","fhrs:id":"1103423","source:addr":"FHRS Open Data"}}, "geometry":{"type":"MultiPolygon","coordinates":[[[[1.12535,51.3703],[1.12626,51.37033],[1.12628,51.37006],[1.12537,51.37004],[1.12535,51.3703]]]]}},
{ "type":"Feature","properties":{"osm_way_id":"548245866","name":"Co-op Food","building":"yes","shop":"supermarket","other":{"addr:city":"Herne Bay","addr:country":"GB","addr:county":"Kent","addr:housenumber":"160-164","addr:postcode":"CT6 5DU","addr:street":"Mortimer Street","brand":"Co-op Food","brand:wikidata":"Q3277439","brand:wikipedia":"en:Co-op Food","fhrs:authority":"Canterbury City","fhrs:id":"1138353","fhrs:local_authority_id":"CP\/19\/00106"}}, "geometry":{"type":"MultiPolygon","coordinates":[[[[1.13208,51.37191],[1.13208,51.3718],[1.13208,51.37171],[1.13215,51.37171],[1.13215,51.37161],[1.13214,51.37158],[1.13236,51.37158],[1.13237,51.37162],[1.13241,51.37162],[1.13242,51.37177],[1.13237,51.37177],[1.13237,51.37191],[1.13208,51.37191]]]]}},
{ "type":"Feature","properties":{"osm_way_id":"548247356","name":"Tesco Express","building":"retail","shop":"supermarket","other":{"addr:city":"Herne Bay","addr:country":"GB","addr:county":"Kent","addr:housenumber":"80-84","addr:postcode":"CT6 5SB","addr:street":"Canterbury Road","brand":"Tesco Express","brand:wikidata":"Q98456772","fhrs:id":"1102416","source:addr":"FHRS Open Data"}}, "geometry":{"type":"MultiPolygon","coordinates":[[[[1.13249,51.36786],[1.13246,51.36766],[1.13277,51.36765],[1.13279,51.36785],[1.13256,51.36786],[1.13249,51.36786]]]]}},
{ "type":"Feature","properties":{"osm_way_id":"566817992","name":"Co-Op Cromwell Road","building":"retail","shop":"supermarket","other":{"opening_hours":"Mo-Su 06:00-23:00","operator":"Co-Op"}}, "geometry":{"type":"MultiPolygon","coordinates":[[[[1.03051,51.35863],[1.0308,51.35863],[1.03077,51.35891],[1.03099,51.35892],[1.03098,51.35907],[1.03047,51.35906],[1.03051,51.35863]]]]}},
{ "type":"Feature","properties":{"osm_way_id":"567507610","name":"Co-Op","building":"yes","shop":"supermarket","other":{"addr:city":"Herne Bay","addr:country":"GB","addr:county":"Kent","addr:housenumber":"152-154","addr:postcode":"CT6 6PL","addr:street":"Reculver Road","fhrs:id":"1102380","opening_hours":"Mo-Su 07:00-22:00","payment:coins":"yes","payment:credit_cards":"yes","payment:notes":"yes","payment:visa":"yes","source:addr":"FHRS Open Data"}}, "geometry":{"type":"MultiPolygon","coordinates":[[[[1.15642,51.37073],[1.15653,51.37066],[1.1566,51.37061],[1.15658,51.3706],[1.15659,51.37058],[1.15648,51.37052],[1.1563,51.37067],[1.15642,51.37073]]]]}},
{ "type":"Feature","properties":{"osm_way_id":"567541435","name":"Co-Op","building":"yes","shop":"supermarket","other":{"addr:city":"Whitstable","addr:country":"GB","addr:county":"Kent","addr:housenumber":"53","addr:postcode":"CT5 4AX","addr:street":"Faversham Road","addr:suburb":"Seasalter","fhrs:id":"1103089","payment:coins":"yes","payment:notes":"yes","payment:visa":"yes","source:addr":"FHRS Open Data"}}, "geometry":{"type":"MultiPolygon","coordinates":[[[[1.00081,51.34406],[1.00073,51.34397],[1.00035,51.34411],[1.0004,51.34415],[1.00031,51.34419],[1.00036,51.34424],[1.00047,51.34421],[1.00045,51.34419],[1.00067,51.34411],[1.00081,51.34406]]]]}},
{ "type":"Feature","properties":{"osm_way_id":"567923770","name":"Co-Op","building":"yes","shop":"supermarket","other":{"addr:city":"Herne Bay","addr:country":"GB","addr:county":"Kent","addr:housenumber":"98","addr:postcode":"CT6 8QF","addr:street":"Sea Street","fhrs:id":"1102666","opening_hours":"Mo-Su 07:00-22:00","payment:coins":"yes","payment:notes":"yes","payment:visa":"yes","source:addr":"FHRS Open Data"}}, "geometry":{"type":"MultiPolygon","coordinates":[[[[1.11085,51.36631],[1.1108,51.36633],[1.11087,51.3664],[1.1108,51.3664],[1.1108,51.36646],[1.11091,51.36646],[1.11094,51.36649],[1.11098,51.36647],[1.11102,51.36651],[1.11111,51.36647],[1.11091,51.36626],[1.11083,51.36629],[1.11085,51.36631]]]]}},
{ "type":"Feature","properties":{"osm_way_id":"619765612","name":"Sainsbury's","building":"yes","shop":"supermarket","other":{"addr:city":"Herne Bay","addr:country":"GB","addr:county":"Kent","addr:housenumber":"6","addr:postcode":"CT6 6GZ","addr:street":"The Boulevard","brand":"Sainsbury's","brand:wikidata":"Q152096","brand:wikipedia":"en:Sainsbury's","fhrs:id":"1097723","opening_hours":"Mo-Sa 07:00-21:00;Su 10:00-16:00","operator":"Sainsbury's","payment:cards":"yes","payment:coins":"yes","payment:debit_cards":"yes","payment:notes":"yes","payment:visa_debit":"yes","smoking":"no","source:addr":"FHRS Open Data"}}, "geometry":{"type":"MultiPolygon","coordinates":[[[[1.15383,51.36095],[1.15383,51.36094],[1.1528,51.36091],[1.15279,51.36107],[1.15272,51.36106],[1.15267,51.36191],[1.15378,51.36194],[1.15381,51.36128],[1.15411,51.36129],[1.15413,51.36096],[1.15383,51.36095]]]]}},
{ "type":"Feature","properties":{"osm_way_id":"925545855","name":"Starry Mart","building":"retail","shop":"supermarket","other":{"addr:city":"Canterbury","addr:country":"GB","addr:county":"Kent","addr:housename":"Broad Oak House","addr:postcode":"CT2 7PX","addr:street":"Broad Oak Road","addr:unit":"2","cuisine":"asian","fhrs:id":"1132665","phone":"+44 1227 768804","ref:GB:uprn":"100062618610","website":"https:\/\/kent.starrymart.co.uk\/"}}, "geometry":{"type":"MultiPolygon","coordinates":[[[[1.09176,51.29333],[1.09194,51.29341],[1.09211,51.29327],[1.09192,51.29319],[1.09176,51.29333]]]]}},
{ "type":"Feature","properties":{"osm_way_id":"934103190","name":"Lidl","building":"yes","shop":"supermarket","other":{"addr:city":"Herne Bay","addr:country":"GB","addr:county":"Kent","addr:postcode":"CT6 8LW","addr:street":"Thanet Way","brand":"Lidl","brand:wikidata":"Q151954","brand:wikipedia":"en:Lidl","fhrs:id":"1276939","source:addr":"FHRS Open Data"}}, "geometry":{"type":"MultiPolygon","coordinates":[[[[1.10732,51.36349],[1.10739,51.36309],[1.1081,51.36316],[1.10805,51.36341],[1.10831,51.36343],[1.10828,51.36357],[1.10732,51.36349]]]]}},
{ "type":"Feature","properties":{"osm_way_id":"996010298","name":"ALDI","building":"retail","shop":"supermarket","other":{"addr:city":"Canterbury","addr:country":"GB","addr:county":"Kent","addr:housenumber":"132-152","addr:postcode":"CT1 1FX","addr:street":"Sturry Road","brand":"ALDI","brand:wikidata":"Q41171672","brand:wikipedia":"en:Aldi","fhrs:id":"1396253","opening_hours":"Mo-Sa 08:00-22:00; Su 10:00-16:00; PH 08:00-20:00","source:addr":"FHRS Open Data"}}, "geometry":{"type":"MultiPolygon","coordinates":[[[[1.09895,51.28821],[1.0985,51.28865],[1.09905,51.28887],[1.09956,51.28838],[1.09931,51.28828],[1.09925,51.28833],[1.09895,51.28821]]]]}}
]
}
