{
"type": "FeatureCollection",
"features": [
{ "type":"Feature","properties":{"osm_id":"7609337024","other":{"amenity":"loading_dock"}}, "geometry":{"type":"Point","coordinates":[1.0988,51.29194 ]}},
{ "type":"Feature","properties":{"osm_way_id":"117618292","building":"warehouse","other":{"addr:city":"Canterbury","addr:country":"GB","addr:county":"Kent","addr:postcode":"CT1 1DX","addr:street":"Marshwood Close","building:levels":"1","old_name":"Storage King","source:addr":"Sign at entrance to premises.","source:phone":"Sign at entrance to premises.","source:url":"Sign at entrance to premises.","url":"http:\/\/www.storageking.co.uk\/"}}, "geometry":{"type":"MultiPolygon","coordinates":[[[[1.0982,51.29196],[1.09865,51.29226],[1.09941,51.2918],[1.0993,51.29173],[1.09885,51.29198],[1.0988,51.29194],[1.09876,51.29191],[1.09879,51.29189],[1.09869,51.29183],[1.09909,51.29159],[1.09897,51.29151],[1.0982,51.29196]]]]}},
{ "type":"Feature","properties":{"osm_way_id":"542335577","name":"Howdens","building":"warehouse","other":{"addr:city":"Canterbury","addr:country":"GB","addr:county":"Kent","addr:housenumber":"6","addr:postcode":"CT1 3RB","addr:street":"Cotton Road","contact:phone":"+44 1227 762837","contact:website":"https:\/\/www.howdens.com\/","opening_hours":"Mo-Fr 08:00-17:00;Sa 08:00-12:00;Su,PH off"}}, "geometry":{"type":"MultiPolygon","coordinates":[[[[1.06707,51.27441],[1.06728,51.27421],[1.06755,51.27432],[1.06741,51.27445],[1.0677,51.27457],[1.06762,51.27464],[1.06707,51.27441]]]]}},
{ "type":"Feature","properties":{"osm_way_id":"542480338","name":"Lesco","building":"warehouse","other":{"addr:city":"Canterbury","addr:country":"GB","addr:county":"Kent","addr:postcode":"CT1 3RH","addr:street":"Maynard Road","contact:phone":"+44 1227 763637","contact:website":"http:\/\/www.lesco.uk.com\/"}}, "geometry":{"type":"MultiPolygon","coordinates":[[[[1.06855,51.27403],[1.06833,51.27424],[1.0686,51.27435],[1.06843,51.27452],[1.06862,51.2746],[1.06872,51.2745],[1.06902,51.27423],[1.06907,51.27418],[1.06888,51.2741],[1.06883,51.27415],[1.06855,51.27403]]]]}},
{ "type":"Feature","properties":{"osm_way_id":"659311540","name":"Weddel Swift","building":"warehouse","other":{"addr:city":"Canterbury","addr:country":"GB","addr:county":"Kent","addr:postcode":"CT1 3RR","addr:street":"Cow Lane","contact:phone":"+44 1227 454531","contact:website":"http:\/\/wsdepots.com\/","ref:GB:uprn":"100062280417"}}, "geometry":{"type":"MultiPolygon","coordinates":[[[[1.06405,51.27317],[1.06437,51.2733],[1.06454,51.27314],[1.06451,51.27313],[1.06456,51.27309],[1.06427,51.27296],[1.06405,51.27317]]]]}},
{ "type":"Feature","properties":{"osm_way_id":"699740988","building":"warehouse"},"geometry":{"type":"MultiPolygon","coordinates":[[[[1.13843,51.26858],[1.13885,51.26881],[1.13931,51.26848],[1.13908,51.26833],[1.13903,51.26836],[1.13888,51.26828],[1.13843,51.26858]]]]}}
]
}
