{
"type": "FeatureCollection",
"features": [
{ "type":"Feature","properties":{"osm_id":"2029849690","name":"Lidl","other":{"addr:city":"Spalding","addr:country":"GB","addr:housename":"Winsover Centre","addr:housenumber":"18","addr:postcode":"PE11 1EJ","addr:street":"Winsover Road","brand":"Lidl","brand:wikidata":"Q151954","brand:wikipedia":"en:Lidl","designation":"Spalding","fhrs:authority":"South Holland","fhrs:id":"243388","fhrs:local_authority_id":"19094","shop":"supermarket"}}, "geometry":{"type":"Point","coordinates":[-0.15657,52.7876 ]}},
{ "type":"Feature","properties":{"osm_id":"2471595858","name":"The Co-operative Food","other":{"addr:city":"Spalding","addr:postcode":"PE11 1EJ","addr:street":"Winsover Road","addr:unit":"Unit 7A","amenity":"post_office","designation":"Lincolnshire Co-operative Society - Spalding Post Office","fhrs:authority":"South Holland","fhrs:id":"36758","fhrs:local_authority_id":"1334578","shop":"supermarket"}}, "geometry":{"type":"Point","coordinates":[-0.15654,52.78723 ]}},
{ "type":"Feature","properties":{"osm_id":"7253744722","name":"Heron Foods","other":{"addr:city":"Spalding","addr:country":"GB","addr:housenumber":"15a","addr:postcode":"PE11 1BE","addr:street":"Sheep Market","brand":"Heron Foods","brand:wikidata":"Q5743472","brand:wikipedia":"en:Heron Foods","contact:website":"https:\/\/heronfoods.com\/storelocator\/store-details\/spalding","fhrs:authority":"South Holland","fhrs:id":"243162","shop":"supermarket"}}, "geometry":{"type":"Point","coordinates":[-0.15392,52.78752 ]}},
{ "type":"Feature","properties":{"osm_id":"7259442324","name":"Lajkonik","other":{"addr:city":"Spalding","addr:country":"GB","addr:postcode":"PE11 2AG","addr:street":"The Green","addr:unit":"The Pyramid Building","fhrs:authority":"South Holland","fhrs:id":"242848","fhrs:local_authority_id":"33926","shop":"supermarket"}}, "geometry":{"type":"Point","coordinates":[-0.147,52.78983 ]}},
{ "type":"Feature","properties":{"osm_id":"9024455757","name":"Lidl","other":{"addr:city":"Spalding","addr:country":"GB","addr:housenumber":"29","addr:postcode":"PE11 2HX","addr:street":"Holbeach Road","brand":"Lidl","brand:wikidata":"Q151954","brand:wikipedia":"en:Lidl","fhrs:authority":"South Holland","fhrs:id":"1214267","fhrs:local_authority_id":"35389","shop":"supermarket"}}, "geometry":{"type":"Point","coordinates":[-0.13459,52.79728 ]}},
{ "type":"Feature","properties":{"osm_way_id":"71881291","name":"M&S Foodhall","building":"yes","shop":"supermarket","other":{"addr:city":"Chichester","addr:housenumber":"3A","addr:postcode":"PO19 7YH","addr:street":"Portfield Way","brand":"M&S Foodhall","brand:wikidata":"Q714491","brand:wikipedia":"en:Marks & Spencer","fhrs:id":"898219"}}, "geometry":{"type":"MultiPolygon","coordinates":[[[[-0.7564,50.84133],[-0.75633,50.84125],[-0.75627,50.84127],[-0.7562,50.8412],[-0.75626,50.84118],[-0.75619,50.8411],[-0.75695,50.84081],[-0.75717,50.84104],[-0.7564,50.84133]]]]}},
{ "type":"Feature","properties":{"osm_way_id":"81580616","name":"Tesco Extra","amenity":"pharmacy","building":"supermarket","shop":"supermarket","other":{"addr:city":"Sutton Coldfield","addr:housenumber":"11","addr:postcode":"B73 6RB","addr:street":"Princess Alice Drive","brand":"Tesco Extra","brand:wikidata":"Q25172225","brand:wikipedia":"en:Tesco Extra","contact:website":"https:\/\/www.tesco.com\/store-locator\/sutton-coldfield\/11-princess-alice-dr","dispensing":"yes","fhrs:authority":"Birmingham","fhrs:id":"602243","fhrs:local_authority_id":"PI\/000478726","opening_hours":"Mo-Sa 00:00-24:00; Su 10:00-16:00","opening_hours:url":"https:\/\/www.tesco.com\/store-locator\/sutton-coldfield\/11-princess-alice-dr","wheelchair":"yes"}}, "geometry":{"type":"MultiPolygon","coordinates":[[[[-1.85882,52.54968],[-1.85896,52.54966],[-1.85906,52.54957],[-1.85889,52.54908],[-1.8586,52.54912],[-1.85856,52.54912],[-1.85855,52.54908],[-1.85823,52.54912],[-1.85824,52.54916],[-1.85813,52.54917],[-1.85815,52.54922],[-1.858,52.54924],[-1.8574,52.54931],[-1.85736,52.54932],[-1.85768,52.55023],[-1.85831,52.55015],[-1.8583,52.55011],[-1.85821,52.55012],[-1.8582,52.5501],[-1.85799,52.55012],[-1.85794,52.54997],[-1.85847,52.5499],[-1.85846,52.54985],[-1.85851,52.54984],[-1.85852,52.54987],[-1.85865,52.54986],[-1.85862,52.54977],[-1.85884,52.54975],[-1.85882,52.54968]]]]}},
{ "type":"Feature","properties":{"osm_way_id":"164594476","name":"Costcutter","building":"yes","shop":"supermarket","other":{"addr:housenumber":"84","addr:postcode":"PE12 9BN","addr:street":"West Street","alt_name":"Late Shopper","brand":"Costcutter","brand:wikidata":"Q5175072","brand:wikipedia":"en:Costcutter","fhrs:authority":"South Holland","fhrs:id":"1180709","fhrs:local_authority_id":"16701"}}, "geometry":{"type":"MultiPolygon","coordinates":[[[[0.1174,52.78489],[0.11759,52.78498],[0.11769,52.7849],[0.1175,52.78481],[0.1174,52.78489]]]]}},
{ "type":"Feature","properties":{"osm_way_id":"191633614","name":"Morrisons","building":"yes","shop":"supermarket","other":{"addr:city":"Pinchbeck","addr:country":"GB","addr:postcode":"PE11 3UG","addr:street":"Wardentree Lane","brand":"Morrisons","brand:wikidata":"Q922344","brand:wikipedia":"en:Morrisons","designation":"Spalding-Pinchbeck","fhrs:id":"243177"}}, "geometry":{"type":"MultiPolygon","coordinates":[[[[-0.14267,52.80731],[-0.14296,52.80776],[-0.14282,52.80797],[-0.14243,52.80788],[-0.14153,52.80809],[-0.14135,52.80781],[-0.1415,52.80777],[-0.1414,52.80762],[-0.14149,52.8076],[-0.14145,52.80754],[-0.14246,52.80728],[-0.14251,52.80735],[-0.14267,52.80731]]]]}},
{ "type":"Feature","properties":{"osm_way_id":"195396956","name":"Tesco","building":"supermarket","shop":"supermarket","other":{"addr:city":"Holbeach","addr:country":"GB","addr:postcode":"PE12 7LR","addr:street":"Boston Road South","branch_name":"Spalding Holbeach Superstore","brand":"Tesco","brand:wikidata":"Q487494","brand:wikipedia":"en:Tesco","fhrs:authority":"South Holland","fhrs:id":"243216","fhrs:local_authority_id":"19348","opening_hours":"Mo-Sa 06:00-23:00 Su 10:00-16:00"}}, "geometry":{"type":"MultiPolygon","coordinates":[[[[0.01275,52.80639],[0.01299,52.80609],[0.01396,52.80637],[0.01376,52.80662],[0.01396,52.80667],[0.01391,52.80673],[0.01275,52.80639]]]]}},
{ "type":"Feature","properties":{"osm_way_id":"195397080","name":"Lincolnshire Co-op","building":"yes","shop":"supermarket","other":{"addr:city":"Holbeach","addr:country":"GB","addr:housenumber":"5","addr:postcode":"PE12 7AX","addr:street":"Fleet Street","brand":"Lincolnshire Co-op","brand:wikidata":"Q6551231","brand:wikipedia":"en:Lincolnshire Co-operative","designation":"Holbeach","fhrs:authority":"South Holland","fhrs:id":"242831","fhrs:local_authority_id":"1186","opening_hours":"Mo-Su 07:00-22:00","operator":"Lincolnshire Co-operative Society","wheelchair":"yes"}}, "geometry":{"type":"MultiPolygon","coordinates":[[[[0.01836,52.80353],[0.01861,52.80348],[0.01882,52.80347],[0.01889,52.80395],[0.01882,52.80395],[0.01881,52.80389],[0.01846,52.80392],[0.01843,52.80374],[0.01839,52.80374],[0.01836,52.80353]]]]}},
{ "type":"Feature","properties":{"osm_way_id":"239365239","name":"M&S Simply Food","shop":"supermarket","other":{"addr:city":"Spalding","addr:country":"GB","addr:postcode":"PE11 1DA","addr:street":"Winfrey Avenue","addr:unit":"Unit D","brand":"M&S Simply Food","brand:wikidata":"Q714491","designation":"Spalding Simply Food","fhrs:authority":"South Holland","fhrs:id":"242904","fhrs:local_authority_id":"24695"}}, "geometry":{"type":"MultiPolygon","coordinates":[[[[-0.15299,52.7884],[-0.15315,52.7884],[-0.15315,52.78835],[-0.15319,52.78835],[-0.1532,52.78831],[-0.15332,52.78831],[-0.15332,52.78835],[-0.1534,52.78835],[-0.15339,52.78855],[-0.15328,52.78855],[-0.15328,52.78857],[-0.15314,52.78857],[-0.15314,52.78855],[-0.15298,52.78855],[-0.15299,52.7884]]]]}},
{ "type":"Feature","properties":{"osm_way_id":"290069846","name":"Lincolnshire Co-op","building":"yes","shop":"supermarket","other":{"addr:city":"Long Sutton","addr:country":"GB","addr:postcode":"PE12 9BN","addr:street":"The Chase","alt_name":"Long Sutton Food Store","brand":"Lincolnshire Co-op","brand:wikidata":"Q6551231","brand:wikipedia":"en:Lincolnshire Co-operative","fhrs:authority":"South Holland","fhrs:id":"243620","fhrs:local_authority_id":"22332"}}, "geometry":{"type":"MultiPolygon","coordinates":[[[[0.12163,52.7839],[0.12168,52.78359],[0.12162,52.78358],[0.12163,52.78354],[0.12116,52.78352],[0.12117,52.78347],[0.12101,52.78346],[0.121,52.78356],[0.12093,52.78356],[0.12091,52.78372],[0.1211,52.78373],[0.1211,52.78379],[0.12129,52.7838],[0.12127,52.78389],[0.12163,52.7839]]]]}},
{ "type":"Feature","properties":{"osm_way_id":"362085474","name":"The Co-operative Food","building":"yes","shop":"supermarket","other":{"addr:city":"Donington","addr:country":"GB","addr:housenumber":"5-6","addr:postcode":"PE11 4ST","addr:street":"Market Place","brand":"The Co-operative Food","brand:wikidata":"Q3277439","brand:wikipedia":"en:Co-op Food","fhrs:authority":"South Holland","fhrs:id":"243435","fhrs:local_authority_id":"428","operator":"The Co-operative Group"}}, "geometry":{"type":"MultiPolygon","coordinates":[[[[-0.20486,52.90493],[-0.2046,52.90499],[-0.20454,52.90489],[-0.20451,52.90485],[-0.20461,52.90483],[-0.20453,52.90471],[-0.20469,52.90467],[-0.20486,52.90493]]]]}},
{ "type":"Feature","properties":{"osm_way_id":"362085922","name":"Lincolnshire Co-op","building":"yes","shop":"supermarket","other":{"addr:city":"Gosberton","addr:country":"GB","addr:housenumber":"54","addr:postcode":"PE11 4NG","addr:street":"High Street","brand":"Lincolnshire Co-op","brand:wikidata":"Q6551231","brand:wikipedia":"en:Lincolnshire Co-operative","fhrs:authority":"South Holland","fhrs:id":"243143","fhrs:local_authority_id":"911","operator":"Lincolnshire Co-operative Society"}}, "geometry":{"type":"MultiPolygon","coordinates":[[[[-0.16077,52.8684],[-0.16056,52.8686],[-0.16049,52.86862],[-0.16043,52.8686],[-0.16045,52.86855],[-0.16066,52.86835],[-0.16077,52.8684]]]]}},
{ "type":"Feature","properties":{"osm_way_id":"424275493","name":"Iceland","building":"yes","shop":"supermarket","other":{"addr:city":"Spalding","addr:country":"GB","addr:housename":"Holland Market","addr:postcode":"PE11 1RQ","addr:street":"Winfrey Avenue","addr:unit":"Units B & C","brand":"Iceland","brand:wikidata":"Q721810","designation":"Spalding","fhrs:authority":"South Holland","fhrs:id":"590165","fhrs:local_authority_id":"36346","old_name":"Allied Carpets"}}, "geometry":{"type":"MultiPolygon","coordinates":[[[[-0.15214,52.78883],[-0.15213,52.78878],[-0.15236,52.78876],[-0.15239,52.78893],[-0.15176,52.78896],[-0.15175,52.78885],[-0.15214,52.78883]]]]}},
{ "type":"Feature","properties":{"osm_way_id":"936319951","name":"Aldi","building":"yes","shop":"supermarket","other":{"addr:city":"Spalding","addr:country":"GB","addr:postcode":"PE11 2XY","addr:street":"St Thomas's Road","brand":"ALDI","brand:wikidata":"Q41171672","brand:wikipedia":"en:Aldi","fhrs:id":"242989"}}, "geometry":{"type":"MultiPolygon","coordinates":[[[[-0.15707,52.7869],[-0.15678,52.7865],[-0.15682,52.78649],[-0.1568,52.78647],[-0.15682,52.78646],[-0.1568,52.78643],[-0.15691,52.7864],[-0.15694,52.78643],[-0.15695,52.78643],[-0.15698,52.78647],[-0.15723,52.78641],[-0.15737,52.78661],[-0.15746,52.78673],[-0.15751,52.78672],[-0.15755,52.78678],[-0.15732,52.78684],[-0.15733,52.78684],[-0.15717,52.78689],[-0.15717,52.78688],[-0.15707,52.7869]]]]}},
{ "type":"Feature","properties":{"osm_way_id":"936571930","name":"Sainsbury's","building":"yes","shop":"supermarket","other":{"addr:city":"Spalding","addr:country":"GB","addr:housename":"Holland Market","addr:postcode":"PE11 1RQ","addr:street":"Winfrey Avenue","brand":"Sainsbury's","brand:wikidata":"Q152096","brand:wikipedia":"en:Sainsbury's","description":"Spalding Superstore","fhrs:authority":"South Holland","fhrs:id":"243418","fhrs:local_authority_id":"25074","toilets:wheelchair":"yes","wheelchair":"yes"}}, "geometry":{"type":"MultiPolygon","coordinates":[[[[-0.15604,52.78812],[-0.15617,52.78812],[-0.15617,52.78798],[-0.15613,52.78798],[-0.15613,52.78792],[-0.15605,52.78792],[-0.15604,52.78804],[-0.15595,52.78804],[-0.15595,52.78807],[-0.1559,52.78807],[-0.15591,52.78799],[-0.15576,52.78799],[-0.15576,52.78807],[-0.15525,52.78806],[-0.15525,52.78806],[-0.15513,52.78805],[-0.15513,52.78813],[-0.15514,52.78813],[-0.15514,52.78824],[-0.15513,52.78872],[-0.15513,52.7888],[-0.15518,52.7888],[-0.15518,52.78883],[-0.15511,52.78883],[-0.15511,52.78883],[-0.15507,52.78883],[-0.15507,52.78889],[-0.15511,52.78889],[-0.15511,52.7889],[-0.15518,52.7889],[-0.15518,52.7889],[-0.1553,52.78891],[-0.1553,52.7889],[-0.15537,52.7889],[-0.15537,52.78883],[-0.1556,52.78883],[-0.1556,52.78888],[-0.15576,52.78888],[-0.15576,52.78884],[-0.15596,52.78884],[-0.15596,52.78884],[-0.15607,52.78884],[-0.15608,52.78881],[-0.15609,52.78881],[-0.15609,52.78872],[-0.1561,52.78872],[-0.1561,52.78867],[-0.15608,52.78867],[-0.15607,52.78867],[-0.15607,52.78863],[-0.15602,52.78863],[-0.15603,52.78813],[-0.15604,52.78813],[-0.15604,52.78812]]]]}},
{ "type":"Feature","properties":{"osm_way_id":"976231035","name":"Spar","building":"yes","shop":"supermarket","other":{"addr:housenumber":"7","addr:postcode":"PE6 0EG","addr:street":"North Street","brand":"Spar","brand:wikidata":"Q610492","brand:wikipedia":"en:SPAR (retailer)"}}, "geometry":{"type":"MultiPolygon","coordinates":[[[[-0.16856,52.67631],[-0.16822,52.6764],[-0.16818,52.67635],[-0.16826,52.67633],[-0.16824,52.67631],[-0.16835,52.67628],[-0.16833,52.67626],[-0.16849,52.67622],[-0.16856,52.67631]]]]}}
]
}
