{
"type": "FeatureCollection",
"features": [
{ "type":"Feature","properties":{"osm_id":"3827778657","name":"Co-op Food","other":{"addr:city":"Barking","addr:housename":"Leslie Hitchcock House","addr:housenumber":"21","addr:street":"Minter Road","brand":"Co-op Food","brand:wikidata":"Q3277439","brand:wikipedia":"en:Co-op Food","internet_access":"wlan","internet_access:fee":"customers","level":"0","opening_hours":"07:00-22:00","shop":"supermarket"}}, "geometry":{"type":"Point","coordinates":[0.10767,51.52033 ]}},
{ "type":"Feature","properties":{"osm_id":"3883368417","name":"Asda","other":{"shop":"supermarket","brand":"Asda","fhrs:id":"847353","operator":"Asda Stores Ltd","addr:city":"Barking","addr:street":"Short Blue Place","addr:country":"GB","addr:postcode":"IG11 8FJ","addr:housename":"Genoa Building","brand:wikidata":"Q297410","brand:wikipedia":"en:Asda","contact:twitter":"@asda","contact:website":"https:\/\/storelocator.asda.com\/london\/barking\/genoa-building-2-short-blue-place","addr:housenumber":"2","contact:facebook":"https:\/\/www.facebook.com\/asda\/","fhrs:local_authority_id":"66434"}}, "geometry":{"type":"Point","coordinates":[0.07722,51.5373 ]}},
{ "type":"Feature","properties":{"osm_id":"4134951796","name":"Lituanica","other":{"shop":"supermarket"}}, "geometry":{"type":"Point","coordinates":[0.07906,51.53729 ]}},
{ "type":"Feature","properties":{"osm_id":"4358645295","name":"Sainsbury's","other":{"addr:city":"Romford","addr:housenumber":"97-131","addr:postcode":"RM6 6PB","addr:street":"High Road","addr:suburb":"Chadwell Heath","brand":"Sainsbury's","brand:wikidata":"Q152096","fhrs:id":"124152","shop":"supermarket"}}, "geometry":{"type":"Point","coordinates":[0.13532,51.57195 ]}},
{ "type":"Feature","properties":{"osm_id":"4516116889","name":"Premier Shop","other":{"shop":"supermarket","name:en":"Premier Shop"}}, "geometry":{"type":"Point","coordinates":[0.11767,51.55459 ]}},
{ "type":"Feature","properties":{"osm_id":"4681022569","name":"Costcutter","other":{"addr:city":"Dagenham","addr:housenumber":"442-444","addr:postcode":"RM9 4QS","addr:street":"Lodge Avenue","brand":"Costcutter","brand:wikidata":"Q5175072","brand:wikipedia":"en:Costcutter","fhrs:id":"465916","fhrs:local_authority_id":"3757","level":"0","shop":"supermarket"}}, "geometry":{"type":"Point","coordinates":[0.11097,51.53507 ]}},
{ "type":"Feature","properties":{"osm_id":"6747140264","name":"Nisa Local","other":{"shop":"supermarket"}}, "geometry":{"type":"Point","coordinates":[0.07655,51.53163 ]}},
{ "type":"Feature","properties":{"osm_id":"7952703024","name":"Aldi","other":{"brand":"ALDI","brand:wikidata":"Q41171672","brand:wikipedia":"en:Aldi","shop":"supermarket"}}, "geometry":{"type":"Point","coordinates":[0.14505,51.53102 ]}},
{ "type":"Feature","properties":{"osm_way_id":"22870156","name":"Asda","building":"retail","shop":"supermarket","other":{"addr:city":"Dagenham","addr:country":"GB","addr:postcode":"RM9 6SJ","addr:street":"Merrielands Crescent","alt_name":"ASDA Dagenham Superstore","brand":"Asda","brand:wikidata":"Q297410","brand:wikipedia":"en:Asda","contact:facebook":"https:\/\/www.facebook.com\/asda\/","contact:twitter":"@asda","contact:website":"https:\/\/storelocator.asda.com\/london\/dagenham\/merrielands-crescent","fhrs:id":"125172","fhrs:local_authority_id":"5369","operator":"Asda Stores Ltd","source:addr:postcode":"FHRS Open Data"}}, "geometry":{"type":"MultiPolygon","coordinates":[[[[0.14298,51.53043],[0.143,51.53035],[0.14334,51.53038],[0.14345,51.52999],[0.14339,51.52989],[0.14334,51.52988],[0.14339,51.52971],[0.1432,51.5297],[0.14321,51.52963],[0.14284,51.52959],[0.1428,51.5297],[0.14245,51.52965],[0.14242,51.52972],[0.14166,51.52963],[0.14159,51.52987],[0.14152,51.53012],[0.14147,51.53027],[0.14298,51.53043]]]]}},
{ "type":"Feature","properties":{"osm_way_id":"120363631","name":"Costcutter","building":"retail","shop":"supermarket","other":{"addr:housenumber":"7","addr:street":"Princess Parade, New Road","brand":"Costcutter","brand:wikidata":"Q5175072","brand:wikipedia":"en:Costcutter"}}, "geometry":{"type":"MultiPolygon","coordinates":[[[[0.15405,51.52995],[0.1539,51.52983],[0.15397,51.52979],[0.15412,51.52992],[0.15405,51.52995]]]]}},
{ "type":"Feature","properties":{"osm_way_id":"122597476","name":"Lidl","building":"yes","shop":"supermarket","other":{"addr:country":"GB","addr:housename":"The Link Centre","addr:housenumber":"258-262","addr:postcode":"RM10 8QS","addr:street":"Heathway","addr:unit":"A","brand":"Lidl","brand:wikidata":"Q151954","brand:wikipedia":"en:Lidl","fhrs:id":"129311"}}, "geometry":{"type":"MultiPolygon","coordinates":[[[[0.14901,51.54223],[0.14884,51.54222],[0.14885,51.54217],[0.14852,51.54216],[0.14853,51.54213],[0.1481,51.54211],[0.14809,51.5421],[0.14808,51.54208],[0.14808,51.54207],[0.14804,51.54207],[0.14806,51.54183],[0.14906,51.54188],[0.14901,51.54223]]]]}},
{ "type":"Feature","properties":{"osm_way_id":"124119522","name":"Morrisons","building":"yes","shop":"supermarket","other":{"addr:city":"Dagenham","addr:housenumber":"402","addr:postcode":"RM10 7RA","addr:street":"Wood Lane","brand":"Morrisons","brand:wikidata":"Q922344","brand:wikipedia":"en:Morrisons","fhrs:id":"129199"}}, "geometry":{"type":"MultiPolygon","coordinates":[[[[0.14808,51.55972],[0.14873,51.55969],[0.14873,51.55971],[0.14888,51.5597],[0.14887,51.55966],[0.14895,51.55966],[0.14893,51.55951],[0.14884,51.55952],[0.14879,51.55915],[0.14871,51.55916],[0.14868,51.55894],[0.14867,51.55888],[0.14791,51.55892],[0.14795,51.55916],[0.148,51.55916],[0.14808,51.55972]]]]}},
{ "type":"Feature","properties":{"osm_way_id":"124120469","name":"Aguona Express","building":"yes","shop":"supermarket","other":{"addr:city":"Dagenham","addr:housenumber":"2-3","addr:postcode":"RM8 1AA","addr:street":"Cinema Parade, Whalebone Lane South"}}, "geometry":{"type":"MultiPolygon","coordinates":[[[[0.14749,51.56126],[0.14729,51.56132],[0.14724,51.56136],[0.14714,51.5614],[0.1471,51.56136],[0.1472,51.56129],[0.14734,51.56117],[0.14747,51.56123],[0.14749,51.56126]]]]}},
{ "type":"Feature","properties":{"osm_way_id":"263692239","name":"Lidl","building":"retail","shop":"supermarket","other":{"addr:housenumber":"62-82","addr:postcode":"IG11 7PG","addr:street":"Stag Island, Ripple Road","alt_name":"LIDL Barking","brand":"Lidl","brand:wikidata":"Q151954","brand:wikipedia":"en:Lidl","building:levels":"1","fhrs:id":"127829","roof:orientation":"along","roof:shape":"round","source:addr:postcode":"FSA Food Hygiene Ratings Database"}}, "geometry":{"type":"MultiPolygon","coordinates":[[[[0.08106,51.53604],[0.08125,51.53582],[0.08131,51.53584],[0.08145,51.53569],[0.08152,51.53572],[0.08183,51.53582],[0.08151,51.53619],[0.08121,51.53609],[0.08106,51.53604]]]]}},
{ "type":"Feature","properties":{"osm_way_id":"263692241","name":"Tesco","building":"yes","shop":"supermarket","other":{"addr:city":"Barking","addr:postcode":"IG11 7BS","addr:street":"Highbridge Road","alt_name":"Tesco Barking Superstore","brand":"Tesco","brand:wikidata":"Q487494","brand:wikipedia":"en:Tesco","building:levels":"2","fhrs:id":"107548","fhrs:local_authority_id":"38019","roof:levels":"2","roof:shape":"saltbox"}}, "geometry":{"type":"MultiPolygon","coordinates":[[[[0.07105,51.53688],[0.07155,51.53608],[0.07131,51.53602],[0.07128,51.53597],[0.07103,51.53591],[0.07094,51.53593],[0.07089,51.536],[0.07071,51.53596],[0.07056,51.53622],[0.07045,51.53619],[0.0704,51.53627],[0.07035,51.53626],[0.07031,51.53633],[0.07015,51.53641],[0.07011,51.53648],[0.0702,51.5365],[0.07016,51.53657],[0.0703,51.5366],[0.07027,51.53666],[0.07064,51.53675],[0.07062,51.53678],[0.07063,51.53678],[0.07105,51.53688]]]]}},
{ "type":"Feature","properties":{"osm_way_id":"314787512","name":"Spar","building":"yes","shop":"supermarket","other":{"addr:postcode":"IG11 8TU","brand":"Spar","brand:wikidata":"Q610492","brand:wikipedia":"en:Spar (retailer)","building:part":"yes","operator":"Spar"}}, "geometry":{"type":"MultiPolygon","coordinates":[[[[0.08091,51.53937],[0.08108,51.5395],[0.08118,51.53945],[0.08114,51.53942],[0.08111,51.5394],[0.08107,51.53937],[0.08104,51.53935],[0.081,51.53932],[0.08091,51.53937]]]]}},
{ "type":"Feature","properties":{"osm_way_id":"744293219","name":"Lidl","shop":"supermarket","other":{"addr:city":"Dagenham","addr:housenumber":"807-829","addr:postcode":"RM8 2DB","addr:street":"Longbridge Road","brand":"Lidl","brand:wikidata":"Q151954","fhrs:id":"415712","fhrs:local_authority_id":"60245","operator":"Lidl UK GmbH"}}, "geometry":{"type":"MultiPolygon","coordinates":[[[[0.11269,51.55191],[0.11296,51.55189],[0.11341,51.55185],[0.1135,51.55185],[0.11395,51.55183],[0.1142,51.55199],[0.11425,51.55203],[0.11428,51.55204],[0.1138,51.55227],[0.11365,51.55228],[0.11307,51.55238],[0.11272,51.55211],[0.1127,51.55195],[0.11269,51.55191]]]]}},
{ "type":"Feature","properties":{"osm_way_id":"858900235","name":"Hoo Hing","building":"yes","shop":"supermarket"},"geometry":{"type":"MultiPolygon","coordinates":[[[[0.13589,51.56829],[0.13673,51.56828],[0.13673,51.56842],[0.13756,51.56841],[0.13755,51.56795],[0.13703,51.56796],[0.13702,51.56774],[0.13604,51.56775],[0.13604,51.56797],[0.13589,51.56797],[0.13589,51.56829]]]]}},
{ "type":"Feature","properties":{"osm_way_id":"870834758","name":"Londis","building":"yes","shop":"supermarket","other":{"addr:city":"London","addr:housenumber":"93","addr:postcode":"IG11 7UQ","addr:street":"Movers Lane","brand":"Londis","brand:wikidata":"Q21008564","brand:wikipedia":"en:Londis (United Kingdom)","opening_hours":"Mo-Su 06:00-21:00","phone":"+44 20 8594 9593"}}, "geometry":{"type":"MultiPolygon","coordinates":[[[[0.09116,51.53264],[0.09106,51.53261],[0.09108,51.53257],[0.09119,51.5326],[0.09116,51.53264]]]]}},
{ "type":"Feature","properties":{"osm_way_id":"964880675","name":"Lidl","building":"supermarket","shop":"supermarket","other":{"addr:country":"GB","addr:housenumber":"79A","addr:street":"Whalebone Lane South","brand":"Lidl","brand:wikidata":"Q151954","brand:wikipedia":"en:Lidl","fhrs:id":"1389714"}}, "geometry":{"type":"MultiPolygon","coordinates":[[[[0.14622,51.56354],[0.14523,51.56338],[0.14517,51.56353],[0.1451,51.56351],[0.14508,51.56356],[0.14614,51.56373],[0.14622,51.56354]]]]}}
]
}
