{
"type": "FeatureCollection",
"features": [
{ "type":"Feature","properties":{"osm_way_id":"13512887","building":"warehouse","other":{"building:levels":"3"}}, "geometry":{"type":"MultiPolygon","coordinates":[[[[0.10869,51.53062],[0.10877,51.53095],[0.11418,51.5304],[0.11416,51.53034],[0.11442,51.53031],[0.11437,51.5301],[0.11411,51.53012],[0.11411,51.53011],[0.1141,51.53007],[0.10869,51.53062]]]]}},
{ "type":"Feature","properties":{"osm_way_id":"193980672","building":"warehouse","other":{"building:levels":"2"}}, "geometry":{"type":"MultiPolygon","coordinates":[[[[0.11765,51.53179],[0.11923,51.53169],[0.11911,51.53104],[0.11753,51.53114],[0.11765,51.53179]]]]}},
{ "type":"Feature","properties":{"osm_way_id":"193981223","building":"warehouse","other":{"building:levels":"2"}}, "geometry":{"type":"MultiPolygon","coordinates":[[[[0.11813,51.5308],[0.11822,51.53014],[0.11962,51.53022],[0.11964,51.53005],[0.11999,51.53008],[0.11988,51.5309],[0.11962,51.53089],[0.11961,51.53094],[0.11916,51.53091],[0.11922,51.53053],[0.11888,51.53052],[0.11883,51.53084],[0.11813,51.5308]]]]}},
{ "type":"Feature","properties":{"osm_way_id":"193981570","building":"warehouse","other":{"addr:postcode":"IG11 0AE","building:levels":"2"}}, "geometry":{"type":"MultiPolygon","coordinates":[[[[0.10872,51.53135],[0.10865,51.53113],[0.11005,51.53098],[0.11007,51.53106],[0.11022,51.53104],[0.1103,51.53128],[0.11016,51.5313],[0.11012,51.5312],[0.10872,51.53135]]]]}},
{ "type":"Feature","properties":{"osm_way_id":"405202898","name":"KWS Imports","building":"warehouse","other":{"building:levels":"2"}}, "geometry":{"type":"MultiPolygon","coordinates":[[[[0.10087,51.51711],[0.10103,51.51629],[0.10163,51.51633],[0.10147,51.51716],[0.10087,51.51711]]]]}},
{ "type":"Feature","properties":{"osm_way_id":"416159772","building":"warehouse"},"geometry":{"type":"MultiPolygon","coordinates":[[[[0.07891,51.5296],[0.07876,51.52981],[0.07881,51.52983],[0.07877,51.5299],[0.07918,51.53001],[0.07939,51.52973],[0.07891,51.5296]]]]}},
{ "type":"Feature","properties":{"osm_way_id":"435958812","name":"Ocado","building":"warehouse","other":{"addr:city":"Dagenham","addr:housenumber":"73","addr:postcode":"RM9 6QJ","addr:street":"Chequers Lane","building:levels":"2","operator":"Ocado","ref:NPLG:UPRN:1":"000100100906","website":"https:\/\/www.ocado.com\/"}}, "geometry":{"type":"MultiPolygon","coordinates":[[[[0.14375,51.51929],[0.14394,51.51928],[0.14393,51.51923],[0.1446,51.51916],[0.14477,51.51915],[0.14468,51.5188],[0.14357,51.51891],[0.14361,51.51906],[0.14369,51.51905],[0.14375,51.51929]]]]}},
{ "type":"Feature","properties":{"osm_way_id":"663942648","building":"warehouse","other":{"building:levels":"2"}}, "geometry":{"type":"MultiPolygon","coordinates":[[[[0.10221,51.51742],[0.1028,51.51747],[0.10307,51.5161],[0.10247,51.51605],[0.10221,51.51742]]]]}}
]
}
