{
"type": "FeatureCollection",
"features": [
{ "type":"Feature","properties":{"osm_way_id":"30636271","name":"Wincanton National Distribution Centre","building":"warehouse"},"geometry":{"type":"MultiPolygon","coordinates":[[[[-2.17173,51.84348],[-2.17171,51.8425],[-2.17117,51.8425],[-2.17117,51.8426],[-2.16969,51.8426],[-2.16968,51.84245],[-2.16943,51.84245],[-2.16945,51.84364],[-2.16946,51.84385],[-2.17174,51.84385],[-2.17174,51.84375],[-2.17163,51.84375],[-2.17162,51.84348],[-2.17173,51.84348]]]]}},
{ "type":"Feature","properties":{"osm_way_id":"57884990","name":"Direct Wines","building":"warehouse","landuse":"commercial","other":{"source:name":"local knowledge"}}, "geometry":{"type":"MultiPolygon","coordinates":[[[[-2.17543,51.84322],[-2.17341,51.843],[-2.17361,51.84233],[-2.17335,51.8423],[-2.17347,51.84189],[-2.17464,51.84203],[-2.17469,51.8419],[-2.17493,51.84193],[-2.17489,51.84206],[-2.17572,51.84216],[-2.17543,51.84322]]]]}},
{ "type":"Feature","properties":{"osm_way_id":"375287141","name":"Battery Megastore","building":"warehouse","shop":"batteries","other":{"addr:housenumber":"Unit 29","addr:street":"Alexandra Way","operator":"Battery Megastore UK Limited"}}, "geometry":{"type":"MultiPolygon","coordinates":[[[[-2.11941,52.00062],[-2.11894,52.00061],[-2.11895,52.00033],[-2.11942,52.00033],[-2.11941,52.00062]]]]}},
{ "type":"Feature","properties":{"osm_way_id":"375287142","building":"warehouse","other":{"addr:housename":"Unit 32","addr:street":"Alexandra Way"}}, "geometry":{"type":"MultiPolygon","coordinates":[[[[-2.11942,52.00008],[-2.11943,51.99988],[-2.11896,51.99987],[-2.11896,52.00007],[-2.11942,52.00008]]]]}},
{ "type":"Feature","properties":{"osm_way_id":"375287143","building":"warehouse","other":{"addr:housename":"Unit 30","addr:street":"Alexandra Way"}}, "geometry":{"type":"MultiPolygon","coordinates":[[[[-2.11895,52.0002],[-2.11895,52.00033],[-2.11942,52.00033],[-2.11942,52.0002],[-2.11895,52.0002]]]]}},
{ "type":"Feature","properties":{"osm_way_id":"375287144","building":"warehouse"},"geometry":{"type":"MultiPolygon","coordinates":[[[[-2.12044,52.00012],[-2.12012,52.00012],[-2.12012,51.99994],[-2.12012,51.99989],[-2.12045,51.99989],[-2.12044,52.00012]]]]}},
{ "type":"Feature","properties":{"osm_way_id":"375287147","building":"warehouse"},"geometry":{"type":"MultiPolygon","coordinates":[[[[-2.12011,52.00024],[-2.11979,52.00024],[-2.11979,51.99994],[-2.12012,51.99994],[-2.12012,52.00012],[-2.12011,52.00024]]]]}},
{ "type":"Feature","properties":{"osm_way_id":"375287148","building":"warehouse"},"geometry":{"type":"MultiPolygon","coordinates":[[[[-2.11979,52.0003],[-2.11979,52.00024],[-2.11979,51.99994],[-2.11946,51.99994],[-2.11945,52.0003],[-2.11979,52.0003]]]]}},
{ "type":"Feature","properties":{"osm_way_id":"375287149","building":"warehouse","other":{"addr:housename":"Unit 31","addr:street":"Alexandra Way"}}, "geometry":{"type":"MultiPolygon","coordinates":[[[[-2.11896,52.00007],[-2.11895,52.0002],[-2.11942,52.0002],[-2.11942,52.00008],[-2.11896,52.00007]]]]}},
{ "type":"Feature","properties":{"osm_way_id":"375291463","building":"warehouse"},"geometry":{"type":"MultiPolygon","coordinates":[[[[-2.12587,52.00329],[-2.12604,52.00325],[-2.12616,52.00342],[-2.12599,52.00347],[-2.12587,52.00329]]]]}},
{ "type":"Feature","properties":{"osm_way_id":"375291467","building":"warehouse"},"geometry":{"type":"MultiPolygon","coordinates":[[[[-2.12621,52.0032],[-2.12638,52.00316],[-2.1265,52.00333],[-2.12633,52.00338],[-2.12621,52.0032]]]]}},
{ "type":"Feature","properties":{"osm_way_id":"375291468","building":"warehouse"},"geometry":{"type":"MultiPolygon","coordinates":[[[[-2.12635,52.00281],[-2.12625,52.00258],[-2.12537,52.00272],[-2.12547,52.00295],[-2.12635,52.00281]]]]}},
{ "type":"Feature","properties":{"osm_way_id":"375291470","building":"warehouse","other":{"addr:housenumber":"Unit 5","addr:street":"Kennet Close"}}, "geometry":{"type":"MultiPolygon","coordinates":[[[[-2.12599,52.00347],[-2.12581,52.00352],[-2.12569,52.00334],[-2.12587,52.00329],[-2.12599,52.00347]]]]}},
{ "type":"Feature","properties":{"osm_way_id":"375291473","building":"warehouse"},"geometry":{"type":"MultiPolygon","coordinates":[[[[-2.12604,52.00325],[-2.12621,52.0032],[-2.12633,52.00338],[-2.12616,52.00342],[-2.12604,52.00325]]]]}},
{ "type":"Feature","properties":{"osm_way_id":"1011345254","building":"warehouse"},"geometry":{"type":"MultiPolygon","coordinates":[[[[-2.12638,52.00316],[-2.12647,52.00313],[-2.12659,52.00331],[-2.1265,52.00333],[-2.12638,52.00316]]]]}}
]
}
