{
"type": "FeatureCollection",
"features": [
{ "type":"Feature","properties":{"osm_id":"751197523","name":"Co-op","other":{"addr:city":"Middlesbrough","addr:country":"GB","addr:housenumber":"469","addr:postcode":"TS5 6HX","addr:street":"Linthorpe Road","fhrs:id":"256951","operator":"Co-op","shop":"supermarket"}}, "geometry":{"type":"Point","coordinates":[-1.24307,54.56039 ]}},
{ "type":"Feature","properties":{"osm_id":"752366890","name":"Heron Foods","other":{"addr:city":"Middlesbough","addr:country":"GB","addr:housenumber":"57","addr:postcode":"TS1 1HR","addr:street":"Dundas Street","brand":"Heron Foods","brand:wikidata":"Q5743472","brand:wikipedia":"en:Heron Foods","contact:website":"https:\/\/heronfoods.com\/storelocator\/store-details\/dundas-street","fhrs:id":"256949","operator":"Heron","shop":"supermarket"}}, "geometry":{"type":"Point","coordinates":[-1.23552,54.57682 ]}},
{ "type":"Feature","properties":{"osm_id":"752366912","name":"Heron Foods","other":{"addr:city":"Middlesbough","addr:country":"GB","addr:housenumber":"449","addr:postcode":"TS5 6HX","addr:street":"Linthorpe Road","brand":"Heron Foods","brand:wikidata":"Q5743472","brand:wikipedia":"en:Heron Foods","contact:website":"https:\/\/heronfoods.com\/index.php\/storelocator\/store-details\/linthorpe","fhrs:id":"257623","shop":"supermarket"}}, "geometry":{"type":"Point","coordinates":[-1.24299,54.56071 ]}},
{ "type":"Feature","properties":{"osm_id":"752932158","name":"Home Bargins","other":{"operator":"TJ Morris","shop":"supermarket"}}, "geometry":{"type":"Point","coordinates":[-1.21674,54.5241 ]}},
{ "type":"Feature","properties":{"osm_id":"752932171","name":"Iceland","other":{"addr:housename":"Parkway Centre","addr:housenumber":"Unit 11","addr:postcode":"TS8 0TJ","alt_name":"Iceland Coulby Newham","brand":"Iceland","brand:wikidata":"Q721810","operator":"Iceland","shop":"supermarket"}}, "geometry":{"type":"Point","coordinates":[-1.2157,54.52474 ]}},
{ "type":"Feature","properties":{"osm_id":"1736126872","name":"Asda","other":{"addr:city":"Middlesbrough","addr:country":"GB","addr:postcode":"TS3 0DY","addr:street":"Ormesby Road","brand":"Asda","brand:wikidata":"Q297410","brand:wikipedia":"en:Asda","contact:facebook":"https:\/\/www.facebook.com\/asda\/","contact:twitter":"@asda","contact:website":"https:\/\/storelocator.asda.com\/north-east\/middlesbrough\/377-ormesby-road-park-end","fhrs:id":"257670","operator":"Asda Stores Ltd","shop":"supermarket"}}, "geometry":{"type":"Point","coordinates":[-1.19087,54.54916 ]}},
{ "type":"Feature","properties":{"osm_id":"3554536833","name":"Co-Op","other":{"shop":"supermarket"}}, "geometry":{"type":"Point","coordinates":[-1.24053,54.52563 ]}},
{ "type":"Feature","properties":{"osm_id":"6278489865","name":"Spar","other":{"brand":"Spar","brand:wikidata":"Q610492","brand:wikipedia":"en:Spar (retailer)","shop":"supermarket"}}, "geometry":{"type":"Point","coordinates":[-1.26202,54.53782 ]}},
{ "type":"Feature","properties":{"osm_id":"8195443125","name":"The Food Warehouse","other":{"brand":"The Food Warehouse","brand:wikidata":"Q87263899","shop":"supermarket","website":"https:\/\/www.thefoodwarehouse.com\/store-locator\/middlesbrough"}}, "geometry":{"type":"Point","coordinates":[-1.21253,54.57521 ]}},
{ "type":"Feature","properties":{"osm_way_id":"126758720","name":"Sainsbury's","building":"retail","shop":"supermarket","other":{"addr:city":"Middlesbrough","addr:country":"GB","addr:housenumber":"32","addr:postcode":"TS1 1RP","addr:street":"Wilson Street","brand":"Sainsbury's","brand:wikidata":"Q152096","brand:wikipedia":"en:Sainsbury's","building:cladding":"brick","building:levels":"1","building:use":"shop","fhrs:id":"257660","opening_hours":"Mo-Sa 08:00-20:00; Su 11:00-17:00","operator":"Sainsbury's","wheelchair":"yes"}}, "geometry":{"type":"MultiPolygon","coordinates":[[[[-1.24192,54.5766],[-1.24207,54.57655],[-1.24209,54.57656],[-1.24289,54.57626],[-1.24351,54.57681],[-1.24336,54.57687],[-1.24341,54.57691],[-1.24298,54.57707],[-1.24301,54.5771],[-1.24264,54.57724],[-1.24215,54.5768],[-1.24192,54.5766]]]]}},
{ "type":"Feature","properties":{"osm_way_id":"126795643","name":"Lidl","building":"yes","shop":"supermarket","other":{"addr:city":"Middlesbrough","addr:country":"GB","addr:postcode":"TS1 5PR","addr:street":"Newport Road","brand":"Lidl","brand:wikidata":"Q151954","brand:wikipedia":"en:Lidl","fhrs:id":"257455","operator":"Lidl"}}, "geometry":{"type":"MultiPolygon","coordinates":[[[[-1.25386,54.57127],[-1.25329,54.57085],[-1.25313,54.57093],[-1.25321,54.57098],[-1.25301,54.57108],[-1.2533,54.57129],[-1.25324,54.57132],[-1.25344,54.57146],[-1.25386,54.57127]]]]}},
{ "type":"Feature","properties":{"osm_way_id":"304199640","name":"Tesco Extra","shop":"supermarket","other":{"addr:city":"Middlesborough","addr:housename":"Parkway Centre","addr:postcode":"TS8 0TJ","alt_name":"Tesco Middlesbrough Coulby Newham Extra","brand":"Tesco Extra","brand:wikidata":"Q25172225","opening_hours":"Mo-Sa 06:30-22:30; Su 10:00-16:00"}}, "geometry":{"type":"MultiPolygon","coordinates":[[[[-1.21613,54.52503],[-1.21593,54.5249],[-1.21592,54.52486],[-1.21546,54.52485],[-1.21506,54.52485],[-1.21494,54.52476],[-1.21487,54.52479],[-1.21487,54.52485],[-1.21482,54.52485],[-1.2148,54.52552],[-1.21477,54.52561],[-1.21494,54.52559],[-1.21616,54.52561],[-1.21616,54.52541],[-1.21623,54.52541],[-1.21624,54.52504],[-1.21613,54.52503]]]]}},
{ "type":"Feature","properties":{"osm_way_id":"305999356","name":"Morrisons","building":"yes","shop":"supermarket","other":{"addr:city":"Middlesborough","addr:housename":"Berwick Hills Centre","addr:postcode":"TS3 7RP","addr:street":"Ormesby Road","brand":"Morrisons","brand:wikidata":"Q922344","brand:wikipedia":"en:Morrisons","website":"https:\/\/my.morrisons.com\/storefinder\/128"}}, "geometry":{"type":"MultiPolygon","coordinates":[[[[-1.20354,54.55929],[-1.20485,54.55977],[-1.2047,54.55991],[-1.20467,54.55989],[-1.20429,54.56024],[-1.20384,54.56007],[-1.20373,54.56017],[-1.20312,54.55994],[-1.20307,54.55998],[-1.20279,54.55987],[-1.20298,54.5597],[-1.20306,54.55973],[-1.20354,54.55929]]]]}},
{ "type":"Feature","properties":{"osm_way_id":"325217128","name":"ALDI","building":"retail","shop":"supermarket","other":{"brand":"ALDI","brand:wikidata":"Q41171672","brand:wikipedia":"en:Aldi","building:levels":"1","roof:shape":"gabled","wheelchair":"yes"}}, "geometry":{"type":"MultiPolygon","coordinates":[[[[-1.22223,54.55927],[-1.22205,54.559],[-1.2213,54.55917],[-1.22147,54.55944],[-1.22223,54.55927]]]]}},
{ "type":"Feature","properties":{"osm_way_id":"573259894","name":"Lidl","building":"retail","shop":"supermarket","other":{"addr:city":"Middlesbrough","addr:country":"GB","addr:postcode":"TS3 8AL","addr:street":"Cargo Fleet Lane","brand":"Lidl","brand:wikidata":"Q151954","brand:wikipedia":"en:Lidl","fhrs:id":"257544","opening_hours":"Mo-Sa 08:00-22:00; Su 10:00-16:00","operator":"Lidl"}}, "geometry":{"type":"MultiPolygon","coordinates":[[[[-1.20071,54.56946],[-1.20027,54.56962],[-1.20029,54.56908],[-1.20045,54.56922],[-1.20052,54.56919],[-1.20061,54.56927],[-1.20052,54.56929],[-1.20071,54.56946]]]]}},
{ "type":"Feature","properties":{"osm_way_id":"583761114","name":"Aldi","building":"yes","shop":"supermarket","other":{"addr:city":"Middlesborough","addr:postcode":"TS8 0TW","addr:street":"Dalby Way","brand":"ALDI","brand:wikidata":"Q41171672","brand:wikipedia":"en:Aldi","opening_hours":"Mo-Sa 08:00-22:00; Su 10:00-16:00"}}, "geometry":{"type":"MultiPolygon","coordinates":[[[[-1.21674,54.52208],[-1.21672,54.52263],[-1.21661,54.52262],[-1.21661,54.52265],[-1.21627,54.52265],[-1.21627,54.52244],[-1.21631,54.52244],[-1.21632,54.52212],[-1.2166,54.52212],[-1.2166,54.52208],[-1.21674,54.52208]]]]}},
{ "type":"Feature","properties":{"osm_way_id":"859677060","name":"Aldi","building":"yes","shop":"supermarket","other":{"addr:city":"Middlesbrough","addr:housenumber":"106a","addr:postcode":"TS1 5JF","addr:street":"Newport Road","brand":"ALDI","brand:wikidata":"Q41171672","brand:wikipedia":"en:Aldi","fhrs:id":"257445","source:addr":"FHRS Open Data"}}, "geometry":{"type":"MultiPolygon","coordinates":[[[[-1.24403,54.57507],[-1.24357,54.57469],[-1.24338,54.57476],[-1.24334,54.57473],[-1.24317,54.5748],[-1.24366,54.57522],[-1.24403,54.57507]]]]}}
]
}
