{
"type": "FeatureCollection",
"features": [
{ "type":"Feature","properties":{"osm_id":"28398733","name":"The Co-operative Food","other":{"addr:city":"Old Basing, Basingstoke","addr:postcode":"RG24 7HR","addr:street":"Linden Avenue","shop":"supermarket","website":"http:\/\/www.co-operativefood.co.uk","wheelchair":"yes"}}, "geometry":{"type":"Point","coordinates":[-1.04315,51.26565 ]}},
{ "type":"Feature","properties":{"osm_id":"224687495","name":"Tesco Express","other":{"brand":"Tesco Express","brand:wikidata":"Q98456772","contact:website":"https:\/\/www.tesco.com\/store-locator\/tadley\/heath-end-rd","opening_hours":"Mo-Su 06:00-22:00","shop":"supermarket"}}, "geometry":{"type":"Point","coordinates":[-1.16618,51.35651 ]}},
{ "type":"Feature","properties":{"osm_id":"252127103","name":"The Co-op","other":{"shop":"supermarket"}}, "geometry":{"type":"Point","coordinates":[-1.11052,51.25708 ]}},
{ "type":"Feature","properties":{"osm_id":"264330334","name":"The Co-operative Food","other":{"addr:postcode":"RG21 3AX","addr:street":"Grove Road","old_name":"Somerfield","operator":"The Co-operative Group","shop":"supermarket","website":"https:\/\/www.co-operative.coop\/food\/"}}, "geometry":{"type":"Point","coordinates":[-1.08088,51.25331 ]}},
{ "type":"Feature","properties":{"osm_id":"292613087","name":"Tesco Express","other":{"brand":"Tesco Express","brand:wikidata":"Q98456772","contact:website":"https:\/\/www.tesco.com\/store-locator\/basingstoke\/3-4-buckingham-parade","shop":"supermarket"}}, "geometry":{"type":"Point","coordinates":[-1.1384,51.24659 ]}},
{ "type":"Feature","properties":{"osm_id":"317846715","name":"The Co-Operative Food","other":{"addr:city":"Basingstoke","addr:housenumber":"57-58","addr:postcode":"RG22 4AQ","addr:street":"Broadmere Road","alt_name":"Southern Co-Operative","amenity":"post_office","loc_name":"The Co-Op","shop":"supermarket","website":"http:\/\/www.southern.coop\/"}}, "geometry":{"type":"Point","coordinates":[-1.14229,51.22959 ]}},
{ "type":"Feature","properties":{"osm_id":"451139603","name":"New Cash And Carry","other":{"shop":"supermarket"}}, "geometry":{"type":"Point","coordinates":[-1.08473,51.26246 ]}},
{ "type":"Feature","properties":{"osm_id":"494040293","name":"The Co-Operative","other":{"shop":"supermarket"}}, "geometry":{"type":"Point","coordinates":[-1.26286,51.24341 ]}},
{ "type":"Feature","properties":{"osm_id":"8195368146","name":"Lidl","other":{"addr:country":"GB","addr:housename":"Hatch Warren Retail Park","addr:postcode":"RG22 4TT","addr:street":"Wallop Drive","addr:unit":"1,2","brand":"Lidl","brand:wikidata":"Q151954","brand:wikipedia":"en:Lidl","fhrs:id":"1316965","shop":"supermarket"}}, "geometry":{"type":"Point","coordinates":[-1.1417,51.23441 ]}},
{ "type":"Feature","properties":{"osm_id":"8385469765","other":{"amenity":"loading_dock"}}, "geometry":{"type":"Point","coordinates":[-1.05824,51.28358 ]}},
{ "type":"Feature","properties":{"osm_id":"8590177567","other":{"amenity":"loading_dock"}}, "geometry":{"type":"Point","coordinates":[-1.06032,51.28358 ]}},
{ "type":"Feature","properties":{"osm_way_id":"23824886","name":"Morrisons","building":"yes","shop":"supermarket","other":{"addr:city":"Basingstoke","addr:country":"GB","addr:county":"Hampshire","addr:housename":"Thornycroft Industrial Estate","addr:postcode":"RG21 8BJ","addr:street":"Worting Road","brand":"Morrisons","brand:wikidata":"Q922344","brand:wikipedia":"en:Morrisons","fhrs:id":"89916"}}, "geometry":{"type":"MultiPolygon","coordinates":[[[[-1.104,51.26399],[-1.10402,51.26406],[-1.10399,51.26407],[-1.104,51.26412],[-1.10399,51.26413],[-1.10347,51.26417],[-1.10345,51.2641],[-1.10265,51.26417],[-1.10262,51.26406],[-1.10259,51.26389],[-1.10261,51.26388],[-1.1026,51.26385],[-1.10256,51.26385],[-1.10254,51.26378],[-1.10274,51.26376],[-1.10273,51.26368],[-1.10254,51.26369],[-1.10248,51.26341],[-1.10362,51.26332],[-1.10364,51.26334],[-1.10372,51.26339],[-1.10375,51.26354],[-1.10372,51.26357],[-1.10376,51.26379],[-1.10393,51.26377],[-1.10396,51.26394],[-1.10399,51.26394],[-1.104,51.26399]]]]}},
{ "type":"Feature","properties":{"osm_way_id":"25561486","name":"Asda","building":"yes","shop":"supermarket","other":{"addr:city":"Basingstoke","addr:country":"GB","addr:postcode":"RG22 4DH","addr:street":"Brighton Way","brand":"Asda","brand:wikidata":"Q297410","brand:wikipedia":"en:Asda","contact:facebook":"https:\/\/www.facebook.com\/asda\/","contact:twitter":"@asda","contact:website":"https:\/\/storelocator.asda.com\/south-east\/basingstoke\/brighton-way-brighton-hill","fhrs:id":"8567","operator":"Asda Stores Ltd"}}, "geometry":{"type":"MultiPolygon","coordinates":[[[[-1.11435,51.24424],[-1.11381,51.24391],[-1.11354,51.24376],[-1.1135,51.24379],[-1.11338,51.24372],[-1.11334,51.24367],[-1.11328,51.24364],[-1.1132,51.24361],[-1.11311,51.24359],[-1.11302,51.24363],[-1.11291,51.24369],[-1.1129,51.24376],[-1.11292,51.24382],[-1.11302,51.24385],[-1.11307,51.24388],[-1.11304,51.24396],[-1.1128,51.24415],[-1.11276,51.24427],[-1.11268,51.24433],[-1.11314,51.24459],[-1.1135,51.24481],[-1.11398,51.24448],[-1.11408,51.24454],[-1.11427,51.24442],[-1.11419,51.24436],[-1.11435,51.24424]]]]}},
{ "type":"Feature","properties":{"osm_way_id":"27806619","name":"Lidl","building":"retail","shop":"supermarket","other":{"addr:country":"GB","addr:postcode":"RG22 6PE","addr:street":"Worting Road","brand":"Lidl","brand:wikidata":"Q151954","fhrs:id":"840775"}}, "geometry":{"type":"MultiPolygon","coordinates":[[[[-1.11838,51.26249],[-1.11806,51.26251],[-1.11806,51.26255],[-1.11804,51.26256],[-1.11805,51.26267],[-1.11799,51.26267],[-1.11799,51.26275],[-1.11801,51.26286],[-1.11885,51.26284],[-1.11884,51.26264],[-1.1184,51.26265],[-1.11838,51.26249]]]]}},
{ "type":"Feature","properties":{"osm_way_id":"157921412","name":"M&S Foodhall","building":"retail","shop":"supermarket","other":{"brand":"M&S Foodhall","brand:wikidata":"Q714491","brand:wikipedia":"en:Marks & Spencer","wheelchair":"yes"}}, "geometry":{"type":"MultiPolygon","coordinates":[[[[-1.06059,51.28349],[-1.06032,51.28349],[-1.06032,51.28358],[-1.06032,51.28365],[-1.06032,51.28409],[-1.0606,51.28409],[-1.06059,51.28349]]]]}},
{ "type":"Feature","properties":{"osm_way_id":"157921420","name":"Tesco Basingstoke","building":"retail","shop":"supermarket","other":{"addr:postcode":"RG24 8BE","brand":"Tesco","brand:wikidata":"Q487494","brand:wikipedia":"en:Tesco","opening_hours":"Mo-Sa 06:00-00:00; Su 10:00-16:00","wheelchair":"yes"}}, "geometry":{"type":"MultiPolygon","coordinates":[[[[-1.05885,51.28414],[-1.05918,51.28414],[-1.05927,51.28409],[-1.059,51.28337],[-1.059,51.28314],[-1.05811,51.28314],[-1.05811,51.28321],[-1.05811,51.28339],[-1.05824,51.28339],[-1.05824,51.28358],[-1.05824,51.28393],[-1.05835,51.28393],[-1.05835,51.28413],[-1.05885,51.28414]]]]}},
{ "type":"Feature","properties":{"osm_way_id":"196412678","name":"Sainsbury's","building":"yes","shop":"supermarket","other":{"addr:housenumber":"3","addr:postcode":"RG22 4TW","addr:street":"Wallop Drive","brand":"Sainsbury's","brand:wikidata":"Q152096","brand:wikipedia":"en:Sainsbury's"}}, "geometry":{"type":"MultiPolygon","coordinates":[[[[-1.13985,51.23472],[-1.13962,51.23459],[-1.1383,51.23549],[-1.13907,51.23594],[-1.13914,51.23589],[-1.13934,51.236],[-1.14019,51.23542],[-1.14001,51.23532],[-1.14018,51.23521],[-1.13961,51.23488],[-1.13985,51.23472]]]]}},
{ "type":"Feature","properties":{"osm_way_id":"196416742","name":"One Stop","building":"yes","shop":"supermarket","other":{"addr:housenumber":"22","addr:postcode":"RG23 7JY","addr:street":"Oakley Way"}}, "geometry":{"type":"MultiPolygon","coordinates":[[[[-1.17841,51.24887],[-1.17839,51.24875],[-1.17813,51.24877],[-1.17815,51.24889],[-1.17841,51.24887]]]]}},
{ "type":"Feature","properties":{"osm_way_id":"236370652","name":"Sainsbury's","building":"yes","shop":"supermarket","other":{"addr:housenumber":"30a","addr:postcode":"RG26 3JE","addr:street":"Mulfords Hill","alt_name":"Sainsbury's Tadley Superstore","brand":"Sainsbury's","brand:wikidata":"Q152096","opening_hours":"Mo-Sa 07:00-22:00; Su 10:00-16:00","wheelchair":"yes"}}, "geometry":{"type":"MultiPolygon","coordinates":[[[[-1.14212,51.35574],[-1.14182,51.35585],[-1.14184,51.35587],[-1.14135,51.35604],[-1.14138,51.35607],[-1.14134,51.35608],[-1.14133,51.35607],[-1.14118,51.35612],[-1.14119,51.35613],[-1.14114,51.35615],[-1.14112,51.35613],[-1.14095,51.35613],[-1.14089,51.35615],[-1.14066,51.3559],[-1.14078,51.35586],[-1.14063,51.3557],[-1.14093,51.35559],[-1.14085,51.3555],[-1.14088,51.35549],[-1.14086,51.35546],[-1.14142,51.35527],[-1.14152,51.35539],[-1.14174,51.35531],[-1.14183,51.35541],[-1.14179,51.35542],[-1.14193,51.35558],[-1.14197,51.35557],[-1.14212,51.35574]]]]}},
{ "type":"Feature","properties":{"osm_way_id":"246561034","name":"One Stop","building":"retail","shop":"supermarket"},"geometry":{"type":"MultiPolygon","coordinates":[[[[-1.08368,51.28011],[-1.08342,51.28011],[-1.08343,51.28031],[-1.08374,51.28031],[-1.08385,51.28031],[-1.08385,51.2802],[-1.08368,51.28021],[-1.08368,51.28011]]]]}},
{ "type":"Feature","properties":{"osm_way_id":"247954180","name":"Nisa","building":"retail","shop":"supermarket","other":{"addr:postcode":"RG21 3NY","layer":"0","level":"0"}}, "geometry":{"type":"MultiPolygon","coordinates":[[[[-1.09966,51.25022],[-1.09974,51.25022],[-1.0998,51.25022],[-1.09979,51.25041],[-1.09966,51.25041],[-1.09966,51.25022]]]]}},
{ "type":"Feature","properties":{"osm_way_id":"281700203","name":"Tesco Express","building":"retail","shop":"supermarket","other":{"brand":"Tesco Express","brand:wikidata":"Q98456772","building:levels":"1"}}, "geometry":{"type":"MultiPolygon","coordinates":[[[[-1.05747,51.27685],[-1.05758,51.27658],[-1.05739,51.27655],[-1.05728,51.27681],[-1.05731,51.27682],[-1.05741,51.27684],[-1.05747,51.27685]]]]}},
{ "type":"Feature","properties":{"osm_way_id":"349187304","name":"Aldi","building":"retail","shop":"supermarket","other":{"brand":"ALDI","brand:wikidata":"Q41171672","brand:wikipedia":"en:Aldi","source:name":"seen on journey"}}, "geometry":{"type":"MultiPolygon","coordinates":[[[[-1.11309,51.27344],[-1.1126,51.27306],[-1.11293,51.2729],[-1.11314,51.27307],[-1.11321,51.27304],[-1.11347,51.27325],[-1.11309,51.27344]]]]}},
{ "type":"Feature","properties":{"osm_way_id":"472968016","name":"Tesco Express","building":"yes","shop":"supermarket","other":{"addr:postcode":"RG24 9DR","brand":"Tesco Express","brand:wikidata":"Q98456772","opening_hours":"Mo-Su 06:00-23:00","source:geometry":"bing"}}, "geometry":{"type":"MultiPolygon","coordinates":[[[[-1.08331,51.28718],[-1.08335,51.28706],[-1.0837,51.2871],[-1.08366,51.28722],[-1.08331,51.28718]]]]}},
{ "type":"Feature","properties":{"osm_way_id":"532084540","name":"Co-op Food","building":"yes","shop":"supermarket","other":{"brand":"Co-op Food","brand:wikidata":"Q3277439","brand:wikipedia":"en:Co-op Food","operator":"The Co-operative Group","operator:wikidata":"Q117202","operator:wikipedia":"en:The Co-operative Group"}}, "geometry":{"type":"MultiPolygon","coordinates":[[[[-1.33955,51.23002],[-1.3396,51.22995],[-1.33947,51.22991],[-1.33944,51.22992],[-1.33936,51.22986],[-1.3394,51.22985],[-1.33933,51.2298],[-1.33919,51.22987],[-1.33936,51.22998],[-1.33955,51.23002]]]]}},
{ "type":"Feature","properties":{"osm_way_id":"634196936","name":"ALDI","building":"retail","shop":"supermarket","other":{"addr:city":"Basingstoke","addr:housename":"Unit 1","addr:street":"St Michaels Retail Park","brand":"ALDI","brand:wikidata":"Q41171672","brand:wikipedia":"en:Aldi","source:addr":"till receipt","source:outline":"Bing"}}, "geometry":{"type":"MultiPolygon","coordinates":[[[[-1.10669,51.25049],[-1.10671,51.25031],[-1.10662,51.25031],[-1.10663,51.25021],[-1.10754,51.25023],[-1.10753,51.25051],[-1.10669,51.25049]]]]}},
{ "type":"Feature","properties":{"osm_way_id":"686198298","name":"Lidl","building":"yes","shop":"supermarket","other":{"addr:city":"Basingstoke","addr:country":"GB","addr:housename":"Gastons Wood","addr:postcode":"RG24 8TW","addr:street":"Reading Road","alt_name":"Lidl Chineham","brand":"Lidl","brand:wikidata":"Q151954","brand:wikipedia":"en:Lidl","fhrs:id":"842520","opening_hours:covid19":"open","operator":"Lidl","payment:cash":"yes","payment:credit_cards":"yes","payment:debit_cards":"yes","payment:visa":"yes"}}, "geometry":{"type":"MultiPolygon","coordinates":[[[[-1.0697,51.28353],[-1.06943,51.28349],[-1.06945,51.28345],[-1.06894,51.28338],[-1.069,51.28322],[-1.06893,51.28321],[-1.06897,51.28312],[-1.06981,51.28325],[-1.0697,51.28353]]]]}},
{ "type":"Feature","properties":{"osm_way_id":"997425538","name":"Waitrose","building":"yes","shop":"supermarket","other":{"air_conditioning":"yes","brand":"Waitrose","brand:wikidata":"Q771734","brand:wikipedia":"en:Waitrose","building:levels":"4","layer":"0","official_name":"Waitrose & Partners","opening_hours":"Mo-Sa 07:30-20:00; Su 10:00-16:00"}}, "geometry":{"type":"MultiPolygon","coordinates":[[[[-1.08244,51.26865],[-1.08277,51.26864],[-1.08315,51.26841],[-1.08311,51.26794],[-1.08311,51.2679],[-1.0831,51.26779],[-1.0831,51.26778],[-1.08116,51.2679],[-1.08118,51.26802],[-1.08122,51.26829],[-1.08128,51.26871],[-1.08244,51.26865]]]]}},
{ "type":"Feature","properties":{"osm_way_id":"1013734114","name":"The Food Warehouse","building":"yes","shop":"supermarket","other":{"brand":"The Food Warehouse","brand:wikidata":"Q87263899"}}, "geometry":{"type":"MultiPolygon","coordinates":[[[[-1.10723,51.25134],[-1.10724,51.25112],[-1.10661,51.25111],[-1.1066,51.25133],[-1.10723,51.25134]]]]}},
{ "type":"Feature","properties":{"osm_way_id":"1039681887","name":"Sainsbury's","shop":"supermarket","other":{"addr:city":"Basingstoke","addr:country":"GB","addr:county":"Hampshire","addr:housename":"Station Mall","addr:housenumber":"1,2","addr:postcode":"RG21 7DW","addr:street":"Station Mall","brand":"Sainsbury's","brand:wikidata":"Q152096","brand:wikipedia":"en:Sainsbury's","fhrs:id":"81314","layer":"-1","wheelchair":"yes"}}, "geometry":{"type":"MultiPolygon","coordinates":[[[[-1.08772,51.26736],[-1.08679,51.26741],[-1.08684,51.2677],[-1.08768,51.26766],[-1.08768,51.26767],[-1.08775,51.26766],[-1.08772,51.26736]]]]}}
]
}
