{
"type": "FeatureCollection",
"features": [
{ "type":"Feature","properties":{"osm_id":"667934708","name":"Sainsbury's","other":{"addr:housenumber":"635-641","addr:postcode":"BH1 4AP","addr:street":"Christchurch Road","brand":"Sainsbury's","brand:wikidata":"Q152096","brand:wikipedia":"en:Sainsbury's","fhrs:id":"495020","opening_hours":"Mo-Sa 07:00-20:00; Su 10:00-16:00","shop":"supermarket","source:addr":"FHRS Open Data"}}, "geometry":{"type":"Point","coordinates":[-1.83776,50.72689 ]}},
{ "type":"Feature","properties":{"osm_id":"742400475","name":"Lidl","other":{"addr:housenumber":"600","addr:postcode":"BH1 4SX","addr:street":"Christchurch Road","brand":"Lidl","brand:wikidata":"Q151954","brand:wikipedia":"en:Lidl","fhrs:id":"495479","opening_hours":"PH,Mo-Sa 08:00-20:00; Su 10:00-16:00","shop":"supermarket","source:addr":"FHRS Open Data"}}, "geometry":{"type":"Point","coordinates":[-1.84026,50.72739 ]}},
{ "type":"Feature","properties":{"osm_id":"742400476","name":"Wilko","other":{"addr:city":"Bournemouth","addr:housenumber":"600","addr:postcode":"BH1 4SX","addr:street":"Christchurch Road","addr:unit":"Sovereign Centre","brand:wikidata":"Q8002536","contact:website":"https:\/\/stores.wilko.com\/gb\/bournemouth\/christ-church-road","fhrs:authority":"Bournemouth, Christchurch and Poole","fhrs:id":"495477","fhrs:local_authority_id":"93088","opening_hours":"Mo-Sa 08:00-20:00; Su 10:00-16:00; PH 09:00-17:00","shop":"supermarket"}}, "geometry":{"type":"Point","coordinates":[-1.84074,50.72724 ]}},
{ "type":"Feature","properties":{"osm_id":"811977714","name":"Co-op Bearwood","other":{"opening_hours":"6-23","operator":"Co-op","shop":"supermarket"}}, "geometry":{"type":"Point","coordinates":[-1.93002,50.7676 ]}},
{ "type":"Feature","properties":{"osm_id":"1942686395","name":"The Co-operative Food","other":{"opening_hours":"Mo-Su 07:00-23:00","operator":"The Southern Co-operative Society","shop":"supermarket"}}, "geometry":{"type":"Point","coordinates":[-2.00317,50.74144 ]}},
{ "type":"Feature","properties":{"osm_id":"3100684254","name":"The Co-operative Food","other":{"addr:housenumber":"14","addr:postcode":"BH2 6BE","addr:street":"Queens Road","fhrs:id":"700416","opening_hours":"Mo-Sa 07:00-22:00, Su 07:00-22:00","operator":"The Co-operative Group","shop":"supermarket","source:addr":"FHRS Open Data","wheelchair":"yes"}}, "geometry":{"type":"Point","coordinates":[-1.89336,50.7219 ]}},
{ "type":"Feature","properties":{"osm_id":"3611551154","name":"Savers","other":{"addr:city":"Bournemouth","addr:housenumber":"600","addr:postcode":"BH1 4SX","addr:street":"Christchurch Road","addr:unit":"Unit 22 Sovereign Centre","fhrs:id":"495516","opening_hours":"Mo-Sa 08:00-17:30; Su 10:00-16:00","shop":"supermarket","source:addr":"FHRS Open Data"}}, "geometry":{"type":"Point","coordinates":[-1.83952,50.72737 ]}},
{ "type":"Feature","properties":{"osm_id":"3675070325","name":"Co-op Food","other":{"addr:housenumber":"382","addr:postcode":"BH8 8BN","addr:street":"Holdenhurst Road","brand":"Co-op Food","brand:wikidata":"Q3277439","brand:wikipedia":"en:Co-op Food","fhrs:id":"495156","opening_hours":"Mo-Su 07:00-23:00","operator":"The Co-operative Group","shop":"supermarket","source:addr":"FHRS Open Data"}}, "geometry":{"type":"Point","coordinates":[-1.85057,50.73255 ]}},
{ "type":"Feature","properties":{"osm_id":"3780930084","name":"Parkstone Delicatessen","other":{"addr:city":"Parkstone, Poole","addr:housenumber":"380","addr:postcode":"BH14 9DQ","addr:street":"Ashley Road","shop":"supermarket"}}, "geometry":{"type":"Point","coordinates":[-1.93841,50.72894 ]}},
{ "type":"Feature","properties":{"osm_id":"3780932593","name":"Polish Delicatessen","other":{"addr:city":"Parkstone, Poole","addr:housenumber":"298","addr:postcode":"BH14 9BZ","addr:street":"Ashley Road","shop":"supermarket"}}, "geometry":{"type":"Point","coordinates":[-1.93484,50.72866 ]}},
{ "type":"Feature","properties":{"osm_id":"6110131727","name":"Lidl","other":{"addr:postcode":"BH1 1EN","brand":"Lidl","brand:wikidata":"Q151954","brand:wikipedia":"en:Lidl","fhrs:id":"495491","opening_hours":"Mo-Sa 08:00-20:00; Su 10:30-16:30","shop":"supermarket","source:addr:postcode":"FHRS Open Data"}}, "geometry":{"type":"Point","coordinates":[-1.87587,50.72214 ]}},
{ "type":"Feature","properties":{"osm_id":"7499536547","man_made":"surveillance","other":{"camera:mount":"wall","camera:type":"dome","height":"3","surveillance":"public","surveillance:type":"camera"}}, "geometry":{"type":"Point","coordinates":[-1.99916,50.7428 ]}},
{ "type":"Feature","properties":{"osm_id":"7499536548","man_made":"surveillance","other":{"camera:mount":"wall","camera:type":"dome","height":"3","surveillance":"public","surveillance:type":"camera"}}, "geometry":{"type":"Point","coordinates":[-1.99887,50.7428 ]}},
{ "type":"Feature","properties":{"osm_id":"7499536549","man_made":"surveillance","other":{"camera:mount":"wall","camera:type":"dome","height":"3","surveillance":"public","surveillance:type":"camera"}}, "geometry":{"type":"Point","coordinates":[-1.99899,50.74288 ]}},
{ "type":"Feature","properties":{"osm_id":"7796503827","name":"Aldi","other":{"addr:postcode":"BH23 3RT","brand":"ALDI","brand:wikidata":"Q41171672","brand:wikipedia":"en:Aldi","shop":"supermarket","source:addr:postcode":"code-point_open"}}, "geometry":{"type":"Point","coordinates":[-1.74357,50.7406 ]}},
{ "type":"Feature","properties":{"osm_id":"9217077852","name":"Lidl","other":{"addr:country":"GB","addr:housename":"Christchurch Retail Park","addr:housenumber":"1A","addr:postcode":"BH23 2BN","addr:street":"Bailey Drive","brand":"Lidl","brand:wikidata":"Q151954","brand:wikipedia":"en:Lidl","fhrs:id":"1407752","shop":"supermarket","survey:date":"2021-08-31"}}, "geometry":{"type":"Point","coordinates":[-1.79171,50.73905 ]}},
{ "type":"Feature","properties":{"osm_id":"9370362068","name":"Malinka","other":{"opening_hours":"Mo-Su 07:00-23:00","shop":"supermarket"}}, "geometry":{"type":"Point","coordinates":[-1.8395,50.72671 ]}},
{ "type":"Feature","properties":{"osm_id":"9370406482","name":"Kubu≈°","other":{"shop":"supermarket"}}, "geometry":{"type":"Point","coordinates":[-1.8416,50.72611 ]}},
{ "type":"Feature","properties":{"osm_id":"9382464197","name":"Kinston Market","other":{"shop":"supermarket"}}, "geometry":{"type":"Point","coordinates":[-1.88574,50.71994 ]}},
{ "type":"Feature","properties":{"osm_id":"9431772446","name":"Royal Boscombe Supermarket","other":{"addr:housenumber":"689","addr:street":"Christchurch Road","shop":"supermarket"}}, "geometry":{"type":"Point","coordinates":[-1.83541,50.72755 ]}},
{ "type":"Feature","properties":{"osm_id":"9481781977","name":"Central","other":{"shop":"supermarket"}}, "geometry":{"type":"Point","coordinates":[-1.90988,50.75818 ]}},
{ "type":"Feature","properties":{"osm_way_id":"25102488","name":"Sainsbury's","building":"retail","shop":"supermarket","other":{"addr:housename":"Sainsbury's","brand":"Sainsbury's","brand:wikidata":"Q152096","building:levels":"2","opening_hours":"Mo-Fr 07:00-23:00; Sa 07:00-22:00,10:00-16:00","roof:levels":"0","roof:shape":"quadruple_saltbox"}}, "geometry":{"type":"MultiPolygon","coordinates":[[[[-1.74276,50.74431],[-1.74257,50.74418],[-1.74268,50.74411],[-1.74217,50.74375],[-1.74208,50.7438],[-1.74204,50.74377],[-1.74181,50.7439],[-1.74172,50.74384],[-1.74106,50.74422],[-1.74144,50.74448],[-1.74159,50.7444],[-1.74177,50.74453],[-1.74204,50.74472],[-1.74276,50.74431]]]]}},
{ "type":"Feature","properties":{"osm_way_id":"70844794","name":"Aldi","building":"yes","shop":"supermarket","other":{"brand":"ALDI","brand:wikidata":"Q41171672","brand:wikipedia":"en:Aldi","operator":"Aldi","wheelchair":"yes"}}, "geometry":{"type":"MultiPolygon","coordinates":[[[[-1.97736,50.71528],[-1.97747,50.71508],[-1.97818,50.71526],[-1.97804,50.71545],[-1.97736,50.71528]]]]}},
{ "type":"Feature","properties":{"osm_way_id":"71123836","name":"Sainsbury's","building":"yes","shop":"supermarket","other":{"branch":"Sainsburys Poole","brand":"Sainsbury's","brand:wikidata":"Q152096","brand:wikipedia":"en:Sainsbury's","operator":"J Sainsbury plc","wheelchair":"yes"}}, "geometry":{"type":"MultiPolygon","coordinates":[[[[-1.98136,50.71717],[-1.98137,50.71716],[-1.98144,50.71718],[-1.98147,50.71714],[-1.98148,50.71715],[-1.98161,50.71698],[-1.98159,50.71697],[-1.9819,50.71658],[-1.98197,50.7166],[-1.98201,50.71653],[-1.98136,50.71635],[-1.98128,50.71646],[-1.98104,50.71638],[-1.98071,50.71684],[-1.98064,50.71694],[-1.98097,50.71704],[-1.98096,50.71705],[-1.98136,50.71717]]]]}},
{ "type":"Feature","properties":{"osm_way_id":"100833798","name":"Tesco Extra","building":"yes","shop":"supermarket","other":{"addr:city":"Bournemouth","addr:country":"GB","addr:postcode":"BH7 7DY","addr:street":"Riverside Avenue","brand":"Tesco Extra","brand:wikidata":"Q25172225","brand:wikipedia":"en:Tesco Extra","contact:phone":"+44 3456 779094","contact:website":"https:\/\/www.tesco.com\/store-locator\/uk\/?bid=2164","fhrs:id":"495176","wheelchair":"yes"}}, "geometry":{"type":"MultiPolygon","coordinates":[[[[-1.81717,50.74526],[-1.81712,50.74524],[-1.81764,50.74475],[-1.81757,50.74472],[-1.81705,50.74521],[-1.81659,50.74502],[-1.81649,50.74511],[-1.81643,50.74509],[-1.81635,50.74511],[-1.81626,50.74508],[-1.81603,50.74529],[-1.81597,50.74527],[-1.81593,50.74532],[-1.81599,50.74534],[-1.81578,50.74554],[-1.8158,50.74572],[-1.81596,50.74579],[-1.81598,50.74578],[-1.81622,50.74588],[-1.81647,50.74599],[-1.8165,50.74596],[-1.81654,50.74598],[-1.81647,50.74604],[-1.81624,50.74606],[-1.81627,50.74615],[-1.8163,50.74614],[-1.81632,50.74621],[-1.81653,50.74618],[-1.81655,50.74626],[-1.81634,50.74628],[-1.8163,50.74632],[-1.81652,50.74641],[-1.81655,50.74638],[-1.81658,50.74637],[-1.8168,50.74635],[-1.81756,50.74564],[-1.81702,50.74541],[-1.81717,50.74526]]]]}},
{ "type":"Feature","properties":{"osm_way_id":"103175941","name":"Asda","building":"yes","shop":"supermarket","other":{"addr:city":"Bournemouth","addr:country":"GB","addr:postcode":"BH8 8DL","addr:street":"St Paul's Road","brand":"Asda","brand:wikidata":"Q297410","brand:wikipedia":"en:Asda","contact:facebook":"https:\/\/www.facebook.com\/asda\/","contact:twitter":"@asda","contact:website":"https:\/\/storelocator.asda.com\/south-west\/bournemouth\/st-pauls-road","fhrs:id":"495388","internet_access":"wlan","operator":"Asda Stores Ltd"}}, "geometry":{"type":"MultiPolygon","coordinates":[[[[-1.8639,50.72647],[-1.86411,50.72655],[-1.86417,50.72646],[-1.86435,50.72626],[-1.86453,50.72605],[-1.86487,50.72618],[-1.86495,50.7261],[-1.86535,50.72624],[-1.86537,50.72621],[-1.86597,50.72644],[-1.86593,50.72648],[-1.86613,50.72655],[-1.86613,50.72657],[-1.8661,50.7266],[-1.86618,50.72662],[-1.86621,50.72668],[-1.86616,50.72672],[-1.8662,50.72673],[-1.86616,50.72677],[-1.86619,50.72678],[-1.86615,50.72681],[-1.86618,50.72683],[-1.86607,50.72695],[-1.86557,50.72678],[-1.86545,50.72693],[-1.86467,50.72665],[-1.86426,50.72671],[-1.86394,50.7266],[-1.86389,50.72661],[-1.86383,50.72659],[-1.86382,50.72657],[-1.86384,50.72654],[-1.86389,50.72653],[-1.86393,50.72649],[-1.86389,50.72648],[-1.8639,50.72647]]]]}},
{ "type":"Feature","properties":{"osm_way_id":"103687451","name":"Lidl","building":"yes","shop":"supermarket","other":{"addr:city":"Bournemouth","addr:postcode":"BH8 8DH","addr:street":"Holdenhurst Road","brand":"Lidl","brand:wikidata":"Q151954","brand:wikipedia":"en:Lidl","fhrs:id":"1252068","opening_hours":"Mo-Sa 07:00-22:00, Su 10:00 - 16:00","operator":"Lidl","payment:cash":"yes","payment:coins":"yes","payment:contactless":"yes","payment:credit_cards":"yes","payment:debit_cards":"yes","payment:mastercard":"yes","payment:notes":"yes","payment:visa":"yes","payment:visa_debit":"yes","payment:visa_electron":"yes"}}, "geometry":{"type":"MultiPolygon","coordinates":[[[[-1.86159,50.72746],[-1.86184,50.72718],[-1.86231,50.72735],[-1.86245,50.72739],[-1.8622,50.72768],[-1.86159,50.72746]]]]}},
{ "type":"Feature","properties":{"osm_way_id":"104137112","name":"Sainsbury's","building":"yes","shop":"supermarket","other":{"brand":"Sainsbury's","brand:wikidata":"Q152096","brand:wikipedia":"en:Sainsbury's","operator":"Sainsbury's"}}, "geometry":{"type":"MultiPolygon","coordinates":[[[[-1.91217,50.73844],[-1.91212,50.7383],[-1.91234,50.73826],[-1.91228,50.73812],[-1.91214,50.73815],[-1.91212,50.7381],[-1.91191,50.73806],[-1.91198,50.73789],[-1.91184,50.73787],[-1.91182,50.73791],[-1.91156,50.73788],[-1.91149,50.73807],[-1.91121,50.73803],[-1.91089,50.73872],[-1.91086,50.73879],[-1.91109,50.73883],[-1.91129,50.73887],[-1.91127,50.73892],[-1.91199,50.73904],[-1.91228,50.73909],[-1.91255,50.73914],[-1.91258,50.73907],[-1.91254,50.73903],[-1.91259,50.73902],[-1.91257,50.73896],[-1.91262,50.73895],[-1.91259,50.73889],[-1.91254,50.73889],[-1.91249,50.73873],[-1.9124,50.73858],[-1.91242,50.73852],[-1.9124,50.73849],[-1.91217,50.73844]]]]}},
{ "type":"Feature","properties":{"osm_way_id":"106647096","name":"Waitrose","building":"retail","shop":"supermarket","other":{"addr:city":"Poole","addr:country":"GB","addr:housenumber":"311-313","addr:postcode":"BH14 0AP","addr:street":"Ashley Road","alt_name":"Waitrose Parkstone","brand":"Waitrose & Partners","brand:wikidata":"Q771734","brand:wikipedia":"en:Waitrose & Partners","contact:phone":"+44 1202 718 051","contact:website":"http:\/\/www.waitrose.com\/content\/waitrose\/en\/bf_home\/bf\/766.html","opening_hours":"Mo-Sa 08:00-20:00; Su 10:00-16:00","operator":"Waitrose & Partners","source:addr":"website","source:geometry":"Bing","wheelchair":"yes"}}, "geometry":{"type":"MultiPolygon","coordinates":[[[[-1.93959,50.72872],[-1.93961,50.72862],[-1.93964,50.72861],[-1.93969,50.72825],[-1.93919,50.72821],[-1.93914,50.7285],[-1.93909,50.72849],[-1.93905,50.72868],[-1.93959,50.72872]]]]}},
{ "type":"Feature","properties":{"osm_way_id":"109562048","name":"M&S Simply Food","building":"yes","shop":"supermarket","other":{"addr:city":"Westbourne, Bournemouth","addr:housenumber":"56","addr:postcode":"BH4 9AS","addr:street":"Seymoor Road","brand":"M&S Simply Food","brand:wikidata":"Q714491","brand:wikipedia":"en:Marks & Spencer","fhrs:id":"494534","opening_hours":"Mo-Sa 08:00-21:00; Su 10:30-16:30","website":"https:\/\/www.marksandspencer.com\/stores\/westbourne-simply-food-4019"}}, "geometry":{"type":"MultiPolygon","coordinates":[[[[-1.90482,50.72306],[-1.90481,50.7229],[-1.90486,50.72287],[-1.90506,50.72286],[-1.90506,50.72284],[-1.90544,50.72282],[-1.90545,50.7229],[-1.90542,50.7229],[-1.90543,50.72297],[-1.90534,50.72298],[-1.90534,50.72304],[-1.90482,50.72306]]]]}},
{ "type":"Feature","properties":{"osm_way_id":"117384516","name":"Tesco","building":"yes","shop":"supermarket","other":{"addr:city":"Branksome","addr:postcode":"BH12 1AU","addr:street":"Poole Road","alt_name":"Tesco Poole Branksome Superstore","brand":"Tesco","brand:wikidata":"Q487494","brand:wikipedia":"en:Tesco","operator":"Tesco","website":"https:\/\/www.tesco.com\/store-locator\/poole\/poole-rd"}}, "geometry":{"type":"MultiPolygon","coordinates":[[[[-1.91412,50.72491],[-1.91402,50.72511],[-1.91348,50.72499],[-1.91338,50.72518],[-1.91336,50.72517],[-1.91334,50.7252],[-1.91321,50.72518],[-1.91323,50.72515],[-1.91311,50.72512],[-1.91327,50.72482],[-1.91325,50.72481],[-1.91331,50.72471],[-1.91335,50.72472],[-1.9135,50.72446],[-1.91361,50.72448],[-1.9136,50.72451],[-1.91433,50.72468],[-1.9142,50.72493],[-1.91412,50.72491]]]]}},
{ "type":"Feature","properties":{"osm_way_id":"121716481","name":"Sainsbury's","building":"yes","shop":"supermarket","other":{"addr:postcode":"BH8 9UW","addr:street":"Castle Lane West","brand":"Sainsbury's","brand:wikidata":"Q152096","brand:wikipedia":"en:Sainsbury's","fhrs:id":"495517","source:addr":"FHRS Open Data"}}, "geometry":{"type":"MultiPolygon","coordinates":[[[[-1.84472,50.75262],[-1.84486,50.75249],[-1.8451,50.75259],[-1.84534,50.75209],[-1.84531,50.75208],[-1.84536,50.75203],[-1.84531,50.75201],[-1.84544,50.75189],[-1.84477,50.7516],[-1.84452,50.75183],[-1.844,50.75231],[-1.84409,50.75236],[-1.84472,50.75262]]]]}},
{ "type":"Feature","properties":{"osm_way_id":"121716488","name":"Asda","building":"yes","shop":"supermarket","other":{"addr:city":"Bournemouth","addr:country":"GB","addr:housename":"Castlepoint","addr:postcode":"BH8 9UN","addr:street":"Castle Lane West","brand":"Asda","brand:wikidata":"Q297410","brand:wikipedia":"en:Asda","contact:facebook":"https:\/\/www.facebook.com\/asda\/","contact:twitter":"@asda","contact:website":"https:\/\/storelocator.asda.com\/south-west\/bournemouth\/castle-lane-west","fhrs:id":"494434","operator":"Asda Stores Ltd"}}, "geometry":{"type":"MultiPolygon","coordinates":[[[[-1.84037,50.75315],[-1.83935,50.7527],[-1.83881,50.7532],[-1.83906,50.75331],[-1.83893,50.75344],[-1.83924,50.75356],[-1.83928,50.75351],[-1.83933,50.75353],[-1.8394,50.75346],[-1.83983,50.75365],[-1.84037,50.75315]]]]}},
{ "type":"Feature","properties":{"osm_way_id":"123481337","name":"Tesco Extra, Tower Park","building":"yes","shop":"supermarket","other":{"brand":"Tesco Extra","brand:wikidata":"Q25172225","brand:wikipedia":"en:Tesco Extra","contact:website":"https:\/\/www.tesco.com\/store-locator\/poole\/yarrow-rd","operator":"Tesco","wheelchair":"yes"}}, "geometry":{"type":"MultiPolygon","coordinates":[[[[-1.94981,50.74914],[-1.95005,50.74878],[-1.95017,50.74881],[-1.95034,50.74857],[-1.95039,50.74859],[-1.95043,50.74853],[-1.95081,50.74864],[-1.95085,50.74858],[-1.95046,50.74847],[-1.95049,50.74843],[-1.9504,50.7484],[-1.95053,50.74822],[-1.95039,50.74818],[-1.95037,50.74817],[-1.94951,50.74794],[-1.9488,50.74899],[-1.9488,50.74904],[-1.94906,50.74911],[-1.94916,50.74897],[-1.94981,50.74914]]]]}},
{ "type":"Feature","properties":{"osm_way_id":"127110403","name":"Central Express","building":"yes","shop":"supermarket","other":{"opening_hours":"Mo-Su 06:30-22:00"}}, "geometry":{"type":"MultiPolygon","coordinates":[[[[-1.90356,50.72226],[-1.90349,50.72237],[-1.90348,50.72238],[-1.90351,50.72239],[-1.90352,50.72237],[-1.90362,50.7224],[-1.90361,50.72241],[-1.90363,50.72242],[-1.90366,50.72239],[-1.90374,50.7223],[-1.90356,50.72226]]]]}},
{ "type":"Feature","properties":{"osm_way_id":"135478346","name":"ALDI","building":"yes","shop":"supermarket","other":{"addr:postcode":"BH15 3BZ","addr:street":"Fleets Lane","brand":"ALDI","brand:wikidata":"Q41171672","brand:wikipedia":"en:Aldi","wheelchair":"yes"}}, "geometry":{"type":"MultiPolygon","coordinates":[[[[-1.98695,50.73801],[-1.98742,50.73804],[-1.9875,50.73752],[-1.98753,50.73752],[-1.98754,50.73747],[-1.98703,50.73744],[-1.98695,50.73801]]]]}},
{ "type":"Feature","properties":{"osm_way_id":"135789439","name":"Lidl","building":"retail","shop":"supermarket","other":{"addr:housenumber":"937","addr:postcode":"BH11 8LY","addr:street":"Ringwood Road","brand":"Lidl","brand:wikidata":"Q151954","brand:wikipedia":"en:Lidl","building:levels":"1","fhrs:id":"495370","opening_hours":"Mo-Sa 07:00-22:00; Su 10:00-16:00","roof:levels":"0","roof:shape":"gabled","source:addr":"FHRS Open Data"}}, "geometry":{"type":"MultiPolygon","coordinates":[[[[-1.92536,50.75871],[-1.92516,50.75863],[-1.92517,50.75862],[-1.92478,50.75848],[-1.92498,50.75828],[-1.92502,50.75824],[-1.92519,50.7583],[-1.92561,50.75845],[-1.92536,50.75871]]]]}},
{ "type":"Feature","properties":{"osm_way_id":"137483020","name":"Asda","building":"yes","shop":"supermarket","other":{"addr:postcode":"BH15 1JQ","addr:street":"West Quay Road","brand":"Asda","brand:wikidata":"Q297410","brand:wikipedia":"en:Asda","contact:facebook":"https:\/\/www.facebook.com\/asda\/","contact:twitter":"@asda","contact:website":"https:\/\/storelocator.asda.com\/south-west\/poole\/west-quay-rd","operator":"Asda Stores Ltd","wheelchair":"yes"}}, "geometry":{"type":"MultiPolygon","coordinates":[[[[-1.98692,50.71818],[-1.98605,50.71841],[-1.98598,50.71843],[-1.98595,50.71843],[-1.98593,50.71844],[-1.98591,50.71844],[-1.98588,50.71844],[-1.98586,50.71844],[-1.98584,50.71843],[-1.98579,50.71842],[-1.98577,50.71841],[-1.98576,50.7184],[-1.98574,50.71839],[-1.9857,50.71833],[-1.98558,50.71814],[-1.9855,50.71802],[-1.98545,50.71795],[-1.98548,50.7179],[-1.98563,50.71781],[-1.98573,50.71775],[-1.98606,50.71759],[-1.98633,50.71748],[-1.98663,50.7174],[-1.987,50.71732],[-1.98717,50.71754],[-1.98721,50.71753],[-1.98754,50.71744],[-1.98777,50.71782],[-1.98686,50.71807],[-1.98692,50.71818]]]]}},
{ "type":"Feature","properties":{"osm_way_id":"138523323","name":"Tesco Extra, Fleets Corner","building":"yes","shop":"supermarket","other":{"brand":"Tesco Extra","brand:wikidata":"Q25172225","brand:wikipedia":"en:Tesco Extra","opening_hours":"Mo 06:00-24:00; Tu-Sa 00:00-24:00; Su 10:00-16:00","operator":"Tesco","wheelchair":"yes"}}, "geometry":{"type":"MultiPolygon","coordinates":[[[[-1.99039,50.74053],[-1.99046,50.74052],[-1.99065,50.74088],[-1.99009,50.741],[-1.98997,50.74077],[-1.98943,50.74088],[-1.98941,50.74086],[-1.9892,50.7409],[-1.98887,50.74024],[-1.99012,50.73999],[-1.99039,50.74053]]]]}},
{ "type":"Feature","properties":{"osm_way_id":"150071689","name":"Co-op Food","building":"yes","shop":"supermarket","other":{"brand":"Co-op Food","brand:wikidata":"Q3277439","brand:wikipedia":"en:Co-op Food"}}, "geometry":{"type":"MultiPolygon","coordinates":[[[[-1.90046,50.75881],[-1.90039,50.75908],[-1.90018,50.75905],[-1.90025,50.75879],[-1.90046,50.75881]]]]}},
{ "type":"Feature","properties":{"osm_way_id":"188255748","name":"Lidl","building":"yes","shop":"supermarket","other":{"addr:city":"Christchurch","addr:country":"GB","addr:housenumber":"81","addr:postcode":"BH23 3PP","addr:street":"Somerford Road","brand":"Lidl","brand:wikidata":"Q151954","brand:wikipedia":"en:Lidl","fhrs:id":"1351988"}}, "geometry":{"type":"MultiPolygon","coordinates":[[[[-1.7518,50.73758],[-1.75119,50.73781],[-1.75114,50.73777],[-1.75097,50.73783],[-1.7504,50.73724],[-1.75045,50.73722],[-1.75031,50.73706],[-1.75092,50.73682],[-1.75104,50.73678],[-1.75157,50.73734],[-1.7518,50.73758]]]]}},
{ "type":"Feature","properties":{"osm_way_id":"198247913","name":"Lidl","building":"yes","shop":"supermarket","other":{"addr:city":"Poole","addr:country":"GB","addr:housenumber":"446","addr:postcode":"BH16 5BL","addr:street":"Blandford Road","brand":"Lidl","brand:wikidata":"Q151954","brand:wikipedia":"en:Lidl","fhrs:id":"1352698"}}, "geometry":{"type":"MultiPolygon","coordinates":[[[[-2.018,50.72826],[-2.01754,50.7282],[-2.01759,50.728],[-2.01749,50.72799],[-2.01757,50.7277],[-2.01807,50.72775],[-2.01799,50.72802],[-2.01798,50.72807],[-2.01805,50.72808],[-2.018,50.72826]]]]}},
{ "type":"Feature","properties":{"osm_way_id":"199423481","name":"M&S Foodhall","building":"yes","shop":"supermarket","other":{"addr:city":"Broadstone","addr:housenumber":"182","addr:postcode":"BH18 8DP","addr:street":"Lower Blandford Road","brand":"M&S Foodhall","brand:wikidata":"Q714491","brand:wikipedia":"en:Marks & Spencer"}}, "geometry":{"type":"MultiPolygon","coordinates":[[[[-1.9938,50.75965],[-1.99369,50.75969],[-1.99361,50.75972],[-1.99341,50.75951],[-1.9936,50.75944],[-1.9938,50.75965]]]]}},
{ "type":"Feature","properties":{"osm_way_id":"199801415","name":"Aldi","building":"yes","shop":"supermarket","other":{"addr:housenumber":"257-263","addr:postcode":"BH8 8NT","addr:street":"Holdenhurst Road","brand":"ALDI","brand:wikidata":"Q41171672","brand:wikipedia":"en:Aldi","fhrs:id":"494491","opening_hours":"Mo-Sa 08:00-22:00; Su 10:00-16:00","source:addr":"FHRS Open Data"}}, "geometry":{"type":"MultiPolygon","coordinates":[[[[-1.85542,50.73134],[-1.85528,50.73141],[-1.85532,50.73145],[-1.85517,50.73152],[-1.85466,50.73111],[-1.85474,50.73107],[-1.85469,50.73103],[-1.85494,50.7309],[-1.85512,50.73104],[-1.85508,50.73106],[-1.85542,50.73134]]]]}},
{ "type":"Feature","properties":{"osm_way_id":"203757489","name":"The Co-operative Food","building":"retail","shop":"supermarket","other":{"addr:city":"Parkstone, Poole","addr:country":"GB","addr:housenumber":"346","addr:postcode":"BH14 9DF","addr:street":"Ashley Road","brand":"Co-op Food","brand:wikidata":"Q3277439","brand:wikipedia":"en:Co-op Food","int_name":"The Co-op","opening_hours":"Mo-Sa 07:00-22:00; Su 10:00-16:00","operator":"The Co-operative Group","source:addr":"survey","source:geometry":"Bing","wheelchair":"yes"}}, "geometry":{"type":"MultiPolygon","coordinates":[[[[-1.93661,50.72878],[-1.93643,50.72935],[-1.93684,50.72938],[-1.93687,50.72918],[-1.93676,50.72917],[-1.93684,50.72883],[-1.93685,50.72878],[-1.93661,50.72878]]]]}},
{ "type":"Feature","properties":{"osm_way_id":"222903486","name":"Aldi","building":"apartments","shop":"supermarket","other":{"addr:housenumber":"9-23","addr:postcode":"BH1 4DB","addr:street":"Palmerston Road","brand":"ALDI","brand:wikidata":"Q41171672","brand:wikipedia":"en:Aldi","building:levels":"2","fhrs:id":"494485","opening_hours":"Mo-Sa 08:00-22:00; Su 10:00-16:00; PH 08:00-20:00","roof:levels":"0","roof:shape":"flat","source:addr":"FHRS Open Data"}}, "geometry":{"type":"MultiPolygon","coordinates":[[[[-1.84166,50.72685],[-1.84208,50.72673],[-1.84236,50.72713],[-1.84194,50.72725],[-1.84166,50.72685]]]]}},
{ "type":"Feature","properties":{"osm_way_id":"227069658","name":"Lidl","building":"yes","shop":"supermarket","other":{"addr:city":"Branksome","addr:country":"GB","addr:housenumber":"427","addr:postcode":"BH12 1DQ","addr:street":"Poole Road","alt_name":"LIDL Branksome","brand":"Lidl","brand:wikidata":"Q151954","brand:wikipedia":"en:Lidl","fhrs:id":"1352813","opening_hours":"Mo-Sa 08:00-22:00; Su 10:00-16:00"}}, "geometry":{"type":"MultiPolygon","coordinates":[[[[-1.9196,50.72625],[-1.92021,50.72638],[-1.92023,50.72634],[-1.92035,50.72637],[-1.92032,50.72641],[-1.92038,50.72642],[-1.92031,50.72659],[-1.92023,50.72669],[-1.91952,50.72653],[-1.9195,50.72656],[-1.91943,50.72655],[-1.9196,50.72625]]]]}},
{ "type":"Feature","properties":{"osm_way_id":"233059915","name":"The Co-operative Food","building":"yes","shop":"supermarket","other":{"addr:housenumber":"967-975","addr:postcode":"BH9 2BN","addr:street":"Wimborne Road","fhrs:id":"495338","source:addr":"FHRS Open Data"}}, "geometry":{"type":"MultiPolygon","coordinates":[[[[-1.87414,50.75538],[-1.87354,50.75516],[-1.8737,50.75499],[-1.87372,50.755],[-1.87376,50.75497],[-1.87383,50.75499],[-1.8738,50.75503],[-1.87386,50.75505],[-1.87394,50.75496],[-1.87439,50.75513],[-1.87414,50.75538]]]]}},
{ "type":"Feature","properties":{"osm_way_id":"233177478","name":"Lidl","building":"yes","shop":"supermarket","other":{"addr:housenumber":"376-384","addr:postcode":"BH9 2HE","addr:street":"Wimborne Road","brand":"Lidl","brand:wikidata":"Q151954","brand:wikipedia":"en:Lidl","fhrs:id":"495492","source:addr":"FHRS Open Data"}}, "geometry":{"type":"MultiPolygon","coordinates":[[[[-1.87925,50.7415],[-1.87954,50.74152],[-1.87967,50.74153],[-1.87975,50.74154],[-1.87976,50.74147],[-1.87983,50.74148],[-1.87978,50.74172],[-1.87972,50.74171],[-1.87969,50.74185],[-1.87962,50.74184],[-1.87962,50.74187],[-1.87931,50.74187],[-1.87923,50.74184],[-1.8792,50.7418],[-1.87919,50.74177],[-1.8792,50.74174],[-1.87925,50.7415]]]]}},
{ "type":"Feature","properties":{"osm_way_id":"247222420","name":"Co-op Food","building":"yes","shop":"supermarket","other":{"addr:city":"Bournemouth","addr:country":"GB","addr:housenumber":"170","addr:postcode":"BH5 2JB","addr:street":"Seabourne Road","brand":"Co-op Food","brand:wikidata":"Q3277439","brand:wikipedia":"en:Co-op Food","fhrs:id":"495009","operator":"The Co-operative Group"}}, "geometry":{"type":"MultiPolygon","coordinates":[[[[-1.81833,50.7274],[-1.8182,50.72734],[-1.81835,50.72721],[-1.81851,50.72706],[-1.81864,50.72715],[-1.81833,50.7274]]]]}},
{ "type":"Feature","properties":{"osm_way_id":"312315501","name":"Asda","building":"yes","shop":"supermarket","other":{"addr:city":"Poole","addr:country":"GB","addr:postcode":"BH17 9DW","addr:street":"Culliford Crescent","brand":"Asda","brand:wikidata":"Q297410","brand:wikipedia":"en:Asda","contact:facebook":"https:\/\/www.facebook.com\/asda\/","contact:twitter":"@asda","contact:website":"https:\/\/storelocator.asda.com\/south-west\/poole\/culliford-crescent-canford-heath","fhrs:id":"567386","operator":"Asda Stores Ltd"}}, "geometry":{"type":"MultiPolygon","coordinates":[[[[-1.96684,50.75224],[-1.96639,50.75184],[-1.96692,50.75161],[-1.96738,50.75199],[-1.96735,50.75201],[-1.96739,50.75204],[-1.9674,50.75205],[-1.96734,50.75207],[-1.96729,50.75203],[-1.96684,50.75224]]]]}},
{ "type":"Feature","properties":{"osm_way_id":"313048854","name":"Iceland","building":"yes","shop":"supermarket","other":{"brand":"Iceland","brand:wikidata":"Q721810"}}, "geometry":{"type":"MultiPolygon","coordinates":[[[[-1.96507,50.74187],[-1.96487,50.74195],[-1.96485,50.74195],[-1.96479,50.74189],[-1.96459,50.74168],[-1.96475,50.74163],[-1.96483,50.7416],[-1.96507,50.74187]]]]}},
{ "type":"Feature","properties":{"osm_way_id":"313182776","name":"Lidl","building":"yes","shop":"supermarket","other":{"addr:city":"Poole","addr:country":"GB","addr:housenumber":"2-6","addr:postcode":"BH17 7LQ","addr:street":"Hatch Pond Road","brand":"Lidl","brand:wikidata":"Q151954","brand:wikipedia":"en:Lidl","fhrs:id":"1352164","operator":"Lidl"}}, "geometry":{"type":"MultiPolygon","coordinates":[[[[-1.98431,50.74388],[-1.98409,50.74384],[-1.98411,50.7438],[-1.98345,50.74369],[-1.98352,50.74352],[-1.98345,50.74351],[-1.98348,50.74345],[-1.98443,50.74361],[-1.98431,50.74388]]]]}},
{ "type":"Feature","properties":{"osm_way_id":"323702584","name":"Aldi","building":"yes","shop":"supermarket","other":{"addr:housenumber":"262-268","addr:postcode":"BH10 4HZ","addr:street":"Wallisdown Road","brand":"ALDI","brand:wikidata":"Q41171672","brand:wikipedia":"en:Aldi","fhrs:id":"495461","source:addr":"FHRS Open Data"}}, "geometry":{"type":"MultiPolygon","coordinates":[[[[-1.90965,50.74675],[-1.90974,50.74678],[-1.90966,50.74691],[-1.90925,50.74682],[-1.90949,50.74641],[-1.90957,50.74639],[-1.90983,50.74645],[-1.90973,50.74661],[-1.90965,50.74675]]]]}},
{ "type":"Feature","properties":{"osm_way_id":"363325248","name":"The Co-operative Food","building":"yes","shop":"supermarket","other":{"operator":"The Co-operative Group"}}, "geometry":{"type":"MultiPolygon","coordinates":[[[[-1.99901,50.74266],[-1.99918,50.74279],[-1.99916,50.7428],[-1.99899,50.74288],[-1.99898,50.74289],[-1.99887,50.7428],[-1.99885,50.74279],[-1.99899,50.74272],[-1.99895,50.74269],[-1.99901,50.74266]]]]}},
{ "type":"Feature","properties":{"osm_way_id":"363326269","name":"Co-op Food","building":"retail","shop":"supermarket","other":{"brand":"Co-op Food","brand:wikidata":"Q3277439","brand:wikipedia":"en:Co-op Food","opening_hours":"07:00-23:00","operator":"The Co-operative Group","operator:wikidata":"Q117202","operator:wikipedia":"en:The Co-operative Group"}}, "geometry":{"type":"MultiPolygon","coordinates":[[[[-1.97801,50.72493],[-1.97796,50.72504],[-1.9778,50.72501],[-1.97778,50.72505],[-1.97761,50.72502],[-1.97767,50.72488],[-1.97778,50.7249],[-1.9778,50.72486],[-1.97793,50.72489],[-1.97792,50.72491],[-1.97801,50.72493]]]]}},
{ "type":"Feature","properties":{"osm_way_id":"363327153","name":"The Co-operative Food","building":"yes","shop":"supermarket","other":{"addr:housenumber":"200-204","addr:postcode":"BH15 4BH","addr:street":"Blandford Road","atm":"yes","delivery":"no","operator":"The Co-operative Group","website":"https:\/\/www.co-operative.coop\/"}}, "geometry":{"type":"MultiPolygon","coordinates":[[[[-2.00727,50.71662],[-2.00719,50.71652],[-2.00694,50.71661],[-2.00689,50.71654],[-2.00679,50.71658],[-2.00693,50.71676],[-2.00724,50.71667],[-2.00727,50.71662]]]]}},
{ "type":"Feature","properties":{"osm_way_id":"363327279","name":"Co-op Food","building":"yes","shop":"supermarket","other":{"brand":"Co-op Food","brand:wikidata":"Q3277439","brand:wikipedia":"en:Co-op Food"}}, "geometry":{"type":"MultiPolygon","coordinates":[[[[-1.94624,50.70995],[-1.94606,50.71002],[-1.94601,50.70996],[-1.94597,50.70998],[-1.94587,50.70988],[-1.94606,50.70979],[-1.9462,50.70992],[-1.94624,50.70995]]]]}},
{ "type":"Feature","properties":{"osm_way_id":"363327902","name":"Co-op Food","building":"yes","shop":"supermarket","other":{"brand":"Co-op Food","brand:wikidata":"Q3277439","brand:wikipedia":"en:Co-op Food","operator":"The Co-operative Group"}}, "geometry":{"type":"MultiPolygon","coordinates":[[[[-1.93813,50.74046],[-1.93806,50.74061],[-1.93787,50.74058],[-1.93782,50.74054],[-1.93788,50.74041],[-1.93813,50.74046]]]]}},
{ "type":"Feature","properties":{"osm_way_id":"435862874","name":"Tesco","building":"yes","shop":"supermarket","other":{"addr:housenumber":"1585","addr:postcode":"BH10 7BB","addr:street":"Wimborne Road","brand":"Tesco","brand:wikidata":"Q487494","brand:wikipedia":"en:Tesco","fhrs:id":"723706","opening_hours":"Mo-Sa 06:00-23:00; Su 10:00-16:00","source:addr":"FHRS Open Data"}}, "geometry":{"type":"MultiPolygon","coordinates":[[[[-1.89977,50.76957],[-1.89998,50.76906],[-1.89923,50.76893],[-1.89927,50.76883],[-1.89913,50.76881],[-1.89907,50.76892],[-1.89888,50.76939],[-1.8991,50.76944],[-1.8991,50.76946],[-1.89977,50.76957]]]]}},
{ "type":"Feature","properties":{"osm_way_id":"454694878","name":"No 1 South African Shop","building":"yes","shop":"supermarket","other":{"addr:city":"Christchurch","addr:housenumber":"5","addr:postcode":"BH23 2RR","addr:street":"Marlow Drive"}}, "geometry":{"type":"MultiPolygon","coordinates":[[[[-1.80226,50.75619],[-1.80233,50.75616],[-1.8025,50.7563],[-1.80244,50.75633],[-1.80243,50.75632],[-1.8023,50.75622],[-1.80226,50.75619]]]]}},
{ "type":"Feature","properties":{"osm_way_id":"454856874","name":"Waitrose","building":"retail","shop":"supermarket","other":{"addr:city":"Christchurch","addr:housenumber":"33","addr:postcode":"BH23 1QD","addr:street":"Bargates","brand":"Waitrose","brand:wikidata":"Q771734","brand:wikipedia":"en:Waitrose","building:levels":"1","official_name":"Waitrose & Partners","opening_hours":"Mo-Sa 08:00-20:00; Su 10:00-16:00","operator":"Waitrose & Partners","phone":"+44 1202 496682","roof:levels":"1","roof:shape":"hipped","website":"https:\/\/www.waitrose.com\/bf_home\/bf\/754.html"}}, "geometry":{"type":"MultiPolygon","coordinates":[[[[-1.7787,50.73688],[-1.77839,50.73701],[-1.77816,50.73678],[-1.77822,50.73676],[-1.77796,50.7365],[-1.77794,50.73651],[-1.77789,50.73647],[-1.77787,50.73648],[-1.77775,50.73636],[-1.77829,50.73614],[-1.77831,50.73616],[-1.77842,50.73627],[-1.77874,50.73659],[-1.7785,50.73669],[-1.7787,50.73688]]]]}},
{ "type":"Feature","properties":{"osm_way_id":"571638495","name":"ALDI","building":"yes","shop":"supermarket","other":{"addr:postcode":"BH8 9PE","addr:street":"Mallard Road","brand":"ALDI","brand:wikidata":"Q41171672","brand:wikipedia":"en:Aldi","fhrs:id":"1012858","source:addr":"FHRS Open Data"}}, "geometry":{"type":"MultiPolygon","coordinates":[[[[-1.84706,50.74836],[-1.84671,50.74815],[-1.84627,50.74845],[-1.84662,50.74866],[-1.84706,50.74836]]]]}},
{ "type":"Feature","properties":{"osm_way_id":"744644902","name":"The Food Warehouse","building":"yes","shop":"supermarket","other":{"addr:city":"Poole","addr:parentstreet":"Yarrow Road","addr:place":"Tower Retail Park","addr:postcode":"BH12 4QY","brand":"The Food Warehouse","brand:wikidata":"Q87263899","fhrs:id":"1156559","source:addr":"FHRS Open Data","source:addr:postcode":"code-point_open","website":"https:\/\/www.thefoodwarehouse.com\/store-locator\/poole"}}, "geometry":{"type":"MultiPolygon","coordinates":[[[[-1.955,50.74307],[-1.95472,50.74295],[-1.95522,50.74242],[-1.95552,50.74253],[-1.955,50.74307]]]]}},
{ "type":"Feature","properties":{"osm_way_id":"842345726","name":"Co-op Food","building":"yes","shop":"supermarket","other":{"addr:city":"Highcliffe","addr:street":"Lymington Road","brand":"Co-op Food","brand:wikidata":"Q3277439","brand:wikipedia":"en:Co-op Food","operator":"Co-op"}}, "geometry":{"type":"MultiPolygon","coordinates":[[[[-1.69946,50.74144],[-1.69965,50.74141],[-1.69951,50.74113],[-1.69948,50.74108],[-1.69908,50.74117],[-1.69912,50.74125],[-1.69936,50.7412],[-1.69942,50.74134],[-1.69946,50.74144]]]]}},
{ "type":"Feature","properties":{"osm_way_id":"911430877","name":"Londis","building":"yes","shop":"supermarket","other":{"addr:housenumber":"875","addr:street":"Harrow Road","brand":"Londis","brand:wikidata":"Q21008564","brand:wikipedia":"en:Londis (United Kingdom)","phone":"+44 20 8969 2389","website":"https:\/\/www.londis.co.uk\/our-stores\/londis-london-20"}}, "geometry":{"type":"MultiPolygon","coordinates":[[[[-0.23855,51.53226],[-0.23874,51.53229],[-0.23876,51.53224],[-0.23871,51.53214],[-0.23859,51.53212],[-0.23858,51.53215],[-0.23859,51.53215],[-0.23855,51.53226]]]]}},
{ "type":"Feature","properties":{"osm_way_id":"931373295","name":"Seoul Plaza","building":"yes","shop":"supermarket","other":{"addr:city":"Bournemouth","addr:housenumber":"6","addr:postcode":"BH9 1BH","addr:street":"Cardigan Road","fhrs:id":"1174985","source:addr":"FHRS Open Data"}}, "geometry":{"type":"MultiPolygon","coordinates":[[[[-1.87862,50.74149],[-1.87861,50.74153],[-1.87863,50.74154],[-1.8786,50.74164],[-1.87833,50.7416],[-1.87834,50.74155],[-1.87839,50.7414],[-1.87864,50.74143],[-1.87862,50.74149]]]]}},
{ "type":"Feature","properties":{"osm_way_id":"931373301","name":"Tina","building":"yes","shop":"supermarket"},"geometry":{"type":"MultiPolygon","coordinates":[[[[-1.8794,50.7408],[-1.87941,50.74074],[-1.87942,50.74074],[-1.8797,50.74076],[-1.87969,50.74081],[-1.87959,50.7408],[-1.87959,50.74082],[-1.8794,50.7408]]]]}},
{ "type":"Feature","properties":{"osm_way_id":"931373316","name":"Waitrose","building":"yes","shop":"supermarket","other":{"addr:housenumber":"345-353","addr:postcode":"BH9 2AD","addr:street":"Wimborne Road","brand":"Waitrose","brand:wikidata":"Q771734","brand:wikipedia":"en:Waitrose & Partners","fhrs:id":"495240","official_name":"Waitrose & Partners","operator":"Waitrose & Partners","source:addr":"FHRS Open Data"}}, "geometry":{"type":"MultiPolygon","coordinates":[[[[-1.87912,50.74101],[-1.87888,50.74097],[-1.87825,50.74088],[-1.87827,50.74083],[-1.87834,50.74083],[-1.87837,50.74072],[-1.87845,50.74073],[-1.87847,50.74067],[-1.87887,50.74073],[-1.87911,50.74076],[-1.87917,50.74077],[-1.87912,50.74101]]]]}}
]
}
