{
"type": "FeatureCollection",
"features": [
{ "type":"Feature","properties":{"osm_id":"3830502684","name":"Sainsbury's Local","other":{"addr:city":"Worcester","addr:housenumber":"46-48","addr:postcode":"WR1 1HU","addr:street":"Barbourne Road","brand:wikidata":"Q13218434","fhrs:id":"730860","opening_hours":"Mo-Su 07:00-23:00","shop":"supermarket","source:addr":"FHRS Open Data"}}, "geometry":{"type":"Point","coordinates":[-2.22666,52.20423 ]}},
{ "type":"Feature","properties":{"osm_id":"4142713990","name":"Crowngate shopping centre","other":{"shop":"supermarket"}}, "geometry":{"type":"Point","coordinates":[-2.22216,52.19233 ]}},
{ "type":"Feature","properties":{"osm_id":"7679787161","name":"Aldi","other":{"brand":"ALDI","brand:wikidata":"Q41171672","brand:wikipedia":"en:Aldi","shop":"supermarket"}}, "geometry":{"type":"Point","coordinates":[-2.21757,52.16592 ]}},
{ "type":"Feature","properties":{"osm_id":"9082302617","name":"M&S Foodhall","other":{"brand":"M&S Foodhall","brand:wikidata":"Q714491","brand:wikipedia":"en:Marks & Spencer","shop":"supermarket"}}, "geometry":{"type":"Point","coordinates":[-2.21968,52.1918 ]}},
{ "type":"Feature","properties":{"osm_way_id":"49012086","name":"Sainsbury's","building":"yes","shop":"supermarket","other":{"addr:city":"Worcester","addr:postcode":"WR2 4EL","addr:street":"Swanpool Walk","branch":"Worcester St John's Superstore","brand":"Sainsbury's","brand:wikidata":"Q152096","brand:wikipedia":"en:Sainsbury's","fhrs:id":"751212","opening_hours":"Mo-Sa 08:00-22:00; Su 11:00-17:00","operator":"Sainsbury's","wheelchair":"yes"}}, "geometry":{"type":"MultiPolygon","coordinates":[[[[-2.23297,52.18703],[-2.23325,52.18687],[-2.23345,52.18676],[-2.23384,52.1867],[-2.23387,52.18679],[-2.23392,52.18679],[-2.23424,52.18699],[-2.23368,52.1873],[-2.23372,52.18733],[-2.23377,52.18737],[-2.23359,52.18747],[-2.2335,52.18741],[-2.23343,52.18745],[-2.2329,52.18708],[-2.23297,52.18703]]]]}},
{ "type":"Feature","properties":{"osm_way_id":"54629947","name":"Tesco","building":"supermarket","shop":"supermarket","other":{"addr:postcode":"WR4 0UJ","addr:street":"Mill Wood Drive","alt_name":"Tesco Worcester Warndon Superstore","brand":"Tesco","brand:wikidata":"Q487494","brand:wikipedia":"en:Tesco","fhrs:id":"685611","source:addr":"FHRS Open Data"}}, "geometry":{"type":"MultiPolygon","coordinates":[[[[-2.18038,52.19905],[-2.18037,52.19883],[-2.17896,52.19886],[-2.17899,52.19937],[-2.17885,52.19937],[-2.17888,52.19963],[-2.17888,52.19965],[-2.17905,52.19965],[-2.17907,52.19963],[-2.17906,52.1996],[-2.17942,52.19958],[-2.17953,52.1995],[-2.18003,52.1995],[-2.1801,52.19948],[-2.18011,52.19906],[-2.18038,52.19905]]]]}},
{ "type":"Feature","properties":{"osm_way_id":"55027633","name":"Tesco","building":"yes","shop":"supermarket","other":{"addr:city":"Worcester","addr:postcode":"WR5 3SW","addr:street":"St Peter's Drive","branch":"Worcester Superstore","brand":"Tesco","brand:wikidata":"Q487494","brand:wikipedia":"en:Tesco","fhrs:id":"685520","opening_hours":"Mo-Sa 06:00-24:00 Su 10:00-16:00","operator":"Tesco","source:addr":"FHRS Open Data"}}, "geometry":{"type":"MultiPolygon","coordinates":[[[[-2.20537,52.17109],[-2.20565,52.17105],[-2.2057,52.17118],[-2.20589,52.17116],[-2.20581,52.17094],[-2.20573,52.17095],[-2.2057,52.17088],[-2.20559,52.17089],[-2.20556,52.1708],[-2.20507,52.17086],[-2.20505,52.17081],[-2.20409,52.17093],[-2.20429,52.17152],[-2.20448,52.1715],[-2.2047,52.17147],[-2.20497,52.17143],[-2.205,52.17152],[-2.20538,52.17147],[-2.20536,52.17142],[-2.20548,52.17141],[-2.20537,52.17109]]]]}},
{ "type":"Feature","properties":{"osm_way_id":"66770953","name":"Aldi","building":"yes","shop":"supermarket","other":{"addr:city":"Worcester","addr:postcode":"WR2 5BA","addr:street":"Tybridge Street","branch":"Worcester","brand":"ALDI","brand:wikidata":"Q41171672","brand:wikipedia":"en:Aldi","fhrs:id":"879246","opening_hours":"Mo-Sa 08:00-22:00; Su 10:00-16:00","toilets":"yes","toilets:wheelchair":"yes","wheelchair":"yes"}}, "geometry":{"type":"MultiPolygon","coordinates":[[[[-2.23148,52.19059],[-2.23183,52.19088],[-2.23118,52.19118],[-2.23083,52.19089],[-2.23148,52.19059]]]]}},
{ "type":"Feature","properties":{"osm_way_id":"92551978","name":"Spar","building":"yes","shop":"supermarket","other":{"addr:city":"Worcester","addr:housenumber":"4","addr:postcode":"WR4 9PA","addr:street":"Cranham Drive","brand":"Spar","brand:wikidata":"Q610492","brand:wikipedia":"en:SPAR (retailer)","fhrs:id":"685375","source:addr":"FHRS Open Data"}}, "geometry":{"type":"MultiPolygon","coordinates":[[[[-2.18722,52.2093],[-2.18704,52.20929],[-2.18678,52.20923],[-2.18688,52.20906],[-2.18708,52.20911],[-2.18727,52.20914],[-2.18722,52.2093]]]]}},
{ "type":"Feature","properties":{"osm_way_id":"92552006","name":"The Co-operative Food","building":"yes","shop":"supermarket","other":{"brand":"The Co-operative Food","fhrs:id":"908881","operator":"The Co-operative Society","addr:city":"Worcester","addr:street":"Ambleside Drive","source:addr":"FHRS Open Data","addr:postcode":"WR4 9DA","brand:wikidata":"Q3277439","brand:wikipedia":"en:Co-op Food","addr:housenumber":"29"}}, "geometry":{"type":"MultiPolygon","coordinates":[[[[-2.19166,52.20371],[-2.19178,52.20394],[-2.19157,52.20399],[-2.19152,52.2039],[-2.19139,52.20392],[-2.19135,52.20385],[-2.19142,52.20383],[-2.19138,52.20377],[-2.19166,52.20371]]]]}},
{ "type":"Feature","properties":{"osm_way_id":"93084900","name":"Sainsbury's","building":"yes","shop":"supermarket","other":{"atm":"yes","brand":"Sainsbury's","fhrs:id":"685548","alt_name":"Sainsbury's Blackpole Superstore","addr:city":"Worcester","addr:street":"Windermere Drive","source:addr":"FHRS Open Data","addr:postcode":"WR4 9JN","brand:wikidata":"Q152096","brand:wikipedia":"en:Sainsbury's"}}, "geometry":{"type":"MultiPolygon","coordinates":[[[[-2.19514,52.21163],[-2.19639,52.21168],[-2.19639,52.21165],[-2.19649,52.21165],[-2.1965,52.21154],[-2.19639,52.21153],[-2.19642,52.21118],[-2.19518,52.21113],[-2.19514,52.21163]]]]}},
{ "type":"Feature","properties":{"osm_way_id":"93237919","name":"Lidl","building":"yes","shop":"supermarket","other":{"addr:country":"GB","addr:postcode":"WR5 1HG","addr:street":"Newtown Road","brand":"Lidl","brand:wikidata":"Q151954","brand:wikipedia":"en:Lidl","fhrs:id":"685462"}}, "geometry":{"type":"MultiPolygon","coordinates":[[[[-2.20537,52.19456],[-2.20549,52.19481],[-2.2047,52.19498],[-2.20465,52.1949],[-2.20474,52.19488],[-2.20466,52.19474],[-2.20519,52.19463],[-2.20517,52.1946],[-2.20537,52.19456]]]]}},
{ "type":"Feature","properties":{"osm_way_id":"107344816","name":"The Co-operative","building":"yes","shop":"supermarket","other":{"fhrs:id":"685472","addr:city":"Worcester","addr:street":"Ombersley Road","addr:postcode":"WR3 7EU","addr:housenumber":"44-46"}}, "geometry":{"type":"MultiPolygon","coordinates":[[[[-2.22651,52.21039],[-2.22652,52.21023],[-2.22583,52.21021],[-2.22582,52.21037],[-2.22651,52.21039]]]]}},
{ "type":"Feature","properties":{"osm_way_id":"174337587","name":"Co-op Food","building":"yes","shop":"supermarket","other":{"addr:city":"Worcester","addr:housenumber":"197","addr:postcode":"WR5 3AH","addr:street":"Bath Road","brand":"Co-op Food","brand:wikidata":"Q3277439","brand:wikipedia":"en:Co-op Food","fhrs:id":"685570","source:addr":"FHRS Open Data"}}, "geometry":{"type":"MultiPolygon","coordinates":[[[[-2.21392,52.17735],[-2.21387,52.17725],[-2.21357,52.17731],[-2.21362,52.17741],[-2.21392,52.17735]]]]}},
{ "type":"Feature","properties":{"osm_way_id":"266153424","name":"Asda","building":"retail","shop":"supermarket","other":{"addr:city":"Worcester","addr:country":"GB","addr:postcode":"WR1 2DA","addr:street":"Silver Street","alt_name":"ASDA Worcester Supercentre","brand":"Asda","brand:wikidata":"Q297410","brand:wikipedia":"en:Asda","contact:facebook":"https:\/\/www.facebook.com\/asda\/","contact:twitter":"@asda","contact:website":"https:\/\/storelocator.asda.com\/west-midlands\/worcester\/silver-street","fhrs:id":"685682","operator":"Asda Stores Ltd"}}, "geometry":{"type":"MultiPolygon","coordinates":[[[[-2.21781,52.19372],[-2.21789,52.19387],[-2.21812,52.19416],[-2.21795,52.19421],[-2.21767,52.19424],[-2.21762,52.1942],[-2.21693,52.19421],[-2.21693,52.19429],[-2.21666,52.19429],[-2.21666,52.19426],[-2.21655,52.19426],[-2.21653,52.19388],[-2.21627,52.19393],[-2.2162,52.19381],[-2.21646,52.19375],[-2.21638,52.19363],[-2.21644,52.19362],[-2.21643,52.1936],[-2.21644,52.19359],[-2.21648,52.19355],[-2.21652,52.19355],[-2.21652,52.19352],[-2.21668,52.19351],[-2.21668,52.19354],[-2.21726,52.19354],[-2.21726,52.19351],[-2.21734,52.19346],[-2.21771,52.19346],[-2.21781,52.19372]]]]}},
{ "type":"Feature","properties":{"osm_way_id":"266741791","name":"Co-op Food","building":"yes","shop":"supermarket","other":{"brand":"Co-op Food","brand:wikidata":"Q3277439","brand:wikipedia":"en:Co-op Food"}}, "geometry":{"type":"MultiPolygon","coordinates":[[[[-2.19056,52.19271],[-2.1904,52.19277],[-2.19023,52.19262],[-2.19039,52.19256],[-2.19056,52.19271]]]]}},
{ "type":"Feature","properties":{"osm_way_id":"266954648","name":"The Co-operative","building":"yes","shop":"supermarket","other":{"fhrs:id":"685360","addr:city":"Worcester","wheelchair":"yes","addr:street":"Canada Way","addr:postcode":"WR2 4XA","addr:housenumber":"63-65","toilets:wheelchair":"no"}}, "geometry":{"type":"MultiPolygon","coordinates":[[[[-2.24105,52.17387],[-2.24102,52.17387],[-2.24106,52.17398],[-2.24146,52.17392],[-2.24142,52.17381],[-2.24125,52.17384],[-2.24105,52.17387]]]]}},
{ "type":"Feature","properties":{"osm_way_id":"267326098","name":"Co-op Food","building":"retail","shop":"supermarket","other":{"addr:city":"Worcester","addr:housenumber":"8-10","addr:postcode":"WR2 5AH","addr:street":"The Bullring, St Johns","branch":"Worcester - St Johns","brand":"Co-op Food","brand:wikidata":"Q3277439","brand:wikipedia":"en:Co-op Food","fhrs:id":"778555","opening_hours":"Mo-Sa 06:00-22:00 Su 10:00-16:00","wheelchair":"yes"}}, "geometry":{"type":"MultiPolygon","coordinates":[[[[-2.23379,52.18867],[-2.23379,52.18866],[-2.23368,52.18869],[-2.23367,52.18868],[-2.23358,52.1887],[-2.23359,52.18871],[-2.23351,52.18873],[-2.23358,52.18883],[-2.23353,52.18884],[-2.23356,52.18888],[-2.23351,52.1889],[-2.23343,52.18892],[-2.23371,52.18928],[-2.2339,52.18923],[-2.23421,52.18914],[-2.23419,52.18911],[-2.23435,52.18907],[-2.23407,52.1887],[-2.23405,52.18871],[-2.23401,52.18872],[-2.23394,52.18874],[-2.23388,52.18864],[-2.23379,52.18867]]]]}},
{ "type":"Feature","properties":{"osm_way_id":"390585756","name":"Aldi","building":"retail","shop":"supermarket","other":{"addr:postcode":"WR1 2DZ","addr:street":"Pheasant Street","brand":"ALDI","brand:wikidata":"Q41171672","brand:wikipedia":"en:Aldi","fhrs:id":"685445"}}, "geometry":{"type":"MultiPolygon","coordinates":[[[[-2.21531,52.19521],[-2.21578,52.19508],[-2.21551,52.19472],[-2.21534,52.19468],[-2.21499,52.19479],[-2.21531,52.19521]]]]}},
{ "type":"Feature","properties":{"osm_way_id":"442565952","name":"Waitrose","building":"supermarket","shop":"supermarket","other":{"addr:city":"Worcester","addr:housenumber":"223","addr:postcode":"WR5 2JG","addr:street":"London Road","brand":"Waitrose","brand:wikidata":"Q771734","brand:wikipedia":"en:Waitrose & Partners","fhrs:id":"872052","official_name":"Waitrose & Partners","operator":"Waitrose & Partners","source:addr":"FHRS Open Data"}}, "geometry":{"type":"MultiPolygon","coordinates":[[[[-2.19515,52.18244],[-2.19506,52.18259],[-2.19483,52.18255],[-2.19475,52.18274],[-2.19499,52.18278],[-2.19489,52.18304],[-2.19564,52.18315],[-2.19568,52.18304],[-2.19576,52.18302],[-2.19582,52.18286],[-2.19594,52.18262],[-2.19599,52.18252],[-2.19553,52.1823],[-2.19543,52.18249],[-2.19515,52.18244]]]]}},
{ "type":"Feature","properties":{"osm_way_id":"539104371","name":"The Co-operative Food","building":"yes","shop":"supermarket"},"geometry":{"type":"MultiPolygon","coordinates":[[[[-2.23697,52.196],[-2.23693,52.1959],[-2.23677,52.19592],[-2.2368,52.19602],[-2.23697,52.196]]]]}},
{ "type":"Feature","properties":{"osm_way_id":"691290063","name":"Lidl","building":"yes","shop":"supermarket","other":{"addr:country":"GB","addr:postcode":"WR4 9HY","addr:street":"Windermere Drive","brand":"Lidl","brand:wikidata":"Q151954","brand:wikipedia":"en:Lidl","fhrs:id":"854787","wheelchair":"yes"}}, "geometry":{"type":"MultiPolygon","coordinates":[[[[-2.198,52.2128],[-2.19773,52.21276],[-2.19771,52.21281],[-2.19748,52.21277],[-2.19774,52.21211],[-2.19823,52.21218],[-2.198,52.2128]]]]}},
{ "type":"Feature","properties":{"osm_way_id":"793530489","name":"Co-op Food","building":"retail","shop":"supermarket","other":{"brand":"Co-op Food","brand:wikidata":"Q3277439","brand:wikipedia":"en:Co-op Food","opening_hours":"Mo-Su 07:00-23:00","operator":"The Co-operative Wholesale Society"}}, "geometry":{"type":"MultiPolygon","coordinates":[[[[-2.2125,52.20433],[-2.21242,52.2042],[-2.21214,52.20427],[-2.2123,52.20452],[-2.21246,52.20449],[-2.21238,52.20436],[-2.2125,52.20433]]]]}}
]
}
