{
"type": "FeatureCollection",
"features": [
{ "type":"Feature","properties":{"osm_id":"29382251","name":"Budgens","other":{"addr:city":"Waddington","addr:country":"GB","addr:postcode":"LN5 9SA","addr:street":"Bar Lane","brand":"Budgens","brand:wikidata":"Q4985016","brand:wikipedia":"en:Budgens","fhrs:id":"295645","shop":"supermarket"}}, "geometry":{"type":"Point","coordinates":[-0.53929,53.16641 ]}},
{ "type":"Feature","properties":{"osm_id":"60456777","name":"Spar","other":{"brand":"Spar","brand:wikidata":"Q610492","brand:wikipedia":"en:Spar (retailer)","shop":"supermarket"}}, "geometry":{"type":"Point","coordinates":[-0.53181,53.16872 ]}},
{ "type":"Feature","properties":{"osm_id":"503418747","name":"Lincolnshire Co-op","other":{"addr:city":"Skellingthorpe","addr:housenumber":"2","addr:street":"Jerusalem Road","operator":"Lincolnshire Co-operative","shop":"supermarket","website":"https:\/\/www.lincolnshire.coop\/branches\/food-stores\/skellingthorpe-food-store"}}, "geometry":{"type":"Point","coordinates":[-0.61929,53.23569 ]}},
{ "type":"Feature","properties":{"osm_id":"1881803401","name":"Lincolnshire Co-op","other":{"operator":"Lincolnshire Co-operative Society","shop":"supermarket"}}, "geometry":{"type":"Point","coordinates":[-0.5251,53.10696 ]}},
{ "type":"Feature","properties":{"osm_id":"2137924807","other":{"amenity":"post_box"}}, "geometry":{"type":"Point","coordinates":[-0.53501,53.19597 ]}},
{ "type":"Feature","properties":{"osm_id":"2631287886","name":"Spar","other":{"addr:country":"GB","addr:housenumber":"257","addr:postcode":"LN6 8QE","addr:street":"Newark Road","brand":"Spar","brand:wikidata":"Q610492","brand:wikipedia":"en:Spar (retailer)","shop":"supermarket"}}, "geometry":{"type":"Point","coordinates":[-0.5952,53.18897 ]}},
{ "type":"Feature","properties":{"osm_id":"5028186385","name":"Co-op","other":{"addr:city":"North Hykeham","addr:postcode":"LN6 9YH","addr:street":"Severus Crescent","operator":"The Co-operative Group","shop":"supermarket","source:addr":"Food hygiene open data"}}, "geometry":{"type":"Point","coordinates":[-0.60176,53.17826 ]}},
{ "type":"Feature","properties":{"osm_way_id":"143415097","name":"Lidl","building":"yes","shop":"supermarket","other":{"addr:city":"Sleaford","addr:country":"GB","addr:postcode":"NG34 7AQ","addr:street":"North Gate","alt_name":"LIDL Sleaford","brand":"Lidl","brand:wikidata":"Q151954","brand:wikipedia":"en:Lidl","fhrs:id":"295751","opening_hours":"Mo-Sa 08:00-20:00; Su 10:00-16:00","website":"https:\/\/www.lidl.co.uk\/"}}, "geometry":{"type":"MultiPolygon","coordinates":[[[[-0.4133,53.00431],[-0.41291,53.00437],[-0.41298,53.00454],[-0.41305,53.00453],[-0.41321,53.00493],[-0.41361,53.00487],[-0.41354,53.00468],[-0.41361,53.00467],[-0.41357,53.00458],[-0.41349,53.00459],[-0.41339,53.00435],[-0.41331,53.00436],[-0.4133,53.00431]]]]}},
{ "type":"Feature","properties":{"osm_way_id":"143415143","name":"Tesco","building":"yes","shop":"supermarket","other":{"addr:city":"Sleaford","addr:country":"GB","addr:housenumber":"65","addr:postcode":"NG34 7BB","addr:street":"North Gate","alt_name":"tesco Sleaford Superstore","brand":"Tesco","brand:wikidata":"Q487494","brand:wikipedia":"en:Tesco","opening_hours":"Mo 06:00-24:00; Tu-Sa 00:00-24:00; Su 10:00-16:00","operator":"Tesco","phone":"+44 845 6779613","website":"https:\/\/www.tesco.com\/store-locator\/sleaford\/65-northgate"}}, "geometry":{"type":"MultiPolygon","coordinates":[[[[-0.4119,53.001],[-0.4119,53.00098],[-0.41202,53.00097],[-0.41202,53.00099],[-0.41273,53.00096],[-0.41276,53.00125],[-0.41278,53.00125],[-0.41282,53.00157],[-0.4122,53.0016],[-0.4122,53.00161],[-0.41188,53.00163],[-0.41185,53.00137],[-0.41186,53.00137],[-0.41186,53.0013],[-0.41189,53.0013],[-0.41186,53.001],[-0.4119,53.001]]]]}},
{ "type":"Feature","properties":{"osm_way_id":"143418061","name":"Sainsbury's","building":"yes","shop":"supermarket","other":{"addr:city":"Sleaford","addr:housenumber":"21","addr:postcode":"NG34 7PD","addr:street":"Riverside Shopping Centre","alt_name":"Sainsbury's Sleaford Superstore","brand":"Sainsbury's","brand:wikidata":"Q152096","brand:wikipedia":"en:Sainsbury's"}}, "geometry":{"type":"MultiPolygon","coordinates":[[[[-0.41209,52.99819],[-0.41138,52.99823],[-0.41135,52.99807],[-0.41121,52.99808],[-0.41119,52.99794],[-0.41209,52.99789],[-0.41213,52.99819],[-0.41209,52.99819]]]]}},
{ "type":"Feature","properties":{"osm_way_id":"157857584","name":"ALDI","building":"yes","shop":"supermarket","other":{"addr:city":"Sleaford","addr:postcode":"NG34 7JP","addr:street":"Mareham Lane","alt_name":"ALDI Sleaford","brand":"ALDI","brand:wikidata":"Q41171672","brand:wikipedia":"en:Aldi"}}, "geometry":{"type":"MultiPolygon","coordinates":[[[[-0.40794,52.99448],[-0.40803,52.99444],[-0.40793,52.99434],[-0.40723,52.9946],[-0.40749,52.99485],[-0.40757,52.99482],[-0.40773,52.99476],[-0.40769,52.99472],[-0.40805,52.99459],[-0.40794,52.99448]]]]}},
{ "type":"Feature","properties":{"osm_way_id":"165398246","name":"Lincolnshire Co-op","building":"yes","shop":"supermarket","other":{"addr:city":"Sleaford","addr:postcode":"NG34 8AD","addr:street":"Lincoln Road","brand":"Lincolnshire Co-op","brand:wikidata":"Q6551231","brand:wikipedia":"en:Lincolnshire Co-operative","opening_hours":"07:00-22:00","operator":"Lincolnshire Co-operative Society"}}, "geometry":{"type":"MultiPolygon","coordinates":[[[[-0.41677,53.00698],[-0.41714,53.00688],[-0.41732,53.00711],[-0.41724,53.00713],[-0.417,53.0072],[-0.41696,53.00721],[-0.41677,53.00698]]]]}},
{ "type":"Feature","properties":{"osm_way_id":"173207478","name":"Lincolnshire Co-op","building":"retail","shop":"supermarket","other":{"addr:city":"Ruskington","addr:housenumber":"17","addr:postcode":"NG34 9DY","addr:street":"High Street","operator":"Lincolnshire Co-operative","source:addr":"Food hygiene open data"}}, "geometry":{"type":"MultiPolygon","coordinates":[[[[-0.3844,53.04659],[-0.38414,53.04656],[-0.38425,53.04618],[-0.38431,53.04619],[-0.38433,53.04613],[-0.38455,53.04616],[-0.38453,53.0462],[-0.38464,53.04621],[-0.38458,53.0464],[-0.38446,53.04639],[-0.3844,53.04659]]]]}},
{ "type":"Feature","properties":{"osm_way_id":"190049057","name":"Iceland","building":"retail","shop":"supermarket","other":{"addr:city":"Sleaford","addr:housenumber":"36","addr:postcode":"NG34 7RY","addr:street":"South Gate","alt_name":"Iceland Sleaford","brand":"Iceland","brand:wikidata":"Q721810"}}, "geometry":{"type":"MultiPolygon","coordinates":[[[[-0.40978,52.99782],[-0.4097,52.9977],[-0.40986,52.99766],[-0.40986,52.99767],[-0.41019,52.9976],[-0.41025,52.99768],[-0.41005,52.99774],[-0.40993,52.99777],[-0.40994,52.99779],[-0.40978,52.99782]]]]}},
{ "type":"Feature","properties":{"osm_way_id":"191257607","name":"Asda","building":"supermarket","shop":"supermarket","other":{"addr:city":"North Hykeham","addr:country":"GB","addr:postcode":"LN6 8JY","addr:street":"Newark Road","brand":"Asda","brand:wikidata":"Q297410","brand:wikipedia":"en:Asda","contact:facebook":"https:\/\/www.facebook.com\/asda\/","contact:phone":"+44 1522 581148","contact:twitter":"@asda","contact:website":"https:\/\/storelocator.asda.com\/east-midlands\/lincoln\/newark-road-north-hykeham","fhrs:id":"295341","opening_hours:covid19":"Mo-Sa 08:00-22:00; Su 10:00-16:00","operator":"Asda Stores Ltd","wheelchair":"yes"}}, "geometry":{"type":"MultiPolygon","coordinates":[[[[-0.59092,53.1885],[-0.59102,53.18859],[-0.59013,53.18896],[-0.59004,53.18888],[-0.58981,53.18898],[-0.58929,53.18854],[-0.58951,53.18845],[-0.58939,53.18835],[-0.5898,53.18817],[-0.58969,53.18807],[-0.59035,53.1878],[-0.59048,53.1879],[-0.59053,53.18788],[-0.59115,53.18841],[-0.59092,53.1885]]]]}},
{ "type":"Feature","properties":{"osm_way_id":"203786030","name":"Lincolnshire Co-op","building":"yes","shop":"supermarket","other":{"operator":"Lincolnshire Co-operative Society"}}, "geometry":{"type":"MultiPolygon","coordinates":[[[[-0.5357,53.19597],[-0.5352,53.19601],[-0.53498,53.19602],[-0.53501,53.19597],[-0.53509,53.19583],[-0.53524,53.19586],[-0.53523,53.19589],[-0.53568,53.19586],[-0.5357,53.19597]]]]}},
{ "type":"Feature","properties":{"osm_way_id":"223322832","name":"The Co-operative Food","building":"yes","shop":"supermarket","other":{"addr:city":"Witham St Hughs","addr:postcode":"LN6 9WF","addr:street":"Muntjac Way","branch":"Food Store","brand":"The Co-operative Food","brand:wikidata":"Q107617274","brand:wikipedia":"en:Lincolnshire Co-operative","not:brand:wikidata":"Q3277439","phone":"+44 1522 868 493","website":"https:\/\/www.lincolnshire.coop"}}, "geometry":{"type":"MultiPolygon","coordinates":[[[[-0.66519,53.14973],[-0.66531,53.14985],[-0.6649,53.15001],[-0.66477,53.14989],[-0.66519,53.14973]]]]}},
{ "type":"Feature","properties":{"osm_way_id":"362081867","name":"Lincolnshire Co-op","building":"yes","shop":"supermarket","other":{"operator":"Lincolnshire Co-operative Society"}}, "geometry":{"type":"MultiPolygon","coordinates":[[[[-0.27581,53.07946],[-0.2757,53.07967],[-0.27592,53.07971],[-0.2759,53.07975],[-0.27602,53.07978],[-0.27611,53.0796],[-0.276,53.07958],[-0.27604,53.0795],[-0.27581,53.07946]]]]}},
{ "type":"Feature","properties":{"osm_way_id":"362081977","name":"Lincolnshire Co-op","building":"yes","shop":"supermarket","other":{"brand":"Lincolnshire Co-op","brand:wikidata":"Q6551231","brand:wikipedia":"en:Lincolnshire Co-operative","operator":"Lincolnshire Co-operative Society"}}, "geometry":{"type":"MultiPolygon","coordinates":[[[[-0.40434,53.13996],[-0.40438,53.14009],[-0.404,53.14013],[-0.40385,53.14015],[-0.40382,53.14006],[-0.40381,53.13997],[-0.40434,53.13996]]]]}},
{ "type":"Feature","properties":{"osm_way_id":"370537708","name":"Lincolnshire Co-op","building":"yes","shop":"supermarket","other":{"operator":"Lincolnshire Co-operative Society"}}, "geometry":{"type":"MultiPolygon","coordinates":[[[[-0.4693,53.22042],[-0.46943,53.22054],[-0.46912,53.22066],[-0.46904,53.22059],[-0.46899,53.22054],[-0.46905,53.22052],[-0.4693,53.22042]]]]}},
{ "type":"Feature","properties":{"osm_way_id":"828559743","name":"Lincolnshire Co-op","building":"retail","shop":"supermarket","other":{"brand":"Lincolnshire Co-op","brand:wikidata":"Q6551231","brand:wikipedia":"en:Lincolnshire Co-operative","pharmacy":"yes","start_date":"2019-03-21"}}, "geometry":{"type":"MultiPolygon","coordinates":[[[[-0.61085,53.18279],[-0.6107,53.18281],[-0.61073,53.18283],[-0.61057,53.18285],[-0.61047,53.18255],[-0.61075,53.18251],[-0.61085,53.18279]]]]}},
{ "type":"Feature","properties":{"osm_way_id":"853036623","name":"Lidl","building":"supermarket","shop":"supermarket","other":{"addr:country":"GB","addr:postcode":"LN6 8RA","addr:street":"Newark Road","brand":"Lidl","brand:wikidata":"Q151954","brand:wikipedia":"en:Lidl","fhrs:id":"962770","survey:date":"2020-07-07"}}, "geometry":{"type":"MultiPolygon","coordinates":[[[[-0.58403,53.19425],[-0.58343,53.19373],[-0.58384,53.19356],[-0.58444,53.19408],[-0.5842,53.19418],[-0.58426,53.19424],[-0.5841,53.19431],[-0.58403,53.19425]]]]}},
{ "type":"Feature","properties":{"osm_way_id":"946916181","name":"Lincolnshire Coop - Branston","building":"yes","shop":"supermarket"},"geometry":{"type":"MultiPolygon","coordinates":[[[[-0.46851,53.19416],[-0.46858,53.19389],[-0.4683,53.19386],[-0.46824,53.1941],[-0.46827,53.1941],[-0.46826,53.19417],[-0.46845,53.19418],[-0.46846,53.19415],[-0.46851,53.19416]]]]}}
]
}
