{
"type": "FeatureCollection",
"features": [
{ "type":"Feature","properties":{"osm_id":"304349526","name":"Co-op Food","other":{"addr:city":"Ainsdale","addr:country":"GB","addr:housenumber":"1","addr:postcode":"PR8 3HR","addr:street":"Station Road","brand":"Co-op Food","brand:wikidata":"Q3277439","brand:wikipedia":"en:Co-op Food","fhrs:id":"129704","operator":"The Co-operative","shop":"supermarket","wheelchair":"yes"}}, "geometry":{"type":"Point","coordinates":[-3.03586,53.60212 ]}},
{ "type":"Feature","properties":{"osm_id":"502214143","name":"ALDI","other":{"addr:city":"Thornton","addr:country":"GB","addr:housenumber":"251","addr:postcode":"L23 4TW","addr:street":"Moor Lane","brand":"ALDI","brand:wikidata":"Q41171672","brand:wikipedia":"en:Aldi","fhrs:id":"639438","shop":"supermarket","website":"https:\/\/www.aldi.co.uk\/store\/s-uk-E0571"}}, "geometry":{"type":"Point","coordinates":[-3.00667,53.49997 ]}},
{ "type":"Feature","properties":{"osm_id":"2384395939","name":"Asda","other":{"addr:city":"Southport","addr:country":"GB","addr:housename":"Central 12 Shopping Park","addr:postcode":"PR9 0TY","addr:street":"Derby Road","brand":"Asda","brand:wikidata":"Q297410","brand:wikipedia":"en:Asda","contact:website":"https:\/\/storelocator.asda.com\/north-west\/southport\/central-12-shopping-park-derby-road","fhrs:id":"899318","operator":"Asda Stores Ltd","shop":"supermarket"}}, "geometry":{"type":"Point","coordinates":[-2.99743,53.64516 ]}},
{ "type":"Feature","properties":{"osm_id":"2895530805","name":"Waitrose","other":{"brand":"Waitrose","brand:wikidata":"Q771734","brand:wikipedia":"en:Waitrose & Partners","official_name":"Waitrose & Partners","operator":"Waitrose & Partners","shop":"supermarket"}}, "geometry":{"type":"Point","coordinates":[-3.05783,53.55677 ]}},
{ "type":"Feature","properties":{"osm_id":"3736043710","name":"Spar","other":{"brand":"Spar","brand:wikidata":"Q610492","brand:wikipedia":"en:Spar (retailer)","shop":"supermarket"}}, "geometry":{"type":"Point","coordinates":[-3.0155,53.61884 ]}},
{ "type":"Feature","properties":{"osm_id":"3737557173","name":"Spar","other":{"addr:city":"Southport","addr:street":"Ovington Drive","brand":"Spar","brand:wikidata":"Q610492","brand:wikipedia":"en:Spar (retailer)","payment:cash":"yes","payment:coins":"yes","payment:credit_cards":"yes","payment:debit_cards":"yes","payment:mastercard":"yes","payment:visa":"yes","shop":"supermarket"}}, "geometry":{"type":"Point","coordinates":[-2.97709,53.6293 ]}},
{ "type":"Feature","properties":{"osm_id":"3742494381","name":"Spar","other":{"addr:city":"Southport","addr:street":"Liverpool Road","brand":"Spar","brand:wikidata":"Q610492","brand:wikipedia":"en:Spar (retailer)","shop":"supermarket"}}, "geometry":{"type":"Point","coordinates":[-3.01273,53.63398 ]}},
{ "type":"Feature","properties":{"osm_id":"3742753823","name":"Co-op Food","other":{"addr:city":"Southport","addr:street":"Portland Street","brand":"Co-op Food","brand:wikidata":"Q3277439","brand:wikipedia":"en:Co-op Food","shop":"supermarket"}}, "geometry":{"type":"Point","coordinates":[-3.00217,53.64066 ]}},
{ "type":"Feature","properties":{"osm_id":"3748930576","name":"Baltic Supermarket","other":{"addr:city":"Southport","addr:housenumber":"45-47","addr:street":"Eastbank Street","shop":"supermarket"}}, "geometry":{"type":"Point","coordinates":[-3.00485,53.64552 ]}},
{ "type":"Feature","properties":{"osm_id":"3752763288","name":"B&M Express","other":{"addr:city":"Southport","addr:housenumber":"29-31","addr:postcode":"PR8 1AG","addr:street":"Tulketh Street","brand:wikidata":"Q99640578","fhrs:id":"71940","old_name":"Cool Trader","operator":"Heron Foods","shop":"supermarket","source:addr":"FHRS Open Data"}}, "geometry":{"type":"Point","coordinates":[-3.00395,53.64594 ]}},
{ "type":"Feature","properties":{"osm_id":"3797953633","name":"Spar","other":{"addr:city":"Southport","addr:street":"Bispham Road","brand":"Spar","brand:wikidata":"Q610492","brand:wikipedia":"en:Spar (retailer)","shop":"supermarket"}}, "geometry":{"type":"Point","coordinates":[-2.97022,53.64758 ]}},
{ "type":"Feature","properties":{"osm_id":"3798206031","name":"Spar","other":{"addr:city":"Southport","addr:street":"High Park Place","brand":"Spar","brand:wikidata":"Q610492","brand:wikipedia":"en:Spar (retailer)","shop":"supermarket"}}, "geometry":{"type":"Point","coordinates":[-2.96522,53.65399 ]}},
{ "type":"Feature","properties":{"osm_id":"3799324248","name":"Co-op Food","other":{"addr:city":"Southport","addr:street":"Fylde Road","brand":"Co-op Food","brand:wikidata":"Q3277439","brand:wikipedia":"en:Co-op Food","shop":"supermarket"}}, "geometry":{"type":"Point","coordinates":[-2.96452,53.67185 ]}},
{ "type":"Feature","properties":{"osm_id":"4558459642","name":"Spar","other":{"addr:city":"Formby","addr:housenumber":"1","addr:postcode":"L37 7DJ","addr:street":"Green Lane","brand":"Spar","brand:wikidata":"Q610492","brand:wikipedia":"en:Spar (retailer)","opening_hours":"07:00-22:00","shop":"supermarket"}}, "geometry":{"type":"Point","coordinates":[-3.0586,53.56474 ]}},
{ "type":"Feature","properties":{"osm_id":"4627480096","name":"Lidl","other":{"addr:country":"GB","addr:housenumber":"72","addr:postcode":"L31 5JA","addr:street":"Northway","brand":"Lidl","brand:wikidata":"Q151954","brand:wikipedia":"en:Lidl","fhrs:id":"352505","shop":"supermarket"}}, "geometry":{"type":"Point","coordinates":[-2.94492,53.50094 ]}},
{ "type":"Feature","properties":{"osm_id":"5212577124","name":"Heron Foods","other":{"addr:city":"Bootle","addr:country":"GB","addr:housename":"Strand Shopping Centre","addr:postcode":"L20 4XX","addr:street":"Parkside","addr:unit":"16","brand":"Heron Foods","brand:wikidata":"Q5743472","brand:wikipedia":"en:Heron Foods","fhrs:id":"149158","shop":"supermarket","website":"https:\/\/heronfoods.com\/store\/bootle\/"}}, "geometry":{"type":"Point","coordinates":[-2.99309,53.45258 ]}},
{ "type":"Feature","properties":{"osm_id":"5212585422","name":"Home Bargain","other":{"shop":"supermarket"}}, "geometry":{"type":"Point","coordinates":[-2.99312,53.45266 ]}},
{ "type":"Feature","properties":{"osm_id":"7448471443","name":"Asda","other":{"addr:city":"Bootle","addr:country":"GB","addr:postcode":"L20 6HX","addr:street":"Orrell Lane","brand":"Asda","brand:wikidata":"Q297410","brand:wikipedia":"en:Asda","contact:website":"https:\/\/storelocator.asda.com\/north-west\/bootle\/orrell-lane","fhrs:id":"502654","operator":"Asda Stores Ltd","shop":"supermarket"}}, "geometry":{"type":"Point","coordinates":[-2.97247,53.46801 ]}},
{ "type":"Feature","properties":{"osm_way_id":"30141997","name":"Lidl","building":"yes","shop":"supermarket","other":{"addr:city":"Southport","addr:country":"GB","addr:housenumber":"21","addr:postcode":"PR8 6RZ","addr:street":"Virginia Street","brand":"Lidl","brand:wikidata":"Q151954","brand:wikipedia":"en:Lidl","fhrs:id":"352501"}}, "geometry":{"type":"MultiPolygon","coordinates":[[[[-3.00121,53.64276],[-3.00101,53.64284],[-3.00067,53.64254],[-3.00061,53.64256],[-3.00048,53.64245],[-3.00087,53.6423],[-3.00136,53.64275],[-3.00125,53.64279],[-3.00121,53.64276]]]]}},
{ "type":"Feature","properties":{"osm_way_id":"30142559","name":"Tesco Extra","building":"yes","shop":"supermarket","other":{"addr:city":"Southport","brand":"Tesco Extra","brand:wikidata":"Q25172225","brand:wikipedia":"en:Tesco Extra"}}, "geometry":{"type":"MultiPolygon","coordinates":[[[[-2.97236,53.63213],[-2.97247,53.63229],[-2.97229,53.63234],[-2.97221,53.63219],[-2.97207,53.63221],[-2.97196,53.63206],[-2.97142,53.63218],[-2.97067,53.63105],[-2.97126,53.63093],[-2.97174,53.63083],[-2.97244,53.63195],[-2.97252,53.63209],[-2.97236,53.63213]]]]}},
{ "type":"Feature","properties":{"osm_way_id":"30142581","name":"Aldi","building":"yes","shop":"supermarket","other":{"brand":"ALDI","brand:wikidata":"Q41171672","brand:wikipedia":"en:Aldi"}}, "geometry":{"type":"MultiPolygon","coordinates":[[[[-2.96964,53.63433],[-2.9688,53.63456],[-2.96864,53.63435],[-2.9688,53.6343],[-2.96877,53.63426],[-2.96879,53.6342],[-2.96886,53.63418],[-2.96889,53.63422],[-2.96898,53.6342],[-2.96902,53.63425],[-2.96949,53.63412],[-2.96964,53.63433]]]]}},
{ "type":"Feature","properties":{"osm_way_id":"30142868","name":"Morrisons","building":"yes","shop":"supermarket","other":{"addr:city":"Southport","brand":"Morrisons","brand:wikidata":"Q922344","brand:wikipedia":"en:Morrisons"}}, "geometry":{"type":"MultiPolygon","coordinates":[[[[-3.01431,53.64547],[-3.014,53.64565],[-3.0136,53.64589],[-3.01336,53.64588],[-3.01308,53.64567],[-3.01314,53.64563],[-3.01254,53.64521],[-3.01259,53.64518],[-3.01253,53.64513],[-3.01272,53.64503],[-3.01302,53.64523],[-3.01324,53.64512],[-3.01306,53.64498],[-3.01337,53.64479],[-3.01431,53.64547]]]]}},
{ "type":"Feature","properties":{"osm_way_id":"38615972","name":"ALDI","building":"yes","shop":"supermarket","other":{"brand":"ALDI","brand:wikidata":"Q41171672","brand:wikipedia":"en:Aldi"}}, "geometry":{"type":"MultiPolygon","coordinates":[[[[-2.96791,53.48225],[-2.96758,53.48239],[-2.96805,53.48278],[-2.96824,53.4827],[-2.9682,53.48267],[-2.96834,53.48261],[-2.96791,53.48225]]]]}},
{ "type":"Feature","properties":{"osm_way_id":"38680520","name":"Sainsbury's","building":"yes","shop":"supermarket","other":{"brand":"Sainsbury's","brand:wikidata":"Q152096","brand:wikipedia":"en:Sainsbury's"}}, "geometry":{"type":"MultiPolygon","coordinates":[[[[-3.02662,53.49313],[-3.02617,53.49283],[-3.02669,53.49256],[-3.02687,53.49261],[-3.02715,53.49279],[-3.02714,53.49287],[-3.02662,53.49313]]]]}},
{ "type":"Feature","properties":{"osm_way_id":"39356300","name":"Co-operative Food","building":"yes","shop":"supermarket"},"geometry":{"type":"MultiPolygon","coordinates":[[[[-3.0344,53.48708],[-3.03425,53.48695],[-3.03395,53.48709],[-3.03378,53.48692],[-3.03366,53.48699],[-3.03389,53.48716],[-3.03395,53.48718],[-3.03404,53.4872],[-3.03413,53.48719],[-3.0344,53.48708]]]]}},
{ "type":"Feature","properties":{"osm_way_id":"81140540","name":"Asda","building":"yes","shop":"supermarket","other":{"addr:country":"GB","addr:postcode":"L10 3LN","brand":"Asda","brand:wikidata":"Q297410","brand:wikipedia":"en:Asda","contact:website":"https:\/\/storelocator.asda.com\/north-west\/liverpool\/ormskirk-road","operator":"Asda Stores Ltd"}}, "geometry":{"type":"MultiPolygon","coordinates":[[[[-2.95072,53.49214],[-2.95086,53.49208],[-2.95095,53.49195],[-2.95098,53.49196],[-2.95123,53.49163],[-2.95126,53.49163],[-2.95135,53.49152],[-2.95119,53.49138],[-2.95111,53.49135],[-2.95116,53.49126],[-2.95017,53.491],[-2.95017,53.49097],[-2.94998,53.49069],[-2.94966,53.49076],[-2.94987,53.49104],[-2.94958,53.49144],[-2.94965,53.49146],[-2.94947,53.49172],[-2.95003,53.49188],[-2.94998,53.49194],[-2.95072,53.49214]]]]}},
{ "type":"Feature","properties":{"osm_way_id":"227223924","name":"Tesco","building":"yes","shop":"supermarket","other":{"addr:city":"Litherland","addr:housename":"Tesco Litherland","addr:postcode":"L21 8NZ","addr:street":"Hawthorne Road","brand":"Tesco","brand:wikidata":"Q487494","brand:wikipedia":"en:Tesco","building:levels":"1","opening_hours":"Mo 07:00-24:00; Tu-Sa 00:00-24:00; Su 10:00-16:00","operator":"Tesco"}}, "geometry":{"type":"MultiPolygon","coordinates":[[[[-2.99811,53.46831],[-2.99882,53.46887],[-2.9977,53.46937],[-2.997,53.4688],[-2.99803,53.46834],[-2.99811,53.46831]]]]}},
{ "type":"Feature","properties":{"osm_way_id":"371203338","name":"Sainsbury's","building":"yes","shop":"supermarket","other":{"addr:city":"Southport","addr:street":"St Georges Place, Lord Street","brand":"Sainsbury's","brand:wikidata":"Q152096","brand:wikipedia":"en:Sainsbury's"}}, "geometry":{"type":"MultiPolygon","coordinates":[[[[-3.00194,53.64917],[-3.00249,53.64947],[-3.00294,53.6492],[-3.00283,53.64913],[-3.00239,53.64888],[-3.00194,53.64917]]]]}},
{ "type":"Feature","properties":{"osm_way_id":"376986727","name":"Co-op Food","building":"yes","shop":"supermarket","other":{"addr:city":"Southport","addr:street":"Marshside Road","brand":"Morrisons","brand:wikidata":"Q3277439","brand:wikipedia":"en:Co-op Food"}}, "geometry":{"type":"MultiPolygon","coordinates":[[[[-2.97103,53.66743],[-2.97109,53.66751],[-2.97127,53.66745],[-2.9713,53.66749],[-2.97144,53.66745],[-2.97135,53.66734],[-2.97103,53.66743]]]]}},
{ "type":"Feature","properties":{"osm_way_id":"448324135","name":"Co-op","building":"yes","shop":"supermarket","other":{"operator":"The Co-operative Group"}}, "geometry":{"type":"MultiPolygon","coordinates":[[[[-3.0294,53.47684],[-3.02904,53.477],[-3.02851,53.47659],[-3.02866,53.47652],[-3.02861,53.47648],[-3.02881,53.47639],[-3.0294,53.47684]]]]}},
{ "type":"Feature","properties":{"osm_way_id":"456761038","name":"Lidl","building":"yes","shop":"supermarket","other":{"addr:country":"GB","addr:postcode":"L21 6PD","addr:street":"Wellington Road","brand":"Lidl","brand:wikidata":"Q151954","brand:wikipedia":"en:Lidl","fhrs:id":"452270"}}, "geometry":{"type":"MultiPolygon","coordinates":[[[[-3.00454,53.46648],[-3.00492,53.46633],[-3.0044,53.46586],[-3.00423,53.46592],[-3.0043,53.46599],[-3.00409,53.46607],[-3.00454,53.46648]]]]}},
{ "type":"Feature","properties":{"osm_way_id":"456761040","name":"ALDI","building":"yes","shop":"supermarket","other":{"brand":"ALDI","brand:wikidata":"Q41171672","brand:wikipedia":"en:Aldi"}}, "geometry":{"type":"MultiPolygon","coordinates":[[[[-2.99481,53.45525],[-2.99442,53.45531],[-2.99418,53.45476],[-2.99457,53.4547],[-2.99481,53.45525]]]]}},
{ "type":"Feature","properties":{"osm_way_id":"456761042","name":"Lidl","building":"yes","shop":"supermarket","other":{"addr:country":"GB","addr:housenumber":"290","addr:postcode":"L20 5BQ","addr:street":"Marsh Lane","brand":"Lidl","brand:wikidata":"Q151954","brand:wikipedia":"en:Lidl","fhrs:id":"452269"}}, "geometry":{"type":"MultiPolygon","coordinates":[[[[-2.99016,53.45434],[-2.99085,53.45427],[-2.9908,53.45408],[-2.99074,53.45409],[-2.99066,53.45379],[-2.99024,53.45383],[-2.99034,53.45419],[-2.99035,53.45424],[-2.99014,53.45426],[-2.99016,53.45434]]]]}},
{ "type":"Feature","properties":{"osm_way_id":"460179426","name":"Tesco","building":"yes","shop":"supermarket","other":{"brand":"Tesco","brand:wikidata":"Q487494","brand:wikipedia":"en:Tesco"}}, "geometry":{"type":"MultiPolygon","coordinates":[[[[-3.04344,53.55408],[-3.0419,53.55375],[-3.04236,53.55301],[-3.04361,53.55327],[-3.04379,53.55331],[-3.04344,53.55408]]]]}},
{ "type":"Feature","properties":{"osm_way_id":"460346596","name":"One Stop Community Store","building":"yes","shop":"supermarket","other":{"addr:city":"Formby","addr:housenumber":"2","addr:postcode":"L37 4BJ","addr:street":"Cross Green"}}, "geometry":{"type":"MultiPolygon","coordinates":[[[[-3.05814,53.55434],[-3.05809,53.55423],[-3.05834,53.55419],[-3.05839,53.5543],[-3.05814,53.55434]]]]}},
{ "type":"Feature","properties":{"osm_way_id":"545334017","name":"Morrisons","building":"supermarket","shop":"supermarket","other":{"addr:postcode":"L31 2PH","brand":"Morrisons","brand:wikidata":"Q922344","brand:wikipedia":"en:Morrisons"}}, "geometry":{"type":"MultiPolygon","coordinates":[[[[-2.94345,53.51496],[-2.94267,53.51473],[-2.94262,53.5148],[-2.94285,53.51487],[-2.94277,53.51497],[-2.9426,53.51493],[-2.94258,53.51495],[-2.94266,53.51497],[-2.9425,53.51518],[-2.94313,53.51536],[-2.94316,53.51532],[-2.94326,53.5152],[-2.94345,53.51496]]]]}},
{ "type":"Feature","properties":{"osm_way_id":"548846631","name":"Asda","building":"yes","shop":"supermarket","other":{"addr:city":"Bootle","addr:country":"GB","addr:housenumber":"81","addr:postcode":"L20 4BB","addr:street":"Strand Road","alt_name":"Asda Bootle","brand":"Asda","brand:wikidata":"Q297410","brand:wikipedia":"en:Asda","contact:website":"https:\/\/storelocator.asda.com\/north-west\/bootle\/81-strand-road","fhrs:id":"71543","operator":"Asda Stores Ltd"}}, "geometry":{"type":"MultiPolygon","coordinates":[[[[-2.99642,53.45171],[-2.99546,53.45188],[-2.99582,53.45261],[-2.99653,53.45249],[-2.9968,53.45244],[-2.99642,53.45171]]]]}},
{ "type":"Feature","properties":{"osm_way_id":"919664160","name":"Aldi","building":"yes","shop":"supermarket","other":{"brand":"ALDI","brand:wikidata":"Q41171672","brand:wikipedia":"en:Aldi"}}, "geometry":{"type":"MultiPolygon","coordinates":[[[[-3.01475,53.62352],[-3.0148,53.62366],[-3.01455,53.62369],[-3.01455,53.6237],[-3.01445,53.62371],[-3.01444,53.6237],[-3.01426,53.62372],[-3.01424,53.62367],[-3.01416,53.62367],[-3.01406,53.6234],[-3.01401,53.62341],[-3.01394,53.62321],[-3.01439,53.62315],[-3.01441,53.62318],[-3.0145,53.62317],[-3.01464,53.62354],[-3.01475,53.62352]]]]}},
{ "type":"Feature","properties":{"osm_way_id":"1000926508","name":"Co-op Food","building":"yes","shop":"supermarket","other":{"brand":"Co-op Food","brand:wikidata":"Q3277439","brand:wikipedia":"en:Co-op Food","operator":"The Co-operative Group","operator:wikidata":"Q117202","operator:wikipedia":"en:The Co-operative Group"}}, "geometry":{"type":"MultiPolygon","coordinates":[[[[-2.93257,53.51593],[-2.93235,53.51594],[-2.93233,53.51576],[-2.93231,53.51563],[-2.93254,53.51562],[-2.93257,53.51593]]]]}}
]
}
