{
"type": "FeatureCollection",
"features": [
{ "type":"Feature","properties":{"osm_id":"2755706951","name":"The Co-operative Food","other":{"addr:city":"Stonehouse","addr:housenumber":"26","addr:postcode":"GL10 2NA","addr:street":"High Street","alt_name":"Coop","brand":"The Co-operative Food","brand:wikidata":"Q3277439","brand:wikipedia":"en:Co-op Food","fhrs:id":"154292","opening_hours":"Mo-Sa 07:00-22:00; Su 10:00-16:00","shop":"supermarket","wheelchair":"yes"}}, "geometry":{"type":"Point","coordinates":[-2.28323,51.74674 ]}},
{ "type":"Feature","properties":{"osm_way_id":"105200718","name":"Lidl","building":"shop","shop":"supermarket","other":{"addr:city":"Dursley","addr:housenumber":"18","addr:postcode":"GL11 4EJ","addr:street":"Kingshill Road","brand":"Lidl","brand:wikidata":"Q151954","brand:wikipedia":"en:Lidl","fhrs:id":"154097"}}, "geometry":{"type":"MultiPolygon","coordinates":[[[[-2.36111,51.68824],[-2.36126,51.68817],[-2.36128,51.68819],[-2.36161,51.68803],[-2.36156,51.68799],[-2.36169,51.68794],[-2.36174,51.68798],[-2.36188,51.68791],[-2.36206,51.68806],[-2.36129,51.68842],[-2.36112,51.68828],[-2.36114,51.68827],[-2.36111,51.68824]]]]}},
{ "type":"Feature","properties":{"osm_way_id":"125299943","name":"ALDI","building":"yes","shop":"supermarket","other":{"addr:city":"Stroud","addr:postcode":"GL5 3TA","addr:street":"Bath Road","brand":"ALDI","brand:wikidata":"Q41171672","brand:wikipedia":"en:Aldi","contact:website":"https:\/\/www.aldi.co.uk\/store\/s-uk-E1169","opening_hours":"Mo-Sa 08:00-22:00; Su 10:00-16:00","operator":"Aldi","payment:cash":"yes","payment:credit_cards":"yes","payment:debit_cards":"yes"}}, "geometry":{"type":"MultiPolygon","coordinates":[[[[-2.23384,51.7359],[-2.2335,51.7354],[-2.23394,51.73529],[-2.23396,51.73531],[-2.23409,51.73551],[-2.23415,51.73549],[-2.23434,51.73576],[-2.23384,51.7359]]]]}},
{ "type":"Feature","properties":{"osm_way_id":"153839104","name":"Tesco Express","building":"yes","shop":"supermarket","other":{"addr:city":"Chalford","addr:country":"GB","addr:housenumber":"35","addr:postcode":"GL6 8DE","addr:street":"Tanglewood Way","addr:village":"Bussage","brand":"Tesco Express","brand:wikidata":"Q98456772","brand:wikipedia":"en:Tesco","fhrs:id":"154677","operator":"Tesco","payment:cash":"yes","payment:credit_cards":"yes","payment:debit_cards":"yes"}}, "geometry":{"type":"MultiPolygon","coordinates":[[[[-2.16123,51.72985],[-2.16113,51.72974],[-2.16105,51.72977],[-2.16103,51.72975],[-2.16088,51.72981],[-2.16101,51.72995],[-2.16114,51.7299],[-2.16113,51.72988],[-2.16123,51.72985]]]]}},
{ "type":"Feature","properties":{"osm_way_id":"153839797","name":"Waitrose","building":"yes","shop":"supermarket","other":{"addr:city":"Stroud","addr:postcode":"GL5 2AP","addr:street":"London Road","alt_name":"Waitrose Stroud","brand":"Waitrose & Partners","brand:wikidata":"Q771734","brand:wikipedia":"en:Waitrose & Partners","fhrs:id":"154830","operator":"Waitrose & Partners"}}, "geometry":{"type":"MultiPolygon","coordinates":[[[[-2.2128,51.74174],[-2.21224,51.74149],[-2.21229,51.74145],[-2.2121,51.74136],[-2.2123,51.7412],[-2.21226,51.74117],[-2.21225,51.74112],[-2.2123,51.74107],[-2.21238,51.74107],[-2.21262,51.74117],[-2.21271,51.74113],[-2.21309,51.74129],[-2.21313,51.74126],[-2.21329,51.74133],[-2.21293,51.74164],[-2.213,51.74168],[-2.21291,51.74175],[-2.21284,51.7417],[-2.2128,51.74174]]]]}},
{ "type":"Feature","properties":{"osm_way_id":"153839960","name":"Tesco","building":"retail","shop":"supermarket","other":{"addr:city":"Stroud","addr:postcode":"GL5 4AG","addr:street":"Stratford Road","alt_name":"Tesco Stroud Superstore","brand":"Tesco","brand:wikidata":"Q487494","brand:wikipedia":"en:Tesco","fhrs:id":"617392"}}, "geometry":{"type":"MultiPolygon","coordinates":[[[[-2.22463,51.7474],[-2.22379,51.74728],[-2.22379,51.7473],[-2.22369,51.74728],[-2.22369,51.7473],[-2.2234,51.74726],[-2.22341,51.74723],[-2.22326,51.74721],[-2.22335,51.74697],[-2.22349,51.74699],[-2.2236,51.74669],[-2.22419,51.74678],[-2.22419,51.7468],[-2.22506,51.74693],[-2.22499,51.74712],[-2.22467,51.74708],[-2.22457,51.74732],[-2.22465,51.74733],[-2.22463,51.7474]]]]}},
{ "type":"Feature","properties":{"osm_way_id":"164938075","name":"The Co-operative Food","building":"yes","shop":"supermarket","other":{"addr:city":"Stroud","addr:housenumber":"16","addr:postcode":"GL5 4JE","addr:street":"Cashes Green Road"}}, "geometry":{"type":"MultiPolygon","coordinates":[[[[-2.24363,51.7436],[-2.24319,51.74357],[-2.24327,51.74316],[-2.24337,51.74317],[-2.24338,51.74309],[-2.24374,51.74312],[-2.24363,51.7436]]]]}},
{ "type":"Feature","properties":{"osm_way_id":"180943844","name":"Sainsbury's","building":"yes","shop":"supermarket","other":{"addr:city":"Stroud","addr:postcode":"GL5 3HG","addr:street":"Dudbridge Hill","alt_name":"Sainsbury's Stroud Superstore","brand":"Sainsbury's","brand:wikidata":"Q152096","fhrs:id":"154781"}}, "geometry":{"type":"MultiPolygon","coordinates":[[[[-2.24054,51.73938],[-2.24058,51.73933],[-2.23988,51.7391],[-2.23984,51.73916],[-2.23994,51.73919],[-2.23966,51.73952],[-2.23955,51.73948],[-2.23947,51.73957],[-2.23958,51.7396],[-2.23952,51.73968],[-2.24043,51.73997],[-2.24048,51.73992],[-2.24053,51.73993],[-2.24056,51.73989],[-2.24065,51.73992],[-2.24086,51.73979],[-2.24106,51.73954],[-2.24054,51.73938]]]]}},
{ "type":"Feature","properties":{"osm_way_id":"200487295","name":"The Co-operative Food","building":"yes","shop":"supermarket","other":{"addr:city":"Berkeley","addr:housenumber":"5","addr:postcode":"GL13 9BS","addr:street":"Salter Street","fhrs:id":"154087","source:outline":"Bing"}}, "geometry":{"type":"MultiPolygon","coordinates":[[[[-2.45938,51.69127],[-2.45922,51.69126],[-2.45924,51.69121],[-2.45924,51.69119],[-2.45929,51.69119],[-2.45938,51.69103],[-2.45956,51.69107],[-2.45952,51.69115],[-2.45945,51.69113],[-2.4594,51.69121],[-2.45938,51.69127]]]]}},
{ "type":"Feature","properties":{"osm_way_id":"217329584","name":"Sainsbury's","building":"supermarket","shop":"supermarket","other":{"addr:postcode":"GL11 4BS","brand":"Sainsbury's","brand:wikidata":"Q152096","fhrs:id":"154989","opening_hours":"Mo-Sa 08:00-22:00; Su 10:00-16:00","operator:wikidata":"Q152096"}}, "geometry":{"type":"MultiPolygon","coordinates":[[[[-2.35516,51.68282],[-2.3556,51.68225],[-2.35539,51.68218],[-2.35532,51.68227],[-2.35492,51.68214],[-2.35467,51.68247],[-2.35449,51.68242],[-2.35441,51.68252],[-2.35508,51.68272],[-2.35504,51.68279],[-2.35516,51.68282]]]]}},
{ "type":"Feature","properties":{"osm_way_id":"217336102","name":"Tesco","building":"retail","shop":"supermarket","other":{"addr:postcode":"GL11 5LE","brand":"Tesco","brand:wikidata":"Q487494","brand:wikipedia":"en:Tesco","fhrs:id":"928556"}}, "geometry":{"type":"MultiPolygon","coordinates":[[[[-2.36371,51.70241],[-2.3638,51.70237],[-2.36373,51.70231],[-2.36374,51.7023],[-2.36359,51.70218],[-2.36399,51.70199],[-2.36342,51.70154],[-2.36333,51.70158],[-2.36328,51.70154],[-2.36319,51.70158],[-2.36314,51.70154],[-2.36296,51.70162],[-2.36301,51.70166],[-2.36293,51.7017],[-2.36298,51.70175],[-2.3629,51.70179],[-2.36361,51.70237],[-2.36363,51.70235],[-2.36371,51.70241]]]]}},
{ "type":"Feature","properties":{"osm_way_id":"275305442","name":"The co-operative food","building":"retail","shop":"supermarket","other":{"addr:city":"Wotton-under-Edge","addr:housenumber":"38","addr:place":"Wotton-Under-Edge","addr:postcode":"GL12 7BT","addr:street":"Long Street","building:levels":"2","check_date:opening_hours":"2021-06-22","fhrs:id":"154186","opening_hours":"Mo-Sa 07:00-22:00; Su 10:00-16:00","operator:wikidata":"Q3277439","roof:levels":"1","roof:shape":"gambrel","wheelchair":"yes"}}, "geometry":{"type":"MultiPolygon","coordinates":[[[[-2.35267,51.63776],[-2.35269,51.63766],[-2.35271,51.63759],[-2.35276,51.63739],[-2.3529,51.6374],[-2.35286,51.63758],[-2.35289,51.63758],[-2.35288,51.63763],[-2.35298,51.63764],[-2.35298,51.63767],[-2.35296,51.63774],[-2.35295,51.6378],[-2.35267,51.63776]]]]}},
{ "type":"Feature","properties":{"osm_way_id":"293566357","name":"Morrisons","building":"yes","shop":"supermarket","other":{"addr:city":"Nailsworth","addr:postcode":"GL6 0AG","addr:street":"George Street","alt_name":"Morrisons Nailsworth","brand":"Morrisons","brand:wikidata":"Q922344","brand:wikipedia":"en:Morrisons","fhrs:id":"154652"}}, "geometry":{"type":"MultiPolygon","coordinates":[[[[-2.21641,51.69615],[-2.21594,51.69595],[-2.21627,51.69565],[-2.21674,51.69586],[-2.21641,51.69615]]]]}},
{ "type":"Feature","properties":{"osm_way_id":"310241302","name":"Iceland","building":"yes","shop":"supermarket","other":{"addr:city":"Dursley","addr:housenumber":"26","addr:postcode":"GL11 4AA","addr:street":"Parsonage Street","brand":"Iceland","brand:wikidata":"Q721810","fhrs:id":"154997"}}, "geometry":{"type":"MultiPolygon","coordinates":[[[[-2.3563,51.68181],[-2.35633,51.68171],[-2.3564,51.68143],[-2.35641,51.68141],[-2.3562,51.68138],[-2.35611,51.68167],[-2.3561,51.68171],[-2.35608,51.68177],[-2.3563,51.68181]]]]}},
{ "type":"Feature","properties":{"osm_way_id":"429772813","name":"Co-op Food","building":"yes","shop":"supermarket","other":{"addr:city":"Nailsworth","addr:housenumber":"6","addr:postcode":"GL6 0DU","addr:street":"Old Market","brand":"Co-op Food","brand:wikidata":"Q3277439","brand:wikipedia":"en:Co-op Food","fhrs:id":"154637"}}, "geometry":{"type":"MultiPolygon","coordinates":[[[[-2.21952,51.69446],[-2.21921,51.69441],[-2.21927,51.69427],[-2.21959,51.69432],[-2.21952,51.69446]]]]}},
{ "type":"Feature","properties":{"osm_way_id":"466152439","name":"Savers","building":"retail","shop":"supermarket","other":{"addr:city":"Stroud","addr:housenumber":"5","addr:postcode":"GL5 3BX","addr:street":"King Street"}}, "geometry":{"type":"MultiPolygon","coordinates":[[[[-2.21828,51.74585],[-2.21811,51.74572],[-2.21827,51.74564],[-2.21844,51.74577],[-2.21828,51.74585]]]]}},
{ "type":"Feature","properties":{"osm_way_id":"466671105","name":"Iceland","shop":"supermarket","other":{"addr:city":"Stroud","addr:housenumber":"Unit 10","addr:postcode":"GL5 2JT","addr:street":"Union Street","brand":"Iceland","brand:wikidata":"Q721810","fhrs:id":"154160","survey:date":"2017-01-15"}}, "geometry":{"type":"MultiPolygon","coordinates":[[[[-2.21558,51.74443],[-2.21579,51.74445],[-2.21583,51.74445],[-2.21578,51.74462],[-2.21553,51.74459],[-2.21556,51.74449],[-2.21558,51.74443]]]]}},
{ "type":"Feature","properties":{"osm_way_id":"1027710154","name":"Lidl","building":"supermarket","shop":"supermarket","other":{"brand":"Lidl","brand:wikidata":"Q151954","brand:wikipedia":"en:Lidl"}}, "geometry":{"type":"MultiPolygon","coordinates":[[[[-2.23904,51.74212],[-2.23801,51.74231],[-2.23797,51.74224],[-2.23805,51.74222],[-2.23795,51.74203],[-2.23891,51.74185],[-2.23904,51.74212]]]]}}
]
}
