{
"type": "FeatureCollection",
"features": [
{ "type":"Feature","properties":{"osm_id":"28304455","other":{"amenity":"parking","parking":"layby"}}, "geometry":{"type":"Point","coordinates":[-1.06537,54.47556 ]}},
{ "type":"Feature","properties":{"osm_id":"260157002","highway":"mini_roundabout"},"geometry":{"type":"Point","coordinates":[-1.43764,54.34347 ]}},
{ "type":"Feature","properties":{"osm_id":"296248611","other":{"amenity":"parking"}}, "geometry":{"type":"Point","coordinates":[-1.18783,54.47078 ]}},
{ "type":"Feature","properties":{"osm_id":"342034161","other":{"amenity":"parking"}}, "geometry":{"type":"Point","coordinates":[-1.32727,54.35398 ]}},
{ "type":"Feature","properties":{"osm_id":"395883578","other":{"amenity":"parking"}}, "geometry":{"type":"Point","coordinates":[-1.2068,54.39378 ]}},
{ "type":"Feature","properties":{"osm_id":"395935121","other":{"amenity":"parking","parking":"surface"}}, "geometry":{"type":"Point","coordinates":[-1.24225,54.39968 ]}},
{ "type":"Feature","properties":{"osm_id":"442029427","other":{"amenity":"atm","fee":"no","operator":"Nat West"}}, "geometry":{"type":"Point","coordinates":[-1.19249,54.12192 ]}},
{ "type":"Feature","properties":{"osm_id":"460396826","other":{"amenity":"parking"}}, "geometry":{"type":"Point","coordinates":[-1.19288,54.11136 ]}},
{ "type":"Feature","properties":{"osm_id":"471855166","other":{"bus":"yes","public_transport":"stop_position"}}, "geometry":{"type":"Point","coordinates":[-1.43555,54.34171 ]}},
{ "type":"Feature","properties":{"osm_id":"475040458","highway":"crossing","other":{"crossing":"zebra"}}, "geometry":{"type":"Point","coordinates":[-1.19143,54.1162 ]}},
{ "type":"Feature","properties":{"osm_id":"501585030","other":{"access":"customers","amenity":"parking"}}, "geometry":{"type":"Point","coordinates":[-1.21525,54.12223 ]}},
{ "type":"Feature","properties":{"osm_id":"503874481","other":{"amenity":"parking","parking":"layby","toilets":"no"}}, "geometry":{"type":"Point","coordinates":[-1.17868,54.05582 ]}},
{ "type":"Feature","properties":{"osm_id":"503875320","other":{"amenity":"parking"}}, "geometry":{"type":"Point","coordinates":[-1.17509,54.04704 ]}},
{ "type":"Feature","properties":{"osm_id":"684716851","other":{"access":"yes","amenity":"parking","description":"Patch of dirt at side of road","fee":"no","parking":"street_side"}}, "geometry":{"type":"Point","coordinates":[-1.19605,54.42045 ]}},
{ "type":"Feature","properties":{"osm_id":"684831255","other":{"amenity":"parking","description":"Layby"}}, "geometry":{"type":"Point","coordinates":[-1.32738,54.23734 ]}},
{ "type":"Feature","properties":{"osm_id":"684831256","other":{"amenity":"parking","description":"Layby"}}, "geometry":{"type":"Point","coordinates":[-1.33466,54.24403 ]}},
{ "type":"Feature","properties":{"osm_id":"684831257","other":{"amenity":"parking","description":"Layby"}}, "geometry":{"type":"Point","coordinates":[-1.33659,54.30132 ]}},
{ "type":"Feature","properties":{"osm_id":"684831259","other":{"amenity":"parking","description":"Layby"}}, "geometry":{"type":"Point","coordinates":[-1.3234,54.36082 ]}},
{ "type":"Feature","properties":{"osm_id":"684831263","other":{"amenity":"parking","description":"Layby"}}, "geometry":{"type":"Point","coordinates":[-1.34914,54.21191 ]}},
{ "type":"Feature","properties":{"osm_id":"684831264","other":{"amenity":"parking","description":"Layby"}}, "geometry":{"type":"Point","coordinates":[-1.34056,54.21534 ]}},
{ "type":"Feature","properties":{"osm_id":"705296784","other":{"amenity":"parking","capacity":"7","fee":"no"}}, "geometry":{"type":"Point","coordinates":[-1.24245,54.27214 ]}},
{ "type":"Feature","properties":{"osm_id":"752175656","other":{"amenity":"parking","capacity":"4"}}, "geometry":{"type":"Point","coordinates":[-1.2316,54.247 ]}},
{ "type":"Feature","properties":{"osm_id":"828732185","other":{"amenity":"parking","parking":"layby"}}, "geometry":{"type":"Point","coordinates":[-1.20292,54.45882 ]}},
{ "type":"Feature","properties":{"osm_id":"1381851838","other":{"amenity":"parking","parking":"layby"}}, "geometry":{"type":"Point","coordinates":[-1.21791,54.12193 ]}},
{ "type":"Feature","properties":{"osm_id":"1381851842","other":{"amenity":"parking"}}, "geometry":{"type":"Point","coordinates":[-1.21556,54.11924 ]}},
{ "type":"Feature","properties":{"osm_id":"1406391317","name":"Nursery Car Park","other":{"amenity":"parking","fee":"yes"}}, "geometry":{"type":"Point","coordinates":[-1.34051,54.23261 ]}},
{ "type":"Feature","properties":{"osm_id":"1425250651","other":{"amenity":"parking_entrance"}}, "geometry":{"type":"Point","coordinates":[-1.4421,54.34517 ]}},
{ "type":"Feature","properties":{"osm_id":"1560676072","other":{"amenity":"bicycle_parking","bicycle_parking":"stands","capacity":"4"}}, "geometry":{"type":"Point","coordinates":[-1.13231,54.48868 ]}},
{ "type":"Feature","properties":{"osm_id":"1717746510","other":{"amenity":"parking"}}, "geometry":{"type":"Point","coordinates":[-1.37809,54.28217 ]}},
{ "type":"Feature","properties":{"osm_id":"1743327937","highway":"crossing"},"geometry":{"type":"Point","coordinates":[-4.13517,51.69267 ]}},
{ "type":"Feature","properties":{"osm_id":"1761057213","other":{"amenity":"parking"}}, "geometry":{"type":"Point","coordinates":[-1.19413,54.11058 ]}},
{ "type":"Feature","properties":{"osm_id":"1841607430","other":{"amenity":"parking"}}, "geometry":{"type":"Point","coordinates":[-1.56262,54.34533 ]}},
{ "type":"Feature","properties":{"osm_id":"1909740086","name":"Oaktree Leisure Angling"},"geometry":{"type":"Point","coordinates":[-1.16402,54.08003 ]}},
{ "type":"Feature","properties":{"osm_id":"1974865319","other":{"power":"pole"}}, "geometry":{"type":"Point","coordinates":[-1.30982,54.13242 ]}},
{ "type":"Feature","properties":{"osm_id":"1974865327","other":{"power":"tower"}}, "geometry":{"type":"Point","coordinates":[-1.30785,54.15717 ]}},
{ "type":"Feature","properties":{"osm_id":"1974865328","other":{"power":"tower"}}, "geometry":{"type":"Point","coordinates":[-1.26542,54.11462 ]}},
{ "type":"Feature","properties":{"osm_id":"1974865329","other":{"power":"tower"}}, "geometry":{"type":"Point","coordinates":[-1.26243,54.11233 ]}},
{ "type":"Feature","properties":{"osm_id":"1974865330","other":{"power":"tower"}}, "geometry":{"type":"Point","coordinates":[-1.37721,54.11322 ]}},
{ "type":"Feature","properties":{"osm_id":"2354622954","other":{"access":"permissive","emergency":"defibrillator","foot":"permissive","motor_vehicle":"permissive","wheelchair":"yes"}}, "geometry":{"type":"Point","coordinates":[-1.43273,54.33342 ]}},
{ "type":"Feature","properties":{"osm_id":"2592725142","name":"Welbury Village Hall","other":{"amenity":"townhall"}}, "geometry":{"type":"Point","coordinates":[-1.38527,54.41205 ]}},
{ "type":"Feature","properties":{"osm_id":"2678659337","other":{"amenity":"parking"}}, "geometry":{"type":"Point","coordinates":[-1.27467,54.39425 ]}},
{ "type":"Feature","properties":{"osm_id":"3450602134","other":{"access":"private","amenity":"parking"}}, "geometry":{"type":"Point","coordinates":[-1.1834,54.03963 ]}},
{ "type":"Feature","properties":{"osm_id":"3450622608","other":{"access":"unknown","amenity":"parking"}}, "geometry":{"type":"Point","coordinates":[-1.20089,54.03723 ]}},
{ "type":"Feature","properties":{"osm_id":"3733236195","other":{"amenity":"parking"}}, "geometry":{"type":"Point","coordinates":[-1.33605,54.33026 ]}},
{ "type":"Feature","properties":{"osm_id":"4212960316","other":{"amenity":"parking","parking":"layby"}}, "geometry":{"type":"Point","coordinates":[-1.35819,54.20743 ]}},
{ "type":"Feature","properties":{"osm_id":"4212960317","other":{"amenity":"parking","parking":"layby"}}, "geometry":{"type":"Point","coordinates":[-1.35902,54.20854 ]}},
{ "type":"Feature","properties":{"osm_id":"4414764772","other":{"addr:city":"Edinburgh","addr:country":"GB","addr:housenumber":"69","addr:postcode":"EH4 3DG","addr:street":"Belford Road"}}, "geometry":{"type":"Point","coordinates":[-3.22243,55.95037 ]}},
{ "type":"Feature","properties":{"osm_id":"4770678647","other":{"amenity":"parking","parking":"layby"}}, "geometry":{"type":"Point","coordinates":[-1.09575,54.06888 ]}},
{ "type":"Feature","properties":{"osm_id":"4793543614","other":{"amenity":"parking","parking":"layby"}}, "geometry":{"type":"Point","coordinates":[-1.15037,54.02313 ]}},
{ "type":"Feature","properties":{"osm_id":"4851377792","other":{"access":"yes","amenity":"parking","fee":"no","parking":"layby","surface":"gravel"}}, "geometry":{"type":"Point","coordinates":[-1.1437,53.99535 ]}},
{ "type":"Feature","properties":{"osm_id":"4852399896","other":{"amenity":"parking","parking":"layby"}}, "geometry":{"type":"Point","coordinates":[-1.30533,54.21313 ]}},
{ "type":"Feature","properties":{"osm_id":"4973561634","highway":"crossing","other":{"crossing":"zebra"}}, "geometry":{"type":"Point","coordinates":[-1.19159,54.11627 ]}},
{ "type":"Feature","properties":{"osm_id":"5573567918","other":{"amenity":"parking","parking":"layby"}}, "geometry":{"type":"Point","coordinates":[-1.23809,54.15226 ]}},
{ "type":"Feature","properties":{"osm_id":"5744470567","other":{"amenity":"parking"}}, "geometry":{"type":"Point","coordinates":[-1.12733,54.08682 ]}},
{ "type":"Feature","properties":{"osm_id":"5744566565","other":{"amenity":"parking"}}, "geometry":{"type":"Point","coordinates":[-1.13977,54.09563 ]}},
{ "type":"Feature","properties":{"osm_id":"5756331849","other":{"amenity":"parking"}}, "geometry":{"type":"Point","coordinates":[-1.10241,54.10325 ]}},
{ "type":"Feature","properties":{"osm_id":"5801778957","other":{"amenity":"parking"}}, "geometry":{"type":"Point","coordinates":[-1.02616,54.13304 ]}},
{ "type":"Feature","properties":{"osm_id":"5894185470","other":{"access":"unknown","amenity":"parking"}}, "geometry":{"type":"Point","coordinates":[-1.18351,54.1442 ]}},
{ "type":"Feature","properties":{"osm_id":"5894902969","other":{"amenity":"parking","parking":"layby"}}, "geometry":{"type":"Point","coordinates":[-1.13371,54.13513 ]}},
{ "type":"Feature","properties":{"osm_id":"6381850256","other":{"amenity":"parking","parking":"layby"}}, "geometry":{"type":"Point","coordinates":[-1.14298,54.11012 ]}},
{ "type":"Feature","properties":{"osm_id":"6479289820","other":{"amenity":"parking","parking":"layby"}}, "geometry":{"type":"Point","coordinates":[-1.17302,54.18348 ]}},
{ "type":"Feature","properties":{"osm_id":"6482911071","other":{"access":"yes","amenity":"parking","fee":"no","parking":"layby"}}, "geometry":{"type":"Point","coordinates":[-1.22649,54.03635 ]}},
{ "type":"Feature","properties":{"osm_id":"6560362607","other":{"amenity":"parking","parking":"layby"}}, "geometry":{"type":"Point","coordinates":[-1.23874,54.14606 ]}},
{ "type":"Feature","properties":{"osm_id":"6560362629","other":{"amenity":"parking","parking":"layby"}}, "geometry":{"type":"Point","coordinates":[-1.25173,54.17111 ]}},
{ "type":"Feature","properties":{"osm_id":"6745687645","other":{"amenity":"parking","parking":"layby"}}, "geometry":{"type":"Point","coordinates":[-1.33485,54.24383 ]}},
{ "type":"Feature","properties":{"osm_id":"6745687646","other":{"amenity":"parking","parking":"layby"}}, "geometry":{"type":"Point","coordinates":[-1.33882,54.3209 ]}},
{ "type":"Feature","properties":{"osm_id":"6745687647","other":{"amenity":"parking","parking":"layby"}}, "geometry":{"type":"Point","coordinates":[-1.32786,54.2374 ]}},
{ "type":"Feature","properties":{"osm_id":"6745757609","other":{"amenity":"parking","parking":"layby"}}, "geometry":{"type":"Point","coordinates":[-1.13643,54.43518 ]}},
{ "type":"Feature","properties":{"osm_id":"6745757610","other":{"amenity":"parking","parking":"layby"}}, "geometry":{"type":"Point","coordinates":[-1.14927,54.44232 ]}},
{ "type":"Feature","properties":{"osm_id":"6767445970","other":{"amenity":"parking","parking":"layby"}}, "geometry":{"type":"Point","coordinates":[-1.33732,54.13537 ]}},
{ "type":"Feature","properties":{"osm_id":"6919132039","other":{"amenity":"parking","parking":"layby"}}, "geometry":{"type":"Point","coordinates":[-1.3497,54.21195 ]}},
{ "type":"Feature","properties":{"osm_id":"6919132040","other":{"amenity":"parking","parking":"layby"}}, "geometry":{"type":"Point","coordinates":[-1.3413,54.21528 ]}},
{ "type":"Feature","properties":{"osm_id":"6919132041","other":{"amenity":"parking","parking":"layby"}}, "geometry":{"type":"Point","coordinates":[-1.3317,54.2207 ]}},
{ "type":"Feature","properties":{"osm_id":"7009821745","other":{"amenity":"parking","parking":"layby"}}, "geometry":{"type":"Point","coordinates":[-1.26194,54.40784 ]}},
{ "type":"Feature","properties":{"osm_id":"7051949866","other":{"emergency":"defibrillator"}}, "geometry":{"type":"Point","coordinates":[-1.45327,54.3273 ]}},
{ "type":"Feature","properties":{"osm_id":"7100231102","other":{"access":"unknown","amenity":"parking","surface":"gravel"}}, "geometry":{"type":"Point","coordinates":[-1.0581,54.46509 ]}},
{ "type":"Feature","properties":{"osm_id":"7107896726","other":{"amenity":"parking","parking":"layby","surface":"gravel"}}, "geometry":{"type":"Point","coordinates":[-1.08842,54.4654 ]}},
{ "type":"Feature","properties":{"osm_id":"7123532896","other":{"amenity":"parking","parking":"layby"}}, "geometry":{"type":"Point","coordinates":[-1.06713,54.46881 ]}},
{ "type":"Feature","properties":{"osm_id":"7123601191","other":{"amenity":"parking","parking":"layby"}}, "geometry":{"type":"Point","coordinates":[-1.06999,54.48212 ]}},
{ "type":"Feature","properties":{"osm_id":"7680310142","other":{"access":"yes","amenity":"parking","capacity":"16","parking":"surface","surface":"asphalt"}}, "geometry":{"type":"Point","coordinates":[-1.21425,54.20981 ]}},
{ "type":"Feature","properties":{"osm_id":"7925104639","other":{"amenity":"parking"}}, "geometry":{"type":"Point","coordinates":[-1.23811,54.21863 ]}},
{ "type":"Feature","properties":{"osm_id":"7945310605","other":{"generator:method":"photovoltaic","generator:output:electricity":"yes","generator:source":"solar","generator:type":"solar_photovoltaic_panel","location":"roof","power":"generator"}}, "geometry":{"type":"Point","coordinates":[-1.26597,53.6186 ]}},
{ "type":"Feature","properties":{"osm_id":"7945310608","other":{"generator:method":"photovoltaic","generator:output:electricity":"yes","generator:source":"solar","generator:type":"solar_photovoltaic_panel","location":"roof","power":"generator"}}, "geometry":{"type":"Point","coordinates":[-1.26713,53.61877 ]}},
{ "type":"Feature","properties":{"osm_id":"8661845761","other":{"amenity":"parking","parking":"layby"}}, "geometry":{"type":"Point","coordinates":[-1.1105,54.09666 ]}},
{ "type":"Feature","properties":{"osm_id":"8663245821","other":{"amenity":"parking"}}, "geometry":{"type":"Point","coordinates":[-1.12028,54.35813 ]}},
{ "type":"Feature","properties":{"osm_id":"8681426948","other":{"amenity":"parking","parking":"layby"}}, "geometry":{"type":"Point","coordinates":[-1.11972,54.34339 ]}},
{ "type":"Feature","properties":{"osm_id":"8692024289","other":{"amenity":"parking","parking":"layby"}}, "geometry":{"type":"Point","coordinates":[-1.18175,54.13368 ]}},
{ "type":"Feature","properties":{"osm_id":"8849303351","other":{"amenity":"parking","parking":"layby"}}, "geometry":{"type":"Point","coordinates":[-1.13567,54.40312 ]}},
{ "type":"Feature","properties":{"osm_id":"8856467157","other":{"power":"pole"}}, "geometry":{"type":"Point","coordinates":[-1.19975,52.00054 ]}},
{ "type":"Feature","properties":{"osm_id":"8856467164","other":{"power":"pole"}}, "geometry":{"type":"Point","coordinates":[-1.19273,52.0054 ]}},
{ "type":"Feature","properties":{"osm_id":"8856467167","other":{"power":"pole"}}, "geometry":{"type":"Point","coordinates":[-1.18851,52.00672 ]}},
{ "type":"Feature","properties":{"osm_id":"8856467169","other":{"power":"pole"}}, "geometry":{"type":"Point","coordinates":[-1.20014,51.99788 ]}},
{ "type":"Feature","properties":{"osm_id":"8870302425","highway":"street_lamp"},"geometry":{"type":"Point","coordinates":[-1.60493,52.27339 ]}},
{ "type":"Feature","properties":{"osm_id":"8878317614","other":{"amenity":"parking","parking":"layby"}}, "geometry":{"type":"Point","coordinates":[-1.24687,54.26208 ]}},
{ "type":"Feature","properties":{"osm_id":"8892543206","other":{"access":"yes","amenity":"parking","fee":"no","parking":"layby"}}, "geometry":{"type":"Point","coordinates":[-1.18292,54.16882 ]}},
{ "type":"Feature","properties":{"osm_id":"9061153041","other":{"power":"pole"}}, "geometry":{"type":"Point","coordinates":[-2.09566,54.60637 ]}},
{ "type":"Feature","properties":{"osm_id":"9081135013","other":{"amenity":"parking","parking":"layby"}}, "geometry":{"type":"Point","coordinates":[-1.25229,54.17155 ]}},
{ "type":"Feature","properties":{"osm_id":"9120261653","other":{"access":"private","amenity":"parking","layer":"-1","parking":"underground"}}, "geometry":{"type":"Point","coordinates":[-3.16095,51.46421 ]}},
{ "type":"Feature","properties":{"osm_id":"9120261659","other":{"access":"private","amenity":"parking","layer":"-1","parking":"underground"}}, "geometry":{"type":"Point","coordinates":[-3.16154,51.46411 ]}},
{ "type":"Feature","properties":{"osm_id":"9177330494","other":{"amenity":"parking"}}, "geometry":{"type":"Point","coordinates":[-1.17937,54.11462 ]}},
{ "type":"Feature","properties":{"osm_id":"9351495940","other":{"amenity":"parking"}}, "geometry":{"type":"Point","coordinates":[-1.10704,54.16993 ]}},
{ "type":"Feature","properties":{"osm_id":"9351495944","other":{"amenity":"parking"}}, "geometry":{"type":"Point","coordinates":[-1.10709,54.17003 ]}},
{ "type":"Feature","properties":{"osm_id":"9457904118","other":{"amenity":"parking","parking":"street_side"}}, "geometry":{"type":"Point","coordinates":[-1.09661,54.1634 ]}},
{ "type":"Feature","properties":{"osm_way_id":"4687661","amenity":"parking","other":{"access":"yes","capacity":"30","fee":"no","parking":"street_side"}}, "geometry":{"type":"MultiPolygon","coordinates":[[[[-1.08769,54.49097],[-1.08617,54.49065],[-1.08614,54.49069],[-1.08766,54.49101],[-1.08769,54.49097]]]]}},
{ "type":"Feature","properties":{"osm_way_id":"4968964","amenity":"parking","other":{"access":"yes","fee":"yes","operator":"English Heritage","parking":"surface"}}, "geometry":{"type":"MultiPolygon","coordinates":[[[[-1.31205,54.37987],[-1.31207,54.37963],[-1.31316,54.3797],[-1.31314,54.38],[-1.31298,54.38],[-1.31296,54.37993],[-1.31205,54.37987]]]]}},
{ "type":"Feature","properties":{"osm_way_id":"18948449","amenity":"parking","other":{"access":"yes","fee":"no","parking":"surface"}}, "geometry":{"type":"MultiPolygon","coordinates":[[[[-1.21324,54.22405],[-1.21308,54.22404],[-1.21308,54.22395],[-1.21285,54.2239],[-1.21294,54.22356],[-1.21305,54.22356],[-1.21308,54.22351],[-1.21315,54.22351],[-1.21317,54.22357],[-1.21326,54.22361],[-1.21324,54.22397],[-1.21324,54.22405]]]]}},
{ "type":"Feature","properties":{"osm_way_id":"30534461","name":"Applegarth Short Stay Car Park","amenity":"parking","other":{"capacity":"148","fee":"40p @ Hr - Max 2"}}, "geometry":{"type":"MultiPolygon","coordinates":[[[[-1.43673,54.33985],[-1.43676,54.33999],[-1.4368,54.34022],[-1.43691,54.34025],[-1.43628,54.34071],[-1.43616,54.34072],[-1.43614,54.34069],[-1.43609,54.34061],[-1.43599,54.33992],[-1.43625,54.33989],[-1.43647,54.33987],[-1.43661,54.33986],[-1.43664,54.33986],[-1.43673,54.33985]]]]}},
{ "type":"Feature","properties":{"osm_way_id":"30738709","name":"Hambleton Forum","amenity":"parking","other":{"capacity":"138","covered":"no","fee":"40p @ Hr max 4 @ £1.50","parking":"surface","surface":"asphalt"}}, "geometry":{"type":"MultiPolygon","coordinates":[[[[-1.43194,54.34069],[-1.43158,54.34077],[-1.43157,54.34074],[-1.43121,54.34081],[-1.43127,54.3409],[-1.43118,54.34092],[-1.43116,54.34109],[-1.43099,54.34107],[-1.43099,54.34092],[-1.4309,54.34069],[-1.43083,54.34067],[-1.42979,54.34086],[-1.4297,54.34073],[-1.43146,54.3404],[-1.43152,54.34049],[-1.4318,54.34045],[-1.43194,54.34069]]]]}},
{ "type":"Feature","properties":{"osm_way_id":"30742921","amenity":"parking"},"geometry":{"type":"MultiPolygon","coordinates":[[[[-1.42346,54.25733],[-1.42327,54.25732],[-1.42332,54.25704],[-1.42345,54.25702],[-1.42358,54.25721],[-1.42358,54.25733],[-1.42346,54.25733]]]]}},
{ "type":"Feature","properties":{"osm_way_id":"30777564","amenity":"parking"},"geometry":{"type":"MultiPolygon","coordinates":[[[[-1.44591,54.32833],[-1.44649,54.32838],[-1.44653,54.32823],[-1.44676,54.32826],[-1.44672,54.3284],[-1.44689,54.32841],[-1.44693,54.32842],[-1.44699,54.32818],[-1.44596,54.32809],[-1.44595,54.32815],[-1.44591,54.32833]]]]}},
{ "type":"Feature","properties":{"osm_way_id":"30777802","amenity":"parking","other":{"operator":"Tesco"}}, "geometry":{"type":"MultiPolygon","coordinates":[[[[-1.43299,54.33688],[-1.43301,54.33707],[-1.43301,54.33713],[-1.43302,54.33729],[-1.43327,54.33729],[-1.43341,54.33729],[-1.43342,54.33731],[-1.43342,54.33732],[-1.43256,54.33734],[-1.43257,54.33749],[-1.43128,54.33753],[-1.43127,54.3375],[-1.43123,54.33731],[-1.43127,54.33712],[-1.43138,54.337],[-1.43149,54.33692],[-1.43164,54.33686],[-1.43177,54.33683],[-1.43193,54.33683],[-1.43201,54.33682],[-1.43252,54.33682],[-1.43268,54.33682],[-1.43269,54.33689],[-1.43299,54.33688]]]]}},
{ "type":"Feature","properties":{"osm_way_id":"30912384","amenity":"parking","other":{"parking":"surface"}}, "geometry":{"type":"MultiPolygon","coordinates":[[[[-1.31912,54.41594],[-1.31913,54.41629],[-1.31842,54.41615],[-1.31824,54.41604],[-1.31818,54.4159],[-1.31815,54.4156],[-1.31836,54.41542],[-1.31916,54.41523],[-1.3191,54.41562],[-1.31912,54.41594]]]]}},
{ "type":"Feature","properties":{"osm_way_id":"32947658","name":"Square Corner","amenity":"parking","other":{"access":"yes","fee":"no","parking":"surface","surface":"gravel"}}, "geometry":{"type":"MultiPolygon","coordinates":[[[[-1.26378,54.35647],[-1.26297,54.35647],[-1.263,54.35639],[-1.26306,54.35636],[-1.26359,54.35634],[-1.2637,54.35636],[-1.26378,54.35647]]]]}},
{ "type":"Feature","properties":{"osm_way_id":"34426827","name":"Sheep Wash","amenity":"parking","other":{"capacity":"7","parking":"surface"}}, "geometry":{"type":"MultiPolygon","coordinates":[[[[-1.28113,54.38681],[-1.28107,54.38681],[-1.28096,54.38673],[-1.28091,54.38668],[-1.28108,54.38661],[-1.2812,54.38671],[-1.28113,54.38681]]]]}},
{ "type":"Feature","properties":{"osm_way_id":"38808942","amenity":"parking"},"geometry":{"type":"MultiPolygon","coordinates":[[[[-1.19072,54.1179],[-1.19072,54.1176],[-1.19017,54.11758],[-1.19029,54.11792],[-1.19039,54.11792],[-1.19072,54.1179]]]]}},
{ "type":"Feature","properties":{"osm_way_id":"39532049","amenity":"parking"},"geometry":{"type":"MultiPolygon","coordinates":[[[[-1.19239,54.12479],[-1.19247,54.12511],[-1.19225,54.12511],[-1.19215,54.12485],[-1.19226,54.12479],[-1.19239,54.12479]]]]}},
{ "type":"Feature","properties":{"osm_way_id":"39591012","amenity":"parking"},"geometry":{"type":"MultiPolygon","coordinates":[[[[-1.19028,54.12082],[-1.19031,54.12086],[-1.19077,54.12085],[-1.19075,54.12079],[-1.19072,54.12036],[-1.19019,54.12036],[-1.19019,54.12041],[-1.19021,54.1206],[-1.19028,54.12082]]]]}},
{ "type":"Feature","properties":{"osm_way_id":"39754757","amenity":"parking"},"geometry":{"type":"MultiPolygon","coordinates":[[[[-1.19194,54.12459],[-1.1919,54.12459],[-1.19139,54.1246],[-1.19139,54.12475],[-1.19179,54.12475],[-1.19179,54.1247],[-1.19192,54.12466],[-1.19194,54.12459]]]]}},
{ "type":"Feature","properties":{"osm_way_id":"39761972","amenity":"parking"},"geometry":{"type":"MultiPolygon","coordinates":[[[[-1.19706,54.12308],[-1.19687,54.12282],[-1.19666,54.12288],[-1.19686,54.12313],[-1.19697,54.1231],[-1.19706,54.12308]]]]}},
{ "type":"Feature","properties":{"osm_way_id":"39762107","amenity":"parking","other":{"fee":"no"}}, "geometry":{"type":"MultiPolygon","coordinates":[[[[-1.193,54.11891],[-1.19279,54.11885],[-1.19284,54.11866],[-1.19312,54.11866],[-1.193,54.11891]]]]}},
{ "type":"Feature","properties":{"osm_way_id":"39762128","amenity":"parking","other":{"fee":"no"}}, "geometry":{"type":"MultiPolygon","coordinates":[[[[-1.1931,54.11898],[-1.19328,54.11903],[-1.19339,54.11889],[-1.19318,54.11883],[-1.1931,54.11898]]]]}},
{ "type":"Feature","properties":{"osm_way_id":"40000681","amenity":"parking"},"geometry":{"type":"MultiPolygon","coordinates":[[[[-1.19146,54.12118],[-1.1916,54.12118],[-1.19159,54.1211],[-1.19162,54.12084],[-1.19144,54.12084],[-1.19144,54.1207],[-1.19173,54.12072],[-1.19167,54.12083],[-1.19195,54.1209],[-1.19193,54.12096],[-1.19191,54.12099],[-1.19179,54.12127],[-1.19178,54.1213],[-1.19147,54.12131],[-1.19146,54.12118]]]]}},
{ "type":"Feature","properties":{"osm_way_id":"40001825","building":"office","other":{"addr:city":"Easingwold","addr:housename":"The Advertiser Office","addr:postcode":"YO61 3AB","addr:street":"Market Place"}}, "geometry":{"type":"MultiPolygon","coordinates":[[[[-1.19237,54.12149],[-1.19218,54.1215],[-1.19223,54.12171],[-1.19243,54.1217],[-1.19237,54.12149]]]]}},
{ "type":"Feature","properties":{"osm_way_id":"40001955","amenity":"toilets","building":"yes","other":{"access":"yes"}}, "geometry":{"type":"MultiPolygon","coordinates":[[[[-1.19241,54.1215],[-1.1925,54.12149],[-1.19251,54.12153],[-1.19248,54.12153],[-1.19249,54.12157],[-1.19243,54.12158],[-1.19241,54.1215]]]]}},
{ "type":"Feature","properties":{"osm_way_id":"41110861","amenity":"parking"},"geometry":{"type":"MultiPolygon","coordinates":[[[[-1.20151,54.1243],[-1.20144,54.12421],[-1.20139,54.12414],[-1.20086,54.12427],[-1.20092,54.12436],[-1.20097,54.12443],[-1.20125,54.12436],[-1.20151,54.1243]]]]}},
{ "type":"Feature","properties":{"osm_way_id":"49714472","name":"Car park 1","amenity":"parking","other":{"access":"permissive","covered":"no","fee":"yes","motor_vehicle":"permissive"}}, "geometry":{"type":"MultiPolygon","coordinates":[[[[-4.13553,51.69313],[-4.13467,51.69315],[-4.13472,51.69273],[-4.13491,51.69273],[-4.13517,51.69267],[-4.13561,51.69266],[-4.13553,51.69313]]]]}},
{ "type":"Feature","properties":{"osm_way_id":"53843646","amenity":"parking"},"geometry":{"type":"MultiPolygon","coordinates":[[[[-1.4668,54.33984],[-1.46642,54.33989],[-1.46639,54.33971],[-1.46687,54.33971],[-1.4668,54.33984]]]]}},
{ "type":"Feature","properties":{"osm_way_id":"55336419","amenity":"parking","other":{"surface":"dirt"}}, "geometry":{"type":"MultiPolygon","coordinates":[[[[-1.453,54.3279],[-1.4527,54.32785],[-1.4529,54.32738],[-1.45305,54.32701],[-1.454,54.32715],[-1.45393,54.32731],[-1.4533,54.32722],[-1.45327,54.3273],[-1.453,54.3279]]]]}},
{ "type":"Feature","properties":{"osm_way_id":"55337581","name":"Long Stay","amenity":"parking"},"geometry":{"type":"MultiPolygon","coordinates":[[[[-1.44355,54.33409],[-1.44359,54.33397],[-1.44345,54.33375],[-1.44327,54.3335],[-1.4431,54.33352],[-1.44287,54.33303],[-1.44274,54.33288],[-1.44229,54.33295],[-1.44249,54.33331],[-1.44273,54.33386],[-1.44278,54.33389],[-1.44342,54.33408],[-1.44355,54.33409]]]]}},
{ "type":"Feature","properties":{"osm_way_id":"55355381","amenity":"parking"},"geometry":{"type":"MultiPolygon","coordinates":[[[[-1.42425,54.36314],[-1.42433,54.3632],[-1.42411,54.36325],[-1.42382,54.36331],[-1.42373,54.36328],[-1.42377,54.36323],[-1.42366,54.36319],[-1.42407,54.36294],[-1.42439,54.36286],[-1.42425,54.36314]]]]}},
{ "type":"Feature","properties":{"osm_way_id":"55896494","amenity":"parking"},"geometry":{"type":"MultiPolygon","coordinates":[[[[-1.4344,54.34006],[-1.43431,54.34004],[-1.43425,54.34007],[-1.43422,54.3401],[-1.4342,54.34006],[-1.43415,54.33992],[-1.43416,54.33989],[-1.43418,54.33987],[-1.43422,54.33985],[-1.43434,54.33983],[-1.43448,54.34006],[-1.4344,54.34006]]]]}},
{ "type":"Feature","properties":{"osm_way_id":"56012149","amenity":"parking"},"geometry":{"type":"MultiPolygon","coordinates":[[[[-1.43924,54.33598],[-1.43934,54.33585],[-1.43939,54.33571],[-1.43931,54.3357],[-1.43937,54.33559],[-1.43979,54.33564],[-1.43963,54.33605],[-1.4396,54.33612],[-1.43928,54.33608],[-1.43932,54.33601],[-1.43924,54.33598]]]]}},
{ "type":"Feature","properties":{"osm_way_id":"56012271","amenity":"parking","other":{"access":"private","surface":"gravel"}}, "geometry":{"type":"MultiPolygon","coordinates":[[[[-1.43565,54.33711],[-1.43706,54.33711],[-1.43722,54.33705],[-1.43777,54.33716],[-1.43785,54.33703],[-1.43737,54.33694],[-1.43736,54.33672],[-1.43572,54.33673],[-1.43565,54.33711]]]]}},
{ "type":"Feature","properties":{"osm_way_id":"58205553","amenity":"parking","other":{"surface":"asphalt"}}, "geometry":{"type":"MultiPolygon","coordinates":[[[[-1.43907,54.34556],[-1.43912,54.34553],[-1.43883,54.34534],[-1.43858,54.34539],[-1.43798,54.34556],[-1.43781,54.3456],[-1.43784,54.34564],[-1.43778,54.34566],[-1.43782,54.34572],[-1.43791,54.34569],[-1.43793,54.34573],[-1.43801,54.34572],[-1.43805,54.34577],[-1.43818,54.3458],[-1.43812,54.34591],[-1.43842,54.34594],[-1.43869,54.34587],[-1.4389,54.34587],[-1.43915,54.34557],[-1.43907,54.34556]]]]}},
{ "type":"Feature","properties":{"osm_way_id":"59159258","amenity":"parking"},"geometry":{"type":"MultiPolygon","coordinates":[[[[-1.43514,54.34859],[-1.43418,54.34885],[-1.43373,54.34883],[-1.43374,54.34878],[-1.43374,54.34876],[-1.43388,54.34877],[-1.43387,54.34875],[-1.43388,54.3487],[-1.43409,54.34871],[-1.43411,54.34864],[-1.43451,54.34853],[-1.43459,54.34863],[-1.4346,54.34865],[-1.43485,54.34858],[-1.43507,54.34851],[-1.4351,54.34854],[-1.43514,54.34859]]]]}},
{ "type":"Feature","properties":{"osm_way_id":"59159271","amenity":"parking"},"geometry":{"type":"MultiPolygon","coordinates":[[[[-1.43439,54.34845],[-1.43426,54.34829],[-1.43448,54.34823],[-1.43446,54.34818],[-1.4342,54.34825],[-1.43415,54.34817],[-1.43372,54.34827],[-1.43382,54.34839],[-1.43402,54.34835],[-1.43415,54.34851],[-1.43408,54.34852],[-1.43415,54.34861],[-1.43455,54.34851],[-1.4345,54.34842],[-1.43439,54.34845]]]]}},
{ "type":"Feature","properties":{"osm_way_id":"62162501","amenity":"parking"},"geometry":{"type":"MultiPolygon","coordinates":[[[[-1.3568,54.25855],[-1.3567,54.25892],[-1.35634,54.25888],[-1.35632,54.25847],[-1.3568,54.25855]]]]}},
{ "type":"Feature","properties":{"osm_way_id":"69283949","amenity":"parking","other":{"access":"customers","source:access":"Owner of cafe moaning about people parking there"}}, "geometry":{"type":"MultiPolygon","coordinates":[[[[-1.19293,54.4201],[-1.19265,54.42011],[-1.19264,54.41945],[-1.19293,54.41946],[-1.19293,54.41948],[-1.19293,54.41954],[-1.19293,54.41982],[-1.19293,54.41987],[-1.19293,54.42006],[-1.19293,54.4201]]]]}},
{ "type":"Feature","properties":{"osm_way_id":"69669130","amenity":"parking"},"geometry":{"type":"MultiPolygon","coordinates":[[[[-1.54996,54.27832],[-1.54974,54.2784],[-1.54996,54.27852],[-1.55016,54.27843],[-1.54996,54.27832]]]]}},
{ "type":"Feature","properties":{"osm_way_id":"70221839","name":"Coach Parking","amenity":"parking","other":{"coach":"designated","fee":"no","motor_vehicle":"no","surface":"asphalt","tourist_bus":"yes"}}, "geometry":{"type":"MultiPolygon","coordinates":[[[[-1.34315,54.23434],[-1.34341,54.23435],[-1.34337,54.23423],[-1.34326,54.23415],[-1.34291,54.23415],[-1.34315,54.23434]]]]}},
{ "type":"Feature","properties":{"osm_way_id":"70697815","amenity":"parking"},"geometry":{"type":"MultiPolygon","coordinates":[[[[-1.34043,54.28563],[-1.34068,54.28521],[-1.34053,54.28516],[-1.34066,54.28498],[-1.34085,54.28501],[-1.34104,54.2846],[-1.34119,54.28459],[-1.34119,54.28429],[-1.34091,54.28405],[-1.3409,54.28444],[-1.34059,54.28463],[-1.34012,54.28556],[-1.34028,54.28559],[-1.34043,54.28563]]]]}},
{ "type":"Feature","properties":{"osm_way_id":"70991814","amenity":"parking","other":{"access":"permissive","capacity":"10","fee":"no","operator":"Northern Rail","park_ride":"yes","parking":"surface"}}, "geometry":{"type":"MultiPolygon","coordinates":[[[[-1.11559,54.4896],[-1.11554,54.48956],[-1.11549,54.48958],[-1.11544,54.48955],[-1.11541,54.48956],[-1.11531,54.48949],[-1.11546,54.48942],[-1.11562,54.4895],[-1.11569,54.4895],[-1.1158,54.48948],[-1.11582,54.48951],[-1.11584,54.48953],[-1.11559,54.4896]]]]}},
{ "type":"Feature","properties":{"osm_way_id":"92162207","amenity":"parking","other":{"access":"private"}}, "geometry":{"type":"MultiPolygon","coordinates":[[[[-1.24744,54.04304],[-1.24714,54.04303],[-1.24715,54.04289],[-1.24719,54.04289],[-1.2472,54.04273],[-1.24746,54.04274],[-1.24744,54.04304]]]]}},
{ "type":"Feature","properties":{"osm_way_id":"92162213","amenity":"parking","other":{"access":"private"}}, "geometry":{"type":"MultiPolygon","coordinates":[[[[-1.24656,54.04483],[-1.24561,54.0448],[-1.24565,54.04417],[-1.2457,54.04417],[-1.24605,54.04418],[-1.24605,54.04419],[-1.24651,54.04421],[-1.24661,54.04421],[-1.24656,54.04483]]]]}},
{ "type":"Feature","properties":{"osm_way_id":"92162264","amenity":"parking","other":{"access":"private","parking":"surface"}}, "geometry":{"type":"MultiPolygon","coordinates":[[[[-1.24472,54.04358],[-1.24408,54.04356],[-1.2441,54.04341],[-1.24463,54.04342],[-1.24472,54.04353],[-1.24472,54.04358]]]]}},
{ "type":"Feature","properties":{"osm_way_id":"96104790","amenity":"parking","other":{"access":"private"}}, "geometry":{"type":"MultiPolygon","coordinates":[[[[-3.30902,57.66151],[-3.30909,57.66148],[-3.30913,57.66151],[-3.30926,57.66146],[-3.30943,57.66158],[-3.30937,57.6616],[-3.30942,57.66163],[-3.30948,57.66161],[-3.30964,57.66173],[-3.30943,57.66182],[-3.30938,57.66178],[-3.30931,57.66181],[-3.30936,57.66184],[-3.30914,57.66193],[-3.30898,57.66182],[-3.30905,57.66179],[-3.309,57.66176],[-3.30892,57.66179],[-3.30874,57.66166],[-3.30887,57.66161],[-3.30884,57.66158],[-3.30892,57.66155],[-3.30893,57.66155],[-3.30902,57.66151]]]]}},
{ "type":"Feature","properties":{"osm_way_id":"100500597","name":"Kildale Station","amenity":"parking","other":{"capacity":"5","fee":"no","park_ride":"yes","parking":"surface"}}, "geometry":{"type":"MultiPolygon","coordinates":[[[[-1.06801,54.47765],[-1.06807,54.47775],[-1.06831,54.47771],[-1.06833,54.4777],[-1.0683,54.47765],[-1.06826,54.4776],[-1.06801,54.47765]]]]}},
{ "type":"Feature","properties":{"osm_way_id":"100999131","amenity":"parking"},"geometry":{"type":"MultiPolygon","coordinates":[[[[-1.43405,54.34788],[-1.43419,54.34776],[-1.4343,54.34781],[-1.4344,54.3479],[-1.43444,54.34803],[-1.43442,54.34809],[-1.43419,54.34814],[-1.43415,54.34806],[-1.43416,54.34801],[-1.43413,54.34796],[-1.43405,54.34788]]]]}},
{ "type":"Feature","properties":{"osm_way_id":"106285302","name":"Hob Hole Car Park","amenity":"parking","other":{"fee":"no","source:geometry":"Bing","surface":"compacted"}}, "geometry":{"type":"MultiPolygon","coordinates":[[[[-0.9954,54.45775],[-0.99547,54.4578],[-0.99544,54.45789],[-0.99527,54.45793],[-0.99509,54.45789],[-0.99496,54.45787],[-0.99502,54.45781],[-0.99513,54.45775],[-0.99532,54.4577],[-0.9954,54.45775]]]]}},
{ "type":"Feature","properties":{"osm_way_id":"107367604","amenity":"parking","other":{"capacity":"10"}}, "geometry":{"type":"MultiPolygon","coordinates":[[[[-0.99546,52.53749],[-0.99555,52.53731],[-0.9953,52.53724],[-0.99516,52.53744],[-0.99546,52.53749]]]]}},
{ "type":"Feature","properties":{"osm_way_id":"107367607","name":"School Road","amenity":"parking","other":{"capacity":"80"}}, "geometry":{"type":"MultiPolygon","coordinates":[[[[-0.99817,52.53787],[-0.99822,52.53759],[-0.99749,52.53757],[-0.99686,52.53751],[-0.99685,52.53778],[-0.99726,52.53779],[-0.99732,52.53786],[-0.99817,52.53787]]]]}},
{ "type":"Feature","properties":{"osm_way_id":"107422486","amenity":"parking","other":{"access":"customers","capacity":"18","fee":"no","parking":"surface"}}, "geometry":{"type":"MultiPolygon","coordinates":[[[[1.0632,51.2955],[1.0631,51.29546],[1.06305,51.29551],[1.06295,51.29559],[1.06304,51.29563],[1.06327,51.29573],[1.06333,51.29567],[1.06337,51.29564],[1.06366,51.29577],[1.06379,51.29565],[1.06337,51.29547],[1.06329,51.29543],[1.06323,51.29547],[1.0632,51.2955]]]]}},
{ "type":"Feature","properties":{"osm_way_id":"108380780","amenity":"parking","other":{"access":"private","source:geometry":"Bing"}}, "geometry":{"type":"MultiPolygon","coordinates":[[[[-1.142,54.38904],[-1.14203,54.38884],[-1.14148,54.38881],[-1.14145,54.38901],[-1.142,54.38904]]]]}},
{ "type":"Feature","properties":{"osm_way_id":"108380789","amenity":"parking","other":{"source:geometry":"Bing"}}, "geometry":{"type":"MultiPolygon","coordinates":[[[[-1.1102,54.42629],[-1.11009,54.42627],[-1.1099,54.42651],[-1.10991,54.42653],[-1.11004,54.42659],[-1.11023,54.42663],[-1.11027,54.42654],[-1.11031,54.42645],[-1.1103,54.42638],[-1.11024,54.42632],[-1.1102,54.42629]]]]}},
{ "type":"Feature","properties":{"osm_way_id":"108380993","name":"Clay Bank Car Park","amenity":"parking"},"geometry":{"type":"MultiPolygon","coordinates":[[[[-1.11995,54.42468],[-1.11981,54.42468],[-1.11966,54.42466],[-1.11941,54.42457],[-1.11925,54.4245],[-1.11941,54.42418],[-1.11967,54.4242],[-1.11979,54.42423],[-1.1201,54.4246],[-1.11995,54.42468]]]]}},
{ "type":"Feature","properties":{"osm_way_id":"108566366","name":"Applegarth Long Stay Car Park","amenity":"parking","other":{"capacity":"268","fee":"£1.50"}}, "geometry":{"type":"MultiPolygon","coordinates":[[[[-1.43664,54.33986],[-1.4366,54.33943],[-1.43692,54.33937],[-1.43781,54.33918],[-1.43782,54.3392],[-1.43798,54.33946],[-1.43807,54.3396],[-1.43753,54.33981],[-1.43718,54.34004],[-1.43691,54.34025],[-1.4368,54.34022],[-1.43676,54.33999],[-1.43673,54.33985],[-1.43664,54.33986]]]]}},
{ "type":"Feature","properties":{"osm_way_id":"108600086","amenity":"parking"},"geometry":{"type":"MultiPolygon","coordinates":[[[[-1.41491,54.36229],[-1.41522,54.36218],[-1.4157,54.36261],[-1.41559,54.36265],[-1.41561,54.36274],[-1.41546,54.3628],[-1.41533,54.36275],[-1.41491,54.36229]]]]}},
{ "type":"Feature","properties":{"osm_way_id":"111720098","amenity":"parking"},"geometry":{"type":"MultiPolygon","coordinates":[[[[-1.43382,54.34773],[-1.43301,54.34791],[-1.43304,54.34797],[-1.43263,54.34807],[-1.43272,54.34817],[-1.43316,54.34807],[-1.43311,54.34796],[-1.43337,54.34789],[-1.43355,54.34814],[-1.43405,54.34801],[-1.43382,54.34773]]]]}},
{ "type":"Feature","properties":{"osm_way_id":"111720099","amenity":"parking"},"geometry":{"type":"MultiPolygon","coordinates":[[[[-1.43289,54.34856],[-1.43271,54.34834],[-1.43293,54.3483],[-1.43305,54.34833],[-1.43318,54.3485],[-1.43314,54.34856],[-1.43317,54.34859],[-1.43294,54.34864],[-1.43289,54.34856]]]]}},
{ "type":"Feature","properties":{"osm_way_id":"111828011","amenity":"parking"},"geometry":{"type":"MultiPolygon","coordinates":[[[[-1.4416,54.34641],[-1.44159,54.34645],[-1.44115,54.34644],[-1.44115,54.34639],[-1.44107,54.34638],[-1.44108,54.34619],[-1.44116,54.34619],[-1.44116,54.34617],[-1.44154,54.34617],[-1.44154,54.3462],[-1.44163,54.34621],[-1.44166,54.34636],[-1.44171,54.34637],[-1.4416,54.34641]]]]}},
{ "type":"Feature","properties":{"osm_way_id":"111828012","amenity":"parking","other":{"access":"private","parking":"surface"}}, "geometry":{"type":"MultiPolygon","coordinates":[[[[-1.42814,54.33829],[-1.4282,54.33835],[-1.42812,54.33838],[-1.4284,54.3387],[-1.42847,54.33868],[-1.4285,54.33872],[-1.42904,54.33856],[-1.42902,54.33852],[-1.42909,54.33852],[-1.42905,54.33844],[-1.42905,54.33837],[-1.42899,54.3383],[-1.42903,54.33827],[-1.42905,54.33824],[-1.42907,54.3382],[-1.42912,54.33812],[-1.42907,54.33802],[-1.42876,54.33767],[-1.42861,54.33771],[-1.42868,54.3378],[-1.42871,54.33785],[-1.42891,54.33808],[-1.42856,54.33817],[-1.42814,54.33829]]]]}},
{ "type":"Feature","properties":{"osm_way_id":"111828013","amenity":"parking"},"geometry":{"type":"MultiPolygon","coordinates":[[[[-1.44192,54.34652],[-1.44182,54.34645],[-1.44178,54.34626],[-1.44178,54.34617],[-1.44228,54.34601],[-1.44267,54.34634],[-1.44219,54.3465],[-1.44224,54.34655],[-1.44203,54.34662],[-1.44192,54.34652]]]]}},
{ "type":"Feature","properties":{"osm_way_id":"111828014","amenity":"parking"},"geometry":{"type":"MultiPolygon","coordinates":[[[[-1.42948,54.33777],[-1.42916,54.33739],[-1.42905,54.33742],[-1.42909,54.33736],[-1.42904,54.33734],[-1.42875,54.33744],[-1.42877,54.33748],[-1.42893,54.33744],[-1.42895,54.33746],[-1.42927,54.33784],[-1.4293,54.33783],[-1.42938,54.3378],[-1.42948,54.33777]]]]}},
{ "type":"Feature","properties":{"osm_way_id":"112455254","amenity":"parking","other":{"access":"private"}}, "geometry":{"type":"MultiPolygon","coordinates":[[[[-3.98171,51.6092],[-3.98194,51.6091],[-3.98187,51.60903],[-3.98164,51.60913],[-3.98171,51.6092]]]]}},
{ "type":"Feature","properties":{"osm_way_id":"112455255","amenity":"parking","other":{"access":"private"}}, "geometry":{"type":"MultiPolygon","coordinates":[[[[-3.98229,51.60929],[-3.98174,51.60883],[-3.98182,51.6088],[-3.98208,51.60904],[-3.98221,51.60899],[-3.98225,51.60903],[-3.98232,51.60909],[-3.98246,51.60922],[-3.98229,51.60929]]]]}},
{ "type":"Feature","properties":{"osm_way_id":"112455256","amenity":"parking","other":{"access":"private"}}, "geometry":{"type":"MultiPolygon","coordinates":[[[[-3.98344,51.60972],[-3.98313,51.6094],[-3.98332,51.60933],[-3.98346,51.60946],[-3.98339,51.60949],[-3.98357,51.60967],[-3.98344,51.60972]]]]}},
{ "type":"Feature","properties":{"osm_way_id":"112455257","amenity":"parking","other":{"access":"private"}}, "geometry":{"type":"MultiPolygon","coordinates":[[[[-3.97626,51.60892],[-3.9763,51.60896],[-3.9767,51.6089],[-3.97727,51.60888],[-3.97726,51.60884],[-3.97672,51.60885],[-3.97626,51.60892]]]]}},
{ "type":"Feature","properties":{"osm_way_id":"113717699","amenity":"parking","other":{"access":"private"}}, "geometry":{"type":"MultiPolygon","coordinates":[[[[-1.43805,54.2828],[-1.4377,54.28252],[-1.43805,54.28238],[-1.43821,54.28252],[-1.43839,54.28266],[-1.43805,54.2828]]]]}},
{ "type":"Feature","properties":{"osm_way_id":"115732653","name":"The Knowes Car and Coach Park","amenity":"parking","other":{"access":"yes","fee":"no","operator":"Scottish Borders Council","parking":"surface"}}, "geometry":{"type":"MultiPolygon","coordinates":[[[[-2.43057,55.59791],[-2.43053,55.59789],[-2.43049,55.59786],[-2.43025,55.59769],[-2.43023,55.59768],[-2.42998,55.5975],[-2.42997,55.59746],[-2.42998,55.59744],[-2.43,55.59742],[-2.43003,55.59738],[-2.43008,55.59734],[-2.43013,55.5973],[-2.43019,55.59728],[-2.43026,55.59726],[-2.43035,55.59724],[-2.43045,55.59723],[-2.43048,55.59722],[-2.43052,55.59721],[-2.43056,55.59719],[-2.43058,55.59717],[-2.4306,55.59714],[-2.43062,55.59712],[-2.43065,55.5971],[-2.43074,55.59707],[-2.43079,55.59712],[-2.43085,55.59718],[-2.43088,55.59723],[-2.43093,55.59732],[-2.43094,55.59734],[-2.43096,55.59738],[-2.43097,55.59742],[-2.431,55.59753],[-2.43101,55.59759],[-2.43092,55.59765],[-2.43089,55.59767],[-2.43076,55.59776],[-2.43059,55.59787],[-2.43057,55.59791]]]]}},
{ "type":"Feature","properties":{"osm_way_id":"118302217","amenity":"parking","other":{"access":"private"}}, "geometry":{"type":"MultiPolygon","coordinates":[[[[-1.31996,54.46887],[-1.31994,54.46894],[-1.31935,54.46904],[-1.31922,54.46877],[-1.3194,54.46875],[-1.3195,54.46873],[-1.31955,54.46888],[-1.31995,54.46883],[-1.31996,54.46887]]]]}},
{ "type":"Feature","properties":{"osm_way_id":"118303070","amenity":"parking"},"geometry":{"type":"MultiPolygon","coordinates":[[[[-1.3135,54.46971],[-1.3135,54.46972],[-1.31353,54.47009],[-1.31324,54.4701],[-1.31323,54.47005],[-1.31251,54.47007],[-1.31251,54.47005],[-1.31249,54.46976],[-1.31284,54.46975],[-1.31296,54.46975],[-1.31293,54.46954],[-1.31313,54.46954],[-1.31315,54.46972],[-1.3135,54.46971]]]]}},
{ "type":"Feature","properties":{"osm_way_id":"118605860","amenity":"parking","other":{"access":"private"}}, "geometry":{"type":"MultiPolygon","coordinates":[[[[-1.443,54.34819],[-1.44257,54.34833],[-1.44304,54.34864],[-1.4432,54.34859],[-1.44328,54.34866],[-1.44335,54.34872],[-1.44329,54.34875],[-1.44407,54.34944],[-1.44413,54.34942],[-1.4442,54.34949],[-1.44434,54.34942],[-1.443,54.34819]]]]}},
{ "type":"Feature","properties":{"osm_way_id":"118605861","amenity":"parking"},"geometry":{"type":"MultiPolygon","coordinates":[[[[-1.44237,54.3481],[-1.44241,54.34807],[-1.44241,54.34801],[-1.44234,54.34803],[-1.44207,54.3478],[-1.4421,54.34776],[-1.4419,54.34758],[-1.44219,54.34747],[-1.44237,54.34763],[-1.44244,54.34762],[-1.44251,54.34763],[-1.44261,54.34769],[-1.44269,54.34777],[-1.44274,54.34786],[-1.44277,54.34793],[-1.44285,54.34797],[-1.44299,54.34794],[-1.44304,54.3479],[-1.44338,54.34777],[-1.44344,54.34785],[-1.44331,54.34797],[-1.44312,54.34799],[-1.44307,54.34798],[-1.4431,54.34804],[-1.4428,54.34805],[-1.44278,54.34802],[-1.44244,54.34816],[-1.44237,54.3481]]]]}},
{ "type":"Feature","properties":{"osm_way_id":"119334994","amenity":"parking","other":{"access":"customers","operator":"The Cliff"}}, "geometry":{"type":"MultiPolygon","coordinates":[[[[-1.91996,50.7038],[-1.91922,50.70383],[-1.91923,50.70354],[-1.91974,50.70351],[-1.91973,50.70347],[-1.91968,50.70344],[-1.9197,50.70338],[-1.91986,50.70337],[-1.91995,50.70372],[-1.91996,50.7038]]]]}},
{ "type":"Feature","properties":{"osm_way_id":"119446246","name":"The Nags Head Car Park","amenity":"parking"},"geometry":{"type":"MultiPolygon","coordinates":[[[[-1.47009,54.24556],[-1.46964,54.24556],[-1.46927,54.24556],[-1.46925,54.2458],[-1.46932,54.2458],[-1.46936,54.24584],[-1.46975,54.24584],[-1.46983,54.24562],[-1.47008,54.24565],[-1.47009,54.2456],[-1.47009,54.24556]]]]}},
{ "type":"Feature","properties":{"osm_way_id":"119919917","name":"Marage car park","amenity":"parking","other":{"capacity:disabled":"yes","fee":"yes"}}, "geometry":{"type":"MultiPolygon","coordinates":[[[[-1.34354,54.23406],[-1.34335,54.2339],[-1.34374,54.23372],[-1.34399,54.23394],[-1.34442,54.23379],[-1.34449,54.23387],[-1.34446,54.23388],[-1.3445,54.23392],[-1.34416,54.23404],[-1.34412,54.23399],[-1.34409,54.23401],[-1.34421,54.23411],[-1.34384,54.23426],[-1.34368,54.23413],[-1.34372,54.23412],[-1.34362,54.23402],[-1.34354,54.23406]]]]}},
{ "type":"Feature","properties":{"osm_way_id":"121541308","name":"NYCC Visitors Car Park","amenity":"parking","other":{"fee":"Visitors"}}, "geometry":{"type":"MultiPolygon","coordinates":[[[[-1.43972,54.33322],[-1.43935,54.33317],[-1.43948,54.33289],[-1.43985,54.33295],[-1.43977,54.33311],[-1.43972,54.33322]]]]}},
{ "type":"Feature","properties":{"osm_way_id":"121541310","name":"NYCC Staff Only","amenity":"parking","other":{"fee":"private"}}, "geometry":{"type":"MultiPolygon","coordinates":[[[[-1.43861,54.33363],[-1.43841,54.3336],[-1.43743,54.33346],[-1.43753,54.33322],[-1.43835,54.33335],[-1.43841,54.33322],[-1.43906,54.33332],[-1.439,54.33345],[-1.4387,54.33341],[-1.43862,54.3336],[-1.43861,54.33363]]]]}},
{ "type":"Feature","properties":{"osm_way_id":"121541311","name":"NYCC Staff Only","amenity":"parking","other":{"fee":"Private"}}, "geometry":{"type":"MultiPolygon","coordinates":[[[[-1.43821,54.33312],[-1.43712,54.33297],[-1.43714,54.33292],[-1.43706,54.33291],[-1.43724,54.33247],[-1.43732,54.33248],[-1.43745,54.3325],[-1.4378,54.33255],[-1.43799,54.33258],[-1.43795,54.33265],[-1.43839,54.33272],[-1.43821,54.33312]]]]}},
{ "type":"Feature","properties":{"osm_way_id":"121541312","name":"NYCC Staff Only","amenity":"parking","other":{"fee":"Private"}}, "geometry":{"type":"MultiPolygon","coordinates":[[[[-1.43789,54.33203],[-1.43826,54.33128],[-1.43816,54.33126],[-1.43825,54.33104],[-1.4387,54.33111],[-1.4386,54.33133],[-1.4385,54.33132],[-1.43816,54.33201],[-1.43853,54.33207],[-1.43849,54.33216],[-1.43789,54.33203]]]]}},
{ "type":"Feature","properties":{"osm_way_id":"121541313","name":"NYCC Visitors Car Park","amenity":"parking","other":{"fee":"Visitors"}}, "geometry":{"type":"MultiPolygon","coordinates":[[[[-1.43934,54.33272],[-1.43881,54.33264],[-1.43891,54.33243],[-1.43944,54.33251],[-1.43939,54.33261],[-1.43934,54.33272]]]]}},
{ "type":"Feature","properties":{"osm_way_id":"121710512","amenity":"parking"},"geometry":{"type":"MultiPolygon","coordinates":[[[[-1.43609,54.34186],[-1.43592,54.34186],[-1.43584,54.34186],[-1.43576,54.34182],[-1.4356,54.34168],[-1.43585,54.34166],[-1.43589,54.34165],[-1.43617,54.34184],[-1.43609,54.34186]]]]}},
{ "type":"Feature","properties":{"osm_way_id":"121715815","name":"Cricket Club Car Park","amenity":"parking","other":{"capacity":"0","fee":"Private"}}, "geometry":{"type":"MultiPolygon","coordinates":[[[[-1.44257,54.3293],[-1.44201,54.32904],[-1.44166,54.32885],[-1.44162,54.32882],[-1.44142,54.32888],[-1.44156,54.32904],[-1.44167,54.32909],[-1.4418,54.32912],[-1.44193,54.32918],[-1.44205,54.32926],[-1.44216,54.32936],[-1.44224,54.32944],[-1.44229,54.32944],[-1.44237,54.32945],[-1.44257,54.3293]]]]}},
{ "type":"Feature","properties":{"osm_way_id":"123587420","amenity":"parking"},"geometry":{"type":"MultiPolygon","coordinates":[[[[-1.42763,54.25474],[-1.42715,54.25442],[-1.42731,54.25438],[-1.4275,54.25433],[-1.42752,54.25434],[-1.42792,54.25463],[-1.42773,54.2547],[-1.42763,54.25474]]]]}},
{ "type":"Feature","properties":{"osm_way_id":"124366681","amenity":"parking"},"geometry":{"type":"MultiPolygon","coordinates":[[[[-1.4009,54.28734],[-1.40078,54.28721],[-1.40067,54.28697],[-1.4006,54.28687],[-1.40051,54.28689],[-1.40043,54.2869],[-1.40025,54.28694],[-1.40015,54.28695],[-1.40004,54.28697],[-1.40011,54.28708],[-1.40037,54.28702],[-1.40057,54.28699],[-1.40069,54.28724],[-1.40049,54.28727],[-1.40057,54.28742],[-1.4009,54.28734]]]]}},
{ "type":"Feature","properties":{"osm_way_id":"124536480","landuse":"grass","other":{"surface":"grass"}}, "geometry":{"type":"MultiPolygon","coordinates":[[[[-1.16008,54.01515],[-1.16004,54.01513],[-1.16,54.01509],[-1.15996,54.01504],[-1.15995,54.01503],[-1.15997,54.015],[-1.16,54.01499],[-1.16004,54.015],[-1.16008,54.01504],[-1.16014,54.01511],[-1.16014,54.01513],[-1.16012,54.01515],[-1.1601,54.01515],[-1.16008,54.01515]]]]}},
{ "type":"Feature","properties":{"osm_way_id":"124547258","amenity":"parking"},"geometry":{"type":"MultiPolygon","coordinates":[[[[-1.15825,54.02455],[-1.1578,54.02452],[-1.1578,54.02417],[-1.15827,54.02417],[-1.15825,54.02455]]]]}},
{ "type":"Feature","properties":{"osm_way_id":"125509800","amenity":"parking"},"geometry":{"type":"MultiPolygon","coordinates":[[[[-1.34712,54.23139],[-1.34706,54.23136],[-1.34701,54.23138],[-1.3465,54.23119],[-1.34625,54.23098],[-1.34632,54.23095],[-1.34629,54.23093],[-1.34642,54.23086],[-1.34661,54.23072],[-1.34671,54.23069],[-1.34676,54.23068],[-1.34709,54.23104],[-1.34753,54.23092],[-1.34759,54.23098],[-1.34791,54.23089],[-1.3481,54.23118],[-1.34806,54.23125],[-1.34798,54.23129],[-1.34785,54.23131],[-1.34763,54.23134],[-1.34712,54.23139]]]]}},
{ "type":"Feature","properties":{"osm_way_id":"126240478","name":"Crosby Road Long Stay Car Park","amenity":"parking","other":{"capacity":"228","fee":"£1.50"}}, "geometry":{"type":"MultiPolygon","coordinates":[[[[-1.42932,54.33957],[-1.42941,54.33953],[-1.4295,54.3395],[-1.43039,54.33937],[-1.43035,54.33929],[-1.43018,54.3392],[-1.43016,54.33917],[-1.43014,54.33915],[-1.43009,54.33914],[-1.42977,54.33882],[-1.42865,54.33909],[-1.42871,54.33915],[-1.42911,54.33961],[-1.42926,54.33958],[-1.42932,54.33957]]]]}},
{ "type":"Feature","properties":{"osm_way_id":"126242685","name":"Romanby Gate","amenity":"parking","other":{"access":"permissive","capacity":"60","charge":"£2 per 24 hrs","fee":"yes","maxheight":"2.1","maxstay":"1 day","parking":"surface","surface":"asphalt"}}, "geometry":{"type":"MultiPolygon","coordinates":[[[[-1.44423,54.33456],[-1.44433,54.33479],[-1.44453,54.33478],[-1.44472,54.33488],[-1.44488,54.33479],[-1.44503,54.33474],[-1.44499,54.33459],[-1.44489,54.3346],[-1.44487,54.33442],[-1.4447,54.33446],[-1.44459,54.33448],[-1.44423,54.33456]]]]}},
{ "type":"Feature","properties":{"osm_way_id":"126494372","amenity":"parking"},"geometry":{"type":"MultiPolygon","coordinates":[[[[-1.38796,54.17683],[-1.38702,54.17693],[-1.38709,54.17717],[-1.38748,54.17713],[-1.38748,54.17745],[-1.38751,54.17745],[-1.38754,54.17745],[-1.38754,54.17752],[-1.38758,54.17753],[-1.38761,54.17775],[-1.38763,54.17775],[-1.38766,54.17781],[-1.38784,54.1778],[-1.38784,54.17766],[-1.38773,54.17766],[-1.38773,54.17749],[-1.38785,54.17748],[-1.38781,54.17716],[-1.38795,54.17714],[-1.38796,54.17683]]]]}},
{ "type":"Feature","properties":{"osm_way_id":"126632273","amenity":"parking"},"geometry":{"type":"MultiPolygon","coordinates":[[[[-1.43863,54.34519],[-1.43843,54.34488],[-1.43832,54.34465],[-1.43819,54.34438],[-1.43828,54.34435],[-1.43832,54.34434],[-1.4384,54.34445],[-1.4385,54.34458],[-1.43866,54.34483],[-1.43875,54.34496],[-1.43878,54.34499],[-1.43876,54.34504],[-1.43876,54.34511],[-1.43873,54.34516],[-1.43866,54.34518],[-1.43863,54.34519]]]]}},
{ "type":"Feature","properties":{"osm_way_id":"128995410","amenity":"parking"},"geometry":{"type":"MultiPolygon","coordinates":[[[[-1.43917,54.34509],[-1.43898,54.34494],[-1.43958,54.34471],[-1.43948,54.34481],[-1.43945,54.34488],[-1.43939,54.34499],[-1.43933,54.34513],[-1.43917,54.34509]]]]}},
{ "type":"Feature","properties":{"osm_way_id":"129125674","amenity":"parking"},"geometry":{"type":"MultiPolygon","coordinates":[[[[-1.44231,54.34575],[-1.44214,54.34576],[-1.44205,54.34547],[-1.44205,54.34523],[-1.44211,54.34523],[-1.4421,54.34517],[-1.44206,54.34447],[-1.44221,54.34439],[-1.44275,54.3444],[-1.44285,54.34449],[-1.44287,54.34474],[-1.44224,54.34479],[-1.44228,54.34524],[-1.44229,54.34551],[-1.44231,54.34575]]]]}},
{ "type":"Feature","properties":{"osm_way_id":"129230613","amenity":"parking","other":{"access":"customers","parking":"surface"}}, "geometry":{"type":"MultiPolygon","coordinates":[[[[-1.32176,54.40521],[-1.32106,54.40504],[-1.32086,54.40499],[-1.32088,54.4048],[-1.32093,54.40449],[-1.32095,54.40428],[-1.32097,54.40429],[-1.32112,54.40434],[-1.32174,54.40454],[-1.3221,54.40467],[-1.32213,54.40493],[-1.32176,54.40521]]]]}},
{ "type":"Feature","properties":{"osm_way_id":"129301986","amenity":"parking"},"geometry":{"type":"MultiPolygon","coordinates":[[[[-1.39362,54.34225],[-1.39357,54.34225],[-1.3931,54.34226],[-1.39297,54.34225],[-1.39296,54.3422],[-1.3931,54.34219],[-1.39308,54.34206],[-1.39361,54.34204],[-1.39362,54.34225]]]]}},
{ "type":"Feature","properties":{"osm_way_id":"129432344","amenity":"parking"},"geometry":{"type":"MultiPolygon","coordinates":[[[[-1.432,54.34743],[-1.43154,54.34732],[-1.43152,54.34732],[-1.43123,54.34776],[-1.43142,54.34781],[-1.43154,54.34763],[-1.43157,54.34759],[-1.43185,54.34765],[-1.43193,54.34754],[-1.432,54.34743]]]]}},
{ "type":"Feature","properties":{"osm_way_id":"129432346","amenity":"parking"},"geometry":{"type":"MultiPolygon","coordinates":[[[[-1.43262,54.34837],[-1.43255,54.34838],[-1.4325,54.34826],[-1.43248,54.34819],[-1.43255,54.34817],[-1.43261,54.34816],[-1.43261,54.34821],[-1.43264,54.34831],[-1.43267,54.34836],[-1.43262,54.34837]]]]}},
{ "type":"Feature","properties":{"osm_way_id":"129432347","amenity":"parking"},"geometry":{"type":"MultiPolygon","coordinates":[[[[-1.4327,54.34859],[-1.43262,54.34849],[-1.43257,54.34842],[-1.43263,54.34841],[-1.43269,54.3484],[-1.43271,54.34843],[-1.43282,54.34859],[-1.43278,54.3486],[-1.43271,54.34862],[-1.4327,54.34859]]]]}},
{ "type":"Feature","properties":{"osm_way_id":"129747801","name":"Sainsbury Shoppers Parking","amenity":"parking"},"geometry":{"type":"MultiPolygon","coordinates":[[[[-1.43881,54.3439],[-1.43916,54.34444],[-1.43976,54.34421],[-1.43997,54.34411],[-1.44004,54.34415],[-1.43992,54.34423],[-1.4401,54.34434],[-1.4399,54.34454],[-1.43985,54.34457],[-1.43888,54.34493],[-1.43866,54.34462],[-1.4386,54.3445],[-1.43829,54.34399],[-1.43881,54.3439]]]]}},
{ "type":"Feature","properties":{"osm_way_id":"129749166","amenity":"parking"},"geometry":{"type":"MultiPolygon","coordinates":[[[[-1.43816,54.34418],[-1.43808,54.3442],[-1.43774,54.34368],[-1.43781,54.34367],[-1.43783,54.34366],[-1.43792,54.34377],[-1.43798,54.34387],[-1.4382,54.34416],[-1.43816,54.34418]]]]}},
{ "type":"Feature","properties":{"osm_way_id":"129749167","amenity":"parking"},"geometry":{"type":"MultiPolygon","coordinates":[[[[-1.43805,54.34378],[-1.43792,54.34377],[-1.43783,54.34366],[-1.43777,54.3436],[-1.43764,54.34347],[-1.43758,54.34338],[-1.43751,54.3433],[-1.43754,54.3432],[-1.43768,54.3431],[-1.43789,54.34341],[-1.43815,54.34378],[-1.43805,54.34378]]]]}},
{ "type":"Feature","properties":{"osm_way_id":"129749168","amenity":"parking"},"geometry":{"type":"MultiPolygon","coordinates":[[[[-1.43474,54.34119],[-1.43467,54.34123],[-1.43493,54.34135],[-1.43505,54.34143],[-1.43518,54.34157],[-1.43535,54.34167],[-1.43552,54.34184],[-1.43567,54.34198],[-1.43585,54.34214],[-1.43593,54.34225],[-1.43612,54.34244],[-1.43624,54.34253],[-1.43651,54.34269],[-1.43676,54.34285],[-1.43684,54.34291],[-1.43691,54.34289],[-1.43692,54.34287],[-1.4367,54.34273],[-1.43636,54.34252],[-1.43616,54.34237],[-1.43583,54.342],[-1.43555,54.34171],[-1.43551,54.34167],[-1.43537,54.34154],[-1.43517,54.34134],[-1.43513,54.3413],[-1.43494,54.34122],[-1.43478,54.34116],[-1.43474,54.34119]]]]}},
{ "type":"Feature","properties":{"osm_way_id":"132198525","name":"Auction Mart","amenity":"parking","other":{"capacity":"50","fee":"£0.50 Per day, All day","parking":"surface"}}, "geometry":{"type":"MultiPolygon","coordinates":[[[[-1.59035,54.28846],[-1.59044,54.28854],[-1.59037,54.28856],[-1.59044,54.28863],[-1.5904,54.28868],[-1.59032,54.28875],[-1.59021,54.28872],[-1.59008,54.28876],[-1.58993,54.28882],[-1.58977,54.28868],[-1.58983,54.28865],[-1.58972,54.28856],[-1.58975,54.28852],[-1.5897,54.28849],[-1.59021,54.28828],[-1.5903,54.28836],[-1.59032,54.28835],[-1.59038,54.2884],[-1.5903,54.28843],[-1.59033,54.28845],[-1.59035,54.28846]]]]}},
{ "type":"Feature","properties":{"osm_way_id":"133735254","name":"The Market Place","amenity":"parking"},"geometry":{"type":"MultiPolygon","coordinates":[[[[-1.1912,54.47027],[-1.19105,54.47013],[-1.19098,54.47015],[-1.19091,54.47017],[-1.1908,54.47005],[-1.19086,54.47003],[-1.19154,54.46981],[-1.19192,54.46973],[-1.19244,54.4696],[-1.19284,54.46956],[-1.19286,54.46961],[-1.19259,54.46963],[-1.19224,54.4697],[-1.19195,54.46977],[-1.19196,54.46979],[-1.19209,54.47],[-1.1912,54.47027]]]]}},
{ "type":"Feature","properties":{"osm_way_id":"133735256","amenity":"parking"},"geometry":{"type":"MultiPolygon","coordinates":[[[[-1.19179,54.47045],[-1.19167,54.47044],[-1.19149,54.47042],[-1.19152,54.47029],[-1.19175,54.47023],[-1.19179,54.47028],[-1.19185,54.47027],[-1.19186,54.47029],[-1.19179,54.47045]]]]}},
{ "type":"Feature","properties":{"osm_way_id":"133735259","amenity":"parking"},"geometry":{"type":"MultiPolygon","coordinates":[[[[-1.19143,54.4705],[-1.19143,54.47054],[-1.19139,54.47057],[-1.1912,54.47049],[-1.19111,54.47048],[-1.19078,54.4705],[-1.19046,54.47057],[-1.18992,54.47066],[-1.18984,54.47064],[-1.1897,54.47067],[-1.19003,54.47115],[-1.19013,54.47113],[-1.19017,54.47113],[-1.19058,54.47105],[-1.19075,54.47099],[-1.19129,54.47082],[-1.19155,54.4707],[-1.19181,54.47062],[-1.19181,54.47053],[-1.19149,54.47051],[-1.19143,54.4705]]]]}},
{ "type":"Feature","properties":{"osm_way_id":"133735635","amenity":"parking"},"geometry":{"type":"MultiPolygon","coordinates":[[[[-1.1874,54.47115],[-1.18633,54.47179],[-1.18677,54.47205],[-1.18668,54.4721],[-1.18675,54.47214],[-1.18683,54.4721],[-1.18691,54.47215],[-1.18709,54.47202],[-1.18703,54.47199],[-1.18714,54.47192],[-1.18699,54.47183],[-1.18729,54.47166],[-1.18765,54.47156],[-1.18791,54.47141],[-1.1874,54.47115]]]]}},
{ "type":"Feature","properties":{"osm_way_id":"133735636","amenity":"parking"},"geometry":{"type":"MultiPolygon","coordinates":[[[[-1.18808,54.47093],[-1.18797,54.471],[-1.18802,54.47103],[-1.18765,54.47122],[-1.18801,54.47144],[-1.18837,54.47127],[-1.18835,54.47118],[-1.18821,54.4711],[-1.18827,54.47106],[-1.18808,54.47093]]]]}},
{ "type":"Feature","properties":{"osm_way_id":"137747444","amenity":"parking"},"geometry":{"type":"MultiPolygon","coordinates":[[[[-0.1676,51.51623],[-0.16695,51.51579],[-0.16686,51.51584],[-0.16752,51.51628],[-0.1676,51.51623]]]]}},
{ "type":"Feature","properties":{"osm_way_id":"137822713","amenity":"parking","other":{"operator":"The Belfry","parking":"surface"}}, "geometry":{"type":"MultiPolygon","coordinates":[[[[-1.73314,52.55428],[-1.73272,52.55417],[-1.73278,52.55409],[-1.73268,52.55407],[-1.73263,52.55413],[-1.7323,52.55403],[-1.73212,52.55401],[-1.73201,52.554],[-1.73195,52.55402],[-1.73191,52.55404],[-1.73181,52.55411],[-1.73176,52.5542],[-1.73152,52.55467],[-1.73176,52.55474],[-1.73173,52.55478],[-1.73191,52.55484],[-1.73184,52.55494],[-1.73169,52.55491],[-1.73161,52.55498],[-1.73205,52.55514],[-1.73231,52.55486],[-1.73266,52.55499],[-1.73253,52.55509],[-1.73246,52.55517],[-1.73247,52.55519],[-1.73234,52.55531],[-1.73228,52.5553],[-1.73221,52.55538],[-1.73197,52.55531],[-1.73151,52.55555],[-1.73111,52.55575],[-1.73078,52.55587],[-1.73055,52.55625],[-1.73036,52.55621],[-1.73047,52.55594],[-1.73053,52.55576],[-1.73065,52.55577],[-1.73068,52.55569],[-1.7307,52.55569],[-1.7308,52.55543],[-1.73088,52.55517],[-1.73089,52.55513],[-1.73097,52.55498],[-1.73119,52.55482],[-1.73113,52.55466],[-1.73106,52.5546],[-1.73097,52.55462],[-1.73085,52.55465],[-1.73071,52.55461],[-1.73073,52.55456],[-1.73069,52.5545],[-1.73062,52.55447],[-1.73075,52.55429],[-1.73087,52.55406],[-1.73107,52.55372],[-1.73127,52.55358],[-1.73162,52.55342],[-1.73191,52.5534],[-1.732,52.55312],[-1.73175,52.55302],[-1.73149,52.55293],[-1.73153,52.55289],[-1.73128,52.5528],[-1.73144,52.55264],[-1.73152,52.55266],[-1.73156,52.55262],[-1.73237,52.55292],[-1.7336,52.5534],[-1.73433,52.55379],[-1.73415,52.55392],[-1.73372,52.55371],[-1.73342,52.55377],[-1.73313,52.55405],[-1.73317,52.55423],[-1.73314,52.55428]]]]}},
{ "type":"Feature","properties":{"osm_way_id":"137837183","amenity":"parking","other":{"access":"customers","parking":"surface"}}, "geometry":{"type":"MultiPolygon","coordinates":[[[[-1.73547,52.55393],[-1.7354,52.55384],[-1.73524,52.55391],[-1.73491,52.55397],[-1.73484,52.55399],[-1.73514,52.55426],[-1.73545,52.55412],[-1.73551,52.5541],[-1.73546,52.55404],[-1.73548,52.55402],[-1.73541,52.55395],[-1.73547,52.55393]]]]}},
{ "type":"Feature","properties":{"osm_way_id":"139806281","amenity":"parking","other":{"access":"private"}}, "geometry":{"type":"MultiPolygon","coordinates":[[[[-3.22085,55.95143],[-3.22077,55.95146],[-3.22049,55.95161],[-3.22048,55.9516],[-3.22039,55.95155],[-3.22032,55.95151],[-3.22026,55.95147],[-3.22061,55.95131],[-3.22075,55.95126],[-3.2212,55.95122],[-3.22123,55.95127],[-3.22122,55.95128],[-3.22122,55.95129],[-3.22119,55.95139],[-3.22085,55.95143]]]]}},
{ "type":"Feature","properties":{"osm_way_id":"141565414","amenity":"parking","other":{"parking":"surface"}}, "geometry":{"type":"MultiPolygon","coordinates":[[[[-1.13247,54.4885],[-1.13255,54.48863],[-1.13232,54.48868],[-1.13231,54.48868],[-1.1321,54.4887],[-1.13206,54.48868],[-1.13233,54.48855],[-1.13247,54.4885]]]]}},
{ "type":"Feature","properties":{"osm_way_id":"141565416","amenity":"parking","other":{"fee":"no","parking":"surface"}}, "geometry":{"type":"MultiPolygon","coordinates":[[[[-1.13188,54.48861],[-1.1317,54.48855],[-1.13156,54.48845],[-1.1324,54.48832],[-1.13244,54.48841],[-1.13223,54.48851],[-1.13205,54.48858],[-1.13188,54.48861]]]]}},
{ "type":"Feature","properties":{"osm_way_id":"141565417","amenity":"parking","other":{"parking":"surface"}}, "geometry":{"type":"MultiPolygon","coordinates":[[[[-1.13389,54.48835],[-1.13363,54.48834],[-1.13303,54.48841],[-1.13283,54.48844],[-1.13282,54.48839],[-1.13315,54.48835],[-1.13363,54.48831],[-1.13388,54.48831],[-1.13389,54.48835]]]]}},
{ "type":"Feature","properties":{"osm_way_id":"145146598","amenity":"parking"},"geometry":{"type":"MultiPolygon","coordinates":[[[[-1.32567,54.22466],[-1.32475,54.22427],[-1.32487,54.22417],[-1.325,54.22407],[-1.32591,54.22447],[-1.32567,54.22466]]]]}},
{ "type":"Feature","properties":{"osm_way_id":"145148367","amenity":"parking"},"geometry":{"type":"MultiPolygon","coordinates":[[[[-1.32472,54.22607],[-1.32457,54.22592],[-1.32452,54.22586],[-1.32458,54.22569],[-1.32534,54.22546],[-1.32535,54.22546],[-1.32579,54.22531],[-1.32586,54.22538],[-1.32575,54.22543],[-1.32579,54.22551],[-1.32552,54.22559],[-1.32567,54.22579],[-1.32511,54.22595],[-1.32514,54.22599],[-1.32483,54.22608],[-1.3248,54.22605],[-1.32472,54.22607]]]]}},
{ "type":"Feature","properties":{"osm_way_id":"145315672","amenity":"parking"},"geometry":{"type":"MultiPolygon","coordinates":[[[[-1.19221,54.46998],[-1.19301,54.46981],[-1.19353,54.46971],[-1.19345,54.46958],[-1.19343,54.46955],[-1.19341,54.4695],[-1.19335,54.46934],[-1.19343,54.46933],[-1.19352,54.46931],[-1.19385,54.46969],[-1.19416,54.46962],[-1.19413,54.46958],[-1.19444,54.46948],[-1.19496,54.46924],[-1.19511,54.46937],[-1.19522,54.46947],[-1.19469,54.46962],[-1.19464,54.46963],[-1.19375,54.46983],[-1.1937,54.46984],[-1.19323,54.46993],[-1.19275,54.46999],[-1.1924,54.47006],[-1.19209,54.47014],[-1.19196,54.47018],[-1.19181,54.47022],[-1.19178,54.47019],[-1.19227,54.47005],[-1.19225,54.47003],[-1.19221,54.46998]]]]}},
{ "type":"Feature","properties":{"osm_way_id":"145406003","amenity":"parking"},"geometry":{"type":"MultiPolygon","coordinates":[[[[-1.1795,54.47821],[-1.17951,54.47797],[-1.18096,54.47798],[-1.18097,54.4777],[-1.18174,54.4777],[-1.18173,54.47822],[-1.1795,54.47821]]]]}},
{ "type":"Feature","properties":{"osm_way_id":"145426000","amenity":"parking"},"geometry":{"type":"MultiPolygon","coordinates":[[[[-1.17987,54.46839],[-1.17935,54.46851],[-1.17905,54.46859],[-1.17847,54.46872],[-1.17841,54.46863],[-1.17868,54.46858],[-1.17945,54.46806],[-1.17974,54.46822],[-1.17987,54.46839]]]]}},
{ "type":"Feature","properties":{"osm_way_id":"149382173","amenity":"parking"},"geometry":{"type":"MultiPolygon","coordinates":[[[[-1.4345,54.34088],[-1.43458,54.34085],[-1.43455,54.34072],[-1.43445,54.34073],[-1.43443,54.34072],[-1.43448,54.34087],[-1.4345,54.34088]]]]}},
{ "type":"Feature","properties":{"osm_way_id":"149384378","amenity":"parking"},"geometry":{"type":"MultiPolygon","coordinates":[[[[-1.43024,54.3438],[-1.42886,54.34387],[-1.42887,54.34367],[-1.42859,54.34367],[-1.42859,54.34359],[-1.42833,54.34362],[-1.42827,54.3434],[-1.4282,54.34323],[-1.4282,54.34322],[-1.4283,54.3427],[-1.42854,54.3427],[-1.42854,54.3428],[-1.42846,54.3428],[-1.42842,54.34306],[-1.42848,54.34306],[-1.42866,54.34307],[-1.42862,54.34331],[-1.42872,54.34341],[-1.42907,54.3434],[-1.42912,54.34359],[-1.42916,54.34367],[-1.42944,54.34364],[-1.42962,54.34357],[-1.42973,54.34337],[-1.42976,54.34331],[-1.43019,54.34329],[-1.43024,54.3438]]]]}},
{ "type":"Feature","properties":{"osm_way_id":"149384391","amenity":"parking"},"geometry":{"type":"MultiPolygon","coordinates":[[[[-1.43114,54.34375],[-1.43084,54.34376],[-1.43092,54.34325],[-1.43118,54.34329],[-1.43114,54.34375]]]]}},
{ "type":"Feature","properties":{"osm_way_id":"149384398","amenity":"parking","other":{"access":"private"}}, "geometry":{"type":"MultiPolygon","coordinates":[[[[-1.43261,54.34182],[-1.43203,54.34153],[-1.43183,54.34145],[-1.43198,54.34134],[-1.43268,54.34167],[-1.43261,54.34171],[-1.4327,54.34175],[-1.43261,54.34182]]]]}},
{ "type":"Feature","properties":{"osm_way_id":"151353953","name":"Abbey Row Centre","amenity":"parking","other":{"access":"customers","parking":"surface"}}, "geometry":{"type":"MultiPolygon","coordinates":[[[[-2.43145,55.59712],[-2.43146,55.59715],[-2.43148,55.5972],[-2.43152,55.59727],[-2.43142,55.59729],[-2.43143,55.59732],[-2.43138,55.59732],[-2.43141,55.59739],[-2.4312,55.59742],[-2.43119,55.59741],[-2.43096,55.59738],[-2.43094,55.59734],[-2.43093,55.59732],[-2.43088,55.59723],[-2.43145,55.59712]]]]}},
{ "type":"Feature","properties":{"osm_way_id":"152292015","amenity":"parking","other":{"parking":"surface"}}, "geometry":{"type":"MultiPolygon","coordinates":[[[[-1.27846,54.38797],[-1.27832,54.38787],[-1.27832,54.38774],[-1.27882,54.38744],[-1.27887,54.38747],[-1.27903,54.38756],[-1.27917,54.38764],[-1.27904,54.38773],[-1.27898,54.3877],[-1.27893,54.38773],[-1.27898,54.3878],[-1.27894,54.38781],[-1.27889,54.38783],[-1.27886,54.38776],[-1.27873,54.38784],[-1.27857,54.38773],[-1.27855,54.38788],[-1.27861,54.38792],[-1.27853,54.38794],[-1.27846,54.38797]]]]}},
{ "type":"Feature","properties":{"osm_way_id":"152330043","amenity":"parking"},"geometry":{"type":"MultiPolygon","coordinates":[[[[-1.43984,54.34891],[-1.43983,54.34889],[-1.4397,54.34861],[-1.44028,54.34851],[-1.44044,54.34879],[-1.44045,54.34881],[-1.43984,54.34891]]]]}},
{ "type":"Feature","properties":{"osm_way_id":"152330049","amenity":"parking"},"geometry":{"type":"MultiPolygon","coordinates":[[[[-1.44134,54.34857],[-1.44094,54.34866],[-1.44081,54.34841],[-1.44123,54.34832],[-1.4413,54.34837],[-1.44135,54.34836],[-1.44149,54.34859],[-1.44138,54.34862],[-1.44134,54.34857]]]]}},
{ "type":"Feature","properties":{"osm_way_id":"152456261","amenity":"parking","other":{"access":"private","surface":"asphalt"}}, "geometry":{"type":"MultiPolygon","coordinates":[[[[-1.43262,54.34604],[-1.43311,54.34605],[-1.43311,54.34633],[-1.43317,54.34651],[-1.43319,54.34658],[-1.4331,54.3466],[-1.43306,54.34663],[-1.43307,54.34667],[-1.43278,54.3467],[-1.43281,54.34665],[-1.43278,54.34661],[-1.43271,54.3466],[-1.43267,54.3466],[-1.43259,54.34641],[-1.43262,54.34604]]]]}},
{ "type":"Feature","properties":{"osm_way_id":"152475020","amenity":"parking","other":{"capacity":"6"}}, "geometry":{"type":"MultiPolygon","coordinates":[[[[-1.20897,54.22683],[-1.209,54.22666],[-1.20891,54.22665],[-1.20888,54.22688],[-1.20897,54.22683]]]]}},
{ "type":"Feature","properties":{"osm_way_id":"152475021","amenity":"parking","other":{"capacity":"20"}}, "geometry":{"type":"MultiPolygon","coordinates":[[[[-1.20856,54.22649],[-1.20839,54.22649],[-1.20827,54.22644],[-1.20833,54.22634],[-1.20843,54.2263],[-1.20853,54.22631],[-1.20859,54.22631],[-1.20863,54.22641],[-1.20863,54.22645],[-1.20863,54.22647],[-1.20856,54.22649]]]]}},
{ "type":"Feature","properties":{"osm_way_id":"155015441","amenity":"parking"},"geometry":{"type":"MultiPolygon","coordinates":[[[[-1.34824,54.23182],[-1.34827,54.23183],[-1.34861,54.23181],[-1.34857,54.23147],[-1.34847,54.23149],[-1.34848,54.23145],[-1.3477,54.23149],[-1.34732,54.23152],[-1.34711,54.23166],[-1.34732,54.23175],[-1.34758,54.23156],[-1.34768,54.23156],[-1.34824,54.23182]]]]}},
{ "type":"Feature","properties":{"osm_way_id":"155015444","amenity":"parking"},"geometry":{"type":"MultiPolygon","coordinates":[[[[-1.34885,54.23032],[-1.3492,54.23079],[-1.34879,54.23089],[-1.34892,54.23108],[-1.34863,54.23115],[-1.34862,54.2311],[-1.34857,54.23111],[-1.34835,54.23081],[-1.34841,54.2308],[-1.34839,54.23077],[-1.34834,54.23075],[-1.3483,54.23076],[-1.34835,54.2308],[-1.34811,54.23088],[-1.34809,54.23083],[-1.34804,54.23076],[-1.34824,54.2307],[-1.34815,54.23061],[-1.34851,54.23049],[-1.34874,54.23043],[-1.34878,54.23037],[-1.34885,54.23032]]]]}},
{ "type":"Feature","properties":{"osm_way_id":"155446624","name":"Strikes Garden Centre","amenity":"parking","other":{"access":"customers","parking":"surface","surface":"asphalt"}}, "geometry":{"type":"MultiPolygon","coordinates":[[[[-1.44929,54.35549],[-1.44943,54.35573],[-1.44986,54.35648],[-1.44912,54.35664],[-1.44857,54.3556],[-1.44929,54.35549]]]]}},
{ "type":"Feature","properties":{"osm_way_id":"157269773","amenity":"parking"},"geometry":{"type":"MultiPolygon","coordinates":[[[[-1.3329,54.23216],[-1.33348,54.23195],[-1.33344,54.23192],[-1.33354,54.23183],[-1.33324,54.23168],[-1.33313,54.23173],[-1.33311,54.2317],[-1.33259,54.23178],[-1.33274,54.2321],[-1.33279,54.23215],[-1.33288,54.23212],[-1.3329,54.23216]]]]}},
{ "type":"Feature","properties":{"osm_way_id":"158454814","amenity":"parking","other":{"parking":"surface"}}, "geometry":{"type":"MultiPolygon","coordinates":[[[[-1.42996,54.34229],[-1.42956,54.3423],[-1.42953,54.34203],[-1.42957,54.34202],[-1.42956,54.3419],[-1.42993,54.34189],[-1.42995,54.34202],[-1.43008,54.34202],[-1.43009,54.34206],[-1.42999,54.34207],[-1.43003,54.34229],[-1.42996,54.34229]]]]}},
{ "type":"Feature","properties":{"osm_way_id":"159109841","name":"Station Car Park","amenity":"parking","other":{"access":"customers","parking":"surface"}}, "geometry":{"type":"MultiPolygon","coordinates":[[[[-1.56096,54.30508],[-1.56071,54.30492],[-1.5602,54.30515],[-1.56019,54.30517],[-1.56035,54.30534],[-1.5604,54.30539],[-1.56096,54.30508]]]]}},
{ "type":"Feature","properties":{"osm_way_id":"161093993","amenity":"parking","other":{"access":"customers","parking":"surface"}}, "geometry":{"type":"MultiPolygon","coordinates":[[[[-1.16308,54.03333],[-1.16353,54.03325],[-1.16338,54.03297],[-1.16293,54.03305],[-1.16308,54.03333]]]]}},
{ "type":"Feature","properties":{"osm_way_id":"161591191","name":"Old Royal George Car Park","amenity":"parking","other":{"capacity":"15","designation":"Customers only","parking":"surface"}}, "geometry":{"type":"MultiPolygon","coordinates":[[[[-1.49821,54.32311],[-1.49788,54.32316],[-1.49787,54.32314],[-1.49783,54.32307],[-1.49781,54.32304],[-1.49792,54.32303],[-1.49815,54.32299],[-1.49821,54.32311]]]]}},
{ "type":"Feature","properties":{"osm_way_id":"162238180","name":"Market Place","amenity":"parking","other":{"fee":"yes","parking":"surface"}}, "geometry":{"type":"MultiPolygon","coordinates":[[[[-1.34124,54.23265],[-1.34249,54.23236],[-1.34343,54.23214],[-1.34364,54.23209],[-1.34369,54.23208],[-1.34296,54.23241],[-1.34248,54.23258],[-1.34137,54.23284],[-1.34124,54.23265]]]]}},
{ "type":"Feature","properties":{"osm_way_id":"162238184","name":"Tesco Staff Parking","amenity":"parking","other":{"access":"private","fee":"Staff Only","maxstay":"Staff Only","parking":"surface"}}, "geometry":{"type":"MultiPolygon","coordinates":[[[[-1.34614,54.23175],[-1.34663,54.23153],[-1.34631,54.23127],[-1.34622,54.23126],[-1.34616,54.2313],[-1.34617,54.23134],[-1.34584,54.23151],[-1.34614,54.23175]]]]}},
{ "type":"Feature","properties":{"osm_way_id":"162816515","amenity":"parking","other":{"access":"customers","operator":"The Blackwell Ox"}}, "geometry":{"type":"MultiPolygon","coordinates":[[[[-1.21656,54.43283],[-1.21729,54.43265],[-1.21733,54.43269],[-1.21746,54.43266],[-1.21755,54.43278],[-1.21672,54.433],[-1.21656,54.43283]]]]}},
{ "type":"Feature","properties":{"osm_way_id":"163807695","amenity":"parking","other":{"designation":"Permit Holders Only","parking":"surface"}}, "geometry":{"type":"MultiPolygon","coordinates":[[[[-1.44197,54.35041],[-1.44201,54.3504],[-1.44198,54.35036],[-1.44217,54.35031],[-1.4422,54.35036],[-1.44229,54.35034],[-1.44248,54.35061],[-1.44222,54.35067],[-1.44207,54.35046],[-1.44205,54.35047],[-1.44207,54.35051],[-1.4419,54.35055],[-1.44202,54.35072],[-1.44193,54.35074],[-1.44197,54.35079],[-1.44183,54.35083],[-1.4416,54.3505],[-1.44166,54.35048],[-1.44164,54.35045],[-1.44184,54.3504],[-1.44186,54.35043],[-1.44197,54.35041]]]]}},
{ "type":"Feature","properties":{"osm_way_id":"163807696","amenity":"parking","other":{"access":"private","parking":"surface"}}, "geometry":{"type":"MultiPolygon","coordinates":[[[[-1.4418,54.35025],[-1.44162,54.34995],[-1.44137,54.34999],[-1.44132,54.3499],[-1.44182,54.3498],[-1.44184,54.34985],[-1.44192,54.34983],[-1.44211,54.35013],[-1.44216,54.35012],[-1.44219,54.35018],[-1.4418,54.35025]]]]}},
{ "type":"Feature","properties":{"osm_way_id":"165238750","name":"Thirsk Leisure Centre Car Park","amenity":"parking"},"geometry":{"type":"MultiPolygon","coordinates":[[[[-1.34031,54.23122],[-1.34017,54.23125],[-1.3399,54.23163],[-1.34028,54.23181],[-1.34079,54.2317],[-1.34068,54.23151],[-1.34057,54.23153],[-1.34046,54.23132],[-1.3404,54.23133],[-1.34031,54.23122]]]]}},
{ "type":"Feature","properties":{"osm_way_id":"165252478","name":"Station car park","amenity":"parking","other":{"access":"customers","capacity:disabled":"4","park_ride":"yes","parking":"surface","supervised":"no","surface":"paved"}}, "geometry":{"type":"MultiPolygon","coordinates":[[[[-1.37223,54.2281],[-1.37213,54.228],[-1.37154,54.2279],[-1.37146,54.22786],[-1.37141,54.22787],[-1.3713,54.22781],[-1.37108,54.22777],[-1.37067,54.22775],[-1.37066,54.22778],[-1.37064,54.22783],[-1.37165,54.22808],[-1.37167,54.22819],[-1.37175,54.2282],[-1.37178,54.22821],[-1.37191,54.22825],[-1.37195,54.22821],[-1.37212,54.22826],[-1.37221,54.22825],[-1.37233,54.22827],[-1.37237,54.22823],[-1.37229,54.22816],[-1.37211,54.22819],[-1.37206,54.22816],[-1.37207,54.22816],[-1.37223,54.2281]]]]}},
{ "type":"Feature","properties":{"osm_way_id":"166743797","amenity":"parking","other":{"access":"customers"}}, "geometry":{"type":"MultiPolygon","coordinates":[[[[-1.20933,54.12224],[-1.20929,54.12225],[-1.20911,54.12225],[-1.20908,54.12226],[-1.20906,54.12209],[-1.20926,54.12207],[-1.20931,54.12207],[-1.20933,54.12224]]]]}},
{ "type":"Feature","properties":{"osm_way_id":"168571675","name":"Golden Lion Car Park","amenity":"parking","other":{"access":"private","parking":"surface"}}, "geometry":{"type":"MultiPolygon","coordinates":[[[[-1.44521,54.33394],[-1.4451,54.33403],[-1.44489,54.33396],[-1.44505,54.33366],[-1.44525,54.3337],[-1.44529,54.33367],[-1.44542,54.3337],[-1.44544,54.33384],[-1.44521,54.33394]]]]}},
{ "type":"Feature","properties":{"osm_way_id":"169082299","amenity":"parking"},"geometry":{"type":"MultiPolygon","coordinates":[[[[-1.40555,54.21606],[-1.40497,54.21642],[-1.40473,54.21643],[-1.40479,54.21638],[-1.40482,54.21633],[-1.40482,54.21628],[-1.40479,54.21623],[-1.4046,54.21608],[-1.40447,54.21599],[-1.40439,54.21594],[-1.40421,54.21589],[-1.40435,54.21587],[-1.40425,54.21581],[-1.40421,54.21579],[-1.40413,54.21577],[-1.404,54.21572],[-1.40369,54.21587],[-1.40351,54.21588],[-1.4035,54.21582],[-1.40343,54.21582],[-1.4038,54.21556],[-1.40407,54.21568],[-1.40462,54.21552],[-1.40474,54.21559],[-1.40492,54.2157],[-1.40507,54.21579],[-1.40541,54.21599],[-1.40552,54.21605],[-1.40555,54.21606]]]]}},
{ "type":"Feature","properties":{"osm_way_id":"169082329","amenity":"parking"},"geometry":{"type":"MultiPolygon","coordinates":[[[[-1.40649,54.21666],[-1.40658,54.21661],[-1.40654,54.21658],[-1.40661,54.21655],[-1.40626,54.21634],[-1.40613,54.21643],[-1.40629,54.21653],[-1.40649,54.21666]]]]}},
{ "type":"Feature","properties":{"osm_way_id":"169336697","amenity":"parking"},"geometry":{"type":"MultiPolygon","coordinates":[[[[-1.43331,54.34188],[-1.43299,54.34194],[-1.43299,54.34205],[-1.43298,54.3422],[-1.43303,54.34221],[-1.43303,54.34224],[-1.43297,54.34223],[-1.43296,54.34234],[-1.43302,54.34234],[-1.43302,54.34239],[-1.43302,54.34241],[-1.43326,54.34241],[-1.43327,54.34235],[-1.43335,54.34235],[-1.43338,54.34209],[-1.43337,54.34203],[-1.43334,54.34197],[-1.43331,54.34188]]]]}},
{ "type":"Feature","properties":{"osm_way_id":"169460424","amenity":"parking"},"geometry":{"type":"MultiPolygon","coordinates":[[[[-1.395,54.48037],[-1.39482,54.48018],[-1.39491,54.48015],[-1.39506,54.48011],[-1.39512,54.48018],[-1.3952,54.48015],[-1.39535,54.48011],[-1.39544,54.48022],[-1.3951,54.48033],[-1.395,54.48037]]]]}},
{ "type":"Feature","properties":{"osm_way_id":"172144258","amenity":"parking"},"geometry":{"type":"MultiPolygon","coordinates":[[[[-1.4974,54.32423],[-1.4973,54.3241],[-1.49757,54.32403],[-1.4978,54.32397],[-1.4979,54.3241],[-1.4974,54.32423]]]]}},
{ "type":"Feature","properties":{"osm_way_id":"172146547","amenity":"parking"},"geometry":{"type":"MultiPolygon","coordinates":[[[[-1.4877,54.32255],[-1.48738,54.3226],[-1.48741,54.32282],[-1.48744,54.32281],[-1.4878,54.32279],[-1.48779,54.32269],[-1.4877,54.32255]]]]}},
{ "type":"Feature","properties":{"osm_way_id":"172614318","name":"Coach parking","amenity":"parking","other":{"parking":"surface"}}, "geometry":{"type":"MultiPolygon","coordinates":[[[[-1.56723,54.29891],[-1.5675,54.29878],[-1.56775,54.2989],[-1.56754,54.29907],[-1.56723,54.29891]]]]}},
{ "type":"Feature","properties":{"osm_way_id":"172614322","amenity":"parking","other":{"access":"customers","fee":"no","parking":"surface"}}, "geometry":{"type":"MultiPolygon","coordinates":[[[[-1.56528,54.29861],[-1.56553,54.29846],[-1.56558,54.29849],[-1.56568,54.29843],[-1.56579,54.29849],[-1.5661,54.2983],[-1.5662,54.29836],[-1.56636,54.29845],[-1.56605,54.29863],[-1.56618,54.29871],[-1.56586,54.2989],[-1.56578,54.29885],[-1.56575,54.29888],[-1.56528,54.29861]]]]}},
{ "type":"Feature","properties":{"osm_way_id":"172614323","amenity":"parking","other":{"access":"yes","fee":"no","parking":"surface","surface":"asphalt"}}, "geometry":{"type":"MultiPolygon","coordinates":[[[[-1.56747,54.29927],[-1.56697,54.29924],[-1.567,54.29919],[-1.56693,54.29918],[-1.567,54.29906],[-1.56723,54.29891],[-1.56754,54.29907],[-1.56747,54.29927]]]]}},
{ "type":"Feature","properties":{"osm_way_id":"172614324","amenity":"parking"},"geometry":{"type":"MultiPolygon","coordinates":[[[[-1.56213,54.30408],[-1.56199,54.30389],[-1.56146,54.30404],[-1.56163,54.30421],[-1.56213,54.30408]]]]}},
{ "type":"Feature","properties":{"osm_way_id":"172659419","amenity":"parking"},"geometry":{"type":"MultiPolygon","coordinates":[[[[-1.45222,54.32894],[-1.45237,54.3288],[-1.45251,54.32864],[-1.45252,54.32858],[-1.45242,54.32854],[-1.45229,54.32872],[-1.45208,54.32893],[-1.45222,54.32894]]]]}},
{ "type":"Feature","properties":{"osm_way_id":"177502716","amenity":"parking","other":{"access":"yes","capacity:disabled":"10","operator":"APCOA","park_ride":"yes","parking":"surface"}}, "geometry":{"type":"MultiPolygon","coordinates":[[[[-1.44069,54.33307],[-1.44086,54.33304],[-1.44116,54.33303],[-1.44117,54.33302],[-1.44119,54.33298],[-1.44133,54.33295],[-1.44137,54.33294],[-1.44145,54.33291],[-1.44122,54.33255],[-1.44111,54.33257],[-1.44106,54.33263],[-1.44117,54.33282],[-1.44092,54.33294],[-1.44079,54.3329],[-1.44069,54.33307]]]]}},
{ "type":"Feature","properties":{"osm_way_id":"177517364","amenity":"parking","other":{"access":"private"}}, "geometry":{"type":"MultiPolygon","coordinates":[[[[-1.43724,54.33339],[-1.43733,54.33318],[-1.43722,54.33316],[-1.4372,54.3332],[-1.43711,54.33319],[-1.43712,54.33315],[-1.43702,54.33314],[-1.43694,54.33335],[-1.43709,54.33337],[-1.43724,54.33339]]]]}},
{ "type":"Feature","properties":{"osm_way_id":"177523661","amenity":"parking","other":{"parking":"surface"}}, "geometry":{"type":"MultiPolygon","coordinates":[[[[-1.19406,54.10622],[-1.19364,54.10619],[-1.19371,54.10582],[-1.19411,54.10595],[-1.19408,54.10614],[-1.19406,54.10622]]]]}},
{ "type":"Feature","properties":{"osm_way_id":"180550380","amenity":"parking"},"geometry":{"type":"MultiPolygon","coordinates":[[[[-1.16512,54.08043],[-1.16519,54.0804],[-1.16515,54.08032],[-1.1651,54.08019],[-1.165,54.0801],[-1.1649,54.08004],[-1.16494,54.07993],[-1.16489,54.07987],[-1.16471,54.07991],[-1.16479,54.07996],[-1.16483,54.08006],[-1.16466,54.0801],[-1.16442,54.08008],[-1.16402,54.08003],[-1.16425,54.08019],[-1.16456,54.08031],[-1.16488,54.08045],[-1.16512,54.08043]]]]}},
{ "type":"Feature","properties":{"osm_way_id":"181157096","name":"Bridge Street","amenity":"parking"},"geometry":{"type":"MultiPolygon","coordinates":[[[[-1.5914,54.28896],[-1.59147,54.289],[-1.59151,54.28905],[-1.59169,54.28901],[-1.59187,54.28924],[-1.59134,54.28935],[-1.59131,54.28933],[-1.59107,54.28938],[-1.59096,54.28938],[-1.59094,54.28935],[-1.59091,54.28929],[-1.59083,54.28917],[-1.59071,54.28914],[-1.59053,54.28918],[-1.59047,54.28908],[-1.59088,54.28898],[-1.59092,54.28903],[-1.59125,54.28893],[-1.59134,54.28891],[-1.5914,54.28896]]]]}},
{ "type":"Feature","properties":{"osm_way_id":"181509866","amenity":"parking","other":{"fee":"no","parking":"surface"}}, "geometry":{"type":"MultiPolygon","coordinates":[[[[-1.29817,54.23248],[-1.29821,54.2324],[-1.29823,54.23237],[-1.29818,54.23236],[-1.29812,54.2323],[-1.29819,54.23214],[-1.29824,54.23215],[-1.29826,54.23209],[-1.29809,54.232],[-1.298,54.232],[-1.2978,54.23243],[-1.29817,54.23248]]]]}},
{ "type":"Feature","properties":{"osm_way_id":"181509867","amenity":"parking","other":{"fee":"no","parking":"surface"}}, "geometry":{"type":"MultiPolygon","coordinates":[[[[-1.29892,54.23224],[-1.29896,54.23215],[-1.29905,54.23216],[-1.29909,54.23217],[-1.29905,54.23226],[-1.29901,54.23225],[-1.29892,54.23224]]]]}},
{ "type":"Feature","properties":{"osm_way_id":"181509868","amenity":"parking","other":{"fee":"no","parking":"surface"}}, "geometry":{"type":"MultiPolygon","coordinates":[[[[-1.29885,54.23228],[-1.29898,54.2323],[-1.29905,54.23231],[-1.29902,54.23237],[-1.29895,54.23236],[-1.29882,54.23234],[-1.29885,54.23228]]]]}},
{ "type":"Feature","properties":{"osm_way_id":"182575590","amenity":"parking"},"geometry":{"type":"MultiPolygon","coordinates":[[[[-1.5067,54.33341],[-1.50712,54.33391],[-1.50683,54.33399],[-1.50628,54.33355],[-1.5067,54.33341]]]]}},
{ "type":"Feature","properties":{"osm_way_id":"198529405","amenity":"parking"},"geometry":{"type":"MultiPolygon","coordinates":[[[[-1.46411,54.43402],[-1.46421,54.43405],[-1.46437,54.43406],[-1.46451,54.43406],[-1.46462,54.43405],[-1.46464,54.43403],[-1.46414,54.4339],[-1.46406,54.43401],[-1.46411,54.43402]]]]}},
{ "type":"Feature","properties":{"osm_way_id":"215418146","amenity":"parking"},"geometry":{"type":"MultiPolygon","coordinates":[[[[-1.18239,54.46881],[-1.18295,54.46831],[-1.18292,54.46828],[-1.18232,54.46844],[-1.18185,54.46857],[-1.18186,54.46859],[-1.18192,54.46864],[-1.18196,54.46869],[-1.18239,54.46881]]]]}},
{ "type":"Feature","properties":{"osm_way_id":"217469460","amenity":"parking"},"geometry":{"type":"MultiPolygon","coordinates":[[[[1.64013,52.71258],[1.64019,52.71261],[1.64029,52.71261],[1.6404,52.71243],[1.64052,52.71246],[1.64061,52.71232],[1.64053,52.7123],[1.64048,52.71229],[1.64054,52.7122],[1.64056,52.71218],[1.64059,52.71217],[1.64062,52.71217],[1.64065,52.71217],[1.6407,52.7121],[1.64056,52.71207],[1.64053,52.71211],[1.64044,52.71209],[1.64013,52.71258]]]]}},
{ "type":"Feature","properties":{"osm_way_id":"231510817","name":"Golden Lion Car Park","amenity":"parking","other":{"fee":"yes"}}, "geometry":{"type":"MultiPolygon","coordinates":[[[[-1.43182,54.33943],[-1.43186,54.33921],[-1.43245,54.33915],[-1.43248,54.33925],[-1.43296,54.33919],[-1.433,54.33933],[-1.4321,54.33941],[-1.43182,54.33943]]]]}},
{ "type":"Feature","properties":{"osm_way_id":"233807161","amenity":"parking","other":{"parking":"surface","wheelchair":"yes"}}, "geometry":{"type":"MultiPolygon","coordinates":[[[[-1.17857,54.10173],[-1.17752,54.10164],[-1.17677,54.1016],[-1.17682,54.10125],[-1.17774,54.10129],[-1.17808,54.10156],[-1.17818,54.10157],[-1.1786,54.10162],[-1.17857,54.10173]]]]}},
{ "type":"Feature","properties":{"osm_way_id":"233862329","name":"HGV","amenity":"parking","other":{"capacity":"20","parking":"surface"}}, "geometry":{"type":"MultiPolygon","coordinates":[[[[-1.56812,54.29833],[-1.56899,54.29886],[-1.56863,54.29909],[-1.5677,54.29853],[-1.56812,54.29833]]]]}},
{ "type":"Feature","properties":{"osm_way_id":"241086679","name":"Shorthorn Inn Car Park","amenity":"parking","other":{"access":"customers","park_ride":"no","parking":"surface","supervised":"no"}}, "geometry":{"type":"MultiPolygon","coordinates":[[[[-1.39615,54.4375],[-1.39608,54.43718],[-1.39663,54.43714],[-1.39674,54.43783],[-1.39655,54.43784],[-1.39643,54.43782],[-1.39644,54.43781],[-1.39644,54.43776],[-1.39641,54.43773],[-1.39637,54.43749],[-1.39615,54.4375]]]]}},
{ "type":"Feature","properties":{"osm_way_id":"241644070","amenity":"parking","other":{"fee":"Private","parking":"surface"}}, "geometry":{"type":"MultiPolygon","coordinates":[[[[-1.38761,54.41612],[-1.38728,54.4161],[-1.38728,54.41597],[-1.38735,54.4159],[-1.38748,54.41591],[-1.38748,54.41599],[-1.3876,54.416],[-1.38764,54.416],[-1.38761,54.41612]]]]}},
{ "type":"Feature","properties":{"osm_way_id":"255011988","amenity":"parking"},"geometry":{"type":"MultiPolygon","coordinates":[[[[-1.3852,54.41216],[-1.3851,54.41199],[-1.38522,54.41197],[-1.38527,54.41205],[-1.38533,54.41214],[-1.3852,54.41216]]]]}},
{ "type":"Feature","properties":{"osm_way_id":"257501500","amenity":"parking"},"geometry":{"type":"MultiPolygon","coordinates":[[[[-1.3558,54.39967],[-1.35438,54.39993],[-1.35443,54.4],[-1.35512,54.39987],[-1.35514,54.39995],[-1.35551,54.39988],[-1.35549,54.39984],[-1.35585,54.39978],[-1.3558,54.39967]]]]}},
{ "type":"Feature","properties":{"osm_way_id":"262040068","amenity":"parking","other":{"access":"private"}}, "geometry":{"type":"MultiPolygon","coordinates":[[[[-3.16149,51.46371],[-3.16131,51.46362],[-3.16126,51.46366],[-3.16112,51.46358],[-3.16103,51.46359],[-3.16094,51.46365],[-3.16076,51.46378],[-3.1606,51.46389],[-3.16054,51.46393],[-3.16053,51.46394],[-3.16059,51.46398],[-3.16061,51.46397],[-3.16062,51.46397],[-3.16061,51.46398],[-3.16063,51.46399],[-3.1606,51.46401],[-3.16076,51.4641],[-3.16092,51.46419],[-3.16091,51.46419],[-3.16095,51.46421],[-3.16098,51.46423],[-3.16098,51.46422],[-3.16123,51.46436],[-3.16128,51.46433],[-3.16135,51.46432],[-3.1614,51.46435],[-3.16157,51.46423],[-3.16159,51.46422],[-3.16152,51.46418],[-3.16155,51.46416],[-3.16158,51.46414],[-3.16154,51.46411],[-3.1615,51.46409],[-3.16143,51.46413],[-3.16142,51.46413],[-3.16147,51.4641],[-3.16133,51.46402],[-3.16132,51.46401],[-3.16126,51.46397],[-3.16122,51.46396],[-3.16138,51.46386],[-3.16144,51.46382],[-3.16142,51.46376],[-3.16149,51.46371]]]]}},
{ "type":"Feature","properties":{"osm_way_id":"273476531","amenity":"parking"},"geometry":{"type":"MultiPolygon","coordinates":[[[[-1.59627,54.29167],[-1.59675,54.2919],[-1.59717,54.29161],[-1.59735,54.2915],[-1.59726,54.29145],[-1.59685,54.29123],[-1.59627,54.29167]]]]}},
{ "type":"Feature","properties":{"osm_way_id":"273486842","amenity":"parking"},"geometry":{"type":"MultiPolygon","coordinates":[[[[-1.60378,54.29439],[-1.60328,54.29461],[-1.60338,54.29466],[-1.60352,54.29456],[-1.60387,54.29473],[-1.60395,54.29468],[-1.60402,54.29472],[-1.60439,54.29455],[-1.60378,54.29439]]]]}},
{ "type":"Feature","properties":{"osm_way_id":"283121089","amenity":"parking","other":{"parking":"surface"}}, "geometry":{"type":"MultiPolygon","coordinates":[[[[-1.57889,54.37225],[-1.57858,54.37228],[-1.57853,54.37211],[-1.57882,54.37208],[-1.57885,54.37208],[-1.57889,54.37225]]]]}},
{ "type":"Feature","properties":{"osm_way_id":"286059222","amenity":"parking"},"geometry":{"type":"MultiPolygon","coordinates":[[[[-1.46639,54.33971],[-1.46634,54.33949],[-1.46626,54.33949],[-1.46624,54.33946],[-1.46614,54.33901],[-1.46627,54.33901],[-1.46636,54.33901],[-1.46643,54.33901],[-1.46648,54.33903],[-1.4665,54.33904],[-1.46655,54.33907],[-1.46659,54.33916],[-1.46664,54.33924],[-1.46673,54.33931],[-1.4668,54.33936],[-1.46687,54.33941],[-1.46691,54.33949],[-1.46692,54.33963],[-1.46687,54.33971],[-1.46639,54.33971]]]]}},
{ "type":"Feature","properties":{"osm_way_id":"286363522","amenity":"parking","other":{"access":"customers"}}, "geometry":{"type":"MultiPolygon","coordinates":[[[[-1.34941,54.25053],[-1.34892,54.25057],[-1.34896,54.25072],[-1.34946,54.25067],[-1.34941,54.25053]]]]}},
{ "type":"Feature","properties":{"osm_way_id":"296042484","amenity":"parking"},"geometry":{"type":"MultiPolygon","coordinates":[[[[-1.18173,54.11573],[-1.18168,54.11575],[-1.18156,54.11571],[-1.18149,54.11574],[-1.18162,54.11578],[-1.18155,54.11584],[-1.18217,54.11613],[-1.18232,54.11602],[-1.18216,54.11594],[-1.18173,54.11573]]]]}},
{ "type":"Feature","properties":{"osm_way_id":"300398832","amenity":"parking"},"geometry":{"type":"MultiPolygon","coordinates":[[[[-1.56748,54.21911],[-1.56754,54.21902],[-1.56781,54.219],[-1.5679,54.21901],[-1.56785,54.21906],[-1.5677,54.21925],[-1.56753,54.21922],[-1.5675,54.21926],[-1.5674,54.21925],[-1.56747,54.21916],[-1.56748,54.21911]]]]}},
{ "type":"Feature","properties":{"osm_way_id":"300398833","amenity":"parking"},"geometry":{"type":"MultiPolygon","coordinates":[[[[-1.56583,54.22245],[-1.56574,54.2224],[-1.56532,54.22252],[-1.56538,54.22259],[-1.56548,54.22257],[-1.56548,54.22262],[-1.56562,54.22262],[-1.56567,54.22262],[-1.56582,54.22255],[-1.56583,54.22245]]]]}},
{ "type":"Feature","properties":{"osm_way_id":"312589726","amenity":"parking","other":{"description":"HGV Park","operator":"Exelby Services","parking":"surface"}}, "geometry":{"type":"MultiPolygon","coordinates":[[[[-1.56775,54.31204],[-1.5672,54.31147],[-1.56738,54.31139],[-1.56742,54.31131],[-1.56729,54.31118],[-1.56955,54.31041],[-1.56997,54.31088],[-1.56976,54.31094],[-1.57018,54.31141],[-1.56944,54.31165],[-1.5693,54.31152],[-1.56875,54.31171],[-1.56775,54.31204]]]]}},
{ "type":"Feature","properties":{"osm_way_id":"316388460","amenity":"parking"},"geometry":{"type":"MultiPolygon","coordinates":[[[[-1.10986,54.10059],[-1.10948,54.10086],[-1.10928,54.10087],[-1.10905,54.10087],[-1.10889,54.10088],[-1.10889,54.10084],[-1.10889,54.10071],[-1.10893,54.1007],[-1.10891,54.10063],[-1.10979,54.10053],[-1.10983,54.10058],[-1.10986,54.10059]]]]}},
{ "type":"Feature","properties":{"osm_way_id":"316492856","amenity":"parking"},"geometry":{"type":"MultiPolygon","coordinates":[[[[-1.58015,54.37364],[-1.57993,54.37319],[-1.58041,54.37314],[-1.58082,54.37309],[-1.58093,54.37359],[-1.58015,54.37364]]]]}},
{ "type":"Feature","properties":{"osm_way_id":"334857880","amenity":"parking"},"geometry":{"type":"MultiPolygon","coordinates":[[[[-1.15561,54.44605],[-1.15556,54.44607],[-1.15558,54.44608],[-1.15547,54.44612],[-1.15548,54.44613],[-1.15538,54.44616],[-1.15533,54.44623],[-1.15542,54.44625],[-1.1554,54.44629],[-1.15549,54.44632],[-1.15581,54.44626],[-1.1558,54.44622],[-1.15587,54.44621],[-1.15579,54.44597],[-1.15562,54.44586],[-1.15544,54.44577],[-1.15533,54.44582],[-1.15534,54.44585],[-1.15564,54.44603],[-1.15561,54.44605]]]]}},
{ "type":"Feature","properties":{"osm_way_id":"334857883","amenity":"parking"},"geometry":{"type":"MultiPolygon","coordinates":[[[[-1.15519,54.44609],[-1.15499,54.44595],[-1.15494,54.44591],[-1.1548,54.44599],[-1.15485,54.44602],[-1.1551,54.44614],[-1.15519,54.44609]]]]}},
{ "type":"Feature","properties":{"osm_way_id":"334857884","amenity":"parking"},"geometry":{"type":"MultiPolygon","coordinates":[[[[-1.14826,54.43889],[-1.14825,54.43879],[-1.14788,54.43885],[-1.14776,54.43883],[-1.14776,54.43889],[-1.14781,54.43899],[-1.14811,54.43894],[-1.14811,54.43891],[-1.14826,54.43889]]]]}},
{ "type":"Feature","properties":{"osm_way_id":"334857885","name":"Christmas Tree Centre","amenity":"parking"},"geometry":{"type":"MultiPolygon","coordinates":[[[[-1.14781,54.43922],[-1.14746,54.43919],[-1.14685,54.43927],[-1.14693,54.43938],[-1.14717,54.43935],[-1.14766,54.43928],[-1.14781,54.43922]]]]}},
{ "type":"Feature","properties":{"osm_way_id":"334875307","name":"The Crosby Public House Car Park","amenity":"parking"},"geometry":{"type":"MultiPolygon","coordinates":[[[[-1.39099,54.30774],[-1.39063,54.30781],[-1.39071,54.30795],[-1.39103,54.3079],[-1.39104,54.30786],[-1.39113,54.30785],[-1.39111,54.3078],[-1.39107,54.30777],[-1.39099,54.30774]]]]}},
{ "type":"Feature","properties":{"osm_way_id":"337564575","amenity":"parking"},"geometry":{"type":"MultiPolygon","coordinates":[[[[-1.39337,54.30919],[-1.39325,54.30896],[-1.39307,54.30896],[-1.39306,54.30903],[-1.39303,54.30905],[-1.39313,54.30908],[-1.39321,54.30917],[-1.39303,54.30922],[-1.3931,54.30925],[-1.39324,54.30923],[-1.39337,54.30919]]]]}},
{ "type":"Feature","properties":{"osm_way_id":"337769512","amenity":"parking","other":{"access":"private"}}, "geometry":{"type":"MultiPolygon","coordinates":[[[[-1.43197,54.34417],[-1.43175,54.34415],[-1.43169,54.34445],[-1.4321,54.34447],[-1.4321,54.34444],[-1.43211,54.3444],[-1.43195,54.34438],[-1.43197,54.34417]]]]}},
{ "type":"Feature","properties":{"osm_way_id":"338609272","amenity":"parking","other":{"access":"customers","fee":"no","parking":"street_side"}}, "geometry":{"type":"MultiPolygon","coordinates":[[[[-1.20878,54.02189],[-1.20851,54.02193],[-1.20844,54.02171],[-1.20854,54.0217],[-1.20847,54.02151],[-1.20864,54.02149],[-1.20878,54.02189]]]]}},
{ "type":"Feature","properties":{"osm_way_id":"343708044","amenity":"parking","other":{"access":"private","parking":"surface"}}, "geometry":{"type":"MultiPolygon","coordinates":[[[[-1.42917,54.33711],[-1.42922,54.33707],[-1.42939,54.33702],[-1.42902,54.33683],[-1.42902,54.33674],[-1.429,54.33673],[-1.4288,54.33672],[-1.42872,54.33688],[-1.42912,54.33708],[-1.42917,54.33711]]]]}},
{ "type":"Feature","properties":{"osm_way_id":"343713825","amenity":"parking","other":{"access":"private"}}, "geometry":{"type":"MultiPolygon","coordinates":[[[[-1.43294,54.33308],[-1.4331,54.3332],[-1.43312,54.33322],[-1.43297,54.33329],[-1.43303,54.33338],[-1.43311,54.33338],[-1.43323,54.3335],[-1.43311,54.33354],[-1.43304,54.33356],[-1.43294,54.33347],[-1.43302,54.33344],[-1.43299,54.33342],[-1.43297,54.3334],[-1.43291,54.33341],[-1.43287,54.33341],[-1.43276,54.33345],[-1.43273,54.33342],[-1.43269,54.3334],[-1.43276,54.33337],[-1.43274,54.33335],[-1.4328,54.33332],[-1.43274,54.33327],[-1.43264,54.33325],[-1.43294,54.33308]]]]}},
{ "type":"Feature","properties":{"osm_way_id":"344302309","amenity":"parking"},"geometry":{"type":"MultiPolygon","coordinates":[[[[-1.4227,54.33625],[-1.42277,54.33623],[-1.42293,54.3362],[-1.42277,54.33607],[-1.42232,54.33617],[-1.42249,54.33635],[-1.42256,54.33632],[-1.4227,54.33625]]]]}},
{ "type":"Feature","properties":{"osm_way_id":"354890615","amenity":"parking","other":{"access":"private","parking":"surface"}}, "geometry":{"type":"MultiPolygon","coordinates":[[[[-1.4364,54.33022],[-1.4355,54.3301],[-1.43539,54.33032],[-1.43536,54.33038],[-1.43613,54.33049],[-1.43616,54.33045],[-1.43631,54.33047],[-1.4364,54.33022]]]]}},
{ "type":"Feature","properties":{"osm_way_id":"355171861","amenity":"parking"},"geometry":{"type":"MultiPolygon","coordinates":[[[[-1.29921,54.36826],[-1.29913,54.36826],[-1.29912,54.3681],[-1.29921,54.3681],[-1.29921,54.36826]]]]}},
{ "type":"Feature","properties":{"osm_way_id":"355171862","amenity":"parking"},"geometry":{"type":"MultiPolygon","coordinates":[[[[-1.30013,54.36862],[-1.30017,54.36857],[-1.29971,54.36857],[-1.29925,54.36866],[-1.29926,54.36869],[-1.29966,54.36863],[-1.30013,54.36862]]]]}},
{ "type":"Feature","properties":{"osm_way_id":"360960695","amenity":"parking","other":{"access":"customers"}}, "geometry":{"type":"MultiPolygon","coordinates":[[[[-1.29008,54.06621],[-1.28985,54.06605],[-1.28982,54.06602],[-1.29012,54.06589],[-1.2902,54.06585],[-1.29044,54.06603],[-1.29023,54.06614],[-1.29008,54.06621]]]]}},
{ "type":"Feature","properties":{"osm_way_id":"363431094","amenity":"parking"},"geometry":{"type":"MultiPolygon","coordinates":[[[[-1.45631,54.29684],[-1.456,54.29702],[-1.45574,54.29687],[-1.45563,54.29681],[-1.45587,54.29666],[-1.45602,54.29675],[-1.45609,54.29671],[-1.45631,54.29684]]]]}},
{ "type":"Feature","properties":{"osm_way_id":"365122129","name":"Jolly Minister Pub Car Park","amenity":"parking","other":{"parking":"surface"}}, "geometry":{"type":"MultiPolygon","coordinates":[[[[-1.42464,54.33796],[-1.4244,54.33803],[-1.42456,54.33818],[-1.42457,54.33828],[-1.42467,54.33826],[-1.42477,54.33823],[-1.42472,54.3382],[-1.4248,54.33813],[-1.42464,54.33796]]]]}},
{ "type":"Feature","properties":{"osm_way_id":"365704650","name":"School Car Park","amenity":"parking"},"geometry":{"type":"MultiPolygon","coordinates":[[[[-1.43113,54.33658],[-1.43109,54.33658],[-1.43091,54.33657],[-1.43064,54.33655],[-1.43073,54.33625],[-1.43101,54.33625],[-1.43105,54.33638],[-1.43113,54.33658]]]]}},
{ "type":"Feature","properties":{"osm_way_id":"365704652","name":"Library Car Park","amenity":"parking"},"geometry":{"type":"MultiPolygon","coordinates":[[[[-1.43174,54.33666],[-1.43163,54.33669],[-1.43155,54.33671],[-1.43149,54.33671],[-1.43141,54.33669],[-1.43136,54.33666],[-1.43134,54.33662],[-1.43134,54.33659],[-1.43134,54.33656],[-1.43146,54.33656],[-1.43179,54.33658],[-1.43178,54.33666],[-1.43174,54.33666]]]]}},
{ "type":"Feature","properties":{"osm_way_id":"366394660","amenity":"parking"},"geometry":{"type":"MultiPolygon","coordinates":[[[[-1.19607,54.46864],[-1.1961,54.46862],[-1.19603,54.46855],[-1.19575,54.46826],[-1.19567,54.46825],[-1.19581,54.46862],[-1.19594,54.46862],[-1.19607,54.46864]]]]}},
{ "type":"Feature","properties":{"osm_way_id":"369233757","name":"Durham Ox Car Park","amenity":"parking","other":{"access":"customers"}}, "geometry":{"type":"MultiPolygon","coordinates":[[[[-1.43428,54.33728],[-1.43467,54.33728],[-1.43494,54.33728],[-1.43497,54.3373],[-1.43496,54.33739],[-1.43496,54.33744],[-1.43496,54.33746],[-1.43491,54.33747],[-1.43426,54.33744],[-1.43428,54.33728]]]]}},
{ "type":"Feature","properties":{"osm_way_id":"369553208","amenity":"parking"},"geometry":{"type":"MultiPolygon","coordinates":[[[[-1.33013,54.34773],[-1.32966,54.34763],[-1.32985,54.3474],[-1.32995,54.34741],[-1.3302,54.34743],[-1.33013,54.34773]]]]}},
{ "type":"Feature","properties":{"osm_way_id":"372091513","amenity":"parking"},"geometry":{"type":"MultiPolygon","coordinates":[[[[-1.33247,54.23132],[-1.33235,54.23126],[-1.33213,54.23141],[-1.33193,54.23131],[-1.33151,54.23137],[-1.33154,54.23145],[-1.33163,54.23148],[-1.33189,54.23144],[-1.33201,54.23148],[-1.33222,54.2314],[-1.3323,54.23144],[-1.33247,54.23132]]]]}},
{ "type":"Feature","properties":{"osm_way_id":"372091515","amenity":"parking"},"geometry":{"type":"MultiPolygon","coordinates":[[[[-1.33165,54.23091],[-1.33153,54.23085],[-1.33127,54.23101],[-1.33132,54.23104],[-1.33126,54.23106],[-1.33148,54.23134],[-1.33189,54.23128],[-1.33211,54.23113],[-1.332,54.23108],[-1.3317,54.23128],[-1.33152,54.23119],[-1.33165,54.2311],[-1.33149,54.23103],[-1.33165,54.23091]]]]}},
{ "type":"Feature","properties":{"osm_way_id":"372091518","amenity":"parking"},"geometry":{"type":"MultiPolygon","coordinates":[[[[-1.33309,54.2316],[-1.3329,54.23151],[-1.33279,54.23159],[-1.33241,54.23141],[-1.3323,54.23148],[-1.33236,54.23164],[-1.33194,54.23169],[-1.33197,54.23179],[-1.33309,54.2316]]]]}},
{ "type":"Feature","properties":{"osm_way_id":"373566159","amenity":"parking"},"geometry":{"type":"MultiPolygon","coordinates":[[[[-1.15932,54.01603],[-1.15916,54.01613],[-1.15835,54.01612],[-1.15834,54.01596],[-1.15923,54.01597],[-1.15932,54.01603]]]]}},
{ "type":"Feature","properties":{"osm_way_id":"373582068","amenity":"parking"},"geometry":{"type":"MultiPolygon","coordinates":[[[[-1.55921,54.30524],[-1.55913,54.30527],[-1.55884,54.30496],[-1.5589,54.30494],[-1.55906,54.30495],[-1.55911,54.30495],[-1.55938,54.30517],[-1.55921,54.30524]]]]}},
{ "type":"Feature","properties":{"osm_way_id":"373584365","amenity":"parking"},"geometry":{"type":"MultiPolygon","coordinates":[[[[-1.42941,54.35052],[-1.42949,54.3504],[-1.42912,54.35036],[-1.42908,54.35043],[-1.42926,54.35048],[-1.42941,54.35052]]]]}},
{ "type":"Feature","properties":{"osm_way_id":"373753457","amenity":"parking","other":{"access":"customers","parking":"surface"}}, "geometry":{"type":"MultiPolygon","coordinates":[[[[-3.22229,55.95034],[-3.22224,55.95031],[-3.22235,55.95013],[-3.22267,55.95022],[-3.22281,55.95026],[-3.22303,55.95048],[-3.22302,55.95051],[-3.22296,55.95053],[-3.22287,55.95046],[-3.22265,55.95053],[-3.2226,55.95049],[-3.22254,55.95051],[-3.22252,55.95039],[-3.22243,55.95037],[-3.22229,55.95034]]]]}},
{ "type":"Feature","properties":{"osm_way_id":"377095068","amenity":"parking"},"geometry":{"type":"MultiPolygon","coordinates":[[[[-1.43349,54.34868],[-1.43347,54.34864],[-1.43365,54.34858],[-1.43371,54.34851],[-1.43376,54.34852],[-1.43383,54.34855],[-1.43376,54.34863],[-1.43373,54.34866],[-1.43366,54.34868],[-1.43351,54.34872],[-1.43349,54.34868]]]]}},
{ "type":"Feature","properties":{"osm_way_id":"377095069","amenity":"parking"},"geometry":{"type":"MultiPolygon","coordinates":[[[[-1.43287,54.34873],[-1.43288,54.3487],[-1.43317,54.34872],[-1.43317,54.34875],[-1.43317,54.34879],[-1.43287,54.34878],[-1.43287,54.34873]]]]}},
{ "type":"Feature","properties":{"osm_way_id":"377095070","amenity":"parking"},"geometry":{"type":"MultiPolygon","coordinates":[[[[-1.43537,54.34154],[-1.43572,54.34154],[-1.43568,54.34152],[-1.43527,54.34124],[-1.43519,54.34118],[-1.43507,54.34105],[-1.43496,54.34107],[-1.43493,54.34109],[-1.43513,54.3413],[-1.43537,54.34154]]]]}},
{ "type":"Feature","properties":{"osm_way_id":"377095703","amenity":"parking"},"geometry":{"type":"MultiPolygon","coordinates":[[[[-1.43459,54.34066],[-1.43459,54.34063],[-1.43444,54.34064],[-1.43444,54.34067],[-1.43445,54.34073],[-1.43455,54.34072],[-1.4346,54.34072],[-1.43459,54.34066]]]]}},
{ "type":"Feature","properties":{"osm_way_id":"377199026","amenity":"parking","other":{"access":"customers","fee":"no","parking":"surface"}}, "geometry":{"type":"MultiPolygon","coordinates":[[[[-1.60544,54.26039],[-1.60286,54.26094],[-1.60301,54.2613],[-1.60303,54.26136],[-1.60306,54.26141],[-1.60443,54.2612],[-1.60565,54.26103],[-1.60564,54.26099],[-1.6056,54.26091],[-1.60582,54.26087],[-1.60575,54.26078],[-1.60553,54.2605],[-1.60544,54.26039]]]]}},
{ "type":"Feature","properties":{"osm_way_id":"377305857","amenity":"parking"},"geometry":{"type":"MultiPolygon","coordinates":[[[[-1.44577,54.33367],[-1.44576,54.3336],[-1.44573,54.33351],[-1.44571,54.33347],[-1.44542,54.33339],[-1.4453,54.33355],[-1.44558,54.33363],[-1.44569,54.33367],[-1.44573,54.33367],[-1.44577,54.33367]]]]}},
{ "type":"Feature","properties":{"osm_way_id":"377306949","amenity":"parking","other":{"access":"private"}}, "geometry":{"type":"MultiPolygon","coordinates":[[[[-1.4429,54.33201],[-1.44296,54.33185],[-1.44273,54.33181],[-1.44266,54.33197],[-1.44278,54.33199],[-1.4429,54.33201]]]]}},
{ "type":"Feature","properties":{"osm_way_id":"377306972","amenity":"parking","other":{"access":"private"}}, "geometry":{"type":"MultiPolygon","coordinates":[[[[-1.44339,54.33286],[-1.44332,54.33302],[-1.44316,54.33298],[-1.4431,54.33289],[-1.44312,54.33283],[-1.44317,54.33283],[-1.4433,54.33285],[-1.44339,54.33286]]]]}},
{ "type":"Feature","properties":{"osm_way_id":"383756683","amenity":"parking"},"geometry":{"type":"MultiPolygon","coordinates":[[[[-1.17078,54.48947],[-1.17027,54.48947],[-1.17027,54.48967],[-1.17038,54.48981],[-1.17064,54.48981],[-1.17073,54.4898],[-1.17074,54.48977],[-1.17081,54.48975],[-1.17078,54.48947]]]]}},
{ "type":"Feature","properties":{"osm_way_id":"383787166","amenity":"parking"},"geometry":{"type":"MultiPolygon","coordinates":[[[[-1.18882,54.47318],[-1.18851,54.47309],[-1.18858,54.47301],[-1.18869,54.47286],[-1.18877,54.47287],[-1.18883,54.47285],[-1.18886,54.47296],[-1.18885,54.47298],[-1.18885,54.47305],[-1.18883,54.4731],[-1.18886,54.4731],[-1.18882,54.47318]]]]}},
{ "type":"Feature","properties":{"osm_way_id":"383788532","amenity":"parking","other":{"wheelchair":"yes"}}, "geometry":{"type":"MultiPolygon","coordinates":[[[[-1.19329,54.47137],[-1.19318,54.47118],[-1.19312,54.4711],[-1.19338,54.47105],[-1.19353,54.47128],[-1.19345,54.4713],[-1.19347,54.47134],[-1.19329,54.47137]]]]}},
{ "type":"Feature","properties":{"osm_way_id":"384809812","amenity":"parking"},"geometry":{"type":"MultiPolygon","coordinates":[[[[-1.55896,54.30743],[-1.55915,54.30772],[-1.56094,54.30736],[-1.56089,54.30704],[-1.55896,54.30743]]]]}},
{ "type":"Feature","properties":{"osm_way_id":"390773854","amenity":"parking"},"geometry":{"type":"MultiPolygon","coordinates":[[[[-1.15633,54.44836],[-1.15634,54.44839],[-1.15571,54.44848],[-1.15558,54.4482],[-1.1562,54.44811],[-1.15633,54.44836]]]]}},
{ "type":"Feature","properties":{"osm_way_id":"392088326","amenity":"parking"},"geometry":{"type":"MultiPolygon","coordinates":[[[[-1.44314,54.33225],[-1.44303,54.3325],[-1.44292,54.33253],[-1.44281,54.33251],[-1.44283,54.33246],[-1.44276,54.33245],[-1.44286,54.33221],[-1.44312,54.33225],[-1.44314,54.33225]]]]}},
{ "type":"Feature","properties":{"osm_way_id":"395255827","amenity":"parking","other":{"access":"customers"}}, "geometry":{"type":"MultiPolygon","coordinates":[[[[-1.31831,54.38781],[-1.31801,54.38779],[-1.31807,54.38752],[-1.3181,54.38744],[-1.31821,54.38744],[-1.31822,54.38736],[-1.31814,54.38714],[-1.31824,54.38713],[-1.31837,54.38748],[-1.31822,54.3875],[-1.31831,54.38781]]]]}},
{ "type":"Feature","properties":{"osm_way_id":"396918222","name":"WI Hall","amenity":"parking","other":{"access":"private"}}, "geometry":{"type":"MultiPolygon","coordinates":[[[[-1.44744,54.331],[-1.44764,54.33099],[-1.44762,54.33087],[-1.44748,54.33087],[-1.44748,54.33086],[-1.44744,54.33086],[-1.44738,54.33087],[-1.44741,54.331],[-1.44744,54.331]]]]}},
{ "type":"Feature","properties":{"osm_way_id":"398540195","name":"Thief Hall Car Park","amenity":"parking"},"geometry":{"type":"MultiPolygon","coordinates":[[[[-1.39546,54.29282],[-1.39592,54.29272],[-1.39589,54.29266],[-1.39634,54.29257],[-1.39632,54.2925],[-1.39628,54.29244],[-1.39587,54.29254],[-1.39592,54.29262],[-1.39586,54.29263],[-1.39582,54.29256],[-1.39523,54.29268],[-1.39525,54.29271],[-1.39527,54.29274],[-1.39541,54.29274],[-1.39545,54.2928],[-1.39546,54.29282]]]]}},
{ "type":"Feature","properties":{"osm_way_id":"416819305","name":"Market Place","amenity":"parking","other":{"access":"yes","fee":"yes","parking":"surface"}}, "geometry":{"type":"MultiPolygon","coordinates":[[[[-1.34215,54.23275],[-1.34179,54.23284],[-1.34173,54.23291],[-1.34191,54.23315],[-1.34222,54.23307],[-1.3421,54.23291],[-1.34224,54.23288],[-1.34215,54.23275]]]]}},
{ "type":"Feature","properties":{"osm_way_id":"416819307","name":"Market Place","amenity":"parking","other":{"parking":"surface"}}, "geometry":{"type":"MultiPolygon","coordinates":[[[[-1.34293,54.23291],[-1.3435,54.23281],[-1.34346,54.23277],[-1.34313,54.23271],[-1.34298,54.23273],[-1.34298,54.23275],[-1.3429,54.23276],[-1.34293,54.23291]]]]}},
{ "type":"Feature","properties":{"osm_way_id":"419803203","amenity":"parking"},"geometry":{"type":"MultiPolygon","coordinates":[[[[-1.29619,54.25327],[-1.29608,54.25329],[-1.29584,54.25297],[-1.29594,54.25294],[-1.29619,54.25327]]]]}},
{ "type":"Feature","properties":{"osm_way_id":"421556550","name":"Millgate Car Park","amenity":"parking","other":{"capacity:disabled":"yes","fee":"yes","parking":"surface","surface":"asphalt"}}, "geometry":{"type":"MultiPolygon","coordinates":[[[[-1.34315,54.23434],[-1.34291,54.23415],[-1.34286,54.2341],[-1.34272,54.23415],[-1.3425,54.23412],[-1.34245,54.23408],[-1.34224,54.23417],[-1.34223,54.23432],[-1.3423,54.23437],[-1.34229,54.23451],[-1.34244,54.23465],[-1.34258,54.23467],[-1.34298,54.23451],[-1.34293,54.23444],[-1.34315,54.23434]]]]}},
{ "type":"Feature","properties":{"osm_way_id":"427387235","amenity":"parking"},"geometry":{"type":"MultiPolygon","coordinates":[[[[-1.11882,54.42262],[-1.11871,54.42215],[-1.11866,54.42216],[-1.11876,54.42262],[-1.11882,54.42262]]]]}},
{ "type":"Feature","properties":{"osm_way_id":"427387236","amenity":"parking"},"geometry":{"type":"MultiPolygon","coordinates":[[[[-1.11907,54.42339],[-1.11889,54.42324],[-1.11876,54.42308],[-1.11869,54.42289],[-1.11864,54.42271],[-1.11862,54.42255],[-1.11859,54.42269],[-1.11859,54.42277],[-1.11859,54.42284],[-1.11863,54.42295],[-1.11867,54.42305],[-1.11874,54.42315],[-1.11874,54.42316],[-1.11881,54.42323],[-1.11895,54.42333],[-1.11907,54.42339]]]]}},
{ "type":"Feature","properties":{"osm_way_id":"430537064","amenity":"parking","other":{"access":"private"}}, "geometry":{"type":"MultiPolygon","coordinates":[[[[-1.59921,54.26493],[-1.59888,54.26498],[-1.59882,54.26485],[-1.59876,54.26472],[-1.59909,54.26467],[-1.59921,54.26493]]]]}},
{ "type":"Feature","properties":{"osm_way_id":"434717815","amenity":"parking"},"geometry":{"type":"MultiPolygon","coordinates":[[[[-1.1411,54.127],[-1.14096,54.12708],[-1.1414,54.1273],[-1.14153,54.12722],[-1.14159,54.12724],[-1.14166,54.12718],[-1.14168,54.12715],[-1.14169,54.12714],[-1.14155,54.12708],[-1.14124,54.12708],[-1.1411,54.127]]]]}},
{ "type":"Feature","properties":{"osm_way_id":"437427266","amenity":"parking","other":{"access":"yes","fee":"yes","operator":"APCOA","park_ride":"yes","parking":"surface"}}, "geometry":{"type":"MultiPolygon","coordinates":[[[[-1.44245,54.33405],[-1.44205,54.3334],[-1.44231,54.33336],[-1.44262,54.33395],[-1.44252,54.33397],[-1.44255,54.33402],[-1.44245,54.33405]]]]}},
{ "type":"Feature","properties":{"osm_way_id":"437562069","amenity":"parking"},"geometry":{"type":"MultiPolygon","coordinates":[[[[-1.42239,54.33713],[-1.42192,54.33705],[-1.42194,54.33697],[-1.42203,54.33693],[-1.42211,54.33701],[-1.42231,54.33695],[-1.42235,54.33698],[-1.42248,54.33694],[-1.4226,54.33707],[-1.42239,54.33713]]]]}},
{ "type":"Feature","properties":{"osm_way_id":"437949635","amenity":"parking"},"geometry":{"type":"MultiPolygon","coordinates":[[[[-1.39576,54.22274],[-1.39556,54.22279],[-1.39552,54.22286],[-1.39541,54.22288],[-1.39518,54.22253],[-1.39558,54.22243],[-1.39576,54.22274]]]]}},
{ "type":"Feature","properties":{"osm_way_id":"446910686","amenity":"parking"},"geometry":{"type":"MultiPolygon","coordinates":[[[[-1.59448,54.29033],[-1.59442,54.29034],[-1.59396,54.29043],[-1.59392,54.29048],[-1.59405,54.29059],[-1.59412,54.29057],[-1.59455,54.29047],[-1.59448,54.29033]]]]}},
{ "type":"Feature","properties":{"osm_way_id":"450217961","name":"The Willow Beck Car Park","amenity":"parking"},"geometry":{"type":"MultiPolygon","coordinates":[[[[-1.44111,54.34553],[-1.44125,54.34553],[-1.4418,54.34554],[-1.44179,54.34582],[-1.44111,54.34582],[-1.44111,54.34574],[-1.44111,54.34553]]]]}},
{ "type":"Feature","properties":{"osm_way_id":"464332549","amenity":"parking","other":{"access":"customers","parking":"surface"}}, "geometry":{"type":"MultiPolygon","coordinates":[[[[-1.36696,52.14451],[-1.36733,52.14441],[-1.36717,52.14426],[-1.36712,52.14428],[-1.36704,52.14421],[-1.36688,52.14429],[-1.36693,52.14433],[-1.36684,52.14437],[-1.3668,52.14441],[-1.36696,52.14451]]]]}},
{ "type":"Feature","properties":{"osm_way_id":"472090928","amenity":"parking"},"geometry":{"type":"MultiPolygon","coordinates":[[[[-1.21285,54.21928],[-1.21292,54.21913],[-1.21263,54.21907],[-1.21268,54.21925],[-1.21285,54.21928]]]]}},
{ "type":"Feature","properties":{"osm_way_id":"474635530","amenity":"parking","other":{"capacity":"30"}}, "geometry":{"type":"MultiPolygon","coordinates":[[[[-1.43355,54.34182],[-1.43377,54.34179],[-1.43374,54.34174],[-1.43384,54.34173],[-1.43433,54.34163],[-1.43454,54.3416],[-1.43441,54.34148],[-1.43352,54.34163],[-1.4335,54.34164],[-1.43349,54.34171],[-1.43355,54.34182]]]]}},
{ "type":"Feature","properties":{"osm_way_id":"474810617","amenity":"parking","other":{"access":"customers"}}, "geometry":{"type":"MultiPolygon","coordinates":[[[[-1.21495,54.43213],[-1.21478,54.43191],[-1.21436,54.43203],[-1.21442,54.43209],[-1.21485,54.43215],[-1.21495,54.43213]]]]}},
{ "type":"Feature","properties":{"osm_way_id":"477930323","amenity":"parking","other":{"access":"permissive","capacity":"30","park_ride":"no","parking":"surface","supervised":"no","surface":"asphalt"}}, "geometry":{"type":"MultiPolygon","coordinates":[[[[-1.56959,54.35687],[-1.56935,54.35688],[-1.56932,54.35644],[-1.56955,54.35644],[-1.56959,54.35687]]]]}},
{ "type":"Feature","properties":{"osm_way_id":"477933794","amenity":"parking"},"geometry":{"type":"MultiPolygon","coordinates":[[[[-1.56256,54.33225],[-1.56241,54.33227],[-1.56249,54.33247],[-1.56265,54.33245],[-1.56256,54.33225]]]]}},
{ "type":"Feature","properties":{"osm_way_id":"477934356","amenity":"parking"},"geometry":{"type":"MultiPolygon","coordinates":[[[[-1.56227,54.33118],[-1.56178,54.33123],[-1.56172,54.33117],[-1.56164,54.33118],[-1.56162,54.33116],[-1.5617,54.33109],[-1.56227,54.33118]]]]}},
{ "type":"Feature","properties":{"osm_way_id":"478722103","amenity":"parking"},"geometry":{"type":"MultiPolygon","coordinates":[[[[-1.51568,54.29333],[-1.51536,54.29308],[-1.51543,54.29304],[-1.51576,54.29329],[-1.51568,54.29333]]]]}},
{ "type":"Feature","properties":{"osm_way_id":"478722112","amenity":"parking"},"geometry":{"type":"MultiPolygon","coordinates":[[[[-1.52488,54.30073],[-1.52464,54.30046],[-1.52512,54.30031],[-1.52531,54.30052],[-1.52519,54.30065],[-1.52488,54.30073]]]]}},
{ "type":"Feature","properties":{"osm_way_id":"478722115","amenity":"parking"},"geometry":{"type":"MultiPolygon","coordinates":[[[[-1.52277,54.29684],[-1.52307,54.29666],[-1.52302,54.29663],[-1.52304,54.29661],[-1.52305,54.29659],[-1.52305,54.29657],[-1.52305,54.29654],[-1.52303,54.29652],[-1.523,54.2965],[-1.52306,54.29646],[-1.52287,54.29635],[-1.5228,54.29639],[-1.52265,54.2963],[-1.52214,54.29662],[-1.52253,54.29679],[-1.52256,54.29677],[-1.52269,54.29684],[-1.52273,54.29682],[-1.52277,54.29684]]]]}},
{ "type":"Feature","properties":{"osm_way_id":"478722116","amenity":"parking"},"geometry":{"type":"MultiPolygon","coordinates":[[[[-1.53123,54.29532],[-1.53123,54.29538],[-1.53108,54.29547],[-1.53071,54.29526],[-1.53076,54.29523],[-1.5309,54.29522],[-1.53099,54.29516],[-1.53123,54.29532]]]]}},
{ "type":"Feature","properties":{"osm_way_id":"478722123","amenity":"parking"},"geometry":{"type":"MultiPolygon","coordinates":[[[[-1.52418,54.29296],[-1.52382,54.29296],[-1.52381,54.29291],[-1.52376,54.29291],[-1.52376,54.29282],[-1.52385,54.29282],[-1.52385,54.29277],[-1.52414,54.29277],[-1.52415,54.29282],[-1.52422,54.29282],[-1.52422,54.29291],[-1.52418,54.29291],[-1.52418,54.29296]]]]}},
{ "type":"Feature","properties":{"osm_way_id":"478722131","amenity":"parking"},"geometry":{"type":"MultiPolygon","coordinates":[[[[-1.52321,54.29296],[-1.52273,54.29278],[-1.52287,54.29263],[-1.52321,54.29278],[-1.52321,54.29296]]]]}},
{ "type":"Feature","properties":{"osm_way_id":"478722134","amenity":"parking"},"geometry":{"type":"MultiPolygon","coordinates":[[[[-1.5249,54.29467],[-1.52489,54.29415],[-1.52497,54.29415],[-1.52497,54.2941],[-1.52507,54.2941],[-1.52507,54.29424],[-1.52522,54.29424],[-1.52522,54.2941],[-1.52529,54.2941],[-1.52529,54.29405],[-1.5254,54.29405],[-1.5254,54.2941],[-1.52547,54.2941],[-1.52547,54.29415],[-1.5254,54.29415],[-1.5254,54.2942],[-1.52548,54.2942],[-1.52548,54.29466],[-1.52539,54.29466],[-1.5254,54.2947],[-1.52509,54.29471],[-1.52509,54.29466],[-1.5249,54.29467]]]]}},
{ "type":"Feature","properties":{"osm_way_id":"478722135","amenity":"parking"},"geometry":{"type":"MultiPolygon","coordinates":[[[[-1.5247,54.29464],[-1.52354,54.29464],[-1.52354,54.2941],[-1.52469,54.2941],[-1.5247,54.29464]]]]}},
{ "type":"Feature","properties":{"osm_way_id":"478722140","amenity":"parking"},"geometry":{"type":"MultiPolygon","coordinates":[[[[-1.52225,54.29522],[-1.52224,54.29476],[-1.52191,54.29477],[-1.52192,54.29517],[-1.52207,54.29517],[-1.52207,54.29522],[-1.52225,54.29522]]]]}},
{ "type":"Feature","properties":{"osm_way_id":"478722141","amenity":"parking"},"geometry":{"type":"MultiPolygon","coordinates":[[[[-1.52301,54.29461],[-1.52263,54.29461],[-1.52262,54.29418],[-1.52301,54.29418],[-1.52301,54.29461]]]]}},
{ "type":"Feature","properties":{"osm_way_id":"478722151","amenity":"parking"},"geometry":{"type":"MultiPolygon","coordinates":[[[[-1.52869,54.29335],[-1.52867,54.29285],[-1.52886,54.29285],[-1.52888,54.29335],[-1.52869,54.29335]]]]}},
{ "type":"Feature","properties":{"osm_way_id":"478722152","amenity":"parking"},"geometry":{"type":"MultiPolygon","coordinates":[[[[-1.52724,54.29321],[-1.52724,54.2931],[-1.52645,54.2931],[-1.52645,54.29321],[-1.52724,54.29321]]]]}},
{ "type":"Feature","properties":{"osm_way_id":"478722153","amenity":"parking"},"geometry":{"type":"MultiPolygon","coordinates":[[[[-1.52785,54.29286],[-1.52785,54.2928],[-1.52793,54.2928],[-1.52792,54.29247],[-1.52768,54.29247],[-1.52768,54.29286],[-1.52785,54.29286]]]]}},
{ "type":"Feature","properties":{"osm_way_id":"478722155","amenity":"parking"},"geometry":{"type":"MultiPolygon","coordinates":[[[[-1.52723,54.29246],[-1.52723,54.2924],[-1.52717,54.2924],[-1.52717,54.29233],[-1.52679,54.29233],[-1.52679,54.29241],[-1.52674,54.29241],[-1.52674,54.29247],[-1.52723,54.29246]]]]}},
{ "type":"Feature","properties":{"osm_way_id":"478722165","amenity":"parking"},"geometry":{"type":"MultiPolygon","coordinates":[[[[-1.53152,54.29585],[-1.53138,54.296],[-1.53125,54.29607],[-1.53113,54.296],[-1.53117,54.29598],[-1.53104,54.29591],[-1.53114,54.29584],[-1.53123,54.29574],[-1.53152,54.29585]]]]}},
{ "type":"Feature","properties":{"osm_way_id":"478722168","amenity":"parking"},"geometry":{"type":"MultiPolygon","coordinates":[[[[-1.52746,54.29377],[-1.52735,54.29384],[-1.52731,54.29382],[-1.52727,54.29385],[-1.52719,54.29381],[-1.52723,54.29379],[-1.52718,54.29376],[-1.52729,54.29368],[-1.52746,54.29377]]]]}},
{ "type":"Feature","properties":{"osm_way_id":"478722170","amenity":"parking"},"geometry":{"type":"MultiPolygon","coordinates":[[[[-1.53099,54.29442],[-1.53098,54.29373],[-1.53105,54.29377],[-1.53106,54.29443],[-1.53099,54.29442]]]]}},
{ "type":"Feature","properties":{"osm_way_id":"478722172","amenity":"parking"},"geometry":{"type":"MultiPolygon","coordinates":[[[[-1.53131,54.29349],[-1.53097,54.2935],[-1.53097,54.29347],[-1.53089,54.29347],[-1.53086,54.29319],[-1.53095,54.29319],[-1.53104,54.29313],[-1.53129,54.29312],[-1.53131,54.29349]]]]}},
{ "type":"Feature","properties":{"osm_way_id":"478722173","amenity":"parking"},"geometry":{"type":"MultiPolygon","coordinates":[[[[-1.52521,54.29169],[-1.52495,54.29169],[-1.52495,54.29117],[-1.52521,54.29117],[-1.52521,54.29169]]]]}},
{ "type":"Feature","properties":{"osm_way_id":"478722174","amenity":"parking"},"geometry":{"type":"MultiPolygon","coordinates":[[[[-1.52455,54.29268],[-1.52345,54.29268],[-1.52345,54.29254],[-1.52356,54.29254],[-1.52355,54.29244],[-1.52364,54.29244],[-1.52364,54.2924],[-1.52439,54.29239],[-1.52439,54.29244],[-1.52447,54.29244],[-1.52448,54.29254],[-1.52455,54.29254],[-1.52455,54.29268]]]]}},
{ "type":"Feature","properties":{"osm_way_id":"478722182","amenity":"parking"},"geometry":{"type":"MultiPolygon","coordinates":[[[[-1.52694,54.29082],[-1.52647,54.29052],[-1.52666,54.29042],[-1.52713,54.29072],[-1.52694,54.29082]]]]}},
{ "type":"Feature","properties":{"osm_way_id":"478722188","amenity":"parking"},"geometry":{"type":"MultiPolygon","coordinates":[[[[-1.52555,54.29009],[-1.52523,54.28987],[-1.52471,54.29013],[-1.52503,54.29035],[-1.52555,54.29009]]]]}},
{ "type":"Feature","properties":{"osm_way_id":"478722192","amenity":"parking"},"geometry":{"type":"MultiPolygon","coordinates":[[[[-1.52667,54.2889],[-1.5257,54.28939],[-1.52556,54.2893],[-1.5257,54.28923],[-1.52553,54.28911],[-1.52636,54.28869],[-1.52667,54.2889]]]]}},
{ "type":"Feature","properties":{"osm_way_id":"478734847","amenity":"parking"},"geometry":{"type":"MultiPolygon","coordinates":[[[[-1.52325,54.29245],[-1.52325,54.292],[-1.52348,54.292],[-1.52348,54.29208],[-1.52364,54.29208],[-1.52364,54.29223],[-1.52345,54.29223],[-1.52345,54.29233],[-1.52332,54.29233],[-1.52332,54.29245],[-1.52325,54.29245]]]]}},
{ "type":"Feature","properties":{"osm_way_id":"478734850","amenity":"parking"},"geometry":{"type":"MultiPolygon","coordinates":[[[[-1.51638,54.28578],[-1.51628,54.28581],[-1.51592,54.28541],[-1.51602,54.28538],[-1.51638,54.28578]]]]}},
{ "type":"Feature","properties":{"osm_way_id":"478734851","amenity":"parking"},"geometry":{"type":"MultiPolygon","coordinates":[[[[-1.52202,54.29322],[-1.52148,54.29323],[-1.52136,54.29313],[-1.52192,54.29295],[-1.52205,54.2931],[-1.52202,54.29322]]]]}},
{ "type":"Feature","properties":{"osm_way_id":"478734864","amenity":"parking"},"geometry":{"type":"MultiPolygon","coordinates":[[[[-1.53613,54.3038],[-1.53561,54.30392],[-1.53557,54.30388],[-1.53554,54.30387],[-1.53541,54.3039],[-1.53515,54.30384],[-1.53509,54.30376],[-1.53529,54.3037],[-1.53537,54.30379],[-1.53557,54.30374],[-1.53569,54.30374],[-1.53603,54.30366],[-1.53613,54.3038]]]]}},
{ "type":"Feature","properties":{"osm_way_id":"478734896","amenity":"parking"},"geometry":{"type":"MultiPolygon","coordinates":[[[[-1.52884,54.30355],[-1.52829,54.30342],[-1.52839,54.30328],[-1.52894,54.30342],[-1.52884,54.30355]]]]}},
{ "type":"Feature","properties":{"osm_way_id":"478734913","amenity":"parking"},"geometry":{"type":"MultiPolygon","coordinates":[[[[-1.54071,54.29313],[-1.54056,54.29311],[-1.54049,54.29314],[-1.5401,54.29323],[-1.53992,54.29301],[-1.54007,54.29296],[-1.5405,54.29309],[-1.54057,54.29306],[-1.54073,54.29309],[-1.54071,54.29313]]]]}},
{ "type":"Feature","properties":{"osm_way_id":"478734914","amenity":"parking"},"geometry":{"type":"MultiPolygon","coordinates":[[[[-1.542,54.29307],[-1.54089,54.29313],[-1.54088,54.29307],[-1.54199,54.29301],[-1.542,54.29307]]]]}},
{ "type":"Feature","properties":{"osm_way_id":"485228986","amenity":"parking","other":{"access":"customers"}}, "geometry":{"type":"MultiPolygon","coordinates":[[[[-1.2222,54.034],[-1.22216,54.03392],[-1.22213,54.03386],[-1.22203,54.03387],[-1.22201,54.03381],[-1.22189,54.03381],[-1.22172,54.03382],[-1.2217,54.03386],[-1.22167,54.03388],[-1.22175,54.03401],[-1.22191,54.03399],[-1.22192,54.03404],[-1.2222,54.034]]]]}},
{ "type":"Feature","properties":{"osm_way_id":"485229429","amenity":"parking","other":{"access":"customers","fee":"no","parking":"surface"}}, "geometry":{"type":"MultiPolygon","coordinates":[[[[-1.21936,54.03319],[-1.21934,54.03303],[-1.21948,54.03303],[-1.21948,54.03306],[-1.22,54.03304],[-1.22,54.03314],[-1.21956,54.03317],[-1.21936,54.03319]]]]}},
{ "type":"Feature","properties":{"osm_way_id":"485239444","amenity":"parking"},"geometry":{"type":"MultiPolygon","coordinates":[[[[-1.43991,54.33712],[-1.43981,54.337],[-1.43953,54.33708],[-1.43963,54.3372],[-1.43991,54.33712]]]]}},
{ "type":"Feature","properties":{"osm_way_id":"485239633","amenity":"parking"},"geometry":{"type":"MultiPolygon","coordinates":[[[[-1.43928,54.33536],[-1.43913,54.33536],[-1.43921,54.33512],[-1.43933,54.33513],[-1.43942,54.33514],[-1.4394,54.33522],[-1.43932,54.33521],[-1.43928,54.33536]]]]}},
{ "type":"Feature","properties":{"osm_way_id":"485393225","amenity":"parking"},"geometry":{"type":"MultiPolygon","coordinates":[[[[-1.43775,54.33595],[-1.43758,54.33597],[-1.43757,54.33592],[-1.43774,54.33591],[-1.43775,54.33595]]]]}},
{ "type":"Feature","properties":{"osm_way_id":"486226950","amenity":"parking"},"geometry":{"type":"MultiPolygon","coordinates":[[[[-1.39317,54.20749],[-1.39241,54.20699],[-1.3925,54.20686],[-1.39256,54.20686],[-1.3932,54.20729],[-1.39317,54.20749]]]]}},
{ "type":"Feature","properties":{"osm_way_id":"486232400","amenity":"parking"},"geometry":{"type":"MultiPolygon","coordinates":[[[[-1.39854,54.20393],[-1.39823,54.20392],[-1.39823,54.20387],[-1.3985,54.20388],[-1.39855,54.20388],[-1.39854,54.20393]]]]}},
{ "type":"Feature","properties":{"osm_way_id":"486232406","amenity":"parking"},"geometry":{"type":"MultiPolygon","coordinates":[[[[-1.3979,54.20391],[-1.3979,54.20386],[-1.39762,54.20386],[-1.39761,54.2039],[-1.3979,54.20391]]]]}},
{ "type":"Feature","properties":{"osm_way_id":"486233054","amenity":"parking"},"geometry":{"type":"MultiPolygon","coordinates":[[[[-1.39444,54.2044],[-1.3939,54.20405],[-1.39387,54.20407],[-1.39441,54.20442],[-1.39444,54.2044]]]]}},
{ "type":"Feature","properties":{"osm_way_id":"486233551","amenity":"parking"},"geometry":{"type":"MultiPolygon","coordinates":[[[[-1.39295,54.20499],[-1.39239,54.20463],[-1.39257,54.20453],[-1.39248,54.20447],[-1.3923,54.20457],[-1.39218,54.20449],[-1.39241,54.20437],[-1.39337,54.20501],[-1.39315,54.20512],[-1.39304,54.20505],[-1.39322,54.20496],[-1.39313,54.2049],[-1.39295,54.20499]]]]}},
{ "type":"Feature","properties":{"osm_way_id":"486668288","amenity":"parking"},"geometry":{"type":"MultiPolygon","coordinates":[[[[-1.39478,54.20355],[-1.39474,54.20347],[-1.39525,54.20352],[-1.39524,54.20358],[-1.39518,54.2036],[-1.39514,54.20362],[-1.39507,54.20358],[-1.39478,54.20355]]]]}},
{ "type":"Feature","properties":{"osm_way_id":"486668469","amenity":"parking"},"geometry":{"type":"MultiPolygon","coordinates":[[[[-1.39808,54.20478],[-1.3979,54.20466],[-1.39772,54.20475],[-1.39783,54.20482],[-1.3979,54.20487],[-1.39808,54.20478]]]]}},
{ "type":"Feature","properties":{"osm_way_id":"486668888","amenity":"parking"},"geometry":{"type":"MultiPolygon","coordinates":[[[[-1.39568,54.2032],[-1.3955,54.20331],[-1.39522,54.20315],[-1.39541,54.20304],[-1.39568,54.2032]]]]}},
{ "type":"Feature","properties":{"osm_way_id":"486787258","amenity":"parking","other":{"fee":"£1","parking":"surface"}}, "geometry":{"type":"MultiPolygon","coordinates":[[[[-1.20083,54.02069],[-1.20112,54.02074],[-1.20108,54.02068],[-1.20132,54.0207],[-1.20134,54.0207],[-1.20138,54.0207],[-1.20126,54.0208],[-1.20114,54.02092],[-1.20109,54.02095],[-1.20107,54.02093],[-1.20104,54.0209],[-1.20083,54.02069]]]]}},
{ "type":"Feature","properties":{"osm_way_id":"487216651","amenity":"parking"},"geometry":{"type":"MultiPolygon","coordinates":[[[[-1.39899,54.20469],[-1.39919,54.20458],[-1.39923,54.20456],[-1.39954,54.20475],[-1.3993,54.20488],[-1.39904,54.20472],[-1.39899,54.20469]]]]}},
{ "type":"Feature","properties":{"osm_way_id":"487219037","amenity":"parking"},"geometry":{"type":"MultiPolygon","coordinates":[[[[-1.39625,54.2065],[-1.39614,54.2065],[-1.39616,54.20621],[-1.39626,54.20621],[-1.39625,54.2065]]]]}},
{ "type":"Feature","properties":{"osm_way_id":"487219042","amenity":"parking"},"geometry":{"type":"MultiPolygon","coordinates":[[[[-1.39825,54.2068],[-1.3983,54.2061],[-1.39843,54.2061],[-1.39841,54.20638],[-1.39837,54.2068],[-1.39832,54.2068],[-1.39825,54.2068]]]]}},
{ "type":"Feature","properties":{"osm_way_id":"487219044","amenity":"parking"},"geometry":{"type":"MultiPolygon","coordinates":[[[[-1.39829,54.20791],[-1.39837,54.20791],[-1.39847,54.2079],[-1.39855,54.2079],[-1.39867,54.20786],[-1.39882,54.20777],[-1.39907,54.20764],[-1.39916,54.20757],[-1.39918,54.20755],[-1.39857,54.20753],[-1.39851,54.20753],[-1.39847,54.20754],[-1.39842,54.20756],[-1.3984,54.20759],[-1.39836,54.20786],[-1.39834,54.20789],[-1.39829,54.20791]]]]}},
{ "type":"Feature","properties":{"osm_way_id":"487219047","amenity":"parking"},"geometry":{"type":"MultiPolygon","coordinates":[[[[-1.39854,54.20698],[-1.39856,54.20682],[-1.39858,54.20665],[-1.39911,54.20667],[-1.39909,54.20685],[-1.39907,54.207],[-1.39854,54.20698]]]]}},
{ "type":"Feature","properties":{"osm_way_id":"487219049","amenity":"parking"},"geometry":{"type":"MultiPolygon","coordinates":[[[[-1.39729,54.20607],[-1.39723,54.20676],[-1.39727,54.20677],[-1.39734,54.20677],[-1.3974,54.20607],[-1.39729,54.20607]]]]}},
{ "type":"Feature","properties":{"osm_way_id":"487504058","amenity":"parking"},"geometry":{"type":"MultiPolygon","coordinates":[[[[-1.39433,54.20682],[-1.39433,54.20673],[-1.39433,54.20668],[-1.39419,54.20667],[-1.39419,54.20681],[-1.39433,54.20682]]]]}},
{ "type":"Feature","properties":{"osm_way_id":"487506800","amenity":"parking"},"geometry":{"type":"MultiPolygon","coordinates":[[[[-1.39629,54.20583],[-1.39619,54.20583],[-1.39612,54.20583],[-1.39614,54.20557],[-1.39622,54.20557],[-1.39631,54.20558],[-1.39629,54.20583]]]]}},
{ "type":"Feature","properties":{"osm_way_id":"487508826","amenity":"parking"},"geometry":{"type":"MultiPolygon","coordinates":[[[[-1.39928,54.20727],[-1.3993,54.20711],[-1.39931,54.20704],[-1.39971,54.20705],[-1.39969,54.20729],[-1.39928,54.20727]]]]}},
{ "type":"Feature","properties":{"osm_way_id":"487526975","amenity":"parking","other":{"access":"customers"}}, "geometry":{"type":"MultiPolygon","coordinates":[[[[-1.21747,54.07214],[-1.21744,54.07208],[-1.21753,54.072],[-1.21754,54.07195],[-1.21749,54.07193],[-1.21746,54.07195],[-1.21738,54.07191],[-1.21725,54.07197],[-1.21727,54.07201],[-1.21727,54.07207],[-1.21738,54.07212],[-1.21738,54.07219],[-1.21747,54.07214]]]]}},
{ "type":"Feature","properties":{"osm_way_id":"494268250","amenity":"parking","other":{"description":"Patch of gravel at side of road","disused:parking":"layby","parking":"street_side","surface":"gravel"}}, "geometry":{"type":"MultiPolygon","coordinates":[[[[-1.25936,54.08003],[-1.25937,54.07995],[-1.25958,54.07996],[-1.25979,54.07995],[-1.25983,54.08006],[-1.25977,54.08008],[-1.25977,54.08012],[-1.25936,54.08003]]]]}},
{ "type":"Feature","properties":{"osm_way_id":"499383683","amenity":"parking"},"geometry":{"type":"MultiPolygon","coordinates":[[[[-1.28264,54.33669],[-1.28254,54.33686],[-1.28246,54.33697],[-1.28234,54.33717],[-1.28271,54.33723],[-1.2829,54.337],[-1.28306,54.3368],[-1.28297,54.33654],[-1.28285,54.3364],[-1.28277,54.33651],[-1.28264,54.33669]]]]}},
{ "type":"Feature","properties":{"osm_way_id":"503378626","amenity":"parking","other":{"access":"private"}}, "geometry":{"type":"MultiPolygon","coordinates":[[[[-1.43883,54.28426],[-1.43894,54.28405],[-1.43897,54.284],[-1.43894,54.28394],[-1.43867,54.2838],[-1.4385,54.28376],[-1.43844,54.28384],[-1.43808,54.28392],[-1.4385,54.28404],[-1.43854,54.28407],[-1.43845,54.28409],[-1.4387,54.2843],[-1.43883,54.28426]]]]}},
{ "type":"Feature","properties":{"osm_way_id":"503378631","amenity":"parking","other":{"access":"private"}}, "geometry":{"type":"MultiPolygon","coordinates":[[[[-1.44001,54.28182],[-1.44042,54.28167],[-1.44125,54.28238],[-1.44118,54.28242],[-1.44122,54.28245],[-1.44032,54.28272],[-1.44022,54.2827],[-1.44009,54.28272],[-1.44004,54.28263],[-1.4402,54.2826],[-1.4402,54.28256],[-1.44051,54.2825],[-1.44092,54.28237],[-1.44082,54.28227],[-1.44058,54.28203],[-1.44057,54.28202],[-1.44056,54.28201],[-1.44045,54.28205],[-1.44033,54.28194],[-1.44019,54.28199],[-1.44001,54.28182]]]]}},
{ "type":"Feature","properties":{"osm_way_id":"503381815","amenity":"parking","other":{"access":"private"}}, "geometry":{"type":"MultiPolygon","coordinates":[[[[-1.44033,54.28375],[-1.4402,54.28359],[-1.44009,54.28361],[-1.44004,54.28355],[-1.43995,54.28357],[-1.43962,54.28365],[-1.43965,54.28369],[-1.4391,54.28383],[-1.4392,54.28391],[-1.43907,54.28394],[-1.4391,54.28402],[-1.43913,54.28409],[-1.44033,54.28375]]]]}},
{ "type":"Feature","properties":{"osm_way_id":"505246409","amenity":"parking"},"geometry":{"type":"MultiPolygon","coordinates":[[[[-1.43843,54.28412],[-1.43812,54.28404],[-1.43804,54.28406],[-1.43814,54.28418],[-1.43823,54.28417],[-1.43843,54.28412]]]]}},
{ "type":"Feature","properties":{"osm_way_id":"507947222","amenity":"parking","other":{"access":"no","parking":"surface","surface":"asphalt"}}, "geometry":{"type":"MultiPolygon","coordinates":[[[[-1.19014,54.11615],[-1.19015,54.11608],[-1.19017,54.11602],[-1.1901,54.11597],[-1.19002,54.11603],[-1.18997,54.116],[-1.18994,54.11602],[-1.18988,54.11599],[-1.18993,54.11595],[-1.18948,54.1158],[-1.18942,54.11587],[-1.18935,54.11594],[-1.18971,54.11604],[-1.18979,54.11609],[-1.19014,54.11615]]]]}},
{ "type":"Feature","properties":{"osm_way_id":"507947223","amenity":"parking","other":{"access":"no","parking":"lane","surface":"asphalt"}}, "geometry":{"type":"MultiPolygon","coordinates":[[[[-1.19201,54.11645],[-1.19213,54.11638],[-1.19178,54.11625],[-1.19165,54.11625],[-1.19159,54.11627],[-1.19162,54.11628],[-1.19179,54.11636],[-1.19196,54.11643],[-1.19201,54.11645]]]]}},
{ "type":"Feature","properties":{"osm_way_id":"507947225","amenity":"parking","other":{"access":"no","parking":"surface","surface":"asphalt"}}, "geometry":{"type":"MultiPolygon","coordinates":[[[[-1.19152,54.11624],[-1.19142,54.11631],[-1.19133,54.1164],[-1.19123,54.1165],[-1.19134,54.11652],[-1.19158,54.11655],[-1.19186,54.11659],[-1.19195,54.1166],[-1.19201,54.11645],[-1.19196,54.11643],[-1.19179,54.11636],[-1.19162,54.11628],[-1.19159,54.11627],[-1.19152,54.11624]]]]}},
{ "type":"Feature","properties":{"osm_way_id":"507947226","amenity":"parking","other":{"access":"no","surface":"unpaved"}}, "geometry":{"type":"MultiPolygon","coordinates":[[[[-1.19133,54.1164],[-1.19142,54.11631],[-1.19152,54.11624],[-1.19143,54.1162],[-1.19118,54.11611],[-1.19108,54.11608],[-1.19094,54.11607],[-1.19077,54.1161],[-1.1906,54.11614],[-1.19039,54.11618],[-1.19029,54.11621],[-1.19057,54.11635],[-1.19085,54.11634],[-1.19098,54.11634],[-1.19113,54.11636],[-1.19133,54.1164]]]]}},
{ "type":"Feature","properties":{"osm_way_id":"511770965","name":"White Bear Pub Car Park","amenity":"parking","other":{"access":"customers"}}, "geometry":{"type":"MultiPolygon","coordinates":[[[[-1.10763,54.10245],[-1.10744,54.10243],[-1.1074,54.10242],[-1.10736,54.10257],[-1.10737,54.10263],[-1.10757,54.10262],[-1.10763,54.10245]]]]}},
{ "type":"Feature","properties":{"osm_way_id":"514564675","amenity":"parking"},"geometry":{"type":"MultiPolygon","coordinates":[[[[-1.57393,54.21085],[-1.574,54.21082],[-1.57401,54.21076],[-1.57408,54.21069],[-1.57439,54.2104],[-1.57446,54.21032],[-1.57451,54.21033],[-1.57453,54.21042],[-1.57436,54.21061],[-1.5742,54.21078],[-1.57412,54.21085],[-1.57409,54.21096],[-1.57423,54.21098],[-1.57444,54.211],[-1.57452,54.21107],[-1.5745,54.21114],[-1.57442,54.21118],[-1.5743,54.21116],[-1.57435,54.21109],[-1.57437,54.21105],[-1.57431,54.21102],[-1.57417,54.21102],[-1.57408,54.211],[-1.57396,54.21097],[-1.57372,54.21089],[-1.57393,54.21085]]]]}},
{ "type":"Feature","properties":{"osm_way_id":"515518015","amenity":"parking"},"geometry":{"type":"MultiPolygon","coordinates":[[[[-1.35168,54.21915],[-1.35161,54.21913],[-1.35156,54.21918],[-1.3507,54.2189],[-1.35095,54.21862],[-1.35102,54.21858],[-1.35123,54.21866],[-1.35126,54.21862],[-1.35163,54.21874],[-1.3516,54.21878],[-1.35194,54.21888],[-1.35168,54.21915]]]]}},
{ "type":"Feature","properties":{"osm_way_id":"516958564","amenity":"parking","other":{"access":"private"}}, "geometry":{"type":"MultiPolygon","coordinates":[[[[-1.34843,54.22341],[-1.34797,54.22351],[-1.34815,54.22382],[-1.34845,54.22374],[-1.34847,54.22365],[-1.34837,54.22364],[-1.34843,54.22355],[-1.34851,54.22354],[-1.34843,54.22341]]]]}},
{ "type":"Feature","properties":{"osm_way_id":"516958565","amenity":"parking","other":{"access":"private"}}, "geometry":{"type":"MultiPolygon","coordinates":[[[[-1.34824,54.2239],[-1.34839,54.22393],[-1.34828,54.22411],[-1.34838,54.22413],[-1.3483,54.22426],[-1.34765,54.2244],[-1.34763,54.22437],[-1.34797,54.2243],[-1.34783,54.22407],[-1.34793,54.22405],[-1.34813,54.22408],[-1.34824,54.2239]]]]}},
{ "type":"Feature","properties":{"osm_way_id":"517345518","amenity":"parking","other":{"fee":"Honest box £0.50 requested","parking":"surface"}}, "geometry":{"type":"MultiPolygon","coordinates":[[[[-1.58843,54.20479],[-1.58869,54.20479],[-1.58882,54.20478],[-1.58883,54.20474],[-1.58883,54.20467],[-1.58879,54.20458],[-1.58872,54.20452],[-1.5887,54.2045],[-1.58866,54.20447],[-1.58847,54.20445],[-1.58849,54.20453],[-1.58834,54.20457],[-1.58843,54.20479]]]]}},
{ "type":"Feature","properties":{"osm_way_id":"518339592","amenity":"parking"},"geometry":{"type":"MultiPolygon","coordinates":[[[[-1.445,54.34664],[-1.44519,54.34664],[-1.44532,54.34661],[-1.44526,54.34649],[-1.44497,54.34655],[-1.445,54.34664]]]]}},
{ "type":"Feature","properties":{"osm_way_id":"518339595","amenity":"parking","other":{"access":"private"}}, "geometry":{"type":"MultiPolygon","coordinates":[[[[-1.44582,54.34632],[-1.44591,54.3463],[-1.44599,54.34628],[-1.44596,54.34622],[-1.44615,54.34617],[-1.4458,54.34577],[-1.44563,54.34581],[-1.44558,54.34577],[-1.44535,54.34587],[-1.44535,54.34594],[-1.44546,54.34606],[-1.44566,54.34617],[-1.44578,54.34631],[-1.44582,54.34632]]]]}},
{ "type":"Feature","properties":{"osm_way_id":"527864584","amenity":"parking"},"geometry":{"type":"MultiPolygon","coordinates":[[[[-1.43914,54.33597],[-1.43911,54.33604],[-1.43893,54.33601],[-1.43895,54.33595],[-1.43914,54.33597]]]]}},
{ "type":"Feature","properties":{"osm_way_id":"527864611","amenity":"parking"},"geometry":{"type":"MultiPolygon","coordinates":[[[[-1.43951,54.33545],[-1.43986,54.3355],[-1.43979,54.33564],[-1.43937,54.33559],[-1.43943,54.33545],[-1.43951,54.33545]]]]}},
{ "type":"Feature","properties":{"osm_way_id":"527867033","name":"Ingelby Pond Car Park","amenity":"parking","other":{"access":"private","park_ride":"no","parking":"surface","smoothness":"intermediate","surface":"unpaved"}}, "geometry":{"type":"MultiPolygon","coordinates":[[[[-1.1438,54.45421],[-1.14361,54.45398],[-1.14351,54.45401],[-1.14347,54.45413],[-1.14345,54.45419],[-1.1433,54.45421],[-1.14326,54.45426],[-1.14319,54.45429],[-1.14319,54.45439],[-1.14344,54.45435],[-1.14369,54.45424],[-1.1438,54.45421]]]]}},
{ "type":"Feature","properties":{"osm_way_id":"531976232","amenity":"parking","other":{"parking":"surface"}}, "geometry":{"type":"MultiPolygon","coordinates":[[[[-1.3731,54.22795],[-1.37288,54.22805],[-1.37275,54.22795],[-1.37283,54.22792],[-1.37297,54.22793],[-1.3731,54.22795]]]]}},
{ "type":"Feature","properties":{"osm_way_id":"537409896","amenity":"parking"},"geometry":{"type":"MultiPolygon","coordinates":[[[[-1.18611,54.47531],[-1.18592,54.47511],[-1.18602,54.47508],[-1.18606,54.47506],[-1.18611,54.47514],[-1.18614,54.47517],[-1.18633,54.47512],[-1.18641,54.47521],[-1.18633,54.47523],[-1.18635,54.47527],[-1.18611,54.47531]]]]}},
{ "type":"Feature","properties":{"osm_way_id":"542152376","amenity":"parking"},"geometry":{"type":"MultiPolygon","coordinates":[[[[-1.13316,54.48998],[-1.13319,54.49002],[-1.13274,54.49013],[-1.13261,54.48999],[-1.13299,54.48991],[-1.13309,54.48988],[-1.13313,54.48993],[-1.13327,54.48989],[-1.13329,54.48991],[-1.13331,54.48993],[-1.13316,54.48998]]]]}},
{ "type":"Feature","properties":{"osm_way_id":"550178738","landuse":"grass"},"geometry":{"type":"MultiPolygon","coordinates":[[[[-1.14091,54.38674],[-1.14117,54.38665],[-1.14134,54.38655],[-1.14142,54.38647],[-1.14146,54.38642],[-1.14142,54.38635],[-1.14128,54.38629],[-1.14113,54.38627],[-1.14106,54.38634],[-1.14087,54.38654],[-1.14079,54.38666],[-1.14079,54.3867],[-1.14081,54.38673],[-1.14085,54.38673],[-1.14091,54.38674]]]]}},
{ "type":"Feature","properties":{"osm_way_id":"550810405","amenity":"parking"},"geometry":{"type":"MultiPolygon","coordinates":[[[[-1.13454,54.48856],[-1.13418,54.48842],[-1.13415,54.48846],[-1.13434,54.48853],[-1.1345,54.4886],[-1.13454,54.48856]]]]}},
{ "type":"Feature","properties":{"osm_way_id":"552150372","amenity":"parking"},"geometry":{"type":"MultiPolygon","coordinates":[[[[-1.43184,54.34308],[-1.43164,54.34312],[-1.43164,54.34308],[-1.43161,54.34285],[-1.43163,54.34281],[-1.43161,54.34266],[-1.43155,54.34255],[-1.43151,54.34213],[-1.43176,54.34213],[-1.43177,54.34254],[-1.43179,54.34278],[-1.43184,54.34308]]]]}},
{ "type":"Feature","properties":{"osm_way_id":"552150948","amenity":"parking"},"geometry":{"type":"MultiPolygon","coordinates":[[[[-1.43015,54.3413],[-1.43016,54.34144],[-1.42976,54.34146],[-1.42975,54.34131],[-1.42986,54.34132],[-1.42983,54.34115],[-1.43012,54.34116],[-1.43015,54.3413]]]]}},
{ "type":"Feature","properties":{"osm_way_id":"561279039","amenity":"parking","other":{"access":"customers"}}, "geometry":{"type":"MultiPolygon","coordinates":[[[[-1.32393,54.17924],[-1.3241,54.17904],[-1.3241,54.17904],[-1.32391,54.17894],[-1.3235,54.17902],[-1.3234,54.17908],[-1.32324,54.17925],[-1.32367,54.17939],[-1.32385,54.17921],[-1.32393,54.17924]]]]}},
{ "type":"Feature","properties":{"osm_way_id":"561547592","amenity":"parking","other":{"access":"private","capacity":"24 18\/4","parking":"surface"}}, "geometry":{"type":"MultiPolygon","coordinates":[[[[-1.42836,54.33984],[-1.42829,54.33974],[-1.42896,54.3396],[-1.42901,54.33974],[-1.4289,54.33974],[-1.42884,54.33976],[-1.42836,54.33984]]]]}},
{ "type":"Feature","properties":{"osm_way_id":"575640448","amenity":"parking","other":{"access":"customers","fee":"no","park_ride":"no","parking":"surface","smoothness":"intermediate","supervised":"no","surface":"asphalt"}}, "geometry":{"type":"MultiPolygon","coordinates":[[[[-1.21796,54.51065],[-1.21805,54.5104],[-1.21796,54.51041],[-1.21711,54.51032],[-1.21711,54.51034],[-1.21706,54.51039],[-1.21694,54.51038],[-1.21679,54.51032],[-1.21677,54.51028],[-1.21688,54.5099],[-1.21684,54.50987],[-1.21657,54.50983],[-1.21584,54.50982],[-1.21568,54.51052],[-1.21655,54.51061],[-1.21796,54.51065]]]]}},
{ "type":"Feature","properties":{"osm_way_id":"594364883","amenity":"parking","other":{"access":"customers","capacity":"20"}}, "geometry":{"type":"MultiPolygon","coordinates":[[[[-1.15872,54.02122],[-1.15874,54.02103],[-1.15873,54.02102],[-1.15843,54.021],[-1.15842,54.02107],[-1.15833,54.02106],[-1.15832,54.02111],[-1.15826,54.02111],[-1.15825,54.02114],[-1.15835,54.02114],[-1.15835,54.02119],[-1.15872,54.02122]]]]}},
{ "type":"Feature","properties":{"osm_way_id":"595093146","amenity":"parking"},"geometry":{"type":"MultiPolygon","coordinates":[[[[-1.28368,54.0624],[-1.28345,54.06227],[-1.28342,54.0622],[-1.28334,54.06214],[-1.28331,54.06214],[-1.28329,54.06214],[-1.28326,54.06212],[-1.2832,54.06207],[-1.28343,54.06193],[-1.28351,54.06198],[-1.28366,54.06208],[-1.2837,54.06214],[-1.28384,54.06222],[-1.28385,54.06225],[-1.2839,54.06228],[-1.28368,54.0624]]]]}},
{ "type":"Feature","properties":{"osm_way_id":"595093149","amenity":"parking"},"geometry":{"type":"MultiPolygon","coordinates":[[[[-1.28443,54.06176],[-1.28414,54.0616],[-1.28411,54.06162],[-1.28398,54.06154],[-1.28359,54.06178],[-1.28378,54.06189],[-1.28368,54.06195],[-1.2839,54.06208],[-1.28443,54.06176]]]]}},
{ "type":"Feature","properties":{"osm_way_id":"601224740","amenity":"parking"},"geometry":{"type":"MultiPolygon","coordinates":[[[[-1.12601,54.34417],[-1.12552,54.34425],[-1.12551,54.34423],[-1.126,54.34415],[-1.12601,54.34417]]]]}},
{ "type":"Feature","properties":{"osm_way_id":"616641152","amenity":"parking","other":{"access":"private"}}, "geometry":{"type":"MultiPolygon","coordinates":[[[[-1.43249,54.34044],[-1.433,54.34036],[-1.43297,54.3403],[-1.43292,54.3403],[-1.43246,54.34037],[-1.43249,54.34044]]]]}},
{ "type":"Feature","properties":{"osm_way_id":"620158666","amenity":"parking","other":{"access":"customers","operator":"Sutton Arms"}}, "geometry":{"type":"MultiPolygon","coordinates":[[[[-1.23671,54.42173],[-1.23662,54.42167],[-1.23652,54.42171],[-1.23643,54.42171],[-1.23639,54.42168],[-1.23629,54.42171],[-1.23632,54.42176],[-1.23626,54.42178],[-1.23635,54.42187],[-1.23671,54.42173]]]]}},
{ "type":"Feature","properties":{"osm_way_id":"642817441","amenity":"parking","other":{"access":"customers","opening_hours":"The Black Horse"}}, "geometry":{"type":"MultiPolygon","coordinates":[[[[-1.2666,54.41271],[-1.26644,54.41247],[-1.26583,54.41261],[-1.26598,54.41285],[-1.2666,54.41271]]]]}},
{ "type":"Feature","properties":{"osm_way_id":"653397199","amenity":"parking"},"geometry":{"type":"MultiPolygon","coordinates":[[[[-1.59119,54.28871],[-1.59113,54.28865],[-1.59104,54.28856],[-1.59095,54.28859],[-1.59092,54.28855],[-1.59068,54.28868],[-1.59074,54.28872],[-1.59061,54.28883],[-1.59052,54.28889],[-1.59049,54.28892],[-1.59119,54.28871]]]]}},
{ "type":"Feature","properties":{"osm_way_id":"656702544","amenity":"parking"},"geometry":{"type":"MultiPolygon","coordinates":[[[[-1.35,54.22029],[-1.35008,54.22017],[-1.35029,54.22022],[-1.3504,54.2201],[-1.35034,54.22011],[-1.35031,54.22],[-1.34992,54.22006],[-1.34976,54.22022],[-1.34988,54.22026],[-1.35,54.22029]]]]}},
{ "type":"Feature","properties":{"osm_way_id":"673084049","amenity":"parking"},"geometry":{"type":"MultiPolygon","coordinates":[[[[-1.41176,54.36861],[-1.4117,54.36853],[-1.41219,54.36845],[-1.41225,54.36852],[-1.41176,54.36861]]]]}},
{ "type":"Feature","properties":{"osm_way_id":"678261007","amenity":"parking"},"geometry":{"type":"MultiPolygon","coordinates":[[[[-1.27202,54.42719],[-1.27156,54.42731],[-1.27145,54.42716],[-1.2714,54.42708],[-1.27166,54.42702],[-1.2717,54.42707],[-1.2719,54.42703],[-1.27202,54.42719]]]]}},
{ "type":"Feature","properties":{"osm_way_id":"682099958","amenity":"parking","other":{"access":"customers"}}, "geometry":{"type":"MultiPolygon","coordinates":[[[[-1.24618,54.13087],[-1.246,54.13093],[-1.24605,54.13097],[-1.24613,54.13104],[-1.24617,54.13107],[-1.2466,54.13095],[-1.24662,54.13095],[-1.24659,54.13092],[-1.24654,54.13089],[-1.24645,54.13089],[-1.24623,54.13062],[-1.246,54.13068],[-1.24618,54.13087]]]]}},
{ "type":"Feature","properties":{"osm_way_id":"682996953","amenity":"parking","other":{"access":"customers"}}, "geometry":{"type":"MultiPolygon","coordinates":[[[[-1.16985,54.11152],[-1.16997,54.11095],[-1.17003,54.11088],[-1.17011,54.11082],[-1.17033,54.1108],[-1.17053,54.11082],[-1.17057,54.11087],[-1.17062,54.11094],[-1.17058,54.11107],[-1.17052,54.11107],[-1.17042,54.11155],[-1.17036,54.11155],[-1.16985,54.11152]]]]}},
{ "type":"Feature","properties":{"osm_way_id":"683001144","amenity":"parking","other":{"access":"customers"}}, "geometry":{"type":"MultiPolygon","coordinates":[[[[-1.24793,54.13287],[-1.24784,54.13291],[-1.24782,54.13293],[-1.24795,54.133],[-1.24794,54.13302],[-1.24802,54.13307],[-1.24807,54.13305],[-1.24811,54.13303],[-1.24807,54.13301],[-1.24811,54.13298],[-1.24793,54.13287]]]]}},
{ "type":"Feature","properties":{"osm_way_id":"683932923","amenity":"parking"},"geometry":{"type":"MultiPolygon","coordinates":[[[[-1.59463,54.28742],[-1.59473,54.2874],[-1.59485,54.28735],[-1.59469,54.28713],[-1.59467,54.28713],[-1.59457,54.28716],[-1.59444,54.28718],[-1.59463,54.28742]]]]}},
{ "type":"Feature","properties":{"osm_way_id":"683932925","amenity":"parking"},"geometry":{"type":"MultiPolygon","coordinates":[[[[-1.59442,54.28708],[-1.59396,54.28712],[-1.594,54.28723],[-1.59417,54.2872],[-1.59442,54.28714],[-1.59442,54.28708]]]]}},
{ "type":"Feature","properties":{"osm_way_id":"684190784","amenity":"parking"},"geometry":{"type":"MultiPolygon","coordinates":[[[[-1.40328,54.19465],[-1.40323,54.19449],[-1.40343,54.19445],[-1.40348,54.19444],[-1.40352,54.19444],[-1.40359,54.19464],[-1.40339,54.19466],[-1.40328,54.19465]]]]}},
{ "type":"Feature","properties":{"osm_way_id":"685649105","amenity":"parking"},"geometry":{"type":"MultiPolygon","coordinates":[[[[-1.59303,54.28453],[-1.5928,54.28459],[-1.59278,54.28458],[-1.5926,54.28433],[-1.59268,54.28431],[-1.5927,54.28422],[-1.59267,54.28414],[-1.59248,54.28387],[-1.59243,54.28388],[-1.59234,54.28372],[-1.59258,54.28366],[-1.59262,54.28374],[-1.59258,54.28374],[-1.59259,54.28378],[-1.59267,54.28379],[-1.59286,54.28411],[-1.59287,54.28419],[-1.59286,54.28423],[-1.59293,54.28425],[-1.59306,54.28445],[-1.59303,54.28446],[-1.59303,54.28453]]]]}},
{ "type":"Feature","properties":{"osm_way_id":"685657228","amenity":"parking"},"geometry":{"type":"MultiPolygon","coordinates":[[[[-1.5901,54.28402],[-1.58991,54.28374],[-1.58997,54.28358],[-1.59019,54.28354],[-1.59037,54.28379],[-1.59062,54.28373],[-1.59072,54.28387],[-1.5901,54.28402]]]]}},
{ "type":"Feature","properties":{"osm_way_id":"685658861","amenity":"parking"},"geometry":{"type":"MultiPolygon","coordinates":[[[[-1.59177,54.28667],[-1.59143,54.28679],[-1.59139,54.28676],[-1.59131,54.28671],[-1.59153,54.28663],[-1.59158,54.28667],[-1.59165,54.28664],[-1.5917,54.28662],[-1.59177,54.28667]]]]}},
{ "type":"Feature","properties":{"osm_way_id":"685661955","amenity":"parking"},"geometry":{"type":"MultiPolygon","coordinates":[[[[-1.59009,54.2893],[-1.58994,54.28933],[-1.58988,54.28921],[-1.5899,54.2892],[-1.58992,54.28919],[-1.59013,54.28923],[-1.59012,54.28925],[-1.59009,54.2893]]]]}},
{ "type":"Feature","properties":{"osm_way_id":"689145550","amenity":"parking"},"geometry":{"type":"MultiPolygon","coordinates":[[[[-1.18881,54.11763],[-1.18895,54.11762],[-1.18891,54.11738],[-1.18873,54.11737],[-1.18874,54.11739],[-1.18874,54.11741],[-1.18881,54.11763]]]]}},
{ "type":"Feature","properties":{"osm_way_id":"692648792","amenity":"parking"},"geometry":{"type":"MultiPolygon","coordinates":[[[[-1.34997,54.46479],[-1.34996,54.46496],[-1.34995,54.465],[-1.34993,54.46502],[-1.34988,54.46505],[-1.3498,54.46508],[-1.34948,54.46509],[-1.34949,54.46499],[-1.34957,54.46499],[-1.34963,54.46499],[-1.34963,54.46495],[-1.34981,54.46495],[-1.34982,54.46492],[-1.34974,54.46492],[-1.34975,54.46482],[-1.34974,54.46482],[-1.34974,54.46477],[-1.34997,54.46479]]]]}},
{ "type":"Feature","properties":{"osm_way_id":"693873038","amenity":"parking"},"geometry":{"type":"MultiPolygon","coordinates":[[[[-1.354,54.21946],[-1.35327,54.21923],[-1.3533,54.21919],[-1.35366,54.21929],[-1.3539,54.219],[-1.35404,54.21902],[-1.35408,54.21898],[-1.35435,54.21907],[-1.35431,54.21911],[-1.35441,54.21914],[-1.35418,54.21944],[-1.35411,54.21942],[-1.3541,54.21944],[-1.35404,54.21942],[-1.354,54.21946]]]]}},
{ "type":"Feature","properties":{"osm_way_id":"699452028","amenity":"parking","other":{"access":"yes","parking":"surface"}}, "geometry":{"type":"MultiPolygon","coordinates":[[[[-1.36302,54.19516],[-1.3637,54.19537],[-1.36397,54.19496],[-1.36348,54.19468],[-1.36302,54.19516]]]]}},
{ "type":"Feature","properties":{"osm_way_id":"703091614","amenity":"parking"},"geometry":{"type":"MultiPolygon","coordinates":[[[[-1.44546,54.34537],[-1.44544,54.34527],[-1.44552,54.34526],[-1.4455,54.34519],[-1.44579,54.34517],[-1.44579,54.34518],[-1.4458,54.34523],[-1.44584,54.34538],[-1.44566,54.3454],[-1.44551,54.34541],[-1.4455,54.34536],[-1.44546,54.34537]]]]}},
{ "type":"Feature","properties":{"osm_way_id":"703096004","amenity":"parking"},"geometry":{"type":"MultiPolygon","coordinates":[[[[-1.44503,54.34534],[-1.44493,54.34535],[-1.4449,54.34527],[-1.44514,54.34525],[-1.44533,54.34524],[-1.44535,54.34532],[-1.44503,54.34534]]]]}},
{ "type":"Feature","properties":{"osm_way_id":"703315025","amenity":"parking"},"geometry":{"type":"MultiPolygon","coordinates":[[[[-1.58897,54.20439],[-1.58933,54.20431],[-1.58929,54.20425],[-1.58947,54.20421],[-1.58941,54.20414],[-1.5889,54.20423],[-1.58893,54.20428],[-1.58897,54.20439]]]]}},
{ "type":"Feature","properties":{"osm_way_id":"703321833","amenity":"parking"},"geometry":{"type":"MultiPolygon","coordinates":[[[[-1.58684,54.20532],[-1.58689,54.20553],[-1.58672,54.20555],[-1.58667,54.20539],[-1.5866,54.20539],[-1.58659,54.20535],[-1.58669,54.20534],[-1.58684,54.20532]]]]}},
{ "type":"Feature","properties":{"osm_way_id":"704843954","amenity":"parking","other":{"access":"permissive"}}, "geometry":{"type":"MultiPolygon","coordinates":[[[[-1.17551,54.08174],[-1.17532,54.08145],[-1.17577,54.08136],[-1.17583,54.08144],[-1.176,54.08163],[-1.1764,54.08195],[-1.17643,54.08198],[-1.17612,54.08205],[-1.17569,54.08171],[-1.17551,54.08174]]]]}},
{ "type":"Feature","properties":{"osm_way_id":"704843958","amenity":"parking"},"geometry":{"type":"MultiPolygon","coordinates":[[[[-1.17752,54.08152],[-1.17677,54.08166],[-1.17668,54.08151],[-1.17744,54.08137],[-1.17752,54.08152]]]]}},
{ "type":"Feature","properties":{"osm_way_id":"704846985","amenity":"parking"},"geometry":{"type":"MultiPolygon","coordinates":[[[[-1.17788,54.08137],[-1.17777,54.08139],[-1.17772,54.08128],[-1.17756,54.08131],[-1.17742,54.08103],[-1.17759,54.081],[-1.17734,54.08049],[-1.17744,54.08047],[-1.17788,54.08137]]]]}},
{ "type":"Feature","properties":{"osm_way_id":"736899485","amenity":"parking"},"geometry":{"type":"MultiPolygon","coordinates":[[[[-1.21178,54.26678],[-1.21163,54.26679],[-1.21172,54.26695],[-1.21185,54.26693],[-1.21178,54.26678]]]]}},
{ "type":"Feature","properties":{"osm_way_id":"737910293","amenity":"parking","other":{"access":"customers","operator":"Blacksmiths Arms","parking":"surface","surface":"asphalt"}}, "geometry":{"type":"MultiPolygon","coordinates":[[[[-1.26836,54.41403],[-1.26789,54.41416],[-1.2679,54.41379],[-1.26786,54.41371],[-1.26827,54.4136],[-1.26838,54.4138],[-1.26808,54.41386],[-1.26806,54.4139],[-1.26806,54.41394],[-1.26826,54.41388],[-1.26836,54.41403]]]]}},
{ "type":"Feature","properties":{"osm_way_id":"741971896","amenity":"parking"},"geometry":{"type":"MultiPolygon","coordinates":[[[[-1.11273,54.42457],[-1.1128,54.42455],[-1.11288,54.42451],[-1.11294,54.42445],[-1.11293,54.42439],[-1.11265,54.42458],[-1.11273,54.42457]]]]}},
{ "type":"Feature","properties":{"osm_way_id":"749793835","amenity":"parking"},"geometry":{"type":"MultiPolygon","coordinates":[[[[-1.15774,54.48273],[-1.15746,54.48247],[-1.15747,54.48244],[-1.15752,54.48243],[-1.15761,54.48239],[-1.15768,54.48237],[-1.1579,54.48258],[-1.15796,54.48255],[-1.158,54.48259],[-1.15794,54.48261],[-1.15795,54.48262],[-1.15786,54.48266],[-1.1579,54.48269],[-1.1579,54.4827],[-1.15776,54.48275],[-1.15774,54.48273]]]]}},
{ "type":"Feature","properties":{"osm_way_id":"757320776","amenity":"parking","other":{"parking":"surface"}}, "geometry":{"type":"MultiPolygon","coordinates":[[[[-1.43536,54.33586],[-1.43519,54.33571],[-1.43524,54.33568],[-1.43517,54.33563],[-1.43514,54.3356],[-1.43512,54.33559],[-1.43506,54.33558],[-1.43498,54.33558],[-1.43497,54.3355],[-1.43495,54.33536],[-1.43514,54.33538],[-1.4351,54.33541],[-1.43518,54.33546],[-1.43522,54.33543],[-1.43531,54.33547],[-1.43555,54.3358],[-1.43542,54.33584],[-1.43536,54.33586]]]]}},
{ "type":"Feature","properties":{"osm_way_id":"759012035","name":"Three Tuns Yard","amenity":"parking","other":{"access":"customers","parking":"surface"}}, "geometry":{"type":"MultiPolygon","coordinates":[[[[-1.34103,54.23235],[-1.34092,54.23221],[-1.34114,54.23217],[-1.34125,54.23232],[-1.34111,54.23236],[-1.34103,54.23235]]]]}},
{ "type":"Feature","properties":{"osm_way_id":"759430391","amenity":"parking","other":{"access":"customers"}}, "geometry":{"type":"MultiPolygon","coordinates":[[[[-1.10558,54.44934],[-1.10541,54.44944],[-1.10549,54.44948],[-1.10554,54.44946],[-1.10573,54.44956],[-1.10548,54.4497],[-1.10557,54.44974],[-1.10592,54.44954],[-1.10558,54.44934]]]]}},
{ "type":"Feature","properties":{"osm_way_id":"759430393","amenity":"parking","other":{"access":"customers"}}, "geometry":{"type":"MultiPolygon","coordinates":[[[[-1.10496,54.44957],[-1.10536,54.44968],[-1.10539,54.44966],[-1.1052,54.44957],[-1.10507,54.44949],[-1.10496,54.44957]]]]}},
{ "type":"Feature","properties":{"osm_way_id":"761939133","amenity":"parking","other":{"access":"customers","parking":"surface"}}, "geometry":{"type":"MultiPolygon","coordinates":[[[[-1.43044,54.33878],[-1.43046,54.33878],[-1.43063,54.33874],[-1.43116,54.33863],[-1.43114,54.33859],[-1.43125,54.33854],[-1.431,54.33818],[-1.43092,54.3382],[-1.43091,54.33818],[-1.43087,54.33812],[-1.43092,54.33811],[-1.43093,54.33814],[-1.43113,54.3381],[-1.4311,54.33806],[-1.43117,54.33803],[-1.43095,54.33783],[-1.43037,54.33782],[-1.43033,54.33782],[-1.43001,54.33782],[-1.42987,54.33793],[-1.42989,54.33797],[-1.42991,54.338],[-1.42993,54.33803],[-1.43002,54.33801],[-1.43005,54.33804],[-1.4302,54.33801],[-1.43018,54.33797],[-1.43032,54.33798],[-1.43048,54.33823],[-1.43071,54.33864],[-1.43038,54.33871],[-1.43044,54.33878]]]]}},
{ "type":"Feature","properties":{"osm_way_id":"763062373","amenity":"parking"},"geometry":{"type":"MultiPolygon","coordinates":[[[[-1.33999,54.23292],[-1.33965,54.23286],[-1.33944,54.23275],[-1.33942,54.23262],[-1.33953,54.23262],[-1.33964,54.23261],[-1.3397,54.23266],[-1.33975,54.2328],[-1.33992,54.23278],[-1.33997,54.23287],[-1.33999,54.23292]]]]}},
{ "type":"Feature","properties":{"osm_way_id":"775993135","amenity":"parking"},"geometry":{"type":"MultiPolygon","coordinates":[[[[-1.42841,54.36126],[-1.42838,54.36126],[-1.42815,54.36123],[-1.42817,54.36116],[-1.42843,54.3612],[-1.42841,54.36126]]]]}},
{ "type":"Feature","properties":{"osm_way_id":"775998811","amenity":"parking","other":{"parking":"surface"}}, "geometry":{"type":"MultiPolygon","coordinates":[[[[-1.4205,54.36281],[-1.42034,54.36265],[-1.42054,54.36256],[-1.42061,54.36255],[-1.42067,54.36275],[-1.4205,54.36281]]]]}},
{ "type":"Feature","properties":{"osm_way_id":"776294299","amenity":"parking","other":{"access":"customers","parking":"surface"}}, "geometry":{"type":"MultiPolygon","coordinates":[[[[-1.42384,54.36204],[-1.42388,54.36204],[-1.42401,54.36201],[-1.42408,54.36198],[-1.42406,54.36194],[-1.42402,54.36185],[-1.42397,54.36184],[-1.42388,54.36185],[-1.42387,54.36188],[-1.42377,54.36189],[-1.42384,54.36204]]]]}},
{ "type":"Feature","properties":{"osm_way_id":"778333057","amenity":"parking"},"geometry":{"type":"MultiPolygon","coordinates":[[[[-1.35036,54.21937],[-1.3502,54.21931],[-1.35003,54.21927],[-1.34985,54.21945],[-1.3502,54.21954],[-1.35036,54.21937]]]]}},
{ "type":"Feature","properties":{"osm_way_id":"793629624","amenity":"parking","other":{"access":"customers","parking":"surface"}}, "geometry":{"type":"MultiPolygon","coordinates":[[[[-1.3855,54.17816],[-1.38542,54.17805],[-1.38526,54.17808],[-1.38534,54.1782],[-1.3855,54.17816]]]]}},
{ "type":"Feature","properties":{"osm_way_id":"796337076","name":"Back Marina Car Park","amenity":"parking","other":{"capacity":"232","designation":"Long Stay Car & Coach","operator":"Scarborough Borough Council","parking":"surface"}}, "geometry":{"type":"MultiPolygon","coordinates":[[[[-0.61226,54.48265],[-0.6124,54.48217],[-0.61246,54.48205],[-0.61312,54.48169],[-0.61325,54.48143],[-0.61367,54.48121],[-0.61391,54.48113],[-0.61386,54.48133],[-0.61379,54.48192],[-0.61383,54.4824],[-0.61387,54.48287],[-0.61391,54.48319],[-0.61348,54.48321],[-0.61345,54.48289],[-0.6134,54.48283],[-0.61333,54.48278],[-0.61315,54.48273],[-0.61303,54.48269],[-0.61292,54.48263],[-0.61285,54.48256],[-0.61281,54.48249],[-0.61269,54.48247],[-0.61264,54.48251],[-0.61257,54.48254],[-0.61244,54.48261],[-0.61241,54.48266],[-0.61226,54.48265]]]]}},
{ "type":"Feature","properties":{"osm_way_id":"822396347","amenity":"parking","other":{"access":"private"}}, "geometry":{"type":"MultiPolygon","coordinates":[[[[-1.34328,54.29762],[-1.34332,54.29749],[-1.34359,54.29753],[-1.34355,54.29762],[-1.3433,54.29765],[-1.3433,54.29762],[-1.34328,54.29762]]]]}},
{ "type":"Feature","properties":{"osm_way_id":"822995801","amenity":"parking","other":{"fee":"no","parking":"surface","surface":"dirt"}}, "geometry":{"type":"MultiPolygon","coordinates":[[[[-1.21882,54.28251],[-1.2187,54.28252],[-1.21864,54.28232],[-1.21875,54.2823],[-1.21882,54.28251]]]]}},
{ "type":"Feature","properties":{"osm_way_id":"822995802","amenity":"parking"},"geometry":{"type":"MultiPolygon","coordinates":[[[[-1.23039,54.2776],[-1.23049,54.27759],[-1.2306,54.27744],[-1.23052,54.27742],[-1.23039,54.2776]]]]}},
{ "type":"Feature","properties":{"osm_way_id":"827863743","amenity":"parking"},"geometry":{"type":"MultiPolygon","coordinates":[[[[-1.42839,54.36012],[-1.42853,54.36015],[-1.42849,54.3602],[-1.42854,54.36021],[-1.42847,54.36034],[-1.42846,54.36034],[-1.42841,54.36034],[-1.42838,54.36039],[-1.42827,54.36037],[-1.42821,54.36044],[-1.42807,54.36043],[-1.42815,54.36031],[-1.42823,54.36032],[-1.42829,54.36024],[-1.42823,54.36022],[-1.42831,54.36011],[-1.42839,54.36012]]]]}},
{ "type":"Feature","properties":{"osm_way_id":"828468717","amenity":"parking","other":{"access":"customers","parking":"surface"}}, "geometry":{"type":"MultiPolygon","coordinates":[[[[-1.43782,54.35084],[-1.43751,54.35084],[-1.4375,54.35088],[-1.43742,54.35087],[-1.4374,54.35103],[-1.43744,54.35104],[-1.43748,54.35114],[-1.43786,54.35109],[-1.43785,54.35105],[-1.43793,54.35103],[-1.43789,54.35092],[-1.43782,54.35084]]]]}},
{ "type":"Feature","properties":{"osm_way_id":"828470613","amenity":"parking","other":{"access":"customers","parking":"surface"}}, "geometry":{"type":"MultiPolygon","coordinates":[[[[-1.43793,54.34959],[-1.43789,54.34952],[-1.43785,54.34946],[-1.43839,54.34935],[-1.43841,54.34935],[-1.43846,54.34944],[-1.43849,54.34947],[-1.43843,54.34948],[-1.43817,54.3495],[-1.4382,54.34954],[-1.43793,54.34959]]]]}},
{ "type":"Feature","properties":{"osm_way_id":"828470614","amenity":"parking","other":{"access":"customers","parking":"surface"}}, "geometry":{"type":"MultiPolygon","coordinates":[[[[-1.4386,54.34994],[-1.43845,54.34996],[-1.43833,54.34997],[-1.43829,54.34987],[-1.43837,54.34986],[-1.43841,54.34984],[-1.43847,54.34983],[-1.43855,54.34982],[-1.4386,54.34994]]]]}},
{ "type":"Feature","properties":{"osm_way_id":"828470616","amenity":"parking","other":{"access":"customers","parking":"surface"}}, "geometry":{"type":"MultiPolygon","coordinates":[[[[-1.43877,54.35058],[-1.43868,54.35058],[-1.43845,54.35061],[-1.43845,54.35059],[-1.43822,54.35062],[-1.43814,54.35061],[-1.43793,54.35064],[-1.43792,54.35062],[-1.43769,54.35064],[-1.43769,54.35062],[-1.4376,54.35063],[-1.43758,54.35058],[-1.43751,54.35059],[-1.43748,54.35052],[-1.43756,54.35051],[-1.43754,54.35047],[-1.4376,54.35046],[-1.43757,54.35038],[-1.43805,54.35031],[-1.43807,54.35036],[-1.43836,54.35032],[-1.43832,54.35025],[-1.43845,54.35023],[-1.43846,54.35026],[-1.43859,54.35024],[-1.4386,54.35026],[-1.43872,54.35024],[-1.43873,54.35029],[-1.43878,54.35041],[-1.43874,54.35042],[-1.43871,54.35042],[-1.43875,54.35053],[-1.43877,54.35058]]]]}},
{ "type":"Feature","properties":{"osm_way_id":"831605320","amenity":"parking"},"geometry":{"type":"MultiPolygon","coordinates":[[[[-1.31811,54.38825],[-1.31787,54.3882],[-1.31804,54.38788],[-1.31829,54.38791],[-1.31832,54.38791],[-1.31811,54.38825]]]]}},
{ "type":"Feature","properties":{"osm_way_id":"832964247","amenity":"parking"},"geometry":{"type":"MultiPolygon","coordinates":[[[[-1.34689,54.22153],[-1.3468,54.22141],[-1.34674,54.22132],[-1.346,54.22149],[-1.34615,54.22171],[-1.34689,54.22153]]]]}},
{ "type":"Feature","properties":{"osm_way_id":"835713535","amenity":"parking","other":{"access":"private"}}, "geometry":{"type":"MultiPolygon","coordinates":[[[[-1.3951,54.29261],[-1.39484,54.29225],[-1.39465,54.2923],[-1.39471,54.29238],[-1.39447,54.29242],[-1.39408,54.2925],[-1.39408,54.2925],[-1.39404,54.29251],[-1.39414,54.29276],[-1.39423,54.29275],[-1.39426,54.29276],[-1.39441,54.29273],[-1.39436,54.29263],[-1.39432,54.29264],[-1.39426,54.29253],[-1.39422,54.29254],[-1.3942,54.29251],[-1.39429,54.29249],[-1.3943,54.29251],[-1.39437,54.29249],[-1.39458,54.29245],[-1.39467,54.29244],[-1.39471,54.29242],[-1.39476,54.29244],[-1.3948,54.29247],[-1.39489,54.29262],[-1.39499,54.2926],[-1.39504,54.29262],[-1.3951,54.29261]]]]}},
{ "type":"Feature","properties":{"osm_way_id":"864712633","amenity":"parking","other":{"access":"customers","parking":"surface"}}, "geometry":{"type":"MultiPolygon","coordinates":[[[[-1.11039,54.08587],[-1.11012,54.08587],[-1.11015,54.08609],[-1.10986,54.08611],[-1.10987,54.08616],[-1.10943,54.08619],[-1.1092,54.08625],[-1.10963,54.08635],[-1.10979,54.08637],[-1.1098,54.08631],[-1.10986,54.08631],[-1.10988,54.08621],[-1.11024,54.08623],[-1.11021,54.08637],[-1.11051,54.08631],[-1.11048,54.0861],[-1.11043,54.08608],[-1.11042,54.08606],[-1.11041,54.08603],[-1.11039,54.08587]]]]}},
{ "type":"Feature","properties":{"osm_way_id":"884855310","amenity":"parking"},"geometry":{"type":"MultiPolygon","coordinates":[[[[-1.13209,52.68956],[-1.132,52.68946],[-1.13209,52.68944],[-1.13203,52.68934],[-1.13195,52.68927],[-1.13186,52.68921],[-1.1317,52.68917],[-1.13169,52.68916],[-1.13161,52.68917],[-1.13169,52.68962],[-1.13209,52.68956]]]]}},
{ "type":"Feature","properties":{"osm_way_id":"884855311","amenity":"parking"},"geometry":{"type":"MultiPolygon","coordinates":[[[[-1.13321,52.69024],[-1.1327,52.69034],[-1.13257,52.69007],[-1.13307,52.68997],[-1.13308,52.68999],[-1.13314,52.6901],[-1.13321,52.69024]]]]}},
{ "type":"Feature","properties":{"osm_way_id":"888735340","amenity":"parking","other":{"access":"customers","fee":"no","parking":"surface"}}, "geometry":{"type":"MultiPolygon","coordinates":[[[[-1.21212,54.02093],[-1.21207,54.02073],[-1.21196,54.02073],[-1.21117,54.02079],[-1.21118,54.02083],[-1.21085,54.02085],[-1.21084,54.02079],[-1.21056,54.0208],[-1.21051,54.02092],[-1.2104,54.021],[-1.21032,54.02099],[-1.21016,54.02105],[-1.2102,54.02114],[-1.21029,54.02125],[-1.21029,54.02134],[-1.21049,54.02138],[-1.21059,54.02144],[-1.21077,54.02147],[-1.21104,54.02146],[-1.21132,54.0214],[-1.21147,54.02129],[-1.21155,54.02117],[-1.21175,54.02113],[-1.21205,54.02109],[-1.21212,54.02102],[-1.21212,54.02093]]]]}},
{ "type":"Feature","properties":{"osm_way_id":"897189674","amenity":"parking","other":{"access":"destination","operator":"St Mary Magdalene","surface":"grass"}}, "geometry":{"type":"MultiPolygon","coordinates":[[[[-1.23769,54.42049],[-1.23755,54.42051],[-1.23734,54.42053],[-1.23723,54.42052],[-1.23718,54.42051],[-1.23712,54.42046],[-1.23706,54.42042],[-1.23698,54.42036],[-1.23696,54.42033],[-1.237,54.42031],[-1.23706,54.42028],[-1.23716,54.42023],[-1.23728,54.42019],[-1.23736,54.42017],[-1.2374,54.42016],[-1.23745,54.42022],[-1.23749,54.42027],[-1.23769,54.42049]]]]}},
{ "type":"Feature","properties":{"osm_way_id":"897450708","amenity":"parking"},"geometry":{"type":"MultiPolygon","coordinates":[[[[-1.24132,54.08036],[-1.24118,54.08059],[-1.24101,54.08056],[-1.24112,54.08038],[-1.24118,54.08033],[-1.24132,54.08036]]]]}},
{ "type":"Feature","properties":{"osm_way_id":"903444669","amenity":"parking","other":{"access":"permissive","capacity":"20","fee":"no","operator":"Yorkshire Gliding Club","parking":"surface","surface":"gravel"}}, "geometry":{"type":"MultiPolygon","coordinates":[[[[-1.20964,54.22924],[-1.20936,54.22949],[-1.20877,54.22921],[-1.20882,54.22915],[-1.20922,54.22926],[-1.20934,54.22914],[-1.20964,54.22924]]]]}},
{ "type":"Feature","properties":{"osm_way_id":"903444670","name":"YGC Visitor Car Park","amenity":"parking","other":{"access":"permissive","capacity":"15","fee":"no","operator":"Yorkshire Gliding Club","operator:type":"private","parking":"surface","surface":"gravel"}}, "geometry":{"type":"MultiPolygon","coordinates":[[[[-1.20867,54.22924],[-1.20873,54.22926],[-1.20791,54.22974],[-1.20774,54.22979],[-1.20774,54.22975],[-1.2079,54.22969],[-1.2085,54.22932],[-1.20867,54.22924]]]]}},
{ "type":"Feature","properties":{"osm_way_id":"914258163","amenity":"parking","other":{"parking":"surface"}}, "geometry":{"type":"MultiPolygon","coordinates":[[[[-1.09404,54.45655],[-1.094,54.45652],[-1.09381,54.45661],[-1.09386,54.45664],[-1.09404,54.45655]]]]}},
{ "type":"Feature","properties":{"osm_way_id":"918465832","amenity":"parking"},"geometry":{"type":"MultiPolygon","coordinates":[[[[-1.18736,54.12768],[-1.18731,54.12767],[-1.18693,54.12753],[-1.18688,54.12751],[-1.18679,54.1276],[-1.18727,54.12777],[-1.18736,54.12768]]]]}},
{ "type":"Feature","properties":{"osm_way_id":"929735044","amenity":"parking"},"geometry":{"type":"MultiPolygon","coordinates":[[[[-1.23425,54.42324],[-1.23419,54.42297],[-1.23446,54.42292],[-1.23442,54.42319],[-1.23425,54.42324]]]]}},
{ "type":"Feature","properties":{"osm_way_id":"933806443","amenity":"parking"},"geometry":{"type":"MultiPolygon","coordinates":[[[[-1.44683,54.34525],[-1.44679,54.34526],[-1.4468,54.34529],[-1.44666,54.3453],[-1.44666,54.34526],[-1.44663,54.34526],[-1.44664,54.3453],[-1.44653,54.34531],[-1.44652,54.34526],[-1.44649,54.34526],[-1.44647,54.34521],[-1.44644,54.34522],[-1.44643,54.34518],[-1.44642,54.34512],[-1.44652,54.34511],[-1.44651,54.3451],[-1.44668,54.34509],[-1.4467,54.34515],[-1.44681,54.34514],[-1.44683,54.34525]]]]}},
{ "type":"Feature","properties":{"osm_way_id":"936882305","amenity":"parking","other":{"access":"customers"}}, "geometry":{"type":"MultiPolygon","coordinates":[[[[-1.27025,54.41347],[-1.27016,54.41336],[-1.27042,54.41329],[-1.27051,54.4134],[-1.27025,54.41347]]]]}},
{ "type":"Feature","properties":{"osm_way_id":"942827094","amenity":"parking"},"geometry":{"type":"MultiPolygon","coordinates":[[[[-1.42322,54.33642],[-1.42297,54.33651],[-1.42301,54.33655],[-1.42307,54.33661],[-1.42333,54.33652],[-1.42322,54.33642]]]]}},
{ "type":"Feature","properties":{"osm_way_id":"946944482","amenity":"parking","other":{"access":"private"}}, "geometry":{"type":"MultiPolygon","coordinates":[[[[-1.4319,54.33882],[-1.43197,54.33887],[-1.43211,54.33886],[-1.4321,54.33879],[-1.43209,54.33874],[-1.4319,54.33875],[-1.4319,54.33878],[-1.4319,54.33882]]]]}},
{ "type":"Feature","properties":{"osm_way_id":"949769176","amenity":"parking","other":{"access":"permissive","operator":"Dudley Arms","operator:type":"private","parking":"surface"}}, "geometry":{"type":"MultiPolygon","coordinates":[[[[-1.10376,54.44928],[-1.10399,54.44927],[-1.10412,54.44923],[-1.10425,54.44913],[-1.10428,54.44909],[-1.10425,54.44907],[-1.10406,54.44899],[-1.10418,54.4489],[-1.10423,54.44885],[-1.10431,54.44884],[-1.10443,54.4489],[-1.10453,54.44889],[-1.1047,54.44876],[-1.10464,54.44868],[-1.10453,54.4486],[-1.1044,54.44864],[-1.10416,54.44881],[-1.10399,54.44897],[-1.10377,54.44914],[-1.10377,54.44924],[-1.10376,54.44928]]]]}},
{ "type":"Feature","properties":{"osm_way_id":"952968290","amenity":"parking"},"geometry":{"type":"MultiPolygon","coordinates":[[[[-1.46382,54.43329],[-1.46414,54.43336],[-1.4641,54.43343],[-1.46408,54.43347],[-1.46376,54.43341],[-1.46382,54.43329]]]]}},
{ "type":"Feature","properties":{"osm_way_id":"958772026","amenity":"parking","other":{"access":"private"}}, "geometry":{"type":"MultiPolygon","coordinates":[[[[-1.35883,54.18324],[-1.35799,54.18348],[-1.35798,54.18344],[-1.35728,54.18357],[-1.35724,54.18348],[-1.35792,54.18335],[-1.35788,54.18326],[-1.35836,54.18312],[-1.35851,54.18306],[-1.35859,54.18304],[-1.35883,54.18324]]]]}},
{ "type":"Feature","properties":{"osm_way_id":"958833525","amenity":"parking","other":{"access":"private","capacity":"27"}}, "geometry":{"type":"MultiPolygon","coordinates":[[[[-1.18749,54.11773],[-1.18707,54.11761],[-1.1871,54.11757],[-1.18701,54.11754],[-1.18702,54.11752],[-1.18704,54.11748],[-1.18705,54.11746],[-1.18707,54.11745],[-1.1876,54.1176],[-1.18754,54.11767],[-1.18749,54.11773]]]]}},
{ "type":"Feature","properties":{"osm_way_id":"958833526","amenity":"parking","other":{"access":"private","capacity":"5","capacity:disabled":"5"}}, "geometry":{"type":"MultiPolygon","coordinates":[[[[-1.18675,54.11771],[-1.18681,54.11756],[-1.18693,54.11758],[-1.18687,54.11772],[-1.18675,54.11771]]]]}},
{ "type":"Feature","properties":{"osm_way_id":"958833529","amenity":"parking","other":{"access":"private","capacity":"12","parking":"surface"}}, "geometry":{"type":"MultiPolygon","coordinates":[[[[-1.18715,54.11781],[-1.18695,54.11776],[-1.18705,54.11763],[-1.18725,54.11769],[-1.1872,54.11775],[-1.18715,54.11781]]]]}},
{ "type":"Feature","properties":{"osm_way_id":"965906145","amenity":"parking"},"geometry":{"type":"MultiPolygon","coordinates":[[[[-1.36577,54.22829],[-1.36556,54.22832],[-1.36549,54.22814],[-1.36556,54.22813],[-1.36556,54.22811],[-1.36554,54.22806],[-1.36569,54.22803],[-1.36579,54.22827],[-1.36577,54.22827],[-1.36576,54.22828],[-1.36577,54.22829]]]]}},
{ "type":"Feature","properties":{"osm_way_id":"966147945","amenity":"parking","other":{"access":"customers","parking":"surface"}}, "geometry":{"type":"MultiPolygon","coordinates":[[[[-1.44013,54.35197],[-1.44011,54.35187],[-1.44028,54.35186],[-1.44022,54.3516],[-1.4403,54.35159],[-1.44071,54.35155],[-1.44077,54.3516],[-1.44064,54.35188],[-1.44058,54.35201],[-1.44029,54.35204],[-1.44027,54.35196],[-1.44013,54.35197]]]]}},
{ "type":"Feature","properties":{"osm_way_id":"972393548","amenity":"parking"},"geometry":{"type":"MultiPolygon","coordinates":[[[[-1.14278,54.49872],[-1.14277,54.49878],[-1.1426,54.4987],[-1.14245,54.49863],[-1.14238,54.4986],[-1.14234,54.49855],[-1.14227,54.49849],[-1.14219,54.49838],[-1.1421,54.49826],[-1.1422,54.49827],[-1.14222,54.49833],[-1.14239,54.49851],[-1.14253,54.49862],[-1.14266,54.49868],[-1.14275,54.49871],[-1.14278,54.49872]]]]}},
{ "type":"Feature","properties":{"osm_way_id":"972506239","amenity":"parking","other":{"parking":"street_side"}}, "geometry":{"type":"MultiPolygon","coordinates":[[[[-1.16495,54.49495],[-1.16597,54.49385],[-1.16597,54.49387],[-1.16595,54.49395],[-1.16593,54.49399],[-1.16577,54.49419],[-1.1653,54.49473],[-1.16514,54.49488],[-1.16506,54.49492],[-1.16495,54.49495]]]]}},
{ "type":"Feature","properties":{"osm_way_id":"973580288","amenity":"parking","other":{"access":"customers","parking":"surface"}}, "geometry":{"type":"MultiPolygon","coordinates":[[[[-1.43504,54.33945],[-1.43533,54.33942],[-1.4354,54.33941],[-1.43549,54.33941],[-1.43558,54.33939],[-1.43555,54.33933],[-1.43536,54.33935],[-1.43519,54.33936],[-1.43501,54.33937],[-1.43504,54.33945]]]]}},
{ "type":"Feature","properties":{"osm_way_id":"974503484","amenity":"parking"},"geometry":{"type":"MultiPolygon","coordinates":[[[[-1.52467,54.29581],[-1.52367,54.29581],[-1.52366,54.29529],[-1.52469,54.29529],[-1.52467,54.29581]]]]}},
{ "type":"Feature","properties":{"osm_way_id":"983573347","amenity":"parking"},"geometry":{"type":"MultiPolygon","coordinates":[[[[-1.54727,54.29731],[-1.5472,54.2972],[-1.54745,54.29716],[-1.5473,54.29696],[-1.54751,54.2969],[-1.54751,54.29689],[-1.54766,54.29686],[-1.54772,54.29692],[-1.5478,54.29705],[-1.54765,54.29706],[-1.54768,54.29717],[-1.54756,54.29718],[-1.54757,54.29721],[-1.5474,54.29722],[-1.54743,54.29729],[-1.54729,54.29731],[-1.54727,54.29731]]]]}},
{ "type":"Feature","properties":{"osm_way_id":"985562285","amenity":"parking","other":{"access":"customers"}}, "geometry":{"type":"MultiPolygon","coordinates":[[[[-1.75975,52.38538],[-1.75988,52.38529],[-1.76005,52.38517],[-1.76032,52.38499],[-1.76027,52.38497],[-1.76009,52.38486],[-1.75997,52.38494],[-1.75995,52.38495],[-1.75979,52.38506],[-1.75985,52.38509],[-1.75975,52.38516],[-1.7596,52.38507],[-1.75942,52.38519],[-1.75975,52.38538]]]]}},
{ "type":"Feature","properties":{"osm_way_id":"990873217","amenity":"parking"},"geometry":{"type":"MultiPolygon","coordinates":[[[[-1.1895,54.11938],[-1.18932,54.11936],[-1.18931,54.11945],[-1.18926,54.11969],[-1.18926,54.11971],[-1.18931,54.11971],[-1.18942,54.11967],[-1.18943,54.11962],[-1.18939,54.11961],[-1.18936,54.11959],[-1.18935,54.11958],[-1.18934,54.11956],[-1.18946,54.11957],[-1.1895,54.11938]]]]}},
{ "type":"Feature","properties":{"osm_way_id":"990873218","amenity":"parking"},"geometry":{"type":"MultiPolygon","coordinates":[[[[-1.18859,54.11931],[-1.18876,54.11932],[-1.18871,54.11962],[-1.18859,54.11961],[-1.18858,54.11964],[-1.18861,54.11966],[-1.1887,54.11967],[-1.1887,54.11972],[-1.18863,54.11972],[-1.18859,54.11973],[-1.18857,54.11974],[-1.18856,54.11977],[-1.18851,54.11976],[-1.18859,54.11931]]]]}},
{ "type":"Feature","properties":{"osm_way_id":"1003593179","amenity":"parking","other":{"access":"private"}}, "geometry":{"type":"MultiPolygon","coordinates":[[[[-1.58809,54.28592],[-1.58823,54.2858],[-1.58803,54.28572],[-1.58774,54.28598],[-1.58784,54.28602],[-1.58784,54.28602],[-1.58797,54.2859],[-1.58806,54.28594],[-1.58809,54.28592]]]]}},
{ "type":"Feature","properties":{"osm_way_id":"1003593181","amenity":"parking","other":{"access":"private","parking":"surface"}}, "geometry":{"type":"MultiPolygon","coordinates":[[[[-1.58849,54.28625],[-1.58836,54.28635],[-1.58829,54.28632],[-1.58825,54.2863],[-1.588,54.28617],[-1.58778,54.28606],[-1.58784,54.28602],[-1.58794,54.28605],[-1.58795,54.28604],[-1.58804,54.28608],[-1.58803,54.28609],[-1.58816,54.28614],[-1.58817,54.28613],[-1.58825,54.28616],[-1.58824,54.28617],[-1.58833,54.2862],[-1.58839,54.28615],[-1.58842,54.28617],[-1.58848,54.28619],[-1.58844,54.28624],[-1.58849,54.28625]]]]}},
{ "type":"Feature","properties":{"osm_way_id":"1003593182","amenity":"parking","other":{"access":"private","parking":"surface"}}, "geometry":{"type":"MultiPolygon","coordinates":[[[[-1.58863,54.2863],[-1.58847,54.28624],[-1.5887,54.28606],[-1.58879,54.28609],[-1.58871,54.28616],[-1.58885,54.28621],[-1.58887,54.28623],[-1.58901,54.28628],[-1.5891,54.28631],[-1.58902,54.28643],[-1.58901,54.28646],[-1.58878,54.28636],[-1.58876,54.28634],[-1.58875,54.28632],[-1.58879,54.28628],[-1.58876,54.28626],[-1.58871,54.28625],[-1.58868,54.28625],[-1.58863,54.2863]]]]}},
{ "type":"Feature","properties":{"osm_way_id":"1026115339","amenity":"parking"},"geometry":{"type":"MultiPolygon","coordinates":[[[[-1.44231,54.35],[-1.4421,54.34966],[-1.44245,54.34965],[-1.4426,54.34974],[-1.44242,54.35],[-1.44231,54.35]]]]}},
{ "type":"Feature","properties":{"osm_way_id":"1033858422","amenity":"parking","other":{"access":"private","parking":"surface"}}, "geometry":{"type":"MultiPolygon","coordinates":[[[[-2.52075,51.45047],[-2.52067,51.45043],[-2.52059,51.4504],[-2.52067,51.45033],[-2.52076,51.45037],[-2.52087,51.45042],[-2.52079,51.45049],[-2.52075,51.45047]]]]}},
{ "type":"Feature","properties":{"osm_way_id":"1034236441","amenity":"parking","other":{"access":"customers","parking":"surface"}}, "geometry":{"type":"MultiPolygon","coordinates":[[[[-1.11743,54.48603],[-1.11731,54.48588],[-1.11716,54.48593],[-1.1171,54.486],[-1.11707,54.48609],[-1.11713,54.48616],[-1.11749,54.48608],[-1.11744,54.48604],[-1.11743,54.48603]]]]}},
{ "type":"Feature","properties":{"osm_way_id":"1034574135","amenity":"parking","other":{"capacity":"4","fee":"no","parking":"lane","surface":"asphalt"}}, "geometry":{"type":"MultiPolygon","coordinates":[[[[-1.10511,54.4485],[-1.10516,54.44852],[-1.10525,54.44846],[-1.1052,54.44843],[-1.10511,54.4485]]]]}},
{ "type":"Feature","properties":{"osm_way_id":"1037112628","amenity":"parking","other":{"access":"customers","capacity":"4","fee":"no","parking":"surface","surface":"gravel"}}, "geometry":{"type":"MultiPolygon","coordinates":[[[[-1.38483,54.44675],[-1.385,54.44672],[-1.38491,54.44659],[-1.38474,54.44662],[-1.38483,54.44675]]]]}}
]
}
