{
"type": "FeatureCollection",
"features": [
{ "type":"Feature","properties":{"osm_id":"1232955177","name":"Lincolnshire Co-op","other":{"operator":"Lincolnshire Co-operative Society","shop":"supermarket"}}, "geometry":{"type":"Point","coordinates":[-0.60391,53.21502 ]}},
{ "type":"Feature","properties":{"osm_id":"1430384366","name":"Lincolnshire Co-op","other":{"operator":"Lincolnshire Co-operative Society","shop":"supermarket"}}, "geometry":{"type":"Point","coordinates":[-0.53193,53.25154 ]}},
{ "type":"Feature","properties":{"osm_id":"1596412668","name":"Lincolnshire Co-op","other":{"addr:street":"skellingthorpe road","operator":"Lincolnshire Co-operative Society","shop":"supermarket"}}, "geometry":{"type":"Point","coordinates":[-0.57869,53.214 ]}},
{ "type":"Feature","properties":{"osm_id":"2093849468","name":"Lincolnshire Co-op","other":{"operator":"Lincolnshire Co-operative Society","shop":"supermarket"}}, "geometry":{"type":"Point","coordinates":[-0.55685,53.19139 ]}},
{ "type":"Feature","properties":{"osm_id":"2571812593","name":"Spar","other":{"brand":"Spar","brand:wikidata":"Q610492","operator":"Spar","shop":"supermarket"}}, "geometry":{"type":"Point","coordinates":[-0.60233,53.22063 ]}},
{ "type":"Feature","properties":{"osm_id":"2632169555","name":"Spar","other":{"addr:country":"GB","addr:housenumber":"260-266","addr:postcode":"LN6 8BJ","addr:street":"Hykeham Road","brand":"Spar","brand:wikidata":"Q610492","brand:wikipedia":"en:Spar (retailer)","shop":"supermarket"}}, "geometry":{"type":"Point","coordinates":[-0.57004,53.19512 ]}},
{ "type":"Feature","properties":{"osm_id":"2632172888","name":"LONDIS","other":{"addr:housename":"LONDIS","addr:housenumber":"50 ","addr:postcode":"LN6 8NH","addr:street":"Hykeham Road","designation":"convenience store","shop":"supermarket"}}, "geometry":{"type":"Point","coordinates":[-0.56004,53.20074 ]}},
{ "type":"Feature","properties":{"osm_id":"3824468557","name":"Iceland Food Warehouse","other":{"addr:city":"Lincoln","addr:postcode":"LN6 7JL","addr:street":"Unit 1, Lindis Retail Park","brand":"The Food Warehouse","brand:wikidata":"Q87263899","opening_hours":"Mo-Sa 08:00-21:00; Su 10:00-16:00","operator":"Iceland Food","shop":"supermarket"}}, "geometry":{"type":"Point","coordinates":[-0.57972,53.2037 ]}},
{ "type":"Feature","properties":{"osm_id":"4341090090","name":"mini market","other":{"shop":"supermarket"}}, "geometry":{"type":"Point","coordinates":[-0.52347,53.23078 ]}},
{ "type":"Feature","properties":{"osm_id":"4341144493","name":"Maximal","other":{"shop":"supermarket"}}, "geometry":{"type":"Point","coordinates":[-0.52215,53.23081 ]}},
{ "type":"Feature","properties":{"osm_id":"4341168391","name":"monks food city","other":{"shop":"supermarket"}}, "geometry":{"type":"Point","coordinates":[-0.51649,53.23029 ]}},
{ "type":"Feature","properties":{"osm_id":"4341170791","name":"Poziomka","other":{"addr:city":"Lincoln","addr:country":"GB","addr:housenumber":"166a","addr:postcode":"LN2 5PN","addr:street":"Monks Road","fhrs:id":"330570","shop":"supermarket"}}, "geometry":{"type":"Point","coordinates":[-0.51766,53.23051 ]}},
{ "type":"Feature","properties":{"osm_id":"4422324053","name":"Lincolnshire Co-op","other":{"operator":"Lincolnshire Co-operative Society","shop":"supermarket"}}, "geometry":{"type":"Point","coordinates":[-0.54603,53.25211 ]}},
{ "type":"Feature","properties":{"osm_id":"4613055293","name":"Lincolnshire Co-op","other":{"brand":"Lincolnshire Co-op","brand:wikidata":"Q6551231","brand:wikipedia":"en:Lincolnshire Co-operative","operator":"Lincolnshire Co-operative","shop":"supermarket"}}, "geometry":{"type":"Point","coordinates":[-0.53764,53.2276 ]}},
{ "type":"Feature","properties":{"osm_id":"5779385134","name":"Super Lincs","other":{"addr:housenumber":"116","addr:postcode":"LN5 7PR","addr:street":"High Street","fhrs:id":"434137","shop":"supermarket","source:addr":"FHRS Open Data"}}, "geometry":{"type":"Point","coordinates":[-0.54419,53.22261 ]}},
{ "type":"Feature","properties":{"osm_id":"5859488791","name":"Iceland","other":{"addr:housenumber":"334-337","addr:postcode":"LN5 7DQ","addr:street":"High Street","brand":"Iceland","brand:wikidata":"Q721810","fhrs:id":"329870","shop":"supermarket","source:addr":"FHRS Open Data"}}, "geometry":{"type":"Point","coordinates":[-0.54185,53.22607 ]}},
{ "type":"Feature","properties":{"osm_way_id":"136079396","name":"Tesco","building":"yes","shop":"supermarket","other":{"addr:postcode":"LN5 8HS","addr:street":"Canwick Road","brand":"Tesco","brand:wikidata":"Q487494","brand:wikipedia":"en:Tesco"}}, "geometry":{"type":"MultiPolygon","coordinates":[[[[-0.53149,53.2233],[-0.53152,53.22325],[-0.53148,53.22324],[-0.53188,53.22264],[-0.53192,53.22264],[-0.53196,53.22258],[-0.53264,53.22274],[-0.53219,53.22347],[-0.53149,53.2233]]]]}},
{ "type":"Feature","properties":{"osm_way_id":"143029748","name":"Tesco Extra","building":"yes","shop":"supermarket","other":{"addr:city":"Lincoln","addr:postcode":"LN2 4QQ","addr:street":"Wragby Road","brand":"Tesco Extra","brand:wikidata":"Q25172225","designation":"Lincoln Extra","opening_hours":"Mo-Sa 00:00-24:00; Su 10:00-16:00","wheelchair":"yes"}}, "geometry":{"type":"MultiPolygon","coordinates":[[[[-0.51497,53.23951],[-0.51436,53.23875],[-0.51456,53.23869],[-0.51446,53.23857],[-0.51472,53.2385],[-0.5148,53.2386],[-0.51579,53.23831],[-0.51569,53.23817],[-0.51575,53.23816],[-0.51649,53.23908],[-0.51497,53.23951]]]]}},
{ "type":"Feature","properties":{"osm_way_id":"191257941","name":"Asda","building":"yes","shop":"supermarket","other":{"addr:city":"Lincoln","addr:country":"GB","addr:housenumber":"323","addr:postcode":"LN2 4SX","addr:street":"Wolsey Way","brand":"Asda","brand:wikidata":"Q297410","brand:wikipedia":"en:Asda","contact:facebook":"https:\/\/www.facebook.com\/asda\/","contact:twitter":"@asda","contact:website":"https:\/\/storelocator.asda.com\/east-midlands\/lincoln\/323-wolsey-way-nettleham-road","designation":"Lincoln Nettleham Road Supermarket","fhrs:id":"330637","opening_hours":"Mo-Sa 07:00-23:00; Su 10:00-16:00","operator":"Asda Stores Ltd"}}, "geometry":{"type":"MultiPolygon","coordinates":[[[[-0.51608,53.25019],[-0.51574,53.25002],[-0.51527,53.25036],[-0.51562,53.25053],[-0.51566,53.2505],[-0.51568,53.25052],[-0.51578,53.25045],[-0.51574,53.25043],[-0.51608,53.25019]]]]}},
{ "type":"Feature","properties":{"osm_way_id":"191258130","name":"Waitrose","building":"yes","shop":"supermarket","other":{"addr:city":"Lincoln","addr:postcode":"LN2 4DS","addr:street":"Searby Road","brand":"Waitrose","brand:wikidata":"Q771734","brand:wikipedia":"en:Waitrose & Partners","designation":"Lincoln","official_name":"Waitrose & Partners","opening_hours":"Mo-Th,Sa 08:00-20:00; Fr 08:00-21:00; Su 10:00-16:00","operator":"Waitrose & Partners"}}, "geometry":{"type":"MultiPolygon","coordinates":[[[[-0.52183,53.25141],[-0.52079,53.25099],[-0.52047,53.25129],[-0.5203,53.25122],[-0.52001,53.25148],[-0.52043,53.25165],[-0.52048,53.2516],[-0.52128,53.25191],[-0.52147,53.25174],[-0.52126,53.25166],[-0.52143,53.2515],[-0.52164,53.25159],[-0.52183,53.25141]]]]}},
{ "type":"Feature","properties":{"osm_way_id":"191258480","name":"Sainsbury's","building":"yes","shop":"supermarket","other":{"addr:postcode":"LN6 7QN","addr:street":"Tritton Road","brand":"Sainsbury's","brand:wikidata":"Q152096","toilets:wheelchair":"yes","wheelchair":"yes"}}, "geometry":{"type":"MultiPolygon","coordinates":[[[[-0.58111,53.2054],[-0.58107,53.20545],[-0.58082,53.20538],[-0.58081,53.20539],[-0.58069,53.20536],[-0.58037,53.20581],[-0.58031,53.20579],[-0.58025,53.20587],[-0.57941,53.20565],[-0.57961,53.20538],[-0.57948,53.20534],[-0.57958,53.2052],[-0.57972,53.20523],[-0.58022,53.20452],[-0.58156,53.20486],[-0.58131,53.20522],[-0.58126,53.20521],[-0.58112,53.2054],[-0.58111,53.2054]]]]}},
{ "type":"Feature","properties":{"osm_way_id":"203509877","name":"Aldi","building":"yes","shop":"supermarket","other":{"addr:street":"Newark Road","brand":"ALDI","brand:wikidata":"Q41171672","brand:wikipedia":"en:Aldi","opening_hours":"Mo-Sa 08:00-22:00; Su 10:00-16:00"}}, "geometry":{"type":"MultiPolygon","coordinates":[[[[-0.5526,53.20632],[-0.5517,53.20618],[-0.55165,53.20631],[-0.5517,53.20632],[-0.55166,53.2064],[-0.55251,53.20654],[-0.5526,53.20632]]]]}},
{ "type":"Feature","properties":{"osm_way_id":"218641656","name":"Aldi","building":"yes","shop":"supermarket","other":{"addr:city":"Lincoln","addr:housenumber":"260-266","addr:postcode":"LN2 4PX","addr:street":"Wragby Road","brand":"ALDI","brand:wikidata":"Q41171672","brand:wikipedia":"en:Aldi","opening_hours":"Mo-Sa 08:00-22:00; Su 10:00-16:00","operator":"Aldi"}}, "geometry":{"type":"MultiPolygon","coordinates":[[[[-0.51424,53.24052],[-0.51397,53.2406],[-0.51395,53.24058],[-0.51347,53.24073],[-0.51322,53.24045],[-0.51343,53.24038],[-0.51347,53.24043],[-0.51351,53.24046],[-0.51394,53.24032],[-0.51396,53.24035],[-0.51403,53.24032],[-0.51406,53.24035],[-0.51408,53.24034],[-0.51424,53.24052]]]]}},
{ "type":"Feature","properties":{"osm_way_id":"241177746","name":"Morrisons","building":"yes","shop":"supermarket","other":{"addr:housename":"Morrisons","addr:postcode":"LN6 7QL","addr:street":"Tritton Road","brand":"Morrisons","brand:wikidata":"Q922344","brand:wikipedia":"en:Morrisons","operator":"Morrisons","website":"https:\/\/www.morrisons.co.uk\/Store-Finder\/Store-Details\/?recordid=62"}}, "geometry":{"type":"MultiPolygon","coordinates":[[[[-0.55573,53.22394],[-0.55623,53.22454],[-0.55529,53.22482],[-0.5553,53.22483],[-0.55515,53.22488],[-0.55505,53.22476],[-0.55511,53.22474],[-0.55496,53.22456],[-0.55487,53.22459],[-0.55478,53.22448],[-0.55471,53.2245],[-0.55457,53.22434],[-0.5545,53.22433],[-0.55453,53.22427],[-0.55451,53.22427],[-0.5545,53.22428],[-0.55444,53.22427],[-0.55447,53.22422],[-0.55439,53.22421],[-0.55441,53.22417],[-0.55449,53.22418],[-0.55452,53.22414],[-0.55458,53.22415],[-0.55457,53.22417],[-0.55459,53.22417],[-0.55462,53.22411],[-0.5547,53.22413],[-0.55496,53.22405],[-0.55497,53.22406],[-0.55558,53.22388],[-0.55565,53.22396],[-0.55573,53.22394]]]]}},
{ "type":"Feature","properties":{"osm_way_id":"418119686","name":"Lincolnshire Co-op","building":"retail","shop":"supermarket","other":{"operator":"Lincolnshire Co-operative Society"}}, "geometry":{"type":"MultiPolygon","coordinates":[[[[-0.56169,53.21064],[-0.56156,53.21063],[-0.56156,53.21063],[-0.56146,53.21063],[-0.5612,53.2106],[-0.56123,53.21046],[-0.56168,53.21049],[-0.56168,53.21051],[-0.56172,53.21052],[-0.56169,53.21064]]]]}},
{ "type":"Feature","properties":{"osm_way_id":"462739695","name":"Lincolnshire Co-op","building":"retail","shop":"supermarket","other":{"operator":"Lincolnshire Co-operative Society"}}, "geometry":{"type":"MultiPolygon","coordinates":[[[[-0.54456,53.23876],[-0.54466,53.2389],[-0.54455,53.23893],[-0.5445,53.23886],[-0.54435,53.23889],[-0.54429,53.23881],[-0.54456,53.23876]]]]}},
{ "type":"Feature","properties":{"osm_way_id":"464725827","name":"Lidl","building":"retail","shop":"supermarket","other":{"brand":"Lidl","brand:wikidata":"Q151954"}}, "geometry":{"type":"MultiPolygon","coordinates":[[[[-0.55335,53.21868],[-0.55324,53.21888],[-0.55328,53.21889],[-0.55322,53.219],[-0.55294,53.21894],[-0.55296,53.2189],[-0.55297,53.21888],[-0.55226,53.21874],[-0.55239,53.2185],[-0.55271,53.21856],[-0.55273,53.21851],[-0.55288,53.21854],[-0.55286,53.21859],[-0.55335,53.21868]]]]}},
{ "type":"Feature","properties":{"osm_way_id":"852629796","name":"Lidl","building":"yes","shop":"supermarket","other":{"addr:city":"Lincoln","addr:country":"GB","addr:postcode":"LN2 4JA","addr:street":"Deacon Road","brand":"Lidl","brand:wikidata":"Q151954","brand:wikipedia":"en:Lidl","fhrs:id":"1038517","opening_hours":"Mo-Sa 08:00-22:00; Su 10:00-16:00"}}, "geometry":{"type":"MultiPolygon","coordinates":[[[[-0.51078,53.24168],[-0.51052,53.24138],[-0.51146,53.24109],[-0.51163,53.24128],[-0.51167,53.24127],[-0.5117,53.24126],[-0.51179,53.24137],[-0.51078,53.24168]]]]}}
]
}
