{
"type": "FeatureCollection",
"features": [
{ "type":"Feature","properties":{"osm_way_id":"54616320","name":"NBTY","building":"warehouse"},"geometry":{"type":"MultiPolygon","coordinates":[[[[-1.65876,52.80117],[-1.6579,52.80077],[-1.6568,52.80169],[-1.65766,52.80208],[-1.65876,52.80117]]]]}},
{ "type":"Feature","properties":{"osm_way_id":"54669202","name":"Healthcare at Home","building":"warehouse","other":{"addr:city":"Burton-on-Trent","addr:postcode":"DE14 2WS"}}, "geometry":{"type":"MultiPolygon","coordinates":[[[[-1.65901,52.80264],[-1.65866,52.80291],[-1.65789,52.80255],[-1.65816,52.80234],[-1.65824,52.80228],[-1.65901,52.80264]]]]}},
{ "type":"Feature","properties":{"osm_way_id":"54669203","name":"Hobbycraft Distribution Centre","building":"warehouse","other":{"addr:city":"Burton-on-Trent","addr:housename":"Hobbycraft Distribution Centre","addr:housenumber":"1","addr:postcode":"DE14 2WA","addr:street":"Parkway","building:levels:underground":"0","smoking":"isolated","website":"https:\/\/www.hobbycraft.co.uk\/contact-us"}}, "geometry":{"type":"MultiPolygon","coordinates":[[[[-1.66595,52.7961],[-1.66588,52.7961],[-1.66579,52.79608],[-1.66559,52.79659],[-1.66267,52.79623],[-1.66296,52.79539],[-1.66606,52.79578],[-1.66595,52.7961]]]]}},
{ "type":"Feature","properties":{"osm_way_id":"57784892","building":"warehouse"},"geometry":{"type":"MultiPolygon","coordinates":[[[[-1.65313,52.7908],[-1.6514,52.79087],[-1.65159,52.7927],[-1.65355,52.79262],[-1.65349,52.79208],[-1.65326,52.79209],[-1.65313,52.7908]]]]}},
{ "type":"Feature","properties":{"osm_way_id":"57784893","building":"warehouse"},"geometry":{"type":"MultiPolygon","coordinates":[[[[-1.65597,52.79069],[-1.65616,52.79253],[-1.6543,52.79261],[-1.65419,52.79158],[-1.65431,52.79157],[-1.65424,52.79075],[-1.65597,52.79069]]]]}},
{ "type":"Feature","properties":{"osm_way_id":"87547000","building":"warehouse","other":{"addr:city":"Burton-on-Trent","addr:postcode":"DE14 3FN"}}, "geometry":{"type":"MultiPolygon","coordinates":[[[[-1.65596,52.79047],[-1.65423,52.79054],[-1.65406,52.78897],[-1.6558,52.78891],[-1.65596,52.79047]]]]}},
{ "type":"Feature","properties":{"osm_way_id":"87547001","building":"warehouse"},"geometry":{"type":"MultiPolygon","coordinates":[[[[-1.65315,52.79058],[-1.65138,52.79065],[-1.65121,52.78907],[-1.65298,52.789],[-1.65315,52.79058]]]]}},
{ "type":"Feature","properties":{"osm_way_id":"87547002","building":"warehouse"},"geometry":{"type":"MultiPolygon","coordinates":[[[[-1.6576,52.78947],[-1.65761,52.78963],[-1.65774,52.78962],[-1.6578,52.79032],[-1.6577,52.79032],[-1.65771,52.7905],[-1.6562,52.79055],[-1.65611,52.78952],[-1.6576,52.78947]]]]}},
{ "type":"Feature","properties":{"osm_way_id":"181896135","name":"DHL Tradeteam","building":"warehouse","other":{"addr:city":"Burton-on-Trent","addr:postcode":"DE14 2WT","addr:street":"Fourth Avenue","fhrs:id":"1248141"}}, "geometry":{"type":"MultiPolygon","coordinates":[[[[-1.66127,52.80071],[-1.66372,52.79921],[-1.66393,52.79933],[-1.66408,52.79924],[-1.66541,52.80003],[-1.66528,52.80011],[-1.66548,52.80023],[-1.66313,52.80166],[-1.66298,52.80157],[-1.66283,52.80166],[-1.66178,52.80103],[-1.66158,52.80115],[-1.66128,52.80096],[-1.66148,52.80084],[-1.66127,52.80071]]]]}},
{ "type":"Feature","properties":{"osm_way_id":"239732303","name":"Boots","building":"warehouse","other":{"addr:city":"Burton-on-Trent","addr:postcode":"DE14 2WA","addr:street":"Seventh Avenue","fhrs:id":"1247865"}}, "geometry":{"type":"MultiPolygon","coordinates":[[[[-1.66358,52.79774],[-1.66372,52.79763],[-1.66388,52.79771],[-1.66347,52.79804],[-1.66337,52.798],[-1.66168,52.79935],[-1.65939,52.7983],[-1.66136,52.79672],[-1.66142,52.79675],[-1.6615,52.79669],[-1.66174,52.79679],[-1.66165,52.79686],[-1.66358,52.79774]]]]}},
{ "type":"Feature","properties":{"osm_way_id":"239732327","name":"Holland & Barrett","building":"warehouse","other":{"addr:city":"Burton-on-Trent","addr:postcode":"DE14 2WP","addr:street":"Sixth Avenue","old_fhrs:id":"388304"}}, "geometry":{"type":"MultiPolygon","coordinates":[[[[-1.66123,52.79979],[-1.6611,52.7999],[-1.6612,52.79996],[-1.66097,52.80015],[-1.66102,52.80018],[-1.66095,52.80024],[-1.66089,52.80022],[-1.66051,52.80052],[-1.65876,52.79972],[-1.65862,52.79984],[-1.65812,52.79961],[-1.65826,52.79949],[-1.65793,52.79934],[-1.65878,52.79866],[-1.66123,52.79979]]]]}},
{ "type":"Feature","properties":{"osm_way_id":"239732392","name":"Palletforce","building":"warehouse","other":{"addr:city":"Burton-on-Trent","addr:postcode":"DE14 2SY","addr:street":"Callister Way","phone":"+44 8450 944441","website":"http:\/\/www.palletforce.com\/"}}, "geometry":{"type":"MultiPolygon","coordinates":[[[[-1.66438,52.80508],[-1.66181,52.80416],[-1.66313,52.80283],[-1.66547,52.80367],[-1.66554,52.80359],[-1.6659,52.80372],[-1.66564,52.80398],[-1.66551,52.80394],[-1.66438,52.80508]]]]}},
{ "type":"Feature","properties":{"osm_way_id":"239732394","name":"Waterstones Book Hub","building":"warehouse"},"geometry":{"type":"MultiPolygon","coordinates":[[[[-1.65691,52.80492],[-1.65564,52.80433],[-1.6569,52.80334],[-1.65714,52.80345],[-1.65771,52.80371],[-1.6578,52.80365],[-1.65817,52.80382],[-1.65831,52.80389],[-1.65812,52.80403],[-1.65806,52.80401],[-1.65691,52.80492]]]]}},
{ "type":"Feature","properties":{"osm_way_id":"274840567","name":"Premier Self Storage","building":"warehouse"},"geometry":{"type":"MultiPolygon","coordinates":[[[[-1.65556,52.79904],[-1.65528,52.79928],[-1.65505,52.79918],[-1.65519,52.79906],[-1.65491,52.79894],[-1.65505,52.79882],[-1.65556,52.79904]]]]}},
{ "type":"Feature","properties":{"osm_way_id":"274840573","name":"Clipper","building":"warehouse","other":{"addr:city":"Burton-on-Trent","addr:postcode":"DE14 2DW","company":"distribution_centre"}}, "geometry":{"type":"MultiPolygon","coordinates":[[[[-1.65215,52.80124],[-1.65065,52.80057],[-1.65262,52.79896],[-1.65413,52.79963],[-1.65409,52.79966],[-1.65346,52.80018],[-1.65359,52.80023],[-1.65294,52.80076],[-1.65281,52.8007],[-1.65215,52.80124]]]]}},
{ "type":"Feature","properties":{"osm_way_id":"550519902","building":"warehouse"},"geometry":{"type":"MultiPolygon","coordinates":[[[[-1.80038,52.86588],[-1.80029,52.86576],[-1.80002,52.86585],[-1.80012,52.86596],[-1.80038,52.86588]]]]}},
{ "type":"Feature","properties":{"osm_way_id":"550519903","building":"warehouse"},"geometry":{"type":"MultiPolygon","coordinates":[[[[-1.80082,52.86575],[-1.80074,52.86566],[-1.80157,52.86539],[-1.80164,52.86548],[-1.80082,52.86575]]]]}},
{ "type":"Feature","properties":{"osm_way_id":"550519904","building":"warehouse"},"geometry":{"type":"MultiPolygon","coordinates":[[[[-1.80182,52.86588],[-1.80173,52.86577],[-1.80129,52.8659],[-1.80138,52.86602],[-1.80182,52.86588]]]]}},
{ "type":"Feature","properties":{"osm_way_id":"550519906","building":"warehouse"},"geometry":{"type":"MultiPolygon","coordinates":[[[[-1.80303,52.86771],[-1.80274,52.86781],[-1.80226,52.86726],[-1.80255,52.86716],[-1.80303,52.86771]]]]}},
{ "type":"Feature","properties":{"osm_way_id":"550519910","building":"warehouse"},"geometry":{"type":"MultiPolygon","coordinates":[[[[-1.80283,52.86837],[-1.80163,52.86877],[-1.80145,52.86857],[-1.80267,52.86818],[-1.80283,52.86837]]]]}},
{ "type":"Feature","properties":{"osm_way_id":"550519911","building":"warehouse"},"geometry":{"type":"MultiPolygon","coordinates":[[[[-1.80356,52.86835],[-1.80315,52.86849],[-1.80302,52.86835],[-1.80343,52.86821],[-1.80356,52.86835]]]]}},
{ "type":"Feature","properties":{"osm_way_id":"550519912","building":"warehouse"},"geometry":{"type":"MultiPolygon","coordinates":[[[[-1.79986,52.86697],[-1.79957,52.86707],[-1.79935,52.86682],[-1.79965,52.86672],[-1.79986,52.86697]]]]}},
{ "type":"Feature","properties":{"osm_way_id":"550519916","building":"warehouse"},"geometry":{"type":"MultiPolygon","coordinates":[[[[-1.80265,52.86891],[-1.80286,52.86884],[-1.80343,52.86948],[-1.80322,52.86954],[-1.80265,52.86891]]]]}},
{ "type":"Feature","properties":{"osm_way_id":"550519917","building":"warehouse"},"geometry":{"type":"MultiPolygon","coordinates":[[[[-1.80246,52.86897],[-1.80265,52.86891],[-1.80322,52.86954],[-1.80304,52.8696],[-1.80246,52.86897]]]]}},
{ "type":"Feature","properties":{"osm_way_id":"550519918","building":"warehouse"},"geometry":{"type":"MultiPolygon","coordinates":[[[[-1.80226,52.86903],[-1.80246,52.86897],[-1.80304,52.8696],[-1.80285,52.86967],[-1.80226,52.86903]]]]}},
{ "type":"Feature","properties":{"osm_way_id":"550519919","building":"warehouse"},"geometry":{"type":"MultiPolygon","coordinates":[[[[-1.80208,52.86909],[-1.80226,52.86903],[-1.80285,52.86967],[-1.80266,52.86973],[-1.80208,52.86909]]]]}},
{ "type":"Feature","properties":{"osm_way_id":"550519920","name":"Saleroom 15","building":"warehouse"},"geometry":{"type":"MultiPolygon","coordinates":[[[[-1.80188,52.86916],[-1.80208,52.86909],[-1.80266,52.86973],[-1.80247,52.86979],[-1.80188,52.86916]]]]}},
{ "type":"Feature","properties":{"osm_way_id":"550519921","building":"warehouse"},"geometry":{"type":"MultiPolygon","coordinates":[[[[-1.8017,52.86922],[-1.80188,52.86916],[-1.80247,52.86979],[-1.80228,52.86986],[-1.8017,52.86922]]]]}},
{ "type":"Feature","properties":{"osm_way_id":"550519922","building":"warehouse"},"geometry":{"type":"MultiPolygon","coordinates":[[[[-1.8015,52.86928],[-1.8017,52.86922],[-1.80228,52.86986],[-1.80209,52.86992],[-1.8015,52.86928]]]]}},
{ "type":"Feature","properties":{"osm_way_id":"550519923","name":"Saleroom 19","building":"warehouse"},"geometry":{"type":"MultiPolygon","coordinates":[[[[-1.80188,52.86998],[-1.80131,52.86935],[-1.8015,52.86928],[-1.80209,52.86992],[-1.80188,52.86998]]]]}},
{ "type":"Feature","properties":{"osm_way_id":"550519927","building":"warehouse"},"geometry":{"type":"MultiPolygon","coordinates":[[[[-1.80396,52.86847],[-1.80415,52.86841],[-1.80472,52.86905],[-1.80453,52.86911],[-1.80396,52.86847]]]]}},
{ "type":"Feature","properties":{"osm_way_id":"550519928","building":"warehouse"},"geometry":{"type":"MultiPolygon","coordinates":[[[[-1.80376,52.86854],[-1.80396,52.86847],[-1.80453,52.86911],[-1.80434,52.86917],[-1.80376,52.86854]]]]}},
{ "type":"Feature","properties":{"osm_way_id":"550519929","building":"warehouse"},"geometry":{"type":"MultiPolygon","coordinates":[[[[-1.80358,52.8686],[-1.80376,52.86854],[-1.80434,52.86917],[-1.80415,52.86924],[-1.80358,52.8686]]]]}},
{ "type":"Feature","properties":{"osm_way_id":"550519930","building":"warehouse"},"geometry":{"type":"MultiPolygon","coordinates":[[[[-1.8034,52.86867],[-1.80358,52.8686],[-1.80415,52.86924],[-1.80395,52.8693],[-1.8034,52.86867]]]]}},
{ "type":"Feature","properties":{"osm_way_id":"550519931","building":"warehouse"},"geometry":{"type":"MultiPolygon","coordinates":[[[[-1.80321,52.86873],[-1.8034,52.86867],[-1.80395,52.8693],[-1.80376,52.86936],[-1.80321,52.86873]]]]}},
{ "type":"Feature","properties":{"osm_way_id":"550519932","building":"warehouse"},"geometry":{"type":"MultiPolygon","coordinates":[[[[-1.80357,52.86942],[-1.803,52.8688],[-1.80321,52.86873],[-1.80376,52.86936],[-1.80357,52.86942]]]]}},
{ "type":"Feature","properties":{"osm_way_id":"551688080","building":"warehouse"},"geometry":{"type":"MultiPolygon","coordinates":[[[[-1.80099,52.86922],[-1.79994,52.86956],[-1.79983,52.86944],[-1.80089,52.8691],[-1.80099,52.86922]]]]}},
{ "type":"Feature","properties":{"osm_way_id":"551688081","building":"warehouse"},"geometry":{"type":"MultiPolygon","coordinates":[[[[-1.80109,52.86934],[-1.80004,52.86968],[-1.79994,52.86956],[-1.80099,52.86922],[-1.80109,52.86934]]]]}},
{ "type":"Feature","properties":{"osm_way_id":"551688082","building":"warehouse"},"geometry":{"type":"MultiPolygon","coordinates":[[[[-1.80119,52.86945],[-1.80015,52.8698],[-1.80004,52.86968],[-1.80109,52.86934],[-1.80119,52.86945]]]]}},
{ "type":"Feature","properties":{"osm_way_id":"551688083","building":"warehouse"},"geometry":{"type":"MultiPolygon","coordinates":[[[[-1.80131,52.86956],[-1.80025,52.86991],[-1.80015,52.8698],[-1.80119,52.86945],[-1.80131,52.86956]]]]}},
{ "type":"Feature","properties":{"osm_way_id":"551688085","building":"warehouse"},"geometry":{"type":"MultiPolygon","coordinates":[[[[-1.8014,52.86968],[-1.80036,52.87002],[-1.80025,52.86991],[-1.80131,52.86956],[-1.8014,52.86968]]]]}},
{ "type":"Feature","properties":{"osm_way_id":"551688087","building":"warehouse"},"geometry":{"type":"MultiPolygon","coordinates":[[[[-1.80151,52.8698],[-1.80046,52.87014],[-1.80036,52.87002],[-1.8014,52.86968],[-1.80151,52.8698]]]]}},
{ "type":"Feature","properties":{"osm_way_id":"551688090","building":"warehouse"},"geometry":{"type":"MultiPolygon","coordinates":[[[[-1.80162,52.86991],[-1.80056,52.87026],[-1.80046,52.87014],[-1.80151,52.8698],[-1.80162,52.86991]]]]}},
{ "type":"Feature","properties":{"osm_way_id":"551688091","building":"warehouse"},"geometry":{"type":"MultiPolygon","coordinates":[[[[-1.80174,52.87003],[-1.80067,52.87037],[-1.80056,52.87026],[-1.80162,52.86991],[-1.80174,52.87003]]]]}},
{ "type":"Feature","properties":{"osm_way_id":"551688093","building":"warehouse"},"geometry":{"type":"MultiPolygon","coordinates":[[[[-1.80021,52.8701],[-1.79919,52.87043],[-1.79909,52.87032],[-1.80011,52.86999],[-1.80021,52.8701]]]]}},
{ "type":"Feature","properties":{"osm_way_id":"551688095","building":"warehouse"},"geometry":{"type":"MultiPolygon","coordinates":[[[[-1.80031,52.87021],[-1.79928,52.87054],[-1.79919,52.87043],[-1.80021,52.8701],[-1.80031,52.87021]]]]}},
{ "type":"Feature","properties":{"osm_way_id":"551688097","building":"warehouse"},"geometry":{"type":"MultiPolygon","coordinates":[[[[-1.80041,52.87032],[-1.79939,52.87065],[-1.79928,52.87054],[-1.80031,52.87021],[-1.80041,52.87032]]]]}},
{ "type":"Feature","properties":{"osm_way_id":"551688099","building":"warehouse"},"geometry":{"type":"MultiPolygon","coordinates":[[[[-1.80052,52.87044],[-1.79949,52.87076],[-1.79939,52.87065],[-1.80041,52.87032],[-1.80052,52.87044]]]]}},
{ "type":"Feature","properties":{"osm_way_id":"709892737","building":"warehouse"},"geometry":{"type":"MultiPolygon","coordinates":[[[[-1.66769,52.8022],[-1.66652,52.80295],[-1.66662,52.803],[-1.66635,52.80318],[-1.66605,52.80301],[-1.66615,52.80294],[-1.66444,52.80196],[-1.66578,52.8011],[-1.66769,52.8022]]]]}},
{ "type":"Feature","properties":{"osm_way_id":"1028517700","name":"Molson Coors","building":"warehouse","other":{"addr:city":"Burton-on-Trent","addr:housenumber":"328","addr:postcode":"DE14 1SP","addr:street":"Wetmore Road"}}, "geometry":{"type":"MultiPolygon","coordinates":[[[[-1.62473,52.80895],[-1.62471,52.80873],[-1.62533,52.80871],[-1.62534,52.80893],[-1.62473,52.80895]]]]}}
]
}
