{
"type": "FeatureCollection",
"features": [
{ "type":"Feature","properties":{"osm_id":"492868972","name":"Co-op Food","other":{"addr:city":"Burton-on-Trent","addr:postcode":"DE13 0LB","addr:street":"James Brindley Way","brand":"Co-op Food","brand:wikidata":"Q3277439","brand:wikipedia":"en:Co-op Food","fhrs:id":"1248356","operator":"Tamworth Co-operative Society","shop":"supermarket"}}, "geometry":{"type":"Point","coordinates":[-1.62012,52.83099 ]}},
{ "type":"Feature","properties":{"osm_id":"3253807844","name":"Asda","other":{"addr:city":"Uttoxeter","addr:country":"GB","addr:housename":"Carter Square","addr:postcode":"ST14 7FN","addr:street":"Carter Street","addr:unit":"1","alt_name":"Asda Uttoxeter Supermarket","brand":"Asda","brand:wikidata":"Q297410","brand:wikipedia":"en:Asda","contact:facebook":"https:\/\/www.facebook.com\/asda\/","contact:twitter":"@asda","contact:website":"https:\/\/storelocator.asda.com\/west-midlands\/uttoxeter\/carter-square-unit-1-carter-street","fhrs:id":"1247960","not:addr:postcode":"ST14 7LG","operator":"Asda Stores Ltd","shop":"supermarket"}}, "geometry":{"type":"Point","coordinates":[-1.86704,52.89924 ]}},
{ "type":"Feature","properties":{"osm_id":"3268802101","name":"FreshCo","other":{"addr:city":"Burton-on-Trent","addr:housename":"Unit 3","addr:housenumber":"12","addr:postcode":"DE14 3QZ","addr:street":"Lichfield Street","brand":"FreshCo","brand:wikidata":"Q5502915","brand:wikipedia":"en:FreshCo","fhrs:id":"1247933","shop":"supermarket"}}, "geometry":{"type":"Point","coordinates":[-1.63226,52.80021 ]}},
{ "type":"Feature","properties":{"osm_id":"3280394218","name":"Co-op Food","other":{"addr:housenumber":"39","addr:postcode":"DE13 9DN","addr:street":"Burnside","brand":"Co-op Food","brand:wikidata":"Q3277439","brand:wikipedia":"en:Co-op Food","fhrs:id":"1248546","operator":"Central England Co-operative Society","shop":"supermarket"}}, "geometry":{"type":"Point","coordinates":[-1.65123,52.84411 ]}},
{ "type":"Feature","properties":{"osm_id":"9186680125","name":"Lidl","other":{"addr:city":"Uttoxeter","addr:country":"GB","addr:postcode":"ST14 8AT","addr:street":"Brookside Road","brand":"Lidl","brand:wikidata":"Q151954","brand:wikipedia":"en:Lidl","fhrs:id":"1361741","shop":"supermarket","start_date":"2021-10-21"}}, "geometry":{"type":"Point","coordinates":[-1.85963,52.89744 ]}},
{ "type":"Feature","properties":{"osm_way_id":"55344244","name":"Tesco","building":"yes","shop":"supermarket","other":{"addr:city":"Burton-on-Trent","addr:postcode":"DE14 3RJ","addr:street":"Saint Peter's Bridge","brand":"Tesco","brand:wikidata":"Q487494","brand:wikipedia":"en:Tesco","fhrs:id":"1248577","old_fhrs:id":"388290","operator":"Tesco"}}, "geometry":{"type":"MultiPolygon","coordinates":[[[[-1.63481,52.79661],[-1.63431,52.79706],[-1.63419,52.79702],[-1.63411,52.79709],[-1.63335,52.79678],[-1.63391,52.79629],[-1.63403,52.79634],[-1.63411,52.79627],[-1.63465,52.79649],[-1.63461,52.79653],[-1.63481,52.79661]]]]}},
{ "type":"Feature","properties":{"osm_way_id":"60094719","name":"Morrisons","building":"yes","shop":"supermarket","other":{"addr:city":"Burton-on-Trent","addr:housename":"Morrisons","addr:housenumber":"113-129","addr:postcode":"DE14 2AR","addr:street":"Clays Lane","brand":"Morrisons","brand:wikidata":"Q922344","brand:wikipedia":"en:Morrisons","fhrs:id":"1248556","old_fhrs:id":"387612","operator":"Morrisons"}}, "geometry":{"type":"MultiPolygon","coordinates":[[[[-1.66373,52.79436],[-1.66271,52.79493],[-1.66243,52.79493],[-1.66233,52.79486],[-1.66222,52.79494],[-1.66192,52.79476],[-1.66206,52.79468],[-1.66182,52.79453],[-1.66193,52.79446],[-1.66188,52.79443],[-1.66292,52.79383],[-1.66297,52.79387],[-1.66294,52.79388],[-1.66343,52.7942],[-1.66345,52.79419],[-1.66373,52.79436]]]]}},
{ "type":"Feature","properties":{"osm_way_id":"226521993","name":"Asda","building":"yes","shop":"supermarket","other":{"addr:city":"Burton-on-Trent","addr:country":"GB","addr:postcode":"DE14 3QJ","addr:street":"Orchard Street","brand":"Asda","brand:wikidata":"Q297410","brand:wikipedia":"en:Asda","contact:facebook":"https:\/\/www.facebook.com\/asda\/","contact:twitter":"@asda","contact:website":"https:\/\/storelocator.asda.com\/west-midlands\/burton-on-trent\/octagon-centre-orchard-street","fhrs:id":"1247980","not:addr:postcode":"DE14 3SJ","operator":"Asda Stores Ltd","toilets":"yes","toilets:access":"customers","toilets:wheelchair":"yes","wheelchair":"yes"}}, "geometry":{"type":"MultiPolygon","coordinates":[[[[-1.63613,52.79973],[-1.63582,52.8003],[-1.63567,52.80035],[-1.63568,52.80034],[-1.63504,52.80019],[-1.63506,52.80016],[-1.6349,52.80013],[-1.63478,52.8001],[-1.63479,52.80008],[-1.63492,52.79987],[-1.63488,52.79987],[-1.63493,52.7998],[-1.63496,52.7998],[-1.63505,52.79967],[-1.63487,52.79964],[-1.63491,52.79958],[-1.63495,52.79952],[-1.63533,52.79961],[-1.63537,52.79955],[-1.63613,52.79973]]]]}},
{ "type":"Feature","properties":{"osm_way_id":"274447041","name":"Lidl","building":"shop","shop":"supermarket","other":{"addr:city":"Burton-on-Trent","addr:housenumber":"212-217","addr:postcode":"DE14 2LJ","addr:street":"Derby Street","brand":"Lidl","brand:wikidata":"Q151954","brand:wikipedia":"en:Lidl","fhrs:id":"1248101"}}, "geometry":{"type":"MultiPolygon","coordinates":[[[[-1.64211,52.80841],[-1.6412,52.80813],[-1.64128,52.80804],[-1.64133,52.80806],[-1.64145,52.80793],[-1.64206,52.80812],[-1.64209,52.80808],[-1.64233,52.80816],[-1.64211,52.80841]]]]}},
{ "type":"Feature","properties":{"osm_way_id":"274836954","name":"Sainsbury's","building":"yes","shop":"supermarket","other":{"addr:city":"Burton-on-Trent","addr:postcode":"DE14 1AA","addr:street":"Union Street","brand":"Sainsbury's","brand:wikidata":"Q152096","brand:wikipedia":"en:Sainsbury's","fhrs:id":"1248134","toilets:wheelchair":"yes","website":"https:\/\/stores.sainsburys.co.uk\/0527\/burton-on-trent","wheelchair":"yes"}}, "geometry":{"type":"MultiPolygon","coordinates":[[[[-1.63541,52.80447],[-1.63459,52.80424],[-1.63466,52.80415],[-1.63449,52.8041],[-1.63456,52.804],[-1.6346,52.80401],[-1.63496,52.80356],[-1.63591,52.80383],[-1.63582,52.80394],[-1.63589,52.80396],[-1.63586,52.804],[-1.63598,52.80403],[-1.63593,52.8041],[-1.63574,52.80405],[-1.63541,52.80447]]]]}},
{ "type":"Feature","properties":{"osm_way_id":"318104407","name":"The Co-operative Food","building":"yes","shop":"supermarket","other":{"addr:city":"Burton-on-Trent","addr:housenumber":"98","addr:postcode":"DE15 0HR","addr:street":"Church Hill Street","addr:suburb":"Winshill","fhrs:id":"1247874","old_fhrs:id":"387740","operator":"Central England Co-operative"}}, "geometry":{"type":"MultiPolygon","coordinates":[[[[-1.60241,52.80862],[-1.6025,52.80857],[-1.60254,52.80856],[-1.60257,52.80856],[-1.6026,52.80857],[-1.60272,52.80865],[-1.60257,52.80873],[-1.60241,52.80862]]]]}},
{ "type":"Feature","properties":{"osm_way_id":"318104557","name":"Co-op Food","building":"yes","shop":"supermarket","other":{"addr:city":"Burton-on-Trent","addr:housenumber":"229","addr:postcode":"DE15 9EJ","addr:street":"Woods Lane","brand":"Co-op Food","brand:wikidata":"Q3277439","brand:wikipedia":"en:Co-op Food","fhrs:id":"1247993","operator":"Central England Co-operative"}}, "geometry":{"type":"MultiPolygon","coordinates":[[[[-1.61965,52.79451],[-1.61962,52.79465],[-1.61924,52.79462],[-1.61926,52.79448],[-1.61965,52.79451]]]]}},
{ "type":"Feature","properties":{"osm_way_id":"318970472","name":"Co-op Food","building":"yes","shop":"supermarket","other":{"addr:housenumber":"21-27","addr:postcode":"ST14 7LN","addr:street":"The Maltings","alt_name":"Central England Co-operative Food","brand":"Co-op Food","brand:wikidata":"Q3277439","brand:wikipedia":"en:Co-op Food","operator":"Central England Co-operative Society"}}, "geometry":{"type":"MultiPolygon","coordinates":[[[[-1.86464,52.90015],[-1.86446,52.89967],[-1.86409,52.89972],[-1.86404,52.89979],[-1.8641,52.89993],[-1.86416,52.89992],[-1.86428,52.90019],[-1.86464,52.90015]]]]}},
{ "type":"Feature","properties":{"osm_way_id":"318970475","name":"Tesco","building":"yes","shop":"supermarket","other":{"addr:city":"Uttoxeter","addr:postcode":"ST14 8AZ","addr:street":"Brookside Road","brand":"Tesco","brand:wikidata":"Q487494","brand:wikipedia":"en:Tesco","fhrs:id":"1247752"}}, "geometry":{"type":"MultiPolygon","coordinates":[[[[-1.85849,52.89941],[-1.85842,52.89922],[-1.85849,52.89922],[-1.85846,52.89913],[-1.85839,52.89914],[-1.85813,52.89843],[-1.85745,52.89852],[-1.85756,52.89883],[-1.85744,52.89884],[-1.85749,52.89897],[-1.85758,52.89904],[-1.85744,52.89911],[-1.85785,52.8994],[-1.85793,52.89939],[-1.85796,52.89948],[-1.85849,52.89941]]]]}},
{ "type":"Feature","properties":{"osm_way_id":"321296006","name":"The Co-operative Food","building":"yes","shop":"supermarket","other":{"addr:city":"Burton-on-Trent","addr:postcode":"DE13 0SY","addr:street":"Horninglow Road North","brand":"The Co-operative Food","not:brand:wikidata":"Q107617274","old_fhrs:id":"999906","operator":"Central England Co-operative"}}, "geometry":{"type":"MultiPolygon","coordinates":[[[[-1.64693,52.82443],[-1.6464,52.82441],[-1.64641,52.82427],[-1.64694,52.82428],[-1.64693,52.82443]]]]}},
{ "type":"Feature","properties":{"osm_way_id":"415002066","name":"Waitrose","building":"supermarket","shop":"supermarket","other":{"addr:city":"Uttoxeter","addr:postcode":"ST14 8FA","addr:street":"Trinity Road","brand":"Waitrose","brand:wikidata":"Q771734","brand:wikipedia":"en:Waitrose","fhrs:id":"1248039","official_name":"Waitrose & Partners","operator":"Waitrose & Partners"}}, "geometry":{"type":"MultiPolygon","coordinates":[[[[-1.861,52.89666],[-1.86109,52.89681],[-1.86114,52.89685],[-1.86126,52.89692],[-1.86125,52.89693],[-1.86167,52.89717],[-1.86171,52.89718],[-1.86177,52.89718],[-1.86194,52.8971],[-1.86189,52.89705],[-1.86231,52.89687],[-1.86221,52.89678],[-1.86225,52.89677],[-1.8622,52.89672],[-1.86215,52.89674],[-1.8619,52.89654],[-1.86135,52.89677],[-1.86115,52.8966],[-1.861,52.89666]]]]}},
{ "type":"Feature","properties":{"osm_way_id":"434733362","name":"Co-op Food","building":"yes","shop":"supermarket","other":{"addr:city":"Burton-on-Trent","addr:housenumber":"24","addr:postcode":"DE13 0EA","addr:street":"Main Street","addr:suburb":"Stretton","brand":"Co-op Food","brand:wikidata":"Q3277439","brand:wikipedia":"en:Co-op Food","fhrs:id":"1247710","operator":"Central England Co-operative"}}, "geometry":{"type":"MultiPolygon","coordinates":[[[[-1.62869,52.8329],[-1.62875,52.83255],[-1.62835,52.83253],[-1.62832,52.83273],[-1.62826,52.83272],[-1.62824,52.83284],[-1.62859,52.83286],[-1.62859,52.83289],[-1.62869,52.8329]]]]}},
{ "type":"Feature","properties":{"osm_way_id":"717477296","name":"Co-op Food","landuse":"retail","shop":"supermarket","other":{"addr:city":"Burton-on-Trent","addr:postcode":"DE13 0EN","addr:street":"Princess Way","brand":"Co-op Food","brand:wikidata":"Q3277439","brand:wikipedia":"en:Co-op Food","fhrs:id":"1248181","operator":"Central England Co-operative Society"}}, "geometry":{"type":"MultiPolygon","coordinates":[[[[-1.62893,52.82225],[-1.62947,52.82219],[-1.62946,52.82214],[-1.62941,52.8219],[-1.62948,52.82189],[-1.62945,52.82167],[-1.62945,52.82165],[-1.62925,52.82169],[-1.62908,52.82163],[-1.62883,52.82164],[-1.62883,52.82168],[-1.62873,52.82168],[-1.62887,52.82191],[-1.62893,52.82225]]]]}}
]
}
