{
"type": "FeatureCollection",
"features": [
{ "type":"Feature","properties":{"osm_way_id":"86164785","name":"LIDL","building":"yes","shop":"supermarket","other":{"addr:city":"Norwich","addr:country":"GB","addr:postcode":"NR30 5JL","addr:street":"Norwich Road","alt_name":"LIDL Caister-On-Sea","brand":"Lidl","brand:wikidata":"Q151954","fhrs:id":"814372","operator":"Lidl"}}, "geometry":{"type":"MultiPolygon","coordinates":[[[[1.72432,52.64824],[1.72467,52.64837],[1.72423,52.64882],[1.72389,52.6487],[1.72432,52.64824]]]]}},
{ "type":"Feature","properties":{"osm_way_id":"175606748","name":"Sainsbury's","building":"yes","shop":"supermarket","other":{"addr:city":"Great Yarmouth","addr:postcode":"NR30 1NN","addr:street":"St Nicholas Road","brand":"Sainsbury's","brand:wikidata":"Q152096","brand:wikipedia":"en:Sainsbury's","fhrs:id":"843905","source:addr":"FHRS Open Data"}}, "geometry":{"type":"MultiPolygon","coordinates":[[[[1.72976,52.61051],[1.72976,52.61023],[1.72981,52.61023],[1.73025,52.61023],[1.73066,52.61023],[1.73066,52.61027],[1.73086,52.61027],[1.73085,52.61096],[1.7303,52.61095],[1.73004,52.6111],[1.72991,52.61103],[1.72992,52.61095],[1.72989,52.61095],[1.72989,52.61091],[1.72987,52.61091],[1.72987,52.61083],[1.7299,52.61083],[1.72991,52.61051],[1.72976,52.61051]]]]}},
{ "type":"Feature","properties":{"osm_way_id":"175895742","name":"ALDI","building":"yes","shop":"supermarket","other":{"addr:city":"Great Yarmouth","addr:postcode":"NR30 1JT","addr:street":"North Quay","brand":"ALDI","brand:wikidata":"Q41171672","brand:wikipedia":"en:Aldi","fhrs:id":"635357","source:addr":"FHRS Open Data"}}, "geometry":{"type":"MultiPolygon","coordinates":[[[[1.72353,52.61059],[1.72281,52.61075],[1.72294,52.61097],[1.72296,52.61097],[1.72298,52.61099],[1.72317,52.61095],[1.72315,52.61092],[1.7236,52.61083],[1.72353,52.61071],[1.72359,52.6107],[1.72353,52.61059]]]]}},
{ "type":"Feature","properties":{"osm_way_id":"175903182","name":"Asda","building":"yes","shop":"supermarket","other":{"brand":"Asda","fhrs:id":"622032","operator":"Asda Stores Ltd","addr:city":"Great Yarmouth","wheelchair":"yes","addr:street":"Acle New Road","addr:country":"GB","addr:postcode":"NR30 1SF","contact:phone":"+44 1493 330272","opening_hours":"Mo 07:30-24:00; Tu-Fr 00:00-24:00; Sa 00:00-22:00; Su 10:00-16:00","brand:wikidata":"Q297410","brand:wikipedia":"en:Asda","contact:twitter":"@asda","contact:website":"https:\/\/storelocator.asda.com\/east-of-england\/great-yarmouth\/acle-new-road-runham-vauxhall","contact:facebook":"https:\/\/www.facebook.com\/asda\/","opening_hours:covid19":"Mo-Sa 08:00-22:00; Su 10:00-16:00"}}, "geometry":{"type":"MultiPolygon","coordinates":[[[[1.71823,52.61382],[1.71772,52.61325],[1.71868,52.61294],[1.71864,52.6129],[1.71895,52.6128],[1.71898,52.61284],[1.71917,52.61278],[1.71967,52.61334],[1.71936,52.61343],[1.71919,52.61349],[1.71926,52.61357],[1.71932,52.61357],[1.71928,52.61372],[1.71884,52.61387],[1.71867,52.61368],[1.71823,52.61382]]]]}},
{ "type":"Feature","properties":{"osm_way_id":"179346570","name":"Lidl","building":"yes","shop":"supermarket","other":{"addr:city":"Great Yarmouth","addr:postcode":"NR31 0DW","addr:street":"Pasteur Road","brand":"Lidl","brand:wikidata":"Q151954","brand:wikipedia":"en:Lidl","fhrs:id":"814376","source:addr":"FHRS Open Data"}}, "geometry":{"type":"MultiPolygon","coordinates":[[[[1.71972,52.60393],[1.71965,52.60397],[1.71904,52.60428],[1.71936,52.60451],[1.71957,52.6044],[1.71952,52.60436],[1.71993,52.60416],[1.71977,52.60404],[1.71982,52.60401],[1.71972,52.60393]]]]}},
{ "type":"Feature","properties":{"osm_way_id":"179412963","name":"Tesco Extra","building":"yes","shop":"supermarket","other":{"addr:city":"Great Yarmouth","addr:country":"GB","addr:postcode":"NR31 0DW","addr:street":"Pasteur Road","brand":"Tesco Extra","brand:wikidata":"Q25172225","brand:wikipedia":"en:Tesco Extra","contact:website":"https:\/\/www.tesco.com\/store-locator\/great-yarmouth\/pasteur-rd","opening_hours":"Mo-Sa 00:00-24:00; Su 10:00-16:00","operator":"Tesco Stores Ltd"}}, "geometry":{"type":"MultiPolygon","coordinates":[[[[1.71481,52.60393],[1.71454,52.60393],[1.71455,52.60381],[1.71363,52.60379],[1.71364,52.60375],[1.7134,52.60374],[1.71342,52.60346],[1.71343,52.60323],[1.71339,52.60323],[1.7134,52.60305],[1.71491,52.60309],[1.7149,52.60327],[1.71486,52.60327],[1.71481,52.60393]]]]}},
{ "type":"Feature","properties":{"osm_way_id":"179426963","name":"M&S Foodhall","building":"retail","shop":"supermarket","other":{"addr:city":"Great Yarmouth","addr:housenumber":"Unit G","addr:parentstreet":"Gapton Hall Road","addr:postcode":"NR31 0LZ","addr:street":"Purley Court","brand":"M&S Foodhall","brand:wikidata":"Q714491","brand:wikipedia":"en:Marks & Spencer","opening_hours":"Mo-Sa 08:00-20:00; Su 10:30-16:30","operator":"Marks & Spencer"}}, "geometry":{"type":"MultiPolygon","coordinates":[[[[1.71126,52.59769],[1.71123,52.59749],[1.71059,52.59752],[1.71061,52.59772],[1.71126,52.59769]]]]}},
{ "type":"Feature","properties":{"osm_way_id":"179426974","name":"The Food Warehouse by Iceland","building":"retail","shop":"supermarket","other":{"addr:city":"Great Yarmouth","addr:parentstreet":"Gapton Hall Road","addr:postcode":"NR31 0LZ","addr:street":"Purley Court","brand":"The Food Warehouse","brand:wikidata":"Q87263899"}}, "geometry":{"type":"MultiPolygon","coordinates":[[[[1.71078,52.59811],[1.71075,52.59792],[1.71129,52.5979],[1.71142,52.59789],[1.71144,52.59807],[1.71078,52.59811]]]]}},
{ "type":"Feature","properties":{"osm_way_id":"182241989","name":"Morrisons","building":"yes","shop":"supermarket","other":{"addr:city":"Great Yarmouth","addr:country":"GB","addr:postcode":"NR31 6SA","addr:street":"Blackwall Reach","addr:town":"Gorleston","brand":"Morrisons","brand:wikidata":"Q922344","brand:wikipedia":"en:Morrisons","fhrs:id":"839530","source:addr":"FHRS Open Data"}}, "geometry":{"type":"MultiPolygon","coordinates":[[[[1.72916,52.57848],[1.7289,52.57881],[1.72891,52.57896],[1.72955,52.57894],[1.72954,52.57882],[1.72989,52.57881],[1.72995,52.57877],[1.72993,52.57861],[1.72991,52.57845],[1.73,52.57844],[1.72999,52.57837],[1.72999,52.5783],[1.72999,52.57829],[1.72982,52.57829],[1.72981,52.5783],[1.72979,52.57831],[1.72916,52.57833],[1.72912,52.57837],[1.72913,52.57846],[1.72916,52.57848]]]]}},
{ "type":"Feature","properties":{"osm_way_id":"205624922","name":"The Co-operative Food","building":"supermarket","shop":"supermarket","other":{"website":"http:\/\/www.co-operativefood.co.uk\/","operator":"Central England Co-operative Society","addr:city":"Norwich","addr:street":"Burgh Road","addr:country":"GB","addr:postcode":"NR31 9ER"}}, "geometry":{"type":"MultiPolygon","coordinates":[[[[1.6987,52.5871],[1.69907,52.58712],[1.69909,52.58698],[1.69916,52.58699],[1.69919,52.58672],[1.69924,52.58672],[1.69924,52.5867],[1.69926,52.58656],[1.69903,52.58655],[1.69902,52.58663],[1.69863,52.58661],[1.69861,52.58675],[1.69864,52.58675],[1.69861,52.58703],[1.69871,52.58704],[1.6987,52.5871]]]]}},
{ "type":"Feature","properties":{"osm_way_id":"207477396","name":"Tesco","building":"yes","shop":"supermarket","other":{"addr:city":"Great Yarmouth","addr:country":"GB","addr:postcode":"NR30 5BT","addr:street":"Yarmouth Road","addr:village":"Caister-on-Sea","alt_name":"Tesco Great Yarmouth Caister Superstore","brand":"Tesco","brand:wikidata":"Q487494","brand:wikipedia":"en:Tesco","fhrs:id":"833810","not:addr:postcode":"NR30 5DL","operator":"Tesco Stores Ltd"}}, "geometry":{"type":"MultiPolygon","coordinates":[[[[1.72726,52.6408],[1.72724,52.6409],[1.72666,52.64087],[1.72666,52.64086],[1.72661,52.64085],[1.72663,52.64076],[1.72667,52.64076],[1.72668,52.64074],[1.72669,52.64074],[1.7267,52.64067],[1.72662,52.64067],[1.72667,52.64032],[1.72667,52.64029],[1.72732,52.64033],[1.72732,52.64034],[1.72732,52.64038],[1.72742,52.64038],[1.72741,52.64047],[1.7273,52.64047],[1.72726,52.6408]]]]}},
{ "type":"Feature","properties":{"osm_way_id":"217468046","name":"Co-op Daily","building":"yes","shop":"supermarket","other":{"addr:housenumber":"88","addr:postcode":"NR29 4QZ","addr:street":"Repps Road","addr:village":"Martham","alt_name":"Co-op Food Store, Repps Road","fhrs:id":"839529","operator":"East of England Co-operative Society"}}, "geometry":{"type":"MultiPolygon","coordinates":[[[[1.62492,52.7019],[1.62507,52.7017],[1.62532,52.70176],[1.62517,52.70197],[1.62492,52.7019]]]]}},
{ "type":"Feature","properties":{"osm_way_id":"219444883","name":"The Co-operative","building":"yes","shop":"supermarket","other":{"wheelchair":"yes"}}, "geometry":{"type":"MultiPolygon","coordinates":[[[[1.71506,52.57402],[1.71455,52.57401],[1.71451,52.57403],[1.71451,52.5741],[1.71448,52.57412],[1.71448,52.57417],[1.71451,52.57418],[1.71453,52.57436],[1.71479,52.57432],[1.71478,52.57414],[1.71513,52.57412],[1.71513,52.57409],[1.71507,52.57409],[1.71506,52.57402]]]]}},
{ "type":"Feature","properties":{"osm_way_id":"227969435","name":"Tesco Express","building":"yes","shop":"supermarket","other":{"addr:city":"Great Yarmouth","addr:housenumber":"20-22","addr:postcode":"NR31 8DF","addr:street":"Beccles Road","addr:village":"Bradwell","brand":"Tesco Express","brand:wikidata":"Q98456772","brand:wikipedia":"en:Tesco","fhrs:id":"843909","operator":"Tesco Stores Ltd","source:addr":"FHRS Open Data"}}, "geometry":{"type":"MultiPolygon","coordinates":[[[[1.70874,52.58093],[1.7085,52.58111],[1.70869,52.58119],[1.70892,52.58101],[1.70874,52.58093]]]]}},
{ "type":"Feature","properties":{"osm_way_id":"295166087","name":"East of England Co-op","building":"yes","shop":"supermarket","other":{"fhrs:id":"805137","alt_name":"Co-op Village Shop","addr:street":"The Green","addr:postcode":"NR29 4PA","addr:housenumber":"2"}}, "geometry":{"type":"MultiPolygon","coordinates":[[[[1.63359,52.70312],[1.63343,52.70291],[1.63359,52.70287],[1.63366,52.70298],[1.63371,52.70297],[1.63377,52.70306],[1.63373,52.7031],[1.63359,52.70312]]]]}},
{ "type":"Feature","properties":{"osm_way_id":"304386499","name":"Tesco Express","building":"yes","shop":"supermarket","other":{"addr:housenumber":"8","addr:postcode":"NR31 9LD","addr:street":"Bell Lane","addr:village":"Belton","brand":"Tesco Express","brand:wikidata":"Q98456772","brand:wikipedia":"en:Tesco","fhrs:id":"833804","operator":"Tesco Stores Ltd","source:addr":"FSA Food Hygiene Ratings Database"}}, "geometry":{"type":"MultiPolygon","coordinates":[[[[1.66534,52.56829],[1.66555,52.56827],[1.66563,52.56853],[1.66542,52.56855],[1.6654,52.56849],[1.66536,52.56835],[1.66534,52.56829]]]]}}
]
}
