{
"type": "FeatureCollection",
"features": [
{ "type":"Feature","properties":{"osm_id":"8125200745","other":{"amenity":"loading_dock"}}, "geometry":{"type":"Point","coordinates":[-1.47261,50.92521 ]}},
{ "type":"Feature","properties":{"osm_id":"8125200746","other":{"amenity":"loading_dock"}}, "geometry":{"type":"Point","coordinates":[-1.47255,50.92521 ]}},
{ "type":"Feature","properties":{"osm_id":"8125200747","other":{"amenity":"loading_dock"}}, "geometry":{"type":"Point","coordinates":[-1.47249,50.92521 ]}},
{ "type":"Feature","properties":{"osm_id":"8125200748","other":{"amenity":"loading_dock"}}, "geometry":{"type":"Point","coordinates":[-1.47243,50.92521 ]}},
{ "type":"Feature","properties":{"osm_id":"8125200749","other":{"amenity":"loading_dock"}}, "geometry":{"type":"Point","coordinates":[-1.47238,50.9252 ]}},
{ "type":"Feature","properties":{"osm_id":"8125200750","other":{"amenity":"loading_dock"}}, "geometry":{"type":"Point","coordinates":[-1.47232,50.9252 ]}},
{ "type":"Feature","properties":{"osm_id":"8125200751","other":{"amenity":"loading_dock"}}, "geometry":{"type":"Point","coordinates":[-1.47226,50.9252 ]}},
{ "type":"Feature","properties":{"osm_id":"8125200752","other":{"amenity":"loading_dock"}}, "geometry":{"type":"Point","coordinates":[-1.4722,50.9252 ]}},
{ "type":"Feature","properties":{"osm_id":"8125200753","other":{"amenity":"loading_dock"}}, "geometry":{"type":"Point","coordinates":[-1.47392,50.92514 ]}},
{ "type":"Feature","properties":{"osm_id":"8125200754","other":{"amenity":"loading_dock"}}, "geometry":{"type":"Point","coordinates":[-1.47392,50.92511 ]}},
{ "type":"Feature","properties":{"osm_id":"8125200755","other":{"amenity":"loading_dock"}}, "geometry":{"type":"Point","coordinates":[-1.47392,50.92508 ]}},
{ "type":"Feature","properties":{"osm_id":"8125200756","other":{"amenity":"loading_dock"}}, "geometry":{"type":"Point","coordinates":[-1.47393,50.92505 ]}},
{ "type":"Feature","properties":{"osm_id":"8125200757","other":{"amenity":"loading_dock"}}, "geometry":{"type":"Point","coordinates":[-1.47393,50.92502 ]}},
{ "type":"Feature","properties":{"osm_id":"8125200758","other":{"amenity":"loading_dock"}}, "geometry":{"type":"Point","coordinates":[-1.47393,50.92498 ]}},
{ "type":"Feature","properties":{"osm_id":"8125226271","other":{"amenity":"loading_dock"}}, "geometry":{"type":"Point","coordinates":[-1.47155,50.93296 ]}},
{ "type":"Feature","properties":{"osm_id":"8125226272","other":{"amenity":"loading_dock"}}, "geometry":{"type":"Point","coordinates":[-1.47157,50.93293 ]}},
{ "type":"Feature","properties":{"osm_id":"8125226273","other":{"amenity":"loading_dock"}}, "geometry":{"type":"Point","coordinates":[-1.47158,50.93289 ]}},
{ "type":"Feature","properties":{"osm_id":"8125226274","other":{"amenity":"loading_dock"}}, "geometry":{"type":"Point","coordinates":[-1.4716,50.93285 ]}},
{ "type":"Feature","properties":{"osm_id":"8125226275","other":{"amenity":"loading_dock"}}, "geometry":{"type":"Point","coordinates":[-1.47161,50.93282 ]}},
{ "type":"Feature","properties":{"osm_id":"8125226276","other":{"amenity":"loading_dock"}}, "geometry":{"type":"Point","coordinates":[-1.47162,50.93278 ]}},
{ "type":"Feature","properties":{"osm_id":"8125226277","other":{"amenity":"loading_dock"}}, "geometry":{"type":"Point","coordinates":[-1.47164,50.93275 ]}},
{ "type":"Feature","properties":{"osm_id":"8125226278","other":{"amenity":"loading_dock"}}, "geometry":{"type":"Point","coordinates":[-1.47165,50.93271 ]}},
{ "type":"Feature","properties":{"osm_id":"8125226279","other":{"amenity":"loading_dock"}}, "geometry":{"type":"Point","coordinates":[-1.47168,50.93264 ]}},
{ "type":"Feature","properties":{"osm_id":"8125226280","other":{"amenity":"loading_dock"}}, "geometry":{"type":"Point","coordinates":[-1.47169,50.9326 ]}},
{ "type":"Feature","properties":{"osm_id":"8125226281","other":{"amenity":"loading_dock"}}, "geometry":{"type":"Point","coordinates":[-1.4717,50.93257 ]}},
{ "type":"Feature","properties":{"osm_id":"8125226282","other":{"amenity":"loading_dock"}}, "geometry":{"type":"Point","coordinates":[-1.47172,50.93254 ]}},
{ "type":"Feature","properties":{"osm_id":"8125226283","other":{"amenity":"loading_dock"}}, "geometry":{"type":"Point","coordinates":[-1.47173,50.9325 ]}},
{ "type":"Feature","properties":{"osm_id":"8125226284","other":{"amenity":"loading_dock"}}, "geometry":{"type":"Point","coordinates":[-1.47174,50.93247 ]}},
{ "type":"Feature","properties":{"osm_id":"8125226285","other":{"amenity":"loading_dock"}}, "geometry":{"type":"Point","coordinates":[-1.47178,50.93236 ]}},
{ "type":"Feature","properties":{"osm_id":"8125226286","other":{"amenity":"loading_dock"}}, "geometry":{"type":"Point","coordinates":[-1.4718,50.93233 ]}},
{ "type":"Feature","properties":{"osm_id":"8125226287","other":{"amenity":"loading_dock"}}, "geometry":{"type":"Point","coordinates":[-1.47181,50.93229 ]}},
{ "type":"Feature","properties":{"osm_id":"8125226288","other":{"amenity":"loading_dock"}}, "geometry":{"type":"Point","coordinates":[-1.47182,50.93226 ]}},
{ "type":"Feature","properties":{"osm_id":"8125226289","other":{"amenity":"loading_dock"}}, "geometry":{"type":"Point","coordinates":[-1.47184,50.93222 ]}},
{ "type":"Feature","properties":{"osm_id":"8125226290","other":{"amenity":"loading_dock"}}, "geometry":{"type":"Point","coordinates":[-1.47185,50.93219 ]}},
{ "type":"Feature","properties":{"osm_id":"8125226291","other":{"amenity":"loading_dock"}}, "geometry":{"type":"Point","coordinates":[-1.47186,50.93215 ]}},
{ "type":"Feature","properties":{"osm_id":"8125226292","other":{"amenity":"loading_dock"}}, "geometry":{"type":"Point","coordinates":[-1.47188,50.93212 ]}},
{ "type":"Feature","properties":{"osm_id":"8125226293","other":{"amenity":"loading_dock"}}, "geometry":{"type":"Point","coordinates":[-1.47189,50.93208 ]}},
{ "type":"Feature","properties":{"osm_id":"8125226294","other":{"amenity":"loading_dock"}}, "geometry":{"type":"Point","coordinates":[-1.4719,50.93205 ]}},
{ "type":"Feature","properties":{"osm_id":"8125226295","other":{"amenity":"loading_dock"}}, "geometry":{"type":"Point","coordinates":[-1.47192,50.932 ]}},
{ "type":"Feature","properties":{"osm_id":"8125226296","other":{"amenity":"loading_dock"}}, "geometry":{"type":"Point","coordinates":[-1.47193,50.93197 ]}},
{ "type":"Feature","properties":{"osm_id":"8125226297","other":{"amenity":"loading_dock"}}, "geometry":{"type":"Point","coordinates":[-1.47195,50.93194 ]}},
{ "type":"Feature","properties":{"osm_id":"8125226298","other":{"amenity":"loading_dock"}}, "geometry":{"type":"Point","coordinates":[-1.47196,50.93189 ]}},
{ "type":"Feature","properties":{"osm_id":"8125226299","other":{"amenity":"loading_dock"}}, "geometry":{"type":"Point","coordinates":[-1.47198,50.93186 ]}},
{ "type":"Feature","properties":{"osm_id":"8125226300","other":{"amenity":"loading_dock"}}, "geometry":{"type":"Point","coordinates":[-1.47199,50.93182 ]}},
{ "type":"Feature","properties":{"osm_id":"8125226301","other":{"amenity":"loading_dock"}}, "geometry":{"type":"Point","coordinates":[-1.472,50.93179 ]}},
{ "type":"Feature","properties":{"osm_id":"8125226302","other":{"amenity":"loading_dock"}}, "geometry":{"type":"Point","coordinates":[-1.47203,50.93172 ]}},
{ "type":"Feature","properties":{"osm_id":"8125226303","other":{"amenity":"loading_dock"}}, "geometry":{"type":"Point","coordinates":[-1.47204,50.93169 ]}},
{ "type":"Feature","properties":{"osm_id":"8125226304","other":{"amenity":"loading_dock"}}, "geometry":{"type":"Point","coordinates":[-1.47206,50.93165 ]}},
{ "type":"Feature","properties":{"osm_id":"8125226305","other":{"amenity":"loading_dock"}}, "geometry":{"type":"Point","coordinates":[-1.47207,50.93162 ]}},
{ "type":"Feature","properties":{"osm_id":"8125226306","other":{"amenity":"loading_dock"}}, "geometry":{"type":"Point","coordinates":[-1.47208,50.93158 ]}},
{ "type":"Feature","properties":{"osm_id":"8125226307","other":{"amenity":"loading_dock"}}, "geometry":{"type":"Point","coordinates":[-1.47213,50.93146 ]}},
{ "type":"Feature","properties":{"osm_id":"8125226308","other":{"amenity":"loading_dock"}}, "geometry":{"type":"Point","coordinates":[-1.47215,50.93142 ]}},
{ "type":"Feature","properties":{"osm_id":"8125226309","other":{"amenity":"loading_dock"}}, "geometry":{"type":"Point","coordinates":[-1.47216,50.93138 ]}},
{ "type":"Feature","properties":{"osm_id":"8125226310","other":{"amenity":"loading_dock"}}, "geometry":{"type":"Point","coordinates":[-1.47218,50.93134 ]}},
{ "type":"Feature","properties":{"osm_id":"8125226311","other":{"amenity":"loading_dock"}}, "geometry":{"type":"Point","coordinates":[-1.47219,50.93131 ]}},
{ "type":"Feature","properties":{"osm_id":"8125226312","other":{"amenity":"loading_dock"}}, "geometry":{"type":"Point","coordinates":[-1.4722,50.93127 ]}},
{ "type":"Feature","properties":{"osm_id":"8125226313","other":{"amenity":"loading_dock"}}, "geometry":{"type":"Point","coordinates":[-1.47221,50.93124 ]}},
{ "type":"Feature","properties":{"osm_id":"8125226314","other":{"amenity":"loading_dock"}}, "geometry":{"type":"Point","coordinates":[-1.47223,50.9312 ]}},
{ "type":"Feature","properties":{"osm_id":"8125226315","other":{"amenity":"loading_dock"}}, "geometry":{"type":"Point","coordinates":[-1.47224,50.93116 ]}},
{ "type":"Feature","properties":{"osm_id":"8125226316","other":{"amenity":"loading_dock"}}, "geometry":{"type":"Point","coordinates":[-1.47226,50.93113 ]}},
{ "type":"Feature","properties":{"osm_id":"8125226317","other":{"amenity":"loading_dock"}}, "geometry":{"type":"Point","coordinates":[-1.47228,50.93108 ]}},
{ "type":"Feature","properties":{"osm_id":"8125226318","other":{"amenity":"loading_dock"}}, "geometry":{"type":"Point","coordinates":[-1.4723,50.93103 ]}},
{ "type":"Feature","properties":{"osm_id":"8125226319","other":{"amenity":"loading_dock"}}, "geometry":{"type":"Point","coordinates":[-1.47231,50.93099 ]}},
{ "type":"Feature","properties":{"osm_id":"8125226320","other":{"amenity":"loading_dock"}}, "geometry":{"type":"Point","coordinates":[-1.47232,50.93096 ]}},
{ "type":"Feature","properties":{"osm_id":"8125226321","other":{"amenity":"loading_dock"}}, "geometry":{"type":"Point","coordinates":[-1.47233,50.93092 ]}},
{ "type":"Feature","properties":{"osm_way_id":"97354015","building":"warehouse"},"geometry":{"type":"MultiPolygon","coordinates":[[[[-1.39214,50.90339],[-1.3909,50.90331],[-1.39078,50.904],[-1.39202,50.90408],[-1.39214,50.90339]]]]}},
{ "type":"Feature","properties":{"osm_way_id":"194713825","name":"Safestore","building":"warehouse","shop":"storage_rental","other":{"brand":"Safestore","brand:wikidata":"Q20713915","brand:wikipedia":"en:Safestore","opening_hours":"Mo-Sa 08:00-18:00; Su 10:00-16:00","wheelchair":"limited"}}, "geometry":{"type":"MultiPolygon","coordinates":[[[[-1.38276,50.91155],[-1.38276,50.91133],[-1.38276,50.91122],[-1.38308,50.91122],[-1.38307,50.91133],[-1.38351,50.91133],[-1.38351,50.91155],[-1.38343,50.91155],[-1.38298,50.91155],[-1.38276,50.91155]]]]}},
{ "type":"Feature","properties":{"osm_way_id":"220280383","building":"warehouse","other":{"source:location":"Bing Imagery"}}, "geometry":{"type":"MultiPolygon","coordinates":[[[[-1.38565,50.9127],[-1.38565,50.91275],[-1.38545,50.91275],[-1.38545,50.91274],[-1.38546,50.91269],[-1.38565,50.9127]]]]}},
{ "type":"Feature","properties":{"osm_way_id":"220280385","building":"warehouse","other":{"source:location":"Bing Imagery"}}, "geometry":{"type":"MultiPolygon","coordinates":[[[[-1.38598,50.91227],[-1.38536,50.91226],[-1.38535,50.91251],[-1.38538,50.91251],[-1.38596,50.91253],[-1.38598,50.91227]]]]}},
{ "type":"Feature","properties":{"osm_way_id":"220280386","building":"warehouse"},"geometry":{"type":"MultiPolygon","coordinates":[[[[-1.38623,50.91287],[-1.38552,50.91278],[-1.38543,50.91307],[-1.38608,50.91315],[-1.38611,50.91305],[-1.38617,50.91306],[-1.38623,50.91287]]]]}},
{ "type":"Feature","properties":{"osm_way_id":"220280388","building":"warehouse","other":{"source:location":"Bing Imagery"}}, "geometry":{"type":"MultiPolygon","coordinates":[[[[-1.38677,50.91195],[-1.3865,50.91193],[-1.38647,50.91207],[-1.38661,50.91208],[-1.38659,50.91216],[-1.38673,50.91217],[-1.38677,50.91195]]]]}},
{ "type":"Feature","properties":{"osm_way_id":"220290144","building":"warehouse","other":{"source:location":"Bing Imagery"}}, "geometry":{"type":"MultiPolygon","coordinates":[[[[-1.38495,50.91312],[-1.38496,50.91278],[-1.38425,50.91277],[-1.38425,50.91285],[-1.38432,50.91285],[-1.38431,50.91311],[-1.38495,50.91312]]]]}},
{ "type":"Feature","properties":{"osm_way_id":"220290145","building":"warehouse","other":{"source:location":"Bing Imagery"}}, "geometry":{"type":"MultiPolygon","coordinates":[[[[-1.38425,50.91277],[-1.38357,50.91277],[-1.38354,50.91277],[-1.38353,50.91311],[-1.38425,50.91312],[-1.38425,50.91285],[-1.38425,50.91277]]]]}},
{ "type":"Feature","properties":{"osm_way_id":"262289413","name":"Heulin-Renouf","building":"warehouse"},"geometry":{"type":"MultiPolygon","coordinates":[[[[-1.39874,50.89464],[-1.39818,50.89473],[-1.39806,50.89445],[-1.39862,50.89435],[-1.39874,50.89464]]]]}},
{ "type":"Feature","properties":{"osm_way_id":"262297532","building":"warehouse"},"geometry":{"type":"MultiPolygon","coordinates":[[[[-1.39838,50.89423],[-1.39802,50.89426],[-1.39797,50.89398],[-1.39833,50.89396],[-1.39838,50.89423]]]]}},
{ "type":"Feature","properties":{"osm_way_id":"289418303","building":"warehouse"},"geometry":{"type":"MultiPolygon","coordinates":[[[[-1.38425,50.91078],[-1.38413,50.91089],[-1.38384,50.91077],[-1.38397,50.91066],[-1.38416,50.91074],[-1.38425,50.91078]]]]}},
{ "type":"Feature","properties":{"osm_way_id":"386611184","name":"Lidl Distribution Centre","building":"warehouse","office":"company","other":{"addr:city":"Nursling","addr:country":"GB","addr:housename":"Foxes Park","addr:postcode":"SO16 0AW","addr:street":"Brownhill Way","brand":"Lidl","brand:wikidata":"Q151954","brand:wikipedia":"en:Lidl","fhrs:id":"928300"}}, "geometry":{"type":"MultiPolygon","coordinates":[[[[-1.47154,50.93301],[-1.47186,50.93305],[-1.47183,50.9331],[-1.47146,50.93317],[-1.46976,50.9329],[-1.4708,50.93019],[-1.47252,50.93045],[-1.47233,50.93092],[-1.47232,50.93096],[-1.47231,50.93099],[-1.4723,50.93103],[-1.47228,50.93108],[-1.47226,50.93113],[-1.47224,50.93116],[-1.47223,50.9312],[-1.47221,50.93124],[-1.4722,50.93127],[-1.47219,50.93131],[-1.47218,50.93134],[-1.47216,50.93138],[-1.47215,50.93142],[-1.47213,50.93146],[-1.47208,50.93158],[-1.47207,50.93162],[-1.47206,50.93165],[-1.47204,50.93169],[-1.47203,50.93172],[-1.472,50.93179],[-1.47199,50.93182],[-1.47198,50.93186],[-1.47196,50.93189],[-1.47195,50.93194],[-1.47193,50.93197],[-1.47192,50.932],[-1.4719,50.93205],[-1.47189,50.93208],[-1.47188,50.93212],[-1.47186,50.93215],[-1.47185,50.93219],[-1.47184,50.93222],[-1.47182,50.93226],[-1.47181,50.93229],[-1.4718,50.93233],[-1.47178,50.93236],[-1.47174,50.93247],[-1.47173,50.9325],[-1.47172,50.93254],[-1.4717,50.93257],[-1.47169,50.9326],[-1.47168,50.93264],[-1.47165,50.93271],[-1.47164,50.93275],[-1.47162,50.93278],[-1.47161,50.93282],[-1.4716,50.93285],[-1.47158,50.93289],[-1.47157,50.93293],[-1.47155,50.93296],[-1.47154,50.93301]]]]}},
{ "type":"Feature","properties":{"osm_way_id":"518823988","building":"warehouse"},"geometry":{"type":"MultiPolygon","coordinates":[[[[-1.46528,50.91947],[-1.46395,50.91887],[-1.46449,50.9184],[-1.46582,50.91901],[-1.46528,50.91947]]]]}},
{ "type":"Feature","properties":{"osm_way_id":"518823995","building":"warehouse","office":"yes","other":{"name:signed":"no"}}, "geometry":{"type":"MultiPolygon","coordinates":[[[[-1.45859,50.91639],[-1.45807,50.91616],[-1.45855,50.91573],[-1.45907,50.91596],[-1.45859,50.91639]]]]}},
{ "type":"Feature","properties":{"osm_way_id":"571077189","name":"Unit 1","building":"warehouse"},"geometry":{"type":"MultiPolygon","coordinates":[[[[-1.47489,50.92618],[-1.47385,50.92615],[-1.47386,50.92597],[-1.47392,50.92514],[-1.47392,50.92511],[-1.47392,50.92508],[-1.47393,50.92505],[-1.47393,50.92502],[-1.47393,50.92498],[-1.47394,50.92485],[-1.47396,50.92485],[-1.47498,50.92488],[-1.47489,50.92618]]]]}},
{ "type":"Feature","properties":{"osm_way_id":"571077190","name":"CCF (Unit 2)","building":"warehouse"},"geometry":{"type":"MultiPolygon","coordinates":[[[[-1.47298,50.92571],[-1.47295,50.92611],[-1.47293,50.92611],[-1.47178,50.92608],[-1.4718,50.92568],[-1.47282,50.92571],[-1.47298,50.92571]]]]}},
{ "type":"Feature","properties":{"osm_way_id":"571077191","name":"John Lewis Distribution Centre (Unit 3)","building":"warehouse"},"geometry":{"type":"MultiPolygon","coordinates":[[[[-1.47287,50.92522],[-1.4729,50.92482],[-1.47288,50.92482],[-1.4714,50.92477],[-1.47138,50.92505],[-1.47137,50.92517],[-1.4722,50.9252],[-1.47226,50.9252],[-1.47232,50.9252],[-1.47238,50.9252],[-1.47243,50.92521],[-1.47249,50.92521],[-1.47255,50.92521],[-1.47261,50.92521],[-1.47268,50.92521],[-1.47287,50.92522]]]]}},
{ "type":"Feature","properties":{"osm_way_id":"711627397","building":"warehouse"},"geometry":{"type":"MultiPolygon","coordinates":[[[[-1.36929,50.94462],[-1.36838,50.94422],[-1.36766,50.94487],[-1.36856,50.94527],[-1.36929,50.94462]]]]}},
{ "type":"Feature","properties":{"osm_way_id":"711627398","name":"PFS","building":"warehouse"},"geometry":{"type":"MultiPolygon","coordinates":[[[[-1.36856,50.94527],[-1.36766,50.94487],[-1.36671,50.94575],[-1.36652,50.94567],[-1.36639,50.94579],[-1.36679,50.94596],[-1.36689,50.94587],[-1.36757,50.94617],[-1.36856,50.94527]]]]}},
{ "type":"Feature","properties":{"osm_way_id":"711627399","name":"Matthew Clark","building":"warehouse"},"geometry":{"type":"MultiPolygon","coordinates":[[[[-1.36561,50.94538],[-1.36466,50.94496],[-1.36547,50.94426],[-1.3662,50.94458],[-1.36554,50.94518],[-1.36574,50.94527],[-1.36561,50.94538]]]]}},
{ "type":"Feature","properties":{"osm_way_id":"711627400","name":"DSV Air and Sea","building":"warehouse"},"geometry":{"type":"MultiPolygon","coordinates":[[[[-1.3662,50.94458],[-1.36547,50.94426],[-1.36645,50.94337],[-1.36708,50.94365],[-1.36711,50.94362],[-1.36747,50.94377],[-1.36734,50.94389],[-1.36709,50.94378],[-1.3662,50.94458]]]]}},
{ "type":"Feature","properties":{"osm_way_id":"711627401","name":"Elis","building":"warehouse"},"geometry":{"type":"MultiPolygon","coordinates":[[[[-1.36896,50.94363],[-1.36888,50.94359],[-1.36803,50.9432],[-1.36862,50.94269],[-1.36956,50.94312],[-1.36896,50.94363]]]]}},
{ "type":"Feature","properties":{"osm_way_id":"711627402","name":"Murrays Health & Beauty","building":"warehouse"},"geometry":{"type":"MultiPolygon","coordinates":[[[[-1.37013,50.94406],[-1.36997,50.94399],[-1.37003,50.94394],[-1.36926,50.94357],[-1.36972,50.94319],[-1.37057,50.94359],[-1.37025,50.94387],[-1.37032,50.9439],[-1.37013,50.94406]]]]}},
{ "type":"Feature","properties":{"osm_way_id":"711627403","name":"Cooper Vision","building":"warehouse"},"geometry":{"type":"MultiPolygon","coordinates":[[[[-1.36797,50.94318],[-1.36652,50.9425],[-1.36646,50.94247],[-1.36706,50.94196],[-1.36857,50.94267],[-1.36797,50.94318]]]]}}
]
}
