{
"type": "FeatureCollection",
"features": [
{ "type":"Feature","properties":{"osm_id":"90662865","other":{"access":"private","amenity":"parking_entrance","maxheight":"no_indications","parking":"underground"}}, "geometry":{"type":"Point","coordinates":[-1.40794,50.90569 ]}},
{ "type":"Feature","properties":{"osm_id":"300149741","name":"Co-op Food","other":{"addr:city":"Southampton","addr:country":"GB","addr:housenumber":"117","addr:postcode":"SO14 2EA","addr:street":"High Street","brand":"Co-op Food","brand:wikidata":"Q3277439","brand:wikipedia":"en:Co-op Food","fhrs:id":"220335","operator":"The Co-operative Group","operator:wikidata":"Q117202","operator:wikipedia":"en:The Co-operative Group","shop":"supermarket"}}, "geometry":{"type":"Point","coordinates":[-1.40416,50.89806 ]}},
{ "type":"Feature","properties":{"osm_id":"638921542","name":"Sainsbury's","other":{"addr:city":"Southampton","addr:country":"GB","addr:housenumber":"412,414","addr:postcode":"SO18 5RS","addr:street":"Bitterne Road","brand":"Sainsbury's","brand:wikidata":"Q152096","fhrs:id":"219652","operator":"Sainsbury's Supermarkets Ltd","phone":"+44 2380 449656","shop":"supermarket","toilets":"no","website":"https:\/\/stores.sainsburys.co.uk\/0879\/bitterne"}}, "geometry":{"type":"Point","coordinates":[-1.3608,50.91421 ]}},
{ "type":"Feature","properties":{"osm_id":"1556159256","name":"China Town oriental supermarket","other":{"shop":"supermarket"}}, "geometry":{"type":"Point","coordinates":[-1.39694,50.90609 ]}},
{ "type":"Feature","properties":{"osm_id":"2603375547","other":{"access":"customers","amenity":"parking_entrance","fee":"no","level":"-1","lit":"yes","maxheight":"2.6","operator":"Sainsbury's","parking":"underground","surface":"asphalt"}}, "geometry":{"type":"Point","coordinates":[-1.3889,50.92637 ]}},
{ "type":"Feature","properties":{"osm_id":"5007213122","name":"International Foods","other":{"name:en":"International Foods","shop":"supermarket"}}, "geometry":{"type":"Point","coordinates":[-1.3941,50.91094 ]}},
{ "type":"Feature","properties":{"osm_id":"6295192342","name":"Iceland","other":{"addr:city":"Southampton","addr:country":"GB","addr:housenumber":"444","addr:postcode":"SO18 5EF","addr:street":"Bitterne Road","addr:unit":"7","brand":"Iceland","brand:wikidata":"Q721810","brand:wikipedia":"en:Iceland (supermarket)","fhrs:id":"220226","shop":"supermarket"}}, "geometry":{"type":"Point","coordinates":[-1.35874,50.91434 ]}},
{ "type":"Feature","properties":{"osm_id":"6433953273","name":"Costcutter","other":{"brand":"Costcutter","brand:wikidata":"Q5175072","brand:wikipedia":"en:Costcutter","shop":"supermarket"}}, "geometry":{"type":"Point","coordinates":[-1.44388,50.92176 ]}},
{ "type":"Feature","properties":{"osm_id":"6473992663","name":"Co-op Food","other":{"brand":"Co-op Food","brand:wikidata":"Q3277439","brand:wikipedia":"en:Co-op Food","operator":"The Co-operative Group","operator:wikidata":"Q117202","operator:wikipedia":"en:The Co-operative Group","shop":"supermarket"}}, "geometry":{"type":"Point","coordinates":[-1.39277,50.89547 ]}},
{ "type":"Feature","properties":{"osm_id":"6475548285","name":"JKâ€™s Foods","other":{"shop":"supermarket"}}, "geometry":{"type":"Point","coordinates":[-1.40063,50.89926 ]}},
{ "type":"Feature","properties":{"osm_id":"6573543727","name":"Malpass Markets","other":{"addr:city":"Southampton","addr:housename":"142 Butts Rd, Southampton SO19 1BJ","addr:housenumber":"142","addr:postcode":"SO19 1BJ","addr:street":"Butt's Road","operator":"quality family butchers","shop":"supermarket"}}, "geometry":{"type":"Point","coordinates":[-1.34799,50.89911 ]}},
{ "type":"Feature","properties":{"osm_id":"8325026229","highway":"services","other":{"operator":"Sainsbury's","toilets":"no"}}, "geometry":{"type":"Point","coordinates":[-1.38985,50.92609 ]}},
{ "type":"Feature","properties":{"osm_id":"9445517587","name":"ALDI","other":{"addr:city":"Southampton","addr:postcode":"SO19 8BR","addr:street":"Bursledon Road","branch":"UK","not:brand:wikidata":"Q41171672","shop":"supermarket","website":"https:\/\/www.aldi.co.uk\/burlesdonroad"}}, "geometry":{"type":"Point","coordinates":[-1.32969,50.90173 ]}},
{ "type":"Feature","properties":{"osm_way_id":"10522631","name":"Asda","building":"yes","shop":"supermarket","other":{"addr:city":"Southampton","addr:country":"GB","addr:postcode":"SO14 7EG","addr:street":"Portland Terrace","brand":"Asda","brand:wikidata":"Q297410","brand:wikipedia":"en:Asda","contact:facebook":"https:\/\/www.facebook.com\/asda\/","contact:twitter":"@asda","contact:website":"https:\/\/storelocator.asda.com\/south-east\/southampton\/the-marlands-western-esplanade","fhrs:id":"219662","opening_hours":"Mo 08:00-23:00; Tu-Fr 07:00-23:00; Sa 07:00-22:00; Su 11:00-17:00","operator":"Asda Stores Ltd","operator:wikidata":"Q297410","operator:wikipedia":"en:Asda","wheelchair":"yes"}}, "geometry":{"type":"MultiPolygon","coordinates":[[[[-1.40829,50.90601],[-1.40827,50.90599],[-1.40794,50.90569],[-1.40778,50.90555],[-1.40768,50.90551],[-1.40759,50.9055],[-1.40749,50.90551],[-1.40747,50.90554],[-1.4068,50.9056],[-1.40675,50.90561],[-1.40672,50.90565],[-1.4067,50.90567],[-1.40682,50.90615],[-1.40678,50.90616],[-1.40676,50.90619],[-1.40677,50.90624],[-1.40683,50.90627],[-1.40691,50.90628],[-1.40762,50.90622],[-1.40773,50.9062],[-1.40775,50.90617],[-1.40801,50.90615],[-1.40829,50.90601]]]]}},
{ "type":"Feature","properties":{"osm_way_id":"23230406","name":"Lidl","building":"commercial","shop":"supermarket","other":{"addr:city":"Southampton","addr:country":"GB","addr:postcode":"SO19 9DY","addr:street":"Victoria Road","brand":"Lidl","brand:wikidata":"Q151954","brand:wikipedia":"en:Lidl","fhrs:id":"984630"}}, "geometry":{"type":"MultiPolygon","coordinates":[[[[-1.37967,50.89557],[-1.37916,50.89562],[-1.37909,50.89528],[-1.37916,50.89527],[-1.37914,50.89518],[-1.37949,50.89515],[-1.37951,50.89524],[-1.37957,50.89523],[-1.37958,50.89528],[-1.37961,50.89543],[-1.37964,50.89543],[-1.37967,50.89557]]]]}},
{ "type":"Feature","properties":{"osm_way_id":"33831064","name":"Waitrose","building":"yes","shop":"supermarket","other":{"addr:city":"Southampton","addr:country":"GB","addr:housenumber":"121-131","addr:postcode":"SO17 2FX","addr:street":"Portswood Road","brand":"Waitrose","brand:wikidata":"Q771734","brand:wikipedia":"en:Waitrose","official_name":"Waitrose & Partners","operator":"Waitrose & Partners"}}, "geometry":{"type":"MultiPolygon","coordinates":[[[[-1.3943,50.92453],[-1.39434,50.92454],[-1.39468,50.92463],[-1.39475,50.92454],[-1.39483,50.92456],[-1.39489,50.92454],[-1.39492,50.92451],[-1.39519,50.9242],[-1.39469,50.92405],[-1.39431,50.92451],[-1.3943,50.92453]]]]}},
{ "type":"Feature","properties":{"osm_way_id":"37839166","name":"ALDI","building":"yes","shop":"supermarket","other":{"brand":"ALDI","brand:wikidata":"Q41171672","brand:wikipedia":"en:Aldi"}}, "geometry":{"type":"MultiPolygon","coordinates":[[[[-1.39536,50.9177],[-1.39516,50.91768],[-1.39516,50.91765],[-1.39471,50.91761],[-1.39473,50.9175],[-1.39467,50.9175],[-1.3947,50.91736],[-1.39483,50.91738],[-1.39544,50.91744],[-1.39536,50.9177]]]]}},
{ "type":"Feature","properties":{"osm_way_id":"100765497","name":"Sainsbury's","building":"retail","shop":"supermarket","other":{"addr:city":"Southampton","addr:country":"GB","addr:place":"Lordshill District Centre","addr:postcode":"SO16 8HY","addr:unit":"1","branch":"Lords Hill","brand":"Sainsbury's","brand:wikidata":"Q152096","brand:wikipedia":"en:Sainsbury's","fhrs:id":"220040","opening_hours":"Mo-Sa 07:00-22:00; Su 10:00-16:00","operator":"Sainsbury's","phone":"+44 2380 737133"}}, "geometry":{"type":"MultiPolygon","coordinates":[[[[-1.449,50.941],[-1.44875,50.94109],[-1.44891,50.94126],[-1.4488,50.9413],[-1.44902,50.94152],[-1.44891,50.94156],[-1.44877,50.94142],[-1.44853,50.94152],[-1.44866,50.94166],[-1.44861,50.94168],[-1.44853,50.94171],[-1.44897,50.94216],[-1.44993,50.9418],[-1.44949,50.94134],[-1.44938,50.94138],[-1.449,50.941]]]]}},
{ "type":"Feature","properties":{"osm_way_id":"109816279","name":"Sainsbury's","building":"yes","shop":"supermarket","other":{"addr:city":"Southampton","addr:housenumber":"1","addr:postcode":"SO15 5LL","addr:street":"Redcar Street","brand":"Sainsbury's","brand:wikidata":"Q152096","brand:wikipedia":"en:Sainsbury's","operator":"Sainsbury's","phone":"+44 2390 772273"}}, "geometry":{"type":"MultiPolygon","coordinates":[[[[-1.43441,50.92343],[-1.43429,50.92357],[-1.43436,50.9236],[-1.4343,50.92367],[-1.43423,50.92364],[-1.43397,50.92394],[-1.43388,50.92391],[-1.43321,50.92368],[-1.43336,50.9235],[-1.43323,50.92346],[-1.43334,50.92333],[-1.43318,50.92328],[-1.43322,50.92323],[-1.43324,50.92324],[-1.43326,50.92323],[-1.43354,50.92332],[-1.43355,50.9233],[-1.43396,50.92344],[-1.434,50.92339],[-1.43407,50.92342],[-1.43411,50.92337],[-1.43419,50.9234],[-1.4343,50.92343],[-1.43433,50.9234],[-1.43441,50.92343]]]]}},
{ "type":"Feature","properties":{"osm_way_id":"109850158","name":"M&S Simply Food","building":"yes","shop":"supermarket","other":{"addr:city":"Southampton","addr:housenumber":"233-235","addr:postcode":"SO16 6TL","addr:street":"Winchester Road","brand":"M&S Simply Food","brand:wikidata":"Q714491","brand:wikipedia":"en:Marks & Spencer","operator":"M&S"}}, "geometry":{"type":"MultiPolygon","coordinates":[[[[-1.42565,50.92973],[-1.42543,50.92988],[-1.42498,50.92961],[-1.42521,50.92946],[-1.42565,50.92973]]]]}},
{ "type":"Feature","properties":{"osm_way_id":"122572647","building":"yes","shop":"supermarket"},"geometry":{"type":"MultiPolygon","coordinates":[[[[-1.38433,50.91666],[-1.38416,50.91683],[-1.38442,50.91694],[-1.38447,50.91689],[-1.38491,50.91707],[-1.38508,50.9169],[-1.3846,50.9167],[-1.38455,50.91675],[-1.38433,50.91666]]]]}},
{ "type":"Feature","properties":{"osm_way_id":"153484342","name":"East Street Supermarket","building":"yes","shop":"supermarket"},"geometry":{"type":"MultiPolygon","coordinates":[[[[-1.40292,50.90149],[-1.40279,50.90148],[-1.40279,50.9017],[-1.40291,50.90171],[-1.40291,50.9016],[-1.40292,50.90149]]]]}},
{ "type":"Feature","properties":{"osm_way_id":"153484861","name":"Lidl","building":"yes","shop":"supermarket","other":{"addr:city":"Southampton","addr:country":"GB","addr:housenumber":"15-17","addr:postcode":"SO14 2DF","addr:street":"High Street","brand":"Lidl","brand:wikidata":"Q151954","brand:wikipedia":"en:Lidl","fhrs:id":"219632"}}, "geometry":{"type":"MultiPolygon","coordinates":[[[[-1.40386,50.90125],[-1.40387,50.90143],[-1.40372,50.90143],[-1.40365,50.90143],[-1.40365,50.90141],[-1.40321,50.90142],[-1.4032,50.90126],[-1.40368,50.90125],[-1.40386,50.90125]]]]}},
{ "type":"Feature","properties":{"osm_way_id":"153794809","name":"Food Stop, Southampton Delicatessen","building":"supermarket","shop":"supermarket"},"geometry":{"type":"MultiPolygon","coordinates":[[[[-1.37485,50.91828],[-1.37433,50.91828],[-1.37434,50.91816],[-1.37488,50.91817],[-1.37485,50.91828]]]]}},
{ "type":"Feature","properties":{"osm_way_id":"154657329","name":"Sainsbury's","building":"retail","shop":"supermarket","other":{"addr:city":"Southampton","addr:country":"GB","addr:housenumber":"224","addr:postcode":"SO17 2LB","addr:street":"Portswood Road","brand":"Sainsbury's","brand:wikidata":"Q152096","brand:wikipedia":"en:Sainsbury's","opening_hours":"Mo-Sa 07:00-22:00; Su 11:00-17:00","wheelchair":"yes"}}, "geometry":{"type":"MultiPolygon","coordinates":[[[[-1.39047,50.92694],[-1.38925,50.92729],[-1.38877,50.92664],[-1.38904,50.92656],[-1.3889,50.92637],[-1.38885,50.9263],[-1.3898,50.92602],[-1.38985,50.92609],[-1.39047,50.92694]]]]}},
{ "type":"Feature","properties":{"osm_way_id":"179780202","name":"Yau Brothers and Company Limited","building":"yes","shop":"supermarket","other":{"addr:city":"Southampton","addr:country":"GB","addr:postcode":"SO14 5RP","cuisine":"chinese"}}, "geometry":{"type":"MultiPolygon","coordinates":[[[[-1.38478,50.91208],[-1.38427,50.91207],[-1.38427,50.91186],[-1.38478,50.91186],[-1.38478,50.91206],[-1.38478,50.91208]]]]}},
{ "type":"Feature","properties":{"osm_way_id":"220483022","name":"Co-op Food","building":"yes","shop":"supermarket","other":{"addr:city":"Southampton","addr:housename":"The Cooperative","addr:postcode":"SO16 3EG","addr:street":"Bassett Green Road","brand":"Co-op Food","brand:wikidata":"Q3277439","brand:wikipedia":"en:Co-op Food","operator":"The Co-operative Group","operator:wikidata":"Q117202","operator:wikipedia":"en:The Co-operative Group","phone":"+442380551199","store_ref":"4112"}}, "geometry":{"type":"MultiPolygon","coordinates":[[[[-1.3875,50.94412],[-1.38789,50.94421],[-1.38785,50.94428],[-1.38776,50.94426],[-1.38772,50.94435],[-1.38754,50.94431],[-1.38756,50.94427],[-1.38748,50.94425],[-1.38751,50.9442],[-1.38746,50.94419],[-1.3875,50.94412]]]]}},
{ "type":"Feature","properties":{"osm_way_id":"222689020","name":"Tesco","building":"yes","shop":"supermarket","other":{"addr:city":"Southampton","addr:country":"GB","addr:postcode":"SO16 4QE","addr:street":"Teboura Way","atm":"yes","branch":"Southampton","brand":"Tesco","brand:wikidata":"Q487494","brand:wikipedia":"en:Tesco","contact:website":"https:\/\/www.tesco.com\/store-locator\/southampton\/tebourba-way","layer":"1","opening_hours":"Mo 06:00-24:00; Tu-Fr 00:00-24:00; Sa 00:00-22:00; Su 10:00-16:00","operator":"Tesco PLC","phone":"+44 845 6779626"}}, "geometry":{"type":"MultiPolygon","coordinates":[[[[-1.44799,50.92426],[-1.44675,50.9241],[-1.44682,50.92388],[-1.44652,50.92381],[-1.44655,50.92364],[-1.44687,50.92368],[-1.4469,50.92358],[-1.44713,50.92361],[-1.44714,50.92358],[-1.44701,50.92356],[-1.44709,50.92334],[-1.44766,50.92342],[-1.44764,50.92346],[-1.44822,50.92354],[-1.44799,50.92426]]]]}},
{ "type":"Feature","properties":{"osm_way_id":"352974500","name":"The Co-operative Food","building":"yes","shop":"supermarket","other":{"addr:city":"Southampton","addr:country":"GB","addr:housename":"Hinkler Parade","addr:housenumber":"318","addr:postcode":"SO19 6DF","addr:street":"Hinkler Road","brand":"The Co-operative Food","brand:wikidata":"Q107617274","fhrs:id":"521290","phone":"+44 2380 420089"}}, "geometry":{"type":"MultiPolygon","coordinates":[[[[-1.33416,50.90829],[-1.33401,50.90835],[-1.33395,50.90829],[-1.33382,50.90833],[-1.33375,50.90826],[-1.33379,50.90825],[-1.33378,50.90823],[-1.33384,50.90821],[-1.33387,50.9082],[-1.3339,50.9082],[-1.33394,50.9082],[-1.33398,50.9082],[-1.33402,50.90821],[-1.33405,50.90822],[-1.33408,50.90823],[-1.33411,50.90824],[-1.33412,50.90825],[-1.33414,50.90827],[-1.33416,50.90829]]]]}},
{ "type":"Feature","properties":{"osm_way_id":"358349121","name":"Local Supermarket","shop":"supermarket","other":{"addr:city":"Southampton","addr:housename":"Local Supermarket","addr:housenumber":"123","addr:postcode":"SO14 7FH","addr:street":"Above Bar Street"}}, "geometry":{"type":"MultiPolygon","coordinates":[[[[-1.40466,50.90676],[-1.40465,50.90669],[-1.40484,50.90668],[-1.40485,50.90676],[-1.40472,50.90676],[-1.40466,50.90676]]]]}},
{ "type":"Feature","properties":{"osm_way_id":"366276462","name":"Co-op Food","building":"yes","shop":"supermarket","other":{"addr:city":"Southampton","addr:housename":"The Co Operative Food","addr:housenumber":"195-197","addr:postcode":"SO15 3FJ","addr:street":"Shirley Road","atm":"yes, indoor","brand":"Co-op Food","brand:wikidata":"Q3277439","brand:wikipedia":"en:Co-op Food","opening_hours":"Mo-Su 07:00-22:00","operator":"The Co-operative Group","operator:wikidata":"Q117202","operator:wikipedia":"en:The Co-operative Group","phone":"+44 2380 829216"}}, "geometry":{"type":"MultiPolygon","coordinates":[[[[-1.42315,50.91464],[-1.42325,50.9146],[-1.42312,50.91447],[-1.42309,50.91447],[-1.42294,50.91453],[-1.42295,50.91454],[-1.42293,50.91455],[-1.42299,50.91461],[-1.42301,50.91463],[-1.4231,50.91459],[-1.42315,50.91464]]]]}},
{ "type":"Feature","properties":{"osm_way_id":"380000345","name":"Co-op Food","building":"yes","shop":"supermarket","other":{"addr:city":"Southampton","addr:country":"GB","addr:postcode":"SO19 9BU","addr:street":"John's Road","atm":"yes","branch":"Woolston - Johns Road","brand":"Co-op Food","brand:wikidata":"Q3277439","brand:wikipedia":"en:Co-op Food","fhrs:id":"219920","opening_hours":"Mo-Sa 06:00-23:00; Su 07:00-23:00","operator":"The Co-operative Group","operator:wikidata":"Q117202","operator:wikipedia":"en:The Co-operative Group"}}, "geometry":{"type":"MultiPolygon","coordinates":[[[[-1.37797,50.8979],[-1.37766,50.89789],[-1.37768,50.8977],[-1.37776,50.8977],[-1.37799,50.89771],[-1.37799,50.89773],[-1.37805,50.89773],[-1.37804,50.8978],[-1.37797,50.8979]]]]}},
{ "type":"Feature","properties":{"osm_way_id":"387380038","name":"Lidl","shop":"supermarket","other":{"addr:city":"Southampton","addr:country":"GB","addr:housename":"Antelope Park","addr:postcode":"SO19 8NE","addr:street":"Bursledon Road","addr:unit":"G","brand":"Lidl","brand:wikidata":"Q151954","brand:wikipedia":"en:Lidl","fhrs:id":"838326","opening_hours":"Mo-Sa 08:00-22:00; Su 10:00-16:00"}}, "geometry":{"type":"MultiPolygon","coordinates":[[[[-1.33837,50.90683],[-1.33814,50.90666],[-1.33766,50.90691],[-1.33786,50.90706],[-1.33744,50.90728],[-1.33747,50.9073],[-1.33837,50.90683]]]]}},
{ "type":"Feature","properties":{"osm_way_id":"451788062","name":"Chine Town","building":"yes","shop":"supermarket","other":{"cuisine":"oriental"}}, "geometry":{"type":"MultiPolygon","coordinates":[[[[-1.43428,50.9224],[-1.43413,50.92228],[-1.43428,50.9222],[-1.43442,50.92231],[-1.43444,50.92233],[-1.43442,50.92234],[-1.43439,50.92236],[-1.43435,50.92238],[-1.43433,50.92236],[-1.43429,50.92238],[-1.4343,50.92238],[-1.43428,50.9224]]]]}},
{ "type":"Feature","properties":{"osm_way_id":"758405122","name":"Co-operative Food","building":"retail","shop":"supermarket","other":{"addr:city":"Southampton","addr:country":"GB","addr:housenumber":"17","addr:postcode":"SO18 1NN","addr:street":"Manor Farm Road","fhrs:id":"219964","operator":"Co-operative Group Ltd","phone":"+442380554049","store_ref":"4803"}}, "geometry":{"type":"MultiPolygon","coordinates":[[[[-1.37572,50.92461],[-1.37555,50.92461],[-1.37555,50.92462],[-1.37537,50.92461],[-1.37525,50.92461],[-1.37525,50.92467],[-1.37557,50.92469],[-1.37572,50.92469],[-1.37572,50.92461]]]]}},
{ "type":"Feature","properties":{"osm_way_id":"758983706","building":"commercial"},"geometry":{"type":"MultiPolygon","coordinates":[[[[-1.37815,50.91596],[-1.3778,50.91597],[-1.37778,50.9158],[-1.37813,50.91579],[-1.37815,50.91596]]]]}},
{ "type":"Feature","properties":{"osm_way_id":"863287971","name":"Lidl","building":"yes","shop":"supermarket","other":{"addr:city":"Southampton","addr:country":"GB","addr:housenumber":"390","addr:postcode":"SO15 3JG","addr:street":"Shirley Road","brand":"Lidl","brand:wikidata":"Q151954","brand:wikipedia":"en:Lidl","fhrs:id":"1379191","website":"https:\/\/www.lidl.co.uk\/"}}, "geometry":{"type":"MultiPolygon","coordinates":[[[[-1.43195,50.91993],[-1.43173,50.91976],[-1.43179,50.91973],[-1.43168,50.91965],[-1.43081,50.92011],[-1.4311,50.92032],[-1.43119,50.92033],[-1.43195,50.91993]]]]}},
{ "type":"Feature","properties":{"osm_way_id":"865191541","name":"Lidl","building":"yes","shop":"supermarket","other":{"addr:city":"Southampton","addr:country":"GB","addr:postcode":"SO15 2XD","addr:street":"Banister Road","brand":"Lidl","brand:wikidata":"Q151954","brand:wikipedia":"en:Lidl","fhrs:id":"1379188"}}, "geometry":{"type":"MultiPolygon","coordinates":[[[[-1.40603,50.9189],[-1.4056,50.91823],[-1.4052,50.91831],[-1.40548,50.9188],[-1.40552,50.91879],[-1.40561,50.91894],[-1.4058,50.9189],[-1.40583,50.91895],[-1.40603,50.9189]]]]}},
{ "type":"Feature","properties":{"osm_way_id":"869749087","name":"The Food Warehouse","building":"yes","shop":"supermarket","other":{"addr:city":"Southampton","addr:parentstreet":"Harbour Parade","addr:postcode":"SO15 1BA","addr:street":"West Quay Retail Park","brand":"The Food Warehouse","brand:wikidata":"Q87263899"}}, "geometry":{"type":"MultiPolygon","coordinates":[[[[-1.41187,50.90463],[-1.41165,50.90474],[-1.41109,50.90432],[-1.41132,50.9042],[-1.41142,50.90427],[-1.41183,50.9046],[-1.41187,50.90463]]]]}},
{ "type":"Feature","properties":{"osm_way_id":"886452282","name":"Lidl","building":"commercial","shop":"supermarket","other":{"brand":"Lidl","brand:wikidata":"Q151954","brand:wikipedia":"en:Lidl"}}, "geometry":{"type":"MultiPolygon","coordinates":[[[[-1.46616,50.93463],[-1.46571,50.93473],[-1.46539,50.93411],[-1.46585,50.93401],[-1.46616,50.93463]]]]}},
{ "type":"Feature","properties":{"osm_way_id":"913265339","building":"apartments","other":{"addr:postcode":"SO19 7LY","addr:street":"Bursledon Road"}}, "geometry":{"type":"MultiPolygon","coordinates":[[[[-1.35322,50.91213],[-1.35303,50.91204],[-1.35296,50.91211],[-1.35298,50.91211],[-1.35289,50.91219],[-1.35294,50.91221],[-1.35302,50.91224],[-1.3531,50.91217],[-1.35315,50.91219],[-1.35322,50.91213]]]]}}
]
}
