{
"type": "FeatureCollection",
"features": [
{ "type":"Feature","properties":{"osm_id":"25120727","name":"The Co-operative","other":{"addr:city":"Gloucester","addr:country":"GB","addr:housenumber":"110","addr:postcode":"GL4 6TF","addr:street":"Finlay Road","fhrs:id":"22636","shop":"supermarket"}}, "geometry":{"type":"Point","coordinates":[-2.23698,51.8438 ]}},
{ "type":"Feature","properties":{"osm_id":"25347825","name":"Morrisons","other":{"addr:city":"Gloucester","addr:country":"GB","addr:postcode":"GL4 4FF","addr:street":"Heron Way","alt_name":"Morrisons Glevum Shopping Centre","brand":"Morrisons","brand:wikidata":"Q922344","brand:wikipedia":"en:Morrisons","operator":"Morrisons","shop":"supermarket","website":"https:\/\/my.morrisons.com\/storefinder\/142"}}, "geometry":{"type":"Point","coordinates":[-2.20548,51.84157 ]}},
{ "type":"Feature","properties":{"osm_id":"26873605","name":"Tesco Express","other":{"brand":"Tesco Express","brand:wikidata":"Q98456772","contact:website":"https:\/\/www.tesco.com\/store-locator\/gloucester\/mead-road","shop":"supermarket"}}, "geometry":{"type":"Point","coordinates":[-2.19976,51.84674 ]}},
{ "type":"Feature","properties":{"osm_id":"345058086","name":"Lidl","other":{"addr:city":"Gloucester","addr:housenumber":"250","addr:postcode":"GL1 5TE","addr:street":"Bristol Road","brand":"Lidl","brand:wikidata":"Q151954","fhrs:id":"11611","operator":"Lidl","shop":"supermarket"}}, "geometry":{"type":"Point","coordinates":[-2.25916,51.85011 ]}},
{ "type":"Feature","properties":{"osm_id":"1830760975","name":"Emmaus Gloucestershire","other":{"designation":"Secondhand Superstore","shop":"supermarket"}}, "geometry":{"type":"Point","coordinates":[-2.22585,51.85246 ]}},
{ "type":"Feature","properties":{"osm_id":"4353714095","name":"Co-op","other":{"shop":"supermarket"}}, "geometry":{"type":"Point","coordinates":[-2.24941,51.8319 ]}},
{ "type":"Feature","properties":{"osm_id":"8636540002","name":"Lidl","other":{"addr:city":"Gloucester","addr:postcode":"GL2 2SN","addr:street":"Newhaven Road","brand":"Lidl","brand:wikidata":"Q151954","brand:wikipedia":"en:Lidl","fhrs:id":"1409135","operator":"Lidl","shop":"supermarket"}}, "geometry":{"type":"Point","coordinates":[-2.27672,51.81812 ]}},
{ "type":"Feature","properties":{"osm_way_id":"36192858","name":"Sainsbury's","building":"yes","shop":"supermarket","other":{"brand":"Sainsbury's","brand:wikidata":"Q152096","brand:wikipedia":"en:Sainsbury's"}}, "geometry":{"type":"MultiPolygon","coordinates":[[[[-2.25805,51.85898],[-2.25818,51.85888],[-2.25829,51.8587],[-2.25827,51.85863],[-2.25838,51.85844],[-2.25685,51.8581],[-2.25651,51.85868],[-2.2567,51.85872],[-2.25666,51.85878],[-2.25771,51.85902],[-2.2579,51.85902],[-2.25805,51.85898]]]]}},
{ "type":"Feature","properties":{"osm_way_id":"43251769","name":"Asda","building":"supermarket","shop":"supermarket","other":{"addr:city":"Gloucester","addr:country":"GB","addr:housenumber":"41","addr:postcode":"GL1 1DS","addr:street":"Bruton Way","brand":"Asda","brand:wikidata":"Q297410","brand:wikipedia":"en:Asda","contact:facebook":"https:\/\/www.facebook.com\/asda\/","contact:twitter":"@asda","contact:website":"https:\/\/storelocator.asda.com\/south-west\/gloucester\/bruton-way","fhrs:id":"11672","operator":"Asda Stores Ltd"}}, "geometry":{"type":"MultiPolygon","coordinates":[[[[-2.23522,51.86291],[-2.23597,51.86225],[-2.23727,51.86282],[-2.23665,51.86336],[-2.23682,51.86343],[-2.23663,51.8636],[-2.23645,51.86352],[-2.23635,51.86361],[-2.23529,51.86315],[-2.23542,51.86303],[-2.23522,51.86294],[-2.23522,51.86291]]]]}},
{ "type":"Feature","properties":{"osm_way_id":"53322220","name":"Sainsbury's","building":"commercial","shop":"supermarket","other":{"addr:city":"Gloucester","addr:postcode":"GL4 3RT","addr:street":"Barnett Way","brand":"Sainsbury's","brand:wikidata":"Q152096","brand:wikipedia":"en:Sainsbury's","operator":"Sainsbury's"}}, "geometry":{"type":"MultiPolygon","coordinates":[[[[-2.20115,51.86567],[-2.20123,51.86556],[-2.20145,51.86525],[-2.2014,51.86524],[-2.20135,51.86522],[-2.20138,51.86519],[-2.20126,51.86515],[-2.20117,51.86513],[-2.20114,51.86518],[-2.20095,51.86512],[-2.20108,51.86494],[-2.20117,51.86497],[-2.20126,51.86484],[-2.20034,51.86459],[-2.19987,51.86526],[-2.20003,51.8653],[-2.19996,51.8654],[-2.20107,51.8657],[-2.20112,51.86569],[-2.20115,51.86567]]]]}},
{ "type":"Feature","properties":{"osm_way_id":"57886991","name":"Tesco","building":"commercial","shop":"supermarket","other":{"brand":"Tesco","brand:wikidata":"Q487494","brand:wikipedia":"en:Tesco"}}, "geometry":{"type":"MultiPolygon","coordinates":[[[[-2.24974,51.87179],[-2.24876,51.87153],[-2.24919,51.87092],[-2.25067,51.87132],[-2.25052,51.87153],[-2.25029,51.87147],[-2.25011,51.87172],[-2.24984,51.87164],[-2.24974,51.87179]]]]}},
{ "type":"Feature","properties":{"osm_way_id":"120744292","name":"Aldi","building":"retail","shop":"supermarket","other":{"brand":"ALDI","brand:wikidata":"Q41171672","brand:wikipedia":"en:Aldi"}}, "geometry":{"type":"MultiPolygon","coordinates":[[[[-2.27682,51.82591],[-2.27656,51.8259],[-2.27656,51.82587],[-2.27599,51.82585],[-2.276,51.82574],[-2.27586,51.82574],[-2.27587,51.82562],[-2.27684,51.82565],[-2.27684,51.82573],[-2.27682,51.82591]]]]}},
{ "type":"Feature","properties":{"osm_way_id":"135185649","name":"Broads Centre Supermarket","building":"yes","shop":"supermarket","other":{"addr:city":"Norwich","addr:parentstreet":"Norwich Road","addr:postcode":"NR12 8AJ","addr:street":"Riverside Centre","addr:village":"Hoveton","fhrs:id":"1228523","operator":"VB of Wroxham Ltd","source:addr":"FHRS Open Data"}}, "geometry":{"type":"MultiPolygon","coordinates":[[[[1.40921,52.71142],[1.40931,52.71146],[1.40965,52.71156],[1.40971,52.71148],[1.40938,52.71138],[1.40938,52.71138],[1.40929,52.71135],[1.40921,52.71142]]]]}},
{ "type":"Feature","properties":{"osm_way_id":"188150912","name":"Co-op","building":"yes","shop":"supermarket","other":{"addr:postcode":"HP17 8PB","addr:street":"Oxford Road","fhrs:id":"369677"}}, "geometry":{"type":"MultiPolygon","coordinates":[[[[-0.85802,51.80427],[-0.85804,51.80417],[-0.85777,51.80416],[-0.85775,51.80429],[-0.85785,51.8043],[-0.85785,51.80426],[-0.85802,51.80427]]]]}},
{ "type":"Feature","properties":{"osm_way_id":"230878776","name":"Tesco Express","building":"retail","shop":"supermarket","other":{"brand":"Tesco Express","brand:wikidata":"Q98456772","building:levels":"2","opening_hours":"Mo-Su 06:00-22:00","operator":"Tesco","wheelchair":"yes"}}, "geometry":{"type":"MultiPolygon","coordinates":[[[[-2.21052,51.87465],[-2.2104,51.87474],[-2.21011,51.8746],[-2.21023,51.87451],[-2.21052,51.87465]]]]}},
{ "type":"Feature","properties":{"osm_way_id":"230878780","name":"The Cooperative","building":"retail","shop":"supermarket","other":{"addr:housenumber":"129","building:levels":"1","opening_hours":"Su 10:00-16:00; Mo-Sa 07:00-21:00","operator":"Co-op","wheelchair":"yes"}}, "geometry":{"type":"MultiPolygon","coordinates":[[[[-2.21269,51.87382],[-2.21244,51.87401],[-2.21207,51.87384],[-2.21232,51.87364],[-2.21269,51.87382]]]]}},
{ "type":"Feature","properties":{"osm_way_id":"235216984","name":"Morrisons","building":"yes","shop":"supermarket","other":{"alt_name":"Morrisons Gloucester","brand":"Morrisons","brand:wikidata":"Q922344","brand:wikipedia":"en:Morrisons","loc_name":"Morrisons Metz Way","operator":"Morrisons"}}, "geometry":{"type":"MultiPolygon","coordinates":[[[[-2.22333,51.86063],[-2.22263,51.86123],[-2.22257,51.8612],[-2.22258,51.86119],[-2.22198,51.86092],[-2.22174,51.86112],[-2.22146,51.861],[-2.2217,51.86079],[-2.22177,51.86081],[-2.22243,51.86024],[-2.22333,51.86063]]]]}},
{ "type":"Feature","properties":{"osm_way_id":"244332540","name":"Vauxhall Supermarket","building":"shop","shop":"supermarket"},"geometry":{"type":"MultiPolygon","coordinates":[[[[-2.23558,51.85983],[-2.2356,51.85984],[-2.2355,51.85992],[-2.2353,51.85983],[-2.2354,51.85974],[-2.23552,51.8598],[-2.23559,51.85974],[-2.23565,51.85977],[-2.23558,51.85983]]]]}},
{ "type":"Feature","properties":{"osm_way_id":"283105010","name":"Tesco Express","building":"yes","shop":"supermarket","other":{"addr:city":"Gloucester","addr:postcode":"GL2 2GT","addr:street":"Thatcham Avenue","brand":"Tesco Express","brand:wikidata":"Q98456772","operator":"Tesco"}}, "geometry":{"type":"MultiPolygon","coordinates":[[[[-2.26807,51.82055],[-2.26804,51.8206],[-2.26782,51.82055],[-2.2679,51.82039],[-2.26809,51.82041],[-2.26825,51.82046],[-2.26823,51.8205],[-2.26819,51.82057],[-2.26807,51.82055]]]]}},
{ "type":"Feature","properties":{"osm_way_id":"283108959","name":"Tesco Extra","building":"yes","shop":"supermarket","other":{"addr:city":"Gloucester","addr:postcode":"GL2 4PF","addr:street":"Bristol Road","brand":"Tesco Extra","brand:wikidata":"Q25172225","operator":"Tesco","phone":"+44 845 677 9567"}}, "geometry":{"type":"MultiPolygon","coordinates":[[[[-2.27912,51.82777],[-2.27909,51.82764],[-2.27903,51.82764],[-2.279,51.82747],[-2.27904,51.82747],[-2.27895,51.82711],[-2.27912,51.82709],[-2.27909,51.82694],[-2.27904,51.82673],[-2.27929,51.8267],[-2.28001,51.82664],[-2.28002,51.82667],[-2.28026,51.82665],[-2.28036,51.8271],[-2.28015,51.82712],[-2.2802,51.82735],[-2.28003,51.82737],[-2.2801,51.82765],[-2.28011,51.82769],[-2.27912,51.82777]]]]}},
{ "type":"Feature","properties":{"osm_way_id":"288341685","name":"Lidl","building":"yes","shop":"supermarket","other":{"addr:city":"Gloucester","addr:postcode":"GL1 2SQ","addr:street":"Mercia Road","brand":"Lidl","brand:wikidata":"Q151954","brand:wikipedia":"en:Lidl","fhrs:id":"1409132"}}, "geometry":{"type":"MultiPolygon","coordinates":[[[[-2.24608,51.87263],[-2.24594,51.87272],[-2.24577,51.87268],[-2.24574,51.87272],[-2.24549,51.87265],[-2.24567,51.8724],[-2.24557,51.87237],[-2.24569,51.87219],[-2.24605,51.87229],[-2.24603,51.87231],[-2.24616,51.87234],[-2.24613,51.87239],[-2.24615,51.87239],[-2.24606,51.87252],[-2.24603,51.87252],[-2.24598,51.8726],[-2.24608,51.87263]]]]}},
{ "type":"Feature","properties":{"osm_way_id":"317579428","name":"ALDI","building":"yes","shop":"supermarket","other":{"brand":"ALDI","brand:wikidata":"Q41171672","brand:wikipedia":"en:Aldi"}}, "geometry":{"type":"MultiPolygon","coordinates":[[[[-2.25091,51.85737],[-2.25116,51.85695],[-2.25081,51.85687],[-2.25071,51.85703],[-2.25053,51.85699],[-2.25038,51.85725],[-2.25091,51.85737]]]]}},
{ "type":"Feature","properties":{"osm_way_id":"337245543","name":"Asda","building":"yes","shop":"supermarket","other":{"addr:city":"Gloucester","addr:country":"GB","addr:postcode":"GL2 2SN","addr:street":"Naas Lane Link Road","brand":"Asda","brand:wikidata":"Q297410","brand:wikipedia":"en:Asda","contact:facebook":"https:\/\/www.facebook.com\/asda\/","contact:twitter":"@asda","contact:website":"https:\/\/storelocator.asda.com\/south-west\/quedgeley\/naas-lane-link-road-kingsway","fhrs:id":"610972","operator":"Asda Stores Ltd"}}, "geometry":{"type":"MultiPolygon","coordinates":[[[[-2.27546,51.82193],[-2.27577,51.8215],[-2.2748,51.82125],[-2.27464,51.82148],[-2.2745,51.82144],[-2.27436,51.82164],[-2.27546,51.82193]]]]}},
{ "type":"Feature","properties":{"osm_way_id":"345557309","name":"Aldi","building":"yes","shop":"supermarket","other":{"addr:city":"Gloucester","addr:postcode":"GL3 3TQ","brand":"ALDI","brand:wikidata":"Q41171672","brand:wikipedia":"en:Aldi"}}, "geometry":{"type":"MultiPolygon","coordinates":[[[[-2.19653,51.85942],[-2.19645,51.85951],[-2.19638,51.85948],[-2.19623,51.85965],[-2.19585,51.85951],[-2.19605,51.85929],[-2.19601,51.85928],[-2.19624,51.85904],[-2.19666,51.85919],[-2.19658,51.85928],[-2.19647,51.8594],[-2.19653,51.85942]]]]}},
{ "type":"Feature","properties":{"osm_way_id":"747316838","name":"Lidl","building":"retail","shop":"supermarket","other":{"addr:city":"Gloucester","addr:postcode":"GL4 4LP","addr:street":"Eastern Avenue","brand":"Lidl","brand:wikidata":"Q151954","brand:wikipedia":"en:Lidl","fhrs:id":"15727"}}, "geometry":{"type":"MultiPolygon","coordinates":[[[[-2.22246,51.85506],[-2.22296,51.85449],[-2.22267,51.8544],[-2.22271,51.85436],[-2.22253,51.8543],[-2.22209,51.8548],[-2.22199,51.8549],[-2.22246,51.85506]]]]}}
]
}
