{
"type": "FeatureCollection",
"features": [
{ "type":"Feature","properties":{"osm_id":"274814545","name":"Spar","other":{"addr:housenumber":"1","addr:postcode":"CF62 3DR","addr:street":"Fontygary Road","brand":"Spar","brand:wikidata":"Q610492","brand:wikipedia":"en:Spar (retailer)","fhrs:id":"1193767","opening_hours":"Mo-We 06:30-20:00; Th-Sa 06:30-21:00; su 06:30-20:00","shop":"supermarket","source:addr":"FHRS Open Data"}}, "geometry":{"type":"Point","coordinates":[-3.3482,51.38926 ]}},
{ "type":"Feature","properties":{"osm_id":"354885218","name":"Co-op Food","other":{"addr:postcode":"CF61 1XA","addr:street":"Boverton Road","brand":"Co-op Food","brand:wikidata":"Q3277439","brand:wikipedia":"en:Co-op Food","fhrs:id":"966074","operator":"The Co-operative Group","shop":"supermarket","source:addr":"FHRS Open Data","wheelchair":"yes"}}, "geometry":{"type":"Point","coordinates":[-3.4832,51.4089 ]}},
{ "type":"Feature","properties":{"osm_id":"354885361","name":"Filco","other":{"addr:housenumber":"19","addr:postcode":"CF61 1XZ","addr:street":"Boverton Road","fhrs:id":"966073","operator":"Filco","shop":"supermarket","source:addr":"FHRS Open Data","wheelchair":"yes"}}, "geometry":{"type":"Point","coordinates":[-3.48128,51.40836 ]}},
{ "type":"Feature","properties":{"osm_id":"2314436708","name":"Waitrose","other":{"addr:postcode":"CF71 7FB","addr:street":"Birds Lane","brand":"Waitrose","brand:wikidata":"Q771734","brand:wikipedia":"en:Waitrose & Partners","fhrs:id":"966733","official_name":"Waitrose & Partners","operator":"Waitrose & Partners","shop":"supermarket","source:addr":"FHRS Open Data"}}, "geometry":{"type":"Point","coordinates":[-3.44851,51.46099 ]}},
{ "type":"Feature","properties":{"osm_id":"2314436720","name":"Filco","other":{"addr:housenumber":"2","addr:postcode":"CF71 7AG","addr:street":"High Street","fhrs:id":"966070","shop":"supermarket","source:addr":"FHRS Open Data"}}, "geometry":{"type":"Point","coordinates":[-3.44672,51.46135 ]}},
{ "type":"Feature","properties":{"osm_id":"6018433906","name":"Spar","other":{"addr:housenumber":"17","addr:postcode":"CF61 1XZ","addr:street":"Boverton Road","brand":"Spar","brand:wikidata":"Q610492","brand:wikipedia":"en:Spar (retailer)","fhrs:id":"966517","shop":"supermarket","source:addr":"FHRS Open Data"}}, "geometry":{"type":"Point","coordinates":[-3.48179,51.40839 ]}},
{ "type":"Feature","properties":{"osm_id":"8615402198","other":{"historic":"ruins","site_type":"lime_kiln"}}, "geometry":{"type":"Point","coordinates":[-2.24045,54.67305 ]}},
{ "type":"Feature","properties":{"osm_id":"8730690102","name":"The Food Warehouse","other":{"brand":"The Food Warehouse","brand:wikidata":"Q87263899","operator":"kj","shop":"supermarket"}}, "geometry":{"type":"Point","coordinates":[-3.23955,51.41414 ]}},
{ "type":"Feature","properties":{"osm_id":"9442499413","name":"M&S Foodhall","other":{"addr:city":"Cardiff","addr:postcode":"CF5 6YZ","brand":"M&S Foodhall","brand:wikidata":"Q714491","brand:wikipedia":"en:Marks & Spencer","shop":"supermarket"}}, "geometry":{"type":"Point","coordinates":[-3.2763,51.46667 ]}},
{ "type":"Feature","properties":{"osm_way_id":"24516478","name":"Tesco Extra","building":"yes","shop":"supermarket","other":{"addr:postcode":"CF5 6XQ","brand":"Tesco Extra","brand:wikidata":"Q25172225","brand:wikipedia":"en:Tesco Extra","contact:website":"https:\/\/www.tesco.com\/store-locator\/cardiff\/culverhouse-cross","fhrs:id":"966306","source:addr:postcode":"FHRS Open Data","toilets":"yes","toilets:wheelchair":"yes","wheelchair":"yes"}}, "geometry":{"type":"MultiPolygon","coordinates":[[[[-3.27504,51.46649],[-3.2738,51.46719],[-3.27466,51.46778],[-3.2752,51.46748],[-3.27537,51.4676],[-3.27544,51.46755],[-3.27549,51.46738],[-3.27546,51.46735],[-3.27587,51.46712],[-3.27516,51.46663],[-3.27521,51.46661],[-3.27504,51.46649]]]]}},
{ "type":"Feature","properties":{"osm_way_id":"24516553","name":"ALDI","building":"yes","shop":"supermarket","other":{"addr:city":"Cardiff","addr:housename":"Brooklands Retail Park","addr:postcode":"CF5 6XW","brand":"ALDI","brand:wikidata":"Q41171672","brand:wikipedia":"en:Aldi","fhrs:id":"1012559","opening_hours":"Mo-Sa 08:00-22:00; Su 10:00-16:00","website":"https:\/\/www.aldi.co.uk\/culverhousecross"}}, "geometry":{"type":"MultiPolygon","coordinates":[[[[-3.26862,51.46438],[-3.26905,51.4641],[-3.26937,51.4643],[-3.26955,51.4644],[-3.26912,51.46468],[-3.26888,51.46453],[-3.26862,51.46438]]]]}},
{ "type":"Feature","properties":{"osm_way_id":"91694343","name":"Tesco","building":"yes","shop":"supermarket","other":{"addr:postcode":"CF64 1SA","addr:street":"Terra Nova Way","brand":"Tesco","brand:wikidata":"Q487494","brand:wikipedia":"en:Tesco","fhrs:id":"966161","source:addr":"FHRS Open Data"}}, "geometry":{"type":"MultiPolygon","coordinates":[[[[-3.18528,51.44522],[-3.18505,51.44514],[-3.18499,51.4452],[-3.18503,51.44522],[-3.18499,51.44526],[-3.18518,51.44533],[-3.185,51.44551],[-3.18488,51.44547],[-3.1847,51.44565],[-3.18579,51.44607],[-3.18606,51.44579],[-3.18598,51.44576],[-3.18617,51.44556],[-3.18528,51.44522]]]]}},
{ "type":"Feature","properties":{"osm_way_id":"100602220","name":"Morrisons","building":"yes","shop":"supermarket","other":{"addr:postcode":"CF63 4BA","addr:street":"Heol Ceiniog","brand":"Morrisons","brand:wikidata":"Q922344","brand:wikipedia":"en:Morrisons","fhrs:id":"966342"}}, "geometry":{"type":"MultiPolygon","coordinates":[[[[-3.27205,51.40162],[-3.27279,51.4015],[-3.2729,51.40172],[-3.27284,51.40177],[-3.27287,51.40186],[-3.27276,51.40187],[-3.27293,51.40234],[-3.27184,51.40248],[-3.27161,51.40187],[-3.27212,51.40179],[-3.27205,51.40162]]]]}},
{ "type":"Feature","properties":{"osm_way_id":"279196634","name":"Lidl","building":"yes","shop":"supermarket","other":{"addr:postcode":"CF63 1BP","addr:street":"Cennin Pedr","brand":"Lidl","brand:wikidata":"Q151954","brand:wikipedia":"en:Lidl","fhrs:id":"966333","source:addr":"FHRS Open Data"}}, "geometry":{"type":"MultiPolygon","coordinates":[[[[-3.25326,51.42503],[-3.2528,51.42502],[-3.25284,51.42439],[-3.25304,51.4244],[-3.25304,51.42445],[-3.25327,51.42445],[-3.25324,51.42485],[-3.25327,51.42485],[-3.25326,51.42503]]]]}},
{ "type":"Feature","properties":{"osm_way_id":"591847241","name":"Asda","building":"yes","shop":"supermarket","other":{"addr:city":"Barry","addr:country":"GB","addr:housename":"Ffordd Y Mileniwm","addr:postcode":"CF62 5AT","brand":"Asda","brand:wikidata":"Q297410","brand:wikipedia":"en:Asda","building:levels":"2","building:material":"steel","contact:facebook":"https:\/\/www.facebook.com\/asda\/","contact:twitter":"@asda","contact:website":"https:\/\/storelocator.asda.com\/wales\/barry\/ffordd-y-mileniwm","fhrs:id":"966906","opening_hours":"07:00-22:00","operator":"Asda Stores Ltd","roof:colour":"light grey","roof:shape":"flat"}}, "geometry":{"type":"MultiPolygon","coordinates":[[[[-3.2787,51.39768],[-3.27863,51.39719],[-3.27763,51.39724],[-3.27764,51.3973],[-3.27735,51.39731],[-3.2774,51.39763],[-3.27725,51.39764],[-3.27727,51.39778],[-3.27715,51.39779],[-3.27717,51.39789],[-3.27729,51.39788],[-3.27729,51.39793],[-3.27771,51.3979],[-3.27773,51.39801],[-3.27814,51.39799],[-3.27813,51.39788],[-3.27845,51.39787],[-3.27843,51.39769],[-3.2787,51.39768]]]]}},
{ "type":"Feature","properties":{"osm_way_id":"844735894","building":"house","other":{"addr:city":"Cowbridge","addr:housenumber":"52","addr:street":"Dunraven Close","building:levels":"2"}}, "geometry":{"type":"MultiPolygon","coordinates":[[[[-3.46706,51.4608],[-3.46691,51.46081],[-3.46693,51.46089],[-3.46708,51.46088],[-3.46706,51.4608]]]]}},
{ "type":"Feature","properties":{"osm_way_id":"888615598","name":"Co-op Food","building":"yes","shop":"supermarket","other":{"brand":"Co-op Food","brand:wikidata":"Q3277439","brand:wikipedia":"en:Co-op Food"}}, "geometry":{"type":"MultiPolygon","coordinates":[[[[-3.41445,51.3996],[-3.41454,51.39944],[-3.41457,51.39945],[-3.41465,51.39933],[-3.41458,51.39931],[-3.41456,51.39935],[-3.41448,51.39933],[-3.41445,51.39938],[-3.41441,51.39937],[-3.41439,51.3994],[-3.41441,51.39941],[-3.41432,51.39956],[-3.41445,51.3996]]]]}},
{ "type":"Feature","properties":{"osm_way_id":"966734213","name":"Tesco","building":"retail","shop":"supermarket","other":{"addr:postcode":"CF62 8NX","addr:street":"Stirling Road","brand":"Tesco","brand:wikidata":"Q487494","brand:wikipedia":"en:Tesco","fhrs:id":"966068","opening_hours":"mo-sa 06:00-23:00; su 10:00-16:00","source:addr":"FHRS Open Data"}}, "geometry":{"type":"MultiPolygon","coordinates":[[[[-3.29137,51.41504],[-3.29129,51.4151],[-3.29127,51.41509],[-3.29109,51.41523],[-3.291,51.41519],[-3.29072,51.41544],[-3.29099,51.41556],[-3.29095,51.4156],[-3.28983,51.41508],[-3.29037,51.41463],[-3.29044,51.41466],[-3.29048,51.41463],[-3.29137,51.41504]]]]}}
]
}
