{
"type": "FeatureCollection",
"features": [
{ "type":"Feature","properties":{"osm_id":"45265874","name":"Iceland","other":{"addr:city":"Harold Hill","addr:housenumber":"10","addr:street":"Farnham Road","brand":"Iceland","brand:wikidata":"Q721810","shop":"supermarket"}}, "geometry":{"type":"Point","coordinates":[0.21846,51.60667 ]}},
{ "type":"Feature","properties":{"osm_id":"45274552","name":"The Co-operative Food","other":{"operator":"The Co-operative Group","shop":"supermarket","wheelchair":"yes"}}, "geometry":{"type":"Point","coordinates":[0.23339,51.5936 ]}},
{ "type":"Feature","properties":{"osm_id":"448750353","name":"M&S Simply Food","other":{"shop":"supermarket","brand":"M&S Simply Food","alt_name":"Marks & Spencer Simply Food","brand:wikidata":"Q714491","brand:wikipedia":"en:Marks & Spencer"}}, "geometry":{"type":"Point","coordinates":[0.24981,51.55833 ]}},
{ "type":"Feature","properties":{"osm_id":"459635531","name":"Londis","other":{"shop":"supermarket"}}, "geometry":{"type":"Point","coordinates":[0.23746,51.5586 ]}},
{ "type":"Feature","properties":{"osm_id":"469343205","other":{"shop":"supermarket"}}, "geometry":{"type":"Point","coordinates":[0.20554,51.58108 ]}},
{ "type":"Feature","properties":{"osm_id":"597237387","name":"Tesco Metro","ref":"2297","other":{"addr:city":"Romford","addr:housenumber":"316-318","addr:postcode":"RM5 3NL","addr:street":"Collier Row Lane","branch":"Romford Collier Row Metro","brand":"Tesco Metro","brand:wikidata":"Q57551648","contact:website":"https:\/\/www.tesco.com\/store-locator\/romford\/316-collier-row-ln","fhrs:authority":"Havering","fhrs:id":"373967","fhrs:local_authority_id":"9249","operator":"Tesco","shop":"supermarket","source:addr":"FHRS Open Data","toilets:wheelchair":"no","wheelchair":"yes"}}, "geometry":{"type":"Point","coordinates":[0.16394,51.59889 ]}},
{ "type":"Feature","properties":{"osm_id":"2522664025","name":"Co-op","other":{"addr:city":"Hornchurch","addr:housenumber":"10-15","addr:postcode":"RM12 5AB","addr:street":"Station Parade","opening_hours":"Mo-Sa 06:00-22:00; Su 07:00-22:00","operator":"Co-op","shop":"supermarket"}}, "geometry":{"type":"Point","coordinates":[0.19923,51.5489 ]}},
{ "type":"Feature","properties":{"osm_id":"2522664131","name":"B&Q","other":{"shop":"supermarket","operator":"B&Q"}}, "geometry":{"type":"Point","coordinates":[0.18947,51.56686 ]}},
{ "type":"Feature","properties":{"osm_id":"2522666611","name":"Sainsbury's","other":{"brand":"Sainsbury's","brand:wikidata":"Q152096","brand:wikipedia":"en:Sainsbury's","operator":"Sainsbury's","shop":"supermarket","toilets":"yes","toilets:wheelchair":"yes","wheelchair":"yes"}}, "geometry":{"type":"Point","coordinates":[0.18027,51.57517 ]}},
{ "type":"Feature","properties":{"osm_id":"4743587524","name":"Co Op","other":{"shop":"supermarket","name:en":"Co Op"}}, "geometry":{"type":"Point","coordinates":[0.21835,51.60681 ]}},
{ "type":"Feature","properties":{"osm_id":"4994302834","name":"Aldi","ref":"1356","other":{"addr:city":"Romford","addr:housenumber":"43","addr:postcode":"RM1 3AB","addr:street":"Market Place","branch":"Romford Market Place","brand":"ALDI","brand:wikidata":"Q41171672","brand:wikipedia":"en:Aldi","contact:phone":"+44 1708 769523","contact:website":"http:\/\/www.boots.com\/stores\/1356-romford-market-place-health-centre-rm1-3ab","dispensing":"yes","fhrs:id":"373562","shop":"supermarket","source:addr":"FHRS Open Data","toilets:wheelchair":"no","wheelchair":"yes"}}, "geometry":{"type":"Point","coordinates":[0.18255,51.57999 ]}},
{ "type":"Feature","properties":{"osm_id":"5370783370","name":"COOPerative Food","other":{"shop":"supermarket"}}, "geometry":{"type":"Point","coordinates":[0.18315,51.57524 ]}},
{ "type":"Feature","properties":{"osm_id":"5377811705","name":"Mixas","other":{"shop":"supermarket","addr:city":"Romford","addr:street":"North Street","addr:postcode":"RM1 1EU"}}, "geometry":{"type":"Point","coordinates":[0.17763,51.58081 ]}},
{ "type":"Feature","properties":{"osm_id":"5965230151","name":"Tesco Express","other":{"addr:city":"Hornchurch","addr:postcode":"RM11 2JT","addr:street":"Butts Green Road","brand":"Tesco Express","brand:wikidata":"Q98456772","contact:website":"https:\/\/www.tesco.com\/store-locator\/hornchurch\/77-79-butts-green-rd","opening_hours":"Mo-Su 07:00 - 22:00","operator":"Tesco","payment:apple_pay":"yes","payment:cash":"yes","payment:contactless":"yes","payment:credit_cards":"yes","payment:debit_cards":"yes","payment:google_pay":"yes","payment:mastercard":"yes","payment:visa":"yes","payment:visa_debit":"yes","shop":"supermarket"}}, "geometry":{"type":"Point","coordinates":[0.21886,51.57171 ]}},
{ "type":"Feature","properties":{"osm_id":"6658578058","name":"Aldi","other":{"addr:city":"Romford","addr:housenumber":"7-9","addr:postcode":"RM7 8AD","addr:street":"Marlborough Road","brand":"ALDI","brand:wikidata":"Q41171672","brand:wikipedia":"en:Aldi","name:fa":"آلدی","opening_hours":"08:00-22:00","operator":"Aldi","shop":"supermarket"}}, "geometry":{"type":"Point","coordinates":[0.16332,51.58164 ]}},
{ "type":"Feature","properties":{"osm_id":"8406609874","name":"Lidl","other":{"brand":"Lidl","brand:wikidata":"Q151954","brand:wikipedia":"en:Lidl","shop":"supermarket"}}, "geometry":{"type":"Point","coordinates":[0.22432,51.60576 ]}},
{ "type":"Feature","properties":{"osm_way_id":"42578568","name":"Tesco","building":"yes","shop":"supermarket","other":{"brand":"Tesco","brand:wikidata":"Q487494","brand:wikipedia":"en:Tesco"}}, "geometry":{"type":"MultiPolygon","coordinates":[[[[0.20797,51.54407],[0.20797,51.54381],[0.20797,51.54377],[0.20794,51.54378],[0.20794,51.54373],[0.20792,51.54373],[0.20791,51.54371],[0.20791,51.54356],[0.20798,51.54356],[0.20799,51.5436],[0.20831,51.5436],[0.20831,51.54355],[0.20864,51.54355],[0.20864,51.54358],[0.20862,51.54399],[0.20841,51.54403],[0.20821,51.54407],[0.20797,51.54407]]]]}},
{ "type":"Feature","properties":{"osm_way_id":"131633026","name":"Tesco Extra","building":"yes","shop":"supermarket","other":{"addr:city":"London Borough of Havering","addr:housenumber":"300","addr:postcode":"RM11 1PY","addr:street":"Hornchurch Road","branch_ref":"03107","brand":"Tesco Extra","brand:wikidata":"Q25172225","brand:wikipedia":"en:Tesco Extra","fhrs:id":"372482","layer":"-1","operator":"Tesco Stores Ltd","source:addr":"FSA Food Hygiene Ratings Database","source:branch_ref":"FSA Food Hygiene Ratings Database"}}, "geometry":{"type":"MultiPolygon","coordinates":[[[[0.19113,51.56631],[0.19137,51.56632],[0.19137,51.5663],[0.19225,51.56633],[0.19227,51.56614],[0.19245,51.56615],[0.19268,51.56609],[0.1927,51.56592],[0.19235,51.5659],[0.19241,51.56541],[0.19212,51.5654],[0.19213,51.56538],[0.19203,51.56538],[0.19203,51.56541],[0.19185,51.5654],[0.19185,51.56533],[0.19152,51.56532],[0.19152,51.56529],[0.19126,51.56528],[0.19113,51.56631]]]]}},
{ "type":"Feature","properties":{"osm_way_id":"132638741","name":"Asda","building":"yes","shop":"supermarket","other":{"addr:city":"Romford","addr:country":"GB","addr:postcode":"RM1 3EE","addr:street":"Mercury Gardens","brand":"Asda","brand:wikidata":"Q297410","brand:wikipedia":"en:Asda","contact:facebook":"https:\/\/www.facebook.com\/asda\/","contact:phone":"+44 1708 388700","contact:twitter":"@asda","contact:website":"https:\/\/storelocator.asda.com\/london\/romford\/dolphin-approach-mercury-gardens","fhrs:id":"373391","layer":"2","operator":"Asda Stores Ltd","toilets":"yes","toilets:access":"customers","toilets:wheelchair":"yes","wheelchair":"yes"}}, "geometry":{"type":"MultiPolygon","coordinates":[[[[0.18554,51.58074],[0.185,51.58045],[0.18486,51.58033],[0.1848,51.58021],[0.18477,51.58017],[0.18468,51.5801],[0.18459,51.58012],[0.18452,51.58],[0.18458,51.57998],[0.18456,51.57988],[0.18461,51.5798],[0.18469,51.57973],[0.18484,51.57966],[0.18491,51.57963],[0.18571,51.57994],[0.18575,51.58007],[0.18581,51.58014],[0.18608,51.58028],[0.18592,51.58039],[0.18599,51.58043],[0.18558,51.58075],[0.18556,51.58075],[0.18554,51.58074]]]]}},
{ "type":"Feature","properties":{"osm_way_id":"160272330","name":"Tesco Extra Gallows Corner","building":"yes","shop":"supermarket","other":{"brand":"Tesco Extra","brand:wikidata":"Q25172225","brand:wikipedia":"en:Tesco Extra"}}, "geometry":{"type":"MultiPolygon","coordinates":[[[[0.21745,51.59372],[0.21731,51.59367],[0.21752,51.59341],[0.21764,51.59344],[0.21757,51.59354],[0.21768,51.59357],[0.21798,51.59318],[0.21806,51.59308],[0.2198,51.59359],[0.21925,51.59427],[0.21906,51.59427],[0.21769,51.59386],[0.21768,51.59388],[0.21739,51.59379],[0.21745,51.59372]]]]}},
{ "type":"Feature","properties":{"osm_way_id":"182321436","name":"Tesco Extra","building":"yes","shop":"supermarket","other":{"addr:city":"Rainham","addr:postcode":"RM13 9YZ","addr:street":"Bridge Road","brand":"Tesco Extra","brand:wikidata":"Q25172225","brand:wikipedia":"en:Tesco Extra","fhrs:id":"373937","source:addr":"FHRS Open Data"}}, "geometry":{"type":"MultiPolygon","coordinates":[[[[0.1904,51.52075],[0.19072,51.52071],[0.19071,51.5207],[0.1912,51.52064],[0.19119,51.52061],[0.19146,51.52058],[0.19141,51.52041],[0.19135,51.52041],[0.1912,51.5199],[0.19124,51.51989],[0.19197,51.51981],[0.19196,51.51978],[0.19194,51.51973],[0.19133,51.5198],[0.19128,51.51963],[0.19119,51.51964],[0.19117,51.51955],[0.19113,51.51956],[0.19092,51.51958],[0.19091,51.51957],[0.19047,51.51962],[0.19018,51.5197],[0.19019,51.51973],[0.19008,51.51974],[0.19021,51.52015],[0.19008,51.52017],[0.1901,51.52023],[0.19022,51.52021],[0.19032,51.52052],[0.19026,51.52053],[0.19032,51.52074],[0.1904,51.52073],[0.1904,51.52075]]]]}},
{ "type":"Feature","properties":{"osm_way_id":"208161619","name":"Sainsbury's","building":"retail","shop":"supermarket","other":{"addr:city":"Hornchurch","addr:housenumber":"101-105","addr:postcode":"RM11 1TX","addr:street":"High Street","brand":"Sainsbury's","brand:wikidata":"Q152096","brand:wikipedia":"en:Sainsbury's","fhrs:id":"374050","fhrs:local_authority_id":"9762","source:addr":"FHRS Open Data"}}, "geometry":{"type":"MultiPolygon","coordinates":[[[[0.21757,51.56298],[0.21764,51.5631],[0.21768,51.56309],[0.21782,51.56334],[0.21796,51.56343],[0.21801,51.56352],[0.21813,51.56349],[0.21812,51.56347],[0.21818,51.56346],[0.21817,51.56345],[0.21825,51.56343],[0.21826,51.56344],[0.21827,51.56344],[0.21833,51.56354],[0.21859,51.56348],[0.21853,51.56338],[0.21862,51.56335],[0.21857,51.56326],[0.21882,51.56321],[0.21878,51.56313],[0.21882,51.56312],[0.21878,51.56304],[0.21873,51.56303],[0.21872,51.56303],[0.21866,51.56293],[0.21869,51.56292],[0.21871,51.56289],[0.21863,51.56275],[0.2183,51.56282],[0.21829,51.56281],[0.21757,51.56298]]]]}},
{ "type":"Feature","properties":{"osm_way_id":"208163230","name":"Lidl","building":"yes","shop":"supermarket","other":{"addr:country":"GB","addr:housenumber":"31","addr:postcode":"RM11 1TP","addr:street":"High Street","brand":"Lidl","brand:wikidata":"Q151954","brand:wikipedia":"en:Lidl","fhrs:id":"1040946"}}, "geometry":{"type":"MultiPolygon","coordinates":[[[[0.21508,51.56315],[0.21547,51.56315],[0.21547,51.5632],[0.21552,51.5632],[0.21553,51.56377],[0.2151,51.56378],[0.21508,51.56315]]]]}},
{ "type":"Feature","properties":{"osm_way_id":"208798281","name":"Lidl","building":"yes","shop":"supermarket","other":{"addr:country":"GB","addr:postcode":"RM1 1TB","addr:street":"Atlanta Boulevard","brand":"Lidl","brand:wikidata":"Q151954","brand:wikipedia":"en:Lidl","fhrs:id":"1137802"}}, "geometry":{"type":"MultiPolygon","coordinates":[[[[0.18357,51.57409],[0.18246,51.57379],[0.18266,51.5735],[0.18237,51.57343],[0.18242,51.57336],[0.18382,51.57374],[0.18357,51.57409]]]]}},
{ "type":"Feature","properties":{"osm_way_id":"245844807","name":"Co-op","building":"yes","shop":"supermarket"},"geometry":{"type":"MultiPolygon","coordinates":[[[[0.21957,51.56782],[0.21973,51.56781],[0.21967,51.56762],[0.21952,51.56763],[0.21957,51.56782]]]]}},
{ "type":"Feature","properties":{"osm_way_id":"292740529","name":"Waitrose","building":"retail","shop":"supermarket","other":{"addr:housenumber":"218","addr:postcode":"RM14 3BT","addr:street":"St Mary's Lane","brand":"Waitrose","brand:wikidata":"Q771734","brand:wikipedia":"en:Waitrose & Partners","building:levels":"1","building:material":"brick","official_name":"Waitrose & Partners","operator":"Waitrose & Partners","wheelchair":"yes"}}, "geometry":{"type":"MultiPolygon","coordinates":[[[[0.25263,51.55635],[0.253,51.55642],[0.25302,51.55639],[0.25341,51.55646],[0.25349,51.55626],[0.25354,51.55627],[0.25356,51.55623],[0.25355,51.55621],[0.25353,51.5562],[0.25356,51.55613],[0.25282,51.556],[0.25274,51.55619],[0.25266,51.55618],[0.25262,51.55627],[0.25266,51.55628],[0.25263,51.55635]]]]}},
{ "type":"Feature","properties":{"osm_way_id":"315187889","name":"Aldi","building":"retail","shop":"supermarket","other":{"brand":"ALDI","brand:wikidata":"Q41171672","brand:wikipedia":"en:Aldi","name:fa":"آلدی"}}, "geometry":{"type":"MultiPolygon","coordinates":[[[[0.24872,51.55629],[0.2488,51.55654],[0.24837,51.55659],[0.24837,51.55657],[0.24829,51.55634],[0.24872,51.55629]]]]}},
{ "type":"Feature","properties":{"osm_way_id":"558371448","name":"Sainsbury's Local","building":"retail","shop":"supermarket","other":{"addr:city":"Hornchurch","addr:housenumber":"2","addr:postcode":"RM12 6RJ","addr:street":"Suttons Lane","brand":"Sainsbury's Local","brand:wikidata":"Q13218434","fhrs:id":"848882","opening_hours":"Mo-Su 07:00-23:00","operator":"Sainsburys","phone":"+44 1708 792660","source:addr:postcode":"FHRS Open Data","website":"https:\/\/stores.sainsburys.co.uk\/4287\/hornchurch-suttons-lane-local"}}, "geometry":{"type":"MultiPolygon","coordinates":[[[[0.21848,51.55249],[0.21844,51.55249],[0.2182,51.55252],[0.21818,51.55252],[0.21811,51.55228],[0.21841,51.55224],[0.21848,51.55249]]]]}},
{ "type":"Feature","properties":{"osm_way_id":"558631293","name":"Savers","building":"yes","shop":"supermarket","other":{"addr:city":"Elm Park","addr:street":"St Nicholas Avenue","addr:postcode":"RM12 4PT"}}, "geometry":{"type":"MultiPolygon","coordinates":[[[[0.19813,51.55126],[0.19818,51.55117],[0.19826,51.55119],[0.19829,51.5512],[0.19843,51.55123],[0.1986,51.55127],[0.19856,51.55135],[0.19813,51.55126]]]]}},
{ "type":"Feature","properties":{"osm_way_id":"558631295","name":"Sainsbury's Local","building":"yes","shop":"supermarket","other":{"brand:wikidata":"Q13218434"}}, "geometry":{"type":"MultiPolygon","coordinates":[[[[0.19825,51.55116],[0.19822,51.55112],[0.1983,51.55109],[0.19825,51.55103],[0.19815,51.55101],[0.19821,51.55091],[0.19843,51.55095],[0.19854,51.55108],[0.19825,51.55116]]]]}},
{ "type":"Feature","properties":{"osm_way_id":"778109131","building":"house"},"geometry":{"type":"MultiPolygon","coordinates":[[[[0.22257,51.55006],[0.22277,51.55005],[0.22277,51.55012],[0.22258,51.55013],[0.22257,51.55006]]]]}},
{ "type":"Feature","properties":{"osm_way_id":"844789970","name":"Costcutter","building":"yes","shop":"supermarket","other":{"addr:city":"Rainham","addr:housenumber":"193","addr:street":"Upminster Road South","brand":"Costcutter","brand:wikidata":"Q5175072","brand:wikipedia":"en:Costcutter"}}, "geometry":{"type":"MultiPolygon","coordinates":[[[[0.20037,51.51992],[0.20035,51.52001],[0.20033,51.52001],[0.20032,51.52009],[0.19997,51.52004],[0.19998,51.51999],[0.20006,51.52],[0.20009,51.51991],[0.20037,51.51992]]]]}},
{ "type":"Feature","properties":{"osm_way_id":"846582231","building":"yes","shop":"supermarket"},"geometry":{"type":"MultiPolygon","coordinates":[[[[0.15756,51.59786],[0.15797,51.59791],[0.15802,51.59771],[0.15799,51.59771],[0.15807,51.5974],[0.15781,51.59737],[0.15783,51.59729],[0.1577,51.59729],[0.15756,51.59786]]]]}}
]
}
