{
"type": "FeatureCollection",
"features": [
{ "type":"Feature","properties":{"osm_id":"245901082","other":{"amenity":"parking_entrance","maxheight":"1.8"}}, "geometry":{"type":"Point","coordinates":[0.28492,50.76996 ]}},
{ "type":"Feature","properties":{"osm_id":"8084135360","name":"Tesco Metro","other":{"brand":"Tesco Metro","brand:wikidata":"Q57551648","shop":"supermarket"}}, "geometry":{"type":"Point","coordinates":[0.30346,50.8031 ]}},
{ "type":"Feature","properties":{"osm_way_id":"22734979","name":"Sainsbury's","building":"yes","shop":"supermarket","other":{"addr:city":"Eastbourne","addr:postcode":"BN22 9PW","addr:street":"Broadwater Way","brand":"Sainsbury's","brand:wikidata":"Q152096","brand:wikipedia":"en:Sainsbury's","opening_hours":"Mo-Fr 07:00-23:00; Sa 07:00-22:00; Su 10:00-16:00","phone":"+441323430447","website":"https:\/\/stores.sainsburys.co.uk\/0062\/hampden-park","wheelchair":"yes"}}, "geometry":{"type":"MultiPolygon","coordinates":[[[[0.28052,50.79315],[0.27934,50.79297],[0.27899,50.79389],[0.28017,50.7941],[0.28052,50.79315]]]]}},
{ "type":"Feature","properties":{"osm_way_id":"34247357","name":"Waitrose","building":"retail","shop":"supermarket","other":{"brand":"Waitrose","brand:wikidata":"Q771734","brand:wikipedia":"en:Waitrose","official_name":"Waitrose & Partners","opening_hours":"Mo-Fr 08:00-21:00; Sa 08:00-20:00; Su 10:00-16:00","operator":"Waitrose & Partners"}}, "geometry":{"type":"MultiPolygon","coordinates":[[[[0.26738,50.77266],[0.2675,50.77304],[0.26842,50.77293],[0.26834,50.77267],[0.26849,50.77263],[0.26842,50.77255],[0.26762,50.77266],[0.26761,50.77263],[0.26738,50.77266]]]]}},
{ "type":"Feature","properties":{"osm_way_id":"442650711","name":"Asda","building":"yes","shop":"supermarket","other":{"addr:city":"Eastbourne","addr:country":"GB","addr:housename":"The Crumbles","addr:postcode":"BN23 6JH","addr:street":"Pevensey Bay Road","alt_name":"ASDA Eastbourne Superstore","brand":"Asda","brand:wikidata":"Q297410","brand:wikipedia":"en:Asda","contact:facebook":"https:\/\/www.facebook.com\/asda\/","contact:twitter":"@asda","contact:website":"https:\/\/storelocator.asda.com\/south-east\/eastbourne\/the-crumbles-pevensey-bay-road","fhrs:id":"80169","opening_hours":"Mo 07:00-24:00; Tu-Fr 06:00-24:00; Sa 06:00-22:00; Su 10:00-16:00","operator":"Asda Stores Ltd"}}, "geometry":{"type":"MultiPolygon","coordinates":[[[[0.32174,50.79542],[0.32133,50.79501],[0.32122,50.79505],[0.32115,50.79498],[0.32109,50.79501],[0.32098,50.79489],[0.32044,50.7951],[0.32054,50.7952],[0.32019,50.79534],[0.32016,50.79531],[0.3199,50.79542],[0.31994,50.79546],[0.31989,50.79548],[0.31998,50.79558],[0.31994,50.79559],[0.32037,50.79602],[0.32052,50.79595],[0.32057,50.796],[0.32179,50.79551],[0.32171,50.79543],[0.32174,50.79542]]]]}},
{ "type":"Feature","properties":{"osm_way_id":"515966944","name":"Tesco Metro","building":"yes","shop":"supermarket","other":{"addr:city":"Eastbourne","addr:housenumber":"9","addr:postcode":"BN22 9NG","addr:street":"Brassey Avenue","brand":"Tesco Metro","brand:wikidata":"Q57551648"}}, "geometry":{"type":"MultiPolygon","coordinates":[[[[0.27785,50.79742],[0.27852,50.7975],[0.27863,50.79713],[0.27797,50.79706],[0.27785,50.79742]]]]}},
{ "type":"Feature","properties":{"osm_way_id":"524506446","name":"ALDI","building":"yes","shop":"supermarket","other":{"brand":"ALDI","brand:wikidata":"Q41171672","brand:wikipedia":"en:Aldi","operator":"ALDI"}}, "geometry":{"type":"MultiPolygon","coordinates":[[[[0.28127,50.79683],[0.28176,50.79692],[0.28188,50.79667],[0.28193,50.79668],[0.28204,50.79646],[0.28195,50.79644],[0.28199,50.79636],[0.28182,50.79633],[0.28182,50.79627],[0.28161,50.79623],[0.28157,50.79631],[0.28153,50.79631],[0.28127,50.79683]]]]}},
{ "type":"Feature","properties":{"osm_way_id":"545365272","name":"Morrisons","building":"yes","shop":"supermarket","other":{"addr:city":"Eastbourne","addr:postcode":"BN23 6QN","addr:street":"Lottbridge Drove","brand":"Morrisons","brand:wikidata":"Q922344","brand:wikipedia":"en:Morrisons","website":"https:\/\/my.morrisons.com"}}, "geometry":{"type":"MultiPolygon","coordinates":[[[[0.28403,50.79656],[0.28412,50.79652],[0.28416,50.79655],[0.28419,50.79653],[0.28467,50.79629],[0.28462,50.79625],[0.28481,50.79615],[0.28517,50.79643],[0.28522,50.7964],[0.28565,50.79674],[0.28553,50.7968],[0.28551,50.79677],[0.28536,50.79684],[0.28566,50.79707],[0.28569,50.7971],[0.28556,50.79716],[0.28533,50.79698],[0.28485,50.7972],[0.28403,50.79656]]]]}},
{ "type":"Feature","properties":{"osm_way_id":"683865127","name":"Tesco Extra","building":"retail","shop":"supermarket","other":{"addr:city":"Eastbourne","addr:postcode":"BN23 6QD","addr:street":"Lottbridge Drove","brand":"Tesco Extra","brand:wikidata":"Q25172225","brand:wikipedia":"en:Tesco Extra","contact:website":"https:\/\/www.tesco.com\/store-locator\/eastbourne\/21-lottbridge-drove","opening_hours":"24\/7","payment:cash":"yes","payment:maestro":"yes","payment:mastercard":"yes","payment:visa":"yes","payment:visa_electron":"yes","phone":"+44 345 6779243","wheelchair":"yes"}}, "geometry":{"type":"MultiPolygon","coordinates":[[[[0.30334,50.78654],[0.30392,50.78618],[0.30404,50.78619],[0.30412,50.78614],[0.30417,50.7861],[0.30456,50.78585],[0.30384,50.7854],[0.30344,50.78542],[0.30248,50.78595],[0.30273,50.78611],[0.30269,50.78613],[0.30334,50.78654]]]]}},
{ "type":"Feature","properties":{"osm_way_id":"699577934","name":"Co-op Food","building":"commercial","shop":"supermarket","other":{"addr:city":"Eastbourne","addr:housenumber":"346","addr:postcode":"BN22 7RJ","addr:street":"Seaside","brand":"Co-op Food","brand:wikidata":"Q3277439","brand:wikipedia":"en:Co-op Food","opening_hours":"06:00-23:00","operator":"The Co-operative Group","operator:wikidata":"Q117202","operator:wikipedia":"en:The Co-operative Group"}}, "geometry":{"type":"MultiPolygon","coordinates":[[[[0.30085,50.78118],[0.30075,50.78109],[0.3009,50.78099],[0.30106,50.78089],[0.30116,50.78099],[0.30123,50.78106],[0.30117,50.78108],[0.30109,50.78104],[0.30096,50.78112],[0.301,50.78115],[0.30095,50.78118],[0.3009,50.78114],[0.30085,50.78118]]]]}},
{ "type":"Feature","properties":{"osm_way_id":"821625176","name":"Sainsbury's","shop":"supermarket","other":{"branch":"Eastbourne","brand":"Sainsbury's","brand:wikidata":"Q152096","brand:wikipedia":"en:Sainsbury's","level":"0","opening_hours":"Mo-We 08:00-18:00; Th,Fr 08:00-19:00; Sa 07:30-18:00; Su 10:30-16:30"}}, "geometry":{"type":"MultiPolygon","coordinates":[[[[0.2845,50.76981],[0.28463,50.76988],[0.28482,50.76996],[0.28492,50.76996],[0.28539,50.76992],[0.28584,50.76988],[0.28576,50.76949],[0.28459,50.7696],[0.28446,50.76961],[0.2845,50.76981]]]]}},
{ "type":"Feature","properties":{"osm_way_id":"821625233","name":"Lidl","building":"yes","shop":"supermarket","other":{"addr:city":"Eastbourne","addr:country":"GB","addr:housenumber":"520","addr:postcode":"BN23 6NJ","addr:street":"Seaside","brand":"Lidl","brand:wikidata":"Q151954","brand:wikipedia":"en:Lidl","fhrs:id":"111364"}}, "geometry":{"type":"MultiPolygon","coordinates":[[[[0.30897,50.78936],[0.30894,50.78932],[0.30879,50.78937],[0.30919,50.78984],[0.30959,50.78972],[0.30928,50.78934],[0.30922,50.78937],[0.30917,50.7893],[0.30897,50.78936]]]]}},
{ "type":"Feature","properties":{"osm_way_id":"1041753359","name":"Chinese Grocery","building":"yes","shop":"supermarket"},"geometry":{"type":"MultiPolygon","coordinates":[[[[0.29905,50.77799],[0.29916,50.77795],[0.29921,50.77793],[0.29915,50.77785],[0.29898,50.7779],[0.29898,50.77792],[0.29905,50.77799]]]]}}
]
}
