{
"type": "FeatureCollection",
"features": [
{ "type":"Feature","properties":{"osm_id":"1115583812","other":{"amenity":"clock","display":"analog"}}, "geometry":{"type":"Point","coordinates":[-4.60778,55.46817 ]}},
{ "type":"Feature","properties":{"osm_id":"1792049040","name":"Co-Operative Food","other":{"shop":"supermarket","website":"https:\/\/www.co-operative.coop\/","addr:street":"Bridge Street","addr:postcode":"KA26 9SF","addr:housenumber":"6"}}, "geometry":{"type":"Point","coordinates":[-4.72907,55.276 ]}},
{ "type":"Feature","properties":{"osm_id":"3644302526","name":"Spar","other":{"shop":"supermarket","brand":"Spar","phone":"+44 1292 610288","website":"https:\/\/www.spar.co.uk\/","addr:city":"Ayr","addr:street":"Hillfoot Road","addr:postcode":"KA7 3LB","brand:wikidata":"Q610492","brand:wikipedia":"en:Spar (retailer)","addr:housenumber":"136"}}, "geometry":{"type":"Point","coordinates":[-4.60173,55.45267 ]}},
{ "type":"Feature","properties":{"osm_id":"3650711470","name":"Spar","other":{"shop":"supermarket","brand":"Spar","phone":"+44 1292 265782","addr:city":"Ayr","addr:street":"Mount Oliphant Crescent","addr:postcode":"KA7 3EN","brand:wikidata":"Q610492","brand:wikipedia":"en:Spar (retailer)","addr:housenumber":"21-25"}}, "geometry":{"type":"Point","coordinates":[-4.61769,55.45357 ]}},
{ "type":"Feature","properties":{"osm_id":"3650838113","name":"Aldi","other":{"addr:city":"Ayr","addr:housenumber":"33","addr:postcode":"KA8 8BU","addr:street":"Main Street","brand":"ALDI","brand:wikidata":"Q41171672","brand:wikipedia":"en:Aldi","fhrs:id":"861382","shop":"supermarket"}}, "geometry":{"type":"Point","coordinates":[-4.63069,55.46651 ]}},
{ "type":"Feature","properties":{"osm_id":"3728820993","name":"Spar","other":{"shop":"supermarket","brand":"Spar","phone":"+44 1292 618246","addr:city":"Ayr","addr:street":"Main Road","addr:postcode":"KA8 0LQ","brand:wikidata":"Q610492","brand:wikipedia":"en:Spar (retailer)","addr:housenumber":"74b"}}, "geometry":{"type":"Point","coordinates":[-4.59439,55.47277 ]}},
{ "type":"Feature","properties":{"osm_id":"4114341135","name":"The Co-operative Food","other":{"shop":"supermarket","phone":"+44 1292 317884","website":"http:\/\/www.co-operativefood.co.uk\/","operator":"Co-operative Group Limited","addr:city":"Troon","wheelchair":"yes","addr:street":"Dundonald Road","addr:postcode":"KA10 7AY","opening_hours":"Mo-Su 07:00-22:00","brand:wikidata":"Q3277439","brand:wikipedia":"en:Co-op Food","addr:housenumber":"155"}}, "geometry":{"type":"Point","coordinates":[-4.63447,55.54603 ]}},
{ "type":"Feature","properties":{"osm_id":"4526931946","name":"Spar","other":{"brand":"Spar","brand:wikidata":"Q610492","brand:wikipedia":"en:Spar (retailer)","shop":"supermarket"}}, "geometry":{"type":"Point","coordinates":[-4.66335,55.54395 ]}},
{ "type":"Feature","properties":{"osm_id":"6116991103","name":"Co-op Food","other":{"brand":"Co-op Food","brand:wikidata":"Q3277439","brand:wikipedia":"en:Co-op Food","operator":"The Co-operative Group","operator:wikidata":"Q117202","operator:wikipedia":"en:The Co-operative Group","shop":"supermarket"}}, "geometry":{"type":"Point","coordinates":[-4.66012,55.43225 ]}},
{ "type":"Feature","properties":{"osm_id":"7274037645","name":"The Food Warehouse","other":{"addr:city":"Ayr","addr:housename":"Heathfield Retail Park","addr:postcode":"KA8 9BF","addr:street":"Liberator Drive","brand":"The Food Warehouse","brand:wikidata":"Q87263899","fhrs:id":"1286040","opening_hours":"Mo-Su 08:00-20:00","operator":"Iceland","shop":"supermarket"}}, "geometry":{"type":"Point","coordinates":[-4.59333,55.47861 ]}},
{ "type":"Feature","properties":{"osm_id":"7274037648","name":"M&S Foodhall","other":{"shop":"supermarket","brand":"M&S Foodhall","addr:city":"Ayr","addr:street":"Heathfield Road","addr:postcode":"KA8 9BF","opening_hours":"Mo-Sa 08:00-20:00; Su 09:00-18:00","addr:housename":"Unit 17","brand:wikidata":"Q714491","brand:wikipedia":"en:Marks & Spencer"}}, "geometry":{"type":"Point","coordinates":[-4.59475,55.47833 ]}},
{ "type":"Feature","properties":{"osm_id":"905046409","highway":"track","z_order": 0 }, "geometry":{"type":"LineString","coordinates":[[-4.59714,55.42129],[-4.59691,55.42129]]}},
{ "type":"Feature","properties":{"osm_way_id":"95545714","name":"Tesco Extra Ayr","building":"yes","shop":"supermarket","other":{"brand":"Tesco Extra","addr:street":"Whitletts Road","addr:postcode":"KA8 0QA","brand:wikidata":"Q25172225","brand:wikipedia":"en:Tesco Extra"}}, "geometry":{"type":"Polygon","coordinates":[[[ -4.60846,55.46746],[-4.60952,55.46755],[-4.60949,55.46763],[-4.60955,55.46764],[-4.60953,55.46769],[-4.60948,55.46769],[-4.60947,55.46771],[-4.60942,55.46771],[-4.60939,55.46785],[-4.60923,55.46783],[-4.60919,55.46799],[-4.60897,55.46803],[-4.60893,55.46815],[-4.60873,55.46814],[-4.60872,55.46818],[-4.60849,55.46816],[-4.60851,55.46812],[-4.60804,55.46807],[-4.60803,55.46811],[-4.60796,55.46811],[-4.60795,55.46815],[-4.6079,55.46814],[-4.60789,55.46818],[-4.60778,55.46817],[-4.60766,55.46816],[-4.60768,55.46809],[-4.6074,55.46806],[-4.60746,55.46784],[-4.60757,55.46785],[-4.60771,55.46737],[-4.60817,55.46741],[-4.60817,55.4674],[-4.60818,55.46739],[-4.60844,55.46742],[-4.60846,55.46742],[-4.60846,55.46746]] ]}},
{ "type":"Feature","properties":{"osm_way_id":"96083552","name":"Aldi","building":"supermarket","shop":"supermarket","other":{"addr:housenumber":"135-147","addr:postcode":"KA9 1TW","addr:street":"Ayr Road","brand":"ALDI","brand:wikidata":"Q41171672","brand:wikipedia":"en:Aldi"}}, "geometry":{"type":"Polygon","coordinates":[[[ -4.61726,55.48593],[-4.61654,55.48593],[-4.61654,55.48584],[-4.61667,55.48584],[-4.61668,55.4856],[-4.61682,55.48553],[-4.61726,55.48552],[-4.61726,55.48593]] ]}},
{ "type":"Feature","properties":{"osm_way_id":"191009063","name":"Morrisons","building":"yes","shop":"supermarket","other":{"brand":"Morrisons","addr:street":"Castlehill Road","addr:postcode":"KA7 2HT","brand:wikidata":"Q922344","brand:wikipedia":"en:Morrisons"}}, "geometry":{"type":"Polygon","coordinates":[[[ -4.62642,55.45531],[-4.62641,55.45554],[-4.62639,55.45611],[-4.62545,55.4561],[-4.62545,55.45616],[-4.62527,55.45615],[-4.62528,55.45609],[-4.62523,55.45609],[-4.62514,55.45609],[-4.62514,55.45598],[-4.62525,55.45598],[-4.62525,55.45586],[-4.62532,55.45586],[-4.62533,55.45545],[-4.62545,55.45545],[-4.62545,55.4554],[-4.62569,55.45541],[-4.62569,55.45547],[-4.626,55.45547],[-4.62601,55.4553],[-4.62642,55.45531]] ]}},
{ "type":"Feature","properties":{"osm_way_id":"192603343","name":"Sainsbury's","building":"supermarket","shop":"supermarket","other":{"addr:housenumber":"125","addr:postcode":"KA9 1TW","addr:street":"Ayr Road","brand":"Sainsbury's","brand:wikidata":"Q152096","brand:wikipedia":"en:Sainsbury's","opening_hours":"Mo-Fr 08:00-22:00; Sa 07:00-22:00; Su 08:00-22:00","payment:american_express":"yes","payment:cash":"yes","payment:credit_cards":"yes","payment:debit_cards":"yes","payment:mastercard":"yes","payment:visa":"yes","phone":"+441292474478","website":"https:\/\/stores.sainsburys.co.uk\/0850\/prestwick","wheelchair":"yes"}}, "geometry":{"type":"Polygon","coordinates":[[[ -4.61563,55.48756],[-4.61546,55.48756],[-4.61545,55.48751],[-4.61439,55.48752],[-4.61435,55.48673],[-4.61548,55.48672],[-4.61549,55.48687],[-4.61559,55.48687],[-4.61563,55.48756]] ]}},
{ "type":"Feature","properties":{"osm_way_id":"192604883","name":"Asda","building":"supermarket","shop":"supermarket","other":{"addr:city":"Ayr","addr:country":"GB","addr:housename":"Heathfield Retail Park","addr:housenumber":"1","addr:postcode":"KA8 9BF","addr:street":"Liberator Drive","brand":"Asda","brand:wikidata":"Q297410","brand:wikipedia":"en:Asda","contact:facebook":"https:\/\/www.facebook.com\/asda\/","contact:phone":"+44 1292 617800","contact:twitter":"@asda","contact:website":"https:\/\/storelocator.asda.com\/scotland\/ayr\/liberator-drive-heathfield-retail-park","fhrs:id":"15302","internet_access":"wlan","opening_hours":"24\/7","operator":"Asda Stores Ltd","wheelchair":"yes"}}, "geometry":{"type":"Polygon","coordinates":[[[ -4.59692,55.4801],[-4.59701,55.48013],[-4.59657,55.48075],[-4.59604,55.48063],[-4.59587,55.48086],[-4.59519,55.4807],[-4.5958,55.47986],[-4.59641,55.48],[-4.59648,55.47989],[-4.59698,55.48001],[-4.59692,55.4801]] ]}},
{ "type":"Feature","properties":{"osm_way_id":"192605371","name":"Lidl","building":"supermarket","shop":"supermarket","other":{"addr:country":"GB","addr:housenumber":"15","addr:postcode":"KA8 8ER","addr:street":"Allison Street","brand":"Lidl","brand:wikidata":"Q151954","brand:wikipedia":"en:Lidl","fhrs:id":"1859"}}, "geometry":{"type":"Polygon","coordinates":[[[ -4.62905,55.46832],[-4.62887,55.46831],[-4.6282,55.46826],[-4.62825,55.46802],[-4.6291,55.46807],[-4.62908,55.46816],[-4.62905,55.46832]] ]}},
{ "type":"Feature","properties":{"osm_way_id":"294762155","name":"Co-op Food","building":"yes","shop":"supermarket","other":{"addr:city":"Maybole","addr:housenumber":"19-23","addr:postcode":"KA19 7AB","addr:street":"High Street","brand":"Co-op Food","brand:wikidata":"Q3277439","brand:wikipedia":"en:Co-op Food","opening_hours":"Mo-Su 07:00-22:00","operator":"The Co-operative Group","operator:wikidata":"Q117202","operator:wikipedia":"en:The Co-operative Group"}}, "geometry":{"type":"Polygon","coordinates":[[[ -4.68141,55.35428],[-4.68128,55.35435],[-4.68117,55.35429],[-4.68108,55.35434],[-4.68091,55.35427],[-4.68095,55.35424],[-4.68087,55.35419],[-4.68099,55.35412],[-4.68102,55.35414],[-4.6811,55.35409],[-4.68141,55.35428]] ]}},
{ "type":"Feature","properties":{"osm_way_id":"313316671","name":"Asda","building":"yes","shop":"supermarket","other":{"brand":"Asda","fhrs:id":"22355","operator":"Asda Stores Ltd","addr:city":"Girvan","addr:street":"Vicarton Street","addr:country":"GB","addr:postcode":"KA26 9HF","brand:wikidata":"Q297410","brand:wikipedia":"en:Asda","contact:twitter":"@asda","contact:website":"https:\/\/storelocator.asda.com\/scotland\/girvan\/15-vicarton-street","addr:housenumber":"15","contact:facebook":"https:\/\/www.facebook.com\/asda\/"}}, "geometry":{"type":"Polygon","coordinates":[[[ -4.85307,55.247],[-4.85206,55.2473],[-4.85189,55.24722],[-4.85209,55.24716],[-4.85202,55.24706],[-4.85205,55.24706],[-4.85196,55.24695],[-4.85208,55.24692],[-4.85204,55.24687],[-4.85268,55.24669],[-4.85271,55.24673],[-4.85279,55.2467],[-4.85307,55.247]] ]}},
{ "type":"Feature","properties":{"osm_way_id":"313316676","name":"Co-op Food","building":"yes","shop":"supermarket","other":{"addr:city":"Girvan","addr:housenumber":"106","addr:postcode":"KA26 9EU","addr:street":"Dalrymple Street","alt_name":"The Co-operative Food","brand":"Co-op Food","brand:wikidata":"Q3277439","brand:wikipedia":"en:Co-op Food","operator":"The Co-operative Group","operator:wikidata":"Q117202","operator:wikipedia":"en:The Co-operative Group"}}, "geometry":{"type":"Polygon","coordinates":[[[ -4.85569,55.24038],[-4.85561,55.24037],[-4.85552,55.24037],[-4.85553,55.24019],[-4.85569,55.24019],[-4.85569,55.24038]] ]}},
{ "type":"Feature","properties":{"osm_way_id":"348676915","name":"Morrisons","building":"yes","shop":"supermarket","other":{"addr:city":"Troon","addr:housenumber":"10","addr:postcode":"KA10 6QR","addr:street":"Dukes Road","brand":"Morrisons","brand:wikidata":"Q922344","brand:wikipedia":"en:Morrisons","height":"10","opening_hours":"Mo-Fr 08:00-21:00; Sa 07:00-21:00; Su 08:00-20:00","operator":"Wm Morrison Supermarkets plc","phone":"+44 1292 310440","roof:shape":"flat","website":"https:\/\/www.morrisons.com\/","wheelchair":"yes"}}, "geometry":{"type":"Polygon","coordinates":[[[ -4.66557,55.546],[-4.6646,55.54595],[-4.6644,55.54594],[-4.66448,55.5454],[-4.66565,55.54546],[-4.66557,55.546]] ]}},
{ "type":"Feature","properties":{"osm_way_id":"358915969","name":"Co-op Food","building":"yes","shop":"supermarket","other":{"brand":"Co-op Food","phone":"+44 1292 284186","website":"https:\/\/www.coop.co.uk\/q","addr:city":"Ayr","addr:street":"Sandgate","addr:postcode":"KA7 1AA","brand:wikidata":"Q3277439","brand:wikipedia":"en:Co-op Food","addr:housenumber":"65"}}, "geometry":{"type":"Polygon","coordinates":[[[ -4.63345,55.46271],[-4.63361,55.46255],[-4.63386,55.46264],[-4.6337,55.46279],[-4.63345,55.46271]] ]}},
{ "type":"Feature","properties":{"osm_way_id":"359608871","name":"Spar","building":"yes","shop":"supermarket","other":{"addr:city":"Ayr","addr:housenumber":"96","addr:postcode":"KA7 4DP","addr:street":"Doonfoot Road","brand":"Spar","brand:wikidata":"Q610492"}}, "geometry":{"type":"Polygon","coordinates":[[[ -4.64664,55.43682],[-4.64677,55.43672],[-4.64689,55.43676],[-4.64697,55.43672],[-4.64708,55.43677],[-4.64685,55.4369],[-4.64664,55.43682]] ]}}
]
}
