{
"type": "FeatureCollection",
"features": [
{ "type":"Feature","properties":{"osm_id":"255112995","name":"Costcutter","other":{"brand":"Costcutter","brand:wikidata":"Q5175072","brand:wikipedia":"en:Costcutter","shop":"supermarket"}}, "geometry":{"type":"Point","coordinates":[-1.4772,53.36934 ]}},
{ "type":"Feature","properties":{"osm_id":"263822244","name":"Tesco Metro","other":{"addr:city":"Sheffield","addr:country":"GB","addr:housenumber":"407","addr:postcode":"S5 7HF","addr:street":"Herries Road","brand":"Tesco Metro","brand:wikidata":"Q57551648","contact:website":"https:\/\/www.tesco.com\/store-locator\/sheffield\/407-herries-road","fhrs:id":"977543","shop":"supermarket"}}, "geometry":{"type":"Point","coordinates":[-1.47142,53.413 ]}},
{ "type":"Feature","properties":{"osm_id":"266962569","name":"Lidl","other":{"addr:city":"Sheffield","addr:country":"GB","addr:housenumber":"30","addr:postcode":"S2 1AS","addr:street":"Alison Crescent","brand":"Lidl","brand:wikidata":"Q151954","brand:wikipedia":"en:Lidl","fhrs:id":"1097632","shop":"supermarket"}}, "geometry":{"type":"Point","coordinates":[-1.41731,53.37194 ]}},
{ "type":"Feature","properties":{"osm_id":"266962598","name":"Co-op","other":{"operator":"The Co-operative Group","shop":"supermarket"}}, "geometry":{"type":"Point","coordinates":[-1.42939,53.37526 ]}},
{ "type":"Feature","properties":{"osm_id":"276302061","name":"Co-operative","other":{"shop":"supermarket"}}, "geometry":{"type":"Point","coordinates":[-1.47975,53.41861 ]}},
{ "type":"Feature","properties":{"osm_id":"278603375","name":"Co-operative","other":{"shop":"supermarket"}}, "geometry":{"type":"Point","coordinates":[-1.47927,53.43166 ]}},
{ "type":"Feature","properties":{"osm_id":"312646836","name":"Asda","other":{"addr:city":"Chapeltown","addr:country":"GB","addr:postcode":"S35 2UW","addr:street":"Market Street","brand":"Asda","brand:wikidata":"Q297410","brand:wikipedia":"en:Asda","contact:website":"https:\/\/storelocator.asda.com\/yorkshire-&-humber\/sheffield\/1-market-street-chapeltown","fhrs:id":"435822","operator":"Asda Stores Ltd","shop":"supermarket"}}, "geometry":{"type":"Point","coordinates":[-1.46596,53.46277 ]}},
{ "type":"Feature","properties":{"osm_id":"317633119","name":"Continental Food Store","other":{"addr:city":"Sheffield","addr:country":"GB","addr:housenumber":"66-68","addr:postcode":"S6 3EB","addr:street":"Upperthorpe Road","fhrs:id":"436495","shop":"supermarket"}}, "geometry":{"type":"Point","coordinates":[-1.4866,53.39014 ]}},
{ "type":"Feature","properties":{"osm_id":"360001829","name":"CO-OPERATIVE","other":{"addr:city":"Sheffield","addr:country":"GB","addr:housenumber":"155","addr:postcode":"S12 2AJ","addr:street":"Mansfield Road","fhrs:id":"1021549","operator":"Co-Operative","shop":"supermarket"}}, "geometry":{"type":"Point","coordinates":[-1.41149,53.3559 ]}},
{ "type":"Feature","properties":{"osm_id":"361249214","name":"The Co-operative Food","other":{"addr:city":"Sheffield","addr:country":"GB","addr:housenumber":"3-9","addr:postcode":"S8 9JE","addr:street":"Lees Hall Avenue","fhrs:id":"437200","opening_hours":"Mo-Su,PH 07:00-22:00","operator":"The Co-operative Group","payment:cash":"yes","payment:debit_cards":"yes","shop":"supermarket","wheelchair":"yes"}}, "geometry":{"type":"Point","coordinates":[-1.46677,53.35194 ]}},
{ "type":"Feature","properties":{"osm_id":"361687238","name":"The Co-operative Food","other":{"operator":"The Co-operative Group","shop":"supermarket"}}, "geometry":{"type":"Point","coordinates":[-1.46454,53.32279 ]}},
{ "type":"Feature","properties":{"osm_id":"367046207","name":"Co-op Food","other":{"brand":"Co-op Food","brand:wikidata":"Q3277439","brand:wikipedia":"en:Co-op Food","operator":"The Co-operative Group","shop":"supermarket"}}, "geometry":{"type":"Point","coordinates":[-1.44945,53.34032 ]}},
{ "type":"Feature","properties":{"osm_id":"387012196","name":"Late Shop","other":{"shop":"supermarket"}}, "geometry":{"type":"Point","coordinates":[-1.37137,53.35929 ]}},
{ "type":"Feature","properties":{"osm_id":"387012227","name":"Costcutter","other":{"shop":"supermarket"}}, "geometry":{"type":"Point","coordinates":[-1.37032,53.35885 ]}},
{ "type":"Feature","properties":{"osm_id":"655307382","name":"Spar","other":{"brand":"Spar","brand:wikidata":"Q610492","brand:wikipedia":"en:Spar (retailer)","shop":"supermarket"}}, "geometry":{"type":"Point","coordinates":[-1.4248,53.35147 ]}},
{ "type":"Feature","properties":{"osm_id":"666137995","name":"The Co-operative Food","other":{"addr:city":"Sheffield","addr:country":"GB","addr:postcode":"S12 4WG","addr:street":"Birley Moor Road","brand":"The Co-operative Food","brand:wikidata":"Q3277439","brand:wikipedia":"en:Co-op Food","opening_hours":"Mo-Su 07:00-22:00","operator":"The Co-operative Group","payment:card":"yes","payment:cash":"yes","payment:contactless":"yes","shop":"supermarket"}}, "geometry":{"type":"Point","coordinates":[-1.40088,53.34851 ]}},
{ "type":"Feature","properties":{"osm_id":"1265232400","name":"Budgens","other":{"addr:city":"Sheffield","addr:country":"GB","addr:housenumber":"110","addr:postcode":"S3 7NQ","addr:street":"Weston Street","brand":"Budgens","brand:wikidata":"Q4985016","brand:wikipedia":"en:Budgens","fhrs:id":"436572","shop":"supermarket"}}, "geometry":{"type":"Point","coordinates":[-1.48765,53.38359 ]}},
{ "type":"Feature","properties":{"osm_id":"1422949712","name":"Asda","other":{"addr:city":"Sheffield","addr:country":"GB","addr:housenumber":"98","addr:postcode":"S6 1TA","addr:street":"Catch Bar Lane","brand":"Asda","brand:wikidata":"Q297410","brand:wikipedia":"en:Asda","contact:website":"https:\/\/storelocator.asda.com\/yorkshire-&-humber\/sheffield\/98-catchbar-lane","fhrs:id":"437500","operator":"Asda Stores Ltd","shop":"supermarket"}}, "geometry":{"type":"Point","coordinates":[-1.50431,53.41185 ]}},
{ "type":"Feature","properties":{"osm_id":"1937679642","name":"Beeches of Walkley","other":{"shop":"supermarket"}}, "geometry":{"type":"Point","coordinates":[-1.50065,53.39313 ]}},
{ "type":"Feature","properties":{"osm_id":"2343239869","name":"Ozmen","other":{"addr:city":"Sheffield","addr:country":"GB","addr:housenumber":"178-184","addr:postcode":"S2 4LT","addr:street":"London Road","fhrs:id":"522144","level":"0","shop":"supermarket"}}, "geometry":{"type":"Point","coordinates":[-1.47697,53.36903 ]}},
{ "type":"Feature","properties":{"osm_id":"2425972421","name":"Empire News","other":{"addr:city":"Sheffield","addr:country":"GB","addr:housenumber":"77-83","addr:postcode":"S7 1GJ","addr:street":"Empire Road","fhrs:id":"988948","shop":"supermarket"}}, "geometry":{"type":"Point","coordinates":[-1.48147,53.36024 ]}},
{ "type":"Feature","properties":{"osm_id":"2624389267","name":"Global Market","other":{"shop":"supermarket"}}, "geometry":{"type":"Point","coordinates":[-1.47715,53.37695 ]}},
{ "type":"Feature","properties":{"osm_id":"3632893045","name":"Heron Foods","other":{"addr:city":"Sheffield","addr:country":"GB","addr:postcode":"S8 8DQ","addr:street":"Dyche Road","addr:unit":"2","brand":"Heron Foods","brand:wikidata":"Q5743472","brand:wikipedia":"en:Heron Foods","contact:website":"https:\/\/heronfoods.com\/storelocator\/store-details\/jordanthorpe","fhrs:id":"743869","shop":"supermarket"}}, "geometry":{"type":"Point","coordinates":[-1.46535,53.32276 ]}},
{ "type":"Feature","properties":{"osm_id":"3632894034","name":"Adams Express","other":{"shop":"supermarket"}}, "geometry":{"type":"Point","coordinates":[-1.46496,53.32288 ]}},
{ "type":"Feature","properties":{"osm_id":"3634316307","name":"The Co-operative Food","other":{"operator":"The Co-operative Group","shop":"supermarket"}}, "geometry":{"type":"Point","coordinates":[-1.41795,53.34767 ]}},
{ "type":"Feature","properties":{"osm_id":"3645952214","name":"Martins Good To Go","other":{"addr:city":"Sheffield","addr:country":"GB","addr:housenumber":"34,36,38","addr:postcode":"S3 8JB","addr:street":"Wicker","fhrs:id":"436616","operator":"Martins Goods to Go Ltd","shop":"supermarket"}}, "geometry":{"type":"Point","coordinates":[-1.46295,53.38652 ]}},
{ "type":"Feature","properties":{"osm_id":"3646348460","name":"Emin Supermarket","other":{"addr:city":"Sheffield","addr:country":"GB","addr:housenumber":"74,76,78","addr:postcode":"S4 7LG","addr:street":"Spital Hill","fhrs:id":"437635","shop":"supermarket","source:addr":"FHRS Open Data"}}, "geometry":{"type":"Point","coordinates":[-1.45809,53.39177 ]}},
{ "type":"Feature","properties":{"osm_id":"4348958342","name":"Bargain Booze","other":{"addr:city":"Sheffield","addr:country":"GB","addr:housenumber":"7-9","addr:postcode":"S12 3AS","addr:street":"Birley Moor Crescent","fhrs:id":"1016515","shop":"supermarket"}}, "geometry":{"type":"Point","coordinates":[-1.39656,53.34251 ]}},
{ "type":"Feature","properties":{"osm_id":"4801814169","name":"Hua Mei Oriental Supermarket","other":{"addr:city":"Sheffield","addr:postcode":"S3 7GE","addr:street":"Edward Street","cuisine":"chinese","opening_hours":"Mo-Su 11:00-19:00","phone":"+44 742 703 9396","shop":"supermarket","website":"https:\/\/www.huamei.co.uk\/"}}, "geometry":{"type":"Point","coordinates":[-1.47719,53.38554 ]}},
{ "type":"Feature","properties":{"osm_id":"5195744514","name":"Co-Op","other":{"shop":"supermarket"}}, "geometry":{"type":"Point","coordinates":[-1.47668,53.38328 ]}},
{ "type":"Feature","properties":{"osm_id":"5454782365","name":"Co-Op","other":{"addr:city":"Sheffield","addr:country":"GB","addr:housenumber":"449","addr:postcode":"S13 8LU","addr:street":"Richmond Road","fhrs:id":"977515","shop":"supermarket"}}, "geometry":{"type":"Point","coordinates":[-1.40602,53.36174 ]}},
{ "type":"Feature","properties":{"osm_id":"5856734826","name":"Aldi","other":{"brand":"ALDI","brand:wikidata":"Q41171672","brand:wikipedia":"en:Aldi","shop":"supermarket"}}, "geometry":{"type":"Point","coordinates":[-1.58599,53.48266 ]}},
{ "type":"Feature","properties":{"osm_id":"5981468780","name":"Spar","other":{"brand":"Spar","brand:wikidata":"Q610492","brand:wikipedia":"en:SPAR (retailer)","opening_hours":"24\/7","shop":"supermarket"}}, "geometry":{"type":"Point","coordinates":[-1.46455,53.37686 ]}},
{ "type":"Feature","properties":{"osm_id":"6809861486","other":{"shop":"supermarket"}}, "geometry":{"type":"Point","coordinates":[-1.48728,53.38121 ]}},
{ "type":"Feature","properties":{"osm_id":"7001435252","name":"Yi-Mart Oriental Supermarket","other":{"addr:city":"Sheffield","addr:country":"GB","addr:housenumber":"8","addr:postcode":"S1 4QD","addr:street":"Matilda Street","cuisine":"asian","fhrs:id":"696836","level":"0","phone":"+44 114 275 2786","shop":"supermarket"}}, "geometry":{"type":"Point","coordinates":[-1.47201,53.37677 ]}},
{ "type":"Feature","properties":{"osm_id":"7092980192","highway":"elevator"},"geometry":{"type":"Point","coordinates":[-1.49673,53.402 ]}},
{ "type":"Feature","properties":{"osm_id":"7238991561","name":"H H J Convenience Store","other":{"addr:city":"Sheffield","addr:housenumber":"185","addr:postcode":"S7 1FG","addr:street":"Abbeydale Road","phone":"+441142584445","shop":"supermarket"}}, "geometry":{"type":"Point","coordinates":[-1.47733,53.36315 ]}},
{ "type":"Feature","properties":{"osm_id":"7826581201","other":{"defibrillator:location":"On exterior wall of Cooperative Food","emergency":"defibrillator"}}, "geometry":{"type":"Point","coordinates":[1.0005,52.3406 ]}},
{ "type":"Feature","properties":{"osm_id":"8505004068","highway":"elevator"},"geometry":{"type":"Point","coordinates":[-1.50209,53.37735 ]}},
{ "type":"Feature","properties":{"osm_id":"8528630247","other":{"defibrillator:location":"On outside wall.","emergency":"defibrillator","opening_hours":"24\/7"}}, "geometry":{"type":"Point","coordinates":[-1.39834,53.34688 ]}},
{ "type":"Feature","properties":{"osm_id":"9097435145","other":{"defibrillator:location":"On outside wall.","emergency":"defibrillator","opening_hours":"24\/7"}}, "geometry":{"type":"Point","coordinates":[-1.47888,53.37262 ]}},
{ "type":"Feature","properties":{"osm_id":"9190967435","other":{"defibrillator:location":"outside Co-op, Main Street, Countesthorpe - to right of entrance","emergency":"defibrillator","indoor":"no"}}, "geometry":{"type":"Point","coordinates":[-1.13765,52.55338 ]}},
{ "type":"Feature","properties":{"osm_id":"9576092120","name":"Daad Dheere","other":{"addr:city":"Sheffield","addr:country":"GB","addr:housenumber":"20,22","addr:postcode":"S4 7JB","addr:street":"Ellesmere Road","fhrs:id":"437894","shop":"supermarket"}}, "geometry":{"type":"Point","coordinates":[-1.45744,53.39266 ]}},
{ "type":"Feature","properties":{"osm_id":"12163679","name":"Nisa","type":"multipolygon","building":"retail","shop":"supermarket","other":{"addr:city":"Sheffield","addr:country":"GB","addr:housenumber":"503-505","addr:postcode":"S2 2BS","addr:street":"Gleadless Road","building:levels":"1","fhrs:id":"1337476","old_name":"The Co-operative Food","opening_hours":"Mo-Su 07:00-23:00","operator":"Nisa","roof:levels":"0","roof:shape":"flat","wheelchair":"yes"}}, "geometry":{"type":"MultiPolygon","coordinates":[[[[-1.44954,53.35594],[-1.44997,53.3562],[-1.4499,53.35625],[-1.44986,53.35622],[-1.44969,53.35632],[-1.44949,53.35621],[-1.44952,53.35618],[-1.44948,53.35616],[-1.44953,53.35612],[-1.44937,53.35604],[-1.44941,53.35601],[-1.44954,53.35594]]]]}},
{ "type":"Feature","properties":{"osm_way_id":"16160782","name":"Tesco","building":"yes","shop":"supermarket","other":{"branch":"Infirmary Road","brand":"Tesco","brand:wikidata":"Q487494","brand:wikipedia":"en:Tesco","wheelchair":"yes"}}, "geometry":{"type":"MultiPolygon","coordinates":[[[[-1.48263,53.3898],[-1.48314,53.38931],[-1.48318,53.38933],[-1.48326,53.38925],[-1.48352,53.38935],[-1.48364,53.38923],[-1.48324,53.38908],[-1.48315,53.38917],[-1.48304,53.38913],[-1.48301,53.38915],[-1.48249,53.38895],[-1.4819,53.38951],[-1.48243,53.38971],[-1.48242,53.38972],[-1.48246,53.38973],[-1.48243,53.38975],[-1.48241,53.38977],[-1.48254,53.38982],[-1.48256,53.3898],[-1.48258,53.38978],[-1.48263,53.3898]]]]}},
{ "type":"Feature","properties":{"osm_way_id":"39356300","name":"Co-operative Food","building":"yes","shop":"supermarket"},"geometry":{"type":"MultiPolygon","coordinates":[[[[-3.0344,53.48708],[-3.03425,53.48695],[-3.03395,53.48709],[-3.03378,53.48692],[-3.03366,53.48699],[-3.03389,53.48716],[-3.03395,53.48718],[-3.03404,53.4872],[-3.03413,53.48719],[-3.0344,53.48708]]]]}},
{ "type":"Feature","properties":{"osm_way_id":"51370902","name":"The Co-operative Food","building":"yes","shop":"supermarket","other":{"operator":"The Co-operative Group"}}, "geometry":{"type":"MultiPolygon","coordinates":[[[[-1.42145,53.34315],[-1.42164,53.34289],[-1.42173,53.34278],[-1.42154,53.34272],[-1.42147,53.34282],[-1.4214,53.3428],[-1.42124,53.34301],[-1.42119,53.34299],[-1.42113,53.34307],[-1.42145,53.34315]]]]}},
{ "type":"Feature","properties":{"osm_way_id":"52445136","name":"Morrisons","building":"retail","shop":"supermarket","other":{"addr:city":"Sheffield","addr:country":"GB","addr:housenumber":"84-130","addr:postcode":"S8 7UE","addr:street":"Meadowhead","atm":"yes","brand":"Morrisons","brand:wikidata":"Q922344","brand:wikipedia":"en:Morrisons","building:levels":"2","fee":"no","fhrs:id":"435980","opening_hours":"Mo-Sa 07:00-22:00; Su 10:00-16:00","roof:levels":"0","wheelchair":"yes"}}, "geometry":{"type":"MultiPolygon","coordinates":[[[[-1.48272,53.33512],[-1.48224,53.33525],[-1.48222,53.33523],[-1.48213,53.33525],[-1.4821,53.33523],[-1.48186,53.33528],[-1.4819,53.33532],[-1.48182,53.33535],[-1.48218,53.33582],[-1.48253,53.33602],[-1.48303,53.33587],[-1.48301,53.33584],[-1.48322,53.33578],[-1.48272,53.33512]]]]}},
{ "type":"Feature","properties":{"osm_way_id":"53050612","name":"Waitrose","building":"yes","shop":"supermarket","other":{"addr:housenumber":"1-3","addr:postcode":"S11 8HY","addr:street":"Ecclesall Road","brand":"Waitrose","brand:wikidata":"Q771734","brand:wikipedia":"en:Waitrose","contact:website":"https:\/\/www.waitrose.com\/bf_home\/bf\/695.html","fhrs:id":"437891","official_name":"Waitrose & Partners","opening_hours":"Mo-Fr 08:30-21:00; Sa 08:00-20:00; Su 10:00-16:00","operator":"Waitrose & Partners","toilets:wheelchair":"no","wheelchair":"yes"}}, "geometry":{"type":"MultiPolygon","coordinates":[[[[-1.47883,53.37309],[-1.47888,53.37262],[-1.47889,53.37254],[-1.47881,53.37254],[-1.47882,53.37245],[-1.47869,53.37235],[-1.47855,53.37241],[-1.47836,53.3724],[-1.47836,53.37236],[-1.47825,53.37236],[-1.47805,53.37245],[-1.47805,53.37255],[-1.47779,53.37254],[-1.47754,53.37265],[-1.47756,53.37267],[-1.47758,53.37269],[-1.47756,53.37303],[-1.47773,53.37303],[-1.47773,53.37307],[-1.47841,53.37309],[-1.47841,53.37314],[-1.47873,53.37314],[-1.47883,53.37309]]]]}},
{ "type":"Feature","properties":{"osm_way_id":"55037864","name":"Asda","building":"shop","shop":"supermarket","other":{"addr:city":"Sheffield","addr:country":"GB","addr:postcode":"S13 9LR","addr:street":"Handsworth Road","brand":"Asda","brand:wikidata":"Q297410","brand:wikipedia":"en:Asda","contact:website":"https:\/\/storelocator.asda.com\/yorkshire-&-humber\/sheffield\/handsworth-road","fhrs:id":"436054","opening_hours":"Tu-Fr 00:00-24:00; Sa 00:00-22:00; Su 10:00-16:00; Mo 07:00-24:00","operator":"Asda Stores Ltd","source:postcode":"website","wheelchair":"yes"}}, "geometry":{"type":"MultiPolygon","coordinates":[[[[-1.39626,53.37631],[-1.3963,53.37626],[-1.39592,53.37599],[-1.39578,53.37604],[-1.39566,53.37594],[-1.3957,53.37591],[-1.39553,53.37581],[-1.3958,53.37568],[-1.39574,53.37565],[-1.39674,53.37514],[-1.39762,53.37573],[-1.39724,53.37589],[-1.39734,53.37597],[-1.39645,53.3764],[-1.39637,53.3764],[-1.39626,53.37631]]]]}},
{ "type":"Feature","properties":{"osm_way_id":"61652387","name":"ALDI","building":"yes","shop":"supermarket","other":{"addr:city":"Sheffield","addr:country":"GB","addr:housenumber":"183","addr:postcode":"S8 0JX","addr:street":"Archer Road","brand":"ALDI","brand:wikidata":"Q41171672","brand:wikipedia":"en:Aldi","fhrs:id":"1104151"}}, "geometry":{"type":"MultiPolygon","coordinates":[[[[-1.49228,53.34468],[-1.49182,53.34482],[-1.49178,53.34477],[-1.49171,53.34479],[-1.49158,53.34483],[-1.49178,53.34507],[-1.49255,53.34484],[-1.49244,53.34471],[-1.49233,53.34474],[-1.49228,53.34468]]]]}},
{ "type":"Feature","properties":{"osm_way_id":"67762465","name":"Lidl","building":"retail","shop":"supermarket","other":{"addr:postcode":"S8 0YH","addr:street":"Chesterfield Road","brand":"Lidl","brand:wikidata":"Q151954","brand:wikipedia":"en:Lidl","building:levels":"1","nohousenumber":"yes","opening_hours":"Mo-Sa 08:00-22:00; Su 10:00-16:00; PH 08:00-20:00","roof:levels":"0","roof:shape":"flat","wheelchair":"yes"}}, "geometry":{"type":"MultiPolygon","coordinates":[[[[-1.47693,53.35769],[-1.47679,53.35778],[-1.47649,53.35798],[-1.47645,53.35795],[-1.47627,53.35807],[-1.47644,53.35816],[-1.47661,53.35826],[-1.47732,53.3578],[-1.47736,53.35768],[-1.47715,53.35766],[-1.47714,53.35769],[-1.47713,53.35772],[-1.47693,53.35769]]]]}},
{ "type":"Feature","properties":{"osm_way_id":"71213950","name":"Morrisons","building":"supermarket","shop":"supermarket","other":{"addr:postcode":"S20 8GN","brand":"Morrisons","brand:wikidata":"Q922344","brand:wikipedia":"en:Morrisons","website":"https:\/\/my.morrisons.com\/storefinder\/101"}}, "geometry":{"type":"MultiPolygon","coordinates":[[[[-1.34379,53.32466],[-1.34379,53.32488],[-1.34356,53.32488],[-1.34341,53.32531],[-1.34341,53.32542],[-1.34327,53.32542],[-1.34327,53.32554],[-1.34311,53.32554],[-1.34311,53.32557],[-1.34301,53.32557],[-1.34301,53.32568],[-1.34287,53.32568],[-1.34275,53.32569],[-1.34275,53.32562],[-1.34254,53.32562],[-1.34254,53.32548],[-1.3425,53.32548],[-1.34249,53.32474],[-1.34339,53.32474],[-1.34339,53.32466],[-1.34379,53.32466]]]]}},
{ "type":"Feature","properties":{"osm_way_id":"72639164","name":"Morrisons","building":"yes","shop":"supermarket","other":{"brand":"Morrisons","brand:wikidata":"Q922344","brand:wikipedia":"en:Morrisons","opening_hours":"Mo-Sa 07:00-22:00; Su 10:00-16:00","wheelchair":"yes"}}, "geometry":{"type":"MultiPolygon","coordinates":[[[[-1.45924,53.44362],[-1.45899,53.44373],[-1.45906,53.44378],[-1.45838,53.44408],[-1.45903,53.4446],[-1.45912,53.44456],[-1.45923,53.44465],[-1.45941,53.44457],[-1.4595,53.44463],[-1.4597,53.44455],[-1.45963,53.44449],[-1.45965,53.44448],[-1.45988,53.44438],[-1.45968,53.44421],[-1.45978,53.44416],[-1.45937,53.44383],[-1.45945,53.44379],[-1.45924,53.44362]]]]}},
{ "type":"Feature","properties":{"osm_way_id":"97425709","name":"The Co-operative Food","building":"yes","shop":"supermarket","other":{"addr:housenumber":"137-139","addr:postcode":"S2 2EJ","addr:street":"Northern Avenue","brand":"The Co-operative Food","brand:wikidata":"Q107617274","operator":"The Co-operative Group"}}, "geometry":{"type":"MultiPolygon","coordinates":[[[[-1.43745,53.35976],[-1.43761,53.35963],[-1.43744,53.35955],[-1.43737,53.35956],[-1.43727,53.35963],[-1.43738,53.35968],[-1.43734,53.35972],[-1.43745,53.35976]]]]}},
{ "type":"Feature","properties":{"osm_way_id":"99959432","name":"Heron Foods","building":"retail","shop":"supermarket","other":{"addr:city":"Sheffield","addr:housenumber":"549-553","addr:postcode":"S2 2BS","addr:street":"Gleadless Road","brand":"Heron Foods","brand:wikidata":"Q5743472","brand:wikipedia":"en:Heron Foods","building:levels":"1","opening_hours":"Mo-Sa 08:00-20:00; Su 10:00-16:00","roof:levels":"0","roof:shape":"flat","wheelchair":"yes"}}, "geometry":{"type":"MultiPolygon","coordinates":[[[[-1.4484,53.35542],[-1.44837,53.35543],[-1.4482,53.35554],[-1.44818,53.35555],[-1.44852,53.35575],[-1.4487,53.35563],[-1.44873,53.35561],[-1.44871,53.3556],[-1.4484,53.35542]]]]}},
{ "type":"Feature","properties":{"osm_way_id":"100345016","name":"Co-op Food","building":"yes","shop":"supermarket","other":{"addr:city":"Sheffield","addr:country":"GB","addr:housenumber":"2","addr:postcode":"S6 6DT","addr:street":"Oldfield Road","brand":"Co-op Food","brand:wikidata":"Q3277439","brand:wikipedia":"en:Co-op Food","fhrs:id":"1021533","operator":"The Co-operative Group","operator:wikidata":"Q117202","operator:wikipedia":"en:The Co-operative Group","wikidata":"Q117202","wikipedia":"en:The Co-operative Group"}}, "geometry":{"type":"MultiPolygon","coordinates":[[[[-1.53319,53.39225],[-1.5331,53.39239],[-1.53307,53.39238],[-1.53302,53.39245],[-1.53288,53.39242],[-1.5329,53.39239],[-1.53284,53.39238],[-1.53292,53.39226],[-1.53298,53.39227],[-1.53301,53.39222],[-1.53305,53.39223],[-1.53306,53.39222],[-1.53319,53.39225]]]]}},
{ "type":"Feature","properties":{"osm_way_id":"101015063","name":"Golocal","building":"yes","shop":"supermarket"},"geometry":{"type":"MultiPolygon","coordinates":[[[[-1.54065,53.39389],[-1.54043,53.39401],[-1.54039,53.39399],[-1.54044,53.39396],[-1.54037,53.39392],[-1.54055,53.39383],[-1.54065,53.39389]]]]}},
{ "type":"Feature","properties":{"osm_way_id":"101015082","name":"The Co-operative Food","building":"yes","shop":"supermarket","other":{"operator":"The Co-operative Group"}}, "geometry":{"type":"MultiPolygon","coordinates":[[[[-1.54041,53.39376],[-1.54019,53.39388],[-1.54002,53.39376],[-1.54024,53.39366],[-1.54041,53.39376]]]]}},
{ "type":"Feature","properties":{"osm_way_id":"102868656","name":"The Co-operative Food","building":"yes","shop":"supermarket","other":{"operator":"The Co-operative Group"}}, "geometry":{"type":"MultiPolygon","coordinates":[[[[-1.54012,53.32735],[-1.54025,53.32719],[-1.54022,53.32718],[-1.54025,53.32715],[-1.54009,53.3271],[-1.53994,53.3273],[-1.54012,53.32735]]]]}},
{ "type":"Feature","properties":{"osm_way_id":"102881378","name":"Co-op Derbyshire Lane","building":"retail","shop":"supermarket","other":{"addr:city":"Sheffield","addr:housenumber":"229","addr:street":"Derbyshire Lane","building:levels":"1","opening_hours":"07:00-23:00","roof:levels":"0","wheelchair":"yes"}}, "geometry":{"type":"MultiPolygon","coordinates":[[[[-1.47151,53.34538],[-1.47137,53.3454],[-1.47121,53.34543],[-1.47111,53.34522],[-1.47141,53.34517],[-1.47151,53.34538]]]]}},
{ "type":"Feature","properties":{"osm_way_id":"103970038","name":"Sainsbury's","building":"yes","shop":"supermarket","other":{"addr:housenumber":"76","addr:postcode":"S1 4PA","addr:street":"The Moor","brand":"Sainsbury's","brand:wikidata":"Q152096","brand:wikipedia":"en:Sainsbury's","contact:phone":"+44 114 278 0334"}}, "geometry":{"type":"MultiPolygon","coordinates":[[[[-1.47421,53.37641],[-1.47424,53.37638],[-1.47412,53.37634],[-1.47394,53.37628],[-1.47398,53.37623],[-1.47374,53.37615],[-1.47384,53.37604],[-1.47394,53.37602],[-1.47418,53.3761],[-1.47492,53.37635],[-1.47494,53.3764],[-1.47492,53.37642],[-1.47475,53.37636],[-1.4746,53.37653],[-1.47454,53.37653],[-1.47443,53.3765],[-1.4744,53.37653],[-1.47427,53.37649],[-1.47431,53.37645],[-1.47421,53.37641]]]]}},
{ "type":"Feature","properties":{"osm_way_id":"103989341","name":"Tai Sun Oriental Supermarket","building":"yes","shop":"supermarket","other":{"contact:postcode":"S1 4QB","cuisine":"chinese"}}, "geometry":{"type":"MultiPolygon","coordinates":[[[[-1.47139,53.37669],[-1.47124,53.37682],[-1.47145,53.3769],[-1.47156,53.3768],[-1.47155,53.37675],[-1.47139,53.37669]]]]}},
{ "type":"Feature","properties":{"osm_way_id":"104698778","name":"Heron Foods","building":"yes","shop":"supermarket","other":{"addr:city":"Sheffield","addr:country":"GB","addr:housenumber":"19,21","addr:postcode":"S1 2AW","addr:street":"Haymarket","brand":"Heron Foods","brand:wikidata":"Q5743472","brand:wikipedia":"en:Heron Foods","contact:website":"https:\/\/heronfoods.com\/storelocator\/store-details\/haymarket","fhrs:id":"894935","source:addr":"FHRS Open Data"}}, "geometry":{"type":"MultiPolygon","coordinates":[[[[-1.46434,53.38396],[-1.46436,53.38385],[-1.46462,53.38387],[-1.46466,53.38388],[-1.46467,53.38383],[-1.46474,53.38384],[-1.4647,53.384],[-1.46434,53.38396]]]]}},
{ "type":"Feature","properties":{"osm_way_id":"106651405","name":"Co-op Food","building":"yes","shop":"supermarket","other":{"brand":"Co-op Food","brand:wikidata":"Q3277439","brand:wikipedia":"en:Co-op Food","opening_hours:covid19":"open","operator":"The Co-operative Group"}}, "geometry":{"type":"MultiPolygon","coordinates":[[[[-1.53258,53.31568],[-1.53235,53.31573],[-1.5323,53.31566],[-1.53226,53.3156],[-1.53237,53.31557],[-1.53234,53.31553],[-1.53249,53.31549],[-1.53252,53.31555],[-1.53249,53.31555],[-1.53258,53.31568]]]]}},
{ "type":"Feature","properties":{"osm_way_id":"109278070","name":"Spar","building":"yes","shop":"supermarket","other":{"addr:city":"Sheffield","addr:country":"GB","addr:housenumber":"26-28","addr:postcode":"S10 5NH","addr:street":"Sandygate Road","brand":"Spar","brand:wikidata":"Q610492","brand:wikipedia":"en:SPAR (retailer)","fhrs:id":"435654","operator":"Blakemore Retail"}}, "geometry":{"type":"MultiPolygon","coordinates":[[[[-1.52016,53.37951],[-1.52031,53.37945],[-1.52061,53.37957],[-1.52052,53.37966],[-1.52035,53.3796],[-1.52036,53.37959],[-1.52016,53.37951]]]]}},
{ "type":"Feature","properties":{"osm_way_id":"113064324","name":"Lidl","building":"yes","shop":"supermarket","other":{"addr:city":"Sheffield","addr:country":"GB","addr:housenumber":"445-451","addr:postcode":"S36 1DJ","addr:street":"Manchester Road","addr:town":"Stocksbridge","brand":"Lidl","brand:wikidata":"Q151954","fhrs:id":"1076789"}}, "geometry":{"type":"MultiPolygon","coordinates":[[[[-1.59124,53.48158],[-1.59129,53.48147],[-1.59138,53.48149],[-1.59142,53.4814],[-1.59043,53.48124],[-1.59042,53.48128],[-1.59032,53.48147],[-1.59095,53.48157],[-1.59096,53.48154],[-1.59124,53.48158]]]]}},
{ "type":"Feature","properties":{"osm_way_id":"113448337","name":"The Cooperative Food","building":"yes","shop":"supermarket","other":{"addr:city":"Sheffield","addr:country":"GB","addr:housenumber":"198","addr:postcode":"S10 1TG","addr:street":"Crookes","fhrs:id":"435629","website":"http:\/\/www.co-operativefood.co.uk\/"}}, "geometry":{"type":"MultiPolygon","coordinates":[[[[-1.50803,53.38544],[-1.50808,53.38528],[-1.50755,53.38529],[-1.50762,53.3855],[-1.50778,53.38551],[-1.5078,53.38542],[-1.50803,53.38544]]]]}},
{ "type":"Feature","properties":{"osm_way_id":"115304069","name":"Amigo's 2","building":"yes","shop":"supermarket","other":{"addr:city":"Sheffield","addr:country":"GB","addr:housenumber":"34","addr:postcode":"S6 3FU","addr:street":"Addy Street","fhrs:id":"578706"}}, "geometry":{"type":"MultiPolygon","coordinates":[[[[-1.48794,53.38927],[-1.48802,53.38917],[-1.48792,53.38909],[-1.48782,53.38917],[-1.48773,53.38925],[-1.48782,53.38932],[-1.48794,53.38927]]]]}},
{ "type":"Feature","properties":{"osm_way_id":"116105474","name":"Co-op Food","building":"commercial","shop":"supermarket","other":{"brand":"Co-op Food","brand:wikidata":"Q3277439","brand:wikipedia":"en:Co-op Food","operator":"The Co-operative Group"}}, "geometry":{"type":"MultiPolygon","coordinates":[[[[-1.54555,53.36406],[-1.54585,53.364],[-1.54588,53.36406],[-1.54585,53.36406],[-1.54588,53.3641],[-1.54577,53.36411],[-1.54578,53.36413],[-1.54564,53.36419],[-1.54563,53.36417],[-1.54562,53.36415],[-1.54555,53.36406]]]]}},
{ "type":"Feature","properties":{"osm_way_id":"116508516","name":"Asda","building":"yes","shop":"supermarket","other":{"addr:city":"Sheffield","addr:country":"GB","addr:housenumber":"330","addr:postcode":"S6 3TD","addr:street":"South Road","brand":"Asda","brand:wikidata":"Q297410","brand:wikipedia":"en:Asda","contact:website":"https:\/\/storelocator.asda.com\/yorkshire-&-humber\/walkley\/330-south-road-walkley","fhrs:id":"437654","old_name":"Netto","operator":"Asda Stores Ltd","wheelchair":"yes"}}, "geometry":{"type":"MultiPolygon","coordinates":[[[[-1.50185,53.39389],[-1.50193,53.39387],[-1.50241,53.39364],[-1.50226,53.39353],[-1.5017,53.39378],[-1.50185,53.39389]]]]}},
{ "type":"Feature","properties":{"osm_way_id":"117174511","name":"Budgens","shop":"supermarket","other":{"addr:city":"Sheffield","addr:country":"GB","addr:housenumber":"29","addr:postcode":"S2 4LA","addr:street":"London Road","brand":"Budgens","brand:wikidata":"Q4985016","brand:wikipedia":"en:Budgens","building:part":"yes","fhrs:id":"436512","listed_status":"Grade II"}}, "geometry":{"type":"MultiPolygon","coordinates":[[[[-1.47672,53.37174],[-1.47671,53.37171],[-1.47664,53.37153],[-1.47674,53.37151],[-1.47672,53.37157],[-1.47692,53.37159],[-1.47695,53.3716],[-1.47692,53.37168],[-1.47693,53.37169],[-1.47694,53.3717],[-1.47694,53.3717],[-1.47693,53.37171],[-1.47692,53.37172],[-1.47691,53.37173],[-1.47689,53.37173],[-1.47687,53.37173],[-1.47685,53.37172],[-1.47672,53.37174]]]]}},
{ "type":"Feature","properties":{"osm_way_id":"117175714","name":"ALDI","building":"yes","shop":"supermarket","other":{"addr:postcode":"S2 4QA","addr:street":"Saint Mary's Gate","brand":"ALDI","brand:wikidata":"Q41171672","brand:wikipedia":"en:Aldi","fhrs:id":"436988","opening_hours":"Mo-Sa 08:00-22:00; Su 10:00-16:00","wheelchair":"yes"}}, "geometry":{"type":"MultiPolygon","coordinates":[[[[-1.47537,53.37259],[-1.47541,53.37252],[-1.47545,53.3725],[-1.4753,53.37205],[-1.47473,53.37212],[-1.47492,53.37261],[-1.47537,53.37259]]]]}},
{ "type":"Feature","properties":{"osm_way_id":"131969190","name":"Sainsbury's","building":"yes","shop":"supermarket","other":{"addr:postcode":"S8 0TD","addr:street":"Archer Road","brand":"Sainsbury's","brand:wikidata":"Q152096","brand:wikipedia":"en:Sainsbury's"}}, "geometry":{"type":"MultiPolygon","coordinates":[[[[-1.49257,53.34585],[-1.49248,53.34576],[-1.49221,53.34547],[-1.49236,53.34542],[-1.49245,53.3454],[-1.4926,53.34535],[-1.49241,53.34515],[-1.49257,53.34509],[-1.49321,53.34486],[-1.49341,53.34483],[-1.49344,53.34486],[-1.4936,53.34481],[-1.49363,53.34484],[-1.49384,53.34476],[-1.4942,53.34511],[-1.49411,53.34516],[-1.49401,53.3452],[-1.49405,53.34524],[-1.49375,53.34534],[-1.4938,53.34538],[-1.49365,53.34549],[-1.49328,53.34562],[-1.49336,53.34569],[-1.49324,53.34573],[-1.49322,53.34572],[-1.49294,53.34583],[-1.49282,53.34587],[-1.49272,53.34579],[-1.49267,53.34581],[-1.49257,53.34585]]]]}},
{ "type":"Feature","properties":{"osm_way_id":"131969237","name":"Tesco","building":"yes","shop":"supermarket","other":{"addr:city":"Sheffield","addr:country":"GB","addr:postcode":"S7 2QB","addr:street":"Abbeydale Road","brand":"Tesco","brand:wikidata":"Q487494","brand:wikipedia":"en:Tesco","fhrs:id":"435963"}}, "geometry":{"type":"MultiPolygon","coordinates":[[[[-1.49315,53.34723],[-1.49283,53.34705],[-1.49227,53.34673],[-1.49331,53.34607],[-1.49335,53.34609],[-1.49344,53.34604],[-1.49401,53.34636],[-1.49393,53.34641],[-1.49399,53.34644],[-1.4941,53.34638],[-1.49424,53.34645],[-1.49412,53.34652],[-1.49419,53.34657],[-1.49386,53.34677],[-1.4937,53.34688],[-1.49356,53.34697],[-1.49363,53.34701],[-1.49326,53.34724],[-1.49319,53.3472],[-1.49315,53.34723]]]]}},
{ "type":"Feature","properties":{"osm_way_id":"131993149","name":"Asda","building":"retail","shop":"supermarket","other":{"addr:city":"Sheffield","addr:country":"GB","addr:housenumber":"801","addr:postcode":"S8 0SQ","addr:street":"Chesterfield Road","brand":"Asda","brand:wikidata":"Q297410","brand:wikipedia":"en:Asda","contact:website":"https:\/\/storelocator.asda.com\/yorkshire-&-humber\/woodseats\/801-chesterfield-road","fhrs:id":"505588","opening_hours":"Mo-Sa 07:00-22:00; Su 10:00-16:00","operator":"Asda Stores Ltd","payment:cash":"yes","payment:credit_cards":"yes","payment:debit_cards":"yes","wheelchair":"yes"}}, "geometry":{"type":"MultiPolygon","coordinates":[[[[-1.47805,53.34122],[-1.47826,53.34122],[-1.47826,53.34138],[-1.4777,53.34138],[-1.47771,53.34132],[-1.47771,53.34129],[-1.47741,53.34129],[-1.47739,53.34119],[-1.47805,53.34122]]]]}},
{ "type":"Feature","properties":{"osm_way_id":"134387731","name":"Sheffield Super Store","building":"yes","shop":"supermarket","other":{"addr:city":"Sheffield","addr:country":"GB","addr:housenumber":"369-373","addr:postcode":"S7 1FS","addr:street":"Abbeydale Road","fhrs:id":"914930"}}, "geometry":{"type":"MultiPolygon","coordinates":[[[[-1.47956,53.3599],[-1.47947,53.36003],[-1.47927,53.35999],[-1.47919,53.35997],[-1.47908,53.35994],[-1.47905,53.35993],[-1.47919,53.35988],[-1.47926,53.35982],[-1.47939,53.35985],[-1.47956,53.3599]]]]}},
{ "type":"Feature","properties":{"osm_way_id":"136926108","name":"Lidl","building":"yes","shop":"supermarket","other":{"addr:city":"Sheffield","addr:country":"GB","addr:housenumber":"170","addr:postcode":"S6 1LH","addr:street":"Halifax Road","addr:suburb":"Wadsley Bridge","brand":"Lidl","brand:wikidata":"Q151954","fhrs:id":"972492"}}, "geometry":{"type":"MultiPolygon","coordinates":[[[[-1.4921,53.42266],[-1.49208,53.42248],[-1.49197,53.42248],[-1.49197,53.42246],[-1.49193,53.42246],[-1.49193,53.42241],[-1.49187,53.42241],[-1.49186,53.42237],[-1.49151,53.42238],[-1.49155,53.42285],[-1.49195,53.42284],[-1.49194,53.4228],[-1.49203,53.42279],[-1.49202,53.42266],[-1.4921,53.42266]]]]}},
{ "type":"Feature","properties":{"osm_way_id":"137204145","name":"Tesco Extra","building":"supermarket","shop":"supermarket","other":{"addr:city":"Sheffield","addr:country":"GB","addr:housenumber":"1","addr:postcode":"S4 7UD","addr:street":"Savile Street","brand":"Tesco Extra","brand:wikidata":"Q25172225","brand:wikipedia":"en:Tesco Extra","contact:phone":"+44 3456 719 419","contact:website":"https:\/\/www.tesco.com\/store-locator\/uk\/?bid=6401","fhrs:id":"557967","opening_hours":"Mo-Sa 00:00-24:00; Su 11:00-17:00","wheelchair":"yes"}}, "geometry":{"type":"MultiPolygon","coordinates":[[[[-1.45652,53.38978],[-1.45683,53.39017],[-1.45667,53.39022],[-1.45676,53.39035],[-1.4566,53.39039],[-1.45673,53.39054],[-1.45836,53.39006],[-1.45843,53.39015],[-1.4585,53.39024],[-1.45869,53.39016],[-1.45866,53.39014],[-1.45856,53.39003],[-1.45835,53.38981],[-1.45832,53.38981],[-1.45792,53.38933],[-1.45779,53.38937],[-1.45781,53.38939],[-1.45652,53.38978]]]]}},
{ "type":"Feature","properties":{"osm_way_id":"137971319","name":"Bradway Post Office","building":"yes","shop":"supermarket","other":{"brand":"Spar","brand:wikidata":"Q610492","operator":"Spar"}}, "geometry":{"type":"MultiPolygon","coordinates":[[[[-1.50473,53.31836],[-1.50495,53.31827],[-1.50488,53.31821],[-1.50466,53.3183],[-1.50473,53.31836]]]]}},
{ "type":"Feature","properties":{"osm_way_id":"138097319","name":"Lidl","building":"yes","shop":"supermarket","other":{"addr:city":"Sheffield","addr:country":"GB","addr:housenumber":"6","addr:postcode":"S9 5JA","addr:street":"Catley Road","brand":"Lidl","brand:wikidata":"Q151954","brand:wikipedia":"en:Lidl","fhrs:id":"436356"}}, "geometry":{"type":"MultiPolygon","coordinates":[[[[-1.41047,53.38731],[-1.41054,53.38699],[-1.40976,53.38693],[-1.40977,53.38688],[-1.40963,53.38686],[-1.40961,53.38698],[-1.4097,53.38699],[-1.40965,53.3872],[-1.40991,53.38722],[-1.4099,53.38726],[-1.41047,53.38731]]]]}},
{ "type":"Feature","properties":{"osm_way_id":"138098748","name":"Hitchens","building":"yes","shop":"supermarket","other":{"addr:city":"Sheffield","addr:housenumber":"602-608","addr:postcode":"S9 3QS","addr:street":"Attercliffe Road","contact:phone":"+44 114 244 1611"}}, "geometry":{"type":"MultiPolygon","coordinates":[[[[-1.4332,53.39248],[-1.43328,53.39253],[-1.43351,53.39264],[-1.4336,53.3926],[-1.43371,53.39256],[-1.43349,53.39241],[-1.43325,53.39228],[-1.43315,53.3924],[-1.43324,53.39245],[-1.4332,53.39248]]]]}},
{ "type":"Feature","properties":{"osm_way_id":"142843492","name":"Asda","building":"yes","shop":"supermarket","other":{"addr:city":"Sheffield","addr:country":"GB","addr:postcode":"S5 8NH","addr:street":"Chaucer Road","brand":"Asda","brand:wikidata":"Q297410","brand:wikipedia":"en:Asda","contact:website":"https:\/\/storelocator.asda.com\/yorkshire-&-humber\/sheffield\/chaucer-road-parson-cross","fhrs:id":"437472","opening_hours":"Mo-Fr 06:00-24:00; Sa 06:00-22:00; Su 11:00-17:00","operator":"Asda Stores Ltd"}}, "geometry":{"type":"MultiPolygon","coordinates":[[[[-1.4878,53.42827],[-1.4878,53.4283],[-1.48798,53.42831],[-1.48824,53.42819],[-1.48825,53.42812],[-1.48836,53.42812],[-1.48838,53.42807],[-1.48847,53.42807],[-1.48853,53.42804],[-1.48855,53.42799],[-1.48851,53.42797],[-1.48854,53.42782],[-1.48843,53.42767],[-1.48684,53.42756],[-1.48683,53.42759],[-1.48663,53.42757],[-1.48654,53.42811],[-1.48656,53.42817],[-1.4867,53.42827],[-1.48681,53.42829],[-1.48714,53.42833],[-1.48738,53.42833],[-1.48754,53.42832],[-1.48756,53.42826],[-1.4878,53.42827]]]]}},
{ "type":"Feature","properties":{"osm_way_id":"148389682","name":"The Co-operative Food","building":"yes","shop":"supermarket","other":{"operator":"The Co-operative Group"}}, "geometry":{"type":"MultiPolygon","coordinates":[[[[-1.37441,53.35942],[-1.37479,53.35926],[-1.37434,53.35887],[-1.37396,53.35903],[-1.37441,53.35942]]]]}},
{ "type":"Feature","properties":{"osm_way_id":"161115474","name":"Asda","building":"yes","shop":"supermarket","other":{"addr:city":"Sheffield","addr:country":"GB","addr:housenumber":"978","addr:postcode":"S12 2AB","addr:street":"City Road","brand":"Asda","brand:wikidata":"Q297410","brand:wikipedia":"en:Asda","contact:website":"https:\/\/storelocator.asda.com\/yorkshire-&-humber\/sheffield\/manor-top-shopping-centre-978-city-road","fhrs:id":"505596","operator":"Asda Stores Ltd"}}, "geometry":{"type":"MultiPolygon","coordinates":[[[[-1.42801,53.36008],[-1.42741,53.35986],[-1.42743,53.35984],[-1.42736,53.35981],[-1.42736,53.35981],[-1.42749,53.35968],[-1.42754,53.35972],[-1.42762,53.35971],[-1.4281,53.35987],[-1.42812,53.35993],[-1.42804,53.36001],[-1.42807,53.36002],[-1.42801,53.36008]]]]}},
{ "type":"Feature","properties":{"osm_way_id":"168966404","name":"The Food Warehouse","building":"retail","shop":"supermarket","other":{"addr:city":"Sheffield","addr:country":"GB","addr:housename":"Heeley Retail Park","addr:postcode":"S8 0RG","addr:street":"Chesterfield Road","addr:unit":"4","brand":"The Food Warehouse","brand:wikidata":"Q87263899","building:levels":"1","fhrs:id":"1097635","opening_hours":"Mo-Sa 08:00-20:00; Su 10:00-16:00","roof:levels":"0","roof:shape":"gabled","wheelchair":"yes"}}, "geometry":{"type":"MultiPolygon","coordinates":[[[[-1.47891,53.35669],[-1.47877,53.35661],[-1.47845,53.35641],[-1.47853,53.35636],[-1.4785,53.35634],[-1.47853,53.35633],[-1.47859,53.3563],[-1.47861,53.35631],[-1.47868,53.35627],[-1.47915,53.35656],[-1.47891,53.35669]]]]}},
{ "type":"Feature","properties":{"osm_way_id":"170359259","name":"Lowfield Mini Market","building":"yes","shop":"supermarket","other":{"addr:city":"Sheffield","addr:country":"GB","addr:housenumber":"414","addr:postcode":"S2 4ND","addr:street":"London Road","fhrs:id":"1104150"}}, "geometry":{"type":"MultiPolygon","coordinates":[[[[-1.47278,53.36462],[-1.47278,53.36465],[-1.47274,53.36465],[-1.47274,53.36468],[-1.4726,53.36469],[-1.47259,53.36465],[-1.47278,53.36462]]]]}},
{ "type":"Feature","properties":{"osm_way_id":"173066725","name":"Asda","shop":"supermarket","other":{"addr:city":"Sheffield","addr:country":"GB","addr:housenumber":"405","addr:postcode":"S2 4DR","addr:street":"Queens Road","brand":"Asda","brand:wikidata":"Q297410","brand:wikipedia":"en:Asda","building:part":"yes","contact:website":"https:\/\/storelocator.asda.com\/yorkshire-&-humber\/sheffield\/405-queens-road","fhrs:id":"437539","operator":"Asda Stores Ltd"}}, "geometry":{"type":"MultiPolygon","coordinates":[[[[-1.46402,53.36827],[-1.46418,53.36836],[-1.46454,53.36854],[-1.46433,53.36868],[-1.46395,53.36849],[-1.46381,53.36842],[-1.46402,53.36827]]]]}},
{ "type":"Feature","properties":{"osm_way_id":"173301640","name":"Arman Food Store","building":"yes","shop":"supermarket","other":{"addr:housenumber":"569","addr:street":"Abbeydale Road","phone":"+44 114 2580097"}}, "geometry":{"type":"MultiPolygon","coordinates":[[[[-1.48299,53.35732],[-1.48301,53.35729],[-1.4829,53.35726],[-1.48288,53.35729],[-1.48299,53.35732]]]]}},
{ "type":"Feature","properties":{"osm_way_id":"175116301","name":"Tesco Metro","building":"commercial","shop":"supermarket","other":{"brand":"Tesco Metro","brand:wikidata":"Q57551648"}}, "geometry":{"type":"MultiPolygon","coordinates":[[[[-1.47823,53.38026],[-1.47813,53.38011],[-1.47788,53.38017],[-1.47785,53.38018],[-1.47784,53.38016],[-1.47752,53.38024],[-1.4773,53.38029],[-1.47731,53.38031],[-1.47729,53.38031],[-1.47721,53.38033],[-1.47731,53.38048],[-1.47764,53.3804],[-1.47786,53.38035],[-1.47823,53.38026]]]]}},
{ "type":"Feature","properties":{"osm_way_id":"175479468","name":"Co-op Food","building":"yes","shop":"supermarket","other":{"addr:city":"Sheffield","addr:housename":"Castle House","addr:postcode":"S3 8LS","addr:street":"Castle Street","brand":"Co-op Food","brand:wikidata":"Q3277439","brand:wikipedia":"en:Co-op Food","fhrs:id":"436561","opening_hours":"Mo-Sa 07:00-22:00; Su 11:00-17:00","operator":"The Co-operative Group"}}, "geometry":{"type":"MultiPolygon","coordinates":[[[[-1.46519,53.38421],[-1.46519,53.38407],[-1.46478,53.38407],[-1.46477,53.38412],[-1.46476,53.3842],[-1.46519,53.38421]]]]}},
{ "type":"Feature","properties":{"osm_way_id":"176381210","name":"The Co-operative Food","building":"yes","shop":"supermarket","other":{"operator":"The Co-operative Group"}}, "geometry":{"type":"MultiPolygon","coordinates":[[[[-1.49329,53.33691],[-1.49344,53.33689],[-1.49339,53.33679],[-1.49337,53.33679],[-1.49335,53.33679],[-1.49335,53.33679],[-1.49316,53.33682],[-1.49319,53.33689],[-1.49327,53.33687],[-1.49329,53.33691]]]]}},
{ "type":"Feature","properties":{"osm_way_id":"194910606","name":"M&S Foodhall","building":"yes","shop":"supermarket","other":{"addr:housenumber":"250-266","addr:postcode":"S11 8JD","addr:street":"Eccleshall Road","brand":"M&S Foodhall","brand:wikidata":"Q714491","brand:wikipedia":"en:Marks & Spencer"}}, "geometry":{"type":"MultiPolygon","coordinates":[[[[-1.48882,53.37191],[-1.48868,53.37176],[-1.48874,53.37173],[-1.48869,53.37168],[-1.48863,53.37162],[-1.48855,53.37157],[-1.48852,53.37158],[-1.48851,53.37157],[-1.48812,53.37168],[-1.4882,53.37177],[-1.48817,53.37178],[-1.48809,53.3718],[-1.48818,53.3719],[-1.48829,53.37187],[-1.48843,53.37203],[-1.4887,53.37195],[-1.48882,53.37191]]]]}},
{ "type":"Feature","properties":{"osm_way_id":"199548736","name":"Tesco","building":"yes","shop":"supermarket","other":{"addr:city":"Sheffield","addr:country":"GB","addr:housenumber":"8","addr:postcode":"S11 8PN","addr:street":"Berkeley Precinct","addr:unit":"8","brand":"Tesco","brand:wikidata":"Q487494","brand:wikipedia":"en:Tesco","fhrs:id":"435718"}}, "geometry":{"type":"MultiPolygon","coordinates":[[[[-1.49384,53.3689],[-1.49356,53.36899],[-1.49353,53.36894],[-1.49294,53.36912],[-1.49297,53.36916],[-1.49291,53.36918],[-1.49304,53.36933],[-1.49327,53.36926],[-1.49397,53.36904],[-1.49384,53.3689]]]]}},
{ "type":"Feature","properties":{"osm_way_id":"199552521","name":"Co-op Food","building":"supermarket","shop":"supermarket","other":{"addr:city":"Sheffield","addr:country":"GB","addr:housenumber":"849","addr:postcode":"S11 8SD","addr:street":"Ecclesall Road","brand":"Co-op Food","brand:wikidata":"Q3277439","brand:wikipedia":"en:Co-op Food","fhrs:id":"435717","operator":"The Co-operative Group"}}, "geometry":{"type":"MultiPolygon","coordinates":[[[[-1.50725,53.36497],[-1.50692,53.36493],[-1.50695,53.36482],[-1.50685,53.36481],[-1.50689,53.36471],[-1.50678,53.36469],[-1.50683,53.36448],[-1.50698,53.3645],[-1.50738,53.36454],[-1.5073,53.36482],[-1.50727,53.3649],[-1.50725,53.36497]]]]}},
{ "type":"Feature","properties":{"osm_way_id":"205938730","name":"Sainsbury's Local","building":"retail","shop":"supermarket","other":{"addr:city":"Sheffield","addr:country":"GB","addr:housenumber":"960","addr:postcode":"S12 2LL","addr:street":"Gleadless Road","brand:wikidata":"Q13218434","building:levels":"2","fhrs:id":"436573","opening_hours":"Mo-Su,PH 06:00-23:00","roof:levels":"0"}}, "geometry":{"type":"MultiPolygon","coordinates":[[[[-1.42577,53.34515],[-1.426,53.34505],[-1.42611,53.34514],[-1.42589,53.34524],[-1.42577,53.34515]]]]}},
{ "type":"Feature","properties":{"osm_way_id":"208029285","name":"Co-op Food","building":"yes","shop":"supermarket","other":{"addr:city":"Diss","addr:postcode":"IP22 1DY","addr:street":"The Street","addr:village":"Rickinghall Superior","brand":"Co-op Food","brand:wikidata":"Q3277439","brand:wikipedia":"en:Co-op Food","fhrs:id":"527723","operator":"Central England Co-operative","source:addr":"FHRS Open Data"}}, "geometry":{"type":"MultiPolygon","coordinates":[[[[1.0002,52.3407],[1.00044,52.34056],[1.0005,52.3406],[1.00059,52.34067],[1.00063,52.34064],[1.00075,52.34072],[1.00042,52.3409],[1.00034,52.34085],[1.00038,52.34082],[1.0002,52.3407]]]]}},
{ "type":"Feature","properties":{"osm_way_id":"228865000","name":"Abbeydale Supermarket","building":"yes","shop":"supermarket","other":{"addr:city":"Sheffield","addr:country":"GB","addr:housenumber":"755","addr:postcode":"S7 2BG","addr:street":"Abbeydale Road","fhrs:id":"437523"}}, "geometry":{"type":"MultiPolygon","coordinates":[[[[-1.48577,53.35357],[-1.48575,53.35356],[-1.48575,53.35354],[-1.48579,53.35354],[-1.4858,53.35349],[-1.48594,53.35351],[-1.48592,53.35358],[-1.48577,53.35357]]]]}},
{ "type":"Feature","properties":{"osm_way_id":"242719720","name":"Durga Stores","building":"yes","shop":"supermarket","other":{"addr:city":"Sheffield","addr:country":"GB","addr:housenumber":"158-160","addr:postcode":"S7 1FH","addr:street":"Abbeydale Road","fhrs:id":"696816"}}, "geometry":{"type":"MultiPolygon","coordinates":[[[[-1.47765,53.36317],[-1.4776,53.36324],[-1.47774,53.36328],[-1.47779,53.36321],[-1.47765,53.36317]]]]}},
{ "type":"Feature","properties":{"osm_way_id":"242719794","name":"Madina Store","building":"yes","shop":"supermarket","other":{"addr:city":"Sheffield","addr:country":"GB","addr:housenumber":"142A","addr:postcode":"S7 1FF","addr:street":"Abbeydale Road","fhrs:id":"948578"}}, "geometry":{"type":"MultiPolygon","coordinates":[[[[-1.47721,53.36374],[-1.47731,53.36369],[-1.4772,53.36362],[-1.47711,53.36368],[-1.47721,53.36374]]]]}},
{ "type":"Feature","properties":{"osm_way_id":"282675729","name":"The Co-operative Food","building":"yes","shop":"supermarket","other":{"addr:city":"Countesthorpe","addr:country":"GB","addr:housenumber":"8","addr:postcode":"LE8 5QX","addr:street":"Main Street","fhrs:authority":"Blaby","fhrs:id":"1201611","fhrs:local_authority_id":"2152","operator":"Central England Co-operative Society"}}, "geometry":{"type":"MultiPolygon","coordinates":[[[[-1.13766,52.55337],[-1.13765,52.55338],[-1.13757,52.55352],[-1.13728,52.55346],[-1.13737,52.55331],[-1.13766,52.55337]]]]}},
{ "type":"Feature","properties":{"osm_way_id":"283495462","name":"Cooperative Food","building":"yes","shop":"supermarket","other":{"addr:city":"Sheffield","addr:country":"GB","addr:postcode":"S36 1BX","addr:street":"Johnson Street","addr:village":"Stocksbridge"}}, "geometry":{"type":"MultiPolygon","coordinates":[[[[-1.59651,53.48313],[-1.59609,53.48301],[-1.59641,53.4826],[-1.59683,53.48272],[-1.59651,53.48313]]]]}},
{ "type":"Feature","properties":{"osm_way_id":"317691101","name":"The Food Warehouse","building":"yes","shop":"supermarket","other":{"addr:city":"Sheffield","addr:country":"GB","addr:postcode":"S9 2YZ","addr:street":"Attercliffe Common","brand":"The Food Warehouse","brand:wikidata":"Q87263899"}}, "geometry":{"type":"MultiPolygon","coordinates":[[[[-1.41279,53.40496],[-1.41289,53.40479],[-1.41228,53.40467],[-1.41218,53.40485],[-1.41279,53.40496]]]]}},
{ "type":"Feature","properties":{"osm_way_id":"320371535","name":"Spar","building":"yes","shop":"supermarket","other":{"addr:city":"Sheffield","addr:country":"GB","addr:housenumber":"93","addr:postcode":"S36 1ET","addr:street":"Pot House Lane","addr:town":"Stocksbridge","brand":"Spar","brand:wikidata":"Q610492","brand:wikipedia":"en:SPAR (retailer)","fhrs:id":"435749"}}, "geometry":{"type":"MultiPolygon","coordinates":[[[[-1.59901,53.47659],[-1.59905,53.47649],[-1.59908,53.47643],[-1.59875,53.47638],[-1.59869,53.47653],[-1.59882,53.47655],[-1.59881,53.47656],[-1.59901,53.47659]]]]}},
{ "type":"Feature","properties":{"osm_way_id":"322916340","name":"Sainsbury's","building":"retail","shop":"supermarket","other":{"brand":"Sainsbury's","brand:wikidata":"Q152096","brand:wikipedia":"en:Sainsbury's","opening_hours":"Mo-Sa 07:00-11:00; Su 10:00-16:00"}}, "geometry":{"type":"MultiPolygon","coordinates":[[[[-1.50254,53.41732],[-1.50183,53.41795],[-1.50082,53.41752],[-1.50057,53.41725],[-1.50107,53.41673],[-1.50254,53.41732]]]]}},
{ "type":"Feature","properties":{"osm_way_id":"339923482","name":"Ozmen Local","building":"yes","shop":"supermarket"},"geometry":{"type":"MultiPolygon","coordinates":[[[[-1.49569,53.38619],[-1.49545,53.38629],[-1.49526,53.38613],[-1.49543,53.38605],[-1.49549,53.38602],[-1.49569,53.38619]]]]}},
{ "type":"Feature","properties":{"osm_way_id":"339930102","name":"Co-op Food","building":"yes","shop":"supermarket","other":{"brand":"Co-op Food","brand:wikidata":"Q3277439","brand:wikipedia":"en:Co-op Food","operator":"The Co-operative Group","operator:wikidata":"Q117202","operator:wikipedia":"en:The Co-operative Group"}}, "geometry":{"type":"MultiPolygon","coordinates":[[[[-1.49569,53.38667],[-1.49564,53.38665],[-1.49567,53.38661],[-1.49566,53.3866],[-1.49568,53.38658],[-1.49565,53.38657],[-1.49573,53.38648],[-1.49587,53.38652],[-1.4958,53.38661],[-1.49576,53.3866],[-1.49574,53.38663],[-1.49573,53.38662],[-1.49569,53.38667]]]]}},
{ "type":"Feature","properties":{"osm_way_id":"358521079","name":"The Co-operative Food","building":"yes","shop":"supermarket","other":{"operator":"Central England Co-operative"}}, "geometry":{"type":"MultiPolygon","coordinates":[[[[-1.39847,53.34681],[-1.39852,53.34679],[-1.39865,53.34689],[-1.39846,53.34698],[-1.39833,53.34688],[-1.39834,53.34688],[-1.39838,53.34686],[-1.39847,53.34681]]]]}},
{ "type":"Feature","properties":{"osm_way_id":"361121881","name":"Asda","building":"yes","shop":"supermarket","other":{"addr:city":"Sheffield","addr:country":"GB","addr:postcode":"S20 7JZ","addr:street":"Beighton Road East","brand":"Asda","brand:wikidata":"Q297410","brand:wikipedia":"en:Asda","contact:phone":"+44 114 229 1001","contact:website":"https:\/\/storelocator.asda.com\/yorkshire-&-humber\/sheffield\/beighton-road-east","fhrs:id":"914936","opening_hours":"Mo 08:00-24:00; Tu-Fr 00:00-24:00; Sa 00:00-22:00; Su 10:00-16:00","operator":"Asda Stores Ltd","wheelchair":"yes"}}, "geometry":{"type":"MultiPolygon","coordinates":[[[[-1.36091,53.34461],[-1.36102,53.34383],[-1.36102,53.34381],[-1.36082,53.3438],[-1.36081,53.34383],[-1.35976,53.34378],[-1.35969,53.34425],[-1.35949,53.34424],[-1.35945,53.34454],[-1.35996,53.34456],[-1.36091,53.34461]]]]}},
{ "type":"Feature","properties":{"osm_way_id":"365081642","name":"Co-operative Food","building":"yes","shop":"supermarket"},"geometry":{"type":"MultiPolygon","coordinates":[[[[-1.34171,53.34919],[-1.34165,53.349],[-1.34146,53.34903],[-1.34153,53.34922],[-1.34171,53.34919]]]]}},
{ "type":"Feature","properties":{"osm_way_id":"377478279","name":"Sainsbury's Local","building":"yes","shop":"supermarket","other":{"addr:city":"Sheffield","addr:country":"GB","addr:housenumber":"2","addr:postcode":"S35 4LU","addr:street":"Wortley Road","addr:suburb":"High Green","brand":"Sainsbury's Local","brand:wikidata":"Q13218434","brand:wikipedia":"en:Sainsbury's Local","fhrs:id":"903299","wheelchair":"yes"}}, "geometry":{"type":"MultiPolygon","coordinates":[[[[-1.48657,53.47416],[-1.48666,53.47405],[-1.48619,53.47392],[-1.48615,53.47397],[-1.4861,53.47396],[-1.48605,53.47402],[-1.48657,53.47416]]]]}},
{ "type":"Feature","properties":{"osm_way_id":"480350941","name":"ALDI","building":"yes","shop":"supermarket","other":{"addr:postcode":"S6 2UB","addr:street":"Langsett Road","brand":"ALDI","brand:wikidata":"Q41171672","brand:wikipedia":"en:Aldi"}}, "geometry":{"type":"MultiPolygon","coordinates":[[[[-1.48768,53.39482],[-1.48767,53.39481],[-1.48781,53.39475],[-1.48773,53.39468],[-1.48778,53.39466],[-1.4876,53.39451],[-1.48747,53.39457],[-1.48687,53.39483],[-1.48715,53.39506],[-1.48768,53.39482]]]]}},
{ "type":"Feature","properties":{"osm_way_id":"544842000","name":"Morrisons","building":"yes","shop":"supermarket","other":{"addr:city":"Sheffield","addr:country":"GB","addr:housenumber":"228-232","addr:postcode":"S10 3BB","addr:street":"Fulwood Road","brand":"Morrisons","brand:wikidata":"Q922344","brand:wikipedia":"en:Morrisons","fhrs:id":"436925"}}, "geometry":{"type":"MultiPolygon","coordinates":[[[[-1.50233,53.37761],[-1.50214,53.37767],[-1.50188,53.37736],[-1.50205,53.37731],[-1.50209,53.37735],[-1.50233,53.37761]]]]}},
{ "type":"Feature","properties":{"osm_way_id":"632849224","name":"Aldi","building":"yes","shop":"supermarket","other":{"addr:city":"Sheffield","addr:country":"GB","addr:housenumber":"232","addr:postcode":"S13 9BS","addr:street":"Handsworth Road","brand":"ALDI","brand:wikidata":"Q41171672","brand:wikipedia":"en:Aldi","fhrs:id":"451888","opening_hours":"Mo-Sa 08:00-22:00; Su 10:00-16:00","phone":"+44 800 042 0800"}}, "geometry":{"type":"MultiPolygon","coordinates":[[[[-1.39406,53.37513],[-1.39345,53.37549],[-1.39373,53.37567],[-1.39435,53.37531],[-1.39406,53.37513]]]]}},
{ "type":"Feature","properties":{"osm_way_id":"656606075","name":"Morrisons","building":"supermarket","shop":"supermarket","other":{"addr:city":"Sheffield","addr:country":"GB","addr:housenumber":"699","addr:postcode":"S6 2GY","addr:street":"Penistone Road","brand":"Morrisons","brand:wikidata":"Q922344","brand:wikipedia":"en:Morrisons","fhrs:id":"437910","opening_hours":"Mo-Sa 06:00-23:00; Su 10:00-16:00","source:addr":"FHRS Open Data","wheelchair":"yes"}}, "geometry":{"type":"MultiPolygon","coordinates":[[[[-1.49683,53.40205],[-1.49661,53.40221],[-1.49622,53.40251],[-1.49602,53.4024],[-1.49587,53.40251],[-1.49573,53.40246],[-1.49569,53.40249],[-1.49558,53.40244],[-1.4955,53.40251],[-1.49479,53.40217],[-1.49421,53.40189],[-1.49493,53.40134],[-1.49618,53.40193],[-1.49632,53.40181],[-1.49645,53.40187],[-1.49673,53.402],[-1.49683,53.40205]]]]}},
{ "type":"Feature","properties":{"osm_way_id":"670901424","name":"Aldi","building":"yes","shop":"supermarket","other":{"addr:city":"Sheffield","addr:country":"GB","addr:housenumber":"82","addr:postcode":"S35 9WN","addr:street":"The Common","brand":"ALDI","brand:wikidata":"Q41171672","brand:wikipedia":"en:Aldi","fhrs:id":"650952"}}, "geometry":{"type":"MultiPolygon","coordinates":[[[[-1.4637,53.44553],[-1.46345,53.44568],[-1.46401,53.44603],[-1.46427,53.44588],[-1.4637,53.44553]]]]}},
{ "type":"Feature","properties":{"osm_way_id":"684425561","name":"Ozmen","building":"yes","shop":"supermarket","other":{"addr:city":"Sheffield","addr:country":"GB","addr:housenumber":"55,57","addr:postcode":"S2 4QT","addr:street":"John Street","fhrs:id":"1016554","source:addr":"FHRS Open Data"}}, "geometry":{"type":"MultiPolygon","coordinates":[[[[-1.47534,53.3704],[-1.4755,53.37036],[-1.47558,53.37046],[-1.47579,53.37047],[-1.47598,53.37028],[-1.4762,53.37035],[-1.47622,53.37042],[-1.47581,53.37084],[-1.47562,53.37078],[-1.47534,53.3704]]]]}},
{ "type":"Feature","properties":{"osm_way_id":"713889380","name":"Aldi","building":"retail","shop":"supermarket","other":{"brand":"ALDI","brand:wikidata":"Q41171672","brand:wikipedia":"en:Aldi"}}, "geometry":{"type":"MultiPolygon","coordinates":[[[[-1.35409,53.34661],[-1.35379,53.34636],[-1.35447,53.34606],[-1.35477,53.34629],[-1.35467,53.34634],[-1.35473,53.34638],[-1.35459,53.34644],[-1.35454,53.34641],[-1.35409,53.34661]]]]}},
{ "type":"Feature","properties":{"osm_way_id":"906997712","name":"Co-op Food","building":"retail","shop":"supermarket","other":{"addr:city":"Sheffield","addr:country":"GB","addr:county":"South Yorkshire","addr:postcode":"S8 9JE","addr:street":"Lees Hall Avenue","brand":"Co-op Food","brand:wikidata":"Q3277439","brand:wikipedia":"en:Co-op Food"}}, "geometry":{"type":"MultiPolygon","coordinates":[[[[-1.46692,53.35195],[-1.46694,53.35203],[-1.46675,53.35204],[-1.46675,53.35197],[-1.46664,53.35197],[-1.46661,53.35189],[-1.4669,53.35187],[-1.46692,53.35195]]]]}},
{ "type":"Feature","properties":{"osm_way_id":"955869796","name":"Lidl","building":"yes","shop":"supermarket","other":{"addr:city":"Sheffield","addr:country":"GB","addr:postcode":"S6 5FL","addr:street":"Stannington Road","brand":"Lidl","brand:wikidata":"Q151954","brand:wikipedia":"en:Lidl","fhrs:id":"1379687"}}, "geometry":{"type":"MultiPolygon","coordinates":[[[[-1.51411,53.40021],[-1.51305,53.39996],[-1.51307,53.39993],[-1.51309,53.39994],[-1.51311,53.39994],[-1.51324,53.39974],[-1.51325,53.39972],[-1.51419,53.39994],[-1.51407,53.40013],[-1.51415,53.40014],[-1.51411,53.40021]]]]}},
{ "type":"Feature","properties":{"osm_way_id":"1032380223","name":"KH Oriental","shop":"supermarket","other":{"level":"1"}}, "geometry":{"type":"MultiPolygon","coordinates":[[[[-1.47461,53.37231],[-1.47453,53.37232],[-1.47452,53.3723],[-1.47412,53.37235],[-1.47407,53.37222],[-1.47452,53.37216],[-1.47455,53.37216],[-1.47461,53.37231]]]]}},
{ "type":"Feature","properties":{"osm_way_id":"1038038873","name":"Heron Foods","building":"yes","shop":"supermarket","other":{"brand":"Heron Foods","brand:wikidata":"Q5743472","brand:wikipedia":"en:Heron Foods"}}, "geometry":{"type":"MultiPolygon","coordinates":[[[[-1.50192,53.40303],[-1.50183,53.40302],[-1.50166,53.40307],[-1.50148,53.40319],[-1.50166,53.40328],[-1.50199,53.40306],[-1.50192,53.40303]]]]}},
{ "type":"Feature","properties":{"osm_way_id":"1039453251","name":"Sainsbury's","building":"yes","shop":"supermarket","other":{"brand":"Sainsbury's","brand:wikidata":"Q152096","brand:wikipedia":"en:Sainsbury's"}}, "geometry":{"type":"MultiPolygon","coordinates":[[[[-1.35054,53.34142],[-1.35053,53.34138],[-1.3505,53.34136],[-1.35046,53.34135],[-1.35024,53.34136],[-1.35023,53.34133],[-1.34978,53.34135],[-1.34978,53.34139],[-1.34959,53.3414],[-1.3496,53.34147],[-1.34905,53.34151],[-1.34913,53.34199],[-1.34955,53.34196],[-1.34971,53.34195],[-1.34973,53.34207],[-1.35007,53.34205],[-1.35065,53.34201],[-1.3506,53.34172],[-1.35073,53.34171],[-1.35072,53.34164],[-1.35069,53.34149],[-1.35068,53.34141],[-1.35054,53.34142]]]]}},
{ "type":"Feature","properties":{"osm_way_id":"1040200352","name":"M&S Foodhall","building":"yes","shop":"supermarket","other":{"brand":"M&S Foodhall","brand:wikidata":"Q714491","brand:wikipedia":"en:Marks & Spencer"}}, "geometry":{"type":"MultiPolygon","coordinates":[[[[-1.46809,53.32688],[-1.46814,53.32685],[-1.46815,53.32686],[-1.46831,53.32678],[-1.4683,53.32677],[-1.46838,53.32673],[-1.46836,53.32672],[-1.46825,53.32665],[-1.468,53.32646],[-1.4677,53.32661],[-1.46809,53.32688]]]]}},
{ "type":"Feature","properties":{"osm_way_id":"1040200355","name":"ALDI","building":"yes","shop":"supermarket","other":{"brand":"ALDI","brand:wikidata":"Q41171672","brand:wikipedia":"en:Aldi"}}, "geometry":{"type":"MultiPolygon","coordinates":[[[[-1.46856,53.32677],[-1.46894,53.3266],[-1.46897,53.32663],[-1.46903,53.32661],[-1.46917,53.32673],[-1.46911,53.32675],[-1.46943,53.32707],[-1.46935,53.3271],[-1.46932,53.32708],[-1.46899,53.32724],[-1.46875,53.32697],[-1.46878,53.32696],[-1.46856,53.32677]]]]}}
]
}
