{
"type": "FeatureCollection",
"features": [
{ "type":"Feature","properties":{"osm_way_id":"319373321","name":"JJ & PT Williams & Sons","building":"warehouse","other":{"addr:city":"Cardigan \/ Aberteifi","addr:postcode":"SA43 3AD","addr:street":"Station Road","building:levels":"1","phone":"+44 1239 612896"}}, "geometry":{"type":"MultiPolygon","coordinates":[[[[-4.6569,52.08066],[-4.65647,52.08075],[-4.6565,52.0808],[-4.65651,52.08083],[-4.65694,52.08075],[-4.6569,52.08066]]]]}},
{ "type":"Feature","properties":{"osm_way_id":"319373689","name":"KE Movers","building":"warehouse","shop":"storage_rental","other":{"addr:city":"Cardigan \/ Aberteifi","addr:postcode":"SA43 3AD","addr:street":"Station Yard, Station Road","alt_name":"Ceredigion Removals","building:levels":"1","phone":"+44 800 5975757","website":"http:\/\/www.kemovers.com\/"}}, "geometry":{"type":"MultiPolygon","coordinates":[[[[-4.65541,52.08114],[-4.65568,52.08112],[-4.65567,52.08103],[-4.6554,52.08105],[-4.65541,52.08114]]]]}},
{ "type":"Feature","properties":{"osm_way_id":"322777068","building":"warehouse"},"geometry":{"type":"MultiPolygon","coordinates":[[[[-3.84026,52.62296],[-3.84011,52.62287],[-3.84027,52.62278],[-3.84029,52.62279],[-3.84042,52.62272],[-3.84054,52.6228],[-3.84026,52.62296]]]]}},
{ "type":"Feature","properties":{"osm_way_id":"426671574","name":"New Quay Yacht Club","building":"warehouse","other":{"addr:city":"New Quay","addr:housename":"Pier Buildings","addr:postcode":"SA45 9NW","addr:street":"The Pier","building:levels":"4","club":"sailing","fhrs:id":"863282","heritage":"2","heritage:operator":"cadw","phone":"+44 1545 560516","ref:cadw":"10815","website":"https:\/\/www.nqyc.club\/"}}, "geometry":{"type":"MultiPolygon","coordinates":[[[[-4.3579,52.21563],[-4.35789,52.21556],[-4.35757,52.2157],[-4.35762,52.21575],[-4.3579,52.21563]]]]}},
{ "type":"Feature","properties":{"osm_way_id":"524693466","name":"New Life Community Projects","building":"warehouse","other":{"addr:city":"Cardigan","addr:housenumber":"18","addr:postcode":"SA43 1EW","addr:street":"Parc Teifi","url":"http:\/\/newlifewales.org.uk\/ministries\/the-projects-2\/"}}, "geometry":{"type":"MultiPolygon","coordinates":[[[[-4.64676,52.08471],[-4.64672,52.08465],[-4.64657,52.0847],[-4.64662,52.08476],[-4.64676,52.08471]]]]}},
{ "type":"Feature","properties":{"osm_way_id":"585780579","name":"Fforest","building":"warehouse","other":{"addr:city":"Cardigan \/ Aberteifi","addr:housename":"Bridge Warehouse","addr:postcode":"SA43 3AA","addr:street":"Castle Street","building:levels":"5","heritage":"2","heritage:operator":"cadw","ref:cadw":"10473","wikidata":"Q29489098"}}, "geometry":{"type":"MultiPolygon","coordinates":[[[[-4.66066,52.08027],[-4.66061,52.0802],[-4.66067,52.08018],[-4.66085,52.08013],[-4.66088,52.08018],[-4.6609,52.0802],[-4.66089,52.08021],[-4.66066,52.08027]]]]}},
{ "type":"Feature","properties":{"osm_way_id":"641956308","building":"warehouse"},"geometry":{"type":"MultiPolygon","coordinates":[[[[-4.13884,52.30749],[-4.13897,52.3074],[-4.13904,52.30744],[-4.13908,52.30741],[-4.13902,52.30737],[-4.13906,52.30734],[-4.13905,52.30733],[-4.13906,52.30732],[-4.13903,52.3073],[-4.13897,52.30734],[-4.13896,52.30733],[-4.13888,52.30737],[-4.13877,52.30744],[-4.13884,52.30749]]]]}},
{ "type":"Feature","properties":{"osm_way_id":"664829341","building":"warehouse","other":{"addr:city":"New Quay","addr:housename":"The Captains Table","addr:postcode":"SA45 9NT","addr:street":"Church Street","building:levels":"4","heritage":"2","heritage:operator":"cadw","ref:cadw":"10751"}}, "geometry":{"type":"MultiPolygon","coordinates":[[[[-4.35956,52.21556],[-4.35962,52.2155],[-4.35937,52.21541],[-4.35931,52.21548],[-4.35956,52.21556]]]]}},
{ "type":"Feature","properties":{"osm_way_id":"665455011","name":"Cardigan Bay Marine Wildlife Centre","building":"warehouse","tourism":"attraction","other":{"addr:city":"New Quay","addr:housename":"The Slipway Building","addr:postcode":"SA45 9PS","addr:street":"Glanmor Terrace","building:levels":"4","heritage":"2","heritage:operator":"cadw","phone":"+44 1545 560032","ref:bag":"10770","url":"https:\/\/www.welshwildlife.org\/visitor-centres\/cardigan-bay-marine-wildlife-centre\/"}}, "geometry":{"type":"MultiPolygon","coordinates":[[[[-4.3581,52.21398],[-4.35798,52.21388],[-4.35805,52.21384],[-4.35817,52.21394],[-4.3581,52.21398]]]]}},
{ "type":"Feature","properties":{"osm_way_id":"701317652","building":"warehouse","other":{"addr:city":"Llandysul","addr:housenumber":"5","addr:postcode":"SA44 4DE","addr:street":"Barley Mow","building:levels":"3","description":"Former warehouse converted to domestic accommodation.  Listed building.","heritage":"2","heritage:operator":"cadw","ref:cadw":"10559"}}, "geometry":{"type":"MultiPolygon","coordinates":[[[[-4.30922,52.04201],[-4.30924,52.04195],[-4.30919,52.04195],[-4.30919,52.04193],[-4.3091,52.04192],[-4.30908,52.04199],[-4.30922,52.04201]]]]}},
{ "type":"Feature","properties":{"osm_way_id":"701383629","building":"warehouse","other":{"addr:city":"Llandysul","addr:postcode":"SA44 4QN","addr:street":"Lon Wesley","building:levels":"3","description":"Originally a warehouse, since used as a shop.","heritage":"2","heritage:operator":"cadw","ref:cadw":"10583"}}, "geometry":{"type":"MultiPolygon","coordinates":[[[[-4.30834,52.0415],[-4.30818,52.04147],[-4.30827,52.0414],[-4.30838,52.04142],[-4.30834,52.0415]]]]}},
{ "type":"Feature","properties":{"osm_way_id":"719415393","building":"warehouse","other":{"addr:city":"Cardigan \/ Aberteifi","addr:housename":"Pantywylan","addr:postcode":"SA43 1EZ","addr:street":"Cambrian Quay","building:levels":"3","heritage":"2","heritage:operator":"cadw","ref:cadw":"10469","wikimedia_commons":"File:Pantywylan,Cambrian Quay.jpg"}}, "geometry":{"type":"MultiPolygon","coordinates":[[[[-4.662,52.08137],[-4.66202,52.08131],[-4.66206,52.08122],[-4.66196,52.08121],[-4.6619,52.08135],[-4.662,52.08137]]]]}},
{ "type":"Feature","properties":{"osm_way_id":"719426581","building":"warehouse"},"geometry":{"type":"MultiPolygon","coordinates":[[[[-4.66275,52.08156],[-4.66285,52.08145],[-4.66287,52.08142],[-4.66248,52.08129],[-4.6624,52.08138],[-4.66242,52.08138],[-4.6624,52.08142],[-4.66238,52.08146],[-4.66275,52.08156]]]]}},
{ "type":"Feature","properties":{"osm_way_id":"893949717","building":"warehouse","other":{"description":"Former wool warehouse.  The last surviving building from the British Rail days of the site.","url":"http:\/\/www.disused-stations.org.uk\/h\/henllan\/index9.shtml"}}, "geometry":{"type":"MultiPolygon","coordinates":[[[[-4.39603,52.03982],[-4.39607,52.03983],[-4.39611,52.03971],[-4.39606,52.0397],[-4.39603,52.03982]]]]}}
]
}
