{
"type": "FeatureCollection",
"features": [
{ "type":"Feature","properties":{"osm_id":"3837758589","name":"N.C.A.A.C. Gymnastics","other":{"addr:city":"Northampton","addr:housenumber":"56-58","addr:postcode":"NN4 8JD","addr:street":"Rothersthorpe Crescent","building":"warehouse","phone":"+44 1604 859412","sport":"gymnastics","website":"http:\/\/www.ncaacgymnastics.com\/"}}, "geometry":{"type":"Point","coordinates":[-0.90965,52.22747 ]}},
{ "type":"Feature","properties":{"osm_id":"5196661075","name":"Greencore\/M&S Lunch To U","other":{"addr:city":"Northampton","addr:country":"GB","addr:postcode":"NN3 9UD","addr:street":"Ravens Way","building":"warehouse"}}, "geometry":{"type":"Point","coordinates":[-0.80943,52.24896 ]}},
{ "type":"Feature","properties":{"osm_id":"5196661076","name":"Smurfit Kappa","other":{"building":"warehouse"}}, "geometry":{"type":"Point","coordinates":[-0.81105,52.24909 ]}},
{ "type":"Feature","properties":{"osm_id":"5196661077","name":"NNR","other":{"building":"warehouse"}}, "geometry":{"type":"Point","coordinates":[-0.81208,52.24865 ]}},
{ "type":"Feature","properties":{"osm_id":"5211196111","name":"Norbert Dentressangle","other":{"addr:city":"Northampton","addr:country":"GB","addr:postcode":"NN5 7SL","addr:street":"Lodge Way","building":"warehouse","fhrs:authority":"Northampton","fhrs:id":"172193","fhrs:local_authority_id":"PI\/000022464"}}, "geometry":{"type":"Point","coordinates":[-0.94906,52.26283 ]}},
{ "type":"Feature","properties":{"osm_id":"6341284878","other":{"building":"warehouse"}}, "geometry":{"type":"Point","coordinates":[-0.85113,52.22305 ]}},
{ "type":"Feature","properties":{"osm_id":"7622430237","other":{"amenity":"loading_dock"}}, "geometry":{"type":"Point","coordinates":[-1.15353,52.25176 ]}},
{ "type":"Feature","properties":{"osm_id":"8724987762","other":{"power":"pole"}}, "geometry":{"type":"Point","coordinates":[-1.23894,52.02387 ]}},
{ "type":"Feature","properties":{"osm_way_id":"4017996","name":"Little Court Farm","building":"warehouse"},"geometry":{"type":"MultiPolygon","coordinates":[[[[-1.00901,52.14308],[-1.00932,52.14323],[-1.00963,52.14301],[-1.00931,52.14285],[-1.00901,52.14308]]]]}},
{ "type":"Feature","properties":{"osm_way_id":"4902249","building":"warehouse"},"geometry":{"type":"MultiPolygon","coordinates":[[[[-1.1806,52.10931],[-1.18041,52.10948],[-1.18047,52.10951],[-1.18053,52.10953],[-1.18072,52.10936],[-1.1806,52.10931]]]]}},
{ "type":"Feature","properties":{"osm_way_id":"5013234","building":"warehouse"},"geometry":{"type":"MultiPolygon","coordinates":[[[[-1.14501,52.09346],[-1.14447,52.09348],[-1.1445,52.09378],[-1.14504,52.09376],[-1.14501,52.09346]]]]}},
{ "type":"Feature","properties":{"osm_way_id":"5075738","building":"warehouse"},"geometry":{"type":"MultiPolygon","coordinates":[[[[-1.17011,52.12659],[-1.17027,52.12664],[-1.17041,52.1265],[-1.17025,52.12644],[-1.17011,52.12659]]]]}},
{ "type":"Feature","properties":{"osm_way_id":"5075739","building":"warehouse"},"geometry":{"type":"MultiPolygon","coordinates":[[[[-1.16923,52.12709],[-1.16946,52.12672],[-1.16959,52.12675],[-1.16937,52.12712],[-1.16923,52.12709]]]]}},
{ "type":"Feature","properties":{"osm_way_id":"5075741","building":"warehouse"},"geometry":{"type":"MultiPolygon","coordinates":[[[[-1.16989,52.12681],[-1.16966,52.12719],[-1.16952,52.12716],[-1.16975,52.12678],[-1.16989,52.12681]]]]}},
{ "type":"Feature","properties":{"osm_way_id":"15465761","building":"warehouse"},"geometry":{"type":"MultiPolygon","coordinates":[[[[-1.22129,52.10459],[-1.22116,52.10455],[-1.22125,52.10445],[-1.22137,52.10448],[-1.22129,52.10459]]]]}},
{ "type":"Feature","properties":{"osm_way_id":"22661400","building":"warehouse"},"geometry":{"type":"MultiPolygon","coordinates":[[[[-1.1378,52.19904],[-1.13783,52.19886],[-1.13731,52.19883],[-1.1373,52.19898],[-1.13765,52.19899],[-1.13764,52.19904],[-1.1378,52.19904]]]]}},
{ "type":"Feature","properties":{"osm_way_id":"22662469","building":"warehouse"},"geometry":{"type":"MultiPolygon","coordinates":[[[[-1.1629,52.18549],[-1.16282,52.18531],[-1.16244,52.18539],[-1.16252,52.18556],[-1.1629,52.18549]]]]}},
{ "type":"Feature","properties":{"osm_way_id":"22967787","building":"warehouse","landuse":"industrial"},"geometry":{"type":"MultiPolygon","coordinates":[[[[-1.07232,52.18517],[-1.07241,52.18515],[-1.07227,52.18495],[-1.07231,52.18494],[-1.0721,52.18459],[-1.07191,52.18465],[-1.07212,52.18499],[-1.07208,52.185],[-1.07228,52.18533],[-1.0722,52.18534],[-1.07227,52.18545],[-1.07249,52.1854],[-1.07242,52.18529],[-1.0724,52.1853],[-1.07232,52.18517]]]]}},
{ "type":"Feature","properties":{"osm_way_id":"22967788","building":"warehouse","landuse":"industrial"},"geometry":{"type":"MultiPolygon","coordinates":[[[[-1.07137,52.1848],[-1.07173,52.1847],[-1.07178,52.1848],[-1.07163,52.18484],[-1.07173,52.18498],[-1.07164,52.185],[-1.07171,52.18512],[-1.07179,52.1851],[-1.07198,52.1854],[-1.07203,52.18538],[-1.07209,52.18549],[-1.07186,52.18554],[-1.07137,52.1848]]]]}},
{ "type":"Feature","properties":{"osm_way_id":"23148007","building":"warehouse"},"geometry":{"type":"MultiPolygon","coordinates":[[[[-1.04752,52.17815],[-1.0476,52.17803],[-1.04742,52.178],[-1.04736,52.17812],[-1.04752,52.17815]]]]}},
{ "type":"Feature","properties":{"osm_way_id":"23347887","building":"warehouse"},"geometry":{"type":"MultiPolygon","coordinates":[[[[-1.06873,52.12543],[-1.06877,52.12551],[-1.06883,52.12564],[-1.06927,52.12555],[-1.06916,52.12536],[-1.069,52.12539],[-1.06873,52.12543]]]]}},
{ "type":"Feature","properties":{"osm_way_id":"23347901","building":"warehouse"},"geometry":{"type":"MultiPolygon","coordinates":[[[[-1.06952,52.12553],[-1.06942,52.12531],[-1.06957,52.12528],[-1.06967,52.1255],[-1.06961,52.12551],[-1.06952,52.12553]]]]}},
{ "type":"Feature","properties":{"osm_way_id":"23347904","building":"warehouse"},"geometry":{"type":"MultiPolygon","coordinates":[[[[-1.06931,52.12573],[-1.06939,52.12589],[-1.06931,52.12591],[-1.06933,52.12596],[-1.06901,52.12601],[-1.06891,52.1258],[-1.06931,52.12573]]]]}},
{ "type":"Feature","properties":{"osm_way_id":"23474183","building":"warehouse"},"geometry":{"type":"MultiPolygon","coordinates":[[[[-1.10712,52.19339],[-1.10703,52.19344],[-1.10696,52.19347],[-1.10685,52.19339],[-1.10701,52.19331],[-1.10712,52.19339]]]]}},
{ "type":"Feature","properties":{"osm_way_id":"23474185","building":"warehouse"},"geometry":{"type":"MultiPolygon","coordinates":[[[[-1.10668,52.1935],[-1.10657,52.19356],[-1.10678,52.19369],[-1.10688,52.19362],[-1.10668,52.1935]]]]}},
{ "type":"Feature","properties":{"osm_way_id":"25588784","name":"Ingram Micro","building":"warehouse"},"geometry":{"type":"MultiPolygon","coordinates":[[[[-1.16402,52.35436],[-1.16241,52.3551],[-1.16071,52.35378],[-1.16114,52.35358],[-1.16134,52.3537],[-1.16249,52.35312],[-1.16402,52.35436]]]]}},
{ "type":"Feature","properties":{"osm_way_id":"58898044","name":"Amazon.co.uk","building":"warehouse","other":{"addr:city":"Brogborough","addr:country":"GB","addr:postcode":"MK43 0ZA","addr:street":"Marston Gate","addr:town":"Ridgmont","fhrs:authority":"Central Bedfordshire","fhrs:id":"766255","fhrs:local_authority_id":"77370","operator":"Amazon.co.uk"}}, "geometry":{"type":"MultiPolygon","coordinates":[[[[-0.59156,52.03105],[-0.59521,52.0286],[-0.595,52.02848],[-0.59507,52.02844],[-0.5941,52.02789],[-0.59404,52.02793],[-0.59386,52.02782],[-0.59019,52.03027],[-0.59156,52.03105]]]]}},
{ "type":"Feature","properties":{"osm_way_id":"66662107","name":"Optima Logistics","building":"warehouse","other":{"addr:city":"Northhampton","addr:postcode":"NN6 7EX","addr:street":"Parklands"}}, "geometry":{"type":"MultiPolygon","coordinates":[[[[-1.1582,52.35183],[-1.15829,52.35193],[-1.15869,52.35179],[-1.15887,52.35199],[-1.15847,52.35213],[-1.15871,52.35238],[-1.1586,52.35242],[-1.15873,52.35256],[-1.15838,52.35267],[-1.15775,52.35199],[-1.1582,52.35183]]]]}},
{ "type":"Feature","properties":{"osm_way_id":"66662109","name":"Mothercare","building":"warehouse"},"geometry":{"type":"MultiPolygon","coordinates":[[[[-1.16488,52.35475],[-1.16608,52.35596],[-1.16383,52.35682],[-1.16295,52.35592],[-1.16282,52.35598],[-1.16241,52.35559],[-1.16252,52.35555],[-1.16267,52.35567],[-1.16295,52.3556],[-1.16282,52.3555],[-1.16318,52.35538],[-1.16329,52.35547],[-1.16468,52.35495],[-1.16458,52.35483],[-1.16488,52.35475]]]]}},
{ "type":"Feature","properties":{"osm_way_id":"66662165","name":"Royal Mail","building":"warehouse","other":{"addr:city":"Crick","addr:country":"GB","addr:place":"Daventry International Rail Freight Terminal (DIRFT)","addr:postcode":"NN6 7DD","addr:street":"Danes Way","fhrs:authority":"Daventry","fhrs:id":"166091","fhrs:local_authority_id":"PI\/000008970"}}, "geometry":{"type":"MultiPolygon","coordinates":[[[[-1.16125,52.35658],[-1.16204,52.35736],[-1.16192,52.3574],[-1.16204,52.35752],[-1.16168,52.35765],[-1.16161,52.35759],[-1.16084,52.35785],[-1.16058,52.35761],[-1.15782,52.35866],[-1.15749,52.35836],[-1.16026,52.3573],[-1.15981,52.35685],[-1.16084,52.35646],[-1.16104,52.35664],[-1.16125,52.35658]]]]}},
{ "type":"Feature","properties":{"osm_way_id":"66662181","name":"Tesco Frozen (warehouse)","building":"warehouse","other":{"addr:city":"Crick","addr:country":"GB","addr:postcode":"NN6 7FT","addr:street":"Danes Way","addr:suburb":"Daventry International Rail Freight Terminal (DIRFT)"}}, "geometry":{"type":"MultiPolygon","coordinates":[[[[-1.16019,52.35558],[-1.15791,52.35637],[-1.15675,52.35518],[-1.15793,52.35473],[-1.15826,52.35503],[-1.15942,52.35464],[-1.16004,52.35529],[-1.15894,52.35569],[-1.15903,52.35578],[-1.16004,52.35542],[-1.16019,52.35558]]]]}},
{ "type":"Feature","properties":{"osm_way_id":"66666342","building":"warehouse"},"geometry":{"type":"MultiPolygon","coordinates":[[[[-1.15216,52.34629],[-1.15271,52.34713],[-1.15064,52.34763],[-1.15072,52.34776],[-1.14965,52.34802],[-1.14957,52.34789],[-1.1493,52.34795],[-1.14899,52.34748],[-1.1487,52.34755],[-1.14845,52.34718],[-1.15011,52.34678],[-1.15005,52.34669],[-1.15028,52.34663],[-1.15034,52.34673],[-1.15216,52.34629]]]]}},
{ "type":"Feature","properties":{"osm_way_id":"66666346","name":"NFT","building":"warehouse"},"geometry":{"type":"MultiPolygon","coordinates":[[[[-1.15304,52.3502],[-1.15247,52.35033],[-1.15221,52.34989],[-1.15277,52.34976],[-1.15304,52.3502]]]]}},
{ "type":"Feature","properties":{"osm_way_id":"94817063","name":"Morrisons (warehouse)","building":"warehouse"},"geometry":{"type":"MultiPolygon","coordinates":[[[[-0.94935,52.21227],[-0.94675,52.21385],[-0.9456,52.21312],[-0.94745,52.21202],[-0.9474,52.21198],[-0.94765,52.21183],[-0.94786,52.21196],[-0.94836,52.21166],[-0.94935,52.21227]]]]}},
{ "type":"Feature","properties":{"osm_way_id":"94817174","name":"Carlsberg Tetley Distribution Centre","building":"warehouse","other":{"addr:city":"Northampton","addr:country":"GB","addr:place":"Swan Valley","addr:postcode":"NN4 9BA","addr:street":"Tithe Barn Way","fhrs:authority":"Northampton","fhrs:id":"782735","fhrs:local_authority_id":"PI\/000083750"}}, "geometry":{"type":"MultiPolygon","coordinates":[[[[-0.95505,52.21377],[-0.95829,52.21521],[-0.95742,52.21594],[-0.95661,52.21557],[-0.95641,52.21573],[-0.95467,52.21495],[-0.95486,52.21478],[-0.9542,52.21449],[-0.95505,52.21377]]]]}},
{ "type":"Feature","properties":{"osm_way_id":"94817359","name":"Howdens Joinery Limited, Northampton Distribution Centre","building":"warehouse","other":{"addr:city":"Northampton","addr:country":"GB","addr:place":"Brackmills","addr:postcode":"NN4 7DT","addr:street":"Liliput Road","fhrs:authority":"Northampton","fhrs:id":"181206","fhrs:local_authority_id":"PI\/000069128"}}, "geometry":{"type":"MultiPolygon","coordinates":[[[[-0.85663,52.22683],[-0.86149,52.22627],[-0.86084,52.22414],[-0.86049,52.22418],[-0.86045,52.22403],[-0.85991,52.2241],[-0.85986,52.22394],[-0.85588,52.2244],[-0.85663,52.22683]]]]}},
{ "type":"Feature","properties":{"osm_way_id":"95563552","building":"warehouse"},"geometry":{"type":"MultiPolygon","coordinates":[[[[-1.04647,52.21366],[-1.04653,52.21311],[-1.04735,52.21314],[-1.04728,52.21369],[-1.04647,52.21366]]]]}},
{ "type":"Feature","properties":{"osm_way_id":"95563603","building":"warehouse"},"geometry":{"type":"MultiPolygon","coordinates":[[[[-1.04555,52.21443],[-1.04563,52.21387],[-1.04664,52.21393],[-1.04666,52.21383],[-1.04766,52.21389],[-1.04756,52.21454],[-1.04743,52.21453],[-1.04741,52.21463],[-1.04654,52.21458],[-1.04656,52.21448],[-1.04555,52.21443]]]]}},
{ "type":"Feature","properties":{"osm_way_id":"108858851","name":"John Lewis Distribution Centre","building":"warehouse","other":{"addr:city":"Northampton","addr:country":"GB","addr:housenumber":"2","addr:postcode":"NN4 7PN","addr:street":"Mercury Drive","fhrs:authority":"Northampton","fhrs:id":"173134","fhrs:local_authority_id":"PI\/000025027"}}, "geometry":{"type":"MultiPolygon","coordinates":[[[[-0.87097,52.22195],[-0.87009,52.2217],[-0.87093,52.2206],[-0.87181,52.22086],[-0.87177,52.2209],[-0.87427,52.22162],[-0.87345,52.22269],[-0.87137,52.2221],[-0.87191,52.2214],[-0.87149,52.22128],[-0.87097,52.22195]]]]}},
{ "type":"Feature","properties":{"osm_way_id":"108858893","name":"Coca Cola Enterprises Ltd","building":"warehouse","other":{"addr:city":"Northampton","addr:country":"GB","addr:place":"Brackmills","addr:postcode":"NN4 7BJ","addr:street":"Gowerton Road","fhrs:id":"434302","fhrs:local_authority_id":"PI\/000077192"}}, "geometry":{"type":"MultiPolygon","coordinates":[[[[-0.85927,52.21502],[-0.85834,52.21352],[-0.86042,52.21303],[-0.86056,52.21327],[-0.8608,52.21318],[-0.8609,52.21327],[-0.86114,52.21319],[-0.86127,52.21337],[-0.86097,52.21343],[-0.86116,52.21374],[-0.86088,52.2138],[-0.86129,52.21454],[-0.85927,52.21502]]]]}},
{ "type":"Feature","properties":{"osm_way_id":"108858932","name":"Travis Perkins","building":"warehouse","other":{"addr:city":"Northampton","addr:country":"GB","addr:place":"Brackmills","addr:postcode":"NN4 7BW","addr:street":"Gowerton Road","fhrs:authority":"Northampton","fhrs:id":"683451","fhrs:local_authority_id":"PI\/000080630"}}, "geometry":{"type":"MultiPolygon","coordinates":[[[[-0.8549,52.21681],[-0.85296,52.21725],[-0.85121,52.21434],[-0.85315,52.2139],[-0.8549,52.21681]]]]}},
{ "type":"Feature","properties":{"osm_way_id":"108858939","name":"Asda","building":"warehouse","other":{"addr:city":"Northampton","addr:country":"GB","addr:place":"Brackmills","addr:postcode":"NN4 7BW","addr:street":"Gowerton Road","fhrs:authority":"Northampton","fhrs:id":"1004847","fhrs:local_authority_id":"PI\/000088734"}}, "geometry":{"type":"MultiPolygon","coordinates":[[[[-0.8484,52.21445],[-0.84624,52.21476],[-0.84568,52.21328],[-0.84784,52.21297],[-0.8484,52.21445]]]]}},
{ "type":"Feature","properties":{"osm_way_id":"108858956","name":"Stanley Black and Decker","building":"warehouse"},"geometry":{"type":"MultiPolygon","coordinates":[[[[-0.85005,52.21383],[-0.84945,52.21258],[-0.85078,52.21234],[-0.85131,52.21334],[-0.85148,52.21327],[-0.85164,52.21359],[-0.85109,52.21371],[-0.85102,52.21366],[-0.85005,52.21383]]]]}},
{ "type":"Feature","properties":{"osm_way_id":"108858960","name":"Travis Perkins","building":"warehouse","other":{"addr:city":"Northampton","addr:country":"GB","addr:place":"Brackmills","addr:postcode":"NN4 7EX","addr:street":"Salthouse Road","fhrs:authority":"Northampton","fhrs:id":"581723","fhrs:local_authority_id":"PI\/000079635"}}, "geometry":{"type":"MultiPolygon","coordinates":[[[[-0.84979,52.21502],[-0.85032,52.21641],[-0.84968,52.2165],[-0.84974,52.21667],[-0.84927,52.21673],[-0.8492,52.21657],[-0.84784,52.21676],[-0.8479,52.21692],[-0.84744,52.21699],[-0.84738,52.21682],[-0.84624,52.21698],[-0.84572,52.21559],[-0.84639,52.2155],[-0.84633,52.21533],[-0.8468,52.21526],[-0.84686,52.21543],[-0.84868,52.21517],[-0.84862,52.21501],[-0.84909,52.21494],[-0.84915,52.21511],[-0.84979,52.21502]]]]}},
{ "type":"Feature","properties":{"osm_way_id":"112337704","building":"warehouse"},"geometry":{"type":"MultiPolygon","coordinates":[[[[-0.88913,52.18391],[-0.88798,52.18467],[-0.88896,52.18523],[-0.88887,52.18529],[-0.88937,52.18558],[-0.88958,52.18544],[-0.88949,52.18539],[-0.89052,52.18471],[-0.88913,52.18391]]]]}},
{ "type":"Feature","properties":{"osm_way_id":"171935519","building":"warehouse","other":{"addr:city":"Daventry","addr:country":"GB","addr:postcode":"NN11 8PG","addr:street":"Alvis Way"}}, "geometry":{"type":"MultiPolygon","coordinates":[[[[-1.18363,52.26607],[-1.18342,52.26579],[-1.18304,52.26589],[-1.18255,52.26603],[-1.18272,52.26627],[-1.18279,52.26625],[-1.18282,52.26629],[-1.18296,52.26625],[-1.18293,52.26621],[-1.18304,52.26618],[-1.18307,52.26622],[-1.18318,52.26619],[-1.18315,52.26615],[-1.18322,52.26613],[-1.18328,52.26611],[-1.18331,52.26616],[-1.18343,52.26612],[-1.18339,52.26608],[-1.18347,52.26606],[-1.18353,52.26604],[-1.18357,52.26608],[-1.18363,52.26607]]]]}},
{ "type":"Feature","properties":{"osm_way_id":"172009877","name":"Seko Logistics","building":"warehouse"},"geometry":{"type":"MultiPolygon","coordinates":[[[[-0.96671,52.21875],[-0.96631,52.2191],[-0.96647,52.21916],[-0.9661,52.2195],[-0.96588,52.21941],[-0.96602,52.21929],[-0.96513,52.21892],[-0.96503,52.219],[-0.96492,52.21895],[-0.96501,52.21887],[-0.96407,52.21847],[-0.9647,52.2179],[-0.96671,52.21875]]]]}},
{ "type":"Feature","properties":{"osm_way_id":"176395178","name":"XPO Logistics","building":"warehouse","other":{"addr:city":"Daventry","addr:country":"GB","addr:postcode":"NN11 8LR","addr:street":"Royal Oak Way North","source:addr:postcode":"FSA Food Hygiene Ratings Database"}}, "geometry":{"type":"MultiPolygon","coordinates":[[[[-1.19108,52.27078],[-1.19043,52.27078],[-1.19043,52.271],[-1.19022,52.271],[-1.19022,52.27095],[-1.19014,52.27095],[-1.19014,52.27099],[-1.18994,52.27099],[-1.18994,52.27076],[-1.18945,52.27076],[-1.18945,52.27053],[-1.18921,52.27053],[-1.18921,52.27044],[-1.1888,52.27043],[-1.18882,52.26969],[-1.18721,52.26967],[-1.18727,52.26769],[-1.1877,52.26769],[-1.1878,52.26769],[-1.18781,52.26738],[-1.1877,52.26738],[-1.1877,52.26733],[-1.18741,52.26733],[-1.18741,52.26711],[-1.18781,52.26711],[-1.18781,52.2669],[-1.18898,52.26691],[-1.18899,52.26671],[-1.18926,52.26671],[-1.18925,52.26717],[-1.19003,52.26718],[-1.19003,52.26694],[-1.19063,52.26694],[-1.19061,52.26784],[-1.19061,52.26786],[-1.191,52.26786],[-1.19099,52.26839],[-1.19118,52.26839],[-1.19116,52.26905],[-1.19112,52.26905],[-1.19108,52.27078]]]]}},
{ "type":"Feature","properties":{"osm_way_id":"197941576","name":"Sainsburys Distribution Centre","building":"warehouse","other":{"addr:city":"Northampton","addr:country":"GB","addr:place":"Swan Valley","addr:postcode":"NN4 9BX","addr:street":"Nectar Way","fhrs:authority":"Northampton","fhrs:id":"932598","fhrs:local_authority_id":"PI\/000083969"}}, "geometry":{"type":"MultiPolygon","coordinates":[[[[-0.96257,52.21923],[-0.96354,52.22014],[-0.96372,52.22007],[-0.96387,52.22021],[-0.96369,52.22028],[-0.96438,52.22092],[-0.96456,52.22085],[-0.96471,52.221],[-0.96475,52.22098],[-0.96561,52.22179],[-0.96538,52.22188],[-0.96542,52.22191],[-0.96375,52.22258],[-0.96242,52.22132],[-0.96228,52.22138],[-0.96209,52.22121],[-0.96224,52.22115],[-0.96165,52.2206],[-0.96104,52.22085],[-0.96086,52.22067],[-0.96147,52.22043],[-0.9609,52.2199],[-0.96257,52.21923]]]]}},
{ "type":"Feature","properties":{"osm_way_id":"197941580","name":"BMW","building":"warehouse"},"geometry":{"type":"MultiPolygon","coordinates":[[[[-0.96031,52.21911],[-0.95967,52.22019],[-0.95348,52.21881],[-0.95395,52.21801],[-0.95409,52.21804],[-0.95426,52.21776],[-0.95487,52.21789],[-0.95493,52.21779],[-0.95506,52.21782],[-0.955,52.21792],[-0.95631,52.21821],[-0.95639,52.21808],[-0.95658,52.21812],[-0.95649,52.21825],[-0.95791,52.21857],[-0.95797,52.21846],[-0.95831,52.21854],[-0.95825,52.21865],[-0.96031,52.21911]]]]}},
{ "type":"Feature","properties":{"osm_way_id":"197941701","name":"Pets at Home","building":"warehouse","other":{"addr:city":"Northampton","addr:country":"GB","addr:place":"Swan Valley","addr:postcode":"NN4 9BF","addr:street":"Firs Avenue","fhrs:authority":"Northampton","fhrs:id":"990219","fhrs:local_authority_id":"PI\/000088139"}}, "geometry":{"type":"MultiPolygon","coordinates":[[[[-0.9464,52.21199],[-0.94423,52.21341],[-0.94286,52.21262],[-0.94292,52.21257],[-0.94281,52.2125],[-0.94332,52.21216],[-0.94342,52.21221],[-0.94375,52.212],[-0.94359,52.21191],[-0.94445,52.21135],[-0.94463,52.21145],[-0.94472,52.2114],[-0.94505,52.2116],[-0.94537,52.21139],[-0.94551,52.21147],[-0.9457,52.21136],[-0.9459,52.21148],[-0.94573,52.21159],[-0.9464,52.21199]]]]}},
{ "type":"Feature","properties":{"osm_way_id":"206480126","building":"warehouse"},"geometry":{"type":"MultiPolygon","coordinates":[[[[-0.94538,52.2089],[-0.94502,52.20907],[-0.94525,52.20925],[-0.94561,52.20909],[-0.94538,52.2089]]]]}},
{ "type":"Feature","properties":{"osm_way_id":"206480136","building":"warehouse"},"geometry":{"type":"MultiPolygon","coordinates":[[[[-0.94615,52.20931],[-0.94611,52.20929],[-0.94606,52.20927],[-0.946,52.20927],[-0.94594,52.20928],[-0.94589,52.2093],[-0.94586,52.20933],[-0.94584,52.20936],[-0.94584,52.2094],[-0.94587,52.20943],[-0.94591,52.20946],[-0.94596,52.20948],[-0.94601,52.20948],[-0.94607,52.20948],[-0.94612,52.20946],[-0.94615,52.20944],[-0.94618,52.20941],[-0.94619,52.20938],[-0.94618,52.20934],[-0.94615,52.20931]]]]}},
{ "type":"Feature","properties":{"osm_way_id":"255735733","name":"Goodwill Solutions CIC","building":"warehouse","other":{"addr:city":"Northampton","addr:housenumber":"Unit 1056","addr:postcode":"NN3 6RX","addr:street":"Deer Park Road","email":"enquiries@goodwillsolutions.co.uk","phone":"+44 1604 643185","website":"https:\/\/www.goodwillsolutions.co.uk\/"}}, "geometry":{"type":"MultiPolygon","coordinates":[[[[-0.86695,52.27471],[-0.86558,52.27463],[-0.86571,52.27384],[-0.86611,52.27386],[-0.86646,52.27388],[-0.8671,52.27393],[-0.86695,52.27471]]]]}},
{ "type":"Feature","properties":{"osm_way_id":"255736370","name":"Great Bear","building":"warehouse","other":{"addr:city":"Northampton","addr:postcode":"NN3 6RX","addr:street":"Deer Park Road"}}, "geometry":{"type":"MultiPolygon","coordinates":[[[[-0.8669,52.27562],[-0.86537,52.27552],[-0.8655,52.27473],[-0.86703,52.27483],[-0.8669,52.27562]]]]}},
{ "type":"Feature","properties":{"osm_way_id":"417589338","building":"warehouse"},"geometry":{"type":"MultiPolygon","coordinates":[[[[-0.87188,52.08029],[-0.87184,52.08002],[-0.87227,52.08],[-0.87226,52.07995],[-0.87299,52.07992],[-0.87301,52.07996],[-0.87306,52.07996],[-0.87312,52.08021],[-0.87264,52.08023],[-0.87265,52.08027],[-0.87238,52.08029],[-0.87238,52.08026],[-0.87223,52.08027],[-0.87188,52.08029]]]]}},
{ "type":"Feature","properties":{"osm_way_id":"417589341","building":"warehouse"},"geometry":{"type":"MultiPolygon","coordinates":[[[[-0.8718,52.08029],[-0.8716,52.0803],[-0.87157,52.08002],[-0.87176,52.08002],[-0.8718,52.08029]]]]}},
{ "type":"Feature","properties":{"osm_way_id":"446688471","building":"warehouse"},"geometry":{"type":"MultiPolygon","coordinates":[[[[-0.94648,52.26305],[-0.94728,52.26254],[-0.946,52.2618],[-0.94521,52.2623],[-0.94565,52.26256],[-0.94547,52.26268],[-0.94611,52.26306],[-0.9463,52.26294],[-0.94648,52.26305]]]]}},
{ "type":"Feature","properties":{"osm_way_id":"470275810","building":"warehouse"},"geometry":{"type":"MultiPolygon","coordinates":[[[[-0.91548,52.25209],[-0.91595,52.25188],[-0.91533,52.25135],[-0.91484,52.25157],[-0.91516,52.25186],[-0.91511,52.25189],[-0.91529,52.25204],[-0.91535,52.252],[-0.91548,52.25209]]]]}},
{ "type":"Feature","properties":{"osm_way_id":"506664682","building":"warehouse"},"geometry":{"type":"MultiPolygon","coordinates":[[[[-0.9094,52.23133],[-0.90899,52.23116],[-0.90913,52.23104],[-0.90954,52.2312],[-0.9094,52.23133]]]]}},
{ "type":"Feature","properties":{"osm_way_id":"506664683","building":"warehouse"},"geometry":{"type":"MultiPolygon","coordinates":[[[[-0.90904,52.23169],[-0.90863,52.23152],[-0.90877,52.23139],[-0.90918,52.23156],[-0.90904,52.23169]]]]}},
{ "type":"Feature","properties":{"osm_way_id":"506664684","building":"warehouse"},"geometry":{"type":"MultiPolygon","coordinates":[[[[-0.9089,52.23183],[-0.90874,52.23176],[-0.90858,52.23189],[-0.90835,52.2318],[-0.90864,52.23154],[-0.90904,52.2317],[-0.9089,52.23183]]]]}},
{ "type":"Feature","properties":{"osm_way_id":"506664685","building":"warehouse"},"geometry":{"type":"MultiPolygon","coordinates":[[[[-0.90927,52.23133],[-0.90897,52.2312],[-0.90888,52.23128],[-0.90918,52.23141],[-0.90927,52.23133]]]]}},
{ "type":"Feature","properties":{"osm_way_id":"506664686","building":"warehouse"},"geometry":{"type":"MultiPolygon","coordinates":[[[[-0.90923,52.23145],[-0.90892,52.23133],[-0.90884,52.2314],[-0.90914,52.23153],[-0.90923,52.23145]]]]}},
{ "type":"Feature","properties":{"osm_way_id":"506664687","building":"warehouse"},"geometry":{"type":"MultiPolygon","coordinates":[[[[-0.90879,52.23131],[-0.90868,52.23127],[-0.90848,52.23146],[-0.90859,52.23151],[-0.90879,52.23131]]]]}},
{ "type":"Feature","properties":{"osm_way_id":"506664688","building":"warehouse"},"geometry":{"type":"MultiPolygon","coordinates":[[[[-0.90853,52.23122],[-0.90866,52.23127],[-0.90848,52.23145],[-0.9084,52.23142],[-0.90845,52.23136],[-0.90841,52.23135],[-0.90853,52.23122]]]]}},
{ "type":"Feature","properties":{"osm_way_id":"506664689","building":"warehouse"},"geometry":{"type":"MultiPolygon","coordinates":[[[[-0.90835,52.23174],[-0.90803,52.23173],[-0.90804,52.23171],[-0.90796,52.2317],[-0.90798,52.23151],[-0.90837,52.23153],[-0.90835,52.23174]]]]}},
{ "type":"Feature","properties":{"osm_way_id":"506664690","building":"warehouse"},"geometry":{"type":"MultiPolygon","coordinates":[[[[-0.91071,52.23154],[-0.90974,52.23232],[-0.90931,52.23212],[-0.91027,52.23134],[-0.91071,52.23154]]]]}},
{ "type":"Feature","properties":{"osm_way_id":"506664691","building":"warehouse"},"geometry":{"type":"MultiPolygon","coordinates":[[[[-0.90963,52.23231],[-0.90916,52.23274],[-0.90899,52.23267],[-0.90908,52.23259],[-0.90878,52.23246],[-0.90916,52.2321],[-0.90963,52.23231]]]]}},
{ "type":"Feature","properties":{"osm_way_id":"506664692","building":"warehouse"},"geometry":{"type":"MultiPolygon","coordinates":[[[[-0.90884,52.23295],[-0.90819,52.23355],[-0.9076,52.23331],[-0.90825,52.23271],[-0.90884,52.23295]]]]}},
{ "type":"Feature","properties":{"osm_way_id":"506689700","building":"warehouse"},"geometry":{"type":"MultiPolygon","coordinates":[[[[-0.90311,52.24159],[-0.90258,52.24159],[-0.90263,52.2411],[-0.90313,52.24109],[-0.90311,52.24159]]]]}},
{ "type":"Feature","properties":{"osm_way_id":"521768959","name":"Tube & Bracket Company","building":"warehouse","other":{"addr:city":"Middleton Cheney","addr:postcode":"OX17 2PW","addr:street":"Main Road"}}, "geometry":{"type":"MultiPolygon","coordinates":[[[[-1.28041,52.07082],[-1.28076,52.07053],[-1.28116,52.07071],[-1.28093,52.07092],[-1.28107,52.07098],[-1.28096,52.07107],[-1.28082,52.071],[-1.28041,52.07082]]]]}},
{ "type":"Feature","properties":{"osm_way_id":"537297921","name":"Panasonic","building":"warehouse"},"geometry":{"type":"MultiPolygon","coordinates":[[[[-0.85613,52.21391],[-0.85564,52.21315],[-0.85387,52.21358],[-0.85436,52.21434],[-0.85613,52.21391]]]]}},
{ "type":"Feature","properties":{"osm_way_id":"571579146","building":"warehouse","other":{"addr:city":"Daventry","addr:housenumber":"4","addr:postcode":"NN11 8QL","addr:street":"Royal Oak Way North"}}, "geometry":{"type":"MultiPolygon","coordinates":[[[[-1.18662,52.26599],[-1.18641,52.26494],[-1.18981,52.26468],[-1.19003,52.26572],[-1.18662,52.26599]]]]}},
{ "type":"Feature","properties":{"osm_way_id":"591604338","name":"TNT Worldwide","building":"warehouse","other":{"addr:city":"Northampton","addr:country":"GB","addr:postcode":"NN3 8RB","addr:street":"South Portway Close","fhrs:authority":"Northampton","fhrs:id":"175641","fhrs:local_authority_id":"PI\/000033269"}}, "geometry":{"type":"MultiPolygon","coordinates":[[[[-0.83593,52.27609],[-0.83596,52.27521],[-0.83549,52.2752],[-0.83549,52.27509],[-0.8356,52.27509],[-0.83561,52.27498],[-0.83522,52.27498],[-0.83521,52.2752],[-0.8351,52.2752],[-0.83507,52.27608],[-0.83593,52.27609]]]]}},
{ "type":"Feature","properties":{"osm_way_id":"607900820","name":"Optima Logistics","building":"warehouse","other":{"addr:city":"Daventry","addr:housename":"Unit 8","addr:postcode":"NN11 8RA","addr:street":"Parsons Road"}}, "geometry":{"type":"MultiPolygon","coordinates":[[[[-1.19032,52.27221],[-1.18867,52.27102],[-1.18741,52.27167],[-1.18906,52.27286],[-1.19032,52.27221]]]]}},
{ "type":"Feature","properties":{"osm_way_id":"617667775","building":"warehouse"},"geometry":{"type":"MultiPolygon","coordinates":[[[[-1.14514,52.35796],[-1.14137,52.35851],[-1.14093,52.35741],[-1.1423,52.35721],[-1.14226,52.3571],[-1.14466,52.35675],[-1.14514,52.35796]]]]}},
{ "type":"Feature","properties":{"osm_way_id":"617667792","building":"warehouse","other":{"addr:postcode":"NN6 7TZ"}}, "geometry":{"type":"MultiPolygon","coordinates":[[[[-1.14257,52.35585],[-1.1413,52.35263],[-1.14027,52.35278],[-1.14002,52.35214],[-1.14198,52.35185],[-1.1428,52.35393],[-1.14307,52.35389],[-1.14323,52.3543],[-1.14296,52.35434],[-1.14351,52.35571],[-1.14257,52.35585]]]]}},
{ "type":"Feature","properties":{"osm_way_id":"617670208","building":"warehouse"},"geometry":{"type":"MultiPolygon","coordinates":[[[[-1.15298,52.34939],[-1.15165,52.3497],[-1.15067,52.3481],[-1.152,52.3478],[-1.15248,52.34858],[-1.1526,52.34855],[-1.15268,52.34869],[-1.15256,52.34871],[-1.15298,52.34939]]]]}},
{ "type":"Feature","properties":{"osm_way_id":"662148436","name":"Debenhams","building":"warehouse"},"geometry":{"type":"MultiPolygon","coordinates":[[[[-0.94828,52.2619],[-0.9476,52.2615],[-0.94674,52.26206],[-0.94781,52.26267],[-0.94796,52.26257],[-0.9477,52.26242],[-0.94792,52.26229],[-0.94779,52.26221],[-0.94828,52.2619]]]]}},
{ "type":"Feature","properties":{"osm_way_id":"676853644","building":"warehouse"},"geometry":{"type":"MultiPolygon","coordinates":[[[[-0.85459,52.22633],[-0.85356,52.22658],[-0.85283,52.22547],[-0.85388,52.22521],[-0.85459,52.22633]]]]}},
{ "type":"Feature","properties":{"osm_way_id":"677231336","building":"warehouse"},"geometry":{"type":"MultiPolygon","coordinates":[[[[-0.85381,52.22224],[-0.85105,52.22209],[-0.85108,52.22186],[-0.8509,52.22185],[-0.85095,52.22154],[-0.85114,52.22155],[-0.85117,52.22131],[-0.85392,52.22146],[-0.85381,52.22224]]]]}},
{ "type":"Feature","properties":{"osm_way_id":"677231338","name":"Dachser","building":"warehouse"},"geometry":{"type":"MultiPolygon","coordinates":[[[[-0.85262,52.22506],[-0.85169,52.22549],[-0.85153,52.22535],[-0.851,52.22557],[-0.85077,52.22539],[-0.85021,52.22565],[-0.84924,52.22486],[-0.85037,52.22435],[-0.85112,52.22495],[-0.85222,52.22446],[-0.85266,52.22483],[-0.85247,52.22492],[-0.85262,52.22506]]]]}},
{ "type":"Feature","properties":{"osm_way_id":"704919074","building":"warehouse","other":{"addr:street":"Broad March"}}, "geometry":{"type":"MultiPolygon","coordinates":[[[[-1.15391,52.25159],[-1.15369,52.25169],[-1.1539,52.25186],[-1.1535,52.25204],[-1.15335,52.25191],[-1.15359,52.2518],[-1.15353,52.25176],[-1.15338,52.25163],[-1.15363,52.25152],[-1.15352,52.25142],[-1.15365,52.25137],[-1.15391,52.25159]]]]}},
{ "type":"Feature","properties":{"osm_way_id":"704919075","building":"warehouse","other":{"addr:street":"Broad March"}}, "geometry":{"type":"MultiPolygon","coordinates":[[[[-1.15467,52.25141],[-1.15407,52.25167],[-1.15368,52.25135],[-1.15429,52.25108],[-1.15467,52.25141]]]]}},
{ "type":"Feature","properties":{"osm_way_id":"730327992","name":"Speedy Hire","building":"warehouse","office":"company"},"geometry":{"type":"MultiPolygon","coordinates":[[[[-0.93144,52.24032],[-0.9313,52.24049],[-0.93083,52.24034],[-0.93098,52.24017],[-0.93144,52.24032]]]]}},
{ "type":"Feature","properties":{"osm_way_id":"872384178","name":"Kenway Tyres","building":"warehouse","other":{"addr:city":"Aberdeen","addr:housenumber":"11","addr:postcode":"AB24 2UU","addr:street":"St Machar Road"}}, "geometry":{"type":"MultiPolygon","coordinates":[[[[-2.11451,57.16856],[-2.11442,57.1684],[-2.11463,57.16836],[-2.11451,57.16816],[-2.11431,57.16819],[-2.1142,57.16801],[-2.11418,57.16796],[-2.11379,57.16802],[-2.11373,57.16803],[-2.1138,57.16816],[-2.11407,57.16863],[-2.11446,57.16857],[-2.11451,57.16856]]]]}},
{ "type":"Feature","properties":{"osm_way_id":"893290447","building":"warehouse"},"geometry":{"type":"MultiPolygon","coordinates":[[[[0.97228,52.73634],[0.97216,52.73626],[0.97247,52.73608],[0.97259,52.73615],[0.97228,52.73634]]]]}},
{ "type":"Feature","properties":{"osm_way_id":"1025531685","name":"MH Star","building":"warehouse"},"geometry":{"type":"MultiPolygon","coordinates":[[[[-0.93519,52.21058],[-0.9358,52.20976],[-0.93255,52.20888],[-0.93196,52.20968],[-0.93519,52.21058]]]]}},
{ "type":"Feature","properties":{"osm_way_id":"1025531686","name":"MH Star","building":"warehouse"},"geometry":{"type":"MultiPolygon","coordinates":[[[[-0.93501,52.20855],[-0.93542,52.20806],[-0.93339,52.20744],[-0.93299,52.20792],[-0.93501,52.20855]]]]}},
{ "type":"Feature","properties":{"osm_way_id":"1025547147","name":"Dunelm","building":"warehouse"},"geometry":{"type":"MultiPolygon","coordinates":[[[[-1.17386,52.36443],[-1.17096,52.36523],[-1.17035,52.36452],[-1.1732,52.3637],[-1.17386,52.36443]]]]}},
{ "type":"Feature","properties":{"osm_way_id":"1035215026","building":"warehouse"},"geometry":{"type":"MultiPolygon","coordinates":[[[[-0.83266,52.1397],[-0.83241,52.13942],[-0.83265,52.13934],[-0.83291,52.13962],[-0.83266,52.1397]]]]}},
{ "type":"Feature","properties":{"osm_way_id":"1035215027","building":"warehouse"},"geometry":{"type":"MultiPolygon","coordinates":[[[[-0.83156,52.13979],[-0.83147,52.13967],[-0.83187,52.13955],[-0.83197,52.13967],[-0.83156,52.13979]]]]}}
]
}
