{
"type": "FeatureCollection",
"features": [
{ "type":"Feature","properties":{"osm_id":"4678939544","name":"Aldi","other":{"addr:city":"Ormskirk","addr:country":"GB","addr:place":"Ringtail Retail Park","addr:postcode":"L40 8AD","addr:suburb":"Burscough","addr:unit":"2","brand":"ALDI","brand:wikidata":"Q41171672","brand:wikipedia":"en:Aldi","fhrs:id":"1137648","shop":"supermarket","source:addr":"FHRS Open Data"}}, "geometry":{"type":"Point","coordinates":[-2.86441,53.58808 ]}},
{ "type":"Feature","properties":{"osm_id":"5415927324","name":"Co-op","other":{"addr:city":"Southport","addr:hamlet":"Banks","addr:housenumber":"42","addr:postcode":"PR9 8ET","addr:street":"Church Road","fhrs:id":"177349","shop":"supermarket"}}, "geometry":{"type":"Point","coordinates":[-2.92137,53.68147 ]}},
{ "type":"Feature","properties":{"osm_id":"5415944322","name":"Co-op Food","other":{"addr:city":"Preston","addr:housenumber":"71","addr:postcode":"PR4 6UP","addr:street":"Church Road","addr:suburb":"Tarleton","brand":"Co-op Food","brand:wikidata":"Q3277439","brand:wikipedia":"en:Co-op Food","fhrs:id":"180082","shop":"supermarket"}}, "geometry":{"type":"Point","coordinates":[-2.83214,53.67834 ]}},
{ "type":"Feature","properties":{"osm_id":"7279581305","other":{"emergency":"defibrillator","indoor":"no"}}, "geometry":{"type":"Point","coordinates":[-2.86473,53.58788 ]}},
{ "type":"Feature","properties":{"osm_way_id":"101268578","name":"Tesco","building":"yes","shop":"supermarket","other":{"addr:city":"Market Deeping","brand":"Tesco","brand:wikidata":"Q487494","brand:wikipedia":"en:Tesco","operator":"Tesco"}}, "geometry":{"type":"MultiPolygon","coordinates":[[[[-0.31325,52.68178],[-0.31315,52.68166],[-0.31322,52.68164],[-0.31305,52.68142],[-0.31299,52.68143],[-0.31275,52.68111],[-0.31208,52.6813],[-0.3122,52.68148],[-0.31232,52.68167],[-0.31255,52.68198],[-0.31325,52.68178]]]]}},
{ "type":"Feature","properties":{"osm_way_id":"118910188","name":"Asda","building":"yes","shop":"supermarket","other":{"addr:city":"Skelmersdale","addr:country":"GB","addr:postcode":"WN8 6LU","addr:street":"Ingram","brand":"Asda","brand:wikidata":"Q297410","brand:wikipedia":"en:Asda","contact:website":"https:\/\/storelocator.asda.com\/north-west\/skelmersdale\/ingram-road","opening_hours":"Mo-Fr 06:00-24:00; Sa 06:00-22:00; Su 10:30-16:30","operator":"Asda Stores Ltd"}}, "geometry":{"type":"MultiPolygon","coordinates":[[[[-2.77892,53.55404],[-2.77851,53.55425],[-2.77876,53.55442],[-2.7787,53.55445],[-2.7784,53.55445],[-2.77829,53.55438],[-2.77786,53.5546],[-2.77716,53.55413],[-2.77741,53.554],[-2.77727,53.5539],[-2.77806,53.55348],[-2.77819,53.55357],[-2.77824,53.55355],[-2.77881,53.55394],[-2.77879,53.55395],[-2.77892,53.55404]]]]}},
{ "type":"Feature","properties":{"osm_way_id":"166692464","name":"Morrisons","building":"yes","shop":"supermarket","other":{"addr:city":"Lancashire","addr:postcode":"L39 3RB","addr:street":"Park Road","brand":"Morrisons","brand:wikidata":"Q922344","brand:wikipedia":"en:Morrisons","fhrs:id":"179151","source:addr":"FHRS Open Data","wheelchair":"yes"}}, "geometry":{"type":"MultiPolygon","coordinates":[[[[-2.88887,53.56621],[-2.88856,53.56639],[-2.88846,53.56633],[-2.88844,53.56634],[-2.88832,53.56627],[-2.88834,53.56626],[-2.88814,53.56614],[-2.88822,53.56609],[-2.88796,53.56594],[-2.88793,53.56595],[-2.88784,53.5659],[-2.88792,53.56585],[-2.88796,53.56587],[-2.88879,53.56539],[-2.889,53.56552],[-2.88886,53.5656],[-2.88909,53.56574],[-2.88922,53.56566],[-2.88944,53.56579],[-2.88879,53.56616],[-2.88887,53.56621]]]]}},
{ "type":"Feature","properties":{"osm_way_id":"166701064","name":"ALDI","building":"yes","shop":"supermarket","other":{"addr:city":"Lancashire","addr:postcode":"L39 3RN","addr:street":"Two Saints Place","brand":"ALDI","brand:wikidata":"Q41171672","brand:wikipedia":"en:Aldi","fhrs:id":"179280","source:addr":"FHRS Open Data","wheelchair":"yes"}}, "geometry":{"type":"MultiPolygon","coordinates":[[[[-2.88762,53.56707],[-2.88744,53.56714],[-2.88748,53.56719],[-2.88705,53.56734],[-2.88715,53.56743],[-2.88731,53.56757],[-2.88749,53.56751],[-2.88748,53.56749],[-2.88789,53.56733],[-2.88762,53.56707]]]]}},
{ "type":"Feature","properties":{"osm_way_id":"166708802","name":"Tesco","building":"yes","shop":"supermarket","other":{"brand":"Tesco","brand:wikidata":"Q487494","brand:wikipedia":"en:Tesco","contact:website":"https:\/\/www.tesco.com\/store-locator\/ormskirk\/liverpool-rd-north","opening_hours":"Mo-Sa 08:00-22:00;Su 10:00-16:00","wheelchair":"yes"}}, "geometry":{"type":"MultiPolygon","coordinates":[[[[-2.84409,53.60453],[-2.84339,53.60441],[-2.84321,53.60483],[-2.84314,53.60482],[-2.84298,53.60501],[-2.84301,53.60501],[-2.843,53.60505],[-2.84341,53.6051],[-2.84343,53.60507],[-2.84383,53.60513],[-2.84409,53.60453]]]]}},
{ "type":"Feature","properties":{"osm_way_id":"183300217","name":"M&S Foodhall","building":"yes","shop":"supermarket","other":{"brand":"M&S Foodhall","brand:wikidata":"Q714491","brand:wikipedia":"en:Marks & Spencer","wheelchair":"yes"}}, "geometry":{"type":"MultiPolygon","coordinates":[[[[-2.88574,53.56647],[-2.88593,53.56634],[-2.88573,53.56623],[-2.88571,53.56625],[-2.88546,53.56612],[-2.8853,53.56624],[-2.88574,53.56647]]]]}},
{ "type":"Feature","properties":{"osm_way_id":"300938609","name":"The Food Warehouse","building":"yes","shop":"supermarket","other":{"addr:city":"Lancashire","addr:postcode":"L39 2AN","addr:street":"The Hattersley Centre","addr:unit":"1A","brand":"The Food Warehouse","brand:wikidata":"Q87263899","fhrs:id":"1079705","operator":"Iceland","shop:start_date":"2017-02-14"}}, "geometry":{"type":"MultiPolygon","coordinates":[[[[-2.87967,53.57331],[-2.87924,53.57318],[-2.87928,53.57313],[-2.87952,53.57285],[-2.87994,53.57298],[-2.87983,53.57313],[-2.87967,53.57331]]]]}},
{ "type":"Feature","properties":{"osm_way_id":"449686734","name":"Booths","building":"yes","shop":"supermarket","other":{"addr:city":"Ormskirk","addr:country":"GB","addr:place":"Ringtail Retail Park","addr:postcode":"L40 8AD","addr:suburb":"Burscough","addr:unit":"1","brand:wikidata":"Q4943949","contact:website":"https:\/\/www.booths.co.uk\/store\/burscough\/","fhrs:id":"1150171","opening_hours":"Mo-Sa 08:00-22:00; Su 10:00-16:00","source:addr":"FHRS Open Data"}}, "geometry":{"type":"MultiPolygon","coordinates":[[[[-2.8646,53.58793],[-2.86473,53.58788],[-2.86522,53.5877],[-2.86526,53.58773],[-2.86548,53.58765],[-2.86561,53.58777],[-2.86537,53.58786],[-2.86552,53.588],[-2.86539,53.58805],[-2.86549,53.58815],[-2.86515,53.58828],[-2.86504,53.58817],[-2.86491,53.58822],[-2.8646,53.58793]]]]}},
{ "type":"Feature","properties":{"osm_way_id":"673837590","name":"Booths","building":"retail","shop":"supermarket","other":{"addr:city":"Preston","addr:housenumber":"14","addr:postcode":"PR4 6SN","addr:street":"Station Road","addr:suburb":"Hesketh Bank","brand:wikidata":"Q4943949","contact:website":"https:\/\/www.booths.co.uk\/store\/hesketh-bank\/","fhrs:id":"183930"}}, "geometry":{"type":"MultiPolygon","coordinates":[[[[-2.83788,53.69864],[-2.83791,53.69822],[-2.83716,53.69821],[-2.83727,53.69859],[-2.83788,53.69864]]]]}}
]
}
