{
"type": "FeatureCollection",
"features": [
{ "type":"Feature","properties":{"osm_way_id":"44641390","building":"warehouse"},"geometry":{"type":"MultiPolygon","coordinates":[[[[-1.30691,50.92556],[-1.30618,50.92535],[-1.3058,50.92524],[-1.30609,50.92483],[-1.30612,50.92484],[-1.30616,50.92479],[-1.30625,50.92481],[-1.30661,50.92491],[-1.30663,50.92492],[-1.30714,50.92506],[-1.30721,50.92508],[-1.30717,50.92514],[-1.3072,50.92515],[-1.30719,50.92517],[-1.30691,50.92556]]]]}},
{ "type":"Feature","properties":{"osm_way_id":"44658084","building":"warehouse","other":{"source:location":"Bing"}}, "geometry":{"type":"MultiPolygon","coordinates":[[[[-1.30722,50.92649],[-1.30668,50.92656],[-1.30675,50.92682],[-1.3073,50.92676],[-1.30722,50.92649]]]]}},
{ "type":"Feature","properties":{"osm_way_id":"78325677","name":"Hovis","building":"warehouse"},"geometry":{"type":"MultiPolygon","coordinates":[[[[-1.38829,50.98027],[-1.38776,50.98003],[-1.38869,50.97923],[-1.38922,50.97947],[-1.38829,50.98027]]]]}},
{ "type":"Feature","properties":{"osm_way_id":"125403404","name":"Haywood Office Services","building":"warehouse"},"geometry":{"type":"MultiPolygon","coordinates":[[[[-1.39193,50.98005],[-1.39173,50.97996],[-1.39197,50.97976],[-1.39216,50.97986],[-1.39193,50.98005]]]]}},
{ "type":"Feature","properties":{"osm_way_id":"125403415","name":"Strukta","building":"warehouse","other":{"addr:city":"Eastleigh","addr:country":"GB","addr:postcode":"SO53 4BW","addr:street":"Trafalgar Close","addr:suburb":"Chandler's Ford"}}, "geometry":{"type":"MultiPolygon","coordinates":[[[[-1.39227,50.98018],[-1.39199,50.98005],[-1.39219,50.97987],[-1.39232,50.97993],[-1.39225,50.97999],[-1.39241,50.98007],[-1.39227,50.98018]]]]}},
{ "type":"Feature","properties":{"osm_way_id":"125963537","name":"Brewers","building":"warehouse"},"geometry":{"type":"MultiPolygon","coordinates":[[[[-1.38779,50.97925],[-1.38743,50.97908],[-1.38775,50.97881],[-1.3881,50.97898],[-1.38779,50.97925]]]]}},
{ "type":"Feature","properties":{"osm_way_id":"125963542","name":"Burton Roofing","building":"warehouse"},"geometry":{"type":"MultiPolygon","coordinates":[[[[-1.39005,50.9802],[-1.39021,50.98005],[-1.38946,50.97974],[-1.3893,50.9799],[-1.39005,50.9802]]]]}},
{ "type":"Feature","properties":{"osm_way_id":"126430564","name":"Rentool","building":"warehouse"},"geometry":{"type":"MultiPolygon","coordinates":[[[[-1.39285,50.97745],[-1.39265,50.97762],[-1.39254,50.97757],[-1.39247,50.97763],[-1.3922,50.9775],[-1.39255,50.97721],[-1.39282,50.97734],[-1.39275,50.9774],[-1.39285,50.97745]]]]}},
{ "type":"Feature","properties":{"osm_way_id":"278083204","name":"Majortek","building":"warehouse"},"geometry":{"type":"MultiPolygon","coordinates":[[[[-1.32041,50.90652],[-1.32056,50.90668],[-1.32011,50.90685],[-1.32004,50.90677],[-1.31991,50.90682],[-1.31983,50.90673],[-1.32041,50.90652]]]]}},
{ "type":"Feature","properties":{"osm_way_id":"299656828","name":"AFS Haulage ltd.","building":"warehouse"},"geometry":{"type":"MultiPolygon","coordinates":[[[[-1.28472,50.96253],[-1.2845,50.96247],[-1.28473,50.96211],[-1.28495,50.96216],[-1.28472,50.96253]]]]}},
{ "type":"Feature","properties":{"osm_way_id":"299656829","name":"AFS Haulage ltd. - workshop","building":"warehouse"},"geometry":{"type":"MultiPolygon","coordinates":[[[[-1.2851,50.96271],[-1.28528,50.96244],[-1.28507,50.96239],[-1.28489,50.96265],[-1.2851,50.96271]]]]}},
{ "type":"Feature","properties":{"osm_way_id":"303353257","name":"ByPass HGV training","building":"warehouse"},"geometry":{"type":"MultiPolygon","coordinates":[[[[-1.28638,50.96322],[-1.28595,50.96312],[-1.28605,50.96295],[-1.28648,50.96305],[-1.28638,50.96322]]]]}},
{ "type":"Feature","properties":{"osm_way_id":"303353258","name":"Oasis Pools Ltd","building":"warehouse"},"geometry":{"type":"MultiPolygon","coordinates":[[[[-1.28442,50.9629],[-1.28441,50.96276],[-1.28395,50.96278],[-1.28397,50.96292],[-1.28442,50.9629]]]]}},
{ "type":"Feature","properties":{"osm_way_id":"303353259","building":"warehouse"},"geometry":{"type":"MultiPolygon","coordinates":[[[[-1.28485,50.96337],[-1.28485,50.96329],[-1.28459,50.96329],[-1.28459,50.96337],[-1.28485,50.96337]]]]}},
{ "type":"Feature","properties":{"osm_way_id":"303353261","building":"warehouse"},"geometry":{"type":"MultiPolygon","coordinates":[[[[-1.28565,50.96331],[-1.28541,50.96325],[-1.28522,50.96356],[-1.28547,50.96362],[-1.28565,50.96331]]]]}},
{ "type":"Feature","properties":{"osm_way_id":"303353262","building":"warehouse"},"geometry":{"type":"MultiPolygon","coordinates":[[[[-1.28502,50.96211],[-1.28459,50.96201],[-1.28465,50.96191],[-1.28507,50.96201],[-1.28502,50.96211]]]]}},
{ "type":"Feature","properties":{"osm_way_id":"303353263","building":"warehouse"},"geometry":{"type":"MultiPolygon","coordinates":[[[[-1.2857,50.9624],[-1.28552,50.96229],[-1.28584,50.96207],[-1.28602,50.96217],[-1.2857,50.9624]]]]}},
{ "type":"Feature","properties":{"osm_way_id":"303353264","building":"warehouse"},"geometry":{"type":"MultiPolygon","coordinates":[[[[-1.28445,50.96197],[-1.28459,50.9618],[-1.28445,50.96175],[-1.28431,50.96193],[-1.28445,50.96197]]]]}},
{ "type":"Feature","properties":{"osm_way_id":"303353265","building":"warehouse"},"geometry":{"type":"MultiPolygon","coordinates":[[[[-1.28489,50.96323],[-1.28503,50.96297],[-1.28479,50.96292],[-1.28481,50.96288],[-1.28466,50.96285],[-1.28454,50.96307],[-1.28461,50.96308],[-1.28456,50.96317],[-1.28489,50.96323]]]]}},
{ "type":"Feature","properties":{"osm_way_id":"619726872","name":"Peter Green Wharehouse","building":"warehouse","other":{"addr:city":"Eastleigh","addr:country":"GB","addr:postcode":"SO53 4SE","addr:street":"Electron Way","addr:suburb":"Chandler's Ford","addr:unit":"Unit C, Omega Enterprise Park"}}, "geometry":{"type":"MultiPolygon","coordinates":[[[[-1.38689,50.98274],[-1.38646,50.98282],[-1.3863,50.98251],[-1.38674,50.98242],[-1.38689,50.98274]]]]}},
{ "type":"Feature","properties":{"osm_way_id":"833364865","building":"warehouse"},"geometry":{"type":"MultiPolygon","coordinates":[[[[-1.31321,50.87209],[-1.3133,50.87208],[-1.31332,50.87224],[-1.31323,50.87224],[-1.31322,50.87218],[-1.31321,50.87209]]]]}},
{ "type":"Feature","properties":{"osm_way_id":"833364866","building":"warehouse"},"geometry":{"type":"MultiPolygon","coordinates":[[[[-1.31297,50.8721],[-1.31321,50.87209],[-1.31322,50.87218],[-1.31298,50.8722],[-1.31297,50.8721]]]]}},
{ "type":"Feature","properties":{"osm_way_id":"833364867","building":"warehouse"},"geometry":{"type":"MultiPolygon","coordinates":[[[[-1.31295,50.872],[-1.31294,50.87195],[-1.31314,50.87194],[-1.31315,50.87199],[-1.31295,50.872]]]]}},
{ "type":"Feature","properties":{"osm_way_id":"833364868","building":"warehouse"},"geometry":{"type":"MultiPolygon","coordinates":[[[[-1.31328,50.87198],[-1.3133,50.87208],[-1.31321,50.87209],[-1.31297,50.8721],[-1.31295,50.872],[-1.31315,50.87199],[-1.31328,50.87198]]]]}},
{ "type":"Feature","properties":{"osm_way_id":"833364869","building":"warehouse"},"geometry":{"type":"MultiPolygon","coordinates":[[[[-1.31348,50.87225],[-1.31333,50.87224],[-1.31337,50.87202],[-1.31352,50.87203],[-1.31348,50.87225]]]]}},
{ "type":"Feature","properties":{"osm_way_id":"833364870","building":"warehouse"},"geometry":{"type":"MultiPolygon","coordinates":[[[[-1.31358,50.87203],[-1.31386,50.87205],[-1.3138,50.87234],[-1.31352,50.87232],[-1.31358,50.87203]]]]}}
]
}
