{
"type": "FeatureCollection",
"features": [
{ "type":"Feature","properties":{"osm_id":"1579716484","name":"Spar","other":{"brand":"Spar","brand:wikidata":"Q610492","brand:wikipedia":"en:SPAR (retailer)","shop":"supermarket"}}, "geometry":{"type":"Point","coordinates":[-5.94519,56.51735 ]}},
{ "type":"Feature","properties":{"osm_id":"2745756660","name":"Co-op Food","other":{"shop":"supermarket","brand":"Co-op Food","brand:wikidata":"Q3277439","brand:wikipedia":"en:Co-op Food"}}, "geometry":{"type":"Point","coordinates":[-5.4155,55.86353 ]}},
{ "type":"Feature","properties":{"osm_id":"5609576432","name":"COOP","other":{"shop":"supermarket","addr:city":"Rothesay","addr:street":"Montague Street","addr:postcode":"PA20 9DA","addr:housenumber":"15 - 19"}}, "geometry":{"type":"Point","coordinates":[-5.05374,55.8372 ]}},
{ "type":"Feature","properties":{"osm_id":"7290055497","name":"Purdies of Oban","other":{"shop":"supermarket","organic":"only"}}, "geometry":{"type":"Point","coordinates":[-5.47206,56.41355 ]}},
{ "type":"Feature","properties":{"osm_id":"9060263430","other":{"advertising":"board","support":"wall_mounted"}}, "geometry":{"type":"Point","coordinates":[-6.06842,56.62278 ]}},
{ "type":"Feature","properties":{"osm_way_id":"129985122","name":"Co-op Food","building":"yes","shop":"supermarket","other":{"branch":"Tobermory","brand":"Co-op Food","brand:wikidata":"Q3277439","brand:wikipedia":"en:Co-op Food","operator":"The Co-operative Group","operator:wikidata":"Q117202","operator:wikipedia":"en:The Co-operative Group"}}, "geometry":{"type":"Polygon","coordinates":[[[ -6.06845,56.62275],[-6.06857,56.62281],[-6.06854,56.62283],[-6.06869,56.6229],[-6.06871,56.62288],[-6.06878,56.62292],[-6.0687,56.62297],[-6.06864,56.62293],[-6.06846,56.62304],[-6.0682,56.62291],[-6.06842,56.62278],[-6.06845,56.62275]] ]}},
{ "type":"Feature","properties":{"osm_way_id":"130792724","name":"Tesco","building":"retail","shop":"supermarket","other":{"addr:city":"Oban","addr:postcode":"PA34 4HP","addr:street":"Lochavullin Road","alt_name":"Tesco Oban Superstore","brand":"Tesco","brand:wikidata":"Q487494","brand:wikipedia":"en:Tesco","contact:website":"https:\/\/www.tesco.com\/store-locator\/oban\/lochside","opening_hours":"Mo-Sa 06:00-24:00; Su 08:00-20:00","phone":"+44 845 677 9519","toilets":"yes","toilets:access":"customers"}}, "geometry":{"type":"Polygon","coordinates":[[[ -5.47167,56.40958],[-5.47153,56.40952],[-5.47246,56.40875],[-5.47282,56.40889],[-5.47276,56.40896],[-5.47272,56.409],[-5.47274,56.40906],[-5.47288,56.40914],[-5.47294,56.40908],[-5.47321,56.40919],[-5.4731,56.4093],[-5.473,56.40927],[-5.47303,56.40923],[-5.47296,56.40921],[-5.47263,56.40951],[-5.47248,56.40963],[-5.47257,56.40966],[-5.47245,56.40976],[-5.47226,56.40992],[-5.47157,56.40967],[-5.47161,56.40963],[-5.47167,56.40958]] ]}},
{ "type":"Feature","properties":{"osm_way_id":"130792725","name":"Lidl","building":"yes","shop":"supermarket","other":{"brand":"Lidl","opening_hours":"Mo-Sa 08:00-22:00; Su 08:00-20:00","brand:wikidata":"Q151954","brand:wikipedia":"en:Lidl"}}, "geometry":{"type":"Polygon","coordinates":[[[ -5.47026,56.40955],[-5.4699,56.40958],[-5.46992,56.40965],[-5.46969,56.40967],[-5.46952,56.40904],[-5.47011,56.40899],[-5.47026,56.40955]] ]}},
{ "type":"Feature","properties":{"osm_way_id":"165589856","name":"M&S Foodhall","building":"retail","shop":"supermarket","other":{"addr:city":"Oban","addr:postcode":"PA34 4BW","addr:street":"Lochavullin Drive","brand":"M&S Foodhall","brand:wikidata":"Q714491","brand:wikipedia":"en:Marks & Spencer","building:levels":"1","opening_hours":"Mo-Fr 08:00-21:00; Sa 08:00-20:00; Su 09:00-19:00","roof:levels":"0","source:addr:postcode":"code-point_open"}}, "geometry":{"type":"Polygon","coordinates":[[[ -5.47358,56.40868],[-5.47343,56.40863],[-5.47349,56.40858],[-5.47301,56.4084],[-5.47329,56.40817],[-5.47392,56.4084],[-5.47364,56.40864],[-5.47358,56.40868]] ]}},
{ "type":"Feature","properties":{"osm_way_id":"165589857","name":"Aldi","building":"industrial","shop":"supermarket","other":{"addr:city":"Oban","addr:postcode":"PA34 4PL","addr:street":"Lynn Road","alt_name":"ALDI Oban","brand":"ALDI","brand:wikidata":"Q41171672","brand:wikipedia":"en:Aldi","building:levels":"1","opening_hours":"Mo-Sa 08:00-22:00; Su 09:00-19:00","roof:levels":"0"}}, "geometry":{"type":"Polygon","coordinates":[[[ -5.47131,56.40733],[-5.47054,56.40757],[-5.47032,56.40734],[-5.47116,56.40709],[-5.47126,56.4072],[-5.4712,56.40721],[-5.47131,56.40733]] ]}},
{ "type":"Feature","properties":{"osm_way_id":"170810469","name":"Morrisons","building":"retail","shop":"supermarket","other":{"addr:city":"Dunoon","addr:housenumber":"40","addr:postcode":"PA23 8BJ","addr:street":"John Street","alt_name":"Morrisons Dunoon","brand":"Morrisons","brand:wikidata":"Q922344","brand:wikipedia":"en:Morrisons","building:levels":"1","check_date:opening_hours":"2021-08-02","opening_hours":"Mo-Sa 07:00-22:00; Su 08:00-20:00","roof:levels":"0","roof:shape":"flat"}}, "geometry":{"type":"Polygon","coordinates":[[[ -4.92694,55.95131],[-4.92692,55.95151],[-4.92702,55.95152],[-4.927,55.95178],[-4.92649,55.95177],[-4.9264,55.95174],[-4.9264,55.9517],[-4.9263,55.95168],[-4.92618,55.95165],[-4.92619,55.95159],[-4.92602,55.95158],[-4.92606,55.95134],[-4.92594,55.95133],[-4.92595,55.95127],[-4.92694,55.95131]] ]}},
{ "type":"Feature","properties":{"osm_way_id":"170810969","name":"The Co-operative Food","building":"yes","shop":"supermarket","other":{"atm":"yes","brand":"The Co-operative Food","addr:city":"Dunoon","addr:street":"Queen Street","addr:postcode":"PA23 8AX","opening_hours":"Mo-Su 07:00-22:00","brand:wikidata":"Q3277439","brand:wikipedia":"en:Co-op Food"}}, "geometry":{"type":"Polygon","coordinates":[[[ -4.92729,55.95422],[-4.92719,55.95425],[-4.92727,55.95434],[-4.92724,55.95435],[-4.92728,55.9544],[-4.92707,55.95446],[-4.92703,55.95441],[-4.92699,55.95443],[-4.92664,55.95405],[-4.92703,55.95394],[-4.92729,55.95422]] ]}},
{ "type":"Feature","properties":{"osm_way_id":"185238722","name":"The Co-operative","building":"yes","shop":"supermarket","other":{"addr:postcode":"PA31 8NG","addr:street":"Oban Road","alt_name":"The Co-operative Food"}}, "geometry":{"type":"Polygon","coordinates":[[[ -5.43325,56.03971],[-5.4329,56.03968],[-5.43301,56.03931],[-5.43354,56.03936],[-5.43348,56.03959],[-5.43329,56.03957],[-5.43325,56.03971]] ]}},
{ "type":"Feature","properties":{"osm_way_id":"213556890","name":"The Co-operative Food","building":"yes","shop":"supermarket","other":{"atm":"yes","branch":"Campbeltown","alt_name":"The Co-operative Food","addr:city":"Campbeltown","addr:street":"Rieclachan","addr:postcode":"PA28 6EX","opening_hours":"Mo-Su 07:00-22:00"}}, "geometry":{"type":"Polygon","coordinates":[[[ -5.61029,55.42708],[-5.60992,55.42723],[-5.60972,55.42706],[-5.60967,55.42708],[-5.60955,55.42699],[-5.60954,55.42697],[-5.60968,55.42692],[-5.60954,55.42681],[-5.60973,55.42674],[-5.60982,55.42682],[-5.6099,55.42684],[-5.60996,55.42682],[-5.61029,55.42708]] ]}},
{ "type":"Feature","properties":{"osm_way_id":"213556901","name":"Tesco Metro","building":"yes","shop":"supermarket","other":{"brand":"Tesco Metro","branch":"Campbeltown Metro","addr:city":"Campbeltown","addr:street":"Lochend Street","addr:postcode":"PA28 6DL","opening_hours":"Mo-Sa 07:00-22:00; Su 10:00-18:00","brand:wikidata":"Q57551648","addr:housenumber":"1"}}, "geometry":{"type":"Polygon","coordinates":[[[ -5.60831,55.42855],[-5.60802,55.42878],[-5.60747,55.42855],[-5.60783,55.42828],[-5.60801,55.42835],[-5.60795,55.4284],[-5.60831,55.42855]] ]}},
{ "type":"Feature","properties":{"osm_way_id":"254422621","name":"Co-op Food","building":"retail","shop":"supermarket","other":{"brand":"Co-op Food","brand:wikidata":"Q3277439","brand:wikipedia":"en:Co-op Food"}}, "geometry":{"type":"Polygon","coordinates":[[[ -4.73295,56.00453],[-4.7328,56.00484],[-4.73254,56.0048],[-4.73257,56.00474],[-4.73177,56.00461],[-4.7319,56.00437],[-4.73295,56.00453]] ]}},
{ "type":"Feature","properties":{"osm_way_id":"275524224","name":"The Co-operative Food","building":"yes","shop":"supermarket","other":{"alt_name":"The Co-operative Food","operator":"The Co-operative Group","addr:city":"Rothesay","addr:street":"Bridge Street","addr:postcode":"PA20 0HH","opening_hours":"Mo-Su 07:00-22:00"}}, "geometry":{"type":"Polygon","coordinates":[[[ -5.05965,55.83778],[-5.05945,55.8378],[-5.05874,55.83779],[-5.05875,55.83771],[-5.05885,55.83771],[-5.05886,55.83757],[-5.05966,55.83758],[-5.05965,55.83778]] ]}},
{ "type":"Feature","properties":{"osm_way_id":"279679347","name":"Port Appin Stores & PO","amenity":"post_office","building":"yes","shop":"supermarket","other":{"addr:city":"Port Appin","addr:postcode":"PA38 4DE","addr:street":"Shauna View","opening_hours":"Mo-Sa 09:00-17:30; Su 10:00-13:00","roof:shape":"gabled"}}, "geometry":{"type":"Polygon","coordinates":[[[ -5.40957,56.55481],[-5.40943,56.55485],[-5.40947,56.5549],[-5.40938,56.55492],[-5.40927,56.5548],[-5.40951,56.55474],[-5.40957,56.55481]] ]}},
{ "type":"Feature","properties":{"osm_way_id":"279920719","name":"The Co-operative Food","building":"yes","shop":"supermarket","other":{"addr:city":"Scarinish","addr:postcode":"PA77 6UH","opening_hours":"Mo-Su 07:00-22:00"}}, "geometry":{"type":"Polygon","coordinates":[[[ -6.80752,56.5005],[-6.80753,56.5005],[-6.8075,56.50053],[-6.80744,56.50058],[-6.80715,56.50046],[-6.80729,56.50035],[-6.80746,56.50041],[-6.8074,56.50045],[-6.80752,56.5005]] ]}},
{ "type":"Feature","properties":{"osm_way_id":"424325804","name":"The Co-operative Food","building":"yes","shop":"supermarket","other":{"brand":"The Co-operative Food","operator":"The Co-operative Group","addr:city":"Port Ellen","wheelchair":"yes","addr:street":"Frederick Crescent","addr:postcode":"PA42 7BE","opening_hours":"Mo-Sa 07:00-22:00; Su 10:00-21:00","brand:wikidata":"Q3277439","brand:wikipedia":"en:Co-op Food","addr:housenumber":"75"}}, "geometry":{"type":"Polygon","coordinates":[[[ -6.18476,55.62972],[-6.18474,55.62978],[-6.18471,55.62987],[-6.18455,55.62986],[-6.18457,55.62975],[-6.18459,55.62969],[-6.18476,55.62972]] ]}},
{ "type":"Feature","properties":{"osm_way_id":"446970144","name":"Tesco Metro","building":"yes","shop":"supermarket","other":{"brand":"Tesco Metro","brand:wikidata":"Q57551648"}}, "geometry":{"type":"Polygon","coordinates":[[[ -4.73407,56.00367],[-4.73368,56.00361],[-4.73378,56.00339],[-4.73397,56.00342],[-4.73417,56.00345],[-4.73407,56.00367]] ]}},
{ "type":"Feature","properties":{"osm_way_id":"625924052","name":"The Co-operative Food","building":"retail","shop":"supermarket","other":{"addr:city":"Inveraray","addr:postcode":"PA32 8UQ","addr:street":"The Avenue","check_date:opening_hours":"2021-08-23","opening_hours":"Mo-Su 07:00-22:00"}}, "geometry":{"type":"Polygon","coordinates":[[[ -5.07686,56.22881],[-5.07645,56.22871],[-5.07657,56.22856],[-5.07698,56.22866],[-5.07686,56.22881]] ]}}
]
}
