{
"type": "FeatureCollection",
"features": [
{ "type":"Feature","properties":{"osm_id":"313493900","name":"Iceland","other":{"addr:city":"Holywell","addr:housenumber":"20-22","addr:postcode":"CH8 7LH","addr:street":"High Street","brand":"Iceland","brand:wikidata":"Q721810","brand:wikipedia":"en:Iceland (supermarket)","fhrs:id":"654669","opening_hours":"Mo-Sa 08:00-19:00; Su 10:00-16:00","shop":"supermarket","source:addr":"FHRS Open Data"}}, "geometry":{"type":"Point","coordinates":[-3.22267,53.27384 ]}},
{ "type":"Feature","properties":{"osm_id":"8251845837","name":"ASDA Click And Collect","other":{"shop":"supermarket"}}, "geometry":{"type":"Point","coordinates":[-3.02614,53.20548 ]}},
{ "type":"Feature","properties":{"osm_id":"9443109469","name":"The Food Warehouse","other":{"addr:country":"GB","addr:housename":"Flintshire Retail Park","addr:postcode":"CH6 5GB","addr:street":"Holywell Road","addr:unit":"3","brand":"The Food Warehouse","brand:wikidata":"Q87263899","fhrs:id":"1367701","shop":"supermarket"}}, "geometry":{"type":"Point","coordinates":[-3.13756,53.25024 ]}},
{ "type":"Feature","properties":{"osm_way_id":"26425894","name":"Asda","building":"retail","shop":"supermarket","other":{"addr:city":"Queensferry","addr:country":"GB","addr:postcode":"CH5 1TP","addr:street":"Aston Road","brand":"Asda","brand:wikidata":"Q297410","brand:wikipedia":"en:Asda","contact:facebook":"https:\/\/www.facebook.com\/asda\/","contact:twitter":"@asda","contact:website":"https:\/\/storelocator.asda.com\/wales\/queensferry\/aston-road","fhrs:id":"104656","operator":"Asda Stores Ltd"}}, "geometry":{"type":"MultiPolygon","coordinates":[[[[-3.0294,53.20534],[-3.03016,53.20509],[-3.03015,53.20508],[-3.03031,53.20502],[-3.03023,53.20493],[-3.03028,53.20491],[-3.03009,53.20472],[-3.03018,53.20458],[-3.03023,53.20457],[-3.03013,53.20445],[-3.02986,53.20454],[-3.02966,53.20432],[-3.02986,53.20426],[-3.0296,53.20397],[-3.02936,53.20404],[-3.02923,53.2039],[-3.02912,53.20393],[-3.02911,53.20392],[-3.02834,53.20417],[-3.02872,53.20461],[-3.02856,53.20467],[-3.02909,53.20524],[-3.02926,53.20519],[-3.0294,53.20534]]]]}},
{ "type":"Feature","properties":{"osm_way_id":"89344071","name":"ALDI","building":"yes","shop":"supermarket","other":{"addr:postcode":"CH7 1LA","addr:street":"King Street","brand":"ALDI","brand:wikidata":"Q41171672","brand:wikipedia":"en:Aldi","fhrs:id":"654670","source:addr":"FHRS Open Data"}}, "geometry":{"type":"MultiPolygon","coordinates":[[[[-3.1394,53.16894],[-3.13896,53.16839],[-3.13877,53.16845],[-3.13891,53.16863],[-3.13874,53.16868],[-3.13895,53.16893],[-3.1389,53.16894],[-3.139,53.16906],[-3.1394,53.16894]]]]}},
{ "type":"Feature","properties":{"osm_way_id":"89344082","name":"Tesco","building":"yes","shop":"supermarket","other":{"addr:postcode":"CH7 1UB","addr:street":"Tesco Way","brand":"Tesco","brand:wikidata":"Q487494","brand:wikipedia":"en:Tesco","fhrs:id":"346691","source:addr":"FHRS Open Data"}}, "geometry":{"type":"MultiPolygon","coordinates":[[[[-3.13846,53.16731],[-3.13801,53.16697],[-3.13806,53.16695],[-3.13795,53.16687],[-3.13791,53.16689],[-3.13764,53.16669],[-3.13747,53.16677],[-3.13731,53.16666],[-3.13691,53.16685],[-3.13693,53.16686],[-3.13672,53.16696],[-3.13682,53.16704],[-3.13679,53.16705],[-3.13689,53.16713],[-3.13692,53.16711],[-3.13716,53.16729],[-3.1374,53.16748],[-3.1375,53.16744],[-3.13759,53.16739],[-3.13764,53.16743],[-3.13769,53.16747],[-3.1378,53.16748],[-3.13796,53.1674],[-3.138,53.16743],[-3.13807,53.16739],[-3.13816,53.16745],[-3.13846,53.16731]]]]}},
{ "type":"Feature","properties":{"osm_way_id":"96984926","name":"Lidl","building":"yes","shop":"supermarket","other":{"addr:postcode":"CH7 1BL","addr:street":"Denbigh Road","brand":"Lidl","brand:wikidata":"Q151954","brand:wikipedia":"en:Lidl","fhrs:id":"102246","source:addr":"FHRS Open Data"}}, "geometry":{"type":"MultiPolygon","coordinates":[[[[-3.14038,53.1713],[-3.14022,53.17131],[-3.1402,53.17126],[-3.13989,53.17128],[-3.13984,53.17104],[-3.13978,53.17104],[-3.13974,53.17089],[-3.14029,53.17085],[-3.14038,53.1713]]]]}},
{ "type":"Feature","properties":{"osm_way_id":"115509164","name":"Spar","building":"yes","shop":"supermarket","other":{"addr:postcode":"LL19 9TT","brand":"Spar","brand:wikidata":"Q610492","brand:wikipedia":"en:Spar (retailer)","fhrs:id":"130644","source:addr:postcode":"FHRS Open Data"}}, "geometry":{"type":"MultiPolygon","coordinates":[[[[-3.35004,53.34981],[-3.34962,53.34988],[-3.34965,53.34995],[-3.34975,53.34994],[-3.3498,53.35005],[-3.34998,53.35002],[-3.35005,53.35017],[-3.35007,53.35016],[-3.35011,53.35024],[-3.35024,53.35021],[-3.35004,53.34981]]]]}},
{ "type":"Feature","properties":{"osm_way_id":"143129783","name":"Morrisons","building":"retail","shop":"supermarket","other":{"brand":"Morrisons","brand:wikidata":"Q922344","brand:wikipedia":"en:Morrisons"}}, "geometry":{"type":"MultiPolygon","coordinates":[[[[-2.93155,53.17797],[-2.93156,53.17799],[-2.93132,53.17803],[-2.93135,53.17811],[-2.9312,53.17813],[-2.93126,53.17827],[-2.93141,53.17824],[-2.93145,53.17833],[-2.93174,53.17829],[-2.93188,53.17859],[-2.93267,53.17846],[-2.93284,53.17843],[-2.9326,53.17788],[-2.93263,53.17788],[-2.93258,53.17777],[-2.9324,53.17779],[-2.93241,53.17781],[-2.9324,53.17781],[-2.93198,53.17788],[-2.9318,53.17791],[-2.9318,53.17791],[-2.93181,53.17793],[-2.93155,53.17797]]]]}},
{ "type":"Feature","properties":{"osm_way_id":"214839842","name":"Aldi","building":"yes","shop":"supermarket","other":{"addr:housenumber":"55-57","addr:postcode":"CH6 5DH","addr:street":"Chester Street","alt_name":"ALDI Flint","brand":"ALDI","brand:wikidata":"Q41171672","brand:wikipedia":"en:Aldi","fhrs:id":"654626"}}, "geometry":{"type":"MultiPolygon","coordinates":[[[[-3.13121,53.24846],[-3.1311,53.24853],[-3.13107,53.24851],[-3.13094,53.24859],[-3.13067,53.24876],[-3.13029,53.24854],[-3.1304,53.24847],[-3.13046,53.24851],[-3.13074,53.24833],[-3.13082,53.24828],[-3.13092,53.24834],[-3.13095,53.24831],[-3.13121,53.24846]]]]}},
{ "type":"Feature","properties":{"osm_way_id":"219105244","name":"Sainsbury's","building":"yes","shop":"supermarket","other":{"addr:housename":"Unit M","addr:postcode":"CH6 5GB","addr:street":"Flintshire Retail Park, Holywell Road","alt_name":"Sainsbury's Flint Superstore","brand":"Sainsbury's","brand:wikidata":"Q152096","brand:wikipedia":"en:Sainsbury's","fhrs:id":"807708"}}, "geometry":{"type":"MultiPolygon","coordinates":[[[[-3.1388,53.25115],[-3.13812,53.25157],[-3.1376,53.25128],[-3.13828,53.25085],[-3.1388,53.25115]]]]}},
{ "type":"Feature","properties":{"osm_way_id":"219105245","name":"Asda","building":"yes","shop":"supermarket","other":{"addr:city":"Flint","addr:country":"GB","addr:housename":"Flintshire Retail Park","addr:postcode":"CH6 5GB","addr:street":"Holywell Road","alt_name":"ASDA Flint Supermarket","brand":"Asda","brand:wikidata":"Q297410","brand:wikipedia":"en:Asda","contact:facebook":"https:\/\/www.facebook.com\/asda\/","contact:twitter":"@asda","contact:website":"https:\/\/storelocator.asda.com\/wales\/flint\/holywell-road-flintshire-retail-park","fhrs:id":"104648","operator":"Asda Stores Ltd"}}, "geometry":{"type":"MultiPolygon","coordinates":[[[[-3.13684,53.25106],[-3.1372,53.25127],[-3.13776,53.25092],[-3.13766,53.25086],[-3.13758,53.25091],[-3.13738,53.25079],[-3.13711,53.25096],[-3.13706,53.25093],[-3.13684,53.25106]]]]}},
{ "type":"Feature","properties":{"osm_way_id":"249143811","name":"Tesco","building":"commercial","shop":"supermarket","other":{"addr:city":"Holywell","addr:postcode":"CH8 7AN","addr:street":"Strand Walk","brand":"Tesco","brand:wikidata":"Q487494","brand:wikipedia":"en:Tesco","fhrs:id":"96826","opening_hours":"Mo-Sa 06:00-23:00;Su 10:00-16:00","operator":"Tesco Plc","phone":"+44 345 6719444"}}, "geometry":{"type":"MultiPolygon","coordinates":[[[[-3.22175,53.27458],[-3.2217,53.27462],[-3.22165,53.2746],[-3.22121,53.27492],[-3.22128,53.27495],[-3.22138,53.27502],[-3.22168,53.27516],[-3.22194,53.27521],[-3.22211,53.27517],[-3.22225,53.27501],[-3.22214,53.27496],[-3.2222,53.27492],[-3.22223,53.27479],[-3.22175,53.27458]]]]}},
{ "type":"Feature","properties":{"osm_way_id":"294015195","name":"Lidl","building":"yes","shop":"supermarket","other":{"addr:city":"Holywell","addr:postcode":"CH8 7UP","addr:street":"Coleshill Street","brand":"Lidl","brand:wikidata":"Q151954","brand:wikipedia":"en:Lidl","fhrs:id":"654668","opening_hours":"Mo-Sa 08:00-20:00; Su 10:30-16:30","payment:cash":"yes","payment:credit_cards":"yes"}}, "geometry":{"type":"MultiPolygon","coordinates":[[[[-3.21856,53.27308],[-3.21869,53.27281],[-3.21849,53.27278],[-3.21848,53.27281],[-3.21776,53.27268],[-3.21767,53.27285],[-3.21759,53.27284],[-3.21755,53.27291],[-3.21856,53.27308]]]]}},
{ "type":"Feature","properties":{"osm_way_id":"298347906","name":"Morrisons","building":"supermarket","shop":"supermarket","other":{"addr:postcode":"CH5 4WL","addr:street":"The Freme","alt_name":"Morrisons Connahs Quay","brand":"Morrisons","brand:wikidata":"Q922344","brand:wikipedia":"en:Morrisons","fhrs:id":"455822","website":"https:\/\/my.morrisons.com\/storefinder\/440"}}, "geometry":{"type":"MultiPolygon","coordinates":[[[[-3.07475,53.21396],[-3.07477,53.21394],[-3.07487,53.21398],[-3.07489,53.21396],[-3.07492,53.21397],[-3.07503,53.21386],[-3.0752,53.21393],[-3.07527,53.21385],[-3.07522,53.21383],[-3.07533,53.21372],[-3.07521,53.21368],[-3.07433,53.21336],[-3.07386,53.21381],[-3.07414,53.21392],[-3.0745,53.21405],[-3.07446,53.21409],[-3.07458,53.21413],[-3.07462,53.21408],[-3.07475,53.21396]]]]}},
{ "type":"Feature","properties":{"osm_way_id":"299439315","name":"Lidl","building":"retail","shop":"supermarket","other":{"addr:country":"GB","addr:housename":"Deeside Retail Park","addr:postcode":"CH5 1QJ","addr:street":"Chester Road East","brand":"Lidl","brand:wikidata":"Q151954","brand:wikipedia":"en:Lidl","fhrs:id":"1111661"}}, "geometry":{"type":"MultiPolygon","coordinates":[[[[-3.02917,53.2089],[-3.02875,53.2093],[-3.02879,53.20932],[-3.02872,53.20938],[-3.0287,53.2094],[-3.02857,53.20936],[-3.02862,53.20931],[-3.02845,53.20925],[-3.02887,53.20885],[-3.02893,53.20887],[-3.02897,53.20883],[-3.02917,53.2089]]]]}},
{ "type":"Feature","properties":{"osm_way_id":"556685699","name":"Aldi","building":"retail","shop":"supermarket","other":{"addr:housename":"Aldi Supermarket","brand":"ALDI","brand:wikidata":"Q41171672","brand:wikipedia":"en:Aldi","building:levels":"1","opening_hours":"Mo-Sa 08:00-22:00; Su 10:00-16:00"}}, "geometry":{"type":"MultiPolygon","coordinates":[[[[-3.07937,53.16545],[-3.07934,53.16554],[-3.07938,53.16555],[-3.07935,53.16565],[-3.07939,53.16565],[-3.07936,53.16574],[-3.07941,53.16575],[-3.07935,53.16596],[-3.07911,53.16594],[-3.07911,53.16597],[-3.0787,53.16593],[-3.07877,53.16571],[-3.07879,53.16571],[-3.07888,53.16542],[-3.07892,53.1654],[-3.07937,53.16545]]]]}},
{ "type":"Feature","properties":{"osm_way_id":"574397111","name":"Tesco Extra","building":"yes","shop":"supermarket","other":{"addr:postcode":"CH4 0DP","addr:street":"Chester Road","brand":"Tesco Extra","brand:wikidata":"Q25172225","brand:wikipedia":"en:Tesco Extra","fhrs:id":"346681","opening_hours":"Mo-Sa 06:00-00:00; Su 11:00-17:00; PH 11:00-17:00","source:addr":"FHRS Open Data"}}, "geometry":{"type":"MultiPolygon","coordinates":[[[[-2.97339,53.16894],[-2.97419,53.16897],[-2.97419,53.16904],[-2.97468,53.16906],[-2.97459,53.16977],[-2.97408,53.16975],[-2.97408,53.16977],[-2.97381,53.16976],[-2.97381,53.16979],[-2.97329,53.16977],[-2.9733,53.16971],[-2.97321,53.16971],[-2.97323,53.16957],[-2.97331,53.16958],[-2.97332,53.16954],[-2.97339,53.16894]]]]}},
{ "type":"Feature","properties":{"osm_way_id":"574397114","name":"M&S Simply Food","building":"retail","shop":"supermarket","other":{"addr:postcode":"CH4 0DP","addr:street":"Chester Road","brand":"M&S Simply Food","brand:wikidata":"Q714491","brand:wikipedia":"en:Marks & Spencer","fhrs:id":"844641","source:addr":"FHRS Open Data"}}, "geometry":{"type":"MultiPolygon","coordinates":[[[[-2.97238,53.16937],[-2.97224,53.16936],[-2.97223,53.16942],[-2.97215,53.16942],[-2.97216,53.16935],[-2.972,53.16935],[-2.97206,53.16888],[-2.97244,53.1689],[-2.97238,53.16937]]]]}},
{ "type":"Feature","properties":{"osm_way_id":"574462806","name":"Aldi","building":"yes","shop":"supermarket","other":{"addr:postcode":"CH4 0DP","addr:street":"Chester Road","brand":"ALDI","brand:wikidata":"Q41171672","brand:wikipedia":"en:Aldi","fhrs:id":"844636","source:addr":"FHRS Open Data"}}, "geometry":{"type":"MultiPolygon","coordinates":[[[[-2.97852,53.16951],[-2.97852,53.16968],[-2.97858,53.16968],[-2.97858,53.16978],[-2.97853,53.16978],[-2.97853,53.16998],[-2.97843,53.16998],[-2.97843,53.17],[-2.97795,53.17001],[-2.97795,53.16979],[-2.97799,53.16979],[-2.97798,53.16957],[-2.97808,53.16957],[-2.97808,53.1695],[-2.97841,53.16949],[-2.97841,53.16952],[-2.97852,53.16951]]]]}}
]
}
