{
"type": "FeatureCollection",
"features": [
{ "type":"Feature","properties":{"osm_id":"963196354","name":"The Co-operative Food","other":{"operator":"Central England Co-operative","shop":"supermarket"}}, "geometry":{"type":"Point","coordinates":[-1.88021,52.53853 ]}},
{ "type":"Feature","properties":{"osm_id":"1034371299","name":"Nisa","other":{"addr:city":"Kington","addr:postcode":"HR5 3BJ","addr:street":"High Street","shop":"supermarket"}}, "geometry":{"type":"Point","coordinates":[-3.0304,52.20328 ]}},
{ "type":"Feature","properties":{"osm_id":"1037753100","name":"Spar","other":{"addr:street":"Church Street","brand":"Spar","brand:wikidata":"Q610492","brand:wikipedia":"en:SPAR (retailer)","shop":"supermarket"}}, "geometry":{"type":"Point","coordinates":[-3.03154,52.20335 ]}},
{ "type":"Feature","properties":{"osm_id":"4268282453","name":"Poundstretcher\/PetHut","other":{"shop":"supermarket"}}, "geometry":{"type":"Point","coordinates":[-2.70631,52.05955 ]}},
{ "type":"Feature","properties":{"osm_id":"7139526539","name":"Four Seasons","other":{"addr:city":"Leominster","addr:housenumber":"25","addr:postcode":"HR6 8ND","addr:street":"Drapers Lane","opening_hours":"Mo-Sa 09:00-17:00","payment:cash":"yes","payment:mastercard":"yes","payment:visa":"yes","shop":"supermarket"}}, "geometry":{"type":"Point","coordinates":[-2.73828,52.22748 ]}},
{ "type":"Feature","properties":{"osm_way_id":"34115162","name":"The Co-operative","building":"supermarket","shop":"supermarket","other":{"addr:city":"Hereford","addr:country":"GB","addr:postcode":"HR4 9LT","addr:street":"Kempton Avenue","fhrs:id":"488130","operator":"Co-Op"}}, "geometry":{"type":"MultiPolygon","coordinates":[[[[-2.74366,52.07388],[-2.74367,52.07418],[-2.74274,52.07418],[-2.74273,52.07386],[-2.74285,52.07386],[-2.74284,52.0737],[-2.74343,52.0737],[-2.74366,52.07388]]]]}},
{ "type":"Feature","properties":{"osm_way_id":"34233560","name":"Sainsbury's","building":"yes","shop":"supermarket","other":{"brand":"Sainsbury's","brand:wikidata":"Q152096","brand:wikipedia":"en:Sainsbury's","opening_hours":"Mo-Sa 07:00-22:00; Su 10:00-16:00"}}, "geometry":{"type":"MultiPolygon","coordinates":[[[[-2.72566,52.055],[-2.72549,52.05435],[-2.72529,52.05437],[-2.72525,52.05434],[-2.725,52.05437],[-2.72496,52.05425],[-2.72427,52.05435],[-2.7241,52.0545],[-2.72401,52.05451],[-2.72418,52.05513],[-2.72454,52.0551],[-2.72456,52.05518],[-2.72494,52.05514],[-2.72492,52.05507],[-2.72513,52.05505],[-2.72515,52.05513],[-2.72556,52.05509],[-2.72554,52.05502],[-2.72566,52.055]]]]}},
{ "type":"Feature","properties":{"osm_way_id":"34233621","name":"Aldi","building":"yes","shop":"supermarket","other":{"brand":"ALDI","brand:wikidata":"Q41171672","brand:wikipedia":"en:Aldi"}}, "geometry":{"type":"MultiPolygon","coordinates":[[[[-2.7231,52.05775],[-2.72346,52.05784],[-2.72314,52.05835],[-2.72294,52.0584],[-2.72277,52.05818],[-2.72284,52.05816],[-2.7231,52.05775]]]]}},
{ "type":"Feature","properties":{"osm_way_id":"34397237","name":"Asda","building":"yes","shop":"supermarket","other":{"addr:city":"Hereford","addr:country":"GB","addr:postcode":"HR2 7JE","addr:street":"Belmont Road","brand":"Asda","brand:wikidata":"Q297410","brand:wikipedia":"en:Asda","contact:facebook":"https:\/\/www.facebook.com\/asda\/","contact:twitter":"@asda","contact:website":"https:\/\/storelocator.asda.com\/west-midlands\/hereford\/belmont-road","fhrs:id":"489633","operator":"Asda Stores Ltd"}}, "geometry":{"type":"MultiPolygon","coordinates":[[[[-2.72229,52.05045],[-2.72167,52.05004],[-2.7216,52.05004],[-2.72155,52.05],[-2.72155,52.04996],[-2.72159,52.04993],[-2.72165,52.04992],[-2.72221,52.0496],[-2.72215,52.04957],[-2.72227,52.0495],[-2.72224,52.04942],[-2.72237,52.0494],[-2.7224,52.04943],[-2.72255,52.04935],[-2.72273,52.04945],[-2.72294,52.04933],[-2.72304,52.04933],[-2.72342,52.04959],[-2.72317,52.04974],[-2.72335,52.04986],[-2.72229,52.05045]]]]}},
{ "type":"Feature","properties":{"osm_way_id":"151633050","name":"The Co-operative Food","building":"retail","shop":"supermarket","other":{"addr:city":"Bromyard","addr:country":"GB","addr:postcode":"HR7 4LW","addr:street":"Tenbury Road","fhrs:authority":"Herefordshire","fhrs:id":"489394","source:addr":"survey","wheelchair":"yes"}}, "geometry":{"type":"MultiPolygon","coordinates":[[[[-2.50947,52.19167],[-2.50941,52.19153],[-2.50934,52.19137],[-2.50879,52.19145],[-2.50881,52.19152],[-2.50859,52.19155],[-2.50868,52.19179],[-2.50873,52.19179],[-2.50942,52.19168],[-2.50947,52.19167]]]]}},
{ "type":"Feature","properties":{"osm_way_id":"157436498","name":"Morrisons","building":"supermarket","shop":"supermarket","other":{"addr:city":"Hereford","addr:postcode":"HR1 1DN","addr:street":"Station Approach","brand":"Morrisons","brand:wikidata":"Q922344","brand:wikipedia":"en:Morrisons","fhrs:id":"489597","source:addr":"FHRS Open Data"}}, "geometry":{"type":"MultiPolygon","coordinates":[[[[-2.71066,52.05969],[-2.71057,52.05959],[-2.71076,52.05952],[-2.71074,52.05949],[-2.71082,52.05947],[-2.71089,52.05935],[-2.71076,52.05922],[-2.71055,52.05922],[-2.71049,52.05924],[-2.71048,52.05923],[-2.71041,52.05925],[-2.71036,52.0592],[-2.71022,52.05925],[-2.71012,52.05915],[-2.70945,52.05939],[-2.7099,52.05988],[-2.70996,52.05994],[-2.71066,52.05969]]]]}},
{ "type":"Feature","properties":{"osm_way_id":"163568139","name":"Tesco","building":"yes","shop":"supermarket","other":{"addr:postcode":"HR8 1DQ","addr:street":"Orchard Lane","alt_name":"Tesco Ledbury Superstore","brand":"Tesco","brand:wikidata":"Q487494","brand:wikipedia":"en:Tesco","fhrs:id":"487988","operator":"Tesco"}}, "geometry":{"type":"MultiPolygon","coordinates":[[[[-2.42675,52.04139],[-2.42656,52.04088],[-2.42648,52.0409],[-2.42646,52.04084],[-2.42628,52.04087],[-2.42629,52.04091],[-2.42604,52.04095],[-2.42611,52.04112],[-2.42606,52.04112],[-2.42615,52.04137],[-2.4262,52.04136],[-2.42624,52.04147],[-2.42675,52.04139]]]]}},
{ "type":"Feature","properties":{"osm_way_id":"163571026","name":"Lidl","building":"yes","shop":"supermarket","other":{"addr:city":"Hereford","addr:postcode":"HR1 2BQ","addr:street":"Brook Retail Park","addr:unit":"B","brand":"Lidl","brand:wikidata":"Q151954","brand:wikipedia":"en:Lidl","fhrs:id":"488023","source:addr":"FHRS Open Data"}}, "geometry":{"type":"MultiPolygon","coordinates":[[[[-2.70611,52.05886],[-2.70593,52.05867],[-2.70569,52.05875],[-2.70555,52.05861],[-2.70518,52.05874],[-2.70549,52.05907],[-2.70611,52.05886]]]]}},
{ "type":"Feature","properties":{"osm_way_id":"163571027","name":"Tesco","building":"yes","shop":"supermarket","other":{"addr:city":"Hereford","addr:postcode":"HR4 0BW","addr:street":"Bewell Street","brand":"Tesco","brand:wikidata":"Q487494","brand:wikipedia":"en:Tesco","fhrs:id":"488350","layer":"-1","level":"1","source:addr":"FHRS Open Data"}}, "geometry":{"type":"MultiPolygon","coordinates":[[[[-2.71971,52.0567],[-2.71884,52.05672],[-2.71876,52.05676],[-2.71879,52.05724],[-2.71872,52.05729],[-2.7188,52.05734],[-2.71887,52.05729],[-2.71969,52.05728],[-2.7197,52.05745],[-2.71978,52.05744],[-2.71986,52.05742],[-2.71993,52.05739],[-2.71999,52.05736],[-2.72011,52.05713],[-2.72005,52.05708],[-2.7197,52.05708],[-2.71971,52.0567]]]]}},
{ "type":"Feature","properties":{"osm_way_id":"163571415","name":"Tesco","building":"yes","shop":"supermarket","other":{"addr:city":"Belmont","addr:postcode":"HR2 7XS","addr:street":"Abbotsmead Rd","brand":"Tesco","brand:wikidata":"Q487494","brand:wikipedia":"en:Tesco","opening_hours":"Mo-Sa 06:00-23:49, Su 10:00-16:00","phone":"+44 345 677 9350","website":"https:\/\/www.tesco.com\/store-locator\/hereford\/abbotsmead-rd"}}, "geometry":{"type":"MultiPolygon","coordinates":[[[[-2.74096,52.04261],[-2.74051,52.04226],[-2.74057,52.04223],[-2.74025,52.04199],[-2.74031,52.04196],[-2.74016,52.04185],[-2.74006,52.04189],[-2.73989,52.04177],[-2.73918,52.04203],[-2.73968,52.04245],[-2.73969,52.04249],[-2.73967,52.04251],[-2.7402,52.04288],[-2.74025,52.04286],[-2.74031,52.04288],[-2.74037,52.04289],[-2.7405,52.04282],[-2.74036,52.0427],[-2.74057,52.04259],[-2.7405,52.04254],[-2.74066,52.04246],[-2.74089,52.04264],[-2.74096,52.04261]]]]}},
{ "type":"Feature","properties":{"osm_way_id":"184612090","name":"Sainsbury's","building":"yes","shop":"supermarket","other":{"addr:postcode":"HR9 7YB","addr:street":"The Maltings","brand":"Sainsbury's","brand:wikidata":"Q152096","brand:wikipedia":"en:Sainsbury's"}}, "geometry":{"type":"MultiPolygon","coordinates":[[[[-2.58163,51.91523],[-2.58161,51.91527],[-2.58153,51.91542],[-2.58152,51.91544],[-2.58146,51.91558],[-2.58154,51.91559],[-2.5815,51.91567],[-2.581,51.91557],[-2.58122,51.91515],[-2.58163,51.91523]]]]}},
{ "type":"Feature","properties":{"osm_way_id":"187036803","name":"Co-op Food","building":"retail","shop":"supermarket","other":{"brand":"Co-op Food","brand:wikidata":"Q3277439","brand:wikipedia":"en:Co-op Food","wheelchair":"yes"}}, "geometry":{"type":"MultiPolygon","coordinates":[[[[-3.12296,52.07974],[-3.12259,52.08015],[-3.1229,52.08025],[-3.12326,52.07985],[-3.12296,52.07974]]]]}},
{ "type":"Feature","properties":{"osm_way_id":"188524506","name":"Morrisons","building":"yes","shop":"supermarket","other":{"addr:city":"Ross-on-Wye","addr:housenumber":"1","addr:postcode":"HR9 7AQ","addr:street":"Station Street","brand":"Morrisons","brand:wikidata":"Q922344","brand:wikipedia":"en:Morrisons","fhrs:id":"488890","source:addr":"fhrs opendata"}}, "geometry":{"type":"MultiPolygon","coordinates":[[[[-2.57942,51.91644],[-2.57911,51.91602],[-2.57894,51.91607],[-2.57893,51.91605],[-2.57882,51.91608],[-2.57883,51.9161],[-2.57876,51.91612],[-2.57878,51.91616],[-2.57827,51.9163],[-2.57866,51.91684],[-2.57874,51.91682],[-2.57881,51.91692],[-2.57904,51.91696],[-2.57918,51.91695],[-2.57911,51.91685],[-2.57959,51.91672],[-2.57947,51.91656],[-2.57958,51.91653],[-2.5795,51.91642],[-2.57942,51.91644]]]]}},
{ "type":"Feature","properties":{"osm_way_id":"189035471","name":"Griffiths","building":"yes","shop":"supermarket"},"geometry":{"type":"MultiPolygon","coordinates":[[[[-2.877,52.36043],[-2.87702,52.36024],[-2.87691,52.36024],[-2.8769,52.36027],[-2.87689,52.36031],[-2.8769,52.36036],[-2.87687,52.36036],[-2.87687,52.36042],[-2.877,52.36043]]]]}},
{ "type":"Feature","properties":{"osm_way_id":"193547004","name":"The Co-operative Food","building":"yes","shop":"supermarket","other":{"addr:city":"Kington","addr:country":"GB","addr:postcode":"HR5 3UD","addr:street":"Crabtree Road","fhrs:id":"489150","operator":"The Co-operative Group"}}, "geometry":{"type":"MultiPolygon","coordinates":[[[[-3.03033,52.20233],[-3.03026,52.20236],[-3.03023,52.20233],[-3.03011,52.20238],[-3.03014,52.20241],[-3.03003,52.20245],[-3.03001,52.20244],[-3.02965,52.20211],[-3.02996,52.20199],[-3.03033,52.20233]]]]}},
{ "type":"Feature","properties":{"osm_way_id":"206279441","name":"European Foods","building":"yes","shop":"supermarket"},"geometry":{"type":"MultiPolygon","coordinates":[[[[-2.58133,51.91387],[-2.58133,51.91388],[-2.58131,51.91396],[-2.58124,51.91396],[-2.58124,51.9139],[-2.58125,51.91389],[-2.58128,51.91388],[-2.58129,51.91388],[-2.58129,51.91387],[-2.58133,51.91387]]]]}},
{ "type":"Feature","properties":{"osm_way_id":"206279450","name":"Wyedean Healthfoods","building":"yes","shop":"supermarket","other":{"organic":"only"}}, "geometry":{"type":"MultiPolygon","coordinates":[[[[-2.58291,51.91401],[-2.58275,51.91399],[-2.58271,51.91414],[-2.58285,51.91415],[-2.58286,51.91413],[-2.58288,51.91407],[-2.58289,51.91407],[-2.58291,51.91401]]]]}},
{ "type":"Feature","properties":{"osm_way_id":"233567237","name":"SPAR","building":"yes","shop":"supermarket","other":{"addr:housename":"Newton Cross Garage","addr:postcode":"HR8 2TZ","brand":"Spar","brand:wikidata":"Q610492","designation":"Lower Eggleton"}}, "geometry":{"type":"MultiPolygon","coordinates":[[[[-2.56093,52.10131],[-2.56058,52.10128],[-2.56057,52.10135],[-2.56056,52.10139],[-2.56085,52.10141],[-2.56085,52.10138],[-2.56091,52.10138],[-2.56093,52.10131]]]]}},
{ "type":"Feature","properties":{"osm_way_id":"285120264","name":"Aldi","building":"yes","shop":"supermarket","other":{"addr:city":"Ross-on-Wye","addr:country":"GB","addr:postcode":"HR9 7EE","addr:street":"Brookend Street","brand":"ALDI","brand:wikidata":"Q41171672","brand:wikipedia":"en:Aldi","contact:website":"https:\/\/www.aldi.co.uk\/store\/s-uk-E0648"}}, "geometry":{"type":"MultiPolygon","coordinates":[[[[-2.58203,51.9163],[-2.58183,51.91652],[-2.58246,51.91675],[-2.58258,51.91661],[-2.58266,51.91664],[-2.58271,51.91658],[-2.58259,51.91653],[-2.58262,51.91651],[-2.58203,51.9163]]]]}},
{ "type":"Feature","properties":{"osm_way_id":"288716847","name":"Morrisons","building":"yes","shop":"supermarket","other":{"addr:postcode":"HR6 8RN","addr:street":"Barons Cross Road","alt_name":"Morrisons Leominster","brand":"Morrisons","brand:wikidata":"Q922344","brand:wikipedia":"en:Morrisons"}}, "geometry":{"type":"MultiPolygon","coordinates":[[[[-2.75722,52.22351],[-2.75695,52.22313],[-2.75613,52.22334],[-2.75626,52.22353],[-2.75611,52.22356],[-2.75606,52.2238],[-2.75617,52.22394],[-2.75635,52.22389],[-2.75641,52.22399],[-2.75701,52.22383],[-2.75704,52.22387],[-2.75745,52.22377],[-2.75748,52.22374],[-2.75751,52.22372],[-2.75742,52.22364],[-2.75747,52.22362],[-2.75736,52.22347],[-2.75722,52.22351]]]]}},
{ "type":"Feature","properties":{"osm_way_id":"288716848","name":"The Co-operative Food","building":"yes","shop":"supermarket","other":{"addr:city":"Leominster","addr:postcode":"HR6 8PX","addr:street":"Dishley Street"}}, "geometry":{"type":"MultiPolygon","coordinates":[[[[-2.74131,52.22644],[-2.74105,52.22612],[-2.74066,52.22624],[-2.74075,52.22635],[-2.74076,52.22636],[-2.74093,52.22657],[-2.74099,52.22655],[-2.74103,52.2266],[-2.74129,52.22652],[-2.74124,52.22646],[-2.74131,52.22644]]]]}},
{ "type":"Feature","properties":{"osm_way_id":"288716849","name":"ALDI","building":"yes","shop":"supermarket","other":{"addr:city":"Leominster","addr:postcode":"HR6 8NY","addr:street":"Dishley Street","alt_name":"ALDI Leominster","brand":"ALDI","brand:wikidata":"Q41171672","brand:wikipedia":"en:Aldi"}}, "geometry":{"type":"MultiPolygon","coordinates":[[[[-2.74068,52.22556],[-2.74069,52.22542],[-2.74061,52.22542],[-2.74063,52.22513],[-2.74037,52.22512],[-2.74037,52.22505],[-2.74023,52.22504],[-2.74018,52.22554],[-2.74068,52.22556]]]]}},
{ "type":"Feature","properties":{"osm_way_id":"315332416","name":"Riverford Organic Farms wholesalers","building":"yes","shop":"supermarket","other":{"organic":"only"}}, "geometry":{"type":"MultiPolygon","coordinates":[[[[-2.43548,52.03759],[-2.43513,52.03753],[-2.43524,52.0373],[-2.43528,52.03731],[-2.4354,52.03733],[-2.43542,52.03728],[-2.4355,52.0373],[-2.43561,52.03732],[-2.43554,52.03747],[-2.43548,52.03759]]]]}},
{ "type":"Feature","properties":{"osm_way_id":"479887835","name":"Waitrose","building":"retail","shop":"supermarket","other":{"addr:street":"Auctioneer Walk","addr:unit":"10","brand":"Waitrose","brand:wikidata":"Q771734","brand:wikipedia":"en:Waitrose & Partners","official_name":"Waitrose & Partners","operator":"Waitrose & Partners","toilets:wheelchair":"yes","wheelchair":"yes","wheelchair:description":"Honestly the best accessible toilet I've ever used. Also has an accessible toilet for those needing a great amount of assistance: hoist, very large room etc"}}, "geometry":{"type":"MultiPolygon","coordinates":[[[[-2.71787,52.05938],[-2.71791,52.05929],[-2.718,52.0593],[-2.71803,52.05922],[-2.71799,52.05922],[-2.71803,52.05911],[-2.71807,52.05911],[-2.71808,52.05909],[-2.71821,52.05912],[-2.71823,52.05906],[-2.71878,52.05914],[-2.71869,52.0594],[-2.71877,52.05941],[-2.71877,52.05944],[-2.7188,52.05944],[-2.71881,52.05942],[-2.71889,52.05943],[-2.71887,52.05949],[-2.71879,52.05948],[-2.71878,52.05951],[-2.71797,52.05939],[-2.71787,52.05938]]]]}},
{ "type":"Feature","properties":{"osm_way_id":"701085859","name":"The co-operative food","landuse":"commercial","shop":"supermarket","other":{"addr:postcode":"HR8 2EZ","addr:street":"New Street","alt_name":"The Co-operative Food","operator":"Co-op"}}, "geometry":{"type":"MultiPolygon","coordinates":[[[[-2.42471,52.03533],[-2.42524,52.0352],[-2.42558,52.03507],[-2.42589,52.03488],[-2.42586,52.03486],[-2.42547,52.03452],[-2.42538,52.03455],[-2.42531,52.0345],[-2.42493,52.03469],[-2.42458,52.03475],[-2.42423,52.03485],[-2.4244,52.03516],[-2.42456,52.03512],[-2.42472,52.03525],[-2.42471,52.03533]]]]}},
{ "type":"Feature","properties":{"osm_way_id":"714680591","name":"Dino Asian Supermarket","building":"retail","shop":"supermarket"},"geometry":{"type":"MultiPolygon","coordinates":[[[[-2.72038,52.04903],[-2.7203,52.04908],[-2.7202,52.04901],[-2.72009,52.04895],[-2.72022,52.04886],[-2.72039,52.04897],[-2.72033,52.049],[-2.72038,52.04903]]]]}},
{ "type":"Feature","properties":{"osm_way_id":"722997288","name":"B&M Home Store","building":"retail","shop":"supermarket","other":{"addr:place":"Salmon Retail Park","addr:postcode":"HR4 9SA","addr:street":"Holmer Road","addr:unit":"Unit 1","fhrs:id":"487704","source:addr":"FHRS Open Data"}}, "geometry":{"type":"MultiPolygon","coordinates":[[[[-2.72124,52.06818],[-2.72157,52.06786],[-2.72091,52.06761],[-2.72059,52.06793],[-2.72094,52.06806],[-2.72124,52.06818]]]]}},
{ "type":"Feature","properties":{"osm_way_id":"789647673","landuse":"residential"},"geometry":{"type":"MultiPolygon","coordinates":[[[[-2.71803,52.17499],[-2.71681,52.17507],[-2.71682,52.17497],[-2.71598,52.17481],[-2.71544,52.17473],[-2.7156,52.17434],[-2.71606,52.1744],[-2.71622,52.17412],[-2.71803,52.17499]]]]}},
{ "type":"Feature","properties":{"osm_way_id":"831711817","name":"Field Fare","building":"yes","shop":"supermarket","other":{"organic":"only"}}, "geometry":{"type":"MultiPolygon","coordinates":[[[[-2.5829,51.91532],[-2.58286,51.91535],[-2.58289,51.91537],[-2.58286,51.91539],[-2.58283,51.91537],[-2.58274,51.91532],[-2.58281,51.91528],[-2.5829,51.91532]]]]}},
{ "type":"Feature","properties":{"osm_way_id":"832212036","name":"ALDI","building":"retail","shop":"supermarket","other":{"brand":"ALDI","brand:wikidata":"Q41171672","brand:wikipedia":"en:Aldi"}}, "geometry":{"type":"MultiPolygon","coordinates":[[[[-2.43572,52.03843],[-2.43555,52.03846],[-2.43559,52.03854],[-2.43532,52.03858],[-2.43516,52.03816],[-2.43527,52.03814],[-2.43522,52.03801],[-2.43554,52.03797],[-2.43572,52.03843]]]]}}
]
}
