{
"type": "FeatureCollection",
"features": [
{ "type":"Feature","properties":{"osm_id":"266664474","other":{"amenity":"parking"}}, "geometry":{"type":"Point","coordinates":[-3.58976,50.53186 ]}},
{ "type":"Feature","properties":{"osm_id":"478940524","other":{"access":"private","amenity":"parking","capacity":"1"}}, "geometry":{"type":"Point","coordinates":[-3.59153,50.66286 ]}},
{ "type":"Feature","properties":{"osm_id":"478940543","other":{"amenity":"parking","parking":"surface"}}, "geometry":{"type":"Point","coordinates":[-3.59157,50.66183 ]}},
{ "type":"Feature","properties":{"osm_id":"518700476","other":{"amenity":"parking"}}, "geometry":{"type":"Point","coordinates":[-3.52745,50.61667 ]}},
{ "type":"Feature","properties":{"osm_id":"703621275","name":"Eastcliff Car Park","other":{"access":"yes","amenity":"parking","fee":"yes","female":"yes","male":"yes","parking":"surface","wheelchair":"yes"}}, "geometry":{"type":"Point","coordinates":[-3.49218,50.54912 ]}},
{ "type":"Feature","properties":{"osm_id":"864687434","other":{"amenity":"parking"}}, "geometry":{"type":"Point","coordinates":[-3.54063,50.63915 ]}},
{ "type":"Feature","properties":{"osm_id":"886685608","other":{"amenity":"parking"}}, "geometry":{"type":"Point","coordinates":[-3.84311,50.61317 ]}},
{ "type":"Feature","properties":{"osm_id":"945778206","other":{"amenity":"parking"}}, "geometry":{"type":"Point","coordinates":[-3.7444,50.5267 ]}},
{ "type":"Feature","properties":{"osm_id":"1008220945","other":{"amenity":"parking","fee":"no","parking":"surface"}}, "geometry":{"type":"Point","coordinates":[-3.67118,50.72915 ]}},
{ "type":"Feature","properties":{"osm_id":"1008221618","other":{"access":"yes","amenity":"parking","fee":"no","parking":"surface"}}, "geometry":{"type":"Point","coordinates":[-3.66567,50.72681 ]}},
{ "type":"Feature","properties":{"osm_id":"1008221653","other":{"amenity":"parking","fee":"no","parking":"surface"}}, "geometry":{"type":"Point","coordinates":[-3.59859,50.72002 ]}},
{ "type":"Feature","properties":{"osm_id":"1008221755","other":{"access":"yes","amenity":"parking","fee":"no","parking":"surface"}}, "geometry":{"type":"Point","coordinates":[-3.69692,50.72887 ]}},
{ "type":"Feature","properties":{"osm_id":"1008221778","other":{"access":"yes","amenity":"parking","fee":"no","parking":"surface"}}, "geometry":{"type":"Point","coordinates":[-3.71263,50.7262 ]}},
{ "type":"Feature","properties":{"osm_id":"1008221827","other":{"amenity":"parking","fee":"no","parking":"surface"}}, "geometry":{"type":"Point","coordinates":[-3.5327,50.68839 ]}},
{ "type":"Feature","properties":{"osm_id":"1008222180","other":{"amenity":"parking","fee":"no","parking":"surface"}}, "geometry":{"type":"Point","coordinates":[-3.60287,50.72207 ]}},
{ "type":"Feature","properties":{"osm_id":"1008222807","other":{"amenity":"parking","fee":"no","parking":"surface"}}, "geometry":{"type":"Point","coordinates":[-3.63251,50.72478 ]}},
{ "type":"Feature","properties":{"osm_id":"1008222960","other":{"amenity":"parking","fee":"no","parking":"surface"}}, "geometry":{"type":"Point","coordinates":[-3.57035,50.71438 ]}},
{ "type":"Feature","properties":{"osm_id":"1008223030","other":{"access":"yes","amenity":"parking","fee":"no","parking":"surface"}}, "geometry":{"type":"Point","coordinates":[-3.6289,50.7236 ]}},
{ "type":"Feature","properties":{"osm_id":"1138086350","other":{"amenity":"parking"}}, "geometry":{"type":"Point","coordinates":[-3.60337,50.55896 ]}},
{ "type":"Feature","properties":{"osm_id":"1138110462","other":{"amenity":"parking"}}, "geometry":{"type":"Point","coordinates":[-3.60312,50.55571 ]}},
{ "type":"Feature","properties":{"osm_id":"1228164107","other":{"access":"customers","amenity":"parking","operator":"Langstone Cliff Hotel","parking":"surface"}}, "geometry":{"type":"Point","coordinates":[-3.44673,50.59432 ]}},
{ "type":"Feature","properties":{"osm_id":"1228164410","other":{"access":"customers","amenity":"parking","operator":"Langstone Cliff Hotel","parking":"surface"}}, "geometry":{"type":"Point","coordinates":[-3.44612,50.59419 ]}},
{ "type":"Feature","properties":{"osm_id":"1408804923","highway":"crossing","other":{"crossing":"uncontrolled","crossing_ref":"zebra"}}, "geometry":{"type":"Point","coordinates":[-3.59412,50.5243 ]}},
{ "type":"Feature","properties":{"osm_id":"1437791487","other":{"amenity":"parking"}}, "geometry":{"type":"Point","coordinates":[-3.59383,50.60752 ]}},
{ "type":"Feature","properties":{"osm_id":"1437791654","other":{"amenity":"parking"}}, "geometry":{"type":"Point","coordinates":[-3.59341,50.60621 ]}},
{ "type":"Feature","properties":{"osm_id":"1717942053","other":{"amenity":"parking"}}, "geometry":{"type":"Point","coordinates":[-3.69255,50.64192 ]}},
{ "type":"Feature","properties":{"osm_id":"1775075289","other":{"amenity":"parking","parking":"layby"}}, "geometry":{"type":"Point","coordinates":[-3.55647,50.64532 ]}},
{ "type":"Feature","properties":{"osm_id":"1775075391","other":{"amenity":"parking"}}, "geometry":{"type":"Point","coordinates":[-3.54504,50.6466 ]}},
{ "type":"Feature","properties":{"osm_id":"1775075436","other":{"amenity":"parking"}}, "geometry":{"type":"Point","coordinates":[-3.54251,50.64583 ]}},
{ "type":"Feature","properties":{"osm_id":"1775075491","other":{"amenity":"parking"}}, "geometry":{"type":"Point","coordinates":[-3.54308,50.63498 ]}},
{ "type":"Feature","properties":{"osm_id":"1793648118","other":{"access":"yes","amenity":"parking","fee":"no"}}, "geometry":{"type":"Point","coordinates":[-3.77859,50.571 ]}},
{ "type":"Feature","properties":{"osm_id":"1793648125","other":{"amenity":"parking","capacity":"8"}}, "geometry":{"type":"Point","coordinates":[-3.77419,50.571 ]}},
{ "type":"Feature","properties":{"osm_id":"1803104385","other":{"amenity":"parking"}}, "geometry":{"type":"Point","coordinates":[-3.67706,50.56964 ]}},
{ "type":"Feature","properties":{"osm_id":"1803104389","other":{"amenity":"parking"}}, "geometry":{"type":"Point","coordinates":[-3.66025,50.57046 ]}},
{ "type":"Feature","properties":{"osm_id":"1803104411","other":{"amenity":"parking"}}, "geometry":{"type":"Point","coordinates":[-3.67554,50.56486 ]}},
{ "type":"Feature","properties":{"osm_id":"1807982043","other":{"amenity":"parking","capacity":"20","fee":"no"}}, "geometry":{"type":"Point","coordinates":[-3.61987,50.52713 ]}},
{ "type":"Feature","properties":{"osm_id":"1807997430","other":{"amenity":"parking"}}, "geometry":{"type":"Point","coordinates":[-3.64606,50.46483 ]}},
{ "type":"Feature","properties":{"osm_id":"1876333507","other":{"amenity":"parking"}}, "geometry":{"type":"Point","coordinates":[-3.64519,50.61689 ]}},
{ "type":"Feature","properties":{"osm_id":"1876386265","other":{"amenity":"parking"}}, "geometry":{"type":"Point","coordinates":[-3.56514,50.60414 ]}},
{ "type":"Feature","properties":{"osm_id":"1876419963","other":{"amenity":"parking"}}, "geometry":{"type":"Point","coordinates":[-3.52573,50.56478 ]}},
{ "type":"Feature","properties":{"osm_id":"1885658250","other":{"amenity":"parking"}}, "geometry":{"type":"Point","coordinates":[-3.78013,50.6948 ]}},
{ "type":"Feature","properties":{"osm_id":"1924003452","other":{"amenity":"parking"}}, "geometry":{"type":"Point","coordinates":[-3.64602,50.46426 ]}},
{ "type":"Feature","properties":{"osm_id":"1949210958","other":{"amenity":"parking","capacity":"20"}}, "geometry":{"type":"Point","coordinates":[-3.71305,50.60781 ]}},
{ "type":"Feature","properties":{"osm_id":"1949590911","other":{"amenity":"parking","parking":"street_side"}}, "geometry":{"type":"Point","coordinates":[-3.52112,50.5464 ]}},
{ "type":"Feature","properties":{"osm_id":"1949598796","other":{"amenity":"parking"}}, "geometry":{"type":"Point","coordinates":[-3.51589,50.54762 ]}},
{ "type":"Feature","properties":{"osm_id":"1951107561","other":{"amenity":"parking"}}, "geometry":{"type":"Point","coordinates":[-3.59886,50.60635 ]}},
{ "type":"Feature","properties":{"osm_id":"1978512287","other":{"amenity":"parking"}}, "geometry":{"type":"Point","coordinates":[-3.82657,50.57249 ]}},
{ "type":"Feature","properties":{"osm_id":"1978523146","other":{"access":"customers","amenity":"parking","fee":"no","parking":"surface"}}, "geometry":{"type":"Point","coordinates":[-3.80852,50.57408 ]}},
{ "type":"Feature","properties":{"osm_id":"2098160432","other":{"amenity":"parking","capacity":"5"}}, "geometry":{"type":"Point","coordinates":[-3.72537,50.58296 ]}},
{ "type":"Feature","properties":{"osm_id":"2134914358","other":{"amenity":"parking"}}, "geometry":{"type":"Point","coordinates":[-3.55281,50.68065 ]}},
{ "type":"Feature","properties":{"osm_id":"2185523433","other":{"amenity":"parking"}}, "geometry":{"type":"Point","coordinates":[-3.57173,50.62996 ]}},
{ "type":"Feature","properties":{"osm_id":"2194306237","other":{"amenity":"parking","fee":"no","parking":"surface"}}, "geometry":{"type":"Point","coordinates":[-3.57296,50.71585 ]}},
{ "type":"Feature","properties":{"osm_id":"2238651547","other":{"amenity":"parking","capacity":"3","parking":"surface"}}, "geometry":{"type":"Point","coordinates":[-3.69957,50.66856 ]}},
{ "type":"Feature","properties":{"osm_id":"2238722667","other":{"amenity":"parking","capacity":"10"}}, "geometry":{"type":"Point","coordinates":[-3.66137,50.67749 ]}},
{ "type":"Feature","properties":{"osm_id":"2266277291","other":{"amenity":"parking","capacity":"5"}}, "geometry":{"type":"Point","coordinates":[-3.7631,50.54574 ]}},
{ "type":"Feature","properties":{"osm_id":"2352385397","other":{"amenity":"parking"}}, "geometry":{"type":"Point","coordinates":[-3.53991,50.63706 ]}},
{ "type":"Feature","properties":{"osm_id":"2352385398","other":{"amenity":"parking"}}, "geometry":{"type":"Point","coordinates":[-3.5404,50.63775 ]}},
{ "type":"Feature","properties":{"osm_id":"2414945862","other":{"amenity":"parking","capacity":"60"}}, "geometry":{"type":"Point","coordinates":[-3.64768,50.63141 ]}},
{ "type":"Feature","properties":{"osm_id":"2447523868","other":{"amenity":"parking","capacity":"5"}}, "geometry":{"type":"Point","coordinates":[-3.59218,50.57212 ]}},
{ "type":"Feature","properties":{"osm_id":"2557789062","other":{"amenity":"parking","capacity":"20"}}, "geometry":{"type":"Point","coordinates":[-3.68029,50.59324 ]}},
{ "type":"Feature","properties":{"osm_id":"2557789063","other":{"amenity":"parking","capacity":"7"}}, "geometry":{"type":"Point","coordinates":[-3.68138,50.59397 ]}},
{ "type":"Feature","properties":{"osm_id":"2593256614","other":{"amenity":"parking","capacity":"2"}}, "geometry":{"type":"Point","coordinates":[-3.70654,50.55081 ]}},
{ "type":"Feature","properties":{"osm_id":"2593256615","other":{"amenity":"parking","capacity":"15"}}, "geometry":{"type":"Point","coordinates":[-3.70912,50.55335 ]}},
{ "type":"Feature","properties":{"osm_id":"2649610306","other":{"amenity":"parking","capacity":"5"}}, "geometry":{"type":"Point","coordinates":[-3.75542,50.61266 ]}},
{ "type":"Feature","properties":{"osm_id":"2649610307","other":{"amenity":"parking","capacity":"5"}}, "geometry":{"type":"Point","coordinates":[-3.75573,50.61277 ]}},
{ "type":"Feature","properties":{"osm_id":"2650615211","other":{"amenity":"parking","capacity":"5","parking":"surface"}}, "geometry":{"type":"Point","coordinates":[-3.61486,50.60187 ]}},
{ "type":"Feature","properties":{"osm_id":"2663151812","other":{"amenity":"parking","capacity":"3"}}, "geometry":{"type":"Point","coordinates":[-3.47594,50.6064 ]}},
{ "type":"Feature","properties":{"osm_id":"2729983857","other":{"amenity":"parking","capacity":"3"}}, "geometry":{"type":"Point","coordinates":[-3.72889,50.65373 ]}},
{ "type":"Feature","properties":{"osm_id":"2746071300","other":{"amenity":"parking","capacity":"4"}}, "geometry":{"type":"Point","coordinates":[-3.74048,50.59158 ]}},
{ "type":"Feature","properties":{"osm_id":"2794708379","other":{"amenity":"parking"}}, "geometry":{"type":"Point","coordinates":[-3.69007,50.64181 ]}},
{ "type":"Feature","properties":{"osm_id":"2915681466","other":{"amenity":"parking","capacity":"18"}}, "geometry":{"type":"Point","coordinates":[-3.54119,50.54991 ]}},
{ "type":"Feature","properties":{"osm_id":"2915681470","other":{"amenity":"parking","capacity":"14"}}, "geometry":{"type":"Point","coordinates":[-3.54088,50.55007 ]}},
{ "type":"Feature","properties":{"osm_id":"3059700212","other":{"amenity":"parking"}}, "geometry":{"type":"Point","coordinates":[-3.67788,50.5854 ]}},
{ "type":"Feature","properties":{"osm_id":"3075518876","other":{"amenity":"parking","capacity":"10"}}, "geometry":{"type":"Point","coordinates":[-3.781,50.5586 ]}},
{ "type":"Feature","properties":{"osm_id":"3125474818","other":{"amenity":"parking","capacity":"3"}}, "geometry":{"type":"Point","coordinates":[-3.782,50.68518 ]}},
{ "type":"Feature","properties":{"osm_id":"3125493627","other":{"amenity":"parking","capacity":"6","fee":"no","park_ride":"no","parking":"surface","surface":"dirt"}}, "geometry":{"type":"Point","coordinates":[-3.69937,50.65277 ]}},
{ "type":"Feature","properties":{"osm_id":"3125497399","other":{"amenity":"parking","capacity":"1","fee":"Disabled"}}, "geometry":{"type":"Point","coordinates":[-3.71975,50.65678 ]}},
{ "type":"Feature","properties":{"osm_id":"3148932123","name":"Hillfort Car Park","other":{"amenity":"parking","capacity":"8"}}, "geometry":{"type":"Point","coordinates":[-3.749,50.69064 ]}},
{ "type":"Feature","properties":{"osm_id":"3242999474","other":{"amenity":"parking","capacity":"20"}}, "geometry":{"type":"Point","coordinates":[-3.63026,50.53254 ]}},
{ "type":"Feature","properties":{"osm_id":"3242999493","other":{"amenity":"parking","capacity":"20"}}, "geometry":{"type":"Point","coordinates":[-3.62916,50.53249 ]}},
{ "type":"Feature","properties":{"osm_id":"3281924539","other":{"amenity":"parking"}}, "geometry":{"type":"Point","coordinates":[-3.47272,50.5712 ]}},
{ "type":"Feature","properties":{"osm_id":"3323360962","other":{"amenity":"parking","capacity":"15"}}, "geometry":{"type":"Point","coordinates":[-3.67572,50.55548 ]}},
{ "type":"Feature","properties":{"osm_id":"3323360967","other":{"amenity":"parking","capacity":"20"}}, "geometry":{"type":"Point","coordinates":[-3.67524,50.55596 ]}},
{ "type":"Feature","properties":{"osm_id":"3436888231","other":{"amenity":"parking","capacity":"10"}}, "geometry":{"type":"Point","coordinates":[-3.63894,50.56521 ]}},
{ "type":"Feature","properties":{"osm_id":"3436892732","other":{"amenity":"parking","capacity":"3"}}, "geometry":{"type":"Point","coordinates":[-3.73314,50.62099 ]}},
{ "type":"Feature","properties":{"osm_id":"3594201195","other":{"amenity":"parking","capacity":"5"}}, "geometry":{"type":"Point","coordinates":[-3.77888,50.49219 ]}},
{ "type":"Feature","properties":{"osm_id":"3720044063","other":{"amenity":"parking"}}, "geometry":{"type":"Point","coordinates":[-3.55286,50.6793 ]}},
{ "type":"Feature","properties":{"osm_id":"3923341551","other":{"amenity":"parking"}}, "geometry":{"type":"Point","coordinates":[-3.68809,50.62569 ]}},
{ "type":"Feature","properties":{"osm_id":"3951396561","other":{"amenity":"parking","capacity":"12"}}, "geometry":{"type":"Point","coordinates":[-3.53086,50.5722 ]}},
{ "type":"Feature","properties":{"osm_id":"4092565061","other":{"amenity":"parking"}}, "geometry":{"type":"Point","coordinates":[-3.77097,50.48794 ]}},
{ "type":"Feature","properties":{"osm_id":"4092565062","other":{"amenity":"parking"}}, "geometry":{"type":"Point","coordinates":[-3.76988,50.49099 ]}},
{ "type":"Feature","properties":{"osm_id":"4092565063","other":{"amenity":"parking"}}, "geometry":{"type":"Point","coordinates":[-3.77073,50.48766 ]}},
{ "type":"Feature","properties":{"osm_id":"4453659494","other":{"amenity":"parking"}}, "geometry":{"type":"Point","coordinates":[-3.52805,50.62184 ]}},
{ "type":"Feature","properties":{"osm_id":"4524674421","other":{"amenity":"parking","capacity":"3"}}, "geometry":{"type":"Point","coordinates":[-3.67825,50.64152 ]}},
{ "type":"Feature","properties":{"osm_id":"4757650616","other":{"amenity":"parking"}}, "geometry":{"type":"Point","coordinates":[-3.76924,50.57164 ]}},
{ "type":"Feature","properties":{"osm_id":"4874428782","other":{"amenity":"parking","capacity":"5"}}, "geometry":{"type":"Point","coordinates":[-3.62109,50.62755 ]}},
{ "type":"Feature","properties":{"osm_id":"5149570055","other":{"amenity":"parking"}}, "geometry":{"type":"Point","coordinates":[-3.74049,50.66862 ]}},
{ "type":"Feature","properties":{"osm_id":"5149570056","other":{"amenity":"parking"}}, "geometry":{"type":"Point","coordinates":[-3.74264,50.66775 ]}},
{ "type":"Feature","properties":{"osm_id":"5212526701","other":{"amenity":"parking"}}, "geometry":{"type":"Point","coordinates":[-3.45135,50.62601 ]}},
{ "type":"Feature","properties":{"osm_id":"5236208973","other":{"amenity":"parking"}}, "geometry":{"type":"Point","coordinates":[-3.77259,50.55047 ]}},
{ "type":"Feature","properties":{"osm_id":"5236208974","other":{"amenity":"parking"}}, "geometry":{"type":"Point","coordinates":[-3.76725,50.54766 ]}},
{ "type":"Feature","properties":{"osm_id":"5237843168","other":{"amenity":"parking"}}, "geometry":{"type":"Point","coordinates":[-3.65058,50.50939 ]}},
{ "type":"Feature","properties":{"osm_id":"7881798838","other":{"natural":"tree"}}, "geometry":{"type":"Point","coordinates":[-3.61379,50.53105 ]}},
{ "type":"Feature","properties":{"osm_id":"7881798839","other":{"natural":"tree"}}, "geometry":{"type":"Point","coordinates":[-3.6135,50.53112 ]}},
{ "type":"Feature","properties":{"osm_id":"7881798840","other":{"natural":"tree"}}, "geometry":{"type":"Point","coordinates":[-3.61323,50.53119 ]}},
{ "type":"Feature","properties":{"osm_id":"7881798841","other":{"natural":"tree"}}, "geometry":{"type":"Point","coordinates":[-3.61296,50.53126 ]}},
{ "type":"Feature","properties":{"osm_id":"7881798842","other":{"natural":"tree"}}, "geometry":{"type":"Point","coordinates":[-3.6127,50.53131 ]}},
{ "type":"Feature","properties":{"osm_id":"7881798843","other":{"natural":"tree"}}, "geometry":{"type":"Point","coordinates":[-3.61242,50.53137 ]}},
{ "type":"Feature","properties":{"osm_id":"7881798844","other":{"natural":"tree"}}, "geometry":{"type":"Point","coordinates":[-3.61213,50.53142 ]}},
{ "type":"Feature","properties":{"osm_id":"8691481199","other":{"amenity":"parking"}}, "geometry":{"type":"Point","coordinates":[-3.69247,50.49648 ]}},
{ "type":"Feature","properties":{"osm_id":"9028780542","name":"Yiewsley Health Centre","other":{"amenity":"clinic","healthcare":"clinic"}}, "geometry":{"type":"Point","coordinates":[-0.47253,51.51148 ]}},
{ "type":"Feature","properties":{"osm_id":"9251290944","other":{"power":"pole"}}, "geometry":{"type":"Point","coordinates":[-2.09332,52.08482 ]}},
{ "type":"Feature","properties":{"osm_id":"9251290948","other":{"power":"pole"}}, "geometry":{"type":"Point","coordinates":[-2.09601,52.08533 ]}},
{ "type":"Feature","properties":{"osm_id":"9251290951","name":"Birlingham","other":{"location:transition":"yes","power":"pole","transformer":"distribution","voltage:primary":"11000"}}, "geometry":{"type":"Point","coordinates":[-2.09699,52.08516 ]}},
{ "type":"Feature","properties":{"osm_id":"9251290953","name":"Swans Neck","other":{"power":"pole","transformer":"distribution","voltage:primary":"11000"}}, "geometry":{"type":"Point","coordinates":[-2.10325,52.08034 ]}},
{ "type":"Feature","properties":{"osm_id":"9251290988","other":{"power":"pole"}}, "geometry":{"type":"Point","coordinates":[-2.10482,52.08666 ]}},
{ "type":"Feature","properties":{"osm_id":"9251290999","name":"Birlingham Potato Store","other":{"power":"pole","transformer":"distribution","voltage:primary":"11000"}}, "geometry":{"type":"Point","coordinates":[-2.11013,52.09323 ]}},
{ "type":"Feature","properties":{"osm_id":"9251291005","name":"Bakers Hill","other":{"power":"pole","transformer":"distribution","voltage:primary":"11000"}}, "geometry":{"type":"Point","coordinates":[-2.10748,52.08966 ]}},
{ "type":"Feature","properties":{"osm_way_id":"5132480","name":"Labrador Bay","amenity":"parking","other":{"access":"yes","fee":"yes","parking":"surface"}}, "geometry":{"type":"MultiPolygon","coordinates":[[[[-3.51021,50.52363],[-3.51,50.52399],[-3.50998,50.52402],[-3.50995,50.52402],[-3.50977,50.52398],[-3.50992,50.52375],[-3.50999,50.52361],[-3.51007,50.52346],[-3.51019,50.52326],[-3.51031,50.52312],[-3.51038,50.52308],[-3.51062,50.52303],[-3.51021,50.52363]]]]}},
{ "type":"Feature","properties":{"osm_way_id":"15061292","amenity":"parking"},"geometry":{"type":"MultiPolygon","coordinates":[[[[-3.5927,50.55276],[-3.5927,50.55297],[-3.59236,50.55297],[-3.59236,50.5527],[-3.59245,50.5527],[-3.5927,50.5527],[-3.5927,50.55276]]]]}},
{ "type":"Feature","properties":{"osm_way_id":"19052901","amenity":"parking","other":{"access":"yes","fee":"no","parking":"surface"}}, "geometry":{"type":"MultiPolygon","coordinates":[[[[-3.61295,50.54914],[-3.61301,50.54912],[-3.61273,50.54904],[-3.6124,50.54919],[-3.61258,50.54936],[-3.61261,50.54931],[-3.61295,50.54914]]]]}},
{ "type":"Feature","properties":{"osm_way_id":"24543928","amenity":"parking"},"geometry":{"type":"MultiPolygon","coordinates":[[[[-3.5912,50.52996],[-3.59105,50.52992],[-3.59099,50.52994],[-3.59095,50.53004],[-3.59096,50.53024],[-3.59104,50.53024],[-3.5912,50.52996]]]]}},
{ "type":"Feature","properties":{"osm_way_id":"25481082","name":"Point Car Park","amenity":"parking","other":{"access":"yes","fee":"yes","operator":"Teignbridge District council","parking":"surface","wheelchair":"yes"}}, "geometry":{"type":"MultiPolygon","coordinates":[[[[-3.49699,50.54268],[-3.49717,50.54266],[-3.49715,50.54257],[-3.49743,50.54246],[-3.49754,50.54245],[-3.49777,50.54248],[-3.4978,50.54247],[-3.49783,50.54246],[-3.49786,50.54241],[-3.49792,50.54224],[-3.49773,50.54222],[-3.49767,50.54221],[-3.49762,50.54216],[-3.49772,50.54211],[-3.49778,50.54209],[-3.49783,50.54207],[-3.49789,50.54204],[-3.49802,50.54205],[-3.49812,50.54205],[-3.4981,50.54201],[-3.49824,50.54197],[-3.49827,50.54201],[-3.49865,50.54188],[-3.49874,50.54184],[-3.49881,50.54182],[-3.49883,50.54181],[-3.49894,50.54177],[-3.49899,50.54173],[-3.49911,50.54162],[-3.49918,50.54154],[-3.49926,50.54146],[-3.49929,50.54144],[-3.49936,50.54143],[-3.4994,50.54142],[-3.49945,50.54137],[-3.49947,50.54134],[-3.49946,50.54131],[-3.49944,50.54129],[-3.4994,50.54128],[-3.49938,50.54129],[-3.49936,50.54129],[-3.49934,50.5413],[-3.49926,50.54136],[-3.49915,50.54142],[-3.499,50.54149],[-3.4988,50.54157],[-3.49847,50.54166],[-3.49814,50.54174],[-3.49777,50.54183],[-3.49773,50.54184],[-3.4977,50.54186],[-3.49766,50.5419],[-3.49754,50.542],[-3.49739,50.54211],[-3.49728,50.54218],[-3.49716,50.54226],[-3.49694,50.54237],[-3.4969,50.54238],[-3.49682,50.5424],[-3.49677,50.54241],[-3.4968,50.54244],[-3.49684,50.54247],[-3.49689,50.5425],[-3.49697,50.5426],[-3.49699,50.54268]]]]}},
{ "type":"Feature","properties":{"osm_way_id":"27231688","amenity":"parking"},"geometry":{"type":"MultiPolygon","coordinates":[[[[-3.76806,50.48215],[-3.76791,50.4819],[-3.76767,50.48189],[-3.76692,50.48206],[-3.76702,50.48279],[-3.7675,50.4827],[-3.76744,50.48231],[-3.76801,50.48223],[-3.76806,50.48215]]]]}},
{ "type":"Feature","properties":{"osm_way_id":"28010865","name":"East Cliff Car Park","amenity":"parking","other":{"access":"yes","fee":"yes","operator":"Teignbridge District Council","parking":"surface","wheelchair":"yes"}}, "geometry":{"type":"MultiPolygon","coordinates":[[[[-3.49201,50.5489],[-3.49158,50.54899],[-3.49108,50.54912],[-3.49115,50.54924],[-3.49138,50.54937],[-3.49154,50.54945],[-3.4917,50.54952],[-3.49188,50.54957],[-3.49206,50.54958],[-3.49238,50.54959],[-3.4924,50.54884],[-3.49201,50.5489]]]]}},
{ "type":"Feature","properties":{"osm_way_id":"29502440","amenity":"parking","other":{"fee":"yes"}}, "geometry":{"type":"MultiPolygon","coordinates":[[[[-3.77939,50.48028],[-3.77856,50.47989],[-3.77895,50.47969],[-3.77965,50.48004],[-3.77939,50.48028]]]]}},
{ "type":"Feature","properties":{"osm_way_id":"31135789","amenity":"parking","other":{"fee":"no"}}, "geometry":{"type":"MultiPolygon","coordinates":[[[[-3.78125,50.59925],[-3.78144,50.59933],[-3.7815,50.59932],[-3.78175,50.59925],[-3.78201,50.59916],[-3.78223,50.59912],[-3.78226,50.59917],[-3.78244,50.59916],[-3.78255,50.59912],[-3.78262,50.59906],[-3.78272,50.59893],[-3.78274,50.5987],[-3.78263,50.5987],[-3.78252,50.59865],[-3.78248,50.59868],[-3.78245,50.59871],[-3.78249,50.59874],[-3.78237,50.5988],[-3.78223,50.59888],[-3.78198,50.59901],[-3.78179,50.5991],[-3.7816,50.59917],[-3.78142,50.59922],[-3.78141,50.59921],[-3.78133,50.59923],[-3.78125,50.59925]]]]}},
{ "type":"Feature","properties":{"osm_way_id":"31346704","amenity":"parking","other":{"capacity":"8","capacity:disabled":"no","fee":"no","parking":"surface"}}, "geometry":{"type":"MultiPolygon","coordinates":[[[[-3.86279,50.54459],[-3.86283,50.54456],[-3.86293,50.54451],[-3.86295,50.54449],[-3.86293,50.54439],[-3.86289,50.54437],[-3.86283,50.54434],[-3.86275,50.54433],[-3.86268,50.54433],[-3.86263,50.54433],[-3.86259,50.54443],[-3.86259,50.54447],[-3.8626,50.54453],[-3.86262,50.54456],[-3.86265,50.54458],[-3.8627,50.54461],[-3.86271,50.54463],[-3.86279,50.54459]]]]}},
{ "type":"Feature","properties":{"osm_way_id":"31346707","name":"Badger's Holt","amenity":"parking","other":{"capacity":"50","capacity:disabled":"no","fee":"no","parking":"surface"}}, "geometry":{"type":"MultiPolygon","coordinates":[[[[-3.87516,50.54389],[-3.87491,50.54387],[-3.87468,50.54415],[-3.87465,50.54419],[-3.87482,50.54426],[-3.87489,50.54429],[-3.87482,50.54437],[-3.87464,50.54449],[-3.87446,50.54482],[-3.87471,50.54491],[-3.87533,50.54443],[-3.87554,50.54412],[-3.87552,50.54381],[-3.87516,50.54389]]]]}},
{ "type":"Feature","properties":{"osm_way_id":"34344802","name":"Dawlish Station Car Park","amenity":"parking","other":{"capacity:disabled":"yes","fee":"yes","parking":"surface"}}, "geometry":{"type":"MultiPolygon","coordinates":[[[[-3.46448,50.58089],[-3.46427,50.58104],[-3.46252,50.58229],[-3.46229,50.58218],[-3.46316,50.58158],[-3.46425,50.58085],[-3.46438,50.58081],[-3.46453,50.58087],[-3.46448,50.58089]]]]}},
{ "type":"Feature","properties":{"osm_way_id":"35010535","amenity":"parking","other":{"parking":"surface"}}, "geometry":{"type":"MultiPolygon","coordinates":[[[[-3.46871,50.63997],[-3.46898,50.63966],[-3.46844,50.63952],[-3.46822,50.63984],[-3.46871,50.63997]]]]}},
{ "type":"Feature","properties":{"osm_way_id":"35011136","name":"Kenton Village Car Park","amenity":"parking","other":{"capacity":"50","capacity:disabled":"yes","parking":"surface"}}, "geometry":{"type":"MultiPolygon","coordinates":[[[[-3.47409,50.64003],[-3.4741,50.6398],[-3.47367,50.63979],[-3.47357,50.64],[-3.47409,50.64003]]]]}},
{ "type":"Feature","properties":{"osm_way_id":"35030839","amenity":"parking"},"geometry":{"type":"MultiPolygon","coordinates":[[[[-3.46426,50.63923],[-3.46318,50.63902],[-3.46329,50.63877],[-3.46442,50.63898],[-3.46426,50.63923]]]]}},
{ "type":"Feature","properties":{"osm_way_id":"36072503","name":"Barton Hill","amenity":"parking","other":{"access":"yes","fee":"yes","parking":"surface"}}, "geometry":{"type":"MultiPolygon","coordinates":[[[[-3.47291,50.58033],[-3.47294,50.58014],[-3.47325,50.58016],[-3.47326,50.58006],[-3.47314,50.58005],[-3.47313,50.58012],[-3.47306,50.58011],[-3.4719,50.58009],[-3.47162,50.5801],[-3.47167,50.58048],[-3.47265,50.58049],[-3.47365,50.58057],[-3.47368,50.58047],[-3.4737,50.58042],[-3.47291,50.58033]]]]}},
{ "type":"Feature","properties":{"osm_way_id":"36985738","amenity":"parking"},"geometry":{"type":"MultiPolygon","coordinates":[[[[-3.44879,50.62619],[-3.44857,50.62623],[-3.44836,50.62588],[-3.44862,50.62579],[-3.44886,50.62616],[-3.44879,50.62619]]]]}},
{ "type":"Feature","properties":{"osm_way_id":"38162035","name":"Dawlish Warren","amenity":"parking","other":{"fee":"09:00-18:00","parking":"surface"}}, "geometry":{"type":"MultiPolygon","coordinates":[[[[-3.44358,50.59573],[-3.44401,50.59572],[-3.44397,50.59623],[-3.44398,50.59628],[-3.44404,50.59631],[-3.44439,50.59631],[-3.44447,50.59735],[-3.44417,50.5974],[-3.44413,50.59711],[-3.44403,50.5971],[-3.44404,50.59655],[-3.44402,50.59647],[-3.44398,50.59643],[-3.44393,50.59639],[-3.4438,50.5963],[-3.44373,50.59625],[-3.44355,50.5961],[-3.44358,50.59573]]]]}},
{ "type":"Feature","properties":{"osm_way_id":"38163260","name":"Dawlish Warren","amenity":"parking","other":{"capacity:disabled":"yes","fee":"09:00-18:00","parking":"surface"}}, "geometry":{"type":"MultiPolygon","coordinates":[[[[-3.44168,50.59997],[-3.44141,50.59985],[-3.44127,50.59974],[-3.44149,50.59954],[-3.44172,50.59931],[-3.44194,50.59909],[-3.44217,50.59888],[-3.44221,50.59878],[-3.44222,50.59873],[-3.44228,50.59861],[-3.44237,50.59841],[-3.44245,50.59823],[-3.4425,50.59809],[-3.44255,50.59796],[-3.44269,50.59786],[-3.44309,50.59792],[-3.44311,50.59817],[-3.44298,50.59854],[-3.44276,50.599],[-3.44257,50.59921],[-3.44221,50.59956],[-3.44168,50.59997]]]]}},
{ "type":"Feature","properties":{"osm_way_id":"38233797","name":"Asda Car Park","amenity":"parking","other":{"access":"customers","fee":"no","operator":"Asda","park_ride":"no","parking":"surface","supervised":"yes"}}, "geometry":{"type":"MultiPolygon","coordinates":[[[[-3.61487,50.52966],[-3.61491,50.52971],[-3.61477,50.52975],[-3.61454,50.52979],[-3.61452,50.52975],[-3.61445,50.52976],[-3.61443,50.52971],[-3.61438,50.52973],[-3.61437,50.52973],[-3.61438,50.52975],[-3.61438,50.52977],[-3.61438,50.52978],[-3.61435,50.5298],[-3.61432,50.52981],[-3.61406,50.52989],[-3.61409,50.52991],[-3.6141,50.52993],[-3.61389,50.52999],[-3.61369,50.52998],[-3.61359,50.52998],[-3.61364,50.52974],[-3.61384,50.52948],[-3.61392,50.52939],[-3.61412,50.52913],[-3.6145,50.529],[-3.61471,50.52894],[-3.61477,50.52893],[-3.61482,50.52895],[-3.61486,50.52898],[-3.61484,50.52906],[-3.61475,50.52928],[-3.6147,50.52938],[-3.61494,50.52963],[-3.61487,50.52966]]]]}},
{ "type":"Feature","properties":{"osm_way_id":"39774955","amenity":"parking","other":{"capacity:disabled":"2","fee":"yes","parking":"surface"}}, "geometry":{"type":"MultiPolygon","coordinates":[[[[-3.44954,50.63085],[-3.44928,50.63088],[-3.44885,50.63002],[-3.44896,50.62999],[-3.44914,50.6303],[-3.4492,50.63029],[-3.44949,50.63073],[-3.44954,50.63085]]]]}},
{ "type":"Feature","properties":{"osm_way_id":"39782523","amenity":"parking","other":{"fee":"no","parking":"surface"}}, "geometry":{"type":"MultiPolygon","coordinates":[[[[-3.44936,50.62394],[-3.44915,50.62333],[-3.44936,50.6233],[-3.44958,50.62386],[-3.44949,50.62395],[-3.44936,50.62394]]]]}},
{ "type":"Feature","properties":{"osm_way_id":"39897657","name":"Haldon Forest Park","amenity":"parking","other":{"capacity:disabled":"yes","fee":"yes","parking":"surface"}}, "geometry":{"type":"MultiPolygon","coordinates":[[[[-3.57942,50.65223],[-3.5799,50.6521],[-3.57999,50.65209],[-3.58011,50.65214],[-3.5802,50.65214],[-3.58032,50.65211],[-3.58027,50.65203],[-3.58024,50.65198],[-3.58125,50.65178],[-3.58138,50.65203],[-3.58141,50.65215],[-3.58138,50.65246],[-3.58072,50.6526],[-3.58039,50.65266],[-3.57988,50.65277],[-3.57942,50.65223]]]]}},
{ "type":"Feature","properties":{"osm_way_id":"40436517","amenity":"parking"},"geometry":{"type":"MultiPolygon","coordinates":[[[[-3.55977,50.70121],[-3.55962,50.7012],[-3.55963,50.70115],[-3.55938,50.70114],[-3.55939,50.70106],[-3.5594,50.70103],[-3.55957,50.70105],[-3.55976,50.70106],[-3.55977,50.70108],[-3.5598,50.70109],[-3.55985,50.70111],[-3.55981,50.70117],[-3.55977,50.70121]]]]}},
{ "type":"Feature","properties":{"osm_way_id":"40629440","amenity":"parking"},"geometry":{"type":"MultiPolygon","coordinates":[[[[-3.54027,50.55348],[-3.54023,50.55346],[-3.54031,50.55323],[-3.54044,50.55325],[-3.54035,50.55349],[-3.54027,50.55348]]]]}},
{ "type":"Feature","properties":{"osm_way_id":"43159859","amenity":"parking","other":{"capacity:disabled":"yes","fee":"yes","parking":"surface"}}, "geometry":{"type":"MultiPolygon","coordinates":[[[[-3.6768,50.59141],[-3.67676,50.5913],[-3.67666,50.5913],[-3.67675,50.59101],[-3.67696,50.59067],[-3.67645,50.5906],[-3.67617,50.59141],[-3.67622,50.59151],[-3.6763,50.59154],[-3.67641,50.59151],[-3.67666,50.59145],[-3.67671,50.59143],[-3.6768,50.59141]]]]}},
{ "type":"Feature","properties":{"osm_way_id":"44681555","amenity":"parking"},"geometry":{"type":"MultiPolygon","coordinates":[[[[-3.62274,50.53729],[-3.62274,50.53726],[-3.62276,50.53721],[-3.62272,50.53715],[-3.62264,50.5371],[-3.6224,50.53711],[-3.62243,50.53719],[-3.62245,50.53725],[-3.62247,50.53724],[-3.62248,50.53729],[-3.62246,50.53729],[-3.62253,50.5373],[-3.62258,50.53731],[-3.62264,50.53731],[-3.62274,50.53729]]]]}},
{ "type":"Feature","properties":{"osm_way_id":"44683949","amenity":"parking"},"geometry":{"type":"MultiPolygon","coordinates":[[[[-3.60544,50.5354],[-3.60539,50.53535],[-3.60503,50.53517],[-3.60517,50.53508],[-3.60533,50.53513],[-3.60546,50.53518],[-3.6058,50.53543],[-3.60602,50.53562],[-3.60621,50.53575],[-3.60634,50.53584],[-3.60627,50.5359],[-3.60637,50.53596],[-3.6061,50.53617],[-3.60585,50.53601],[-3.60567,50.53588],[-3.60544,50.5354]]]]}},
{ "type":"Feature","properties":{"osm_way_id":"44683978","name":"Cricketfield Car Park","amenity":"parking","other":{"access":"public","capacity":"341","fee":"yes","operator":"Teignbridge District Council","park_ride":"no","parking":"surface","supervised":"yes","surface":"asphalt"}}, "geometry":{"type":"MultiPolygon","coordinates":[[[[-3.60762,50.53232],[-3.60726,50.53173],[-3.60715,50.53169],[-3.607,50.53168],[-3.60619,50.53166],[-3.60594,50.53159],[-3.60586,50.5316],[-3.60575,50.53163],[-3.60556,50.53168],[-3.60534,50.53169],[-3.60517,50.53169],[-3.60502,50.5317],[-3.60492,50.53171],[-3.60492,50.53174],[-3.60493,50.53181],[-3.60574,50.53178],[-3.60576,50.53191],[-3.60598,50.53196],[-3.60623,50.53207],[-3.60672,50.53265],[-3.60693,50.5326],[-3.60706,50.53256],[-3.60762,50.53232]]]]}},
{ "type":"Feature","properties":{"osm_way_id":"46351228","amenity":"parking","other":{"parking":"surface"}}, "geometry":{"type":"MultiPolygon","coordinates":[[[[-3.7784,50.49281],[-3.77835,50.49275],[-3.77834,50.49214],[-3.77798,50.49213],[-3.77765,50.49158],[-3.77735,50.49167],[-3.77766,50.49214],[-3.77767,50.49243],[-3.77736,50.4925],[-3.77746,50.49265],[-3.7774,50.49267],[-3.77762,50.49296],[-3.77801,50.4928],[-3.77811,50.49288],[-3.77814,50.49295],[-3.7782,50.49294],[-3.77862,50.49288],[-3.7788,50.49285],[-3.77894,50.49304],[-3.77917,50.493],[-3.77896,50.49272],[-3.77887,50.49274],[-3.77885,50.4927],[-3.77864,50.49274],[-3.77846,50.49276],[-3.77846,50.49281],[-3.7784,50.49281]]]]}},
{ "type":"Feature","properties":{"osm_way_id":"47083487","amenity":"parking"},"geometry":{"type":"MultiPolygon","coordinates":[[[[-3.69579,50.68211],[-3.69562,50.68226],[-3.6961,50.68244],[-3.69626,50.68225],[-3.69579,50.68211]]]]}},
{ "type":"Feature","properties":{"osm_way_id":"48655623","amenity":"parking","other":{"access":"customers","fee":"no","parking":"surface","surface":"asphalt"}}, "geometry":{"type":"MultiPolygon","coordinates":[[[[-3.59745,50.54611],[-3.59729,50.54624],[-3.59682,50.54606],[-3.5969,50.54598],[-3.5968,50.54595],[-3.59672,50.54591],[-3.59673,50.54589],[-3.59701,50.54559],[-3.59729,50.54569],[-3.59746,50.54574],[-3.59736,50.54586],[-3.59744,50.54589],[-3.59742,50.54594],[-3.59743,50.54601],[-3.59749,50.54605],[-3.59745,50.54611]]]]}},
{ "type":"Feature","properties":{"osm_way_id":"49218192","name":"North Bovey Car Park","amenity":"parking"},"geometry":{"type":"MultiPolygon","coordinates":[[[[-3.783,50.64059],[-3.7831,50.64071],[-3.78321,50.64072],[-3.78341,50.64066],[-3.78342,50.64063],[-3.7834,50.64059],[-3.7834,50.64056],[-3.78337,50.64053],[-3.78331,50.64055],[-3.78322,50.64055],[-3.78318,50.64053],[-3.78308,50.64054],[-3.783,50.64059]]]]}},
{ "type":"Feature","properties":{"osm_way_id":"51353531","name":"Station Road Car Park","amenity":"parking","other":{"fee":"yes"}}, "geometry":{"type":"MultiPolygon","coordinates":[[[[-3.76541,50.65992],[-3.76534,50.65976],[-3.76527,50.65962],[-3.76474,50.65971],[-3.7645,50.65975],[-3.76464,50.65982],[-3.76473,50.65988],[-3.76484,50.66001],[-3.76488,50.66001],[-3.76506,50.65998],[-3.76519,50.65996],[-3.76541,50.65992]]]]}},
{ "type":"Feature","properties":{"osm_way_id":"51360739","name":"Court Street Car Park","amenity":"parking","other":{"access":"yes","fee":"yes","parking":"surface"}}, "geometry":{"type":"MultiPolygon","coordinates":[[[[-3.76851,50.66072],[-3.76853,50.66072],[-3.7684,50.66059],[-3.76828,50.6606],[-3.76813,50.66062],[-3.76808,50.66046],[-3.76784,50.66048],[-3.76785,50.66061],[-3.76797,50.66084],[-3.76813,50.66104],[-3.76873,50.66094],[-3.76851,50.66072]]]]}},
{ "type":"Feature","properties":{"osm_way_id":"59277893","amenity":"parking"},"geometry":{"type":"MultiPolygon","coordinates":[[[[-3.56579,50.63078],[-3.56548,50.63049],[-3.56605,50.63016],[-3.56613,50.63033],[-3.56576,50.6306],[-3.56592,50.6307],[-3.56579,50.63078]]]]}},
{ "type":"Feature","properties":{"osm_way_id":"61158541","name":"Ness Car Park","amenity":"parking","other":{"access":"yes","fee":"yes","operator":"Teignbridge District Council","parking":"surface"}}, "geometry":{"type":"MultiPolygon","coordinates":[[[[-3.49966,50.53705],[-3.49995,50.53699],[-3.50049,50.53692],[-3.50053,50.53708],[-3.50036,50.53722],[-3.50022,50.53758],[-3.50022,50.53784],[-3.50013,50.53786],[-3.49992,50.53785],[-3.49963,50.53776],[-3.49951,50.53765],[-3.4994,50.53724],[-3.49946,50.53714],[-3.49966,50.53705]]]]}},
{ "type":"Feature","properties":{"osm_way_id":"61837525","amenity":"parking","other":{"access":"customers"}}, "geometry":{"type":"MultiPolygon","coordinates":[[[[-3.68222,50.73626],[-3.68245,50.73663],[-3.68206,50.73674],[-3.68181,50.73624],[-3.68194,50.73617],[-3.68205,50.73628],[-3.68222,50.73626]]]]}},
{ "type":"Feature","properties":{"osm_way_id":"64613784","amenity":"parking"},"geometry":{"type":"MultiPolygon","coordinates":[[[[-2.08548,53.41388],[-2.08533,53.41359],[-2.08585,53.41348],[-2.08574,53.41329],[-2.08578,53.41329],[-2.08565,53.41302],[-2.08574,53.41302],[-2.0863,53.41322],[-2.08626,53.41326],[-2.08638,53.41334],[-2.08628,53.41336],[-2.08627,53.4134],[-2.086,53.41346],[-2.08609,53.41363],[-2.08579,53.41369],[-2.08588,53.41387],[-2.08582,53.41388],[-2.08583,53.41391],[-2.08548,53.41398],[-2.08544,53.41389],[-2.08548,53.41388]]]]}},
{ "type":"Feature","properties":{"osm_way_id":"64613785","amenity":"parking"},"geometry":{"type":"MultiPolygon","coordinates":[[[[-2.08211,53.41409],[-2.082,53.41381],[-2.08253,53.41369],[-2.08265,53.41387],[-2.08248,53.4139],[-2.0825,53.41394],[-2.08237,53.41397],[-2.08239,53.41405],[-2.08228,53.41406],[-2.08211,53.41409]]]]}},
{ "type":"Feature","properties":{"osm_way_id":"68340192","amenity":"parking"},"geometry":{"type":"MultiPolygon","coordinates":[[[[-3.53715,50.66083],[-3.53695,50.66108],[-3.53617,50.66084],[-3.53638,50.66056],[-3.53717,50.6608],[-3.53715,50.66083]]]]}},
{ "type":"Feature","properties":{"osm_way_id":"68343747","amenity":"parking"},"geometry":{"type":"MultiPolygon","coordinates":[[[[-3.53796,50.66007],[-3.53792,50.66018],[-3.53804,50.6602],[-3.53808,50.66009],[-3.53823,50.66011],[-3.53816,50.65996],[-3.53804,50.65994],[-3.53793,50.65993],[-3.53791,50.66006],[-3.53796,50.66007]]]]}},
{ "type":"Feature","properties":{"osm_way_id":"68455515","amenity":"parking","building":"yes","other":{"parking":"garage_boxes"}}, "geometry":{"type":"MultiPolygon","coordinates":[[[[-3.53739,50.66137],[-3.53751,50.66141],[-3.53748,50.66145],[-3.53736,50.66142],[-3.53739,50.66137]]]]}},
{ "type":"Feature","properties":{"osm_way_id":"69038365","amenity":"parking"},"geometry":{"type":"MultiPolygon","coordinates":[[[[-3.53759,50.66045],[-3.53757,50.6605],[-3.53765,50.66052],[-3.53766,50.6605],[-3.5378,50.66053],[-3.53779,50.66062],[-3.53777,50.66062],[-3.53775,50.66063],[-3.53774,50.66064],[-3.53773,50.66066],[-3.53771,50.6607],[-3.53764,50.66068],[-3.53766,50.66064],[-3.53757,50.66062],[-3.53754,50.6606],[-3.53752,50.66057],[-3.53745,50.66055],[-3.53742,50.66053],[-3.53739,50.66049],[-3.53741,50.66045],[-3.53743,50.66043],[-3.53749,50.66043],[-3.53759,50.66045]]]]}},
{ "type":"Feature","properties":{"osm_way_id":"69042290","amenity":"parking"},"geometry":{"type":"MultiPolygon","coordinates":[[[[-3.53686,50.65953],[-3.5369,50.65934],[-3.537,50.65935],[-3.53706,50.65916],[-3.53713,50.65916],[-3.53714,50.65913],[-3.53741,50.65916],[-3.53742,50.65913],[-3.53763,50.65915],[-3.53756,50.65943],[-3.53726,50.6594],[-3.53723,50.65949],[-3.53722,50.65958],[-3.53717,50.65957],[-3.53708,50.65955],[-3.53704,50.65954],[-3.53701,50.65954],[-3.53696,50.65955],[-3.53691,50.65954],[-3.53686,50.65953]]]]}},
{ "type":"Feature","properties":{"osm_way_id":"69045535","amenity":"parking"},"geometry":{"type":"MultiPolygon","coordinates":[[[[-3.53705,50.65977],[-3.53704,50.6598],[-3.53701,50.65982],[-3.53701,50.65982],[-3.53705,50.65985],[-3.53694,50.66006],[-3.53688,50.66006],[-3.53685,50.66009],[-3.53664,50.66004],[-3.5365,50.66008],[-3.53607,50.65998],[-3.53616,50.65964],[-3.5362,50.65962],[-3.53628,50.65965],[-3.53656,50.65969],[-3.53671,50.6597],[-3.5368,50.65971],[-3.53686,50.65972],[-3.53692,50.65973],[-3.53698,50.65976],[-3.53701,50.65977],[-3.53705,50.65977]]]]}},
{ "type":"Feature","properties":{"osm_way_id":"82950813","name":"Channing's Wood Prison Parking","amenity":"parking"},"geometry":{"type":"MultiPolygon","coordinates":[[[[-3.65226,50.51041],[-3.65453,50.51036],[-3.65442,50.51004],[-3.6544,50.50995],[-3.65249,50.50993],[-3.65226,50.51041]]]]}},
{ "type":"Feature","properties":{"osm_way_id":"87755830","amenity":"parking"},"geometry":{"type":"MultiPolygon","coordinates":[[[[-1.36238,50.89053],[-1.36268,50.89075],[-1.36288,50.89064],[-1.36318,50.89086],[-1.36252,50.89123],[-1.36211,50.89093],[-1.36191,50.89103],[-1.36172,50.89089],[-1.36238,50.89053]]]]}},
{ "type":"Feature","properties":{"osm_way_id":"92335494","amenity":"parking"},"geometry":{"type":"MultiPolygon","coordinates":[[[[-3.55117,50.54001],[-3.55074,50.54063],[-3.55032,50.54056],[-3.55033,50.54061],[-3.55028,50.54071],[-3.55098,50.54086],[-3.55104,50.54083],[-3.55122,50.54077],[-3.55161,50.54019],[-3.55117,50.54001]]]]}},
{ "type":"Feature","properties":{"osm_way_id":"98361299","amenity":"parking","other":{"access":"customers","operator":"Kingsteignton Swimming Pool","parking":"surface","surface":"gravel"}}, "geometry":{"type":"MultiPolygon","coordinates":[[[[-3.60209,50.5583],[-3.60229,50.55806],[-3.60243,50.55792],[-3.60252,50.55783],[-3.60248,50.5578],[-3.60184,50.55805],[-3.60209,50.5583]]]]}},
{ "type":"Feature","properties":{"osm_way_id":"98497354","amenity":"parking"},"geometry":{"type":"MultiPolygon","coordinates":[[[[-3.59785,50.54791],[-3.59768,50.54791],[-3.59769,50.54786],[-3.59736,50.54785],[-3.59713,50.54786],[-3.59696,50.54788],[-3.59693,50.54776],[-3.59708,50.54775],[-3.59708,50.54772],[-3.59775,50.54774],[-3.59785,50.54791]]]]}},
{ "type":"Feature","properties":{"osm_way_id":"115494756","amenity":"parking","other":{"access":"yes","fee":"no","parking":"surface"}}, "geometry":{"type":"MultiPolygon","coordinates":[[[[-3.7606,50.57459],[-3.76076,50.57457],[-3.76081,50.57456],[-3.76087,50.57454],[-3.76091,50.57451],[-3.76096,50.57448],[-3.761,50.57445],[-3.761,50.57443],[-3.76098,50.5744],[-3.76095,50.57439],[-3.76085,50.57435],[-3.76074,50.57431],[-3.76067,50.57439],[-3.76058,50.5745],[-3.76053,50.57455],[-3.76049,50.57461],[-3.7606,50.57459]]]]}},
{ "type":"Feature","properties":{"osm_way_id":"115494760","amenity":"parking","other":{"access":"yes","capacity":"50","fee":"yes","parking":"surface"}}, "geometry":{"type":"MultiPolygon","coordinates":[[[[-3.745,50.58098],[-3.74496,50.58102],[-3.74516,50.58108],[-3.74524,50.58105],[-3.74526,50.58103],[-3.74529,50.58099],[-3.74528,50.58096],[-3.7453,50.58092],[-3.74533,50.58088],[-3.74538,50.58082],[-3.7454,50.58077],[-3.74541,50.58068],[-3.7454,50.58052],[-3.74539,50.58038],[-3.74527,50.58037],[-3.74509,50.5807],[-3.74495,50.58086],[-3.74498,50.58087],[-3.74501,50.58087],[-3.74506,50.58091],[-3.745,50.58098]]]]}},
{ "type":"Feature","properties":{"osm_way_id":"115494762","amenity":"parking","other":{"access":"yes","fee":"yes","parking":"surface","surface":"gravel"}}, "geometry":{"type":"MultiPolygon","coordinates":[[[[-3.75306,50.5766],[-3.75313,50.57664],[-3.75324,50.57669],[-3.75342,50.57674],[-3.75353,50.57677],[-3.75361,50.57679],[-3.75371,50.57683],[-3.75382,50.5769],[-3.75387,50.57693],[-3.75391,50.57699],[-3.75389,50.57703],[-3.75385,50.5771],[-3.75386,50.57713],[-3.7537,50.57715],[-3.75335,50.57719],[-3.75315,50.57719],[-3.75302,50.57722],[-3.75304,50.57721],[-3.7531,50.57711],[-3.7531,50.57708],[-3.75306,50.57701],[-3.75298,50.57689],[-3.7529,50.57677],[-3.75287,50.5767],[-3.75288,50.57668],[-3.75296,50.57661],[-3.75302,50.57659],[-3.75306,50.5766]]]]}},
{ "type":"Feature","properties":{"osm_way_id":"115494767","amenity":"parking"},"geometry":{"type":"MultiPolygon","coordinates":[[[[-3.76919,50.57176],[-3.76907,50.57169],[-3.76907,50.57163],[-3.7691,50.57159],[-3.76921,50.57159],[-3.76946,50.57164],[-3.76946,50.57169],[-3.7694,50.57171],[-3.76935,50.57175],[-3.76919,50.57176]]]]}},
{ "type":"Feature","properties":{"osm_way_id":"119558627","amenity":"parking","other":{"fee":"yes"}}, "geometry":{"type":"MultiPolygon","coordinates":[[[[-3.6012,50.60549],[-3.60148,50.60535],[-3.60154,50.6054],[-3.60169,50.60532],[-3.60152,50.60515],[-3.60142,50.60505],[-3.60145,50.60504],[-3.6014,50.605],[-3.60146,50.60497],[-3.60136,50.60488],[-3.6016,50.60472],[-3.60174,50.60482],[-3.60181,50.60488],[-3.60189,50.60496],[-3.60203,50.60512],[-3.60221,50.60507],[-3.60227,50.60516],[-3.60244,50.60543],[-3.60237,50.60553],[-3.60227,50.60558],[-3.60218,50.60562],[-3.60207,50.60563],[-3.60194,50.60564],[-3.60182,50.60565],[-3.60153,50.60573],[-3.60144,50.60576],[-3.60136,50.60576],[-3.6012,50.60549]]]]}},
{ "type":"Feature","properties":{"osm_way_id":"120161370","amenity":"parking"},"geometry":{"type":"MultiPolygon","coordinates":[[[[-3.49459,50.67849],[-3.49458,50.67842],[-3.49379,50.67848],[-3.49383,50.67855],[-3.49431,50.67851],[-3.49459,50.67849]]]]}},
{ "type":"Feature","properties":{"osm_way_id":"120162082","amenity":"parking","other":{"operator":"RSPB"}}, "geometry":{"type":"MultiPolygon","coordinates":[[[[-3.48238,50.67524],[-3.48224,50.67529],[-3.48171,50.67473],[-3.48188,50.67467],[-3.48238,50.67524]]]]}},
{ "type":"Feature","properties":{"osm_way_id":"122540659","amenity":"parking","other":{"fee":"yes"}}, "geometry":{"type":"MultiPolygon","coordinates":[[[[-3.67476,50.59555],[-3.67482,50.59557],[-3.67491,50.59548],[-3.67492,50.59538],[-3.67488,50.59513],[-3.67485,50.59503],[-3.67484,50.59483],[-3.67461,50.59482],[-3.6746,50.59507],[-3.67448,50.59507],[-3.67445,50.59528],[-3.67444,50.59535],[-3.6744,50.59544],[-3.67446,50.59545],[-3.67459,50.59548],[-3.67472,50.59551],[-3.67476,50.59555]]]]}},
{ "type":"Feature","properties":{"osm_way_id":"122617096","amenity":"parking","other":{"fee":"yes"}}, "geometry":{"type":"MultiPolygon","coordinates":[[[[-3.67588,50.59417],[-3.67593,50.59415],[-3.67597,50.59409],[-3.6759,50.59407],[-3.67592,50.59404],[-3.67574,50.59399],[-3.67578,50.59392],[-3.67563,50.59388],[-3.67544,50.59384],[-3.67541,50.59389],[-3.67549,50.59393],[-3.6756,50.59402],[-3.67573,50.59412],[-3.67588,50.59417]]]]}},
{ "type":"Feature","properties":{"osm_way_id":"127325396","amenity":"parking"},"geometry":{"type":"MultiPolygon","coordinates":[[[[-3.46219,50.59867],[-3.46272,50.59832],[-3.46263,50.59814],[-3.46197,50.59824],[-3.46198,50.59828],[-3.46128,50.59838],[-3.46122,50.59821],[-3.46114,50.59822],[-3.46112,50.59818],[-3.46054,50.59826],[-3.4606,50.59841],[-3.46107,50.59835],[-3.46131,50.59911],[-3.46219,50.59898],[-3.46213,50.59883],[-3.46214,50.59874],[-3.46219,50.59867]]]]}},
{ "type":"Feature","properties":{"osm_way_id":"128495241","amenity":"parking"},"geometry":{"type":"MultiPolygon","coordinates":[[[[-3.55156,50.60108],[-3.55136,50.60105],[-3.55137,50.6009],[-3.55144,50.60072],[-3.55138,50.60063],[-3.55155,50.60062],[-3.55171,50.60094],[-3.55169,50.60103],[-3.55156,50.60108]]]]}},
{ "type":"Feature","properties":{"osm_way_id":"131663399","amenity":"parking","other":{"access":"yes","fee":"yes","parking":"street_side"}}, "geometry":{"type":"MultiPolygon","coordinates":[[[[-3.50748,50.54653],[-3.50743,50.54633],[-3.50699,50.54628],[-3.50671,50.5463],[-3.50632,50.54628],[-3.50559,50.54626],[-3.50558,50.54617],[-3.50529,50.54616],[-3.50528,50.5462],[-3.50529,50.54641],[-3.50638,50.54642],[-3.50715,50.54649],[-3.50748,50.54653]]]]}},
{ "type":"Feature","properties":{"osm_way_id":"131709482","amenity":"parking","other":{"access":"yes","fee":"yes","parking":"surface"}}, "geometry":{"type":"MultiPolygon","coordinates":[[[[-3.49895,50.53621],[-3.49874,50.53622],[-3.49911,50.53675],[-3.4992,50.53687],[-3.49932,50.53683],[-3.49933,50.53678],[-3.49949,50.53668],[-3.49912,50.53616],[-3.49905,50.53618],[-3.49895,50.53621]]]]}},
{ "type":"Feature","properties":{"osm_way_id":"132981968","name":"Lower Trendlebere Car Park","amenity":"parking"},"geometry":{"type":"MultiPolygon","coordinates":[[[[-3.71938,50.60124],[-3.71933,50.60105],[-3.71889,50.60115],[-3.71874,50.60116],[-3.71912,50.60129],[-3.71938,50.60124]]]]}},
{ "type":"Feature","properties":{"osm_way_id":"132981969","amenity":"parking"},"geometry":{"type":"MultiPolygon","coordinates":[[[[-3.73759,50.6041],[-3.73738,50.60385],[-3.7369,50.6038],[-3.73674,50.60379],[-3.73672,50.60384],[-3.73669,50.60397],[-3.73698,50.60407],[-3.73734,50.60407],[-3.73749,50.60409],[-3.73759,50.6041]]]]}},
{ "type":"Feature","properties":{"osm_way_id":"134240291","amenity":"parking","other":{"fee":"yes","parking":"surface"}}, "geometry":{"type":"MultiPolygon","coordinates":[[[[-3.44438,50.59567],[-3.44355,50.59565],[-3.44358,50.59513],[-3.44362,50.59479],[-3.44379,50.5941],[-3.44398,50.5941],[-3.44431,50.59422],[-3.44438,50.59443],[-3.44437,50.59461],[-3.44438,50.59567]]]]}},
{ "type":"Feature","properties":{"osm_way_id":"135766358","amenity":"parking","other":{"access":"customers","fee":"no","parking":"surface"}}, "geometry":{"type":"MultiPolygon","coordinates":[[[[-3.53776,50.66897],[-3.53765,50.66888],[-3.53759,50.6689],[-3.53748,50.66881],[-3.53745,50.6688],[-3.53741,50.6688],[-3.53736,50.66881],[-3.53719,50.66895],[-3.53749,50.66918],[-3.53753,50.6692],[-3.53776,50.66897]]]]}},
{ "type":"Feature","properties":{"osm_way_id":"138738764","amenity":"parking","other":{"access":"private"}}, "geometry":{"type":"MultiPolygon","coordinates":[[[[-3.74279,50.5821],[-3.74276,50.58202],[-3.74263,50.582],[-3.7425,50.58199],[-3.74241,50.58176],[-3.74232,50.58175],[-3.74223,50.58179],[-3.74236,50.58194],[-3.74225,50.58198],[-3.74214,50.58186],[-3.74186,50.58195],[-3.74167,50.58204],[-3.7417,50.58207],[-3.7418,50.58206],[-3.74192,50.58207],[-3.74209,50.58209],[-3.74232,50.5821],[-3.74247,50.58212],[-3.74261,50.58211],[-3.74279,50.5821]]]]}},
{ "type":"Feature","properties":{"osm_way_id":"143129759","amenity":"parking","other":{"access":"customers","fee":"no","parking":"surface"}}, "geometry":{"type":"MultiPolygon","coordinates":[[[[-2.93208,53.17873],[-2.93203,53.17865],[-2.93214,53.17863],[-2.93211,53.17857],[-2.93271,53.17847],[-2.93272,53.17852],[-2.933,53.17847],[-2.93295,53.17837],[-2.93286,53.17838],[-2.93272,53.17806],[-2.93282,53.17804],[-2.93268,53.17772],[-2.93232,53.17777],[-2.93234,53.17782],[-2.93201,53.17787],[-2.93196,53.17777],[-2.93203,53.17776],[-2.932,53.17771],[-2.93234,53.17765],[-2.9334,53.17748],[-2.93345,53.17771],[-2.93314,53.17836],[-2.93307,53.17839],[-2.93311,53.17847],[-2.93306,53.17852],[-2.93288,53.17855],[-2.93289,53.17858],[-2.9329,53.1786],[-2.93208,53.17873]]]]}},
{ "type":"Feature","properties":{"osm_way_id":"148973746","name":"Riverside Car Park","amenity":"parking","other":{"access":"customers","addr:city":"Newton Abbot","addr:housename":"Trago Mills SD Ltd","addr:postcode":"TQ12 6JD","addr:street":"Liverton","fee":"no","operator":"Trago Mills SD Ltd","park_ride":"no","parking":"surface","supervised":"no","surface":"asphalt"}}, "geometry":{"type":"MultiPolygon","coordinates":[[[[-3.66364,50.55934],[-3.66514,50.55872],[-3.66549,50.55849],[-3.66566,50.55828],[-3.66558,50.55816],[-3.66527,50.55809],[-3.66476,50.55806],[-3.66438,50.55798],[-3.66402,50.55794],[-3.66351,50.55859],[-3.66386,50.5587],[-3.66345,50.55929],[-3.66364,50.55934]]]]}},
{ "type":"Feature","properties":{"osm_way_id":"148973748","name":"Co-op","amenity":"parking","other":{"access":"customers","fee":"no","operator":"Co-op","park_ride":"no","parking":"surface","supervised":"no","surface":"asphalt"}}, "geometry":{"type":"MultiPolygon","coordinates":[[[[-3.66221,50.55928],[-3.66199,50.55923],[-3.66175,50.55922],[-3.6617,50.55901],[-3.66167,50.55873],[-3.66194,50.55814],[-3.66216,50.55816],[-3.66274,50.55826],[-3.66257,50.5585],[-3.66255,50.55853],[-3.66227,50.55895],[-3.66278,50.55911],[-3.6627,50.55923],[-3.66221,50.55928]]]]}},
{ "type":"Feature","properties":{"osm_way_id":"148994333","amenity":"parking","other":{"access":"customers","fee":"no","parking":"surface"}}, "geometry":{"type":"MultiPolygon","coordinates":[[[[-3.6737,50.58191],[-3.6737,50.58206],[-3.67372,50.58225],[-3.67416,50.58225],[-3.67416,50.58218],[-3.6746,50.58217],[-3.6746,50.58202],[-3.67476,50.58202],[-3.67477,50.58243],[-3.67485,50.58243],[-3.67484,50.58253],[-3.67477,50.58257],[-3.67477,50.58265],[-3.67463,50.58266],[-3.67445,50.58267],[-3.67432,50.58268],[-3.67432,50.58275],[-3.67419,50.5829],[-3.67473,50.58311],[-3.67493,50.58291],[-3.67487,50.58285],[-3.67488,50.5828],[-3.67504,50.58279],[-3.67502,50.58202],[-3.67439,50.58197],[-3.67402,50.58195],[-3.6737,50.58191]]]]}},
{ "type":"Feature","properties":{"osm_way_id":"153993367","amenity":"parking","other":{"access":"yes","fee":"no","surface":"concrete"}}, "geometry":{"type":"MultiPolygon","coordinates":[[[[-3.49816,50.67843],[-3.49817,50.67796],[-3.49792,50.67796],[-3.4979,50.67843],[-3.49816,50.67843]]]]}},
{ "type":"Feature","properties":{"osm_way_id":"157923766","amenity":"parking","other":{"fee":"yes","parking":"surface","supervised":"yes"}}, "geometry":{"type":"MultiPolygon","coordinates":[[[[-3.81255,50.57731],[-3.81236,50.57719],[-3.81198,50.57713],[-3.81131,50.57718],[-3.81146,50.57745],[-3.81156,50.57752],[-3.81207,50.57749],[-3.81246,50.57749],[-3.81255,50.57731]]]]}},
{ "type":"Feature","properties":{"osm_way_id":"157923768","amenity":"parking","other":{"access":"yes","fee":"yes","parking":"surface"}}, "geometry":{"type":"MultiPolygon","coordinates":[[[[-3.81051,50.57742],[-3.8106,50.57779],[-3.81063,50.57791],[-3.81015,50.578],[-3.81001,50.57776],[-3.80998,50.57754],[-3.81051,50.57742]]]]}},
{ "type":"Feature","properties":{"osm_way_id":"157923778","amenity":"parking","other":{"access":"customers","parking":"surface"}}, "geometry":{"type":"MultiPolygon","coordinates":[[[[-3.81263,50.57713],[-3.813,50.57663],[-3.81265,50.57653],[-3.81246,50.57684],[-3.81202,50.57674],[-3.81199,50.57684],[-3.81214,50.57692],[-3.8123,50.57703],[-3.81252,50.57708],[-3.81255,50.5771],[-3.81263,50.57713]]]]}},
{ "type":"Feature","properties":{"osm_way_id":"158738682","amenity":"parking","other":{"access":"customers","parking":"surface"}}, "geometry":{"type":"MultiPolygon","coordinates":[[[[-2.57761,51.4502],[-2.57755,51.45015],[-2.57754,51.45014],[-2.57753,51.45014],[-2.57697,51.45038],[-2.5777,51.4509],[-2.57773,51.45089],[-2.57806,51.45074],[-2.57818,51.45065],[-2.57812,51.45062],[-2.57799,51.45069],[-2.57787,51.45061],[-2.57763,51.45074],[-2.57719,51.45042],[-2.57761,51.4502]]]]}},
{ "type":"Feature","properties":{"osm_way_id":"163815721","amenity":"parking"},"geometry":{"type":"MultiPolygon","coordinates":[[[[-3.44682,50.60274],[-3.44686,50.60276],[-3.44684,50.60279],[-3.44676,50.60289],[-3.44682,50.60293],[-3.44675,50.60302],[-3.44664,50.60307],[-3.44626,50.60294],[-3.4464,50.60278],[-3.44661,50.60263],[-3.44682,50.60274]]]]}},
{ "type":"Feature","properties":{"osm_way_id":"166019467","amenity":"parking"},"geometry":{"type":"MultiPolygon","coordinates":[[[[-3.56055,50.64245],[-3.56005,50.64225],[-3.55976,50.64207],[-3.56017,50.64176],[-3.56029,50.64161],[-3.56038,50.64146],[-3.56085,50.64165],[-3.56102,50.64172],[-3.56084,50.64203],[-3.5608,50.64202],[-3.5606,50.64234],[-3.56055,50.64245]]]]}},
{ "type":"Feature","properties":{"osm_way_id":"166511665","name":"Asda Car Park","amenity":"parking","other":{"access":"customers","fee":"yes","operator":"Asda","park_ride":"no","parking":"surface","supervised":"yes","surface":"asphalt"}}, "geometry":{"type":"MultiPolygon","coordinates":[[[[-3.61594,50.53027],[-3.61618,50.53027],[-3.61623,50.53025],[-3.61631,50.53021],[-3.61637,50.53017],[-3.61642,50.53012],[-3.61646,50.53006],[-3.61649,50.53],[-3.61651,50.52995],[-3.61651,50.52988],[-3.6165,50.52984],[-3.61647,50.52977],[-3.61641,50.52969],[-3.61631,50.52959],[-3.6162,50.52947],[-3.61609,50.52937],[-3.61567,50.52957],[-3.61552,50.52967],[-3.61538,50.52972],[-3.61519,50.52983],[-3.61523,50.52988],[-3.61511,50.52994],[-3.61517,50.53002],[-3.61554,50.52989],[-3.61559,50.53001],[-3.61575,50.52999],[-3.61594,50.53027]]]]}},
{ "type":"Feature","properties":{"osm_way_id":"166824919","name":"Newfoundland Way Car Park","amenity":"parking","other":{"access":"public","capacity":"190","fee":"yes","operator":"Teignbridge District Council","park_ride":"no","parking":"surface","supervised":"yes","surface":"asphalt"}}, "geometry":{"type":"MultiPolygon","coordinates":[[[[-3.6139,50.52866],[-3.61383,50.52849],[-3.61376,50.52812],[-3.6133,50.5282],[-3.61321,50.52791],[-3.61257,50.528],[-3.61265,50.52817],[-3.61272,50.52823],[-3.61277,50.52827],[-3.61296,50.52866],[-3.6136,50.52856],[-3.61377,50.52867],[-3.6139,50.52866]]]]}},
{ "type":"Feature","properties":{"osm_way_id":"169627340","name":"Wolborough Way Car Park","amenity":"parking","other":{"access":"yes","capacity":"116","fee":"yes","operator":"Teignbridge District Council","park_ride":"no","parking":"surface","supervised":"yes","surface":"asphalt"}}, "geometry":{"type":"MultiPolygon","coordinates":[[[[-3.6159,50.52901],[-3.61544,50.52876],[-3.61543,50.5287],[-3.61547,50.52862],[-3.61581,50.52829],[-3.61588,50.52833],[-3.61592,50.5283],[-3.61608,50.52838],[-3.61628,50.52849],[-3.61615,50.52858],[-3.61632,50.52869],[-3.61612,50.52884],[-3.6159,50.52901]]]]}},
{ "type":"Feature","properties":{"osm_way_id":"170048514","amenity":"parking","other":{"access":"customers","operator":"The Old Church House Inn"}}, "geometry":{"type":"MultiPolygon","coordinates":[[[[-3.66525,50.48909],[-3.66506,50.48913],[-3.66501,50.48901],[-3.66498,50.48888],[-3.66497,50.48885],[-3.66497,50.48881],[-3.66504,50.48877],[-3.66512,50.48879],[-3.66517,50.48881],[-3.66519,50.48887],[-3.66525,50.489],[-3.66522,50.489],[-3.66524,50.48908],[-3.66525,50.48909]]]]}},
{ "type":"Feature","properties":{"osm_way_id":"170090145","amenity":"parking","other":{"access":"public","fee":"no","park_ride":"no","parking":"Coach","supervised":"no"}}, "geometry":{"type":"MultiPolygon","coordinates":[[[[-3.66749,50.55546],[-3.66711,50.55545],[-3.66705,50.55508],[-3.66725,50.55501],[-3.6676,50.55494],[-3.66776,50.55493],[-3.66776,50.55496],[-3.66765,50.55502],[-3.66762,50.55536],[-3.6675,50.55537],[-3.66749,50.55546]]]]}},
{ "type":"Feature","properties":{"osm_way_id":"170090207","name":"Top Car Park","amenity":"parking","other":{"access":"customers","addr:city":"Newton Abbot","addr:housename":"Trago Mills SD Ltd","addr:postcode":"TQ12 6JD","addr:street":"Liverton","fee":"no","operator":"Trago Mills SD Ltd","park_ride":"no","parking":"surface","supervised":"no","surface":"asphalt"}}, "geometry":{"type":"MultiPolygon","coordinates":[[[[-3.66697,50.55499],[-3.66686,50.55424],[-3.66642,50.55405],[-3.66639,50.55433],[-3.66582,50.55439],[-3.66568,50.55478],[-3.66562,50.55519],[-3.666,50.55504],[-3.66612,50.55501],[-3.66659,50.55504],[-3.66675,50.55504],[-3.66686,50.55503],[-3.66697,50.55499]]]]}},
{ "type":"Feature","properties":{"osm_way_id":"170090208","name":"Back Car Park","amenity":"parking","other":{"access":"customers","addr:city":"Newton Abbot","addr:housename":"Trago Mills SD Ltd","addr:postcode":"TQ12 6JD","addr:street":"Liverton","fee":"no","operator":"Trago Mills SD Ltd","park_ride":"no","parking":"surface","supervised":"no","surface":"asphalt"}}, "geometry":{"type":"MultiPolygon","coordinates":[[[[-3.6644,50.55566],[-3.66328,50.55566],[-3.66313,50.55566],[-3.66168,50.55566],[-3.66161,50.55566],[-3.6616,50.55518],[-3.66162,50.55472],[-3.66319,50.55473],[-3.66317,50.55517],[-3.66328,50.55524],[-3.66447,50.55526],[-3.66448,50.55534],[-3.6644,50.55566]]]]}},
{ "type":"Feature","properties":{"osm_way_id":"170313255","name":"Tesco Parking","amenity":"parking"},"geometry":{"type":"MultiPolygon","coordinates":[[[[-3.60169,50.53975],[-3.60245,50.53881],[-3.60273,50.53893],[-3.60276,50.5391],[-3.60268,50.5394],[-3.6024,50.53982],[-3.60241,50.54005],[-3.60245,50.54015],[-3.60239,50.54018],[-3.60219,50.54031],[-3.60207,50.54038],[-3.60192,50.54022],[-3.60152,50.5406],[-3.60144,50.54064],[-3.6013,50.54063],[-3.60124,50.54052],[-3.60121,50.54044],[-3.60162,50.53997],[-3.60169,50.53987],[-3.60169,50.53975]]]]}},
{ "type":"Feature","properties":{"osm_way_id":"170313256","name":"Tesco Parking","amenity":"parking"},"geometry":{"type":"MultiPolygon","coordinates":[[[[-3.60156,50.5419],[-3.60203,50.5416],[-3.60186,50.54147],[-3.60193,50.5414],[-3.60139,50.54113],[-3.60129,50.54118],[-3.60084,50.54147],[-3.60073,50.54154],[-3.60156,50.5419]]]]}},
{ "type":"Feature","properties":{"osm_way_id":"170313441","amenity":"parking"},"geometry":{"type":"MultiPolygon","coordinates":[[[[-3.60231,50.53549],[-3.60238,50.53541],[-3.60144,50.53504],[-3.60137,50.53512],[-3.60231,50.53549]]]]}},
{ "type":"Feature","properties":{"osm_way_id":"170313442","amenity":"parking"},"geometry":{"type":"MultiPolygon","coordinates":[[[[-3.60354,50.53593],[-3.6036,50.53586],[-3.60259,50.53546],[-3.60252,50.53553],[-3.60354,50.53593]]]]}},
{ "type":"Feature","properties":{"osm_way_id":"170354018","amenity":"parking"},"geometry":{"type":"MultiPolygon","coordinates":[[[[-3.65615,50.51382],[-3.6563,50.51371],[-3.65632,50.51366],[-3.65621,50.51358],[-3.65612,50.51352],[-3.65597,50.51363],[-3.65615,50.51382]]]]}},
{ "type":"Feature","properties":{"osm_way_id":"171216057","name":"Halcyon Road Car Park","amenity":"parking","other":{"access":"yes","capacity":"115","fee":"yes","operator":"Teignbridge District Council","park_ride":"no","parking":"surface","supervised":"yes","surface":"asphalt"}}, "geometry":{"type":"MultiPolygon","coordinates":[[[[-3.6094,50.53127],[-3.60933,50.53134],[-3.60913,50.53158],[-3.60909,50.53162],[-3.60909,50.53169],[-3.60922,50.53173],[-3.61043,50.53165],[-3.61035,50.53132],[-3.6098,50.53127],[-3.60961,50.53124],[-3.60949,50.53125],[-3.6094,50.53127]]]]}},
{ "type":"Feature","properties":{"osm_way_id":"171216059","amenity":"parking","other":{"fee":"yes"}}, "geometry":{"type":"MultiPolygon","coordinates":[[[[-3.60791,50.53234],[-3.608,50.53232],[-3.60843,50.53194],[-3.60842,50.53192],[-3.60826,50.53194],[-3.60786,50.53206],[-3.60771,50.53214],[-3.60791,50.53234]]]]}},
{ "type":"Feature","properties":{"osm_way_id":"171223484","amenity":"parking","other":{"access":"private","fee":"yes","parking":"surface"}}, "geometry":{"type":"MultiPolygon","coordinates":[[[[-3.61424,50.54016],[-3.61382,50.54],[-3.61404,50.53976],[-3.6141,50.53978],[-3.61418,50.53971],[-3.61455,50.53985],[-3.61424,50.54016]]]]}},
{ "type":"Feature","properties":{"osm_way_id":"171223485","amenity":"parking","other":{"access":"customers","fee":"yes","parking":"surface"}}, "geometry":{"type":"MultiPolygon","coordinates":[[[[-3.61361,50.53988],[-3.61357,50.53994],[-3.6135,50.53999],[-3.6134,50.54005],[-3.61327,50.54012],[-3.61313,50.54017],[-3.6131,50.54012],[-3.61306,50.54012],[-3.61289,50.54003],[-3.61275,50.53995],[-3.61266,50.53988],[-3.61251,50.53945],[-3.61272,50.53954],[-3.61361,50.53988]]]]}},
{ "type":"Feature","properties":{"osm_way_id":"171223486","amenity":"parking","other":{"access":"customers","fee":"yes","parking":"surface"}}, "geometry":{"type":"MultiPolygon","coordinates":[[[[-3.61377,50.53981],[-3.61342,50.53968],[-3.61348,50.53961],[-3.61342,50.53958],[-3.61357,50.53941],[-3.61393,50.53957],[-3.6139,50.5396],[-3.61395,50.53962],[-3.61377,50.53981]]]]}},
{ "type":"Feature","properties":{"osm_way_id":"171278752","amenity":"parking"},"geometry":{"type":"MultiPolygon","coordinates":[[[[-3.78837,50.57666],[-3.78848,50.57667],[-3.78855,50.57671],[-3.78857,50.57676],[-3.7885,50.57681],[-3.78845,50.57683],[-3.78841,50.57684],[-3.78835,50.57683],[-3.78828,50.57683],[-3.78822,50.5768],[-3.78819,50.57675],[-3.78823,50.5767],[-3.78837,50.57666]]]]}},
{ "type":"Feature","properties":{"osm_way_id":"171420391","name":"Dartmoor Halfway Inn Parking","amenity":"parking"},"geometry":{"type":"MultiPolygon","coordinates":[[[[-3.68916,50.5346],[-3.68914,50.53466],[-3.68911,50.53473],[-3.68915,50.53474],[-3.68915,50.53491],[-3.68914,50.53495],[-3.68981,50.53504],[-3.6899,50.53479],[-3.68964,50.53476],[-3.68963,50.53467],[-3.68932,50.53463],[-3.68916,50.5346]]]]}},
{ "type":"Feature","properties":{"osm_way_id":"171494480","name":"Methodist Church Car Park","amenity":"parking","other":{"fee":"yes","parking":"surface"}}, "geometry":{"type":"MultiPolygon","coordinates":[[[[-3.67462,50.59219],[-3.6748,50.59201],[-3.67486,50.59191],[-3.67492,50.59193],[-3.67509,50.59169],[-3.6749,50.59161],[-3.67483,50.59158],[-3.67487,50.59151],[-3.67474,50.59147],[-3.67445,50.59187],[-3.67451,50.59189],[-3.67442,50.592],[-3.67434,50.59198],[-3.6743,50.59204],[-3.6744,50.59206],[-3.67437,50.59211],[-3.67462,50.59219]]]]}},
{ "type":"Feature","properties":{"osm_way_id":"172715103","amenity":"parking","other":{"access":"permit","capacity:disabled":"6"}}, "geometry":{"type":"MultiPolygon","coordinates":[[[[-3.81688,50.52737],[-3.81693,50.52728],[-3.81685,50.52725],[-3.81679,50.52723],[-3.81672,50.52735],[-3.81679,50.52737],[-3.81688,50.52737]]]]}},
{ "type":"Feature","properties":{"osm_way_id":"172715108","name":"Newbridge Car Park","amenity":"parking","other":{"fee":"yes","parking":"surface"}}, "geometry":{"type":"MultiPolygon","coordinates":[[[[-3.81975,50.5238],[-3.81965,50.52365],[-3.81952,50.52354],[-3.81962,50.52345],[-3.81976,50.52331],[-3.81995,50.52324],[-3.82006,50.52328],[-3.82007,50.52331],[-3.82014,50.52352],[-3.82009,50.52367],[-3.81993,50.52378],[-3.81975,50.5238]]]]}},
{ "type":"Feature","properties":{"osm_way_id":"184610050","amenity":"parking"},"geometry":{"type":"MultiPolygon","coordinates":[[[[-3.65142,50.6133],[-3.65159,50.61333],[-3.65161,50.61324],[-3.65155,50.61305],[-3.65131,50.61308],[-3.6514,50.61326],[-3.65142,50.6133]]]]}},
{ "type":"Feature","properties":{"osm_way_id":"184792897","amenity":"parking"},"geometry":{"type":"MultiPolygon","coordinates":[[[[-3.56278,50.64108],[-3.5622,50.64097],[-3.56246,50.64042],[-3.56263,50.64036],[-3.56308,50.64044],[-3.56278,50.64108]]]]}},
{ "type":"Feature","properties":{"osm_way_id":"184803186","amenity":"parking","other":{"charge":"2 GBP for 2 hours. 4 GBP ALL DAY","fee":"yes"}}, "geometry":{"type":"MultiPolygon","coordinates":[[[[-3.69214,50.62889],[-3.69145,50.62868],[-3.69152,50.62885],[-3.69181,50.6291],[-3.69214,50.62889]]]]}},
{ "type":"Feature","properties":{"osm_way_id":"184803189","amenity":"parking","other":{"capacity":"20","fee":"no"}}, "geometry":{"type":"MultiPolygon","coordinates":[[[[-3.68322,50.63135],[-3.68322,50.63111],[-3.68246,50.63112],[-3.68245,50.63143],[-3.68322,50.63135]]]]}},
{ "type":"Feature","properties":{"osm_way_id":"190589857","amenity":"parking"},"geometry":{"type":"MultiPolygon","coordinates":[[[[-3.52923,50.52165],[-3.52942,50.52164],[-3.52945,50.52165],[-3.52947,50.52168],[-3.52947,50.5217],[-3.5295,50.52182],[-3.5296,50.52182],[-3.52954,50.52157],[-3.52952,50.52149],[-3.52948,50.52144],[-3.5294,50.52141],[-3.52915,50.52142],[-3.52923,50.52165]]]]}},
{ "type":"Feature","properties":{"osm_way_id":"200074349","name":"Trago Mills Staff Parking","amenity":"parking","other":{"fee":"Private","parking":"surface"}}, "geometry":{"type":"MultiPolygon","coordinates":[[[[-3.66751,50.55841],[-3.66672,50.55878],[-3.66722,50.5592],[-3.6675,50.55912],[-3.66789,50.55898],[-3.66807,50.55884],[-3.66821,50.55862],[-3.66805,50.5585],[-3.66782,50.55832],[-3.66751,50.55841]]]]}},
{ "type":"Feature","properties":{"osm_way_id":"200074869","name":"Stover Park","amenity":"parking","other":{"fee":"yes","parking":"surface"}}, "geometry":{"type":"MultiPolygon","coordinates":[[[[-3.65085,50.56283],[-3.64946,50.56155],[-3.64886,50.56184],[-3.65031,50.56305],[-3.65033,50.56306],[-3.65085,50.56283]]]]}},
{ "type":"Feature","properties":{"osm_way_id":"204099811","amenity":"parking","other":{"access":"yes","fee":"yes","parking":"surface"}}, "geometry":{"type":"MultiPolygon","coordinates":[[[[-3.75755,50.51593],[-3.75827,50.51571],[-3.7583,50.5157],[-3.75829,50.51566],[-3.75825,50.51559],[-3.75814,50.51548],[-3.758,50.51536],[-3.75804,50.51535],[-3.75782,50.51512],[-3.75764,50.51519],[-3.75746,50.51507],[-3.7574,50.51511],[-3.75738,50.51511],[-3.75733,50.51508],[-3.75691,50.51529],[-3.75695,50.51535],[-3.75686,50.51539],[-3.75704,50.51558],[-3.75712,50.51554],[-3.75709,50.51552],[-3.75733,50.51543],[-3.75738,50.51547],[-3.7577,50.51535],[-3.75781,50.51553],[-3.75733,50.51568],[-3.75734,50.5157],[-3.75723,50.51573],[-3.75755,50.51593]]]]}},
{ "type":"Feature","properties":{"osm_way_id":"205963448","name":"Passage House Hotel Parking","amenity":"parking"},"geometry":{"type":"MultiPolygon","coordinates":[[[[-3.58429,50.54022],[-3.58444,50.53994],[-3.58373,50.53987],[-3.58367,50.53982],[-3.58327,50.53997],[-3.58317,50.54018],[-3.58297,50.54014],[-3.58295,50.5403],[-3.58298,50.54045],[-3.58298,50.54048],[-3.58346,50.5404],[-3.58376,50.54016],[-3.58429,50.54022]]]]}},
{ "type":"Feature","properties":{"osm_way_id":"205963449","name":"Passage House Hotel Parking","amenity":"parking"},"geometry":{"type":"MultiPolygon","coordinates":[[[[-3.58275,50.54046],[-3.58269,50.54036],[-3.58251,50.54045],[-3.58247,50.5404],[-3.58192,50.54067],[-3.58189,50.54064],[-3.58186,50.54061],[-3.58137,50.54084],[-3.58143,50.54088],[-3.58201,50.54075],[-3.58234,50.5407],[-3.58253,50.54059],[-3.5826,50.54063],[-3.58274,50.54055],[-3.58267,50.5405],[-3.58275,50.54046]]]]}},
{ "type":"Feature","properties":{"osm_way_id":"205963450","name":"Passage House Inn Parking","amenity":"parking"},"geometry":{"type":"MultiPolygon","coordinates":[[[[-3.5822,50.54008],[-3.58193,50.53985],[-3.58211,50.53979],[-3.58229,50.53975],[-3.58247,50.53973],[-3.58259,50.53982],[-3.58251,50.53996],[-3.5822,50.54008]]]]}},
{ "type":"Feature","properties":{"osm_way_id":"205963458","amenity":"parking","other":{"wheelchair":"yes"}}, "geometry":{"type":"MultiPolygon","coordinates":[[[[-3.59341,50.54233],[-3.59349,50.54229],[-3.5935,50.54225],[-3.59348,50.5422],[-3.59344,50.54216],[-3.59338,50.54212],[-3.59326,50.54222],[-3.59323,50.54228],[-3.59326,50.54233],[-3.59336,50.54236],[-3.59341,50.54233]]]]}},
{ "type":"Feature","properties":{"osm_way_id":"206084148","name":"Quay Road Car Park","amenity":"parking","other":{"access":"yes","fee":"yes","operator":"Teignbridge District Council","parking":"surface","wheelchair":"yes"}}, "geometry":{"type":"MultiPolygon","coordinates":[[[[-3.4999,50.54622],[-3.49999,50.54603],[-3.49933,50.54573],[-3.49919,50.54567],[-3.49906,50.54563],[-3.49882,50.54563],[-3.49848,50.54566],[-3.49845,50.54604],[-3.49863,50.54605],[-3.49865,50.54598],[-3.4988,50.54601],[-3.49891,50.54602],[-3.49895,50.54594],[-3.49932,50.54607],[-3.49925,50.54622],[-3.49948,50.54626],[-3.49951,50.54619],[-3.49973,50.54621],[-3.4999,50.54622]]]]}},
{ "type":"Feature","properties":{"osm_way_id":"206084169","name":"Brunswick Street Car Park","amenity":"parking","other":{"access":"yes","capacity:disabled":"yes","capacity:parent":"no","capacity:women":"no","fee":"yes","operator":"Teignbridge District Council","park_ride":"no","parking":"surface","smoothness":"intermediate","surface":"asphalt"}}, "geometry":{"type":"MultiPolygon","coordinates":[[[[-3.49765,50.5454],[-3.49766,50.54535],[-3.49766,50.54528],[-3.49766,50.54519],[-3.49765,50.54506],[-3.49715,50.54513],[-3.49715,50.54531],[-3.49714,50.54539],[-3.49713,50.54542],[-3.49751,50.54544],[-3.49753,50.5454],[-3.49765,50.5454]]]]}},
{ "type":"Feature","properties":{"osm_way_id":"206171001","name":"Teign Street Car Park","amenity":"parking","other":{"access":"yes","fee":"yes","operator":"Teignbridge District Council","parking":"surface"}}, "geometry":{"type":"MultiPolygon","coordinates":[[[[-3.49949,50.54677],[-3.4993,50.54673],[-3.49929,50.54667],[-3.49917,50.54665],[-3.49902,50.54661],[-3.49896,50.54664],[-3.49886,50.54667],[-3.49881,50.5467],[-3.4988,50.54673],[-3.49879,50.54676],[-3.49877,50.54679],[-3.49875,50.54682],[-3.49868,50.54685],[-3.49862,50.54687],[-3.49862,50.54689],[-3.49876,50.5469],[-3.49881,50.5469],[-3.4989,50.54692],[-3.49899,50.54695],[-3.49904,50.54696],[-3.49909,50.54697],[-3.49914,50.54696],[-3.49919,50.54695],[-3.49923,50.54694],[-3.49937,50.54685],[-3.49949,50.54677]]]]}},
{ "type":"Feature","properties":{"osm_way_id":"206554703","amenity":"parking","other":{"access":"customers","fee":"yes","parking":"surface"}}, "geometry":{"type":"MultiPolygon","coordinates":[[[[-3.59982,50.52967],[-3.59978,50.52967],[-3.59948,50.52965],[-3.59954,50.52881],[-3.59981,50.52882],[-3.59982,50.52887],[-3.59985,50.52922],[-3.59978,50.52934],[-3.59977,50.52954],[-3.59982,50.52967]]]]}},
{ "type":"Feature","properties":{"osm_way_id":"206554705","amenity":"parking"},"geometry":{"type":"MultiPolygon","coordinates":[[[[-3.59937,50.52731],[-3.59928,50.52733],[-3.59936,50.52776],[-3.59943,50.52777],[-3.59943,50.52781],[-3.59937,50.52782],[-3.59938,50.52823],[-3.59937,50.52829],[-3.59933,50.52868],[-3.59941,50.52868],[-3.59943,50.52874],[-3.59971,50.52874],[-3.5998,50.52874],[-3.59977,50.52831],[-3.59965,50.5283],[-3.59959,50.52796],[-3.59955,50.52773],[-3.5995,50.52758],[-3.59955,50.52757],[-3.59944,50.5273],[-3.59937,50.52731]]]]}},
{ "type":"Feature","properties":{"osm_way_id":"206598654","name":"Newton Abbot Railway Station","amenity":"parking","other":{"access":"yes","fee":"yes","operator":"APCOA","park_ride":"no","parking":"surface","supervised":"yes","surface":"asphalt"}}, "geometry":{"type":"MultiPolygon","coordinates":[[[[-3.59987,50.52978],[-3.59993,50.52993],[-3.60004,50.53016],[-3.60011,50.53027],[-3.60001,50.53026],[-3.59984,50.53027],[-3.59981,50.53031],[-3.5997,50.53028],[-3.59976,50.53018],[-3.5998,50.52984],[-3.59981,50.52972],[-3.59987,50.52978]]]]}},
{ "type":"Feature","properties":{"osm_way_id":"206598657","name":"Osbourne Street Car Park","amenity":"parking","other":{"access":"public","capacity":"189","fee":"yes","operator":"Teignbridge District Council","park_ride":"no","parking":"surface","supervised":"yes","surface":"asphalt"}}, "geometry":{"type":"MultiPolygon","coordinates":[[[[-3.60172,50.53149],[-3.60161,50.5318],[-3.59993,50.53166],[-3.59995,50.53158],[-3.59997,50.5315],[-3.60014,50.53152],[-3.60065,50.53138],[-3.60077,50.53141],[-3.60085,50.53139],[-3.60088,50.53133],[-3.60112,50.53138],[-3.60127,50.53116],[-3.60137,50.53117],[-3.60143,50.53118],[-3.60141,50.53128],[-3.60146,50.53129],[-3.60142,50.53147],[-3.60172,50.53149]]]]}},
{ "type":"Feature","properties":{"osm_way_id":"208250026","name":"Spectator Parking","amenity":"parking","other":{"surface":"grass"}}, "geometry":{"type":"MultiPolygon","coordinates":[[[[-3.57696,50.56825],[-3.57689,50.56824],[-3.57678,50.56831],[-3.57611,50.56882],[-3.57571,50.56915],[-3.57558,50.56916],[-3.57551,50.56916],[-3.57544,50.56922],[-3.57572,50.56934],[-3.57682,50.5698],[-3.57714,50.5695],[-3.57708,50.56931],[-3.57714,50.56917],[-3.57717,50.5691],[-3.57715,50.56891],[-3.57712,50.56866],[-3.57706,50.56841],[-3.57701,50.56828],[-3.57696,50.56825]]]]}},
{ "type":"Feature","properties":{"osm_way_id":"209189611","amenity":"parking"},"geometry":{"type":"MultiPolygon","coordinates":[[[[-3.61443,50.71033],[-3.61456,50.71013],[-3.61395,50.70991],[-3.61385,50.7099],[-3.61376,50.70993],[-3.61365,50.71002],[-3.61359,50.71014],[-3.61373,50.71024],[-3.61383,50.71013],[-3.61443,50.71033]]]]}},
{ "type":"Feature","properties":{"osm_way_id":"211719737","amenity":"parking","other":{"capacity":"60","fee":"no"}}, "geometry":{"type":"MultiPolygon","coordinates":[[[[-3.52912,50.57815],[-3.52902,50.57821],[-3.5289,50.57822],[-3.52873,50.57799],[-3.52859,50.57784],[-3.52852,50.57771],[-3.52854,50.57765],[-3.52864,50.57763],[-3.52873,50.57763],[-3.52875,50.5777],[-3.52901,50.57802],[-3.52912,50.57815]]]]}},
{ "type":"Feature","properties":{"osm_way_id":"211722321","amenity":"parking","other":{"capacity":"5"}}, "geometry":{"type":"MultiPolygon","coordinates":[[[[-3.53525,50.56474],[-3.53522,50.56459],[-3.53499,50.5646],[-3.53505,50.56476],[-3.5351,50.56475],[-3.53525,50.56474]]]]}},
{ "type":"Feature","properties":{"osm_way_id":"211727408","name":"Golf Course Parking","amenity":"parking","other":{"capacity":"80"}}, "geometry":{"type":"MultiPolygon","coordinates":[[[[-3.52811,50.56609],[-3.52821,50.5659],[-3.52821,50.56562],[-3.5281,50.56557],[-3.52805,50.56555],[-3.52714,50.56565],[-3.52775,50.56606],[-3.52811,50.56609]]]]}},
{ "type":"Feature","properties":{"osm_way_id":"213763566","name":"Henleys Business Park","amenity":"parking"},"geometry":{"type":"MultiPolygon","coordinates":[[[[-3.61975,50.5114],[-3.61947,50.5111],[-3.61955,50.51085],[-3.61957,50.51084],[-3.6199,50.511],[-3.61979,50.51127],[-3.61977,50.51134],[-3.61976,50.51136],[-3.61975,50.5114]]]]}},
{ "type":"Feature","properties":{"osm_way_id":"214292054","amenity":"parking"},"geometry":{"type":"MultiPolygon","coordinates":[[[[-3.69476,50.68192],[-3.69511,50.68193],[-3.69543,50.68201],[-3.69559,50.68184],[-3.69548,50.68162],[-3.69482,50.6817],[-3.69476,50.68192]]]]}},
{ "type":"Feature","properties":{"osm_way_id":"215799388","name":"Hare and Hounds Parking","amenity":"parking","other":{"access":"customers"}}, "geometry":{"type":"MultiPolygon","coordinates":[[[[-3.5758,50.49222],[-3.57558,50.49167],[-3.5755,50.4917],[-3.57541,50.49174],[-3.57551,50.49185],[-3.57523,50.49197],[-3.57507,50.49187],[-3.57492,50.49201],[-3.57488,50.49205],[-3.57473,50.49222],[-3.57468,50.49233],[-3.57466,50.49236],[-3.57515,50.4923],[-3.5751,50.49214],[-3.57518,50.49212],[-3.57515,50.49206],[-3.57535,50.49202],[-3.57542,50.49201],[-3.5754,50.49196],[-3.57555,50.49194],[-3.57562,50.4921],[-3.57559,50.49211],[-3.5756,50.49215],[-3.57542,50.49218],[-3.57546,50.49227],[-3.5758,50.49222]]]]}},
{ "type":"Feature","properties":{"osm_way_id":"216106036","amenity":"parking"},"geometry":{"type":"MultiPolygon","coordinates":[[[[-3.57949,50.49594],[-3.57937,50.49598],[-3.57943,50.49619],[-3.57959,50.49643],[-3.57977,50.49636],[-3.57966,50.49621],[-3.57949,50.49594]]]]}},
{ "type":"Feature","properties":{"osm_way_id":"216496489","amenity":"parking","other":{"access":"customers","operator":"Barn Owl Parking"}}, "geometry":{"type":"MultiPolygon","coordinates":[[[[-3.58552,50.51035],[-3.58554,50.51032],[-3.58556,50.5103],[-3.5855,50.51026],[-3.58548,50.5102],[-3.58555,50.51013],[-3.58567,50.51003],[-3.58581,50.50996],[-3.58575,50.50988],[-3.58556,50.50977],[-3.58539,50.50972],[-3.58551,50.5098],[-3.58553,50.50986],[-3.58549,50.50987],[-3.58551,50.50992],[-3.58549,50.50992],[-3.58553,50.51001],[-3.58517,50.51007],[-3.58504,50.51011],[-3.58529,50.51024],[-3.58536,50.51023],[-3.58552,50.51035]]]]}},
{ "type":"Feature","properties":{"osm_way_id":"216731354","name":"Kingskerswell Car Park","amenity":"parking"},"geometry":{"type":"MultiPolygon","coordinates":[[[[-3.5809,50.49936],[-3.58102,50.49923],[-3.58093,50.49919],[-3.58102,50.49911],[-3.58109,50.49902],[-3.58079,50.49892],[-3.58062,50.49909],[-3.58051,50.49905],[-3.5804,50.49914],[-3.5809,50.49936]]]]}},
{ "type":"Feature","properties":{"osm_way_id":"216731359","name":"The Sloop Parking","amenity":"parking","other":{"access":"customers"}}, "geometry":{"type":"MultiPolygon","coordinates":[[[[-3.57795,50.50037],[-3.57822,50.50028],[-3.57816,50.50023],[-3.57823,50.50019],[-3.57805,50.50003],[-3.57797,50.49997],[-3.57789,50.50003],[-3.57751,50.50026],[-3.57777,50.50042],[-3.57795,50.50037]]]]}},
{ "type":"Feature","properties":{"osm_way_id":"216943676","name":"Linny Inn Parking","amenity":"parking","other":{"access":"customers"}}, "geometry":{"type":"MultiPolygon","coordinates":[[[[-3.56454,50.50628],[-3.56472,50.50614],[-3.56456,50.50594],[-3.56448,50.50596],[-3.56421,50.5061],[-3.56445,50.5063],[-3.56451,50.50626],[-3.56454,50.50628]]]]}},
{ "type":"Feature","properties":{"osm_way_id":"217203520","amenity":"parking"},"geometry":{"type":"MultiPolygon","coordinates":[[[[-3.5538,50.53451],[-3.5535,50.5345],[-3.55359,50.53481],[-3.55385,50.53479],[-3.5538,50.53451]]]]}},
{ "type":"Feature","properties":{"osm_way_id":"217205765","amenity":"parking"},"geometry":{"type":"MultiPolygon","coordinates":[[[[-3.55073,50.53964],[-3.5503,50.53959],[-3.55013,50.54011],[-3.55021,50.54042],[-3.55058,50.54046],[-3.55073,50.53964]]]]}},
{ "type":"Feature","properties":{"osm_way_id":"217352894","amenity":"parking","other":{"capacity":"20"}}, "geometry":{"type":"MultiPolygon","coordinates":[[[[-3.84241,50.63646],[-3.84251,50.63645],[-3.84246,50.63615],[-3.84222,50.63617],[-3.84212,50.63617],[-3.84196,50.63615],[-3.84191,50.63614],[-3.84191,50.63613],[-3.84193,50.63611],[-3.84196,50.6361],[-3.84188,50.63609],[-3.84182,50.63607],[-3.84182,50.6361],[-3.8418,50.63613],[-3.8418,50.63616],[-3.84182,50.63624],[-3.84182,50.63629],[-3.84182,50.63638],[-3.84182,50.63641],[-3.84184,50.63648],[-3.84184,50.6365],[-3.84186,50.63652],[-3.84189,50.63652],[-3.84194,50.63652],[-3.84201,50.63651],[-3.84208,50.6365],[-3.84229,50.63648],[-3.84241,50.63646]]]]}},
{ "type":"Feature","properties":{"osm_way_id":"217844351","name":"Kingskerswell Health Centre Parking","amenity":"parking","other":{"access":"customers"}}, "geometry":{"type":"MultiPolygon","coordinates":[[[[-3.58221,50.49985],[-3.58218,50.49982],[-3.58188,50.49985],[-3.58223,50.50014],[-3.58232,50.50016],[-3.58247,50.50012],[-3.58252,50.5001],[-3.58262,50.50007],[-3.58259,50.50002],[-3.58252,50.49996],[-3.58239,50.50001],[-3.58221,50.49985]]]]}},
{ "type":"Feature","properties":{"osm_way_id":"217844353","name":"Parish Church Centre Parking","amenity":"parking","other":{"access":"customers"}}, "geometry":{"type":"MultiPolygon","coordinates":[[[[-3.58557,50.49911],[-3.58559,50.49932],[-3.58518,50.49943],[-3.58542,50.4997],[-3.58547,50.49969],[-3.58545,50.49965],[-3.58562,50.49961],[-3.58566,50.4996],[-3.58559,50.4995],[-3.58564,50.49947],[-3.58582,50.49942],[-3.58578,50.49934],[-3.5858,50.49905],[-3.58557,50.49911]]]]}},
{ "type":"Feature","properties":{"osm_way_id":"217844355","name":"Parish Church Centre Parking","amenity":"parking","other":{"access":"customers"}}, "geometry":{"type":"MultiPolygon","coordinates":[[[[-3.58589,50.50035],[-3.58612,50.50029],[-3.58587,50.49995],[-3.58583,50.49988],[-3.5859,50.49987],[-3.58596,50.49984],[-3.58591,50.49974],[-3.58555,50.49982],[-3.58589,50.50035]]]]}},
{ "type":"Feature","properties":{"osm_way_id":"223163672","amenity":"parking"},"geometry":{"type":"MultiPolygon","coordinates":[[[[-3.55952,50.63756],[-3.56102,50.63807],[-3.561,50.63815],[-3.56051,50.6398],[-3.56038,50.6403],[-3.55966,50.64011],[-3.55925,50.63988],[-3.55895,50.6396],[-3.55912,50.63874],[-3.55952,50.63756]]]]}},
{ "type":"Feature","properties":{"osm_way_id":"225377809","amenity":"parking","other":{"access":"customers","fee":"no","parking":"surface"}}, "geometry":{"type":"MultiPolygon","coordinates":[[[[-3.6737,50.58191],[-3.6737,50.58206],[-3.67339,50.58206],[-3.67337,50.58188],[-3.6737,50.58191]]]]}},
{ "type":"Feature","properties":{"osm_way_id":"227817269","amenity":"parking","other":{"access":"yes","capacity":"30","fee":"1","parking":"surface","surface":"asphalt"}}, "geometry":{"type":"MultiPolygon","coordinates":[[[[-3.76865,50.61717],[-3.76849,50.61684],[-3.76831,50.61688],[-3.76851,50.61726],[-3.76865,50.61717]]]]}},
{ "type":"Feature","properties":{"osm_way_id":"228189286","name":"Ipplepen Health Centre Parking","amenity":"parking","other":{"access":"customers"}}, "geometry":{"type":"MultiPolygon","coordinates":[[[[-3.64428,50.48667],[-3.64412,50.48677],[-3.64424,50.48686],[-3.64444,50.48692],[-3.64454,50.48687],[-3.64452,50.48678],[-3.64456,50.48674],[-3.6446,50.48672],[-3.6444,50.4866],[-3.64428,50.48667]]]]}},
{ "type":"Feature","properties":{"osm_way_id":"228189291","name":"Ipplepen Village Hall Parking","amenity":"parking"},"geometry":{"type":"MultiPolygon","coordinates":[[[[-3.6449,50.48634],[-3.64532,50.48619],[-3.64519,50.48604],[-3.64505,50.48611],[-3.64503,50.48612],[-3.64507,50.48615],[-3.6449,50.48625],[-3.64476,50.48615],[-3.64473,50.48616],[-3.64483,50.48633],[-3.6449,50.48634]]]]}},
{ "type":"Feature","properties":{"osm_way_id":"228189298","name":"The Wellington Parking","amenity":"parking","other":{"access":"customers"}}, "geometry":{"type":"MultiPolygon","coordinates":[[[[-3.64387,50.48797],[-3.64401,50.48784],[-3.64363,50.48762],[-3.64344,50.48778],[-3.64363,50.48787],[-3.64361,50.48788],[-3.64387,50.48797]]]]}},
{ "type":"Feature","properties":{"osm_way_id":"228504875","name":"Ipplepen Football\/Cricket Club Parking","amenity":"parking","other":{"access":"customers"}}, "geometry":{"type":"MultiPolygon","coordinates":[[[[-3.63825,50.49438],[-3.63809,50.49439],[-3.63813,50.49454],[-3.63859,50.49451],[-3.63913,50.49447],[-3.63916,50.49454],[-3.63954,50.49454],[-3.63955,50.49444],[-3.63961,50.49443],[-3.6396,50.49428],[-3.63877,50.49435],[-3.63825,50.49438]]]]}},
{ "type":"Feature","properties":{"osm_way_id":"228504879","name":"Two Mile Oak Parking","amenity":"parking","other":{"access":"customers"}}, "geometry":{"type":"MultiPolygon","coordinates":[[[[-3.62832,50.50174],[-3.62914,50.50154],[-3.62921,50.5015],[-3.62894,50.50144],[-3.62867,50.50139],[-3.6286,50.50147],[-3.62824,50.50163],[-3.62832,50.50174]]]]}},
{ "type":"Feature","properties":{"osm_way_id":"229092312","amenity":"parking","other":{"access":"private"}}, "geometry":{"type":"MultiPolygon","coordinates":[[[[-3.61777,50.66797],[-3.61752,50.66801],[-3.61746,50.66782],[-3.61746,50.66777],[-3.61776,50.66776],[-3.61774,50.6679],[-3.61777,50.66797]]]]}},
{ "type":"Feature","properties":{"osm_way_id":"229092518","amenity":"parking","other":{"access":"private","parking":"surface"}}, "geometry":{"type":"MultiPolygon","coordinates":[[[[-3.62089,50.66786],[-3.62072,50.66793],[-3.62056,50.66797],[-3.62053,50.66793],[-3.62039,50.66773],[-3.6203,50.6676],[-3.62049,50.66755],[-3.62089,50.66786]]]]}},
{ "type":"Feature","properties":{"osm_way_id":"229166950","amenity":"parking"},"geometry":{"type":"MultiPolygon","coordinates":[[[[-3.74174,50.67197],[-3.74171,50.67186],[-3.74159,50.67187],[-3.7416,50.67197],[-3.74156,50.67197],[-3.74142,50.6719],[-3.74144,50.67198],[-3.74157,50.67199],[-3.7417,50.67199],[-3.74174,50.67197]]]]}},
{ "type":"Feature","properties":{"osm_way_id":"229166951","amenity":"parking"},"geometry":{"type":"MultiPolygon","coordinates":[[[[-3.75152,50.67145],[-3.75107,50.67132],[-3.75121,50.67118],[-3.75154,50.67126],[-3.75144,50.67134],[-3.7516,50.67139],[-3.75152,50.67145]]]]}},
{ "type":"Feature","properties":{"osm_way_id":"229167006","amenity":"parking"},"geometry":{"type":"MultiPolygon","coordinates":[[[[-3.74094,50.67698],[-3.74085,50.67696],[-3.74077,50.67698],[-3.74075,50.67704],[-3.74078,50.67714],[-3.74085,50.67717],[-3.7409,50.67713],[-3.74099,50.67718],[-3.74098,50.67706],[-3.74099,50.67699],[-3.74094,50.67698]]]]}},
{ "type":"Feature","properties":{"osm_way_id":"230773399","amenity":"parking","other":{"access":"customers","capacity":"25","fee":"no","parking":"surface"}}, "geometry":{"type":"MultiPolygon","coordinates":[[[[-3.44557,50.59609],[-3.44553,50.5961],[-3.44542,50.59602],[-3.44585,50.59591],[-3.44589,50.596],[-3.44613,50.59595],[-3.44609,50.59599],[-3.44603,50.59607],[-3.44595,50.59617],[-3.44588,50.59628],[-3.44586,50.59627],[-3.44582,50.59624],[-3.44571,50.59626],[-3.44568,50.59625],[-3.44568,50.59622],[-3.44575,50.5962],[-3.44573,50.59615],[-3.44575,50.59614],[-3.44572,50.59607],[-3.44557,50.59609]]]]}},
{ "type":"Feature","properties":{"osm_way_id":"230785721","name":"Ten Tors","amenity":"parking","other":{"parking":"surface"}}, "geometry":{"type":"MultiPolygon","coordinates":[[[[-3.59752,50.56088],[-3.59742,50.56086],[-3.59729,50.56085],[-3.59716,50.56085],[-3.59714,50.56078],[-3.59714,50.56072],[-3.59718,50.5607],[-3.59723,50.56069],[-3.59744,50.56045],[-3.59742,50.56039],[-3.59747,50.56034],[-3.59754,50.56031],[-3.5977,50.56028],[-3.59782,50.56029],[-3.59803,50.56036],[-3.59786,50.56053],[-3.59782,50.56052],[-3.59752,50.56088]]]]}},
{ "type":"Feature","properties":{"osm_way_id":"230786173","name":"Holcombe Village Hall","amenity":"parking","other":{"access":"customers","fee":"no","parking":"surface"}}, "geometry":{"type":"MultiPolygon","coordinates":[[[[-3.48043,50.56578],[-3.48099,50.56564],[-3.48089,50.56548],[-3.48061,50.56556],[-3.48053,50.56545],[-3.48075,50.56538],[-3.48071,50.56534],[-3.48048,50.56541],[-3.48039,50.56551],[-3.4803,50.56552],[-3.48032,50.56557],[-3.48033,50.56559],[-3.48048,50.56555],[-3.48052,50.5656],[-3.48039,50.56564],[-3.48043,50.56578]]]]}},
{ "type":"Feature","properties":{"osm_way_id":"231400922","name":"Summer Parking","amenity":"parking","other":{"parking":"surface"}}, "geometry":{"type":"MultiPolygon","coordinates":[[[[-3.74847,50.57971],[-3.7484,50.5797],[-3.7481,50.57965],[-3.74795,50.57963],[-3.7478,50.57962],[-3.74779,50.57957],[-3.74777,50.5795],[-3.74769,50.57946],[-3.74774,50.57934],[-3.74784,50.57937],[-3.74791,50.57937],[-3.74818,50.57932],[-3.7481,50.57925],[-3.74816,50.57917],[-3.74821,50.57912],[-3.74826,50.57909],[-3.74831,50.57907],[-3.74833,50.57906],[-3.74842,50.57906],[-3.74865,50.57908],[-3.74877,50.57905],[-3.7488,50.579],[-3.74872,50.57885],[-3.74882,50.57884],[-3.74898,50.57885],[-3.74914,50.57887],[-3.74931,50.5789],[-3.74953,50.57894],[-3.74979,50.57898],[-3.75002,50.57903],[-3.75006,50.57904],[-3.7498,50.57918],[-3.74969,50.57924],[-3.74955,50.57931],[-3.74936,50.57938],[-3.74915,50.57946],[-3.74897,50.57953],[-3.74863,50.57965],[-3.74847,50.57971]]]]}},
{ "type":"Feature","properties":{"osm_way_id":"231400928","amenity":"parking","other":{"capacity":"20"}}, "geometry":{"type":"MultiPolygon","coordinates":[[[[-3.73844,50.58701],[-3.7385,50.58712],[-3.73859,50.58717],[-3.7388,50.58717],[-3.73888,50.58712],[-3.73891,50.58701],[-3.73882,50.58692],[-3.73864,50.58692],[-3.73846,50.58694],[-3.73838,50.58696],[-3.73828,50.5869],[-3.73834,50.58683],[-3.73825,50.58678],[-3.73809,50.58679],[-3.73799,50.58684],[-3.738,50.5869],[-3.73801,50.58696],[-3.7381,50.58702],[-3.73825,50.587],[-3.73833,50.58698],[-3.73844,50.58701]]]]}},
{ "type":"Feature","properties":{"osm_way_id":"233752549","amenity":"parking"},"geometry":{"type":"MultiPolygon","coordinates":[[[[-3.61827,50.53489],[-3.61796,50.53497],[-3.61746,50.5346],[-3.61723,50.53478],[-3.61769,50.53496],[-3.61802,50.53503],[-3.61814,50.53509],[-3.61837,50.53514],[-3.61844,50.53508],[-3.61834,50.53494],[-3.6183,50.53492],[-3.61827,50.53489]]]]}},
{ "type":"Feature","properties":{"osm_way_id":"234139157","amenity":"parking","other":{"access":"customers","operator":"The Tavistock Inn"}}, "geometry":{"type":"MultiPolygon","coordinates":[[[[-3.82869,50.53441],[-3.82855,50.53442],[-3.82851,50.53426],[-3.82864,50.53425],[-3.82869,50.53441]]]]}},
{ "type":"Feature","properties":{"osm_way_id":"241239621","name":"Multistory Car Park","amenity":"parking","building":"yes","other":{"addr:city":"Newton Abbot","addr:postcode":"TQ12 2QY","capacity":"296","fee":"yes","operator":"Teignbridge District Council","park_ride":"no","parking":"multi-storey","source:postcode":"ons_opendata_postcodes","supervised":"yes","surface":"asphalt"}}, "geometry":{"type":"MultiPolygon","coordinates":[[[[-3.61145,50.53152],[-3.61138,50.53123],[-3.61115,50.53125],[-3.61046,50.53131],[-3.61053,50.53155],[-3.61055,50.53159],[-3.61145,50.53152]]]]}},
{ "type":"Feature","properties":{"osm_way_id":"244179348","amenity":"parking"},"geometry":{"type":"MultiPolygon","coordinates":[[[[-3.77449,50.488],[-3.77439,50.48807],[-3.77421,50.48805],[-3.77414,50.48812],[-3.77406,50.48814],[-3.77398,50.48811],[-3.77378,50.48802],[-3.7736,50.48793],[-3.77368,50.48788],[-3.77408,50.488],[-3.77414,50.48791],[-3.77431,50.48793],[-3.7743,50.48797],[-3.7744,50.48799],[-3.77449,50.488]]]]}},
{ "type":"Feature","properties":{"osm_way_id":"252035244","amenity":"parking"},"geometry":{"type":"MultiPolygon","coordinates":[[[[-3.7381,50.58742],[-3.73799,50.58735],[-3.73784,50.58735],[-3.7378,50.58744],[-3.73788,50.58748],[-3.73808,50.58747],[-3.7381,50.58742]]]]}},
{ "type":"Feature","properties":{"osm_way_id":"252287599","amenity":"parking","other":{"fee":"yes"}}, "geometry":{"type":"MultiPolygon","coordinates":[[[[-3.77848,50.48103],[-3.77864,50.48115],[-3.77873,50.48105],[-3.7788,50.48103],[-3.77889,50.48096],[-3.77878,50.48092],[-3.7787,50.48088],[-3.7785,50.48101],[-3.7785,50.48102],[-3.77848,50.48103]]]]}},
{ "type":"Feature","properties":{"osm_way_id":"254181646","name":"Sandy Lane","amenity":"parking","other":{"bus":"yes","fee":"no"}}, "geometry":{"type":"MultiPolygon","coordinates":[[[[-3.45964,50.58597],[-3.46005,50.58562],[-3.46048,50.5859],[-3.46065,50.58598],[-3.46061,50.58602],[-3.46023,50.58629],[-3.45964,50.58597]]]]}},
{ "type":"Feature","properties":{"osm_way_id":"254655786","amenity":"parking"},"geometry":{"type":"MultiPolygon","coordinates":[[[[-3.6012,50.53989],[-3.60052,50.53945],[-3.60041,50.5395],[-3.60017,50.53938],[-3.59936,50.53969],[-3.59957,50.53984],[-3.60077,50.54039],[-3.6012,50.53989]]]]}},
{ "type":"Feature","properties":{"osm_way_id":"256197775","amenity":"parking"},"geometry":{"type":"MultiPolygon","coordinates":[[[[-3.76441,50.47107],[-3.76318,50.47134],[-3.76266,50.47121],[-3.76292,50.47114],[-3.76306,50.47111],[-3.76398,50.47092],[-3.76433,50.47091],[-3.76441,50.47107]]]]}},
{ "type":"Feature","properties":{"osm_way_id":"258106288","amenity":"parking","other":{"access":"private","parking":"surface"}}, "geometry":{"type":"MultiPolygon","coordinates":[[[[-3.5557,50.52082],[-3.55562,50.52077],[-3.55568,50.52072],[-3.55551,50.52063],[-3.55584,50.52039],[-3.55583,50.52047],[-3.55598,50.52053],[-3.5557,50.52082]]]]}},
{ "type":"Feature","properties":{"osm_way_id":"275655214","amenity":"parking","other":{"access":"private","capacity":"10","parking":"surface"}}, "geometry":{"type":"MultiPolygon","coordinates":[[[[-3.76004,50.64621],[-3.75998,50.64624],[-3.75993,50.64627],[-3.75972,50.6461],[-3.75974,50.64607],[-3.75989,50.64604],[-3.75987,50.64609],[-3.76004,50.64621]]]]}},
{ "type":"Feature","properties":{"osm_way_id":"283424817","name":"Beechleigh Furze","amenity":"parking","other":{"capacity":"8","fee":"no","operator":"Forestry Commission","parking":"surface"}}, "geometry":{"type":"MultiPolygon","coordinates":[[[[-3.66995,50.60526],[-3.67002,50.60503],[-3.66978,50.60501],[-3.66973,50.60525],[-3.66995,50.60526]]]]}},
{ "type":"Feature","properties":{"osm_way_id":"294962297","amenity":"parking"},"geometry":{"type":"MultiPolygon","coordinates":[[[[-3.65448,50.48749],[-3.65458,50.48736],[-3.65413,50.4872],[-3.654,50.48737],[-3.65448,50.48749]]]]}},
{ "type":"Feature","properties":{"osm_way_id":"295020272","amenity":"parking"},"geometry":{"type":"MultiPolygon","coordinates":[[[[-3.60825,50.70896],[-3.60825,50.70883],[-3.60832,50.70883],[-3.6084,50.70881],[-3.60849,50.70884],[-3.60873,50.70887],[-3.6088,50.70886],[-3.60913,50.70888],[-3.60947,50.70888],[-3.60948,50.70891],[-3.60948,50.70895],[-3.60825,50.70896]]]]}},
{ "type":"Feature","properties":{"osm_way_id":"301814395","name":"School Parking","amenity":"parking"},"geometry":{"type":"MultiPolygon","coordinates":[[[[-3.67644,50.55534],[-3.67688,50.55488],[-3.67662,50.55476],[-3.67614,50.55524],[-3.67644,50.55534]]]]}},
{ "type":"Feature","properties":{"osm_way_id":"301889341","amenity":"parking"},"geometry":{"type":"MultiPolygon","coordinates":[[[[-3.70298,50.49459],[-3.7029,50.49461],[-3.70249,50.49436],[-3.70251,50.49431],[-3.70252,50.49428],[-3.70301,50.49429],[-3.70302,50.49442],[-3.70298,50.49459]]]]}},
{ "type":"Feature","properties":{"osm_way_id":"302314514","name":"Teignmouth Rail Station Car Park","amenity":"parking","other":{"access":"customers","fee":"yes","parking":"surface"}}, "geometry":{"type":"MultiPolygon","coordinates":[[[[-3.49498,50.54784],[-3.49498,50.54788],[-3.49518,50.54789],[-3.49518,50.54793],[-3.49522,50.54797],[-3.49517,50.54799],[-3.49511,50.54801],[-3.49504,50.54802],[-3.49497,50.54802],[-3.49489,50.54802],[-3.49405,50.54816],[-3.49381,50.5482],[-3.49385,50.54799],[-3.49382,50.54799],[-3.49384,50.5479],[-3.49405,50.54779],[-3.49431,50.54781],[-3.49498,50.54784]]]]}},
{ "type":"Feature","properties":{"osm_way_id":"302314812","name":"Lower Brook Street","amenity":"parking","other":{"access":"yes","capacity":"27","fee":"yes","operator":"Devon County Council","parking":"surface","supervised":"no"}}, "geometry":{"type":"MultiPolygon","coordinates":[[[[-3.49422,50.54765],[-3.49422,50.54758],[-3.49425,50.54757],[-3.49509,50.54767],[-3.49535,50.54768],[-3.49536,50.54777],[-3.49487,50.54775],[-3.49453,50.54771],[-3.49422,50.54765]]]]}},
{ "type":"Feature","properties":{"osm_way_id":"302685014","name":"Broadmeadow Sports Centre Car Park","amenity":"parking"},"geometry":{"type":"MultiPolygon","coordinates":[[[[-3.51727,50.54928],[-3.517,50.5489],[-3.5165,50.54843],[-3.51623,50.54817],[-3.51649,50.54809],[-3.51724,50.54886],[-3.51749,50.54916],[-3.51727,50.54928]]]]}},
{ "type":"Feature","properties":{"osm_way_id":"307397872","amenity":"parking"},"geometry":{"type":"MultiPolygon","coordinates":[[[[-3.55273,50.6449],[-3.55299,50.64479],[-3.553,50.64468],[-3.55275,50.64468],[-3.55238,50.64469],[-3.55215,50.64466],[-3.55206,50.6449],[-3.55273,50.6449]]]]}},
{ "type":"Feature","properties":{"osm_way_id":"307615323","amenity":"parking","other":{"fee":"yes"}}, "geometry":{"type":"MultiPolygon","coordinates":[[[[-3.68967,50.59418],[-3.69004,50.59367],[-3.68919,50.59335],[-3.68887,50.59372],[-3.68922,50.59386],[-3.68923,50.59398],[-3.68967,50.59418]]]]}},
{ "type":"Feature","properties":{"osm_way_id":"310085261","amenity":"parking"},"geometry":{"type":"MultiPolygon","coordinates":[[[[-3.51871,50.60084],[-3.51862,50.60079],[-3.51797,50.60099],[-3.51789,50.60105],[-3.51762,50.60114],[-3.51761,50.60122],[-3.51799,50.6011],[-3.51871,50.60084]]]]}},
{ "type":"Feature","properties":{"osm_way_id":"310343163","amenity":"parking"},"geometry":{"type":"MultiPolygon","coordinates":[[[[-3.58588,50.4993],[-3.58598,50.49935],[-3.58603,50.49951],[-3.58605,50.49956],[-3.586,50.49957],[-3.58588,50.4993]]]]}},
{ "type":"Feature","properties":{"osm_way_id":"311202040","amenity":"parking","other":{"access":"customers"}}, "geometry":{"type":"MultiPolygon","coordinates":[[[[-3.58287,50.6717],[-3.58267,50.67152],[-3.58262,50.6714],[-3.58251,50.67106],[-3.5822,50.6711],[-3.58237,50.67176],[-3.58287,50.6717]]]]}},
{ "type":"Feature","properties":{"osm_way_id":"311893699","amenity":"parking","other":{"access":"customers"}}, "geometry":{"type":"MultiPolygon","coordinates":[[[[-3.72872,50.69689],[-3.72865,50.69697],[-3.72865,50.69701],[-3.72861,50.69701],[-3.7285,50.69702],[-3.72853,50.69697],[-3.72861,50.69685],[-3.72866,50.69687],[-3.7287,50.69688],[-3.72872,50.69689]]]]}},
{ "type":"Feature","properties":{"osm_way_id":"313936626","amenity":"parking","other":{"parking":"street_side"}}, "geometry":{"type":"MultiPolygon","coordinates":[[[[-3.60238,50.52833],[-3.60231,50.52835],[-3.60225,50.52829],[-3.60218,50.52824],[-3.60209,50.52822],[-3.60215,50.52817],[-3.60224,50.52821],[-3.60231,50.52825],[-3.60238,50.52833]]]]}},
{ "type":"Feature","properties":{"osm_way_id":"315433728","amenity":"parking"},"geometry":{"type":"MultiPolygon","coordinates":[[[[-3.54659,50.54883],[-3.54662,50.54926],[-3.54652,50.54921],[-3.54631,50.5491],[-3.54585,50.54898],[-3.54585,50.54891],[-3.54634,50.54888],[-3.54659,50.54883]]]]}},
{ "type":"Feature","properties":{"osm_way_id":"315740990","amenity":"parking"},"geometry":{"type":"MultiPolygon","coordinates":[[[[-3.66974,50.67929],[-3.66948,50.67936],[-3.66946,50.67929],[-3.66972,50.67923],[-3.66974,50.67929]]]]}},
{ "type":"Feature","properties":{"osm_way_id":"315764424","amenity":"parking"},"geometry":{"type":"MultiPolygon","coordinates":[[[[-3.76961,50.66275],[-3.76939,50.66281],[-3.76915,50.66247],[-3.76937,50.6624],[-3.76961,50.66275]]]]}},
{ "type":"Feature","properties":{"osm_way_id":"315767101","amenity":"parking","other":{"capacity":"10","fee":"no","operator":"None","park_ride":"no","parking":"surface","supervised":"no","surface":"gravel"}}, "geometry":{"type":"MultiPolygon","coordinates":[[[[-3.87335,50.6144],[-3.87333,50.6144],[-3.87311,50.61455],[-3.87308,50.61453],[-3.87306,50.61449],[-3.87304,50.61445],[-3.87315,50.61437],[-3.87337,50.61433],[-3.87345,50.61432],[-3.87335,50.6144]]]]}},
{ "type":"Feature","properties":{"osm_way_id":"315807279","amenity":"parking"},"geometry":{"type":"MultiPolygon","coordinates":[[[[-3.84561,50.61754],[-3.84554,50.61753],[-3.84542,50.61749],[-3.84543,50.61741],[-3.84554,50.61735],[-3.84563,50.61729],[-3.8456,50.61741],[-3.84561,50.61754]]]]}},
{ "type":"Feature","properties":{"osm_way_id":"316186219","amenity":"parking","other":{"access":"private","parking":"surface"}}, "geometry":{"type":"MultiPolygon","coordinates":[[[[-3.5077,50.54673],[-3.50652,50.54687],[-3.50648,50.54673],[-3.5065,50.54665],[-3.50658,50.5466],[-3.50673,50.54657],[-3.50769,50.54668],[-3.5077,50.54673]]]]}},
{ "type":"Feature","properties":{"osm_way_id":"323407943","amenity":"parking","other":{"access":"private","description":"Private Carpark"}}, "geometry":{"type":"MultiPolygon","coordinates":[[[[-3.77434,50.48125],[-3.77422,50.48135],[-3.77394,50.48125],[-3.77401,50.48122],[-3.77404,50.48124],[-3.77409,50.48122],[-3.77407,50.48121],[-3.77418,50.48117],[-3.7743,50.48118],[-3.77426,50.48121],[-3.77434,50.48125]]]]}},
{ "type":"Feature","properties":{"osm_way_id":"323433093","amenity":"parking","other":{"fee":"yes"}}, "geometry":{"type":"MultiPolygon","coordinates":[[[[-3.77856,50.48135],[-3.77859,50.48136],[-3.77861,50.48136],[-3.77864,50.48137],[-3.77867,50.48137],[-3.77869,50.48138],[-3.77873,50.48138],[-3.77872,50.48142],[-3.77871,50.48146],[-3.77869,50.48152],[-3.77865,50.48152],[-3.77864,50.48155],[-3.77871,50.48158],[-3.77866,50.4817],[-3.77854,50.48168],[-3.77832,50.48179],[-3.77817,50.48164],[-3.77818,50.48154],[-3.77818,50.48147],[-3.77832,50.48147],[-3.77833,50.4814],[-3.77855,50.48142],[-3.77856,50.48135]]]]}},
{ "type":"Feature","properties":{"osm_way_id":"323734326","amenity":"parking","other":{"access":"private","description":"Private Parking for Nursing Home"}}, "geometry":{"type":"MultiPolygon","coordinates":[[[[-3.77329,50.48059],[-3.77317,50.48066],[-3.77323,50.48072],[-3.7734,50.48071],[-3.7734,50.48069],[-3.7734,50.48068],[-3.77329,50.48067],[-3.77329,50.48059]]]]}},
{ "type":"Feature","properties":{"osm_way_id":"323735149","name":"Car Park for Salmon's Leap Cafe and Antiques","amenity":"parking"},"geometry":{"type":"MultiPolygon","coordinates":[[[[-3.77062,50.4869],[-3.77057,50.48688],[-3.77037,50.4869],[-3.77032,50.48682],[-3.77022,50.48682],[-3.77024,50.48693],[-3.77004,50.48694],[-3.77005,50.48697],[-3.76995,50.48698],[-3.76998,50.48714],[-3.77005,50.48714],[-3.77007,50.48718],[-3.77039,50.48714],[-3.77039,50.48711],[-3.77059,50.48708],[-3.77057,50.48703],[-3.77058,50.48701],[-3.77062,50.487],[-3.77062,50.4869]]]]}},
{ "type":"Feature","properties":{"osm_way_id":"323898455","name":"Sports Club Car Park","amenity":"parking"},"geometry":{"type":"MultiPolygon","coordinates":[[[[-3.783,50.47907],[-3.78286,50.47916],[-3.78272,50.47909],[-3.7828,50.47904],[-3.78285,50.47905],[-3.78288,50.47905],[-3.78292,50.47905],[-3.78296,50.47905],[-3.78298,50.47906],[-3.783,50.47907]]]]}},
{ "type":"Feature","properties":{"osm_way_id":"323898896","name":"Football Club Car Parking","amenity":"parking"},"geometry":{"type":"MultiPolygon","coordinates":[[[[-3.78428,50.47865],[-3.78418,50.47857],[-3.78423,50.4785],[-3.78412,50.47848],[-3.78405,50.47843],[-3.78414,50.47835],[-3.78428,50.47839],[-3.78445,50.47845],[-3.78442,50.47854],[-3.78436,50.47858],[-3.7844,50.4786],[-3.78428,50.47865]]]]}},
{ "type":"Feature","properties":{"osm_way_id":"324586786","amenity":"parking","other":{"fee":"yes","parking":"surface"}}, "geometry":{"type":"MultiPolygon","coordinates":[[[[-3.77531,50.48134],[-3.77522,50.48133],[-3.77491,50.48137],[-3.77486,50.48142],[-3.77476,50.48161],[-3.7747,50.48166],[-3.77472,50.48167],[-3.77474,50.48166],[-3.77477,50.48167],[-3.77497,50.48158],[-3.77534,50.48146],[-3.77542,50.48143],[-3.7754,50.48141],[-3.77539,50.4814],[-3.77536,50.48141],[-3.77531,50.48134]]]]}},
{ "type":"Feature","properties":{"osm_way_id":"324628804","amenity":"parking","other":{"access":"private","description":"Private Parking for The Rock","parking":"surface"}}, "geometry":{"type":"MultiPolygon","coordinates":[[[[-3.77326,50.48146],[-3.77314,50.4815],[-3.77319,50.48156],[-3.77362,50.4816],[-3.77363,50.48157],[-3.77352,50.48154],[-3.77326,50.48146]]]]}},
{ "type":"Feature","properties":{"osm_way_id":"324696393","name":"Loading Bay","amenity":"parking"},"geometry":{"type":"MultiPolygon","coordinates":[[[[-3.77557,50.48125],[-3.77556,50.48128],[-3.77562,50.48134],[-3.77571,50.48134],[-3.77572,50.48134],[-3.77569,50.48132],[-3.77557,50.48125]]]]}},
{ "type":"Feature","properties":{"osm_way_id":"324737597","name":"Residential Parking Spaces","amenity":"parking"},"geometry":{"type":"MultiPolygon","coordinates":[[[[-3.77303,50.48084],[-3.77294,50.48092],[-3.77304,50.48095],[-3.77299,50.481],[-3.7729,50.48097],[-3.77289,50.48098],[-3.77298,50.48101],[-3.77295,50.48104],[-3.77275,50.48098],[-3.77277,50.48095],[-3.77283,50.48097],[-3.77284,50.48096],[-3.77278,50.48094],[-3.77284,50.48086],[-3.77291,50.48088],[-3.77292,50.48086],[-3.77285,50.48084],[-3.77288,50.48081],[-3.77303,50.48084]]]]}},
{ "type":"Feature","properties":{"osm_way_id":"324836993","amenity":"parking","other":{"access":"private","description":"Private Car Parking for Central Court"}}, "geometry":{"type":"MultiPolygon","coordinates":[[[[-3.77591,50.48186],[-3.77597,50.4818],[-3.77583,50.48179],[-3.77581,50.48186],[-3.77576,50.4819],[-3.77584,50.48186],[-3.77591,50.48186]]]]}},
{ "type":"Feature","properties":{"osm_way_id":"325975192","amenity":"parking","other":{"access":"private","description":"Private Parking (High Holly)","parking":"surface"}}, "geometry":{"type":"MultiPolygon","coordinates":[[[[-3.78188,50.48079],[-3.78182,50.48079],[-3.78182,50.48074],[-3.78172,50.48074],[-3.78172,50.48068],[-3.78192,50.48068],[-3.78192,50.48074],[-3.78188,50.48074],[-3.78188,50.48079]]]]}},
{ "type":"Feature","properties":{"osm_way_id":"325982356","amenity":"parking","other":{"access":"private","access:conditional":"yes @ (Su)","description":"Private Parking (Medical Centre)","parking":"surface"}}, "geometry":{"type":"MultiPolygon","coordinates":[[[[-3.78161,50.48078],[-3.78161,50.4808],[-3.78146,50.4808],[-3.78145,50.48092],[-3.78146,50.48098],[-3.78146,50.481],[-3.78147,50.48101],[-3.78147,50.48105],[-3.7816,50.48105],[-3.78167,50.48105],[-3.78167,50.48101],[-3.78181,50.48101],[-3.78182,50.48084],[-3.78178,50.48084],[-3.78178,50.48078],[-3.78161,50.48078]]]]}},
{ "type":"Feature","properties":{"osm_way_id":"326547205","amenity":"parking","other":{"access":"private"}}, "geometry":{"type":"MultiPolygon","coordinates":[[[[-3.77844,50.48031],[-3.77842,50.48043],[-3.77866,50.48039],[-3.77852,50.4803],[-3.77818,50.48014],[-3.77814,50.48016],[-3.77844,50.48031]]]]}},
{ "type":"Feature","properties":{"osm_way_id":"326547372","amenity":"parking","other":{"access":"private","description":"Private Parking for Funeral Directors"}}, "geometry":{"type":"MultiPolygon","coordinates":[[[[-3.77832,50.48015],[-3.77845,50.48006],[-3.77836,50.48002],[-3.77821,50.4801],[-3.77832,50.48015]]]]}},
{ "type":"Feature","properties":{"osm_way_id":"327151080","name":"Carparking for Business Units","amenity":"parking"},"geometry":{"type":"MultiPolygon","coordinates":[[[[-3.77935,50.48308],[-3.77956,50.48315],[-3.7796,50.48316],[-3.77968,50.48316],[-3.77996,50.48302],[-3.78,50.48299],[-3.78,50.48297],[-3.77991,50.48297],[-3.77983,50.48294],[-3.77975,50.48292],[-3.77966,50.4829],[-3.77956,50.48288],[-3.77921,50.48283],[-3.77909,50.48288],[-3.77941,50.483],[-3.77935,50.48308]]]]}},
{ "type":"Feature","properties":{"osm_way_id":"327151140","name":"Car Parking for Commercial Units","amenity":"parking"},"geometry":{"type":"MultiPolygon","coordinates":[[[[-3.77851,50.48267],[-3.77852,50.48261],[-3.77821,50.48254],[-3.77809,50.48267],[-3.77842,50.48278],[-3.77843,50.48277],[-3.77851,50.48267]]]]}},
{ "type":"Feature","properties":{"osm_way_id":"328017972","amenity":"parking","other":{"access":"private","description":"Private Car Parking"}}, "geometry":{"type":"MultiPolygon","coordinates":[[[[-3.77851,50.48198],[-3.77855,50.48196],[-3.77855,50.48185],[-3.77846,50.48186],[-3.77846,50.48188],[-3.7784,50.48188],[-3.7784,50.4819],[-3.77837,50.4819],[-3.77836,50.48193],[-3.77833,50.48193],[-3.77817,50.48207],[-3.77828,50.48212],[-3.77842,50.48202],[-3.77842,50.48201],[-3.77845,50.48204],[-3.77853,50.482],[-3.77851,50.48198]]]]}},
{ "type":"Feature","properties":{"osm_way_id":"329606991","amenity":"parking"},"geometry":{"type":"MultiPolygon","coordinates":[[[[-3.77256,50.4813],[-3.77261,50.48126],[-3.77284,50.48132],[-3.77282,50.48136],[-3.77256,50.4813]]]]}},
{ "type":"Feature","properties":{"osm_way_id":"329607096","amenity":"parking"},"geometry":{"type":"MultiPolygon","coordinates":[[[[-3.77221,50.48155],[-3.77216,50.48153],[-3.77223,50.48147],[-3.77228,50.4815],[-3.77221,50.48155]]]]}},
{ "type":"Feature","properties":{"osm_way_id":"329607114","amenity":"parking"},"geometry":{"type":"MultiPolygon","coordinates":[[[[-3.77226,50.48143],[-3.77223,50.48147],[-3.77213,50.48143],[-3.77217,50.48139],[-3.77226,50.48143]]]]}},
{ "type":"Feature","properties":{"osm_way_id":"329607120","amenity":"parking"},"geometry":{"type":"MultiPolygon","coordinates":[[[[-3.77235,50.48136],[-3.77231,50.4814],[-3.7722,50.48135],[-3.77224,50.48132],[-3.77235,50.48136]]]]}},
{ "type":"Feature","properties":{"osm_way_id":"329608335","amenity":"parking"},"geometry":{"type":"MultiPolygon","coordinates":[[[[-3.77214,50.48153],[-3.77214,50.48147],[-3.77204,50.48147],[-3.77205,50.48153],[-3.77214,50.48153]]]]}},
{ "type":"Feature","properties":{"osm_way_id":"329608384","amenity":"parking"},"geometry":{"type":"MultiPolygon","coordinates":[[[[-3.7721,50.48168],[-3.77207,50.48164],[-3.77225,50.4816],[-3.77227,50.48161],[-3.77229,50.4816],[-3.77232,50.48162],[-3.7721,50.48168]]]]}},
{ "type":"Feature","properties":{"osm_way_id":"329608871","amenity":"parking"},"geometry":{"type":"MultiPolygon","coordinates":[[[[-3.77201,50.48167],[-3.772,50.48165],[-3.77177,50.48164],[-3.77177,50.48167],[-3.77201,50.48167]]]]}},
{ "type":"Feature","properties":{"osm_way_id":"340483620","amenity":"parking","other":{"parking":"surface"}}, "geometry":{"type":"MultiPolygon","coordinates":[[[[-3.75615,50.60642],[-3.75645,50.60601],[-3.75592,50.60574],[-3.75586,50.60587],[-3.75571,50.60626],[-3.75567,50.60642],[-3.75596,50.6064],[-3.75603,50.60641],[-3.75615,50.60642]]]]}},
{ "type":"Feature","properties":{"osm_way_id":"353936551","amenity":"parking"},"geometry":{"type":"MultiPolygon","coordinates":[[[[-3.77047,50.48908],[-3.7702,50.48906],[-3.77026,50.48897],[-3.77032,50.48891],[-3.77056,50.4888],[-3.77047,50.48908]]]]}},
{ "type":"Feature","properties":{"osm_way_id":"359226372","amenity":"parking"},"geometry":{"type":"MultiPolygon","coordinates":[[[[-3.53582,50.57993],[-3.53582,50.57999],[-3.53588,50.58002],[-3.53599,50.58002],[-3.53608,50.57999],[-3.53612,50.57994],[-3.53612,50.57989],[-3.53607,50.57987],[-3.53596,50.57991],[-3.53588,50.57991],[-3.53582,50.57993]]]]}},
{ "type":"Feature","properties":{"osm_way_id":"361258927","amenity":"parking"},"geometry":{"type":"MultiPolygon","coordinates":[[[[-3.636,50.58479],[-3.63607,50.58467],[-3.63573,50.58457],[-3.63563,50.58469],[-3.636,50.58479]]]]}},
{ "type":"Feature","properties":{"osm_way_id":"367503837","amenity":"parking","other":{"access":"private"}}, "geometry":{"type":"MultiPolygon","coordinates":[[[[-3.58066,50.53558],[-3.58048,50.53561],[-3.58009,50.53534],[-3.58013,50.53528],[-3.58042,50.53516],[-3.58066,50.53558]]]]}},
{ "type":"Feature","properties":{"osm_way_id":"368793831","name":"Tucker's Parking","amenity":"parking"},"geometry":{"type":"MultiPolygon","coordinates":[[[[-3.75582,50.51264],[-3.75557,50.5126],[-3.75556,50.51265],[-3.75581,50.51269],[-3.75582,50.51264]]]]}},
{ "type":"Feature","properties":{"osm_way_id":"368794138","name":"Tucker's Parking","amenity":"parking"},"geometry":{"type":"MultiPolygon","coordinates":[[[[-3.75591,50.51256],[-3.75587,50.51256],[-3.75593,50.5124],[-3.75597,50.51241],[-3.75591,50.51256]]]]}},
{ "type":"Feature","properties":{"osm_way_id":"369011234","name":"Parking Space (After 6pm)","amenity":"parking"},"geometry":{"type":"MultiPolygon","coordinates":[[[[-3.77375,50.48166],[-3.77372,50.48162],[-3.77359,50.48161],[-3.77359,50.48163],[-3.77375,50.48166]]]]}},
{ "type":"Feature","properties":{"osm_way_id":"369889091","amenity":"parking","other":{"access":"private","parking":"surface"}}, "geometry":{"type":"MultiPolygon","coordinates":[[[[-3.77701,50.48208],[-3.777,50.48201],[-3.77685,50.48201],[-3.77686,50.48208],[-3.77701,50.48208]]]]}},
{ "type":"Feature","properties":{"osm_way_id":"369889355","amenity":"parking","other":{"access":"private"}}, "geometry":{"type":"MultiPolygon","coordinates":[[[[-3.77697,50.48227],[-3.77691,50.48229],[-3.77654,50.48229],[-3.77653,50.48224],[-3.77654,50.48223],[-3.77653,50.48217],[-3.77665,50.48221],[-3.77696,50.4822],[-3.77697,50.48227]]]]}},
{ "type":"Feature","properties":{"osm_way_id":"415615983","amenity":"parking"},"geometry":{"type":"MultiPolygon","coordinates":[[[[-3.64767,50.65284],[-3.64785,50.65285],[-3.64795,50.65285],[-3.64807,50.65284],[-3.64819,50.65281],[-3.64831,50.65278],[-3.64796,50.65297],[-3.64795,50.65296],[-3.64793,50.65293],[-3.64788,50.6529],[-3.64781,50.65287],[-3.64774,50.65285],[-3.64767,50.65284]]]]}},
{ "type":"Feature","properties":{"osm_way_id":"415620662","amenity":"parking","other":{"access":"private"}}, "geometry":{"type":"MultiPolygon","coordinates":[[[[-3.65372,50.65383],[-3.65353,50.65403],[-3.65364,50.65407],[-3.65383,50.65388],[-3.6538,50.65387],[-3.65372,50.65383]]]]}},
{ "type":"Feature","properties":{"osm_way_id":"415621375","amenity":"parking","other":{"access":"private"}}, "geometry":{"type":"MultiPolygon","coordinates":[[[[-3.65294,50.65409],[-3.65299,50.65424],[-3.65284,50.65426],[-3.65279,50.65411],[-3.65294,50.65409]]]]}},
{ "type":"Feature","properties":{"osm_way_id":"415621450","amenity":"parking"},"geometry":{"type":"MultiPolygon","coordinates":[[[[-3.65312,50.65466],[-3.65305,50.65467],[-3.65298,50.65468],[-3.65292,50.65455],[-3.65306,50.65452],[-3.65312,50.65466]]]]}},
{ "type":"Feature","properties":{"osm_way_id":"415623319","amenity":"parking","other":{"access":"private"}}, "geometry":{"type":"MultiPolygon","coordinates":[[[[-3.65205,50.65358],[-3.65216,50.65372],[-3.65226,50.65368],[-3.6522,50.65361],[-3.65215,50.65355],[-3.65205,50.65358]]]]}},
{ "type":"Feature","properties":{"osm_way_id":"415636488","amenity":"parking"},"geometry":{"type":"MultiPolygon","coordinates":[[[[-3.64579,50.65407],[-3.64567,50.65409],[-3.64555,50.65411],[-3.6453,50.6536],[-3.64542,50.65358],[-3.64561,50.65368],[-3.64564,50.65374],[-3.64579,50.65407]]]]}},
{ "type":"Feature","properties":{"osm_way_id":"415636490","amenity":"parking"},"geometry":{"type":"MultiPolygon","coordinates":[[[[-3.64542,50.65437],[-3.6455,50.6543],[-3.64563,50.65435],[-3.64555,50.65443],[-3.64542,50.65437]]]]}},
{ "type":"Feature","properties":{"osm_way_id":"416247914","amenity":"parking"},"geometry":{"type":"MultiPolygon","coordinates":[[[[-3.6493,50.64994],[-3.64917,50.65002],[-3.64926,50.65007],[-3.64928,50.65006],[-3.64938,50.64999],[-3.6493,50.64994]]]]}},
{ "type":"Feature","properties":{"osm_way_id":"416264165","amenity":"parking"},"geometry":{"type":"MultiPolygon","coordinates":[[[[-3.62009,50.65029],[-3.62015,50.65018],[-3.62039,50.65022],[-3.62035,50.65031],[-3.62032,50.65032],[-3.62028,50.65033],[-3.62009,50.65029]]]]}},
{ "type":"Feature","properties":{"osm_way_id":"416264172","amenity":"parking"},"geometry":{"type":"MultiPolygon","coordinates":[[[[-3.62097,50.65056],[-3.62099,50.65062],[-3.621,50.65067],[-3.62012,50.65078],[-3.62008,50.65067],[-3.62031,50.65064],[-3.62097,50.65056]]]]}},
{ "type":"Feature","properties":{"osm_way_id":"416380849","amenity":"parking"},"geometry":{"type":"MultiPolygon","coordinates":[[[[-3.64413,50.67098],[-3.64388,50.67098],[-3.64388,50.67095],[-3.64385,50.67089],[-3.64373,50.67081],[-3.64375,50.67062],[-3.6439,50.67066],[-3.64387,50.6707],[-3.64424,50.6708],[-3.64413,50.67098]]]]}},
{ "type":"Feature","properties":{"osm_way_id":"416397472","amenity":"parking"},"geometry":{"type":"MultiPolygon","coordinates":[[[[-3.65021,50.6713],[-3.65015,50.67131],[-3.65009,50.6713],[-3.65001,50.67125],[-3.64994,50.67121],[-3.64993,50.67119],[-3.64995,50.67116],[-3.64997,50.67115],[-3.65021,50.6713]]]]}},
{ "type":"Feature","properties":{"osm_way_id":"416404384","amenity":"parking","other":{"access":"customers"}}, "geometry":{"type":"MultiPolygon","coordinates":[[[[-3.67766,50.66451],[-3.67767,50.66441],[-3.67731,50.66439],[-3.67731,50.66443],[-3.6773,50.66449],[-3.67766,50.66451]]]]}},
{ "type":"Feature","properties":{"osm_way_id":"416408655","amenity":"parking","other":{"access":"private","park_ride":"no","supervised":"no"}}, "geometry":{"type":"MultiPolygon","coordinates":[[[[-3.67755,50.66499],[-3.67761,50.66496],[-3.67765,50.66495],[-3.6779,50.66491],[-3.67816,50.66486],[-3.67815,50.66482],[-3.67776,50.66483],[-3.67756,50.66487],[-3.67746,50.66493],[-3.67755,50.66499]]]]}},
{ "type":"Feature","properties":{"osm_way_id":"416486895","amenity":"parking"},"geometry":{"type":"MultiPolygon","coordinates":[[[[-3.6736,50.66665],[-3.67362,50.66648],[-3.67355,50.66648],[-3.67353,50.66665],[-3.6736,50.66665]]]]}},
{ "type":"Feature","properties":{"osm_way_id":"416761375","amenity":"parking"},"geometry":{"type":"MultiPolygon","coordinates":[[[[-3.62294,50.66822],[-3.62293,50.66814],[-3.62283,50.66814],[-3.62276,50.66818],[-3.62294,50.66822]]]]}},
{ "type":"Feature","properties":{"osm_way_id":"416794906","amenity":"parking"},"geometry":{"type":"MultiPolygon","coordinates":[[[[-3.62194,50.66451],[-3.62193,50.6644],[-3.62179,50.66438],[-3.62178,50.66448],[-3.62185,50.6645],[-3.62194,50.66451]]]]}},
{ "type":"Feature","properties":{"osm_way_id":"417448868","amenity":"parking","other":{"access":"customers","fee":"no","parking":"surface"}}, "geometry":{"type":"MultiPolygon","coordinates":[[[[-3.59713,50.54438],[-3.59733,50.5445],[-3.59757,50.54456],[-3.59778,50.54426],[-3.59788,50.54412],[-3.59796,50.54401],[-3.59804,50.5439],[-3.59808,50.54381],[-3.59809,50.54375],[-3.59809,50.54368],[-3.59808,50.54363],[-3.59805,50.54357],[-3.59795,50.54347],[-3.59779,50.54337],[-3.59757,50.54331],[-3.59715,50.54318],[-3.59703,50.5433],[-3.59762,50.54347],[-3.59721,50.54406],[-3.59733,50.5441],[-3.59713,50.54438]]]]}},
{ "type":"Feature","properties":{"osm_way_id":"417964260","amenity":"parking"},"geometry":{"type":"MultiPolygon","coordinates":[[[[-3.63549,50.64604],[-3.63542,50.64601],[-3.63535,50.64598],[-3.63531,50.64593],[-3.63527,50.6459],[-3.63554,50.64581],[-3.63561,50.64584],[-3.63565,50.64587],[-3.63572,50.6459],[-3.63579,50.64591],[-3.63588,50.64591],[-3.6358,50.646],[-3.63577,50.64599],[-3.63564,50.64595],[-3.63563,50.64597],[-3.63556,50.64595],[-3.63549,50.64604]]]]}},
{ "type":"Feature","properties":{"osm_way_id":"431111457","amenity":"parking","other":{"access":"private","capacity":"15","description":"Private Car-Parking for Hamlyn House","parking":"surface"}}, "geometry":{"type":"MultiPolygon","coordinates":[[[[-3.77985,50.48242],[-3.77986,50.4825],[-3.77954,50.48247],[-3.7796,50.48218],[-3.77961,50.48217],[-3.77968,50.48218],[-3.77977,50.48223],[-3.77981,50.48227],[-3.77986,50.48233],[-3.77989,50.48237],[-3.7799,50.48242],[-3.77985,50.48242]]]]}},
{ "type":"Feature","properties":{"osm_way_id":"435540113","name":"School Car-Park","amenity":"parking","other":{"parking":"surface"}}, "geometry":{"type":"MultiPolygon","coordinates":[[[[-3.77884,50.49071],[-3.77881,50.49069],[-3.77886,50.4906],[-3.77889,50.49049],[-3.77869,50.49038],[-3.7786,50.49035],[-3.77852,50.49036],[-3.77844,50.49038],[-3.77827,50.49054],[-3.77825,50.49061],[-3.77827,50.49066],[-3.77831,50.49069],[-3.77839,50.49071],[-3.77844,50.49071],[-3.77848,50.49071],[-3.77859,50.4907],[-3.77871,50.49073],[-3.77879,50.49077],[-3.77884,50.49071]]]]}},
{ "type":"Feature","properties":{"osm_way_id":"436458532","amenity":"parking","other":{"access":"private","description":"Private Parking and Wood Storage","parking":"surface"}}, "geometry":{"type":"MultiPolygon","coordinates":[[[[-3.77989,50.48212],[-3.78,50.48187],[-3.77885,50.48186],[-3.77883,50.48199],[-3.77989,50.48212]]]]}},
{ "type":"Feature","properties":{"osm_way_id":"436458729","name":"Forecourt (Cambee)","amenity":"parking"},"geometry":{"type":"MultiPolygon","coordinates":[[[[-3.78004,50.48235],[-3.78008,50.48233],[-3.78023,50.48236],[-3.78018,50.48241],[-3.78024,50.48242],[-3.7801,50.48267],[-3.78013,50.48268],[-3.78011,50.4827],[-3.78019,50.48272],[-3.78018,50.48275],[-3.7801,50.48273],[-3.78004,50.48262],[-3.78006,50.48247],[-3.78005,50.48239],[-3.78004,50.48235]]]]}},
{ "type":"Feature","properties":{"osm_way_id":"436600744","amenity":"parking"},"geometry":{"type":"MultiPolygon","coordinates":[[[[-3.78721,50.48331],[-3.78687,50.48334],[-3.78687,50.48343],[-3.78725,50.48345],[-3.78721,50.48331]]]]}},
{ "type":"Feature","properties":{"osm_way_id":"436992640","name":"Teachers Carpark","amenity":"parking","other":{"access":"private","parking":"surface","surface":"asphalt"}}, "geometry":{"type":"MultiPolygon","coordinates":[[[[-3.78003,50.48122],[-3.77982,50.48123],[-3.77982,50.48119],[-3.77959,50.48119],[-3.77969,50.4811],[-3.77982,50.48109],[-3.77982,50.48108],[-3.77973,50.48108],[-3.77983,50.48097],[-3.7799,50.48107],[-3.78003,50.48122]]]]}},
{ "type":"Feature","properties":{"osm_way_id":"438160522","amenity":"parking","other":{"access":"private","parking":"surface","surface":"asphalt"}}, "geometry":{"type":"MultiPolygon","coordinates":[[[[-3.58482,50.67963],[-3.58472,50.67969],[-3.58455,50.67966],[-3.58446,50.6796],[-3.5846,50.6796],[-3.58463,50.67961],[-3.58482,50.67963]]]]}},
{ "type":"Feature","properties":{"osm_way_id":"454410411","amenity":"parking"},"geometry":{"type":"MultiPolygon","coordinates":[[[[-3.64615,50.66772],[-3.64597,50.66779],[-3.64584,50.66775],[-3.64579,50.6677],[-3.64582,50.6675],[-3.64601,50.66759],[-3.64609,50.6676],[-3.64615,50.66772]]]]}},
{ "type":"Feature","properties":{"osm_way_id":"454580228","amenity":"parking"},"geometry":{"type":"MultiPolygon","coordinates":[[[[-3.64874,50.66647],[-3.64884,50.66647],[-3.64885,50.66652],[-3.64883,50.66657],[-3.64882,50.6666],[-3.64878,50.66664],[-3.64875,50.66667],[-3.64868,50.66669],[-3.64863,50.66671],[-3.64846,50.66673],[-3.64843,50.66665],[-3.64856,50.66663],[-3.64866,50.6666],[-3.6487,50.66658],[-3.64873,50.66653],[-3.64874,50.66647]]]]}},
{ "type":"Feature","properties":{"osm_way_id":"454580229","amenity":"parking"},"geometry":{"type":"MultiPolygon","coordinates":[[[[-3.64817,50.66636],[-3.64794,50.66629],[-3.64801,50.66619],[-3.64824,50.66626],[-3.64822,50.66628],[-3.64817,50.66636]]]]}},
{ "type":"Feature","properties":{"osm_way_id":"454585163","amenity":"parking"},"geometry":{"type":"MultiPolygon","coordinates":[[[[-3.64607,50.66809],[-3.64603,50.66809],[-3.64591,50.66811],[-3.64584,50.66794],[-3.64595,50.66786],[-3.64598,50.66786],[-3.64607,50.66809]]]]}},
{ "type":"Feature","properties":{"osm_way_id":"459871033","amenity":"parking"},"geometry":{"type":"MultiPolygon","coordinates":[[[[-3.63775,50.64476],[-3.63775,50.64473],[-3.63773,50.6447],[-3.63769,50.64468],[-3.63766,50.64467],[-3.63773,50.64464],[-3.63778,50.64466],[-3.63782,50.64469],[-3.63782,50.64473],[-3.63782,50.64476],[-3.63775,50.64476]]]]}},
{ "type":"Feature","properties":{"osm_way_id":"460256350","amenity":"parking"},"geometry":{"type":"MultiPolygon","coordinates":[[[[-3.63947,50.63786],[-3.63925,50.63748],[-3.63853,50.6384],[-3.63834,50.63868],[-3.63848,50.63877],[-3.63853,50.63874],[-3.63855,50.63869],[-3.63863,50.63868],[-3.63882,50.63833],[-3.63882,50.63831],[-3.63903,50.63799],[-3.63939,50.63789],[-3.63947,50.63786]]]]}},
{ "type":"Feature","properties":{"osm_way_id":"461411232","amenity":"parking","other":{"coach":"yes","motor_vehicle":"no"}}, "geometry":{"type":"MultiPolygon","coordinates":[[[[-3.77748,50.49239],[-3.77709,50.49249],[-3.77687,50.49216],[-3.77727,50.49206],[-3.77748,50.49239]]]]}},
{ "type":"Feature","properties":{"osm_way_id":"461892334","amenity":"parking","other":{"access":"yes","fee":"yes"}}, "geometry":{"type":"MultiPolygon","coordinates":[[[[-3.60076,50.52138],[-3.60089,50.52115],[-3.60054,50.52103],[-3.60034,50.52098],[-3.60018,50.521],[-3.60008,50.52122],[-3.60076,50.52138]]]]}},
{ "type":"Feature","properties":{"osm_way_id":"461892335","amenity":"parking","other":{"access":"yes","fee":"yes"}}, "geometry":{"type":"MultiPolygon","coordinates":[[[[-3.59971,50.52121],[-3.59943,50.52099],[-3.59946,50.52095],[-3.59979,50.52082],[-3.59998,50.52099],[-3.59994,50.52111],[-3.59971,50.52121]]]]}},
{ "type":"Feature","properties":{"osm_way_id":"464616373","amenity":"parking"},"geometry":{"type":"MultiPolygon","coordinates":[[[[-3.63629,50.58614],[-3.63626,50.58591],[-3.6359,50.58591],[-3.63593,50.58615],[-3.63629,50.58614]]]]}},
{ "type":"Feature","properties":{"osm_way_id":"476181780","name":"Car parking for paddlers","amenity":"parking"},"geometry":{"type":"MultiPolygon","coordinates":[[[[-3.77016,50.48666],[-3.77004,50.48661],[-3.76992,50.48661],[-3.76993,50.48649],[-3.77001,50.48642],[-3.77014,50.48645],[-3.77031,50.48657],[-3.77016,50.48666]]]]}},
{ "type":"Feature","properties":{"osm_way_id":"477782575","amenity":"parking"},"geometry":{"type":"MultiPolygon","coordinates":[[[[-3.67798,50.66562],[-3.67796,50.66557],[-3.67778,50.66559],[-3.6778,50.66565],[-3.67798,50.66562]]]]}},
{ "type":"Feature","properties":{"osm_way_id":"479696805","name":"Wain Lane","amenity":"parking","other":{"access":"yes","fee":"no","operator":"Devon County Council","operator:type":"government","park_ride":"no","parking":"surface","supervised":"no","surface":"asphalt"}}, "geometry":{"type":"MultiPolygon","coordinates":[[[[-3.61928,50.53343],[-3.61936,50.53342],[-3.61941,50.53344],[-3.61961,50.53347],[-3.61964,50.53351],[-3.61963,50.53355],[-3.61957,50.53358],[-3.61927,50.53373],[-3.6189,50.5339],[-3.61883,50.53388],[-3.61874,50.53386],[-3.6187,50.53384],[-3.61886,50.53369],[-3.61906,50.53351],[-3.61916,50.53346],[-3.61928,50.53343]]]]}},
{ "type":"Feature","properties":{"osm_way_id":"479698889","name":"Livestock Market","amenity":"parking","other":{"access":"public","capacity":"190","fee":"yes","operator":"Teignbridge District Council","park_ride":"no","parking":"surface","supervised":"yes","surface":"asphalt"}}, "geometry":{"type":"MultiPolygon","coordinates":[[[[-3.61138,50.53123],[-3.61145,50.53152],[-3.61203,50.53144],[-3.61213,50.53142],[-3.61242,50.53137],[-3.61261,50.53133],[-3.6127,50.53131],[-3.61296,50.53126],[-3.61308,50.53123],[-3.61323,50.53119],[-3.6135,50.53112],[-3.61353,50.53111],[-3.61379,50.53105],[-3.61387,50.53103],[-3.61407,50.53093],[-3.61408,50.53089],[-3.61409,50.53086],[-3.61404,50.53081],[-3.61393,50.53071],[-3.61383,50.53079],[-3.61356,50.53083],[-3.61339,50.53066],[-3.61326,50.5307],[-3.61345,50.53102],[-3.61295,50.53115],[-3.61274,50.5312],[-3.6126,50.53097],[-3.61244,50.53102],[-3.61231,50.53109],[-3.61217,50.53117],[-3.61214,50.53123],[-3.61201,50.53127],[-3.61187,50.53128],[-3.61175,50.53126],[-3.61174,50.53121],[-3.61138,50.53123]]]]}},
{ "type":"Feature","properties":{"osm_way_id":"480811544","amenity":"parking","other":{"access":"customers","fee":"no","parking":"surface"}}, "geometry":{"type":"MultiPolygon","coordinates":[[[[-3.59517,50.5249],[-3.59557,50.52486],[-3.59547,50.52428],[-3.59534,50.52428],[-3.59501,50.52431],[-3.59512,50.5246],[-3.59517,50.52459],[-3.5952,50.52471],[-3.59533,50.5247],[-3.59535,50.52479],[-3.59516,50.5248],[-3.59517,50.5249]]]]}},
{ "type":"Feature","properties":{"osm_way_id":"480811545","amenity":"parking","other":{"access":"customers","capacity:disabled":"2","fee":"no","operator":"McDonald's","parking":"surface"}}, "geometry":{"type":"MultiPolygon","coordinates":[[[[-3.595,50.52457],[-3.59491,50.52457],[-3.59491,50.52459],[-3.59471,50.52461],[-3.59465,50.52458],[-3.5946,50.52446],[-3.59452,50.52442],[-3.59446,50.52446],[-3.59436,50.5244],[-3.59436,50.52436],[-3.59428,50.52436],[-3.59429,50.52442],[-3.59424,50.52444],[-3.5943,50.52454],[-3.59458,50.52469],[-3.59487,50.52482],[-3.59502,50.5248],[-3.595,50.52457]]]]}},
{ "type":"Feature","properties":{"osm_way_id":"480811547","name":"Sainsburys","amenity":"parking","other":{"access":"customers","fee":"no","operator":"Sainsburys","parking":"surface"}}, "geometry":{"type":"MultiPolygon","coordinates":[[[[-3.59486,50.52425],[-3.59452,50.52431],[-3.59432,50.52433],[-3.59412,50.5243],[-3.59399,50.52427],[-3.59373,50.52418],[-3.59355,50.52408],[-3.59339,50.52353],[-3.59337,50.52348],[-3.59388,50.52343],[-3.59391,50.52356],[-3.59415,50.52353],[-3.59415,50.52357],[-3.59423,50.52393],[-3.59453,50.52391],[-3.59458,50.52413],[-3.59484,50.5241],[-3.59486,50.52425]]]]}},
{ "type":"Feature","properties":{"osm_way_id":"480811548","name":"Sainsburys","amenity":"parking","other":{"access":"customers","fee":"no","operator":"Sainsburys","parking":"surface"}}, "geometry":{"type":"MultiPolygon","coordinates":[[[[-3.59506,50.52419],[-3.59489,50.52421],[-3.59485,50.5241],[-3.59461,50.52348],[-3.59478,50.52348],[-3.59506,50.52419]]]]}},
{ "type":"Feature","properties":{"osm_way_id":"481124806","name":"Bradley Lane Car Park","amenity":"parking","other":{"access":"public","capacity":"90","fee":"yes","operator":"Teignbridge District Council","park_ride":"no","parking":"surface","supervised":"no","surface":"asphalt"}}, "geometry":{"type":"MultiPolygon","coordinates":[[[[-3.61736,50.52884],[-3.61785,50.52859],[-3.61752,50.52832],[-3.61682,50.52846],[-3.61736,50.52884]]]]}},
{ "type":"Feature","properties":{"osm_way_id":"487039601","amenity":"parking"},"geometry":{"type":"MultiPolygon","coordinates":[[[[-3.71835,50.59699],[-3.71818,50.59699],[-3.71804,50.59699],[-3.71816,50.59709],[-3.71826,50.59716],[-3.7183,50.59713],[-3.71842,50.59722],[-3.71848,50.59727],[-3.7186,50.59719],[-3.71835,50.59699]]]]}},
{ "type":"Feature","properties":{"osm_way_id":"487149308","amenity":"parking","other":{"fee":"no","park_ride":"no","parking":"surface","supervised":"no","surface":"compacted"}}, "geometry":{"type":"MultiPolygon","coordinates":[[[[-3.58987,50.49819],[-3.5899,50.49797],[-3.58957,50.49786],[-3.58945,50.49804],[-3.58972,50.49819],[-3.58987,50.49819]]]]}},
{ "type":"Feature","properties":{"osm_way_id":"493741556","name":"Community Car Park","amenity":"parking","other":{"access":"permissive","capacity":"20","fee":"no","parking":"surface","surface":"compacted"}}, "geometry":{"type":"MultiPolygon","coordinates":[[[[-3.6555,50.61596],[-3.65523,50.61602],[-3.65518,50.61586],[-3.6553,50.61576],[-3.6554,50.6158],[-3.6555,50.61596]]]]}},
{ "type":"Feature","properties":{"osm_way_id":"496902518","amenity":"parking"},"geometry":{"type":"MultiPolygon","coordinates":[[[[-3.46962,50.60043],[-3.4694,50.60046],[-3.46934,50.60023],[-3.46956,50.6002],[-3.46962,50.60043]]]]}},
{ "type":"Feature","properties":{"osm_way_id":"496993485","amenity":"parking"},"geometry":{"type":"MultiPolygon","coordinates":[[[[-3.46715,50.59905],[-3.46687,50.59907],[-3.46681,50.59905],[-3.46675,50.59885],[-3.4668,50.59881],[-3.46688,50.59879],[-3.46699,50.5988],[-3.46721,50.59888],[-3.46715,50.59905]]]]}},
{ "type":"Feature","properties":{"osm_way_id":"496993497","amenity":"parking"},"geometry":{"type":"MultiPolygon","coordinates":[[[[-3.4687,50.59972],[-3.46908,50.59945],[-3.46904,50.59936],[-3.46892,50.59934],[-3.46874,50.59937],[-3.46872,50.59946],[-3.4688,50.5995],[-3.46882,50.59962],[-3.46869,50.59964],[-3.4687,50.59972]]]]}},
{ "type":"Feature","properties":{"osm_way_id":"497608896","amenity":"parking"},"geometry":{"type":"MultiPolygon","coordinates":[[[[-3.47224,50.60225],[-3.47203,50.60242],[-3.47149,50.60216],[-3.4717,50.60199],[-3.47224,50.60225]]]]}},
{ "type":"Feature","properties":{"osm_way_id":"499505050","amenity":"parking","other":{"parking":"surface","surface":"asphalt"}}, "geometry":{"type":"MultiPolygon","coordinates":[[[[-3.4609,50.61227],[-3.46093,50.61243],[-3.46105,50.61242],[-3.46106,50.61247],[-3.4611,50.61257],[-3.46081,50.61265],[-3.46068,50.61246],[-3.46059,50.61248],[-3.46051,50.6123],[-3.4609,50.61227]]]]}},
{ "type":"Feature","properties":{"osm_way_id":"502825218","amenity":"parking","other":{"access":"customers","fee":"yes","operator":"Lidl","parking":"surface"}}, "geometry":{"type":"MultiPolygon","coordinates":[[[[-3.49507,50.54716],[-3.49515,50.54701],[-3.4952,50.54693],[-3.49556,50.54707],[-3.4959,50.54721],[-3.49617,50.54731],[-3.49621,50.54752],[-3.49635,50.54751],[-3.49636,50.54741],[-3.49639,50.54739],[-3.4964,50.54733],[-3.49654,50.54734],[-3.49658,50.54727],[-3.49671,50.54726],[-3.49679,50.54724],[-3.49697,50.54746],[-3.49662,50.54754],[-3.49639,50.5476],[-3.4962,50.54761],[-3.49595,50.54762],[-3.49593,50.54733],[-3.49585,50.54726],[-3.49516,50.54728],[-3.49515,50.54715],[-3.49507,50.54716]]]]}},
{ "type":"Feature","properties":{"osm_way_id":"509508866","name":"The Coppa Dolla Inn","amenity":"parking","other":{"access":"customers","fee":"no","parking":"surface"}}, "geometry":{"type":"MultiPolygon","coordinates":[[[[-3.68381,50.48416],[-3.68381,50.48426],[-3.68382,50.48435],[-3.68393,50.48435],[-3.68401,50.48438],[-3.68404,50.48433],[-3.68412,50.48435],[-3.6842,50.48421],[-3.68381,50.48416]]]]}},
{ "type":"Feature","properties":{"osm_way_id":"515843344","name":"Trago Build Centre","amenity":"parking","other":{"access":"customers","fee":"no","parking":"surface"}}, "geometry":{"type":"MultiPolygon","coordinates":[[[[-3.66501,50.55754],[-3.6651,50.55738],[-3.66543,50.55729],[-3.66544,50.55718],[-3.66477,50.55715],[-3.66463,50.55713],[-3.66457,50.55727],[-3.66443,50.55742],[-3.66501,50.55754]]]]}},
{ "type":"Feature","properties":{"osm_way_id":"516407392","amenity":"parking","other":{"access":"customers","smoothness":"good","surface":"asphalt"}}, "geometry":{"type":"MultiPolygon","coordinates":[[[[-3.67574,50.59186],[-3.67564,50.59192],[-3.67541,50.59184],[-3.6754,50.59178],[-3.67515,50.59164],[-3.6752,50.59162],[-3.67511,50.59154],[-3.67505,50.59149],[-3.67504,50.59148],[-3.67502,50.59144],[-3.67516,50.59143],[-3.67526,50.59143],[-3.67537,50.59144],[-3.67543,50.59146],[-3.67547,50.59147],[-3.67543,50.59151],[-3.67543,50.59155],[-3.67565,50.5917],[-3.67558,50.59174],[-3.67567,50.59179],[-3.67575,50.59184],[-3.67574,50.59186]]]]}},
{ "type":"Feature","properties":{"osm_way_id":"516877682","amenity":"parking"},"geometry":{"type":"MultiPolygon","coordinates":[[[[-3.60013,50.54031],[-3.59983,50.54065],[-3.60026,50.54081],[-3.60005,50.54106],[-3.59953,50.54088],[-3.59969,50.54071],[-3.59901,50.54046],[-3.59888,50.54059],[-3.59861,50.54048],[-3.59892,50.54014],[-3.59918,50.54023],[-3.59944,50.53998],[-3.60013,50.54031]]]]}},
{ "type":"Feature","properties":{"osm_way_id":"516894791","amenity":"parking"},"geometry":{"type":"MultiPolygon","coordinates":[[[[-3.59595,50.54311],[-3.5961,50.54288],[-3.59644,50.54297],[-3.59644,50.543],[-3.59646,50.54321],[-3.59638,50.54336],[-3.59644,50.54346],[-3.59639,50.54357],[-3.59655,50.54363],[-3.59618,50.54417],[-3.59599,50.54412],[-3.59614,50.54388],[-3.59573,50.54374],[-3.59614,50.54315],[-3.59595,50.54311]]]]}},
{ "type":"Feature","properties":{"osm_way_id":"516896113","amenity":"parking"},"geometry":{"type":"MultiPolygon","coordinates":[[[[-3.59822,50.54307],[-3.59792,50.543],[-3.59803,50.54283],[-3.59798,50.54282],[-3.59808,50.54266],[-3.59867,50.54196],[-3.59855,50.54192],[-3.59862,50.54182],[-3.5992,50.54201],[-3.59846,50.54281],[-3.59832,50.54302],[-3.59822,50.54307]]]]}},
{ "type":"Feature","properties":{"osm_way_id":"516992676","name":"High Heathercombe Centre","amenity":"parking","other":{"access":"private","capacity":"9","parking":"surface"}}, "geometry":{"type":"MultiPolygon","coordinates":[[[[-3.81519,50.61743],[-3.81542,50.61737],[-3.81535,50.61724],[-3.81521,50.61708],[-3.81505,50.61703],[-3.81498,50.61704],[-3.81499,50.61714],[-3.8151,50.61732],[-3.81519,50.61743]]]]}},
{ "type":"Feature","properties":{"osm_way_id":"522658510","amenity":"parking"},"geometry":{"type":"MultiPolygon","coordinates":[[[[-3.48402,50.675],[-3.48394,50.67493],[-3.48385,50.67482],[-3.48381,50.67484],[-3.48376,50.67477],[-3.48368,50.67479],[-3.48355,50.67463],[-3.48349,50.67449],[-3.48428,50.67446],[-3.48453,50.6749],[-3.48432,50.67492],[-3.48415,50.67496],[-3.48402,50.675]]]]}},
{ "type":"Feature","properties":{"osm_way_id":"522658511","amenity":"parking"},"geometry":{"type":"MultiPolygon","coordinates":[[[[-3.48307,50.67456],[-3.48266,50.67471],[-3.48298,50.6751],[-3.48311,50.6751],[-3.48323,50.67515],[-3.48331,50.67515],[-3.48345,50.67514],[-3.48352,50.67514],[-3.48358,50.67515],[-3.48366,50.67513],[-3.48362,50.67509],[-3.48353,50.67497],[-3.48343,50.67484],[-3.48335,50.67488],[-3.48307,50.67456]]]]}},
{ "type":"Feature","properties":{"osm_way_id":"525333779","name":"Dawlish Countryside Park Car Park","amenity":"parking","other":{"capacity:disabled":"1","fee":"no","operator":"Teignbridge District Council","parking":"surface","surface":"asphalt"}}, "geometry":{"type":"MultiPolygon","coordinates":[[[[-3.46357,50.60481],[-3.4637,50.60477],[-3.46363,50.60468],[-3.46294,50.60434],[-3.46281,50.60445],[-3.46357,50.60481]]]]}},
{ "type":"Feature","properties":{"osm_way_id":"533428489","amenity":"parking","other":{"fee":"yes"}}, "geometry":{"type":"MultiPolygon","coordinates":[[[[-3.65077,50.56281],[-3.64942,50.5616],[-3.64894,50.56185],[-3.65031,50.56305],[-3.65077,50.56281]]]]}},
{ "type":"Feature","properties":{"osm_way_id":"538575809","amenity":"parking","other":{"capacity":"10"}}, "geometry":{"type":"MultiPolygon","coordinates":[[[[-3.71817,50.65818],[-3.7181,50.65808],[-3.71828,50.65804],[-3.71835,50.65814],[-3.71817,50.65818]]]]}},
{ "type":"Feature","properties":{"osm_way_id":"540522357","name":"Court Farm Inn Car Park","amenity":"parking"},"geometry":{"type":"MultiPolygon","coordinates":[[[[-3.61419,50.5073],[-3.61416,50.50732],[-3.61401,50.50734],[-3.614,50.50732],[-3.61393,50.50733],[-3.61381,50.5071],[-3.61389,50.50705],[-3.61409,50.50697],[-3.6141,50.50702],[-3.61407,50.50707],[-3.61413,50.50706],[-3.61421,50.50721],[-3.6142,50.50725],[-3.61419,50.5073]]]]}},
{ "type":"Feature","properties":{"osm_way_id":"556684882","amenity":"parking"},"geometry":{"type":"MultiPolygon","coordinates":[[[[-3.53373,50.60128],[-3.5338,50.60138],[-3.53392,50.60135],[-3.53385,50.60125],[-3.53378,50.60127],[-3.53373,50.60128]]]]}},
{ "type":"Feature","properties":{"osm_way_id":"559763938","amenity":"parking","other":{"access":"yes","fee":"no"}}, "geometry":{"type":"MultiPolygon","coordinates":[[[[-3.59239,50.52594],[-3.59261,50.52603],[-3.5927,50.52598],[-3.59272,50.5258],[-3.59261,50.52575],[-3.59239,50.52594]]]]}},
{ "type":"Feature","properties":{"osm_way_id":"560464585","name":"Esplanade","amenity":"parking","other":{"access":"yes","capacity:disabled":"no","capacity:parent":"no","capacity:women":"no","fee":"yes","lit":"yes","operator":"Devon County Council","park_ride":"no","parking":"surface","smoothness":"intermediate","supervised":"no","surface":"asphalt"}}, "geometry":{"type":"MultiPolygon","coordinates":[[[[-3.4929,50.54657],[-3.49298,50.54653],[-3.49322,50.54654],[-3.49326,50.54658],[-3.49328,50.5466],[-3.49332,50.54661],[-3.49336,50.54661],[-3.4934,50.54661],[-3.49346,50.54662],[-3.49345,50.54667],[-3.49339,50.5467],[-3.49302,50.54668],[-3.49297,50.54667],[-3.49293,50.54665],[-3.4928,50.54662],[-3.4928,50.54661],[-3.4929,50.54657]]]]}},
{ "type":"Feature","properties":{"osm_way_id":"563377882","amenity":"parking"},"geometry":{"type":"MultiPolygon","coordinates":[[[[-3.79146,50.58297],[-3.79155,50.58299],[-3.79161,50.58303],[-3.79168,50.58309],[-3.79167,50.58313],[-3.79162,50.58316],[-3.79157,50.58314],[-3.79151,50.58312],[-3.79147,50.58309],[-3.79145,50.58305],[-3.79142,50.583],[-3.79146,50.58297]]]]}},
{ "type":"Feature","properties":{"osm_way_id":"563377884","amenity":"parking"},"geometry":{"type":"MultiPolygon","coordinates":[[[[-3.79448,50.58402],[-3.79445,50.58402],[-3.7944,50.58402],[-3.79426,50.584],[-3.79414,50.58394],[-3.79413,50.58388],[-3.79417,50.58382],[-3.79424,50.58376],[-3.79431,50.58375],[-3.7944,50.58378],[-3.79446,50.58379],[-3.79453,50.58377],[-3.79463,50.58375],[-3.79466,50.5838],[-3.79463,50.58398],[-3.79456,50.58401],[-3.79452,50.58402],[-3.79448,50.58402]]]]}},
{ "type":"Feature","properties":{"osm_way_id":"563377890","amenity":"parking"},"geometry":{"type":"MultiPolygon","coordinates":[[[[-3.79144,50.58231],[-3.79155,50.58228],[-3.79165,50.58225],[-3.79168,50.58223],[-3.79172,50.58218],[-3.79169,50.58213],[-3.79162,50.58209],[-3.79159,50.58208],[-3.79153,50.58208],[-3.79146,50.58212],[-3.79144,50.58213],[-3.79139,50.58216],[-3.79135,50.58219],[-3.79132,50.58222],[-3.79135,50.58225],[-3.7914,50.58229],[-3.79143,50.58231],[-3.79144,50.58231]]]]}},
{ "type":"Feature","properties":{"osm_way_id":"563394278","amenity":"parking"},"geometry":{"type":"MultiPolygon","coordinates":[[[[-3.79168,50.57574],[-3.79165,50.57574],[-3.79161,50.57575],[-3.79158,50.57573],[-3.79153,50.57572],[-3.79145,50.57573],[-3.7913,50.5757],[-3.79131,50.57562],[-3.79141,50.57554],[-3.79151,50.57553],[-3.79159,50.57554],[-3.79165,50.57557],[-3.79168,50.57565],[-3.79168,50.57571],[-3.79168,50.57574]]]]}},
{ "type":"Feature","properties":{"osm_way_id":"563739558","amenity":"parking"},"geometry":{"type":"MultiPolygon","coordinates":[[[[-3.82517,50.52891],[-3.82529,50.52896],[-3.82536,50.52896],[-3.82539,50.52889],[-3.82539,50.52884],[-3.82543,50.52879],[-3.82546,50.52874],[-3.82549,50.52869],[-3.82548,50.52865],[-3.82543,50.52863],[-3.82536,50.52861],[-3.82528,50.52864],[-3.82524,50.52874],[-3.82523,50.5288],[-3.8252,50.52883],[-3.82516,50.52885],[-3.82517,50.52891]]]]}},
{ "type":"Feature","properties":{"osm_way_id":"564420665","amenity":"parking"},"geometry":{"type":"MultiPolygon","coordinates":[[[[-3.7868,50.55755],[-3.78688,50.55767],[-3.78688,50.55773],[-3.78669,50.55784],[-3.78654,50.55782],[-3.78647,50.55776],[-3.78646,50.55766],[-3.78652,50.55758],[-3.78657,50.55753],[-3.78665,50.55754],[-3.7868,50.55755]]]]}},
{ "type":"Feature","properties":{"osm_way_id":"564420667","amenity":"parking"},"geometry":{"type":"MultiPolygon","coordinates":[[[[-3.78225,50.55071],[-3.78208,50.55074],[-3.782,50.55077],[-3.78193,50.5508],[-3.78184,50.55077],[-3.7817,50.55088],[-3.78167,50.55095],[-3.78168,50.55098],[-3.78176,50.55099],[-3.78185,50.55091],[-3.78195,50.55092],[-3.78206,50.55091],[-3.78214,50.55087],[-3.78224,50.55078],[-3.78225,50.55071]]]]}},
{ "type":"Feature","properties":{"osm_way_id":"564420668","amenity":"parking"},"geometry":{"type":"MultiPolygon","coordinates":[[[[-3.77719,50.55233],[-3.77732,50.55237],[-3.77748,50.55243],[-3.77759,50.55237],[-3.77759,50.55231],[-3.77747,50.55225],[-3.77738,50.55221],[-3.7773,50.55212],[-3.77722,50.55206],[-3.7771,50.5521],[-3.77706,50.55214],[-3.77699,50.55221],[-3.77705,50.55225],[-3.77719,50.55233]]]]}},
{ "type":"Feature","properties":{"osm_way_id":"564420670","amenity":"parking"},"geometry":{"type":"MultiPolygon","coordinates":[[[[-3.77956,50.5542],[-3.77944,50.55418],[-3.77936,50.55421],[-3.77935,50.5543],[-3.7794,50.55439],[-3.77949,50.55444],[-3.77958,50.55445],[-3.77966,50.55443],[-3.77971,50.5544],[-3.77973,50.55438],[-3.77973,50.55435],[-3.7797,50.55431],[-3.7796,50.55425],[-3.77956,50.5542]]]]}},
{ "type":"Feature","properties":{"osm_way_id":"584372907","amenity":"parking"},"geometry":{"type":"MultiPolygon","coordinates":[[[[-3.64182,50.48022],[-3.64173,50.48027],[-3.64175,50.48029],[-3.64168,50.48033],[-3.64164,50.48036],[-3.64163,50.48035],[-3.64154,50.48029],[-3.64146,50.48034],[-3.64152,50.48038],[-3.64133,50.48048],[-3.64131,50.48047],[-3.64128,50.4805],[-3.64116,50.48042],[-3.64147,50.48025],[-3.64124,50.48011],[-3.64143,50.47998],[-3.64182,50.48022]]]]}},
{ "type":"Feature","properties":{"osm_way_id":"587479616","amenity":"parking"},"geometry":{"type":"MultiPolygon","coordinates":[[[[-3.60125,50.60582],[-3.60116,50.60569],[-3.60101,50.60573],[-3.60104,50.60578],[-3.60088,50.60582],[-3.60094,50.60591],[-3.60125,50.60582]]]]}},
{ "type":"Feature","properties":{"osm_way_id":"587479617","amenity":"parking"},"geometry":{"type":"MultiPolygon","coordinates":[[[[-3.60137,50.606],[-3.60131,50.60591],[-3.60096,50.60598],[-3.601,50.60607],[-3.60137,50.606]]]]}},
{ "type":"Feature","properties":{"osm_way_id":"587744520","amenity":"parking"},"geometry":{"type":"MultiPolygon","coordinates":[[[[-3.82408,50.52815],[-3.82409,50.52818],[-3.82409,50.52824],[-3.82402,50.52828],[-3.82398,50.52828],[-3.82393,50.52825],[-3.82389,50.52821],[-3.82386,50.52815],[-3.82387,50.52812],[-3.82389,50.52809],[-3.82396,50.5281],[-3.82403,50.52812],[-3.82408,50.52815]]]]}},
{ "type":"Feature","properties":{"osm_way_id":"598484120","amenity":"parking","other":{"wheelchair":"yes"}}, "geometry":{"type":"MultiPolygon","coordinates":[[[[-3.54025,50.53811],[-3.5401,50.53826],[-3.54003,50.53828],[-3.53997,50.53824],[-3.54006,50.53818],[-3.54014,50.53809],[-3.54025,50.53811]]]]}},
{ "type":"Feature","properties":{"osm_way_id":"607421703","amenity":"parking","other":{"access":"customers","fee":"no","operator":"costcutters","parking":"surface"}}, "geometry":{"type":"MultiPolygon","coordinates":[[[[-3.47142,50.58188],[-3.47116,50.5819],[-3.47115,50.58181],[-3.47119,50.5818],[-3.47126,50.58181],[-3.47136,50.58179],[-3.47142,50.58188]]]]}},
{ "type":"Feature","properties":{"osm_way_id":"607421704","name":"Co-operative Car Park","amenity":"parking","other":{"access":"customers","parking":"surface"}}, "geometry":{"type":"MultiPolygon","coordinates":[[[[-3.46717,50.58144],[-3.4669,50.58143],[-3.46692,50.58155],[-3.46697,50.58188],[-3.46735,50.5819],[-3.46734,50.58145],[-3.46717,50.58144]]]]}},
{ "type":"Feature","properties":{"osm_way_id":"607425009","amenity":"parking","other":{"access":"yes","fee":"yes","park_ride":"no","parking":"surface","surface":"paved"}}, "geometry":{"type":"MultiPolygon","coordinates":[[[[-3.47088,50.58109],[-3.47049,50.58112],[-3.47036,50.58112],[-3.47036,50.58109],[-3.47033,50.58078],[-3.4704,50.58078],[-3.4704,50.58072],[-3.47074,50.58071],[-3.47073,50.58058],[-3.4709,50.58057],[-3.47091,50.58068],[-3.47084,50.58068],[-3.47085,50.58081],[-3.4709,50.58081],[-3.47091,50.58089],[-3.47086,50.58089],[-3.47087,50.58097],[-3.47088,50.58109]]]]}},
{ "type":"Feature","properties":{"osm_way_id":"614945019","amenity":"parking","other":{"parking":"surface","surface":"asphalt"}}, "geometry":{"type":"MultiPolygon","coordinates":[[[[-3.51067,50.54113],[-3.51043,50.54113],[-3.51042,50.54096],[-3.51019,50.54097],[-3.51018,50.54113],[-3.51018,50.54129],[-3.51069,50.54128],[-3.51067,50.54113]]]]}},
{ "type":"Feature","properties":{"osm_way_id":"617697828","amenity":"parking","other":{"access":"yes","bus":"yes","car":"no","fee":"yes","parking":"surface"}}, "geometry":{"type":"MultiPolygon","coordinates":[[[[-3.8106,50.57779],[-3.81051,50.57742],[-3.8105,50.57724],[-3.81072,50.57723],[-3.81085,50.57778],[-3.8106,50.57779]]]]}},
{ "type":"Feature","properties":{"osm_way_id":"621257761","amenity":"parking","other":{"capacity":"20","capacity:disabled":"yes"}}, "geometry":{"type":"MultiPolygon","coordinates":[[[[-3.46871,50.67656],[-3.46871,50.67618],[-3.46863,50.67591],[-3.4687,50.67592],[-3.46883,50.67608],[-3.46888,50.67615],[-3.4689,50.67626],[-3.46886,50.67637],[-3.46879,50.67649],[-3.46871,50.67656]]]]}},
{ "type":"Feature","properties":{"osm_way_id":"636795247","amenity":"parking","other":{"capacity":"20"}}, "geometry":{"type":"MultiPolygon","coordinates":[[[[-3.52946,50.57496],[-3.52943,50.57503],[-3.5297,50.57504],[-3.52985,50.57478],[-3.52987,50.57468],[-3.52976,50.57467],[-3.52968,50.57481],[-3.52948,50.57484],[-3.52946,50.57496]]]]}},
{ "type":"Feature","properties":{"osm_way_id":"638342191","name":"Sandygate Inn Parking","amenity":"parking","other":{"access":"customers"}}, "geometry":{"type":"MultiPolygon","coordinates":[[[[-3.60026,50.56099],[-3.60038,50.56107],[-3.60063,50.56129],[-3.60025,50.56137],[-3.59989,50.56141],[-3.59995,50.56128],[-3.60006,50.56116],[-3.60019,50.56105],[-3.60026,50.56099]]]]}},
{ "type":"Feature","properties":{"osm_way_id":"640646882","name":"The Smugglers Inn Parking","amenity":"parking","other":{"access":"customers","fee":"no","parking":"surface"}}, "geometry":{"type":"MultiPolygon","coordinates":[[[[-3.47462,50.56858],[-3.47434,50.56857],[-3.47402,50.56857],[-3.47387,50.56922],[-3.47405,50.5693],[-3.47408,50.56931],[-3.47414,50.56927],[-3.4742,50.56921],[-3.47434,50.56902],[-3.47428,50.56898],[-3.47427,50.5689],[-3.47422,50.56887],[-3.4742,50.56883],[-3.47419,50.56876],[-3.47422,50.56869],[-3.47431,50.56863],[-3.47443,50.56862],[-3.4746,50.56866],[-3.47462,50.56862],[-3.47462,50.56858]]]]}},
{ "type":"Feature","properties":{"osm_way_id":"644911243","amenity":"parking"},"geometry":{"type":"MultiPolygon","coordinates":[[[[-3.74876,50.51932],[-3.74895,50.51936],[-3.74907,50.51922],[-3.74899,50.51921],[-3.74901,50.51915],[-3.74911,50.51917],[-3.74914,50.51907],[-3.74878,50.519],[-3.74875,50.5191],[-3.74883,50.5191],[-3.74893,50.51913],[-3.74896,50.51914],[-3.74895,50.51918],[-3.74894,50.5192],[-3.74888,50.51919],[-3.74876,50.51932]]]]}},
{ "type":"Feature","properties":{"osm_way_id":"650785260","amenity":"parking"},"geometry":{"type":"MultiPolygon","coordinates":[[[[-3.7704,50.51446],[-3.77024,50.51438],[-3.77015,50.51445],[-3.77006,50.51441],[-3.77005,50.51443],[-3.76995,50.51442],[-3.76985,50.51451],[-3.76992,50.51472],[-3.76994,50.51476],[-3.77005,50.51478],[-3.7704,50.51446]]]]}},
{ "type":"Feature","properties":{"osm_way_id":"653381389","amenity":"parking"},"geometry":{"type":"MultiPolygon","coordinates":[[[[-3.63072,50.51099],[-3.63019,50.51106],[-3.63012,50.51102],[-3.63003,50.511],[-3.62996,50.511],[-3.62994,50.51096],[-3.63065,50.51084],[-3.63072,50.51099]]]]}},
{ "type":"Feature","properties":{"osm_way_id":"653381390","amenity":"parking"},"geometry":{"type":"MultiPolygon","coordinates":[[[[-3.63082,50.51117],[-3.63077,50.51105],[-3.63026,50.5111],[-3.6303,50.51122],[-3.63082,50.51117]]]]}},
{ "type":"Feature","properties":{"osm_way_id":"662349614","amenity":"parking","other":{"access":"customers","operator":"The Anchor"}}, "geometry":{"type":"MultiPolygon","coordinates":[[[[-3.44944,50.61688],[-3.44956,50.61679],[-3.44929,50.61679],[-3.44929,50.61681],[-3.44919,50.6168],[-3.44918,50.61685],[-3.44918,50.61688],[-3.44944,50.61688]]]]}},
{ "type":"Feature","properties":{"osm_way_id":"662349615","amenity":"parking","other":{"access":"customers","operator":"The Ship Inn","parking":"surface"}}, "geometry":{"type":"MultiPolygon","coordinates":[[[[-3.45002,50.61669],[-3.44976,50.61666],[-3.44978,50.61659],[-3.45004,50.61663],[-3.45002,50.61669]]]]}},
{ "type":"Feature","properties":{"osm_way_id":"682314915","amenity":"parking","other":{"smoothness":"good","surface":"asphalt"}}, "geometry":{"type":"MultiPolygon","coordinates":[[[[-3.44613,50.61436],[-3.44606,50.6143],[-3.44594,50.61402],[-3.44595,50.61395],[-3.44613,50.61436]]]]}},
{ "type":"Feature","properties":{"osm_way_id":"688180011","name":"Haldon Forest Park Staff Parking","amenity":"parking","other":{"fee":"yes"}}, "geometry":{"type":"MultiPolygon","coordinates":[[[[-3.58199,50.65173],[-3.58202,50.65156],[-3.58191,50.65152],[-3.58181,50.65152],[-3.5818,50.65159],[-3.58179,50.65188],[-3.58186,50.65194],[-3.58194,50.65205],[-3.58218,50.65213],[-3.58235,50.65212],[-3.58246,50.65205],[-3.58251,50.65201],[-3.58249,50.65193],[-3.58225,50.65183],[-3.58199,50.65173]]]]}},
{ "type":"Feature","properties":{"osm_way_id":"688180672","amenity":"parking","other":{"fee":"yes"}}, "geometry":{"type":"MultiPolygon","coordinates":[[[[-3.58162,50.65214],[-3.58194,50.65205],[-3.58186,50.65194],[-3.58179,50.65188],[-3.58149,50.652],[-3.58162,50.65214]]]]}},
{ "type":"Feature","properties":{"osm_way_id":"689512203","amenity":"parking"},"geometry":{"type":"MultiPolygon","coordinates":[[[[-3.49343,50.67194],[-3.49331,50.67191],[-3.49332,50.67188],[-3.49332,50.67161],[-3.4933,50.6715],[-3.49328,50.67144],[-3.4933,50.6714],[-3.49335,50.67133],[-3.49339,50.67128],[-3.49344,50.67124],[-3.49348,50.67124],[-3.49369,50.67126],[-3.49376,50.67126],[-3.49378,50.67126],[-3.49379,50.67132],[-3.49374,50.67142],[-3.49369,50.67149],[-3.49349,50.67147],[-3.49348,50.67148],[-3.49366,50.67151],[-3.49366,50.67161],[-3.49362,50.67174],[-3.49355,50.67189],[-3.49353,50.67195],[-3.49343,50.67194]]]]}},
{ "type":"Feature","properties":{"osm_way_id":"704195083","amenity":"parking","other":{"access":"customers","capacity:disabled":"0","capacity:parent":"0","capacity:women":"0","fee":"no","lit":"no","operator":"Church of England","park_ride":"no","parking":"surface","parking:orientation":"perpendicular","surface":"asphalt"}}, "geometry":{"type":"MultiPolygon","coordinates":[[[[-1.54589,52.29376],[-1.54607,52.2939],[-1.54609,52.29388],[-1.54611,52.2939],[-1.54612,52.29389],[-1.54613,52.2939],[-1.54612,52.29391],[-1.54618,52.29395],[-1.54619,52.29394],[-1.5462,52.29395],[-1.54618,52.29396],[-1.5462,52.29397],[-1.54625,52.29401],[-1.54628,52.294],[-1.54644,52.29392],[-1.54635,52.29386],[-1.5463,52.29382],[-1.5461,52.29367],[-1.54589,52.29376]]]]}},
{ "type":"Feature","properties":{"osm_way_id":"723188857","amenity":"parking"},"geometry":{"type":"MultiPolygon","coordinates":[[[[-3.84326,50.54337],[-3.84346,50.54329],[-3.8436,50.54328],[-3.84375,50.5433],[-3.84391,50.54333],[-3.84411,50.54336],[-3.84422,50.54334],[-3.84433,50.54327],[-3.84437,50.5432],[-3.84431,50.54311],[-3.84428,50.54309],[-3.8444,50.54305],[-3.84447,50.54301],[-3.84443,50.54296],[-3.84409,50.54306],[-3.84388,50.54296],[-3.84378,50.5429],[-3.84366,50.54284],[-3.84353,50.54281],[-3.84346,50.5428],[-3.84337,50.54294],[-3.84335,50.54299],[-3.84322,50.54301],[-3.84309,50.54327],[-3.84308,50.54331],[-3.84326,50.54337]]]]}},
{ "type":"Feature","properties":{"osm_way_id":"734909594","amenity":"parking"},"geometry":{"type":"MultiPolygon","coordinates":[[[[-3.68723,50.5638],[-3.68697,50.56388],[-3.68694,50.56386],[-3.68701,50.56381],[-3.68719,50.56375],[-3.68723,50.5638]]]]}},
{ "type":"Feature","properties":{"osm_way_id":"743549669","amenity":"parking","other":{"access":"customers"}}, "geometry":{"type":"MultiPolygon","coordinates":[[[[-3.54073,50.63935],[-3.54093,50.63904],[-3.54076,50.63893],[-3.5406,50.63905],[-3.54043,50.63908],[-3.54055,50.63926],[-3.54061,50.63933],[-3.54069,50.63935],[-3.54073,50.63935]]]]}},
{ "type":"Feature","properties":{"osm_way_id":"758370172","amenity":"parking","other":{"access":"customers"}}, "geometry":{"type":"MultiPolygon","coordinates":[[[[-3.68281,50.73507],[-3.68285,50.73497],[-3.68282,50.73491],[-3.68234,50.73492],[-3.68234,50.73496],[-3.68243,50.73498],[-3.68243,50.73504],[-3.68274,50.73508],[-3.68281,50.73507]]]]}},
{ "type":"Feature","properties":{"osm_way_id":"758370184","amenity":"parking","other":{"access":"customers"}}, "geometry":{"type":"MultiPolygon","coordinates":[[[[-3.68182,50.73486],[-3.68182,50.73473],[-3.68208,50.73475],[-3.68208,50.73447],[-3.68199,50.73446],[-3.68176,50.73452],[-3.68168,50.7346],[-3.68161,50.73487],[-3.68182,50.73486]]]]}},
{ "type":"Feature","properties":{"osm_way_id":"780153167","amenity":"parking","other":{"access":"customers","fee":"no","operator":"Morrisons Car Park","parking":"surface","surface":"asphalt"}}, "geometry":{"type":"MultiPolygon","coordinates":[[[[-3.5178,50.54888],[-3.51736,50.54896],[-3.51724,50.54886],[-3.51698,50.54859],[-3.51689,50.5485],[-3.51658,50.54818],[-3.51649,50.54809],[-3.51739,50.54773],[-3.5177,50.54776],[-3.51779,50.54773],[-3.51816,50.54818],[-3.51812,50.54819],[-3.51744,50.5484],[-3.5178,50.54888]]]]}},
{ "type":"Feature","properties":{"osm_way_id":"781773809","amenity":"parking","other":{"access":"customers","surface":"gravel"}}, "geometry":{"type":"MultiPolygon","coordinates":[[[[-3.80023,50.61279],[-3.80021,50.61242],[-3.80025,50.61241],[-3.80025,50.6124],[-3.80024,50.61238],[-3.80033,50.61238],[-3.80045,50.61238],[-3.80042,50.6124],[-3.80042,50.61242],[-3.80046,50.61244],[-3.80047,50.61249],[-3.80054,50.6125],[-3.80055,50.61278],[-3.80023,50.61279]]]]}},
{ "type":"Feature","properties":{"osm_way_id":"781773810","amenity":"parking","other":{"access":"customers","surface":"gravel"}}, "geometry":{"type":"MultiPolygon","coordinates":[[[[-3.8008,50.61228],[-3.80098,50.6121],[-3.8009,50.61211],[-3.80088,50.61214],[-3.80072,50.6122],[-3.8008,50.61228]]]]}},
{ "type":"Feature","properties":{"osm_way_id":"781773811","amenity":"parking","other":{"access":"private","surface":"gravel"}}, "geometry":{"type":"MultiPolygon","coordinates":[[[[-3.80086,50.61132],[-3.80079,50.61132],[-3.80076,50.61136],[-3.80079,50.61142],[-3.80072,50.61145],[-3.80067,50.61137],[-3.80064,50.6113],[-3.8007,50.61125],[-3.80084,50.61117],[-3.80086,50.61132]]]]}},
{ "type":"Feature","properties":{"osm_way_id":"782120930","amenity":"parking","other":{"access":"customers"}}, "geometry":{"type":"MultiPolygon","coordinates":[[[[-3.75994,50.65832],[-3.75988,50.65833],[-3.75986,50.65831],[-3.75982,50.65832],[-3.75977,50.65833],[-3.75975,50.65829],[-3.75966,50.65831],[-3.75963,50.65832],[-3.75955,50.65816],[-3.75957,50.65815],[-3.75965,50.65814],[-3.75971,50.65815],[-3.75976,50.65815],[-3.75985,50.65815],[-3.75994,50.65832]]]]}},
{ "type":"Feature","properties":{"osm_way_id":"787520024","amenity":"parking"},"geometry":{"type":"MultiPolygon","coordinates":[[[[-3.45945,50.61446],[-3.45914,50.6144],[-3.45944,50.61374],[-3.45956,50.6136],[-3.45965,50.61363],[-3.45971,50.61365],[-3.45968,50.61375],[-3.45956,50.6143],[-3.45945,50.61446]]]]}},
{ "type":"Feature","properties":{"osm_way_id":"809836093","amenity":"parking","other":{"access":"permit","surface":"bricks"}}, "geometry":{"type":"MultiPolygon","coordinates":[[[[-0.21044,51.79334],[-0.21035,51.79322],[-0.21026,51.79323],[-0.21022,51.79333],[-0.21044,51.79334]]]]}},
{ "type":"Feature","properties":{"osm_way_id":"818826812","amenity":"parking","other":{"parking":"street_side"}}, "geometry":{"type":"MultiPolygon","coordinates":[[[[-3.45424,50.65061],[-3.45408,50.65057],[-3.45386,50.65047],[-3.45383,50.65051],[-3.45399,50.65064],[-3.45405,50.65069],[-3.45424,50.65061]]]]}},
{ "type":"Feature","properties":{"osm_way_id":"821247822","amenity":"parking"},"geometry":{"type":"MultiPolygon","coordinates":[[[[-2.52496,51.76066],[-2.52485,51.76091],[-2.52474,51.7609],[-2.5247,51.761],[-2.52497,51.76106],[-2.52503,51.76094],[-2.52494,51.76093],[-2.52506,51.76067],[-2.52496,51.76066]]]]}},
{ "type":"Feature","properties":{"osm_way_id":"827823714","amenity":"parking"},"geometry":{"type":"MultiPolygon","coordinates":[[[[-3.55185,50.68149],[-3.5516,50.68155],[-3.55147,50.68146],[-3.55154,50.68143],[-3.55162,50.68141],[-3.55183,50.68144],[-3.55185,50.68149]]]]}},
{ "type":"Feature","properties":{"osm_way_id":"838015402","amenity":"parking","other":{"access":"private","parking":"surface"}}, "geometry":{"type":"MultiPolygon","coordinates":[[[[-1.48964,52.91753],[-1.4894,52.91757],[-1.48947,52.91773],[-1.48973,52.91768],[-1.48972,52.91765],[-1.48964,52.91753]]]]}},
{ "type":"Feature","properties":{"osm_way_id":"839978891","amenity":"parking"},"geometry":{"type":"MultiPolygon","coordinates":[[[[-1.15433,52.66502],[-1.15431,52.66507],[-1.15429,52.66513],[-1.15412,52.66514],[-1.15411,52.66516],[-1.15384,52.66512],[-1.1539,52.66495],[-1.15433,52.66502]]]]}},
{ "type":"Feature","properties":{"osm_way_id":"839978894","amenity":"parking","other":{"parking":"surface"}}, "geometry":{"type":"MultiPolygon","coordinates":[[[[-1.16159,52.66201],[-1.16105,52.66211],[-1.16081,52.66165],[-1.16133,52.66156],[-1.16159,52.66201]]]]}},
{ "type":"Feature","properties":{"osm_way_id":"841523019","amenity":"parking","other":{"access":"private","parking":"surface"}}, "geometry":{"type":"MultiPolygon","coordinates":[[[[-0.1159,51.60136],[-0.11589,51.60133],[-0.11588,51.60127],[-0.11563,51.60126],[-0.11563,51.60124],[-0.11553,51.60123],[-0.11553,51.60126],[-0.11545,51.60126],[-0.11544,51.60139],[-0.11544,51.6014],[-0.1159,51.60136]]]]}},
{ "type":"Feature","properties":{"osm_way_id":"844097970","amenity":"parking","other":{"parking":"surface"}}, "geometry":{"type":"MultiPolygon","coordinates":[[[[-3.86478,50.62162],[-3.86475,50.62164],[-3.86472,50.62167],[-3.86468,50.62165],[-3.86462,50.62168],[-3.86455,50.62169],[-3.86449,50.62169],[-3.86442,50.62166],[-3.86438,50.62166],[-3.86434,50.62168],[-3.86432,50.62174],[-3.86431,50.62177],[-3.86419,50.62175],[-3.86416,50.62166],[-3.8642,50.6216],[-3.8643,50.62156],[-3.86455,50.62153],[-3.86464,50.62154],[-3.86469,50.62158],[-3.86478,50.62162]]]]}},
{ "type":"Feature","properties":{"osm_way_id":"844851225","amenity":"parking"},"geometry":{"type":"MultiPolygon","coordinates":[[[[-3.5627,50.63837],[-3.56219,50.6383],[-3.56228,50.63798],[-3.56279,50.63804],[-3.5627,50.63837]]]]}},
{ "type":"Feature","properties":{"osm_way_id":"845455660","name":"Lower Point Car Park","amenity":"parking","other":{"access":"yes","fee":"yes","parking":"surface"}}, "geometry":{"type":"MultiPolygon","coordinates":[[[[-3.49878,50.54196],[-3.49878,50.54199],[-3.49876,50.54204],[-3.49875,50.54206],[-3.49874,50.54209],[-3.49872,50.54211],[-3.49871,50.54214],[-3.49869,50.54217],[-3.49866,50.54217],[-3.49857,50.54216],[-3.49856,50.54219],[-3.49856,50.5422],[-3.49846,50.5422],[-3.49835,50.54219],[-3.49817,50.54218],[-3.49806,50.54217],[-3.49808,50.54214],[-3.49809,50.54211],[-3.49815,50.5421],[-3.49824,50.54209],[-3.49826,50.54208],[-3.49828,50.54205],[-3.49842,50.54201],[-3.49866,50.54195],[-3.49868,50.54198],[-3.49878,50.54196]]]]}},
{ "type":"Feature","properties":{"osm_way_id":"851664588","amenity":"parking","other":{"parking":"layby"}}, "geometry":{"type":"MultiPolygon","coordinates":[[[[-3.65659,50.53728],[-3.65697,50.53724],[-3.65733,50.53719],[-3.65784,50.53709],[-3.65764,50.53706],[-3.65746,50.53707],[-3.65695,50.53716],[-3.65659,50.53728]]]]}},
{ "type":"Feature","properties":{"osm_way_id":"855696308","amenity":"parking","other":{"access":"yes","fee":"no","operator":"Aldi","parking":"surface"}}, "geometry":{"type":"MultiPolygon","coordinates":[[[[-3.59811,50.52669],[-3.59765,50.52654],[-3.59775,50.52641],[-3.5979,50.52638],[-3.5987,50.52664],[-3.59885,50.52698],[-3.59838,50.52703],[-3.5983,50.52681],[-3.59811,50.52669]]]]}},
{ "type":"Feature","properties":{"osm_way_id":"858115689","amenity":"parking","other":{"access":"yes","fee":"no","parking":"surface","surface":"asphalt"}}, "geometry":{"type":"MultiPolygon","coordinates":[[[[-3.65741,50.54513],[-3.65734,50.54498],[-3.65792,50.54488],[-3.65802,50.54512],[-3.65782,50.54515],[-3.65778,50.54507],[-3.65741,50.54513]]]]}},
{ "type":"Feature","properties":{"osm_way_id":"858123485","amenity":"parking","other":{"parking":"surface","surface":"asphalt"}}, "geometry":{"type":"MultiPolygon","coordinates":[[[[-3.65511,50.54539],[-3.65489,50.54532],[-3.65507,50.5451],[-3.65522,50.54514],[-3.65523,50.54519],[-3.65511,50.54539]]]]}},
{ "type":"Feature","properties":{"osm_way_id":"858238686","amenity":"parking","other":{"access":"yes","fee":"no","parking":"surface","surface":"asphalt"}}, "geometry":{"type":"MultiPolygon","coordinates":[[[[-3.6567,50.54576],[-3.65666,50.54568],[-3.65647,50.54572],[-3.6567,50.54576]]]]}},
{ "type":"Feature","properties":{"osm_way_id":"858238688","amenity":"parking","other":{"access":"yes","fee":"no","parking":"surface"}}, "geometry":{"type":"MultiPolygon","coordinates":[[[[-3.65675,50.54613],[-3.65672,50.54602],[-3.65638,50.54608],[-3.65643,50.5462],[-3.65675,50.54613]]]]}},
{ "type":"Feature","properties":{"osm_way_id":"858344403","amenity":"parking","other":{"access":"yes","fee":"no","parking":"surface"}}, "geometry":{"type":"MultiPolygon","coordinates":[[[[-3.6538,50.54354],[-3.65402,50.54324],[-3.65399,50.54297],[-3.65374,50.543],[-3.65377,50.54305],[-3.65372,50.54311],[-3.65334,50.54318],[-3.65331,50.54321],[-3.65335,50.54324],[-3.65359,50.5433],[-3.65365,50.54336],[-3.65363,50.54342],[-3.6538,50.54354]]]]}},
{ "type":"Feature","properties":{"osm_way_id":"858345588","amenity":"parking","other":{"access":"yes","fee":"no","parking":"surface"}}, "geometry":{"type":"MultiPolygon","coordinates":[[[[-3.65577,50.54596],[-3.65515,50.54619],[-3.65503,50.54614],[-3.65501,50.54617],[-3.65487,50.54612],[-3.65486,50.54605],[-3.65494,50.54585],[-3.65526,50.54547],[-3.6555,50.54555],[-3.65533,50.54573],[-3.65524,50.54569],[-3.65505,50.54591],[-3.65508,50.54592],[-3.65505,50.54596],[-3.65509,50.54597],[-3.65506,50.546],[-3.65529,50.54609],[-3.65552,50.54583],[-3.65561,50.54586],[-3.65566,50.54582],[-3.65568,50.54584],[-3.65577,50.54596]]]]}},
{ "type":"Feature","properties":{"osm_way_id":"858864628","amenity":"parking","other":{"access":"yes","fee":"no","parking":"surface","surface":"asphalt"}}, "geometry":{"type":"MultiPolygon","coordinates":[[[[-3.65636,50.5457],[-3.65628,50.5457],[-3.6562,50.54569],[-3.65619,50.54567],[-3.65622,50.54566],[-3.65618,50.54557],[-3.65627,50.54555],[-3.65629,50.54559],[-3.65631,50.54559],[-3.65634,50.54566],[-3.65643,50.54565],[-3.6564,50.54557],[-3.65656,50.54554],[-3.65661,50.54566],[-3.65636,50.5457]]]]}},
{ "type":"Feature","properties":{"osm_way_id":"858864630","amenity":"parking","other":{"access":"yes","fee":"no","parking":"surface"}}, "geometry":{"type":"MultiPolygon","coordinates":[[[[-3.65602,50.54571],[-3.65597,50.54577],[-3.65589,50.54581],[-3.65576,50.54586],[-3.65585,50.54595],[-3.65602,50.54589],[-3.65606,50.54585],[-3.65608,50.5458],[-3.65608,50.54575],[-3.65602,50.54571]]]]}},
{ "type":"Feature","properties":{"osm_way_id":"858864631","amenity":"parking","other":{"access":"yes","fee":"no","parking":"surface"}}, "geometry":{"type":"MultiPolygon","coordinates":[[[[-3.65602,50.54571],[-3.65594,50.54567],[-3.65589,50.54566],[-3.65584,50.54567],[-3.6558,50.54571],[-3.65568,50.54584],[-3.65573,50.54587],[-3.65576,50.54586],[-3.65589,50.54581],[-3.65597,50.54577],[-3.65602,50.54571]]]]}},
{ "type":"Feature","properties":{"osm_way_id":"859069532","amenity":"parking","other":{"parking":"surface"}}, "geometry":{"type":"MultiPolygon","coordinates":[[[[-3.64882,50.5596],[-3.64842,50.55927],[-3.64841,50.55926],[-3.64807,50.55943],[-3.64797,50.55948],[-3.64838,50.55981],[-3.64882,50.5596]]]]}},
{ "type":"Feature","properties":{"osm_way_id":"874042226","name":"Middle Trendlebere Car Park","amenity":"parking"},"geometry":{"type":"MultiPolygon","coordinates":[[[[-3.72205,50.60043],[-3.72239,50.60075],[-3.72231,50.60082],[-3.72216,50.60085],[-3.72202,50.60067],[-3.72179,50.60082],[-3.72155,50.60085],[-3.72152,50.60081],[-3.72146,50.60075],[-3.72171,50.60068],[-3.72192,50.60057],[-3.72184,50.60048],[-3.72205,50.60043]]]]}},
{ "type":"Feature","properties":{"osm_way_id":"881012272","amenity":"parking"},"geometry":{"type":"MultiPolygon","coordinates":[[[[-3.6584,50.5375],[-3.65797,50.53749],[-3.65798,50.53719],[-3.65841,50.5372],[-3.6584,50.5375]]]]}},
{ "type":"Feature","properties":{"osm_way_id":"892825784","amenity":"parking"},"geometry":{"type":"MultiPolygon","coordinates":[[[[-3.44755,50.61903],[-3.44753,50.61889],[-3.4479,50.61886],[-3.44768,50.61895],[-3.44755,50.61903]]]]}},
{ "type":"Feature","properties":{"osm_way_id":"895953096","amenity":"parking","other":{"parking":"layby"}}, "geometry":{"type":"MultiPolygon","coordinates":[[[[-2.4796,51.37622],[-2.47942,51.37627],[-2.47929,51.37604],[-2.47918,51.37571],[-2.47921,51.37569],[-2.4796,51.37622]]]]}},
{ "type":"Feature","properties":{"osm_way_id":"941708290","amenity":"parking","other":{"access":"private","parking":"surface","surface":"paved"}}, "geometry":{"type":"MultiPolygon","coordinates":[[[[-0.45641,51.50933],[-0.45612,51.50929],[-0.45614,51.50924],[-0.45606,51.50923],[-0.45611,51.50912],[-0.45612,51.50909],[-0.45618,51.5091],[-0.4562,51.50906],[-0.45809,51.50935],[-0.45807,51.5094],[-0.4581,51.5094],[-0.45806,51.50951],[-0.45805,51.50951],[-0.45712,51.50936],[-0.45713,51.50933],[-0.45645,51.50923],[-0.45641,51.50933]]]]}},
{ "type":"Feature","properties":{"osm_way_id":"946538469","amenity":"parking","other":{"parking":"street_side"}}, "geometry":{"type":"MultiPolygon","coordinates":[[[[-3.76232,50.52012],[-3.76178,50.52019],[-3.76172,50.52014],[-3.76227,50.52008],[-3.76232,50.52012]]]]}},
{ "type":"Feature","properties":{"osm_way_id":"951944192","amenity":"parking","other":{"access":"customers","fee":"no","parking":"surface"}}, "geometry":{"type":"MultiPolygon","coordinates":[[[[-3.6631,50.55867],[-3.66263,50.55853],[-3.66281,50.55828],[-3.66332,50.55837],[-3.6631,50.55867]]]]}},
{ "type":"Feature","properties":{"osm_way_id":"956609620","amenity":"parking","other":{"access":"customers"}}, "geometry":{"type":"MultiPolygon","coordinates":[[[[-3.53756,50.65009],[-3.53746,50.65],[-3.53719,50.65008],[-3.53729,50.65019],[-3.53756,50.65009]]]]}},
{ "type":"Feature","properties":{"osm_way_id":"965936270","amenity":"parking","other":{"access":"yes","fee":"no","parking":"street_side"}}, "geometry":{"type":"MultiPolygon","coordinates":[[[[-3.65631,50.54589],[-3.65625,50.54573],[-3.65614,50.54572],[-3.65616,50.54577],[-3.65624,50.5459],[-3.65631,50.54589]]]]}},
{ "type":"Feature","properties":{"osm_way_id":"965939261","amenity":"parking","other":{"access":"yes","fee":"no","parking":"street_side"}}, "geometry":{"type":"MultiPolygon","coordinates":[[[[-3.63805,50.53914],[-3.63802,50.53912],[-3.63794,50.53911],[-3.63794,50.53899],[-3.63806,50.53899],[-3.63805,50.53901],[-3.63805,50.53914]]]]}},
{ "type":"Feature","properties":{"osm_way_id":"966303034","amenity":"parking"},"geometry":{"type":"MultiPolygon","coordinates":[[[[-3.61414,50.53041],[-3.61403,50.53027],[-3.61381,50.53034],[-3.61386,50.5304],[-3.61376,50.53046],[-3.61386,50.53051],[-3.61393,50.53047],[-3.61394,50.53048],[-3.61398,50.53045],[-3.61414,50.53041]]]]}},
{ "type":"Feature","properties":{"osm_way_id":"966308684","amenity":"parking"},"geometry":{"type":"MultiPolygon","coordinates":[[[[-3.6075,50.53263],[-3.60735,50.53252],[-3.60719,50.5326],[-3.60734,50.53271],[-3.6075,50.53263]]]]}},
{ "type":"Feature","properties":{"osm_way_id":"966308686","amenity":"parking"},"geometry":{"type":"MultiPolygon","coordinates":[[[[-3.60675,50.53306],[-3.60636,50.53289],[-3.60607,50.53311],[-3.60634,50.53323],[-3.60643,50.5332],[-3.60652,50.53324],[-3.60675,50.53306]]]]}},
{ "type":"Feature","properties":{"osm_way_id":"966308689","amenity":"parking"},"geometry":{"type":"MultiPolygon","coordinates":[[[[-3.60412,50.53443],[-3.60424,50.53441],[-3.60463,50.53411],[-3.6046,50.53403],[-3.60514,50.53394],[-3.6052,50.53387],[-3.60495,50.53377],[-3.6048,50.53392],[-3.60458,50.53382],[-3.6047,50.5337],[-3.60457,50.53365],[-3.60394,50.53425],[-3.60387,50.53422],[-3.60381,50.53428],[-3.60412,50.53443]]]]}},
{ "type":"Feature","properties":{"osm_way_id":"966308690","amenity":"parking"},"geometry":{"type":"MultiPolygon","coordinates":[[[[-3.6034,50.534],[-3.6032,50.5339],[-3.60347,50.53371],[-3.60367,50.53378],[-3.6034,50.534]]]]}},
{ "type":"Feature","properties":{"osm_way_id":"966511038","amenity":"parking"},"geometry":{"type":"MultiPolygon","coordinates":[[[[-3.44347,50.59959],[-3.44321,50.59957],[-3.4432,50.59962],[-3.44316,50.59968],[-3.44314,50.59983],[-3.4435,50.59983],[-3.4435,50.59974],[-3.44347,50.59974],[-3.44346,50.59965],[-3.44349,50.59964],[-3.44347,50.59959]]]]}},
{ "type":"Feature","properties":{"osm_way_id":"975260276","amenity":"parking","other":{"access":"customers","fee":"no","parking":"surface","surface":"asphalt"}}, "geometry":{"type":"MultiPolygon","coordinates":[[[[-3.63514,50.54627],[-3.6351,50.54565],[-3.63484,50.54576],[-3.63467,50.54588],[-3.63451,50.54604],[-3.63432,50.54619],[-3.63419,50.54629],[-3.63418,50.54634],[-3.63424,50.54638],[-3.63437,50.54642],[-3.63447,50.54642],[-3.63446,50.54632],[-3.63514,50.54627]]]]}},
{ "type":"Feature","properties":{"osm_way_id":"975260280","amenity":"parking"},"geometry":{"type":"MultiPolygon","coordinates":[[[[-3.63662,50.54723],[-3.63661,50.54715],[-3.6366,50.54702],[-3.63659,50.54691],[-3.63636,50.54693],[-3.6364,50.54724],[-3.63662,50.54723]]]]}},
{ "type":"Feature","properties":{"osm_way_id":"989362827","amenity":"parking"},"geometry":{"type":"MultiPolygon","coordinates":[[[[-3.4612,50.64311],[-3.46117,50.64295],[-3.46112,50.64295],[-3.4611,50.64289],[-3.46108,50.64282],[-3.46091,50.64284],[-3.46091,50.64285],[-3.46087,50.64285],[-3.46086,50.64284],[-3.4607,50.64285],[-3.46071,50.64291],[-3.46076,50.64291],[-3.46106,50.64288],[-3.46107,50.64293],[-3.46111,50.6431],[-3.46111,50.64312],[-3.4612,50.64311]]]]}},
{ "type":"Feature","properties":{"osm_way_id":"989362837","amenity":"parking"},"geometry":{"type":"MultiPolygon","coordinates":[[[[-3.46449,50.64304],[-3.46465,50.64276],[-3.46376,50.64233],[-3.46365,50.64229],[-3.46346,50.6426],[-3.46449,50.64304]]]]}},
{ "type":"Feature","properties":{"osm_way_id":"989885194","amenity":"parking"},"geometry":{"type":"MultiPolygon","coordinates":[[[[-3.50517,50.68042],[-3.50505,50.68046],[-3.50496,50.68035],[-3.50488,50.68026],[-3.5051,50.68021],[-3.50518,50.6802],[-3.50521,50.68022],[-3.50514,50.68034],[-3.50518,50.68041],[-3.50517,50.68042]]]]}},
{ "type":"Feature","properties":{"osm_way_id":"989885211","amenity":"parking"},"geometry":{"type":"MultiPolygon","coordinates":[[[[-3.50491,50.68004],[-3.50483,50.68006],[-3.50482,50.68008],[-3.50481,50.68009],[-3.50474,50.67998],[-3.50476,50.67997],[-3.50478,50.67998],[-3.50486,50.67997],[-3.50491,50.68004]]]]}},
{ "type":"Feature","properties":{"osm_way_id":"992179052","name":"Castle Inn Car Park","amenity":"parking","other":{"access":"customers","capacity":"18","fee":"no","parking":"surface","surface":"asphalt"}}, "geometry":{"type":"MultiPolygon","coordinates":[[[[-3.48012,50.56564],[-3.48017,50.56546],[-3.48003,50.56544],[-3.47992,50.56543],[-3.47993,50.56568],[-3.47998,50.56571],[-3.48001,50.5657],[-3.48006,50.56567],[-3.48012,50.56564]]]]}},
{ "type":"Feature","properties":{"osm_way_id":"993330207","amenity":"parking","other":{"access":"private"}}, "geometry":{"type":"MultiPolygon","coordinates":[[[[-3.77777,50.4825],[-3.77802,50.48237],[-3.77803,50.48229],[-3.77777,50.48233],[-3.77761,50.48232],[-3.77762,50.48229],[-3.77697,50.48227],[-3.77697,50.48238],[-3.77777,50.48238],[-3.77777,50.4825]]]]}},
{ "type":"Feature","properties":{"osm_way_id":"993330210","amenity":"parking","other":{"access":"private"}}, "geometry":{"type":"MultiPolygon","coordinates":[[[[-3.77921,50.48056],[-3.77918,50.48055],[-3.77914,50.48056],[-3.7791,50.48058],[-3.77907,50.4806],[-3.77912,50.48062],[-3.7791,50.48064],[-3.77914,50.48064],[-3.77921,50.48056]]]]}},
{ "type":"Feature","properties":{"osm_way_id":"993509054","amenity":"parking","other":{"access":"private"}}, "geometry":{"type":"MultiPolygon","coordinates":[[[[-3.77654,50.48141],[-3.77657,50.48131],[-3.77638,50.48129],[-3.77635,50.48139],[-3.77654,50.48141]]]]}},
{ "type":"Feature","properties":{"osm_way_id":"993560980","amenity":"parking","other":{"access":"private"}}, "geometry":{"type":"MultiPolygon","coordinates":[[[[-3.77884,50.48165],[-3.77888,50.48167],[-3.7789,50.48166],[-3.77891,50.48163],[-3.77895,50.48163],[-3.77896,50.48169],[-3.77903,50.48171],[-3.77906,50.48166],[-3.77935,50.48168],[-3.77935,50.48182],[-3.7792,50.48183],[-3.77886,50.48176],[-3.77888,50.48171],[-3.77882,50.48169],[-3.77884,50.48165]]]]}},
{ "type":"Feature","properties":{"osm_way_id":"993560989","amenity":"parking","other":{"access":"yes"}}, "geometry":{"type":"MultiPolygon","coordinates":[[[[-3.78277,50.48343],[-3.7827,50.48342],[-3.78275,50.48332],[-3.78283,50.48321],[-3.78286,50.48322],[-3.78277,50.48343]]]]}},
{ "type":"Feature","properties":{"osm_way_id":"994908722","amenity":"parking","other":{"access":"customers","parking":"surface","surface":"asphalt"}}, "geometry":{"type":"MultiPolygon","coordinates":[[[[-1.76384,53.68213],[-1.76335,53.68224],[-1.76317,53.68229],[-1.7631,53.68216],[-1.76306,53.68209],[-1.76365,53.68199],[-1.76386,53.68213],[-1.76384,53.68213]]]]}},
{ "type":"Feature","properties":{"osm_way_id":"1000764613","name":"Newton Abbot Station Staff","amenity":"parking","other":{"access":"private","operator":"First Great Western","operator:type":"private","parking":"surface"}}, "geometry":{"type":"MultiPolygon","coordinates":[[[[-3.59946,50.5305],[-3.59934,50.53049],[-3.59935,50.53043],[-3.59939,50.52997],[-3.59952,50.52997],[-3.5995,50.53013],[-3.59949,50.5303],[-3.59947,50.53041],[-3.59946,50.5305]]]]}},
{ "type":"Feature","properties":{"osm_way_id":"1000764614","amenity":"parking","other":{"access":"yes","capacity":"7","fee":"no"}}, "geometry":{"type":"MultiPolygon","coordinates":[[[[-3.6004,50.53051],[-3.60003,50.53038],[-3.60006,50.53034],[-3.60011,50.53027],[-3.60026,50.53039],[-3.6004,50.53051]]]]}},
{ "type":"Feature","properties":{"osm_way_id":"1000764615","name":"Residents Parking","amenity":"parking","other":{"access":"private","capacity":"6"}}, "geometry":{"type":"MultiPolygon","coordinates":[[[[-3.60006,50.53034],[-3.59984,50.53027],[-3.59981,50.53031],[-3.60003,50.53038],[-3.60006,50.53034]]]]}},
{ "type":"Feature","properties":{"osm_way_id":"1017577530","amenity":"parking"},"geometry":{"type":"MultiPolygon","coordinates":[[[[-3.8085,50.60613],[-3.80859,50.60604],[-3.80833,50.60592],[-3.80824,50.60598],[-3.80842,50.60609],[-3.8085,50.60613]]]]}},
{ "type":"Feature","properties":{"osm_way_id":"1017886456","amenity":"parking","other":{"access":"customers","capacity":"30","fee":"no","parking":"surface"}}, "geometry":{"type":"MultiPolygon","coordinates":[[[[-3.67298,50.59237],[-3.67295,50.59235],[-3.67298,50.59228],[-3.67291,50.59227],[-3.67295,50.59218],[-3.67292,50.59217],[-3.67298,50.59196],[-3.67305,50.59197],[-3.67333,50.59201],[-3.6733,50.5921],[-3.67335,50.59211],[-3.67334,50.59217],[-3.67321,50.59215],[-3.67309,50.5922],[-3.67316,50.59221],[-3.67311,50.59236],[-3.67304,50.59235],[-3.67303,50.59237],[-3.67301,50.59238],[-3.67298,50.59237]]]]}},
{ "type":"Feature","properties":{"osm_way_id":"1018487934","amenity":"parking"},"geometry":{"type":"MultiPolygon","coordinates":[[[[-3.56101,50.6399],[-3.56112,50.63991],[-3.56175,50.63993],[-3.5618,50.63972],[-3.56178,50.63971],[-3.56185,50.6395],[-3.56206,50.63891],[-3.5614,50.63882],[-3.56101,50.6399]]]]}},
{ "type":"Feature","properties":{"osm_way_id":"1021990021","amenity":"parking"},"geometry":{"type":"MultiPolygon","coordinates":[[[[-3.4694,50.58889],[-3.46948,50.58896],[-3.46941,50.58929],[-3.46923,50.58928],[-3.46925,50.58893],[-3.4694,50.58889]]]]}},
{ "type":"Feature","properties":{"osm_way_id":"1035335801","amenity":"parking","other":{"capacity":"3","fee":"no","parking":"surface","surface":"unpaved"}}, "geometry":{"type":"MultiPolygon","coordinates":[[[[-3.67211,50.66542],[-3.67199,50.66537],[-3.67191,50.66537],[-3.67159,50.66538],[-3.67211,50.66542]]]]}}
]
}
