{
"type": "FeatureCollection",
"features": [
{ "type":"Feature","properties":{"osm_id":"8125226271","other":{"amenity":"loading_dock"}}, "geometry":{"type":"Point","coordinates":[-1.47155,50.93296 ]}},
{ "type":"Feature","properties":{"osm_id":"8125226272","other":{"amenity":"loading_dock"}}, "geometry":{"type":"Point","coordinates":[-1.47157,50.93293 ]}},
{ "type":"Feature","properties":{"osm_id":"8125226273","other":{"amenity":"loading_dock"}}, "geometry":{"type":"Point","coordinates":[-1.47158,50.93289 ]}},
{ "type":"Feature","properties":{"osm_id":"8125226274","other":{"amenity":"loading_dock"}}, "geometry":{"type":"Point","coordinates":[-1.4716,50.93285 ]}},
{ "type":"Feature","properties":{"osm_id":"8125226275","other":{"amenity":"loading_dock"}}, "geometry":{"type":"Point","coordinates":[-1.47161,50.93282 ]}},
{ "type":"Feature","properties":{"osm_id":"8125226276","other":{"amenity":"loading_dock"}}, "geometry":{"type":"Point","coordinates":[-1.47162,50.93278 ]}},
{ "type":"Feature","properties":{"osm_id":"8125226277","other":{"amenity":"loading_dock"}}, "geometry":{"type":"Point","coordinates":[-1.47164,50.93275 ]}},
{ "type":"Feature","properties":{"osm_id":"8125226278","other":{"amenity":"loading_dock"}}, "geometry":{"type":"Point","coordinates":[-1.47165,50.93271 ]}},
{ "type":"Feature","properties":{"osm_id":"8125226279","other":{"amenity":"loading_dock"}}, "geometry":{"type":"Point","coordinates":[-1.47168,50.93264 ]}},
{ "type":"Feature","properties":{"osm_id":"8125226280","other":{"amenity":"loading_dock"}}, "geometry":{"type":"Point","coordinates":[-1.47169,50.9326 ]}},
{ "type":"Feature","properties":{"osm_id":"8125226281","other":{"amenity":"loading_dock"}}, "geometry":{"type":"Point","coordinates":[-1.4717,50.93257 ]}},
{ "type":"Feature","properties":{"osm_id":"8125226282","other":{"amenity":"loading_dock"}}, "geometry":{"type":"Point","coordinates":[-1.47172,50.93254 ]}},
{ "type":"Feature","properties":{"osm_id":"8125226283","other":{"amenity":"loading_dock"}}, "geometry":{"type":"Point","coordinates":[-1.47173,50.9325 ]}},
{ "type":"Feature","properties":{"osm_id":"8125226284","other":{"amenity":"loading_dock"}}, "geometry":{"type":"Point","coordinates":[-1.47174,50.93247 ]}},
{ "type":"Feature","properties":{"osm_id":"8125226285","other":{"amenity":"loading_dock"}}, "geometry":{"type":"Point","coordinates":[-1.47178,50.93236 ]}},
{ "type":"Feature","properties":{"osm_id":"8125226286","other":{"amenity":"loading_dock"}}, "geometry":{"type":"Point","coordinates":[-1.4718,50.93233 ]}},
{ "type":"Feature","properties":{"osm_id":"8125226287","other":{"amenity":"loading_dock"}}, "geometry":{"type":"Point","coordinates":[-1.47181,50.93229 ]}},
{ "type":"Feature","properties":{"osm_id":"8125226288","other":{"amenity":"loading_dock"}}, "geometry":{"type":"Point","coordinates":[-1.47182,50.93226 ]}},
{ "type":"Feature","properties":{"osm_id":"8125226289","other":{"amenity":"loading_dock"}}, "geometry":{"type":"Point","coordinates":[-1.47184,50.93222 ]}},
{ "type":"Feature","properties":{"osm_id":"8125226290","other":{"amenity":"loading_dock"}}, "geometry":{"type":"Point","coordinates":[-1.47185,50.93219 ]}},
{ "type":"Feature","properties":{"osm_id":"8125226291","other":{"amenity":"loading_dock"}}, "geometry":{"type":"Point","coordinates":[-1.47186,50.93215 ]}},
{ "type":"Feature","properties":{"osm_id":"8125226292","other":{"amenity":"loading_dock"}}, "geometry":{"type":"Point","coordinates":[-1.47188,50.93212 ]}},
{ "type":"Feature","properties":{"osm_id":"8125226293","other":{"amenity":"loading_dock"}}, "geometry":{"type":"Point","coordinates":[-1.47189,50.93208 ]}},
{ "type":"Feature","properties":{"osm_id":"8125226294","other":{"amenity":"loading_dock"}}, "geometry":{"type":"Point","coordinates":[-1.4719,50.93205 ]}},
{ "type":"Feature","properties":{"osm_id":"8125226295","other":{"amenity":"loading_dock"}}, "geometry":{"type":"Point","coordinates":[-1.47192,50.932 ]}},
{ "type":"Feature","properties":{"osm_id":"8125226296","other":{"amenity":"loading_dock"}}, "geometry":{"type":"Point","coordinates":[-1.47193,50.93197 ]}},
{ "type":"Feature","properties":{"osm_id":"8125226297","other":{"amenity":"loading_dock"}}, "geometry":{"type":"Point","coordinates":[-1.47195,50.93194 ]}},
{ "type":"Feature","properties":{"osm_id":"8125226298","other":{"amenity":"loading_dock"}}, "geometry":{"type":"Point","coordinates":[-1.47196,50.93189 ]}},
{ "type":"Feature","properties":{"osm_id":"8125226299","other":{"amenity":"loading_dock"}}, "geometry":{"type":"Point","coordinates":[-1.47198,50.93186 ]}},
{ "type":"Feature","properties":{"osm_id":"8125226300","other":{"amenity":"loading_dock"}}, "geometry":{"type":"Point","coordinates":[-1.47199,50.93182 ]}},
{ "type":"Feature","properties":{"osm_id":"8125226301","other":{"amenity":"loading_dock"}}, "geometry":{"type":"Point","coordinates":[-1.472,50.93179 ]}},
{ "type":"Feature","properties":{"osm_id":"8125226302","other":{"amenity":"loading_dock"}}, "geometry":{"type":"Point","coordinates":[-1.47203,50.93172 ]}},
{ "type":"Feature","properties":{"osm_id":"8125226303","other":{"amenity":"loading_dock"}}, "geometry":{"type":"Point","coordinates":[-1.47204,50.93169 ]}},
{ "type":"Feature","properties":{"osm_id":"8125226304","other":{"amenity":"loading_dock"}}, "geometry":{"type":"Point","coordinates":[-1.47206,50.93165 ]}},
{ "type":"Feature","properties":{"osm_id":"8125226305","other":{"amenity":"loading_dock"}}, "geometry":{"type":"Point","coordinates":[-1.47207,50.93162 ]}},
{ "type":"Feature","properties":{"osm_id":"8125226306","other":{"amenity":"loading_dock"}}, "geometry":{"type":"Point","coordinates":[-1.47208,50.93158 ]}},
{ "type":"Feature","properties":{"osm_id":"8125226307","other":{"amenity":"loading_dock"}}, "geometry":{"type":"Point","coordinates":[-1.47213,50.93146 ]}},
{ "type":"Feature","properties":{"osm_id":"8125226308","other":{"amenity":"loading_dock"}}, "geometry":{"type":"Point","coordinates":[-1.47215,50.93142 ]}},
{ "type":"Feature","properties":{"osm_id":"8125226309","other":{"amenity":"loading_dock"}}, "geometry":{"type":"Point","coordinates":[-1.47216,50.93138 ]}},
{ "type":"Feature","properties":{"osm_id":"8125226310","other":{"amenity":"loading_dock"}}, "geometry":{"type":"Point","coordinates":[-1.47218,50.93134 ]}},
{ "type":"Feature","properties":{"osm_id":"8125226311","other":{"amenity":"loading_dock"}}, "geometry":{"type":"Point","coordinates":[-1.47219,50.93131 ]}},
{ "type":"Feature","properties":{"osm_id":"8125226312","other":{"amenity":"loading_dock"}}, "geometry":{"type":"Point","coordinates":[-1.4722,50.93127 ]}},
{ "type":"Feature","properties":{"osm_id":"8125226313","other":{"amenity":"loading_dock"}}, "geometry":{"type":"Point","coordinates":[-1.47221,50.93124 ]}},
{ "type":"Feature","properties":{"osm_id":"8125226314","other":{"amenity":"loading_dock"}}, "geometry":{"type":"Point","coordinates":[-1.47223,50.9312 ]}},
{ "type":"Feature","properties":{"osm_id":"8125226315","other":{"amenity":"loading_dock"}}, "geometry":{"type":"Point","coordinates":[-1.47224,50.93116 ]}},
{ "type":"Feature","properties":{"osm_id":"8125226316","other":{"amenity":"loading_dock"}}, "geometry":{"type":"Point","coordinates":[-1.47226,50.93113 ]}},
{ "type":"Feature","properties":{"osm_id":"8125226317","other":{"amenity":"loading_dock"}}, "geometry":{"type":"Point","coordinates":[-1.47228,50.93108 ]}},
{ "type":"Feature","properties":{"osm_id":"8125226318","other":{"amenity":"loading_dock"}}, "geometry":{"type":"Point","coordinates":[-1.4723,50.93103 ]}},
{ "type":"Feature","properties":{"osm_id":"8125226319","other":{"amenity":"loading_dock"}}, "geometry":{"type":"Point","coordinates":[-1.47231,50.93099 ]}},
{ "type":"Feature","properties":{"osm_id":"8125226320","other":{"amenity":"loading_dock"}}, "geometry":{"type":"Point","coordinates":[-1.47232,50.93096 ]}},
{ "type":"Feature","properties":{"osm_id":"8125226321","other":{"amenity":"loading_dock"}}, "geometry":{"type":"Point","coordinates":[-1.47233,50.93092 ]}},
{ "type":"Feature","properties":{"osm_way_id":"137024368","name":"Co-operative Food Distribution Warehouse","building":"warehouse","other":{"addr:city":"Andover","addr:housename":"Andover Distribution Centre","addr:housenumber":"Unit 4","addr:postcode":"SP11 8EZ","addr:street":"Pioneer Way, Andover Business Park","addr:unit":"4","alt_name":"Megashed","phone":"+44 1264 712 200","website":"https:\/\/www.co-operative.coop\/food"}}, "geometry":{"type":"MultiPolygon","coordinates":[[[[-1.52918,51.21307],[-1.5307,51.21139],[-1.5309,51.21147],[-1.53116,51.21119],[-1.53094,51.2111],[-1.5315,51.21049],[-1.53053,51.21012],[-1.53067,51.21002],[-1.53006,51.20982],[-1.52911,51.21085],[-1.529,51.21082],[-1.5284,51.21146],[-1.52852,51.21151],[-1.52744,51.21273],[-1.52852,51.21311],[-1.5287,51.21293],[-1.52918,51.21307]]]]}},
{ "type":"Feature","properties":{"osm_way_id":"153188739","name":"Switch International","building":"warehouse","other":{"description":"International freight forwarders"}}, "geometry":{"type":"MultiPolygon","coordinates":[[[[-1.4925,51.21225],[-1.49162,51.21263],[-1.49135,51.21239],[-1.49239,51.21194],[-1.49262,51.21214],[-1.49246,51.21221],[-1.4925,51.21225]]]]}},
{ "type":"Feature","properties":{"osm_way_id":"243690714","name":"Ocado Customer Fulfilment Centre","building":"warehouse","other":{"addr:city":"Andover","addr:housenumber":"54","addr:postcode":"SP10 5AF","addr:street":"South Way","building:levels":"2"}}, "geometry":{"type":"MultiPolygon","coordinates":[[[[-1.44909,51.21789],[-1.44785,51.2168],[-1.44869,51.21642],[-1.44954,51.21604],[-1.44974,51.21622],[-1.44989,51.21616],[-1.45023,51.21646],[-1.45035,51.2164],[-1.45045,51.21649],[-1.45014,51.21663],[-1.45055,51.21699],[-1.45066,51.21693],[-1.45086,51.21711],[-1.44909,51.21789]]]]}},
{ "type":"Feature","properties":{"osm_way_id":"386611184","name":"Lidl Distribution Centre","building":"warehouse","office":"company","other":{"addr:city":"Nursling","addr:country":"GB","addr:housename":"Foxes Park","addr:postcode":"SO16 0AW","addr:street":"Brownhill Way","brand":"Lidl","brand:wikidata":"Q151954","brand:wikipedia":"en:Lidl","fhrs:id":"928300"}}, "geometry":{"type":"MultiPolygon","coordinates":[[[[-1.47154,50.93301],[-1.47186,50.93305],[-1.47183,50.9331],[-1.47146,50.93317],[-1.46976,50.9329],[-1.4708,50.93019],[-1.47252,50.93045],[-1.47233,50.93092],[-1.47232,50.93096],[-1.47231,50.93099],[-1.4723,50.93103],[-1.47228,50.93108],[-1.47226,50.93113],[-1.47224,50.93116],[-1.47223,50.9312],[-1.47221,50.93124],[-1.4722,50.93127],[-1.47219,50.93131],[-1.47218,50.93134],[-1.47216,50.93138],[-1.47215,50.93142],[-1.47213,50.93146],[-1.47208,50.93158],[-1.47207,50.93162],[-1.47206,50.93165],[-1.47204,50.93169],[-1.47203,50.93172],[-1.472,50.93179],[-1.47199,50.93182],[-1.47198,50.93186],[-1.47196,50.93189],[-1.47195,50.93194],[-1.47193,50.93197],[-1.47192,50.932],[-1.4719,50.93205],[-1.47189,50.93208],[-1.47188,50.93212],[-1.47186,50.93215],[-1.47185,50.93219],[-1.47184,50.93222],[-1.47182,50.93226],[-1.47181,50.93229],[-1.4718,50.93233],[-1.47178,50.93236],[-1.47174,50.93247],[-1.47173,50.9325],[-1.47172,50.93254],[-1.4717,50.93257],[-1.47169,50.9326],[-1.47168,50.93264],[-1.47165,50.93271],[-1.47164,50.93275],[-1.47162,50.93278],[-1.47161,50.93282],[-1.4716,50.93285],[-1.47158,50.93289],[-1.47157,50.93293],[-1.47155,50.93296],[-1.47154,50.93301]]]]}},
{ "type":"Feature","properties":{"osm_way_id":"965868479","building":"warehouse"},"geometry":{"type":"MultiPolygon","coordinates":[[[[-1.48822,50.94888],[-1.48819,50.94906],[-1.48766,50.94903],[-1.48769,50.94885],[-1.48822,50.94888]]]]}}
]
}
