{
"type": "FeatureCollection",
"features": [
{ "type":"Feature","properties":{"osm_id":"263700422","name":"Tesco","other":{"addr:housenumber":"60","addr:postcode":"G78 1LR","addr:street":"Kelburn Street","brand":"Tesco","brand:wikidata":"Q487494","brand:wikipedia":"en:Tesco","contact:website":"https:\/\/www.tesco.com\/store-locator\/glasgow\/kelburn-st","fhrs:id":"82447","shop":"supermarket","source:addr":"FHRS Open Data"}}, "geometry":{"type":"Point","coordinates":[-4.40051,55.79765 ]}},
{ "type":"Feature","properties":{"osm_id":"1389585748","name":"Asda","other":{"shop":"supermarket","brand":"Asda","fhrs:id":"5673","operator":"Asda Stores Ltd","addr:city":"Newton Mearns","addr:unit":"1","wheelchair":"yes","addr:street":"Ayr Road","addr:country":"GB","addr:postcode":"G77 6EY","addr:housename":"The Avenue","brand:wikidata":"Q297410","brand:wikipedia":"en:Asda","contact:twitter":"@asda","contact:website":"https:\/\/storelocator.asda.com\/scotland\/newton-mearns\/ayr-road","addr:housenumber":"250","contact:facebook":"https:\/\/www.facebook.com\/asda\/"}}, "geometry":{"type":"Point","coordinates":[-4.33524,55.7721 ]}},
{ "type":"Feature","properties":{"osm_id":"9423002880","name":"Scotmid","other":{"addr:housenumber":"60","addr:postcode":"G78 2LW","addr:street":"Aurs Drive","brand":"Scotmid","brand:wikidata":"Q7435719","brand:wikipedia":"en:Scotmid","fhrs:id":"82644","shop":"supermarket","source:addr:postcode":"FHRS Open Data"}}, "geometry":{"type":"Point","coordinates":[-4.38302,55.79656 ]}},
{ "type":"Feature","properties":{"osm_way_id":"24320195","name":"Lidl","building":"yes","shop":"supermarket","other":{"addr:city":"Barrhead","addr:housenumber":"98","addr:postcode":"G78 1LD","addr:street":"Kelburn Street","brand":"Lidl","brand:wikidata":"Q151954","brand:wikipedia":"en:Lidl","fhrs:id":"82510","source:addr":"FHRS Open Data"}}, "geometry":{"type":"MultiPolygon","coordinates":[[[[-4.39912,55.79875],[-4.39955,55.79893],[-4.40004,55.79855],[-4.39969,55.79841],[-4.39939,55.79865],[-4.3993,55.79861],[-4.39912,55.79875]]]]}},
{ "type":"Feature","properties":{"osm_way_id":"184619902","name":"Waitrose","building":"yes","shop":"supermarket","other":{"brand":"Waitrose","phone":"+441416163144","operator":"Waitrose & Partners","addr:city":"Newton Mearns","addr:street":"Greenlaw Place","addr:country":"GB","addr:postcode":"G77 6GW","official_name":"Waitrose & Partners","brand:wikidata":"Q771734","brand:wikipedia":"en:Waitrose & Partners","addr:housenumber":"2"}}, "geometry":{"type":"MultiPolygon","coordinates":[[[[-4.34989,55.78337],[-4.34924,55.78359],[-4.34917,55.78353],[-4.34912,55.78354],[-4.34888,55.78332],[-4.34883,55.78334],[-4.34862,55.78316],[-4.34869,55.78312],[-4.34862,55.78306],[-4.34893,55.78296],[-4.34912,55.7829],[-4.34921,55.78298],[-4.34941,55.78291],[-4.34989,55.78337]]]]}},
{ "type":"Feature","properties":{"osm_way_id":"188229045","name":"Co-op Food","building":"commercial","shop":"supermarket","other":{"addr:city":"Newton Mearns","addr:country":"GB","addr:housenumber":"188","addr:postcode":"G77 6LL","addr:street":"Harvie Avenue","fhrs:id":"909158","opening_hours":"Mo-Su 06:00-22:00; Dec 25 off"}}, "geometry":{"type":"MultiPolygon","coordinates":[[[[-4.33762,55.78145],[-4.33775,55.78149],[-4.33785,55.78153],[-4.33776,55.78161],[-4.33767,55.78158],[-4.33762,55.78162],[-4.33754,55.78169],[-4.33741,55.78165],[-4.33762,55.78145]]]]}},
{ "type":"Feature","properties":{"osm_way_id":"211695779","name":"Scotmid","building":"yes","shop":"supermarket","other":{"addr:city":"Clarkston, Glasgow","addr:housenumber":"36","addr:postcode":"G76 7EU","addr:street":"Mearns Road","brand":"Scotmid","brand:wikidata":"Q7435719","brand:wikipedia":"en:Scotmid","fhrs:id":"7487","operator":"Scotmid"}}, "geometry":{"type":"MultiPolygon","coordinates":[[[[-4.28026,55.78917],[-4.28006,55.78928],[-4.2799,55.78904],[-4.2801,55.78901],[-4.28026,55.78917]]]]}},
{ "type":"Feature","properties":{"osm_way_id":"233606379","name":"Morrisons","building":"yes","shop":"supermarket","other":{"addr:housename":"Morrisons Supermarket","addr:housenumber":"38","addr:postcode":"G46 6AA","addr:street":"Fenwick Road","brand":"Morrisons","brand:wikidata":"Q922344","brand:wikipedia":"en:Morrisons","fhrs:id":"82674","website":"https:\/\/my.morrisons.com\/storefinder\/693"}}, "geometry":{"type":"MultiPolygon","coordinates":[[[[-4.29764,55.80845],[-4.29843,55.80867],[-4.29841,55.8087],[-4.29848,55.80872],[-4.29864,55.80876],[-4.29876,55.80879],[-4.29878,55.80889],[-4.29854,55.80916],[-4.29849,55.80915],[-4.29839,55.80926],[-4.29836,55.80924],[-4.29833,55.80928],[-4.298,55.80918],[-4.29798,55.8092],[-4.29719,55.80898],[-4.29717,55.809],[-4.29696,55.80894],[-4.29735,55.80851],[-4.29742,55.80853],[-4.29745,55.80849],[-4.29756,55.80853],[-4.29764,55.80845]]]]}},
{ "type":"Feature","properties":{"osm_way_id":"297279373","name":"Asda","building":"yes","shop":"supermarket","other":{"brand":"Asda","layer":"1","fhrs:id":"717146","alt_name":"Asda Barrhead","operator":"Asda Stores Ltd","addr:city":"Barrhead","addr:street":"Church Road","addr:country":"GB","addr:postcode":"G78 1FA","brand:wikidata":"Q297410","brand:wikipedia":"en:Asda","contact:twitter":"@asda","contact:website":"https:\/\/storelocator.asda.com\/scotland\/barrhead\/4-church-road","addr:housenumber":"4","contact:facebook":"https:\/\/www.facebook.com\/asda\/"}}, "geometry":{"type":"MultiPolygon","coordinates":[[[[-4.3915,55.80141],[-4.3912,55.80117],[-4.39105,55.80105],[-4.39073,55.80117],[-4.3907,55.80115],[-4.39059,55.80112],[-4.38997,55.80134],[-4.38995,55.80135],[-4.39085,55.80205],[-4.39094,55.80201],[-4.39091,55.80199],[-4.39091,55.80196],[-4.39073,55.80181],[-4.39079,55.80178],[-4.39076,55.80175],[-4.39093,55.80168],[-4.391,55.80168],[-4.3911,55.80164],[-4.39104,55.80159],[-4.3915,55.80141]]]]}},
{ "type":"Feature","properties":{"osm_way_id":"313157629","name":"Lidl","building":"yes","shop":"supermarket","other":{"addr:housenumber":"134","addr:postcode":"G46 6XN","addr:street":"Fenwick Road","brand":"Lidl","brand:wikidata":"Q151954","brand:wikipedia":"en:Lidl","fhrs:id":"1089963","source:addr":"FHRS Open Data"}}, "geometry":{"type":"MultiPolygon","coordinates":[[[[-4.29486,55.80526],[-4.2947,55.80533],[-4.29467,55.80562],[-4.29465,55.80583],[-4.29474,55.80583],[-4.29471,55.80598],[-4.29495,55.80599],[-4.29508,55.80599],[-4.2952,55.80599],[-4.29525,55.80556],[-4.29527,55.80535],[-4.29496,55.80531],[-4.29498,55.80528],[-4.29486,55.80526]]]]}},
{ "type":"Feature","properties":{"osm_way_id":"573626313","name":"Aldi","building":"yes","shop":"supermarket","other":{"addr:housenumber":"4","addr:postcode":"G77 6EF","addr:street":"Greenlaw Way","brand":"ALDI","brand:wikidata":"Q41171672","brand:wikipedia":"en:Aldi","fhrs:id":"937472","operator":"Aldi","source:addr":"FHRS Open Data"}}, "geometry":{"type":"MultiPolygon","coordinates":[[[[-4.34568,55.78453],[-4.34536,55.78453],[-4.34536,55.78458],[-4.34513,55.78458],[-4.34511,55.78401],[-4.34511,55.784],[-4.3457,55.78399],[-4.34571,55.78421],[-4.34566,55.78421],[-4.34568,55.78453]]]]}}
]
}
