{
"type": "FeatureCollection",
"features": [
{ "type":"Feature","properties":{"osm_id":"278546455","name":"Costcutter","other":{"atm":"yes","shop":"supermarket","amenity":"post_office"}}, "geometry":{"type":"Point","coordinates":[-1.25872,53.88637 ]}},
{ "type":"Feature","properties":{"osm_id":"566357888","name":"Nisa","other":{"shop":"supermarket"}}, "geometry":{"type":"Point","coordinates":[-1.05817,53.8326 ]}},
{ "type":"Feature","properties":{"osm_way_id":"46511754","name":"Morrisons","building":"supermarket","shop":"supermarket","other":{"addr:city":"Selby","addr:postcode":"YO8 4JS","addr:street":"Market Cross Shopping Centre","brand":"Morrisons","brand:wikidata":"Q922344","brand:wikipedia":"en:Morrisons","fhrs:id":"430328","operator":"Morrisons","source:postcode":"fhrs data"}}, "geometry":{"type":"MultiPolygon","coordinates":[[[[-1.06877,53.78281],[-1.0689,53.78228],[-1.06892,53.78228],[-1.06894,53.78219],[-1.06849,53.78214],[-1.06849,53.78216],[-1.06814,53.78213],[-1.06811,53.78212],[-1.0681,53.78217],[-1.06801,53.78217],[-1.06788,53.78274],[-1.06877,53.78281]]]]}},
{ "type":"Feature","properties":{"osm_way_id":"47467011","name":"Sainsbury's","building":"supermarket","shop":"supermarket","other":{"brand":"Sainsbury's","operator":"Sainsbury's","addr:city":"Selby","addr:street":"Abbey Walk","addr:postcode":"YO8 4DZ","brand:wikidata":"Q152096","brand:wikipedia":"en:Sainsbury's","addr:housenumber":"18"}}, "geometry":{"type":"MultiPolygon","coordinates":[[[[-1.07132,53.78457],[-1.07134,53.7846],[-1.0707,53.78473],[-1.07084,53.78502],[-1.07081,53.78507],[-1.0709,53.7852],[-1.07113,53.78516],[-1.07111,53.78511],[-1.07131,53.78507],[-1.07155,53.78496],[-1.07162,53.78493],[-1.07166,53.7849],[-1.07155,53.78473],[-1.07162,53.78472],[-1.0715,53.78453],[-1.07132,53.78457]]]]}},
{ "type":"Feature","properties":{"osm_way_id":"61045010","name":"Sainsbury's","building":"yes","shop":"supermarket","other":{"addr:city":"Tadcaster","addr:postcode":"LS24 8EU","addr:street":"Mill Lane","atm":"yes","branch_name":"Tadcaster Superstore","brand":"Sainsbury's","brand:wikidata":"Q152096","brand:wikipedia":"en:Sainsbury's","old_name":"Morrisons","wheelchair":"yes"}}, "geometry":{"type":"MultiPolygon","coordinates":[[[[-1.26083,53.88633],[-1.2604,53.88663],[-1.26007,53.88646],[-1.26019,53.88637],[-1.26015,53.88635],[-1.26043,53.88616],[-1.26046,53.88614],[-1.26083,53.88633]]]]}},
{ "type":"Feature","properties":{"osm_way_id":"154860664","name":"Co-op Food","building":"yes","shop":"supermarket","other":{"brand":"Co-op Food","brand:wikidata":"Q3277439","brand:wikipedia":"en:Co-op Food"}}, "geometry":{"type":"MultiPolygon","coordinates":[[[[-1.07817,53.78582],[-1.07833,53.7858],[-1.07852,53.78577],[-1.07856,53.78591],[-1.07847,53.78592],[-1.07848,53.78595],[-1.07822,53.78598],[-1.07817,53.78582]]]]}},
{ "type":"Feature","properties":{"osm_way_id":"229833554","name":"Tesco","building":"supermarket","shop":"supermarket","other":{"brand":"Tesco","operator":"Tesco","addr:city":"Selby","addr:street":"Portholme Road","addr:postcode":"YO8 4QQ","brand:wikidata":"Q487494","brand:wikipedia":"en:Tesco"}}, "geometry":{"type":"MultiPolygon","coordinates":[[[[-1.07067,53.78006],[-1.07075,53.77989],[-1.07089,53.77993],[-1.07098,53.7798],[-1.0711,53.77983],[-1.07127,53.77959],[-1.07158,53.77967],[-1.07177,53.77985],[-1.07151,53.78026],[-1.07066,53.78008],[-1.07067,53.78006]]]]}},
{ "type":"Feature","properties":{"osm_way_id":"294310239","name":"Aldi","building":"yes","shop":"supermarket","other":{"addr:city":"Selby","addr:parentstreet":"Bawtry Road","addr:place":"Three Lakes Retail Park","addr:postcode":"YO8 8LY","brand":"ALDI","brand:wikidata":"Q41171672","brand:wikipedia":"en:Aldi","fhrs:id":"638182","not:addr:postcode":"YO8 8NB","operator":"Aldi","source:addr":"FHRS Open Data","source:addr:postcode":"code-point_open"}}, "geometry":{"type":"MultiPolygon","coordinates":[[[[-1.06471,53.77175],[-1.06483,53.77203],[-1.06493,53.77223],[-1.06448,53.77231],[-1.06424,53.77178],[-1.06447,53.77174],[-1.06449,53.77178],[-1.06471,53.77175]]]]}},
{ "type":"Feature","properties":{"osm_way_id":"319289202","name":"Co-op Food","building":"supermarket","shop":"supermarket","other":{"addr:city":"Sherburn in Elmet","addr:housenumber":"22-30","addr:postcode":"LS25 6EA","addr:street":"Finkle Hill","brand":"Co-op Food","brand:wikidata":"Q3277439","brand:wikipedia":"en:Co-op Food","fhrs:id":"298744","opening_hours":"Mo-Sa 07:00-22:00; Su 10:00-16:00","operator":"The Co-operative Group"}}, "geometry":{"type":"MultiPolygon","coordinates":[[[[-1.25186,53.79842],[-1.25194,53.79865],[-1.25128,53.79874],[-1.25124,53.79864],[-1.25117,53.79865],[-1.25112,53.79851],[-1.25186,53.79842]]]]}},
{ "type":"Feature","properties":{"osm_way_id":"549821222","name":"Spar","building":"yes","shop":"supermarket","other":{"addr:city":"Sherburn in Elmet","addr:housenumber":"9","addr:postcode":"LS25 6BG","addr:street":"Low Street","brand":"Spar","brand:wikidata":"Q610492","brand:wikipedia":"en:Spar (retailer)","fhrs:id":"504359","opening_hours":"Mo-Su 06:00-23:00"}}, "geometry":{"type":"MultiPolygon","coordinates":[[[[-1.2515,53.79711],[-1.25145,53.79698],[-1.2513,53.797],[-1.25117,53.79702],[-1.25104,53.79704],[-1.2511,53.79717],[-1.2515,53.79711]]]]}},
{ "type":"Feature","properties":{"osm_way_id":"589333037","name":"Aldi","building":"yes","shop":"supermarket","other":{"brand":"ALDI","brand:wikidata":"Q41171672","brand:wikipedia":"en:Aldi"}}, "geometry":{"type":"MultiPolygon","coordinates":[[[[-1.24976,53.79417],[-1.25063,53.79414],[-1.25066,53.79446],[-1.25037,53.79447],[-1.25036,53.79444],[-1.24988,53.79446],[-1.24986,53.79426],[-1.24977,53.79427],[-1.24976,53.79417]]]]}},
{ "type":"Feature","properties":{"osm_way_id":"853284143","name":"Lidl","building":"yes","shop":"supermarket","other":{"addr:city":"Selby","addr:postcode":"YO8 8SQ","addr:street":"Bawtry Road","brand":"Lidl","brand:wikidata":"Q151954","brand:wikipedia":"en:Lidl","fhrs:id":"1339178","source:addr":"FHRS Open Data"}}, "geometry":{"type":"MultiPolygon","coordinates":[[[[-1.06245,53.76751],[-1.06248,53.76734],[-1.06168,53.76729],[-1.06165,53.76746],[-1.06245,53.76751]]]]}}
]
}
