{
"type": "FeatureCollection",
"features": [
{ "type":"Feature","properties":{"osm_id":"2757354448","name":"Spar","other":{"addr:city":"Taunton","addr:country":"GB","addr:county":"Somerset","addr:housenumber":"2","addr:postcode":"TA4 4PX","addr:street":"Fore Street","addr:village":"Williton","brand":"Spar","brand:wikidata":"Q610492","brand:wikipedia":"en:SPAR (retailer)","fhrs:id":"161669","shop":"supermarket"}}, "geometry":{"type":"Point","coordinates":[-3.32076,51.16042 ]}},
{ "type":"Feature","properties":{"osm_id":"4500159997","name":"The Co-operative Food","other":{"addr:city":"Dulverton","addr:country":"GB","addr:housenumber":"19","addr:postcode":"TA22 9EX","addr:street":"Fore Street","atm":"yes","fhrs:authority":"West Somerset","fhrs:id":"161328","fhrs:local_authority_id":"PI\/000001314","opening_hours":"Mo-Su 06:00-23:00","shop":"supermarket"}}, "geometry":{"type":"Point","coordinates":[-3.55071,51.04031 ]}},
{ "type":"Feature","properties":{"osm_id":"4956930611","ref":"TA4 32","other":{"amenity":"post_box","brand":"Royal Mail","brand:wikidata":"Q638098","brand:wikipedia":"en:Royal Mail","collection_times":"Mo-Fr 15:15; Sa 09:00","operator":"Royal Mail","operator:wikidata":"Q638098","operator:wikipedia":"en:Royal Mail","post_box:type":"wall","royal_cypher":"EIIR"}}, "geometry":{"type":"Point","coordinates":[-3.1883,51.06051 ]}},
{ "type":"Feature","properties":{"osm_id":"8491624775","name":"Ruay Thai Supermarket","other":{"addr:city":"Taunton","addr:country":"GB","addr:county":"Somerset","addr:housenumber":"122","addr:postcode":"TA1 3HL","addr:street":"East Reach","fhrs:id":"1046030","opening_hours:covid19":"Tu-Sa 13:00-16:00","phone":"+44 1823 333345","shop":"supermarket","website":"https:\/\/ruay-thai-supermarket.business.site\/"}}, "geometry":{"type":"Point","coordinates":[-3.09371,51.01525 ]}},
{ "type":"Feature","properties":{"osm_way_id":"26937406","name":"Tesco","building":"yes","shop":"supermarket","other":{"addr:city":"Minehead","addr:country":"GB","addr:postcode":"TA24 5BY","addr:street":"Seaward Way","brand":"Tesco","brand:wikidata":"Q487494","brand:wikipedia":"en:Tesco","fhrs:authority":"West Somerset","fhrs:id":"160850","fhrs:local_authority_id":"PI\/000000694"}}, "geometry":{"type":"MultiPolygon","coordinates":[[[[-3.46459,51.20165],[-3.46449,51.20163],[-3.46448,51.20164],[-3.46404,51.20154],[-3.46403,51.20156],[-3.46394,51.20154],[-3.46392,51.20157],[-3.46384,51.20155],[-3.46377,51.20154],[-3.46375,51.20158],[-3.46346,51.20152],[-3.46367,51.20112],[-3.46375,51.20114],[-3.46378,51.20108],[-3.46387,51.20109],[-3.46392,51.201],[-3.46438,51.20109],[-3.46433,51.20119],[-3.46468,51.20126],[-3.46465,51.20132],[-3.46473,51.20134],[-3.46462,51.20155],[-3.46464,51.20156],[-3.46459,51.20165]]]]}},
{ "type":"Feature","properties":{"osm_way_id":"59576371","name":"Supermarket Lakeside","building":"retail","shop":"supermarket","other":{"addr:city":"Minehead","addr:country":"GB","addr:place":"Butlins Somerwest World","addr:postcode":"TA24 5SH","addr:street":"Warren Road","fhrs:authority":"West Somerset","fhrs:id":"160788","fhrs:local_authority_id":"PI\/000000624"}}, "geometry":{"type":"MultiPolygon","coordinates":[[[[-3.45309,51.20301],[-3.45293,51.20317],[-3.45282,51.20312],[-3.45277,51.20317],[-3.45264,51.20311],[-3.45276,51.203],[-3.45265,51.20296],[-3.45271,51.2029],[-3.45282,51.20294],[-3.45286,51.20291],[-3.45309,51.20301]]]]}},
{ "type":"Feature","properties":{"osm_way_id":"93008027","name":"Tesco","building":"yes","shop":"supermarket","other":{"addr:city":"Taunton","addr:postcode":"TA1 4AB","addr:street":"Castle Street","alt_name":"Tesco Taunton Superstore","brand":"Tesco","brand:wikidata":"Q487494","brand:wikipedia":"en:Tesco","fhrs:id":"54438","operator":"Tesco","source:addr":"FHRS Open Data","wheelchair":"yes"}}, "geometry":{"type":"MultiPolygon","coordinates":[[[[-3.11165,51.01573],[-3.11209,51.01554],[-3.11212,51.01557],[-3.11224,51.01552],[-3.11157,51.01488],[-3.11101,51.01511],[-3.11103,51.01513],[-3.1109,51.01519],[-3.11103,51.01532],[-3.11102,51.01532],[-3.11101,51.01532],[-3.11101,51.01533],[-3.11102,51.01533],[-3.11099,51.01532],[-3.11094,51.01541],[-3.11095,51.01541],[-3.11093,51.01544],[-3.11096,51.01545],[-3.11094,51.01549],[-3.11101,51.01551],[-3.11098,51.01557],[-3.11119,51.01562],[-3.11165,51.01573]]]]}},
{ "type":"Feature","properties":{"osm_way_id":"118613182","name":"Sainsbury's","building":"retail","shop":"supermarket","other":{"addr:city":"Taunton","addr:country":"GB","addr:county":"Somerset","addr:parentstreet":"Hankridge Way","addr:postcode":"TA1 2LR","addr:street":"Hankridge Farm","alt_name":"Sainsbury's Hankridge Farm Superstore","brand":"Sainsbury's","brand:wikidata":"Q152096","brand:wikipedia":"en:Sainsbury's","fhrs:id":"107052","opening_hours":"Mo-Sa 07:00-22:00, Su 10:00-16:00","operator":"Sainsbury's","wheelchair":"yes"}}, "geometry":{"type":"MultiPolygon","coordinates":[[[[-3.06099,51.02121],[-3.06116,51.02128],[-3.06119,51.02126],[-3.06131,51.02131],[-3.06134,51.02129],[-3.06169,51.02143],[-3.06165,51.02147],[-3.06169,51.02149],[-3.06174,51.02144],[-3.06179,51.02147],[-3.06186,51.02149],[-3.06185,51.0215],[-3.06187,51.02151],[-3.06182,51.02155],[-3.06197,51.02162],[-3.0615,51.02206],[-3.06127,51.02228],[-3.06113,51.02222],[-3.06104,51.0223],[-3.06056,51.02209],[-3.06047,51.02218],[-3.06012,51.02203],[-3.06099,51.02121]]]]}},
{ "type":"Feature","properties":{"osm_way_id":"120023707","name":"Asda","building":"retail","shop":"supermarket","other":{"addr:city":"Taunton","addr:country":"GB","addr:county":"Somerset","addr:postcode":"TA1 2AN","addr:street":"Creechbarrow Road","alt_name":"ASDA Taunton Supercentre","brand":"Asda","brand:wikidata":"Q297410","brand:wikipedia":"en:Asda","contact:facebook":"https:\/\/www.facebook.com\/asda\/","contact:twitter":"@asda","contact:website":"https:\/\/storelocator.asda.com\/south-west\/taunton\/creechbarrow-road","fhrs:id":"108686","opening_hours":"Mo 07:00-24:00, Tu-Fr 00:00-24:00; Sa 00:00-21:00; Su 10:00-16:00","operator":"Asda Stores Ltd","wheelchair":"yes"}}, "geometry":{"type":"MultiPolygon","coordinates":[[[[-3.08399,51.02248],[-3.08407,51.02246],[-3.08399,51.02232],[-3.08382,51.02236],[-3.0839,51.02249],[-3.08348,51.02259],[-3.08228,51.02288],[-3.08266,51.02351],[-3.08281,51.02348],[-3.08288,51.02359],[-3.08319,51.02352],[-3.08325,51.02361],[-3.08351,51.02355],[-3.08344,51.02343],[-3.08418,51.02326],[-3.08415,51.02321],[-3.08432,51.02317],[-3.08423,51.02302],[-3.08433,51.02299],[-3.08423,51.02281],[-3.08427,51.0228],[-3.08416,51.02263],[-3.08409,51.02265],[-3.08399,51.02248]]]]}},
{ "type":"Feature","properties":{"osm_way_id":"120468325","name":"Sainsbury's","building":"yes","shop":"supermarket","other":{"addr:city":"Taunton","addr:country":"GB","addr:county":"Somerset","addr:postcode":"TA1 3NE","addr:street":"Billet Street","alt_name":"Sainsbury's Taunton Superstore","brand":"Sainsbury's","brand:wikidata":"Q152096","brand:wikipedia":"en:Sainsbury's","delivery":"yes","fhrs:id":"97829","opening_hours":"Mo-We 07:00-20:00, Th-Sa 07:00-21:00; Su 10:30-16:30","operator":"Sainsbury's","source:addr":"FHRS Open Data","website":"https:\/\/stores.sainsburys.co.uk\/0655\/taunton","wheelchair":"yes"}}, "geometry":{"type":"MultiPolygon","coordinates":[[[[-3.0989,51.01418],[-3.09899,51.01416],[-3.09922,51.01409],[-3.09935,51.01406],[-3.09929,51.01398],[-3.09928,51.01399],[-3.09926,51.01396],[-3.09959,51.01386],[-3.09908,51.01338],[-3.09845,51.01357],[-3.0989,51.01418]]]]}},
{ "type":"Feature","properties":{"osm_way_id":"120580953","name":"Morrisons","building":"retail","shop":"supermarket","other":{"addr:city":"Taunton","addr:country":"GB","addr:county":"Somerset","addr:parentstreet":"Priory Bridge Road","addr:postcode":"TA1 1DX","addr:street":"Deller's Wharf","alt_name":"Morrisons Taunton","brand":"Morrisons","brand:wikidata":"Q922344","brand:wikipedia":"en:Morrisons","fhrs:id":"100602","opening_hours":"Mo-Sa 07:00-22:00; Su 10:00-16:00","wheelchair":"yes"}}, "geometry":{"type":"MultiPolygon","coordinates":[[[[-3.10442,51.0191],[-3.10439,51.0189],[-3.10446,51.01889],[-3.10445,51.01877],[-3.10436,51.01877],[-3.10435,51.0187],[-3.10381,51.01873],[-3.10381,51.01869],[-3.10355,51.01871],[-3.1035,51.0187],[-3.10347,51.0187],[-3.10343,51.0187],[-3.1034,51.01871],[-3.10338,51.01873],[-3.10336,51.01875],[-3.10335,51.01878],[-3.10336,51.01879],[-3.10338,51.01882],[-3.10339,51.01886],[-3.10335,51.01888],[-3.10338,51.01912],[-3.10335,51.01912],[-3.10333,51.01912],[-3.10335,51.01937],[-3.10336,51.0194],[-3.10343,51.01943],[-3.10383,51.01941],[-3.10382,51.01936],[-3.10418,51.01934],[-3.10458,51.01932],[-3.10458,51.01933],[-3.1047,51.01933],[-3.1047,51.01931],[-3.10468,51.01909],[-3.10442,51.0191]]]]}},
{ "type":"Feature","properties":{"osm_way_id":"140590771","name":"Co-op","building":"yes","shop":"supermarket","other":{"addr:city":"Taunton","addr:country":"GB","addr:housenumber":"169","addr:postcode":"TA2 7AH","addr:street":"Cheddon Road"}}, "geometry":{"type":"MultiPolygon","coordinates":[[[[-3.10136,51.02967],[-3.10123,51.02981],[-3.10148,51.0299],[-3.10155,51.02992],[-3.10152,51.02997],[-3.1015,51.03002],[-3.10158,51.03004],[-3.10165,51.02996],[-3.10168,51.02997],[-3.1018,51.02983],[-3.10136,51.02967]]]]}},
{ "type":"Feature","properties":{"osm_way_id":"148717701","name":"Asda","building":"yes","shop":"supermarket","other":{"addr:city":"Wellington","addr:country":"GB","addr:county":"Somerset","addr:postcode":"TA21 8RQ","addr:street":"Longforth Road","alt_name":"Asda Wellington","brand":"Asda","brand:wikidata":"Q297410","brand:wikipedia":"en:Asda","contact:facebook":"https:\/\/www.facebook.com\/asda\/","contact:twitter":"@asda","contact:website":"https:\/\/storelocator.asda.com\/south-west\/wellington\/longforth-road","opening_hours":"Mo-Sa 07:00-23:00, Su 10:00-16:00","operator":"Asda Stores Ltd"}}, "geometry":{"type":"MultiPolygon","coordinates":[[[[-3.22797,50.98011],[-3.22769,50.9803],[-3.22767,50.9803],[-3.22756,50.98037],[-3.22752,50.98038],[-3.22737,50.98029],[-3.22734,50.98031],[-3.22707,50.98016],[-3.22709,50.98015],[-3.22724,50.98004],[-3.22726,50.98005],[-3.22754,50.97986],[-3.22797,50.98011]]]]}},
{ "type":"Feature","properties":{"osm_way_id":"148717706","name":"Waitrose","building":"yes","shop":"supermarket","other":{"addr:city":"Wellington","addr:country":"GB","addr:county":"Somerset","addr:housenumber":"40","addr:postcode":"TA21 8RD","addr:street":"High Street","alt_name":"Waitrose Wellington","brand":"Waitrose","brand:wikidata":"Q771734","brand:wikipedia":"en:Waitrose & Partners","fhrs:id":"56516","official_name":"Waitrose & Partners","operator":"Waitrose & Partners","source:addr":"FHRS Open Data"}}, "geometry":{"type":"MultiPolygon","coordinates":[[[[-3.22497,50.97876],[-3.22484,50.97885],[-3.22478,50.97882],[-3.22467,50.97891],[-3.22459,50.97887],[-3.22432,50.97906],[-3.22478,50.97931],[-3.22496,50.97918],[-3.225,50.97921],[-3.22527,50.97901],[-3.22531,50.97903],[-3.22539,50.97897],[-3.2253,50.97892],[-3.22528,50.97893],[-3.22527,50.97892],[-3.22497,50.97876]]]]}},
{ "type":"Feature","properties":{"osm_way_id":"150036660","name":"Morrisons","building":"yes","shop":"supermarket","other":{"addr:city":"Minehead","addr:country":"GB","addr:postcode":"TA24 6DG","addr:street":"Vulcan Road","brand":"Morrisons","brand:wikidata":"Q922344","brand:wikipedia":"en:Morrisons","fhrs:authority":"West Somerset","fhrs:id":"165699","fhrs:local_authority_id":"PI\/000008380"}}, "geometry":{"type":"MultiPolygon","coordinates":[[[[-3.46562,51.20405],[-3.46552,51.20416],[-3.46537,51.20434],[-3.46531,51.20442],[-3.46535,51.20443],[-3.46527,51.20451],[-3.46514,51.20447],[-3.46518,51.20443],[-3.46509,51.2044],[-3.46464,51.20425],[-3.46461,51.20424],[-3.46441,51.20418],[-3.46445,51.20413],[-3.46427,51.20408],[-3.46452,51.20378],[-3.4646,51.20381],[-3.46466,51.20373],[-3.46562,51.20405]]]]}},
{ "type":"Feature","properties":{"osm_way_id":"160820459","name":"Sainsbury's","building":"yes","shop":"supermarket","other":{"brand":"Sainsbury's","brand:wikidata":"Q152096","brand:wikipedia":"en:Sainsbury's"}}, "geometry":{"type":"MultiPolygon","coordinates":[[[[-2.2084,52.52691],[-2.2073,52.52672],[-2.20754,52.5262],[-2.2084,52.52635],[-2.20822,52.52674],[-2.20846,52.52678],[-2.2084,52.52691]]]]}},
{ "type":"Feature","properties":{"osm_way_id":"236880803","name":"The Original Factory Shop","shop":"supermarket","other":{"brand:wikidata":"Q7755366","source:name":"survey","source:shop":"survey"}}, "geometry":{"type":"MultiPolygon","coordinates":[[[[-3.46798,51.20457],[-3.46919,51.2045],[-3.4692,51.20455],[-3.46921,51.20458],[-3.46908,51.20482],[-3.46889,51.20479],[-3.4686,51.20474],[-3.46841,51.20516],[-3.46813,51.20517],[-3.46809,51.20517],[-3.46805,51.20517],[-3.46802,51.20515],[-3.468,51.20514],[-3.468,51.20512],[-3.468,51.20511],[-3.46812,51.20482],[-3.46806,51.2047],[-3.46799,51.20459],[-3.46798,51.20457]]]]}},
{ "type":"Feature","properties":{"osm_way_id":"269610674","name":"Co-op Food","building":"retail","shop":"supermarket","other":{"addr:city":"Taunton","addr:country":"GB","addr:housenumber":"33","addr:postcode":"TA1 5LU","addr:street":"Wellington New Road","brand":"Co-op Food","brand:wikidata":"Q3277439","brand:wikipedia":"en:Co-op Food","fhrs:id":"594346","operator":"The Co-operative Group","operator:wikidata":"Q117202","operator:wikipedia":"en:The Co-operative Group"}}, "geometry":{"type":"MultiPolygon","coordinates":[[[[-3.12865,51.01218],[-3.12893,51.01211],[-3.12882,51.01195],[-3.12854,51.01203],[-3.12865,51.01218]]]]}},
{ "type":"Feature","properties":{"osm_way_id":"379339643","name":"Lidl","building":"yes","shop":"supermarket","other":{"addr:city":"Taunton","addr:country":"GB","addr:county":"Somerset","addr:postcode":"TA1 4BG","addr:street":"Castle Street","brand":"Lidl","brand:wikidata":"Q151954","brand:wikipedia":"en:Lidl","fhrs:id":"846902"}}, "geometry":{"type":"MultiPolygon","coordinates":[[[[-3.11124,51.01468],[-3.11102,51.01444],[-3.11086,51.01449],[-3.11081,51.01444],[-3.11067,51.01449],[-3.1107,51.01453],[-3.11032,51.01467],[-3.11035,51.0147],[-3.1105,51.01487],[-3.11044,51.01489],[-3.11053,51.01499],[-3.11113,51.01478],[-3.11109,51.01474],[-3.11124,51.01468]]]]}},
{ "type":"Feature","properties":{"osm_way_id":"397072788","name":"Piccadilly Filling Station","amenity":"fuel","building":"retail","shop":"supermarket","other":{"addr:city":"Wellington","addr:country":"GB","addr:county":"Somerset","addr:postcode":"TA21 9HY","addr:street":"Wellington Road","brand":"Londis","building:levels":"1","fhrs:id":"88772","opening_hours":"24\/7","smoking":"no"}}, "geometry":{"type":"MultiPolygon","coordinates":[[[[-3.19596,50.98526],[-3.19596,50.98527],[-3.19572,50.98537],[-3.19565,50.98535],[-3.19578,50.9853],[-3.19571,50.98523],[-3.19587,50.98517],[-3.19596,50.98526]]]]}},
{ "type":"Feature","properties":{"osm_way_id":"522391494","name":"Aldi","building":"retail","shop":"supermarket","other":{"addr:city":"Taunton","addr:country":"GB","addr:county":"Somerset","addr:hamlet":"Bathpool","addr:postcode":"TA2 8BA","addr:street":"Bridgwater Road","brand":"ALDI","brand:wikidata":"Q41171672","brand:wikipedia":"en:Aldi","building:levels":"1","fhrs:id":"1046029","operator":"Aldi Stores Ltd."}}, "geometry":{"type":"MultiPolygon","coordinates":[[[[-3.06864,51.02644],[-3.0685,51.02669],[-3.0684,51.02685],[-3.06845,51.02686],[-3.06842,51.02692],[-3.06807,51.02683],[-3.06805,51.02686],[-3.06794,51.02684],[-3.0682,51.02639],[-3.06825,51.02632],[-3.06826,51.02629],[-3.06839,51.02632],[-3.06837,51.02636],[-3.06836,51.02638],[-3.06864,51.02644]]]]}},
{ "type":"Feature","properties":{"osm_way_id":"573229902","name":"Southern Co-Op","building":"retail","shop":"supermarket","other":{"addr:city":"Taunton","addr:country":"GB","addr:county":"Somerset","addr:housename":"Southern Co-Op","addr:postcode":"TA4 3AT","addr:street":"Church Street","addr:village":"Bishops Lydeard","atm":"indoor","building:levels":"2","opening_hours":"07:00-22:00","operator":"Co-Operative Retail Services Ltd."}}, "geometry":{"type":"MultiPolygon","coordinates":[[[[-3.18844,51.06045],[-3.18834,51.06043],[-3.18834,51.06043],[-3.1883,51.06051],[-3.18828,51.06055],[-3.18838,51.06058],[-3.18861,51.06063],[-3.1887,51.06052],[-3.18864,51.0605],[-3.18844,51.06046],[-3.18844,51.06045]]]]}},
{ "type":"Feature","properties":{"osm_way_id":"662930174","name":"Lidl","building":"yes","shop":"supermarket","other":{"addr:city":"Minehead","addr:country":"GB","addr:postcode":"TA24 5BF","addr:street":"Seaward Way","brand":"Lidl","brand:wikidata":"Q151954","brand:wikipedia":"en:Lidl","building:levels":"2","fhrs:authority":"West Somerset","fhrs:id":"925586","fhrs:local_authority_id":"PI\/000010200","roof:shape":"gabled"}}, "geometry":{"type":"MultiPolygon","coordinates":[[[[-3.46416,51.2031],[-3.46411,51.20238],[-3.46459,51.20253],[-3.46416,51.2031]]]]}},
{ "type":"Feature","properties":{"osm_way_id":"1024908956","name":"Lidl","building":"yes","shop":"supermarket","other":{"addr:city":"Taunton","addr:country":"GB","addr:county":"Somerset","addr:postcode":"TA1 2BD","addr:street":"Roman Road","brand":"Lidl","brand:wikidata":"Q151954","brand:wikipedia":"en:Lidl","fhrs:id":"101985","opening_hours":"Mo-Sa 07:00-22:00; Su 10:00-16:00","operator":"Lidl Great Britain Ltd"}}, "geometry":{"type":"MultiPolygon","coordinates":[[[[-3.08328,51.01914],[-3.08328,51.01892],[-3.08266,51.01893],[-3.08266,51.01897],[-3.08234,51.01897],[-3.08235,51.01905],[-3.08228,51.01905],[-3.08228,51.01914],[-3.08328,51.01914]]]]}}
]
}
