{
"type": "FeatureCollection",
"features": [
{ "type":"Feature","properties":{"osm_way_id":"122074200","building":"warehouse","other":{"addr:city":"Taunton","addr:country":"GB","addr:county":"Somerset","addr:place":"Crown Industrial Estate","addr:postcode":"TA2 8RX","addr:street":"Crown Close","addr:unit":"10"}}, "geometry":{"type":"MultiPolygon","coordinates":[[[[-3.07949,51.02795],[-3.07964,51.02794],[-3.0796,51.02776],[-3.07945,51.02778],[-3.07949,51.02795]]]]}},
{ "type":"Feature","properties":{"osm_way_id":"122074205","name":"X P O Logistics","building":"warehouse","other":{"addr:city":"Taunton","addr:place":"Crown Industrial Estate","addr:postcode":"TA2 8RX","addr:street":"Crown Close","addr:unit":"N"}}, "geometry":{"type":"MultiPolygon","coordinates":[[[[-3.08066,51.02656],[-3.08059,51.02631],[-3.07981,51.02638],[-3.07988,51.02663],[-3.08066,51.02656]]]]}},
{ "type":"Feature","properties":{"osm_way_id":"122306880","building":"warehouse"},"geometry":{"type":"MultiPolygon","coordinates":[[[[-3.131,51.00905],[-3.13074,51.00909],[-3.13084,51.00936],[-3.13126,51.0093],[-3.13121,51.00916],[-3.13105,51.00918],[-3.131,51.00905]]]]}},
{ "type":"Feature","properties":{"osm_way_id":"163785135","building":"warehouse","other":{"addr:city":"Taunton","addr:country":"GB","addr:county":"Somerset","addr:housenumber":"61","addr:postcode":"TA1 3EZ","addr:street":"East Reach"}}, "geometry":{"type":"MultiPolygon","coordinates":[[[[-3.08963,51.0164],[-3.08932,51.01649],[-3.08936,51.01658],[-3.0894,51.01667],[-3.08946,51.01681],[-3.08949,51.01685],[-3.08951,51.01687],[-3.08956,51.01686],[-3.08954,51.01683],[-3.08955,51.01682],[-3.08975,51.01708],[-3.08967,51.0171],[-3.0897,51.01715],[-3.08974,51.01719],[-3.08978,51.01725],[-3.08979,51.01726],[-3.08998,51.0172],[-3.08985,51.01705],[-3.08993,51.01702],[-3.08973,51.01677],[-3.0896,51.0165],[-3.08968,51.01647],[-3.08963,51.0164]]]]}},
{ "type":"Feature","properties":{"osm_way_id":"200903988","name":"Logistics Centre & Stores","building":"warehouse","other":{"building:levels":"1","operator":"Ministry of Defence","roof:shape":"gabled"}}, "geometry":{"type":"MultiPolygon","coordinates":[[[[-3.15483,51.03666],[-3.15474,51.03654],[-3.15417,51.03672],[-3.15404,51.03682],[-3.15391,51.03708],[-3.15392,51.0372],[-3.15429,51.03767],[-3.15449,51.0376],[-3.15412,51.03714],[-3.15412,51.03712],[-3.15425,51.03686],[-3.15427,51.03684],[-3.15483,51.03666]]]]}},
{ "type":"Feature","properties":{"osm_way_id":"200904024","building":"warehouse","other":{"building:levels":"1","roof:material":"eternit","roof:shape":"gabled_row"}}, "geometry":{"type":"MultiPolygon","coordinates":[[[[-3.15522,51.03726],[-3.15497,51.03721],[-3.15478,51.03759],[-3.15489,51.03761],[-3.15488,51.03764],[-3.15489,51.03764],[-3.15488,51.03766],[-3.15492,51.03767],[-3.15493,51.03765],[-3.15501,51.03766],[-3.15505,51.03759],[-3.15515,51.03739],[-3.15518,51.03734],[-3.15522,51.03726]]]]}},
{ "type":"Feature","properties":{"osm_way_id":"200904027","building":"warehouse","other":{"building:levels":"1","roof:material":"eternit","roof:shape":"gabled_row"}}, "geometry":{"type":"MultiPolygon","coordinates":[[[[-3.15493,51.03777],[-3.15494,51.03775],[-3.1549,51.03775],[-3.15489,51.03776],[-3.15471,51.03772],[-3.15451,51.0381],[-3.15462,51.03813],[-3.15462,51.03814],[-3.15461,51.03816],[-3.15469,51.03818],[-3.15474,51.03819],[-3.1548,51.03806],[-3.15488,51.0379],[-3.15492,51.03783],[-3.15495,51.03777],[-3.15493,51.03777]]]]}},
{ "type":"Feature","properties":{"osm_way_id":"245417415","building":"warehouse"},"geometry":{"type":"MultiPolygon","coordinates":[[[[-3.09751,51.02362],[-3.09696,51.02362],[-3.09696,51.02359],[-3.09693,51.02359],[-3.09693,51.02354],[-3.09746,51.02355],[-3.09746,51.02356],[-3.09749,51.02356],[-3.09749,51.02357],[-3.09751,51.02357],[-3.09751,51.02362]]]]}},
{ "type":"Feature","properties":{"osm_way_id":"245417418","name":"Network Rail","building":"warehouse","other":{"addr:city":"Taunton","addr:country":"GB","addr:county":"Somerset","addr:postcode":"TA1 1QP","addr:street":"Station Approach North"}}, "geometry":{"type":"MultiPolygon","coordinates":[[[[-3.09803,51.02361],[-3.09803,51.02336],[-3.09785,51.02336],[-3.09785,51.02361],[-3.09803,51.02361]]]]}},
{ "type":"Feature","properties":{"osm_way_id":"245417419","name":"Old Engineers Workshop","building":"warehouse","other":{"addr:city":"Taunton","addr:country":"GB","addr:county":"Somerset","addr:housename":"Old Engineers Workshop","addr:postcode":"TA1 1QP","addr:street":"Station Approach North","building:levels":"1"}}, "geometry":{"type":"MultiPolygon","coordinates":[[[[-3.09908,51.02362],[-3.09832,51.02344],[-3.0984,51.0233],[-3.09886,51.02341],[-3.09884,51.02343],[-3.09915,51.02351],[-3.09908,51.02362]]]]}},
{ "type":"Feature","properties":{"osm_way_id":"297950219","name":"Transport Body Materials Ltd.","building":"warehouse","other":{"addr:city":"Taunton","addr:country":"GB","addr:county":"Somerset","addr:hamlet":"Pen Elm","addr:place":"Meadow Court","addr:postcode":"TA2 6PD","addr:street":"Pen Elm Hill","addr:unit":"3","building:levels":"1","fax":"+44 1823 353994","phone":"+44 1823 323916","roof:material":"eternit","roof:shape":"gabled_row"}}, "geometry":{"type":"MultiPolygon","coordinates":[[[[-3.14301,51.03448],[-3.14293,51.0346],[-3.143,51.03462],[-3.14301,51.03462],[-3.1431,51.03464],[-3.14312,51.03465],[-3.14315,51.03459],[-3.14319,51.03452],[-3.14312,51.0345],[-3.14301,51.03448]]]]}},
{ "type":"Feature","properties":{"osm_way_id":"370201656","building":"warehouse","other":{"building:levels":"1"}}, "geometry":{"type":"MultiPolygon","coordinates":[[[[-3.03272,51.04691],[-3.03247,51.0465],[-3.03243,51.04651],[-3.03239,51.04644],[-3.03234,51.04643],[-3.03229,51.04644],[-3.03227,51.04647],[-3.0323,51.04651],[-3.03171,51.04664],[-3.03198,51.04709],[-3.03263,51.04694],[-3.03262,51.04693],[-3.03272,51.04691]]]]}},
{ "type":"Feature","properties":{"osm_way_id":"374575835","building":"warehouse","other":{"addr:city":"Taunton","addr:housename":"Units A-D","addr:postcode":"TA2 8QN","addr:street":"Blundells Lane","addr:village":"West Monkton"}}, "geometry":{"type":"MultiPolygon","coordinates":[[[[-3.05413,51.04276],[-3.05383,51.04283],[-3.05391,51.04298],[-3.05388,51.04298],[-3.05394,51.04309],[-3.05427,51.04302],[-3.05413,51.04276]]]]}},
{ "type":"Feature","properties":{"osm_way_id":"395595142","name":"Growth Technology","building":"warehouse","other":{"addr:city":"Taunton","addr:country":"GB","addr:county":"Somerset","addr:postcode":"TA2 6BX","addr:street":"Great Western Way","addr:unit":"2","addr:village":"Norton Fitzwarren","building:levels":"1","phone":"+44 845 430 3001","smoking":"outside","website":"https:\/\/www.growthtechnology.com\/"}}, "geometry":{"type":"MultiPolygon","coordinates":[[[[-3.13416,51.02759],[-3.13367,51.02749],[-3.13423,51.02628],[-3.13473,51.02638],[-3.13416,51.02759]]]]}},
{ "type":"Feature","properties":{"osm_way_id":"397072790","name":"Orchard Court","building":"warehouse","other":{"addr:city":"Wellington","addr:country":"GB","addr:county":"Somerset","addr:postcode":"TA21 9HY","addr:street":"Wellington Road"}}, "geometry":{"type":"MultiPolygon","coordinates":[[[[-3.19605,50.98539],[-3.19595,50.98545],[-3.19614,50.98559],[-3.19624,50.98554],[-3.19605,50.98539]]]]}},
{ "type":"Feature","properties":{"osm_way_id":"397426593","name":"Storage Units","building":"warehouse","other":{"building:levels":"1"}}, "geometry":{"type":"MultiPolygon","coordinates":[[[[-3.18141,51.03268],[-3.18124,51.03271],[-3.18121,51.03263],[-3.18119,51.03258],[-3.18121,51.03258],[-3.18115,51.03243],[-3.18113,51.03243],[-3.18111,51.03237],[-3.18133,51.03234],[-3.18142,51.03255],[-3.18136,51.03255],[-3.18141,51.03268]]]]}},
{ "type":"Feature","properties":{"osm_way_id":"429288899","building":"warehouse","other":{"addr:city":"Wellington","addr:country":"GB","addr:county":"Somerset","addr:parentstreet":"Sylvan Road","addr:place":"Blackdown Business Park","addr:postcode":"TA21 8ST","addr:street":"Scott's Lane"}}, "geometry":{"type":"MultiPolygon","coordinates":[[[[-3.22393,50.97792],[-3.22369,50.97802],[-3.22383,50.97816],[-3.22398,50.9781],[-3.22403,50.97815],[-3.22413,50.97811],[-3.22393,50.97792]]]]}},
{ "type":"Feature","properties":{"osm_way_id":"464121558","building":"warehouse","other":{"building:cladding":"rendering","building:colour":"white","building:levels":"1","building:structure":"masonry","roof:material":"metal","roof:shape":"gabled"}}, "geometry":{"type":"MultiPolygon","coordinates":[[[[-3.15616,51.03415],[-3.15604,51.03412],[-3.15595,51.03428],[-3.15608,51.03431],[-3.15616,51.03415]]]]}},
{ "type":"Feature","properties":{"osm_way_id":"464121559","building":"warehouse","other":{"building:cladding":"rendering","building:colour":"white","building:levels":"1","building:structure":"masonry","roof:material":"metal","roof:shape":"gabled"}}, "geometry":{"type":"MultiPolygon","coordinates":[[[[-3.15623,51.03437],[-3.15611,51.03435],[-3.15621,51.03416],[-3.15632,51.03418],[-3.15623,51.03437]]]]}},
{ "type":"Feature","properties":{"osm_way_id":"532907198","building":"warehouse","other":{"addr:city":"Taunton","addr:country":"GB","addr:county":"Somerset","addr:place":"Crown Industrial Estate","addr:postcode":"TA2 8RX","addr:street":"Crown Close","addr:unit":"11"}}, "geometry":{"type":"MultiPolygon","coordinates":[[[[-3.07964,51.02794],[-3.07979,51.02792],[-3.07975,51.02775],[-3.0796,51.02776],[-3.07964,51.02794]]]]}},
{ "type":"Feature","properties":{"osm_way_id":"532907200","building":"warehouse","other":{"addr:city":"Taunton","addr:country":"GB","addr:county":"Somerset","addr:place":"Crown Industrial Estate","addr:postcode":"TA2 8RX","addr:street":"Crown Close","addr:unit":"6"}}, "geometry":{"type":"MultiPolygon","coordinates":[[[[-3.07999,51.02834],[-3.08014,51.02833],[-3.08011,51.0282],[-3.07996,51.02822],[-3.07999,51.02834]]]]}},
{ "type":"Feature","properties":{"osm_way_id":"532907202","building":"warehouse","other":{"addr:city":"Taunton","addr:country":"GB","addr:county":"Somerset","addr:place":"Crown Industrial Estate","addr:postcode":"TA2 8RX","addr:street":"Crown Close","addr:unit":"8"}}, "geometry":{"type":"MultiPolygon","coordinates":[[[[-3.07969,51.02837],[-3.07984,51.02836],[-3.07981,51.02823],[-3.07966,51.02825],[-3.07969,51.02837]]]]}},
{ "type":"Feature","properties":{"osm_way_id":"532907204","name":"Panther Logistics Ltd","building":"warehouse","other":{"addr:city":"Taunton","addr:country":"GB","addr:county":"Somerset","addr:place":"Crown Industrial Estate","addr:postcode":"TA2 8RX","addr:street":"Crown Close","addr:unit":"5"}}, "geometry":{"type":"MultiPolygon","coordinates":[[[[-3.0805,51.02827],[-3.08026,51.02829],[-3.08032,51.02851],[-3.08056,51.02849],[-3.0805,51.02827]]]]}},
{ "type":"Feature","properties":{"osm_way_id":"532907205","name":"Panther Logistics Ltd","building":"warehouse","other":{"addr:city":"Taunton","addr:country":"GB","addr:county":"Somerset","addr:place":"Crown Industrial Estate","addr:postcode":"TA2 8RX","addr:street":"Crown Close","addr:unit":"4"}}, "geometry":{"type":"MultiPolygon","coordinates":[[[[-3.08075,51.02825],[-3.0805,51.02827],[-3.08056,51.02849],[-3.0808,51.02847],[-3.08075,51.02825]]]]}},
{ "type":"Feature","properties":{"osm_way_id":"692766314","building":"warehouse","other":{"addr:city":"Taunton","addr:place":"Crown Industrial Estate","addr:postcode":"TA2 8GQ","addr:street":"Sovereign Way","addr:unit":"1"}}, "geometry":{"type":"MultiPolygon","coordinates":[[[[-3.08118,51.02684],[-3.08125,51.02715],[-3.08091,51.02718],[-3.08083,51.02688],[-3.08118,51.02684]]]]}},
{ "type":"Feature","properties":{"osm_way_id":"692766315","building":"warehouse","other":{"addr:city":"Taunton","addr:place":"Crown Industrial Estate","addr:postcode":"TA2 8GQ","addr:street":"Sovereign Way","addr:unit":"2"}}, "geometry":{"type":"MultiPolygon","coordinates":[[[[-3.08091,51.02718],[-3.08059,51.02721],[-3.08052,51.02691],[-3.08083,51.02688],[-3.08091,51.02718]]]]}},
{ "type":"Feature","properties":{"osm_way_id":"692766316","building":"warehouse","other":{"addr:city":"Taunton","addr:place":"Crown Industrial Estate","addr:postcode":"TA2 8GQ","addr:street":"Sovereign Way","addr:unit":"3"}}, "geometry":{"type":"MultiPolygon","coordinates":[[[[-3.08059,51.02721],[-3.08028,51.02724],[-3.08021,51.02694],[-3.08052,51.02691],[-3.08059,51.02721]]]]}},
{ "type":"Feature","properties":{"osm_way_id":"692766317","building":"warehouse","other":{"addr:city":"Taunton","addr:place":"Crown Industrial Estate","addr:postcode":"TA2 8GQ","addr:street":"Sovereign Way","addr:unit":"4"}}, "geometry":{"type":"MultiPolygon","coordinates":[[[[-3.08028,51.02724],[-3.07999,51.02727],[-3.07992,51.02697],[-3.08021,51.02694],[-3.08028,51.02724]]]]}},
{ "type":"Feature","properties":{"osm_way_id":"693155394","building":"warehouse","other":{"building:levels":"1"}}, "geometry":{"type":"MultiPolygon","coordinates":[[[[-3.03272,51.04691],[-3.0329,51.04721],[-3.03311,51.04716],[-3.03341,51.04709],[-3.03339,51.04705],[-3.03375,51.04697],[-3.03313,51.0459],[-3.03288,51.04596],[-3.03297,51.04609],[-3.03298,51.04608],[-3.03303,51.04615],[-3.03301,51.04616],[-3.03311,51.04629],[-3.03299,51.04631],[-3.03326,51.04679],[-3.03272,51.04691]]]]}},
{ "type":"Feature","properties":{"osm_way_id":"719498675","building":"warehouse","other":{"building:cladding":"metal","building:colour":"grey","building:levels":"1","building:structure":"metal","capacity":"2","roof:colour":"white","roof:material":"metal","roof:orientation":"230","roof:shape":"skillion","roof:structure":"metal"}}, "geometry":{"type":"MultiPolygon","coordinates":[[[[-3.14063,51.0331],[-3.14059,51.03306],[-3.14054,51.03309],[-3.14059,51.03312],[-3.14063,51.0331]]]]}},
{ "type":"Feature","properties":{"osm_way_id":"719498676","building":"warehouse","other":{"building:cladding":"metal","building:colour":"grey","building:levels":"1","building:structure":"metal","capacity":"2","roof:colour":"white","roof:material":"metal","roof:orientation":"230","roof:shape":"skillion","roof:structure":"metal"}}, "geometry":{"type":"MultiPolygon","coordinates":[[[[-3.14058,51.03305],[-3.14053,51.03302],[-3.14048,51.03305],[-3.14053,51.03308],[-3.14058,51.03305]]]]}},
{ "type":"Feature","properties":{"osm_way_id":"719498677","building":"warehouse","other":{"building:cladding":"metal","building:colour":"grey","building:levels":"1","building:structure":"metal","capacity":"2","roof:colour":"white","roof:material":"metal","roof:orientation":"50","roof:shape":"skillion","roof:structure":"metal"}}, "geometry":{"type":"MultiPolygon","coordinates":[[[[-3.14053,51.03302],[-3.14058,51.03305],[-3.14062,51.03303],[-3.14058,51.03299],[-3.14053,51.03302]]]]}},
{ "type":"Feature","properties":{"osm_way_id":"719498678","building":"warehouse","other":{"building:cladding":"metal","building:colour":"grey","building:levels":"1","building:structure":"metal","capacity":"2","roof:colour":"white","roof:material":"metal","roof:orientation":"50","roof:shape":"skillion","roof:structure":"metal"}}, "geometry":{"type":"MultiPolygon","coordinates":[[[[-3.14041,51.03308],[-3.14046,51.03312],[-3.14051,51.03309],[-3.14046,51.03306],[-3.14041,51.03308]]]]}},
{ "type":"Feature","properties":{"osm_way_id":"719498679","building":"warehouse","other":{"building:cladding":"metal","building:colour":"grey","building:levels":"1","building:structure":"metal","capacity":"2","roof:colour":"white","roof:material":"metal","roof:orientation":"230","roof:shape":"skillion","roof:structure":"metal"}}, "geometry":{"type":"MultiPolygon","coordinates":[[[[-3.14046,51.03312],[-3.14041,51.03308],[-3.14036,51.03311],[-3.14041,51.03314],[-3.14046,51.03312]]]]}},
{ "type":"Feature","properties":{"osm_way_id":"719498680","building":"warehouse","other":{"building:cladding":"metal","building:colour":"grey","building:levels":"1","building:structure":"metal","capacity":"2","roof:colour":"white","roof:material":"metal","roof:orientation":"50","roof:shape":"skillion","roof:structure":"metal"}}, "geometry":{"type":"MultiPolygon","coordinates":[[[[-3.14047,51.03313],[-3.14052,51.03316],[-3.14057,51.03313],[-3.14052,51.0331],[-3.14047,51.03313]]]]}},
{ "type":"Feature","properties":{"osm_way_id":"719498681","building":"warehouse","other":{"building:cladding":"metal","building:colour":"grey","building:levels":"1","building:structure":"metal","capacity":"2","roof:colour":"white","roof:material":"metal","roof:orientation":"230","roof:shape":"skillion","roof:structure":"metal"}}, "geometry":{"type":"MultiPolygon","coordinates":[[[[-3.14052,51.03316],[-3.14047,51.03313],[-3.14042,51.03315],[-3.14047,51.03319],[-3.14052,51.03316]]]]}},
{ "type":"Feature","properties":{"osm_way_id":"719498682","building":"warehouse","other":{"building:cladding":"metal","building:colour":"grey","building:levels":"1","building:structure":"metal","capacity":"2","roof:colour":"white","roof:material":"metal","roof:orientation":"50","roof:shape":"skillion","roof:structure":"metal"}}, "geometry":{"type":"MultiPolygon","coordinates":[[[[-3.1403,51.03315],[-3.14034,51.03318],[-3.14039,51.03315],[-3.14034,51.03312],[-3.1403,51.03315]]]]}},
{ "type":"Feature","properties":{"osm_way_id":"719498683","building":"warehouse","other":{"building:cladding":"metal","building:colour":"grey","building:levels":"1","building:structure":"metal","capacity":"2","roof:colour":"white","roof:material":"metal","roof:orientation":"230","roof:shape":"skillion","roof:structure":"metal"}}, "geometry":{"type":"MultiPolygon","coordinates":[[[[-3.14034,51.03318],[-3.1403,51.03315],[-3.14025,51.03317],[-3.1403,51.03321],[-3.14034,51.03318]]]]}},
{ "type":"Feature","properties":{"osm_way_id":"719498684","building":"warehouse","other":{"building:cladding":"metal","building:colour":"grey","building:levels":"1","building:structure":"metal","capacity":"2","roof:colour":"white","roof:material":"metal","roof:orientation":"50","roof:shape":"skillion","roof:structure":"metal"}}, "geometry":{"type":"MultiPolygon","coordinates":[[[[-3.14036,51.03319],[-3.1404,51.03322],[-3.14045,51.03319],[-3.1404,51.03316],[-3.14036,51.03319]]]]}},
{ "type":"Feature","properties":{"osm_way_id":"719498685","building":"warehouse","other":{"building:cladding":"metal","building:colour":"grey","building:levels":"1","building:structure":"metal","capacity":"2","roof:colour":"white","roof:material":"metal","roof:orientation":"230","roof:shape":"skillion","roof:structure":"metal"}}, "geometry":{"type":"MultiPolygon","coordinates":[[[[-3.1404,51.03322],[-3.14036,51.03319],[-3.14031,51.03322],[-3.14035,51.03325],[-3.1404,51.03322]]]]}},
{ "type":"Feature","properties":{"osm_way_id":"719498686","building":"warehouse","other":{"building:cladding":"metal","building:colour":"grey","building:levels":"1","building:structure":"metal","capacity":"2","roof:colour":"white","roof:material":"metal","roof:orientation":"50","roof:shape":"skillion","roof:structure":"metal"}}, "geometry":{"type":"MultiPolygon","coordinates":[[[[-3.14017,51.03322],[-3.14021,51.03325],[-3.14026,51.03322],[-3.14021,51.03319],[-3.14017,51.03322]]]]}},
{ "type":"Feature","properties":{"osm_way_id":"719498687","building":"warehouse","other":{"building:cladding":"metal","building:colour":"grey","building:levels":"1","building:structure":"metal","capacity":"2","roof:colour":"white","roof:material":"metal","roof:orientation":"50","roof:shape":"skillion","roof:structure":"metal"}}, "geometry":{"type":"MultiPolygon","coordinates":[[[[-3.14023,51.03326],[-3.14027,51.03329],[-3.14032,51.03326],[-3.14027,51.03323],[-3.14023,51.03326]]]]}},
{ "type":"Feature","properties":{"osm_way_id":"719498688","building":"warehouse","other":{"building:cladding":"metal","building:colour":"grey","building:levels":"1","building:structure":"metal","capacity":"5","roof:colour":"white","roof:material":"metal","roof:orientation":"230","roof:shape":"skillion","roof:structure":"metal"}}, "geometry":{"type":"MultiPolygon","coordinates":[[[[-3.14028,51.0333],[-3.14027,51.03329],[-3.14023,51.03326],[-3.14021,51.03325],[-3.14017,51.03322],[-3.14016,51.03321],[-3.14011,51.03324],[-3.14023,51.03332],[-3.14028,51.0333]]]]}},
{ "type":"Feature","properties":{"osm_way_id":"719498689","building":"warehouse","other":{"building:cladding":"metal","building:colour":"grey","building:levels":"1","building:structure":"metal","capacity":"1","roof:colour":"white","roof:material":"metal","roof:orientation":"230","roof:shape":"skillion","roof:structure":"metal"}}, "geometry":{"type":"MultiPolygon","coordinates":[[[[-3.14011,51.03332],[-3.14008,51.0333],[-3.14003,51.03333],[-3.14006,51.03335],[-3.14011,51.03332]]]]}},
{ "type":"Feature","properties":{"osm_way_id":"719498690","building":"warehouse","other":{"building:cladding":"metal","building:colour":"grey","building:levels":"1","building:structure":"metal","capacity":"2","roof:colour":"white","roof:material":"metal","roof:orientation":"230","roof:shape":"skillion","roof:structure":"metal"}}, "geometry":{"type":"MultiPolygon","coordinates":[[[[-3.14017,51.03336],[-3.14012,51.03333],[-3.14007,51.03335],[-3.14012,51.03339],[-3.14017,51.03336]]]]}},
{ "type":"Feature","properties":{"osm_way_id":"719498691","building":"warehouse","other":{"building:cladding":"metal","building:colour":"grey","building:levels":"1","building:structure":"metal","capacity":"1","roof:colour":"white","roof:material":"metal","roof:orientation":"50","roof:shape":"skillion","roof:structure":"metal"}}, "geometry":{"type":"MultiPolygon","coordinates":[[[[-3.14008,51.0333],[-3.14011,51.03332],[-3.14015,51.03329],[-3.14013,51.03328],[-3.14008,51.0333]]]]}},
{ "type":"Feature","properties":{"osm_way_id":"719498692","building":"warehouse","other":{"building:cladding":"metal","building:colour":"grey","building:levels":"1","building:structure":"metal","capacity":"2","roof:colour":"white","roof:material":"metal","roof:orientation":"50","roof:shape":"skillion","roof:structure":"metal"}}, "geometry":{"type":"MultiPolygon","coordinates":[[[[-3.14012,51.03333],[-3.14017,51.03336],[-3.14021,51.03333],[-3.14017,51.0333],[-3.14012,51.03333]]]]}},
{ "type":"Feature","properties":{"osm_way_id":"719498693","building":"warehouse","other":{"building:cladding":"metal","building:colour":"grey","building:levels":"1","building:structure":"metal","capacity":"1","roof:colour":"white","roof:material":"metal","roof:orientation":"50","roof:shape":"skillion","roof:structure":"metal"}}, "geometry":{"type":"MultiPolygon","coordinates":[[[[-3.14005,51.03328],[-3.14007,51.0333],[-3.14012,51.03327],[-3.14009,51.03325],[-3.14005,51.03328]]]]}},
{ "type":"Feature","properties":{"osm_way_id":"719498694","building":"warehouse","other":{"building:cladding":"metal","building:colour":"grey","building:levels":"1","building:structure":"metal","capacity":"1","roof:colour":"white","roof:material":"metal","roof:orientation":"230","roof:shape":"skillion","roof:structure":"metal"}}, "geometry":{"type":"MultiPolygon","coordinates":[[[[-3.14007,51.0333],[-3.14005,51.03328],[-3.14,51.03331],[-3.14002,51.03332],[-3.14007,51.0333]]]]}},
{ "type":"Feature","properties":{"osm_way_id":"719498695","building":"warehouse","other":{"building:cladding":"metal","building:colour":"grey","building:levels":"1","building:structure":"metal","capacity":"1","roof:colour":"white","roof:material":"metal","roof:orientation":"230","roof:shape":"skillion","roof:structure":"metal"}}, "geometry":{"type":"MultiPolygon","coordinates":[[[[-3.13996,51.03336],[-3.13993,51.03334],[-3.13989,51.03337],[-3.13991,51.03339],[-3.13996,51.03336]]]]}},
{ "type":"Feature","properties":{"osm_way_id":"719498696","building":"warehouse","other":{"building:cladding":"metal","building:colour":"grey","building:levels":"1","building:structure":"metal","capacity":"1","roof:colour":"white","roof:material":"metal","roof:orientation":"50","roof:shape":"skillion","roof:structure":"metal"}}, "geometry":{"type":"MultiPolygon","coordinates":[[[[-3.13993,51.03334],[-3.13996,51.03336],[-3.14001,51.03333],[-3.13998,51.03332],[-3.13993,51.03334]]]]}},
{ "type":"Feature","properties":{"osm_way_id":"719498697","building":"warehouse","other":{"building:cladding":"metal","building:colour":"grey","building:levels":"1","building:structure":"metal","capacity":"1","roof:colour":"white","roof:material":"metal","roof:orientation":"230","roof:shape":"skillion","roof:structure":"metal"}}, "geometry":{"type":"MultiPolygon","coordinates":[[[[-3.13999,51.03339],[-3.13997,51.03337],[-3.13992,51.0334],[-3.13995,51.03341],[-3.13999,51.03339]]]]}},
{ "type":"Feature","properties":{"osm_way_id":"719498698","building":"warehouse","other":{"building:cladding":"metal","building:colour":"grey","building:levels":"1","building:structure":"metal","capacity":"1","roof:colour":"white","roof:material":"metal","roof:orientation":"50","roof:shape":"skillion","roof:structure":"metal"}}, "geometry":{"type":"MultiPolygon","coordinates":[[[[-3.13997,51.03337],[-3.13999,51.03339],[-3.14004,51.03336],[-3.14002,51.03334],[-3.13997,51.03337]]]]}},
{ "type":"Feature","properties":{"osm_way_id":"719498699","building":"warehouse","other":{"building:cladding":"metal","building:colour":"grey","building:levels":"1","building:structure":"metal","capacity":"2","roof:colour":"white","roof:material":"metal","roof:orientation":"230","roof:shape":"skillion","roof:structure":"metal"}}, "geometry":{"type":"MultiPolygon","coordinates":[[[[-3.14005,51.03343],[-3.14001,51.03339],[-3.13996,51.03342],[-3.14001,51.03345],[-3.14005,51.03343]]]]}},
{ "type":"Feature","properties":{"osm_way_id":"719498700","building":"warehouse","other":{"building:cladding":"metal","building:colour":"grey","building:levels":"1","building:structure":"metal","capacity":"2","roof:colour":"white","roof:material":"metal","roof:orientation":"50","roof:shape":"skillion","roof:structure":"metal"}}, "geometry":{"type":"MultiPolygon","coordinates":[[[[-3.14001,51.03339],[-3.14005,51.03343],[-3.1401,51.0334],[-3.14005,51.03337],[-3.14001,51.03339]]]]}},
{ "type":"Feature","properties":{"osm_way_id":"719498701","building":"warehouse","other":{"building:cladding":"metal","building:colour":"grey","building:levels":"1","building:structure":"metal","capacity":"5","roof:colour":"white","roof:material":"metal","roof:orientation":"230","roof:shape":"skillion","roof:structure":"metal"}}, "geometry":{"type":"MultiPolygon","coordinates":[[[[-3.13994,51.03349],[-3.13982,51.03341],[-3.13977,51.03343],[-3.13989,51.03352],[-3.13994,51.03349]]]]}},
{ "type":"Feature","properties":{"osm_way_id":"719498702","building":"warehouse","other":{"building:cladding":"metal","building:colour":"grey","building:levels":"1","building:structure":"metal","capacity":"5","roof:colour":"white","roof:material":"metal","roof:orientation":"50","roof:shape":"skillion","roof:structure":"metal"}}, "geometry":{"type":"MultiPolygon","coordinates":[[[[-3.13982,51.03341],[-3.13994,51.03349],[-3.13999,51.03346],[-3.13987,51.03338],[-3.13982,51.03341]]]]}},
{ "type":"Feature","properties":{"osm_way_id":"719498703","building":"warehouse","other":{"building:cladding":"metal","building:colour":"grey","building:levels":"1","building:structure":"metal","capacity":"5","roof:colour":"white","roof:material":"metal","roof:orientation":"255","roof:shape":"skillion","roof:structure":"metal"}}, "geometry":{"type":"MultiPolygon","coordinates":[[[[-3.14072,51.03323],[-3.14067,51.03312],[-3.14061,51.03313],[-3.14066,51.03324],[-3.14072,51.03323]]]]}},
{ "type":"Feature","properties":{"osm_way_id":"719498704","building":"warehouse","other":{"building:cladding":"metal","building:colour":"grey","building:levels":"1","building:structure":"metal","capacity":"1","roof:colour":"white","roof:material":"metal","roof:orientation":"135","roof:shape":"skillion","roof:structure":"metal"}}, "geometry":{"type":"MultiPolygon","coordinates":[[[[-3.13976,51.03345],[-3.13973,51.03346],[-3.13978,51.03349],[-3.1398,51.03348],[-3.13976,51.03345]]]]}},
{ "type":"Feature","properties":{"osm_way_id":"719498705","building":"warehouse","other":{"building:cladding":"metal","building:colour":"grey","building:levels":"1","building:structure":"metal","capacity":"1","roof:colour":"white","roof:material":"metal","roof:orientation":"135","roof:shape":"skillion","roof:structure":"metal"}}, "geometry":{"type":"MultiPolygon","coordinates":[[[[-3.13959,51.03355],[-3.13956,51.03356],[-3.13961,51.03359],[-3.13964,51.03358],[-3.13959,51.03355]]]]}},
{ "type":"Feature","properties":{"osm_way_id":"719498706","building":"warehouse","other":{"building:cladding":"metal","building:colour":"grey","building:levels":"1","building:structure":"metal","capacity":"2","roof:colour":"white","roof:material":"metal","roof:orientation":"135","roof:shape":"skillion","roof:structure":"metal"}}, "geometry":{"type":"MultiPolygon","coordinates":[[[[-3.13972,51.03347],[-3.13967,51.0335],[-3.13971,51.03353],[-3.13976,51.0335],[-3.13972,51.03347]]]]}},
{ "type":"Feature","properties":{"osm_way_id":"719498707","building":"warehouse","other":{"building:cladding":"metal","building:colour":"grey","building:levels":"1","building:structure":"metal","capacity":"2","roof:colour":"white","roof:material":"metal","roof:orientation":"135","roof:shape":"skillion","roof:structure":"metal"}}, "geometry":{"type":"MultiPolygon","coordinates":[[[[-3.13966,51.03351],[-3.1396,51.03354],[-3.13965,51.03357],[-3.1397,51.03354],[-3.13966,51.03351]]]]}},
{ "type":"Feature","properties":{"osm_way_id":"719498723","building":"warehouse","other":{"building:cladding":"metal","building:colour":"grey","building:levels":"1","building:structure":"metal","capacity":"6","roof:colour":"white","roof:material":"metal","roof:orientation":"30","roof:shape":"skillion","roof:structure":"metal"}}, "geometry":{"type":"MultiPolygon","coordinates":[[[[-3.14052,51.03325],[-3.1407,51.03331],[-3.14073,51.03328],[-3.14055,51.03321],[-3.14052,51.03325]]]]}},
{ "type":"Feature","properties":{"osm_way_id":"719498724","building":"warehouse","other":{"building:cladding":"metal","building:colour":"grey","building:levels":"1","building:structure":"metal","capacity":"8","roof:colour":"white","roof:material":"metal","roof:orientation":"210","roof:shape":"skillion","roof:structure":"metal"}}, "geometry":{"type":"MultiPolygon","coordinates":[[[[-3.14073,51.03332],[-3.1407,51.03331],[-3.14052,51.03325],[-3.14048,51.03324],[-3.14045,51.03327],[-3.1407,51.03336],[-3.14073,51.03332]]]]}},
{ "type":"Feature","properties":{"osm_way_id":"719498725","building":"warehouse","other":{"building:cladding":"metal","building:colour":"grey","building:levels":"1","building:structure":"metal","capacity":"12","roof:colour":"white","roof:material":"metal","roof:orientation":"30","roof:shape":"skillion","roof:structure":"metal"}}, "geometry":{"type":"MultiPolygon","coordinates":[[[[-3.14036,51.03334],[-3.14073,51.03347],[-3.14077,51.03344],[-3.14039,51.03331],[-3.14036,51.03334]]]]}},
{ "type":"Feature","properties":{"osm_way_id":"719498726","building":"warehouse","other":{"building:cladding":"metal","building:colour":"grey","building:levels":"1","building:structure":"metal","capacity":"12","roof:colour":"white","roof:material":"metal","roof:orientation":"210","roof:shape":"skillion","roof:structure":"metal"}}, "geometry":{"type":"MultiPolygon","coordinates":[[[[-3.14073,51.03347],[-3.14036,51.03334],[-3.14033,51.03338],[-3.1407,51.03351],[-3.14073,51.03347]]]]}},
{ "type":"Feature","properties":{"osm_way_id":"719498727","building":"warehouse","other":{"building:cladding":"metal","building:colour":"grey","building:levels":"1","building:structure":"metal","capacity":"14","roof:colour":"white","roof:material":"metal","roof:orientation":"210","roof:shape":"skillion","roof:structure":"metal"}}, "geometry":{"type":"MultiPolygon","coordinates":[[[[-3.14064,51.03357],[-3.1402,51.03342],[-3.14017,51.03346],[-3.14061,51.03361],[-3.14064,51.03357]]]]}},
{ "type":"Feature","properties":{"osm_way_id":"719498728","building":"warehouse","other":{"building:cladding":"metal","building:colour":"grey","building:levels":"1","building:structure":"metal","capacity":"14","roof:colour":"white","roof:material":"metal","roof:orientation":"30","roof:shape":"skillion","roof:structure":"metal"}}, "geometry":{"type":"MultiPolygon","coordinates":[[[[-3.1402,51.03342],[-3.14064,51.03357],[-3.14067,51.03354],[-3.14023,51.03339],[-3.1402,51.03342]]]]}},
{ "type":"Feature","properties":{"osm_way_id":"719498737","building":"warehouse","other":{"building:cladding":"metal","building:colour":"grey","building:levels":"1","building:structure":"metal","capacity":"1","roof:colour":"white","roof:material":"metal","roof:orientation":"30","roof:shape":"skillion","roof:structure":"metal"}}, "geometry":{"type":"MultiPolygon","coordinates":[[[[-3.13964,51.0336],[-3.13968,51.03361],[-3.13971,51.03358],[-3.13968,51.03357],[-3.13964,51.0336]]]]}},
{ "type":"Feature","properties":{"osm_way_id":"719498738","building":"warehouse","other":{"building:cladding":"metal","building:colour":"grey","building:levels":"1","building:structure":"metal","capacity":"1","roof:colour":"white","roof:material":"metal","roof:orientation":"120","roof:shape":"skillion","roof:structure":"metal"}}, "geometry":{"type":"MultiPolygon","coordinates":[[[[-3.13977,51.03362],[-3.13975,51.03364],[-3.13981,51.03366],[-3.13983,51.03364],[-3.13977,51.03362]]]]}},
{ "type":"Feature","properties":{"osm_way_id":"719498739","building":"warehouse","other":{"building:cladding":"metal","building:colour":"grey","building:levels":"1","building:structure":"metal","capacity":"1","roof:colour":"white","roof:material":"metal","roof:orientation":"300","roof:shape":"skillion","roof:structure":"metal"}}, "geometry":{"type":"MultiPolygon","coordinates":[[[[-3.13978,51.03361],[-3.13979,51.03359],[-3.13974,51.03357],[-3.13972,51.03359],[-3.13978,51.03361]]]]}},
{ "type":"Feature","properties":{"osm_way_id":"719498740","building":"warehouse","other":{"building:cladding":"metal","building:colour":"grey","building:levels":"1","building:structure":"metal","capacity":"2","roof:colour":"white","roof:material":"metal","roof:orientation":"300","roof:shape":"skillion","roof:structure":"metal"}}, "geometry":{"type":"MultiPolygon","coordinates":[[[[-3.1398,51.03358],[-3.13984,51.03354],[-3.13978,51.03352],[-3.13975,51.03356],[-3.1398,51.03358]]]]}},
{ "type":"Feature","properties":{"osm_way_id":"719498741","building":"warehouse","other":{"building:cladding":"metal","building:colour":"grey","building:levels":"1","building:structure":"metal","capacity":"1","roof:colour":"white","roof:material":"metal","roof:orientation":"300","roof:shape":"skillion","roof:structure":"metal"}}, "geometry":{"type":"MultiPolygon","coordinates":[[[[-3.13975,51.03364],[-3.13977,51.03362],[-3.13971,51.0336],[-3.13969,51.03362],[-3.13975,51.03364]]]]}},
{ "type":"Feature","properties":{"osm_way_id":"719498742","building":"warehouse","other":{"building:cladding":"metal","building:colour":"grey","building:levels":"1","building:structure":"metal","capacity":"2","roof:colour":"white","roof:material":"metal","roof:orientation":"120","roof:shape":"skillion","roof:structure":"metal"}}, "geometry":{"type":"MultiPolygon","coordinates":[[[[-3.13984,51.03354],[-3.1398,51.03358],[-3.13986,51.0336],[-3.13989,51.03356],[-3.13984,51.03354]]]]}},
{ "type":"Feature","properties":{"osm_way_id":"719498743","building":"warehouse","other":{"building:cladding":"metal","building:colour":"grey","building:levels":"1","building:structure":"metal","capacity":"1","roof:colour":"white","roof:material":"metal","roof:orientation":"120","roof:shape":"skillion","roof:structure":"metal"}}, "geometry":{"type":"MultiPolygon","coordinates":[[[[-3.13979,51.03359],[-3.13978,51.03361],[-3.13983,51.03363],[-3.13985,51.03361],[-3.13979,51.03359]]]]}},
{ "type":"Feature","properties":{"osm_way_id":"719498744","building":"warehouse","other":{"building:cladding":"metal","building:colour":"grey","building:levels":"1","building:structure":"metal","capacity":"2","roof:colour":"white","roof:material":"metal","roof:orientation":"300","roof:shape":"skillion","roof:structure":"metal"}}, "geometry":{"type":"MultiPolygon","coordinates":[[[[-3.13994,51.03363],[-3.13997,51.03359],[-3.13991,51.03357],[-3.13988,51.03361],[-3.13994,51.03363]]]]}},
{ "type":"Feature","properties":{"osm_way_id":"719498745","building":"warehouse","other":{"building:cladding":"metal","building:colour":"grey","building:levels":"1","building:structure":"metal","capacity":"1","roof:colour":"white","roof:material":"metal","roof:orientation":"300","roof:shape":"skillion","roof:structure":"metal"}}, "geometry":{"type":"MultiPolygon","coordinates":[[[[-3.13988,51.03369],[-3.1399,51.03367],[-3.13984,51.03365],[-3.13983,51.03367],[-3.13988,51.03369]]]]}},
{ "type":"Feature","properties":{"osm_way_id":"719498746","building":"warehouse","other":{"building:cladding":"metal","building:colour":"grey","building:levels":"1","building:structure":"metal","capacity":"1","roof:colour":"white","roof:material":"metal","roof:orientation":"120","roof:shape":"skillion","roof:structure":"metal"}}, "geometry":{"type":"MultiPolygon","coordinates":[[[[-3.1399,51.03367],[-3.13988,51.03369],[-3.13994,51.03371],[-3.13996,51.03369],[-3.1399,51.03367]]]]}},
{ "type":"Feature","properties":{"osm_way_id":"719498747","building":"warehouse","other":{"building:cladding":"metal","building:colour":"grey","building:levels":"1","building:structure":"metal","capacity":"1","roof:colour":"white","roof:material":"metal","roof:orientation":"300","roof:shape":"skillion","roof:structure":"metal"}}, "geometry":{"type":"MultiPolygon","coordinates":[[[[-3.13991,51.03366],[-3.13993,51.03364],[-3.13987,51.03362],[-3.13985,51.03364],[-3.13991,51.03366]]]]}},
{ "type":"Feature","properties":{"osm_way_id":"719498748","building":"warehouse","other":{"building:cladding":"metal","building:colour":"grey","building:levels":"1","building:structure":"metal","capacity":"2","roof:colour":"white","roof:material":"metal","roof:orientation":"120","roof:shape":"skillion","roof:structure":"metal"}}, "geometry":{"type":"MultiPolygon","coordinates":[[[[-3.13997,51.03359],[-3.13994,51.03363],[-3.13999,51.03365],[-3.14003,51.03361],[-3.13997,51.03359]]]]}},
{ "type":"Feature","properties":{"osm_way_id":"719498749","building":"warehouse","other":{"building:cladding":"metal","building:colour":"grey","building:levels":"1","building:structure":"metal","capacity":"1","roof:colour":"white","roof:material":"metal","roof:orientation":"120","roof:shape":"skillion","roof:structure":"metal"}}, "geometry":{"type":"MultiPolygon","coordinates":[[[[-3.13993,51.03364],[-3.13991,51.03366],[-3.13996,51.03368],[-3.13998,51.03366],[-3.13993,51.03364]]]]}},
{ "type":"Feature","properties":{"osm_way_id":"719498750","building":"warehouse","other":{"building:cladding":"metal","building:colour":"grey","building:levels":"1","building:structure":"metal","capacity":"2","roof:colour":"white","roof:material":"metal","roof:orientation":"300","roof:shape":"skillion","roof:structure":"metal"}}, "geometry":{"type":"MultiPolygon","coordinates":[[[[-3.14007,51.03367],[-3.1401,51.03363],[-3.14004,51.03361],[-3.14001,51.03365],[-3.14007,51.03367]]]]}},
{ "type":"Feature","properties":{"osm_way_id":"719498751","building":"warehouse","other":{"building:cladding":"metal","building:colour":"grey","building:levels":"1","building:structure":"metal","capacity":"1","roof:colour":"white","roof:material":"metal","roof:orientation":"300","roof:shape":"skillion","roof:structure":"metal"}}, "geometry":{"type":"MultiPolygon","coordinates":[[[[-3.14001,51.03373],[-3.14003,51.03371],[-3.13998,51.03369],[-3.13996,51.03371],[-3.14001,51.03373]]]]}},
{ "type":"Feature","properties":{"osm_way_id":"719498752","building":"warehouse","other":{"building:cladding":"metal","building:colour":"grey","building:levels":"1","building:structure":"metal","capacity":"1","roof:colour":"white","roof:material":"metal","roof:orientation":"120","roof:shape":"skillion","roof:structure":"metal"}}, "geometry":{"type":"MultiPolygon","coordinates":[[[[-3.14003,51.03371],[-3.14001,51.03373],[-3.14007,51.03375],[-3.14009,51.03373],[-3.14003,51.03371]]]]}},
{ "type":"Feature","properties":{"osm_way_id":"719498753","building":"warehouse","other":{"building:cladding":"metal","building:colour":"grey","building:levels":"1","building:structure":"metal","capacity":"1","roof:colour":"white","roof:material":"metal","roof:orientation":"300","roof:shape":"skillion","roof:structure":"metal"}}, "geometry":{"type":"MultiPolygon","coordinates":[[[[-3.14004,51.0337],[-3.14006,51.03368],[-3.14,51.03366],[-3.13998,51.03368],[-3.14004,51.0337]]]]}},
{ "type":"Feature","properties":{"osm_way_id":"719498754","building":"warehouse","other":{"building:cladding":"metal","building:colour":"grey","building:levels":"1","building:structure":"metal","capacity":"2","roof:colour":"white","roof:material":"metal","roof:orientation":"120","roof:shape":"skillion","roof:structure":"metal"}}, "geometry":{"type":"MultiPolygon","coordinates":[[[[-3.1401,51.03363],[-3.14007,51.03367],[-3.14012,51.03369],[-3.14016,51.03365],[-3.1401,51.03363]]]]}},
{ "type":"Feature","properties":{"osm_way_id":"719498755","building":"warehouse","other":{"building:cladding":"metal","building:colour":"grey","building:levels":"1","building:structure":"metal","capacity":"1","roof:colour":"white","roof:material":"metal","roof:orientation":"120","roof:shape":"skillion","roof:structure":"metal"}}, "geometry":{"type":"MultiPolygon","coordinates":[[[[-3.14006,51.03368],[-3.14004,51.0337],[-3.1401,51.03372],[-3.14011,51.0337],[-3.14006,51.03368]]]]}},
{ "type":"Feature","properties":{"osm_way_id":"719498756","building":"warehouse","other":{"building:cladding":"metal","building:colour":"grey","building:levels":"1","building:structure":"metal","capacity":"1","roof:colour":"white","roof:material":"metal","roof:orientation":"300","roof:shape":"skillion","roof:structure":"metal"}}, "geometry":{"type":"MultiPolygon","coordinates":[[[[-3.14015,51.03378],[-3.14017,51.03376],[-3.14011,51.03374],[-3.14009,51.03376],[-3.14015,51.03378]]]]}},
{ "type":"Feature","properties":{"osm_way_id":"719498757","building":"warehouse","other":{"building:cladding":"metal","building:colour":"grey","building:levels":"1","building:structure":"metal","capacity":"1","roof:colour":"white","roof:material":"metal","roof:orientation":"120","roof:shape":"skillion","roof:structure":"metal"}}, "geometry":{"type":"MultiPolygon","coordinates":[[[[-3.14017,51.03376],[-3.14015,51.03378],[-3.1402,51.0338],[-3.14022,51.03378],[-3.14017,51.03376]]]]}},
{ "type":"Feature","properties":{"osm_way_id":"719498758","building":"warehouse","other":{"building:cladding":"metal","building:colour":"grey","building:levels":"1","building:structure":"metal","capacity":"5","roof:colour":"white","roof:material":"metal","roof:orientation":"300","roof:shape":"skillion","roof:structure":"metal"}}, "geometry":{"type":"MultiPolygon","coordinates":[[[[-3.14041,51.03387],[-3.1405,51.03377],[-3.14044,51.03375],[-3.14035,51.03385],[-3.14041,51.03387]]]]}},
{ "type":"Feature","properties":{"osm_way_id":"719498759","building":"warehouse","other":{"building:cladding":"metal","building:colour":"grey","building:levels":"1","building:structure":"metal","capacity":"5","roof:colour":"white","roof:material":"metal","roof:orientation":"120","roof:shape":"skillion","roof:structure":"metal"}}, "geometry":{"type":"MultiPolygon","coordinates":[[[[-3.1405,51.03377],[-3.14041,51.03387],[-3.14047,51.03389],[-3.14055,51.03379],[-3.1405,51.03377]]]]}},
{ "type":"Feature","properties":{"osm_way_id":"719498760","building":"warehouse","other":{"building:cladding":"metal","building:colour":"grey","building:levels":"1","building:structure":"metal","capacity":"1","roof:colour":"white","roof:material":"metal","roof:orientation":"300","roof:shape":"skillion","roof:structure":"metal"}}, "geometry":{"type":"MultiPolygon","coordinates":[[[[-3.14017,51.03375],[-3.14019,51.03373],[-3.14013,51.03371],[-3.14011,51.03373],[-3.14017,51.03375]]]]}},
{ "type":"Feature","properties":{"osm_way_id":"719498761","building":"warehouse","other":{"building:cladding":"metal","building:colour":"grey","building:levels":"1","building:structure":"metal","capacity":"1","roof:colour":"white","roof:material":"metal","roof:orientation":"120","roof:shape":"skillion","roof:structure":"metal"}}, "geometry":{"type":"MultiPolygon","coordinates":[[[[-3.14019,51.03373],[-3.14017,51.03375],[-3.14023,51.03377],[-3.14025,51.03375],[-3.14019,51.03373]]]]}},
{ "type":"Feature","properties":{"osm_way_id":"719498762","building":"warehouse","other":{"building:cladding":"metal","building:colour":"grey","building:levels":"1","building:structure":"metal","capacity":"2","roof:colour":"white","roof:material":"metal","roof:orientation":"300","roof:shape":"skillion","roof:structure":"metal"}}, "geometry":{"type":"MultiPolygon","coordinates":[[[[-3.1402,51.03372],[-3.14023,51.03368],[-3.14018,51.03366],[-3.14014,51.0337],[-3.1402,51.03372]]]]}},
{ "type":"Feature","properties":{"osm_way_id":"719498763","building":"warehouse","other":{"building:cladding":"metal","building:colour":"grey","building:levels":"1","building:structure":"metal","capacity":"2","roof:colour":"white","roof:material":"metal","roof:orientation":"120","roof:shape":"skillion","roof:structure":"metal"}}, "geometry":{"type":"MultiPolygon","coordinates":[[[[-3.14023,51.03368],[-3.1402,51.03372],[-3.14026,51.03374],[-3.14029,51.0337],[-3.14023,51.03368]]]]}},
{ "type":"Feature","properties":{"osm_way_id":"719498765","building":"warehouse","other":{"building:cladding":"metal","building:colour":"grey","building:levels":"1","building:structure":"metal","capacity":"16","roof:colour":"white","roof:material":"metal","roof:orientation":"30","roof:shape":"skillion","roof:structure":"metal"}}, "geometry":{"type":"MultiPolygon","coordinates":[[[[-3.14004,51.03351],[-3.14054,51.03369],[-3.14057,51.03365],[-3.14007,51.03348],[-3.14004,51.03351]]]]}},
{ "type":"Feature","properties":{"osm_way_id":"719498766","building":"warehouse","other":{"building:cladding":"metal","building:colour":"grey","building:levels":"1","building:structure":"metal","capacity":"16","roof:colour":"white","roof:material":"metal","roof:orientation":"210","roof:shape":"skillion","roof:structure":"metal"}}, "geometry":{"type":"MultiPolygon","coordinates":[[[[-3.14054,51.03369],[-3.14004,51.03351],[-3.14001,51.03355],[-3.14051,51.03372],[-3.14054,51.03369]]]]}},
{ "type":"Feature","properties":{"osm_way_id":"719498768","building":"warehouse","other":{"building:cladding":"metal","building:colour":"grey","building:levels":"1","building:structure":"metal","capacity":"5","roof:colour":"white","roof:material":"metal","roof:orientation":"300","roof:shape":"skillion","roof:structure":"metal"}}, "geometry":{"type":"MultiPolygon","coordinates":[[[[-3.14028,51.03382],[-3.14037,51.03373],[-3.14031,51.03371],[-3.14022,51.0338],[-3.14028,51.03382]]]]}},
{ "type":"Feature","properties":{"osm_way_id":"719498769","building":"warehouse","other":{"building:cladding":"metal","building:colour":"grey","building:levels":"1","building:structure":"metal","capacity":"5","roof:colour":"white","roof:material":"metal","roof:orientation":"120","roof:shape":"skillion","roof:structure":"metal"}}, "geometry":{"type":"MultiPolygon","coordinates":[[[[-3.14037,51.03373],[-3.14028,51.03382],[-3.14034,51.03384],[-3.14042,51.03374],[-3.14037,51.03373]]]]}},
{ "type":"Feature","properties":{"osm_way_id":"736528497","name":"Abacus","building":"warehouse","other":{"addr:city":"Wellington","addr:country":"GB","addr:county":"Somerset","addr:hamlet":"Ham","addr:postcode":"TA21 9JB","addr:street":"Ham Road","building:levels":"2"}}, "geometry":{"type":"MultiPolygon","coordinates":[[[[-3.20241,50.9884],[-3.20234,50.98832],[-3.20232,50.98833],[-3.20225,50.98824],[-3.20211,50.98829],[-3.20223,50.9884],[-3.20241,50.9884]]]]}},
{ "type":"Feature","properties":{"osm_way_id":"736865866","building":"warehouse","other":{"addr:city":"Wellington","addr:country":"GB","addr:county":"Somerset","addr:housename":"Tonedale Business Park","addr:postcode":"TA21 0AW","addr:street":"Millstream Gardens","addr:suburb":"Tonedale","building:levels":"2"}}, "geometry":{"type":"MultiPolygon","coordinates":[[[[-3.24295,50.98532],[-3.24319,50.98524],[-3.24289,50.98492],[-3.24297,50.98489],[-3.2429,50.98482],[-3.24277,50.98487],[-3.24265,50.98474],[-3.24209,50.98494],[-3.2422,50.98505],[-3.24231,50.98502],[-3.24234,50.98505],[-3.24251,50.98499],[-3.24248,50.98496],[-3.24258,50.98492],[-3.24295,50.98532]]]]}},
{ "type":"Feature","properties":{"osm_way_id":"749618686","building":"warehouse","other":{"addr:city":"Wellington","addr:country":"GB","addr:county":"Somerset","addr:housename":"Bodley Yard","addr:postcode":"TA21 9PG","addr:street":"Ford Street","building:levels":"2"}}, "geometry":{"type":"MultiPolygon","coordinates":[[[[-3.20788,50.96456],[-3.20791,50.96436],[-3.20809,50.96438],[-3.20806,50.96458],[-3.20788,50.96456]]]]}},
{ "type":"Feature","properties":{"osm_way_id":"753746377","building":"warehouse"},"geometry":{"type":"MultiPolygon","coordinates":[[[[-3.20255,50.98485],[-3.20184,50.98507],[-3.20172,50.98491],[-3.20219,50.98477],[-3.20225,50.98475],[-3.20243,50.9847],[-3.20255,50.98485]]]]}},
{ "type":"Feature","properties":{"osm_way_id":"888649432","building":"warehouse","other":{"addr:city":"Wellington","addr:country":"GB","addr:county":"Somerset","addr:hamlet":"Poole","addr:postcode":"TA21 9GN","addr:street":"Higher Poole","addr:unit":"A","source:addr:postcode":"code-point_open"}}, "geometry":{"type":"MultiPolygon","coordinates":[[[[-3.21198,50.98975],[-3.21213,50.9897],[-3.21209,50.98965],[-3.21193,50.9897],[-3.21198,50.98975]]]]}},
{ "type":"Feature","properties":{"osm_way_id":"888649433","building":"warehouse","other":{"addr:city":"Wellington","addr:country":"GB","addr:county":"Somerset","addr:hamlet":"Poole","addr:postcode":"TA21 9GN","addr:street":"Higher Poole","addr:unit":"B","source:addr:postcode":"code-point_open"}}, "geometry":{"type":"MultiPolygon","coordinates":[[[[-3.21193,50.9897],[-3.21209,50.98965],[-3.21204,50.9896],[-3.21189,50.98965],[-3.21193,50.9897]]]]}},
{ "type":"Feature","properties":{"osm_way_id":"888649434","building":"warehouse","other":{"addr:city":"Wellington","addr:country":"GB","addr:county":"Somerset","addr:hamlet":"Poole","addr:postcode":"TA21 9GN","addr:street":"Higher Poole","addr:unit":"C","source:addr:postcode":"code-point_open"}}, "geometry":{"type":"MultiPolygon","coordinates":[[[[-3.21189,50.98965],[-3.21204,50.9896],[-3.212,50.98954],[-3.21184,50.9896],[-3.21189,50.98965]]]]}},
{ "type":"Feature","properties":{"osm_way_id":"888649435","building":"warehouse","other":{"addr:city":"Wellington","addr:country":"GB","addr:county":"Somerset","addr:hamlet":"Poole","addr:postcode":"TA21 9GN","addr:street":"Higher Poole","addr:unit":"E","source:addr:postcode":"code-point_open"}}, "geometry":{"type":"MultiPolygon","coordinates":[[[[-3.21132,50.98988],[-3.21147,50.98983],[-3.21143,50.98978],[-3.21127,50.98983],[-3.21132,50.98988]]]]}},
{ "type":"Feature","properties":{"osm_way_id":"888649436","building":"warehouse","other":{"addr:city":"Wellington","addr:country":"GB","addr:county":"Somerset","addr:hamlet":"Poole","addr:postcode":"TA21 9GN","addr:street":"Higher Poole","addr:unit":"D","source:addr:postcode":"code-point_open"}}, "geometry":{"type":"MultiPolygon","coordinates":[[[[-3.21127,50.98983],[-3.21143,50.98978],[-3.21138,50.98972],[-3.21123,50.98978],[-3.21127,50.98983]]]]}},
{ "type":"Feature","properties":{"osm_way_id":"888649437","building":"warehouse","other":{"addr:city":"Wellington","addr:country":"GB","addr:county":"Somerset","addr:hamlet":"Poole","addr:postcode":"TA21 9GN","addr:street":"Higher Poole","addr:unit":"F","source:addr:postcode":"code-point_open"}}, "geometry":{"type":"MultiPolygon","coordinates":[[[[-3.21099,50.98997],[-3.2111,50.99006],[-3.21117,50.99002],[-3.21106,50.98993],[-3.21099,50.98997]]]]}}
]
}
