{
"type": "FeatureCollection",
"features": [
{ "type":"Feature","properties":{"osm_way_id":"115721788","name":"Kettle Premier House","building":"warehouse","other":{"addr:city":"Norwich","addr:country":"GB","addr:housename":"Document House","addr:housenumber":"37","addr:postcode":"NR5 9PX","addr:street":"Barnard Road","operator":"Kettle Chips"}}, "geometry":{"type":"MultiPolygon","coordinates":[[[[1.20618,52.64246],[1.20627,52.64305],[1.20727,52.64299],[1.20718,52.6424],[1.20618,52.64246]]]]}},
{ "type":"Feature","properties":{"osm_way_id":"220502552","building":"warehouse"},"geometry":{"type":"MultiPolygon","coordinates":[[[[0.96212,51.86564],[0.96222,51.86585],[0.96239,51.86582],[0.96229,51.86561],[0.96212,51.86564]]]]}},
{ "type":"Feature","properties":{"osm_way_id":"272352659","building":"warehouse","other":{"addr:city":"Colchester","addr:housenumber":"2","addr:postcode":"CO1 1BX","addr:street":"Mason Road"}}, "geometry":{"type":"MultiPolygon","coordinates":[[[[0.90025,51.89811],[0.90029,51.89779],[0.90026,51.89779],[0.90026,51.89772],[0.90073,51.89774],[0.90073,51.8978],[0.90082,51.8978],[0.90079,51.89813],[0.90025,51.89811]]]]}},
{ "type":"Feature","properties":{"osm_way_id":"272352661","building":"warehouse","other":{"addr:city":"Colchester","addr:postcode":"CO1 1BX"}}, "geometry":{"type":"MultiPolygon","coordinates":[[[[0.89945,51.89871],[0.89946,51.89857],[0.89991,51.89859],[0.89989,51.89873],[0.89945,51.89871]]]]}},
{ "type":"Feature","properties":{"osm_way_id":"358628891","name":"Jump Street","building":"warehouse","leisure":"trampoline_park","other":{"addr:city":"Colchester","addr:housenumber":"21","addr:postcode":"CO1 1BX","addr:street":"Mason Road","fhrs:id":"761376","phone":"+44 1206 911035","website":"https:\/\/www.jumpstreet.co.uk\/"}}, "geometry":{"type":"MultiPolygon","coordinates":[[[[0.90045,51.89915],[0.90107,51.89917],[0.90111,51.89884],[0.90048,51.89882],[0.90045,51.89915]]]]}},
{ "type":"Feature","properties":{"osm_way_id":"358629332","building":"warehouse"},"geometry":{"type":"MultiPolygon","coordinates":[[[[0.90214,51.8996],[0.90181,51.89962],[0.90182,51.89968],[0.90215,51.89966],[0.90214,51.8996]]]]}},
{ "type":"Feature","properties":{"osm_way_id":"358629803","building":"warehouse"},"geometry":{"type":"MultiPolygon","coordinates":[[[[0.90138,51.89967],[0.90139,51.89972],[0.90158,51.8997],[0.90157,51.89966],[0.90138,51.89967]]]]}},
{ "type":"Feature","properties":{"osm_way_id":"358630742","building":"warehouse"},"geometry":{"type":"MultiPolygon","coordinates":[[[[0.90056,51.89869],[0.9013,51.89872],[0.90138,51.89872],[0.90139,51.89863],[0.90126,51.89862],[0.90126,51.89859],[0.90136,51.8986],[0.90138,51.89846],[0.90201,51.89848],[0.90202,51.89836],[0.9006,51.89831],[0.90056,51.89869]]]]}},
{ "type":"Feature","properties":{"osm_way_id":"358631623","building":"warehouse"},"geometry":{"type":"MultiPolygon","coordinates":[[[[0.90144,51.89957],[0.90136,51.89929],[0.90083,51.89934],[0.9009,51.89962],[0.90144,51.89957]]]]}},
{ "type":"Feature","properties":{"osm_way_id":"358631815","building":"warehouse"},"geometry":{"type":"MultiPolygon","coordinates":[[[[0.90077,51.89944],[0.90024,51.89949],[0.90028,51.89966],[0.90081,51.89961],[0.90077,51.89944]]]]}},
{ "type":"Feature","properties":{"osm_way_id":"358631862","building":"warehouse"},"geometry":{"type":"MultiPolygon","coordinates":[[[[0.89945,51.89938],[0.89942,51.8996],[0.89978,51.89962],[0.89981,51.89939],[0.89945,51.89938]]]]}},
{ "type":"Feature","properties":{"osm_way_id":"407957085","building":"warehouse"},"geometry":{"type":"MultiPolygon","coordinates":[[[[0.91607,51.78042],[0.91607,51.78032],[0.91642,51.78033],[0.91641,51.78043],[0.91607,51.78042]]]]}},
{ "type":"Feature","properties":{"osm_way_id":"481341534","name":"Go Bananas","building":"warehouse"},"geometry":{"type":"MultiPolygon","coordinates":[[[[0.89936,51.89907],[0.89933,51.89934],[0.89981,51.89936],[0.89983,51.89922],[0.89984,51.89908],[0.8998,51.89908],[0.89936,51.89907]]]]}}
]
}
