{
"type": "FeatureCollection",
"features": [
{ "type":"Feature","properties":{"osm_id":"286574888","name":"Sainsbury's","other":{"brand:wikidata":"Q152096","shop":"supermarket"}}, "geometry":{"type":"Point","coordinates":[-3.19326,51.53881 ]}},
{ "type":"Feature","properties":{"osm_id":"674080174","name":"Tesco Express","other":{"addr:city":"Cardiff","addr:housename":"Mermaid Quay","addr:postcode":"CF10 5BZ","addr:street":"Bute Street","addr:unit":"17","brand":"Tesco Express","brand:wikidata":"Q98456772","brand:wikipedia":"en:Tesco","contact:website":"https:\/\/www.tesco.com\/store-locator\/cardiff\/17-mermaid-quay","fhrs:id":"969076","opening_hours":"Mo-Su 06:00-24:00","operator":"Tesco","shop":"supermarket"}}, "geometry":{"type":"Point","coordinates":[-3.16574,51.46399 ]}},
{ "type":"Feature","properties":{"osm_id":"727835265","name":"Sainsbury's","other":{"addr:city":"Cardiff","addr:country":"GB","addr:housenumber":"129-139","addr:postcode":"CF10 2BJ","addr:street":"Queen Street","addr:suburb":"Cathays","brand":"Sainsbury's","brand:wikidata":"Q152096","brand:wikipedia":"en:Sainsbury's","fhrs:id":"968890","opening_hours":"Mo-Sa 07:00-20:30; Su 11:00-17:00","shop":"supermarket"}}, "geometry":{"type":"Point","coordinates":[-3.17178,51.48314 ]}},
{ "type":"Feature","properties":{"osm_id":"1767956728","name":"Eastern Chinese Supermarket","other":{"addr:city":"Cardiff","addr:housenumber":"26","addr:postcode":"CF11 6AH","addr:street":"Tudor Street","fhrs:id":"968909","shop":"supermarket"}}, "geometry":{"type":"Point","coordinates":[-3.18541,51.47656 ]}},
{ "type":"Feature","properties":{"osm_id":"2168903487","name":"Co-op Food","other":{"addr:city":"Cardiff","addr:housename":"Aquila House","addr:postcode":"CF10 4PH","addr:street":"Pierhead Street","addr:unit":"2","brand":"Co-op Food","brand:wikidata":"Q3277439","brand:wikipedia":"en:Co-op Food","fhrs:id":"970012","opening_hours":"Mo-Su 07:30-22:00","operator":"The Co-operative Group","operator:wikidata":"Q117202","operator:wikipedia":"en:The Co-operative Group","phone":"+44 29 2046 4324","shop":"supermarket","website":"https:\/\/www.coop.co.uk\/store-finder\/CF10-4QP\/pierhead-street"}}, "geometry":{"type":"Point","coordinates":[-3.15935,51.46611 ]}},
{ "type":"Feature","properties":{"osm_id":"3015542464","name":"Co-op Food","other":{"addr:city":"Cardiff","addr:housenumber":"2","addr:postcode":"CF15 8AA","addr:street":"Station Road","brand":"Co-op Food","brand:wikidata":"Q3277439","brand:wikipedia":"en:Co-op Food","fhrs:id":"1009145","shop":"supermarket"}}, "geometry":{"type":"Point","coordinates":[-3.25135,51.51535 ]}},
{ "type":"Feature","properties":{"osm_id":"4346188991","name":"Spar","other":{"addr:city":"Cardiff","addr:postcode":"CF10 2FY","addr:street":"Station Terrace","brand":"Spar","brand:wikidata":"Q610492","brand:wikipedia":"en:SPAR (retailer)","fhrs:id":"1376166","opening_hours":"Mo-Sa 07:00-23:00; Su 09:00-21:00","shop":"supermarket"}}, "geometry":{"type":"Point","coordinates":[-3.1711,51.48191 ]}},
{ "type":"Feature","properties":{"osm_id":"4869883577","name":"Lidl","other":{"addr:city":"Cardiff","addr:postcode":"CF14 2FB","addr:street":"Station Road","brand":"Lidl","brand:wikidata":"Q151954","brand:wikipedia":"en:Lidl","fhrs:id":"979942","shop":"supermarket"}}, "geometry":{"type":"Point","coordinates":[-3.22755,51.50339 ]}},
{ "type":"Feature","properties":{"osm_id":"5969105523","name":"Iceland","other":{"brand":"Iceland","brand:wikidata":"Q721810","shop":"supermarket","wheelchair":"yes"}}, "geometry":{"type":"Point","coordinates":[-3.21934,51.51241 ]}},
{ "type":"Feature","properties":{"osm_id":"7078864834","name":"Lidl","other":{"addr:city":"Cardiff","addr:country":"GB","addr:postcode":"CF24 4HQ","addr:street":"Maindy Road","brand":"Lidl","brand:wikidata":"Q151954","brand:wikipedia":"en:Lidl","fhrs:id":"969034","opening_hours":"Mo-Sa 08:00-22:00; Su 11:00-17:00","phone":"+44 8009 777 766","shop":"supermarket","website":"https:\/\/www.lidl.co.uk\/"}}, "geometry":{"type":"Point","coordinates":[-3.18174,51.49084 ]}},
{ "type":"Feature","properties":{"osm_id":"7512360550","name":"The Food Warehouse","other":{"addr:city":"Cardiff","addr:housename":"Cardiff Bay Retail Park","addr:postcode":"CF11 0JR","addr:street":"Ferry Road","addr:unit":"G","brand":"The Food Warehouse","brand:wikidata":"Q87263899","fhrs:id":"1010698","shop":"supermarket"}}, "geometry":{"type":"Point","coordinates":[-3.18663,51.4585 ]}},
{ "type":"Feature","properties":{"osm_id":"7512701637","name":"Baan Thai Foods","other":{"addr:city":"Cardiff","addr:housenumber":"77","addr:postcode":"CF14 3JP","addr:street":"Whitchurch Road","opening_hours":"Mo-Sa 10:30-18:00; Su Off","phone":"+44 2920 191 032","shop":"supermarket","website":"https:\/\/www.facebook.com\/baanthaifoods\/"}}, "geometry":{"type":"Point","coordinates":[-3.19118,51.50293 ]}},
{ "type":"Feature","properties":{"osm_id":"7516086178","name":"Lidl","other":{"addr:city":"Cardiff","addr:country":"GB","addr:housename":"Cardiff Bay Retail Park","addr:postcode":"CF11 0JR","addr:street":"Ferry Road","addr:unit":"J","brand":"Lidl","brand:wikidata":"Q151954","brand:wikipedia":"en:Lidl","fhrs:id":"1426039","old_name":"Poundstretcher","shop":"supermarket"}}, "geometry":{"type":"Point","coordinates":[-3.18739,51.46032 ]}},
{ "type":"Feature","properties":{"osm_id":"8011122603","name":"Aldi","other":{"addr:city":"Cardiff","addr:postcode":"CF14 3AT","addr:street":"Western Avenue","brand":"ALDI","brand:wikidata":"Q41171672","brand:wikipedia":"en:Aldi","contact:website":"https:\/\/www.aldi.co.uk\/store\/s-uk-E1334","fhrs:id":"1149644","opening_hours":"Mo-Sa 08:00-22:00; Su 10:00-16:00","opening_hours:covid19":"Mo-Sa 08:00-22:00; Su 10:00-16:00","shop":"supermarket"}}, "geometry":{"type":"Point","coordinates":[-3.20509,51.50112 ]}},
{ "type":"Feature","properties":{"osm_id":"8011122605","name":"Tesco Extra Cardiff","other":{"addr:city":"Cardiff","addr:housename":"Tesco Extra Cardiff","addr:postcode":"CF14 3AT","addr:street":"Excelsior Road","brand":"Tesco Extra","brand:wikidata":"Q25172225","brand:wikipedia":"en:Tesco Extra","fhrs:id":"968826","opening_hours":"Mo-Sa 00:00-00:00, Su 10:00-16:00","opening_hours:covid19":"Mo-Sa 00:00-00:00, Su 10:00-16:00","operator":"Tesco","payment:cash":"yes","payment:cheque":"yes","payment:credit_cards":"yes","payment:debit_cards":"yes","phone":"+44 3452 666 581","shop":"supermarket","website":"https:\/\/www.tesco.com\/store-locator\/cardiff\/excelsior-estate","wheelchair":"yes"}}, "geometry":{"type":"Point","coordinates":[-3.20629,51.49845 ]}},
{ "type":"Feature","properties":{"osm_id":"8238633313","name":"Tesco Metro Cardiff Capitol Centre","other":{"addr:city":"Cardiff","addr:housenumber":"7-9","addr:postcode":"CF10 2HQ","addr:street":"Capitol Arcade","brand":"Tesco Metro","brand:wikidata":"Q57551648","fhrs:id":"969919","operator":"Tesco","shop":"supermarket"}}, "geometry":{"type":"Point","coordinates":[-3.17319,51.48247 ]}},
{ "type":"Feature","properties":{"osm_id":"8307650792","name":"Tesco Metro","other":{"addr:city":"Cardiff","addr:housenumber":"11-17","addr:postcode":"CF24 3LH","addr:street":"Albany Road","brand":"Tesco Metro","brand:wikidata":"Q57551648","fhrs:id":"968367","shop":"supermarket"}}, "geometry":{"type":"Point","coordinates":[-3.17064,51.49298 ]}},
{ "type":"Feature","properties":{"osm_id":"8307650795","name":"Iceland","other":{"addr:city":"Cardiff","addr:housenumber":"23-27","addr:postcode":"CF24 3LH","addr:street":"Albany Road","brand":"Iceland","brand:wikidata":"Q721810","fhrs:id":"968369","shop":"supermarket"}}, "geometry":{"type":"Point","coordinates":[-3.17025,51.49308 ]}},
{ "type":"Feature","properties":{"osm_id":"8423764668","name":"Canton Fruit Market","other":{"addr:city":"Cardiff","addr:housenumber":"238A","addr:postcode":"CF5 1GY","addr:street":"Cowbridge Road East","fhrs:id":"970445","shop":"supermarket"}}, "geometry":{"type":"Point","coordinates":[-3.20624,51.48213 ]}},
{ "type":"Feature","properties":{"osm_id":"8522857708","name":"M&S Foodhall","other":{"addr:city":"Cardiff","addr:postcode":"CF23 9FF","addr:street":"Newport Road","addr:unit":"4","brand":"M&S Foodhall","brand:wikidata":"Q714491","brand:wikipedia":"en:Marks & Spencer","fhrs:id":"969273","shop":"supermarket"}}, "geometry":{"type":"Point","coordinates":[-3.13908,51.49907 ]}},
{ "type":"Feature","properties":{"osm_id":"8902602848","name":"Masala Bazaar","other":{"addr:city":"Cardiff","addr:housenumber":"195-197","addr:postcode":"CF24 3BT","addr:street":"Richmond Road","fhrs:id":"969391","shop":"supermarket"}}, "geometry":{"type":"Point","coordinates":[-3.17245,51.49242 ]}},
{ "type":"Feature","properties":{"osm_id":"8908968258","name":"International Food Centre","other":{"addr:city":"Cardiff","addr:housenumber":"101","addr:postcode":"CF24 3BN","addr:street":"City Road","fhrs:id":"970231","shop":"supermarket"}}, "geometry":{"type":"Point","coordinates":[-3.16796,51.48849 ]}},
{ "type":"Feature","properties":{"osm_id":"8926855445","name":"Ripple Living","other":{"addr:city":"Cardiff","addr:housenumber":"102","addr:postcode":"CF24 3RT","addr:street":"Albany Road","fhrs:id":"1087391","shop":"supermarket"}}, "geometry":{"type":"Point","coordinates":[-3.16534,51.49406 ]}},
{ "type":"Feature","properties":{"osm_id":"9403173207","name":"Jing Xing Express","other":{"addr:city":"Cardiff","addr:housenumber":"155","addr:postcode":"CF24 3BQ","addr:street":"City Road","fhrs:id":"970863","phone":"+44 2920 486777","shop":"supermarket","website":"https:\/\/www.jingxingexpress.com\/cardiff\/"}}, "geometry":{"type":"Point","coordinates":[-3.16976,51.48998 ]}},
{ "type":"Feature","properties":{"osm_id":"9441977537","name":"Clare Foods","other":{"addr:city":"Cardiff","addr:housenumber":"128A","addr:postcode":"CF11 6NH","addr:street":"Penarth Road","fhrs:id":"1209683","shop":"supermarket"}}, "geometry":{"type":"Point","coordinates":[-3.18611,51.47043 ]}},
{ "type":"Feature","properties":{"osm_way_id":"22841570","name":"Aldi","building":"yes","shop":"supermarket","other":{"addr:city":"Cardiff","addr:postcode":"CF5 5NU","addr:street":"Treseder Way","brand":"ALDI","brand:wikidata":"Q41171672","brand:wikipedia":"en:Aldi","building:levels":"1","fhrs:id":"968873"}}, "geometry":{"type":"MultiPolygon","coordinates":[[[[-3.2379,51.48032],[-3.23723,51.47991],[-3.23693,51.4801],[-3.2376,51.48051],[-3.2379,51.48032]]]]}},
{ "type":"Feature","properties":{"osm_way_id":"22843376","name":"Co-op Food","building":"yes","shop":"supermarket","other":{"addr:city":"Cardiff","addr:housenumber":"329","addr:postcode":"CF5 1JD","addr:street":"Cowbridge Road East","addr:suburb":"Canton","brand":"Co-op Food","brand:wikidata":"Q3277439","brand:wikipedia":"en:Co-op Food","fhrs:id":"1028123","opening_hours":"Mo-Sa 07:00-22:00; Su 10:00-16:00","operator":"The Co-operative Group","operator:wikidata":"Q117202","operator:wikipedia":"en:The Co-operative Group","phone":"+44 2920 645936"}}, "geometry":{"type":"MultiPolygon","coordinates":[[[[-3.2053,51.48156],[-3.20529,51.48161],[-3.20548,51.48162],[-3.20553,51.48136],[-3.2054,51.48135],[-3.20541,51.48134],[-3.20476,51.48131],[-3.20472,51.48132],[-3.20466,51.48134],[-3.20471,51.48139],[-3.2048,51.48149],[-3.20492,51.48145],[-3.20491,51.48153],[-3.2053,51.48156]]]]}},
{ "type":"Feature","properties":{"osm_way_id":"24516098","name":"Asda","building":"yes","shop":"supermarket","other":{"addr:city":"Cardiff","addr:country":"GB","addr:postcode":"CF14 7EW","brand":"Asda","brand:wikidata":"Q297410","brand:wikipedia":"en:Asda","contact:facebook":"https:\/\/www.facebook.com\/asda\/","contact:twitter":"@asda","contact:website":"https:\/\/storelocator.asda.com\/wales\/cardiff\/longwood-drive-coryton-roundabout","fhrs:id":"968333","operator":"Asda Stores Ltd"}}, "geometry":{"type":"MultiPolygon","coordinates":[[[[-3.24263,51.52405],[-3.24238,51.52355],[-3.24136,51.52376],[-3.24148,51.52398],[-3.24105,51.52406],[-3.24122,51.52439],[-3.24113,51.5244],[-3.2412,51.52454],[-3.24127,51.5247],[-3.24131,51.52469],[-3.24168,51.52462],[-3.2418,51.52489],[-3.24274,51.5247],[-3.24272,51.52468],[-3.24242,51.52409],[-3.24263,51.52405]]]]}},
{ "type":"Feature","properties":{"osm_way_id":"26235550","name":"Morrisons","building":"supermarket","shop":"supermarket","other":{"addr:city":"Cardiff","addr:postcode":"CF14 5EP","addr:street":"Ashbourn Way","brand":"Morrisons","brand:wikidata":"Q922344","brand:wikipedia":"en:Morrisons","fhrs:id":"969097","wheelchair":"yes"}}, "geometry":{"type":"MultiPolygon","coordinates":[[[[-3.20022,51.52514],[-3.19909,51.52523],[-3.19909,51.52518],[-3.19864,51.52523],[-3.19876,51.52574],[-3.19907,51.52571],[-3.1991,51.52581],[-3.2003,51.52573],[-3.20022,51.52514]]]]}},
{ "type":"Feature","properties":{"osm_way_id":"26249647","name":"Lidl","building":"yes","shop":"supermarket","other":{"addr:city":"Cardiff","addr:country":"GB","addr:housenumber":"170","addr:postcode":"CF14 4HH","addr:street":"Maes-y-coed Road","brand":"Lidl","brand:wikidata":"Q151954","brand:wikipedia":"en:Lidl","fhrs:id":"968867"}}, "geometry":{"type":"MultiPolygon","coordinates":[[[[-3.2007,51.52043],[-3.20044,51.52045],[-3.19995,51.52048],[-3.19993,51.52032],[-3.20001,51.52032],[-3.19998,51.52013],[-3.201,51.52009],[-3.20104,51.5203],[-3.20069,51.52031],[-3.2007,51.52043]]]]}},
{ "type":"Feature","properties":{"osm_way_id":"27027543","name":"Tesco Extra","building":"yes","shop":"supermarket","other":{"addr:city":"Cardiff","addr:postcode":"CF24 2HP","addr:street":"Eastern Bay Link Road","branch":"Pengam Green","brand":"Tesco Extra","brand:wikidata":"Q25172225","brand:wikipedia":"en:Tesco Extra","fhrs:id":"968911","opening_hours":"Mo-Fr 06:00-00:00; Sa 06:00-22:00; Su 10:00-16:00","phone":"+44 345 677 9129","website":"https:\/\/www.tesco.com\/store-locator\/cardiff\/eastern-bay-road","wheelchair":"yes"}}, "geometry":{"type":"MultiPolygon","coordinates":[[[[-3.12828,51.48735],[-3.12747,51.48697],[-3.12746,51.48698],[-3.12632,51.48793],[-3.12643,51.48798],[-3.12658,51.48785],[-3.12728,51.48817],[-3.12729,51.48818],[-3.12791,51.48767],[-3.12806,51.48774],[-3.12824,51.48759],[-3.12808,51.48752],[-3.12828,51.48735]]]]}},
{ "type":"Feature","properties":{"osm_way_id":"27028059","name":"Tesco","building":"yes","shop":"supermarket","other":{"brand":"Tesco","brand:wikidata":"Q487494","brand:wikipedia":"en:Tesco"}}, "geometry":{"type":"MultiPolygon","coordinates":[[[[-3.10419,51.52451],[-3.10419,51.5245],[-3.10392,51.52403],[-3.10383,51.52405],[-3.10379,51.52398],[-3.10339,51.52407],[-3.10343,51.52413],[-3.10265,51.5243],[-3.10292,51.52479],[-3.10419,51.52451]]]]}},
{ "type":"Feature","properties":{"osm_way_id":"27145601","name":"Asda","building":"yes","shop":"supermarket","other":{"addr:city":"Cardiff","addr:country":"GB","addr:housename":"Ferry Road Retail Park","addr:postcode":"CF11 0JR","addr:street":"Ferry Road","branch":"Cardiff Bay","brand":"Asda","brand:wikidata":"Q297410","brand:wikipedia":"en:Asda","contact:facebook":"https:\/\/www.facebook.com\/asda\/","contact:twitter":"@asda","contact:website":"https:\/\/storelocator.asda.com\/wales\/cardiff\/ferry-road-retail-park","designation":"Cardiff Bay Superstore","fhrs:id":"968778","opening_hours":"Mo 07:00-00:00; Tu-Fr 00:00-24:00; Sa 00:00-22:00; Su 10:30-16:30","operator":"Asda Stores Ltd","phone":"+44 29 2034 0276","website":"https:\/\/storelocator.asda.com\/wales\/cardiff\/ferry-road-retail-park"}}, "geometry":{"type":"MultiPolygon","coordinates":[[[[-3.18474,51.45535],[-3.18479,51.45544],[-3.18479,51.45544],[-3.18485,51.45553],[-3.18485,51.45554],[-3.18485,51.45554],[-3.185,51.45551],[-3.18502,51.45551],[-3.18503,51.4555],[-3.18521,51.4558],[-3.18522,51.45581],[-3.18528,51.45591],[-3.18535,51.45604],[-3.18536,51.45605],[-3.18538,51.45609],[-3.18541,51.45612],[-3.18538,51.45613],[-3.18524,51.45616],[-3.18537,51.45637],[-3.18458,51.45656],[-3.18448,51.4564],[-3.18431,51.45645],[-3.1843,51.45644],[-3.1842,51.45628],[-3.18408,51.4563],[-3.18406,51.45626],[-3.18403,51.45627],[-3.18382,51.45593],[-3.18388,51.45592],[-3.1838,51.45578],[-3.18388,51.45576],[-3.18378,51.4556],[-3.18398,51.45555],[-3.18398,51.45554],[-3.18474,51.45535]]]]}},
{ "type":"Feature","properties":{"osm_way_id":"27145612","name":"ALDI","building":"yes","shop":"supermarket","other":{"addr:city":"Cardiff","addr:housename":"Cardiff Bay Retail Park","addr:postcode":"CF11 0JR","addr:street":"Ferry Road","brand":"ALDI","brand:wikidata":"Q41171672","brand:wikipedia":"en:Aldi","designation":"Cardiff","fhrs:id":"968807"}}, "geometry":{"type":"MultiPolygon","coordinates":[[[[-3.18334,51.45464],[-3.18327,51.45452],[-3.18327,51.45452],[-3.18322,51.45453],[-3.18308,51.45429],[-3.18307,51.45427],[-3.18306,51.45425],[-3.18264,51.45435],[-3.18263,51.45435],[-3.1827,51.45448],[-3.18277,51.45446],[-3.18293,51.45474],[-3.18334,51.45464]]]]}},
{ "type":"Feature","properties":{"osm_way_id":"27279242","name":"Lidl","building":"yes","shop":"supermarket","other":{"addr:city":"Cardiff","addr:postcode":"CF5 5TD","addr:street":"Cowbridge Road West","brand":"Lidl","brand:wikidata":"Q151954","brand:wikipedia":"en:Lidl","fhrs:id":"968836"}}, "geometry":{"type":"MultiPolygon","coordinates":[[[[-3.25065,51.47421],[-3.25039,51.4744],[-3.25061,51.47452],[-3.25042,51.47466],[-3.25043,51.47471],[-3.2503,51.4748],[-3.25023,51.4748],[-3.25021,51.47482],[-3.24951,51.47444],[-3.24964,51.47435],[-3.24966,51.47436],[-3.25025,51.47392],[-3.25051,51.47405],[-3.25065,51.47421]]]]}},
{ "type":"Feature","properties":{"osm_way_id":"27661227","name":"Lidl","building":"yes","shop":"supermarket","other":{"addr:city":"Cardiff","addr:postcode":"CF24 5EH","addr:street":"East Tyndall Street","brand":"Lidl","brand:wikidata":"Q151954","brand:wikipedia":"en:Lidl","fhrs:id":"968810"}}, "geometry":{"type":"MultiPolygon","coordinates":[[[[-3.15726,51.47932],[-3.1578,51.4792],[-3.1581,51.47972],[-3.15756,51.47984],[-3.15726,51.47932]]]]}},
{ "type":"Feature","properties":{"osm_way_id":"27667198","name":"Morrisons","building":"yes","shop":"supermarket","other":{"addr:city":"Cardiff","addr:housenumber":"507","addr:postcode":"CF23 9UF","addr:street":"Newport Road","brand":"Morrisons","brand:wikidata":"Q922344","brand:wikipedia":"en:Morrisons"}}, "geometry":{"type":"MultiPolygon","coordinates":[[[[-3.14227,51.50043],[-3.14234,51.50032],[-3.14249,51.50036],[-3.14255,51.50027],[-3.14257,51.50024],[-3.1424,51.50021],[-3.1425,51.50006],[-3.14241,51.50004],[-3.14253,51.49987],[-3.14256,51.49982],[-3.14251,51.49981],[-3.1425,51.49981],[-3.14248,51.49985],[-3.14247,51.49985],[-3.1424,51.49983],[-3.14238,51.49983],[-3.14199,51.49973],[-3.14182,51.49969],[-3.14176,51.49968],[-3.14172,51.49967],[-3.14174,51.49964],[-3.14157,51.4996],[-3.1415,51.4997],[-3.14146,51.49976],[-3.14143,51.49975],[-3.1414,51.49974],[-3.14113,51.50019],[-3.14124,51.50021],[-3.14125,51.50018],[-3.14142,51.50023],[-3.1416,51.50027],[-3.14158,51.5003],[-3.1417,51.50033],[-3.14171,51.5003],[-3.1419,51.50034],[-3.14188,51.50037],[-3.142,51.5004],[-3.14202,51.50037],[-3.14216,51.5004],[-3.14227,51.50043]]]]}},
{ "type":"Feature","properties":{"osm_way_id":"27669091","name":"Aldi","building":"yes","shop":"supermarket","other":{"addr:city":"Cardiff","addr:postcode":"CF24 1PQ","addr:street":"Newport Road","addr:unit":"3a","brand":"ALDI","brand:wikidata":"Q41171672","brand:wikipedia":"en:Aldi","fhrs:id":"970597"}}, "geometry":{"type":"MultiPolygon","coordinates":[[[[-3.14542,51.49201],[-3.14579,51.49182],[-3.14631,51.49219],[-3.14595,51.49239],[-3.14554,51.49209],[-3.14542,51.49201]]]]}},
{ "type":"Feature","properties":{"osm_way_id":"27799590","name":"Asda","building":"yes","shop":"supermarket","other":{"addr:city":"Pontprennau","addr:country":"GB","addr:housename":"Cardiff Gate Retail Park","addr:housenumber":"8","addr:postcode":"CF23 8NL","addr:street":"Dering Road","brand":"Asda","brand:wikidata":"Q297410","brand:wikipedia":"en:Asda","contact:facebook":"https:\/\/www.facebook.com\/asda\/","contact:phone":"+4429 2054 7400","contact:twitter":"@asda","contact:website":"https:\/\/storelocator.asda.com\/wales\/cardiff\/8-dering-road-pontprennau","fhrs:id":"968745","opening_hours":"Mo 07:00-11:59;Tu-Fr 00:00-23:59;Sa 00:00-22:00;Su 10:00-16:30","operator":"Asda Stores Ltd"}}, "geometry":{"type":"MultiPolygon","coordinates":[[[[-3.12874,51.53525],[-3.12874,51.53514],[-3.12905,51.53514],[-3.12905,51.53476],[-3.12905,51.53461],[-3.12874,51.53461],[-3.12874,51.53449],[-3.12838,51.53449],[-3.12834,51.53444],[-3.1282,51.53449],[-3.12817,51.53449],[-3.12813,51.53444],[-3.12811,51.53445],[-3.12808,51.53441],[-3.12762,51.53441],[-3.1276,51.53449],[-3.12749,51.53449],[-3.12749,51.53461],[-3.12734,51.53461],[-3.12732,51.53512],[-3.12758,51.53512],[-3.12758,51.53523],[-3.12805,51.53524],[-3.12805,51.53528],[-3.12822,51.53528],[-3.12822,51.53534],[-3.12839,51.53535],[-3.12839,51.5353],[-3.12848,51.5353],[-3.1285,51.53525],[-3.12874,51.53525]]]]}},
{ "type":"Feature","properties":{"osm_way_id":"27828744","name":"Waitrose","building":"retail","shop":"supermarket","other":{"addr:city":"Cardiff","addr:postcode":"CF23 8AN","addr:street":"Croescadarn Close","brand":"Waitrose","brand:wikidata":"Q771734","brand:wikipedia":"en:Waitrose","fhrs:id":"969270","official_name":"Waitrose & Partners","opening_hours":"Mo-Sa 07:30-21:00; Su 10:00-16:00","operator":"Waitrose & Partners","wheelchair":"yes"}}, "geometry":{"type":"MultiPolygon","coordinates":[[[[-3.13783,51.52989],[-3.13779,51.52995],[-3.13775,51.52994],[-3.13772,51.52999],[-3.13775,51.53],[-3.13739,51.5305],[-3.13759,51.53056],[-3.13805,51.53068],[-3.13816,51.53053],[-3.13819,51.53054],[-3.13833,51.53035],[-3.13838,51.53037],[-3.13844,51.5303],[-3.13841,51.53029],[-3.13838,51.53028],[-3.13852,51.53009],[-3.13783,51.52989]]]]}},
{ "type":"Feature","properties":{"osm_way_id":"27828756","name":"Lidl","building":"retail","shop":"supermarket","other":{"addr:country":"GB","addr:postcode":"CF23 8HA","addr:street":"Caxton Place","brand":"Lidl","brand:wikidata":"Q151954","brand:wikipedia":"en:Lidl","building:levels":"1","fhrs:id":"970563","opening_hours":"Mo-Sa 08:00-22:00; Su 10:00-16:00"}}, "geometry":{"type":"MultiPolygon","coordinates":[[[[-3.13714,51.52944],[-3.13732,51.52934],[-3.13727,51.52931],[-3.13738,51.52925],[-3.138,51.52968],[-3.13774,51.52982],[-3.13764,51.52979],[-3.13749,51.52969],[-3.13742,51.52973],[-3.13732,51.52966],[-3.1374,51.52962],[-3.13724,51.52951],[-3.13714,51.52944]]]]}},
{ "type":"Feature","properties":{"osm_way_id":"27951388","name":"ALDI","building":"yes","shop":"supermarket","other":{"addr:city":"Cardiff","addr:postcode":"CF23 8SQ","addr:street":"Dartington Drive","brand":"ALDI","brand:wikidata":"Q41171672","brand:wikipedia":"en:Aldi","opening_hours":"8:00-22:00"}}, "geometry":{"type":"MultiPolygon","coordinates":[[[[-3.15121,51.53108],[-3.15123,51.53102],[-3.1513,51.53103],[-3.15138,51.53081],[-3.15136,51.53081],[-3.15133,51.53077],[-3.15111,51.53075],[-3.1511,51.53077],[-3.15108,51.53077],[-3.15069,51.53072],[-3.15064,51.53071],[-3.15058,51.53087],[-3.15051,51.53086],[-3.15047,51.53099],[-3.15056,51.531],[-3.15056,51.53102],[-3.15068,51.53104],[-3.15069,51.53101],[-3.15102,51.53106],[-3.15102,51.53107],[-3.15109,51.53108],[-3.15109,51.53107],[-3.15121,51.53108]]]]}},
{ "type":"Feature","properties":{"osm_way_id":"89502282","name":"Asda","building":"yes","shop":"supermarket","other":{"addr:city":"Cardiff","addr:country":"GB","addr:housename":"Capital Retail Park","addr:postcode":"CF11 8EG","addr:street":"Leckwith Road","addr:suburb":"Canton","brand":"Asda","brand:wikidata":"Q297410","brand:wikipedia":"en:Asda","contact:facebook":"https:\/\/www.facebook.com\/asda\/","contact:phone":"+44 29 2072 9620","contact:twitter":"@asda","contact:website":"https:\/\/storelocator.asda.com\/wales\/cardiff\/capital-retail-park-leckwith-road","fhrs:id":"969281","opening_hours":"Mo-Sa 07:00-22:00; Su 10:00-16:00","operator":"Asda Stores Ltd"}}, "geometry":{"type":"MultiPolygon","coordinates":[[[[-3.20915,51.47156],[-3.20889,51.47177],[-3.20891,51.47178],[-3.20877,51.47189],[-3.20875,51.47188],[-3.20845,51.47211],[-3.20834,51.47206],[-3.20829,51.47209],[-3.20815,51.47202],[-3.20801,51.47195],[-3.20794,51.47192],[-3.20748,51.47169],[-3.20751,51.47167],[-3.20753,51.47166],[-3.20735,51.47157],[-3.20819,51.47091],[-3.2088,51.47121],[-3.20865,51.47132],[-3.20915,51.47156]]]]}},
{ "type":"Feature","properties":{"osm_way_id":"91917283","name":"Dragon Supermarket","building":"yes","shop":"supermarket","other":{"addr:city":"Cardiff","addr:housenumber":"48-50","addr:postcode":"CF11 9DU","addr:street":"Cowbridge Road East","fhrs:id":"1276911"}}, "geometry":{"type":"MultiPolygon","coordinates":[[[[-3.19478,51.48133],[-3.19471,51.48149],[-3.1945,51.48146],[-3.19452,51.48141],[-3.19449,51.4814],[-3.19451,51.48136],[-3.1945,51.48134],[-3.19451,51.48131],[-3.19452,51.48129],[-3.19478,51.48133]]]]}},
{ "type":"Feature","properties":{"osm_way_id":"92403658","name":"Cardiff Food Centre","building":"yes","shop":"supermarket","other":{"addr:city":"Cardiff","addr:postcode":"CF10 5FG","addr:street":"Dumballs Road","addr:unit":"1-3","building:levels":"1","fhrs:id":"971096","phone":"+44 29 2048 0802","website":"http:\/\/cardifffoodcentre.co.uk"}}, "geometry":{"type":"MultiPolygon","coordinates":[[[[-3.16964,51.46677],[-3.17003,51.46675],[-3.17,51.46654],[-3.16961,51.46656],[-3.16964,51.46677]]]]}},
{ "type":"Feature","properties":{"osm_way_id":"94702967","name":"Morrisons - Cardiff Bay","building":"yes","shop":"supermarket","other":{"addr:city":"Cardiff","addr:housename":"International Sports Village","addr:postcode":"CF11 0JP","addr:street":"International Drive","brand":"Morrisons","brand:wikidata":"Q922344","brand:wikipedia":"en:Morrisons","designation":"Cardiff","fhrs:id":"969132","operator":"Morrisons","wikidata":"Q5038438"}}, "geometry":{"type":"MultiPolygon","coordinates":[[[[-3.18257,51.45215],[-3.18224,51.45222],[-3.18224,51.45223],[-3.18217,51.45224],[-3.18219,51.45229],[-3.18183,51.45237],[-3.18185,51.45241],[-3.18168,51.45244],[-3.18141,51.4525],[-3.18174,51.45309],[-3.18198,51.45304],[-3.18201,51.45311],[-3.18209,51.45309],[-3.18213,51.45316],[-3.18253,51.45307],[-3.18259,51.45317],[-3.18264,51.45316],[-3.18283,51.45312],[-3.18278,51.45301],[-3.18285,51.453],[-3.18263,51.45262],[-3.1828,51.45259],[-3.18257,51.45215]]]]}},
{ "type":"Feature","properties":{"osm_way_id":"102658355","name":"Co-op Food","building":"yes","shop":"supermarket","other":{"addr:city":"Cardiff","addr:postcode":"CF5 2SF","addr:street":"Radyr Court Road","brand":"Co-op Food","brand:wikidata":"Q3277439","brand:wikipedia":"en:Co-op Food","fhrs:id":"969471"}}, "geometry":{"type":"MultiPolygon","coordinates":[[[[-3.24037,51.5042],[-3.23997,51.50432],[-3.23994,51.50427],[-3.23986,51.50417],[-3.23989,51.50416],[-3.23971,51.50393],[-3.23998,51.50384],[-3.24015,51.50406],[-3.24025,51.50403],[-3.2403,51.50408],[-3.24028,51.50408],[-3.24033,51.50415],[-3.24037,51.5042]]]]}},
{ "type":"Feature","properties":{"osm_way_id":"105804098","name":"The Co-operative Food","building":"yes","shop":"supermarket"},"geometry":{"type":"MultiPolygon","coordinates":[[[[-3.21937,51.51204],[-3.21935,51.51205],[-3.21929,51.51199],[-3.21901,51.51208],[-3.2189,51.51215],[-3.21917,51.51231],[-3.21933,51.51222],[-3.21949,51.51216],[-3.21943,51.5121],[-3.21945,51.51209],[-3.21942,51.51205],[-3.21939,51.51206],[-3.21937,51.51204]]]]}},
{ "type":"Feature","properties":{"osm_way_id":"120192503","name":"Co-op Food","building":"yes","shop":"supermarket","other":{"addr:city":"Cardiff","addr:housenumber":"200","addr:postcode":"CF11 9DF","addr:street":"King's Road","brand":"Co-op Food","brand:wikidata":"Q3277439","brand:wikipedia":"en:Co-op Food","fhrs:id":"970430","opening_hours":"Mo-Su 07:00-22:00","operator":"The Co-operative Group","operator:wikidata":"Q117202","operator:wikipedia":"en:The Co-operative Group","wheelchair":"yes"}}, "geometry":{"type":"MultiPolygon","coordinates":[[[[-3.20086,51.48617],[-3.20063,51.48621],[-3.20055,51.48605],[-3.20079,51.48601],[-3.20086,51.48617]]]]}},
{ "type":"Feature","properties":{"osm_way_id":"749963911","name":"Lidl","building":"yes","shop":"supermarket","other":{"addr:city":"Cardiff","addr:postcode":"CF23 9AN","addr:street":"Colchester Avenue","brand":"Lidl","brand:wikidata":"Q151954","brand:wikipedia":"en:Lidl","fhrs:id":"968893"}}, "geometry":{"type":"MultiPolygon","coordinates":[[[[-3.14424,51.49691],[-3.14453,51.49697],[-3.14459,51.49688],[-3.1445,51.49687],[-3.1446,51.4967],[-3.14481,51.49633],[-3.14435,51.49623],[-3.144,51.49686],[-3.14424,51.49691]]]]}},
{ "type":"Feature","properties":{"osm_way_id":"785416134","name":"Sainsbury's","building":"yes","shop":"supermarket","other":{"addr:city":"Cardiff","addr:postcode":"CF23 9AN","addr:street":"Colchester Avenue","brand":"Sainsbury's","brand:wikidata":"Q152096","brand:wikipedia":"en:Sainsbury's","fhrs:id":"968429"}}, "geometry":{"type":"MultiPolygon","coordinates":[[[[-3.14884,51.49542],[-3.14853,51.49531],[-3.1481,51.49515],[-3.14794,51.49509],[-3.14777,51.49526],[-3.14773,51.49524],[-3.14731,51.49566],[-3.14748,51.49571],[-3.14743,51.49575],[-3.14752,51.49578],[-3.14733,51.49599],[-3.14738,51.49604],[-3.14801,51.49618],[-3.1482,51.49599],[-3.14826,51.49601],[-3.14884,51.49542]]]]}},
{ "type":"Feature","properties":{"osm_way_id":"786353932","name":"The Food Warehouse","building":"yes","shop":"supermarket","other":{"addr:city":"Cardiff","addr:postcode":"CF24 1PQ","addr:street":"Newport Road","addr:unit":"3c","brand":"The Food Warehouse","brand:wikidata":"Q87263899","fhrs:id":"970777"}}, "geometry":{"type":"MultiPolygon","coordinates":[[[[-3.14584,51.49245],[-3.1456,51.49258],[-3.14525,51.49233],[-3.14518,51.49229],[-3.14543,51.49216],[-3.14584,51.49245]]]]}},
{ "type":"Feature","properties":{"osm_way_id":"804935073","name":"Lidl","building":"yes","shop":"supermarket","other":{"addr:city":"Cardiff","addr:postcode":"CF11 8AZ","addr:street":"Leckwith Road","addr:suburb":"Canton","brand":"Lidl","brand:wikidata":"Q151954","brand:wikipedia":"en:Lidl","fhrs:id":"970559","opening_hours":"Mo-Sa 08:00-22:00; Su 10:00-16:00"}}, "geometry":{"type":"MultiPolygon","coordinates":[[[[-3.20543,51.4744],[-3.20497,51.47418],[-3.20488,51.47425],[-3.20489,51.47426],[-3.20495,51.47429],[-3.20482,51.4744],[-3.20487,51.47442],[-3.20464,51.4746],[-3.20458,51.47465],[-3.20472,51.47472],[-3.20473,51.47471],[-3.20492,51.4748],[-3.20543,51.4744]]]]}},
{ "type":"Feature","properties":{"osm_way_id":"851923167","name":"Aldi","building":"yes","shop":"supermarket","other":{"brand":"ALDI","brand:wikidata":"Q41171672","brand:wikipedia":"en:Aldi","building:levels":"1","height":"5","opening_hours:covid19":"open"}}, "geometry":{"type":"MultiPolygon","coordinates":[[[[-3.20216,51.51811],[-3.20214,51.518],[-3.20206,51.51801],[-3.20202,51.51782],[-3.20162,51.51786],[-3.20162,51.51784],[-3.20123,51.51787],[-3.20117,51.51788],[-3.20124,51.51818],[-3.20216,51.51811]]]]}},
{ "type":"Feature","properties":{"osm_way_id":"947202106","name":"Uni Market","building":"yes","shop":"supermarket","other":{"addr:city":"Cardiff","addr:housenumber":"102","addr:postcode":"CF24 4AE","addr:street":"Salisbury Road","building:levels":"3","fhrs:id":"1134880"}}, "geometry":{"type":"MultiPolygon","coordinates":[[[[-3.17394,51.48913],[-3.17383,51.48915],[-3.17375,51.48916],[-3.17373,51.48912],[-3.17382,51.48911],[-3.17381,51.48909],[-3.17392,51.48908],[-3.17394,51.48913]]]]}}
]
}
