{
"type": "FeatureCollection",
"features": [
{ "type":"Feature","properties":{"osm_id":"1729363780","name":"Costcutter","other":{"brand":"Costcutter","brand:wikidata":"Q5175072","brand:wikipedia":"en:Costcutter","shop":"supermarket"}}, "geometry":{"type":"Point","coordinates":[-3.83639,51.22999 ]}},
{ "type":"Feature","properties":{"osm_id":"1743759479","name":"Costcutter","other":{"addr:city":"Barnstaple","addr:county":"Devon","addr:housenumber":"1","addr:postcode":"EX31 3BG","addr:street":"Higher Road","addr:village":"Fremington","fhrs:id":"164779","shop":"supermarket","source:addr":"FHRS Open Data"}}, "geometry":{"type":"Point","coordinates":[-4.12626,51.07203 ]}},
{ "type":"Feature","properties":{"osm_id":"1830272576","name":"Co-op Food","other":{"brand":"Co-op Food","brand:wikidata":"Q3277439","brand:wikipedia":"en:Co-op Food","operator":"The Co-operative Group","operator:wikidata":"Q117202","operator:wikipedia":"en:The Co-operative Group","shop":"supermarket"}}, "geometry":{"type":"Point","coordinates":[-4.05993,51.07999 ]}},
{ "type":"Feature","properties":{"osm_id":"2455175359","name":"Cawthorne's FoodMarket","other":{"addr:city":"Braunton, Devon","addr:housenumber":"22","addr:postcode":"EX33 1AA","addr:street":"Caen Street","phone":"+44 1271 812053","shop":"supermarket"}}, "geometry":{"type":"Point","coordinates":[-4.16338,51.10888 ]}},
{ "type":"Feature","properties":{"osm_id":"3633018138","name":"Co-op Food","other":{"brand":"Co-op Food","brand:wikidata":"Q3277439","brand:wikipedia":"en:Co-op Food","shop":"supermarket"}}, "geometry":{"type":"Point","coordinates":[-3.70333,50.91718 ]}},
{ "type":"Feature","properties":{"osm_id":"3811358533","name":"Johns of Instow","other":{"shop":"supermarket"}}, "geometry":{"type":"Point","coordinates":[-4.1805,51.05097 ]}},
{ "type":"Feature","properties":{"osm_id":"3811388686","name":"Best One","other":{"addr:city":"Barnstaple","addr:county":"Devon","addr:housenumber":"1A","addr:postcode":"EX31 2LL","addr:street":"Babbages","addr:village":"Bickington","fhrs:id":"948768","shop":"supermarket","source:addr":"FHRS Open Data"}}, "geometry":{"type":"Point","coordinates":[-4.09915,51.07352 ]}},
{ "type":"Feature","properties":{"osm_id":"4367041554","ref":"EX34 41","other":{"amenity":"post_box","collection_times":"Mo-Fr 17:30; Sa 11:45"}}, "geometry":{"type":"Point","coordinates":[-4.10758,51.19889 ]}},
{ "type":"Feature","properties":{"osm_way_id":"28071004","name":"Tesco","building":"retail","shop":"supermarket","other":{"addr:city":"Ilfracombe","addr:postcode":"EX34 8PQ","addr:street":"Old Barnstaple Road","alt_name":"Tesco Ilfracombe Superstore","brand":"Tesco","brand:wikidata":"Q487494","brand:wikipedia":"en:Tesco","building:levels":"1","opening_hours":"Mo-Sa 07:00-23:00; Su 10:00-16:00","roof:shape":"flat"}}, "geometry":{"type":"MultiPolygon","coordinates":[[[[-4.10724,51.19879],[-4.10719,51.19878],[-4.10722,51.19871],[-4.10728,51.19872],[-4.10741,51.19837],[-4.10729,51.19835],[-4.10723,51.1985],[-4.10711,51.19848],[-4.10718,51.19827],[-4.10814,51.1984],[-4.10801,51.19875],[-4.10805,51.19876],[-4.1081,51.19876],[-4.10803,51.19896],[-4.10758,51.19889],[-4.10722,51.19884],[-4.10724,51.19879]]]]}},
{ "type":"Feature","properties":{"osm_way_id":"29237601","name":"Tesco Braunton","building":"yes","shop":"supermarket","other":{"brand":"Tesco","brand:wikidata":"Q487494","brand:wikipedia":"en:Tesco"}}, "geometry":{"type":"MultiPolygon","coordinates":[[[[-4.16523,51.10315],[-4.16478,51.10267],[-4.16474,51.10262],[-4.16381,51.10294],[-4.16381,51.10297],[-4.16381,51.10311],[-4.164,51.10304],[-4.16431,51.10339],[-4.16429,51.1034],[-4.16434,51.10346],[-4.1648,51.1033],[-4.16523,51.10315]]]]}},
{ "type":"Feature","properties":{"osm_way_id":"30164105","name":"Tesco Barnstaple","building":"yes","shop":"supermarket","other":{"addr:city":"Barnstaple","addr:postcode":"EX32 8PG","addr:street":"Rose Lane","alt_name":"Tesco Barnstaple Superstore","brand":"Tesco","brand:wikidata":"Q487494","brand:wikipedia":"en:Tesco"}}, "geometry":{"type":"MultiPolygon","coordinates":[[[[-4.03654,51.0732],[-4.03641,51.07343],[-4.03565,51.07327],[-4.03568,51.0732],[-4.03518,51.07309],[-4.03527,51.07292],[-4.03557,51.07299],[-4.03578,51.0726],[-4.03657,51.07277],[-4.03666,51.07261],[-4.03721,51.07273],[-4.0371,51.07293],[-4.03673,51.07285],[-4.03654,51.0732]]]]}},
{ "type":"Feature","properties":{"osm_way_id":"53158340","name":"Lidl","building":"yes","shop":"supermarket","other":{"addr:city":"Barnstaple","addr:postcode":"EX32 8PB","addr:street":"Old Station Road","alt_name":"LIDL Newport","brand":"Lidl","brand:wikidata":"Q151954","fhrs:id":"177957"}}, "geometry":{"type":"MultiPolygon","coordinates":[[[[-4.04506,51.07436],[-4.04489,51.07432],[-4.04455,51.07483],[-4.04486,51.07491],[-4.04506,51.07496],[-4.04517,51.07479],[-4.04511,51.07477],[-4.0453,51.07447],[-4.04503,51.0744],[-4.04506,51.07436]]]]}},
{ "type":"Feature","properties":{"osm_way_id":"162873946","name":"Sainsbury's","building":"yes","shop":"supermarket","other":{"addr:city":"Barnstaple","addr:housename":"Roundswell Business Park","addr:postcode":"EX31 3NH","addr:street":"Gratton Way","alt_name":"Sainsbury's Barnstaple Superstore","brand":"Sainsbury's","brand:wikidata":"Q152096","brand:wikipedia":"en:Sainsbury's","wheelchair":"yes"}}, "geometry":{"type":"MultiPolygon","coordinates":[[[[-4.0848,51.06715],[-4.08355,51.0676],[-4.08346,51.0675],[-4.08366,51.06743],[-4.0833,51.06704],[-4.08313,51.06711],[-4.08321,51.06721],[-4.08268,51.0674],[-4.08251,51.06721],[-4.08298,51.06704],[-4.08286,51.06691],[-4.08366,51.06663],[-4.08375,51.06672],[-4.0838,51.0667],[-4.08378,51.06668],[-4.08385,51.06665],[-4.08387,51.06667],[-4.08425,51.06653],[-4.08423,51.06652],[-4.08429,51.06649],[-4.08431,51.06651],[-4.08457,51.06641],[-4.08494,51.06682],[-4.0848,51.06715]]]]}},
{ "type":"Feature","properties":{"osm_way_id":"172086580","name":"Co-op","building":"yes","shop":"supermarket"},"geometry":{"type":"MultiPolygon","coordinates":[[[[-4.05187,51.08594],[-4.05164,51.08555],[-4.05144,51.0856],[-4.05161,51.08588],[-4.05172,51.08586],[-4.05178,51.08596],[-4.05187,51.08594]]]]}},
{ "type":"Feature","properties":{"osm_way_id":"172086778","name":"Lidl","building":"yes","shop":"supermarket","other":{"addr:city":"Barnstaple","addr:housename":"Barnstaple Retail Park","addr:postcode":"EX31 2BP","addr:street":"Station Road","addr:unit":"F","alt_name":"LIDL Barnstaple","brand":"Lidl","brand:wikidata":"Q151954","brand:wikipedia":"en:Lidl","fhrs:id":"168800"}}, "geometry":{"type":"MultiPolygon","coordinates":[[[[-4.06032,51.07567],[-4.05991,51.07532],[-4.05987,51.0753],[-4.05958,51.07543],[-4.06002,51.07581],[-4.06032,51.07567]]]]}},
{ "type":"Feature","properties":{"osm_way_id":"182192524","name":"Tesco Extra","building":"yes","shop":"supermarket","other":{"addr:city":"Barnstaple","addr:housename":"Barnstaple Retail Park","addr:postcode":"EX31 2AS","alt_name":"Tesco Barnstaple Taw View Extra","brand":"Tesco Extra","brand:wikidata":"Q25172225","brand:wikipedia":"en:Tesco Extra","wheelchair":"yes"}}, "geometry":{"type":"MultiPolygon","coordinates":[[[[-4.06129,51.0732],[-4.06009,51.07345],[-4.06007,51.07346],[-4.05997,51.07329],[-4.06,51.07329],[-4.05966,51.07266],[-4.05997,51.07259],[-4.05994,51.07253],[-4.06009,51.0725],[-4.06029,51.07266],[-4.06086,51.07254],[-4.06114,51.07305],[-4.06118,51.07304],[-4.06121,51.07303],[-4.06129,51.0732]]]]}},
{ "type":"Feature","properties":{"osm_way_id":"237497896","name":"Lidl","building":"yes","shop":"supermarket","other":{"addr:city":"Ilfracombe","addr:country":"GB","addr:postcode":"EX34 8BS","addr:street":"Wilder Road","alt_name":"LIDL Ilfracombe","brand":"Lidl","brand:wikidata":"Q151954","brand:wikipedia":"en:Lidl","fhrs:id":"180857","opening_hours":"Mo-Sa 08:00-21:00;Su 11:00-17:00"}}, "geometry":{"type":"MultiPolygon","coordinates":[[[[-4.12787,51.20856],[-4.12758,51.20821],[-4.12725,51.20833],[-4.12757,51.20867],[-4.12787,51.20856]]]]}},
{ "type":"Feature","properties":{"osm_way_id":"237687180","name":"The Co-operative","building":"yes","shop":"supermarket","other":{"operator":"Somerfield\/Co-operative"}}, "geometry":{"type":"MultiPolygon","coordinates":[[[[-4.07901,51.08694],[-4.07926,51.08673],[-4.07871,51.08646],[-4.07845,51.08669],[-4.07901,51.08694]]]]}},
{ "type":"Feature","properties":{"osm_way_id":"275694469","name":"Sainsbury's","building":"retail","shop":"supermarket","other":{"addr:city":"South Molton","addr:postcode":"EX36 4BQ","addr:street":"New Road","branch":"South Molton Superstore","brand":"Sainsbury's","brand:wikidata":"Q152096","building:levels":"1","nohousenumber":"yes","opening_hours":"Mo-Sa 08:00-20:00; Su 10:00-16:00","roof:levels":"1","roof:shape":"gabled"}}, "geometry":{"type":"MultiPolygon","coordinates":[[[[-3.83044,51.01586],[-3.82999,51.01588],[-3.82997,51.01572],[-3.82962,51.01573],[-3.8296,51.01557],[-3.83033,51.01554],[-3.83035,51.01571],[-3.83043,51.0157],[-3.83044,51.01586]]]]}},
{ "type":"Feature","properties":{"osm_way_id":"399702895","name":"Co-op Food","building":"retail","shop":"supermarket","other":{"addr:city":"Ilfracombe","addr:housenumber":"69","addr:postcode":"EX34 9QE","addr:street":"High Street","brand":"Co-op Food","brand:wikidata":"Q3277439","brand:wikipedia":"en:Co-op Food"}}, "geometry":{"type":"MultiPolygon","coordinates":[[[[-4.1261,51.20642],[-4.12603,51.20636],[-4.12585,51.20643],[-4.12593,51.20648],[-4.1261,51.20642]]]]}},
{ "type":"Feature","properties":{"osm_way_id":"799046577","name":"Asda","building":"yes","shop":"supermarket","other":{"addr:city":"Barnstaple","addr:housename":"Anchorwood Retail Park","addr:postcode":"EX31 2BN","addr:street":"Taw Wharf","brand":"Asda","brand:wikidata":"Q297410","brand:wikipedia":"en:Asda","contact:facebook":"https:\/\/www.facebook.com\/asda\/","contact:phone":"+44 1271 320872","contact:twitter":"@asda","contact:website":"https:\/\/storelocator.asda.com\/south-west\/barnstaple\/anchorwood-retail-park-taw-wharf","fhrs:id":"948760","operator":"Asda Stores Ltd"}}, "geometry":{"type":"MultiPolygon","coordinates":[[[[-4.06568,51.07784],[-4.06545,51.07762],[-4.06657,51.07717],[-4.06692,51.07751],[-4.06697,51.07757],[-4.0673,51.07744],[-4.06742,51.07755],[-4.06694,51.07774],[-4.06705,51.07785],[-4.06654,51.07806],[-4.06641,51.07793],[-4.06613,51.07805],[-4.06584,51.07777],[-4.06568,51.07784]]]]}}
]
}
