{
"type": "FeatureCollection",
"features": [
{ "type":"Feature","properties":{"osm_way_id":"126384737","building":"warehouse","other":{"addr:city":"Salford","addr:housenumber":"319","addr:postcode":"M5 3FT","addr:street":"Ordsall Lane"}}, "geometry":{"type":"MultiPolygon","coordinates":[[[[-2.2749,53.4697],[-2.27484,53.46974],[-2.27492,53.46978],[-2.27446,53.47005],[-2.27439,53.47001],[-2.27386,53.46969],[-2.27437,53.46939],[-2.2749,53.4697]]]]}},
{ "type":"Feature","properties":{"osm_way_id":"126384738","building":"warehouse","other":{"building:colour":"white","building:levels":"2","building:material":"metal","roof:colour":"white","roof:levels":"1","roof:material":"metal","roof:shape":"gabled"}}, "geometry":{"type":"MultiPolygon","coordinates":[[[[-2.27498,53.46965],[-2.27432,53.46926],[-2.27465,53.46906],[-2.27532,53.46945],[-2.27514,53.46955],[-2.27503,53.46962],[-2.27498,53.46965]]]]}},
{ "type":"Feature","properties":{"osm_way_id":"163401453","building":"warehouse"},"geometry":{"type":"MultiPolygon","coordinates":[[[[-2.27471,53.47823],[-2.27481,53.47803],[-2.27394,53.47788],[-2.27384,53.47807],[-2.27438,53.47817],[-2.27471,53.47823]]]]}},
{ "type":"Feature","properties":{"osm_way_id":"163401463","name":"Felda Logistic","building":"warehouse","other":{"addr:postcode":"M5 3BQ"}}, "geometry":{"type":"MultiPolygon","coordinates":[[[[-2.27266,53.4781],[-2.27277,53.47787],[-2.27247,53.47781],[-2.27234,53.47805],[-2.27266,53.4781]]]]}},
{ "type":"Feature","properties":{"osm_way_id":"165030213","name":"Excalon","building":"warehouse"},"geometry":{"type":"MultiPolygon","coordinates":[[[[-2.27312,53.47872],[-2.27289,53.47871],[-2.27289,53.47875],[-2.27118,53.47866],[-2.27119,53.47855],[-2.27121,53.47834],[-2.27145,53.47835],[-2.27292,53.47843],[-2.27315,53.47844],[-2.27312,53.47872]]]]}},
{ "type":"Feature","properties":{"osm_way_id":"172190967","name":"Graystone Action Sports","building":"warehouse","other":{"addr:city":"Salford","addr:housenumber":"47","addr:postcode":"M5 4BE","addr:street":"Brunel Avenue","fhrs:id":"1088252"}}, "geometry":{"type":"MultiPolygon","coordinates":[[[[-2.2764,53.48344],[-2.27606,53.48396],[-2.27568,53.48387],[-2.27583,53.48366],[-2.27537,53.48355],[-2.2754,53.48351],[-2.27557,53.48325],[-2.2764,53.48344]]]]}},
{ "type":"Feature","properties":{"osm_way_id":"172190968","building":"warehouse"},"geometry":{"type":"MultiPolygon","coordinates":[[[[-2.27433,53.48202],[-2.27413,53.48231],[-2.27533,53.48261],[-2.27553,53.48232],[-2.27433,53.48202]]]]}},
{ "type":"Feature","properties":{"osm_way_id":"172190975","name":"Feb Logistics","building":"warehouse"},"geometry":{"type":"MultiPolygon","coordinates":[[[[-2.27598,53.48264],[-2.27578,53.48293],[-2.27564,53.48315],[-2.27561,53.48319],[-2.27561,53.4832],[-2.27643,53.4834],[-2.27675,53.48293],[-2.27657,53.48289],[-2.27663,53.48279],[-2.27598,53.48264]]]]}},
{ "type":"Feature","properties":{"osm_way_id":"198933640","building":"warehouse"},"geometry":{"type":"MultiPolygon","coordinates":[[[[-2.34607,53.48611],[-2.34588,53.48611],[-2.3459,53.48639],[-2.34609,53.48639],[-2.34607,53.48611]]]]}},
{ "type":"Feature","properties":{"osm_way_id":"198933641","building":"warehouse"},"geometry":{"type":"MultiPolygon","coordinates":[[[[-2.34379,53.48563],[-2.34587,53.48558],[-2.34589,53.48582],[-2.3438,53.48587],[-2.34379,53.48563]]]]}},
{ "type":"Feature","properties":{"osm_way_id":"198933642","building":"warehouse"},"geometry":{"type":"MultiPolygon","coordinates":[[[[-2.34737,53.48634],[-2.3477,53.48648],[-2.34764,53.48653],[-2.34779,53.4866],[-2.34766,53.48671],[-2.34717,53.48651],[-2.34737,53.48634]]]]}},
{ "type":"Feature","properties":{"osm_way_id":"198933643","building":"warehouse"},"geometry":{"type":"MultiPolygon","coordinates":[[[[-2.34561,53.48612],[-2.34524,53.48614],[-2.34525,53.48627],[-2.34562,53.48625],[-2.34561,53.48612]]]]}},
{ "type":"Feature","properties":{"osm_way_id":"198933645","building":"warehouse"},"geometry":{"type":"MultiPolygon","coordinates":[[[[-2.35033,53.48574],[-2.3503,53.48544],[-2.35109,53.48541],[-2.35113,53.48571],[-2.35033,53.48574]]]]}},
{ "type":"Feature","properties":{"osm_way_id":"198933647","building":"warehouse"},"geometry":{"type":"MultiPolygon","coordinates":[[[[-2.34614,53.48639],[-2.34612,53.48618],[-2.34644,53.48617],[-2.34645,53.48627],[-2.34628,53.48628],[-2.3463,53.48638],[-2.34614,53.48639]]]]}},
{ "type":"Feature","properties":{"osm_way_id":"198933648","building":"warehouse"},"geometry":{"type":"MultiPolygon","coordinates":[[[[-2.34713,53.48557],[-2.34689,53.48579],[-2.34819,53.48628],[-2.34843,53.48606],[-2.34713,53.48557]]]]}},
{ "type":"Feature","properties":{"osm_way_id":"198933649","building":"warehouse"},"geometry":{"type":"MultiPolygon","coordinates":[[[[-2.34681,53.48557],[-2.34607,53.48558],[-2.34608,53.48581],[-2.34682,53.4858],[-2.34681,53.48557]]]]}},
{ "type":"Feature","properties":{"osm_way_id":"198933650","building":"warehouse"},"geometry":{"type":"MultiPolygon","coordinates":[[[[-2.35181,53.48609],[-2.3508,53.48716],[-2.35145,53.48738],[-2.35246,53.48631],[-2.35181,53.48609]]]]}},
{ "type":"Feature","properties":{"osm_way_id":"198933651","building":"warehouse"},"geometry":{"type":"MultiPolygon","coordinates":[[[[-2.35026,53.48557],[-2.34994,53.48545],[-2.34974,53.48563],[-2.35006,53.48575],[-2.35026,53.48557]]]]}},
{ "type":"Feature","properties":{"osm_way_id":"198933653","building":"warehouse"},"geometry":{"type":"MultiPolygon","coordinates":[[[[-2.34947,53.48577],[-2.34862,53.48658],[-2.34897,53.48672],[-2.34982,53.48591],[-2.34947,53.48577]]]]}},
{ "type":"Feature","properties":{"osm_way_id":"198933654","building":"warehouse"},"geometry":{"type":"MultiPolygon","coordinates":[[[[-2.34792,53.48553],[-2.3477,53.48573],[-2.3482,53.48592],[-2.34841,53.48572],[-2.34792,53.48553]]]]}},
{ "type":"Feature","properties":{"osm_way_id":"198933655","building":"warehouse"},"geometry":{"type":"MultiPolygon","coordinates":[[[[-2.34975,53.48605],[-2.34956,53.48622],[-2.35064,53.48664],[-2.35083,53.48647],[-2.34975,53.48605]]]]}},
{ "type":"Feature","properties":{"osm_way_id":"198933656","building":"warehouse"},"geometry":{"type":"MultiPolygon","coordinates":[[[[-2.34953,53.48626],[-2.35063,53.48665],[-2.35029,53.48698],[-2.3492,53.48658],[-2.34953,53.48626]]]]}},
{ "type":"Feature","properties":{"osm_way_id":"254827512","building":"warehouse"},"geometry":{"type":"MultiPolygon","coordinates":[[[[-2.26856,53.47265],[-2.2688,53.47255],[-2.26849,53.47228],[-2.26825,53.47237],[-2.26856,53.47265]]]]}},
{ "type":"Feature","properties":{"osm_way_id":"254827514","building":"warehouse"},"geometry":{"type":"MultiPolygon","coordinates":[[[[-2.26941,53.47222],[-2.26886,53.47244],[-2.26862,53.47222],[-2.26904,53.47206],[-2.26922,53.47222],[-2.26935,53.47217],[-2.26941,53.47222]]]]}},
{ "type":"Feature","properties":{"osm_way_id":"255962994","building":"warehouse"},"geometry":{"type":"MultiPolygon","coordinates":[[[[-2.27088,53.47124],[-2.27063,53.47106],[-2.27088,53.47095],[-2.2711,53.47086],[-2.27133,53.47106],[-2.27102,53.47118],[-2.27088,53.47124]]]]}},
{ "type":"Feature","properties":{"osm_way_id":"255962995","building":"warehouse"},"geometry":{"type":"MultiPolygon","coordinates":[[[[-2.27103,53.47203],[-2.27148,53.47178],[-2.27113,53.47155],[-2.27124,53.47149],[-2.27114,53.47142],[-2.27057,53.47173],[-2.27085,53.47191],[-2.27098,53.472],[-2.27103,53.47203]]]]}},
{ "type":"Feature","properties":{"osm_way_id":"255963207","name":"Zapp","building":"warehouse","other":{"addr:city":"Salford","addr:housenumber":"4","addr:postcode":"M5 4TH","addr:street":"Worrall Street","fhrs:id":"1391206"}}, "geometry":{"type":"MultiPolygon","coordinates":[[[[-2.27055,53.472],[-2.27077,53.47188],[-2.27056,53.47174],[-2.27048,53.47178],[-2.27045,53.47176],[-2.27037,53.4718],[-2.27042,53.47184],[-2.27047,53.47187],[-2.2704,53.4719],[-2.27055,53.472]]]]}},
{ "type":"Feature","properties":{"osm_way_id":"255963208","building":"warehouse"},"geometry":{"type":"MultiPolygon","coordinates":[[[[-2.27103,53.47203],[-2.27098,53.472],[-2.27085,53.47191],[-2.27067,53.47202],[-2.27085,53.47213],[-2.27103,53.47203]]]]}},
{ "type":"Feature","properties":{"osm_way_id":"255963209","building":"warehouse"},"geometry":{"type":"MultiPolygon","coordinates":[[[[-2.27037,53.47178],[-2.27052,53.4717],[-2.27035,53.47159],[-2.27024,53.47165],[-2.27033,53.47171],[-2.2703,53.47173],[-2.27037,53.47178]]]]}},
{ "type":"Feature","properties":{"osm_way_id":"568382470","name":"Great Bear Port Salford","building":"warehouse"},"geometry":{"type":"MultiPolygon","coordinates":[[[[-2.39139,53.46355],[-2.39007,53.46409],[-2.39217,53.46585],[-2.39345,53.4653],[-2.39287,53.46481],[-2.39139,53.46355]]]]}},
{ "type":"Feature","properties":{"osm_way_id":"703944858","building":"warehouse"},"geometry":{"type":"MultiPolygon","coordinates":[[[[-2.27014,53.47148],[-2.27029,53.47158],[-2.27005,53.47171],[-2.2699,53.4716],[-2.27014,53.47148]]]]}},
{ "type":"Feature","properties":{"osm_way_id":"704572186","building":"warehouse"},"geometry":{"type":"MultiPolygon","coordinates":[[[[-2.43401,53.43386],[-2.43304,53.43405],[-2.43283,53.43372],[-2.43328,53.43363],[-2.43339,53.43382],[-2.43393,53.4337],[-2.43401,53.43386]]]]}},
{ "type":"Feature","properties":{"osm_way_id":"797568873","building":"warehouse","other":{"addr:city":"Salford","addr:postcode":"M5 3EY","addr:street":"Hagley Road","addr:unit":"2","building:levels":"2","building:material":"brick","roof:colour":"grey","roof:levels":"1","roof:material":"metal","roof:shape":"gabled"}}, "geometry":{"type":"MultiPolygon","coordinates":[[[[-2.28088,53.46784],[-2.28066,53.46797],[-2.28051,53.46788],[-2.28041,53.46793],[-2.28028,53.46786],[-2.2806,53.46767],[-2.28088,53.46784]]]]}},
{ "type":"Feature","properties":{"osm_way_id":"797568874","building":"warehouse","other":{"addr:city":"Salford","addr:postcode":"M5 3EY","addr:street":"Hagley Road","addr:unit":"4","building:levels":"2","building:material":"brick","roof:colour":"grey","roof:levels":"1","roof:material":"metal","roof:orientation":"across","roof:shape":"gabled"}}, "geometry":{"type":"MultiPolygon","coordinates":[[[[-2.28111,53.4677],[-2.28088,53.46784],[-2.2806,53.46767],[-2.28083,53.46753],[-2.28111,53.4677]]]]}},
{ "type":"Feature","properties":{"osm_way_id":"797568875","building":"warehouse","other":{"addr:city":"Salford","addr:postcode":"M5 3EY","addr:street":"Hagley Road","addr:unit":"6","building:levels":"2","building:material":"brick","roof:colour":"grey","roof:levels":"1","roof:material":"metal","roof:orientation":"across","roof:shape":"gabled"}}, "geometry":{"type":"MultiPolygon","coordinates":[[[[-2.28134,53.46756],[-2.28111,53.4677],[-2.28083,53.46753],[-2.28106,53.4674],[-2.28121,53.46749],[-2.28134,53.46756]]]]}},
{ "type":"Feature","properties":{"osm_way_id":"797568876","building":"warehouse","other":{"addr:city":"Salford","addr:postcode":"M5 3EY","addr:street":"Hagley Road","addr:unit":"1","building:levels":"2","building:material":"brick","roof:colour":"grey","roof:levels":"1","roof:material":"metal","roof:orientation":"across","roof:shape":"gabled"}}, "geometry":{"type":"MultiPolygon","coordinates":[[[[-2.27984,53.46775],[-2.27977,53.46779],[-2.27962,53.46788],[-2.27941,53.46775],[-2.2793,53.46782],[-2.27913,53.46771],[-2.27946,53.46752],[-2.27984,53.46775]]]]}},
{ "type":"Feature","properties":{"osm_way_id":"797568877","building":"warehouse","other":{"addr:city":"Salford","addr:postcode":"M5 3EY","addr:street":"Hagley Road","addr:unit":"3","building:levels":"2","building:material":"brick","roof:colour":"grey","roof:levels":"1","roof:material":"metal","roof:orientation":"across","roof:shape":"gabled"}}, "geometry":{"type":"MultiPolygon","coordinates":[[[[-2.28006,53.46762],[-2.27984,53.46775],[-2.27946,53.46752],[-2.27969,53.46739],[-2.28006,53.46762]]]]}},
{ "type":"Feature","properties":{"osm_way_id":"797568878","building":"warehouse","other":{"addr:city":"Salford","addr:postcode":"M5 3EY","addr:street":"Hagley Road","addr:unit":"5","building:levels":"2","building:material":"brick","roof:colour":"grey","roof:levels":"1","roof:material":"metal","roof:orientation":"across","roof:shape":"gabled"}}, "geometry":{"type":"MultiPolygon","coordinates":[[[[-2.28028,53.46749],[-2.28006,53.46762],[-2.27969,53.46739],[-2.27991,53.46726],[-2.28028,53.46749]]]]}},
{ "type":"Feature","properties":{"osm_way_id":"797568879","building":"warehouse","other":{"addr:city":"Salford","addr:postcode":"M5 3EY","addr:street":"Hagley Road","addr:unit":"7","building:levels":"2","building:material":"brick","roof:colour":"grey","roof:levels":"1","roof:material":"metal","roof:orientation":"across","roof:shape":"gabled"}}, "geometry":{"type":"MultiPolygon","coordinates":[[[[-2.28051,53.46737],[-2.28028,53.46749],[-2.27991,53.46726],[-2.28013,53.46713],[-2.28051,53.46737]]]]}},
{ "type":"Feature","properties":{"osm_way_id":"797568880","building":"warehouse","other":{"addr:city":"Salford","addr:postcode":"M5 3EY","addr:street":"Hagley Road","addr:unit":"9","building:levels":"2","building:material":"brick","roof:colour":"grey","roof:levels":"1","roof:material":"metal","roof:orientation":"across","roof:shape":"gabled"}}, "geometry":{"type":"MultiPolygon","coordinates":[[[[-2.28073,53.46724],[-2.28051,53.46737],[-2.28013,53.46713],[-2.28035,53.46701],[-2.28073,53.46724]]]]}},
{ "type":"Feature","properties":{"osm_way_id":"799405263","building":"warehouse","other":{"addr:city":"Salford","addr:postcode":"M5 3EZ","addr:street":"Modwen Road","addr:unit":"8","building:levels":"2","building:material":"brick","roof:colour":"grey","roof:levels":"1","roof:material":"metal","roof:orientation":"across","roof:shape":"gabled"}}, "geometry":{"type":"MultiPolygon","coordinates":[[[[-2.27767,53.46769],[-2.27751,53.46779],[-2.27748,53.46777],[-2.27746,53.46776],[-2.27743,53.46774],[-2.2774,53.46772],[-2.27738,53.46771],[-2.27735,53.46769],[-2.27733,53.46768],[-2.2773,53.46766],[-2.27728,53.46765],[-2.27721,53.46761],[-2.27738,53.46751],[-2.27767,53.46769]]]]}},
{ "type":"Feature","properties":{"osm_way_id":"799405264","building":"warehouse","other":{"addr:city":"Salford","addr:postcode":"M5 3EZ","addr:street":"Modwen Road","addr:unit":"10","building:levels":"2","building:material":"brick","roof:colour":"grey","roof:levels":"1","roof:material":"metal","roof:orientation":"across","roof:shape":"gabled"}}, "geometry":{"type":"MultiPolygon","coordinates":[[[[-2.27784,53.46759],[-2.27767,53.46769],[-2.27738,53.46751],[-2.27755,53.46741],[-2.27784,53.46759]]]]}},
{ "type":"Feature","properties":{"osm_way_id":"799405265","building":"warehouse","other":{"addr:city":"Salford","addr:postcode":"M5 3EZ","addr:street":"Modwen Road","addr:unit":"12","building:levels":"2","building:material":"brick","roof:colour":"grey","roof:levels":"1","roof:material":"metal","roof:orientation":"across","roof:shape":"gabled"}}, "geometry":{"type":"MultiPolygon","coordinates":[[[[-2.27801,53.46749],[-2.27784,53.46759],[-2.27755,53.46741],[-2.27771,53.46732],[-2.27801,53.46749]]]]}},
{ "type":"Feature","properties":{"osm_way_id":"799405266","building":"warehouse","other":{"addr:city":"Salford","addr:postcode":"M5 3EZ","addr:street":"Modwen Road","addr:unit":"2","building:levels":"2","building:material":"brick","roof:colour":"grey","roof:levels":"1","roof:material":"metal","roof:orientation":"across","roof:shape":"gabled"}}, "geometry":{"type":"MultiPolygon","coordinates":[[[[-2.27807,53.46805],[-2.27785,53.46818],[-2.27756,53.468],[-2.27778,53.46788],[-2.27807,53.46805]]]]}},
{ "type":"Feature","properties":{"osm_way_id":"799405267","building":"warehouse","other":{"addr:city":"Salford","addr:postcode":"M5 3EZ","addr:street":"Modwen Road","addr:unit":"4","building:levels":"2","building:material":"brick","roof:colour":"grey","roof:levels":"1","roof:material":"metal","roof:orientation":"across","roof:shape":"gabled"}}, "geometry":{"type":"MultiPolygon","coordinates":[[[[-2.27829,53.46792],[-2.27807,53.46805],[-2.27778,53.46788],[-2.27799,53.46775],[-2.27829,53.46792]]]]}},
{ "type":"Feature","properties":{"osm_way_id":"799405268","building":"warehouse","other":{"addr:city":"Salford","addr:postcode":"M5 3EZ","addr:street":"Modwen Road","addr:unit":"6","building:levels":"2","building:material":"brick","roof:colour":"grey","roof:levels":"1","roof:material":"metal","roof:orientation":"across","roof:shape":"gabled"}}, "geometry":{"type":"MultiPolygon","coordinates":[[[[-2.2785,53.4678],[-2.27829,53.46792],[-2.27799,53.46775],[-2.27821,53.46762],[-2.2785,53.4678]]]]}},
{ "type":"Feature","properties":{"osm_way_id":"839937461","building":"warehouse"},"geometry":{"type":"MultiPolygon","coordinates":[[[[-2.27088,53.47124],[-2.27106,53.47136],[-2.27116,53.47132],[-2.27102,53.47118],[-2.27088,53.47124]]]]}},
{ "type":"Feature","properties":{"osm_way_id":"878791553","building":"warehouse"},"geometry":{"type":"MultiPolygon","coordinates":[[[[-2.40184,53.45545],[-2.40218,53.45521],[-2.40245,53.45534],[-2.4021,53.45558],[-2.40184,53.45545]]]]}},
{ "type":"Feature","properties":{"osm_way_id":"884175054","building":"warehouse"},"geometry":{"type":"MultiPolygon","coordinates":[[[[-2.30192,53.47465],[-2.30163,53.4747],[-2.30153,53.47448],[-2.30182,53.47443],[-2.30192,53.47465]]]]}},
{ "type":"Feature","properties":{"osm_way_id":"884175055","building":"warehouse"},"geometry":{"type":"MultiPolygon","coordinates":[[[[-2.3015,53.47454],[-2.30121,53.47459],[-2.30111,53.47437],[-2.3011,53.47436],[-2.30139,53.47431],[-2.3015,53.47454]]]]}},
{ "type":"Feature","properties":{"osm_way_id":"884175056","building":"warehouse"},"geometry":{"type":"MultiPolygon","coordinates":[[[[-2.30107,53.47443],[-2.30078,53.47447],[-2.30067,53.47425],[-2.30097,53.4742],[-2.30107,53.47443]]]]}},
{ "type":"Feature","properties":{"osm_way_id":"884178549","building":"warehouse"},"geometry":{"type":"MultiPolygon","coordinates":[[[[-2.30107,53.47562],[-2.30102,53.47563],[-2.30103,53.47564],[-2.30104,53.47567],[-2.30093,53.47569],[-2.30094,53.47572],[-2.30073,53.47575],[-2.3007,53.47568],[-2.30053,53.47571],[-2.30041,53.47545],[-2.30038,53.47539],[-2.30092,53.4753],[-2.30107,53.47562]]]]}},
{ "type":"Feature","properties":{"osm_way_id":"884178550","building":"warehouse"},"geometry":{"type":"MultiPolygon","coordinates":[[[[-2.30003,53.47501],[-2.29986,53.47464],[-2.30056,53.47453],[-2.30073,53.4749],[-2.30018,53.47499],[-2.30003,53.47501]]]]}},
{ "type":"Feature","properties":{"osm_way_id":"884178551","building":"warehouse"},"geometry":{"type":"MultiPolygon","coordinates":[[[[-2.30111,53.47528],[-2.30092,53.47487],[-2.30091,53.47487],[-2.30091,53.47486],[-2.30145,53.47477],[-2.30164,53.4752],[-2.3016,53.4752],[-2.30153,53.47521],[-2.30141,53.47523],[-2.30111,53.47528]]]]}}
]
}
