{
"type": "FeatureCollection",
"features": [
{ "type":"Feature","properties":{"osm_id":"293841345","name":"Dixons Hollow","other":{"access":"private","amenity":"parking"}}, "geometry":{"type":"Point","coordinates":[-0.64355,54.29617 ]}},
{ "type":"Feature","properties":{"osm_id":"299430481","name":"Scampston Hall Car Park","other":{"amenity":"parking"}}, "geometry":{"type":"Point","coordinates":[-0.6805,54.1693 ]}},
{ "type":"Feature","properties":{"osm_id":"355007004","name":"Levisham Station Car Park","other":{"amenity":"parking","fee":"no","parking":"surface"}}, "geometry":{"type":"Point","coordinates":[-0.74398,54.30809 ]}},
{ "type":"Feature","properties":{"osm_id":"358348948","other":{"amenity":"parking","parking":"surface"}}, "geometry":{"type":"Point","coordinates":[-0.68288,54.37219 ]}},
{ "type":"Feature","properties":{"osm_id":"567706896","other":{"amenity":"parking","description":"layby"}}, "geometry":{"type":"Point","coordinates":[-0.96656,54.023 ]}},
{ "type":"Feature","properties":{"osm_id":"567706907","other":{"amenity":"parking","description":"patch of dirt at side of road"}}, "geometry":{"type":"Point","coordinates":[-0.97153,54.06092 ]}},
{ "type":"Feature","properties":{"osm_id":"684689071","other":{"amenity":"parking","description":"Layby"}}, "geometry":{"type":"Point","coordinates":[-1.13436,54.29133 ]}},
{ "type":"Feature","properties":{"osm_id":"684689077","other":{"amenity":"parking","description":"Layby"}}, "geometry":{"type":"Point","coordinates":[-1.10763,54.25981 ]}},
{ "type":"Feature","properties":{"osm_id":"684689083","other":{"amenity":"parking","description":"Patch of dirt by side of road"}}, "geometry":{"type":"Point","coordinates":[-1.06124,54.21251 ]}},
{ "type":"Feature","properties":{"osm_id":"832431436","other":{"amenity":"parking","fee":"no","parking":"surface","surface":"gravel"}}, "geometry":{"type":"Point","coordinates":[-1.1716,54.31798 ]}},
{ "type":"Feature","properties":{"osm_id":"1025641850","highway":"crossing","other":{"crossing":"island"}}, "geometry":{"type":"Point","coordinates":[-0.77648,54.24457 ]}},
{ "type":"Feature","properties":{"osm_id":"1389246574","other":{"amenity":"parking","capacity":"16","fee":"no"}}, "geometry":{"type":"Point","coordinates":[-0.79914,54.29623 ]}},
{ "type":"Feature","properties":{"osm_id":"1423438317","other":{"amenity":"parking"}}, "geometry":{"type":"Point","coordinates":[-1.11055,54.25852 ]}},
{ "type":"Feature","properties":{"osm_id":"1425090779","other":{"access":"yes","amenity":"parking","fee":"no","parking":"surface","surface":"gravel"}}, "geometry":{"type":"Point","coordinates":[-0.94764,54.3101 ]}},
{ "type":"Feature","properties":{"osm_id":"1485648779","other":{"amenity":"parking"}}, "geometry":{"type":"Point","coordinates":[-0.98584,54.25541 ]}},
{ "type":"Feature","properties":{"osm_id":"1522347367","other":{"amenity":"parking","description":"Layby"}}, "geometry":{"type":"Point","coordinates":[-1.00783,54.10636 ]}},
{ "type":"Feature","properties":{"osm_id":"1523978301","other":{"amenity":"parking","parking":"layby"}}, "geometry":{"type":"Point","coordinates":[-0.93215,54.05975 ]}},
{ "type":"Feature","properties":{"osm_id":"1531993419","other":{"amenity":"parking","description":"Layby"}}, "geometry":{"type":"Point","coordinates":[-0.96087,54.12967 ]}},
{ "type":"Feature","properties":{"osm_id":"1564066905","other":{"amenity":"parking","description":"layby","parking":"layby"}}, "geometry":{"type":"Point","coordinates":[-0.94465,54.04367 ]}},
{ "type":"Feature","properties":{"osm_id":"1564066975","other":{"amenity":"parking","parking":"layby"}}, "geometry":{"type":"Point","coordinates":[-0.93173,54.05966 ]}},
{ "type":"Feature","properties":{"osm_id":"1780868840","other":{"access":"unknown","amenity":"parking"}}, "geometry":{"type":"Point","coordinates":[-1.01283,54.07153 ]}},
{ "type":"Feature","properties":{"osm_id":"1790710678","other":{"amenity":"parking","description":"Patch of gravel at side of road"}}, "geometry":{"type":"Point","coordinates":[-1.00669,54.09105 ]}},
{ "type":"Feature","properties":{"osm_id":"1798842080","other":{"amenity":"parking","description":"Patch of gravel at side of road"}}, "geometry":{"type":"Point","coordinates":[-0.8822,54.05359 ]}},
{ "type":"Feature","properties":{"osm_id":"1799299353","other":{"amenity":"parking","description":"Patch of gravel at side of track"}}, "geometry":{"type":"Point","coordinates":[-0.93715,54.13707 ]}},
{ "type":"Feature","properties":{"osm_id":"1799459538","other":{"access":"yes","amenity":"parking","fee":"no","parking":"layby","surface":"gravel"}}, "geometry":{"type":"Point","coordinates":[-0.90889,54.09506 ]}},
{ "type":"Feature","properties":{"osm_id":"1800056691","other":{"amenity":"parking","parking":"layby"}}, "geometry":{"type":"Point","coordinates":[-0.83512,54.1483 ]}},
{ "type":"Feature","properties":{"osm_id":"1802948107","other":{"amenity":"parking","description":"Patch of gravel at side of road"}}, "geometry":{"type":"Point","coordinates":[-0.97567,54.20733 ]}},
{ "type":"Feature","properties":{"osm_id":"1802948112","other":{"amenity":"parking","description":"Patch of gravel at side of road"}}, "geometry":{"type":"Point","coordinates":[-0.96965,54.2158 ]}},
{ "type":"Feature","properties":{"osm_id":"1809387141","other":{"amenity":"parking"}}, "geometry":{"type":"Point","coordinates":[-0.76227,54.14795 ]}},
{ "type":"Feature","properties":{"osm_id":"1809398500","other":{"amenity":"parking"}}, "geometry":{"type":"Point","coordinates":[-0.79915,54.14491 ]}},
{ "type":"Feature","properties":{"osm_id":"1809398545","other":{"amenity":"parking"}}, "geometry":{"type":"Point","coordinates":[-0.79954,54.14503 ]}},
{ "type":"Feature","properties":{"osm_id":"1811558545","other":{"amenity":"parking"}}, "geometry":{"type":"Point","coordinates":[-0.96238,54.25552 ]}},
{ "type":"Feature","properties":{"osm_id":"1872383057","other":{"amenity":"parking"}}, "geometry":{"type":"Point","coordinates":[-0.50166,54.18117 ]}},
{ "type":"Feature","properties":{"osm_id":"1909126330","other":{"amenity":"parking_entrance"}}, "geometry":{"type":"Point","coordinates":[-1.46916,53.37856 ]}},
{ "type":"Feature","properties":{"osm_id":"1909126331","other":{"amenity":"parking_entrance"}}, "geometry":{"type":"Point","coordinates":[-1.46921,53.3786 ]}},
{ "type":"Feature","properties":{"osm_id":"2078018359","other":{"access":"unknown","amenity":"parking"}}, "geometry":{"type":"Point","coordinates":[-0.99698,54.19335 ]}},
{ "type":"Feature","properties":{"osm_id":"3181238581","name":"Anya's Wood Car Park","other":{"amenity":"parking"}}, "geometry":{"type":"Point","coordinates":[-1.18755,54.32846 ]}},
{ "type":"Feature","properties":{"osm_id":"3181262882","other":{"amenity":"parking"}}, "geometry":{"type":"Point","coordinates":[-1.2157,54.34273 ]}},
{ "type":"Feature","properties":{"osm_id":"3440958211","other":{"amenity":"parking","description":"patch ofgravel at side of road"}}, "geometry":{"type":"Point","coordinates":[-0.98089,53.9869 ]}},
{ "type":"Feature","properties":{"osm_id":"3578651070","other":{"natural":"tree"}}, "geometry":{"type":"Point","coordinates":[-0.62264,54.08775 ]}},
{ "type":"Feature","properties":{"osm_id":"3937134960","other":{"amenity":"parking","parking":"layby"}}, "geometry":{"type":"Point","coordinates":[-0.7365,54.23681 ]}},
{ "type":"Feature","properties":{"osm_id":"3937135035","other":{"amenity":"parking","parking":"layby"}}, "geometry":{"type":"Point","coordinates":[-0.73852,54.23705 ]}},
{ "type":"Feature","properties":{"osm_id":"4223946980","other":{"access":"yes","amenity":"parking","fee":"no","parking":"layby"}}, "geometry":{"type":"Point","coordinates":[-1.06132,54.22318 ]}},
{ "type":"Feature","properties":{"osm_id":"4770148588","other":{"amenity":"parking","parking":"street_side"}}, "geometry":{"type":"Point","coordinates":[-0.99392,54.04595 ]}},
{ "type":"Feature","properties":{"osm_id":"4867002152","other":{"access":"yes","amenity":"parking","fee":"no","parking":"layby","surface":"gravel"}}, "geometry":{"type":"Point","coordinates":[-1.03725,54.07319 ]}},
{ "type":"Feature","properties":{"osm_id":"4883653585","other":{"amenity":"parking","parking":"layby"}}, "geometry":{"type":"Point","coordinates":[-0.86985,54.10203 ]}},
{ "type":"Feature","properties":{"osm_id":"4883663593","other":{"amenity":"parking","parking":"layby","surface":"gravel"}}, "geometry":{"type":"Point","coordinates":[-0.82452,54.14715 ]}},
{ "type":"Feature","properties":{"osm_id":"5120580052","other":{"amenity":"parking","parking":"layby"}}, "geometry":{"type":"Point","coordinates":[-0.64693,54.16753 ]}},
{ "type":"Feature","properties":{"osm_id":"5120580053","other":{"amenity":"parking","parking":"layby"}}, "geometry":{"type":"Point","coordinates":[-0.64931,54.16711 ]}},
{ "type":"Feature","properties":{"osm_id":"5137328109","other":{"amenity":"parking","parking":"layby"}}, "geometry":{"type":"Point","coordinates":[-1.00521,54.25204 ]}},
{ "type":"Feature","properties":{"osm_id":"5148004374","other":{"amenity":"parking"}}, "geometry":{"type":"Point","coordinates":[-1.08916,54.30547 ]}},
{ "type":"Feature","properties":{"osm_id":"5244634376","other":{"amenity":"parking"}}, "geometry":{"type":"Point","coordinates":[-0.96645,54.34816 ]}},
{ "type":"Feature","properties":{"osm_id":"5579476737","other":{"defibrillator:location":"outside Sheriff Hutton Methodist Church, West End, Sheriff Hutton, YO60 6SH","emergency":"defibrillator","indoor":"no"}}, "geometry":{"type":"Point","coordinates":[-1.01004,54.08924 ]}},
{ "type":"Feature","properties":{"osm_id":"5731355353","other":{"amenity":"parking","parking":"layby"}}, "geometry":{"type":"Point","coordinates":[-0.94337,54.16259 ]}},
{ "type":"Feature","properties":{"osm_id":"5750360047","other":{"amenity":"parking","parking":"layby"}}, "geometry":{"type":"Point","coordinates":[-0.84413,54.05997 ]}},
{ "type":"Feature","properties":{"osm_id":"5750403975","other":{"amenity":"parking","parking":"layby"}}, "geometry":{"type":"Point","coordinates":[-0.85921,54.07897 ]}},
{ "type":"Feature","properties":{"osm_id":"5802429629","other":{"amenity":"parking"}}, "geometry":{"type":"Point","coordinates":[-0.79794,54.05689 ]}},
{ "type":"Feature","properties":{"osm_id":"5854798847","other":{"amenity":"parking","parking":"layby"}}, "geometry":{"type":"Point","coordinates":[-0.93478,54.022 ]}},
{ "type":"Feature","properties":{"osm_id":"5856566518","other":{"amenity":"parking","parking":"layby"}}, "geometry":{"type":"Point","coordinates":[-1.04597,54.19128 ]}},
{ "type":"Feature","properties":{"osm_id":"5856916663","other":{"amenity":"parking","parking":"layby"}}, "geometry":{"type":"Point","coordinates":[-1.06945,54.18421 ]}},
{ "type":"Feature","properties":{"osm_id":"5856953139","other":{"access":"unknown","amenity":"parking"}}, "geometry":{"type":"Point","coordinates":[-1.08244,54.18433 ]}},
{ "type":"Feature","properties":{"osm_id":"5921611875","other":{"amenity":"parking","parking":"layby"}}, "geometry":{"type":"Point","coordinates":[-0.91886,53.9967 ]}},
{ "type":"Feature","properties":{"osm_id":"6069520278","other":{"amenity":"parking","parking":"layby"}}, "geometry":{"type":"Point","coordinates":[-0.72485,54.1354 ]}},
{ "type":"Feature","properties":{"osm_id":"6069536159","other":{"amenity":"parking","parking":"layby"}}, "geometry":{"type":"Point","coordinates":[-0.72294,54.14536 ]}},
{ "type":"Feature","properties":{"osm_id":"6093287145","other":{"amenity":"parking","parking":"layby"}}, "geometry":{"type":"Point","coordinates":[-0.80115,54.04738 ]}},
{ "type":"Feature","properties":{"osm_id":"6270544548","other":{"amenity":"parking","parking":"layby"}}, "geometry":{"type":"Point","coordinates":[-0.80701,54.03522 ]}},
{ "type":"Feature","properties":{"osm_id":"6372946897","other":{"amenity":"charging_station","capacity":"3","operator":"Tesla"}}, "geometry":{"type":"Point","coordinates":[-0.95078,53.98766 ]}},
{ "type":"Feature","properties":{"osm_id":"6410479048","other":{"amenity":"parking","parking":"layby"}}, "geometry":{"type":"Point","coordinates":[-0.7981,54.20642 ]}},
{ "type":"Feature","properties":{"osm_id":"6410479050","other":{"access":"yes","amenity":"parking","fee":"no","parking":"layby"}}, "geometry":{"type":"Point","coordinates":[-0.82877,54.20638 ]}},
{ "type":"Feature","properties":{"osm_id":"6410479051","other":{"amenity":"parking","parking":"layby"}}, "geometry":{"type":"Point","coordinates":[-0.85108,54.19318 ]}},
{ "type":"Feature","properties":{"osm_id":"6410479052","other":{"amenity":"parking","parking":"layby"}}, "geometry":{"type":"Point","coordinates":[-0.76428,54.19491 ]}},
{ "type":"Feature","properties":{"osm_id":"6419205828","other":{"amenity":"parking","parking":"layby"}}, "geometry":{"type":"Point","coordinates":[-0.83645,54.14716 ]}},
{ "type":"Feature","properties":{"osm_id":"6449245775","other":{"access":"unknown","amenity":"parking"}}, "geometry":{"type":"Point","coordinates":[-0.81952,54.19798 ]}},
{ "type":"Feature","properties":{"osm_id":"6479303385","other":{"amenity":"parking","parking":"layby"}}, "geometry":{"type":"Point","coordinates":[-1.12236,54.20029 ]}},
{ "type":"Feature","properties":{"osm_id":"6483119065","other":{"amenity":"parking","parking":"layby"}}, "geometry":{"type":"Point","coordinates":[-0.83258,54.08985 ]}},
{ "type":"Feature","properties":{"osm_id":"6483605865","other":{"access":"unknown","amenity":"parking"}}, "geometry":{"type":"Point","coordinates":[-0.83226,54.09978 ]}},
{ "type":"Feature","properties":{"osm_id":"6486758858","other":{"amenity":"parking"}}, "geometry":{"type":"Point","coordinates":[-0.78706,54.12002 ]}},
{ "type":"Feature","properties":{"osm_id":"6486880153","other":{"amenity":"parking"}}, "geometry":{"type":"Point","coordinates":[-0.80527,54.1402 ]}},
{ "type":"Feature","properties":{"osm_id":"6575630933","other":{"amenity":"parking","parking":"layby"}}, "geometry":{"type":"Point","coordinates":[-1.12153,54.20052 ]}},
{ "type":"Feature","properties":{"osm_id":"6579776408","other":{"access":"yes","amenity":"parking","fee":"no","parking":"layby","surface":"gravel"}}, "geometry":{"type":"Point","coordinates":[-0.76334,54.03701 ]}},
{ "type":"Feature","properties":{"osm_id":"6612201351","other":{"amenity":"parking","parking":"layby"}}, "geometry":{"type":"Point","coordinates":[-0.70405,54.09412 ]}},
{ "type":"Feature","properties":{"osm_id":"6612239119","other":{"amenity":"parking","parking":"layby"}}, "geometry":{"type":"Point","coordinates":[-0.68971,54.00794 ]}},
{ "type":"Feature","properties":{"osm_id":"6751273676","other":{"amenity":"parking","parking":"layby"}}, "geometry":{"type":"Point","coordinates":[-0.77122,54.22772 ]}},
{ "type":"Feature","properties":{"osm_id":"6754219549","other":{"amenity":"parking","parking":"layby"}}, "geometry":{"type":"Point","coordinates":[-0.72802,54.09903 ]}},
{ "type":"Feature","properties":{"osm_id":"6754248205","other":{"amenity":"parking"}}, "geometry":{"type":"Point","coordinates":[-0.72326,54.10084 ]}},
{ "type":"Feature","properties":{"osm_id":"6794100882","other":{"amenity":"parking","parking":"layby","surface":"gravel"}}, "geometry":{"type":"Point","coordinates":[-0.99511,54.0722 ]}},
{ "type":"Feature","properties":{"osm_id":"6876478597","other":{"amenity":"parking","parking":"layby"}}, "geometry":{"type":"Point","coordinates":[-1.11646,54.25032 ]}},
{ "type":"Feature","properties":{"osm_id":"7058811477","other":{"amenity":"parking","parking":"layby"}}, "geometry":{"type":"Point","coordinates":[-0.88849,54.35787 ]}},
{ "type":"Feature","properties":{"osm_id":"7080878313","other":{"amenity":"parking","surface":"gravel"}}, "geometry":{"type":"Point","coordinates":[-0.90666,54.31077 ]}},
{ "type":"Feature","properties":{"osm_id":"7080882910","other":{"amenity":"parking","surface":"gravel"}}, "geometry":{"type":"Point","coordinates":[-0.90677,54.31039 ]}},
{ "type":"Feature","properties":{"osm_id":"7132338935","other":{"amenity":"parking","parking":"layby"}}, "geometry":{"type":"Point","coordinates":[-0.96868,54.28929 ]}},
{ "type":"Feature","properties":{"osm_id":"7132352657","other":{"amenity":"parking","parking":"layby"}}, "geometry":{"type":"Point","coordinates":[-0.97434,54.28745 ]}},
{ "type":"Feature","properties":{"osm_id":"7235800365","other":{"amenity":"parking","parking":"layby","surface":"gravel"}}, "geometry":{"type":"Point","coordinates":[-0.83475,54.29674 ]}},
{ "type":"Feature","properties":{"osm_id":"7236604572","other":{"amenity":"parking","parking":"layby"}}, "geometry":{"type":"Point","coordinates":[-0.76724,54.26274 ]}},
{ "type":"Feature","properties":{"osm_id":"7236610323","other":{"access":"yes","amenity":"parking","fee":"no","parking":"layby"}}, "geometry":{"type":"Point","coordinates":[-0.78945,54.30367 ]}},
{ "type":"Feature","properties":{"osm_id":"7275907606","other":{"amenity":"parking","parking":"layby","surface":"gravel"}}, "geometry":{"type":"Point","coordinates":[-0.76942,54.25742 ]}},
{ "type":"Feature","properties":{"osm_id":"7275927453","other":{"amenity":"parking","parking":"layby"}}, "geometry":{"type":"Point","coordinates":[-0.77247,54.30913 ]}},
{ "type":"Feature","properties":{"osm_id":"7325650391","other":{"access":"disabled","amenity":"parking"}}, "geometry":{"type":"Point","coordinates":[-0.62483,54.3112 ]}},
{ "type":"Feature","properties":{"osm_id":"7326964380","other":{"amenity":"parking","parking":"street_side"}}, "geometry":{"type":"Point","coordinates":[-0.62532,54.27224 ]}},
{ "type":"Feature","properties":{"osm_id":"7396222065","other":{"amenity":"parking","parking":"layby"}}, "geometry":{"type":"Point","coordinates":[-0.93661,54.025 ]}},
{ "type":"Feature","properties":{"osm_id":"7396245067","other":{"amenity":"parking"}}, "geometry":{"type":"Point","coordinates":[-0.94517,54.04004 ]}},
{ "type":"Feature","properties":{"osm_id":"7418309819","other":{"amenity":"parking","description":"layby"}}, "geometry":{"type":"Point","coordinates":[-0.96488,54.02464 ]}},
{ "type":"Feature","properties":{"osm_id":"7573547018","other":{"amenity":"parking"}}, "geometry":{"type":"Point","coordinates":[-0.72014,54.24217 ]}},
{ "type":"Feature","properties":{"osm_id":"7573547019","other":{"access":"yes","amenity":"parking","parking":"layby"}}, "geometry":{"type":"Point","coordinates":[-0.69476,54.30488 ]}},
{ "type":"Feature","properties":{"osm_id":"7600753999","other":{"amenity":"parking","parking":"layby"}}, "geometry":{"type":"Point","coordinates":[-1.12325,54.27506 ]}},
{ "type":"Feature","properties":{"osm_id":"7610616692","other":{"amenity":"parking","parking":"layby"}}, "geometry":{"type":"Point","coordinates":[-0.60679,54.23199 ]}},
{ "type":"Feature","properties":{"osm_id":"7685247126","other":{"access":"permissive","amenity":"parking","charge":"1","fee":"yes","parking":"surface","payment:cash":"yes","payment:coins":"yes","surface":"grass"}}, "geometry":{"type":"Point","coordinates":[-0.85863,54.26294 ]}},
{ "type":"Feature","properties":{"osm_id":"7685247127","other":{"access":"private","amenity":"parking","capacity:disabled":"1","operator":"Cropton Village Hall","operator:type":"community","parking":"surface","surface":"grass_paver"}}, "geometry":{"type":"Point","coordinates":[-0.85827,54.26285 ]}},
{ "type":"Feature","properties":{"osm_id":"7692637371","other":{"amenity":"parking","parking":"layby"}}, "geometry":{"type":"Point","coordinates":[-0.94357,54.35901 ]}},
{ "type":"Feature","properties":{"osm_id":"7726505682","other":{"amenity":"parking"}}, "geometry":{"type":"Point","coordinates":[-1.01211,54.16495 ]}},
{ "type":"Feature","properties":{"osm_id":"7726505683","other":{"amenity":"parking"}}, "geometry":{"type":"Point","coordinates":[-1.01407,54.16424 ]}},
{ "type":"Feature","properties":{"osm_id":"7726937708","other":{"amenity":"parking"}}, "geometry":{"type":"Point","coordinates":[-0.99624,54.16901 ]}},
{ "type":"Feature","properties":{"osm_id":"7741376449","other":{"access":"customers","amenity":"parking","fee":"no","operator":"Cayley Arms","operator:type":"business","parking":"surface","surface":"asphalt"}}, "geometry":{"type":"Point","coordinates":[-0.65735,54.23581 ]}},
{ "type":"Feature","properties":{"osm_id":"7747072619","other":{"access":"customers","amenity":"parking","fee":"no","operator":"Helmsley Medical Practice","operator:type":"government","parking":"surface","surface":"asphalt"}}, "geometry":{"type":"Point","coordinates":[-1.05647,54.2488 ]}},
{ "type":"Feature","properties":{"osm_id":"7827824763","other":{"amenity":"parking","surface":"gravel"}}, "geometry":{"type":"Point","coordinates":[-1.03401,54.36134 ]}},
{ "type":"Feature","properties":{"osm_id":"7827911736","other":{"amenity":"parking"}}, "geometry":{"type":"Point","coordinates":[-1.03579,54.36244 ]}},
{ "type":"Feature","properties":{"osm_id":"7952931525","other":{"amenity":"parking","parking":"street_side"}}, "geometry":{"type":"Point","coordinates":[-0.66762,54.16501 ]}},
{ "type":"Feature","properties":{"osm_id":"7952931526","other":{"amenity":"parking","parking":"layby"}}, "geometry":{"type":"Point","coordinates":[-0.59964,54.17478 ]}},
{ "type":"Feature","properties":{"osm_id":"7972971824","other":{"amenity":"parking","parking":"layby"}}, "geometry":{"type":"Point","coordinates":[-0.86669,54.10372 ]}},
{ "type":"Feature","properties":{"osm_id":"7995895375","other":{"amenity":"parking"}}, "geometry":{"type":"Point","coordinates":[-1.06316,54.35834 ]}},
{ "type":"Feature","properties":{"osm_id":"7995977605","other":{"amenity":"parking","surface":"gravel"}}, "geometry":{"type":"Point","coordinates":[-1.06199,54.36035 ]}},
{ "type":"Feature","properties":{"osm_id":"8014352357","other":{"amenity":"parking"}}, "geometry":{"type":"Point","coordinates":[-0.89057,54.09079 ]}},
{ "type":"Feature","properties":{"osm_id":"8016436293","other":{"amenity":"parking","parking":"layby"}}, "geometry":{"type":"Point","coordinates":[-0.86011,54.13361 ]}},
{ "type":"Feature","properties":{"osm_id":"8016436295","other":{"amenity":"parking","parking":"layby"}}, "geometry":{"type":"Point","coordinates":[-0.86097,54.13372 ]}},
{ "type":"Feature","properties":{"osm_id":"8158533720","other":{"amenity":"parking"}}, "geometry":{"type":"Point","coordinates":[-0.78585,54.12873 ]}},
{ "type":"Feature","properties":{"osm_id":"8245865862","other":{"amenity":"parking"}}, "geometry":{"type":"Point","coordinates":[-1.06114,54.35361 ]}},
{ "type":"Feature","properties":{"osm_id":"8252711955","other":{"amenity":"parking","parking":"layby"}}, "geometry":{"type":"Point","coordinates":[-1.16885,54.31236 ]}},
{ "type":"Feature","properties":{"osm_id":"8617806579","other":{"access":"yes","amenity":"parking","fee":"no","parking":"surface","surface":"gravel"}}, "geometry":{"type":"Point","coordinates":[-0.84729,54.32859 ]}},
{ "type":"Feature","properties":{"osm_id":"8681353032","other":{"amenity":"parking","parking":"layby"}}, "geometry":{"type":"Point","coordinates":[-1.13272,54.31267 ]}},
{ "type":"Feature","properties":{"osm_id":"8681380718","other":{"amenity":"parking","parking":"layby"}}, "geometry":{"type":"Point","coordinates":[-1.12574,54.32064 ]}},
{ "type":"Feature","properties":{"osm_id":"8688385161","other":{"access":"permissive","amenity":"parking","fee":"no","parking":"layby","surface":"gravel"}}, "geometry":{"type":"Point","coordinates":[-0.85544,54.38289 ]}},
{ "type":"Feature","properties":{"osm_id":"8848438379","other":{"amenity":"parking","parking":"Patch of dirt at side of road"}}, "geometry":{"type":"Point","coordinates":[-0.99204,54.15909 ]}},
{ "type":"Feature","properties":{"osm_id":"8911517853","other":{"access":"customers","amenity":"parking"}}, "geometry":{"type":"Point","coordinates":[-0.79848,54.1332 ]}},
{ "type":"Feature","properties":{"osm_id":"8946371190","other":{"amenity":"parking","parking":"layby"}}, "geometry":{"type":"Point","coordinates":[-0.97952,54.16872 ]}},
{ "type":"Feature","properties":{"osm_id":"8955198710","other":{"amenity":"parking","parking":"surface"}}, "geometry":{"type":"Point","coordinates":[-0.7907,54.13773 ]}},
{ "type":"Feature","properties":{"osm_id":"8987495399","other":{"amenity":"parking","parking":"layby"}}, "geometry":{"type":"Point","coordinates":[-0.75097,54.19839 ]}},
{ "type":"Feature","properties":{"osm_id":"9006501287","other":{"amenity":"parking"}}, "geometry":{"type":"Point","coordinates":[-1.0581,54.23486 ]}},
{ "type":"Feature","properties":{"osm_id":"9006501292","other":{"amenity":"parking"}}, "geometry":{"type":"Point","coordinates":[-1.05699,54.2367 ]}},
{ "type":"Feature","properties":{"osm_id":"9006506441","other":{"amenity":"parking"}}, "geometry":{"type":"Point","coordinates":[-1.05731,54.23554 ]}},
{ "type":"Feature","properties":{"osm_id":"9006506450","other":{"amenity":"parking"}}, "geometry":{"type":"Point","coordinates":[-1.05854,54.23424 ]}},
{ "type":"Feature","properties":{"osm_id":"9032182910","other":{"amenity":"parking","parking":"layby"}}, "geometry":{"type":"Point","coordinates":[-0.67562,54.12375 ]}},
{ "type":"Feature","properties":{"osm_id":"9036300571","other":{"amenity":"parking","parking":"layby"}}, "geometry":{"type":"Point","coordinates":[-0.84661,54.30506 ]}},
{ "type":"Feature","properties":{"osm_id":"9166101471","other":{"access":"private","amenity":"parking"}}, "geometry":{"type":"Point","coordinates":[-0.844,54.32686 ]}},
{ "type":"Feature","properties":{"osm_id":"9196378581","other":{"amenity":"parking"}}, "geometry":{"type":"Point","coordinates":[-0.60694,54.16069 ]}},
{ "type":"Feature","properties":{"osm_id":"9333112827","other":{"amenity":"parking","parking":"layby"}}, "geometry":{"type":"Point","coordinates":[-0.93964,54.05117 ]}},
{ "type":"Feature","properties":{"osm_id":"9351034202","other":{"amenity":"parking"}}, "geometry":{"type":"Point","coordinates":[-1.07705,54.16942 ]}},
{ "type":"Feature","properties":{"osm_way_id":"11034469","amenity":"parking","other":{"layer":"-1","surface":"unpaved"}}, "geometry":{"type":"MultiPolygon","coordinates":[[[[-0.45466,54.18683],[-0.45444,54.18688],[-0.4542,54.18684],[-0.45437,54.18645],[-0.45467,54.18644],[-0.45466,54.18683]]]]}},
{ "type":"Feature","properties":{"osm_way_id":"11037470","name":"Eastgate Car Park","amenity":"parking","other":{"capacity:disabled":"3","fee":"yes","maxstay":"2 hr","parking":"surface"}}, "geometry":{"type":"MultiPolygon","coordinates":[[[[-0.7742,54.24382],[-0.77407,54.24391],[-0.77403,54.24397],[-0.77398,54.24404],[-0.77389,54.24415],[-0.77382,54.24424],[-0.77378,54.24431],[-0.77369,54.24447],[-0.77345,54.24443],[-0.77341,54.24451],[-0.77336,54.2446],[-0.77335,54.24462],[-0.77352,54.24465],[-0.77414,54.24478],[-0.77423,54.24469],[-0.77432,54.24456],[-0.77411,54.24451],[-0.77415,54.24445],[-0.77426,54.24432],[-0.77435,54.24434],[-0.77437,54.24431],[-0.77461,54.24402],[-0.77427,54.24392],[-0.77439,54.24381],[-0.77433,54.24378],[-0.77429,54.24374],[-0.7742,54.24382]]]]}},
{ "type":"Feature","properties":{"osm_way_id":"18948434","name":"Castle Car Park","amenity":"parking","other":{"access":"yes","fee":"yes","parking":"surface"}}, "geometry":{"type":"MultiPolygon","coordinates":[[[[-1.06505,54.24656],[-1.06489,54.24659],[-1.0647,54.2465],[-1.06449,54.24654],[-1.06445,54.2465],[-1.06435,54.24653],[-1.06401,54.2462],[-1.06477,54.24601],[-1.06482,54.246],[-1.06519,54.24653],[-1.06511,54.24654],[-1.06505,54.24656]]]]}},
{ "type":"Feature","properties":{"osm_way_id":"21890769","name":"Withens Clough Car Park","amenity":"parking"},"geometry":{"type":"MultiPolygon","coordinates":[[[[-2.02106,53.70597],[-2.02103,53.70593],[-2.02142,53.70567],[-2.02159,53.70579],[-2.0216,53.70583],[-2.02131,53.70593],[-2.02127,53.70594],[-2.02106,53.70597]]]]}},
{ "type":"Feature","properties":{"osm_way_id":"24495669","amenity":"parking","other":{"access":"private"}}, "geometry":{"type":"MultiPolygon","coordinates":[[[[-1.01513,50.89611],[-1.01478,50.89617],[-1.01479,50.8962],[-1.01489,50.89646],[-1.01524,50.89641],[-1.01513,50.89611]]]]}},
{ "type":"Feature","properties":{"osm_way_id":"25253317","name":"St Nicholas Street Car Park","amenity":"parking","other":{"fee":"no","parking":"surface","toilets:wheelchair":"no","wheelchair":"yes"}}, "geometry":{"type":"MultiPolygon","coordinates":[[[[-0.78915,54.13179],[-0.78909,54.13184],[-0.78882,54.13175],[-0.78883,54.13114],[-0.78904,54.13105],[-0.78931,54.13098],[-0.78941,54.13105],[-0.78975,54.13124],[-0.78986,54.13129],[-0.78949,54.13155],[-0.78922,54.13171],[-0.78915,54.13179]]]]}},
{ "type":"Feature","properties":{"osm_way_id":"25356836","name":"Wentworth St Car Park","amenity":"parking","other":{"parking":"surface"}}, "geometry":{"type":"MultiPolygon","coordinates":[[[[-0.79723,54.13766],[-0.79744,54.13771],[-0.79786,54.13755],[-0.79795,54.13756],[-0.79774,54.13737],[-0.79779,54.13735],[-0.79804,54.13725],[-0.79816,54.13735],[-0.79815,54.13736],[-0.79808,54.13739],[-0.79813,54.13743],[-0.79814,54.13744],[-0.79815,54.13745],[-0.79811,54.13746],[-0.79796,54.13752],[-0.79821,54.13772],[-0.79837,54.13766],[-0.79842,54.13769],[-0.79818,54.13785],[-0.79815,54.13787],[-0.79852,54.13809],[-0.79855,54.13813],[-0.79854,54.13816],[-0.79852,54.13829],[-0.79852,54.13837],[-0.79847,54.13844],[-0.79798,54.13847],[-0.79732,54.13844],[-0.79732,54.13836],[-0.79712,54.13836],[-0.79649,54.13836],[-0.79638,54.13762],[-0.79712,54.13759],[-0.79712,54.13773],[-0.79712,54.13828],[-0.79721,54.13774],[-0.79723,54.13766]]]]}},
{ "type":"Feature","properties":{"osm_way_id":"25454764","name":"Morrisons Car Park","amenity":"parking","other":{"parking":"surface"}}, "geometry":{"type":"MultiPolygon","coordinates":[[[[-0.79633,54.13344],[-0.79601,54.13341],[-0.79573,54.13338],[-0.79522,54.13334],[-0.79522,54.1333],[-0.79488,54.13331],[-0.7948,54.13334],[-0.79476,54.13332],[-0.79465,54.13358],[-0.79461,54.13358],[-0.79447,54.13357],[-0.79401,54.13353],[-0.79343,54.13349],[-0.79344,54.13336],[-0.7931,54.13333],[-0.79314,54.13316],[-0.7938,54.13319],[-0.79379,54.13315],[-0.79389,54.13314],[-0.79433,54.13311],[-0.79512,54.13305],[-0.79547,54.13308],[-0.79546,54.1331],[-0.79578,54.13312],[-0.79579,54.13309],[-0.79643,54.13314],[-0.79633,54.13344]]]]}},
{ "type":"Feature","properties":{"osm_way_id":"25610784","amenity":"parking"},"geometry":{"type":"MultiPolygon","coordinates":[[[[-0.78721,54.12799],[-0.78732,54.12832],[-0.78728,54.12833],[-0.78731,54.12843],[-0.78753,54.12838],[-0.78753,54.12836],[-0.78749,54.12825],[-0.78741,54.12796],[-0.78721,54.12799]]]]}},
{ "type":"Feature","properties":{"osm_way_id":"25702765","name":"Water Lane Car Park","amenity":"parking","other":{"addr:street":"Railway Street","capacity":"109","fee":"yes","maxstay":"24hrs","operator":"Ryedale District Council","parking":"surface"}}, "geometry":{"type":"MultiPolygon","coordinates":[[[[-0.79791,54.13421],[-0.79799,54.13383],[-0.79831,54.13387],[-0.7983,54.13373],[-0.79846,54.13373],[-0.79845,54.13392],[-0.79861,54.13393],[-0.79873,54.13394],[-0.79863,54.13356],[-0.79828,54.13355],[-0.79784,54.13351],[-0.79784,54.13353],[-0.7978,54.13373],[-0.79766,54.13371],[-0.79754,54.1337],[-0.79755,54.13375],[-0.79745,54.13414],[-0.79763,54.13416],[-0.79773,54.13418],[-0.79788,54.1342],[-0.79791,54.13421]]]]}},
{ "type":"Feature","properties":{"osm_way_id":"25752428","name":"Rievaulx Abbey","amenity":"parking","other":{"fee":"yes","operator":"English Heritage","parking":"surface","smoothness":"intermediate","surface":"gravel"}}, "geometry":{"type":"MultiPolygon","coordinates":[[[[-1.11917,54.25639],[-1.1192,54.25647],[-1.11933,54.25682],[-1.11924,54.25683],[-1.11915,54.25684],[-1.11912,54.25674],[-1.11883,54.25678],[-1.11881,54.25672],[-1.11875,54.25673],[-1.1187,54.2566],[-1.11865,54.25661],[-1.11861,54.25648],[-1.1186,54.25646],[-1.1187,54.25644],[-1.11876,54.25644],[-1.11889,54.25642],[-1.11896,54.25641],[-1.11917,54.25639]]]]}},
{ "type":"Feature","properties":{"osm_way_id":"26780942","name":"The Yorkshire Arboretum Car Park","amenity":"parking","other":{"access":"customers","fee":"no","parking":"surface","surface":"gravel"}}, "geometry":{"type":"MultiPolygon","coordinates":[[[[-0.92153,54.11879],[-0.92177,54.11918],[-0.92171,54.1192],[-0.92175,54.11926],[-0.92122,54.11937],[-0.9212,54.11931],[-0.92118,54.11929],[-0.92125,54.11926],[-0.92107,54.11877],[-0.92119,54.11871],[-0.92134,54.1187],[-0.92153,54.11879]]]]}},
{ "type":"Feature","properties":{"osm_way_id":"26780948","name":"Castle Howard Plant Centre Car Park","amenity":"parking","other":{"parking":"surface"}}, "geometry":{"type":"MultiPolygon","coordinates":[[[[-0.91127,54.12021],[-0.91097,54.11955],[-0.9106,54.11877],[-0.91076,54.11874],[-0.91145,54.1201],[-0.91127,54.12021]]]]}},
{ "type":"Feature","properties":{"osm_way_id":"26780949","name":"Castle Howard Car Park","amenity":"parking","other":{"fee":"no","parking":"surface"}}, "geometry":{"type":"MultiPolygon","coordinates":[[[[-0.91252,54.12069],[-0.91232,54.12072],[-0.91222,54.1205],[-0.9123,54.12049],[-0.91214,54.12011],[-0.91229,54.12008],[-0.91226,54.12002],[-0.91321,54.1198],[-0.91324,54.11985],[-0.91355,54.11982],[-0.91363,54.12001],[-0.91368,54.12014],[-0.91374,54.1203],[-0.91317,54.1204],[-0.91325,54.12059],[-0.91328,54.12065],[-0.91257,54.12077],[-0.91252,54.12069]]]]}},
{ "type":"Feature","properties":{"osm_way_id":"27133363","name":"Malton Train Station Car Park","amenity":"parking","other":{"fee":"yes","parking":"surface"}}, "geometry":{"type":"MultiPolygon","coordinates":[[[[-0.8,54.13177],[-0.79907,54.13226],[-0.79869,54.13205],[-0.79869,54.13196],[-0.79874,54.1319],[-0.79997,54.1317],[-0.8,54.13177]]]]}},
{ "type":"Feature","properties":{"osm_way_id":"27532066","amenity":"parking"},"geometry":{"type":"MultiPolygon","coordinates":[[[[-0.78395,54.14034],[-0.78532,54.13931],[-0.78492,54.13912],[-0.78445,54.13947],[-0.78471,54.1396],[-0.78436,54.13986],[-0.78409,54.13974],[-0.78354,54.14015],[-0.78395,54.14034]]]]}},
{ "type":"Feature","properties":{"osm_way_id":"27653196","amenity":"parking"},"geometry":{"type":"MultiPolygon","coordinates":[[[[-0.79087,54.0754],[-0.79062,54.07539],[-0.7906,54.07545],[-0.79079,54.07546],[-0.79079,54.07549],[-0.79087,54.07549],[-0.79087,54.0754]]]]}},
{ "type":"Feature","properties":{"osm_way_id":"27788466","name":"Pickering Castle Car Park","amenity":"parking","other":{"access":"customers"}}, "geometry":{"type":"MultiPolygon","coordinates":[[[[-0.77576,54.24921],[-0.77571,54.24933],[-0.77584,54.24935],[-0.77595,54.24936],[-0.77592,54.2494],[-0.77582,54.24944],[-0.77571,54.24945],[-0.7755,54.24942],[-0.77561,54.24919],[-0.77576,54.24921]]]]}},
{ "type":"Feature","properties":{"osm_way_id":"28229915","amenity":"parking"},"geometry":{"type":"MultiPolygon","coordinates":[[[[-1.84916,51.55021],[-1.84918,51.55029],[-1.84895,51.55069],[-1.84885,51.55076],[-1.84828,51.55052],[-1.84834,51.5504],[-1.84864,51.55048],[-1.84886,51.5501],[-1.84854,51.55],[-1.8486,51.54989],[-1.84891,51.54999],[-1.84897,51.55011],[-1.84916,51.55021]]]]}},
{ "type":"Feature","properties":{"osm_way_id":"28278267","name":"Dalby Forest Visitor Centre Car Park","amenity":"parking","other":{"fee":"yes","parking":"surface"}}, "geometry":{"type":"MultiPolygon","coordinates":[[[[-0.68819,54.27784],[-0.68818,54.27761],[-0.68786,54.27717],[-0.68779,54.277],[-0.68769,54.27703],[-0.68762,54.27695],[-0.68767,54.27691],[-0.68762,54.27669],[-0.68742,54.27635],[-0.68725,54.27622],[-0.687,54.27635],[-0.68712,54.27672],[-0.68729,54.27708],[-0.68747,54.27743],[-0.68751,54.27752],[-0.68769,54.2779],[-0.68802,54.2779],[-0.68819,54.27784]]]]}},
{ "type":"Feature","properties":{"osm_way_id":"30004602","amenity":"parking","other":{"access":"yes","fee":"no","maxheight":"1.8","parking":"surface","surface":"gravel"}}, "geometry":{"type":"MultiPolygon","coordinates":[[[[-0.78811,54.05885],[-0.78809,54.05866],[-0.78771,54.05868],[-0.78772,54.05883],[-0.7879,54.05882],[-0.7879,54.05873],[-0.78799,54.05873],[-0.78801,54.05885],[-0.78806,54.05885],[-0.78811,54.05885]]]]}},
{ "type":"Feature","properties":{"osm_way_id":"30048388","amenity":"parking"},"geometry":{"type":"MultiPolygon","coordinates":[[[[-0.79867,54.13564],[-0.79861,54.13559],[-0.79867,54.13556],[-0.79852,54.13542],[-0.79847,54.13538],[-0.79831,54.13548],[-0.79831,54.13552],[-0.79848,54.13574],[-0.79867,54.13564]]]]}},
{ "type":"Feature","properties":{"osm_way_id":"30048390","amenity":"parking","other":{"access":"yes","fee":"no","parking":"street_side"}}, "geometry":{"type":"MultiPolygon","coordinates":[[[[-0.79849,54.13578],[-0.7986,54.13591],[-0.79866,54.13592],[-0.79871,54.13589],[-0.79858,54.13573],[-0.79849,54.13578]]]]}},
{ "type":"Feature","properties":{"osm_way_id":"30048394","amenity":"parking","other":{"access":"yes","fee":"no","parking":"surface"}}, "geometry":{"type":"MultiPolygon","coordinates":[[[[-0.79882,54.13522],[-0.79886,54.13526],[-0.79887,54.13527],[-0.79927,54.13515],[-0.79935,54.13524],[-0.79941,54.1353],[-0.7994,54.13533],[-0.79943,54.13536],[-0.79944,54.13535],[-0.79946,54.13536],[-0.79962,54.13523],[-0.79972,54.13508],[-0.79971,54.13502],[-0.79965,54.13499],[-0.79946,54.13499],[-0.79934,54.13511],[-0.79927,54.13513],[-0.79911,54.13507],[-0.79882,54.13522]]]]}},
{ "type":"Feature","properties":{"osm_way_id":"30048396","amenity":"parking","other":{"access":"yes","fee":"no","parking":"surface"}}, "geometry":{"type":"MultiPolygon","coordinates":[[[[-0.79944,54.13539],[-0.7994,54.13535],[-0.79907,54.13548],[-0.79917,54.13555],[-0.79924,54.13556],[-0.79944,54.13539]]]]}},
{ "type":"Feature","properties":{"osm_way_id":"30066616","amenity":"parking","other":{"parking":"surface"}}, "geometry":{"type":"MultiPolygon","coordinates":[[[[-0.79959,54.13492],[-0.79936,54.13484],[-0.79938,54.13482],[-0.79935,54.13477],[-0.79904,54.13473],[-0.79899,54.1346],[-0.79886,54.13461],[-0.79883,54.13462],[-0.7988,54.13456],[-0.79862,54.1346],[-0.79863,54.13462],[-0.7985,54.13464],[-0.79856,54.13483],[-0.79892,54.1348],[-0.79897,54.13478],[-0.79899,54.1348],[-0.79896,54.13483],[-0.79911,54.13496],[-0.79918,54.13493],[-0.79946,54.13492],[-0.79952,54.13492],[-0.79959,54.13492]]]]}},
{ "type":"Feature","properties":{"osm_way_id":"32675104","name":"Saltergate","amenity":"parking","other":{"charge":"Â£2.50","fee":"yes","parking":"surface","surface":"asphalt"}}, "geometry":{"type":"MultiPolygon","coordinates":[[[[-0.69036,54.33238],[-0.69024,54.33234],[-0.69017,54.33231],[-0.69015,54.33229],[-0.69014,54.33227],[-0.69023,54.33106],[-0.69024,54.33095],[-0.69026,54.33086],[-0.69028,54.33083],[-0.69031,54.3308],[-0.69037,54.33078],[-0.69041,54.33077],[-0.69049,54.33076],[-0.69036,54.33238]]]]}},
{ "type":"Feature","properties":{"osm_way_id":"54442556","name":"Low Mill","amenity":"parking","other":{"fee":"no"}}, "geometry":{"type":"MultiPolygon","coordinates":[[[[-0.96626,54.34803],[-0.96619,54.34807],[-0.9661,54.34809],[-0.96467,54.3482],[-0.96466,54.34779],[-0.9644,54.34778],[-0.96379,54.3479],[-0.96396,54.34753],[-0.96415,54.3475],[-0.96501,54.34734],[-0.96532,54.34744],[-0.96545,54.34745],[-0.96571,54.34741],[-0.96581,54.34756],[-0.96598,54.34779],[-0.96622,54.34778],[-0.96626,54.34794],[-0.96626,54.34803]]]]}},
{ "type":"Feature","properties":{"osm_way_id":"60995110","building":"yes","other":{"addr:city":"Reading","addr:country":"GB","addr:housenumber":"6","addr:street":"Shepherds Avenue","source:building":"OS_OpenData_StreetView"}}, "geometry":{"type":"MultiPolygon","coordinates":[[[[-0.92369,51.459],[-0.92367,51.45894],[-0.92374,51.45893],[-0.92376,51.45898],[-0.92369,51.459]]]]}},
{ "type":"Feature","properties":{"osm_way_id":"69553634","amenity":"parking","other":{"parking":"surface"}}, "geometry":{"type":"MultiPolygon","coordinates":[[[[-1.2095,54.24148],[-1.20906,54.241],[-1.20899,54.24092],[-1.20878,54.24068],[-1.20851,54.2404],[-1.20839,54.24029],[-1.20817,54.24038],[-1.20884,54.24107],[-1.20929,54.24156],[-1.20946,54.2415],[-1.2095,54.24148]]]]}},
{ "type":"Feature","properties":{"osm_way_id":"69553636","amenity":"parking","other":{"fee":"yes","parking":"surface"}}, "geometry":{"type":"MultiPolygon","coordinates":[[[[-1.21095,54.24081],[-1.21107,54.24076],[-1.21116,54.24069],[-1.21075,54.24019],[-1.21065,54.24007],[-1.21048,54.24012],[-1.21038,54.24014],[-1.2104,54.2402],[-1.21095,54.24081]]]]}},
{ "type":"Feature","properties":{"osm_way_id":"69813570","amenity":"parking","other":{"fee":"no","park_ride":"no","parking":"surface"}}, "geometry":{"type":"MultiPolygon","coordinates":[[[[-1.16813,54.30088],[-1.16805,54.30089],[-1.16805,54.30091],[-1.16805,54.30094],[-1.16805,54.301],[-1.16806,54.30103],[-1.16809,54.30102],[-1.16812,54.30102],[-1.16811,54.30099],[-1.16817,54.30098],[-1.16813,54.30088]]]]}},
{ "type":"Feature","properties":{"osm_way_id":"69813583","amenity":"parking","other":{"fee":"no","park_ride":"no","parking":"surface"}}, "geometry":{"type":"MultiPolygon","coordinates":[[[[-1.16857,54.30094],[-1.16843,54.30097],[-1.16824,54.301],[-1.16824,54.30097],[-1.16825,54.30082],[-1.16864,54.30079],[-1.16869,54.30092],[-1.16857,54.30094]]]]}},
{ "type":"Feature","properties":{"osm_way_id":"94587649","amenity":"parking","other":{"access":"yes","fee":"no","parking":"surface"}}, "geometry":{"type":"MultiPolygon","coordinates":[[[[0.87965,52.32406],[0.87997,52.32459],[0.88034,52.32452],[0.88022,52.3243],[0.88011,52.32407],[0.88006,52.32408],[0.88004,52.32404],[0.8801,52.32403],[0.88008,52.32399],[0.88,52.324],[0.87972,52.32405],[0.87965,52.32406]]]]}},
{ "type":"Feature","properties":{"osm_way_id":"98330792","name":"Western Road","amenity":"parking","other":{"capacity":"50","capacity:disabled":"2","fee":"yes","parking":"surface"}}, "geometry":{"type":"MultiPolygon","coordinates":[[[[-1.91524,50.70441],[-1.91521,50.70437],[-1.91548,50.70426],[-1.91572,50.70457],[-1.91548,50.70465],[-1.91543,50.70468],[-1.91542,50.70474],[-1.91547,50.70476],[-1.91556,50.70493],[-1.91547,50.70495],[-1.91533,50.70498],[-1.91522,50.7048],[-1.91523,50.70468],[-1.91529,50.70462],[-1.91514,50.70445],[-1.91524,50.70441]]]]}},
{ "type":"Feature","properties":{"osm_way_id":"104507064","amenity":"parking","other":{"fee":"yes","park_ride":"no","parking":"surface"}}, "geometry":{"type":"MultiPolygon","coordinates":[[[[0.60928,51.5877],[0.60979,51.58768],[0.6102,51.58765],[0.61051,51.58758],[0.61046,51.58753],[0.61013,51.58746],[0.6096,51.58748],[0.60939,51.58733],[0.60926,51.58731],[0.60911,51.58773],[0.60928,51.5877]]]]}},
{ "type":"Feature","properties":{"osm_way_id":"106285260","amenity":"parking","other":{"access":"yes","fee":"no","parking":"surface","source:geometry":"Bing;survey","surface":"fine_gravel"}}, "geometry":{"type":"MultiPolygon","coordinates":[[[[-0.94946,54.38169],[-0.94927,54.38174],[-0.94941,54.38209],[-0.94959,54.38208],[-0.94955,54.38195],[-0.94946,54.38169]]]]}},
{ "type":"Feature","properties":{"osm_way_id":"107291235","name":"Charles Street","amenity":"parking","building":"yes","other":{"brand":"Q-Park","brand:wikidata":"Q1127798","brand:wikipedia":"en:Q-Park","capacity":"530","fee":"yes","old_name":"Yorkshire Grey Public House","operator":"Q-Park","operator:wikidata":"Q1127798","operator:wikipedia":"en:Q-Park"}}, "geometry":{"type":"MultiPolygon","coordinates":[[[[-1.46867,53.37892],[-1.46925,53.37863],[-1.46921,53.3786],[-1.46916,53.37856],[-1.46892,53.3784],[-1.46835,53.37869],[-1.46849,53.37879],[-1.46867,53.37892]]]]}},
{ "type":"Feature","properties":{"osm_way_id":"110333870","amenity":"parking","other":{"parking":"surface"}}, "geometry":{"type":"MultiPolygon","coordinates":[[[[-2.03389,52.19569],[-2.0339,52.19558],[-2.03391,52.19548],[-2.03396,52.19544],[-2.03405,52.19545],[-2.03419,52.19546],[-2.03426,52.19546],[-2.03424,52.1953],[-2.03405,52.1953],[-2.03385,52.19531],[-2.03377,52.19534],[-2.03373,52.19538],[-2.0337,52.19567],[-2.03379,52.19568],[-2.03389,52.19569]]]]}},
{ "type":"Feature","properties":{"osm_way_id":"116229666","amenity":"parking","other":{"access":"permissive","fee":"no"}}, "geometry":{"type":"MultiPolygon","coordinates":[[[[-0.9393,54.2766],[-0.93935,54.27688],[-0.93844,54.27694],[-0.93868,54.27678],[-0.93877,54.2767],[-0.93882,54.27665],[-0.9393,54.2766]]]]}},
{ "type":"Feature","properties":{"osm_way_id":"117125849","amenity":"parking","other":{"source:geometry":"Bing"}}, "geometry":{"type":"MultiPolygon","coordinates":[[[[-0.91802,54.30244],[-0.91777,54.30279],[-0.91764,54.30276],[-0.9174,54.3027],[-0.91771,54.30239],[-0.91802,54.30244]]]]}},
{ "type":"Feature","properties":{"osm_way_id":"122531736","amenity":"parking","other":{"access":"yes","fee":"yes","parking":"surface"}}, "geometry":{"type":"MultiPolygon","coordinates":[[[[-1.06551,54.24661],[-1.06524,54.24626],[-1.06557,54.24618],[-1.06564,54.24625],[-1.0658,54.24621],[-1.06601,54.24649],[-1.0656,54.24659],[-1.06551,54.24661]]]]}},
{ "type":"Feature","properties":{"osm_way_id":"122531740","amenity":"parking","other":{"access":"yes","fee":"yes","parking":"surface"}}, "geometry":{"type":"MultiPolygon","coordinates":[[[[-1.06609,54.24624],[-1.06602,54.24596],[-1.06599,54.24586],[-1.06609,54.24587],[-1.06607,54.24581],[-1.06623,54.24579],[-1.06639,54.24578],[-1.06639,54.24582],[-1.06651,54.24581],[-1.06658,54.24615],[-1.06631,54.24617],[-1.0663,54.24621],[-1.06623,54.24622],[-1.06609,54.24624]]]]}},
{ "type":"Feature","properties":{"osm_way_id":"122546271","name":"Market Square","amenity":"parking","other":{"access":"yes","capacity":"50","fee":"yes","parking":"surface"}}, "geometry":{"type":"MultiPolygon","coordinates":[[[[-1.0616,54.24605],[-1.06143,54.2459],[-1.06128,54.24596],[-1.06125,54.24594],[-1.06118,54.24595],[-1.06114,54.24589],[-1.06084,54.24597],[-1.06109,54.24634],[-1.06119,54.24643],[-1.06127,54.24647],[-1.06134,54.24648],[-1.0614,54.24648],[-1.06154,54.24645],[-1.06189,54.2464],[-1.06174,54.24625],[-1.0616,54.24612],[-1.0616,54.24605]]]]}},
{ "type":"Feature","properties":{"osm_way_id":"125553465","amenity":"parking"},"geometry":{"type":"MultiPolygon","coordinates":[[[[-0.91707,54.30352],[-0.91706,54.30339],[-0.91659,54.3034],[-0.91649,54.30341],[-0.91641,54.30341],[-0.91626,54.30349],[-0.91627,54.30355],[-0.9164,54.30355],[-0.91683,54.30353],[-0.91707,54.30352]]]]}},
{ "type":"Feature","properties":{"osm_way_id":"125553468","amenity":"parking"},"geometry":{"type":"MultiPolygon","coordinates":[[[[-0.91719,54.30334],[-0.91719,54.30321],[-0.91691,54.30321],[-0.91677,54.30321],[-0.91656,54.30336],[-0.91663,54.30336],[-0.91719,54.30334]]]]}},
{ "type":"Feature","properties":{"osm_way_id":"125553470","amenity":"parking"},"geometry":{"type":"MultiPolygon","coordinates":[[[[-0.91727,54.30315],[-0.91728,54.30302],[-0.91721,54.30302],[-0.91701,54.30302],[-0.91694,54.30307],[-0.91694,54.30316],[-0.91727,54.30315]]]]}},
{ "type":"Feature","properties":{"osm_way_id":"125735988","amenity":"parking","other":{"access":"customers"}}, "geometry":{"type":"MultiPolygon","coordinates":[[[[-1.00718,54.08899],[-1.00728,54.08885],[-1.00749,54.08891],[-1.0074,54.08915],[-1.00728,54.08914],[-1.00723,54.08912],[-1.00718,54.08906],[-1.00718,54.08899]]]]}},
{ "type":"Feature","properties":{"osm_way_id":"125824121","amenity":"parking","other":{"access":"customers"}}, "geometry":{"type":"MultiPolygon","coordinates":[[[[-0.97531,54.20742],[-0.97533,54.20721],[-0.97518,54.20705],[-0.97478,54.20719],[-0.9746,54.20729],[-0.9738,54.20754],[-0.97399,54.20761],[-0.97446,54.20776],[-0.97495,54.20762],[-0.97531,54.20742]]]]}},
{ "type":"Feature","properties":{"osm_way_id":"125826962","amenity":"parking","other":{"parking":"surface"}}, "geometry":{"type":"MultiPolygon","coordinates":[[[[-1.07554,54.24103],[-1.07503,54.24092],[-1.07517,54.2407],[-1.07531,54.24073],[-1.07568,54.24082],[-1.07554,54.24103]]]]}},
{ "type":"Feature","properties":{"osm_way_id":"125826965","amenity":"parking","other":{"parking":"surface"}}, "geometry":{"type":"MultiPolygon","coordinates":[[[[-1.07532,54.24131],[-1.07498,54.24118],[-1.07506,54.24104],[-1.07547,54.24113],[-1.07532,54.24131]]]]}},
{ "type":"Feature","properties":{"osm_way_id":"126277834","name":"Vivis Lane Car Park","amenity":"parking","other":{"fee":"yes","parking":"surface"}}, "geometry":{"type":"MultiPolygon","coordinates":[[[[-0.78033,54.24412],[-0.78084,54.24415],[-0.78082,54.24435],[-0.78081,54.24448],[-0.78104,54.24449],[-0.78109,54.24417],[-0.78112,54.24387],[-0.78046,54.24375],[-0.78033,54.24412]]]]}},
{ "type":"Feature","properties":{"osm_way_id":"126277836","name":"The Ropery Car Park","amenity":"parking","other":{"access":"yes","fee":"yes","parking":"surface"}}, "geometry":{"type":"MultiPolygon","coordinates":[[[[-0.77899,54.24562],[-0.77897,54.2455],[-0.779,54.24535],[-0.77901,54.24519],[-0.77907,54.24503],[-0.77962,54.24512],[-0.77954,54.24529],[-0.77947,54.24542],[-0.77941,54.2455],[-0.77935,54.24558],[-0.77927,54.24562],[-0.7792,54.24566],[-0.77899,54.24562]]]]}},
{ "type":"Feature","properties":{"osm_way_id":"132468931","amenity":"parking"},"geometry":{"type":"MultiPolygon","coordinates":[[[[-2.27569,51.03828],[-2.27611,51.03825],[-2.27617,51.03871],[-2.27595,51.03872],[-2.27593,51.03859],[-2.27573,51.0386],[-2.27569,51.03828]]]]}},
{ "type":"Feature","properties":{"osm_way_id":"132468932","amenity":"parking"},"geometry":{"type":"MultiPolygon","coordinates":[[[[-2.27589,51.03774],[-2.27578,51.03802],[-2.27551,51.03793],[-2.27553,51.0378],[-2.27561,51.0377],[-2.27589,51.03774]]]]}},
{ "type":"Feature","properties":{"osm_way_id":"132468934","amenity":"parking"},"geometry":{"type":"MultiPolygon","coordinates":[[[[-2.27804,51.03811],[-2.2782,51.03811],[-2.27829,51.03814],[-2.27827,51.03825],[-2.27806,51.03833],[-2.27815,51.03845],[-2.27825,51.03848],[-2.27858,51.03798],[-2.27839,51.03793],[-2.27827,51.03802],[-2.27803,51.03801],[-2.27804,51.03811]]]]}},
{ "type":"Feature","properties":{"osm_way_id":"132468935","amenity":"parking"},"geometry":{"type":"MultiPolygon","coordinates":[[[[-2.27743,51.03698],[-2.27746,51.03716],[-2.27689,51.03721],[-2.27692,51.03733],[-2.27661,51.03733],[-2.27661,51.03727],[-2.27662,51.03706],[-2.27743,51.03698]]]]}},
{ "type":"Feature","properties":{"osm_way_id":"138792637","amenity":"parking","other":{"access":"unknown"}}, "geometry":{"type":"MultiPolygon","coordinates":[[[[-1.00874,54.08753],[-1.00901,54.08731],[-1.00912,54.08723],[-1.00955,54.08742],[-1.00954,54.08749],[-1.0095,54.08749],[-1.00908,54.08752],[-1.00874,54.08753]]]]}},
{ "type":"Feature","properties":{"osm_way_id":"144618296","amenity":"parking","other":{"parking":"surface"}}, "geometry":{"type":"MultiPolygon","coordinates":[[[[-1.21024,54.24157],[-1.21019,54.24156],[-1.2101,54.24154],[-1.21065,54.24106],[-1.21074,54.24109],[-1.21077,54.2411],[-1.21064,54.24121],[-1.21043,54.24138],[-1.21024,54.24157]]]]}},
{ "type":"Feature","properties":{"osm_way_id":"147909601","amenity":"parking","other":{"access":"customers"}}, "geometry":{"type":"MultiPolygon","coordinates":[[[[-0.93706,53.99028],[-0.93719,53.99027],[-0.93825,53.99013],[-0.93838,53.99012],[-0.93842,53.99028],[-0.93826,53.99029],[-0.93812,53.9903],[-0.93783,53.99033],[-0.93741,53.99038],[-0.93723,53.99041],[-0.93712,53.99042],[-0.93706,53.99028]]]]}},
{ "type":"Feature","properties":{"osm_way_id":"158035463","amenity":"parking"},"geometry":{"type":"MultiPolygon","coordinates":[[[[-0.80811,54.14054],[-0.80776,54.14041],[-0.80759,54.14033],[-0.80754,54.1403],[-0.80751,54.14026],[-0.80751,54.14022],[-0.80751,54.14018],[-0.80755,54.14014],[-0.80758,54.1401],[-0.80767,54.14007],[-0.80777,54.14005],[-0.80786,54.14005],[-0.80794,54.14007],[-0.80832,54.14023],[-0.80827,54.14026],[-0.80857,54.14033],[-0.80824,54.1406],[-0.80811,54.14054]]]]}},
{ "type":"Feature","properties":{"osm_way_id":"160729248","amenity":"parking","other":{"access":"yes","fee":"yes","operator":"National Trust","operator:wikidata":"Q333515","operator:wikipedia":"en:National Trust","parking":"surface","payment:cash":"yes","payment:debit_cards":"yes","surface":"unpaved"}}, "geometry":{"type":"MultiPolygon","coordinates":[[[[-0.55028,51.44077],[-0.5504,51.44074],[-0.55074,51.44079],[-0.55075,51.44076],[-0.55115,51.44082],[-0.55176,51.44095],[-0.55227,51.44105],[-0.55268,51.44114],[-0.55287,51.44116],[-0.55311,51.44118],[-0.55352,51.44127],[-0.55345,51.44132],[-0.55335,51.44141],[-0.55319,51.44138],[-0.55318,51.44138],[-0.55316,51.44137],[-0.55295,51.44133],[-0.55266,51.4419],[-0.55007,51.44131],[-0.55028,51.44077]]]]}},
{ "type":"Feature","properties":{"osm_way_id":"161701074","name":"Lidl Car Park","amenity":"parking","other":{"access":"customers","fee":"no","parking":"surface"}}, "geometry":{"type":"MultiPolygon","coordinates":[[[[-0.77996,54.24479],[-0.77997,54.24454],[-0.77965,54.24454],[-0.77965,54.24448],[-0.77975,54.24448],[-0.77975,54.24439],[-0.77999,54.24388],[-0.78012,54.24375],[-0.78033,54.24366],[-0.78025,54.24388],[-0.78005,54.24447],[-0.78004,54.24479],[-0.77996,54.24479]]]]}},
{ "type":"Feature","properties":{"osm_way_id":"163758635","amenity":"parking","other":{"access":"customers"}}, "geometry":{"type":"MultiPolygon","coordinates":[[[[-0.78402,54.25085],[-0.78393,54.25117],[-0.78454,54.25124],[-0.78449,54.25146],[-0.78463,54.2515],[-0.78506,54.25101],[-0.78402,54.25085]]]]}},
{ "type":"Feature","properties":{"osm_way_id":"163758637","amenity":"parking","other":{"access":"customers"}}, "geometry":{"type":"MultiPolygon","coordinates":[[[[-0.78391,54.25243],[-0.78335,54.25237],[-0.78342,54.25216],[-0.78398,54.25221],[-0.78395,54.25231],[-0.78391,54.25243]]]]}},
{ "type":"Feature","properties":{"osm_way_id":"165042200","amenity":"parking","other":{"access":"customers","parking":"surface"}}, "geometry":{"type":"MultiPolygon","coordinates":[[[[-0.77631,54.24179],[-0.7762,54.24225],[-0.77657,54.24228],[-0.77668,54.24182],[-0.77631,54.24179]]]]}},
{ "type":"Feature","properties":{"osm_way_id":"167004585","name":"NYMR overflow parking","amenity":"parking","other":{"capacity":"20","fee":"yes","park_ride":"no","parking":"surface"}}, "geometry":{"type":"MultiPolygon","coordinates":[[[[-0.77428,54.25331],[-0.77447,54.25314],[-0.77403,54.25296],[-0.77383,54.25316],[-0.77425,54.25332],[-0.77428,54.25331]]]]}},
{ "type":"Feature","properties":{"osm_way_id":"168561361","amenity":"parking","other":{"access":"customers"}}, "geometry":{"type":"MultiPolygon","coordinates":[[[[-0.77184,54.23349],[-0.77152,54.23343],[-0.77018,54.23317],[-0.77023,54.23301],[-0.77196,54.23335],[-0.7719,54.23342],[-0.77184,54.23349]]]]}},
{ "type":"Feature","properties":{"osm_way_id":"168771629","amenity":"parking","other":{"access":"customers"}}, "geometry":{"type":"MultiPolygon","coordinates":[[[[-0.97796,54.17243],[-0.97824,54.17244],[-0.97847,54.17246],[-0.97847,54.17248],[-0.97844,54.17256],[-0.9783,54.17254],[-0.97821,54.17257],[-0.97793,54.17256],[-0.97796,54.17243]]]]}},
{ "type":"Feature","properties":{"osm_way_id":"168970040","amenity":"parking","other":{"access":"customers","check_date:fee":"2020-10-23","fee":"no","parking":"surface"}}, "geometry":{"type":"MultiPolygon","coordinates":[[[[-1.47992,53.35497],[-1.48006,53.35491],[-1.48013,53.35498],[-1.48032,53.35517],[-1.47999,53.35528],[-1.47983,53.35526],[-1.4798,53.35523],[-1.47981,53.35522],[-1.47965,53.35508],[-1.47975,53.35504],[-1.47992,53.35497]]]]}},
{ "type":"Feature","properties":{"osm_way_id":"169717931","amenity":"parking","other":{"access":"customers"}}, "geometry":{"type":"MultiPolygon","coordinates":[[[[-0.77275,54.23415],[-0.77269,54.23414],[-0.77266,54.23414],[-0.77262,54.23411],[-0.7726,54.23409],[-0.77258,54.23406],[-0.77257,54.23404],[-0.77254,54.23404],[-0.7725,54.23407],[-0.77247,54.23408],[-0.77241,54.2341],[-0.77237,54.2341],[-0.77231,54.23409],[-0.77227,54.23408],[-0.77223,54.23405],[-0.77222,54.23403],[-0.77221,54.23398],[-0.77224,54.23394],[-0.77228,54.23391],[-0.77231,54.2339],[-0.77237,54.2339],[-0.77241,54.2339],[-0.77241,54.23389],[-0.77237,54.23387],[-0.77235,54.23385],[-0.77233,54.23381],[-0.77234,54.23379],[-0.77235,54.23377],[-0.77239,54.23373],[-0.77247,54.23371],[-0.77253,54.23371],[-0.77256,54.23372],[-0.77262,54.23373],[-0.77264,54.23375],[-0.77267,54.23378],[-0.77268,54.2338],[-0.77267,54.23384],[-0.77271,54.23384],[-0.77273,54.23384],[-0.77278,54.23387],[-0.7728,54.23389],[-0.77281,54.23394],[-0.7728,54.23396],[-0.77283,54.23397],[-0.77287,54.23399],[-0.7729,54.23402],[-0.77291,54.23405],[-0.77291,54.23407],[-0.77289,54.2341],[-0.77284,54.23413],[-0.77279,54.23415],[-0.77275,54.23415]]]]}},
{ "type":"Feature","properties":{"osm_way_id":"169723613","amenity":"parking","other":{"access":"customers"}}, "geometry":{"type":"MultiPolygon","coordinates":[[[[-0.75564,54.23745],[-0.7554,54.23818],[-0.7555,54.23826],[-0.75553,54.23826],[-0.75577,54.23747],[-0.75564,54.23745]]]]}},
{ "type":"Feature","properties":{"osm_way_id":"169725563","amenity":"parking","other":{"access":"customers","parking":"surface"}}, "geometry":{"type":"MultiPolygon","coordinates":[[[[-0.7707,54.22345],[-0.77098,54.22348],[-0.77103,54.22349],[-0.77109,54.22328],[-0.77092,54.22326],[-0.77064,54.22325],[-0.7707,54.22345]]]]}},
{ "type":"Feature","properties":{"osm_way_id":"169794705","name":"Pickering Station Car Park","amenity":"parking","other":{"access":"customers","capacity:disabled":"yes","fee":"Â£5.00","lit":"yes","operator":"NYMR","parking":"surface","smoothness":"excellent","supervised":"no","surface":"asphalt"}}, "geometry":{"type":"MultiPolygon","coordinates":[[[[-0.77874,54.24901],[-0.77873,54.24897],[-0.77875,54.24897],[-0.77874,54.24893],[-0.77872,54.24893],[-0.77868,54.2485],[-0.77872,54.24849],[-0.77874,54.24849],[-0.77896,54.24863],[-0.77911,54.24901],[-0.7792,54.24926],[-0.77903,54.24953],[-0.77883,54.2494],[-0.77874,54.24901]]]]}},
{ "type":"Feature","properties":{"osm_way_id":"170057422","amenity":"parking","other":{"operator":"Asda","parking":"surface"}}, "geometry":{"type":"MultiPolygon","coordinates":[[[[-0.79615,54.13235],[-0.79593,54.13234],[-0.79503,54.13228],[-0.79453,54.13226],[-0.79403,54.13226],[-0.79402,54.13218],[-0.79497,54.13211],[-0.7952,54.13211],[-0.7962,54.13207],[-0.79615,54.13235]]]]}},
{ "type":"Feature","properties":{"osm_way_id":"170178953","amenity":"parking","other":{"access":"customers"}}, "geometry":{"type":"MultiPolygon","coordinates":[[[[-0.77139,54.21218],[-0.77217,54.21208],[-0.77213,54.21185],[-0.77193,54.21186],[-0.77193,54.21192],[-0.77175,54.21193],[-0.77167,54.21195],[-0.77155,54.21195],[-0.77155,54.21183],[-0.77146,54.21182],[-0.77139,54.21218]]]]}},
{ "type":"Feature","properties":{"osm_way_id":"170505367","amenity":"parking","other":{"access":"yes","fee":"no","parking":"surface"}}, "geometry":{"type":"MultiPolygon","coordinates":[[[[-0.87879,54.08322],[-0.87896,54.08321],[-0.87899,54.08319],[-0.87875,54.08305],[-0.87864,54.08302],[-0.87852,54.08302],[-0.87848,54.08304],[-0.87846,54.08305],[-0.87845,54.08305],[-0.87843,54.08305],[-0.87841,54.08305],[-0.87841,54.08306],[-0.87841,54.08306],[-0.87845,54.08308],[-0.87847,54.08309],[-0.8785,54.0831],[-0.87853,54.08312],[-0.87852,54.08317],[-0.87862,54.08319],[-0.87869,54.0832],[-0.87879,54.08322]]]]}},
{ "type":"Feature","properties":{"osm_way_id":"173023589","amenity":"parking","other":{"access":"yes","fee":"no","parking":"surface"}}, "geometry":{"type":"MultiPolygon","coordinates":[[[[-1.82006,53.80026],[-1.82006,53.80017],[-1.81962,53.80017],[-1.81963,53.80031],[-1.81989,53.80031],[-1.81989,53.80026],[-1.82006,53.80026]]]]}},
{ "type":"Feature","properties":{"osm_way_id":"174295057","amenity":"parking"},"geometry":{"type":"MultiPolygon","coordinates":[[[[-0.61032,54.23008],[-0.61022,54.2297],[-0.61017,54.2295],[-0.60999,54.22951],[-0.6099,54.2295],[-0.60989,54.22995],[-0.6101,54.22996],[-0.6101,54.23002],[-0.60994,54.23003],[-0.60996,54.2301],[-0.61032,54.23008]]]]}},
{ "type":"Feature","properties":{"osm_way_id":"175969323","amenity":"parking"},"geometry":{"type":"MultiPolygon","coordinates":[[[[-0.49592,54.19058],[-0.49587,54.19052],[-0.49579,54.19053],[-0.49574,54.19045],[-0.49553,54.1902],[-0.49555,54.19016],[-0.49556,54.19013],[-0.49609,54.18994],[-0.49617,54.18988],[-0.49621,54.18981],[-0.49648,54.18972],[-0.49666,54.18994],[-0.4958,54.19016],[-0.49584,54.19021],[-0.49603,54.19044],[-0.49594,54.19046],[-0.49601,54.19056],[-0.49592,54.19058]]]]}},
{ "type":"Feature","properties":{"osm_way_id":"183967381","amenity":"parking"},"geometry":{"type":"MultiPolygon","coordinates":[[[[-1.07531,54.23923],[-1.07523,54.23932],[-1.0751,54.23941],[-1.07503,54.23945],[-1.07473,54.23941],[-1.07466,54.23931],[-1.0747,54.2392],[-1.07474,54.23899],[-1.07478,54.23887],[-1.07485,54.23884],[-1.07494,54.23881],[-1.07508,54.23881],[-1.07525,54.23884],[-1.07534,54.23889],[-1.07536,54.23899],[-1.07536,54.23906],[-1.07539,54.23912],[-1.07531,54.23923]]]]}},
{ "type":"Feature","properties":{"osm_way_id":"185196310","amenity":"parking","other":{"access":"private"}}, "geometry":{"type":"MultiPolygon","coordinates":[[[[-0.67059,54.35977],[-0.6705,54.35949],[-0.66915,54.35965],[-0.66924,54.35993],[-0.67059,54.35977]]]]}},
{ "type":"Feature","properties":{"osm_way_id":"185196419","amenity":"parking","other":{"access":"private"}}, "geometry":{"type":"MultiPolygon","coordinates":[[[[-0.66988,54.35809],[-0.66963,54.35806],[-0.66973,54.35775],[-0.66998,54.35778],[-0.66988,54.35809]]]]}},
{ "type":"Feature","properties":{"osm_way_id":"185196422","amenity":"parking","other":{"access":"private"}}, "geometry":{"type":"MultiPolygon","coordinates":[[[[-0.67128,54.35907],[-0.67131,54.35889],[-0.67175,54.35892],[-0.67171,54.35909],[-0.67128,54.35907]]]]}},
{ "type":"Feature","properties":{"osm_way_id":"185196423","amenity":"parking","other":{"access":"private"}}, "geometry":{"type":"MultiPolygon","coordinates":[[[[-0.66983,54.36076],[-0.66994,54.36067],[-0.67035,54.36085],[-0.67024,54.36093],[-0.66983,54.36076]]]]}},
{ "type":"Feature","properties":{"osm_way_id":"185196477","amenity":"parking","other":{"access":"private"}}, "geometry":{"type":"MultiPolygon","coordinates":[[[[-0.67195,54.35865],[-0.6718,54.35864],[-0.67188,54.35832],[-0.67203,54.35833],[-0.67195,54.35865]]]]}},
{ "type":"Feature","properties":{"osm_way_id":"185197557","amenity":"parking","other":{"access":"private"}}, "geometry":{"type":"MultiPolygon","coordinates":[[[[-0.67197,54.35909],[-0.67199,54.35896],[-0.67286,54.35904],[-0.67244,54.35913],[-0.67197,54.35909]]]]}},
{ "type":"Feature","properties":{"osm_way_id":"185198407","amenity":"parking","other":{"access":"private"}}, "geometry":{"type":"MultiPolygon","coordinates":[[[[-0.66902,54.35644],[-0.66833,54.35632],[-0.66838,54.35622],[-0.66871,54.35628],[-0.66874,54.35623],[-0.6691,54.35629],[-0.66902,54.35644]]]]}},
{ "type":"Feature","properties":{"osm_way_id":"188998168","amenity":"parking","other":{"access":"customers","parking":"surface"}}, "geometry":{"type":"MultiPolygon","coordinates":[[[[-0.80937,54.20852],[-0.80877,54.20858],[-0.80811,54.20859],[-0.8081,54.20846],[-0.80809,54.2083],[-0.80802,54.20745],[-0.80817,54.20739],[-0.80817,54.20711],[-0.80831,54.20709],[-0.80862,54.20706],[-0.80916,54.20702],[-0.80921,54.20706],[-0.80928,54.20708],[-0.80934,54.20709],[-0.8094,54.20709],[-0.80942,54.2071],[-0.80946,54.20709],[-0.80951,54.20708],[-0.80958,54.20705],[-0.80962,54.20699],[-0.80962,54.20696],[-0.80961,54.20693],[-0.80958,54.2069],[-0.80953,54.20685],[-0.80955,54.20674],[-0.80999,54.20672],[-0.81162,54.20667],[-0.81173,54.20667],[-0.81182,54.20668],[-0.81185,54.20671],[-0.81192,54.20682],[-0.81196,54.20704],[-0.81196,54.20742],[-0.81193,54.20778],[-0.81183,54.20845],[-0.8117,54.20927],[-0.81159,54.20927],[-0.80993,54.20923],[-0.80993,54.20896],[-0.80989,54.20878],[-0.80987,54.20874],[-0.8098,54.20871],[-0.80975,54.20868],[-0.80973,54.20866],[-0.8097,54.20862],[-0.80971,54.20857],[-0.80976,54.20806],[-0.80973,54.20801],[-0.80969,54.20796],[-0.80953,54.20789],[-0.80945,54.20852],[-0.80937,54.20852]]]]}},
{ "type":"Feature","properties":{"osm_way_id":"203649503","amenity":"parking","other":{"access":"yes","capacity":"100","charge":"Â£5","fee":"yes","parking":"surface","surface":"gravel"}}, "geometry":{"type":"MultiPolygon","coordinates":[[[[-0.77769,54.25071],[-0.77743,54.25093],[-0.77691,54.2514],[-0.77748,54.25169],[-0.77765,54.25157],[-0.77798,54.25138],[-0.7783,54.25112],[-0.77839,54.25101],[-0.77847,54.25085],[-0.77848,54.25062],[-0.77849,54.25045],[-0.77831,54.25041],[-0.77807,54.25079],[-0.77815,54.25082],[-0.77802,54.25099],[-0.77781,54.25116],[-0.77758,54.25133],[-0.77739,54.25144],[-0.77735,54.25142],[-0.77761,54.25121],[-0.77785,54.251],[-0.77806,54.2508],[-0.77769,54.25071]]]]}},
{ "type":"Feature","properties":{"osm_way_id":"204802686","name":"Lidl Car Park","amenity":"parking","other":{"parking":"surface"}}, "geometry":{"type":"MultiPolygon","coordinates":[[[[-0.79126,54.13163],[-0.79114,54.1319],[-0.79101,54.13217],[-0.79112,54.13225],[-0.79126,54.13223],[-0.79203,54.13208],[-0.79213,54.13206],[-0.7922,54.13193],[-0.79167,54.13184],[-0.79166,54.13188],[-0.79138,54.13184],[-0.79146,54.13166],[-0.79126,54.13163]]]]}},
{ "type":"Feature","properties":{"osm_way_id":"205188523","amenity":"parking","other":{"access":"yes","fee":"no","parking":"surface"}}, "geometry":{"type":"MultiPolygon","coordinates":[[[[-0.78118,54.24639],[-0.7807,54.24643],[-0.78062,54.24641],[-0.78053,54.24634],[-0.78116,54.24635],[-0.78122,54.24639],[-0.78118,54.24639]]]]}},
{ "type":"Feature","properties":{"osm_way_id":"205188527","amenity":"parking","other":{"access":"yes"}}, "geometry":{"type":"MultiPolygon","coordinates":[[[[-0.7738,54.24338],[-0.77385,54.24335],[-0.77406,54.24348],[-0.77397,54.24353],[-0.77375,54.24342],[-0.7738,54.24338]]]]}},
{ "type":"Feature","properties":{"osm_way_id":"205188530","amenity":"parking","other":{"access":"yes"}}, "geometry":{"type":"MultiPolygon","coordinates":[[[[-0.77599,54.2445],[-0.77594,54.2446],[-0.77668,54.24469],[-0.77671,54.24465],[-0.77673,54.24462],[-0.77665,54.2446],[-0.77648,54.24457],[-0.77631,54.24454],[-0.77602,54.24447],[-0.77599,54.2445]]]]}},
{ "type":"Feature","properties":{"osm_way_id":"205188532","amenity":"parking","other":{"access":"yes","fee":"no","parking":"surface"}}, "geometry":{"type":"MultiPolygon","coordinates":[[[[-0.77563,54.24495],[-0.77561,54.24492],[-0.77558,54.24483],[-0.77554,54.24478],[-0.77551,54.24472],[-0.77557,54.24471],[-0.77567,54.2447],[-0.77574,54.24494],[-0.77563,54.24495]]]]}},
{ "type":"Feature","properties":{"osm_way_id":"205998787","amenity":"parking","other":{"access":"yes","fee":"Â£5.60\/day","parking":"surface","surface":"asphalt"}}, "geometry":{"type":"MultiPolygon","coordinates":[[[[-0.93324,54.27063],[-0.93341,54.27065],[-0.93375,54.2706],[-0.93366,54.27039],[-0.93358,54.27031],[-0.93352,54.27029],[-0.93345,54.2703],[-0.93334,54.27027],[-0.93321,54.2703],[-0.93324,54.27034],[-0.93304,54.27039],[-0.93304,54.27047],[-0.93314,54.27049],[-0.93324,54.27063]]]]}},
{ "type":"Feature","properties":{"osm_way_id":"216458285","amenity":"parking","other":{"access":"private","parking":"surface"}}, "geometry":{"type":"MultiPolygon","coordinates":[[[[-0.76754,54.13287],[-0.76703,54.13245],[-0.76674,54.13211],[-0.7663,54.13157],[-0.76563,54.13084],[-0.76555,54.13067],[-0.76715,54.13012],[-0.76735,54.13058],[-0.76758,54.13103],[-0.76777,54.13138],[-0.76795,54.13176],[-0.76846,54.1323],[-0.76885,54.13227],[-0.76932,54.13245],[-0.76762,54.13293],[-0.76754,54.13287]]]]}},
{ "type":"Feature","properties":{"osm_way_id":"217964348","name":"Ryedale Car Park","amenity":"parking","other":{"access":"private"}}, "geometry":{"type":"MultiPolygon","coordinates":[[[[-0.99562,54.2512],[-0.99573,54.25118],[-0.99578,54.25126],[-0.99604,54.25121],[-0.99598,54.25113],[-0.99612,54.2511],[-0.99615,54.25115],[-0.99635,54.25112],[-0.99647,54.25131],[-0.99514,54.25159],[-0.99507,54.25146],[-0.99514,54.25143],[-0.99511,54.25137],[-0.99529,54.25133],[-0.99526,54.25127],[-0.99562,54.2512]]]]}},
{ "type":"Feature","properties":{"osm_way_id":"232242380","amenity":"parking","other":{"parking":"surface"}}, "geometry":{"type":"MultiPolygon","coordinates":[[[[-0.80281,54.0575],[-0.80292,54.0575],[-0.80296,54.05748],[-0.803,54.05747],[-0.80302,54.05745],[-0.80302,54.05739],[-0.80303,54.05729],[-0.80267,54.05731],[-0.80272,54.0574],[-0.80275,54.0575],[-0.80281,54.0575]]]]}},
{ "type":"Feature","properties":{"osm_way_id":"234098861","amenity":"parking","other":{"access":"yes","capacity:disabled":"yes","charge":"Â£5","fee":"yes","parking":"surface"}}, "geometry":{"type":"MultiPolygon","coordinates":[[[[-0.77841,54.25032],[-0.77814,54.25026],[-0.77811,54.25026],[-0.77826,54.25006],[-0.77834,54.24991],[-0.77837,54.24992],[-0.7784,54.25001],[-0.77841,54.25017],[-0.77841,54.25032]]]]}},
{ "type":"Feature","properties":{"osm_way_id":"236041218","amenity":"parking","other":{"fee":"no"}}, "geometry":{"type":"MultiPolygon","coordinates":[[[[-0.6434,54.29511],[-0.64307,54.29522],[-0.64291,54.29528],[-0.64274,54.29515],[-0.64225,54.2948],[-0.64231,54.29478],[-0.64236,54.29476],[-0.64238,54.29475],[-0.64242,54.29478],[-0.64278,54.29466],[-0.6434,54.29511]]]]}},
{ "type":"Feature","properties":{"osm_way_id":"240877034","amenity":"parking","other":{"access":"private","parking":"surface"}}, "geometry":{"type":"MultiPolygon","coordinates":[[[[-0.95505,54.07642],[-0.95485,54.07638],[-0.95473,54.07658],[-0.95489,54.07655],[-0.955,54.07655],[-0.95505,54.07642]]]]}},
{ "type":"Feature","properties":{"osm_way_id":"254674096","amenity":"parking","other":{"access":"customers","fee":"no","operator":"Black Swan","parking":"surface"}}, "geometry":{"type":"MultiPolygon","coordinates":[[[[-1.18774,54.21217],[-1.18723,54.21197],[-1.18731,54.21189],[-1.18747,54.21191],[-1.18747,54.21196],[-1.1878,54.21202],[-1.18774,54.21217]]]]}},
{ "type":"Feature","properties":{"osm_way_id":"262556768","name":"Disabled","amenity":"parking","other":{"capacity":"6","parking":"surface"}}, "geometry":{"type":"MultiPolygon","coordinates":[[[[-0.71986,54.23598],[-0.72027,54.23592],[-0.72027,54.23585],[-0.71983,54.23591],[-0.71986,54.23598]]]]}},
{ "type":"Feature","properties":{"osm_way_id":"262556770","name":"Thornton Le Dale Car Park","amenity":"parking","other":{"fee":"yes","operator":"North York Moors National Park","operator:type":"public\/government","parking":"surface","payment:cash":"yes","surface":"asphalt"}}, "geometry":{"type":"MultiPolygon","coordinates":[[[[-0.71927,54.23608],[-0.71897,54.23548],[-0.72024,54.23526],[-0.72027,54.23585],[-0.71983,54.23591],[-0.71986,54.23598],[-0.71927,54.23608]]]]}},
{ "type":"Feature","properties":{"osm_way_id":"262556772","amenity":"parking","other":{"description":"Coach\/Lorry Park","parking":"surface"}}, "geometry":{"type":"MultiPolygon","coordinates":[[[[-0.71897,54.23548],[-0.71884,54.23518],[-0.72023,54.23495],[-0.72024,54.23526],[-0.71897,54.23548]]]]}},
{ "type":"Feature","properties":{"osm_way_id":"270440798","amenity":"parking"},"geometry":{"type":"MultiPolygon","coordinates":[[[[-0.9913,54.25311],[-0.991,54.25286],[-0.99104,54.25282],[-0.99207,54.25255],[-0.99201,54.25246],[-0.99114,54.25268],[-0.99117,54.25273],[-0.99036,54.25291],[-0.99045,54.25297],[-0.99053,54.25295],[-0.99075,54.25326],[-0.99116,54.25316],[-0.99126,54.25314],[-0.9913,54.25311]]]]}},
{ "type":"Feature","properties":{"osm_way_id":"277458183","amenity":"parking"},"geometry":{"type":"MultiPolygon","coordinates":[[[[-0.66364,54.15807],[-0.66329,54.15821],[-0.66298,54.15795],[-0.66334,54.15781],[-0.66364,54.15807]]]]}},
{ "type":"Feature","properties":{"osm_way_id":"307741877","amenity":"parking"},"geometry":{"type":"MultiPolygon","coordinates":[[[[-1.15083,54.20666],[-1.15088,54.20651],[-1.15088,54.20648],[-1.15069,54.20646],[-1.15062,54.20658],[-1.15073,54.2066],[-1.15071,54.20664],[-1.15083,54.20666]]]]}},
{ "type":"Feature","properties":{"osm_way_id":"328263021","amenity":"parking","other":{"access":"customers","description":"Duke of York Public House Car Park"}}, "geometry":{"type":"MultiPolygon","coordinates":[[[[-0.95116,53.9874],[-0.95134,53.98759],[-0.95129,53.98774],[-0.95113,53.98788],[-0.95107,53.98791],[-0.95097,53.9878],[-0.95093,53.98781],[-0.95078,53.98766],[-0.95069,53.98755],[-0.95098,53.98746],[-0.95116,53.9874]]]]}},
{ "type":"Feature","properties":{"osm_way_id":"350212647","amenity":"parking","other":{"access":"customers"}}, "geometry":{"type":"MultiPolygon","coordinates":[[[[-0.95554,54.38855],[-0.95572,54.38849],[-0.9558,54.38845],[-0.95576,54.38842],[-0.95575,54.38839],[-0.95579,54.38835],[-0.95573,54.38827],[-0.95566,54.38819],[-0.95593,54.3881],[-0.95588,54.38805],[-0.95563,54.38779],[-0.95509,54.38796],[-0.95532,54.38825],[-0.95554,54.38855]]]]}},
{ "type":"Feature","properties":{"osm_way_id":"352553194","amenity":"parking"},"geometry":{"type":"MultiPolygon","coordinates":[[[[-0.53055,54.18017],[-0.53065,54.18012],[-0.53114,54.18009],[-0.53117,54.18011],[-0.53127,54.1801],[-0.53122,54.17985],[-0.53122,54.17984],[-0.53116,54.17956],[-0.5311,54.17957],[-0.53109,54.17955],[-0.53051,54.17959],[-0.53052,54.17965],[-0.53064,54.18009],[-0.53054,54.18009],[-0.53055,54.18017]]]]}},
{ "type":"Feature","properties":{"osm_way_id":"352553198","amenity":"parking"},"geometry":{"type":"MultiPolygon","coordinates":[[[[-0.52973,54.17949],[-0.52972,54.17913],[-0.52963,54.17912],[-0.5296,54.17907],[-0.52935,54.17908],[-0.52931,54.1791],[-0.5293,54.17912],[-0.52922,54.17912],[-0.52922,54.17908],[-0.52916,54.17908],[-0.52915,54.17906],[-0.52887,54.17907],[-0.52884,54.17908],[-0.52883,54.17911],[-0.52874,54.17911],[-0.52878,54.17952],[-0.52973,54.17949]]]]}},
{ "type":"Feature","properties":{"osm_way_id":"365801703","amenity":"parking"},"geometry":{"type":"MultiPolygon","coordinates":[[[[-0.88719,54.35373],[-0.88753,54.3537],[-0.88752,54.35364],[-0.88737,54.35365],[-0.88719,54.35373]]]]}},
{ "type":"Feature","properties":{"osm_way_id":"373712468","amenity":"parking","other":{"access":"private","fee":"no","park_ride":"no","parking":"surface","supervised":"no"}}, "geometry":{"type":"MultiPolygon","coordinates":[[[[0.37395,51.49316],[0.37428,51.49364],[0.37614,51.49318],[0.37623,51.493],[0.37611,51.49297],[0.37608,51.49293],[0.37606,51.4929],[0.37579,51.49297],[0.37573,51.49291],[0.37554,51.49293],[0.37549,51.4929],[0.37538,51.49291],[0.37535,51.49292],[0.37532,51.49294],[0.37534,51.493],[0.37528,51.49301],[0.37526,51.49299],[0.37516,51.493],[0.37515,51.49303],[0.37508,51.49304],[0.375,51.49302],[0.3747,51.49305],[0.37467,51.49299],[0.37461,51.49299],[0.37458,51.49296],[0.37444,51.49297],[0.37445,51.49305],[0.37441,51.49308],[0.37395,51.49316]]]]}},
{ "type":"Feature","properties":{"osm_way_id":"376393353","amenity":"parking","other":{"access":"yes","fee":"no","parking":"surface"}}, "geometry":{"type":"MultiPolygon","coordinates":[[[[-0.78,54.24636],[-0.78,54.24643],[-0.78046,54.24646],[-0.78042,54.24636],[-0.78041,54.24633],[-0.78001,54.24634],[-0.78,54.24636]]]]}},
{ "type":"Feature","properties":{"osm_way_id":"376474869","amenity":"parking","other":{"designation":"Disabled"}}, "geometry":{"type":"MultiPolygon","coordinates":[[[[-0.80847,54.14052],[-0.80854,54.14054],[-0.80838,54.14069],[-0.80831,54.14066],[-0.80827,54.14064],[-0.80837,54.14056],[-0.80843,54.1405],[-0.80847,54.14052]]]]}},
{ "type":"Feature","properties":{"osm_way_id":"376474870","amenity":"parking","other":{"access":"yes"}}, "geometry":{"type":"MultiPolygon","coordinates":[[[[-0.79825,54.13556],[-0.79855,54.13597],[-0.79847,54.13599],[-0.79819,54.13558],[-0.79825,54.13556]]]]}},
{ "type":"Feature","properties":{"osm_way_id":"376474875","amenity":"parking","other":{"designation":"Disabled"}}, "geometry":{"type":"MultiPolygon","coordinates":[[[[-0.80851,54.14049],[-0.80847,54.14047],[-0.80854,54.14041],[-0.80862,54.1404],[-0.80871,54.14044],[-0.80861,54.14053],[-0.80851,54.14049]]]]}},
{ "type":"Feature","properties":{"osm_way_id":"391906748","amenity":"parking","other":{"access":"yes","capacity":"12","fee":"no","parking":"surface","surface":"asphalt"}}, "geometry":{"type":"MultiPolygon","coordinates":[[[[-0.99098,54.25514],[-0.99052,54.25524],[-0.99043,54.2551],[-0.99088,54.25498],[-0.99098,54.25514]]]]}},
{ "type":"Feature","properties":{"osm_way_id":"407907138","amenity":"parking"},"geometry":{"type":"MultiPolygon","coordinates":[[[[-0.77322,54.24167],[-0.7733,54.24138],[-0.77345,54.24134],[-0.77357,54.24132],[-0.77357,54.24136],[-0.77346,54.24174],[-0.77338,54.24175],[-0.77333,54.24172],[-0.77322,54.24167]]]]}},
{ "type":"Feature","properties":{"osm_way_id":"408733776","amenity":"parking","other":{"access":"yes","fee":"no","parking":"surface","surface":"gravel"}}, "geometry":{"type":"MultiPolygon","coordinates":[[[[-1.06456,54.25105],[-1.06447,54.25103],[-1.06436,54.25091],[-1.06472,54.25081],[-1.06501,54.25081],[-1.0651,54.25078],[-1.06513,54.25081],[-1.06518,54.25087],[-1.06456,54.25105]]]]}},
{ "type":"Feature","properties":{"osm_way_id":"416438545","amenity":"parking","other":{"access":"yes","fee":"no","parking":"surface"}}, "geometry":{"type":"MultiPolygon","coordinates":[[[[-0.89126,54.34363],[-0.89134,54.34358],[-0.89139,54.34354],[-0.89138,54.34348],[-0.89142,54.34341],[-0.89148,54.34337],[-0.89152,54.34336],[-0.89152,54.34333],[-0.8915,54.34328],[-0.8915,54.34324],[-0.89137,54.34332],[-0.89137,54.34334],[-0.89134,54.34336],[-0.89126,54.34343],[-0.89119,54.34348],[-0.89112,54.34351],[-0.89108,54.34352],[-0.89107,54.34352],[-0.89104,54.34353],[-0.89104,54.34355],[-0.89106,54.34356],[-0.89109,54.34357],[-0.89117,54.34359],[-0.89121,54.3436],[-0.89123,54.34362],[-0.89126,54.34363]]]]}},
{ "type":"Feature","properties":{"osm_way_id":"422992391","amenity":"parking"},"geometry":{"type":"MultiPolygon","coordinates":[[[[-0.76584,54.36248],[-0.76579,54.36247],[-0.76561,54.36243],[-0.76546,54.36235],[-0.76548,54.36223],[-0.76569,54.36217],[-0.76584,54.36215],[-0.76601,54.36212],[-0.76597,54.3622],[-0.76584,54.36248]]]]}},
{ "type":"Feature","properties":{"osm_way_id":"423862207","name":"Staindale Car Park","amenity":"parking","other":{"fee":"no","parking":"surface"}}, "geometry":{"type":"MultiPolygon","coordinates":[[[[-0.64344,54.30149],[-0.64337,54.30157],[-0.64338,54.30161],[-0.64346,54.30162],[-0.64364,54.30158],[-0.64371,54.30154],[-0.64393,54.30149],[-0.64408,54.30145],[-0.64424,54.30138],[-0.64432,54.30138],[-0.64443,54.3014],[-0.64446,54.30136],[-0.6444,54.30127],[-0.64432,54.30117],[-0.6442,54.30111],[-0.64398,54.30112],[-0.64367,54.30118],[-0.64351,54.30135],[-0.64346,54.30145],[-0.64344,54.30149]]]]}},
{ "type":"Feature","properties":{"osm_way_id":"423862211","name":"Bridestones Car Park","amenity":"parking"},"geometry":{"type":"MultiPolygon","coordinates":[[[[-0.65262,54.30232],[-0.65259,54.30234],[-0.65251,54.30235],[-0.65253,54.30244],[-0.65262,54.3025],[-0.65265,54.30252],[-0.65279,54.30252],[-0.65284,54.3025],[-0.65291,54.30245],[-0.65295,54.30238],[-0.65283,54.30232],[-0.6527,54.30229],[-0.65262,54.30232]]]]}},
{ "type":"Feature","properties":{"osm_way_id":"423862213","name":"Adderstone Car Park","amenity":"parking"},"geometry":{"type":"MultiPolygon","coordinates":[[[[-0.65282,54.29902],[-0.65262,54.29905],[-0.65266,54.29924],[-0.6529,54.2993],[-0.65305,54.29918],[-0.65295,54.29904],[-0.65292,54.29904],[-0.65282,54.29902]]]]}},
{ "type":"Feature","properties":{"osm_way_id":"428327716","amenity":"parking","other":{"access":"customers"}}, "geometry":{"type":"MultiPolygon","coordinates":[[[[-0.79646,54.24726],[-0.79632,54.2472],[-0.79625,54.24722],[-0.79569,54.24771],[-0.79557,54.24766],[-0.79548,54.24774],[-0.79572,54.24784],[-0.79595,54.24769],[-0.79603,54.24763],[-0.79609,54.24759],[-0.79604,54.24756],[-0.79646,54.24726]]]]}},
{ "type":"Feature","properties":{"osm_way_id":"437445650","amenity":"parking","other":{"parking":"surface"}}, "geometry":{"type":"MultiPolygon","coordinates":[[[[-1.16062,54.20369],[-1.16054,54.20372],[-1.16043,54.20376],[-1.16034,54.20377],[-1.16023,54.20377],[-1.16017,54.20378],[-1.16015,54.20376],[-1.16035,54.20363],[-1.16062,54.20369]]]]}},
{ "type":"Feature","properties":{"osm_way_id":"450396688","amenity":"parking","other":{"access":"customers"}}, "geometry":{"type":"MultiPolygon","coordinates":[[[[-1.01082,54.2309],[-1.01099,54.23111],[-1.01089,54.23114],[-1.01072,54.23119],[-1.01059,54.23119],[-1.01044,54.23115],[-1.01041,54.23113],[-1.01039,54.23111],[-1.01053,54.23107],[-1.01052,54.23099],[-1.01082,54.2309]]]]}},
{ "type":"Feature","properties":{"osm_way_id":"452875203","amenity":"parking","other":{"access":"customers"}}, "geometry":{"type":"MultiPolygon","coordinates":[[[[-0.8856,54.35245],[-0.88557,54.35243],[-0.88555,54.35242],[-0.88517,54.35219],[-0.88498,54.35228],[-0.88534,54.35254],[-0.88547,54.35249],[-0.88549,54.3525],[-0.8856,54.35245]]]]}},
{ "type":"Feature","properties":{"osm_way_id":"454879392","amenity":"parking","other":{"parking":"surface"}}, "geometry":{"type":"MultiPolygon","coordinates":[[[[-0.78042,54.24434],[-0.78077,54.24436],[-0.78082,54.24435],[-0.78081,54.24448],[-0.78075,54.24465],[-0.78068,54.24467],[-0.78043,54.24466],[-0.78037,54.24465],[-0.78042,54.24434]]]]}},
{ "type":"Feature","properties":{"osm_way_id":"456266876","amenity":"parking","other":{"access":"customers"}}, "geometry":{"type":"MultiPolygon","coordinates":[[[[-0.83669,54.31616],[-0.83673,54.3161],[-0.83659,54.31607],[-0.83616,54.31596],[-0.83611,54.3161],[-0.83634,54.31615],[-0.83669,54.31616]]]]}},
{ "type":"Feature","properties":{"osm_way_id":"461255364","name":"Sainsbury's","amenity":"parking","other":{"access":"customers","capacity":"25","fee":"no","parking":"surface","surface":"asphalt"}}, "geometry":{"type":"MultiPolygon","coordinates":[[[[-0.79978,54.13687],[-0.79929,54.13661],[-0.79909,54.13667],[-0.79958,54.13698],[-0.79978,54.13687]]]]}},
{ "type":"Feature","properties":{"osm_way_id":"465617704","amenity":"parking","other":{"capacity":"3","tourist_bus":"designated"}}, "geometry":{"type":"MultiPolygon","coordinates":[[[[-1.20975,54.24157],[-1.20962,54.24155],[-1.2095,54.24148],[-1.20946,54.2415],[-1.20942,54.24156],[-1.20936,54.24159],[-1.20962,54.24183],[-1.20983,54.24177],[-1.2097,54.24163],[-1.20975,54.24157]]]]}},
{ "type":"Feature","properties":{"osm_way_id":"467408184","amenity":"parking","other":{"access":"customers"}}, "geometry":{"type":"MultiPolygon","coordinates":[[[[-0.84799,54.32693],[-0.84764,54.32698],[-0.84782,54.32754],[-0.84815,54.32748],[-0.84811,54.3272],[-0.84799,54.32693]]]]}},
{ "type":"Feature","properties":{"osm_way_id":"478644939","amenity":"parking","other":{"access":"yes","fee":"yes","note:fee":"Honesty box at front of village hall - 50p for 1\/2 a day, Â£1 for a day.","parking":"surface","payment:cash":"yes","surface":"asphalt"}}, "geometry":{"type":"MultiPolygon","coordinates":[[[[-0.97896,54.17247],[-0.979,54.17231],[-0.97899,54.1722],[-0.97886,54.1722],[-0.97886,54.17232],[-0.9785,54.17231],[-0.9785,54.17241],[-0.9788,54.17244],[-0.97893,54.17247],[-0.97896,54.17247]]]]}},
{ "type":"Feature","properties":{"osm_way_id":"481999863","amenity":"parking","other":{"access":"customers"}}, "geometry":{"type":"MultiPolygon","coordinates":[[[[-0.96363,54.29588],[-0.96349,54.29592],[-0.96338,54.29597],[-0.96332,54.29602],[-0.96311,54.29606],[-0.96314,54.29612],[-0.96366,54.296],[-0.96373,54.29598],[-0.96363,54.29588]]]]}},
{ "type":"Feature","properties":{"osm_way_id":"484214715","amenity":"parking"},"geometry":{"type":"MultiPolygon","coordinates":[[[[-0.89272,54.3421],[-0.89297,54.34185],[-0.89303,54.34192],[-0.89305,54.34199],[-0.89302,54.34203],[-0.89289,54.34208],[-0.8928,54.3421],[-0.89272,54.3421]]]]}},
{ "type":"Feature","properties":{"osm_way_id":"485506258","amenity":"parking","other":{"access":"yes","fee":"no","parking":"surface","surface":"gravel"}}, "geometry":{"type":"MultiPolygon","coordinates":[[[[-0.97522,54.19579],[-0.97536,54.19557],[-0.97539,54.19548],[-0.97535,54.19547],[-0.9753,54.19549],[-0.97528,54.19552],[-0.97524,54.1957],[-0.97522,54.19579]]]]}},
{ "type":"Feature","properties":{"osm_way_id":"521519440","amenity":"parking"},"geometry":{"type":"MultiPolygon","coordinates":[[[[-0.80764,54.20517],[-0.80734,54.20521],[-0.80727,54.20502],[-0.80721,54.20502],[-0.80714,54.20484],[-0.80762,54.20478],[-0.80771,54.205],[-0.80759,54.20502],[-0.80762,54.2051],[-0.80764,54.20517]]]]}},
{ "type":"Feature","properties":{"osm_way_id":"521521534","amenity":"parking"},"geometry":{"type":"MultiPolygon","coordinates":[[[[-0.80643,54.20207],[-0.80635,54.20168],[-0.80674,54.20164],[-0.80677,54.20167],[-0.80681,54.20181],[-0.80674,54.20182],[-0.80647,54.20187],[-0.80655,54.20206],[-0.80643,54.20207]]]]}},
{ "type":"Feature","properties":{"osm_way_id":"523637949","amenity":"parking","other":{"access":"private"}}, "geometry":{"type":"MultiPolygon","coordinates":[[[[-0.79845,54.13392],[-0.79845,54.13399],[-0.79874,54.134],[-0.79873,54.13394],[-0.79861,54.13393],[-0.79845,54.13392]]]]}},
{ "type":"Feature","properties":{"osm_way_id":"524359855","amenity":"parking","other":{"access":"customers"}}, "geometry":{"type":"MultiPolygon","coordinates":[[[[-0.83902,54.17792],[-0.83882,54.17787],[-0.83888,54.17778],[-0.83893,54.17771],[-0.83901,54.17773],[-0.83908,54.17776],[-0.83912,54.17777],[-0.83902,54.17792]]]]}},
{ "type":"Feature","properties":{"osm_way_id":"524366774","amenity":"parking"},"geometry":{"type":"MultiPolygon","coordinates":[[[[-0.78207,54.15158],[-0.78179,54.15152],[-0.78119,54.15237],[-0.78013,54.15212],[-0.7801,54.15214],[-0.77997,54.1521],[-0.77998,54.15209],[-0.77999,54.15207],[-0.77986,54.15204],[-0.78013,54.15167],[-0.78015,54.15164],[-0.77984,54.15157],[-0.7795,54.15212],[-0.77986,54.1522],[-0.77981,54.15239],[-0.78042,54.15248],[-0.78138,54.15262],[-0.78207,54.15158]]]]}},
{ "type":"Feature","properties":{"osm_way_id":"524366786","amenity":"parking"},"geometry":{"type":"MultiPolygon","coordinates":[[[[-0.78001,54.15149],[-0.78003,54.15148],[-0.78023,54.15153],[-0.78026,54.15149],[-0.78031,54.15141],[-0.7804,54.15143],[-0.78055,54.15122],[-0.77961,54.15099],[-0.77883,54.15095],[-0.77882,54.15103],[-0.77938,54.15116],[-0.77934,54.15121],[-0.77992,54.15135],[-0.7799,54.15137],[-0.77983,54.15147],[-0.78,54.15151],[-0.78001,54.15149]]]]}},
{ "type":"Feature","properties":{"osm_way_id":"526170306","name":"Sheriff Hutton Methodist Church","amenity":"place_of_worship","building":"church","other":{"addr:city":"Sheriff Hutton","addr:postcode":"YO60 6SH","addr:street":"West End","denomination":"methodist","religion":"christian"}}, "geometry":{"type":"MultiPolygon","coordinates":[[[[-1.01019,54.0891],[-1.01018,54.08915],[-1.01026,54.08916],[-1.01023,54.08927],[-1.01016,54.08926],[-1.01015,54.08929],[-1.01003,54.08928],[-1.01004,54.08924],[-1.01005,54.08921],[-1.00999,54.0892],[-1.01,54.08914],[-1.01005,54.08914],[-1.01006,54.08909],[-1.01019,54.0891]]]]}},
{ "type":"Feature","properties":{"osm_way_id":"530037460","amenity":"parking","other":{"parking":"surface"}}, "geometry":{"type":"MultiPolygon","coordinates":[[[[-1.13441,54.29289],[-1.13448,54.29286],[-1.13459,54.29293],[-1.13469,54.29294],[-1.13475,54.29305],[-1.1347,54.29309],[-1.13462,54.29316],[-1.13449,54.2933],[-1.13446,54.29345],[-1.13452,54.2936],[-1.13451,54.29364],[-1.13432,54.29377],[-1.13427,54.29379],[-1.13431,54.29387],[-1.13422,54.29388],[-1.1342,54.29384],[-1.13413,54.29395],[-1.13399,54.29408],[-1.13376,54.29415],[-1.13352,54.29417],[-1.13326,54.29414],[-1.13309,54.29405],[-1.13311,54.29399],[-1.13329,54.29389],[-1.13362,54.29371],[-1.13382,54.29365],[-1.134,54.29354],[-1.13417,54.29344],[-1.13423,54.29335],[-1.13426,54.29317],[-1.13431,54.29308],[-1.13435,54.29302],[-1.13439,54.29294],[-1.13441,54.29289]]]]}},
{ "type":"Feature","properties":{"osm_way_id":"530042460","name":"Cowhouse Bank","amenity":"parking","other":{"access":"yes","fee":"no","parking":"surface","surface":"gravel"}}, "geometry":{"type":"MultiPolygon","coordinates":[[[[-1.05873,54.28947],[-1.05869,54.28962],[-1.05874,54.28976],[-1.05893,54.28986],[-1.05912,54.2899],[-1.05932,54.28995],[-1.05944,54.29005],[-1.05959,54.29013],[-1.05976,54.29016],[-1.0599,54.29009],[-1.0599,54.28991],[-1.05979,54.28982],[-1.05926,54.28959],[-1.05879,54.28938],[-1.05873,54.28947]]]]}},
{ "type":"Feature","properties":{"osm_way_id":"551039660","amenity":"parking"},"geometry":{"type":"MultiPolygon","coordinates":[[[[-0.80899,54.21339],[-0.80878,54.2134],[-0.80878,54.21337],[-0.80875,54.21337],[-0.80869,54.21323],[-0.80877,54.21316],[-0.80876,54.21307],[-0.80873,54.21298],[-0.80863,54.21294],[-0.80871,54.2129],[-0.80884,54.21296],[-0.8089,54.21308],[-0.80892,54.21312],[-0.80895,54.21319],[-0.80899,54.21339]]]]}},
{ "type":"Feature","properties":{"osm_way_id":"555927476","amenity":"parking"},"geometry":{"type":"MultiPolygon","coordinates":[[[[-0.93704,54.2699],[-0.93697,54.26989],[-0.93686,54.26964],[-0.93683,54.2696],[-0.93678,54.26947],[-0.93695,54.26949],[-0.93746,54.26942],[-0.93753,54.26943],[-0.93766,54.26966],[-0.93757,54.26968],[-0.93755,54.26971],[-0.93743,54.26973],[-0.93737,54.26967],[-0.93702,54.26973],[-0.93704,54.2699]]]]}},
{ "type":"Feature","properties":{"osm_way_id":"561999020","amenity":"parking","other":{"access":"customers"}}, "geometry":{"type":"MultiPolygon","coordinates":[[[[-1.01673,54.25016],[-1.0169,54.25057],[-1.01743,54.25045],[-1.01725,54.25006],[-1.01673,54.25016]]]]}},
{ "type":"Feature","properties":{"osm_way_id":"582502687","amenity":"parking"},"geometry":{"type":"MultiPolygon","coordinates":[[[[-0.98096,54.17487],[-0.9809,54.1749],[-0.98081,54.17491],[-0.9808,54.1748],[-0.98096,54.17487]]]]}},
{ "type":"Feature","properties":{"osm_way_id":"585332854","amenity":"parking","other":{"access":"private","parking":"surface"}}, "geometry":{"type":"MultiPolygon","coordinates":[[[[-0.80092,54.13404],[-0.80086,54.13382],[-0.80059,54.13384],[-0.80066,54.13407],[-0.80071,54.13406],[-0.80092,54.13404]]]]}},
{ "type":"Feature","properties":{"osm_way_id":"590613973","amenity":"parking","other":{"access":"customers","parking":"surface"}}, "geometry":{"type":"MultiPolygon","coordinates":[[[[-0.78889,54.13225],[-0.78894,54.13221],[-0.78915,54.13186],[-0.78875,54.13173],[-0.78869,54.13173],[-0.78853,54.13186],[-0.78859,54.13189],[-0.78856,54.13192],[-0.78856,54.13195],[-0.78861,54.13195],[-0.78885,54.13197],[-0.78884,54.13212],[-0.78884,54.13213],[-0.78877,54.13213],[-0.78877,54.13216],[-0.78873,54.13223],[-0.78889,54.13225]]]]}},
{ "type":"Feature","properties":{"osm_way_id":"598369932","amenity":"parking","other":{"surface":"gravel"}}, "geometry":{"type":"MultiPolygon","coordinates":[[[[-1.02216,54.34394],[-1.02228,54.344],[-1.02232,54.34398],[-1.02247,54.34389],[-1.02242,54.34384],[-1.02241,54.34379],[-1.02234,54.34377],[-1.02228,54.34379],[-1.02218,54.34381],[-1.0221,54.34388],[-1.02216,54.34394]]]]}},
{ "type":"Feature","properties":{"osm_way_id":"604054453","amenity":"parking","other":{"access":"customers"}}, "geometry":{"type":"MultiPolygon","coordinates":[[[[-0.87231,54.08346],[-0.87161,54.08334],[-0.87164,54.08328],[-0.87136,54.08325],[-0.87143,54.08291],[-0.87174,54.08292],[-0.87175,54.08298],[-0.87184,54.08298],[-0.87183,54.08307],[-0.87187,54.08308],[-0.87193,54.08309],[-0.87193,54.08312],[-0.87193,54.08316],[-0.87198,54.08324],[-0.8723,54.08325],[-0.87231,54.08346]]]]}},
{ "type":"Feature","properties":{"osm_way_id":"606169510","amenity":"parking","other":{"access":"private","parking":"surface"}}, "geometry":{"type":"MultiPolygon","coordinates":[[[[-0.90993,54.09076],[-0.90963,54.09064],[-0.90974,54.09046],[-0.90982,54.0903],[-0.90986,54.09021],[-0.91017,54.09026],[-0.91003,54.09048],[-0.91013,54.0905],[-0.91007,54.09063],[-0.90998,54.09061],[-0.90993,54.09076]]]]}},
{ "type":"Feature","properties":{"osm_way_id":"608085079","amenity":"parking"},"geometry":{"type":"MultiPolygon","coordinates":[[[[-0.95644,54.37671],[-0.95616,54.37695],[-0.95632,54.37692],[-0.95644,54.37687],[-0.95647,54.3768],[-0.95646,54.37676],[-0.95644,54.37671]]]]}},
{ "type":"Feature","properties":{"osm_way_id":"610310348","amenity":"parking","other":{"access":"unknown"}}, "geometry":{"type":"MultiPolygon","coordinates":[[[[-0.94351,54.14016],[-0.94352,54.13982],[-0.94402,54.13987],[-0.94398,54.14023],[-0.94351,54.14016]]]]}},
{ "type":"Feature","properties":{"osm_way_id":"612073071","amenity":"parking","other":{"surface":"gravel"}}, "geometry":{"type":"MultiPolygon","coordinates":[[[[-0.88771,54.3474],[-0.88765,54.34736],[-0.88764,54.34732],[-0.88755,54.34728],[-0.88747,54.3473],[-0.88741,54.34734],[-0.88738,54.34738],[-0.8874,54.34742],[-0.88742,54.34745],[-0.88748,54.34749],[-0.88752,54.34744],[-0.8876,54.3474],[-0.88766,54.3474],[-0.88771,54.3474]]]]}},
{ "type":"Feature","properties":{"osm_way_id":"621264324","amenity":"parking","other":{"park_ride":"no","parking":"surface","surface":"asphalt"}}, "geometry":{"type":"MultiPolygon","coordinates":[[[[-0.78539,54.1374],[-0.78528,54.13742],[-0.78503,54.13744],[-0.78487,54.1375],[-0.78459,54.13739],[-0.78453,54.13744],[-0.78449,54.13732],[-0.78471,54.1372],[-0.78494,54.1372],[-0.78539,54.1374]]]]}},
{ "type":"Feature","properties":{"osm_way_id":"627278858","amenity":"parking","other":{"access":"customers"}}, "geometry":{"type":"MultiPolygon","coordinates":[[[[-0.91687,53.99564],[-0.91685,53.99561],[-0.91675,53.99556],[-0.91663,53.99553],[-0.91668,53.99546],[-0.91678,53.99545],[-0.91695,53.99538],[-0.91707,53.99547],[-0.91725,53.99538],[-0.91752,53.99569],[-0.91749,53.99571],[-0.91717,53.99585],[-0.91687,53.99564]]]]}},
{ "type":"Feature","properties":{"osm_way_id":"633717052","amenity":"parking","other":{"access":"customers"}}, "geometry":{"type":"MultiPolygon","coordinates":[[[[-0.72363,54.14376],[-0.72363,54.14379],[-0.72375,54.14379],[-0.7239,54.1438],[-0.72397,54.1439],[-0.72353,54.14387],[-0.72335,54.14377],[-0.72293,54.1437],[-0.72296,54.14356],[-0.72324,54.14357],[-0.72323,54.14367],[-0.72333,54.14367],[-0.72345,54.14368],[-0.72345,54.14371],[-0.72355,54.14371],[-0.72354,54.14376],[-0.72363,54.14376]]]]}},
{ "type":"Feature","properties":{"osm_way_id":"633847410","name":"Car Parking - Three Cups Public House","amenity":"parking","other":{"access":"customers","parking":"surface","surface":"asphalt"}}, "geometry":{"type":"MultiPolygon","coordinates":[[[[-0.92034,53.99193],[-0.92034,53.99198],[-0.92027,53.99199],[-0.92029,53.99234],[-0.92039,53.99239],[-0.92064,53.99236],[-0.92063,53.99231],[-0.92078,53.99231],[-0.92075,53.99214],[-0.9206,53.99213],[-0.9206,53.99209],[-0.92056,53.99209],[-0.92052,53.99199],[-0.92045,53.99199],[-0.92045,53.99194],[-0.92034,53.99193]]]]}},
{ "type":"Feature","properties":{"osm_way_id":"642753538","amenity":"parking"},"geometry":{"type":"MultiPolygon","coordinates":[[[[-0.96888,54.01768],[-0.96805,54.01752],[-0.9682,54.01726],[-0.96834,54.01709],[-0.96841,54.01683],[-0.96864,54.0165],[-0.96939,54.01668],[-0.96937,54.01673],[-0.96962,54.01677],[-0.96943,54.01719],[-0.96888,54.01768]]]]}},
{ "type":"Feature","properties":{"osm_way_id":"642753540","amenity":"parking"},"geometry":{"type":"MultiPolygon","coordinates":[[[[-0.97312,54.01732],[-0.97416,54.0175],[-0.97388,54.01807],[-0.97298,54.01873],[-0.97247,54.01865],[-0.97312,54.01732]]]]}},
{ "type":"Feature","properties":{"osm_way_id":"642915778","amenity":"parking"},"geometry":{"type":"MultiPolygon","coordinates":[[[[-1.15939,54.24339],[-1.15951,54.2431],[-1.15935,54.24311],[-1.15924,54.24337],[-1.15939,54.24339]]]]}},
{ "type":"Feature","properties":{"osm_way_id":"643514363","amenity":"parking","other":{"access":"customers","parking":"surface"}}, "geometry":{"type":"MultiPolygon","coordinates":[[[[-0.9827,54.12874],[-0.98278,54.12857],[-0.98138,54.12835],[-0.9813,54.12852],[-0.9827,54.12874]]]]}},
{ "type":"Feature","properties":{"osm_way_id":"659930492","amenity":"parking","other":{"access":"yes","fee":"yes","maxstay":"1 day","park_ride":"no","parking":"surface","supervised":"no","surface":"asphalt"}}, "geometry":{"type":"MultiPolygon","coordinates":[[[[-0.76747,54.25099],[-0.76736,54.25115],[-0.76735,54.25116],[-0.76747,54.25119],[-0.76745,54.25122],[-0.76744,54.25124],[-0.7673,54.25121],[-0.76728,54.25125],[-0.76706,54.25119],[-0.76687,54.25115],[-0.76694,54.25106],[-0.76697,54.25102],[-0.76713,54.25105],[-0.7672,54.25094],[-0.76747,54.25099]]]]}},
{ "type":"Feature","properties":{"osm_way_id":"659930493","amenity":"parking","other":{"access":"private","fee":"no","park_ride":"no","surface":"asphalt"}}, "geometry":{"type":"MultiPolygon","coordinates":[[[[-0.77188,54.25094],[-0.77189,54.25094],[-0.77204,54.25096],[-0.77211,54.25081],[-0.77195,54.25079],[-0.77193,54.25083],[-0.77188,54.25094]]]]}},
{ "type":"Feature","properties":{"osm_way_id":"671552351","amenity":"parking"},"geometry":{"type":"MultiPolygon","coordinates":[[[[-1.02253,54.08285],[-1.02256,54.08267],[-1.02233,54.08264],[-1.02227,54.08289],[-1.02253,54.08285]]]]}},
{ "type":"Feature","properties":{"osm_way_id":"673618340","amenity":"parking","other":{"covered":"no","parking":"surface"}}, "geometry":{"type":"MultiPolygon","coordinates":[[[[-0.97442,54.12572],[-0.97408,54.12535],[-0.97369,54.12546],[-0.97377,54.12556],[-0.97388,54.12552],[-0.97395,54.1255],[-0.97419,54.12579],[-0.97424,54.12577],[-0.97442,54.12572]]]]}},
{ "type":"Feature","properties":{"osm_way_id":"673618349","amenity":"parking"},"geometry":{"type":"MultiPolygon","coordinates":[[[[-0.9767,54.12863],[-0.97639,54.12865],[-0.97638,54.12861],[-0.97628,54.12862],[-0.97625,54.1285],[-0.9767,54.12848],[-0.9767,54.12863]]]]}},
{ "type":"Feature","properties":{"osm_way_id":"685075213","amenity":"parking","other":{"access":"customers"}}, "geometry":{"type":"MultiPolygon","coordinates":[[[[-0.9356,54.05645],[-0.93531,54.05642],[-0.93535,54.05638],[-0.9358,54.05588],[-0.93584,54.05589],[-0.93586,54.05585],[-0.93592,54.0558],[-0.93594,54.0558],[-0.93598,54.05575],[-0.93615,54.05581],[-0.93611,54.05586],[-0.93591,54.05611],[-0.9356,54.05645]]]]}},
{ "type":"Feature","properties":{"osm_way_id":"685075218","amenity":"parking","other":{"access":"private"}}, "geometry":{"type":"MultiPolygon","coordinates":[[[[-0.94242,54.04597],[-0.94234,54.04606],[-0.94218,54.04609],[-0.94215,54.04605],[-0.9421,54.04598],[-0.94241,54.04567],[-0.94266,54.04559],[-0.94279,54.04578],[-0.9427,54.0458],[-0.94256,54.04583],[-0.94242,54.04597]]]]}},
{ "type":"Feature","properties":{"osm_way_id":"685949462","amenity":"parking","other":{"access":"customers","fee":"no","parking":"surface"}}, "geometry":{"type":"MultiPolygon","coordinates":[[[[-0.87429,54.2248],[-0.87415,54.22483],[-0.87396,54.22481],[-0.87383,54.22482],[-0.8737,54.22485],[-0.87362,54.2249],[-0.87357,54.22495],[-0.87366,54.22499],[-0.87372,54.22502],[-0.87374,54.22501],[-0.87379,54.22497],[-0.87387,54.22495],[-0.87398,54.22492],[-0.87409,54.2249],[-0.87413,54.22497],[-0.87444,54.22493],[-0.87433,54.22482],[-0.87429,54.2248]]]]}},
{ "type":"Feature","properties":{"osm_way_id":"699442591","amenity":"parking"},"geometry":{"type":"MultiPolygon","coordinates":[[[[-0.77548,54.12942],[-0.77546,54.12935],[-0.7754,54.12928],[-0.77521,54.12931],[-0.77522,54.12935],[-0.77494,54.1294],[-0.77499,54.12952],[-0.77547,54.12945],[-0.77548,54.12942]]]]}},
{ "type":"Feature","properties":{"osm_way_id":"699442602","amenity":"parking"},"geometry":{"type":"MultiPolygon","coordinates":[[[[-0.77485,54.12897],[-0.77479,54.12898],[-0.77477,54.12894],[-0.77451,54.12897],[-0.77463,54.1292],[-0.77464,54.12919],[-0.77488,54.12916],[-0.77483,54.12905],[-0.77487,54.12903],[-0.77485,54.12897]]]]}},
{ "type":"Feature","properties":{"osm_way_id":"704215460","amenity":"parking","other":{"charge":"Â£2","fee":"yes"}}, "geometry":{"type":"MultiPolygon","coordinates":[[[[-0.67652,54.06848],[-0.67652,54.06851],[-0.67652,54.06854],[-0.67657,54.06855],[-0.67656,54.06862],[-0.67666,54.06862],[-0.67665,54.06867],[-0.67686,54.06869],[-0.67688,54.06865],[-0.67695,54.06866],[-0.67697,54.0686],[-0.67705,54.06861],[-0.67705,54.06859],[-0.67705,54.06857],[-0.67672,54.06851],[-0.67652,54.06848]]]]}},
{ "type":"Feature","properties":{"osm_way_id":"719032321","amenity":"parking","other":{"parking":"surface"}}, "geometry":{"type":"MultiPolygon","coordinates":[[[[-0.97233,53.99951],[-0.97233,53.99951],[-0.97208,53.99953],[-0.97208,53.99953],[-0.97205,53.99953],[-0.97205,53.99956],[-0.97209,53.9999],[-0.97237,53.99989],[-0.97237,53.99986],[-0.97233,53.99951]]]]}},
{ "type":"Feature","properties":{"osm_way_id":"733959937","amenity":"parking","other":{"access":"customers"}}, "geometry":{"type":"MultiPolygon","coordinates":[[[[-1.06287,54.24718],[-1.06283,54.2472],[-1.06277,54.24722],[-1.06285,54.24728],[-1.06294,54.24724],[-1.06287,54.24718]]]]}},
{ "type":"Feature","properties":{"osm_way_id":"754128408","amenity":"parking","other":{"access":"yes","fee":"no","parking":"surface","source:geometry":"Bing;survey","surface":"fine_gravel"}}, "geometry":{"type":"MultiPolygon","coordinates":[[[[-0.94898,54.38151],[-0.94888,54.38147],[-0.94885,54.3814],[-0.94894,54.38134],[-0.94928,54.38143],[-0.94935,54.38148],[-0.94934,54.38155],[-0.94921,54.38158],[-0.94898,54.38151]]]]}},
{ "type":"Feature","properties":{"osm_way_id":"759863943","amenity":"parking","other":{"access":"private"}}, "geometry":{"type":"MultiPolygon","coordinates":[[[[-0.91765,54.27531],[-0.91668,54.2754],[-0.9167,54.27552],[-0.91679,54.27592],[-0.91689,54.27591],[-0.91796,54.2758],[-0.91782,54.27538],[-0.91771,54.27539],[-0.91765,54.27531]]]]}},
{ "type":"Feature","properties":{"osm_way_id":"763249455","amenity":"parking","other":{"access":"customers"}}, "geometry":{"type":"MultiPolygon","coordinates":[[[[-0.96338,54.26245],[-0.96335,54.26245],[-0.96294,54.26245],[-0.96305,54.26225],[-0.96297,54.26224],[-0.96307,54.26205],[-0.96315,54.26189],[-0.96324,54.26179],[-0.96328,54.26184],[-0.96332,54.26185],[-0.96338,54.26245]]]]}},
{ "type":"Feature","properties":{"osm_way_id":"798505695","amenity":"parking","other":{"access":"customers"}}, "geometry":{"type":"MultiPolygon","coordinates":[[[[-1.10477,54.2001],[-1.10443,54.20014],[-1.10448,54.20027],[-1.10481,54.20023],[-1.10477,54.2001]]]]}},
{ "type":"Feature","properties":{"osm_way_id":"799146102","amenity":"parking","other":{"access":"customers","parking":"surface"}}, "geometry":{"type":"MultiPolygon","coordinates":[[[[-0.80591,54.13761],[-0.80559,54.13744],[-0.80554,54.13749],[-0.80543,54.13749],[-0.80539,54.13777],[-0.80545,54.13777],[-0.80545,54.13781],[-0.80572,54.13781],[-0.80576,54.13781],[-0.80585,54.13779],[-0.80582,54.13775],[-0.80587,54.13769],[-0.80591,54.13761]]]]}},
{ "type":"Feature","properties":{"osm_way_id":"799190231","amenity":"parking","other":{"parking":"surface"}}, "geometry":{"type":"MultiPolygon","coordinates":[[[[-0.80077,54.13616],[-0.80079,54.13602],[-0.80087,54.13542],[-0.80069,54.13557],[-0.80037,54.13581],[-0.80019,54.13595],[-0.80044,54.13604],[-0.80065,54.13613],[-0.80077,54.13616]]]]}},
{ "type":"Feature","properties":{"osm_way_id":"803136150","amenity":"parking","other":{"access":"customers","parking":"surface"}}, "geometry":{"type":"MultiPolygon","coordinates":[[[[-0.43243,54.20156],[-0.43253,54.2018],[-0.43331,54.20173],[-0.43328,54.20147],[-0.4332,54.20148],[-0.43316,54.20149],[-0.43243,54.20156]]]]}},
{ "type":"Feature","properties":{"osm_way_id":"807597170","amenity":"parking","other":{"access":"private","parking":"street_side"}}, "geometry":{"type":"MultiPolygon","coordinates":[[[[-1.06743,54.24498],[-1.06823,54.24477],[-1.06816,54.24472],[-1.06732,54.24495],[-1.06743,54.24498]]]]}},
{ "type":"Feature","properties":{"osm_way_id":"808488471","amenity":"parking","other":{"surface":"grass"}}, "geometry":{"type":"MultiPolygon","coordinates":[[[[-0.97138,53.99958],[-0.97143,53.99993],[-0.97209,53.9999],[-0.97205,53.99956],[-0.97138,53.99958]]]]}},
{ "type":"Feature","properties":{"osm_way_id":"810347836","amenity":"parking","other":{"access":"private"}}, "geometry":{"type":"MultiPolygon","coordinates":[[[[-0.88046,54.37237],[-0.88025,54.37247],[-0.88009,54.37241],[-0.8801,54.37237],[-0.88024,54.37226],[-0.88034,54.37229],[-0.88046,54.37237]]]]}},
{ "type":"Feature","properties":{"osm_way_id":"813477809","amenity":"parking"},"geometry":{"type":"MultiPolygon","coordinates":[[[[-1.35315,50.88721],[-1.35304,50.88707],[-1.35278,50.88715],[-1.35289,50.88729],[-1.35315,50.88721]]]]}},
{ "type":"Feature","properties":{"osm_way_id":"813477811","amenity":"parking"},"geometry":{"type":"MultiPolygon","coordinates":[[[[-1.35378,50.88725],[-1.35366,50.88711],[-1.3534,50.88718],[-1.35352,50.88734],[-1.35378,50.88725]]]]}},
{ "type":"Feature","properties":{"osm_way_id":"813477812","amenity":"parking"},"geometry":{"type":"MultiPolygon","coordinates":[[[[-1.35324,50.88796],[-1.35311,50.88778],[-1.35291,50.88784],[-1.35296,50.88792],[-1.35304,50.88802],[-1.35324,50.88796]]]]}},
{ "type":"Feature","properties":{"osm_way_id":"813477814","amenity":"parking"},"geometry":{"type":"MultiPolygon","coordinates":[[[[-1.35422,50.88791],[-1.35409,50.88773],[-1.35388,50.88779],[-1.3539,50.88783],[-1.354,50.88797],[-1.35422,50.88791]]]]}},
{ "type":"Feature","properties":{"osm_way_id":"813477816","amenity":"parking"},"geometry":{"type":"MultiPolygon","coordinates":[[[[-1.35393,50.88819],[-1.35384,50.88807],[-1.35377,50.88808],[-1.3536,50.88814],[-1.35355,50.88815],[-1.35361,50.88823],[-1.35333,50.88831],[-1.3536,50.88865],[-1.35383,50.88858],[-1.35362,50.88831],[-1.35363,50.88828],[-1.35393,50.88819]]]]}},
{ "type":"Feature","properties":{"osm_way_id":"819379110","amenity":"parking","other":{"parking":"yes","surface":"gravel"}}, "geometry":{"type":"MultiPolygon","coordinates":[[[[-1.16622,54.30154],[-1.16614,54.30154],[-1.16609,54.30144],[-1.16611,54.30141],[-1.16621,54.3014],[-1.16622,54.30154]]]]}},
{ "type":"Feature","properties":{"osm_way_id":"821804909","amenity":"parking","other":{"access":"permissive","fee":"no","parking":"surface","surface":"gravel"}}, "geometry":{"type":"MultiPolygon","coordinates":[[[[-0.98764,54.32551],[-0.98754,54.32542],[-0.98751,54.32532],[-0.98747,54.32534],[-0.9874,54.32546],[-0.98746,54.3255],[-0.98757,54.32552],[-0.98764,54.32551]]]]}},
{ "type":"Feature","properties":{"osm_way_id":"825834646","amenity":"parking","other":{"access":"private"}}, "geometry":{"type":"MultiPolygon","coordinates":[[[[-0.97767,54.23689],[-0.97754,54.23645],[-0.9781,54.23636],[-0.97826,54.23637],[-0.97826,54.23688],[-0.97792,54.23686],[-0.97767,54.23689]]]]}},
{ "type":"Feature","properties":{"osm_way_id":"834348348","amenity":"parking","other":{"access":"yes","fee":"no","parking":"street_side"}}, "geometry":{"type":"MultiPolygon","coordinates":[[[[-1.06128,54.2467],[-1.06103,54.24673],[-1.06076,54.24678],[-1.06047,54.24681],[-1.06046,54.2468],[-1.06122,54.24665],[-1.06127,54.24666],[-1.06128,54.2467]]]]}},
{ "type":"Feature","properties":{"osm_way_id":"834348349","amenity":"parking","other":{"access":"yes","fee":"no","parking":"surface"}}, "geometry":{"type":"MultiPolygon","coordinates":[[[[-1.06137,54.24661],[-1.06164,54.24654],[-1.06183,54.24649],[-1.06186,54.24663],[-1.06137,54.24669],[-1.06137,54.24661]]]]}},
{ "type":"Feature","properties":{"osm_way_id":"836199933","amenity":"parking","other":{"access":"customers"}}, "geometry":{"type":"MultiPolygon","coordinates":[[[[-0.18302,52.88154],[-0.18332,52.88143],[-0.18307,52.88122],[-0.18293,52.88128],[-0.18302,52.88134],[-0.18298,52.88136],[-0.18302,52.88139],[-0.18304,52.88141],[-0.18297,52.88143],[-0.183,52.88146],[-0.18295,52.88148],[-0.18302,52.88154]]]]}},
{ "type":"Feature","properties":{"osm_way_id":"836416735","amenity":"parking","other":{"access":"private","surface":"gravel"}}, "geometry":{"type":"MultiPolygon","coordinates":[[[[-0.99744,54.36614],[-0.99748,54.36608],[-0.99743,54.36606],[-0.99717,54.36598],[-0.99709,54.36602],[-0.99744,54.36614]]]]}},
{ "type":"Feature","properties":{"osm_way_id":"838130704","amenity":"parking"},"geometry":{"type":"MultiPolygon","coordinates":[[[[-0.70934,54.24688],[-0.70946,54.24684],[-0.70944,54.24672],[-0.70936,54.24674],[-0.70931,54.24679],[-0.70934,54.24688]]]]}},
{ "type":"Feature","properties":{"osm_way_id":"838195632","amenity":"parking","other":{"access":"private","parking":"surface"}}, "geometry":{"type":"MultiPolygon","coordinates":[[[[-0.76158,54.23606],[-0.76146,54.23604],[-0.76109,54.23598],[-0.76102,54.23611],[-0.76106,54.23612],[-0.76104,54.23616],[-0.76067,54.23609],[-0.76056,54.23628],[-0.76061,54.23629],[-0.76059,54.23634],[-0.76097,54.23641],[-0.76101,54.23634],[-0.76128,54.23639],[-0.76133,54.2363],[-0.76105,54.23625],[-0.7611,54.23615],[-0.7615,54.23623],[-0.76152,54.23619],[-0.76158,54.23606]]]]}},
{ "type":"Feature","properties":{"osm_way_id":"839333463","amenity":"parking","other":{"access":"yes","fee":"no","parking":"surface","surface":"gravel"}}, "geometry":{"type":"MultiPolygon","coordinates":[[[[-0.91629,54.28812],[-0.91635,54.28808],[-0.91629,54.28798],[-0.91618,54.28792],[-0.91605,54.28795],[-0.91602,54.28809],[-0.91602,54.28813],[-0.91618,54.2881],[-0.91629,54.28812]]]]}},
{ "type":"Feature","properties":{"osm_way_id":"852378396","amenity":"parking"},"geometry":{"type":"MultiPolygon","coordinates":[[[[-0.65239,54.3021],[-0.65233,54.3021],[-0.65218,54.3021],[-0.65218,54.30208],[-0.65219,54.30205],[-0.65227,54.30202],[-0.65229,54.30197],[-0.65253,54.30188],[-0.65268,54.30199],[-0.65242,54.30207],[-0.65239,54.3021]]]]}},
{ "type":"Feature","properties":{"osm_way_id":"852549175","landuse":"farmland"},"geometry":{"type":"MultiPolygon","coordinates":[[[[-0.62255,54.09344],[-0.62235,54.09324],[-0.62224,54.09315],[-0.62212,54.09304],[-0.62173,54.09264],[-0.62126,54.09209],[-0.62091,54.09162],[-0.62055,54.09115],[-0.62016,54.09072],[-0.61927,54.08988],[-0.61879,54.08936],[-0.61877,54.08933],[-0.61899,54.08924],[-0.61986,54.0889],[-0.62052,54.08862],[-0.62219,54.08792],[-0.62264,54.08775],[-0.62307,54.08759],[-0.62321,54.08789],[-0.62345,54.08868],[-0.62364,54.08928],[-0.62379,54.08968],[-0.62406,54.09014],[-0.62428,54.09058],[-0.62452,54.09098],[-0.62475,54.09131],[-0.62527,54.09199],[-0.62564,54.09247],[-0.62573,54.09259],[-0.62534,54.09274],[-0.62448,54.09307],[-0.62346,54.09346],[-0.62318,54.09355],[-0.62311,54.09346],[-0.62303,54.09335],[-0.62296,54.09333],[-0.62287,54.09334],[-0.62255,54.09344]]]]}},
{ "type":"Feature","properties":{"osm_way_id":"853211973","amenity":"parking"},"geometry":{"type":"MultiPolygon","coordinates":[[[[-1.08942,54.20135],[-1.08858,54.20139],[-1.0886,54.20159],[-1.08869,54.20158],[-1.08869,54.20165],[-1.08914,54.20162],[-1.08914,54.20154],[-1.08946,54.20153],[-1.08942,54.20135]]]]}},
{ "type":"Feature","properties":{"osm_way_id":"853219751","amenity":"parking","other":{"access":"private","parking":"surface"}}, "geometry":{"type":"MultiPolygon","coordinates":[[[[-1.08376,54.20052],[-1.08346,54.20042],[-1.08313,54.2004],[-1.08314,54.20048],[-1.08315,54.20059],[-1.08346,54.20059],[-1.08368,54.20065],[-1.08376,54.20052]]]]}},
{ "type":"Feature","properties":{"osm_way_id":"853219752","amenity":"parking","other":{"access":"private"}}, "geometry":{"type":"MultiPolygon","coordinates":[[[[-1.08245,54.19995],[-1.08242,54.19976],[-1.08286,54.19976],[-1.08288,54.19994],[-1.08245,54.19995]]]]}},
{ "type":"Feature","properties":{"osm_way_id":"853225634","amenity":"parking","other":{"access":"private"}}, "geometry":{"type":"MultiPolygon","coordinates":[[[[-1.08058,54.20242],[-1.0805,54.20228],[-1.08115,54.20217],[-1.08118,54.20224],[-1.08122,54.20232],[-1.08058,54.20242]]]]}},
{ "type":"Feature","properties":{"osm_way_id":"853242911","amenity":"parking","other":{"access":"private"}}, "geometry":{"type":"MultiPolygon","coordinates":[[[[-1.07881,54.203],[-1.07832,54.203],[-1.07831,54.20293],[-1.0783,54.20284],[-1.07879,54.20284],[-1.0788,54.20293],[-1.07881,54.203]]]]}},
{ "type":"Feature","properties":{"osm_way_id":"854493333","amenity":"parking","other":{"parking":"surface","surface":"asphalt"}}, "geometry":{"type":"MultiPolygon","coordinates":[[[[-0.76986,54.24347],[-0.77009,54.24352],[-0.7702,54.24337],[-0.76999,54.24333],[-0.76998,54.24333],[-0.76992,54.2433],[-0.76998,54.2432],[-0.7698,54.24316],[-0.76979,54.24317],[-0.76977,54.24326],[-0.76965,54.24343],[-0.76986,54.24347]]]]}},
{ "type":"Feature","properties":{"osm_way_id":"854566897","amenity":"parking"},"geometry":{"type":"MultiPolygon","coordinates":[[[[-0.77369,54.24447],[-0.77378,54.24431],[-0.77353,54.24427],[-0.77348,54.24437],[-0.77345,54.24443],[-0.77369,54.24447]]]]}},
{ "type":"Feature","properties":{"osm_way_id":"854569635","amenity":"parking","other":{"access":"private"}}, "geometry":{"type":"MultiPolygon","coordinates":[[[[-0.77332,54.24402],[-0.77318,54.24398],[-0.77328,54.24386],[-0.77335,54.24378],[-0.77346,54.24381],[-0.77332,54.24402]]]]}},
{ "type":"Feature","properties":{"osm_way_id":"857613593","amenity":"parking","other":{"capacity":"5","parking":"surface","surface":"gravel"}}, "geometry":{"type":"MultiPolygon","coordinates":[[[[-0.71063,54.24631],[-0.71056,54.24624],[-0.71025,54.24634],[-0.71033,54.24639],[-0.71063,54.24631]]]]}},
{ "type":"Feature","properties":{"osm_way_id":"860070095","amenity":"parking","other":{"fee":"no","parking":"surface"}}, "geometry":{"type":"MultiPolygon","coordinates":[[[[-0.80014,54.13595],[-0.79988,54.13584],[-0.79929,54.13628],[-0.79954,54.13637],[-0.79981,54.13623],[-0.80008,54.136],[-0.80014,54.13595]]]]}},
{ "type":"Feature","properties":{"osm_way_id":"868466722","amenity":"parking","other":{"access":"customers"}}, "geometry":{"type":"MultiPolygon","coordinates":[[[[-0.96174,54.03152],[-0.96157,54.03146],[-0.96145,54.03142],[-0.96121,54.03138],[-0.96124,54.03129],[-0.96148,54.03133],[-0.96169,54.03141],[-0.96181,54.03145],[-0.96174,54.03152]]]]}},
{ "type":"Feature","properties":{"osm_way_id":"868466723","amenity":"parking","other":{"access":"customers"}}, "geometry":{"type":"MultiPolygon","coordinates":[[[[-0.96161,54.03154],[-0.96151,54.03168],[-0.9613,54.03171],[-0.96113,54.03162],[-0.96112,54.03155],[-0.9612,54.03148],[-0.96143,54.03144],[-0.96161,54.03154]]]]}},
{ "type":"Feature","properties":{"osm_way_id":"876537661","amenity":"parking","other":{"access":"customers","parking":"surface"}}, "geometry":{"type":"MultiPolygon","coordinates":[[[[-0.77701,54.15334],[-0.77744,54.15326],[-0.77709,54.15265],[-0.77666,54.15275],[-0.77701,54.15334]]]]}},
{ "type":"Feature","properties":{"osm_way_id":"876537662","amenity":"parking","other":{"access":"customers","parking":"surface"}}, "geometry":{"type":"MultiPolygon","coordinates":[[[[-0.77631,54.15346],[-0.77666,54.1534],[-0.77661,54.15334],[-0.77671,54.15332],[-0.77664,54.15321],[-0.77658,54.15323],[-0.77649,54.15309],[-0.77655,54.15307],[-0.77649,54.15298],[-0.7764,54.15299],[-0.77638,54.15296],[-0.77606,54.15303],[-0.77631,54.15346]]]]}},
{ "type":"Feature","properties":{"osm_way_id":"886146065","amenity":"parking","other":{"access":"yes","charge":"2 GBP","fee":"yes","operator":"Settrington Village Hall","operator:type":"community","parking":"surface","payment:cash":"yes","surface":"asphalt"}}, "geometry":{"type":"MultiPolygon","coordinates":[[[[-0.72705,54.12541],[-0.72704,54.12532],[-0.72713,54.12531],[-0.72711,54.12518],[-0.72647,54.12524],[-0.72646,54.12529],[-0.72669,54.12531],[-0.72667,54.12546],[-0.72638,54.12544],[-0.72637,54.1255],[-0.72667,54.12553],[-0.72671,54.12553],[-0.72671,54.12543],[-0.72705,54.12541]]]]}},
{ "type":"Feature","properties":{"osm_way_id":"886510673","amenity":"parking"},"geometry":{"type":"MultiPolygon","coordinates":[[[[-1.01057,54.23249],[-1.01054,54.23242],[-1.0106,54.23241],[-1.01063,54.23239],[-1.01063,54.23237],[-1.01058,54.23228],[-1.01025,54.23235],[-1.01036,54.23253],[-1.01057,54.23249]]]]}},
{ "type":"Feature","properties":{"osm_way_id":"894615281","amenity":"parking"},"geometry":{"type":"MultiPolygon","coordinates":[[[[-0.78248,54.12513],[-0.78244,54.12499],[-0.78341,54.12494],[-0.78342,54.12503],[-0.78338,54.12503],[-0.78339,54.12508],[-0.78248,54.12513]]]]}},
{ "type":"Feature","properties":{"osm_way_id":"905834902","amenity":"parking","other":{"access":"customers","operator":"St. Helens Council","operator:type":"public","parking":"surface","surface":"asphalt"}}, "geometry":{"type":"MultiPolygon","coordinates":[[[[-2.70708,53.44952],[-2.70693,53.44968],[-2.70688,53.44974],[-2.7068,53.44972],[-2.70685,53.44966],[-2.70671,53.44962],[-2.7067,53.44962],[-2.70668,53.44963],[-2.70665,53.44962],[-2.70664,53.4496],[-2.70658,53.44957],[-2.70663,53.44953],[-2.70666,53.4495],[-2.70678,53.44938],[-2.70687,53.44942],[-2.70694,53.44945],[-2.70708,53.44952]]]]}},
{ "type":"Feature","properties":{"osm_way_id":"907468709","amenity":"parking"},"geometry":{"type":"MultiPolygon","coordinates":[[[[-4.79031,50.33966],[-4.79037,50.33966],[-4.79047,50.33971],[-4.79072,50.33978],[-4.79067,50.33986],[-4.79021,50.33975],[-4.79031,50.33966]]]]}},
{ "type":"Feature","properties":{"osm_way_id":"910783775","amenity":"parking","other":{"access":"customers","parking":"surface"}}, "geometry":{"type":"MultiPolygon","coordinates":[[[[-0.72578,54.02942],[-0.72571,54.02938],[-0.72596,54.02922],[-0.72603,54.02926],[-0.72578,54.02942]]]]}},
{ "type":"Feature","properties":{"osm_way_id":"923147867","amenity":"parking","other":{"access":"customers","operator":"The New Inn","operator:type":"private","parking":"surface","surface":"asphalt"}}, "geometry":{"type":"MultiPolygon","coordinates":[[[[-0.8419,54.28978],[-0.84163,54.28979],[-0.84162,54.2899],[-0.8415,54.2899],[-0.84149,54.28999],[-0.84154,54.29005],[-0.84159,54.29005],[-0.84161,54.29011],[-0.84164,54.29018],[-0.84174,54.29017],[-0.84175,54.29004],[-0.84183,54.28998],[-0.8419,54.28978]]]]}},
{ "type":"Feature","properties":{"osm_way_id":"923149310","amenity":"parking","other":{"access":"private","capacity":"3","fee":"no","parking":"layby","surface":"ground"}}, "geometry":{"type":"MultiPolygon","coordinates":[[[[-0.85886,54.29902],[-0.85879,54.29881],[-0.85875,54.29881],[-0.85881,54.29902],[-0.85886,54.29902]]]]}},
{ "type":"Feature","properties":{"osm_way_id":"937277345","amenity":"parking"},"geometry":{"type":"MultiPolygon","coordinates":[[[[-0.78294,54.13229],[-0.78289,54.13218],[-0.78234,54.13224],[-0.78242,54.13242],[-0.78244,54.13242],[-0.78255,54.1324],[-0.78255,54.13239],[-0.7827,54.13237],[-0.78276,54.13237],[-0.78285,54.1323],[-0.78294,54.13229]]]]}},
{ "type":"Feature","properties":{"osm_way_id":"944297490","amenity":"parking","other":{"access":"customers","parking":"surface"}}, "geometry":{"type":"MultiPolygon","coordinates":[[[[-0.77576,54.24362],[-0.77583,54.24363],[-0.7761,54.24302],[-0.7759,54.24298],[-0.7757,54.24346],[-0.77566,54.24345],[-0.77552,54.24375],[-0.77568,54.24378],[-0.77576,54.24362]]]]}},
{ "type":"Feature","properties":{"osm_way_id":"944308160","amenity":"parking","other":{"access":"private","parking":"surface"}}, "geometry":{"type":"MultiPolygon","coordinates":[[[[-0.79084,54.24631],[-0.79068,54.24631],[-0.79068,54.24633],[-0.79058,54.24632],[-0.79058,54.24632],[-0.79042,54.24631],[-0.79042,54.24626],[-0.79084,54.24626],[-0.79084,54.24631]]]]}},
{ "type":"Feature","properties":{"osm_way_id":"955313364","amenity":"parking","other":{"access":"customers","charge":"Â£3 for the day - free for pub customers.","fee":"yes","operator":"The Crown","operator:type":"private","parking":"surface","payment:cash":"yes","surface":"gravel"}}, "geometry":{"type":"MultiPolygon","coordinates":[[[[-0.91661,54.30163],[-0.91685,54.30146],[-0.91708,54.30157],[-0.91729,54.30145],[-0.91716,54.30133],[-0.91745,54.30123],[-0.91743,54.3012],[-0.91748,54.30118],[-0.91762,54.30108],[-0.91751,54.30105],[-0.91736,54.30107],[-0.91715,54.30111],[-0.9165,54.30157],[-0.91661,54.30163]]]]}},
{ "type":"Feature","properties":{"osm_way_id":"956072444","amenity":"parking","other":{"access":"yes","fee":"no","parking":"surface"}}, "geometry":{"type":"MultiPolygon","coordinates":[[[[-0.96286,54.32572],[-0.96291,54.32562],[-0.96285,54.32554],[-0.96274,54.32547],[-0.9626,54.32545],[-0.96254,54.32548],[-0.96257,54.3256],[-0.96254,54.32562],[-0.96287,54.32575],[-0.96286,54.32572]]]]}},
{ "type":"Feature","properties":{"osm_way_id":"956072445","amenity":"parking","other":{"access":"yes","fee":"no","parking":"surface"}}, "geometry":{"type":"MultiPolygon","coordinates":[[[[-0.96073,54.3245],[-0.96067,54.32445],[-0.96054,54.32434],[-0.96049,54.3244],[-0.96047,54.32445],[-0.96054,54.32451],[-0.96073,54.3245]]]]}},
{ "type":"Feature","properties":{"osm_way_id":"960845107","amenity":"parking"},"geometry":{"type":"MultiPolygon","coordinates":[[[[-0.75011,54.2372],[-0.74989,54.23738],[-0.74985,54.23745],[-0.74973,54.23785],[-0.74981,54.23785],[-0.74979,54.23793],[-0.74999,54.23795],[-0.75011,54.23753],[-0.75015,54.23749],[-0.75024,54.23747],[-0.75033,54.23748],[-0.75062,54.23755],[-0.75072,54.23745],[-0.75011,54.2372]]]]}},
{ "type":"Feature","properties":{"osm_way_id":"966385622","amenity":"parking"},"geometry":{"type":"MultiPolygon","coordinates":[[[[-0.76185,54.2382],[-0.76145,54.23823],[-0.76149,54.23847],[-0.7616,54.23847],[-0.76166,54.23889],[-0.76199,54.23887],[-0.76194,54.23863],[-0.76205,54.23862],[-0.76195,54.23819],[-0.76185,54.2382]]]]}},
{ "type":"Feature","properties":{"osm_way_id":"967564641","amenity":"parking"},"geometry":{"type":"MultiPolygon","coordinates":[[[[-0.84242,54.13771],[-0.8421,54.13765],[-0.84216,54.13752],[-0.84249,54.13757],[-0.84242,54.13771]]]]}},
{ "type":"Feature","properties":{"osm_way_id":"967564642","amenity":"parking"},"geometry":{"type":"MultiPolygon","coordinates":[[[[-0.84258,54.13747],[-0.84231,54.13743],[-0.84234,54.13736],[-0.84247,54.13738],[-0.84254,54.13739],[-0.84257,54.13738],[-0.84261,54.13742],[-0.84263,54.13744],[-0.84259,54.13745],[-0.84258,54.13747]]]]}},
{ "type":"Feature","properties":{"osm_way_id":"967564644","amenity":"parking"},"geometry":{"type":"MultiPolygon","coordinates":[[[[-0.84186,54.13766],[-0.84199,54.1374],[-0.84206,54.13741],[-0.84193,54.13767],[-0.84186,54.13766]]]]}},
{ "type":"Feature","properties":{"osm_way_id":"969805319","amenity":"parking"},"geometry":{"type":"MultiPolygon","coordinates":[[[[-0.77811,54.14623],[-0.77771,54.14623],[-0.77777,54.14615],[-0.77778,54.14613],[-0.77779,54.14611],[-0.77784,54.14604],[-0.77785,54.14603],[-0.77786,54.14601],[-0.77794,54.14603],[-0.77804,54.14606],[-0.77803,54.14614],[-0.77811,54.14614],[-0.77811,54.14623]]]]}},
{ "type":"Feature","properties":{"osm_way_id":"972967844","amenity":"parking","other":{"access":"customers"}}, "geometry":{"type":"MultiPolygon","coordinates":[[[[-0.80194,54.25874],[-0.80179,54.25868],[-0.80184,54.25865],[-0.80192,54.25859],[-0.80195,54.25857],[-0.8021,54.25864],[-0.80194,54.25874]]]]}},
{ "type":"Feature","properties":{"osm_way_id":"973232554","amenity":"parking","other":{"access":"customers"}}, "geometry":{"type":"MultiPolygon","coordinates":[[[[-0.99438,54.25331],[-0.99441,54.25336],[-0.99444,54.25336],[-0.99452,54.25347],[-0.99451,54.25353],[-0.99415,54.2536],[-0.99413,54.2536],[-0.99397,54.25363],[-0.99387,54.25345],[-0.99421,54.25338],[-0.99419,54.25335],[-0.99438,54.25331]]]]}},
{ "type":"Feature","properties":{"osm_way_id":"973508198","amenity":"parking","other":{"access":"private"}}, "geometry":{"type":"MultiPolygon","coordinates":[[[[-0.78704,54.24977],[-0.78709,54.24968],[-0.78665,54.24961],[-0.7866,54.2497],[-0.78704,54.24977]]]]}},
{ "type":"Feature","properties":{"osm_way_id":"976671103","amenity":"parking"},"geometry":{"type":"MultiPolygon","coordinates":[[[[-0.80445,54.25925],[-0.80426,54.25899],[-0.80411,54.25909],[-0.80418,54.25912],[-0.80414,54.25915],[-0.80424,54.25919],[-0.80438,54.25926],[-0.80445,54.25925]]]]}},
{ "type":"Feature","properties":{"osm_way_id":"977018300","amenity":"parking","other":{"access":"private"}}, "geometry":{"type":"MultiPolygon","coordinates":[[[[-0.94273,54.26806],[-0.94284,54.26806],[-0.9428,54.26793],[-0.94268,54.26795],[-0.94273,54.26806]]]]}},
{ "type":"Feature","properties":{"osm_way_id":"982034771","name":"Coaches Only","amenity":"parking"},"geometry":{"type":"MultiPolygon","coordinates":[[[[-0.97238,54.00002],[-0.9721,54.00003],[-0.97209,53.99992],[-0.97237,53.9999],[-0.97238,54.00002]]]]}},
{ "type":"Feature","properties":{"osm_way_id":"985464353","amenity":"parking"},"geometry":{"type":"MultiPolygon","coordinates":[[[[-0.93699,54.2714],[-0.93689,54.27115],[-0.93713,54.27113],[-0.93717,54.27112],[-0.93725,54.27136],[-0.93699,54.2714]]]]}},
{ "type":"Feature","properties":{"osm_way_id":"992703467","amenity":"parking"},"geometry":{"type":"MultiPolygon","coordinates":[[[[-0.69012,54.15578],[-0.68999,54.15562],[-0.69054,54.15545],[-0.69068,54.15562],[-0.69012,54.15578]]]]}},
{ "type":"Feature","properties":{"osm_way_id":"1001164291","amenity":"parking","other":{"access":"private"}}, "geometry":{"type":"MultiPolygon","coordinates":[[[[-0.93515,54.27051],[-0.93513,54.2704],[-0.93521,54.27039],[-0.93522,54.27049],[-0.93515,54.27051]]]]}},
{ "type":"Feature","properties":{"osm_way_id":"1001164297","amenity":"parking","other":{"access":"private"}}, "geometry":{"type":"MultiPolygon","coordinates":[[[[-0.93475,54.27038],[-0.93473,54.27036],[-0.93471,54.27033],[-0.93456,54.27037],[-0.93458,54.27042],[-0.93475,54.27038]]]]}},
{ "type":"Feature","properties":{"osm_way_id":"1013340224","building":"yes"},"geometry":{"type":"MultiPolygon","coordinates":[[[[-2.70432,56.50849],[-2.70427,56.50851],[-2.70424,56.50848],[-2.70429,56.50847],[-2.70432,56.50849]]]]}},
{ "type":"Feature","properties":{"osm_way_id":"1013857093","amenity":"parking","other":{"parking":"street_side","surface":"gravel"}}, "geometry":{"type":"MultiPolygon","coordinates":[[[[-0.9901,53.98212],[-0.99018,53.98199],[-0.99019,53.98207],[-0.99017,53.9821],[-0.9901,53.98212]]]]}},
{ "type":"Feature","properties":{"osm_way_id":"1014363283","amenity":"parking","other":{"access":"private","capacity":"11","parking":"surface"}}, "geometry":{"type":"MultiPolygon","coordinates":[[[[0.02797,51.537],[0.0279,51.53713],[0.02804,51.53716],[0.02805,51.53716],[0.02807,51.53713],[0.02814,51.53714],[0.02814,51.53713],[0.02822,51.53715],[0.02824,51.53711],[0.02817,51.53709],[0.02819,51.53706],[0.02812,51.53704],[0.02802,51.53701],[0.02797,51.537]]]]}}
]
}
