{
"type": "FeatureCollection",
"features": [
{ "type":"Feature","properties":{"osm_id":"2979103257","name":"Heron Foods","other":{"addr:housenumber":"4","addr:postcode":"CA14 2AD","addr:street":"Murray Road","brand":"Heron Foods","brand:wikidata":"Q5743472","brand:wikipedia":"en:Heron Foods","contact:website":"https:\/\/heronfoods.com\/storelocator\/store-details\/workington","fhrs:id":"1196575","old_name":"Heron Foods","operator":"Heron Foods","shop":"supermarket","source:addr":"FHRS Open Data"}}, "geometry":{"type":"Point","coordinates":[-3.54831,54.64362 ]}},
{ "type":"Feature","properties":{"osm_id":"3367816677","name":"Heron Foods","other":{"addr:city":"Maryport","addr:country":"GB","addr:housenumber":"76","addr:postcode":"CA15 6BS","addr:street":"Senhouse Street","brand":"Heron Foods","brand:wikidata":"Q5743472","brand:wikipedia":"en:Heron Foods","contact:website":"https:\/\/heronfoods.com\/storelocator\/store-details\/maryport","fhrs:id":"268079","shop":"supermarket","wheelchair":"yes"}}, "geometry":{"type":"Point","coordinates":[-3.49683,54.71395 ]}},
{ "type":"Feature","properties":{"osm_id":"3914995649","name":"Spar","other":{"brand":"Spar","brand:wikidata":"Q610492","shop":"supermarket"}}, "geometry":{"type":"Point","coordinates":[-3.45474,54.70547 ]}},
{ "type":"Feature","properties":{"osm_id":"4195915531","name":"Spar","other":{"addr:city":"Cockermouth","addr:street":"Lamplugh Road","brand":"Spar","brand:wikidata":"Q610492","brand:wikipedia":"en:Spar (retailer)","shop":"supermarket"}}, "geometry":{"type":"Point","coordinates":[-3.37249,54.6544 ]}},
{ "type":"Feature","properties":{"osm_id":"5017553521","name":"Asda","other":{"addr:city":"Workington","addr:country":"GB","addr:place":"Dunmail Park Shopping Centre","addr:postcode":"CA14 1NQ","brand":"Asda","brand:wikidata":"Q297410","brand:wikipedia":"en:Asda","contact:website":"https:\/\/storelocator.asda.com\/north-west\/workington\/dunmail-park","fhrs:id":"268285","operator":"Asda Stores Ltd","shop":"supermarket"}}, "geometry":{"type":"Point","coordinates":[-3.55382,54.6568 ]}},
{ "type":"Feature","properties":{"osm_id":"6721038662","name":"Lidl","other":{"addr:city":"Cockermouth","addr:country":"GB","addr:postcode":"CA13 9PZ","addr:street":"Station Street","brand":"Lidl","brand:wikidata":"Q151954","brand:wikipedia":"en:Lidl","fhrs:id":"1215152","shop":"supermarket","website":"http:\/\/www.lidl.co.uk"}}, "geometry":{"type":"Point","coordinates":[-3.36482,54.66113 ]}},
{ "type":"Feature","properties":{"osm_way_id":"61998754","name":"Tesco","building":"yes","shop":"supermarket","other":{"addr:city":"Wyberton","addr:country":"GB","addr:postcode":"PE21 7JD","addr:street":"New Hammond Beck Road","brand":"Tesco","brand:wikidata":"Q487494","brand:wikipedia":"en:Tesco","designation":"Boston Superstore","fhrs:authority":"Boston","fhrs:id":"231715","fhrs:local_authority_id":"199"}}, "geometry":{"type":"MultiPolygon","coordinates":[[[[-0.0616,52.97052],[-0.06083,52.97059],[-0.06081,52.97052],[-0.06034,52.97057],[-0.0606,52.97155],[-0.06095,52.97157],[-0.06098,52.97138],[-0.06125,52.97139],[-0.06142,52.97137],[-0.06141,52.97135],[-0.06163,52.97133],[-0.06161,52.97123],[-0.06171,52.97122],[-0.0616,52.97077],[-0.06167,52.97076],[-0.0616,52.97052]]]]}},
{ "type":"Feature","properties":{"osm_way_id":"149712624","name":"Booths","building":"supermarket","shop":"supermarket","other":{"addr:city":"Keswick","addr:postcode":"CA12 5EA","addr:street":"Tithebarn Street","brand":"Booths","brand:wikidata":"Q4943949","brand:wikipedia":"en:Booths","old_name":"The Lakes Foodstore","open":"mo-sa 8:00-21:00 su 10:00-16:00","phone":"+44 17687 73518","website":"https:\/\/www.booths.co.uk\/store\/keswick\/","wheelchair":"yes"}}, "geometry":{"type":"MultiPolygon","coordinates":[[[[-3.14159,54.60238],[-3.1414,54.60227],[-3.14131,54.60222],[-3.14127,54.60225],[-3.14124,54.60223],[-3.14105,54.60213],[-3.14097,54.60209],[-3.14084,54.60202],[-3.14111,54.60185],[-3.14108,54.60183],[-3.1413,54.6017],[-3.14134,54.60171],[-3.14143,54.60166],[-3.14166,54.60178],[-3.14171,54.60175],[-3.14182,54.6018],[-3.14177,54.60184],[-3.14191,54.60192],[-3.14196,54.60189],[-3.14206,54.60194],[-3.142,54.60198],[-3.14219,54.60208],[-3.14215,54.6021],[-3.14222,54.60215],[-3.14207,54.60224],[-3.14196,54.60218],[-3.14189,54.60222],[-3.14186,54.6022],[-3.14159,54.60238]]]]}},
{ "type":"Feature","properties":{"osm_way_id":"151793283","name":"Lakes & Dales Co-operative","building":"supermarket","shop":"supermarket","other":{"addr:city":"Keswick","addr:housenumber":"25","addr:postcode":"CA12 5EF","addr:street":"Main Street","brand:wikidata":"Q110620660","old_name":"Penrith Co-operative Society;Keswick Co-operative Society","operator":"Scottish Midland Co-operative Society","phone":"+44 17687 72108","source:addr:postcode":"code-point_open","website":"https:\/\/scotmid.coop\/store\/keswick\/"}}, "geometry":{"type":"MultiPolygon","coordinates":[[[[-3.1405,54.60264],[-3.14059,54.60256],[-3.14041,54.60248],[-3.14038,54.60251],[-3.14034,54.60249],[-3.14038,54.60246],[-3.14021,54.60237],[-3.14015,54.6024],[-3.1401,54.60245],[-3.14006,54.60249],[-3.14002,54.60253],[-3.13997,54.60257],[-3.13993,54.60261],[-3.14015,54.60268],[-3.14029,54.60255],[-3.1405,54.60264]]]]}},
{ "type":"Feature","properties":{"osm_way_id":"185197654","name":"Lidl","building":"yes","shop":"supermarket","other":{"addr:country":"GB","addr:postcode":"CA7 9HG","addr:street":"King Street","alt_name":"LIDL Wigton","brand":"Lidl","brand:wikidata":"Q151954","fhrs:id":"268273"}}, "geometry":{"type":"MultiPolygon","coordinates":[[[[-3.15659,54.82623],[-3.15589,54.8258],[-3.15573,54.82589],[-3.15578,54.82592],[-3.15563,54.82601],[-3.15627,54.8264],[-3.15659,54.82623]]]]}},
{ "type":"Feature","properties":{"osm_way_id":"185197798","name":"Co-op","building":"yes","shop":"supermarket","other":{"addr:postcode":"CA7 9AF","addr:street":"Station Road","alt_name":"The Co-operative Food"}}, "geometry":{"type":"MultiPolygon","coordinates":[[[[-3.16044,54.82688],[-3.16044,54.82656],[-3.16031,54.82656],[-3.16031,54.82653],[-3.16007,54.82652],[-3.16007,54.82655],[-3.15993,54.82655],[-3.15993,54.82664],[-3.15981,54.82663],[-3.15979,54.82678],[-3.16001,54.82688],[-3.16044,54.82688]]]]}},
{ "type":"Feature","properties":{"osm_way_id":"185197890","name":"Co-op","building":"yes","shop":"supermarket","other":{"addr:postcode":"CA7 3AA","addr:street":"King Street"}}, "geometry":{"type":"MultiPolygon","coordinates":[[[[-3.32868,54.7641],[-3.32865,54.76401],[-3.32863,54.76395],[-3.32855,54.76395],[-3.3284,54.76381],[-3.32824,54.76382],[-3.3283,54.76397],[-3.32835,54.76397],[-3.3284,54.76412],[-3.32868,54.7641]]]]}},
{ "type":"Feature","properties":{"osm_way_id":"224144367","name":"Aldi","building":"retail","shop":"supermarket","other":{"addr:postcode":"CA13 0HH","addr:street":"Low Road","alt_name":"ALDI Cockermouth","brand":"ALDI","brand:wikidata":"Q41171672","brand:wikipedia":"en:Aldi"}}, "geometry":{"type":"MultiPolygon","coordinates":[[[[-3.37307,54.66324],[-3.37332,54.66274],[-3.37278,54.66265],[-3.37274,54.66273],[-3.3728,54.66274],[-3.37277,54.6628],[-3.37284,54.66281],[-3.3727,54.6631],[-3.37281,54.66312],[-3.37278,54.66319],[-3.37307,54.66324]]]]}},
{ "type":"Feature","properties":{"osm_way_id":"224144368","name":"Sainsbury's","building":"retail","shop":"supermarket","other":{"addr:city":"Cockermouth","addr:postcode":"CA13 9RS","addr:street":"Station Road","alt_name":"Sainsbury's Cockermouth Superstore","brand":"Sainsbury's","brand:wikidata":"Q152096","brand:wikipedia":"en:Sainsbury's"}}, "geometry":{"type":"MultiPolygon","coordinates":[[[[-3.36538,54.66233],[-3.36447,54.66222],[-3.36453,54.66205],[-3.36443,54.66204],[-3.36451,54.66185],[-3.36501,54.66192],[-3.36551,54.66197],[-3.36548,54.66205],[-3.36538,54.66233]]]]}},
{ "type":"Feature","properties":{"osm_way_id":"247193872","name":"Tesco","building":"retail","shop":"supermarket","other":{"addr:postcode":"CA14 3YG","addr:street":"New Bridge Road","brand":"Tesco","brand:wikidata":"Q487494","brand:wikipedia":"en:Tesco","fhrs:id":"268019","operator":"Tesco Stores Ltd","source:addr":"FHRS Open Data","source:building":"Bing","source:postcode":"ONS"}}, "geometry":{"type":"MultiPolygon","coordinates":[[[[-3.55371,54.64851],[-3.55364,54.64846],[-3.55359,54.64846],[-3.5536,54.64842],[-3.55331,54.64841],[-3.55332,54.64839],[-3.55332,54.64835],[-3.55365,54.64836],[-3.55365,54.6483],[-3.55374,54.6483],[-3.55375,54.64818],[-3.55367,54.64817],[-3.55366,54.64815],[-3.55368,54.64794],[-3.55415,54.64795],[-3.55415,54.648],[-3.55434,54.648],[-3.55434,54.64798],[-3.55453,54.64798],[-3.55448,54.64863],[-3.55442,54.64863],[-3.55441,54.64866],[-3.5543,54.64865],[-3.5543,54.64863],[-3.55392,54.64862],[-3.55391,54.64865],[-3.55366,54.64865],[-3.55367,54.64858],[-3.55384,54.64859],[-3.55384,54.64853],[-3.55371,54.64852],[-3.55371,54.64851]]]]}},
{ "type":"Feature","properties":{"osm_way_id":"291325545","name":"Twentymans","building":"yes","shop":"supermarket"},"geometry":{"type":"MultiPolygon","coordinates":[[[[-3.43065,54.77001],[-3.43073,54.76989],[-3.43062,54.76987],[-3.4306,54.7699],[-3.43054,54.77],[-3.43065,54.77001]]]]}},
{ "type":"Feature","properties":{"osm_way_id":"294311902","name":"Morrisons","building":"yes","shop":"supermarket","other":{"brand":"Morrisons","brand:wikidata":"Q922344","brand:wikipedia":"en:Morrisons","phone":"+44 1900 64336"}}, "geometry":{"type":"MultiPolygon","coordinates":[[[[-3.56382,54.64078],[-3.56468,54.6409],[-3.56476,54.64069],[-3.56487,54.64066],[-3.56504,54.64025],[-3.56511,54.64023],[-3.56506,54.64016],[-3.56492,54.6402],[-3.56491,54.64018],[-3.56477,54.64017],[-3.56474,54.64021],[-3.56414,54.64011],[-3.56382,54.64078]]]]}},
{ "type":"Feature","properties":{"osm_way_id":"294311907","name":"Aldi","building":"yes","shop":"supermarket","other":{"brand":"ALDI","brand:wikidata":"Q41171672","brand:wikipedia":"en:Aldi"}}, "geometry":{"type":"MultiPolygon","coordinates":[[[[-3.56326,54.64187],[-3.5636,54.64145],[-3.56315,54.64133],[-3.56306,54.64145],[-3.56313,54.64147],[-3.56289,54.64177],[-3.56326,54.64187]]]]}},
{ "type":"Feature","properties":{"osm_way_id":"294340989","name":"Asda","building":"yes","shop":"supermarket","other":{"addr:city":"Workington","addr:country":"GB","addr:postcode":"CA14 5AB","addr:street":"Moss Hey Street","brand":"Asda","brand:wikidata":"Q297410","brand:wikipedia":"en:Asda","contact:website":"https:\/\/storelocator.asda.com\/north-west\/workington\/moss-bay-road","fhrs:id":"268251","operator":"Asda Stores Ltd"}}, "geometry":{"type":"MultiPolygon","coordinates":[[[[-3.56235,54.62602],[-3.5627,54.62608],[-3.56286,54.62581],[-3.56295,54.62583],[-3.56298,54.62575],[-3.56252,54.62567],[-3.56246,54.62579],[-3.56225,54.62576],[-3.5622,54.62586],[-3.56231,54.62588],[-3.56227,54.62594],[-3.56238,54.62596],[-3.56235,54.62602]]]]}},
{ "type":"Feature","properties":{"osm_way_id":"319603120","name":"The Co-operative Food","building":"yes","shop":"supermarket","other":{"operator":"The Co-operative Group"}}, "geometry":{"type":"MultiPolygon","coordinates":[[[[-3.54734,54.63928],[-3.54704,54.63935],[-3.54702,54.63923],[-3.54718,54.6392],[-3.5472,54.63922],[-3.54731,54.6392],[-3.54734,54.63928]]]]}},
{ "type":"Feature","properties":{"osm_way_id":"329102699","name":"Co-Operative Food","building":"yes","shop":"supermarket","other":{"addr:city":"Silloth","addr:postcode":"CA7 4BY","addr:street":"Caldew Street","phone":"+44 16973 31368"}}, "geometry":{"type":"MultiPolygon","coordinates":[[[[-3.38585,54.87059],[-3.3861,54.87064],[-3.38614,54.87056],[-3.38623,54.8704],[-3.38629,54.8703],[-3.38605,54.87025],[-3.38585,54.87059]]]]}},
{ "type":"Feature","properties":{"osm_way_id":"336044378","name":"Spar","building":"yes","shop":"supermarket","other":{"addr:city":"Keswick","addr:postcode":"CA12 4HN","addr:street":"Shorley Lane","brand":"Spar","brand:wikidata":"Q610492","brand:wikipedia":"en:SPAR (retailer)","phone":"+44 17687 80157","website":"https:\/\/www.spar.co.uk\/"}}, "geometry":{"type":"MultiPolygon","coordinates":[[[[-3.13355,54.60059],[-3.13361,54.60068],[-3.13383,54.60064],[-3.13376,54.60054],[-3.13355,54.60059]]]]}},
{ "type":"Feature","properties":{"osm_way_id":"449395403","name":"Lidl","building":"yes","shop":"supermarket","other":{"addr:city":"Maryport","addr:country":"GB","addr:postcode":"CA15 6DF","addr:street":"Curzon Street","brand":"Lidl","brand:wikidata":"Q151954","brand:wikipedia":"en:Lidl","fhrs:id":"950729","website":"https:\/\/www.lidl.co.uk\/","wheelchair":"yes"}}, "geometry":{"type":"MultiPolygon","coordinates":[[[[-3.49831,54.7114],[-3.49943,54.7116],[-3.4995,54.71148],[-3.49942,54.71146],[-3.49951,54.7113],[-3.49846,54.71112],[-3.49831,54.7114]]]]}},
{ "type":"Feature","properties":{"osm_way_id":"759968548","natural":"bare_rock"},"geometry":{"type":"MultiPolygon","coordinates":[[[[-3.29179,54.56985],[-3.29168,54.56988],[-3.29162,54.56995],[-3.29168,54.56998],[-3.29178,54.56997],[-3.2918,54.57004],[-3.29187,54.57009],[-3.29187,54.57003],[-3.29182,54.56996],[-3.29179,54.56985]]]]}},
{ "type":"Feature","properties":{"osm_way_id":"896967991","natural":"bare_rock"},"geometry":{"type":"MultiPolygon","coordinates":[[[[-3.14043,54.53325],[-3.14035,54.53329],[-3.1403,54.53334],[-3.14033,54.53339],[-3.14038,54.53332],[-3.14043,54.53333],[-3.14046,54.5333],[-3.14043,54.53325]]]]}}
]
}
