{
"type": "FeatureCollection",
"features": [
{ "type":"Feature","properties":{"osm_id":"307743818","name":"Co-operative","other":{"shop":"supermarket","wheelchair":"yes"}}, "geometry":{"type":"Point","coordinates":[-2.34171,53.42938 ]}},
{ "type":"Feature","properties":{"osm_id":"494915031","name":"Worldwide Food","other":{"addr:city":"Old Trafford","addr:housenumber":"2","addr:postcode":"M16 0LH","addr:street":"Tennis Street","fhrs:id":"1150709","shop":"supermarket","source:addr":"FHRS Open Data"}}, "geometry":{"type":"Point","coordinates":[-2.27699,53.46064 ]}},
{ "type":"Feature","properties":{"osm_id":"715907067","name":"Urmston Convenience Store","other":{"phone":"+44 161 747 1090","shop":"supermarket"}}, "geometry":{"type":"Point","coordinates":[-2.35515,53.4483 ]}},
{ "type":"Feature","properties":{"osm_id":"718512359","name":"The Food Warehouse","other":{"brand":"The Food Warehouse","brand:wikidata":"Q87263899","shop":"supermarket"}}, "geometry":{"type":"Point","coordinates":[-2.35995,53.46332 ]}},
{ "type":"Feature","properties":{"osm_id":"1297490781","name":"Waitrose","other":{"brand":"Waitrose & Partners","brand:wikidata":"Q771734","brand:wikipedia":"en:Waitrose & Partners","operator":"Waitrose & Partners","shop":"supermarket"}}, "geometry":{"type":"Point","coordinates":[-2.36398,53.40559 ]}},
{ "type":"Feature","properties":{"osm_id":"1434108651","other":{"amenity":"parking_entrance"}}, "geometry":{"type":"Point","coordinates":[-2.32492,53.4247 ]}},
{ "type":"Feature","properties":{"osm_id":"1490377716","other":{"amenity":"parking_entrance"}}, "geometry":{"type":"Point","coordinates":[-2.32363,53.42473 ]}},
{ "type":"Feature","properties":{"osm_id":"1781765068","name":"M&S Foodhall","other":{"addr:city":"Hale, Altrincham","addr:street":"Ashley Road","brand":"M&S Foodhall","brand:wikidata":"Q714491","old_name":"The Co-operative Food","shop":"supermarket"}}, "geometry":{"type":"Point","coordinates":[-2.3457,53.37635 ]}},
{ "type":"Feature","properties":{"osm_id":"2632354121","name":"B&M","other":{"shop":"supermarket"}}, "geometry":{"type":"Point","coordinates":[-2.31656,53.42509 ]}},
{ "type":"Feature","properties":{"osm_id":"3006927512","name":"Heron Foods","other":{"addr:city":"Manchester","addr:country":"GB","addr:housename":"Stretford Shopping Mall","addr:postcode":"M32 9BD","addr:street":"Chester Road","addr:unit":"67,68","brand":"Heron Foods","brand:wikidata":"Q5743472","brand:wikipedia":"en:Heron Foods","contact:website":"https:\/\/heronfoods.com\/storelocator\/store-details\/stretford-shopping-centre","fhrs:id":"972009","shop":"supermarket"}}, "geometry":{"type":"Point","coordinates":[-2.31092,53.44521 ]}},
{ "type":"Feature","properties":{"osm_id":"3902942368","name":"Heron Foods","other":{"addr:city":"Manchester","addr:country":"GB","addr:housenumber":"10,10A","addr:place":"Partington","addr:postcode":"M31 4EL","brand":"Heron Foods","brand:wikidata":"Q5743472","brand:wikipedia":"en:Heron Foods","contact:website":"https:\/\/heronfoods.com\/storelocator\/store-details\/partington","fhrs:id":"724072","shop":"supermarket"}}, "geometry":{"type":"Point","coordinates":[-2.42566,53.41845 ]}},
{ "type":"Feature","properties":{"osm_id":"4929264123","name":"M&S Foodhall","other":{"brand":"M&S Foodhall","brand:wikidata":"Q714491","brand:wikipedia":"en:Marks & Spencer","shop":"supermarket"}}, "geometry":{"type":"Point","coordinates":[-2.28579,53.46151 ]}},
{ "type":"Feature","properties":{"osm_id":"5099365172","name":"Aldi","other":{"brand":"ALDI","brand:wikidata":"Q41171672","brand:wikipedia":"en:Aldi","shop":"supermarket","wheelchair":"yes"}}, "geometry":{"type":"Point","coordinates":[-2.35489,53.44926 ]}},
{ "type":"Feature","properties":{"osm_id":"5109545136","name":"Marks & Spencer","other":{"addr:city":"Altrincham","brand":"Marks & Spencer","brand:wikidata":"Q714491","brand:wikipedia":"en:Marks & Spencer","shop":"supermarket"}}, "geometry":{"type":"Point","coordinates":[-2.3504,53.3874 ]}},
{ "type":"Feature","properties":{"osm_id":"5331572346","name":"Spar","other":{"brand":"Spar","brand:wikidata":"Q610492","brand:wikipedia":"en:SPAR (retailer)","shop":"supermarket"}}, "geometry":{"type":"Point","coordinates":[-2.33669,53.45709 ]}},
{ "type":"Feature","properties":{"osm_id":"5401543737","name":"Aldi","other":{"addr:city":"Manchester","addr:housenumber":"5a","addr:parentstreet":"Chester Road","addr:place":"Stretford Mall Extension","addr:postcode":"M32 9BA","brand":"ALDI","brand:wikidata":"Q41171672","brand:wikipedia":"en:Aldi","fhrs:id":"868825","shop":"supermarket","source:addr":"FHRS Open Data"}}, "geometry":{"type":"Point","coordinates":[-2.31208,53.44536 ]}},
{ "type":"Feature","properties":{"osm_id":"5982168667","name":"Cheeni Supermarket","other":{"shop":"supermarket","addr:city":"Trafford","addr:street":"Chorlton Road","addr:postcode":"M15 4AN","addr:housenumber":"100"}}, "geometry":{"type":"Point","coordinates":[-2.25828,53.46197 ]}},
{ "type":"Feature","properties":{"osm_id":"6150108373","name":"Booths","other":{"addr:city":"Altrincham","addr:country":"GB","addr:housename":"The Square","addr:postcode":"WA15 8ST","addr:street":"Hale Road","addr:unit":"1","addr:village":"Hale Barns","brand":"Booths","brand:wikidata":"Q4943949","brand:wikipedia":"en:Booths","contact:website":"https:\/\/www.booths.co.uk\/store\/hale-barns\/","fhrs:id":"740408","shop":"supermarket","wheelchair":"yes"}}, "geometry":{"type":"Point","coordinates":[-2.31412,53.36906 ]}},
{ "type":"Feature","properties":{"osm_id":"6313437867","name":"Tesco Express","other":{"addr:city":"Manchester","addr:housenumber":"44","addr:postcode":"M16 7RN","addr:street":"Upper Chorlton Road","brand":"Tesco Express","brand:wikidata":"Q98456772","brand:wikipedia":"en:Tesco","contact:website":"https:\/\/www.tesco.com\/store-locator\/manchester\/42-upper-chorlton","shop":"supermarket"}}, "geometry":{"type":"Point","coordinates":[-2.2609,53.45744 ]}},
{ "type":"Feature","properties":{"osm_id":"6322874331","name":"Cool Country Polski Sklep","other":{"addr:city":"Manchester","addr:housenumber":"45","addr:postcode":"M16 9NH","addr:street":"Ayres Road","fhrs:id":"92138","shop":"supermarket","source:addr":"FHRS Open Data"}}, "geometry":{"type":"Point","coordinates":[-2.26386,53.45915 ]}},
{ "type":"Feature","properties":{"osm_id":"6329231752","name":"Warka Polish Delikatessen","other":{"addr:city":"Manchester","addr:housenumber":"103A","addr:postcode":"M16 7GS","addr:street":"Ayres Road","fhrs:id":"740397","shop":"supermarket","source:addr":"FHRS Open Data"}}, "geometry":{"type":"Point","coordinates":[-2.26801,53.45843 ]}},
{ "type":"Feature","properties":{"osm_id":"6341695672","name":"Manchester Super Store","other":{"addr:city":"Manchester","addr:housenumber":"129","addr:postcode":"M16 9NR","addr:street":"Ayres Road","fhrs:id":"812357","operator":"Badshah","shop":"supermarket","source:addr":"FHRS Open Data"}}, "geometry":{"type":"Point","coordinates":[-2.27074,53.45791 ]}},
{ "type":"Feature","properties":{"osm_id":"8010168008","name":"Aldi","other":{"addr:postcode":"M16 0RP","brand":"ALDI","brand:wikidata":"Q41171672","brand:wikipedia":"en:Aldi","fhrs:id":"1014673","opening_hours":"Mo-Sa 08:00-22:00;Su 11:00-17:00","shop":"supermarket","source:addr":"FHRS Open Data","website":"https:\/\/www.aldi.co.uk\/store\/s-uk-E1227","wheelchair":"yes"}}, "geometry":{"type":"Point","coordinates":[-2.28571,53.46126 ]}},
{ "type":"Feature","properties":{"osm_id":"8137323708","name":"Co-op Food","other":{"brand":"Co-op Food","brand:wikidata":"Q3277439","brand:wikipedia":"en:Co-op Food","shop":"supermarket"}}, "geometry":{"type":"Point","coordinates":[-2.32066,53.42982 ]}},
{ "type":"Feature","properties":{"osm_id":"8180057589","name":"The Food Warehouse","other":{"brand":"The Food Warehouse","brand:wikidata":"Q87263899","shop":"supermarket"}}, "geometry":{"type":"Point","coordinates":[-2.28484,53.46095 ]}},
{ "type":"Feature","properties":{"osm_id":"8390924627","name":"Quality Save","other":{"shop":"supermarket"}}, "geometry":{"type":"Point","coordinates":[-2.35161,53.38584 ]}},
{ "type":"Feature","properties":{"osm_id":"8818529520","other":{"amenity":"loading_dock"}}, "geometry":{"type":"Point","coordinates":[-2.29423,53.45899 ]}},
{ "type":"Feature","properties":{"osm_way_id":"4760133","name":"Sainsbury's","building":"retail","shop":"supermarket","other":{"brand":"Sainsbury's","brand:wikidata":"Q152096","brand:wikipedia":"en:Sainsbury's","wheelchair":"yes"}}, "geometry":{"type":"MultiPolygon","coordinates":[[[[-2.32402,53.42598],[-2.32362,53.4265],[-2.32256,53.42624],[-2.32263,53.42613],[-2.32268,53.42611],[-2.32278,53.42595],[-2.32282,53.42594],[-2.32298,53.42572],[-2.32359,53.42587],[-2.32402,53.42598]]]]}},
{ "type":"Feature","properties":{"osm_way_id":"27283250","name":"Tesco Extra","building":"yes","landuse":"retail","shop":"supermarket","other":{"brand":"Tesco Extra","brand:wikidata":"Q25172225","brand:wikipedia":"en:Tesco Extra","layer":"1"}}, "geometry":{"type":"MultiPolygon","coordinates":[[[[-2.34791,53.38601],[-2.34776,53.38599],[-2.34749,53.38596],[-2.34724,53.38594],[-2.34702,53.38592],[-2.34688,53.3859],[-2.34676,53.38589],[-2.34698,53.38514],[-2.34702,53.38495],[-2.34714,53.38496],[-2.34732,53.38498],[-2.34753,53.385],[-2.34768,53.38501],[-2.34769,53.38499],[-2.34763,53.38498],[-2.34773,53.38464],[-2.34784,53.38465],[-2.34778,53.38486],[-2.34791,53.38488],[-2.3479,53.38492],[-2.34796,53.38493],[-2.34794,53.38501],[-2.348,53.38502],[-2.34799,53.38505],[-2.34829,53.38508],[-2.3483,53.38519],[-2.34836,53.38519],[-2.34833,53.38531],[-2.34812,53.38529],[-2.3481,53.38537],[-2.34791,53.38601]]]]}},
{ "type":"Feature","properties":{"osm_way_id":"60738436","name":"Tesco","building":"yes","shop":"supermarket","other":{"brand":"Tesco","brand:wikidata":"Q487494","brand:wikipedia":"en:Tesco","parking":"rooftop","wheelchair":"yes"}}, "geometry":{"type":"MultiPolygon","coordinates":[[[[-2.32441,53.42476],[-2.32461,53.42458],[-2.32463,53.42459],[-2.32468,53.42461],[-2.32472,53.42462],[-2.32492,53.4247],[-2.32539,53.42427],[-2.32535,53.42413],[-2.32454,53.42381],[-2.32428,53.42405],[-2.32415,53.42416],[-2.32413,53.42419],[-2.3241,53.42421],[-2.32377,53.42451],[-2.32387,53.42455],[-2.32441,53.42476]]]]}},
{ "type":"Feature","properties":{"osm_way_id":"60738437","name":"Marks & Spencer","building":"yes","shop":"supermarket","other":{"brand":"Marks & Spencer","brand:wikidata":"Q714491","wheelchair":"yes"}}, "geometry":{"type":"MultiPolygon","coordinates":[[[[-2.32608,53.42466],[-2.32629,53.42448],[-2.3263,53.42447],[-2.3263,53.42447],[-2.32629,53.42446],[-2.32628,53.42446],[-2.32627,53.42446],[-2.32626,53.42446],[-2.32623,53.42446],[-2.32628,53.42442],[-2.32605,53.42432],[-2.32608,53.4243],[-2.3259,53.42422],[-2.32588,53.42425],[-2.32585,53.42424],[-2.32582,53.42426],[-2.32577,53.42424],[-2.32568,53.42431],[-2.32569,53.42431],[-2.32578,53.42435],[-2.32565,53.42446],[-2.32563,53.42448],[-2.32608,53.42466]]]]}},
{ "type":"Feature","properties":{"osm_way_id":"93930153","name":"Asda","building":"yes","shop":"supermarket","other":{"brand":"Asda","fhrs:id":"49938","operator":"Asda Stores Ltd","addr:city":"Manchester","wheelchair":"limited","addr:street":"Traders Avenue","addr:country":"GB","addr:postcode":"M41 7ZA","brand:wikidata":"Q297410","brand:wikipedia":"en:Asda","contact:website":"https:\/\/storelocator.asda.com\/north-west\/manchester\/barton-dock-road"}}, "geometry":{"type":"MultiPolygon","coordinates":[[[[-2.34554,53.46946],[-2.34539,53.4694],[-2.34532,53.46945],[-2.3453,53.46944],[-2.34523,53.4695],[-2.34521,53.46952],[-2.34514,53.46953],[-2.34508,53.4695],[-2.34484,53.46945],[-2.34481,53.46944],[-2.3449,53.46936],[-2.34486,53.46934],[-2.34477,53.46941],[-2.34463,53.46935],[-2.34461,53.46937],[-2.34449,53.46932],[-2.34445,53.46935],[-2.34431,53.46929],[-2.34436,53.46925],[-2.34457,53.46925],[-2.34457,53.46922],[-2.34445,53.46922],[-2.34445,53.46917],[-2.34434,53.46916],[-2.34434,53.46912],[-2.34401,53.46898],[-2.34417,53.46885],[-2.34415,53.46884],[-2.34464,53.46844],[-2.34478,53.4685],[-2.34489,53.46841],[-2.34511,53.4685],[-2.34515,53.46847],[-2.34537,53.46856],[-2.34533,53.46859],[-2.34579,53.46879],[-2.34577,53.46881],[-2.34611,53.46895],[-2.34601,53.46903],[-2.34605,53.46904],[-2.34554,53.46946]]]]}},
{ "type":"Feature","properties":{"osm_way_id":"135756109","name":"ALDI","building":"yes","shop":"supermarket","other":{"brand":"ALDI","brand:wikidata":"Q41171672","brand:wikipedia":"en:Aldi","parking":"rooftop","wheelchair":"yes"}}, "geometry":{"type":"MultiPolygon","coordinates":[[[[-2.32362,53.42531],[-2.32317,53.42523],[-2.32321,53.42516],[-2.32323,53.42516],[-2.32328,53.42511],[-2.32338,53.42502],[-2.32342,53.42499],[-2.32329,53.42494],[-2.32355,53.4247],[-2.32363,53.42473],[-2.32369,53.42476],[-2.3237,53.42474],[-2.32382,53.42479],[-2.32404,53.42487],[-2.32398,53.42493],[-2.32401,53.42494],[-2.32398,53.42497],[-2.32379,53.42515],[-2.32377,53.42517],[-2.32363,53.4253],[-2.32362,53.42531]]]]}},
{ "type":"Feature","properties":{"osm_way_id":"166726459","name":"Sainsbury's","building":"yes","shop":"supermarket","other":{"branch":"Altrincham","brand":"Sainsbury's","brand:wikidata":"Q152096","brand:wikipedia":"en:Sainsbury's"}}, "geometry":{"type":"MultiPolygon","coordinates":[[[[-2.35135,53.3836],[-2.35124,53.38358],[-2.35125,53.38354],[-2.35062,53.38349],[-2.35063,53.38344],[-2.35032,53.38342],[-2.35026,53.38366],[-2.35036,53.38367],[-2.35023,53.38428],[-2.35076,53.38431],[-2.35098,53.38431],[-2.35106,53.38427],[-2.35112,53.38403],[-2.3512,53.38404],[-2.35124,53.38391],[-2.35152,53.38393],[-2.35153,53.38383],[-2.35132,53.3838],[-2.35135,53.3836]]]]}},
{ "type":"Feature","properties":{"osm_way_id":"204930432","name":"Sainsbury's","building":"yes","shop":"supermarket","other":{"addr:postcode":"M41 0NA","addr:street":"Golden Way","addr:unit":"24","brand":"Sainsbury's","brand:wikidata":"Q152096","brand:wikipedia":"en:Sainsbury's","contact:website":"https:\/\/stores.sainsburys.co.uk\/2150\/urmston"}}, "geometry":{"type":"MultiPolygon","coordinates":[[[[-2.35447,53.44942],[-2.35479,53.45013],[-2.35474,53.45014],[-2.35476,53.45018],[-2.35465,53.45019],[-2.35461,53.45009],[-2.35387,53.45021],[-2.35389,53.45026],[-2.35377,53.45028],[-2.35345,53.44954],[-2.35358,53.44952],[-2.3536,53.44956],[-2.35447,53.44942]]]]}},
{ "type":"Feature","properties":{"osm_way_id":"255613003","name":"Lidl","building":"yes","shop":"supermarket","other":{"addr:country":"GB","addr:housenumber":"750","addr:postcode":"M32 0WZ","addr:street":"Chester Road","brand":"Lidl","brand:wikidata":"Q151954","brand:wikipedia":"en:Lidl","building:levels":"1","fhrs:id":"1093454","roof:shape":"gabled"}}, "geometry":{"type":"MultiPolygon","coordinates":[[[[-2.29348,53.45951],[-2.29376,53.45937],[-2.29432,53.45908],[-2.2943,53.45907],[-2.29436,53.45904],[-2.29432,53.45902],[-2.29425,53.45897],[-2.29423,53.45899],[-2.2942,53.459],[-2.29389,53.45879],[-2.29306,53.45922],[-2.29348,53.45951]]]]}},
{ "type":"Feature","properties":{"osm_way_id":"287805420","name":"Tesco Extra","building":"yes","shop":"supermarket","other":{"addr:postcode":"M32 0ZS","brand":"Tesco Extra","brand:wikidata":"Q25172225","brand:wikipedia":"en:Tesco Extra","fhrs:id":"494117","layer":"1","opening_hours":"Mo-Sa 00:00-24:00; Su 10:00-15:00","source:addr":"FHRS Open Data"}}, "geometry":{"type":"MultiPolygon","coordinates":[[[[-2.2917,53.4592],[-2.29133,53.45937],[-2.29142,53.45944],[-2.29023,53.46],[-2.28999,53.45983],[-2.29008,53.45979],[-2.28997,53.45972],[-2.29002,53.4597],[-2.28957,53.45935],[-2.28952,53.45936],[-2.2894,53.45927],[-2.2898,53.45909],[-2.28955,53.45889],[-2.28992,53.45873],[-2.28981,53.45864],[-2.29053,53.45831],[-2.29105,53.45872],[-2.2911,53.4587],[-2.29118,53.45875],[-2.29114,53.45877],[-2.29155,53.45908],[-2.29159,53.45906],[-2.29166,53.45912],[-2.29162,53.45914],[-2.2917,53.4592]]]]}},
{ "type":"Feature","properties":{"osm_way_id":"496657606","name":"Premier Express, Brooklands","building":"yes","shop":"supermarket","other":{"addr:city":"Sale","addr:housename":"Premier Express","addr:postcode":"M33 3ND","addr:street":"Marsland Road","operator":"Premier Stores","website":"https:\/\/www.premier-stores.co.uk\/"}}, "geometry":{"type":"MultiPolygon","coordinates":[[[[-2.32086,53.41749],[-2.32077,53.41749],[-2.32077,53.41748],[-2.32077,53.41744],[-2.32077,53.41742],[-2.32077,53.41736],[-2.3208,53.41736],[-2.3208,53.41734],[-2.3208,53.41733],[-2.3208,53.41732],[-2.3208,53.41731],[-2.32088,53.41731],[-2.32088,53.4174],[-2.32086,53.41742],[-2.32086,53.41749]]]]}},
{ "type":"Feature","properties":{"osm_way_id":"704553270","name":"Asda","building":"yes","shop":"supermarket","other":{"addr:city":"Altrincham","addr:country":"GB","addr:housenumber":"90","addr:postcode":"WA14 5ZR","addr:street":"George Richards Way","brand":"Asda","brand:wikidata":"Q297410","brand:wikipedia":"en:Asda","contact:website":"https:\/\/storelocator.asda.com\/north-west\/altrincham\/90-george-richards-way-broadheath","fhrs:id":"778527","operator":"Asda Stores Ltd"}}, "geometry":{"type":"MultiPolygon","coordinates":[[[[-2.36391,53.39813],[-2.36313,53.3983],[-2.36305,53.39819],[-2.36281,53.39825],[-2.36274,53.39816],[-2.36223,53.39826],[-2.36216,53.39811],[-2.36231,53.39808],[-2.36228,53.39803],[-2.36261,53.39796],[-2.36237,53.39758],[-2.3633,53.39737],[-2.3634,53.39752],[-2.36344,53.39752],[-2.3636,53.39763],[-2.36391,53.39813]]]]}},
{ "type":"Feature","properties":{"osm_way_id":"864137393","name":"ALDI","building":"yes","shop":"supermarket","other":{"brand":"ALDI","brand:wikidata":"Q41171672","brand:wikipedia":"en:Aldi","website":"https:\/\/www.aldi.co.uk\/store\/s-uk-E1004"}}, "geometry":{"type":"MultiPolygon","coordinates":[[[[-2.35998,53.46201],[-2.35986,53.462],[-2.35945,53.46197],[-2.35914,53.46194],[-2.35919,53.46172],[-2.35915,53.46171],[-2.35917,53.46165],[-2.35935,53.46166],[-2.35951,53.46167],[-2.35952,53.46162],[-2.3597,53.46163],[-2.35968,53.46168],[-2.36004,53.46171],[-2.35998,53.46201]]]]}},
{ "type":"Feature","properties":{"osm_way_id":"999448555","name":"ALDI","building":"yes","shop":"supermarket","other":{"brand":"ALDI","brand:wikidata":"Q41171672","brand:wikipedia":"en:Aldi"}}, "geometry":{"type":"MultiPolygon","coordinates":[[[[-2.35525,53.39807],[-2.35443,53.3982],[-2.35434,53.398],[-2.3543,53.39801],[-2.35426,53.39793],[-2.35527,53.39776],[-2.35531,53.39786],[-2.35527,53.39786],[-2.35535,53.39803],[-2.35524,53.39805],[-2.35525,53.39807]]]]}}
]
}
