{
"type": "FeatureCollection",
"features": [
{ "type":"Feature","properties":{"osm_id":"3581275071","other":{"defibrillator:location":"On the outside wall of the main entrance to Budgens supermarket in Broadway.","emergency":"defibrillator"}}, "geometry":{"type":"Point","coordinates":[-1.86249,52.03664 ]}},
{ "type":"Feature","properties":{"osm_id":"6177139491","name":"Co-op","other":{"opening_hours":"07:00-22:00","operator":"Co-operative Group","shop":"supermarket"}}, "geometry":{"type":"Point","coordinates":[-1.83162,52.09941 ]}},
{ "type":"Feature","properties":{"osm_way_id":"28481082","name":"Tesco","building":"yes","shop":"supermarket","other":{"addr:city":"Evesham","addr:postcode":"WR11 4XF","addr:street":"Worcester Road","branch_name":"Evesham Worcester Road Superstore","brand":"Tesco","brand:wikidata":"Q487494","brand:wikipedia":"en:Tesco","contact:website":"https:\/\/www.tesco.com\/store-locator\/evesham\/worcester-rd","fhrs:id":"685935"}}, "geometry":{"type":"MultiPolygon","coordinates":[[[[-1.95213,52.10146],[-1.95216,52.10152],[-1.95229,52.10173],[-1.95246,52.10222],[-1.9524,52.10229],[-1.95223,52.10232],[-1.95227,52.10239],[-1.95213,52.10241],[-1.95208,52.1023],[-1.95203,52.10231],[-1.952,52.10225],[-1.95173,52.10232],[-1.95154,52.10236],[-1.95158,52.10246],[-1.95128,52.10251],[-1.95081,52.10174],[-1.95095,52.10171],[-1.95213,52.10146]]]]}},
{ "type":"Feature","properties":{"osm_way_id":"54605812","name":"Waitrose","building":"yes","shop":"supermarket","other":{"addr:city":"Droitwich","addr:postcode":"WR9 8LB","addr:street":"Saltway","alt_name":"Waitrose Droitwich","brand":"Waitrose","brand:wikidata":"Q771734","brand:wikipedia":"en:Waitrose","official_name":"Waitrose & Partners"}}, "geometry":{"type":"MultiPolygon","coordinates":[[[[-2.14728,52.26862],[-2.14718,52.26893],[-2.14724,52.26893],[-2.14723,52.26897],[-2.14719,52.26909],[-2.14645,52.269],[-2.14652,52.26877],[-2.14642,52.26876],[-2.1465,52.26852],[-2.14728,52.26862]]]]}},
{ "type":"Feature","properties":{"osm_way_id":"145162680","name":"Morrisons","building":"yes","shop":"supermarket","other":{"addr:city":"Evesham","addr:postcode":"WR11 1DW","addr:street":"Davies Road","brand":"Morrisons","brand:wikidata":"Q922344","brand:wikipedia":"en:Morrisons","designation":"Evesham","fhrs:id":"685898","phone":"+44 1386 49351","website":"https:\/\/my.morrisons.com\/storefinder\/247","wheelchair":"yes"}}, "geometry":{"type":"MultiPolygon","coordinates":[[[[-1.94064,52.07947],[-1.94071,52.07938],[-1.94075,52.07939],[-1.94079,52.07934],[-1.94089,52.07937],[-1.94113,52.07902],[-1.94107,52.07893],[-1.94056,52.07878],[-1.9405,52.07876],[-1.94044,52.07875],[-1.94043,52.07877],[-1.94024,52.07871],[-1.9402,52.07872],[-1.9401,52.07883],[-1.94,52.07881],[-1.9398,52.0791],[-1.93989,52.07912],[-1.93988,52.07914],[-1.94004,52.07918],[-1.93996,52.07928],[-1.9401,52.07932],[-1.94005,52.07939],[-1.94041,52.07949],[-1.94049,52.07948],[-1.94053,52.07944],[-1.94064,52.07947]]]]}},
{ "type":"Feature","properties":{"osm_way_id":"145193175","name":"ALDI","building":"yes","shop":"supermarket","other":{"addr:city":"Evesham","addr:housenumber":"4","addr:postcode":"WR11 4PA","addr:street":"Swan Lane","brand":"ALDI","brand:wikidata":"Q41171672","brand:wikipedia":"en:Aldi","designation":"Evesham","fhrs:id":"673970","wheelchair":"yes"}}, "geometry":{"type":"MultiPolygon","coordinates":[[[[-1.94571,52.09397],[-1.94557,52.09435],[-1.94503,52.09428],[-1.94516,52.09394],[-1.9454,52.09398],[-1.94542,52.09393],[-1.94571,52.09397]]]]}},
{ "type":"Feature","properties":{"osm_way_id":"158901078","name":"B & M Stores","building":"retail","shop":"supermarket","other":{"wheelchair":"yes"}}, "geometry":{"type":"MultiPolygon","coordinates":[[[[-2.15738,52.27342],[-2.15796,52.27362],[-2.1576,52.27396],[-2.15704,52.27373],[-2.1571,52.27368],[-2.15721,52.27358],[-2.15738,52.27342]]]]}},
{ "type":"Feature","properties":{"osm_way_id":"202710922","name":"Co-op","building":"yes","shop":"supermarket","other":{"addr:city":"Broadway","addr:housename":"The Russells","addr:housenumber":"16","addr:postcode":"WR12 7AP","addr:street":"Russell Square","fhrs:id":"673907","operator":"Midcounties Co-operative"}}, "geometry":{"type":"MultiPolygon","coordinates":[[[[-1.86232,52.03665],[-1.86233,52.0367],[-1.86225,52.03671],[-1.86224,52.03668],[-1.86216,52.03669],[-1.86213,52.0366],[-1.86226,52.03659],[-1.86224,52.03654],[-1.86232,52.03653],[-1.8623,52.03647],[-1.86237,52.03646],[-1.86235,52.03641],[-1.86246,52.0364],[-1.86251,52.03651],[-1.86259,52.0365],[-1.86263,52.0366],[-1.86258,52.0366],[-1.8626,52.03664],[-1.8625,52.03665],[-1.86249,52.03664],[-1.86249,52.03663],[-1.86232,52.03665]]]]}},
{ "type":"Feature","properties":{"osm_way_id":"202991003","name":"Asda","building":"yes","shop":"supermarket","other":{"addr:country":"GB","addr:postcode":"WR10 1QU","addr:street":"King George's Way","brand":"Asda","brand:wikidata":"Q297410","brand:wikipedia":"en:Asda","contact:facebook":"https:\/\/www.facebook.com\/asda\/","contact:twitter":"@asda","contact:website":"https:\/\/storelocator.asda.com\/west-midlands\/pershore\/king-george's-way-(off-cherry-orchard)","designation":"Pershore Supermarket","fhrs:id":"686184","not:addr:postcode":"WR10 1BC","operator":"Asda Stores Ltd"}}, "geometry":{"type":"MultiPolygon","coordinates":[[[[-2.07458,52.11123],[-2.07415,52.11131],[-2.07413,52.11126],[-2.07395,52.11129],[-2.07398,52.11135],[-2.07389,52.11136],[-2.07402,52.11166],[-2.07502,52.11148],[-2.07494,52.11135],[-2.07489,52.11136],[-2.07483,52.11123],[-2.0746,52.11128],[-2.07458,52.11123]]]]}},
{ "type":"Feature","properties":{"osm_way_id":"220748003","name":"Lidl","building":"yes","shop":"supermarket","other":{"addr:city":"Evesham","addr:housenumber":"2","addr:postcode":"WR11 1BH","addr:street":"Broadway Road","brand":"Lidl","brand:wikidata":"Q151954","brand:wikipedia":"en:Lidl","designation":"Evesham","fhrs:id":"686191"}}, "geometry":{"type":"MultiPolygon","coordinates":[[[[-1.93572,52.08942],[-1.9355,52.08936],[-1.93553,52.08931],[-1.93538,52.08927],[-1.93503,52.08976],[-1.93541,52.08986],[-1.93572,52.08942]]]]}},
{ "type":"Feature","properties":{"osm_way_id":"228280117","name":"Morrisons","building":"retail","shop":"supermarket","other":{"addr:city":"Droitwich","addr:postcode":"WR9 8HE","addr:street":"Covercroft Road","alt_name":"Morrisons Droitwich","brand":"Morrisons","brand:wikidata":"Q922344","brand:wikipedia":"en:Morrisons"}}, "geometry":{"type":"MultiPolygon","coordinates":[[[[-2.15195,52.26889],[-2.15164,52.26883],[-2.15148,52.26863],[-2.15151,52.26856],[-2.15141,52.26853],[-2.15136,52.26849],[-2.15139,52.26846],[-2.15104,52.26838],[-2.1511,52.26829],[-2.15101,52.26827],[-2.15109,52.26813],[-2.15121,52.26816],[-2.15123,52.26811],[-2.15134,52.26813],[-2.15208,52.2683],[-2.15191,52.26858],[-2.15212,52.26862],[-2.15207,52.26871],[-2.15195,52.26889]]]]}},
{ "type":"Feature","properties":{"osm_way_id":"291393173","name":"Europa Food Store","building":"yes","shop":"supermarket","other":{"addr:city":"Evesham","addr:housenumber":"27-29","addr:postcode":"WR11 3LD","addr:street":"Port Street","source:postcode":"Companies House Open Data"}}, "geometry":{"type":"MultiPolygon","coordinates":[[[[-1.94065,52.09134],[-1.94035,52.09129],[-1.94049,52.09098],[-1.94079,52.09104],[-1.94065,52.09134]]]]}},
{ "type":"Feature","properties":{"osm_way_id":"294031818","name":"M&S Foodhall","building":"retail","shop":"supermarket","other":{"addr:street":"Shopping Park Evesham","brand":"M&S Foodhall","brand:wikidata":"Q714491","brand:wikipedia":"en:Marks & Spencer"}}, "geometry":{"type":"MultiPolygon","coordinates":[[[[-1.95023,52.10246],[-1.94989,52.10255],[-1.9498,52.10243],[-1.94962,52.10217],[-1.94996,52.10208],[-1.95023,52.10246]]]]}},
{ "type":"Feature","properties":{"osm_way_id":"322872945","name":"Co-op Food","building":"retail","shop":"supermarket","other":{"addr:city":"Evesham","addr:postcode":"WR11 1YP","addr:street":"Davies Road","addr:unit":"2","brand":"Co-op Food","brand:wikidata":"Q3277439","brand:wikipedia":"en:Co-op Food","fhrs:id":"685937","operator":"Midcounties Co-operative Society","source:postcode":"FHRS Open Data","wheelchair":"yes"}}, "geometry":{"type":"MultiPolygon","coordinates":[[[[-1.93224,52.08339],[-1.93222,52.08352],[-1.93201,52.08351],[-1.93183,52.0835],[-1.93184,52.08344],[-1.93159,52.08343],[-1.9316,52.08335],[-1.93224,52.08339]]]]}},
{ "type":"Feature","properties":{"osm_way_id":"340670447","name":"ALDI","building":"retail","shop":"supermarket","other":{"addr:city":"Droitwich","addr:postcode":"WR9 9AY","addr:street":"Kidderminster Road","alt_name":"ALDI Droitwich","brand":"ALDI","brand:wikidata":"Q41171672","brand:wikipedia":"en:Aldi","wheelchair":"yes"}}, "geometry":{"type":"MultiPolygon","coordinates":[[[[-2.15929,52.27295],[-2.15971,52.27263],[-2.15981,52.27268],[-2.15986,52.27264],[-2.1602,52.27281],[-2.16014,52.27286],[-2.15973,52.27317],[-2.15929,52.27295]]]]}},
{ "type":"Feature","properties":{"osm_way_id":"435915805","name":"Co-operative Food","building":"yes","shop":"supermarket","other":{"addr:city":"Pershore","addr:postcode":"WR10 2EY","addr:street":"Racecourse Road"}}, "geometry":{"type":"MultiPolygon","coordinates":[[[[-2.07245,52.12929],[-2.07192,52.12926],[-2.07187,52.12925],[-2.07193,52.12895],[-2.0725,52.12899],[-2.07246,52.12924],[-2.07245,52.12929]]]]}},
{ "type":"Feature","properties":{"osm_way_id":"615950640","name":"Waitrose","building":"retail","shop":"supermarket","other":{"addr:city":"Evesham","addr:postcode":"WR11 4BD","addr:street":"Merstow Green","brand":"Waitrose","brand:wikidata":"Q771734","brand:wikipedia":"en:Waitrose","fhrs:id":"1078488","official_name":"Waitrose & Partners","operator":"Waitrose & Partners","source:addr:postcode":"FHRS open data"}}, "geometry":{"type":"MultiPolygon","coordinates":[[[[-1.95098,52.09274],[-1.95044,52.09265],[-1.95069,52.09207],[-1.95073,52.09203],[-1.95077,52.09204],[-1.95093,52.09207],[-1.95095,52.0921],[-1.95091,52.09216],[-1.95091,52.09221],[-1.95091,52.09225],[-1.95093,52.09227],[-1.95094,52.09228],[-1.95113,52.09232],[-1.95098,52.09274]]]]}},
{ "type":"Feature","properties":{"osm_way_id":"793855025","name":"Lidl","building":"retail","shop":"supermarket","other":{"addr:country":"GB","addr:postcode":"WR9 9RB","addr:street":"Kidderminster Road","brand":"Lidl","brand:wikidata":"Q151954","brand:wikipedia":"en:Lidl","fhrs:id":"1130268"}}, "geometry":{"type":"MultiPolygon","coordinates":[[[[-2.15666,52.27345],[-2.15682,52.27314],[-2.15652,52.27308],[-2.1565,52.27312],[-2.15577,52.27298],[-2.15567,52.27317],[-2.15559,52.27316],[-2.15556,52.27323],[-2.15666,52.27345]]]]}},
{ "type":"Feature","properties":{"osm_way_id":"826607337","name":"Aldi","building":"yes","shop":"supermarket","other":{"addr:street":"St Richards Road","brand":"ALDI","brand:wikidata":"Q41171672","brand:wikipedia":"en:Aldi","building:levels":"1"}}, "geometry":{"type":"MultiPolygon","coordinates":[[[[-1.9444,52.07994],[-1.94434,52.07994],[-1.94432,52.08011],[-1.94345,52.08007],[-1.94342,52.08007],[-1.94342,52.08002],[-1.94346,52.08002],[-1.94348,52.07988],[-1.94344,52.07988],[-1.94345,52.07982],[-1.94441,52.07986],[-1.9444,52.07994]]]]}}
]
}
