{
"type": "FeatureCollection",
"features": [
{ "type":"Feature","properties":{"osm_id":"1721921609","name":"Asda","other":{"addr:city":"Cannock","addr:country":"GB","addr:postcode":"WS11 8UF","addr:street":"Lichfield Road","brand":"Asda","brand:wikidata":"Q297410","brand:wikipedia":"en:Asda","contact:facebook":"https:\/\/www.facebook.com\/asda\/","contact:twitter":"@asda","contact:website":"https:\/\/storelocator.asda.com\/west-midlands\/cannock\/rumer-hill-lichfield-road","fhrs:id":"1254377","operator":"Asda Stores Ltd","shop":"supermarket"}}, "geometry":{"type":"Point","coordinates":[-2.01858,52.68646 ]}},
{ "type":"Feature","properties":{"osm_id":"4859831552","man_made":"surveillance"},"geometry":{"type":"Point","coordinates":[-1.92972,52.76117 ]}},
{ "type":"Feature","properties":{"osm_id":"5313653906","name":"The Food Warehouse","other":{"brand":"The Food Warehouse","brand:wikidata":"Q87263899","shop":"supermarket"}}, "geometry":{"type":"Point","coordinates":[-2.04821,52.67852 ]}},
{ "type":"Feature","properties":{"osm_way_id":"134064716","name":"Asda","building":"retail","shop":"supermarket","other":{"addr:city":"Cannock","addr:country":"GB","addr:postcode":"WS11 1LH","addr:street":"Avon Road","brand":"Asda","brand:wikidata":"Q297410","brand:wikipedia":"en:Asda","contact:facebook":"https:\/\/www.facebook.com\/asda\/","contact:phone":"+44 1543 501300","contact:twitter":"@asda","contact:website":"https:\/\/storelocator.asda.com\/west-midlands\/cannock\/avon-road","operator":"Asda Stores Ltd"}}, "geometry":{"type":"MultiPolygon","coordinates":[[[[-2.03088,52.68631],[-2.03008,52.68689],[-2.0292,52.68647],[-2.02936,52.68637],[-2.02918,52.68629],[-2.02943,52.68595],[-2.02973,52.68599],[-2.02981,52.68603],[-2.03002,52.68588],[-2.03088,52.68631]]]]}},
{ "type":"Feature","properties":{"osm_way_id":"183185584","name":"ALDI","building":"yes","shop":"supermarket","other":{"addr:city":"Cannock","addr:postcode":"WS11 0HP","addr:street":"Walsall Road","brand":"ALDI","brand:wikidata":"Q41171672","brand:wikipedia":"en:Aldi","fhrs:id":"387006","source:addr":"FHRS Open Data"}}, "geometry":{"type":"MultiPolygon","coordinates":[[[[-2.02643,52.68638],[-2.02685,52.6865],[-2.02655,52.68689],[-2.02634,52.68683],[-2.0263,52.68687],[-2.0261,52.68681],[-2.02643,52.68638]]]]}},
{ "type":"Feature","properties":{"osm_way_id":"183185585","name":"Morrisons","building":"yes","shop":"supermarket","other":{"addr:postcode":"WS11 0DR","addr:street":"Mill Street","brand":"Morrisons","brand:wikidata":"Q922344","brand:wikipedia":"en:Morrisons","fhrs:id":"387339","source:addr":"FHRS Open Data"}}, "geometry":{"type":"MultiPolygon","coordinates":[[[[-2.02624,52.68708],[-2.02584,52.68745],[-2.02576,52.68742],[-2.02568,52.68749],[-2.02662,52.68786],[-2.02685,52.68765],[-2.02676,52.68761],[-2.02701,52.68738],[-2.02624,52.68708]]]]}},
{ "type":"Feature","properties":{"osm_way_id":"183319383","name":"M&S Foodhall","building":"retail","shop":"supermarket","other":{"brand":"M&S Foodhall","brand:wikidata":"Q714491","brand:wikipedia":"en:Marks & Spencer"}}, "geometry":{"type":"MultiPolygon","coordinates":[[[[-2.01938,52.6751],[-2.01929,52.67507],[-2.01931,52.67504],[-2.01918,52.675],[-2.01916,52.67502],[-2.01908,52.675],[-2.01877,52.67534],[-2.01906,52.67544],[-2.01938,52.6751]]]]}},
{ "type":"Feature","properties":{"osm_way_id":"185259661","name":"Tesco","building":"yes","shop":"supermarket","other":{"addr:postcode":"WS12 1DN","addr:street":"Victoria Street","brand":"Tesco","brand:wikidata":"Q487494","brand:wikipedia":"en:Tesco","fhrs:id":"1254419","layer":"1","operator":"Tesco","source:addr":"FHRS Open Data"}}, "geometry":{"type":"MultiPolygon","coordinates":[[[[-1.99927,52.71067],[-1.99966,52.71088],[-2.00006,52.71108],[-1.99999,52.71113],[-1.99916,52.71175],[-1.99829,52.71134],[-1.99843,52.71124],[-1.99834,52.7112],[-1.99897,52.71073],[-1.99892,52.7107],[-1.99905,52.71059],[-1.99927,52.71067]]]]}},
{ "type":"Feature","properties":{"osm_way_id":"187661168","name":"The Co-operative Food","building":"yes","shop":"supermarket","other":{"operator":"Central England Co-operative Society"}}, "geometry":{"type":"MultiPolygon","coordinates":[[[[-1.94821,52.77083],[-1.94815,52.77093],[-1.94822,52.77095],[-1.94814,52.77106],[-1.94807,52.77104],[-1.94805,52.77106],[-1.9475,52.77092],[-1.94766,52.77069],[-1.94821,52.77083]]]]}},
{ "type":"Feature","properties":{"osm_way_id":"204044206","name":"Morrisons","building":"yes","shop":"supermarket","other":{"addr:postcode":"WS15 2JJ","addr:street":"Market Street","brand":"Morrisons","brand:wikidata":"Q922344","brand:wikipedia":"en:Morrisons","fhrs:id":"387155","source:addr":"FHRS Open Data"}}, "geometry":{"type":"MultiPolygon","coordinates":[[[[-1.9333,52.76127],[-1.93321,52.76121],[-1.93325,52.76119],[-1.93312,52.76112],[-1.93312,52.76106],[-1.93329,52.76097],[-1.93323,52.76093],[-1.93358,52.76072],[-1.93379,52.76084],[-1.9339,52.76091],[-1.93427,52.76114],[-1.93403,52.76129],[-1.93409,52.76133],[-1.9341,52.76138],[-1.93404,52.76141],[-1.93399,52.76141],[-1.93389,52.76137],[-1.93351,52.76114],[-1.9333,52.76127]]]]}},
{ "type":"Feature","properties":{"osm_way_id":"204550195","name":"ALDI","building":"retail","shop":"supermarket","other":{"addr:postcode":"WS15 2JL","addr:street":"Market Street","brand":"ALDI","brand:wikidata":"Q41171672","brand:wikipedia":"en:Aldi","fhrs:id":"1254438","source:addr":"FHRS Open Data"}}, "geometry":{"type":"MultiPolygon","coordinates":[[[[-1.93424,52.76378],[-1.93358,52.76352],[-1.93371,52.76341],[-1.93379,52.76344],[-1.93388,52.76335],[-1.93416,52.76346],[-1.93419,52.76344],[-1.93448,52.76355],[-1.93424,52.76378]]]]}},
{ "type":"Feature","properties":{"osm_way_id":"246172291","name":"ALDI","building":"retail","shop":"supermarket","other":{"addr:postcode":"WS12 1DU","addr:street":"Victoria Street","brand":"ALDI","brand:wikidata":"Q41171672","brand:wikipedia":"en:Aldi","fhrs:id":"1254436","source:addr":"FHRS Open Data"}}, "geometry":{"type":"MultiPolygon","coordinates":[[[[-1.99738,52.70815],[-1.99707,52.708],[-1.99656,52.7084],[-1.99688,52.70855],[-1.99723,52.70828],[-1.99731,52.70831],[-1.99741,52.70823],[-1.99733,52.70819],[-1.99738,52.70815]]]]}},
{ "type":"Feature","properties":{"osm_way_id":"284118866","name":"Tesco","building":"retail","shop":"supermarket","other":{"branch":"Rugeley Superstore","brand":"Tesco","brand:wikidata":"Q487494","brand:wikipedia":"en:Tesco","operator":"Tesco","postal_code":"WS15 2HS"}}, "geometry":{"type":"MultiPolygon","coordinates":[[[[-1.92843,52.7613],[-1.92937,52.76074],[-1.92943,52.76078],[-1.92954,52.76095],[-1.92945,52.76101],[-1.92972,52.76117],[-1.92998,52.76133],[-1.92935,52.76171],[-1.92935,52.7617],[-1.92925,52.76176],[-1.92922,52.76174],[-1.92916,52.76178],[-1.92899,52.76187],[-1.92887,52.7618],[-1.92903,52.7617],[-1.92906,52.76169],[-1.92843,52.7613]]]]}},
{ "type":"Feature","properties":{"osm_way_id":"311073684","name":"Tesco","building":"yes","shop":"supermarket","other":{"brand":"Tesco","brand:wikidata":"Q487494","brand:wikipedia":"en:Tesco"}}, "geometry":{"type":"MultiPolygon","coordinates":[[[[-1.99987,52.69206],[-1.99962,52.69186],[-1.99958,52.69188],[-1.9991,52.69211],[-1.99899,52.69202],[-1.99811,52.69242],[-1.9986,52.69281],[-1.99855,52.69284],[-1.99876,52.693],[-1.99968,52.69257],[-1.99935,52.69231],[-1.99987,52.69206]]]]}},
{ "type":"Feature","properties":{"osm_way_id":"333881707","name":"Co-op Food","building":"yes","shop":"supermarket","other":{"addr:postcode":"WS15 1NN","addr:street":"Queensway","brand":"Co-op Food","brand:wikidata":"Q3277439","brand:wikipedia":"en:Co-op Food","fhrs:id":"1254387","operator":"Central England Co-operative Society","source:addr":"FHRS Open Data"}}, "geometry":{"type":"MultiPolygon","coordinates":[[[[-1.94151,52.7518],[-1.9414,52.75196],[-1.94081,52.75182],[-1.94088,52.75171],[-1.9411,52.75176],[-1.94113,52.75171],[-1.94151,52.7518]]]]}},
{ "type":"Feature","properties":{"osm_way_id":"333881775","name":"Co-op Food","building":"yes","shop":"supermarket","other":{"addr:housenumber":"4-6","addr:postcode":"WS15 1AB","addr:street":"Redbrook Lane","brand":"Co-op Food","brand:wikidata":"Q3277439","brand:wikipedia":"en:Co-op Food","fhrs:id":"1254088","operator":"The Co-operative Group","source:addr":"FHRS Open Data"}}, "geometry":{"type":"MultiPolygon","coordinates":[[[[-1.92557,52.74818],[-1.92581,52.74836],[-1.92549,52.74852],[-1.92526,52.74836],[-1.92534,52.74832],[-1.92532,52.74831],[-1.92557,52.74818]]]]}},
{ "type":"Feature","properties":{"osm_way_id":"357825708","name":"The Co-operative Food","building":"supermarket","shop":"supermarket","other":{"addr:city":"Norton Canes","addr:postcode":"WS11 9SE","addr:street":"Brownhills Road","fhrs:id":"1254044","opening_hours":"Mo-Su 07:00-22:00","operator":"Midcounties Co-operative Society"}}, "geometry":{"type":"MultiPolygon","coordinates":[[[[-1.9712,52.67428],[-1.97095,52.67448],[-1.97061,52.67433],[-1.97086,52.67413],[-1.9712,52.67428]]]]}},
{ "type":"Feature","properties":{"osm_way_id":"357826310","name":"The Co-operative Food","building":"yes","shop":"supermarket","other":{"addr:postcode":"WS12 1AB","operator":"Midcounties Co-operative Society"}}, "geometry":{"type":"MultiPolygon","coordinates":[[[[-2.00131,52.70946],[-2.00092,52.70971],[-2.00062,52.70954],[-2.00101,52.70929],[-2.00131,52.70946]]]]}},
{ "type":"Feature","properties":{"osm_way_id":"357827852","name":"Co-op Food","building":"yes","shop":"supermarket","other":{"addr:housenumber":"83","addr:postcode":"WS11 5BU","addr:street":"Cannock Road","brand":"Co-op Food","brand:wikidata":"Q3277439","brand:wikipedia":"en:Co-op Food","fhrs:id":"1254045","operator":"Midcounties Co-operative Society"}}, "geometry":{"type":"MultiPolygon","coordinates":[[[[-2.02152,52.69937],[-2.02136,52.69946],[-2.02126,52.69939],[-2.02102,52.69937],[-2.02104,52.69919],[-2.02131,52.69921],[-2.02133,52.69922],[-2.02132,52.69924],[-2.02152,52.69937]]]]}},
{ "type":"Feature","properties":{"osm_way_id":"476927553","name":"Sainsbury's","building":"retail","shop":"supermarket","other":{"addr:postcode":"WS11 8XP","addr:street":"Voyager Drive","brand":"Sainsbury's","brand:wikidata":"Q152096","brand:wikipedia":"en:Sainsbury's","fhrs:id":"387464"}}, "geometry":{"type":"MultiPolygon","coordinates":[[[[-2.01742,52.67354],[-2.0173,52.6735],[-2.01728,52.67352],[-2.01653,52.67327],[-2.01632,52.6735],[-2.016,52.6734],[-2.01549,52.67398],[-2.01593,52.67413],[-2.01583,52.67424],[-2.01656,52.67448],[-2.01654,52.67451],[-2.01662,52.67454],[-2.01717,52.67393],[-2.01709,52.6739],[-2.01742,52.67354]]]]}}
]
}
