{
"type": "FeatureCollection",
"features": [
{ "type":"Feature","properties":{"osm_way_id":"116480650","name":"Hermes","building":"warehouse","other":{"addr:city":"Bridgwater","addr:place":"Huntworth Business Park","addr:postcode":"TA6 6TS"}}, "geometry":{"type":"MultiPolygon","coordinates":[[[[-2.99222,51.10511],[-2.99203,51.10528],[-2.99202,51.10534],[-2.99197,51.10534],[-2.99195,51.1054],[-2.99191,51.1054],[-2.9919,51.10545],[-2.99185,51.10545],[-2.99184,51.1055],[-2.99179,51.1055],[-2.99178,51.10555],[-2.99172,51.10556],[-2.99171,51.10561],[-2.99167,51.10561],[-2.99166,51.10566],[-2.99161,51.10566],[-2.9916,51.10571],[-2.99155,51.10571],[-2.99153,51.10578],[-2.99148,51.10578],[-2.99126,51.10596],[-2.99109,51.10589],[-2.99114,51.10584],[-2.991,51.10577],[-2.99085,51.10591],[-2.99115,51.10605],[-2.99112,51.10607],[-2.99112,51.10613],[-2.99108,51.10613],[-2.99106,51.10619],[-2.99102,51.10619],[-2.991,51.10624],[-2.99096,51.10624],[-2.99095,51.10629],[-2.9909,51.10629],[-2.99088,51.10635],[-2.99083,51.10634],[-2.9906,51.10653],[-2.98996,51.10623],[-2.99161,51.10483],[-2.99171,51.10487],[-2.99183,51.10478],[-2.99219,51.10494],[-2.99207,51.10505],[-2.99222,51.10511]]]]}},
{ "type":"Feature","properties":{"osm_way_id":"116480673","name":"HPC J24 Park and Ride","building":"warehouse","other":{"addr:city":"Bridgwater","addr:place":"Huntworth Business Park","addr:postcode":"TA6 6TS"}}, "geometry":{"type":"MultiPolygon","coordinates":[[[[-2.99554,51.10548],[-2.9938,51.10715],[-2.99315,51.10689],[-2.99307,51.10696],[-2.99265,51.1068],[-2.99407,51.10542],[-2.99389,51.10534],[-2.99398,51.10526],[-2.99416,51.10533],[-2.9942,51.10528],[-2.99403,51.10521],[-2.99411,51.10513],[-2.99429,51.1052],[-2.99453,51.10498],[-2.99553,51.10537],[-2.99554,51.10548]]]]}},
{ "type":"Feature","properties":{"osm_way_id":"132050410","name":"Morrisons Regional Distribution Centre","building":"warehouse","other":{"addr:city":"Bridgwater","addr:country":"GB","addr:county":"Somerset","addr:postcode":"TA6 4FG","addr:street":"Kings Road","brand":"Morrisons","brand:wikidata":"Q922344","brand:wikipedia":"en:Morrisons"}}, "geometry":{"type":"MultiPolygon","coordinates":[[[[-2.98489,51.15569],[-2.98443,51.15565],[-2.98397,51.15782],[-2.9832,51.15775],[-2.98327,51.15743],[-2.98281,51.15739],[-2.98284,51.15724],[-2.98275,51.15723],[-2.98278,51.15708],[-2.98293,51.15709],[-2.98326,51.15556],[-2.98289,51.15552],[-2.98341,51.1531],[-2.98413,51.15317],[-2.98426,51.15256],[-2.98554,51.15267],[-2.9854,51.15328],[-2.98541,51.15328],[-2.98489,51.15569]]]]}},
{ "type":"Feature","properties":{"osm_way_id":"147951724","name":"Vapormatt Ltd","building":"warehouse","other":{"addr:city":"Bridgwater","addr:country":"GB","addr:county":"Somerset","addr:postcode":"TA6 4DL","addr:street":"Robins Drive","addr:unit":"2"}}, "geometry":{"type":"MultiPolygon","coordinates":[[[[-2.99878,51.1348],[-2.99857,51.13506],[-2.9985,51.13503],[-2.99847,51.13508],[-2.99822,51.13499],[-2.99827,51.13493],[-2.99819,51.1349],[-2.99829,51.13478],[-2.99823,51.13475],[-2.99832,51.13465],[-2.99878,51.1348]]]]}},
{ "type":"Feature","properties":{"osm_way_id":"384888858","building":"warehouse"},"geometry":{"type":"MultiPolygon","coordinates":[[[[-2.97207,51.14507],[-2.9722,51.14497],[-2.97157,51.14465],[-2.97144,51.14476],[-2.97207,51.14507]]]]}},
{ "type":"Feature","properties":{"osm_way_id":"423392629","name":"King Alfred Business Centre","building":"warehouse","other":{"addr:city":"Bridgwater","addr:country":"GB","addr:county":"Somerset","addr:housename":"The Granary","addr:postcode":"TA7 0BB","addr:street":"Petherton Road","addr:unit":"1-3","addr:village":"North Newton"}}, "geometry":{"type":"MultiPolygon","coordinates":[[[[-3.00178,51.08024],[-3.00131,51.08042],[-3.00155,51.08067],[-3.00212,51.08045],[-3.00207,51.0804],[-3.00196,51.08044],[-3.00191,51.0804],[-3.00193,51.08039],[-3.00178,51.08024]]]]}},
{ "type":"Feature","properties":{"osm_way_id":"484351009","name":"Wollens \/ Greenslades","building":"warehouse"},"geometry":{"type":"MultiPolygon","coordinates":[[[[-3.05803,51.14192],[-3.0573,51.1421],[-3.05726,51.14204],[-3.05715,51.14206],[-3.05695,51.14179],[-3.05686,51.14168],[-3.05723,51.14157],[-3.0573,51.1416],[-3.05729,51.14158],[-3.05742,51.14155],[-3.05749,51.14158],[-3.05754,51.14158],[-3.05751,51.14153],[-3.05769,51.14148],[-3.05803,51.14192]]]]}},
{ "type":"Feature","properties":{"osm_way_id":"955917638","building":"warehouse","other":{"construction":"yes"}}, "geometry":{"type":"MultiPolygon","coordinates":[[[[-2.98939,51.16579],[-2.98927,51.16563],[-2.98863,51.16581],[-2.98875,51.16597],[-2.98939,51.16579]]]]}},
{ "type":"Feature","properties":{"osm_way_id":"1011239288","building":"warehouse","other":{"addr:city":"Bridgwater","addr:country":"GB","addr:county":"Somerset","addr:parentstreet":"Compass Avenue","addr:postcode":"TA6 6GY","addr:street":"Carnival Way","addr:unit":"1601","addr:village":"North Petherton"}}, "geometry":{"type":"MultiPolygon","coordinates":[[[[-3.00294,51.10266],[-3.00277,51.10277],[-3.003,51.10291],[-3.00317,51.1028],[-3.00294,51.10266]]]]}},
{ "type":"Feature","properties":{"osm_way_id":"1011239289","building":"warehouse","other":{"addr:city":"Bridgwater","addr:country":"GB","addr:county":"Somerset","addr:parentstreet":"Compass Avenue","addr:postcode":"TA6 6GY","addr:street":"Carnival Way","addr:unit":"1602","addr:village":"North Petherton"}}, "geometry":{"type":"MultiPolygon","coordinates":[[[[-3.00277,51.10277],[-3.0026,51.10287],[-3.00283,51.10301],[-3.003,51.10291],[-3.00277,51.10277]]]]}},
{ "type":"Feature","properties":{"osm_way_id":"1011239290","building":"warehouse","other":{"addr:city":"Bridgwater","addr:country":"GB","addr:county":"Somerset","addr:parentstreet":"Compass Avenue","addr:postcode":"TA6 6GY","addr:street":"Carnival Way","addr:unit":"1603","addr:village":"North Petherton"}}, "geometry":{"type":"MultiPolygon","coordinates":[[[[-3.0026,51.10287],[-3.00243,51.10298],[-3.00266,51.10312],[-3.00283,51.10301],[-3.0026,51.10287]]]]}},
{ "type":"Feature","properties":{"osm_way_id":"1011239291","building":"warehouse","other":{"addr:city":"Bridgwater","addr:country":"GB","addr:county":"Somerset","addr:parentstreet":"Compass Avenue","addr:postcode":"TA6 6GY","addr:street":"Carnival Way","addr:unit":"1604","addr:village":"North Petherton"}}, "geometry":{"type":"MultiPolygon","coordinates":[[[[-3.00243,51.10298],[-3.00226,51.10308],[-3.00249,51.10322],[-3.00266,51.10312],[-3.00243,51.10298]]]]}},
{ "type":"Feature","properties":{"osm_way_id":"1011239292","building":"warehouse","other":{"addr:city":"Bridgwater","addr:country":"GB","addr:county":"Somerset","addr:parentstreet":"Compass Avenue","addr:postcode":"TA6 6GY","addr:street":"Carnival Way","addr:unit":"1605","addr:village":"North Petherton"}}, "geometry":{"type":"MultiPolygon","coordinates":[[[[-3.00226,51.10308],[-3.00209,51.10319],[-3.00232,51.10333],[-3.00249,51.10322],[-3.00226,51.10308]]]]}}
]
}
