{
"type": "FeatureCollection",
"features": [
{ "type":"Feature","properties":{"osm_id":"5843177198","name":"garden shop","other":{"shop":"supermarket"}}, "geometry":{"type":"Point","coordinates":[-2.76425,51.26322 ]}},
{ "type":"Feature","properties":{"osm_id":"9462379","name":"Lidl","type":"multipolygon","building":"yes","shop":"supermarket","other":{"addr:country":"GB","addr:housenumber":"47","addr:postcode":"TA8 1EL","addr:street":"Oxford Street","brand":"Lidl","brand:wikidata":"Q151954","brand:wikipedia":"en:Lidl","fhrs:id":"69192"}}, "geometry":{"type":"MultiPolygon","coordinates":[[[[-2.99381,51.23636],[-2.99404,51.23634],[-2.99412,51.23662],[-2.99337,51.23671],[-2.99329,51.23646],[-2.99337,51.23645],[-2.99334,51.23637],[-2.99346,51.23635],[-2.99347,51.23641],[-2.99348,51.23644],[-2.99382,51.2364],[-2.99381,51.23636]]]]}},
{ "type":"Feature","properties":{"osm_id":"9467104","name":"Tesco","type":"multipolygon","building":"yes","shop":"supermarket","other":{"addr:city":"Burnham-on-Sea","addr:country":"GB","addr:county":"Somerset","addr:postcode":"TA8 1EZ","addr:street":"Love Lane","brand":"Tesco","brand:wikidata":"Q487494","brand:wikipedia":"en:Tesco","building:levels":"1","building:material":"brick","contact:website":"https:\/\/www.tesco.com\/store-locator\/burnham-on-sea\/love-lane","fhrs:id":"121841","roof:material":"roof_tiles","roof:shape":"mansard"}}, "geometry":{"type":"MultiPolygon","coordinates":[[[[-2.98405,51.23667],[-2.98469,51.23673],[-2.98473,51.23658],[-2.98489,51.23659],[-2.98497,51.23625],[-2.98482,51.23623],[-2.98479,51.23632],[-2.98425,51.23627],[-2.98415,51.23626],[-2.98405,51.23667]]]]}},
{ "type":"Feature","properties":{"osm_way_id":"35481282","name":"Morrisons","building":"yes","shop":"supermarket","other":{"addr:city":"Bridgwater","addr:postcode":"TA6 3LN","addr:street":"Broadway","alt_name":"Morrisons Bridgwater","brand":"Morrisons","brand:wikidata":"Q922344","brand:wikipedia":"en:Morrisons"}}, "geometry":{"type":"MultiPolygon","coordinates":[[[[-3.00379,51.12477],[-3.00329,51.12468],[-3.00324,51.1248],[-3.00268,51.12471],[-3.00281,51.12438],[-3.00296,51.1244],[-3.00302,51.12426],[-3.00317,51.12392],[-3.00347,51.12397],[-3.00341,51.12409],[-3.00372,51.12414],[-3.00377,51.12402],[-3.00409,51.12408],[-3.00379,51.12477]]]]}},
{ "type":"Feature","properties":{"osm_way_id":"35822511","name":"Asda","building":"yes","shop":"supermarket","other":{"addr:city":"Bridgwater","addr:country":"GB","addr:county":"Somerset","addr:postcode":"TA6 5AZ","addr:street":"East Quay","alt_name":"ASDA Bridgwater Superstore","brand":"Asda","brand:wikidata":"Q297410","brand:wikipedia":"en:Asda","contact:facebook":"https:\/\/www.facebook.com\/asda\/","contact:phone":"+44 1278 720400","contact:twitter":"@asda","contact:website":"https:\/\/storelocator.asda.com\/south-west\/bridgwater\/east-quay","fhrs:id":"67841","opening_hours":"Mo-Sa 08:00-20:00; Su 10:00-16:00","operator":"Asda Stores Ltd"}}, "geometry":{"type":"MultiPolygon","coordinates":[[[[-2.99963,51.13034],[-2.99959,51.13035],[-2.99957,51.13033],[-2.9994,51.13036],[-2.99937,51.13029],[-2.99911,51.13034],[-2.99915,51.13043],[-2.99852,51.13054],[-2.99876,51.13109],[-2.99893,51.13106],[-2.99899,51.13119],[-2.99897,51.13119],[-2.999,51.13126],[-2.99929,51.13121],[-2.99948,51.13118],[-2.9995,51.13117],[-2.99952,51.13116],[-2.99953,51.13114],[-2.99953,51.13112],[-2.99946,51.13096],[-2.9996,51.13094],[-2.99971,51.13092],[-2.99984,51.1309],[-2.99977,51.13076],[-2.99972,51.13065],[-2.99976,51.13064],[-2.99963,51.13034]]]]}},
{ "type":"Feature","properties":{"osm_way_id":"78068971","name":"M&S Foodhall","building":"yes","shop":"supermarket","other":{"addr:city":"Bridgwater","addr:country":"GB","addr:county":"Somerset","addr:parentstreet":"The Leggar","addr:postcode":"TA6 4AB","addr:street":"Bridgwater Retail Park","addr:unit":"C2","brand":"M&S Foodhall","brand:wikidata":"Q714491","brand:wikipedia":"en:Marks & Spencer","fhrs:id":"892432","opening_hours":"Mo-Sa 08:00-20:00; Su 10:00-16:00"}}, "geometry":{"type":"MultiPolygon","coordinates":[[[[-3.00026,51.13278],[-2.99924,51.13274],[-2.99925,51.13259],[-2.99991,51.13262],[-3.00027,51.13263],[-3.00026,51.13278]]]]}},
{ "type":"Feature","properties":{"osm_way_id":"78090892","name":"Sainsbury's","building":"yes","shop":"supermarket","other":{"addr:city":"Bridgwater","addr:country":"GB","addr:county":"Somerset","addr:parentstreet":"The Leggar","addr:postcode":"TA6 4AB","addr:street":"Bridgwater Retail Park","alt_name":"Sainsbury's Bridgwater Superstore","brand":"Sainsbury's","brand:wikidata":"Q152096","brand:wikipedia":"en:Sainsbury's","fhrs:id":"75990","opening_hours":"Mo-Sa 07:00-22:00; Su 10:00-16:00","operator":"Sainsbury's","phone":"+44 1278 444066","website":"https:\/\/stores.sainsburys.co.uk\/0667\/bridgwater"}}, "geometry":{"type":"MultiPolygon","coordinates":[[[[-2.99691,51.13289],[-2.99671,51.13308],[-2.99669,51.13307],[-2.99618,51.13356],[-2.9962,51.13356],[-2.99615,51.13361],[-2.99612,51.1336],[-2.99607,51.13364],[-2.99587,51.13357],[-2.99591,51.13353],[-2.99578,51.13347],[-2.99556,51.13338],[-2.99554,51.13311],[-2.99559,51.13306],[-2.99549,51.13302],[-2.99551,51.13296],[-2.99555,51.13277],[-2.99578,51.13255],[-2.99602,51.13265],[-2.99604,51.13263],[-2.99614,51.13267],[-2.99621,51.1326],[-2.99691,51.13289]]]]}},
{ "type":"Feature","properties":{"osm_way_id":"134706243","name":"Asda","building":"retail","shop":"supermarket","other":{"addr:city":"Highbridge","addr:country":"GB","addr:postcode":"TA9 3BX","addr:street":"Caxton Road","brand":"Asda","brand:wikidata":"Q297410","brand:wikipedia":"en:Asda","contact:facebook":"https:\/\/www.facebook.com\/asda\/","contact:twitter":"@asda","contact:website":"https:\/\/storelocator.asda.com\/south-west\/highbridge\/caxton-road","fhrs:id":"77798","operator":"Asda Stores Ltd"}}, "geometry":{"type":"MultiPolygon","coordinates":[[[[-2.97275,51.22177],[-2.972,51.22166],[-2.9719,51.22193],[-2.97201,51.22195],[-2.97193,51.22217],[-2.972,51.22219],[-2.97192,51.22238],[-2.97249,51.22246],[-2.97252,51.22237],[-2.97259,51.22238],[-2.97278,51.22187],[-2.97271,51.22186],[-2.97275,51.22177]]]]}},
{ "type":"Feature","properties":{"osm_way_id":"370264457","name":"Co-op Food","building":"yes","shop":"supermarket","other":{"addr:city":"Bridgwater","addr:country":"GB","addr:housename":"Grenville House","addr:housenumber":"5,6,7","addr:postcode":"TA6 6JE","addr:street":"Rhode Lane","brand":"Co-op Food","brand:wikidata":"Q3277439","brand:wikipedia":"en:Co-op Food","operator":"The Co-operative Group","operator:wikidata":"Q117202","operator:wikipedia":"en:The Co-operative Group"}}, "geometry":{"type":"MultiPolygon","coordinates":[[[[-3.00888,51.11716],[-3.00881,51.11718],[-3.00881,51.11718],[-3.00873,51.11721],[-3.00866,51.1171],[-3.00865,51.11709],[-3.00868,51.11708],[-3.00869,51.11709],[-3.00879,51.11706],[-3.00881,51.11706],[-3.00888,51.11716]]]]}},
{ "type":"Feature","properties":{"osm_way_id":"460841938","name":"Co-Operative Retail Services Ltd","building":"supermarket","shop":"supermarket","other":{"addr:city":"Bridgwater","addr:country":"GB","addr:postcode":"TA6 5BJ","addr:street":"Westonzoyland Road","wheelchair":"yes"}}, "geometry":{"type":"MultiPolygon","coordinates":[[[[-2.98668,51.12621],[-2.98676,51.12623],[-2.98674,51.12626],[-2.98666,51.12623],[-2.98623,51.1261],[-2.98645,51.12581],[-2.98676,51.12591],[-2.98684,51.12581],[-2.98691,51.12583],[-2.98699,51.12585],[-2.98697,51.12588],[-2.98707,51.12591],[-2.98695,51.12607],[-2.98682,51.12603],[-2.98668,51.12621]]]]}},
{ "type":"Feature","properties":{"osm_way_id":"574844878","name":"Sainsbury's","building":"commercial","shop":"supermarket","other":{"addr:city":"Cheddar","addr:country":"GB","addr:county":"Somerset","addr:postcode":"BS27 3NZ","addr:street":"Roynon Way","brand":"Sainsbury's","brand:wikidata":"Q152096","brand:wikipedia":"en:Sainsbury's","operator":"Sainsbury's","payment:cash":"yes","payment:coins":"yes","payment:credit_cards":"yes","payment:debit_cards":"yes","payment:notes":"yes"}}, "geometry":{"type":"MultiPolygon","coordinates":[[[[-2.77505,51.2748],[-2.77461,51.27466],[-2.77482,51.27439],[-2.77495,51.27443],[-2.77491,51.27449],[-2.77522,51.27458],[-2.77505,51.2748]]]]}},
{ "type":"Feature","properties":{"osm_way_id":"779095015","name":"The Food Warehouse","building":"yes","shop":"supermarket","other":{"addr:city":"Bridgwater","addr:country":"GB","addr:county":"Somerset","addr:parentstreet":"The Leggar","addr:postcode":"TA6 4AF","addr:street":"Leggar Retail Park","addr:unit":"3","brand":"The Food Warehouse","brand:wikidata":"Q87263899","fhrs:id":"1082357","opening_hours":"Mo-Sa 08:00-21:00 Su 10:00-16:00","phone":"+44 1278 457376","website":"https:\/\/www.thefoodwarehouse.com\/store-locator\/bridgwater"}}, "geometry":{"type":"MultiPolygon","coordinates":[[[[-2.99746,51.13443],[-2.99708,51.13442],[-2.99711,51.13394],[-2.99749,51.13395],[-2.99746,51.13443]]]]}},
{ "type":"Feature","properties":{"osm_way_id":"779095017","name":"Lidl","building":"yes","shop":"supermarket","other":{"addr:city":"Bridgwater","addr:country":"GB","addr:county":"Somerset","addr:parentstreet":"The Leggar","addr:postcode":"TA6 4AF","addr:street":"Leggar Retail Park","addr:unit":"1","brand":"Lidl","brand:wikidata":"Q151954","brand:wikipedia":"en:Lidl","fhrs:id":"1093272","opening_hours":"Mo-Sa 08:00-21:00; Su 10:00-16:00; PH 08:00-20:00","website":"https:\/\/www.lidl.co.uk\/"}}, "geometry":{"type":"MultiPolygon","coordinates":[[[[-2.99668,51.13449],[-2.99671,51.13393],[-2.99616,51.13448],[-2.99668,51.13449]]]]}},
{ "type":"Feature","properties":{"osm_way_id":"807302344","name":"ALDI","building":"yes","shop":"supermarket","other":{"addr:city":"Bridgwater","addr:country":"GB","addr:county":"Somerset","addr:postcode":"TA6 3EU","addr:street":"Northgate","brand":"ALDI","brand:wikidata":"Q41171672","brand:wikipedia":"en:Aldi","construction":"supermarket","contact:website":"https:\/\/www.aldi.co.uk\/store\/s-uk-E1315","opening_hours":"Mo-Sa 08:00-20:00; Su 10:00-16:00"}}, "geometry":{"type":"MultiPolygon","coordinates":[[[[-3.00522,51.13162],[-3.00491,51.13082],[-3.00426,51.13097],[-3.00421,51.13103],[-3.00438,51.13157],[-3.00452,51.13171],[-3.0048,51.13169],[-3.00522,51.13162]]]]}},
{ "type":"Feature","properties":{"osm_way_id":"850243871","name":"Aldi","building":"yes","shop":"supermarket","other":{"addr:city":"Highbridge","addr:country":"GB","addr:county":"Somerset","addr:parentstreet":"Siger Drive","addr:postcode":"TA9 4BA","addr:street":"Isleport Business Park","addr:unit":"1","brand":"ALDI","brand:wikidata":"Q41171672","brand:wikipedia":"en:Aldi"}}, "geometry":{"type":"MultiPolygon","coordinates":[[[[-2.96136,51.22814],[-2.96155,51.22786],[-2.96072,51.22763],[-2.96053,51.22791],[-2.96136,51.22814]]]]}}
]
}
