{
"type": "FeatureCollection",
"features": [
{ "type":"Feature","properties":{"osm_id":"298252444","name":"Hartley Farm Shop","other":{"shop":"supermarket"}}, "geometry":{"type":"Point","coordinates":[0.51275,51.08525 ]}},
{ "type":"Feature","properties":{"osm_id":"441910070","name":"Tesco Metro","other":{"shop":"supermarket","brand":"Tesco Metro","access":"yes","fhrs:id":"20759","addr:street":"Grosvenor Road","addr:postcode":"TN1 2AH","brand:wikidata":"Q57551648","addr:housenumber":"29"}}, "geometry":{"type":"Point","coordinates":[0.26271,51.13547 ]}},
{ "type":"Feature","properties":{"osm_id":"1277048696","name":"Sainsbury's Local","other":{"addr:housenumber":"60-64","addr:postcode":"TN4 9PE","addr:street":"St Johns Road","brand":"Sainsbury's Local","brand:wikidata":"Q13218434","fhrs:id":"18363","shop":"supermarket","source:addr":"FHRS Open Data"}}, "geometry":{"type":"Point","coordinates":[0.26034,51.14146 ]}},
{ "type":"Feature","properties":{"osm_id":"3643005835","name":"Tesco Express","other":{"addr:city":"Tonbridge","addr:housenumber":"14","addr:place":"Paddock Wood","addr:postcode":"TN12 6EL","addr:street":"Commercial Road","alt_name":"Tesco Paddock Wood Express","brand":"Tesco Express","brand:wikidata":"Q98456772","contact:website":"https:\/\/www.tesco.com\/store-locator\/tonbridge\/14-commercial-rd","fhrs:id":"525949","level":"0","opening_hours":"Mo-Su 08:00-22:00","shop":"supermarket","wheelchair":"yes"}}, "geometry":{"type":"Point","coordinates":[0.38868,51.18116 ]}},
{ "type":"Feature","properties":{"osm_way_id":"23299311","name":"Co-operative Food","building":"yes","shop":"supermarket"},"geometry":{"type":"MultiPolygon","coordinates":[[[[0.53177,51.09498],[0.53215,51.0951],[0.53219,51.09505],[0.53221,51.09506],[0.5323,51.09509],[0.53239,51.09496],[0.5323,51.09494],[0.53228,51.09493],[0.53253,51.09461],[0.53219,51.09443],[0.53177,51.09498]]]]}},
{ "type":"Feature","properties":{"osm_way_id":"55032188","name":"Sainsbury's","building":"yes","shop":"supermarket","other":{"addr:postcode":"TN2 5QL","addr:street":"Linden Park Road","brand":"Sainsbury's","brand:wikidata":"Q152096","fhrs:id":"28248"}}, "geometry":{"type":"MultiPolygon","coordinates":[[[[0.25514,51.12288],[0.25633,51.1229],[0.25632,51.12309],[0.25658,51.1231],[0.25656,51.12338],[0.25637,51.12338],[0.25636,51.12355],[0.25525,51.12352],[0.25525,51.12363],[0.2551,51.12362],[0.25514,51.12288]]]]}},
{ "type":"Feature","properties":{"osm_way_id":"58542325","name":"Asda","building":"retail","shop":"supermarket","other":{"brand":"Asda","operator":"Asda Stores Ltd","addr:street":"Longfield Road","addr:country":"GB","addr:postcode":"TN2 3EY","contact:phone":"+44 1892 794200","brand:wikidata":"Q297410","brand:wikipedia":"en:Asda","contact:twitter":"@asda","contact:website":"https:\/\/storelocator.asda.com\/south-east\/tunbridge-wells\/longfield-road","contact:facebook":"https:\/\/www.facebook.com\/asda\/"}}, "geometry":{"type":"MultiPolygon","coordinates":[[[[0.29053,51.15698],[0.29085,51.15657],[0.29183,51.15687],[0.29158,51.15718],[0.29134,51.1571],[0.29127,51.15721],[0.29053,51.15698]]]]}},
{ "type":"Feature","properties":{"osm_way_id":"60431687","name":"Tesco","building":"yes","shop":"supermarket","other":{"addr:postcode":"TN2 4NE","addr:street":"Woodsgate Corner","brand":"Tesco","brand:wikidata":"Q487494"}}, "geometry":{"type":"MultiPolygon","coordinates":[[[[0.31245,51.14422],[0.31322,51.14396],[0.31297,51.14367],[0.3122,51.14393],[0.31245,51.14422]]]]}},
{ "type":"Feature","properties":{"osm_way_id":"163597788","name":"Tesco Express","building":"retail","shop":"supermarket","other":{"addr:housenumber":"105","addr:postcode":"TN4 9TU","addr:street":"St Johns Road","brand":"Tesco Express","brand:wikidata":"Q98456772","fhrs:id":"637868","operator":"Tesco","source:addr":"FHRS Open Data"}}, "geometry":{"type":"MultiPolygon","coordinates":[[[[0.25958,51.14302],[0.25979,51.143],[0.25976,51.14282],[0.25955,51.14283],[0.25958,51.14302]]]]}},
{ "type":"Feature","properties":{"osm_way_id":"164695085","name":"M&S Simply Food","building":"retail","shop":"supermarket","other":{"addr:housenumber":"41-43","addr:postcode":"TN4 9TP","addr:street":"St Johns Road","brand":"M&S Simply Food","brand:wikidata":"Q714491","fhrs:id":"63149","source:addr":"FHRS Open Data"}}, "geometry":{"type":"MultiPolygon","coordinates":[[[[0.25992,51.14052],[0.26,51.1404],[0.26013,51.14044],[0.26032,51.14049],[0.26025,51.1406],[0.25992,51.14052]]]]}},
{ "type":"Feature","properties":{"osm_way_id":"172304486","name":"Waitrose","building":"yes","shop":"supermarket","other":{"addr:city":"Hawkhurst","addr:county":"Kent","addr:postcode":"TN18 4JB","addr:street":"Rye Road","alt_name":"Waitrose Hawkhurst","brand":"Waitrose","brand:wikidata":"Q771734","brand:wikipedia":"en:Waitrose","fhrs:id":"924909","official_name":"Waitrose & Partners","old_name":"Budgens","opening_hours":"Mo-Sa 08:00-22:00 Su 10:00-16:00","operator":"Waitrose & Partners","source:addr":"FHRS Open Data"}}, "geometry":{"type":"MultiPolygon","coordinates":[[[[0.51124,51.04646],[0.51198,51.04636],[0.51207,51.04663],[0.51143,51.04671],[0.51138,51.04655],[0.51127,51.04657],[0.51124,51.04646]]]]}},
{ "type":"Feature","properties":{"osm_way_id":"359626202","name":"Waitrose","building":"yes","shop":"supermarket","other":{"addr:city":"Tonbridge","addr:county":"Kent","addr:place":"Paddock Wood","addr:postcode":"TN12 6EX","addr:street":"Church Road","alt_name":"Waitrose Paddock Wood","brand":"Waitrose & Partners","brand:wikidata":"Q771734","brand:wikipedia":"en:Waitrose & Partners","fhrs:authority":"Tunbridge Wells","fhrs:id":"5764","fhrs:inspectiondate":"2018-06-11","fhrs:rating":"5","operator":"Waitrose & Partners"}}, "geometry":{"type":"MultiPolygon","coordinates":[[[[0.38971,51.18197],[0.38967,51.18162],[0.38993,51.18158],[0.38993,51.18164],[0.39022,51.18163],[0.39021,51.18159],[0.3907,51.18157],[0.39072,51.18174],[0.39067,51.18174],[0.39071,51.18196],[0.38979,51.182],[0.38979,51.18196],[0.38971,51.18197]]]]}},
{ "type":"Feature","properties":{"osm_way_id":"397797762","name":"Heath Stores","building":"yes","shop":"supermarket","other":{"addr:city":"Horsmonden","addr:street":"The Heath","addr:postcode":"TN12 8HT"}}, "geometry":{"type":"MultiPolygon","coordinates":[[[[0.42873,51.13879],[0.42883,51.13874],[0.42868,51.1386],[0.42857,51.13864],[0.42873,51.13879]]]]}},
{ "type":"Feature","properties":{"osm_way_id":"456411153","name":"Tesco Metro","building":"yes","shop":"supermarket","other":{"addr:city":"Cranbrook","addr:county":"Kent","addr:postcode":"TN18 4HG","addr:street":"Rye Road","addr:village":"Hawkhurst","alt_name":"Tesco Hawkhurst Metro","brand":"Tesco Metro","brand:wikidata":"Q57551648","fhrs:id":"510915","opening_hours":"Mo-Sa 08:00-22:00 Su 10:00-16:00","operator":"Tesco","source:addr":"FHRS Open Data"}}, "geometry":{"type":"MultiPolygon","coordinates":[[[[0.51456,51.04788],[0.51499,51.04785],[0.51492,51.04747],[0.51449,51.0475],[0.51456,51.04788]]]]}},
{ "type":"Feature","properties":{"osm_way_id":"741171300","name":"Aldi","building":"yes","shop":"supermarket","other":{"addr:city":"Tunbridge Wells","addr:postcode":"TN2 3EW","addr:street":"Great Lodge","brand":"ALDI","brand:wikidata":"Q41171672","brand:wikipedia":"en:Aldi","opening_hours":"Mo-Fr 08:00-22:00; Su 10:00-16:00","wheelchair":"yes"}}, "geometry":{"type":"MultiPolygon","coordinates":[[[[0.2932,51.15881],[0.29376,51.15902],[0.2932,51.15961],[0.29264,51.15939],[0.2932,51.15881]]]]}},
{ "type":"Feature","properties":{"osm_way_id":"971128883","name":"Lidl","building":"yes","shop":"supermarket","other":{"addr:country":"GB","addr:postcode":"TN2 5QL","addr:street":"Linden Park Road","brand":"Lidl","brand:wikidata":"Q151954","brand:wikipedia":"en:Lidl","fhrs:id":"1348669"}}, "geometry":{"type":"MultiPolygon","coordinates":[[[[0.25161,51.1231],[0.25155,51.1234],[0.25252,51.12347],[0.25258,51.12317],[0.25185,51.12312],[0.25161,51.1231]]]]}}
]
}
