{
"type": "FeatureCollection",
"features": [
{ "type":"Feature","properties":{"osm_id":"666076350","name":"The Co-operative Food","other":{"addr:city":"Melton Mowbray","addr:country":"GB","addr:housenumber":"1a","addr:postcode":"LE14 3YD","addr:street":"Bradgate Lane","addr:village":"Asfordby","fhrs:authority":"Melton","fhrs:id":"2387","fhrs:local_authority_id":"00890\/0001\/A\/000","shop":"supermarket"}}, "geometry":{"type":"Point","coordinates":[-0.95162,52.76428 ]}},
{ "type":"Feature","properties":{"osm_id":"6543306952","name":"Aldi","other":{"addr:city":"Melton Mowbray","addr:country":"GB","addr:postcode":"LE13 0DA","addr:street":"Leicester Road","brand":"ALDI","brand:wikidata":"Q41171672","brand:wikipedia":"en:Aldi","fhrs:id":"1012448","shop":"supermarket"}}, "geometry":{"type":"Point","coordinates":[-0.89488,52.76176 ]}},
{ "type":"Feature","properties":{"osm_way_id":"73464092","name":"Quality Discounts","building":"yes","shop":"supermarket","other":{"addr:city":"Melton Mowbray","addr:country":"GB","addr:housenumber":"54","addr:postcode":"LE13 1JY","addr:street":"Scalford Road","fhrs:authority":"Melton","fhrs:id":"960990","fhrs:local_authority_id":"17\/00015\/COMM","phone":"+44 1664 561071","source:addr":"FHRS Open Data"}}, "geometry":{"type":"MultiPolygon","coordinates":[[[[-0.88678,52.7688],[-0.88655,52.7688],[-0.88655,52.76886],[-0.88509,52.76887],[-0.88508,52.76865],[-0.88521,52.76866],[-0.88575,52.76865],[-0.88653,52.76864],[-0.88653,52.76859],[-0.88678,52.76858],[-0.88678,52.7688]]]]}},
{ "type":"Feature","properties":{"osm_way_id":"74340064","name":"Morrisons","building":"retail","shop":"supermarket","other":{"addr:city":"Melton Mowbray","addr:country":"GB","addr:postcode":"LE13 1RB","addr:street":"Sage Cross Street","alt_name":"Morrisons Melton Mowbray","brand":"Morrisons","brand:wikidata":"Q922344","brand:wikipedia":"en:Morrisons","fhrs:authority":"Melton","fhrs:id":"32149","fhrs:local_authority_id":"09310\/0001\/2\/000","opening_hours":"Mo-Sa 07:00-22:00; Su 10:00-16:00","source:addr":"FHRS Open Data","wheelchair":"yes"}}, "geometry":{"type":"MultiPolygon","coordinates":[[[[-0.88268,52.76475],[-0.88252,52.76475],[-0.88252,52.76474],[-0.88235,52.76475],[-0.88235,52.76476],[-0.8818,52.76478],[-0.88185,52.76525],[-0.88273,52.76521],[-0.88272,52.7651],[-0.88268,52.76475]]]]}},
{ "type":"Feature","properties":{"osm_way_id":"91340593","name":"Tesco","building":"yes","shop":"supermarket","other":{"addr:city":"Melton Mowbray","addr:country":"GB","addr:postcode":"LE13 1SQ","addr:street":"Thorpe Road","alt_name":"Tesco Melton Mowbray Superstore","brand":"Tesco","brand:wikidata":"Q487494","brand:wikipedia":"en:Tesco","fhrs:authority":"Melton","fhrs:id":"32197","fhrs:local_authority_id":"09330\/2006\/2\/000","opening_hours":"Mo 06:00 - Sa 24:00 Su 10:00-16:00"}}, "geometry":{"type":"MultiPolygon","coordinates":[[[[-0.86905,52.76935],[-0.86913,52.76922],[-0.86927,52.76918],[-0.86925,52.76916],[-0.8693,52.76915],[-0.86984,52.7693],[-0.86983,52.76932],[-0.86997,52.76935],[-0.86997,52.76935],[-0.86998,52.76934],[-0.87042,52.76946],[-0.87041,52.76948],[-0.87055,52.76952],[-0.87061,52.76943],[-0.87048,52.76939],[-0.87046,52.76941],[-0.87002,52.76929],[-0.87003,52.76927],[-0.86989,52.76923],[-0.86988,52.76925],[-0.86929,52.76909],[-0.86921,52.7691],[-0.86943,52.76881],[-0.86944,52.7688],[-0.86922,52.76875],[-0.86926,52.76868],[-0.86883,52.76858],[-0.86894,52.76842],[-0.86865,52.76833],[-0.86827,52.76893],[-0.86819,52.76891],[-0.86813,52.76899],[-0.86883,52.76916],[-0.86876,52.76927],[-0.86905,52.76935]]]]}},
{ "type":"Feature","properties":{"osm_way_id":"316591515","name":"The Co-operative Food","building":"yes","shop":"supermarket","other":{"addr:city":"Bottesford","addr:country":"GB","addr:housenumber":"13","addr:postcode":"NG13 0AH","addr:street":"Queen Street","atm":"yes","fhrs:authority":"Melton","fhrs:id":"9721","fhrs:local_authority_id":"04\/00052\/COMM","opening_hours":"Mo-Su 07:00-22:00","operator":"The Co-operative Goup"}}, "geometry":{"type":"MultiPolygon","coordinates":[[[[-0.80334,52.94193],[-0.8031,52.94188],[-0.80315,52.94179],[-0.80321,52.9418],[-0.80322,52.94177],[-0.80334,52.9418],[-0.80336,52.94177],[-0.80342,52.94179],[-0.80334,52.94193]]]]}},
{ "type":"Feature","properties":{"osm_way_id":"426564626","name":"Sainsbury's","building":"retail","shop":"supermarket","other":{"addr:city":"Melton Mowbray","addr:country":"GB","addr:postcode":"LE13 0GP","addr:street":"Nottingham Road","alt_name":"Sainsbury's Melton Mowbray Superstore","brand":"Sainsbury's","brand:wikidata":"Q152096","brand:wikipedia":"en:Sainsbury's","fhrs:authority":"Melton","fhrs:id":"605714","fhrs:local_authority_id":"13\/00073\/COMM","opening_hours":"Mo-Sa 08:00-22:00; Su 10:00-16:00","source:addr":"FHRS Open Data","source:geometry":"OS OpenData StreetView","start_date":"Autumn 2013"}}, "geometry":{"type":"MultiPolygon","coordinates":[[[[-0.89358,52.76882],[-0.89333,52.76837],[-0.89348,52.76833],[-0.8934,52.7682],[-0.8924,52.76841],[-0.89247,52.76854],[-0.89218,52.7686],[-0.89224,52.7687],[-0.89201,52.76875],[-0.8924,52.76903],[-0.89241,52.76907],[-0.89358,52.76882]]]]}},
{ "type":"Feature","properties":{"osm_way_id":"617858914","name":"Lidl","building":"retail","shop":"supermarket","other":{"addr:city":"Melton Mowbray","addr:country":"GB","addr:housenumber":"50-52","addr:postcode":"LE13 1JY","addr:street":"Scalford Road","alt_name":"LIDL Melton Mowbray","brand":"Lidl","brand:wikidata":"Q151954","brand:wikipedia":"en:Lidl","fhrs:authority":"Melton","fhrs:id":"775411","fhrs:local_authority_id":"15\/00063\/COMM","opening_hours":"Mo-Sa 08:00-21:00; Su 10:00-16:00","source:postcode":"FHRS data"}}, "geometry":{"type":"MultiPolygon","coordinates":[[[[-0.88763,52.76801],[-0.88764,52.76783],[-0.88739,52.76783],[-0.88739,52.76786],[-0.88708,52.76785],[-0.88706,52.76833],[-0.88723,52.76833],[-0.88723,52.7683],[-0.88751,52.76831],[-0.88752,52.76817],[-0.88758,52.76817],[-0.88759,52.76801],[-0.88763,52.76801]]]]}}
]
}
