{
"type": "FeatureCollection",
"features": [
{ "type":"Feature","properties":{"osm_way_id":"51817784","building":"warehouse","other":{"addr:city":"Aberdeen","addr:country":"GB","addr:postcode":"AB21 7GA","addr:street":"Wellheads Crescent","roof:shape":"gabled"}}, "geometry":{"type":"MultiPolygon","coordinates":[[[[-2.19083,57.19837],[-2.19071,57.19822],[-2.1907,57.19822],[-2.19069,57.19821],[-2.19021,57.19832],[-2.19033,57.19847],[-2.19049,57.19844],[-2.1905,57.19845],[-2.19083,57.19837]]]]}},
{ "type":"Feature","properties":{"osm_way_id":"51817799","building":"warehouse","other":{"addr:city":"Aberdeen","addr:country":"GB","addr:postcode":"AB21 7GA","addr:street":"Wellheads Crescent","roof:shape":"gabled"}}, "geometry":{"type":"MultiPolygon","coordinates":[[[[-2.18952,57.19829],[-2.1894,57.19813],[-2.18875,57.19828],[-2.18887,57.19844],[-2.18952,57.19829]]]]}},
{ "type":"Feature","properties":{"osm_way_id":"51817806","building":"warehouse","other":{"addr:city":"Aberdeen","addr:country":"GB","addr:postcode":"AB21 7GA","addr:street":"Wellheads Crescent","roof:shape":"gabled"}}, "geometry":{"type":"MultiPolygon","coordinates":[[[[-2.19051,57.19957],[-2.19044,57.19947],[-2.18997,57.19958],[-2.19004,57.19967],[-2.19051,57.19957]]]]}},
{ "type":"Feature","properties":{"osm_way_id":"51817812","building":"warehouse","other":{"addr:city":"Aberdeen","addr:country":"GB","addr:postcode":"AB21 7GA","addr:street":"Wellheads Crescent","roof:shape":"gabled"}}, "geometry":{"type":"MultiPolygon","coordinates":[[[[-2.19161,57.1994],[-2.19149,57.19925],[-2.19101,57.19936],[-2.19113,57.19951],[-2.19161,57.1994]]]]}},
{ "type":"Feature","properties":{"osm_way_id":"51856021","name":"Aberdeen Self Storage","building":"warehouse","other":{"building:levels":"2","source:name":"survey"}}, "geometry":{"type":"MultiPolygon","coordinates":[[[[-2.21197,57.20493],[-2.21199,57.20456],[-2.21157,57.20455],[-2.21154,57.20492],[-2.21197,57.20493]]]]}},
{ "type":"Feature","properties":{"osm_way_id":"219434387","building":"warehouse"},"geometry":{"type":"MultiPolygon","coordinates":[[[[-2.19268,57.20235],[-2.1933,57.20231],[-2.19325,57.20203],[-2.19263,57.20207],[-2.19268,57.20235]]]]}},
{ "type":"Feature","properties":{"osm_way_id":"313319125","building":"warehouse"},"geometry":{"type":"MultiPolygon","coordinates":[[[[-2.08902,57.14651],[-2.08804,57.14659],[-2.088,57.14643],[-2.08899,57.14636],[-2.08902,57.14651]]]]}},
{ "type":"Feature","properties":{"osm_way_id":"373220076","building":"warehouse"},"geometry":{"type":"MultiPolygon","coordinates":[[[[-2.08812,57.14468],[-2.08835,57.1443],[-2.08799,57.14424],[-2.08775,57.14461],[-2.08812,57.14468]]]]}},
{ "type":"Feature","properties":{"osm_way_id":"373220083","building":"warehouse"},"geometry":{"type":"MultiPolygon","coordinates":[[[[-2.08516,57.14413],[-2.08429,57.14398],[-2.08439,57.1438],[-2.08527,57.14395],[-2.08516,57.14413]]]]}},
{ "type":"Feature","properties":{"osm_way_id":"373220084","building":"warehouse"},"geometry":{"type":"MultiPolygon","coordinates":[[[[-2.08412,57.14393],[-2.08292,57.14371],[-2.08303,57.14353],[-2.08424,57.14376],[-2.08412,57.14393]]]]}},
{ "type":"Feature","properties":{"osm_way_id":"373220085","building":"warehouse"},"geometry":{"type":"MultiPolygon","coordinates":[[[[-2.08434,57.14365],[-2.08314,57.14342],[-2.0833,57.14315],[-2.08454,57.1433],[-2.08434,57.14365]]]]}},
{ "type":"Feature","properties":{"osm_way_id":"373220087","building":"warehouse"},"geometry":{"type":"MultiPolygon","coordinates":[[[[-2.08177,57.14327],[-2.08071,57.14307],[-2.08089,57.14283],[-2.08198,57.14297],[-2.08177,57.14327]]]]}},
{ "type":"Feature","properties":{"osm_way_id":"373396290","building":"warehouse"},"geometry":{"type":"MultiPolygon","coordinates":[[[[-2.07757,57.14539],[-2.07786,57.14502],[-2.07876,57.14523],[-2.07847,57.1456],[-2.07757,57.14539]]]]}},
{ "type":"Feature","properties":{"osm_way_id":"373396291","building":"warehouse"},"geometry":{"type":"MultiPolygon","coordinates":[[[[-2.07598,57.14502],[-2.07624,57.14465],[-2.07646,57.14454],[-2.07709,57.1447],[-2.0767,57.14518],[-2.07598,57.14502]]]]}},
{ "type":"Feature","properties":{"osm_way_id":"373396302","building":"warehouse"},"geometry":{"type":"MultiPolygon","coordinates":[[[[-2.08694,57.1412],[-2.08694,57.14092],[-2.086,57.14092],[-2.086,57.1412],[-2.08694,57.1412]]]]}},
{ "type":"Feature","properties":{"osm_way_id":"561892732","building":"warehouse","other":{"addr:city":"Aberdeen","addr:housenumber":"1a","addr:postcode":"AB21 7DT","addr:street":"Farburn Terrace","building:levels":"2"}}, "geometry":{"type":"MultiPolygon","coordinates":[[[[-2.19086,57.20159],[-2.19082,57.20124],[-2.19117,57.20123],[-2.19119,57.20139],[-2.19121,57.20158],[-2.19086,57.20159]]]]}},
{ "type":"Feature","properties":{"osm_way_id":"614783875","building":"warehouse"},"geometry":{"type":"MultiPolygon","coordinates":[[[[-2.19653,57.20528],[-2.19661,57.20494],[-2.19599,57.2049],[-2.19591,57.20523],[-2.19653,57.20528]]]]}},
{ "type":"Feature","properties":{"osm_way_id":"627858496","name":"Shore Porters Society","building":"warehouse"},"geometry":{"type":"MultiPolygon","coordinates":[[[[-2.08539,57.15056],[-2.08494,57.15044],[-2.0853,57.15005],[-2.08574,57.15017],[-2.08539,57.15056]]]]}},
{ "type":"Feature","properties":{"osm_way_id":"627859992","building":"warehouse"},"geometry":{"type":"MultiPolygon","coordinates":[[[[-2.08724,57.14636],[-2.08736,57.14619],[-2.08621,57.14595],[-2.08609,57.14612],[-2.08724,57.14636]]]]}},
{ "type":"Feature","properties":{"osm_way_id":"627913734","building":"warehouse"},"geometry":{"type":"MultiPolygon","coordinates":[[[[-2.08373,57.14908],[-2.08407,57.1489],[-2.08368,57.14869],[-2.08373,57.14867],[-2.08383,57.14872],[-2.08392,57.14868],[-2.08401,57.14863],[-2.08372,57.14847],[-2.08355,57.14857],[-2.08363,57.14862],[-2.08357,57.14865],[-2.08326,57.1488],[-2.08373,57.14908]]]]}},
{ "type":"Feature","properties":{"osm_way_id":"647238152","building":"warehouse"},"geometry":{"type":"MultiPolygon","coordinates":[[[[-2.08748,57.11623],[-2.08729,57.11619],[-2.08738,57.11606],[-2.08744,57.11596],[-2.08763,57.11599],[-2.08748,57.11623]]]]}},
{ "type":"Feature","properties":{"osm_way_id":"660429495","name":"Petrasco","building":"warehouse","other":{"addr:city":"Aberdeen","addr:housename":"Freight House","addr:postcode":"AB21 0GU","addr:street":"Kirkhill Place","building:levels":"2"}}, "geometry":{"type":"MultiPolygon","coordinates":[[[[-2.2153,57.20184],[-2.21531,57.20173],[-2.21534,57.20165],[-2.21516,57.20164],[-2.21524,57.20126],[-2.2149,57.20124],[-2.21483,57.20161],[-2.215,57.20162],[-2.21496,57.20182],[-2.2153,57.20184]]]]}},
{ "type":"Feature","properties":{"osm_way_id":"707219487","building":"warehouse"},"geometry":{"type":"MultiPolygon","coordinates":[[[[-2.19892,57.19441],[-2.19784,57.19473],[-2.19767,57.19454],[-2.19875,57.19423],[-2.19892,57.19441]]]]}},
{ "type":"Feature","properties":{"osm_way_id":"707232784","building":"warehouse"},"geometry":{"type":"MultiPolygon","coordinates":[[[[-2.07831,57.1121],[-2.07803,57.11259],[-2.07767,57.11252],[-2.07794,57.11204],[-2.07831,57.1121]]]]}},
{ "type":"Feature","properties":{"osm_way_id":"707232795","building":"warehouse"},"geometry":{"type":"MultiPolygon","coordinates":[[[[-2.07752,57.11442],[-2.07693,57.11432],[-2.07731,57.11369],[-2.07789,57.1138],[-2.07752,57.11442]]]]}},
{ "type":"Feature","properties":{"osm_way_id":"707246154","building":"warehouse"},"geometry":{"type":"MultiPolygon","coordinates":[[[[-2.09462,57.18637],[-2.09356,57.18612],[-2.09394,57.18565],[-2.09444,57.18577],[-2.09453,57.18565],[-2.09509,57.18579],[-2.09462,57.18637]]]]}},
{ "type":"Feature","properties":{"osm_way_id":"707246173","building":"warehouse","other":{"addr:postcode":"AB23 8HE"}}, "geometry":{"type":"MultiPolygon","coordinates":[[[[-2.10048,57.19006],[-2.09937,57.1903],[-2.09907,57.18988],[-2.09947,57.1898],[-2.09959,57.18996],[-2.10014,57.18984],[-2.10016,57.18987],[-2.10032,57.18984],[-2.10048,57.19006]]]]}},
{ "type":"Feature","properties":{"osm_way_id":"802610896","building":"warehouse"},"geometry":{"type":"MultiPolygon","coordinates":[[[[-2.1097,57.1532],[-2.10988,57.15342],[-2.1102,57.15339],[-2.11004,57.15321],[-2.11016,57.15317],[-2.11008,57.15308],[-2.1098,57.15315],[-2.10982,57.15317],[-2.1097,57.1532]]]]}},
{ "type":"Feature","properties":{"osm_way_id":"802610898","building":"warehouse"},"geometry":{"type":"MultiPolygon","coordinates":[[[[-2.10839,57.15177],[-2.10864,57.15205],[-2.10876,57.15202],[-2.10886,57.15211],[-2.10897,57.15207],[-2.10901,57.15212],[-2.10922,57.15205],[-2.10907,57.15192],[-2.10904,57.15193],[-2.10895,57.15185],[-2.10887,57.15187],[-2.10863,57.15171],[-2.10839,57.15177]]]]}},
{ "type":"Feature","properties":{"osm_way_id":"802610899","building":"warehouse"},"geometry":{"type":"MultiPolygon","coordinates":[[[[-2.1088,57.15225],[-2.10908,57.15254],[-2.10912,57.15253],[-2.10921,57.15263],[-2.10958,57.15254],[-2.1094,57.15233],[-2.10958,57.15228],[-2.10943,57.15216],[-2.10903,57.15227],[-2.10894,57.15218],[-2.1088,57.15222],[-2.1088,57.15225]]]]}},
{ "type":"Feature","properties":{"osm_way_id":"802610900","building":"warehouse"},"geometry":{"type":"MultiPolygon","coordinates":[[[[-2.10929,57.15276],[-2.1094,57.15289],[-2.10953,57.15285],[-2.10957,57.1529],[-2.10963,57.15288],[-2.11009,57.15275],[-2.11005,57.15267],[-2.10978,57.15273],[-2.10967,57.15261],[-2.10933,57.1527],[-2.10936,57.15274],[-2.10929,57.15276]]]]}},
{ "type":"Feature","properties":{"osm_way_id":"817182272","building":"warehouse"},"geometry":{"type":"MultiPolygon","coordinates":[[[[-2.09218,57.15951],[-2.09203,57.15898],[-2.09219,57.15897],[-2.0922,57.159],[-2.09222,57.15908],[-2.09223,57.15911],[-2.09227,57.15927],[-2.09243,57.15926],[-2.0925,57.15951],[-2.09246,57.15952],[-2.09242,57.15952],[-2.09241,57.15949],[-2.09238,57.15949],[-2.09218,57.15951]]]]}},
{ "type":"Feature","properties":{"osm_way_id":"817197579","building":"warehouse"},"geometry":{"type":"MultiPolygon","coordinates":[[[[-2.09324,57.15893],[-2.09331,57.15918],[-2.09309,57.1592],[-2.09307,57.1592],[-2.09304,57.15911],[-2.093,57.15895],[-2.09324,57.15893]]]]}},
{ "type":"Feature","properties":{"osm_way_id":"817197581","building":"warehouse"},"geometry":{"type":"MultiPolygon","coordinates":[[[[-2.09307,57.1592],[-2.09287,57.15922],[-2.09284,57.15912],[-2.09304,57.15911],[-2.09307,57.1592]]]]}},
{ "type":"Feature","properties":{"osm_way_id":"872384173","name":"Worldwide Oilfield Machine Ltd.","building":"warehouse","other":{"addr:city":"Aberdeen","addr:housenumber":"9","addr:postcode":"AB24 3YJ","addr:street":"St Machar Drive"}}, "geometry":{"type":"MultiPolygon","coordinates":[[[[-2.11443,57.16732],[-2.11405,57.16681],[-2.11369,57.16627],[-2.11336,57.16633],[-2.11372,57.16688],[-2.11377,57.16687],[-2.11414,57.16738],[-2.11443,57.16732]]]]}},
{ "type":"Feature","properties":{"osm_way_id":"872384174","name":"b.s.p Timber","building":"warehouse","other":{"addr:city":"Aberdeen","addr:housenumber":"5","addr:postcode":"AB24 3YJ","addr:street":"St Machar Road"}}, "geometry":{"type":"MultiPolygon","coordinates":[[[[-2.11391,57.16717],[-2.1137,57.16687],[-2.11323,57.16697],[-2.11344,57.16727],[-2.11391,57.16717]]]]}},
{ "type":"Feature","properties":{"osm_way_id":"872384177","name":"Sunbelt Rentals","building":"warehouse","other":{"addr:city":"Aberdeen","addr:housenumber":"16","addr:postcode":"AB24 2UU","addr:street":"St Machar Road"}}, "geometry":{"type":"MultiPolygon","coordinates":[[[[-2.11283,57.16761],[-2.1127,57.16744],[-2.11215,57.16757],[-2.11228,57.16774],[-2.11283,57.16761]]]]}},
{ "type":"Feature","properties":{"osm_way_id":"872384178","name":"Kenway Tyres","building":"warehouse","other":{"addr:city":"Aberdeen","addr:housenumber":"11","addr:postcode":"AB24 2UU","addr:street":"St Machar Road"}}, "geometry":{"type":"MultiPolygon","coordinates":[[[[-2.11451,57.16856],[-2.11442,57.1684],[-2.11463,57.16836],[-2.11451,57.16816],[-2.11431,57.16819],[-2.1142,57.16801],[-2.11418,57.16796],[-2.11379,57.16802],[-2.11373,57.16803],[-2.1138,57.16816],[-2.11407,57.16863],[-2.11446,57.16857],[-2.11451,57.16856]]]]}},
{ "type":"Feature","properties":{"osm_way_id":"891005599","name":"Jewson","building":"warehouse","shop":"doityourself","other":{"addr:city":"Aberdeen","addr:postcode":"AB25 3LB","addr:street":"Back Hilton Road","brand":"Jewson","brand:wikidata":"Q6190226","brand:wikipedia":"en:Jewson","opening_hours":"Mo-Fr 07:30-17:00; Sa 08:00-12:00","operator":"Jewson","phone":"+441224495555","website":"https:\/\/www.jewson.co.uk\/branch-finder\/aberdeen-back-hilton-road-branch"}}, "geometry":{"type":"MultiPolygon","coordinates":[[[[-2.12017,57.16062],[-2.12019,57.16042],[-2.1194,57.16038],[-2.11939,57.16042],[-2.11921,57.16041],[-2.1192,57.16057],[-2.11931,57.16057],[-2.11932,57.16058],[-2.11936,57.1606],[-2.12017,57.16062]]]]}},
{ "type":"Feature","properties":{"osm_way_id":"892125570","name":"Magnet Trade","building":"warehouse","other":{"addr:city":"Aberdeen","addr:housenumber":"12","addr:postcode":"AB24 2UU","addr:street":"St Machar Road"}}, "geometry":{"type":"MultiPolygon","coordinates":[[[[-2.11222,57.16702],[-2.11234,57.16717],[-2.11224,57.1672],[-2.11177,57.16731],[-2.11165,57.16715],[-2.11222,57.16702]]]]}},
{ "type":"Feature","properties":{"osm_way_id":"892125579","building":"warehouse","other":{"addr:city":"Aberdeen","addr:housenumber":"10","addr:postcode":"AB24 2UU","addr:street":"St Machar Road"}}, "geometry":{"type":"MultiPolygon","coordinates":[[[[-2.11217,57.16702],[-2.11146,57.16718],[-2.11136,57.16705],[-2.11153,57.16701],[-2.11147,57.16693],[-2.11167,57.16689],[-2.11173,57.16698],[-2.11171,57.16698],[-2.11174,57.16703],[-2.11211,57.16694],[-2.11217,57.16702]]]]}},
{ "type":"Feature","properties":{"osm_way_id":"892125586","name":"Fair Deal Foods","building":"warehouse","other":{"addr:city":"Aberdeen","addr:housenumber":"14","addr:postcode":"AB24 2UU","addr:street":"St Machar Road","fhrs:authority":"Aberdeen City","fhrs:id":"1348437","fhrs:local_authority_id":"764"}}, "geometry":{"type":"MultiPolygon","coordinates":[[[[-2.11265,57.16737],[-2.11207,57.1675],[-2.11205,57.16748],[-2.1119,57.16752],[-2.11194,57.16756],[-2.11178,57.16759],[-2.11158,57.16735],[-2.11177,57.16731],[-2.11224,57.1672],[-2.11227,57.16724],[-2.1125,57.16718],[-2.11265,57.16737]]]]}},
{ "type":"Feature","properties":{"osm_way_id":"892125623","name":"Aberdeen Wood Centre","building":"warehouse","other":{"addr:city":"Aberdeen","addr:housenumber":"15","addr:postcode":"AB24 3YJ","addr:street":"St Machar Road"}}, "geometry":{"type":"MultiPolygon","coordinates":[[[[-2.11332,57.16652],[-2.11316,57.16626],[-2.11305,57.16627],[-2.11258,57.16635],[-2.11273,57.16662],[-2.11282,57.1666],[-2.11332,57.16652]]]]}},
{ "type":"Feature","properties":{"osm_way_id":"925898093","building":"warehouse"},"geometry":{"type":"MultiPolygon","coordinates":[[[[-2.10708,57.156],[-2.10658,57.15617],[-2.10631,57.15607],[-2.10714,57.1558],[-2.10725,57.1559],[-2.10704,57.15597],[-2.10708,57.156]]]]}},
{ "type":"Feature","properties":{"osm_way_id":"949082839","building":"warehouse"},"geometry":{"type":"MultiPolygon","coordinates":[[[[-2.24222,57.12341],[-2.24143,57.1231],[-2.24173,57.12289],[-2.24251,57.12321],[-2.24222,57.12341]]]]}},
{ "type":"Feature","properties":{"osm_way_id":"987080429","building":"warehouse"},"geometry":{"type":"MultiPolygon","coordinates":[[[[-2.11066,57.15301],[-2.11056,57.15288],[-2.11036,57.15292],[-2.11047,57.15307],[-2.11066,57.15301]]]]}},
{ "type":"Feature","properties":{"osm_way_id":"987080430","building":"warehouse"},"geometry":{"type":"MultiPolygon","coordinates":[[[[-2.11057,57.15321],[-2.11047,57.15308],[-2.11027,57.15312],[-2.11037,57.15325],[-2.11057,57.15321]]]]}},
{ "type":"Feature","properties":{"osm_way_id":"987080431","building":"warehouse"},"geometry":{"type":"MultiPolygon","coordinates":[[[[-2.10979,57.15306],[-2.10971,57.15297],[-2.10969,57.15297],[-2.10962,57.15289],[-2.10944,57.15294],[-2.10959,57.15312],[-2.10979,57.15306]]]]}},
{ "type":"Feature","properties":{"osm_way_id":"1031931936","building":"warehouse","other":{"addr:city":"Aberdeen","addr:country":"GB","addr:postcode":"AB21 7GA","addr:street":"Wellheads Crescent","roof:shape":"gabled"}}, "geometry":{"type":"MultiPolygon","coordinates":[[[[-2.18928,57.19798],[-2.18916,57.19782],[-2.1885,57.19797],[-2.18863,57.19813],[-2.18928,57.19798]]]]}},
{ "type":"Feature","properties":{"osm_way_id":"1031931937","building":"warehouse","other":{"addr:city":"Aberdeen","addr:country":"GB","addr:postcode":"AB21 7GA","addr:street":"Wellheads Crescent","roof:shape":"gabled"}}, "geometry":{"type":"MultiPolygon","coordinates":[[[[-2.1894,57.19813],[-2.18928,57.19798],[-2.18863,57.19813],[-2.18875,57.19828],[-2.1894,57.19813]]]]}},
{ "type":"Feature","properties":{"osm_way_id":"1031931938","building":"warehouse","other":{"addr:city":"Aberdeen","addr:country":"GB","addr:postcode":"AB21 7GA","addr:street":"Wellheads Crescent","roof:shape":"gabled"}}, "geometry":{"type":"MultiPolygon","coordinates":[[[[-2.19033,57.19775],[-2.19035,57.19775],[-2.19026,57.19763],[-2.19024,57.19764],[-2.19021,57.1976],[-2.18974,57.19771],[-2.18986,57.19786],[-2.19033,57.19775]]]]}},
{ "type":"Feature","properties":{"osm_way_id":"1031931939","building":"warehouse","other":{"addr:city":"Aberdeen","addr:country":"GB","addr:postcode":"AB21 7GA","addr:street":"Wellheads Crescent","roof:shape":"gabled"}}, "geometry":{"type":"MultiPolygon","coordinates":[[[[-2.19045,57.19791],[-2.19033,57.19775],[-2.18986,57.19786],[-2.18998,57.19802],[-2.19045,57.19791]]]]}},
{ "type":"Feature","properties":{"osm_way_id":"1031931940","building":"warehouse","other":{"addr:city":"Aberdeen","addr:country":"GB","addr:postcode":"AB21 7GA","addr:street":"Wellheads Crescent","roof:shape":"gabled"}}, "geometry":{"type":"MultiPolygon","coordinates":[[[[-2.19057,57.19806],[-2.19045,57.19791],[-2.18998,57.19802],[-2.1901,57.19817],[-2.19057,57.19806]]]]}},
{ "type":"Feature","properties":{"osm_way_id":"1031931941","building":"warehouse","other":{"addr:city":"Aberdeen","addr:country":"GB","addr:postcode":"AB21 7GA","addr:street":"Wellheads Crescent","roof:shape":"gabled"}}, "geometry":{"type":"MultiPolygon","coordinates":[[[[-2.19069,57.19821],[-2.19057,57.19806],[-2.1901,57.19817],[-2.19021,57.19832],[-2.19069,57.19821]]]]}},
{ "type":"Feature","properties":{"osm_way_id":"1031931943","building":"warehouse","other":{"addr:city":"Aberdeen","addr:country":"GB","addr:postcode":"AB21 7GA","addr:street":"Wellheads Crescent","roof:shape":"gabled"}}, "geometry":{"type":"MultiPolygon","coordinates":[[[[-2.18999,57.1989],[-2.18992,57.1988],[-2.18945,57.19891],[-2.18953,57.19901],[-2.18999,57.1989]]]]}},
{ "type":"Feature","properties":{"osm_way_id":"1031931944","building":"warehouse","other":{"addr:city":"Aberdeen","addr:country":"GB","addr:postcode":"AB21 7GA","addr:street":"Wellheads Crescent","roof:shape":"gabled"}}, "geometry":{"type":"MultiPolygon","coordinates":[[[[-2.19007,57.199],[-2.18999,57.1989],[-2.18953,57.19901],[-2.1896,57.1991],[-2.19007,57.199]]]]}},
{ "type":"Feature","properties":{"osm_way_id":"1031931945","building":"warehouse","other":{"addr:city":"Aberdeen","addr:country":"GB","addr:postcode":"AB21 7GA","addr:street":"Wellheads Crescent","roof:shape":"gabled"}}, "geometry":{"type":"MultiPolygon","coordinates":[[[[-2.19014,57.19909],[-2.19007,57.199],[-2.1896,57.1991],[-2.18967,57.1992],[-2.19014,57.19909]]]]}},
{ "type":"Feature","properties":{"osm_way_id":"1031931946","building":"warehouse","other":{"addr:city":"Aberdeen","addr:country":"GB","addr:postcode":"AB21 7GA","addr:street":"Wellheads Crescent","roof:shape":"gabled"}}, "geometry":{"type":"MultiPolygon","coordinates":[[[[-2.19021,57.19918],[-2.19014,57.19909],[-2.18967,57.1992],[-2.18975,57.19929],[-2.19021,57.19918]]]]}},
{ "type":"Feature","properties":{"osm_way_id":"1031931947","building":"warehouse","other":{"addr:city":"Aberdeen","addr:country":"GB","addr:postcode":"AB21 7GA","addr:street":"Wellheads Crescent","roof:shape":"gabled"}}, "geometry":{"type":"MultiPolygon","coordinates":[[[[-2.19029,57.19928],[-2.19021,57.19918],[-2.18975,57.19929],[-2.18982,57.19939],[-2.19029,57.19928]]]]}},
{ "type":"Feature","properties":{"osm_way_id":"1031931948","building":"warehouse","other":{"addr:city":"Aberdeen","addr:country":"GB","addr:postcode":"AB21 7GA","addr:street":"Wellheads Crescent","roof:shape":"gabled"}}, "geometry":{"type":"MultiPolygon","coordinates":[[[[-2.19036,57.19938],[-2.19029,57.19928],[-2.18982,57.19939],[-2.1899,57.19949],[-2.19036,57.19938]]]]}},
{ "type":"Feature","properties":{"osm_way_id":"1031931949","building":"warehouse","other":{"addr:city":"Aberdeen","addr:country":"GB","addr:postcode":"AB21 7GA","addr:street":"Wellheads Crescent","roof:shape":"gabled"}}, "geometry":{"type":"MultiPolygon","coordinates":[[[[-2.19044,57.19947],[-2.19036,57.19938],[-2.1899,57.19949],[-2.18997,57.19958],[-2.19044,57.19947]]]]}},
{ "type":"Feature","properties":{"osm_way_id":"1033323514","building":"warehouse","other":{"addr:city":"Aberdeen","addr:country":"GB","addr:postcode":"AB21 7GA","addr:street":"Wellheads Crescent","roof:shape":"gabled"}}, "geometry":{"type":"MultiPolygon","coordinates":[[[[-2.19114,57.1988],[-2.19102,57.19864],[-2.19054,57.19875],[-2.19066,57.1989],[-2.19114,57.1988]]]]}},
{ "type":"Feature","properties":{"osm_way_id":"1033323515","building":"warehouse","other":{"addr:city":"Aberdeen","addr:country":"GB","addr:postcode":"AB21 7GA","addr:street":"Wellheads Crescent","roof:shape":"gabled"}}, "geometry":{"type":"MultiPolygon","coordinates":[[[[-2.19125,57.19895],[-2.19114,57.1988],[-2.19066,57.1989],[-2.19078,57.19906],[-2.19125,57.19895]]]]}},
{ "type":"Feature","properties":{"osm_way_id":"1033323516","building":"warehouse","other":{"addr:city":"Aberdeen","addr:country":"GB","addr:postcode":"AB21 7GA","addr:street":"Wellheads Crescent","roof:shape":"gabled"}}, "geometry":{"type":"MultiPolygon","coordinates":[[[[-2.19137,57.1991],[-2.19125,57.19895],[-2.19078,57.19906],[-2.1909,57.19921],[-2.19137,57.1991]]]]}},
{ "type":"Feature","properties":{"osm_way_id":"1033323517","building":"warehouse","other":{"addr:city":"Aberdeen","addr:country":"GB","addr:postcode":"AB21 7GA","addr:street":"Wellheads Crescent","roof:shape":"gabled"}}, "geometry":{"type":"MultiPolygon","coordinates":[[[[-2.19149,57.19925],[-2.19137,57.1991],[-2.1909,57.19921],[-2.19101,57.19936],[-2.19149,57.19925]]]]}}
]
}
