{
"type": "FeatureCollection",
"features": [
{ "type":"Feature","properties":{"osm_id":"1881159193","name":"Spar","other":{"addr:city":"Chorley","addr:housenumber":"12","addr:postcode":"PR7 6AU","addr:street":"Runshaw Lane","addr:suburb":"Euxton","brand":"Spar","brand:wikidata":"Q610492","brand:wikipedia":"en:Spar (retailer)","fhrs:id":"377102","opening_hours":"Mo-Sa 07:00-22:30; Su 08:00-22:30","shop":"supermarket","wheelchair":"yes"}}, "geometry":{"type":"Point","coordinates":[-2.67858,53.67025 ]}},
{ "type":"Feature","properties":{"osm_id":"3398536637","name":"Co-op","other":{"addr:city":"Chorley","addr:housenumber":"195","addr:postcode":"PR7 5BY","addr:street":"Spendmore Lane","addr:suburb":"Coppull","fhrs:id":"377080","operator":"The Co-operative Group","shop":"supermarket"}}, "geometry":{"type":"Point","coordinates":[-2.6629,53.62141 ]}},
{ "type":"Feature","properties":{"osm_id":"5474825621","name":"Co-op Food","other":{"addr:city":"Chorley","addr:housenumber":"144","addr:postcode":"PR6 7LR","addr:street":"Chorley Old Road","addr:village":"Whittle-le-Woods","brand":"Co-op Food","brand:wikidata":"Q3277439","brand:wikipedia":"en:Co-op Food","opening_hours":"Mo-Su 07:00-23:00","shop":"supermarket","wheelchair":"yes"}}, "geometry":{"type":"Point","coordinates":[-2.63456,53.69183 ]}},
{ "type":"Feature","properties":{"osm_id":"6193082991","name":"Sainsbury's Local","other":{"addr:city":"Chorley","addr:postcode":"PR7 5SZ","addr:street":"Carrington Centre","addr:village":"Eccleston","brand:wikidata":"Q13218434","shop":"supermarket","wheelchair":"yes"}}, "geometry":{"type":"Point","coordinates":[-2.72351,53.64612 ]}},
{ "type":"Feature","properties":{"osm_id":"7658160564","name":"Booths","other":{"addr:city":"Chorley","addr:postcode":"PR7 1DB","addr:street":"New Market Street","brand:wikidata":"Q4943949","contact:website":"https:\/\/www.booths.co.uk\/store\/chorley\/","fhrs:authority":"Chorley","fhrs:id":"377096","shop":"supermarket"}}, "geometry":{"type":"Point","coordinates":[-2.63071,53.65429 ]}},
{ "type":"Feature","properties":{"osm_way_id":"45023264","name":"Tesco Extra","building":"yes","shop":"supermarket","other":{"addr:city":"Chorley","addr:housename":"Tesco Extra","addr:postcode":"PR7 1NW","addr:street":"Foxhole Road","air_conditioning":"yes","brand":"Tesco Extra","brand:wikidata":"Q25172225","brand:wikipedia":"en:Tesco Extra","fhrs:id":"377093","internet_access":"wlan","layer":"1","opening_hours":"Mo-Sa 06:00-24:00; Su 10:00-16:00","operator":"Tesco Stores Ltd","website":"https:\/\/www.tesco.com\/store-locator\/chorley\/ackhurst-industrial-park","wheelchair":"yes"}}, "geometry":{"type":"MultiPolygon","coordinates":[[[[-2.6594,53.65588],[-2.65944,53.65609],[-2.6593,53.6561],[-2.65934,53.65633],[-2.65904,53.65636],[-2.65905,53.65645],[-2.65899,53.65651],[-2.65861,53.65653],[-2.65854,53.65654],[-2.65844,53.6565],[-2.65843,53.65645],[-2.65795,53.65649],[-2.65782,53.65588],[-2.65816,53.65576],[-2.65828,53.65573],[-2.65851,53.65572],[-2.65851,53.65567],[-2.65875,53.65565],[-2.65875,53.65563],[-2.65891,53.65563],[-2.65905,53.65565],[-2.65909,53.65558],[-2.65871,53.65548],[-2.65873,53.65543],[-2.65875,53.65539],[-2.65914,53.65548],[-2.65932,53.65556],[-2.65934,53.65563],[-2.6594,53.65562],[-2.65947,53.65587],[-2.6594,53.65588]]]]}},
{ "type":"Feature","properties":{"osm_way_id":"177690653","name":"Tesco","building":"retail","shop":"supermarket","other":{"addr:city":"Chorley","addr:housename":"Tesco Superstore","addr:postcode":"PR7 7EL","addr:street":"Buckshaw Village","brand":"Tesco","brand:wikidata":"Q487494","brand:wikipedia":"en:Tesco","changing_table":"yes","changing_table:location":"room","operator":"Tesco Stores Ltd","toilets":"yes","toilets:access":"permissive","toilets:wheelchair":"yes"}}, "geometry":{"type":"MultiPolygon","coordinates":[[[[-2.65954,53.67479],[-2.65859,53.67468],[-2.6585,53.67496],[-2.65842,53.67522],[-2.65886,53.67527],[-2.65919,53.6753],[-2.65937,53.67532],[-2.65942,53.67517],[-2.65953,53.67483],[-2.65954,53.67479]]]]}},
{ "type":"Feature","properties":{"osm_way_id":"177690799","name":"Morrisons","building":"supermarket","shop":"supermarket","other":{"addr:city":"Chorley","addr:postcode":"PR7 3BE","addr:street":"Brooke Street","brand":"Morrisons","brand:wikidata":"Q922344","brand:wikipedia":"en:Morrisons","building:colour":"firebrick","building:levels":"2","building:material":"brick","height":"10","opening_hours":"Mo-Sa 07:00-22:00; Su 10:00-16:00","roof:colour":"darkgrey","roof:material":"roof_tiles","wheelchair":"yes"}}, "geometry":{"type":"MultiPolygon","coordinates":[[[[-2.6265,53.64876],[-2.6263,53.64847],[-2.62642,53.64835],[-2.62627,53.64829],[-2.62616,53.64825],[-2.62613,53.64821],[-2.62567,53.6483],[-2.62563,53.64822],[-2.62547,53.64825],[-2.62545,53.64822],[-2.62518,53.64827],[-2.62519,53.64829],[-2.62508,53.64831],[-2.62497,53.64852],[-2.62505,53.64866],[-2.62523,53.64863],[-2.62546,53.64898],[-2.62543,53.64899],[-2.62548,53.64907],[-2.62562,53.64904],[-2.6256,53.649],[-2.62611,53.64889],[-2.62613,53.64893],[-2.62629,53.64889],[-2.62626,53.64885],[-2.6264,53.64882],[-2.62637,53.64878],[-2.6265,53.64876]]]]}},
{ "type":"Feature","properties":{"osm_way_id":"177691000","name":"Aldi","building":"yes","shop":"supermarket","other":{"addr:city":"Chorley","addr:postcode":"PR6 0HU","addr:street":"Harpers Lane","brand":"ALDI","brand:wikidata":"Q41171672","brand:wikipedia":"en:Aldi"}}, "geometry":{"type":"MultiPolygon","coordinates":[[[[-2.62787,53.66136],[-2.6276,53.66133],[-2.62759,53.66134],[-2.62747,53.66175],[-2.62744,53.66187],[-2.62761,53.66189],[-2.62759,53.66194],[-2.62781,53.66196],[-2.6279,53.66166],[-2.62795,53.66148],[-2.62784,53.66147],[-2.62787,53.66136]]]]}},
{ "type":"Feature","properties":{"osm_way_id":"177691222","name":"Asda","building":"retail","shop":"supermarket","other":{"addr:city":"Chorley","addr:country":"GB","addr:postcode":"PR7 1EX","addr:street":"Water Street","brand":"Asda","brand:wikidata":"Q297410","brand:wikipedia":"en:Asda","contact:website":"https:\/\/storelocator.asda.com\/north-west\/ringway\/water-street","fhrs:id":"377098","operator":"Asda Stores Ltd"}}, "geometry":{"type":"MultiPolygon","coordinates":[[[[-2.62816,53.65835],[-2.62769,53.65831],[-2.62767,53.65839],[-2.62757,53.65838],[-2.62755,53.65847],[-2.62811,53.65852],[-2.62816,53.65835]]]]}},
{ "type":"Feature","properties":{"osm_way_id":"215403839","name":"Tesco Express","building":"retail","shop":"supermarket","other":{"addr:city":"Leyland","addr:housenumber":"28","addr:postcode":"PR25 5TU","addr:street":"Pendle Road","addr:village":"Clayton-le-Woods","brand":"Tesco Express","brand:wikidata":"Q98456772"}}, "geometry":{"type":"MultiPolygon","coordinates":[[[[-2.67233,53.69577],[-2.67232,53.69568],[-2.67232,53.69563],[-2.67277,53.69562],[-2.67278,53.69575],[-2.67233,53.69577]]]]}},
{ "type":"Feature","properties":{"osm_way_id":"215406779","name":"Asda","building":"yes","shop":"supermarket","other":{"addr:country":"GB","addr:housename":"Clayton Green Centre","addr:postcode":"PR6 7JY","addr:street":"Sheep Hill Drive","brand":"Asda","brand:wikidata":"Q297410","brand:wikipedia":"en:Asda","contact:website":"https:\/\/storelocator.asda.com\/north-west\/chorley\/clayton-green-centre-sheephill-lane","fhrs:id":"377085","operator":"Asda Stores Ltd"}}, "geometry":{"type":"MultiPolygon","coordinates":[[[[-2.64608,53.7076],[-2.64531,53.70764],[-2.64481,53.70766],[-2.64472,53.70702],[-2.64489,53.70701],[-2.64483,53.70659],[-2.64514,53.70657],[-2.64515,53.7067],[-2.64506,53.7067],[-2.64507,53.70682],[-2.64583,53.70678],[-2.64586,53.70696],[-2.64615,53.70694],[-2.64605,53.70728],[-2.64608,53.7076]]]]}},
{ "type":"Feature","properties":{"osm_way_id":"554493843","name":"Asda","building":"supermarket","shop":"supermarket","other":{"addr:city":"Chorley","addr:country":"GB","addr:postcode":"PR7 3DL","addr:street":"Bolton Street","brand":"Asda","brand:wikidata":"Q297410","brand:wikipedia":"en:Asda","building:colour":"beige","contact:website":"https:\/\/storelocator.asda.com\/north-west\/chorley\/bolton-street","fhrs:id":"720306","height":"12","opening_hours":"Mo 07:00-24:00; Tu-Fr 00:00-24:00; Sa 00:00-22:00; Su 11:00-17:00","operator":"Asda Stores Ltd","roof:colour":"grey","roof:shape":"flat","wheelchair":"yes"}}, "geometry":{"type":"MultiPolygon","coordinates":[[[[-2.6307,53.64764],[-2.63081,53.64775],[-2.63086,53.64773],[-2.63094,53.64782],[-2.63096,53.64784],[-2.63092,53.64785],[-2.63126,53.6482],[-2.63119,53.64831],[-2.63104,53.64837],[-2.63075,53.64847],[-2.63072,53.64845],[-2.6306,53.64849],[-2.63062,53.64851],[-2.63044,53.64857],[-2.63042,53.64856],[-2.6302,53.64864],[-2.63001,53.64844],[-2.6299,53.64834],[-2.62969,53.64842],[-2.62947,53.6482],[-2.6295,53.64819],[-2.62946,53.64814],[-2.62964,53.64807],[-2.6296,53.64803],[-2.63014,53.64784],[-2.63008,53.64778],[-2.63056,53.64761],[-2.63063,53.64768],[-2.6307,53.64764]]]]}},
{ "type":"Feature","properties":{"osm_way_id":"577465257","name":"Aldi","building":"retail","shop":"supermarket","other":{"addr:city":"Chorley","addr:postcode":"PR7 7LJ","addr:street":"Lancaster Way","addr:village":"Buckshaw Village","brand":"ALDI","brand:wikidata":"Q41171672","brand:wikipedia":"en:Aldi"}}, "geometry":{"type":"MultiPolygon","coordinates":[[[[-2.65601,53.67564],[-2.65592,53.67593],[-2.6551,53.67584],[-2.65511,53.67581],[-2.65515,53.67566],[-2.65497,53.67564],[-2.65501,53.67554],[-2.65601,53.67564]]]]}},
{ "type":"Feature","properties":{"osm_way_id":"587140135","name":"Co-op","building":"retail","shop":"supermarket","other":{"addr:city":"Chorley","addr:postcode":"PR7 2LU","addr:street":"Moor Road","fhrs:id":"377062","operator":"The Co-operative Group"}}, "geometry":{"type":"MultiPolygon","coordinates":[[[[-2.64198,53.64132],[-2.64182,53.64107],[-2.64166,53.64111],[-2.64181,53.64136],[-2.64198,53.64132]]]]}},
{ "type":"Feature","properties":{"osm_way_id":"705481518","name":"Lidl","building":"retail","shop":"supermarket","other":{"addr:city":"Chorley","addr:country":"GB","addr:postcode":"PR6 7EB","addr:street":"Preston Road","addr:village":"Clayton Brook","brand":"Lidl","brand:wikidata":"Q151954","brand:wikipedia":"en:Lidl","building:levels":"1","fhrs:id":"1155676","opening_hours":"Mo-Sa 08:00-22:00; Su 10:00-16:00","operator":"Lidl","start_date":"2019-11-26","website":"https:\/\/www.lidl.co.uk\/","wheelchair":"yes"}}, "geometry":{"type":"MultiPolygon","coordinates":[[[[-2.6392,53.70678],[-2.63803,53.70678],[-2.63803,53.70669],[-2.63809,53.70669],[-2.63809,53.70652],[-2.63811,53.70652],[-2.63811,53.7065],[-2.6389,53.7065],[-2.6389,53.70647],[-2.6392,53.70647],[-2.6392,53.70648],[-2.6392,53.70678]]]]}}
]
}
