{
"type": "FeatureCollection",
"features": [
{ "type":"Feature","properties":{"osm_id":"253017989","name":"Anglezarke Car Park","other":{"amenity":"parking","parking":"surface"}}, "geometry":{"type":"Point","coordinates":[-2.57618,53.64017 ]}},
{ "type":"Feature","properties":{"osm_id":"269612744","other":{"amenity":"parking"}}, "geometry":{"type":"Point","coordinates":[-2.69134,53.63089 ]}},
{ "type":"Feature","properties":{"osm_id":"300935562","name":"White Coppice Cricket Club","other":{"access":"private","amenity":"parking","capacity":"25","fee":"no","operator":"White Coppice Cricket Club","parking":"surface","smoothness":"good","surface":"asphalt"}}, "geometry":{"type":"Point","coordinates":[-2.57787,53.66671 ]}},
{ "type":"Feature","properties":{"osm_id":"305070403","other":{"amenity":"parking"}}, "geometry":{"type":"Point","coordinates":[-2.55724,53.62615 ]}},
{ "type":"Feature","properties":{"osm_id":"305216677","other":{"amenity":"parking"}}, "geometry":{"type":"Point","coordinates":[-2.56777,53.62392 ]}},
{ "type":"Feature","properties":{"osm_id":"307081908","highway":"turning_circle"},"geometry":{"type":"Point","coordinates":[-2.62118,53.65833 ]}},
{ "type":"Feature","properties":{"osm_id":"307479177","other":{"amenity":"parking"}}, "geometry":{"type":"Point","coordinates":[-2.55647,53.62592 ]}},
{ "type":"Feature","properties":{"osm_id":"365133341","other":{"amenity":"parking"}}, "geometry":{"type":"Point","coordinates":[-2.66262,53.67275 ]}},
{ "type":"Feature","properties":{"osm_id":"365133344","other":{"amenity":"parking"}}, "geometry":{"type":"Point","coordinates":[-2.65805,53.67175 ]}},
{ "type":"Feature","properties":{"osm_id":"365133348","other":{"amenity":"parking"}}, "geometry":{"type":"Point","coordinates":[-2.65667,53.67198 ]}},
{ "type":"Feature","properties":{"osm_id":"477852333","other":{"amenity":"parking","fee":"no","parking":"surface"}}, "geometry":{"type":"Point","coordinates":[-2.57639,53.64289 ]}},
{ "type":"Feature","properties":{"osm_id":"570870956","other":{"amenity":"parking"}}, "geometry":{"type":"Point","coordinates":[-2.65877,53.65695 ]}},
{ "type":"Feature","properties":{"osm_id":"583218891","other":{"access":"private","amenity":"parking","parking":"surface"}}, "geometry":{"type":"Point","coordinates":[-2.63729,53.69338 ]}},
{ "type":"Feature","properties":{"osm_id":"583591139","other":{"amenity":"parking","parking":"surface"}}, "geometry":{"type":"Point","coordinates":[-2.65385,53.6999 ]}},
{ "type":"Feature","properties":{"osm_id":"591634281","other":{"amenity":"parking"}}, "geometry":{"type":"Point","coordinates":[-2.6391,53.70132 ]}},
{ "type":"Feature","properties":{"osm_id":"592078128","other":{"amenity":"parking"}}, "geometry":{"type":"Point","coordinates":[-2.64256,53.68308 ]}},
{ "type":"Feature","properties":{"osm_id":"592114983","other":{"amenity":"parking"}}, "geometry":{"type":"Point","coordinates":[-2.63077,53.67154 ]}},
{ "type":"Feature","properties":{"osm_id":"593297039","other":{"access":"permissive","amenity":"parking","capacity":"40","fee":"no","lit":"yes","parking":"surface","surface":"asphalt"}}, "geometry":{"type":"Point","coordinates":[-2.67196,53.6604 ]}},
{ "type":"Feature","properties":{"osm_id":"593556024","other":{"amenity":"parking","capacity":"30","capacity:disabled":"2","fee":"no","lit":"no","operator":"Chorley Borough Council","parking":"surface","smoothness":"intermediate","surface":"gravel"}}, "geometry":{"type":"Point","coordinates":[-2.66173,53.65961 ]}},
{ "type":"Feature","properties":{"osm_id":"593817595","other":{"access":"customers","amenity":"parking","fee":"no","parking":"surface","smoothness":"good","surface":"asphalt"}}, "geometry":{"type":"Point","coordinates":[-2.67586,53.67023 ]}},
{ "type":"Feature","properties":{"osm_id":"593818540","other":{"amenity":"parking"}}, "geometry":{"type":"Point","coordinates":[-2.67656,53.6702 ]}},
{ "type":"Feature","properties":{"osm_id":"593853422","other":{"amenity":"parking"}}, "geometry":{"type":"Point","coordinates":[-2.6772,53.66138 ]}},
{ "type":"Feature","properties":{"osm_id":"593853479","other":{"amenity":"parking"}}, "geometry":{"type":"Point","coordinates":[-2.67638,53.66122 ]}},
{ "type":"Feature","properties":{"osm_id":"593853548","other":{"amenity":"parking"}}, "geometry":{"type":"Point","coordinates":[-2.67679,53.66052 ]}},
{ "type":"Feature","properties":{"osm_id":"638542737","other":{"access":"yes","amenity":"parking","description":"Layby","fee":"no"}}, "geometry":{"type":"Point","coordinates":[-0.67346,51.22601 ]}},
{ "type":"Feature","properties":{"osm_id":"639606855","other":{"amenity":"parking"}}, "geometry":{"type":"Point","coordinates":[-2.62592,53.63175 ]}},
{ "type":"Feature","properties":{"osm_id":"663650999","other":{"amenity":"parking","parking":"surface"}}, "geometry":{"type":"Point","coordinates":[-2.57536,53.64214 ]}},
{ "type":"Feature","properties":{"osm_id":"666800817","other":{"amenity":"parking"}}, "geometry":{"type":"Point","coordinates":[-2.62402,53.63465 ]}},
{ "type":"Feature","properties":{"osm_id":"685722008","name":"Lower Car Park","other":{"amenity":"parking"}}, "geometry":{"type":"Point","coordinates":[-2.55326,53.61082 ]}},
{ "type":"Feature","properties":{"osm_id":"876505829","other":{"amenity":"parking"}}, "geometry":{"type":"Point","coordinates":[-2.6728,53.69278 ]}},
{ "type":"Feature","properties":{"osm_id":"876505830","other":{"amenity":"parking"}}, "geometry":{"type":"Point","coordinates":[-2.67379,53.69292 ]}},
{ "type":"Feature","properties":{"osm_id":"876505834","other":{"amenity":"parking"}}, "geometry":{"type":"Point","coordinates":[-2.66834,53.69245 ]}},
{ "type":"Feature","properties":{"osm_id":"876505835","other":{"amenity":"parking"}}, "geometry":{"type":"Point","coordinates":[-2.67015,53.6925 ]}},
{ "type":"Feature","properties":{"osm_id":"876505836","other":{"amenity":"parking"}}, "geometry":{"type":"Point","coordinates":[-2.67111,53.69263 ]}},
{ "type":"Feature","properties":{"osm_id":"930102694","other":{"access":"private","amenity":"parking"}}, "geometry":{"type":"Point","coordinates":[-2.62921,53.64818 ]}},
{ "type":"Feature","properties":{"osm_id":"1210626060","name":"Cuerden Valley Town Brow","other":{"access":"yes","amenity":"parking","fee":"yes","parking":"surface"}}, "geometry":{"type":"Point","coordinates":[-2.65503,53.70069 ]}},
{ "type":"Feature","properties":{"osm_id":"1348362252","other":{"amenity":"parking"}}, "geometry":{"type":"Point","coordinates":[-2.63797,53.70731 ]}},
{ "type":"Feature","properties":{"osm_id":"1597747875","other":{"access":"customers","amenity":"parking","fee":"no","operator":"Horizon Parking","operator:type":"private","operator:wikidata":"Q111050068"}}, "geometry":{"type":"Point","coordinates":[-2.65797,53.67457 ]}},
{ "type":"Feature","properties":{"osm_id":"1796496544","name":"Allt na Criche","other":{"amenity":"parking","operator":"Forestry Commission"}}, "geometry":{"type":"Point","coordinates":[-4.66295,57.15937 ]}},
{ "type":"Feature","properties":{"osm_id":"2021258591","other":{"access":"customers","amenity":"parking","fee":"yes","operator":"Northern Rail","park_ride":"train","parking":"surface"}}, "geometry":{"type":"Point","coordinates":[-2.66085,53.67345 ]}},
{ "type":"Feature","properties":{"osm_id":"2091623914","name":"Chorley Station Car Park","other":{"amenity":"parking","capacity":"91","parking":"surface"}}, "geometry":{"type":"Point","coordinates":[-2.62629,53.65116 ]}},
{ "type":"Feature","properties":{"osm_id":"3057260692","other":{"railway":"switch"}}, "geometry":{"type":"Point","coordinates":[-2.67816,53.67968 ]}},
{ "type":"Feature","properties":{"osm_id":"3057260693","other":{"railway":"switch"}}, "geometry":{"type":"Point","coordinates":[-2.6782,53.67976 ]}},
{ "type":"Feature","properties":{"osm_id":"3838877943","name":"Dob Pasture 1","other":{"access":"yes","amenity":"parking","capacity":"12","fee":"no","operator":"Chorley Borough Council","parking":"surface","smoothness":"intermediate","surface":"gravel"}}, "geometry":{"type":"Point","coordinates":[-2.65218,53.6382 ]}},
{ "type":"Feature","properties":{"osm_id":"5475355739","other":{"access":"yes","amenity":"parking","fee":"no"}}, "geometry":{"type":"Point","coordinates":[-2.60166,53.61505 ]}},
{ "type":"Feature","properties":{"osm_id":"5475355742","other":{"access":"customers","amenity":"parking","fee":"no"}}, "geometry":{"type":"Point","coordinates":[-2.60129,53.61423 ]}},
{ "type":"Feature","properties":{"osm_id":"5506048467","other":{"access":"customers","amenity":"parking"}}, "geometry":{"type":"Point","coordinates":[-2.65709,53.65524 ]}},
{ "type":"Feature","properties":{"osm_id":"5508720008","other":{"amenity":"parking"}}, "geometry":{"type":"Point","coordinates":[-2.62138,53.66172 ]}},
{ "type":"Feature","properties":{"osm_id":"5508720009","other":{"amenity":"parking"}}, "geometry":{"type":"Point","coordinates":[-2.6226,53.66181 ]}},
{ "type":"Feature","properties":{"osm_id":"5520535469","other":{"amenity":"parking","capacity":"10","fee":"no","operator":"Chorley Borough Council","parking":"surface","surface":"asphalt"}}, "geometry":{"type":"Point","coordinates":[-2.61956,53.65934 ]}},
{ "type":"Feature","properties":{"osm_id":"5522161636","other":{"amenity":"parking","wheelchair":"yes"}}, "geometry":{"type":"Point","coordinates":[-2.61916,53.67564 ]}},
{ "type":"Feature","properties":{"osm_id":"5522161637","other":{"amenity":"parking"}}, "geometry":{"type":"Point","coordinates":[-2.61936,53.67788 ]}},
{ "type":"Feature","properties":{"osm_id":"5522161638","other":{"amenity":"parking"}}, "geometry":{"type":"Point","coordinates":[-2.61963,53.6784 ]}},
{ "type":"Feature","properties":{"osm_id":"5530754089","other":{"amenity":"parking"}}, "geometry":{"type":"Point","coordinates":[-2.63129,53.65519 ]}},
{ "type":"Feature","properties":{"osm_id":"5535711835","other":{"access":"private","amenity":"parking"}}, "geometry":{"type":"Point","coordinates":[-2.65064,53.67454 ]}},
{ "type":"Feature","properties":{"osm_id":"5535723788","other":{"access":"private","amenity":"parking"}}, "geometry":{"type":"Point","coordinates":[-2.64504,53.67378 ]}},
{ "type":"Feature","properties":{"osm_id":"5535864899","other":{"amenity":"parking"}}, "geometry":{"type":"Point","coordinates":[-2.65438,53.67577 ]}},
{ "type":"Feature","properties":{"osm_id":"5535864904","other":{"amenity":"parking","operator":"The Harvester"}}, "geometry":{"type":"Point","coordinates":[-2.65526,53.6766 ]}},
{ "type":"Feature","properties":{"osm_id":"5535864905","other":{"amenity":"parking"}}, "geometry":{"type":"Point","coordinates":[-2.65452,53.67622 ]}},
{ "type":"Feature","properties":{"osm_id":"5535864906","other":{"amenity":"parking"}}, "geometry":{"type":"Point","coordinates":[-2.65533,53.6762 ]}},
{ "type":"Feature","properties":{"osm_id":"5635626334","other":{"access":"customers","amenity":"parking"}}, "geometry":{"type":"Point","coordinates":[-2.65264,53.63448 ]}},
{ "type":"Feature","properties":{"osm_id":"5646123874","other":{"access":"permissive","amenity":"parking","capacity":"16","capacity:disabled":"2","fee":"no","smoothness":"good","surface":"asphalt"}}, "geometry":{"type":"Point","coordinates":[-2.65351,53.64553 ]}},
{ "type":"Feature","properties":{"osm_id":"5648023022","other":{"access":"customers","amenity":"parking"}}, "geometry":{"type":"Point","coordinates":[-2.61937,53.66164 ]}},
{ "type":"Feature","properties":{"osm_id":"5650363893","other":{"access":"customers","amenity":"parking","capacity":"40","parking":"surface"}}, "geometry":{"type":"Point","coordinates":[-2.67465,53.65865 ]}},
{ "type":"Feature","properties":{"osm_id":"5653343274","name":"Yarrow Valley Golf","other":{"access":"customers","amenity":"parking","capacity":"35","fee":"yes","lit":"no","operator":"Yarrow Valley Golf Course","parking":"surface","surface":"gravel"}}, "geometry":{"type":"Point","coordinates":[-2.66183,53.63716 ]}},
{ "type":"Feature","properties":{"osm_id":"5661429852","other":{"access":"customers","amenity":"parking","capacity":"35","fee":"no","smoothness":"good","surface":"asphalt"}}, "geometry":{"type":"Point","coordinates":[-2.62932,53.65825 ]}},
{ "type":"Feature","properties":{"osm_id":"5664476817","name":"Tatton Recreation Ground","other":{"access":"permissive","amenity":"parking","capacity":"30","operator":"Chorley Borough Council","parking":"surface","smoothness":"intermediate","surface":"asphalt"}}, "geometry":{"type":"Point","coordinates":[-2.61861,53.65084 ]}},
{ "type":"Feature","properties":{"osm_id":"5677594590","name":"Brinscall Baths","other":{"amenity":"parking","fee":"no","parking":"surface","smoothness":"intermediate","surface":"asphalt"}}, "geometry":{"type":"Point","coordinates":[-2.56529,53.68737 ]}},
{ "type":"Feature","properties":{"osm_id":"5679873273","other":{"access":"permissive","amenity":"parking","capacity":"15","parking":"surface","surface":"asphalt"}}, "geometry":{"type":"Point","coordinates":[-2.6453,53.66149 ]}},
{ "type":"Feature","properties":{"osm_id":"5720868664","other":{"amenity":"bench","colour":"brown","material":"wood","seats":"4"}}, "geometry":{"type":"Point","coordinates":[-2.77704,53.66717 ]}},
{ "type":"Feature","properties":{"osm_id":"5720868671","other":{"board_type":"notice","information":"board","tourism":"information"}}, "geometry":{"type":"Point","coordinates":[-2.77703,53.66715 ]}},
{ "type":"Feature","properties":{"osm_id":"5723500120","other":{"access":"customers","amenity":"parking","capacity":"30","parking":"surface","smoothness":"intermediate","surface":"asphalt"}}, "geometry":{"type":"Point","coordinates":[-2.7763,53.66384 ]}},
{ "type":"Feature","properties":{"osm_id":"5725486615","other":{"amenity":"parking"}}, "geometry":{"type":"Point","coordinates":[-2.63111,53.67207 ]}},
{ "type":"Feature","properties":{"osm_id":"5756149577","other":{"access":"customers","amenity":"parking","capacity":"16","capacity:disabled":"2","parking":"surface","smoothness":"good","surface":"asphalt"}}, "geometry":{"type":"Point","coordinates":[-2.63999,53.64476 ]}},
{ "type":"Feature","properties":{"osm_id":"6027084118","other":{"access":"customers","amenity":"parking","fee":"no","parking":"surface","surface":"asphalt"}}, "geometry":{"type":"Point","coordinates":[-2.65415,53.62752 ]}},
{ "type":"Feature","properties":{"osm_id":"6027208435","other":{"access":"customers","amenity":"parking","fee":"no","parking":"surface","surface":"asphalt"}}, "geometry":{"type":"Point","coordinates":[-2.65196,53.62464 ]}},
{ "type":"Feature","properties":{"osm_id":"6036734135","other":{"access":"customers","amenity":"parking","fee":"no","parking":"surface","surface":"asphalt"}}, "geometry":{"type":"Point","coordinates":[-2.63332,53.66799 ]}},
{ "type":"Feature","properties":{"osm_id":"6052543286","other":{"amenity":"parking_entrance"}}, "geometry":{"type":"Point","coordinates":[-2.67432,53.66266 ]}},
{ "type":"Feature","properties":{"osm_id":"6057967182","other":{"amenity":"parking","capacity":"6","fee":"no","operator":"Euxton Parish Council","parking":"surface","surface":"gravel"}}, "geometry":{"type":"Point","coordinates":[-2.67693,53.66028 ]}},
{ "type":"Feature","properties":{"osm_id":"6061378745","other":{"access":"private","amenity":"parking","parking":"surface","surface":"asphalt"}}, "geometry":{"type":"Point","coordinates":[-2.62433,53.65576 ]}},
{ "type":"Feature","properties":{"osm_id":"6061378750","other":{"access":"private","amenity":"parking","parking":"surface","surface":"asphalt"}}, "geometry":{"type":"Point","coordinates":[-2.62403,53.65582 ]}},
{ "type":"Feature","properties":{"osm_id":"6061378755","other":{"access":"customers","amenity":"parking","capacity":"15","fee":"no","parking":"surface","surface":"gravel"}}, "geometry":{"type":"Point","coordinates":[-2.62367,53.65597 ]}},
{ "type":"Feature","properties":{"osm_id":"6139049842","other":{"access":"customers","amenity":"parking","parking":"surface","surface":"compacted"}}, "geometry":{"type":"Point","coordinates":[-2.65063,53.67022 ]}},
{ "type":"Feature","properties":{"osm_id":"6206165099","other":{"access":"customers","amenity":"parking","fee":"no","parking":"surface","smoothness":"intermediate","surface":"compacted"}}, "geometry":{"type":"Point","coordinates":[-2.67739,53.67608 ]}},
{ "type":"Feature","properties":{"osm_id":"6222633731","other":{"access":"private","amenity":"parking","parking":"surface","surface":"asphalt"}}, "geometry":{"type":"Point","coordinates":[-2.63537,53.653 ]}},
{ "type":"Feature","properties":{"osm_id":"6229621680","other":{"access":"private","amenity":"parking","capacity":"16","parking":"surface","smoothness":"intermediate","surface":"asphalt"}}, "geometry":{"type":"Point","coordinates":[-2.6335,53.64718 ]}},
{ "type":"Feature","properties":{"osm_id":"6238653164","other":{"access":"customers","amenity":"parking","capacity":"20","parking":"surface","smoothness":"good","surface":"asphalt"}}, "geometry":{"type":"Point","coordinates":[-2.62277,53.65112 ]}},
{ "type":"Feature","properties":{"osm_id":"6238653167","other":{"access":"customers","amenity":"parking","capacity":"50","parking":"surface","smoothness":"intermediate","surface":"asphalt"}}, "geometry":{"type":"Point","coordinates":[-2.62385,53.6515 ]}},
{ "type":"Feature","properties":{"osm_id":"6265382678","other":{"amenity":"parking","capacity":"20","capacity:disabled":"2","fee":"no","operator":"Chorley Borough Council","parking":"surface","smoothness":"intermediate","surface":"asphalt"}}, "geometry":{"type":"Point","coordinates":[-2.59789,53.61825 ]}},
{ "type":"Feature","properties":{"osm_id":"6265549113","other":{"access":"customers","amenity":"parking","capacity":"12","capacity:disabled":"1","fee":"no","operator":"Tesco","parking":"surface","smoothness":"good","surface":"asphalt"}}, "geometry":{"type":"Point","coordinates":[-2.59825,53.61713 ]}},
{ "type":"Feature","properties":{"osm_id":"6270053240","other":{"access":"customers","amenity":"parking","capacity":"30","fee":"no","parking":"surface","smoothness":"intermediate","surface":"asphalt"}}, "geometry":{"type":"Point","coordinates":[-2.58964,53.62612 ]}},
{ "type":"Feature","properties":{"osm_id":"6270053241","other":{"access":"customers","amenity":"parking","capacity":"30","fee":"no","parking":"surface","smoothness":"good","surface":"asphalt"}}, "geometry":{"type":"Point","coordinates":[-2.5892,53.62598 ]}},
{ "type":"Feature","properties":{"osm_id":"6270132126","other":{"access":"customers","amenity":"parking","capacity":"40","fee":"no","parking":"surface","smoothness":"intermediate","surface":"asphalt"}}, "geometry":{"type":"Point","coordinates":[-2.58052,53.63392 ]}},
{ "type":"Feature","properties":{"osm_id":"6270132127","other":{"access":"customers","amenity":"parking","capacity":"40","fee":"no","parking":"surface","smoothness":"good","surface":"asphalt"}}, "geometry":{"type":"Point","coordinates":[-2.58077,53.63367 ]}},
{ "type":"Feature","properties":{"osm_id":"6274625601","other":{"access":"customers","amenity":"parking","capacity":"20","fee":"no","parking":"surface","smoothness":"intermediate","surface":"asphalt"}}, "geometry":{"type":"Point","coordinates":[-2.60086,53.61645 ]}},
{ "type":"Feature","properties":{"osm_id":"6282472602","other":{"access":"customers","amenity":"parking","capacity":"6","operator":"Royal Mail","parking":"surface","surface":"concrete"}}, "geometry":{"type":"Point","coordinates":[-2.62528,53.65339 ]}},
{ "type":"Feature","properties":{"osm_id":"6303778918","other":{"amenity":"parking","parking":"surface"}}, "geometry":{"type":"Point","coordinates":[-2.59885,53.66894 ]}},
{ "type":"Feature","properties":{"osm_id":"6303778919","other":{"amenity":"parking","parking":"surface"}}, "geometry":{"type":"Point","coordinates":[-2.60003,53.66837 ]}},
{ "type":"Feature","properties":{"osm_id":"6310479644","other":{"access":"yes","amenity":"parking","capacity":"28","fee":"no","operator":"Fairview Youth & Community Centre","parking":"surface","surface":"asphalt"}}, "geometry":{"type":"Point","coordinates":[-2.60621,53.61788 ]}},
{ "type":"Feature","properties":{"osm_id":"6373658518","other":{"access":"yes","amenity":"parking","capacity":"6","fee":"no","lit":"yes","parking":"surface","smoothness":"good","surface":"asphalt"}}, "geometry":{"type":"Point","coordinates":[-2.62898,53.65926 ]}},
{ "type":"Feature","properties":{"osm_id":"6421427284","other":{"amenity":"parking","capacity":"7","fee":"no","parking":"surface","smoothness":"intermediate","surface":"ground"}}, "geometry":{"type":"Point","coordinates":[-2.58519,53.66689 ]}},
{ "type":"Feature","properties":{"osm_id":"6421427385","name":"White Coppice Cricket Club","other":{"access":"private","amenity":"parking","capacity":"15","fee":"no","operator":"White Coppice Cricket Club","parking":"surface","smoothness":"intermediate","surface":"compacted"}}, "geometry":{"type":"Point","coordinates":[-2.57669,53.66619 ]}},
{ "type":"Feature","properties":{"osm_id":"6468085496","name":"Doorway To Value","other":{"access":"customers","amenity":"parking","fee":"no","parking":"surface","smoothness":"good","surface":"asphalt"}}, "geometry":{"type":"Point","coordinates":[-2.63462,53.675 ]}},
{ "type":"Feature","properties":{"osm_id":"6589582178","name":"Holmes Farm","other":{"access":"customers","amenity":"parking","fee":"no","parking":"surface","surface":"gravel"}}, "geometry":{"type":"Point","coordinates":[-2.63108,53.70556 ]}},
{ "type":"Feature","properties":{"osm_id":"6590955069","other":{"access":"customers","amenity":"parking","fee":"no","parking":"surface","surface":"asphalt"}}, "geometry":{"type":"Point","coordinates":[-2.63829,53.71745 ]}},
{ "type":"Feature","properties":{"osm_id":"6590995215","other":{"access":"customers","amenity":"parking","capacity":"15","capacity:disabled":"3","fee":"no","parking":"surface","smoothness":"good","surface":"asphalt"}}, "geometry":{"type":"Point","coordinates":[-2.64081,53.70724 ]}},
{ "type":"Feature","properties":{"osm_id":"6590995216","other":{"access":"private","amenity":"parking","parking":"surface"}}, "geometry":{"type":"Point","coordinates":[-2.64093,53.70754 ]}},
{ "type":"Feature","properties":{"osm_id":"6590995217","other":{"access":"private","amenity":"parking","parking":"surface"}}, "geometry":{"type":"Point","coordinates":[-2.64181,53.70781 ]}},
{ "type":"Feature","properties":{"osm_id":"6628366675","name":"Lidl","other":{"access":"customers","amenity":"parking","capacity":"100","capacity:disabled":"5","fee":"no","lit":"yes","operator":"Lidl","parking":"surface","smoothness":"good","surface":"asphalt"}}, "geometry":{"type":"Point","coordinates":[-2.63883,53.70635 ]}},
{ "type":"Feature","properties":{"osm_id":"6657407038","other":{"amenity":"parking","capacity":"7","parking":"surface"}}, "geometry":{"type":"Point","coordinates":[-2.63036,53.65899 ]}},
{ "type":"Feature","properties":{"osm_id":"6657407039","other":{"amenity":"parking","capacity":"6","parking":"surface"}}, "geometry":{"type":"Point","coordinates":[-2.62998,53.65893 ]}},
{ "type":"Feature","properties":{"osm_id":"6744442411","other":{"access":"private","amenity":"parking","operator":"Euxton Villa FC","parking":"surface"}}, "geometry":{"type":"Point","coordinates":[-2.695,53.67652 ]}},
{ "type":"Feature","properties":{"osm_id":"6815539599","other":{"access":"customers","amenity":"parking","capacity":"10","fee":"no","operator":"Topps Tiles","parking":"surface","smoothness":"good","surface":"asphalt"}}, "geometry":{"type":"Point","coordinates":[-2.62795,53.65565 ]}},
{ "type":"Feature","properties":{"osm_id":"6815539600","other":{"access":"customers","amenity":"parking","capacity":"30","capacity:disabled":"3","fee":"no","maxstay":"120","operator":"MacDonalds","parking":"surface","smoothness":"good","surface":"asphalt"}}, "geometry":{"type":"Point","coordinates":[-2.6278,53.6553 ]}},
{ "type":"Feature","properties":{"osm_id":"6855779379","other":{"access":"customers","amenity":"parking","parking":"surface"}}, "geometry":{"type":"Point","coordinates":[-2.71901,53.66272 ]}},
{ "type":"Feature","properties":{"osm_id":"6875031472","other":{"access":"customers","amenity":"parking","capacity":"6","fee":"no","lit":"yes","parking":"surface","smoothness":"good","surface":"asphalt"}}, "geometry":{"type":"Point","coordinates":[-2.66901,53.66019 ]}},
{ "type":"Feature","properties":{"osm_id":"6875031473","other":{"access":"customers","amenity":"parking","capacity":"12","capacity:disabled":"2","fee":"no","lit":"yes","parking":"surface","smoothness":"good","surface":"asphalt"}}, "geometry":{"type":"Point","coordinates":[-2.66888,53.66033 ]}},
{ "type":"Feature","properties":{"osm_id":"6930461181","name":"Euxton Parish Church","other":{"access":"customers","amenity":"parking","capacity":"40","fee":"no","parking":"surface","smoothness":"good","surface":"asphalt"}}, "geometry":{"type":"Point","coordinates":[-2.67436,53.66619 ]}},
{ "type":"Feature","properties":{"osm_id":"6930467085","name":"St Mary's Church & Parish Centre","other":{"access":"customers","amenity":"parking","capacity":"35","capacity:disabled":"4","fee":"no","parking":"surface","smoothness":"good","surface":"asphalt"}}, "geometry":{"type":"Point","coordinates":[-2.67567,53.66663 ]}},
{ "type":"Feature","properties":{"osm_id":"6930467098","name":"Papa Luigi's","other":{"access":"customers","amenity":"parking","capacity":"40","fee":"no","parking":"surface","smoothness":"good","surface":"asphalt"}}, "geometry":{"type":"Point","coordinates":[-2.67467,53.66692 ]}},
{ "type":"Feature","properties":{"osm_id":"7371541027","other":{"access":"customers","amenity":"parking","capacity":"11","capacity:disabled":"1","parking":"surface"}}, "geometry":{"type":"Point","coordinates":[-2.66672,53.62078 ]}},
{ "type":"Feature","properties":{"osm_id":"7464147935","other":{"access":"private","amenity":"parking","operator":"Southport & District Angling Association","parking":"surface","surface":"asphalt"}}, "geometry":{"type":"Point","coordinates":[-2.78248,53.66624 ]}},
{ "type":"Feature","properties":{"osm_id":"7640728106","other":{"access":"permissive","amenity":"parking","parking":"surface","smoothness":"bad","surface":"unpaved"}}, "geometry":{"type":"Point","coordinates":[-2.59089,53.70356 ]}},
{ "type":"Feature","properties":{"osm_id":"7708162269","other":{"access":"permissive","amenity":"parking","parking":"surface","smoothness":"bad","surface":"ground"}}, "geometry":{"type":"Point","coordinates":[-2.64801,53.635 ]}},
{ "type":"Feature","properties":{"osm_id":"7714347938","other":{"amenity":"parking","capacity":"5","parking":"surface","surface":"unpaved"}}, "geometry":{"type":"Point","coordinates":[-2.62397,53.6832 ]}},
{ "type":"Feature","properties":{"osm_id":"7725971848","other":{"railway":"signal","railway:signal:direction":"forward","railway:signal:main":"GB-NR:main","railway:signal:main:design":"combined","railway:signal:main:form":"light","railway:signal:main:states":"red;green;yellow;flashing_yellow;double_yellow;flashing_double_yellow","railway:signal:operator":"Network Rail","railway:signal:position":"bridge"}}, "geometry":{"type":"Point","coordinates":[-2.68123,53.68645 ]}},
{ "type":"Feature","properties":{"osm_id":"7777625819","other":{"access":"private","amenity":"parking","capacity":"14","operator":"ABS Brymar Floors","parking":"surface","smoothness":"good","surface":"asphalt"}}, "geometry":{"type":"Point","coordinates":[-2.62267,53.66594 ]}},
{ "type":"Feature","properties":{"osm_id":"7791455799","other":{"access":"customers","amenity":"parking","capacity":"32","capacity:disabled":"2","operator":"Ravat & Ray","parking":"surface","smoothness":"good","surface":"asphalt"}}, "geometry":{"type":"Point","coordinates":[-2.63271,53.66496 ]}},
{ "type":"Feature","properties":{"osm_id":"7791455800","name":"A","other":{"access":"private","amenity":"parking","operator":"Lancashire Teaching Hospitals","parking":"surface","smoothness":"intermediate","surface":"asphalt"}}, "geometry":{"type":"Point","coordinates":[-2.63329,53.66635 ]}},
{ "type":"Feature","properties":{"osm_id":"7883405723","other":{"access":"customers","amenity":"parking","parking":"surface","smoothness":"intermediate","surface":"compacted"}}, "geometry":{"type":"Point","coordinates":[-2.61193,53.62304 ]}},
{ "type":"Feature","properties":{"osm_id":"8115366643","other":{"access":"customers","amenity":"parking","capacity":"29","capacity:disabled":"2","fee":"no","lit":"yes","operator":"KFC","parking":"surface","smoothness":"excellent","surface":"asphalt"}}, "geometry":{"type":"Point","coordinates":[-2.65784,53.67659 ]}},
{ "type":"Feature","properties":{"osm_id":"8159257398","other":{"access":"customers","amenity":"parking","capacity":"30","capacity:disabled":"1","parking":"surface","smoothness":"good","surface":"asphalt"}}, "geometry":{"type":"Point","coordinates":[-2.73943,53.6634 ]}},
{ "type":"Feature","properties":{"osm_id":"8311340913","name":"Hare & Hounds","other":{"access":"customers","amenity":"parking","capacity":"20","parking":"surface","surface":"compacted"}}, "geometry":{"type":"Point","coordinates":[-2.54207,53.69678 ]}},
{ "type":"Feature","properties":{"osm_id":"8568954661","other":{"amenity":"parking","capacity":"10","parking":"surface","surface":"gravel"}}, "geometry":{"type":"Point","coordinates":[-2.71078,53.62951 ]}},
{ "type":"Feature","properties":{"osm_id":"8736456782","name":"Withnell Health Centre","other":{"access":"customers","amenity":"parking","capacity":"9","parking":"street_side","smoothness":"good","surface":"asphalt"}}, "geometry":{"type":"Point","coordinates":[-2.55642,53.69268 ]}},
{ "type":"Feature","properties":{"osm_id":"8786406565","other":{"access":"customers","amenity":"parking","capacity":"10","parking":"surface","surface":"compacted"}}, "geometry":{"type":"Point","coordinates":[-2.59636,53.69434 ]}},
{ "type":"Feature","properties":{"osm_id":"8850906228","other":{"access":"customers","amenity":"parking","capacity":"40","capacity:disabled":"3","operator":"Plaza Hotel","operator:type":"private","parking":"surface","surface":"asphalt"}}, "geometry":{"type":"Point","coordinates":[-2.61678,53.63987 ]}},
{ "type":"Feature","properties":{"osm_id":"8850906229","other":{"access":"customers","amenity":"parking","capacity":"40","capacity:disabled":"3","operator":"Yarrow Bridge","operator:type":"private","parking":"surface","surface":"asphalt"}}, "geometry":{"type":"Point","coordinates":[-2.61749,53.63979 ]}},
{ "type":"Feature","properties":{"osm_id":"9182983078","name":"Black Horse","other":{"access":"customers","amenity":"parking","capacity":"10","parking":"surface","smoothness":"good","surface":"asphalt"}}, "geometry":{"type":"Point","coordinates":[-2.77918,53.66178 ]}},
{ "type":"Feature","properties":{"osm_id":"9288765266","name":"Ulnes Walton Village Hall Car Park","other":{"amenity":"parking","capacity":"10","parking":"surface","smoothness":"good","surface":"asphalt"}}, "geometry":{"type":"Point","coordinates":[-2.74382,53.67035 ]}},
{ "type":"Feature","properties":{"osm_id":"9400485561","other":{"amenity":"parking","capacity":"8","parking":"surface","smoothness":"intermediate","surface":"gravel"}}, "geometry":{"type":"Point","coordinates":[-2.63737,53.69564 ]}},
{ "type":"Feature","properties":{"osm_way_id":"5077718","name":"Flat Iron","amenity":"parking","other":{"access":"yes","capacity":"181","capacity:disabled":"12","fee":"yes","maxstay":"2 hr","operator":"Chorley Borough Council","parking":"surface","surface":"paved"}}, "geometry":{"type":"MultiPolygon","coordinates":[[[[-2.63035,53.65445],[-2.62971,53.65452],[-2.62964,53.65445],[-2.62944,53.65448],[-2.62929,53.65459],[-2.62867,53.65467],[-2.62859,53.65452],[-2.6295,53.65438],[-2.62937,53.65396],[-2.62951,53.65395],[-2.62968,53.65396],[-2.63036,53.65398],[-2.63035,53.65445]]]]}},
{ "type":"Feature","properties":{"osm_way_id":"23788700","name":"Waitrose Short Stay & Parent","amenity":"parking"},"geometry":{"type":"MultiPolygon","coordinates":[[[[-0.61016,51.70711],[-0.61025,51.70713],[-0.61026,51.70725],[-0.61014,51.70751],[-0.61005,51.70753],[-0.60993,51.7075],[-0.60989,51.70743],[-0.61009,51.70714],[-0.61016,51.70711]]]]}},
{ "type":"Feature","properties":{"osm_way_id":"27953440","amenity":"parking"},"geometry":{"type":"MultiPolygon","coordinates":[[[[-2.62401,53.6487],[-2.62314,53.64782],[-2.6232,53.64778],[-2.62422,53.64715],[-2.6248,53.64746],[-2.62571,53.6477],[-2.62567,53.64792],[-2.62574,53.64808],[-2.6262,53.64805],[-2.62624,53.64811],[-2.62617,53.64817],[-2.62613,53.64821],[-2.62576,53.64827],[-2.62566,53.64819],[-2.62553,53.64822],[-2.6255,53.6482],[-2.62516,53.64826],[-2.62511,53.64821],[-2.62476,53.64827],[-2.62424,53.64801],[-2.62419,53.64805],[-2.62412,53.64809],[-2.62405,53.64814],[-2.62398,53.64818],[-2.62393,53.64822],[-2.62428,53.64862],[-2.62401,53.6487]]]]}},
{ "type":"Feature","properties":{"osm_way_id":"32952226","name":"Cars","amenity":"parking","other":{"motor_vehicle":"designated"}}, "geometry":{"type":"MultiPolygon","coordinates":[[[[-2.57394,53.59943],[-2.57495,53.59919],[-2.57521,53.59908],[-2.57539,53.59917],[-2.57575,53.59972],[-2.5745,53.60002],[-2.57442,53.60001],[-2.57435,53.6],[-2.57429,53.59997],[-2.57394,53.59943]]]]}},
{ "type":"Feature","properties":{"osm_way_id":"32952230","name":"HGVs","amenity":"parking","other":{"access":"hgv"}}, "geometry":{"type":"MultiPolygon","coordinates":[[[[-2.57495,53.60068],[-2.57497,53.60066],[-2.57508,53.60054],[-2.57529,53.60032],[-2.57548,53.60013],[-2.57585,53.60003],[-2.57641,53.60071],[-2.57647,53.60097],[-2.57638,53.60118],[-2.57626,53.6013],[-2.5761,53.60138],[-2.57533,53.60163],[-2.57517,53.60173],[-2.5751,53.6018],[-2.57508,53.60148],[-2.57509,53.60135],[-2.57516,53.60123],[-2.5753,53.60113],[-2.57525,53.60108],[-2.57495,53.60068]]]]}},
{ "type":"Feature","properties":{"osm_way_id":"32952250","name":"HGVs","amenity":"parking","other":{"access":"hgv"}}, "geometry":{"type":"MultiPolygon","coordinates":[[[[-2.57248,53.59891],[-2.57278,53.59939],[-2.57187,53.59996],[-2.57209,53.60022],[-2.57237,53.60017],[-2.57202,53.60053],[-2.57156,53.6007],[-2.57126,53.60059],[-2.57123,53.60034],[-2.57126,53.60009],[-2.57134,53.59983],[-2.57141,53.5997],[-2.57153,53.59954],[-2.57171,53.59938],[-2.57248,53.59891]]]]}},
{ "type":"Feature","properties":{"osm_way_id":"32952260","name":"Cars","amenity":"parking"},"geometry":{"type":"MultiPolygon","coordinates":[[[[-2.57236,53.60152],[-2.57369,53.6017],[-2.574,53.60159],[-2.57409,53.60155],[-2.57371,53.60093],[-2.57368,53.60091],[-2.57324,53.60083],[-2.57302,53.60078],[-2.57299,53.60083],[-2.57285,53.60113],[-2.57263,53.60109],[-2.57236,53.60152]]]]}},
{ "type":"Feature","properties":{"osm_way_id":"40753922","amenity":"parking"},"geometry":{"type":"MultiPolygon","coordinates":[[[[-2.55321,53.61056],[-2.55354,53.61055],[-2.55369,53.61059],[-2.55379,53.61075],[-2.55367,53.61087],[-2.55352,53.61095],[-2.55344,53.61088],[-2.55347,53.61081],[-2.5534,53.61074],[-2.5533,53.61068],[-2.55316,53.61067],[-2.55321,53.61056]]]]}},
{ "type":"Feature","properties":{"osm_way_id":"40755195","name":"Lower Barn Car Park","amenity":"parking","other":{"access":"customers","capacity":"20","fee":"no","parking":"surface"}}, "geometry":{"type":"MultiPolygon","coordinates":[[[[-2.56362,53.61984],[-2.56317,53.62008],[-2.56298,53.62018],[-2.5628,53.62],[-2.5629,53.61996],[-2.56277,53.61986],[-2.56297,53.61973],[-2.56329,53.6196],[-2.56362,53.61984]]]]}},
{ "type":"Feature","properties":{"osm_way_id":"45033361","amenity":"parking","other":{"access":"private","capacity":"30","parking":"surface","surface":"asphalt"}}, "geometry":{"type":"MultiPolygon","coordinates":[[[[-2.62851,53.65605],[-2.62844,53.65593],[-2.62832,53.65572],[-2.62808,53.65573],[-2.62777,53.65576],[-2.62779,53.65609],[-2.62851,53.65605]]]]}},
{ "type":"Feature","properties":{"osm_way_id":"56684708","name":"East Parade Car Park","amenity":"parking","other":{"access":"yes","capacity":"14","fee":"yes","parking":"surface"}}, "geometry":{"type":"MultiPolygon","coordinates":[[[[-1.06616,53.96515],[-1.06631,53.96512],[-1.06641,53.96531],[-1.06651,53.96547],[-1.06638,53.9655],[-1.06635,53.96545],[-1.06616,53.96515]]]]}},
{ "type":"Feature","properties":{"osm_way_id":"59002607","amenity":"parking","other":{"fee":"yes","maxheight":"6'6'","operator":"Cuerden Valley Park","parking":"surface"}}, "geometry":{"type":"MultiPolygon","coordinates":[[[[-2.65544,53.70077],[-2.65495,53.7009],[-2.65485,53.70076],[-2.65494,53.70074],[-2.65496,53.70071],[-2.65491,53.70066],[-2.65476,53.70063],[-2.65471,53.7006],[-2.65488,53.70055],[-2.65487,53.70049],[-2.65516,53.70041],[-2.65529,53.70057],[-2.65538,53.70056],[-2.65547,53.70067],[-2.6554,53.70069],[-2.65544,53.70077]]]]}},
{ "type":"Feature","properties":{"osm_way_id":"69738710","amenity":"parking","other":{"access":"customers","capacity:disabled":"24","fee":"no"}}, "geometry":{"type":"MultiPolygon","coordinates":[[[[-2.86442,53.19373],[-2.86358,53.19363],[-2.86359,53.19361],[-2.86356,53.1936],[-2.86356,53.19359],[-2.86365,53.19334],[-2.86341,53.19331],[-2.86342,53.19329],[-2.86328,53.19327],[-2.86327,53.19329],[-2.86324,53.19329],[-2.86327,53.19321],[-2.86328,53.19318],[-2.86296,53.19314],[-2.86268,53.19311],[-2.86246,53.19308],[-2.8621,53.19303],[-2.86202,53.19323],[-2.86207,53.19324],[-2.86201,53.19339],[-2.862,53.1934],[-2.86143,53.19333],[-2.86151,53.19305],[-2.86162,53.19306],[-2.86165,53.19297],[-2.8618,53.19299],[-2.86181,53.19294],[-2.86194,53.19296],[-2.86199,53.19284],[-2.86279,53.19293],[-2.86276,53.19297],[-2.86326,53.19296],[-2.86362,53.19298],[-2.86386,53.19303],[-2.86419,53.1931],[-2.8644,53.19314],[-2.86436,53.19321],[-2.8646,53.19324],[-2.86469,53.19326],[-2.86465,53.19338],[-2.86456,53.1937],[-2.86444,53.19368],[-2.86442,53.19373]]]]}},
{ "type":"Feature","properties":{"osm_way_id":"77551476","amenity":"parking"},"geometry":{"type":"MultiPolygon","coordinates":[[[[-1.79754,51.58828],[-1.7973,51.58821],[-1.79686,51.58817],[-1.79693,51.58803],[-1.7974,51.58809],[-1.79757,51.58774],[-1.79777,51.58783],[-1.79754,51.58828]]]]}},
{ "type":"Feature","properties":{"osm_way_id":"77685805","amenity":"parking","other":{"access":"customers"}}, "geometry":{"type":"MultiPolygon","coordinates":[[[[-1.503,54.81525],[-1.5029,54.81528],[-1.50279,54.81519],[-1.50264,54.81525],[-1.50257,54.81528],[-1.50244,54.81515],[-1.50269,54.81505],[-1.50278,54.81514],[-1.50283,54.81514],[-1.5029,54.81516],[-1.503,54.81525]]]]}},
{ "type":"Feature","properties":{"osm_way_id":"77685829","amenity":"parking"},"geometry":{"type":"MultiPolygon","coordinates":[[[[-1.50474,54.80547],[-1.5046,54.80554],[-1.50456,54.80551],[-1.50455,54.80552],[-1.50445,54.80546],[-1.50487,54.80525],[-1.50514,54.80528],[-1.50508,54.80536],[-1.50488,54.80547],[-1.50505,54.80559],[-1.50485,54.8057],[-1.50467,54.80558],[-1.50479,54.80551],[-1.50474,54.80547]]]]}},
{ "type":"Feature","properties":{"osm_way_id":"77685858","amenity":"parking"},"geometry":{"type":"MultiPolygon","coordinates":[[[[-1.50425,54.80566],[-1.5041,54.80555],[-1.50359,54.80578],[-1.50372,54.80588],[-1.50386,54.80585],[-1.50425,54.80566]]]]}},
{ "type":"Feature","properties":{"osm_way_id":"95278945","amenity":"parking","other":{"capacity":"8","fee":"no","parking":"surface","surface":"ground"}}, "geometry":{"type":"MultiPolygon","coordinates":[[[[-4.10655,51.71803],[-4.10628,51.71807],[-4.10609,51.71808],[-4.10609,51.71805],[-4.1061,51.71793],[-4.10635,51.71789],[-4.10646,51.71786],[-4.10655,51.71803]]]]}},
{ "type":"Feature","properties":{"osm_way_id":"96808559","amenity":"parking"},"geometry":{"type":"MultiPolygon","coordinates":[[[[-2.68072,53.65109],[-2.68065,53.6511],[-2.68071,53.65123],[-2.68081,53.65131],[-2.68086,53.65133],[-2.68153,53.65119],[-2.68156,53.65115],[-2.68157,53.65109],[-2.68147,53.65099],[-2.68141,53.65099],[-2.68098,53.65107],[-2.68096,53.65103],[-2.68072,53.65109]]]]}},
{ "type":"Feature","properties":{"osm_way_id":"98884451","amenity":"parking"},"geometry":{"type":"MultiPolygon","coordinates":[[[[-4.99202,52.00145],[-4.99307,52.00235],[-4.99363,52.00214],[-4.99361,52.0021],[-4.99271,52.00126],[-4.99202,52.00145]]]]}},
{ "type":"Feature","properties":{"osm_way_id":"110679930","amenity":"parking","other":{"parking":"surface"}}, "geometry":{"type":"MultiPolygon","coordinates":[[[[-1.28477,51.67762],[-1.28448,51.67766],[-1.28436,51.67737],[-1.28453,51.67734],[-1.28449,51.67726],[-1.28462,51.67724],[-1.28465,51.67732],[-1.28477,51.67762]]]]}},
{ "type":"Feature","properties":{"osm_way_id":"117458131","amenity":"parking","other":{"access":"customers","parking":"surface","surface":"asphalt"}}, "geometry":{"type":"MultiPolygon","coordinates":[[[[-2.69585,53.63277],[-2.69602,53.63251],[-2.69695,53.63273],[-2.69718,53.63241],[-2.69625,53.63216],[-2.69647,53.63197],[-2.6964,53.63196],[-2.69632,53.63194],[-2.69565,53.63163],[-2.69551,53.63156],[-2.69544,53.63154],[-2.69535,53.63152],[-2.69527,53.63159],[-2.69515,53.63168],[-2.69504,53.63172],[-2.6949,53.63172],[-2.69486,53.63182],[-2.69492,53.6319],[-2.69496,53.63199],[-2.69499,53.63208],[-2.695,53.63217],[-2.69502,53.63234],[-2.69511,53.63246],[-2.69523,53.63255],[-2.69531,53.6326],[-2.69542,53.63266],[-2.69557,53.63273],[-2.69572,53.63281],[-2.69585,53.63277]]]]}},
{ "type":"Feature","properties":{"osm_way_id":"117460586","amenity":"parking","other":{"access":"no","parking":"surface","surface":"asphalt"}}, "geometry":{"type":"MultiPolygon","coordinates":[[[[-2.69309,53.63214],[-2.69279,53.63207],[-2.69274,53.63201],[-2.69277,53.63195],[-2.69344,53.63134],[-2.69367,53.63135],[-2.69381,53.63139],[-2.69411,53.63139],[-2.69393,53.63152],[-2.69377,53.63164],[-2.69309,53.63214]]]]}},
{ "type":"Feature","properties":{"osm_way_id":"117716492","amenity":"parking","other":{"access":"private"}}, "geometry":{"type":"MultiPolygon","coordinates":[[[[-2.6039,53.61261],[-2.60436,53.61236],[-2.60441,53.61232],[-2.60444,53.61227],[-2.60455,53.61201],[-2.60462,53.61201],[-2.60465,53.61196],[-2.60452,53.61195],[-2.60444,53.61191],[-2.60443,53.6119],[-2.60433,53.61182],[-2.60341,53.6123],[-2.6039,53.61261]]]]}},
{ "type":"Feature","properties":{"osm_way_id":"117723481","amenity":"parking","other":{"access":"private"}}, "geometry":{"type":"MultiPolygon","coordinates":[[[[-2.60384,53.61269],[-2.60346,53.61246],[-2.60351,53.61243],[-2.60391,53.61266],[-2.60384,53.61269]]]]}},
{ "type":"Feature","properties":{"osm_way_id":"145586119","amenity":"parking","other":{"parking":"surface"}}, "geometry":{"type":"MultiPolygon","coordinates":[[[[-1.36932,52.52181],[-1.36923,52.52169],[-1.36914,52.52172],[-1.36903,52.52176],[-1.36913,52.52187],[-1.36923,52.52184],[-1.36932,52.52181]]]]}},
{ "type":"Feature","properties":{"osm_way_id":"150467554","amenity":"parking","other":{"capacity":"24"}}, "geometry":{"type":"MultiPolygon","coordinates":[[[[-1.74157,52.38954],[-1.74131,52.3896],[-1.74113,52.38934],[-1.7413,52.38929],[-1.74137,52.38927],[-1.74157,52.38954]]]]}},
{ "type":"Feature","properties":{"osm_way_id":"186521783","amenity":"parking","other":{"access":"customers","parking":"surface"}}, "geometry":{"type":"MultiPolygon","coordinates":[[[[-0.17446,53.1055],[-0.17454,53.10547],[-0.17455,53.10545],[-0.17455,53.10543],[-0.17456,53.10541],[-0.17462,53.10541],[-0.17471,53.1054],[-0.17475,53.1054],[-0.17476,53.10545],[-0.17475,53.10547],[-0.17469,53.10549],[-0.17464,53.1055],[-0.17459,53.1055],[-0.1745,53.10551],[-0.17448,53.10552],[-0.17446,53.1055]]]]}},
{ "type":"Feature","properties":{"osm_way_id":"199878825","name":"The Carrington Centre","amenity":"parking","other":{"capacity":"20","parking":"surface"}}, "geometry":{"type":"MultiPolygon","coordinates":[[[[-2.72459,53.64583],[-2.72432,53.6459],[-2.72424,53.64588],[-2.72414,53.64584],[-2.72414,53.64577],[-2.72418,53.6457],[-2.72444,53.64564],[-2.72452,53.64577],[-2.72456,53.64579],[-2.72459,53.64583]]]]}},
{ "type":"Feature","properties":{"osm_way_id":"204383059","amenity":"parking","other":{"access":"private"}}, "geometry":{"type":"MultiPolygon","coordinates":[[[[-2.69252,53.63065],[-2.69256,53.63061],[-2.69274,53.63043],[-2.69286,53.63032],[-2.6925,53.63019],[-2.69245,53.63024],[-2.69226,53.63017],[-2.69231,53.63012],[-2.69177,53.62993],[-2.69164,53.63007],[-2.69182,53.63013],[-2.69176,53.63019],[-2.6917,53.63025],[-2.69171,53.63025],[-2.69188,53.63036],[-2.69218,53.63046],[-2.69213,53.63051],[-2.69232,53.63058],[-2.69252,53.63065]]]]}},
{ "type":"Feature","properties":{"osm_way_id":"204387265","name":"Abnormal Loads","amenity":"parking"},"geometry":{"type":"MultiPolygon","coordinates":[[[[-2.69003,53.63238],[-2.69,53.63239],[-2.68998,53.6324],[-2.68996,53.63243],[-2.68954,53.6324],[-2.68943,53.63238],[-2.68933,53.63236],[-2.68924,53.63233],[-2.68921,53.63231],[-2.68921,53.63229],[-2.68921,53.63226],[-2.68929,53.6323],[-2.6894,53.63233],[-2.68951,53.63234],[-2.6897,53.63236],[-2.68988,53.63237],[-2.69003,53.63238]]]]}},
{ "type":"Feature","properties":{"osm_way_id":"213169263","amenity":"parking","other":{"access":"yes","fee":"no","parking":"street_side"}}, "geometry":{"type":"MultiPolygon","coordinates":[[[[-2.5605,53.6223],[-2.56042,53.62226],[-2.55781,53.62413],[-2.55789,53.62417],[-2.5605,53.6223]]]]}},
{ "type":"Feature","properties":{"osm_way_id":"232347094","name":"Lower House Car Park","amenity":"parking","other":{"fee":"no","parking":"surface"}}, "geometry":{"type":"MultiPolygon","coordinates":[[[[-2.5487,53.6293],[-2.54828,53.62948],[-2.54804,53.62923],[-2.54844,53.62907],[-2.5487,53.6293]]]]}},
{ "type":"Feature","properties":{"osm_way_id":"232347095","name":"Lower House Car Park","amenity":"parking","other":{"fee":"no","parking":"surface"}}, "geometry":{"type":"MultiPolygon","coordinates":[[[[-2.54919,53.62885],[-2.54942,53.62899],[-2.54913,53.62914],[-2.5489,53.629],[-2.54919,53.62885]]]]}},
{ "type":"Feature","properties":{"osm_way_id":"237795255","name":"Botany Bay","amenity":"parking","other":{"access":"customers","fee":"no","parking":"surface","supervised":"no"}}, "geometry":{"type":"MultiPolygon","coordinates":[[[[-2.6221,53.66814],[-2.62257,53.66863],[-2.62279,53.66893],[-2.62284,53.66932],[-2.62274,53.6694],[-2.62251,53.66946],[-2.62102,53.66944],[-2.62094,53.66916],[-2.62084,53.66881],[-2.62061,53.66819],[-2.62056,53.66808],[-2.62066,53.66805],[-2.62106,53.66809],[-2.62113,53.66807],[-2.62121,53.66804],[-2.62159,53.66835],[-2.6221,53.66814]]]]}},
{ "type":"Feature","properties":{"osm_way_id":"238062837","amenity":"parking","other":{"parking":"surface"}}, "geometry":{"type":"MultiPolygon","coordinates":[[[[-2.55983,53.60083],[-2.55989,53.60085],[-2.56006,53.60081],[-2.56009,53.60075],[-2.55999,53.60071],[-2.55987,53.60076],[-2.55981,53.60081],[-2.55983,53.60083]]]]}},
{ "type":"Feature","properties":{"osm_way_id":"238175880","amenity":"parking","other":{"access":"customers"}}, "geometry":{"type":"MultiPolygon","coordinates":[[[[-2.56939,53.62464],[-2.56954,53.62476],[-2.56933,53.62482],[-2.56886,53.62481],[-2.56877,53.62463],[-2.56939,53.62464]]]]}},
{ "type":"Feature","properties":{"osm_way_id":"247404199","amenity":"parking"},"geometry":{"type":"MultiPolygon","coordinates":[[[[-2.68858,53.63087],[-2.68854,53.63073],[-2.68856,53.63073],[-2.68882,53.6307],[-2.68885,53.63077],[-2.68886,53.63078],[-2.68887,53.63079],[-2.68878,53.63087],[-2.68873,53.63086],[-2.68867,53.63086],[-2.68858,53.63087]]]]}},
{ "type":"Feature","properties":{"osm_way_id":"247404200","amenity":"parking","other":{"access":"hgv"}}, "geometry":{"type":"MultiPolygon","coordinates":[[[[-2.68995,53.63036],[-2.69011,53.63082],[-2.68994,53.63087],[-2.68985,53.6309],[-2.68984,53.63089],[-2.68983,53.63088],[-2.68981,53.63088],[-2.68901,53.63097],[-2.68901,53.63095],[-2.689,53.63093],[-2.68898,53.63092],[-2.68896,53.63092],[-2.68893,53.63092],[-2.6889,53.63092],[-2.6892,53.63072],[-2.68919,53.63075],[-2.68919,53.63076],[-2.68921,53.63076],[-2.68926,53.63077],[-2.68929,53.63076],[-2.68932,53.63075],[-2.68933,53.63073],[-2.68931,53.63068],[-2.68953,53.63065],[-2.68956,53.63064],[-2.68954,53.63061],[-2.68952,53.63061],[-2.68948,53.63061],[-2.68944,53.63062],[-2.68954,53.63057],[-2.68963,53.63051],[-2.6897,53.63045],[-2.68974,53.6304],[-2.68979,53.63036],[-2.68982,53.63037],[-2.68995,53.63036]]]]}},
{ "type":"Feature","properties":{"osm_way_id":"247404201","amenity":"parking","other":{"parking":"surface","supervised":"no","surface":"asphalt"}}, "geometry":{"type":"MultiPolygon","coordinates":[[[[-2.68897,53.63101],[-2.68981,53.63091],[-2.68984,53.63091],[-2.68985,53.6309],[-2.68994,53.63087],[-2.69005,53.63117],[-2.68998,53.63118],[-2.68991,53.6312],[-2.68991,53.63122],[-2.69001,53.63151],[-2.68987,53.63152],[-2.68993,53.6317],[-2.69004,53.63169],[-2.69007,53.63179],[-2.6904,53.63175],[-2.69042,53.63179],[-2.69047,53.63179],[-2.69057,53.63206],[-2.69045,53.63207],[-2.69041,53.63204],[-2.69034,53.63199],[-2.69032,53.63198],[-2.69036,53.63198],[-2.69036,53.63196],[-2.69035,53.63193],[-2.69027,53.63194],[-2.69026,53.63194],[-2.69024,53.63189],[-2.69018,53.6319],[-2.69017,53.6319],[-2.69013,53.63188],[-2.69002,53.63185],[-2.69004,53.63185],[-2.69005,53.63184],[-2.69006,53.63183],[-2.69006,53.63181],[-2.69005,53.63179],[-2.69003,53.63178],[-2.69001,53.63178],[-2.68999,53.63178],[-2.68997,53.63178],[-2.68995,53.63179],[-2.68995,53.63181],[-2.68996,53.63182],[-2.68998,53.63184],[-2.68977,53.63177],[-2.68969,53.63176],[-2.68966,53.63175],[-2.68954,53.63175],[-2.68948,53.63175],[-2.68935,53.63177],[-2.68934,53.63174],[-2.68933,53.63173],[-2.68929,53.63172],[-2.68925,53.63171],[-2.68922,53.6317],[-2.68907,53.63167],[-2.68885,53.63113],[-2.68884,53.63105],[-2.68885,53.63106],[-2.68898,53.63104],[-2.68897,53.63101]]]]}},
{ "type":"Feature","properties":{"osm_way_id":"253092262","amenity":"parking","other":{"parking":"surface"}}, "geometry":{"type":"MultiPolygon","coordinates":[[[[-2.75604,53.67884],[-2.75601,53.67834],[-2.75591,53.67792],[-2.7552,53.67797],[-2.75533,53.67886],[-2.75604,53.67884]]]]}},
{ "type":"Feature","properties":{"osm_way_id":"253092263","amenity":"parking","other":{"parking":"surface"}}, "geometry":{"type":"MultiPolygon","coordinates":[[[[-2.75257,53.67818],[-2.75252,53.67744],[-2.75328,53.67742],[-2.75332,53.67815],[-2.75257,53.67818]]]]}},
{ "type":"Feature","properties":{"osm_way_id":"253092264","amenity":"parking","other":{"parking":"surface"}}, "geometry":{"type":"MultiPolygon","coordinates":[[[[-2.7537,53.67885],[-2.75366,53.67833],[-2.75385,53.67833],[-2.75386,53.67795],[-2.75376,53.67795],[-2.75367,53.67709],[-2.75327,53.6771],[-2.75335,53.67886],[-2.75356,53.67886],[-2.7537,53.67885]]]]}},
{ "type":"Feature","properties":{"osm_way_id":"253092265","amenity":"parking","other":{"parking":"surface"}}, "geometry":{"type":"MultiPolygon","coordinates":[[[[-2.75844,53.67924],[-2.75703,53.67927],[-2.75667,53.6791],[-2.75675,53.67904],[-2.75734,53.67892],[-2.75771,53.67884],[-2.75843,53.6788],[-2.75843,53.6789],[-2.75844,53.67924]]]]}},
{ "type":"Feature","properties":{"osm_way_id":"274158150","amenity":"parking","other":{"fee":"yes","parking":"surface"}}, "geometry":{"type":"MultiPolygon","coordinates":[[[[-2.66156,53.70853],[-2.66173,53.70853],[-2.66185,53.70857],[-2.66185,53.70867],[-2.66142,53.70862],[-2.66098,53.70851],[-2.66106,53.70841],[-2.66137,53.70851],[-2.66145,53.70852],[-2.66153,53.70834],[-2.66162,53.70836],[-2.66156,53.70853]]]]}},
{ "type":"Feature","properties":{"osm_way_id":"274171322","amenity":"parking","other":{"access":"customers","parking":"surface"}}, "geometry":{"type":"MultiPolygon","coordinates":[[[[-2.66289,53.71042],[-2.6622,53.71037],[-2.66192,53.71038],[-2.66145,53.71054],[-2.66131,53.7105],[-2.66126,53.71048],[-2.66135,53.71044],[-2.66135,53.71039],[-2.6617,53.71026],[-2.66179,53.71023],[-2.66188,53.71028],[-2.66193,53.71028],[-2.66208,53.71029],[-2.66218,53.7103],[-2.66224,53.71029],[-2.66228,53.71023],[-2.66229,53.71018],[-2.66222,53.71006],[-2.66226,53.71005],[-2.6623,53.71004],[-2.66238,53.71016],[-2.66266,53.71012],[-2.66285,53.71009],[-2.66289,53.71015],[-2.66289,53.71026],[-2.66288,53.71038],[-2.66289,53.71042]]]]}},
{ "type":"Feature","properties":{"osm_way_id":"274171324","amenity":"parking","other":{"access":"private","parking":"surface"}}, "geometry":{"type":"MultiPolygon","coordinates":[[[[-2.66246,53.70902],[-2.66253,53.70912],[-2.66259,53.70911],[-2.66272,53.70934],[-2.66253,53.70939],[-2.6623,53.70906],[-2.66238,53.70904],[-2.66246,53.70902]]]]}},
{ "type":"Feature","properties":{"osm_way_id":"279465930","amenity":"parking","other":{"access":"customers","parking":"surface"}}, "geometry":{"type":"MultiPolygon","coordinates":[[[[-2.57534,53.72469],[-2.5753,53.7247],[-2.57518,53.72473],[-2.57501,53.72479],[-2.57479,53.72468],[-2.5748,53.72467],[-2.57482,53.72464],[-2.57484,53.72459],[-2.57488,53.72457],[-2.57491,53.7246],[-2.57498,53.7246],[-2.57498,53.72455],[-2.57514,53.72455],[-2.57523,53.72454],[-2.57529,53.72462],[-2.57534,53.72469]]]]}},
{ "type":"Feature","properties":{"osm_way_id":"279465936","amenity":"parking","other":{"access":"customers","parking":"surface"}}, "geometry":{"type":"MultiPolygon","coordinates":[[[[-2.58503,53.72768],[-2.58444,53.72769],[-2.58434,53.7274],[-2.58433,53.72735],[-2.585,53.72733],[-2.58503,53.72768]]]]}},
{ "type":"Feature","properties":{"osm_way_id":"279465938","amenity":"parking","other":{"access":"customers","parking":"surface"}}, "geometry":{"type":"MultiPolygon","coordinates":[[[[-2.57351,53.72426],[-2.57353,53.72427],[-2.57361,53.72428],[-2.57367,53.72429],[-2.5742,53.72438],[-2.57428,53.72439],[-2.57435,53.72439],[-2.57433,53.72444],[-2.57436,53.72444],[-2.57435,53.72451],[-2.57346,53.72432],[-2.57351,53.72426]]]]}},
{ "type":"Feature","properties":{"osm_way_id":"323813917","name":"St Joseph's Church Car Park","amenity":"parking"},"geometry":{"type":"MultiPolygon","coordinates":[[[[-2.5942,53.61651],[-2.59414,53.61655],[-2.59428,53.61667],[-2.59445,53.61679],[-2.59421,53.6169],[-2.594,53.61676],[-2.59378,53.61658],[-2.59401,53.61653],[-2.59415,53.61647],[-2.5942,53.61651]]]]}},
{ "type":"Feature","properties":{"osm_way_id":"333883595","amenity":"parking","other":{"parking":"surface"}}, "geometry":{"type":"MultiPolygon","coordinates":[[[[-2.58794,53.7353],[-2.58802,53.73528],[-2.58841,53.73571],[-2.58818,53.73576],[-2.588,53.73548],[-2.5878,53.73539],[-2.58778,53.73536],[-2.58794,53.7353]]]]}},
{ "type":"Feature","properties":{"osm_way_id":"333895166","amenity":"parking","other":{"access":"destination","parking":"surface"}}, "geometry":{"type":"MultiPolygon","coordinates":[[[[-2.58776,53.73404],[-2.58781,53.73418],[-2.58762,53.73422],[-2.58719,53.73339],[-2.58727,53.73337],[-2.58725,53.73328],[-2.5873,53.73327],[-2.58734,53.73327],[-2.58743,53.73326],[-2.58749,53.73325],[-2.58753,53.73325],[-2.5876,53.73359],[-2.58776,53.73404]]]]}},
{ "type":"Feature","properties":{"osm_way_id":"334096645","amenity":"parking","other":{"parking":"surface"}}, "geometry":{"type":"MultiPolygon","coordinates":[[[[-2.5764,53.73266],[-2.57866,53.73219],[-2.57885,53.73245],[-2.57828,53.73257],[-2.57831,53.73261],[-2.57814,53.73264],[-2.57817,53.7327],[-2.57789,53.73278],[-2.57788,53.73274],[-2.57673,53.73296],[-2.57665,53.73298],[-2.5764,53.73266]]]]}},
{ "type":"Feature","properties":{"osm_way_id":"334358366","amenity":"parking","other":{"capacity":"60","capacity:disabled":"4","park_ride":"no","parking":"surface","supervised":"no","surface":"asphalt"}}, "geometry":{"type":"MultiPolygon","coordinates":[[[[-2.64512,53.66124],[-2.64444,53.66113],[-2.64454,53.66093],[-2.64466,53.66069],[-2.6447,53.66047],[-2.64477,53.66047],[-2.64555,53.66048],[-2.6458,53.66049],[-2.64578,53.66058],[-2.6457,53.66095],[-2.64533,53.66114],[-2.64512,53.66124]]]]}},
{ "type":"Feature","properties":{"osm_way_id":"336514865","amenity":"parking","other":{"parking":"surface"}}, "geometry":{"type":"MultiPolygon","coordinates":[[[[-2.60338,53.73218],[-2.60344,53.73223],[-2.60342,53.73223],[-2.60349,53.73229],[-2.60355,53.73226],[-2.60359,53.73228],[-2.60363,53.73227],[-2.60371,53.73232],[-2.60377,53.73237],[-2.60381,53.73243],[-2.60361,53.73252],[-2.60292,53.73198],[-2.60302,53.73192],[-2.60308,53.73193],[-2.60314,53.73194],[-2.60327,53.73204],[-2.60325,53.73205],[-2.60327,53.73207],[-2.60325,53.73208],[-2.60327,53.7321],[-2.60329,53.73211],[-2.60325,53.73212],[-2.60335,53.7322],[-2.60338,53.73218]]]]}},
{ "type":"Feature","properties":{"osm_way_id":"336515179","amenity":"parking","other":{"parking":"surface"}}, "geometry":{"type":"MultiPolygon","coordinates":[[[[-2.60452,53.73286],[-2.6044,53.73289],[-2.60412,53.73293],[-2.60392,53.73272],[-2.60406,53.73266],[-2.60437,53.73258],[-2.60451,53.73275],[-2.60453,53.73282],[-2.60452,53.73286]]]]}},
{ "type":"Feature","properties":{"osm_way_id":"336814631","amenity":"parking","other":{"parking":"surface","surface":"asphalt"}}, "geometry":{"type":"MultiPolygon","coordinates":[[[[-2.60532,53.73339],[-2.60529,53.73339],[-2.60526,53.73339],[-2.60502,53.73339],[-2.60502,53.73346],[-2.60515,53.73352],[-2.60531,53.73354],[-2.60532,53.73339]]]]}},
{ "type":"Feature","properties":{"osm_way_id":"336914284","amenity":"parking","other":{"access":"customers","parking":"surface","surface":"asphalt"}}, "geometry":{"type":"MultiPolygon","coordinates":[[[[-2.59452,53.73606],[-2.59417,53.73618],[-2.59414,53.73614],[-2.59404,53.73616],[-2.59395,53.73607],[-2.59382,53.73595],[-2.59407,53.73584],[-2.59429,53.73589],[-2.59446,53.73598],[-2.59452,53.73606]]]]}},
{ "type":"Feature","properties":{"osm_way_id":"337025955","amenity":"parking","other":{"access":"permissive","parking":"surface","surface":"asphalt"}}, "geometry":{"type":"MultiPolygon","coordinates":[[[[-2.60805,53.7123],[-2.60812,53.71239],[-2.60781,53.71248],[-2.60775,53.71242],[-2.6077,53.71244],[-2.60761,53.71233],[-2.60769,53.7123],[-2.60765,53.71226],[-2.60785,53.7122],[-2.60789,53.71226],[-2.60799,53.71223],[-2.60805,53.7123]]]]}},
{ "type":"Feature","properties":{"osm_way_id":"337025956","amenity":"parking","other":{"access":"customers","parking":"surface"}}, "geometry":{"type":"MultiPolygon","coordinates":[[[[-2.60962,53.71296],[-2.60955,53.71299],[-2.60947,53.71293],[-2.60925,53.71302],[-2.60909,53.7129],[-2.60955,53.71272],[-2.60966,53.71283],[-2.60953,53.71288],[-2.60962,53.71296]]]]}},
{ "type":"Feature","properties":{"osm_way_id":"337025957","amenity":"parking","other":{"access":"customers","parking":"surface","surface":"asphalt"}}, "geometry":{"type":"MultiPolygon","coordinates":[[[[-2.60955,53.71299],[-2.60962,53.71296],[-2.60967,53.71295],[-2.60982,53.71308],[-2.60978,53.7131],[-2.60941,53.71324],[-2.60935,53.71321],[-2.60946,53.71314],[-2.60938,53.71308],[-2.60955,53.71299]]]]}},
{ "type":"Feature","properties":{"osm_way_id":"337253330","amenity":"parking","other":{"access":"customers","parking":"surface","surface":"asphalt"}}, "geometry":{"type":"MultiPolygon","coordinates":[[[[-2.56955,53.72093],[-2.56951,53.72097],[-2.56935,53.72093],[-2.56932,53.72092],[-2.5692,53.7209],[-2.56903,53.72084],[-2.569,53.72083],[-2.56904,53.72078],[-2.56905,53.72077],[-2.56914,53.72068],[-2.56915,53.72067],[-2.56916,53.72065],[-2.56947,53.72071],[-2.5696,53.72072],[-2.5696,53.72076],[-2.5697,53.72076],[-2.56971,53.72082],[-2.56972,53.72084],[-2.56974,53.72092],[-2.56987,53.72096],[-2.57002,53.72099],[-2.57011,53.72098],[-2.57017,53.72096],[-2.5702,53.72095],[-2.57027,53.72087],[-2.57028,53.72082],[-2.57027,53.72078],[-2.57029,53.72078],[-2.57027,53.72073],[-2.57029,53.72072],[-2.57037,53.72075],[-2.57041,53.72074],[-2.57047,53.72075],[-2.57054,53.72076],[-2.57055,53.72078],[-2.5708,53.72095],[-2.57077,53.72097],[-2.57076,53.72097],[-2.5705,53.72103],[-2.57027,53.72106],[-2.5701,53.72106],[-2.56997,53.72106],[-2.56988,53.72105],[-2.56977,53.72102],[-2.56978,53.721],[-2.56977,53.72099],[-2.56977,53.72098],[-2.56955,53.72093]]]]}},
{ "type":"Feature","properties":{"osm_way_id":"337253342","amenity":"parking","other":{"access":"customers","parking":"surface"}}, "geometry":{"type":"MultiPolygon","coordinates":[[[[-2.57027,53.72049],[-2.57023,53.72051],[-2.57015,53.72054],[-2.57005,53.72058],[-2.56993,53.72063],[-2.56968,53.72048],[-2.56994,53.72034],[-2.57027,53.72049]]]]}},
{ "type":"Feature","properties":{"osm_way_id":"340252195","name":"Overflow Parking","amenity":"parking"},"geometry":{"type":"MultiPolygon","coordinates":[[[[-2.62862,53.64471],[-2.62835,53.64464],[-2.62856,53.64436],[-2.62883,53.64443],[-2.62862,53.64471]]]]}},
{ "type":"Feature","properties":{"osm_way_id":"341876289","amenity":"parking","other":{"access":"private","parking":"surface","surface":"asphalt"}}, "geometry":{"type":"MultiPolygon","coordinates":[[[[-2.66185,53.70867],[-2.66216,53.70906],[-2.66219,53.70911],[-2.66144,53.70908],[-2.66127,53.70914],[-2.66089,53.70912],[-2.66093,53.70874],[-2.66137,53.70879],[-2.66142,53.70862],[-2.66185,53.70867]]]]}},
{ "type":"Feature","properties":{"osm_way_id":"365896945","amenity":"parking"},"geometry":{"type":"MultiPolygon","coordinates":[[[[-2.59395,53.6754],[-2.59389,53.67548],[-2.59333,53.67547],[-2.59318,53.67547],[-2.59315,53.67546],[-2.59317,53.67543],[-2.59333,53.67524],[-2.59383,53.67537],[-2.59395,53.6754]]]]}},
{ "type":"Feature","properties":{"osm_way_id":"373317048","amenity":"parking"},"geometry":{"type":"MultiPolygon","coordinates":[[[[-3.05087,51.57925],[-3.0514,51.57935],[-3.05134,51.57944],[-3.0513,51.57952],[-3.05096,51.57951],[-3.05077,51.57951],[-3.05075,51.57944],[-3.05087,51.57925]]]]}},
{ "type":"Feature","properties":{"osm_way_id":"373525783","amenity":"parking"},"geometry":{"type":"MultiPolygon","coordinates":[[[[-2.7735,53.62413],[-2.77356,53.62415],[-2.7735,53.62424],[-2.77414,53.62442],[-2.77413,53.62443],[-2.77408,53.62448],[-2.775,53.62476],[-2.77507,53.62469],[-2.77539,53.62438],[-2.77496,53.62425],[-2.77493,53.62428],[-2.7749,53.62431],[-2.77477,53.62449],[-2.77418,53.62432],[-2.77437,53.62408],[-2.77443,53.62401],[-2.77421,53.62405],[-2.77398,53.62411],[-2.77378,53.62414],[-2.77365,53.62412],[-2.77348,53.62406],[-2.77346,53.62408],[-2.77342,53.62413],[-2.7735,53.62413]]]]}},
{ "type":"Feature","properties":{"osm_way_id":"374169653","amenity":"parking"},"geometry":{"type":"MultiPolygon","coordinates":[[[[-2.56331,53.71384],[-2.56338,53.71394],[-2.56295,53.71401],[-2.56294,53.71399],[-2.56284,53.714],[-2.56273,53.71403],[-2.56294,53.71411],[-2.56273,53.7143],[-2.56269,53.71435],[-2.56274,53.71436],[-2.56286,53.7144],[-2.56292,53.71433],[-2.56295,53.71429],[-2.56305,53.71431],[-2.56308,53.7143],[-2.56316,53.71433],[-2.56343,53.71405],[-2.56344,53.71402],[-2.56356,53.71382],[-2.56345,53.71378],[-2.56327,53.71381],[-2.56331,53.71384]]]]}},
{ "type":"Feature","properties":{"osm_way_id":"406764458","amenity":"parking","other":{"access":"private","park_ride":"no","parking":"surface","supervised":"no","surface":"asphalt"}}, "geometry":{"type":"MultiPolygon","coordinates":[[[[-2.64586,53.66099],[-2.64615,53.66102],[-2.64618,53.66092],[-2.64589,53.66089],[-2.64586,53.66099]]]]}},
{ "type":"Feature","properties":{"osm_way_id":"410328936","amenity":"parking","other":{"access":"yes","fee":"yes","parking":"surface","surface":"compacted"}}, "geometry":{"type":"MultiPolygon","coordinates":[[[[-2.63563,53.66649],[-2.63557,53.66651],[-2.6356,53.66653],[-2.63546,53.66658],[-2.63536,53.66647],[-2.63532,53.66637],[-2.63525,53.66603],[-2.63542,53.66602],[-2.63543,53.66608],[-2.63551,53.66607],[-2.63554,53.66624],[-2.63557,53.66639],[-2.63563,53.66649]]]]}},
{ "type":"Feature","properties":{"osm_way_id":"410330551","amenity":"parking","other":{"access":"private","fee":"yes","parking":"multi-storey"}}, "geometry":{"type":"MultiPolygon","coordinates":[[[[-2.63865,53.66687],[-2.63864,53.66683],[-2.63852,53.66647],[-2.63844,53.66648],[-2.63833,53.66611],[-2.6387,53.66607],[-2.63872,53.66612],[-2.6388,53.66611],[-2.63902,53.66678],[-2.63894,53.66679],[-2.63895,53.66683],[-2.63865,53.66687]]]]}},
{ "type":"Feature","properties":{"osm_way_id":"410330559","name":"K","amenity":"parking","other":{"access":"yes","fee":"yes","opening_hours":"24\/7","operator":"Lancashire Teaching Hospitals","parking":"surface","surface":"asphalt"}}, "geometry":{"type":"MultiPolygon","coordinates":[[[[-2.63794,53.66676],[-2.63767,53.66647],[-2.63747,53.66655],[-2.63729,53.66658],[-2.63712,53.6666],[-2.63689,53.66661],[-2.63671,53.6666],[-2.63652,53.66661],[-2.63655,53.66666],[-2.63644,53.66668],[-2.6364,53.66671],[-2.63647,53.66675],[-2.63645,53.66676],[-2.63634,53.66673],[-2.63631,53.66676],[-2.6363,53.66681],[-2.63632,53.66686],[-2.63637,53.66689],[-2.63643,53.66692],[-2.63649,53.66693],[-2.63713,53.66694],[-2.63722,53.66693],[-2.63733,53.66692],[-2.63752,53.66688],[-2.63789,53.66678],[-2.63794,53.66676]]]]}},
{ "type":"Feature","properties":{"osm_way_id":"410331528","amenity":"parking","other":{"access":"private","lit":"yes","parking":"surface","smoothness":"good","surface":"asphalt"}}, "geometry":{"type":"MultiPolygon","coordinates":[[[[-2.63761,53.6656],[-2.63753,53.66563],[-2.63737,53.66563],[-2.63725,53.66564],[-2.63724,53.66561],[-2.63699,53.66562],[-2.63695,53.66542],[-2.63675,53.66543],[-2.63674,53.66539],[-2.63652,53.6654],[-2.63649,53.66518],[-2.63663,53.66518],[-2.6367,53.66516],[-2.63678,53.66517],[-2.63685,53.66516],[-2.63697,53.66516],[-2.63709,53.66516],[-2.63718,53.66516],[-2.63726,53.66517],[-2.63735,53.6652],[-2.63743,53.66523],[-2.6375,53.66528],[-2.63755,53.66534],[-2.63757,53.66539],[-2.63761,53.6656]]]]}},
{ "type":"Feature","properties":{"osm_way_id":"429896204","amenity":"parking","other":{"access":"destination"}}, "geometry":{"type":"MultiPolygon","coordinates":[[[[-2.62372,53.66022],[-2.62368,53.66007],[-2.62287,53.66016],[-2.62292,53.6603],[-2.62301,53.6603],[-2.6233,53.66026],[-2.62372,53.66022]]]]}},
{ "type":"Feature","properties":{"osm_way_id":"441117491","amenity":"parking","other":{"access":"private"}}, "geometry":{"type":"MultiPolygon","coordinates":[[[[-2.63013,53.64671],[-2.63031,53.64663],[-2.62995,53.6463],[-2.62997,53.64628],[-2.63039,53.64605],[-2.63024,53.64596],[-2.62974,53.64628],[-2.63013,53.64671]]]]}},
{ "type":"Feature","properties":{"osm_way_id":"462337739","amenity":"parking","other":{"fee":"no","park_ride":"no","parking":"surface","supervised":"no"}}, "geometry":{"type":"MultiPolygon","coordinates":[[[[-2.58675,53.70064],[-2.58671,53.70055],[-2.58651,53.70046],[-2.58645,53.70058],[-2.58675,53.70064]]]]}},
{ "type":"Feature","properties":{"osm_way_id":"462873988","amenity":"parking","other":{"access":"customers"}}, "geometry":{"type":"MultiPolygon","coordinates":[[[[-1.44571,52.88024],[-1.44565,52.88026],[-1.4456,52.88027],[-1.44554,52.88027],[-1.44549,52.88027],[-1.44548,52.88024],[-1.44532,52.88004],[-1.44527,52.88006],[-1.44523,52.88007],[-1.44519,52.88004],[-1.44496,52.8801],[-1.44495,52.88011],[-1.44496,52.88012],[-1.44499,52.88013],[-1.44502,52.88018],[-1.44511,52.88016],[-1.44518,52.88024],[-1.4451,52.88026],[-1.44496,52.8803],[-1.44494,52.88027],[-1.44492,52.88026],[-1.44484,52.88017],[-1.4449,52.88016],[-1.44486,52.8801],[-1.44486,52.88009],[-1.44482,52.88004],[-1.44501,52.87998],[-1.44507,52.87996],[-1.44549,52.87985],[-1.44555,52.87994],[-1.44553,52.87999],[-1.44566,52.88021],[-1.44571,52.88024]]]]}},
{ "type":"Feature","properties":{"osm_way_id":"509623391","name":"Horden Stoops","amenity":"parking","other":{"access":"permissive","capacity":"5","fee":"no","park_ride":"no","parking":"surface","supervised":"no","surface":"asphalt"}}, "geometry":{"type":"MultiPolygon","coordinates":[[[[-2.52345,53.63832],[-2.52336,53.63833],[-2.52321,53.63831],[-2.52312,53.63834],[-2.52322,53.63826],[-2.52334,53.63818],[-2.52339,53.63816],[-2.52341,53.63821],[-2.52345,53.63832]]]]}},
{ "type":"Feature","properties":{"osm_way_id":"533256679","amenity":"parking","other":{"access":"customers"}}, "geometry":{"type":"MultiPolygon","coordinates":[[[[-0.11258,51.58588],[-0.11262,51.58591],[-0.11278,51.58594],[-0.11281,51.58591],[-0.11288,51.58581],[-0.11293,51.58582],[-0.11299,51.58571],[-0.11317,51.58576],[-0.11332,51.58573],[-0.11335,51.58566],[-0.11335,51.58561],[-0.11315,51.58564],[-0.11296,51.58567],[-0.11275,51.58575],[-0.11264,51.58582],[-0.11258,51.58588]]]]}},
{ "type":"Feature","properties":{"osm_way_id":"554315742","amenity":"parking","other":{"access":"customers","fee":"no"}}, "geometry":{"type":"MultiPolygon","coordinates":[[[[-2.62097,53.667],[-2.62069,53.66678],[-2.62005,53.66704],[-2.62021,53.66734],[-2.62037,53.66766],[-2.62082,53.66748],[-2.62072,53.66739],[-2.6206,53.66728],[-2.6209,53.66715],[-2.62081,53.66707],[-2.62097,53.667]]]]}},
{ "type":"Feature","properties":{"osm_way_id":"554493845","amenity":"parking","other":{"access":"customers"}}, "geometry":{"type":"MultiPolygon","coordinates":[[[[-2.63104,53.64837],[-2.63129,53.64843],[-2.63242,53.6487],[-2.63223,53.64894],[-2.63222,53.64896],[-2.6323,53.64901],[-2.63237,53.64904],[-2.63201,53.64946],[-2.63194,53.64943],[-2.63171,53.64948],[-2.6317,53.64951],[-2.63149,53.64958],[-2.63146,53.64959],[-2.63084,53.64897],[-2.63071,53.64902],[-2.6306,53.649],[-2.63025,53.64864],[-2.63044,53.64857],[-2.63062,53.64851],[-2.63075,53.64847],[-2.63104,53.64837]]]]}},
{ "type":"Feature","properties":{"osm_way_id":"564474984","amenity":"parking"},"geometry":{"type":"MultiPolygon","coordinates":[[[[-2.62518,53.65261],[-2.62471,53.65263],[-2.62469,53.65247],[-2.62516,53.65246],[-2.62518,53.65261]]]]}},
{ "type":"Feature","properties":{"osm_way_id":"567899710","amenity":"parking","other":{"capacity":"24","operator":"Chorley Borough Council","parking":"surface","smoothness":"intermediate","surface":"asphalt"}}, "geometry":{"type":"MultiPolygon","coordinates":[[[[-2.63412,53.64718],[-2.63361,53.64705],[-2.63368,53.64694],[-2.63419,53.64707],[-2.63412,53.64718]]]]}},
{ "type":"Feature","properties":{"osm_way_id":"568472540","amenity":"parking","other":{"access":"customers","parking":"surface","surface":"unpaved"}}, "geometry":{"type":"MultiPolygon","coordinates":[[[[-2.62481,53.64912],[-2.62512,53.64912],[-2.62505,53.6492],[-2.62491,53.64924],[-2.62484,53.64924],[-2.62481,53.64912]]]]}},
{ "type":"Feature","properties":{"osm_way_id":"568560921","amenity":"parking","other":{"access":"yes","fee":"no","parking":"surface","surface":"asphalt"}}, "geometry":{"type":"MultiPolygon","coordinates":[[[[-2.62818,53.66221],[-2.6279,53.66221],[-2.62794,53.66194],[-2.628,53.66177],[-2.62828,53.66185],[-2.62818,53.66221]]]]}},
{ "type":"Feature","properties":{"osm_way_id":"571119349","amenity":"parking","landuse":"retail","other":{"access":"permissive","fee":"no","operator":"Central Tyre","operator:type":"private","parking":"surface","surface":"asphalt"}}, "geometry":{"type":"MultiPolygon","coordinates":[[[[-2.62828,53.66185],[-2.62837,53.66168],[-2.62839,53.66156],[-2.62805,53.66156],[-2.628,53.66177],[-2.62828,53.66185]]]]}},
{ "type":"Feature","properties":{"osm_way_id":"571119351","amenity":"parking","other":{"access":"permissive","fee":"no","operator":"City Plumbing Supplies","operator:type":"private","parking":"surface","surface":"asphalt"}}, "geometry":{"type":"MultiPolygon","coordinates":[[[[-2.6282,53.66249],[-2.62818,53.66221],[-2.6279,53.66221],[-2.62795,53.66249],[-2.6282,53.66249]]]]}},
{ "type":"Feature","properties":{"osm_way_id":"577722383","name":"Friday Street North","amenity":"parking","other":{"access":"yes","fee":"yes","lit":"yes","operator":"Chorley Borogh Council","parking":"surface","smoothness":"good","surface":"asphalt"}}, "geometry":{"type":"MultiPolygon","coordinates":[[[[-2.62728,53.65469],[-2.62737,53.65506],[-2.62652,53.65508],[-2.62646,53.65471],[-2.62728,53.65469]]]]}},
{ "type":"Feature","properties":{"osm_way_id":"577722384","name":"Friday Street","amenity":"parking","other":{"access":"yes","capacity":"316","fee":"yes","operator":"Chorley Borough Council","surface":"asphalt"}}, "geometry":{"type":"MultiPolygon","coordinates":[[[[-2.62716,53.65393],[-2.6264,53.65392],[-2.62646,53.65471],[-2.62728,53.65469],[-2.62716,53.65393]]]]}},
{ "type":"Feature","properties":{"osm_way_id":"577725899","name":"Portland Street","amenity":"parking","other":{"access":"yes","capacity":"101","capacity:disabled":"10","fee":"yes","operator":"Chorley Borough Council","operator:type":"government","parking":"surface","surface":"asphalt"}}, "geometry":{"type":"MultiPolygon","coordinates":[[[[-2.62795,53.65469],[-2.62769,53.65371],[-2.62752,53.65362],[-2.62736,53.65363],[-2.62737,53.6538],[-2.6274,53.65393],[-2.62757,53.65474],[-2.62793,53.65475],[-2.62795,53.65469]]]]}},
{ "type":"Feature","properties":{"osm_way_id":"580172010","name":"West Street","amenity":"parking","other":{"access":"yes","capacity":"114","fee":"yes","operator":"Chorley Borough Council","operator:type":"public","parking":"surface","surface":"asphalt"}}, "geometry":{"type":"MultiPolygon","coordinates":[[[[-2.63496,53.65215],[-2.63375,53.65205],[-2.63376,53.65203],[-2.63332,53.65202],[-2.63334,53.65174],[-2.63453,53.65184],[-2.63448,53.65203],[-2.63499,53.65208],[-2.63496,53.65215]]]]}},
{ "type":"Feature","properties":{"osm_way_id":"580531493","name":"Fleet Street Long Stay","amenity":"parking","other":{"access":"yes","fee":"yes","operator":"Chorley Borogh Council","operator:type":"public","parking":"surface","surface":"asphalt"}}, "geometry":{"type":"MultiPolygon","coordinates":[[[[-2.63256,53.65085],[-2.6325,53.65075],[-2.63233,53.65076],[-2.63228,53.65061],[-2.63218,53.65062],[-2.63216,53.6505],[-2.63235,53.65038],[-2.6324,53.65035],[-2.63263,53.65052],[-2.63308,53.65069],[-2.63283,53.65103],[-2.6328,53.65102],[-2.63256,53.65085]]]]}},
{ "type":"Feature","properties":{"osm_way_id":"580934328","amenity":"parking","other":{"access":"private"}}, "geometry":{"type":"MultiPolygon","coordinates":[[[[-2.63397,53.65317],[-2.63418,53.65304],[-2.63435,53.65304],[-2.63437,53.65316],[-2.63438,53.65323],[-2.63462,53.65323],[-2.63467,53.65343],[-2.63468,53.65346],[-2.63421,53.6535],[-2.6342,53.65346],[-2.63419,53.65343],[-2.63417,53.65341],[-2.63414,53.65322],[-2.63403,53.65322],[-2.63397,53.65317]]]]}},
{ "type":"Feature","properties":{"osm_way_id":"580935631","name":"St Mary's","amenity":"parking","other":{"access":"yes","capacity":"44","fee":"yes","operator":"Chorley Borough Council","parking":"surface","smoothness":"good","surface":"asphalt"}}, "geometry":{"type":"MultiPolygon","coordinates":[[[[-2.6336,53.65267],[-2.63377,53.65262],[-2.63378,53.6526],[-2.63386,53.65258],[-2.63419,53.6526],[-2.63416,53.65295],[-2.63407,53.65297],[-2.6336,53.65294],[-2.6336,53.65267]]]]}},
{ "type":"Feature","properties":{"osm_way_id":"581301325","amenity":"parking"},"geometry":{"type":"MultiPolygon","coordinates":[[[[-2.63769,53.63838],[-2.63827,53.63849],[-2.63823,53.63855],[-2.63815,53.63867],[-2.63808,53.63877],[-2.63747,53.63867],[-2.63765,53.63838],[-2.63769,53.63838]]]]}},
{ "type":"Feature","properties":{"osm_way_id":"581301326","amenity":"parking"},"geometry":{"type":"MultiPolygon","coordinates":[[[[-2.63889,53.63879],[-2.63894,53.63866],[-2.63869,53.63862],[-2.63859,53.63881],[-2.63848,53.63885],[-2.63837,53.63883],[-2.63831,53.6389],[-2.63809,53.63907],[-2.63807,53.63907],[-2.6379,53.63914],[-2.63813,53.63925],[-2.63865,53.63886],[-2.63889,53.63879]]]]}},
{ "type":"Feature","properties":{"osm_way_id":"582000351","name":"Queens Road Car Park","amenity":"parking","other":{"capacity":"95","surface":"asphalt"}}, "geometry":{"type":"MultiPolygon","coordinates":[[[[-2.63519,53.65462],[-2.63447,53.65479],[-2.63448,53.655],[-2.63462,53.65504],[-2.63486,53.65516],[-2.6352,53.65524],[-2.63533,53.6552],[-2.63525,53.65473],[-2.6352,53.65465],[-2.63519,53.65462]]]]}},
{ "type":"Feature","properties":{"osm_way_id":"582487554","amenity":"parking","other":{"access":"customers"}}, "geometry":{"type":"MultiPolygon","coordinates":[[[[-2.62778,53.66004],[-2.62706,53.65998],[-2.62712,53.65975],[-2.62738,53.65977],[-2.62736,53.65985],[-2.62781,53.65988],[-2.62778,53.66004]]]]}},
{ "type":"Feature","properties":{"osm_way_id":"582487555","amenity":"parking","other":{"access":"customers"}}, "geometry":{"type":"MultiPolygon","coordinates":[[[[-2.62696,53.66069],[-2.62697,53.66092],[-2.62696,53.66102],[-2.62716,53.66097],[-2.62753,53.66084],[-2.62805,53.66056],[-2.62815,53.66017],[-2.62767,53.66013],[-2.62764,53.66033],[-2.62759,53.66072],[-2.62696,53.66069]]]]}},
{ "type":"Feature","properties":{"osm_way_id":"582487560","amenity":"parking","other":{"access":"customers"}}, "geometry":{"type":"MultiPolygon","coordinates":[[[[-2.62826,53.65983],[-2.62791,53.65981],[-2.62791,53.65968],[-2.628,53.65923],[-2.62809,53.65923],[-2.6281,53.65918],[-2.62837,53.6592],[-2.62836,53.65928],[-2.62833,53.65944],[-2.62831,53.65959],[-2.62828,53.65975],[-2.62826,53.65983]]]]}},
{ "type":"Feature","properties":{"osm_way_id":"583521391","name":"The Top Lock Car Park","amenity":"parking","other":{"access":"customers"}}, "geometry":{"type":"MultiPolygon","coordinates":[[[[-2.61338,53.68681],[-2.61361,53.68674],[-2.61348,53.6866],[-2.6135,53.68636],[-2.61324,53.68636],[-2.61324,53.68656],[-2.61329,53.68668],[-2.61338,53.68681]]]]}},
{ "type":"Feature","properties":{"osm_way_id":"583913483","amenity":"parking","other":{"access":"customers"}}, "geometry":{"type":"MultiPolygon","coordinates":[[[[-2.62741,53.65081],[-2.62725,53.65082],[-2.62723,53.65078],[-2.62718,53.65077],[-2.62695,53.65079],[-2.62693,53.65073],[-2.62705,53.65071],[-2.62729,53.65069],[-2.62738,53.65068],[-2.62741,53.65081]]]]}},
{ "type":"Feature","properties":{"osm_way_id":"583916143","amenity":"parking","other":{"access":"private"}}, "geometry":{"type":"MultiPolygon","coordinates":[[[[-2.62791,53.65127],[-2.62748,53.65131],[-2.62744,53.65115],[-2.62787,53.6511],[-2.62791,53.65127]]]]}},
{ "type":"Feature","properties":{"osm_way_id":"583925638","amenity":"parking","other":{"access":"customers"}}, "geometry":{"type":"MultiPolygon","coordinates":[[[[-2.61255,53.68158],[-2.6122,53.68175],[-2.61192,53.68154],[-2.61181,53.68153],[-2.61161,53.68138],[-2.61198,53.68124],[-2.61238,53.68147],[-2.61255,53.68158]]]]}},
{ "type":"Feature","properties":{"osm_way_id":"585642995","name":"Hollinshead Street","amenity":"parking","other":{"capacity":"69","fee":"yes","operator":"Chorley Borough Council","parking":"surface","surface":"asphalt"}}, "geometry":{"type":"MultiPolygon","coordinates":[[[[-2.63039,53.6556],[-2.63018,53.65565],[-2.63005,53.65549],[-2.62979,53.65555],[-2.62975,53.65549],[-2.62969,53.65541],[-2.62974,53.65539],[-2.62959,53.65516],[-2.62981,53.65514],[-2.62994,53.65513],[-2.63003,53.65512],[-2.63011,53.65512],[-2.63013,53.65515],[-2.63035,53.65545],[-2.63038,53.6555],[-2.63033,53.65551],[-2.63039,53.6556]]]]}},
{ "type":"Feature","properties":{"osm_way_id":"586068966","amenity":"parking","other":{"access":"customers","capacity":"16","fee":"no","smoothness":"intermediate","surface":"asphalt"}}, "geometry":{"type":"MultiPolygon","coordinates":[[[[-2.63588,53.68884],[-2.63589,53.68885],[-2.63606,53.68883],[-2.63604,53.68874],[-2.63591,53.68854],[-2.63571,53.68858],[-2.63575,53.68865],[-2.63579,53.68865],[-2.63582,53.68872],[-2.63585,53.68871],[-2.63588,53.68876],[-2.63585,53.68877],[-2.63588,53.68884]]]]}},
{ "type":"Feature","properties":{"osm_way_id":"587140133","amenity":"parking"},"geometry":{"type":"MultiPolygon","coordinates":[[[[-2.64184,53.64137],[-2.6421,53.64132],[-2.6422,53.64148],[-2.64205,53.64155],[-2.64187,53.64146],[-2.64182,53.64137],[-2.64184,53.64137]]]]}},
{ "type":"Feature","properties":{"osm_way_id":"591043477","amenity":"parking","other":{"access":"customers","fee":"yes"}}, "geometry":{"type":"MultiPolygon","coordinates":[[[[-2.63329,53.65179],[-2.63283,53.65176],[-2.63283,53.65173],[-2.63261,53.65173],[-2.6325,53.65174],[-2.63247,53.65167],[-2.63268,53.65167],[-2.63269,53.65149],[-2.63292,53.65152],[-2.63288,53.65167],[-2.63296,53.65167],[-2.63297,53.65163],[-2.63305,53.65163],[-2.63304,53.65167],[-2.63329,53.65169],[-2.63329,53.65179]]]]}},
{ "type":"Feature","properties":{"osm_way_id":"591187941","amenity":"parking","other":{"access":"customers"}}, "geometry":{"type":"MultiPolygon","coordinates":[[[[-2.61867,53.65757],[-2.61868,53.65747],[-2.61895,53.65748],[-2.61894,53.65759],[-2.61867,53.65757]]]]}},
{ "type":"Feature","properties":{"osm_way_id":"591360660","amenity":"parking","other":{"access":"customers"}}, "geometry":{"type":"MultiPolygon","coordinates":[[[[-2.65018,53.65539],[-2.64972,53.65533],[-2.64979,53.65513],[-2.65026,53.65518],[-2.65018,53.65539]]]]}},
{ "type":"Feature","properties":{"osm_way_id":"591360661","amenity":"parking","other":{"access":"customers"}}, "geometry":{"type":"MultiPolygon","coordinates":[[[[-2.6495,53.65483],[-2.64918,53.6548],[-2.64922,53.65467],[-2.64906,53.65466],[-2.6492,53.65415],[-2.64947,53.65417],[-2.64955,53.65388],[-2.65001,53.65393],[-2.64991,53.65427],[-2.64983,53.65426],[-2.64971,53.65472],[-2.64953,53.65471],[-2.6495,53.65483]]]]}},
{ "type":"Feature","properties":{"osm_way_id":"594089954","name":"Farrington Street","amenity":"parking","other":{"access":"yes","capacity":"50","capacity:disabled":"2","fee":"yes","operator":"Chorley Borough Council","parking":"surface","smoothness":"good","surface":"asphalt"}}, "geometry":{"type":"MultiPolygon","coordinates":[[[[-2.6336,53.65458],[-2.63399,53.65458],[-2.63406,53.65458],[-2.6344,53.65458],[-2.6344,53.65438],[-2.63372,53.65439],[-2.63369,53.65442],[-2.63368,53.65445],[-2.63367,53.65453],[-2.63363,53.65454],[-2.6336,53.65458]]]]}},
{ "type":"Feature","properties":{"osm_way_id":"594095169","name":"Back Mount Street","amenity":"parking","other":{"access":"yes","capacity":"25","fee":"yes","operator":"Chorley Borough Council","parking":"surface","smoothness":"good","surface":"asphalt"}}, "geometry":{"type":"MultiPolygon","coordinates":[[[[-2.63384,53.65425],[-2.63373,53.65411],[-2.63366,53.65406],[-2.63365,53.65405],[-2.63359,53.65403],[-2.63357,53.65408],[-2.63348,53.65417],[-2.63357,53.65427],[-2.63374,53.65422],[-2.63377,53.65427],[-2.63384,53.65425]]]]}},
{ "type":"Feature","properties":{"osm_way_id":"595878599","amenity":"parking","other":{"access":"private","fee":"yes","parking":"surface","surface":"asphalt"}}, "geometry":{"type":"MultiPolygon","coordinates":[[[[-2.63284,53.65226],[-2.63284,53.6522],[-2.63279,53.6522],[-2.63279,53.652],[-2.63272,53.65201],[-2.63272,53.65209],[-2.63256,53.6521],[-2.63263,53.65227],[-2.63284,53.65226]]]]}},
{ "type":"Feature","properties":{"osm_way_id":"602202947","name":"Croston Station Car Park","amenity":"parking","other":{"access":"permissive","capacity":"35","capacity:disabled":"3","fee":"no","lit":"yes","operator":"Northern","park_ride":"train","parking":"surface","smoothness":"good","supervised":"no","surface":"asphalt"}}, "geometry":{"type":"MultiPolygon","coordinates":[[[[-2.77744,53.6675],[-2.7772,53.66737],[-2.77704,53.66717],[-2.77703,53.66715],[-2.77691,53.66706],[-2.77708,53.66707],[-2.7772,53.66705],[-2.77735,53.66716],[-2.77784,53.66737],[-2.77779,53.66743],[-2.77744,53.6675]]]]}},
{ "type":"Feature","properties":{"osm_way_id":"602750575","name":"Overflow","amenity":"parking","other":{"access":"customers","capacity":"50","fee":"yes","parking":"surface","smoothness":"intermediate","surface":"asphalt"}}, "geometry":{"type":"MultiPolygon","coordinates":[[[[-2.67893,53.64523],[-2.67805,53.64529],[-2.67821,53.64493],[-2.67885,53.64495],[-2.67893,53.64523]]]]}},
{ "type":"Feature","properties":{"osm_way_id":"602750576","amenity":"parking","other":{"access":"customers","capacity":"50","capacity:disabled":"2","fee":"no","parking":"surface","smoothness":"good","surface":"asphalt"}}, "geometry":{"type":"MultiPolygon","coordinates":[[[[-2.678,53.64582],[-2.67795,53.64573],[-2.67799,53.64567],[-2.67817,53.64563],[-2.67819,53.64561],[-2.67822,53.64562],[-2.67829,53.64554],[-2.67824,53.64546],[-2.6784,53.64542],[-2.67838,53.64535],[-2.67797,53.64543],[-2.67787,53.64556],[-2.67775,53.64562],[-2.6776,53.64574],[-2.67742,53.64591],[-2.67764,53.64592],[-2.6777,53.64586],[-2.67783,53.64586],[-2.678,53.64582]]]]}},
{ "type":"Feature","properties":{"osm_way_id":"602753145","amenity":"parking","other":{"access":"customers","parking":"surface"}}, "geometry":{"type":"MultiPolygon","coordinates":[[[[-2.67851,53.6415],[-2.67847,53.6414],[-2.67854,53.64139],[-2.67852,53.64134],[-2.6786,53.64133],[-2.67853,53.64117],[-2.67845,53.64118],[-2.67836,53.64099],[-2.67874,53.64092],[-2.67895,53.64143],[-2.67851,53.6415]]]]}},
{ "type":"Feature","properties":{"osm_way_id":"603668479","amenity":"parking","other":{"access":"customers","surface":"asphalt"}}, "geometry":{"type":"MultiPolygon","coordinates":[[[[-2.67951,53.62587],[-2.67938,53.62562],[-2.67936,53.62558],[-2.67903,53.6256],[-2.67906,53.62585],[-2.67922,53.62588],[-2.67931,53.6259],[-2.67934,53.6259],[-2.67951,53.62587]]]]}},
{ "type":"Feature","properties":{"osm_way_id":"603956974","amenity":"parking","other":{"access":"customers","capacity":"70","fee":"no","parking":"surface","smoothness":"intermediate","surface":"asphalt"}}, "geometry":{"type":"MultiPolygon","coordinates":[[[[-2.75278,53.6643],[-2.75317,53.66394],[-2.75299,53.66387],[-2.75311,53.66377],[-2.75322,53.66366],[-2.75257,53.6634],[-2.75246,53.66352],[-2.75239,53.66364],[-2.75292,53.66385],[-2.75291,53.66387],[-2.75289,53.66389],[-2.75239,53.66371],[-2.75219,53.66401],[-2.75243,53.66409],[-2.75267,53.66422],[-2.75278,53.6643]]]]}},
{ "type":"Feature","properties":{"osm_way_id":"603979900","amenity":"parking"},"geometry":{"type":"MultiPolygon","coordinates":[[[[-2.77784,53.66229],[-2.77808,53.66222],[-2.77818,53.66234],[-2.77794,53.66241],[-2.77784,53.66229]]]]}},
{ "type":"Feature","properties":{"osm_way_id":"610814225","name":"Cleveland Street","amenity":"parking","other":{"access":"yes","capacity":"70","capacity:charging":"1","capacity:disabled":"3","fee":"Mo-Fr 08:00-17:00,Sa 08:00-13:00","lit":"yes","maxstay":"180","opening_hours":"24\/7","operator":"Chorley Borough Council","parking":"surface","smoothness":"good","surface":"asphalt"}}, "geometry":{"type":"MultiPolygon","coordinates":[[[[-2.6324,53.6539],[-2.63234,53.65373],[-2.63226,53.6537],[-2.63156,53.65376],[-2.63149,53.65381],[-2.63148,53.65403],[-2.6324,53.6539]]]]}},
{ "type":"Feature","properties":{"osm_way_id":"614915344","name":"The Black Horse","amenity":"parking","other":{"access":"customers","capacity":"20","lit":"no","parking":"surface","surface":"gravel"}}, "geometry":{"type":"MultiPolygon","coordinates":[[[[-2.60385,53.64218],[-2.60365,53.642],[-2.60385,53.6419],[-2.60405,53.64206],[-2.60385,53.64218]]]]}},
{ "type":"Feature","properties":{"osm_way_id":"615298826","amenity":"parking","other":{"access":"customers","parking":"surface","surface":"asphalt"}}, "geometry":{"type":"MultiPolygon","coordinates":[[[[-2.60978,53.64599],[-2.60952,53.64587],[-2.60935,53.64577],[-2.60927,53.64581],[-2.60922,53.64576],[-2.6091,53.64582],[-2.60926,53.64594],[-2.6094,53.64602],[-2.60964,53.64609],[-2.60978,53.64599]]]]}},
{ "type":"Feature","properties":{"osm_way_id":"615819385","name":"Bygone Times","amenity":"parking","other":{"access":"customers","fee":"no","parking":"surface","surface":"gravel"}}, "geometry":{"type":"MultiPolygon","coordinates":[[[[-2.72161,53.64181],[-2.72126,53.6417],[-2.72172,53.64116],[-2.72205,53.64118],[-2.72211,53.64127],[-2.72166,53.64174],[-2.72161,53.64181]]]]}},
{ "type":"Feature","properties":{"osm_way_id":"615890020","name":"Carrignton Centre Car Park","amenity":"parking","other":{"capacity":"60","fee":"no","lit":"yes","parking":"surface","smoothness":"good","surface":"asphalt"}}, "geometry":{"type":"MultiPolygon","coordinates":[[[[-2.72465,53.64605],[-2.72363,53.64614],[-2.7236,53.64604],[-2.72328,53.64608],[-2.72332,53.64625],[-2.72317,53.64626],[-2.72311,53.6461],[-2.72281,53.64613],[-2.72278,53.64598],[-2.72317,53.64594],[-2.72334,53.64593],[-2.72392,53.64586],[-2.72424,53.64597],[-2.72462,53.64594],[-2.72465,53.64605]]]]}},
{ "type":"Feature","properties":{"osm_way_id":"617203508","amenity":"parking","other":{"access":"permissive","parking":"surface","surface":"ground"}}, "geometry":{"type":"MultiPolygon","coordinates":[[[[-2.63426,53.65368],[-2.63425,53.65366],[-2.63421,53.6535],[-2.6342,53.65346],[-2.63378,53.65348],[-2.63384,53.65371],[-2.63426,53.65368]]]]}},
{ "type":"Feature","properties":{"osm_way_id":"631093450","amenity":"parking","other":{"access":"private","parking":"surface"}}, "geometry":{"type":"MultiPolygon","coordinates":[[[[-2.63173,53.63888],[-2.63121,53.63877],[-2.63093,53.63906],[-2.63085,53.63903],[-2.6307,53.63919],[-2.63143,53.63938],[-2.63159,53.63912],[-2.63173,53.63888]]]]}},
{ "type":"Feature","properties":{"osm_way_id":"639777862","amenity":"parking","other":{"access":"permissive","capacity":"20","fee":"no","parking":"surface","surface":"asphalt"}}, "geometry":{"type":"MultiPolygon","coordinates":[[[[-2.66213,53.61981],[-2.66206,53.61982],[-2.66208,53.61988],[-2.6618,53.61991],[-2.66178,53.61985],[-2.66178,53.61985],[-2.66176,53.61977],[-2.66211,53.61973],[-2.66213,53.61981]]]]}},
{ "type":"Feature","properties":{"osm_way_id":"643070761","amenity":"parking","other":{"access":"customers","parking":"surface"}}, "geometry":{"type":"MultiPolygon","coordinates":[[[[-2.67448,53.66266],[-2.67449,53.66251],[-2.67445,53.6625],[-2.67418,53.66251],[-2.67417,53.66267],[-2.67432,53.66266],[-2.67448,53.66266]]]]}},
{ "type":"Feature","properties":{"osm_way_id":"668836308","amenity":"parking"},"geometry":{"type":"MultiPolygon","coordinates":[[[[-2.55789,53.60333],[-2.55789,53.60335],[-2.55789,53.60339],[-2.55789,53.60353],[-2.55712,53.60352],[-2.55713,53.60341],[-2.55703,53.60341],[-2.55704,53.6032],[-2.55708,53.6032],[-2.55744,53.6032],[-2.55744,53.60332],[-2.55789,53.60333]]]]}},
{ "type":"Feature","properties":{"osm_way_id":"670882699","amenity":"parking","other":{"access":"private","capacity":"50","operator":"Royal Mail","parking":"surface","surface":"concrete"}}, "geometry":{"type":"MultiPolygon","coordinates":[[[[-2.62619,53.65337],[-2.62634,53.65291],[-2.62551,53.65295],[-2.62565,53.65325],[-2.62566,53.65339],[-2.62619,53.65337]]]]}},
{ "type":"Feature","properties":{"osm_way_id":"673847391","amenity":"parking","other":{"fee":"no","lit":"no","parking":"surface","surface":"asphalt"}}, "geometry":{"type":"MultiPolygon","coordinates":[[[[-2.60215,53.61757],[-2.60226,53.6175],[-2.60189,53.6173],[-2.60181,53.61736],[-2.60178,53.61738],[-2.60215,53.61757]]]]}},
{ "type":"Feature","properties":{"osm_way_id":"676513238","amenity":"parking","other":{"access":"customers","parking":"surface","surface":"asphalt"}}, "geometry":{"type":"MultiPolygon","coordinates":[[[[-2.63456,53.6428],[-2.63453,53.64278],[-2.63434,53.64267],[-2.634,53.64289],[-2.63422,53.64301],[-2.63456,53.6428]]]]}},
{ "type":"Feature","properties":{"osm_way_id":"677062986","name":"St Mary Car Park","amenity":"parking","other":{"access":"customers","fee":"no","parking":"surface"}}, "geometry":{"type":"MultiPolygon","coordinates":[[[[-2.73503,53.65424],[-2.73527,53.65425],[-2.73547,53.65421],[-2.73541,53.65402],[-2.73521,53.65403],[-2.73512,53.65377],[-2.73495,53.6538],[-2.73497,53.65405],[-2.73503,53.65424]]]]}},
{ "type":"Feature","properties":{"osm_way_id":"678684366","amenity":"parking","other":{"access":"private","operator":"Chorley Subscription Bowling Club","parking":"surface","surface":"asphalt"}}, "geometry":{"type":"MultiPolygon","coordinates":[[[[-2.63999,53.65295],[-2.63953,53.65294],[-2.63952,53.65293],[-2.63903,53.65292],[-2.63903,53.6528],[-2.63906,53.6528],[-2.63976,53.65281],[-2.63981,53.65279],[-2.64001,53.65279],[-2.63999,53.65295]]]]}},
{ "type":"Feature","properties":{"osm_way_id":"679225663","amenity":"parking","other":{"access":"private","parking":"surface"}}, "geometry":{"type":"MultiPolygon","coordinates":[[[[-2.64029,53.65332],[-2.64022,53.65332],[-2.64009,53.65331],[-2.64011,53.65318],[-2.64011,53.65318],[-2.64031,53.65319],[-2.64029,53.65332]]]]}},
{ "type":"Feature","properties":{"osm_way_id":"679225665","amenity":"parking","other":{"access":"private","parking":"surface"}}, "geometry":{"type":"MultiPolygon","coordinates":[[[[-2.63991,53.65329],[-2.63986,53.65329],[-2.63956,53.65321],[-2.63951,53.65328],[-2.63948,53.65327],[-2.63944,53.65326],[-2.63948,53.65315],[-2.63994,53.65316],[-2.63991,53.65329]]]]}},
{ "type":"Feature","properties":{"osm_way_id":"680033900","amenity":"parking","other":{"access":"private","capacity":"60","parking":"surface","smoothness":"good","surface":"asphalt"}}, "geometry":{"type":"MultiPolygon","coordinates":[[[[-2.63776,53.66048],[-2.63777,53.66075],[-2.63729,53.66074],[-2.63729,53.66078],[-2.63717,53.66079],[-2.63709,53.66078],[-2.63707,53.66054],[-2.63707,53.66053],[-2.63707,53.6603],[-2.63776,53.66048]]]]}},
{ "type":"Feature","properties":{"osm_way_id":"680141858","amenity":"parking","other":{"access":"private","operator":"Chorley Borough Council","parking":"surface","surface":"asphalt"}}, "geometry":{"type":"MultiPolygon","coordinates":[[[[-2.63492,53.65423],[-2.63493,53.65428],[-2.63437,53.65433],[-2.63436,53.65428],[-2.63492,53.65423]]]]}},
{ "type":"Feature","properties":{"osm_way_id":"680141861","amenity":"parking","other":{"access":"private","parking":"surface","surface":"asphalt"}}, "geometry":{"type":"MultiPolygon","coordinates":[[[[-2.6343,53.6542],[-2.63436,53.65428],[-2.63492,53.65423],[-2.63498,53.65422],[-2.63485,53.65374],[-2.63465,53.65376],[-2.63475,53.65416],[-2.6343,53.6542]]]]}},
{ "type":"Feature","properties":{"osm_way_id":"680677923","amenity":"parking","other":{"access":"customers","capacity":"30","fee":"no","parking":"surface","smoothness":"good","surface":"concrete"}}, "geometry":{"type":"MultiPolygon","coordinates":[[[[-2.63068,53.66258],[-2.63073,53.66256],[-2.63097,53.66278],[-2.63092,53.66279],[-2.63039,53.66287],[-2.63038,53.66265],[-2.63068,53.66266],[-2.63068,53.66258]]]]}},
{ "type":"Feature","properties":{"osm_way_id":"680677926","name":"B&Q","amenity":"parking","other":{"access":"customers","capacity":"120","capacity:disabled":"5","fee":"no","lit":"yes","operator":"B&Q","parking":"surface","smoothness":"good","surface":"asphalt"}}, "geometry":{"type":"MultiPolygon","coordinates":[[[[-2.62861,53.66251],[-2.62866,53.66252],[-2.62922,53.66251],[-2.62922,53.66228],[-2.62894,53.66228],[-2.62893,53.66195],[-2.62884,53.66195],[-2.62884,53.66181],[-2.62892,53.66181],[-2.62891,53.66153],[-2.62888,53.66122],[-2.62865,53.66122],[-2.62859,53.66138],[-2.62859,53.66163],[-2.62856,53.6617],[-2.62854,53.66184],[-2.62843,53.66185],[-2.6284,53.66194],[-2.6285,53.66196],[-2.62852,53.66207],[-2.62839,53.66208],[-2.62837,53.66215],[-2.62838,53.66231],[-2.62861,53.66251]]]]}},
{ "type":"Feature","properties":{"osm_way_id":"680677930","name":"Aldi","amenity":"parking","other":{"access":"customers","capacity":"60","fee":"no","lit":"yes","operator":"Aldi","parking":"surface","smoothness":"good","surface":"asphalt"}}, "geometry":{"type":"MultiPolygon","coordinates":[[[[-2.62747,53.66175],[-2.62731,53.66174],[-2.62726,53.66157],[-2.6273,53.66135],[-2.62734,53.66122],[-2.62746,53.66108],[-2.62759,53.66099],[-2.62775,53.66091],[-2.62789,53.66086],[-2.62792,53.66092],[-2.628,53.66091],[-2.62808,53.66124],[-2.62788,53.66132],[-2.6276,53.66129],[-2.62753,53.6613],[-2.62751,53.66134],[-2.62759,53.66134],[-2.62747,53.66175]]]]}},
{ "type":"Feature","properties":{"osm_way_id":"680684158","name":"G","amenity":"parking","other":{"access":"permissive","capacity":"20","fee":"yes","operator":"Lancashire Teaching Hospitals","parking":"surface","smoothness":"good","surface":"asphalt"}}, "geometry":{"type":"MultiPolygon","coordinates":[[[[-2.63593,53.6649],[-2.63588,53.66465],[-2.63562,53.66467],[-2.63567,53.66492],[-2.63593,53.6649]]]]}},
{ "type":"Feature","properties":{"osm_way_id":"680684159","name":"E","amenity":"parking","other":{"access":"private","lit":"yes","operator":"Lancashire Teaching Hospitals","parking":"surface","smoothness":"intermediate","surface":"compacted"}}, "geometry":{"type":"MultiPolygon","coordinates":[[[[-2.63393,53.66486],[-2.63394,53.66477],[-2.63386,53.66476],[-2.63387,53.66449],[-2.63326,53.66449],[-2.63248,53.66449],[-2.63247,53.66477],[-2.63251,53.66479],[-2.63318,53.66479],[-2.63319,53.66495],[-2.63344,53.66495],[-2.63344,53.66489],[-2.63358,53.66489],[-2.63358,53.66476],[-2.63363,53.66477],[-2.63362,53.66489],[-2.63373,53.66489],[-2.63379,53.6649],[-2.63393,53.66486]]]]}},
{ "type":"Feature","properties":{"osm_way_id":"680684160","name":"C","amenity":"parking","other":{"access":"private","lit":"yes","operator":"Lancashire Teaching Hospitals","parking":"surface","smoothness":"good","surface":"asphalt"}}, "geometry":{"type":"MultiPolygon","coordinates":[[[[-2.6334,53.66524],[-2.63336,53.66513],[-2.63248,53.66515],[-2.63254,53.66532],[-2.63254,53.66549],[-2.6326,53.6655],[-2.63283,53.66549],[-2.63298,53.66549],[-2.6334,53.66524]]]]}},
{ "type":"Feature","properties":{"osm_way_id":"680684161","name":"B","amenity":"parking","other":{"access":"yes","capacity":"60","capacity:disabled":"3","fee":"yes","lit":"yes","operator":"Lancashire Teaching Hospitals","parking":"surface","smoothness":"good","surface":"asphalt"}}, "geometry":{"type":"MultiPolygon","coordinates":[[[[-2.63318,53.66609],[-2.63277,53.66608],[-2.63266,53.66603],[-2.63262,53.66579],[-2.63254,53.66553],[-2.6326,53.6655],[-2.63283,53.66549],[-2.63283,53.66552],[-2.63283,53.66558],[-2.63288,53.66585],[-2.6332,53.66594],[-2.63318,53.66601],[-2.63318,53.66609]]]]}},
{ "type":"Feature","properties":{"osm_way_id":"682124306","amenity":"parking","other":{"access":"customers","fee":"no","parking":"surface"}}, "geometry":{"type":"MultiPolygon","coordinates":[[[[-2.64602,53.64552],[-2.64595,53.64554],[-2.64587,53.64558],[-2.64581,53.64564],[-2.64563,53.6457],[-2.64557,53.64562],[-2.64557,53.64547],[-2.64558,53.64543],[-2.64601,53.64541],[-2.64602,53.64552]]]]}},
{ "type":"Feature","properties":{"osm_way_id":"682152022","amenity":"parking","other":{"access":"customers","fee":"no","parking":"surface","surface":"asphalt"}}, "geometry":{"type":"MultiPolygon","coordinates":[[[[-2.63806,53.64856],[-2.63806,53.64839],[-2.63793,53.64839],[-2.63777,53.64839],[-2.63776,53.64815],[-2.63778,53.64807],[-2.63731,53.64812],[-2.63739,53.64841],[-2.63742,53.64844],[-2.6377,53.64843],[-2.63758,53.64845],[-2.63765,53.64849],[-2.63762,53.64854],[-2.63763,53.64856],[-2.63806,53.64856]]]]}},
{ "type":"Feature","properties":{"osm_way_id":"682208410","amenity":"parking","other":{"capacity":"20","fee":"no","operator":"Chorley Borough Council","parking":"surface","smoothness":"good","surface":"asphalt"}}, "geometry":{"type":"MultiPolygon","coordinates":[[[[-2.64366,53.64329],[-2.6439,53.6431],[-2.64371,53.64302],[-2.64347,53.6432],[-2.64366,53.64329]]]]}},
{ "type":"Feature","properties":{"osm_way_id":"682701156","name":"Water Street","amenity":"parking","other":{"capacity":"71","fee":"yes","operator":"Chorley Borough Council","parking":"surface","surface":"asphalt"}}, "geometry":{"type":"MultiPolygon","coordinates":[[[[-2.63171,53.65594],[-2.63158,53.65581],[-2.6314,53.65552],[-2.63217,53.65533],[-2.63247,53.65566],[-2.63171,53.65594]]]]}},
{ "type":"Feature","properties":{"osm_way_id":"682856670","name":"Library House Surgery","amenity":"parking","other":{"access":"customers","capacity":"30","fee":"no","operator":"Library House Surgery","parking":"surface","surface":"asphalt"}}, "geometry":{"type":"MultiPolygon","coordinates":[[[[-2.63372,53.65066],[-2.63393,53.65047],[-2.63395,53.65044],[-2.63402,53.65037],[-2.63381,53.65029],[-2.6335,53.65059],[-2.6336,53.65062],[-2.63372,53.65066]]]]}},
{ "type":"Feature","properties":{"osm_way_id":"682856675","name":"Peel Street","amenity":"parking","other":{"capacity":"16","fee":"no","maxstay":"60","operator":"Chorley Borough Council","parking":"surface","surface":"grass_paver"}}, "geometry":{"type":"MultiPolygon","coordinates":[[[[-2.63326,53.65064],[-2.63359,53.6503],[-2.63366,53.65022],[-2.63375,53.65026],[-2.63339,53.65062],[-2.63335,53.65067],[-2.63326,53.65064]]]]}},
{ "type":"Feature","properties":{"osm_way_id":"683514425","amenity":"parking","other":{"access":"private","parking":"surface","surface":"asphalt"}}, "geometry":{"type":"MultiPolygon","coordinates":[[[[-2.64967,53.64043],[-2.64947,53.64019],[-2.64879,53.64038],[-2.64898,53.64062],[-2.64967,53.64043]]]]}},
{ "type":"Feature","properties":{"osm_way_id":"683514426","name":"Southlands Overflow Car Park","amenity":"parking","other":{"access":"private","fee":"no","operator":"Southlands High School","parking":"surface","smoothness":"bad","surface":"gravel"}}, "geometry":{"type":"MultiPolygon","coordinates":[[[[-2.65001,53.64001],[-2.64962,53.6401],[-2.64942,53.6398],[-2.64915,53.63945],[-2.64893,53.63916],[-2.64923,53.63903],[-2.64926,53.63906],[-2.6496,53.63936],[-2.64982,53.63975],[-2.64992,53.63988],[-2.65001,53.64001]]]]}},
{ "type":"Feature","properties":{"osm_way_id":"684920996","amenity":"parking","other":{"access":"customers","capacity":"40","fee":"no","operator":"The Sea View","parking":"surface","smoothness":"intermediate","surface":"asphalt"}}, "geometry":{"type":"MultiPolygon","coordinates":[[[[-2.63439,53.6739],[-2.63384,53.67398],[-2.63371,53.67366],[-2.63397,53.67359],[-2.63397,53.67362],[-2.63399,53.67362],[-2.63399,53.67364],[-2.63405,53.67379],[-2.63427,53.67376],[-2.63434,53.67375],[-2.63439,53.6739]]]]}},
{ "type":"Feature","properties":{"osm_way_id":"687021593","name":"The Dressers Car Park","amenity":"parking","other":{"access":"customers","capacity":"50","fee":"no","operator":"The Dressers Arms","parking":"surface","smoothness":"intermediate","surface":"asphalt"}}, "geometry":{"type":"MultiPolygon","coordinates":[[[[-2.60112,53.68505],[-2.60106,53.68496],[-2.60092,53.68495],[-2.60009,53.685],[-2.60009,53.68532],[-2.60017,53.68531],[-2.60025,53.6853],[-2.60038,53.68529],[-2.60057,53.68525],[-2.60075,53.68518],[-2.60101,53.68508],[-2.60112,53.68505]]]]}},
{ "type":"Feature","properties":{"osm_way_id":"687560224","amenity":"parking","other":{"access":"customers","parking":"surface","smoothness":"good","surface":"asphalt"}}, "geometry":{"type":"MultiPolygon","coordinates":[[[[-2.65812,53.67583],[-2.65809,53.67542],[-2.65875,53.67549],[-2.65877,53.67555],[-2.65867,53.67574],[-2.65864,53.67579],[-2.65856,53.6758],[-2.65812,53.67583]]]]}},
{ "type":"Feature","properties":{"osm_way_id":"687560225","name":"The War Horse","amenity":"parking","other":{"access":"customers","capacity":"60","parking":"surface","smoothness":"good","surface":"asphalt"}}, "geometry":{"type":"MultiPolygon","coordinates":[[[[-2.65699,53.67661],[-2.65659,53.67664],[-2.65635,53.67664],[-2.65644,53.67618],[-2.65651,53.67614],[-2.65676,53.67617],[-2.65674,53.67621],[-2.657,53.67623],[-2.65707,53.67653],[-2.65699,53.67661]]]]}},
{ "type":"Feature","properties":{"osm_way_id":"689184221","amenity":"parking","other":{"capacity":"50","fee":"no","parking":"surface","surface":"asphalt"}}, "geometry":{"type":"MultiPolygon","coordinates":[[[[-2.6583,53.68456],[-2.65824,53.68455],[-2.65788,53.68452],[-2.65789,53.68448],[-2.65765,53.68446],[-2.65762,53.68446],[-2.65761,53.6845],[-2.6572,53.68446],[-2.65723,53.68432],[-2.65761,53.68436],[-2.6576,53.6844],[-2.6578,53.68442],[-2.65781,53.68437],[-2.65833,53.68442],[-2.6583,53.68456]]]]}},
{ "type":"Feature","properties":{"osm_way_id":"693900984","name":"Co-op","amenity":"parking","other":{"access":"customers","capacity":"20","capacity:disabled":"2","fee":"no","operator":"Co-op","parking":"surface","smoothness":"good","surface":"asphalt"}}, "geometry":{"type":"MultiPolygon","coordinates":[[[[-2.63473,53.69183],[-2.63466,53.69184],[-2.63431,53.69174],[-2.63425,53.69173],[-2.63431,53.69166],[-2.63436,53.69168],[-2.63446,53.69161],[-2.63482,53.69172],[-2.63473,53.69183]]]]}},
{ "type":"Feature","properties":{"osm_way_id":"699072002","amenity":"parking","other":{"access":"customers","parking":"surface"}}, "geometry":{"type":"MultiPolygon","coordinates":[[[[-2.56313,53.70191],[-2.56224,53.70215],[-2.56206,53.70197],[-2.56283,53.70172],[-2.56291,53.70183],[-2.56301,53.7018],[-2.56313,53.70191]]]]}},
{ "type":"Feature","properties":{"osm_way_id":"700225204","name":"Dog Inn","amenity":"parking","other":{"access":"customers","capacity":"20","fee":"no","parking":"surface","smoothness":"good","surface":"asphalt"}}, "geometry":{"type":"MultiPolygon","coordinates":[[[[-2.63415,53.6965],[-2.634,53.69649],[-2.63397,53.69635],[-2.63393,53.69629],[-2.63393,53.69618],[-2.63392,53.69615],[-2.63411,53.69615],[-2.63414,53.69631],[-2.63415,53.6965]]]]}},
{ "type":"Feature","properties":{"osm_way_id":"701574993","amenity":"parking","other":{"access":"permissive","fee":"no","parking":"surface","smoothness":"good","surface":"asphalt"}}, "geometry":{"type":"MultiPolygon","coordinates":[[[[-2.63742,53.71207],[-2.63726,53.71194],[-2.63744,53.71188],[-2.63772,53.71186],[-2.63773,53.71199],[-2.63755,53.71206],[-2.6375,53.71204],[-2.63742,53.71207]]]]}},
{ "type":"Feature","properties":{"osm_way_id":"701574996","amenity":"parking","other":{"access":"yes","fee":"no","parking":"surface","smoothness":"good","surface":"asphalt"}}, "geometry":{"type":"MultiPolygon","coordinates":[[[[-2.6364,53.71215],[-2.63634,53.71183],[-2.6368,53.7118],[-2.63689,53.71185],[-2.63699,53.71183],[-2.637,53.71189],[-2.63703,53.7119],[-2.63707,53.7119],[-2.63716,53.7119],[-2.63719,53.71194],[-2.63686,53.71211],[-2.63671,53.71213],[-2.63662,53.71217],[-2.63658,53.71215],[-2.6364,53.71215]]]]}},
{ "type":"Feature","properties":{"osm_way_id":"701656355","name":"The Beamont","amenity":"parking","other":{"access":"customers","fee":"no","parking":"surface","surface":"asphalt"}}, "geometry":{"type":"MultiPolygon","coordinates":[[[[-2.64372,53.70652],[-2.64327,53.70653],[-2.64327,53.70649],[-2.64317,53.70649],[-2.64316,53.70638],[-2.64355,53.70637],[-2.64355,53.70641],[-2.64359,53.70641],[-2.6436,53.70633],[-2.64353,53.70633],[-2.64351,53.70622],[-2.64349,53.70615],[-2.64334,53.70606],[-2.64359,53.706],[-2.64376,53.70618],[-2.64377,53.70626],[-2.64376,53.70637],[-2.64372,53.70638],[-2.64372,53.70652]]]]}},
{ "type":"Feature","properties":{"osm_way_id":"702515031","amenity":"parking","other":{"access":"private","fee":"no","parking":"surface","smoothness":"good","surface":"asphalt"}}, "geometry":{"type":"MultiPolygon","coordinates":[[[[-2.62665,53.65373],[-2.62663,53.65382],[-2.62637,53.65382],[-2.62643,53.65362],[-2.62666,53.65363],[-2.62666,53.65364],[-2.62665,53.65373]]]]}},
{ "type":"Feature","properties":{"osm_way_id":"709213199","name":"Astley Park Car Park","amenity":"parking","other":{"capacity":"50","fee":"no","lit":"yes","operator":"Chorley Borough Council","parking":"surface","smoothness":"good","surface":"asphalt"}}, "geometry":{"type":"MultiPolygon","coordinates":[[[[-2.65214,53.65636],[-2.65232,53.65595],[-2.652,53.6559],[-2.65199,53.65593],[-2.6518,53.65591],[-2.65163,53.6559],[-2.65158,53.65613],[-2.65153,53.65627],[-2.65214,53.65636]]]]}},
{ "type":"Feature","properties":{"osm_way_id":"715026136","amenity":"parking","other":{"access":"private","capacity":"50","parking":"surface"}}, "geometry":{"type":"MultiPolygon","coordinates":[[[[-2.64267,53.70917],[-2.64221,53.7093],[-2.64198,53.70902],[-2.64245,53.70889],[-2.64267,53.70917]]]]}},
{ "type":"Feature","properties":{"osm_way_id":"718424141","amenity":"parking","other":{"access":"private","parking":"surface","smoothness":"good","surface":"asphalt"}}, "geometry":{"type":"MultiPolygon","coordinates":[[[[-2.62929,53.64842],[-2.62925,53.64843],[-2.62889,53.64812],[-2.62891,53.64806],[-2.629,53.64801],[-2.62907,53.64799],[-2.62918,53.64811],[-2.62927,53.64807],[-2.62938,53.64819],[-2.62952,53.64834],[-2.6295,53.64835],[-2.62929,53.64842]]]]}},
{ "type":"Feature","properties":{"osm_way_id":"727227298","amenity":"parking","other":{"access":"private","operator":"Chorley Borough Council","operator:type":"government","parking":"surface"}}, "geometry":{"type":"MultiPolygon","coordinates":[[[[-2.6269,53.65322],[-2.62677,53.65289],[-2.62653,53.65289],[-2.62653,53.65292],[-2.62648,53.65323],[-2.6269,53.65322]]]]}},
{ "type":"Feature","properties":{"osm_way_id":"730460249","amenity":"parking","other":{"access":"private","capacity":"18","parking":"surface"}}, "geometry":{"type":"MultiPolygon","coordinates":[[[[-2.75557,53.63039],[-2.75496,53.63053],[-2.75486,53.63036],[-2.75526,53.63028],[-2.75529,53.63029],[-2.75548,53.63026],[-2.75557,53.63039]]]]}},
{ "type":"Feature","properties":{"osm_way_id":"737277987","amenity":"parking","other":{"parking":"surface"}}, "geometry":{"type":"MultiPolygon","coordinates":[[[[-2.62734,53.64808],[-2.62711,53.64788],[-2.62739,53.6478],[-2.62758,53.64797],[-2.62734,53.64808]]]]}},
{ "type":"Feature","properties":{"osm_way_id":"739898749","amenity":"parking","other":{"access":"customers","capacity":"19","fee":"no","operator":"Euxton Medical Centre","parking":"surface","smoothness":"good","surface":"asphalt"}}, "geometry":{"type":"MultiPolygon","coordinates":[[[[-2.67688,53.66876],[-2.67649,53.66882],[-2.67644,53.66867],[-2.67674,53.66863],[-2.67688,53.66876]]]]}},
{ "type":"Feature","properties":{"osm_way_id":"749602258","amenity":"parking","other":{"access":"customers","parking":"surface"}}, "geometry":{"type":"MultiPolygon","coordinates":[[[[-2.60429,53.61388],[-2.60471,53.61373],[-2.60468,53.61369],[-2.60479,53.61365],[-2.60459,53.61342],[-2.60445,53.61348],[-2.60459,53.61361],[-2.60441,53.61367],[-2.60416,53.61377],[-2.60429,53.61388]]]]}},
{ "type":"Feature","properties":{"osm_way_id":"751282403","name":"Adlington Railway Station","amenity":"parking","other":{"access":"yes","capacity":"60","fee":"no","park_ride":"train","parking":"surface","smoothness":"good","surface":"asphalt"}}, "geometry":{"type":"MultiPolygon","coordinates":[[[[-2.60238,53.61379],[-2.60258,53.61367],[-2.6019,53.61323],[-2.60184,53.6133],[-2.60175,53.61336],[-2.60188,53.61346],[-2.60192,53.61353],[-2.60195,53.6136],[-2.60201,53.61365],[-2.60211,53.6137],[-2.60221,53.61374],[-2.60238,53.61379]]]]}},
{ "type":"Feature","properties":{"osm_way_id":"759204701","amenity":"parking","other":{"access":"private","parking":"surface"}}, "geometry":{"type":"MultiPolygon","coordinates":[[[[-2.6334,53.65302],[-2.6334,53.65314],[-2.63338,53.6532],[-2.63326,53.65319],[-2.63311,53.65318],[-2.63311,53.65313],[-2.63312,53.65313],[-2.63312,53.65301],[-2.6334,53.65302]]]]}},
{ "type":"Feature","properties":{"osm_way_id":"759204702","amenity":"parking","other":{"access":"private","parking":"surface"}}, "geometry":{"type":"MultiPolygon","coordinates":[[[[-2.63338,53.65283],[-2.63339,53.65269],[-2.63304,53.65266],[-2.63299,53.65265],[-2.63292,53.65269],[-2.63294,53.65278],[-2.63297,53.65278],[-2.63298,53.65283],[-2.63338,53.65283]]]]}},
{ "type":"Feature","properties":{"osm_way_id":"759204703","amenity":"parking","other":{"access":"private","parking":"surface"}}, "geometry":{"type":"MultiPolygon","coordinates":[[[[-2.63284,53.6519],[-2.63283,53.65176],[-2.63283,53.65173],[-2.63261,53.65173],[-2.63263,53.6519],[-2.63284,53.6519]]]]}},
{ "type":"Feature","properties":{"osm_way_id":"759972530","amenity":"parking","other":{"access":"customers","parking":"surface","smoothness":"good","surface":"asphalt"}}, "geometry":{"type":"MultiPolygon","coordinates":[[[[-2.66692,53.6371],[-2.66678,53.63692],[-2.66631,53.63706],[-2.66623,53.63695],[-2.66586,53.63705],[-2.6655,53.63716],[-2.66566,53.63737],[-2.66602,53.6373],[-2.66615,53.63727],[-2.66677,53.63713],[-2.66692,53.6371]]]]}},
{ "type":"Feature","properties":{"osm_way_id":"763935475","amenity":"parking","other":{"access":"permissive","capacity":"10","fee":"no","operator":"Charnock Richard Football Club","parking":"surface","smoothness":"good","surface":"asphalt"}}, "geometry":{"type":"MultiPolygon","coordinates":[[[[-2.67212,53.63305],[-2.67209,53.63304],[-2.67173,53.63272],[-2.67185,53.63269],[-2.67212,53.63305]]]]}},
{ "type":"Feature","properties":{"osm_way_id":"763935479","name":"Charnock Richard Football Club","amenity":"parking","other":{"access":"private","lit":"no","operator":"Charnock Richard Football Club","parking":"surface","smoothness":"intermediate","surface":"compacted"}}, "geometry":{"type":"MultiPolygon","coordinates":[[[[-2.67273,53.63284],[-2.67227,53.63302],[-2.67205,53.63267],[-2.67211,53.63265],[-2.67199,53.63241],[-2.67191,53.63233],[-2.67223,53.63223],[-2.67259,53.63252],[-2.67244,53.63258],[-2.67273,53.63284]]]]}},
{ "type":"Feature","properties":{"osm_way_id":"765060220","amenity":"parking","other":{"access":"customers","capacity":"25","parking":"surface","smoothness":"intermediate","surface":"asphalt"}}, "geometry":{"type":"MultiPolygon","coordinates":[[[[-2.66582,53.6208],[-2.6656,53.62049],[-2.66555,53.6205],[-2.66529,53.62053],[-2.6654,53.62081],[-2.66543,53.62089],[-2.66552,53.62087],[-2.66582,53.6208]]]]}},
{ "type":"Feature","properties":{"osm_way_id":"765060221","amenity":"parking","other":{"access":"customers","capacity":"10","parking":"surface","smoothness":"good","surface":"asphalt"}}, "geometry":{"type":"MultiPolygon","coordinates":[[[[-2.66462,53.62098],[-2.66461,53.62092],[-2.66424,53.62098],[-2.66427,53.62104],[-2.66462,53.62098]]]]}},
{ "type":"Feature","properties":{"osm_way_id":"765060222","amenity":"parking","other":{"access":"customers","capacity":"19","parking":"surface","smoothness":"good","surface":"asphalt"}}, "geometry":{"type":"MultiPolygon","coordinates":[[[[-2.66541,53.62089],[-2.66473,53.62105],[-2.6647,53.621],[-2.66538,53.62085],[-2.66541,53.62089]]]]}},
{ "type":"Feature","properties":{"osm_way_id":"765084095","amenity":"parking","other":{"access":"customers","capacity":"40","fee":"no","operator":"co-op","parking":"surface"}}, "geometry":{"type":"MultiPolygon","coordinates":[[[[-2.66355,53.62125],[-2.66307,53.62131],[-2.66305,53.62135],[-2.66311,53.62154],[-2.66287,53.62155],[-2.66285,53.62149],[-2.663,53.62148],[-2.66296,53.62129],[-2.66303,53.62129],[-2.66301,53.62117],[-2.66349,53.62112],[-2.66355,53.62125]]]]}},
{ "type":"Feature","properties":{"osm_way_id":"766046375","amenity":"parking"},"geometry":{"type":"MultiPolygon","coordinates":[[[[-2.72255,53.64701],[-2.72251,53.64681],[-2.72227,53.64683],[-2.72231,53.64703],[-2.72255,53.64701]]]]}},
{ "type":"Feature","properties":{"osm_way_id":"769594138","name":"George Street","amenity":"parking","other":{"capacity":"30","fee":"yes","operator":"Chorley Borough Council","operator:type":"public","parking":"surface","surface":"asphalt"}}, "geometry":{"type":"MultiPolygon","coordinates":[[[[-2.63051,53.65011],[-2.63051,53.64998],[-2.6305,53.64995],[-2.63057,53.64992],[-2.63056,53.64988],[-2.63054,53.64984],[-2.63052,53.64981],[-2.63044,53.64983],[-2.63008,53.64982],[-2.63006,53.64995],[-2.63006,53.64998],[-2.63021,53.64998],[-2.63021,53.65012],[-2.63043,53.65012],[-2.63051,53.65011]]]]}},
{ "type":"Feature","properties":{"osm_way_id":"769614334","amenity":"parking","other":{"access":"private","parking":"surface"}}, "geometry":{"type":"MultiPolygon","coordinates":[[[[-2.63,53.64968],[-2.63004,53.64963],[-2.63015,53.64963],[-2.63015,53.64959],[-2.62985,53.64957],[-2.62988,53.64951],[-2.62958,53.6495],[-2.62958,53.64972],[-2.6297,53.64973],[-2.62972,53.64973],[-2.62972,53.64969],[-2.63,53.64968]]]]}},
{ "type":"Feature","properties":{"osm_way_id":"769614338","amenity":"parking","other":{"access":"customers","capacity":"70","fee":"no","lit":"yes","parking":"surface","smoothness":"good","surface":"asphalt"}}, "geometry":{"type":"MultiPolygon","coordinates":[[[[-2.62809,53.65013],[-2.62806,53.64968],[-2.62756,53.64969],[-2.62755,53.64974],[-2.62688,53.64977],[-2.62688,53.64992],[-2.62657,53.64992],[-2.62658,53.6501],[-2.62662,53.6501],[-2.62662,53.65011],[-2.62662,53.65019],[-2.62681,53.65018],[-2.62682,53.65022],[-2.6272,53.65022],[-2.62733,53.65022],[-2.62809,53.65013]]]]}},
{ "type":"Feature","properties":{"osm_way_id":"770308002","name":"Revensthorpe","amenity":"parking","other":{"access":"private","lit":"yes","operator":"Places for People","parking":"surface","smoothness":"good","surface":"asphalt"}}, "geometry":{"type":"MultiPolygon","coordinates":[[[[-2.64791,53.6607],[-2.64775,53.66079],[-2.6477,53.66076],[-2.64765,53.66079],[-2.64735,53.66062],[-2.64757,53.66049],[-2.64775,53.6606],[-2.64791,53.6607]]]]}},
{ "type":"Feature","properties":{"osm_way_id":"770610754","amenity":"parking","other":{"access":"private","parking":"surface","smoothness":"good","surface":"asphalt"}}, "geometry":{"type":"MultiPolygon","coordinates":[[[[-2.64451,53.66206],[-2.64451,53.66196],[-2.64436,53.66194],[-2.64433,53.66199],[-2.64432,53.66206],[-2.64422,53.66206],[-2.64422,53.66217],[-2.64431,53.66217],[-2.64433,53.66221],[-2.64426,53.66221],[-2.64424,53.66219],[-2.64399,53.66219],[-2.64402,53.66237],[-2.64422,53.66237],[-2.64423,53.6623],[-2.64428,53.6623],[-2.64433,53.66234],[-2.64434,53.66239],[-2.64449,53.66239],[-2.64455,53.66235],[-2.64455,53.66212],[-2.64448,53.66212],[-2.64446,53.6621],[-2.64447,53.66208],[-2.64451,53.66206]]]]}},
{ "type":"Feature","properties":{"osm_way_id":"774734895","amenity":"parking","other":{"access":"customers","parking":"surface","smoothness":"good","surface":"asphalt"}}, "geometry":{"type":"MultiPolygon","coordinates":[[[[-2.67827,53.63845],[-2.67821,53.63869],[-2.6782,53.63877],[-2.67817,53.63897],[-2.67842,53.63896],[-2.67842,53.63871],[-2.67846,53.63869],[-2.67865,53.63869],[-2.67868,53.6385],[-2.67859,53.63849],[-2.67858,53.63843],[-2.67827,53.63845]]]]}},
{ "type":"Feature","properties":{"osm_way_id":"775009188","amenity":"parking","other":{"access":"customers","parking":"surface"}}, "geometry":{"type":"MultiPolygon","coordinates":[[[[-2.68419,53.63139],[-2.68429,53.63115],[-2.68399,53.63112],[-2.68379,53.63115],[-2.68358,53.63122],[-2.68382,53.63137],[-2.68396,53.63136],[-2.68419,53.63139]]]]}},
{ "type":"Feature","properties":{"osm_way_id":"777088463","amenity":"parking","other":{"access":"permissive","capacity":"48","parking":"surface","smoothness":"good","surface":"asphalt"}}, "geometry":{"type":"MultiPolygon","coordinates":[[[[-2.64101,53.66768],[-2.64101,53.66764],[-2.64101,53.6676],[-2.64109,53.6676],[-2.64111,53.66748],[-2.64102,53.66747],[-2.64103,53.66743],[-2.64055,53.6674],[-2.64055,53.66744],[-2.64052,53.66746],[-2.64045,53.66746],[-2.64043,53.66763],[-2.64049,53.66764],[-2.64069,53.66766],[-2.64069,53.6677],[-2.6409,53.66771],[-2.64091,53.66767],[-2.64101,53.66768]]]]}},
{ "type":"Feature","properties":{"osm_way_id":"777088465","amenity":"parking","other":{"access":"permissive","capacity":"44","capacity:disabled":"10","parking":"surface","smoothness":"good","surface":"asphalt"}}, "geometry":{"type":"MultiPolygon","coordinates":[[[[-2.64098,53.66851],[-2.641,53.66837],[-2.64087,53.66836],[-2.64089,53.6682],[-2.64037,53.66816],[-2.64033,53.66845],[-2.6407,53.66849],[-2.64098,53.66851]]]]}},
{ "type":"Feature","properties":{"osm_way_id":"777088466","amenity":"parking","other":{"access":"customers","capacity":"106","parking":"surface","smoothness":"good","surface":"asphalt"}}, "geometry":{"type":"MultiPolygon","coordinates":[[[[-2.64204,53.6679],[-2.64206,53.66786],[-2.64212,53.66787],[-2.64221,53.66767],[-2.64206,53.66765],[-2.64208,53.66762],[-2.64139,53.66749],[-2.64129,53.66772],[-2.64146,53.66775],[-2.64125,53.66818],[-2.64148,53.66823],[-2.64167,53.66783],[-2.64204,53.6679]]]]}},
{ "type":"Feature","properties":{"osm_way_id":"787280782","amenity":"parking","other":{"access":"customers","capacity":"80","capacity:disabled":"8","fee":"no","parking":"surface","smoothness":"good","surface":"asphalt"}}, "geometry":{"type":"MultiPolygon","coordinates":[[[[-2.6285,53.65885],[-2.62866,53.6586],[-2.62873,53.65826],[-2.62862,53.65819],[-2.62838,53.65812],[-2.62806,53.65809],[-2.62802,53.65823],[-2.62823,53.65826],[-2.6281,53.65881],[-2.6285,53.65885]]]]}},
{ "type":"Feature","properties":{"osm_way_id":"787289743","amenity":"parking","other":{"parking":"surface","surface":"ground"}}, "geometry":{"type":"MultiPolygon","coordinates":[[[[-2.68007,53.6129],[-2.67762,53.61359],[-2.67766,53.61384],[-2.6787,53.61347],[-2.67957,53.61319],[-2.6798,53.61316],[-2.68023,53.61361],[-2.6805,53.61358],[-2.68016,53.61292],[-2.68007,53.6129]]]]}},
{ "type":"Feature","properties":{"osm_way_id":"787289749","name":"Chisnall Playing Fields","amenity":"parking","other":{"parking":"surface"}}, "geometry":{"type":"MultiPolygon","coordinates":[[[[-2.67643,53.61226],[-2.67621,53.61222],[-2.67608,53.61224],[-2.67564,53.6123],[-2.67543,53.61192],[-2.67629,53.61175],[-2.67635,53.61186],[-2.67624,53.61195],[-2.67643,53.61226]]]]}},
{ "type":"Feature","properties":{"osm_way_id":"788208876","amenity":"parking","other":{"access":"customers","parking":"surface"}}, "geometry":{"type":"MultiPolygon","coordinates":[[[[-2.67407,53.61215],[-2.67425,53.61185],[-2.67381,53.61178],[-2.67372,53.61203],[-2.67383,53.61205],[-2.67398,53.61207],[-2.67396,53.61213],[-2.67407,53.61215]]]]}},
{ "type":"Feature","properties":{"osm_way_id":"790455574","building":"house","other":{"addr:city":"Chorley","addr:postcode":"PR6 9BA","addr:street":"Kittiwake Road","addr:village":"Heapey","building:levels":"2"}}, "geometry":{"type":"MultiPolygon","coordinates":[[[[-2.60288,53.66771],[-2.60281,53.66762],[-2.60295,53.66758],[-2.60302,53.66767],[-2.60288,53.66771]]]]}},
{ "type":"Feature","properties":{"osm_way_id":"790997232","name":"Bretherton Arms","amenity":"parking","other":{"access":"customers","fee":"no","parking":"surface","smoothness":"intermediate","surface":"asphalt"}}, "geometry":{"type":"MultiPolygon","coordinates":[[[[-2.61847,53.65923],[-2.61829,53.65923],[-2.61831,53.65901],[-2.61851,53.65902],[-2.61847,53.65919],[-2.61847,53.65923]]]]}},
{ "type":"Feature","properties":{"osm_way_id":"791431474","amenity":"parking","other":{"access":"destination","capacity":"6","fee":"no","parking":"surface","surface":"asphalt"}}, "geometry":{"type":"MultiPolygon","coordinates":[[[[-2.62076,53.6581],[-2.62076,53.65798],[-2.62049,53.65798],[-2.62049,53.65803],[-2.62049,53.6581],[-2.62076,53.6581]]]]}},
{ "type":"Feature","properties":{"osm_way_id":"798381952","amenity":"parking","other":{"access":"customers","fee":"no","parking":"surface","surface":"asphalt"}}, "geometry":{"type":"MultiPolygon","coordinates":[[[[-2.57443,53.61056],[-2.57506,53.61082],[-2.57515,53.61073],[-2.57562,53.61067],[-2.57559,53.61059],[-2.57546,53.61054],[-2.57465,53.61026],[-2.57443,53.61056]]]]}},
{ "type":"Feature","properties":{"osm_way_id":"800799206","building":"house"},"geometry":{"type":"MultiPolygon","coordinates":[[[[-2.63993,53.64538],[-2.63986,53.64539],[-2.63982,53.64533],[-2.63989,53.64531],[-2.63993,53.64538]]]]}},
{ "type":"Feature","properties":{"osm_way_id":"814287236","name":"Whins","amenity":"parking","other":{"access":"customers","capacity":"15","fee":"no","lit":"no","parking":"surface","surface":"gravel"}}, "geometry":{"type":"MultiPolygon","coordinates":[[[[-2.6033,53.69179],[-2.60306,53.69169],[-2.60272,53.69193],[-2.60292,53.692],[-2.60314,53.6919],[-2.6033,53.69179]]]]}},
{ "type":"Feature","properties":{"osm_way_id":"816579953","name":"Bay Horse","amenity":"parking","other":{"access":"customers","capacity":"30","parking":"surface","smoothness":"intermediate","surface":"asphalt"}}, "geometry":{"type":"MultiPolygon","coordinates":[[[[-2.63931,53.68745],[-2.63936,53.68707],[-2.63908,53.6871],[-2.63908,53.68733],[-2.63895,53.68735],[-2.63895,53.68742],[-2.63931,53.68745]]]]}},
{ "type":"Feature","properties":{"osm_way_id":"824904946","amenity":"parking","other":{"access":"private","parking":"surface","smoothness":"good","surface":"asphalt"}}, "geometry":{"type":"MultiPolygon","coordinates":[[[[-2.63374,53.64208],[-2.63384,53.64203],[-2.63371,53.6419],[-2.63347,53.64196],[-2.63355,53.64206],[-2.63311,53.64217],[-2.63318,53.64229],[-2.63369,53.6421],[-2.63374,53.64208]]]]}},
{ "type":"Feature","properties":{"osm_way_id":"825181814","amenity":"parking","other":{"capacity":"18","fee":"no","parking":"surface","smoothness":"good","surface":"asphalt"}}, "geometry":{"type":"MultiPolygon","coordinates":[[[[-2.64093,53.63895],[-2.64099,53.63874],[-2.6409,53.63873],[-2.64092,53.63869],[-2.64063,53.63865],[-2.64061,53.6387],[-2.64054,53.63869],[-2.64046,53.63889],[-2.64073,53.63891],[-2.64093,53.63895]]]]}},
{ "type":"Feature","properties":{"osm_way_id":"833954464","name":"Saint George's Parish Hall","amenity":"parking","other":{"access":"private","capacity":"20","parking":"surface","smoothness":"intermediate","surface":"asphalt"}}, "geometry":{"type":"MultiPolygon","coordinates":[[[[-2.6297,53.65174],[-2.6297,53.65188],[-2.62956,53.65188],[-2.62957,53.65191],[-2.62936,53.65191],[-2.62936,53.65189],[-2.62936,53.65177],[-2.62936,53.65174],[-2.6297,53.65174]]]]}},
{ "type":"Feature","properties":{"osm_way_id":"841796072","amenity":"parking","other":{"access":"permissive"}}, "geometry":{"type":"MultiPolygon","coordinates":[[[[-2.60736,53.71254],[-2.60725,53.7124],[-2.60643,53.71261],[-2.60654,53.71275],[-2.60736,53.71254]]]]}},
{ "type":"Feature","properties":{"osm_way_id":"843621934","name":"Martindales","amenity":"parking","other":{"access":"private","parking":"surface","smoothness":"good","surface":"asphalt"}}, "geometry":{"type":"MultiPolygon","coordinates":[[[[-2.64459,53.7063],[-2.64447,53.70566],[-2.64403,53.70568],[-2.64414,53.70632],[-2.64459,53.7063]]]]}},
{ "type":"Feature","properties":{"osm_way_id":"850089415","name":"Fleet Street Short Stay","amenity":"parking","other":{"access":"yes","fee":"yes","operator":"Chorley Borogh Council","operator:type":"public","parking":"surface","surface":"asphalt"}}, "geometry":{"type":"MultiPolygon","coordinates":[[[[-2.6328,53.65102],[-2.63275,53.65115],[-2.63274,53.65124],[-2.63213,53.65122],[-2.63212,53.65114],[-2.63209,53.65097],[-2.63213,53.65096],[-2.63228,53.65094],[-2.63225,53.65088],[-2.63256,53.65085],[-2.6328,53.65102]]]]}},
{ "type":"Feature","properties":{"osm_way_id":"850089416","name":"Residents","amenity":"parking","other":{"access":"private","capacity":"33","capacity:disabled":"2","parking":"surface","smoothness":"excellent","surface":"asphalt"}}, "geometry":{"type":"MultiPolygon","coordinates":[[[[-2.63348,53.65023],[-2.63282,53.65048],[-2.63326,53.65064],[-2.63359,53.6503],[-2.63348,53.65023]]]]}},
{ "type":"Feature","properties":{"osm_way_id":"850089417","amenity":"parking","other":{"capacity":"15","fee":"no","lit":"yes","parking":"surface","smoothness":"excellent","surface":"asphalt"}}, "geometry":{"type":"MultiPolygon","coordinates":[[[[-2.63237,53.64986],[-2.63216,53.64993],[-2.63235,53.65011],[-2.63236,53.65011],[-2.63255,53.65003],[-2.63249,53.64997],[-2.63237,53.64986]]]]}},
{ "type":"Feature","properties":{"osm_way_id":"852358579","amenity":"parking","other":{"access":"customers","capacity":"12","fee":"no","parking":"surface","surface":"compacted"}}, "geometry":{"type":"MultiPolygon","coordinates":[[[[-2.63069,53.65097],[-2.63071,53.65111],[-2.63039,53.65112],[-2.63036,53.65099],[-2.63034,53.6509],[-2.63043,53.65088],[-2.63044,53.65094],[-2.63049,53.65093],[-2.6305,53.65098],[-2.63069,53.65097]]]]}},
{ "type":"Feature","properties":{"osm_way_id":"856674312","amenity":"parking","other":{"access":"customers","capacity":"20","operator":"Red Lion","parking":"surface"}}, "geometry":{"type":"MultiPolygon","coordinates":[[[[-2.76713,53.62868],[-2.7671,53.62874],[-2.76706,53.62884],[-2.76675,53.62879],[-2.76693,53.6284],[-2.76704,53.62841],[-2.76702,53.62846],[-2.76722,53.62849],[-2.76719,53.62856],[-2.7671,53.62855],[-2.76707,53.62861],[-2.76704,53.62866],[-2.76713,53.62868]]]]}},
{ "type":"Feature","properties":{"osm_way_id":"871208255","amenity":"parking","other":{"access":"customers","parking":"surface"}}, "geometry":{"type":"MultiPolygon","coordinates":[[[[-2.6395,53.7015],[-2.63891,53.7015],[-2.63892,53.70095],[-2.63952,53.70095],[-2.6395,53.7015]]]]}},
{ "type":"Feature","properties":{"osm_way_id":"871208256","amenity":"parking","other":{"access":"customers","parking":"surface"}}, "geometry":{"type":"MultiPolygon","coordinates":[[[[-2.6388,53.70111],[-2.63853,53.70111],[-2.63853,53.70122],[-2.63836,53.70122],[-2.63836,53.70136],[-2.6388,53.70136],[-2.6388,53.70111]]]]}},
{ "type":"Feature","properties":{"osm_way_id":"875721692","building":"house"},"geometry":{"type":"MultiPolygon","coordinates":[[[[-2.64241,53.64931],[-2.64232,53.64933],[-2.6423,53.6493],[-2.64225,53.64922],[-2.64239,53.64919],[-2.64242,53.64924],[-2.64237,53.64925],[-2.64241,53.64931]]]]}},
{ "type":"Feature","properties":{"osm_way_id":"875721693","building":"house"},"geometry":{"type":"MultiPolygon","coordinates":[[[[-2.64256,53.64925],[-2.64244,53.6492],[-2.6425,53.64915],[-2.64253,53.64916],[-2.64255,53.64914],[-2.64264,53.64917],[-2.64256,53.64925]]]]}},
{ "type":"Feature","properties":{"osm_way_id":"875721695","building":"house","other":{"addr:city":"Chorley","addr:postcode":"PR7 2QT","addr:street":"Crawford Avenue"}}, "geometry":{"type":"MultiPolygon","coordinates":[[[[-2.64304,53.6491],[-2.64303,53.64902],[-2.64315,53.64901],[-2.64316,53.6491],[-2.64304,53.6491]]]]}},
{ "type":"Feature","properties":{"osm_way_id":"875721697","building":"house","other":{"addr:city":"Chorley","addr:postcode":"PR7 2QT","addr:street":"Crawford Avenue"}}, "geometry":{"type":"MultiPolygon","coordinates":[[[[-2.64331,53.64965],[-2.6432,53.64965],[-2.64319,53.64955],[-2.6433,53.64955],[-2.64331,53.64965]]]]}},
{ "type":"Feature","properties":{"osm_way_id":"876741078","name":"Denizes Farm","landuse":"farmyard"},"geometry":{"type":"MultiPolygon","coordinates":[[[[-2.74168,53.66529],[-2.74049,53.66515],[-2.74036,53.66473],[-2.74027,53.66466],[-2.74036,53.66402],[-2.741,53.6635],[-2.74135,53.66352],[-2.74149,53.66354],[-2.74182,53.66358],[-2.74163,53.66424],[-2.74187,53.66427],[-2.74174,53.66457],[-2.74154,53.66456],[-2.74151,53.66464],[-2.74188,53.66469],[-2.74183,53.66505],[-2.74168,53.66529]]]]}},
{ "type":"Feature","properties":{"osm_way_id":"877473888","amenity":"parking","other":{"parking":"surface"}}, "geometry":{"type":"MultiPolygon","coordinates":[[[[-2.7569,53.6789],[-2.75667,53.67864],[-2.75676,53.67862],[-2.75666,53.67846],[-2.75627,53.67853],[-2.75629,53.67881],[-2.75652,53.67879],[-2.75654,53.67895],[-2.75667,53.67897],[-2.7569,53.6789]]]]}},
{ "type":"Feature","properties":{"osm_way_id":"877473906","amenity":"parking","other":{"parking":"surface"}}, "geometry":{"type":"MultiPolygon","coordinates":[[[[-2.75352,53.67934],[-2.75344,53.67934],[-2.75345,53.67963],[-2.75353,53.67963],[-2.75352,53.67934]]]]}},
{ "type":"Feature","properties":{"osm_way_id":"877473907","amenity":"parking","other":{"parking":"surface"}}, "geometry":{"type":"MultiPolygon","coordinates":[[[[-2.75335,53.67937],[-2.75287,53.67938],[-2.75283,53.67941],[-2.75278,53.67938],[-2.75269,53.67938],[-2.7527,53.67961],[-2.75336,53.6796],[-2.75335,53.67937]]]]}},
{ "type":"Feature","properties":{"osm_way_id":"877473908","amenity":"parking","other":{"parking":"surface"}}, "geometry":{"type":"MultiPolygon","coordinates":[[[[-2.75327,53.67973],[-2.75287,53.67974],[-2.75287,53.67998],[-2.75319,53.67998],[-2.75327,53.67987],[-2.75327,53.67973]]]]}},
{ "type":"Feature","properties":{"osm_way_id":"888681565","name":"Lower Kem Mill Car Park","amenity":"parking","other":{"capacity":"30","fee":"yes","parking":"surface","surface":"compacted"}}, "geometry":{"type":"MultiPolygon","coordinates":[[[[-2.64421,53.69015],[-2.64444,53.69011],[-2.64466,53.69001],[-2.64496,53.68982],[-2.64496,53.68977],[-2.64471,53.68969],[-2.6441,53.68978],[-2.64403,53.69012],[-2.64421,53.69015]]]]}},
{ "type":"Feature","properties":{"osm_way_id":"888681572","amenity":"parking"},"geometry":{"type":"MultiPolygon","coordinates":[[[[-2.63973,53.68989],[-2.6398,53.68965],[-2.63931,53.68961],[-2.63928,53.68962],[-2.63923,53.68984],[-2.63973,53.68989]]]]}},
{ "type":"Feature","properties":{"osm_way_id":"890968433","amenity":"parking","other":{"access":"customers","parking":"surface","smoothness":"good","surface":"asphalt"}}, "geometry":{"type":"MultiPolygon","coordinates":[[[[-2.64552,53.66171],[-2.64537,53.66181],[-2.6453,53.66185],[-2.64525,53.66188],[-2.64545,53.662],[-2.6453,53.66211],[-2.64501,53.66195],[-2.645,53.66181],[-2.6451,53.66181],[-2.64518,53.66175],[-2.64539,53.66162],[-2.64552,53.66171]]]]}},
{ "type":"Feature","properties":{"osm_way_id":"907320679","amenity":"parking","other":{"access":"permissive","capacity":"20","capacity:disabled":"3","fee":"no","operator":"Clayton Brook Community Church","parking":"surface","smoothness":"good","surface":"asphalt"}}, "geometry":{"type":"MultiPolygon","coordinates":[[[[-2.63605,53.71308],[-2.63587,53.71298],[-2.63617,53.7128],[-2.63631,53.7129],[-2.63623,53.71299],[-2.63605,53.71308]]]]}},
{ "type":"Feature","properties":{"osm_way_id":"907320745","amenity":"parking","other":{"access":"private","fee":"no","parking":"surface","smoothness":"good","surface":"asphalt"}}, "geometry":{"type":"MultiPolygon","coordinates":[[[[-2.63717,53.71186],[-2.63702,53.71186],[-2.637,53.71173],[-2.63714,53.7117],[-2.63717,53.71186]]]]}},
{ "type":"Feature","properties":{"osm_way_id":"909603092","amenity":"parking"},"geometry":{"type":"MultiPolygon","coordinates":[[[[-2.72299,53.6468],[-2.72293,53.64657],[-2.72246,53.64662],[-2.72253,53.64685],[-2.72299,53.6468]]]]}},
{ "type":"Feature","properties":{"osm_way_id":"909977448","amenity":"parking","other":{"access":"customers","parking":"surface"}}, "geometry":{"type":"MultiPolygon","coordinates":[[[[-2.73194,53.65025],[-2.73161,53.65018],[-2.73165,53.65014],[-2.73158,53.65011],[-2.73168,53.65004],[-2.73162,53.65001],[-2.73176,53.64992],[-2.73185,53.64992],[-2.73193,53.65008],[-2.73194,53.65025]]]]}},
{ "type":"Feature","properties":{"osm_way_id":"911354886","amenity":"parking","other":{"parking":"surface"}}, "geometry":{"type":"MultiPolygon","coordinates":[[[[-2.64615,53.69984],[-2.64664,53.70006],[-2.64688,53.69971],[-2.64675,53.69962],[-2.64611,53.69943],[-2.64578,53.69974],[-2.6461,53.69987],[-2.64615,53.69984]]]]}},
{ "type":"Feature","properties":{"osm_way_id":"921416877","amenity":"parking","other":{"access":"private","parking":"surface","smoothness":"good","surface":"asphalt"}}, "geometry":{"type":"MultiPolygon","coordinates":[[[[-2.71968,53.64182],[-2.71996,53.64158],[-2.7197,53.64148],[-2.71949,53.64141],[-2.71943,53.64147],[-2.71963,53.64154],[-2.7196,53.64157],[-2.71949,53.64167],[-2.71956,53.6417],[-2.7195,53.64176],[-2.71968,53.64182]]]]}},
{ "type":"Feature","properties":{"osm_way_id":"922867611","amenity":"parking","other":{"parking":"surface"}}, "geometry":{"type":"MultiPolygon","coordinates":[[[[-2.71119,53.64032],[-2.71101,53.64023],[-2.71162,53.63979],[-2.7118,53.63988],[-2.71119,53.64032]]]]}},
{ "type":"Feature","properties":{"osm_way_id":"922903575","amenity":"parking","other":{"parking":"surface"}}, "geometry":{"type":"MultiPolygon","coordinates":[[[[-2.71855,53.63454],[-2.71871,53.63457],[-2.71903,53.63449],[-2.71952,53.63422],[-2.71964,53.63414],[-2.7193,53.63359],[-2.71841,53.63375],[-2.71823,53.63384],[-2.71845,53.63403],[-2.71887,53.63394],[-2.71901,53.63418],[-2.7186,53.63427],[-2.71849,53.63442],[-2.71855,53.63454]]]]}},
{ "type":"Feature","properties":{"osm_way_id":"922993654","amenity":"parking","other":{"parking":"surface","smoothness":"good","surface":"asphalt"}}, "geometry":{"type":"MultiPolygon","coordinates":[[[[-2.70864,53.63317],[-2.70862,53.6331],[-2.70847,53.63305],[-2.70837,53.63297],[-2.70857,53.63281],[-2.70852,53.63271],[-2.70883,53.6327],[-2.70895,53.63287],[-2.70878,53.63302],[-2.70882,53.63304],[-2.70867,53.63317],[-2.70864,53.63317]]]]}},
{ "type":"Feature","properties":{"osm_way_id":"925546473","amenity":"parking","other":{"access":"private","parking":"surface"}}, "geometry":{"type":"MultiPolygon","coordinates":[[[[-2.66355,53.69896],[-2.66315,53.69902],[-2.66308,53.69886],[-2.66352,53.6988],[-2.66358,53.69896],[-2.66361,53.69899],[-2.66365,53.69905],[-2.66383,53.69902],[-2.66387,53.69912],[-2.66363,53.69916],[-2.66356,53.69898],[-2.66355,53.69896]]]]}},
{ "type":"Feature","properties":{"osm_way_id":"925623424","amenity":"parking"},"geometry":{"type":"MultiPolygon","coordinates":[[[[-2.51378,53.62853],[-2.51357,53.62833],[-2.51363,53.62832],[-2.51375,53.62843],[-2.51378,53.62853]]]]}},
{ "type":"Feature","properties":{"osm_way_id":"925623425","amenity":"parking"},"geometry":{"type":"MultiPolygon","coordinates":[[[[-2.5137,53.62857],[-2.51324,53.62827],[-2.51336,53.62822],[-2.51358,53.62841],[-2.5137,53.62857]]]]}},
{ "type":"Feature","properties":{"osm_way_id":"925623426","amenity":"parking"},"geometry":{"type":"MultiPolygon","coordinates":[[[[-2.51414,53.62867],[-2.51386,53.62858],[-2.51388,53.62856],[-2.51397,53.62858],[-2.51403,53.62858],[-2.51417,53.62865],[-2.51414,53.62867]]]]}},
{ "type":"Feature","properties":{"osm_way_id":"962042118","amenity":"parking","other":{"parking":"surface","surface":"asphalt"}}, "geometry":{"type":"MultiPolygon","coordinates":[[[[-2.69232,53.63163],[-2.69232,53.63166],[-2.69219,53.63167],[-2.69168,53.63173],[-2.69159,53.63148],[-2.69177,53.63146],[-2.69171,53.63125],[-2.69151,53.63127],[-2.69146,53.6311],[-2.69143,53.63098],[-2.69102,53.63103],[-2.69103,53.63107],[-2.69097,53.63107],[-2.69082,53.63075],[-2.69092,53.63073],[-2.69093,53.63076],[-2.69097,53.63075],[-2.69108,53.63074],[-2.69103,53.63061],[-2.69123,53.63059],[-2.69128,53.63058],[-2.69132,53.63069],[-2.69133,53.63071],[-2.69142,53.6307],[-2.69149,53.63069],[-2.69149,53.63064],[-2.69154,53.63065],[-2.69181,53.63069],[-2.69184,53.63074],[-2.69199,53.63072],[-2.69201,53.63076],[-2.6921,53.63075],[-2.69215,53.63087],[-2.69208,53.63089],[-2.6921,53.63102],[-2.69218,53.63101],[-2.69233,53.63146],[-2.69226,53.63146],[-2.69232,53.63163]]]]}},
{ "type":"Feature","properties":{"osm_way_id":"962042119","amenity":"parking","other":{"access":"hgv","operator":"Lorry parking","parking":"surface","surface":"asphalt"}}, "geometry":{"type":"MultiPolygon","coordinates":[[[[-2.69223,53.63174],[-2.69158,53.63178],[-2.69147,53.63189],[-2.69129,53.63189],[-2.69135,53.63224],[-2.6914,53.63241],[-2.69159,53.63238],[-2.69162,53.63238],[-2.69188,53.63251],[-2.69209,53.63269],[-2.69246,53.63235],[-2.69246,53.6323],[-2.69237,53.63198],[-2.69211,53.63186],[-2.69212,53.63184],[-2.69223,53.63174]]]]}},
{ "type":"Feature","properties":{"osm_way_id":"967272474","name":"Co-Op","amenity":"parking","other":{"access":"customers","capacity":"60","capacity:disabled":"5","fee":"no","lit":"yes","maxstay":"2 hours","operator":"Co-Op","parking":"surface","smoothness":"good","surface":"asphalt"}}, "geometry":{"type":"MultiPolygon","coordinates":[[[[-2.59549,53.61736],[-2.595,53.61709],[-2.5951,53.61708],[-2.5952,53.61707],[-2.59538,53.61701],[-2.59547,53.61677],[-2.5956,53.6167],[-2.59589,53.61688],[-2.59582,53.61692],[-2.59589,53.61696],[-2.59575,53.61707],[-2.59567,53.61703],[-2.59551,53.61706],[-2.59572,53.61718],[-2.59549,53.61736]]]]}},
{ "type":"Feature","properties":{"osm_way_id":"969629317","amenity":"parking"},"geometry":{"type":"MultiPolygon","coordinates":[[[[-2.78643,53.67833],[-2.78638,53.67823],[-2.78593,53.67831],[-2.78601,53.67852],[-2.78634,53.67847],[-2.78629,53.67836],[-2.78643,53.67833]]]]}},
{ "type":"Feature","properties":{"osm_way_id":"976061337","name":"The Bridge","amenity":"parking","other":{"access":"customers","parking":"surface"}}, "geometry":{"type":"MultiPolygon","coordinates":[[[[-2.60775,53.6117],[-2.60746,53.61165],[-2.60742,53.61176],[-2.60769,53.6118],[-2.60775,53.6117]]]]}},
{ "type":"Feature","properties":{"osm_way_id":"977372017","name":"The White Horse","amenity":"parking","other":{"access":"customers","parking":"surface","smoothness":"good","surface":"asphalt"}}, "geometry":{"type":"MultiPolygon","coordinates":[[[[-2.60644,53.62272],[-2.60631,53.62255],[-2.60599,53.62259],[-2.6061,53.62272],[-2.60613,53.62275],[-2.60644,53.62272]]]]}},
{ "type":"Feature","properties":{"osm_way_id":"977540962","name":"Cleveland Street Overflow","amenity":"parking","other":{"capacity":"100","capacity:disabled":"6","fee":"yes","lit":"yes","operator":"Chorley Borogh Council","parking":"surface","smoothness":"good","surface":"asphalt"}}, "geometry":{"type":"MultiPolygon","coordinates":[[[[-2.63257,53.65428],[-2.63251,53.65433],[-2.63165,53.65434],[-2.63158,53.65434],[-2.63151,53.65433],[-2.63147,53.65428],[-2.63148,53.65403],[-2.6324,53.6539],[-2.63252,53.65415],[-2.63253,53.65419],[-2.63257,53.65428]]]]}},
{ "type":"Feature","properties":{"osm_way_id":"979784180","building":"house","other":{"addr:city":"Chorley","addr:postcode":"PR7 7LT","addr:street":"Blenheim Place","addr:suburb":"Euxton"}}, "geometry":{"type":"MultiPolygon","coordinates":[[[[-2.67075,53.67508],[-2.67082,53.6751],[-2.67076,53.67518],[-2.67069,53.67516],[-2.67075,53.67508]]]]}},
{ "type":"Feature","properties":{"osm_way_id":"982234853","name":"Car Park","amenity":"parking"},"geometry":{"type":"MultiPolygon","coordinates":[[[[-2.65051,53.66476],[-2.65023,53.66518],[-2.64996,53.66517],[-2.65007,53.66429],[-2.65009,53.66412],[-2.64958,53.6641],[-2.6496,53.66398],[-2.6501,53.66403],[-2.65034,53.66423],[-2.65049,53.66443],[-2.65057,53.66469],[-2.65051,53.66476]]]]}},
{ "type":"Feature","properties":{"osm_way_id":"986773196","amenity":"parking"},"geometry":{"type":"MultiPolygon","coordinates":[[[[-2.66462,53.68091],[-2.66463,53.68078],[-2.66435,53.68077],[-2.66434,53.68086],[-2.66445,53.68091],[-2.66462,53.68091]]]]}},
{ "type":"Feature","properties":{"osm_way_id":"987098479","building":"house"},"geometry":{"type":"MultiPolygon","coordinates":[[[[-2.66913,53.69661],[-2.66894,53.69664],[-2.6689,53.69655],[-2.66909,53.69652],[-2.66913,53.69661]]]]}},
{ "type":"Feature","properties":{"osm_way_id":"987098480","building":"house"},"geometry":{"type":"MultiPolygon","coordinates":[[[[-2.66862,53.69668],[-2.66857,53.69657],[-2.66865,53.69656],[-2.66867,53.6966],[-2.66879,53.69658],[-2.66877,53.69654],[-2.66886,53.69652],[-2.66891,53.69662],[-2.66883,53.69663],[-2.66884,53.69664],[-2.66862,53.69668]]]]}},
{ "type":"Feature","properties":{"osm_way_id":"993894481","amenity":"parking","other":{"parking":"surface","smoothness":"good","surface":"asphalt"}}, "geometry":{"type":"MultiPolygon","coordinates":[[[[-2.77514,53.66287],[-2.77509,53.6628],[-2.77506,53.66271],[-2.77482,53.66275],[-2.77489,53.6629],[-2.77514,53.66287]]]]}},
{ "type":"Feature","properties":{"osm_way_id":"994035695","name":"The Grapes","amenity":"parking","other":{"access":"customers","capacity":"30","parking":"surface","smoothness":"good","surface":"asphalt"}}, "geometry":{"type":"MultiPolygon","coordinates":[[[[-2.77311,53.66026],[-2.77308,53.66037],[-2.773,53.66058],[-2.77293,53.66057],[-2.77289,53.66068],[-2.77275,53.66065],[-2.77291,53.66024],[-2.77311,53.66026]]]]}},
{ "type":"Feature","properties":{"osm_way_id":"1005297991","amenity":"parking","other":{"parking":"surface"}}, "geometry":{"type":"MultiPolygon","coordinates":[[[[-2.78473,53.67882],[-2.78437,53.67875],[-2.7846,53.67846],[-2.78485,53.6785],[-2.78483,53.67856],[-2.78521,53.6786],[-2.78526,53.67891],[-2.78487,53.67886],[-2.78473,53.67882]]]]}},
{ "type":"Feature","properties":{"osm_way_id":"1005923552","amenity":"parking","other":{"parking":"surface"}}, "geometry":{"type":"MultiPolygon","coordinates":[[[[-2.79558,53.67754],[-2.7954,53.67794],[-2.7957,53.67798],[-2.79586,53.6776],[-2.79576,53.67757],[-2.79558,53.67754]]]]}},
{ "type":"Feature","properties":{"osm_way_id":"1014624019","name":"Birkacre","amenity":"parking","other":{"parking":"surface"}}, "geometry":{"type":"MultiPolygon","coordinates":[[[[-2.65164,53.63191],[-2.65145,53.63194],[-2.65136,53.63195],[-2.65148,53.6321],[-2.65136,53.63214],[-2.65137,53.63216],[-2.65128,53.63217],[-2.65124,53.63214],[-2.65113,53.63218],[-2.65105,53.63202],[-2.65104,53.6319],[-2.6511,53.63189],[-2.65108,53.6318],[-2.651,53.63172],[-2.65095,53.63172],[-2.65082,53.63159],[-2.65088,53.63147],[-2.65136,53.63137],[-2.65133,53.63126],[-2.65124,53.63125],[-2.65129,53.63112],[-2.65139,53.63104],[-2.65154,53.63101],[-2.65166,53.63106],[-2.65172,53.63114],[-2.65168,53.63122],[-2.65171,53.63124],[-2.65157,53.63137],[-2.65171,53.63152],[-2.65164,53.63172],[-2.65164,53.63191]]]]}},
{ "type":"Feature","properties":{"osm_way_id":"1030709019","amenity":"parking","other":{"access":"customers","capacity":"350","capacity:disabled":"20","fee":"no","lit":"yes","operator":"Asda","parking":"surface","smoothness":"excellent","surface":"asphalt"}}, "geometry":{"type":"MultiPolygon","coordinates":[[[[-2.64404,53.70781],[-2.64399,53.70785],[-2.64391,53.70787],[-2.64363,53.70789],[-2.64367,53.70824],[-2.64525,53.70816],[-2.64533,53.70775],[-2.64531,53.70764],[-2.64481,53.70766],[-2.64472,53.70702],[-2.64489,53.70701],[-2.64483,53.70659],[-2.64482,53.70648],[-2.64407,53.70654],[-2.64395,53.70666],[-2.64366,53.70671],[-2.64352,53.70685],[-2.6436,53.7073],[-2.64367,53.70731],[-2.64388,53.70756],[-2.64395,53.70756],[-2.64404,53.70756],[-2.64406,53.70771],[-2.64416,53.70771],[-2.64419,53.7078],[-2.64404,53.70781]]]]}},
{ "type":"Feature","properties":{"osm_way_id":"1030713647","amenity":"parking"},"geometry":{"type":"MultiPolygon","coordinates":[[[[-2.63601,53.70386],[-2.63618,53.70399],[-2.63628,53.70416],[-2.63643,53.70414],[-2.6364,53.70405],[-2.63649,53.70401],[-2.63662,53.704],[-2.63668,53.70407],[-2.6368,53.70405],[-2.6367,53.70385],[-2.63601,53.70386]]]]}},
{ "type":"Feature","properties":{"osm_way_id":"1030718160","amenity":"parking"},"geometry":{"type":"MultiPolygon","coordinates":[[[[-2.63625,53.70465],[-2.63647,53.70467],[-2.63656,53.70435],[-2.63644,53.70433],[-2.63635,53.70431],[-2.63625,53.70465]]]]}},
{ "type":"Feature","properties":{"osm_way_id":"1035336861","amenity":"parking","other":{"access":"customers","capacity":"60","capacity:disabled":"3","fee":"no","parking":"surface","smoothness":"intermediate","surface":"asphalt"}}, "geometry":{"type":"MultiPolygon","coordinates":[[[[-2.70183,53.67073],[-2.70133,53.67094],[-2.70106,53.67072],[-2.70172,53.67044],[-2.70193,53.67062],[-2.70178,53.67069],[-2.70183,53.67073]]]]}},
{ "type":"Feature","properties":{"osm_way_id":"1035837475","amenity":"parking","other":{"access":"customers","capacity":"15","fee":"no","parking":"surface","smoothness":"intermediate","surface":"asphalt"}}, "geometry":{"type":"MultiPolygon","coordinates":[[[[-2.61941,53.66149],[-2.61938,53.66136],[-2.61926,53.66136],[-2.61924,53.66138],[-2.61906,53.6613],[-2.61909,53.66128],[-2.61899,53.66123],[-2.61881,53.66124],[-2.61885,53.66132],[-2.61892,53.66146],[-2.61908,53.66154],[-2.61916,53.66153],[-2.61929,53.66151],[-2.61941,53.66149]]]]}}
]
}
