{
"type": "FeatureCollection",
"features": [
{ "type":"Feature","properties":{"osm_id":"27025138","name":"Tesco Extra","other":{"addr:postcode":"SK9 3PA","addr:street":"Kiln Croft Lane","branch_name":"Handforth Dean","brand":"Tesco Extra","brand:wikidata":"Q25172225","brand:wikipedia":"en:Tesco Extra","fhrs:id":"891683","shop":"supermarket","website":"https:\/\/www.tesco.com\/store-locator\/wilmslow\/kiln-croft-ln"}}, "geometry":{"type":"Point","coordinates":[-2.20576,53.34985 ]}},
{ "type":"Feature","properties":{"osm_id":"30621886","name":"Asda","other":{"addr:city":"Crewe","addr:country":"GB","addr:housename":"Victoria Centre","addr:postcode":"CW1 2PT","alt_name":"ASDA Crewe Superstore","brand":"Asda","brand:wikidata":"Q297410","brand:wikipedia":"en:Asda","contact:website":"https:\/\/storelocator.asda.com\/north-west\/crewe\/victoria-centre","fhrs:id":"890150","opening_hours":"Mo-Fr 07:00-23:00; Sa 07:00-22:00; Su 10:00-16:00","operator":"Asda Stores Ltd","shop":"supermarket"}}, "geometry":{"type":"Point","coordinates":[-2.44391,53.09961 ]}},
{ "type":"Feature","properties":{"osm_id":"248481822","name":"Co-op Food Stores","other":{"addr:housenumber":"16","addr:postcode":"SK10 3ET","addr:street":"Westmorland Close","fhrs:id":"948530","shop":"supermarket","source:addr":"FHRS Open Data"}}, "geometry":{"type":"Point","coordinates":[-2.15454,53.26808 ]}},
{ "type":"Feature","properties":{"osm_id":"326095433","name":"Co-Op","other":{"addr:housenumber":"192","addr:postcode":"SK11 7XZ","addr:street":"Thornton Avenue","fhrs:id":"891829","shop":"supermarket"}}, "geometry":{"type":"Point","coordinates":[-2.14853,53.24788 ]}},
{ "type":"Feature","properties":{"osm_id":"936496145","name":"Waitrose","other":{"addr:housenumber":"89","addr:postcode":"SK12 1RD","addr:street":"Park Lane","brand":"Waitrose","brand:wikidata":"Q771734","brand:wikipedia":"en:Waitrose","fhrs:id":"892716","official_name":"Waitrose & Partners","operator":"Waitrose & Partners","shop":"supermarket","source:addr":"FHRS Open Data"}}, "geometry":{"type":"Point","coordinates":[-2.11725,53.34878 ]}},
{ "type":"Feature","properties":{"osm_id":"1970909946","name":"Co-Op","other":{"addr:city":"Wilmslow","addr:housenumber":"51","addr:postcode":"SK9 5BQ","addr:street":"Water Lane","fhrs:id":"891222","opening_hours":"PH,Mo-Su 06:00-23:00","phone":"+44 1625 521032","shop":"supermarket"}}, "geometry":{"type":"Point","coordinates":[-2.23732,53.32651 ]}},
{ "type":"Feature","properties":{"osm_id":"3304504486","name":"The Co-Op Food","other":{"addr:city":"Prestbury","addr:postcode":"SK10 4AL","addr:street":"the Village","fhrs:id":"891468","shop":"supermarket"}}, "geometry":{"type":"Point","coordinates":[-2.15251,53.28887 ]}},
{ "type":"Feature","properties":{"osm_id":"4439682119","name":"M&S Foodhall","other":{"addr:city":"Congleton","addr:housenumber":"Unit A","addr:postcode":"CW12 1LJ","addr:street":"Congleton Retail Park, Barn Road","brand":"M&S Foodhall","brand:wikidata":"Q714491","brand:wikipedia":"en:Marks & Spencer","fhrs:id":"891132","opening_hours":"Mo- Fr 08:00-20:00; Sa 08:00-19:00; Su 10:00-16:00","phone":"+44 1260 278032","shop":"supermarket","source:addr:postcode":"FHRS Open Data","website":"https:\/\/www.marksandspencer.com\/"}}, "geometry":{"type":"Point","coordinates":[-2.21751,53.17042 ]}},
{ "type":"Feature","properties":{"osm_id":"4721014844","name":"Spar","other":{"addr:postcode":"ST7 2JJ","addr:street":"Crewe Road","brand":"Spar","brand:wikidata":"Q610492","brand:wikipedia":"en:SPAR (retailer)","fhrs:id":"891154","shop":"supermarket","source:addr":"FHRS Open Data"}}, "geometry":{"type":"Point","coordinates":[-2.32757,53.09126 ]}},
{ "type":"Feature","properties":{"osm_id":"6241749196","name":"The Corner Plot","other":{"addr:city":"Macclesfield","addr:housenumber":"119","addr:postcode":"SK11 6UA","addr:street":"Park Lane","description":"Not for profit (social enterprise) fruit and vegetable shop. Sells locally grown, fresh produce. They also sell other items, and things from further afield.","fhrs:id":"890341","payment:cash":"yes","shop":"supermarket","website":"http:\/\/www.thecornerplot.co.uk\/"}}, "geometry":{"type":"Point","coordinates":[-2.12723,53.25432 ]}},
{ "type":"Feature","properties":{"osm_id":"6591789395","name":"Co-op Food","other":{"addr:housenumber":"28","addr:postcode":"CW4 7AJ","addr:street":"London Road","brand":"Co-op Food","brand:wikidata":"Q3277439","brand:wikipedia":"en:Co-op Food","fhrs:id":"890228","opening_hours":"Mo-Sa 06:00-22:00; Su 10:00-16:00","shop":"supermarket","wheelchair":"yes"}}, "geometry":{"type":"Point","coordinates":[-2.35799,53.20181 ]}},
{ "type":"Feature","properties":{"osm_id":"7127152320","name":"Argos","other":{"brand":"Argos","brand:wikidata":"Q4789707","brand:wikipedia":"en:Argos (retailer)","operator":"Argos","shop":"catalogue"}}, "geometry":{"type":"Point","coordinates":[-2.23404,53.32418 ]}},
{ "type":"Feature","properties":{"osm_id":"7619749872","name":"Londis","other":{"addr:city":"Congleton","addr:postcode":"CW12 1NP","addr:street":"Manchester Road","brand":"Londis","brand:wikidata":"Q21008564","brand:wikipedia":"en:Londis (United Kingdom)","facebook":"https:\/\/www.facebook.com\/LondisCongleton\/","fhrs:id":"1001410","opening_hours":"Mo-Sa 07:00-21:00; Su 08:00-20:00","opening_hours:covid19":"open","shop":"supermarket","source:addr":"FHRS Open Data","website":"https:\/\/www.londis.co.uk\/our-stores\/huub-store"}}, "geometry":{"type":"Point","coordinates":[-2.20793,53.17338 ]}},
{ "type":"Feature","properties":{"osm_id":"8393412237","name":"Demeter Natures Food","other":{"organic":"only","phone":"+441270760445","shop":"supermarket","website":"http:\/\/www.demeternaturesfood.com"}}, "geometry":{"type":"Point","coordinates":[-2.36413,53.14496 ]}},
{ "type":"Feature","properties":{"osm_id":"9197011147","name":"Congleton Social Supermarket","other":{"opening_hours":"We,Fr 10:00-14:00","shop":"supermarket"}}, "geometry":{"type":"Point","coordinates":[-2.20762,53.16266 ]}},
{ "type":"Feature","properties":{"osm_id":"9218704932","name":"Lidl","other":{"addr:country":"GB","addr:postcode":"CW2 7BB","addr:street":"Mill Street","brand":"Lidl","brand:wikidata":"Q151954","brand:wikipedia":"en:Lidl","fhrs:id":"1391888","shop":"supermarket"}}, "geometry":{"type":"Point","coordinates":[-2.43803,53.09231 ]}},
{ "type":"Feature","properties":{"osm_way_id":"42291302","name":"Sainsbury's","building":"yes","shop":"supermarket","other":{"addr:housenumber":"67","addr:postcode":"SK9 1NZ","addr:street":"Alderley Road","brand":"Sainsbury's","brand:wikidata":"Q152096","brand:wikipedia":"en:Sainsbury's","fhrs:id":"891704"}}, "geometry":{"type":"MultiPolygon","coordinates":[[[[-2.23437,53.32427],[-2.23462,53.32394],[-2.23368,53.32369],[-2.23356,53.32385],[-2.23329,53.32378],[-2.23317,53.32394],[-2.23404,53.32418],[-2.23437,53.32427]]]]}},
{ "type":"Feature","properties":{"osm_way_id":"42291455","name":"Waitrose","building":"yes","shop":"supermarket","other":{"addr:postcode":"SK9 1AY","addr:street":"Church Street","brand":"Waitrose","brand:wikidata":"Q771734","brand:wikipedia":"en:Waitrose","fhrs:id":"889744","official_name":"Waitrose & Partners","operator":"Waitrose & Partners"}}, "geometry":{"type":"MultiPolygon","coordinates":[[[[-2.22958,53.329],[-2.22953,53.329],[-2.22952,53.32901],[-2.2291,53.32896],[-2.2291,53.32894],[-2.22906,53.32894],[-2.22906,53.32891],[-2.22908,53.32891],[-2.22915,53.32832],[-2.22921,53.32808],[-2.22922,53.32805],[-2.22962,53.32809],[-2.22972,53.32816],[-2.22966,53.32836],[-2.22972,53.32837],[-2.22973,53.32833],[-2.2298,53.32833],[-2.22978,53.32841],[-2.22984,53.32841],[-2.22967,53.32896],[-2.22965,53.32896],[-2.22964,53.32898],[-2.22959,53.32897],[-2.22958,53.329]]]]}},
{ "type":"Feature","properties":{"osm_way_id":"92242009","name":"Morrisons","building":"retail","shop":"supermarket","other":{"addr:city":"Crewe","addr:postcode":"CW1 3AW","addr:street":"Dunwoody Way","alt_name":"Morrisons Crewe","brand":"Morrisons","brand:wikidata":"Q922344","brand:wikipedia":"en:Morrisons","fhrs:id":"889866","opening_hours":"Mo-Sa 07:00-21:00; Su 10:00-16:00","website":"https:\/\/my.morrisons.com\/storefinder\/120"}}, "geometry":{"type":"MultiPolygon","coordinates":[[[[-2.45341,53.09906],[-2.45348,53.09895],[-2.45321,53.09889],[-2.45323,53.09885],[-2.45301,53.0988],[-2.45309,53.09866],[-2.45293,53.09862],[-2.45304,53.09843],[-2.4532,53.09846],[-2.45323,53.09842],[-2.45332,53.09844],[-2.45336,53.09838],[-2.45349,53.0984],[-2.45352,53.09836],[-2.45464,53.09859],[-2.45461,53.09865],[-2.45438,53.09906],[-2.45435,53.09911],[-2.45445,53.09913],[-2.45435,53.09931],[-2.45405,53.09925],[-2.45408,53.09919],[-2.45341,53.09906]]]]}},
{ "type":"Feature","properties":{"osm_way_id":"95588478","name":"Tesco","building":"yes","shop":"supermarket","other":{"addr:city":"Stalham","addr:postcode":"NR12 9AE","addr:street":"Old Market Road","brand":"Tesco","brand:wikidata":"Q487494","brand:wikipedia":"en:Tesco","fhrs:id":"281588","opening_hours":"Mo-Sa 08:00-22:00; Su 10:00-16:00","operator":"Tesco Stores Ltd"}}, "geometry":{"type":"MultiPolygon","coordinates":[[[[1.51543,52.77118],[1.51518,52.7706],[1.5155,52.77055],[1.51552,52.77058],[1.51577,52.77054],[1.51594,52.77095],[1.5162,52.77091],[1.51623,52.771],[1.516,52.77112],[1.51548,52.7712],[1.51548,52.77118],[1.51543,52.77118]]]]}},
{ "type":"Feature","properties":{"osm_way_id":"111834274","name":"Morrisons","building":"yes","shop":"supermarket","other":{"brand":"Morrisons","brand:wikidata":"Q922344","brand:wikipedia":"en:Morrisons"}}, "geometry":{"type":"MultiPolygon","coordinates":[[[[-2.94833,56.48452],[-2.94836,56.48432],[-2.94836,56.48429],[-2.94823,56.48428],[-2.94832,56.48378],[-2.94814,56.48376],[-2.94816,56.48366],[-2.94807,56.48366],[-2.94807,56.48357],[-2.9479,56.48357],[-2.9479,56.48356],[-2.94763,56.48354],[-2.94764,56.48343],[-2.94723,56.4834],[-2.9472,56.48351],[-2.94713,56.48351],[-2.94696,56.48436],[-2.94792,56.48442],[-2.9479,56.4845],[-2.94833,56.48452]]]]}},
{ "type":"Feature","properties":{"osm_way_id":"120017151","name":"The Co-operative Food","building":"yes","shop":"supermarket","other":{"addr:housenumber":"12","addr:postcode":"WA16 8HG","addr:street":"Parkgate Lane","fhrs:id":"1023100"}}, "geometry":{"type":"MultiPolygon","coordinates":[[[[-2.35999,53.30884],[-2.35977,53.30884],[-2.35978,53.30852],[-2.35999,53.30852],[-2.35999,53.30884]]]]}},
{ "type":"Feature","properties":{"osm_way_id":"134148022","name":"McColls","building":"yes","shop":"supermarket","other":{"is_in":"Crewe, Cheshire, England, United Kingdom"}}, "geometry":{"type":"MultiPolygon","coordinates":[[[[-2.43989,53.10406],[-2.43966,53.10403],[-2.4397,53.10391],[-2.43993,53.10394],[-2.43989,53.10406]]]]}},
{ "type":"Feature","properties":{"osm_way_id":"137135025","name":"Tesco","building":"yes","shop":"supermarket","other":{"brand":"Tesco","brand:wikidata":"Q487494","brand:wikipedia":"en:Tesco"}}, "geometry":{"type":"MultiPolygon","coordinates":[[[[-2.24466,53.51359],[-2.24415,53.51285],[-2.24383,53.51292],[-2.2438,53.51293],[-2.2439,53.51307],[-2.24335,53.5132],[-2.24321,53.51303],[-2.243,53.51309],[-2.24315,53.51326],[-2.24304,53.51329],[-2.24346,53.51389],[-2.24466,53.51359]]]]}},
{ "type":"Feature","properties":{"osm_way_id":"148275936","name":"Co-operative","building":"yes","shop":"supermarket","other":{"addr:postcode":"CW1 5NP","addr:street":"Beswick Drive","fhrs:id":"890284"}}, "geometry":{"type":"MultiPolygon","coordinates":[[[[-2.41523,53.09319],[-2.41496,53.09323],[-2.41501,53.09338],[-2.41529,53.09334],[-2.41523,53.09319]]]]}},
{ "type":"Feature","properties":{"osm_way_id":"150274270","name":"Morrisons","building":"retail","shop":"supermarket","other":{"addr:city":"Nantwich","addr:postcode":"CW5 5SP","addr:street":"Station Road","alt_name":"Morrisons Nantwich","brand":"Morrisons","brand:wikidata":"Q922344","brand:wikipedia":"en:Morrisons","fhrs:id":"890108","opening_hours":"Mo-Sa 07:00-22:00; Su 10:00-16:00","wheelchair":"yes"}}, "geometry":{"type":"MultiPolygon","coordinates":[[[[-2.51982,53.06496],[-2.5189,53.06509],[-2.5187,53.06457],[-2.51936,53.06447],[-2.51942,53.06462],[-2.51967,53.06458],[-2.51982,53.06496]]]]}},
{ "type":"Feature","properties":{"osm_way_id":"150276834","name":"ALDI","building":"retail","shop":"supermarket","other":{"addr:city":"Nantwich","addr:country":"GB","addr:postcode":"CW5 5SP","addr:street":"Station Road","alt_name":"ALDI Nantwich","brand":"ALDI","brand:wikidata":"Q41171672","brand:wikipedia":"en:Aldi","contact:website":"https:\/\/www.aldi.co.uk\/store\/s-uk-E0379","fhrs:id":"890107","opening_hours":"Mo-Sa 08:00-21:00; Su 10:00-16:00","wheelchair":"yes"}}, "geometry":{"type":"MultiPolygon","coordinates":[[[[-2.51875,53.06402],[-2.51793,53.06411],[-2.5179,53.06401],[-2.51781,53.06402],[-2.51777,53.0639],[-2.51868,53.0638],[-2.51875,53.06402]]]]}},
{ "type":"Feature","properties":{"osm_way_id":"156944508","name":"Sainsbury's","building":"yes","shop":"supermarket","other":{"addr:city":"Nantwich","addr:postcode":"CW5 6PH","addr:street":"Middlewich Road","alt_name":"Sainsbury's Nantwich Superstore","brand":"Sainsbury's","brand:wikidata":"Q152096","brand:wikipedia":"en:Sainsbury's","fhrs:id":"892575","opening_hours":"Mo-Fr 07:00-23:00; Sa 07:00-22:00; Su 10:00-16:00","source:addr":"Food Hygiene Open Data","toilets:wheelchair":"yes","wheelchair":"yes"}}, "geometry":{"type":"MultiPolygon","coordinates":[[[[-2.51622,53.07815],[-2.51593,53.07815],[-2.51593,53.07768],[-2.51518,53.07768],[-2.51518,53.07766],[-2.51468,53.07764],[-2.51468,53.07767],[-2.51465,53.07854],[-2.51465,53.07858],[-2.51479,53.07858],[-2.51479,53.07855],[-2.51622,53.07854],[-2.51622,53.07815]]]]}},
{ "type":"Feature","properties":{"osm_way_id":"158569171","name":"Sainsbury's","building":"yes","shop":"supermarket","other":{"addr:housenumber":"61","addr:postcode":"SK10 1BJ","addr:street":"Cumberland Street","brand":"Sainsbury's","brand:wikidata":"Q152096","brand:wikipedia":"en:Sainsbury's","contact:website":"https:\/\/stores.sainsburys.co.uk\/0719\/macclesfield","fhrs:id":"891921","opening_hours":"Mo-Su 07:00-10:00,16:00-22:00","phone":"+44 1625 503592"}}, "geometry":{"type":"MultiPolygon","coordinates":[[[[-2.13292,53.2634],[-2.13258,53.26339],[-2.13258,53.26345],[-2.13178,53.26342],[-2.13183,53.26287],[-2.13217,53.26288],[-2.1322,53.26266],[-2.13248,53.26267],[-2.13281,53.26269],[-2.13292,53.26269],[-2.133,53.26269],[-2.13299,53.26276],[-2.13297,53.26288],[-2.13292,53.2634]]]]}},
{ "type":"Feature","properties":{"osm_way_id":"165214354","name":"The Co-operative Food","building":"yes","shop":"supermarket","other":{"addr:postcode":"CW6 9QS","addr:street":"Bunbury Lane","fhrs:id":"889810"}}, "geometry":{"type":"MultiPolygon","coordinates":[[[[-2.65144,53.11556],[-2.65113,53.11547],[-2.65107,53.11556],[-2.65137,53.11564],[-2.65144,53.11556]]]]}},
{ "type":"Feature","properties":{"osm_way_id":"188527321","name":"Asda","building":"yes","shop":"supermarket","other":{"addr:country":"GB","addr:housenumber":"19-23","addr:postcode":"ST7 2AA","addr:street":"Lawton Road","brand":"Asda","brand:wikidata":"Q297410","brand:wikipedia":"en:Asda","contact:website":"https:\/\/storelocator.asda.com\/north-west\/stoke-on-trent\/19-21-lawton-road-alsager","fhrs:id":"889930","operator":"Asda Stores Ltd","source:addr":"FHRS Open Data"}}, "geometry":{"type":"MultiPolygon","coordinates":[[[[-2.30335,53.09732],[-2.30331,53.09733],[-2.3028,53.09744],[-2.30252,53.09699],[-2.30269,53.09695],[-2.30287,53.09691],[-2.30286,53.09689],[-2.30312,53.09683],[-2.30327,53.09707],[-2.3032,53.09708],[-2.30335,53.09732]]]]}},
{ "type":"Feature","properties":{"osm_way_id":"199112480","name":"Lidl","building":"yes","shop":"supermarket","other":{"addr:postcode":"CW10 9ET","addr:street":"Chester Road","brand":"Lidl","brand:wikidata":"Q151954","fhrs:id":"922921","source:name":"survey"}}, "geometry":{"type":"MultiPolygon","coordinates":[[[[-2.45119,53.19458],[-2.45092,53.19452],[-2.45088,53.19457],[-2.45078,53.19455],[-2.45096,53.19426],[-2.45114,53.19399],[-2.45157,53.19409],[-2.45135,53.19443],[-2.45129,53.19442],[-2.45119,53.19458]]]]}},
{ "type":"Feature","properties":{"osm_way_id":"250953126","name":"Tesco","building":"retail","shop":"supermarket","other":{"addr:city":"Macclesfield","addr:postcode":"SK10 2AB","addr:street":"Hibel Road","brand":"Tesco","brand:wikidata":"Q487494","brand:wikipedia":"en:Tesco","fhrs:id":"891909","internet_access":"wlan","operator":"Tesco PLC"}}, "geometry":{"type":"MultiPolygon","coordinates":[[[[-2.12225,53.26458],[-2.12277,53.26471],[-2.12288,53.26456],[-2.12322,53.26449],[-2.12297,53.26404],[-2.12289,53.26406],[-2.1227,53.26374],[-2.12236,53.2636],[-2.12233,53.26374],[-2.12213,53.26373],[-2.12179,53.2638],[-2.122,53.26414],[-2.12225,53.26458]]]]}},
{ "type":"Feature","properties":{"osm_way_id":"251574226","name":"Tesco Metro","building":"retail","shop":"supermarket","other":{"addr:city":"Macclesfield","addr:housename":"tesco metro","addr:postcode":"SK11 6UZ","addr:street":"Exchange Street","brand":"Tesco Metro","brand:wikidata":"Q57551648","building:levels":"2","fhrs:id":"948532","opening_hours":"Mo-Sa 07:00-20:00; Su 11:00-17:00","source:addr:postcode":"FHRS Open Data"}}, "geometry":{"type":"MultiPolygon","coordinates":[[[[-2.12791,53.25894],[-2.12773,53.25894],[-2.12749,53.25893],[-2.12749,53.25904],[-2.12713,53.25904],[-2.12714,53.25894],[-2.12695,53.25893],[-2.12697,53.2587],[-2.12704,53.2587],[-2.12704,53.25863],[-2.12786,53.25864],[-2.12791,53.25868],[-2.12791,53.25894]]]]}},
{ "type":"Feature","properties":{"osm_way_id":"259615376","name":"Jack's","building":"retail","shop":"supermarket","other":{"addr:city":"Middlewich","addr:housename":"Middlewich Superstore","addr:postcode":"CW10 9BL","addr:street":"Southway","brand":"Jack's","brand:wikidata":"Q60741213","brand:wikipedia":"en:Jack's (store)","fhrs:id":"1091983","website":"https:\/\/www.jacks-uk.com\/","wheelchair":"yes"}}, "geometry":{"type":"MultiPolygon","coordinates":[[[[-2.44844,53.19196],[-2.44801,53.19227],[-2.44781,53.19218],[-2.44778,53.1922],[-2.44768,53.19216],[-2.44819,53.19176],[-2.44832,53.19182],[-2.44826,53.19186],[-2.44844,53.19196]]]]}},
{ "type":"Feature","properties":{"osm_way_id":"294602565","name":"ALDI","building":"yes","shop":"supermarket","other":{"addr:housenumber":"4","addr:postcode":"WA16 8BN","addr:street":"Brook Street","brand":"ALDI","brand:wikidata":"Q41171672","brand:wikipedia":"en:Aldi","fhrs:id":"890336"}}, "geometry":{"type":"MultiPolygon","coordinates":[[[[-2.36919,53.30296],[-2.36908,53.30291],[-2.36912,53.30288],[-2.36895,53.30276],[-2.36912,53.30266],[-2.36901,53.3026],[-2.36945,53.30233],[-2.36971,53.30248],[-2.36977,53.30244],[-2.36987,53.3025],[-2.3699,53.30253],[-2.36919,53.30296]]]]}},
{ "type":"Feature","properties":{"osm_way_id":"297862467","name":"Morrisons","landuse":"retail","shop":"supermarket","other":{"addr:postcode":"CW10 9EX","addr:street":"Newton Bank","brand":"Morrisons","brand:wikidata":"Q922344","brand:wikipedia":"en:Morrisons","fhrs:id":"890499"}}, "geometry":{"type":"MultiPolygon","coordinates":[[[[-2.45323,53.19387],[-2.45315,53.19373],[-2.4539,53.1932],[-2.45466,53.19348],[-2.45507,53.19386],[-2.45513,53.19391],[-2.45484,53.19401],[-2.45431,53.19429],[-2.45407,53.19438],[-2.45374,53.1942],[-2.4537,53.19415],[-2.45361,53.19413],[-2.45323,53.19387]]]]}},
{ "type":"Feature","properties":{"osm_way_id":"306446236","name":"Waitrose","building":"yes","shop":"supermarket","other":{"addr:postcode":"CW11 4BE","addr:street":"Flat Lane","alt_name":"Waitrose Sandbach","brand":"Waitrose","brand:wikidata":"Q771734","brand:wikipedia":"en:Waitrose","fhrs:id":"891721","official_name":"Waitrose & Partners","operator":"Waitrose & Partners","toilets:wheelchair":"yes","wheelchair":"yes"}}, "geometry":{"type":"MultiPolygon","coordinates":[[[[-2.36393,53.14284],[-2.36343,53.14306],[-2.36325,53.14292],[-2.36328,53.1429],[-2.36315,53.1428],[-2.36306,53.14284],[-2.3629,53.14271],[-2.36278,53.14262],[-2.36353,53.14229],[-2.36408,53.14273],[-2.36389,53.14281],[-2.36393,53.14284]]]]}},
{ "type":"Feature","properties":{"osm_way_id":"311897199","name":"ALDI","building":"yes","shop":"supermarket","other":{"addr:postcode":"CW11 1DH","addr:street":"Middlewich Street","alt_name":"Aldi Sandbach","brand":"ALDI","brand:wikidata":"Q41171672","brand:wikipedia":"en:Aldi","fhrs:id":"890949"}}, "geometry":{"type":"MultiPolygon","coordinates":[[[[-2.36748,53.14418],[-2.3672,53.14395],[-2.36659,53.14426],[-2.36654,53.14422],[-2.3664,53.14429],[-2.3667,53.14451],[-2.3669,53.1444],[-2.36714,53.14429],[-2.36718,53.14432],[-2.36748,53.14418]]]]}},
{ "type":"Feature","properties":{"osm_way_id":"332909860","name":"Heron Foods","building":"yes","landuse":"commercial","shop":"supermarket","other":{"brand":"Heron Foods","brand:wikidata":"Q5743472","brand:wikipedia":"en:Heron Foods","operator":"Heron Foods"}}, "geometry":{"type":"MultiPolygon","coordinates":[[[[-2.46217,53.11362],[-2.46199,53.11358],[-2.46203,53.11351],[-2.46187,53.11348],[-2.46189,53.11343],[-2.46149,53.11335],[-2.46145,53.11341],[-2.46123,53.11338],[-2.46105,53.11368],[-2.46126,53.11372],[-2.46149,53.11377],[-2.46164,53.11381],[-2.46202,53.11396],[-2.46217,53.11362]]]]}},
{ "type":"Feature","properties":{"osm_way_id":"352332709","name":"ALDI","building":"retail","shop":"supermarket","other":{"addr:city":"Macclesfield","addr:postcode":"SK11 6LP","addr:street":"Queen Victoria Street","brand":"ALDI","brand:wikidata":"Q41171672","brand:wikipedia":"en:Aldi","building:levels":"1","fhrs:id":"891841","phone":"+44 800 042 0800"}}, "geometry":{"type":"MultiPolygon","coordinates":[[[[-2.12443,53.25839],[-2.12438,53.25839],[-2.12399,53.25843],[-2.12414,53.25891],[-2.12433,53.25889],[-2.12431,53.25883],[-2.1245,53.25881],[-2.12441,53.25851],[-2.12447,53.25851],[-2.12443,53.25839]]]]}},
{ "type":"Feature","properties":{"osm_way_id":"367700824","name":"Tesco Extra","building":"yes","shop":"supermarket","other":{"addr:city":"Crewe","addr:postcode":"CW1 2DD","addr:street":"Vernon Way","alt_name":"Tesco Crewe Extra","brand":"Tesco Extra","brand:wikidata":"Q25172225","brand:wikipedia":"en:Tesco Extra","fhrs:id":"890141","layer":"1","opening_hours":"Mo-Sa 00:00-24:00; Su 10:00-16:00","website":"https:\/\/www.tesco.com\/store-locator\/crewe\/vernon-way"}}, "geometry":{"type":"MultiPolygon","coordinates":[[[[-2.43655,53.0941],[-2.43697,53.09398],[-2.43752,53.09408],[-2.43759,53.09419],[-2.4377,53.09433],[-2.43779,53.09446],[-2.43789,53.09459],[-2.43799,53.09473],[-2.43807,53.09484],[-2.43793,53.09488],[-2.43798,53.09494],[-2.43799,53.09496],[-2.43789,53.09499],[-2.43679,53.09528],[-2.43675,53.09522],[-2.43668,53.09524],[-2.4363,53.09476],[-2.43626,53.09465],[-2.43643,53.09459],[-2.43626,53.09436],[-2.43688,53.09419],[-2.43681,53.0941],[-2.4368,53.09409],[-2.43659,53.09415],[-2.43627,53.09429],[-2.43621,53.09424],[-2.43655,53.0941]]]]}},
{ "type":"Feature","properties":{"osm_way_id":"367872942","name":"The Co-operative Food","building":"yes","shop":"supermarket","other":{"addr:housenumber":"222","addr:postcode":"ST7 3HF","addr:street":"Congleton Road","fhrs:id":"891419"}}, "geometry":{"type":"MultiPolygon","coordinates":[[[[-2.25258,53.10929],[-2.25262,53.1094],[-2.25239,53.10943],[-2.25238,53.10941],[-2.25227,53.10943],[-2.25226,53.10941],[-2.25223,53.10941],[-2.2522,53.10934],[-2.25258,53.10929]]]]}},
{ "type":"Feature","properties":{"osm_way_id":"368025954","name":"The Co-operative Food","building":"yes","shop":"supermarket","other":{"addr:city":"Sandbach","addr:postcode":"CW11 1TE","addr:street":"Lawton Way","fhrs:id":"890933","not:addr:postcode":"CW11 1TF","operator":"The Co-operative Group","source:addr:postcode":"FHRS data","wheelchair":"yes"}}, "geometry":{"type":"MultiPolygon","coordinates":[[[[-2.38476,53.14819],[-2.38447,53.14846],[-2.38412,53.14833],[-2.38433,53.14814],[-2.38442,53.14806],[-2.38476,53.14819]]]]}},
{ "type":"Feature","properties":{"osm_way_id":"368025959","name":"The Co-operative Food","building":"yes","shop":"supermarket","other":{"addr:housenumber":"216","addr:postcode":"CW11 3EJ","addr:street":"Middlewich Road","fhrs:id":"890964","operator":"The Co-operative Group","wheelchair":"yes"}}, "geometry":{"type":"MultiPolygon","coordinates":[[[[-2.38585,53.14587],[-2.38559,53.14603],[-2.38549,53.14596],[-2.38547,53.14598],[-2.38536,53.14591],[-2.38564,53.14574],[-2.38585,53.14587]]]]}},
{ "type":"Feature","properties":{"osm_way_id":"402052505","name":"ALDI","landuse":"retail","shop":"supermarket","other":{"addr:postcode":"CW12 1DL","addr:street":"Mountbatten Way","brand":"ALDI","brand:wikidata":"Q41171672","brand:wikipedia":"en:Aldi","fhrs:id":"891145"}}, "geometry":{"type":"MultiPolygon","coordinates":[[[[-2.21186,53.16599],[-2.21176,53.16603],[-2.21152,53.16613],[-2.2114,53.16614],[-2.21095,53.16604],[-2.21097,53.16599],[-2.21098,53.16596],[-2.21096,53.16591],[-2.21109,53.16587],[-2.21118,53.16584],[-2.21115,53.16554],[-2.21126,53.16554],[-2.21143,53.16554],[-2.21184,53.16551],[-2.21187,53.1657],[-2.21188,53.16577],[-2.21189,53.16588],[-2.21188,53.16594],[-2.21186,53.16599]]]]}},
{ "type":"Feature","properties":{"osm_way_id":"402940516","name":"Booths","building":"yes","shop":"supermarket","other":{"addr:postcode":"WA16 0BS","addr:street":"Stanley Road","brand":"Booths","brand:wikidata":"Q4943949","brand:wikipedia":"en:Booths","contact:website":"https:\/\/www.booths.co.uk\/store\/knutsford\/","fhrs:id":"891720"}}, "geometry":{"type":"MultiPolygon","coordinates":[[[[-2.37617,53.30234],[-2.37611,53.30217],[-2.37622,53.30216],[-2.37614,53.30193],[-2.37603,53.30195],[-2.37597,53.30177],[-2.37567,53.30174],[-2.37551,53.30171],[-2.37542,53.30191],[-2.37557,53.30192],[-2.37572,53.30232],[-2.37556,53.3024],[-2.37573,53.30254],[-2.37617,53.30234]]]]}},
{ "type":"Feature","properties":{"osm_way_id":"420546824","name":"ALDI","building":"yes","shop":"supermarket","other":{"addr:housenumber":"10","addr:postcode":"SK12 1NJ","addr:street":"London Road South","brand":"ALDI","brand:wikidata":"Q41171672","brand:wikipedia":"en:Aldi","fhrs:id":"907034","source:addr":"FHRS Open Data"}}, "geometry":{"type":"MultiPolygon","coordinates":[[[[-2.12415,53.34776],[-2.1243,53.3475],[-2.12339,53.34735],[-2.12328,53.34762],[-2.12415,53.34776]]]]}},
{ "type":"Feature","properties":{"osm_way_id":"421277753","name":"The Co-operative & Post Office","building":"yes","shop":"supermarket","other":{"addr:housenumber":"7","addr:postcode":"WA16 6BY","addr:street":"Princess Street","fhrs:id":"891726","source:addr":"FHRS Open Data"}}, "geometry":{"type":"MultiPolygon","coordinates":[[[[-2.37475,53.3037],[-2.37445,53.30381],[-2.37452,53.30388],[-2.37468,53.30382],[-2.37482,53.30378],[-2.37475,53.3037]]]]}},
{ "type":"Feature","properties":{"osm_way_id":"421280731","name":"Waitrose","building":"yes","shop":"supermarket","other":{"addr:housenumber":"28-30","addr:postcode":"WA16 6BU","addr:street":"Princess Street","brand":"Waitrose","brand:wikidata":"Q771734","brand:wikipedia":"en:Waitrose","fhrs:id":"891227","official_name":"Waitrose & Partners","operator":"Waitrose & Partners"}}, "geometry":{"type":"MultiPolygon","coordinates":[[[[-2.37588,53.30452],[-2.37587,53.30441],[-2.37573,53.30426],[-2.37539,53.30435],[-2.37543,53.30449],[-2.3755,53.30449],[-2.37555,53.30455],[-2.37588,53.30452]]]]}},
{ "type":"Feature","properties":{"osm_way_id":"438305416","name":"Lidl","building":"supermarket","shop":"supermarket","other":{"addr:country":"GB","addr:housenumber":"5","addr:postcode":"SK9 2TB","addr:street":"Dean Row Court","brand":"Lidl","brand:wikidata":"Q151954","brand:wikipedia":"en:Lidl","fhrs:id":"1023099","survey:date":"2019-12-04"}}, "geometry":{"type":"MultiPolygon","coordinates":[[[[-2.21636,53.33773],[-2.21635,53.3374],[-2.21627,53.3374],[-2.21626,53.33718],[-2.21624,53.33718],[-2.21624,53.33709],[-2.21635,53.33709],[-2.21678,53.33708],[-2.21679,53.33741],[-2.2168,53.3376],[-2.21692,53.3376],[-2.21692,53.33773],[-2.21636,53.33773]]]]}},
{ "type":"Feature","properties":{"osm_way_id":"446731686","name":"Tesco","building":"yes","shop":"supermarket","other":{"addr:city":"Congleton","addr:postcode":"CW12 1LR","addr:street":"Barn Road","brand":"Tesco","brand:wikidata":"Q487494","brand:wikipedia":"en:Tesco","dispensing":"yes","fhrs:id":"890583","opening_hours":"Mo-Fr 06:00-00:00; Sa 10:00-16:00","pharmacy":"yes","phone":"+44 345 677 9196","ref:gphc":"1105006","website":"https:\/\/www.tesco.com\/store-locator\/congleton\/clayton-by-pass"}}, "geometry":{"type":"MultiPolygon","coordinates":[[[[-2.21821,53.16881],[-2.21718,53.1685],[-2.21686,53.16841],[-2.21657,53.16875],[-2.21653,53.16881],[-2.21783,53.16919],[-2.21823,53.16919],[-2.21827,53.16915],[-2.21811,53.1691],[-2.21809,53.16899],[-2.21802,53.16897],[-2.21811,53.16886],[-2.21816,53.16888],[-2.2182,53.16883],[-2.21821,53.16881]]]]}},
{ "type":"Feature","properties":{"osm_way_id":"501241001","name":"Asda","shop":"supermarket","other":{"addr:country":"GB","addr:housenumber":"3","addr:place":"The Quintins Centre","addr:postcode":"BN27 1DP","brand":"Asda","brand:wikidata":"Q297410","brand:wikipedia":"en:Asda","contact:facebook":"https:\/\/www.facebook.com\/asda\/","contact:twitter":"@asda","contact:website":"https:\/\/storelocator.asda.com\/south-east\/hailsham\/3-the-quintins-north-street","fhrs:id":"481624","inside":"yes","opening_hours":"Mo-Sa 08:00-22:00; Su 10:00-16:00","operator":"Asda Stores Ltd","wheelchair":"yes"}}, "geometry":{"type":"MultiPolygon","coordinates":[[[[0.25751,50.86361],[0.25764,50.86333],[0.25769,50.86318],[0.25807,50.86326],[0.25831,50.86332],[0.25837,50.86337],[0.25827,50.86354],[0.25821,50.86365],[0.25819,50.86382],[0.25803,50.86379],[0.25807,50.86371],[0.25751,50.86361]]]]}},
{ "type":"Feature","properties":{"osm_way_id":"507066323","name":"Waitrose","building":"retail","shop":"supermarket","other":{"addr:postcode":"SK9 7JX","addr:street":"The Parade","brand":"Waitrose","brand:wikidata":"Q771734","brand:wikipedia":"en:Waitrose & Partners","fhrs:id":"891177","nohousenumber":"yes","official_name":"Waitrose & Partners","opening_hours":"Mo-Sa 07:00-21:00; Su 11:00-17:00"}}, "geometry":{"type":"MultiPolygon","coordinates":[[[[-2.23687,53.30217],[-2.23724,53.30224],[-2.2369,53.30286],[-2.23662,53.30281],[-2.23687,53.30234],[-2.23678,53.30232],[-2.23687,53.30217]]]]}},
{ "type":"Feature","properties":{"osm_way_id":"531614117","name":"M&S Foodhall","building":"retail","shop":"supermarket","other":{"addr:city":"Nantwich","addr:postcode":"CW5 5LY","addr:street":"Beam Street","alt_name":"M&S Nantwich Simply Food","brand":"M&S Foodhall","brand:wikidata":"Q714491","brand:wikipedia":"en:Marks & Spencer","fhrs:id":"890524","not:addr:postcode":"CW5 5NX"}}, "geometry":{"type":"MultiPolygon","coordinates":[[[[-2.51878,53.06862],[-2.51862,53.06863],[-2.5186,53.06854],[-2.51854,53.06855],[-2.5185,53.06857],[-2.51848,53.0686],[-2.51849,53.06864],[-2.51847,53.06864],[-2.51857,53.06905],[-2.51899,53.06901],[-2.51892,53.06879],[-2.51883,53.0688],[-2.51878,53.06862]]]]}},
{ "type":"Feature","properties":{"osm_way_id":"533672283","name":"ALDI","building":"yes","shop":"supermarket","other":{"addr:postcode":"CW4 8AB","addr:street":"Manor Lane","brand":"ALDI","brand:wikidata":"Q41171672","brand:wikipedia":"en:Aldi","fhrs:id":"940877","operator":"Aldi","source:addr":"FHRS Open Data"}}, "geometry":{"type":"MultiPolygon","coordinates":[[[[-2.3477,53.20106],[-2.34779,53.20053],[-2.34739,53.20051],[-2.34731,53.20104],[-2.3477,53.20106]]]]}},
{ "type":"Feature","properties":{"osm_way_id":"539175029","name":"Morrisons","building":"retail","shop":"supermarket","other":{"addr:postcode":"CW12 1YJ","brand":"Morrisons","brand:wikidata":"Q922344","brand:wikipedia":"en:Morrisons","fhrs:id":"890351","layer":"1"}}, "geometry":{"type":"MultiPolygon","coordinates":[[[[-2.21291,53.164],[-2.21273,53.16417],[-2.21282,53.16421],[-2.21284,53.16423],[-2.21301,53.16429],[-2.21302,53.16428],[-2.21311,53.16431],[-2.21302,53.16442],[-2.21275,53.16433],[-2.21267,53.16434],[-2.21246,53.16427],[-2.21249,53.16423],[-2.21204,53.16407],[-2.21211,53.16393],[-2.21218,53.16391],[-2.21222,53.16381],[-2.21217,53.16378],[-2.21221,53.16367],[-2.21229,53.16364],[-2.21239,53.16366],[-2.21237,53.1637],[-2.21259,53.16373],[-2.21261,53.16374],[-2.21275,53.16379],[-2.21276,53.16378],[-2.21304,53.16388],[-2.21306,53.16388],[-2.21302,53.16392],[-2.21293,53.16388],[-2.21284,53.16397],[-2.21291,53.164]]]]}},
{ "type":"Feature","properties":{"osm_way_id":"540143899","name":"Aldi","building":"retail","shop":"supermarket","other":{"addr:city":"Congleton","addr:postcode":"CW12 4NB","addr:street":"West Heath Shopping Centre","brand":"ALDI","brand:wikidata":"Q41171672","brand:wikipedia":"en:Aldi","fhrs:id":"890418","opening_hours":"Mo-Sa 08:00-22:00; Su 10:00-16:00"}}, "geometry":{"type":"MultiPolygon","coordinates":[[[[-2.23537,53.16535],[-2.23489,53.16534],[-2.2349,53.16521],[-2.23501,53.16521],[-2.23502,53.16484],[-2.23538,53.16484],[-2.23538,53.16489],[-2.23537,53.16516],[-2.23537,53.16535]]]]}},
{ "type":"Feature","properties":{"osm_way_id":"544844401","name":"Morrisons","building":"supermarket","shop":"supermarket","other":{"addr:housenumber":"21-27","addr:postcode":"SK12 1JG","addr:street":"Queensway","brand":"Morrisons","brand:wikidata":"Q922344","brand:wikipedia":"en:Morrisons","feature":"Amazon Locker","fhrs:id":"891483","source:addr":"FHRS Open Data"}}, "geometry":{"type":"MultiPolygon","coordinates":[[[[-2.12514,53.34736],[-2.12533,53.34694],[-2.12497,53.34688],[-2.12477,53.3473],[-2.12514,53.34736]]]]}},
{ "type":"Feature","properties":{"osm_way_id":"781305814","name":"Aldi","building":"yes","shop":"supermarket","other":{"addr:city":"Crewe","addr:housename":"Earl of Crewe","addr:postcode":"CW2 6BP","addr:street":"Nantwich Road","brand":"ALDI","brand:wikidata":"Q41171672","brand:wikipedia":"en:Aldi","fhrs:id":"890550","payment:cash":"yes","payment:credit_cards":"yes","payment:debit_cards":"yes","source:addr:postcode":"FHRS Open Data"}}, "geometry":{"type":"MultiPolygon","coordinates":[[[[-2.44552,53.08741],[-2.44515,53.0869],[-2.44561,53.08678],[-2.44598,53.08728],[-2.44552,53.08741]]]]}},
{ "type":"Feature","properties":{"osm_way_id":"825140445","name":"Aldi","building":"yes","shop":"supermarket","other":{"addr:postcode":"CW1 5NP","addr:street":"University Way","brand":"ALDI","brand:wikidata":"Q41171672","brand:wikipedia":"en:Aldi","fhrs:id":"1289405","source:addr":"FHRS Open Data","website":"https:\/\/www.aldi.co.uk\/store\/s-uk-E0727"}}, "geometry":{"type":"MultiPolygon","coordinates":[[[[-2.41296,53.09367],[-2.41277,53.09343],[-2.41231,53.09356],[-2.41251,53.0938],[-2.41296,53.09367]]]]}}
]
}
