{
"type": "FeatureCollection",
"features": [
{ "type":"Feature","properties":{"osm_way_id":"99634017","name":"The Olive Bowl","amenity":"community_centre","building":"warehouse","other":{"addr:housenumber":"23","addr:postcode":"SP8 4PX","addr:street":"Brickfields Business Park","fhrs:id":"994355","source:addr:postcode":"FHRS Open Data"}}, "geometry":{"type":"MultiPolygon","coordinates":[[[[-2.27138,51.03257],[-2.2713,51.0331],[-2.27085,51.03307],[-2.27093,51.03255],[-2.27138,51.03257]]]]}},
{ "type":"Feature","properties":{"osm_way_id":"99634023","name":"Legends Nightclub","amenity":"nightclub","building":"warehouse","other":{"addr:housenumber":"22","addr:street":"Brickfields Business Park"}}, "geometry":{"type":"MultiPolygon","coordinates":[[[[-2.27175,51.03265],[-2.27201,51.03266],[-2.27198,51.03292],[-2.27172,51.0329],[-2.27175,51.03265]]]]}},
{ "type":"Feature","properties":{"osm_way_id":"102343903","name":"Johnson's of Shaftesbury","building":"warehouse","shop":"service","other":{"addr:street":"Station Yard","service":"storage"}}, "geometry":{"type":"MultiPolygon","coordinates":[[[[-2.27525,51.0333],[-2.27543,51.03353],[-2.27437,51.03385],[-2.27419,51.03361],[-2.27525,51.0333]]]]}},
{ "type":"Feature","properties":{"osm_way_id":"139166941","name":"Chester Jefferies","building":"warehouse","craft":"gloves","other":{"addr:street":"Buckingham Road","website":"https:\/\/www.chesterjefferies.co.uk\/"}}, "geometry":{"type":"MultiPolygon","coordinates":[[[[-2.2745,51.03583],[-2.2744,51.03611],[-2.27425,51.03608],[-2.27435,51.03581],[-2.2745,51.03583]]]]}},
{ "type":"Feature","properties":{"osm_way_id":"157081476","name":"Karndean Designflooring Training Academy","building":"warehouse","other":{"addr:city":"Evesham","addr:postcode":"WR11 1GP","addr:street":"Crab Apple Way"}}, "geometry":{"type":"MultiPolygon","coordinates":[[[[-1.93353,52.07493],[-1.93311,52.07507],[-1.93263,52.0745],[-1.93276,52.07446],[-1.93281,52.07453],[-1.93311,52.07443],[-1.93353,52.07493]]]]}},
{ "type":"Feature","properties":{"osm_way_id":"176951370","building":"warehouse"},"geometry":{"type":"MultiPolygon","coordinates":[[[[-2.01188,50.93079],[-2.01202,50.93065],[-2.01226,50.93075],[-2.01211,50.93089],[-2.01188,50.93079]]]]}},
{ "type":"Feature","properties":{"osm_way_id":"176951394","building":"warehouse"},"geometry":{"type":"MultiPolygon","coordinates":[[[[-2.01017,50.9352],[-2.0108,50.93502],[-2.01082,50.93505],[-2.01107,50.93499],[-2.01116,50.93514],[-2.011,50.93518],[-2.01102,50.93523],[-2.011,50.93524],[-2.01116,50.93545],[-2.0109,50.93551],[-2.01077,50.9353],[-2.01049,50.93537],[-2.01063,50.93559],[-2.01045,50.93563],[-2.01017,50.9352]]]]}},
{ "type":"Feature","properties":{"osm_way_id":"177156109","building":"warehouse"},"geometry":{"type":"MultiPolygon","coordinates":[[[[-2.02272,50.94045],[-2.02283,50.94002],[-2.02255,50.93999],[-2.02245,50.94043],[-2.02272,50.94045]]]]}},
{ "type":"Feature","properties":{"osm_way_id":"177176501","building":"warehouse"},"geometry":{"type":"MultiPolygon","coordinates":[[[[-2.02391,50.91885],[-2.02374,50.91864],[-2.02301,50.91887],[-2.02318,50.91908],[-2.02391,50.91885]]]]}},
{ "type":"Feature","properties":{"osm_way_id":"177176518","building":"warehouse"},"geometry":{"type":"MultiPolygon","coordinates":[[[[-2.02292,50.91884],[-2.02269,50.91855],[-2.02285,50.9185],[-2.02308,50.91879],[-2.02292,50.91884]]]]}},
{ "type":"Feature","properties":{"osm_way_id":"205288425","name":"Jewson","building":"warehouse","shop":"doityourself"},"geometry":{"type":"MultiPolygon","coordinates":[[[[-2.45137,50.71635],[-2.45127,50.71637],[-2.45052,50.71619],[-2.45065,50.71598],[-2.45147,50.71618],[-2.45137,50.71635]]]]}},
{ "type":"Feature","properties":{"osm_way_id":"205288426","name":"Screwfix","building":"warehouse","shop":"doityourself"},"geometry":{"type":"MultiPolygon","coordinates":[[[[-2.45052,50.71619],[-2.45032,50.71614],[-2.45044,50.71593],[-2.45065,50.71598],[-2.45052,50.71619]]]]}},
{ "type":"Feature","properties":{"osm_way_id":"221661989","building":"warehouse"},"geometry":{"type":"MultiPolygon","coordinates":[[[[-2.18994,51.0194],[-2.19037,51.01986],[-2.18993,51.02003],[-2.1895,51.01957],[-2.18994,51.0194]]]]}},
{ "type":"Feature","properties":{"osm_way_id":"221661991","building":"warehouse"},"geometry":{"type":"MultiPolygon","coordinates":[[[[-2.1891,51.01979],[-2.18883,51.01979],[-2.18883,51.01938],[-2.1891,51.01938],[-2.1891,51.01979]]]]}},
{ "type":"Feature","properties":{"osm_way_id":"221661993","building":"warehouse"},"geometry":{"type":"MultiPolygon","coordinates":[[[[-2.18969,51.01994],[-2.18968,51.02016],[-2.1889,51.02015],[-2.18891,51.01993],[-2.18969,51.01994]]]]}},
{ "type":"Feature","properties":{"osm_way_id":"221661995","building":"warehouse"},"geometry":{"type":"MultiPolygon","coordinates":[[[[-2.18985,51.01935],[-2.18944,51.0195],[-2.18921,51.01927],[-2.18962,51.01912],[-2.18985,51.01935]]]]}},
{ "type":"Feature","properties":{"osm_way_id":"221661997","building":"warehouse"},"geometry":{"type":"MultiPolygon","coordinates":[[[[-2.18935,51.01895],[-2.18925,51.01903],[-2.18893,51.01886],[-2.18903,51.01878],[-2.18935,51.01895]]]]}},
{ "type":"Feature","properties":{"osm_way_id":"250955981","building":"warehouse"},"geometry":{"type":"MultiPolygon","coordinates":[[[[-2.50941,50.94702],[-2.50914,50.9469],[-2.50959,50.94655],[-2.50979,50.94648],[-2.51013,50.94683],[-2.51002,50.94686],[-2.50986,50.94671],[-2.5098,50.94672],[-2.50941,50.94702]]]]}},
{ "type":"Feature","properties":{"osm_way_id":"250955985","building":"warehouse"},"geometry":{"type":"MultiPolygon","coordinates":[[[[-2.51134,50.94683],[-2.51069,50.94614],[-2.50979,50.94648],[-2.51013,50.94683],[-2.5105,50.94723],[-2.5108,50.94712],[-2.51075,50.94706],[-2.51134,50.94683]]]]}},
{ "type":"Feature","properties":{"osm_way_id":"287540547","building":"warehouse","other":{"addr:postcode":"BH21 2BJ","addr:street":"Brook Road"}}, "geometry":{"type":"MultiPolygon","coordinates":[[[[-1.96895,50.79569],[-1.96808,50.79575],[-1.96807,50.7957],[-1.96797,50.79571],[-1.96795,50.79559],[-1.96805,50.79559],[-1.96795,50.79505],[-1.9679,50.79506],[-1.96797,50.79541],[-1.9678,50.79543],[-1.96769,50.79488],[-1.96786,50.79487],[-1.96787,50.79492],[-1.96792,50.79492],[-1.96791,50.79486],[-1.96879,50.79478],[-1.96895,50.79569]]]]}},
{ "type":"Feature","properties":{"osm_way_id":"301823716","name":"KONG Ltd","building":"warehouse"},"geometry":{"type":"MultiPolygon","coordinates":[[[[-2.77081,50.81616],[-2.77088,50.81603],[-2.77037,50.81593],[-2.7703,50.81606],[-2.77081,50.81616]]]]}},
{ "type":"Feature","properties":{"osm_way_id":"301823718","name":"Shire Removals","building":"warehouse"},"geometry":{"type":"MultiPolygon","coordinates":[[[[-2.77066,50.81513],[-2.77038,50.81508],[-2.77058,50.81462],[-2.77086,50.81467],[-2.77066,50.81513]]]]}},
{ "type":"Feature","properties":{"osm_way_id":"301823723","building":"warehouse"},"geometry":{"type":"MultiPolygon","coordinates":[[[[-2.77154,50.81592],[-2.77132,50.81588],[-2.7714,50.81572],[-2.77162,50.81576],[-2.77154,50.81592]]]]}},
{ "type":"Feature","properties":{"osm_way_id":"301823724","building":"warehouse"},"geometry":{"type":"MultiPolygon","coordinates":[[[[-2.77266,50.81514],[-2.77266,50.81488],[-2.7724,50.81488],[-2.77239,50.81514],[-2.77266,50.81514]]]]}},
{ "type":"Feature","properties":{"osm_way_id":"301823725","building":"warehouse"},"geometry":{"type":"MultiPolygon","coordinates":[[[[-2.77091,50.81572],[-2.77064,50.81567],[-2.7707,50.81554],[-2.77097,50.81558],[-2.77091,50.81572]]]]}},
{ "type":"Feature","properties":{"osm_way_id":"301823727","building":"warehouse"},"geometry":{"type":"MultiPolygon","coordinates":[[[[-2.7713,50.81613],[-2.77121,50.8163],[-2.77084,50.81622],[-2.77092,50.81605],[-2.7713,50.81613]]]]}},
{ "type":"Feature","properties":{"osm_way_id":"301823729","building":"warehouse"},"geometry":{"type":"MultiPolygon","coordinates":[[[[-2.77206,50.81611],[-2.77188,50.81608],[-2.772,50.81584],[-2.77217,50.81587],[-2.77206,50.81611]]]]}},
{ "type":"Feature","properties":{"osm_way_id":"301823730","building":"warehouse"},"geometry":{"type":"MultiPolygon","coordinates":[[[[-2.77094,50.81576],[-2.77102,50.8156],[-2.77139,50.81567],[-2.77131,50.81583],[-2.77094,50.81576]]]]}},
{ "type":"Feature","properties":{"osm_way_id":"428913247","building":"warehouse"},"geometry":{"type":"MultiPolygon","coordinates":[[[[-2.29624,50.75052],[-2.29623,50.75037],[-2.2966,50.75036],[-2.29661,50.75051],[-2.29659,50.75051],[-2.29659,50.75053],[-2.29652,50.75053],[-2.29652,50.75051],[-2.29624,50.75052]]]]}},
{ "type":"Feature","properties":{"osm_way_id":"454972811","building":"warehouse"},"geometry":{"type":"MultiPolygon","coordinates":[[[[-1.98494,50.7976],[-1.98489,50.7975],[-1.98439,50.7976],[-1.98431,50.79761],[-1.98435,50.79771],[-1.98494,50.7976]]]]}},
{ "type":"Feature","properties":{"osm_way_id":"516166017","building":"warehouse"},"geometry":{"type":"MultiPolygon","coordinates":[[[[-2.43253,50.71456],[-2.43247,50.71448],[-2.43242,50.7145],[-2.43234,50.7144],[-2.4329,50.71422],[-2.43304,50.71439],[-2.43253,50.71456]]]]}},
{ "type":"Feature","properties":{"osm_way_id":"692804939","building":"warehouse"},"geometry":{"type":"MultiPolygon","coordinates":[[[[-2.58775,50.93746],[-2.58775,50.93736],[-2.58804,50.93735],[-2.58805,50.93745],[-2.58801,50.93745],[-2.58775,50.93746]]]]}},
{ "type":"Feature","properties":{"osm_way_id":"702570982","building":"warehouse"},"geometry":{"type":"MultiPolygon","coordinates":[[[[-2.16115,50.85943],[-2.16129,50.85953],[-2.16135,50.85949],[-2.16121,50.85939],[-2.16115,50.85943]]]]}},
{ "type":"Feature","properties":{"osm_way_id":"919935413","natural":"heath"},"geometry":{"type":"MultiPolygon","coordinates":[[[[-2.26635,50.68789],[-2.26595,50.68841],[-2.26547,50.68848],[-2.2662,50.68903],[-2.26763,50.69022],[-2.26795,50.69043],[-2.2682,50.69029],[-2.26848,50.69018],[-2.2686,50.6897],[-2.2687,50.68942],[-2.26884,50.68936],[-2.26912,50.68931],[-2.26942,50.68928],[-2.26984,50.68928],[-2.26967,50.6891],[-2.26979,50.68896],[-2.2686,50.68863],[-2.26635,50.68789]]]]}}
]
}
