{
"type": "FeatureCollection",
"features": [
{ "type":"Feature","properties":{"osm_id":"13300886","name":"Clipper Logistics Plc","type":"multipolygon","building":"warehouse","other":{"addr:city":"Brighouse","addr:postcode":"HD6 1UJ","addr:street":"Armytage Road","phone":"+44 1484 729960","website":"https:\/\/www.clippergroup.co.uk\/"}}, "geometry":{"type":"MultiPolygon","coordinates":[[[[-1.75753,53.69589],[-1.75612,53.6959],[-1.75612,53.69571],[-1.75604,53.69571],[-1.75604,53.69564],[-1.75612,53.69563],[-1.75612,53.69507],[-1.75621,53.69507],[-1.7562,53.695],[-1.7574,53.69499],[-1.7574,53.69506],[-1.7575,53.69505],[-1.7575,53.69515],[-1.7575,53.69516],[-1.75753,53.69516],[-1.75753,53.69518],[-1.7575,53.69518],[-1.7575,53.6953],[-1.75751,53.69556],[-1.75751,53.69561],[-1.75752,53.69575],[-1.75753,53.69589]]],[[[-1.75639,53.69459],[-1.75749,53.69458],[-1.75748,53.69423],[-1.75638,53.69424],[-1.75639,53.69459]]]]}},
{ "type":"Feature","properties":{"osm_way_id":"88527546","building":"warehouse"},"geometry":{"type":"MultiPolygon","coordinates":[[[[-1.7687,53.70002],[-1.76855,53.69997],[-1.76855,53.69996],[-1.7686,53.69989],[-1.76808,53.69974],[-1.76838,53.69937],[-1.76907,53.69956],[-1.7687,53.70002]]]]}},
{ "type":"Feature","properties":{"osm_way_id":"130332665","natural":"wood"},"geometry":{"type":"MultiPolygon","coordinates":[[[[0.67568,52.45913],[0.67567,52.4591],[0.67557,52.45879],[0.67558,52.45872],[0.6759,52.4584],[0.67589,52.45834],[0.67687,52.45742],[0.67682,52.45739],[0.67628,52.4566],[0.67615,52.45667],[0.67597,52.4568],[0.67577,52.45696],[0.67557,52.45712],[0.67526,52.45742],[0.67502,52.45763],[0.67489,52.45773],[0.67382,52.45841],[0.67385,52.45843],[0.67533,52.45905],[0.67568,52.45913]]]]}},
{ "type":"Feature","properties":{"osm_way_id":"201901921","building":"warehouse"},"geometry":{"type":"MultiPolygon","coordinates":[[[[-1.86276,53.6769],[-1.86258,53.67657],[-1.86232,53.67662],[-1.86249,53.67695],[-1.86276,53.6769]]]]}},
{ "type":"Feature","properties":{"osm_way_id":"202085253","name":"Suma","building":"warehouse"},"geometry":{"type":"MultiPolygon","coordinates":[[[[-1.82781,53.69502],[-1.82809,53.69474],[-1.82763,53.69458],[-1.82741,53.69479],[-1.82779,53.69493],[-1.82773,53.69499],[-1.82781,53.69502]]]]}},
{ "type":"Feature","properties":{"osm_way_id":"478524684","building":"warehouse","other":{"addr:city":"Halifax","addr:country":"GB","addr:postcode":"HX4 8ED","addr:street":"Black Brook Way"}}, "geometry":{"type":"MultiPolygon","coordinates":[[[[-1.86294,53.68515],[-1.8611,53.68554],[-1.86093,53.68527],[-1.86277,53.68487],[-1.86294,53.68515]]]]}},
{ "type":"Feature","properties":{"osm_way_id":"589014945","building":"warehouse","other":{"addr:city":"Rastrick","addr:housenumber":"3","addr:street":"Dewsbury Road"}}, "geometry":{"type":"MultiPolygon","coordinates":[[[[-1.80788,53.68374],[-1.8082,53.68375],[-1.80822,53.68352],[-1.8079,53.68351],[-1.80788,53.68372],[-1.80788,53.68374]]]]}},
{ "type":"Feature","properties":{"osm_way_id":"589042343","building":"warehouse","other":{"addr:city":"Rastrick","addr:housenumber":"2","addr:street":"Dewsbury Road"}}, "geometry":{"type":"MultiPolygon","coordinates":[[[[-1.8084,53.68376],[-1.80843,53.68359],[-1.80823,53.68358],[-1.80821,53.68375],[-1.8084,53.68376]]]]}},
{ "type":"Feature","properties":{"osm_way_id":"589042344","building":"warehouse","other":{"addr:city":"Rastrick","addr:housenumber":"1","addr:street":"Dewsbury Road"}}, "geometry":{"type":"MultiPolygon","coordinates":[[[[-1.80857,53.68383],[-1.80841,53.68383],[-1.80843,53.68359],[-1.80859,53.6836],[-1.80857,53.68383]]]]}},
{ "type":"Feature","properties":{"osm_way_id":"892100017","name":"Suma","building":"warehouse"},"geometry":{"type":"MultiPolygon","coordinates":[[[[-1.8269,53.69583],[-1.8261,53.69596],[-1.8257,53.69513],[-1.82651,53.695],[-1.82688,53.69578],[-1.8269,53.69583]]]]}},
{ "type":"Feature","properties":{"osm_way_id":"1032881615","building":"warehouse"},"geometry":{"type":"MultiPolygon","coordinates":[[[[-1.77979,53.6988],[-1.77966,53.69881],[-1.77965,53.69876],[-1.77977,53.69875],[-1.77979,53.6988]]]]}},
{ "type":"Feature","properties":{"osm_way_id":"1036044385","name":"Spares Plus Ltd","building":"warehouse","other":{"addr:city":"Brighouse","addr:housenumber":"Unit 3","addr:postcode":"HD6 1PW","addr:street":"Wood Street","website":"https:\/\/sparesplus.co.uk\/"}}, "geometry":{"type":"MultiPolygon","coordinates":[[[[-1.77596,53.70158],[-1.77599,53.70152],[-1.77548,53.7014],[-1.77545,53.70139],[-1.77542,53.70146],[-1.77596,53.70158]]]]}},
{ "type":"Feature","properties":{"osm_way_id":"1036070562","building":"warehouse","other":{"addr:city":"Brighouse","addr:street":"Grove Street"}}, "geometry":{"type":"MultiPolygon","coordinates":[[[[-1.77435,53.70155],[-1.7745,53.70135],[-1.77394,53.7012],[-1.77393,53.70121],[-1.77388,53.7012],[-1.77363,53.70136],[-1.77435,53.70155]]]]}},
{ "type":"Feature","properties":{"osm_way_id":"1036070563","building":"warehouse","other":{"addr:city":"Brighouse","addr:street":"Grove Street"}}, "geometry":{"type":"MultiPolygon","coordinates":[[[[-1.7745,53.70135],[-1.7746,53.70121],[-1.77408,53.70107],[-1.77389,53.70119],[-1.77394,53.7012],[-1.7745,53.70135]]]]}},
{ "type":"Feature","properties":{"osm_way_id":"1036337982","building":"warehouse"},"geometry":{"type":"MultiPolygon","coordinates":[[[[-1.77397,53.69999],[-1.77407,53.69987],[-1.77379,53.69978],[-1.77369,53.69991],[-1.77397,53.69999]]]]}},
{ "type":"Feature","properties":{"osm_way_id":"1036337983","building":"warehouse"},"geometry":{"type":"MultiPolygon","coordinates":[[[[-1.77409,53.69986],[-1.7742,53.6997],[-1.77397,53.69964],[-1.77403,53.69957],[-1.77394,53.69955],[-1.77389,53.69962],[-1.77391,53.69963],[-1.7738,53.69978],[-1.77409,53.69986]]]]}},
{ "type":"Feature","properties":{"osm_way_id":"1036337984","building":"warehouse"},"geometry":{"type":"MultiPolygon","coordinates":[[[[-1.77398,53.7],[-1.77409,53.69988],[-1.77422,53.69991],[-1.77411,53.70004],[-1.77398,53.7]]]]}},
{ "type":"Feature","properties":{"osm_way_id":"1036816806","building":"warehouse"},"geometry":{"type":"MultiPolygon","coordinates":[[[[-1.77023,53.70068],[-1.77007,53.70064],[-1.7702,53.70043],[-1.77056,53.70051],[-1.77074,53.70055],[-1.77074,53.70056],[-1.77068,53.70063],[-1.77066,53.70065],[-1.77041,53.7006],[-1.77029,53.70057],[-1.77023,53.70068]]]]}},
{ "type":"Feature","properties":{"osm_way_id":"1036816807","building":"warehouse"},"geometry":{"type":"MultiPolygon","coordinates":[[[[-1.77068,53.70063],[-1.7709,53.70069],[-1.77096,53.70062],[-1.77085,53.70059],[-1.77074,53.70056],[-1.77068,53.70063]]]]}},
{ "type":"Feature","properties":{"osm_way_id":"1036816808","building":"warehouse"},"geometry":{"type":"MultiPolygon","coordinates":[[[[-1.77085,53.70057],[-1.77094,53.70041],[-1.77066,53.70035],[-1.77056,53.70051],[-1.77074,53.70055],[-1.77085,53.70057]]]]}},
{ "type":"Feature","properties":{"osm_way_id":"1040864582","building":"warehouse"},"geometry":{"type":"MultiPolygon","coordinates":[[[[-1.75841,53.69659],[-1.75845,53.69655],[-1.75818,53.69647],[-1.75814,53.69651],[-1.75841,53.69659]]]]}}
]
}
