{
"type": "FeatureCollection",
"features": [
{ "type":"Feature","properties":{"osm_id":"1668630326","name":"Lidl","other":{"addr:country":"GB","addr:housenumber":"1B","addr:postcode":"SE2 9RQ","addr:street":"Eynsham Drive","brand":"Lidl","brand:wikidata":"Q151954","brand:wikipedia":"en:Lidl","fhrs:id":"694307","shop":"supermarket"}}, "geometry":{"type":"Point","coordinates":[0.11907,51.49591 ]}},
{ "type":"Feature","properties":{"osm_id":"5463222487","name":"Heron Foods","other":{"addr:city":"Halifax","addr:country":"GB","addr:housenumber":"12-14","addr:postcode":"HX1 1PB","addr:street":"Market Street","brand":"Heron Foods","brand:wikidata":"Q5743472","brand:wikipedia":"en:Heron Foods","contact:website":"https:\/\/heronfoods.com\/storelocator\/store-details\/halifax","fhrs:id":"556015","shop":"supermarket","source:addr":"FHRS Open Data"}}, "geometry":{"type":"Point","coordinates":[-1.85926,53.72292 ]}},
{ "type":"Feature","properties":{"osm_id":"5502173700","name":"Tesco Metro","other":{"addr:city":"Halifax","addr:country":"GB","addr:housename":"Westgate House","addr:housenumber":"23-29","addr:postcode":"HX1 1PS","addr:street":"Market Street","brand":"Tesco Metro","brand:wikidata":"Q57551648","fhrs:id":"347936","opening_hours":"Mo-Sa 07:00-19:00; Su 10:00-16:00","shop":"supermarket"}}, "geometry":{"type":"Point","coordinates":[-1.85848,53.72236 ]}},
{ "type":"Feature","properties":{"osm_way_id":"28639716","name":"Tesco","building":"yes","shop":"supermarket","other":{"brand":"Tesco","brand:wikidata":"Q487494","brand:wikipedia":"en:Tesco","website":"https:\/\/www.tesco.com\/store-locator\/brighouse\/huddersfield-road"}}, "geometry":{"type":"MultiPolygon","coordinates":[[[[-1.77565,53.70417],[-1.77558,53.7038],[-1.77576,53.70379],[-1.77563,53.70325],[-1.776,53.70322],[-1.77601,53.70329],[-1.77635,53.70326],[-1.77637,53.70335],[-1.7767,53.70333],[-1.77687,53.70409],[-1.77661,53.70411],[-1.77661,53.70409],[-1.7758,53.70416],[-1.77565,53.70417]]]]}},
{ "type":"Feature","properties":{"osm_way_id":"51271458","name":"Co-op Food","building":"yes","shop":"supermarket","other":{"addr:city":"Hebden Bridge","addr:housenumber":"41","addr:postcode":"HX7 6AA","addr:street":"Market Street","brand":"Co-op Food","brand:wikidata":"Q3277439","brand:wikipedia":"en:Co-op Food","opening_hours":"Mo-Sa 07:00-20:00; Su 11:00-17:00","operator":"The Co-operative Group","operator:wikidata":"Q117202","operator:wikipedia":"en:The Co-operative Group"}}, "geometry":{"type":"MultiPolygon","coordinates":[[[[-2.01677,53.74127],[-2.01682,53.74086],[-2.01716,53.7409],[-2.0172,53.74125],[-2.01677,53.74127]]]]}},
{ "type":"Feature","properties":{"osm_way_id":"102316458","name":"B&M Store","building":"yes","shop":"supermarket","other":{"addr:city":"Todmorden","addr:country":"GB","addr:postcode":"OL14 5PU","addr:street":"Halifax Road","fhrs:id":"348426","opening_hours":"Mo-Sa 08:00-20:00; Su 11:00-17:00","source:addr":"FHRS Open Data"}}, "geometry":{"type":"MultiPolygon","coordinates":[[[[-2.09406,53.71341],[-2.09377,53.71345],[-2.09379,53.7135],[-2.09369,53.71351],[-2.09376,53.71378],[-2.09366,53.71379],[-2.0937,53.71392],[-2.09419,53.71387],[-2.09406,53.71341]]]]}},
{ "type":"Feature","properties":{"osm_way_id":"102848228","name":"Morrisons","building":"yes","shop":"supermarket","other":{"addr:city":"Todmorden","addr:country":"GB","addr:postcode":"OL14 6LG","addr:street":"Rochdale Road","brand":"Morrisons","brand:wikidata":"Q922344","brand:wikipedia":"en:Morrisons","fhrs:id":"347129","opening_hours":"Mo-Sa 07:00-22:00; Su 10:00-16:00","source:addr":"FHRS Open Data","wheelchair":"yes"}}, "geometry":{"type":"MultiPolygon","coordinates":[[[[-2.10147,53.7109],[-2.10126,53.71084],[-2.10122,53.71089],[-2.10101,53.71083],[-2.10106,53.71077],[-2.10077,53.71069],[-2.10113,53.71025],[-2.10162,53.71039],[-2.10144,53.71062],[-2.10155,53.71065],[-2.10143,53.7108],[-2.10153,53.71082],[-2.10147,53.7109]]]]}},
{ "type":"Feature","properties":{"osm_way_id":"103893638","name":"Lidl","building":"yes","shop":"supermarket","other":{"addr:city":"Sowerby Bridge","addr:country":"GB","addr:postcode":"HX6 2LF","addr:street":"Tuel Lane","brand":"Lidl","brand:wikidata":"Q151954","brand:wikipedia":"en:Lidl","fhrs:id":"346977","source:addr":"FHRS Open Data"}}, "geometry":{"type":"MultiPolygon","coordinates":[[[[-1.91064,53.70986],[-1.90981,53.70998],[-1.9098,53.70996],[-1.90971,53.7097],[-1.91041,53.7096],[-1.91042,53.70965],[-1.91056,53.70963],[-1.91059,53.70972],[-1.91067,53.70971],[-1.9107,53.70978],[-1.91061,53.70979],[-1.91064,53.70986]]]]}},
{ "type":"Feature","properties":{"osm_way_id":"108382826","name":"Sainsbury's","building":"yes","shop":"supermarket","other":{"addr:city":"Halifax","addr:country":"GB","addr:postcode":"HX1 1SB","addr:street":"Wade Street","brand":"Sainsbury's","brand:wikidata":"Q152096","brand:wikipedia":"en:Sainsbury's","fhrs:id":"346959","source:addr":"FHRS Open Data","website":"https:\/\/stores.sainsburys.co.uk\/0778\/halifax"}}, "geometry":{"type":"MultiPolygon","coordinates":[[[[-1.85668,53.72595],[-1.85663,53.7259],[-1.85672,53.72587],[-1.85674,53.72569],[-1.85624,53.72518],[-1.85503,53.72558],[-1.85516,53.72572],[-1.85507,53.72575],[-1.85518,53.72588],[-1.85528,53.72585],[-1.85541,53.72599],[-1.85533,53.72602],[-1.85544,53.72614],[-1.85553,53.72612],[-1.85564,53.72624],[-1.85589,53.72616],[-1.85593,53.7262],[-1.85668,53.72595]]]]}},
{ "type":"Feature","properties":{"osm_way_id":"118927130","name":"ALDI","building":"retail","shop":"supermarket","other":{"addr:city":"Halifax","addr:country":"GB","addr:housename":"Crossley Retail Park","addr:postcode":"HX1 5RA","addr:street":"Pellon Lane","addr:unit":"1","alt_name":"ALDI Halifax","brand":"ALDI","brand:wikidata":"Q41171672","brand:wikipedia":"en:Aldi","contact:website":"https:\/\/www.aldi.co.uk\/store\/s-uk-E0190"}}, "geometry":{"type":"MultiPolygon","coordinates":[[[[-1.87173,53.7272],[-1.87135,53.7272],[-1.87135,53.7277],[-1.87156,53.7277],[-1.87156,53.72765],[-1.87174,53.72765],[-1.87174,53.72759],[-1.87173,53.72723],[-1.87173,53.7272]]]]}},
{ "type":"Feature","properties":{"osm_way_id":"118928128","name":"Asda","building":"yes","shop":"supermarket","other":{"addr:city":"Halifax","addr:country":"GB","addr:postcode":"HX1 4PG","addr:street":"Thrum Hall Lane","alt_name":"ASDA Halifax Superstore","brand":"Asda","brand:wikidata":"Q297410","brand:wikipedia":"en:Asda","contact:website":"https:\/\/storelocator.asda.com\/yorkshire-&-humber\/halifax\/thrum-hall-lane","fhrs:id":"347083","operator":"Asda Stores Ltd"}}, "geometry":{"type":"MultiPolygon","coordinates":[[[[-1.88944,53.72521],[-1.88832,53.7252],[-1.88831,53.72503],[-1.88813,53.72502],[-1.88812,53.72493],[-1.88812,53.72483],[-1.88832,53.72483],[-1.88833,53.72444],[-1.88945,53.72445],[-1.88945,53.72453],[-1.88977,53.72453],[-1.88976,53.72501],[-1.88945,53.72501],[-1.88944,53.72521]]]]}},
{ "type":"Feature","properties":{"osm_way_id":"143923276","name":"Sainsbury's","building":"yes","shop":"supermarket","other":{"addr:city":"Brighouse","addr:country":"GB","addr:postcode":"HD6 1PQ","addr:street":"Mill Lane","brand":"Sainsbury's","brand:wikidata":"Q152096","brand:wikipedia":"en:Sainsbury's","fhrs:id":"346962","old_id":"27921932","source:addr":"FHRS Open Data"}}, "geometry":{"type":"MultiPolygon","coordinates":[[[[-1.77787,53.70053],[-1.77903,53.7006],[-1.77899,53.70096],[-1.77832,53.70092],[-1.77832,53.70095],[-1.77831,53.70099],[-1.77811,53.70097],[-1.77811,53.70096],[-1.77812,53.70094],[-1.77812,53.70091],[-1.77781,53.70089],[-1.77782,53.7008],[-1.77787,53.70053]]]]}},
{ "type":"Feature","properties":{"osm_way_id":"148595034","name":"Tesco","building":"retail","shop":"supermarket","other":{"addr:city":"Halifax","addr:country":"GB","addr:housename":"Tesco","addr:postcode":"HX1 3TU","addr:street":"Haugh Shaw Road","addr:suburb":"Savile Park","alt_name":"Tesco Halifax Aachen Way Superstore","brand":"Tesco","brand:wikidata":"Q487494","brand:wikipedia":"en:Tesco","contact:website":"https:\/\/www.tesco.com\/store-locator\/halifax\/haugh-shaw-rd","fhrs:id":"346960","source:addr":"FHRS Open Data","toilets":"yes","toilets:wheelchair":"yes","wheelchair":"yes"}}, "geometry":{"type":"MultiPolygon","coordinates":[[[[-1.87768,53.71513],[-1.87705,53.71519],[-1.87707,53.71528],[-1.87719,53.71527],[-1.87721,53.71538],[-1.87679,53.71542],[-1.87655,53.71446],[-1.87743,53.71438],[-1.87744,53.71443],[-1.87752,53.71442],[-1.87757,53.71459],[-1.87767,53.71459],[-1.87774,53.71486],[-1.87776,53.71494],[-1.87763,53.71495],[-1.87768,53.71513]]]]}},
{ "type":"Feature","properties":{"osm_way_id":"150357602","name":"Aldi","building":"retail","shop":"supermarket","other":{"addr:city":"Margate","addr:country":"GB","addr:county":"Kent","addr:district":"Thanet","addr:postcode":"CT9 1RP","addr:street":"Zion Place","brand":"ALDI","brand:wikidata":"Q41171672","brand:wikipedia":"en:Aldi","building:levels":"1","fhrs:id":"608146","nohousenumber":"yes","opening_hours":"Mo-Sa 08:00-22:00; Su 10:00-16:00","roof:levels":"1","roof:shape":"gabled","source:addr":"FHRS Open Data","wheelchair":"yes"}}, "geometry":{"type":"MultiPolygon","coordinates":[[[[1.38766,51.39085],[1.38786,51.39084],[1.38786,51.39081],[1.38803,51.3908],[1.38803,51.39077],[1.38801,51.3905],[1.38806,51.3905],[1.38805,51.39039],[1.38805,51.39037],[1.38762,51.39038],[1.38766,51.39085]]]]}},
{ "type":"Feature","properties":{"osm_way_id":"154521594","name":"The Co-operative Food","building":"yes","shop":"supermarket","other":{"addr:city":"Sowerby Bridge","addr:country":"GB","addr:hamlet":"Ripponden","addr:housenumber":"25","addr:postcode":"HX6 4DN","addr:street":"Oldham Road","fhrs:id":"347199","operator":"The Co-operative Group"}}, "geometry":{"type":"MultiPolygon","coordinates":[[[[-1.94306,53.67338],[-1.94289,53.67328],[-1.94241,53.67358],[-1.94258,53.67368],[-1.94306,53.67338]]]]}},
{ "type":"Feature","properties":{"osm_way_id":"154522518","name":"Tesco","building":"yes","shop":"supermarket","other":{"addr:city":"Sowerby Bridge","addr:country":"GB","addr:postcode":"HX6 3BN","addr:street":"Sowerby Street","brand":"Tesco","brand:wikidata":"Q487494","brand:wikipedia":"en:Tesco","fhrs:id":"347188","source:addr":"FHRS Open Data"}}, "geometry":{"type":"MultiPolygon","coordinates":[[[[-1.91497,53.70737],[-1.91406,53.70718],[-1.91378,53.70765],[-1.91467,53.70783],[-1.91497,53.70737]]]]}},
{ "type":"Feature","properties":{"osm_way_id":"160728687","name":"Aldi","building":"supermarket","shop":"supermarket","other":{"brand":"ALDI","brand:wikidata":"Q41171672","brand:wikipedia":"en:Aldi"}}, "geometry":{"type":"MultiPolygon","coordinates":[[[[-4.46285,55.83895],[-4.46203,55.83886],[-4.46213,55.83857],[-4.46284,55.83865],[-4.46304,55.83867],[-4.46299,55.8388],[-4.46291,55.83879],[-4.46285,55.83895]]]]}},
{ "type":"Feature","properties":{"osm_way_id":"202093191","name":"Lidl","building":"supermarket","shop":"supermarket","other":{"addr:city":"Halifax","addr:country":"GB","addr:housenumber":"83","addr:postcode":"HX3 6ED","addr:street":"Haley Hill","brand":"Lidl","brand:wikidata":"Q151954","building:levels":"1","fhrs:id":"347263","payment:coins":"yes","payment:maestro":"yes","payment:mastercard":"yes","payment:notes":"yes","payment:visa":"yes","payment:visa_debit":"yes","payment:visa_electron":"yes","source:addr":"FHRS Open Data","wheelchair":"yes"}}, "geometry":{"type":"MultiPolygon","coordinates":[[[[-1.86235,53.72917],[-1.86256,53.72898],[-1.86258,53.72897],[-1.86321,53.72921],[-1.86326,53.72917],[-1.86341,53.72923],[-1.86315,53.72947],[-1.86316,53.72947],[-1.86308,53.72953],[-1.86286,53.72944],[-1.86284,53.72946],[-1.86275,53.72954],[-1.86268,53.72951],[-1.86271,53.72949],[-1.86279,53.72941],[-1.86281,53.72942],[-1.86279,53.72941],[-1.86285,53.72936],[-1.86285,53.72936],[-1.86235,53.72917]]]]}},
{ "type":"Feature","properties":{"osm_way_id":"268692468","name":"Aldi","building":"retail","shop":"supermarket","other":{"brand":"ALDI","brand:wikidata":"Q41171672","brand:wikipedia":"en:Aldi","wheelchair":"yes"}}, "geometry":{"type":"MultiPolygon","coordinates":[[[[-1.83318,53.68242],[-1.83328,53.68233],[-1.8333,53.68234],[-1.83342,53.68224],[-1.83338,53.68222],[-1.83347,53.68214],[-1.83301,53.68198],[-1.83297,53.68196],[-1.83288,53.68206],[-1.83294,53.68208],[-1.83275,53.68227],[-1.83318,53.68242]]]]}},
{ "type":"Feature","properties":{"osm_way_id":"268692745","name":"Spar","building":"yes","shop":"supermarket","other":{"brand":"Spar","brand:wikidata":"Q610492","brand:wikipedia":"en:Spar (retailer)","opening_hours":"06:00-23:00","operator":"Spar","wheelchair":"yes"}}, "geometry":{"type":"MultiPolygon","coordinates":[[[[-1.83259,53.68276],[-1.83243,53.68285],[-1.83253,53.68291],[-1.83249,53.68293],[-1.83259,53.68299],[-1.83278,53.68287],[-1.83273,53.68285],[-1.83268,53.68282],[-1.83259,53.68276]]]]}},
{ "type":"Feature","properties":{"osm_way_id":"268697431","name":"Morrisons","building":"supermarket","shop":"supermarket","other":{"addr:city":"Elland","addr:postcode":"HX5 9DT","addr:street":"Wistons Lane","brand":"Morrisons","brand:wikidata":"Q922344","brand:wikipedia":"en:Morrisons","fhrs:id":"371165","layer":"1","source:addr":"FHRS Open Data","wheelchair":"yes"}}, "geometry":{"type":"MultiPolygon","coordinates":[[[[-1.8371,53.68759],[-1.83648,53.68713],[-1.83592,53.68739],[-1.8359,53.68738],[-1.83579,53.68743],[-1.83568,53.68748],[-1.83623,53.68786],[-1.83629,53.68784],[-1.83637,53.68791],[-1.83642,53.68795],[-1.83704,53.68765],[-1.83718,53.68775],[-1.83724,53.68772],[-1.8372,53.68769],[-1.83731,53.68764],[-1.83718,53.68755],[-1.8371,53.68759]]]]}},
{ "type":"Feature","properties":{"osm_way_id":"311446042","name":"Morrisons","building":"yes","shop":"supermarket","other":{"addr:city":"Halifax","addr:country":"GB","addr:postcode":"HX2 8HY","addr:street":"Keighley Road","addr:suburb":"Illingworth","branch":"Halifax","brand":"Morrisons","brand:wikidata":"Q922344","brand:wikipedia":"en:Morrisons","fhrs:id":"347638","opening_hours":"Mo-Fr 08:00-21:00; Sa 07:00-21:00; Su 10:00-16:00"}}, "geometry":{"type":"MultiPolygon","coordinates":[[[[-1.89554,53.74952],[-1.89545,53.74937],[-1.89528,53.7494],[-1.89517,53.74934],[-1.89447,53.74947],[-1.89452,53.74956],[-1.89441,53.74958],[-1.89465,53.75001],[-1.89572,53.74979],[-1.89568,53.7497],[-1.89583,53.74967],[-1.89573,53.74949],[-1.89554,53.74952]]]]}},
{ "type":"Feature","properties":{"osm_way_id":"559917377","name":"Sainsbury's","building":"yes","shop":"supermarket","other":{"brand":"Sainsbury's","brand:wikidata":"Q152096","brand:wikipedia":"en:Sainsbury's","website":"https:\/\/stores.sainsburys.co.uk\/0778\/halifax"}}, "geometry":{"type":"MultiPolygon","coordinates":[[[[-1.85476,53.72644],[-1.85458,53.72641],[-1.85464,53.7263],[-1.85482,53.72633],[-1.85476,53.72644]]]]}},
{ "type":"Feature","properties":{"osm_way_id":"658237776","name":"Co-op Food","building":"commercial","shop":"supermarket","other":{"addr:city":"Hebden Bridge","addr:country":"GB","addr:hamlet":"Mytholmroyd","addr:postcode":"HX7 5LH","addr:street":"Burnley Road","brand":"Co-op Food","brand:wikidata":"Q3277439","brand:wikipedia":"en:Co-op Food","building:levels":"1","opening_hours":"Mo-Su 06:00-23:00","operator":"The Co-operative Group"}}, "geometry":{"type":"MultiPolygon","coordinates":[[[[-1.98651,53.73277],[-1.98665,53.73264],[-1.98626,53.7325],[-1.98612,53.73263],[-1.98651,53.73277]]]]}},
{ "type":"Feature","properties":{"osm_way_id":"659074047","name":"Lidl","building":"yes","shop":"supermarket","other":{"addr:city":"Todmorden","addr:country":"GB","addr:postcode":"OL14 5QR","addr:street":"Halifax Road","brand":"Lidl","brand:wikidata":"Q151954","brand:wikipedia":"en:Lidl","fhrs:id":"1101255","opening_hours":"Mo-Sa 08:00-22:00; Su 11:00-17:00","operator":"Lidl","payment:cash":"yes","payment:credit_cards":"yes","payment:debit_cards":"yes"}}, "geometry":{"type":"MultiPolygon","coordinates":[[[[-2.08975,53.71354],[-2.08988,53.71387],[-2.08998,53.71411],[-2.09045,53.71406],[-2.09028,53.71351],[-2.09026,53.71348],[-2.09019,53.71348],[-2.09018,53.71343],[-2.08999,53.71345],[-2.08998,53.71339],[-2.08995,53.71332],[-2.08971,53.71335],[-2.08978,53.71354],[-2.08975,53.71354]]]]}},
{ "type":"Feature","properties":{"osm_way_id":"680992003","name":"Lidl","building":"commercial","shop":"supermarket","other":{"addr:city":"Brighouse","addr:postcode":"HD6 1PE","addr:street":"Wakefield Road","brand":"Lidl","brand:wikidata":"Q151954","brand:wikipedia":"en:Lidl","fhrs:id":"1040380","source:addr":"FHRS Open Data","wheelchair":"yes"}}, "geometry":{"type":"MultiPolygon","coordinates":[[[[-1.7748,53.70199],[-1.77434,53.70187],[-1.7748,53.70125],[-1.77497,53.70129],[-1.77494,53.70133],[-1.77518,53.70139],[-1.77521,53.70141],[-1.77521,53.70143],[-1.77519,53.70146],[-1.77496,53.70177],[-1.7748,53.70199]]]]}},
{ "type":"Feature","properties":{"osm_way_id":"853038219","name":"Lidl","building":"retail","shop":"supermarket","other":{"addr:country":"GB","addr:postcode":"HX3 7RJ","addr:street":"Carr House Road","brand":"Lidl","brand:wikidata":"Q151954","fhrs:id":"348912"}}, "geometry":{"type":"MultiPolygon","coordinates":[[[[-1.80349,53.75778],[-1.80351,53.75783],[-1.80336,53.75785],[-1.80334,53.7578],[-1.80301,53.75784],[-1.80292,53.75758],[-1.80389,53.75746],[-1.80398,53.75772],[-1.80349,53.75778]]]]}}
]
}
