{
"type": "FeatureCollection",
"features": [
{ "type":"Feature","properties":{"osm_id":"6935741","name":"Co-operative","other":{"addr:city":"Bedford","addr:country":"GB","addr:housenumber":"120","addr:postcode":"MK41 9JF","addr:street":"Queens Drive","fhrs:authority":"Bedford","fhrs:id":"985443","fhrs:local_authority_id":"125959","opening_hours":"PH,Mo-Su 07:00-23:00","shop":"supermarket"}}, "geometry":{"type":"Point","coordinates":[-0.43865,52.14868 ]}},
{ "type":"Feature","properties":{"osm_id":"446746565","name":"Costcutter","other":{"addr:city":"Bedford","addr:country":"GB","addr:housenumber":"104,106","addr:postcode":"MK40 2QH","addr:street":"Bromham Road","alt_name":"Bromham Road News","brand":"Costcutter","brand:wikidata":"Q5175072","brand:wikipedia":"en:Costcutter","fhrs:authority":"Bedford","fhrs:id":"87230","fhrs:local_authority_id":"22469","shop":"supermarket"}}, "geometry":{"type":"Point","coordinates":[-0.47662,52.13926 ]}},
{ "type":"Feature","properties":{"osm_id":"454351649","name":"Spar","other":{"addr:city":"Clapham","addr:country":"GB","addr:postcode":"MK41 6AJ","addr:street":"High Street","brand":"Spar","brand:wikidata":"Q610492","fhrs:authority":"Bedford","fhrs:id":"103479","fhrs:local_authority_id":"34791","opening_hours":"PH,Mo-Su 07:00-22:00","shop":"supermarket","wheelchair":"limited"}}, "geometry":{"type":"Point","coordinates":[-0.50329,52.16415 ]}},
{ "type":"Feature","properties":{"osm_id":"661033942","name":"Marks And Spencers Express","other":{"addr:city":"Bedford","addr:country":"GB","addr:housename":"BEDFORD BP","addr:postcode":"MK42 9BF","addr:street":"Elstow Interchange","brand":"M&S Simply Food","brand:wikidata":"Q714491","brand:wikipedia":"en:Marks & Spencer","shop":"supermarket"}}, "geometry":{"type":"Point","coordinates":[-0.47729,52.10653 ]}},
{ "type":"Feature","properties":{"osm_id":"670849246","name":"Londis","other":{"addr:city":"Bedford","addr:country":"GB","addr:housenumber":"39","addr:postcode":"MK41 7RW","addr:street":"Stanley Street","brand":"Londis","brand:wikidata":"Q21008564","brand:wikipedia":"en:Londis (United Kingdom)","fhrs:authority":"Bedford","fhrs:id":"100701","fhrs:local_authority_id":"32504","shop":"supermarket"}}, "geometry":{"type":"Point","coordinates":[-0.47221,52.14493 ]}},
{ "type":"Feature","properties":{"osm_id":"987735045","name":"The Co-operative Food","other":{"addr:city":"Sharnbrook","addr:country":"GB","addr:housenumber":"37","addr:postcode":"MK44 1PF","addr:street":"High Street","fhrs:authority":"Bedford","fhrs:id":"109534","fhrs:local_authority_id":"39628","operator":"The Co-operative Group","shop":"supermarket"}}, "geometry":{"type":"Point","coordinates":[-0.54371,52.22579 ]}},
{ "type":"Feature","properties":{"osm_id":"1237618417","name":"Euro Stores","other":{"addr:street":"Stanley Street","shop":"supermarket"}}, "geometry":{"type":"Point","coordinates":[-0.47178,52.14479 ]}},
{ "type":"Feature","properties":{"osm_id":"1290448934","name":"Lidl","other":{"addr:city":"Bedford","addr:country":"GB","addr:housename":"St Johns Centre","addr:postcode":"MK42 0XE","addr:street":"Rope Walk","addr:unit":"1","brand":"Lidl","brand:wikidata":"Q151954","brand:wikipedia":"en:Lidl","fhrs:id":"1280476","operator":"Lidl GB Ltd","shop":"supermarket","survey:date":"2020-11-27"}}, "geometry":{"type":"Point","coordinates":[-0.46254,52.12998 ]}},
{ "type":"Feature","properties":{"osm_id":"1371495651","name":"Essential Supermarket","other":{"addr:city":"Bedford","addr:housenumber":"10","addr:postcode":"MK40 1LR","addr:street":"Thurlow Street","shop":"supermarket"}}, "geometry":{"type":"Point","coordinates":[-0.47179,52.13701 ]}},
{ "type":"Feature","properties":{"osm_id":"1479309854","name":"Tesco Express","other":{"addr:city":"Kempston","addr:country":"GB","addr:housenumber":"205-207","addr:postcode":"MK42 8DD","addr:street":"Bedford Road","brand":"Tesco Express","brand:wikidata":"Q98456772","brand:wikipedia":"en:Tesco","contact:website":"https:\/\/www.tesco.com\/store-locator\/bedford\/205-207-bedford-rd","fhrs:id":"105422","operator":"Tesco Stores Ltd","shop":"supermarket"}}, "geometry":{"type":"Point","coordinates":[-0.49231,52.12036 ]}},
{ "type":"Feature","properties":{"osm_id":"2525200674","name":"Wisla","other":{"addr:city":"Bedford","addr:country":"GB","addr:housenumber":"85","addr:postcode":"MK40 1BY","addr:street":"Midland Road","fhrs:authority":"Bedford","fhrs:id":"50341","fhrs:local_authority_id":"112071","shop":"supermarket"}}, "geometry":{"type":"Point","coordinates":[-0.47223,52.13615 ]}},
{ "type":"Feature","properties":{"osm_id":"2531151752","name":"Ideal Supermarket","other":{"addr:city":"Bedford","addr:country":"GB","addr:housenumber":"2","addr:postcode":"MK40 1HP","addr:street":"Greyfriars","fhrs:id":"1223176","shop":"supermarket"}}, "geometry":{"type":"Point","coordinates":[-0.47201,52.13624 ]}},
{ "type":"Feature","properties":{"osm_id":"4328397820","name":"M&S Foodhall","other":{"addr:city":"Kempston","addr:country":"GB","addr:postcode":"MK42 7GB","addr:street":"Riley Way","alt_name":"M+S Food","brand":"M&S Foodhall","brand:wikidata":"Q714491","brand:wikipedia":"en:Marks & Spencer","fhrs:authority":"Bedford","fhrs:id":"835366","fhrs:local_authority_id":"114166","shop":"supermarket"}}, "geometry":{"type":"Point","coordinates":[-0.48024,52.10987 ]}},
{ "type":"Feature","properties":{"osm_id":"6258882781","name":"7 Days Euro Market","other":{"addr:city":"Bedford","addr:country":"GB","addr:housenumber":"76","addr:postcode":"MK40 1QH","addr:street":"Midland Road","fhrs:authority":"Bedford","fhrs:id":"894606","fhrs:local_authority_id":"121715","shop":"supermarket"}}, "geometry":{"type":"Point","coordinates":[-0.47326,52.13573 ]}},
{ "type":"Feature","properties":{"osm_id":"6275486894","name":"Super Euro Halal","other":{"addr:city":"Bedford","addr:country":"GB","addr:housenumber":"17-21","addr:postcode":"MK40 4LP","addr:street":"Iddesleigh Road","fhrs:authority":"Bedford","fhrs:id":"94306","fhrs:local_authority_id":"27496","shop":"supermarket"}}, "geometry":{"type":"Point","coordinates":[-0.48275,52.13437 ]}},
{ "type":"Feature","properties":{"osm_id":"6277340520","name":"Co-operative","other":{"addr:city":"Bedford","addr:country":"GB","addr:housenumber":"105-109","addr:postcode":"MK41 0PW","addr:street":"Church Lane","fhrs:authority":"Bedford","fhrs:id":"88883","fhrs:local_authority_id":"23528","shop":"supermarket"}}, "geometry":{"type":"Point","coordinates":[-0.42761,52.15262 ]}},
{ "type":"Feature","properties":{"osm_way_id":"4008986","name":"Sainsbury's","building":"yes","shop":"supermarket","other":{"addr:city":"Bedford","addr:country":"GB","addr:housenumber":"90","addr:postcode":"MK41 7PJ","addr:street":"Clapham Road","brand:wikidata":"Q152096","fhrs:authority":"Bedford","fhrs:id":"89201","fhrs:local_authority_id":"23749","wheelchair":"yes"}}, "geometry":{"type":"MultiPolygon","coordinates":[[[[-0.48507,52.14539],[-0.48524,52.14536],[-0.48518,52.14523],[-0.48641,52.14503],[-0.4865,52.14523],[-0.48642,52.14525],[-0.48651,52.14546],[-0.4864,52.14548],[-0.48646,52.14562],[-0.48618,52.14566],[-0.48628,52.14588],[-0.48542,52.14602],[-0.48534,52.14582],[-0.4852,52.14584],[-0.48519,52.14582],[-0.48514,52.1457],[-0.4852,52.14569],[-0.48507,52.14539]]]]}},
{ "type":"Feature","properties":{"osm_way_id":"5219530","name":"Waitrose","building":"store","shop":"supermarket","other":{"addr:city":"Bedford","addr:country":"GB","addr:postcode":"MK41 0GX","addr:street":"Goldington Road","brand":"Waitrose","brand:wikidata":"Q771734","brand:wikipedia":"en:Waitrose & Partners","fhrs:authority":"Bedford","fhrs:id":"522022","fhrs:local_authority_id":"109573","official_name":"Waitrose & Partners","operator":"Waitrose & Partners","website":"https:\/\/www.waitrose.com\/bf_home\/bf\/725.html"}}, "geometry":{"type":"MultiPolygon","coordinates":[[[[-0.41968,52.14461],[-0.41958,52.14436],[-0.41987,52.14431],[-0.41983,52.14421],[-0.42073,52.14407],[-0.42087,52.14443],[-0.41968,52.14461]]]]}},
{ "type":"Feature","properties":{"osm_way_id":"115792461","name":"Tesco Extra","building":"shop","shop":"supermarket","other":{"addr:city":"Bedford","addr:country":"GB","addr:postcode":"MK42 0BG","addr:street":"Cardington Road","brand":"Tesco Extra","brand:wikidata":"Q25172225","brand:wikipedia":"en:Tesco Extra","fhrs:id":"87754","operator":"Tesco Stores Ltd","website":"https:\/\/www.tesco.com\/store-locator\/bedford\/cardington-road"}}, "geometry":{"type":"MultiPolygon","coordinates":[[[[-0.45167,52.13017],[-0.45217,52.12961],[-0.45213,52.1296],[-0.45215,52.12958],[-0.45198,52.12952],[-0.45196,52.12954],[-0.45134,52.12933],[-0.45123,52.12946],[-0.45073,52.12929],[-0.45056,52.12948],[-0.45053,52.12947],[-0.45025,52.12978],[-0.45053,52.12987],[-0.45039,52.13004],[-0.45062,52.13011],[-0.45073,52.12999],[-0.45095,52.13006],[-0.45096,52.13005],[-0.45116,52.13011],[-0.45118,52.13009],[-0.45146,52.13019],[-0.45153,52.13012],[-0.45167,52.13017]]]]}},
{ "type":"Feature","properties":{"osm_way_id":"116402536","name":"M&S Simply Food","building":"yes","shop":"supermarket","other":{"addr:city":"Bedford","addr:country":"GB","addr:housenumber":"81-85","addr:postcode":"MK41 9QG","addr:street":"Newnham Avenue","brand":"M&S Simply Food","brand:wikidata":"Q714491","fhrs:authority":"Bedford","fhrs:id":"798155","fhrs:local_authority_id":"29610"}}, "geometry":{"type":"MultiPolygon","coordinates":[[[[-0.44336,52.13881],[-0.44312,52.13877],[-0.44323,52.13856],[-0.44347,52.13861],[-0.44336,52.13881]]]]}},
{ "type":"Feature","properties":{"osm_way_id":"123397659","name":"Tesco Express","building":"retail","shop":"supermarket","other":{"addr:city":"Bedford","addr:country":"GB","addr:housenumber":"117","addr:postcode":"MK41 7QF","addr:street":"Brickhill Drive","brand":"Tesco Express","brand:wikidata":"Q98456772","brand:wikipedia":"en:Tesco","building:levels":"2","fhrs:authority":"Bedford","fhrs:id":"406691","fhrs:local_authority_id":"112773","opening_hours":"Mo-Su 06:00-23:00","operator":"Tesco Stores Ltd","roof:shape":"gabled","wheelchair":"yes"}}, "geometry":{"type":"MultiPolygon","coordinates":[[[[-0.46585,52.15417],[-0.46558,52.15417],[-0.46558,52.15424],[-0.46554,52.15424],[-0.46553,52.15434],[-0.46561,52.15434],[-0.46561,52.1544],[-0.4658,52.15441],[-0.4658,52.15434],[-0.46584,52.15434],[-0.46585,52.15417]]]]}},
{ "type":"Feature","properties":{"osm_way_id":"123636544","name":"Lidl","building":"yes","shop":"supermarket","other":{"addr:city":"Bedford","addr:country":"GB","addr:housenumber":"5,7,9","addr:postcode":"MK40 2PN","addr:street":"St. Peter's Street","brand":"Lidl","brand:wikidata":"Q151954","brand:wikipedia":"en:Lidl","fhrs:authority":"Bedford","fhrs:id":"100558","fhrs:local_authority_id":"32388","operator":"Lidl","wheelchair":"yes"}}, "geometry":{"type":"MultiPolygon","coordinates":[[[[-0.46621,52.13862],[-0.46618,52.13862],[-0.46606,52.13837],[-0.46607,52.13837],[-0.46604,52.1383],[-0.46599,52.13831],[-0.46598,52.13828],[-0.46588,52.1383],[-0.4659,52.13833],[-0.46565,52.13837],[-0.46568,52.13844],[-0.46569,52.13843],[-0.46581,52.13869],[-0.46574,52.1387],[-0.46576,52.13875],[-0.46578,52.13877],[-0.46588,52.13876],[-0.46588,52.13875],[-0.46609,52.13872],[-0.46609,52.13873],[-0.46624,52.1387],[-0.46621,52.13862]]]]}},
{ "type":"Feature","properties":{"osm_way_id":"129420403","name":"Tesco","building":"yes","shop":"supermarket","other":{"addr:city":"Bedford","addr:country":"GB","addr:postcode":"MK41 0SE","addr:street":"Riverfield Drive","brand":"Tesco","brand:wikidata":"Q487494","brand:wikipedia":"en:Tesco","fhrs:authority":"Bedford","fhrs:id":"98245","fhrs:local_authority_id":"30900","opening_hours":"Mo-Sa 06:00-24:00; Su 10:00-16:00","operator":"Tesco Stores Ltd","wheelchair":"yes"}}, "geometry":{"type":"MultiPolygon","coordinates":[[[[-0.42547,52.1419],[-0.42568,52.14172],[-0.42588,52.14181],[-0.42596,52.14186],[-0.42599,52.14189],[-0.426,52.14191],[-0.42601,52.14194],[-0.426,52.14197],[-0.42598,52.142],[-0.42586,52.14209],[-0.42501,52.1428],[-0.4248,52.14269],[-0.42482,52.14267],[-0.42459,52.14257],[-0.42475,52.14244],[-0.42478,52.14241],[-0.42479,52.1424],[-0.42393,52.142],[-0.4246,52.14147],[-0.42462,52.14148],[-0.4248,52.14133],[-0.42508,52.14146],[-0.42508,52.14145],[-0.42517,52.14149],[-0.42519,52.14148],[-0.42532,52.14154],[-0.42531,52.14155],[-0.42539,52.14158],[-0.42532,52.14164],[-0.42514,52.14156],[-0.425,52.14168],[-0.42547,52.1419]]]]}},
{ "type":"Feature","properties":{"osm_way_id":"184561110","name":"Co-op","building":"yes","shop":"supermarket","other":{"addr:city":"Kempston","addr:country":"GB","addr:housenumber":"12-14","addr:postcode":"MK42 8EP","addr:street":"St John's Street","fhrs:authority":"Bedford","fhrs:id":"107498","fhrs:local_authority_id":"37981"}}, "geometry":{"type":"MultiPolygon","coordinates":[[[[-0.50026,52.11533],[-0.50014,52.11527],[-0.50007,52.11532],[-0.50006,52.11531],[-0.49985,52.11544],[-0.50001,52.11553],[-0.50009,52.11548],[-0.50009,52.11548],[-0.5002,52.11538],[-0.50024,52.11538],[-0.50026,52.11536],[-0.50023,52.11535],[-0.50026,52.11533]]]]}},
{ "type":"Feature","properties":{"osm_way_id":"184561337","name":"Sainsbury's","building":"yes","shop":"supermarket","other":{"addr:city":"Kempston","addr:country":"GB","addr:housename":"Saxon Centre","addr:housenumber":"252-274","addr:postcode":"MK42 8AY","addr:street":"Bedford Road","brand":"Sainsbury's","brand:wikidata":"Q152096","fhrs:authority":"Bedford","fhrs:id":"105449","fhrs:local_authority_id":"36250"}}, "geometry":{"type":"MultiPolygon","coordinates":[[[[-0.49688,52.11741],[-0.49611,52.11686],[-0.4955,52.11719],[-0.49526,52.11702],[-0.49512,52.11709],[-0.49536,52.11725],[-0.49526,52.1173],[-0.49545,52.11744],[-0.49575,52.11765],[-0.49604,52.11786],[-0.49688,52.11741]]]]}},
{ "type":"Feature","properties":{"osm_way_id":"234461939","name":"Morrisons","building":"yes","shop":"supermarket","other":{"addr:city":"Bedford","addr:country":"GB","addr:postcode":"MK42 9JP","addr:street":"Ampthill Road","brand":"Morrisons","brand:wikidata":"Q922344","brand:wikipedia":"en:Morrisons","fhrs:id":"589512","opening_hours":"Mo-Sa 8:00-22:00; Su 10:00-16:00"}}, "geometry":{"type":"MultiPolygon","coordinates":[[[[-0.47446,52.12252],[-0.47332,52.12231],[-0.47368,52.12159],[-0.474,52.12165],[-0.47407,52.1215],[-0.47419,52.12153],[-0.47415,52.12162],[-0.4744,52.12166],[-0.47434,52.1218],[-0.47477,52.12188],[-0.47446,52.12252]]]]}},
{ "type":"Feature","properties":{"osm_way_id":"242832698","name":"Budgens","building":"yes","shop":"supermarket","other":{"addr:city":"Bromham","addr:country":"GB","addr:housenumber":"100","addr:postcode":"MK43 8PU","addr:street":"Stagsden Road","brand":"Budgens","brand:wikidata":"Q4985016","brand:wikipedia":"en:Budgens","fhrs:authority":"Bedford","fhrs:id":"102944","fhrs:local_authority_id":"34364"}}, "geometry":{"type":"MultiPolygon","coordinates":[[[[-0.53522,52.14463],[-0.53512,52.14439],[-0.53538,52.14435],[-0.53537,52.14433],[-0.53555,52.1443],[-0.53566,52.14433],[-0.53572,52.14448],[-0.5357,52.14449],[-0.53572,52.14454],[-0.53522,52.14463]]]]}},
{ "type":"Feature","properties":{"osm_way_id":"301612337","name":"ALDI","building":"yes","shop":"supermarket","other":{"addr:city":"Bedford","addr:country":"GB","addr:postcode":"MK41 0PW","addr:street":"Church Lane","brand":"ALDI","brand:wikidata":"Q41171672","brand:wikipedia":"en:Aldi","fhrs:id":"88906"}}, "geometry":{"type":"MultiPolygon","coordinates":[[[[-0.42785,52.15367],[-0.42775,52.15366],[-0.42774,52.15368],[-0.42757,52.15366],[-0.42758,52.15361],[-0.42714,52.15355],[-0.42724,52.15326],[-0.428,52.15336],[-0.42791,52.1536],[-0.42788,52.15359],[-0.42785,52.15367]]]]}},
{ "type":"Feature","properties":{"osm_way_id":"308838244","name":"Kubus-Timisoreana","building":"yes","shop":"supermarket","other":{"addr:city":"Bedford","addr:country":"GB","addr:housenumber":"12-16","addr:postcode":"MK40 1HP","addr:street":"Greyfriars","fhrs:authority":"Bedford","fhrs:id":"937443","fhrs:local_authority_id":"122591"}}, "geometry":{"type":"MultiPolygon","coordinates":[[[[-0.47208,52.13664],[-0.47201,52.1365],[-0.47227,52.13645],[-0.47234,52.13659],[-0.47208,52.13664]]]]}},
{ "type":"Feature","properties":{"osm_way_id":"310267599","name":"Tesco Metro","building":"mall","shop":"supermarket","other":{"addr:city":"Bedford","addr:country":"GB","addr:housenumber":"34,36,38,40","addr:postcode":"MK40 1PS","addr:street":"Midland Road","brand":"Tesco Metro","brand:wikidata":"Q57551648","brand:wikipedia":"en:Tesco","building:cladding":"brick","fhrs:authority":"Bedford","fhrs:id":"133653","fhrs:local_authority_id":"66561","operator":"Tesco Stores Ltd","source:footprint":"bing","wheelchair":"yes"}}, "geometry":{"type":"MultiPolygon","coordinates":[[[[-0.47062,52.13573],[-0.47103,52.13562],[-0.47131,52.13603],[-0.47088,52.13614],[-0.47062,52.13573]]]]}},
{ "type":"Feature","properties":{"osm_way_id":"439865970","name":"Aldi","building":"yes","shop":"supermarket","other":{"addr:city":"Bedford","addr:country":"GB","addr:postcode":"MK42 9BL","addr:street":"Westville Road","brand":"ALDI","brand:wikidata":"Q41171672","brand:wikipedia":"en:Aldi","fhrs:id":"948881"}}, "geometry":{"type":"MultiPolygon","coordinates":[[[[-0.47378,52.12353],[-0.47366,52.12382],[-0.47272,52.12367],[-0.47284,52.12338],[-0.47378,52.12353]]]]}},
{ "type":"Feature","properties":{"osm_way_id":"616801632","name":"Aldi","building":"yes","shop":"supermarket","other":{"addr:city":"Bedford","addr:country":"GB","addr:housenumber":"98","addr:postcode":"MK41 7PJ","addr:street":"Clapham Road","brand":"ALDI","brand:wikidata":"Q41171672","brand:wikipedia":"en:Aldi","fhrs:id":"1059010","self_checkout":"yes"}}, "geometry":{"type":"MultiPolygon","coordinates":[[[[-0.48608,52.14678],[-0.48594,52.14654],[-0.48481,52.14678],[-0.48495,52.14702],[-0.48608,52.14678]]]]}},
{ "type":"Feature","properties":{"osm_way_id":"616801657","name":"Lidl","building":"yes","shop":"supermarket","other":{"addr:city":"Kempston","addr:country":"GB","addr:postcode":"MK42 7LZ","addr:street":"Ridge Road","brand":"Lidl","brand:wikidata":"Q151954","fhrs:authority":"Bedford","fhrs:id":"1045510","fhrs:local_authority_id":"125952","opening_hours":"Mo-Sa 08:00-22:00; Su 10:00-16:00"}}, "geometry":{"type":"MultiPolygon","coordinates":[[[[-0.51884,52.112],[-0.51878,52.11188],[-0.51871,52.11189],[-0.51862,52.11169],[-0.51777,52.11218],[-0.51884,52.112]]]]}},
{ "type":"Feature","properties":{"osm_way_id":"670314775","name":"Iceland","shop":"supermarket","other":{"addr:city":"Bedford","addr:country":"GB","addr:housenumber":"95-97","addr:postcode":"MK41 0PW","addr:street":"Church Lane","brand":"Iceland","brand:wikidata":"Q721810","fhrs:authority":"Bedford","fhrs:id":"816874","fhrs:local_authority_id":"119086"}}, "geometry":{"type":"MultiPolygon","coordinates":[[[[-0.42813,52.15232],[-0.42756,52.15224],[-0.4275,52.1524],[-0.42806,52.15248],[-0.42813,52.15232]]]]}},
{ "type":"Feature","properties":{"osm_way_id":"836147511","name":"Lidl","building":"yes","shop":"supermarket","other":{"addr:country":"GB","addr:postcode":"MK41 0GX","addr:street":"Perkins Road","brand":"Lidl","brand:wikidata":"Q151954","brand:wikipedia":"en:Lidl","fhrs:id":"1127138"}}, "geometry":{"type":"MultiPolygon","coordinates":[[[[-0.41609,52.14516],[-0.41625,52.14546],[-0.41597,52.14552],[-0.41594,52.14548],[-0.4152,52.14564],[-0.41504,52.14531],[-0.41516,52.14529],[-0.41519,52.14533],[-0.41609,52.14516]]]]}}
]
}
