{
"type": "FeatureCollection",
"features": [
{ "type":"Feature","properties":{"osm_id":"1336920096","name":"Aldi","other":{"addr:postcode":"G81 1QA","addr:street":"Argyll Road","brand":"ALDI","brand:wikidata":"Q41171672","brand:wikipedia":"en:Aldi","fhrs:id":"103711","shop":"supermarket","source:addr":"FHRS Open Data"}}, "geometry":{"type":"Point","coordinates":[-4.40028,55.90634 ]}},
{ "type":"Feature","properties":{"osm_id":"1467632296","name":"Co-op Food","other":{"brand":"Co-op Food","brand:wikidata":"Q3277439","brand:wikipedia":"en:Co-op Food","shop":"supermarket"}}, "geometry":{"type":"Point","coordinates":[-4.42937,55.91176 ]}},
{ "type":"Feature","properties":{"osm_way_id":"60706942","name":"Co-op","building":"yes","shop":"supermarket","other":{"opening_hours":"Mo-Su 07:00-22:00","operator":"The Co-operative Group"}}, "geometry":{"type":"MultiPolygon","coordinates":[[[[-4.57631,56.00387],[-4.5772,56.00363],[-4.57701,56.00341],[-4.5767,56.00349],[-4.57655,56.00333],[-4.57598,56.00348],[-4.57631,56.00387]]]]}},
{ "type":"Feature","properties":{"osm_way_id":"118929618","name":"Asda","building":"yes","shop":"supermarket","other":{"addr:city":"Clydebank","addr:country":"GB","addr:housenumber":"31","addr:postcode":"G81 2RZ","addr:street":"Britannia Way","brand":"Asda","brand:wikidata":"Q297410","brand:wikipedia":"en:Asda","contact:facebook":"https:\/\/www.facebook.com\/asda\/","contact:twitter":"@asda","contact:website":"https:\/\/storelocator.asda.com\/scotland\/clydebank\/31-britannia-way","fhrs:id":"99697","operator":"Asda Stores Ltd"}}, "geometry":{"type":"MultiPolygon","coordinates":[[[[-4.40078,55.90489],[-4.40096,55.90426],[-4.39959,55.90414],[-4.39942,55.90477],[-4.39964,55.90479],[-4.40023,55.9051],[-4.4003,55.90485],[-4.40078,55.90489]]]]}},
{ "type":"Feature","properties":{"osm_way_id":"158242483","name":"Morrisons","building":"yes","shop":"supermarket","other":{"addr:city":"Dumbarton","addr:postcode":"G82 1QZ","addr:street":"Glasgow Road","brand":"Morrisons","brand:wikidata":"Q922344","brand:wikipedia":"en:Morrisons","fhrs:id":"81691","opening_hours":"Mo-Sa 07:00-22:00; Su 08:00-20:00"}}, "geometry":{"type":"MultiPolygon","coordinates":[[[[-4.56194,55.94213],[-4.56175,55.9421],[-4.56173,55.94215],[-4.56137,55.94209],[-4.56143,55.94197],[-4.56061,55.94184],[-4.56096,55.94118],[-4.56215,55.94138],[-4.56194,55.94177],[-4.56216,55.94181],[-4.56204,55.94203],[-4.562,55.94203],[-4.56194,55.94213]]]]}},
{ "type":"Feature","properties":{"osm_way_id":"218387317","name":"Asda","building":"supermarket","shop":"supermarket","other":{"addr:city":"Dumbarton","addr:country":"GB","addr:housename":"St James Retail Park","addr:housenumber":"19","addr:postcode":"G82 1RB","addr:street":"Glasgow Road","brand":"Asda","brand:wikidata":"Q297410","brand:wikipedia":"en:Asda","contact:facebook":"https:\/\/www.facebook.com\/asda\/","contact:phone":"+44 1389 739 400","contact:twitter":"@asda","contact:website":"https:\/\/storelocator.asda.com\/scotland\/glasgow\/st-james-retail-park","fhrs:id":"104235","opening_hours":"24\/7","operator":"Asda Stores Ltd","toilets":"yes","toilets:access":"customers","wheelchair":"yes"}}, "geometry":{"type":"MultiPolygon","coordinates":[[[[-4.56003,55.94539],[-4.55948,55.94534],[-4.55945,55.94543],[-4.55923,55.94541],[-4.55918,55.94564],[-4.55842,55.94539],[-4.55843,55.94533],[-4.55817,55.94531],[-4.55834,55.94473],[-4.55919,55.94481],[-4.56018,55.9449],[-4.56017,55.94495],[-4.56005,55.94534],[-4.56003,55.94539]]]]}},
{ "type":"Feature","properties":{"osm_way_id":"218387319","name":"Aldi","building":"yes","shop":"supermarket","other":{"addr:housenumber":"80","addr:postcode":"G83 0LZ","addr:street":"Bank Street","brand":"ALDI","brand:wikidata":"Q41171672","brand:wikipedia":"en:Aldi","fhrs:id":"108049"}}, "geometry":{"type":"MultiPolygon","coordinates":[[[[-4.57866,55.98672],[-4.57831,55.98659],[-4.57791,55.98694],[-4.57809,55.98701],[-4.57805,55.98705],[-4.57822,55.98711],[-4.57866,55.98672]]]]}},
{ "type":"Feature","properties":{"osm_way_id":"218387786","name":"Co-op","building":"yes","shop":"supermarket","other":{"addr:housenumber":"106","addr:postcode":"G82 1PQ","addr:street":"High Street"}}, "geometry":{"type":"MultiPolygon","coordinates":[[[[-4.57212,55.94378],[-4.572,55.94371],[-4.57166,55.9439],[-4.57179,55.94396],[-4.57212,55.94378]]]]}},
{ "type":"Feature","properties":{"osm_way_id":"218388499","name":"M&S Foodhall","building":"yes","shop":"supermarket","other":{"addr:housename":"St James Retail Park","addr:housenumber":"19","addr:postcode":"G82 1RB","addr:street":"Glasgow Road","brand":"M&S Foodhall","brand:wikidata":"Q714491","brand:wikipedia":"en:Marks & Spencer","fhrs:id":"111353"}}, "geometry":{"type":"MultiPolygon","coordinates":[[[[-4.56076,55.94532],[-4.56085,55.94501],[-4.56053,55.94499],[-4.56042,55.94536],[-4.56065,55.94538],[-4.56067,55.94531],[-4.56076,55.94532]]]]}},
{ "type":"Feature","properties":{"osm_way_id":"572446626","name":"Co-op Food","building":"yes","shop":"supermarket","other":{"addr:housenumber":"2","addr:postcode":"G83 0LW","addr:street":"Mitchell Way","brand":"Co-op Food","brand:wikidata":"Q3277439","brand:wikipedia":"en:Co-op Food","fhrs:id":"71729","opening_hours":"Mo-Su 08:00-22:00","operator":"The Co-operative Group","source:addr":"FHRS Open Data"}}, "geometry":{"type":"MultiPolygon","coordinates":[[[[-4.58102,55.98607],[-4.58063,55.98616],[-4.58035,55.98575],[-4.5808,55.98575],[-4.58102,55.98607]]]]}},
{ "type":"Feature","properties":{"osm_way_id":"572446629","name":"Scotmid","building":"yes","shop":"supermarket","other":{"addr:housenumber":"1","addr:postcode":"G83 0JN","addr:street":"Tullichewan Drive","brand":"Scotmid","brand:wikidata":"Q7435719","brand:wikipedia":"en:Scotmid","fhrs:id":"94372","opening_hours":"Mo-Su 07:00-22:00","operator":"Scottish Midland Co-operative Society","source:addr":"FHRS Open Data"}}, "geometry":{"type":"MultiPolygon","coordinates":[[[[-4.58872,55.99701],[-4.58859,55.99716],[-4.58831,55.99708],[-4.58838,55.997],[-4.58845,55.99699],[-4.58848,55.99695],[-4.58872,55.99701]]]]}},
{ "type":"Feature","properties":{"osm_way_id":"853032381","name":"Lidl","building":"retail","shop":"supermarket","other":{"addr:country":"GB","addr:postcode":"G82 1QS","addr:street":"Castle Street","brand":"Lidl","brand:wikidata":"Q151954","brand:wikipedia":"en:Lidl","building:levels":"1","fhrs:id":"1286853","nohousenumber":"yes","roof:levels":"0"}}, "geometry":{"type":"MultiPolygon","coordinates":[[[[-4.56564,55.94281],[-4.5653,55.94281],[-4.56529,55.94245],[-4.56634,55.94244],[-4.56634,55.94251],[-4.56626,55.94251],[-4.56627,55.94276],[-4.56564,55.94276],[-4.56564,55.94281]]]]}}
]
}
