{
"type": "FeatureCollection",
"features": [
{ "type":"Feature","properties":{"osm_id":"408502859","name":"Co-op","other":{"opening_hours":"Mo-Su 07:00-22:00","operator":"Co-operative","shop":"supermarket"}}, "geometry":{"type":"Point","coordinates":[-4.122,50.37038 ]}},
{ "type":"Feature","properties":{"osm_id":"1867919653","name":"Co-operative Food","other":{"shop":"supermarket"}}, "geometry":{"type":"Point","coordinates":[-4.09825,50.38802 ]}},
{ "type":"Feature","properties":{"osm_id":"4655359113","name":"Poundstretcher","other":{"addr:city":"Plymouth","addr:housename":"Unit B2 Friary Retail Park,","addr:postcode":"PL4 0HH","addr:street":"Exeter Street,","opening_hours":"Mo-Fr 08:30-20:00; Sa 08:30-18:00; Su 11:00-17:00","operator":"Poundstretcher","shop":"supermarket"}}, "geometry":{"type":"Point","coordinates":[-4.12767,50.37135 ]}},
{ "type":"Feature","properties":{"osm_id":"4955084524","name":"Co-op Food","other":{"brand":"Co-op Food","brand:wikidata":"Q3277439","brand:wikipedia":"en:Co-op Food","operator":"The Co-operative Group","operator:wikidata":"Q117202","operator:wikipedia":"en:The Co-operative Group","shop":"supermarket"}}, "geometry":{"type":"Point","coordinates":[-4.18685,50.40245 ]}},
{ "type":"Feature","properties":{"osm_id":"4962013521","name":"Hooe Mini Market","other":{"addr:city":"Plymouth","addr:country":"GB","addr:housenumber":"6-8","addr:postcode":"PL9 9RG","addr:street":"Hooe Road","fhrs:id":"733350","shop":"supermarket"}}, "geometry":{"type":"Point","coordinates":[-4.11341,50.35318 ]}},
{ "type":"Feature","properties":{"osm_id":"4965940915","name":"The Co-operative Food","other":{"shop":"supermarket"}}, "geometry":{"type":"Point","coordinates":[-4.02407,50.38708 ]}},
{ "type":"Feature","properties":{"osm_id":"6586841007","name":"Lidl","other":{"addr:city":"Plymouth","addr:country":"GB","addr:postcode":"PL5 1TE","addr:street":"Wolseley Road","brand":"Lidl","brand:wikidata":"Q151954","brand:wikipedia":"en:Lidl","fhrs:id":"536597","operator":"Lidl","shop":"supermarket"}}, "geometry":{"type":"Point","coordinates":[-4.18512,50.40065 ]}},
{ "type":"Feature","properties":{"osm_id":"6988331061","name":"M&S Simply Food","other":{"brand":"M&S Simply Food","brand:wikidata":"Q714491","brand:wikipedia":"en:Marks & Spencer","shop":"supermarket"}}, "geometry":{"type":"Point","coordinates":[-4.11455,50.41685 ]}},
{ "type":"Feature","properties":{"osm_id":"8287999011","name":"Co-op Food","other":{"brand":"Co-op Food","brand:wikidata":"Q3277439","brand:wikipedia":"en:Co-op Food","shop":"supermarket"}}, "geometry":{"type":"Point","coordinates":[-4.17855,50.41886 ]}},
{ "type":"Feature","properties":{"osm_way_id":"40188960","name":"Lidl","building":"retail","shop":"supermarket","other":{"addr:country":"GB","addr:housenumber":"149","addr:postcode":"PL7 4NF","addr:street":"Plymouth Road","brand":"Lidl","brand:wikidata":"Q151954","brand:wikipedia":"en:Lidl","fhrs:id":"944273","opening_hours":"Mo-Sa 07:00-22:00; Su 10:00-16:00; PH 08:00-20:00","wheelchair":"yes"}}, "geometry":{"type":"MultiPolygon","coordinates":[[[[-4.07313,50.3902],[-4.07321,50.38985],[-4.07222,50.38976],[-4.07214,50.39012],[-4.07313,50.3902]]]]}},
{ "type":"Feature","properties":{"osm_way_id":"40189112","name":"Co-op","building":"yes","shop":"supermarket","other":{"addr:postcode":"PL7 2AW","addr:street":"The Ridgeway","wheelchair":"yes"}}, "geometry":{"type":"MultiPolygon","coordinates":[[[[-4.0544,50.3881],[-4.05456,50.38771],[-4.0541,50.38764],[-4.05412,50.38759],[-4.05389,50.38756],[-4.05384,50.3877],[-4.05378,50.38771],[-4.05374,50.38781],[-4.05379,50.38782],[-4.05376,50.38789],[-4.0535,50.38785],[-4.05347,50.38794],[-4.05358,50.38796],[-4.05358,50.38798],[-4.05363,50.38799],[-4.05363,50.38797],[-4.05373,50.38799],[-4.05373,50.388],[-4.0544,50.3881]]]]}},
{ "type":"Feature","properties":{"osm_way_id":"40608955","name":"Co-operative Food Supermarket","building":"retail","shop":"supermarket","other":{"building:levels":"1","opening_hours":"Mo-Sa 06:00-22:00; Su 10:00-16:00","wheelchair":"yes"}}, "geometry":{"type":"MultiPolygon","coordinates":[[[[-4.15058,50.41865],[-4.1506,50.41856],[-4.15052,50.41855],[-4.15051,50.41862],[-4.15041,50.41861],[-4.15044,50.41847],[-4.14996,50.41843],[-4.14992,50.4186],[-4.14993,50.4186],[-4.15058,50.41865]]]]}},
{ "type":"Feature","properties":{"osm_way_id":"41082373","name":"Sainsbury's","building":"retail","shop":"supermarket","other":{"addr:postcode":"PL3 6RL","addr:street":"Plymouth Road","brand":"Sainsbury's","brand:wikidata":"Q152096","opening_hours":"Mo-Fr 07:00-23:00; Sa 07:00-22:00; Su 10:00-16:00","wheelchair":"yes"}}, "geometry":{"type":"MultiPolygon","coordinates":[[[[-4.08818,50.38861],[-4.08822,50.38866],[-4.08815,50.38894],[-4.08803,50.389],[-4.08791,50.38904],[-4.08788,50.38912],[-4.08785,50.38921],[-4.08778,50.38928],[-4.08738,50.38944],[-4.08738,50.38951],[-4.0872,50.38957],[-4.08713,50.38951],[-4.08643,50.38884],[-4.08707,50.38859],[-4.08697,50.38849],[-4.08761,50.38822],[-4.08806,50.38866],[-4.08818,50.38861]]]]}},
{ "type":"Feature","properties":{"osm_way_id":"41190235","name":"Morrisons","building":"retail","shop":"supermarket","other":{"addr:city":"Plymstock","addr:postcode":"PL9 7BH","addr:street":"Pomphlett Road","brand":"Morrisons","brand:wikidata":"Q922344","brand:wikipedia":"en:Morrisons","building:levels":"1","opening_hours":"Mo-Sa 07:00-22:00; Su 11:00-17:00","roof:levels":"0","roof:shape":"flat","wheelchair":"yes"}}, "geometry":{"type":"MultiPolygon","coordinates":[[[[-4.0982,50.36672],[-4.09816,50.36648],[-4.0981,50.36648],[-4.09789,50.36631],[-4.09788,50.36627],[-4.09766,50.36629],[-4.09766,50.3663],[-4.09755,50.36633],[-4.09753,50.36632],[-4.09752,50.36625],[-4.09747,50.36625],[-4.09744,50.36612],[-4.09738,50.36613],[-4.09731,50.36579],[-4.0974,50.36578],[-4.09738,50.36574],[-4.09867,50.36564],[-4.09869,50.36578],[-4.09875,50.36578],[-4.09877,50.36593],[-4.0988,50.36593],[-4.09884,50.366],[-4.09885,50.36607],[-4.09886,50.36613],[-4.09885,50.36621],[-4.09882,50.36621],[-4.09886,50.3664],[-4.09885,50.3664],[-4.09882,50.3664],[-4.09885,50.36659],[-4.09887,50.36667],[-4.0982,50.36672]]]]}},
{ "type":"Feature","properties":{"osm_way_id":"42352260","name":"Aldi","building":"yes","shop":"supermarket","other":{"addr:housenumber":"141","addr:postcode":"PL1 3HF","addr:street":"Union Street","brand":"ALDI","brand:wikidata":"Q41171672","brand:wikipedia":"en:Aldi"}}, "geometry":{"type":"MultiPolygon","coordinates":[[[[-4.15622,50.36955],[-4.15554,50.36958],[-4.15552,50.36935],[-4.15582,50.36934],[-4.15581,50.36928],[-4.1562,50.36927],[-4.15622,50.36955]]]]}},
{ "type":"Feature","properties":{"osm_way_id":"60363084","name":"Morrisons","building":"retail","shop":"supermarket","other":{"addr:city":"Plymouth","addr:housenumber":"282","addr:postcode":"PL3 5UQ","addr:street":"Outland Road","branch":"Plymouth","brand":"Morrisons","brand:wikidata":"Q922344","brand:wikipedia":"en:Morrisons","fhrs:id":"456564","opening_hours":"Mo-Sa 07:00-22:00; Su 10:00-16:00","operator":"Morrisons","source:addr:postcode":"FSA Food Hygiene Ratings Database","wheelchair":"yes"}}, "geometry":{"type":"MultiPolygon","coordinates":[[[[-4.13974,50.39709],[-4.14043,50.39683],[-4.14048,50.39688],[-4.14068,50.3968],[-4.1408,50.39676],[-4.14078,50.39674],[-4.14078,50.39673],[-4.14067,50.39662],[-4.14061,50.39664],[-4.14038,50.39638],[-4.14052,50.39633],[-4.14049,50.3963],[-4.14042,50.39623],[-4.14033,50.39613],[-4.13941,50.39648],[-4.13954,50.39662],[-4.13948,50.39674],[-4.13954,50.39679],[-4.13954,50.39687],[-4.13974,50.39709]]]]}},
{ "type":"Feature","properties":{"osm_way_id":"152595093","name":"Tesco Express","building":"retail","shop":"supermarket","other":{"addr:city":"Plymouth","addr:country":"GB","addr:housenumber":"62","addr:postcode":"PL2 3BP","addr:street":"Wolseley Road","branch":"Plymouth Wolseley Rd Express","brand":"Tesco Express","brand:wikidata":"Q98456772","opening_hours":"Mo-Su 06:00-23:00","source:geometry":"Bing 2012"}}, "geometry":{"type":"MultiPolygon","coordinates":[[[[-4.16098,50.38714],[-4.16083,50.38721],[-4.16036,50.38721],[-4.16036,50.38709],[-4.16098,50.38708],[-4.16098,50.38714]]]]}},
{ "type":"Feature","properties":{"osm_way_id":"169696291","name":"Lidl","building":"retail","shop":"supermarket","other":{"addr:city":"Plymstock","addr:country":"GB","addr:housenumber":"11","addr:postcode":"PL9 9BU","addr:street":"Horn Cross Road","brand":"Lidl","brand:wikidata":"Q151954","building:levels":"1","fhrs:id":"75202","opening_hours":"Mo-Sa 08:00-22:00; Su 10:00-16:00; PH 08:00-20:00","roof:levels":"0","roof:shape":"flat","wheelchair":"yes"}}, "geometry":{"type":"MultiPolygon","coordinates":[[[[-4.08979,50.36104],[-4.08977,50.36099],[-4.08962,50.36064],[-4.08916,50.36072],[-4.08929,50.36102],[-4.0892,50.36103],[-4.08922,50.36107],[-4.08925,50.36107],[-4.08928,50.36113],[-4.08979,50.36104]]]]}},
{ "type":"Feature","properties":{"osm_way_id":"183301927","name":"Lidl","building":"retail","shop":"supermarket","other":{"addr:city":"Plymouth","addr:country":"GB","addr:postcode":"PL5 3TW","addr:street":"Transit Way","alt_name":"LIDL Plymouth","brand":"Lidl","brand:wikidata":"Q151954","fhrs:id":"76011"}}, "geometry":{"type":"MultiPolygon","coordinates":[[[[-4.15164,50.41184],[-4.15176,50.41198],[-4.15209,50.41186],[-4.15179,50.41152],[-4.15185,50.41149],[-4.15176,50.41139],[-4.15169,50.41142],[-4.15159,50.4113],[-4.15126,50.41142],[-4.15164,50.41184]]]]}},
{ "type":"Feature","properties":{"osm_way_id":"202574765","name":"Iceland","building":"yes","shop":"supermarket","other":{"addr:postcode":"PL7 2ZN","addr:street":"St Steven's Square Shopping Centre","brand":"Iceland","brand:wikidata":"Q721810","wheelchair":"yes"}}, "geometry":{"type":"MultiPolygon","coordinates":[[[[-4.05215,50.38749],[-4.05224,50.38728],[-4.05189,50.38723],[-4.05181,50.38725],[-4.05175,50.38739],[-4.05179,50.38743],[-4.05215,50.38749]]]]}},
{ "type":"Feature","properties":{"osm_way_id":"213796689","name":"Lidl","building":"yes","shop":"supermarket","other":{"addr:city":"Plymouth","addr:country":"GB","addr:housenumber":"299","addr:postcode":"PL1 3HW","addr:street":"Union Street","brand":"Lidl","brand:wikidata":"Q151954","brand:wikipedia":"en:Lidl","fhrs:id":"409880"}}, "geometry":{"type":"MultiPolygon","coordinates":[[[[-4.15959,50.36949],[-4.15957,50.36938],[-4.15963,50.36937],[-4.15961,50.3693],[-4.16036,50.36925],[-4.16033,50.36908],[-4.16049,50.36907],[-4.16054,50.36933],[-4.16047,50.36934],[-4.16048,50.36943],[-4.15959,50.36949]]]]}},
{ "type":"Feature","properties":{"osm_way_id":"213797585","name":"Co-op Food","shop":"supermarket","other":{"addr:housenumber":"8","addr:postcode":"PL1 2JB","addr:street":"Hoegate Street","brand":"Co-op Food","brand:wikidata":"Q3277439","brand:wikipedia":"en:Co-op Food","operator":"The Co-operative Group","operator:wikidata":"Q117202","operator:wikipedia":"en:The Co-operative Group"}}, "geometry":{"type":"MultiPolygon","coordinates":[[[[-4.1389,50.36784],[-4.13867,50.36785],[-4.13868,50.36793],[-4.13879,50.36794],[-4.13881,50.36814],[-4.13893,50.36814],[-4.139,50.36787],[-4.13899,50.36784],[-4.1389,50.36784]]]]}},
{ "type":"Feature","properties":{"osm_way_id":"213798144","name":"Co-op Food","building":"yes","shop":"supermarket","other":{"addr:city":"Plymouth","addr:country":"GB","addr:housenumber":"50","addr:postcode":"PL1 2LD","addr:street":"Southside Street","brand":"Co-op Food","brand:wikidata":"Q3277439","brand:wikipedia":"en:Co-op Food"}}, "geometry":{"type":"MultiPolygon","coordinates":[[[[-4.13648,50.36752],[-4.13644,50.36743],[-4.13639,50.36743],[-4.13638,50.36744],[-4.13631,50.36743],[-4.13628,50.36751],[-4.13645,50.36754],[-4.13648,50.36752]]]]}},
{ "type":"Feature","properties":{"osm_way_id":"229672252","name":"Iceland","building":"yes","shop":"supermarket","other":{"addr:city":"Plymstock","addr:housenumber":"22","addr:postcode":"PL9 7AU","addr:street":"The Broadway","brand":"Iceland","brand:wikidata":"Q721810"}}, "geometry":{"type":"MultiPolygon","coordinates":[[[[-4.0914,50.3599],[-4.09135,50.35979],[-4.09126,50.35962],[-4.091,50.35967],[-4.09114,50.35995],[-4.09136,50.35991],[-4.0914,50.3599]]]]}},
{ "type":"Feature","properties":{"osm_way_id":"241092517","name":"European Supermarket","building":"yes","shop":"supermarket"},"geometry":{"type":"MultiPolygon","coordinates":[[[[-4.15072,50.37002],[-4.15053,50.37003],[-4.15052,50.3699],[-4.15071,50.36989],[-4.15071,50.36991],[-4.15072,50.37002]]]]}},
{ "type":"Feature","properties":{"osm_way_id":"264985248","name":"Tesco","shop":"supermarket","other":{"addr:postcode":"PL5 3TW","addr:street":"Transit Way","alt_name":"Plymouth Transit Way Superstore","brand":"Tesco","brand:wikidata":"Q487494","brand:wikipedia":"en:Tesco"}}, "geometry":{"type":"MultiPolygon","coordinates":[[[[-4.14984,50.40951],[-4.14971,50.40953],[-4.14969,50.40944],[-4.14939,50.40947],[-4.14945,50.40966],[-4.14904,50.40969],[-4.14904,50.40967],[-4.14876,50.40971],[-4.14877,50.40973],[-4.14874,50.40973],[-4.14873,50.40969],[-4.14824,50.40976],[-4.14825,50.40981],[-4.14823,50.40982],[-4.14825,50.40987],[-4.14822,50.40988],[-4.14828,50.41003],[-4.14878,50.40997],[-4.14887,50.41029],[-4.14867,50.41031],[-4.14874,50.41036],[-4.14895,50.41034],[-4.14898,50.41038],[-4.14894,50.41038],[-4.14895,50.41041],[-4.1493,50.41037],[-4.14934,50.41048],[-4.1498,50.41042],[-4.14979,50.41038],[-4.14996,50.41036],[-4.14991,50.4102],[-4.14999,50.41015],[-4.14987,50.40973],[-4.14993,50.40972],[-4.1499,50.40966],[-4.14984,50.40951]]]]}},
{ "type":"Feature","properties":{"osm_way_id":"264985302","name":"M&S Food Hall","building":"yes","shop":"supermarket","other":{"addr:city":"Plymouth","addr:country":"GB","addr:housenumber":"223","addr:postcode":"PL6 5US","addr:street":"Tavistock Road","addr:suburb":"Derriford","alt_name":"M&S Crownhill Plymouth Simply Food","brand":"M&S Foodhall","brand:wikidata":"Q714491"}}, "geometry":{"type":"MultiPolygon","coordinates":[[[[-4.12586,50.41604],[-4.12541,50.41589],[-4.12523,50.4161],[-4.12567,50.41626],[-4.12586,50.41604]]]]}},
{ "type":"Feature","properties":{"osm_way_id":"264985797","name":"Lidl","building":"yes","shop":"supermarket","other":{"addr:city":"Plymouth","addr:country":"GB","addr:postcode":"PL6 7RF","addr:street":"Towerfield Drive","alt_name":"LIDL Plymouth","brand":"Lidl","brand:wikidata":"Q151954","fhrs:id":"679079"}}, "geometry":{"type":"MultiPolygon","coordinates":[[[[-4.10841,50.43598],[-4.10775,50.43555],[-4.10741,50.43576],[-4.10802,50.43615],[-4.10822,50.43603],[-4.10827,50.43606],[-4.10841,50.43598]]]]}},
{ "type":"Feature","properties":{"osm_way_id":"264985798","name":"Tesco Extra","building":"yes","shop":"supermarket","other":{"addr:city":"Plymouth","addr:country":"GB","addr:housenumber":"1","addr:postcode":"PL6 7RF","addr:street":"Woolwell Crescent","alt_name":"Plymouth Roborough Extra","brand":"Tesco Extra","brand:wikidata":"Q25172225","brand:wikipedia":"en:Tesco Extra"}}, "geometry":{"type":"MultiPolygon","coordinates":[[[[-4.11023,50.43498],[-4.10968,50.4348],[-4.10948,50.43473],[-4.10951,50.4347],[-4.10927,50.43461],[-4.10903,50.43488],[-4.10886,50.43507],[-4.10894,50.4351],[-4.10891,50.43514],[-4.10879,50.4351],[-4.10882,50.43506],[-4.10858,50.43498],[-4.10844,50.43515],[-4.1088,50.43527],[-4.10873,50.43536],[-4.10888,50.43541],[-4.10874,50.43557],[-4.10902,50.43567],[-4.109,50.4357],[-4.10919,50.43577],[-4.10908,50.4359],[-4.10885,50.43582],[-4.10876,50.43591],[-4.10914,50.43599],[-4.10917,50.43596],[-4.10929,50.436],[-4.10949,50.43576],[-4.10957,50.43579],[-4.10978,50.43554],[-4.10982,50.43556],[-4.11022,50.43509],[-4.11015,50.43507],[-4.11023,50.43498]]]]}},
{ "type":"Feature","properties":{"osm_way_id":"273859286","name":"Co-op Food","building":"yes","shop":"supermarket","other":{"addr:city":"Plymouth","addr:housenumber":"36-40","addr:postcode":"PL3 4DH","addr:street":"Devonport Road","brand":"Co-op Food","brand:wikidata":"Q3277439","brand:wikipedia":"en:Co-op Food","opening_hours":"Mo-Su 07:00-22:00","operator":"The Co-operative Group","operator:wikidata":"Q117202","operator:wikipedia":"en:The Co-operative Group"}}, "geometry":{"type":"MultiPolygon","coordinates":[[[[-4.16591,50.38126],[-4.16586,50.38119],[-4.16582,50.38112],[-4.16581,50.38102],[-4.16562,50.38104],[-4.16554,50.38105],[-4.16556,50.3811],[-4.16563,50.38122],[-4.16575,50.38121],[-4.16577,50.3812],[-4.16583,50.38129],[-4.16591,50.38126]]]]}},
{ "type":"Feature","properties":{"osm_way_id":"273859287","name":"Co-op Food","building":"yes","shop":"supermarket","other":{"addr:housenumber":"152-158","addr:postcode":"PL2 1AG","addr:street":"Albert Road","alt_name":"The Co-operative Food","brand":"Co-op Food","brand:wikidata":"Q3277439","brand:wikipedia":"en:Co-op Food","operator":"The Co-operative Group","operator:wikidata":"Q117202","operator:wikipedia":"en:The Co-operative Group"}}, "geometry":{"type":"MultiPolygon","coordinates":[[[[-4.1746,50.379],[-4.17458,50.37892],[-4.17456,50.37884],[-4.1743,50.37888],[-4.17434,50.37899],[-4.17435,50.37903],[-4.1746,50.379]]]]}},
{ "type":"Feature","properties":{"osm_way_id":"273859359","name":"Lidl","building":"retail","shop":"supermarket","other":{"addr:city":"Plymouth","addr:country":"GB","addr:postcode":"PL2 2AA","addr:street":"Henderson Place","branch":"North Prospect","brand":"Lidl","brand:wikidata":"Q151954","brand:wikipedia":"en:Lidl","fhrs:id":"669959","opening_hours":"Mo-Sa 08:00-22:00; Su 10:00-16:00","operator":"Lidl"}}, "geometry":{"type":"MultiPolygon","coordinates":[[[[-4.1671,50.38855],[-4.16685,50.38837],[-4.16669,50.38847],[-4.16665,50.38844],[-4.16622,50.38869],[-4.16655,50.38892],[-4.16666,50.38885],[-4.16668,50.38884],[-4.16688,50.38873],[-4.16684,50.3887],[-4.1671,50.38855]]]]}},
{ "type":"Feature","properties":{"osm_way_id":"273859360","name":"Co-op Food","building":"retail","shop":"supermarket","other":{"addr:city":"Plymouth","addr:postcode":"PL2 3BY","addr:street":"Wolseley Road","alt_name":"The Co-operative Food","brand":"Co-op Food","brand:wikidata":"Q3277439","brand:wikipedia":"en:Co-op Food","opening_hours":"Mo-Sa 07:00-22:00; Su 10:00-16:00"}}, "geometry":{"type":"MultiPolygon","coordinates":[[[[-4.16669,50.38836],[-4.16657,50.38828],[-4.16644,50.38836],[-4.16625,50.38823],[-4.16591,50.38844],[-4.16622,50.38865],[-4.16669,50.38836]]]]}},
{ "type":"Feature","properties":{"osm_way_id":"406673058","name":"ALDI","building":"retail","shop":"supermarket","other":{"brand":"ALDI","brand:wikidata":"Q41171672","brand:wikipedia":"en:Aldi","building:levels":"1","opening_hours":"Mo-Sa 08:00-22:00; Su 10:00-16:00"}}, "geometry":{"type":"MultiPolygon","coordinates":[[[[-4.13157,50.37954],[-4.13132,50.37938],[-4.13134,50.37936],[-4.13112,50.37922],[-4.13087,50.37938],[-4.13086,50.3794],[-4.13088,50.37941],[-4.13081,50.37946],[-4.13113,50.37965],[-4.13107,50.37969],[-4.13122,50.37977],[-4.13157,50.37954]]]]}},
{ "type":"Feature","properties":{"osm_way_id":"417228498","name":"Asda","building":"supermarket","shop":"supermarket","other":{"addr:city":"Plymouth","addr:country":"GB","addr:postcode":"PL6 8TB","addr:street":"Leypark Drive","brand":"Asda","brand:wikidata":"Q297410","brand:wikipedia":"en:Asda","contact:facebook":"https:\/\/www.facebook.com\/asda\/","contact:twitter":"@asda","contact:website":"https:\/\/storelocator.asda.com\/south-west\/plymouth\/leypark-drive-estover","fhrs:id":"102498","operator":"Asda Stores Ltd"}}, "geometry":{"type":"MultiPolygon","coordinates":[[[[-4.09767,50.40912],[-4.09689,50.40922],[-4.09684,50.40909],[-4.09674,50.4091],[-4.09659,50.40912],[-4.09663,50.40926],[-4.09642,50.40928],[-4.09644,50.40934],[-4.0964,50.40934],[-4.09643,50.40946],[-4.09597,50.40951],[-4.096,50.40964],[-4.09609,50.40963],[-4.0961,50.40965],[-4.09619,50.40964],[-4.09618,50.40962],[-4.09627,50.40961],[-4.09627,50.40963],[-4.0965,50.4096],[-4.09652,50.40967],[-4.09638,50.40969],[-4.09638,50.40972],[-4.09633,50.40972],[-4.09634,50.40973],[-4.09623,50.40975],[-4.09626,50.40985],[-4.09646,50.40982],[-4.09649,50.40989],[-4.09662,50.40988],[-4.09666,50.41],[-4.09704,50.40997],[-4.09752,50.40991],[-4.09757,50.40989],[-4.09753,50.40977],[-4.09743,50.40978],[-4.09741,50.40973],[-4.09784,50.40968],[-4.09767,50.40912]]]]}},
{ "type":"Feature","properties":{"osm_way_id":"475468508","name":"Co-op Food","building":"yes","shop":"supermarket","other":{"addr:city":"Plymouth","addr:housenumber":"26","addr:postcode":"PL2 1HS","addr:street":"St George's Terrace","brand":"Co-op Food","brand:wikidata":"Q3277439","brand:wikipedia":"en:Co-op Food","opening_hours":"Mo-Su 07:00-22:00","operator":"The Co-operative Group","operator:wikidata":"Q117202","operator:wikipedia":"en:The Co-operative Group"}}, "geometry":{"type":"MultiPolygon","coordinates":[[[[-4.16874,50.38331],[-4.16866,50.3832],[-4.16863,50.38321],[-4.16861,50.38318],[-4.16864,50.38317],[-4.1686,50.38312],[-4.16848,50.38316],[-4.16855,50.38327],[-4.16853,50.38328],[-4.16859,50.38336],[-4.1686,50.38335],[-4.1686,50.38336],[-4.16864,50.38335],[-4.16864,50.38334],[-4.16868,50.38333],[-4.16869,50.38333],[-4.16871,50.38333],[-4.16871,50.38332],[-4.16874,50.38331]]]]}},
{ "type":"Feature","properties":{"osm_way_id":"505555109","name":"KW Brothers","building":"yes","shop":"supermarket"},"geometry":{"type":"MultiPolygon","coordinates":[[[[-4.16152,50.36809],[-4.16223,50.368],[-4.1622,50.3679],[-4.16227,50.36789],[-4.16224,50.36782],[-4.16214,50.36776],[-4.16181,50.3678],[-4.16182,50.36786],[-4.16146,50.3679],[-4.16152,50.36809]]]]}},
{ "type":"Feature","properties":{"osm_way_id":"512598575","name":"McColls","building":"yes","shop":"supermarket","other":{"opening_hours":"Mo-Su 18:00-22:00"}}, "geometry":{"type":"MultiPolygon","coordinates":[[[[-4.16837,50.41319],[-4.16835,50.41326],[-4.16841,50.41327],[-4.1684,50.41329],[-4.16856,50.41331],[-4.16859,50.41318],[-4.16857,50.41315],[-4.16852,50.41304],[-4.16831,50.41307],[-4.16837,50.41319]]]]}},
{ "type":"Feature","properties":{"osm_way_id":"518303958","name":"Belliver Stores","building":"yes","shop":"supermarket"},"geometry":{"type":"MultiPolygon","coordinates":[[[[-4.11202,50.43859],[-4.11221,50.43859],[-4.11221,50.43854],[-4.11227,50.43854],[-4.11227,50.43847],[-4.11216,50.43847],[-4.11216,50.43853],[-4.1121,50.43853],[-4.1121,50.43854],[-4.11202,50.43854],[-4.11202,50.43859]]]]}},
{ "type":"Feature","properties":{"osm_way_id":"605656657","name":"Aldi","building":"retail","shop":"supermarket","other":{"brand":"ALDI","brand:wikidata":"Q41171672","brand:wikipedia":"en:Aldi","opening_hours":"Mo-Sa 08:00-22:00; Su 10:00-16:00"}}, "geometry":{"type":"MultiPolygon","coordinates":[[[[-4.12403,50.43027],[-4.12421,50.43022],[-4.12424,50.43027],[-4.12448,50.43022],[-4.12445,50.43017],[-4.1248,50.43008],[-4.12465,50.42982],[-4.12387,50.43001],[-4.12403,50.43027]]]]}},
{ "type":"Feature","properties":{"osm_way_id":"640840724","name":"Sainsbury's","building":"yes","shop":"supermarket","other":{"brand":"Sainsbury's","brand:wikidata":"Q152096","brand:wikipedia":"en:Sainsbury's","building:min_level":"2","level":"3","opening_hours":"Mo-Sa 07:00-20:00, Su 10:30-16:30"}}, "geometry":{"type":"MultiPolygon","coordinates":[[[[-4.14392,50.374],[-4.14377,50.374],[-4.14377,50.37403],[-4.14368,50.37403],[-4.14367,50.37401],[-4.14364,50.37401],[-4.14362,50.37402],[-4.14353,50.37396],[-4.14352,50.37368],[-4.14362,50.37367],[-4.1436,50.3734],[-4.14489,50.37337],[-4.14505,50.37348],[-4.14503,50.37349],[-4.14509,50.37352],[-4.14436,50.37397],[-4.14434,50.37397],[-4.14435,50.37399],[-4.14432,50.37401],[-4.14427,50.37401],[-4.14425,50.37403],[-4.14415,50.37403],[-4.14415,50.37399],[-4.14392,50.374]]]]}},
{ "type":"Feature","properties":{"osm_way_id":"730657307","name":"Asian Food Store","building":"yes","shop":"supermarket"},"geometry":{"type":"MultiPolygon","coordinates":[[[[-4.13423,50.37237],[-4.13436,50.37237],[-4.13436,50.37231],[-4.13433,50.37231],[-4.13423,50.37231],[-4.13423,50.37231],[-4.13423,50.37237]]]]}},
{ "type":"Feature","properties":{"osm_way_id":"746998842","name":"Asia Oriental","building":"yes","shop":"supermarket","other":{"addr:city":"Plymouth","addr:housenumber":"98-100","addr:postcode":"PL1 1NF","addr:street":"Cornwall Street"}}, "geometry":{"type":"MultiPolygon","coordinates":[[[[-4.14498,50.37246],[-4.1448,50.37247],[-4.14481,50.37263],[-4.14498,50.37263],[-4.14498,50.37246]]]]}},
{ "type":"Feature","properties":{"osm_way_id":"747243558","name":"Costless","building":"yes","shop":"supermarket"},"geometry":{"type":"MultiPolygon","coordinates":[[[[-4.1479,50.37061],[-4.14789,50.37039],[-4.14823,50.37038],[-4.14825,50.37059],[-4.1479,50.37061]]]]}},
{ "type":"Feature","properties":{"osm_way_id":"853023148","name":"Lidl","building":"yes","shop":"supermarket","other":{"addr:country":"GB","addr:housenumber":"114","addr:postcode":"MK18 7RB","addr:street":"Needlepin Way","brand":"Lidl","brand:wikidata":"Q151954","brand:wikipedia":"en:Lidl","fhrs:id":"1111754"}}, "geometry":{"type":"MultiPolygon","coordinates":[[[[-0.97686,51.98956],[-0.97676,51.98946],[-0.97683,51.98944],[-0.97669,51.98928],[-0.97759,51.98897],[-0.97783,51.98923],[-0.97686,51.98956]]]]}},
{ "type":"Feature","properties":{"osm_way_id":"875747163","name":"Co-op Food","building":"retail","shop":"supermarket","other":{"brand":"Co-op Food","brand:wikidata":"Q3277439","brand:wikipedia":"en:Co-op Food","operator":"The Co-operative Group","operator:wikidata":"Q117202","operator:wikipedia":"en:The Co-operative Group"}}, "geometry":{"type":"MultiPolygon","coordinates":[[[[-4.17384,50.36984],[-4.1739,50.36972],[-4.17367,50.36968],[-4.17361,50.36979],[-4.17364,50.3698],[-4.17377,50.36982],[-4.17384,50.36984]]]]}},
{ "type":"Feature","properties":{"osm_way_id":"875749763","name":"Aldi","building":"retail","shop":"supermarket","other":{"brand":"ALDI","brand:wikidata":"Q41171672","brand:wikipedia":"en:Aldi","opening_hours":"Mo-Sa 08:00-22:00; Su 10:00-16:00"}}, "geometry":{"type":"MultiPolygon","coordinates":[[[[-4.04858,50.39317],[-4.04817,50.39318],[-4.04817,50.39282],[-4.04858,50.39282],[-4.04858,50.39317]]]]}},
{ "type":"Feature","properties":{"osm_way_id":"912865793","name":"Co-op Food","building":"yes","shop":"supermarket","other":{"brand":"Co-op Food","brand:wikidata":"Q3277439","brand:wikipedia":"en:Co-op Food","opening_hours":"Mo-Sa 06:00-23:00; Su 10:00-16:00"}}, "geometry":{"type":"MultiPolygon","coordinates":[[[[-4.13454,50.38283],[-4.13435,50.38285],[-4.13428,50.38267],[-4.1343,50.38266],[-4.13448,50.38267],[-4.13483,50.38269],[-4.13486,50.38283],[-4.13465,50.38285],[-4.13463,50.38277],[-4.13452,50.38278],[-4.13454,50.38283]]]]}},
{ "type":"Feature","properties":{"osm_way_id":"917565242","name":"Co-op Food","building":"yes","shop":"supermarket","other":{"brand":"Co-op Food","brand:wikidata":"Q3277439","brand:wikipedia":"en:Co-op Food"}}, "geometry":{"type":"MultiPolygon","coordinates":[[[[-4.13309,50.40797],[-4.13294,50.40795],[-4.13287,50.40794],[-4.13273,50.40791],[-4.13277,50.40781],[-4.13302,50.40786],[-4.13313,50.40788],[-4.13309,50.40797]]]]}},
{ "type":"Feature","properties":{"osm_way_id":"919136610","name":"Co-op Food","building":"retail","shop":"supermarket","other":{"addr:housenumber":"15","addr:postcode":"PL6 5XH","addr:street":"Frogmore Avenue","brand":"Co-op Food","brand:wikidata":"Q3277439","brand:wikipedia":"en:Co-op Food","building:levels":"2","opening_hours":"Mo-Su 07:00-23:00","roof:shape":"flat"}}, "geometry":{"type":"MultiPolygon","coordinates":[[[[-4.1085,50.39564],[-4.10875,50.39569],[-4.1088,50.3956],[-4.10854,50.39555],[-4.1085,50.39564]]]]}},
{ "type":"Feature","properties":{"osm_way_id":"927363074","name":"Maxim","building":"yes","shop":"supermarket"},"geometry":{"type":"MultiPolygon","coordinates":[[[[-4.14794,50.37105],[-4.14795,50.37116],[-4.14829,50.37115],[-4.14828,50.37104],[-4.14794,50.37105]]]]}},
{ "type":"Feature","properties":{"osm_way_id":"950375806","name":"Worldwide Food Supermarket","building":"yes","shop":"supermarket","other":{"addr:city":"Plymouth","addr:housenumber":"93","addr:postcode":"PL1 1NX","addr:street":"Cornwall Street"}}, "geometry":{"type":"MultiPolygon","coordinates":[[[[-4.14524,50.37227],[-4.14511,50.37227],[-4.1451,50.3721],[-4.14523,50.37208],[-4.14524,50.37227]]]]}}
]
}
