{
"type": "FeatureCollection",
"features": [
{ "type":"Feature","properties":{"osm_way_id":"40264683","name":"Mandarin International Brands Ltd","building":"warehouse","other":{"addr:city":"Plymouth","addr:postcode":"PL6 7FH","addr:street":"Estover Road","email":"sales@mandarincreative.com","phone":"+44 1752 725640","website":"http:\/\/mandarininternationalbrands.com\/"}}, "geometry":{"type":"MultiPolygon","coordinates":[[[[-4.09253,50.42098],[-4.09219,50.4208],[-4.09178,50.42108],[-4.09214,50.42129],[-4.09236,50.42112],[-4.09255,50.42123],[-4.09265,50.42116],[-4.09257,50.4211],[-4.0926,50.42107],[-4.0925,50.42101],[-4.09253,50.42098]]]]}},
{ "type":"Feature","properties":{"osm_way_id":"416250639","building":"warehouse"},"geometry":{"type":"MultiPolygon","coordinates":[[[[-4.09176,50.42187],[-4.09163,50.42197],[-4.09104,50.42162],[-4.09117,50.42153],[-4.09176,50.42187]]]]}},
{ "type":"Feature","properties":{"osm_way_id":"416250641","building":"warehouse"},"geometry":{"type":"MultiPolygon","coordinates":[[[[-4.09326,50.4225],[-4.09308,50.42262],[-4.09197,50.42198],[-4.09215,50.42185],[-4.09326,50.4225]]]]}},
{ "type":"Feature","properties":{"osm_way_id":"416250642","name":"Oakmount Control Systems","building":"warehouse","other":{"addr:city":"Plymouth","addr:postcode":"PL6 7FH","email":"sales@oakmountcs.co.uk","fax":"+44 (0)1752 696904","phone":"+44 1752 696905","website":"http:\/\/oakmountcs.co.uk\/"}}, "geometry":{"type":"MultiPolygon","coordinates":[[[[-4.09207,50.42153],[-4.09187,50.42166],[-4.09141,50.4214],[-4.09161,50.42127],[-4.09207,50.42153]]]]}},
{ "type":"Feature","properties":{"osm_way_id":"416250645","building":"warehouse"},"geometry":{"type":"MultiPolygon","coordinates":[[[[-4.09126,50.42218],[-4.09075,50.42188],[-4.091,50.42169],[-4.09152,50.42199],[-4.09126,50.42218]]]]}},
{ "type":"Feature","properties":{"osm_way_id":"416250646","building":"warehouse"},"geometry":{"type":"MultiPolygon","coordinates":[[[[-4.09363,50.42211],[-4.09344,50.42224],[-4.09243,50.42163],[-4.09261,50.42152],[-4.09363,50.42211]]]]}},
{ "type":"Feature","properties":{"osm_way_id":"416250648","name":"Industrial Air Power","building":"warehouse","other":{"addr:city":"Plymouth","addr:housenumber":"27","addr:street":"Sisna Park Road"}}, "geometry":{"type":"MultiPolygon","coordinates":[[[[-4.09166,50.42239],[-4.09179,50.42231],[-4.09165,50.42223],[-4.09153,50.42231],[-4.09166,50.42239]]]]}},
{ "type":"Feature","properties":{"osm_way_id":"499015039","name":"Eriks Industrial Distribution","building":"warehouse","other":{"addr:city":"Plymouth","addr:housenumber":"28","addr:street":"Sisna Park Road","website":"https:\/\/www.eriks.co.uk\/"}}, "geometry":{"type":"MultiPolygon","coordinates":[[[[-4.09153,50.42231],[-4.09141,50.4224],[-4.09155,50.42247],[-4.09166,50.42239],[-4.09153,50.42231]]]]}},
{ "type":"Feature","properties":{"osm_way_id":"499015041","name":"C.P.M.R. Ltd Chenpump","building":"warehouse","other":{"addr:city":"Plymouth","addr:housenumber":"26","addr:street":"Sisna Park Road"}}, "geometry":{"type":"MultiPolygon","coordinates":[[[[-4.09195,50.4224],[-4.09182,50.42249],[-4.09167,50.42241],[-4.0918,50.42231],[-4.09195,50.4224]]]]}},
{ "type":"Feature","properties":{"osm_way_id":"638027598","building":"warehouse"},"geometry":{"type":"MultiPolygon","coordinates":[[[[-4.15179,50.37167],[-4.15176,50.37166],[-4.15157,50.37171],[-4.15169,50.37187],[-4.15175,50.37196],[-4.15194,50.37191],[-4.15179,50.37167]]]]}},
{ "type":"Feature","properties":{"osm_way_id":"705105950","building":"warehouse"},"geometry":{"type":"MultiPolygon","coordinates":[[[[-4.11542,50.36258],[-4.11556,50.36223],[-4.11565,50.36225],[-4.11598,50.36201],[-4.11637,50.36188],[-4.11698,50.36182],[-4.11706,50.36213],[-4.11598,50.36225],[-4.11585,50.36233],[-4.1158,50.3624],[-4.11578,50.36245],[-4.11576,50.36249],[-4.11579,50.36258],[-4.1158,50.36262],[-4.11571,50.36262],[-4.11542,50.36258]]]]}},
{ "type":"Feature","properties":{"osm_way_id":"815234941","building":"warehouse"},"geometry":{"type":"MultiPolygon","coordinates":[[[[-4.15754,50.36869],[-4.15762,50.36897],[-4.15704,50.36903],[-4.15697,50.36875],[-4.15754,50.36869]]]]}},
{ "type":"Feature","properties":{"osm_way_id":"894305075","building":"warehouse"},"geometry":{"type":"MultiPolygon","coordinates":[[[[-4.1276,50.36021],[-4.12776,50.36014],[-4.12764,50.36007],[-4.12749,50.36014],[-4.12754,50.36019],[-4.1276,50.36021]]]]}},
{ "type":"Feature","properties":{"osm_way_id":"894305076","building":"warehouse"},"geometry":{"type":"MultiPolygon","coordinates":[[[[-4.12776,50.36014],[-4.12786,50.36002],[-4.12772,50.35999],[-4.12766,50.36006],[-4.12764,50.36007],[-4.12776,50.36014]]]]}},
{ "type":"Feature","properties":{"osm_way_id":"894305077","building":"warehouse"},"geometry":{"type":"MultiPolygon","coordinates":[[[[-4.12772,50.35999],[-4.12774,50.3599],[-4.12789,50.35989],[-4.12788,50.36002],[-4.12786,50.36002],[-4.12772,50.35999]]]]}},
{ "type":"Feature","properties":{"osm_way_id":"894305078","building":"warehouse"},"geometry":{"type":"MultiPolygon","coordinates":[[[[-4.12774,50.3599],[-4.12768,50.35974],[-4.12782,50.35971],[-4.12789,50.35989],[-4.12774,50.3599]]]]}},
{ "type":"Feature","properties":{"osm_way_id":"934729739","building":"warehouse","other":{"disused:landuse":"commercial"}}, "geometry":{"type":"MultiPolygon","coordinates":[[[[-4.15245,50.36922],[-4.15256,50.36926],[-4.15269,50.36926],[-4.15269,50.36923],[-4.15268,50.36909],[-4.15268,50.36906],[-4.1525,50.36905],[-4.15245,50.36922]]]]}},
{ "type":"Feature","properties":{"osm_way_id":"934729740","building":"warehouse"},"geometry":{"type":"MultiPolygon","coordinates":[[[[-4.15091,50.36955],[-4.15089,50.36936],[-4.15077,50.36936],[-4.15078,50.36952],[-4.15079,50.36955],[-4.15084,50.36955],[-4.15091,50.36955]]]]}},
{ "type":"Feature","properties":{"osm_way_id":"934729742","building":"warehouse"},"geometry":{"type":"MultiPolygon","coordinates":[[[[-4.15068,50.3695],[-4.15062,50.3695],[-4.15057,50.3695],[-4.15055,50.36937],[-4.15067,50.36937],[-4.15068,50.3695]]]]}}
]
}
