{
"type": "FeatureCollection",
"features": [
{ "type":"Feature","properties":{"osm_id":"408501723","name":"Sainsbury's Local","other":{"brand":"Sainsbury's Local","brand:wikidata":"Q13218434","shop":"supermarket"}}, "geometry":{"type":"Point","coordinates":[-0.0202,51.94809 ]}},
{ "type":"Feature","properties":{"osm_id":"440675628","name":"Budgens","other":{"brand":"Budgens","brand:wikidata":"Q4985016","brand:wikipedia":"en:Budgens","shop":"supermarket"}}, "geometry":{"type":"Point","coordinates":[0.14816,51.8135 ]}},
{ "type":"Feature","properties":{"osm_id":"613598914","name":"Full of Beans Whole Food Store","other":{"addr:city":"Sawbridgeworth","addr:country":"GB","addr:housenumber":"2","addr:postcode":"CM21 9AB","addr:street":"Church Street","description":"Whole foods health shop selling healthy, organic, vegan and vegetarian foods and supplements, as well as fresh organic fruit and vegetables.","opening_hours":"Mo-Sa 09:00-17:30","organic":"only","phone":"+44 1279 726 002","shop":"supermarket","wikidata":"Q26395346"}}, "geometry":{"type":"Point","coordinates":[0.15147,51.81221 ]}},
{ "type":"Feature","properties":{"osm_id":"1588789642","name":"Co-op Food","other":{"addr:city":"Hertford","addr:housenumber":"26-30","addr:postcode":"SG14 2DJ","addr:street":"Fleming Crescent","air_conditioning":"yes","brand":"Co-op Food","brand:wikidata":"Q3277439","brand:wikipedia":"en:Co-op Food","currency:GBP":"yes","internet_access":"wlan","internet_access:fee":"customers","opening_hours":"24\/7","opening_hours:covid19":"same","operator":"The Co-operative Group","operator:wikidata":"Q117202","operator:wikipedia":"en:The Co-operative Group","payment:cash":"yes","payment:credit_cards":"yes","payment:debit_cards":"yes","phone":"+441992552754","second_hand":"no","shop":"supermarket","stroller":"yes","website":"https:\/\/www.coop.co.uk\/store-finder\/SG14-2DJ\/26-30-fleming-crescent?utm_source=gmb&utm_medium=organic&utm_campaign=gmb-Fleming-Crescent-Hertford-Hertford","wheelchair":"yes"}}, "geometry":{"type":"Point","coordinates":[-0.10157,51.80034 ]}},
{ "type":"Feature","properties":{"osm_id":"2352809227","other":{"atm":"yes"}}, "geometry":{"type":"Point","coordinates":[-0.07194,51.79822 ]}},
{ "type":"Feature","properties":{"osm_id":"2717327473","name":"Sainsbury's","other":{"addr:city":"Bishop's Stortford","addr:housenumber":"16","addr:postcode":"CM23 3XG","addr:street":"Jackson Square","branch":"Bishop's Stortford Superstore","brand":"Sainsbury's","brand:wikidata":"Q152096","brand:wikipedia":"en:Sainsbury's","opening_hours":"Mo-Sa 07:30-22:00 Su 10:00-16:00","shop":"supermarket","wheelchair":"yes"}}, "geometry":{"type":"Point","coordinates":[0.16152,51.87009 ]}},
{ "type":"Feature","properties":{"osm_id":"5405222722","name":"Asda","other":{"addr:country":"GB","addr:postcode":"SG12 0AD","addr:street":"Watton Road","brand":"Asda","brand:wikidata":"Q297410","brand:wikipedia":"en:Asda","contact:facebook":"https:\/\/www.facebook.com\/asda\/","contact:phone":"+44 1920481398","contact:twitter":"@asda","contact:website":"https:\/\/storelocator.asda.com\/east-of-england\/ware\/watton-road","internet_access":"wlan","opening_hours":"Mo-Sa 08:00-22:00, Su 10:00-16:00","opening_hours:covid19":"Mo-Sa 08:00-22:00, Su 10:00-16:00","operator":"Asda Stores Ltd","shop":"supermarket"}}, "geometry":{"type":"Point","coordinates":[-0.03844,51.81398 ]}},
{ "type":"Feature","properties":{"osm_id":"8773912677","name":"ALDI","other":{"brand":"ALDI","brand:wikidata":"Q41171672","brand:wikipedia":"en:Aldi","level":"0","shop":"supermarket","wheelchair":"yes"}}, "geometry":{"type":"Point","coordinates":[-0.08371,51.79529 ]}},
{ "type":"Feature","properties":{"osm_id":"9101366923","name":"M&S Foodhall","other":{"brand":"M&S Foodhall","brand:wikidata":"Q714491","brand:wikipedia":"en:Marks & Spencer","shop":"supermarket"}}, "geometry":{"type":"Point","coordinates":[0.16132,51.86932 ]}},
{ "type":"Feature","properties":{"osm_id":"9512242553","name":"Spar","other":{"brand":"Spar","brand:wikidata":"Q610492","brand:wikipedia":"en:SPAR (retailer)","shop":"supermarket"}}, "geometry":{"type":"Point","coordinates":[0.17438,51.87003 ]}},
{ "type":"Feature","properties":{"osm_way_id":"11064049","name":"Tesco","building":"yes","shop":"supermarket","other":{"addr:postcode":"SG14 1QA","addr:street":"Ware Road","alt_name":"Tesco Hertford Superstore","brand":"Tesco","brand:wikidata":"Q487494","brand:wikipedia":"en:Tesco","designation":"2661","operator":"Tesco Stores Ltd","phone":"+44 845 6779347","wheelchair":"yes"}}, "geometry":{"type":"MultiPolygon","coordinates":[[[[-0.07232,51.79813],[-0.07194,51.79822],[-0.07178,51.79825],[-0.07174,51.79819],[-0.07144,51.79826],[-0.07147,51.79829],[-0.07186,51.79889],[-0.07187,51.7989],[-0.0724,51.79878],[-0.07247,51.7989],[-0.07273,51.79884],[-0.07232,51.79813]]]]}},
{ "type":"Feature","properties":{"osm_way_id":"22935954","name":"Tesco","building":"yes","shop":"supermarket","other":{"addr:city":"Bishop's Stortford","addr:housename":"Bishop's Park Centre","addr:postcode":"CM23 4DD","addr:street":"Lancaster Way","branch":"Bishop's Stortford Superstore","brand":"Tesco","brand:wikidata":"Q487494","brand:wikipedia":"en:Tesco","designation":"2101","layer":"1","opening_hours":"Mo-Sa 06:00-24:00; Su 10:00-16:00","operator":"Tesco Stores Ltd"}}, "geometry":{"type":"MultiPolygon","coordinates":[[[[0.13475,51.87494],[0.13497,51.87522],[0.1349,51.87523],[0.13505,51.87542],[0.13476,51.87551],[0.13487,51.87565],[0.1349,51.87568],[0.1353,51.87556],[0.13552,51.87549],[0.13589,51.87538],[0.13621,51.87529],[0.1361,51.87514],[0.13603,51.87504],[0.1358,51.87473],[0.13582,51.87468],[0.13578,51.87467],[0.13579,51.87466],[0.13573,51.87465],[0.13574,51.87463],[0.13553,51.87459],[0.13552,51.8746],[0.13547,51.87459],[0.13546,51.87461],[0.13538,51.87459],[0.13538,51.8746],[0.13524,51.87458],[0.13514,51.87475],[0.13481,51.87485],[0.13485,51.8749],[0.13475,51.87494]]]]}},
{ "type":"Feature","properties":{"osm_way_id":"91599523","name":"Co-op Food","building":"yes","shop":"supermarket","other":{"addr:postcode":"SG9 9HU","brand":"Co-op Food","brand:wikidata":"Q3277439","brand:wikipedia":"en:Co-op Food","designation":"4719","operator":"The Co-operative Group","operator:wikidata":"Q117202","operator:wikipedia":"en:The Co-operative Group","phone":"+44 1763 274321","website":"co-operativefood.co.uk"}}, "geometry":{"type":"MultiPolygon","coordinates":[[[[-0.01657,51.94513],[-0.0172,51.94507],[-0.01723,51.94516],[-0.01717,51.94516],[-0.01721,51.94531],[-0.0166,51.94535],[-0.01657,51.94513]]]]}},
{ "type":"Feature","properties":{"osm_way_id":"156971098","name":"Sainsbury's","building":"yes","shop":"supermarket","other":{"addr:postcode":"SG14 1FN","addr:street":"Hartham Lane","alt_name":"Sainsbury's Hertford McMullen Brewery","brand":"Sainsbury's","brand:wikidata":"Q152096","brand:wikipedia":"en:Sainsbury's","building:levels":"1","building:material":"brick","opening_hours":"Mo-Sa 07:00-22:00; Su 10:30-16:30","phone":"+44 1992 901300","roof:colour":"grey"}}, "geometry":{"type":"MultiPolygon","coordinates":[[[[-0.08015,51.79953],[-0.08009,51.79951],[-0.0801,51.7995],[-0.07998,51.79946],[-0.08002,51.79941],[-0.08001,51.7994],[-0.07956,51.79922],[-0.0795,51.7992],[-0.07955,51.79915],[-0.07963,51.79907],[-0.07986,51.79885],[-0.07984,51.79884],[-0.07988,51.79881],[-0.0799,51.79878],[-0.07998,51.79871],[-0.08002,51.79867],[-0.08001,51.79866],[-0.08004,51.79863],[-0.08001,51.79862],[-0.08007,51.79857],[-0.08011,51.79856],[-0.08011,51.79856],[-0.08019,51.7986],[-0.08019,51.79859],[-0.0803,51.79863],[-0.08042,51.79869],[-0.08052,51.79873],[-0.08051,51.79873],[-0.08063,51.79878],[-0.08066,51.79889],[-0.08064,51.79891],[-0.08066,51.79891],[-0.08063,51.79913],[-0.08049,51.79913],[-0.08035,51.79926],[-0.08026,51.79936],[-0.08029,51.79938],[-0.08022,51.79946],[-0.08019,51.79946],[-0.08015,51.79949],[-0.08017,51.7995],[-0.08015,51.79953]]]]}},
{ "type":"Feature","properties":{"osm_way_id":"168294966","name":"Co-op Food","building":"commercial","shop":"supermarket","other":{"brand":"Co-op Food","brand:wikidata":"Q3277439","brand:wikipedia":"en:Co-op Food","operator":"The Co-operative Group","operator:wikidata":"Q117202","operator:wikipedia":"en:The Co-operative Group"}}, "geometry":{"type":"MultiPolygon","coordinates":[[[[-0.08175,51.80437],[-0.08178,51.80425],[-0.08219,51.8043],[-0.08216,51.80442],[-0.08175,51.80437]]]]}},
{ "type":"Feature","properties":{"osm_way_id":"198585555","name":"Tesco","building":"yes","shop":"supermarket","other":{"alt_name":"Tesco Ware Superstore","brand":"Tesco","brand:wikidata":"Q487494","brand:wikipedia":"en:Tesco","designation":"3362","operator":"Tesco Stores Ltd","phone":"+44 345 6779699","wheelchair":"yes"}}, "geometry":{"type":"MultiPolygon","coordinates":[[[[-0.03138,51.81181],[-0.03143,51.8117],[-0.03131,51.81168],[-0.03119,51.81166],[-0.03115,51.81158],[-0.0312,51.81143],[-0.03114,51.81142],[-0.03119,51.81131],[-0.0314,51.81134],[-0.03143,51.81126],[-0.03161,51.81129],[-0.03167,51.81118],[-0.03196,51.81129],[-0.0319,51.81136],[-0.03172,51.81184],[-0.03153,51.81182],[-0.03152,51.81183],[-0.03138,51.81181]]]]}},
{ "type":"Feature","properties":{"osm_way_id":"198586053","name":"Waitrose","building":"yes","shop":"supermarket","other":{"addr:city":"Bishop's Stortford","addr:postcode":"CM23 2BA","addr:street":"Northgate End","addr:town":"Bishop's Stortford","brand":"Waitrose","brand:wikidata":"Q771734","brand:wikipedia":"en:Waitrose","designation":"101","official_name":"Waitrose & Partners","opening_hours":"Mo-Th, Sa 08:00-20:00; Fr 08:00-21:00; Su 10:00-16:00","operator":"Waitrose","phone":"+44 1279 466556","website":"https:\/\/www.waitrose.com\/bishopsstortford","wheelchair":"yes"}}, "geometry":{"type":"MultiPolygon","coordinates":[[[[0.15937,51.87311],[0.15944,51.87311],[0.15945,51.87315],[0.15953,51.87315],[0.15961,51.87315],[0.15961,51.87318],[0.1603,51.87315],[0.16029,51.87288],[0.16018,51.87283],[0.15985,51.87284],[0.15984,51.87279],[0.15974,51.87279],[0.15974,51.87285],[0.15949,51.87285],[0.15949,51.87293],[0.15935,51.87293],[0.15937,51.87311]]]]}},
{ "type":"Feature","properties":{"osm_way_id":"240044386","name":"M&S Foodhall","building":"yes","shop":"supermarket","other":{"addr:county":"Hertfordshire","addr:housenumber":"140-144","addr:postcode":"SG14 1AJ","addr:street":"Fore Street","addr:town":"Hertford","alt_name":"M&S Hertford Simply Food","brand":"M&S Simply Food","brand:wikidata":"Q714491","brand:wikipedia":"en:Marks & Spencer","building:levels":"2","building:material":"brick","old_name":"M&S Simply Food","phone":"+44 1992 535515","roof:colour":"grey","website":"https:\/\/www.marksandspencer.com\/stores\/hertford-simply-food-6965"}}, "geometry":{"type":"MultiPolygon","coordinates":[[[[-0.07445,51.79686],[-0.0742,51.79692],[-0.07393,51.79656],[-0.07407,51.79652],[-0.07406,51.79652],[-0.07418,51.79648],[-0.07424,51.79656],[-0.07445,51.79686]]]]}},
{ "type":"Feature","properties":{"osm_way_id":"470198959","name":"ALDI","building":"commercial","shop":"supermarket","other":{"addr:city":"Bishop's Stortford","addr:country":"GB","addr:housenumber":"34","addr:postcode":"CM23 5NF","addr:street":"London Road","brand":"ALDI","brand:wikidata":"Q41171672","brand:wikipedia":"en:Aldi","opening_hours":"Mo-Sa 08:00-22:00; Su 10:00-16:00","self_checkout":"yes"}}, "geometry":{"type":"MultiPolygon","coordinates":[[[[0.16555,51.8676],[0.16592,51.86761],[0.16594,51.8673],[0.16597,51.8673],[0.16598,51.86709],[0.16569,51.86709],[0.16568,51.86711],[0.16558,51.86711],[0.16557,51.86734],[0.16549,51.86734],[0.16548,51.8675],[0.16532,51.8675],[0.16532,51.86748],[0.16499,51.86747],[0.16499,51.86761],[0.16532,51.86762],[0.16532,51.86759],[0.16554,51.86759],[0.16555,51.8676]]]]}},
{ "type":"Feature","properties":{"osm_way_id":"765426589","name":"Budgens","building":"yes","shop":"supermarket","other":{"brand":"Budgens","brand:wikidata":"Q4985016","brand:wikipedia":"en:Budgens"}}, "geometry":{"type":"MultiPolygon","coordinates":[[[[0.14849,51.81356],[0.14839,51.81338],[0.14836,51.81338],[0.14835,51.81336],[0.1483,51.81337],[0.14824,51.81338],[0.14789,51.81344],[0.14788,51.81342],[0.14778,51.81344],[0.1478,51.81348],[0.14777,51.81349],[0.14779,51.81355],[0.14793,51.81352],[0.14799,51.81365],[0.14849,51.81356]]]]}},
{ "type":"Feature","properties":{"osm_way_id":"802156827","name":"Sainsbury's","building":"yes","shop":"supermarket","other":{"addr:housename":"Thorley Neighbourhood Centre","addr:housenumber":"1","addr:postcode":"CM23 4EG","alt_name":"Sainsbury's Thorley Superstore","brand":"Sainsbury's","brand:wikidata":"Q152096","brand:wikipedia":"en:Sainsbury's"}}, "geometry":{"type":"MultiPolygon","coordinates":[[[[0.14423,51.85846],[0.14407,51.85846],[0.14376,51.85847],[0.14349,51.85848],[0.14348,51.85833],[0.14325,51.85834],[0.14323,51.85794],[0.1442,51.85792],[0.14422,51.85821],[0.14423,51.85846]]]]}}
]
}
