{
"type": "FeatureCollection",
"features": [
{ "type":"Feature","properties":{"osm_id":"5628221927","name":"Heron Foods","other":{"addr:city":"Wigan","addr:country":"GB","addr:place":"The Galleries","addr:postcode":"WN1 1AW","brand":"Heron Foods","brand:wikidata":"Q5743472","brand:wikipedia":"en:Heron Foods","contact:website":"https:\/\/heronfoods.com\/storelocator\/store-details\/wigan","fhrs:id":"50985","level":"0","shop":"supermarket"}}, "geometry":{"type":"Point","coordinates":[-2.63309,53.5483 ]}},
{ "type":"Feature","properties":{"osm_id":"7093465955","name":"The Food Warehouse","other":{"addr:city":"Wigan","addr:parentstreet":"Worthington Way","addr:postcode":"WN3 6XA","addr:street":"Marus Bridge Retail Park","brand":"The Food Warehouse","brand:wikidata":"Q87263899","fhrs:id":"1130472","shop":"supermarket","source:addr":"FHRS Open Data","website":"https:\/\/www.thefoodwarehouse.com\/store-locator\/wigan"}}, "geometry":{"type":"Point","coordinates":[-2.65435,53.52133 ]}},
{ "type":"Feature","properties":{"osm_id":"7448912716","name":"Asda","other":{"addr:city":"Hindley","addr:country":"GB","addr:postcode":"WN2 2QA","addr:street":"Ladies Lane","brand":"Asda","brand:wikidata":"Q297410","brand:wikipedia":"en:Asda","contact:website":"https:\/\/storelocator.asda.com\/north-west\/hindley\/ladies-lane","fhrs:id":"99348","operator":"Asda Stores Ltd","shop":"supermarket"}}, "geometry":{"type":"Point","coordinates":[-2.57706,53.53764 ]}},
{ "type":"Feature","properties":{"osm_id":"7449290084","name":"Asda","other":{"addr:city":"Manchester","addr:country":"GB","addr:postcode":"M46 9JZ","addr:street":"Bolton Road","brand":"Asda","brand:wikidata":"Q297410","brand:wikipedia":"en:Asda","contact:website":"https:\/\/storelocator.asda.com\/north-west\/manchester\/bolton-road-atherton","fhrs:id":"722634","operator":"Asda Stores Ltd","shop":"supermarket"}}, "geometry":{"type":"Point","coordinates":[-2.48514,53.52595 ]}},
{ "type":"Feature","properties":{"osm_id":"7761183516","name":"The Food Warehouse","other":{"brand":"The Food Warehouse","brand:wikidata":"Q87263899","shop":"supermarket"}}, "geometry":{"type":"Point","coordinates":[-2.63587,53.48623 ]}},
{ "type":"Feature","properties":{"osm_id":"7761183517","name":"Quality Save","other":{"shop":"supermarket"}}, "geometry":{"type":"Point","coordinates":[-2.6362,53.48633 ]}},
{ "type":"Feature","properties":{"osm_id":"7947497572","name":"Aldi","other":{"brand":"ALDI","brand:wikidata":"Q41171672","brand:wikipedia":"en:Aldi","shop":"supermarket"}}, "geometry":{"type":"Point","coordinates":[-2.6648,53.58657 ]}},
{ "type":"Feature","properties":{"osm_id":"8461464988","name":"Lidl","other":{"addr:country":"GB","addr:postcode":"M29 8PR","addr:street":"Mosley Common Road","brand":"Lidl","brand:wikidata":"Q151954","brand:wikipedia":"en:Lidl","fhrs:id":"1333776","shop":"supermarket"}}, "geometry":{"type":"Point","coordinates":[-2.43203,53.51123 ]}},
{ "type":"Feature","properties":{"osm_id":"9126058061","name":"Spa","other":{"shop":"supermarket"}}, "geometry":{"type":"Point","coordinates":[-2.54462,53.49757 ]}},
{ "type":"Feature","properties":{"osm_id":"9136056323","name":"Co-op Food","other":{"brand":"Co-op Food","brand:wikidata":"Q3277439","brand:wikipedia":"en:Co-op Food","operator":"The Co-operative Group","operator:wikidata":"Q117202","operator:wikipedia":"en:The Co-operative Group","shop":"supermarket"}}, "geometry":{"type":"Point","coordinates":[-2.58093,53.47428 ]}},
{ "type":"Feature","properties":{"osm_id":"9227338190","name":"Spar","other":{"brand":"Spar","brand:wikidata":"Q610492","brand:wikipedia":"en:SPAR (retailer)","shop":"supermarket"}}, "geometry":{"type":"Point","coordinates":[-2.56452,53.53382 ]}},
{ "type":"Feature","properties":{"osm_id":"9514126691","name":"M&S Foodhall","other":{"brand":"M&S Foodhall","brand:wikidata":"Q714491","brand:wikipedia":"en:Marks & Spencer","shop":"supermarket"}}, "geometry":{"type":"Point","coordinates":[-2.65501,53.54463 ]}},
{ "type":"Feature","properties":{"osm_way_id":"32337126","name":"Lidl","building":"yes","shop":"supermarket","other":{"brand":"Lidl","brand:wikidata":"Q151954","brand:wikipedia":"en:Lidl"}}, "geometry":{"type":"MultiPolygon","coordinates":[[[[-2.59841,53.47232],[-2.59732,53.4721],[-2.59717,53.47234],[-2.5974,53.47238],[-2.59739,53.47242],[-2.59823,53.4726],[-2.59841,53.47232]]]]}},
{ "type":"Feature","properties":{"osm_way_id":"32466162","name":"Asda","building":"yes","shop":"supermarket","other":{"addr:city":"Warrington","addr:country":"GB","addr:postcode":"WA3 3RW","addr:street":"Edge Green Lane","brand":"Asda","brand:wikidata":"Q297410","brand:wikipedia":"en:Asda","contact:website":"https:\/\/storelocator.asda.com\/north-west\/warrington\/edge-green-lane","fhrs:id":"53431","operator":"Asda Stores Ltd","wheelchair":"yes"}}, "geometry":{"type":"MultiPolygon","coordinates":[[[[-2.60591,53.48105],[-2.60558,53.48087],[-2.60566,53.48083],[-2.60498,53.4805],[-2.60453,53.48082],[-2.60462,53.48086],[-2.6044,53.48101],[-2.60424,53.48115],[-2.60435,53.48125],[-2.60464,53.48139],[-2.60492,53.48152],[-2.60509,53.48152],[-2.60525,53.48142],[-2.60543,53.4813],[-2.6055,53.48133],[-2.60591,53.48105]]]]}},
{ "type":"Feature","properties":{"osm_way_id":"34695888","name":"Asda","building":"yes","shop":"supermarket","other":{"addr:city":"Wigan","addr:country":"GB","addr:postcode":"WN3 6XA","addr:street":"Worthington Way","brand":"Asda","brand:wikidata":"Q297410","brand:wikipedia":"en:Asda","contact:website":"https:\/\/storelocator.asda.com\/north-west\/wigan\/wheatlea-industrial-estate","fhrs:id":"254881","operator":"Asda Stores Ltd"}}, "geometry":{"type":"MultiPolygon","coordinates":[[[[-2.65358,53.51872],[-2.65301,53.51874],[-2.65304,53.51906],[-2.65314,53.51906],[-2.65314,53.51903],[-2.65334,53.51903],[-2.65361,53.51901],[-2.65358,53.51872]]]]}},
{ "type":"Feature","properties":{"osm_way_id":"34695921","name":"Sainsbury's","building":"yes","shop":"supermarket","other":{"addr:city":"Wigan","addr:parentstreet":"Worthington Way","addr:postcode":"WN3 6XA","addr:street":"Marus Bridge Retail Park","brand":"Sainsbury's","brand:wikidata":"Q152096","brand:wikipedia":"en:Sainsbury's","fhrs:id":"55429","source:addr":"FHRS Open Data"}}, "geometry":{"type":"MultiPolygon","coordinates":[[[[-2.65608,53.52038],[-2.65558,53.51992],[-2.6553,53.52003],[-2.65514,53.51989],[-2.65412,53.52028],[-2.65477,53.52088],[-2.65608,53.52038]]]]}},
{ "type":"Feature","properties":{"osm_way_id":"38356174","name":"Tesco Extra","building":"yes","shop":"supermarket","other":{"addr:postcode":"WN2 3AT","addr:street":"Cross Street","brand":"Tesco Extra","brand:wikidata":"Q25172225","brand:wikipedia":"en:Tesco Extra","fhrs:id":"53632","operator":"Tesco plc","source:addr":"FHRS Open Data","source:name":"FHRS Open Data"}}, "geometry":{"type":"MultiPolygon","coordinates":[[[[-2.57987,53.53626],[-2.57991,53.53627],[-2.57999,53.53612],[-2.57881,53.53585],[-2.57877,53.5359],[-2.57882,53.5359],[-2.57855,53.53634],[-2.57845,53.53649],[-2.57865,53.53654],[-2.57868,53.53653],[-2.57956,53.53674],[-2.57979,53.53638],[-2.57987,53.53626]]]]}},
{ "type":"Feature","properties":{"osm_way_id":"38416987","name":"Tesco Extra","building":"yes","shop":"supermarket","other":{"brand":"Tesco Extra","brand:wikidata":"Q25172225","brand:wikipedia":"en:Tesco Extra"}}, "geometry":{"type":"MultiPolygon","coordinates":[[[[-2.62583,53.55202],[-2.62573,53.55201],[-2.62575,53.55193],[-2.62566,53.55192],[-2.62567,53.55188],[-2.62551,53.55185],[-2.62554,53.55176],[-2.62528,53.55173],[-2.62524,53.55181],[-2.62497,53.55178],[-2.62499,53.55173],[-2.62492,53.55167],[-2.62473,53.55165],[-2.62474,53.55162],[-2.62468,53.55161],[-2.62468,53.55159],[-2.6246,53.55157],[-2.62446,53.55142],[-2.62456,53.55119],[-2.62438,53.55116],[-2.62449,53.55088],[-2.62478,53.55092],[-2.62527,53.55098],[-2.62538,53.55099],[-2.62537,53.55103],[-2.62616,53.55112],[-2.62583,53.55202]]]]}},
{ "type":"Feature","properties":{"osm_way_id":"55037504","name":"Asda","building":"yes","shop":"supermarket","other":{"addr:city":"Leigh","addr:country":"GB","addr:postcode":"WN7 5RZ","addr:street":"Atherleigh Way","brand":"Asda","brand:wikidata":"Q297410","brand:wikipedia":"en:Asda","contact:website":"https:\/\/storelocator.asda.com\/north-west\/leigh\/atherleigh-way","fhrs:id":"671624","opening_hours":"00:00-24:00","operator":"Asda Stores Ltd"}}, "geometry":{"type":"MultiPolygon","coordinates":[[[[-2.52561,53.50322],[-2.52455,53.50323],[-2.52455,53.50342],[-2.52456,53.50359],[-2.52442,53.50359],[-2.52433,53.50359],[-2.52433,53.50375],[-2.52442,53.50375],[-2.52443,53.50389],[-2.52456,53.50389],[-2.52457,53.50436],[-2.52566,53.50435],[-2.52566,53.50433],[-2.52564,53.5034],[-2.52588,53.5034],[-2.52588,53.50317],[-2.52561,53.50317],[-2.52561,53.50322]]]]}},
{ "type":"Feature","properties":{"osm_way_id":"55600447","name":"Asda","building":"retail","shop":"supermarket","other":{"addr:city":"Wigan","addr:country":"GB","addr:postcode":"WN5 0XA","addr:street":"Soho Street","brand":"Asda","brand:wikidata":"Q297410","brand:wikipedia":"en:Asda","contact:website":"https:\/\/storelocator.asda.com\/north-west\/wigan\/soho-street-robin-park","fhrs:id":"55230","operator":"Asda Stores Ltd"}}, "geometry":{"type":"MultiPolygon","coordinates":[[[[-2.65199,53.54255],[-2.6524,53.54298],[-2.65165,53.54323],[-2.6518,53.54339],[-2.65133,53.54355],[-2.65125,53.54362],[-2.65118,53.54359],[-2.65106,53.54364],[-2.65101,53.54372],[-2.65092,53.54367],[-2.65078,53.54371],[-2.65085,53.54376],[-2.65072,53.54389],[-2.65052,53.54395],[-2.65044,53.54385],[-2.65018,53.54393],[-2.64962,53.54332],[-2.64997,53.54321],[-2.64995,53.54318],[-2.64986,53.54309],[-2.65099,53.5427],[-2.6511,53.54284],[-2.65154,53.54269],[-2.65148,53.54261],[-2.65156,53.54259],[-2.65151,53.54254],[-2.65169,53.54249],[-2.65171,53.54252],[-2.65174,53.54254],[-2.65179,53.54252],[-2.65185,53.5426],[-2.65199,53.54255]]]]}},
{ "type":"Feature","properties":{"osm_way_id":"136012358","name":"Co-operative","building":"yes","shop":"supermarket"},"geometry":{"type":"MultiPolygon","coordinates":[[[[-2.66349,53.5871],[-2.66341,53.58691],[-2.66313,53.58695],[-2.66318,53.58707],[-2.66314,53.58707],[-2.6632,53.58727],[-2.6634,53.58724],[-2.66339,53.5872],[-2.66341,53.5872],[-2.6634,53.58717],[-2.66344,53.58716],[-2.66349,53.5871]]]]}},
{ "type":"Feature","properties":{"osm_way_id":"141496306","name":"Tesco","building":"yes","shop":"supermarket","other":{"brand":"Tesco","brand:wikidata":"Q487494","brand:wikipedia":"en:Tesco","wheelchair":"yes"}}, "geometry":{"type":"MultiPolygon","coordinates":[[[[-2.49004,53.52226],[-2.4891,53.52222],[-2.48905,53.52273],[-2.48929,53.52274],[-2.48928,53.5229],[-2.48979,53.52292],[-2.48982,53.52251],[-2.49002,53.52252],[-2.49003,53.52236],[-2.49004,53.52226]]]]}},
{ "type":"Feature","properties":{"osm_way_id":"186654220","name":"Tesco Extra","building":"yes","shop":"supermarket","other":{"addr:city":"LEIGH","addr:postcode":"WN7 4BA","addr:street":"Derby Street","brand":"Tesco Extra","brand:wikidata":"Q25172225","brand:wikipedia":"en:Tesco Extra","website":"https:\/\/www.tesco.com\/store-locator\/leigh\/the-loom"}}, "geometry":{"type":"MultiPolygon","coordinates":[[[[-2.51647,53.49475],[-2.51573,53.49465],[-2.51545,53.49462],[-2.51514,53.49458],[-2.51554,53.4936],[-2.51619,53.49369],[-2.51631,53.4934],[-2.51669,53.49345],[-2.51666,53.49352],[-2.51641,53.49348],[-2.51637,53.49363],[-2.51681,53.49369],[-2.51686,53.49374],[-2.51683,53.4938],[-2.51647,53.49475]]]]}},
{ "type":"Feature","properties":{"osm_way_id":"186655057","name":"ALDI","building":"yes","shop":"supermarket","other":{"addr:city":"Leigh","addr:country":"GB","addr:housenumber":"70","addr:postcode":"WN7 4LJ","addr:street":"King Street","brand":"ALDI","brand:wikidata":"Q41171672","brand:wikipedia":"en:Aldi","contact:website":"https:\/\/www.aldi.co.uk\/store\/s-uk-E0656","fhrs:id":"98514"}}, "geometry":{"type":"MultiPolygon","coordinates":[[[[-2.52064,53.49448],[-2.52051,53.49445],[-2.52016,53.49439],[-2.52041,53.4939],[-2.52088,53.49399],[-2.52094,53.49408],[-2.5209,53.49415],[-2.52082,53.49414],[-2.52074,53.4943],[-2.52064,53.49448]]]]}},
{ "type":"Feature","properties":{"osm_way_id":"278353261","name":"Lidl","building":"yes","shop":"supermarket","other":{"addr:country":"GB","addr:postcode":"WN1 1DL","addr:street":"Darlington Street","brand":"Lidl","brand:wikidata":"Q151954","brand:wikipedia":"en:Lidl","fhrs:id":"1200628"}}, "geometry":{"type":"MultiPolygon","coordinates":[[[[-2.62562,53.54349],[-2.62542,53.54296],[-2.62498,53.54302],[-2.62504,53.54318],[-2.62511,53.54317],[-2.62522,53.54346],[-2.62542,53.54344],[-2.62544,53.54351],[-2.62562,53.54349]]]]}},
{ "type":"Feature","properties":{"osm_way_id":"284797542","name":"Aldi","building":"yes","shop":"supermarket","other":{"addr:city":"Wigan","addr:housenumber":"5","addr:postcode":"WN4 9DA","addr:street":"Princess Road","addr:suburb":"Ashton-in-Makerfield","brand":"ALDI","brand:wikidata":"Q41171672","brand:wikipedia":"en:Aldi","fhrs:id":"98027"}}, "geometry":{"type":"MultiPolygon","coordinates":[[[[-2.63586,53.48766],[-2.63529,53.48797],[-2.63516,53.48789],[-2.6351,53.48792],[-2.63493,53.48782],[-2.63559,53.48747],[-2.63568,53.48753],[-2.63586,53.48766]]]]}},
{ "type":"Feature","properties":{"osm_way_id":"339725045","name":"McColl's","building":"yes","shop":"supermarket","other":{"addr:city":"Ashton-in-Makerfield","addr:housenumber":"308-338","addr:postcode":"WN4 0BS","addr:street":"Wigan Road","phone":"+44 1942 723186"}}, "geometry":{"type":"MultiPolygon","coordinates":[[[[-2.64862,53.50302],[-2.64841,53.50286],[-2.64892,53.50261],[-2.64897,53.50265],[-2.64896,53.50265],[-2.64906,53.50273],[-2.64908,53.50272],[-2.64914,53.50276],[-2.64862,53.50302]]]]}},
{ "type":"Feature","properties":{"osm_way_id":"479074648","name":"Heron Foods","building":"yes","shop":"supermarket","other":{"addr:city":"Manchester","addr:country":"GB","addr:postcode":"M29 8FF","addr:street":"Elliott Street","brand":"Heron Foods","brand:wikidata":"Q5743472","brand:wikipedia":"en:Heron Foods","contact:website":"https:\/\/heronfoods.com\/storelocator\/store-details\/tyldesley","fhrs:id":"964247"}}, "geometry":{"type":"MultiPolygon","coordinates":[[[[-2.46766,53.51449],[-2.46767,53.51423],[-2.46732,53.51422],[-2.4673,53.51448],[-2.46766,53.51449]]]]}},
{ "type":"Feature","properties":{"osm_way_id":"479074649","name":"ALDI","building":"yes","shop":"supermarket","other":{"brand":"ALDI","brand:wikidata":"Q41171672","brand:wikipedia":"en:Aldi"}}, "geometry":{"type":"MultiPolygon","coordinates":[[[[-2.47092,53.5144],[-2.47047,53.51442],[-2.47051,53.51466],[-2.47043,53.51467],[-2.47047,53.5149],[-2.47072,53.51488],[-2.4707,53.51476],[-2.47092,53.51475],[-2.47089,53.51453],[-2.47094,53.51453],[-2.47092,53.5144]]]]}},
{ "type":"Feature","properties":{"osm_way_id":"479076387","name":"Iceland","building":"yes","shop":"supermarket","other":{"brand":"Iceland","brand:wikidata":"Q721810","brand:wikipedia":"en:Iceland (supermarket)"}}, "geometry":{"type":"MultiPolygon","coordinates":[[[[-2.47772,53.51628],[-2.4778,53.51574],[-2.47764,53.51573],[-2.47763,53.51578],[-2.47735,53.51576],[-2.47731,53.51608],[-2.4773,53.51609],[-2.47725,53.51608],[-2.47723,53.51626],[-2.47772,53.51628]]]]}},
{ "type":"Feature","properties":{"osm_way_id":"479547564","name":"Morrisons","building":"yes","shop":"supermarket","other":{"brand":"Morrisons","brand:wikidata":"Q922344","brand:wikipedia":"en:Morrisons"}}, "geometry":{"type":"MultiPolygon","coordinates":[[[[-2.59049,53.5429],[-2.58957,53.54332],[-2.59031,53.5439],[-2.59116,53.54351],[-2.59121,53.54355],[-2.59151,53.54341],[-2.59129,53.54324],[-2.5912,53.54328],[-2.59078,53.54295],[-2.59064,53.54302],[-2.59049,53.5429]]]]}},
{ "type":"Feature","properties":{"osm_way_id":"485003121","name":"Co-op Food","building":"yes","shop":"supermarket","other":{"brand":"Co-op Food","brand:wikidata":"Q3277439","brand:wikipedia":"en:Co-op Food","operator":"The Co-operative Group","operator:wikidata":"Q117202","operator:wikipedia":"en:The Co-operative Group"}}, "geometry":{"type":"MultiPolygon","coordinates":[[[[-2.71154,53.53221],[-2.71142,53.53213],[-2.71107,53.53233],[-2.71118,53.5324],[-2.71154,53.53221]]]]}},
{ "type":"Feature","properties":{"osm_way_id":"486114959","name":"Sainsbury's","building":"yes","shop":"supermarket","other":{"brand":"Sainsbury's","brand:wikidata":"Q152096","brand:wikipedia":"en:Sainsbury's"}}, "geometry":{"type":"MultiPolygon","coordinates":[[[[-2.52686,53.50113],[-2.52621,53.50096],[-2.52609,53.50112],[-2.52589,53.50107],[-2.5259,53.50105],[-2.52574,53.50102],[-2.52551,53.50077],[-2.52597,53.50011],[-2.52784,53.50059],[-2.52748,53.50109],[-2.52698,53.50096],[-2.52686,53.50113]]]]}},
{ "type":"Feature","properties":{"osm_way_id":"544837223","name":"Morrisons","building":"yes","shop":"supermarket","other":{"addr:postcode":"WN7 4JY","addr:street":"Sale Way","brand":"Morrisons","brand:wikidata":"Q922344","brand:wikipedia":"en:Morrisons","website":"https:\/\/my.morrisons.com\/storefinder\/508","wheelchair":"yes"}}, "geometry":{"type":"MultiPolygon","coordinates":[[[[-2.53286,53.4901],[-2.53192,53.4899],[-2.53239,53.48912],[-2.53287,53.48921],[-2.53273,53.48944],[-2.53319,53.48955],[-2.53286,53.4901]]]]}},
{ "type":"Feature","properties":{"osm_way_id":"554825686","name":"Lidl","building":"yes","shop":"supermarket","other":{"addr:country":"GB","addr:housenumber":"2","addr:postcode":"WN7 4PF","addr:street":"Derby Street","brand":"Lidl","brand:wikidata":"Q151954","brand:wikipedia":"en:Lidl","fhrs:id":"1200627"}}, "geometry":{"type":"MultiPolygon","coordinates":[[[[-2.5126,53.49496],[-2.51256,53.49479],[-2.51252,53.49479],[-2.51246,53.49453],[-2.51222,53.49455],[-2.51221,53.49449],[-2.51209,53.4945],[-2.5122,53.49499],[-2.5126,53.49496]]]]}},
{ "type":"Feature","properties":{"osm_way_id":"564502922","name":"Lidl","building":"yes","shop":"supermarket","other":{"addr:city":"Wigan","addr:country":"GB","addr:housenumber":"2","addr:postcode":"WN5 8BQ","addr:street":"Chatsworth Street","addr:suburb":"Pemberton","brand":"Lidl","brand:wikidata":"Q151954","brand:wikipedia":"en:Lidl","fhrs:id":"98916"}}, "geometry":{"type":"MultiPolygon","coordinates":[[[[-2.67643,53.53445],[-2.67618,53.53424],[-2.67548,53.53454],[-2.67574,53.53475],[-2.67643,53.53445]]]]}},
{ "type":"Feature","properties":{"osm_way_id":"564922030","name":"ALDI","building":"retail","shop":"supermarket","other":{"addr:city":"Newtown","addr:country":"GB","addr:postcode":"WN5 0TQ","addr:street":"Scot Lane","brand":"ALDI","brand:wikidata":"Q41171672","brand:wikipedia":"en:Aldi","fhrs:id":"433418"}}, "geometry":{"type":"MultiPolygon","coordinates":[[[[-2.6529,53.54058],[-2.65267,53.54035],[-2.65251,53.5404],[-2.65184,53.54063],[-2.65195,53.54074],[-2.65207,53.54087],[-2.6529,53.54058]]]]}},
{ "type":"Feature","properties":{"osm_way_id":"771124068","name":"Co-op Food","building":"yes","shop":"supermarket","other":{"addr:city":"Aspull","addr:housenumber":"134","addr:postcode":"WN2 1XH","addr:street":"Haigh Road","brand":"Co-op Food","brand:wikidata":"Q3277439","brand:wikipedia":"en:Co-op Food"}}, "geometry":{"type":"MultiPolygon","coordinates":[[[[-2.58613,53.56971],[-2.5862,53.56969],[-2.58631,53.56966],[-2.58616,53.56948],[-2.58598,53.56954],[-2.58586,53.56957],[-2.58591,53.56963],[-2.58603,53.5696],[-2.58613,53.56971]]]]}},
{ "type":"Feature","properties":{"osm_way_id":"796480853","name":"Asda","building":"yes","shop":"supermarket","other":{"brand":"Asda","brand:wikidata":"Q297410","brand:wikipedia":"en:Asda"}}, "geometry":{"type":"MultiPolygon","coordinates":[[[[-2.5197,53.49893],[-2.51976,53.49853],[-2.51942,53.49851],[-2.51936,53.49891],[-2.5197,53.49893]]]]}},
{ "type":"Feature","properties":{"osm_way_id":"831201796","name":"golocalextra","building":"yes","shop":"supermarket"},"geometry":{"type":"MultiPolygon","coordinates":[[[[-2.70343,53.53976],[-2.70328,53.53974],[-2.70335,53.5396],[-2.70349,53.53963],[-2.70343,53.53976]]]]}},
{ "type":"Feature","properties":{"osm_way_id":"852006026","name":"ALDI","building":"yes","shop":"supermarket","other":{"addr:city":"Wigan","addr:housenumber":"641","addr:postcode":"WN2 4SJ","addr:street":"Atherton Road","addr:suburb":"Hindley Green","brand":"ALDI","brand:wikidata":"Q41171672","brand:wikipedia":"en:Aldi","opening_hours":"Mo-Sa 08:00-22:00; Su 10:00-16:00","website":"https:\/\/www.aldi.co.uk\/store\/s-uk-E0779"}}, "geometry":{"type":"MultiPolygon","coordinates":[[[[-2.55265,53.52585],[-2.55252,53.52573],[-2.553,53.52555],[-2.55297,53.52552],[-2.55324,53.52542],[-2.55348,53.52564],[-2.55266,53.52596],[-2.55258,53.52588],[-2.55265,53.52585]]]]}},
{ "type":"Feature","properties":{"osm_way_id":"853038420","name":"Lidl","building":"supermarket","shop":"supermarket","other":{"addr:city":"Wigan","addr:country":"GB","addr:housenumber":"91","addr:postcode":"WN6 0JF","addr:street":"Preston Road","addr:village":"Standish","brand":"Lidl","brand:wikidata":"Q151954","brand:wikipedia":"en:Lidl","fhrs:id":"816090","opening_hours":"Mo-Sa 08:00-22:00; Su 10:00-16:00"}}, "geometry":{"type":"MultiPolygon","coordinates":[[[[-2.66686,53.58892],[-2.66653,53.58867],[-2.66685,53.58852],[-2.66737,53.58893],[-2.66705,53.58907],[-2.66694,53.58898],[-2.66685,53.58902],[-2.66677,53.58896],[-2.66686,53.58892]]]]}},
{ "type":"Feature","properties":{"osm_way_id":"896173336","name":"Spar","building":"yes","shop":"supermarket","other":{"addr:city":"Aspull","addr:housenumber":"3","addr:postcode":"WN2 1YX","addr:street":"Scot Lane","brand":"Spar","brand:wikidata":"Q610492","brand:wikipedia":"en:Spar (retailer)"}}, "geometry":{"type":"MultiPolygon","coordinates":[[[[-2.58451,53.56918],[-2.58452,53.56908],[-2.58452,53.56907],[-2.58438,53.56907],[-2.58437,53.5691],[-2.58441,53.56911],[-2.58441,53.56916],[-2.5845,53.56918],[-2.58451,53.56918]]]]}},
{ "type":"Feature","properties":{"osm_way_id":"957545922","name":"ALDI","building":"yes","shop":"supermarket","other":{"brand":"ALDI","brand:wikidata":"Q41171672","brand:wikipedia":"en:Aldi"}}, "geometry":{"type":"MultiPolygon","coordinates":[[[[-2.52491,53.50218],[-2.52476,53.50214],[-2.52469,53.50221],[-2.52454,53.50218],[-2.5245,53.50206],[-2.52485,53.50159],[-2.52526,53.50172],[-2.52515,53.50187],[-2.52491,53.50218]]]]}},
{ "type":"Feature","properties":{"osm_way_id":"988401568","name":"Go Local","building":"yes","shop":"supermarket"},"geometry":{"type":"MultiPolygon","coordinates":[[[[-2.57137,53.46964],[-2.57129,53.46954],[-2.57144,53.4695],[-2.57152,53.4696],[-2.57137,53.46964]]]]}},
{ "type":"Feature","properties":{"osm_way_id":"993232401","name":"Thai Food Market","building":"yes","shop":"supermarket"},"geometry":{"type":"MultiPolygon","coordinates":[[[[-2.64827,53.50206],[-2.64822,53.50202],[-2.64805,53.50211],[-2.64807,53.50213],[-2.64815,53.50209],[-2.64817,53.5021],[-2.64827,53.50206]]]]}},
{ "type":"Feature","properties":{"osm_way_id":"1009383174","name":"Co-op Food","building":"yes","shop":"supermarket","other":{"brand":"Co-op Food","brand:wikidata":"Q3277439","brand:wikipedia":"en:Co-op Food","operator":"The Co-operative Group","operator:wikidata":"Q117202","operator:wikipedia":"en:The Co-operative Group"}}, "geometry":{"type":"MultiPolygon","coordinates":[[[[-2.59871,53.51823],[-2.5984,53.51835],[-2.59822,53.51818],[-2.59853,53.51806],[-2.59871,53.51823]]]]}},
{ "type":"Feature","properties":{"osm_way_id":"1020962744","name":"Londis","building":"yes","shop":"supermarket","other":{"brand":"Londis","brand:wikidata":"Q21008564","brand:wikipedia":"en:Londis (United Kingdom)"}}, "geometry":{"type":"MultiPolygon","coordinates":[[[[-2.42524,53.50629],[-2.42494,53.50634],[-2.4249,53.50628],[-2.42521,53.50623],[-2.42524,53.50629]]]]}},
{ "type":"Feature","properties":{"osm_way_id":"1043621256","name":"Co-op Food","building":"yes","shop":"supermarket","other":{"addr:postcode":"M29 7BQ","addr:street":"Manchester Road","brand":"Co-op Food","brand:wikidata":"Q3277439","brand:wikipedia":"en:Co-op Food","opening_hours":"05:00-22:00","operator":"The Co-operative Group","operator:wikidata":"Q117202","operator:wikipedia":"en:The Co-operative Group","phone":"+44 1942 894444","website":"https:\/\/www.coop.co.uk\/store-finder\/M29-7BQ\/manchester-road"}}, "geometry":{"type":"MultiPolygon","coordinates":[[[[-2.44729,53.5021],[-2.44747,53.50207],[-2.44755,53.50224],[-2.44737,53.50227],[-2.44729,53.5021]]]]}}
]
}
