{
"type": "FeatureCollection",
"features": [
{ "type":"Feature","properties":{"osm_id":"893964768","name":"Co-op Food","other":{"brand":"Co-op Food","brand:wikidata":"Q3277439","brand:wikipedia":"en:Co-op Food","shop":"supermarket"}}, "geometry":{"type":"Point","coordinates":[-1.71,52.64547 ]}},
{ "type":"Feature","properties":{"osm_id":"894147240","name":"Select & Save","other":{"shop":"supermarket"}}, "geometry":{"type":"Point","coordinates":[-1.70173,52.6435 ]}},
{ "type":"Feature","properties":{"osm_id":"901549646","name":"Lakeside News, Food and Wine","other":{"shop":"supermarket"}}, "geometry":{"type":"Point","coordinates":[-1.67195,52.62481 ]}},
{ "type":"Feature","properties":{"osm_id":"1801696421","name":"Lidl","other":{"addr:country":"GB","addr:postcode":"B79 7AG","addr:street":"Bolebridge Street","brand":"Lidl","brand:wikidata":"Q151954","brand:wikipedia":"en:Lidl","fhrs:id":"466469","shop":"supermarket"}}, "geometry":{"type":"Point","coordinates":[-1.68868,52.63215 ]}},
{ "type":"Feature","properties":{"osm_id":"2119262664","name":"Spar","other":{"brand":"Spar","brand:wikidata":"Q610492","brand:wikipedia":"en:SPAR (retailer)","shop":"supermarket"}}, "geometry":{"type":"Point","coordinates":[-1.66404,52.62216 ]}},
{ "type":"Feature","properties":{"osm_id":"3912305781","name":"Spar","other":{"addr:housenumber":"25","addr:postcode":"B77 4JA","addr:street":"Ellerbeck","brand":"Spar","brand:wikidata":"Q610492","brand:wikipedia":"en:SPAR (retailer)","contact:phone":"+44 1827 896655","opening_hours":"Mo 07:00-23:00, Tu 06:00-23:00, We-Sa 07:00-23:00, Su 07:00-22:30","shop":"supermarket"}}, "geometry":{"type":"Point","coordinates":[-1.64953,52.61756 ]}},
{ "type":"Feature","properties":{"osm_way_id":"111862637","name":"Morrisons","building":"yes","shop":"supermarket","other":{"addr:city":"Tamworth","addr:postcode":"B79 7NU","addr:street":"Upper Gungate","brand":"Morrisons","brand:wikidata":"Q922344","brand:wikipedia":"en:Morrisons","building:levels":"1","opening_hours":"Mo-Fr 08:00-20:00, Sa 07:00-20:00, Su 10:00-16:00","operator":"Morrisons","phone":"+44 1827 312620","website":"https:\/\/my.morrisons.com\/storefinder\/504"}}, "geometry":{"type":"MultiPolygon","coordinates":[[[[-1.69341,52.63739],[-1.69337,52.63722],[-1.69346,52.63721],[-1.69344,52.63712],[-1.69335,52.63713],[-1.69334,52.63708],[-1.69308,52.6371],[-1.69276,52.63712],[-1.69274,52.63713],[-1.69281,52.63744],[-1.69284,52.63744],[-1.69341,52.63739]]]]}},
{ "type":"Feature","properties":{"osm_way_id":"113684256","name":"Co-op Food","building":"yes","shop":"supermarket","other":{"addr:housenumber":"1-5","addr:postcode":"B79 7DH","addr:street":"Church Street","brand":"Co-op Food","brand:wikidata":"Q3277439","brand:wikipedia":"en:Co-op Food","building:levels":"2","opening_hours":"Mo-Fr 08:00-20:00, Sa 08:00-18:00, Su 10:00-16:00","operator":"The Co-operative Group","operator:wikidata":"Q117202","operator:wikipedia":"en:The Co-operative Group","phone":"+44 1827 63711","website":"https:\/\/www.co-operative.coop\/store\/food\/B79-7DH\/1-5-church-st"}}, "geometry":{"type":"MultiPolygon","coordinates":[[[[-1.69734,52.63397],[-1.69735,52.63398],[-1.69735,52.63399],[-1.69731,52.63412],[-1.69727,52.63428],[-1.69725,52.63435],[-1.6972,52.63434],[-1.69706,52.63433],[-1.69707,52.63429],[-1.69696,52.63427],[-1.69695,52.6343],[-1.69694,52.6343],[-1.69692,52.63437],[-1.69684,52.63436],[-1.69685,52.63431],[-1.69687,52.63423],[-1.69671,52.63421],[-1.69669,52.63421],[-1.6967,52.63412],[-1.69669,52.63412],[-1.69669,52.634],[-1.69671,52.634],[-1.69671,52.63395],[-1.6973,52.63396],[-1.69731,52.63396],[-1.69732,52.63396],[-1.69734,52.63397]]]]}},
{ "type":"Feature","properties":{"osm_way_id":"129531208","name":"Asda","building":"yes","shop":"supermarket","other":{"addr:city":"Tamworth","addr:country":"GB","addr:postcode":"B78 3HB","addr:street":"Ventura Park Road","brand":"Asda","brand:wikidata":"Q297410","brand:wikipedia":"en:Asda","contact:facebook":"https:\/\/www.facebook.com\/asda\/","contact:twitter":"@asda","contact:website":"https:\/\/storelocator.asda.com\/west-midlands\/tamworth\/ventura-road","fhrs:id":"390137","operator":"Asda Stores Ltd"}}, "geometry":{"type":"MultiPolygon","coordinates":[[[[-1.70083,52.62591],[-1.70085,52.62563],[-1.70077,52.62561],[-1.70071,52.62544],[-1.70058,52.62545],[-1.70054,52.62533],[-1.70059,52.62512],[-1.70089,52.62513],[-1.70091,52.62502],[-1.70195,52.62506],[-1.70194,52.62527],[-1.70212,52.62528],[-1.70207,52.62594],[-1.70188,52.62594],[-1.70187,52.6261],[-1.70102,52.62607],[-1.70104,52.62592],[-1.70083,52.62591]]]]}},
{ "type":"Feature","properties":{"osm_way_id":"129531210","name":"Sainsbury's","building":"yes","shop":"supermarket","other":{"brand":"Sainsbury's","brand:wikidata":"Q152096","brand:wikipedia":"en:Sainsbury's"}}, "geometry":{"type":"MultiPolygon","coordinates":[[[[-1.70583,52.62745],[-1.7063,52.6279],[-1.70669,52.62776],[-1.70721,52.62756],[-1.70712,52.62748],[-1.70733,52.62739],[-1.70728,52.62735],[-1.70675,52.62685],[-1.70656,52.62692],[-1.70649,52.62685],[-1.7064,52.62677],[-1.70549,52.62711],[-1.70583,52.62745]]]]}},
{ "type":"Feature","properties":{"osm_way_id":"135094938","name":"ALDI","building":"yes","shop":"supermarket","other":{"brand":"ALDI","brand:wikidata":"Q41171672","brand:wikipedia":"en:Aldi"}}, "geometry":{"type":"MultiPolygon","coordinates":[[[[-1.68802,52.63363],[-1.68751,52.63392],[-1.68724,52.63376],[-1.68765,52.63353],[-1.68762,52.6335],[-1.68784,52.63337],[-1.688,52.63348],[-1.68806,52.63352],[-1.68795,52.63358],[-1.68802,52.63363]]]]}},
{ "type":"Feature","properties":{"osm_way_id":"135098163","name":"Morrisons","building":"yes","shop":"supermarket","other":{"addr:city":"Tamworth","addr:postcode":"B77 2NY","addr:street":"Marlborough Way","brand":"Morrisons","brand:wikidata":"Q922344","brand:wikipedia":"en:Morrisons","opening_hours":"Mo-Sa 06:00-22:00; Su 10:00-16:00","phone":"+44 1827 284082","website":"https:\/\/my.morrisons.com\/storefinder\/73"}}, "geometry":{"type":"MultiPolygon","coordinates":[[[[-1.67514,52.61144],[-1.67428,52.6113],[-1.67424,52.61139],[-1.67388,52.61133],[-1.67398,52.61111],[-1.6741,52.61113],[-1.67428,52.61072],[-1.6745,52.61075],[-1.67455,52.61064],[-1.67466,52.61066],[-1.67467,52.61062],[-1.67463,52.61061],[-1.67472,52.61041],[-1.67516,52.61048],[-1.67511,52.61059],[-1.67534,52.61062],[-1.67527,52.61077],[-1.67543,52.61079],[-1.67514,52.61144]]]]}},
{ "type":"Feature","properties":{"osm_way_id":"239848845","name":"Co-op Food","building":"yes","shop":"supermarket","other":{"addr:housenumber":"148","addr:postcode":"B77 2AF","addr:street":"Glascote Road","brand":"Co-op Food","brand:wikidata":"Q3277439","brand:wikipedia":"en:Co-op Food","old_name":"The Anchor Inn","opening_hours":"Mo-Sa 07:00-23:00, Su 08:00-22:00","operator":"Tamworth Co-operative Society"}}, "geometry":{"type":"MultiPolygon","coordinates":[[[[-1.67958,52.62882],[-1.67951,52.6288],[-1.6795,52.62881],[-1.67939,52.62878],[-1.6794,52.62877],[-1.67934,52.62875],[-1.67942,52.62865],[-1.6795,52.62868],[-1.67953,52.62864],[-1.67968,52.62866],[-1.67966,52.62873],[-1.67958,52.62882]]]]}},
{ "type":"Feature","properties":{"osm_way_id":"357894263","name":"Co-op Food","building":"yes","shop":"supermarket","other":{"addr:housenumber":"107","addr:postcode":"B77 3LN","addr:street":"Amington Road","brand":"Co-op Food","brand:wikidata":"Q3277439","brand:wikipedia":"en:Co-op Food","contact:phone":"+44 1827 64529","contact:website":"http:\/\/www.co-operative.coop\/store\/food\/B77-3LN\/107-amington-rd","opening_hours":"Mo-Sa 07:30-22:00; Su 08:00-20:00","operator":"Tamworth Co-operative Society"}}, "geometry":{"type":"MultiPolygon","coordinates":[[[[-1.67731,52.63298],[-1.67735,52.6331],[-1.6773,52.63311],[-1.67708,52.63314],[-1.67704,52.63301],[-1.67731,52.63298]]]]}},
{ "type":"Feature","properties":{"osm_way_id":"387243320","name":"Spar","building":"retail","shop":"supermarket","other":{"addr:housenumber":"6","addr:postcode":"B77 2LA","addr:street":"Exley","brand":"Spar","brand:wikidata":"Q610492","brand:wikipedia":"en:SPAR (retailer)"}}, "geometry":{"type":"MultiPolygon","coordinates":[[[[-1.67966,52.61948],[-1.67972,52.61952],[-1.6797,52.61953],[-1.67978,52.61959],[-1.68018,52.6194],[-1.6802,52.61933],[-1.68024,52.61933],[-1.68028,52.6192],[-1.68006,52.61918],[-1.68005,52.6192],[-1.68003,52.61932],[-1.68005,52.61932],[-1.68004,52.61936],[-1.6798,52.61948],[-1.67975,52.61944],[-1.67966,52.61948]]]]}},
{ "type":"Feature","properties":{"osm_way_id":"786977206","name":"ALDI","building":"yes","shop":"supermarket","other":{"addr:city":"Tamworth","addr:postcode":"B77 2BS","addr:street":"Glascote Road","brand":"ALDI","brand:wikidata":"Q41171672","brand:wikipedia":"en:Aldi","opening_hours":"Mo-Sa 08:00-20:00, Su 10:00-16:00","self_checkout":"yes","website":"https:\/\/www.aldi.co.uk\/store\/s-uk-E0939"}}, "geometry":{"type":"MultiPolygon","coordinates":[[[[-1.66993,52.62721],[-1.66945,52.62709],[-1.66987,52.62652],[-1.67003,52.62657],[-1.66997,52.62665],[-1.67023,52.62672],[-1.67007,52.62694],[-1.67011,52.62696],[-1.66993,52.62721]]]]}},
{ "type":"Feature","properties":{"osm_way_id":"796568745","name":"The Co-operative Food - Brooklime Way","building":"yes","shop":"supermarket","other":{"addr:city":"Tamworth","addr:housenumber":"29","addr:postcode":"B79 0FD","addr:street":"Brooklime Way","opening_hours":"Mo-Fr 07:00-20:00, Sa 07:00-22:00, Su 07:00-20:00","phone":"+44 1827 213239","website":"https:\/\/stores.centralengland.coop\/the-co-operative-food-brooklime-way-tamworth-19102c93c7d4"}}, "geometry":{"type":"MultiPolygon","coordinates":[[[[-1.68334,52.64748],[-1.68353,52.6474],[-1.68329,52.6472],[-1.68315,52.64727],[-1.6831,52.64729],[-1.68334,52.64748]]]]}}
]
}
