{
"type": "FeatureCollection",
"features": [
{ "type":"Feature","properties":{"osm_id":"588646129","name":"Bayhead Shop","other":{"shop":"supermarket","phone":"+44 1876510257","fhrs:id":"806478","facebook":"https:\/\/www.facebook.com\/bayheadshop\/","addr:postcode":"HS6 5DS","opening_hours":"8:00-18:00"}}, "geometry":{"type":"Point","coordinates":[-7.44079,57.5878 ]}},
{ "type":"Feature","properties":{"osm_id":"5159901347","name":"Lovats Shop","other":{"shop":"supermarket","fhrs:id":"806463","website":"https:\/\/www.facebook.com\/lovatssupermarket\/","operator":"SPAR","addr:city":"Baile a' Mhanaich","addr:street":"Slighe Winfield","addr:postcode":"HS7 5LH","opening_hours":"Mo-Fr 08:00-21:00; Sa 09:00-21:00; Su 11:00-18:00","addr:housenumber":"1"}}, "geometry":{"type":"Point","coordinates":[-7.38795,57.47363 ]}},
{ "type":"Feature","properties":{"osm_way_id":"207376849","name":"Lovats Supermarket","building":"yes","shop":"supermarket","other":{"fhrs:id":"806503","facebook":"https:\/\/www.facebook.com\/lovatssupermarket\/","addr:postcode":"HS8 5RH","opening_hours":"Mo-Sa 08:00-18:00; Su 14:00-16:00"}}, "geometry":{"type":"Polygon","coordinates":[[[ -7.33109,57.39694],[-7.33099,57.39692],[-7.33094,57.39699],[-7.33089,57.39698],[-7.33087,57.39701],[-7.3308,57.397],[-7.331,57.39671],[-7.33107,57.39672],[-7.33111,57.39667],[-7.33126,57.3967],[-7.33109,57.39694]] ]}},
{ "type":"Feature","properties":{"osm_way_id":"207948602","name":"The Co-operative Bàgh a' Chaisteil","building":"yes","shop":"supermarket","other":{"addr:city":"Bàgh a' Chaisteil","addr:postcode":"HS9 5XD","brand":"The Co-operative Food","brand:wikidata":"Q3277439","brand:wikipedia":"en:Co-op Food","fhrs:id":"806671","operator":"The Co-operative Group","website":"https:\/\/finder.coop.co.uk\/food\/store\/HS9-5XD\/isle-of-barra"}}, "geometry":{"type":"Polygon","coordinates":[[[ -7.49849,56.95557],[-7.49816,56.95562],[-7.49809,56.95547],[-7.49842,56.95543],[-7.49845,56.95548],[-7.49849,56.95547],[-7.49851,56.95551],[-7.49846,56.95551],[-7.49849,56.95557]] ]}},
{ "type":"Feature","properties":{"osm_way_id":"208702009","name":"The Co-operative Dalabrog","building":"yes","shop":"supermarket","other":{"brand":"The Co-operative Food","fhrs:id":"806546","website":"https:\/\/finder.coop.co.uk\/food\/store\/HS8-5SS\/292-daliburgh","operator":"The Co-operative Group","addr:postcode":"HS8 5SS","opening_hours":"Mo-Fr 07:00-22:00; Su 12:30-22:00","brand:wikidata":"Q3277439","brand:wikipedia":"en:Co-op Food"}}, "geometry":{"type":"Polygon","coordinates":[[[ -7.37148,57.16586],[-7.37119,57.16595],[-7.37106,57.16583],[-7.37111,57.16582],[-7.37103,57.16574],[-7.37128,57.16566],[-7.37139,57.16577],[-7.37143,57.16576],[-7.37148,57.16582],[-7.37145,57.16583],[-7.37148,57.16586]] ]}},
{ "type":"Feature","properties":{"osm_way_id":"208741010","name":"The Co-operative Food","building":"supermarket","shop":"supermarket","other":{"atm":"yes","branch":"Creagorry","fhrs:id":"806529","website":"https:\/\/finder.coop.co.uk\/food\/store\/HS7-5PG\/creagorry","operator":"The Co-operative Group","addr:city":"Creag Ghoraidh","addr:place":"Creagorry","addr:country":"GB","addr:district":"Isle of Benbecula","addr:postcode":"HS7 5PG","opening_hours":"Mo-Sa 07:00-22:00; Su 12:30-22:00"}}, "geometry":{"type":"Polygon","coordinates":[[[ -7.33504,57.41058],[-7.33465,57.41067],[-7.33457,57.41056],[-7.3345,57.41046],[-7.33458,57.41044],[-7.33457,57.41042],[-7.33475,57.41038],[-7.33477,57.4104],[-7.33481,57.4104],[-7.33485,57.41044],[-7.33492,57.41043],[-7.33504,57.41058]] ]}},
{ "type":"Feature","properties":{"osm_way_id":"359368563","name":"Co-op Food","building":"yes","shop":"supermarket","other":{"addr:city":"Solas","addr:postcode":"HS6 5BS","brand":"Co-op Food","brand:wikidata":"Q3277439","brand:wikipedia":"en:Co-op Food","fhrs:id":"806817","opening_hours":"Mo-Sa 07:00-22:00","operator":"The Co-operative Group","operator:wikidata":"Q117202","operator:wikipedia":"en:The Co-operative Group","website":"https:\/\/finder.coop.co.uk\/food\/store\/HS6-5BS\/sollas"}}, "geometry":{"type":"Polygon","coordinates":[[[ -7.34452,57.64997],[-7.34465,57.65013],[-7.34443,57.65018],[-7.3443,57.65003],[-7.34452,57.64997]] ]}},
{ "type":"Feature","properties":{"osm_way_id":"503204152","name":"MacLennans","building":"yes","shop":"supermarket","other":{"fhrs:id":"806461","website":"http:\/\/www.maclennanssupermarket.co.uk\/","addr:city":"Baile a' Mhanaich","addr:postcode":"HS7 5LA","opening_hours":"Mo-Sa 08:00-20:00; Su 11:00-16:00","addr:housenumber":"2","contact:facebook":"https:\/\/facebook.com\/maclennanssupermarket\/"}}, "geometry":{"type":"Polygon","coordinates":[[[ -7.39068,57.47331],[-7.39028,57.4733],[-7.39028,57.47327],[-7.3902,57.47327],[-7.3902,57.47323],[-7.39028,57.47323],[-7.39028,57.47319],[-7.39068,57.47319],[-7.39068,57.47331]] ]}}
]
}
