{
"type": "FeatureCollection",
"features": [
{ "type":"Feature","properties":{"osm_id":"1012420461","name":"International Supermarket","other":{"shop":"supermarket","fhrs:id":"443674","addr:city":"London","addr:street":"George Lane","addr:postcode":"E18 1AY","addr:housenumber":"146-150","source:addr:postcode":"FHRS Open Data","fhrs:local_authority_id":"165422"}}, "geometry":{"type":"Point","coordinates":[0.02519,51.59343 ]}},
{ "type":"Feature","properties":{"osm_id":"1240386347","name":"Sainsbury's","other":{"brand":"Sainsbury's","brand:wikidata":"Q152096","brand:wikipedia":"en:Sainsbury's","shop":"supermarket"}}, "geometry":{"type":"Point","coordinates":[0.08688,51.58109 ]}},
{ "type":"Feature","properties":{"osm_id":"2091367254","name":"Co-op Food","other":{"addr:city":"London","addr:housenumber":"55-57","addr:postcode":"E18 1JJ","addr:street":"George Lane","brand":"Co-op Food","brand:wikidata":"Q3277439","brand:wikipedia":"en:Co-op Food","opening_hours":"Mo-Su 07:00-23:00","operator":"Co-Op","phone":"+44 20 8530 4602","shop":"supermarket","surface":"Co-op","website":"https:\/\/finder.coop.co.uk\/food\/store\/E18-1JJ\/55-57-george-lane"}}, "geometry":{"type":"Point","coordinates":[0.02867,51.59134 ]}},
{ "type":"Feature","properties":{"osm_id":"2129514728","name":"Co-operative Food","other":{"shop":"supermarket"}}, "geometry":{"type":"Point","coordinates":[0.084,51.6021 ]}},
{ "type":"Feature","properties":{"osm_id":"2288988735","name":"Co-op Food","other":{"addr:city":"London","addr:housenumber":"87","addr:postcode":"E11 2AE","addr:street":"High Street","brand":"Co-op Food","brand:wikidata":"Q3277439","brand:wikipedia":"en:Co-op Food","fhrs:id":"443362","fhrs:local_authority_id":"155270","shop":"supermarket","source:addr":"FHRS Open Data"}}, "geometry":{"type":"Point","coordinates":[0.0269,51.57752 ]}},
{ "type":"Feature","properties":{"osm_id":"2326287724","name":"Iceland","other":{"addr:city":"Ilford","addr:housenumber":"3-19","addr:postcode":"IG6 2AW","addr:street":"High Road","addr:suburb":"Barkingside","brand":"Iceland","brand:wikidata":"Q721810","fhrs:id":"443458","fhrs:local_authority_id":"160894","shop":"supermarket"}}, "geometry":{"type":"Point","coordinates":[0.08085,51.58887 ]}},
{ "type":"Feature","properties":{"osm_id":"2326297727","name":"Cooperative","other":{"shop":"supermarket"}}, "geometry":{"type":"Point","coordinates":[0.08318,51.59186 ]}},
{ "type":"Feature","properties":{"osm_id":"2326315391","name":"Tesco","other":{"addr:city":"Ilford","addr:housenumber":"796","addr:postcode":"IG6 1HY","addr:street":"Cranbrook Road","brand":"Tesco","brand:wikidata":"Q487494","brand:wikipedia":"en:Tesco","contact:website":"https:\/\/www.tesco.com\/store-locator\/ilford\/796-cranbrook-road","phone":"+44 345 6779038","shop":"supermarket"}}, "geometry":{"type":"Point","coordinates":[0.08218,51.58591 ]}},
{ "type":"Feature","properties":{"osm_id":"2342565771","name":"Iceland","other":{"brand":"Iceland","brand:wikidata":"Q721810","shop":"supermarket"}}, "geometry":{"type":"Point","coordinates":[0.06603,51.57541 ]}},
{ "type":"Feature","properties":{"osm_id":"3574383193","name":"ALDI","other":{"brand":"ALDI","brand:wikidata":"Q41171672","brand:wikipedia":"en:Aldi","name:fa":"آلدی","shop":"supermarket"}}, "geometry":{"type":"Point","coordinates":[0.08414,51.57505 ]}},
{ "type":"Feature","properties":{"osm_id":"3574385831","name":"Pets At Home","other":{"shop":"supermarket"}}, "geometry":{"type":"Point","coordinates":[0.08452,51.5748 ]}},
{ "type":"Feature","properties":{"osm_id":"4313691224","name":"Tesco Express","other":{"brand":"Tesco Express","brand:wikidata":"Q98456772","contact:website":"https:\/\/www.tesco.com\/store-locator\/london\/65-67-high-st","shop":"supermarket"}}, "geometry":{"type":"Point","coordinates":[0.02603,51.57849 ]}},
{ "type":"Feature","properties":{"osm_id":"9223793964","name":"Lidl","other":{"addr:country":"GB","addr:housenumber":"261-275","addr:postcode":"IG1 1NJ","addr:street":"High Road","brand":"Lidl","brand:wikidata":"Q151954","brand:wikipedia":"en:Lidl","fhrs:id":"443451","shop":"supermarket","survey:date":"2020-01-29"}}, "geometry":{"type":"Point","coordinates":[0.0789,51.5606 ]}},
{ "type":"Feature","properties":{"osm_way_id":"15137156","name":"Waitrose","building":"yes","shop":"supermarket","other":{"addr:city":"London","addr:housenumber":"92-96","addr:postcode":"E18 2NA","addr:street":"High Road","branch":"South Woodford","brand":"Waitrose & Partners","brand:wikidata":"Q771734","brand:wikipedia":"en:Waitrose & Partners","contact:phone":"+44 20 8989 0022","contact:website":"http:\/\/www.waitrose.com\/content\/waitrose\/en\/bf_home\/bf\/231.html","fhrs:authority":"Redbridge","fhrs:id":"443431","opening_hours":"Mo-Fr 08:00-21:00; Sa 08:00-20:00; Su 11:00-17:00","operator":"Waitrose & Partners","ref":"231","website":"https:\/\/www.waitrose.com\/bf_home\/bf\/231.html"}}, "geometry":{"type":"MultiPolygon","coordinates":[[[[0.02297,51.59528],[0.02389,51.59519],[0.02393,51.59533],[0.02382,51.59534],[0.0239,51.59564],[0.02347,51.59568],[0.02348,51.59572],[0.02335,51.59573],[0.02335,51.59571],[0.02328,51.59572],[0.02323,51.59572],[0.02316,51.59571],[0.02313,51.59569],[0.02309,51.59566],[0.02297,51.59528]]]]}},
{ "type":"Feature","properties":{"osm_way_id":"25335396","name":"Sainsbury's","building":"yes","shop":"supermarket","other":{"addr:city":"London","addr:housenumber":"176","addr:postcode":"E18 1AY","addr:street":"George Lane","brand":"Sainsbury's","brand:wikidata":"Q152096","fhrs:id":"444273","fhrs:local_authority_id":"83685","toilets:wheelchair":"yes","wheelchair":"yes"}}, "geometry":{"type":"MultiPolygon","coordinates":[[[[0.02357,51.59361],[0.02411,51.59385],[0.02414,51.59383],[0.02418,51.59385],[0.02426,51.59377],[0.0249,51.59323],[0.02479,51.59316],[0.02469,51.59324],[0.02455,51.59318],[0.02448,51.59324],[0.02433,51.59317],[0.02425,51.59323],[0.02409,51.59316],[0.02403,51.5932],[0.02393,51.59316],[0.02354,51.59347],[0.02357,51.59361]]]]}},
{ "type":"Feature","properties":{"osm_way_id":"27712730","name":"Tesco","building":"yes","shop":"supermarket","other":{"addr:postcode":"IG8 8GE","brand":"Tesco","brand:wikidata":"Q487494","brand:wikipedia":"en:Tesco"}}, "geometry":{"type":"MultiPolygon","coordinates":[[[[0.03998,51.59248],[0.04084,51.59227],[0.04065,51.59196],[0.04047,51.59166],[0.03988,51.59182],[0.03961,51.59189],[0.03998,51.59248]]]]}},
{ "type":"Feature","properties":{"osm_way_id":"29583241","name":"Sainsbury's","building":"retail","shop":"supermarket","other":{"addr:city":"Ilford","addr:housenumber":"92-100","addr:postcode":"IG6 1QE","addr:street":"Tanners Lane","addr:suburb":"Barkingside","brand:wikidata":"Q152096","building:levels":"2","fhrs:id":"443100","fhrs:local_authority_id":"150507","opening_hours":"Mo-We 08:00-20:00; Th-Sa 08:00-22:00; Su 10:00-16:00"}}, "geometry":{"type":"MultiPolygon","coordinates":[[[[0.08182,51.58813],[0.08136,51.58822],[0.08163,51.58877],[0.08184,51.58873],[0.08187,51.5888],[0.08212,51.58875],[0.08182,51.58813]]]]}},
{ "type":"Feature","properties":{"osm_way_id":"58477948","name":"Sainsbury's","building":"yes","shop":"supermarket","other":{"brand":"Sainsbury's","brand:wikidata":"Q152096","brand:wikipedia":"en:Sainsbury's"}}, "geometry":{"type":"MultiPolygon","coordinates":[[[[0.06927,51.55671],[0.0693,51.55672],[0.07002,51.55698],[0.07054,51.55644],[0.07014,51.55629],[0.07026,51.55615],[0.07,51.55606],[0.06985,51.55624],[0.06975,51.55621],[0.06967,51.55629],[0.0693,51.55668],[0.06927,51.55671]]]]}},
{ "type":"Feature","properties":{"osm_way_id":"75126299","name":"Co-op Food","building":"retail","shop":"supermarket","other":{"brand":"Co-op Food","brand:wikidata":"Q3277439","brand:wikipedia":"en:Co-op Food","operator":"The Co-operative Group","operator:wikidata":"Q117202","operator:wikipedia":"en:The Co-operative Group","website":"https:\/\/www.coop.co.uk\/store-finder\/IG8-0DY\/109-snakes-lane"}}, "geometry":{"type":"MultiPolygon","coordinates":[[[[0.03249,51.60717],[0.03224,51.60726],[0.03202,51.60699],[0.03227,51.60691],[0.03243,51.6071],[0.03249,51.60717]]]]}},
{ "type":"Feature","properties":{"osm_way_id":"88344408","name":"M&S Simply Food","building":"retail","shop":"supermarket","other":{"addr:city":"London","addr:housenumber":"174","addr:postcode":"E18 1AY","addr:street":"George Lane","brand":"M&S Simply Food","brand:wikidata":"Q714491","brand:wikipedia":"en:Marks & Spencer","fhrs:id":"443547","fhrs:local_authority_id":"164697"}}, "geometry":{"type":"MultiPolygon","coordinates":[[[[0.02408,51.59399],[0.0244,51.59413],[0.02441,51.59418],[0.02425,51.59432],[0.02396,51.59418],[0.02393,51.59412],[0.02408,51.59399]]]]}},
{ "type":"Feature","properties":{"osm_way_id":"256656481","name":"Tesco Extra","building":"commercial","shop":"supermarket","other":{"addr:housenumber":"822","addr:postcode":"RM6 4HY","addr:street":"High Road","addr:suburb":"Chadwell Heath","brand":"Tesco Extra","brand:wikidata":"Q25172225","brand:wikipedia":"en:Tesco Extra","contact:website":"https:\/\/www.tesco.com\/store-locator\/romford\/822-high-rd","fhrs:id":"443349","source:addr":"FHRS Open Data"}}, "geometry":{"type":"MultiPolygon","coordinates":[[[[0.1111,51.56675],[0.1124,51.56695],[0.11274,51.56611],[0.11103,51.56586],[0.1111,51.56675]]]]}},
{ "type":"Feature","properties":{"osm_way_id":"351620748","name":"Lidl","building":"yes","shop":"supermarket","other":{"addr:city":"London","addr:country":"GB","addr:housenumber":"250-260","addr:postcode":"IG6 2SU","addr:street":"Fencepiece Road","brand":"Lidl","brand:wikidata":"Q151954","brand:wikipedia":"en:Lidl","fhrs:id":"595054","opening_hours":"Mo-Sa 08:00-22:00; Su 11:00-17:00","opening_hours:covid19":"same","operator":"LIDL","website":"lidl.co.uk"}}, "geometry":{"type":"MultiPolygon","coordinates":[[[[0.08445,51.6037],[0.08495,51.60382],[0.08496,51.60381],[0.08504,51.60383],[0.0851,51.60373],[0.08503,51.60372],[0.08508,51.60362],[0.08502,51.6036],[0.08505,51.60355],[0.08481,51.6035],[0.08482,51.60349],[0.08453,51.60343],[0.08448,51.60353],[0.08448,51.60353],[0.08445,51.60359],[0.08445,51.6037]]]]}},
{ "type":"Feature","properties":{"osm_way_id":"858925603","name":"Lidl","shop":"supermarket","other":{"brand":"Lidl","brand:wikidata":"Q151954","brand:wikipedia":"en:Lidl","building:part":"yes"}}, "geometry":{"type":"MultiPolygon","coordinates":[[[[0.1215,51.57],[0.12165,51.57008],[0.12216,51.56968],[0.12203,51.56961],[0.1215,51.57]]]]}}
]
}
