{
"type": "FeatureCollection",
"features": [
{ "type":"Feature","properties":{"osm_id":"249151792","name":"Lidl","other":{"addr:country":"GB","addr:postcode":"OX4 6NF","addr:street":"Watlington Road","brand":"Lidl","brand:wikidata":"Q151954","brand:wikipedia":"en:Lidl","fhrs:id":"1215459","shop":"supermarket"}}, "geometry":{"type":"Point","coordinates":[-1.19502,51.72706 ]}},
{ "type":"Feature","properties":{"osm_id":"253265510","name":"M&S Simply Food","other":{"brand":"M&S Simply Food","brand:wikidata":"Q714491","brand:wikipedia":"en:Marks & Spencer","shop":"supermarket"}}, "geometry":{"type":"Point","coordinates":[-1.2003,51.72768 ]}},
{ "type":"Feature","properties":{"osm_id":"266708484","name":"Tesco Express","other":{"addr:city":"Oxford","addr:housename":"Suffolk House","addr:housenumber":"263-265","addr:postcode":"OX2 7HN","addr:street":"Banbury Road","addr:unit":"Unit 5","brand":"Tesco Express","brand:wikidata":"Q98456772","contact:website":"https:\/\/www.tesco.com\/store-locator\/oxford\/263-banbury-rd","fhrs:id":"268375","opening_hours":"Mo-Su 06:00-11:00","shop":"supermarket","source:addr":"FHRS Open Data","wheelchair":"yes"}}, "geometry":{"type":"Point","coordinates":[-1.26545,51.77828 ]}},
{ "type":"Feature","properties":{"osm_id":"312915804","name":"Tesco Metro","other":{"addr:postcode":"OX1 3AD","addr:street":"Magdalen Street","brand":"Tesco Metro","brand:wikidata":"Q57551648","contact:website":"https:\/\/www.tesco.com\/store-locator\/oxford\/magdalen-st","opening_hours":"Mo-Sa 07:00-24:00; Su 11:00-17:00","phone":"+44 845 0269682","shop":"supermarket","wheelchair":"limited"}}, "geometry":{"type":"Point","coordinates":[-1.25926,51.75446 ]}},
{ "type":"Feature","properties":{"osm_id":"504747576","name":"Jing Jing Oriental Food Store","other":{"addr:housenumber":"188","addr:postcode":"OX4 1UE","addr:street":"Cowley Road","shop":"supermarket"}}, "geometry":{"type":"Point","coordinates":[-1.23459,51.74693 ]}},
{ "type":"Feature","properties":{"osm_id":"534678945","name":"Co-op Food","other":{"brand":"Co-op Food","brand:wikidata":"Q3277439","brand:wikipedia":"en:Co-op Food","operator":"The Co-operative Group","operator:wikidata":"Q117202","operator:wikipedia":"en:The Co-operative Group","shop":"supermarket"}}, "geometry":{"type":"Point","coordinates":[-1.21638,51.73227 ]}},
{ "type":"Feature","properties":{"osm_id":"663641334","name":"Sainsbury's Local","other":{"addr:city":"Oxford","addr:housename":"Suffolk House","addr:housenumber":"263-265","addr:postcode":"OX2 7HN","addr:street":"Banbury Road","addr:unit":"Unit 9","brand:wikidata":"Q13218434","fhrs:id":"441855","operator":"Sainsbury's Supermarkets Ltd","shop":"supermarket","source:addr":"FHRS Open Data","wheelchair":"yes"}}, "geometry":{"type":"Point","coordinates":[-1.26556,51.77854 ]}},
{ "type":"Feature","properties":{"osm_id":"746814187","name":"Deltey","other":{"shop":"supermarket"}}, "geometry":{"type":"Point","coordinates":[-1.20175,51.72046 ]}},
{ "type":"Feature","properties":{"osm_id":"848252264","name":"Tesco Express","ref":"6167","other":{"addr:city":"Oxford","addr:housenumber":"75","addr:postcode":"OX1 1RA","addr:street":"St Aldate's","branch":"Oxford St Aldates Express","brand":"Tesco Express","brand:wikidata":"Q98456772","contact:website":"https:\/\/www.tesco.com\/store-locator\/oxford\/75-st-aldates","fhrs:id":"269248","opening_hours":"Mo-Su 07:00-23:00","phone":"+44 845 6746449","shop":"supermarket"}}, "geometry":{"type":"Point","coordinates":[-1.25682,51.74865 ]}},
{ "type":"Feature","properties":{"osm_id":"1142149608","other":{"shop":"supermarket"}}, "geometry":{"type":"Point","coordinates":[-1.22379,51.75473 ]}},
{ "type":"Feature","properties":{"osm_id":"1925168632","name":"Sainsbury's","ref":"0730","other":{"addr:city":"Oxford","addr:housename":"Westgate Centre","addr:postcode":"OX1 1PA","addr:street":"Westgate","addr:unit":"21","branch":"Oxford Superstore","brand":"Sainsbury's","brand:wikidata":"Q152096","brand:wikipedia":"en:Sainsbury's","fhrs:id":"269464","level":"0","level:ref":"UG","opening_hours":"Mo-Sa 07:00-20:00; Su 11:00-17:00","phone":"+44 1865 722179","shop":"supermarket","website":"https:\/\/stores.sainsburys.co.uk\/0730\/oxford"}}, "geometry":{"type":"Point","coordinates":[-1.26033,51.75039 ]}},
{ "type":"Feature","properties":{"osm_id":"3022200433","name":"Premier Turna Supermarket","other":{"shop":"supermarket"}}, "geometry":{"type":"Point","coordinates":[-1.23298,51.72471 ]}},
{ "type":"Feature","properties":{"osm_id":"3137386569","name":"Simpli Fresh","other":{"addr:housenumber":"236-238","addr:postcode":"OX4 1UH","addr:street":"Cowley Road","shop":"supermarket","website":"http:\/\/simplifresh.co.uk\/"}}, "geometry":{"type":"Point","coordinates":[-1.23279,51.74616 ]}},
{ "type":"Feature","properties":{"osm_id":"3139692508","name":"Atif Superstore","other":{"addr:housenumber":"256","addr:postcode":"OX4 1UH","addr:street":"Cowley Road","shop":"supermarket"}}, "geometry":{"type":"Point","coordinates":[-1.23209,51.7459 ]}},
{ "type":"Feature","properties":{"osm_id":"6200701620","name":"Tesco Superstore","other":{"brand":"Tesco","brand:wikidata":"Q487494","brand:wikipedia":"en:Tesco","contact:website":"https:\/\/www.tesco.com\/store-locator\/oxford\/unit-7-oxford-retail-park","shop":"supermarket"}}, "geometry":{"type":"Point","coordinates":[-1.20289,51.72678 ]}},
{ "type":"Feature","properties":{"osm_id":"8400778203","name":"Co-op Food","other":{"brand":"Co-op Food","brand:wikidata":"Q3277439","brand:wikipedia":"en:Co-op Food","operator":"The Co-operative Group","operator:wikidata":"Q117202","operator:wikipedia":"en:The Co-operative Group","shop":"supermarket"}}, "geometry":{"type":"Point","coordinates":[-1.22521,51.75529 ]}},
{ "type":"Feature","properties":{"osm_id":"9439770844","name":"Co-operative Food","other":{"shop":"supermarket"}}, "geometry":{"type":"Point","coordinates":[-1.23133,51.74598 ]}},
{ "type":"Feature","properties":{"osm_way_id":"24291422","name":"Sainsbury's","building":"retail","shop":"supermarket","other":{"brand":"Sainsbury's","brand:wikidata":"Q152096","brand:wikipedia":"en:Sainsbury's"}}, "geometry":{"type":"MultiPolygon","coordinates":[[[[-1.21915,51.73294],[-1.21939,51.7334],[-1.21881,51.73352],[-1.21867,51.73355],[-1.21865,51.73351],[-1.21842,51.73309],[-1.21915,51.73294]]]]}},
{ "type":"Feature","properties":{"osm_way_id":"27580540","name":"Sainsbury's","building":"retail","shop":"supermarket","other":{"addr:postcode":"OX4 4XR","addr:street":"Heyford Hill","brand":"Sainsbury's","brand:wikidata":"Q152096","nohousenumber":"yes"}}, "geometry":{"type":"MultiPolygon","coordinates":[[[[-1.23338,51.72184],[-1.23324,51.72153],[-1.23272,51.72161],[-1.23256,51.72125],[-1.23194,51.72135],[-1.23192,51.72132],[-1.23146,51.72139],[-1.23153,51.72155],[-1.23144,51.72156],[-1.2315,51.72172],[-1.23158,51.72171],[-1.23179,51.72217],[-1.23305,51.72197],[-1.23302,51.72189],[-1.23338,51.72184]]]]}},
{ "type":"Feature","properties":{"osm_way_id":"32987744","name":"Aldi","building":"yes","shop":"supermarket","other":{"addr:city":"South Shields","addr:county":"Tyne & Wear","addr:postcode":"NE33 4HF","addr:street":"Chichester Road","brand":"ALDI","brand:wikidata":"Q41171672","brand:wikipedia":"en:Aldi","fhrs:id":"191010","opening_hours":"Mo-Sa 08:00-22:00; Su 10:00-16:00","source:addr":"FHRS Open Data"}}, "geometry":{"type":"MultiPolygon","coordinates":[[[[-1.43061,54.98989],[-1.43059,54.98991],[-1.43046,54.98987],[-1.43063,54.9897],[-1.43066,54.98971],[-1.43098,54.98942],[-1.43149,54.98959],[-1.43137,54.98971],[-1.43129,54.98968],[-1.43113,54.98984],[-1.43103,54.98993],[-1.43093,54.98989],[-1.43085,54.98998],[-1.43061,54.98989]]]]}},
{ "type":"Feature","properties":{"osm_way_id":"38967725","name":"Aldi","building":"yes","shop":"supermarket","other":{"addr:city":"Oxford","addr:country":"GB","addr:postcode":"OX2 0HA","addr:street":"Botley Road","brand":"ALDI","brand:wikidata":"Q41171672","brand:wikipedia":"en:Aldi","contact:website":"https:\/\/www.aldi.co.uk\/store\/s-uk-E0608","fhrs:id":"269186","opening_hours":"Mo-Sa 08:00-22:00; Su 10:00-16:00","operator":"Aldi"}}, "geometry":{"type":"MultiPolygon","coordinates":[[[[-1.28926,51.75208],[-1.28897,51.75206],[-1.28906,51.75157],[-1.28914,51.75157],[-1.28916,51.75148],[-1.28923,51.75149],[-1.2894,51.75162],[-1.28934,51.75196],[-1.28928,51.75196],[-1.28926,51.75208]]]]}},
{ "type":"Feature","properties":{"osm_way_id":"82204489","name":"The Co-operative Food","building":"supermarket","shop":"supermarket","other":{"alt_name":"Co-op","brand":"The Co-operative Food","brand:wikidata":"Q107617274","opening_hours":"Su 10:00-16:00;Mo-Sa 07:00-22:00","operator":"Midcounties Co-op","wheelchair":"yes"}}, "geometry":{"type":"MultiPolygon","coordinates":[[[[-1.20865,51.76062],[-1.20832,51.76072],[-1.20833,51.76073],[-1.20824,51.76075],[-1.20795,51.76037],[-1.20817,51.7603],[-1.20821,51.76036],[-1.20835,51.76032],[-1.20839,51.76037],[-1.20851,51.76034],[-1.2086,51.76046],[-1.20863,51.76045],[-1.20872,51.76056],[-1.20873,51.76056],[-1.20874,51.76057],[-1.20874,51.76058],[-1.20874,51.76059],[-1.20873,51.76061],[-1.2087,51.76062],[-1.20867,51.76063],[-1.20865,51.76062]]]]}},
{ "type":"Feature","properties":{"osm_way_id":"82274284","name":"Waitrose","building":"supermarket","shop":"supermarket","other":{"addr:housenumber":"9,11","addr:postcode":"OX3 9HP","brand":"Waitrose","brand:wikidata":"Q771734","brand:wikipedia":"en:Waitrose","fhrs:id":"269168","official_name":"Waitrose & Partners","opening_hours":"Mo-Th 08:30-20:00; Fr 08:30-21:00; Sa 08:30-19:00; Su 10:00-16:00","operator":"Waitrose & Partners","source:addr":"survey","source:addr:postcode":"FSA Food Hygiene Ratings Database","source:geometry":"Bing"}}, "geometry":{"type":"MultiPolygon","coordinates":[[[[-1.21095,51.76058],[-1.21095,51.76059],[-1.21107,51.76056],[-1.21113,51.76066],[-1.21112,51.76066],[-1.21086,51.76073],[-1.21087,51.76074],[-1.21094,51.76085],[-1.21032,51.761],[-1.21016,51.76089],[-1.21034,51.76085],[-1.21032,51.76082],[-1.21038,51.76073],[-1.21057,51.76068],[-1.21057,51.76067],[-1.21095,51.76058]]]]}},
{ "type":"Feature","properties":{"osm_way_id":"135885587","name":"Thong Heng Oriental Supermarket","building":"retail","shop":"supermarket","other":{"addr:city":"Oxford","addr:country":"GB","addr:housenumber":"6","addr:postcode":"OX3 7BL","addr:street":"Windmill Road","cuisine":"asian","opening_hours":"Mo-Su 09:00-18:00"}}, "geometry":{"type":"MultiPolygon","coordinates":[[[[-1.21053,51.75973],[-1.21029,51.75979],[-1.21027,51.75975],[-1.2105,51.75969],[-1.21053,51.75973]]]]}},
{ "type":"Feature","properties":{"osm_way_id":"158616937","name":"Aldi","building":"retail","shop":"supermarket","other":{"brand":"ALDI","brand:wikidata":"Q41171672","brand:wikipedia":"en:Aldi","opening_hours":"Mo-Sa 08:00-22:00; Su 10:00-16:00","wheelchair":"yes"}}, "geometry":{"type":"MultiPolygon","coordinates":[[[[-1.19753,51.74141],[-1.19714,51.74113],[-1.19684,51.74129],[-1.19725,51.74157],[-1.19753,51.74141]]]]}},
{ "type":"Feature","properties":{"osm_way_id":"226318733","name":"Co-op","building":"yes","shop":"supermarket","other":{"addr:housenumber":"74","addr:postcode":"OX4 4HS","addr:street":"Rose Hill","designation":"Co-operative Food"}}, "geometry":{"type":"MultiPolygon","coordinates":[[[[-1.22565,51.72908],[-1.22556,51.72886],[-1.22534,51.72889],[-1.22543,51.72912],[-1.22565,51.72908]]]]}},
{ "type":"Feature","properties":{"osm_way_id":"265435665","name":"Lung Wah Chong","building":"yes","shop":"supermarket","other":{"addr:housename":"Unit 5","addr:postcode":"OX2 0ES","addr:street":"Osney Mead"}}, "geometry":{"type":"MultiPolygon","coordinates":[[[[-1.2726,51.7463],[-1.27201,51.74632],[-1.27198,51.74605],[-1.27256,51.74602],[-1.2726,51.7463]]]]}},
{ "type":"Feature","properties":{"osm_way_id":"316417710","name":"Tahmid Stores","shop":"supermarket","other":{"addr:city":"Oxford","addr:housename":"Tahmid Stores","addr:street":"Cowley Road","indoor":"store","level":"0","operator":"Tahmid Stores"}}, "geometry":{"type":"MultiPolygon","coordinates":[[[[-1.24154,51.74921],[-1.2415,51.74926],[-1.24157,51.74952],[-1.24178,51.7495],[-1.24176,51.74944],[-1.24182,51.74943],[-1.24183,51.74951],[-1.24201,51.7495],[-1.24199,51.7494],[-1.24182,51.74939],[-1.24175,51.7494],[-1.24174,51.74931],[-1.24171,51.74931],[-1.24161,51.74928],[-1.24164,51.74923],[-1.24154,51.74921]]]]}},
{ "type":"Feature","properties":{"osm_way_id":"375839429","name":"Waitrose","building":"yes","shop":"supermarket","other":{"addr:city":"Oxford","addr:housename":"110-120 Botley Rd, Oxford OX2 0HH","addr:housenumber":"110-120","addr:postcode":"OX2 0HH","addr:street":"Riverside Road","brand":"Waitrose","brand:wikidata":"Q771734","brand:wikipedia":"en:Waitrose & Partners","official_name":"Waitrose & Partners","opening_hours":"Mo-Sa 08:00-21:00; Su 10:00-16:00","operator":"Waitrose & Partners","payment:cash":"yes","payment:coins":"yes","payment:credit_cards":"yes"}}, "geometry":{"type":"MultiPolygon","coordinates":[[[[-1.28065,51.75329],[-1.28078,51.7533],[-1.28096,51.75317],[-1.28097,51.75309],[-1.28073,51.75307],[-1.28078,51.75279],[-1.28067,51.75278],[-1.28025,51.75275],[-1.28019,51.75307],[-1.28013,51.75307],[-1.28008,51.75327],[-1.28007,51.75333],[-1.28017,51.75333],[-1.28064,51.75337],[-1.28065,51.75329]]]]}},
{ "type":"Feature","properties":{"osm_way_id":"839820470","name":"Co-op Food","building":"yes","shop":"supermarket","other":{"addr:city":"Oxford","addr:housenumber":"297","addr:postcode":"OX4 4AG","addr:street":"Iffley Road","brand":"Co-op Food","brand:wikidata":"Q3277439","brand:wikipedia":"en:Co-op Food","opening_hours":"Mo-Sa 06:00-00:00; Su 07:00-00:00","operator":"The Co-Operative Food","phone":"+44 1865 243828","website":"https:\/\/finder.coop.co.uk\/food\/store\/OX4-4AG\/297-iffley-road"}}, "geometry":{"type":"MultiPolygon","coordinates":[[[[-1.23461,51.73904],[-1.23465,51.73909],[-1.23468,51.73908],[-1.23476,51.73916],[-1.23501,51.73906],[-1.235,51.73905],[-1.23503,51.73903],[-1.23492,51.73893],[-1.23461,51.73904]]]]}},
{ "type":"Feature","properties":{"osm_way_id":"909778733","building":"yes"},"geometry":{"type":"MultiPolygon","coordinates":[[[[-1.27365,51.78265],[-1.27361,51.78261],[-1.27357,51.78262],[-1.27357,51.78262],[-1.27339,51.78269],[-1.27343,51.78273],[-1.27365,51.78265]]]]}}
]
}
