{
"type": "FeatureCollection",
"features": [
{ "type":"Feature","properties":{"osm_id":"249477044","name":"Co-op Food","other":{"addr:housenumber":"127","addr:postcode":"SA1 5RG","addr:street":"Walter Road","brand":"Co-op Food","brand:wikidata":"Q3277439","brand:wikipedia":"en:Co-op Food","fhrs:id":"682960","operator":"The Co-operative Group","operator:wikidata":"Q117202","operator:wikipedia":"en:The Co-operative Group","shop":"supermarket","source:addr":"FHRS Open Data","website":"https:\/\/www.coop.co.uk\/"}}, "geometry":{"type":"Point","coordinates":[-3.95514,51.61983 ]}},
{ "type":"Feature","properties":{"osm_id":"344636441","man_made":"surveillance","other":{"surveillance":"public","surveillance:type":"camera","surveillance:zone":"building"}}, "geometry":{"type":"Point","coordinates":[-3.93598,51.62035 ]}},
{ "type":"Feature","properties":{"osm_id":"875496104","name":"The Village Shop","other":{"addr:city":"scurlage","addr:postcode":"SA3 1AY","addr:street":"Monksland Road","fhrs:id":"736414","shop":"supermarket"}}, "geometry":{"type":"Point","coordinates":[-4.2188,51.56544 ]}},
{ "type":"Feature","properties":{"osm_id":"1790724630","name":"Nisa Local","other":{"addr:housenumber":"10-12","addr:postcode":"SA3 5JD","addr:street":"Alderwood Road","fhrs:id":"106270","shop":"supermarket"}}, "geometry":{"type":"Point","coordinates":[-4.00097,51.58677 ]}},
{ "type":"Feature","properties":{"osm_id":"4260968057","name":"M&S Simply Food","other":{"addr:housename":"Pontardulais Retail Park","addr:housenumber":"Unit 7","addr:postcode":"SA5 4BA","addr:street":"Pontardulais Road","brand":"M&S Simply Food","brand:wikidata":"Q714491","brand:wikipedia":"en:Marks & Spencer","fhrs:id":"839413","shop":"supermarket"}}, "geometry":{"type":"Point","coordinates":[-3.98836,51.65306 ]}},
{ "type":"Feature","properties":{"osm_id":"4372056539","name":"Spar","other":{"addr:city":"Clydach","addr:housenumber":"54-56","addr:postcode":"SA6 5LN","addr:street":"High Street","brand":"Spar","brand:wikidata":"Q610492","brand:wikipedia":"en:Spar (retailer)","fhrs:id":"893693","opening_hours":"Mo-Sa 07:00-22:00 Su 08:00-22:00","phone":"+44 1792 843863","shop":"supermarket","source:addr":"FHRS Open Data","website":"https:\/\/www.spar.co.uk\/store-locator\/afb18063-spar-clydach"}}, "geometry":{"type":"Point","coordinates":[-3.89493,51.6956 ]}},
{ "type":"Feature","properties":{"osm_id":"7058665199","name":"The Co-operative Food","other":{"addr:city":"Clydach","addr:housenumber":"77","addr:postcode":"SA6 5LJ","addr:street":"High Street","brand":"The Co-operative Food","brand:wikidata":"Q3277439","brand:wikipedia":"en:Co-op Food","fhrs:id":"839437","opening_hours":"Mo-Sa 07:00-22:00 Su 10:00-16:00","operator":"The Co-operative Group","phone":"+44 1792 846 410","shop":"supermarket","website":"https:\/\/finder.coop.co.uk\/food\/store\/SA6-5LJ\/high-street"}}, "geometry":{"type":"Point","coordinates":[-3.89376,51.69493 ]}},
{ "type":"Feature","properties":{"osm_id":"9558944014","name":"The Food Warehouse by Iceland","other":{"operator":"Iceland Foods Limited","shop":"supermarket","wheelchair":"yes"}}, "geometry":{"type":"Point","coordinates":[-3.93923,51.62229 ]}},
{ "type":"Feature","properties":{"osm_way_id":"27741223","name":"Morrisons","building":"yes","shop":"supermarket","other":{"addr:postcode":"SA1 7DF","addr:street":"Brunel Way","addr:unit":"Morfa Shopping Park","brand":"Morrisons","brand:wikidata":"Q922344","brand:wikipedia":"en:Morrisons","fhrs:id":"60676"}}, "geometry":{"type":"MultiPolygon","coordinates":[[[[-3.92733,51.64381],[-3.92744,51.64379],[-3.9274,51.64373],[-3.92712,51.64322],[-3.92718,51.64321],[-3.92708,51.64302],[-3.92673,51.6431],[-3.92675,51.64313],[-3.92676,51.64315],[-3.92611,51.64329],[-3.92617,51.64339],[-3.92574,51.64349],[-3.9261,51.64413],[-3.92639,51.64407],[-3.92633,51.64397],[-3.92711,51.6438],[-3.92713,51.64383],[-3.92732,51.64379],[-3.92733,51.64381]]]]}},
{ "type":"Feature","properties":{"osm_way_id":"28243094","name":"Tesco","building":"yes","shop":"supermarket","other":{"addr:postcode":"SA1 3RA","addr:street":"Albert Row","branch":"Swansea Marina","brand":"Tesco","brand:wikidata":"Q487494","brand:wikipedia":"en:Tesco","fhrs:id":"57151","opening_hours":"Mo 06:00-24:00; Tu-Sa 00:00-24:00; Su 10:00-16:00","operator":"Tesco","wheelchair":"yes"}}, "geometry":{"type":"MultiPolygon","coordinates":[[[[-3.9449,51.61697],[-3.94487,51.61698],[-3.94413,51.61732],[-3.94402,51.61723],[-3.94391,51.61728],[-3.94367,51.61708],[-3.94359,51.61712],[-3.9433,51.61687],[-3.9432,51.61692],[-3.94316,51.61688],[-3.94307,51.61693],[-3.94297,51.61684],[-3.94336,51.61666],[-3.94327,51.61658],[-3.94401,51.61625],[-3.9449,51.61697]]]]}},
{ "type":"Feature","properties":{"osm_way_id":"30996715","name":"Lidl","building":"retail","shop":"supermarket","other":{"addr:country":"GB","addr:housename":"Parc Tawe North","addr:postcode":"SA1 2AA","addr:street":"Parc Tawe Link Road","addr:unit":"1","brand":"Lidl","brand:wikidata":"Q151954","brand:wikipedia":"en:Lidl","fhrs:id":"1250062"}}, "geometry":{"type":"MultiPolygon","coordinates":[[[[-3.94027,51.62417],[-3.94025,51.62428],[-3.94019,51.62434],[-3.93999,51.6244],[-3.93994,51.62432],[-3.93942,51.62448],[-3.93909,51.62406],[-3.93998,51.62379],[-3.94027,51.62417]]]]}},
{ "type":"Feature","properties":{"osm_way_id":"30996785","name":"Sainsbury's","building":"retail","shop":"supermarket","other":{"addr:city":"Swansea","addr:housename":"Sainsbury's","addr:postcode":"SA1 8JA","addr:street":"Quay Parade","branch":"Quay Parade","brand":"Sainsbury's","brand:wikidata":"Q152096","brand:wikipedia":"en:Sainsbury's","building:levels":"1","fhrs:id":"131472","opening_hours":"Mo-Fr 07:00-22:00, Sa 07:00-21:00, Su 10:00-16:00","operator":"Sainsbury's","phone":"+44 1792 653985","stroller":"yes","website":"https:\/\/stores.sainsburys.co.uk\/0510\/swansea","wheelchair":"yes"}}, "geometry":{"type":"MultiPolygon","coordinates":[[[[-3.93598,51.62035],[-3.93574,51.62031],[-3.93569,51.62032],[-3.93565,51.62032],[-3.93563,51.62031],[-3.93559,51.62028],[-3.93513,51.62021],[-3.9349,51.62017],[-3.93463,51.62013],[-3.9346,51.62012],[-3.93457,51.62013],[-3.93452,51.62013],[-3.93448,51.62012],[-3.93444,51.6201],[-3.93442,51.62009],[-3.93436,51.62002],[-3.93436,51.62],[-3.93435,51.61998],[-3.93436,51.61996],[-3.93438,51.61994],[-3.93441,51.61992],[-3.93445,51.6199],[-3.9345,51.6199],[-3.93455,51.61991],[-3.9346,51.61993],[-3.93473,51.61964],[-3.93488,51.61967],[-3.93497,51.61947],[-3.93529,51.61952],[-3.93533,51.61944],[-3.93568,51.61949],[-3.93561,51.61965],[-3.93593,51.61971],[-3.93589,51.61979],[-3.9362,51.61983],[-3.93615,51.61994],[-3.93598,51.62035]]]]}},
{ "type":"Feature","properties":{"osm_way_id":"40715978","name":"Tesco Extra","building":"yes","shop":"supermarket","other":{"addr:postcode":"SA7 9RD","addr:street":"Nantyffin Road","brand":"Tesco Extra","brand:wikidata":"Q25172225","brand:wikipedia":"en:Tesco Extra","contact:website":"https:\/\/www.tesco.com\/store-locator\/swansea\/nantyffin-road","fhrs:id":"219001","operator":"Tesco","source:addr":"FHRS Open Data"}}, "geometry":{"type":"MultiPolygon","coordinates":[[[[-3.90257,51.65751],[-3.9026,51.65749],[-3.90276,51.65763],[-3.90124,51.65828],[-3.9012,51.65824],[-3.90123,51.65822],[-3.90074,51.65778],[-3.90059,51.65784],[-3.90043,51.65769],[-3.90049,51.65767],[-3.90045,51.65763],[-3.90055,51.65758],[-3.90058,51.6576],[-3.90085,51.65748],[-3.902,51.657],[-3.90257,51.65751]]]]}},
{ "type":"Feature","properties":{"osm_way_id":"43086371","name":"Lidl, Gorseinon","building":"yes","shop":"supermarket","other":{"addr:postcode":"SA4 9GE","addr:street":"Gorseinon Road","brand":"Lidl","brand:wikidata":"Q151954","fhrs:id":"839434"}}, "geometry":{"type":"MultiPolygon","coordinates":[[[[-4.01707,51.66775],[-4.01666,51.6678],[-4.0166,51.66762],[-4.01664,51.66761],[-4.01655,51.66734],[-4.01677,51.66732],[-4.01675,51.66726],[-4.01689,51.66724],[-4.0169,51.66727],[-4.01707,51.66775]]]]}},
{ "type":"Feature","properties":{"osm_way_id":"43978828","name":"Tesco Extra","building":"yes","shop":"supermarket","other":{"addr:postcode":"SA5 4BA","addr:street":"Parc Fforestfach","brand":"Tesco Extra","brand:wikidata":"Q25172225","brand:wikipedia":"en:Tesco Extra","fhrs:id":"93959","operator":"Tesco","website":"https:\/\/www.tesco.com\/store-locator\/swansea\/pontardulais-road"}}, "geometry":{"type":"MultiPolygon","coordinates":[[[[-3.99176,51.65157],[-3.99154,51.65139],[-3.99152,51.6514],[-3.9914,51.6513],[-3.99143,51.65129],[-3.9911,51.651],[-3.99096,51.65106],[-3.99077,51.65091],[-3.99091,51.65085],[-3.99073,51.65069],[-3.99179,51.65021],[-3.9921,51.65048],[-3.99204,51.65051],[-3.99236,51.65078],[-3.99255,51.6507],[-3.99295,51.65104],[-3.99176,51.65157]]]]}},
{ "type":"Feature","properties":{"osm_way_id":"67625353","name":"Co-op","building":"retail","shop":"supermarket","other":{"addr:postcode":"SA2 7BA","addr:street":"The Precinct","fhrs:id":"811437","opening_hours":"Mo-Su 07:00-22:00","wheelchair":"yes"}}, "geometry":{"type":"MultiPolygon","coordinates":[[[[-4.01853,51.61832],[-4.0185,51.61821],[-4.01839,51.61822],[-4.0182,51.61824],[-4.01807,51.61825],[-4.01811,51.61837],[-4.01853,51.61832]]]]}},
{ "type":"Feature","properties":{"osm_way_id":"67625354","name":"Co-op","building":"yes","shop":"supermarket","other":{"addr:housenumber":"434","addr:postcode":"SA2 7AJ","addr:street":"Gower Road","fhrs:id":"811438","opening_hours":"Mo-Sa 07:00-22:00; Su 10:00-16:00","wheelchair":"yes"}}, "geometry":{"type":"MultiPolygon","coordinates":[[[[-4.01883,51.61803],[-4.01853,51.61806],[-4.01848,51.61783],[-4.01879,51.61778],[-4.01883,51.61803]]]]}},
{ "type":"Feature","properties":{"osm_way_id":"79209972","name":"Asda","building":"retail","shop":"supermarket","other":{"addr:country":"GB","addr:postcode":"SA4 4BZ","addr:street":"Heol y Mynydd","brand":"Asda","brand:wikidata":"Q297410","brand:wikipedia":"en:Asda","contact:facebook":"https:\/\/www.facebook.com\/asda\/","contact:twitter":"@asda","contact:website":"https:\/\/storelocator.asda.com\/wales\/gorseinon\/heol-y-mynydd","fhrs:id":"65178","operator":"Asda Stores Ltd","wheelchair":"yes"}}, "geometry":{"type":"MultiPolygon","coordinates":[[[[-4.03538,51.67034],[-4.03463,51.67035],[-4.0345,51.67036],[-4.03431,51.67023],[-4.03439,51.67018],[-4.03439,51.67014],[-4.03433,51.67014],[-4.03433,51.67009],[-4.03432,51.66987],[-4.03438,51.66987],[-4.03438,51.66976],[-4.03534,51.66974],[-4.03534,51.66979],[-4.03542,51.66979],[-4.03545,51.67028],[-4.03538,51.67028],[-4.03538,51.67034]]]]}},
{ "type":"Feature","properties":{"osm_way_id":"108247930","name":"CK's","building":"retail","shop":"supermarket","other":{"addr:housenumber":"6-8","addr:postcode":"SA2 8JJ","addr:street":"Parkway","fhrs:id":"56193","source:addr":"FHRS Open Data","wheelchair":"yes"}}, "geometry":{"type":"MultiPolygon","coordinates":[[[[-3.99999,51.616],[-3.99992,51.61606],[-3.99976,51.6162],[-3.9996,51.61612],[-3.99972,51.61602],[-3.99964,51.61599],[-3.99975,51.61589],[-3.99999,51.616]]]]}},
{ "type":"Feature","properties":{"osm_way_id":"110532262","name":"Co-op Food","building":"commercial","shop":"supermarket","other":{"addr:housenumber":"62","addr:postcode":"SA3 5LA","addr:street":"Linden Avenue","brand":"Co-op Food","brand:wikidata":"Q3277439","brand:wikipedia":"en:Co-op Food","fhrs:id":"106332","operator":"The Co-operative Group","operator:wikidata":"Q117202","operator:wikipedia":"en:The Co-operative Group","wikidata":"Q80859736"}}, "geometry":{"type":"MultiPolygon","coordinates":[[[[-4.00677,51.59033],[-4.00664,51.59042],[-4.00667,51.59044],[-4.00662,51.59048],[-4.00685,51.59059],[-4.00704,51.59045],[-4.00684,51.59035],[-4.00683,51.59036],[-4.00677,51.59033]]]]}},
{ "type":"Feature","properties":{"osm_way_id":"122640208","name":"CK's","shop":"supermarket"},"geometry":{"type":"MultiPolygon","coordinates":[[[[-3.94146,51.63065],[-3.94126,51.63071],[-3.94111,51.6305],[-3.94131,51.63045],[-3.94146,51.63065]]]]}},
{ "type":"Feature","properties":{"osm_way_id":"125812187","name":"CK's","building":"yes","shop":"supermarket"},"geometry":{"type":"MultiPolygon","coordinates":[[[[-3.95302,51.63625],[-3.95303,51.63612],[-3.95259,51.6361],[-3.95258,51.63623],[-3.95302,51.63625]]]]}},
{ "type":"Feature","properties":{"osm_way_id":"132816962","name":"Tesco","shop":"supermarket","other":{"addr:housenumber":"1","addr:postcode":"SA4 8TB","addr:street":"New Road","brand":"Tesco","brand:wikidata":"Q487494","brand:wikipedia":"en:Tesco","fhrs:id":"654788","source:addr":"FHRS Open Data"}}, "geometry":{"type":"MultiPolygon","coordinates":[[[[-4.04268,51.7134],[-4.04308,51.71401],[-4.04396,51.71379],[-4.0436,51.71319],[-4.04268,51.7134]]]]}},
{ "type":"Feature","properties":{"osm_way_id":"157268358","name":"Asda","building":"yes","shop":"supermarket","other":{"addr:country":"GB","addr:postcode":"SA6 8PS","addr:street":"Heron Way","brand":"Asda","brand:wikidata":"Q297410","brand:wikipedia":"en:Asda","contact:facebook":"https:\/\/www.facebook.com\/asda\/","contact:twitter":"@asda","contact:website":"https:\/\/storelocator.asda.com\/wales\/swansea\/upper-forest-way","fhrs:id":"219015","operator":"Asda Stores Ltd"}}, "geometry":{"type":"MultiPolygon","coordinates":[[[[-3.91758,51.66495],[-3.9176,51.66493],[-3.91775,51.66496],[-3.91787,51.66462],[-3.91777,51.66461],[-3.91779,51.66457],[-3.91761,51.66453],[-3.91781,51.66412],[-3.91679,51.66391],[-3.91674,51.664],[-3.91661,51.66397],[-3.91627,51.66463],[-3.91641,51.66466],[-3.91627,51.6649],[-3.91732,51.6651],[-3.91741,51.66492],[-3.91758,51.66495]]]]}},
{ "type":"Feature","properties":{"osm_way_id":"208161619","name":"Sainsbury's","building":"retail","shop":"supermarket","other":{"addr:city":"Hornchurch","addr:housenumber":"101-105","addr:postcode":"RM11 1TX","addr:street":"High Street","brand":"Sainsbury's","brand:wikidata":"Q152096","brand:wikipedia":"en:Sainsbury's","fhrs:id":"374050","fhrs:local_authority_id":"9762","source:addr":"FHRS Open Data"}}, "geometry":{"type":"MultiPolygon","coordinates":[[[[0.21757,51.56298],[0.21764,51.5631],[0.21768,51.56309],[0.21782,51.56334],[0.21796,51.56343],[0.21801,51.56352],[0.21813,51.56349],[0.21812,51.56347],[0.21818,51.56346],[0.21817,51.56345],[0.21825,51.56343],[0.21826,51.56344],[0.21827,51.56344],[0.21833,51.56354],[0.21859,51.56348],[0.21853,51.56338],[0.21862,51.56335],[0.21857,51.56326],[0.21882,51.56321],[0.21878,51.56313],[0.21882,51.56312],[0.21878,51.56304],[0.21873,51.56303],[0.21872,51.56303],[0.21866,51.56293],[0.21869,51.56292],[0.21871,51.56289],[0.21863,51.56275],[0.2183,51.56282],[0.21829,51.56281],[0.21757,51.56298]]]]}},
{ "type":"Feature","properties":{"osm_way_id":"224876528","name":"Tesco Express","building":"yes","shop":"supermarket","other":{"brand":"Tesco Express","brand:wikidata":"Q98456772","wheelchair":"yes"}}, "geometry":{"type":"MultiPolygon","coordinates":[[[[-3.98571,51.61797],[-3.98594,51.61767],[-3.98605,51.6177],[-3.98598,51.6178],[-3.98604,51.61782],[-3.98594,51.61795],[-3.98589,51.61802],[-3.98571,51.61797]]]]}},
{ "type":"Feature","properties":{"osm_way_id":"437079149","name":"Premier","building":"yes","shop":"supermarket","other":{"addr:postcode":"SA6 6LQ","addr:street":"Rhodfa Fadog","fhrs:id":"740866"}}, "geometry":{"type":"MultiPolygon","coordinates":[[[[-3.92372,51.68333],[-3.92371,51.68318],[-3.9236,51.68318],[-3.9236,51.68312],[-3.9231,51.68313],[-3.9231,51.68329],[-3.9232,51.68329],[-3.9232,51.68334],[-3.92372,51.68333]]]]}},
{ "type":"Feature","properties":{"osm_way_id":"439554696","name":"LIDL","building":"yes","shop":"supermarket","other":{"addr:postcode":"SA6 6JA","addr:street":"Sway Road","brand":"Lidl","brand:wikidata":"Q151954","fhrs:id":"869143","source:addr":"FHRS Open Data"}}, "geometry":{"type":"MultiPolygon","coordinates":[[[[-3.92151,51.66949],[-3.92146,51.66953],[-3.92126,51.66975],[-3.92131,51.66977],[-3.9212,51.66989],[-3.92097,51.66981],[-3.92084,51.66976],[-3.92088,51.66972],[-3.92127,51.6693],[-3.92146,51.66937],[-3.9214,51.66945],[-3.92151,51.66949]]]]}},
{ "type":"Feature","properties":{"osm_way_id":"460521031","name":"Aldi","shop":"supermarket","other":{"addr:postcode":"SA5 8LJ","addr:street":"Carmarthen Road","brand":"ALDI","brand:wikidata":"Q41171672","brand:wikipedia":"en:Aldi","fhrs:id":"338695"}}, "geometry":{"type":"MultiPolygon","coordinates":[[[[-3.96622,51.63574],[-3.96653,51.63542],[-3.96625,51.63532],[-3.96631,51.63526],[-3.96615,51.6352],[-3.9661,51.63525],[-3.96583,51.63515],[-3.96551,51.63547],[-3.96622,51.63574]]]]}},
{ "type":"Feature","properties":{"osm_way_id":"505707232","name":"Sainsbury's","building":"retail","shop":"supermarket","other":{"addr:housename":"Sainsburys","addr:housenumber":"14","addr:postcode":"SA4 4NW","addr:street":"Alexandra Road","brand":"Sainsbury's","brand:wikidata":"Q152096","brand:wikipedia":"en:Sainsbury's","fhrs:id":"63129","opening_hours":"Mo-Sa 07:00-22:00,Su 10:00-16:00","operator":"Sainsbury's","phone":"+44 1792 893713"}}, "geometry":{"type":"MultiPolygon","coordinates":[[[[-4.04313,51.66973],[-4.0428,51.66973],[-4.04281,51.66978],[-4.04262,51.66979],[-4.04261,51.66943],[-4.04312,51.66943],[-4.04313,51.66973]]]]}},
{ "type":"Feature","properties":{"osm_way_id":"514299839","name":"Aldi","building":"retail","shop":"supermarket","other":{"addr:postcode":"SA4 4QN","addr:street":"Millers Drive","addr:town":"Gorseinon","brand":"ALDI","brand:wikidata":"Q41171672","brand:wikipedia":"en:Aldi","fhrs:id":"654795"}}, "geometry":{"type":"MultiPolygon","coordinates":[[[[-4.03438,51.66699],[-4.0348,51.66701],[-4.03481,51.66695],[-4.03485,51.66651],[-4.03443,51.6665],[-4.03438,51.66699]]]]}},
{ "type":"Feature","properties":{"osm_way_id":"514347377","name":"Julians Supermarket","building":"retail","shop":"supermarket","other":{"addr:housenumber":"125","addr:postcode":"SA4 4YE","addr:street":"Frampton Road","operator":"Julian's"}}, "geometry":{"type":"MultiPolygon","coordinates":[[[[-4.05262,51.67316],[-4.05232,51.67309],[-4.05238,51.67297],[-4.05268,51.67304],[-4.05262,51.67316]]]]}},
{ "type":"Feature","properties":{"osm_way_id":"638462827","name":"Iceland","building":"yes","shop":"supermarket","other":{"brand":"Iceland","brand:wikidata":"Q721810"}}, "geometry":{"type":"MultiPolygon","coordinates":[[[[-3.92564,51.66459],[-3.92484,51.66463],[-3.92482,51.66447],[-3.92487,51.66447],[-3.92486,51.66444],[-3.92519,51.66443],[-3.9252,51.66447],[-3.92562,51.66445],[-3.92564,51.66459]]]]}},
{ "type":"Feature","properties":{"osm_way_id":"638465775","name":"Spar","building":"yes","shop":"supermarket","other":{"brand":"Spar","brand:wikidata":"Q610492"}}, "geometry":{"type":"MultiPolygon","coordinates":[[[[-3.92538,51.66296],[-3.92536,51.66286],[-3.92514,51.66287],[-3.92514,51.66292],[-3.92521,51.66292],[-3.92522,51.66297],[-3.92538,51.66296]]]]}},
{ "type":"Feature","properties":{"osm_way_id":"769398307","name":"Lidl","building":"yes","shop":"supermarket","other":{"addr:country":"GB","addr:postcode":"SA7 9WL","addr:street":"Trallwn Road","brand":"Lidl","brand:wikidata":"Q151954","brand:wikipedia":"en:Lidl","fhrs:id":"869138"}}, "geometry":{"type":"MultiPolygon","coordinates":[[[[-3.89138,51.65197],[-3.89143,51.65166],[-3.89255,51.65174],[-3.89253,51.65187],[-3.89244,51.65187],[-3.89241,51.65204],[-3.89138,51.65197]]]]}},
{ "type":"Feature","properties":{"osm_way_id":"853037198","name":"Lidl","building":"yes","shop":"supermarket","other":{"addr:country":"GB","addr:postcode":"SA5 5ET","addr:street":"Pentregethin Road","brand":"Lidl","brand:wikidata":"Q151954","brand:wikipedia":"en:Lidl","fhrs:id":"869145"}}, "geometry":{"type":"MultiPolygon","coordinates":[[[[-3.96961,51.64614],[-3.96953,51.6461],[-3.96961,51.64604],[-3.96967,51.64608],[-3.96986,51.64595],[-3.97011,51.6461],[-3.97017,51.64606],[-3.97037,51.64618],[-3.97005,51.6464],[-3.96961,51.64614]]]]}},
{ "type":"Feature","properties":{"osm_way_id":"945616598","name":"CKs Supermarket","building":"yes","shop":"supermarket","other":{"addr:housenumber":"11","addr:postcode":"SA4 3XN","addr:street":"Station Road","fhrs:id":"66726"}}, "geometry":{"type":"MultiPolygon","coordinates":[[[[-4.10125,51.64248],[-4.10196,51.6424],[-4.10194,51.64232],[-4.10199,51.64231],[-4.10197,51.64225],[-4.10192,51.64226],[-4.1019,51.64217],[-4.10119,51.64225],[-4.10125,51.64248]]]]}},
{ "type":"Feature","properties":{"osm_way_id":"1037130002","name":"Aldi","building":"retail","shop":"supermarket","other":{"addr:city":"Swansea","addr:housenumber":"96","addr:postcode":"SA7 9AF","addr:street":"Samlet Road","brand":"ALDI","brand:wikidata":"Q41171672","brand:wikipedia":"en:Aldi","fhrs:id":"862246"}}, "geometry":{"type":"MultiPolygon","coordinates":[[[[-3.90442,51.66071],[-3.90432,51.66068],[-3.90431,51.66071],[-3.90397,51.66063],[-3.90409,51.66043],[-3.90411,51.66043],[-3.90429,51.66014],[-3.90461,51.66022],[-3.90464,51.66016],[-3.90474,51.66019],[-3.90442,51.66071]]]]}}
]
}
