{
"type": "FeatureCollection",
"features": [
{ "type":"Feature","properties":{"osm_id":"8724987762","other":{"power":"pole"}}, "geometry":{"type":"Point","coordinates":[-1.23894,52.02387 ]}},
{ "type":"Feature","properties":{"osm_way_id":"58898044","name":"Amazon.co.uk","building":"warehouse","other":{"addr:city":"Brogborough","addr:country":"GB","addr:postcode":"MK43 0ZA","addr:street":"Marston Gate","addr:town":"Ridgmont","fhrs:authority":"Central Bedfordshire","fhrs:id":"766255","fhrs:local_authority_id":"77370","operator":"Amazon.co.uk"}}, "geometry":{"type":"MultiPolygon","coordinates":[[[[-0.59156,52.03105],[-0.59521,52.0286],[-0.595,52.02848],[-0.59507,52.02844],[-0.5941,52.02789],[-0.59404,52.02793],[-0.59386,52.02782],[-0.59019,52.03027],[-0.59156,52.03105]]]]}},
{ "type":"Feature","properties":{"osm_way_id":"58898050","name":"Rajapack","building":"warehouse","other":{"addr:housenumber":"Unit 1"}}, "geometry":{"type":"MultiPolygon","coordinates":[[[[-0.59692,52.02843],[-0.59587,52.02896],[-0.59688,52.02963],[-0.59788,52.0291],[-0.59771,52.02901],[-0.59778,52.02899],[-0.5973,52.02863],[-0.59734,52.0286],[-0.59723,52.02851],[-0.59712,52.02858],[-0.59692,52.02843]]]]}},
{ "type":"Feature","properties":{"osm_way_id":"58898055","name":"Fedex","building":"warehouse","other":{"addr:city":"Brogborough","addr:country":"GB","addr:postcode":"MK43 0YL","addr:street":"Badgers Rise","addr:unit":"Unit 6","fhrs:authority":"Central Bedfordshire","fhrs:id":"929244","fhrs:local_authority_id":"160761"}}, "geometry":{"type":"MultiPolygon","coordinates":[[[[-0.58977,52.03247],[-0.58918,52.03286],[-0.58786,52.03212],[-0.58846,52.03171],[-0.58963,52.03236],[-0.58974,52.03229],[-0.58997,52.03242],[-0.58984,52.03251],[-0.58977,52.03247]]]]}},
{ "type":"Feature","properties":{"osm_way_id":"110310836","name":"Vauxhall Aftersales Warehouse","building":"warehouse"},"geometry":{"type":"MultiPolygon","coordinates":[[[[-0.48541,51.91767],[-0.48526,51.91752],[-0.4854,51.91746],[-0.48482,51.91691],[-0.48468,51.91696],[-0.48427,51.91654],[-0.48438,51.9165],[-0.48355,51.91568],[-0.48343,51.91574],[-0.48252,51.91489],[-0.4822,51.91501],[-0.48215,51.91496],[-0.4797,51.91589],[-0.47976,51.91594],[-0.47948,51.91607],[-0.48031,51.91691],[-0.48017,51.91697],[-0.48103,51.91781],[-0.48119,51.91775],[-0.48177,51.91832],[-0.48162,51.91838],[-0.48207,51.9188],[-0.4822,51.91874],[-0.48273,51.91926],[-0.4834,51.91901],[-0.483,51.91862],[-0.48541,51.91767]]]]}},
{ "type":"Feature","properties":{"osm_way_id":"140724628","building":"warehouse"},"geometry":{"type":"MultiPolygon","coordinates":[[[[-0.66406,51.91161],[-0.66363,51.91164],[-0.66362,51.91167],[-0.66337,51.91169],[-0.66268,51.91173],[-0.66267,51.9117],[-0.66256,51.91169],[-0.66238,51.91042],[-0.66388,51.91033],[-0.66406,51.91161]]]]}},
{ "type":"Feature","properties":{"osm_way_id":"142720330","building":"warehouse"},"geometry":{"type":"MultiPolygon","coordinates":[[[[-0.66188,51.90941],[-0.66127,51.90969],[-0.66089,51.90937],[-0.66152,51.90909],[-0.66188,51.90941]]]]}},
{ "type":"Feature","properties":{"osm_way_id":"142720333","building":"warehouse"},"geometry":{"type":"MultiPolygon","coordinates":[[[[-0.66098,51.91025],[-0.66086,51.9103],[-0.66084,51.91028],[-0.66056,51.9104],[-0.66042,51.91028],[-0.66057,51.91022],[-0.66053,51.91018],[-0.66078,51.91007],[-0.66098,51.91025]]]]}},
{ "type":"Feature","properties":{"osm_way_id":"142722658","name":"Leighton Buzzard Delivery Office","building":"warehouse","other":{"operator":"Royal Mail"}}, "geometry":{"type":"MultiPolygon","coordinates":[[[[-0.65713,51.90806],[-0.65686,51.90818],[-0.6566,51.90795],[-0.65687,51.90783],[-0.65713,51.90806]]]]}},
{ "type":"Feature","properties":{"osm_way_id":"587282019","name":"Victory Lighting","building":"warehouse","other":{"addr:housenumber":"3"}}, "geometry":{"type":"MultiPolygon","coordinates":[[[[-0.51035,51.87662],[-0.51011,51.87673],[-0.50973,51.87644],[-0.50997,51.87632],[-0.51035,51.87662]]]]}},
{ "type":"Feature","properties":{"osm_way_id":"611821192","building":"warehouse"},"geometry":{"type":"MultiPolygon","coordinates":[[[[-0.39674,51.98194],[-0.39615,51.98188],[-0.39619,51.98176],[-0.39677,51.98182],[-0.39674,51.98194]]]]}},
{ "type":"Feature","properties":{"osm_way_id":"611821200","building":"warehouse"},"geometry":{"type":"MultiPolygon","coordinates":[[[[-0.39638,51.98218],[-0.39588,51.98227],[-0.39577,51.98203],[-0.39591,51.98201],[-0.39598,51.98216],[-0.39634,51.9821],[-0.39638,51.98218]]]]}},
{ "type":"Feature","properties":{"osm_way_id":"611821201","building":"warehouse"},"geometry":{"type":"MultiPolygon","coordinates":[[[[-0.39703,51.98217],[-0.39695,51.98224],[-0.3965,51.98205],[-0.39658,51.98198],[-0.39703,51.98217]]]]}},
{ "type":"Feature","properties":{"osm_way_id":"694826547","name":"City Electrical Factors","building":"warehouse","other":{"addr:city":"Biggleswade","addr:housenumber":"Unit 2","addr:postcode":"SG18 8XP","addr:street":"Juno Place","architect":"Woods Hardwick","description":"Warehouse and distribution facility for online orders.","year_of_construction":"2018"}}, "geometry":{"type":"MultiPolygon","coordinates":[[[[-0.2352,52.07811],[-0.23351,52.07889],[-0.23234,52.07795],[-0.23404,52.07716],[-0.2352,52.07811]]]]}},
{ "type":"Feature","properties":{"osm_way_id":"694826548","name":"Stonemanor","building":"warehouse","other":{"addr:city":"Biggleswade","addr:housenumber":"Unit 1","addr:postcode":"SG18 8XP","addr:street":"Juno Place"}}, "geometry":{"type":"MultiPolygon","coordinates":[[[[-0.23763,52.07804],[-0.23626,52.07857],[-0.23565,52.07797],[-0.23701,52.07744],[-0.23763,52.07804]]]]}},
{ "type":"Feature","properties":{"osm_way_id":"952825815","name":"Smiths High Performance Metals","building":"warehouse","other":{"addr:city":"Biggleswade","addr:housenumber":"3","addr:postcode":"SG18 8XP","addr:street":"Juno Place","description":"Metal suppliers & stockholders to the motor sport industry","year_of_construction":"2018"}}, "geometry":{"type":"MultiPolygon","coordinates":[[[[-0.23574,52.07873],[-0.23485,52.07916],[-0.23526,52.07949],[-0.23612,52.07908],[-0.23591,52.07892],[-0.23595,52.0789],[-0.23574,52.07873]]]]}},
{ "type":"Feature","properties":{"osm_way_id":"986723065","name":"Deta Electrical Co Ltd","building":"warehouse","other":{"addr:city":"Chalton","addr:housename":"Panattoni Park","addr:postcode":"LU4 9TT","addr:street":"Luton Rd","phone":"+441582 544500","website":"https:\/\/www.deta.co.uk\/"}}, "geometry":{"type":"MultiPolygon","coordinates":[[[[-0.48877,51.92117],[-0.48795,51.92116],[-0.48798,51.92023],[-0.4888,51.92024],[-0.48877,51.92117]]]]}},
{ "type":"Feature","properties":{"osm_way_id":"1012198577","building":"warehouse"},"geometry":{"type":"MultiPolygon","coordinates":[[[[-0.54532,51.89421],[-0.54519,51.89474],[-0.54388,51.89462],[-0.5439,51.89452],[-0.54366,51.8945],[-0.54366,51.89445],[-0.54322,51.89441],[-0.54326,51.89419],[-0.54299,51.89417],[-0.54296,51.89428],[-0.54267,51.89426],[-0.54273,51.89398],[-0.54532,51.89421]]]]}}
]
}
