{
"type": "FeatureCollection",
"features": [
{ "type":"Feature","properties":{"osm_id":"269159985","name":"Co-operative","other":{"shop":"supermarket","fhrs:id":"712259","addr:city":"St Austell","addr:place":"St Stephen","addr:street":"Fore Street","source:addr":"FHRS Open Data","addr:country":"GB","addr:postcode":"PL26 7NN","addr:housename":"The Co Operative","addr:housenumber":"15"}}, "geometry":{"type":"Point","coordinates":[-4.89094,50.34369 ]}},
{ "type":"Feature","properties":{"osm_id":"275664706","name":"Porhleven Supermarket","other":{"shop":"supermarket","operator":"Costcutter"}}, "geometry":{"type":"Point","coordinates":[-5.31624,50.0857 ]}},
{ "type":"Feature","properties":{"osm_id":"683832458","name":"The co-operative food","other":{"shop":"supermarket","addr:city":"Penzance","addr:place":"Newlyn","addr:street":"The Strand","addr:country":"GB","addr:postcode":"TR18 5HW","opening_hours":"Mo-Su 07:00-23:00","addr:housenumber":"18"}}, "geometry":{"type":"Point","coordinates":[-5.54953,50.10608 ]}},
{ "type":"Feature","properties":{"osm_id":"684322484","name":"Co-op Food","other":{"addr:city":"Falmouth","addr:housename":"Cooperative Food","addr:postcode":"TR11 4PN","addr:street":"Mongleath Road","brand":"Co-op Food","brand:wikidata":"Q3277439","brand:wikipedia":"en:Co-op Food","fhrs:id":"760491","opening_hours":"Mo-Su 07:00-23:00","shop":"supermarket"}}, "geometry":{"type":"Point","coordinates":[-5.08889,50.14718 ]}},
{ "type":"Feature","properties":{"osm_id":"763626649","name":"Spar","other":{"addr:postcode":"PL27 6TB","addr:street":"Dunders Hill","brand":"Spar","brand:wikidata":"Q610492","fhrs:id":"402398","shop":"supermarket"}}, "geometry":{"type":"Point","coordinates":[-4.91467,50.57317 ]}},
{ "type":"Feature","properties":{"osm_id":"975472060","name":"Spar","other":{"brand":"Spar","brand:wikidata":"Q610492","brand:wikipedia":"en:Spar (retailer)","shop":"supermarket"}}, "geometry":{"type":"Point","coordinates":[-4.75121,50.66322 ]}},
{ "type":"Feature","properties":{"osm_id":"1226706555","name":"Aldi","other":{"addr:city":"Newquay","addr:postcode":"TR7 1SW","addr:street":"Cliff Road","alt_name":"ALDI Newquay","brand":"ALDI","brand:wikidata":"Q41171672","brand:wikipedia":"en:Aldi","shop":"supermarket","wheelchair":"yes"}}, "geometry":{"type":"Point","coordinates":[-5.07641,50.41535 ]}},
{ "type":"Feature","properties":{"osm_id":"1290806126","name":"Penwithick P O & Stores","other":{"addr:city":"Penwithick","addr:housenumber":"17","addr:postcode":"PL26 8UQ","addr:street":"Penwithick Road","opening_hours":"Mo-Fr 07:00-22:00; Su 09:00-21:00","phone":"+44 1726 850248","shop":"supermarket","website":"http:\/\/supermarket.londis.co.uk\/43112-penwithick-p-o-stores"}}, "geometry":{"type":"Point","coordinates":[-4.78039,50.3729 ]}},
{ "type":"Feature","properties":{"osm_id":"1334019249","name":"Spar","other":{"addr:city":"Truro","addr:country":"GB","addr:place":"Threemilestone","addr:postcode":"TR3 6DY","addr:street":"Pengelly Way","brand":"Spar","brand:wikidata":"Q610492","brand:wikipedia":"en:Spar (retailer)","cmt":"31-MAY-11 17:19:30","description":"31-MAY-11 17:19:30","fhrs:id":"493778","shop":"supermarket","sym":"Shopping Center"}}, "geometry":{"type":"Point","coordinates":[-5.11468,50.26269 ]}},
{ "type":"Feature","properties":{"osm_id":"1334030712","name":"Costcutter","other":{"brand":"Costcutter","brand:wikidata":"Q5175072","brand:wikipedia":"en:Costcutter","shop":"supermarket"}}, "geometry":{"type":"Point","coordinates":[-5.07653,50.18514 ]}},
{ "type":"Feature","properties":{"osm_id":"2140171163","other":{"amenity":"charging_station","voltage":"230","amperage":"32","operator":"POLAR","socket:type2":"2","socket:bs1363":"2","authentication:membership_card":"yes"}}, "geometry":{"type":"Point","coordinates":[-4.23335,50.42037 ]}},
{ "type":"Feature","properties":{"osm_id":"2483732934","other":{"amenity":"charging_station","voltage":"230","amperage":"32","operator":"POLAR","socket:type2":"2","socket:bs1363":"2","authentication:membership_card":"yes"}}, "geometry":{"type":"Point","coordinates":[-4.23336,50.4204 ]}},
{ "type":"Feature","properties":{"osm_id":"3013557079","man_made":"surveillance","other":{"camera:mount":"wall","surveillance":"outdoor","surveillance:type":"camera"}}, "geometry":{"type":"Point","coordinates":[-5.68004,50.12449 ]}},
{ "type":"Feature","properties":{"osm_id":"3525519201","name":"Spar","other":{"brand":"Spar","brand:wikidata":"Q610492","opening_hours":"Mo-Su 06:30-20:30","shop":"supermarket","website":"https:\/\/www.spar.co.uk\/storefinder\/details\/default?code=AWL24839"}}, "geometry":{"type":"Point","coordinates":[-4.69074,50.69 ]}},
{ "type":"Feature","properties":{"osm_id":"3670893145","name":"The Co-operative Food","other":{"opening_hours":"PH,Mo-Su 07:00-22:00","shop":"supermarket"}}, "geometry":{"type":"Point","coordinates":[-4.36086,50.63707 ]}},
{ "type":"Feature","properties":{"osm_id":"4681623194","name":"The Great Cornish Food Company","other":{"shop":"supermarket","phone":"+44 1872 306060","fhrs:id":"900457","website":"http:\/\/greatcornishfood.co.uk\/store","addr:city":"Truro","addr:place":"Tregurra Park","addr:street":"Newquey Road","source:addr":"FHRS Open Data","addr:postcode":"TR1 1RH","opening_hours":"Mo-Sa 08:00-19:00; Su 10:00-16:00","addr:housename":"The Great Cornish Food Company"}}, "geometry":{"type":"Point","coordinates":[-5.03452,50.27292 ]}},
{ "type":"Feature","properties":{"osm_id":"4702323986","name":"Aldi","other":{"addr:city":"Redruth","addr:country":"GB","addr:housename":"Avers Roundabout","addr:postcode":"TR15 1FH","addr:street":"Close Hill","brand":"ALDI","brand:wikidata":"Q41171672","brand:wikipedia":"en:Aldi","opening_hours":"Mo-Sa 08:00-22:00; Su 10:00-16:00","shop":"supermarket"}}, "geometry":{"type":"Point","coordinates":[-5.23238,50.2426 ]}},
{ "type":"Feature","properties":{"osm_id":"4900369135","name":"Landsdowne","other":{"shop":"supermarket"}}, "geometry":{"type":"Point","coordinates":[-4.54398,50.8299 ]}},
{ "type":"Feature","properties":{"osm_id":"4911499386","other":{"shop":"supermarket"}}, "geometry":{"type":"Point","coordinates":[-4.62593,50.32741 ]}},
{ "type":"Feature","properties":{"osm_id":"5646146816","name":"Co-op Food","other":{"brand":"Co-op Food","brand:wikidata":"Q3277439","brand:wikipedia":"en:Co-op Food","shop":"supermarket"}}, "geometry":{"type":"Point","coordinates":[-5.0148,50.15875 ]}},
{ "type":"Feature","properties":{"osm_id":"5734483649","name":"Co-op Food","other":{"brand":"Co-op Food","brand:wikidata":"Q3277439","brand:wikipedia":"en:Co-op Food","shop":"supermarket"}}, "geometry":{"type":"Point","coordinates":[-4.22098,50.51576 ]}},
{ "type":"Feature","properties":{"osm_id":"6456167180","name":"Costcutter","other":{"shop":"supermarket","brand":"Costcutter","addr:postcode":"TR3 7DB","opening_hours":"Mo-Su 07:00-21:00","addr:housename":"Combine House","brand:wikidata":"Q5175072","brand:wikipedia":"en:Costcutter"}}, "geometry":{"type":"Point","coordinates":[-5.16783,50.19224 ]}},
{ "type":"Feature","properties":{"osm_id":"9461758049","name":"co-op","other":{"shop":"supermarket"}}, "geometry":{"type":"Point","coordinates":[-4.81598,50.42585 ]}},
{ "type":"Feature","properties":{"osm_way_id":"60910982","name":"Tesco Extra","building":"retail","shop":"supermarket","other":{"addr:housename":"Carn Brea Industrial Estate","addr:postcode":"TR15 3QJ","addr:street":"Station Road","alt_name":"Tesco Redruth Extra","brand":"Tesco Extra","brand:wikidata":"Q25172225","brand:wikipedia":"en:Tesco Extra","building:levels":"1","fhrs:id":"455267","opening_hours":"24\/7"}}, "geometry":{"type":"MultiPolygon","coordinates":[[[[-5.26997,50.22208],[-5.26973,50.22169],[-5.26993,50.22164],[-5.26978,50.2214],[-5.26904,50.22159],[-5.26889,50.22136],[-5.26888,50.22136],[-5.26885,50.22131],[-5.26863,50.22136],[-5.2686,50.22132],[-5.26853,50.22134],[-5.2685,50.22129],[-5.26844,50.2213],[-5.26844,50.22131],[-5.26837,50.22133],[-5.26839,50.22136],[-5.26847,50.22134],[-5.26847,50.22135],[-5.26825,50.22141],[-5.26824,50.2214],[-5.26807,50.22145],[-5.26818,50.22163],[-5.26834,50.22159],[-5.26853,50.2219],[-5.26819,50.22198],[-5.26848,50.22245],[-5.26997,50.22208]]]]}},
{ "type":"Feature","properties":{"osm_way_id":"60916485","name":"Lidl","building":"retail","shop":"supermarket","other":{"addr:city":"Hayle","addr:housename":"Loggans","addr:postcode":"TR27 5PN","addr:street":"Carwin Rise","branch":"Hayle","brand":"Lidl","brand:wikidata":"Q151954","brand:wikipedia":"en:Lidl","opening_hours":"Mo-Sa 08:00-21:00 Su 10:00-16:00","roof:colour":"gray","roof:shape":"gabled"}}, "geometry":{"type":"MultiPolygon","coordinates":[[[[-5.40119,50.19669],[-5.40082,50.19683],[-5.40086,50.19688],[-5.40069,50.19694],[-5.40065,50.19689],[-5.40037,50.197],[-5.40017,50.19678],[-5.40098,50.19647],[-5.40119,50.19669]]]]}},
{ "type":"Feature","properties":{"osm_way_id":"113937873","name":"Tesco","building":"retail","shop":"supermarket","other":{"addr:city":"Wadebridge","addr:country":"GB","addr:postcode":"PL27 7HW","addr:street":"West Hill","atm":"yes","brand":"Tesco","brand:wikidata":"Q487494","brand:wikipedia":"en:Tesco","designation":"Wadebridge Superstore","fhrs:id":"402377","opening_hours":"Mo-Sa 06:00-24:00; Su 10:00-16:00","source:addr":"FHRS Open Data"}}, "geometry":{"type":"MultiPolygon","coordinates":[[[[-4.85726,50.51716],[-4.85733,50.51725],[-4.85717,50.51735],[-4.85697,50.51739],[-4.85676,50.51744],[-4.85657,50.5175],[-4.85627,50.5169],[-4.85658,50.51684],[-4.85653,50.51671],[-4.85708,50.51661],[-4.85718,50.51682],[-4.85724,50.51694],[-4.85738,50.51713],[-4.85726,50.51716]]]]}},
{ "type":"Feature","properties":{"osm_way_id":"118443637","name":"Asda","building":"yes","shop":"supermarket","other":{"brand":"Asda","fhrs:id":"517249","alt_name":"Asda Newquay Supermarket","operator":"Asda Stores Ltd","addr:city":"Newquay","wheelchair":"yes","addr:street":"Oakleigh Terrace","addr:postcode":"TR7 1SZ","brand:wikidata":"Q297410","brand:wikipedia":"en:Asda","contact:twitter":"@asda","contact:website":"https:\/\/storelocator.asda.com\/south-west\/newquay\/oakleigh-terrace","contact:facebook":"https:\/\/www.facebook.com\/asda\/"}}, "geometry":{"type":"MultiPolygon","coordinates":[[[[-5.07551,50.41357],[-5.07512,50.41365],[-5.07478,50.41296],[-5.07507,50.4129],[-5.0752,50.41317],[-5.0753,50.41315],[-5.07551,50.41357]]]]}},
{ "type":"Feature","properties":{"osm_way_id":"126137457","name":"Lidl","building":"retail","shop":"supermarket","other":{"addr:city":"Wadebridge","addr:country":"GB","addr:postcode":"PL27 7AL","addr:street":"Eddystone Road","brand":"Lidl","brand:wikidata":"Q151954","brand:wikipedia":"en:Lidl","designation":"Wadebridge","fhrs:id":"1137272","opening_hours":"Mo-Sa 08:00-21:00; Su 11:00-17:00"}}, "geometry":{"type":"MultiPolygon","coordinates":[[[[-4.83968,50.51868],[-4.8394,50.51851],[-4.83892,50.51883],[-4.83921,50.519],[-4.83968,50.51868]]]]}},
{ "type":"Feature","properties":{"osm_way_id":"141542304","name":"Co-op Food","shop":"supermarket","other":{"brand":"Co-op Food","brand:wikidata":"Q3277439","brand:wikipedia":"en:Co-op Food"}}, "geometry":{"type":"MultiPolygon","coordinates":[[[[-4.6799,50.62035],[-4.67962,50.62029],[-4.67939,50.62024],[-4.67939,50.62024],[-4.67949,50.61999],[-4.67979,50.62008],[-4.68006,50.62015],[-4.67994,50.62031],[-4.6799,50.62035]]]]}},
{ "type":"Feature","properties":{"osm_way_id":"142610447","name":"Co-op Food","building":"yes","shop":"supermarket","other":{"addr:city":"Liskeard","addr:postcode":"PL14 6AD","addr:street":"Barras Street","brand":"Co-op Food","brand:wikidata":"Q3277439","brand:wikipedia":"en:Co-op Food","designation":"The Co-operative Food","fhrs:id":"463408"}}, "geometry":{"type":"MultiPolygon","coordinates":[[[[-4.46526,50.45413],[-4.46559,50.45413],[-4.46587,50.45418],[-4.46588,50.45422],[-4.46596,50.45422],[-4.46596,50.45416],[-4.46611,50.45415],[-4.46613,50.45428],[-4.46608,50.4543],[-4.46589,50.45432],[-4.46587,50.45434],[-4.46563,50.45433],[-4.46563,50.45429],[-4.46559,50.4543],[-4.46559,50.45427],[-4.46526,50.45426],[-4.46526,50.45413]]]]}},
{ "type":"Feature","properties":{"osm_way_id":"143274263","name":"Pets at Home","building":"yes","shop":"supermarket","other":{"website":"http:\/\/www.petsathome.com\/","addr:street":"Liskeard Retail Park","addr:postcode":"PL14 3PR","addr:housename":"Pets at Home"}}, "geometry":{"type":"MultiPolygon","coordinates":[[[[-4.45265,50.45029],[-4.45284,50.45017],[-4.45313,50.45034],[-4.45302,50.45041],[-4.45295,50.45046],[-4.45265,50.45029]]]]}},
{ "type":"Feature","properties":{"osm_way_id":"150900526","name":"Tesco","building":"retail","shop":"supermarket","other":{"addr:city":"Camborne","addr:country":"GB","addr:postcode":"TR14 8DT","addr:street":"Wesley Street","brand":"Tesco","brand:wikidata":"Q487494","brand:wikipedia":"en:Tesco","fhrs:id":"581680","wheelchair":"yes"}}, "geometry":{"type":"MultiPolygon","coordinates":[[[[-5.2928,50.21492],[-5.29264,50.21505],[-5.29236,50.21493],[-5.29207,50.2152],[-5.2921,50.21522],[-5.29206,50.21526],[-5.2915,50.215],[-5.29142,50.21507],[-5.2913,50.21502],[-5.29126,50.21505],[-5.29109,50.21497],[-5.29172,50.21444],[-5.29216,50.21464],[-5.29251,50.21479],[-5.2928,50.21492]]]]}},
{ "type":"Feature","properties":{"osm_way_id":"152216967","name":"Tesco","building":"yes","shop":"supermarket","other":{"addr:postcode":"PL28 8EL","brand":"Tesco","brand:wikidata":"Q487494","brand:wikipedia":"en:Tesco","designation":"Padstow Superstore"}}, "geometry":{"type":"MultiPolygon","coordinates":[[[[-4.94618,50.53539],[-4.94651,50.53517],[-4.94598,50.53485],[-4.94565,50.53507],[-4.94618,50.53539]]]]}},
{ "type":"Feature","properties":{"osm_way_id":"156494049","name":"Tesco","building":"retail","shop":"supermarket","other":{"addr:city":"Penzance","addr:country":"GB","addr:postcode":"TR18 3DU","addr:street":"Branwell Lane","alt_name":"Tesco Penzance Superstore","brand":"Tesco","brand:wikidata":"Q487494","brand:wikipedia":"en:Tesco","fhrs:id":"809246"}}, "geometry":{"type":"MultiPolygon","coordinates":[[[[-5.52671,50.12826],[-5.52652,50.12834],[-5.52645,50.12827],[-5.52627,50.12834],[-5.52621,50.12828],[-5.526,50.12836],[-5.5256,50.12796],[-5.52556,50.12798],[-5.52545,50.12787],[-5.52593,50.12767],[-5.5259,50.12765],[-5.52607,50.12758],[-5.52617,50.12768],[-5.52614,50.12769],[-5.52671,50.12826]]]]}},
{ "type":"Feature","properties":{"osm_way_id":"158203802","name":"The Co-operative Food","building":"yes","shop":"supermarket","other":{"alt_name":"The Co-operative Food","addr:city":"Millbrook","addr:street":"West Street","addr:postcode":"PL10 1AF","addr:housenumber":"97"}}, "geometry":{"type":"MultiPolygon","coordinates":[[[[-4.21816,50.3476],[-4.21809,50.3475],[-4.21789,50.34755],[-4.21796,50.34765],[-4.21816,50.3476]]]]}},
{ "type":"Feature","properties":{"osm_way_id":"158210126","name":"Sainsbury's","building":"yes","shop":"supermarket","other":{"addr:city":"Torpoint","addr:postcode":"PL11 2JW","addr:street":"Antony Road","alt_name":"Sainsbury's Torpoint Superstore","brand":"Sainsbury's","brand:wikidata":"Q152096","brand:wikipedia":"en:Sainsbury's","fhrs:id":"606248","opening_hours":"Mo-Sa 07:00-21:00; Su 10:00-16:00","source:addr":"FHRS Open Data","wheelchair":"yes"}}, "geometry":{"type":"MultiPolygon","coordinates":[[[[-4.19967,50.37673],[-4.19926,50.37671],[-4.1992,50.37709],[-4.19962,50.37711],[-4.19967,50.37673]]]]}},
{ "type":"Feature","properties":{"osm_way_id":"158590886","name":"Spar","building":"yes","shop":"supermarket","other":{"addr:city":"Helston","addr:country":"GB","addr:place":"Mullion","addr:postcode":"TR12 7HQ","addr:street":"Churchtown","brand":"Spar","brand:wikidata":"Q610492","brand:wikipedia":"en:Spar (retailer)","designation":"Bailey Mullion","fhrs:id":"536187","opening_hours":"Mo-Su 06:00-21:00"}}, "geometry":{"type":"MultiPolygon","coordinates":[[[[-5.24193,50.0274],[-5.24191,50.02736],[-5.24177,50.02739],[-5.24172,50.0274],[-5.24174,50.02744],[-5.24193,50.0274]]]]}},
{ "type":"Feature","properties":{"osm_way_id":"158593701","name":"Lidl","building":"yes","shop":"supermarket","other":{"addr:country":"GB","addr:postcode":"TR13 8HN","addr:street":"Penzance Road","brand":"Lidl","brand:wikidata":"Q151954","brand:wikipedia":"en:Lidl","designation":"Helston Cornwall","fhrs:id":"1152345"}}, "geometry":{"type":"MultiPolygon","coordinates":[[[[-5.28046,50.10006],[-5.28006,50.1],[-5.28031,50.09931],[-5.28071,50.09937],[-5.28046,50.10006]]]]}},
{ "type":"Feature","properties":{"osm_way_id":"176716370","name":"Co-op Food","building":"yes","shop":"supermarket","other":{"addr:city":"St Austell","addr:housename":"Co-Operative","addr:postcode":"PL25 5BS","addr:street":"West Hill","brand":"Co-op Food","brand:wikidata":"Q3277439","brand:wikipedia":"en:Co-op Food","fhrs:id":"694006","operator":"The Co-operative Group","operator:wikidata":"Q117202","operator:wikipedia":"en:The Co-operative Group","source:addr":"FHRS Open Data"}}, "geometry":{"type":"MultiPolygon","coordinates":[[[[-4.7971,50.33672],[-4.79705,50.33675],[-4.79691,50.33667],[-4.79685,50.33671],[-4.79681,50.33668],[-4.7967,50.33676],[-4.79689,50.33687],[-4.79684,50.3369],[-4.79696,50.33696],[-4.7969,50.33701],[-4.79702,50.33707],[-4.79695,50.33712],[-4.79729,50.33731],[-4.79767,50.33704],[-4.7971,50.33672]]]]}},
{ "type":"Feature","properties":{"osm_way_id":"183628466","name":"Asda","building":"retail","shop":"supermarket","other":{"brand":"Asda","fhrs:id":"681139","alt_name":"ASDA Bodmin Superstore","operator":"Asda Stores Ltd","addr:city":"Bodmin","addr:street":"Launceston Road","designation":"Bodmin Superstore","addr:country":"GB","addr:postcode":"PL31 2AR","brand:wikidata":"Q297410","brand:wikipedia":"en:Asda","contact:twitter":"@asda","contact:website":"https:\/\/storelocator.asda.com\/south-west\/bodmin\/launceston-road","contact:facebook":"https:\/\/www.facebook.com\/asda\/"}}, "geometry":{"type":"MultiPolygon","coordinates":[[[[-4.70551,50.4732],[-4.70511,50.47371],[-4.70556,50.47386],[-4.70534,50.47412],[-4.70577,50.47418],[-4.70634,50.47346],[-4.70551,50.4732]]]]}},
{ "type":"Feature","properties":{"osm_way_id":"184197386","name":"Tesco","building":"retail","shop":"supermarket","other":{"addr:city":"Helston","addr:country":"GB","addr:housename":"Tesco","addr:postcode":"TR13 8PJ","addr:street":"Clodgey Lane","brand":"Tesco","brand:wikidata":"Q487494","brand:wikipedia":"en:Tesco","building:levels":"1","designation":"Helston Superstore","fhrs:id":"486927","opening_hours":"Mo-Sa 06:00-24:00; Su 10:00-16:00"}}, "geometry":{"type":"MultiPolygon","coordinates":[[[[-5.26588,50.10513],[-5.26557,50.10445],[-5.26444,50.10467],[-5.26483,50.10552],[-5.26497,50.1055],[-5.26519,50.10541],[-5.26516,50.10532],[-5.26585,50.10519],[-5.26588,50.10513]]]]}},
{ "type":"Feature","properties":{"osm_way_id":"184197602","name":"Sainsbury's","building":"yes","shop":"supermarket","other":{"addr:city":"Helston","addr:country":"GB","addr:postcode":"TR13 8BN","addr:street":"Clodgey Lane","brand":"Sainsbury's","brand:wikidata":"Q152096","brand:wikipedia":"en:Sainsbury's","designation":"Helston Superstore","fhrs:id":"587007"}}, "geometry":{"type":"MultiPolygon","coordinates":[[[[-5.26161,50.0932],[-5.26083,50.09264],[-5.26008,50.09307],[-5.26002,50.09311],[-5.26011,50.0932],[-5.26018,50.09325],[-5.26032,50.09334],[-5.26049,50.09346],[-5.26057,50.09352],[-5.26062,50.09355],[-5.2607,50.0936],[-5.26076,50.09361],[-5.26085,50.09359],[-5.26111,50.09351],[-5.26161,50.0932]]]]}},
{ "type":"Feature","properties":{"osm_way_id":"184198239","name":"Spar","building":"yes","shop":"supermarket","other":{"addr:city":"Helston","addr:country":"GB","addr:housenumber":"135","addr:postcode":"TR13 8RW","addr:street":"Meneage Street","brand":"Spar","brand:wikidata":"Q610492","brand:wikipedia":"en:Spar (retailer)","fhrs:id":"585195"}}, "geometry":{"type":"MultiPolygon","coordinates":[[[[-5.27059,50.09706],[-5.27046,50.0969],[-5.27027,50.09696],[-5.2704,50.09712],[-5.27059,50.09706]]]]}},
{ "type":"Feature","properties":{"osm_way_id":"184767039","name":"Lidl","building":"yes","shop":"supermarket","other":{"addr:postcode":"TR10 8AB","addr:street":"Falmouth Road","alt_name":"LIDL Penryn","brand":"Lidl","brand:wikidata":"Q151954","brand:wikipedia":"en:Lidl"}}, "geometry":{"type":"MultiPolygon","coordinates":[[[[-5.09077,50.16525],[-5.09022,50.16486],[-5.09015,50.1649],[-5.09018,50.16492],[-5.08994,50.16506],[-5.09031,50.16532],[-5.09037,50.16528],[-5.09052,50.16539],[-5.09077,50.16525]]]]}},
{ "type":"Feature","properties":{"osm_way_id":"184767208","name":"Asda","building":"retail","shop":"supermarket","other":{"addr:city":"Penryn","addr:country":"GB","addr:housename":"ASDA","addr:postcode":"TR10 9LY","addr:street":"Jennings Road","alt_name":"Asda Falmouth Superstore","brand":"Asda","brand:wikidata":"Q297410","brand:wikipedia":"en:Asda","building:levels":"2","contact:facebook":"https:\/\/www.facebook.com\/asda\/","contact:twitter":"@asda","contact:website":"https:\/\/storelocator.asda.com\/south-west\/penryn\/jennings-road","fhrs:id":"402056","opening_hours":"Mo-Sa 07:00-22:45; Su 09:00-17:45","operator":"Asda Stores Ltd","roof:shape":"flat","wheelchair":"yes"}}, "geometry":{"type":"MultiPolygon","coordinates":[[[[-5.1221,50.16309],[-5.12141,50.16282],[-5.12143,50.1628],[-5.12127,50.16273],[-5.12151,50.16249],[-5.12133,50.16242],[-5.12154,50.16222],[-5.12176,50.16226],[-5.12195,50.16207],[-5.12211,50.16214],[-5.12215,50.1621],[-5.12283,50.16238],[-5.1228,50.16241],[-5.12295,50.16247],[-5.12242,50.16299],[-5.12226,50.16293],[-5.1221,50.16309]]]]}},
{ "type":"Feature","properties":{"osm_way_id":"184767719","name":"Sainsbury's","building":"yes","shop":"supermarket","other":{"addr:city":"Falmouth","addr:housename":"Sainsburys Supermarket","addr:place":"Ponsharden Industrial Estate","addr:postcode":"TR11 2RZ","addr:street":"Ponsharden","alt_name":"Sainsbury's Falmouth Superstore","brand":"Sainsbury's","brand:wikidata":"Q152096","brand:wikipedia":"en:Sainsbury's","fhrs:id":"571158","opening_hours":"Mo-Sa 07:00-22:00; Su 10:00-16:00","operator":"Sainsbury's","source:opening_hours":"survey"}}, "geometry":{"type":"MultiPolygon","coordinates":[[[[-5.08982,50.16217],[-5.08933,50.16207],[-5.08879,50.16195],[-5.08866,50.16221],[-5.08872,50.16222],[-5.08867,50.16232],[-5.08875,50.16233],[-5.08873,50.16238],[-5.08885,50.16241],[-5.08887,50.16237],[-5.08964,50.16253],[-5.08982,50.16217]]]]}},
{ "type":"Feature","properties":{"osm_way_id":"184768388","name":"Tesco Metro","building":"yes","shop":"supermarket","other":{"addr:postcode":"TR11 3PQ","addr:street":"Killigrew Street","alt_name":"Tesco Falmouth Metro","brand":"Tesco Metro","brand:wikidata":"Q57551648","fhrs:id":"571159"}}, "geometry":{"type":"MultiPolygon","coordinates":[[[[-5.07214,50.15589],[-5.07171,50.15572],[-5.07155,50.15581],[-5.07164,50.15585],[-5.07155,50.15592],[-5.07177,50.15602],[-5.07175,50.15603],[-5.07188,50.15614],[-5.072,50.15608],[-5.07207,50.15599],[-5.07211,50.15595],[-5.07214,50.15589]]]]}},
{ "type":"Feature","properties":{"osm_way_id":"187795409","name":"Co-op Food","building":"yes","shop":"supermarket","other":{"addr:postcode":"TR7 3ET","addr:street":"Church Street","brand":"Co-op Food","brand:wikidata":"Q3277439","brand:wikipedia":"en:Co-op Food"}}, "geometry":{"type":"MultiPolygon","coordinates":[[[[-5.04489,50.41724],[-5.04471,50.41721],[-5.04463,50.41741],[-5.04469,50.41742],[-5.04467,50.41745],[-5.0448,50.41747],[-5.04489,50.41724]]]]}},
{ "type":"Feature","properties":{"osm_way_id":"187795540","name":"Morrisons","building":"yes","shop":"supermarket","other":{"brand":"Morrisons","fhrs:id":"544727","alt_name":"Morrisons Newquay","addr:city":"Newquay","addr:street":"Treloggan Road","addr:country":"GB","addr:postcode":"TR7 2GZ","addr:housename":"Morrisons","brand:wikidata":"Q922344","brand:wikipedia":"en:Morrisons"}}, "geometry":{"type":"MultiPolygon","coordinates":[[[[-5.06301,50.40097],[-5.06209,50.4011],[-5.06208,50.40107],[-5.06207,50.40103],[-5.06175,50.40108],[-5.06163,50.40119],[-5.06174,50.40149],[-5.06183,50.40148],[-5.06191,50.4017],[-5.06195,50.40169],[-5.06201,50.40187],[-5.0631,50.40171],[-5.06297,50.40134],[-5.06274,50.40137],[-5.06268,50.40118],[-5.06306,50.40112],[-5.06301,50.40097]]]]}},
{ "type":"Feature","properties":{"osm_way_id":"187795757","name":"Sainsbury's","building":"yes","shop":"supermarket","other":{"addr:city":"Newquay","addr:housename":"The Whim","addr:postcode":"TR7 1NF","addr:street":"Alma Place","alt_name":"Sainsbury's Newquay Superstore","brand":"Sainsbury's","brand:wikidata":"Q152096","brand:wikipedia":"en:Sainsbury's","contact:website":"https:\/\/stores.sainsburys.co.uk\/2223\/newquay","fhrs:id":"569078","opening_hours":"Mo-Sa 07:00-21:00; Su 10:00-16:00","operator":"Sainsbury's","payment:american_express":"yes","payment:cash":"yes","payment:credit_cards":"yes","payment:debit_cards":"yes","payment:diners_club":"yes","payment:maestro":"yes","payment:mastercard":"yes","payment:visa":"yes","payment:visa_debit":"yes","payment:visa_electron":"yes","phone":"+441637849500","wheelchair":"yes"}}, "geometry":{"type":"MultiPolygon","coordinates":[[[[-5.0888,50.41554],[-5.08889,50.41512],[-5.08808,50.41504],[-5.08802,50.41533],[-5.08796,50.41532],[-5.08795,50.41537],[-5.08793,50.4155],[-5.08799,50.41551],[-5.08805,50.41551],[-5.08805,50.41554],[-5.08814,50.41554],[-5.08814,50.41557],[-5.08844,50.41559],[-5.08846,50.4155],[-5.0888,50.41554]]]]}},
{ "type":"Feature","properties":{"osm_way_id":"187796427","name":"Lidl","building":"yes","shop":"supermarket","other":{"brand":"Lidl","alt_name":"LIDL Newquay","addr:city":"Newquay","addr:street":"Treloggan Road","addr:postcode":"TR7 2BB","brand:wikidata":"Q151954","brand:wikipedia":"en:Lidl"}}, "geometry":{"type":"MultiPolygon","coordinates":[[[[-5.06288,50.40253],[-5.06277,50.40242],[-5.06262,50.40226],[-5.06266,50.40224],[-5.06263,50.4022],[-5.06288,50.40211],[-5.06297,50.40221],[-5.06314,50.40214],[-5.0631,50.4021],[-5.06321,50.40206],[-5.06327,50.40212],[-5.06342,50.40207],[-5.0636,50.40226],[-5.06288,50.40253]]]]}},
{ "type":"Feature","properties":{"osm_way_id":"187923584","name":"Lidl","building":"yes","shop":"supermarket","other":{"addr:city":"Bodmin","addr:postcode":"PL31 2AA","addr:street":"Priory Road","alt_name":"LIDL Bodmin","brand":"Lidl","brand:wikidata":"Q151954","brand:wikipedia":"en:Lidl"}}, "geometry":{"type":"MultiPolygon","coordinates":[[[[-4.71413,50.47122],[-4.71339,50.4709],[-4.71351,50.47077],[-4.71363,50.47083],[-4.71376,50.47072],[-4.71438,50.47098],[-4.71413,50.47122]]]]}},
{ "type":"Feature","properties":{"osm_way_id":"187958167","name":"Sainsbury's","building":"yes","shop":"supermarket","other":{"addr:city":"Bude","addr:postcode":"EX23 8ND","addr:street":"Crooklets Road","brand":"Sainsbury's","brand:wikidata":"Q152096","brand:wikipedia":"en:Sainsbury's"}}, "geometry":{"type":"MultiPolygon","coordinates":[[[[-4.54752,50.83199],[-4.54736,50.83174],[-4.54657,50.83194],[-4.54673,50.83219],[-4.54752,50.83199]]]]}},
{ "type":"Feature","properties":{"osm_way_id":"187958655","name":"The Co-operative Food","building":"yes","shop":"supermarket","other":{"addr:city":"Bude","addr:postcode":"EX23 8AU","addr:street":"Burn View","opening_hours":"Mo-Su 07:00-22:00"}}, "geometry":{"type":"MultiPolygon","coordinates":[[[[-4.54268,50.83012],[-4.54262,50.82998],[-4.54201,50.83003],[-4.542,50.83001],[-4.54182,50.83003],[-4.54185,50.83008],[-4.54192,50.83008],[-4.54197,50.83021],[-4.5421,50.83022],[-4.54264,50.83015],[-4.54268,50.83012]]]]}},
{ "type":"Feature","properties":{"osm_way_id":"187958656","name":"Morrisons","building":"yes","shop":"supermarket","other":{"addr:city":"Bude","addr:postcode":"EX23 8UA","addr:street":"Stucley Road","brand":"Morrisons","brand:wikidata":"Q922344","brand:wikipedia":"en:Morrisons","wheelchair":"yes"}}, "geometry":{"type":"MultiPolygon","coordinates":[[[[-4.52859,50.82787],[-4.52801,50.82782],[-4.52802,50.82778],[-4.52777,50.82775],[-4.52776,50.82779],[-4.52771,50.82778],[-4.52769,50.82788],[-4.52761,50.82787],[-4.52753,50.82825],[-4.52758,50.82825],[-4.52756,50.82836],[-4.52767,50.82837],[-4.52766,50.82843],[-4.52788,50.82844],[-4.52786,50.82853],[-4.52801,50.82854],[-4.52799,50.82863],[-4.5283,50.82866],[-4.52833,50.82853],[-4.52825,50.82853],[-4.52827,50.82844],[-4.52846,50.82845],[-4.52859,50.82787]]]]}},
{ "type":"Feature","properties":{"osm_way_id":"188744969","name":"ALDI","building":"supermarket","shop":"supermarket","other":{"addr:city":"St Austell","addr:postcode":"PL25 4HW","addr:street":"Slades Road","alt_name":"ALDI St Austell","brand":"ALDI","brand:wikidata":"Q41171672","brand:wikipedia":"en:Aldi"}}, "geometry":{"type":"MultiPolygon","coordinates":[[[[-4.7756,50.34252],[-4.77538,50.34263],[-4.77528,50.34267],[-4.77526,50.34266],[-4.77517,50.34259],[-4.77513,50.34261],[-4.77501,50.34251],[-4.77507,50.34248],[-4.77486,50.3423],[-4.77516,50.34215],[-4.7756,50.34252]]]]}},
{ "type":"Feature","properties":{"osm_way_id":"192990895","name":"Co-op Food","building":"yes","shop":"supermarket","other":{"addr:city":"Torpoint","addr:housenumber":"53","addr:postcode":"PL11 2AD","addr:street":"Fore Street","brand":"Co-op Food","brand:wikidata":"Q3277439","brand:wikipedia":"en:Co-op Food","opening_hours":"Mo-Sa 07:00-22:00; Su 10:00-16:00","wheelchair":"yes"}}, "geometry":{"type":"MultiPolygon","coordinates":[[[[-4.19583,50.37545],[-4.19581,50.37541],[-4.19575,50.37542],[-4.19569,50.37533],[-4.19532,50.37542],[-4.19539,50.37555],[-4.19583,50.37545]]]]}},
{ "type":"Feature","properties":{"osm_way_id":"195079372","name":"Tesco","building":"yes","shop":"supermarket","other":{"addr:city":"Truro","addr:postcode":"TR1 2TN","addr:street":"Garras Wharf","alt_name":"Tesco Truro Superstore","brand":"Tesco","brand:wikidata":"Q487494","brand:wikipedia":"en:Tesco","fhrs:id":"493772","opening_hours":"Mo-Sa 06:00-24:00, Su 10:00-16:00","source:id":"B66F1C55-55B0-470B-86EC-A00DC9F5D735"}}, "geometry":{"type":"MultiPolygon","coordinates":[[[[-5.0475,50.26068],[-5.04722,50.26037],[-5.04683,50.26051],[-5.04679,50.26057],[-5.04661,50.26065],[-5.04666,50.2607],[-5.04724,50.26152],[-5.04708,50.26133],[-5.04717,50.2613],[-5.04709,50.26121],[-5.04753,50.26105],[-5.04761,50.26095],[-5.04741,50.26072],[-5.0475,50.26068]]]]}},
{ "type":"Feature","properties":{"osm_way_id":"195079648","name":"Sainsbury's","building":"yes","shop":"supermarket","other":{"brand":"Sainsbury's","fhrs:id":"565487","operator":"SainsburyÂ´s","addr:city":"Truro","addr:county":"Cornwall","addr:street":"Treyew Road","addr:country":"GB","addr:postcode":"TR1 3XL","opening_hours":"Mo-Fr 07:00-23:00; Sa 07:00-22:00; Su 10:00-16:00","brand:wikidata":"Q152096","brand:wikipedia":"en:Sainsbury's"}}, "geometry":{"type":"MultiPolygon","coordinates":[[[[-5.06853,50.2621],[-5.06756,50.26189],[-5.0672,50.26182],[-5.06725,50.26172],[-5.06714,50.2617],[-5.06749,50.26102],[-5.06834,50.2612],[-5.06831,50.26126],[-5.06825,50.26124],[-5.0682,50.26133],[-5.06853,50.2614],[-5.06844,50.26158],[-5.06876,50.26165],[-5.06853,50.2621]]]]}},
{ "type":"Feature","properties":{"osm_way_id":"195079900","name":"ALDI","building":"yes","shop":"supermarket","other":{"addr:postcode":"TR1 3PZ","addr:street":"Highertown","brand":"ALDI","brand:wikidata":"Q41171672","brand:wikipedia":"en:Aldi","source:id":"31455618-54E2-4128-A31B-89E91F7BAF1D"}}, "geometry":{"type":"MultiPolygon","coordinates":[[[[-5.07205,50.26177],[-5.07161,50.26168],[-5.07163,50.26164],[-5.07146,50.26161],[-5.07133,50.26185],[-5.07183,50.26196],[-5.07181,50.262],[-5.072,50.26205],[-5.07206,50.26193],[-5.07197,50.26191],[-5.07205,50.26177]]]]}},
{ "type":"Feature","properties":{"osm_way_id":"195080309","name":"Co-op Food","shop":"supermarket","other":{"addr:city":"Truro","addr:housenumber":"26","addr:postcode":"TR1 2QQ","addr:street":"Boscawen Street","brand":"Co-op Food","brand:wikidata":"Q3277439","brand:wikipedia":"en:Co-op Food","building:part":"retail","fhrs:id":"571162","opening_hours":"Mo-Sa 06:00-22:00,Su 10:00-16:00","operator":"The Co-operative Group","operator:wikidata":"Q117202","operator:wikipedia":"en:The Co-operative Group","payment:cash":"yes","payment:credit_cards":"yes","payment:debit_cards":"yes","phone":"+44 1872 272534"}}, "geometry":{"type":"MultiPolygon","coordinates":[[[[-5.05081,50.26363],[-5.05082,50.26344],[-5.05098,50.26343],[-5.05096,50.2638],[-5.05096,50.26386],[-5.05081,50.26385],[-5.05067,50.26383],[-5.05052,50.2638],[-5.05059,50.26369],[-5.05068,50.26369],[-5.05068,50.26363],[-5.05081,50.26363]]]]}},
{ "type":"Feature","properties":{"osm_way_id":"204005599","name":"Waitrose","amenity":"charging_station;cafe","building":"yes","shop":"supermarket","other":{"addr:city":"Saltash","addr:postcode":"PL12 6LD","addr:street":"Tamar View","alt_name":"Waitrose Saltash","brand":"Waitrose & Partners","brand:wikidata":"Q771734","brand:wikipedia":"en:Waitrose & Partners","operator":"Waitrose & Partners","toilets:wheelchair":"yes","wheelchair":"yes"}}, "geometry":{"type":"MultiPolygon","coordinates":[[[[-4.23397,50.42039],[-4.23355,50.4204],[-4.23356,50.42056],[-4.23337,50.42054],[-4.23336,50.42045],[-4.23336,50.4204],[-4.23335,50.42037],[-4.23334,50.42003],[-4.23333,50.41987],[-4.23326,50.41987],[-4.23326,50.41962],[-4.23329,50.4196],[-4.234,50.4196],[-4.23401,50.42002],[-4.23397,50.42003],[-4.23397,50.42039]]]]}},
{ "type":"Feature","properties":{"osm_way_id":"204334201","name":"Asda","building":"retail","shop":"supermarket","other":{"addr:city":"St Austell","addr:country":"GB","addr:postcode":"PL25 4PR","addr:street":"Cromwell Road","alt_name":"ASDA St Austell Superstore","brand":"Asda","brand:wikidata":"Q297410","brand:wikipedia":"en:Asda","building:levels":"2","contact:facebook":"https:\/\/www.facebook.com\/asda\/","contact:twitter":"@asda","contact:website":"https:\/\/storelocator.asda.com\/south-west\/saint-austell\/cromwell-road","fhrs:id":"623806","opening_hours":"24\/7","operator":"Asda Stores Ltd","roof:levels":"1","roof:shape":"flat"}}, "geometry":{"type":"MultiPolygon","coordinates":[[[[-4.77547,50.33431],[-4.77529,50.33435],[-4.77534,50.33446],[-4.77495,50.33454],[-4.77497,50.33459],[-4.77403,50.33478],[-4.77371,50.33411],[-4.77368,50.33404],[-4.77359,50.33387],[-4.77401,50.33379],[-4.77403,50.33382],[-4.7745,50.33373],[-4.77447,50.33367],[-4.77466,50.33363],[-4.77477,50.33387],[-4.77521,50.33378],[-4.77547,50.33431]]]]}},
{ "type":"Feature","properties":{"osm_way_id":"204334202","name":"Tesco","building":"yes","shop":"supermarket","other":{"brand":"Tesco","alt_name":"Tesco St Austell Daniels Lane Superstore","addr:city":"St Austell","addr:street":"Daniels Lane","addr:postcode":"PL25 3HR","brand:wikidata":"Q487494","brand:wikipedia":"en:Tesco"}}, "geometry":{"type":"MultiPolygon","coordinates":[[[[-4.76006,50.34009],[-4.75996,50.34012],[-4.76004,50.34024],[-4.75925,50.34048],[-4.75905,50.34021],[-4.75896,50.34024],[-4.75893,50.34019],[-4.75867,50.34027],[-4.75852,50.34008],[-4.75976,50.3397],[-4.75996,50.33996],[-4.76006,50.34009]]]]}},
{ "type":"Feature","properties":{"osm_way_id":"204914910","name":"Co-op Food","building":"yes","shop":"supermarket","other":{"addr:postcode":"PL13 1DT","addr:street":"Fore Street","brand":"Co-op Food","brand:wikidata":"Q3277439","brand:wikipedia":"en:Co-op Food","website":"https:\/\/www.co-operative.coop\/"}}, "geometry":{"type":"MultiPolygon","coordinates":[[[[-4.45485,50.35569],[-4.45476,50.35558],[-4.4546,50.35563],[-4.45468,50.35572],[-4.45477,50.35569],[-4.45479,50.35571],[-4.45485,50.35569]]]]}},
{ "type":"Feature","properties":{"osm_way_id":"204914980","name":"Co-op Food","building":"yes","shop":"supermarket","other":{"addr:postcode":"PL13 1AD","addr:street":"Fore Street","brand":"Co-op Food","brand:wikidata":"Q3277439","brand:wikipedia":"en:Co-op Food"}}, "geometry":{"type":"MultiPolygon","coordinates":[[[[-4.45406,50.3543],[-4.45403,50.35418],[-4.45377,50.3542],[-4.45365,50.35422],[-4.45368,50.35434],[-4.45406,50.3543]]]]}},
{ "type":"Feature","properties":{"osm_way_id":"204915123","name":"Morrisons","building":"yes","shop":"supermarket","other":{"addr:postcode":"PL14 3PR","addr:street":"Plymouth Road","brand":"Morrisons","brand:wikidata":"Q922344","brand:wikipedia":"en:Morrisons","designation":"Liskeard","fhrs:id":"557633","not:addr:postcode":"PL14 3PB","website":"https:\/\/my.morrisons.com\/storefinder\/328"}}, "geometry":{"type":"MultiPolygon","coordinates":[[[[-4.45394,50.4515],[-4.45279,50.45164],[-4.45269,50.45133],[-4.45263,50.45133],[-4.45254,50.45106],[-4.4526,50.45101],[-4.45273,50.451],[-4.45281,50.45091],[-4.45304,50.45088],[-4.45305,50.45092],[-4.45361,50.45086],[-4.45364,50.45095],[-4.45377,50.45094],[-4.45383,50.45113],[-4.45363,50.45115],[-4.45369,50.45133],[-4.45388,50.45131],[-4.45394,50.4515]]]]}},
{ "type":"Feature","properties":{"osm_way_id":"205672969","name":"Tesco","building":"yes","shop":"supermarket","other":{"addr:city":"St Ives","addr:country":"GB","addr:place":"Carbis Bay","addr:postcode":"TR26 2PN","addr:street":"St Ives Road","branch":"St Ives Superstore","brand":"Tesco","brand:wikidata":"Q487494","brand:wikipedia":"en:Tesco","fhrs:id":"609808","opening_hours":"Mo-Sa 08:00-22:00 Su 10:00-16:00"}}, "geometry":{"type":"MultiPolygon","coordinates":[[[[-5.47385,50.19801],[-5.47339,50.19785],[-5.47335,50.19789],[-5.4732,50.19784],[-5.4731,50.19795],[-5.47326,50.19801],[-5.47313,50.19816],[-5.47347,50.19828],[-5.4734,50.19836],[-5.47354,50.19841],[-5.47357,50.19837],[-5.47361,50.19839],[-5.47365,50.19834],[-5.4737,50.19836],[-5.47377,50.19829],[-5.4737,50.19827],[-5.4738,50.19815],[-5.47374,50.19813],[-5.47385,50.19801]]]]}},
{ "type":"Feature","properties":{"osm_way_id":"205673209","name":"Co-op Food","building":"yes","shop":"supermarket","other":{"addr:postcode":"TR26 2ND","addr:street":"Royal Square","brand":"Co-op Food","brand:wikidata":"Q3277439","brand:wikipedia":"en:Co-op Food","operator":"The Co-operative Group","operator:wikidata":"Q117202","operator:wikipedia":"en:The Co-operative Group","wheelchair":"yes"}}, "geometry":{"type":"MultiPolygon","coordinates":[[[[-5.48204,50.21126],[-5.48196,50.2112],[-5.48184,50.21127],[-5.48185,50.21129],[-5.48177,50.21139],[-5.4818,50.2114],[-5.48185,50.21141],[-5.48185,50.2114],[-5.48191,50.21142],[-5.48194,50.21137],[-5.48192,50.21137],[-5.48194,50.21135],[-5.48199,50.21132],[-5.48196,50.2113],[-5.48204,50.21126]]]]}},
{ "type":"Feature","properties":{"osm_way_id":"205673210","name":"Co-op Food","building":"yes","shop":"supermarket","other":{"addr:housenumber":"13-14","addr:postcode":"TR26 1SD","addr:street":"Tregenna Place","brand":"Co-op Food","brand:wikidata":"Q3277439","brand:wikipedia":"en:Co-op Food"}}, "geometry":{"type":"MultiPolygon","coordinates":[[[[-5.48095,50.21169],[-5.4809,50.2116],[-5.48089,50.2116],[-5.48076,50.21163],[-5.48069,50.21164],[-5.48073,50.21172],[-5.4808,50.2117],[-5.48081,50.21172],[-5.48095,50.21169]]]]}},
{ "type":"Feature","properties":{"osm_way_id":"205696141","name":"Co-op Food","building":"yes","shop":"supermarket","other":{"addr:postcode":"TR26 1DB","addr:street":"The Stannack","brand":"Co-op Food","brand:wikidata":"Q3277439","brand:wikipedia":"en:Co-op Food"}}, "geometry":{"type":"MultiPolygon","coordinates":[[[[-5.49016,50.2087],[-5.49001,50.20857],[-5.49019,50.20849],[-5.49026,50.20854],[-5.49031,50.20852],[-5.49039,50.20859],[-5.49016,50.2087]]]]}},
{ "type":"Feature","properties":{"osm_way_id":"218340909","name":"Spar","building":"yes","shop":"supermarket","other":{"addr:housenumber":"2","addr:postcode":"TR27 4AB","addr:street":"Chaple Terrace","brand":"Spar","brand:wikidata":"Q610492","brand:wikipedia":"en:Spar (retailer)","fhrs:id":"569125","operator":"Spar"}}, "geometry":{"type":"MultiPolygon","coordinates":[[[[-5.42084,50.18468],[-5.42079,50.1846],[-5.4205,50.18466],[-5.42055,50.18475],[-5.42084,50.18468]]]]}},
{ "type":"Feature","properties":{"osm_way_id":"218343751","name":"Marks & Spencer","building":"retail","shop":"supermarket","other":{"addr:city":"Hayle","addr:housename":"West Cornwall Retail Park","addr:postcode":"TR27 5LX","addr:street":"Marsh Lane","branch":"Hayle","opening_hours":"Mo-Sa 08:00-19:00 Su 10:30-16:30"}}, "geometry":{"type":"MultiPolygon","coordinates":[[[[-5.39762,50.19598],[-5.39739,50.19599],[-5.39734,50.19546],[-5.39728,50.19547],[-5.39725,50.1952],[-5.39775,50.1952],[-5.39776,50.19529],[-5.39783,50.19572],[-5.39779,50.19572],[-5.39779,50.19576],[-5.39777,50.19582],[-5.39778,50.19589],[-5.39781,50.19594],[-5.39782,50.19597],[-5.39762,50.19598]]]]}},
{ "type":"Feature","properties":{"osm_way_id":"219327851","name":"Tesco","building":"yes","shop":"supermarket","other":{"addr:city":"Callington","addr:postcode":"PL17 7DR","addr:street":"Tavistock Road","branch":"Callington Superstore","brand":"Tesco","brand:wikidata":"Q487494","brand:wikipedia":"en:Tesco","opening_hours":"Mo-Th 07:00-22:00 Fri-Sa 08:00-22:00 Su 10:00-16:00"}}, "geometry":{"type":"MultiPolygon","coordinates":[[[[-4.3078,50.50663],[-4.30803,50.50612],[-4.30703,50.50594],[-4.3068,50.50645],[-4.3078,50.50663]]]]}},
{ "type":"Feature","properties":{"osm_way_id":"223606961","name":"Co-op Food","building":"yes","shop":"supermarket","other":{"addr:city":"Wadebridge","addr:postcode":"PL27 7DA","addr:street":"Jubilee Road","atm":"yes","brand":"Co-op Food","brand:wikidata":"Q3277439","brand:wikipedia":"en:Co-op Food","designation":"The Co-operative Food","opening_hours":"Mo-Sa 07:00-22:00; Su 10:00-16:00","operator":"The Co-operative Group","operator:wikidata":"Q117202","operator:wikipedia":"en:The Co-operative Group"}}, "geometry":{"type":"MultiPolygon","coordinates":[[[[-4.83596,50.51652],[-4.83576,50.51635],[-4.83579,50.51634],[-4.83564,50.51621],[-4.83554,50.51626],[-4.83559,50.51631],[-4.83519,50.51651],[-4.83555,50.51681],[-4.83603,50.51657],[-4.83596,50.51652]]]]}},
{ "type":"Feature","properties":{"osm_way_id":"230275857","name":"Spar","building":"yes","shop":"supermarket","other":{"addr:postcode":"PL13 2ER","addr:street":"Princes Square","brand":"Spar","brand:wikidata":"Q610492","brand:wikipedia":"en:Spar (retailer)"}}, "geometry":{"type":"MultiPolygon","coordinates":[[[[-4.45656,50.35312],[-4.45655,50.35299],[-4.45674,50.35297],[-4.45673,50.35312],[-4.45656,50.35312]]]]}},
{ "type":"Feature","properties":{"osm_way_id":"230745535","name":"Co-op Food","building":"yes","shop":"supermarket","other":{"addr:postcode":"TR18 4NP","addr:street":"The Promenade","brand":"Co-op Food","brand:wikidata":"Q3277439","brand:wikipedia":"en:Co-op Food","operator":"The Co-operative Group","operator:wikidata":"Q117202","operator:wikipedia":"en:The Co-operative Group"}}, "geometry":{"type":"MultiPolygon","coordinates":[[[[-5.54345,50.11182],[-5.5433,50.11168],[-5.54289,50.11185],[-5.54314,50.1121],[-5.54338,50.11199],[-5.54328,50.11189],[-5.54345,50.11182]]]]}},
{ "type":"Feature","properties":{"osm_way_id":"230745536","name":"Morrisons","building":"yes","shop":"supermarket","other":{"addr:city":"Penzance","addr:country":"GB","addr:postcode":"TR18 3RF","addr:street":"Eastern Way","addr:village":"Longrock","alt_name":"Morrisons Penzance","brand":"Morrisons","brand:wikidata":"Q922344","brand:wikipedia":"en:Morrisons","fhrs:id":"809245","operator":"WM Morrison Supermarkets Plc"}}, "geometry":{"type":"MultiPolygon","coordinates":[[[[-5.51331,50.12815],[-5.51319,50.1277],[-5.51332,50.12769],[-5.5133,50.12764],[-5.5145,50.12749],[-5.51451,50.12752],[-5.51472,50.12749],[-5.51476,50.12769],[-5.51457,50.12771],[-5.51461,50.12785],[-5.51447,50.12787],[-5.51448,50.12793],[-5.51375,50.12801],[-5.51377,50.1281],[-5.51331,50.12815]]]]}},
{ "type":"Feature","properties":{"osm_way_id":"230745538","name":"Lidl","building":"yes","shop":"supermarket","other":{"addr:postcode":"TR18 4HG","addr:street":"Western Promenade Road","alt_name":"LIDL Penzance","brand":"Lidl","brand:wikidata":"Q151954","brand:wikipedia":"en:Lidl"}}, "geometry":{"type":"MultiPolygon","coordinates":[[[[-5.54344,50.11257],[-5.54296,50.11201],[-5.5425,50.11217],[-5.54298,50.11273],[-5.54344,50.11257]]]]}},
{ "type":"Feature","properties":{"osm_way_id":"230745725","name":"Co-op Food","building":"yes","shop":"supermarket","other":{"addr:housenumber":"114-117","addr:postcode":"TR18 2LD","addr:street":"Market Jew Street","brand":"Co-op Food","brand:wikidata":"Q3277439","brand:wikipedia":"en:Co-op Food","operator":"The Co-operative Group","operator:wikidata":"Q117202","operator:wikipedia":"en:The Co-operative Group"}}, "geometry":{"type":"MultiPolygon","coordinates":[[[[-5.53621,50.11885],[-5.53601,50.11875],[-5.53574,50.11868],[-5.5357,50.11874],[-5.53566,50.11874],[-5.53563,50.11878],[-5.53591,50.11886],[-5.53587,50.11891],[-5.53594,50.11894],[-5.53599,50.11897],[-5.53621,50.11885]]]]}},
{ "type":"Feature","properties":{"osm_way_id":"230746269","name":"Co-op Food","building":"yes","shop":"supermarket","other":{"addr:housenumber":"6","addr:postcode":"TR18 2JJ","addr:street":"Queens Square","brand":"Co-op Food","brand:wikidata":"Q3277439","brand:wikipedia":"en:Co-op Food","operator":"The Co-operative Group","operator:wikidata":"Q117202","operator:wikipedia":"en:The Co-operative Group"}}, "geometry":{"type":"MultiPolygon","coordinates":[[[[-5.53706,50.11805],[-5.53698,50.11796],[-5.53722,50.11784],[-5.53726,50.11788],[-5.53734,50.11785],[-5.53741,50.11793],[-5.53706,50.11805]]]]}},
{ "type":"Feature","properties":{"osm_way_id":"231588698","name":"Trevaskis Farm Market","building":"yes","shop":"supermarket","other":{"fax":"+44 1209 714010","email":"hello@trevaskisfarm.co.uk","phone":"+44 1209 714009","website":"https:\/\/www.trevaskisfarm.co.uk\/","addr:city":"Connor Downs","addr:street":"Gwinear Road","addr:country":"GB","addr:postcode":"TR27 5JQ","opening_hours":"Mo-Su 08:00-20:00","addr:housenumber":"12"}}, "geometry":{"type":"MultiPolygon","coordinates":[[[[-5.3543,50.20092],[-5.35417,50.20088],[-5.3543,50.2007],[-5.35446,50.20064],[-5.35451,50.20071],[-5.35443,50.20075],[-5.3543,50.20092]]]]}},
{ "type":"Feature","properties":{"osm_way_id":"233566410","name":"Aldi","building":"yes","shop":"supermarket","other":{"addr:housenumber":"1","addr:street":"Charter Way","brand":"ALDI","brand:wikidata":"Q41171672","brand:wikipedia":"en:Aldi","source:outline":"Mapbox"}}, "geometry":{"type":"MultiPolygon","coordinates":[[[[-4.4526,50.46058],[-4.45181,50.46044],[-4.45191,50.46022],[-4.4527,50.46036],[-4.4526,50.46058]]]]}},
{ "type":"Feature","properties":{"osm_way_id":"233574959","name":"Tesco","building":"retail","shop":"supermarket","other":{"addr:postcode":"PL15 9HG","addr:street":"Tavistock Road","brand":"Tesco","brand:wikidata":"Q487494","brand:wikipedia":"en:Tesco","designation":"Launcaston Superstore"}}, "geometry":{"type":"MultiPolygon","coordinates":[[[[-4.35378,50.6292],[-4.35368,50.62919],[-4.3536,50.62945],[-4.35352,50.62944],[-4.35344,50.62971],[-4.3536,50.62973],[-4.35354,50.62993],[-4.35359,50.62993],[-4.35354,50.63009],[-4.35342,50.63008],[-4.35338,50.63023],[-4.35352,50.63024],[-4.35351,50.63028],[-4.35375,50.63031],[-4.35379,50.63019],[-4.35407,50.63023],[-4.35408,50.63018],[-4.35417,50.62991],[-4.35425,50.62992],[-4.35427,50.62984],[-4.3542,50.62983],[-4.35435,50.62933],[-4.35436,50.6293],[-4.3541,50.62927],[-4.35411,50.62924],[-4.35402,50.62923],[-4.35403,50.62919],[-4.35393,50.62918],[-4.35391,50.62922],[-4.35378,50.6292]]]]}},
{ "type":"Feature","properties":{"osm_way_id":"235597527","name":"Lidl","building":"yes","shop":"supermarket","other":{"brand":"Lidl","alt_name":"LIDL Saltash","operator":"Lidl","addr:city":"Saltash","wheelchair":"yes","addr:street":"Gilston Road","addr:postcode":"PL12 6TW","brand:wikidata":"Q151954","brand:wikipedia":"en:Lidl","addr:housenumber":"1"}}, "geometry":{"type":"MultiPolygon","coordinates":[[[[-4.23408,50.4172],[-4.23414,50.41691],[-4.2331,50.41684],[-4.23308,50.41697],[-4.23323,50.41698],[-4.23321,50.4171],[-4.23383,50.41714],[-4.23382,50.41718],[-4.23408,50.4172]]]]}},
{ "type":"Feature","properties":{"osm_way_id":"256317870","name":"Co-op Food","building":"yes","shop":"supermarket","other":{"addr:postcode":"PL22 0BS","addr:street":"Quay Street","brand":"Co-op Food","brand:wikidata":"Q3277439","brand:wikipedia":"en:Co-op Food","designation":"The Co-operative Food","operator":"The Co-operative Group","operator:wikidata":"Q117202","operator:wikipedia":"en:The Co-operative Group","wheelchair":"yes"}}, "geometry":{"type":"MultiPolygon","coordinates":[[[[-4.66828,50.40679],[-4.66837,50.40664],[-4.66805,50.40656],[-4.66795,50.40668],[-4.66828,50.40679]]]]}},
{ "type":"Feature","properties":{"osm_way_id":"256320227","name":"Morrisons","building":"yes","shop":"supermarket","other":{"addr:city":"Bodmin","addr:postcode":"PL31 2ST","addr:street":"Priory Road","brand":"Morrisons","brand:wikidata":"Q922344","brand:wikipedia":"en:Morrisons"}}, "geometry":{"type":"MultiPolygon","coordinates":[[[[-4.70681,50.46864],[-4.70572,50.46836],[-4.70582,50.46818],[-4.70602,50.46823],[-4.70613,50.46805],[-4.70594,50.46801],[-4.70604,50.46784],[-4.70618,50.46787],[-4.70619,50.46784],[-4.7067,50.46797],[-4.70672,50.46792],[-4.70718,50.46803],[-4.70724,50.46811],[-4.70707,50.4684],[-4.70697,50.46838],[-4.70681,50.46864]]]]}},
{ "type":"Feature","properties":{"osm_way_id":"256320228","name":"Sainsbury's","building":"yes","shop":"supermarket","other":{"addr:city":"Bodmin","addr:country":"GB","addr:postcode":"PL31 2SS","addr:street":"Dennison Road","alt_name":"Sainsbury's Bodmin Superstore","brand":"Sainsbury's","brand:wikidata":"Q152096","brand:wikipedia":"en:Sainsbury's","designation":"Bodmin Superstoire","fhrs:id":"554812","source:addr":"FHRS Open Data","wheelchair":"yes"}}, "geometry":{"type":"MultiPolygon","coordinates":[[[[-4.72642,50.47364],[-4.72635,50.47348],[-4.72702,50.47335],[-4.72708,50.47349],[-4.72722,50.47347],[-4.72737,50.47382],[-4.72711,50.47387],[-4.72709,50.47381],[-4.72657,50.4739],[-4.72651,50.47375],[-4.72638,50.47378],[-4.72633,50.47366],[-4.72623,50.47364],[-4.72626,50.4736],[-4.72642,50.47364]]]]}},
{ "type":"Feature","properties":{"osm_way_id":"258018768","name":"Co-op Food","building":"yes","shop":"supermarket","other":{"addr:housenumber":"51-59","addr:postcode":"PL12 6AL","addr:street":"Fore Street","alt_name":"The Co-operative Food","brand":"Co-op Food","brand:wikidata":"Q3277439","brand:wikipedia":"en:Co-op Food","operator":"The Co-operative Group","operator:wikidata":"Q117202","operator:wikipedia":"en:The Co-operative Group","wheelchair":"limited"}}, "geometry":{"type":"MultiPolygon","coordinates":[[[[-4.21144,50.40859],[-4.21146,50.40851],[-4.21151,50.40836],[-4.21117,50.40831],[-4.21115,50.40838],[-4.2111,50.40855],[-4.21144,50.40859]]]]}},
{ "type":"Feature","properties":{"osm_way_id":"297560071","name":"Co-op Food","building":"retail","shop":"supermarket","other":{"addr:city":"St Just","addr:country":"GB","addr:housename":"Corner House","addr:postcode":"TR19 7HE","addr:state":"England","addr:street":"Market Square","branch":"St Just","brand":"Co-op Food","brand:wikidata":"Q3277439","brand:wikipedia":"en:Co-op Food","building:levels":"2","opening_hours":"Mo-Su 07:00-22:00"}}, "geometry":{"type":"MultiPolygon","coordinates":[[[[-5.68004,50.12449],[-5.68023,50.12452],[-5.68026,50.12445],[-5.68032,50.12446],[-5.68034,50.12443],[-5.68043,50.12445],[-5.68044,50.12436],[-5.68037,50.12433],[-5.68017,50.12436],[-5.6801,50.12436],[-5.68004,50.12449]]]]}},
{ "type":"Feature","properties":{"osm_way_id":"305357822","name":"The Co-operative Food","building":"yes","shop":"supermarket","other":{"brand":"The Co-operative Food","fhrs:id":"655120","addr:place":"St Columb","addr:street":"Fore Street","source:addr":"FHRS Open Data","addr:postcode":"TR9 6AL","addr:housename":"Cooperative Foodstore","brand:wikidata":"Q3277439","brand:wikipedia":"en:Co-op Food","addr:housenumber":"56 - 58"}}, "geometry":{"type":"MultiPolygon","coordinates":[[[[-4.94043,50.43509],[-4.94035,50.43518],[-4.94046,50.43522],[-4.9405,50.43523],[-4.94051,50.43522],[-4.94056,50.43515],[-4.94043,50.43509]]]]}},
{ "type":"Feature","properties":{"osm_way_id":"314299235","name":"Tesco","building":"yes","shop":"supermarket","other":{"brand":"Tesco","fhrs:id":"439167","alt_name":"Tesco Redruth Tolgus Superstore","addr:city":"Redruth","addr:street":"Tolgus Hill","addr:postcode":"TR15 1AX","brand:wikidata":"Q487494","brand:wikipedia":"en:Tesco"}}, "geometry":{"type":"MultiPolygon","coordinates":[[[[-5.2358,50.2361],[-5.23605,50.23564],[-5.23529,50.23547],[-5.23537,50.23533],[-5.23508,50.23526],[-5.23503,50.23536],[-5.23513,50.23538],[-5.23486,50.23589],[-5.2358,50.2361]]]]}},
{ "type":"Feature","properties":{"osm_way_id":"314483001","name":"Morrisons","building":"yes","shop":"supermarket","other":{"addr:country":"GB","addr:postcode":"TR15 3NH","addr:street":"Agar Road","alt_name":"Morrisons Redruth","brand":"Morrisons","brand:wikidata":"Q922344","brand:wikipedia":"en:Morrisons","fhrs:id":"557624"}}, "geometry":{"type":"MultiPolygon","coordinates":[[[[-5.26319,50.22945],[-5.26312,50.22868],[-5.26228,50.22872],[-5.2623,50.22898],[-5.26232,50.22917],[-5.26218,50.22917],[-5.26221,50.22949],[-5.26282,50.22946],[-5.26319,50.22945]]]]}},
{ "type":"Feature","properties":{"osm_way_id":"314483002","name":"Lidl","building":"yes","shop":"supermarket","other":{"addr:postcode":"TR15 3EE","addr:street":"Agar Road","alt_name":"LIDL Redruth","brand":"Lidl","brand:wikidata":"Q151954","brand:wikipedia":"en:Lidl"}}, "geometry":{"type":"MultiPolygon","coordinates":[[[[-5.2628,50.22836],[-5.26207,50.22837],[-5.26206,50.22809],[-5.26222,50.22809],[-5.26222,50.22803],[-5.26234,50.22803],[-5.26238,50.22803],[-5.26238,50.22808],[-5.26272,50.22807],[-5.26272,50.22817],[-5.26279,50.22817],[-5.2628,50.22836]]]]}},
{ "type":"Feature","properties":{"osm_way_id":"362842399","name":"The Co-operative Food","building":"yes","shop":"supermarket","other":{"operator":"The Co-operative Group"}}, "geometry":{"type":"MultiPolygon","coordinates":[[[[-4.36574,50.63206],[-4.36564,50.63214],[-4.36558,50.63219],[-4.36544,50.63212],[-4.36561,50.63199],[-4.36574,50.63206]]]]}},
{ "type":"Feature","properties":{"osm_way_id":"362900351","name":"The Co-operative Food","building":"yes","shop":"supermarket","other":{"operator":"The Co-operative Group"}}, "geometry":{"type":"MultiPolygon","coordinates":[[[[-4.36209,50.64143],[-4.36209,50.64159],[-4.36202,50.64159],[-4.36202,50.6417],[-4.36127,50.6417],[-4.36127,50.6415],[-4.3614,50.6415],[-4.36141,50.64142],[-4.36209,50.64143]]]]}},
{ "type":"Feature","properties":{"osm_way_id":"369551115","name":"Co-op Food","building":"yes","shop":"supermarket","other":{"brand":"Co-op Food","brand:wikidata":"Q3277439","brand:wikipedia":"en:Co-op Food","operator":"The Co-operative Group"}}, "geometry":{"type":"MultiPolygon","coordinates":[[[[-5.1508,50.34592],[-5.15071,50.34582],[-5.15065,50.34584],[-5.1506,50.34578],[-5.15035,50.34587],[-5.1504,50.34592],[-5.15036,50.34593],[-5.15046,50.34604],[-5.1508,50.34592]]]]}},
{ "type":"Feature","properties":{"osm_way_id":"396561387","name":"Asda","building":"retail","shop":"supermarket","other":{"addr:city":"Hayle","addr:country":"GB","addr:housenumber":"1","addr:postcode":"TR27 4EP","addr:street":"South Quay","branch":"Hayle Harbour Superstore","brand":"Asda","brand:wikidata":"Q297410","brand:wikipedia":"en:Asda","building:levels":"2","contact:facebook":"https:\/\/www.facebook.com\/asda\/","contact:twitter":"@asda","contact:website":"https:\/\/storelocator.asda.com\/south-west\/hayle\/1-south-quay","fhrs:id":"722547","opening_hours":"Mo-Sa 07:00-23:00; Su 10:00-16:00","operator":"Asda Stores Ltd"}}, "geometry":{"type":"MultiPolygon","coordinates":[[[[-5.42351,50.18548],[-5.42249,50.18541],[-5.42192,50.18455],[-5.42294,50.18463],[-5.42351,50.18548]]]]}},
{ "type":"Feature","properties":{"osm_way_id":"423707591","name":"Costcutter","building":"yes","shop":"supermarket","other":{"addr:city":"Portreath","addr:housenumber":"1","addr:postcode":"TR16 4LA","addr:street":"The Square","brand":"Costcutter","brand:wikidata":"Q5175072","brand:wikipedia":"en:Costcutter"}}, "geometry":{"type":"MultiPolygon","coordinates":[[[[-5.28805,50.26116],[-5.28789,50.26116],[-5.28789,50.26099],[-5.28805,50.26099],[-5.28805,50.26103],[-5.28805,50.26115],[-5.28805,50.26116]]]]}},
{ "type":"Feature","properties":{"osm_way_id":"488198561","name":"Hendra Supermarket","building":"yes","shop":"supermarket","other":{"fhrs:id":"438850","addr:city":"Cornwall","addr:place":"Hendra Holiday Park","addr:country":"GB","addr:postcode":"TR8 4NY"}}, "geometry":{"type":"MultiPolygon","coordinates":[[[[-5.04934,50.40096],[-5.04933,50.40086],[-5.04968,50.40084],[-5.04974,50.40084],[-5.04975,50.40094],[-5.04952,50.40095],[-5.04934,50.40096]]]]}},
{ "type":"Feature","properties":{"osm_way_id":"496929059","name":"Sainsbury's","building":"retail","shop":"supermarket","other":{"addr:city":"Penzance","addr:country":"GB","addr:county":"Cornwall","addr:postcode":"TR18 3FA","addr:street":"Eastern Green","brand":"Sainsbury's","brand:wikidata":"Q152096","brand:wikipedia":"en:Sainsbury's","fhrs:id":"632635","opening_hours":"Mo-Sa 07:00-23:00; Su 11:00-17:00","operator":"Sainsbury's"}}, "geometry":{"type":"MultiPolygon","coordinates":[[[[-5.51952,50.12844],[-5.51935,50.12786],[-5.51949,50.12784],[-5.51942,50.12759],[-5.51859,50.12769],[-5.51858,50.12766],[-5.51816,50.12771],[-5.51842,50.12857],[-5.51952,50.12844]]]]}},
{ "type":"Feature","properties":{"osm_way_id":"562992015","name":"Aldi","building":"retail","shop":"supermarket","other":{"addr:city":"Camborne","addr:country":"GB","addr:housename":"Aldi","addr:housenumber":"27","addr:postcode":"TR14 7DF","addr:street":"Church Street","brand":"ALDI","brand:wikidata":"Q41171672","brand:wikipedia":"en:Aldi","building:levels":"2","smoking":"no","website":"https:\/\/www.aldi.co.uk\/store\/s-uk-E0325"}}, "geometry":{"type":"MultiPolygon","coordinates":[[[[-5.30115,50.21423],[-5.30115,50.21408],[-5.30123,50.21408],[-5.30123,50.2139],[-5.30123,50.21384],[-5.30125,50.21379],[-5.30125,50.21373],[-5.30125,50.21373],[-5.30136,50.21373],[-5.30136,50.21372],[-5.30149,50.21372],[-5.30149,50.21373],[-5.30167,50.21373],[-5.30167,50.21387],[-5.30161,50.21387],[-5.30161,50.21422],[-5.30141,50.21422],[-5.3014,50.21427],[-5.3013,50.21426],[-5.30131,50.21424],[-5.30115,50.21423]]]]}},
{ "type":"Feature","properties":{"osm_way_id":"563814521","name":"Co-op Food","building":"yes","shop":"supermarket","other":{"addr:city":"Redruth","addr:country":"GB","addr:hamlet":"Illogan","addr:housename":"Pooleys Freezer Centre","addr:postcode":"TR15 3JL","addr:street":"Higher Broad Lane","brand":"Co-op Food","brand:wikidata":"Q3277439","brand:wikipedia":"en:Co-op Food","fhrs:id":"900619","operator":"The Co-operative Group","operator:wikidata":"Q117202","operator:wikipedia":"en:The Co-operative Group"}}, "geometry":{"type":"MultiPolygon","coordinates":[[[[-5.25717,50.23188],[-5.25689,50.23199],[-5.25672,50.23181],[-5.257,50.2317],[-5.25717,50.23188]]]]}},
{ "type":"Feature","properties":{"osm_way_id":"563910713","name":"Co-op Food","building":"yes","shop":"supermarket","other":{"addr:city":"Redruth","addr:street":"Falmouth Road","brand":"Co-op Food","brand:wikidata":"Q3277439","brand:wikipedia":"en:Co-op Food","operator":"The Co-operative Group","operator:wikidata":"Q117202","operator:wikipedia":"en:The Co-operative Group"}}, "geometry":{"type":"MultiPolygon","coordinates":[[[[-5.22835,50.23078],[-5.22822,50.23065],[-5.22806,50.23072],[-5.22817,50.23082],[-5.22824,50.23079],[-5.22827,50.23081],[-5.22835,50.23078]]]]}},
{ "type":"Feature","properties":{"osm_way_id":"564090089","name":"Lidl","building":"yes","shop":"supermarket","other":{"addr:city":"Bude","addr:postcode":"EX23 8BA","addr:street":"Sandpiper Road","brand":"Lidl","brand:wikidata":"Q151954","brand:wikipedia":"en:Lidl","fhrs:id":"842211"}}, "geometry":{"type":"MultiPolygon","coordinates":[[[[-4.52853,50.82682],[-4.52859,50.82621],[-4.52838,50.8262],[-4.52838,50.82627],[-4.52821,50.82626],[-4.52817,50.82664],[-4.52808,50.82664],[-4.52806,50.82681],[-4.52853,50.82682]]]]}},
{ "type":"Feature","properties":{"osm_way_id":"565557400","name":"Waitrose","shop":"supermarket","other":{"addr:city":"Truro","addr:postcode":"TR1 1RH","addr:street":"Union Hill","alt_name":"Waitrose Truro","brand":"Waitrose","brand:wikidata":"Q771734","brand:wikipedia":"en:Waitrose","fhrs:id":"900601","official_name":"Waitrose & Partners","opening_hours":"Mo-Sa 08:00-20:00, Su 10:00-16:00","operator":"Waitrose & Partners","source:id":"05FEB5F9-96D6-43AC-84E9-A496CD2AE6F7"}}, "geometry":{"type":"MultiPolygon","coordinates":[[[[-5.03474,50.27308],[-5.03349,50.27325],[-5.03336,50.27298],[-5.03335,50.27294],[-5.03341,50.27289],[-5.03367,50.27285],[-5.03369,50.27278],[-5.03439,50.27252],[-5.03444,50.2725],[-5.0346,50.27274],[-5.03463,50.27278],[-5.03474,50.27308]]]]}},
{ "type":"Feature","properties":{"osm_way_id":"609891712","name":"Co-op Food","building":"yes","shop":"supermarket","other":{"addr:city":"Mullion","addr:housename":"Co-op","addr:postcode":"TR12 7DQ","addr:street":"Nansmellyon Road","brand":"Co-op Food","brand:wikidata":"Q3277439","brand:wikipedia":"en:Co-op Food"}}, "geometry":{"type":"MultiPolygon","coordinates":[[[[-5.24452,50.02507],[-5.2447,50.02497],[-5.24465,50.02493],[-5.24457,50.02488],[-5.24456,50.02487],[-5.24447,50.02492],[-5.24441,50.02488],[-5.24434,50.02491],[-5.2444,50.02496],[-5.24438,50.02497],[-5.24452,50.02507]]]]}},
{ "type":"Feature","properties":{"osm_way_id":"613147034","name":"Co-op Food","building":"yes","shop":"supermarket","other":{"addr:city":"Bude","addr:postcode":"EX23 9QN","opening_hours":"Mo-Su 07:00-22:00"}}, "geometry":{"type":"MultiPolygon","coordinates":[[[[-4.48362,50.87693],[-4.48351,50.87674],[-4.48323,50.8768],[-4.48334,50.87699],[-4.48362,50.87693]]]]}},
{ "type":"Feature","properties":{"osm_way_id":"656024792","name":"Spar","building":"yes","shop":"supermarket","other":{"brand":"Spar","fhrs:id":"493774","addr:city":"Truro","source:id":"08B57C95-888A-486C-8CCC-70C7B175E0F7","addr:hamlet":"Carnon Downs","addr:street":"Smithy Lane","source:addr":"FHRS Open Data","addr:postcode":"TR3 6HW","addr:housename":"Spar Stores","brand:wikidata":"Q610492","brand:wikipedia":"en:Spar (retailer)"}}, "geometry":{"type":"MultiPolygon","coordinates":[[[[-5.08952,50.22134],[-5.08961,50.22137],[-5.08953,50.22145],[-5.08919,50.22134],[-5.08926,50.22126],[-5.08952,50.22134]]]]}},
{ "type":"Feature","properties":{"osm_way_id":"670695002","name":"Aldi","building":"retail","shop":"supermarket","other":{"brand":"ALDI","brand:wikidata":"Q41171672","brand:wikipedia":"en:Aldi"}}, "geometry":{"type":"MultiPolygon","coordinates":[[[[-4.70261,50.46785],[-4.70211,50.46774],[-4.70224,50.46749],[-4.70238,50.46724],[-4.7028,50.46733],[-4.70268,50.46756],[-4.70275,50.46757],[-4.70261,50.46785]]]]}},
{ "type":"Feature","properties":{"osm_way_id":"895663137","name":"Spar","building":"yes","shop":"supermarket","other":{"brand":"Spar","brand:wikidata":"Q610492","brand:wikipedia":"en:Spar (retailer)"}}, "geometry":{"type":"MultiPolygon","coordinates":[[[[-4.5151,50.45752],[-4.5152,50.45747],[-4.515,50.45731],[-4.51486,50.45738],[-4.51495,50.45746],[-4.51499,50.45744],[-4.5151,50.45752]]]]}},
{ "type":"Feature","properties":{"osm_way_id":"932522151","name":"Lidl","building":"yes","shop":"supermarket","other":{"addr:city":"St Austell","addr:country":"GB","addr:postcode":"PL25 3HR","addr:street":"Daniels Lane","brand":"Lidl","brand:wikidata":"Q151954","brand:wikipedia":"en:Lidl","fhrs:id":"1001473","operator":"Lidl"}}, "geometry":{"type":"MultiPolygon","coordinates":[[[[-4.76132,50.34033],[-4.76154,50.34063],[-4.76063,50.3409],[-4.76054,50.34078],[-4.76041,50.34059],[-4.76132,50.34033]]]]}}
]
}
