{
"type": "FeatureCollection",
"features": [
{ "type":"Feature","properties":{"osm_way_id":"60555626","name":"Fruit Import Terminal","building":"warehouse","other":{"mapseg:extra_node":"FIXME"}}, "geometry":{"type":"MultiPolygon","coordinates":[[[[0.74408,51.43927],[0.7443,51.4392],[0.74388,51.43865],[0.74409,51.43859],[0.74397,51.43843],[0.74374,51.43849],[0.74341,51.43805],[0.74083,51.4388],[0.74171,51.43998],[0.74395,51.43933],[0.744,51.43941],[0.74382,51.43947],[0.74409,51.43983],[0.74493,51.43959],[0.74473,51.43932],[0.74462,51.43935],[0.74455,51.43926],[0.74416,51.43937],[0.74408,51.43927]]]]}},
{ "type":"Feature","properties":{"osm_way_id":"332749911","name":"Adelphi","building":"warehouse","other":{"addr:housename":"Olympus House","addr:street":"Mill Green Road"}}, "geometry":{"type":"MultiPolygon","coordinates":[[[[-0.1025,51.0082],[-0.10234,51.00795],[-0.10177,51.0081],[-0.10193,51.00835],[-0.1025,51.0082]]]]}},
{ "type":"Feature","properties":{"osm_way_id":"332749923","name":"Adelphi","building":"warehouse","other":{"addr:housename":"Olympus House","addr:street":"Mill Green Road"}}, "geometry":{"type":"MultiPolygon","coordinates":[[[[-0.10174,51.00841],[-0.10156,51.00815],[-0.10116,51.00825],[-0.10117,51.00827],[-0.1013,51.00846],[-0.10134,51.00851],[-0.10174,51.00841]]]]}},
{ "type":"Feature","properties":{"osm_way_id":"332749924","name":"Adelphi","building":"warehouse","other":{"addr:housename":"Olympus House","addr:street":"Mill Green Road"}}, "geometry":{"type":"MultiPolygon","coordinates":[[[[-0.10117,51.00827],[-0.10086,51.00835],[-0.101,51.00854],[-0.1013,51.00846],[-0.10117,51.00827]]]]}},
{ "type":"Feature","properties":{"osm_way_id":"364385688","name":"International Logistics Group","building":"warehouse","other":{"addr:city":"East Grinstead","addr:housenumber":"Unit B","addr:place":"Birches Industrial Estata","addr:postcode":"RH19 1XZ","addr:street":"Hills Road","phone":"+44 844 264 8000","website":"https:\/\/www.ilguk.com\/contact-us\/location-maps"}}, "geometry":{"type":"MultiPolygon","coordinates":[[[[-0.03982,51.1344],[-0.03944,51.13407],[-0.03909,51.13423],[-0.03947,51.13456],[-0.03982,51.1344]]]]}},
{ "type":"Feature","properties":{"osm_way_id":"364385720","name":"International Logistics Group","building":"warehouse","other":{"addr:city":"East Grinstead","addr:housenumber":"Unit 25","addr:place":"Birches Industrial Estata","addr:postcode":"RH19 1XZ","addr:street":"Hills Road","phone":"+44 844 264 8000","website":"https:\/\/www.ilguk.com\/contact-us\/location-maps"}}, "geometry":{"type":"MultiPolygon","coordinates":[[[[-0.04147,51.13654],[-0.0411,51.13622],[-0.04057,51.13646],[-0.04093,51.13679],[-0.04147,51.13654]]]]}},
{ "type":"Feature","properties":{"osm_way_id":"364385730","name":"International Logistics Group","building":"warehouse","other":{"addr:city":"East Grinstead","addr:housename":"Logistics House","addr:housenumber":"Unit A","addr:place":"Birches Industrial Estata","addr:postcode":"RH19 1XZ","addr:street":"Hills Road","phone":"+44 844 264 8000","website":"https:\/\/www.ilguk.com\/contact-us\/location-maps"}}, "geometry":{"type":"MultiPolygon","coordinates":[[[[-0.03934,51.13477],[-0.03875,51.13428],[-0.0386,51.13435],[-0.03853,51.13429],[-0.03826,51.13442],[-0.03833,51.13448],[-0.03823,51.13452],[-0.03883,51.13501],[-0.03934,51.13477]]]]}},
{ "type":"Feature","properties":{"osm_way_id":"438450709","name":"S & P Comber Ltd","building":"warehouse","other":{"addr:city":"East Grinstead","addr:postcode":"RH19 4NS","addr:street":"Top Road","addr:village":"Sharpthorne"}}, "geometry":{"type":"MultiPolygon","coordinates":[[[[-0.04238,51.07525],[-0.04245,51.0751],[-0.04269,51.07515],[-0.04262,51.07529],[-0.04238,51.07525]]]]}},
{ "type":"Feature","properties":{"osm_way_id":"450667711","name":"Haywards Heath Delivery Office","amenity":"post_depot","building":"warehouse","other":{"addr:city":"Haywards Heath","addr:postcode":"RH16 1AA","addr:street":"Mill Green Road","brand":"Royal Mail","brand:wikidata":"Q638098","brand:wikipedia":"en:Royal Mail","opening_hours":"Mo-Fr 08:00-14:00,15:00-17:30; We 08:00-14:00,15:00-20:00; Sa 09:00-14:00","operator":"Royal Mail","operator:type":"private","operator:wikidata":"Q638098","operator:wikipedia":"en:Royal Mail"}}, "geometry":{"type":"MultiPolygon","coordinates":[[[[-0.10357,51.00628],[-0.10365,51.0063],[-0.10364,51.00631],[-0.10414,51.00638],[-0.10408,51.00654],[-0.10407,51.00654],[-0.10405,51.00659],[-0.10395,51.00657],[-0.10394,51.00659],[-0.10387,51.00658],[-0.10387,51.00659],[-0.10358,51.00655],[-0.10361,51.00648],[-0.1036,51.00642],[-0.10356,51.00642],[-0.10358,51.00637],[-0.10354,51.00636],[-0.10357,51.00628]]]]}},
{ "type":"Feature","properties":{"osm_way_id":"505615780","name":"Boeing","building":"warehouse","other":{"addr:city":"Burgess Hill","addr:postcode":"RH15 9UF","addr:street":"Charles Avenue"}}, "geometry":{"type":"MultiPolygon","coordinates":[[[[-0.15097,50.95056],[-0.15095,50.94992],[-0.15076,50.94992],[-0.15075,50.9496],[-0.15167,50.9496],[-0.15168,50.95023],[-0.15134,50.95023],[-0.15135,50.95056],[-0.15097,50.95056]]]]}},
{ "type":"Feature","properties":{"osm_way_id":"620357053","building":"warehouse"},"geometry":{"type":"MultiPolygon","coordinates":[[[[-0.16927,50.96681],[-0.16882,50.96679],[-0.16884,50.9666],[-0.16928,50.96661],[-0.16927,50.96681]]]]}},
{ "type":"Feature","properties":{"osm_way_id":"802200888","building":"warehouse"},"geometry":{"type":"MultiPolygon","coordinates":[[[[-0.1248,51.05397],[-0.12492,51.05394],[-0.12485,51.0538],[-0.12472,51.05383],[-0.1248,51.05397]]]]}},
{ "type":"Feature","properties":{"osm_way_id":"900510246","building":"warehouse","other":{"addr:city":"East Grinstead","addr:housenumber":"Unit 11","addr:postcode":"RH19 2HU","addr:street":"Charlwoods Road"}}, "geometry":{"type":"MultiPolygon","coordinates":[[[[-0.01292,51.1344],[-0.01284,51.13446],[-0.01261,51.13435],[-0.01269,51.13429],[-0.01292,51.1344]]]]}},
{ "type":"Feature","properties":{"osm_way_id":"900510248","name":"Hydraulic Plant Services","building":"warehouse","other":{"addr:city":"East Grinstead","addr:housenumber":"Unit 12A","addr:postcode":"RH19 2HU","addr:street":"Charlwoods Road"}}, "geometry":{"type":"MultiPolygon","coordinates":[[[[-0.0124,51.13473],[-0.01234,51.13478],[-0.01211,51.13468],[-0.01222,51.13458],[-0.01216,51.13455],[-0.01231,51.13443],[-0.01237,51.13446],[-0.01242,51.13442],[-0.01251,51.13446],[-0.01227,51.13467],[-0.0124,51.13473]]]]}},
{ "type":"Feature","properties":{"osm_way_id":"900510253","name":"Martell's International Removals","building":"warehouse","other":{"addr:city":"East Grinstead","addr:housenumber":"Unit 6","addr:postcode":"RH19 2HG","addr:street":"Charlwoods Road"}}, "geometry":{"type":"MultiPolygon","coordinates":[[[[-0.01551,51.13245],[-0.01515,51.13267],[-0.01487,51.13249],[-0.01524,51.13226],[-0.01551,51.13245]]]]}},
{ "type":"Feature","properties":{"osm_way_id":"900510254","name":"Martell's International Removals","building":"warehouse","other":{"addr:city":"East Grinstead","addr:housenumber":"Unit 5","addr:postcode":"RH19 2HG","addr:street":"Charlwoods Road"}}, "geometry":{"type":"MultiPolygon","coordinates":[[[[-0.01604,51.13216],[-0.01585,51.13227],[-0.01577,51.13231],[-0.01564,51.13238],[-0.01545,51.13225],[-0.01585,51.13203],[-0.01592,51.13208],[-0.01604,51.13216]]]]}},
{ "type":"Feature","properties":{"osm_way_id":"900510261","name":"Martell's International Removals","building":"warehouse","other":{"addr:city":"East Grinstead","addr:housenumber":"Unit 4","addr:postcode":"RH19 2HG","addr:street":"Charlwoods Road"}}, "geometry":{"type":"MultiPolygon","coordinates":[[[[-0.01606,51.13293],[-0.01586,51.13304],[-0.01566,51.13291],[-0.01553,51.13282],[-0.01572,51.13271],[-0.01606,51.13293]]]]}},
{ "type":"Feature","properties":{"osm_way_id":"900510266","name":"Wolseley","building":"warehouse","other":{"addr:city":"East Grinstead","addr:housenumber":"Unit N","addr:postcode":"RH19 2HH","addr:street":"Charlwoods Business Centre"}}, "geometry":{"type":"MultiPolygon","coordinates":[[[[-0.01528,51.13317],[-0.01536,51.13309],[-0.01504,51.13298],[-0.01491,51.13312],[-0.01516,51.13321],[-0.01522,51.13315],[-0.01528,51.13317]]]]}},
{ "type":"Feature","properties":{"osm_way_id":"900510293","name":"IRSAP","building":"warehouse","other":{"addr:city":"East Grinstead","addr:postcode":"RH19 2HY","addr:street":"Charlwoods Place"}}, "geometry":{"type":"MultiPolygon","coordinates":[[[[-0.01401,51.13511],[-0.01391,51.1352],[-0.01365,51.13515],[-0.01343,51.13504],[-0.0137,51.13482],[-0.01391,51.13493],[-0.01381,51.13502],[-0.01401,51.13511]]]]}},
{ "type":"Feature","properties":{"osm_way_id":"907119058","name":"SRL Traffic Systems","building":"warehouse","other":{"addr:city":"East Grinstead","addr:housenumber":"Unit 3A","addr:place":"Birches Industrial Estata","addr:postcode":"RH19 1XZ","addr:street":"Hills Road","email":"sales@srl.co.uk","website":"https:\/\/www.srl.co.uk"}}, "geometry":{"type":"MultiPolygon","coordinates":[[[[-0.0373,51.13563],[-0.03718,51.13553],[-0.0373,51.13547],[-0.03735,51.13551],[-0.03742,51.13557],[-0.0373,51.13563]]]]}},
{ "type":"Feature","properties":{"osm_way_id":"907119063","name":"SRL Traffic Systems","building":"warehouse","other":{"addr:city":"East Grinstead","addr:housenumber":"Unit 3F","addr:place":"Birches Industrial Estata","addr:postcode":"RH19 1XZ","addr:street":"Hills Road","email":"hire@srl.co.uk","website":"https:\/\/www.srl.co.uk"}}, "geometry":{"type":"MultiPolygon","coordinates":[[[[-0.03682,51.13508],[-0.0367,51.13514],[-0.03664,51.13509],[-0.03677,51.13503],[-0.03682,51.13508]]]]}},
{ "type":"Feature","properties":{"osm_way_id":"907136536","name":"Capital Logistics","building":"warehouse","other":{"addr:city":"East Grinstead","addr:housenumber":"Unit 1","addr:parentstreet":"Imberhorne Lane","addr:place":"Birches Industrial Estata","addr:postcode":"RH19 1XP","addr:street":"Willard Way","phone":"+44 8708 506066","website":"https:\/\/capitallogisticsworldwide.com"}}, "geometry":{"type":"MultiPolygon","coordinates":[[[[-0.04129,51.13755],[-0.04095,51.13757],[-0.04091,51.13733],[-0.04125,51.13731],[-0.04129,51.13755]]]]}},
{ "type":"Feature","properties":{"osm_way_id":"936788194","building":"warehouse"},"geometry":{"type":"MultiPolygon","coordinates":[[[[-0.01306,51.12866],[-0.01295,51.12869],[-0.01284,51.12871],[-0.01268,51.12845],[-0.01291,51.12841],[-0.01306,51.12866]]]]}}
]
}
