{
"type": "FeatureCollection",
"features": [
{ "type":"Feature","properties":{"osm_id":"2768085179","name":"The Co-operative Food","other":{"addr:city":"Ashby-de la-Zouch","addr:housenumber":"73","addr:postcode":"LE65 1AH","addr:street":"Market Street","brand":"The Co-operative Food","brand:wikidata":"Q107617274","fhrs:id":"23883","opening_hours":"Mo-Fr 07:00-22:30; Sa-Su 07:30-22:30","operator":"Central England Co-operative Society","phone":"+44 1530 417051","shop":"supermarket","website":"https:\/\/finder.coop.co.uk\/food\/store\/LE65-1AH\/73-market-street"}}, "geometry":{"type":"Point","coordinates":[-1.46989,52.74771 ]}},
{ "type":"Feature","properties":{"osm_id":"3244356124","name":"The Co-operative Food","other":{"addr:postcode":"LE67 8NR","addr:village":"Thringstone","operator":"Central England Co-operative Society","shop":"supermarket"}}, "geometry":{"type":"Point","coordinates":[-1.36865,52.75082 ]}},
{ "type":"Feature","properties":{"osm_id":"3273944885","other":{"emergency":"defibrillator"}}, "geometry":{"type":"Point","coordinates":[-1.33791,52.84239 ]}},
{ "type":"Feature","properties":{"osm_id":"8674077720","name":"Co-op Food","other":{"brand":"Co-op Food","brand:wikidata":"Q3277439","brand:wikipedia":"en:Co-op Food","opening_hours:covid19":"open","shop":"supermarket"}}, "geometry":{"type":"Point","coordinates":[-1.37863,52.71094 ]}},
{ "type":"Feature","properties":{"osm_way_id":"72483493","name":"The Co-operative Food","building":"retail","shop":"supermarket","other":{"addr:city":"Castle Donington","addr:country":"GB","addr:postcode":"DE74 2NP","addr:street":"Trent Lane","brand":"The Co-operative Food","brand:wikidata":"Q107617274","contact:website":"https:\/\/stores.centralengland.coop\/the-co-operative-food-castle-donington-1bb170431dab","fhrs:id":"4266","operator":"Central England Co-operative","operator:wikidata":"Q16986583","source:addr":"FHRS open data","wheelchair":"yes"}}, "geometry":{"type":"MultiPolygon","coordinates":[[[[-1.33706,52.84824],[-1.33709,52.84792],[-1.33771,52.84794],[-1.33767,52.84834],[-1.33707,52.84832],[-1.33708,52.84824],[-1.33706,52.84824]]]]}},
{ "type":"Feature","properties":{"osm_way_id":"103635347","name":"Co-op","building":"yes","shop":"supermarket","other":{"addr:postcode":"DE74 2EE","addr:street":"Market Place","fhrs:id":"5365","source:addr":"Food Hygiene Open Data"}}, "geometry":{"type":"MultiPolygon","coordinates":[[[[-1.2774,52.83508],[-1.27743,52.8349],[-1.27748,52.8349],[-1.2775,52.83484],[-1.2777,52.83486],[-1.27768,52.83506],[-1.2777,52.83506],[-1.2777,52.83511],[-1.2774,52.83508]]]]}},
{ "type":"Feature","properties":{"osm_way_id":"103635376","name":"Spar","building":"yes","shop":"supermarket","other":{"addr:housenumber":"70","addr:postcode":"DE74 2EN","addr:street":"Derby Road","alt_name":"Kegworth Service Station","brand":"Spar","brand:wikidata":"Q610492","brand:wikipedia":"en:Spar (retailer)","fhrs:id":"945227","old_name":"Londis Express","old_name:2":"Costcutter","old_ref:pol_id":"141619","source:addr:postcode":"FHRS Open Data","website":"https:\/\/www.spar.co.uk\/store-locator\/afb24169-spar-kegworth-service-station"}}, "geometry":{"type":"MultiPolygon","coordinates":[[[[-1.28285,52.83827],[-1.28292,52.83821],[-1.28265,52.8381],[-1.2826,52.83814],[-1.28265,52.83816],[-1.28263,52.83818],[-1.28285,52.83827]]]]}},
{ "type":"Feature","properties":{"osm_way_id":"161019571","name":"Morrisons","building":"yes","shop":"supermarket","other":{"addr:city":"Coalville","addr:postcode":"LE67 3FA","addr:street":"Whitwick Road","brand":"Morrisons","brand:wikidata":"Q922344","brand:wikipedia":"en:Morrisons","fhrs:id":"42547","payment:cash":"yes","payment:credit_cards":"yes","payment:debit_cards":"yes"}}, "geometry":{"type":"MultiPolygon","coordinates":[[[[-1.36566,52.72935],[-1.36567,52.72928],[-1.36537,52.72927],[-1.36535,52.72934],[-1.36529,52.72934],[-1.36503,52.72948],[-1.36509,52.72952],[-1.36495,52.7296],[-1.36501,52.72965],[-1.36486,52.72974],[-1.36482,52.72971],[-1.36465,52.72981],[-1.36462,52.72982],[-1.36499,52.73005],[-1.36506,52.73002],[-1.36532,52.7302],[-1.36537,52.73017],[-1.36561,52.73033],[-1.36634,52.7299],[-1.36576,52.72951],[-1.36585,52.72946],[-1.36566,52.72935]]]]}},
{ "type":"Feature","properties":{"osm_way_id":"161255009","name":"Asda","building":"retail","shop":"supermarket","other":{"addr:city":"Coalville","addr:housenumber":"13","addr:postcode":"LE67 3LF","addr:street":"Ashby Road","brand":"Asda","brand:wikidata":"Q297410","brand:wikipedia":"en:Asda","contact:facebook":"https:\/\/www.facebook.com\/asda\/","contact:twitter":"@asda","contact:website":"https:\/\/storelocator.asda.com\/east-midlands\/coalville\/ashby-road","fhrs:id":"198243","not:addr:postcode":"LE67 2LF","operator":"Asda Stores Ltd","source:addr":"FHRS Open Data"}}, "geometry":{"type":"MultiPolygon","coordinates":[[[[-1.37718,52.72572],[-1.37665,52.72563],[-1.37684,52.72523],[-1.37721,52.72529],[-1.37716,52.72539],[-1.37732,52.72541],[-1.37718,52.72572]]]]}},
{ "type":"Feature","properties":{"osm_way_id":"182528193","name":"ALDI","building":"yes","shop":"supermarket","other":{"addr:city":"Coalville","addr:postcode":"LE67 3TH","addr:street":"Thornborough Road","brand":"ALDI","brand:wikidata":"Q41171672","brand:wikipedia":"en:Aldi","fhrs:id":"41846"}}, "geometry":{"type":"MultiPolygon","coordinates":[[[[-1.37495,52.7312],[-1.37498,52.7309],[-1.37545,52.73092],[-1.37545,52.73089],[-1.37567,52.73089],[-1.37566,52.73101],[-1.37574,52.73101],[-1.37571,52.73123],[-1.37495,52.7312]]]]}},
{ "type":"Feature","properties":{"osm_way_id":"182528206","name":"Lidl","building":"yes","shop":"supermarket","other":{"addr:city":"Coalville","addr:housenumber":"48","addr:postcode":"LE67 3TH","addr:street":"Thornborough Road","brand":"Lidl","brand:wikidata":"Q151954","brand:wikipedia":"en:Lidl","fhrs:id":"25544"}}, "geometry":{"type":"MultiPolygon","coordinates":[[[[-1.37393,52.73147],[-1.3736,52.73146],[-1.37361,52.73135],[-1.37352,52.73135],[-1.37356,52.73082],[-1.37398,52.73084],[-1.37393,52.73147]]]]}},
{ "type":"Feature","properties":{"osm_way_id":"199789469","name":"Tesco Extra","building":"yes","shop":"supermarket","other":{"addr:city":"Ashby-de-la-Zouch","addr:postcode":"LE65 1TE","addr:street":"Resolution Road","brand":"Tesco Extra","brand:wikidata":"Q25172225","brand:wikipedia":"en:Tesco Extra","fhrs:id":"24151","opening_hours":"24\/7","toilets:wheelchair":"yes","wheelchair":"yes"}}, "geometry":{"type":"MultiPolygon","coordinates":[[[[-1.45356,52.75253],[-1.45327,52.75241],[-1.45306,52.75237],[-1.45299,52.75244],[-1.45323,52.75253],[-1.45312,52.75263],[-1.45265,52.75245],[-1.45253,52.75257],[-1.45222,52.75245],[-1.45163,52.75302],[-1.45264,52.75341],[-1.45321,52.75363],[-1.45391,52.75299],[-1.45371,52.75292],[-1.45332,52.75276],[-1.45356,52.75253]]]]}},
{ "type":"Feature","properties":{"osm_way_id":"207510908","name":"The Co-operative Food","building":"yes","shop":"supermarket","other":{"addr:city":"Ashby-de la-Zouch","addr:housenumber":"9","addr:postcode":"LE65 2HF","addr:street":"Derby Road","brand":"The Co-operative Food","brand:wikidata":"Q107617274","fhrs:id":"20918","opening_hours":"Mo-Sa 06:00-22:00; Su 10:00-16:00","operator":"The Co-operative Group","phone":"+44 1530 415008","website":"https:\/\/finder.coop.co.uk\/food\/store\/LE65-2HF\/9-derby-road"}}, "geometry":{"type":"MultiPolygon","coordinates":[[[[-1.4744,52.74741],[-1.47453,52.7473],[-1.47448,52.74708],[-1.4736,52.74716],[-1.4737,52.74748],[-1.4744,52.74741]]]]}},
{ "type":"Feature","properties":{"osm_way_id":"317112404","name":"The Co-operative Food","building":"yes","shop":"supermarket","other":{"addr:city":"Coalville","addr:postcode":"LE67 4HS","addr:street":"Cropston Drive","fhrs:id":"32023","operator":"Central England Co-operative Society"}}, "geometry":{"type":"MultiPolygon","coordinates":[[[[-1.3396,52.71916],[-1.33971,52.71931],[-1.33946,52.71939],[-1.33933,52.71921],[-1.33954,52.71915],[-1.3396,52.71916]]]]}},
{ "type":"Feature","properties":{"osm_way_id":"317112625","name":"The Co-operative Food","building":"yes","shop":"supermarket","other":{"addr:postcode":"LE67 4DP","addr:street":"Meadow Lane","fhrs:id":"32526","operator":"Central England Co-operative Society","source:addr":"FHRS Open Data"}}, "geometry":{"type":"MultiPolygon","coordinates":[[[[-1.34012,52.72679],[-1.33993,52.72688],[-1.33981,52.72679],[-1.33983,52.72678],[-1.33964,52.72664],[-1.33972,52.7266],[-1.33988,52.72673],[-1.33995,52.7267],[-1.34,52.72673],[-1.34002,52.72672],[-1.34012,52.72679]]]]}},
{ "type":"Feature","properties":{"osm_way_id":"318061103","name":"The Co-operative Food","building":"yes","shop":"supermarket","other":{"addr:housenumber":"7","addr:postcode":"DE12 7HR","addr:street":"High Street","fhrs:id":"949492","operator":"Central England Co-operative Society"}}, "geometry":{"type":"MultiPolygon","coordinates":[[[[-1.50882,52.70447],[-1.50886,52.70448],[-1.50896,52.70453],[-1.50903,52.70456],[-1.50886,52.70469],[-1.50865,52.70459],[-1.50863,52.70454],[-1.50866,52.70451],[-1.50873,52.70455],[-1.50882,52.70447]]]]}},
{ "type":"Feature","properties":{"osm_way_id":"318104185","name":"Co-op Food","building":"yes","shop":"supermarket","other":{"addr:city":"Ibstock","addr:housenumber":"2","addr:postcode":"LE67 6HA","addr:street":"Ashby Road","brand":"Co-op Food","brand:wikidata":"Q3277439","brand:wikipedia":"en:Co-op Food","fhrs:id":"64487","operator":"Central England Co-operative"}}, "geometry":{"type":"MultiPolygon","coordinates":[[[[-1.40008,52.69144],[-1.40078,52.69164],[-1.40075,52.69167],[-1.40087,52.6917],[-1.40075,52.69186],[-1.40056,52.69181],[-1.40052,52.69186],[-1.39989,52.69168],[-1.40008,52.69144]]]]}},
{ "type":"Feature","properties":{"osm_way_id":"318106191","name":"The Co-operative Food","building":"shop","shop":"supermarket","other":{"addr:city":"Castle Donington","addr:housenumber":"35-37","addr:postcode":"DE74 2LA","addr:street":"Borough Street","addr:suburb":"Castle Donington","fhrs:id":"945225","old_fhrs:id":"1524","operator":"The Co-operative Group","source:postcode":"Food hygiene open data"}}, "geometry":{"type":"MultiPolygon","coordinates":[[[[-1.33799,52.84235],[-1.33819,52.84245],[-1.33821,52.84243],[-1.33828,52.84247],[-1.33847,52.84255],[-1.33837,52.84263],[-1.3381,52.84251],[-1.33789,52.8424],[-1.33791,52.84239],[-1.33799,52.84235]]]]}},
{ "type":"Feature","properties":{"osm_way_id":"425104742","name":"Co-Op","building":"yes","shop":"supermarket","other":{"addr:city":"Swadlincote","addr:postcode":"DE12 6AL","addr:street":"Shortheath Road","addr:village":"Moira","fhrs:id":"949489","old_name":"Moira Firestation","operator":"Co Operative Food"}}, "geometry":{"type":"MultiPolygon","coordinates":[[[[-1.53698,52.73556],[-1.53684,52.73543],[-1.53678,52.73546],[-1.53673,52.73542],[-1.53702,52.7353],[-1.53721,52.73546],[-1.53698,52.73556]]]]}},
{ "type":"Feature","properties":{"osm_way_id":"478059881","name":"The Co-operatve Food","shop":"supermarket","other":{"addr:housename":"Co-op","addr:postcode":"LE67 5HF","operator":"Central England Co-operative"}}, "geometry":{"type":"MultiPolygon","coordinates":[[[[-1.3557,52.74052],[-1.35599,52.74067],[-1.35537,52.74099],[-1.35533,52.74099],[-1.35529,52.74099],[-1.3551,52.74077],[-1.35546,52.74065],[-1.3557,52.74052]]]]}},
{ "type":"Feature","properties":{"osm_way_id":"550093319","name":"ALDI","building":"yes","shop":"supermarket","other":{"addr:city":"Ashby-de-la-Zouch","addr:housenumber":"1","addr:postcode":"LE65 1JS","addr:street":"Dents Road","brand":"ALDI","brand:wikidata":"Q41171672","brand:wikipedia":"en:Aldi","fhrs:id":"609155"}}, "geometry":{"type":"MultiPolygon","coordinates":[[[[-1.45365,52.75064],[-1.4544,52.7506],[-1.45436,52.75028],[-1.45361,52.75032],[-1.45365,52.75064]]]]}},
{ "type":"Feature","properties":{"osm_way_id":"705715118","name":"M&S Foodhall","building":"yes","shop":"supermarket","other":{"addr:city":"Ashby-de-la-Zouch","addr:postcode":"LE65 1GW","addr:street":"Smithy Road","brand":"M&S Foodhall","brand:wikidata":"Q714491","brand:wikipedia":"en:Marks & Spencer"}}, "geometry":{"type":"MultiPolygon","coordinates":[[[[-1.45182,52.75154],[-1.45118,52.75154],[-1.45119,52.7513],[-1.45128,52.7513],[-1.45129,52.75121],[-1.45156,52.75121],[-1.45156,52.75126],[-1.45182,52.75126],[-1.45182,52.75154]]]]}}
]
}
