{
"type": "FeatureCollection",
"features": [
{ "type":"Feature","properties":{"osm_way_id":"123817264","name":"Saniflo Ltd","building":"warehouse","other":{"addr:city":"Watford","addr:housename":"Unit 1","addr:postcode":"WD24 4WP","addr:street":"Colonial Way"}}, "geometry":{"type":"MultiPolygon","coordinates":[[[[-0.38914,51.66644],[-0.38872,51.66636],[-0.38893,51.66594],[-0.38935,51.66602],[-0.38914,51.66644]]]]}},
{ "type":"Feature","properties":{"osm_way_id":"123817272","name":"Fairway Tyre & Auto Services","building":"warehouse","other":{"addr:city":"Watford","addr:housename":"Fairway Tyre & Auto Services","addr:housenumber":"11","addr:postcode":"WD24 4PT","addr:street":"Colonial Way"}}, "geometry":{"type":"MultiPolygon","coordinates":[[[[-0.39072,51.6672],[-0.39034,51.6672],[-0.39034,51.66702],[-0.39072,51.66702],[-0.39072,51.6672]]]]}},
{ "type":"Feature","properties":{"osm_way_id":"123817277","name":"Peerless-AV","building":"warehouse","other":{"addr:city":"Watford","addr:housename":"Watford Interchange","addr:housenumber":"Unit 3","addr:postcode":"WD24 4WP","addr:street":"Colonial Way"}}, "geometry":{"type":"MultiPolygon","coordinates":[[[[-0.38987,51.66659],[-0.38959,51.66654],[-0.38981,51.66613],[-0.39009,51.66618],[-0.38987,51.66659]]]]}},
{ "type":"Feature","properties":{"osm_way_id":"140362832","building":"warehouse","other":{"addr:city":"Watford"}}, "geometry":{"type":"MultiPolygon","coordinates":[[[[-0.3874,51.64805],[-0.38746,51.64797],[-0.38748,51.64797],[-0.38754,51.6479],[-0.38752,51.64789],[-0.38758,51.6478],[-0.38692,51.64762],[-0.38674,51.64786],[-0.38661,51.64803],[-0.38728,51.64822],[-0.38731,51.64817],[-0.38733,51.64818],[-0.38739,51.6481],[-0.38737,51.64809],[-0.3874,51.64805]]]]}},
{ "type":"Feature","properties":{"osm_way_id":"159180221","name":"BlueBox Storage","building":"warehouse"},"geometry":{"type":"MultiPolygon","coordinates":[[[[-0.41625,51.65386],[-0.41653,51.65378],[-0.41677,51.65412],[-0.41653,51.65419],[-0.41637,51.65397],[-0.41633,51.65398],[-0.41625,51.65386]]]]}},
{ "type":"Feature","properties":{"osm_way_id":"492324101","building":"warehouse"},"geometry":{"type":"MultiPolygon","coordinates":[[[[-0.42871,51.6492],[-0.42827,51.64895],[-0.42918,51.64834],[-0.42962,51.64859],[-0.42871,51.6492]]]]}},
{ "type":"Feature","properties":{"osm_way_id":"492324103","building":"warehouse"},"geometry":{"type":"MultiPolygon","coordinates":[[[[-0.42799,51.64879],[-0.42703,51.64822],[-0.42737,51.64799],[-0.42834,51.64855],[-0.42799,51.64879]]]]}},
{ "type":"Feature","properties":{"osm_way_id":"492324104","building":"warehouse"},"geometry":{"type":"MultiPolygon","coordinates":[[[[-0.42856,51.64836],[-0.4283,51.64821],[-0.42884,51.64785],[-0.4291,51.648],[-0.42856,51.64836]]]]}},
{ "type":"Feature","properties":{"osm_way_id":"492324108","building":"warehouse"},"geometry":{"type":"MultiPolygon","coordinates":[[[[-0.42794,51.64799],[-0.42762,51.64781],[-0.42816,51.64745],[-0.42848,51.64764],[-0.42794,51.64799]]]]}},
{ "type":"Feature","properties":{"osm_way_id":"924843880","name":"Tolpits Motors","building":"warehouse","shop":"car_repair","other":{"addr:city":"Watford","addr:housenumber":"1","addr:postcode":"WD18 7QG","addr:street":"Tolpits Lane","opening_hours":"Mo-Th 08:00-18:00; Fr 08:00-17:00","payment:cash":"yes","payment:credit_cards":"yes","payment:debit_cards":"yes","phone":"+44 1923 225126","website":"http:\/\/www.tolpitsmotors.com\/","wheelchair":"yes"}}, "geometry":{"type":"MultiPolygon","coordinates":[[[[-0.41389,51.64909],[-0.41379,51.64905],[-0.41407,51.64875],[-0.4142,51.64878],[-0.41407,51.64894],[-0.41404,51.64897],[-0.41401,51.64899],[-0.41389,51.64909]]]]}},
{ "type":"Feature","properties":{"osm_way_id":"936511310","building":"warehouse"},"geometry":{"type":"MultiPolygon","coordinates":[[[[-0.41327,51.65039],[-0.41308,51.6503],[-0.41389,51.64976],[-0.41408,51.64987],[-0.41368,51.65012],[-0.41327,51.65039]]]]}},
{ "type":"Feature","properties":{"osm_way_id":"936511311","building":"warehouse"},"geometry":{"type":"MultiPolygon","coordinates":[[[[-0.41425,51.65046],[-0.41412,51.65038],[-0.41403,51.65044],[-0.4139,51.65036],[-0.41422,51.65015],[-0.41435,51.65007],[-0.4145,51.65017],[-0.41442,51.65022],[-0.41453,51.65028],[-0.41425,51.65046]]]]}},
{ "type":"Feature","properties":{"osm_way_id":"996335613","name":"Toolstation","building":"warehouse","other":{"addr:housename":"Unit 2","addr:housenumber":"11","addr:street":"Colonial Way","opening_hours":"Mo-Fr 07:00-20:00"}}, "geometry":{"type":"MultiPolygon","coordinates":[[[[-0.39071,51.66738],[-0.39034,51.66738],[-0.39034,51.6672],[-0.39072,51.6672],[-0.39071,51.66738]]]]}},
{ "type":"Feature","properties":{"osm_way_id":"996335614","building":"warehouse"},"geometry":{"type":"MultiPolygon","coordinates":[[[[-0.39071,51.66752],[-0.39034,51.66752],[-0.39034,51.66738],[-0.39071,51.66738],[-0.39071,51.66752]]]]}},
{ "type":"Feature","properties":{"osm_way_id":"996335615","name":"M.A.Oriental Foods Ltd","building":"warehouse","other":{"addr:city":"Watford","addr:housenumber":"15","addr:postcode":"WD24 4PT","addr:street":"Colonial Way"}}, "geometry":{"type":"MultiPolygon","coordinates":[[[[-0.38801,51.66722],[-0.38767,51.66713],[-0.38799,51.66664],[-0.38824,51.66671],[-0.38825,51.66671],[-0.38833,51.66673],[-0.38801,51.66722]]]]}},
{ "type":"Feature","properties":{"osm_way_id":"996335617","name":"RS Components Ltd","building":"warehouse","other":{"addr:city":"Watford","addr:housename":"Watford Interchange","addr:postcode":"WD24 4WP","addr:street":"Colonial Way"}}, "geometry":{"type":"MultiPolygon","coordinates":[[[[-0.38942,51.66651],[-0.38914,51.66644],[-0.38935,51.66602],[-0.38964,51.66609],[-0.38942,51.66651]]]]}},
{ "type":"Feature","properties":{"osm_way_id":"996481018","name":"Hancocks Wholesale","building":"warehouse"},"geometry":{"type":"MultiPolygon","coordinates":[[[[-0.39021,51.66667],[-0.38987,51.66659],[-0.39009,51.66618],[-0.39043,51.66626],[-0.39021,51.66667]]]]}},
{ "type":"Feature","properties":{"osm_way_id":"1019053118","building":"warehouse"},"geometry":{"type":"MultiPolygon","coordinates":[[[[-0.39046,51.65429],[-0.39027,51.65425],[-0.39046,51.65387],[-0.3905,51.65388],[-0.39064,51.6539],[-0.39046,51.65429]]]]}}
]
}
