{
"type": "FeatureCollection",
"features": [
{ "type":"Feature","properties":{"osm_id":"316149077","name":"Co-op Food","other":{"addr:city":"Chichester","addr:postcode":"PO20 2HS","addr:street":"Malcolm Road","addr:suburb":"Tangmere","brand":"Co-op Food","brand:wikidata":"Q3277439","brand:wikipedia":"en:Co-op Food","fhrs:id":"650343","opening_hours":"Mo-Fr 07:00-23:00; Sa-Su 07:00-22:00","operator":"The Co-operative Group","operator:wikidata":"Q117202","operator:wikipedia":"en:The Co-operative Group","pay_point":"yes","phone":"+44 1243 780185","shop":"supermarket"}}, "geometry":{"type":"Point","coordinates":[-0.71697,50.85142 ]}},
{ "type":"Feature","properties":{"osm_id":"1909139582","name":"Co-op Food","other":{"addr:city":"Chichester","addr:housename":"Summerdale Service Station","addr:postcode":"PO19 5RD","addr:street":"Lavant Road","brand":"Co-op Food","brand:wikidata":"Q3277439","brand:wikipedia":"en:Co-op Food","fhrs:id":"1020031","opening_hours":"07:00-23:00","operator":"The Co-operative Group","operator:wikidata":"Q117202","operator:wikipedia":"en:The Co-operative Group","shop":"supermarket"}}, "geometry":{"type":"Point","coordinates":[-0.78416,50.85925 ]}},
{ "type":"Feature","properties":{"osm_id":"4497368289","name":"The Food Warehouse","other":{"addr:city":"Chichester","addr:housename":"Unit A2","addr:postcode":"PO19 7AG","addr:street":"Barnfield Drive","branch":"by Iceland","brand":"The Food Warehouse","brand:wikidata":"Q87263899","fhrs:id":"917776","shop":"supermarket"}}, "geometry":{"type":"Point","coordinates":[-0.75875,50.84693 ]}},
{ "type":"Feature","properties":{"osm_id":"4902801279","name":"Co-op Food","other":{"addr:city":"Emsworth","addr:country":"GB","addr:housenumber":"261","addr:postcode":"PO10 8JD","addr:street":"Main Road","addr:town":"Southbourne","brand":"Co-op Food","brand:wikidata":"Q3277439","brand:wikipedia":"en:Co-op Food","fhrs:id":"946855","opening_hours":"Mo-Su 06:30-22:00","operator":"The Co-operative Group","operator:wikidata":"Q117202","operator:wikipedia":"en:The Co-operative Group","pay_point":"yes","phone":"+44 1243 375501","shop":"supermarket"}}, "geometry":{"type":"Point","coordinates":[-0.91034,50.84534 ]}},
{ "type":"Feature","properties":{"osm_id":"4944511321","name":"ALDI","other":{"addr:housename":"Unit B","addr:postcode":"PO19 7AG","addr:street":"Barnfield Drive","brand":"ALDI","brand:wikidata":"Q41171672","brand:wikipedia":"en:Aldi","fhrs:id":"956992","opening_hours":"Mo-Sa 08:00-22:00; Su 10:00-16:00","shop":"supermarket"}}, "geometry":{"type":"Point","coordinates":[-0.76052,50.84736 ]}},
{ "type":"Feature","properties":{"osm_id":"7288099649","other":{"access":"customers","amenity":"bicycle_parking","bicycle_parking":"stands","capacity":"5","covered":"yes","fee":"no"}}, "geometry":{"type":"Point","coordinates":[-0.7611,50.84277 ]}},
{ "type":"Feature","properties":{"osm_way_id":"27363308","name":"Sainsbury's","building":"yes","shop":"supermarket","other":{"addr:city":"Chichester","addr:postcode":"PO19 7YR","addr:street":"Westhampnett Road","alt_name":"Sainsbury's Chichester Superstore","brand":"Sainsbury's","brand:wikidata":"Q152096","brand:wikipedia":"en:Sainsbury's","fhrs:id":"147834","source:building":"OS_OpenData_StreetView","website":"https:\/\/stores.sainsburys.co.uk\/0006\/chichester"}}, "geometry":{"type":"MultiPolygon","coordinates":[[[[-0.75684,50.84378],[-0.75687,50.84376],[-0.75688,50.84374],[-0.7569,50.84372],[-0.7569,50.8437],[-0.75691,50.84369],[-0.75691,50.84367],[-0.75692,50.84366],[-0.75694,50.84365],[-0.75705,50.84361],[-0.7573,50.84359],[-0.75723,50.84312],[-0.75679,50.84315],[-0.75678,50.84305],[-0.75657,50.84306],[-0.75654,50.84306],[-0.75652,50.84305],[-0.7565,50.84305],[-0.75649,50.84304],[-0.75648,50.84302],[-0.75648,50.843],[-0.75657,50.843],[-0.75656,50.84291],[-0.75656,50.84288],[-0.7563,50.84289],[-0.75632,50.84301],[-0.75594,50.84303],[-0.75595,50.84309],[-0.7559,50.84311],[-0.75587,50.84313],[-0.75584,50.84316],[-0.75572,50.84317],[-0.75567,50.84317],[-0.75568,50.84321],[-0.75548,50.84322],[-0.75555,50.84385],[-0.75561,50.84385],[-0.75578,50.84383],[-0.7558,50.84383],[-0.75582,50.84382],[-0.75584,50.84382],[-0.75585,50.84381],[-0.75586,50.84379],[-0.75586,50.84378],[-0.75586,50.84376],[-0.75586,50.84375],[-0.75591,50.84374],[-0.75592,50.84377],[-0.75593,50.84378],[-0.75596,50.84381],[-0.75598,50.84382],[-0.75601,50.84383],[-0.75603,50.84383],[-0.75606,50.84383],[-0.75645,50.84382],[-0.75647,50.84382],[-0.75649,50.84381],[-0.75651,50.84381],[-0.75652,50.8438],[-0.75653,50.84379],[-0.75654,50.84378],[-0.75656,50.84379],[-0.75658,50.8438],[-0.75661,50.8438],[-0.75666,50.8438],[-0.75669,50.84379],[-0.7567,50.84377],[-0.75671,50.84375],[-0.75672,50.84377],[-0.75674,50.84378],[-0.75676,50.84379],[-0.75678,50.84379],[-0.75681,50.84378],[-0.75684,50.84378]]]]}},
{ "type":"Feature","properties":{"osm_way_id":"38043139","name":"Scotmid","building":"retail","shop":"supermarket","other":{"addr:city":"South Queensferry","addr:country":"GB","addr:housenumber":"55","addr:postcode":"EH30 9PH","addr:street":"The Load","brand":"Scotmid","brand:wikidata":"Q7435719","brand:wikipedia":"en:Scotmid","building:levels":"1","fhrs:id":"522940","opening_hours":"Mo-Su 07:00-22:00","roof:levels":"1","roof:shape":"hipped"}}, "geometry":{"type":"MultiPolygon","coordinates":[[[[-3.39927,55.98962],[-3.39929,55.98948],[-3.39943,55.98948],[-3.39946,55.98919],[-3.39928,55.98918],[-3.39929,55.98913],[-3.3987,55.98911],[-3.39868,55.98928],[-3.39863,55.98928],[-3.39862,55.98939],[-3.39855,55.98939],[-3.39854,55.98951],[-3.3986,55.98952],[-3.39859,55.9896],[-3.39927,55.98962]]]]}},
{ "type":"Feature","properties":{"osm_way_id":"71881291","name":"M&S Foodhall","building":"yes","shop":"supermarket","other":{"addr:city":"Chichester","addr:housenumber":"3A","addr:postcode":"PO19 7YH","addr:street":"Portfield Way","brand":"M&S Foodhall","brand:wikidata":"Q714491","brand:wikipedia":"en:Marks & Spencer","fhrs:id":"898219"}}, "geometry":{"type":"MultiPolygon","coordinates":[[[[-0.7564,50.84133],[-0.75633,50.84125],[-0.75627,50.84127],[-0.7562,50.8412],[-0.75626,50.84118],[-0.75619,50.8411],[-0.75695,50.84081],[-0.75717,50.84104],[-0.7564,50.84133]]]]}},
{ "type":"Feature","properties":{"osm_way_id":"115908622","name":"Waitrose","building":"yes","shop":"supermarket","other":{"addr:city":"Chichester","addr:postcode":"PO19 1RD","addr:street":"Via Ravenna","brand":"Waitrose","brand:wikidata":"Q771734","brand:wikipedia":"en:Waitrose","fhrs:id":"147736","official_name":"Waitrose & Partners","opening_hours":"Mo-Th 07:30-20:00; Fr 07:30-21:00; Sa 07:30-20:00; Su 10:00-16:00","operator":"Waitrose & Partners","phone":"+44 1243 537512","website":"https:\/\/www.waitrose.com\/chichester"}}, "geometry":{"type":"MultiPolygon","coordinates":[[[[-0.78398,50.83273],[-0.78366,50.8326],[-0.78368,50.83205],[-0.78386,50.83205],[-0.78386,50.8322],[-0.78436,50.83222],[-0.78433,50.83273],[-0.78398,50.83273]]]]}},
{ "type":"Feature","properties":{"osm_way_id":"146337428","name":"Tesco Extra","building":"yes","shop":"supermarket","other":{"addr:postcode":"PO19 3JT","addr:street":"Fishbourne Road East","brand":"Tesco Extra","brand:wikidata":"Q25172225","brand:wikipedia":"en:Tesco Extra","fhrs:id":"148277","operator":"Tesco Stores Ltd"}}, "geometry":{"type":"MultiPolygon","coordinates":[[[[-0.80145,50.83407],[-0.80099,50.83391],[-0.80087,50.83404],[-0.80047,50.83403],[-0.80047,50.834],[-0.80041,50.834],[-0.80041,50.83384],[-0.80028,50.83384],[-0.80024,50.83456],[-0.80012,50.83456],[-0.80003,50.83461],[-0.80003,50.83478],[-0.80011,50.83484],[-0.8001,50.83498],[-0.80019,50.83498],[-0.80019,50.83509],[-0.80137,50.83511],[-0.80135,50.8343],[-0.80144,50.83431],[-0.80145,50.83407]]]]}},
{ "type":"Feature","properties":{"osm_way_id":"173492569","name":"Co-op Food","building":"supermarket","shop":"supermarket","other":{"addr:city":"Selsey, Chichester","addr:postcode":"PO20 0QG","addr:street":"High Street","brand":"Co-op Food","brand:wikidata":"Q3277439","brand:wikipedia":"en:Co-op Food","description":"This Coop is a 'blue' Co-op","fhrs:id":"848177","operator":"The Co-operative Group","operator:wikidata":"Q117202","operator:wikipedia":"en:The Co-operative Group","pay_point":"yes","toilets":"no","website":"https:\/\/www.coop.co.uk\/store-finder\/PO20-0QB\/123-125-high-street"}}, "geometry":{"type":"MultiPolygon","coordinates":[[[[-0.7924,50.7342],[-0.79232,50.73418],[-0.79229,50.73422],[-0.79203,50.73414],[-0.79186,50.73437],[-0.79182,50.73436],[-0.79172,50.7345],[-0.79185,50.73454],[-0.79188,50.7345],[-0.79213,50.73457],[-0.7924,50.7342]]]]}},
{ "type":"Feature","properties":{"osm_way_id":"545488234","name":"ALDI","building":"yes","shop":"supermarket","other":{"brand":"ALDI","brand:wikidata":"Q41171672","brand:wikipedia":"en:Aldi"}}, "geometry":{"type":"MultiPolygon","coordinates":[[[[-0.76005,50.8473],[-0.76084,50.84714],[-0.76099,50.84743],[-0.76019,50.84759],[-0.76005,50.8473]]]]}},
{ "type":"Feature","properties":{"osm_way_id":"636210991","name":"Co-op Food","building":"yes","shop":"supermarket","other":{"addr:city":"Chichester","addr:postcode":"PO19 3LB","addr:street":"Oliver Whitby Road","brand":"Co-op Food","brand:wikidata":"Q3277439","brand:wikipedia":"en:Co-op Food","fhrs:id":"198549","opening_hours":"07:00-22:00","operator":"The Co-operative Group","operator:wikidata":"Q117202","operator:wikipedia":"en:The Co-operative Group","phone":"+44 1243 784922"}}, "geometry":{"type":"MultiPolygon","coordinates":[[[[-0.7908,50.84221],[-0.79081,50.84202],[-0.79052,50.84202],[-0.79052,50.8422],[-0.7908,50.84221]]]]}},
{ "type":"Feature","properties":{"osm_way_id":"780486268","name":"Lidl","building":"retail","shop":"supermarket","other":{"addr:city":"Chichester","addr:country":"GB","addr:postcode":"PO19 7UH","addr:street":"Abel Smith Way","brand":"Lidl","brand:wikidata":"Q151954","brand:wikipedia":"en:Lidl","fhrs:id":"1229776","opening_hours":"Mo-Sa 08:00-20:00; Su 10:00-16:00","wheelchair":"yes"}}, "geometry":{"type":"MultiPolygon","coordinates":[[[[-0.7612,50.84275],[-0.7611,50.84277],[-0.76086,50.84281],[-0.76078,50.84283],[-0.76074,50.84283],[-0.76084,50.84304],[-0.7609,50.84303],[-0.76107,50.84341],[-0.76107,50.84342],[-0.76146,50.84335],[-0.7612,50.84275]]]]}},
{ "type":"Feature","properties":{"osm_way_id":"972350402","name":"Asda","building":"yes","shop":"supermarket","other":{"addr:city":"Selsey","addr:housename":"Unit 1","addr:postcode":"PO20 0FR","addr:street":"Wave Approach","brand":"Asda","brand:wikidata":"Q297410","brand:wikipedia":"en:Asda","phone":"+44 1243 940261"}}, "geometry":{"type":"MultiPolygon","coordinates":[[[[-0.78042,50.74278],[-0.78073,50.74247],[-0.78006,50.74221],[-0.77975,50.74252],[-0.78042,50.74278]]]]}}
]
}
