{
"type": "FeatureCollection",
"features": [
{ "type":"Feature","properties":{"osm_id":"1360406276","other":{"seamark:signal_station_traffic:category":"ipt","seamark:type":"signal_station_traffic"}}, "geometry":{"type":"Point","coordinates":[-0.33961,53.73599 ]}},
{ "type":"Feature","properties":{"osm_id":"6924806","name":"Booles Tools and Pipe Fittings Ltd","type":"multipolygon","building":"warehouse","other":{"addr:city":"Stockport","addr:postcode":"SK4 1NU","addr:street":"Haigh Avenue"}}, "geometry":{"type":"MultiPolygon","coordinates":[[[[-2.16321,53.42815],[-2.16274,53.42812],[-2.1628,53.4277],[-2.16326,53.42773],[-2.16321,53.42815]]],[[[-2.16274,53.42818],[-2.16274,53.42812],[-2.1628,53.4277],[-2.16281,53.42764],[-2.16262,53.42764],[-2.16255,53.42817],[-2.16274,53.42818]]]]}},
{ "type":"Feature","properties":{"osm_way_id":"28252887","building":"warehouse","other":{"addr:housename":"BiG Trade Park","addr:postcode":"SK8 6PT","addr:street":"Earl Road"}}, "geometry":{"type":"MultiPolygon","coordinates":[[[[-2.2039,53.35588],[-2.2032,53.35628],[-2.20191,53.35548],[-2.20261,53.35508],[-2.2039,53.35588]]]]}},
{ "type":"Feature","properties":{"osm_way_id":"28252888","building":"warehouse"},"geometry":{"type":"MultiPolygon","coordinates":[[[[-2.20443,53.35491],[-2.20442,53.35545],[-2.20456,53.35545],[-2.20455,53.35561],[-2.20425,53.35561],[-2.20425,53.35555],[-2.20417,53.35555],[-2.20418,53.35536],[-2.20365,53.35536],[-2.20366,53.3549],[-2.20443,53.35491]]]]}},
{ "type":"Feature","properties":{"osm_way_id":"121543866","building":"warehouse"},"geometry":{"type":"MultiPolygon","coordinates":[[[[-0.34097,53.73583],[-0.34093,53.73584],[-0.34096,53.73588],[-0.33982,53.73621],[-0.33979,53.73618],[-0.33977,53.73618],[-0.33961,53.73599],[-0.34081,53.73564],[-0.34097,53.73583]]]]}},
{ "type":"Feature","properties":{"osm_way_id":"203625892","building":"warehouse","other":{"building:levels":"1","roof:levels":"0"}}, "geometry":{"type":"MultiPolygon","coordinates":[[[[-2.18836,53.39656],[-2.1879,53.39654],[-2.18789,53.39657],[-2.1871,53.39653],[-2.18711,53.39649],[-2.18641,53.39646],[-2.18643,53.39633],[-2.18633,53.39632],[-2.1864,53.39574],[-2.1865,53.39575],[-2.18656,53.39533],[-2.18851,53.39543],[-2.18836,53.39656]]]]}},
{ "type":"Feature","properties":{"osm_way_id":"203625894","building":"warehouse","other":{"building:levels":"2","roof:levels":"1","roof:shape":"gabled"}}, "geometry":{"type":"MultiPolygon","coordinates":[[[[-2.1832,53.39434],[-2.18256,53.3944],[-2.18249,53.39409],[-2.18313,53.39403],[-2.1832,53.39434]]]]}},
{ "type":"Feature","properties":{"osm_way_id":"203625896","building":"warehouse"},"geometry":{"type":"MultiPolygon","coordinates":[[[[-2.17957,53.39155],[-2.17908,53.3918],[-2.17967,53.39222],[-2.18016,53.39197],[-2.17957,53.39155]]]]}},
{ "type":"Feature","properties":{"osm_way_id":"203625905","building":"warehouse","other":{"building:levels":"1","roof:levels":"1","roof:shape":"gabled"}}, "geometry":{"type":"MultiPolygon","coordinates":[[[[-2.18191,53.39501],[-2.18148,53.39515],[-2.18195,53.39564],[-2.18236,53.39549],[-2.18191,53.39501]]]]}},
{ "type":"Feature","properties":{"osm_way_id":"203625910","building":"warehouse","other":{"building:levels":"2","roof:levels":"1","roof:shape":"gabled"}}, "geometry":{"type":"MultiPolygon","coordinates":[[[[-2.18238,53.39551],[-2.1818,53.39571],[-2.18198,53.39588],[-2.18257,53.39568],[-2.18238,53.39551]]]]}},
{ "type":"Feature","properties":{"osm_way_id":"203625913","name":"UK Biobank","building":"warehouse","other":{"building:levels":"2","roof:levels":"1","roof:shape":"gabled"}}, "geometry":{"type":"MultiPolygon","coordinates":[[[[-2.18126,53.39536],[-2.1813,53.39507],[-2.18023,53.39504],[-2.1802,53.39533],[-2.18126,53.39536]]]]}},
{ "type":"Feature","properties":{"osm_way_id":"203625916","building":"warehouse","other":{"building:levels":"2","roof:levels":"1","roof:shape":"gabled"}}, "geometry":{"type":"MultiPolygon","coordinates":[[[[-2.18324,53.39496],[-2.18303,53.39503],[-2.1829,53.3949],[-2.18298,53.39488],[-2.18301,53.3949],[-2.18314,53.39486],[-2.18324,53.39496]]]]}},
{ "type":"Feature","properties":{"osm_way_id":"203625919","building":"warehouse"},"geometry":{"type":"MultiPolygon","coordinates":[[[[-2.17934,53.39144],[-2.1792,53.39134],[-2.1788,53.39154],[-2.1781,53.39105],[-2.17855,53.39082],[-2.1791,53.3912],[-2.17919,53.39115],[-2.1795,53.39136],[-2.17934,53.39144]]]]}},
{ "type":"Feature","properties":{"osm_way_id":"203678134","building":"warehouse","other":{"building:levels":"2","roof:levels":"0"}}, "geometry":{"type":"MultiPolygon","coordinates":[[[[-2.18808,53.39245],[-2.18728,53.39251],[-2.18698,53.39128],[-2.18778,53.39121],[-2.18808,53.39245]]]]}},
{ "type":"Feature","properties":{"osm_way_id":"462434069","building":"warehouse"},"geometry":{"type":"MultiPolygon","coordinates":[[[[-2.18234,53.43493],[-2.18222,53.43477],[-2.18236,53.43473],[-2.18227,53.43462],[-2.18214,53.43466],[-2.18201,53.43449],[-2.18157,53.43462],[-2.1819,53.43505],[-2.18234,53.43493]]]]}},
{ "type":"Feature","properties":{"osm_way_id":"468738646","name":"CHESHIRE SCAFFOLDS LIMITED","building":"warehouse","other":{"addr:city":"Stockport","addr:postcode":"SK4 1NU","addr:street":"Haigh Avenue"}}, "geometry":{"type":"MultiPolygon","coordinates":[[[[-2.1631,53.42943],[-2.16276,53.42942],[-2.16277,53.42928],[-2.16271,53.42928],[-2.16273,53.42915],[-2.16278,53.42915],[-2.16278,53.42914],[-2.16312,53.42915],[-2.1631,53.42943]]]]}},
{ "type":"Feature","properties":{"osm_way_id":"469798595","name":"Booles Tools and Pipe Fittings Ltd","building":"warehouse","other":{"addr:city":"Stockport","addr:postcode":"SK4 1NU","addr:street":"Haigh Avenue"}}, "geometry":{"type":"MultiPolygon","coordinates":[[[[-2.16327,53.42759],[-2.16266,53.42747],[-2.16293,53.42698],[-2.16356,53.42711],[-2.16327,53.42759]]]]}},
{ "type":"Feature","properties":{"osm_way_id":"679731141","name":"CAF Rail UK - Stockport Depot","building":"warehouse","other":{"addr:city":"Stockport","addr:housename":"Aurora Business Park","addr:housenumber":"Unit 10","addr:postcode":"SK3 0EF","addr:street":"Beacon Way"}}, "geometry":{"type":"MultiPolygon","coordinates":[[[[-2.19066,53.40512],[-2.18996,53.40513],[-2.18995,53.40431],[-2.19066,53.40431],[-2.19066,53.40512]]]]}},
{ "type":"Feature","properties":{"osm_way_id":"679731142","name":"Aeroco Group International","building":"warehouse","other":{"addr:city":"Stockport","addr:housename":"Aurora Business Park","addr:housenumber":"Units 6-9","addr:postcode":"SK3 0EF","addr:street":"Beacon Way"}}, "geometry":{"type":"MultiPolygon","coordinates":[[[[-2.18987,53.40512],[-2.18931,53.40513],[-2.1893,53.40429],[-2.18986,53.40429],[-2.18987,53.40512]]]]}},
{ "type":"Feature","properties":{"osm_way_id":"1039558375","building":"warehouse"},"geometry":{"type":"MultiPolygon","coordinates":[[[[-2.18809,53.33628],[-2.1876,53.33643],[-2.18728,53.33608],[-2.18736,53.33605],[-2.18731,53.33599],[-2.18772,53.33586],[-2.1878,53.33594],[-2.18789,53.33591],[-2.18815,53.3362],[-2.18805,53.33623],[-2.18809,53.33628]]]]}},
{ "type":"Feature","properties":{"osm_way_id":"1039558376","building":"warehouse"},"geometry":{"type":"MultiPolygon","coordinates":[[[[-2.18737,53.33594],[-2.18711,53.33566],[-2.18727,53.3356],[-2.18754,53.33588],[-2.18737,53.33594]]]]}}
]
}
