{
"type": "FeatureCollection",
"features": [
{ "type":"Feature","properties":{"osm_way_id":"115009182","building":"warehouse"},"geometry":{"type":"MultiPolygon","coordinates":[[[[0.6302,52.96363],[0.63027,52.96363],[0.6303,52.96345],[0.63023,52.96344],[0.6302,52.96363]]]]}},
{ "type":"Feature","properties":{"osm_way_id":"369478518","name":"Booker Wholesale","building":"warehouse","shop":"wholesale","other":{"addr:city":"Kings Lynn, Norfolk","addr:housename":"Hardwick Trading Estate","addr:postcode":"PE30 4JB","addr:street":"Hansa Road","brand":"Booker Wholesale","brand:wikidata":"Q4943180","brand:wikipedia":"en:Booker Group","operator":"Booker Limited","phone":"+44 1553 774280","wholesale":"grocerys"}}, "geometry":{"type":"MultiPolygon","coordinates":[[[[0.41053,52.74328],[0.41018,52.7429],[0.41025,52.74288],[0.41022,52.74285],[0.41031,52.74282],[0.41033,52.74285],[0.41042,52.74282],[0.41031,52.7427],[0.41072,52.74256],[0.41076,52.74254],[0.4109,52.74269],[0.41069,52.74276],[0.41095,52.74304],[0.41111,52.74299],[0.41115,52.74304],[0.41117,52.74306],[0.41053,52.74328]]]]}},
{ "type":"Feature","properties":{"osm_way_id":"459162632","name":"ExaClair Limited (Distribution Centre)","building":"warehouse","other":{"addr:city":"King's Lynn","addr:country":"GB","addr:housename":"Warehouse","addr:postcode":"PE30 4LS","addr:street":"Rollesby Road","operator":"ExaClair Limited","website":"http:\/\/www.exaclair.co.uk"}}, "geometry":{"type":"MultiPolygon","coordinates":[[[[0.42056,52.74842],[0.42118,52.74823],[0.42063,52.74756],[0.42061,52.74756],[0.42057,52.74751],[0.42039,52.74756],[0.42043,52.74761],[0.42005,52.74773],[0.42018,52.74787],[0.42012,52.74789],[0.42056,52.74842]]]]}},
{ "type":"Feature","properties":{"osm_way_id":"493917211","name":"GAMKO UK","building":"warehouse","other":{"addr:city":"King's Lynn","addr:postcode":"PE30 4JU","addr:street":"Oldmedow Road"}}, "geometry":{"type":"MultiPolygon","coordinates":[[[[0.42167,52.74574],[0.42089,52.74598],[0.42084,52.74593],[0.42067,52.74599],[0.42071,52.74603],[0.42058,52.74607],[0.42054,52.74602],[0.42042,52.74606],[0.42046,52.74611],[0.42042,52.74612],[0.4204,52.7461],[0.42037,52.74611],[0.42036,52.7461],[0.42034,52.7461],[0.42037,52.74614],[0.42034,52.74615],[0.42067,52.74654],[0.42059,52.74656],[0.42073,52.74672],[0.42117,52.74658],[0.42112,52.74652],[0.42218,52.74619],[0.42202,52.746],[0.42192,52.74603],[0.42167,52.74574]]]]}},
{ "type":"Feature","properties":{"osm_way_id":"493917234","name":"Lynn Star","building":"warehouse","other":{"phone":"+44 1553 766994"}}, "geometry":{"type":"MultiPolygon","coordinates":[[[[0.42008,52.7437],[0.41915,52.74371],[0.41916,52.74388],[0.41902,52.74388],[0.41903,52.74418],[0.41909,52.74418],[0.41909,52.7445],[0.41991,52.7445],[0.41991,52.74446],[0.42019,52.74446],[0.42019,52.74408],[0.42004,52.74408],[0.42004,52.74401],[0.42006,52.74401],[0.42008,52.7437]]]]}},
{ "type":"Feature","properties":{"osm_way_id":"536185625","building":"warehouse","other":{"building:levels":"2"}}, "geometry":{"type":"MultiPolygon","coordinates":[[[[0.41157,52.73786],[0.41218,52.73776],[0.41199,52.73727],[0.4119,52.73709],[0.41127,52.73717],[0.41137,52.73739],[0.41117,52.73743],[0.41145,52.7378],[0.41155,52.73779],[0.41157,52.73786]]]]}},
{ "type":"Feature","properties":{"osm_way_id":"858944283","name":"Edmundson's Electrical","building":"warehouse"},"geometry":{"type":"MultiPolygon","coordinates":[[[[0.41592,52.74203],[0.41636,52.74206],[0.41643,52.74177],[0.41599,52.74173],[0.41592,52.74203]]]]}},
{ "type":"Feature","properties":{"osm_way_id":"858944284","building":"warehouse"},"geometry":{"type":"MultiPolygon","coordinates":[[[[0.41599,52.74173],[0.41602,52.74157],[0.41647,52.74162],[0.41643,52.74177],[0.41599,52.74173]]]]}},
{ "type":"Feature","properties":{"osm_way_id":"865403166","building":"warehouse"},"geometry":{"type":"MultiPolygon","coordinates":[[[[0.41822,52.77148],[0.41818,52.77136],[0.41863,52.77132],[0.41865,52.77144],[0.41822,52.77148]]]]}}
]
}
