{
"type": "FeatureCollection",
"features": [
{ "type":"Feature","properties":{"osm_id":"322041482","name":"Londis","other":{"addr:city":"Holmfirth","addr:country":"GB","addr:hamlet":"Holmbridge","addr:housenumber":"124","addr:postcode":"HD9 2NL","addr:street":"Woodhead Road","fhrs:id":"228837","shop":"supermarket"}}, "geometry":{"type":"Point","coordinates":[-1.81054,53.56087 ]}},
{ "type":"Feature","properties":{"osm_id":"433337432","name":"Heron Foods","other":{"addr:city":"Dewsbury","addr:country":"GB","addr:postcode":"WF13 3HN","addr:street":"Ravensthorpe Shopping Park","addr:suburb":"Ravensthorpe","addr:unit":"Unit 2","brand":"Heron Foods","brand:wikidata":"Q5743472","brand:wikipedia":"en:Heron Foods","fhrs:id":"226864","shop":"supermarket","source:addr":"FHRS Open Data"}}, "geometry":{"type":"Point","coordinates":[-1.66406,53.68028 ]}},
{ "type":"Feature","properties":{"osm_id":"554739459","name":"Taylors Foodstore","other":{"shop":"supermarket"}}, "geometry":{"type":"Point","coordinates":[-1.79803,53.6004 ]}},
{ "type":"Feature","properties":{"osm_id":"637897675","name":"Heron Foods","other":{"addr:city":"Dewsbury","addr:country":"GB","addr:housenumber":"30","addr:postcode":"WF13 1LB","addr:street":"Church Street","brand":"Heron Foods","brand:wikidata":"Q5743472","brand:wikipedia":"en:Heron Foods","contact:website":"https:\/\/heronfoods.com\/storelocator\/store-details\/dewsbury","fhrs:id":"451815","shop":"supermarket"}}, "geometry":{"type":"Point","coordinates":[-1.62984,53.69011 ]}},
{ "type":"Feature","properties":{"osm_id":"916191471","name":"Asda","other":{"addr:city":"Huddersfield","addr:country":"GB","addr:housenumber":"5","addr:postcode":"HD5 9AD","addr:street":"Carr Pit Road","addr:suburb":"Moldgreen","brand":"Asda","brand:wikidata":"Q297410","brand:wikipedia":"en:Asda","contact:website":"https:\/\/storelocator.asda.com\/yorkshire-&-humber\/huddersfield\/carr-pit-road-aspley","fhrs:id":"228876","operator":"Asda Stores Ltd","shop":"supermarket","source:addr":"FHRS Open Data"}}, "geometry":{"type":"Point","coordinates":[-1.77212,53.64432 ]}},
{ "type":"Feature","properties":{"osm_id":"1469162842","name":"The Co-operative food","other":{"opening_hours":"Mo-Sa 07:00-22:00; Su 10:00-16:00","shop":"supermarket","wheelchair":"yes"}}, "geometry":{"type":"Point","coordinates":[-1.80886,53.65109 ]}},
{ "type":"Feature","properties":{"osm_id":"1613532846","other":{"emergency":"pharmacy"}}, "geometry":{"type":"Point","coordinates":[-1.62425,53.68935 ]}},
{ "type":"Feature","properties":{"osm_id":"2100706697","name":"Iceland","other":{"addr:city":"Huddersfield","addr:country":"GB","addr:housenumber":"5","addr:postcode":"HD5 9AD","addr:street":"Carr Pit Road","addr:suburb":"Moldgreen","brand":"Iceland","brand:wikidata":"Q721810","fhrs:id":"227857","shop":"supermarket","source:addr":"FHRS Open Data"}}, "geometry":{"type":"Point","coordinates":[-1.77165,53.64425 ]}},
{ "type":"Feature","properties":{"osm_id":"2127407551","name":"Aldi","other":{"brand":"ALDI","brand:wikidata":"Q41171672","brand:wikipedia":"en:Aldi","operator":"Aldi","shop":"supermarket"}}, "geometry":{"type":"Point","coordinates":[-1.82696,53.64034 ]}},
{ "type":"Feature","properties":{"osm_id":"2140257979","name":"The Co-operative Food","other":{"addr:city":"Shepley","addr:housenumber":"2-4","addr:postcode":"HD8 8AA","addr:street":"Station Road","brand":"The Co-operative Food","brand:wikidata":"Q107617274","fhrs:id":"228458","operator":"Central England Co-operative","shop":"supermarket"}}, "geometry":{"type":"Point","coordinates":[-1.70928,53.58428 ]}},
{ "type":"Feature","properties":{"osm_id":"3336960456","name":"Asda","other":{"addr:city":"Batley","addr:country":"GB","addr:housename":"Batley Shopping Centre","addr:postcode":"WF17 5DR","addr:street":"Alfreds Way","brand":"Asda","brand:wikidata":"Q297410","brand:wikipedia":"en:Asda","contact:website":"https:\/\/storelocator.asda.com\/yorkshire-&-humber\/batley\/batley-shopping-centre-alfred-way","fhrs:id":"227669","operator":"Asda Stores Ltd","shop":"supermarket"}}, "geometry":{"type":"Point","coordinates":[-1.63265,53.71503 ]}},
{ "type":"Feature","properties":{"osm_id":"3643165347","name":"The Co-operative Food","other":{"operator":"The Co-operative Group","shop":"supermarket"}}, "geometry":{"type":"Point","coordinates":[-1.81548,53.61413 ]}},
{ "type":"Feature","properties":{"osm_id":"3697759480","name":"Sainsbury's Car Park","other":{"amenity":"parking_entrance"}}, "geometry":{"type":"Point","coordinates":[-1.78601,53.64599 ]}},
{ "type":"Feature","properties":{"osm_id":"5088895205","name":"Sainsbury's","other":{"addr:city":"Huddersfield","addr:country":"GB","addr:hamlet":"Salendine Nook","addr:housenumber":"144","addr:postcode":"HD3 3XA","addr:street":"Moor Hill Road","brand":"Sainsbury's","brand:wikidata":"Q152096","fhrs:id":"227564","shop":"supermarket","source:addr":"FHRS Open Data","wheelchair":"yes"}}, "geometry":{"type":"Point","coordinates":[-1.844,53.65697 ]}},
{ "type":"Feature","properties":{"osm_id":"5157873779","ref":"WCPAD215","other":{"alt_ref":"SHEPLEY 3 CPAD","defibrillator:location":"wall","emergency":"defibrillator","indoor":"no","support":"wall"}}, "geometry":{"type":"Point","coordinates":[-1.70567,53.57508 ]}},
{ "type":"Feature","properties":{"osm_id":"5165645323","name":"Tesco Express","other":{"addr:city":"Huddersfield","addr:country":"GB","addr:hamlet":"Birchencliffe","addr:postcode":"HD3 3QP","addr:street":"Halifax Road","brand":"Tesco Express","brand:wikidata":"Q98456772","contact:website":"https:\/\/www.tesco.com\/store-locator\/huddersfield\/215-halifax-rd-grey","fhrs:id":"940377","opening_hours":"Mo-Su 06:00-23:00","shop":"supermarket","source:addr":"FHRS Open Data"}}, "geometry":{"type":"Point","coordinates":[-1.82419,53.66739 ]}},
{ "type":"Feature","properties":{"osm_id":"8652436900","ref":"AAH84","other":{"defibrillator:location":"wall","emergency":"defibrillator","indoor":"no","support":"wall"}}, "geometry":{"type":"Point","coordinates":[-1.77112,53.57654 ]}},
{ "type":"Feature","properties":{"osm_way_id":"24304099","name":"Asda","building":"yes","shop":"supermarket","other":{"addr:city":"Dewsbury","addr:country":"GB","addr:postcode":"WF12 9AE","addr:street":"Mill Street West","brand":"Asda","brand:wikidata":"Q297410","brand:wikipedia":"en:Asda","contact:website":"https:\/\/storelocator.asda.com\/yorkshire-&-humber\/dewsbury\/mill-street-west","fhrs:id":"227563","operator":"Asda Stores Ltd"}}, "geometry":{"type":"MultiPolygon","coordinates":[[[[-1.63293,53.68791],[-1.63287,53.68806],[-1.63268,53.68803],[-1.63262,53.68819],[-1.63279,53.68822],[-1.63265,53.68865],[-1.63376,53.68879],[-1.63381,53.68865],[-1.634,53.68869],[-1.63414,53.68837],[-1.63395,53.68829],[-1.63404,53.68808],[-1.63293,53.68791]]]]}},
{ "type":"Feature","properties":{"osm_way_id":"24321862","name":"Batley Tesco Extra","building":"supermarket","shop":"supermarket","other":{"brand":"Tesco Extra","brand:wikidata":"Q25172225","brand:wikipedia":"en:Tesco Extra","floors":"2","website":"https:\/\/www.tesco.com\/store-locator\/batley\/bradford-rd"}}, "geometry":{"type":"MultiPolygon","coordinates":[[[[-1.62958,53.71452],[-1.63005,53.71419],[-1.63011,53.71422],[-1.63018,53.71425],[-1.63063,53.71393],[-1.63069,53.71389],[-1.62992,53.71351],[-1.62987,53.71354],[-1.62943,53.71333],[-1.62913,53.71354],[-1.62929,53.71362],[-1.62906,53.71379],[-1.62915,53.71383],[-1.62875,53.71412],[-1.62958,53.71452]]]]}},
{ "type":"Feature","properties":{"osm_way_id":"24351383","name":"Sainsbury's","amenity":"pharmacy","building":"yes","shop":"supermarket","other":{"addr:city":"Dewsbury","addr:country":"GB","addr:postcode":"WF12 8EB","addr:street":"Railway Street","brand":"Sainsbury's","brand:wikidata":"Q152096","brand:wikipedia":"en:Sainsbury's","dispensing":"yes","fhrs:id":"229323","source:addr":"FHRS Open Data"}}, "geometry":{"type":"MultiPolygon","coordinates":[[[[-1.62423,53.68941],[-1.62425,53.68935],[-1.62427,53.68931],[-1.62437,53.68933],[-1.62457,53.68889],[-1.62447,53.68887],[-1.62445,53.68892],[-1.62361,53.68878],[-1.62363,53.68872],[-1.62348,53.68869],[-1.62338,53.68877],[-1.62313,53.68924],[-1.62423,53.68941]]]]}},
{ "type":"Feature","properties":{"osm_way_id":"24726869","name":"Asda","building":"yes","shop":"supermarket","other":{"addr:city":"Huddersfield","addr:country":"GB","addr:postcode":"HD2 2LQ","addr:street":"Bradford Road","brand":"Asda","brand:wikidata":"Q297410","brand:wikipedia":"en:Asda","contact:website":"https:\/\/storelocator.asda.com\/yorkshire-&-humber\/huddersfield\/longhill-road-off-bradford-road","fhrs:id":"229250","operator":"Asda Stores Ltd"}}, "geometry":{"type":"MultiPolygon","coordinates":[[[[-1.77642,53.67216],[-1.77673,53.67212],[-1.77663,53.67186],[-1.77706,53.6718],[-1.77713,53.67198],[-1.77757,53.67192],[-1.7776,53.672],[-1.77775,53.67198],[-1.778,53.67263],[-1.77738,53.67271],[-1.77742,53.67282],[-1.7771,53.67286],[-1.77711,53.67289],[-1.77695,53.67291],[-1.77694,53.67289],[-1.77686,53.6729],[-1.77685,53.67289],[-1.77668,53.67291],[-1.7765,53.67252],[-1.77642,53.67216]]]]}},
{ "type":"Feature","properties":{"osm_way_id":"26377741","name":"Morrisons","building":"yes","shop":"supermarket","other":{"addr:city":"Heckmondwike","addr:country":"GB","addr:housenumber":"17","addr:postcode":"WF16 0HL","addr:street":"Union Street","brand":"Morrisons","brand:wikidata":"Q922344","brand:wikipedia":"en:Morrisons","fhrs:id":"227152","source:addr":"FHRS Open Data"}}, "geometry":{"type":"MultiPolygon","coordinates":[[[[-1.67601,53.70654],[-1.67514,53.70611],[-1.67527,53.70602],[-1.67546,53.70611],[-1.67576,53.7059],[-1.67588,53.70596],[-1.67629,53.70567],[-1.67686,53.70595],[-1.67663,53.70611],[-1.67668,53.70614],[-1.67662,53.70618],[-1.67672,53.70623],[-1.67666,53.70627],[-1.67682,53.70635],[-1.67662,53.7065],[-1.67651,53.70644],[-1.67645,53.70648],[-1.67638,53.70644],[-1.67625,53.70638],[-1.67601,53.70654]]]]}},
{ "type":"Feature","properties":{"osm_way_id":"28532950","name":"Sainsbury's","building":"retail","shop":"supermarket","other":{"addr:city":"Huddersfield","addr:country":"GB","addr:housenumber":"22-24","addr:postcode":"HD1 2ET","addr:street":"Market Street","brand":"Sainsbury's","brand:wikidata":"Q152096","brand:wikipedia":"en:Sainsbury's","fhrs:id":"227219","source:addr":"FHRS Open Data"}}, "geometry":{"type":"MultiPolygon","coordinates":[[[[-1.78599,53.6462],[-1.78536,53.64617],[-1.78537,53.64614],[-1.7854,53.64609],[-1.78523,53.64606],[-1.7852,53.6461],[-1.78514,53.64621],[-1.78485,53.64615],[-1.78441,53.64607],[-1.7847,53.64558],[-1.78602,53.64585],[-1.78601,53.64599],[-1.78599,53.6462]]]]}},
{ "type":"Feature","properties":{"osm_way_id":"33650785","name":"Co-op Food","building":"retail","shop":"supermarket","other":{"addr:city":"Mirfield","addr:country":"GB","addr:postcode":"WF14 8AN","addr:street":"Huddersfield Road","brand":"Co-op Food","brand:wikidata":"Q3277439","brand:wikipedia":"en:Co-op Food","fhrs:id":"226207","source:addr":"FHRS Open Data"}}, "geometry":{"type":"MultiPolygon","coordinates":[[[[-1.69417,53.67323],[-1.69464,53.67322],[-1.69483,53.67322],[-1.69485,53.67339],[-1.69474,53.67339],[-1.69476,53.67363],[-1.69454,53.67364],[-1.69454,53.67367],[-1.6944,53.67368],[-1.6944,53.67363],[-1.6942,53.67364],[-1.69419,53.67351],[-1.69417,53.67323]]]]}},
{ "type":"Feature","properties":{"osm_way_id":"39789356","name":"Tesco Extra","building":"yes","shop":"supermarket","other":{"addr:city":"Gloucester","addr:postcode":"GL3 4AA","addr:street":"Delta Way","brand":"Tesco Extra","brand:wikidata":"Q25172225","brand:wikipedia":"en:Tesco Extra","operator":"Tesco"}}, "geometry":{"type":"MultiPolygon","coordinates":[[[[-2.17246,51.84932],[-2.17203,51.8491],[-2.17261,51.84866],[-2.17264,51.84863],[-2.17258,51.8486],[-2.17219,51.84841],[-2.17218,51.8484],[-2.17174,51.84819],[-2.17162,51.84812],[-2.1716,51.84814],[-2.17132,51.84805],[-2.17129,51.84807],[-2.17115,51.84803],[-2.17063,51.84843],[-2.17067,51.84845],[-2.17063,51.84849],[-2.17112,51.84872],[-2.17113,51.84871],[-2.17184,51.84907],[-2.17171,51.84916],[-2.17223,51.84941],[-2.17238,51.84939],[-2.17246,51.84932]]]]}},
{ "type":"Feature","properties":{"osm_way_id":"47321721","name":"Lidl","building":"yes","shop":"supermarket","other":{"addr:city":"Heckmondwike","addr:country":"GB","addr:housename":"Northgate Centre","addr:housenumber":"1","addr:postcode":"WF16 9RL","addr:street":"Northgate","brand":"Lidl","brand:wikidata":"Q151954","fhrs:id":"227158","source:addr":"FHRS Open Data"}}, "geometry":{"type":"MultiPolygon","coordinates":[[[[-1.67652,53.70858],[-1.67628,53.70875],[-1.67622,53.70873],[-1.67574,53.7085],[-1.67565,53.70846],[-1.6759,53.70827],[-1.67607,53.70835],[-1.67634,53.70848],[-1.67647,53.70854],[-1.67653,53.70849],[-1.67661,53.70853],[-1.67654,53.70859],[-1.67652,53.70858]]]]}},
{ "type":"Feature","properties":{"osm_way_id":"81287233","name":"Tesco","building":"retail","shop":"supermarket","other":{"addr:city":"Huddersfield","addr:country":"GB","addr:postcode":"HD1 1RW","addr:street":"Viaduct Street","brand":"Tesco","brand:wikidata":"Q487494","brand:wikipedia":"en:Tesco","fhrs:id":"229325","source:addr":"FHRS Open Data"}}, "geometry":{"type":"MultiPolygon","coordinates":[[[[-1.78262,53.64975],[-1.78278,53.65003],[-1.78199,53.65019],[-1.78197,53.65017],[-1.78196,53.65015],[-1.78202,53.65013],[-1.78199,53.65008],[-1.78157,53.65017],[-1.78161,53.65024],[-1.78185,53.65066],[-1.7829,53.65044],[-1.7829,53.65043],[-1.78298,53.65042],[-1.78297,53.6504],[-1.783,53.65039],[-1.78298,53.65034],[-1.78304,53.65033],[-1.78302,53.65029],[-1.78309,53.65028],[-1.78307,53.65024],[-1.78311,53.65023],[-1.78308,53.65018],[-1.78315,53.65016],[-1.7831,53.65007],[-1.78324,53.65004],[-1.78315,53.6499],[-1.78299,53.64994],[-1.78292,53.64981],[-1.78278,53.64984],[-1.78272,53.64973],[-1.78262,53.64975]]]]}},
{ "type":"Feature","properties":{"osm_way_id":"82614118","name":"M&S Simply Food","building":"yes","shop":"supermarket","other":{"brand":"M&S Simply Food","brand:wikidata":"Q714491","brand:wikipedia":"en:Marks & Spencer","operator":"Marks and Spencer"}}, "geometry":{"type":"MultiPolygon","coordinates":[[[[-1.64489,53.7448],[-1.64485,53.74483],[-1.64474,53.74477],[-1.64442,53.745],[-1.64426,53.74492],[-1.64422,53.74495],[-1.64411,53.74489],[-1.64415,53.74486],[-1.64401,53.74479],[-1.64443,53.74449],[-1.64484,53.7447],[-1.64479,53.74474],[-1.64489,53.7448]]]]}},
{ "type":"Feature","properties":{"osm_way_id":"91756016","name":"Co-op Food","building":"yes","shop":"supermarket","other":{"addr:city":"Holmfirth","addr:country":"GB","addr:postcode":"HD9 7AX","addr:street":"Market Street","brand":"Co-op Food","brand:wikidata":"Q3277439","brand:wikipedia":"en:Co-op Food","fhrs:id":"226856","opening_hours":"Mo-Sa 07:00-22:00; Su 10:00-16:00","operator":"The Co-operative Group","operator:wikidata":"Q117202","operator:wikipedia":"en:The Co-operative Group","source:addr":"FHRS Open Data","website":"https:\/\/www.co-operative.coop\/food"}}, "geometry":{"type":"MultiPolygon","coordinates":[[[[-1.7846,53.5729],[-1.78467,53.57281],[-1.78475,53.57283],[-1.78487,53.57268],[-1.78499,53.57254],[-1.78447,53.57239],[-1.78445,53.57242],[-1.78433,53.57239],[-1.78419,53.57256],[-1.78428,53.57259],[-1.78423,53.57265],[-1.78426,53.57265],[-1.78423,53.57269],[-1.78429,53.57271],[-1.78422,53.5728],[-1.78425,53.57281],[-1.78423,53.57282],[-1.78453,53.57291],[-1.78455,53.57289],[-1.7846,53.5729]]]]}},
{ "type":"Feature","properties":{"osm_way_id":"97003607","name":"The Co-operative Food","building":"yes","shop":"supermarket","other":{"atm":"yes","operator":"The Co-operative Group"}}, "geometry":{"type":"MultiPolygon","coordinates":[[[[-1.61366,53.69902],[-1.61343,53.69919],[-1.61323,53.69909],[-1.61346,53.69892],[-1.61366,53.69902]]]]}},
{ "type":"Feature","properties":{"osm_way_id":"98700381","name":"quality save","building":"yes","shop":"supermarket"},"geometry":{"type":"MultiPolygon","coordinates":[[[[-1.62901,53.69213],[-1.62905,53.69218],[-1.62912,53.69215],[-1.62913,53.69217],[-1.62915,53.69223],[-1.629,53.69226],[-1.62892,53.69227],[-1.62875,53.69229],[-1.62875,53.69231],[-1.62869,53.69232],[-1.62867,53.69225],[-1.62884,53.69222],[-1.62881,53.69218],[-1.62896,53.69215],[-1.62901,53.69214],[-1.62901,53.69213]]]]}},
{ "type":"Feature","properties":{"osm_way_id":"100440392","name":"The Co-operative Food","building":"yes","shop":"supermarket","other":{"addr:city":"Cleckheaton","addr:postcode":"BD19 4PY","addr:street":"Oxford Road","addr:village":"Gomersal","operator":"The Co-operative Group"}}, "geometry":{"type":"MultiPolygon","coordinates":[[[[-1.68366,53.72934],[-1.68392,53.72926],[-1.68393,53.72926],[-1.68405,53.7294],[-1.68378,53.72948],[-1.68366,53.72934]]]]}},
{ "type":"Feature","properties":{"osm_way_id":"115663046","name":"Co-op Food","building":"yes","shop":"supermarket","other":{"brand":"Co-op Food","brand:wikidata":"Q3277439","brand:wikipedia":"en:Co-op Food","operator":"The Co-operative Group"}}, "geometry":{"type":"MultiPolygon","coordinates":[[[[-1.66156,53.73217],[-1.66126,53.73213],[-1.66133,53.73196],[-1.66142,53.73197],[-1.66145,53.7319],[-1.66166,53.73193],[-1.66156,53.73217]]]]}},
{ "type":"Feature","properties":{"osm_way_id":"122667226","name":"Tesco Extra","building":"yes","shop":"supermarket","other":{"addr:city":"Pitsea","addr:postcode":"SS13 3JU","alt_name":"Tesco Basildon Pitsea Extra","brand":"Tesco Extra","brand:wikidata":"Q25172225","brand:wikipedia":"en:Tesco Extra","operator":"Tesco Stores Ltd"}}, "geometry":{"type":"MultiPolygon","coordinates":[[[[0.5007,51.56258],[0.5009,51.56255],[0.50085,51.56251],[0.50103,51.56244],[0.50111,51.56252],[0.50169,51.56244],[0.50165,51.56233],[0.50189,51.5623],[0.50188,51.56226],[0.50219,51.56222],[0.50224,51.56236],[0.50238,51.56235],[0.50239,51.56238],[0.50287,51.56231],[0.50321,51.56245],[0.50326,51.56258],[0.50335,51.56257],[0.5035,51.563],[0.50308,51.56306],[0.50307,51.56304],[0.50271,51.56309],[0.50267,51.56312],[0.50243,51.56302],[0.5021,51.56307],[0.5021,51.56304],[0.50101,51.56319],[0.50098,51.56311],[0.501,51.56311],[0.50098,51.56304],[0.50073,51.56307],[0.50066,51.56288],[0.50066,51.56283],[0.50089,51.5628],[0.50088,51.56278],[0.50078,51.5628],[0.5007,51.56258]]]]}},
{ "type":"Feature","properties":{"osm_way_id":"149659991","name":"Lidl","building":"yes","shop":"supermarket","other":{"addr:city":"Dewsbury","addr:country":"GB","addr:postcode":"WF13 2BD","addr:street":"Commercial Road","brand":"Lidl","brand:wikidata":"Q151954","brand:wikipedia":"en:Lidl","fhrs:id":"229122","source:addr":"FHRS Open Data"}}, "geometry":{"type":"MultiPolygon","coordinates":[[[[-1.63189,53.6947],[-1.63161,53.69477],[-1.63145,53.69454],[-1.63142,53.6945],[-1.63171,53.69443],[-1.63171,53.69443],[-1.63243,53.69424],[-1.6325,53.69433],[-1.63241,53.69436],[-1.63251,53.69449],[-1.63186,53.69465],[-1.63189,53.6947]]]]}},
{ "type":"Feature","properties":{"osm_way_id":"149864219","name":"Morrisons","building":"retail","shop":"supermarket","other":{"addr:city":"Holmfirth","addr:country":"GB","addr:hamlet":"Meltham","addr:postcode":"HD9 5QR","addr:street":"Station Street","brand":"Morrisons","brand:wikidata":"Q922344","brand:wikipedia":"en:Morrisons","fhrs:id":"227626","source:addr":"FHRS Open Data"}}, "geometry":{"type":"MultiPolygon","coordinates":[[[[-1.84922,53.59389],[-1.84899,53.59396],[-1.84895,53.5939],[-1.84835,53.59406],[-1.84819,53.59386],[-1.84802,53.59391],[-1.84792,53.59379],[-1.84892,53.59351],[-1.84911,53.59375],[-1.84916,53.59374],[-1.84923,53.59384],[-1.84919,53.59385],[-1.84922,53.59389]]]]}},
{ "type":"Feature","properties":{"osm_way_id":"150457091","name":"Lidl","shop":"supermarket","other":{"addr:city":"Huddersfield","addr:country":"GB","addr:postcode":"HD1 3HJ","addr:street":"Castlegate","brand":"Lidl","brand:wikidata":"Q151954","brand:wikipedia":"en:Lidl","fhrs:id":"226534","payment:bitcoin":"no","payment:cash":"yes","payment:cryptocurrencies":"no","payment:dogecoin":"no","payment:litecoin":"no","payment:maestro":"yes","payment:mastercard":"yes","payment:visa":"yes","payment:visa_debit":"yes","payment:visa_electron":"yes","source:addr":"FHRS Open Data"}}, "geometry":{"type":"MultiPolygon","coordinates":[[[[-1.78554,53.6427],[-1.785,53.64261],[-1.78513,53.64233],[-1.78538,53.64238],[-1.78557,53.64241],[-1.78552,53.64251],[-1.78562,53.64253],[-1.78554,53.6427]]]]}},
{ "type":"Feature","properties":{"osm_way_id":"158330100","name":"ALDI","building":"retail","shop":"supermarket","other":{"addr:city":"Huddersfield","addr:country":"GB","addr:housename":"Gallagher Retail Park","addr:postcode":"HD5 0BS","addr:street":"Wakefield Road","addr:suburb":"Waterloo","addr:unit":"Unit 1","brand":"ALDI","brand:wikidata":"Q41171672","brand:wikipedia":"en:Aldi","fhrs:id":"227062","source:addr":"FHRS Open Data"}}, "geometry":{"type":"MultiPolygon","coordinates":[[[[-1.73332,53.64596],[-1.73286,53.64592],[-1.73274,53.64639],[-1.73299,53.64641],[-1.73298,53.64646],[-1.73302,53.64646],[-1.73318,53.64648],[-1.7332,53.6464],[-1.73321,53.64636],[-1.73332,53.64596]]]]}},
{ "type":"Feature","properties":{"osm_way_id":"158330101","name":"Morrisons","building":"supermarket","shop":"supermarket","other":{"addr:city":"Huddersfield","addr:country":"GB","addr:postcode":"HD5 8QW","addr:street":"Penny Lane","addr:suburb":"Waterloo","brand":"Morrisons","brand:wikidata":"Q922344","brand:wikipedia":"en:Morrisons","fhrs:id":"226692"}}, "geometry":{"type":"MultiPolygon","coordinates":[[[[-1.73059,53.64253],[-1.73043,53.64232],[-1.73033,53.64234],[-1.73005,53.64197],[-1.72985,53.64203],[-1.72974,53.64188],[-1.72959,53.64192],[-1.72948,53.64179],[-1.72885,53.64196],[-1.72888,53.642],[-1.72878,53.64203],[-1.72943,53.64285],[-1.72968,53.64278],[-1.72963,53.64272],[-1.73018,53.64256],[-1.73023,53.64263],[-1.73059,53.64253]]]]}},
{ "type":"Feature","properties":{"osm_way_id":"183238323","name":"Tesco","building":"yes","shop":"supermarket","other":{"addr:city":"Cleckheaton","addr:housenumber":"49","addr:postcode":"BD19 3HS","addr:street":"Northgate","brand":"Tesco","brand:wikidata":"Q487494","brand:wikipedia":"en:Tesco","fhrs:id":"229502","opening_hours":"Mo-Sa 06:00-22:00; Su 10:00-16:00","source:addr":"FHRS Open Data"}}, "geometry":{"type":"MultiPolygon","coordinates":[[[[-1.71445,53.72477],[-1.71442,53.72471],[-1.71467,53.72467],[-1.71471,53.72475],[-1.71486,53.72472],[-1.71497,53.72492],[-1.71404,53.72509],[-1.71393,53.72489],[-1.71401,53.72488],[-1.714,53.72485],[-1.71445,53.72477]]]]}},
{ "type":"Feature","properties":{"osm_way_id":"184566939","name":"The Co-operative Food","building":"yes","shop":"supermarket","other":{"addr:housenumber":"50-52","addr:postcode":"HD9 1QJ","addr:street":"Wooldale Road","brand":"The Co-operative Food","brand:wikidata":"Q107617274","old_name":"Wooldale Co-operative Society","operator":"Central England Co-operative","operator:wikidata":"Q16986583"}}, "geometry":{"type":"MultiPolygon","coordinates":[[[[-1.77132,53.57672],[-1.7712,53.5766],[-1.77112,53.57654],[-1.77107,53.57651],[-1.77115,53.57647],[-1.77125,53.57653],[-1.77126,53.57654],[-1.77129,53.57653],[-1.77145,53.57668],[-1.77132,53.57672]]]]}},
{ "type":"Feature","properties":{"osm_way_id":"190654644","name":"Aldi","building":"supermarket","shop":"supermarket","other":{"addr:city":"Batley","addr:country":"GB","addr:postcode":"WF17 5RY","addr:street":"Branch Road","brand":"ALDI","brand:wikidata":"Q41171672","brand:wikipedia":"en:Aldi","fhrs:id":"228932","source:addr":"FHRS Open Data"}}, "geometry":{"type":"MultiPolygon","coordinates":[[[[-1.63389,53.71583],[-1.63397,53.71588],[-1.63391,53.71591],[-1.6341,53.71603],[-1.63376,53.71622],[-1.63381,53.71626],[-1.63363,53.71636],[-1.63331,53.71617],[-1.63389,53.71583]]]]}},
{ "type":"Feature","properties":{"osm_way_id":"201621377","name":"Sainsbury's","building":"supermarket","shop":"supermarket","other":{"addr:city":"Huddersfield","addr:country":"GB","addr:housename":"Sainsbury's Shorehead","addr:postcode":"HD1 6QR","addr:street":"Southgate","brand":"Sainsbury's","brand:wikidata":"Q152096","brand:wikipedia":"en:Sainsbury's","fhrs:id":"227749","source:addr":"FHRS Open Data","website":"https:\/\/stores.sainsburys.co.uk\/0793\/shorehead","wheelchair":"yes"}}, "geometry":{"type":"MultiPolygon","coordinates":[[[[-1.77692,53.6469],[-1.7767,53.64692],[-1.77672,53.647],[-1.77647,53.64702],[-1.77649,53.64709],[-1.77526,53.64722],[-1.77504,53.64654],[-1.77515,53.64653],[-1.77513,53.64647],[-1.77523,53.64646],[-1.77521,53.64641],[-1.77599,53.64632],[-1.77629,53.64629],[-1.7763,53.64633],[-1.77638,53.64632],[-1.77637,53.64627],[-1.77671,53.64624],[-1.77692,53.6469]]]]}},
{ "type":"Feature","properties":{"osm_way_id":"201625741","name":"Aldi","building":"retail","shop":"supermarket","other":{"brand":"ALDI","brand:wikidata":"Q41171672","brand:wikipedia":"en:Aldi"}}, "geometry":{"type":"MultiPolygon","coordinates":[[[[-1.78321,53.65355],[-1.78354,53.65401],[-1.78377,53.65395],[-1.7838,53.65399],[-1.78396,53.65395],[-1.78359,53.65345],[-1.78321,53.65355]]]]}},
{ "type":"Feature","properties":{"osm_way_id":"201738261","name":"Lidl","building":"commercial","shop":"supermarket","other":{"addr:city":"Huddersfield","addr:housenumber":"160","addr:postcode":"HD1 3PD","addr:street":"Wakefield Road","addr:suburb":"Moldgreen","brand":"Lidl","brand:wikidata":"Q151954","brand:wikipedia":"en:Lidl","building:levels":"1","fhrs:id":"229208","opening_hours":"Mo-Sa 08:00-22:00; Su 11:00-17:00","source:addr":"FHRS Open Data"}}, "geometry":{"type":"MultiPolygon","coordinates":[[[[-1.76951,53.64279],[-1.76922,53.64275],[-1.76923,53.64271],[-1.76862,53.64263],[-1.76854,53.64261],[-1.76863,53.64242],[-1.76889,53.64246],[-1.76891,53.64241],[-1.76898,53.64242],[-1.76901,53.64238],[-1.76961,53.64254],[-1.76951,53.64279]]]]}},
{ "type":"Feature","properties":{"osm_way_id":"202688201","name":"The Co-operative Food","building":"yes","shop":"supermarket","other":{"operator":"The Co-operative Group"}}, "geometry":{"type":"MultiPolygon","coordinates":[[[[-1.72958,53.63709],[-1.7295,53.63713],[-1.72936,53.63702],[-1.72943,53.63698],[-1.72945,53.637],[-1.72948,53.63698],[-1.72955,53.63703],[-1.72952,53.63705],[-1.72958,53.63709]]]]}},
{ "type":"Feature","properties":{"osm_way_id":"333917123","name":"The Food Warehouse","building":"retail","shop":"supermarket","other":{"addr:city":"Huddersfield","addr:housename":"Great Northern Retail Park","addr:housenumber":"Unit 4","addr:street":"Leeds Road","brand":"The Food Warehouse","brand:wikidata":"Q87263899"}}, "geometry":{"type":"MultiPolygon","coordinates":[[[[-1.77876,53.65392],[-1.77839,53.65392],[-1.77828,53.65392],[-1.77828,53.65388],[-1.77818,53.65388],[-1.77818,53.65391],[-1.7781,53.65391],[-1.7781,53.65417],[-1.77876,53.65417],[-1.77876,53.65392]]]]}},
{ "type":"Feature","properties":{"osm_way_id":"359079350","name":"The Co-operative Food","building":"yes","shop":"supermarket","other":{"addr:street":"Halifax Road","brand":"The Co-operative Food","brand:wikidata":"Q107617274","opening_hours":"Mo-Su,PH 00:00-24:00","operator":"Central England Co-operative","operator:wikidata":"Q16986583"}}, "geometry":{"type":"MultiPolygon","coordinates":[[[[-1.82199,53.66603],[-1.82207,53.6661],[-1.82205,53.66611],[-1.82181,53.6662],[-1.82177,53.66621],[-1.82175,53.66619],[-1.82166,53.66623],[-1.8216,53.66618],[-1.82199,53.66603]]]]}},
{ "type":"Feature","properties":{"osm_way_id":"359079560","name":"The Co-operative Food","building":"yes","shop":"supermarket","other":{"branch":"Food","brand":"The Co-operative Food","brand:wikidata":"Q107617274","not:brand:wikidata":"Q3277439","opening_hours":"24\/7","operator":"Central England Co-operative","operator:wikidata":"Q16986583","operator:wikipedia":"en:The Co-operative Group"}}, "geometry":{"type":"MultiPolygon","coordinates":[[[[-1.70562,53.57491],[-1.70568,53.57494],[-1.70567,53.57506],[-1.70567,53.57508],[-1.70567,53.57509],[-1.70544,53.57509],[-1.70545,53.57491],[-1.70562,53.57491]]]]}},
{ "type":"Feature","properties":{"osm_way_id":"359504156","name":"The Co-operative Food","building":"yes","shop":"supermarket","other":{"operator":"The Co-operative Group"}}, "geometry":{"type":"MultiPolygon","coordinates":[[[[-1.74996,53.72983],[-1.75015,53.72984],[-1.75013,53.72991],[-1.75012,53.72997],[-1.74999,53.72996],[-1.75,53.7299],[-1.74995,53.72989],[-1.74996,53.72983]]]]}},
{ "type":"Feature","properties":{"osm_way_id":"359638618","name":"The Co-operative Food","building":"yes","shop":"supermarket","other":{"operator":"The Co-operative Group"}}, "geometry":{"type":"MultiPolygon","coordinates":[[[[-1.84313,53.64481],[-1.84326,53.64503],[-1.843,53.64508],[-1.84301,53.6451],[-1.84289,53.64513],[-1.84282,53.64501],[-1.84293,53.64499],[-1.84286,53.64486],[-1.84313,53.64481]]]]}},
{ "type":"Feature","properties":{"osm_way_id":"359638893","name":"The Co-operative Food","building":"yes","shop":"supermarket","other":{"operator":"The Co-operative Group"}}, "geometry":{"type":"MultiPolygon","coordinates":[[[[-1.85612,53.63981],[-1.85629,53.63982],[-1.85633,53.63982],[-1.85629,53.64001],[-1.85608,53.64],[-1.85612,53.63981]]]]}},
{ "type":"Feature","properties":{"osm_way_id":"359639041","name":"The Co-operative Food","building":"yes","shop":"supermarket"},"geometry":{"type":"MultiPolygon","coordinates":[[[[-1.82837,53.63656],[-1.82835,53.63673],[-1.82809,53.63673],[-1.8281,53.63656],[-1.82837,53.63656]]]]}},
{ "type":"Feature","properties":{"osm_way_id":"359639219","name":"The Co-operative Food","building":"yes","shop":"supermarket","other":{"operator":"The Co-operative Group"}}, "geometry":{"type":"MultiPolygon","coordinates":[[[[-1.79142,53.63543],[-1.79165,53.63552],[-1.79155,53.63561],[-1.79153,53.6356],[-1.79136,53.63554],[-1.79132,53.63552],[-1.79142,53.63543]]]]}},
{ "type":"Feature","properties":{"osm_way_id":"359642656","name":"Co-op Food","building":"yes","shop":"supermarket","other":{"brand":"Co-op Food","brand:wikidata":"Q3277439","brand:wikipedia":"en:Co-op Food","operator":"The Co-operative Group"}}, "geometry":{"type":"MultiPolygon","coordinates":[[[[-1.74895,53.63461],[-1.74907,53.63471],[-1.7489,53.63478],[-1.74885,53.63474],[-1.74879,53.63476],[-1.74872,53.6347],[-1.74895,53.63461]]]]}},
{ "type":"Feature","properties":{"osm_way_id":"359643683","name":"The Co-operative Food","building":"yes","shop":"supermarket","other":{"operator":"The Co-operative Group"}}, "geometry":{"type":"MultiPolygon","coordinates":[[[[-1.70153,53.68087],[-1.70183,53.68092],[-1.7018,53.68099],[-1.70171,53.68097],[-1.70168,53.68104],[-1.70146,53.681],[-1.70153,53.68087]]]]}},
{ "type":"Feature","properties":{"osm_way_id":"359643856","name":"The Co-operative Food","building":"yes","shop":"supermarket","other":{"addr:city":"Mirfield","addr:country":"GB","addr:housenumber":"54","addr:postcode":"WF14 0JA","addr:street":"Old Bank Road","fhrs:id":"228023","operator":"The Co-operative Group","source:addr":"FHRS Open Data"}}, "geometry":{"type":"MultiPolygon","coordinates":[[[[-1.69281,53.68792],[-1.69299,53.68805],[-1.69278,53.68816],[-1.69259,53.68803],[-1.69281,53.68792]]]]}},
{ "type":"Feature","properties":{"osm_way_id":"359646165","name":"Co-op Food","building":"yes","shop":"supermarket","other":{"brand":"Co-op Food","brand:wikidata":"Q3277439","brand:wikipedia":"en:Co-op Food","operator":"The Co-operative Group"}}, "geometry":{"type":"MultiPolygon","coordinates":[[[[-1.65115,53.59149],[-1.65072,53.59149],[-1.65077,53.59139],[-1.65079,53.59132],[-1.65095,53.59136],[-1.65094,53.59138],[-1.65115,53.59139],[-1.65115,53.59149]]]]}},
{ "type":"Feature","properties":{"osm_way_id":"359646628","name":"The Co-operative Food","building":"yes","shop":"supermarket","other":{"operator":"The Co-operative Group"}}, "geometry":{"type":"MultiPolygon","coordinates":[[[[-1.62462,53.66426],[-1.62442,53.66431],[-1.62435,53.66421],[-1.62432,53.66418],[-1.6243,53.66416],[-1.62423,53.66406],[-1.62422,53.66405],[-1.62441,53.66399],[-1.62462,53.66426]]]]}},
{ "type":"Feature","properties":{"osm_way_id":"413658024","name":"Co-op Food","building":"yes","shop":"supermarket","other":{"addr:city":"Holmfirth","addr:country":"GB","addr:housenumber":"22-24","addr:postcode":"HD9 4AB","addr:street":"Huddersfield Road","addr:town":"Meltham","brand":"Co-op Food","brand:wikidata":"Q3277439","brand:wikipedia":"en:Co-op Food","fhrs:id":"229303","operator":"The Co-operative Group","source:addr":"FHRS Open Data"}}, "geometry":{"type":"MultiPolygon","coordinates":[[[[-1.84947,53.59219],[-1.84933,53.59201],[-1.84906,53.59209],[-1.84912,53.59217],[-1.84906,53.59219],[-1.84914,53.59228],[-1.84947,53.59219]]]]}},
{ "type":"Feature","properties":{"osm_way_id":"463534088","name":"Green Valley Grocer","building":"retail","shop":"supermarket","other":{"addr:city":"Huddersfield","addr:country":"GB","addr:hamlet":"Slaithwaite","addr:housenumber":"14","addr:postcode":"HD7 5AN","addr:street":"Carr Lane","fhrs:id":"306772","operator":"Community Owned Co-operative","phone":"+44 1484 844417","website":"http:\/\/www.slaithwaite.coop"}}, "geometry":{"type":"MultiPolygon","coordinates":[[[[-1.88038,53.62283],[-1.88044,53.6228],[-1.88054,53.62289],[-1.88048,53.62291],[-1.88038,53.62283]]]]}},
{ "type":"Feature","properties":{"osm_way_id":"463534097","name":"Co-op Food","building":"retail","shop":"supermarket","other":{"addr:city":"Huddersfield","addr:country":"GB","addr:hamlet":"Slaithwaite","addr:housenumber":"1","addr:postcode":"HD7 5AL","addr:street":"Lewisham Road","brand":"Co-op Food","brand:wikidata":"Q3277439","brand:wikipedia":"en:Co-op Food","building:levels":"3","fhrs:id":"228334","opening_hours":"Mo-Su 07:00-22:00","operator":"The Co-operative Group","roof:levels":"0","source:addr":"FHRS Open Data"}}, "geometry":{"type":"MultiPolygon","coordinates":[[[[-1.87997,53.62357],[-1.87982,53.62361],[-1.87966,53.62335],[-1.87982,53.62332],[-1.87984,53.62335],[-1.87989,53.62344],[-1.87997,53.62357]]]]}},
{ "type":"Feature","properties":{"osm_way_id":"465925686","name":"Aldi","building":"retail","shop":"supermarket","other":{"addr:city":"Huddersfield","addr:country":"GB","addr:hamlet":"Slaithwaite","addr:housenumber":"9a","addr:postcode":"HD7 5HE","addr:street":"Britannia Road","brand":"ALDI","brand:wikidata":"Q41171672","brand:wikipedia":"en:Aldi","fhrs:id":"727030","source:addr":"FHRS Open Data"}}, "geometry":{"type":"MultiPolygon","coordinates":[[[[-1.88271,53.62157],[-1.88199,53.62173],[-1.88182,53.62147],[-1.88218,53.62139],[-1.88215,53.62133],[-1.88223,53.62132],[-1.88227,53.62137],[-1.88253,53.62131],[-1.88271,53.62157]]]]}},
{ "type":"Feature","properties":{"osm_way_id":"494031212","name":"Lidl","building":"yes","shop":"supermarket","other":{"brand":"Lidl","brand:wikidata":"Q151954","brand:wikipedia":"en:Lidl"}}, "geometry":{"type":"MultiPolygon","coordinates":[[[[-1.78432,53.57626],[-1.784,53.57619],[-1.78407,53.57608],[-1.78389,53.57604],[-1.78398,53.57589],[-1.78408,53.57591],[-1.78421,53.57571],[-1.78429,53.57573],[-1.78433,53.57567],[-1.78464,53.57574],[-1.78432,53.57626]]]]}},
{ "type":"Feature","properties":{"osm_way_id":"759391792","name":"Lidl","building":"retail","shop":"supermarket","other":{"addr:country":"GB","addr:postcode":"WF14 8LL","addr:street":"Station Road","brand":"Lidl","brand:wikidata":"Q151954","brand:wikipedia":"en:Lidl","fhrs:id":"1009826"}}, "geometry":{"type":"MultiPolygon","coordinates":[[[[-1.69217,53.6725],[-1.69111,53.67254],[-1.69107,53.67219],[-1.69213,53.67214],[-1.69217,53.6725]]]]}},
{ "type":"Feature","properties":{"osm_way_id":"772067665","name":"The Co-operative Food","building":"yes","shop":"supermarket","other":{"brand":"The Co-operative Food","brand:wikidata":"Q3277439","brand:wikipedia":"en:Co-op Food"}}, "geometry":{"type":"MultiPolygon","coordinates":[[[[-1.69441,53.75228],[-1.69435,53.75243],[-1.69476,53.75247],[-1.69481,53.75234],[-1.69441,53.75228]]]]}},
{ "type":"Feature","properties":{"osm_way_id":"851916417","name":"Aldi","building":"retail","shop":"supermarket","other":{"addr:city":"Holmfirth","addr:housenumber":"262","addr:postcode":"HD9 3JQ","addr:street":"Huddersfield Road","brand":"ALDI","brand:wikidata":"Q41171672","brand:wikipedia":"en:Aldi"}}, "geometry":{"type":"MultiPolygon","coordinates":[[[[-1.78034,53.58193],[-1.78002,53.58178],[-1.78007,53.58174],[-1.7797,53.58157],[-1.77934,53.58184],[-1.78003,53.58216],[-1.78034,53.58193]]]]}}
]
}
