{
"type": "FeatureCollection",
"features": [
{ "type":"Feature","properties":{"osm_id":"1907582983","name":"M&S Food","other":{"brand":"M&S Foodhall","brand:wikidata":"Q714491","shop":"supermarket","website":"https:\/\/www.marksandspencer.com\/stores\/deepdale-preston-5115"}}, "geometry":{"type":"Point","coordinates":[-2.67886,53.77428 ]}},
{ "type":"Feature","properties":{"osm_id":"3268068097","name":"Premier: Rams Convenience","other":{"addr:city":"Preston","addr:housenumber":"379-381","addr:postcode":"PR1 4SY","addr:street":"New Hall Lane","fhrs:id":"116447","shop":"supermarket"}}, "geometry":{"type":"Point","coordinates":[-2.66573,53.76581 ]}},
{ "type":"Feature","properties":{"osm_id":"4580413845","name":"Heron Foods","other":{"addr:housenumber":"5-11","addr:place":"St John's Shopping Centre","addr:postcode":"PR1 1FB","brand":"Heron Foods","brand:wikidata":"Q5743472","brand:wikipedia":"en:Heron Foods","contact:website":"https:\/\/heronfoods.com\/storelocator\/store-details\/preston","fhrs:id":"980286","shop":"supermarket"}}, "geometry":{"type":"Point","coordinates":[-2.69801,53.76075 ]}},
{ "type":"Feature","properties":{"osm_id":"4580445244","name":"Aldi","other":{"addr:city":"Preston","addr:housenumber":"73","addr:postcode":"PR1 2UZ","addr:street":"Corporation Street","addr:unit":"1","brand":"ALDI","brand:wikidata":"Q41171672","brand:wikipedia":"en:Aldi","fhrs:id":"52627","opening_hours":"Mo-Sa 08:00-22:00; Su 10:00-16:00","shop":"supermarket","website":"https:\/\/www.aldi.co.uk\/store\/s-uk-E0233","wheelchair":"yes"}}, "geometry":{"type":"Point","coordinates":[-2.70632,53.75904 ]}},
{ "type":"Feature","properties":{"osm_id":"4623223399","name":"Sainsbury's","other":{"addr:city":"Preston","addr:country":"GB","addr:postcode":"PR1 6PJ","addr:street":"Flintoff Way","brand":"Sainsbury's","brand:wikidata":"Q152096","brand:wikipedia":"en:Sainsbury's","contact:website":"https:\/\/stores.sainsburys.co.uk\/0749\/preston","opening_hours":"Mo-Fr 07:00-23:00;Sa 07:00-22:00;Su 11:00-17:00","shop":"supermarket","wheelchair":"yes"}}, "geometry":{"type":"Point","coordinates":[-2.68638,53.7757 ]}},
{ "type":"Feature","properties":{"osm_id":"6223149003","name":"Co-op","other":{"addr:city":"Preston","addr:housenumber":"96","addr:postcode":"PR1 7UE","addr:street":"Plungington Road","fhrs:id":"123872","operator":"The Co-operative Group","shop":"supermarket","wheelchair":"limited"}}, "geometry":{"type":"Point","coordinates":[-2.71141,53.77046 ]}},
{ "type":"Feature","properties":{"osm_id":"7296539996","name":"Aldi","other":{"brand":"ALDI","brand:wikidata":"Q41171672","brand:wikipedia":"en:Aldi","shop":"supermarket"}}, "geometry":{"type":"Point","coordinates":[-2.69563,53.79806 ]}},
{ "type":"Feature","properties":{"osm_id":"8264523869","name":"ALDI","other":{"brand":"ALDI","brand:wikidata":"Q41171672","brand:wikipedia":"en:Aldi","shop":"supermarket"}}, "geometry":{"type":"Point","coordinates":[-2.61081,53.82988 ]}},
{ "type":"Feature","properties":{"osm_id":"8584267706","name":"Lidl","other":{"addr:country":"GB","addr:housename":"Eastway Retail Hub","addr:postcode":"PR2 3FB","addr:street":"Eastway","brand":"Lidl","brand:wikidata":"Q151954","brand:wikipedia":"en:Lidl","fhrs:id":"1295793","shop":"supermarket"}}, "geometry":{"type":"Point","coordinates":[-2.72427,53.7991 ]}},
{ "type":"Feature","properties":{"osm_id":"9103348719","name":"Mere","other":{"addr:city":"Ribbleton","addr:country":"GB","addr:housenumber":"198","addr:postcode":"PR2 6NH","addr:street":"Miller Road","brand":"Mere","brand:wikidata":"Q61214694","fhrs:id":"448080","shop":"supermarket","survey:date":"2021-03-22"}}, "geometry":{"type":"Point","coordinates":[-2.65757,53.77072 ]}},
{ "type":"Feature","properties":{"osm_way_id":"31561832","name":"Asda","building":"yes","shop":"supermarket","other":{"addr:city":"Preston","addr:country":"GB","addr:postcode":"PR2 9NP","addr:street":"Pittman Way","alt_name":"ASDA Fulwood Superstore","brand":"Asda","brand:wikidata":"Q297410","brand:wikipedia":"en:Asda","contact:website":"https:\/\/storelocator.asda.com\/north-west\/preston\/east-way-fulwood","fhrs:id":"98125","operator":"Asda Stores Ltd"}}, "geometry":{"type":"MultiPolygon","coordinates":[[[[-2.68427,53.7918],[-2.68394,53.79151],[-2.68375,53.79159],[-2.68334,53.79122],[-2.68417,53.79092],[-2.68429,53.79103],[-2.68494,53.79079],[-2.68533,53.79113],[-2.6855,53.79107],[-2.68561,53.79115],[-2.68578,53.7911],[-2.68588,53.79118],[-2.68602,53.7912],[-2.68599,53.79128],[-2.68603,53.79132],[-2.68603,53.79137],[-2.68599,53.7914],[-2.68568,53.79153],[-2.6859,53.79172],[-2.68505,53.79202],[-2.68466,53.79164],[-2.68427,53.7918]]]]}},
{ "type":"Feature","properties":{"osm_way_id":"31783546","name":"Lidl","building":"yes","shop":"supermarket","other":{"addr:city":"Preston","addr:country":"GB","addr:postcode":"PR1 4DT","addr:street":"New Hall Lane","brand":"Lidl","brand:wikidata":"Q151954","brand:wikipedia":"en:Lidl","fhrs:id":"106925"}}, "geometry":{"type":"MultiPolygon","coordinates":[[[[-2.68284,53.76125],[-2.68266,53.76102],[-2.68271,53.761],[-2.68236,53.76058],[-2.68257,53.76052],[-2.68291,53.76096],[-2.68354,53.76079],[-2.68351,53.76076],[-2.68372,53.7607],[-2.68392,53.76095],[-2.6838,53.76099],[-2.68383,53.76102],[-2.68374,53.76105],[-2.68371,53.76101],[-2.6831,53.76118],[-2.68313,53.76122],[-2.68303,53.76125],[-2.683,53.7612],[-2.68284,53.76125]]]]}},
{ "type":"Feature","properties":{"osm_way_id":"41725407","name":"Morrisons","building":"yes","shop":"supermarket","other":{"addr:postcode":"PR2 2YN","addr:street":"Mariners Way","alt_name":"Morrisons Preston Riversway","brand":"Morrisons","brand:wikidata":"Q922344","brand:wikipedia":"en:Morrisons","fhrs:id":"146664","operator":"Morrisons","phone":"+44 1772 726727","website":"https:\/\/my.morrisons.com\/storefinder\/41"}}, "geometry":{"type":"MultiPolygon","coordinates":[[[[-2.73513,53.76248],[-2.7351,53.76219],[-2.7353,53.76219],[-2.73566,53.76217],[-2.73565,53.76211],[-2.73619,53.76209],[-2.73663,53.76207],[-2.73663,53.76213],[-2.7367,53.7621],[-2.73678,53.7621],[-2.73684,53.76207],[-2.73694,53.7621],[-2.73685,53.76216],[-2.73686,53.76232],[-2.73678,53.76232],[-2.73681,53.76271],[-2.73503,53.76277],[-2.735,53.76248],[-2.73513,53.76248]]]]}},
{ "type":"Feature","properties":{"osm_way_id":"56024168","name":"Lidl","building":"retail","shop":"supermarket","other":{"addr:city":"Preston","addr:postcode":"PR1 8UY","addr:street":"West Strand","alt_name":"Lidl Preston","brand":"Lidl","brand:wikidata":"Q151954","brand:wikipedia":"en:Lidl","fhrs:id":"85044"}}, "geometry":{"type":"MultiPolygon","coordinates":[[[[-2.71915,53.76188],[-2.71991,53.76167],[-2.71995,53.76166],[-2.72016,53.76192],[-2.71938,53.76213],[-2.71928,53.76216],[-2.71923,53.7621],[-2.71931,53.76208],[-2.71915,53.76188]]]]}},
{ "type":"Feature","properties":{"osm_way_id":"65727395","name":"Booths","building":"retail","shop":"supermarket","other":{"addr:city":"Preston","addr:housenumber":"256-270","addr:postcode":"PR2 9HD","addr:street":"Sharoe Green Lane","alt_name":"Booths Fulwood, Preston","brand:wikidata":"Q4943949","building:levels":"1","check_date:opening_hours":"2022-03-27","contact:website":"https:\/\/www.booths.co.uk\/store\/preston-fulwood\/","fhrs:id":"91849","opening_hours":"Mo-Sa 07:00-22:00; Su 09:30-16:00","roof:levels":"1"}}, "geometry":{"type":"MultiPolygon","coordinates":[[[[-2.70693,53.79275],[-2.70617,53.7929],[-2.706,53.79258],[-2.70607,53.7925],[-2.70598,53.79233],[-2.70606,53.79226],[-2.70673,53.79221],[-2.70675,53.79238],[-2.70631,53.7924],[-2.70638,53.79253],[-2.70684,53.79244],[-2.70693,53.79261],[-2.70686,53.79262],[-2.70693,53.79275]]]]}},
{ "type":"Feature","properties":{"osm_way_id":"527520264","name":"Aldi","building":"yes","shop":"supermarket","other":{"addr:city":"Preston","addr:place":"Queens Retail Park","addr:postcode":"PR1 4HZ","addr:street":"Queen Street","addr:unit":"5","brand":"ALDI","brand:wikidata":"Q41171672","brand:wikipedia":"en:Aldi","fhrs:id":"895457","opening_hours":"Mo-Sa 08:00-22:00; Su 10:00-16:00"}}, "geometry":{"type":"MultiPolygon","coordinates":[[[[-2.69035,53.76063],[-2.69008,53.7604],[-2.68937,53.7607],[-2.68955,53.76086],[-2.68963,53.76093],[-2.6898,53.76086],[-2.68985,53.76091],[-2.68999,53.76085],[-2.68994,53.7608],[-2.69035,53.76063]]]]}},
{ "type":"Feature","properties":{"osm_way_id":"544345261","name":"Morrisons","building":"yes","shop":"supermarket","other":{"addr:city":"Preston","addr:housenumber":"89-91","addr:postcode":"PR2 6BX","addr:street":"Blackpool Road","brand":"Morrisons","brand:wikidata":"Q922344","brand:wikipedia":"en:Morrisons","fhrs:id":"726630","website":"https:\/\/my.morrisons.com\/storefinder\/557","wheelchair":"yes"}}, "geometry":{"type":"MultiPolygon","coordinates":[[[[-2.67777,53.77029],[-2.67697,53.77066],[-2.67693,53.77064],[-2.67679,53.7707],[-2.6769,53.77078],[-2.67694,53.77076],[-2.67697,53.77075],[-2.67748,53.77114],[-2.67751,53.77112],[-2.67762,53.7712],[-2.67867,53.77072],[-2.67856,53.77064],[-2.67836,53.77073],[-2.67777,53.77029]]]]}},
{ "type":"Feature","properties":{"osm_way_id":"644391122","name":"The Food Warehouse","building":"yes","shop":"supermarket","other":{"addr:city":"Preston","addr:housenumber":"Unit 4","addr:place":"Queens Retail Park","addr:postcode":"PR1 4HZ","addr:street":"Queen Street","brand:wikidata":"Q87263899","fhrs:id":"1086405","operator":"Iceland"}}, "geometry":{"type":"MultiPolygon","coordinates":[[[[-2.69035,53.76063],[-2.69105,53.76031],[-2.69078,53.76011],[-2.69008,53.7604],[-2.69035,53.76063]]]]}}
]
}
