{
"type": "FeatureCollection",
"features": [
{ "type":"Feature","properties":{"osm_id":"2832870747","name":"The Co-operative Food","other":{"addr:city":"Enderby","addr:country":"GB","addr:postcode":"LE19 4NL","addr:street":"Mill Lane","brand":"The Co-operative Food","brand:wikidata":"Q107617274","fhrs:authority":"Blaby","fhrs:id":"1201667","fhrs:local_authority_id":"2391","operator":"Central England Co-operative","operator:wikidata":"Q16986583","shop":"supermarket"}}, "geometry":{"type":"Point","coordinates":[-1.20862,52.58799 ]}},
{ "type":"Feature","properties":{"osm_id":"2937589760","name":"County Store","other":{"addr:housenumber":"3","addr:postcode":"LE19 2HG","addr:street":"Cosby Road","shop":"supermarket"}}, "geometry":{"type":"Point","coordinates":[-1.20069,52.56705 ]}},
{ "type":"Feature","properties":{"osm_id":"3233074765","name":"The Co-operative Food","other":{"addr:city":"Narborough","addr:housenumber":"6","addr:postcode":"LE19 2HR","addr:street":"Station Road","brand":"The Co-operative Food","brand:wikidata":"Q107617274","fhrs:authority":"Blaby","fhrs:id":"1201767","fhrs:local_authority_id":"2919","operator":"Central England Co-operative","operator:wikidata":"Q16986583","shop":"supermarket"}}, "geometry":{"type":"Point","coordinates":[-1.20368,52.57155 ]}},
{ "type":"Feature","properties":{"osm_id":"4428765301","name":"ALDI","other":{"addr:city":"Blaby","addr:country":"GB","addr:postcode":"LE8 4HY","addr:street":"Welford Road","brand":"ALDI","brand:wikidata":"Q41171672","brand:wikipedia":"en:Aldi","fhrs:id":"1201857","opening_hours":"Mo-Sa 08:00-22:00; Su 10:00-16:00","shop":"supermarket"}}, "geometry":{"type":"Point","coordinates":[-1.16283,52.57426 ]}},
{ "type":"Feature","properties":{"osm_id":"9190967435","other":{"defibrillator:location":"outside Co-op, Main Street, Countesthorpe - to right of entrance","emergency":"defibrillator","indoor":"no"}}, "geometry":{"type":"Point","coordinates":[-1.13765,52.55338 ]}},
{ "type":"Feature","properties":{"osm_way_id":"79299319","name":"Sainsbury's","building":"yes","shop":"supermarket","other":{"addr:city":"Enderby","addr:country":"GB","addr:postcode":"LE19 1WT","addr:street":"Grove Farm Triangle","brand":"Sainsbury's","brand:wikidata":"Q152096","brand:wikipedia":"en:Sainsbury's","fhrs:authority":"Blaby","fhrs:id":"1201672","fhrs:local_authority_id":"2409","toilets:wheelchair":"yes","website":"https:\/\/stores.sainsburys.co.uk\/0727\/fosse-park","wheelchair":"yes"}}, "geometry":{"type":"MultiPolygon","coordinates":[[[[-1.18446,52.59953],[-1.18313,52.59917],[-1.18311,52.5992],[-1.18299,52.59917],[-1.18301,52.59914],[-1.18293,52.59912],[-1.18305,52.59894],[-1.18258,52.59881],[-1.18301,52.59823],[-1.18337,52.59833],[-1.18341,52.59828],[-1.18364,52.59834],[-1.1836,52.59839],[-1.18404,52.59851],[-1.18407,52.59846],[-1.18445,52.59856],[-1.18438,52.59865],[-1.18449,52.59868],[-1.18452,52.59864],[-1.18501,52.59878],[-1.18446,52.59953]]]]}},
{ "type":"Feature","properties":{"osm_way_id":"79299336","name":"Asda","building":"yes","shop":"supermarket","other":{"addr:city":"Braunstone Town","addr:country":"GB","addr:postcode":"LE3 2LL","addr:street":"Narborough Road South","brand":"Asda","brand:wikidata":"Q297410","brand:wikipedia":"en:Asda","contact:facebook":"https:\/\/www.facebook.com\/asda\/","contact:twitter":"@asda","contact:website":"https:\/\/storelocator.asda.com\/east-midlands\/braunstone\/narborough-road-south","fhrs:authority":"Blaby","fhrs:id":"1201924","fhrs:local_authority_id":"383","operator":"Asda Stores Ltd","toilets":"yes","toilets:access":"customers","toilets:wheelchair":"yes","wheelchair":"yes"}}, "geometry":{"type":"MultiPolygon","coordinates":[[[[-1.17857,52.59942],[-1.17852,52.59951],[-1.17873,52.59956],[-1.17859,52.59978],[-1.17893,52.59985],[-1.1787,52.60023],[-1.17835,52.60015],[-1.17825,52.60034],[-1.17802,52.60028],[-1.17792,52.60043],[-1.17711,52.60024],[-1.17702,52.6001],[-1.17732,52.59961],[-1.17745,52.59964],[-1.17771,52.59924],[-1.17857,52.59942]]]]}},
{ "type":"Feature","properties":{"osm_way_id":"97844868","name":"Co-op Food","building":"yes","shop":"supermarket","other":{"addr:city":"Croft","addr:country":"GB","addr:housenumber":"29","addr:postcode":"LE9 3HA","addr:street":"Pochin Street","brand":"Co-op Food","brand:wikidata":"Q3277439","brand:wikipedia":"en:Co-op Food","fhrs:authority":"Blaby","fhrs:id":"1201626","fhrs:local_authority_id":"2216","operator":"Central England Co-operative Society","source:addr":"FHRS Open Data"}}, "geometry":{"type":"MultiPolygon","coordinates":[[[[-1.24307,52.55569],[-1.24298,52.55558],[-1.24282,52.55563],[-1.24276,52.55555],[-1.24267,52.55558],[-1.24276,52.5557],[-1.24281,52.55576],[-1.24282,52.55577],[-1.24307,52.55569]]]]}},
{ "type":"Feature","properties":{"osm_way_id":"155736981","name":"Morrisons","building":"yes","shop":"supermarket","other":{"addr:city":"Glenfield","addr:postcode":"LE3 8BQ","addr:street":"Station Road","brand":"Morrisons","brand:wikidata":"Q922344","brand:wikipedia":"en:Morrisons","opening_hours":"Mo-We,Sa 08:00-20:00; Th,Fr 08:00-21:00; Su 10:00-16:00","toilets:wheelchair":"yes","website":"https:\/\/my.morrisons.com\/storefinder\/656","wheelchair":"yes"}}, "geometry":{"type":"MultiPolygon","coordinates":[[[[-1.20501,52.65216],[-1.2041,52.65175],[-1.20381,52.65199],[-1.20371,52.65207],[-1.20374,52.65208],[-1.20343,52.65233],[-1.20397,52.65259],[-1.20408,52.65253],[-1.20419,52.65259],[-1.20468,52.65244],[-1.20501,52.65216]]]]}},
{ "type":"Feature","properties":{"osm_way_id":"214772588","name":"Co-op Food","building":"yes","shop":"supermarket","other":{"addr:city":"Stoney Stanton","addr:country":"GB","addr:housenumber":"1","addr:postcode":"LE9 4LQ","addr:street":"New Road","brand":"Co-op Food","brand:wikidata":"Q3277439","brand:wikipedia":"en:Co-op Food","fhrs:authority":"Blaby","fhrs:id":"1201801","fhrs:local_authority_id":"3055","operator":"Heart of England Co-operative Society","source:addr":"FHRS Open Data"}}, "geometry":{"type":"MultiPolygon","coordinates":[[[[-1.27803,52.54814],[-1.27779,52.54815],[-1.27777,52.54819],[-1.27778,52.54829],[-1.27804,52.54828],[-1.27803,52.54814]]]]}},
{ "type":"Feature","properties":{"osm_way_id":"227569654","name":"Co-op Food","building":"yes","shop":"supermarket","other":{"addr:city":"Enderby","addr:country":"GB","addr:housenumber":"19","addr:postcode":"LE19 4NJ","addr:street":"Cross Street","brand":"Co-op Food","brand:wikidata":"Q3277439","brand:wikipedia":"en:Co-op Food","fhrs:authority":"Blaby","fhrs:id":"1201908","fhrs:local_authority_id":"37196","operator":"The Co-operative Group","operator:wikidata":"Q117202","operator:wikipedia":"en:The Co-operative Group"}}, "geometry":{"type":"MultiPolygon","coordinates":[[[[-1.20984,52.58862],[-1.2102,52.5885],[-1.21007,52.58836],[-1.21002,52.58832],[-1.20981,52.58839],[-1.20985,52.58843],[-1.20971,52.58848],[-1.20984,52.58862]]]]}},
{ "type":"Feature","properties":{"osm_way_id":"282675729","name":"The Co-operative Food","building":"yes","shop":"supermarket","other":{"addr:city":"Countesthorpe","addr:country":"GB","addr:housenumber":"8","addr:postcode":"LE8 5QX","addr:street":"Main Street","fhrs:authority":"Blaby","fhrs:id":"1201611","fhrs:local_authority_id":"2152","operator":"Central England Co-operative Society"}}, "geometry":{"type":"MultiPolygon","coordinates":[[[[-1.13766,52.55337],[-1.13765,52.55338],[-1.13757,52.55352],[-1.13728,52.55346],[-1.13737,52.55331],[-1.13766,52.55337]]]]}},
{ "type":"Feature","properties":{"osm_way_id":"282736313","name":"The Co-operative Food","building":"retail","shop":"supermarket","other":{"addr:city":"Whetstone","addr:country":"GB","addr:postcode":"LE8 6LJ","addr:street":"Dog and Gun Lane","brand":"The Co-operative Food","brand:wikidata":"Q107617274","fhrs:authority":"Blaby","fhrs:id":"1201818","fhrs:local_authority_id":"3159","opening_hours":"Mo-Sa 08:00-21:00; Su 10:00-16:00","operator":"Central England Co-operative","operator:wikidata":"Q16986583"}}, "geometry":{"type":"MultiPolygon","coordinates":[[[[-1.17234,52.55893],[-1.17232,52.5593],[-1.17225,52.55929],[-1.17224,52.55939],[-1.17153,52.55938],[-1.17156,52.55891],[-1.17234,52.55893]]]]}},
{ "type":"Feature","properties":{"osm_way_id":"317109537","name":"Co-op Food","building":"yes","shop":"supermarket","other":{"addr:city":"Blaby","addr:country":"GB","addr:housenumber":"77","addr:postcode":"LE8 4DX","addr:street":"Lutterworth Road","brand":"Co-op Food","brand:wikidata":"Q3277439","brand:wikipedia":"en:Co-op Food","fhrs:authority":"Blaby","fhrs:id":"1201506","fhrs:local_authority_id":"1725","opening_hours":"Mo-Su 05:00-23:00","operator":"The Co-operative Group","operator:wikidata":"Q117202","operator:wikipedia":"en:The Co-operative Group"}}, "geometry":{"type":"MultiPolygon","coordinates":[[[[-1.16654,52.57052],[-1.16636,52.57058],[-1.16622,52.57044],[-1.16616,52.57043],[-1.16623,52.57032],[-1.1664,52.57035],[-1.16654,52.57052]]]]}},
{ "type":"Feature","properties":{"osm_way_id":"317109745","name":"Co-op Food","building":"yes","shop":"supermarket","other":{"addr:city":"Sapcote","addr:country":"GB","addr:postcode":"LE9 4FG","addr:street":"Church Street","brand":"Co-op Food","brand:wikidata":"Q3277439","brand:wikipedia":"en:Co-op Food","fhrs:authority":"Blaby","fhrs:id":"1201815","fhrs:local_authority_id":"31541","operator":"Central England Co-operative Society","source:addr":"FHRS Open Data"}}, "geometry":{"type":"MultiPolygon","coordinates":[[[[-1.28072,52.53622],[-1.28069,52.53628],[-1.28064,52.5363],[-1.28038,52.53624],[-1.28049,52.53603],[-1.2807,52.53607],[-1.28063,52.5362],[-1.28072,52.53622]]]]}},
{ "type":"Feature","properties":{"osm_way_id":"320189111","name":"The Co-operative Food","building":"retail","shop":"supermarket","other":{"addr:city":"Leicester Forest East","addr:country":"GB","addr:housenumber":"2","addr:postcode":"LE3 3GH","addr:street":"Hinckley Road","fhrs:authority":"Blaby","fhrs:id":"1201844","fhrs:local_authority_id":"3299","operator":"Central England Co-operative Society"}}, "geometry":{"type":"MultiPolygon","coordinates":[[[[-1.20202,52.62652],[-1.20173,52.6266],[-1.20165,52.62661],[-1.20159,52.62659],[-1.20155,52.62644],[-1.20194,52.62637],[-1.20202,52.62652]]]]}},
{ "type":"Feature","properties":{"osm_way_id":"361532834","name":"ALDI","building":"yes","shop":"supermarket","other":{"addr:city":"Braunstone Town","addr:country":"GB","addr:postcode":"LE19 1LW","addr:street":"Meridian Way","brand":"ALDI","brand:wikidata":"Q41171672","brand:wikipedia":"en:Aldi","fhrs:authority":"Blaby","fhrs:id":"1201570","fhrs:local_authority_id":"1979"}}, "geometry":{"type":"MultiPolygon","coordinates":[[[[-1.19083,52.61508],[-1.1916,52.61517],[-1.19154,52.61535],[-1.19162,52.61536],[-1.19159,52.61547],[-1.19073,52.61537],[-1.19083,52.61508]]]]}},
{ "type":"Feature","properties":{"osm_way_id":"370257510","name":"The Co-operative Food","building":"yes","shop":"supermarket","other":{"addr:city":"Braunstone Town","addr:country":"GB","addr:housenumber":"112-114","addr:postcode":"LE3 2JW","addr:street":"Turnbull Drive","fhrs:authority":"Blaby","fhrs:id":"1201486","fhrs:local_authority_id":"16342","opening_hours":"Mo-Sa 08:00-21:00; Su 08:00-20:00","operator":"Central England Co-operative Society"}}, "geometry":{"type":"MultiPolygon","coordinates":[[[[-1.17804,52.60982],[-1.17807,52.60983],[-1.17806,52.60985],[-1.1781,52.60987],[-1.17812,52.60986],[-1.17815,52.60987],[-1.17826,52.60978],[-1.17814,52.60973],[-1.17804,52.60982]]]]}},
{ "type":"Feature","properties":{"osm_way_id":"370327072","name":"Co-op Food","building":"yes","shop":"supermarket","other":{"addr:city":"Cosby","addr:country":"GB","addr:housenumber":"38","addr:postcode":"LE9 1UU","addr:street":"Main Street","brand":"Co-op Food","brand:wikidata":"Q3277439","brand:wikipedia":"en:Co-op Food","fhrs:authority":"Blaby","fhrs:id":"1202040","fhrs:local_authority_id":"45000","opening_hours":"Mo-Su 07:00-22:00","operator":"The Co-operative Group","operator:wikidata":"Q117202","operator:wikipedia":"en:The Co-operative Group","source:addr":"FHRS Open Data"}}, "geometry":{"type":"MultiPolygon","coordinates":[[[[-1.19306,52.54949],[-1.19302,52.54967],[-1.19272,52.54965],[-1.19276,52.54943],[-1.19298,52.54945],[-1.19297,52.54948],[-1.19306,52.54949]]]]}},
{ "type":"Feature","properties":{"osm_way_id":"530493844","name":"Co-op Food","building":"yes","shop":"supermarket","other":{"addr:city":"Whetstone","addr:country":"GB","addr:postcode":"LE8 6PN","addr:street":"Cambridge Road","brand":"Co-op Food","brand:wikidata":"Q3277439","brand:wikipedia":"en:Co-op Food","fhrs:authority":"Blaby","fhrs:id":"1202133","fhrs:local_authority_id":"48114","opening_hours":"Mo-Su 07:00-22:00","operator":"The Co-operative Group","operator:wikidata":"Q117202","operator:wikipedia":"en:The Co-operative Group"}}, "geometry":{"type":"MultiPolygon","coordinates":[[[[-1.17875,52.5669],[-1.17893,52.56665],[-1.17874,52.5666],[-1.17856,52.56685],[-1.17875,52.5669]]]]}}
]
}
