{
"type": "FeatureCollection",
"features": [
{ "type":"Feature","properties":{"osm_id":"429428770","name":"Co-operative","other":{"shop":"supermarket"}}, "geometry":{"type":"Point","coordinates":[-1.37468,50.9879 ]}},
{ "type":"Feature","properties":{"osm_id":"912015560","name":"Tesco Metro","other":{"addr:city":"Eastleigh","addr:housename":"The Swan Centre","addr:postcode":"SO50 5PN","addr:street":"Wells Place","branch_name":"Eastleigh Metro","brand":"Tesco Metro","brand:wikidata":"Q57551648","fhrs:id":"133885","shop":"supermarket"}}, "geometry":{"type":"Point","coordinates":[-1.35241,50.96719 ]}},
{ "type":"Feature","properties":{"osm_id":"2867177262","other":{"amenity":"parking_entrance"}}, "geometry":{"type":"Point","coordinates":[-1.35228,50.97022 ]}},
{ "type":"Feature","properties":{"osm_id":"3478506287","name":"The Co-operative Food","other":{"addr:city":"Hamble-le-Rice, Southampton","addr:street":"High Street","phone":"+44 2380 454954","shop":"supermarket"}}, "geometry":{"type":"Point","coordinates":[-1.31519,50.8589 ]}},
{ "type":"Feature","properties":{"osm_id":"5807025804","name":"Aldi","other":{"brand":"ALDI","brand:wikidata":"Q41171672","brand:wikipedia":"en:Aldi","shop":"supermarket"}}, "geometry":{"type":"Point","coordinates":[-1.3867,50.96738 ]}},
{ "type":"Feature","properties":{"osm_id":"9441812219","name":"B&M Store","other":{"addr:housenumber":"1B","addr:postcode":"SO30 2UH","opening_hours":"Mo-Sa 08:00-21:00; Su 10:30-16:30","phone":"03308389730","shop":"supermarket","website":"https:\/\/www.bmstores.co.uk\/stores\/southampton-hedge-end-retail-park-730"}}, "geometry":{"type":"Point","coordinates":[-1.3141,50.9247 ]}},
{ "type":"Feature","properties":{"osm_way_id":"24005705","name":"Asda","building":"yes","shop":"supermarket","other":{"addr:city":"Eastleigh","addr:country":"GB","addr:postcode":"SO53 3YJ","addr:street":"Bournemouth Road","brand":"Asda","brand:wikidata":"Q297410","brand:wikipedia":"en:Asda","contact:facebook":"https:\/\/www.facebook.com\/asda\/","contact:phone":"+44 2380 268341","contact:twitter":"@asda","contact:website":"https:\/\/storelocator.asda.com\/south-east\/eastleigh\/bournemouth-road","fhrs:id":"129122","operator":"Asda Stores Ltd","store_ref":"04967"}}, "geometry":{"type":"MultiPolygon","coordinates":[[[[-1.38967,50.9681],[-1.39003,50.96765],[-1.39007,50.9676],[-1.39025,50.96765],[-1.39041,50.96745],[-1.39049,50.96748],[-1.3906,50.96735],[-1.39051,50.96732],[-1.3906,50.9672],[-1.39044,50.96714],[-1.39074,50.96676],[-1.39019,50.96659],[-1.39017,50.96662],[-1.39004,50.96678],[-1.38997,50.96675],[-1.3899,50.96685],[-1.38972,50.96679],[-1.38965,50.96688],[-1.38959,50.96686],[-1.38889,50.96774],[-1.38896,50.96776],[-1.38884,50.96791],[-1.3889,50.96792],[-1.38867,50.96821],[-1.38878,50.96824],[-1.38874,50.96829],[-1.38918,50.96843],[-1.38948,50.96805],[-1.38967,50.9681]]]]}},
{ "type":"Feature","properties":{"osm_way_id":"28888778","name":"Tesco Extra","building":"yes","shop":"supermarket","other":{"addr:postcode":"SO31 8GN","addr:street":"Hamble Lane","alt_name":"Tesco Southampton Bursledon Towers Extra","branch":"Southampton Bursledon Towers","brand":"Tesco Extra","brand:wikidata":"Q25172225","brand:wikipedia":"en:Tesco Extra","operator":"Tesco","pharmacy":"yes","pharmacy:opening_hours":"Mo-Fr 09:00-21:00; Sa 08:00-21:00; Su 10:00-16:00","phone":"+443456779087","ref:store":"2156"}}, "geometry":{"type":"MultiPolygon","coordinates":[[[[-1.3212,50.89418],[-1.32079,50.89529],[-1.32048,50.89546],[-1.32003,50.89539],[-1.32,50.89549],[-1.31976,50.89545],[-1.31978,50.89538],[-1.3197,50.89537],[-1.31971,50.89535],[-1.31963,50.89534],[-1.31969,50.89519],[-1.31979,50.8952],[-1.31983,50.89509],[-1.31977,50.89508],[-1.31982,50.89492],[-1.3199,50.89494],[-1.31993,50.89482],[-1.31987,50.89481],[-1.31994,50.89464],[-1.31989,50.89462],[-1.31994,50.8945],[-1.31998,50.89451],[-1.32004,50.89435],[-1.32028,50.89438],[-1.32045,50.89396],[-1.32112,50.89406],[-1.32109,50.89416],[-1.3212,50.89418]]]]}},
{ "type":"Feature","properties":{"osm_way_id":"75767292","name":"Waitrose","building":"yes","shop":"supermarket","other":{"addr:city":"Eastleigh","addr:country":"GB","addr:housenumber":"1","addr:postcode":"SO53 2LG","addr:street":"Oakmount Road","addr:suburb":"Chandler's Ford","alt_name":"Waitrose Chandler's Ford","brand":"Waitrose & Partners","brand:wikidata":"Q771734","brand:wikipedia":"en:Waitrose & Partners","operator":"Waitrose & Partners"}}, "geometry":{"type":"MultiPolygon","coordinates":[[[[-1.37445,50.98719],[-1.37421,50.9873],[-1.37431,50.98739],[-1.37417,50.98745],[-1.37416,50.98743],[-1.37386,50.98756],[-1.37368,50.9874],[-1.37348,50.98725],[-1.37403,50.98696],[-1.37399,50.98694],[-1.37407,50.98689],[-1.37445,50.98719]]]]}},
{ "type":"Feature","properties":{"osm_way_id":"98452765","name":"Sainsbury's","building":"yes","shop":"supermarket","other":{"brand":"Sainsbury's","brand:wikidata":"Q152096","opening_hours":"Mo-We 07:00-23:00; Th,Fr 07:00-24:00; Sa 07:00-22:00; Su 10:00-16:00","operator":"Sainsbury's","pharmacy":"yes","pharmacy:opening_hours":"Mo-Fr 08:00-22:00; Sa 08:00-20:00; Su 10:00-16:00","phone":"+44 1489 790452","wheelchair":"yes"}}, "geometry":{"type":"MultiPolygon","coordinates":[[[[-1.31356,50.91982],[-1.3136,50.91996],[-1.31282,50.92005],[-1.31277,50.91992],[-1.31268,50.91993],[-1.31263,50.91978],[-1.31217,50.91983],[-1.31215,50.91978],[-1.312,50.9198],[-1.31198,50.9197],[-1.31213,50.91969],[-1.3119,50.91894],[-1.31236,50.91889],[-1.31232,50.91875],[-1.31328,50.91863],[-1.31356,50.91982]]]]}},
{ "type":"Feature","properties":{"osm_way_id":"142139114","name":"Lidl","building":"yes","shop":"supermarket","other":{"addr:city":"Eastleigh","addr:country":"GB","addr:postcode":"SO50 4EL","addr:street":"Coles Close","brand":"Lidl","brand:wikidata":"Q151954","brand:wikipedia":"en:Lidl","designation":"Eastleigh Hampshire","fhrs:id":"133597"}}, "geometry":{"type":"MultiPolygon","coordinates":[[[[-1.35015,50.97037],[-1.3501,50.9705],[-1.35015,50.97051],[-1.35006,50.97077],[-1.35001,50.97077],[-1.34996,50.97091],[-1.34966,50.97087],[-1.34967,50.97084],[-1.34964,50.97084],[-1.34978,50.97032],[-1.35015,50.97037]]]]}},
{ "type":"Feature","properties":{"osm_way_id":"204667417","name":"Asda","shop":"supermarket","other":{"addr:city":"Southampton","addr:country":"GB","addr:county":"Hampshire","addr:postcode":"SO30 3DQ","addr:street":"High Street","brand":"Asda","brand:wikidata":"Q297410","brand:wikipedia":"en:Asda","contact:facebook":"https:\/\/www.facebook.com\/asda\/","contact:phone":"+44 2380 530700","contact:twitter":"@asda","contact:website":"https:\/\/storelocator.asda.com\/south-east\/southampton\/49-57-high-street-west-end","fhrs:id":"209816","opening_hours":"Mo-Sa 07:00-23:00; Su 10:00-16:00","operator":"Asda Stores Ltd","store_ref":"04747"}}, "geometry":{"type":"MultiPolygon","coordinates":[[[[-1.33636,50.92811],[-1.33576,50.92806],[-1.33577,50.92802],[-1.33575,50.92802],[-1.33579,50.92782],[-1.33582,50.92769],[-1.33594,50.92771],[-1.33644,50.92775],[-1.33639,50.92797],[-1.33636,50.92811]]]]}},
{ "type":"Feature","properties":{"osm_way_id":"233564867","name":"Sainsbury's","building":"yes","shop":"supermarket","other":{"addr:city":"Eastleigh","addr:country":"GB","addr:postcode":"SO50 9FH","addr:street":"Leigh Road","brand":"Sainsbury's","brand:wikidata":"Q152096","brand:wikipedia":"en:Sainsbury's","fhrs:id":"132649","phone":"+442380610639"}}, "geometry":{"type":"MultiPolygon","coordinates":[[[[-1.35277,50.97022],[-1.35278,50.96945],[-1.35234,50.96945],[-1.35234,50.96938],[-1.35199,50.96938],[-1.35199,50.97022],[-1.35208,50.97022],[-1.35208,50.97028],[-1.35215,50.97028],[-1.35215,50.97022],[-1.35228,50.97022],[-1.35277,50.97022]]]]}},
{ "type":"Feature","properties":{"osm_way_id":"282460763","name":"Co-op Food","building":"yes","shop":"supermarket","other":{"addr:city":"Golspie","addr:postcode":"KW10 6RA","addr:street":"Main Street","alt_name":"The Co-operative Food","brand":"Co-op Food","brand:wikidata":"Q3277439","brand:wikipedia":"en:Co-op Food","fhrs:id":"360600","opening_hours":"07:00-22:00","operator":"The Co-operative Group","operator:wikidata":"Q117202","operator:wikipedia":"en:The Co-operative Group"}}, "geometry":{"type":"MultiPolygon","coordinates":[[[[-3.97516,57.97422],[-3.97483,57.97396],[-3.97465,57.97403],[-3.9747,57.97407],[-3.97498,57.97428],[-3.97516,57.97422]]]]}},
{ "type":"Feature","properties":{"osm_way_id":"306611042","name":"Iceland","building":"retail","shop":"supermarket","other":{"addr:city":"Eastleigh","addr:housenumber":"28-30","addr:postcode":"SO50 5LD","addr:street":"High Street","brand":"Iceland","brand:wikidata":"Q721810","fhrs:id":"132473","source:addr":"FHRS Open Data"}}, "geometry":{"type":"MultiPolygon","coordinates":[[[[-1.35341,50.96804],[-1.35339,50.96815],[-1.35286,50.96813],[-1.35283,50.9681],[-1.35283,50.96808],[-1.35274,50.96807],[-1.35275,50.96804],[-1.35312,50.96806],[-1.35313,50.96803],[-1.35329,50.96803],[-1.35341,50.96804]]]]}},
{ "type":"Feature","properties":{"osm_way_id":"472429369","name":"The Co-operative","building":"retail","shop":"supermarket","other":{"addr:city":"Southampton","addr:country":"GB","addr:county":"Hampshire","addr:postcode":"SO30 2EA","addr:street":"High Street","addr:village":"Botley","opening_hours":"Mo-Su 06:00-22:00","opening_hours:post_office":"Mo-Fr 09:00-17:30; Sa 09:00-12:45","phone":"+44 1489 782018","store_ref":"7272"}}, "geometry":{"type":"MultiPolygon","coordinates":[[[[-1.27049,50.91451],[-1.27051,50.91456],[-1.27056,50.91475],[-1.27068,50.91474],[-1.27064,50.91459],[-1.2707,50.91459],[-1.27067,50.91449],[-1.27049,50.91451]]]]}},
{ "type":"Feature","properties":{"osm_way_id":"577864643","name":"M&S Foodhall","building":"retail","shop":"supermarket","other":{"addr:city":"Eastleigh","addr:housename":"Coles Close","addr:postcode":"SO50 4EL","addr:street":"Twyford Road","brand":"M&S Foodhall","brand:wikidata":"Q714491","brand:wikipedia":"en:Marks & Spencer","phone":"+44 2381 242250","website":"https:\/\/www.marksandspencer.com\/stores\/eastleigh-foodhall-2116"}}, "geometry":{"type":"MultiPolygon","coordinates":[[[[-1.35071,50.97171],[-1.35057,50.97145],[-1.35046,50.97147],[-1.35044,50.97142],[-1.35019,50.97147],[-1.35021,50.97152],[-1.35018,50.97153],[-1.35032,50.9718],[-1.35053,50.97176],[-1.35055,50.9718],[-1.35066,50.97178],[-1.35064,50.97173],[-1.35071,50.97171]]]]}},
{ "type":"Feature","properties":{"osm_way_id":"1009715605","name":"Lidl","building":"yes","shop":"supermarket","other":{"addr:city":"Southampton","addr:housenumber":"Unit 1A","addr:postcode":"SO30 2UH","addr:street":"Hedge End Retail Park, Tollbar Way","brand":"Lidl","brand:wikidata":"Q151954","brand:wikipedia":"en:Lidl","internet_access":"wlan","opening_hours":"Mo-Sa 07:00-22:00; Su 10:00-16:00"}}, "geometry":{"type":"MultiPolygon","coordinates":[[[[-1.31442,50.92492],[-1.31433,50.92448],[-1.31485,50.92444],[-1.31494,50.92488],[-1.31442,50.92492]]]]}}
]
}
