{
"type": "FeatureCollection",
"features": [
{ "type":"Feature","properties":{"osm_id":"21591550","name":"Co-op Food","other":{"addr:city":"Cambridge","addr:housenumber":"175","addr:postcode":"CB4 3HL","addr:street":"Histon Road","brand":"Co-op Food","brand:wikidata":"Q3277439","brand:wikipedia":"en:Co-op Food","opening_hours":"07:00-23:00","operator":"The Co-operative Group","shop":"supermarket","wheelchair":"yes"}}, "geometry":{"type":"Point","coordinates":[0.11148,52.22027 ]}},
{ "type":"Feature","properties":{"osm_id":"21591552","name":"Aldi","other":{"addr:city":"Cambridge","addr:housenumber":"157","addr:postcode":"CB4 3JD","addr:street":"Histon Road","brand":"ALDI","brand:wikidata":"Q41171672","brand:wikipedia":"en:Aldi","fhrs:id":"506877","opening_hours":"Mo-Sa 08:00-22:00; Su 11:00-17:00; PH 08:00-20:00","shop":"supermarket","website":"https:\/\/www.aldi.co.uk\/store\/s-uk-E0221","wheelchair":"yes"}}, "geometry":{"type":"Point","coordinates":[0.11071,52.21945 ]}},
{ "type":"Feature","properties":{"osm_id":"21591553","name":"Iceland","other":{"addr:city":"Cambridge","addr:housenumber":"167","addr:postcode":"CB4 3JD","addr:street":"Histon Road","brand":"Iceland","brand:wikidata":"Q721810","fhrs:id":"506878","opening_hours":"Mo, We-Fr 09:00-20:00; Tu 09:00-19:00; Sa 08:00-19:00; Su 10:00-16:00","shop":"supermarket","wheelchair":"yes"}}, "geometry":{"type":"Point","coordinates":[0.1108,52.21977 ]}},
{ "type":"Feature","properties":{"osm_id":"57750078","name":"M&S Simply Food","other":{"addr:city":"Peterborough","addr:postcode":"PE3 8DE","addr:street":"Rightwell West","brand":"M&S Simply Food","brand:wikidata":"Q714491","brand:wikipedia":"en:Marks & Spencer","fhrs:id":"338209","shop":"supermarket"}}, "geometry":{"type":"Point","coordinates":[-0.28495,52.5887 ]}},
{ "type":"Feature","properties":{"osm_id":"57750115","name":"Sainsbury's","other":{"addr:city":"Peterborough","addr:housenumber":"3","addr:postcode":"PE3 8DA","addr:street":"Bretton Centre","brand":"Sainsbury's","brand:wikidata":"Q152096","brand:wikipedia":"en:Sainsbury's","fhrs:id":"247030","operator":"Sainsbury's","shop":"supermarket"}}, "geometry":{"type":"Point","coordinates":[-0.28422,52.59118 ]}},
{ "type":"Feature","properties":{"osm_id":"243633748","name":"Co-op","other":{"addr:city":"Cottenham","addr:housenumber":"273","addr:postcode":"CB24 8QP","addr:street":"High Street","fhrs:id":"596535","operator":"The Co-operative Group","shop":"supermarket"}}, "geometry":{"type":"Point","coordinates":[0.12636,52.28623 ]}},
{ "type":"Feature","properties":{"osm_id":"288853761","name":"The Co-operative Food","other":{"addr:postcode":"PE27 3ER","brand":"The Co-operative Food","brand:wikidata":"Q3277439","brand:wikipedia":"en:Co-op Food","operator":"Co-operative Society","shop":"supermarket"}}, "geometry":{"type":"Point","coordinates":[-0.07594,52.34346 ]}},
{ "type":"Feature","properties":{"osm_id":"298844542","name":"Co-op Food","other":{"addr:city":"Cambridge","addr:housenumber":"52","addr:postcode":"CB2 1LA","addr:street":"Hills Road","brand":"Co-op Food","brand:wikidata":"Q3277439","brand:wikipedia":"en:Co-op Food","fhrs:id":"1473309","operator":"The Co-operative Group","shop":"supermarket","website":"https:\/\/www.coop.co.uk\/store-finder\/CB2-1LA\/52-hills-road","wheelchair":"yes"}}, "geometry":{"type":"Point","coordinates":[0.12943,52.1968 ]}},
{ "type":"Feature","properties":{"osm_id":"339777102","name":"Co-op Food","other":{"brand":"Co-op Food","brand:wikidata":"Q3277439","brand:wikipedia":"en:Co-op Food","operator":"The Co-operative Group","operator:wikidata":"Q117202","operator:wikipedia":"en:The Co-operative Group","shop":"supermarket"}}, "geometry":{"type":"Point","coordinates":[-0.22684,52.32354 ]}},
{ "type":"Feature","properties":{"osm_id":"634995716","name":"Sainsbury's","other":{"addr:city":"Cambridge","addr:housenumber":"42-45","addr:postcode":"CB2 3HX","addr:street":"Sidney Street","brand":"Sainsbury's","brand:wikidata":"Q152096","brand:wikipedia":"en:Sainsbury's","fhrs:id":"1473363","opening_hours":"Mo-Sa 08:00-23:30; Su 11:00-17:00","operator":"Sainsbury's Supermarkets Ltd","payment:cash":"yes","payment:credit_cards":"yes","payment:debit_cards":"yes","phone":"+44 1223 366891","shop":"supermarket","website":"https:\/\/stores.sainsburys.co.uk\/0728\/sidney-street","wheelchair":"yes"}}, "geometry":{"type":"Point","coordinates":[0.1198,52.20708 ]}},
{ "type":"Feature","properties":{"osm_id":"726840981","name":"Co-op Food","other":{"brand":"Co-op Food","brand:wikidata":"Q3277439","brand:wikipedia":"en:Co-op Food","shop":"supermarket","source:name":"voice"}}, "geometry":{"type":"Point","coordinates":[-0.12629,52.55724 ]}},
{ "type":"Feature","properties":{"osm_id":"760472273","name":"Tesco","other":{"addr:city":"Peterborough","addr:housename":"The Werrington Centre","addr:postcode":"PE4 6NA","addr:street":"Staniland Way","branch":"Peterborough Werrington Superstore","brand":"Tesco","brand:wikidata":"Q487494","brand:wikipedia":"en:Tesco","check_date:opening_hours":"2021-11-13","contact:website":"https:\/\/www.tesco.com\/store-locator\/peterborough\/the-werrington-centre","fhrs:id":"247147","opening_hours":"Mo-Sa 07:00-23:00; Su 10:00-16:00","operator":"Tesco Stores Ltd","shop":"supermarket"}}, "geometry":{"type":"Point","coordinates":[-0.27274,52.62144 ]}},
{ "type":"Feature","properties":{"osm_id":"1573848802","name":"The Co-operative Food","other":{"addr:city":"Cambridge","addr:full":"Unity Court, Mill Road","addr:housenumber":"177","addr:postcode":"CB1 3AN","addr:street":"Mill Road","brand":"The Co-operative Food","brand:wikidata":"Q3277439","brand:wikipedia":"en:Co-op Food","fhrs:id":"1473331","opening_hours":"Mo-Sa 06:00-23:00; Su 11:00-17:00","shop":"supermarket","source:addr":"FHRS Open Data","wheelchair":"yes"}}, "geometry":{"type":"Point","coordinates":[0.14538,52.19757 ]}},
{ "type":"Feature","properties":{"osm_id":"1575974943","name":"Heron Foods","other":{"addr:city":"Peterborough","addr:country":"GB","addr:housenumber":"23","addr:postcode":"PE7 1AJ","addr:street":"High Causeway","brand":"Heron Foods","brand:wikidata":"Q5743472","brand:wikipedia":"en:Heron Foods","contact:website":"https:\/\/heronfoods.com\/storelocator\/store-details\/whittlesey-relocation","fhrs:id":"1041318","shop":"supermarket"}}, "geometry":{"type":"Point","coordinates":[-0.12741,52.55767 ]}},
{ "type":"Feature","properties":{"osm_id":"1611241343","name":"Cash & Carry","other":{"addr:city":"Peterborough","addr:postcode":"PE3 7PN","addr:street":"Ivatt Way Business Park","fhrs:id":"433927","not:addr:postcode":"PE3 7PH","shop":"supermarket"}}, "geometry":{"type":"Point","coordinates":[-0.26666,52.5965 ]}},
{ "type":"Feature","properties":{"osm_id":"1618875725","name":"Budgens","other":{"addr:city":"Cambridge","addr:housenumber":"50a","addr:postcode":"CB4 2JQ","addr:street":"Arbury Court","brand":"Budgens","brand:wikidata":"Q4985016","brand:wikipedia":"en:Budgens","opening_hours":"Mo-Fr 07:00-22:00; Sa 07:00-21:00; Su 10:00-16:00","shop":"supermarket"}}, "geometry":{"type":"Point","coordinates":[0.12793,52.22498 ]}},
{ "type":"Feature","properties":{"osm_id":"1619056266","name":"The Co-operative Food","other":{"addr:city":"Sawston","addr:housenumber":"28-31","addr:postcode":"CB22 3BG","addr:street":"High Street","brand":"Co-op Food","brand:wikidata":"Q3277439","brand:wikipedia":"en:Co-op Food","fhrs:id":"596656","operator":"Central England Co-operative","shop":"supermarket"}}, "geometry":{"type":"Point","coordinates":[0.16981,52.12336 ]}},
{ "type":"Feature","properties":{"osm_id":"1800593385","name":"One Stop","other":{"addr:city":"Cambridge","addr:housenumber":"43-47","addr:postcode":"CB5 8SR","addr:street":"Ditton Lane","fhrs:id":"1473287","opening_hours":"Mo-Su 06:00-22:00","opening_hours:covid19":"same","payment:cash":"yes","payment:credit_cards":"yes","payment:debit_cards":"yes","payment:mastercard":"yes","payment:visa":"yes","shop":"supermarket","website":"https:\/\/www.onestop.co.uk\/store\/?store=505af1eb-dbda-4663-9c82-811679f53dc3"}}, "geometry":{"type":"Point","coordinates":[0.16903,52.21546 ]}},
{ "type":"Feature","properties":{"osm_id":"2014597226","name":"Co-op Food","other":{"addr:housenumber":"2","addr:postcode":"CB2 1PG","addr:street":"Brookgate","brand":"Co-op Food","brand:wikidata":"Q3277439","brand:wikipedia":"en:Co-op Food","operator":"The Co-operative Group","shop":"supermarket","wheelchair":"yes"}}, "geometry":{"type":"Point","coordinates":[0.13408,52.19234 ]}},
{ "type":"Feature","properties":{"osm_id":"2781822144","name":"ALDI","other":{"addr:city":"Peterborough","addr:postcode":"PE3 8DF","addr:street":"Flaxland","brand":"ALDI","brand:wikidata":"Q41171672","brand:wikipedia":"en:Aldi","fhrs:id":"247103","operator":"Aldi","shop":"supermarket"}}, "geometry":{"type":"Point","coordinates":[-0.28261,52.59099 ]}},
{ "type":"Feature","properties":{"osm_id":"3356621510","name":"The Co-operative Food","other":{"addr:city":"Cambridge","addr:housename":"Ailsa Court","addr:housenumber":"179-185","addr:postcode":"CB4 1AB","addr:street":"Chesterton Road","fhrs:id":"1473192","not:addr:postcode":"CB4 1AF","opening_hours":"07:00-23:00","operator":"The Co-operative Group","phone":"+44 1223 367577","shop":"supermarket"}}, "geometry":{"type":"Point","coordinates":[0.12744,52.21496 ]}},
{ "type":"Feature","properties":{"osm_id":"3402729431","name":"The Co-operative Food","other":{"addr:housenumber":"93","addr:postcode":"CB24 3BT","addr:street":"High Street","addr:village":"Longstanton","fhrs:id":"1101270","operator":"The Co-operative Group","shop":"supermarket","website":"https:\/\/finder.coop.co.uk\/food\/store\/CB24-3BT\/93-high-street"}}, "geometry":{"type":"Point","coordinates":[0.04383,52.28386 ]}},
{ "type":"Feature","properties":{"osm_id":"3669036480","name":"The Co-operative Food","other":{"operator":"Central England Co-operative Society","shop":"supermarket"}}, "geometry":{"type":"Point","coordinates":[-0.0831,52.2171 ]}},
{ "type":"Feature","properties":{"osm_id":"4124526690","name":"Co-op","other":{"addr:city":"Cambridge","addr:postcode":"CB2 8RA","addr:street":"Hills Road","opening_hours":"Mo-Su 07:00-22:00","shop":"supermarket"}}, "geometry":{"type":"Point","coordinates":[0.13639,52.18883 ]}},
{ "type":"Feature","properties":{"osm_id":"4749665441","name":"Mary's Greengrocers","other":{"shop":"supermarket"}}, "geometry":{"type":"Point","coordinates":[0.16931,52.12357 ]}},
{ "type":"Feature","properties":{"osm_id":"4940915379","name":"The Co-operative Food","other":{"addr:city":"Cambridge","addr:housenumber":"3","addr:postcode":"CB4 1UY","addr:street":"Milton Road","fhrs:id":"1473466","opening_hours":"Mo-Su 06:00-23:00","operator":"The Co-operative Group","phone":"+44 1223 229064","shop":"supermarket"}}, "geometry":{"type":"Point","coordinates":[0.12492,52.21471 ]}},
{ "type":"Feature","properties":{"osm_id":"4969325439","name":"Jiamart","other":{"addr:city":"Cambridge","addr:housenumber":"31","addr:postcode":"CB1 1DG","addr:street":"Burleigh Street","fhrs:id":"1472578","shop":"supermarket"}}, "geometry":{"type":"Point","coordinates":[0.13339,52.20576 ]}},
{ "type":"Feature","properties":{"osm_id":"5087818536","name":"M&S Foodhall","other":{"brand":"M&S Foodhall","brand:wikidata":"Q714491","brand:wikipedia":"en:Marks & Spencer","shop":"supermarket"}}, "geometry":{"type":"Point","coordinates":[-0.181,52.33049 ]}},
{ "type":"Feature","properties":{"osm_id":"5497704669","name":"Morrisons Daily","other":{"brand":"Morrisons Daily","brand:wikidata":"Q99752411","shop":"supermarket","website":"https:\/\/my.morrisons.com\/storefinder\/644"}}, "geometry":{"type":"Point","coordinates":[-0.05974,52.3311 ]}},
{ "type":"Feature","properties":{"osm_id":"6188209208","name":"Siret","other":{"addr:city":"Peterborough","addr:postcode":"PE1 1RS","addr:street":"Broadway","description":"sells romanian groceries","level":"0","shop":"supermarket"}}, "geometry":{"type":"Point","coordinates":[-0.24179,52.57496 ]}},
{ "type":"Feature","properties":{"osm_id":"6274305678","name":"Spar","other":{"addr:city":"Peterborough","addr:postcode":"PE1 5DD","addr:street":"St. John's Street","alt_name":"Bals Food & Wine","brand":"Spar","brand:wikidata":"Q610492","brand:wikipedia":"en:SPAR (retailer)","fhrs:id":"446531","shop":"supermarket"}}, "geometry":{"type":"Point","coordinates":[-0.23584,52.57428 ]}},
{ "type":"Feature","properties":{"osm_id":"6317767372","ref":"AAI16","other":{"emergency":"defibrillator","location":"On exterior wall of Co-op supermarket, near the right-hand corner facing Wisbech Road."}}, "geometry":{"type":"Point","coordinates":[0.3019,52.46002 ]}},
{ "type":"Feature","properties":{"osm_id":"6401596087","name":"Poli Maxx","other":{"addr:city":"Peterborough","addr:housenumber":"46B","addr:postcode":"PE3 7PN","addr:street":"Ivatt Way","fhrs:id":"719546","shop":"supermarket"}}, "geometry":{"type":"Point","coordinates":[-0.26575,52.59607 ]}},
{ "type":"Feature","properties":{"osm_id":"6760607661","name":"Stop & Shop","other":{"addr:city":"Peterborough","addr:housename":"Unit 1, Sugar Square (West)","addr:housenumber":"85","addr:postcode":"PE3 6EY","addr:street":"Mayors Walk","brand":"Stop & Shop","brand:wikidata":"Q3658429","brand:wikipedia":"en:Stop & Shop","origin":"European","shop":"supermarket"}}, "geometry":{"type":"Point","coordinates":[-0.25908,52.57839 ]}},
{ "type":"Feature","properties":{"osm_id":"7163063533","name":"M&S Simply Food","other":{"brand":"M&S Simply Food","brand:wikidata":"Q714491","brand:wikipedia":"en:Marks & Spencer","fhrs:id":"682667","shop":"supermarket","website":"https:\/\/www.marksandspencer.com\/stores\/addenbrookes-hospital-1175"}}, "geometry":{"type":"Point","coordinates":[0.13979,52.17484 ]}},
{ "type":"Feature","properties":{"osm_id":"7435723768","name":"Lidl","other":{"addr:city":"Cambridge","addr:country":"GB","addr:housename":"Cambridge Retail Park","addr:postcode":"CB5 8WR","addr:street":"Newmarket Road","addr:unit":"10A","brand":"Lidl","brand:wikidata":"Q151954","brand:wikipedia":"en:Lidl","fhrs:id":"1473484","shop":"supermarket"}}, "geometry":{"type":"Point","coordinates":[0.14633,52.20874 ]}},
{ "type":"Feature","properties":{"osm_id":"7869932775","name":"Islamic International Stores","other":{"addr:city":"Peterborough","addr:housenumber":"235","addr:postcode":"PE1 2BP","addr:street":"Gladstone Street","diet:halal":"only","fhrs:id":"247106","shop":"supermarket"}}, "geometry":{"type":"Point","coordinates":[-0.24985,52.58185 ]}},
{ "type":"Feature","properties":{"osm_id":"8121330363","other":{"defibrillator:location":"To left of main entrance to Co-op: under porch on wall.","emergency":"defibrillator","indoor":"no"}}, "geometry":{"type":"Point","coordinates":[-0.2592,52.57842 ]}},
{ "type":"Feature","properties":{"osm_id":"9049415506","name":"Lidl","other":{"addr:city":"Peterborough","addr:country":"GB","addr:postcode":"PE2 9AY","addr:street":"Sugar Way","brand":"Lidl","brand:wikidata":"Q151954","brand:wikipedia":"en:Lidl","fhrs:id":"1271170","shop":"supermarket"}}, "geometry":{"type":"Point","coordinates":[-0.26007,52.56296 ]}},
{ "type":"Feature","properties":{"osm_id":"9061998588","name":"Pak Foods","other":{"addr:city":"Peterborough","addr:housenumber":"232-248","addr:postcode":"PE1 2NE","addr:street":"Lincoln Road","addr:unit":"B","fhrs:id":"994465","shop":"supermarket"}}, "geometry":{"type":"Point","coordinates":[-0.24693,52.58702 ]}},
{ "type":"Feature","properties":{"osm_id":"9575584038","name":"Budgens","other":{"addr:city":"Peterborough","addr:postcode":"PE2 9QJ","addr:street":"Sugar Way","brand":"Budgens","brand:wikidata":"Q4985016","brand:wikipedia":"en:Budgens","shop":"supermarket"}}, "geometry":{"type":"Point","coordinates":[-0.26153,52.56263 ]}},
{ "type":"Feature","properties":{"osm_way_id":"3753306","name":"Tesco","building":"yes","landuse":"retail","shop":"supermarket","other":{"addr:city":"Cambridge","addr:postcode":"CB1 9BF","brand":"Tesco","brand:wikidata":"Q487494","brand:wikipedia":"en:Tesco","operator":"Tesco Stores Ltd","wheelchair":"yes"}}, "geometry":{"type":"MultiPolygon","coordinates":[[[[0.18865,52.1864],[0.18873,52.18718],[0.18778,52.18721],[0.18778,52.18724],[0.18742,52.18725],[0.18741,52.18718],[0.18734,52.18718],[0.18732,52.18698],[0.1874,52.18697],[0.18737,52.18665],[0.18742,52.18665],[0.1874,52.18644],[0.18865,52.1864]]]]}},
{ "type":"Feature","properties":{"osm_way_id":"3875404","name":"Tesco","building":"retail","shop":"supermarket","other":{"addr:city":"Cambridge","addr:country":"GB","addr:postcode":"CB5 8LD","addr:street":"Cheddars Lane, Newmarket Road","brand":"Tesco","brand:wikidata":"Q487494","brand:wikipedia":"en:Tesco","contact:website":"https:\/\/www.tesco.com\/store-locator\/cambridge\/cheddars-ln","fhrs:id":"1473399","opening_hours":"Mo-Sa 07:30-22:00; Su 11:00-17:00","operator":"Tesco Stores Ltd","payment:cash":"yes","payment:contactless":"yes","payment:credit_cards":"yes","phone":"+44 345 677 9127","wheelchair":"yes"}}, "geometry":{"type":"MultiPolygon","coordinates":[[[[0.14341,52.21086],[0.14326,52.21092],[0.14302,52.21102],[0.14288,52.21091],[0.14267,52.21101],[0.1428,52.21112],[0.14257,52.21122],[0.14355,52.21204],[0.14362,52.21201],[0.14367,52.21206],[0.14373,52.21203],[0.14369,52.21193],[0.14367,52.21191],[0.14417,52.21169],[0.14418,52.2117],[0.14434,52.21163],[0.14341,52.21086]]]]}},
{ "type":"Feature","properties":{"osm_way_id":"3875475","name":"ALDI","building":"yes","shop":"supermarket","other":{"addr:city":"Cambridge","addr:country":"GB","addr:housenumber":"393","addr:postcode":"CB5 8JL","addr:street":"Newmarket Road","brand":"ALDI","brand:wikidata":"Q41171672","brand:wikipedia":"en:Aldi","fhrs:id":"1473546","website":"https:\/\/www.aldi.co.uk\/store\/s-uk-E1304"}}, "geometry":{"type":"MultiPolygon","coordinates":[[[[0.14759,52.21176],[0.14719,52.21148],[0.14647,52.21186],[0.14687,52.21214],[0.14759,52.21176]]]]}},
{ "type":"Feature","properties":{"osm_way_id":"4372288","name":"Tesco Extra","building":"supermarket","landuse":"retail","shop":"supermarket","other":{"addr:city":"Cambridge","addr:housenumber":"15-18","addr:postcode":"CB23 8EL","addr:street":"Viking Way","addr:suburb":"Bar Hill","brand":"Tesco Extra","brand:wikidata":"Q25172225","brand:wikipedia":"en:Tesco Extra","fhrs:id":"596222","operator":"Tesco Stores Ltd","source:addr":"FSA Food Hygiene Ratings Database","wheelchair":"yes"}}, "geometry":{"type":"MultiPolygon","coordinates":[[[[0.01713,52.25429],[0.0179,52.25391],[0.01911,52.25485],[0.01833,52.25523],[0.01793,52.25492],[0.01713,52.25429]]]]}},
{ "type":"Feature","properties":{"osm_way_id":"4937676","name":"Morrisons","building":"supermarket","shop":"supermarket","other":{"addr:city":"Cambridge","addr:country":"GB","addr:locality":"Great Cambourne","addr:postcode":"CB23 6EY","addr:street":"Broad Street","brand":"Morrisons","brand:wikidata":"Q922344","brand:wikipedia":"en:Morrisons","opening_hours":"Mo-Sa 06:00-22:00; Su 10:00-16:00"}}, "geometry":{"type":"MultiPolygon","coordinates":[[[[-0.06862,52.21878],[-0.06885,52.21871],[-0.06883,52.21866],[-0.06884,52.21866],[-0.06884,52.21866],[-0.0689,52.21865],[-0.0689,52.21866],[-0.06915,52.21863],[-0.06915,52.21863],[-0.06922,52.21862],[-0.06922,52.21863],[-0.06924,52.21862],[-0.06929,52.21868],[-0.06943,52.21864],[-0.06939,52.21859],[-0.06954,52.21854],[-0.06962,52.21863],[-0.06955,52.21866],[-0.07002,52.21922],[-0.07004,52.21922],[-0.0701,52.21928],[-0.06998,52.21932],[-0.06997,52.21932],[-0.06935,52.21952],[-0.06935,52.21951],[-0.06921,52.21937],[-0.06913,52.21939],[-0.06909,52.21933],[-0.06873,52.21892],[-0.06866,52.21894],[-0.06859,52.21885],[-0.06866,52.21882],[-0.06862,52.21878]]]]}},
{ "type":"Feature","properties":{"osm_way_id":"28410568","name":"Co-op Food","building":"retail","shop":"supermarket","other":{"addr:city":"Cambridge","addr:country":"GB","addr:housenumber":"129","addr:postcode":"CB4 1XE","addr:street":"Milton Road","brand":"Co-op Food","brand:wikidata":"Q3277439","brand:wikipedia":"en:Co-op Food","opening_hours":"Mo-Su 07:00-23:00","operator":"The Co-operative Group","operator:wikidata":"Q117202","operator:wikipedia":"en:The Co-operative Group"}}, "geometry":{"type":"MultiPolygon","coordinates":[[[[0.13348,52.22034],[0.13359,52.22041],[0.13349,52.22049],[0.13342,52.22055],[0.13332,52.22062],[0.13327,52.22059],[0.13331,52.22056],[0.13324,52.22052],[0.13348,52.22034]]]]}},
{ "type":"Feature","properties":{"osm_way_id":"28698295","name":"Asda","building":"yes","shop":"supermarket","other":{"addr:city":"Peterborough","addr:country":"GB","addr:housename":"West Rivergate Shopping Centre","addr:postcode":"PE1 1ET","addr:street":"Viersen Platz","alt_name":"Asda Peterborough Superstore","brand":"Asda","brand:wikidata":"Q297410","brand:wikipedia":"en:Asda","contact:facebook":"https:\/\/www.facebook.com\/asda\/","contact:phone":"+44 1733 566224","contact:twitter":"@asda","contact:website":"https:\/\/storelocator.asda.com\/east-of-england\/peterborough\/west-rivergate-shopping-centre","fhrs:id":"246826;656408","opening_hours:covid19":"Mo-Sa 08:00-22:00; Su 10:00-16:00","operator":"Asda Stores Ltd","payment:american_express":"yes","payment:cash":"yes","payment:contactless":"yes","payment:mastercard":"yes","payment:visa":"yes","payment:visa_debit":"yes"}}, "geometry":{"type":"MultiPolygon","coordinates":[[[[-0.24355,52.56932],[-0.24387,52.56931],[-0.24386,52.56927],[-0.24473,52.56923],[-0.24471,52.56899],[-0.24513,52.56897],[-0.24514,52.56898],[-0.24522,52.56898],[-0.2452,52.56883],[-0.2451,52.56883],[-0.24508,52.56871],[-0.24501,52.56867],[-0.24481,52.56868],[-0.24481,52.56865],[-0.2438,52.5687],[-0.2438,52.56873],[-0.24369,52.56874],[-0.24369,52.56871],[-0.24348,52.56872],[-0.24349,52.56882],[-0.24344,52.56882],[-0.2435,52.56929],[-0.24355,52.56932]]]]}},
{ "type":"Feature","properties":{"osm_way_id":"28728314","name":"Co-op Food","building":"yes","shop":"supermarket","other":{"addr:city":"Yaxley","addr:postcode":"PE7 3NT","addr:street":"Bentley Avenue","brand":"Co-op Food","brand:wikidata":"Q3277439","brand:wikipedia":"en:Co-op Food","fhrs:id":"341467","operator":"Central England Co-operative"}}, "geometry":{"type":"MultiPolygon","coordinates":[[[[-0.25645,52.52157],[-0.25709,52.52144],[-0.25728,52.5218],[-0.25665,52.52192],[-0.25658,52.52179],[-0.25684,52.52174],[-0.25678,52.52164],[-0.25652,52.52169],[-0.25645,52.52157]]]]}},
{ "type":"Feature","properties":{"osm_way_id":"38500596","name":"Tesco Extra","building":"yes","shop":"supermarket","other":{"addr:postcode":"PE19 2SA","addr:street":"Barford Road","brand":"Tesco Extra","brand:wikidata":"Q25172225","brand:wikipedia":"en:Tesco Extra","designation":"3145","operator":"Tesco Stores Ltd","toilets:wheelchair":"yes","wheelchair":"yes"}}, "geometry":{"type":"MultiPolygon","coordinates":[[[[-0.27032,52.21004],[-0.27023,52.20965],[-0.26901,52.20976],[-0.26918,52.21044],[-0.26927,52.21043],[-0.26933,52.21067],[-0.27087,52.21052],[-0.27085,52.21043],[-0.27072,52.21044],[-0.27061,52.21001],[-0.27032,52.21004]]]]}},
{ "type":"Feature","properties":{"osm_way_id":"39539119","name":"Asda","building":"yes","shop":"supermarket","other":{"addr:city":"Ely","addr:country":"GB","addr:housenumber":"2A","addr:postcode":"CB7 5HH","addr:street":"Clay Street","addr:town":"Soham","brand":"Asda","brand:wikidata":"Q297410","brand:wikipedia":"en:Asda","contact:facebook":"https:\/\/www.facebook.com\/asda\/","contact:twitter":"@asda","contact:website":"https:\/\/storelocator.asda.com\/east-of-england\/soham\/2a-clay-street","fhrs:id":"710398","operator":"Asda Stores Ltd","source:addr":"FHRS Open Data"}}, "geometry":{"type":"MultiPolygon","coordinates":[[[[0.33698,52.33223],[0.33693,52.33233],[0.33683,52.33231],[0.33678,52.33241],[0.33751,52.33254],[0.33761,52.33234],[0.33698,52.33223]]]]}},
{ "type":"Feature","properties":{"osm_way_id":"42867738","name":"M&S Foodhall","building":"retail","shop":"supermarket","other":{"addr:city":"Cambridge","addr:country":"GB","addr:housenumber":"Unit 8","addr:parentstreet":"Coldhams Lane","addr:place":"Beehive Centre","addr:postcode":"CB1 3ET","brand":"M&S Foodhall","brand:wikidata":"Q714491","fhrs:id":"506767"}}, "geometry":{"type":"MultiPolygon","coordinates":[[[[0.14507,52.20506],[0.14514,52.20516],[0.14463,52.2053],[0.14461,52.20531],[0.14475,52.2055],[0.14544,52.20531],[0.14522,52.20502],[0.14507,52.20506]]]]}},
{ "type":"Feature","properties":{"osm_way_id":"43591130","name":"Waitrose","building":"yes","shop":"supermarket","other":{"addr:city":"St Ives","addr:postcode":"PE27 5BW","addr:street":"Station Road","brand":"Waitrose","brand:wikidata":"Q771734","brand:wikipedia":"en:Waitrose & Partners","official_name":"Waitrose & Partners","operator":"Waitrose & Partners","phone":"+44 1480 492949","website":"https:\/\/www.waitrose.com\/bf_home\/bf\/108.html"}}, "geometry":{"type":"MultiPolygon","coordinates":[[[[-0.06915,52.3226],[-0.0691,52.32257],[-0.06878,52.32239],[-0.06858,52.32227],[-0.06864,52.32224],[-0.06859,52.32221],[-0.06857,52.32213],[-0.06875,52.32212],[-0.0688,52.32214],[-0.06891,52.32207],[-0.06932,52.32229],[-0.06925,52.32233],[-0.06941,52.32242],[-0.06915,52.3226]]]]}},
{ "type":"Feature","properties":{"osm_way_id":"47366412","name":"Asda","building":"supermarket","shop":"supermarket","other":{"addr:city":"Wisbech","addr:country":"GB","addr:postcode":"PE13 1PE","addr:street":"North End","alt_name":"ASDA Wisbech Supercentre","brand":"Asda","brand:wikidata":"Q297410","brand:wikipedia":"en:Asda","contact:facebook":"https:\/\/www.facebook.com\/asda\/","contact:twitter":"@asda","contact:website":"https:\/\/storelocator.asda.com\/east-of-england\/wisbech\/northend-leverington-road","fhrs:id":"774315","operator":"Asda Stores Ltd"}}, "geometry":{"type":"MultiPolygon","coordinates":[[[[0.15489,52.66917],[0.15474,52.66914],[0.15466,52.66931],[0.15462,52.6693],[0.15431,52.66988],[0.1545,52.66992],[0.15456,52.66979],[0.15479,52.66983],[0.15478,52.66986],[0.1548,52.66986],[0.15479,52.6699],[0.15501,52.66994],[0.15502,52.66992],[0.1551,52.66994],[0.15512,52.6699],[0.1553,52.66993],[0.15536,52.66981],[0.1556,52.66935],[0.15567,52.66936],[0.1557,52.66929],[0.15564,52.66927],[0.1557,52.66915],[0.15496,52.66901],[0.15489,52.66917]]]]}},
{ "type":"Feature","properties":{"osm_way_id":"48781345","name":"Aldi","building":"yes","shop":"supermarket","other":{"addr:postcode":"PE16 6AZ","brand":"ALDI","brand:wikidata":"Q41171672","brand:wikipedia":"en:Aldi"}}, "geometry":{"type":"MultiPolygon","coordinates":[[[[0.04507,52.4641],[0.04528,52.46437],[0.04612,52.46411],[0.04591,52.46385],[0.04588,52.46386],[0.04581,52.46377],[0.04548,52.46387],[0.04555,52.46396],[0.04507,52.4641]]]]}},
{ "type":"Feature","properties":{"osm_way_id":"48837812","name":"Budgens","building":"yes","shop":"supermarket","other":{"addr:city":"Bluntisham","addr:postcode":"PE28 3PA","addr:street":"Station Road","brand":"Budgens","brand:wikidata":"Q4985016","operator":"Budgens"}}, "geometry":{"type":"MultiPolygon","coordinates":[[[[0.00374,52.34933],[0.00379,52.34935],[0.00374,52.34941],[0.00404,52.34949],[0.00414,52.34935],[0.00379,52.34925],[0.00374,52.34933]]]]}},
{ "type":"Feature","properties":{"osm_way_id":"49062462","name":"Tesco","building":"retail","shop":"supermarket","other":{"addr:housename":"Cambridge Road Industrial Estate","addr:postcode":"CB24 6AY","addr:street":"Cambridge Road","alt_name":"Tesco Cambridge Milton Superstore","brand":"Tesco","brand:wikidata":"Q487494","brand:wikipedia":"en:Tesco","building:levels":"1","opening_hours":"Mo 06:00-24:00; Tu-Sa 00:00-24:00; Su 10:00-16:00","operator":"Tesco Stores Ltd","roof:levels":"0","source:opening_hours":"website","website":"https:\/\/www.tesco.com\/store-locator\/cambridge\/cambridge-road"}}, "geometry":{"type":"MultiPolygon","coordinates":[[[[0.1536,52.23965],[0.15388,52.2395],[0.15394,52.23955],[0.15414,52.23946],[0.15367,52.23909],[0.15376,52.23904],[0.15369,52.23898],[0.15372,52.23883],[0.15406,52.23867],[0.15408,52.23866],[0.15403,52.23862],[0.15415,52.23856],[0.15424,52.23863],[0.15435,52.23858],[0.15442,52.23863],[0.15449,52.23859],[0.15458,52.23866],[0.15453,52.23868],[0.15481,52.2389],[0.15474,52.23894],[0.15508,52.23921],[0.15443,52.23952],[0.15446,52.23954],[0.15397,52.23976],[0.15393,52.23973],[0.1538,52.23979],[0.1536,52.23965]]]]}},
{ "type":"Feature","properties":{"osm_way_id":"50996351","name":"Aldi","building":"shop","shop":"supermarket","other":{"addr:city":"Wisbech","addr:postcode":"PE13 1NX","addr:street":"Sandyland","brand":"ALDI","brand:wikidata":"Q41171672","brand:wikipedia":"en:Aldi"}}, "geometry":{"type":"MultiPolygon","coordinates":[[[[0.15773,52.66735],[0.15766,52.66751],[0.15765,52.66752],[0.15759,52.66751],[0.15756,52.66757],[0.15707,52.66748],[0.15704,52.66753],[0.15684,52.66749],[0.15686,52.66745],[0.15677,52.66743],[0.15688,52.6672],[0.15773,52.66735]]]]}},
{ "type":"Feature","properties":{"osm_way_id":"57833293","name":"Waitrose","building":"yes","shop":"supermarket","other":{"addr:city":"Ely","addr:postcode":"CB7 4QJ","addr:street":"Bray's Lane","branch":"Ely","brand":"Waitrose","brand:wikidata":"Q771734","brand:wikipedia":"en:Waitrose","fhrs:id":"336496","official_name":"Waitrose & Partners","opening_hours":"Mo-Fr 07:30-21:00; Sa 07:30-20:00; Su 10:00-16:00","operator":"Waitrose & Partners","website":"https:\/\/www.waitrose.com\/bf_home\/bf\/205.html","wheelchair":"yes"}}, "geometry":{"type":"MultiPolygon","coordinates":[[[[0.26706,52.40044],[0.26771,52.40016],[0.26781,52.40013],[0.26772,52.40005],[0.26749,52.40016],[0.26732,52.4],[0.26736,52.39999],[0.26727,52.39992],[0.26713,52.39998],[0.2669,52.40007],[0.26687,52.40004],[0.26671,52.4001],[0.26668,52.40011],[0.26706,52.40044]]]]}},
{ "type":"Feature","properties":{"osm_way_id":"87651609","name":"Morrisons","building":"yes","shop":"supermarket","other":{"addr:city":"Peterborough","addr:postcode":"PE4 6WS","addr:street":"Lincoln Road","alt_name":"Morrisons Peterborough","brand":"Morrisons","brand:wikidata":"Q922344","brand:wikipedia":"en:Morrisons","fhrs:id":"247349"}}, "geometry":{"type":"MultiPolygon","coordinates":[[[[-0.2666,52.60016],[-0.26617,52.59984],[-0.26687,52.59949],[-0.26708,52.59939],[-0.26733,52.59957],[-0.26721,52.59963],[-0.26734,52.59973],[-0.26753,52.59964],[-0.26778,52.59982],[-0.26771,52.59986],[-0.26782,52.59994],[-0.26762,52.60004],[-0.26719,52.60025],[-0.26732,52.60035],[-0.26696,52.60053],[-0.26686,52.60046],[-0.26681,52.60048],[-0.26662,52.60035],[-0.26667,52.60032],[-0.26651,52.6002],[-0.2666,52.60016]]]]}},
{ "type":"Feature","properties":{"osm_way_id":"87850642","name":"Booker","building":"retail","shop":"supermarket","other":{"addr:postcode":"PE2 7BP"}}, "geometry":{"type":"MultiPolygon","coordinates":[[[[-0.26067,52.55484],[-0.26234,52.55385],[-0.26259,52.554],[-0.26242,52.55411],[-0.26246,52.55413],[-0.26238,52.55418],[-0.26234,52.55415],[-0.26215,52.55427],[-0.2622,52.5543],[-0.26181,52.55453],[-0.26236,52.55487],[-0.26172,52.55525],[-0.26156,52.55515],[-0.26136,52.55527],[-0.26067,52.55484]]]]}},
{ "type":"Feature","properties":{"osm_way_id":"90385041","name":"Sainsbury's","building":"yes","shop":"supermarket","other":{"addr:city":"Peterborough","addr:housenumber":"112","addr:postcode":"PE1 5NG","addr:street":"Oxney Road","branch":"Peterborough Superstore","brand":"Sainsbury's","brand:wikidata":"Q152096","brand:wikipedia":"en:Sainsbury's","fhrs:id":"446521","internet_access":"wlan","opening_hours":"Mo-Fr 08:00-22:00; Sa 07:30-22:00; Su 10:00-16:00"}}, "geometry":{"type":"MultiPolygon","coordinates":[[[[-0.21301,52.58785],[-0.213,52.58793],[-0.21247,52.58789],[-0.21248,52.58787],[-0.21205,52.58783],[-0.21205,52.58781],[-0.2118,52.58785],[-0.21178,52.5878],[-0.21176,52.5878],[-0.2117,52.5877],[-0.21183,52.58712],[-0.21212,52.58714],[-0.21211,52.58716],[-0.21262,52.5872],[-0.21293,52.58723],[-0.21293,52.58726],[-0.21303,52.58727],[-0.21303,52.58729],[-0.21306,52.58729],[-0.21302,52.58747],[-0.21311,52.58747],[-0.21306,52.58772],[-0.21312,52.58772],[-0.21309,52.58786],[-0.21301,52.58785]]]]}},
{ "type":"Feature","properties":{"osm_way_id":"118619712","name":"Co-op Food","building":"yes","shop":"supermarket","other":{"addr:postcode":"PE19 8FT","brand":"Co-op Food","brand:wikidata":"Q3277439","brand:wikipedia":"en:Co-op Food","operator":"Central England Co-operative Society"}}, "geometry":{"type":"MultiPolygon","coordinates":[[[[-0.2865,52.2281],[-0.28671,52.22811],[-0.28673,52.22797],[-0.28714,52.22799],[-0.28721,52.22758],[-0.28659,52.22754],[-0.2865,52.2281]]]]}},
{ "type":"Feature","properties":{"osm_way_id":"126358284","name":"Asda","building":"retail","shop":"supermarket","other":{"addr:city":"Cambridge","addr:country":"GB","addr:housenumber":"9","addr:parentstreet":"Coldhams Lane","addr:place":"Beehive Centre","addr:postcode":"CB1 3ER","brand":"Asda","brand:wikidata":"Q297410","brand:wikipedia":"en:Asda","contact:facebook":"https:\/\/www.facebook.com\/asda\/","contact:phone":"+44 1223 531600","contact:twitter":"@asda","contact:website":"https:\/\/storelocator.asda.com\/east-of-england\/cambridge\/beehive-centre-coldhams-lane","fhrs:id":"506648","opening_hours":"Mo-Fr 06:00-24:00; Sa 06:00-22:00; Su 10:00-16:00","opening_hours:covid19":"Mo-Sa 08:00-22:00; Su 10:00-16:00","operator":"Asda Stores Ltd","source:addr":"FHRS Open Data","wheelchair":"yes"}}, "geometry":{"type":"MultiPolygon","coordinates":[[[[0.14487,52.20587],[0.14484,52.20587],[0.14514,52.20628],[0.14516,52.20627],[0.14526,52.20641],[0.14538,52.20638],[0.14547,52.20651],[0.14615,52.20632],[0.14586,52.20592],[0.14592,52.2059],[0.14554,52.20536],[0.14548,52.20538],[0.14544,52.20531],[0.14475,52.2055],[0.14489,52.2057],[0.14477,52.20573],[0.14487,52.20587]]]]}},
{ "type":"Feature","properties":{"osm_way_id":"132570256","name":"Sainsbury's Coldhams Lane","building":"retail","shop":"supermarket","other":{"addr:city":"Cambridge","addr:postcode":"CB1 3HP","addr:street":"Brooks Road","brand":"Sainsbury's","brand:wikidata":"Q152096","brand:wikipedia":"en:Sainsbury's","opening_hours":"Mo-Fr 07:00-23:00; Sa 07:00-22:00; Su 10:00-16:00","operator":"Sainsbury's Supermarkets Ltd","phone":"+44 1223 246183","website":"https:\/\/stores.sainsburys.co.uk\/0815\/coldhams-lane","wheelchair":"yes"}}, "geometry":{"type":"MultiPolygon","coordinates":[[[[0.15823,52.19919],[0.15784,52.19876],[0.15776,52.19861],[0.15754,52.19865],[0.15758,52.19872],[0.15744,52.19875],[0.15741,52.19871],[0.15738,52.19872],[0.1573,52.19864],[0.15672,52.19873],[0.15687,52.19905],[0.15706,52.19926],[0.15699,52.19928],[0.15724,52.19955],[0.15727,52.19959],[0.15734,52.1996],[0.15752,52.19954],[0.15758,52.1996],[0.15795,52.19947],[0.15789,52.19941],[0.15815,52.19932],[0.15818,52.19935],[0.15833,52.1993],[0.15823,52.19919]]]]}},
{ "type":"Feature","properties":{"osm_way_id":"134951136","name":"Co-operative","building":"commercial","shop":"supermarket","other":{"addr:city":"Cambridge","addr:housenumber":"44a","addr:postcode":"CB1 2AS","addr:street":"Mill Road","fhrs:id":"1473900","internet_access":"wlan","internet_access:fee":"no","wikidata":"Q39197360"}}, "geometry":{"type":"MultiPolygon","coordinates":[[[[0.13474,52.20092],[0.13495,52.20085],[0.13479,52.20065],[0.13477,52.20064],[0.13458,52.20069],[0.13459,52.20072],[0.13474,52.20092]]]]}},
{ "type":"Feature","properties":{"osm_way_id":"135032821","name":"Ocean Supermarket","building":"commercial","shop":"supermarket","other":{"addr:city":"Cambridge","addr:housenumber":"58","addr:postcode":"CB1 2AS","addr:street":"Mill Road","cuisine":"chinese","fhrs:id":"1472900"}}, "geometry":{"type":"MultiPolygon","coordinates":[[[[0.13578,52.20059],[0.13571,52.20052],[0.13567,52.20048],[0.13565,52.20049],[0.1356,52.20043],[0.13549,52.20047],[0.13559,52.20057],[0.13566,52.20063],[0.13566,52.20064],[0.13578,52.20059]]]]}},
{ "type":"Feature","properties":{"osm_way_id":"135037216","name":"Mill Road International Supermarket","building":"commercial","shop":"supermarket","other":{"addr:city":"Cambridge","addr:housenumber":"28","addr:postcode":"CB1 2AD","addr:street":"Mill Road","fhrs:id":"1472579","opening_hours":"Mo-Fr 08:00-12:00; Sa,Su 09:00-12:00"}}, "geometry":{"type":"MultiPolygon","coordinates":[[[[0.13407,52.20121],[0.13398,52.20113],[0.13387,52.20118],[0.13395,52.20125],[0.13407,52.20121]]]]}},
{ "type":"Feature","properties":{"osm_way_id":"135476446","name":"Morrisons","building":"supermarket","shop":"supermarket","other":{"addr:city":"Peterborough","addr:postcode":"PE2 8GP","addr:street":"Bellona Drive","brand":"Morrisons","brand:wikidata":"Q922344","brand:wikipedia":"en:Morrisons","fhrs:id":"247092","operator":"Morrisons"}}, "geometry":{"type":"MultiPolygon","coordinates":[[[[-0.21371,52.54607],[-0.21355,52.54566],[-0.21359,52.54566],[-0.21355,52.54555],[-0.21331,52.54558],[-0.21332,52.54562],[-0.21282,52.5457],[-0.21277,52.54559],[-0.21284,52.54558],[-0.21277,52.5454],[-0.21247,52.54538],[-0.21245,52.54548],[-0.2123,52.54547],[-0.2126,52.54621],[-0.21354,52.54607],[-0.21355,52.5461],[-0.21371,52.54607]]]]}},
{ "type":"Feature","properties":{"osm_way_id":"136891313","name":"The Co-operative Food","building":"retail","shop":"supermarket","other":{"addr:city":"Ely","addr:housenumber":"40","addr:postcode":"CB6 1JH","addr:street":"Wisbech Road","addr:village":"Littleport","brand":"Co-op Food","brand:wikidata":"Q3277439","brand:wikipedia":"en:Co-op Food","fhrs:id":"336353","opening_hours":"Su 10:00-16:00, Mo-Sa 06:00-22:00","operator":"Central England Co-operative Society","source:addr":"FHRS Open Data"}}, "geometry":{"type":"MultiPolygon","coordinates":[[[[0.30191,52.46001],[0.3019,52.46002],[0.30151,52.46017],[0.30196,52.46062],[0.30212,52.46056],[0.30196,52.4604],[0.30221,52.46031],[0.30191,52.46001]]]]}},
{ "type":"Feature","properties":{"osm_way_id":"143735534","name":"Co-op Food","building":"retail","shop":"supermarket","other":{"addr:city":"Cambridge","addr:full":"Adkins Corner, Perne Road","addr:housenumber":"6","addr:postcode":"CB1 3RU","addr:street":"Adkins Corner","brand":"Co-op Food","brand:wikidata":"Q3277439","brand:wikipedia":"en:Co-op Food","old_name":"Budgens","old_shop":"supermarket","opening_hours":"Mo-Sa 07:00-22:00; Su 10:00-16:00"}}, "geometry":{"type":"MultiPolygon","coordinates":[[[[0.15294,52.18715],[0.1534,52.18707],[0.15341,52.18708],[0.15343,52.18715],[0.15309,52.1872],[0.15294,52.18715]]]]}},
{ "type":"Feature","properties":{"osm_way_id":"145779804","name":"The Co-op Willingham","building":"yes","shop":"supermarket","other":{"addr:city":"Cambridge","addr:housenumber":"4","addr:place":"Willingham","addr:postcode":"CB24 5ES","addr:street":"High Street","fhrs:id":"596414","opening_hours":"Mo-Su 07:00-22:00","operator":"Co-op Food","payment:cash":"yes","payment:credit_cards":"yes","payment:debit_cards":"yes"}}, "geometry":{"type":"MultiPolygon","coordinates":[[[[0.05742,52.31414],[0.05775,52.31409],[0.05783,52.31425],[0.05755,52.31427],[0.05733,52.31429],[0.05721,52.3143],[0.05719,52.31424],[0.05744,52.3142],[0.05742,52.31414]]]]}},
{ "type":"Feature","properties":{"osm_way_id":"148844698","name":"Co-op Food","building":"yes","shop":"supermarket","other":{"addr:postcode":"SG8 6DU","brand":"Co-op Food","brand:wikidata":"Q3277439","brand:wikipedia":"en:Co-op Food","opening_hours":"Mo-Su,PH 07:00-22:00"}}, "geometry":{"type":"MultiPolygon","coordinates":[[[[0.01619,52.08365],[0.01632,52.08355],[0.0161,52.08344],[0.01598,52.08354],[0.01619,52.08365]]]]}},
{ "type":"Feature","properties":{"osm_way_id":"151534087","name":"Tesco","building":"yes","shop":"supermarket","other":{"brand":"Tesco","brand:wikidata":"Q487494","brand:wikipedia":"en:Tesco","opening_hours":"Mo 06:00-00:00; Tu-Sa 00:00-00:00; Su 10:00-16:00","operator":"Tesco Stores Ltd"}}, "geometry":{"type":"MultiPolygon","coordinates":[[[[0.06905,52.56217],[0.07016,52.56218],[0.07018,52.56158],[0.07048,52.56159],[0.07049,52.56148],[0.06908,52.56146],[0.06905,52.56217]]]]}},
{ "type":"Feature","properties":{"osm_way_id":"151868436","name":"Sainsbury's","building":"retail","shop":"supermarket","other":{"addr:city":"Ely","addr:postcode":"CB7 4AS","addr:street":"Lisle Lane","branch":"Ely Superstore","brand":"Sainsbury's","brand:wikidata":"Q152096","brand:wikipedia":"en:Sainsbury's","fhrs:id":"408467","layer":"1","opening_hours":"Mo-Sa 08:00-22:00 Su 10:00-16:00","website":"https:\/\/stores.sainsburys.co.uk\/2271\/ely","wheelchair":"yes"}}, "geometry":{"type":"MultiPolygon","coordinates":[[[[0.27139,52.39886],[0.27148,52.39892],[0.27155,52.39888],[0.27158,52.3989],[0.27153,52.39892],[0.27216,52.39934],[0.27299,52.39887],[0.27329,52.39906],[0.2734,52.399],[0.27309,52.39879],[0.27331,52.39867],[0.27318,52.39858],[0.27266,52.39824],[0.27243,52.39837],[0.27235,52.39831],[0.27139,52.39886]]]]}},
{ "type":"Feature","properties":{"osm_way_id":"158900357","name":"The Co-operative Food","building":"supermarket","shop":"supermarket","other":{"addr:housenumber":"120","addr:postcode":"CB3 0LW","addr:street":"Girton Road","operator":"The Co-operative Group","wheelchair":"limited"}}, "geometry":{"type":"MultiPolygon","coordinates":[[[[0.08619,52.23324],[0.08609,52.2331],[0.0862,52.23308],[0.08623,52.23312],[0.08629,52.2331],[0.08632,52.23313],[0.0865,52.23307],[0.08653,52.23311],[0.08619,52.23324]]]]}},
{ "type":"Feature","properties":{"osm_way_id":"162072815","name":"Co-op Food","building":"retail","shop":"supermarket","other":{"addr:city":"Godmanchester","addr:housenumber":"32","addr:postcode":"PE29 2BT","addr:street":"Cambridge Road","brand":"Co-op Food","brand:wikidata":"Q3277439","brand:wikipedia":"en:Co-op Food","fhrs:id":"748539","opening_hours":"Mo-Su 07:00-22:00","operator":"The Co-operative Group","operator:wikidata":"Q117202","operator:wikipedia":"en:The Co-operative Group","phone":"01480 433139","website":"https:\/\/www.centralengland.coop\/"}}, "geometry":{"type":"MultiPolygon","coordinates":[[[[-0.16808,52.31871],[-0.16793,52.31861],[-0.16795,52.3186],[-0.16778,52.31851],[-0.16767,52.31859],[-0.16779,52.31866],[-0.16774,52.31869],[-0.16794,52.3188],[-0.16808,52.31871]]]]}},
{ "type":"Feature","properties":{"osm_way_id":"166482606","name":"Morrisons","building":"yes","shop":"supermarket","other":{"brand":"Morrisons","brand:wikidata":"Q922344","brand:wikipedia":"en:Morrisons"}}, "geometry":{"type":"MultiPolygon","coordinates":[[[[-5.02163,54.90442],[-5.02158,54.90415],[-5.02174,54.90414],[-5.02169,54.9039],[-5.02159,54.90391],[-5.02159,54.90387],[-5.02109,54.9039],[-5.02109,54.90394],[-5.02069,54.90396],[-5.02076,54.90432],[-5.02078,54.90447],[-5.02102,54.90445],[-5.02105,54.90457],[-5.02121,54.90456],[-5.02121,54.90459],[-5.02133,54.90458],[-5.02132,54.90456],[-5.02144,54.90455],[-5.02143,54.9045],[-5.02147,54.9045],[-5.02146,54.90443],[-5.02163,54.90442]]]]}},
{ "type":"Feature","properties":{"osm_way_id":"184443408","name":"Waitrose","building":"yes","shop":"supermarket","other":{"addr:housenumber":"50","addr:postcode":"CB2 9FT","addr:street":"Hauxton Road","alt_name":"Waitrose Cambridge","brand":"Waitrose & Partners","brand:wikidata":"Q771734","brand:wikipedia":"en:Waitrose & Partners","operator":"Waitrose & Partners"}}, "geometry":{"type":"MultiPolygon","coordinates":[[[[0.11068,52.172],[0.1114,52.17184],[0.11169,52.17178],[0.11168,52.17176],[0.11153,52.17151],[0.11144,52.17146],[0.11141,52.17147],[0.11132,52.17131],[0.11102,52.17138],[0.1109,52.17117],[0.11086,52.17118],[0.11084,52.17113],[0.1103,52.17125],[0.11033,52.1713],[0.11029,52.1713],[0.11068,52.172]]]]}},
{ "type":"Feature","properties":{"osm_way_id":"189956249","name":"Waitrose","building":"yes","shop":"supermarket","other":{"addr:postcode":"PE19 2BH","addr:street":"Priory Lane","brand":"Waitrose","brand:wikidata":"Q771734","brand:wikipedia":"en:Waitrose","fhrs:id":"341541","official_name":"Waitrose & Partners","operator":"Waitrose & Partners","source:addr":"FHRS Open Data","toilets:wheelchair":"no","wheelchair":"yes"}}, "geometry":{"type":"MultiPolygon","coordinates":[[[[-0.27039,52.22881],[-0.27041,52.22862],[-0.27042,52.22839],[-0.26988,52.22837],[-0.26988,52.22849],[-0.26967,52.22848],[-0.26967,52.22858],[-0.26966,52.22865],[-0.26976,52.22866],[-0.26975,52.22874],[-0.27009,52.22875],[-0.27008,52.22882],[-0.27033,52.22883],[-0.27033,52.22881],[-0.27039,52.22881]]]]}},
{ "type":"Feature","properties":{"osm_way_id":"189956391","name":"Lidl","building":"yes","shop":"supermarket","other":{"addr:country":"GB","addr:housenumber":"45","addr:postcode":"PE19 1JL","addr:street":"Cambridge Street","brand":"Lidl","brand:wikidata":"Q151954","brand:wikipedia":"en:Lidl","fhrs:id":"740039","toilets:wheelchair":"no","wheelchair":"yes"}}, "geometry":{"type":"MultiPolygon","coordinates":[[[[-0.26384,52.22822],[-0.2634,52.22814],[-0.26335,52.22826],[-0.26322,52.22824],[-0.26309,52.22853],[-0.26332,52.22857],[-0.26334,52.22852],[-0.26362,52.22857],[-0.26371,52.22836],[-0.26377,52.22837],[-0.26384,52.22822]]]]}},
{ "type":"Feature","properties":{"osm_way_id":"189956549","name":"M&S Foodhall","building":"yes","shop":"supermarket","other":{"addr:housenumber":"47-51","addr:postcode":"PE19 1BN","addr:street":"High Street","brand":"M&S Foodhall","brand:wikidata":"Q714491","brand:wikipedia":"en:Marks & Spencer","toilets:wheelchair":"no","wheelchair":"yes"}}, "geometry":{"type":"MultiPolygon","coordinates":[[[[-0.2668,52.22876],[-0.26678,52.22867],[-0.26674,52.22848],[-0.26639,52.22854],[-0.26646,52.22883],[-0.26664,52.22881],[-0.26663,52.22878],[-0.2668,52.22876]]]]}},
{ "type":"Feature","properties":{"osm_way_id":"189956998","name":"Spar","building":"yes","shop":"supermarket","other":{"addr:postcode":"PE19 1QB","addr:street":"Cambridge Street","brand":"Spar","brand:wikidata":"Q610492","brand:wikipedia":"en:SPAR (retailer)","wheelchair":"yes"}}, "geometry":{"type":"MultiPolygon","coordinates":[[[[-0.25298,52.22851],[-0.25301,52.22841],[-0.25283,52.22839],[-0.25284,52.22836],[-0.25267,52.22835],[-0.25267,52.22836],[-0.25259,52.22835],[-0.25256,52.22846],[-0.25298,52.22851]]]]}},
{ "type":"Feature","properties":{"osm_way_id":"190610242","name":"Sainsbury's","building":"retail","shop":"supermarket","other":{"brand":"Sainsbury's","brand:wikidata":"Q152096","brand:wikipedia":"en:Sainsbury's","building:levels":"1","opening_hours":"Mo-Sa 07:00-21:00; Su 10:00-16:00","wheelchair":"yes"}}, "geometry":{"type":"MultiPolygon","coordinates":[[[[0.08964,52.55023],[0.08989,52.55015],[0.0906,52.55003],[0.09044,52.54992],[0.09055,52.54989],[0.09067,52.54995],[0.09091,52.55031],[0.09063,52.55038],[0.09067,52.55044],[0.09056,52.55046],[0.09052,52.5504],[0.09048,52.55042],[0.0904,52.55043],[0.09042,52.55046],[0.08989,52.55059],[0.08981,52.55046],[0.08985,52.55045],[0.08964,52.55023]]]]}},
{ "type":"Feature","properties":{"osm_way_id":"199514908","name":"Nisa Local","building":"retail","shop":"supermarket","other":{"addr:city":"Cambridge","addr:country":"GB","addr:housenumber":"1","addr:postcode":"CB1 9GP","addr:street":"Capuchin Court","fhrs:id":"596688"}}, "geometry":{"type":"MultiPolygon","coordinates":[[[[0.18198,52.19337],[0.18184,52.19327],[0.18203,52.19316],[0.18218,52.19326],[0.18211,52.1933],[0.18213,52.19331],[0.18207,52.19334],[0.18205,52.19332],[0.18198,52.19337]]]]}},
{ "type":"Feature","properties":{"osm_way_id":"220813261","name":"The Co-operative Food","building":"yes","shop":"supermarket","other":{"addr:city":"Ely","addr:housenumber":"43","addr:postcode":"CB7 5HA","addr:street":"High Street","addr:town":"Soham","brand":"Co-op Food","brand:wikidata":"Q3277439","brand:wikipedia":"en:Co-op Food","fhrs:id":"336691","operator":"The Co-operative Group","source:addr":"FHRS Open Data"}}, "geometry":{"type":"MultiPolygon","coordinates":[[[[0.33723,52.33318],[0.33731,52.33305],[0.33723,52.33303],[0.33728,52.33297],[0.33768,52.33306],[0.33769,52.33304],[0.33776,52.33306],[0.33765,52.33324],[0.33753,52.33322],[0.33751,52.33324],[0.33744,52.33322],[0.33744,52.33323],[0.33723,52.33318]]]]}},
{ "type":"Feature","properties":{"osm_way_id":"223913082","name":"ALDI","building":"yes","shop":"supermarket","other":{"addr:city":"Ely","addr:housenumber":"41","addr:postcode":"CB7 4AS","addr:street":"Lisle Lane","branch":"Ely","brand":"ALDI","brand:wikidata":"Q41171672","brand:wikipedia":"en:Aldi","fhrs:id":"531067","opening_hours":"Mo-Sa 08:00-22:00; Su 10:00-16:00","website":"https:\/\/www.aldi.co.uk\/store\/s-uk-E0667"}}, "geometry":{"type":"MultiPolygon","coordinates":[[[[0.27021,52.39898],[0.2699,52.39879],[0.26918,52.3991],[0.26949,52.39933],[0.26991,52.39916],[0.26988,52.39913],[0.27021,52.39898]]]]}},
{ "type":"Feature","properties":{"osm_way_id":"224896008","name":"The Co-operative Food","building":"yes","shop":"supermarket","other":{"addr:city":"Burwell","addr:housenumber":"5","addr:postcode":"CB25 0BA","addr:street":"North Street","atm":"yes","fhrs:id":"336468","opening_hours":"Mo-Su 07:00-22:00","operator":"The Co-operative Group","source:addr":"FHRS Open Data"}}, "geometry":{"type":"MultiPolygon","coordinates":[[[[0.32376,52.28037],[0.32431,52.28026],[0.32437,52.28036],[0.32381,52.28047],[0.32376,52.28037]]]]}},
{ "type":"Feature","properties":{"osm_way_id":"229680560","name":"Marks & Spencer","building":"retail","shop":"supermarket","other":{"addr:city":"Cambridge","addr:country":"GB","addr:housenumber":"5","addr:postcode":"CB2 3NJ","addr:street":"Market Hill","brand":"Marks & Spencer","brand:wikidata":"Q714491","fhrs:id":"1473325","level":"0","website":"https:\/\/www.marksandspencer.com\/stores\/cambridge-st-3450","wheelchair":"yes","wikidata":"Q17527473"}}, "geometry":{"type":"MultiPolygon","coordinates":[[[[0.11974,52.2054],[0.12025,52.20548],[0.12016,52.2057],[0.12015,52.20571],[0.12014,52.20572],[0.11997,52.20569],[0.11995,52.20575],[0.11984,52.20572],[0.11981,52.20579],[0.11971,52.20576],[0.11974,52.20571],[0.1194,52.20565],[0.11949,52.20536],[0.11974,52.2054]]]]}},
{ "type":"Feature","properties":{"osm_way_id":"232638446","name":"Heron Foods","building":"retail","shop":"supermarket","other":{"addr:postcode":"PE15 8TP","brand":"Heron Foods","brand:wikidata":"Q5743472","brand:wikipedia":"en:Heron Foods"}}, "geometry":{"type":"MultiPolygon","coordinates":[[[[0.08878,52.55054],[0.08877,52.55048],[0.08876,52.55046],[0.08863,52.55047],[0.08822,52.5505],[0.08823,52.55059],[0.08878,52.55054]]]]}},
{ "type":"Feature","properties":{"osm_way_id":"236058467","name":"The Food Warehouse","building":"yes","shop":"supermarket","other":{"addr:city":"Peterborough","addr:postcode":"PE1 2AF","addr:street":"Bourges Boulevard","brand":"The Food Warehouse","brand:wikidata":"Q87263899","website":"https:\/\/www.thefoodwarehouse.com\/store-locator\/peterborough"}}, "geometry":{"type":"MultiPolygon","coordinates":[[[[-0.25354,52.58284],[-0.25315,52.5829],[-0.25291,52.5823],[-0.25332,52.58224],[-0.25334,52.58228],[-0.25354,52.58284]]]]}},
{ "type":"Feature","properties":{"osm_way_id":"237312170","name":"The Co-operative Food","building":"yes","shop":"supermarket","other":{"addr:city":"Cambridge","addr:housenumber":"106","addr:postcode":"CB21 4JT","addr:street":"High Street","addr:village":"Linton","alt_name":"The Co-operative Food","fhrs:id":"596814","opening_hours":"Mo-Su 07:00-22:00"}}, "geometry":{"type":"MultiPolygon","coordinates":[[[[0.28261,52.09739],[0.28262,52.09759],[0.28278,52.09758],[0.28278,52.0975],[0.28277,52.09739],[0.28261,52.09739]]]]}},
{ "type":"Feature","properties":{"osm_way_id":"256335664","name":"Tesco","building":"yes","shop":"supermarket","other":{"addr:city":"Ely","addr:postcode":"CB7 4DJ","addr:street":"Angel Drove","branch":"Ely Superstore","brand":"Tesco","brand:wikidata":"Q487494","brand:wikipedia":"en:Tesco","fhrs:id":"336489","opening_hours":"Mo-Sa 06:00-24:00; Su 10:00-16:00","operator":"Tesco Stores Ltd","optician":"yes","pharmacy":"yes","phone":"+44 345 677 9256","website":"https:\/\/www.tesco.com\/store-locator\/ely\/angel-drove","wheelchair":"yes"}}, "geometry":{"type":"MultiPolygon","coordinates":[[[[0.26507,52.39055],[0.26529,52.39077],[0.26525,52.39078],[0.26572,52.39125],[0.26573,52.39124],[0.2659,52.39141],[0.26524,52.39165],[0.26525,52.39167],[0.26514,52.39171],[0.26511,52.39168],[0.26485,52.39178],[0.26433,52.39127],[0.26446,52.39122],[0.2643,52.39106],[0.26437,52.39104],[0.26421,52.39089],[0.26458,52.39075],[0.26473,52.3909],[0.26476,52.39088],[0.26451,52.39062],[0.26463,52.39058],[0.26461,52.39055],[0.26475,52.3905],[0.26478,52.39054],[0.26486,52.39054],[0.26488,52.39037],[0.26502,52.39037],[0.26502,52.39033],[0.26514,52.39033],[0.26513,52.39055],[0.26507,52.39055]]]]}},
{ "type":"Feature","properties":{"osm_way_id":"285778826","name":"The Co-operative Food","amenity":"post_office","building":"yes","shop":"supermarket","other":{"addr:city":"Peterborough","addr:housenumber":"5","addr:postcode":"PE2 5TD","addr:street":"Ortongate Centre","fhrs:id":"247107","operator":"East Of England Co-op","payment:american_express":"yes","payment:cash":"yes","payment:contactless":"yes","payment:mastercard":"yes","payment:visa":"yes","payment:visa_debit":"yes"}}, "geometry":{"type":"MultiPolygon","coordinates":[[[[-0.30256,52.54341],[-0.30251,52.54331],[-0.30246,52.54321],[-0.30242,52.54315],[-0.3024,52.54311],[-0.3024,52.54309],[-0.30275,52.54303],[-0.30279,52.54303],[-0.30283,52.54303],[-0.30285,52.54304],[-0.30301,52.54332],[-0.30256,52.54341]]]]}},
{ "type":"Feature","properties":{"osm_way_id":"296051058","name":"Lidl","building":"yes","shop":"supermarket","other":{"addr:city":"Peterborough","addr:postcode":"PE3 9TA","addr:street":"Lime Kiln Close","brand":"Lidl","brand:wikidata":"Q151954","brand:wikipedia":"en:Lidl","contact:website":"www.lidl.co.uk.\/contact","fhrs:id":"247320","opening_hours":"08:00-21:00","wheelchair":"yes"}}, "geometry":{"type":"MultiPolygon","coordinates":[[[[-0.2576,52.58205],[-0.25681,52.58203],[-0.25683,52.58167],[-0.25693,52.58167],[-0.25693,52.58171],[-0.2571,52.58172],[-0.25762,52.58173],[-0.2576,52.58205]]]]}},
{ "type":"Feature","properties":{"osm_way_id":"296525847","name":"Co-op Food","building":"retail","shop":"supermarket","other":{"brand":"Co-op Food","brand:wikidata":"Q3277439","brand:wikipedia":"en:Co-op Food","operator":"Central England Co-operative Society"}}, "geometry":{"type":"MultiPolygon","coordinates":[[[[-0.28578,52.44319],[-0.2858,52.44321],[-0.28557,52.4433],[-0.28545,52.44318],[-0.28535,52.44322],[-0.28525,52.44313],[-0.28558,52.443],[-0.28561,52.44302],[-0.28578,52.44319]]]]}},
{ "type":"Feature","properties":{"osm_way_id":"305049541","name":"Tesco","shop":"supermarket","other":{"addr:housenumber":"1","addr:postcode":"PE1 1TA","addr:street":"Hereward Cross","alt_name":"Tesco Peterborough Metro","brand":"Tesco","brand:wikidata":"Q487494","brand:wikipedia":"en:Tesco","building:part":"yes","fhrs:id":"246490;1057248","operator":"Tesco Stores Ltd"}}, "geometry":{"type":"MultiPolygon","coordinates":[[[[-0.24144,52.57477],[-0.24093,52.57468],[-0.24067,52.57473],[-0.24077,52.57499],[-0.24084,52.575],[-0.24082,52.57505],[-0.24118,52.57509],[-0.24143,52.57514],[-0.24146,52.57504],[-0.24156,52.57478],[-0.24144,52.57477]]]]}},
{ "type":"Feature","properties":{"osm_way_id":"305050096","name":"Aldi","building":"yes","shop":"supermarket","other":{"addr:city":"Peterborough","addr:postcode":"PE2 8SQ","addr:street":"Whittlesey Road","alt_name":"ALDI Peterborough","brand":"ALDI","brand:wikidata":"Q41171672","brand:wikipedia":"en:Aldi","fhrs:id":"433874"}}, "geometry":{"type":"MultiPolygon","coordinates":[[[[-0.2288,52.556],[-0.22862,52.55573],[-0.22826,52.55582],[-0.22859,52.55631],[-0.22894,52.55623],[-0.22886,52.5561],[-0.22898,52.55607],[-0.22891,52.55598],[-0.2288,52.556]]]]}},
{ "type":"Feature","properties":{"osm_way_id":"323493821","name":"Waitrose","building":"retail","shop":"supermarket","other":{"addr:city":"Peterborough","addr:country":"GB","addr:postcode":"PE1 2BF","addr:street":"Mayors Walk","brand":"Waitrose","brand:wikidata":"Q771734","brand:wikipedia":"en:Waitrose","official_name":"Waitrose & Partners","payment:american_express":"yes","payment:cash":"yes","payment:contactless":"yes","payment:mastercard":"yes","payment:visa":"yes","payment:visa_debit":"yes","phone":"+44 1733 554945","website":"https:\/\/www.waitrose.com\/peterborough"}}, "geometry":{"type":"MultiPolygon","coordinates":[[[[-0.24947,52.57531],[-0.25012,52.57515],[-0.25053,52.57576],[-0.25027,52.57582],[-0.25021,52.57572],[-0.25012,52.57574],[-0.2498,52.57582],[-0.24949,52.57535],[-0.24947,52.57531]]]]}},
{ "type":"Feature","properties":{"osm_way_id":"326053787","name":"Tesco Metro","shop":"supermarket","other":{"addr:city":"London","addr:housenumber":"158-164","addr:postcode":"EC2M 4LX","addr:street":"Bishopsgate","brand":"Tesco Metro","brand:wikidata":"Q57551648","fhrs:id":"293655","name:fa":" ","opening_hours":"Mo-Sa 00:00-24:00, Su 12:00-18:00","wheelchair":"yes"}}, "geometry":{"type":"MultiPolygon","coordinates":[[[[-0.07965,51.51698],[-0.07971,51.51701],[-0.0798,51.51705],[-0.08,51.51712],[-0.08005,51.51714],[-0.08014,51.51717],[-0.08023,51.5172],[-0.08024,51.51719],[-0.08042,51.51725],[-0.08052,51.51715],[-0.08057,51.5171],[-0.08042,51.51705],[-0.07982,51.51684],[-0.07978,51.51689],[-0.07973,51.51687],[-0.07965,51.51698]]]]}},
{ "type":"Feature","properties":{"osm_way_id":"362088524","name":"The Co-operative Food","building":"yes","shop":"supermarket","other":{"addr:city":"Peterborough","addr:housenumber":"5","addr:postcode":"PE4 5BW","addr:street":"Loxley","addr:suburb":"Werrington","fhrs:id":"247148","operator":"The Co-operative Group"}}, "geometry":{"type":"MultiPolygon","coordinates":[[[[-0.28596,52.61915],[-0.28591,52.61939],[-0.2855,52.61935],[-0.28553,52.61923],[-0.2857,52.61924],[-0.28573,52.61913],[-0.28596,52.61915]]]]}},
{ "type":"Feature","properties":{"osm_way_id":"362088791","building":"yes","shop":"supermarket","other":{"addr:city":"Peterborough","addr:postcode":"PE1 2LY","addr:street":"Lincoln Road"}}, "geometry":{"type":"MultiPolygon","coordinates":[[[[-0.24717,52.58686],[-0.24722,52.58708],[-0.24715,52.58709],[-0.24716,52.58714],[-0.24673,52.58718],[-0.24667,52.5869],[-0.24672,52.58689],[-0.24717,52.58686]]]]}},
{ "type":"Feature","properties":{"osm_way_id":"362090307","name":"Co-op Food","building":"yes","shop":"supermarket","other":{"addr:city":"Peterborough","addr:housenumber":"97-101","addr:postcode":"PE3 6EY","addr:street":"Mayors Walk","brand":"Co-op Food","brand:wikidata":"Q3277439","brand:wikipedia":"en:Co-op Food","fhrs:id":"502362","operator":"The Co-operative Group"}}, "geometry":{"type":"MultiPolygon","coordinates":[[[[-0.25942,52.57808],[-0.2594,52.57843],[-0.2592,52.57842],[-0.25914,52.57842],[-0.25915,52.57827],[-0.25917,52.57813],[-0.25942,52.57808]]]]}},
{ "type":"Feature","properties":{"osm_way_id":"362553681","name":"The Co-operative Food","building":"yes","shop":"supermarket","other":{"addr:city":"March","addr:housenumber":"53","addr:postcode":"PE15 9AT","addr:street":"Badgeney Road","operator":"Central England Co-operative Society"}}, "geometry":{"type":"MultiPolygon","coordinates":[[[[0.09771,52.54916],[0.09773,52.54921],[0.09768,52.54921],[0.0977,52.54929],[0.09771,52.54929],[0.09773,52.5494],[0.09801,52.54938],[0.09795,52.5491],[0.09784,52.54911],[0.09785,52.54915],[0.09771,52.54916]]]]}},
{ "type":"Feature","properties":{"osm_way_id":"362554720","name":"The Co-operative Food","building":"retail","shop":"supermarket","other":{"addr:city":"Ely","addr:housenumber":"30","addr:postcode":"CB6 1PJ","addr:street":"Main Street","addr:village":"Littleport","brand":"Co-op Food","brand:wikidata":"Q3277439","brand:wikipedia":"en:Co-op Food","fhrs:id":"336649","opening_hours":"Mo-Su 07:00-22:00","operator":"The Co-operative Group","source:addr":"FSA Food Hygiene Ratings Database","wheelchair":"yes"}}, "geometry":{"type":"MultiPolygon","coordinates":[[[[0.30551,52.45682],[0.30532,52.45687],[0.30542,52.457],[0.30561,52.45695],[0.30551,52.45682]]]]}},
{ "type":"Feature","properties":{"osm_way_id":"362555529","name":"The Co-operative Food","building":"yes","shop":"supermarket","other":{"brand":"Co-op Food","brand:wikidata":"Q3277439","brand:wikipedia":"en:Co-op Food","operator":"The Co-operative Group"}}, "geometry":{"type":"MultiPolygon","coordinates":[[[[0.40948,52.34202],[0.40934,52.34223],[0.40917,52.34219],[0.4092,52.34213],[0.40927,52.34215],[0.40937,52.34199],[0.40948,52.34202]]]]}},
{ "type":"Feature","properties":{"osm_way_id":"374676651","name":"The Co-operative Food","building":"yes","shop":"supermarket","other":{"addr:city":"Gamlingay","addr:postcode":"SG19 3JH","addr:street":"Church Street","opening_hours":"Mo-Su 07:00-22:00","operator":"The Co-operative Group"}}, "geometry":{"type":"MultiPolygon","coordinates":[[[[-0.19119,52.15543],[-0.1912,52.15533],[-0.19107,52.15532],[-0.19106,52.15542],[-0.19119,52.15543]]]]}},
{ "type":"Feature","properties":{"osm_way_id":"388994658","name":"Lidl","building":"supermarket","shop":"supermarket","other":{"addr:city":"Huntingdon","addr:country":"GB","addr:county":"Cambridgeshire","addr:housenumber":"11","addr:postcode":"PE29 6HG","addr:street":"Stukeley Road","alt_name":"LIDL Huntingdon","brand":"Lidl","brand:wikidata":"Q151954","brand:wikipedia":"en:Lidl","fhrs:id":"840484","opening_hours":"Mo-Sa 08:00-20:00; Su 10:00-16:00","operator":"Lidl UK GmbH"}}, "geometry":{"type":"MultiPolygon","coordinates":[[[[-0.19115,52.33668],[-0.19091,52.33646],[-0.19183,52.33609],[-0.19198,52.33623],[-0.19207,52.33619],[-0.19216,52.33627],[-0.19115,52.33668]]]]}},
{ "type":"Feature","properties":{"osm_way_id":"392696881","name":"Lidl","building":"retail","shop":"supermarket","other":{"addr:city":"Wisbech","addr:country":"GB","addr:postcode":"PE14 0RG","addr:street":"Cromwell Road","alt_name":"LIDL Wisbech","brand":"Lidl","brand:wikidata":"Q151954","brand:wikipedia":"en:Lidl","fhrs:id":"774935"}}, "geometry":{"type":"MultiPolygon","coordinates":[[[[0.14684,52.65432],[0.14661,52.65408],[0.14592,52.65432],[0.14613,52.65453],[0.14657,52.65437],[0.1466,52.6544],[0.14684,52.65432]]]]}},
{ "type":"Feature","properties":{"osm_way_id":"399141351","name":"Food Plus (Pasikonik)","building":"retail","shop":"supermarket","other":{"building:levels":"2","website":"https:\/\/www.foodplus.eu"}}, "geometry":{"type":"MultiPolygon","coordinates":[[[[0.15934,52.66493],[0.15944,52.665],[0.15934,52.66506],[0.15918,52.66514],[0.15915,52.66512],[0.15913,52.66511],[0.1591,52.66506],[0.15911,52.66506],[0.15934,52.66493]]]]}},
{ "type":"Feature","properties":{"osm_way_id":"403978192","name":"Heron Foods","building":"retail","shop":"supermarket","other":{"addr:city":"Wisbech","addr:housename":"Units","addr:housenumber":"9-10","addr:street":"Horsefair","brand":"Heron Foods","brand:wikidata":"Q5743472","brand:wikipedia":"en:Heron Foods","building:levels":"2","fhrs:id":"1096173","source:addr":"FHRS Open Data"}}, "geometry":{"type":"MultiPolygon","coordinates":[[[[0.16195,52.66516],[0.1614,52.66527],[0.1614,52.66539],[0.16157,52.66539],[0.16156,52.66536],[0.16202,52.66527],[0.16195,52.66516]]]]}},
{ "type":"Feature","properties":{"osm_way_id":"412714255","name":"Tesco","building":"yes","shop":"supermarket","other":{"addr:city":"Ramsey","addr:postcode":"PE26 2SB","addr:street":"Neil Way","alt_name":"Tesco Ramsey Superstore","brand":"Tesco","brand:wikidata":"Q487494","brand:wikipedia":"en:Tesco","operator":"Tesco Stores Ltd"}}, "geometry":{"type":"MultiPolygon","coordinates":[[[[-0.11208,52.45595],[-0.11269,52.45563],[-0.11276,52.4556],[-0.11285,52.45566],[-0.11332,52.456],[-0.1133,52.45601],[-0.11247,52.45644],[-0.11207,52.45615],[-0.11224,52.45606],[-0.11208,52.45595]]]]}},
{ "type":"Feature","properties":{"osm_way_id":"418294965","name":"Tesco Extra","building":"yes","shop":"supermarket","other":{"addr:city":"Huntingdon","addr:postcode":"PE28 2LA","addr:street":"Abbots Ripton Road","alt_name":"Tesco Huntingdon Extra","brand":"Tesco Extra","brand:wikidata":"Q25172225","brand:wikipedia":"en:Tesco Extra","opening_hours":"Mo-Sa 00:00-24:00; Su 10:00-16:00","operator":"Tesco Stores Ltd"}}, "geometry":{"type":"MultiPolygon","coordinates":[[[[-0.18106,52.35321],[-0.17935,52.35309],[-0.17936,52.35302],[-0.17898,52.353],[-0.17901,52.35286],[-0.17936,52.35289],[-0.17944,52.35242],[-0.17957,52.35243],[-0.17957,52.35246],[-0.1802,52.35251],[-0.18021,52.35246],[-0.18085,52.3525],[-0.18082,52.3527],[-0.1807,52.35269],[-0.18065,52.35295],[-0.18072,52.35295],[-0.1807,52.35305],[-0.18108,52.35307],[-0.18106,52.35321]]]]}},
{ "type":"Feature","properties":{"osm_way_id":"425609001","name":"Tesco Extra","building":"shop","shop":"supermarket","other":{"addr:city":"Wisbech","addr:postcode":"PE14 0RG","addr:street":"Cromwell Road","alt_name":"Tesco Extra Wisbech","brand":"Tesco Extra","brand:wikidata":"Q25172225","brand:wikipedia":"en:Tesco Extra","operator":"Tesco Stores Ltd"}}, "geometry":{"type":"MultiPolygon","coordinates":[[[[0.14116,52.65119],[0.14112,52.65121],[0.14187,52.65187],[0.14212,52.6521],[0.14271,52.65186],[0.14286,52.65179],[0.14278,52.65172],[0.14261,52.65157],[0.14304,52.65139],[0.14295,52.65131],[0.14309,52.65125],[0.14234,52.65059],[0.14221,52.65065],[0.14204,52.65049],[0.14128,52.65081],[0.14121,52.65075],[0.14112,52.65079],[0.14118,52.65085],[0.141,52.65092],[0.14106,52.65097],[0.14103,52.65098],[0.14107,52.65112],[0.14116,52.65119]]]]}},
{ "type":"Feature","properties":{"osm_way_id":"438205113","name":"ALDI","building":"yes","shop":"supermarket","other":{"addr:city":"Peterborough","addr:postcode":"PE7 8NZ","addr:street":"Brickburn Close","brand":"ALDI","brand:wikidata":"Q41171672","brand:wikipedia":"en:Aldi","fhrs:id":"933411"}}, "geometry":{"type":"MultiPolygon","coordinates":[[[[-0.2582,52.53725],[-0.25846,52.53702],[-0.25774,52.53671],[-0.25747,52.53694],[-0.2582,52.53725]]]]}},
{ "type":"Feature","properties":{"osm_way_id":"442350072","name":"Lidl","building":"retail","shop":"supermarket","other":{"addr:country":"GB","addr:housenumber":"29","addr:postcode":"PE19 8EN","addr:street":"Great North Road","brand":"Lidl","brand:wikidata":"Q151954","brand:wikipedia":"en:Lidl","fhrs:id":"974859","toilets:wheelchair":"yes","wheelchair":"yes"}}, "geometry":{"type":"MultiPolygon","coordinates":[[[[-0.29084,52.20896],[-0.29003,52.20885],[-0.29013,52.20854],[-0.29094,52.20865],[-0.29084,52.20896]]]]}},
{ "type":"Feature","properties":{"osm_way_id":"442350430","name":"Aldi","building":"retail","shop":"supermarket","other":{"addr:postcode":"PE19 8EX","brand":"ALDI","brand:wikidata":"Q41171672","brand:wikipedia":"en:Aldi"}}, "geometry":{"type":"MultiPolygon","coordinates":[[[[-0.28969,52.2113],[-0.28963,52.21103],[-0.28873,52.2111],[-0.28877,52.21129],[-0.28867,52.2113],[-0.28869,52.21138],[-0.28969,52.2113]]]]}},
{ "type":"Feature","properties":{"osm_way_id":"501347165","name":"Sainsbury's","building":"retail","shop":"supermarket","other":{"addr:city":"Cambridge","addr:postcode":"CB3 1SE","brand":"Sainsbury's","brand:wikidata":"Q152096","brand:wikipedia":"en:Sainsbury's","internet_access":"wlan","opening_hours":"Mo-Sa 07:30-22:00; Su 10:00-16:00","operator":"J Sainsbury plc","ref:university_of_cambridge":"NW001.1"}}, "geometry":{"type":"MultiPolygon","coordinates":[[[[0.08709,52.21796],[0.08707,52.21796],[0.0871,52.21754],[0.08765,52.21756],[0.08765,52.21749],[0.08776,52.21749],[0.08778,52.21729],[0.08789,52.2173],[0.08789,52.21733],[0.08787,52.21761],[0.08783,52.21817],[0.08776,52.21817],[0.08733,52.21815],[0.08726,52.21815],[0.08727,52.21813],[0.0872,52.21813],[0.0872,52.21808],[0.08708,52.21807],[0.08709,52.21796]]]]}},
{ "type":"Feature","properties":{"osm_way_id":"513973681","name":"Costcutter","building":"yes","shop":"supermarket","other":{"addr:postcode":"CB23 3PD","addr:street":"St Neots Road","fhrs:id":"943314","source:addr":"FSA Food Hygiene Ratings Database"}}, "geometry":{"type":"MultiPolygon","coordinates":[[[[-0.10558,52.22852],[-0.10555,52.22836],[-0.10529,52.22838],[-0.10532,52.22853],[-0.10558,52.22852]]]]}},
{ "type":"Feature","properties":{"osm_way_id":"514346317","name":"Coop Supermarket","building":"yes","shop":"supermarket","other":{"addr:city":"Peterborough","addr:postcode":"PE2 9FP"}}, "geometry":{"type":"MultiPolygon","coordinates":[[[[-0.24925,52.55084],[-0.24975,52.55084],[-0.24975,52.55095],[-0.24942,52.55095],[-0.24925,52.55095],[-0.24925,52.55084]]]]}},
{ "type":"Feature","properties":{"osm_way_id":"551952891","name":"Co-Op","building":"yes","shop":"supermarket","other":{"addr:city":"Peterborough","addr:housename":"Winchester Place","addr:housenumber":"80","addr:postcode":"PE3 6AP","addr:street":"Thorpe Road","fhrs:id":"1018975"}}, "geometry":{"type":"MultiPolygon","coordinates":[[[[-0.25864,52.57335],[-0.25833,52.57341],[-0.25828,52.57331],[-0.25834,52.5733],[-0.25831,52.57325],[-0.25824,52.57326],[-0.25816,52.57311],[-0.25848,52.57305],[-0.25856,52.57319],[-0.25849,52.5732],[-0.25851,52.57325],[-0.25859,52.57324],[-0.25864,52.57335]]]]}},
{ "type":"Feature","properties":{"osm_way_id":"582343965","name":"Budgens","building":"retail","shop":"supermarket","other":{"addr:city":"Cambridge","addr:postcode":"CB1 8DH","brand":"Budgens","brand:wikidata":"Q4985016","opening_hours":"24\/7"}}, "geometry":{"type":"MultiPolygon","coordinates":[[[[0.15994,52.18555],[0.16012,52.18552],[0.16004,52.18532],[0.15986,52.18534],[0.15994,52.18555]]]]}},
{ "type":"Feature","properties":{"osm_way_id":"587574012","name":"Lidl","building":"retail","shop":"supermarket","other":{"addr:country":"GB","addr:postcode":"PE15 5AN","addr:street":"Dartford Road","brand":"Lidl","brand:wikidata":"Q151954","brand:wikipedia":"en:Lidl","fhrs:id":"774480","noaddress":"yes","opening_hours":"Mo-Sa 08:00-22:00; Su 10:00-16:00"}}, "geometry":{"type":"MultiPolygon","coordinates":[[[[0.08517,52.55113],[0.08479,52.55115],[0.08479,52.55113],[0.08451,52.55113],[0.08454,52.55144],[0.08493,52.55143],[0.08494,52.55147],[0.0852,52.55147],[0.08517,52.5512],[0.08517,52.55113]]]]}},
{ "type":"Feature","properties":{"osm_way_id":"611666505","name":"Sainsbury's","building":"yes","landuse":"retail","shop":"supermarket","other":{"addr:city":"Huntingdon","addr:postcode":"PE29 3FG","addr:street":"St Germain Street","branch":"Huntingdon Superstore","brand":"Sainsbury's","brand:wikidata":"Q152096","brand:wikipedia":"en:Sainsbury's","opening_hours":"Mo-We 08:00-20:00; Th-Fr 08:00-21:00; Sa 07:30-20:00; Su 10:00-16:00","website":"https:\/\/stores.sainsburys.co.uk\/2007\/huntingdon"}}, "geometry":{"type":"MultiPolygon","coordinates":[[[[-0.18235,52.3317],[-0.18206,52.33154],[-0.18198,52.3315],[-0.18164,52.33131],[-0.18153,52.33125],[-0.18142,52.33132],[-0.18143,52.33132],[-0.18091,52.33167],[-0.18103,52.33174],[-0.18092,52.33182],[-0.18099,52.33185],[-0.18145,52.33211],[-0.18142,52.33213],[-0.18158,52.33222],[-0.18206,52.33189],[-0.18235,52.3317]]]]}},
{ "type":"Feature","properties":{"osm_way_id":"612339906","name":"Aldi","building":"retail","shop":"supermarket","other":{"addr:city":"Huntingdon","addr:country":"GB","addr:county":"Cambridgeshire","addr:housenumber":"4","addr:postcode":"PE29 3HG","addr:street":"Edison Bell Way","branch":"Huntingdon","brand":"ALDI","brand:wikidata":"Q41171672","brand:wikipedia":"en:Aldi","fhrs:id":"949417","opening_hours":"Mo-Sa 08:00-22:00; Su 10:00-16:00"}}, "geometry":{"type":"MultiPolygon","coordinates":[[[[-0.19072,52.33309],[-0.19042,52.33296],[-0.18994,52.33338],[-0.19022,52.3335],[-0.19019,52.33353],[-0.19029,52.33357],[-0.19053,52.33337],[-0.1906,52.33339],[-0.19071,52.3333],[-0.19064,52.33327],[-0.19078,52.33315],[-0.19069,52.33311],[-0.19072,52.33309]]]]}},
{ "type":"Feature","properties":{"osm_way_id":"624116556","name":"The Food Warehouse","building":"yes","shop":"supermarket","other":{"addr:city":"Peterborough","addr:housenumber":"2","addr:postcode":"PE2 5TD","addr:street":"Ortongate Centre","brand":"The Food Warehouse","brand:wikidata":"Q87263899","old_name":"Wilkinsons"}}, "geometry":{"type":"MultiPolygon","coordinates":[[[[-0.30315,52.54358],[-0.30272,52.54366],[-0.3028,52.54383],[-0.30282,52.54388],[-0.30285,52.54394],[-0.30329,52.54387],[-0.30315,52.54358]]]]}},
{ "type":"Feature","properties":{"osm_way_id":"626657650","name":"Jack's","building":"retail","shop":"supermarket","other":{"brand":"Jack's","brand:wikidata":"Q60741213","brand:wikipedia":"en:Jack's (store)"}}, "geometry":{"type":"MultiPolygon","coordinates":[[[[0.04124,52.45802],[0.0411,52.45742],[0.04083,52.45745],[0.0408,52.4573],[0.04065,52.45732],[0.04068,52.45746],[0.04058,52.45747],[0.04071,52.45807],[0.04124,52.45802]]]]}},
{ "type":"Feature","properties":{"osm_way_id":"651737763","name":"Ghousia Foods","building":"yes","shop":"supermarket","other":{"addr:city":"Peterborough","addr:housenumber":"281","addr:postcode":"PE1 2PL","addr:street":"Lincoln Road","fhrs:id":"421523"}}, "geometry":{"type":"MultiPolygon","coordinates":[[[[-0.24637,52.58646],[-0.24639,52.58652],[-0.24639,52.58661],[-0.24624,52.58662],[-0.24604,52.58657],[-0.24606,52.58653],[-0.24622,52.58657],[-0.24621,52.58653],[-0.2462,52.58648],[-0.24637,52.58646]]]]}},
{ "type":"Feature","properties":{"osm_way_id":"651760262","name":"Azadi","building":"yes","shop":"supermarket","other":{"addr:city":"Peterborough","addr:housenumber":"163","addr:postcode":"PE1 2PN","addr:street":"Lincoln Road","fhrs:id":"1400932"}}, "geometry":{"type":"MultiPolygon","coordinates":[[[[-0.24453,52.58304],[-0.24444,52.58302],[-0.24445,52.58301],[-0.24435,52.58298],[-0.24425,52.58313],[-0.24435,52.58316],[-0.24438,52.58311],[-0.24447,52.58314],[-0.24453,52.58304]]]]}},
{ "type":"Feature","properties":{"osm_way_id":"656715264","name":"M&S Simply Food","building":"no","shop":"supermarket","other":{"addr:city":"Peterborough","addr:housename":"Unit 20 The Serpentine Green Shopping Centre","addr:postcode":"PE7 8BE","addr:street":"The Serpentine","brand":"M&S Simply Food","brand:wikidata":"Q714491","brand:wikipedia":"en:Marks & Spencer","building:part":"commercial"}}, "geometry":{"type":"MultiPolygon","coordinates":[[[[-0.26247,52.54136],[-0.26236,52.54141],[-0.26224,52.54146],[-0.26217,52.54149],[-0.26214,52.54158],[-0.26227,52.54159],[-0.26231,52.54158],[-0.26266,52.54191],[-0.26277,52.54186],[-0.26272,52.54182],[-0.2629,52.54175],[-0.26247,52.54136]]]]}},
{ "type":"Feature","properties":{"osm_way_id":"656715267","name":"Tesco Extra","shop":"supermarket","other":{"addr:city":"Peterborough","addr:housename":"Unit 1","addr:postcode":"PE7 8BD","addr:street":"The Serpentine","branch_ref":"3009","brand":"Tesco Extra","brand:wikidata":"Q25172225","brand:wikipedia":"en:Tesco Extra","building:part":"commercial","contact:website":"https:\/\/www.tesco.com\/store-locator\/peterborough\/serpentine-green-shopping-centre","fhrs:id":"247292","indoor":"shop","opening_hours":"Mo 06:00-24:00; Tu-Sa 00:00-24:00; Su 10:00-16:00","operator":"Tesco Stores Ltd","payment:american_express":"yes","payment:cash":"yes","payment:contactless":"yes","payment:mastercard":"yes","payment:visa":"yes","payment:visa_debit":"yes"}}, "geometry":{"type":"MultiPolygon","coordinates":[[[[-0.26315,52.54002],[-0.26408,52.54011],[-0.26434,52.54014],[-0.26393,52.54143],[-0.26341,52.54137],[-0.26345,52.54126],[-0.26278,52.54118],[-0.26274,52.54115],[-0.26315,52.54002]]]]}},
{ "type":"Feature","properties":{"osm_way_id":"657053185","name":"The Co-operative Food","building":"yes","shop":"supermarket","other":{"addr:city":"Eye","addr:housenumber":"49","addr:postcode":"PE6 7UX","addr:street":"High Street","fhrs:id":"870134","operator":"Central England Co-operative"}}, "geometry":{"type":"MultiPolygon","coordinates":[[[[-0.18994,52.60894],[-0.18972,52.60898],[-0.1896,52.60876],[-0.18977,52.60873],[-0.1898,52.6088],[-0.18987,52.60879],[-0.18994,52.60894]]]]}},
{ "type":"Feature","properties":{"osm_way_id":"663558752","name":"Co-op Food","building":"yes","shop":"supermarket","other":{"addr:city":"Godmanchester","addr:housename":"Unit 1","addr:housenumber":"King James Retail Centre","addr:postcode":"PE29 2PA","addr:street":"Ermine Street","brand":"Co-op Food","brand:wikidata":"Q3277439","brand:wikipedia":"en:Co-op Food","fhrs:id":"1036869","opening_hours":"Mo-Su 10:00-22:00","operator":"The Co-operative Group","operator:wikidata":"Q117202","operator:wikipedia":"en:The Co-operative Group","owner":"Central England Co-operative","phone":"01480 450033","website":"https:\/\/www.centralengland.coop\/"}}, "geometry":{"type":"MultiPolygon","coordinates":[[[[-0.16333,52.31192],[-0.16325,52.3121],[-0.16327,52.31211],[-0.16331,52.31211],[-0.16357,52.31215],[-0.16361,52.31216],[-0.16369,52.31198],[-0.16333,52.31192]]]]}},
{ "type":"Feature","properties":{"osm_way_id":"669964558","name":"Spar","shop":"supermarket","other":{"addr:city":"Peterborough","addr:housenumber":"27-28","addr:postcode":"PE2 5PW","addr:street":"Herlington","brand":"Spar","brand:wikidata":"Q610492","brand:wikipedia":"en:Spar (retailer)","building:part":"yes","fhrs:id":"247012"}}, "geometry":{"type":"MultiPolygon","coordinates":[[[[-0.27759,52.54785],[-0.27774,52.54789],[-0.2777,52.54794],[-0.27736,52.54784],[-0.27741,52.54779],[-0.27747,52.54781],[-0.27751,52.54776],[-0.27753,52.54777],[-0.27749,52.54782],[-0.27759,52.54785]]]]}},
{ "type":"Feature","properties":{"osm_way_id":"727545967","name":"Maxum Foods","building":"yes","shop":"supermarket","other":{"addr:city":"Peterborough","addr:housenumber":"43-49","addr:postcode":"PE1 2TH","addr:street":"Park Road","fhrs:id":"615679"}}, "geometry":{"type":"MultiPolygon","coordinates":[[[[-0.24211,52.57681],[-0.24227,52.57666],[-0.24254,52.57677],[-0.24238,52.57692],[-0.24211,52.57681]]]]}},
{ "type":"Feature","properties":{"osm_way_id":"737419467","name":"Aldi","shop":"supermarket","other":{"addr:city":"Peterborough","addr:housename":"Unit 1a","addr:postcode":"PE1 2BT","addr:street":"Maskew Retail Park","brand":"ALDI","brand:wikidata":"Q41171672","brand:wikipedia":"en:Aldi","building:part":"retail","fhrs:id":"1158549","opening_hours":"Mo-Sa 08:00-22:00; Su 10:00-16:00"}}, "geometry":{"type":"MultiPolygon","coordinates":[[[[-0.2619,52.59535],[-0.26132,52.5949],[-0.26231,52.59448],[-0.26284,52.59494],[-0.2619,52.59535]]]]}},
{ "type":"Feature","properties":{"osm_way_id":"825485350","name":"Aldi","building":"yes","shop":"supermarket","other":{"brand":"ALDI","brand:wikidata":"Q41171672","brand:wikipedia":"en:Aldi","website":"https:\/\/www.aldi.co.uk\/store\/s-uk-E1242"}}, "geometry":{"type":"MultiPolygon","coordinates":[[[[-0.05903,52.33248],[-0.05944,52.33249],[-0.05949,52.33199],[-0.05908,52.33199],[-0.05903,52.33248]]]]}},
{ "type":"Feature","properties":{"osm_way_id":"850505318","name":"Lidl","building":"yes","shop":"supermarket","other":{"addr:city":"Peterborough","addr:country":"GB","addr:postcode":"PE4 6LA","addr:street":"Lincoln Road","brand":"Lidl","brand:wikidata":"Q151954","brand:wikipedia":"en:Lidl","fhrs:id":"1100714","operator":"Lidl Great Britain Ltd","survey:date":"2018-12-18"}}, "geometry":{"type":"MultiPolygon","coordinates":[[[[-0.27773,52.60798],[-0.2773,52.60773],[-0.27715,52.60782],[-0.27722,52.60786],[-0.27687,52.60809],[-0.27664,52.60823],[-0.27671,52.60826],[-0.277,52.60844],[-0.27773,52.60798]]]]}},
{ "type":"Feature","properties":{"osm_way_id":"870767181","building":"yes"},"geometry":{"type":"MultiPolygon","coordinates":[[[[0.21664,52.34391],[0.21673,52.34389],[0.21669,52.34381],[0.21661,52.34383],[0.21664,52.34391]]]]}},
{ "type":"Feature","properties":{"osm_way_id":"903601712","name":"Aldi","building":"yes","shop":"supermarket","other":{"addr:city":"Peterborough","addr:place":"Peterborough One Retail Park","addr:postcode":"PE1 4YZ","brand":"ALDI","brand:wikidata":"Q41171672","brand:wikipedia":"en:Aldi","fhrs:id":"1377116","source:addr":"FHRS Open Data","website":"https:\/\/www.aldi.co.uk\/store\/s-uk-E1303"}}, "geometry":{"type":"MultiPolygon","coordinates":[[[[-0.21212,52.59954],[-0.2117,52.59965],[-0.21149,52.59939],[-0.21142,52.59941],[-0.21137,52.59934],[-0.21144,52.59932],[-0.21135,52.59919],[-0.21146,52.59916],[-0.21148,52.59918],[-0.2118,52.5991],[-0.21212,52.59954]]]]}},
{ "type":"Feature","properties":{"osm_way_id":"983654848","name":"Morrisons","shop":"supermarket","other":{"addr:city":"St Ives","addr:postcode":"PE27 4NB","addr:street":"Parsons Green","brand":"Morrisons","brand:wikidata":"Q922344","brand:wikipedia":"en:Morrisons","website":"https:\/\/my.morrisons.com\/storefinder\/644"}}, "geometry":{"type":"MultiPolygon","coordinates":[[[[-0.0573,52.3297],[-0.05752,52.33081],[-0.05768,52.33085],[-0.05807,52.33079],[-0.05839,52.33065],[-0.05916,52.33062],[-0.05943,52.3306],[-0.05884,52.32935],[-0.05836,52.32937],[-0.05838,52.32958],[-0.0578,52.32961],[-0.05775,52.32968],[-0.0573,52.3297]]]]}},
{ "type":"Feature","properties":{"osm_way_id":"988657636","name":"Saviany","building":"yes","shop":"supermarket","other":{"addr:city":"Gravesend","addr:housenumber":"60-61","addr:postcode":"DA11 0AD","addr:street":"New Road"}}, "geometry":{"type":"MultiPolygon","coordinates":[[[[0.36463,51.4425],[0.36474,51.4425],[0.36474,51.4426],[0.36465,51.4426],[0.36463,51.4425]]]]}},
{ "type":"Feature","properties":{"osm_way_id":"988657651","name":"Tasnim Store","building":"yes","shop":"supermarket"},"geometry":{"type":"MultiPolygon","coordinates":[[[[0.3656,51.44265],[0.36562,51.44271],[0.3655,51.44272],[0.36547,51.44272],[0.36546,51.44272],[0.36546,51.4427],[0.36545,51.44268],[0.36542,51.44268],[0.36541,51.44265],[0.3656,51.44265]]]]}},
{ "type":"Feature","properties":{"osm_way_id":"1039930537","name":"Tesco","building":"yes","shop":"supermarket","other":{"brand":"Tesco","brand:wikidata":"Q487494","brand:wikipedia":"en:Tesco"}}, "geometry":{"type":"MultiPolygon","coordinates":[[[[-0.27324,52.62131],[-0.27318,52.62123],[-0.27267,52.62111],[-0.27254,52.62113],[-0.27248,52.62124],[-0.27254,52.62135],[-0.2724,52.62139],[-0.27228,52.62158],[-0.27233,52.62166],[-0.27259,52.62171],[-0.27258,52.62172],[-0.27251,52.62171],[-0.27248,52.62176],[-0.27255,52.62177],[-0.27252,52.62181],[-0.2727,52.62185],[-0.27275,52.62175],[-0.27283,52.62177],[-0.27295,52.62173],[-0.2731,52.62151],[-0.27324,52.62131]]]]}}
]
}
