{
"type": "FeatureCollection",
"features": [
{ "type":"Feature","properties":{"osm_id":"3787820583","name":"Global Distribution","other":{"addr:city":"Cambridge","addr:full":"Kings Court, Kirkwood Road","addr:housenumber":"7","addr:postcode":"CB4 2PH","addr:street":"Kirkwood Road","office":"yes","website":"https:\/\/www.globaldistribution.com\/"}}, "geometry":{"type":"Point","coordinates":[0.13581,52.23228 ]}},
{ "type":"Feature","properties":{"osm_id":"9576018396","name":"Tesco Stores Distribution Centre","other":{"amenity":"post_depot","operator":"Tesco Stores Ltd"}}, "geometry":{"type":"Point","coordinates":[-0.20025,52.59467 ]}},
{ "type":"Feature","properties":{"osm_way_id":"28560773","name":"Cardinal Distribution Park","landuse":"industrial"},"geometry":{"type":"MultiPolygon","coordinates":[[[[-0.15312,52.31666],[-0.15345,52.31674],[-0.15681,52.31759],[-0.15911,52.31809],[-0.15941,52.31806],[-0.15965,52.31798],[-0.16066,52.31673],[-0.16139,52.31573],[-0.16104,52.31554],[-0.15991,52.31499],[-0.15987,52.31496],[-0.15766,52.31405],[-0.15587,52.31306],[-0.15434,52.31506],[-0.15319,52.31657],[-0.15312,52.31666]]]]}},
{ "type":"Feature","properties":{"osm_way_id":"39832424","name":"Ikea Distribution Centre","building":"yes","other":{"addr:postcode":"PE2 9ET","addr:street":"Fletton Avenue"}}, "geometry":{"type":"MultiPolygon","coordinates":[[[[-0.24039,52.55138],[-0.24023,52.55242],[-0.23988,52.5524],[-0.23979,52.55294],[-0.24012,52.55296],[-0.23975,52.55543],[-0.24252,52.55559],[-0.2429,52.55305],[-0.243,52.55305],[-0.24303,52.55281],[-0.24294,52.55281],[-0.24313,52.55154],[-0.24288,52.55152],[-0.24039,52.55138]]]]}},
{ "type":"Feature","properties":{"osm_way_id":"50996363","name":"Hubpartners (Princes Salters Distribution Centre)","landuse":"industrial","other":{"industrial":"warehouse"}}, "geometry":{"type":"MultiPolygon","coordinates":[[[[0.15136,52.67561],[0.15135,52.67556],[0.15088,52.67306],[0.15086,52.67294],[0.15076,52.67255],[0.15073,52.6725],[0.15154,52.67236],[0.15239,52.67209],[0.15259,52.67237],[0.1527,52.6723],[0.15292,52.67243],[0.1528,52.67255],[0.15471,52.67323],[0.15242,52.67507],[0.1521,52.67545],[0.15198,52.67559],[0.15168,52.67565],[0.15136,52.67561]]]]}},
{ "type":"Feature","properties":{"osm_way_id":"168984046","name":"Bennettt's Automotive Distribution","building":"yes"},"geometry":{"type":"MultiPolygon","coordinates":[[[[0.17437,52.19599],[0.17478,52.19583],[0.17469,52.19574],[0.17428,52.19589],[0.17437,52.19599]]]]}},
{ "type":"Feature","properties":{"osm_way_id":"204809550","name":"Co-op Food Distribution Centre","building":"yes","other":{"addr:postcode":"PE29 2XF","addr:street":"Cardinal Way","old_name":"Somerfield Distribution Centre"}}, "geometry":{"type":"MultiPolygon","coordinates":[[[[-0.15568,52.31638],[-0.15559,52.3165],[-0.1554,52.31645],[-0.15495,52.31705],[-0.15337,52.3166],[-0.15384,52.31598],[-0.15526,52.31638],[-0.15532,52.31628],[-0.15568,52.31638]]]]}},
{ "type":"Feature","properties":{"osm_way_id":"628684699","name":"Lidl Distribution Centre","building":"warehouse","other":{"addr:postcode":"PE7 3AG","addr:street":"waterworth road","brand":"Lidl","brand:wikidata":"Q151954","brand:wikipedia":"en:Lidl"}}, "geometry":{"type":"MultiPolygon","coordinates":[[[[-0.31357,52.53104],[-0.31047,52.5322],[-0.3099,52.53165],[-0.30961,52.53176],[-0.3095,52.53165],[-0.30982,52.53153],[-0.30896,52.53068],[-0.31203,52.52953],[-0.31357,52.53104]]]]}},
{ "type":"Feature","properties":{"osm_way_id":"1010369339","name":"Gas Distribution Station i","landuse":"industrial"},"geometry":{"type":"MultiPolygon","coordinates":[[[[-0.18433,52.32636],[-0.1843,52.32632],[-0.18405,52.32635],[-0.18405,52.32641],[-0.18433,52.32636]]]]}}
]
}
