{
"type": "FeatureCollection",
"features": [
{ "type":"Feature","properties":{"osm_id":"334652724","name":"NISA","other":{"shop":"supermarket","amenity":"post_office","addr:city":"Bellshill","addr:street":"North Road"}}, "geometry":{"type":"Point","coordinates":[-4.0248,55.82404 ]}},
{ "type":"Feature","properties":{"osm_id":"378495200","name":"Tesco","other":{"brand":"Tesco","brand:wikidata":"Q487494","brand:wikipedia":"en:Tesco","contact:website":"https:\/\/www.tesco.com\/store-locator\/glasgow\/15-auchinbee-way","shop":"supermarket"}}, "geometry":{"type":"Point","coordinates":[-4.02272,55.95455 ]}},
{ "type":"Feature","properties":{"osm_id":"663394809","name":"Scotmid","other":{"brand":"Scotmid","brand:wikidata":"Q7435719","brand:wikipedia":"en:Scotmid","shop":"supermarket","wheelchair":"yes"}}, "geometry":{"type":"Point","coordinates":[-4.03852,55.85976 ]}},
{ "type":"Feature","properties":{"osm_id":"665546403","name":"Spar","other":{"brand":"Spar","brand:wikidata":"Q610492","shop":"supermarket","wheelchair":"yes"}}, "geometry":{"type":"Point","coordinates":[-4.02357,55.86782 ]}},
{ "type":"Feature","properties":{"osm_id":"707424804","name":"Scotmid","other":{"brand":"Scotmid","brand:wikidata":"Q7435719","brand:wikipedia":"en:Scotmid","shop":"supermarket"}}, "geometry":{"type":"Point","coordinates":[-3.97701,55.82118 ]}},
{ "type":"Feature","properties":{"osm_id":"1094353401","other":{"shop":"supermarket"}}, "geometry":{"type":"Point","coordinates":[-4.0835,55.91345 ]}},
{ "type":"Feature","properties":{"osm_id":"1119328570","name":"Spar","other":{"addr:city":"Milnwood, Bellshill","addr:street":"Calder Road","brand":"Spar","brand:wikidata":"Q610492","shop":"supermarket"}}, "geometry":{"type":"Point","coordinates":[-4.00521,55.81264 ]}},
{ "type":"Feature","properties":{"osm_id":"1425707878","name":"Petersburn Supermarket","other":{"shop":"supermarket"}}, "geometry":{"type":"Point","coordinates":[-3.94828,55.85929 ]}},
{ "type":"Feature","properties":{"osm_id":"1638211128","name":"The Co-operative Food","other":{"shop":"supermarket","website":"https:\/\/www.co-operative.coop\/food\/find-us\/?q=g69%209fb&lat=55.8976005&long=-4.109740099999954&filters=Food&options=","addr:street":"114 Cumbernauld Road","designation":"Supermarket","addr:postcode":"G69 9AA"}}, "geometry":{"type":"Point","coordinates":[-4.10831,55.89973 ]}},
{ "type":"Feature","properties":{"osm_id":"1928623737","name":"Scotmid","other":{"brand":"Scotmid","brand:wikidata":"Q7435719","brand:wikipedia":"en:Scotmid","shop":"supermarket","wheelchair":"yes"}}, "geometry":{"type":"Point","coordinates":[-4.07559,55.83096 ]}},
{ "type":"Feature","properties":{"osm_id":"2402793398","name":"Scotmid","other":{"addr:housenumber":"2","addr:postcode":"ML1 4JL","addr:street":"Carfin Street","brand":"Scotmid","brand:wikidata":"Q7435719","brand:wikipedia":"en:Scotmid","opening_hours":"Mo-Su 07:00-22:00","shop":"supermarket"}}, "geometry":{"type":"Point","coordinates":[-3.97761,55.81248 ]}},
{ "type":"Feature","properties":{"osm_id":"2866263054","name":"Dolan's","other":{"atm":"yes","shop":"supermarket"}}, "geometry":{"type":"Point","coordinates":[-3.8744,55.84335 ]}},
{ "type":"Feature","properties":{"osm_id":"3262976964","name":"Shopsmart","other":{"shop":"supermarket","wheelchair":"yes"}}, "geometry":{"type":"Point","coordinates":[-4.03927,55.85888 ]}},
{ "type":"Feature","properties":{"osm_id":"5365211756","name":"Scotmid","other":{"addr:city":"Newmains","addr:country":"GB","addr:housenumber":"136G","addr:postcode":"ML2 9BD","addr:street":"Manse Road","brand":"Scotmid","brand:wikidata":"Q7435719","brand:wikipedia":"en:Scotmid","fhrs:id":"614947","shop":"supermarket"}}, "geometry":{"type":"Point","coordinates":[-3.8828,55.78218 ]}},
{ "type":"Feature","properties":{"osm_id":"7098736417","name":"SPAR","other":{"brand":"Spar","brand:wikidata":"Q610492","shop":"supermarket"}}, "geometry":{"type":"Point","coordinates":[-3.83566,55.80045 ]}},
{ "type":"Feature","properties":{"osm_id":"7098775567","name":"usave","other":{"shop":"supermarket"}}, "geometry":{"type":"Point","coordinates":[-3.88553,55.78983 ]}},
{ "type":"Feature","properties":{"osm_id":"8913628101","name":"The Food Warehouse","other":{"addr:city":"Glasgow","addr:country":"GB","addr:housename":"Cumbernauld Retail Park","addr:postcode":"G68 9NE","addr:unit":"3","brand":"The Food Warehouse","brand:wikidata":"Q87263899","contact:website":"https:\/\/www.thefoodwarehouse.com\/store-locator\/cumbernauld","fhrs:id":"1182475","shop":"supermarket"}}, "geometry":{"type":"Point","coordinates":[-4.03411,55.94358 ]}},
{ "type":"Feature","properties":{"osm_id":"9094520508","name":"The Food Warehouse","other":{"brand":"The Food Warehouse","brand:wikidata":"Q87263899","shop":"supermarket"}}, "geometry":{"type":"Point","coordinates":[-3.94843,55.77563 ]}},
{ "type":"Feature","properties":{"osm_id":"9303648448","name":"First Stop Shop","other":{"shop":"supermarket"}}, "geometry":{"type":"Point","coordinates":[-4.08351,55.91382 ]}},
{ "type":"Feature","properties":{"osm_id":"9303695225","name":"Scotmid","other":{"branch":"Co operative","brand":"Scotmid","brand:wikidata":"Q7435719","brand:wikipedia":"en:Scotmid","shop":"supermarket"}}, "geometry":{"type":"Point","coordinates":[-4.08808,55.91128 ]}},
{ "type":"Feature","properties":{"osm_id":"199222938","highway":"footway","z_order": 0 }, "geometry":{"type":"LineString","coordinates":[[-4.08287,55.90891],[-4.08281,55.90889]]}},
{ "type":"Feature","properties":{"osm_way_id":"23613165","name":"Asda","building":"yes","shop":"supermarket","other":{"brand":"Asda","is_in":"North Lanarkshire","height":"15m","fhrs:id":"614038","operator":"Asda Stores Ltd","addr:city":"Newmains","addr:street":"Manse Road","addr:country":"GB","building:use":"retail","addr:postcode":"ML2 9AX","opening_hours":"24\/7","brand:wikidata":"Q297410","brand:wikipedia":"en:Asda","building:levels":"1","contact:twitter":"@asda","contact:website":"https:\/\/storelocator.asda.com\/scotland\/newmains\/2-morningside-road","addr:housenumber":"62","contact:facebook":"https:\/\/www.facebook.com\/asda\/","building:cladding":"glass"}}, "geometry":{"type":"Polygon","coordinates":[[[ -3.87495,55.78245],[-3.87525,55.78206],[-3.87491,55.78197],[-3.87507,55.78177],[-3.8762,55.78205],[-3.87573,55.78265],[-3.87495,55.78245]] ]}},
{ "type":"Feature","properties":{"osm_way_id":"26301233","name":"Tesco Extra","building":"yes","landuse":"retail","shop":"supermarket","other":{"brand":"Tesco Extra","brand:wikidata":"Q25172225","brand:wikipedia":"en:Tesco Extra"}}, "geometry":{"type":"Polygon","coordinates":[[[ -3.9903,55.94578],[-3.99045,55.9457],[-3.99037,55.94566],[-3.99161,55.94498],[-3.99189,55.94514],[-3.99182,55.94518],[-3.99208,55.94533],[-3.99258,55.94506],[-3.99271,55.94513],[-3.99228,55.94537],[-3.99245,55.94547],[-3.99115,55.94618],[-3.99096,55.94608],[-3.99089,55.94612],[-3.9903,55.94578]] ]}},
{ "type":"Feature","properties":{"osm_way_id":"26433832","name":"Tesco Extra","building":"retail","shop":"supermarket","other":{"addr:city":"Coatbridge","addr:postcode":"ML5 3SQ","addr:street":"Faraday Retail Park","brand":"Tesco Extra","brand:wikidata":"Q25172225","brand:wikipedia":"en:Tesco Extra","building:levels":"2","building:roof":"metal","building:use":"retail","cafe":"yes","fhrs:id":"614987","height":"18","opening_hours":"24\/7","roof:shape":"pitched","wheelchair":"yes"}}, "geometry":{"type":"Polygon","coordinates":[[[ -4.02156,55.85959],[-4.02184,55.85901],[-4.02378,55.8593],[-4.02357,55.85974],[-4.0235,55.85988],[-4.02304,55.85981],[-4.02156,55.85959]] ]}},
{ "type":"Feature","properties":{"osm_way_id":"26706502","name":"Asda","building":"yes","shop":"supermarket","other":{"addr:city":"Coatbridge","addr:postcode":"ML5 3BU","addr:street":"Main Street","brand":"Asda","brand:wikidata":"Q297410","brand:wikipedia":"en:Asda","building:cladding":"brick","building:roof":"metal","building:use":"retail","contact:facebook":"https:\/\/www.facebook.com\/asda\/","contact:twitter":"@asda","contact:website":"https:\/\/storelocator.asda.com\/scotland\/coatbridge\/main-street","fhrs:id":"614991","height":"16 m","opening_hours":"24\/7","operator":"Asda Stores Ltd","roof:shape":"flat","wheelchair":"yes"}}, "geometry":{"type":"Polygon","coordinates":[[[ -4.02542,55.8612],[-4.0264,55.86139],[-4.0263,55.86153],[-4.02639,55.86155],[-4.02607,55.86212],[-4.02499,55.86192],[-4.02522,55.86151],[-4.02521,55.86148],[-4.02427,55.8613],[-4.02441,55.86106],[-4.02506,55.86116],[-4.02502,55.86121],[-4.02537,55.86128],[-4.02542,55.8612]] ]}},
{ "type":"Feature","properties":{"osm_way_id":"27128705","name":"Lidl","building":"yes","shop":"supermarket","other":{"addr:city":"Coatbridge","addr:housenumber":"1","addr:postcode":"ML5 4FQ","addr:street":"Lochrin Street","brand":"Lidl","brand:wikidata":"Q151954","brand:wikipedia":"en:Lidl","fhrs:id":"614990","wheelchair":"yes"}}, "geometry":{"type":"Polygon","coordinates":[[[ -4.02166,55.85501],[-4.02149,55.85495],[-4.02144,55.85499],[-4.02129,55.85494],[-4.02135,55.8549],[-4.02093,55.85475],[-4.02122,55.8545],[-4.02147,55.85458],[-4.02143,55.85462],[-4.02191,55.85478],[-4.02166,55.85501]] ]}},
{ "type":"Feature","properties":{"osm_way_id":"35446199","name":"Tesco","building":"yes","shop":"supermarket","other":{"addr:city":"Airdrie","addr:housenumber":"8","addr:postcode":"ML6 9JB","addr:street":"Gartlea Road","brand":"Tesco","brand:wikidata":"Q487494","brand:wikipedia":"en:Tesco","building:levels":"1","roof:shape":"pitched","wheelchair":"yes"}}, "geometry":{"type":"Polygon","coordinates":[[[ -3.97746,55.86309],[-3.97731,55.86266],[-3.97831,55.86255],[-3.97845,55.86294],[-3.97841,55.86295],[-3.9785,55.8632],[-3.97768,55.86328],[-3.97761,55.86307],[-3.97746,55.86309]] ]}},
{ "type":"Feature","properties":{"osm_way_id":"35446290","name":"The Food Warehouse","building":"yes","shop":"supermarket","other":{"addr:city":"Airdrie","addr:housenumber":"3","addr:postcode":"ML6 9JB","addr:street":"Gartlea Road","brand":"The Food Warehouse","brand:wikidata":"Q87263899","fhrs:id":"1135852"}}, "geometry":{"type":"Polygon","coordinates":[[[ -3.97784,55.86377],[-3.97778,55.86359],[-3.97854,55.86351],[-3.9786,55.86369],[-3.97784,55.86377]] ]}},
{ "type":"Feature","properties":{"osm_way_id":"35597258","name":"Lidl","building":"yes","shop":"supermarket","other":{"addr:city":"Kilsyth","addr:country":"GB","addr:housenumber":"1","addr:postcode":"G65 9JX","addr:street":"Garrell Road","brand":"Lidl","brand:wikidata":"Q151954","brand:wikipedia":"en:Lidl","fhrs:id":"983599","opening_hours":"Mo-Su 8:00-21:00","wheelchair":"yes"}}, "geometry":{"type":"Polygon","coordinates":[[[ -4.05969,55.97688],[-4.05924,55.97674],[-4.0598,55.9762],[-4.05995,55.97625],[-4.05992,55.97628],[-4.06014,55.97635],[-4.05977,55.97672],[-4.05984,55.97674],[-4.05969,55.97688]] ]}},
{ "type":"Feature","properties":{"osm_way_id":"93250891","name":"Co-op Food","building":"yes","shop":"supermarket","other":{"brand":"Co-op Food","brand:wikidata":"Q3277439","brand:wikipedia":"en:Co-op Food","operator":"The Co-operative Group","operator:wikidata":"Q117202","operator:wikipedia":"en:The Co-operative Group"}}, "geometry":{"type":"Polygon","coordinates":[[[ -4.08385,55.91436],[-4.08339,55.91448],[-4.0832,55.91428],[-4.08367,55.91414],[-4.08385,55.91436]] ]}},
{ "type":"Feature","properties":{"osm_way_id":"102198589","name":"Morrisons","building":"yes","shop":"supermarket","other":{"brand":"Morrisons","operator":"Morrisons","wheelchair":"yes","addr:postcode":"ML4 1RJ","brand:wikidata":"Q922344","brand:wikipedia":"en:Morrisons"}}, "geometry":{"type":"Polygon","coordinates":[[[ -4.02009,55.81798],[-4.0201,55.81804],[-4.01963,55.81806],[-4.01954,55.81753],[-4.01968,55.81753],[-4.01966,55.81744],[-4.02056,55.8174],[-4.02061,55.81767],[-4.02054,55.81767],[-4.02059,55.81796],[-4.02009,55.81798]] ]}},
{ "type":"Feature","properties":{"osm_way_id":"137706982","name":"Tesco Extra","building":"yes","shop":"supermarket","other":{"brand":"Tesco Extra","operator":"Tesco","wheelchair":"yes","brand:wikidata":"Q25172225","brand:wikipedia":"en:Tesco Extra","toilets:wheelchair":"yes"}}, "geometry":{"type":"Polygon","coordinates":[[[ -4.02201,55.82036],[-4.02034,55.82046],[-4.02015,55.8195],[-4.02182,55.8194],[-4.02201,55.82036]] ]}},
{ "type":"Feature","properties":{"osm_way_id":"159390550","name":"Asda","building":"yes","shop":"supermarket","other":{"brand":"Asda","operator":"Asda Stores Ltd","addr:city":"Cumbernauld","wheelchair":"yes","addr:street":"Tryst Road","addr:country":"GB","addr:postcode":"G67 1JW","opening_hours":"24\/7","brand:wikidata":"Q297410","brand:wikipedia":"en:Asda","contact:twitter":"@asda","contact:website":"https:\/\/storelocator.asda.com\/scotland\/cumbernauld\/1-tryste-road","addr:housenumber":"1","contact:facebook":"https:\/\/www.facebook.com\/asda\/"}}, "geometry":{"type":"Polygon","coordinates":[[[ -3.98113,55.95018],[-3.98181,55.94981],[-3.98206,55.94993],[-3.98221,55.94984],[-3.98298,55.95032],[-3.98283,55.95039],[-3.98308,55.95052],[-3.98223,55.95096],[-3.98207,55.95089],[-3.98192,55.95098],[-3.98158,55.95077],[-3.98163,55.95064],[-3.98147,55.95061],[-3.98152,55.95056],[-3.9812,55.95038],[-3.98135,55.9503],[-3.98113,55.95018]] ]}},
{ "type":"Feature","properties":{"osm_way_id":"168618519","name":"Co-op","building":"yes","shop":"supermarket"},"geometry":{"type":"Polygon","coordinates":[[[ -3.95026,55.84099],[-3.94994,55.84084],[-3.95034,55.84057],[-3.95064,55.84071],[-3.9503,55.84093],[-3.95033,55.84095],[-3.95026,55.84099]] ]}},
{ "type":"Feature","properties":{"osm_way_id":"173339334","name":"The Co-operative food","building":"yes","shop":"supermarket","other":{"opening_hours":"Mo-Sa 07:00-22:00;Su 09:00-19:00"}}, "geometry":{"type":"Polygon","coordinates":[[[ -3.80533,55.81897],[-3.80472,55.81896],[-3.80474,55.81858],[-3.80505,55.81858],[-3.80505,55.81851],[-3.80535,55.81851],[-3.80534,55.81884],[-3.80533,55.81897]] ]}},
{ "type":"Feature","properties":{"osm_way_id":"177858609","name":"Co-op Food","building":"yes","shop":"supermarket","other":{"brand":"Co-op Food","brand:wikidata":"Q3277439","brand:wikipedia":"en:Co-op Food"}}, "geometry":{"type":"Polygon","coordinates":[[[ -4.15443,55.88795],[-4.15399,55.8881],[-4.15377,55.88789],[-4.15422,55.88775],[-4.15443,55.88795]] ]}},
{ "type":"Feature","properties":{"osm_way_id":"218023033","name":"Aldi","building":"yes","shop":"supermarket","other":{"brand":"ALDI","brand:wikidata":"Q41171672","brand:wikipedia":"en:Aldi"}}, "geometry":{"type":"Polygon","coordinates":[[[ -4.00771,55.82005],[-4.00819,55.82003],[-4.00821,55.82016],[-4.00815,55.82017],[-4.00822,55.82055],[-4.00805,55.82056],[-4.00806,55.82061],[-4.00781,55.82062],[-4.00771,55.82005]] ]}},
{ "type":"Feature","properties":{"osm_way_id":"229153888","name":"Aldi","building":"yes","shop":"supermarket","other":{"brand":"ALDI","brand:wikidata":"Q41171672","brand:wikipedia":"en:Aldi","building:roof:shape":"pitched"}}, "geometry":{"type":"Polygon","coordinates":[[[ -3.98166,55.86498],[-3.98207,55.86496],[-3.98213,55.8654],[-3.98195,55.86541],[-3.98195,55.86546],[-3.98173,55.86547],[-3.98166,55.86498]] ]}},
{ "type":"Feature","properties":{"osm_way_id":"229364787","name":"Aldi","building":"yes","shop":"supermarket","other":{"brand":"ALDI","brand:wikidata":"Q41171672","brand:wikipedia":"en:Aldi","wheelchair":"yes"}}, "geometry":{"type":"Polygon","coordinates":[[[ -3.98331,55.86847],[-3.98377,55.86834],[-3.98416,55.86878],[-3.98372,55.86891],[-3.98348,55.86863],[-3.98339,55.86866],[-3.98334,55.86861],[-3.98342,55.86859],[-3.98331,55.86847]] ]}},
{ "type":"Feature","properties":{"osm_way_id":"235249583","building":"residential"},"geometry":{"type":"Polygon","coordinates":[[[ -3.96934,55.86935],[-3.96951,55.86945],[-3.96941,55.8695],[-3.96924,55.8694],[-3.96934,55.86935]] ]}},
{ "type":"Feature","properties":{"osm_way_id":"236189304","name":"Morrisons","building":"yes","shop":"supermarket","other":{"brand":"Morrisons","wheelchair":"yes","brand:wikidata":"Q922344","brand:wikipedia":"en:Morrisons"}}, "geometry":{"type":"Polygon","coordinates":[[[ -3.97386,55.86584],[-3.97377,55.86566],[-3.97371,55.86567],[-3.97366,55.86556],[-3.97359,55.86557],[-3.97349,55.86538],[-3.97337,55.8654],[-3.97327,55.86522],[-3.97357,55.86517],[-3.97355,55.86512],[-3.97455,55.86495],[-3.97469,55.86522],[-3.97478,55.86521],[-3.97498,55.86558],[-3.9748,55.86561],[-3.97484,55.86567],[-3.97386,55.86584]] ]}},
{ "type":"Feature","properties":{"osm_way_id":"262267401","name":"Morrisons","building":"retail","shop":"supermarket","other":{"brand":"Morrisons","brand:wikidata":"Q922344","brand:wikipedia":"en:Morrisons"}}, "geometry":{"type":"Polygon","coordinates":[[[ -3.91429,55.77631],[-3.91415,55.77623],[-3.91426,55.77617],[-3.91393,55.77599],[-3.91465,55.77558],[-3.91508,55.77582],[-3.91485,55.77595],[-3.91494,55.776],[-3.91443,55.77629],[-3.91438,55.77625],[-3.91429,55.77631]] ]}},
{ "type":"Feature","properties":{"osm_way_id":"274761835","name":"Lidl","building":"yes","shop":"supermarket","other":{"addr:country":"GB","addr:housenumber":"215","addr:postcode":"ML1 4EU","addr:street":"Carfin Street","brand":"Lidl","brand:wikidata":"Q151954","brand:wikipedia":"en:Lidl","fhrs:id":"614959"}}, "geometry":{"type":"Polygon","coordinates":[[[ -3.96708,55.80732],[-3.96741,55.80753],[-3.96656,55.80796],[-3.96646,55.8079],[-3.96653,55.80786],[-3.96635,55.80774],[-3.96692,55.80746],[-3.96687,55.80743],[-3.96708,55.80732]] ]}},
{ "type":"Feature","properties":{"osm_way_id":"302760264","name":"Lidl","building":"retail","shop":"supermarket","other":{"addr:country":"GB","addr:postcode":"ML2 7JF","addr:street":"Roberts Street","brand":"Lidl","brand:wikidata":"Q151954","brand:wikipedia":"en:Lidl","fhrs:id":"614994"}}, "geometry":{"type":"Polygon","coordinates":[[[ -3.92143,55.77619],[-3.92124,55.77614],[-3.92118,55.77622],[-3.92101,55.77617],[-3.9214,55.77571],[-3.92183,55.77583],[-3.92174,55.77593],[-3.92167,55.77591],[-3.92143,55.77619]] ]}},
{ "type":"Feature","properties":{"osm_way_id":"302760900","name":"Tesco Extra","building":"retail","shop":"supermarket","other":{"brand":"Tesco Extra","brand:wikidata":"Q25172225","brand:wikipedia":"en:Tesco Extra"}}, "geometry":{"type":"Polygon","coordinates":[[[ -3.92724,55.7755],[-3.9269,55.77538],[-3.92692,55.77537],[-3.92688,55.77536],[-3.92687,55.77537],[-3.92669,55.77531],[-3.92671,55.77529],[-3.92665,55.77527],[-3.92663,55.77529],[-3.92647,55.77523],[-3.92662,55.7751],[-3.92607,55.77491],[-3.92654,55.77449],[-3.9265,55.77448],[-3.92655,55.77442],[-3.92791,55.7749],[-3.92724,55.7755]] ]}},
{ "type":"Feature","properties":{"osm_way_id":"302761845","name":"Aldi","building":"retail","shop":"supermarket","other":{"brand":"ALDI","brand:wikidata":"Q41171672","brand:wikipedia":"en:Aldi"}}, "geometry":{"type":"Polygon","coordinates":[[[ -3.93115,55.77541],[-3.93046,55.77506],[-3.93054,55.775],[-3.93061,55.77504],[-3.93085,55.77489],[-3.93125,55.77509],[-3.9313,55.77506],[-3.93152,55.77518],[-3.93115,55.77541]] ]}},
{ "type":"Feature","properties":{"osm_way_id":"322831504","name":"Lidl","building":"supermarket","shop":"supermarket","other":{"addr:country":"GB","addr:housenumber":"177","addr:postcode":"ML1 1RY","addr:street":"Windmillhill Street","brand":"Lidl","brand:wikidata":"Q151954","brand:wikipedia":"en:Lidl","fhrs:id":"1182476","wheelchair":"yes"}}, "geometry":{"type":"Polygon","coordinates":[[[ -3.98138,55.78554],[-3.98132,55.78549],[-3.98137,55.78547],[-3.98115,55.78529],[-3.98208,55.78493],[-3.98237,55.78516],[-3.98138,55.78554]] ]}},
{ "type":"Feature","properties":{"osm_way_id":"323620497","name":"Asda","building":"yes","shop":"supermarket","other":{"brand":"Asda","fhrs:id":"614984","operator":"Asda Stores Ltd","addr:city":"Motherwell","wheelchair":"yes","addr:street":"Watson Street","addr:country":"GB","addr:postcode":"ML1 1YP","brand:wikidata":"Q297410","brand:wikipedia":"en:Asda","contact:twitter":"@asda","contact:website":"https:\/\/storelocator.asda.com\/scotland\/motherwell\/watson-street","addr:housenumber":"89","contact:facebook":"https:\/\/www.facebook.com\/asda\/"}}, "geometry":{"type":"Polygon","coordinates":[[[ -3.98873,55.78641],[-3.98969,55.78578],[-3.99047,55.78616],[-3.99027,55.7863],[-3.99039,55.78636],[-3.98996,55.78663],[-3.99001,55.78665],[-3.98961,55.78689],[-3.98936,55.78678],[-3.9894,55.78674],[-3.98873,55.78641]] ]}},
{ "type":"Feature","properties":{"osm_way_id":"646941363","name":"Aldi","building":"yes","shop":"supermarket","other":{"brand":"ALDI","brand:wikidata":"Q41171672","brand:wikipedia":"en:Aldi","opening_hours":"Mo-Fr 08:00-22:00; Su 09:00-19:00","operator":"Aldi"}}, "geometry":{"type":"Polygon","coordinates":[[[ -3.99163,55.78811],[-3.99136,55.78829],[-3.99064,55.78795],[-3.99091,55.78777],[-3.99163,55.78811]] ]}},
{ "type":"Feature","properties":{"osm_way_id":"929892557","name":"Co-op Food","building":"yes","shop":"supermarket","other":{"addr:city":"Kilsyth","addr:housenumber":"39-53","addr:postcode":"G65 0AH","addr:street":"Main Street","brand":"Co-op Food","brand:wikidata":"Q3277439","brand:wikipedia":"en:Co-op Food","opening_hours":"Mo-Su 07:00-22:00"}}, "geometry":{"type":"Polygon","coordinates":[[[ -4.05711,55.9766],[-4.05668,55.9768],[-4.05654,55.97683],[-4.05639,55.97661],[-4.05652,55.97658],[-4.05683,55.97642],[-4.05711,55.9766]] ]}}
]
}
