{
"type": "FeatureCollection",
"features": [
{ "type":"Feature","properties":{"osm_id":"7606282121","name":"Scotmid","other":{"addr:city":"Blackburn","addr:postcode":"EH47 7LH","brand":"Scotmid","brand:wikidata":"Q7435719","brand:wikipedia":"en:Scotmid","shop":"supermarket"}}, "geometry":{"type":"Point","coordinates":[-3.62343,55.87437 ]}},
{ "type":"Feature","properties":{"osm_id":"9422954580","name":"Scotmid","other":{"addr:city":"Bathgate","addr:housenumber":"28","addr:postcode":"EH48 2AG","addr:street":"Glasgow Road","brand":"Scotmid","brand:wikidata":"Q7435719","brand:wikipedia":"en:Scotmid","shop":"supermarket"}}, "geometry":{"type":"Point","coordinates":[-3.65052,55.90167 ]}},
{ "type":"Feature","properties":{"osm_id":"24439530","highway":"footway","z_order": 0 }, "geometry":{"type":"LineString","coordinates":[[-3.46706,55.99415],[-3.46719,55.99461],[-3.46731,55.99511],[-3.46757,55.99614],[-3.4676,55.99626],[-3.46777,55.9969],[-3.46783,55.99711]]}},
{ "type":"Feature","properties":{"osm_way_id":"41913380","name":"Lidl","building":"yes","shop":"supermarket","other":{"addr:city":"Livingston","addr:postcode":"EH54 7DN","addr:street":"Alderstone Road","brand":"Lidl","brand:wikidata":"Q151954"}}, "geometry":{"type":"Polygon","coordinates":[[[ -3.52465,55.88628],[-3.52546,55.88627],[-3.52546,55.88623],[-3.52573,55.88623],[-3.52573,55.88654],[-3.52454,55.88654],[-3.52453,55.8864],[-3.52466,55.8864],[-3.52465,55.88628]] ]}},
{ "type":"Feature","properties":{"osm_way_id":"43997141","name":"Aldi","building":"yes","shop":"supermarket","other":{"brand":"ALDI","brand:wikidata":"Q41171672","brand:wikipedia":"en:Aldi","wheelchair":"limited"}}, "geometry":{"type":"Polygon","coordinates":[[[ -3.51992,55.88027],[-3.51948,55.88039],[-3.51938,55.88026],[-3.51945,55.88025],[-3.51916,55.87989],[-3.51934,55.87985],[-3.51931,55.87981],[-3.51951,55.87976],[-3.51992,55.88027]] ]}},
{ "type":"Feature","properties":{"osm_way_id":"44000110","name":"Asda","building":"supermarket","shop":"supermarket","other":{"addr:city":"Livingston","addr:country":"GB","addr:postcode":"EH54 6NB","addr:street":"Almondvale South Road","addr:suburb":"Almondvale","brand":"Asda","brand:wikidata":"Q297410","brand:wikipedia":"en:Asda","contact:facebook":"https:\/\/www.facebook.com\/asda\/","contact:twitter":"@asda","contact:website":"https:\/\/storelocator.asda.com\/scotland\/livingston\/almondale-centre-almondvale-road-south","fhrs:id":"587758","operator":"Asda Stores Ltd","source:addr":"FHRS Open Data","wheelchair":"yes"}}, "geometry":{"type":"Polygon","coordinates":[[[ -3.50793,55.88564],[-3.50737,55.88492],[-3.50805,55.88475],[-3.5079,55.88457],[-3.50905,55.88429],[-3.50919,55.88446],[-3.50994,55.88428],[-3.51026,55.88468],[-3.51062,55.88513],[-3.51067,55.88519],[-3.51032,55.88528],[-3.51028,55.88522],[-3.51011,55.88526],[-3.50983,55.88532],[-3.50977,55.88525],[-3.50949,55.88531],[-3.50944,55.88525],[-3.50839,55.88551],[-3.50851,55.88566],[-3.50826,55.88572],[-3.50815,55.88558],[-3.50793,55.88564]] ]}},
{ "type":"Feature","properties":{"osm_way_id":"44005228","name":"Sainsbury's","building":"yes","shop":"supermarket","other":{"addr:city":"Livingston","addr:postcode":"EH54 6XG","addr:street":"Almondvale South Retail","addr:suburb":"Almondvale","brand":"Sainsbury's","brand:wikidata":"Q152096","brand:wikipedia":"en:Sainsbury's","fhrs:id":"588235","source:addr":"FHRS Open Data","wheelchair":"yes"}}, "geometry":{"type":"Polygon","coordinates":[[[ -3.5252,55.87887],[-3.52427,55.87922],[-3.52374,55.87879],[-3.52367,55.87881],[-3.52352,55.87869],[-3.5236,55.87866],[-3.52308,55.87822],[-3.52352,55.87806],[-3.52338,55.87794],[-3.5237,55.87782],[-3.52377,55.87788],[-3.52394,55.87781],[-3.5252,55.87887]] ]}},
{ "type":"Feature","properties":{"osm_way_id":"44005231","name":"Morrisons","building":"yes","shop":"supermarket","other":{"addr:city":"Livingston","addr:postcode":"EH54 6GB","addr:street":"Alderstone Road","addr:suburb":"Almondvale","brand":"Morrisons","brand:wikidata":"Q922344","brand:wikipedia":"en:Morrisons","fhrs:id":"587876","source:addr":"FHRS Open Data"}}, "geometry":{"type":"Polygon","coordinates":[[[ -3.52788,55.87634],[-3.52773,55.8764],[-3.52778,55.87645],[-3.52722,55.87665],[-3.52725,55.87668],[-3.52699,55.87677],[-3.52698,55.87681],[-3.52689,55.87684],[-3.52678,55.87683],[-3.52672,55.87678],[-3.52673,55.87674],[-3.5267,55.87672],[-3.52634,55.87641],[-3.52633,55.87641],[-3.52636,55.8764],[-3.52616,55.87622],[-3.52597,55.8763],[-3.52578,55.87614],[-3.52565,55.87603],[-3.52635,55.87577],[-3.52641,55.87583],[-3.52685,55.87567],[-3.52696,55.87576],[-3.52709,55.87572],[-3.52716,55.87577],[-3.5272,55.87575],[-3.52788,55.87634]] ]}},
{ "type":"Feature","properties":{"osm_way_id":"55349460","name":"Morrisons","building":"retail","shop":"supermarket","other":{"addr:city":"Livingston","addr:housenumber":"6","addr:postcode":"EH54 8PT","addr:street":"Carmondean Centre Road","addr:suburb":"Carmondean","brand":"Morrisons","brand:wikidata":"Q922344","brand:wikipedia":"en:Morrisons","building:levels":"1","fhrs:id":"588608","opening_hours":"Mo-Sa 08:00-21:00; Su 09:00-20:00","source:addr":"FHRS Open Data","wheelchair":"yes"}}, "geometry":{"type":"Polygon","coordinates":[[[ -3.54572,55.90357],[-3.54522,55.90339],[-3.54516,55.90344],[-3.54488,55.90334],[-3.54534,55.90295],[-3.54612,55.90323],[-3.54599,55.90334],[-3.5458,55.9035],[-3.54572,55.90357]] ]}},
{ "type":"Feature","properties":{"osm_way_id":"69044620","name":"Scotmid","building":"yes","shop":"supermarket","other":{"addr:city":"Broxburn","addr:housenumber":"91-95","addr:postcode":"EH52 5EE","addr:street":"East Main Street","brand":"Scotmid","brand:wikidata":"Q7435719","brand:wikipedia":"en:Scotmid","fhrs:id":"848333"}}, "geometry":{"type":"Polygon","coordinates":[[[ -3.46799,55.93481],[-3.46758,55.93481],[-3.46757,55.93452],[-3.46756,55.93439],[-3.46798,55.93439],[-3.46799,55.93448],[-3.46799,55.93481]] ]}},
{ "type":"Feature","properties":{"osm_way_id":"98712994","name":"Tesco","building":"yes","shop":"supermarket","other":{"addr:city":"Bathgate","addr:postcode":"EH48 2ES","addr:street":"Blackburn Road","brand":"Tesco","brand:wikidata":"Q487494","brand:wikipedia":"en:Tesco","contact:website":"https:\/\/www.tesco.com\/store-locator\/bathgate\/blackburn-rd","fhrs:id":"587606","opening_hours":"24\/7"}}, "geometry":{"type":"Polygon","coordinates":[[[ -3.61958,55.89416],[-3.61869,55.89418],[-3.61868,55.89403],[-3.61839,55.89403],[-3.61835,55.89388],[-3.61834,55.89359],[-3.61844,55.89359],[-3.61846,55.89386],[-3.6186,55.89386],[-3.61858,55.89335],[-3.61866,55.89335],[-3.61866,55.89329],[-3.61884,55.89329],[-3.61884,55.89323],[-3.61956,55.89322],[-3.61956,55.89326],[-3.6196,55.89326],[-3.61961,55.89334],[-3.61955,55.89334],[-3.61956,55.89339],[-3.61963,55.89339],[-3.61965,55.8938],[-3.61957,55.8938],[-3.61958,55.89416]] ]}},
{ "type":"Feature","properties":{"osm_way_id":"125173549","name":"Scotmid","building":"yes","shop":"supermarket","other":{"addr:city":"West Calder","addr:housenumber":"22","addr:postcode":"EH55 8DR","addr:street":"Main Street","brand":"Scotmid","brand:wikidata":"Q7435719","brand:wikipedia":"en:Scotmid","fhrs:id":"587562","phone":"+44 1506 871444","source:addr":"FHRS Open Data"}}, "geometry":{"type":"Polygon","coordinates":[[[ -3.57192,55.85066],[-3.57236,55.85053],[-3.57254,55.85072],[-3.5725,55.85073],[-3.57255,55.85079],[-3.57216,55.85091],[-3.57192,55.85066]] ]}},
{ "type":"Feature","properties":{"osm_way_id":"136502172","name":"Sainsbury's","building":"yes","shop":"supermarket","other":{"brand":"Sainsbury's","brand:wikidata":"Q152096","brand:wikipedia":"en:Sainsbury's"}}, "geometry":{"type":"Polygon","coordinates":[[[ -3.62472,55.97676],[-3.62453,55.97675],[-3.62447,55.97674],[-3.62408,55.97673],[-3.6241,55.97656],[-3.62405,55.97656],[-3.62403,55.97656],[-3.624,55.97655],[-3.62399,55.97653],[-3.62399,55.97651],[-3.624,55.97649],[-3.62403,55.97647],[-3.62406,55.97646],[-3.62412,55.97647],[-3.62417,55.97613],[-3.62417,55.97612],[-3.62419,55.9761],[-3.62423,55.9761],[-3.62427,55.97611],[-3.62429,55.97613],[-3.62466,55.97615],[-3.62482,55.97615],[-3.62472,55.97676]] ]}},
{ "type":"Feature","properties":{"osm_way_id":"136502206","name":"Aldi","building":"retail","shop":"supermarket","other":{"addr:housenumber":"53","addr:postcode":"EH49 7PH","addr:street":"Falkirk Road","brand":"ALDI","brand:wikidata":"Q41171672","brand:wikipedia":"en:Aldi","building:levels":"1","opening_hours":"Mo-Sa 08:00-22:00, Su 09:00-20:00","roof:levels":"0","wheelchair":"yes"}}, "geometry":{"type":"Polygon","coordinates":[[[ -3.62156,55.97493],[-3.62145,55.97494],[-3.62146,55.97501],[-3.62114,55.97503],[-3.62105,55.9745],[-3.62149,55.97447],[-3.62151,55.97458],[-3.62158,55.97458],[-3.6216,55.97469],[-3.62152,55.97469],[-3.62156,55.97493]] ]}},
{ "type":"Feature","properties":{"osm_way_id":"209064150","name":"Tesco","building":"yes","shop":"supermarket","other":{"addr:city":"Linlithgow","addr:housename":"Regent Centre","addr:housenumber":"2-6","addr:postcode":"EH49 7HU","addr:street":"Blackness Road","brand":"Tesco","brand:wikidata":"Q487494","brand:wikipedia":"en:Tesco","fhrs:id":"587922","opening_hours":"Mo-Sa 07:00-22:00, Su 08:00-20:00","website":"https:\/\/www.tesco.com\/store-locator\/linlithgow\/4-regent-centre"}}, "geometry":{"type":"Polygon","coordinates":[[[ -3.59577,55.97721],[-3.59576,55.97722],[-3.59566,55.97724],[-3.59545,55.97728],[-3.5954,55.97729],[-3.59536,55.9773],[-3.59538,55.97734],[-3.59517,55.97738],[-3.5951,55.97725],[-3.59518,55.97724],[-3.59511,55.97712],[-3.59507,55.97704],[-3.59501,55.97695],[-3.595,55.97694],[-3.59514,55.9769],[-3.59512,55.97687],[-3.59516,55.97686],[-3.59514,55.97683],[-3.59528,55.9768],[-3.5957,55.97683],[-3.59578,55.97686],[-3.5959,55.97707],[-3.59587,55.97712],[-3.59576,55.97714],[-3.59578,55.97718],[-3.59579,55.97719],[-3.59579,55.9772],[-3.59577,55.97721]] ]}},
{ "type":"Feature","properties":{"osm_way_id":"211900182","name":"Aldi","building":"yes","shop":"supermarket","other":{"addr:housenumber":"4","addr:postcode":"EH48 1TP","addr:street":"Gardners Lane","brand":"ALDI","brand:wikidata":"Q41171672","brand:wikipedia":"en:Aldi"}}, "geometry":{"type":"Polygon","coordinates":[[[ -3.64606,55.90121],[-3.64582,55.90128],[-3.64586,55.90132],[-3.64565,55.90139],[-3.64519,55.90094],[-3.64565,55.9008],[-3.64606,55.90121]] ]}},
{ "type":"Feature","properties":{"osm_way_id":"212499379","name":"co-operative","building":"yes","shop":"supermarket","other":{"opening_hours":"07:00-22:00"}}, "geometry":{"type":"Polygon","coordinates":[[[ -3.525,55.89339],[-3.5251,55.8935],[-3.52463,55.89364],[-3.52453,55.89353],[-3.525,55.89339]] ]}},
{ "type":"Feature","properties":{"osm_way_id":"217798483","name":"co-operative food","building":"commercial","shop":"supermarket"},"geometry":{"type":"Polygon","coordinates":[[[ -3.49656,55.8973],[-3.49649,55.89722],[-3.49656,55.8972],[-3.49643,55.89707],[-3.49687,55.89694],[-3.49699,55.89707],[-3.49702,55.89706],[-3.49705,55.89705],[-3.49712,55.89713],[-3.49708,55.89712],[-3.49656,55.8973]] ]}},
{ "type":"Feature","properties":{"osm_way_id":"269859202","name":"Morrisons","building":"yes","shop":"supermarket","other":{"addr:city":"Bathgate","addr:housenumber":"2","addr:postcode":"EH48 2SS","addr:street":"Linkston Way","brand":"Morrisons","brand:wikidata":"Q922344","brand:wikipedia":"en:Morrisons","fhrs:id":"588275","opening_hours":"Mo-Sa 08:00-22:00; Su 09:00-20:00","operator":"Morrisons","website":"https:\/\/my.morrisons.com\/storefinder\/409","wheelchair":"yes"}}, "geometry":{"type":"Polygon","coordinates":[[[ -3.64357,55.89701],[-3.64334,55.89645],[-3.64387,55.89638],[-3.64381,55.89625],[-3.64404,55.89622],[-3.644,55.89611],[-3.64423,55.89608],[-3.64424,55.89611],[-3.6443,55.8961],[-3.64459,55.89681],[-3.64465,55.8968],[-3.64467,55.89686],[-3.64474,55.89685],[-3.64477,55.89692],[-3.64453,55.89695],[-3.6445,55.89689],[-3.64357,55.89701]] ]}},
{ "type":"Feature","properties":{"osm_way_id":"276103928","name":"Asda","building":"yes","shop":"supermarket","other":{"addr:city":"Armadale","addr:country":"GB","addr:postcode":"EH48 3PR","addr:street":"Station Road","brand":"Asda","brand:wikidata":"Q297410","brand:wikipedia":"en:Asda","contact:facebook":"https:\/\/www.facebook.com\/asda\/","contact:twitter":"@asda","contact:website":"https:\/\/storelocator.asda.com\/scotland\/armadale\/station-road","fhrs:id":"588444","not:addr:postcode":"EH48 2JS","opening_hours":"Mo-Su 07:00-23:00","operator":"Asda Stores Ltd","source:addr:postcode":"code-point_open"}}, "geometry":{"type":"Polygon","coordinates":[[[ -3.6911,55.88651],[-3.6904,55.88687],[-3.69037,55.88689],[-3.68992,55.88662],[-3.68985,55.88666],[-3.68969,55.88656],[-3.6903,55.88625],[-3.69049,55.88614],[-3.6911,55.88651]] ]}},
{ "type":"Feature","properties":{"osm_way_id":"328809880","name":"Scotmid","building":"yes","shop":"supermarket","other":{"brand":"Scotmid","brand:wikidata":"Q7435719","brand:wikipedia":"en:Scotmid","building:levels":"2"}}, "geometry":{"type":"Polygon","coordinates":[[[ -3.46253,55.89561],[-3.46265,55.89554],[-3.46277,55.8956],[-3.46253,55.89575],[-3.46242,55.8957],[-3.46222,55.8956],[-3.46234,55.89552],[-3.46253,55.89561]] ]}},
{ "type":"Feature","properties":{"osm_way_id":"365396486","name":"Scotmid","building":"yes","shop":"supermarket","other":{"addr:city":"Polbeth","addr:housenumber":"2A","addr:postcode":"EH55 8SR","addr:street":"Polbeth Road","brand":"Scotmid","brand:wikidata":"Q7435719","brand:wikipedia":"en:Scotmid","opening_hours":"06:00-22:00"}}, "geometry":{"type":"Polygon","coordinates":[[[ -3.55442,55.85951],[-3.55417,55.85937],[-3.55432,55.85928],[-3.55457,55.85943],[-3.55442,55.85951]] ]}},
{ "type":"Feature","properties":{"osm_way_id":"372234791","name":"Day to Day","building":"yes","shop":"supermarket"},"geometry":{"type":"Polygon","coordinates":[[[ -3.64239,55.84455],[-3.64244,55.84465],[-3.64223,55.84468],[-3.64218,55.84459],[-3.64239,55.84455]] ]}},
{ "type":"Feature","properties":{"osm_way_id":"372578306","name":"Lidl","building":"commercial","shop":"supermarket","other":{"addr:city":"Whitburn","addr:housenumber":"23","addr:postcode":"EH47 8HB","addr:street":"Longridge Road","brand":"Lidl","brand:wikidata":"Q151954","brand:wikipedia":"en:Lidl","fhrs:id":"587605","source:addr":"FHRS Open Data"}}, "geometry":{"type":"Polygon","coordinates":[[[ -3.68758,55.86242],[-3.68742,55.86184],[-3.68775,55.86181],[-3.68775,55.8618],[-3.68794,55.86178],[-3.68809,55.86234],[-3.68801,55.86235],[-3.68802,55.86238],[-3.68758,55.86242]] ]}},
{ "type":"Feature","properties":{"osm_way_id":"387411841","name":"Scotmid","building":"yes","shop":"supermarket","other":{"addr:city":"Fauldhouse","addr:housenumber":"2","addr:postcode":"EH47 9JA","addr:street":"Main Street","brand":"Scotmid","brand:wikidata":"Q7435719","brand:wikipedia":"en:Scotmid","opening_hours":"Mo-Su 07:00-22:00"}}, "geometry":{"type":"Polygon","coordinates":[[[ -3.70581,55.82873],[-3.70561,55.82862],[-3.70597,55.82841],[-3.70618,55.82852],[-3.70581,55.82873]] ]}},
{ "type":"Feature","properties":{"osm_way_id":"461223650","name":"Scotmid","building":"yes","shop":"supermarket","other":{"brand":"Scotmid","brand:wikidata":"Q7435719","brand:wikipedia":"en:Scotmid"}}, "geometry":{"type":"Polygon","coordinates":[[[ -3.70145,55.89907],[-3.70107,55.89912],[-3.70093,55.89884],[-3.70089,55.89875],[-3.70133,55.89869],[-3.70135,55.89875],[-3.70132,55.89876],[-3.70133,55.89879],[-3.70145,55.89907]] ]}},
{ "type":"Feature","properties":{"osm_way_id":"493747780","name":"Co-op","building":"retail","shop":"supermarket","other":{"addr:housenumber":"25","addr:street":"West Main Street"}}, "geometry":{"type":"Polygon","coordinates":[[[ -3.68621,55.86638],[-3.68591,55.86643],[-3.68584,55.8663],[-3.68579,55.86619],[-3.68609,55.86614],[-3.68621,55.86638]] ]}},
{ "type":"Feature","properties":{"osm_way_id":"510967913","name":"Aldi","building":"yes","shop":"supermarket","other":{"brand":"ALDI","brand:wikidata":"Q41171672","brand:wikipedia":"en:Aldi"}}, "geometry":{"type":"Polygon","coordinates":[[[ -3.6874,55.86273],[-3.68637,55.86275],[-3.68636,55.86244],[-3.68674,55.86244],[-3.68674,55.86247],[-3.68729,55.86246],[-3.6873,55.86264],[-3.68739,55.86264],[-3.6874,55.86273]] ]}},
{ "type":"Feature","properties":{"osm_way_id":"785900284","landuse":"meadow","other":{"meadow":"pasture"}}, "geometry":{"type":"Polygon","coordinates":[[[ -3.54021,55.94732],[-3.53996,55.94731],[-3.53955,55.94729],[-3.5393,55.94727],[-3.53908,55.94723],[-3.53799,55.94696],[-3.53788,55.94695],[-3.53781,55.94632],[-3.53777,55.94573],[-3.53777,55.94529],[-3.5387,55.94533],[-3.53903,55.94532],[-3.53921,55.94532],[-3.54017,55.94528],[-3.54021,55.94732]] ]}},
{ "type":"Feature","properties":{"osm_way_id":"817223947","name":"Lidl","building":"yes","shop":"supermarket","other":{"addr:city":"Bathgate","addr:country":"GB","addr:housenumber":"55","addr:postcode":"EH48 1HE","addr:street":"Whitburn Road","brand":"Lidl","brand:wikidata":"Q151954","brand:wikipedia":"en:Lidl","fhrs:id":"1194167","opening_hours":"Mo-Su 08:00-21:00","opening_hours:covid19":"same","operator":"Lidl"}}, "geometry":{"type":"Polygon","coordinates":[[[ -3.64507,55.89971],[-3.64528,55.89992],[-3.64445,55.90018],[-3.64424,55.89996],[-3.64507,55.89971]] ]}},
{ "type":"Feature","properties":{"osm_way_id":"867458690","name":"Aldi","building":"retail","shop":"supermarket","other":{"brand":"ALDI","brand:wikidata":"Q41171672","brand:wikipedia":"en:Aldi","building:levels":"1","contact:website":"https:\/\/www.aldi.co.uk\/store\/s-uk-E1339","opening_hours":"Mo-Sa 08:00-22:00; Su 09:00-20:00","start_date":"2020-11-05"}}, "geometry":{"type":"Polygon","coordinates":[[[ -3.51645,55.90607],[-3.51606,55.90561],[-3.51655,55.90548],[-3.51694,55.90594],[-3.51645,55.90607]] ]}},
{ "type":"Feature","properties":{"osm_way_id":"937827590","name":"Lidl","building":"yes","shop":"supermarket","other":{"addr:country":"GB","addr:housenumber":"157","addr:postcode":"EH52 5AS","addr:street":"East Main Street","brand":"Lidl","brand:wikidata":"Q151954","brand:wikipedia":"en:Lidl","fhrs:id":"1345025"}}, "geometry":{"type":"Polygon","coordinates":[[[ -3.45724,55.93532],[-3.45645,55.93535],[-3.45638,55.93468],[-3.45718,55.93465],[-3.45724,55.93532]] ]}}
]
}
