{
"type": "FeatureCollection",
"features": [
{ "type":"Feature","properties":{"osm_id":"1260661380","name":"Co-Op","other":{"addr:housenumber":"442","addr:postcode":"WA8 7XP","addr:street":"Liverpool Road","fhrs:id":"79368","shop":"supermarket","source:addr":"FHRS Open Data","wheelchair":"yes"}}, "geometry":{"type":"Point","coordinates":[-2.77286,53.3714 ]}},
{ "type":"Feature","properties":{"osm_id":"5412272985","name":"Co-op","other":{"shop":"supermarket"}}, "geometry":{"type":"Point","coordinates":[-2.77163,53.35189 ]}},
{ "type":"Feature","properties":{"osm_way_id":"24960899","name":"Morrisons","building":"yes","shop":"supermarket","other":{"addr:postcode":"WA8 6UA","addr:street":"Green Oaks Way","brand":"Morrisons","brand:wikidata":"Q922344","brand:wikipedia":"en:Morrisons","fhrs:id":"113812","source:addr":"FHRS Open Data","wheelchair":"yes"}}, "geometry":{"type":"MultiPolygon","coordinates":[[[[-2.7241,53.36799],[-2.72437,53.36751],[-2.72448,53.3673],[-2.72384,53.36717],[-2.72376,53.36734],[-2.72336,53.36727],[-2.72304,53.36786],[-2.72335,53.36792],[-2.72335,53.36785],[-2.72366,53.36791],[-2.7241,53.36799]]]]}},
{ "type":"Feature","properties":{"osm_way_id":"26331898","name":"Co-Op","shop":"supermarket","other":{"addr:housenumber":"231","addr:postcode":"WA8 7HL","addr:street":"Liverpool Road","fhrs:id":"135158","source:addr":"FHRS Open Data"}}, "geometry":{"type":"MultiPolygon","coordinates":[[[[-2.75681,53.37076],[-2.75669,53.37048],[-2.75624,53.37041],[-2.756,53.37071],[-2.75603,53.37078],[-2.75605,53.3708],[-2.75613,53.37082],[-2.75624,53.37084],[-2.75681,53.37076]]]]}},
{ "type":"Feature","properties":{"osm_way_id":"26539943","name":"Asda","building":"yes","shop":"supermarket","other":{"addr:city":"Widnes","addr:country":"GB","addr:postcode":"WA8 6AH","addr:street":"Widnes Road","brand":"Asda","brand:wikidata":"Q297410","brand:wikipedia":"en:Asda","contact:website":"https:\/\/storelocator.asda.com\/north-west\/widnes\/widnes-road","fhrs:id":"130744","operator":"Asda Stores Ltd","wheelchair":"yes"}}, "geometry":{"type":"MultiPolygon","coordinates":[[[[-2.73127,53.36551],[-2.73098,53.36557],[-2.73082,53.36555],[-2.7308,53.36562],[-2.73043,53.36469],[-2.7315,53.36481],[-2.73163,53.36481],[-2.73158,53.36515],[-2.73142,53.36523],[-2.73135,53.36539],[-2.73129,53.36538],[-2.73127,53.36551]]]]}},
{ "type":"Feature","properties":{"osm_way_id":"27998647","name":"ALDI","building":"yes","shop":"supermarket","other":{"addr:city":"Runcorn","addr:postcode":"WA7 2FQ","brand":"ALDI","brand:wikidata":"Q41171672","brand:wikipedia":"en:Aldi","fhrs:id":"119621","operator":"Aldi","source:addr":"FHRS Open Data","wheelchair":"yes"}}, "geometry":{"type":"MultiPolygon","coordinates":[[[[-2.70136,53.32688],[-2.70102,53.32677],[-2.70137,53.32638],[-2.70154,53.32644],[-2.70157,53.3264],[-2.70174,53.32646],[-2.70136,53.32688]]]]}},
{ "type":"Feature","properties":{"osm_way_id":"27998702","name":"Asda","building":"yes","shop":"supermarket","other":{"addr:city":"Runcorn","addr:country":"GB","addr:postcode":"WA7 2PY","addr:street":"West Lane","brand":"Asda","brand:wikidata":"Q297410","brand:wikipedia":"en:Asda","contact:website":"https:\/\/storelocator.asda.com\/north-west\/runcorn\/west-lane","fhrs:id":"93266","operator":"Asda Stores Ltd","source:addr":"FHRS Open Data","wheelchair":"yes"}}, "geometry":{"type":"MultiPolygon","coordinates":[[[[-2.70244,53.32903],[-2.70207,53.3289],[-2.7021,53.32887],[-2.70193,53.32881],[-2.70196,53.3287],[-2.70124,53.32847],[-2.70059,53.32916],[-2.7007,53.3292],[-2.70056,53.32934],[-2.70051,53.32933],[-2.7004,53.32944],[-2.70099,53.32963],[-2.701,53.32961],[-2.70117,53.32967],[-2.70118,53.32966],[-2.70136,53.32972],[-2.70174,53.32931],[-2.7018,53.32932],[-2.70183,53.3293],[-2.70186,53.32931],[-2.7019,53.32926],[-2.70206,53.32931],[-2.70216,53.3292],[-2.70225,53.32923],[-2.70244,53.32903]]]]}},
{ "type":"Feature","properties":{"osm_way_id":"28537190","name":"Co-op Food","building":"yes","shop":"supermarket","other":{"addr:city":"Runcorn","addr:postcode":"WA7 1NE","addr:street":"Granville Street","brand":"Co-op Food","brand:wikidata":"Q3277439","brand:wikipedia":"en:Co-op Food","fhrs:id":"129921"}}, "geometry":{"type":"MultiPolygon","coordinates":[[[[-2.7345,53.34242],[-2.73436,53.3424],[-2.73435,53.34241],[-2.73366,53.34229],[-2.73368,53.34225],[-2.73361,53.34224],[-2.73367,53.3421],[-2.73364,53.34206],[-2.73381,53.342],[-2.73385,53.34204],[-2.73395,53.34205],[-2.73412,53.34208],[-2.73448,53.34214],[-2.73442,53.34229],[-2.73455,53.34231],[-2.7345,53.34242]]]]}},
{ "type":"Feature","properties":{"osm_way_id":"42258572","name":"ALDI","building":"yes","shop":"supermarket","other":{"addr:postcode":"WA8 6UF","addr:street":"Green Oaks Way","brand":"ALDI","brand:wikidata":"Q41171672","brand:wikipedia":"en:Aldi","fhrs:id":"118840","opening_hours":"Mo-Sa 08:00-22:00; Su 10:00-16:00","operator":"Aldi Stores"}}, "geometry":{"type":"MultiPolygon","coordinates":[[[[-2.72312,53.3656],[-2.72268,53.36549],[-2.72237,53.36592],[-2.72246,53.36594],[-2.7225,53.3659],[-2.72284,53.36598],[-2.72304,53.36571],[-2.72312,53.3656]]]]}},
{ "type":"Feature","properties":{"osm_way_id":"147608799","name":"Co-op Food","amenity":"post_office","building":"yes","shop":"supermarket","other":{"addr:city":"Runcorn","addr:postcode":"WA7 6ER","addr:street":"The Ridgeway","brand":"Co-op Food","brand:wikidata":"Q3277439","brand:wikipedia":"en:Co-op Food","fhrs:id":"83494","operator":"The Co-operative Group","operator:wikidata":"Q117202","operator:wikipedia":"en:The Co-operative Group"}}, "geometry":{"type":"MultiPolygon","coordinates":[[[[-2.66486,53.32373],[-2.66459,53.32353],[-2.66479,53.32343],[-2.66506,53.32364],[-2.66486,53.32373]]]]}},
{ "type":"Feature","properties":{"osm_way_id":"166437581","name":"Tesco Metro","building":"yes","shop":"supermarket","other":{"addr:city":"Berkhamsted","addr:housenumber":"160","addr:postcode":"HP4 3AP","addr:street":"High Street","brand":"Tesco Metro","brand:wikidata":"Q57551648","brand:wikipedia":"en:Tesco","designation":"Generic Building","fhrs:id":"202312","operator":"Tesco Stores Ltd"}}, "geometry":{"type":"MultiPolygon","coordinates":[[[[-0.56319,51.76062],[-0.56307,51.76058],[-0.563,51.76055],[-0.56293,51.76053],[-0.56314,51.76029],[-0.5632,51.76031],[-0.56323,51.76027],[-0.56326,51.76024],[-0.56332,51.76017],[-0.56352,51.76023],[-0.56319,51.76062]]]]}},
{ "type":"Feature","properties":{"osm_way_id":"265382913","name":"Lidl","building":"yes","shop":"supermarket","other":{"addr:city":"Runcorn","addr:postcode":"WA7 2PY","addr:street":"Edwards Road","brand":"Lidl","brand:wikidata":"Q151954","brand:wikipedia":"en:Lidl","fhrs:id":"621685","source:addr":"FHRS Open Data"}}, "geometry":{"type":"MultiPolygon","coordinates":[[[[-2.70044,53.32966],[-2.70037,53.32974],[-2.70029,53.32972],[-2.70016,53.32986],[-2.69993,53.32979],[-2.69989,53.32983],[-2.69963,53.32975],[-2.69967,53.3297],[-2.69949,53.32965],[-2.69948,53.32966],[-2.69941,53.32964],[-2.69962,53.3294],[-2.70044,53.32966]]]]}},
{ "type":"Feature","properties":{"osm_way_id":"327000706","name":"Tesco Extra","building":"yes","shop":"supermarket","other":{"addr:city":"Widnes","addr:housename":"Ashley Retail Park","addr:postcode":"WA8 7YT","addr:street":"Lugsdale Road","brand":"Tesco Extra","brand:wikidata":"Q25172225","brand:wikipedia":"en:Tesco Extra","operator":"Tesco"}}, "geometry":{"type":"MultiPolygon","coordinates":[[[[-2.72439,53.36473],[-2.72418,53.36466],[-2.72429,53.36454],[-2.72363,53.36432],[-2.72403,53.36383],[-2.72413,53.36361],[-2.72432,53.36338],[-2.72454,53.36324],[-2.7255,53.36358],[-2.72439,53.36473]]]]}},
{ "type":"Feature","properties":{"osm_way_id":"660441069","name":"ALDI","building":"yes","shop":"supermarket","other":{"brand":"ALDI","brand:wikidata":"Q41171672","brand:wikipedia":"en:Aldi"}}, "geometry":{"type":"MultiPolygon","coordinates":[[[[-2.67164,53.31527],[-2.67165,53.3158],[-2.67129,53.3158],[-2.67129,53.31581],[-2.67129,53.31581],[-2.67115,53.31581],[-2.67115,53.31581],[-2.67114,53.31556],[-2.67106,53.31556],[-2.67105,53.31527],[-2.67161,53.31526],[-2.67161,53.31527],[-2.67164,53.31527]]]]}},
{ "type":"Feature","properties":{"osm_way_id":"796445181","name":"Aldi","building":"yes","shop":"supermarket","other":{"brand":"ALDI","brand:wikidata":"Q41171672","brand:wikipedia":"en:Aldi","building:levels":"1"}}, "geometry":{"type":"MultiPolygon","coordinates":[[[[-2.71986,53.38432],[-2.71952,53.38386],[-2.71919,53.38394],[-2.71915,53.38389],[-2.71898,53.38393],[-2.71938,53.38447],[-2.71952,53.38443],[-2.7195,53.38441],[-2.71986,53.38432]]]]}}
]
}
