{
"type": "FeatureCollection",
"features": [
{ "type":"Feature","properties":{"osm_id":"4881252218","name":"Co-op Food","other":{"addr:city":"Waterlooville","addr:country":"GB","addr:postcode":"PO7 6NN","addr:street":"Hambledon Road","addr:village":"Denmead","brand":"Co-op Food","brand:wikidata":"Q3277439","brand:wikipedia":"en:Co-op Food","operator":"The Co-operative Group","operator:wikidata":"Q117202","operator:wikipedia":"en:The Co-operative Group","phone":"+44 2392 255925","shop":"supermarket"}}, "geometry":{"type":"Point","coordinates":[-1.06615,50.90442 ]}},
{ "type":"Feature","properties":{"osm_id":"5406351623","other":{"access":"yes","amenity":"bicycle_parking","bicycle_parking":"stands","capacity":"10","covered":"yes","operator":"ALDI"}}, "geometry":{"type":"Point","coordinates":[-1.33712,51.07473 ]}},
{ "type":"Feature","properties":{"osm_id":"7855418824","name":"Tesco Express","other":{"addr:city":"Alresford","addr:country":"GB","addr:housenumber":"14","addr:postcode":"SO24 9AQ","addr:street":"Broad Street","brand":"Tesco Express","brand:wikidata":"Q98456772","contact:website":"https:\/\/www.tesco.com\/store-locator\/alresford\/14-broad-st","shop":"supermarket"}}, "geometry":{"type":"Point","coordinates":[-1.16114,51.09096 ]}},
{ "type":"Feature","properties":{"osm_way_id":"27923519","name":"Tesco Whiteley","building":"retail","shop":"supermarket","other":{"addr:city":"Fareham","addr:country":"GB","addr:county":"Hampshire","addr:parentstreet":"Whiteley Way","addr:place":"Whiteley Shopping Centre","addr:postcode":"PO15 7LL","addr:suburb":"Whiteley","brand":"Tesco","brand:wikidata":"Q487494","brand:wikipedia":"en:Tesco","layer":"1","opening_hours":"Mo-Sa 07:00-23:00; Su 10:00-16:00","operator":"Tesco","phone":"+44 345 6779735","ref":"59","store_ref":"3425"}}, "geometry":{"type":"MultiPolygon","coordinates":[[[[-1.24552,50.88671],[-1.24583,50.88659],[-1.2459,50.88667],[-1.2464,50.88648],[-1.24633,50.8864],[-1.24634,50.8864],[-1.24589,50.88592],[-1.24556,50.88604],[-1.24557,50.88605],[-1.24572,50.88621],[-1.24531,50.88636],[-1.24525,50.88629],[-1.24517,50.88632],[-1.24514,50.88634],[-1.24521,50.88641],[-1.24523,50.8864],[-1.24552,50.88671]]]]}},
{ "type":"Feature","properties":{"osm_way_id":"60681125","name":"Co-op Food","building":"yes","shop":"supermarket","other":{"addr:city":"Waterlooville","addr:postcode":"PO7 6NU","addr:street":"Hambledon Road","addr:village":"Denmead","brand":"Co-op Food","brand:wikidata":"Q3277439","brand:wikipedia":"en:Co-op Food","fhrs:id":"11082","opening_hours":"Mo-Sa 06:00-22:00; Su 07:00-22:00","operator":"The Co-operative Group","operator:wikidata":"Q117202","operator:wikipedia":"en:The Co-operative Group","source:operator":"FHRS Open Data","source:postcode":"FHRS Open Data"}}, "geometry":{"type":"MultiPolygon","coordinates":[[[[-1.06558,50.90385],[-1.06556,50.90374],[-1.06526,50.90376],[-1.06528,50.9039],[-1.06547,50.90389],[-1.0655,50.9041],[-1.06562,50.90409],[-1.06558,50.90385]]]]}},
{ "type":"Feature","properties":{"osm_way_id":"98887657","name":"Sainsbury's","building":"retail","shop":"supermarket","other":{"addr:city":"Southampton","addr:country":"GB","addr:postcode":"SO32 1BA","addr:street":"Winchester Road","addr:town":"Bishopâ€™s Waltham","brand":"Sainsbury's","brand:wikidata":"Q152096","brand:wikipedia":"en:Sainsbury's","fhrs:id":"1320533","opening_hours":"Mo-Sa 08:00-22:00; Su 10:00-16:00","website":"https:\/\/stores.sainsburys.co.uk\/6020\/bishops-waltham-winchester-road-local","wheelchair":"yes"}}, "geometry":{"type":"MultiPolygon","coordinates":[[[[-1.21503,50.95406],[-1.2151,50.95403],[-1.21517,50.95403],[-1.21529,50.9541],[-1.21518,50.95418],[-1.21523,50.95421],[-1.2153,50.95421],[-1.21536,50.95418],[-1.21547,50.95424],[-1.21541,50.95428],[-1.21546,50.95432],[-1.21547,50.95435],[-1.21539,50.95441],[-1.21532,50.95441],[-1.21506,50.95425],[-1.21502,50.95427],[-1.21485,50.95418],[-1.21486,50.95417],[-1.21479,50.95413],[-1.21479,50.95406],[-1.21486,50.95402],[-1.21496,50.95402],[-1.21503,50.95406]]]]}},
{ "type":"Feature","properties":{"osm_way_id":"191271253","name":"The Co-operative Food","building":"yes","shop":"supermarket","other":{"addr:city":"Alresford","wheelchair":"yes","addr:street":"West Street","addr:country":"GB","addr:postcode":"SO24 9BT","addr:housenumber":"47"}}, "geometry":{"type":"MultiPolygon","coordinates":[[[[-1.16407,51.08988],[-1.16402,51.08978],[-1.16398,51.08979],[-1.16395,51.08974],[-1.16378,51.08978],[-1.16378,51.08977],[-1.16372,51.08978],[-1.16381,51.08993],[-1.16407,51.08988]]]]}},
{ "type":"Feature","properties":{"osm_way_id":"192705287","name":"Tesco Extra","building":"yes","shop":"supermarket","other":{"addr:city":"Winchester","addr:country":"GB","addr:postcode":"SO23 7RS","addr:street":"Easton Lane","brand":"Tesco Extra","brand:wikidata":"Q25172225","toilets:wheelchair":"yes","wheelchair":"yes"}}, "geometry":{"type":"MultiPolygon","coordinates":[[[[-1.2943,51.06888],[-1.29372,51.06882],[-1.29372,51.06878],[-1.29297,51.06871],[-1.29298,51.06868],[-1.29289,51.06867],[-1.29297,51.06833],[-1.29302,51.06833],[-1.29312,51.06786],[-1.29328,51.06788],[-1.29328,51.06783],[-1.29338,51.06784],[-1.29341,51.06772],[-1.29345,51.06772],[-1.29348,51.06756],[-1.29356,51.06751],[-1.29365,51.06753],[-1.29362,51.06765],[-1.29384,51.06768],[-1.29383,51.06772],[-1.29388,51.06773],[-1.29385,51.06784],[-1.29392,51.06785],[-1.29395,51.06791],[-1.29394,51.06798],[-1.29359,51.06795],[-1.29358,51.06801],[-1.29398,51.06804],[-1.29431,51.06853],[-1.29428,51.06869],[-1.29433,51.0687],[-1.2943,51.06888]]]]}},
{ "type":"Feature","properties":{"osm_way_id":"192705512","name":"Sainsbury's","building":"yes","shop":"supermarket","other":{"brand":"Sainsbury's","alt_name":"Sainsbury's Badger Farm Superstore","addr:city":"Winchester","addr:street":"Badger Farm Road","addr:country":"GB","addr:postcode":"SO22 4QB","brand:wikidata":"Q152096","brand:wikipedia":"en:Sainsbury's"}}, "geometry":{"type":"MultiPolygon","coordinates":[[[[-1.34085,51.04592],[-1.34091,51.04565],[-1.34077,51.04564],[-1.3408,51.0455],[-1.33961,51.04539],[-1.33945,51.04608],[-1.3396,51.04609],[-1.33959,51.04615],[-1.33964,51.04615],[-1.34004,51.04619],[-1.34003,51.04623],[-1.34071,51.04629],[-1.34072,51.04624],[-1.34075,51.04625],[-1.34076,51.04621],[-1.34096,51.04623],[-1.34103,51.04593],[-1.34085,51.04592]]]]}},
{ "type":"Feature","properties":{"osm_way_id":"192705722","name":"Waitrose","building":"retail","shop":"supermarket","other":{"addr:city":"Winchester","addr:country":"GB","addr:postcode":"SO22 6EL","addr:street":"Stockbridge Road","brand":"Waitrose","brand:wikidata":"Q771734","brand:wikipedia":"en:Waitrose","official_name":"Waitrose & Partners","operator":"Waitrose & Partners"}}, "geometry":{"type":"MultiPolygon","coordinates":[[[[-1.33696,51.07466],[-1.3364,51.07419],[-1.33699,51.07391],[-1.3371,51.07399],[-1.337,51.07404],[-1.33744,51.0744],[-1.33736,51.07444],[-1.33745,51.07451],[-1.33719,51.07462],[-1.3371,51.07464],[-1.33704,51.07466],[-1.33696,51.07466]]]]}},
{ "type":"Feature","properties":{"osm_way_id":"206008453","name":"Sainsbury's","building":"yes","shop":"supermarket","other":{"brand":"Sainsbury's","branch":"Winchester","operator":"Sainsbury's Supermarkets Ltd","addr:city":"Winchester","addr:street":"Middle Brook Street","addr:country":"GB","addr:postcode":"SO23 8AQ","opening_hours":"Mo-Sa 07:00-20:00; Su 11:00-17:00","brand:wikidata":"Q152096","brand:wikipedia":"en:Sainsbury's","addr:housenumber":"2"}}, "geometry":{"type":"MultiPolygon","coordinates":[[[[-1.31199,51.06238],[-1.31209,51.0622],[-1.31198,51.06218],[-1.31191,51.06216],[-1.31181,51.06214],[-1.31177,51.06213],[-1.31167,51.06211],[-1.31158,51.06209],[-1.31146,51.06206],[-1.31145,51.06208],[-1.31136,51.06225],[-1.31199,51.06238]]]]}},
{ "type":"Feature","properties":{"osm_way_id":"206008948","name":"Co-op Food","building":"retail","shop":"supermarket","other":{"addr:city":"Winchester","addr:country":"GB","addr:housenumber":"16","addr:postcode":"SO23 8SD","addr:street":"City Road","brand":"Co-op Food","brand:wikidata":"Q3277439","brand:wikipedia":"en:Co-op Food","contact:website":"https:\/\/stores.thesouthernco-operative.co.uk\/hampshire\/winchester\/16-city-road.html","opening_hours":"Mo-Su 07:00-23:00","operator":"The Co-operative Group","operator:wikidata":"Q117202","operator:wikipedia":"en:The Co-operative Group"}}, "geometry":{"type":"MultiPolygon","coordinates":[[[[-1.31747,51.06674],[-1.31744,51.06673],[-1.31742,51.06677],[-1.3172,51.06672],[-1.31724,51.06664],[-1.31717,51.06662],[-1.31718,51.06661],[-1.31721,51.06654],[-1.31722,51.06652],[-1.31746,51.06657],[-1.31744,51.0666],[-1.31754,51.06662],[-1.31752,51.06665],[-1.31747,51.06674]]]]}},
{ "type":"Feature","properties":{"osm_way_id":"233564866","name":"Nisa Local","building":"retail","shop":"supermarket","other":{"addr:city":"Winchester","addr:street":"Main Road","addr:country":"GB","addr:village":"Otterbourne","addr:postcode":"SO21 2EE","addr:housename":"Williams Garage"}}, "geometry":{"type":"MultiPolygon","coordinates":[[[[-1.34343,51.00853],[-1.34356,51.00828],[-1.34335,51.00823],[-1.34321,51.00849],[-1.34343,51.00853]]]]}},
{ "type":"Feature","properties":{"osm_way_id":"560602115","name":"ALDI","building":"retail","shop":"supermarket","other":{"addr:city":"Winchester","addr:housenumber":"2","addr:postcode":"SO22 5JQ","addr:street":"Burnett Close","branch":"2 Burnett Close","brand":"ALDI","brand:wikidata":"Q41171672","brand:wikipedia":"en:Aldi","opening_hours":"Mo-Sa 08:00-22:00; Su 10:00-16:00","operator":"Aldi Stores Limited","organic":"yes","payment:cards":"yes","payment:cash":"yes","website":"https:\/\/www.aldi.co.uk\/store\/s-uk-E0518"}}, "geometry":{"type":"MultiPolygon","coordinates":[[[[-1.33773,51.07499],[-1.3374,51.07473],[-1.33743,51.07472],[-1.33732,51.07463],[-1.33712,51.07473],[-1.33703,51.07477],[-1.33754,51.07517],[-1.33763,51.07512],[-1.33757,51.07507],[-1.33773,51.07499]]]]}},
{ "type":"Feature","properties":{"osm_way_id":"685429268","name":"Lidl","building":"yes","shop":"supermarket","other":{"addr:city":"Whiteley","addr:postcode":"PO15 7FN","addr:street":"Solent Way","brand":"Lidl","brand:wikidata":"Q151954","brand:wikipedia":"en:Lidl","opening_hours":"Mo-Sa 08:00-22:00; Su 10:00-16:00. Su open from 09:30 for browsing. Bank Holidays 08:00-20:00 (Early May, Spring and Summer)","toilets":"yes, at the front of store to the right of the entrance.","website":"https:\/\/www.lidl.co.uk\/about-us\/store-finder-opening-hours"}}, "geometry":{"type":"MultiPolygon","coordinates":[[[[-1.24966,50.87876],[-1.24975,50.87883],[-1.24994,50.87899],[-1.25073,50.87863],[-1.25051,50.87843],[-1.25045,50.87839],[-1.25004,50.87859],[-1.24966,50.87876]]]]}}
]
}
