{
"type": "FeatureCollection",
"features": [
{ "type":"Feature","properties":{"osm_id":"1797714138","name":"Home Bargains","other":{"addr:city":"Skegness","addr:country":"GB","addr:housename":"Hildreds Shopping Centre","addr:postcode":"PE25 3NU","fhrs:authority":"East Lindsey","fhrs:id":"157505","fhrs:local_authority_id":"EHFDI\/22272\/09","shop":"supermarket","source:addr":"FHRS Open Data"}}, "geometry":{"type":"Point","coordinates":[0.34007,53.14156 ]}},
{ "type":"Feature","properties":{"osm_id":"2406439529","name":"Nisa","other":{"shop":"supermarket"}}, "geometry":{"type":"Point","coordinates":[0.26146,53.34119 ]}},
{ "type":"Feature","properties":{"osm_id":"3664614650","name":"Lincolnshire Co-op","other":{"addr:city":"Horncastle","addr:country":"GB","addr:housenumber":"7","addr:postcode":"LN9 5HP","addr:street":"High Street","brand":"Lincolnshire Co-op","brand:wikidata":"Q6551231","brand:wikipedia":"en:Lincolnshire Co-operative","fhrs:authority":"East Lindsey","fhrs:id":"156255","fhrs:local_authority_id":"EHFDI\/02518\/08","opening_hours":"Mo-Su 07:00-22:00","operator":"Lincolnshire Co-operative Society","shop":"supermarket"}}, "geometry":{"type":"Point","coordinates":[-0.1153,53.20867 ]}},
{ "type":"Feature","properties":{"osm_id":"4131550206","name":"Lincolnshire Co-op","other":{"addr:city":"Wragby","addr:country":"GB","addr:postcode":"LN8 5ND","addr:street":"Lincoln Road","brand":"Lincolnshire Co-op","brand:wikidata":"Q6551231","brand:wikipedia":"en:Lincolnshire Co-operative","fhrs:authority":"East Lindsey","fhrs:id":"816643","fhrs:local_authority_id":"EHFDI\/05094\/15","shop":"supermarket"}}, "geometry":{"type":"Point","coordinates":[-0.30412,53.28713 ]}},
{ "type":"Feature","properties":{"osm_id":"5367950605","name":"M&S Simply Food","other":{"addr:city":"Skegness","addr:country":"GB","addr:postcode":"PE25 2RT","addr:street":"Burgh Road","addr:suburb":"Quora Retail Park","brand":"M&S Simply Food","brand:wikidata":"Q714491","fhrs:authority":"East Lindsey","fhrs:id":"1014902","fhrs:local_authority_id":"EHFDI\/07833\/17","shop":"supermarket"}}, "geometry":{"type":"Point","coordinates":[0.33291,53.15101 ]}},
{ "type":"Feature","properties":{"osm_id":"5367950606","name":"ALDI","other":{"addr:city":"Skegness","addr:country":"GB","addr:postcode":"PE25 2RT","addr:street":"Burgh Road","addr:suburb":"Quora Retail Park","brand":"ALDI","brand:wikidata":"Q41171672","brand:wikipedia":"en:Aldi","fhrs:id":"1012031","shop":"supermarket"}}, "geometry":{"type":"Point","coordinates":[0.33334,53.15107 ]}},
{ "type":"Feature","properties":{"osm_id":"8043410897","other":{"emergency":"defibrillator","indoor":"no","location":"outside Co-op supermarket, Church Street, Alford - under canopy almost opposite church hall"}}, "geometry":{"type":"Point","coordinates":[0.18153,53.26209 ]}},
{ "type":"Feature","properties":{"osm_id":"8043972965","name":"Spar","other":{"addr:city":"Skegness","addr:country":"GB","addr:housename":"North Shore Holiday Centre","addr:postcode":"PE25 1SL","addr:street":"Roman Bank","brand":"Spar","brand:wikidata":"Q610492","brand:wikipedia":"en:SPAR (retailer)","fhrs:authority":"East Lindsey","fhrs:id":"1137584","fhrs:local_authority_id":"EHFDI\/03489\/19","shop":"supermarket"}}, "geometry":{"type":"Point","coordinates":[0.3417,53.15567 ]}},
{ "type":"Feature","properties":{"osm_id":"8792704077","other":{"defibrillator:location":"On exterior wall of Co-op facing The Green and Sea Bank Road","emergency":"defibrillator"}}, "geometry":{"type":"Point","coordinates":[0.33795,53.22447 ]}},
{ "type":"Feature","properties":{"osm_id":"9062178379","name":"Heron Foods","other":{"addr:city":"Skegness","addr:housenumber":"43-45","addr:postcode":"PE25 3LL","addr:street":"Lumley Road","brand":"Heron Foods","brand:wikidata":"Q5743472","brand:wikipedia":"en:Heron Foods","fhrs:id":"1393762","shop":"supermarket","source:addr":"FHRS Open Data"}}, "geometry":{"type":"Point","coordinates":[0.33839,53.1433 ]}},
{ "type":"Feature","properties":{"osm_id":"9429651703","name":"Tesco","other":{"addr:city":"Mablethorpe","addr:country":"GB","addr:postcode":"LN12 1FN","addr:street":"Peter Chambers Way","brand":"Tesco","brand:wikidata":"Q487494","brand:wikipedia":"en:Tesco","contact:website":"https:\/\/www.tesco.com\/store-locator\/lincolnshire\/peter-chambers-way","shop":"supermarket"}}, "geometry":{"type":"Point","coordinates":[0.24868,53.34278 ]}},
{ "type":"Feature","properties":{"osm_way_id":"74328484","name":"Co-Operative Food","building":"yes","shop":"supermarket","other":{"addr:city":"Mablethorpe","addr:country":"GB","addr:postcode":"LN12 2HJ","addr:street":"Station Road","addr:village":"Sutton On Sea","fhrs:authority":"East Lindsey","fhrs:id":"1032092","fhrs:local_authority_id":"EHFDI\/00079\/18"}}, "geometry":{"type":"MultiPolygon","coordinates":[[[[0.2805,53.31136],[0.28078,53.31122],[0.28063,53.31111],[0.28033,53.31126],[0.2805,53.31136]]]]}},
{ "type":"Feature","properties":{"osm_way_id":"91911544","name":"The Co-operative","building":"yes","shop":"supermarket","other":{"addr:city":"Louth","addr:country":"GB","addr:postcode":"LN11 0LT","addr:street":"Northgate","alt_name":"The Co-operative Food","fhrs:authority":"East Lindsey","fhrs:id":"156401","fhrs:local_authority_id":"EHFDI\/03081\/08"}}, "geometry":{"type":"MultiPolygon","coordinates":[[[[-0.00465,53.36889],[-0.00403,53.36893],[-0.00402,53.36889],[-0.00382,53.3689],[-0.00376,53.36859],[-0.00379,53.36859],[-0.00438,53.36855],[-0.00437,53.3685],[-0.00466,53.36848],[-0.00469,53.36864],[-0.0046,53.36864],[-0.00465,53.36889]]]]}},
{ "type":"Feature","properties":{"osm_way_id":"95800925","name":"Co-op Food","building":"yes","shop":"supermarket","other":{"addr:city":"Mablethorpe","addr:country":"GB","addr:postcode":"LN12 2DU","addr:street":"Seacroft Road","brand":"Co-op Food","brand:wikidata":"Q3277439","brand:wikipedia":"en:Co-op Food","fhrs:authority":"East Lindsey","fhrs:id":"156882","fhrs:local_authority_id":"EHFDI\/06744\/08","operator":"The Co-operative Group"}}, "geometry":{"type":"MultiPolygon","coordinates":[[[[0.25979,53.33964],[0.26002,53.33972],[0.25983,53.33994],[0.26011,53.34003],[0.25977,53.34043],[0.25926,53.34027],[0.25943,53.34006],[0.25979,53.33964]]]]}},
{ "type":"Feature","properties":{"osm_way_id":"108457735","name":"Sainsbury's","building":"retail","shop":"supermarket","other":{"addr:city":"Woodhall Spa","addr:country":"GB","addr:postcode":"LN10 6TT","addr:street":"Tattershall Road","brand":"Sainsbury's","brand:wikidata":"Q152096","brand:wikipedia":"en:Sainsbury's","fhrs:authority":"East Lindsey","fhrs:id":"1211331","fhrs:local_authority_id":"EHFDI\/13180\/19","website":"https:\/\/stores.sainsburys.co.uk\/6216\/woodhall-spa-tattershall-road-local"}}, "geometry":{"type":"MultiPolygon","coordinates":[[[[-0.21871,53.15056],[-0.2185,53.15036],[-0.21813,53.1505],[-0.21825,53.15061],[-0.21828,53.15064],[-0.21824,53.15065],[-0.2183,53.15071],[-0.21856,53.15061],[-0.21871,53.15056]]]]}},
{ "type":"Feature","properties":{"osm_way_id":"109229752","name":"Tesco","building":"yes","shop":"supermarket","other":{"addr:city":"Horncastle","addr:country":"GB","addr:postcode":"LN9 5DR","addr:street":"Watermill Road","alt_name":"Tesco Horncastle Superstore","brand":"Tesco","brand:wikidata":"Q487494","brand:wikipedia":"en:Tesco","fhrs:authority":"East Lindsey","fhrs:id":"156087","fhrs:local_authority_id":"EHFDI\/01882\/08","opening_hours":"Mo-Sa 08:00-22:00; Su 10:00-16:00"}}, "geometry":{"type":"MultiPolygon","coordinates":[[[[-0.11716,53.21126],[-0.11675,53.21127],[-0.1167,53.2109],[-0.11718,53.21088],[-0.11718,53.21091],[-0.11737,53.2109],[-0.11738,53.2109],[-0.11742,53.21117],[-0.11734,53.21118],[-0.11734,53.21112],[-0.11729,53.21112],[-0.1173,53.21118],[-0.11725,53.21118],[-0.11726,53.21127],[-0.11717,53.21127],[-0.11716,53.21126]]]]}},
{ "type":"Feature","properties":{"osm_way_id":"109232421","name":"Co-op Food","building":"retail","shop":"supermarket","other":{"addr:city":"Horncastle","addr:country":"GB","addr:postcode":"LN9 5DW","addr:street":"Conging Street","brand":"Co-op Food","brand:wikidata":"Q3277439","brand:wikipedia":"en:Co-op Food","check_date:opening_hours":"2021-06-17","fhrs:authority":"East Lindsey","fhrs:id":"156847","fhrs:local_authority_id":"EHFDI\/06440\/08","opening_hours":"Mo-Sa 07:00-22:00; Su 10:00-16:00","operator":"The Co-operative Group"}}, "geometry":{"type":"MultiPolygon","coordinates":[[[[-0.11544,53.20933],[-0.11496,53.20936],[-0.11489,53.20957],[-0.11499,53.20957],[-0.11506,53.20956],[-0.11508,53.2097],[-0.11508,53.20972],[-0.1155,53.20969],[-0.11546,53.20945],[-0.11555,53.20944],[-0.11554,53.20942],[-0.11553,53.20937],[-0.11545,53.20938],[-0.11544,53.20933]]]]}},
{ "type":"Feature","properties":{"osm_way_id":"110041324","name":"Heron Foods","building":"yes","shop":"supermarket","other":{"addr:city":"Horncastle","addr:country":"GB","addr:housenumber":"1","addr:postcode":"LN9 5HD","addr:street":"Market Place","brand":"Heron Foods","brand:wikidata":"Q5743472","brand:wikipedia":"en:Heron Foods","contact:website":"https:\/\/heronfoods.com\/storelocator\/store-details\/horncastle","fhrs:authority":"East Lindsey","fhrs:id":"157005","fhrs:local_authority_id":"EHFDI\/07431\/10","opening_hours":"Mo-Sa 08:00-18:00; Su 09:00-17:00"}}, "geometry":{"type":"MultiPolygon","coordinates":[[[[-0.1173,53.20863],[-0.11743,53.20858],[-0.11765,53.20851],[-0.11755,53.20839],[-0.11724,53.20851],[-0.11721,53.20854],[-0.1173,53.20863]]]]}},
{ "type":"Feature","properties":{"osm_way_id":"110926142","name":"Lincolnshire Co-op","building":"yes","shop":"supermarket","other":{"addr:city":"Woodhall Spa","addr:country":"GB","addr:housenumber":"3-4","addr:postcode":"LN10 6TZ","addr:street":"Clarence Road","brand":"Lincolnshire Co-op","brand:wikidata":"Q6551231","brand:wikipedia":"en:Lincolnshire Co-operative","fhrs:authority":"East Lindsey","fhrs:id":"156460","fhrs:local_authority_id":"EHFDI\/03404\/08","operator":"Lincolnshire Co-operative Society"}}, "geometry":{"type":"MultiPolygon","coordinates":[[[[-0.21553,53.15182],[-0.21534,53.15189],[-0.21529,53.15182],[-0.2152,53.1517],[-0.21562,53.15157],[-0.21566,53.15162],[-0.21565,53.15163],[-0.21562,53.15164],[-0.21564,53.15165],[-0.21559,53.15167],[-0.21557,53.15165],[-0.21553,53.15167],[-0.21554,53.15168],[-0.21549,53.1517],[-0.21548,53.15168],[-0.21543,53.1517],[-0.21545,53.15172],[-0.2155,53.15171],[-0.21552,53.15174],[-0.2155,53.15174],[-0.21547,53.15175],[-0.21553,53.15182]]]]}},
{ "type":"Feature","properties":{"osm_way_id":"111877595","name":"Morrisons","building":"yes","shop":"supermarket","other":{"addr:housenumber":"150","addr:postcode":"LN11 9AB","addr:street":"Eastgate","alt_name":"Morrisons Louth","brand":"Morrisons","brand:wikidata":"Q922344","brand:wikipedia":"en:Morrisons","building:levels":"2","building:material":"brick","fhrs:authority":"East Lindsey","fhrs:id":"157280","fhrs:local_authority_id":"EHFDI\/09503\/09"}}, "geometry":{"type":"MultiPolygon","coordinates":[[[[0.00117,53.36756],[0.00144,53.36761],[0.00153,53.36743],[0.00174,53.36704],[0.00177,53.367],[0.00171,53.36699],[0.00176,53.36691],[0.00153,53.36687],[0.00148,53.36694],[0.00133,53.36692],[0.00099,53.36752],[0.0011,53.36754],[0.00117,53.36756]]]]}},
{ "type":"Feature","properties":{"osm_way_id":"127572076","name":"Spar","building":"yes","shop":"supermarket","other":{"addr:city":"Mablethorpe","addr:country":"GB","addr:housenumber":"19","addr:postcode":"LN12 2EY","addr:street":"High Street","addr:village":"Sutton On Sea","brand":"Spar","brand:wikidata":"Q610492","brand:wikipedia":"en:Spar (retailer)","fhrs:authority":"East Lindsey","fhrs:id":"156713","fhrs:local_authority_id":"EHFDI\/05376\/08"}}, "geometry":{"type":"MultiPolygon","coordinates":[[[[0.28116,53.31253],[0.28113,53.31251],[0.28082,53.31267],[0.28096,53.31278],[0.28128,53.31261],[0.28125,53.31259],[0.28133,53.31255],[0.28124,53.31249],[0.28116,53.31253]]]]}},
{ "type":"Feature","properties":{"osm_way_id":"148128410","name":"Lidl","building":"yes","shop":"supermarket","other":{"addr:city":"Skegness","addr:country":"GB","addr:postcode":"PE25 3PQ","addr:street":"Richmond Drive","alt_name":"LIDL Skegness","brand":"Lidl","brand:wikidata":"Q151954","brand:wikipedia":"en:Lidl","fhrs:authority":"East Lindsey","fhrs:id":"1029114","fhrs:local_authority_id":"EHFDI\/10072\/17","opening_hours":"Mo-Sa 08:00-22:00; Su 10:00-16:00"}}, "geometry":{"type":"MultiPolygon","coordinates":[[[[0.33372,53.14247],[0.3329,53.1421],[0.33299,53.14203],[0.33297,53.14202],[0.33309,53.14192],[0.33302,53.14189],[0.33311,53.14182],[0.33332,53.14191],[0.33367,53.14208],[0.33402,53.14223],[0.33372,53.14247]]]]}},
{ "type":"Feature","properties":{"osm_way_id":"148145554","name":"Tesco","building":"yes","shop":"supermarket","other":{"addr:city":"Skegness","addr:country":"GB","addr:postcode":"PE25 3PQ","addr:street":"Richmond Drive","alt_name":"Tesco Skegness Superstore","brand":"Tesco","brand:wikidata":"Q487494","brand:wikipedia":"en:Tesco","fhrs:authority":"East Lindsey","fhrs:id":"157131","fhrs:local_authority_id":"EHFDI\/08334\/08"}}, "geometry":{"type":"MultiPolygon","coordinates":[[[[0.33096,53.14079],[0.33067,53.14019],[0.33227,53.13992],[0.33241,53.1402],[0.33225,53.14022],[0.33215,53.14002],[0.33197,53.14005],[0.33203,53.14017],[0.3319,53.14019],[0.33209,53.1406],[0.33183,53.14065],[0.33184,53.14067],[0.33185,53.1407],[0.33168,53.14073],[0.33167,53.1407],[0.33165,53.14068],[0.33096,53.14079]]]]}},
{ "type":"Feature","properties":{"osm_way_id":"148187405","name":"Morrisons","building":"yes","shop":"supermarket","other":{"addr:city":"Skegness","addr:country":"GB","addr:postcode":"PE25 3QT","addr:street":"Wainfleet Road","alt_name":"Morrisons Skegness","brand":"Morrisons","brand:wikidata":"Q922344","brand:wikipedia":"en:Morrisons","building:levels":"1","fhrs:authority":"East Lindsey","fhrs:id":"156430","fhrs:local_authority_id":"EHFDI\/03201\/08","phone":"+44 1754 760297"}}, "geometry":{"type":"MultiPolygon","coordinates":[[[[0.3313,53.1424],[0.33169,53.14324],[0.33276,53.14305],[0.33259,53.14269],[0.33211,53.14246],[0.33195,53.14248],[0.33193,53.14244],[0.33154,53.1425],[0.33149,53.14237],[0.3313,53.1424]]]]}},
{ "type":"Feature","properties":{"osm_way_id":"154072567","name":"Lincolnshire Co-op","building":"supermarket","shop":"supermarket","other":{"addr:city":"Alford","addr:country":"GB","addr:postcode":"LN13 9EG","addr:street":"Church Street","alt_name":"Alford Food Store","brand":"Lincolnshire Co-op","brand:wikidata":"Q6551231","brand:wikipedia":"en:Lincolnshire Co-operative","fhrs:authority":"East Lindsey","fhrs:id":"156842","fhrs:local_authority_id":"EHFDI\/06353\/08"}}, "geometry":{"type":"MultiPolygon","coordinates":[[[[0.18141,53.26191],[0.18179,53.26181],[0.18195,53.26205],[0.18157,53.26214],[0.18153,53.26209],[0.18141,53.26191]]]]}},
{ "type":"Feature","properties":{"osm_way_id":"197510082","name":"Spar","building":"yes","shop":"supermarket","other":{"addr:city":"Skegness","addr:country":"GB","addr:housename":"Coastfields Holiday Park","addr:postcode":"PE25 1JU","addr:street":"Roman Bank","addr:village":"Ingoldmells","brand":"Spar","brand:wikidata":"Q610492","brand:wikipedia":"en:SPAR (retailer)","fhrs:authority":"East Lindsey","fhrs:id":"156342","fhrs:local_authority_id":"EHFDI\/02847\/08"}}, "geometry":{"type":"MultiPolygon","coordinates":[[[[0.35018,53.19961],[0.35013,53.19946],[0.35043,53.19944],[0.35049,53.19959],[0.35018,53.19961]]]]}},
{ "type":"Feature","properties":{"osm_way_id":"249961869","name":"Lincolnshire Co-op","building":"yes","shop":"supermarket","other":{"addr:city":"Tattershall","addr:country":"GB","addr:housenumber":"33","addr:postcode":"LN4 4LJ","addr:street":"Market Place","brand":"Lincolnshire Co-op","brand:wikidata":"Q6551231","brand:wikipedia":"en:Lincolnshire Co-operative","fhrs:authority":"East Lindsey","fhrs:id":"528163","fhrs:local_authority_id":"EHFDI\/30343\/12","operator":"Lincolnshire Co-operative Society"}}, "geometry":{"type":"MultiPolygon","coordinates":[[[[-0.19041,53.10482],[-0.19032,53.10474],[-0.19023,53.10477],[-0.19021,53.10476],[-0.19012,53.1048],[-0.19011,53.10479],[-0.19007,53.1048],[-0.19007,53.1048],[-0.19,53.10482],[-0.19001,53.10483],[-0.18985,53.1049],[-0.1898,53.10485],[-0.18972,53.10489],[-0.18967,53.10485],[-0.18959,53.10489],[-0.18988,53.1051],[-0.19024,53.10497],[-0.19024,53.10491],[-0.19015,53.10483],[-0.1902,53.10481],[-0.19025,53.10486],[-0.19031,53.10484],[-0.19032,53.10486],[-0.19041,53.10482]]]]}},
{ "type":"Feature","properties":{"osm_way_id":"271451084","name":"Lincolnshire Co-op","building":"yes","shop":"supermarket","other":{"addr:city":"Coningsby","addr:country":"GB","addr:postcode":"LN4 4SG","addr:street":"Silver Street","brand":"Lincolnshire Co-op","brand:wikidata":"Q6551231","brand:wikipedia":"en:Lincolnshire Co-operative","fhrs:authority":"East Lindsey","fhrs:id":"156854","fhrs:local_authority_id":"EHFDI\/06475\/08","operator":"Lincolnshire Co-operative Society"}}, "geometry":{"type":"MultiPolygon","coordinates":[[[[-0.17324,53.10373],[-0.17319,53.10391],[-0.17361,53.10395],[-0.17366,53.10377],[-0.17324,53.10373]]]]}},
{ "type":"Feature","properties":{"osm_way_id":"272168141","name":"Sainsbury's","building":"yes","shop":"supermarket","other":{"addr:city":"Spilsby","addr:country":"GB","addr:postcode":"PE23 5HD","addr:street":"Boston Road","alt_name":"Sainsbury's Spilsby Superstore","brand":"Sainsbury's","brand:wikidata":"Q152096","brand:wikipedia":"en:Sainsbury's","fhrs:authority":"East Lindsey","fhrs:id":"157587","fhrs:local_authority_id":"EHFDI\/26547\/09","wheelchair":"yes"}}, "geometry":{"type":"MultiPolygon","coordinates":[[[[0.09387,53.17302],[0.09367,53.17255],[0.09385,53.17252],[0.09396,53.17255],[0.09406,53.17258],[0.09401,53.17265],[0.09403,53.17268],[0.09418,53.17266],[0.09431,53.17295],[0.09387,53.17302]]]]}},
{ "type":"Feature","properties":{"osm_way_id":"272168142","name":"Lincolnshire Co-op","building":"yes","shop":"supermarket","other":{"addr:city":"Spilsby","addr:country":"GB","addr:postcode":"PE23 5JE","addr:street":"Post Office Lane","alt_name":"Spilsby Food Store","brand":"Lincolnshire Co-op","brand:wikidata":"Q6551231","brand:wikipedia":"en:Lincolnshire Co-operative","fhrs:authority":"East Lindsey","fhrs:id":"156989","fhrs:local_authority_id":"EHFDI\/07303\/08","operator":"Lincolnshire Co-op","wheelchair":"yes"}}, "geometry":{"type":"MultiPolygon","coordinates":[[[[0.099,53.17433],[0.09941,53.17426],[0.09933,53.17407],[0.0992,53.17409],[0.09922,53.17411],[0.09892,53.17416],[0.099,53.17433]]]]}},
{ "type":"Feature","properties":{"osm_way_id":"396622760","name":"The Co-operative","building":"yes","shop":"supermarket","other":{"addr:city":"Skegness","addr:postcode":"PE24 5TG","addr:street":"The Green","addr:village":"Chapel St Leonards","fhrs:authority":"East Lindsey","fhrs:id":"156942","fhrs:local_authority_id":"EHFDI\/07110\/08","source:addr":"FHRS Open Data"}}, "geometry":{"type":"MultiPolygon","coordinates":[[[[0.33794,53.2245],[0.33835,53.22456],[0.33837,53.22452],[0.33841,53.22442],[0.33851,53.22443],[0.33855,53.22436],[0.33803,53.22428],[0.33795,53.22447],[0.33794,53.2245]]]]}},
{ "type":"Feature","properties":{"osm_way_id":"396622874","name":"Spar","building":"yes","shop":"supermarket","other":{"addr:city":"Skegness","addr:housenumber":"25","addr:postcode":"PE24 5SJ","addr:street":"Sea Road","addr:village":"Chapel St Leonards","brand":"Spar","brand:wikidata":"Q610492","fhrs:authority":"East Lindsey","fhrs:id":"156148","fhrs:local_authority_id":"EHFDI\/02083\/08","source:addr":"FHRS Open Data"}}, "geometry":{"type":"MultiPolygon","coordinates":[[[[0.33438,53.22425],[0.33435,53.22413],[0.33449,53.22412],[0.33447,53.22404],[0.33472,53.22401],[0.33477,53.22422],[0.33438,53.22425]]]]}},
{ "type":"Feature","properties":{"osm_way_id":"531418785","name":"Lincolnshire Co Operative","building":"yes","shop":"supermarket","other":{"addr:city":"Louth","addr:country":"GB","addr:postcode":"LN11 0JT","addr:street":"Newbridge Hill","fhrs:authority":"East Lindsey","fhrs:id":"157325","fhrs:local_authority_id":"EHFDI\/12418\/11"}}, "geometry":{"type":"MultiPolygon","coordinates":[[[[0.0012,53.37267],[0.00151,53.37258],[0.00162,53.37272],[0.00131,53.37281],[0.0012,53.37267]]]]}},
{ "type":"Feature","properties":{"osm_way_id":"531502859","name":"Aldi","building":"yes","shop":"supermarket","other":{"addr:city":"Louth","addr:country":"GB","addr:postcode":"LN11 0JT","addr:street":"Newbridge Hill","brand":"ALDI","brand:wikidata":"Q41171672","brand:wikipedia":"en:Aldi","fhrs:id":"833773"}}, "geometry":{"type":"MultiPolygon","coordinates":[[[[0.00098,53.37141],[0.00142,53.37143],[0.00146,53.3712],[0.00156,53.3712],[0.00161,53.37092],[0.00107,53.37089],[0.00098,53.37141]]]]}},
{ "type":"Feature","properties":{"osm_way_id":"543381981","name":"Lincolnshire Co-op","building":"yes","shop":"supermarket","other":{"addr:city":"Skegness","addr:country":"GB","addr:housenumber":"69","addr:postcode":"PE24 5JZ","addr:street":"High Street","addr:village":"Burgh Le Marsh","brand":"Lincolnshire Co-op","brand:wikidata":"Q6551231","brand:wikipedia":"en:Lincolnshire Co-operative","fhrs:authority":"East Lindsey","fhrs:id":"499130","fhrs:local_authority_id":"EHFDI\/08440\/11"}}, "geometry":{"type":"MultiPolygon","coordinates":[[[[0.24745,53.16143],[0.24732,53.16121],[0.24754,53.16116],[0.24758,53.16121],[0.24748,53.16123],[0.24758,53.1614],[0.24745,53.16143]]]]}},
{ "type":"Feature","properties":{"osm_way_id":"556461611","name":"Lincolnshire Co-Operative","building":"yes","shop":"supermarket","other":{"addr:city":"Skegness","addr:country":"GB","addr:housenumber":"136-140","addr:postcode":"PE25 1SE","addr:street":"Roman Bank","fhrs:authority":"East Lindsey","fhrs:id":"157266","fhrs:local_authority_id":"EHFDI\/09217\/08"}}, "geometry":{"type":"MultiPolygon","coordinates":[[[[0.34144,53.15208],[0.34132,53.15184],[0.34155,53.1518],[0.34168,53.15203],[0.34144,53.15208]]]]}},
{ "type":"Feature","properties":{"osm_way_id":"699497632","name":"Co-op","building":"yes","shop":"supermarket","other":{"addr:city":"Skegness","addr:country":"GB","addr:housenumber":"9","addr:postcode":"PE24 4BS","addr:street":"High Street","addr:town":"Wainfleet","fhrs:authority":"East Lindsey","fhrs:id":"156612","fhrs:local_authority_id":"EHFDI\/04760\/08"}}, "geometry":{"type":"MultiPolygon","coordinates":[[[[0.23656,53.106],[0.23651,53.10582],[0.23628,53.10584],[0.23634,53.10603],[0.23656,53.106]]]]}},
{ "type":"Feature","properties":{"osm_way_id":"813169310","name":"Spar","building":"yes","shop":"supermarket","other":{"addr:city":"Ingoldmells","addr:country":"GB","addr:postcode":"PE25 1LH","addr:street":"Sea Lane","brand":"Spar","brand:wikidata":"Q610492","brand:wikipedia":"en:Spar (retailer)","fhrs:authority":"East Lindsey","fhrs:id":"156932","fhrs:local_authority_id":"EHFDI\/07042\/08"}}, "geometry":{"type":"MultiPolygon","coordinates":[[[[0.34993,53.19326],[0.3498,53.19326],[0.34979,53.19322],[0.34959,53.19323],[0.34956,53.19304],[0.34977,53.19303],[0.34977,53.19302],[0.3499,53.19301],[0.34993,53.19326]]]]}},
{ "type":"Feature","properties":{"osm_way_id":"829705777","name":"Co-Op Food","building":"commercial","shop":"supermarket","other":{"addr:city":"Louth","addr:country":"GB","addr:housenumber":"155","addr:postcode":"LN11 9EH","addr:street":"Newmarket","building:levels":"1","fhrs:authority":"East Lindsey","fhrs:id":"732313","fhrs:local_authority_id":"EHFDI\/10675\/14","smoking":"outside"}}, "geometry":{"type":"MultiPolygon","coordinates":[[[[0.00253,53.36195],[0.00261,53.36197],[0.00278,53.36202],[0.00285,53.36203],[0.00273,53.36219],[0.00241,53.3621],[0.00253,53.36195]]]]}},
{ "type":"Feature","properties":{"osm_way_id":"852723259","name":"Lidl","building":"yes","shop":"supermarket","other":{"addr:city":"Mablethorpe","addr:country":"GB","addr:postcode":"LN12 1DP","addr:street":"Stanley Avenue","brand":"Lidl","brand:wikidata":"Q151954","brand:wikipedia":"en:Lidl","fhrs:authority":"East Lindsey","fhrs:id":"156946","fhrs:local_authority_id":"EHFDI\/07128\/08","source:outline":"bing"}}, "geometry":{"type":"MultiPolygon","coordinates":[[[[0.25489,53.33932],[0.25517,53.33906],[0.25534,53.33912],[0.25536,53.3391],[0.25553,53.33917],[0.25555,53.33915],[0.2557,53.33921],[0.25566,53.33925],[0.25606,53.3394],[0.25579,53.33966],[0.25489,53.33932]]]]}},
{ "type":"Feature","properties":{"osm_way_id":"865191541","name":"Lidl","building":"yes","shop":"supermarket","other":{"addr:city":"Southampton","addr:country":"GB","addr:postcode":"SO15 2XD","addr:street":"Banister Road","brand":"Lidl","brand:wikidata":"Q151954","brand:wikipedia":"en:Lidl","fhrs:id":"1379188"}}, "geometry":{"type":"MultiPolygon","coordinates":[[[[-1.40603,50.9189],[-1.4056,50.91823],[-1.4052,50.91831],[-1.40548,50.9188],[-1.40552,50.91879],[-1.40561,50.91894],[-1.4058,50.9189],[-1.40583,50.91895],[-1.40603,50.9189]]]]}},
{ "type":"Feature","properties":{"osm_way_id":"1040041599","name":"Tesco","building":"yes","shop":"supermarket","other":{"brand":"Tesco","brand:wikidata":"Q487494","brand:wikipedia":"en:Tesco","operator":"Tesco"}}, "geometry":{"type":"MultiPolygon","coordinates":[[[[-0.34092,51.8247],[-0.34075,51.82465],[-0.34086,51.82452],[-0.34092,51.82445],[-0.34109,51.8245],[-0.34092,51.8247]]]]}}
]
}
