{
"type": "FeatureCollection",
"features": [
{ "type":"Feature","properties":{"osm_id":"533720901","name":"Sainsbury's","other":{"addr:city":"Uxbridge","addr:postcode":"UB8 1QW","addr:street":"York Road","brand":"Sainsbury's","brand:wikidata":"Q152096","brand:wikipedia":"en:Sainsbury's","contact:website":"https:\/\/stores.sainsburys.co.uk\/0603\/uxbridge","opening_hours":"Mo-Sa 07:00-23:00;Su 10:00-16:00","shop":"supermarket"}}, "geometry":{"type":"Point","coordinates":[-0.47478,51.54859 ]}},
{ "type":"Feature","properties":{"osm_id":"897525573","other":{"amenity":"parking_entrance"}}, "geometry":{"type":"Point","coordinates":[-0.47711,51.51622 ]}},
{ "type":"Feature","properties":{"osm_id":"1183415035","name":"Aldi","other":{"addr:city":"West Drayton","addr:country":"GB","addr:housenumber":"141-161","addr:postcode":"UB7 7QN","addr:street":"High Street","addr:suburb":"Yiewsley","brand":"ALDI","brand:wikidata":"Q41171672","brand:wikipedia":"en:Aldi","contact:website":"https:\/\/www.aldi.co.uk\/store\/s-uk-E0232","fhrs:id":"518714","name:fa":"آلدی","opening_hours":"Mo-Sa 08:00-22:00;Su 10:00-16:00","shop":"supermarket","source:addr":"FHRS Open Data"}}, "geometry":{"type":"Point","coordinates":[-0.47427,51.51456 ]}},
{ "type":"Feature","properties":{"osm_id":"1319523746","name":"Aldi","other":{"addr:country":"GB","addr:housenumber":"127-133","addr:postcode":"HA5 1QH","addr:street":"Field End Road","brand":"ALDI","brand:wikidata":"Q41171672","brand:wikipedia":"en:Aldi","contact:website":"https:\/\/www.aldi.co.uk\/store\/s-uk-E1137","name:fa":"آلدی","opening_hours":"Mo-Sa 08:00-22:00; Su 11:00-17:00","phone":"+44 800 042 0800","shop":"supermarket"}}, "geometry":{"type":"Point","coordinates":[-0.39926,51.57919 ]}},
{ "type":"Feature","properties":{"osm_id":"2596415880","other":{"amenity":"parking_entrance"}}, "geometry":{"type":"Point","coordinates":[-0.47694,51.5152 ]}},
{ "type":"Feature","properties":{"osm_id":"2906520923","name":"Lidl","other":{"addr:country":"GB","addr:housenumber":"137","addr:postcode":"UB8 2AG","addr:street":"Cowley Road","brand":"Lidl","brand:wikidata":"Q151954","brand:wikipedia":"en:Lidl","fhrs:id":"696931","opening_hours":"Mo-Sa 08:00-22:00;Su 10:00-16:00","shop":"supermarket","website":"https:\/\/www.lidl.co.uk\/"}}, "geometry":{"type":"Point","coordinates":[-0.48367,51.53523 ]}},
{ "type":"Feature","properties":{"osm_id":"4378529094","name":"Aldi","other":{"brand":"ALDI","brand:wikidata":"Q41171672","brand:wikipedia":"en:Aldi","name:fa":"آلدی","shop":"supermarket"}}, "geometry":{"type":"Point","coordinates":[-0.40152,51.55969 ]}},
{ "type":"Feature","properties":{"osm_id":"4378607690","name":"B&M Stores","other":{"shop":"supermarket"}}, "geometry":{"type":"Point","coordinates":[-0.40124,51.55949 ]}},
{ "type":"Feature","properties":{"osm_id":"4621453392","name":"Co-op","other":{"shop":"supermarket","name:en":"Co-op"}}, "geometry":{"type":"Point","coordinates":[-0.43612,51.48759 ]}},
{ "type":"Feature","properties":{"osm_id":"6356962933","name":"Asda","other":{"shop":"supermarket","brand":"Asda","fhrs:id":"811854","alt_name":"Asda Hayes Superstore","operator":"Asda Stores Ltd","addr:city":"Hayes","addr:street":"Millington Road","addr:country":"GB","addr:postcode":"UB3 4AZ","brand:wikidata":"Q297410","brand:wikipedia":"en:Asda","contact:twitter":"@asda","contact:website":"https:\/\/storelocator.asda.com\/london\/hayes\/millington-road","contact:facebook":"https:\/\/www.facebook.com\/asda\/"}}, "geometry":{"type":"Point","coordinates":[-0.42499,51.50111 ]}},
{ "type":"Feature","properties":{"osm_id":"7833699272","name":"Hillingdon Food Centre","other":{"shop":"supermarket"}}, "geometry":{"type":"Point","coordinates":[-0.44902,51.53059 ]}},
{ "type":"Feature","properties":{"osm_way_id":"14882841","name":"Waitrose","building":"yes","shop":"supermarket","other":{"brand":"Waitrose","brand:wikidata":"Q771734","brand:wikipedia":"en:Waitrose & Partners","official_name":"Waitrose & Partners","operator":"Waitrose & Partners"}}, "geometry":{"type":"MultiPolygon","coordinates":[[[[-0.4235,51.57135],[-0.42309,51.57142],[-0.42312,51.57148],[-0.4229,51.57152],[-0.42292,51.57156],[-0.42279,51.57158],[-0.42269,51.5716],[-0.42253,51.57127],[-0.4227,51.57124],[-0.42267,51.57118],[-0.42336,51.57105],[-0.4235,51.57135]]]]}},
{ "type":"Feature","properties":{"osm_way_id":"38259279","name":"Sainsbury's","building":"yes","shop":"supermarket","other":{"addr:city":"Hayes, Middlesex","addr:housename":"Lombardy Retail Park","brand":"Sainsbury's","brand:wikidata":"Q152096","brand:wikipedia":"en:Sainsbury's","contact:website":"https:\/\/stores.sainsburys.co.uk\/0630\/hayes","opening_hours":"Mo-Fr 07:00-24:00; Sa 07:00-23:00; Su 11:00-17:00","operator":"Sainsbury's Supermarkets Ltd","phone":"+44 20 8561 3321"}}, "geometry":{"type":"MultiPolygon","coordinates":[[[[-0.40364,51.51599],[-0.40372,51.5159],[-0.4038,51.51592],[-0.40404,51.51566],[-0.40396,51.51563],[-0.4044,51.51514],[-0.40314,51.5147],[-0.40254,51.51537],[-0.40273,51.51543],[-0.40263,51.51553],[-0.40288,51.51562],[-0.4028,51.5157],[-0.4031,51.5158],[-0.40336,51.51589],[-0.40364,51.51599]]]]}},
{ "type":"Feature","properties":{"osm_way_id":"45072136","name":"Tesco Extra","building":"supermarket","shop":"supermarket","other":{"brand":"Tesco Extra","brand:wikidata":"Q25172225"}}, "geometry":{"type":"MultiPolygon","coordinates":[[[[-0.38576,51.52486],[-0.38579,51.52433],[-0.38567,51.52433],[-0.38568,51.52425],[-0.38532,51.52424],[-0.38532,51.52428],[-0.38457,51.52426],[-0.38455,51.52464],[-0.3845,51.52463],[-0.38449,51.52468],[-0.38412,51.52468],[-0.38409,51.52527],[-0.38453,51.52528],[-0.38453,51.52525],[-0.38555,51.52526],[-0.38557,51.52486],[-0.38576,51.52486]]]]}},
{ "type":"Feature","properties":{"osm_way_id":"46558568","name":"Lidl","building":"yes","shop":"supermarket","other":{"addr:country":"GB","addr:postcode":"HA4 0QQ","addr:street":"Victoria Road","brand":"Lidl","brand:wikidata":"Q151954","brand:wikipedia":"en:Lidl","fhrs:id":"1066295","survey:date":"2018-06-11"}}, "geometry":{"type":"MultiPolygon","coordinates":[[[[-0.38458,51.55794],[-0.38406,51.55809],[-0.38361,51.55745],[-0.3841,51.55731],[-0.38458,51.55794]]]]}},
{ "type":"Feature","properties":{"osm_way_id":"111220520","name":"McColl's","building":"yes","shop":"supermarket","other":{"addr:postcode":"HA4 9EB"}}, "geometry":{"type":"MultiPolygon","coordinates":[[[[-0.39533,51.56803],[-0.39524,51.56805],[-0.39516,51.56806],[-0.39522,51.56818],[-0.3953,51.56817],[-0.39539,51.56815],[-0.39533,51.56803]]]]}},
{ "type":"Feature","properties":{"osm_way_id":"111220526","name":"Londis","building":"yes","shop":"supermarket","other":{"addr:postcode":"HA4 9EB"}}, "geometry":{"type":"MultiPolygon","coordinates":[[[[-0.39568,51.56796],[-0.39559,51.56798],[-0.39565,51.5681],[-0.39574,51.56808],[-0.39568,51.56796]]]]}},
{ "type":"Feature","properties":{"osm_way_id":"253758447","name":"Tesco Yiewsley","building":"retail","shop":"supermarket","other":{"addr:city":"Yiewsley","addr:postcode":"UB7 7FP","addr:street":"Chantry Close","brand":"Tesco","brand:wikidata":"Q487494","brand:wikipedia":"en:Tesco","building:levels":"3","contact:website":"https:\/\/www.tesco.com\/store-locator\/west-drayton\/high-st","opening_hours":"Mo-Sa 07:00-23:00; Su 11:00-17:00"}}, "geometry":{"type":"MultiPolygon","coordinates":[[[[-0.47674,51.51523],[-0.47694,51.5152],[-0.47697,51.5152],[-0.47718,51.51517],[-0.47724,51.51516],[-0.47735,51.51515],[-0.47741,51.51514],[-0.47754,51.51512],[-0.47754,51.51514],[-0.47758,51.51513],[-0.47769,51.51546],[-0.47774,51.51558],[-0.47786,51.51595],[-0.47787,51.51598],[-0.47789,51.51602],[-0.47713,51.51626],[-0.47711,51.51622],[-0.47708,51.51611],[-0.47703,51.51599],[-0.47689,51.51601],[-0.47668,51.5154],[-0.4768,51.51538],[-0.47674,51.51523]]]]}},
{ "type":"Feature","properties":{"osm_way_id":"279612297","name":"Tesco Metro","building":"retail","shop":"supermarket","other":{"addr:city":"Uxbridge","addr:housenumber":"62","addr:postcode":"UB8 1ND","addr:street":"High Street","brand":"Tesco Metro","brand:wikidata":"Q57551648","contact:website":"https:\/\/www.tesco.com\/store-locator\/uxbridge\/62-high-st","opening_hours":"Mo-Sa 07:00-22:00;Su 12:00-18:00","operator":"Tesco"}}, "geometry":{"type":"MultiPolygon","coordinates":[[[[-0.48141,51.54799],[-0.48198,51.54776],[-0.48219,51.54768],[-0.48191,51.54739],[-0.48134,51.54762],[-0.48124,51.54753],[-0.48108,51.54759],[-0.48101,51.54762],[-0.48104,51.54765],[-0.48138,51.54797],[-0.48141,51.54799]]]]}},
{ "type":"Feature","properties":{"osm_way_id":"435056792","name":"Marks & Spencer Simply Food","shop":"supermarket","other":{"addr:housename":"Arrivals Lounge Terminal 3","addr:postcode":"TW6 1QG","addr:street":"Heathrow Airport","brand":"M&S Simply Food","brand:wikidata":"Q714491","fhrs:id":"518946","level":"0","website":"https:\/\/www.marksandspencer.com\/stores\/heathrow-airport-t3-simply-food-5704"}}, "geometry":{"type":"MultiPolygon","coordinates":[[[[-0.45854,51.47175],[-0.45847,51.47168],[-0.45808,51.47184],[-0.45816,51.47191],[-0.45854,51.47175]]]]}},
{ "type":"Feature","properties":{"osm_way_id":"658909723","name":"Lidl","building":"yes","shop":"supermarket","other":{"addr:country":"GB","addr:housenumber":"1","addr:postcode":"UB3 2BN","addr:street":"Central Avenue","brand":"Lidl","brand:wikidata":"Q151954","brand:wikipedia":"en:Lidl","fhrs:id":"1030146"}}, "geometry":{"type":"MultiPolygon","coordinates":[[[[-0.42012,51.509],[-0.42057,51.50843],[-0.42008,51.50828],[-0.41963,51.50885],[-0.42012,51.509]]]]}},
{ "type":"Feature","properties":{"osm_way_id":"681222173","name":"Lidl","building":"yes","shop":"supermarket","other":{"addr:country":"GB","addr:housenumber":"482","addr:postcode":"UB4 0SD","addr:street":"Uxbridge Road","brand":"Lidl","brand:wikidata":"Q151954","brand:wikipedia":"en:Lidl","fhrs:id":"518875"}}, "geometry":{"type":"MultiPolygon","coordinates":[[[[-0.40964,51.51931],[-0.40995,51.51891],[-0.40988,51.51889],[-0.41001,51.51875],[-0.40963,51.51863],[-0.40929,51.51904],[-0.40937,51.51907],[-0.40927,51.51919],[-0.40964,51.51931]]]]}},
{ "type":"Feature","properties":{"osm_way_id":"708627684","name":"Asda","building":"retail","shop":"supermarket","other":{"brand":"Asda","layer":"9","fhrs:id":"1010308","operator":"Asda Stores Ltd","addr:city":"Ruislip","addr:street":"Old Dairy Lane","addr:country":"GB","payment:cash":"yes","addr:postcode":"HA4 0FY","payment:cards":"yes","brand:wikidata":"Q297410","brand:wikipedia":"en:Asda","contact:twitter":"@asda","contact:website":"https:\/\/storelocator.asda.com\/london\/ruislip\/6-old-dairy-lane","addr:housenumber":"6","contact:facebook":"https:\/\/www.facebook.com\/asda\/"}}, "geometry":{"type":"MultiPolygon","coordinates":[[[[-0.40092,51.55848],[-0.39981,51.5591],[-0.39975,51.5591],[-0.39969,51.55908],[-0.39962,51.55906],[-0.39944,51.55893],[-0.39952,51.55889],[-0.39926,51.55872],[-0.3992,51.55875],[-0.39906,51.55867],[-0.3992,51.55859],[-0.39923,51.5586],[-0.39948,51.55847],[-0.39943,51.55843],[-0.3995,51.55839],[-0.39955,51.55842],[-0.39978,51.55829],[-0.39975,51.55826],[-0.39985,51.5582],[-0.39989,51.55823],[-0.40013,51.55809],[-0.40057,51.55837],[-0.40068,51.5583],[-0.40076,51.55834],[-0.40088,51.55827],[-0.40114,51.55835],[-0.40092,51.55848]]]]}},
{ "type":"Feature","properties":{"osm_way_id":"762100100","name":"Sainsbury's","building":"retail","shop":"supermarket","other":{"brand":"Sainsbury's","layer":"0","phone":"+44 20 8842 1225","brand:wikidata":"Q152096","brand:wikipedia":"en:Sainsbury's","building:levels":"3"}}, "geometry":{"type":"MultiPolygon","coordinates":[[[[-0.39687,51.5572],[-0.39643,51.55739],[-0.3962,51.55749],[-0.3956,51.55702],[-0.39546,51.55709],[-0.39531,51.557],[-0.39557,51.55686],[-0.39554,51.55684],[-0.3956,51.55681],[-0.3957,51.55676],[-0.39567,51.55673],[-0.3959,51.55662],[-0.39601,51.55657],[-0.39616,51.55651],[-0.39636,51.55667],[-0.39649,51.55677],[-0.39644,51.5568],[-0.39685,51.55713],[-0.39682,51.55714],[-0.39687,51.5572]]]]}},
{ "type":"Feature","properties":{"osm_way_id":"824659759","name":"Waitrose","building":"yes","shop":"supermarket","other":{"brand":"Waitrose","official_name":"Waitrose & Partners","brand:wikidata":"Q771734","brand:wikipedia":"en:Waitrose & Partners"}}, "geometry":{"type":"MultiPolygon","coordinates":[[[[-0.42404,51.6109],[-0.42435,51.61085],[-0.42436,51.61087],[-0.42442,51.611],[-0.4246,51.61145],[-0.42438,51.61148],[-0.42424,51.61145],[-0.42404,51.6109]]]]}},
{ "type":"Feature","properties":{"osm_way_id":"918943577","name":"Co-op Food","building":"yes","shop":"supermarket","other":{"brand":"Co-op Food","brand:wikidata":"Q3277439","brand:wikipedia":"en:Co-op Food"}}, "geometry":{"type":"MultiPolygon","coordinates":[[[[-0.48211,51.60483],[-0.48204,51.60496],[-0.48187,51.60493],[-0.48188,51.60492],[-0.48181,51.6049],[-0.48185,51.60481],[-0.48191,51.60482],[-0.48199,51.60483],[-0.482,51.60481],[-0.48211,51.60483]]]]}}
]
}
