{
"type": "FeatureCollection",
"features": [
{ "type":"Feature","properties":{"osm_id":"462621185","name":"The Co-operative Food","other":{"operator":"The Co-operative Group","shop":"supermarket","wheelchair":"limited"}}, "geometry":{"type":"Point","coordinates":[-1.52067,53.99088 ]}},
{ "type":"Feature","properties":{"osm_id":"1656451481","name":"Booths","other":{"addr:postcode":"HG4 2BT","addr:street":"Marshall Way","brand:wikidata":"Q4943949","contact:website":"https:\/\/www.booths.co.uk\/store\/ripon\/","operator":"Booths","shop":"supermarket"}}, "geometry":{"type":"Point","coordinates":[-1.52548,54.13721 ]}},
{ "type":"Feature","properties":{"osm_id":"1692851823","name":"Co-op Food","other":{"brand":"Co-op Food","brand:wikidata":"Q3277439","brand:wikipedia":"en:Co-op Food","shop":"supermarket"}}, "geometry":{"type":"Point","coordinates":[-1.46818,54.01298 ]}},
{ "type":"Feature","properties":{"osm_id":"2109829401","name":"Sainsbury's","other":{"brand":"Sainsbury's","brand:wikidata":"Q152096","brand:wikipedia":"en:Sainsbury's","shop":"supermarket","website":"https:\/\/stores.sainsburys.co.uk\/4745\/knaresborough-local"}}, "geometry":{"type":"Point","coordinates":[-1.46541,54.00763 ]}},
{ "type":"Feature","properties":{"osm_id":"2111045971","name":"Barker and Stonehouse","other":{"shop":"supermarket"}}, "geometry":{"type":"Point","coordinates":[-1.44363,53.99875 ]}},
{ "type":"Feature","properties":{"osm_id":"3977689862","name":"M&S Food Hall","other":{"brand":"M&S Foodhall","brand:wikidata":"Q714491","operator":"Marks & Spencer","shop":"supermarket"}}, "geometry":{"type":"Point","coordinates":[-1.44335,53.99987 ]}},
{ "type":"Feature","properties":{"osm_id":"5055324762","other":{"amenity":"post_box"}}, "geometry":{"type":"Point","coordinates":[-1.7626,54.08421 ]}},
{ "type":"Feature","properties":{"osm_way_id":"4917110","name":"Sainsbury's","building":"retail","shop":"supermarket","other":{"addr:city":"Bristol","addr:housenumber":"The Village","addr:postcode":"BS16 7AE","addr:street":"Emerson Way","alt_name":"Sainsbury's Emersons Green Superstore","brand":"Sainsbury's","brand:wikidata":"Q152096","brand:wikipedia":"en:Sainsbury's","building:levels":"1","check_date:opening_hours":"2021-08-11","fhrs:id":"51982","opening_hours":"Mo-Fr 07:00-23:00; Sa 07:00-22:00; Su 10:30-16:30","roof:shape":"flat","source:outline":"Bing"}}, "geometry":{"type":"MultiPolygon","coordinates":[[[[-2.47445,51.49215],[-2.4745,51.49216],[-2.47443,51.49233],[-2.47326,51.49277],[-2.47248,51.49197],[-2.47304,51.49176],[-2.4731,51.49183],[-2.47357,51.49165],[-2.47355,51.49162],[-2.47383,51.49151],[-2.47445,51.49215]]]]}},
{ "type":"Feature","properties":{"osm_way_id":"61639274","name":"Morrisons","building":"supermarket","shop":"supermarket","other":{"addr:city":"Boroughbridge","addr:postcode":"YO51 9HS","addr:street":"Wetherby Road","brand":"Morrisons","brand:wikidata":"Q922344","brand:wikipedia":"en:Morrisons","operator":"Morrisons"}}, "geometry":{"type":"MultiPolygon","coordinates":[[[[-1.39751,54.08545],[-1.39761,54.08575],[-1.39773,54.08573],[-1.39784,54.08607],[-1.39778,54.08607],[-1.39779,54.08611],[-1.39743,54.08634],[-1.39737,54.08635],[-1.39735,54.08626],[-1.39664,54.08634],[-1.39646,54.08576],[-1.3969,54.08571],[-1.39684,54.08552],[-1.39751,54.08545]]]]}},
{ "type":"Feature","properties":{"osm_way_id":"74328484","name":"Co-Operative Food","building":"yes","shop":"supermarket","other":{"addr:city":"Mablethorpe","addr:country":"GB","addr:postcode":"LN12 2HJ","addr:street":"Station Road","addr:village":"Sutton On Sea","fhrs:authority":"East Lindsey","fhrs:id":"1032092","fhrs:local_authority_id":"EHFDI\/00079\/18"}}, "geometry":{"type":"MultiPolygon","coordinates":[[[[0.2805,53.31136],[0.28078,53.31122],[0.28063,53.31111],[0.28033,53.31126],[0.2805,53.31136]]]]}},
{ "type":"Feature","properties":{"osm_way_id":"102856470","name":"Morrisons","building":"yes","shop":"supermarket","other":{"addr:postcode":"HG2 7LD","addr:street":"Hookstone Chase","alt_name":"Morrisons Starbeck","brand":"Morrisons","brand:wikidata":"Q922344","brand:wikipedia":"en:Morrisons","operator":"Morrisons","wheelchair":"yes"}}, "geometry":{"type":"MultiPolygon","coordinates":[[[[-1.49708,53.99336],[-1.49734,53.99333],[-1.49733,53.99327],[-1.49737,53.99324],[-1.49749,53.99322],[-1.49756,53.99325],[-1.49757,53.99329],[-1.49792,53.99324],[-1.49796,53.99337],[-1.49837,53.99333],[-1.49862,53.99393],[-1.4984,53.99396],[-1.49843,53.99406],[-1.49771,53.99416],[-1.49773,53.99422],[-1.49755,53.99424],[-1.49747,53.99405],[-1.49738,53.99407],[-1.49708,53.99336]]]]}},
{ "type":"Feature","properties":{"osm_way_id":"116863177","name":"The Co-operative Food","building":"yes","shop":"supermarket","other":{"addr:city":"Harrogate","addr:postcode":"HG3 2XS","addr:street":"Grantley Drive","addr:suburb":"Jennyfields","operator":"The Co-operative Group"}}, "geometry":{"type":"MultiPolygon","coordinates":[[[[-1.55817,54.00258],[-1.5575,54.00257],[-1.55751,54.00227],[-1.55761,54.00227],[-1.55761,54.00218],[-1.55782,54.00218],[-1.55782,54.00227],[-1.55818,54.00227],[-1.55818,54.00243],[-1.55817,54.00258]]]]}},
{ "type":"Feature","properties":{"osm_way_id":"152867719","name":"Sainsbury's","building":"yes","shop":"supermarket","other":{"brand":"Sainsbury's","brand:wikidata":"Q152096","brand:wikipedia":"en:Sainsbury's"}}, "geometry":{"type":"MultiPolygon","coordinates":[[[[-1.52325,54.13617],[-1.52324,54.13617],[-1.52279,54.13615],[-1.52272,54.13619],[-1.52239,54.13619],[-1.5224,54.1361],[-1.52224,54.13609],[-1.52224,54.13611],[-1.52212,54.13611],[-1.52213,54.13606],[-1.52193,54.13606],[-1.52193,54.13611],[-1.52132,54.13609],[-1.5213,54.13623],[-1.52127,54.13623],[-1.52125,54.13623],[-1.52127,54.13626],[-1.52129,54.13627],[-1.52129,54.13627],[-1.52177,54.13629],[-1.52201,54.13629],[-1.52201,54.13634],[-1.52269,54.13636],[-1.52277,54.13637],[-1.52278,54.1363],[-1.52281,54.1363],[-1.52281,54.13629],[-1.52282,54.13624],[-1.52296,54.13624],[-1.52297,54.13619],[-1.52325,54.1362],[-1.52325,54.13617]]]]}},
{ "type":"Feature","properties":{"osm_way_id":"152868721","name":"Morrisons","building":"supermarket","shop":"supermarket","other":{"brand":"Morrisons","brand:wikidata":"Q922344","brand:wikipedia":"en:Morrisons","old_name":"Safeway"}}, "geometry":{"type":"MultiPolygon","coordinates":[[[[-1.52454,54.12108],[-1.5236,54.12107],[-1.52359,54.12123],[-1.52358,54.1214],[-1.52357,54.12168],[-1.52378,54.12169],[-1.52378,54.12176],[-1.52463,54.12177],[-1.52464,54.12167],[-1.52464,54.12159],[-1.5246,54.12159],[-1.5246,54.12149],[-1.52452,54.12149],[-1.52452,54.1214],[-1.52452,54.12132],[-1.52453,54.12131],[-1.52454,54.12112],[-1.52454,54.12108]]]]}},
{ "type":"Feature","properties":{"osm_way_id":"167261484","name":"Asda","building":"supermarket","shop":"supermarket","other":{"addr:city":"Harrogate","addr:country":"GB","addr:postcode":"HG1 5DE","addr:street":"Bower Road","alt_name":"ASDA Harrogate Superstore","brand":"Asda","brand:wikidata":"Q297410","brand:wikipedia":"en:Asda","fhrs:id":"224089","operator":"Asda Stores Ltd","website":"https:\/\/storelocator.asda.com\/yorkshire-&-humber\/harrogate\/bower-road"}}, "geometry":{"type":"MultiPolygon","coordinates":[[[[-1.5358,53.99672],[-1.53552,53.99657],[-1.53536,53.99649],[-1.5353,53.99652],[-1.53516,53.99645],[-1.53598,53.99587],[-1.536,53.99588],[-1.53648,53.99555],[-1.53696,53.99568],[-1.5371,53.99575],[-1.53693,53.99586],[-1.53696,53.99588],[-1.53682,53.99598],[-1.53689,53.99602],[-1.53684,53.99613],[-1.53688,53.99615],[-1.5366,53.99664],[-1.53634,53.9965],[-1.53599,53.99674],[-1.53586,53.99667],[-1.5358,53.99672]]]]}},
{ "type":"Feature","properties":{"osm_way_id":"178726375","name":"Waitrose","building":"supermarket","shop":"supermarket","other":{"addr:housenumber":"92","addr:postcode":"HG1 1HD","addr:street":"Station Parade","alt_name":"Waitrose Harrogate","brand":"Waitrose","brand:wikidata":"Q771734","brand:wikipedia":"en:Waitrose & Partners","official_name":"Waitrose & Partners","operator":"Waitrose & Partners"}}, "geometry":{"type":"MultiPolygon","coordinates":[[[[-1.5358,53.98954],[-1.53632,53.98945],[-1.53671,53.99016],[-1.53651,53.9902],[-1.53657,53.99033],[-1.53627,53.99038],[-1.53622,53.99028],[-1.53616,53.99029],[-1.5358,53.98954]]]]}},
{ "type":"Feature","properties":{"osm_way_id":"187802299","name":"Co-op Food","building":"yes","shop":"supermarket","other":{"addr:housenumber":"73","addr:postcode":"HG2 8BE","addr:street":"Leeds Road","brand":"Co-op Food","brand:wikidata":"Q3277439","brand:wikipedia":"en:Co-op Food","operator":"The Co-operative Group","operator:wikidata":"Q117202","operator:wikipedia":"en:The Co-operative Group","wheelchair":"yes"}}, "geometry":{"type":"MultiPolygon","coordinates":[[[[-1.53402,53.97799],[-1.53399,53.97793],[-1.53401,53.97792],[-1.53396,53.9778],[-1.53392,53.97781],[-1.53392,53.9778],[-1.53366,53.97784],[-1.53376,53.97803],[-1.53391,53.97801],[-1.53402,53.97799]]]]}},
{ "type":"Feature","properties":{"osm_way_id":"187803807","name":"Sainsbury's","building":"supermarket","shop":"supermarket","other":{"addr:postcode":"HG2 8QZ","addr:street":"Wetherby Road","brand":"Sainsbury's","brand:wikidata":"Q152096","brand:wikipedia":"en:Sainsbury's","wheelchair":"yes"}}, "geometry":{"type":"MultiPolygon","coordinates":[[[[-1.50059,53.9848],[-1.49971,53.98437],[-1.49958,53.98446],[-1.49928,53.98431],[-1.49845,53.98489],[-1.49922,53.98528],[-1.49934,53.98519],[-1.49975,53.98539],[-1.50059,53.9848]]]]}},
{ "type":"Feature","properties":{"osm_way_id":"218870620","name":"Lidl","building":"construction","shop":"supermarket","other":{"addr:postcode":"HG2 7LU","addr:street":"Knaresborough Road","brand":"Lidl","brand:wikidata":"Q151954","brand:wikipedia":"en:Lidl"}}, "geometry":{"type":"MultiPolygon","coordinates":[[[[-1.50928,53.99583],[-1.50941,53.99616],[-1.50929,53.99617],[-1.50933,53.99628],[-1.50888,53.99634],[-1.5088,53.99614],[-1.50892,53.99613],[-1.50883,53.99589],[-1.50928,53.99583]]]]}},
{ "type":"Feature","properties":{"osm_way_id":"218870621","name":"Sainsbury's","building":"commercial","shop":"supermarket","other":{"brand":"Sainsbury's","brand:wikidata":"Q152096","brand:wikipedia":"en:Sainsbury's","website":"https:\/\/stores.sainsburys.co.uk\/4731\/kings-road-local"}}, "geometry":{"type":"MultiPolygon","coordinates":[[[[-1.53753,54.00303],[-1.53772,54.00307],[-1.53762,54.00323],[-1.53788,54.00329],[-1.53784,54.00336],[-1.53739,54.00326],[-1.53753,54.00303]]]]}},
{ "type":"Feature","properties":{"osm_way_id":"218903159","name":"Co-op Supermarket","building":"retail","shop":"supermarket","other":{"brand":"Co-op Food","brand:wikidata":"Q3277439","brand:wikipedia":"en:Co-op Food","website":"https:\/\/finder.coop.co.uk\/food\/store\/HG1-3DP\/skipton-road"}}, "geometry":{"type":"MultiPolygon","coordinates":[[[[-1.53758,54.00556],[-1.53729,54.00575],[-1.53744,54.00585],[-1.53749,54.00582],[-1.53754,54.00584],[-1.53749,54.00591],[-1.5376,54.00593],[-1.53774,54.00572],[-1.53776,54.00568],[-1.53775,54.00567],[-1.53765,54.0056],[-1.53758,54.00556]]]]}},
{ "type":"Feature","properties":{"osm_way_id":"297420681","name":"Sainsbury's Local","building":"retail","shop":"supermarket","other":{"addr:city":"Harrogate","addr:housenumber":"111","addr:postcode":"HG2 0NU","addr:street":"Cold Bath Road","alt_name":"Sainsbury's Cold Bath Road Local","brand:wikidata":"Q13218434","operator":"Sainsbury's","phone":"+44 1423 504484"}}, "geometry":{"type":"MultiPolygon","coordinates":[[[[-1.5482,53.98946],[-1.54815,53.98951],[-1.54813,53.9895],[-1.54804,53.98961],[-1.54806,53.98962],[-1.54802,53.98967],[-1.54815,53.98971],[-1.54835,53.98953],[-1.54831,53.98952],[-1.54833,53.9895],[-1.5482,53.98946]]]]}},
{ "type":"Feature","properties":{"osm_way_id":"319002611","name":"Weetons Food Hall","building":"yes","shop":"supermarket","other":{"addr:housenumber":"23-24","addr:postcode":"HG1 1BJ","addr:street":"West Park"}}, "geometry":{"type":"MultiPolygon","coordinates":[[[[-1.53989,53.9883],[-1.53981,53.9882],[-1.53942,53.98831],[-1.53946,53.98836],[-1.53952,53.98834],[-1.53956,53.98839],[-1.53989,53.9883]]]]}},
{ "type":"Feature","properties":{"osm_way_id":"319918571","name":"McColls","building":"yes","shop":"supermarket"},"geometry":{"type":"MultiPolygon","coordinates":[[[[-1.49836,53.99951],[-1.49804,53.99938],[-1.49822,53.99922],[-1.49852,53.99934],[-1.49853,53.99937],[-1.49836,53.99951]]]]}},
{ "type":"Feature","properties":{"osm_way_id":"361425394","name":"The Co-operative Food","building":"yes","shop":"supermarket","other":{"opening_hours":"Mo-Su 05:30-23:00","operator":"The Co-operative Group","wheelchair":"yes"}}, "geometry":{"type":"MultiPolygon","coordinates":[[[[-1.45129,54.00394],[-1.45107,54.00395],[-1.45105,54.00377],[-1.45127,54.00376],[-1.45129,54.00394]]]]}},
{ "type":"Feature","properties":{"osm_way_id":"361425646","name":"The Co-operative Food","building":"yes","shop":"supermarket","other":{"operator":"The Co-operative Group"}}, "geometry":{"type":"MultiPolygon","coordinates":[[[[-1.49884,53.99909],[-1.4987,53.99921],[-1.49839,53.99908],[-1.49845,53.99902],[-1.49858,53.99908],[-1.49865,53.99901],[-1.49884,53.99909]]]]}},
{ "type":"Feature","properties":{"osm_way_id":"361426395","name":"The Co-operative Food","building":"yes","shop":"supermarket","other":{"operator":"The Co-operative Group"}}, "geometry":{"type":"MultiPolygon","coordinates":[[[[-1.53081,54.00801],[-1.5309,54.00813],[-1.53063,54.0082],[-1.53054,54.00808],[-1.53081,54.00801]]]]}},
{ "type":"Feature","properties":{"osm_way_id":"361427541","name":"Co-op Food","building":"yes","shop":"supermarket","other":{"brand":"Co-op Food","brand:wikidata":"Q3277439","brand:wikipedia":"en:Co-op Food","operator":"The Co-operative Group"}}, "geometry":{"type":"MultiPolygon","coordinates":[[[[-1.55099,53.98401],[-1.55106,53.9841],[-1.55073,53.98419],[-1.55066,53.9841],[-1.55099,53.98401]]]]}},
{ "type":"Feature","properties":{"osm_way_id":"453775064","name":"The Dales Market Corner","building":"yes","shop":"supermarket","other":{"addr:city":"Pateley Bridge","addr:housename":"The Dales Market Corner","addr:postcode":"HG3 5HL","opening_hours":"07:00-22:00"}}, "geometry":{"type":"MultiPolygon","coordinates":[[[[-1.76284,54.08436],[-1.76272,54.08435],[-1.76277,54.08446],[-1.76263,54.08449],[-1.7626,54.08445],[-1.76252,54.08433],[-1.76246,54.08432],[-1.76256,54.08425],[-1.7626,54.08421],[-1.76261,54.0842],[-1.76277,54.08423],[-1.76284,54.08436]]]]}},
{ "type":"Feature","properties":{"osm_way_id":"466055430","name":"Co-op Food","building":"yes","shop":"supermarket","other":{"addr:city":"Pannal","addr:postcode":"HG3 1JN","addr:street":"Station Road","brand":"Co-op Food","brand:wikidata":"Q3277439","brand:wikipedia":"en:Co-op Food","operator":"The Co-operative Group"}}, "geometry":{"type":"MultiPolygon","coordinates":[[[[-1.53311,53.95857],[-1.53302,53.95849],[-1.53305,53.95848],[-1.53297,53.9584],[-1.53265,53.95851],[-1.53273,53.95858],[-1.53268,53.9586],[-1.53274,53.95865],[-1.53283,53.95867],[-1.53311,53.95857]]]]}},
{ "type":"Feature","properties":{"osm_way_id":"548488594","name":"ALDI","building":"supermarket","shop":"supermarket","other":{"addr:postcode":"HG1 3HT","addr:street":"Old Beck Road","brand":"ALDI","brand:wikidata":"Q41171672","brand:wikipedia":"en:Aldi","operator":"Aldi UK","payment:cash":"yes","payment:contactless":"yes","payment:credit_cards":"yes","payment:debit_cards":"yes"}}, "geometry":{"type":"MultiPolygon","coordinates":[[[[-1.55365,54.00885],[-1.55432,54.00866],[-1.55448,54.00885],[-1.5538,54.00904],[-1.55365,54.00885]]]]}},
{ "type":"Feature","properties":{"osm_way_id":"606675082","name":"The Co-operative Food","building":"yes","shop":"supermarket","other":{"brand":"The Co-operative Food","brand:wikidata":"Q3277439","brand:wikipedia":"en:Co-op Food"}}, "geometry":{"type":"MultiPolygon","coordinates":[[[[-1.51056,53.99615],[-1.51059,53.99622],[-1.5106,53.99625],[-1.51083,53.99621],[-1.51084,53.99624],[-1.51094,53.99623],[-1.51093,53.99619],[-1.51099,53.99618],[-1.51097,53.99612],[-1.51079,53.99614],[-1.51079,53.99612],[-1.51056,53.99615]]]]}},
{ "type":"Feature","properties":{"osm_way_id":"680691943","name":"Lidl","building":"yes","shop":"supermarket","other":{"addr:postcode":"HG5 0DH","addr:street":"Chain Lane","addr:town":"Knaresborough","brand":"Lidl","brand:wikidata":"Q151954","brand:wikipedia":"en:Lidl","facebook":"https:\/\/www.facebook.com\/Lidl-GB-1446945318718079\/"}}, "geometry":{"type":"MultiPolygon","coordinates":[[[[-1.45427,54.00686],[-1.4533,54.00733],[-1.45319,54.00725],[-1.45325,54.00722],[-1.45303,54.00706],[-1.45367,54.00675],[-1.45361,54.00671],[-1.45387,54.00658],[-1.45427,54.00686]]]]}},
{ "type":"Feature","properties":{"osm_way_id":"695023212","name":"ALDI","building":"retail","shop":"supermarket","other":{"brand":"ALDI","brand:wikidata":"Q41171672","brand:wikipedia":"en:Aldi"}}, "geometry":{"type":"MultiPolygon","coordinates":[[[[-1.51977,54.13881],[-1.51904,54.13866],[-1.5192,54.13839],[-1.51945,54.13844],[-1.51947,54.13839],[-1.51955,54.1384],[-1.51952,54.13846],[-1.51992,54.13854],[-1.51977,54.13881]]]]}},
{ "type":"Feature","properties":{"osm_way_id":"739606182","name":"The Co-Operative","building":"yes","shop":"supermarket","other":{"operator":"The Co-Operative"}}, "geometry":{"type":"MultiPolygon","coordinates":[[[[-1.65854,54.22323],[-1.65855,54.22325],[-1.65816,54.22334],[-1.65808,54.22321],[-1.6581,54.2232],[-1.65851,54.22311],[-1.65858,54.22322],[-1.65854,54.22323]]]]}},
{ "type":"Feature","properties":{"osm_way_id":"853715756","name":"Aldi","building":"yes","shop":"supermarket","other":{"addr:housenumber":"2","addr:postcode":"HG5 0GA","addr:street":"Swallowtail Way","brand":"ALDI","brand:wikidata":"Q41171672","brand:wikipedia":"en:Aldi"}}, "geometry":{"type":"MultiPolygon","coordinates":[[[[-1.4406,54.00814],[-1.44015,54.00814],[-1.44015,54.00749],[-1.44059,54.00749],[-1.4406,54.00749],[-1.4406,54.00814]]]]}}
]
}
