{
"type": "FeatureCollection",
"features": [
{ "type":"Feature","properties":{"osm_id":"1280560574","name":"Co-op Food","other":{"addr:city":"Perth","addr:housenumber":"191-201","addr:postcode":"PH1 2DP","addr:street":"Rannoch Road","brand":"Co-op Food","brand:wikidata":"Q3277439","brand:wikipedia":"en:Co-op Food","fhrs:id":"938003","operator":"The Co-operative Group","shop":"supermarket"}}, "geometry":{"type":"Point","coordinates":[-3.47119,56.40173 ]}},
{ "type":"Feature","properties":{"osm_id":"3486372524","name":"Aldi","other":{"addr:city":"Perth","addr:postcode":"PH1 3EE","addr:street":"Highland Gateway","brand":"ALDI","brand:wikidata":"Q41171672","brand:wikipedia":"en:Aldi","shop":"supermarket"}}, "geometry":{"type":"Point","coordinates":[-3.46849,56.41931 ]}},
{ "type":"Feature","properties":{"osm_id":"3486372528","name":"M&S Foodhall","other":{"addr:city":"Perth","addr:postcode":"PH1 3EE","addr:street":"Highland Gateway","brand":"M&S Foodhall","brand:wikidata":"Q714491","brand:wikipedia":"en:Marks & Spencer","fhrs:id":"941596","shop":"supermarket"}}, "geometry":{"type":"Point","coordinates":[-3.46902,56.41963 ]}},
{ "type":"Feature","properties":{"osm_id":"3988572077","name":"Robertsons of Pitlochry","other":{"addr:city":"Pitlochry","addr:housenumber":"42-46","addr:postcode":"PH16 5BX","addr:street":"Atholl Road","shop":"supermarket","toilets":"yes","toilets:wheelchair":"yes","website":"https:\/\/www.robertsonsofpitlochry.co.uk\/","wheelchair":"limited"}}, "geometry":{"type":"Point","coordinates":[-3.73251,56.70256 ]}},
{ "type":"Feature","properties":{"osm_id":"7143753609","name":"The Food Warehouse","other":{"addr:postcode":"PH1 5XA","brand":"The Food Warehouse","brand:wikidata":"Q87263899","shop":"supermarket","source:addr:postcode":"code-point_open"}}, "geometry":{"type":"Point","coordinates":[-3.441,56.39849 ]}},
{ "type":"Feature","properties":{"osm_id":"9560110410","name":"Lidl","other":{"addr:city":"Blairgowrie","addr:country":"GB","addr:postcode":"PH10 6FW","addr:street":"Perth Road","brand":"Lidl","brand:wikidata":"Q151954","brand:wikipedia":"en:Lidl","fhrs:id":"1466632","shop":"supermarket"}}, "geometry":{"type":"Point","coordinates":[-3.34701,56.5782 ]}},
{ "type":"Feature","properties":{"osm_id":"11742379","name":"Tesco Metro","type":"multipolygon","building":"yes","shop":"supermarket","other":{"addr:housenumber":"122-124","addr:postcode":"PH2 8PA","addr:street":"South Street","alt_name":"Tesco Perth Metro","brand":"Tesco Metro","brand:wikidata":"Q57551648","fhrs:id":"440193","wheelchair":"yes"}}, "geometry":{"type":"MultiPolygon","coordinates":[[[[-3.43117,56.39465],[-3.43118,56.39458],[-3.43089,56.39457],[-3.43083,56.39511],[-3.43128,56.39513],[-3.43132,56.39493],[-3.43137,56.39466],[-3.43117,56.39465]]]]}},
{ "type":"Feature","properties":{"osm_way_id":"56137770","name":"Tesco","building":"supermarket","shop":"supermarket","other":{"addr:postcode":"PH2 8DX","addr:street":"Edinburgh Road","alt_name":"Tesco Perth Edinburgh Road Superstore","brand":"Tesco","brand:wikidata":"Q487494","brand:wikipedia":"en:Tesco","fhrs:id":"924175"}}, "geometry":{"type":"MultiPolygon","coordinates":[[[[-3.43395,56.38135],[-3.43348,56.38073],[-3.43246,56.38096],[-3.43236,56.38083],[-3.43217,56.38087],[-3.43275,56.38163],[-3.43395,56.38135]]]]}},
{ "type":"Feature","properties":{"osm_way_id":"57781592","name":"Asda","building":"supermarket","shop":"supermarket","other":{"addr:country":"GB","addr:housenumber":"89","addr:postcode":"PH1 5AP","addr:street":"Dunkeld Road","alt_name":"ASDA Perth Superstore","brand":"Asda","brand:wikidata":"Q297410","brand:wikipedia":"en:Asda","contact:facebook":"https:\/\/www.facebook.com\/asda\/","contact:twitter":"@asda","contact:website":"https:\/\/storelocator.asda.com\/scotland\/perth\/89-dunkeld-road","fhrs:id":"938997","int_name":"Walmart","opening_hours":"24\/7","operator":"Asda Stores Ltd","toilets":"yes","toilets:access":"customers","toilets:wheelchair":"yes","wheelchair":"yes"}}, "geometry":{"type":"MultiPolygon","coordinates":[[[[-3.44337,56.4062],[-3.44374,56.40604],[-3.44378,56.40607],[-3.44446,56.40577],[-3.44428,56.40564],[-3.44434,56.40562],[-3.44426,56.40557],[-3.44433,56.40554],[-3.44424,56.40548],[-3.44413,56.4054],[-3.44406,56.40544],[-3.44348,56.40504],[-3.44328,56.40513],[-3.44323,56.4051],[-3.44309,56.40511],[-3.44293,56.40518],[-3.44288,56.40514],[-3.44247,56.40533],[-3.44257,56.40539],[-3.44252,56.40541],[-3.44305,56.40578],[-3.44296,56.40582],[-3.44321,56.406],[-3.44312,56.40604],[-3.44337,56.4062]]]]}},
{ "type":"Feature","properties":{"osm_way_id":"59459775","name":"Lidl","building":"supermarket","shop":"supermarket","other":{"addr:country":"GB","addr:postcode":"PH1 1PR","addr:street":"Riggs Road","alt_name":"LIDL Perth","brand":"Lidl","brand:wikidata":"Q151954","brand:wikipedia":"en:Lidl","fhrs:id":"1151255","operator":"Lidl","toilets:wheelchair":"yes","wheelchair":"yes"}}, "geometry":{"type":"MultiPolygon","coordinates":[[[[-3.44455,56.39666],[-3.44472,56.39663],[-3.44469,56.39658],[-3.44501,56.39653],[-3.44481,56.39615],[-3.44488,56.39614],[-3.44479,56.39598],[-3.44423,56.39608],[-3.44455,56.39666]]]]}},
{ "type":"Feature","properties":{"osm_way_id":"59463442","name":"Morrisons","building":"supermarket","shop":"supermarket","other":{"addr:postcode":"PH1 5XD","addr:street":"Caledonian Road","alt_name":"Morrisons Perth","brand":"Morrisons","brand:wikidata":"Q922344","brand:wikipedia":"en:Morrisons","fhrs:id":"924134","opening_hours":"Mo-Sa 08:00-21:00; Su 08:00-20:00","operator":"Morrisons","wheelchair":"yes"}}, "geometry":{"type":"MultiPolygon","coordinates":[[[[-3.43887,56.39651],[-3.43994,56.39655],[-3.44,56.39652],[-3.44002,56.39631],[-3.43995,56.39631],[-3.43998,56.39599],[-3.44039,56.396],[-3.4404,56.39593],[-3.43893,56.39589],[-3.43887,56.39651]]]]}},
{ "type":"Feature","properties":{"osm_way_id":"60541459","name":"Sainsbury's","building":"yes","shop":"supermarket","other":{"addr:city":"Kinross","addr:housenumber":"65","addr:postcode":"KY13 8FH","addr:street":"Station Road","alt_name":"Sainsbury's Kinross Superstore","brand":"Sainsbury's","brand:wikidata":"Q152096","brand:wikipedia":"en:Sainsbury's","fhrs:id":"937975","opening_hours":"Mo-Su 08:00-22:00","operator":"Sainsburys"}}, "geometry":{"type":"MultiPolygon","coordinates":[[[[-3.43442,56.20728],[-3.43432,56.20697],[-3.43399,56.20701],[-3.43392,56.20682],[-3.43331,56.20688],[-3.43348,56.20738],[-3.43442,56.20728]]]]}},
{ "type":"Feature","properties":{"osm_way_id":"64219770","name":"Co-op Food","building":"yes","shop":"supermarket","other":{"addr:city":"Blairgowrie","addr:postcode":"PH10 6JR","addr:street":"Coupar Angus Road","brand":"Co-op Food","brand:wikidata":"Q3277439","brand:wikipedia":"en:Co-op Food","fhrs:id":"1043765","source:addr":"FHRS Open Data"}}, "geometry":{"type":"MultiPolygon","coordinates":[[[[-3.33335,56.58516],[-3.33323,56.58506],[-3.33329,56.58504],[-3.33357,56.58494],[-3.33368,56.58504],[-3.33335,56.58516]]]]}},
{ "type":"Feature","properties":{"osm_way_id":"64239586","name":"Co-op Food","building":"yes","shop":"supermarket","other":{"addr:city":"Blairgowrie","addr:housenumber":"58","addr:postcode":"PH10 6DL","addr:street":"Perth Street","brand":"Co-op Food","brand:wikidata":"Q3277439","brand:wikipedia":"en:Co-op Food","opening_hours":"Mo-Su 07:00-22:00","operator":"The Co-operative Group","operator:wikidata":"Q117202","operator:wikipedia":"en:The Co-operative Group"}}, "geometry":{"type":"MultiPolygon","coordinates":[[[[-3.34263,56.58914],[-3.34245,56.58931],[-3.34225,56.58925],[-3.34243,56.58908],[-3.34263,56.58914]]]]}},
{ "type":"Feature","properties":{"osm_way_id":"64240669","name":"Tesco","building":"yes","shop":"supermarket","other":{"addr:city":"Blairgowrie","addr:postcode":"PH10 6NQ","addr:street":"Welton Road","brand":"Tesco","brand:wikidata":"Q487494","brand:wikipedia":"en:Tesco","designation":"Blairgowrie Welton Superstore","opening_hours":"Mo-Sa 07:00-23:00; Su 08:00-20:00"}}, "geometry":{"type":"MultiPolygon","coordinates":[[[[-3.33476,56.58953],[-3.33484,56.58959],[-3.33515,56.58946],[-3.33528,56.58956],[-3.33617,56.59024],[-3.33598,56.59032],[-3.3359,56.59025],[-3.33606,56.59019],[-3.33593,56.59009],[-3.33582,56.59013],[-3.33578,56.59009],[-3.33511,56.59036],[-3.33428,56.58972],[-3.33476,56.58953]]]]}},
{ "type":"Feature","properties":{"osm_way_id":"137241196","name":"Co-op Food","building":"retail","shop":"supermarket","other":{"addr:city":"Crieff","addr:postcode":"PH7 4DE","addr:street":"Union Terrace","brand":"Co-op Food","brand:wikidata":"Q3277439","brand:wikipedia":"en:Co-op Food","fhrs:id":"937974","opening_hours":"Mo-Su 06:00-23:00","operator":"Co-op","source:addr":"FHRS Open Data"}}, "geometry":{"type":"MultiPolygon","coordinates":[[[[-3.84534,56.37213],[-3.84523,56.37219],[-3.84518,56.37216],[-3.84497,56.37226],[-3.8444,56.37188],[-3.84443,56.37187],[-3.84437,56.37183],[-3.84449,56.37177],[-3.84454,56.3718],[-3.84478,56.37169],[-3.8453,56.37203],[-3.84523,56.37206],[-3.84534,56.37213]]]]}},
{ "type":"Feature","properties":{"osm_way_id":"185368456","name":"The Food Warehouse","building":"yes","shop":"supermarket","other":{"addr:city":"Grimsby","addr:country":"GB","addr:postcode":"DN31 1SG","addr:street":"Alexandra Retail Park, Corporation Rd","brand":"The Food Warehouse","brand:wikidata":"Q87263899","website":"https:\/\/www.thefoodwarehouse.com\/store-locator\/grimsby"}}, "geometry":{"type":"MultiPolygon","coordinates":[[[[-0.0854,53.57191],[-0.08565,53.57194],[-0.08557,53.57218],[-0.08503,53.57211],[-0.08494,53.5721],[-0.08502,53.57187],[-0.0854,53.57191]]]]}},
{ "type":"Feature","properties":{"osm_way_id":"235049127","name":"Tesco Extra","building":"supermarket","shop":"supermarket","other":{"addr:postcode":"PH1 2NR","addr:street":"Crieff Road","alt_name":"Perth Tesco Extra","brand":"Tesco Extra","brand:wikidata":"Q25172225","brand:wikipedia":"en:Tesco Extra","operator":"Tesco"}}, "geometry":{"type":"MultiPolygon","coordinates":[[[[-3.47931,56.40831],[-3.4793,56.40826],[-3.47932,56.40826],[-3.47927,56.408],[-3.47925,56.40801],[-3.47922,56.40783],[-3.47908,56.40784],[-3.479,56.40741],[-3.4777,56.40748],[-3.47773,56.40765],[-3.47788,56.40764],[-3.47794,56.40798],[-3.47765,56.408],[-3.47768,56.40817],[-3.47774,56.40816],[-3.47778,56.4084],[-3.47931,56.40831]]]]}},
{ "type":"Feature","properties":{"osm_way_id":"235049558","name":"Aldi","building":"supermarket","shop":"supermarket","other":{"addr:housenumber":"21","addr:postcode":"PH2 0NZ","addr:street":"Glasgow Road","alt_name":"ALDI Perth","brand":"ALDI","brand:wikidata":"Q41171672","brand:wikipedia":"en:Aldi","fhrs:id":"940162","wheelchair":"yes"}}, "geometry":{"type":"MultiPolygon","coordinates":[[[[-3.44293,56.39644],[-3.44243,56.39643],[-3.44246,56.39598],[-3.44288,56.39599],[-3.44286,56.3963],[-3.44294,56.3963],[-3.44293,56.39644]]]]}},
{ "type":"Feature","properties":{"osm_way_id":"251858220","name":"Co-op Food","building":"yes","shop":"supermarket","other":{"addr:housenumber":"124","addr:postcode":"PH3 1AA","addr:street":"High Street","brand":"Co-op Food","brand:wikidata":"Q3277439","brand:wikipedia":"en:Co-op Food","fhrs:id":"1096213","operator":"The Co-operative Group","operator:wikidata":"Q117202","operator:wikipedia":"en:The Co-operative Group"}}, "geometry":{"type":"MultiPolygon","coordinates":[[[[-3.70754,56.29589],[-3.70749,56.29584],[-3.70701,56.2955],[-3.70679,56.29559],[-3.70692,56.29568],[-3.70716,56.29584],[-3.70726,56.29591],[-3.70731,56.29596],[-3.70754,56.29589]]]]}},
{ "type":"Feature","properties":{"osm_way_id":"299677469","name":"The co-operative food","building":"yes","shop":"supermarket","other":{"addr:postcode":"PH15 2AF","fhrs:id":"937983"}}, "geometry":{"type":"MultiPolygon","coordinates":[[[[-3.86264,56.62032],[-3.86249,56.6202],[-3.86239,56.62024],[-3.86244,56.62028],[-3.86239,56.6203],[-3.86249,56.62037],[-3.86264,56.62032]]]]}},
{ "type":"Feature","properties":{"osm_way_id":"331904860","name":"Co-op Food","building":"retail","shop":"supermarket","other":{"brand":"Co-op Food","brand:wikidata":"Q3277439","brand:wikipedia":"en:Co-op Food","building:levels":"1","opening_hours":"Mo-Su 06:00-23:00","wheelchair":"yes"}}, "geometry":{"type":"MultiPolygon","coordinates":[[[[-3.7341,56.70439],[-3.73356,56.70428],[-3.73368,56.7041],[-3.7335,56.70406],[-3.7336,56.70391],[-3.73381,56.70395],[-3.73371,56.70409],[-3.73396,56.70414],[-3.73405,56.704],[-3.73432,56.70406],[-3.7341,56.70439]]]]}},
{ "type":"Feature","properties":{"osm_way_id":"339935249","name":"Co-op Food","building":"yes","shop":"supermarket","other":{"brand":"Co-op Food","brand:wikidata":"Q3277439","brand:wikipedia":"en:Co-op Food","building:levels":"1","operator":"The Co-operative Group","operator:wikidata":"Q117202","operator:wikipedia":"en:The Co-operative Group"}}, "geometry":{"type":"MultiPolygon","coordinates":[[[[-3.42398,56.4008],[-3.42373,56.40082],[-3.42369,56.40064],[-3.42368,56.40064],[-3.42366,56.40053],[-3.42392,56.40052],[-3.42398,56.4008]]]]}},
{ "type":"Feature","properties":{"osm_way_id":"360905201","name":"The Co-operative Food","building":"yes","shop":"supermarket","other":{"addr:city":"Aberfeldy","addr:housenumber":"46","addr:postcode":"PH15 2AF","addr:street":"Dunkeld Street","atm":"yes","opening_hours":"Mo-Sa 06:30-21:00; Su 08:00-21:00","operator":"The Co-operative","phone":"+44 1887 822951"}}, "geometry":{"type":"MultiPolygon","coordinates":[[[[-3.86249,56.6202],[-3.8625,56.62006],[-3.86229,56.6199],[-3.86167,56.62014],[-3.86196,56.62035],[-3.86249,56.6202]]]]}},
{ "type":"Feature","properties":{"osm_way_id":"395910191","name":"Morrisons","building":"retail","shop":"supermarket","other":{"addr:city":"Kirkcaldy","addr:housenumber":"439","addr:postcode":"KY1 1SL","addr:street":"Esplanade","alt_name":"Morrisons Kirkcaldy","brand":"Morrisons","brand:wikidata":"Q922344","brand:wikipedia":"en:Morrisons","fhrs:id":"852284","toilets:wheelchair":"yes","website":"https:\/\/my.morrisons.com\/storefinder\/582","wheelchair":"yes"}}, "geometry":{"type":"MultiPolygon","coordinates":[[[[-3.16253,56.09675],[-3.16144,56.09689],[-3.16117,56.09624],[-3.16132,56.09622],[-3.1613,56.09617],[-3.16128,56.09613],[-3.16142,56.09611],[-3.16209,56.09603],[-3.16213,56.09614],[-3.16237,56.09611],[-3.16261,56.09671],[-3.16252,56.09672],[-3.16253,56.09675]]]]}},
{ "type":"Feature","properties":{"osm_way_id":"528472596","name":"Scotmid","building":"yes","shop":"supermarket","other":{"addr:city":"Coupar Angus","addr:housenumber":"55-63","addr:postcode":"PH13 9DJ","addr:street":"George Street","brand":"Scotmid","brand:wikidata":"Q7435719","brand:wikipedia":"en:Scotmid","opening_hours":"Mo-Sa 06:00-22:00; Su 07:00-22:00","website":"https:\/\/scotmid.coop\/store\/coupar-angus-1\/"}}, "geometry":{"type":"MultiPolygon","coordinates":[[[[-3.2708,56.54397],[-3.27083,56.54397],[-3.27111,56.54412],[-3.27105,56.54416],[-3.27111,56.54419],[-3.27086,56.54435],[-3.27071,56.54428],[-3.27081,56.54422],[-3.27058,56.54411],[-3.2708,56.54397]]]]}},
{ "type":"Feature","properties":{"osm_way_id":"891319463","name":"ALDI","building":"yes","shop":"supermarket","other":{"brand":"ALDI","brand:wikidata":"Q41171672","brand:wikipedia":"en:Aldi"}}, "geometry":{"type":"MultiPolygon","coordinates":[[[[-3.84104,56.36804],[-3.84058,56.36797],[-3.84083,56.36748],[-3.8413,56.36755],[-3.84104,56.36804]]]]}}
]
}
