{
"type": "FeatureCollection",
"features": [
{ "type":"Feature","properties":{"osm_id":"317770363","name":"Spar","other":{"addr:city":"Leyland","addr:housenumber":"11-15","addr:postcode":"PR25 1GJ","addr:street":"Broadfield Drive","brand":"Spar","brand:wikidata":"Q610492","brand:wikipedia":"en:Spar (retailer)","fhrs:id":"657822","shop":"supermarket"}}, "geometry":{"type":"Point","coordinates":[-2.71038,53.6974 ]}},
{ "type":"Feature","properties":{"osm_id":"480424860","name":"Sainsbury's","other":{"addr:city":"Preston","addr:postcode":"PR1 0LP","addr:street":"Birch Avenue","addr:suburb":"Preston","brand":"Sainsbury's","brand:wikidata":"Q152096","fhrs:id":"922772","shop":"supermarket","website":"https:\/\/stores.sainsburys.co.uk\/4855\/penwortham-local"}}, "geometry":{"type":"Point","coordinates":[-2.73972,53.74089 ]}},
{ "type":"Feature","properties":{"osm_id":"1616934889","name":"Waitrose","ref":"721","other":{"addr:city":"Preston","addr:district":"Walton-le-Dale","addr:place":"Capitol Centre","addr:postcode":"PR5 4AW","brand":"Waitrose","brand:wikidata":"Q771734","brand:wikipedia":"en:Waitrose & Partners","cafe":"yes","fhrs:id":"333361","official_name":"Waitrose & Partners","operator":"Waitrose & Partners","phone":"+44 1772 886066","shop":"supermarket","start_date":"2012-02-02","toilets":"yes","toilets:wheelchair":"yes","website":"https:\/\/www.waitrose.com\/waltonledale"}}, "geometry":{"type":"Point","coordinates":[-2.67926,53.74892 ]}},
{ "type":"Feature","properties":{"osm_id":"1684774968","name":"B&M Home Store","other":{"shop":"supermarket"}}, "geometry":{"type":"Point","coordinates":[-2.69043,53.69771 ]}},
{ "type":"Feature","properties":{"osm_id":"4086475508","name":"Spar","other":{"addr:city":"Leyland","addr:housenumber":"343","addr:postcode":"PR25 1UP","addr:street":"Leyland Lane","brand":"Spar","brand:wikidata":"Q610492","brand:wikipedia":"en:Spar (retailer)","fhrs:id":"28236","shop":"supermarket"}}, "geometry":{"type":"Point","coordinates":[-2.71643,53.68936 ]}},
{ "type":"Feature","properties":{"osm_id":"4088090952","name":"Asda","other":{"addr:city":"Leyland","addr:country":"GB","addr:housenumber":"171-177","addr:postcode":"PR25 2TE","addr:street":"Towngate","brand":"Asda","brand:wikidata":"Q297410","brand:wikipedia":"en:Asda","contact:website":"https:\/\/storelocator.asda.com\/north-west\/leyland\/171-towngate","fhrs:id":"197599","operator":"Asda Stores Ltd","shop":"supermarket"}}, "geometry":{"type":"Point","coordinates":[-2.69705,53.69449 ]}},
{ "type":"Feature","properties":{"osm_id":"4097476464","name":"Spar","other":{"addr:city":"Leyland","addr:district":"Farington","addr:postcode":"PR25 4YU","addr:street":"Clifton Parade","brand":"Spar","brand:wikidata":"Q610492","shop":"supermarket"}}, "geometry":{"type":"Point","coordinates":[-2.68049,53.70367 ]}},
{ "type":"Feature","properties":{"osm_id":"4757664349","name":"Spar","other":{"brand":"Spar","brand:wikidata":"Q610492","brand:wikipedia":"en:Spar (retailer)","opening_hours":"24\/7","operator":"Euro Garages","shop":"supermarket"}}, "geometry":{"type":"Point","coordinates":[-2.66797,53.68687 ]}},
{ "type":"Feature","properties":{"osm_id":"8784434508","name":"Tesco","other":{"addr:city":"Penwortham","addr:postcode":"PR1 9XE","addr:street":"Liverpool Road","brand":"Tesco","brand:wikidata":"Q487494","brand:wikipedia":"en:Tesco","contact:website":"https:\/\/www.tesco.com\/store-locator\/lancashire\/liverpool-road","internet_access":"wlan","opening_hours":"Mo-Sa 07:00-23:00, Su 10:00-16:00","operator":"Tesco PLC","payment:cash":"yes","payment:coins":"yes","payment:credit_cards":"yes","payment:debit_cards":"yes","phone":"+44 345 600 1408","shop":"supermarket","wheelchair":"yes"}}, "geometry":{"type":"Point","coordinates":[-2.72838,53.74877 ]}},
{ "type":"Feature","properties":{"osm_id":"9300983995","name":"ALDI","other":{"addr:city":"Leyland","addr:postcode":"PR25 2TU","addr:street":"School Lane","brand":"ALDI","brand:wikidata":"Q41171672","brand:wikipedia":"en:Aldi","opening_hours":"Mo-Sa 08:00-22:00; Su 10:00-16:00","shop":"supermarket","wheelchair":"yes"}}, "geometry":{"type":"Point","coordinates":[-2.69795,53.69799 ]}},
{ "type":"Feature","properties":{"osm_id":"9303664907","name":"Lidl","other":{"addr:city":"Leyland","addr:housenumber":"1","addr:postcode":"PR25 3LZ","addr:street":"Churchill Way","brand":"Lidl","brand:wikidata":"Q151954","brand:wikipedia":"en:Lidl","fhrs:id":"780747","opening_hours":"Mo-Sa 08:00-22:00; Su 10:00-16:00","shop":"supermarket","wheelchair":"yes"}}, "geometry":{"type":"Point","coordinates":[-2.69146,53.69753 ]}},
{ "type":"Feature","properties":{"osm_way_id":"81207519","name":"Booths","building":"retail","shop":"supermarket","other":{"addr:city":"Preston","addr:district":"Penwortham","addr:postcode":"PR1 0XW","addr:street":"Millbrook Way","brand":"Booths","brand:wikidata":"Q4943949","brand:wikipedia":"en:Booths","building:levels":"1","contact:website":"https:\/\/www.booths.co.uk\/store\/preston-penwortham\/","fhrs:id":"70992","opening_hours":"Mo-Sa 08:00-21:00; Su 09:30-16:00","operator":"Booths"}}, "geometry":{"type":"MultiPolygon","coordinates":[[[[-2.72987,53.73668],[-2.72942,53.73667],[-2.72945,53.73632],[-2.72949,53.73632],[-2.72951,53.73618],[-2.73005,53.73619],[-2.73004,53.7362],[-2.73019,53.73621],[-2.73016,53.73666],[-2.73001,53.73665],[-2.73001,53.73666],[-2.72987,53.73666],[-2.72987,53.73668]]]]}},
{ "type":"Feature","properties":{"osm_way_id":"81210766","name":"Co-op Food","building":"detached","shop":"supermarket","other":{"addr:city":"Preston","addr:district":"Lostock Hall","addr:housenumber":"35","addr:postcode":"PR5 5RE","addr:street":"Watkin Lane","brand":"Co-op Food","brand:wikidata":"Q3277439","brand:wikipedia":"en:Co-op Food","building:levels":"2","opening_hours":"Mo-Su 06:00-23:00","roof:shape":"gabled"}}, "geometry":{"type":"MultiPolygon","coordinates":[[[[-2.6909,53.72584],[-2.69076,53.72599],[-2.69055,53.72593],[-2.69061,53.72587],[-2.69059,53.72586],[-2.69067,53.72576],[-2.6909,53.72584]]]]}},
{ "type":"Feature","properties":{"osm_way_id":"156459729","name":"Morrisons","building":"yes","shop":"supermarket","other":{"addr:city":"Leyland","addr:postcode":"PR25 3UR","addr:street":"Olympian Way","brand":"Morrisons","brand:wikidata":"Q922344","brand:wikipedia":"en:Morrisons","fhrs:id":"159268","operator":"Morrisons Leyland"}}, "geometry":{"type":"MultiPolygon","coordinates":[[[[-2.69543,53.70044],[-2.69552,53.70021],[-2.69571,53.70023],[-2.69598,53.69952],[-2.69553,53.69946],[-2.69554,53.69942],[-2.69508,53.69936],[-2.69508,53.69935],[-2.69484,53.69932],[-2.69478,53.69949],[-2.69481,53.69949],[-2.6946,53.70004],[-2.69474,53.70006],[-2.69473,53.70009],[-2.69484,53.7001],[-2.69479,53.70025],[-2.6948,53.70025],[-2.69515,53.7003],[-2.69511,53.7004],[-2.69543,53.70044]]]]}},
{ "type":"Feature","properties":{"osm_way_id":"185335499","name":"Spar","building":"yes","shop":"supermarket","other":{"addr:city":"Preston","addr:postcode":"PR5 0JE","addr:street":"Hoghton Lane","addr:suburb":"Hoghton","brand":"Spar","brand:wikidata":"Q610492","fhrs:id":"17250","old_name":"Londis;Old Oak Wines"}}, "geometry":{"type":"MultiPolygon","coordinates":[[[[-2.61923,53.74128],[-2.61899,53.74124],[-2.61902,53.74118],[-2.61915,53.7412],[-2.61926,53.74121],[-2.61923,53.74128]]]]}},
{ "type":"Feature","properties":{"osm_way_id":"192052689","name":"Booths","building":"supermarket","shop":"supermarket","other":{"addr:city":"Preston","addr:postcode":"PR4 5AU","addr:street":"Liverpool Road","addr:suburb":"Longton","brand:wikidata":"Q4943949","contact:website":"https:\/\/www.booths.co.uk\/store\/preston-longton\/","fhrs:id":"51269"}}, "geometry":{"type":"MultiPolygon","coordinates":[[[[-2.7852,53.72745],[-2.78513,53.72746],[-2.78516,53.72757],[-2.78455,53.72765],[-2.7845,53.72749],[-2.78453,53.72749],[-2.78452,53.72744],[-2.78447,53.72745],[-2.78446,53.72743],[-2.78437,53.72744],[-2.78434,53.72733],[-2.7846,53.7273],[-2.78458,53.72724],[-2.78511,53.72718],[-2.7852,53.72745]]]]}},
{ "type":"Feature","properties":{"osm_way_id":"215403842","name":"Tesco Extra","building":"yes","shop":"supermarket","other":{"addr:city":"Leyland","addr:postcode":"PR25 2FN","addr:street":"Towngate","brand":"Tesco Extra","brand:wikidata":"Q25172225","brand:wikipedia":"en:Tesco Extra","fhrs:id":"41432"}}, "geometry":{"type":"MultiPolygon","coordinates":[[[[-2.69745,53.69069],[-2.69744,53.68962],[-2.69625,53.68963],[-2.69626,53.69],[-2.69608,53.69],[-2.69608,53.6903],[-2.69584,53.69031],[-2.69584,53.69037],[-2.69625,53.69037],[-2.69626,53.6907],[-2.69745,53.69069]]]]}},
{ "type":"Feature","properties":{"osm_way_id":"215404949","name":"Sainsbury's","building":"retail","shop":"supermarket","other":{"addr:city":"Preston","addr:postcode":"PR5 6BJ","addr:street":"Cuerden Way","addr:suburb":"Bamber Bridge","brand":"Sainsbury's","brand:wikidata":"Q152096","brand:wikipedia":"en:Sainsbury's","building:levels":"2","fhrs:id":"8604","roof:shape":"flat","wheelchair":"yes"}}, "geometry":{"type":"MultiPolygon","coordinates":[[[[-2.66881,53.72195],[-2.66772,53.72185],[-2.66771,53.72188],[-2.66713,53.72182],[-2.66712,53.72186],[-2.66698,53.72185],[-2.66681,53.72257],[-2.66813,53.72268],[-2.66819,53.72246],[-2.66873,53.72251],[-2.66875,53.72244],[-2.66866,53.72244],[-2.66881,53.72195]]]]}},
{ "type":"Feature","properties":{"osm_way_id":"289949307","name":"Morrisons","building":"supermarket","shop":"supermarket","other":{"addr:city":"Preston","addr:housenumber":"3","addr:postcode":"PR5 6WY","addr:street":"Withy Grove Road","addr:suburb":"Bamber Bridge","brand":"Morrisons","brand:wikidata":"Q922344","brand:wikipedia":"en:Morrisons","fhrs:id":"159261","old_name":"Gateway;Kwik Save;Somerfield","wheelchair":"yes"}}, "geometry":{"type":"MultiPolygon","coordinates":[[[[-2.66081,53.72961],[-2.66068,53.72931],[-2.66001,53.72944],[-2.66004,53.7295],[-2.66027,53.73],[-2.66064,53.72994],[-2.66056,53.72976],[-2.66052,53.72967],[-2.66055,53.72966],[-2.66081,53.72961]]]]}},
{ "type":"Feature","properties":{"osm_way_id":"344818211","name":"The Food Warehouse","building":"retail","shop":"supermarket","other":{"addr:city":"Preston","addr:housenumber":"191","addr:postcode":"PR5 6LA","addr:street":"Station Road","addr:suburb":"Bamber Bridge","branch":"by Iceland","brand":"The Food Warehouse","brand:wikidata":"Q87263899","building:levels":"2","fhrs:id":"1093103","operator":"Iceland","roof:shape":"flat"}}, "geometry":{"type":"MultiPolygon","coordinates":[[[[-2.66058,53.72899],[-2.65994,53.72903],[-2.65994,53.72904],[-2.65986,53.72905],[-2.65986,53.72904],[-2.65975,53.72904],[-2.6597,53.72877],[-2.66008,53.72874],[-2.66009,53.72882],[-2.66055,53.72879],[-2.66058,53.72899]]]]}},
{ "type":"Feature","properties":{"osm_way_id":"462378854","name":"ALDI","building":"retail","shop":"supermarket","other":{"addr:city":"Preston","addr:postcode":"PR5 6BJ","addr:street":"Cuerden Way","addr:suburb":"Bamber Bridge","brand":"ALDI","brand:wikidata":"Q41171672","brand:wikipedia":"en:Aldi","building:levels":"1","fhrs:id":"159167","nohousenumber":"yes","opening_hours":"Mo-Sa 08:00-22:00; Su 10:00-16:00","roof:shape":"flat"}}, "geometry":{"type":"MultiPolygon","coordinates":[[[[-2.6704,53.72265],[-2.67088,53.7226],[-2.67104,53.72311],[-2.67082,53.72313],[-2.6708,53.72308],[-2.67054,53.72311],[-2.6704,53.72265]]]]}},
{ "type":"Feature","properties":{"osm_way_id":"905251554","building":"semidetached_house","other":{"building:levels":"2","roof:shape":"gabled"}}, "geometry":{"type":"MultiPolygon","coordinates":[[[[-2.68411,53.72162],[-2.68419,53.72167],[-2.68425,53.72163],[-2.68416,53.72158],[-2.68411,53.72162]]]]}}
]
}
