{
"type": "FeatureCollection",
"features": [
{ "type":"Feature","properties":{"osm_id":"6388163161","other":{"entrance":"yes"}}, "geometry":{"type":"Point","coordinates":[-0.19691,51.80376 ]}},
{ "type":"Feature","properties":{"osm_way_id":"10427950","name":"Marks & Spencer Distribution Centre (DHL)","building":"warehouse","other":{"addr:city":"Hatfield","addr:postcode":"AL10 8XF","addr:street":"Travellers Lane"}}, "geometry":{"type":"MultiPolygon","coordinates":[[[[-0.22135,51.74333],[-0.21946,51.7441],[-0.21878,51.74347],[-0.22066,51.74269],[-0.22088,51.74291],[-0.22103,51.74285],[-0.22127,51.74307],[-0.22114,51.74313],[-0.22135,51.74333]]]]}},
{ "type":"Feature","properties":{"osm_way_id":"10427951","name":"Marks & Spencer Distribution Centre (DHL)","building":"warehouse","other":{"addr:city":"Hatfield","addr:postcode":"AL10 8XF","addr:street":"Travellers Lane"}}, "geometry":{"type":"MultiPolygon","coordinates":[[[[-0.2212,51.74193],[-0.22058,51.74219],[-0.22068,51.74228],[-0.22019,51.74248],[-0.22016,51.74253],[-0.22008,51.74253],[-0.21969,51.74269],[-0.2196,51.7426],[-0.21862,51.743],[-0.21871,51.74308],[-0.21857,51.74314],[-0.2175,51.74214],[-0.21766,51.74208],[-0.21736,51.74179],[-0.21766,51.74167],[-0.21797,51.74196],[-0.21939,51.74137],[-0.2193,51.74129],[-0.21953,51.74119],[-0.21963,51.74128],[-0.22024,51.74103],[-0.2212,51.74193]]]]}},
{ "type":"Feature","properties":{"osm_way_id":"46613291","name":"Ocado General Merchandise Distribution Centre","building":"yes","other":{"addr:city":"Welwyn Garden City","addr:housename":"Aquarius House","addr:postcode":"AL7 1HH","addr:street":"Bessemer Road","building:levels":"2"}}, "geometry":{"type":"MultiPolygon","coordinates":[[[[-0.19658,51.80425],[-0.19691,51.80376],[-0.19694,51.80371],[-0.1971,51.80347],[-0.19713,51.80342],[-0.19617,51.80318],[-0.19569,51.80391],[-0.19562,51.80389],[-0.19557,51.80396],[-0.19565,51.80398],[-0.19563,51.80401],[-0.19658,51.80425]]]]}},
{ "type":"Feature","properties":{"osm_way_id":"104498642","name":"P W Gates Distribution & Focus International","building":"warehouse","other":{"building:levels":"1"}}, "geometry":{"type":"MultiPolygon","coordinates":[[[[-0.20311,51.79842],[-0.20387,51.79856],[-0.2031,51.80008],[-0.20236,51.79994],[-0.20311,51.79842]]]]}}
]
}
