{
"type": "FeatureCollection",
"features": [
{ "type":"Feature","properties":{"osm_way_id":"10427950","name":"Marks & Spencer Distribution Centre (DHL)","building":"warehouse","other":{"addr:city":"Hatfield","addr:postcode":"AL10 8XF","addr:street":"Travellers Lane"}}, "geometry":{"type":"MultiPolygon","coordinates":[[[[-0.22135,51.74333],[-0.21946,51.7441],[-0.21878,51.74347],[-0.22066,51.74269],[-0.22088,51.74291],[-0.22103,51.74285],[-0.22127,51.74307],[-0.22114,51.74313],[-0.22135,51.74333]]]]}},
{ "type":"Feature","properties":{"osm_way_id":"10427951","name":"Marks & Spencer Distribution Centre (DHL)","building":"warehouse","other":{"addr:city":"Hatfield","addr:postcode":"AL10 8XF","addr:street":"Travellers Lane"}}, "geometry":{"type":"MultiPolygon","coordinates":[[[[-0.2212,51.74193],[-0.22058,51.74219],[-0.22068,51.74228],[-0.22019,51.74248],[-0.22016,51.74253],[-0.22008,51.74253],[-0.21969,51.74269],[-0.2196,51.7426],[-0.21862,51.743],[-0.21871,51.74308],[-0.21857,51.74314],[-0.2175,51.74214],[-0.21766,51.74208],[-0.21736,51.74179],[-0.21766,51.74167],[-0.21797,51.74196],[-0.21939,51.74137],[-0.2193,51.74129],[-0.21953,51.74119],[-0.21963,51.74128],[-0.22024,51.74103],[-0.2212,51.74193]]]]}},
{ "type":"Feature","properties":{"osm_way_id":"10427955","name":"Thorns","building":"warehouse","other":{"addr:postcode":"AL9 7HN","addr:street":"Travellers Lane","alt_name":"Castle Stanton Ltd","building:levels":"2"}}, "geometry":{"type":"MultiPolygon","coordinates":[[[[-0.21901,51.73959],[-0.21898,51.7396],[-0.21903,51.73967],[-0.21853,51.7398],[-0.21849,51.73973],[-0.21832,51.73978],[-0.21806,51.7394],[-0.21763,51.73951],[-0.21734,51.73908],[-0.21846,51.73878],[-0.21855,51.73891],[-0.21863,51.73888],[-0.21874,51.73905],[-0.21866,51.73907],[-0.21883,51.73933],[-0.2189,51.73931],[-0.21902,51.73949],[-0.21895,51.73951],[-0.21901,51.73959]]]]}},
{ "type":"Feature","properties":{"osm_way_id":"16946395","name":"Computacenter Operations Centre","building":"warehouse","other":{"addr:city":"Hatfield","addr:postcode":"AL10 9TW","addr:street":"Hatfield Avenue","building:levels":"3"}}, "geometry":{"type":"MultiPolygon","coordinates":[[[[-0.24676,51.77523],[-0.24446,51.77429],[-0.24562,51.77318],[-0.24656,51.77356],[-0.24618,51.77393],[-0.24701,51.77426],[-0.24661,51.77462],[-0.24718,51.77485],[-0.24676,51.77523]]]]}},
{ "type":"Feature","properties":{"osm_way_id":"50702688","name":"Booker Cash & Carry","building":"warehouse","other":{"addr:city":"Hatfield","addr:postcode":"AL10 9TR","addr:street":"Frobisher Way"}}, "geometry":{"type":"MultiPolygon","coordinates":[[[[-0.24938,51.77011],[-0.24773,51.77322],[-0.24639,51.77293],[-0.24686,51.77205],[-0.24658,51.77198],[-0.2467,51.77177],[-0.24677,51.77179],[-0.24743,51.77056],[-0.24763,51.77059],[-0.24803,51.76983],[-0.24938,51.77011]]]]}},
{ "type":"Feature","properties":{"osm_way_id":"53348580","name":"Westward House","building":"warehouse","other":{"addr:city":"Hatfield","addr:housenumber":"2","addr:postcode":"AL10 8BJ","addr:street":"Bury Road","building:levels":"2"}}, "geometry":{"type":"MultiPolygon","coordinates":[[[[-0.21756,51.76273],[-0.21757,51.7624],[-0.2173,51.76239],[-0.21728,51.76273],[-0.21756,51.76273]]]]}},
{ "type":"Feature","properties":{"osm_way_id":"104498642","name":"P W Gates Distribution & Focus International","building":"warehouse","other":{"building:levels":"1"}}, "geometry":{"type":"MultiPolygon","coordinates":[[[[-0.20311,51.79842],[-0.20387,51.79856],[-0.2031,51.80008],[-0.20236,51.79994],[-0.20311,51.79842]]]]}},
{ "type":"Feature","properties":{"osm_way_id":"182846492","name":"GJW Titmuss Ltd","building":"warehouse","other":{"addr:city":"Hatfield","addr:housenumber":"1","addr:postcode":"AL10 9EW","addr:street":"Hearle Way","building:levels":"2"}}, "geometry":{"type":"MultiPolygon","coordinates":[[[[-0.24187,51.76899],[-0.24235,51.76899],[-0.24233,51.76868],[-0.24185,51.76868],[-0.24187,51.76899]]]]}},
{ "type":"Feature","properties":{"osm_way_id":"311044534","name":"Toolbank","building":"warehouse","other":{"addr:city":"Hatfield","addr:housename":"Toolbank","addr:postcode":"AL10 9BS","addr:street":"Gypsy Moth Avenue","building:levels":"3"}}, "geometry":{"type":"MultiPolygon","coordinates":[[[[-0.2412,51.77223],[-0.24148,51.7719],[-0.24032,51.77151],[-0.24004,51.77183],[-0.2412,51.77223]]]]}},
{ "type":"Feature","properties":{"osm_way_id":"676417903","name":"Arla PCL","building":"warehouse","other":{"addr:city":"Hatfield","addr:housenumber":"4000","addr:postcode":"AL10 9US","addr:street":"Mosquito Way"}}, "geometry":{"type":"MultiPolygon","coordinates":[[[[-0.23998,51.77095],[-0.24078,51.76999],[-0.24054,51.76991],[-0.24044,51.77003],[-0.23817,51.76931],[-0.23747,51.77015],[-0.23998,51.77095]]]]}},
{ "type":"Feature","properties":{"osm_way_id":"689012949","name":"Cadisch Precision Meshes & Ecoled","building":"warehouse","other":{"addr:city":"Hatfield","addr:housenumber":"2","addr:postcode":"AL10 9EW","addr:street":"Hearle Way","building:levels":"2"}}, "geometry":{"type":"MultiPolygon","coordinates":[[[[-0.24178,51.76961],[-0.24209,51.7697],[-0.24232,51.76942],[-0.24202,51.76932],[-0.24178,51.76961]]]]}},
{ "type":"Feature","properties":{"osm_way_id":"689012950","name":"Astra Tools","building":"warehouse","other":{"addr:city":"Hatfield","addr:housenumber":"4","addr:postcode":"AL10 9EW","addr:street":"Hearle Way","building:levels":"2"}}, "geometry":{"type":"MultiPolygon","coordinates":[[[[-0.24209,51.7697],[-0.24238,51.7698],[-0.24261,51.76951],[-0.24232,51.76942],[-0.24209,51.7697]]]]}},
{ "type":"Feature","properties":{"osm_way_id":"689012951","name":"Stevensons School Uniform","building":"warehouse","other":{"addr:city":"Hatfield","addr:housenumber":"6","addr:postcode":"AL10 9EW","addr:street":"Hearle Way","building:levels":"2"}}, "geometry":{"type":"MultiPolygon","coordinates":[[[[-0.24238,51.7698],[-0.24267,51.76989],[-0.24291,51.76961],[-0.24261,51.76951],[-0.24238,51.7698]]]]}},
{ "type":"Feature","properties":{"osm_way_id":"689012953","name":"Socks World International","building":"warehouse","other":{"addr:city":"Hatfield","addr:housenumber":"10","addr:postcode":"AL10 9EW","addr:street":"Hearle Way","building:levels":"2"}}, "geometry":{"type":"MultiPolygon","coordinates":[[[[-0.243,51.77],[-0.24358,51.77019],[-0.24382,51.7699],[-0.24324,51.76971],[-0.243,51.77]]]]}},
{ "type":"Feature","properties":{"osm_way_id":"689012954","name":"Green Access Plc","building":"warehouse","other":{"addr:city":"Hatfield","addr:housenumber":"19","addr:postcode":"AL10 9EW","addr:street":"Hearle Way","building:levels":"2"}}, "geometry":{"type":"MultiPolygon","coordinates":[[[[-0.24365,51.76899],[-0.24375,51.76888],[-0.24348,51.76879],[-0.24338,51.7689],[-0.24365,51.76899]]]]}},
{ "type":"Feature","properties":{"osm_way_id":"689012955","name":"Image2Output Ltd","building":"warehouse","other":{"addr:city":"Hatfield","addr:housenumber":"17","addr:postcode":"AL10 9EW","addr:street":"Hearle Way","building:levels":"2"}}, "geometry":{"type":"MultiPolygon","coordinates":[[[[-0.24356,51.7691],[-0.24365,51.76899],[-0.24338,51.7689],[-0.24335,51.76894],[-0.24329,51.76901],[-0.24356,51.7691]]]]}},
{ "type":"Feature","properties":{"osm_way_id":"689012956","name":"RPN","building":"warehouse","other":{"addr:city":"Hatfield","addr:housenumber":"15","addr:postcode":"AL10 9EW","addr:street":"Hearle Way","building:levels":"2"}}, "geometry":{"type":"MultiPolygon","coordinates":[[[[-0.24346,51.76921],[-0.24356,51.7691],[-0.24329,51.76901],[-0.24324,51.76907],[-0.2432,51.76912],[-0.24346,51.76921]]]]}},
{ "type":"Feature","properties":{"osm_way_id":"689012960","name":"Alpha Pneumatic Supplies Ltd","building":"warehouse","other":{"addr:city":"Hatfield","addr:housenumber":"7","addr:postcode":"AL10 9EW","addr:street":"Hearle Way","building:levels":"2"}}, "geometry":{"type":"MultiPolygon","coordinates":[[[[-0.24324,51.76907],[-0.24329,51.76901],[-0.24335,51.76894],[-0.24308,51.76885],[-0.24296,51.76899],[-0.24324,51.76907]]]]}},
{ "type":"Feature","properties":{"osm_way_id":"689012961","name":"SFH (UK) Ltd","building":"warehouse","other":{"addr:city":"Hatfield","addr:housenumber":"5","addr:postcode":"AL10 9EW","addr:street":"Hearle Way","building:levels":"2"}}, "geometry":{"type":"MultiPolygon","coordinates":[[[[-0.24313,51.7692],[-0.24324,51.76907],[-0.24296,51.76899],[-0.24286,51.76911],[-0.24313,51.7692]]]]}},
{ "type":"Feature","properties":{"osm_way_id":"689012962","name":"Northstar Environmental Solutions Ltd","building":"warehouse","other":{"addr:city":"Hatfield","addr:housenumber":"3","addr:postcode":"AL10 9EW","addr:street":"Hearle Way","building:levels":"2"}}, "geometry":{"type":"MultiPolygon","coordinates":[[[[-0.24301,51.76934],[-0.2431,51.76923],[-0.24313,51.7692],[-0.24286,51.76911],[-0.24274,51.76926],[-0.24301,51.76934]]]]}},
{ "type":"Feature","properties":{"osm_way_id":"689012963","name":"Lightning Packaging Supplies","building":"warehouse","other":{"addr:city":"Hatfield","addr:housenumber":"23","addr:postcode":"AL10 9EW","addr:street":"Hearle Way","building:levels":"2"}}, "geometry":{"type":"MultiPolygon","coordinates":[[[[-0.24383,51.76873],[-0.24394,51.7686],[-0.24357,51.76848],[-0.24347,51.76861],[-0.24383,51.76873]]]]}},
{ "type":"Feature","properties":{"osm_way_id":"689012964","name":"Cadisch MDA Ltd","building":"warehouse","other":{"addr:city":"Hatfield","addr:housenumber":"21","addr:postcode":"AL10 9EW","addr:street":"Hearle Way","building:levels":"2"}}, "geometry":{"type":"MultiPolygon","coordinates":[[[[-0.24373,51.76885],[-0.24383,51.76873],[-0.24347,51.76861],[-0.24337,51.76874],[-0.24373,51.76885]]]]}},
{ "type":"Feature","properties":{"osm_way_id":"689012965","name":"Ardic UK Ltd","building":"warehouse","other":{"addr:city":"Hatfield","addr:housenumber":"28","addr:postcode":"AL10 9EW","addr:street":"Hearle Way","building:levels":"2"}}, "geometry":{"type":"MultiPolygon","coordinates":[[[[-0.24494,51.76884],[-0.24511,51.76877],[-0.2449,51.76858],[-0.24473,51.76865],[-0.24494,51.76884]]]]}},
{ "type":"Feature","properties":{"osm_way_id":"689012966","name":"Georges Industrial Services","building":"warehouse","other":{"addr:city":"Hatfield","addr:housenumber":"26","addr:postcode":"AL10 9EW","addr:street":"Hearle Way","building:levels":"2"}}, "geometry":{"type":"MultiPolygon","coordinates":[[[[-0.24477,51.76891],[-0.24494,51.76884],[-0.24473,51.76865],[-0.24456,51.76872],[-0.24477,51.76891]]]]}},
{ "type":"Feature","properties":{"osm_way_id":"689012967","name":"MG Strickland","building":"warehouse","other":{"addr:city":"Hatfield","addr:housenumber":"25","addr:postcode":"AL10 9EW","addr:street":"Hearle Way","building:levels":"2"}}, "geometry":{"type":"MultiPolygon","coordinates":[[[[-0.24393,51.76856],[-0.24409,51.76849],[-0.24395,51.76836],[-0.24378,51.76843],[-0.24393,51.76856]]]]}},
{ "type":"Feature","properties":{"osm_way_id":"689012969","name":"Karma Se7en Ltd & RP Express Ltd","building":"warehouse","other":{"addr:city":"Hatfield","addr:housenumber":"27","addr:postcode":"AL10 9EW","addr:street":"Hearle Way","building:levels":"2"}}, "geometry":{"type":"MultiPolygon","coordinates":[[[[-0.24409,51.76849],[-0.24427,51.76842],[-0.24412,51.76829],[-0.24395,51.76836],[-0.24409,51.76849]]]]}},
{ "type":"Feature","properties":{"osm_way_id":"689012970","name":"Mead Building Contractors Ltd","building":"warehouse","other":{"addr:city":"Hatfield","addr:housenumber":"29","addr:postcode":"AL10 9EW","addr:street":"Hearle Way","building:levels":"2"}}, "geometry":{"type":"MultiPolygon","coordinates":[[[[-0.24427,51.76842],[-0.24443,51.76835],[-0.24428,51.76822],[-0.24412,51.76829],[-0.24427,51.76842]]]]}},
{ "type":"Feature","properties":{"osm_way_id":"689012971","name":"DEA Gate Automation","building":"warehouse","other":{"addr:city":"Hatfield","addr:housenumber":"31","addr:postcode":"AL10 9EW","addr:street":"Hearle Way","building:levels":"2"}}, "geometry":{"type":"MultiPolygon","coordinates":[[[[-0.24443,51.76835],[-0.24459,51.76829],[-0.24444,51.76815],[-0.24428,51.76822],[-0.24443,51.76835]]]]}},
{ "type":"Feature","properties":{"osm_way_id":"689012972","name":"KWB London Ltd","building":"warehouse","other":{"addr:city":"Hatfield","addr:housenumber":"41","addr:postcode":"AL10 9EW","addr:street":"Hearle Way","building:levels":"2"}}, "geometry":{"type":"MultiPolygon","coordinates":[[[[-0.24522,51.76847],[-0.24541,51.76864],[-0.24572,51.76851],[-0.24554,51.76834],[-0.24522,51.76847]]]]}},
{ "type":"Feature","properties":{"osm_way_id":"689012973","name":"Mercer & Hole","building":"warehouse","other":{"addr:city":"Hatfield","addr:housenumber":"39","addr:postcode":"AL10 9EW","addr:street":"Hearle Way","building:levels":"2"}}, "geometry":{"type":"MultiPolygon","coordinates":[[[[-0.24509,51.76835],[-0.24522,51.76847],[-0.24554,51.76834],[-0.24541,51.76822],[-0.24509,51.76835]]]]}},
{ "type":"Feature","properties":{"osm_way_id":"689012974","name":"Lightning Packaging Supplies","building":"warehouse","other":{"addr:city":"Hatfield","addr:housenumber":"37","addr:postcode":"AL10 9EW","addr:street":"Hearle Way","building:levels":"2"}}, "geometry":{"type":"MultiPolygon","coordinates":[[[[-0.24497,51.76823],[-0.24509,51.76835],[-0.24541,51.76822],[-0.24528,51.7681],[-0.24497,51.76823]]]]}},
{ "type":"Feature","properties":{"osm_way_id":"689012975","name":"Lightning Packaging Supplies","building":"warehouse","other":{"addr:city":"Hatfield","addr:housenumber":"35","addr:postcode":"AL10 9EW","addr:street":"Hearle Way","building:levels":"2"}}, "geometry":{"type":"MultiPolygon","coordinates":[[[[-0.24483,51.76811],[-0.24497,51.76823],[-0.24528,51.7681],[-0.24515,51.76798],[-0.24483,51.76811]]]]}},
{ "type":"Feature","properties":{"osm_way_id":"689012976","name":"Lightning Packaging Supplies","building":"warehouse","other":{"addr:city":"Hatfield","addr:housenumber":"33","addr:postcode":"AL10 9EW","addr:street":"Hearle Way","building:levels":"2"}}, "geometry":{"type":"MultiPolygon","coordinates":[[[[-0.24464,51.76793],[-0.24483,51.76811],[-0.24515,51.76798],[-0.24496,51.7678],[-0.24464,51.76793]]]]}},
{ "type":"Feature","properties":{"osm_way_id":"689012978","name":"Global Rail Construction","building":"warehouse","other":{"addr:city":"Hatfield","addr:housenumber":"18","addr:postcode":"AL10 9EW","addr:street":"Hearle Way","building:levels":"2"}}, "geometry":{"type":"MultiPolygon","coordinates":[[[[-0.24431,51.76931],[-0.2444,51.7692],[-0.24415,51.76912],[-0.24405,51.76923],[-0.24431,51.76931]]]]}},
{ "type":"Feature","properties":{"osm_way_id":"689012979","name":"Global Rail Construction","building":"warehouse","other":{"addr:city":"Hatfield","addr:housenumber":"20","addr:postcode":"AL10 9EW","addr:street":"Hearle Way","building:levels":"2"}}, "geometry":{"type":"MultiPolygon","coordinates":[[[[-0.2444,51.7692],[-0.2445,51.76909],[-0.24424,51.76901],[-0.24415,51.76912],[-0.2444,51.7692]]]]}},
{ "type":"Feature","properties":{"osm_way_id":"689012980","name":"Flamefield Ltd","building":"warehouse","other":{"addr:city":"Hatfield","addr:housenumber":"22","addr:postcode":"AL10 9EW","addr:street":"Hearle Way","building:levels":"2"}}, "geometry":{"type":"MultiPolygon","coordinates":[[[[-0.2445,51.76909],[-0.24459,51.76898],[-0.24433,51.7689],[-0.24424,51.76901],[-0.2445,51.76909]]]]}},
{ "type":"Feature","properties":{"osm_way_id":"689012981","name":"Xenith Document Systems","building":"warehouse","other":{"addr:city":"Hatfield","addr:housenumber":"24","addr:postcode":"AL10 9EW","addr:street":"Hearle Way","building:levels":"2"}}, "geometry":{"type":"MultiPolygon","coordinates":[[[[-0.24459,51.76898],[-0.24468,51.76887],[-0.24442,51.76879],[-0.24433,51.7689],[-0.24459,51.76898]]]]}},
{ "type":"Feature","properties":{"osm_way_id":"689012982","name":"Vital Innovations Ltd","building":"warehouse","other":{"addr:city":"Hatfield","addr:housenumber":"16","addr:postcode":"AL10 9EW","addr:street":"Hearle Way","building:levels":"2"}}, "geometry":{"type":"MultiPolygon","coordinates":[[[[-0.24421,51.76944],[-0.24431,51.76933],[-0.24404,51.76924],[-0.24394,51.76936],[-0.24421,51.76944]]]]}},
{ "type":"Feature","properties":{"osm_way_id":"689012983","name":"Alpha Pneumatic Supplies Ltd","building":"warehouse","other":{"addr:city":"Hatfield","addr:housenumber":"14","addr:postcode":"AL10 9EW","addr:street":"Hearle Way","building:levels":"2"}}, "geometry":{"type":"MultiPolygon","coordinates":[[[[-0.24412,51.76955],[-0.24421,51.76944],[-0.24394,51.76936],[-0.24385,51.76947],[-0.24412,51.76955]]]]}},
{ "type":"Feature","properties":{"osm_way_id":"764436969","name":"TRUX Storage & Removals","building":"warehouse","shop":"storage_rental"},"geometry":{"type":"MultiPolygon","coordinates":[[[[-0.10833,51.70731],[-0.10831,51.70712],[-0.10795,51.70713],[-0.10797,51.70733],[-0.10833,51.70731]]]]}},
{ "type":"Feature","properties":{"osm_way_id":"804786233","name":"Eurocoin","building":"warehouse","other":{"addr:housename":"Unit 2","addr:postcode":"AL9 7JL","addr:street":"Travellers Close","building:levels":"2"}}, "geometry":{"type":"MultiPolygon","coordinates":[[[[-0.21575,51.73889],[-0.2158,51.73869],[-0.21609,51.73872],[-0.21605,51.73892],[-0.21575,51.73889]]]]}}
]
}
