{
"type": "FeatureCollection",
"features": [
{ "type":"Feature","properties":{"osm_id":"420692677","name":"Poundstretcher","other":{"shop":"supermarket"}}, "geometry":{"type":"Point","coordinates":[-2.27778,52.34257 ]}},
{ "type":"Feature","properties":{"osm_id":"700331859","name":"Co-op Food","other":{"brand":"Co-op Food","brand:wikidata":"Q3277439","brand:wikipedia":"en:Co-op Food","shop":"supermarket"}}, "geometry":{"type":"Point","coordinates":[-2.25957,52.37497 ]}},
{ "type":"Feature","properties":{"osm_id":"700852345","name":"Costcutter","other":{"brand":"Costcutter","brand:wikidata":"Q5175072","brand:wikipedia":"en:Costcutter","shop":"supermarket"}}, "geometry":{"type":"Point","coordinates":[-2.26687,52.37774 ]}},
{ "type":"Feature","properties":{"osm_id":"702241992","name":"Select & Save","other":{"shop":"supermarket"}}, "geometry":{"type":"Point","coordinates":[-2.2268,52.38526 ]}},
{ "type":"Feature","properties":{"osm_id":"3662248429","name":"Tesco","other":{"brand":"Tesco","brand:wikidata":"Q487494","brand:wikipedia":"en:Tesco","contact:website":"https:\/\/www.tesco.com\/store-locator\/stourport\/severn-rd","shop":"supermarket"}}, "geometry":{"type":"Point","coordinates":[-2.27448,52.33935 ]}},
{ "type":"Feature","properties":{"osm_id":"3730921238","name":"The Co-operative","other":{"addr:city":"Bewdley","addr:street":"Kidderminster Road","shop":"supermarket"}}, "geometry":{"type":"Point","coordinates":[-2.3113,52.37702 ]}},
{ "type":"Feature","properties":{"osm_id":"4872936264","name":"Nisa","other":{"shop":"supermarket"}}, "geometry":{"type":"Point","coordinates":[-2.28634,52.34945 ]}},
{ "type":"Feature","properties":{"osm_id":"5118270982","name":"Wolverley Store","other":{"addr:city":"Kidderminster","addr:housenumber":"37","addr:postcode":"DY11 5UA","addr:street":"Sebright Rd","opening_hours":"Mo-Sa 07:30-19:00","operator":"Costcutter","shop":"supermarket"}}, "geometry":{"type":"Point","coordinates":[-2.26248,52.41034 ]}},
{ "type":"Feature","properties":{"osm_way_id":"55785284","name":"Co-op Food","building":"supermarket","shop":"supermarket","other":{"brand":"Co-op Food","brand:wikidata":"Q3277439","brand:wikipedia":"en:Co-op Food"}}, "geometry":{"type":"MultiPolygon","coordinates":[[[[-2.26914,52.39829],[-2.26913,52.39831],[-2.26917,52.39832],[-2.26917,52.39835],[-2.26912,52.39835],[-2.26912,52.39838],[-2.26906,52.39841],[-2.26909,52.39843],[-2.26892,52.39852],[-2.26886,52.39848],[-2.26854,52.39865],[-2.26803,52.39831],[-2.26866,52.39796],[-2.26914,52.39829]]]]}},
{ "type":"Feature","properties":{"osm_way_id":"55939274","name":"Sainsbury's","building":"retail","shop":"supermarket","other":{"addr:city":"Kidderminster","addr:housenumber":"2","addr:postcode":"DY11 6XP","addr:street":"Carpet Trades Way","alt_name":"Sainsbury's Kidderminster Superstore","brand":"Sainsbury's","brand:wikidata":"Q152096","brand:wikipedia":"en:Sainsbury's","building:levels":"2","opening_hours":"Mo-Sa 07:00-22:00; Su 10:00-16:00","roof:levels":"0"}}, "geometry":{"type":"MultiPolygon","coordinates":[[[[-2.25486,52.39188],[-2.25462,52.39198],[-2.25416,52.39216],[-2.25336,52.39144],[-2.25341,52.39143],[-2.2543,52.39108],[-2.25434,52.39107],[-2.25442,52.39115],[-2.25464,52.39106],[-2.25512,52.39153],[-2.25468,52.3917],[-2.25486,52.39188]]]]}},
{ "type":"Feature","properties":{"osm_way_id":"63830277","name":"Tesco","building":"supermarket","shop":"supermarket","other":{"addr:city":"Kidderminster","addr:postcode":"DY11 6SW","addr:street":"Castle Road","alt_name":"Tesco Kidderminster Superstore","brand":"Tesco","brand:wikidata":"Q487494","brand:wikipedia":"en:Tesco","opening_hours":"24\/7","wheelchair":"yes"}}, "geometry":{"type":"MultiPolygon","coordinates":[[[[-2.25074,52.38492],[-2.25016,52.38488],[-2.24921,52.38483],[-2.24924,52.38462],[-2.24939,52.38463],[-2.24944,52.38432],[-2.24971,52.38433],[-2.24973,52.38418],[-2.25047,52.38422],[-2.25048,52.38412],[-2.25003,52.3841],[-2.25004,52.38405],[-2.25004,52.38403],[-2.2503,52.38405],[-2.25086,52.38408],[-2.25074,52.38492]]]]}},
{ "type":"Feature","properties":{"osm_way_id":"64128385","name":"Asda","building":"retail","shop":"supermarket","other":{"addr:city":"Kidderminster","addr:country":"GB","addr:postcode":"DY10 1HG","addr:street":"New Road","brand":"Asda","brand:wikidata":"Q297410","brand:wikipedia":"en:Asda","contact:facebook":"https:\/\/www.facebook.com\/asda\/","contact:twitter":"@asda","contact:website":"https:\/\/storelocator.asda.com\/west-midlands\/kidderminster\/new-road","fhrs:id":"686436","operator":"Asda Stores Ltd"}}, "geometry":{"type":"MultiPolygon","coordinates":[[[[-2.25046,52.38209],[-2.25019,52.38198],[-2.25064,52.38158],[-2.25075,52.38162],[-2.25089,52.38169],[-2.2506,52.38195],[-2.25046,52.38209]]]]}},
{ "type":"Feature","properties":{"osm_way_id":"174125052","name":"Co-op","building":"yes","shop":"supermarket"},"geometry":{"type":"MultiPolygon","coordinates":[[[[-2.27911,52.34187],[-2.27799,52.34176],[-2.278,52.34173],[-2.27788,52.34172],[-2.27782,52.34171],[-2.2778,52.34179],[-2.27787,52.34184],[-2.27782,52.34198],[-2.27775,52.34197],[-2.27772,52.34206],[-2.2778,52.34207],[-2.27778,52.34212],[-2.27863,52.3422],[-2.27869,52.34199],[-2.27907,52.34202],[-2.27911,52.34187]]]]}},
{ "type":"Feature","properties":{"osm_way_id":"174125053","name":"Lidl","building":"retail","shop":"supermarket","other":{"addr:country":"GB","addr:postcode":"DY13 8YJ","addr:street":"Vale Road","brand":"Lidl","brand:wikidata":"Q151954","brand:wikipedia":"en:Lidl","fhrs:id":"686659"}}, "geometry":{"type":"MultiPolygon","coordinates":[[[[-2.2762,52.34286],[-2.27605,52.34275],[-2.27598,52.34271],[-2.27635,52.34248],[-2.27632,52.34246],[-2.27646,52.34238],[-2.2765,52.3424],[-2.27655,52.34237],[-2.27668,52.34238],[-2.27683,52.34248],[-2.27671,52.34255],[-2.27662,52.34261],[-2.27669,52.34265],[-2.27653,52.34274],[-2.27655,52.34275],[-2.27639,52.34283],[-2.27632,52.34284],[-2.2762,52.34286]]]]}},
{ "type":"Feature","properties":{"osm_way_id":"227115312","name":"ALDI","building":"commercial","shop":"supermarket","other":{"addr:city":"Kidderminster","addr:postcode":"DY10 1JF","addr:street":"Green Street","alt_name":"ALDI Kidderminster","brand":"ALDI","brand:wikidata":"Q41171672","brand:wikipedia":"en:Aldi","wheelchair":"yes"}}, "geometry":{"type":"MultiPolygon","coordinates":[[[[-2.24741,52.38406],[-2.24723,52.38401],[-2.24695,52.38439],[-2.2473,52.38449],[-2.24762,52.38407],[-2.24744,52.38402],[-2.24741,52.38406]]]]}},
{ "type":"Feature","properties":{"osm_way_id":"311046356","name":"Morrisons","building":"yes","shop":"supermarket","other":{"addr:city":"Kidderminster","addr:postcode":"DY10 1AZ","addr:street":"Green Street","alt_name":"Morrisons Kidderminster","brand":"Morrisons","brand:wikidata":"Q922344","brand:wikipedia":"en:Morrisons","wheelchair":"yes"}}, "geometry":{"type":"MultiPolygon","coordinates":[[[[-2.24581,52.38459],[-2.24536,52.38402],[-2.24542,52.38392],[-2.24529,52.3839],[-2.24523,52.38401],[-2.24517,52.38402],[-2.24484,52.38412],[-2.24438,52.38426],[-2.24475,52.38474],[-2.24461,52.38478],[-2.2447,52.38491],[-2.24457,52.38495],[-2.24463,52.38504],[-2.24474,52.38509],[-2.24522,52.38495],[-2.2454,52.38482],[-2.24581,52.38459]]]]}},
{ "type":"Feature","properties":{"osm_way_id":"502137157","name":"Aldi","building":"commercial","shop":"supermarket","other":{"brand":"ALDI","brand:wikidata":"Q41171672","brand:wikipedia":"en:Aldi"}}, "geometry":{"type":"MultiPolygon","coordinates":[[[[-2.26267,52.36993],[-2.26177,52.36977],[-2.2619,52.36948],[-2.26232,52.36956],[-2.26231,52.36958],[-2.26272,52.36965],[-2.26264,52.36983],[-2.26271,52.36984],[-2.26267,52.36993]]]]}},
{ "type":"Feature","properties":{"osm_way_id":"841077093","building":"yes","shop":"supermarket"},"geometry":{"type":"MultiPolygon","coordinates":[[[[-2.22705,52.38517],[-2.22697,52.38511],[-2.22668,52.38526],[-2.22677,52.38532],[-2.22705,52.38517]]]]}}
]
}
