{
"type": "FeatureCollection",
"features": [
{ "type":"Feature","properties":{"osm_way_id":"27462637","name":"D82","building":"warehouse","other":{"source:name":"NaPTAN"}}, "geometry":{"type":"MultiPolygon","coordinates":[[[[-1.19011,52.92943],[-1.18882,52.92796],[-1.18859,52.92771],[-1.18693,52.92828],[-1.18787,52.9293],[-1.18691,52.92962],[-1.18754,52.9303],[-1.19011,52.92943]]]]}},
{ "type":"Feature","properties":{"osm_way_id":"37137702","name":"Dairy Crest","building":"warehouse","other":{"building:levels":"1"}}, "geometry":{"type":"MultiPolygon","coordinates":[[[[-0.99163,51.45935],[-0.99145,51.45909],[-0.99081,51.45926],[-0.99077,51.45927],[-0.99095,51.45953],[-0.99163,51.45935]]]]}},
{ "type":"Feature","properties":{"osm_way_id":"38492216","building":"warehouse"},"geometry":{"type":"MultiPolygon","coordinates":[[[[-0.99922,51.46098],[-0.99885,51.46095],[-0.99881,51.46124],[-0.99904,51.46125],[-0.99907,51.46111],[-0.99919,51.46112],[-0.99922,51.46098]]]]}},
{ "type":"Feature","properties":{"osm_way_id":"38492217","building":"warehouse","other":{"addr:postcode":"RG30 1EA"}}, "geometry":{"type":"MultiPolygon","coordinates":[[[[-1.00054,51.46188],[-0.99993,51.46181],[-1.00016,51.46106],[-1.00077,51.46113],[-1.00054,51.46188]]]]}},
{ "type":"Feature","properties":{"osm_way_id":"62249223","name":"Bentham","building":"warehouse","other":{"addr:city":"Reading","addr:housenumber":"2","addr:postcode":"RG2 0NH","addr:street":"Boulton Road","source:building":"OS_OpenData_StreetView"}}, "geometry":{"type":"MultiPolygon","coordinates":[[[[-0.97294,51.43811],[-0.97295,51.43809],[-0.97309,51.43809],[-0.97307,51.43823],[-0.97248,51.4382],[-0.97249,51.43808],[-0.97294,51.43811]]]]}},
{ "type":"Feature","properties":{"osm_way_id":"77479017","name":"Reading Post","building":"warehouse","other":{"addr:housenumber":"8","addr:postcode":"RG1 8NS","addr:street":"Tessa Road"}}, "geometry":{"type":"MultiPolygon","coordinates":[[[[-0.98463,51.46395],[-0.98419,51.464],[-0.98389,51.46296],[-0.98416,51.46293],[-0.98423,51.46321],[-0.98441,51.46319],[-0.98463,51.46395]]]]}},
{ "type":"Feature","properties":{"osm_way_id":"85469756","building":"warehouse","other":{"addr:city":"Reading","source:building":"OS_OpenData_StreetView"}}, "geometry":{"type":"MultiPolygon","coordinates":[[[[-0.95855,51.45749],[-0.95741,51.45749],[-0.95741,51.45714],[-0.95856,51.45714],[-0.95855,51.45749]]]]}},
{ "type":"Feature","properties":{"osm_way_id":"93845189","building":"warehouse","other":{"addr:city":"Reading","addr:street":"Worton Drive","source:building":"OS_OpenData_StreetView"}}, "geometry":{"type":"MultiPolygon","coordinates":[[[[-0.97788,51.42254],[-0.97731,51.42269],[-0.97694,51.42213],[-0.97759,51.42196],[-0.97784,51.42234],[-0.97776,51.42236],[-0.97788,51.42254]]]]}},
{ "type":"Feature","properties":{"osm_way_id":"93845218","name":"Bidfood","building":"warehouse","other":{"addr:city":"Reading","addr:postcode":"RG2 0TG","addr:street":"Worton Drive"}}, "geometry":{"type":"MultiPolygon","coordinates":[[[[-0.97572,51.42171],[-0.97565,51.42174],[-0.97569,51.42179],[-0.97495,51.42202],[-0.97431,51.42122],[-0.97495,51.42102],[-0.97499,51.42107],[-0.97516,51.42101],[-0.97572,51.42171]]]]}},
{ "type":"Feature","properties":{"osm_way_id":"93845272","building":"warehouse","other":{"addr:city":"Reading","addr:street":"Worton Drive","addr:unit":"A3","source:building":"OS_OpenData_StreetView"}}, "geometry":{"type":"MultiPolygon","coordinates":[[[[-0.97699,51.42288],[-0.97642,51.42302],[-0.97592,51.42226],[-0.97649,51.42212],[-0.97699,51.42288]]]]}},
{ "type":"Feature","properties":{"osm_way_id":"93984658","name":"Tradeteam","building":"warehouse","other":{"addr:city":"Reading","addr:postcode":"RG2 0BS","addr:street":"Gillette Way","source:building":"OS_OpenData_StreetView"}}, "geometry":{"type":"MultiPolygon","coordinates":[[[[-0.97406,51.43471],[-0.97227,51.43494],[-0.9718,51.43352],[-0.97309,51.43336],[-0.97305,51.43326],[-0.97321,51.43324],[-0.97324,51.43333],[-0.97359,51.43329],[-0.97406,51.43471]]]]}},
{ "type":"Feature","properties":{"osm_way_id":"95856034","name":"John Lewis Customer Collection","building":"warehouse","shop":"yes","other":{"addr:city":"Reading","not:brand:wikidata":"Q1918981","source:building":"OS_OpenData_StreetView"}}, "geometry":{"type":"MultiPolygon","coordinates":[[[[-0.96971,51.4519],[-0.97003,51.45218],[-0.96944,51.45245],[-0.96912,51.45217],[-0.96971,51.4519]]]]}},
{ "type":"Feature","properties":{"osm_way_id":"96173959","building":"warehouse"},"geometry":{"type":"MultiPolygon","coordinates":[[[[-0.97498,51.45398],[-0.97501,51.45411],[-0.97458,51.45416],[-0.97455,51.45404],[-0.97498,51.45398]]]]}},
{ "type":"Feature","properties":{"osm_way_id":"119549995","building":"warehouse","other":{"addr:city":"Reading","building:levels":"2","source:building":"OS_OpenData_StreetView"}}, "geometry":{"type":"MultiPolygon","coordinates":[[[[-1.01924,51.46624],[-1.01904,51.46641],[-1.01836,51.46612],[-1.01856,51.46594],[-1.01924,51.46624]]]]}},
{ "type":"Feature","properties":{"osm_way_id":"119550050","building":"warehouse","other":{"addr:city":"Reading","addr:housenumber":"9","addr:street":"Deacon Way","building:levels":"1","source:building":"OS_OpenData_StreetView"}}, "geometry":{"type":"MultiPolygon","coordinates":[[[[-1.01719,51.4654],[-1.01809,51.46573],[-1.01784,51.46599],[-1.01694,51.46566],[-1.01719,51.4654]]]]}},
{ "type":"Feature","properties":{"osm_way_id":"119550067","building":"warehouse","other":{"addr:city":"Reading","addr:postcode":"RG30 6QQ","building:levels":"1","source:building":"OS_OpenData_StreetView"}}, "geometry":{"type":"MultiPolygon","coordinates":[[[[-1.01823,51.46533],[-1.01808,51.4655],[-1.01744,51.46528],[-1.01759,51.46511],[-1.01823,51.46533]]]]}},
{ "type":"Feature","properties":{"osm_way_id":"119550069","building":"warehouse","other":{"addr:city":"Reading","addr:housenumber":"19","addr:postcode":"RG30 6QG","addr:street":"Deacon Way","building:levels":"2","source:building":"OS_OpenData_StreetView"}}, "geometry":{"type":"MultiPolygon","coordinates":[[[[-1.02037,51.46674],[-1.02019,51.4669],[-1.01962,51.46664],[-1.0198,51.46648],[-1.02037,51.46674]]]]}},
{ "type":"Feature","properties":{"osm_way_id":"136162025","name":"TP Link","building":"warehouse","other":{"addr:city":"Reading","addr:postcode":"RG1 8EW","source:building":"OS_OpenData_StreetView"}}, "geometry":{"type":"MultiPolygon","coordinates":[[[[-0.98803,51.46216],[-0.98794,51.46248],[-0.98703,51.46239],[-0.98713,51.46206],[-0.98803,51.46216]]]]}},
{ "type":"Feature","properties":{"osm_way_id":"313307523","building":"warehouse"},"geometry":{"type":"MultiPolygon","coordinates":[[[[-0.98369,51.41705],[-0.98141,51.41617],[-0.97981,51.41778],[-0.97951,51.41767],[-0.97931,51.41786],[-0.97954,51.41796],[-0.97949,51.41801],[-0.97956,51.41803],[-0.97801,51.4196],[-0.98028,51.42047],[-0.98155,51.4192],[-0.98188,51.41933],[-0.98206,51.41914],[-0.98174,51.41901],[-0.98369,51.41705]]]]}},
{ "type":"Feature","properties":{"osm_way_id":"621287381","name":"DPD Reading Depot","building":"warehouse","other":{"addr:city":"Reading","addr:postcode":"RG2 0AA","addr:street":"Imperial Way"}}, "geometry":{"type":"MultiPolygon","coordinates":[[[[-0.97295,51.42178],[-0.97231,51.42098],[-0.972,51.42108],[-0.9719,51.42095],[-0.97176,51.42099],[-0.9725,51.42192],[-0.97295,51.42178]]]]}},
{ "type":"Feature","properties":{"osm_way_id":"645974983","building":"warehouse"},"geometry":{"type":"MultiPolygon","coordinates":[[[[-0.9719,51.43081],[-0.97116,51.43076],[-0.97109,51.4312],[-0.97183,51.43124],[-0.9719,51.43081]]]]}},
{ "type":"Feature","properties":{"osm_way_id":"709619807","building":"warehouse"},"geometry":{"type":"MultiPolygon","coordinates":[[[[-0.97973,51.43303],[-0.97892,51.43301],[-0.97897,51.43228],[-0.97913,51.43229],[-0.97913,51.43222],[-0.97998,51.43224],[-0.97997,51.43235],[-0.97978,51.43234],[-0.97975,51.43284],[-0.98007,51.43285],[-0.98006,51.43299],[-0.97974,51.43298],[-0.97973,51.43303]]]]}},
{ "type":"Feature","properties":{"osm_way_id":"709619808","building":"warehouse"},"geometry":{"type":"MultiPolygon","coordinates":[[[[-0.97969,51.434],[-0.9794,51.43399],[-0.9794,51.43407],[-0.97884,51.43405],[-0.97892,51.43308],[-0.97976,51.4331],[-0.97969,51.434]]]]}},
{ "type":"Feature","properties":{"osm_way_id":"709619809","building":"warehouse"},"geometry":{"type":"MultiPolygon","coordinates":[[[[-0.98449,51.43281],[-0.98275,51.43265],[-0.9829,51.43201],[-0.98464,51.43217],[-0.98449,51.43281]]]]}},
{ "type":"Feature","properties":{"osm_way_id":"709619810","building":"warehouse"},"geometry":{"type":"MultiPolygon","coordinates":[[[[-0.9825,51.43289],[-0.98052,51.43284],[-0.98058,51.43209],[-0.98255,51.43214],[-0.9825,51.43289]]]]}}
]
}
