{
"type": "FeatureCollection",
"features": [
{ "type":"Feature","properties":{"osm_id":"7560861806","other":{"amenity":"loading_dock"}}, "geometry":{"type":"Point","coordinates":[-0.76189,52.02689 ]}},
{ "type":"Feature","properties":{"osm_way_id":"36744371","building":"warehouse"},"geometry":{"type":"MultiPolygon","coordinates":[[[[-0.76202,52.02701],[-0.7615,52.02723],[-0.76099,52.02678],[-0.76139,52.02661],[-0.7615,52.02656],[-0.76151,52.02655],[-0.76189,52.02689],[-0.76202,52.02701]]]]}},
{ "type":"Feature","properties":{"osm_way_id":"44307969","name":"John Lewis MP1","building":"warehouse","other":{"addr:city":"Milton Keynes","addr:country":"GB","addr:postcode":"MK17 8EW","addr:street":"Fen Street","addr:suburb":"Magna Park","fhrs:authority":"Milton Keynes","fhrs:id":"139315","fhrs:local_authority_id":"74899"}}, "geometry":{"type":"MultiPolygon","coordinates":[[[[-0.66303,52.0374],[-0.66275,52.03661],[-0.66298,52.03658],[-0.6628,52.03606],[-0.65735,52.03679],[-0.65781,52.0381],[-0.66303,52.0374]]]]}},
{ "type":"Feature","properties":{"osm_way_id":"62112063","name":"John Lewis Plc","building":"warehouse","other":{"addr:city":"Milton Keynes","addr:country":"GB","addr:postcode":"MK14 5AN","addr:street":"Yeomans Drive","addr:suburb":"Blakelands","fhrs:authority":"Milton Keynes","fhrs:id":"917940","fhrs:local_authority_id":"62427"}}, "geometry":{"type":"MultiPolygon","coordinates":[[[[-0.73872,52.06752],[-0.73664,52.06863],[-0.73808,52.06965],[-0.73867,52.06934],[-0.73883,52.06945],[-0.73982,52.06892],[-0.73966,52.0688],[-0.74015,52.06854],[-0.73872,52.06752]]]]}},
{ "type":"Feature","properties":{"osm_way_id":"96659414","name":"Buildbase","building":"warehouse"},"geometry":{"type":"MultiPolygon","coordinates":[[[[-0.70784,52.16488],[-0.70778,52.16489],[-0.70768,52.16473],[-0.70842,52.16456],[-0.70855,52.16478],[-0.70787,52.16493],[-0.70784,52.16488]]]]}},
{ "type":"Feature","properties":{"osm_way_id":"96659421","name":"Chiltern Thrust Bore Ltd","building":"warehouse"},"geometry":{"type":"MultiPolygon","coordinates":[[[[-0.7058,52.16401],[-0.7061,52.16416],[-0.70565,52.16451],[-0.70535,52.16436],[-0.7058,52.16401]]]]}},
{ "type":"Feature","properties":{"osm_way_id":"96659455","name":"Traka","building":"warehouse"},"geometry":{"type":"MultiPolygon","coordinates":[[[[-0.70603,52.16297],[-0.70631,52.16311],[-0.70585,52.16346],[-0.70557,52.16333],[-0.70603,52.16297]]]]}},
{ "type":"Feature","properties":{"osm_way_id":"96659476","name":"Iron Mountain","building":"warehouse"},"geometry":{"type":"MultiPolygon","coordinates":[[[[-0.70685,52.16291],[-0.70727,52.1631],[-0.70631,52.16388],[-0.70589,52.16369],[-0.70685,52.16291]]]]}},
{ "type":"Feature","properties":{"osm_way_id":"101853562","name":"Tesco Distribution Centre (Closed)","building":"warehouse","other":{"addr:city":"Milton Keynes","addr:country":"GB","addr:postcode":"MK1 1QA","addr:street":"Bletcham Way V7 To A5","disused":"yes","fhrs:authority":"Milton Keynes","fhrs:id":"132097","fhrs:local_authority_id":"63775"}}, "geometry":{"type":"MultiPolygon","coordinates":[[[[-0.71471,52.00508],[-0.71468,52.00502],[-0.71529,52.00489],[-0.71518,52.00468],[-0.71503,52.00471],[-0.71501,52.00463],[-0.71455,52.00473],[-0.71414,52.00389],[-0.71441,52.00383],[-0.71431,52.00363],[-0.71404,52.00368],[-0.71303,52.00161],[-0.7128,52.00166],[-0.71284,52.00175],[-0.7113,52.00204],[-0.7115,52.00247],[-0.71122,52.00252],[-0.71133,52.00272],[-0.7116,52.00266],[-0.71223,52.00393],[-0.71194,52.00398],[-0.71207,52.00427],[-0.71235,52.00421],[-0.71295,52.00542],[-0.71471,52.00508]]]]}},
{ "type":"Feature","properties":{"osm_way_id":"167260541","building":"warehouse"},"geometry":{"type":"MultiPolygon","coordinates":[[[[-0.8151,52.06416],[-0.81508,52.06421],[-0.81501,52.06419],[-0.81503,52.06415],[-0.8151,52.06416]]]]}},
{ "type":"Feature","properties":{"osm_way_id":"167260542","building":"warehouse"},"geometry":{"type":"MultiPolygon","coordinates":[[[[-0.81587,52.06472],[-0.81545,52.06463],[-0.81551,52.06453],[-0.81592,52.06462],[-0.81587,52.06472]]]]}},
{ "type":"Feature","properties":{"osm_way_id":"167260546","building":"warehouse"},"geometry":{"type":"MultiPolygon","coordinates":[[[[-0.81541,52.06427],[-0.81523,52.06463],[-0.81484,52.06455],[-0.81501,52.06419],[-0.81508,52.06421],[-0.81541,52.06427]]]]}},
{ "type":"Feature","properties":{"osm_way_id":"167260550","building":"warehouse"},"geometry":{"type":"MultiPolygon","coordinates":[[[[-0.81357,52.06414],[-0.81348,52.06416],[-0.81339,52.06397],[-0.81348,52.06395],[-0.81357,52.06414]]]]}},
{ "type":"Feature","properties":{"osm_way_id":"167260552","building":"warehouse"},"geometry":{"type":"MultiPolygon","coordinates":[[[[-0.81337,52.06414],[-0.81276,52.06424],[-0.8127,52.0641],[-0.81331,52.064],[-0.81337,52.06414]]]]}},
{ "type":"Feature","properties":{"osm_way_id":"169140128","name":"River Island DC1","building":"warehouse","other":{"addr:city":"Milton Keynes","addr:country":"GB","addr:postcode":"MK17 8EW","addr:street":"Fen Street","addr:suburb":"Magna Park","fhrs:authority":"Milton Keynes","fhrs:id":"432880","fhrs:local_authority_id":"78572"}}, "geometry":{"type":"MultiPolygon","coordinates":[[[[-0.66755,52.03715],[-0.66725,52.03555],[-0.66536,52.03569],[-0.66567,52.03729],[-0.66755,52.03715]]]]}},
{ "type":"Feature","properties":{"osm_way_id":"169140133","name":"River Island DC2","building":"warehouse","other":{"addr:city":"Milton Keynes","addr:country":"GB","addr:postcode":"MK17 8EW","addr:street":"Fen Street","addr:suburb":"Magna Park","fhrs:authority":"Milton Keynes","fhrs:id":"432880","fhrs:local_authority_id":"78572"}}, "geometry":{"type":"MultiPolygon","coordinates":[[[[-0.66594,52.03868],[-0.66779,52.03855],[-0.66755,52.03729],[-0.6657,52.03742],[-0.66594,52.03868]]]]}},
{ "type":"Feature","properties":{"osm_way_id":"169142845","name":"Wincor","building":"warehouse"},"geometry":{"type":"MultiPolygon","coordinates":[[[[-0.67797,52.03724],[-0.67692,52.03716],[-0.67679,52.03787],[-0.67784,52.03795],[-0.67797,52.03724]]]]}},
{ "type":"Feature","properties":{"osm_way_id":"169143483","name":"Waitrose Regional Distribution Centre","building":"warehouse"},"geometry":{"type":"MultiPolygon","coordinates":[[[[-0.68742,52.03299],[-0.68787,52.03017],[-0.68648,52.03008],[-0.68611,52.0322],[-0.6853,52.03215],[-0.68528,52.03229],[-0.68608,52.03234],[-0.68598,52.03291],[-0.68742,52.03299]]]]}},
{ "type":"Feature","properties":{"osm_way_id":"169143940","name":"Ocado","building":"warehouse","other":{"addr:city":"Milton Keynes","addr:postcode":"MK15 8HB","addr:street":"Delware Drive","building:levels":"2"}}, "geometry":{"type":"MultiPolygon","coordinates":[[[[-0.73116,52.07017],[-0.73207,52.06969],[-0.73172,52.06943],[-0.73181,52.06939],[-0.73177,52.06936],[-0.73173,52.06938],[-0.7317,52.06936],[-0.73096,52.06976],[-0.73075,52.06986],[-0.73065,52.06979],[-0.73052,52.06986],[-0.73064,52.06995],[-0.73065,52.06997],[-0.73068,52.06999],[-0.73082,52.06992],[-0.73116,52.07017]]]]}},
{ "type":"Feature","properties":{"osm_way_id":"334413928","name":"John Lewis MP2","building":"warehouse","other":{"addr:city":"Milton Keynes","addr:country":"GB","addr:postcode":"MK17 8EW","addr:street":"Fen Street","addr:suburb":"Magna Park","fhrs:authority":"Milton Keynes","fhrs:id":"773769","fhrs:local_authority_id":"86034"}}, "geometry":{"type":"MultiPolygon","coordinates":[[[[-0.66355,52.03831],[-0.65885,52.0389],[-0.6594,52.04055],[-0.66395,52.03998],[-0.66356,52.03881],[-0.66371,52.03879],[-0.66355,52.03831]]]]}},
{ "type":"Feature","properties":{"osm_way_id":"374822592","name":"Konig Car Storage & Transportation","building":"warehouse","other":{"addr:city":"Filgrave","addr:housename":"Filgrave Farm"}}, "geometry":{"type":"MultiPolygon","coordinates":[[[[-0.73261,52.1242],[-0.73208,52.12397],[-0.73232,52.12376],[-0.73285,52.12399],[-0.73261,52.1242]]]]}},
{ "type":"Feature","properties":{"osm_way_id":"463459680","name":"Waitrose","building":"warehouse","other":{"addr:city":"Milton Keynes","addr:country":"GB","addr:postcode":"MK17 8FF","addr:street":"Atkinson Way","addr:suburb":"Magna Park","fhrs:authority":"Milton Keynes","fhrs:id":"773776","fhrs:local_authority_id":"86093"}}, "geometry":{"type":"MultiPolygon","coordinates":[[[[-0.67316,52.0409],[-0.67037,52.04117],[-0.67041,52.04133],[-0.67014,52.04136],[-0.67007,52.0412],[-0.66716,52.0415],[-0.66666,52.03973],[-0.6696,52.03943],[-0.66956,52.03927],[-0.6699,52.03923],[-0.66995,52.03939],[-0.67225,52.03917],[-0.67224,52.03905],[-0.67286,52.03899],[-0.67302,52.03958],[-0.67283,52.0396],[-0.67316,52.0409]]]]}},
{ "type":"Feature","properties":{"osm_way_id":"463518800","name":"A J Barr","building":"warehouse"},"geometry":{"type":"MultiPolygon","coordinates":[[[[-0.67092,52.03672],[-0.67078,52.03592],[-0.67104,52.0359],[-0.67081,52.03467],[-0.66891,52.0348],[-0.66904,52.0355],[-0.6689,52.03551],[-0.66892,52.03564],[-0.66906,52.03563],[-0.66909,52.03578],[-0.6689,52.0358],[-0.66896,52.03608],[-0.66919,52.03607],[-0.66925,52.03642],[-0.66904,52.03643],[-0.66914,52.03695],[-0.66937,52.03693],[-0.66935,52.03683],[-0.67092,52.03672]]]]}},
{ "type":"Feature","properties":{"osm_way_id":"463673560","name":"John Lewis MP3","building":"warehouse","other":{"addr:city":"Milton Keynes","addr:country":"GB","addr:postcode":"MK17 8FL","addr:street":"Crossley Drive","addr:suburb":"Magna Park","fhrs:authority":"Milton Keynes","fhrs:id":"852643","fhrs:local_authority_id":"86927"}}, "geometry":{"type":"MultiPolygon","coordinates":[[[[-0.67553,52.03422],[-0.67358,52.0345],[-0.67354,52.03438],[-0.67322,52.03443],[-0.67326,52.03454],[-0.67144,52.0348],[-0.67192,52.03608],[-0.67168,52.03611],[-0.67186,52.03659],[-0.67237,52.03652],[-0.67232,52.03637],[-0.67395,52.03614],[-0.674,52.03628],[-0.67438,52.03623],[-0.67432,52.03607],[-0.67612,52.03581],[-0.67597,52.03542],[-0.67615,52.0354],[-0.67599,52.03499],[-0.67583,52.03501],[-0.67553,52.03422]]]]}},
{ "type":"Feature","properties":{"osm_way_id":"617277932","name":"Destination Fashion","building":"warehouse","other":{"addr:city":"Tyringham","addr:housenumber":"Unit 6","addr:street":"Park Farm","website":"http:\/\/destinationfashion.com"}}, "geometry":{"type":"MultiPolygon","coordinates":[[[[-0.75534,52.11973],[-0.755,52.11966],[-0.75508,52.1195],[-0.75516,52.11952],[-0.75523,52.11938],[-0.7555,52.11944],[-0.75534,52.11973]]]]}},
{ "type":"Feature","properties":{"osm_way_id":"621700665","name":"DHL","building":"warehouse"},"geometry":{"type":"MultiPolygon","coordinates":[[[[-0.67571,52.03843],[-0.67474,52.03843],[-0.67474,52.03839],[-0.67475,52.03746],[-0.67475,52.0373],[-0.67572,52.0373],[-0.67571,52.03843]]]]}},
{ "type":"Feature","properties":{"osm_way_id":"639035619","building":"warehouse"},"geometry":{"type":"MultiPolygon","coordinates":[[[[-0.67678,52.04121],[-0.67417,52.04123],[-0.67415,52.04039],[-0.67677,52.04037],[-0.67678,52.04121]]]]}},
{ "type":"Feature","properties":{"osm_way_id":"687378214","name":"HiTech Nationwide Repair Centre","building":"warehouse","shop":"car_repair","other":{"addr:city":"Milton Keynes","addr:country":"GB","addr:place":"Mount Farm Industrial Estate","addr:postcode":"MK1 1LG","addr:street":"Clarke Road","opening_hours":"Mo-Fr 08:00-17:00; Sa-Su closed","phone":"+44 1908 277744","website":"https:\/\/www.nationwiderepairs.co.uk\/store\/milton-keynes-2\/"}}, "geometry":{"type":"MultiPolygon","coordinates":[[[[-0.72721,52.01187],[-0.72794,52.01178],[-0.728,52.01197],[-0.72796,52.01198],[-0.72798,52.01205],[-0.72803,52.01204],[-0.72819,52.0125],[-0.72781,52.01255],[-0.72766,52.0121],[-0.72758,52.01211],[-0.72757,52.01208],[-0.72749,52.01209],[-0.7275,52.01211],[-0.7273,52.01214],[-0.72721,52.01187]]]]}},
{ "type":"Feature","properties":{"osm_way_id":"690698428","name":"Amazon","building":"warehouse"},"geometry":{"type":"MultiPolygon","coordinates":[[[[-0.65877,52.04293],[-0.65648,52.04186],[-0.65635,52.04197],[-0.65605,52.04182],[-0.65617,52.04173],[-0.65399,52.04071],[-0.6545,52.04029],[-0.65435,52.04022],[-0.6549,52.03977],[-0.65505,52.03984],[-0.65511,52.03979],[-0.65758,52.04094],[-0.65769,52.04085],[-0.65796,52.04098],[-0.65785,52.04107],[-0.65923,52.04171],[-0.65889,52.04199],[-0.65955,52.0423],[-0.65877,52.04293]]]]}},
{ "type":"Feature","properties":{"osm_way_id":"690698430","name":"H & M","building":"warehouse"},"geometry":{"type":"MultiPolygon","coordinates":[[[[-0.65371,52.04022],[-0.65266,52.03997],[-0.65272,52.03987],[-0.65083,52.03942],[-0.65163,52.03815],[-0.6509,52.03797],[-0.65102,52.0378],[-0.65174,52.03797],[-0.65243,52.03686],[-0.65294,52.03698],[-0.65308,52.03677],[-0.65357,52.03688],[-0.65366,52.03674],[-0.65539,52.03714],[-0.65448,52.03859],[-0.6547,52.03864],[-0.65457,52.03884],[-0.65436,52.03879],[-0.65388,52.03955],[-0.6541,52.0396],[-0.65371,52.04022]]]]}},
{ "type":"Feature","properties":{"osm_way_id":"1019300074","building":"warehouse"},"geometry":{"type":"MultiPolygon","coordinates":[[[[-0.7055,52.16337],[-0.70518,52.16323],[-0.70562,52.16287],[-0.70594,52.16301],[-0.7055,52.16337]]]]}},
{ "type":"Feature","properties":{"osm_way_id":"1019300075","building":"warehouse"},"geometry":{"type":"MultiPolygon","coordinates":[[[[-0.7045,52.1631],[-0.70445,52.16289],[-0.70524,52.16282],[-0.70529,52.16302],[-0.7045,52.1631]]]]}},
{ "type":"Feature","properties":{"osm_way_id":"1025470924","building":"warehouse"},"geometry":{"type":"MultiPolygon","coordinates":[[[[-0.71375,52.05224],[-0.71212,52.05261],[-0.71165,52.05196],[-0.71331,52.05162],[-0.71375,52.05224]]]]}},
{ "type":"Feature","properties":{"osm_way_id":"1025470925","building":"warehouse"},"geometry":{"type":"MultiPolygon","coordinates":[[[[-0.71542,52.00988],[-0.71424,52.00985],[-0.7143,52.00871],[-0.71548,52.00876],[-0.71547,52.00886],[-0.71542,52.00988]]]]}},
{ "type":"Feature","properties":{"osm_way_id":"1025470926","building":"warehouse"},"geometry":{"type":"MultiPolygon","coordinates":[[[[-0.71544,52.00869],[-0.71387,52.0087],[-0.71387,52.00805],[-0.71544,52.00807],[-0.71544,52.00869]]]]}}
]
}
