{
"type": "FeatureCollection",
"features": [
{ "type":"Feature","properties":{"osm_id":"252525218","name":"Spar","other":{"addr:city":"Bristol","addr:housename":"Gateway House","addr:postcode":"BS48 3HL","addr:street":"Rodney Road","addr:suburb":"Backwell","addr:unit":"1","brand":"Spar","brand:wikidata":"Q610492","brand:wikipedia":"en:SPAR (retailer)","fhrs:id":"151391","shop":"supermarket","source:addr":"FHRS Open Data"}}, "geometry":{"type":"Point","coordinates":[-2.74238,51.41288 ]}},
{ "type":"Feature","properties":{"osm_id":"271114078","other":{"addr:city":"Weston-Super-Mare"}}, "geometry":{"type":"Point","coordinates":[-2.97438,51.34663 ]}},
{ "type":"Feature","properties":{"osm_id":"271114079","other":{"addr:city":"Weston-Super-Mare"}}, "geometry":{"type":"Point","coordinates":[-2.97481,51.34593 ]}},
{ "type":"Feature","properties":{"osm_id":"271114080","other":{"addr:city":"Weston-Super-Mare"}}, "geometry":{"type":"Point","coordinates":[-2.97582,51.34613 ]}},
{ "type":"Feature","properties":{"osm_id":"271114081","other":{"addr:city":"Weston-Super-Mare"}}, "geometry":{"type":"Point","coordinates":[-2.97549,51.34684 ]}},
{ "type":"Feature","properties":{"osm_id":"462326280","name":"Co-operative","other":{"addr:city":"Bristol","addr:postcode":"BS49 4EG","addr:street":"Pages Court","addr:suburb":"Yatton","fhrs:id":"937866","shop":"supermarket","source:addr":"FHRS Open Data"}}, "geometry":{"type":"Point","coordinates":[-2.81916,51.38694 ]}},
{ "type":"Feature","properties":{"osm_id":"1500542955","other":{"addr:city":"Weston-Super-Mare"}}, "geometry":{"type":"Point","coordinates":[-2.97465,51.34606 ]}},
{ "type":"Feature","properties":{"osm_id":"1500542958","other":{"addr:city":"Weston-Super-Mare"}}, "geometry":{"type":"Point","coordinates":[-2.97474,51.34608 ]}},
{ "type":"Feature","properties":{"osm_id":"1562459051","other":{"addr:city":"Weston-Super-Mare"}}, "geometry":{"type":"Point","coordinates":[-2.97445,51.34664 ]}},
{ "type":"Feature","properties":{"osm_id":"2522753434","name":"Manor Stores","other":{"addr:city":"Weston-Super-Mare","addr:housenumber":"1-2","addr:postcode":"BS24 8BA","addr:street":"Manor Court","addr:suburb":"Locking","fhrs:id":"1125946","shop":"supermarket","source:addr":"FHRS Open Data"}}, "geometry":{"type":"Point","coordinates":[-2.91285,51.33438 ]}},
{ "type":"Feature","properties":{"osm_id":"3741453074","name":"The Co-operative Food","other":{"addr:city":"Weston-Super-Mare","addr:housenumber":"67-69","addr:postcode":"BS23 1EJ","addr:street":"Whitecross Road","brand":"The Co-operative Food","brand:wikidata":"Q107617274","fhrs:id":"1125959","operator":"The Co-operative Group","shop":"supermarket","source:addr":"FHRS Open Data"}}, "geometry":{"type":"Point","coordinates":[-2.97636,51.33855 ]}},
{ "type":"Feature","properties":{"osm_id":"4437977781","name":"Aldi","other":{"addr:city":"Clevedon","addr:housename":"Westway House","addr:postcode":"BS21 6XT","addr:street":"Hither Green","addr:unit":"1","brand":"ALDI","brand:wikidata":"Q41171672","brand:wikipedia":"en:Aldi","fhrs:id":"1125929","opening_hours":"Mo-Sa 08:00-22:00; Su 10:00-16:00","shop":"supermarket"}}, "geometry":{"type":"Point","coordinates":[-2.84328,51.43342 ]}},
{ "type":"Feature","properties":{"osm_id":"4437997345","name":"Co-op Food","other":{"addr:city":"Clevedon","addr:housenumber":"8","addr:postcode":"BS21 6ND","addr:street":"Old Street","brand":"Co-op Food","brand:wikidata":"Q3277439","brand:wikipedia":"en:Co-op Food","opening_hours":"Mo-Su 06:00-23:00","shop":"supermarket"}}, "geometry":{"type":"Point","coordinates":[-2.85141,51.43668 ]}},
{ "type":"Feature","properties":{"osm_id":"9116691005","name":"Buglers","other":{"description":"Store","payment:cash":"yes","payment:credit_cards":"yes","payment:debit_cards":"yes","shop":"supermarket"}}, "geometry":{"type":"Point","coordinates":[-2.76299,51.36202 ]}},
{ "type":"Feature","properties":{"osm_id":"9116691006","name":"Zero Waste Pantry","other":{"shop":"supermarket","website":"http:\/\/www.zerowastepantry.co.uk\/"}}, "geometry":{"type":"Point","coordinates":[-2.76293,51.36211 ]}},
{ "type":"Feature","properties":{"osm_way_id":"24949314","name":"Tesco","building":"retail","shop":"supermarket","other":{"addr:city":"Weston-Super-Mare","addr:postcode":"BS23 1XG","addr:street":"Station Road","brand":"Tesco","brand:wikidata":"Q487494","brand:wikipedia":"en:Tesco","fhrs:id":"151283","operator":"Tesco","phone":"+44 345 6779712"}}, "geometry":{"type":"MultiPolygon","coordinates":[[[[-2.97438,51.34663],[-2.97465,51.34606],[-2.97474,51.34608],[-2.97481,51.34593],[-2.97582,51.34613],[-2.97549,51.34684],[-2.97445,51.34664],[-2.97438,51.34663]]]]}},
{ "type":"Feature","properties":{"osm_way_id":"38507933","name":"Tesco","building":"yes","shop":"supermarket","other":{"addr:city":"Nailsea","addr:postcode":"BS48 1AQ","addr:street":"Stock Way North","brand":"Tesco","brand:wikidata":"Q487494","brand:wikipedia":"en:Tesco","fhrs:id":"978371","opening_hours":"Mo-Sa 07:00-23:00; Su 10:00-16:00","operator":"Tesco Stores Ltd","source:addr":"FHRS Open Data","website":"https:\/\/www.tesco.com\/store-locator\/bristol\/stock-way-north"}}, "geometry":{"type":"MultiPolygon","coordinates":[[[[-2.75322,51.43443],[-2.75332,51.43453],[-2.75334,51.43452],[-2.75343,51.43461],[-2.75341,51.43462],[-2.75365,51.43485],[-2.75366,51.43485],[-2.75374,51.43492],[-2.75369,51.43494],[-2.75375,51.435],[-2.75357,51.43507],[-2.75355,51.43505],[-2.75319,51.43519],[-2.753,51.43501],[-2.75296,51.43503],[-2.75294,51.43502],[-2.75279,51.43508],[-2.75274,51.43503],[-2.75265,51.43507],[-2.75261,51.43502],[-2.75237,51.43479],[-2.75277,51.43463],[-2.75276,51.43462],[-2.75322,51.43443]]]]}},
{ "type":"Feature","properties":{"osm_way_id":"55779885","name":"Carpet Right","building":"yes","shop":"supermarket","other":{"addr:housename":"Unit 4","addr:housenumber":"4","addr:postcode":"BS22 8FD"}}, "geometry":{"type":"MultiPolygon","coordinates":[[[[-2.941,51.34495],[-2.94052,51.3446],[-2.9409,51.3444],[-2.94138,51.34476],[-2.941,51.34495]]]]}},
{ "type":"Feature","properties":{"osm_way_id":"55779982","name":"Asda","building":"yes","shop":"supermarket","other":{"addr:city":"Weston-Super-Mare","addr:country":"GB","addr:postcode":"BS23 3UZ","addr:street":"Phillips Road","alt_name":"ASDA Weston-super-Mare","brand":"Asda","brand:wikidata":"Q297410","brand:wikipedia":"en:Asda","contact:facebook":"https:\/\/www.facebook.com\/asda\/","contact:twitter":"@asda","contact:website":"https:\/\/storelocator.asda.com\/south-west\/weston-super-mare\/phillips-road-(off-winterstoke-road)","fhrs:id":"151281","operator":"Asda Stores Ltd"}}, "geometry":{"type":"MultiPolygon","coordinates":[[[[-2.95939,51.34076],[-2.95899,51.34076],[-2.959,51.34096],[-2.95849,51.34097],[-2.95848,51.34077],[-2.95811,51.34078],[-2.95811,51.34018],[-2.95811,51.3401],[-2.95822,51.34002],[-2.95837,51.34002],[-2.95837,51.34007],[-2.95938,51.34007],[-2.95939,51.34076]]]]}},
{ "type":"Feature","properties":{"osm_way_id":"55779983","name":"Waitrose","building":"yes","shop":"supermarket","other":{"brand":"Waitrose","brand:wikidata":"Q771734","brand:wikipedia":"en:Waitrose","official_name":"Waitrose & Partners","operator":"Waitrose & Partners"}}, "geometry":{"type":"MultiPolygon","coordinates":[[[[-2.95712,51.34085],[-2.95591,51.34085],[-2.9559,51.34051],[-2.95711,51.3405],[-2.95712,51.34085]]]]}},
{ "type":"Feature","properties":{"osm_way_id":"55862788","name":"Sainsbury's","building":"yes","shop":"supermarket","other":{"addr:city":"Weston-Super-Mare","addr:country":"GB","addr:county":"Somerset","addr:postcode":"BS22 6BL","addr:street":"Queensway","addr:village":"Worle","brand":"Sainsbury's","brand:wikidata":"Q152096","brand:wikipedia":"en:Sainsbury's","fhrs:id":"151282","opening_hours":"Mo-Fr 07:00-22:00; Sa 07:00-21:00; Su 10:0-16:00","operator":"J Sainsbury Plc","source:addr":"FHRS Open Data"}}, "geometry":{"type":"MultiPolygon","coordinates":[[[[-2.91187,51.36136],[-2.91173,51.36136],[-2.91172,51.36137],[-2.91159,51.36137],[-2.91158,51.36143],[-2.91062,51.36141],[-2.91052,51.36141],[-2.91039,51.3614],[-2.91036,51.36174],[-2.91034,51.36174],[-2.91033,51.36186],[-2.91033,51.36192],[-2.91034,51.36197],[-2.91037,51.36201],[-2.91042,51.36205],[-2.9105,51.36209],[-2.91058,51.36211],[-2.91067,51.36212],[-2.91147,51.36214],[-2.91148,51.36205],[-2.91162,51.36205],[-2.91162,51.36192],[-2.91184,51.36193],[-2.91184,51.36189],[-2.91196,51.36189],[-2.91198,51.36159],[-2.91185,51.36158],[-2.91187,51.36136]]]]}},
{ "type":"Feature","properties":{"osm_way_id":"56012075","name":"Aldi","building":"yes","shop":"supermarket","other":{"addr:city":"Weston-Super-Mare","addr:housename":"Flowerdown Retail Park","addr:postcode":"BS22 8NA","addr:street":"Aisecome Way","addr:unit":"Unit 5","brand":"ALDI","brand:wikidata":"Q41171672","brand:wikipedia":"en:Aldi","fhrs:id":"1125934","opening_hours":"Mo-Sa 08:00-22:00; Su 10:00-16:00; PH 08:00-22:00","source:addr":"FHRS Open Data"}}, "geometry":{"type":"MultiPolygon","coordinates":[[[[-2.9409,51.3444],[-2.94114,51.34428],[-2.94111,51.34426],[-2.94123,51.34419],[-2.94126,51.34422],[-2.94129,51.34421],[-2.94176,51.34457],[-2.94138,51.34476],[-2.9409,51.3444]]]]}},
{ "type":"Feature","properties":{"osm_way_id":"57046216","name":"Asda","building":"yes","shop":"supermarket","other":{"addr:city":"Wellington Road","addr:country":"GB","addr:postcode":"CH65 0BZ","addr:street":"Wellington Road","brand":"Asda","brand:wikidata":"Q297410","brand:wikipedia":"en:Asda","contact:website":"https:\/\/storelocator.asda.com\/north-west\/ellesmere-port\/grange-road","fhrs:id":"289919","operator":"Asda Stores Ltd"}}, "geometry":{"type":"MultiPolygon","coordinates":[[[[-2.8983,53.27599],[-2.8978,53.27621],[-2.89765,53.2761],[-2.89776,53.27596],[-2.89764,53.27593],[-2.89706,53.27653],[-2.8971,53.27655],[-2.89695,53.27662],[-2.89771,53.27719],[-2.89797,53.27705],[-2.89805,53.27709],[-2.89813,53.27705],[-2.89846,53.27689],[-2.89841,53.27684],[-2.89903,53.27655],[-2.8983,53.27599]]]]}},
{ "type":"Feature","properties":{"osm_way_id":"92107785","name":"Tesco","building":"supermarket","shop":"supermarket","other":{"addr:city":"Clevedon","addr:postcode":"BS21 6LH","addr:street":"Kenn Road","air_conditioning":"yes","brand":"Tesco","brand:wikidata":"Q487494","brand:wikipedia":"en:Tesco","contact:website":"https:\/\/www.tesco.com\/store-locator\/clevedon\/kenn-rd","email":"2288@uk.tesco.com","fhrs:id":"151274","opening_hours":"Mo-Sa 06:00-24:00, Su 10:00-16:00","opening_hours:covid19":"Mo-Sa 06:00-22:00, Su 09:00-16:00","operator":"Tesco Stores Ltd","payment:account_cards":"yes","payment:apple_pay":"yes","payment:cash":"yes","payment:cheque":"yes","payment:contactless":"yes","payment:credit_cards":"yes","payment:debit_cards":"yes","phone":"+44 345 677 9165","wheelchair":"yes"}}, "geometry":{"type":"MultiPolygon","coordinates":[[[[-2.85423,51.42811],[-2.8542,51.4285],[-2.85418,51.42871],[-2.85471,51.42872],[-2.85469,51.42897],[-2.8546,51.42897],[-2.85459,51.42904],[-2.85468,51.42904],[-2.8548,51.42905],[-2.85481,51.42894],[-2.85488,51.42894],[-2.85494,51.42894],[-2.85495,51.42894],[-2.85496,51.4289],[-2.85496,51.42885],[-2.85497,51.42877],[-2.8548,51.42876],[-2.8548,51.42875],[-2.85517,51.42877],[-2.85519,51.42853],[-2.85512,51.42852],[-2.85515,51.42817],[-2.85516,51.42817],[-2.85517,51.42807],[-2.85514,51.42807],[-2.85507,51.42806],[-2.85508,51.42804],[-2.85492,51.42804],[-2.85492,51.42806],[-2.85453,51.42804],[-2.85452,51.42812],[-2.85423,51.42811]]]]}},
{ "type":"Feature","properties":{"osm_way_id":"95347918","name":"Lidl","building":"yes","shop":"supermarket","other":{"addr:city":"Worle","addr:postcode":"BS22 6WE","addr:street":"Summer Lane","brand":"Lidl","brand:wikidata":"Q151954","brand:wikipedia":"en:Lidl","operator":"Lidl"}}, "geometry":{"type":"MultiPolygon","coordinates":[[[[-2.91136,51.35898],[-2.91121,51.35889],[-2.91124,51.35887],[-2.9109,51.35864],[-2.91101,51.35858],[-2.91092,51.35852],[-2.91107,51.35844],[-2.91165,51.35881],[-2.91136,51.35898]]]]}},
{ "type":"Feature","properties":{"osm_way_id":"95749653","name":"Morrisons","building":"supermarket","shop":"supermarket","other":{"brand":"Morrisons","brand:wikidata":"Q922344","brand:wikipedia":"en:Morrisons","opening_hours":"Mo-We 08:30-20:00; Th,Fr 08:30-21:00; Sa 08:00-20:00; Su,PH 10:00-16:00","website":"https:\/\/my.morrisons.com\/storefinder\/341"}}, "geometry":{"type":"MultiPolygon","coordinates":[[[[-2.91235,51.3524],[-2.91226,51.35234],[-2.91229,51.35232],[-2.91227,51.35231],[-2.91277,51.35206],[-2.91291,51.35199],[-2.91285,51.35194],[-2.91308,51.35183],[-2.91319,51.35177],[-2.91342,51.35195],[-2.91332,51.352],[-2.91342,51.35208],[-2.91341,51.35209],[-2.91366,51.35229],[-2.91348,51.35238],[-2.91363,51.3525],[-2.91346,51.35258],[-2.91352,51.35264],[-2.91312,51.35283],[-2.91306,51.35278],[-2.91302,51.35276],[-2.91291,51.35281],[-2.91238,51.35239],[-2.91235,51.3524]]]]}},
{ "type":"Feature","properties":{"osm_way_id":"95949172","name":"Tesco Express","building":"yes","shop":"supermarket","other":{"addr:city":"Weston-Super-Mare","addr:housename":"Castlemead Shopping Centre","addr:postcode":"BS22 7GF","addr:street":"Townshend Road","addr:suburb":"Worle","addr:unit":"2","brand":"Tesco Express","brand:wikidata":"Q98456772","fhrs:id":"1125964","source:addr":"FHRS Open Data"}}, "geometry":{"type":"MultiPolygon","coordinates":[[[[-2.9141,51.372],[-2.91405,51.37196],[-2.91412,51.37193],[-2.91402,51.37184],[-2.91396,51.37187],[-2.91395,51.37185],[-2.91388,51.37188],[-2.9139,51.37189],[-2.91372,51.37197],[-2.91383,51.37206],[-2.91389,51.37203],[-2.91394,51.37207],[-2.9141,51.372]]]]}},
{ "type":"Feature","properties":{"osm_way_id":"96568556","name":"Home Bargains","building":"yes","shop":"supermarket","other":{"addr:city":"Weston-Super-Mare","addr:housename":"Home Bargains","addr:postcode":"BS23 3YB","addr:street":"Winterstoke Road","fhrs:id":"1125936","source:addr":"FHRS Open Data"}}, "geometry":{"type":"MultiPolygon","coordinates":[[[[-2.96392,51.34283],[-2.96429,51.34254],[-2.9643,51.34255],[-2.96436,51.3425],[-2.96453,51.34259],[-2.96447,51.34264],[-2.96468,51.34274],[-2.96431,51.34303],[-2.96392,51.34283]]]]}},
{ "type":"Feature","properties":{"osm_way_id":"131288181","name":"Lidl","building":"yes","shop":"supermarket","other":{"addr:city":"Clevedon","addr:postcode":"BS21 6HB","addr:street":"Great Western Road","brand":"Lidl","brand:wikidata":"Q151954","brand:wikipedia":"en:Lidl","fhrs:id":"1012679","source:addr":"FHRS Open Data"}}, "geometry":{"type":"MultiPolygon","coordinates":[[[[-2.85626,51.43533],[-2.85635,51.43532],[-2.85633,51.43515],[-2.85625,51.43516],[-2.85612,51.43517],[-2.85598,51.43518],[-2.85585,51.43519],[-2.85572,51.4352],[-2.85558,51.43521],[-2.85528,51.43523],[-2.85533,51.43544],[-2.85551,51.43543],[-2.85574,51.43541],[-2.85627,51.43537],[-2.85626,51.43533]]]]}},
{ "type":"Feature","properties":{"osm_way_id":"140643593","name":"Asda","building":"yes","shop":"supermarket","other":{"addr:city":"Clevedon","addr:country":"GB","addr:postcode":"BS21 6RR","addr:street":"Tweed Road","brand":"Asda","brand:wikidata":"Q297410","brand:wikipedia":"en:Asda","contact:facebook":"https:\/\/www.facebook.com\/asda\/","contact:twitter":"@asda","contact:website":"https:\/\/storelocator.asda.com\/south-west\/clevedon\/tweed-road-southern-way","fhrs:id":"1125930","operator":"Asda Stores Ltd"}}, "geometry":{"type":"MultiPolygon","coordinates":[[[[-2.86325,51.42861],[-2.86265,51.42844],[-2.86299,51.42798],[-2.86339,51.42809],[-2.86348,51.42812],[-2.86359,51.42815],[-2.86343,51.42837],[-2.86333,51.4285],[-2.86325,51.42861]]]]}},
{ "type":"Feature","properties":{"osm_way_id":"152963101","name":"Waitrose","building":"yes","shop":"supermarket","other":{"addr:city":"Bristol","addr:housenumber":"140","addr:postcode":"BS48 1AP","addr:street":"High Street","brand":"Waitrose","brand:wikidata":"Q771734","brand:wikipedia":"en:Waitrose","fhrs:id":"151275","layer":"1","official_name":"Waitrose & Partners","operator":"Waitrose & Partners"}}, "geometry":{"type":"MultiPolygon","coordinates":[[[[-2.75787,51.43354],[-2.75795,51.43352],[-2.75809,51.43351],[-2.7583,51.43345],[-2.75832,51.43349],[-2.75832,51.4335],[-2.75844,51.43367],[-2.75851,51.4338],[-2.75859,51.43393],[-2.75862,51.43397],[-2.75864,51.43401],[-2.75801,51.43416],[-2.758,51.43413],[-2.75778,51.43418],[-2.75775,51.43419],[-2.75771,51.43418],[-2.75769,51.43416],[-2.75767,51.43414],[-2.75762,51.43406],[-2.75743,51.43411],[-2.75735,51.43399],[-2.75783,51.43387],[-2.75773,51.43371],[-2.75771,51.43368],[-2.75765,51.43369],[-2.75764,51.43365],[-2.75761,51.43366],[-2.7576,51.43362],[-2.75759,51.43358],[-2.75771,51.43357],[-2.75788,51.43355],[-2.75787,51.43354]]]]}},
{ "type":"Feature","properties":{"osm_way_id":"168966404","name":"The Food Warehouse","building":"retail","shop":"supermarket","other":{"addr:city":"Sheffield","addr:country":"GB","addr:housename":"Heeley Retail Park","addr:postcode":"S8 0RG","addr:street":"Chesterfield Road","addr:unit":"4","brand":"The Food Warehouse","brand:wikidata":"Q87263899","building:levels":"1","fhrs:id":"1097635","opening_hours":"Mo-Sa 08:00-20:00; Su 10:00-16:00","roof:levels":"0","roof:shape":"gabled","wheelchair":"yes"}}, "geometry":{"type":"MultiPolygon","coordinates":[[[[-1.47891,53.35669],[-1.47877,53.35661],[-1.47845,53.35641],[-1.47853,53.35636],[-1.4785,53.35634],[-1.47853,53.35633],[-1.47859,53.3563],[-1.47861,53.35631],[-1.47868,53.35627],[-1.47915,53.35656],[-1.47891,53.35669]]]]}},
{ "type":"Feature","properties":{"osm_way_id":"223539269","name":"Waitrose & Partners","building":"supermarket","shop":"supermarket","other":{"addr:city":"Bristol","addr:postcode":"BS20 7DE","addr:street":"Harbour Road","addr:town":"Portishead","brand":"Waitrose & Partners","brand:wikidata":"Q771734","brand:wikipedia":"en:Waitrose & Partners","building:levels":"1","fhrs:id":"151277","height":"8","official_name":"Waitrose & Partners","operator":"Waitrose & Partners","source:addr":"FHRS Open Data","website":"https:\/\/www.waitrose.com\/bf_home\/bf\/669.html"}}, "geometry":{"type":"MultiPolygon","coordinates":[[[[-2.76601,51.48619],[-2.76557,51.48609],[-2.76553,51.48616],[-2.76529,51.48611],[-2.76533,51.48604],[-2.76537,51.48596],[-2.76556,51.48562],[-2.76587,51.48569],[-2.7659,51.48568],[-2.76596,51.48557],[-2.76621,51.48562],[-2.7662,51.48565],[-2.76648,51.48571],[-2.76618,51.48625],[-2.766,51.48621],[-2.76601,51.48619]]]]}},
{ "type":"Feature","properties":{"osm_way_id":"241176840","name":"Aldi","building":"supermarket","shop":"supermarket","other":{"addr:city":"Bristol","addr:postcode":"BS20 8LR","addr:street":"Wyndham Way","addr:suburb":"Portishead","brand":"ALDI","brand:wikidata":"Q41171672","brand:wikipedia":"en:Aldi","fhrs:id":"151278"}}, "geometry":{"type":"MultiPolygon","coordinates":[[[[-2.76656,51.4839],[-2.76692,51.48368],[-2.76695,51.4837],[-2.76704,51.48365],[-2.76685,51.48353],[-2.76683,51.48354],[-2.76655,51.48336],[-2.76675,51.48324],[-2.76659,51.48313],[-2.76639,51.48325],[-2.76638,51.48325],[-2.76595,51.4835],[-2.76622,51.48368],[-2.7662,51.48369],[-2.76626,51.48373],[-2.76629,51.48372],[-2.76656,51.4839]]]]}},
{ "type":"Feature","properties":{"osm_way_id":"242980722","name":"Lidl","building":"supermarket","shop":"supermarket","other":{"addr:city":"Bristol","addr:postcode":"BS20 7DE","addr:suburb":"Portishead","brand":"Lidl","brand:wikidata":"Q151954","brand:wikipedia":"en:Lidl","building:levels":"4","fhrs:id":"1125931"}}, "geometry":{"type":"MultiPolygon","coordinates":[[[[-2.76295,51.4859],[-2.76306,51.48569],[-2.7638,51.48583],[-2.76375,51.48592],[-2.76382,51.48594],[-2.76386,51.48595],[-2.76378,51.4861],[-2.76365,51.48611],[-2.76316,51.48601],[-2.76319,51.48595],[-2.76295,51.4859]]]]}},
{ "type":"Feature","properties":{"osm_way_id":"316732140","name":"McColl's","building":"retail","shop":"supermarket","other":{"addr:city":"Weston-Super-Mare","addr:housenumber":"337","addr:postcode":"BS23 3LY","addr:street":"Locking Road","fhrs:id":"1126144","source:addr":"FHRS Open Data"}}, "geometry":{"type":"MultiPolygon","coordinates":[[[[-2.95141,51.34852],[-2.95151,51.34866],[-2.95152,51.34868],[-2.95142,51.34871],[-2.95131,51.34854],[-2.95141,51.34852]]]]}},
{ "type":"Feature","properties":{"osm_way_id":"317285097","name":"The co-operative food","building":"yes","shop":"supermarket","other":{"addr:city":"Weston-super-Mare","addr:country":"GB","addr:housenumber":"148","addr:postcode":"BS22 6HG","addr:street":"High Street","addr:village":"Worle","fhrs:id":"1125950","opening_hours":"Mo-Sa 06:00-22:00; Su 10:00-16:00"}}, "geometry":{"type":"MultiPolygon","coordinates":[[[[-2.92812,51.36004],[-2.92852,51.35992],[-2.92842,51.3598],[-2.92838,51.35981],[-2.92825,51.35964],[-2.92816,51.35967],[-2.92809,51.35958],[-2.92783,51.35966],[-2.92812,51.36004]]]]}},
{ "type":"Feature","properties":{"osm_way_id":"490211572","name":"Lidl","building":"yes","shop":"supermarket","other":{"addr:city":"Weston-Super-Mare","addr:postcode":"BS24 9AA","addr:street":"Winterstoke Road","brand":"Lidl","brand:wikidata":"Q151954","fhrs:id":"1125937","source:addr":"FHRS Open Data"}}, "geometry":{"type":"MultiPolygon","coordinates":[[[[-2.95698,51.3317],[-2.95599,51.33182],[-2.95589,51.33147],[-2.95696,51.33135],[-2.957,51.33148],[-2.95692,51.33149],[-2.95698,51.3317]]]]}},
{ "type":"Feature","properties":{"osm_way_id":"572752480","name":"Sainsbury's Local","building":"yes","shop":"supermarket","other":{"brand:wikidata":"Q13218434"}}, "geometry":{"type":"MultiPolygon","coordinates":[[[[-2.85773,51.44285],[-2.85755,51.44274],[-2.85738,51.44285],[-2.8574,51.44286],[-2.85739,51.44287],[-2.85755,51.44296],[-2.85759,51.44294],[-2.85773,51.44285]]]]}},
{ "type":"Feature","properties":{"osm_way_id":"609719147","name":"Sainsbury's","building":"yes","shop":"supermarket","other":{"addr:city":"Bristol","addr:place":"Portishead","addr:postcode":"BS20 7GD","addr:street":"Serbert Way","brand":"Sainsbury's","brand:wikidata":"Q152096","brand:wikipedia":"en:Sainsbury's","fhrs:id":"893055","opening_hours":"Mo-Sa 07:00-22:00; Su 10:00-17:00","source:addr":"FHRS Open Data"}}, "geometry":{"type":"MultiPolygon","coordinates":[[[[-2.7617,51.48411],[-2.76149,51.48446],[-2.76018,51.48416],[-2.76023,51.48408],[-2.76056,51.48416],[-2.7608,51.48375],[-2.7616,51.48393],[-2.76152,51.48407],[-2.7617,51.48411]]]]}},
{ "type":"Feature","properties":{"osm_way_id":"627636148","name":"The White Cot","building":"yes","shop":"supermarket","other":{"addr:street":"St Peters Road","operator":"Jones"}}, "geometry":{"type":"MultiPolygon","coordinates":[[[[-2.76886,51.47755],[-2.76883,51.47762],[-2.76877,51.47761],[-2.76875,51.47764],[-2.76869,51.47763],[-2.7687,51.4776],[-2.76858,51.47757],[-2.7686,51.47754],[-2.7686,51.47753],[-2.76864,51.47753],[-2.76865,51.47753],[-2.76881,51.47755],[-2.76886,51.47755]]]]}},
{ "type":"Feature","properties":{"osm_way_id":"751745834","name":"Spar","building":"yes","shop":"supermarket","other":{"addr:city":"Weston-super-Mare","addr:housenumber":"119-123","addr:postcode":"BS23 1HN","addr:street":"High Street","brand":"Spar","brand:wikidata":"Q610492","brand:wikipedia":"en:SPAR (retailer)","fhrs:id":"151727","source:addr":"FHRS Open Data"}}, "geometry":{"type":"MultiPolygon","coordinates":[[[[-2.97963,51.35059],[-2.97963,51.35049],[-2.97958,51.35048],[-2.97954,51.35049],[-2.9795,51.3505],[-2.97946,51.35051],[-2.97942,51.35053],[-2.97939,51.35055],[-2.97936,51.35058],[-2.97935,51.3506],[-2.97934,51.35064],[-2.97934,51.35067],[-2.97952,51.35067],[-2.97953,51.35063],[-2.97954,51.35062],[-2.97956,51.3506],[-2.97958,51.3506],[-2.97961,51.35059],[-2.97963,51.35059]]]]}},
{ "type":"Feature","properties":{"osm_way_id":"752076623","name":"EUMax","building":"yes","shop":"supermarket"},"geometry":{"type":"MultiPolygon","coordinates":[[[[-2.97681,51.35009],[-2.97668,51.3501],[-2.97667,51.35004],[-2.97681,51.35004],[-2.97681,51.35009]]]]}},
{ "type":"Feature","properties":{"osm_way_id":"797685338","landuse":"meadow"},"geometry":{"type":"MultiPolygon","coordinates":[[[[-2.73909,51.45291],[-2.73898,51.45317],[-2.73875,51.45319],[-2.73852,51.4532],[-2.73855,51.4531],[-2.73855,51.45284],[-2.73897,51.45282],[-2.73912,51.45282],[-2.73909,51.45291]]]]}},
{ "type":"Feature","properties":{"osm_way_id":"907049321","building":"house","other":{"addr:city":"Clevedon","addr:housenumber":"152","addr:postcode":"BS21 5HW","addr:street":"Cannons Gate"}}, "geometry":{"type":"MultiPolygon","coordinates":[[[[-2.85871,51.42467],[-2.85866,51.42467],[-2.85866,51.42467],[-2.85863,51.4246],[-2.85868,51.42459],[-2.85871,51.42467]]]]}}
]
}
