{
"type": "FeatureCollection",
"features": [
{ "type":"Feature","properties":{"osm_id":"498498711","name":"Asda","other":{"addr:city":"Worksop","addr:country":"GB","addr:postcode":"S80 2BW","addr:street":"Memorial Avenue","brand":"Asda","brand:wikidata":"Q297410","brand:wikipedia":"en:Asda","contact:facebook":"https:\/\/www.facebook.com\/asda\/","contact:twitter":"@asda","contact:website":"https:\/\/storelocator.asda.com\/east-midlands\/worksop\/victoria-retail-park-memorial-avenue","fhrs:id":"181737","operator":"Asda Stores Ltd","shop":"supermarket"}}, "geometry":{"type":"Point","coordinates":[-1.12091,53.30386 ]}},
{ "type":"Feature","properties":{"osm_id":"9217990306","name":"Lidl","other":{"addr:country":"GB","addr:postcode":"DN22 6AZ","addr:street":"London Road","brand":"Lidl","brand:wikidata":"Q151954","brand:wikipedia":"en:Lidl","fhrs:id":"1296451","shop":"supermarket","survey:date":"2021-03-04"}}, "geometry":{"type":"Point","coordinates":[-0.93928,53.31721 ]}},
{ "type":"Feature","properties":{"osm_way_id":"28541398","name":"Tesco","building":"yes","shop":"supermarket","other":{"addr:postcode":"S81 7AP","addr:street":"Gateford Road","alt_name":"Tesco Worksop Gateford Road Superstore","brand":"Tesco","brand:wikidata":"Q487494","brand:wikipedia":"en:Tesco"}}, "geometry":{"type":"MultiPolygon","coordinates":[[[[-1.13278,53.3156],[-1.13158,53.31523],[-1.13184,53.31493],[-1.13173,53.31489],[-1.13198,53.3146],[-1.13329,53.31501],[-1.13278,53.3156]]]]}},
{ "type":"Feature","properties":{"osm_way_id":"32478925","name":"Asda","building":"yes","shop":"supermarket","other":{"addr:city":"Retford","addr:country":"GB","addr:postcode":"DN22 6EN","addr:street":"Wharf Road","brand":"Asda","brand:wikidata":"Q297410","brand:wikipedia":"en:Asda","contact:facebook":"https:\/\/www.facebook.com\/asda\/","contact:twitter":"@asda","contact:website":"https:\/\/storelocator.asda.com\/east-midlands\/east-retford\/wharf-road","fhrs:id":"177443","operator":"Asda Stores Ltd"}}, "geometry":{"type":"MultiPolygon","coordinates":[[[[-0.94522,53.32],[-0.94513,53.31962],[-0.94512,53.31962],[-0.94504,53.31963],[-0.94504,53.31962],[-0.945,53.31948],[-0.94526,53.31946],[-0.94527,53.31951],[-0.9457,53.31947],[-0.94596,53.31945],[-0.94597,53.31946],[-0.94632,53.31943],[-0.94635,53.31957],[-0.94609,53.31959],[-0.94612,53.31969],[-0.94604,53.31969],[-0.94609,53.31993],[-0.94522,53.32]]]]}},
{ "type":"Feature","properties":{"osm_way_id":"32983536","name":"Morrisons","building":"yes","shop":"supermarket","other":{"brand":"Morrisons","brand:wikidata":"Q922344","brand:wikipedia":"en:Morrisons"}}, "geometry":{"type":"MultiPolygon","coordinates":[[[[-0.94296,53.32687],[-0.9428,53.32681],[-0.94272,53.3269],[-0.94245,53.3268],[-0.94253,53.32671],[-0.94232,53.32663],[-0.94243,53.32652],[-0.9423,53.32647],[-0.94238,53.32639],[-0.9422,53.32633],[-0.94257,53.32596],[-0.94253,53.32591],[-0.94252,53.32587],[-0.94255,53.32582],[-0.9426,53.32579],[-0.94268,53.32577],[-0.94276,53.32578],[-0.94283,53.3258],[-0.94287,53.32584],[-0.94288,53.32589],[-0.94286,53.32593],[-0.94363,53.32621],[-0.94296,53.32687]]]]}},
{ "type":"Feature","properties":{"osm_way_id":"152836589","name":"The Co-operative Food","building":"retail","shop":"supermarket","other":{"addr:housenumber":"29","addr:postcode":"S81 9JX","addr:street":"Doncaster Road","alt_name":"Central England Co-operative","building:levels":"1","opening_hours":"Mo-Sa 07:00-22:00; Su 10:00-16:00","roof:levels":"0"}}, "geometry":{"type":"MultiPolygon","coordinates":[[[[-1.11919,53.36199],[-1.11893,53.36176],[-1.11878,53.36164],[-1.11854,53.36174],[-1.11852,53.36172],[-1.1184,53.36176],[-1.11877,53.36211],[-1.11905,53.362],[-1.11908,53.36203],[-1.11919,53.36199]]]]}},
{ "type":"Feature","properties":{"osm_way_id":"152836997","name":"Sainsbury's","building":"yes","shop":"supermarket","other":{"addr:postcode":"S80 3AT","addr:street":"Highgrounds Road","alt_name":"Worksop Superstore","brand":"Sainsbury's","brand:wikidata":"Q152096","brand:wikipedia":"en:Sainsbury's"}}, "geometry":{"type":"MultiPolygon","coordinates":[[[[-1.14614,53.31141],[-1.14587,53.31127],[-1.14627,53.311],[-1.14564,53.31067],[-1.14522,53.31096],[-1.1447,53.31132],[-1.1456,53.31178],[-1.14614,53.31141]]]]}},
{ "type":"Feature","properties":{"osm_way_id":"265447445","name":"Asda","building":"yes","shop":"supermarket","other":{"addr:city":"Worksop","addr:country":"GB","addr:housenumber":"2","addr:postcode":"S81 7AZ","addr:street":"Celtic Point","addr:unit":"J","alt_name":"ASDA Worksop Gateford Supermarket","brand":"Asda","brand:wikidata":"Q297410","brand:wikipedia":"en:Asda","contact:facebook":"https:\/\/www.facebook.com\/asda\/","contact:twitter":"@asda","contact:website":"https:\/\/storelocator.asda.com\/east-midlands\/worksop\/2-celtic-point","fhrs:id":"181697","old_name":"Netto","operator":"Asda Stores Ltd"}}, "geometry":{"type":"MultiPolygon","coordinates":[[[[-1.13302,53.32616],[-1.13302,53.32614],[-1.13303,53.32596],[-1.13303,53.32593],[-1.1329,53.32593],[-1.1329,53.32595],[-1.13243,53.32595],[-1.13242,53.32625],[-1.13271,53.32625],[-1.13271,53.32616],[-1.13302,53.32616]]]]}},
{ "type":"Feature","properties":{"osm_way_id":"265447500","name":"ALDI","building":"yes","shop":"supermarket","other":{"addr:postcode":"S80 1UD","addr:street":"Gateford Road","alt_name":"ALDI Worksop","brand":"ALDI","brand:wikidata":"Q41171672","brand:wikipedia":"en:Aldi"}}, "geometry":{"type":"MultiPolygon","coordinates":[[[[-1.12727,53.31077],[-1.12701,53.31052],[-1.12682,53.31059],[-1.12687,53.31063],[-1.12633,53.31084],[-1.12654,53.31104],[-1.12678,53.31095],[-1.12721,53.31079],[-1.12727,53.31077]]]]}},
{ "type":"Feature","properties":{"osm_way_id":"329540610","name":"Lincolnshire Co-op","building":"yes","shop":"supermarket","other":{"brand":"Lincolnshire Co-op","brand:wikidata":"Q6551231","brand:wikipedia":"en:Lincolnshire Co-operative","opening_hours":"07:00-22:00","operator":"Lincolnshire Co-op"}}, "geometry":{"type":"MultiPolygon","coordinates":[[[[-1.10175,53.31126],[-1.10174,53.31119],[-1.10179,53.31119],[-1.10178,53.31109],[-1.10174,53.31109],[-1.10174,53.31101],[-1.1015,53.31101],[-1.1015,53.31126],[-1.10175,53.31126]]]]}},
{ "type":"Feature","properties":{"osm_way_id":"376632337","name":"The Co-operative Food","building":"yes","shop":"supermarket","other":{"operator":"The Co-operative Group"}}, "geometry":{"type":"MultiPolygon","coordinates":[[[[-0.94853,53.30865],[-0.94853,53.30872],[-0.94871,53.30872],[-0.94871,53.30881],[-0.94833,53.30881],[-0.94833,53.30865],[-0.94853,53.30865]]]]}},
{ "type":"Feature","properties":{"osm_way_id":"482053675","name":"The Co-operative Food","building":"yes","shop":"supermarket","other":{"addr:city":"Misterton","addr:housenumber":"31","addr:postcode":"DN10 4BU","addr:street":"High Street","opening_hours":"Mo-Su 07:00-22:00","operator":"Lincolnshire Co-operative Society"}}, "geometry":{"type":"MultiPolygon","coordinates":[[[[-0.84473,53.44303],[-0.84464,53.44294],[-0.84411,53.44314],[-0.84425,53.44327],[-0.84445,53.44319],[-0.8444,53.44315],[-0.84473,53.44303]]]]}},
{ "type":"Feature","properties":{"osm_way_id":"543699324","name":"Morrisons","building":"yes","shop":"supermarket","other":{"addr:city":"Worksop","addr:postcode":"S80 2DJ","addr:street":"Kilton Road","brand":"Morrisons","brand:wikidata":"Q922344","brand:wikipedia":"en:Morrisons","phone":"+44 1909521399","website":"https:\/\/my.morrisons.com\/storefinder\/580"}}, "geometry":{"type":"MultiPolygon","coordinates":[[[[-1.11248,53.30745],[-1.11273,53.30687],[-1.11243,53.30682],[-1.11241,53.30687],[-1.11175,53.30677],[-1.11173,53.30683],[-1.11158,53.30681],[-1.11138,53.30728],[-1.11248,53.30745]]]]}},
{ "type":"Feature","properties":{"osm_way_id":"561322528","name":"Asda","building":"yes","shop":"supermarket","other":{"addr:city":"Harworth","addr:country":"GB","addr:postcode":"DN11 8AB","addr:street":"Scrooby Road","brand":"Asda","brand:wikidata":"Q297410","brand:wikipedia":"en:Asda","contact:facebook":"https:\/\/www.facebook.com\/asda\/","contact:twitter":"@asda","contact:website":"https:\/\/storelocator.asda.com\/east-midlands\/harworth\/scrooby-road","fhrs:id":"716838","operator":"Asda Stores Ltd"}}, "geometry":{"type":"MultiPolygon","coordinates":[[[[-1.05721,53.41658],[-1.05715,53.41608],[-1.05772,53.41606],[-1.05777,53.41649],[-1.05784,53.41649],[-1.05785,53.41656],[-1.05721,53.41658]]]]}},
{ "type":"Feature","properties":{"osm_way_id":"561322538","name":"ALDI","building":"yes","shop":"supermarket","other":{"brand":"ALDI","brand:wikidata":"Q41171672","brand:wikipedia":"en:Aldi"}}, "geometry":{"type":"MultiPolygon","coordinates":[[[[-1.06563,53.41674],[-1.06512,53.41674],[-1.06513,53.41628],[-1.06517,53.41623],[-1.06538,53.41623],[-1.06538,53.4162],[-1.06562,53.4162],[-1.06562,53.41624],[-1.06565,53.41624],[-1.06563,53.41674]]]]}},
{ "type":"Feature","properties":{"osm_way_id":"810865406","building":"yes"},"geometry":{"type":"MultiPolygon","coordinates":[[[[-0.72544,52.28815],[-0.7254,52.28809],[-0.72545,52.28808],[-0.72539,52.28798],[-0.72531,52.288],[-0.72534,52.28805],[-0.72529,52.28806],[-0.72536,52.28817],[-0.72544,52.28815]]]]}},
{ "type":"Feature","properties":{"osm_way_id":"922854787","name":"Asda","building":"yes","shop":"supermarket","other":{"brand":"Asda","brand:wikidata":"Q297410","brand:wikipedia":"en:Asda"}}, "geometry":{"type":"MultiPolygon","coordinates":[[[[-1.14062,53.31344],[-1.1404,53.3141],[-1.14022,53.31408],[-1.14017,53.31424],[-1.13954,53.31416],[-1.13959,53.314],[-1.13933,53.31397],[-1.13938,53.31381],[-1.13952,53.31337],[-1.13979,53.3134],[-1.1398,53.31335],[-1.14062,53.31344]]]]}},
{ "type":"Feature","properties":{"osm_way_id":"1017434259","name":"Lidl","building":"yes","shop":"supermarket","other":{"addr:city":"Retford","addr:postcode":"DN22 6AZ","addr:street":"London Road","brand":"Lidl","brand:wikidata":"Q151954","brand:wikipedia":"en:Lidl","opening_hours":"Mo-Sa 08:00-20:00; Su 10:00-16:00"}}, "geometry":{"type":"MultiPolygon","coordinates":[[[[-0.93902,53.31719],[-0.93956,53.31708],[-0.93972,53.31705],[-0.93969,53.317],[-0.93981,53.31697],[-0.93962,53.31664],[-0.93945,53.31667],[-0.93947,53.31671],[-0.93948,53.31673],[-0.93892,53.31685],[-0.93895,53.3169],[-0.93887,53.31691],[-0.93902,53.31719]]]]}}
]
}
