{
"type": "FeatureCollection",
"features": [
{ "type":"Feature","properties":{"osm_id":"288026537","name":"Sala. International Records Management","other":{"building":"warehouse"}}, "geometry":{"type":"Point","coordinates":[-0.06336,51.49484 ]}},
{ "type":"Feature","properties":{"osm_id":"1735574734","other":{"leaf_cycle":"deciduous","leaf_type":"broadleaved","natural":"tree","species":"Tilia cordata"}}, "geometry":{"type":"Point","coordinates":[-0.08934,51.47534 ]}},
{ "type":"Feature","properties":{"osm_id":"1735574735","other":{"natural":"tree","species":"Prunus 'Accolade'"}}, "geometry":{"type":"Point","coordinates":[-0.05564,51.47534 ]}},
{ "type":"Feature","properties":{"osm_id":"1735574736","other":{"leaf_cycle":"deciduous","leaf_type":"broadleaved","natural":"tree","species":"Platanus X hispanica","species:en":"London plane"}}, "geometry":{"type":"Point","coordinates":[-0.05764,51.47534 ]}},
{ "type":"Feature","properties":{"osm_way_id":"30010469","building":"warehouse"},"geometry":{"type":"MultiPolygon","coordinates":[[[[-0.05867,51.4912],[-0.05825,51.49096],[-0.05966,51.49043],[-0.05991,51.49073],[-0.05867,51.4912]]]]}},
{ "type":"Feature","properties":{"osm_way_id":"30010480","name":"FedEx","building":"warehouse"},"geometry":{"type":"MultiPolygon","coordinates":[[[[-0.05998,51.49183],[-0.06044,51.49165],[-0.06015,51.49133],[-0.06022,51.49131],[-0.05989,51.49097],[-0.05983,51.49099],[-0.05968,51.49083],[-0.05877,51.49117],[-0.05894,51.49134],[-0.05904,51.4913],[-0.05919,51.49146],[-0.05929,51.49142],[-0.05945,51.49158],[-0.05954,51.49155],[-0.05971,51.49171],[-0.05981,51.49167],[-0.05998,51.49183]]]]}},
{ "type":"Feature","properties":{"osm_way_id":"62222859","building":"house","other":{"addr:housenumber":"4","addr:street":"East Dulwich Grove"}}, "geometry":{"type":"MultiPolygon","coordinates":[[[[-0.07578,51.45977],[-0.07585,51.45976],[-0.07589,51.45987],[-0.07584,51.45988],[-0.07583,51.45983],[-0.0758,51.45984],[-0.07578,51.45977]]]]}},
{ "type":"Feature","properties":{"osm_way_id":"62222861","name":"Day Lewis","amenity":"pharmacy","building":"yes","other":{"addr:housenumber":"1-3","addr:postcode":"SE22 8RE","addr:street":"Melbourne Terrace","website":"https:\/\/www.daylewis.co.uk\/"}}, "geometry":{"type":"MultiPolygon","coordinates":[[[[-0.0798,51.4611],[-0.07987,51.461],[-0.07995,51.46103],[-0.07987,51.46112],[-0.0798,51.4611]]]]}},
{ "type":"Feature","properties":{"osm_way_id":"70913211","building":"warehouse","other":{"massgis:ID":"4339","verified":"no"}}, "geometry":{"type":"MultiPolygon","coordinates":[[[[-0.08597,51.48121],[-0.08597,51.48109],[-0.08562,51.48109],[-0.08562,51.48088],[-0.08617,51.48088],[-0.08617,51.48122],[-0.08597,51.48121]]]]}},
{ "type":"Feature","properties":{"osm_way_id":"93204894","building":"warehouse"},"geometry":{"type":"MultiPolygon","coordinates":[[[[-0.10117,51.50261],[-0.10117,51.50275],[-0.101,51.50275],[-0.10095,51.50263],[-0.10096,51.50263],[-0.10117,51.50261]]]]}},
{ "type":"Feature","properties":{"osm_way_id":"589997588","name":"Viserra","building":"warehouse","shop":"wholesale","other":{"addr:city":"London","addr:country":"GB","addr:housenumber":"112a","addr:postcode":"SE5 9HQ","addr:street":"Warner Road","addr:unit":"Unit 1","building:levels":"2","cuisine":"portuguese","email":"info@viserra.co.uk","phone":"+44 20 7733 8423","website":"http:\/\/www.viserra.co.uk","wholesale":"food"}}, "geometry":{"type":"MultiPolygon","coordinates":[[[[-0.09843,51.47225],[-0.09864,51.47241],[-0.09861,51.47242],[-0.09848,51.47249],[-0.09845,51.47251],[-0.09831,51.47258],[-0.0981,51.47242],[-0.0982,51.47237],[-0.09827,51.47233],[-0.09834,51.47229],[-0.09843,51.47225]]]]}},
{ "type":"Feature","properties":{"osm_way_id":"1006398461","name":"Ffenestri Cymru","building":"warehouse","shop":"wholesale"},"geometry":{"type":"MultiPolygon","coordinates":[[[[-4.30795,53.25058],[-4.30815,53.25055],[-4.3082,53.25066],[-4.30824,53.25076],[-4.30804,53.25079],[-4.30795,53.25058]]]]}},
{ "type":"Feature","properties":{"osm_way_id":"1006398462","name":"Toolstation","building":"warehouse","shop":"hardware"},"geometry":{"type":"MultiPolygon","coordinates":[[[[-4.30775,53.25061],[-4.30795,53.25058],[-4.30804,53.25079],[-4.30784,53.25082],[-4.30775,53.25061]]]]}},
{ "type":"Feature","properties":{"osm_way_id":"1008171262","name":"Gwynedd Garage Doors","building":"warehouse"},"geometry":{"type":"MultiPolygon","coordinates":[[[[-4.30839,53.25063],[-4.3082,53.25066],[-4.30815,53.25055],[-4.30825,53.25054],[-4.30837,53.25057],[-4.30839,53.25063]]]]}}
]
}
