{
"type": "FeatureCollection",
"features": [
{ "type":"Feature","properties":{"osm_id":"568630641","name":"The Co-operative Food","other":{"addr:city":"Walsall","addr:housenumber":"50-52","addr:postcode":"WS3 4LU","addr:street":"High St","brand":"Co-op Food","brand:wikidata":"Q3277439","brand:wikipedia":"en:Co-op Food","fhrs:id":"708777","operator":"The Midcounties Co-operative","shop":"supermarket"}}, "geometry":{"type":"Point","coordinates":[-1.9673,52.62864 ]}},
{ "type":"Feature","properties":{"osm_id":"918353945","other":{"amenity":"loading_dock"}}, "geometry":{"type":"Point","coordinates":[-1.97612,52.58272 ]}},
{ "type":"Feature","properties":{"osm_id":"2142643049","name":"Co-op Food","other":{"addr:housenumber":"302","addr:postcode":"WS5 3BD","addr:street":"Sutton Road","brand":"Co-op Food","brand:wikidata":"Q3277439","brand:wikipedia":"en:Co-op Food","fhrs:id":"184751","shop":"supermarket"}}, "geometry":{"type":"Point","coordinates":[-1.94621,52.57805 ]}},
{ "type":"Feature","properties":{"osm_id":"2142672583","name":"Co-op Food","other":{"addr:housenumber":"35","addr:postcode":"WS5 3EY","addr:street":"Liskeard Road","brand":"Co-op Food","brand:wikidata":"Q3277439","brand:wikipedia":"en:Co-op Food","fhrs:id":"184790","shop":"supermarket"}}, "geometry":{"type":"Point","coordinates":[-1.94649,52.57185 ]}},
{ "type":"Feature","properties":{"osm_id":"2679605187","other":{"amenity":"loading_dock"}}, "geometry":{"type":"Point","coordinates":[-1.97881,52.58247 ]}},
{ "type":"Feature","properties":{"osm_id":"2825691133","name":"Market Cross","other":{"historic":"memorial","tourism":"artwork","wikidata":"Q47455357"}}, "geometry":{"type":"Point","coordinates":[-1.97923,52.58302 ]}},
{ "type":"Feature","properties":{"osm_id":"2946731083","name":"Co-op Food","other":{"addr:housenumber":"1","addr:postcode":"WS1 1LW","addr:street":"The Bridge","brand":"Co-op Food","brand:wikidata":"Q3277439","brand:wikipedia":"en:Co-op Food","fhrs:id":"917461","shop":"supermarket"}}, "geometry":{"type":"Point","coordinates":[-1.98147,52.58423 ]}},
{ "type":"Feature","properties":{"osm_id":"2974003323","other":{"amenity":"clock","display":"analog","support":"wall_mounted","visibility":"area"}}, "geometry":{"type":"Point","coordinates":[-2.05311,52.58534 ]}},
{ "type":"Feature","properties":{"osm_id":"7555808492","name":"Heron Foods","other":{"addr:housenumber":"2-4","addr:postcode":"WS1 1YT","addr:street":"Bradford Mall","brand":"Heron Foods","brand:wikidata":"Q5743472","brand:wikipedia":"en:Heron Foods","fhrs:id":"937589","shop":"supermarket","website":"https:\/\/heronfoods.com\/store\/walsall\/"}}, "geometry":{"type":"Point","coordinates":[-1.98334,52.58358 ]}},
{ "type":"Feature","properties":{"osm_id":"7671899117","man_made":"surveillance","other":{"surveillance:type":"camera"}}, "geometry":{"type":"Point","coordinates":[-1.98148,52.57714 ]}},
{ "type":"Feature","properties":{"osm_id":"7671899118","man_made":"surveillance","other":{"surveillance:type":"camera"}}, "geometry":{"type":"Point","coordinates":[-1.98148,52.57708 ]}},
{ "type":"Feature","properties":{"osm_id":"7716554804","other":{"historic":"memorial","memorial":"plaque"}}, "geometry":{"type":"Point","coordinates":[-1.98195,52.5769 ]}},
{ "type":"Feature","properties":{"osm_id":"7823515629","other":{"amenity":"loading_dock"}}, "geometry":{"type":"Point","coordinates":[-1.98294,52.5866 ]}},
{ "type":"Feature","properties":{"osm_id":"7823515638","other":{"amenity":"loading_dock"}}, "geometry":{"type":"Point","coordinates":[-1.98288,52.58658 ]}},
{ "type":"Feature","properties":{"osm_id":"8325940739","other":{"defibrillator:location":"Yellow box on outside wall of the Spar near ATM","emergency":"defibrillator","indoor":"no"}}, "geometry":{"type":"Point","coordinates":[-1.92222,52.61442 ]}},
{ "type":"Feature","properties":{"osm_id":"8331001300","other":{"defibrillator:location":"Yellow box on outside wall near main entrance of the Co-Op","emergency":"defibrillator","indoor":"no"}}, "geometry":{"type":"Point","coordinates":[-1.9147,52.61611 ]}},
{ "type":"Feature","properties":{"osm_id":"8706590444","name":"The Food Warehouse","other":{"brand":"The Food Warehouse","brand:wikidata":"Q87263899","shop":"supermarket"}}, "geometry":{"type":"Point","coordinates":[-1.99239,52.56636 ]}},
{ "type":"Feature","properties":{"osm_way_id":"37888197","name":"Tesco","building":"yes","shop":"supermarket","other":{"addr:postcode":"WS8 6DZ","addr:street":"Silver Street","brand":"Tesco","brand:wikidata":"Q487494","brand:wikipedia":"en:Tesco","fhrs:id":"183959","layer":"-1","operator":"Tesco","source:addr":"FHRS Open Data"}}, "geometry":{"type":"MultiPolygon","coordinates":[[[[-1.93351,52.64622],[-1.93344,52.64618],[-1.93307,52.6464],[-1.9326,52.64611],[-1.93268,52.64607],[-1.93252,52.64597],[-1.93268,52.64587],[-1.93245,52.64573],[-1.93279,52.64553],[-1.93319,52.64577],[-1.93331,52.6457],[-1.93348,52.64581],[-1.93354,52.64577],[-1.93351,52.64622]]]]}},
{ "type":"Feature","properties":{"osm_way_id":"37888199","name":"ALDI","building":"retail","shop":"supermarket","other":{"addr:postcode":"WS8 6EQ","addr:street":"High Street","brand":"ALDI","brand:wikidata":"Q41171672","brand:wikipedia":"en:Aldi","fhrs:id":"305314","operator":"Aldi"}}, "geometry":{"type":"MultiPolygon","coordinates":[[[[-1.9342,52.64776],[-1.93418,52.64777],[-1.93416,52.64778],[-1.93436,52.64791],[-1.9344,52.6479],[-1.9346,52.64802],[-1.93466,52.64798],[-1.93479,52.64806],[-1.935,52.64793],[-1.93489,52.64787],[-1.93496,52.64783],[-1.93481,52.64774],[-1.93476,52.64776],[-1.93448,52.64759],[-1.9342,52.64776]]]]}},
{ "type":"Feature","properties":{"osm_way_id":"53565291","name":"Asda","building":"retail","shop":"supermarket","other":{"addr:city":"Bloxwich","addr:country":"GB","addr:postcode":"WS3 3JR","addr:street":"Woodall Street","brand":"Asda","brand:wikidata":"Q297410","brand:wikipedia":"en:Asda","contact:facebook":"https:\/\/www.facebook.com\/asda\/","contact:twitter":"@asda","contact:website":"https:\/\/storelocator.asda.com\/west-midlands\/walsall\/woodhall-street","fhrs:id":"183929","operator":"Asda Stores Ltd"}}, "geometry":{"type":"MultiPolygon","coordinates":[[[[-2.00199,52.61416],[-2.00099,52.61401],[-2.00107,52.61381],[-2.00099,52.6138],[-2.00111,52.61351],[-2.0012,52.61352],[-2.00122,52.61347],[-2.00223,52.61363],[-2.00219,52.61371],[-2.00228,52.61372],[-2.0021,52.61414],[-2.002,52.61413],[-2.00199,52.61416]]]]}},
{ "type":"Feature","properties":{"osm_way_id":"57832649","name":"Asda","building":"retail","shop":"supermarket","other":{"addr:city":"Walsall","addr:country":"GB","addr:postcode":"WS10 8UZ","addr:street":"St Lawrence Way","brand":"Asda","brand:wikidata":"Q297410","brand:wikipedia":"en:Asda","contact:facebook":"https:\/\/www.facebook.com\/asda\/","contact:twitter":"@asda","contact:website":"https:\/\/storelocator.asda.com\/west-midlands\/darlaston\/st-lawrence-way","fhrs:id":"429106","opening_hours":"24\/7","operator":"Asda Stores Ltd"}}, "geometry":{"type":"MultiPolygon","coordinates":[[[[-2.03649,52.56806],[-2.03622,52.56876],[-2.03595,52.56872],[-2.03592,52.56881],[-2.03545,52.56875],[-2.03548,52.56864],[-2.03537,52.56863],[-2.03526,52.56862],[-2.03523,52.56861],[-2.0351,52.5686],[-2.03511,52.56857],[-2.03519,52.56835],[-2.03517,52.56834],[-2.03526,52.56808],[-2.03531,52.56808],[-2.03537,52.56791],[-2.03564,52.56794],[-2.03567,52.56784],[-2.03598,52.56788],[-2.03595,52.56799],[-2.03605,52.568],[-2.03649,52.56806]]]]}},
{ "type":"Feature","properties":{"osm_way_id":"58561752","name":"ALDI","building":"yes","shop":"supermarket","other":{"addr:postcode":"WS10 8SR","brand":"ALDI","brand:wikidata":"Q41171672","brand:wikipedia":"en:Aldi","fhrs:id":"866269","opening_hours":"Mo-Su 'please add opening times'","source:addr":"FHRS Open Data"}}, "geometry":{"type":"MultiPolygon","coordinates":[[[[-2.05084,52.56149],[-2.05124,52.56133],[-2.05084,52.56096],[-2.05051,52.5611],[-2.0508,52.56136],[-2.05073,52.56139],[-2.05084,52.56149]]]]}},
{ "type":"Feature","properties":{"osm_way_id":"78182841","name":"Morrisons","building":"retail","shop":"supermarket","other":{"addr:postcode":"WS1 1SY","brand":"Morrisons","brand:wikidata":"Q922344","brand:wikipedia":"en:Morrisons","fhrs:id":"184827","old_name":"Safeway"}}, "geometry":{"type":"MultiPolygon","coordinates":[[[[-1.9765,52.58694],[-1.97628,52.58686],[-1.97632,52.58682],[-1.9759,52.58666],[-1.97566,52.58657],[-1.97604,52.5862],[-1.9762,52.58626],[-1.97628,52.58618],[-1.9762,52.58614],[-1.97625,52.58609],[-1.97633,52.58612],[-1.97634,52.58611],[-1.97691,52.58633],[-1.97681,52.58643],[-1.97697,52.58649],[-1.97684,52.58661],[-1.97667,52.58678],[-1.97674,52.5868],[-1.97659,52.58695],[-1.97653,52.58692],[-1.9765,52.58694]]]]}},
{ "type":"Feature","properties":{"osm_way_id":"78192556","name":"Lidl","building":"retail","shop":"supermarket","other":{"addr:city":"Walsall","addr:housenumber":"73","addr:postcode":"WS1 2EU","addr:street":"Ablewell Street","brand":"Lidl","brand:wikidata":"Q151954","brand:wikipedia":"en:Lidl","fhrs:id":"243753","opening_hours":"Mo-Sa 08:00-20:00; Su 10:00-16:00"}}, "geometry":{"type":"MultiPolygon","coordinates":[[[[-1.97599,52.58253],[-1.97572,52.58256],[-1.97572,52.58259],[-1.9754,52.58264],[-1.97539,52.58261],[-1.97529,52.58263],[-1.97538,52.58288],[-1.97608,52.58278],[-1.9761,52.58282],[-1.97619,52.5828],[-1.97616,52.58272],[-1.97615,52.58272],[-1.97612,52.58272],[-1.97608,52.58273],[-1.97599,52.58253]]]]}},
{ "type":"Feature","properties":{"osm_way_id":"80444261","name":"Morrisons","building":"retail","shop":"supermarket","other":{"addr:postcode":"WS2 9BY","brand":"Morrisons","brand:wikidata":"Q922344","brand:wikipedia":"en:Morrisons","fhrs:id":"183894","opening_hours":"Mo-Su","source:addr":"FHRS Open Data","website":"https:\/\/my.morrisons.com\/storefinder\/63"}}, "geometry":{"type":"MultiPolygon","coordinates":[[[[-1.99741,52.5716],[-1.99746,52.5715],[-1.99748,52.57148],[-1.99749,52.57145],[-1.99756,52.57147],[-1.9976,52.57139],[-1.99756,52.57134],[-1.99758,52.5713],[-1.99752,52.57129],[-1.99748,52.57123],[-1.99736,52.57121],[-1.99733,52.57125],[-1.99729,52.57124],[-1.99709,52.5712],[-1.99708,52.57121],[-1.99699,52.57119],[-1.99698,52.5712],[-1.99676,52.57115],[-1.99672,52.57122],[-1.99665,52.5712],[-1.99663,52.57124],[-1.99648,52.5712],[-1.99595,52.57209],[-1.9962,52.57215],[-1.99627,52.57203],[-1.99671,52.57213],[-1.99678,52.572],[-1.99698,52.57204],[-1.99726,52.57157],[-1.99741,52.5716]]]]}},
{ "type":"Feature","properties":{"osm_way_id":"84529215","name":"Asda","building":"yes","shop":"supermarket","other":{"addr:city":"Walsall","addr:country":"GB","addr:postcode":"WS1 1RS","addr:street":"George Street","brand":"Asda","brand:wikidata":"Q297410","brand:wikipedia":"en:Asda","contact:facebook":"https:\/\/www.facebook.com\/asda\/","contact:twitter":"@asda","contact:website":"https:\/\/storelocator.asda.com\/west-midlands\/walsall\/george-st","fhrs:id":"499768","operator":"Asda Stores Ltd"}}, "geometry":{"type":"MultiPolygon","coordinates":[[[[-1.97935,52.583],[-1.9793,52.58305],[-1.97923,52.58302],[-1.97883,52.58286],[-1.97883,52.58288],[-1.97853,52.58276],[-1.97861,52.58268],[-1.9787,52.58272],[-1.97892,52.58251],[-1.97881,52.58247],[-1.97864,52.58241],[-1.97905,52.58212],[-1.97924,52.5822],[-1.97929,52.58216],[-1.97967,52.58232],[-1.98019,52.58254],[-1.97983,52.58284],[-1.97977,52.58282],[-1.97951,52.58307],[-1.97949,52.58306],[-1.97935,52.583]]]]}},
{ "type":"Feature","properties":{"osm_way_id":"85526751","name":"Matco Megmart","building":"yes","shop":"supermarket","other":{"addr:postcode":"WS2 9HD","fhrs:id":"804642","opening_hours":"Mo-Su 08:00-22:00"}}, "geometry":{"type":"MultiPolygon","coordinates":[[[[-1.99887,52.57759],[-1.9982,52.57734],[-1.99827,52.57729],[-1.99896,52.57707],[-1.99914,52.57714],[-1.99919,52.5771],[-1.99927,52.57713],[-1.99922,52.57717],[-1.99912,52.57727],[-1.99891,52.57747],[-1.99897,52.57749],[-1.99892,52.57754],[-1.99887,52.57759]]]]}},
{ "type":"Feature","properties":{"osm_way_id":"88070072","name":"Morrisons","building":"retail","shop":"supermarket","other":{"addr:postcode":"WS9 8PT","addr:street":"Anchor Road","brand":"Morrisons","brand:wikidata":"Q922344","brand:wikipedia":"en:Morrisons","fhrs:id":"371596","opening_hours":"Mo-Sa 07:00-22:00; Su 10:00-16:00; Dec 25 off; Easter off","wheelchair":"yes"}}, "geometry":{"type":"MultiPolygon","coordinates":[[[[-1.92016,52.60489],[-1.92016,52.60481],[-1.92006,52.60479],[-1.91993,52.60428],[-1.91992,52.60432],[-1.91942,52.60426],[-1.9188,52.60412],[-1.91874,52.60426],[-1.91923,52.60437],[-1.91914,52.60474],[-1.91921,52.6048],[-1.91928,52.60481],[-1.91925,52.60499],[-1.9198,52.60504],[-1.9198,52.60496],[-1.91984,52.60497],[-1.91985,52.60491],[-1.92008,52.60494],[-1.92011,52.60488],[-1.92016,52.60489]]]]}},
{ "type":"Feature","properties":{"osm_way_id":"138143361","name":"Tesco Extra","building":"retail","shop":"supermarket","other":{"addr:city":"Walsall","addr:postcode":"WS2 8EQ","addr:street":"Littleton Street West","brand":"Tesco Extra","brand:wikidata":"Q25172225","brand:wikipedia":"en:Tesco Extra","building:levels":"2","fhrs:id":"703544","min_level":"1","opening_hours":"Mo 06:00-00:00; Tu-Sa 00:00-00:00; Su 10:00-16:00","payment:apple_pay":"yes","payment:cash":"yes","payment:credit_cards":"yes","payment:debit_cards":"yes","phone":"+44345 026 9674","website":"https:\/\/www.tesco.com\/store-locator\/walsall\/littleton-street"}}, "geometry":{"type":"MultiPolygon","coordinates":[[[[-1.9838,52.58749],[-1.98393,52.58734],[-1.98396,52.58731],[-1.98397,52.58731],[-1.98398,52.5873],[-1.98397,52.5873],[-1.98402,52.58725],[-1.98402,52.58725],[-1.98406,52.58721],[-1.98406,52.5872],[-1.98408,52.58718],[-1.98413,52.58711],[-1.98418,52.58705],[-1.98422,52.58699],[-1.9843,52.58686],[-1.98431,52.58686],[-1.98436,52.58675],[-1.98435,52.58675],[-1.98439,52.58667],[-1.98435,52.58666],[-1.98439,52.58664],[-1.98438,52.58663],[-1.98438,52.58663],[-1.98434,52.58659],[-1.98434,52.58659],[-1.9843,52.58655],[-1.98427,52.58653],[-1.98418,52.58661],[-1.98406,52.58657],[-1.9837,52.58646],[-1.98368,52.58647],[-1.98332,52.58635],[-1.98318,52.58631],[-1.98315,52.5863],[-1.98311,52.58628],[-1.98283,52.58653],[-1.98288,52.58655],[-1.98286,52.58657],[-1.98288,52.58658],[-1.98291,52.58659],[-1.98293,52.58656],[-1.98294,52.58657],[-1.98292,52.58659],[-1.98294,52.5866],[-1.98297,52.58661],[-1.98299,52.58658],[-1.98303,52.5866],[-1.9829,52.58674],[-1.98305,52.5868],[-1.98287,52.587],[-1.98255,52.58691],[-1.98238,52.58708],[-1.98246,52.58711],[-1.98245,52.58712],[-1.98271,52.5872],[-1.98275,52.58715],[-1.98302,52.58724],[-1.98368,52.58745],[-1.9838,52.58749]]]]}},
{ "type":"Feature","properties":{"osm_way_id":"186045859","name":"Co-operative Food","building":"yes","shop":"supermarket","other":{"addr:city":"Sutton Coldfield","addr:housenumber":"121","addr:postcode":"B74 2HE","addr:street":"Manor Court","operator":"Co-operative","phone":"+44 121 353 3258","website":"www.co-operativefood.co.uk","wikipedia":"en:The Co-operative Food"}}, "geometry":{"type":"MultiPolygon","coordinates":[[[[-1.88364,52.57676],[-1.88359,52.57677],[-1.88348,52.57679],[-1.88334,52.57682],[-1.88325,52.57684],[-1.88327,52.57689],[-1.88306,52.57694],[-1.88299,52.5768],[-1.88357,52.57665],[-1.88364,52.57676]]]]}},
{ "type":"Feature","properties":{"osm_way_id":"259719682","name":"Morrisons","building":"retail","shop":"supermarket","other":{"addr:postcode":"WV13 1QG","addr:street":"Middle Piece Way","brand":"Morrisons","brand:wikidata":"Q922344","brand:wikipedia":"en:Morrisons","fhrs:id":"184265","source:addr":"FSA Food Hygiene Ratings Database"}}, "geometry":{"type":"MultiPolygon","coordinates":[[[[-2.05456,52.58583],[-2.0532,52.58609],[-2.05301,52.58573],[-2.05286,52.58576],[-2.0528,52.58563],[-2.05304,52.58559],[-2.05293,52.58538],[-2.05311,52.58534],[-2.05329,52.58531],[-2.05333,52.58538],[-2.05397,52.58526],[-2.05393,52.58519],[-2.0542,52.58514],[-2.05456,52.58583]]]]}},
{ "type":"Feature","properties":{"osm_way_id":"260100886","name":"Alisha","building":"yes","shop":"supermarket","other":{"addr:postcode":"WS1 3QD","fhrs:id":"854875","origin":"polish"}}, "geometry":{"type":"MultiPolygon","coordinates":[[[[-1.98418,52.58221],[-1.98424,52.58211],[-1.98452,52.58218],[-1.98457,52.58219],[-1.9844,52.58226],[-1.98434,52.58224],[-1.98418,52.58221]]]]}},
{ "type":"Feature","properties":{"osm_way_id":"267160593","name":"The Co-operative Food","building":"yes","shop":"supermarket","other":{"addr:housenumber":"1-2","addr:postcode":"WS1 3HG","addr:street":"Hawes Close","brand":"Co-op Food","brand:wikidata":"Q3277439","brand:wikipedia":"en:Co-op Food","fhrs:id":"582680","operator":"The Midcounties Co-operative Society"}}, "geometry":{"type":"MultiPolygon","coordinates":[[[[-1.97829,52.56841],[-1.97831,52.56819],[-1.97852,52.56819],[-1.97852,52.56824],[-1.97861,52.56824],[-1.97861,52.56835],[-1.9786,52.56842],[-1.97829,52.56841]]]]}},
{ "type":"Feature","properties":{"osm_way_id":"293386151","name":"Lidl","building":"retail","shop":"supermarket","other":{"addr:city":"Wolverhampton","addr:postcode":"WV13 2BU","addr:street":"Railway Lane","addr:suburb":"Willenhall","brand":"Lidl","brand:wikidata":"Q151954","brand:wikipedia":"en:Lidl","fhrs:id":"1159287"}}, "geometry":{"type":"MultiPolygon","coordinates":[[[[-2.05761,52.58269],[-2.05736,52.58266],[-2.05737,52.58261],[-2.05723,52.58259],[-2.0573,52.5824],[-2.05722,52.58239],[-2.05726,52.5823],[-2.05734,52.58231],[-2.05745,52.58202],[-2.05784,52.58207],[-2.05761,52.58269]]]]}},
{ "type":"Feature","properties":{"osm_way_id":"304122486","name":"Tesco","building":"yes","shop":"supermarket","other":{"addr:postcode":"WV13 2PZ","brand":"Tesco","brand:wikidata":"Q487494","brand:wikipedia":"en:Tesco","fhrs:id":"184174","source:addr":"FHRS Open Data"}}, "geometry":{"type":"MultiPolygon","coordinates":[[[[-2.04572,52.57827],[-2.04568,52.57824],[-2.04526,52.57785],[-2.04506,52.57794],[-2.04501,52.57789],[-2.04484,52.57796],[-2.04489,52.578],[-2.04458,52.57813],[-2.0443,52.57824],[-2.04462,52.57854],[-2.04443,52.57862],[-2.04444,52.57864],[-2.04462,52.5787],[-2.04572,52.57827]]]]}},
{ "type":"Feature","properties":{"osm_way_id":"357829082","name":"The Co-operative Food","building":"yes","shop":"supermarket","other":{"addr:housenumber":"10","addr:postcode":"WV12 5EA","addr:street":"The Square","brand":"Co-op Food","brand:wikidata":"Q3277439","brand:wikipedia":"en:Co-op Food","fhrs:id":"198493","operator":"Midcounties Co-operative Society"}}, "geometry":{"type":"MultiPolygon","coordinates":[[[[-2.03732,52.61237],[-2.03751,52.61258],[-2.03734,52.61264],[-2.03715,52.61243],[-2.03732,52.61237]]]]}},
{ "type":"Feature","properties":{"osm_way_id":"358226293","name":"The Co-operative Food","building":"yes","shop":"supermarket","other":{"addr:housenumber":"73","addr:postcode":"WS3 3UB","addr:street":"Turnberry Road","brand":"The Co-operative Food","brand:wikidata":"Q107617274","brand:wikipedia":"en:Co-op Food","fhrs:id":"439644","operator":"The Midcounties Co-operative Society","operator:wikidata":"Q117202","operator:wikipedia":"en:The Co-operative Group"}}, "geometry":{"type":"MultiPolygon","coordinates":[[[[-2.01304,52.62957],[-2.01319,52.62977],[-2.01288,52.62985],[-2.01286,52.62982],[-2.01261,52.62989],[-2.01249,52.62972],[-2.01304,52.62957]]]]}},
{ "type":"Feature","properties":{"osm_way_id":"358226853","name":"ALDI","building":"retail","shop":"supermarket","other":{"addr:postcode":"WV12 5XZ","addr:street":"Coppice Farm Way","brand":"ALDI","brand:wikidata":"Q41171672","brand:wikipedia":"en:Aldi","fhrs:id":"1194304","old_name":"The Co-operative Food"}}, "geometry":{"type":"MultiPolygon","coordinates":[[[[-2.0463,52.6174],[-2.04653,52.61766],[-2.04619,52.61778],[-2.04622,52.61781],[-2.04585,52.61793],[-2.04559,52.61763],[-2.0463,52.6174]]]]}},
{ "type":"Feature","properties":{"osm_way_id":"358289204","name":"M & T Supermarket","building":"yes","shop":"supermarket","other":{"addr:city":"Walsall","addr:housenumber":"147-153","addr:postcode":"WS1 3RF","addr:street":"Caldmore Road","fhrs:id":"433537","opening_hours":"Mo-Su 09:00-20:00","phone":"+441922620607","website":"http:\/\/www.mandtsupermarket.co.uk\/"}}, "geometry":{"type":"MultiPolygon","coordinates":[[[[-1.98193,52.57717],[-1.98165,52.57716],[-1.98165,52.57719],[-1.98157,52.57719],[-1.98157,52.57718],[-1.98148,52.57718],[-1.98148,52.57714],[-1.98148,52.57708],[-1.98147,52.57704],[-1.98163,52.57704],[-1.98164,52.57686],[-1.98171,52.57686],[-1.98195,52.5769],[-1.98198,52.5769],[-1.98195,52.57706],[-1.98193,52.57717]]]]}},
{ "type":"Feature","properties":{"osm_way_id":"446259159","name":"The Co-operative Food","building":"yes","shop":"supermarket","other":{"addr:housenumber":"198","addr:postcode":"WS9 8HA","addr:street":"Walsall Wood Road","brand":"Co-op Food","brand:wikidata":"Q3277439","brand:wikipedia":"en:Co-op Food","fhrs:id":"852098","opening_hours":"Mo-Su,PH 07:00-22:00"}}, "geometry":{"type":"MultiPolygon","coordinates":[[[[-1.91473,52.61614],[-1.9147,52.61611],[-1.91469,52.61609],[-1.91452,52.61594],[-1.91437,52.61599],[-1.91458,52.6162],[-1.91473,52.61614]]]]}},
{ "type":"Feature","properties":{"osm_way_id":"451322880","name":"Spar","building":"yes","shop":"supermarket","other":{"brand":"Spar","brand:wikidata":"Q610492","brand:wikipedia":"en:Spar (retailer)","disused":"yes","disused:amenity":"pub"}}, "geometry":{"type":"MultiPolygon","coordinates":[[[[-1.92225,52.61448],[-1.92201,52.61452],[-1.92192,52.61429],[-1.92216,52.61426],[-1.92222,52.61442],[-1.92225,52.61448]]]]}},
{ "type":"Feature","properties":{"osm_way_id":"471297391","name":"The Co-operative Food","building":"retail","shop":"supermarket","other":{"addr:postcode":"WS4 1PS","addr:street":"Lichfield Road","brand":"Co-op Food","brand:wikidata":"Q3277439","brand:wikipedia":"en:Co-op Food","disused:amenity":"pub","fhrs:id":"356494","old_name":"Spring Cottage","operator":"Midcounties Co-operative Society"}}, "geometry":{"type":"MultiPolygon","coordinates":[[[[-1.95033,52.61791],[-1.95022,52.61784],[-1.95047,52.61769],[-1.95078,52.61787],[-1.95069,52.61792],[-1.95052,52.61783],[-1.95036,52.61793],[-1.95033,52.61791]]]]}},
{ "type":"Feature","properties":{"osm_way_id":"477539788","name":"The co-operative food","building":"retail","shop":"supermarket","other":{"addr:postcode":"WS8 7DT","addr:street":"Clayhanger Lane","brand":"Co-op Food","brand:wikidata":"Q3277439","brand:wikipedia":"en:Co-op Food","fhrs:id":"406252"}}, "geometry":{"type":"MultiPolygon","coordinates":[[[[-1.94272,52.64162],[-1.94261,52.64168],[-1.9424,52.64154],[-1.94276,52.64135],[-1.94294,52.64147],[-1.94284,52.64153],[-1.94281,52.6415],[-1.94274,52.64154],[-1.94267,52.64158],[-1.94272,52.64162]]]]}},
{ "type":"Feature","properties":{"osm_way_id":"821658862","name":"Walsall Mass Bazar","building":"yes","shop":"supermarket"},"geometry":{"type":"MultiPolygon","coordinates":[[[[-1.98194,52.57812],[-1.98199,52.57813],[-1.9821,52.57815],[-1.98227,52.57819],[-1.98232,52.57809],[-1.98217,52.57806],[-1.98205,52.57803],[-1.98201,52.57809],[-1.98196,52.57808],[-1.98194,52.57812]]]]}},
{ "type":"Feature","properties":{"osm_way_id":"826478480","name":"Unique Jamaican Foods","building":"yes","shop":"supermarket"},"geometry":{"type":"MultiPolygon","coordinates":[[[[-1.98259,52.57671],[-1.98268,52.57667],[-1.98287,52.57681],[-1.98296,52.57687],[-1.983,52.57696],[-1.98289,52.5769],[-1.9828,52.57685],[-1.98259,52.57671]]]]}},
{ "type":"Feature","properties":{"osm_way_id":"837190051","name":"The Food Warehouse","building":"yes","shop":"supermarket","other":{"addr:postcode":"WS2 8XA","addr:street":"Reedswood Way","brand":"The Food Warehouse","brand:wikidata":"Q87263899","fhrs:id":"1153255","old_name":"Bargain Buys;Lidl"}}, "geometry":{"type":"MultiPolygon","coordinates":[[[[-2.00201,52.59569],[-2.00254,52.59534],[-2.00233,52.59522],[-2.00224,52.59528],[-2.00222,52.59527],[-2.00206,52.59538],[-2.00207,52.59539],[-2.00191,52.59549],[-2.0018,52.59557],[-2.00201,52.59569]]]]}},
{ "type":"Feature","properties":{"osm_way_id":"837201134","name":"Sainsbury's","building":"yes","shop":"supermarket","other":{"addr:postcode":"WS2 8XA","addr:street":"Reedswood Way","brand":"Sainsbury's","brand:wikidata":"Q152096","brand:wikipedia":"en:Sainsbury's","fhrs:id":"184777","opening_hours":"Mo-Fr 08:00-22:00; Sa 07:30-10:00; Su 10:00-16:00","website":"https:\/\/stores.sainsburys.co.uk\/0853\/reedswood"}}, "geometry":{"type":"MultiPolygon","coordinates":[[[[-1.99752,52.5971],[-1.99855,52.59707],[-1.99854,52.597],[-1.99854,52.59699],[-1.99871,52.59698],[-1.9987,52.59687],[-1.99873,52.59687],[-1.9987,52.59654],[-1.99866,52.59654],[-1.99865,52.59645],[-1.99827,52.59646],[-1.99746,52.59648],[-1.99746,52.59656],[-1.99735,52.59656],[-1.99735,52.59649],[-1.99728,52.59649],[-1.99729,52.59664],[-1.99748,52.59664],[-1.99752,52.59709],[-1.99752,52.5971]]]]}}
]
}
