{
"type": "FeatureCollection",
"features": [
{ "type":"Feature","properties":{"osm_id":"1239988083","name":"Lidl","other":{"addr:city":"Richmond","addr:country":"GB","addr:housenumber":"1","addr:postcode":"DL10 4AJ","addr:street":"Queens Road","brand":"Lidl","brand:wikidata":"Q151954","brand:wikipedia":"en:Lidl","fhrs:id":"1028266","shop":"supermarket","toilets":"yes","toilets:wheelchair":"yes","wheelchair":"yes"}}, "geometry":{"type":"Point","coordinates":[-1.73836,54.40605 ]}},
{ "type":"Feature","properties":{"osm_id":"1668952889","name":"The Co-operative Food","other":{"addr:city":"Richmond","addr:housenumber":"6","addr:postcode":"DL10 4HU","addr:street":"Market Place","brand":"The Co-operative Food","brand:wikidata":"Q107617274","fhrs:id":"27610","shop":"supermarket","source:addr":"FHRS Open Data","wheelchair":"yes"}}, "geometry":{"type":"Point","coordinates":[-1.7368,54.40339 ]}},
{ "type":"Feature","properties":{"osm_id":"3202941274","name":"Aldi","other":{"addr:city":"Catterick Garrison","addr:postcode":"DL9 3JA","addr:street":"Richmond Road","brand":"ALDI","brand:wikidata":"Q41171672","brand:wikipedia":"en:Aldi","shop":"supermarket"}}, "geometry":{"type":"Point","coordinates":[-1.72093,54.37415 ]}},
{ "type":"Feature","properties":{"osm_id":"3702966463","other":{"shop":"bookmaker"}}, "geometry":{"type":"Point","coordinates":[-1.72288,54.37491 ]}},
{ "type":"Feature","properties":{"osm_id":"3733087313","name":"Poundland","other":{"addr:postcode":"DL9 3EL","shop":"supermarket"}}, "geometry":{"type":"Point","coordinates":[-1.72419,54.37654 ]}},
{ "type":"Feature","properties":{"osm_id":"4023906686","name":"Heron Foods","other":{"addr:housenumber":"58-59","addr:postcode":"DL10 4JQ","addr:street":"Market Place","brand":"Heron Foods","brand:wikidata":"Q5743472","brand:wikipedia":"en:Heron Foods","fhrs:id":"1096572","old_name":"Heron Foods","opening_hours":"Mo-Sa 08:00-18:00; Su 10:00-17:00","shop":"supermarket","website":"https:\/\/heronfoods.com\/store\/richmond\/","wheelchair":"yes"}}, "geometry":{"type":"Point","coordinates":[-1.73599,54.403 ]}},
{ "type":"Feature","properties":{"osm_id":"4025733066","name":"Ken Warne Licenced Grocers","other":{"addr:city":"Richmond","addr:street":"Market Place","shop":"supermarket","wheelchair":"yes"}}, "geometry":{"type":"Point","coordinates":[-1.73852,54.40328 ]}},
{ "type":"Feature","properties":{"osm_id":"5226683527","name":"Spar","other":{"shop":"supermarket","brand":"Spar","brand:wikidata":"Q610492","brand:wikipedia":"en:Spar (retailer)"}}, "geometry":{"type":"Point","coordinates":[-1.6662,54.44403 ]}},
{ "type":"Feature","properties":{"osm_way_id":"63973676","name":"Lidl - Catterick","building":"supermarket","landuse":"retail","shop":"supermarket","other":{"addr:city":"Catterick","addr:postcode":"DL9 4RP","addr:street":"Catterick Road","brand":"Lidl","brand:wikidata":"Q151954","brand:wikipedia":"en:Lidl"}}, "geometry":{"type":"MultiPolygon","coordinates":[[[[-1.67924,54.3805],[-1.67898,54.38053],[-1.679,54.38058],[-1.67883,54.38059],[-1.67864,54.37996],[-1.67913,54.37991],[-1.67918,54.38007],[-1.67911,54.38008],[-1.67924,54.3805]]]]}},
{ "type":"Feature","properties":{"osm_way_id":"154350202","name":"Tesco","building":"retail","shop":"supermarket","other":{"brand":"Tesco","brand:wikidata":"Q487494","brand:wikipedia":"en:Tesco","contact:website":"https:\/\/www.tesco.com\/store-locator\/catterick-garrison\/richmondshire-walk","opening_hours":"24\/7"}}, "geometry":{"type":"MultiPolygon","coordinates":[[[[-1.72493,54.37483],[-1.72333,54.37501],[-1.72329,54.37486],[-1.72317,54.37488],[-1.72304,54.3749],[-1.72288,54.37491],[-1.72279,54.37492],[-1.72272,54.37494],[-1.72263,54.37503],[-1.72254,54.37505],[-1.72244,54.37505],[-1.72238,54.37506],[-1.72227,54.37473],[-1.72232,54.37472],[-1.7223,54.37466],[-1.72268,54.37462],[-1.72272,54.37474],[-1.72315,54.37468],[-1.72314,54.37464],[-1.72324,54.37464],[-1.72318,54.37448],[-1.72367,54.37441],[-1.72364,54.37435],[-1.72334,54.37437],[-1.72332,54.37432],[-1.72367,54.37422],[-1.72417,54.37418],[-1.72417,54.37427],[-1.72434,54.37425],[-1.72437,54.3743],[-1.72445,54.3743],[-1.72446,54.37438],[-1.72456,54.37438],[-1.7246,54.37446],[-1.7247,54.37445],[-1.72489,54.37466],[-1.72493,54.37483]]]]}},
{ "type":"Feature","properties":{"osm_way_id":"219904328","name":"R. Campbell & Sons","building":"retail","shop":"supermarket","other":{"addr:housenumber":"4","addr:postcode":"DL8 5BP","addr:street":"Commercial Square","website":"https:\/\/www.campbellsofleyburn.co.uk\/"}}, "geometry":{"type":"MultiPolygon","coordinates":[[[[-1.83102,54.31054],[-1.83119,54.3102],[-1.83085,54.31014],[-1.83075,54.3104],[-1.83071,54.31048],[-1.8307,54.31051],[-1.83102,54.31054]]]]}},
{ "type":"Feature","properties":{"osm_way_id":"219904330","name":"The Co-Op Food","building":"yes","shop":"supermarket","other":{"operator":"The Co-Op Group","addr:street":"Market Place","addr:postcode":"DL8 5BG","addr:housenumber":"11"}}, "geometry":{"type":"MultiPolygon","coordinates":[[[[-1.82968,54.30943],[-1.8298,54.30908],[-1.82959,54.30905],[-1.82958,54.30909],[-1.82936,54.30908],[-1.82932,54.30938],[-1.82935,54.30939],[-1.82934,54.30942],[-1.8293,54.30942],[-1.82926,54.30951],[-1.82951,54.30955],[-1.82955,54.30947],[-1.82955,54.30946],[-1.8295,54.30946],[-1.82952,54.30941],[-1.82968,54.30943]]]]}},
{ "type":"Feature","properties":{"osm_way_id":"959164381","building":"yes"},"geometry":{"type":"MultiPolygon","coordinates":[[[[-1.7385,54.39925],[-1.7387,54.39938],[-1.73877,54.39934],[-1.73858,54.39921],[-1.7385,54.39925]]]]}}
]
}
