{
"type": "FeatureCollection",
"features": [
{ "type":"Feature","properties":{"osm_id":"82566614","other":{"amenity":"parking"}}, "geometry":{"type":"Point","coordinates":[1.25014,52.94132 ]}},
{ "type":"Feature","properties":{"osm_id":"302783238","other":{"amenity":"parking"}}, "geometry":{"type":"Point","coordinates":[1.09214,52.90379 ]}},
{ "type":"Feature","properties":{"osm_id":"321439553","name":"Barton Broad Boardwalk","other":{"access":"no","access:bicycle":"yes","access:disabled":"yes","amenity":"parking","capacity":"6","parking":"surface"}}, "geometry":{"type":"Point","coordinates":[1.49264,52.73127 ]}},
{ "type":"Feature","properties":{"osm_id":"339441150","other":{"amenity":"parking","wheelchair":"yes"}}, "geometry":{"type":"Point","coordinates":[0.88834,52.82502 ]}},
{ "type":"Feature","properties":{"osm_id":"440897052","name":"The Ship Inn car park","other":{"access":"customers","amenity":"parking","parking":"surface"}}, "geometry":{"type":"Point","coordinates":[1.14006,52.94291 ]}},
{ "type":"Feature","properties":{"osm_id":"442358899","other":{"amenity":"parking","parking":"surface"}}, "geometry":{"type":"Point","coordinates":[1.27383,52.82539 ]}},
{ "type":"Feature","properties":{"osm_id":"442358908","other":{"amenity":"parking","parking":"surface"}}, "geometry":{"type":"Point","coordinates":[1.28871,52.87439 ]}},
{ "type":"Feature","properties":{"osm_id":"446864118","name":"Cley Spy Bird Walk Parking","other":{"amenity":"parking","capacity":"20","parking":"surface"}}, "geometry":{"type":"Point","coordinates":[1.03594,52.93145 ]}},
{ "type":"Feature","properties":{"osm_id":"474888969","name":"Chapel Field Nursery","highway":"bus_stop","other":{"naptan:AtcoCode":"150022011016","naptan:Bearing":"N","naptan:CommonName":"Chapel Field Nursery","naptan:Indicator":"o\/s","naptan:Landmark":"Chapel Field Nursery","naptan:NaptanCode":"esxdgtat","naptan:Street":"Sewardstone Road","naptan:verified":"no","public_transport":"platform"}}, "geometry":{"type":"Point","coordinates":[-0.00498,51.65813 ]}},
{ "type":"Feature","properties":{"osm_id":"474889000","name":"Morris Court","highway":"bus_stop","other":{"bus":"yes","naptan:AtcoCode":"150022014010","naptan:Bearing":"NE","naptan:CommonName":"Morris Court","naptan:Indicator":"Adj","naptan:Landmark":"Morris Court","naptan:NaptanCode":"esxdgtjd","naptan:PlusbusZoneRef":"CHESHNT","naptan:Street":"Shernbroke Road","naptan:verified":"no","public_transport":"platform"}}, "geometry":{"type":"Point","coordinates":[0.01861,51.68485 ]}},
{ "type":"Feature","properties":{"osm_id":"474889002","name":"Maynard Court","highway":"bus_stop","other":{"bus":"yes","naptan:AtcoCode":"150022014011","naptan:Bearing":"W","naptan:CommonName":"Maynard Court","naptan:Indicator":"Adj","naptan:Landmark":"Maynard Court","naptan:NaptanCode":"esxdgtjg","naptan:PlusbusZoneRef":"CHESHNT","naptan:Street":"Shernbroke Road","naptan:verified":"no","public_transport":"platform"}}, "geometry":{"type":"Point","coordinates":[0.02135,51.68513 ]}},
{ "type":"Feature","properties":{"osm_id":"474889003","name":"Maynard Court","highway":"bus_stop","other":{"bus":"yes","naptan:AtcoCode":"150022014012","naptan:Bearing":"E","naptan:CommonName":"Maynard Court","naptan:Indicator":"Opp","naptan:Landmark":"Maynard Court","naptan:NaptanCode":"esxdgtjm","naptan:PlusbusZoneRef":"CHESHNT","naptan:Street":"Shernbroke Road","naptan:verified":"no","public_transport":"platform"}}, "geometry":{"type":"Point","coordinates":[0.02267,51.68509 ]}},
{ "type":"Feature","properties":{"osm_id":"474889053","name":"Lodge Road","highway":"bus_stop","other":{"naptan:AtcoCode":"150022023003","naptan:Bearing":"SW","naptan:CommonName":"Lodge Road","naptan:Crossing":"Lodge Road","naptan:Indicator":"Adj","naptan:Landmark":"Lodge Road","naptan:NaptanCode":"esxdgwag","naptan:Street":"Epping Road","naptan:verified":"no","public_transport":"platform"}}, "geometry":{"type":"Point","coordinates":[0.06834,51.67855 ]}},
{ "type":"Feature","properties":{"osm_id":"474889054","name":"Lodge Road","highway":"bus_stop","other":{"naptan:AtcoCode":"150022023004","naptan:Bearing":"NE","naptan:CommonName":"Lodge Road","naptan:Crossing":"Lodge Road","naptan:Indicator":"Opp","naptan:Landmark":"Lodge Road","naptan:NaptanCode":"esxdgwaj","naptan:Street":"Epping Road","naptan:verified":"no","public_transport":"platform"}}, "geometry":{"type":"Point","coordinates":[0.06899,51.679 ]}},
{ "type":"Feature","properties":{"osm_id":"474889055","name":"Ambresbury Banks","highway":"bus_stop","other":{"naptan:AtcoCode":"150022023005","naptan:Bearing":"SW","naptan:CommonName":"Ambresbury Banks","naptan:Indicator":"o\/s","naptan:Landmark":"Ambresbury Banks","naptan:NaptanCode":"esxdgwam","naptan:Street":"Epping Road","naptan:verified":"no","public_transport":"platform"}}, "geometry":{"type":"Point","coordinates":[0.07577,51.68318 ]}},
{ "type":"Feature","properties":{"osm_id":"474889057","name":"Ambresbury Banks","highway":"bus_stop","other":{"naptan:AtcoCode":"150022023006","naptan:Bearing":"NE","naptan:CommonName":"Ambresbury Banks","naptan:Indicator":"Opp","naptan:Landmark":"Ambresbury Banks","naptan:NaptanCode":"esxdgwap","naptan:Street":"Epping Road","naptan:verified":"no","public_transport":"platform"}}, "geometry":{"type":"Point","coordinates":[0.07599,51.68343 ]}},
{ "type":"Feature","properties":{"osm_id":"474889061","name":"Bell Common","highway":"bus_stop","other":{"bus":"yes","naptan:AtcoCode":"150022023009","naptan:Bearing":"SW","naptan:CommonName":"Bell Common","naptan:Indicator":"Adj","naptan:Landmark":"Bell Common","naptan:NaptanCode":"esxdgwdp","naptan:Street":"High Road","naptan:verified":"no","public_transport":"platform"}}, "geometry":{"type":"Point","coordinates":[0.09651,51.69188 ]}},
{ "type":"Feature","properties":{"osm_id":"474889099","name":"Northfield","highway":"bus_stop","other":{"bus":"yes","naptan:AtcoCode":"15002400401Y","naptan:Bearing":"NE","naptan:BusStopType":"CUS","naptan:CommonName":"Beslyns Road","naptan:Crossing":"Beslyns Road","naptan:Indicator":"Adj","naptan:Landmark":"Beslyns Road","naptan:NaptanCode":"esxgwtaw","naptan:Street":"Bridge Street","naptan:verified":"no","public_transport":"platform"}}, "geometry":{"type":"Point","coordinates":[0.43738,51.95313 ]}},
{ "type":"Feature","properties":{"osm_id":"474889100","name":"Justice's Farm","highway":"bus_stop","other":{"bus":"yes","naptan:AtcoCode":"15002400409Y","naptan:Bearing":"NW","naptan:BusStopType":"CUS","naptan:CommonName":"Justice's Farm","naptan:Indicator":"Opp","naptan:Landmark":"Justice's Farm","naptan:NaptanCode":"esxgwtap","naptan:Street":"Sampford Road","naptan:verified":"no","public_transport":"platform"}}, "geometry":{"type":"Point","coordinates":[0.47335,51.96406 ]}},
{ "type":"Feature","properties":{"osm_id":"513745134","other":{"amenity":"parking"}}, "geometry":{"type":"Point","coordinates":[1.34962,52.86649 ]}},
{ "type":"Feature","properties":{"osm_id":"562732996","name":"Old Rail Station, adj","highway":"bus_stop","other":{"naptan:AtcoCode":"2900W5710","naptan:Bearing":"SE","naptan:BusStopType":"CUS","naptan:CommonName":"Old Rail Station","naptan:Indicator":"adj","naptan:Landmark":"Maryland","naptan:Locality":"Wells-next-the-Sea","naptan:NaptanCode":"nfogjgdp","naptan:ShortCommonName":"Polka Road","naptan:Street":"Polka Road","naptan:verified":"no"}}, "geometry":{"type":"Point","coordinates":[0.85593,52.95261 ]}},
{ "type":"Feature","properties":{"osm_id":"855339564","name":"Roman Camp Car Park","other":{"amenity":"parking","operator":"National Trust"}}, "geometry":{"type":"Point","coordinates":[1.24744,52.92549 ]}},
{ "type":"Feature","properties":{"osm_id":"855369374","other":{"amenity":"parking"}}, "geometry":{"type":"Point","coordinates":[1.21258,52.94521 ]}},
{ "type":"Feature","properties":{"osm_id":"968834896","other":{"amenity":"parking"}}, "geometry":{"type":"Point","coordinates":[1.28211,52.85295 ]}},
{ "type":"Feature","properties":{"osm_id":"968835668","other":{"amenity":"parking","parking":"layby"}}, "geometry":{"type":"Point","coordinates":[1.2823,52.85855 ]}},
{ "type":"Feature","properties":{"osm_id":"1010869331","other":{"amenity":"parking"}}, "geometry":{"type":"Point","coordinates":[0.84552,52.83072 ]}},
{ "type":"Feature","properties":{"osm_id":"1010943060","other":{"amenity":"parking"}}, "geometry":{"type":"Point","coordinates":[0.87355,52.83985 ]}},
{ "type":"Feature","properties":{"osm_id":"1055357450","other":{"amenity":"parking"}}, "geometry":{"type":"Point","coordinates":[1.38626,52.81775 ]}},
{ "type":"Feature","properties":{"osm_id":"1102469771","other":{"amenity":"parking"}}, "geometry":{"type":"Point","coordinates":[1.49067,52.74851 ]}},
{ "type":"Feature","properties":{"osm_id":"1141297975","other":{"access":"customers","amenity":"parking"}}, "geometry":{"type":"Point","coordinates":[1.31183,52.88094 ]}},
{ "type":"Feature","properties":{"osm_id":"1202138688","other":{"amenity":"parking"}}, "geometry":{"type":"Point","coordinates":[1.47153,52.7356 ]}},
{ "type":"Feature","properties":{"osm_id":"1202150610","other":{"amenity":"parking"}}, "geometry":{"type":"Point","coordinates":[1.50257,52.73012 ]}},
{ "type":"Feature","properties":{"osm_id":"1225944669","highway":"crossing","other":{"crossing":"uncontrolled","crossing_ref":"zebra"}}, "geometry":{"type":"Point","coordinates":[0.86944,52.83897 ]}},
{ "type":"Feature","properties":{"osm_id":"1251245991","name":"High Street Car Park","other":{"amenity":"parking","capacity:disabled":"2","fee":"yes","parking":"surface","wheelchair":"yes"}}, "geometry":{"type":"Point","coordinates":[1.5114,52.77248 ]}},
{ "type":"Feature","properties":{"osm_id":"1281968053","other":{"amenity":"parking"}}, "geometry":{"type":"Point","coordinates":[1.0653,52.90629 ]}},
{ "type":"Feature","properties":{"osm_id":"1322584529","other":{"amenity":"parking"}}, "geometry":{"type":"Point","coordinates":[1.43701,52.82803 ]}},
{ "type":"Feature","properties":{"osm_id":"1374898008","other":{"amenity":"parking"}}, "geometry":{"type":"Point","coordinates":[1.27316,52.85349 ]}},
{ "type":"Feature","properties":{"osm_id":"1374923638","other":{"amenity":"parking","parking":"surface"}}, "geometry":{"type":"Point","coordinates":[1.2759,52.84383 ]}},
{ "type":"Feature","properties":{"osm_id":"1444698961","other":{"amenity":"parking","fee":"no","parking":"layby"}}, "geometry":{"type":"Point","coordinates":[0.8099,52.84221 ]}},
{ "type":"Feature","properties":{"osm_id":"1444698980","other":{"amenity":"parking","parking":"layby"}}, "geometry":{"type":"Point","coordinates":[0.79217,52.8423 ]}},
{ "type":"Feature","properties":{"osm_id":"1444698992","other":{"amenity":"parking","parking":"layby"}}, "geometry":{"type":"Point","coordinates":[0.84852,52.84491 ]}},
{ "type":"Feature","properties":{"osm_id":"1444698995","other":{"amenity":"parking","parking":"layby"}}, "geometry":{"type":"Point","coordinates":[0.90668,52.84701 ]}},
{ "type":"Feature","properties":{"osm_id":"1444889237","other":{"amenity":"parking","parking":"layby"}}, "geometry":{"type":"Point","coordinates":[1.04727,52.9611 ]}},
{ "type":"Feature","properties":{"osm_id":"1445721706","other":{"amenity":"parking","parking":"layby"}}, "geometry":{"type":"Point","coordinates":[1.08114,52.90651 ]}},
{ "type":"Feature","properties":{"osm_id":"1454194102","other":{"amenity":"parking","parking":"layby"}}, "geometry":{"type":"Point","coordinates":[1.11004,52.90845 ]}},
{ "type":"Feature","properties":{"osm_id":"1454194107","other":{"amenity":"parking","parking":"layby"}}, "geometry":{"type":"Point","coordinates":[1.11224,52.91025 ]}},
{ "type":"Feature","properties":{"osm_id":"1460822731","other":{"amenity":"parking"}}, "geometry":{"type":"Point","coordinates":[1.28201,52.84956 ]}},
{ "type":"Feature","properties":{"osm_id":"1468453922","other":{"amenity":"parking","parking":"layby"}}, "geometry":{"type":"Point","coordinates":[1.14344,52.82936 ]}},
{ "type":"Feature","properties":{"osm_id":"1492716176","other":{"amenity":"parking"}}, "geometry":{"type":"Point","coordinates":[0.86831,52.9463 ]}},
{ "type":"Feature","properties":{"osm_id":"1500665048","other":{"amenity":"parking","parking":"layby"}}, "geometry":{"type":"Point","coordinates":[1.06677,52.95461 ]}},
{ "type":"Feature","properties":{"osm_id":"1543245822","other":{"amenity":"parking","parking":"layby"}}, "geometry":{"type":"Point","coordinates":[1.20492,52.92308 ]}},
{ "type":"Feature","properties":{"osm_id":"1543245827","other":{"amenity":"parking","parking":"layby"}}, "geometry":{"type":"Point","coordinates":[1.20132,52.92743 ]}},
{ "type":"Feature","properties":{"osm_id":"1564154401","other":{"amenity":"parking","parking":"layby"}}, "geometry":{"type":"Point","coordinates":[1.0321,52.89882 ]}},
{ "type":"Feature","properties":{"osm_id":"1780115079","other":{"amenity":"parking","fee":"no","parking":"surface"}}, "geometry":{"type":"Point","coordinates":[1.22197,52.93682 ]}},
{ "type":"Feature","properties":{"osm_id":"2385646171","other":{"amenity":"parking","fee":"no","parking":"surface"}}, "geometry":{"type":"Point","coordinates":[1.38095,52.76574 ]}},
{ "type":"Feature","properties":{"osm_id":"2389974607","other":{"amenity":"parking","fee":"no","parking":"layby"}}, "geometry":{"type":"Point","coordinates":[1.44448,52.70791 ]}},
{ "type":"Feature","properties":{"osm_id":"2391630006","other":{"amenity":"parking","fee":"no","parking":"surface"}}, "geometry":{"type":"Point","coordinates":[1.30855,52.81566 ]}},
{ "type":"Feature","properties":{"osm_id":"2401577945","other":{"amenity":"parking","parking":"surface"}}, "geometry":{"type":"Point","coordinates":[1.45172,52.79427 ]}},
{ "type":"Feature","properties":{"osm_id":"2554012175","other":{"amenity":"parking"}}, "geometry":{"type":"Point","coordinates":[1.35745,52.86607 ]}},
{ "type":"Feature","properties":{"osm_id":"3118425350","other":{"amenity":"parking","fee":"no","parking":"surface"}}, "geometry":{"type":"Point","coordinates":[1.2642,52.83008 ]}},
{ "type":"Feature","properties":{"osm_id":"3286513764","other":{"amenity":"parking","fee":"no","parking":"surface"}}, "geometry":{"type":"Point","coordinates":[1.4334,52.72696 ]}},
{ "type":"Feature","properties":{"osm_id":"3379945148","other":{"access":"yes","amenity":"parking","capacity":"5","fee":"no","parking":"surface","surface":"asphalt","type":"layby"}}, "geometry":{"type":"Point","coordinates":[1.30017,52.88312 ]}},
{ "type":"Feature","properties":{"osm_id":"3710805345","other":{"access":"yes","amenity":"parking","fee":"no","parking":"surface"}}, "geometry":{"type":"Point","coordinates":[1.20377,52.92949 ]}},
{ "type":"Feature","properties":{"osm_id":"3777796948","other":{"amenity":"recycling","recycling:paper":"yes","recycling_type":"container"}}, "geometry":{"type":"Point","coordinates":[1.02236,52.86835 ]}},
{ "type":"Feature","properties":{"osm_id":"3948545622","other":{"amenity":"parking"}}, "geometry":{"type":"Point","coordinates":[1.25354,52.86174 ]}},
{ "type":"Feature","properties":{"osm_id":"4113460513","other":{"access":"yes","amenity":"parking","fee":"no","parking":"surface","surface":"ground"}}, "geometry":{"type":"Point","coordinates":[1.13609,52.82012 ]}},
{ "type":"Feature","properties":{"osm_id":"4298414630","other":{"access":"yes","amenity":"parking","fee":"no","parking":"surface","surface":"ground"}}, "geometry":{"type":"Point","coordinates":[1.11143,52.92313 ]}},
{ "type":"Feature","properties":{"osm_id":"4307746525","other":{"access":"yes","amenity":"parking","fee":"no","surface":"compacted"}}, "geometry":{"type":"Point","coordinates":[1.14837,52.94306 ]}},
{ "type":"Feature","properties":{"osm_id":"4427740499","other":{"amenity":"parking","capacity":"20","parking":"surface"}}, "geometry":{"type":"Point","coordinates":[0.87282,52.89294 ]}},
{ "type":"Feature","properties":{"osm_id":"4427740636","other":{"access":"customers","amenity":"parking","capacity":"30"}}, "geometry":{"type":"Point","coordinates":[0.81429,52.95928 ]}},
{ "type":"Feature","properties":{"osm_id":"4705087506","other":{"amenity":"parking"}}, "geometry":{"type":"Point","coordinates":[0.8761,52.89783 ]}},
{ "type":"Feature","properties":{"osm_id":"5016005299","other":{"amenity":"parking","parking":"layby"}}, "geometry":{"type":"Point","coordinates":[1.50581,52.8032 ]}},
{ "type":"Feature","properties":{"osm_id":"5044991117","other":{"amenity":"parking","fee":"no","parking":"surface"}}, "geometry":{"type":"Point","coordinates":[1.383,52.76951 ]}},
{ "type":"Feature","properties":{"osm_id":"5062528064","other":{"access":"customers","amenity":"parking","fee":"no","parking":"surface"}}, "geometry":{"type":"Point","coordinates":[1.64216,52.74811 ]}},
{ "type":"Feature","properties":{"osm_id":"5110665270","other":{"amenity":"parking","capacity":"6","fee":"no","parking":"surface"}}, "geometry":{"type":"Point","coordinates":[1.35612,52.76367 ]}},
{ "type":"Feature","properties":{"osm_id":"5110691751","other":{"access":"customers","amenity":"parking","fee":"no","parking":"surface","surface":"gravel"}}, "geometry":{"type":"Point","coordinates":[0.81952,52.85081 ]}},
{ "type":"Feature","properties":{"osm_id":"5447723041","other":{"amenity":"parking","capacity":"4","fee":"no","parking":"surface","surface":"ground"}}, "geometry":{"type":"Point","coordinates":[1.03875,52.94393 ]}},
{ "type":"Feature","properties":{"osm_id":"5722813822","other":{"access":"yes","amenity":"parking","fee":"no","parking":"surface"}}, "geometry":{"type":"Point","coordinates":[1.01512,52.95524 ]}},
{ "type":"Feature","properties":{"osm_id":"5981737824","other":{"amenity":"parking"}}, "geometry":{"type":"Point","coordinates":[1.61459,52.778 ]}},
{ "type":"Feature","properties":{"osm_id":"6906299266","other":{"amenity":"parking","parking":"layby"}}, "geometry":{"type":"Point","coordinates":[0.75973,52.83679 ]}},
{ "type":"Feature","properties":{"osm_id":"7657235057","other":{"access":"customers","amenity":"parking","parking":"surface","surface":"gravel"}}, "geometry":{"type":"Point","coordinates":[0.87456,52.89553 ]}},
{ "type":"Feature","properties":{"osm_id":"7800557104","other":{"access":"yes","addr:city":"East Runton","addr:postcode":"NR27 9PA","addr:street":"Beach Road","amenity":"parking_entrance","level":"0"}}, "geometry":{"type":"Point","coordinates":[1.27288,52.93659 ]}},
{ "type":"Feature","properties":{"osm_id":"7902333257","other":{"amenity":"parking","fee":"no","parking":"surface"}}, "geometry":{"type":"Point","coordinates":[1.48424,52.8472 ]}},
{ "type":"Feature","properties":{"osm_id":"7904558835","other":{"traffic_calming":"bump"}}, "geometry":{"type":"Point","coordinates":[1.47716,52.85125 ]}},
{ "type":"Feature","properties":{"osm_id":"7904558840","other":{"traffic_calming":"bump"}}, "geometry":{"type":"Point","coordinates":[1.47709,52.85106 ]}},
{ "type":"Feature","properties":{"osm_id":"8057304200","other":{"access":"customers","amenity":"parking","parking":"surface"}}, "geometry":{"type":"Point","coordinates":[1.03577,52.85677 ]}},
{ "type":"Feature","properties":{"osm_id":"8281391879","other":{"access":"private","amenity":"parking","parking":"surface","surface":"grass"}}, "geometry":{"type":"Point","coordinates":[0.87559,52.89652 ]}},
{ "type":"Feature","properties":{"osm_id":"8985415587","other":{"access":"yes","amenity":"parking","fee":"no","parking":"surface","surface":"asphalt"}}, "geometry":{"type":"Point","coordinates":[1.41925,52.79547 ]}},
{ "type":"Feature","properties":{"osm_id":"9293692486","other":{"amenity":"recycling"}}, "geometry":{"type":"Point","coordinates":[1.01429,52.95331 ]}},
{ "type":"Feature","properties":{"osm_id":"9296174111","other":{"amenity":"parking","capacity":"5"}}, "geometry":{"type":"Point","coordinates":[1.16959,52.85118 ]}},
{ "type":"Feature","properties":{"osm_id":"9405379826","other":{"defibrillator:location":"On exterior wall of Bacton Superstore, facing the car park off Coast Road.","emergency":"defibrillator"}}, "geometry":{"type":"Point","coordinates":[1.47753,52.85123 ]}},
{ "type":"Feature","properties":{"osm_id":"9577336095","other":{"access":"private","amenity":"parking","parking":"surface","surface":"asphalt"}}, "geometry":{"type":"Point","coordinates":[1.3931,52.81826 ]}},
{ "type":"Feature","properties":{"osm_way_id":"4587526","name":"Village Hall Car Park","amenity":"parking","other":{"access":"yes","fee":"no","parking":"surface","url":"http:\/\/www.blakeneyparishcouncil.org.uk\/blakeney-village\/blakeney-car-parking\/"}}, "geometry":{"type":"MultiPolygon","coordinates":[[[[1.01611,52.95262],[1.01582,52.95241],[1.01553,52.95257],[1.015,52.95272],[1.01495,52.95273],[1.01507,52.95292],[1.01453,52.95309],[1.0144,52.95292],[1.01428,52.95295],[1.01421,52.95287],[1.01397,52.95289],[1.01429,52.95331],[1.01454,52.95332],[1.01474,52.95321],[1.01516,52.95299],[1.01568,52.95282],[1.01587,52.95273],[1.01594,52.9527],[1.01611,52.95262]]]]}},
{ "type":"Feature","properties":{"osm_way_id":"18477009","name":"Beach Road Car Park","amenity":"parking","other":{"access":"yes","fee":"yes","parking":"surface","surface":"compacted"}}, "geometry":{"type":"MultiPolygon","coordinates":[[[[0.84913,52.97202],[0.84829,52.97206],[0.84812,52.97206],[0.84804,52.97206],[0.84779,52.97206],[0.84754,52.97207],[0.84676,52.97205],[0.84686,52.97273],[0.84926,52.9727],[0.84918,52.97206],[0.84913,52.97202]]]]}},
{ "type":"Feature","properties":{"osm_way_id":"22376960","amenity":"parking"},"geometry":{"type":"MultiPolygon","coordinates":[[[[-0.38413,51.59351],[-0.38397,51.59367],[-0.38377,51.59374],[-0.38276,51.59321],[-0.38284,51.59312],[-0.38262,51.59259],[-0.38273,51.59257],[-0.38278,51.59256],[-0.3829,51.59269],[-0.38295,51.59281],[-0.383,51.59296],[-0.38332,51.5931],[-0.38347,51.59303],[-0.38413,51.59351]]]]}},
{ "type":"Feature","properties":{"osm_way_id":"22377035","amenity":"parking"},"geometry":{"type":"MultiPolygon","coordinates":[[[[-0.38138,51.595],[-0.38145,51.59506],[-0.38149,51.59508],[-0.3815,51.59522],[-0.3814,51.59524],[-0.38124,51.59527],[-0.38115,51.59535],[-0.38089,51.59539],[-0.38077,51.59509],[-0.38138,51.595]]]]}},
{ "type":"Feature","properties":{"osm_way_id":"22377040","name":"Love Lane Car Park","amenity":"parking"},"geometry":{"type":"MultiPolygon","coordinates":[[[[-0.3817,51.59514],[-0.38179,51.59518],[-0.38186,51.5952],[-0.38165,51.59533],[-0.38179,51.59562],[-0.38164,51.59581],[-0.38122,51.59587],[-0.38106,51.59549],[-0.38104,51.59544],[-0.38119,51.59539],[-0.38152,51.59528],[-0.3817,51.59514]]]]}},
{ "type":"Feature","properties":{"osm_way_id":"23844106","amenity":"parking"},"geometry":{"type":"MultiPolygon","coordinates":[[[[0.17114,51.3959],[0.17104,51.39582],[0.1706,51.39606],[0.1707,51.39614],[0.17139,51.39664],[0.17185,51.39638],[0.17179,51.39634],[0.1717,51.39627],[0.17141,51.39643],[0.17107,51.39618],[0.17108,51.39618],[0.17089,51.39604],[0.17114,51.3959]]]]}},
{ "type":"Feature","properties":{"osm_way_id":"26618016","amenity":"parking"},"geometry":{"type":"MultiPolygon","coordinates":[[[[1.09415,52.89494],[1.09368,52.89512],[1.09364,52.8952],[1.09381,52.89524],[1.09396,52.89523],[1.09399,52.89516],[1.0942,52.89527],[1.09428,52.89531],[1.09439,52.89527],[1.0944,52.8952],[1.09432,52.89516],[1.09415,52.89516],[1.09413,52.89512],[1.09423,52.89501],[1.09415,52.89494]]]]}},
{ "type":"Feature","properties":{"osm_way_id":"37613734","amenity":"parking","other":{"access":"customers","fee":"yes","parking":"surface","surface":"compacted"}}, "geometry":{"type":"MultiPolygon","coordinates":[[[[1.14026,52.9483],[1.14003,52.94835],[1.13947,52.94846],[1.13966,52.9489],[1.1399,52.94887],[1.14022,52.94882],[1.14064,52.94876],[1.14026,52.9483]]]]}},
{ "type":"Feature","properties":{"osm_way_id":"37614629","name":"Station Road, Sheringham","type":"long_stay","amenity":"parking","other":{"caravan":"no","fee":"yes","parking":"surface"}}, "geometry":{"type":"MultiPolygon","coordinates":[[[[1.20738,52.94165],[1.2086,52.9415],[1.20866,52.94156],[1.20947,52.94147],[1.2095,52.94147],[1.20975,52.94141],[1.20971,52.94132],[1.20961,52.94114],[1.20948,52.94103],[1.20919,52.94097],[1.20873,52.941],[1.20816,52.94114],[1.20724,52.94139],[1.20738,52.94165]]]]}},
{ "type":"Feature","properties":{"osm_way_id":"40865699","amenity":"parking"},"geometry":{"type":"MultiPolygon","coordinates":[[[[0.8158,52.95892],[0.81618,52.95892],[0.81605,52.95868],[0.81584,52.95868],[0.8158,52.95892]]]]}},
{ "type":"Feature","properties":{"osm_way_id":"40865701","amenity":"parking","other":{"access":"customers","operator":"Ancient House Guest House","parking":"surface"}}, "geometry":{"type":"MultiPolygon","coordinates":[[[[0.81574,52.95963],[0.81623,52.95962],[0.81623,52.95927],[0.81592,52.95927],[0.81592,52.9594],[0.81575,52.9594],[0.81574,52.95963]]]]}},
{ "type":"Feature","properties":{"osm_way_id":"71304422","name":"Coronation Car Park (Visitor Parking)","amenity":"parking","other":{"fee":"yes","fee:conditional":"no @ (stay < 30 minutes)","operator":"Blakeney Parish Council","parking":"surface","url":"http:\/\/www.blakeneyparishcouncil.org.uk\/blakeney-village\/blakeney-car-parking\/"}}, "geometry":{"type":"MultiPolygon","coordinates":[[[[1.01907,52.95424],[1.01947,52.95434],[1.01955,52.95434],[1.01962,52.95435],[1.01964,52.95432],[1.01966,52.95424],[1.01918,52.9541],[1.01907,52.95424]]]]}},
{ "type":"Feature","properties":{"osm_way_id":"71836309","amenity":"parking","other":{"access":"customers","fee":"no","parking":"surface"}}, "geometry":{"type":"MultiPolygon","coordinates":[[[[1.30241,52.93096],[1.30238,52.93097],[1.30244,52.93102],[1.30248,52.93103],[1.30252,52.9311],[1.30262,52.93108],[1.30261,52.93104],[1.30261,52.93092],[1.30241,52.93096]]]]}},
{ "type":"Feature","properties":{"osm_way_id":"71956419","amenity":"parking","other":{"access":"yes","capacity:disabled":"all","fee":"yes","parking":"surface"}}, "geometry":{"type":"MultiPolygon","coordinates":[[[[1.29576,52.93355],[1.29563,52.93353],[1.29573,52.93348],[1.29591,52.93345],[1.29681,52.93333],[1.29693,52.93335],[1.29685,52.9334],[1.29576,52.93355]]]]}},
{ "type":"Feature","properties":{"osm_way_id":"98940380","amenity":"parking","other":{"access":"customers"}}, "geometry":{"type":"MultiPolygon","coordinates":[[[[1.38956,52.82319],[1.39028,52.8237],[1.38895,52.82393],[1.38898,52.82398],[1.38882,52.82401],[1.38879,52.82396],[1.3887,52.82397],[1.38854,52.82377],[1.38865,52.8237],[1.38846,52.82359],[1.38832,52.82334],[1.38839,52.82333],[1.38836,52.82329],[1.38858,52.82323],[1.38898,52.823],[1.38941,52.82328],[1.38956,52.82319]]]]}},
{ "type":"Feature","properties":{"osm_way_id":"98940381","amenity":"parking","other":{"access":"customers"}}, "geometry":{"type":"MultiPolygon","coordinates":[[[[1.38854,52.82037],[1.38941,52.82035],[1.38939,52.8203],[1.38954,52.82028],[1.38949,52.82008],[1.38944,52.82008],[1.3888,52.82009],[1.3888,52.82014],[1.38854,52.82015],[1.38854,52.82037]]]]}},
{ "type":"Feature","properties":{"osm_way_id":"98940382","amenity":"parking"},"geometry":{"type":"MultiPolygon","coordinates":[[[[1.38751,52.82278],[1.38753,52.82258],[1.38749,52.82245],[1.38747,52.82239],[1.38751,52.82233],[1.38762,52.82224],[1.38771,52.82222],[1.38785,52.82219],[1.38791,52.82219],[1.38795,52.82223],[1.388,52.82222],[1.38806,52.82221],[1.38806,52.82219],[1.38809,52.82217],[1.38825,52.82214],[1.38838,52.82214],[1.38841,52.82219],[1.38849,52.82223],[1.38828,52.82235],[1.38833,52.82241],[1.38836,52.82249],[1.38832,52.8225],[1.38842,52.82278],[1.38837,52.82278],[1.38806,52.82282],[1.38795,52.82259],[1.38794,52.82258],[1.38788,52.82258],[1.38759,52.82279],[1.38751,52.82278]]]]}},
{ "type":"Feature","properties":{"osm_way_id":"98940383","amenity":"parking"},"geometry":{"type":"MultiPolygon","coordinates":[[[[1.38994,52.82073],[1.38985,52.82053],[1.38977,52.82035],[1.39007,52.8203],[1.38997,52.82012],[1.39004,52.82011],[1.39001,52.82006],[1.39015,52.82004],[1.39018,52.82007],[1.39029,52.82007],[1.39031,52.82019],[1.39024,52.82021],[1.39042,52.82063],[1.38994,52.82073]]]]}},
{ "type":"Feature","properties":{"osm_way_id":"98941894","amenity":"parking"},"geometry":{"type":"MultiPolygon","coordinates":[[[[1.38709,52.82004],[1.38683,52.82002],[1.38675,52.82051],[1.38676,52.82084],[1.38701,52.82085],[1.38702,52.82081],[1.38736,52.82085],[1.38747,52.82057],[1.38737,52.82056],[1.38738,52.82047],[1.38752,52.82046],[1.38755,52.82028],[1.38732,52.82027],[1.38731,52.8204],[1.387,52.82038],[1.38703,52.82019],[1.38709,52.82004]]]]}},
{ "type":"Feature","properties":{"osm_way_id":"99001993","amenity":"parking"},"geometry":{"type":"MultiPolygon","coordinates":[[[[1.3854,52.82263],[1.38503,52.82275],[1.38523,52.82321],[1.38552,52.82313],[1.38541,52.82296],[1.38568,52.82288],[1.3854,52.82263]]]]}},
{ "type":"Feature","properties":{"osm_way_id":"103083454","amenity":"parking","other":{"capacity":"80","fee":"yes","parking":"surface","wheelchair":"yes"}}, "geometry":{"type":"MultiPolygon","coordinates":[[[[0.17388,51.39528],[0.17398,51.39535],[0.1744,51.39511],[0.17462,51.39525],[0.17449,51.39532],[0.17415,51.3955],[0.17399,51.3956],[0.1739,51.39564],[0.1736,51.39543],[0.17388,51.39528]]]]}},
{ "type":"Feature","properties":{"osm_way_id":"104252186","amenity":"parking"},"geometry":{"type":"MultiPolygon","coordinates":[[[[0.84008,52.82882],[0.83994,52.82865],[0.83982,52.82853],[0.83979,52.82852],[0.83972,52.82844],[0.83973,52.82844],[0.83943,52.82813],[0.83975,52.828],[0.83993,52.82818],[0.83995,52.82823],[0.84019,52.82846],[0.84026,52.82849],[0.84044,52.82869],[0.84008,52.82882]]]]}},
{ "type":"Feature","properties":{"osm_way_id":"104283798","amenity":"parking"},"geometry":{"type":"MultiPolygon","coordinates":[[[[1.42649,52.88053],[1.42692,52.88049],[1.42758,52.88058],[1.42761,52.88045],[1.42652,52.88038],[1.42649,52.88053]]]]}},
{ "type":"Feature","properties":{"osm_way_id":"104283803","amenity":"parking","other":{"access":"private","parking":"street_side"}}, "geometry":{"type":"MultiPolygon","coordinates":[[[[1.42656,52.87825],[1.42666,52.87813],[1.42699,52.8782],[1.42724,52.87821],[1.42751,52.87821],[1.4278,52.87815],[1.42788,52.87828],[1.42758,52.87833],[1.42727,52.87834],[1.42705,52.87833],[1.42685,52.87831],[1.42656,52.87825]]]]}},
{ "type":"Feature","properties":{"osm_way_id":"106572920","amenity":"parking"},"geometry":{"type":"MultiPolygon","coordinates":[[[[0.87087,52.83928],[0.87071,52.83868],[0.87062,52.83868],[0.87067,52.83863],[0.86949,52.83826],[0.86929,52.83828],[0.8694,52.8387],[0.86945,52.8387],[0.86952,52.83895],[0.86944,52.83897],[0.86931,52.83898],[0.86908,52.83901],[0.86891,52.839],[0.86888,52.83893],[0.86853,52.83896],[0.86854,52.83901],[0.86846,52.83902],[0.86852,52.83924],[0.86861,52.83923],[0.86861,52.83926],[0.86864,52.83926],[0.86866,52.8393],[0.86914,52.83925],[0.86917,52.8394],[0.86957,52.83937],[0.86956,52.83928],[0.86965,52.83928],[0.86971,52.83929],[0.86962,52.83935],[0.86972,52.83941],[0.86981,52.83935],[0.86984,52.83943],[0.87069,52.83934],[0.87068,52.8393],[0.87087,52.83928]]]]}},
{ "type":"Feature","properties":{"osm_way_id":"106675111","amenity":"parking","other":{"access":"customers","operator":"Thursford Collection","operator:type":"private"}}, "geometry":{"type":"MultiPolygon","coordinates":[[[[0.94194,52.87172],[0.94185,52.87094],[0.94211,52.87092],[0.94208,52.87074],[0.94269,52.8707],[0.9427,52.87076],[0.94273,52.87077],[0.94279,52.87076],[0.94285,52.87071],[0.94295,52.8707],[0.94297,52.87072],[0.94301,52.87074],[0.94305,52.87075],[0.94308,52.87074],[0.94311,52.87073],[0.94307,52.87065],[0.94338,52.8706],[0.94363,52.87049],[0.94383,52.87036],[0.94403,52.87035],[0.94408,52.87053],[0.94404,52.87054],[0.94419,52.87107],[0.9443,52.87105],[0.94442,52.87156],[0.943,52.87165],[0.94298,52.87153],[0.9427,52.87155],[0.9427,52.87168],[0.94194,52.87172]]]]}},
{ "type":"Feature","properties":{"osm_way_id":"112873450","name":"Albert Street Car Park","amenity":"parking","other":{"access":"yes","fee":"yes","parking":"surface","parking:type":"Mini Stay"}}, "geometry":{"type":"MultiPolygon","coordinates":[[[[1.08788,52.90753],[1.08878,52.90758],[1.08885,52.9072],[1.08866,52.90718],[1.08867,52.90706],[1.08855,52.90706],[1.08841,52.90677],[1.08822,52.90686],[1.08816,52.9069],[1.08814,52.90692],[1.08812,52.90737],[1.0879,52.90736],[1.08788,52.90753]]]]}},
{ "type":"Feature","properties":{"osm_way_id":"115569297","name":"Cliff Road Car Park","amenity":"parking","other":{"access":"yes","alt_name":"THE Hazard","fee":"yes","parking":"surface"}}, "geometry":{"type":"MultiPolygon","coordinates":[[[[1.21439,52.94499],[1.21443,52.94501],[1.21486,52.94495],[1.21485,52.94477],[1.21499,52.94476],[1.21504,52.9443],[1.215,52.94429],[1.21496,52.9443],[1.21445,52.94437],[1.21444,52.94464],[1.21451,52.94465],[1.21451,52.94473],[1.21442,52.94474],[1.21439,52.94499]]]]}},
{ "type":"Feature","properties":{"osm_way_id":"117238608","name":"The Limes","amenity":"parking","other":{"fee":"yes","parking":"surface"}}, "geometry":{"type":"MultiPolygon","coordinates":[[[[0.8482,52.82782],[0.84767,52.8279],[0.84774,52.82804],[0.84711,52.82817],[0.8472,52.82837],[0.84778,52.82831],[0.84774,52.8287],[0.8479,52.8287],[0.84795,52.82844],[0.84818,52.82844],[0.8482,52.82809],[0.84826,52.82803],[0.84826,52.828],[0.8482,52.82782]]]]}},
{ "type":"Feature","properties":{"osm_way_id":"117616431","name":"Stearmans Yard","amenity":"parking","other":{"caravans":"no","coach":"no","fee":"yes","hgv":"no","parking:type":"Long Stay"}}, "geometry":{"type":"MultiPolygon","coordinates":[[[[0.84895,52.95747],[0.84929,52.95745],[0.84926,52.95704],[0.84905,52.95705],[0.84905,52.95698],[0.84929,52.95697],[0.84929,52.95704],[0.8498,52.95703],[0.84979,52.95687],[0.84998,52.95686],[0.84998,52.95679],[0.84966,52.95679],[0.84968,52.95655],[0.84949,52.95655],[0.84949,52.95669],[0.84928,52.95668],[0.84929,52.9563],[0.84906,52.9563],[0.84901,52.95671],[0.849,52.9568],[0.8489,52.95695],[0.84895,52.95747]]]]}},
{ "type":"Feature","properties":{"osm_way_id":"119959135","amenity":"parking","other":{"access":"customers","wheelchair":"yes"}}, "geometry":{"type":"MultiPolygon","coordinates":[[[[1.51532,52.77099],[1.51516,52.77057],[1.51495,52.77058],[1.5149,52.77067],[1.51474,52.77075],[1.51421,52.77084],[1.51418,52.7708],[1.51416,52.77077],[1.51414,52.77073],[1.51381,52.77055],[1.51344,52.77078],[1.51326,52.77096],[1.51402,52.7712],[1.51532,52.77099]]]]}},
{ "type":"Feature","properties":{"osm_way_id":"123456312","name":"North Place Car Park","amenity":"parking","other":{"access":"yes","operator":"Euro Car Parks","parking":"surface"}}, "geometry":{"type":"MultiPolygon","coordinates":[[[[-2.07291,51.90348],[-2.07298,51.90338],[-2.07312,51.90344],[-2.07334,51.90323],[-2.07337,51.9032],[-2.07387,51.9034],[-2.07408,51.90329],[-2.07451,51.90347],[-2.07421,51.90377],[-2.07424,51.90378],[-2.07395,51.90423],[-2.07276,51.90416],[-2.07317,51.90356],[-2.07291,51.90348]]]]}},
{ "type":"Feature","properties":{"osm_way_id":"128208482","name":"Horsey Gap","amenity":"parking","other":{"fee":"yes","operator":"Horsey Estate","parking:overnight":"no","surface":"gravel"}}, "geometry":{"type":"MultiPolygon","coordinates":[[[[1.64989,52.75898],[1.65035,52.75915],[1.65042,52.75913],[1.65066,52.75897],[1.65068,52.75892],[1.65065,52.75865],[1.65082,52.75858],[1.65064,52.7584],[1.65052,52.75829],[1.65023,52.75833],[1.65021,52.75843],[1.65,52.75845],[1.64991,52.75848],[1.6499,52.75852],[1.64985,52.75874],[1.64994,52.75881],[1.64989,52.75898]]]]}},
{ "type":"Feature","properties":{"osm_way_id":"128379598","amenity":"parking","other":{"access":"yes","charge":"2£\/2hour; 4£\/day","fee":"yes","operator":"National Trust","parking":"surface","payment:coins":"yes","payment:credit_cards":"no","payment:debit_cards":"no","payment:notes":"no"}}, "geometry":{"type":"MultiPolygon","coordinates":[[[[1.63783,52.74242],[1.63781,52.74272],[1.63789,52.74272],[1.63789,52.74278],[1.6383,52.74279],[1.63831,52.74273],[1.63839,52.74273],[1.63841,52.74243],[1.63828,52.74243],[1.63797,52.74242],[1.63783,52.74242]]]]}},
{ "type":"Feature","properties":{"osm_way_id":"128380218","amenity":"parking"},"geometry":{"type":"MultiPolygon","coordinates":[[[[1.64404,52.75329],[1.64431,52.75319],[1.64434,52.75338],[1.64437,52.75346],[1.6441,52.75348],[1.64404,52.75329]]]]}},
{ "type":"Feature","properties":{"osm_way_id":"131333716","amenity":"parking","other":{"access":"customers","operator":"Picnic Fayre","parking":"surface","surface":"unpaved"}}, "geometry":{"type":"MultiPolygon","coordinates":[[[[1.04191,52.9519],[1.04238,52.95186],[1.04234,52.9521],[1.04209,52.95211],[1.04201,52.95208],[1.04195,52.95208],[1.04191,52.9519]]]]}},
{ "type":"Feature","properties":{"osm_way_id":"131336256","amenity":"parking","other":{"fee":"no","lit":"yes"}}, "geometry":{"type":"MultiPolygon","coordinates":[[[[1.04598,52.95191],[1.04715,52.95194],[1.04718,52.95167],[1.04619,52.95165],[1.04616,52.95163],[1.04618,52.9516],[1.04633,52.95125],[1.04615,52.95125],[1.04614,52.95125],[1.04611,52.95135],[1.04599,52.95133],[1.04594,52.95146],[1.04592,52.95151],[1.04592,52.95154],[1.04599,52.95155],[1.04598,52.95162],[1.04605,52.95163],[1.04598,52.95191]]]]}},
{ "type":"Feature","properties":{"osm_way_id":"131690742","name":"Wells Harbour","amenity":"parking","other":{"access":"yes","fee":"yes","parking":"surface"}}, "geometry":{"type":"MultiPolygon","coordinates":[[[[0.85081,52.95748],[0.85086,52.95782],[0.85102,52.95778],[0.85112,52.95769],[0.85124,52.95761],[0.85167,52.95746],[0.85214,52.95732],[0.85211,52.95725],[0.85149,52.95733],[0.85081,52.95742],[0.85081,52.95748]]]]}},
{ "type":"Feature","properties":{"osm_way_id":"131967165","name":"Lady Anne's Drive","amenity":"parking","other":{"access":"yes","fee":"yes","parking":"surface"}}, "geometry":{"type":"MultiPolygon","coordinates":[[[[0.81499,52.96046],[0.81466,52.96046],[0.81459,52.96127],[0.81451,52.96224],[0.8145,52.9624],[0.81461,52.96241],[0.81459,52.96258],[0.81444,52.96257],[0.81422,52.96547],[0.81415,52.96661],[0.81444,52.96661],[0.81455,52.96547],[0.81459,52.96498],[0.81465,52.9642],[0.81473,52.96333],[0.81482,52.96236],[0.81491,52.96138],[0.81499,52.96046]]]]}},
{ "type":"Feature","properties":{"osm_way_id":"131986341","amenity":"parking","other":{"access":"customers"}}, "geometry":{"type":"MultiPolygon","coordinates":[[[[0.84929,52.95745],[0.84972,52.95744],[0.84971,52.95735],[0.84963,52.95735],[0.84963,52.95732],[0.84955,52.95732],[0.84954,52.95717],[0.84992,52.95716],[0.84993,52.95724],[0.84996,52.95724],[0.84996,52.9573],[0.85012,52.95729],[0.85011,52.95716],[0.85003,52.95717],[0.85003,52.95703],[0.84992,52.95704],[0.84993,52.95708],[0.8498,52.95708],[0.8498,52.95703],[0.84929,52.95704],[0.84926,52.95704],[0.84929,52.95745]]]]}},
{ "type":"Feature","properties":{"osm_way_id":"132137488","amenity":"parking","other":{"surface":"gravel"}}, "geometry":{"type":"MultiPolygon","coordinates":[[[[1.11364,52.91251],[1.11345,52.91252],[1.11354,52.91266],[1.11362,52.91343],[1.11374,52.91438],[1.11376,52.91478],[1.11431,52.91476],[1.11417,52.91437],[1.11383,52.91438],[1.11364,52.91251]]]]}},
{ "type":"Feature","properties":{"osm_way_id":"134410418","amenity":"parking","other":{"fee":"yes"}}, "geometry":{"type":"MultiPolygon","coordinates":[[[[1.08772,52.90499],[1.08789,52.90463],[1.08814,52.90467],[1.08842,52.90472],[1.08856,52.90473],[1.08872,52.90472],[1.08895,52.90468],[1.0888,52.90507],[1.08892,52.90508],[1.08889,52.90517],[1.0888,52.90517],[1.08831,52.90509],[1.08772,52.90499]]]]}},
{ "type":"Feature","properties":{"osm_way_id":"134443440","name":"Staithe Street Car Park","amenity":"parking","other":{"fee":"yes","parking":"surface","parking:type":"short_stay"}}, "geometry":{"type":"MultiPolygon","coordinates":[[[[0.85163,52.95662],[0.85171,52.95661],[0.85197,52.95661],[0.85208,52.9566],[0.85209,52.95655],[0.85214,52.9565],[0.85223,52.95645],[0.85222,52.95632],[0.85183,52.95634],[0.85184,52.95642],[0.8516,52.95643],[0.85163,52.95662]]]]}},
{ "type":"Feature","properties":{"osm_way_id":"135185675","name":"Roys of Wroxham Short Stay","amenity":"parking","other":{"wheelchair":"yes"}}, "geometry":{"type":"MultiPolygon","coordinates":[[[[1.40961,52.71348],[1.40981,52.71343],[1.40982,52.71345],[1.41036,52.71327],[1.41039,52.71332],[1.41048,52.71329],[1.41075,52.71365],[1.41015,52.71383],[1.41026,52.71397],[1.40956,52.71417],[1.40947,52.71396],[1.40952,52.71394],[1.40944,52.71379],[1.40942,52.71372],[1.40946,52.71363],[1.40927,52.71361],[1.40873,52.71363],[1.40873,52.71351],[1.40878,52.71336],[1.40888,52.71337],[1.40893,52.71333],[1.40941,52.7135],[1.40954,52.71349],[1.40961,52.71348]]]]}},
{ "type":"Feature","properties":{"osm_way_id":"135185741","amenity":"parking","other":{"fee":"yes"}}, "geometry":{"type":"MultiPolygon","coordinates":[[[[1.40981,52.71151],[1.40984,52.71134],[1.40962,52.71128],[1.40968,52.71116],[1.40961,52.71111],[1.40933,52.71101],[1.40927,52.71098],[1.40926,52.71093],[1.40926,52.7109],[1.40901,52.71082],[1.40883,52.71104],[1.40924,52.71119],[1.40919,52.71124],[1.40942,52.71132],[1.40938,52.71137],[1.40981,52.71151]]]]}},
{ "type":"Feature","properties":{"osm_way_id":"135185742","amenity":"parking"},"geometry":{"type":"MultiPolygon","coordinates":[[[[1.40901,52.71316],[1.40925,52.71291],[1.40933,52.71294],[1.40937,52.7129],[1.4095,52.71294],[1.40948,52.71297],[1.40965,52.71305],[1.40977,52.71292],[1.41002,52.713],[1.40995,52.71308],[1.40999,52.71309],[1.41009,52.71307],[1.41015,52.71304],[1.4102,52.71306],[1.4104,52.71295],[1.41036,52.71292],[1.41047,52.71284],[1.41051,52.71278],[1.41045,52.71275],[1.41052,52.71267],[1.41088,52.71277],[1.41075,52.7129],[1.41064,52.71288],[1.41058,52.71294],[1.41062,52.71297],[1.41017,52.71323],[1.41013,52.7132],[1.40992,52.71325],[1.4099,52.71321],[1.40992,52.71318],[1.40987,52.71317],[1.40967,52.71339],[1.40901,52.71316]]]]}},
{ "type":"Feature","properties":{"osm_way_id":"135202593","name":"Old Mill Car Park","amenity":"parking","other":{"addr:city":"Walsingham","addr:street":"Coker's Hill","fee":"yes","parking":"surface","surface":"gravel"}}, "geometry":{"type":"MultiPolygon","coordinates":[[[[0.87242,52.89515],[0.8731,52.89504],[0.87305,52.89494],[0.87311,52.89493],[0.87307,52.89476],[0.87299,52.89476],[0.87296,52.89468],[0.87295,52.89465],[0.87225,52.89476],[0.87227,52.89478],[0.87229,52.89484],[0.87242,52.89515]]]]}},
{ "type":"Feature","properties":{"osm_way_id":"136192494","amenity":"parking","other":{"fee":"yes","parking":"surface"}}, "geometry":{"type":"MultiPolygon","coordinates":[[[[1.60133,52.78818],[1.60218,52.78789],[1.60208,52.78777],[1.6013,52.78802],[1.60124,52.78806],[1.60128,52.78811],[1.60133,52.78818]]]]}},
{ "type":"Feature","properties":{"osm_way_id":"136193644","amenity":"parking","other":{"operator":"Norfolk Wildlife Trust","parking":"surface"}}, "geometry":{"type":"MultiPolygon","coordinates":[[[[1.59515,52.74216],[1.59488,52.74225],[1.59447,52.74225],[1.59431,52.74213],[1.59488,52.74195],[1.59482,52.74188],[1.59496,52.74184],[1.59506,52.74196],[1.59509,52.74195],[1.59519,52.74201],[1.59529,52.74212],[1.59515,52.74216]]]]}},
{ "type":"Feature","properties":{"osm_way_id":"136651691","amenity":"parking","other":{"access":"yes","fee":"no","parking":"surface","surface":"gravel"}}, "geometry":{"type":"MultiPolygon","coordinates":[[[[1.43805,52.82833],[1.43803,52.82839],[1.43801,52.82847],[1.43801,52.82853],[1.43795,52.82858],[1.43783,52.82858],[1.43782,52.82854],[1.43781,52.82848],[1.43788,52.82847],[1.43791,52.82843],[1.43792,52.82834],[1.43805,52.82833]]]]}},
{ "type":"Feature","properties":{"osm_way_id":"138475769","amenity":"parking","other":{"access":"customers"}}, "geometry":{"type":"MultiPolygon","coordinates":[[[[1.21117,52.94294],[1.21123,52.94305],[1.2115,52.94299],[1.21144,52.94289],[1.21139,52.9429],[1.21134,52.94281],[1.21112,52.94286],[1.21112,52.94286],[1.21105,52.94287],[1.2111,52.94295],[1.21117,52.94294]]]]}},
{ "type":"Feature","properties":{"osm_way_id":"142728266","amenity":"parking","other":{"access":"yes","fee":"yes","parking":"surface","parking:type":"long_stay"}}, "geometry":{"type":"MultiPolygon","coordinates":[[[[1.29448,52.93184],[1.29536,52.93178],[1.29522,52.93106],[1.29434,52.93121],[1.29448,52.93184]]]]}},
{ "type":"Feature","properties":{"osm_way_id":"142920567","amenity":"parking","other":{"fee":"yes","parking":"surface"}}, "geometry":{"type":"MultiPolygon","coordinates":[[[[1.08806,52.90455],[1.08816,52.90431],[1.08893,52.90444],[1.08892,52.9045],[1.08886,52.90454],[1.08878,52.90457],[1.08867,52.90461],[1.08856,52.90462],[1.08844,52.90463],[1.08806,52.90455]]]]}},
{ "type":"Feature","properties":{"osm_way_id":"142949951","amenity":"parking","other":{"parking":"layby"}}, "geometry":{"type":"MultiPolygon","coordinates":[[[[0.99424,52.88573],[0.99447,52.88588],[0.99476,52.88601],[0.99538,52.88619],[0.99543,52.88615],[0.99426,52.88568],[0.99424,52.88573]]]]}},
{ "type":"Feature","properties":{"osm_way_id":"142949953","amenity":"parking","other":{"parking":"layby"}}, "geometry":{"type":"MultiPolygon","coordinates":[[[[0.75424,52.83579],[0.75535,52.83601],[0.7551,52.83599],[0.75468,52.83591],[0.75446,52.83585],[0.75424,52.83579]]]]}},
{ "type":"Feature","properties":{"osm_way_id":"142949954","amenity":"parking","other":{"parking":"layby"}}, "geometry":{"type":"MultiPolygon","coordinates":[[[[0.99882,52.88761],[0.99874,52.88764],[0.99965,52.88806],[0.9997,52.88802],[0.99955,52.88793],[0.99936,52.88783],[0.99918,52.88773],[0.999,52.88765],[0.99882,52.88761]]]]}},
{ "type":"Feature","properties":{"osm_way_id":"142949955","amenity":"parking","other":{"parking":"layby"}}, "geometry":{"type":"MultiPolygon","coordinates":[[[[1.00424,52.89019],[1.0042,52.89021],[1.00485,52.89051],[1.00482,52.89045],[1.00474,52.8904],[1.00462,52.89032],[1.00455,52.89029],[1.00445,52.89025],[1.00424,52.89019]]]]}},
{ "type":"Feature","properties":{"osm_way_id":"142949956","amenity":"parking","other":{"parking":"layby"}}, "geometry":{"type":"MultiPolygon","coordinates":[[[[0.8586,52.84388],[0.85998,52.8437],[0.85974,52.84371],[0.85949,52.84373],[0.85933,52.84374],[0.85914,52.84377],[0.85895,52.84379],[0.8588,52.84382],[0.8586,52.84388]]]]}},
{ "type":"Feature","properties":{"osm_way_id":"149062138","amenity":"parking","other":{"access":"private","maxspeed":"5 mph"}}, "geometry":{"type":"MultiPolygon","coordinates":[[[[1.50033,52.8419],[1.50033,52.84192],[1.50012,52.84192],[1.50014,52.84198],[1.49997,52.842],[1.4999,52.84181],[1.49986,52.84166],[1.50001,52.84168],[1.5003,52.84168],[1.50032,52.84168],[1.50033,52.8419]]]]}},
{ "type":"Feature","properties":{"osm_way_id":"158483191","amenity":"parking","other":{"fee":"no","parking":"surface"}}, "geometry":{"type":"MultiPolygon","coordinates":[[[[1.41342,52.73375],[1.41339,52.73368],[1.4133,52.73352],[1.41302,52.73316],[1.41296,52.73309],[1.41318,52.73296],[1.4135,52.73332],[1.41381,52.7337],[1.41365,52.73374],[1.41356,52.73376],[1.41342,52.73375]]]]}},
{ "type":"Feature","properties":{"osm_way_id":"158483204","amenity":"parking","other":{"fee":"no","parking":"surface"}}, "geometry":{"type":"MultiPolygon","coordinates":[[[[1.41327,52.73391],[1.41316,52.73398],[1.41305,52.73406],[1.41262,52.73434],[1.41255,52.73438],[1.41271,52.73445],[1.41276,52.73447],[1.41291,52.73437],[1.41294,52.73435],[1.41325,52.73415],[1.41328,52.73411],[1.41328,52.73406],[1.41325,52.73403],[1.41327,52.73391]]]]}},
{ "type":"Feature","properties":{"osm_way_id":"158483208","amenity":"parking","other":{"fee":"no","parking":"surface"}}, "geometry":{"type":"MultiPolygon","coordinates":[[[[1.41255,52.73438],[1.41262,52.73434],[1.41305,52.73406],[1.41301,52.73403],[1.41234,52.73395],[1.41212,52.73431],[1.41223,52.73435],[1.41249,52.73442],[1.41255,52.73438]]]]}},
{ "type":"Feature","properties":{"osm_way_id":"158483209","amenity":"parking","other":{"fee":"no","parking":"surface"}}, "geometry":{"type":"MultiPolygon","coordinates":[[[[1.41234,52.73395],[1.41301,52.73403],[1.41305,52.73406],[1.41316,52.73398],[1.41327,52.73391],[1.41317,52.73372],[1.41255,52.73362],[1.41234,52.73395]]]]}},
{ "type":"Feature","properties":{"osm_way_id":"158483214","amenity":"parking","other":{"fee":"no","parking":"surface"}}, "geometry":{"type":"MultiPolygon","coordinates":[[[[1.41342,52.73375],[1.41348,52.73387],[1.41349,52.73394],[1.41357,52.7341],[1.41369,52.73407],[1.41384,52.73435],[1.41409,52.7343],[1.41425,52.73424],[1.41424,52.7342],[1.41381,52.7337],[1.41365,52.73374],[1.41356,52.73376],[1.41342,52.73375]]]]}},
{ "type":"Feature","properties":{"osm_way_id":"159033983","amenity":"parking"},"geometry":{"type":"MultiPolygon","coordinates":[[[[1.53825,52.70719],[1.53821,52.70725],[1.53815,52.70733],[1.53836,52.70738],[1.53834,52.70743],[1.53813,52.70741],[1.53813,52.70751],[1.53838,52.70753],[1.53843,52.70736],[1.53847,52.70732],[1.53849,52.70725],[1.53825,52.70719]]]]}},
{ "type":"Feature","properties":{"osm_way_id":"159038733","amenity":"parking"},"geometry":{"type":"MultiPolygon","coordinates":[[[[1.50938,52.69975],[1.5095,52.69977],[1.5097,52.69947],[1.50971,52.69943],[1.50954,52.69938],[1.50947,52.69951],[1.50938,52.69975]]]]}},
{ "type":"Feature","properties":{"osm_way_id":"159038930","amenity":"parking","other":{"access":"yes","fee":"no","parking":"surface"}}, "geometry":{"type":"MultiPolygon","coordinates":[[[[1.51086,52.71661],[1.51099,52.71658],[1.51115,52.71645],[1.51112,52.71634],[1.51101,52.71623],[1.51094,52.71618],[1.51085,52.71614],[1.51048,52.71625],[1.51086,52.71661]]]]}},
{ "type":"Feature","properties":{"osm_way_id":"161593166","name":"Fineway Leisure","amenity":"parking","other":{"access":"customers"}}, "geometry":{"type":"MultiPolygon","coordinates":[[[[1.41035,52.71177],[1.4103,52.71178],[1.41011,52.71169],[1.41012,52.71159],[1.41017,52.71136],[1.41024,52.71135],[1.41029,52.71135],[1.41032,52.71134],[1.41046,52.71162],[1.41032,52.71165],[1.41037,52.71176],[1.41035,52.71177]]]]}},
{ "type":"Feature","properties":{"osm_way_id":"166233380","amenity":"parking","other":{"access":"customers"}}, "geometry":{"type":"MultiPolygon","coordinates":[[[[0.84884,52.82829],[0.84949,52.82832],[0.8495,52.82821],[0.84944,52.82821],[0.84944,52.82796],[0.84922,52.82798],[0.84903,52.82804],[0.84889,52.82812],[0.84892,52.82815],[0.8489,52.82824],[0.84885,52.82824],[0.84884,52.82829]]]]}},
{ "type":"Feature","properties":{"osm_way_id":"166334983","amenity":"parking","other":{"access":"customers"}}, "geometry":{"type":"MultiPolygon","coordinates":[[[[1.20993,52.94144],[1.21012,52.94142],[1.21017,52.94141],[1.21019,52.94148],[1.20996,52.94151],[1.20993,52.94144]]]]}},
{ "type":"Feature","properties":{"osm_way_id":"166514632","amenity":"parking","other":{"charge":"5.50£\/day","fee":"yes","operator":"National Trust","payment:coins":"yes","payment:credit_cards":"no","payment:debit_cards":"no","payment:notes":"no"}}, "geometry":{"type":"MultiPolygon","coordinates":[[[[1.18008,52.92476],[1.18011,52.92473],[1.18008,52.92471],[1.18002,52.92471],[1.18002,52.92462],[1.18005,52.92456],[1.18016,52.92435],[1.18019,52.92428],[1.18018,52.9242],[1.18006,52.92407],[1.18002,52.924],[1.18001,52.92392],[1.18001,52.92386],[1.18006,52.92379],[1.18012,52.92372],[1.18017,52.92369],[1.18023,52.92366],[1.18041,52.92369],[1.18055,52.92378],[1.18072,52.92398],[1.18078,52.92411],[1.18079,52.92427],[1.18078,52.92442],[1.18082,52.92448],[1.18077,52.92458],[1.18074,52.92463],[1.18067,52.92469],[1.18061,52.92471],[1.18052,52.92473],[1.18044,52.92478],[1.18035,52.92483],[1.18008,52.92476]]]]}},
{ "type":"Feature","properties":{"osm_way_id":"166563399","amenity":"parking"},"geometry":{"type":"MultiPolygon","coordinates":[[[[1.23379,52.94077],[1.23398,52.94084],[1.23403,52.94071],[1.23386,52.94067],[1.23383,52.94071],[1.23379,52.94077]]]]}},
{ "type":"Feature","properties":{"osm_way_id":"167048836","name":"Free Car Park","amenity":"parking","other":{"capacity":"20","parking":"surface"}}, "geometry":{"type":"MultiPolygon","coordinates":[[[[0.92352,52.95672],[0.9235,52.95678],[0.9236,52.95682],[0.92383,52.95683],[0.92399,52.95682],[0.92412,52.95676],[0.92419,52.95669],[0.9242,52.95662],[0.92408,52.95658],[0.92394,52.95656],[0.92373,52.95653],[0.92367,52.95653],[0.92358,52.95653],[0.92358,52.95657],[0.92351,52.95657],[0.92352,52.95672]]]]}},
{ "type":"Feature","properties":{"osm_way_id":"167137592","name":"Morston Quay","amenity":"parking","other":{"fee":"Apr-Oct","operator":"National Trust"}}, "geometry":{"type":"MultiPolygon","coordinates":[[[[0.98649,52.95695],[0.98633,52.95725],[0.98641,52.95727],[0.9863,52.95768],[0.98616,52.95766],[0.98612,52.95759],[0.98591,52.95765],[0.98506,52.95709],[0.98512,52.95707],[0.98649,52.95695]]]]}},
{ "type":"Feature","properties":{"osm_way_id":"167197813","amenity":"parking"},"geometry":{"type":"MultiPolygon","coordinates":[[[[0.92953,52.95149],[0.92874,52.95145],[0.92868,52.95142],[0.92879,52.95136],[0.92889,52.95142],[0.92914,52.95127],[0.92958,52.95143],[0.92953,52.95149]]]]}},
{ "type":"Feature","properties":{"osm_way_id":"172249051","amenity":"parking","other":{"access":"customers","parking":"surface"}}, "geometry":{"type":"MultiPolygon","coordinates":[[[[0.81969,52.83884],[0.81941,52.83885],[0.81907,52.83882],[0.81905,52.83876],[0.81888,52.83877],[0.819,52.83914],[0.81974,52.83902],[0.81971,52.83892],[0.81969,52.83884]]]]}},
{ "type":"Feature","properties":{"osm_way_id":"172352467","amenity":"parking","other":{"fee":"Private"}}, "geometry":{"type":"MultiPolygon","coordinates":[[[[1.41111,52.78284],[1.41112,52.78279],[1.41128,52.78214],[1.4107,52.78211],[1.41108,52.7826],[1.41089,52.78266],[1.41101,52.78282],[1.41111,52.78284]]]]}},
{ "type":"Feature","properties":{"osm_way_id":"174152855","amenity":"parking"},"geometry":{"type":"MultiPolygon","coordinates":[[[[1.46302,52.85707],[1.46411,52.85703],[1.46408,52.85662],[1.4641,52.85659],[1.4635,52.85663],[1.46344,52.85668],[1.46323,52.85668],[1.4632,52.85671],[1.46297,52.85672],[1.46297,52.85674],[1.46292,52.85675],[1.46293,52.8569],[1.463,52.8569],[1.46302,52.85707]]]]}},
{ "type":"Feature","properties":{"osm_way_id":"174153685","amenity":"parking"},"geometry":{"type":"MultiPolygon","coordinates":[[[[1.45607,52.8571],[1.45622,52.85714],[1.4566,52.85707],[1.45653,52.85691],[1.45627,52.85695],[1.45601,52.85701],[1.45607,52.8571]]]]}},
{ "type":"Feature","properties":{"osm_way_id":"175849907","amenity":"parking","other":{"access":"customers","fee":"no","parking":"surface","surface":"asphalt"}}, "geometry":{"type":"MultiPolygon","coordinates":[[[[1.29264,52.93078],[1.29298,52.93085],[1.29357,52.93097],[1.29357,52.93112],[1.29399,52.93111],[1.29396,52.93082],[1.29396,52.93078],[1.294,52.93057],[1.29401,52.93047],[1.29403,52.93045],[1.29405,52.93042],[1.29416,52.93025],[1.29354,52.93008],[1.29346,52.93021],[1.29344,52.93024],[1.29342,52.93029],[1.29321,52.93024],[1.29317,52.93023],[1.29274,52.93021],[1.29273,52.93027],[1.29263,52.93076],[1.29264,52.93078]]]]}},
{ "type":"Feature","properties":{"osm_way_id":"175849923","amenity":"parking","other":{"access":"no","fee":"no","parking":"surface","surface":"asphalt"}}, "geometry":{"type":"MultiPolygon","coordinates":[[[[1.29296,52.92994],[1.29295,52.93002],[1.29295,52.93006],[1.29315,52.93007],[1.29318,52.92995],[1.29296,52.92994]]]]}},
{ "type":"Feature","properties":{"osm_way_id":"175849928","amenity":"parking","other":{"access":"customers","fee":"no","parking":"surface"}}, "geometry":{"type":"MultiPolygon","coordinates":[[[[1.29121,52.92995],[1.29208,52.93],[1.29219,52.92973],[1.29142,52.92957],[1.29121,52.92995]]]]}},
{ "type":"Feature","properties":{"osm_way_id":"175849932","amenity":"parking","other":{"access":"customers","fee":"no","parking":"surface"}}, "geometry":{"type":"MultiPolygon","coordinates":[[[[1.29237,52.93013],[1.2925,52.93013],[1.29263,52.93013],[1.29265,52.93005],[1.29265,52.93002],[1.29266,52.92997],[1.2924,52.92996],[1.29237,52.93013]]]]}},
{ "type":"Feature","properties":{"osm_way_id":"175868042","amenity":"parking","other":{"access":"customers"}}, "geometry":{"type":"MultiPolygon","coordinates":[[[[1.18666,52.82911],[1.18684,52.8292],[1.18701,52.82908],[1.18717,52.82897],[1.18694,52.82891],[1.18666,52.82911]]]]}},
{ "type":"Feature","properties":{"osm_way_id":"175868050","amenity":"parking","other":{"access":"customers"}}, "geometry":{"type":"MultiPolygon","coordinates":[[[[1.18668,52.82936],[1.18682,52.82945],[1.18685,52.82944],[1.18692,52.82939],[1.1874,52.82908],[1.18721,52.82899],[1.18704,52.8291],[1.18668,52.82936]]]]}},
{ "type":"Feature","properties":{"osm_way_id":"175906326","amenity":"parking","other":{"access":"yes","fee":"yes","parking":"surface"}}, "geometry":{"type":"MultiPolygon","coordinates":[[[[1.262,52.90705],[1.26184,52.90704],[1.2618,52.90695],[1.26181,52.90691],[1.26186,52.9067],[1.26485,52.90669],[1.26488,52.90695],[1.26489,52.90718],[1.26489,52.90726],[1.26334,52.90732],[1.26326,52.90732],[1.26198,52.90725],[1.26203,52.90708],[1.262,52.90705]]]]}},
{ "type":"Feature","properties":{"osm_way_id":"175906331","name":"Runton Road Car Park","amenity":"parking","other":{"access":"yes","fee":"yes","parking":"surface","parking:type":"long_stay","surface":"grass"}}, "geometry":{"type":"MultiPolygon","coordinates":[[[[1.28697,52.93345],[1.28779,52.93347],[1.28898,52.93349],[1.28973,52.93346],[1.29003,52.93342],[1.29009,52.93361],[1.29025,52.93358],[1.29031,52.93358],[1.29041,52.93358],[1.29045,52.93361],[1.29045,52.93369],[1.29038,52.93377],[1.29046,52.93399],[1.28954,52.93413],[1.28952,52.93411],[1.28878,52.93422],[1.28877,52.93425],[1.28824,52.93434],[1.28808,52.9343],[1.28759,52.93437],[1.28757,52.93436],[1.2871,52.93441],[1.28697,52.93345]]]]}},
{ "type":"Feature","properties":{"osm_way_id":"176792032","amenity":"parking","other":{"access":"customers"}}, "geometry":{"type":"MultiPolygon","coordinates":[[[[0.84947,52.96256],[0.84983,52.96257],[0.84983,52.96249],[0.84984,52.96242],[0.84948,52.96241],[0.84947,52.96256]]]]}},
{ "type":"Feature","properties":{"osm_way_id":"177988715","name":"Blakeney Carnser Car Park","amenity":"parking","other":{"access":"yes","description":"Subject to tidal flooding. Free for National Trust members.","operator":"National Trust;Blakeney Parish Council","parking":"surface","surface":"unpaved","url":"http:\/\/www.blakeneyparishcouncil.org.uk\/blakeney-village\/blakeney-car-parking\/"}}, "geometry":{"type":"MultiPolygon","coordinates":[[[[1.01722,52.95617],[1.01746,52.95629],[1.01758,52.95637],[1.01764,52.95641],[1.01768,52.95647],[1.0177,52.95662],[1.01769,52.95676],[1.01766,52.95684],[1.01757,52.95706],[1.0175,52.95723],[1.01737,52.95746],[1.01774,52.95752],[1.01777,52.95753],[1.01781,52.95754],[1.01788,52.95747],[1.01789,52.95745],[1.0179,52.95727],[1.01792,52.95711],[1.01794,52.95693],[1.01802,52.95669],[1.01804,52.95657],[1.01809,52.95644],[1.01809,52.95643],[1.01799,52.95642],[1.01807,52.95627],[1.01814,52.95611],[1.01799,52.9561],[1.01777,52.9561],[1.0174,52.95611],[1.01733,52.95609],[1.01722,52.95617]]]]}},
{ "type":"Feature","properties":{"osm_way_id":"177988723","name":"Coronation Car Park (Permit Holders)","amenity":"parking","other":{"access":"private","description":"Permit holders only","operator":"FlashPark","parking":"surface","surface":"unpaved","url":"http:\/\/www.blakeneyparishcouncil.org.uk\/blakeney-village\/blakeney-car-parking\/"}}, "geometry":{"type":"MultiPolygon","coordinates":[[[[1.01918,52.9541],[1.01924,52.95403],[1.01933,52.95393],[1.01979,52.95407],[1.01966,52.95424],[1.01918,52.9541]]]]}},
{ "type":"Feature","properties":{"osm_way_id":"178066723","amenity":"parking","other":{"fee":"yes","operator":"Norfolk Wildlife Trust","parking":"surface","surface":"unpaved"}}, "geometry":{"type":"MultiPolygon","coordinates":[[[[1.05635,52.95465],[1.05635,52.95432],[1.05643,52.95431],[1.05643,52.95419],[1.05686,52.95417],[1.05706,52.95455],[1.05691,52.95457],[1.05689,52.95463],[1.05635,52.95465]]]]}},
{ "type":"Feature","properties":{"osm_way_id":"178066724","amenity":"parking","other":{"parking":"surface"}}, "geometry":{"type":"MultiPolygon","coordinates":[[[[1.05523,52.95455],[1.05593,52.95461],[1.05595,52.95441],[1.05546,52.95438],[1.05531,52.95446],[1.05523,52.95455]]]]}},
{ "type":"Feature","properties":{"osm_way_id":"182387812","name":"Cromer Zoo","amenity":"parking","other":{"access":"customers","fee":"no","parking":"surface"}}, "geometry":{"type":"MultiPolygon","coordinates":[[[[1.29534,52.92266],[1.29631,52.92279],[1.29646,52.9228],[1.29652,52.92277],[1.29655,52.92272],[1.29649,52.92175],[1.29646,52.92171],[1.29639,52.92168],[1.29632,52.92168],[1.29531,52.92208],[1.29534,52.92266]]]]}},
{ "type":"Feature","properties":{"osm_way_id":"182450329","amenity":"parking"},"geometry":{"type":"MultiPolygon","coordinates":[[[[1.46918,52.71486],[1.4696,52.71488],[1.46965,52.71449],[1.46937,52.71448],[1.46923,52.71447],[1.46918,52.71486]]]]}},
{ "type":"Feature","properties":{"osm_way_id":"182614678","amenity":"parking"},"geometry":{"type":"MultiPolygon","coordinates":[[[[1.47191,52.71311],[1.4722,52.71314],[1.47221,52.71311],[1.47215,52.71306],[1.47218,52.71302],[1.47193,52.71295],[1.47172,52.71291],[1.4717,52.71295],[1.47196,52.713],[1.47191,52.71311]]]]}},
{ "type":"Feature","properties":{"osm_way_id":"183429952","amenity":"parking"},"geometry":{"type":"MultiPolygon","coordinates":[[[[1.18182,52.84312],[1.18191,52.84311],[1.18209,52.84309],[1.18202,52.84289],[1.18171,52.84293],[1.18175,52.84305],[1.18179,52.84304],[1.18182,52.84312]]]]}},
{ "type":"Feature","properties":{"osm_way_id":"190168730","amenity":"parking","other":{"access":"customers","fee":"no","parking":"surface"}}, "geometry":{"type":"MultiPolygon","coordinates":[[[[1.25361,52.81969],[1.25347,52.81966],[1.25338,52.81981],[1.25343,52.81982],[1.25337,52.81992],[1.25352,52.81996],[1.25367,52.8197],[1.25361,52.81969]]]]}},
{ "type":"Feature","properties":{"osm_way_id":"190169526","amenity":"parking","other":{"access":"yes","fee":"no","parking":"surface"}}, "geometry":{"type":"MultiPolygon","coordinates":[[[[1.26171,52.83382],[1.26154,52.83357],[1.26161,52.83357],[1.26204,52.83353],[1.26254,52.83345],[1.26281,52.83337],[1.2629,52.83337],[1.26296,52.83338],[1.26302,52.83341],[1.26317,52.83359],[1.26171,52.83382]]]]}},
{ "type":"Feature","properties":{"osm_way_id":"195997218","amenity":"parking","other":{"access":"customers","capacity":"100","parking":"surface"}}, "geometry":{"type":"MultiPolygon","coordinates":[[[[1.36507,52.82818],[1.36503,52.82814],[1.36573,52.82789],[1.36577,52.82794],[1.36584,52.82791],[1.3662,52.82822],[1.36612,52.82825],[1.36611,52.82824],[1.36588,52.82833],[1.36589,52.82834],[1.36578,52.82838],[1.36576,52.82839],[1.36558,52.82847],[1.36536,52.82855],[1.36498,52.82821],[1.36507,52.82818]]]]}},
{ "type":"Feature","properties":{"osm_way_id":"198546811","amenity":"parking"},"geometry":{"type":"MultiPolygon","coordinates":[[[[1.20711,52.94536],[1.20842,52.94527],[1.20843,52.94531],[1.2071,52.9454],[1.20711,52.94536]]]]}},
{ "type":"Feature","properties":{"osm_way_id":"198546815","amenity":"parking"},"geometry":{"type":"MultiPolygon","coordinates":[[[[1.20656,52.94532],[1.20658,52.94543],[1.20531,52.9455],[1.20429,52.94554],[1.20424,52.94545],[1.20656,52.94532]]]]}},
{ "type":"Feature","properties":{"osm_way_id":"207010951","amenity":"parking","other":{"charge":"£2 (members free)","fee":"yes","parking":"surface"}}, "geometry":{"type":"MultiPolygon","coordinates":[[[[1.1515,52.89802],[1.15142,52.89786],[1.15166,52.89781],[1.15169,52.8978],[1.15171,52.89779],[1.15192,52.89778],[1.152,52.89793],[1.1515,52.89802]]]]}},
{ "type":"Feature","properties":{"osm_way_id":"207508348","amenity":"parking"},"geometry":{"type":"MultiPolygon","coordinates":[[[[1.44657,52.87007],[1.44673,52.87006],[1.44676,52.87006],[1.44675,52.86992],[1.44665,52.86994],[1.44656,52.86995],[1.44657,52.87007]]]]}},
{ "type":"Feature","properties":{"osm_way_id":"207508350","amenity":"parking"},"geometry":{"type":"MultiPolygon","coordinates":[[[[1.44733,52.87082],[1.44759,52.87082],[1.44758,52.8707],[1.4475,52.8705],[1.44746,52.87038],[1.44739,52.87038],[1.44729,52.87039],[1.4473,52.87057],[1.44733,52.87082]]]]}},
{ "type":"Feature","properties":{"osm_way_id":"207508357","amenity":"parking"},"geometry":{"type":"MultiPolygon","coordinates":[[[[1.44502,52.87146],[1.44549,52.87138],[1.44534,52.87108],[1.44511,52.87112],[1.44487,52.87116],[1.44502,52.87146]]]]}},
{ "type":"Feature","properties":{"osm_way_id":"213192955","name":"North Walsham High School","amenity":"parking","other":{"access":"private","addr:postcode":"NR28 9HZ","email":"office@northwalshamhigh.norfolk.sch.uk","max_age":"16","min_age":"11","parking":"surface","ref:edubase":"147505","source:addr:postcode":"get-information-schools.service.gov.uk","website":"http:\/\/northwalshamhigh.norfolk.sch.uk\/","wikidata":"Q16895925"}}, "geometry":{"type":"MultiPolygon","coordinates":[[[[1.3939,52.81857],[1.39383,52.81864],[1.39305,52.8185],[1.39305,52.81833],[1.39148,52.81826],[1.39057,52.81821],[1.39008,52.81819],[1.39007,52.81817],[1.39001,52.81669],[1.39084,52.81665],[1.39149,52.81655],[1.39146,52.81554],[1.39407,52.8156],[1.39415,52.81575],[1.39405,52.81603],[1.39408,52.81636],[1.39401,52.81667],[1.39389,52.81721],[1.39438,52.8173],[1.39416,52.81753],[1.39413,52.8176],[1.39397,52.81815],[1.39399,52.81822],[1.39406,52.81827],[1.39411,52.81833],[1.39408,52.81841],[1.39404,52.81844],[1.39394,52.81853],[1.3939,52.81857]]]]}},
{ "type":"Feature","properties":{"osm_way_id":"217499824","amenity":"parking","other":{"access":"customers"}}, "geometry":{"type":"MultiPolygon","coordinates":[[[[-2.13905,52.98931],[-2.1389,52.98948],[-2.13894,52.98949],[-2.13842,52.99005],[-2.13802,52.98991],[-2.1383,52.98959],[-2.13802,52.9895],[-2.13832,52.98918],[-2.1384,52.98909],[-2.13822,52.98904],[-2.13827,52.98898],[-2.13811,52.98893],[-2.13806,52.98898],[-2.13777,52.98888],[-2.13781,52.98886],[-2.1378,52.98883],[-2.13775,52.98881],[-2.13812,52.98842],[-2.13816,52.98843],[-2.13825,52.98834],[-2.1385,52.98842],[-2.13861,52.98846],[-2.13877,52.9883],[-2.13884,52.98834],[-2.13884,52.9883],[-2.13936,52.98831],[-2.13948,52.98832],[-2.1395,52.98835],[-2.13955,52.98833],[-2.14011,52.9889],[-2.14067,52.98932],[-2.14046,52.98946],[-2.14066,52.98953],[-2.14106,52.98987],[-2.14099,52.98997],[-2.14071,52.98986],[-2.13905,52.98931]]]]}},
{ "type":"Feature","properties":{"osm_way_id":"218940189","amenity":"parking"},"geometry":{"type":"MultiPolygon","coordinates":[[[[0.86424,52.94953],[0.865,52.94894],[0.86523,52.94906],[0.86458,52.94963],[0.86424,52.94953]]]]}},
{ "type":"Feature","properties":{"osm_way_id":"230635980","amenity":"parking","other":{"fee":"no","parking":"surface"}}, "geometry":{"type":"MultiPolygon","coordinates":[[[[1.33893,52.81446],[1.33883,52.81433],[1.33882,52.8142],[1.33909,52.81419],[1.33908,52.81445],[1.33899,52.81448],[1.33893,52.81446]]]]}},
{ "type":"Feature","properties":{"osm_way_id":"233083439","amenity":"parking","other":{"fee":"no"}}, "geometry":{"type":"MultiPolygon","coordinates":[[[[1.46601,52.70459],[1.46578,52.70454],[1.46563,52.70428],[1.46595,52.70421],[1.46615,52.70455],[1.46607,52.70458],[1.46601,52.70459]]]]}},
{ "type":"Feature","properties":{"osm_way_id":"233083444","amenity":"parking","other":{"access":"customers"}}, "geometry":{"type":"MultiPolygon","coordinates":[[[[1.46339,52.70326],[1.46343,52.70321],[1.46354,52.70323],[1.46358,52.70317],[1.46389,52.70324],[1.46386,52.70329],[1.46384,52.70332],[1.46371,52.70329],[1.46367,52.70335],[1.46339,52.70326]]]]}},
{ "type":"Feature","properties":{"osm_way_id":"233083448","amenity":"parking","other":{"fee":"yes"}}, "geometry":{"type":"MultiPolygon","coordinates":[[[[1.46204,52.70638],[1.46165,52.70611],[1.46192,52.706],[1.46201,52.70597],[1.462,52.70599],[1.46201,52.706],[1.46201,52.70601],[1.46201,52.70601],[1.46202,52.70603],[1.46202,52.70603],[1.46204,52.70605],[1.46204,52.70606],[1.46205,52.70607],[1.46206,52.7061],[1.46207,52.7061],[1.46207,52.70612],[1.46207,52.70612],[1.46209,52.70613],[1.46236,52.70631],[1.46244,52.70637],[1.46213,52.70645],[1.46204,52.70638]]]]}},
{ "type":"Feature","properties":{"osm_way_id":"235474000","amenity":"parking","other":{"access":"yes","fee":"yes","parking":"surface"}}, "geometry":{"type":"MultiPolygon","coordinates":[[[[1.29675,52.92963],[1.29693,52.92991],[1.29687,52.92997],[1.29705,52.93008],[1.29723,52.93021],[1.29736,52.93029],[1.29758,52.93049],[1.29766,52.93059],[1.29791,52.93052],[1.29817,52.93045],[1.29783,52.93003],[1.29773,52.92984],[1.29774,52.92979],[1.29765,52.92966],[1.29778,52.92963],[1.29762,52.92941],[1.29675,52.92963]]]]}},
{ "type":"Feature","properties":{"osm_way_id":"235474001","amenity":"parking"},"geometry":{"type":"MultiPolygon","coordinates":[[[[1.27336,52.89111],[1.27353,52.89097],[1.2735,52.89094],[1.27314,52.89082],[1.27309,52.89083],[1.27304,52.89082],[1.273,52.8908],[1.27297,52.89077],[1.27198,52.89031],[1.27177,52.89025],[1.27162,52.89045],[1.27176,52.89051],[1.27336,52.89111]]]]}},
{ "type":"Feature","properties":{"osm_way_id":"235474696","amenity":"parking"},"geometry":{"type":"MultiPolygon","coordinates":[[[[1.4064,52.71631],[1.40633,52.71632],[1.40626,52.71633],[1.40597,52.7156],[1.40598,52.71555],[1.40602,52.7155],[1.40608,52.71548],[1.40758,52.71523],[1.4078,52.71552],[1.40783,52.71557],[1.40722,52.71574],[1.40729,52.71615],[1.4064,52.71631]]]]}},
{ "type":"Feature","properties":{"osm_way_id":"235595153","amenity":"parking"},"geometry":{"type":"MultiPolygon","coordinates":[[[[1.35176,52.87856],[1.3521,52.87854],[1.3521,52.87857],[1.35226,52.87856],[1.35228,52.87866],[1.35207,52.87886],[1.35186,52.87889],[1.35176,52.87856]]]]}},
{ "type":"Feature","properties":{"osm_way_id":"235595156","amenity":"parking"},"geometry":{"type":"MultiPolygon","coordinates":[[[[1.35183,52.87953],[1.3518,52.87943],[1.35179,52.87938],[1.3518,52.87935],[1.35198,52.87932],[1.35205,52.87952],[1.35184,52.87955],[1.35183,52.87953]]]]}},
{ "type":"Feature","properties":{"osm_way_id":"235634879","amenity":"parking","other":{"fee":"yes"}}, "geometry":{"type":"MultiPolygon","coordinates":[[[[1.43725,52.87732],[1.43692,52.87744],[1.4369,52.87745],[1.437,52.87757],[1.43694,52.8776],[1.43726,52.87786],[1.43731,52.87784],[1.43752,52.87775],[1.43745,52.87769],[1.43758,52.87763],[1.43725,52.87732]]]]}},
{ "type":"Feature","properties":{"osm_way_id":"235834647","name":"Weavers Way Car Park","amenity":"parking","other":{"access":"yes","fee":"no","parking":"surface","surface":"gravel"}}, "geometry":{"type":"MultiPolygon","coordinates":[[[[1.43476,52.79633],[1.43472,52.79616],[1.43535,52.79613],[1.43538,52.79621],[1.43538,52.79627],[1.43476,52.79633]]]]}},
{ "type":"Feature","properties":{"osm_way_id":"240922707","name":"Middle Chare Pay & Display Car Park - Short Stay","amenity":"parking","other":{"access":"yes","fee":"yes","park_ride":"no","parking":"surface","supervised":"no"}}, "geometry":{"type":"MultiPolygon","coordinates":[[[[-1.57256,54.85645],[-1.57276,54.85641],[-1.57282,54.85641],[-1.57294,54.85638],[-1.57307,54.85635],[-1.57315,54.85633],[-1.57315,54.85631],[-1.57316,54.85629],[-1.57316,54.85627],[-1.57317,54.85625],[-1.57317,54.85623],[-1.57318,54.85621],[-1.5731,54.85621],[-1.57299,54.85619],[-1.57293,54.85619],[-1.57288,54.85618],[-1.57282,54.85617],[-1.57271,54.85614],[-1.57264,54.85614],[-1.57263,54.85616],[-1.57263,54.85618],[-1.57262,54.8562],[-1.57261,54.85622],[-1.57261,54.85625],[-1.5726,54.85627],[-1.5726,54.85629],[-1.57259,54.85631],[-1.57259,54.85633],[-1.57258,54.85635],[-1.57258,54.85638],[-1.57256,54.85645]]]]}},
{ "type":"Feature","properties":{"osm_way_id":"242923865","amenity":"parking","other":{"access":"permissive","fee":"no","park_ride":"no","parking":"surface"}}, "geometry":{"type":"MultiPolygon","coordinates":[[[[1.10348,52.90079],[1.1034,52.90059],[1.10375,52.90053],[1.10385,52.90072],[1.10348,52.90079]]]]}},
{ "type":"Feature","properties":{"osm_way_id":"243064801","amenity":"parking","other":{"access":"customers","park_ride":"no","parking":"surface"}}, "geometry":{"type":"MultiPolygon","coordinates":[[[[1.51765,52.7666],[1.51762,52.76639],[1.51853,52.7663],[1.51856,52.76636],[1.51859,52.76645],[1.51871,52.76643],[1.51887,52.76667],[1.51862,52.76672],[1.51849,52.76651],[1.51765,52.7666]]]]}},
{ "type":"Feature","properties":{"osm_way_id":"243174461","amenity":"parking","other":{"fee":"no","park_ride":"no","parking":"surface"}}, "geometry":{"type":"MultiPolygon","coordinates":[[[[0.99849,52.84954],[0.9985,52.84946],[0.99845,52.8494],[0.99865,52.84938],[0.99872,52.84944],[0.99869,52.84952],[0.99849,52.84954]]]]}},
{ "type":"Feature","properties":{"osm_way_id":"260609904","amenity":"parking","other":{"fee":"no","parking":"surface"}}, "geometry":{"type":"MultiPolygon","coordinates":[[[[1.10816,52.86491],[1.10796,52.86467],[1.10843,52.86454],[1.10862,52.86479],[1.10833,52.86487],[1.10816,52.86491]]]]}},
{ "type":"Feature","properties":{"osm_way_id":"260742250","amenity":"parking","other":{"access":"yes","fee":"no","parking":"surface","surface":"ground"}}, "geometry":{"type":"MultiPolygon","coordinates":[[[[1.3548,52.86591],[1.35515,52.8658],[1.35523,52.86587],[1.35499,52.86598],[1.3548,52.86591]]]]}},
{ "type":"Feature","properties":{"osm_way_id":"269482788","amenity":"parking","other":{"parking":"surface"}}, "geometry":{"type":"MultiPolygon","coordinates":[[[[1.11805,52.91825],[1.11876,52.91833],[1.1189,52.91791],[1.11873,52.91788],[1.11882,52.91764],[1.11872,52.91763],[1.11849,52.91785],[1.11805,52.91825]]]]}},
{ "type":"Feature","properties":{"osm_way_id":"271553821","amenity":"parking","other":{"access":"yes","fee":"no","parking":"surface","surface":"ground"}}, "geometry":{"type":"MultiPolygon","coordinates":[[[[1.41577,52.84605],[1.4156,52.84601],[1.41572,52.84586],[1.41578,52.84588],[1.41584,52.84596],[1.41577,52.84605]]]]}},
{ "type":"Feature","properties":{"osm_way_id":"275858805","amenity":"parking","other":{"access":"customers"}}, "geometry":{"type":"MultiPolygon","coordinates":[[[[1.14949,52.93304],[1.14946,52.93301],[1.14959,52.93278],[1.14969,52.9328],[1.1497,52.9328],[1.14968,52.93284],[1.14973,52.93285],[1.15001,52.93291],[1.14998,52.93295],[1.14955,52.93306],[1.14949,52.93304]]]]}},
{ "type":"Feature","properties":{"osm_way_id":"279832068","amenity":"parking","other":{"capacity:disabled":"2","parking":"surface","surface":"gravel"}}, "geometry":{"type":"MultiPolygon","coordinates":[[[[1.06462,52.95501],[1.0645,52.95499],[1.06448,52.95489],[1.0646,52.95492],[1.06476,52.9549],[1.06484,52.9549],[1.06486,52.95499],[1.06479,52.95499],[1.06462,52.95501]]]]}},
{ "type":"Feature","properties":{"osm_way_id":"279838486","amenity":"parking","other":{"parking":"layby"}}, "geometry":{"type":"MultiPolygon","coordinates":[[[[1.093,52.95158],[1.09306,52.95163],[1.09347,52.95167],[1.09395,52.9517],[1.09441,52.95168],[1.09477,52.95165],[1.09501,52.95158],[1.09474,52.95162],[1.09426,52.95165],[1.09389,52.95165],[1.09351,52.95163],[1.093,52.95158]]]]}},
{ "type":"Feature","properties":{"osm_way_id":"288969319","amenity":"parking"},"geometry":{"type":"MultiPolygon","coordinates":[[[[1.46555,52.73572],[1.46536,52.7358],[1.46532,52.73576],[1.46523,52.73568],[1.46512,52.73553],[1.46533,52.73549],[1.46538,52.73558],[1.46545,52.73568],[1.46551,52.73569],[1.46555,52.73572]]]]}},
{ "type":"Feature","properties":{"osm_way_id":"288969320","amenity":"parking"},"geometry":{"type":"MultiPolygon","coordinates":[[[[1.46491,52.73607],[1.46471,52.73594],[1.46517,52.73569],[1.46525,52.73579],[1.46532,52.73576],[1.46536,52.7358],[1.46491,52.73607]]]]}},
{ "type":"Feature","properties":{"osm_way_id":"291496980","amenity":"parking","other":{"access":"yes","fee":"no","parking":"surface","surface":"gravel"}}, "geometry":{"type":"MultiPolygon","coordinates":[[[[1.39942,52.86132],[1.39949,52.8613],[1.39945,52.86119],[1.39937,52.86116],[1.39932,52.86102],[1.39905,52.86106],[1.39914,52.8613],[1.39934,52.86124],[1.39941,52.86129],[1.39942,52.86132]]]]}},
{ "type":"Feature","properties":{"osm_way_id":"292144579","name":"Pigney's Wood Nature Reserve","amenity":"parking","other":{"access":"permissive","fee":"no","parking":"surface"}}, "geometry":{"type":"MultiPolygon","coordinates":[[[[1.40886,52.83796],[1.40857,52.83801],[1.40852,52.8379],[1.40848,52.83783],[1.40877,52.83777],[1.40886,52.83796]]]]}},
{ "type":"Feature","properties":{"osm_way_id":"292178826","amenity":"parking","other":{"access":"yes","fee":"no","parking":"surface"}}, "geometry":{"type":"MultiPolygon","coordinates":[[[[1.37494,52.81966],[1.37502,52.8198],[1.37507,52.81978],[1.37511,52.81977],[1.37516,52.81976],[1.3752,52.81975],[1.37525,52.8197],[1.3751,52.8196],[1.375,52.81961],[1.37494,52.81966]]]]}},
{ "type":"Feature","properties":{"osm_way_id":"292683102","amenity":"parking","other":{"access":"yes","fee":"no","parking":"surface","surface":"ground"}}, "geometry":{"type":"MultiPolygon","coordinates":[[[[1.48098,52.82606],[1.48103,52.82612],[1.48106,52.82613],[1.48126,52.82616],[1.48138,52.82612],[1.48098,52.82606]]]]}},
{ "type":"Feature","properties":{"osm_way_id":"292773711","amenity":"parking","other":{"access":"yes","fee":"no","parking":"surface"}}, "geometry":{"type":"MultiPolygon","coordinates":[[[[1.50249,52.832],[1.50265,52.83194],[1.50276,52.83192],[1.50275,52.83186],[1.50266,52.83186],[1.50252,52.83181],[1.50252,52.8319],[1.50249,52.832]]]]}},
{ "type":"Feature","properties":{"osm_way_id":"293094507","amenity":"parking","other":{"access":"yes","fee":"no","parking":"surface","surface":"ground"}}, "geometry":{"type":"MultiPolygon","coordinates":[[[[1.47871,52.79156],[1.47891,52.79153],[1.47884,52.79136],[1.47864,52.7914],[1.47871,52.79156]]]]}},
{ "type":"Feature","properties":{"osm_way_id":"293434568","amenity":"parking","other":{"fee":"no","parking":"surface","surface":"ground"}}, "geometry":{"type":"MultiPolygon","coordinates":[[[[1.45036,52.79931],[1.45008,52.79931],[1.45008,52.79942],[1.45036,52.7994],[1.45036,52.79931]]]]}},
{ "type":"Feature","properties":{"osm_way_id":"294789264","amenity":"parking"},"geometry":{"type":"MultiPolygon","coordinates":[[[[1.03524,52.9312],[1.03571,52.93053],[1.0359,52.93064],[1.03681,52.93084],[1.03644,52.93148],[1.03524,52.9312]]]]}},
{ "type":"Feature","properties":{"osm_way_id":"295862369","amenity":"parking","other":{"fee":"yes","parking":"surface","surface":"grass"}}, "geometry":{"type":"MultiPolygon","coordinates":[[[[0.80854,52.95118],[0.8088,52.95112],[0.80887,52.95102],[0.80885,52.95089],[0.80874,52.95079],[0.80853,52.95073],[0.80806,52.95072],[0.80768,52.95079],[0.80745,52.95079],[0.80736,52.95083],[0.80739,52.951],[0.80751,52.95108],[0.80748,52.95118],[0.80751,52.95121],[0.80779,52.95123],[0.808,52.95125],[0.8082,52.95125],[0.80846,52.95123],[0.80854,52.95118]]]]}},
{ "type":"Feature","properties":{"osm_way_id":"295862371","amenity":"parking","other":{"fee":"yes","parking":"surface","surface":"grass"}}, "geometry":{"type":"MultiPolygon","coordinates":[[[[0.80714,52.95123],[0.80761,52.95127],[0.80758,52.95135],[0.80762,52.95142],[0.80755,52.95147],[0.80713,52.95138],[0.80711,52.95131],[0.80714,52.95123]]]]}},
{ "type":"Feature","properties":{"osm_way_id":"296198500","amenity":"parking","other":{"parking":"surface"}}, "geometry":{"type":"MultiPolygon","coordinates":[[[[0.89155,52.90077],[0.89161,52.90091],[0.8915,52.90093],[0.89142,52.90094],[0.89102,52.90102],[0.89109,52.90113],[0.89202,52.90094],[0.89191,52.90071],[0.89155,52.90077]]]]}},
{ "type":"Feature","properties":{"osm_way_id":"297033907","amenity":"parking","other":{"fee":"no","parking":"surface","wheelchair":"yes"}}, "geometry":{"type":"MultiPolygon","coordinates":[[[[0.85142,52.8801],[0.85172,52.87992],[0.85274,52.88039],[0.85233,52.88065],[0.85183,52.88037],[0.85142,52.8801]]]]}},
{ "type":"Feature","properties":{"osm_way_id":"299039384","amenity":"parking","other":{"access":"yes","parking":"surface"}}, "geometry":{"type":"MultiPolygon","coordinates":[[[[1.45551,52.7737],[1.45534,52.77361],[1.45492,52.7735],[1.45498,52.77337],[1.45531,52.77344],[1.45529,52.77348],[1.45548,52.77352],[1.45547,52.77354],[1.45558,52.77357],[1.45551,52.7737]]]]}},
{ "type":"Feature","properties":{"osm_way_id":"299077787","amenity":"parking","other":{"access":"yes","fee":"no","parking":"surface","surface":"grass"}}, "geometry":{"type":"MultiPolygon","coordinates":[[[[1.44746,52.78076],[1.4473,52.78116],[1.44718,52.78114],[1.44735,52.78072],[1.44743,52.78072],[1.44746,52.78076]]]]}},
{ "type":"Feature","properties":{"osm_way_id":"299082494","amenity":"parking"},"geometry":{"type":"MultiPolygon","coordinates":[[[[1.33107,52.91874],[1.33104,52.91866],[1.33101,52.91859],[1.33119,52.91855],[1.33127,52.91854],[1.33134,52.91869],[1.33119,52.91872],[1.33107,52.91874]]]]}},
{ "type":"Feature","properties":{"osm_way_id":"300418491","amenity":"parking","other":{"access":"yes","capacity:disabled":"2","fee":"no","parking":"surface","surface":"asphalt"}}, "geometry":{"type":"MultiPolygon","coordinates":[[[[1.16094,52.9163],[1.16078,52.91634],[1.1607,52.91633],[1.16067,52.91631],[1.16058,52.9162],[1.16084,52.91613],[1.16094,52.9163]]]]}},
{ "type":"Feature","properties":{"osm_way_id":"300418492","amenity":"parking","other":{"access":"yes","capacity:disabled":"no","fee":"no","parking":"surface","surface":"asphalt"}}, "geometry":{"type":"MultiPolygon","coordinates":[[[[1.16038,52.91621],[1.16044,52.91622],[1.16049,52.91626],[1.16057,52.91635],[1.16057,52.91639],[1.16035,52.91649],[1.16038,52.91621]]]]}},
{ "type":"Feature","properties":{"osm_way_id":"300419163","amenity":"parking","other":{"access":"customers","parking":"surface","surface":"gravel"}}, "geometry":{"type":"MultiPolygon","coordinates":[[[[1.1624,52.90841],[1.16266,52.90838],[1.16258,52.90816],[1.16263,52.90813],[1.16262,52.90808],[1.16232,52.90813],[1.1624,52.90841]]]]}},
{ "type":"Feature","properties":{"osm_way_id":"300440860","amenity":"parking","other":{"access":"yes","fee":"no","parking":"surface"}}, "geometry":{"type":"MultiPolygon","coordinates":[[[[1.16003,52.90566],[1.16001,52.9058],[1.1601,52.90581],[1.16012,52.90568],[1.16008,52.90567],[1.16003,52.90566]]]]}},
{ "type":"Feature","properties":{"osm_way_id":"300701125","amenity":"parking"},"geometry":{"type":"MultiPolygon","coordinates":[[[[1.33135,52.91934],[1.33137,52.91935],[1.33165,52.9193],[1.33157,52.91913],[1.33148,52.91914],[1.33135,52.91934]]]]}},
{ "type":"Feature","properties":{"osm_way_id":"303980142","name":"Saint Benets Abbey","amenity":"parking","other":{"parking":"surface"}}, "geometry":{"type":"MultiPolygon","coordinates":[[[[1.52218,52.68868],[1.52254,52.68861],[1.52238,52.68831],[1.52224,52.68833],[1.52202,52.68837],[1.52211,52.68854],[1.52218,52.68868]]]]}},
{ "type":"Feature","properties":{"osm_way_id":"304067383","amenity":"parking","other":{"fee":"no","maxstay":"2 hr","parking":"surface","surface":"ground"}}, "geometry":{"type":"MultiPolygon","coordinates":[[[[0.81429,52.95735],[0.81458,52.95736],[0.81479,52.95737],[0.8148,52.95685],[0.81461,52.95686],[0.81432,52.95687],[0.81429,52.95735]]]]}},
{ "type":"Feature","properties":{"osm_way_id":"304798979","amenity":"parking","other":{"access":"customers","fee":"no","parking":"surface","surface":"grass"}}, "geometry":{"type":"MultiPolygon","coordinates":[[[[1.46354,52.72408],[1.46429,52.72415],[1.46434,52.72404],[1.46358,52.72395],[1.46354,52.72408]]]]}},
{ "type":"Feature","properties":{"osm_way_id":"305797119","amenity":"parking"},"geometry":{"type":"MultiPolygon","coordinates":[[[[1.31779,52.89087],[1.31759,52.89078],[1.31778,52.89061],[1.31782,52.89058],[1.31803,52.89066],[1.31779,52.89087]]]]}},
{ "type":"Feature","properties":{"osm_way_id":"307344627","amenity":"parking","other":{"fee":"no","parking":"surface","surface":"gravel"}}, "geometry":{"type":"MultiPolygon","coordinates":[[[[1.4702,52.74406],[1.47042,52.744],[1.47053,52.74423],[1.47033,52.7443],[1.4702,52.74406]]]]}},
{ "type":"Feature","properties":{"osm_way_id":"307630001","amenity":"parking","other":{"access":"customers","fee":"no","parking":"surface","surface":"grass"}}, "geometry":{"type":"MultiPolygon","coordinates":[[[[1.29372,52.83168],[1.29391,52.83169],[1.29397,52.83186],[1.29378,52.83187],[1.29372,52.83168]]]]}},
{ "type":"Feature","properties":{"osm_way_id":"312008891","amenity":"parking"},"geometry":{"type":"MultiPolygon","coordinates":[[[[1.30305,52.92474],[1.30382,52.92477],[1.30386,52.92451],[1.30311,52.92447],[1.30305,52.92474]]]]}},
{ "type":"Feature","properties":{"osm_way_id":"319162387","amenity":"parking"},"geometry":{"type":"MultiPolygon","coordinates":[[[[0.8523,52.9497],[0.85188,52.94986],[0.85187,52.94981],[0.85227,52.94967],[0.8523,52.9497]]]]}},
{ "type":"Feature","properties":{"osm_way_id":"319162389","amenity":"parking"},"geometry":{"type":"MultiPolygon","coordinates":[[[[0.85112,52.94961],[0.85112,52.94959],[0.8511,52.94935],[0.85117,52.94934],[0.85137,52.94934],[0.8514,52.9496],[0.85112,52.94961]]]]}},
{ "type":"Feature","properties":{"osm_way_id":"319162390","amenity":"parking"},"geometry":{"type":"MultiPolygon","coordinates":[[[[0.85153,52.94999],[0.85151,52.94982],[0.85098,52.94984],[0.851,52.95002],[0.85153,52.94999]]]]}},
{ "type":"Feature","properties":{"osm_way_id":"319162392","amenity":"parking"},"geometry":{"type":"MultiPolygon","coordinates":[[[[0.85196,52.94947],[0.85195,52.94935],[0.8524,52.94933],[0.85241,52.94945],[0.85196,52.94947]]]]}},
{ "type":"Feature","properties":{"osm_way_id":"319164138","amenity":"parking"},"geometry":{"type":"MultiPolygon","coordinates":[[[[0.85716,52.95159],[0.85713,52.95139],[0.85685,52.95142],[0.85668,52.95163],[0.85716,52.95159]]]]}},
{ "type":"Feature","properties":{"osm_way_id":"319167719","amenity":"parking"},"geometry":{"type":"MultiPolygon","coordinates":[[[[0.85123,52.95391],[0.85107,52.9539],[0.85105,52.95433],[0.85113,52.95433],[0.85121,52.95431],[0.85123,52.95391]]]]}},
{ "type":"Feature","properties":{"osm_way_id":"319186282","amenity":"parking"},"geometry":{"type":"MultiPolygon","coordinates":[[[[0.85257,52.95464],[0.85258,52.95451],[0.85305,52.95453],[0.85304,52.95465],[0.85257,52.95464]]]]}},
{ "type":"Feature","properties":{"osm_way_id":"319188446","amenity":"parking"},"geometry":{"type":"MultiPolygon","coordinates":[[[[0.84981,52.95858],[0.8498,52.95838],[0.84929,52.95835],[0.84926,52.95849],[0.8492,52.95851],[0.8492,52.95861],[0.84975,52.95862],[0.84982,52.95862],[0.84981,52.95858]]]]}},
{ "type":"Feature","properties":{"osm_way_id":"319192443","amenity":"parking"},"geometry":{"type":"MultiPolygon","coordinates":[[[[0.85347,52.95127],[0.85412,52.95113],[0.85415,52.95118],[0.85417,52.95121],[0.85352,52.95138],[0.8535,52.95134],[0.85347,52.95127]]]]}},
{ "type":"Feature","properties":{"osm_way_id":"319192445","amenity":"parking"},"geometry":{"type":"MultiPolygon","coordinates":[[[[0.85175,52.95688],[0.85171,52.95661],[0.85197,52.95661],[0.852,52.95687],[0.85175,52.95688]]]]}},
{ "type":"Feature","properties":{"osm_way_id":"324046723","amenity":"parking","other":{"access":"yes","fee":"dawn-dusk","opening_hours":"dawn-dusk","parking":"surface","surface":"paving_stones"}}, "geometry":{"type":"MultiPolygon","coordinates":[[[[1.53746,52.82222],[1.53809,52.8222],[1.53807,52.82192],[1.53735,52.82194],[1.53737,52.82222],[1.53746,52.82222]]]]}},
{ "type":"Feature","properties":{"osm_way_id":"330957192","amenity":"parking","other":{"access":"customers","fee":"no","parking":"surface","surface":"ground"}}, "geometry":{"type":"MultiPolygon","coordinates":[[[[1.27227,52.86669],[1.27228,52.86638],[1.27236,52.86637],[1.27249,52.86668],[1.27227,52.86669]]]]}},
{ "type":"Feature","properties":{"osm_way_id":"332331462","amenity":"parking","other":{"access":"yes","fee":"yes","parking":"surface"}}, "geometry":{"type":"MultiPolygon","coordinates":[[[[1.557,52.81306],[1.55703,52.81309],[1.55737,52.81331],[1.55701,52.81348],[1.55694,52.81344],[1.5567,52.8136],[1.55658,52.81352],[1.55665,52.81349],[1.55643,52.81334],[1.557,52.81306]]]]}},
{ "type":"Feature","properties":{"osm_way_id":"333492752","amenity":"parking","other":{"access":"customers","fee":"no","parking":"surface","surface":"grass"}}, "geometry":{"type":"MultiPolygon","coordinates":[[[[1.41844,52.75273],[1.41813,52.75271],[1.41813,52.75235],[1.41833,52.75232],[1.41847,52.75232],[1.41844,52.75273]]]]}},
{ "type":"Feature","properties":{"osm_way_id":"338361415","amenity":"parking","other":{"access":"customers","fee":"no","parking":"surface","surface":"asphalt"}}, "geometry":{"type":"MultiPolygon","coordinates":[[[[0.95766,52.83889],[0.9575,52.83889],[0.95751,52.83891],[0.95743,52.83892],[0.95742,52.83892],[0.95742,52.83894],[0.95755,52.83923],[0.95765,52.83921],[0.95763,52.83915],[0.95779,52.83912],[0.95776,52.83908],[0.95766,52.83889]]]]}},
{ "type":"Feature","properties":{"osm_way_id":"345768301","amenity":"parking","other":{"access":"private","fee":"no","parking":"surface","surface":"gravel"}}, "geometry":{"type":"MultiPolygon","coordinates":[[[[1.54338,52.77594],[1.54368,52.77594],[1.5437,52.77573],[1.54333,52.77573],[1.54337,52.77587],[1.54338,52.77594]]]]}},
{ "type":"Feature","properties":{"osm_way_id":"347641747","amenity":"parking","other":{"fee":"no","parking":"surface","surface":"ground"}}, "geometry":{"type":"MultiPolygon","coordinates":[[[[1.33831,52.80881],[1.3378,52.80865],[1.3378,52.80859],[1.3378,52.80852],[1.33818,52.80854],[1.33836,52.80862],[1.33837,52.80873],[1.33834,52.80878],[1.33831,52.80881]]]]}},
{ "type":"Feature","properties":{"osm_way_id":"350765166","amenity":"parking","other":{"access":"customers","fee":"no","parking":"surface","surface":"ground"}}, "geometry":{"type":"MultiPolygon","coordinates":[[[[1.18279,52.83296],[1.1828,52.83293],[1.18282,52.83283],[1.18317,52.83285],[1.18314,52.83298],[1.18279,52.83296]]]]}},
{ "type":"Feature","properties":{"osm_way_id":"350898790","amenity":"parking","other":{"access":"yes","fee":"no","parking":"surface"}}, "geometry":{"type":"MultiPolygon","coordinates":[[[[1.13935,52.82938],[1.13956,52.82959],[1.13976,52.82949],[1.1395,52.82929],[1.13935,52.82938]]]]}},
{ "type":"Feature","properties":{"osm_way_id":"352468843","amenity":"parking","other":{"access":"customers","fee":"no","surface":"grass"}}, "geometry":{"type":"MultiPolygon","coordinates":[[[[1.44798,52.8459],[1.44753,52.84586],[1.44764,52.84553],[1.44773,52.84539],[1.44808,52.84541],[1.44798,52.8459]]]]}},
{ "type":"Feature","properties":{"osm_way_id":"352934134","amenity":"parking","other":{"access":"yes","fee":"yes","parking":"surface","surface":"grass"}}, "geometry":{"type":"MultiPolygon","coordinates":[[[[1.17679,52.84369],[1.17678,52.84361],[1.17697,52.84362],[1.17693,52.84352],[1.1782,52.84337],[1.17826,52.84354],[1.17842,52.84356],[1.17888,52.84373],[1.17883,52.84379],[1.1782,52.84364],[1.17791,52.84364],[1.17748,52.84365],[1.17679,52.84369]]]]}},
{ "type":"Feature","properties":{"osm_way_id":"354812501","amenity":"parking","other":{"capacity":"50","fee":"no","hgv":"no","park_ride":"no","parking":"surface","supervised":"no"}}, "geometry":{"type":"MultiPolygon","coordinates":[[[[0.84813,52.83433],[0.84823,52.83428],[0.8479,52.83394],[0.84786,52.83365],[0.84699,52.83371],[0.84704,52.83401],[0.84707,52.83402],[0.84745,52.83405],[0.8477,52.83409],[0.84796,52.83419],[0.84812,52.83432],[0.84813,52.83433]]]]}},
{ "type":"Feature","properties":{"osm_way_id":"361312632","amenity":"parking","other":{"fee":"no","parking":"surface","surface":"grass"}}, "geometry":{"type":"MultiPolygon","coordinates":[[[[0.98813,52.8767],[0.98825,52.8766],[0.98831,52.87648],[0.98906,52.8767],[0.98904,52.87681],[0.98828,52.8767],[0.98813,52.8767]]]]}},
{ "type":"Feature","properties":{"osm_way_id":"366097808","amenity":"parking","other":{"access":"yes","fee":"no","parking":"surface","surface":"grass"}}, "geometry":{"type":"MultiPolygon","coordinates":[[[[1.26767,52.888],[1.26804,52.88806],[1.26796,52.88825],[1.26763,52.88821],[1.26767,52.888]]]]}},
{ "type":"Feature","properties":{"osm_way_id":"370581795","amenity":"parking","other":{"fee":"no","parking":"surface","surface":"ground"}}, "geometry":{"type":"MultiPolygon","coordinates":[[[[1.24388,52.91326],[1.24399,52.91342],[1.24418,52.91337],[1.24408,52.91318],[1.24388,52.91326]]]]}},
{ "type":"Feature","properties":{"osm_way_id":"372434069","amenity":"parking"},"geometry":{"type":"MultiPolygon","coordinates":[[[[1.27661,52.84368],[1.27665,52.84376],[1.27668,52.84382],[1.27653,52.84385],[1.27637,52.84389],[1.27637,52.84379],[1.27647,52.84371],[1.27661,52.84368]]]]}},
{ "type":"Feature","properties":{"osm_way_id":"372434845","amenity":"parking"},"geometry":{"type":"MultiPolygon","coordinates":[[[[1.43263,52.87646],[1.43274,52.87644],[1.43293,52.8764],[1.43295,52.87645],[1.43308,52.87644],[1.43309,52.87654],[1.43309,52.87663],[1.43303,52.87669],[1.43296,52.87672],[1.43283,52.87672],[1.43282,52.87667],[1.43272,52.87667],[1.43263,52.87646]]]]}},
{ "type":"Feature","properties":{"osm_way_id":"374394554","amenity":"parking","other":{"access":"yes","fee":"no","parking":"surface","surface":"gravel"}}, "geometry":{"type":"MultiPolygon","coordinates":[[[[1.02239,52.86849],[1.02249,52.86849],[1.02247,52.86834],[1.02236,52.86835],[1.02232,52.86835],[1.02239,52.86849]]]]}},
{ "type":"Feature","properties":{"osm_way_id":"374866527","amenity":"parking"},"geometry":{"type":"MultiPolygon","coordinates":[[[[1.12149,52.9316],[1.12139,52.93153],[1.12126,52.93158],[1.12162,52.93205],[1.12195,52.93196],[1.12149,52.9316]]]]}},
{ "type":"Feature","properties":{"osm_way_id":"374866528","amenity":"parking","other":{"capacity":"7"}}, "geometry":{"type":"MultiPolygon","coordinates":[[[[1.15246,52.92221],[1.15246,52.92212],[1.15282,52.92207],[1.15284,52.92225],[1.15267,52.92222],[1.15246,52.92221]]]]}},
{ "type":"Feature","properties":{"osm_way_id":"374871768","amenity":"parking","other":{"access":"customers"}}, "geometry":{"type":"MultiPolygon","coordinates":[[[[1.14978,52.93244],[1.14989,52.93245],[1.14998,52.93217],[1.14987,52.93216],[1.14978,52.93244]]]]}},
{ "type":"Feature","properties":{"osm_way_id":"375778289","amenity":"parking"},"geometry":{"type":"MultiPolygon","coordinates":[[[[1.08333,52.93984],[1.08345,52.93977],[1.08349,52.93973],[1.08328,52.93968],[1.08322,52.93967],[1.08317,52.93969],[1.08315,52.93971],[1.08324,52.93981],[1.08333,52.93984]]]]}},
{ "type":"Feature","properties":{"osm_way_id":"375778290","amenity":"parking"},"geometry":{"type":"MultiPolygon","coordinates":[[[[1.08281,52.94351],[1.08275,52.94339],[1.08294,52.94328],[1.08312,52.94326],[1.08319,52.94332],[1.08314,52.94339],[1.08304,52.94341],[1.08297,52.94343],[1.08291,52.94351],[1.08281,52.94351]]]]}},
{ "type":"Feature","properties":{"osm_way_id":"375924280","amenity":"parking","other":{"access":"private","parking":"surface","surface":"asphalt"}}, "geometry":{"type":"MultiPolygon","coordinates":[[[[1.31544,52.9246],[1.31556,52.92451],[1.31577,52.92444],[1.31608,52.9247],[1.31622,52.92484],[1.31629,52.9249],[1.31631,52.92491],[1.31632,52.92497],[1.31606,52.92498],[1.31608,52.92486],[1.31593,52.92476],[1.3156,52.92466],[1.31544,52.9246]]]]}},
{ "type":"Feature","properties":{"osm_way_id":"376691130","amenity":"parking"},"geometry":{"type":"MultiPolygon","coordinates":[[[[1.08747,52.93342],[1.08758,52.93331],[1.08749,52.93322],[1.08734,52.93325],[1.0873,52.93338],[1.08747,52.93342]]]]}},
{ "type":"Feature","properties":{"osm_way_id":"376691133","amenity":"parking","other":{"access":"permissive","fee":"no","parking":"surface","surface":"ground"}}, "geometry":{"type":"MultiPolygon","coordinates":[[[[1.11206,52.92306],[1.11202,52.92308],[1.11221,52.92314],[1.11234,52.92308],[1.11248,52.92301],[1.11232,52.92293],[1.11206,52.92306]]]]}},
{ "type":"Feature","properties":{"osm_way_id":"376691137","amenity":"parking"},"geometry":{"type":"MultiPolygon","coordinates":[[[[1.11515,52.94272],[1.11514,52.94277],[1.11522,52.94283],[1.11535,52.94286],[1.11556,52.94288],[1.11561,52.94287],[1.11565,52.94284],[1.1156,52.9428],[1.11536,52.94277],[1.1152,52.94273],[1.11515,52.94272]]]]}},
{ "type":"Feature","properties":{"osm_way_id":"377504346","amenity":"parking","other":{"fee":"no","parking":"surface"}}, "geometry":{"type":"MultiPolygon","coordinates":[[[[1.20168,52.92572],[1.20164,52.92573],[1.2016,52.92572],[1.20156,52.9257],[1.20153,52.92566],[1.20153,52.92563],[1.20155,52.92561],[1.2016,52.92557],[1.20167,52.92555],[1.20202,52.92546],[1.20208,52.92544],[1.20211,52.92542],[1.20213,52.9254],[1.20214,52.92537],[1.20212,52.92533],[1.20221,52.92532],[1.20227,52.92537],[1.20233,52.92538],[1.20244,52.92537],[1.20248,52.92537],[1.20251,52.92539],[1.20254,52.92542],[1.20252,52.92545],[1.20241,52.92549],[1.20219,52.92552],[1.20199,52.92556],[1.20193,52.92558],[1.20168,52.92572]]]]}},
{ "type":"Feature","properties":{"osm_way_id":"377504347","amenity":"parking"},"geometry":{"type":"MultiPolygon","coordinates":[[[[1.20145,52.92773],[1.20148,52.92765],[1.20144,52.92751],[1.20135,52.92742],[1.20122,52.92738],[1.20117,52.92738],[1.20145,52.92773]]]]}},
{ "type":"Feature","properties":{"osm_way_id":"377504348","amenity":"parking"},"geometry":{"type":"MultiPolygon","coordinates":[[[[1.20693,52.92316],[1.20688,52.92325],[1.207,52.92329],[1.20715,52.92333],[1.20724,52.92325],[1.20701,52.92321],[1.20693,52.92316]]]]}},
{ "type":"Feature","properties":{"osm_way_id":"382788369","amenity":"parking"},"geometry":{"type":"MultiPolygon","coordinates":[[[[1.30599,52.92425],[1.3062,52.92426],[1.30619,52.92435],[1.30797,52.92442],[1.30799,52.92428],[1.30641,52.9242],[1.30642,52.92406],[1.306,52.92409],[1.30599,52.92425]]]]}},
{ "type":"Feature","properties":{"osm_way_id":"382789741","amenity":"parking"},"geometry":{"type":"MultiPolygon","coordinates":[[[[1.30473,52.924],[1.30546,52.92402],[1.30547,52.92378],[1.30501,52.92376],[1.30501,52.92372],[1.30476,52.92372],[1.30473,52.924]]]]}},
{ "type":"Feature","properties":{"osm_way_id":"388878543","name":"Morris Street Car Park","amenity":"parking","other":{"parking":"surface"}}, "geometry":{"type":"MultiPolygon","coordinates":[[[[1.20975,52.94409],[1.20987,52.94414],[1.21033,52.94435],[1.21043,52.9444],[1.21095,52.94413],[1.21077,52.944],[1.21048,52.94386],[1.21023,52.9438],[1.20975,52.94409]]]]}},
{ "type":"Feature","properties":{"osm_way_id":"389585269","amenity":"parking"},"geometry":{"type":"MultiPolygon","coordinates":[[[[1.33498,52.90451],[1.33498,52.90445],[1.33498,52.90443],[1.33492,52.90441],[1.33479,52.90439],[1.33453,52.90436],[1.33456,52.90426],[1.33483,52.90428],[1.33518,52.90433],[1.33524,52.90434],[1.33528,52.90434],[1.33559,52.90439],[1.33556,52.90454],[1.33498,52.90451]]]]}},
{ "type":"Feature","properties":{"osm_way_id":"389653515","amenity":"parking","other":{"access":"yes","fee":"no","parking":"surface","surface":"gravel"}}, "geometry":{"type":"MultiPolygon","coordinates":[[[[1.25772,52.87231],[1.25771,52.87207],[1.25787,52.87207],[1.25801,52.87231],[1.25772,52.87231]]]]}},
{ "type":"Feature","properties":{"osm_way_id":"392481818","amenity":"parking"},"geometry":{"type":"MultiPolygon","coordinates":[[[[1.33518,52.91661],[1.33507,52.91643],[1.33518,52.91641],[1.33517,52.91639],[1.3353,52.91637],[1.33537,52.9165],[1.33525,52.91653],[1.33527,52.91656],[1.33529,52.91659],[1.33518,52.91661]]]]}},
{ "type":"Feature","properties":{"osm_way_id":"393274277","amenity":"parking"},"geometry":{"type":"MultiPolygon","coordinates":[[[[1.05981,52.85167],[1.05994,52.85166],[1.06005,52.85149],[1.0602,52.85133],[1.06011,52.85134],[1.06008,52.8513],[1.05985,52.8513],[1.05981,52.85167]]]]}},
{ "type":"Feature","properties":{"osm_way_id":"393280048","name":"Raptor Watchpoint Car Park","amenity":"parking","other":{"operator":"Natural England"}}, "geometry":{"type":"MultiPolygon","coordinates":[[[[0.98174,52.8321],[0.9819,52.83228],[0.98245,52.8321],[0.9823,52.83193],[0.98174,52.8321]]]]}},
{ "type":"Feature","properties":{"osm_way_id":"399067797","amenity":"parking","other":{"access":"private","parking":"surface"}}, "geometry":{"type":"MultiPolygon","coordinates":[[[[1.39585,52.82165],[1.39649,52.82164],[1.39653,52.82178],[1.39626,52.82181],[1.39627,52.82188],[1.39604,52.82189],[1.39604,52.82193],[1.39585,52.82195],[1.39581,52.82179],[1.39589,52.82178],[1.39585,52.82165]]]]}},
{ "type":"Feature","properties":{"osm_way_id":"402593258","amenity":"parking","other":{"fee":"no","parking":"surface"}}, "geometry":{"type":"MultiPolygon","coordinates":[[[[0.98909,52.9541],[0.98902,52.95374],[0.98907,52.95373],[0.98913,52.95378],[0.98922,52.95386],[0.98925,52.9539],[0.98926,52.95395],[0.98925,52.95397],[0.98917,52.95404],[0.98909,52.9541]]]]}},
{ "type":"Feature","properties":{"osm_way_id":"406269503","name":"Walsingham Coach Park","amenity":"parking","other":{"addr:city":"Walsingham","addr:street":"Old Railway Road","parking":"surface","surface":"compacted"}}, "geometry":{"type":"MultiPolygon","coordinates":[[[[0.87009,52.894],[0.87019,52.89413],[0.87034,52.89411],[0.87029,52.89402],[0.87047,52.89397],[0.87033,52.89377],[0.87016,52.89358],[0.87004,52.89346],[0.86973,52.89298],[0.86956,52.893],[0.86983,52.89355],[0.86999,52.89382],[0.87006,52.89396],[0.87009,52.894]]]]}},
{ "type":"Feature","properties":{"osm_way_id":"407471219","amenity":"parking"},"geometry":{"type":"MultiPolygon","coordinates":[[[[0.85025,52.8308],[0.84949,52.8308],[0.84946,52.83093],[0.84856,52.83089],[0.84856,52.83059],[0.84874,52.8306],[0.84875,52.83055],[0.84884,52.83056],[0.84889,52.83059],[0.84954,52.83063],[0.84954,52.83056],[0.84975,52.83058],[0.84977,52.8307],[0.84988,52.8307],[0.84988,52.83064],[0.85024,52.83065],[0.85025,52.8308]]]]}},
{ "type":"Feature","properties":{"osm_way_id":"409072945","amenity":"parking"},"geometry":{"type":"MultiPolygon","coordinates":[[[[0.84852,52.82944],[0.84841,52.82943],[0.84838,52.82945],[0.84814,52.82943],[0.84817,52.82931],[0.84806,52.82928],[0.84805,52.82931],[0.84776,52.82929],[0.84767,52.82927],[0.84774,52.82906],[0.84779,52.82906],[0.84778,52.82903],[0.84758,52.82902],[0.84759,52.82891],[0.84765,52.82891],[0.84765,52.82887],[0.8475,52.82886],[0.84751,52.82873],[0.84775,52.82873],[0.84772,52.82887],[0.8478,52.82891],[0.84809,52.82891],[0.8481,52.82906],[0.84853,52.82907],[0.84852,52.82944]]]]}},
{ "type":"Feature","properties":{"osm_way_id":"409072957","name":"Millers Walk Shopping Centre Car Park","amenity":"parking","other":{"hgv":"no","parking":"surface"}}, "geometry":{"type":"MultiPolygon","coordinates":[[[[0.85117,52.82903],[0.85073,52.82904],[0.85072,52.82911],[0.85056,52.82912],[0.85054,52.82909],[0.85046,52.82908],[0.85039,52.82913],[0.85038,52.82951],[0.85039,52.82993],[0.85065,52.82992],[0.85063,52.82948],[0.85078,52.82948],[0.85079,52.82917],[0.85116,52.82916],[0.85117,52.82903]]]]}},
{ "type":"Feature","properties":{"osm_way_id":"410266282","amenity":"parking"},"geometry":{"type":"MultiPolygon","coordinates":[[[[1.06356,52.84934],[1.06332,52.84917],[1.06332,52.84915],[1.06333,52.84912],[1.06384,52.84911],[1.06379,52.84924],[1.06374,52.84923],[1.0637,52.84936],[1.06356,52.84934]]]]}},
{ "type":"Feature","properties":{"osm_way_id":"415040570","amenity":"parking"},"geometry":{"type":"MultiPolygon","coordinates":[[[[0.84701,52.83152],[0.8471,52.83148],[0.84721,52.83129],[0.84684,52.83124],[0.84673,52.83144],[0.84682,52.83147],[0.84701,52.83152]]]]}},
{ "type":"Feature","properties":{"osm_way_id":"416451638","amenity":"parking"},"geometry":{"type":"MultiPolygon","coordinates":[[[[0.90944,52.85218],[0.90949,52.85228],[0.90967,52.85236],[0.90969,52.85237],[0.90976,52.85232],[0.9098,52.85223],[0.90953,52.85211],[0.90944,52.85218]]]]}},
{ "type":"Feature","properties":{"osm_way_id":"416453696","amenity":"parking"},"geometry":{"type":"MultiPolygon","coordinates":[[[[0.84135,52.82415],[0.84122,52.82411],[0.84122,52.82405],[0.84124,52.82392],[0.84138,52.82386],[0.84138,52.82398],[0.84137,52.82411],[0.84135,52.82415]]]]}},
{ "type":"Feature","properties":{"osm_way_id":"416586786","amenity":"parking"},"geometry":{"type":"MultiPolygon","coordinates":[[[[0.94267,52.88485],[0.94255,52.88471],[0.94254,52.88468],[0.94255,52.88465],[0.94258,52.88461],[0.94263,52.8846],[0.94299,52.88452],[0.94328,52.88446],[0.94336,52.88444],[0.9434,52.8845],[0.94305,52.88461],[0.94314,52.88472],[0.94301,52.88475],[0.94267,52.88485]]]]}},
{ "type":"Feature","properties":{"osm_way_id":"416745893","amenity":"parking"},"geometry":{"type":"MultiPolygon","coordinates":[[[[0.83838,52.83129],[0.83831,52.83125],[0.83831,52.83119],[0.83834,52.83115],[0.83839,52.83114],[0.8385,52.83116],[0.83845,52.83119],[0.8384,52.83125],[0.83839,52.83127],[0.83838,52.83129]]]]}},
{ "type":"Feature","properties":{"osm_way_id":"416745932","amenity":"parking"},"geometry":{"type":"MultiPolygon","coordinates":[[[[0.81431,52.84257],[0.81412,52.84264],[0.81401,52.84277],[0.814,52.84293],[0.81418,52.84296],[0.81429,52.84303],[0.81436,52.84301],[0.81421,52.84287],[0.81436,52.84282],[0.81434,52.8428],[0.8144,52.84276],[0.81443,52.84279],[0.81457,52.84274],[0.81437,52.84256],[0.81431,52.84257]]]]}},
{ "type":"Feature","properties":{"osm_way_id":"416762160","amenity":"parking"},"geometry":{"type":"MultiPolygon","coordinates":[[[[0.94549,52.92035],[0.9455,52.92052],[0.94526,52.92048],[0.94523,52.92047],[0.94518,52.92045],[0.94509,52.92042],[0.94499,52.92039],[0.945,52.92035],[0.94504,52.92034],[0.94522,52.92034],[0.94548,52.9203],[0.94549,52.92031],[0.94549,52.92035]]]]}},
{ "type":"Feature","properties":{"osm_way_id":"416763620","amenity":"parking"},"geometry":{"type":"MultiPolygon","coordinates":[[[[0.9462,52.91915],[0.94628,52.91912],[0.94634,52.91909],[0.94621,52.91871],[0.94617,52.91867],[0.94612,52.91866],[0.94608,52.91867],[0.94594,52.91872],[0.94608,52.919],[0.94614,52.919],[0.9462,52.91915]]]]}},
{ "type":"Feature","properties":{"osm_way_id":"416786884","amenity":"parking"},"geometry":{"type":"MultiPolygon","coordinates":[[[[0.89032,52.8744],[0.89005,52.87431],[0.89007,52.8742],[0.89043,52.87424],[0.89041,52.8743],[0.89038,52.87434],[0.89032,52.8744]]]]}},
{ "type":"Feature","properties":{"osm_way_id":"416786895","amenity":"parking"},"geometry":{"type":"MultiPolygon","coordinates":[[[[0.94699,52.88646],[0.94729,52.88643],[0.94727,52.8862],[0.94723,52.88612],[0.94715,52.8861],[0.94703,52.88611],[0.94685,52.88615],[0.94694,52.88633],[0.94699,52.88646]]]]}},
{ "type":"Feature","properties":{"osm_way_id":"416790781","amenity":"parking"},"geometry":{"type":"MultiPolygon","coordinates":[[[[0.84998,52.8278],[0.84998,52.82685],[0.85086,52.82681],[0.8509,52.82703],[0.85099,52.8271],[0.85105,52.82723],[0.85106,52.82738],[0.85097,52.82787],[0.85052,52.8279],[0.85044,52.82784],[0.85036,52.82776],[0.85032,52.82768],[0.85032,52.82764],[0.85024,52.82765],[0.85018,52.82765],[0.85017,52.82772],[0.8501,52.82778],[0.84998,52.8278]]]]}},
{ "type":"Feature","properties":{"osm_way_id":"422088639","amenity":"parking","other":{"access":"customers"}}, "geometry":{"type":"MultiPolygon","coordinates":[[[[1.38483,52.82072],[1.38508,52.82072],[1.38508,52.82056],[1.38482,52.82057],[1.38483,52.82072]]]]}},
{ "type":"Feature","properties":{"osm_way_id":"422410487","name":"Acacia Car Park","amenity":"parking","other":{"capacity":"223","fee":"Mo-Sa 08:00-20:00","operator":"Dartford Borough Council","parking":"surface"}}, "geometry":{"type":"MultiPolygon","coordinates":[[[[0.22163,51.44196],[0.22164,51.44227],[0.22126,51.44231],[0.22063,51.44236],[0.22065,51.44284],[0.22045,51.44285],[0.22048,51.44324],[0.22071,51.44323],[0.22069,51.44297],[0.22103,51.44294],[0.22111,51.4429],[0.22115,51.44281],[0.22151,51.44277],[0.22145,51.44238],[0.22173,51.44235],[0.22178,51.44236],[0.22181,51.44239],[0.22182,51.44258],[0.22179,51.44258],[0.22188,51.44291],[0.22212,51.44291],[0.22233,51.44291],[0.22241,51.4429],[0.22245,51.44284],[0.22239,51.44284],[0.22232,51.44284],[0.22223,51.44283],[0.22218,51.4428],[0.22215,51.44275],[0.22215,51.44272],[0.22229,51.44272],[0.22251,51.44272],[0.22257,51.4427],[0.22261,51.44261],[0.22263,51.44253],[0.22263,51.44247],[0.22261,51.44218],[0.22203,51.4422],[0.22203,51.44235],[0.22194,51.44232],[0.22198,51.44221],[0.22241,51.44102],[0.22182,51.44095],[0.22162,51.44157],[0.22163,51.44196]]]]}},
{ "type":"Feature","properties":{"osm_way_id":"423201891","amenity":"parking","other":{"access":"customers","parking":"surface","surface":"gravel"}}, "geometry":{"type":"MultiPolygon","coordinates":[[[[1.21989,52.90131],[1.21981,52.90114],[1.22022,52.90107],[1.22027,52.90119],[1.22024,52.90124],[1.21989,52.90131]]]]}},
{ "type":"Feature","properties":{"osm_way_id":"423204750","amenity":"parking","other":{"access":"customers","parking":"surface"}}, "geometry":{"type":"MultiPolygon","coordinates":[[[[1.22347,52.89965],[1.22389,52.8995],[1.22377,52.89936],[1.22338,52.89946],[1.22347,52.89965]]]]}},
{ "type":"Feature","properties":{"osm_way_id":"430213373","amenity":"parking","other":{"access":"customers","fee":"no","surface":"asphalt"}}, "geometry":{"type":"MultiPolygon","coordinates":[[[[1.01753,52.89511],[1.01764,52.89499],[1.01777,52.89501],[1.01806,52.89507],[1.01806,52.89513],[1.01804,52.89521],[1.01753,52.89511]]]]}},
{ "type":"Feature","properties":{"osm_way_id":"435604237","amenity":"parking"},"geometry":{"type":"MultiPolygon","coordinates":[[[[0.84752,52.82733],[0.8476,52.82714],[0.84745,52.82712],[0.84722,52.82709],[0.84718,52.82715],[0.84717,52.82724],[0.84716,52.82725],[0.84735,52.82729],[0.84741,52.8273],[0.84752,52.82733]]]]}},
{ "type":"Feature","properties":{"osm_way_id":"437410423","amenity":"parking","other":{"access":"customers","parking":"surface","surface":"grass"}}, "geometry":{"type":"MultiPolygon","coordinates":[[[[0.98052,52.81026],[0.98028,52.81035],[0.98,52.81041],[0.98016,52.81104],[0.98075,52.81108],[0.98066,52.81079],[0.98057,52.81051],[0.98052,52.81026]]]]}},
{ "type":"Feature","properties":{"osm_way_id":"437410424","amenity":"parking","other":{"access":"yes","fee":"no","parking":"surface","surface":"gravel"}}, "geometry":{"type":"MultiPolygon","coordinates":[[[[0.98052,52.81026],[0.98057,52.81051],[0.98077,52.81049],[0.98077,52.81047],[0.98074,52.81045],[0.98074,52.81044],[0.98095,52.81039],[0.98098,52.81012],[0.98052,52.81026]]]]}},
{ "type":"Feature","properties":{"osm_way_id":"447726837","amenity":"parking","other":{"access":"permissive","fee":"yes","operator":"Norfolk Wildlife Trust","parking":"surface","surface":"unpaved"}}, "geometry":{"type":"MultiPolygon","coordinates":[[[[1.04878,52.96512],[1.04877,52.9653],[1.04866,52.96535],[1.04864,52.96537],[1.04844,52.96541],[1.04817,52.9654],[1.04791,52.96539],[1.04774,52.96538],[1.04754,52.96517],[1.04766,52.96515],[1.04878,52.96512]]]]}},
{ "type":"Feature","properties":{"osm_way_id":"453044251","name":"Co-op","amenity":"parking","other":{"access":"customers","fee":"yes","parking":"surface"}}, "geometry":{"type":"MultiPolygon","coordinates":[[[[1.29991,52.93201],[1.30023,52.93192],[1.30008,52.93168],[1.29969,52.9318],[1.2998,52.93189],[1.29985,52.93188],[1.29988,52.93191],[1.29991,52.93201]]]]}},
{ "type":"Feature","properties":{"osm_way_id":"467627064","amenity":"parking"},"geometry":{"type":"MultiPolygon","coordinates":[[[[1.34026,52.92022],[1.34172,52.91984],[1.3411,52.91964],[1.34094,52.91978],[1.34045,52.91965],[1.34034,52.91978],[1.34026,52.92022]]]]}},
{ "type":"Feature","properties":{"osm_way_id":"474012098","amenity":"parking"},"geometry":{"type":"MultiPolygon","coordinates":[[[[1.57134,52.72054],[1.57089,52.72048],[1.57097,52.72025],[1.57099,52.72021],[1.57105,52.72021],[1.57111,52.72004],[1.57129,52.72007],[1.57135,52.72008],[1.57123,52.72041],[1.57139,52.72043],[1.57134,52.72054]]]]}},
{ "type":"Feature","properties":{"osm_way_id":"474013894","amenity":"parking"},"geometry":{"type":"MultiPolygon","coordinates":[[[[1.35799,52.78613],[1.35829,52.78617],[1.35835,52.78621],[1.3583,52.78636],[1.35814,52.78645],[1.35791,52.78643],[1.35794,52.7863],[1.35799,52.78613]]]]}},
{ "type":"Feature","properties":{"osm_way_id":"475462406","amenity":"parking","other":{"parking":"surface"}}, "geometry":{"type":"MultiPolygon","coordinates":[[[[1.02025,52.95307],[1.02063,52.95287],[1.02068,52.95284],[1.02089,52.95293],[1.02075,52.95306],[1.02101,52.95316],[1.02085,52.95331],[1.02043,52.95315],[1.02025,52.95307]]]]}},
{ "type":"Feature","properties":{"osm_way_id":"475620774","amenity":"parking"},"geometry":{"type":"MultiPolygon","coordinates":[[[[1.53027,52.82397],[1.53014,52.82426],[1.52982,52.8242],[1.52971,52.82418],[1.52945,52.82416],[1.52958,52.82385],[1.53027,52.82397]]]]}},
{ "type":"Feature","properties":{"osm_way_id":"475628842","amenity":"parking","other":{"access":"customers","surface":"gravel"}}, "geometry":{"type":"MultiPolygon","coordinates":[[[[1.33856,52.90401],[1.33869,52.90402],[1.33871,52.90381],[1.33847,52.9038],[1.33846,52.90388],[1.33835,52.90388],[1.33835,52.90392],[1.33857,52.90393],[1.33856,52.90401]]]]}},
{ "type":"Feature","properties":{"osm_way_id":"477109513","amenity":"parking","other":{"parking":"surface"}}, "geometry":{"type":"MultiPolygon","coordinates":[[[[0.85592,52.95263],[0.85603,52.95266],[0.85626,52.95267],[0.85629,52.95243],[0.85681,52.95245],[0.85683,52.95219],[0.85644,52.9522],[0.85632,52.9522],[0.85625,52.9522],[0.85619,52.95222],[0.85593,52.95261],[0.85592,52.95263]]]]}},
{ "type":"Feature","properties":{"osm_way_id":"481820617","amenity":"parking","other":{"parking":"surface"}}, "geometry":{"type":"MultiPolygon","coordinates":[[[[1.5428,52.7995],[1.54262,52.79953],[1.5427,52.79967],[1.54276,52.79967],[1.54276,52.79971],[1.54291,52.79969],[1.5428,52.7995]]]]}},
{ "type":"Feature","properties":{"osm_way_id":"503019504","amenity":"parking","other":{"parking":"surface"}}, "geometry":{"type":"MultiPolygon","coordinates":[[[[1.25302,52.91158],[1.25286,52.91148],[1.25276,52.91127],[1.25295,52.91123],[1.25315,52.91152],[1.25302,52.91158]]]]}},
{ "type":"Feature","properties":{"osm_way_id":"511725176","amenity":"parking","other":{"parking":"surface"}}, "geometry":{"type":"MultiPolygon","coordinates":[[[[1.31838,52.9221],[1.31859,52.92202],[1.3184,52.92183],[1.31819,52.92191],[1.31838,52.9221]]]]}},
{ "type":"Feature","properties":{"osm_way_id":"513161615","amenity":"parking","other":{"access":"customers","operator":"Poachers Pocket","park_ride":"no"}}, "geometry":{"type":"MultiPolygon","coordinates":[[[[1.4949,52.84513],[1.49461,52.84513],[1.49455,52.84535],[1.49531,52.84504],[1.49539,52.84473],[1.49475,52.84483],[1.49475,52.845],[1.49492,52.845],[1.4949,52.84513]]]]}},
{ "type":"Feature","properties":{"osm_way_id":"513161638","amenity":"parking","other":{"capacity":"9","fee":"no","parking":"street_side"}}, "geometry":{"type":"MultiPolygon","coordinates":[[[[1.50219,52.84215],[1.50171,52.84238],[1.50205,52.84208],[1.50219,52.84215]]]]}},
{ "type":"Feature","properties":{"osm_way_id":"513163638","amenity":"parking"},"geometry":{"type":"MultiPolygon","coordinates":[[[[1.50029,52.84286],[1.5,52.84256],[1.50027,52.84248],[1.50043,52.8428],[1.50029,52.84286]]]]}},
{ "type":"Feature","properties":{"osm_way_id":"513163640","amenity":"parking","other":{"access":"customers","fee":"no","parking":"surface"}}, "geometry":{"type":"MultiPolygon","coordinates":[[[[1.5009,52.84248],[1.501,52.84256],[1.50127,52.84244],[1.5012,52.84235],[1.5009,52.84248]]]]}},
{ "type":"Feature","properties":{"osm_way_id":"513323373","amenity":"parking","other":{"access":"customers"}}, "geometry":{"type":"MultiPolygon","coordinates":[[[[1.49394,52.84546],[1.49396,52.84528],[1.49413,52.84528],[1.49414,52.84517],[1.49438,52.84515],[1.49442,52.84488],[1.49456,52.84486],[1.49445,52.84527],[1.49438,52.84536],[1.49428,52.84542],[1.49413,52.84543],[1.49413,52.84546],[1.49394,52.84546]]]]}},
{ "type":"Feature","properties":{"osm_way_id":"513976503","amenity":"parking","other":{"access":"private","parking":"surface","wheelchair":"limited"}}, "geometry":{"type":"MultiPolygon","coordinates":[[[[1.56775,52.74699],[1.56849,52.74685],[1.56847,52.74679],[1.56842,52.74678],[1.56843,52.74668],[1.56829,52.74665],[1.56817,52.74656],[1.56807,52.74662],[1.56802,52.74665],[1.56803,52.74666],[1.56759,52.74687],[1.56755,52.74687],[1.5675,52.74691],[1.56742,52.74697],[1.56752,52.74698],[1.56763,52.74694],[1.56767,52.74698],[1.56773,52.74696],[1.56775,52.74699]]]]}},
{ "type":"Feature","properties":{"osm_way_id":"514241403","amenity":"parking","other":{"access":"customers","parking":"surface"}}, "geometry":{"type":"MultiPolygon","coordinates":[[[[1.57996,52.71111],[1.58084,52.71167],[1.58107,52.71152],[1.5815,52.7111],[1.58124,52.71094],[1.58052,52.71132],[1.57981,52.71084],[1.57973,52.71088],[1.58003,52.71107],[1.57996,52.71111]]]]}},
{ "type":"Feature","properties":{"osm_way_id":"514241421","amenity":"parking","other":{"parking":"surface"}}, "geometry":{"type":"MultiPolygon","coordinates":[[[[1.57939,52.70965],[1.58001,52.71001],[1.57994,52.71005],[1.57984,52.71],[1.57978,52.71004],[1.57949,52.71023],[1.57946,52.71022],[1.57913,52.71044],[1.57884,52.71022],[1.57903,52.7101],[1.57886,52.71],[1.57939,52.70965]]]]}},
{ "type":"Feature","properties":{"osm_way_id":"514241423","amenity":"parking","other":{"parking":"surface"}}, "geometry":{"type":"MultiPolygon","coordinates":[[[[1.57946,52.71022],[1.57949,52.71023],[1.57978,52.71004],[1.58005,52.71021],[1.58002,52.71023],[1.58012,52.71031],[1.57946,52.7107],[1.57907,52.71095],[1.57899,52.71092],[1.57844,52.71125],[1.57815,52.71111],[1.57913,52.71044],[1.57946,52.71022]]]]}},
{ "type":"Feature","properties":{"osm_way_id":"516783874","amenity":"parking","other":{"fee":"no","parking":"surface","surface":"ground"}}, "geometry":{"type":"MultiPolygon","coordinates":[[[[1.48394,52.69651],[1.48418,52.69646],[1.48402,52.69623],[1.48376,52.69625],[1.48394,52.69651]]]]}},
{ "type":"Feature","properties":{"osm_way_id":"518537151","amenity":"parking","other":{"capacity:disabled":"yes","parking":"surface"}}, "geometry":{"type":"MultiPolygon","coordinates":[[[[0.87455,52.89104],[0.87445,52.891],[0.8745,52.89098],[0.87459,52.89096],[0.87464,52.891],[0.87455,52.89104]]]]}},
{ "type":"Feature","properties":{"osm_way_id":"518550349","amenity":"parking","other":{"access":"customers"}}, "geometry":{"type":"MultiPolygon","coordinates":[[[[0.88726,52.82453],[0.88683,52.82477],[0.88697,52.82549],[0.88785,52.82538],[0.88874,52.82534],[0.88862,52.82481],[0.88851,52.82481],[0.88836,52.82479],[0.88821,52.82478],[0.88805,52.82476],[0.88789,52.82473],[0.88775,52.8247],[0.88757,52.82466],[0.88726,52.82453]]]]}},
{ "type":"Feature","properties":{"osm_way_id":"518633526","amenity":"parking","other":{"access":"yes","fee":"no","surface":"gravel"}}, "geometry":{"type":"MultiPolygon","coordinates":[[[[1.02711,52.82347],[1.02716,52.82322],[1.02725,52.82321],[1.02728,52.82311],[1.02742,52.82316],[1.02748,52.82311],[1.02751,52.82311],[1.02757,52.82315],[1.02753,52.8232],[1.02734,52.82349],[1.02721,52.82348],[1.02711,52.82347]]]]}},
{ "type":"Feature","properties":{"osm_way_id":"519025511","amenity":"parking","other":{"fee":"no","parking":"surface"}}, "geometry":{"type":"MultiPolygon","coordinates":[[[[1.43292,52.88017],[1.43332,52.88011],[1.43327,52.87986],[1.43324,52.87983],[1.43316,52.87981],[1.43297,52.8798],[1.4328,52.8798],[1.43292,52.88017]]]]}},
{ "type":"Feature","properties":{"osm_way_id":"519123011","amenity":"parking","other":{"access":"customers","fee":"no","parking":"surface"}}, "geometry":{"type":"MultiPolygon","coordinates":[[[[1.57246,52.7506],[1.57257,52.75056],[1.57309,52.7505],[1.57303,52.75032],[1.57295,52.75033],[1.57269,52.75037],[1.57235,52.75047],[1.57246,52.7506]]]]}},
{ "type":"Feature","properties":{"osm_way_id":"522427095","amenity":"parking","other":{"fee":"no","parking":"surface"}}, "geometry":{"type":"MultiPolygon","coordinates":[[[[1.32969,52.91786],[1.32964,52.91776],[1.32993,52.91771],[1.33002,52.91791],[1.32987,52.91794],[1.32983,52.91784],[1.32969,52.91786]]]]}},
{ "type":"Feature","properties":{"osm_way_id":"522427096","amenity":"parking","other":{"fee":"no","parking":"surface"}}, "geometry":{"type":"MultiPolygon","coordinates":[[[[1.33042,52.91728],[1.33032,52.91712],[1.33045,52.91708],[1.33054,52.91726],[1.33042,52.91728]]]]}},
{ "type":"Feature","properties":{"osm_way_id":"529032478","amenity":"parking","other":{"fee":"no","parking":"surface"}}, "geometry":{"type":"MultiPolygon","coordinates":[[[[1.33361,52.86872],[1.33394,52.86867],[1.33377,52.86847],[1.33353,52.86853],[1.33361,52.86872]]]]}},
{ "type":"Feature","properties":{"osm_way_id":"530760665","amenity":"parking","other":{"parking":"surface"}}, "geometry":{"type":"MultiPolygon","coordinates":[[[[0.89752,52.93707],[0.89752,52.93734],[0.89744,52.93735],[0.897,52.93742],[0.89671,52.93745],[0.89665,52.93708],[0.89752,52.93707]]]]}},
{ "type":"Feature","properties":{"osm_way_id":"532913859","amenity":"parking","other":{"access":"customers"}}, "geometry":{"type":"MultiPolygon","coordinates":[[[[1.34433,52.91767],[1.34435,52.91786],[1.34447,52.91792],[1.34461,52.91795],[1.34477,52.91789],[1.34469,52.91759],[1.34468,52.91753],[1.3443,52.91758],[1.34433,52.91767]]]]}},
{ "type":"Feature","properties":{"osm_way_id":"532913865","amenity":"parking","other":{"surface":"gravel"}}, "geometry":{"type":"MultiPolygon","coordinates":[[[[1.32785,52.91283],[1.32811,52.91276],[1.32836,52.91278],[1.32841,52.91299],[1.32825,52.91307],[1.32796,52.91312],[1.32785,52.91283]]]]}},
{ "type":"Feature","properties":{"osm_way_id":"532913869","amenity":"parking","other":{"surface":"gravel"}}, "geometry":{"type":"MultiPolygon","coordinates":[[[[1.32686,52.91299],[1.32675,52.91278],[1.32702,52.91274],[1.3271,52.91299],[1.32721,52.91299],[1.3273,52.91318],[1.32732,52.91323],[1.32733,52.91327],[1.32709,52.91328],[1.32701,52.91321],[1.32698,52.91313],[1.32693,52.9131],[1.32686,52.91299]]]]}},
{ "type":"Feature","properties":{"osm_way_id":"540062830","amenity":"parking","other":{"surface":"concrete"}}, "geometry":{"type":"MultiPolygon","coordinates":[[[[1.6455,52.74622],[1.64502,52.74631],[1.64511,52.74647],[1.64559,52.74637],[1.6455,52.74622]]]]}},
{ "type":"Feature","properties":{"osm_way_id":"540062832","amenity":"parking","other":{"access":"customers","parking":"surface","surface":"gravel"}}, "geometry":{"type":"MultiPolygon","coordinates":[[[[1.64623,52.74666],[1.64622,52.74653],[1.646,52.74654],[1.64602,52.74667],[1.64623,52.74666]]]]}},
{ "type":"Feature","properties":{"osm_way_id":"545716390","amenity":"parking","other":{"parking":"surface"}}, "geometry":{"type":"MultiPolygon","coordinates":[[[[0.83794,52.95481],[0.83768,52.95481],[0.83768,52.95475],[0.83794,52.95476],[0.83794,52.95481]]]]}},
{ "type":"Feature","properties":{"osm_way_id":"545787911","amenity":"parking","other":{"parking":"surface"}}, "geometry":{"type":"MultiPolygon","coordinates":[[[[0.83764,52.95481],[0.83738,52.9548],[0.83739,52.95473],[0.83747,52.95473],[0.83747,52.95459],[0.83765,52.9546],[0.83764,52.95481]]]]}},
{ "type":"Feature","properties":{"osm_way_id":"545787913","amenity":"parking","other":{"parking":"surface"}}, "geometry":{"type":"MultiPolygon","coordinates":[[[[0.83819,52.95481],[0.83819,52.95471],[0.83846,52.95471],[0.83846,52.95481],[0.83819,52.95481]]]]}},
{ "type":"Feature","properties":{"osm_way_id":"561641337","amenity":"parking"},"geometry":{"type":"MultiPolygon","coordinates":[[[[1.47776,52.84976],[1.47777,52.84973],[1.47785,52.8495],[1.47822,52.84954],[1.47812,52.84981],[1.47776,52.84976]]]]}},
{ "type":"Feature","properties":{"osm_way_id":"561643767","amenity":"parking"},"geometry":{"type":"MultiPolygon","coordinates":[[[[1.02319,52.8238],[1.02293,52.82376],[1.02287,52.82375],[1.02289,52.82371],[1.02284,52.82371],[1.02285,52.8237],[1.02283,52.8237],[1.02294,52.82345],[1.02304,52.82347],[1.02309,52.82349],[1.02312,52.82352],[1.02315,52.82356],[1.02316,52.82361],[1.02318,52.82376],[1.02319,52.8238]]]]}},
{ "type":"Feature","properties":{"osm_way_id":"563893871","amenity":"parking"},"geometry":{"type":"MultiPolygon","coordinates":[[[[1.1393,52.94419],[1.13954,52.94424],[1.13957,52.94423],[1.13964,52.944],[1.13955,52.94397],[1.1395,52.94391],[1.13948,52.94389],[1.13942,52.94389],[1.13938,52.94388],[1.13924,52.94386],[1.13921,52.94392],[1.13941,52.94395],[1.1393,52.94419]]]]}},
{ "type":"Feature","properties":{"osm_way_id":"564042453","amenity":"parking","other":{"parking":"surface","surface":"asphalt"}}, "geometry":{"type":"MultiPolygon","coordinates":[[[[1.5768,52.76119],[1.57681,52.76111],[1.57695,52.76112],[1.57694,52.76117],[1.5768,52.76119]]]]}},
{ "type":"Feature","properties":{"osm_way_id":"564961678","amenity":"parking","other":{"access":"customers","parking":"surface"}}, "geometry":{"type":"MultiPolygon","coordinates":[[[[1.28785,52.92743],[1.28843,52.92723],[1.28809,52.92689],[1.28786,52.92668],[1.28773,52.9267],[1.28725,52.92692],[1.28747,52.92714],[1.28755,52.92711],[1.28785,52.92743]]]]}},
{ "type":"Feature","properties":{"osm_way_id":"569904443","amenity":"parking"},"geometry":{"type":"MultiPolygon","coordinates":[[[[1.56949,52.75377],[1.56947,52.75373],[1.5695,52.75371],[1.56957,52.75369],[1.56963,52.75368],[1.56965,52.75367],[1.56966,52.75365],[1.56965,52.75355],[1.56965,52.75348],[1.56964,52.75346],[1.56962,52.75345],[1.56958,52.75344],[1.56953,52.75344],[1.5692,52.75354],[1.56931,52.75363],[1.56949,52.75377]]]]}},
{ "type":"Feature","properties":{"osm_way_id":"575488987","amenity":"parking","other":{"parking":"surface"}}, "geometry":{"type":"MultiPolygon","coordinates":[[[[1.51565,52.7713],[1.51551,52.77132],[1.51552,52.77134],[1.51541,52.77136],[1.51548,52.77152],[1.51555,52.77151],[1.51565,52.77149],[1.51564,52.77148],[1.51572,52.77147],[1.51565,52.7713]]]]}},
{ "type":"Feature","properties":{"osm_way_id":"585193033","name":"Gunton Arms Car Park","amenity":"parking","other":{"access":"customers","fee":"no","smoothness":"good","surface":"compacted"}}, "geometry":{"type":"MultiPolygon","coordinates":[[[[1.33103,52.85845],[1.33106,52.85859],[1.33101,52.85882],[1.33078,52.8591],[1.33098,52.85927],[1.33141,52.85927],[1.33172,52.85904],[1.3317,52.85877],[1.33177,52.85849],[1.33178,52.85847],[1.33103,52.85845]]]]}},
{ "type":"Feature","properties":{"osm_way_id":"590805740","amenity":"parking"},"geometry":{"type":"MultiPolygon","coordinates":[[[[0.85203,52.95301],[0.85187,52.95347],[0.85182,52.95347],[0.8518,52.95304],[0.85178,52.95299],[0.85183,52.95299],[0.85203,52.95301]]]]}},
{ "type":"Feature","properties":{"osm_way_id":"591403983","amenity":"parking"},"geometry":{"type":"MultiPolygon","coordinates":[[[[1.52598,52.82572],[1.52596,52.82538],[1.52632,52.82531],[1.52637,52.82537],[1.52648,52.82551],[1.52653,52.8255],[1.52656,52.82554],[1.52654,52.82557],[1.52651,52.82559],[1.52598,52.82572]]]]}},
{ "type":"Feature","properties":{"osm_way_id":"591741711","amenity":"parking"},"geometry":{"type":"MultiPolygon","coordinates":[[[[1.50917,52.83718],[1.50909,52.83696],[1.5092,52.83695],[1.50932,52.83693],[1.50939,52.83714],[1.50917,52.83718]]]]}},
{ "type":"Feature","properties":{"osm_way_id":"595807253","amenity":"parking","other":{"fee":"no","parking":"surface"}}, "geometry":{"type":"MultiPolygon","coordinates":[[[[1.54805,52.79872],[1.5483,52.79871],[1.54826,52.79849],[1.54802,52.79851],[1.54805,52.79872]]]]}},
{ "type":"Feature","properties":{"osm_way_id":"601093212","name":"Clink Lane Car Park","amenity":"parking","other":{"access":"yes","fee":"yes","fee:conditional":"no @ Mo-Su 18:00-06:00","opening_hours":"24\/7","park_ride":"no","parking":"surface","smoothness":"bad","supervised":"no","surface":"grass","website":"https:\/\/www.north-norfolk.gov.uk\/tasks\/your-community\/view-car-park-charges-inc-coaches\/"}}, "geometry":{"type":"MultiPolygon","coordinates":[[[[1.59877,52.79131],[1.59799,52.79048],[1.59993,52.7898],[1.60025,52.78969],[1.60078,52.7903],[1.60056,52.79041],[1.60059,52.79044],[1.59971,52.79095],[1.59896,52.79127],[1.59877,52.79131]]]]}},
{ "type":"Feature","properties":{"osm_way_id":"604045094","amenity":"parking","other":{"access":"yes","fee":"no","operator":"Council","parking":"surface"}}, "geometry":{"type":"MultiPolygon","coordinates":[[[[1.43017,52.88156],[1.43047,52.88171],[1.43051,52.88175],[1.43052,52.8818],[1.43051,52.88184],[1.43047,52.88188],[1.43037,52.88194],[1.43029,52.88197],[1.43019,52.88199],[1.43013,52.88199],[1.43007,52.88197],[1.43008,52.88178],[1.43011,52.88161],[1.43013,52.88159],[1.43017,52.88156]]]]}},
{ "type":"Feature","properties":{"osm_way_id":"610024372","amenity":"parking","other":{"fee":"dawn-dusk","opening_hours":"24\/7","parking":"surface","surface":"paving_stones"}}, "geometry":{"type":"MultiPolygon","coordinates":[[[[1.53737,52.82222],[1.53731,52.82268],[1.53747,52.82268],[1.5375,52.82241],[1.53744,52.82241],[1.53746,52.82222],[1.53737,52.82222]]]]}},
{ "type":"Feature","properties":{"osm_way_id":"626031600","name":"Wells Town Car Park","amenity":"parking","other":{"fee":"yes","parking":"surface","surface":"asphalt"}}, "geometry":{"type":"MultiPolygon","coordinates":[[[[0.845,52.95856],[0.84478,52.95899],[0.84508,52.95904],[0.84514,52.9589],[0.84517,52.95891],[0.84519,52.95895],[0.84528,52.95894],[0.84524,52.95885],[0.84533,52.95865],[0.84569,52.95869],[0.84589,52.95871],[0.84629,52.95873],[0.84629,52.95883],[0.8464,52.95882],[0.84641,52.95888],[0.84673,52.95887],[0.84695,52.95884],[0.84717,52.95882],[0.84714,52.95876],[0.84727,52.95862],[0.84723,52.95854],[0.8472,52.95847],[0.84671,52.95854],[0.84635,52.95856],[0.84602,52.95855],[0.84574,52.95853],[0.8454,52.95848],[0.84495,52.95839],[0.84493,52.95842],[0.84492,52.95845],[0.84496,52.95848],[0.84499,52.95851],[0.845,52.95856]]]]}},
{ "type":"Feature","properties":{"osm_way_id":"626034721","amenity":"parking"},"geometry":{"type":"MultiPolygon","coordinates":[[[[0.81408,52.95938],[0.81407,52.95968],[0.81445,52.95968],[0.81445,52.95942],[0.81445,52.95938],[0.81408,52.95938]]]]}},
{ "type":"Feature","properties":{"osm_way_id":"633460036","amenity":"parking"},"geometry":{"type":"MultiPolygon","coordinates":[[[[1.31228,52.92532],[1.31216,52.92522],[1.31264,52.92501],[1.31271,52.92505],[1.31277,52.92509],[1.31228,52.92532]]]]}},
{ "type":"Feature","properties":{"osm_way_id":"633460037","amenity":"parking"},"geometry":{"type":"MultiPolygon","coordinates":[[[[1.31293,52.92511],[1.31287,52.92507],[1.3128,52.92502],[1.31323,52.92486],[1.31334,52.92496],[1.31293,52.92511]]]]}},
{ "type":"Feature","properties":{"osm_way_id":"633460038","amenity":"parking"},"geometry":{"type":"MultiPolygon","coordinates":[[[[1.31239,52.92591],[1.31244,52.92585],[1.31248,52.9258],[1.31289,52.92592],[1.31289,52.92607],[1.31239,52.92591]]]]}},
{ "type":"Feature","properties":{"osm_way_id":"633460042","amenity":"parking"},"geometry":{"type":"MultiPolygon","coordinates":[[[[1.31335,52.92556],[1.31345,52.92567],[1.31378,52.92556],[1.31367,52.92545],[1.31338,52.92555],[1.31335,52.92556]]]]}},
{ "type":"Feature","properties":{"osm_way_id":"633460044","amenity":"parking"},"geometry":{"type":"MultiPolygon","coordinates":[[[[1.31198,52.92438],[1.31253,52.92417],[1.31239,52.92404],[1.31185,52.92426],[1.31191,52.92432],[1.31198,52.92438]]]]}},
{ "type":"Feature","properties":{"osm_way_id":"642974188","amenity":"parking","other":{"access":"customers","fee":"no","lit":"partially","operator":"Manor Hotel","parking":"surface","supervised":"no","surface":"pebblestone"}}, "geometry":{"type":"MultiPolygon","coordinates":[[[[1.43661,52.8789],[1.43637,52.87867],[1.43647,52.87862],[1.43681,52.87878],[1.43661,52.8789]]]]}},
{ "type":"Feature","properties":{"osm_way_id":"660105247","name":"Wiveton Downs","amenity":"parking"},"geometry":{"type":"MultiPolygon","coordinates":[[[[1.0216,52.93857],[1.02153,52.93841],[1.02106,52.93857],[1.02092,52.93871],[1.02105,52.93875],[1.0216,52.93857]]]]}},
{ "type":"Feature","properties":{"osm_way_id":"665900472","amenity":"parking","other":{"parking":"surface"}}, "geometry":{"type":"MultiPolygon","coordinates":[[[[1.42065,52.85325],[1.42033,52.85258],[1.42058,52.85255],[1.42074,52.85281],[1.42086,52.8528],[1.42107,52.85312],[1.42079,52.85317],[1.42081,52.85322],[1.42065,52.85325]]]]}},
{ "type":"Feature","properties":{"osm_way_id":"672508549","amenity":"parking","other":{"parking":"surface"}}, "geometry":{"type":"MultiPolygon","coordinates":[[[[1.29363,52.933],[1.29357,52.93271],[1.29444,52.93265],[1.2945,52.93294],[1.29363,52.933]]]]}},
{ "type":"Feature","properties":{"osm_way_id":"686940539","amenity":"parking","other":{"fee":"no","parking":"surface","surface":"grass"}}, "geometry":{"type":"MultiPolygon","coordinates":[[[[1.18213,52.83288],[1.1824,52.8329],[1.18241,52.83283],[1.18214,52.83282],[1.18213,52.83288]]]]}},
{ "type":"Feature","properties":{"osm_way_id":"706353290","amenity":"parking","other":{"access":"customers","fee":"yes","parking":"surface","payment:cash":"yes"}}, "geometry":{"type":"MultiPolygon","coordinates":[[[[1.25035,52.94119],[1.25016,52.94135],[1.24943,52.94117],[1.24955,52.94096],[1.25009,52.94108],[1.25016,52.94114],[1.25035,52.94119]]]]}},
{ "type":"Feature","properties":{"osm_way_id":"754096694","amenity":"parking","other":{"access":"customers","addr:city":"Newport","addr:housename":"St Lukes","addr:postcode":"NP20 4AT","addr:street":"Bridge Street","capacity":"44","opening_hours":"24\/7","operator":"NCP","operator:type":"private","parking":"surface","surface":"asphalt","website":"https:\/\/www.ncp.co.uk\/find-a-car-park\/car-parks\/newport-st-lukes\/"}}, "geometry":{"type":"MultiPolygon","coordinates":[[[[-2.99996,51.58803],[-2.99968,51.58807],[-2.99961,51.58791],[-2.9995,51.58793],[-2.99947,51.58783],[-2.99949,51.58783],[-2.99944,51.5877],[-2.99968,51.58766],[-2.99985,51.58763],[-2.99985,51.58764],[-2.99986,51.58766],[-2.99989,51.58777],[-2.99994,51.58792],[-2.99992,51.58793],[-2.99996,51.58803]]]]}},
{ "type":"Feature","properties":{"osm_way_id":"766177319","amenity":"parking","other":{"access":"customers","description":"Surgery car park.","parking":"surface"}}, "geometry":{"type":"MultiPolygon","coordinates":[[[[1.51851,52.77082],[1.5184,52.77072],[1.51833,52.77061],[1.51862,52.77054],[1.51857,52.77045],[1.51855,52.77046],[1.51849,52.77036],[1.51862,52.77033],[1.5187,52.77031],[1.5188,52.77033],[1.51882,52.77036],[1.51897,52.77032],[1.51901,52.77037],[1.5191,52.77035],[1.51931,52.77067],[1.51917,52.7707],[1.519,52.77046],[1.51886,52.77049],[1.5189,52.77056],[1.51855,52.77065],[1.51864,52.77079],[1.51851,52.77082]]]]}},
{ "type":"Feature","properties":{"osm_way_id":"766177320","amenity":"parking","other":{"access":"private","parking":"surface"}}, "geometry":{"type":"MultiPolygon","coordinates":[[[[1.51833,52.77061],[1.51862,52.77054],[1.51857,52.77045],[1.51855,52.77046],[1.51827,52.77052],[1.51833,52.77061]]]]}},
{ "type":"Feature","properties":{"osm_way_id":"766293903","amenity":"parking","other":{"access":"customers","description":"Free Car Park for High street Customers.","fee":"no","surface":"ground"}}, "geometry":{"type":"MultiPolygon","coordinates":[[[[1.51469,52.77158],[1.51503,52.77152],[1.51495,52.77136],[1.51462,52.77143],[1.51469,52.77158]]]]}},
{ "type":"Feature","properties":{"osm_way_id":"776584665","name":"Portland Gates Car Park","amenity":"parking","other":{"access":"yes","operator":"NCP"}}, "geometry":{"type":"MultiPolygon","coordinates":[[[[-2.07276,51.90416],[-2.07243,51.90414],[-2.07291,51.90348],[-2.07317,51.90356],[-2.07276,51.90416]]]]}},
{ "type":"Feature","properties":{"osm_way_id":"779976825","amenity":"parking"},"geometry":{"type":"MultiPolygon","coordinates":[[[[1.31741,52.92269],[1.31738,52.92262],[1.31775,52.92254],[1.31779,52.9226],[1.31791,52.92258],[1.31797,52.92256],[1.31781,52.92239],[1.31752,52.92209],[1.31689,52.92226],[1.31696,52.92238],[1.31731,52.92232],[1.31738,52.92252],[1.31734,52.92256],[1.3172,52.92259],[1.31714,52.9226],[1.31714,52.92264],[1.31718,52.92268],[1.3173,52.92271],[1.31741,52.92269]]]]}},
{ "type":"Feature","properties":{"osm_way_id":"817117799","amenity":"parking","other":{"parking":"surface"}}, "geometry":{"type":"MultiPolygon","coordinates":[[[[-0.89181,53.23171],[-0.89145,53.23179],[-0.89138,53.23167],[-0.89153,53.23164],[-0.89158,53.23163],[-0.89164,53.23162],[-0.89174,53.2316],[-0.89178,53.23167],[-0.89181,53.23171]]]]}},
{ "type":"Feature","properties":{"osm_way_id":"835716682","amenity":"parking","other":{"access":"yes","charge":"£1.50 per hour","fee":"yes","opening_hours":"Mo-Su 08:00-18:00","operator":"North Norfolk District Council","operator:type":"government","parking":"surface","payment:cash":"yes","payment:credit_cards":"yes","surface":"unpaved"}}, "geometry":{"type":"MultiPolygon","coordinates":[[[[1.27282,52.93653],[1.27329,52.9364],[1.27346,52.93635],[1.27423,52.93632],[1.27454,52.93691],[1.27443,52.93691],[1.27443,52.93695],[1.27426,52.93693],[1.27421,52.937],[1.27403,52.93694],[1.27368,52.93684],[1.27363,52.93684],[1.27357,52.93684],[1.2735,52.93683],[1.2731,52.93676],[1.273,52.93672],[1.27288,52.93659],[1.27282,52.93653]]]]}},
{ "type":"Feature","properties":{"osm_way_id":"839834110","amenity":"parking","other":{"access":"yes","operator:type":"public","parking":"surface","surface":"asphalt"}}, "geometry":{"type":"MultiPolygon","coordinates":[[[[1.08708,52.90553],[1.08701,52.90549],[1.08693,52.90545],[1.08686,52.9054],[1.08679,52.90543],[1.08666,52.90541],[1.08658,52.90544],[1.08658,52.90547],[1.08673,52.90548],[1.08679,52.90549],[1.08682,52.90549],[1.08715,52.90557],[1.08708,52.90553]]]]}},
{ "type":"Feature","properties":{"osm_way_id":"840330191","amenity":"parking"},"geometry":{"type":"MultiPolygon","coordinates":[[[[1.42694,52.88129],[1.42684,52.8812],[1.42713,52.88112],[1.42718,52.88116],[1.42694,52.88129]]]]}},
{ "type":"Feature","properties":{"osm_way_id":"844055430","amenity":"parking","other":{"access":"customers","parking":"surface"}}, "geometry":{"type":"MultiPolygon","coordinates":[[[[1.11458,52.92814],[1.11524,52.9284],[1.11536,52.92822],[1.1155,52.92795],[1.11507,52.9278],[1.11522,52.92769],[1.11549,52.92762],[1.11537,52.92746],[1.11505,52.92755],[1.11486,52.92767],[1.11475,52.92776],[1.11458,52.92807],[1.11455,52.92811],[1.11458,52.92814]]]]}},
{ "type":"Feature","properties":{"osm_way_id":"845013576","amenity":"parking","other":{"motor_vehicle":"unknown"}}, "geometry":{"type":"MultiPolygon","coordinates":[[[[1.29713,52.931],[1.29698,52.93096],[1.29692,52.93095],[1.29692,52.93096],[1.29686,52.93095],[1.29686,52.93092],[1.29695,52.93075],[1.2969,52.93074],[1.29691,52.93072],[1.29684,52.93071],[1.29682,52.93074],[1.29679,52.93074],[1.29674,52.93082],[1.29673,52.93086],[1.29679,52.93086],[1.29676,52.93097],[1.29678,52.93098],[1.29678,52.93102],[1.29677,52.93102],[1.29705,52.9311],[1.29721,52.93112],[1.2972,52.931],[1.29713,52.931]]]]}},
{ "type":"Feature","properties":{"osm_way_id":"860988729","amenity":"parking","other":{"fee":"£1.50 per hour, £7.50 all day","parking":"surface"}}, "geometry":{"type":"MultiPolygon","coordinates":[[[[1.6019,52.78915],[1.60185,52.78907],[1.60177,52.78897],[1.60081,52.78944],[1.60111,52.78982],[1.60142,52.78968],[1.60163,52.78959],[1.60184,52.78954],[1.60173,52.78938],[1.60154,52.78943],[1.60144,52.78931],[1.60166,52.78925],[1.60164,52.78922],[1.6019,52.78915]]]]}},
{ "type":"Feature","properties":{"osm_way_id":"878929424","amenity":"parking","other":{"access":"private","parking":"surface"}}, "geometry":{"type":"MultiPolygon","coordinates":[[[[-2.07332,51.90316],[-2.07328,51.9032],[-2.07334,51.90323],[-2.07312,51.90344],[-2.07298,51.90338],[-2.07304,51.90329],[-2.07311,51.90326],[-2.07314,51.90322],[-2.07313,51.90317],[-2.07319,51.90311],[-2.07332,51.90316]]]]}},
{ "type":"Feature","properties":{"osm_way_id":"885235547","amenity":"parking","other":{"access":"customers","parking":"surface"}}, "geometry":{"type":"MultiPolygon","coordinates":[[[[0.82719,52.92904],[0.82703,52.92907],[0.82707,52.92915],[0.82708,52.92917],[0.82725,52.92914],[0.82719,52.92904]]]]}},
{ "type":"Feature","properties":{"osm_way_id":"887001645","amenity":"parking"},"geometry":{"type":"MultiPolygon","coordinates":[[[[1.19991,52.94414],[1.20013,52.94359],[1.20024,52.9436],[1.20044,52.94319],[1.20066,52.94267],[1.2004,52.94268],[1.20034,52.94285],[1.20026,52.94284],[1.20014,52.94312],[1.2001,52.94319],[1.20004,52.9432],[1.20007,52.94324],[1.19996,52.94349],[1.1995,52.94342],[1.19938,52.94369],[1.19943,52.9437],[1.19939,52.94382],[1.19956,52.94385],[1.1995,52.94397],[1.19962,52.94402],[1.19971,52.9441],[1.19991,52.94414]]]]}},
{ "type":"Feature","properties":{"osm_way_id":"898504989","amenity":"parking","other":{"access":"customers","capacity":"23","capacity:disabled":"3","parking":"surface","surface":"paved"}}, "geometry":{"type":"MultiPolygon","coordinates":[[[[-2.89759,53.17236],[-2.89771,53.17224],[-2.89776,53.17218],[-2.89757,53.1721],[-2.8975,53.1721],[-2.89742,53.17211],[-2.89737,53.17214],[-2.89733,53.17218],[-2.89734,53.17224],[-2.8974,53.17229],[-2.89759,53.17236]]]]}},
{ "type":"Feature","properties":{"osm_way_id":"898520359","amenity":"parking","other":{"access":"private","parking":"surface","surface":"asphalt"}}, "geometry":{"type":"MultiPolygon","coordinates":[[[[-2.53454,51.47899],[-2.53468,51.47895],[-2.53458,51.47881],[-2.5345,51.47884],[-2.53448,51.47882],[-2.53445,51.47883],[-2.53444,51.47884],[-2.53445,51.47886],[-2.53448,51.47895],[-2.53453,51.47894],[-2.53454,51.47899]]]]}},
{ "type":"Feature","properties":{"osm_way_id":"898521894","amenity":"parking","other":{"access":"customers","operator":"Ashfield Vetinary Ltd","operator:type":"private","parking":"surface","surface":"asphalt"}}, "geometry":{"type":"MultiPolygon","coordinates":[[[[-1.86269,53.71267],[-1.86238,53.7127],[-1.86233,53.71267],[-1.862,53.71265],[-1.86194,53.71246],[-1.86225,53.71243],[-1.86226,53.71254],[-1.8625,53.71254],[-1.86264,53.71252],[-1.86269,53.71267]]]]}},
{ "type":"Feature","properties":{"osm_way_id":"909924735","amenity":"parking"},"geometry":{"type":"MultiPolygon","coordinates":[[[[1.36703,52.81926],[1.36712,52.81936],[1.36724,52.81944],[1.36818,52.82005],[1.3683,52.82009],[1.3684,52.82006],[1.3682,52.81966],[1.36793,52.81971],[1.36779,52.81945],[1.36772,52.81946],[1.36769,52.81945],[1.36767,52.81942],[1.3676,52.81938],[1.36753,52.81934],[1.36753,52.81932],[1.36742,52.81934],[1.36732,52.81916],[1.36703,52.81926]]]]}},
{ "type":"Feature","properties":{"osm_way_id":"909924736","amenity":"parking"},"geometry":{"type":"MultiPolygon","coordinates":[[[[1.36892,52.81924],[1.36925,52.81918],[1.36949,52.81969],[1.36945,52.8197],[1.36939,52.81981],[1.36919,52.81988],[1.36911,52.81989],[1.36893,52.81952],[1.369,52.81951],[1.36904,52.81947],[1.36892,52.81924]]]]}},
{ "type":"Feature","properties":{"osm_way_id":"911386565","amenity":"parking"},"geometry":{"type":"MultiPolygon","coordinates":[[[[1.24528,52.9381],[1.24565,52.93813],[1.24564,52.93803],[1.24577,52.93807],[1.2458,52.93822],[1.24593,52.93823],[1.24603,52.93794],[1.24578,52.93791],[1.24576,52.93797],[1.24551,52.93796],[1.24551,52.93791],[1.24534,52.93789],[1.24528,52.9381]]]]}},
{ "type":"Feature","properties":{"osm_way_id":"911387117","amenity":"parking"},"geometry":{"type":"MultiPolygon","coordinates":[[[[1.09568,52.91169],[1.09644,52.91187],[1.09658,52.91166],[1.09581,52.91148],[1.09568,52.91169]]]]}},
{ "type":"Feature","properties":{"osm_way_id":"913309574","amenity":"parking"},"geometry":{"type":"MultiPolygon","coordinates":[[[[1.27291,52.92155],[1.27269,52.92151],[1.27239,52.92208],[1.27261,52.92212],[1.27291,52.92155]]]]}},
{ "type":"Feature","properties":{"osm_way_id":"913309575","amenity":"parking"},"geometry":{"type":"MultiPolygon","coordinates":[[[[1.27171,52.92171],[1.27165,52.9218],[1.27151,52.92177],[1.27148,52.92182],[1.27172,52.92187],[1.27173,52.92186],[1.27208,52.92193],[1.27215,52.9218],[1.27171,52.92171]]]]}},
{ "type":"Feature","properties":{"osm_way_id":"925919652","amenity":"parking","other":{"access":"private","parking":"surface","surface":"paved"}}, "geometry":{"type":"MultiPolygon","coordinates":[[[[-3.16222,55.95513],[-3.16234,55.95525],[-3.16238,55.95515],[-3.16248,55.95516],[-3.16251,55.95507],[-3.16239,55.95506],[-3.16222,55.95513]]]]}},
{ "type":"Feature","properties":{"osm_way_id":"935067793","amenity":"parking","other":{"fee":"no","maxstay":"2 hours","maxstay:conditional":"3 hours @ Oct-Apr","operator":"Tesco Stores Ltd"}}, "geometry":{"type":"MultiPolygon","coordinates":[[[[1.21154,52.94116],[1.21152,52.9411],[1.21148,52.9411],[1.21142,52.94109],[1.21138,52.94105],[1.21136,52.94102],[1.21126,52.94087],[1.21129,52.94084],[1.21126,52.9408],[1.21125,52.94079],[1.21138,52.94077],[1.21133,52.94063],[1.21139,52.94062],[1.21138,52.94057],[1.21199,52.94049],[1.21216,52.94079],[1.21226,52.94078],[1.21232,52.94089],[1.21264,52.94085],[1.21266,52.9409],[1.21279,52.94093],[1.21282,52.94099],[1.21154,52.94116]]]]}},
{ "type":"Feature","properties":{"osm_way_id":"946917809","amenity":"parking"},"geometry":{"type":"MultiPolygon","coordinates":[[[[1.46287,52.72946],[1.46329,52.7294],[1.46325,52.7293],[1.46283,52.72936],[1.46287,52.72946]]]]}},
{ "type":"Feature","properties":{"osm_way_id":"948275925","amenity":"parking"},"geometry":{"type":"MultiPolygon","coordinates":[[[[-0.3814,51.59464],[-0.38112,51.59438],[-0.38108,51.59434],[-0.38105,51.59431],[-0.3809,51.59436],[-0.38092,51.5944],[-0.38078,51.59446],[-0.38082,51.59454],[-0.38093,51.59474],[-0.38132,51.59466],[-0.3814,51.59464]]]]}},
{ "type":"Feature","properties":{"osm_way_id":"951331009","amenity":"parking"},"geometry":{"type":"MultiPolygon","coordinates":[[[[-0.85424,60.5901],[-0.85417,60.59035],[-0.85409,60.59069],[-0.85401,60.59069],[-0.85408,60.59035],[-0.85405,60.59035],[-0.85399,60.59034],[-0.85388,60.59031],[-0.8539,60.59008],[-0.85424,60.5901]]]]}},
{ "type":"Feature","properties":{"osm_way_id":"953923698","amenity":"parking","other":{"access":"private","parking":"surface"}}, "geometry":{"type":"MultiPolygon","coordinates":[[[[1.26229,52.93699],[1.26259,52.93694],[1.2625,52.93674],[1.26245,52.9367],[1.26238,52.93667],[1.26228,52.93665],[1.26215,52.93662],[1.26216,52.93664],[1.26216,52.93667],[1.26228,52.93691],[1.26225,52.93692],[1.26229,52.93699]]]]}},
{ "type":"Feature","properties":{"osm_way_id":"969133404","amenity":"parking","other":{"fee":"no","parking":"surface"}}, "geometry":{"type":"MultiPolygon","coordinates":[[[[1.4802,52.7338],[1.48022,52.73373],[1.48051,52.73374],[1.48048,52.734],[1.48036,52.73399],[1.48029,52.73402],[1.4803,52.7339],[1.48026,52.73391],[1.48021,52.7339],[1.48021,52.73384],[1.48031,52.73385],[1.48032,52.7338],[1.4802,52.7338]]]]}},
{ "type":"Feature","properties":{"osm_way_id":"969274125","amenity":"parking","other":{"access":"customers","capacity":"80","parking":"surface","surface":"gravel","website":"https:\/\/www.muckleburgh.co.uk\/"}}, "geometry":{"type":"MultiPolygon","coordinates":[[[[1.13224,52.9454],[1.1317,52.94528],[1.13158,52.94488],[1.13158,52.94476],[1.13177,52.94448],[1.13251,52.94454],[1.13244,52.94496],[1.1324,52.94505],[1.13224,52.9454]]]]}},
{ "type":"Feature","properties":{"osm_way_id":"971235015","amenity":"parking","other":{"operator":"Greyhound Car Park","operator:type":"private"}}, "geometry":{"type":"MultiPolygon","coordinates":[[[[1.57022,52.75398],[1.57016,52.75402],[1.57007,52.75424],[1.5703,52.7542],[1.5703,52.75418],[1.57022,52.75398]]]]}},
{ "type":"Feature","properties":{"osm_way_id":"973119907","amenity":"parking"},"geometry":{"type":"MultiPolygon","coordinates":[[[[0.83898,52.8338],[0.83903,52.83388],[0.83937,52.8338],[0.83959,52.83377],[0.8398,52.83375],[0.8398,52.83368],[0.83966,52.83368],[0.83967,52.83373],[0.8396,52.83373],[0.83959,52.83369],[0.83935,52.83373],[0.83898,52.8338]]]]}},
{ "type":"Feature","properties":{"osm_way_id":"973224241","amenity":"parking"},"geometry":{"type":"MultiPolygon","coordinates":[[[[0.99711,52.84687],[0.99669,52.84673],[0.99662,52.8468],[0.99694,52.84691],[0.99696,52.84689],[0.99706,52.84692],[0.99711,52.84687]]]]}},
{ "type":"Feature","properties":{"osm_way_id":"973234092","amenity":"parking"},"geometry":{"type":"MultiPolygon","coordinates":[[[[1.15876,52.88773],[1.15868,52.88754],[1.15894,52.88748],[1.15903,52.88771],[1.15891,52.88772],[1.15876,52.88773]]]]}},
{ "type":"Feature","properties":{"osm_way_id":"973237812","amenity":"parking"},"geometry":{"type":"MultiPolygon","coordinates":[[[[0.98699,52.92948],[0.98693,52.92938],[0.98764,52.92924],[0.98766,52.9293],[0.98699,52.92948]]]]}},
{ "type":"Feature","properties":{"osm_way_id":"973292306","amenity":"parking"},"geometry":{"type":"MultiPolygon","coordinates":[[[[1.33606,52.81449],[1.33619,52.81448],[1.3362,52.81451],[1.33624,52.81468],[1.33639,52.81467],[1.33644,52.81466],[1.33647,52.81478],[1.33613,52.81481],[1.33606,52.81449]]]]}},
{ "type":"Feature","properties":{"osm_way_id":"973589362","amenity":"parking","other":{"parking":"surface"}}, "geometry":{"type":"MultiPolygon","coordinates":[[[[1.41727,52.71642],[1.41728,52.71649],[1.41742,52.71654],[1.41829,52.71624],[1.41798,52.71614],[1.41738,52.71593],[1.41724,52.71607],[1.41731,52.7161],[1.41751,52.71617],[1.41727,52.71642]]]]}},
{ "type":"Feature","properties":{"osm_way_id":"973627016","amenity":"parking"},"geometry":{"type":"MultiPolygon","coordinates":[[[[1.53467,52.73887],[1.53486,52.73883],[1.53497,52.73903],[1.53478,52.73907],[1.53467,52.73887]]]]}},
{ "type":"Feature","properties":{"osm_way_id":"974471772","amenity":"parking"},"geometry":{"type":"MultiPolygon","coordinates":[[[[1.48403,52.77263],[1.48444,52.7727],[1.48426,52.77336],[1.4843,52.77337],[1.48426,52.77349],[1.48379,52.77343],[1.48375,52.77337],[1.4839,52.77293],[1.48403,52.77263]]]]}},
{ "type":"Feature","properties":{"osm_way_id":"974920325","amenity":"parking","other":{"access":"permit","operator":"Hickling Broad Windsurfers","operator:type":"private"}}, "geometry":{"type":"MultiPolygon","coordinates":[[[[1.56807,52.74746],[1.5681,52.7476],[1.56809,52.74762],[1.56808,52.74765],[1.56806,52.74767],[1.56804,52.74768],[1.56802,52.74769],[1.56807,52.74775],[1.56811,52.74776],[1.56816,52.74776],[1.5694,52.74754],[1.56941,52.74751],[1.56942,52.74749],[1.56942,52.74745],[1.56912,52.74743],[1.56909,52.74743],[1.56894,52.74742],[1.56891,52.74742],[1.56889,52.74742],[1.56866,52.74743],[1.56853,52.74744],[1.56845,52.74745],[1.56826,52.74746],[1.56807,52.74746]]]]}},
{ "type":"Feature","properties":{"osm_way_id":"974922165","amenity":"parking"},"geometry":{"type":"MultiPolygon","coordinates":[[[[1.56805,52.74746],[1.5681,52.74739],[1.56814,52.74739],[1.5682,52.74739],[1.56826,52.74739],[1.56832,52.74739],[1.56837,52.74739],[1.5684,52.74739],[1.56852,52.74738],[1.56853,52.74744],[1.56845,52.74745],[1.56826,52.74746],[1.56807,52.74746],[1.56805,52.74746]]]]}},
{ "type":"Feature","properties":{"osm_way_id":"974922167","amenity":"parking"},"geometry":{"type":"MultiPolygon","coordinates":[[[[1.56764,52.74712],[1.56787,52.74728],[1.56779,52.74733],[1.56771,52.74726],[1.56767,52.74723],[1.56762,52.7472],[1.56756,52.74716],[1.56764,52.74712]]]]}},
{ "type":"Feature","properties":{"osm_way_id":"974924777","amenity":"parking","other":{"access":"private"}}, "geometry":{"type":"MultiPolygon","coordinates":[[[[1.56909,52.74743],[1.56913,52.74732],[1.56912,52.7473],[1.56895,52.74729],[1.56895,52.7473],[1.56891,52.74742],[1.56894,52.74742],[1.56909,52.74743]]]]}},
{ "type":"Feature","properties":{"osm_way_id":"974925285","amenity":"parking","other":{"operator":"Hickling Broad Sailing Club","operator:type":"private"}}, "geometry":{"type":"MultiPolygon","coordinates":[[[[1.56875,52.74615],[1.56845,52.74597],[1.56841,52.74591],[1.56829,52.74591],[1.56768,52.74617],[1.5678,52.74628],[1.56815,52.74619],[1.56842,52.74608],[1.56867,52.74624],[1.56875,52.74615]]]]}},
{ "type":"Feature","properties":{"osm_way_id":"977389506","amenity":"parking","other":{"access":"private","operator":"Brightmere Barns","operator:type":"private"}}, "geometry":{"type":"MultiPolygon","coordinates":[[[[1.56615,52.75729],[1.56607,52.75717],[1.56641,52.75705],[1.56646,52.75715],[1.5666,52.75711],[1.56654,52.75699],[1.56665,52.75694],[1.56674,52.7571],[1.5668,52.75722],[1.56643,52.75729],[1.56641,52.75724],[1.56638,52.75723],[1.56615,52.75729]]]]}},
{ "type":"Feature","properties":{"osm_way_id":"978129965","amenity":"parking","other":{"access":"private","operator":"The Reading Rooms","parking":"surface","surface":"pebblestone"}}, "geometry":{"type":"MultiPolygon","coordinates":[[[[1.27256,52.85564],[1.27195,52.8554],[1.27207,52.85528],[1.27269,52.85552],[1.27263,52.85557],[1.27256,52.85564]]]]}},
{ "type":"Feature","properties":{"osm_way_id":"978226066","amenity":"parking"},"geometry":{"type":"MultiPolygon","coordinates":[[[[1.01737,52.95746],[1.01774,52.95752],[1.01777,52.95753],[1.01781,52.95754],[1.01732,52.958],[1.01719,52.95797],[1.01737,52.95746]]]]}},
{ "type":"Feature","properties":{"osm_way_id":"1005588907","amenity":"parking","other":{"access":"customers","capacity":"133","capacity:disabled":"11","parking":"surface","surface":"asphalt"}}, "geometry":{"type":"MultiPolygon","coordinates":[[[[1.19664,52.94219],[1.19724,52.9422],[1.19733,52.94215],[1.19739,52.94218],[1.19748,52.94219],[1.19754,52.94216],[1.19743,52.9421],[1.19746,52.94171],[1.19664,52.94169],[1.19663,52.94179],[1.19658,52.94185],[1.19655,52.94215],[1.19665,52.94215],[1.19664,52.94219]]]]}},
{ "type":"Feature","properties":{"osm_way_id":"1012078737","amenity":"parking","other":{"parking":"surface"}}, "geometry":{"type":"MultiPolygon","coordinates":[[[[1.11701,52.91383],[1.11726,52.91383],[1.11727,52.91369],[1.11727,52.9135],[1.11701,52.9135],[1.11701,52.91383]]]]}},
{ "type":"Feature","properties":{"osm_way_id":"1012078744","amenity":"parking","other":{"parking":"surface"}}, "geometry":{"type":"MultiPolygon","coordinates":[[[[1.11446,52.91468],[1.11453,52.91467],[1.11458,52.91462],[1.11487,52.91458],[1.11479,52.91437],[1.11436,52.91443],[1.11446,52.91468]]]]}},
{ "type":"Feature","properties":{"osm_way_id":"1012078745","amenity":"parking","other":{"parking":"surface"}}, "geometry":{"type":"MultiPolygon","coordinates":[[[[1.11468,52.91503],[1.11459,52.91478],[1.11504,52.91472],[1.11511,52.9149],[1.11504,52.91491],[1.11496,52.91494],[1.11481,52.91495],[1.11474,52.91502],[1.11468,52.91503]]]]}},
{ "type":"Feature","properties":{"osm_way_id":"1012177526","amenity":"parking","other":{"capacity":"30","capacity:disabled":"4","fee":"no","parking":"surface"}}, "geometry":{"type":"MultiPolygon","coordinates":[[[[1.11618,52.9145],[1.11639,52.91451],[1.1164,52.91442],[1.11672,52.91442],[1.11672,52.91433],[1.11623,52.91433],[1.11619,52.91446],[1.11618,52.9145]]]]}},
{ "type":"Feature","properties":{"osm_way_id":"1023083838","amenity":"parking","other":{"fee":"yes"}}, "geometry":{"type":"MultiPolygon","coordinates":[[[[1.43779,52.87776],[1.43786,52.87781],[1.43816,52.87768],[1.438,52.87755],[1.4377,52.87769],[1.43779,52.87776]]]]}},
{ "type":"Feature","properties":{"osm_way_id":"1025123979","amenity":"parking","other":{"access":"customers"}}, "geometry":{"type":"MultiPolygon","coordinates":[[[[1.43965,52.87477],[1.4397,52.87482],[1.43967,52.87484],[1.43969,52.87487],[1.43972,52.87489],[1.43977,52.87489],[1.44004,52.87513],[1.43969,52.87523],[1.43964,52.87518],[1.43954,52.87512],[1.43937,52.87484],[1.43965,52.87477]]]]}},
{ "type":"Feature","properties":{"osm_way_id":"1025313619","amenity":"parking"},"geometry":{"type":"MultiPolygon","coordinates":[[[[1.41314,52.89055],[1.41328,52.89063],[1.41332,52.8906],[1.41335,52.89056],[1.4134,52.89051],[1.41348,52.89044],[1.41355,52.89037],[1.41365,52.89031],[1.41403,52.89009],[1.41402,52.89001],[1.41352,52.8903],[1.41314,52.89055]]]]}},
{ "type":"Feature","properties":{"osm_way_id":"1025323047","amenity":"parking"},"geometry":{"type":"MultiPolygon","coordinates":[[[[1.42899,52.88088],[1.42889,52.88056],[1.42937,52.88051],[1.42944,52.88072],[1.42954,52.8807],[1.4296,52.88086],[1.42929,52.8809],[1.42928,52.88084],[1.42925,52.88085],[1.42924,52.88086],[1.42923,52.88087],[1.42917,52.88087],[1.4291,52.88088],[1.42908,52.88087],[1.42906,52.88087],[1.42899,52.88088]]]]}},
{ "type":"Feature","properties":{"osm_way_id":"1025892249","amenity":"parking"},"geometry":{"type":"MultiPolygon","coordinates":[[[[1.47716,52.85125],[1.47716,52.85128],[1.47731,52.85129],[1.47742,52.85129],[1.47742,52.85125],[1.47753,52.85125],[1.47753,52.85123],[1.47755,52.85116],[1.47756,52.85106],[1.47756,52.85105],[1.47706,52.85099],[1.47707,52.85103],[1.47708,52.85103],[1.47709,52.85106],[1.47716,52.85125]]]]}},
{ "type":"Feature","properties":{"osm_way_id":"1026103476","amenity":"parking"},"geometry":{"type":"MultiPolygon","coordinates":[[[[1.36608,52.82844],[1.3662,52.82839],[1.36643,52.8283],[1.36679,52.82844],[1.36676,52.82845],[1.3664,52.82861],[1.36632,52.82864],[1.36608,52.82844]]]]}},
{ "type":"Feature","properties":{"osm_way_id":"1026135255","amenity":"parking"},"geometry":{"type":"MultiPolygon","coordinates":[[[[1.46705,52.84966],[1.46713,52.84966],[1.46715,52.84968],[1.46708,52.84983],[1.46701,52.84986],[1.46658,52.84977],[1.46654,52.84974],[1.46658,52.84957],[1.46665,52.84953],[1.46675,52.84957],[1.46684,52.84962],[1.46705,52.84966]]]]}},
{ "type":"Feature","properties":{"osm_way_id":"1040162769","amenity":"parking","other":{"access":"private","parking":"surface","surface":"asphalt"}}, "geometry":{"type":"MultiPolygon","coordinates":[[[[1.3931,52.81826],[1.39316,52.81816],[1.39326,52.81811],[1.39341,52.81809],[1.39354,52.8181],[1.39372,52.81819],[1.39376,52.81834],[1.39386,52.81841],[1.39404,52.81844],[1.39394,52.81853],[1.39375,52.81846],[1.39353,52.81843],[1.39349,52.81848],[1.39335,52.81846],[1.39332,52.8185],[1.39305,52.8185],[1.39305,52.81833],[1.3931,52.81826]]]]}},
{ "type":"Feature","properties":{"osm_way_id":"1044377247","amenity":"parking"},"geometry":{"type":"MultiPolygon","coordinates":[[[[1.08938,52.90605],[1.08979,52.90605],[1.08985,52.9061],[1.08985,52.90613],[1.08971,52.90613],[1.08949,52.90609],[1.08938,52.90605]]]]}}
]
}
