{
"type": "FeatureCollection",
"features": [
{ "type":"Feature","properties":{"osm_id":"773369433","name":"Co-op Food","other":{"brand":"Co-op Food","brand:wikidata":"Q3277439","brand:wikipedia":"en:Co-op Food","shop":"supermarket"}}, "geometry":{"type":"Point","coordinates":[-4.36804,56.04178 ]}},
{ "type":"Feature","properties":{"osm_id":"2012238176","name":"The Co-operative Food","other":{"addr:city":"Stirling","addr:housenumber":"1","addr:postcode":"FK9 5LH","addr:street":"Alloa Road","fhrs:id":"1706","shop":"supermarket","source:addr":"fhrs opendata"}}, "geometry":{"type":"Point","coordinates":[-3.92317,56.13851 ]}},
{ "type":"Feature","properties":{"osm_id":"3622969198","name":"Scotmid","other":{"addr:city":"Stirling","addr:housenumber":"4\/6","addr:place":"Bannockburn","addr:postcode":"FK7 8LY","addr:street":"Main Street","brand":"Scotmid","brand:wikidata":"Q7435719","brand:wikipedia":"en:Scotmid","fhrs:id":"24617","shop":"supermarket","source:addr":"fhrs opendata"}}, "geometry":{"type":"Point","coordinates":[-3.9145,56.09101 ]}},
{ "type":"Feature","properties":{"osm_id":"4165952991","name":"Key Store Brodie's Minimarket","other":{"opening_hours":"08:00-18:00","shop":"supermarket"}}, "geometry":{"type":"Point","coordinates":[-4.71346,56.4386 ]}},
{ "type":"Feature","properties":{"osm_id":"4317675923","name":"The Co-operative Food","other":{"addr:city":"Dunblane","addr:housenumber":"79","addr:postcode":"FK15 0ER","addr:street":"High Street","fhrs:id":"733549","opening_hours":"07:00-22:00","operator":"The Co-operative Group","shop":"supermarket","source:addr":"fhrs opendata"}}, "geometry":{"type":"Point","coordinates":[-3.96348,56.18878 ]}},
{ "type":"Feature","properties":{"osm_id":"5489668550","name":"Spar","other":{"addr:city":"Doune","addr:housenumber":"36-40","addr:postcode":"FK16 6BJ","addr:street":"Main Street","brand":"Spar","brand:wikidata":"Q610492","brand:wikipedia":"en:SPAR (retailer)","fhrs:id":"27463","shop":"supermarket"}}, "geometry":{"type":"Point","coordinates":[-4.05131,56.18925 ]}},
{ "type":"Feature","properties":{"osm_id":"5906798153","name":"Londis Dreadnought","other":{"brand":"Londis","shop":"supermarket"}}, "geometry":{"type":"Point","coordinates":[-4.19511,56.23844 ]}},
{ "type":"Feature","properties":{"osm_id":"8990408071","name":"Co-op Food","other":{"brand":"Co-op Food","brand:wikidata":"Q3277439","brand:wikipedia":"en:Co-op Food","operator":"The Co-operative Group","operator:wikidata":"Q117202","operator:wikipedia":"en:The Co-operative Group","shop":"supermarket"}}, "geometry":{"type":"Point","coordinates":[-4.38459,56.17854 ]}},
{ "type":"Feature","properties":{"osm_way_id":"31916518","name":"Tesco","building":"yes","shop":"supermarket","other":{"brand":"Tesco","brand:wikidata":"Q487494","brand:wikipedia":"en:Tesco","layer":"1","operator":"Tesco"}}, "geometry":{"type":"MultiPolygon","coordinates":[[[[-2.04409,57.3675],[-2.04439,57.36751],[-2.04439,57.36756],[-2.04517,57.36759],[-2.0451,57.36818],[-2.04401,57.36814],[-2.04409,57.3675]]]]}},
{ "type":"Feature","properties":{"osm_way_id":"37117901","name":"Tesco","building":"yes","shop":"supermarket","other":{"addr:city":"Dunblane","addr:postcode":"FK15 9AE","addr:street":"Springfield Terrace","brand":"Tesco","brand:wikidata":"Q487494","brand:wikipedia":"en:Tesco","fhrs:id":"50025","opening_hours":"Mo-Sa 07:00-22:00, Su 09:00-18:00","operator":"Tesco Stores Ltd","website":"https:\/\/www.tesco.com\/store-locator\/dunblane\/springfield-terrace"}}, "geometry":{"type":"MultiPolygon","coordinates":[[[[-3.96706,56.18659],[-3.96704,56.18646],[-3.96691,56.18646],[-3.96686,56.18614],[-3.96635,56.18617],[-3.96643,56.18662],[-3.96706,56.18659]]]]}},
{ "type":"Feature","properties":{"osm_way_id":"89971775","name":"Co-op","building":"yes","shop":"supermarket"},"geometry":{"type":"MultiPolygon","coordinates":[[[[-4.31774,56.46839],[-4.31779,56.46835],[-4.31791,56.46839],[-4.31801,56.4683],[-4.31791,56.46827],[-4.31796,56.46822],[-4.31772,56.46814],[-4.31752,56.46831],[-4.31774,56.46839]]]]}},
{ "type":"Feature","properties":{"osm_way_id":"96581220","name":"Morrisons","building":"yes","shop":"supermarket","other":{"addr:city":"Stirling","addr:place":"Springkerse Retail Park","addr:postcode":"FK7 7SR","addr:street":"Munro Road","addr:unit":"Unit 17","brand":"Morrisons","brand:wikidata":"Q922344","brand:wikipedia":"en:Morrisons","fhrs:id":"55468","opening_hours":"Su 08:00-20:00; Mo-Sa 08:00-22:00","source:addr":"fhrs opendata"}}, "geometry":{"type":"MultiPolygon","coordinates":[[[[-3.91099,56.11637],[-3.91018,56.11624],[-3.91012,56.11636],[-3.90967,56.11628],[-3.90956,56.11614],[-3.90971,56.11585],[-3.90989,56.11588],[-3.91011,56.11545],[-3.91056,56.11553],[-3.91048,56.11568],[-3.91082,56.11574],[-3.91088,56.11562],[-3.91134,56.11569],[-3.91099,56.11637]]]]}},
{ "type":"Feature","properties":{"osm_way_id":"115927309","name":"The Co-operative Food","building":"yes","shop":"supermarket","other":{"addr:city":"Callander","addr:housenumber":"124","addr:postcode":"FK17 8BG","addr:street":"Main Street","brand":"The Co-operative Food","brand:wikidata":"Q107617274","opening_hours":"Mo-Sa 07:00-22:00"}}, "geometry":{"type":"MultiPolygon","coordinates":[[[[-4.21141,56.24243],[-4.21181,56.24253],[-4.21174,56.24262],[-4.21159,56.24258],[-4.21145,56.24276],[-4.2112,56.2427],[-4.21141,56.24243]]]]}},
{ "type":"Feature","properties":{"osm_way_id":"124738751","name":"Sainsbury's","building":"yes","shop":"supermarket","other":{"addr:postcode":"FK8 1RA","addr:street":"Drip Road","brand":"Sainsbury's","brand:wikidata":"Q152096","brand:wikipedia":"en:Sainsbury's","fhrs:id":"13560"}}, "geometry":{"type":"MultiPolygon","coordinates":[[[[-3.94582,56.1287],[-3.94547,56.12815],[-3.94559,56.12813],[-3.9454,56.12783],[-3.94665,56.12758],[-3.94704,56.12819],[-3.94679,56.12824],[-3.94694,56.12848],[-3.94582,56.1287]]]]}},
{ "type":"Feature","properties":{"osm_way_id":"125310628","name":"Tesco","building":"yes","shop":"supermarket","other":{"addr:city":"Stirling","addr:housenumber":"12","addr:postcode":"FK8 1NP","addr:street":"Wallace Street","brand":"Tesco","brand:wikidata":"Q487494","brand:wikipedia":"en:Tesco","fhrs:id":"55981","opening_hours":"Mo-Sa 08:00-00:00; Su 09:00-22:00","source:addr":"fhrs opendata"}}, "geometry":{"type":"MultiPolygon","coordinates":[[[[-3.93777,56.12459],[-3.9378,56.12446],[-3.93772,56.12446],[-3.93773,56.12442],[-3.93779,56.12443],[-3.9378,56.12436],[-3.93774,56.12436],[-3.93787,56.12366],[-3.93767,56.12365],[-3.93771,56.12346],[-3.93754,56.12345],[-3.93756,56.12337],[-3.9372,56.12335],[-3.93711,56.12386],[-3.93716,56.12386],[-3.93706,56.12444],[-3.93714,56.12445],[-3.93712,56.12457],[-3.93742,56.12458],[-3.93742,56.12463],[-3.93762,56.12464],[-3.93763,56.12458],[-3.93777,56.12459]]]]}},
{ "type":"Feature","properties":{"osm_way_id":"154932319","name":"The Co-operative Food","building":"yes","shop":"supermarket","other":{"addr:housenumber":"137-145","addr:postcode":"G63 0TF","addr:street":"Buchanan Street","opening_hours":"Mo-Su 07:00-22:00"}}, "geometry":{"type":"MultiPolygon","coordinates":[[[[-4.337,56.07089],[-4.33725,56.07085],[-4.33729,56.07092],[-4.33739,56.07091],[-4.33744,56.07099],[-4.33709,56.07105],[-4.337,56.07089]]]]}},
{ "type":"Feature","properties":{"osm_way_id":"229658620","name":"Aldi","building":"yes","shop":"supermarket","other":{"brand":"ALDI","brand:wikidata":"Q41171672","brand:wikipedia":"en:Aldi"}}, "geometry":{"type":"MultiPolygon","coordinates":[[[[-3.92682,56.11463],[-3.92648,56.11445],[-3.92675,56.11429],[-3.92669,56.11426],[-3.92686,56.11416],[-3.92694,56.1142],[-3.92716,56.11406],[-3.92748,56.11422],[-3.92729,56.11434],[-3.92682,56.11463]]]]}},
{ "type":"Feature","properties":{"osm_way_id":"231081103","name":"M&S Simply Food","building":"yes","shop":"supermarket","other":{"addr:city":"Dunblane","addr:postcode":"FK15 9EY","addr:street":"Stirling Road","brand":"M&S Simply Food","brand:wikidata":"Q714491","brand:wikipedia":"en:Marks & Spencer","fhrs:id":"51765","opening_hours":"Mo-Fr 08:00-20:00, Sa 08:30-19:00, Su 09:00-18:00","source:addr":"fhrs opendata"}}, "geometry":{"type":"MultiPolygon","coordinates":[[[[-3.96531,56.18215],[-3.96499,56.18214],[-3.96482,56.18206],[-3.96485,56.18163],[-3.96534,56.18165],[-3.96531,56.18215]]]]}},
{ "type":"Feature","properties":{"osm_way_id":"249798556","name":"Waitrose","building":"retail","shop":"supermarket","other":{"addr:housenumber":"Unit 1","addr:postcode":"FK7 7GX","addr:street":"Burghmuir Road","brand":"Waitrose","brand:wikidata":"Q771734","brand:wikipedia":"en:Waitrose & Partners","building:levels":"1","official_name":"Waitrose & Partners","opening_hours":"Mo-Fr 08:00-21:00; Sa 08:00-20:00; Su 09:00-20:00","operator":"Waitrose & Partners","phone":"+44 1786 464021","website":"https:\/\/www.waitrose.com\/content\/waitrose\/en\/bf_home\/bf\/620.html"}}, "geometry":{"type":"MultiPolygon","coordinates":[[[[-3.93427,56.11421],[-3.93346,56.11414],[-3.93359,56.11365],[-3.93366,56.11366],[-3.93367,56.11361],[-3.93384,56.11362],[-3.93387,56.11352],[-3.93405,56.11354],[-3.93403,56.11359],[-3.93443,56.11363],[-3.93427,56.11421]]]]}},
{ "type":"Feature","properties":{"osm_way_id":"290265140","name":"Lidl","building":"yes","shop":"supermarket","other":{"brand":"Lidl","brand:wikidata":"Q151954","brand:wikipedia":"en:Lidl","website":"https:\/\/www.lidl.de\/"}}, "geometry":{"type":"MultiPolygon","coordinates":[[[[-3.94062,56.10377],[-3.94051,56.10349],[-3.94079,56.10345],[-3.94081,56.10349],[-3.94137,56.10342],[-3.94143,56.10357],[-3.94154,56.10356],[-3.94157,56.10365],[-3.94062,56.10377]]]]}},
{ "type":"Feature","properties":{"osm_way_id":"295966364","name":"Co-op Food","building":"supermarket","shop":"supermarket","other":{"addr:city":"Bridge of Allan","addr:housenumber":"12","addr:postcode":"FK9 4ET","addr:street":"Fountain Road","brand":"Co-op Food","brand:wikidata":"Q3277439","brand:wikipedia":"en:Co-op Food","fhrs:id":"16708","opening_hours":"07:00-22:00","operator":"The Co-operative Group","operator:wikidata":"Q117202","operator:wikipedia":"en:The Co-operative Group"}}, "geometry":{"type":"MultiPolygon","coordinates":[[[[-3.94699,56.15437],[-3.94662,56.15428],[-3.94667,56.15421],[-3.94678,56.15407],[-3.94702,56.15413],[-3.94715,56.15416],[-3.94699,56.15437]]]]}},
{ "type":"Feature","properties":{"osm_way_id":"377952368","name":"Co-op Food","building":"yes","shop":"supermarket","other":{"brand":"Co-op Food","brand:wikidata":"Q3277439","brand:wikipedia":"en:Co-op Food","operator":"Coop"}}, "geometry":{"type":"MultiPolygon","coordinates":[[[[-4.30638,55.98385],[-4.30621,55.98385],[-4.30621,55.98372],[-4.30595,55.98371],[-4.30596,55.98392],[-4.30623,55.98393],[-4.30638,55.98394],[-4.30638,55.98385]]]]}},
{ "type":"Feature","properties":{"osm_way_id":"485321504","name":"Lidl","building":"yes","shop":"supermarket","other":{"addr:country":"GB","addr:housenumber":"2A","addr:postcode":"FK7 7WR","addr:street":"Springbank Road","brand":"Lidl","brand:wikidata":"Q151954","brand:wikipedia":"en:Lidl","fhrs:id":"964344","operator":"Lidl"}}, "geometry":{"type":"MultiPolygon","coordinates":[[[[-3.92897,56.11531],[-3.92868,56.11538],[-3.9282,56.11482],[-3.92868,56.11469],[-3.9292,56.11531],[-3.92902,56.11536],[-3.92897,56.11531]]]]}},
{ "type":"Feature","properties":{"osm_way_id":"709224550","name":"The Co-operative Food","building":"yes","shop":"supermarket","other":{"brand":"The Co-operative Food","brand:wikidata":"Q3277439","brand:wikipedia":"en:Co-op Food"}}, "geometry":{"type":"MultiPolygon","coordinates":[[[[-3.96754,56.11006],[-3.96734,56.11007],[-3.96734,56.11012],[-3.96725,56.11012],[-3.96723,56.10989],[-3.96741,56.10989],[-3.96754,56.10993],[-3.96754,56.11006]]]]}},
{ "type":"Feature","properties":{"osm_way_id":"835085815","name":"Lidl","building":"yes","shop":"supermarket","other":{"addr:city":"Beccles","addr:housename":"Lidl UK","addr:postcode":"NR34 9BN","addr:street":"Common Lane North","brand":"Lidl","brand:wikidata":"Q151954","brand:wikipedia":"en:Lidl","fhrs:id":"1341338","source:addr":"FHRS Open Data"}}, "geometry":{"type":"MultiPolygon","coordinates":[[[[1.56704,52.46283],[1.56693,52.46262],[1.56794,52.46244],[1.56803,52.46263],[1.56804,52.46265],[1.56704,52.46283]]]]}},
{ "type":"Feature","properties":{"osm_way_id":"864474573","name":"Co-op Food","building":"yes","shop":"supermarket","other":{"addr:housenumber":"42-44","addr:street":"Causewayhead Road","brand":"Co-op Food","brand:wikidata":"Q3277439","brand:wikipedia":"en:Co-op Food","operator":"The Co-operative Group","operator:wikidata":"Q117202","operator:wikipedia":"en:The Co-operative Group"}}, "geometry":{"type":"MultiPolygon","coordinates":[[[[-3.92788,56.13577],[-3.92764,56.13567],[-3.9274,56.13586],[-3.92764,56.13595],[-3.92788,56.13577]]]]}},
{ "type":"Feature","properties":{"osm_way_id":"900147194","building":"yes"},"geometry":{"type":"MultiPolygon","coordinates":[[[[-4.38329,55.98377],[-4.38336,55.98355],[-4.38286,55.98351],[-4.38279,55.98372],[-4.38329,55.98377]]]]}}
]
}
