{
"type": "FeatureCollection",
"features": [
{ "type":"Feature","properties":{"osm_id":"283343841","name":"The Co-operative Food","other":{"shop":"supermarket","opening_hours":"Mo-Su 07:00-22:00"}}, "geometry":{"type":"Point","coordinates":[-2.95163,55.97169 ]}},
{ "type":"Feature","properties":{"osm_id":"293129217","name":"Scotmid","other":{"addr:city":"Prestonpans","addr:housenumber":"180-182-184","addr:postcode":"EH32 9AZ","addr:street":"High Street","brand":"Scotmid","brand:wikidata":"Q7435719","brand:wikipedia":"en:Scotmid","opening_hours":"Mo-Su 07:00-22:00","phone":"+44 187 581 5622","shop":"supermarket","website":"http:\/\/www.scotmid.co.uk\/"}}, "geometry":{"type":"Point","coordinates":[-2.98655,55.95895 ]}},
{ "type":"Feature","properties":{"osm_id":"4798296446","name":"The Co-operative Food","other":{"shop":"supermarket","brand":"The Co-operative Food","brand:wikidata":"Q3277439","brand:wikipedia":"en:Co-op Food"}}, "geometry":{"type":"Point","coordinates":[-2.97683,55.95324 ]}},
{ "type":"Feature","properties":{"osm_id":"9290690386","name":"The Food Warehouse","other":{"brand":"The Food Warehouse","brand:wikidata":"Q87263899","shop":"supermarket"}}, "geometry":{"type":"Point","coordinates":[-2.81181,55.95502 ]}},
{ "type":"Feature","properties":{"osm_id":"9290690388","name":"ALDI","other":{"brand":"ALDI","brand:wikidata":"Q41171672","brand:wikipedia":"en:Aldi","shop":"supermarket"}}, "geometry":{"type":"Point","coordinates":[-2.81096,55.95488 ]}},
{ "type":"Feature","properties":{"osm_way_id":"32253599","name":"Lidl","building":"retail","shop":"supermarket","other":{"addr:country":"GB","addr:postcode":"EH21 6RE","addr:street":"Newhailes Road","brand":"Lidl","brand:wikidata":"Q151954","brand:wikipedia":"en:Lidl","fhrs:id":"24503","opening_hours":"Mo-Su 08:00-22:00"}}, "geometry":{"type":"MultiPolygon","coordinates":[[[[-3.06672,55.94345],[-3.06684,55.94328],[-3.06677,55.94327],[-3.06699,55.94295],[-3.06656,55.94285],[-3.06653,55.9429],[-3.06645,55.94288],[-3.06628,55.94312],[-3.06635,55.94314],[-3.06621,55.94334],[-3.06672,55.94345]]]]}},
{ "type":"Feature","properties":{"osm_way_id":"32253930","name":"Aldi","building":"retail","shop":"supermarket","other":{"brand":"ALDI","brand:wikidata":"Q41171672","brand:wikipedia":"en:Aldi","opening_hours":"Mo-Sa 08:00-22:00; Su 09:00-19:00","operator":"Aldi"}}, "geometry":{"type":"MultiPolygon","coordinates":[[[[-3.06814,55.94252],[-3.06823,55.94206],[-3.06784,55.94204],[-3.06776,55.94244],[-3.06792,55.94245],[-3.06791,55.94251],[-3.06814,55.94252]]]]}},
{ "type":"Feature","properties":{"osm_way_id":"56445262","name":"Tesco","building":"retail","shop":"supermarket","other":{"brand":"Tesco","opening_hours":"Mo-Sa 07:00-22:00; Su 08:00-20:00","brand:wikidata":"Q487494","brand:wikipedia":"en:Tesco"}}, "geometry":{"type":"MultiPolygon","coordinates":[[[[-2.77958,55.95657],[-2.77965,55.95646],[-2.77947,55.95623],[-2.7793,55.95628],[-2.77915,55.9561],[-2.77888,55.95617],[-2.77886,55.95615],[-2.77839,55.95627],[-2.77836,55.95631],[-2.77873,55.95675],[-2.7791,55.95666],[-2.77913,55.95669],[-2.77958,55.95657]]]]}},
{ "type":"Feature","properties":{"osm_way_id":"96567022","name":"Asda","building":"retail","shop":"supermarket","other":{"addr:city":"Dunbar","addr:country":"GB","addr:postcode":"EH42 1LE","addr:street":"Spott Road","alt_name":"ASDA Dunbar Supermarket","brand":"Asda","brand:wikidata":"Q297410","brand:wikipedia":"en:Asda","contact:facebook":"https:\/\/www.facebook.com\/asda\/","contact:twitter":"@asda","contact:website":"https:\/\/storelocator.asda.com\/scotland\/dunbar\/spott-road","opening_hours":"Mo-Su 07:00-23:00","operator":"Asda Stores Ltd","toilets:wheelchair":"yes","wheelchair":"yes","wheelchair:description":"Asda Supermarket. Medium sized with small clothing department. Electric buggies available inside."}}, "geometry":{"type":"MultiPolygon","coordinates":[[[[-2.51046,55.98974],[-2.5105,55.98965],[-2.51058,55.98966],[-2.51065,55.98952],[-2.51079,55.98925],[-2.51076,55.98924],[-2.51071,55.98924],[-2.51075,55.98916],[-2.5099,55.98902],[-2.50981,55.98919],[-2.50997,55.98921],[-2.50975,55.98962],[-2.51046,55.98974]]]]}},
{ "type":"Feature","properties":{"osm_way_id":"154524704","name":"Tesco","building":"yes","shop":"supermarket","other":{"addr:city":"North Berwick","addr:postcode":"EH39 5NF","addr:street":"Tantallon Road","brand":"Tesco","brand:wikidata":"Q487494","brand:wikipedia":"en:Tesco","fhrs:id":"21567","opening_hours":"Mo-Sa 08:00-22:00; Su 09:00-18:00"}}, "geometry":{"type":"MultiPolygon","coordinates":[[[[-2.70035,56.05299],[-2.69959,56.05322],[-2.69964,56.05327],[-2.69944,56.0533],[-2.69906,56.05291],[-2.70002,56.05265],[-2.69995,56.05258],[-2.70014,56.05252],[-2.70026,56.05265],[-2.70008,56.05271],[-2.70035,56.05299]]]]}},
{ "type":"Feature","properties":{"osm_way_id":"154529702","name":"ALDI","building":"yes","shop":"supermarket","other":{"addr:city":"North Berwick","addr:housenumber":"48-52","addr:postcode":"EH39 4DQ","addr:street":"Dunbar Road","brand":"ALDI","brand:wikidata":"Q41171672","brand:wikipedia":"en:Aldi","fhrs:id":"842785","website":"https:\/\/www.aldi.co.uk\/store\/s-uk-E1030"}}, "geometry":{"type":"MultiPolygon","coordinates":[[[[-2.70668,56.05263],[-2.70638,56.05256],[-2.70634,56.05262],[-2.70617,56.05258],[-2.70619,56.05256],[-2.70613,56.05255],[-2.70618,56.05246],[-2.70624,56.05247],[-2.70649,56.0521],[-2.70679,56.05216],[-2.70683,56.05209],[-2.70701,56.05213],[-2.70697,56.0522],[-2.70705,56.05221],[-2.70698,56.05232],[-2.7069,56.0523],[-2.70668,56.05263]]]]}},
{ "type":"Feature","properties":{"osm_way_id":"202093487","name":"The Co-operative Food","building":"yes","shop":"supermarket","other":{"atm":"yes","brand":"The Co-operative Food","addr:city":"Dunbar","wheelchair":"yes","addr:street":"Countess Crescent","addr:postcode":"EH42 1DX","opening_hours":"Mo-Su 07:00-22:00","brand:wikidata":"Q3277439","brand:wikipedia":"en:Co-op Food"}}, "geometry":{"type":"MultiPolygon","coordinates":[[[[-2.5179,56.00118],[-2.51775,56.00123],[-2.51772,56.00124],[-2.51771,56.00123],[-2.51721,56.0014],[-2.51716,56.00142],[-2.51703,56.00129],[-2.51708,56.00127],[-2.51697,56.00117],[-2.51698,56.00111],[-2.5176,56.00092],[-2.51773,56.00104],[-2.51775,56.00104],[-2.5179,56.00118]]]]}},
{ "type":"Feature","properties":{"osm_way_id":"217492986","name":"Tesco Extra","building":"supermarket","shop":"supermarket","other":{"brand":"Tesco Extra","operator":"Tesco","opening_hours":"24\/7","brand:wikidata":"Q25172225","brand:wikipedia":"en:Tesco Extra"}}, "geometry":{"type":"MultiPolygon","coordinates":[[[[-3.05628,55.93901],[-3.05626,55.93895],[-3.05624,55.93896],[-3.05611,55.93856],[-3.05625,55.93854],[-3.05615,55.93823],[-3.05588,55.93823],[-3.05592,55.93834],[-3.05561,55.93837],[-3.05557,55.93826],[-3.05512,55.93826],[-3.05517,55.93841],[-3.05441,55.93849],[-3.05461,55.93912],[-3.05458,55.93912],[-3.0546,55.93918],[-3.05628,55.93901]]]]}},
{ "type":"Feature","properties":{"osm_way_id":"247566491","name":"Asda","building":"retail","shop":"supermarket","other":{"addr:city":"Tranent","addr:country":"GB","addr:housenumber":"149","addr:postcode":"EH33 1LP","addr:street":"High Street","brand":"Asda","brand:wikidata":"Q297410","brand:wikipedia":"en:Asda","contact:facebook":"https:\/\/www.facebook.com\/asda\/","contact:twitter":"@asda","contact:website":"https:\/\/storelocator.asda.com\/scotland\/tranent\/151-high-street","fhrs:id":"810067","opening_hours":"Mo-Sa 07:00-23:00; Su 08:00-22:00","operator":"Asda Stores Ltd"}}, "geometry":{"type":"MultiPolygon","coordinates":[[[[-2.94685,55.94256],[-2.94689,55.94257],[-2.94691,55.94254],[-2.94714,55.94257],[-2.94729,55.94259],[-2.94743,55.9426],[-2.94744,55.94257],[-2.94751,55.94258],[-2.94756,55.94247],[-2.94757,55.94247],[-2.94759,55.94243],[-2.94757,55.94243],[-2.94759,55.9424],[-2.94763,55.9424],[-2.94766,55.94234],[-2.94757,55.94233],[-2.94758,55.9423],[-2.94754,55.94229],[-2.94756,55.94224],[-2.94751,55.94224],[-2.94752,55.94222],[-2.94746,55.94221],[-2.94748,55.94218],[-2.94702,55.94213],[-2.94685,55.94256]]]]}},
{ "type":"Feature","properties":{"osm_way_id":"263980429","name":"Lidl","building":"yes","shop":"supermarket","other":{"addr:country":"GB","addr:postcode":"EH32 9AN","addr:street":"High Street","brand":"Lidl","brand:wikidata":"Q151954","fhrs:id":"9740"}}, "geometry":{"type":"MultiPolygon","coordinates":[[[[-2.97824,55.96304],[-2.9781,55.96311],[-2.97804,55.96307],[-2.97785,55.96317],[-2.97734,55.96286],[-2.97729,55.96289],[-2.97708,55.96276],[-2.97731,55.96264],[-2.97745,55.96257],[-2.97824,55.96304]]]]}},
{ "type":"Feature","properties":{"osm_way_id":"684010568","name":"Aldi","building":"yes","shop":"supermarket","other":{"addr:city":"Tranent","addr:postcode":"EH33 1DZ","addr:street":"Haddington Road","brand":"ALDI","brand:wikidata":"Q41171672","brand:wikipedia":"en:Aldi","fhrs:id":"817192"}}, "geometry":{"type":"MultiPolygon","coordinates":[[[[-2.94134,55.94247],[-2.94113,55.94295],[-2.94084,55.94291],[-2.94082,55.94296],[-2.94066,55.94294],[-2.94089,55.94241],[-2.94134,55.94247]]]]}}
]
}
