{
"type": "FeatureCollection",
"features": [
{ "type":"Feature","properties":{"osm_id":"498737012","name":"Tesco Extra","other":{"addr:housename":"Tesco Stores Ltd","addr:postcode":"EN8 0TA","addr:street":"Halfhide Lane","addr:town":"Cheshunt","brand":"Tesco Extra","brand:wikidata":"Q25172225","brand:wikipedia":"en:Tesco Extra","fhrs:id":"178858","fixme:housename":"Brookfield Centre","operator":"Tesco Stores Ltd","shop":"supermarket","source:addr":"FHRS Open Data","website":"https:\/\/www.tesco.com\/store-locator\/waltham-cross\/brookfield-centre","wheelchair":"yes"}}, "geometry":{"type":"Point","coordinates":[-0.03737,51.71791 ]}},
{ "type":"Feature","properties":{"osm_id":"498737112","name":"Marks & Spencer","other":{"brand":"Marks & Spencer","brand:wikidata":"Q714491","shop":"supermarket","wheelchair":"yes"}}, "geometry":{"type":"Point","coordinates":[-0.03758,51.71679 ]}},
{ "type":"Feature","properties":{"osm_id":"671485021","name":"Co-operative","other":{"shop":"supermarket"}}, "geometry":{"type":"Point","coordinates":[-0.08689,51.71023 ]}},
{ "type":"Feature","properties":{"osm_id":"982172363","name":"The Co-operative Food","other":{"operator":"The Co-operative Group","shop":"supermarket"}}, "geometry":{"type":"Point","coordinates":[-0.03734,51.7087 ]}},
{ "type":"Feature","properties":{"osm_id":"2624462897","name":"Tesco Metro","other":{"addr:city":"Cheshunt","addr:country":"GB","addr:housenumber":"64-66","addr:postcode":"EN8 8LQ","addr:street":"Turners Hill","brand":"Tesco Metro","brand:wikidata":"Q57551648","brand:wikipedia":"en:Tesco","opening_hours":"Mo-Fr 07:00-23:00; Sa 07:00-22:00; Su 10:00-16:00","operator":"Tesco Stores Ltd","phone":"+44 345 6779154","shop":"supermarket","website":"https:\/\/www.tesco.com\/store-locator\/waltham-cross\/64-66-turners-hill"}}, "geometry":{"type":"Point","coordinates":[-0.0341,51.70196 ]}},
{ "type":"Feature","properties":{"osm_id":"2947820870","name":"Cheshunt Food & Wine","other":{"addr:city":"Cheshunt","addr:housenumber":"186","addr:postcode":"EN8 9AF","addr:street":"Windmill Lane","shop":"supermarket"}}, "geometry":{"type":"Point","coordinates":[-0.02598,51.70289 ]}},
{ "type":"Feature","properties":{"osm_id":"6373750631","name":"COOP","other":{"shop":"supermarket"}}, "geometry":{"type":"Point","coordinates":[-0.04886,51.70931 ]}},
{ "type":"Feature","properties":{"osm_id":"7528683320","name":"Sainsbury's Local","other":{"addr:housenumber":"55-59","addr:postcode":"EN10 7HX","addr:street":"High Road","brand:wikidata":"Q13218434","opening_hours":"Mo-Su 07:00-23:00","shop":"supermarket"}}, "geometry":{"type":"Point","coordinates":[-0.01871,51.74811 ]}},
{ "type":"Feature","properties":{"osm_way_id":"7282813","name":"Sainsbury's","building":"yes","shop":"supermarket","other":{"addr:postcode":"EN11 8HF","addr:street":"Brewery Road","alt_name":"Sainsbury's Hoddesdon Superstore","brand":"Sainsbury's","brand:wikidata":"Q152096","brand:wikipedia":"en:Sainsbury's","fhrs:id":"176637"}}, "geometry":{"type":"MultiPolygon","coordinates":[[[[-0.00749,51.76121],[-0.00743,51.76119],[-0.00738,51.76117],[-0.00735,51.76114],[-0.00734,51.7611],[-0.00734,51.76106],[-0.00744,51.76081],[-0.00746,51.76078],[-0.00749,51.76076],[-0.00754,51.76075],[-0.00759,51.76075],[-0.0076,51.76072],[-0.00759,51.76067],[-0.00759,51.76061],[-0.0076,51.76056],[-0.00762,51.76051],[-0.00764,51.76046],[-0.00768,51.76041],[-0.00772,51.76037],[-0.00781,51.76039],[-0.00786,51.76026],[-0.00789,51.76024],[-0.00795,51.76021],[-0.00804,51.76017],[-0.00815,51.76013],[-0.00825,51.7601],[-0.00834,51.76008],[-0.00846,51.76006],[-0.00858,51.76005],[-0.00869,51.76005],[-0.00875,51.76006],[-0.00881,51.76006],[-0.00885,51.76006],[-0.00889,51.76006],[-0.00892,51.76007],[-0.00893,51.7601],[-0.00892,51.76012],[-0.00889,51.76014],[-0.00885,51.76015],[-0.00881,51.76025],[-0.00886,51.76026],[-0.00863,51.76088],[-0.00858,51.76088],[-0.00856,51.76095],[-0.00839,51.76093],[-0.00838,51.76097],[-0.0082,51.76095],[-0.00818,51.76101],[-0.0081,51.76104],[-0.00787,51.76113],[-0.00773,51.76118],[-0.00765,51.76121],[-0.00762,51.76122],[-0.00756,51.76122],[-0.00749,51.76121]]]]}},
{ "type":"Feature","properties":{"osm_way_id":"7283348","name":"Asda","building":"yes","landuse":"retail","shop":"supermarket","other":{"addr:country":"GB","addr:postcode":"EN11 8EP","addr:street":"Conduit Lane","alt_name":"ASDA Hoddesdon Supermarket","brand":"Asda","brand:wikidata":"Q297410","brand:wikipedia":"en:Asda","contact:facebook":"https:\/\/www.facebook.com\/asda\/","contact:twitter":"@asda","contact:website":"https:\/\/storelocator.asda.com\/east-of-england\/hoddesdon\/high-street-conduit-lane","fhrs:id":"188289","old_name":"Netto","operator":"Asda Stores Ltd"}}, "geometry":{"type":"MultiPolygon","coordinates":[[[[-0.01021,51.75951],[-0.0096,51.75946],[-0.00959,51.75951],[-0.00935,51.75949],[-0.0094,51.75926],[-0.00945,51.75927],[-0.00948,51.75916],[-0.01026,51.75923],[-0.01021,51.75951]]]]}},
{ "type":"Feature","properties":{"osm_way_id":"123158961","name":"Tesco Express","building":"yes","shop":"supermarket","other":{"addr:housenumber":"61-65","addr:postcode":"EN11 8TQ","addr:street":"High Street","atm":"yes","brand":"Tesco Express","brand:wikidata":"Q98456772","brand:wikipedia":"en:Tesco","fhrs:id":"177293","opening_hours":"Mo-Su 06:00-23:00","operator":"Tesco Stores Ltd"}}, "geometry":{"type":"MultiPolygon","coordinates":[[[[-0.01228,51.75976],[-0.01242,51.75976],[-0.01265,51.75975],[-0.01274,51.75975],[-0.01274,51.75979],[-0.01294,51.75979],[-0.01294,51.75984],[-0.01246,51.75985],[-0.01246,51.75986],[-0.01242,51.75986],[-0.01242,51.75989],[-0.01233,51.75989],[-0.01232,51.75988],[-0.01224,51.75987],[-0.01228,51.75976]]]]}},
{ "type":"Feature","properties":{"osm_way_id":"123159523","name":"Aldi","building":"yes","shop":"supermarket","other":{"addr:housenumber":"36","addr:postcode":"EN11 8TY","addr:street":"Taverners Way","alt_name":"ALDI Hoddesdon","brand":"ALDI","brand:wikidata":"Q41171672","brand:wikipedia":"en:Aldi","fhrs:id":"177955"}}, "geometry":{"type":"MultiPolygon","coordinates":[[[[-0.01391,51.75957],[-0.01352,51.75956],[-0.01345,51.76006],[-0.01385,51.76008],[-0.01386,51.75995],[-0.01393,51.75996],[-0.01397,51.75964],[-0.0139,51.75963],[-0.01391,51.75957]]]]}},
{ "type":"Feature","properties":{"osm_way_id":"133499472","name":"Iceland","building":"yes","shop":"supermarket","other":{"addr:postcode":"EN11 8PE","addr:street":"Brocket Road","alt_name":"Iceland Hoddesdon","brand":"Iceland","brand:wikidata":"Q721810","brand:wikipedia":"en:Iceland (supermarket)","fhrs:id":"174717"}}, "geometry":{"type":"MultiPolygon","coordinates":[[[[-0.01435,51.7595],[-0.01407,51.75949],[-0.01408,51.75919],[-0.01408,51.75915],[-0.01429,51.75916],[-0.01429,51.75917],[-0.01436,51.75917],[-0.01435,51.7595]]]]}},
{ "type":"Feature","properties":{"osm_way_id":"246765353","name":"Lidl","building":"shop","shop":"supermarket","other":{"addr:country":"GB","addr:postcode":"EN8 7AA","addr:street":"High Street","brand":"Lidl","brand:wikidata":"Q151954","brand:wikipedia":"en:Lidl","fhrs:id":"647011"}}, "geometry":{"type":"MultiPolygon","coordinates":[[[[-0.03289,51.68325],[-0.03251,51.6832],[-0.03261,51.68285],[-0.03281,51.68277],[-0.03302,51.68279],[-0.03289,51.68325]]]]}},
{ "type":"Feature","properties":{"osm_way_id":"249212555","name":"Morrisons","building":"yes","shop":"supermarket","other":{"addr:city":"Hoddesdon","addr:postcode":"EN11 8FL","addr:street":"Amwell Street","alt_name":"Morrisons Hoddesdon","brand":"Morrisons","brand:wikidata":"Q922344","brand:wikipedia":"en:Morrisons","fhrs:id":"619714","operator":"Morrisons","source:postcode":"FHRS data"}}, "geometry":{"type":"MultiPolygon","coordinates":[[[[-0.01124,51.76271],[-0.01137,51.76272],[-0.01134,51.76335],[-0.01128,51.76343],[-0.01122,51.76349],[-0.01112,51.76353],[-0.01103,51.76356],[-0.01075,51.76356],[-0.01076,51.76328],[-0.01014,51.76326],[-0.01016,51.7629],[-0.01043,51.76291],[-0.01043,51.76279],[-0.01043,51.7627],[-0.01124,51.76271]]]]}},
{ "type":"Feature","properties":{"osm_way_id":"307220910","name":"TFC","building":"yes","shop":"supermarket","other":{"addr:postcode":"EN8 7AN","website":"http:\/\/tfcsupermarket.com\/?map-location=waltham-cross&cm-ajax=1"}}, "geometry":{"type":"MultiPolygon","coordinates":[[[[-0.0332,51.68547],[-0.03356,51.68544],[-0.03393,51.68543],[-0.03391,51.68565],[-0.03365,51.68562],[-0.03344,51.6856],[-0.03334,51.68561],[-0.03333,51.68557],[-0.03322,51.68557],[-0.0332,51.68547]]]]}},
{ "type":"Feature","properties":{"osm_way_id":"307221837","name":"Sainsbury's","building":"yes","shop":"supermarket","other":{"addr:postcode":"EN8 7BZ","brand":"Sainsbury's","brand:wikidata":"Q152096","brand:wikipedia":"en:Sainsbury's","website":"https:\/\/stores.sainsburys.co.uk\/0769\/waltham-cross"}}, "geometry":{"type":"MultiPolygon","coordinates":[[[[-0.03261,51.6872],[-0.0324,51.68723],[-0.03238,51.68722],[-0.03233,51.68722],[-0.03192,51.68691],[-0.03189,51.6868],[-0.03218,51.68678],[-0.03251,51.68674],[-0.03261,51.6872]]]]}}
]
}
