{
"type": "FeatureCollection",
"features": [
{ "type":"Feature","properties":{"osm_way_id":"116106250","building":"yes","other":{"addr:city":"Norwich","addr:country":"GB","addr:housename":"Unit 17","addr:housenumber":"17","addr:postcode":"NR3 2BN","addr:street":"Telford Close","fax":"+44 1603 409551","phone":"+44 1603 789696"}}, "geometry":{"type":"MultiPolygon","coordinates":[[[[1.2642,52.64565],[1.2642,52.64572],[1.26443,52.64573],[1.26443,52.64565],[1.26432,52.64565],[1.2642,52.64565]]]]}},
{ "type":"Feature","properties":{"osm_way_id":"188868431","name":"EF Distribution Ltd","building":"unit","other":{"addr:city":"Norwich","addr:country":"GB","addr:housenumber":"2","addr:postcode":"NR6 6HJ","addr:street":"Hornet Court","phone":"+44 1603 488689","website":"http:\/\/www.efdistribution.co.uk\/"}}, "geometry":{"type":"MultiPolygon","coordinates":[[[[1.29023,52.67016],[1.29025,52.67026],[1.29025,52.67028],[1.29058,52.67025],[1.29055,52.67014],[1.29023,52.67016]]]]}},
{ "type":"Feature","properties":{"osm_way_id":"360602237","building":"yes","other":{"addr:city":"Norwich","addr:country":"GB","addr:housename":"Unit 18","addr:housenumber":"18","addr:postcode":"NR3 2BN","addr:street":"Telford Close"}}, "geometry":{"type":"MultiPolygon","coordinates":[[[[1.26443,52.64573],[1.2642,52.64572],[1.2642,52.6458],[1.26443,52.6458],[1.26443,52.64573]]]]}},
{ "type":"Feature","properties":{"osm_way_id":"700114312","name":"BSH Distribution","building":"warehouse"},"geometry":{"type":"MultiPolygon","coordinates":[[[[-0.66305,52.48217],[-0.66491,52.48099],[-0.6671,52.48228],[-0.66723,52.4822],[-0.66751,52.48236],[-0.66738,52.48244],[-0.6693,52.48356],[-0.66948,52.48345],[-0.66965,52.48355],[-0.66947,52.48367],[-0.66976,52.48383],[-0.66923,52.48417],[-0.66936,52.48424],[-0.66832,52.48491],[-0.6682,52.48484],[-0.66792,52.48502],[-0.66576,52.48376],[-0.66556,52.48388],[-0.66536,52.48377],[-0.66557,52.48364],[-0.66551,52.48361],[-0.66535,52.48371],[-0.66507,52.48354],[-0.66522,52.48344],[-0.66514,52.4834],[-0.66495,52.48352],[-0.66476,52.48341],[-0.66496,52.48329],[-0.66305,52.48217]]]]}}
]
}
