{
"type": "FeatureCollection",
"features": [
{ "type":"Feature","properties":{"osm_id":"745952278","name":"Co-Op","other":{"shop":"supermarket","fhrs:id":"17875","addr:street":"Grant Street","source:addr":"FHRS Open Data","addr:postcode":"AB56 4RS","addr:housenumber":"12"}}, "geometry":{"type":"Point","coordinates":[-2.82085,57.69056 ]}},
{ "type":"Feature","properties":{"osm_id":"3202372556","name":"Co-op Food","other":{"addr:housenumber":"62","addr:postcode":"IV30 6YA","addr:street":"Glenmoray Drive","alt_name":"The Co-operative Food","brand":"Co-op Food","brand:wikidata":"Q3277439","brand:wikipedia":"en:Co-op Food","operator":"The Co-operative Group","shop":"supermarket"}}, "geometry":{"type":"Point","coordinates":[-3.31502,57.63588 ]}},
{ "type":"Feature","properties":{"osm_id":"3639409027","name":"Co-op Food","other":{"brand":"Co-op Food","brand:wikidata":"Q3277439","brand:wikipedia":"en:Co-op Food","operator":"The Co-operative Group","shop":"supermarket"}}, "geometry":{"type":"Point","coordinates":[-3.30271,57.64852 ]}},
{ "type":"Feature","properties":{"osm_id":"4320332910","name":"Co-op","other":{"shop":"supermarket"}}, "geometry":{"type":"Point","coordinates":[-2.96197,57.67701 ]}},
{ "type":"Feature","properties":{"osm_id":"4723394391","name":"Costcutter","other":{"shop":"supermarket","brand":"Costcutter","addr:city":"Rothes","addr:street":"High Street","addr:postcode":"AB38 7AU","opening_hours":"Mo-Sa 6:00-19:00; Su 7:00-17:00","brand:wikidata":"Q5175072","brand:wikipedia":"en:Costcutter","addr:housenumber":"35"}}, "geometry":{"type":"Point","coordinates":[-3.2081,57.52616 ]}},
{ "type":"Feature","properties":{"osm_id":"4723394392","name":"Costcutter","other":{"shop":"supermarket","addr:city":"Dufftown","addr:street":"Balvenie Street","addr:postcode":"AB55 4AS","opening_hours":"Mo-Sa 6:30-20:00; Su 8:00-14:00","addr:housenumber":"40"}}, "geometry":{"type":"Point","coordinates":[-3.12908,57.44663 ]}},
{ "type":"Feature","properties":{"osm_way_id":"40003507","name":"Tesco","building":"yes","shop":"supermarket","other":{"brand":"Tesco","fhrs:id":"20116","alt_name":"Tesco Forres Nairn Road Superstore","addr:city":"Forres","addr:street":"Nairn Road","addr:postcode":"IV36 2EY","brand:wikidata":"Q487494","brand:wikipedia":"en:Tesco"}}, "geometry":{"type":"Polygon","coordinates":[[[ -3.62642,57.60866],[-3.62632,57.6087],[-3.6263,57.60868],[-3.62573,57.6089],[-3.62496,57.60832],[-3.62553,57.6081],[-3.6255,57.60808],[-3.6256,57.60804],[-3.62565,57.60808],[-3.62642,57.60866]] ]}},
{ "type":"Feature","properties":{"osm_way_id":"62282786","name":"Tesco Extra","building":"yes","shop":"supermarket","other":{"brand":"Tesco Extra","fhrs:id":"18848","alt_name":"Tesco Elgin Lossie Green Extra","wheelchair":"yes","addr:street":"Blackfriars Road","addr:postcode":"IV30 1TY","brand:wikidata":"Q25172225","brand:wikipedia":"en:Tesco Extra"}}, "geometry":{"type":"Polygon","coordinates":[[[ -3.3205,57.65049],[-3.3219,57.65015],[-3.32242,57.65077],[-3.32049,57.65124],[-3.32042,57.65116],[-3.32062,57.65111],[-3.32055,57.65102],[-3.32066,57.65099],[-3.32069,57.65103],[-3.32092,57.65098],[-3.32071,57.65074],[-3.3205,57.65049]] ]}},
{ "type":"Feature","properties":{"osm_way_id":"65544040","name":"Asda","building":"yes","shop":"supermarket","other":{"brand":"Asda","alt_name":"ASDA Elgin Superstore","operator":"Asda Stores Ltd","wheelchair":"yes","addr:street":"Edgar Road","addr:country":"GB","addr:postcode":"IV30 6YQ","brand:wikidata":"Q297410","brand:wikipedia":"en:Asda","contact:twitter":"@asda","contact:website":"https:\/\/storelocator.asda.com\/scotland\/elgin\/edgar-road","contact:facebook":"https:\/\/www.facebook.com\/asda\/"}}, "geometry":{"type":"Polygon","coordinates":[[[ -3.31131,57.6424],[-3.31132,57.64255],[-3.31014,57.64255],[-3.31014,57.64241],[-3.30999,57.64241],[-3.31,57.64179],[-3.31128,57.64178],[-3.31129,57.64203],[-3.31147,57.64203],[-3.31176,57.6424],[-3.31131,57.6424]] ]}},
{ "type":"Feature","properties":{"osm_way_id":"65602054","name":"Aldi","building":"yes","shop":"supermarket","other":{"addr:postcode":"IV30 1UL","addr:street":"Trinity Place","alt_name":"ALDI Elgin","brand":"ALDI","brand:wikidata":"Q41171672","brand:wikipedia":"en:Aldi","fhrs:id":"20184"}}, "geometry":{"type":"Polygon","coordinates":[[[ -3.3169,57.6498],[-3.31698,57.64989],[-3.31721,57.65017],[-3.31678,57.65027],[-3.31665,57.65012],[-3.31658,57.65013],[-3.31649,57.65002],[-3.31655,57.65],[-3.31647,57.6499],[-3.3169,57.6498]] ]}},
{ "type":"Feature","properties":{"osm_way_id":"75927422","name":"Lidl","building":"yes","shop":"supermarket","other":{"brand":"Lidl","fhrs:id":"20189","alt_name":"LIDL Elgin","wheelchair":"yes","addr:street":"Station Road","addr:postcode":"IV30 1QJ","brand:wikidata":"Q151954","brand:wikipedia":"en:Lidl"}}, "geometry":{"type":"Polygon","coordinates":[[[ -3.30982,57.64323],[-3.30954,57.64323],[-3.30954,57.6432],[-3.30873,57.64322],[-3.30871,57.64298],[-3.30894,57.64297],[-3.30893,57.64292],[-3.30911,57.64292],[-3.30911,57.64298],[-3.3098,57.64296],[-3.30982,57.64323]] ]}},
{ "type":"Feature","properties":{"osm_way_id":"118442278","name":"Lidl","building":"yes","shop":"supermarket","other":{"brand":"Lidl","fhrs:id":"28607","alt_name":"LIDL Forres","addr:city":"Forres","wheelchair":"yes","addr:street":"West Road","addr:postcode":"IV36 2GW","brand:wikidata":"Q151954","brand:wikipedia":"en:Lidl","addr:housenumber":"18"}}, "geometry":{"type":"Polygon","coordinates":[[[ -3.63206,57.6083],[-3.63188,57.60832],[-3.63186,57.60827],[-3.63159,57.6083],[-3.63148,57.60799],[-3.63141,57.60799],[-3.63135,57.60783],[-3.63186,57.60777],[-3.63206,57.6083]] ]}},
{ "type":"Feature","properties":{"osm_way_id":"152991571","name":"Co-op Food","building":"yes","shop":"supermarket","other":{"addr:postcode":"IV31 6ED","addr:street":"Coulardbank Road","alt_name":"Co-op","brand":"Co-op Food","brand:wikidata":"Q3277439","brand:wikipedia":"en:Co-op Food","fhrs:id":"20042","operator":"The Coop"}}, "geometry":{"type":"Polygon","coordinates":[[[ -3.29934,57.71311],[-3.29933,57.71315],[-3.29924,57.71314],[-3.2992,57.71328],[-3.29874,57.71324],[-3.29873,57.71328],[-3.2985,57.71326],[-3.29855,57.71309],[-3.29863,57.7131],[-3.29866,57.71299],[-3.29936,57.71305],[-3.29934,57.71311]] ]}},
{ "type":"Feature","properties":{"osm_way_id":"237738030","name":"Scotmid","building":"yes","shop":"supermarket","other":{"addr:city":"Fochabers","addr:housenumber":"73","addr:postcode":"IV32 7DH","addr:street":"High Street","brand":"Scotmid","brand:wikidata":"Q7435719","brand:wikipedia":"en:Scotmid","fhrs:id":"19423","operator":"Scottish Midland Co-operative Society"}}, "geometry":{"type":"Polygon","coordinates":[[[ -3.09842,57.61437],[-3.09858,57.61442],[-3.0985,57.61449],[-3.09822,57.61441],[-3.09833,57.6143],[-3.09837,57.61427],[-3.09849,57.61431],[-3.09847,57.61432],[-3.09843,57.61436],[-3.09842,57.61437]] ]}},
{ "type":"Feature","properties":{"osm_way_id":"237738032","name":"Co-op","building":"yes","shop":"supermarket","other":{"addr:housenumber":"39","addr:postcode":"IV32 7DX","addr:street":"High Street","designation":"The Co-operative Food","fhrs:id":"1008604"}}, "geometry":{"type":"Polygon","coordinates":[[[ -3.0951,57.61344],[-3.09491,57.61339],[-3.09511,57.6132],[-3.0952,57.61323],[-3.09532,57.61313],[-3.09541,57.61315],[-3.09524,57.61332],[-3.0951,57.61344]] ]}},
{ "type":"Feature","properties":{"osm_way_id":"237840821","name":"Lidl","building":"supermarket","shop":"supermarket","other":{"brand":"Lidl","fhrs:id":"21973","addr:street":"East Cathcart Street","designation":"Buckie","addr:postcode":"AB56 1PJ","brand:wikidata":"Q151954","brand:wikipedia":"en:Lidl","addr:housenumber":"10"}}, "geometry":{"type":"Polygon","coordinates":[[[ -2.96246,57.67547],[-2.96195,57.67562],[-2.96181,57.67548],[-2.96189,57.67546],[-2.96151,57.67508],[-2.96175,57.67502],[-2.9617,57.67497],[-2.96189,57.67492],[-2.96246,57.67547]] ]}},
{ "type":"Feature","properties":{"osm_way_id":"237840822","name":"Tesco","building":"yes","shop":"supermarket","other":{"brand":"Tesco","fhrs:id":"33880","addr:street":"High Street","designation":"Buckie Superstore","addr:postcode":"AB56 4AD","brand:wikidata":"Q487494","brand:wikipedia":"en:Tesco"}}, "geometry":{"type":"Polygon","coordinates":[[[ -2.96003,57.66686],[-2.95987,57.66689],[-2.95978,57.66676],[-2.95888,57.66694],[-2.95859,57.66652],[-2.95964,57.66631],[-2.96003,57.66686]] ]}},
{ "type":"Feature","properties":{"osm_way_id":"307659865","name":"Co-op Food","building":"yes","shop":"supermarket","other":{"brand":"Co-op Food","fhrs:id":"18362","alt_name":"The Co-operative Food","operator":"The Co-operative Group","addr:city":"Aberlour","addr:street":"High Street","addr:postcode":"AB38 9QB","opening_hours":"Mo-Su 07:00-22:00","brand:wikidata":"Q3277439","brand:wikipedia":"en:Co-op Food","addr:housenumber":"91"}}, "geometry":{"type":"Polygon","coordinates":[[[ -3.22519,57.47047],[-3.22504,57.47054],[-3.22474,57.47038],[-3.2249,57.4703],[-3.22519,57.47047]] ]}},
{ "type":"Feature","properties":{"osm_way_id":"359186325","name":"The Co-operative Food","building":"yes","shop":"supermarket","other":{"fhrs:id":"19513","operator":"The Co-operative Group","addr:city":"Forres","addr:street":"High Street","addr:postcode":"IV36 1PF","addr:housenumber":"52-56"}}, "geometry":{"type":"Polygon","coordinates":[[[ -3.6118,57.61028],[-3.61214,57.6105],[-3.61175,57.61069],[-3.61141,57.61045],[-3.6118,57.61028]] ]}},
{ "type":"Feature","properties":{"osm_way_id":"425166864","name":"Tesco","building":"yes","shop":"supermarket","other":{"addr:city":"Keith","addr:postcode":"AB55 5HB","addr:street":"Moss Street","alt_name":"tesco Keith Moss St Superstore","brand":"Tesco","brand:wikidata":"Q487494","brand:wikipedia":"en:Tesco","fhrs:id":"26672"}}, "geometry":{"type":"Polygon","coordinates":[[[ -2.9448,57.54203],[-2.944,57.54199],[-2.94397,57.54216],[-2.94377,57.54215],[-2.94383,57.54182],[-2.94402,57.54183],[-2.94412,57.54134],[-2.94492,57.54138],[-2.9448,57.54203]] ]}},
{ "type":"Feature","properties":{"osm_way_id":"926038198","building":"shed"},"geometry":{"type":"Polygon","coordinates":[[[ -3.09214,57.60874],[-3.0921,57.60873],[-3.09211,57.60871],[-3.09216,57.60873],[-3.09214,57.60874]] ]}}
]
}
