{
"type": "FeatureCollection",
"features": [
{ "type":"Feature","properties":{"osm_id":"1560693872","man_made":"surveillance","other":{"camera:mount":"building","camera:type":"dome","surveillance:type":"camera"}}, "geometry":{"type":"Point","coordinates":[-0.97547,54.58372 ]}},
{ "type":"Feature","properties":{"osm_id":"2195957055","name":"Bengali Fonga Market","other":{"addr:city":"London","addr:housenumber":"325","addr:postcode":"E2 0EG","addr:street":"Bethnal Green Road","shop":"supermarket"}}, "geometry":{"type":"Point","coordinates":[-0.0585,51.52719 ]}},
{ "type":"Feature","properties":{"osm_id":"2320089166","name":"Tesco Metro","other":{"addr:city":"London","addr:housename":"Cabot Place West","addr:housenumber":"15","addr:postcode":"E14 4QT","addr:street":"Cabot Square","brand":"Tesco Metro","brand:wikidata":"Q57551648","contact:website":"https:\/\/www.tesco.com\/store-locator\/london\/15-cabot-square","fhrs:id":"44830","level":"2","level:ref":"1","name:fa":"تسکو مترو","opening_hours":"Mo-Fr 06:00-21:00; Sa 08:00-21:00; Su 12:00-18:00","phone":"+44 845 677 9132","shop":"supermarket","source:addr":"FHRS Open Data","wheelchair":"yes"}}, "geometry":{"type":"Point","coordinates":[-0.02126,51.50528 ]}},
{ "type":"Feature","properties":{"osm_id":"3606132322","name":"E1 Local","other":{"addr:city":"London","addr:housenumber":"58a","addr:postcode":"E1 1LP","addr:street":"Commercial Road","brand":"Nisa Local","fhrs:id":"679383","opening_hours":"Mo-Th,Su 07:00-24:00, Fr,Sa 07:00-02:00","operator":"Ortega Ltd","shop":"supermarket","website":"http:\/\/www.nisalocally.co.uk\/store\/ortega-ltd-58a-commercial-rd-london"}}, "geometry":{"type":"Point","coordinates":[-0.06759,51.51477 ]}},
{ "type":"Feature","properties":{"osm_id":"3880588727","name":"Fodal Oriental Supermarket","other":{"addr:city":"London","addr:housenumber":"156","addr:postcode":"E14 3QA","addr:street":"Westferry Road","fhrs:id":"68113","shop":"supermarket","source:addr:postcode":"FHRS Open Data"}}, "geometry":{"type":"Point","coordinates":[-0.02479,51.49238 ]}},
{ "type":"Feature","properties":{"osm_id":"3943306954","name":"Tesco Metro","other":{"addr:city":"London","addr:housenumber":"4","addr:postcode":"E1 1ES","addr:street":"Fieldgate Street","branch":"Whitechapel Fieldgate Metro","brand":"Tesco Metro","brand:wikidata":"Q57551648","fhrs:id":"362433","opening_hours":"Mo-Sa 6:00-24:00; Su 12:00-18:00","shop":"supermarket"}}, "geometry":{"type":"Point","coordinates":[-0.06634,51.51687 ]}},
{ "type":"Feature","properties":{"osm_id":"4350296860","name":"Tesco","other":{"addr:city":"London","addr:housenumber":"66","addr:postcode":"E3 5EQ","addr:street":"Vernon Road","brand":"Tesco","brand:wikidata":"Q487494","brand:wikipedia":"en:Tesco","fhrs:id":"634032","name:fa":"تسکو","shop":"supermarket","website":"https:\/\/www.tesco.com\/store-locator\/bow\/66-vernon-rd"}}, "geometry":{"type":"Point","coordinates":[-0.02946,51.53263 ]}},
{ "type":"Feature","properties":{"osm_id":"5998125898","name":"Bangla Bazar Cash & Carry","other":{"addr:city":"London","addr:housenumber":"130-132","addr:postcode":"E14 7PQ","addr:street":"Salmon Lane","fhrs:id":"90208","fhrs:local_authority_id":"24459","level":"0","shop":"supermarket","source:addr":"FHRS Open Data"}}, "geometry":{"type":"Point","coordinates":[-0.03327,51.51337 ]}},
{ "type":"Feature","properties":{"osm_id":"7098936632","name":"M&S Simply Food","other":{"addr:city":"London","addr:housename":"Jubilee Place","addr:housenumber":"45","addr:postcode":"E14 5NY","addr:street":"Bank Street","addr:unit":"Unit 16","brand":"M&S Simply Food","brand:wikidata":"Q714491","brand:wikipedia":"en:Marks & Spencer","fhrs:id":"80579","level":"-1","shop":"supermarket"}}, "geometry":{"type":"Point","coordinates":[-0.01771,51.50286 ]}},
{ "type":"Feature","properties":{"osm_id":"7100813249","name":"Tian Tian Oriental Supermarket","other":{"addr:city":"London","addr:housenumber":"48","addr:postcode":"E14 9JP","addr:street":"Lanterns Way","fhrs:id":"960864","not:addr:postcode":"E14 9JU","opening_hours":"Mo-Th 10:00-21:00; Fr,Sa 10:00-21:30; Su 12:00-18:00","shop":"supermarket"}}, "geometry":{"type":"Point","coordinates":[-0.01943,51.49784 ]}},
{ "type":"Feature","properties":{"osm_id":"7154752434","name":"Stroudley Walk Grocery","other":{"addr:city":"London","addr:housenumber":"2-4","addr:postcode":"E3 3EW","addr:street":"Stroudley Walk","addr:unit":"Unit 2","fhrs:id":"1155305","shop":"supermarket"}}, "geometry":{"type":"Point","coordinates":[-0.0178,51.52773 ]}},
{ "type":"Feature","properties":{"osm_id":"7962611368","name":"Sainsbury's","other":{"addr:city":"London","addr:postcode":"E14 0SY","addr:street":"Hopewell Square","brand":"Sainsbury's","brand:wikidata":"Q152096","brand:wikipedia":"en:Sainsbury's","layer":"0","opening_hours":"Mo-Sa 07:00-23:00; Su 11:00-17:00","operator":"Sainsbury's","shop":"supermarket","website":"https:\/\/stores.sainsburys.co.uk\/5052\/london-city-island-local"}}, "geometry":{"type":"Point","coordinates":[0.00679,51.51306 ]}},
{ "type":"Feature","properties":{"osm_id":"8442416816","name":"Tian Tian Market","other":{"addr:city":"London","addr:housenumber":"18","addr:postcode":"E1 8ZN","addr:street":"Piazza Walk","addr:unit":"Units 2 & 3","fhrs:id":"1316865","level":"0","opening_hours":"Mo-Th,Su 10:00-21:00; Fr-Sa 10:00-21:30","origin":"asian","shop":"supermarket","website":"http:\/\/www.tiantian.london\/"}}, "geometry":{"type":"Point","coordinates":[-0.06855,51.51366 ]}},
{ "type":"Feature","properties":{"osm_id":"8758968673","name":"Amazon Fresh","other":{"addr:city":"London","addr:housenumber":"4","addr:postcode":"E14 5GX","addr:street":"Water Street","brand":"Amazon Fresh","brand:wikidata":"Q4740834","brand:wikipedia":"en:Amazon Fresh","fhrs:id":"1425383","opening_hours":"Mo-Su 07:00-23:00","shop":"supermarket"}}, "geometry":{"type":"Point","coordinates":[-0.01517,51.50282 ]}},
{ "type":"Feature","properties":{"osm_id":"9053062657","name":"Nisa","other":{"addr:city":"London","addr:housenumber":"1","addr:postcode":"E14 2ED","addr:street":"Newport Avenue","fhrs:id":"96577","fhrs:local_authority_id":"29490","opening_hours":"Mo-Sa 06:00-23:00; Su 09:00-21:00","shop":"supermarket"}}, "geometry":{"type":"Point","coordinates":[-0.00206,51.50913 ]}},
{ "type":"Feature","properties":{"osm_id":"9110441075","name":"Old Ford Jazz Club","other":{"amenity":"events_venue","music":"jazz"}}, "geometry":{"type":"Point","coordinates":[-0.03304,51.535 ]}},
{ "type":"Feature","properties":{"osm_id":"9352895797","name":"Amazon Fresh","other":{"addr:city":"London","addr:housename":"Goodmans Fields","addr:postcode":"E1 8PU","addr:street":"Leman Street","brand":"Amazon Fresh","brand:wikidata":"Q4740834","brand:wikipedia":"en:Amazon Fresh","opening_hours":"Mo-Su 07:00-23:00; Dec 25-26 off; Dec 27 09:00-23:00","shop":"supermarket"}}, "geometry":{"type":"Point","coordinates":[-0.07014,51.51351 ]}},
{ "type":"Feature","properties":{"osm_id":"9400588414","name":"Planet Organic","other":{"addr:city":"London","addr:housename":"The Exchange Building","addr:housenumber":"132","addr:postcode":"E1 6NG","addr:street":"Commercial Street","brand":"Planet Organic","brand:wikidata":"Q24298870","brand:wikipedia":"en:Planet Organic","opening_hours":"Mo-Sa 08:00-21:00; Su 09:00-19:00","organic":"only","phone":"+44 20 7247 9596","shop":"supermarket"}}, "geometry":{"type":"Point","coordinates":[-0.07514,51.52128 ]}},
{ "type":"Feature","properties":{"osm_way_id":"14492080","name":"Sainsbury's","building":"yes","shop":"supermarket","other":{"addr:city":"London","addr:housename":"Sainsbury Foodstore","addr:housenumber":"1","addr:postcode":"E1 5SD","addr:street":"Cambridge Heath Road","branch":"Whitechapel Superstore","brand":"Sainsbury's","brand:wikidata":"Q152096","brand:wikipedia":"en:Sainsbury's","fhrs:id":"44301","opening_hours":"Mo-Sa 07:00-23:00; Su 11:00-17:00","source:addr:postcode":"FHRS Open Data"}}, "geometry":{"type":"MultiPolygon","coordinates":[[[[-0.05771,51.5208],[-0.05839,51.52061],[-0.0586,51.52058],[-0.05869,51.52063],[-0.05928,51.52146],[-0.05892,51.52156],[-0.0589,51.52153],[-0.0585,51.52164],[-0.05847,51.52159],[-0.0583,51.52164],[-0.05825,51.52155],[-0.05811,51.52159],[-0.05795,51.52136],[-0.05827,51.52128],[-0.05818,51.52115],[-0.05808,51.52118],[-0.05787,51.52087],[-0.05778,51.52089],[-0.05775,51.52085],[-0.05771,51.5208]]]]}},
{ "type":"Feature","properties":{"osm_way_id":"24458195","name":"Asda","building":"retail","shop":"supermarket","other":{"addr:city":"London","addr:country":"GB","addr:housenumber":"151","addr:postcode":"E14 3BT","addr:street":"East Ferry Road","addr:unit":"Unit 2","branch":"Isle of Dogs Superstore","brand":"Asda","brand:wikidata":"Q297410","brand:wikipedia":"en:Asda","building:levels":"1","contact:facebook":"https:\/\/www.facebook.com\/asda\/","contact:twitter":"@asda","contact:website":"https:\/\/storelocator.asda.com\/london\/london\/151-east-ferry-road-isle-of-dogs","fhrs:id":"150650","opening_hours":"Mo 06:00-00:00; Tu-Fr 00:00-24:00; Sa 00:00-22:00; Su 11:00-17:00","operator":"Asda Stores Ltd","source:addr:postcode":"FHRS Open Data","wheelchair":"yes"}}, "geometry":{"type":"MultiPolygon","coordinates":[[[[-0.01244,51.49342],[-0.01235,51.49395],[-0.01226,51.49394],[-0.01223,51.49409],[-0.0124,51.4941],[-0.01237,51.49429],[-0.01242,51.49429],[-0.01242,51.49432],[-0.0125,51.49432],[-0.01249,51.49437],[-0.01324,51.49442],[-0.01326,51.49434],[-0.01376,51.49438],[-0.01385,51.49389],[-0.01369,51.49388],[-0.01371,51.49378],[-0.0136,51.49378],[-0.01362,51.49367],[-0.01369,51.49367],[-0.0137,51.49362],[-0.01372,51.49362],[-0.01373,51.49358],[-0.01377,51.49359],[-0.01378,51.4935],[-0.01244,51.49342]]]]}},
{ "type":"Feature","properties":{"osm_way_id":"25533281","name":"Waitrose","building":"retail","shop":"supermarket","other":{"addr:city":"London","addr:housenumber":"41","addr:postcode":"E1W 1YY","addr:street":"Thomas More Street","alt_name":"Waitrose St Katharine Docks","brand":"Waitrose","brand:wikidata":"Q771734","brand:wikipedia":"en:Waitrose","building:levels":"3","fhrs:id":"92607","official_name":"Waitrose & Partners","opening_hours":"Mo-Fr 07:30-22:00; Sa 07:30-21:00; Su 11:00-17:00","operator":"Waitrose & Partners","wheelchair":"yes"}}, "geometry":{"type":"MultiPolygon","coordinates":[[[[-0.06783,51.50693],[-0.06762,51.50699],[-0.06754,51.507],[-0.06739,51.50704],[-0.06736,51.50708],[-0.06715,51.50714],[-0.06711,51.50713],[-0.06708,51.5071],[-0.06695,51.50714],[-0.06691,51.50709],[-0.06693,51.50708],[-0.06689,51.50703],[-0.06697,51.50701],[-0.06681,51.50681],[-0.06695,51.50677],[-0.06754,51.5066],[-0.06758,51.50658],[-0.06781,51.50688],[-0.06779,51.50688],[-0.06783,51.50693]]]]}},
{ "type":"Feature","properties":{"osm_way_id":"51872741","name":"Lidl","building":"retail","shop":"supermarket","other":{"addr:city":"London","addr:housenumber":"306","addr:postcode":"E14 7DL","addr:street":"Burdett Road","brand":"Lidl","brand:wikidata":"Q151954","brand:wikipedia":"en:Lidl","building:levels":"1","fhrs:id":"44488","fhrs:local_authority_id":"10792","opening_hours":"Mo-Sa 07:00-23:00; Su 11:00-17:00","roof:shape":"gabled","source:addr":"FHRS Open Data"}}, "geometry":{"type":"MultiPolygon","coordinates":[[[[-0.02902,51.51473],[-0.02864,51.5148],[-0.02841,51.51436],[-0.02878,51.51429],[-0.02886,51.51443],[-0.02893,51.51441],[-0.02898,51.51457],[-0.02894,51.51458],[-0.02902,51.51473]]]]}},
{ "type":"Feature","properties":{"osm_way_id":"142608981","name":"Sainsbury's","building":"supermarket","shop":"supermarket","other":{"brand":"Sainsbury's","brand:wikidata":"Q152096","brand:wikipedia":"en:Sainsbury's","building:material":"brick","operator":"Sainsbury's","source:geometry":"Bing"}}, "geometry":{"type":"MultiPolygon","coordinates":[[[[-0.97422,54.58362],[-0.97425,54.58387],[-0.97548,54.58383],[-0.97547,54.58372],[-0.97505,54.58374],[-0.97503,54.58358],[-0.97422,54.58362]]]]}},
{ "type":"Feature","properties":{"osm_way_id":"211187819","name":"Tesco","building":"yes","shop":"supermarket","other":{"addr:city":"London","addr:postcode":"E3 3DA","addr:street":"Hancock Road","brand":"Tesco","brand:wikidata":"Q487494","brand:wikipedia":"en:Tesco","contact:website":"https:\/\/www.tesco.com\/store-locator\/london\/hancock-rd","fhrs:id":"41230","fhrs:local_authority_id":"10233","internet_access":"wlan","name:fa":"تسکو","opening_hours":"Mo-Sa 06:00-00:00, Su 12:00-18:00","operator":"Tesco","phone":"+44 3456 779085","wheelchair":"yes","wheelchair:description":"very comfortable and spacious. Ramps available on both entrances."}}, "geometry":{"type":"MultiPolygon","coordinates":[[[[-0.01045,51.52691],[-0.00926,51.52682],[-0.00917,51.52681],[-0.00898,51.5268],[-0.00907,51.52635],[-0.00912,51.52635],[-0.00913,51.52627],[-0.00937,51.52629],[-0.00939,51.52623],[-0.00955,51.52625],[-0.00965,51.52624],[-0.00971,51.52634],[-0.00999,51.52636],[-0.01002,51.5262],[-0.01014,51.52621],[-0.01013,51.52629],[-0.0103,51.5263],[-0.01036,51.52637],[-0.01034,51.52646],[-0.01054,51.52647],[-0.01053,51.52654],[-0.01052,51.52654],[-0.01046,51.52685],[-0.01047,51.52685],[-0.01045,51.52691]]]]}},
{ "type":"Feature","properties":{"osm_way_id":"267565297","name":"Zaman Brothers Cash and Carry","building":"yes","shop":"supermarket","other":{"addr:city":"London","addr:housenumber":"17-19","addr:postcode":"E1 6PU","addr:street":"Brick Lane","fhrs:id":"78734","fhrs:local_authority_id":"18803","source:addr:postcode":"FHRS Open Data"}}, "geometry":{"type":"MultiPolygon","coordinates":[[[[-0.07128,51.51813],[-0.07118,51.51799],[-0.07132,51.51795],[-0.07141,51.51811],[-0.07128,51.51813]]]]}},
{ "type":"Feature","properties":{"osm_way_id":"270439730","name":"Taj Stores","building":"yes","shop":"supermarket","other":{"addr:city":"London","addr:floor":"Ground Floor","addr:housenumber":"112","addr:postcode":"E1 6RL","addr:street":"Brick Lane","fhrs:id":"49697","fhrs:local_authority_id":"11035","level":"0","source:addr":"FHRS Open Data"}}, "geometry":{"type":"MultiPolygon","coordinates":[[[[-0.07178,51.52001],[-0.07177,51.51991],[-0.07163,51.51991],[-0.07162,51.51994],[-0.07158,51.51995],[-0.0716,51.51998],[-0.07162,51.51998],[-0.07165,51.52001],[-0.07178,51.52001]]]]}},
{ "type":"Feature","properties":{"osm_way_id":"278723753","name":"Sainsbury's","shop":"supermarket","other":{"addr:city":"London","addr:housenumber":"27","addr:postcode":"E1 8AA","addr:street":"Mansell Street","brand":"Sainsbury's","brand:wikidata":"Q152096","brand:wikipedia":"en:Sainsbury's","fhrs:id":"530834","opening_hours":"Mo-Sa 07:00-23:00, Su 08:00-23:00","website":"https:\/\/stores.sainsburys.co.uk\/4210\/tower-hamlets-mansell-street-local"}}, "geometry":{"type":"MultiPolygon","coordinates":[[[[-0.07315,51.5134],[-0.07276,51.51347],[-0.0727,51.51336],[-0.0731,51.51328],[-0.07315,51.5134]]]]}},
{ "type":"Feature","properties":{"osm_way_id":"365884005","name":"Nilsa Supermarket","shop":"supermarket","other":{"addr:city":"London","addr:housenumber":"3-7","addr:postcode":"E1 2LL","addr:street":"Burslem Street","building:level":"0","building:part":"yes","fhrs:id":"42360","name:fa":"سوپرمارکت نیلسا"}}, "geometry":{"type":"MultiPolygon","coordinates":[[[[-0.06333,51.51328],[-0.06334,51.51337],[-0.06307,51.51337],[-0.06307,51.51328],[-0.06333,51.51328]]]]}},
{ "type":"Feature","properties":{"osm_way_id":"428095767","name":"Co-op Food","building":"yes","shop":"supermarket","other":{"addr:city":"London","addr:housenumber":"77-101","addr:postcode":"E1W 2BN","addr:street":"The Highway","brand":"Co-op Food","brand:wikidata":"Q3277439","brand:wikipedia":"en:Co-op Food","fhrs:id":"530871","not:addr:postcode":"E1W 2BX","opening_hours":"24\/7","phone":"+44 20 7709 1370","website":"https:\/\/www.co-operative.coop\/"}}, "geometry":{"type":"MultiPolygon","coordinates":[[[[-0.06349,51.50961],[-0.06349,51.50945],[-0.06327,51.50946],[-0.06327,51.50956],[-0.06341,51.50956],[-0.06341,51.50961],[-0.06349,51.50961]]]]}},
{ "type":"Feature","properties":{"osm_way_id":"460210925","name":"Tesco Metro","shop":"supermarket","other":{"addr:city":"London","addr:housenumber":"361","addr:postcode":"E2 0AN","addr:street":"Bethnal Green Road","branch":"Bethnal Green Metro","brand":"Tesco Metro","brand:wikidata":"Q57551648","contact:phone":"+44 345 677 9048","contact:website":"http:\/\/www.tesco.com\/store-locator\/uk\/?bID=2092","fhrs:id":"148395","level":"0","ref":"2092"}}, "geometry":{"type":"MultiPolygon","coordinates":[[[[-0.06186,51.52686],[-0.06193,51.52726],[-0.0616,51.52729],[-0.0612,51.52733],[-0.06117,51.52723],[-0.06115,51.52714],[-0.06114,51.52703],[-0.06112,51.52694],[-0.06186,51.52686]]]]}},
{ "type":"Feature","properties":{"osm_way_id":"742698478","name":"Asda","building":"retail","shop":"supermarket","other":{"addr:city":"London","addr:country":"GB","addr:housename":"Anchor House","addr:housenumber":"123","addr:postcode":"E1 4UJ","addr:street":"Mile End Road","addr:unit":"2","brand":"Asda","brand:wikidata":"Q297410","brand:wikipedia":"en:Asda","contact:facebook":"https:\/\/www.facebook.com\/asda\/","contact:twitter":"@asda","contact:website":"https:\/\/storelocator.asda.com\/london\/london\/anchor-retail-park","fhrs:id":"801264","fhrs:local_authority_id":"195080","opening_hours":"Mo 08:00-00:00; Tu-Fr 00:00-24:00; Sa 00:00-23:00; Su 11:00-17:00","operator":"Asda Stores Ltd","wheelchair":"yes"}}, "geometry":{"type":"MultiPolygon","coordinates":[[[[-0.04998,51.52239],[-0.0499,51.52188],[-0.04999,51.52188],[-0.04998,51.52185],[-0.05016,51.52184],[-0.05016,51.52187],[-0.05026,51.52186],[-0.05033,51.5223],[-0.05034,51.52237],[-0.04998,51.52239]]]]}}
]
}
