{
"type": "FeatureCollection",
"features": [
{ "type":"Feature","properties":{"osm_id":"345632075","name":"Sainsbury's","other":{"addr:city":"Luton","addr:country":"GB","addr:postcode":"LU3 4AB","addr:street":"Quantock Rise","brand":"Sainsbury's","brand:wikidata":"Q152096","brand:wikipedia":"en:Sainsbury's","fhrs:authority":"Luton","fhrs:id":"359170","fhrs:local_authority_id":"13052","shop":"supermarket"}}, "geometry":{"type":"Point","coordinates":[-0.43555,51.92077 ]}},
{ "type":"Feature","properties":{"osm_id":"422164273","name":"Budget Supermarket","other":{"addr:city":"Luton","addr:country":"GB","addr:housenumber":"15-17","addr:postcode":"LU1 5LY","addr:street":"The Crossway","fhrs:authority":"Luton","fhrs:id":"660680","fhrs:local_authority_id":"21107","shop":"supermarket"}}, "geometry":{"type":"Point","coordinates":[-0.42877,51.87134 ]}},
{ "type":"Feature","properties":{"osm_id":"422164500","name":"The Co-operative Food","other":{"addr:city":"Luton","addr:country":"GB","addr:housenumber":"13-15","addr:postcode":"LU1 5RD","addr:street":"Market Square","brand":"The Co-operative Food","brand:wikidata":"Q107617274","fhrs:authority":"Luton","fhrs:id":"359075","fhrs:local_authority_id":"10780","shop":"supermarket"}}, "geometry":{"type":"Point","coordinates":[-0.4388,51.8755 ]}},
{ "type":"Feature","properties":{"osm_id":"422164501","name":"Manns Supermarket","other":{"addr:city":"Luton","addr:country":"GB","addr:housenumber":"10-12","addr:postcode":"LU1 5RD","addr:street":"Market Square","fhrs:authority":"Luton","fhrs:id":"633503","fhrs:local_authority_id":"10779","shop":"supermarket"}}, "geometry":{"type":"Point","coordinates":[-0.43904,51.87533 ]}},
{ "type":"Feature","properties":{"osm_id":"428972670","name":"Ghuman Supermarket","other":{"addr:city":"Luton","addr:country":"GB","addr:housenumber":"176-178","addr:postcode":"LU2 9AY","addr:street":"Ashcroft Road","fhrs:authority":"Luton","fhrs:id":"741150","fhrs:local_authority_id":"1106","shop":"supermarket"}}, "geometry":{"type":"Point","coordinates":[-0.3941,51.89588 ]}},
{ "type":"Feature","properties":{"osm_id":"3724714801","name":"Iceland","other":{"addr:city":"Luton","addr:country":"GB","addr:housenumber":"3-4","addr:postcode":"LU2 9TA","addr:street":"Wigmore Lane","brand":"Iceland","brand:wikidata":"Q721810","fhrs:authority":"Luton","fhrs:id":"911570","fhrs:local_authority_id":"17544","phone":"+44 1582 401469","shop":"supermarket"}}, "geometry":{"type":"Point","coordinates":[-0.3714,51.88866 ]}},
{ "type":"Feature","properties":{"osm_id":"3919355563","name":"Tesco Express","other":{"addr:city":"Luton","addr:country":"GB","addr:housenumber":"4","addr:postcode":"LU2 9HB","addr:street":"Eaton Green Road","brand":"Tesco Express","brand:wikidata":"Q98456772","brand:wikipedia":"en:Tesco","contact:website":"https:\/\/www.tesco.com\/store-locator\/luton\/4-eaton-green-rd","fhrs:id":"459607","operator":"Tesco Stores Ltd","shop":"supermarket","wheelchair":"yes"}}, "geometry":{"type":"Point","coordinates":[-0.38574,51.88335 ]}},
{ "type":"Feature","properties":{"osm_id":"4197097185","name":"VS Food & Wine","other":{"addr:city":"Luton","addr:street":"Manchester Street","shop":"supermarket"}}, "geometry":{"type":"Point","coordinates":[-0.41805,51.8806 ]}},
{ "type":"Feature","properties":{"osm_id":"4202213222","name":"Tesco","other":{"addr:city":"Luton","addr:street":"Luton Mall","brand":"Tesco","brand:wikidata":"Q487494","brand:wikipedia":"en:Tesco","operator":"Tesco Stores Ltd","shop":"supermarket","website":"https:\/\/www.tesco.com\/store-locator\/luton\/57-luton-mall"}}, "geometry":{"type":"Point","coordinates":[-0.41321,51.87914 ]}},
{ "type":"Feature","properties":{"osm_id":"5711380621","name":"Marks & Spencer Simply Food","other":{"brand":"M&S Simply Food","brand:wikidata":"Q714491","level":"0","shop":"supermarket"}}, "geometry":{"type":"Point","coordinates":[-0.37558,51.88005 ]}},
{ "type":"Feature","properties":{"osm_id":"6600105024","name":"The Food Warehouse","other":{"addr:city":"Luton","addr:country":"GB","addr:postcode":"LU1 3JH","addr:street":"Gipsy Lane","addr:unit":"Unit 7a, Luton Retail Park","brand":"The Food Warehouse","brand:wikidata":"Q87263899","fhrs:authority":"Luton","fhrs:id":"1109803","fhrs:local_authority_id":"134310","opening_hours":"Mo-Sa 08:00-20:00; Su 10:00-16:00","operator":"Iceland","phone":"+44 1582 731 468","shop":"supermarket","website":"https:\/\/www.thefoodwarehouse.com\/store-locator\/luton"}}, "geometry":{"type":"Point","coordinates":[-0.39708,51.87282 ]}},
{ "type":"Feature","properties":{"osm_id":"7167643427","name":"Sandhersons","other":{"addr:city":"Luton","addr:country":"GB","addr:housenumber":"94-96","addr:postcode":"LU1 1EH","addr:street":"Dunstable Road","fhrs:authority":"Luton","fhrs:id":"359447","fhrs:local_authority_id":"5915","shop":"supermarket"}}, "geometry":{"type":"Point","coordinates":[-0.42718,51.8846 ]}},
{ "type":"Feature","properties":{"osm_id":"7177561075","name":"Dallow Food Centre","other":{"addr:city":"Luton","addr:country":"GB","addr:housenumber":"489-491","addr:postcode":"LU1 1UN","addr:street":"Dallow Road","fhrs:authority":"Luton","fhrs:id":"359425","fhrs:local_authority_id":"5402","shop":"supermarket"}}, "geometry":{"type":"Point","coordinates":[-0.45279,51.88438 ]}},
{ "type":"Feature","properties":{"osm_id":"7191883393","name":"Luton Star Supermarket","other":{"addr:city":"Luton","addr:country":"GB","addr:housenumber":"33-35","addr:postcode":"LU2 0BW","addr:street":"High Town Road","fhrs:authority":"Luton","fhrs:id":"666384","fhrs:local_authority_id":"8200","shop":"supermarket"}}, "geometry":{"type":"Point","coordinates":[-0.41272,51.88408 ]}},
{ "type":"Feature","properties":{"osm_id":"7194044765","name":"Kopernik Polish Supermarket","other":{"addr:city":"Luton","addr:country":"GB","addr:housenumber":"70","addr:postcode":"LU2 0DG","addr:street":"High Town Road","fhrs:authority":"Luton","fhrs:id":"715315","fhrs:local_authority_id":"8242","shop":"supermarket"}}, "geometry":{"type":"Point","coordinates":[-0.4116,51.88476 ]}},
{ "type":"Feature","properties":{"osm_id":"7195958628","name":"Co-op","other":{"addr:city":"Luton","addr:country":"GB","addr:postcode":"LU2 7SF","addr:street":"Hancock Drive","addr:unit":"1-3 The Parade","fhrs:authority":"Luton","fhrs:id":"656106","fhrs:local_authority_id":"7563","shop":"supermarket"}}, "geometry":{"type":"Point","coordinates":[-0.41163,51.9085 ]}},
{ "type":"Feature","properties":{"osm_id":"7196861850","name":"Co-operative","other":{"addr:city":"Luton","addr:country":"GB","addr:housenumber":"78-80","addr:postcode":"LU2 8AB","addr:street":"Wigmore Lane","fhrs:authority":"Luton","fhrs:id":"359241","fhrs:local_authority_id":"17528","shop":"supermarket"}}, "geometry":{"type":"Point","coordinates":[-0.38929,51.89765 ]}},
{ "type":"Feature","properties":{"osm_id":"7204478761","name":"Al-Islah Cash & Carry and Foodstore","other":{"addr:city":"Luton","addr:country":"GB","addr:housenumber":"290-294","addr:postcode":"LU3 1AZ","addr:street":"Biscot Road","shop":"supermarket"}}, "geometry":{"type":"Point","coordinates":[-0.43187,51.89515 ]}},
{ "type":"Feature","properties":{"osm_id":"7204522312","name":"Co-operative","other":{"addr:city":"Luton","addr:country":"GB","addr:housenumber":"151-53","addr:postcode":"LU3 1AW","addr:street":"Biscot Road","fhrs:authority":"Luton","fhrs:id":"633507","fhrs:local_authority_id":"2022","shop":"supermarket"}}, "geometry":{"type":"Point","coordinates":[-0.43,51.89224 ]}},
{ "type":"Feature","properties":{"osm_id":"7206897988","name":"Co-operative","other":{"shop":"supermarket"}}, "geometry":{"type":"Point","coordinates":[-0.43616,51.90034 ]}},
{ "type":"Feature","properties":{"osm_id":"7209596945","name":"Lidl","other":{"addr:city":"Luton","addr:country":"GB","addr:housenumber":"164-170","addr:postcode":"LU3 2QL","addr:street":"Marsh Road","brand":"Lidl","brand:wikidata":"Q151954","brand:wikipedia":"en:Lidl","fhrs:authority":"Luton","fhrs:id":"540053","fhrs:local_authority_id":"117971","shop":"supermarket"}}, "geometry":{"type":"Point","coordinates":[-0.4519,51.90459 ]}},
{ "type":"Feature","properties":{"osm_id":"7216275502","name":"S K Foods","other":{"addr:city":"Luton","addr:country":"GB","addr:housenumber":"324","addr:postcode":"LU4 8JP","addr:street":"Dunstable Road","fhrs:authority":"Luton","fhrs:id":"449633","fhrs:local_authority_id":"6118","shop":"supermarket"}}, "geometry":{"type":"Point","coordinates":[-0.43875,51.88866 ]}},
{ "type":"Feature","properties":{"osm_way_id":"131288181","name":"Lidl","building":"yes","shop":"supermarket","other":{"addr:city":"Clevedon","addr:postcode":"BS21 6HB","addr:street":"Great Western Road","brand":"Lidl","brand:wikidata":"Q151954","brand:wikipedia":"en:Lidl","fhrs:id":"1012679","source:addr":"FHRS Open Data"}}, "geometry":{"type":"MultiPolygon","coordinates":[[[[-2.85626,51.43533],[-2.85635,51.43532],[-2.85633,51.43515],[-2.85625,51.43516],[-2.85612,51.43517],[-2.85598,51.43518],[-2.85585,51.43519],[-2.85572,51.4352],[-2.85558,51.43521],[-2.85528,51.43523],[-2.85533,51.43544],[-2.85551,51.43543],[-2.85574,51.43541],[-2.85627,51.43537],[-2.85626,51.43533]]]]}},
{ "type":"Feature","properties":{"osm_way_id":"132580585","name":"Co-op Food","building":"yes","shop":"supermarket","other":{"addr:housenumber":"199","addr:postcode":"OX5 1AL","addr:street":"Banbury Road","addr:village":"Kidlington","brand":"Co-op Food","brand:wikidata":"Q3277439","brand:wikipedia":"en:Co-op Food","fhrs:id":"222366","source:addr":"FHRS Open Data"}}, "geometry":{"type":"MultiPolygon","coordinates":[[[[-1.29956,51.82981],[-1.29953,51.82977],[-1.29927,51.82986],[-1.29928,51.82987],[-1.29926,51.82987],[-1.29931,51.82994],[-1.29954,51.82986],[-1.29957,51.82989],[-1.29972,51.82984],[-1.29967,51.82978],[-1.29956,51.82981]]]]}},
{ "type":"Feature","properties":{"osm_way_id":"139313266","name":"Asda","building":"retail","shop":"supermarket","other":{"addr:city":"Luton","addr:country":"GB","addr:county":"Bedfordshire","addr:housename":"Wigmore Hall Shopping Centre","addr:postcode":"LU2 9TA","addr:street":"Wigmore Lane","brand":"Asda","brand:wikidata":"Q297410","brand:wikipedia":"en:Asda","building:levels":"1","contact:facebook":"https:\/\/www.facebook.com\/asda\/","contact:phone":"+44 1582 692200","contact:twitter":"@asda","contact:website":"https:\/\/storelocator.asda.com\/east-of-england\/luton\/wigmore-hall-shopping-centre","fhrs:id":"359242","opening_hours":"Mo 07:00-24:00; Tu-Fr 00:00-24:00; Sa 00:00-22:00; Su 10:00-16:00","opening_hours:covid19":"Mo-Sa 08:00-22:00; Su 10:00-16:00","operator":"Asda Stores Ltd","wheelchair":"yes"}}, "geometry":{"type":"MultiPolygon","coordinates":[[[[-0.37353,51.88894],[-0.37312,51.88882],[-0.37309,51.88885],[-0.37228,51.88861],[-0.37225,51.88865],[-0.37224,51.88865],[-0.37188,51.88912],[-0.372,51.88915],[-0.37192,51.88926],[-0.37217,51.88934],[-0.37212,51.88941],[-0.37242,51.8895],[-0.37247,51.88942],[-0.37256,51.88945],[-0.37263,51.88934],[-0.37267,51.88935],[-0.37259,51.88945],[-0.37278,51.88949],[-0.37276,51.88951],[-0.37299,51.88957],[-0.37307,51.88947],[-0.37311,51.88948],[-0.37353,51.88894]]]]}},
{ "type":"Feature","properties":{"osm_way_id":"220458024","name":"Sainsbury's","building":"supermarket","shop":"supermarket","other":{"addr:city":"Luton","addr:housenumber":"34","addr:postcode":"LU1 1DY","addr:street":"Dunstable Road","alt_name":"Sainsbury's Luton Superstore","brand":"Sainsbury's","brand:wikidata":"Q152096","brand:wikipedia":"en:Sainsbury's","fhrs:authority":"Luton","fhrs:id":"487047","fhrs:local_authority_id":"5901","operator":"Sainsbury's Supermarkets Ltd"}}, "geometry":{"type":"MultiPolygon","coordinates":[[[[-0.42253,51.88309],[-0.42254,51.88293],[-0.42232,51.88276],[-0.4229,51.88247],[-0.42359,51.88248],[-0.42359,51.88261],[-0.42368,51.88261],[-0.42366,51.88285],[-0.42373,51.88285],[-0.42372,51.88311],[-0.42253,51.88309]]]]}},
{ "type":"Feature","properties":{"osm_way_id":"220458025","name":"Lidl","building":"supermarket","shop":"supermarket","other":{"addr:city":"Luton","addr:country":"GB","addr:postcode":"LU1 1HU","addr:street":"Francis Street","alt_name":"LIDL Luton","brand":"Lidl","brand:wikidata":"Q151954","brand:wikipedia":"en:Lidl","fhrs:authority":"Luton","fhrs:id":"669827","fhrs:local_authority_id":"38490","operator":"Lidl"}}, "geometry":{"type":"MultiPolygon","coordinates":[[[[-0.42387,51.8836],[-0.42364,51.88385],[-0.42268,51.88352],[-0.42278,51.88341],[-0.42286,51.88344],[-0.42299,51.88328],[-0.42387,51.8836]]]]}},
{ "type":"Feature","properties":{"osm_way_id":"240924531","name":"Aldi","building":"retail","shop":"supermarket","other":{"addr:city":"Luton","addr:country":"GB","addr:postcode":"LU1 1HJ","addr:street":"Dallow Road","brand":"ALDI","brand:wikidata":"Q41171672","brand:wikipedia":"en:Aldi","fhrs:id":"907619"}}, "geometry":{"type":"MultiPolygon","coordinates":[[[[-0.45552,51.88724],[-0.4548,51.88721],[-0.45479,51.88732],[-0.45471,51.88731],[-0.4547,51.88744],[-0.4555,51.88747],[-0.45552,51.88724]]]]}},
{ "type":"Feature","properties":{"osm_way_id":"505300946","name":"Aldi","building":"supermarket","shop":"supermarket","other":{"addr:city":"Luton","addr:country":"GB","addr:postcode":"LU3 3BF","addr:street":"Scott Road","brand":"ALDI","brand:wikidata":"Q41171672","brand:wikipedia":"en:Aldi","fhrs:id":"893680","opening_hours":"Mo-Sa 08:00-22:00; Su 10:00-16:00"}}, "geometry":{"type":"MultiPolygon","coordinates":[[[[-0.47189,51.91718],[-0.47169,51.91692],[-0.47241,51.91671],[-0.47261,51.91697],[-0.47189,51.91718]]]]}}
]
}
