{
"type": "FeatureCollection",
"features": [
{ "type":"Feature","properties":{"osm_id":"5651428717","name":"Brinor Warehousing","other":{"building":"warehouse"}}, "geometry":{"type":"Point","coordinates":[1.21611,52.03011 ]}},
{ "type":"Feature","properties":{"osm_way_id":"23186416","name":"Anglo-Norden","building":"warehouse","other":{"addr:postcode":"IP3 0BT","building:levels":"1"}}, "geometry":{"type":"MultiPolygon","coordinates":[[[[1.16499,52.04709],[1.16473,52.04709],[1.16355,52.04709],[1.16355,52.0476],[1.16449,52.04761],[1.16499,52.04761],[1.16499,52.04709]]]]}},
{ "type":"Feature","properties":{"osm_way_id":"23186417","building":"warehouse","other":{"addr:postcode":"IP3 0AS"}}, "geometry":{"type":"MultiPolygon","coordinates":[[[[1.16354,52.04681],[1.16473,52.0468],[1.16505,52.0468],[1.16505,52.0468],[1.16487,52.04646],[1.16457,52.04646],[1.16456,52.0464],[1.16354,52.0464],[1.16354,52.04681]]]]}},
{ "type":"Feature","properties":{"osm_way_id":"25813397","name":"Spirit Yachts","building":"warehouse","other":{"building:colour":"blue","website":"https:\/\/www.spirityachts.com\/"}}, "geometry":{"type":"MultiPolygon","coordinates":[[[[1.16085,52.04912],[1.16104,52.04913],[1.1611,52.04913],[1.16143,52.04914],[1.16153,52.04901],[1.16156,52.04874],[1.16104,52.04872],[1.16103,52.04895],[1.16099,52.04895],[1.16098,52.04898],[1.16087,52.04898],[1.16085,52.04912]]]]}},
{ "type":"Feature","properties":{"osm_way_id":"26544932","building":"warehouse","other":{"building:colour":"blue"}}, "geometry":{"type":"MultiPolygon","coordinates":[[[[1.16162,52.0479],[1.16158,52.0479],[1.16161,52.04758],[1.16118,52.04757],[1.16117,52.04767],[1.16113,52.04767],[1.16112,52.04778],[1.16116,52.04778],[1.16115,52.04788],[1.16109,52.04788],[1.16106,52.04821],[1.1616,52.04823],[1.16162,52.0479]]]]}},
{ "type":"Feature","properties":{"osm_way_id":"28899130","building":"warehouse","other":{"addr:postcode":"IP3 9SL"}}, "geometry":{"type":"MultiPolygon","coordinates":[[[[1.21337,52.03153],[1.21488,52.03114],[1.21416,52.03007],[1.21264,52.03047],[1.21337,52.03153]]]]}},
{ "type":"Feature","properties":{"osm_way_id":"28899142","building":"warehouse"},"geometry":{"type":"MultiPolygon","coordinates":[[[[1.2117,52.02802],[1.21232,52.02786],[1.21261,52.02829],[1.21251,52.02831],[1.21257,52.0284],[1.21204,52.02853],[1.2117,52.02802]]]]}},
{ "type":"Feature","properties":{"osm_way_id":"28899206","building":"warehouse","other":{"building:levels":"2"}}, "geometry":{"type":"MultiPolygon","coordinates":[[[[1.20621,52.02841],[1.20652,52.02833],[1.20679,52.02872],[1.20648,52.0288],[1.20621,52.02841]]]]}},
{ "type":"Feature","properties":{"osm_way_id":"28899218","building":"warehouse"},"geometry":{"type":"MultiPolygon","coordinates":[[[[1.21596,52.02843],[1.21675,52.02822],[1.21696,52.02854],[1.21618,52.02875],[1.21596,52.02843]]]]}},
{ "type":"Feature","properties":{"osm_way_id":"28899226","building":"warehouse"},"geometry":{"type":"MultiPolygon","coordinates":[[[[1.21377,52.02835],[1.21404,52.02828],[1.21419,52.0285],[1.21441,52.02845],[1.21449,52.02858],[1.21459,52.02856],[1.21469,52.02873],[1.21478,52.02871],[1.21495,52.02896],[1.2143,52.02913],[1.21377,52.02835]]]]}},
{ "type":"Feature","properties":{"osm_way_id":"28899232","building":"warehouse"},"geometry":{"type":"MultiPolygon","coordinates":[[[[1.21328,52.02894],[1.21365,52.02885],[1.21406,52.02944],[1.2137,52.02954],[1.21328,52.02894]]]]}},
{ "type":"Feature","properties":{"osm_way_id":"28899265","name":"Debach Enterprises","building":"warehouse"},"geometry":{"type":"MultiPolygon","coordinates":[[[[1.20772,52.03135],[1.21212,52.03021],[1.21161,52.02944],[1.21118,52.02955],[1.21149,52.03001],[1.21053,52.03026],[1.21033,52.02996],[1.21101,52.02978],[1.21081,52.02947],[1.20793,52.03022],[1.20813,52.03052],[1.20787,52.03059],[1.20801,52.03083],[1.20747,52.03097],[1.20772,52.03135]]]]}},
{ "type":"Feature","properties":{"osm_way_id":"28899269","building":"warehouse"},"geometry":{"type":"MultiPolygon","coordinates":[[[[1.20759,52.03023],[1.20779,52.03052],[1.20731,52.03066],[1.20711,52.03036],[1.20759,52.03023]]]]}},
{ "type":"Feature","properties":{"osm_way_id":"28899321","building":"warehouse"},"geometry":{"type":"MultiPolygon","coordinates":[[[[1.21529,52.03141],[1.21584,52.0322],[1.21516,52.03239],[1.2146,52.03158],[1.21529,52.03141]]]]}},
{ "type":"Feature","properties":{"osm_way_id":"28912506","name":"Whitehouse Distribution Centre","building":"warehouse","other":{"operator":"Carlsberg UK"}}, "geometry":{"type":"MultiPolygon","coordinates":[[[[1.11343,52.08187],[1.11452,52.08156],[1.11496,52.08214],[1.11509,52.08211],[1.11526,52.08234],[1.11504,52.0824],[1.11497,52.08231],[1.11398,52.08259],[1.11343,52.08187]]]]}},
{ "type":"Feature","properties":{"osm_way_id":"28972976","building":"warehouse"},"geometry":{"type":"MultiPolygon","coordinates":[[[[1.21964,52.02998],[1.22026,52.02973],[1.22095,52.03035],[1.22031,52.03061],[1.21964,52.02998]]]]}},
{ "type":"Feature","properties":{"osm_way_id":"28972977","building":"warehouse"},"geometry":{"type":"MultiPolygon","coordinates":[[[[1.21722,52.03039],[1.21647,52.03058],[1.21668,52.03092],[1.21746,52.03073],[1.21722,52.03039]]]]}},
{ "type":"Feature","properties":{"osm_way_id":"28972984","name":"Parcel Force Worldwide","building":"warehouse","other":{"addr:city":"Ipswich","addr:housenumber":"30","addr:postcode":"IP3 9SL","addr:street":"Central Avenue","opening_hours":"Mo-Fr 08:00-19:00;Sa 08:00-12:30","website":"https:\/\/www.parcelforce.com\/"}}, "geometry":{"type":"MultiPolygon","coordinates":[[[[1.21448,52.0294],[1.21532,52.02918],[1.21549,52.02943],[1.21465,52.02964],[1.21448,52.0294]]]]}},
{ "type":"Feature","properties":{"osm_way_id":"112710379","building":"warehouse","other":{"building:levels":"1"}}, "geometry":{"type":"MultiPolygon","coordinates":[[[[1.15613,52.04468],[1.15596,52.0444],[1.15743,52.04406],[1.15752,52.04422],[1.15773,52.04416],[1.15819,52.04444],[1.15779,52.04457],[1.15756,52.04464],[1.15753,52.04459],[1.15741,52.04439],[1.15613,52.04468]]]]}},
{ "type":"Feature","properties":{"osm_way_id":"136578050","name":"UK Poultry Ltd","building":"warehouse"},"geometry":{"type":"MultiPolygon","coordinates":[[[[1.11352,52.0825],[1.11358,52.08258],[1.11292,52.08276],[1.11287,52.08268],[1.11352,52.0825]]]]}},
{ "type":"Feature","properties":{"osm_way_id":"136578056","building":"warehouse","other":{"addr:postcode":"IP1 5NP"}}, "geometry":{"type":"MultiPolygon","coordinates":[[[[1.11377,52.08285],[1.11383,52.08293],[1.11319,52.08311],[1.11312,52.08303],[1.11377,52.08285]]]]}},
{ "type":"Feature","properties":{"osm_way_id":"137974500","name":"APC Rapid Transport","building":"warehouse","other":{"addr:city":"Ipswich","addr:housename":"Old Brewery Warehouse","addr:postcode":"IP3 0BE","addr:street":"Cliff Quay","phone":"+44 1473231416","source:building":"bing","website":"https:\/\/www.apc-overnight.com\/apc\/depots-home.php?depotid=73","wikipedia":"en:Cliff Brewery"}}, "geometry":{"type":"MultiPolygon","coordinates":[[[[1.163,52.04337],[1.16334,52.04328],[1.1636,52.04364],[1.16373,52.0436],[1.16391,52.04385],[1.16351,52.04396],[1.16342,52.04382],[1.16356,52.04378],[1.16353,52.04374],[1.16338,52.04378],[1.16327,52.04364],[1.1633,52.04363],[1.16315,52.04342],[1.16306,52.04345],[1.163,52.04337]]]]}},
{ "type":"Feature","properties":{"osm_way_id":"208086007","building":"warehouse"},"geometry":{"type":"MultiPolygon","coordinates":[[[[1.15832,52.05371],[1.15856,52.05365],[1.1587,52.05361],[1.15899,52.05412],[1.15866,52.05421],[1.15832,52.05371]]]]}},
{ "type":"Feature","properties":{"osm_way_id":"208144882","building":"warehouse"},"geometry":{"type":"MultiPolygon","coordinates":[[[[1.15842,52.05351],[1.15848,52.05361],[1.1583,52.05366],[1.15823,52.05356],[1.15842,52.05351]]]]}},
{ "type":"Feature","properties":{"osm_way_id":"267139453","building":"warehouse"},"geometry":{"type":"MultiPolygon","coordinates":[[[[1.21442,52.02935],[1.21406,52.02944],[1.21365,52.02885],[1.21401,52.02875],[1.21442,52.02935]]]]}},
{ "type":"Feature","properties":{"osm_way_id":"284125250","name":"Milk & More","building":"warehouse","other":{"fhrs:id":"910533","website":"http:\/\/www.milkandmore.co.uk\/home"}}, "geometry":{"type":"MultiPolygon","coordinates":[[[[1.12508,52.06431],[1.12538,52.06411],[1.12499,52.06389],[1.12468,52.0641],[1.12508,52.06431]]]]}},
{ "type":"Feature","properties":{"osm_way_id":"379050885","name":"Big Box Storage","building":"warehouse","other":{"building:levels":"1"}}, "geometry":{"type":"MultiPolygon","coordinates":[[[[1.15621,52.04488],[1.15614,52.04475],[1.1561,52.04469],[1.15613,52.04468],[1.15741,52.04439],[1.15753,52.04459],[1.15621,52.04488]]]]}},
{ "type":"Feature","properties":{"osm_way_id":"668255486","building":"warehouse"},"geometry":{"type":"MultiPolygon","coordinates":[[[[1.16601,52.04028],[1.16487,52.04041],[1.16501,52.04083],[1.16615,52.04069],[1.16601,52.04028]]]]}}
]
}
