{
"type": "FeatureCollection",
"features": [
{ "type":"Feature","properties":{"osm_id":"339857059","name":"Longdan","other":{"addr:housenumber":"4","addr:street":"Estate Way","cuisine":"vietnamese","opening_hours":"Mo-Su 09:00-18:00","phone":"+44 20 8556 8828","shop":"supermarket","website":"https:\/\/longdan.co.uk\/"}}, "geometry":{"type":"Point","coordinates":[-0.02465,51.56843 ]}},
{ "type":"Feature","properties":{"osm_id":"1104936815","name":"Metro Food Centre","other":{"addr:city":"London","addr:housenumber":"15-19","addr:postcode":"E17 3JX","addr:street":"Wood Street","addr:suburb":"Walthamstow","fhrs:id":"514965","fhrs:local_authority_id":"5693","shop":"supermarket","source:addr":"FHRS Open Data"}}, "geometry":{"type":"Point","coordinates":[-0.00415,51.59006 ]}},
{ "type":"Feature","properties":{"osm_id":"1716036953","name":"Asda","other":{"addr:city":"London","addr:country":"GB","addr:housenumber":"19","addr:postcode":"E17 7JR","addr:street":"Selborne Walk","brand":"Asda","brand:wikidata":"Q297410","brand:wikipedia":"en:Asda","contact:facebook":"https:\/\/www.facebook.com\/asda\/","contact:phone":"+44 20 8509 7700","contact:twitter":"@asda","contact:website":"https:\/\/storelocator.asda.com\/london\/walthamstow\/19-selborne-walk-shopping-centre","fhrs:id":"515002","operator":"Asda Stores Ltd","shop":"supermarket","source:addr":"FHRS Open Data","wheelchair":"yes","wheelchair:description":"The store is located within a mall. This mall is also wheelchair accessible."}}, "geometry":{"type":"Point","coordinates":[-0.02476,51.58286 ]}},
{ "type":"Feature","properties":{"osm_id":"2095432757","other":{"amenity":"telephone","booth":"KX100","check_date":"2021-03-27","covered":"booth"}}, "geometry":{"type":"Point","coordinates":[-0.02701,51.58303 ]}},
{ "type":"Feature","properties":{"osm_id":"2931951408","name":"Londis","other":{"brand":"Londis","brand:wikidata":"Q21008564","brand:wikipedia":"en:Londis (United Kingdom)","shop":"supermarket"}}, "geometry":{"type":"Point","coordinates":[0.00737,51.61856 ]}},
{ "type":"Feature","properties":{"osm_id":"4545980436","name":"Co-op Billet Road","other":{"addr:city":"London","addr:country":"GB","addr:postcode":"E17 5DT","addr:street":"Billet Road","addr:suburb":"Walthamstow","brand":"Co-op Food","brand:wikidata":"Q3277439","brand:wikipedia":"en:Co-op Food","opening_hours":"Mo-Sa 06:00-22:00, Su 09:00-21:00","operator":"Co-Op","shop":"supermarket"}}, "geometry":{"type":"Point","coordinates":[-0.02662,51.59977 ]}},
{ "type":"Feature","properties":{"osm_id":"5352808140","name":"Lidl","other":{"addr:city":"London","addr:housenumber":"38","addr:postcode":"E17 7JR","addr:street":"Selborne Walk","addr:suburb":"Walthamstow","addr:unit":"Unit 57","brand":"Lidl","brand:wikidata":"Q151954","brand:wikipedia":"en:Lidl","fhrs:id":"1025296","fhrs:local_authority_id":"340679","old_name":"BHS","opening_hours":"Mo-Sa 07:00-22:00, Su 11:00-17:00","operator":"Lidl","shop":"supermarket","source:addr":"FHRS Open Data"}}, "geometry":{"type":"Point","coordinates":[-0.02229,51.5842 ]}},
{ "type":"Feature","properties":{"osm_id":"5574638795","name":"Co-op Food","other":{"brand":"Co-op Food","brand:wikidata":"Q3277439","brand:wikipedia":"en:Co-op Food","opening_hours":"Mo-Su 07:00-22:00","payment:cash":"yes","payment:coins":"yes","payment:credit_cards":"yes","payment:debit_cards":"yes","payment:notes":"yes","shop":"supermarket"}}, "geometry":{"type":"Point","coordinates":[-0.04033,51.58788 ]}},
{ "type":"Feature","properties":{"osm_id":"6425259212","name":"Mara","other":{"addr:city":"London","addr:housenumber":"307","addr:postcode":"E10 7NE","addr:street":"Lea Bridge Road","addr:suburb":"Leyton","alt_name":"Mara's Food Store","fhrs:id":"610700","fhrs:local_authority_id":"66677","level":"0","shop":"supermarket","source:addr":"FHRS Open Data"}}, "geometry":{"type":"Point","coordinates":[-0.02609,51.57014 ]}},
{ "type":"Feature","properties":{"osm_id":"6427869152","name":"Nadeem Halal Meat & Grocery","other":{"addr:city":"London","addr:housenumber":"437","addr:postcode":"E10 7EA","addr:street":"Lea Bridge Road","addr:suburb":"Leyton","diet:halal":"yes","fhrs:id":"535461","fhrs:local_authority_id":"58811","fhrs:name":"Haji's","level":"0","shop":"supermarket","source:addr":"FHRS Open Data"}}, "geometry":{"type":"Point","coordinates":[-0.02184,51.57167 ]}},
{ "type":"Feature","properties":{"osm_id":"6427869181","name":"Madina Cash & Carry","other":{"addr:city":"London","addr:housenumber":"371-373","addr:postcode":"E10 7EA","addr:street":"Lea Bridge Road","addr:suburb":"Leyton","diet:halal":"yes","fhrs:id":"947809","fhrs:local_authority_id":"338971","level":"0","shop":"supermarket","source:addr":"FHRS Open Data"}}, "geometry":{"type":"Point","coordinates":[-0.02332,51.57115 ]}},
{ "type":"Feature","properties":{"osm_id":"6427869183","name":"KGN Wholesale & Retail","other":{"addr:city":"London","addr:housenumber":"359","addr:postcode":"E10 7LA","addr:street":"Lea Bridge Road","addr:suburb":"Leyton","alt_name":"KGN Cash & Carry","fhrs:id":"514940","fhrs:local_authority_id":"5648","level":"0","shop":"supermarket","source:addr":"FHRS Open Data"}}, "geometry":{"type":"Point","coordinates":[-0.02369,51.571 ]}},
{ "type":"Feature","properties":{"osm_id":"8378761641","other":{"addr:flats":"1-12"}}, "geometry":{"type":"Point","coordinates":[0.00947,51.56315 ]}},
{ "type":"Feature","properties":{"osm_id":"9272317601","other":{"noexit":"yes"}}, "geometry":{"type":"Point","coordinates":[-0.17607,51.92631 ]}},
{ "type":"Feature","properties":{"osm_way_id":"10804706","name":"Asda","building":"retail","shop":"supermarket","other":{"addr:city":"London","addr:country":"GB","addr:housenumber":"1","addr:parentstreet":"Marshall Road","addr:postcode":"E10 5NH","addr:street":"Leyton Mills","branch":"Leyton Mills","brand":"Asda","brand:wikidata":"Q297410","brand:wikipedia":"en:Asda","building:levels":"1","contact:facebook":"https:\/\/www.facebook.com\/asda\/","contact:twitter":"@asda","contact:website":"https:\/\/storelocator.asda.com\/london\/leyton\/marshall-road","fhrs:id":"514237","operator":"Asda Stores Ltd","source:addr":"FHRS Open Data","wheelchair":"yes"}}, "geometry":{"type":"MultiPolygon","coordinates":[[[[-0.01014,51.55655],[-0.00888,51.55707],[-0.00809,51.55629],[-0.00813,51.55627],[-0.00805,51.5562],[-0.00819,51.55615],[-0.00826,51.55622],[-0.00867,51.55605],[-0.00861,51.556],[-0.00929,51.55572],[-0.00931,51.55574],[-0.00958,51.55564],[-0.00976,51.55582],[-0.0095,51.55592],[-0.01014,51.55655]]]]}},
{ "type":"Feature","properties":{"osm_way_id":"23061412","name":"Sainsbury's","building":"yes","shop":"supermarket","other":{"addr:city":"London","addr:housenumber":"11","addr:postcode":"E4 8ST","addr:street":"Walthamstow Avenue","addr:suburb":"Chingford","brand":"Sainsbury's","brand:wikidata":"Q152096","brand:wikipedia":"en:Sainsbury's","fhrs:id":"514070","fhrs:local_authority_id":"11944","opening_hours":"Mo-Fr 06:30-23:59, Sa 06:30-23:00, Su 10:30-16:30","operator":"Sainsbury's","source:addr":"FHRS Open Data"}}, "geometry":{"type":"MultiPolygon","coordinates":[[[[-0.02077,51.60376],[-0.02069,51.60371],[-0.01982,51.60433],[-0.01989,51.60437],[-0.01967,51.60453],[-0.02033,51.60489],[-0.02082,51.60454],[-0.02088,51.60458],[-0.02083,51.60461],[-0.02103,51.60472],[-0.02177,51.60419],[-0.02185,51.60413],[-0.02094,51.60364],[-0.02077,51.60376]]]]}},
{ "type":"Feature","properties":{"osm_way_id":"23061438","name":"Morrisons","building":"yes","shop":"supermarket","other":{"addr:city":"London","addr:housenumber":"6-7 Salisbury Hall Gardens","addr:postcode":"E4 8SN","addr:street":"Chingford Road","brand":"Morrisons","brand:wikidata":"Q922344","brand:wikipedia":"en:Morrisons","contact:website":"https:\/\/my.morrisons.com\/storefinder\/1"}}, "geometry":{"type":"MultiPolygon","coordinates":[[[[-0.02244,51.60791],[-0.0219,51.60795],[-0.02152,51.60798],[-0.02144,51.60759],[-0.02118,51.60761],[-0.02117,51.60754],[-0.02103,51.60755],[-0.02101,51.60743],[-0.02114,51.60742],[-0.02113,51.60735],[-0.02129,51.60734],[-0.02127,51.6072],[-0.02137,51.60719],[-0.02135,51.60708],[-0.0214,51.60708],[-0.02142,51.60718],[-0.02182,51.60715],[-0.02181,51.60708],[-0.02192,51.60707],[-0.02191,51.607],[-0.02203,51.60699],[-0.02206,51.60714],[-0.02208,51.60713],[-0.02207,51.60706],[-0.02214,51.60706],[-0.02216,51.60713],[-0.02229,51.60712],[-0.02244,51.60791]]]]}},
{ "type":"Feature","properties":{"osm_way_id":"28808114","name":"Tesco","building":"yes","shop":"supermarket","other":{"addr:city":"London","addr:housenumber":"8","addr:postcode":"E11 1HT","addr:street":"Gainsborough Road","branch":"Leytonstone Superstore","brand":"Tesco","brand:wikidata":"Q487494","brand:wikipedia":"en:Tesco","contact:website":"https:\/\/www.tesco.com\/store-locator\/uk\/?bID=2806","fhrs:authority":"Waltham Forest","fhrs:id":"514077","fhrs:local_authority_id":"12235","opening_hours":"Mo 06:00-24:00; Tu-Sa 00:00-24:00; Su 10:00-16:00","ref":"2806","source:addr":"FHRS Open Data"}}, "geometry":{"type":"MultiPolygon","coordinates":[[[[0.0129,51.57163],[0.01293,51.57166],[0.01296,51.57166],[0.01299,51.57169],[0.01434,51.57241],[0.0144,51.5724],[0.01438,51.57237],[0.01449,51.57235],[0.01451,51.57238],[0.01476,51.57233],[0.01478,51.57235],[0.01486,51.57233],[0.01477,51.57223],[0.01469,51.57225],[0.01468,51.57224],[0.01438,51.57234],[0.01434,51.57229],[0.01462,51.5722],[0.01455,51.57211],[0.0146,51.57209],[0.01459,51.57207],[0.01448,51.5721],[0.01437,51.57199],[0.01446,51.57196],[0.01445,51.57195],[0.01448,51.57194],[0.01436,51.5718],[0.01465,51.5717],[0.01464,51.57169],[0.01466,51.57168],[0.01448,51.57148],[0.01446,51.57148],[0.01434,51.57133],[0.0143,51.57135],[0.01442,51.57148],[0.01417,51.57157],[0.01404,51.57142],[0.01394,51.57146],[0.01388,51.57139],[0.01387,51.57139],[0.01384,51.57137],[0.01379,51.5713],[0.01373,51.57132],[0.0137,51.57129],[0.01331,51.57142],[0.01318,51.57146],[0.01323,51.57152],[0.0129,51.57163]]]]}},
{ "type":"Feature","properties":{"osm_way_id":"36607015","name":"Sainsbury's","building":"yes","shop":"supermarket","other":{"addr:city":"London","addr:housenumber":"13","addr:postcode":"E4 8HH","addr:street":"Hall Lane","addr:suburb":"Chingford","brand":"Sainsbury's","brand:wikidata":"Q152096","brand:wikipedia":"en:Sainsbury's","fhrs:id":"514796","fhrs:local_authority_id":"5240","source:addr":"FHRS Open Data"}}, "geometry":{"type":"MultiPolygon","coordinates":[[[[-0.01933,51.61625],[-0.01897,51.61625],[-0.01883,51.61635],[-0.01883,51.61687],[-0.01954,51.61684],[-0.01953,51.61679],[-0.01943,51.61679],[-0.01938,51.61676],[-0.01937,51.6167],[-0.01933,51.6167],[-0.01933,51.61625]]]]}},
{ "type":"Feature","properties":{"osm_way_id":"38484318","name":"Amazon Fresh","building":"yes","shop":"supermarket","other":{"addr:city":"London","addr:housenumber":"2","addr:postcode":"E4 7BE","addr:street":"Station Road","addr:suburb":"Chingford","branch":"Chingford Station Road","brand":"Amazon Fresh","brand:wikidata":"Q4740834","brand:wikipedia":"en:Amazon Fresh","fhrs:authority":"Waltham Forest","fhrs:id":"947824","fhrs:local_authority_id":"339206","level":"0","source:addr:housenumber":"FHRS Open Data","website":"https:\/\/www.budgens.co.uk\/our-stores\/chingford"}}, "geometry":{"type":"MultiPolygon","coordinates":[[[[0.00345,51.63142],[0.00344,51.63147],[0.0035,51.63148],[0.00347,51.63171],[0.00361,51.63172],[0.0036,51.63182],[0.0037,51.63182],[0.00376,51.63146],[0.00345,51.63142]]]]}},
{ "type":"Feature","properties":{"osm_way_id":"48368492","name":"Aldi","shop":"supermarket","other":{"addr:city":"London","addr:housenumber":"18","addr:postcode":"E10 7NQ","addr:street":"Heybridge Way","brand":"ALDI","brand:wikidata":"Q41171672","brand:wikipedia":"en:Aldi","fhrs:id":"985065","name:fa":"آلدی","not:addr:postcode":"E10 7PQ","old_name:-2016-01":"B&Q","operator":"Aldi Stores Limited"}}, "geometry":{"type":"MultiPolygon","coordinates":[[[[-0.03101,51.56924],[-0.03071,51.56934],[-0.03054,51.5694],[-0.03011,51.56955],[-0.02979,51.56929],[-0.02932,51.5689],[-0.03017,51.56863],[-0.03031,51.56859],[-0.03042,51.56862],[-0.03101,51.56924]]]]}},
{ "type":"Feature","properties":{"osm_way_id":"55632529","name":"Tesco","building":"yes","shop":"supermarket","other":{"addr:city":"London","addr:housenumber":"825","addr:postcode":"E10 7AA","addr:street":"High Road Leyton","addr:suburb":"Leyton","brand":"Tesco","brand:wikidata":"Q487494","brand:wikipedia":"en:Tesco","fhrs:id":"514096","fhrs:local_authority_id":"13011","opening_hours":"Mo-Fr 06:00-00:00; Su 11:00-17:00","operator":"Tesco","source:addr":"FHRS Open Data","source:opening_hours":"survey"}}, "geometry":{"type":"MultiPolygon","coordinates":[[[[-0.01211,51.57482],[-0.01161,51.57457],[-0.01159,51.57458],[-0.01144,51.5745],[-0.01156,51.57441],[-0.01158,51.57442],[-0.01193,51.57415],[-0.01202,51.5742],[-0.01211,51.57413],[-0.01275,51.57445],[-0.01269,51.5745],[-0.01282,51.57457],[-0.01274,51.57464],[-0.01255,51.57454],[-0.01242,51.57463],[-0.01238,51.57461],[-0.01211,51.57482]]]]}},
{ "type":"Feature","properties":{"osm_way_id":"114804529","name":"Sainsbury's","building":"retail","shop":"supermarket","other":{"brand":"Sainsbury's","brand:wikidata":"Q152096","brand:wikipedia":"en:Sainsbury's"}}, "geometry":{"type":"MultiPolygon","coordinates":[[[[-0.08505,53.56954],[-0.085,53.5701],[-0.08467,53.57009],[-0.08463,53.57036],[-0.08461,53.57067],[-0.08463,53.57066],[-0.08463,53.57072],[-0.08452,53.57072],[-0.08453,53.57066],[-0.08456,53.57066],[-0.08459,53.57037],[-0.08425,53.57036],[-0.08424,53.57031],[-0.08417,53.5703],[-0.08416,53.57052],[-0.08384,53.5705],[-0.08386,53.57026],[-0.0836,53.57025],[-0.08368,53.5695],[-0.08405,53.56952],[-0.08405,53.56948],[-0.08469,53.5695],[-0.08469,53.56941],[-0.08477,53.56942],[-0.08476,53.56953],[-0.08505,53.56954]]]]}},
{ "type":"Feature","properties":{"osm_way_id":"160190860","name":"Tesco Express","building":"retail","shop":"supermarket","other":{"addr:city":"London","addr:housenumber":"617b","addr:postcode":"E17 4NE","addr:street":"Forest Road","addr:suburb":"Walthamstow","brand":"Tesco Express","brand:wikidata":"Q98456772","fhrs:id":"515150","fhrs:local_authority_id":"59972","height":"4","opening_hours":"Mo-Fr 07:00-23:00","source:addr":"FHRS Open Data"}}, "geometry":{"type":"MultiPolygon","coordinates":[[[[-0.01668,51.59012],[-0.01641,51.59008],[-0.01643,51.59023],[-0.01643,51.59028],[-0.01646,51.59042],[-0.01671,51.59042],[-0.01671,51.59033],[-0.01663,51.59031],[-0.01665,51.59023],[-0.01666,51.59023],[-0.01667,51.59021],[-0.01664,51.5902],[-0.01668,51.59012]]]]}},
{ "type":"Feature","properties":{"osm_way_id":"194375149","name":"Iceland","building":"yes","shop":"supermarket","other":{"addr:city":"London","addr:housenumber":"789-791","addr:postcode":"E11 4QS","addr:street":"High Road Leytonstone","brand":"Iceland","brand:wikidata":"Q721810","building:colour":"brown","building:levels":"2","building:material":"brick","fhrs:authority":"Waltham Forest","fhrs:id":"514997","fhrs:local_authority_id":"5766","roof:colour":"darkgrey","source:addr":"FHRS Open Data","wheelchair":"yes"}}, "geometry":{"type":"MultiPolygon","coordinates":[[[[0.01045,51.56731],[0.0103,51.56733],[0.00974,51.5674],[0.00969,51.56721],[0.00981,51.5672],[0.01004,51.56717],[0.01006,51.56725],[0.01027,51.56722],[0.01042,51.5672],[0.01045,51.56731]]]]}},
{ "type":"Feature","properties":{"osm_way_id":"199547793","name":"Sainsbury's","building":"retail","shop":"supermarket","other":{"addr:city":"London","addr:country":"GB","addr:housenumber":"112","addr:postcode":"E17 7JY","addr:street":"High Street","addr:suburb":"Walthamstow","branch":"Walthamstow Superstore","brand":"Sainsbury's","brand:wikidata":"Q152096","contact:phone":"+44 20 8521 6113","contact:website":"https:\/\/stores.sainsburys.co.uk\/0207\/walthamstow","fhrs:id":"514999","fhrs:local_authority_id":"5768","opening_hours":"Mo-We 08:00-20:00; Th-Fr 08:00-21:00; Sa 07:30-21:00; Su 11:00-17:00","ref":"207","source:addr:postcode":"FHRS Open Data"}}, "geometry":{"type":"MultiPolygon","coordinates":[[[[-0.02772,51.58239],[-0.02778,51.58278],[-0.0278,51.58285],[-0.02776,51.58288],[-0.02769,51.58289],[-0.0277,51.58291],[-0.02768,51.58291],[-0.02761,51.58289],[-0.02761,51.58286],[-0.0275,51.58287],[-0.02751,51.58291],[-0.02745,51.58297],[-0.02725,51.58299],[-0.02726,51.58302],[-0.02703,51.58304],[-0.02703,51.58303],[-0.02701,51.58303],[-0.027,51.58303],[-0.02699,51.58299],[-0.02701,51.58299],[-0.027,51.58298],[-0.02698,51.58298],[-0.02695,51.58289],[-0.0269,51.58289],[-0.02689,51.58284],[-0.0266,51.58287],[-0.02659,51.58284],[-0.02654,51.58267],[-0.02638,51.58268],[-0.02638,51.58266],[-0.02634,51.58253],[-0.02638,51.5825],[-0.02642,51.58247],[-0.02645,51.58246],[-0.02647,51.58246],[-0.02646,51.58242],[-0.02756,51.5823],[-0.02772,51.58239]]]]}},
{ "type":"Feature","properties":{"osm_way_id":"200387549","name":"Gazi International Supermarket","building":"yes","shop":"supermarket","other":{"addr:city":"London","addr:country":"GB","addr:housenumber":"7-17","addr:postcode":"E17 7AD","addr:street":"High Street","addr:suburb":"Walthamstow","alt_name":"International Supermarket","fhrs:id":"1211925","fhrs:local_authority_id":"347610"}}, "geometry":{"type":"MultiPolygon","coordinates":[[[[-0.0339,51.58191],[-0.0338,51.58192],[-0.03379,51.5819],[-0.03342,51.58197],[-0.03333,51.58177],[-0.03335,51.58174],[-0.03379,51.58166],[-0.03382,51.58172],[-0.0339,51.58191]]]]}},
{ "type":"Feature","properties":{"osm_way_id":"200460169","name":"Lidl","building":"yes","shop":"supermarket","other":{"addr:city":"London","addr:country":"GB","addr:housenumber":"43-49","addr:postcode":"E17 7AD","addr:street":"High Street","addr:suburb":"Walthamstow","brand":"Lidl","brand:wikidata":"Q151954","fhrs:id":"621702","fhrs:local_authority_id":"8117","source:addr:postcode":"FHRS Open Data"}}, "geometry":{"type":"MultiPolygon","coordinates":[[[[-0.03202,51.582],[-0.03213,51.5822],[-0.03215,51.58223],[-0.03219,51.58222],[-0.03221,51.58224],[-0.03223,51.58224],[-0.03231,51.58238],[-0.03225,51.58239],[-0.03229,51.58245],[-0.03206,51.5825],[-0.03209,51.58255],[-0.03195,51.58258],[-0.03188,51.58245],[-0.03182,51.58246],[-0.03176,51.58234],[-0.03182,51.58233],[-0.03181,51.58232],[-0.03188,51.58231],[-0.03184,51.58223],[-0.03175,51.58206],[-0.03202,51.582]]]]}},
{ "type":"Feature","properties":{"osm_way_id":"205896842","name":"Food Hall Wood Street","building":"yes","shop":"supermarket","other":{"addr:city":"London","addr:country":"GB","addr:housenumber":"90-92","addr:postcode":"E17 3HX","addr:street":"Wood Street","addr:suburb":"Walthamstow","fhrs:id":"514444","fhrs:local_authority_id":"376","source:addr:postcode":"FHRS Open Data"}}, "geometry":{"type":"MultiPolygon","coordinates":[[[[-0.00444,51.58876],[-0.00443,51.58872],[-0.00441,51.58868],[-0.00463,51.58866],[-0.00464,51.5887],[-0.00466,51.58874],[-0.00467,51.58878],[-0.00468,51.58882],[-0.00463,51.58882],[-0.00447,51.58884],[-0.00445,51.5888],[-0.00444,51.58876]]]]}},
{ "type":"Feature","properties":{"osm_way_id":"216676448","name":"Tesco Express","building":"yes","shop":"supermarket","other":{"addr:city":"London","addr:country":"GB","addr:housenumber":"82-84","addr:postcode":"E17 6JR","addr:street":"Forest Road","addr:suburb":"Walthamstow","brand":"Tesco Express","brand:wikidata":"Q98456772","building:levels":"5","fhrs:id":"535460","fhrs:local_authority_id":"58253","opening_hours":"Mo-Su 7:00-23:00","phone":"+44 845 6102840","source:addr":"FHRS Open Data"}}, "geometry":{"type":"MultiPolygon","coordinates":[[[[-0.03728,51.58734],[-0.03678,51.5874],[-0.03673,51.58725],[-0.03687,51.58723],[-0.03686,51.58721],[-0.03713,51.58718],[-0.03714,51.5872],[-0.03722,51.58719],[-0.03728,51.58734]]]]}},
{ "type":"Feature","properties":{"osm_way_id":"225987758","name":"Tesco","building":"supermarket","shop":"supermarket","other":{"brand":"Tesco","brand:wikidata":"Q487494","brand:wikipedia":"en:Tesco"}}, "geometry":{"type":"MultiPolygon","coordinates":[[[[-0.00358,51.60819],[-0.00354,51.60812],[-0.0029,51.60827],[-0.00265,51.60833],[-0.00263,51.6083],[-0.0026,51.60826],[-0.00158,51.60851],[-0.00155,51.60845],[-0.00145,51.60848],[-0.00119,51.60807],[-0.0023,51.6078],[-0.00237,51.60791],[-0.00241,51.60797],[-0.0025,51.60795],[-0.0026,51.60793],[-0.00269,51.6079],[-0.00278,51.60788],[-0.00287,51.60786],[-0.00296,51.60784],[-0.00306,51.60782],[-0.00315,51.60779],[-0.00324,51.60777],[-0.00333,51.60775],[-0.00342,51.60773],[-0.00349,51.60771],[-0.00373,51.6081],[-0.00377,51.60815],[-0.00368,51.60817],[-0.00358,51.60819]]]]}},
{ "type":"Feature","properties":{"osm_way_id":"336668282","name":"Co-op Food","building":"yes","shop":"supermarket","other":{"addr:city":"London","addr:housenumber":"1","addr:postcode":"E4 7BJ","addr:street":"Station Road","branch":"Chingford","brand":"Co-op Food","brand:wikidata":"Q3277439","brand:wikipedia":"en:Co-op Food","contact:website":"https:\/\/finder.coop.co.uk\/food\/store\/E4-7BJ\/1-station-road","fhrs:id":"514987","fhrs:local_authority_id":"5753","operator":"The Co-operative Group","operator:wikidata":"Q117202","operator:wikipedia":"en:The Co-operative Group","source:addr":"FHRS Open Data"}}, "geometry":{"type":"MultiPolygon","coordinates":[[[[0.00223,51.63077],[0.00188,51.63062],[0.00178,51.63072],[0.00213,51.63086],[0.00224,51.63091],[0.00242,51.63074],[0.00231,51.6307],[0.00223,51.63077]]]]}},
{ "type":"Feature","properties":{"osm_way_id":"409063623","name":"The Co-opertive food","building":"yes","shop":"supermarket","other":{"operator":"Co-operative","postal_code":"E17"}}, "geometry":{"type":"MultiPolygon","coordinates":[[[[-0.02999,51.57581],[-0.03009,51.57581],[-0.03009,51.57575],[-0.03027,51.57575],[-0.03028,51.57594],[-0.02995,51.57595],[-0.02995,51.57584],[-0.02999,51.57581]]]]}},
{ "type":"Feature","properties":{"osm_way_id":"428186389","name":"The Community Larder","building":"yes","shop":"supermarket","other":{"organic":"only"}}, "geometry":{"type":"MultiPolygon","coordinates":[[[[-0.00004,51.60725],[-0.00012,51.60726],[-0.00011,51.60729],[-0.0001,51.60732],[-0.00009,51.60735],[-0.00002,51.60731],[-0.00002,51.60729],[-0.00004,51.60725]]]]}},
{ "type":"Feature","properties":{"osm_way_id":"444642774","name":"Iceland","building":"yes","shop":"supermarket","other":{"addr:city":"London","addr:country":"GB","addr:housenumber":"612","addr:postcode":"E10 7DN","addr:street":"Lea Bridge Road","addr:suburb":"Leyton","brand":"Iceland","brand:wikidata":"Q721810","fhrs:id":"514704","fhrs:local_authority_id":"49251","source:addr:postcode":"FHRS Open Data"}}, "geometry":{"type":"MultiPolygon","coordinates":[[[[-0.01303,51.57484],[-0.01322,51.57493],[-0.01299,51.57506],[-0.0129,51.57501],[-0.01286,51.57499],[-0.01274,51.57493],[-0.0127,51.57491],[-0.01264,51.57488],[-0.01269,51.57485],[-0.01277,51.57481],[-0.01285,51.57475],[-0.01303,51.57484]]]]}},
{ "type":"Feature","properties":{"osm_way_id":"453684529","name":"Happy Food Centre","building":"retail","shop":"supermarket","other":{"addr:city":"London","addr:country":"GB","addr:housenumber":"619-623","addr:postcode":"E10 6AJ","addr:street":"Lea Bridge Road","addr:suburb":"Leyton","fhrs:id":"947856","fhrs:local_authority_id":"339763","source:addr:postcode":"FHRS Open Data"}}, "geometry":{"type":"MultiPolygon","coordinates":[[[[-0.01145,51.57677],[-0.01151,51.57674],[-0.01158,51.57672],[-0.01163,51.57679],[-0.01171,51.57687],[-0.01151,51.57694],[-0.01147,51.57689],[-0.01138,51.57679],[-0.01145,51.57677]]]]}},
{ "type":"Feature","properties":{"osm_way_id":"468834936","name":"Supermart","building":"retail","shop":"supermarket","other":{"addr:city":"London","addr:country":"GB","addr:housenumber":"2-8","addr:street":"Winchester Road","addr:suburb":"Chingford","old_name":"TFC"}}, "geometry":{"type":"MultiPolygon","coordinates":[[[[-0.00158,51.60699],[-0.00165,51.607],[-0.00162,51.60708],[-0.00143,51.60706],[-0.00146,51.60698],[-0.00148,51.60694],[-0.00149,51.6069],[-0.00161,51.60691],[-0.0016,51.60695],[-0.00167,51.60696],[-0.00166,51.60699],[-0.00159,51.60698],[-0.00158,51.60699]]]]}},
{ "type":"Feature","properties":{"osm_way_id":"513323905","name":"The Continental Food Exchange","building":"retail","shop":"supermarket","other":{"addr:city":"London","addr:housename":"Panther House","addr:housenumber":"647-661","addr:postcode":"E11 4RD","addr:street":"High Road Leytonstone","alt_name":"TFC Leytonstone","building:colour":"white","building:levels":"2","building:material":"plaster","fhrs:id":"514221","long_name":"The Continental Food Exchange\/TFC Leytonstone","old_name":"TFC","phone":"+44 20 8558 8149"}}, "geometry":{"type":"MultiPolygon","coordinates":[[[[0.00944,51.56359],[0.00962,51.56357],[0.00947,51.56315],[0.00947,51.56313],[0.00942,51.56314],[0.00938,51.56316],[0.00943,51.56319],[0.00923,51.5633],[0.00925,51.56332],[0.00935,51.56334],[0.00934,51.56337],[0.00937,51.56337],[0.00944,51.56359]]]]}},
{ "type":"Feature","properties":{"osm_way_id":"610231419","name":"MK Stores","shop":"supermarket","other":{"addr:city":"London","addr:housenumber":"148-152","addr:postcode":"E15 1UA","addr:street":"High Road Leytonstone","brand":"Lycamobile","fhrs:id":"515515","level":"0"}}, "geometry":{"type":"MultiPolygon","coordinates":[[[[0.00582,51.55222],[0.00592,51.55222],[0.00596,51.5521],[0.00585,51.55209],[0.00582,51.55222]]]]}},
{ "type":"Feature","properties":{"osm_way_id":"614532510","name":"Simge Foods","shop":"supermarket","other":{"addr:city":"London","addr:housenumber":"190-192","addr:postcode":"E11 3HU","addr:street":"High Road Leytonstone","fhrs:id":"1042181","fhrs:local_authority_id":"342322","level":"0","source:addr:postcode":"FHRS Open Data"}}, "geometry":{"type":"MultiPolygon","coordinates":[[[[0.00538,51.55337],[0.00536,51.55341],[0.00534,51.55345],[0.00548,51.55348],[0.0055,51.55344],[0.00552,51.55339],[0.00538,51.55337]]]]}},
{ "type":"Feature","properties":{"osm_way_id":"614702715","name":"YDL Food Centre","shop":"supermarket","other":{"addr:city":"London","addr:housenumber":"234-236","addr:postcode":"E11 3HU","addr:street":"High Road Leytonstone","fhrs:id":"958832","fhrs:local_authority_id":"340785","level":"0","not:addr:postcode":"E11 3HT"}}, "geometry":{"type":"MultiPolygon","coordinates":[[[[0.00536,51.55439],[0.00547,51.55438],[0.00547,51.55438],[0.00548,51.55442],[0.00549,51.55447],[0.0054,51.55448],[0.00538,51.55447],[0.00537,51.55443],[0.00536,51.55439]]]]}},
{ "type":"Feature","properties":{"osm_way_id":"678685332","name":"Nisa Local","building":"yes","shop":"supermarket"},"geometry":{"type":"MultiPolygon","coordinates":[[[[-0.01753,51.61559],[-0.01753,51.61549],[-0.01783,51.61549],[-0.018,51.61549],[-0.018,51.61559],[-0.01753,51.61559]]]]}},
{ "type":"Feature","properties":{"osm_way_id":"680875676","name":"EU Food Shop","building":"yes","shop":"supermarket"},"geometry":{"type":"MultiPolygon","coordinates":[[[[-0.01688,51.62044],[-0.01666,51.62042],[-0.01668,51.62034],[-0.0169,51.62035],[-0.01688,51.62044]]]]}},
{ "type":"Feature","properties":{"osm_way_id":"680896801","name":"Akdeniz Supermarket","building":"yes","shop":"supermarket"},"geometry":{"type":"MultiPolygon","coordinates":[[[[-0.01751,51.61838],[-0.01752,51.61829],[-0.01788,51.61831],[-0.01787,51.6184],[-0.01751,51.61838]]]]}},
{ "type":"Feature","properties":{"osm_way_id":"681581505","name":"Londis","building":"yes","shop":"supermarket","other":{"addr:city":"London","addr:housenumber":"6-8","addr:street":"The Avenue"}}, "geometry":{"type":"MultiPolygon","coordinates":[[[[0.00009,51.60791],[0.00013,51.60797],[0.0004,51.60793],[0.00038,51.60788],[0.00031,51.60789],[0.0003,51.60783],[0.00007,51.60786],[0.00009,51.60791]]]]}},
{ "type":"Feature","properties":{"osm_way_id":"681581514","name":"Meg’s Food And Wine","building":"yes","shop":"supermarket","other":{"addr:housenumber":"416","addr:street":"Hale End Road"}}, "geometry":{"type":"MultiPolygon","coordinates":[[[[0.00095,51.60725],[0.00087,51.60728],[0.00081,51.60722],[0.00088,51.60719],[0.00095,51.60725]]]]}},
{ "type":"Feature","properties":{"osm_way_id":"684595017","name":"Ivy Organics","building":"yes","shop":"supermarket","other":{"addr:housenumber":"219","addr:street":"Chingford Mount Road","organic":"only"}}, "geometry":{"type":"MultiPolygon","coordinates":[[[[-0.01772,51.61527],[-0.01753,51.61527],[-0.01753,51.61522],[-0.01772,51.61522],[-0.01772,51.61527]]]]}},
{ "type":"Feature","properties":{"osm_way_id":"685395577","name":"Food Plus","building":"yes","shop":"supermarket"},"geometry":{"type":"MultiPolygon","coordinates":[[[[-0.01725,51.61626],[-0.01706,51.61626],[-0.01693,51.61626],[-0.01693,51.61615],[-0.01725,51.61615],[-0.01725,51.61626]]]]}},
{ "type":"Feature","properties":{"osm_way_id":"685395581","name":"Star Express","building":"yes","shop":"supermarket"},"geometry":{"type":"MultiPolygon","coordinates":[[[[-0.01708,51.6157],[-0.01709,51.61565],[-0.01726,51.61565],[-0.01725,51.61571],[-0.01708,51.6157]]]]}},
{ "type":"Feature","properties":{"osm_way_id":"685448957","name":"Chingford Food Centre","building":"yes","shop":"supermarket"},"geometry":{"type":"MultiPolygon","coordinates":[[[[-0.01749,51.60836],[-0.01713,51.60839],[-0.01711,51.60831],[-0.0173,51.6083],[-0.01749,51.60831],[-0.01749,51.60836]]]]}},
{ "type":"Feature","properties":{"osm_way_id":"685449169","name":"Brothers Supermarket","building":"yes","shop":"supermarket","other":{"addr:city":"London","addr:housenumber":"61","addr:postcode":"E4 8LU","addr:street":"Chingford Mount Road","opening_hours":"Mo-Su 06:00-23:00"}}, "geometry":{"type":"MultiPolygon","coordinates":[[[[-0.01805,51.6104],[-0.01802,51.6103],[-0.01832,51.61023],[-0.01837,51.61032],[-0.01835,51.61033],[-0.01805,51.6104]]]]}},
{ "type":"Feature","properties":{"osm_way_id":"685453149","name":"Beydagi Food Centre","building":"commercial","shop":"supermarket","other":{"addr:city":"London","addr:housenumber":"221","addr:postcode":"E10 7NE","addr:street":"Lea Bridge Road","addr:suburb":"Leyton","building:levels":"1","fhrs:id":"735389","fhrs:local_authority_id":"319221","source:addr":"FHRS Open Data"}}, "geometry":{"type":"MultiPolygon","coordinates":[[[[-0.03115,51.56829],[-0.031,51.56834],[-0.03116,51.56853],[-0.03131,51.56848],[-0.03115,51.56829]]]]}},
{ "type":"Feature","properties":{"osm_way_id":"916903308","name":"Magazin Romanesc Haiducii","building":"yes","shop":"supermarket","other":{"addr:city":"London","addr:housenumber":"460","addr:street":"Larkshall Road"}}, "geometry":{"type":"MultiPolygon","coordinates":[[[[-0.00133,51.60943],[-0.00136,51.6095],[-0.00149,51.60948],[-0.00145,51.60941],[-0.00133,51.60943]]]]}},
{ "type":"Feature","properties":{"osm_way_id":"917519937","name":"Eesa","building":"yes","shop":"supermarket","other":{"addr:city":"London","addr:postcode":"E4 9AA","addr:street":"Chingford Mount Road"}}, "geometry":{"type":"MultiPolygon","coordinates":[[[[-0.01776,51.61049],[-0.01776,51.61053],[-0.01757,51.61054],[-0.01756,51.61049],[-0.01776,51.61049]]]]}},
{ "type":"Feature","properties":{"osm_way_id":"919214265","name":"Avenue Food And Wine","building":"yes","shop":"supermarket"},"geometry":{"type":"MultiPolygon","coordinates":[[[[0.00013,51.60884],[0.00014,51.60891],[0.00025,51.6089],[0.00024,51.60883],[0.00013,51.60884]]]]}},
{ "type":"Feature","properties":{"osm_way_id":"919628104","name":"Oltenia Traditional Romanian Shop","building":"yes","shop":"supermarket"},"geometry":{"type":"MultiPolygon","coordinates":[[[[-0.01858,51.61748],[-0.01863,51.61752],[-0.01856,51.61755],[-0.01851,51.61751],[-0.01858,51.61748]]]]}},
{ "type":"Feature","properties":{"osm_way_id":"919628107","name":"ChingFood","building":"yes","shop":"supermarket"},"geometry":{"type":"MultiPolygon","coordinates":[[[[-0.01801,51.6175],[-0.01807,51.61748],[-0.01809,51.61748],[-0.01811,51.61749],[-0.01812,51.61755],[-0.01806,51.61756],[-0.01799,51.61758],[-0.01794,51.61752],[-0.01801,51.6175]]]]}},
{ "type":"Feature","properties":{"osm_way_id":"919628112","name":"Hugs & Mugs","building":"yes","shop":"supermarket"},"geometry":{"type":"MultiPolygon","coordinates":[[[[-0.01841,51.6172],[-0.01838,51.61725],[-0.01848,51.61728],[-0.01848,51.61728],[-0.01852,51.61723],[-0.01841,51.6172]]]]}},
{ "type":"Feature","properties":{"osm_way_id":"919709451","name":"Jerk Spice","building":"yes","shop":"supermarket","other":{"cuisine":"Caribbean"}}, "geometry":{"type":"MultiPolygon","coordinates":[[[[-0.01763,51.61893],[-0.01763,51.61888],[-0.0175,51.61887],[-0.0175,51.61892],[-0.01763,51.61893]]]]}},
{ "type":"Feature","properties":{"osm_way_id":"926257246","name":"Gülüzar Hatch Lane Food Centre","building":"yes","shop":"supermarket","other":{"addr:housenumber":"39-43","addr:street":"Hatch Lane"}}, "geometry":{"type":"MultiPolygon","coordinates":[[[[0.00408,51.61849],[0.00396,51.61847],[0.00393,51.61856],[0.00404,51.61857],[0.00416,51.61859],[0.00419,51.6185],[0.00408,51.61849]]]]}}
]
}
