{
"type": "FeatureCollection",
"features": [
{ "type":"Feature","properties":{"osm_way_id":"61994475","building":"warehouse","other":{"addr:postcode":"HP2 7UJ"}}, "geometry":{"type":"MultiPolygon","coordinates":[[[[-0.42864,51.76108],[-0.4288,51.76107],[-0.42889,51.76303],[-0.42614,51.76307],[-0.42608,51.76151],[-0.42608,51.76149],[-0.42607,51.76124],[-0.42606,51.76112],[-0.428,51.76108],[-0.42864,51.76108]]]]}},
{ "type":"Feature","properties":{"osm_way_id":"61995356","building":"warehouse"},"geometry":{"type":"MultiPolygon","coordinates":[[[[-0.43625,51.76585],[-0.43608,51.76568],[-0.43814,51.76486],[-0.43888,51.76557],[-0.43695,51.76635],[-0.43638,51.76579],[-0.43625,51.76585]]]]}},
{ "type":"Feature","properties":{"osm_way_id":"182622780","name":"GIST","building":"warehouse","other":{"addr:city":"Hemel Hempstead","addr:housenumber":"1","addr:postcode":"HP2 7EQ","addr:street":"Boundary Way"}}, "geometry":{"type":"MultiPolygon","coordinates":[[[[-0.43417,51.76149],[-0.43225,51.76144],[-0.43224,51.76172],[-0.4324,51.76173],[-0.43237,51.76226],[-0.43412,51.7623],[-0.43417,51.76149]]]]}},
{ "type":"Feature","properties":{"osm_way_id":"182623384","building":"warehouse"},"geometry":{"type":"MultiPolygon","coordinates":[[[[-0.43783,51.76832],[-0.43768,51.7682],[-0.43757,51.76824],[-0.43712,51.76784],[-0.43723,51.76779],[-0.43718,51.76775],[-0.43899,51.76696],[-0.43963,51.76754],[-0.43945,51.76762],[-0.4396,51.76773],[-0.43908,51.76796],[-0.43895,51.76785],[-0.43783,51.76832]]]]}},
{ "type":"Feature","properties":{"osm_way_id":"182623394","building":"warehouse"},"geometry":{"type":"MultiPolygon","coordinates":[[[[-0.44259,51.76599],[-0.44164,51.76641],[-0.44159,51.76639],[-0.44117,51.76658],[-0.44093,51.76636],[-0.44138,51.76615],[-0.44141,51.76619],[-0.44235,51.76578],[-0.44259,51.76599]]]]}},
{ "type":"Feature","properties":{"osm_way_id":"222756974","building":"warehouse"},"geometry":{"type":"MultiPolygon","coordinates":[[[[-0.47762,51.74002],[-0.47744,51.73987],[-0.47705,51.74005],[-0.47725,51.74019],[-0.47762,51.74002]]]]}},
{ "type":"Feature","properties":{"osm_way_id":"222756978","building":"warehouse"},"geometry":{"type":"MultiPolygon","coordinates":[[[[-0.4773,51.74027],[-0.47702,51.74005],[-0.47684,51.74013],[-0.47711,51.74035],[-0.4773,51.74027]]]]}},
{ "type":"Feature","properties":{"osm_way_id":"222756979","building":"warehouse"},"geometry":{"type":"MultiPolygon","coordinates":[[[[-0.47796,51.7405],[-0.47785,51.74031],[-0.4785,51.74018],[-0.47861,51.74034],[-0.47796,51.7405]]]]}},
{ "type":"Feature","properties":{"osm_way_id":"232337338","name":"NBTY International Limited","building":"warehouse","other":{"addr:city":"Aldbury, Tring","addr:street":"Beggars Lane"}}, "geometry":{"type":"MultiPolygon","coordinates":[[[[-0.62039,51.79089],[-0.62094,51.79136],[-0.62053,51.79155],[-0.61998,51.79107],[-0.62039,51.79089]]]]}},
{ "type":"Feature","properties":{"osm_way_id":"232337340","name":"NBTY International Ltd","building":"warehouse","other":{"addr:city":"Aldbury, Tring","addr:street":"Beggars Lane"}}, "geometry":{"type":"MultiPolygon","coordinates":[[[[-0.62127,51.79163],[-0.62183,51.79209],[-0.62139,51.7923],[-0.62082,51.79183],[-0.62127,51.79163]]]]}},
{ "type":"Feature","properties":{"osm_way_id":"490061172","building":"warehouse","other":{"addr:postcode":"HP2 7EQ","website":"https:\/\/martinbrower.co.uk\/"}}, "geometry":{"type":"MultiPolygon","coordinates":[[[[-0.43355,51.76042],[-0.43349,51.76131],[-0.43152,51.76127],[-0.43159,51.76002],[-0.43142,51.76001],[-0.43143,51.75977],[-0.43188,51.75978],[-0.43187,51.75994],[-0.43357,51.75998],[-0.43356,51.76013],[-0.43427,51.76015],[-0.43426,51.76043],[-0.43355,51.76042]]]]}},
{ "type":"Feature","properties":{"osm_way_id":"678286281","name":"Amazon","building":"warehouse","other":{"addr:postcode":"HP2 7LF"}}, "geometry":{"type":"MultiPolygon","coordinates":[[[[-0.428,51.76108],[-0.42798,51.76073],[-0.42822,51.76073],[-0.42822,51.7609],[-0.42863,51.76089],[-0.42864,51.76108],[-0.428,51.76108]]]]}},
{ "type":"Feature","properties":{"osm_way_id":"921429294","building":"house"},"geometry":{"type":"MultiPolygon","coordinates":[[[[-0.66682,51.79858],[-0.66675,51.79847],[-0.66687,51.79844],[-0.66696,51.79855],[-0.66682,51.79858]]]]}},
{ "type":"Feature","properties":{"osm_way_id":"1036265349","name":"Waterproof World","building":"warehouse","other":{"clothes":"children","description":"Waterproof Clothing for Kids Outdoor Play","website":"https:\/\/www.waterproofworld.co.uk\/"}}, "geometry":{"type":"MultiPolygon","coordinates":[[[[-0.51219,51.77249],[-0.51221,51.77244],[-0.51206,51.77241],[-0.51209,51.77234],[-0.51199,51.77232],[-0.51193,51.77245],[-0.51219,51.77249]]]]}}
]
}
