{
"type": "FeatureCollection",
"features": [
{ "type":"Feature","properties":{"osm_id":"263250732","name":"Tesco","other":{"addr:postcode":"HP23 5NB","addr:street":"London Road","brand":"Tesco","brand:wikidata":"Q487494","brand:wikipedia":"en:Tesco","contact:phone":"+443456779683","contact:website":"http:\/\/www.tesco.com\/store-locator\/uk\/?bID=3309","fhrs:id":"201965","opening_hours":"Mo-Sa 06:00-00:00; Su 10:00-16:00","operator":"Tesco Stores Ltd","shop":"supermarket","wheelchair":"yes"}}, "geometry":{"type":"Point","coordinates":[-0.65395,51.79384 ]}},
{ "type":"Feature","properties":{"osm_id":"957062007","name":"Co-op Food","other":{"brand":"Co-op Food","brand:wikidata":"Q3277439","brand:wikipedia":"en:Co-op Food","operator":"The Co-operative Group","operator:wikidata":"Q117202","operator:wikipedia":"en:The Co-operative Group","shop":"supermarket"}}, "geometry":{"type":"Point","coordinates":[-0.50121,51.74976 ]}},
{ "type":"Feature","properties":{"osm_id":"957062016","name":"Co-op Food","other":{"brand":"Co-op Food","brand:wikidata":"Q3277439","brand:wikipedia":"en:Co-op Food","operator":"The Co-operative Group","operator:wikidata":"Q117202","operator:wikipedia":"en:The Co-operative Group","shop":"supermarket"}}, "geometry":{"type":"Point","coordinates":[-0.49399,51.75579 ]}},
{ "type":"Feature","properties":{"osm_id":"1782916987","name":"M&S Simply Food","other":{"addr:city":"Tring","addr:housenumber":"5","addr:postcode":"HP23 5BN","addr:street":"Dolphin Square","brand":"M&S Simply Food","brand:wikidata":"Q714491","brand:wikipedia":"en:Marks & Spencer","fhrs:id":"202382","shop":"supermarket"}}, "geometry":{"type":"Point","coordinates":[-0.66188,51.79415 ]}},
{ "type":"Feature","properties":{"osm_id":"5758882189","name":"Hemel Food Centre","other":{"old_name":"Sainsbury's","shop":"supermarket"}}, "geometry":{"type":"Point","coordinates":[-0.47202,51.7511 ]}},
{ "type":"Feature","properties":{"osm_way_id":"27518995","name":"ALDI","building":"retail","shop":"supermarket","other":{"addr:city":"Hemel Hempstead","addr:country":"GB","addr:postcode":"HP3 9AA","addr:street":"London Road","brand":"ALDI","brand:wikidata":"Q41171672","brand:wikipedia":"en:Aldi","contact:website":"https:\/\/www.aldi.co.uk\/store\/s-uk-E0861","opening_hours":"Mo-Sa 08:00-22:00; Su 10:00-16:00"}}, "geometry":{"type":"MultiPolygon","coordinates":[[[[-0.47555,51.73985],[-0.47574,51.73935],[-0.47617,51.7394],[-0.47615,51.73946],[-0.47625,51.73948],[-0.47622,51.73956],[-0.47613,51.73954],[-0.47599,51.7399],[-0.47589,51.73989],[-0.47587,51.73992],[-0.47561,51.73989],[-0.47561,51.73986],[-0.47555,51.73985]]]]}},
{ "type":"Feature","properties":{"osm_way_id":"51353474","name":"Sainsbury's","building":"yes","shop":"supermarket","other":{"brand":"Sainsbury's","brand:wikidata":"Q152096"}}, "geometry":{"type":"MultiPolygon","coordinates":[[[[-0.43614,51.78039],[-0.4359,51.78047],[-0.4356,51.78058],[-0.43536,51.78044],[-0.43511,51.7802],[-0.43577,51.77996],[-0.43578,51.77998],[-0.43614,51.78039]]]]}},
{ "type":"Feature","properties":{"osm_way_id":"62142397","name":"Sainsbury's","building":"yes","shop":"supermarket","other":{"addr:city":"Hemel Hempstead","addr:postcode":"HP3 9QZ","addr:street":"London Road","brand":"Sainsbury's","brand:wikidata":"Q152096","brand:wikipedia":"en:Sainsbury's","opening_hours":"Mo-Sa 07:00-23:00; Su 10:00-16:00","operator":"Sainsbury's","phone":"+44 1442 218352","toilets:wheelchair":"yes","website":"https:\/\/stores.sainsburys.co.uk\/0634\/apsley-mills","wheelchair":"yes"}}, "geometry":{"type":"MultiPolygon","coordinates":[[[[-0.46547,51.73579],[-0.46482,51.73613],[-0.46453,51.73628],[-0.46487,51.73654],[-0.46511,51.73663],[-0.46519,51.73658],[-0.46549,51.73678],[-0.46626,51.73636],[-0.46579,51.73602],[-0.46547,51.73579]]]]}},
{ "type":"Feature","properties":{"osm_way_id":"166437581","name":"Tesco Metro","building":"yes","shop":"supermarket","other":{"addr:city":"Berkhamsted","addr:housenumber":"160","addr:postcode":"HP4 3AP","addr:street":"High Street","brand":"Tesco Metro","brand:wikidata":"Q57551648","brand:wikipedia":"en:Tesco","designation":"Generic Building","fhrs:id":"202312","operator":"Tesco Stores Ltd"}}, "geometry":{"type":"MultiPolygon","coordinates":[[[[-0.56319,51.76062],[-0.56307,51.76058],[-0.563,51.76055],[-0.56293,51.76053],[-0.56314,51.76029],[-0.5632,51.76031],[-0.56323,51.76027],[-0.56326,51.76024],[-0.56332,51.76017],[-0.56352,51.76023],[-0.56319,51.76062]]]]}},
{ "type":"Feature","properties":{"osm_way_id":"166900296","name":"Waitrose","building":"supermarket","shop":"supermarket","other":{"addr:city":"Berkhamsted","addr:postcode":"HP4 1HS","addr:street":"St Johns Well Lane","brand":"Waitrose","brand:wikidata":"Q771734","brand:wikipedia":"en:Waitrose","fhrs:id":"201959","official_name":"Waitrose & Partners","operator":"Waitrose & Partners"}}, "geometry":{"type":"MultiPolygon","coordinates":[[[[-0.56726,51.76176],[-0.56661,51.76157],[-0.56654,51.76167],[-0.56646,51.76165],[-0.56637,51.76177],[-0.56611,51.76169],[-0.56595,51.7619],[-0.56626,51.76199],[-0.56615,51.76215],[-0.56661,51.7623],[-0.56684,51.76227],[-0.56691,51.76219],[-0.56697,51.7622],[-0.56708,51.76206],[-0.56704,51.76204],[-0.56726,51.76176]]]]}},
{ "type":"Feature","properties":{"osm_way_id":"182674438","name":"Aldi","building":"yes","shop":"supermarket","other":{"brand":"ALDI","brand:wikidata":"Q41171672","brand:wikipedia":"en:Aldi"}}, "geometry":{"type":"MultiPolygon","coordinates":[[[[-0.44797,51.77005],[-0.44785,51.7696],[-0.44814,51.76951],[-0.44817,51.76959],[-0.4483,51.76959],[-0.44838,51.77002],[-0.44797,51.77005]]]]}},
{ "type":"Feature","properties":{"osm_way_id":"190663142","name":"Asda","building":"supermarket","shop":"supermarket","other":{"addr:city":"Hemel Hempstead","addr:country":"GB","addr:postcode":"HP2 4AA","addr:street":"Hillfield Road","brand":"Asda","brand:wikidata":"Q297410","brand:wikipedia":"en:Asda","contact:facebook":"https:\/\/www.facebook.com\/asda\/","contact:phone":"+44 1442 212802","contact:twitter":"@asda","contact:website":"https:\/\/storelocator.asda.com\/east-of-england\/hemel-hempstead\/hillfield-road","fhrs:id":"201982","opening_hours:covid19":"Mo-Sa 08:00-22:00; Su 10:00-16:00","operator":"Asda Stores Ltd"}}, "geometry":{"type":"MultiPolygon","coordinates":[[[[-0.47037,51.75362],[-0.47051,51.75361],[-0.47052,51.75366],[-0.47087,51.75364],[-0.47086,51.75358],[-0.47108,51.75357],[-0.4711,51.75357],[-0.47119,51.75425],[-0.47046,51.75429],[-0.47045,51.75418],[-0.47037,51.75362]]]]}},
{ "type":"Feature","properties":{"osm_way_id":"363648691","name":"M&S Foodhall","building":"yes","shop":"supermarket","other":{"addr:city":"Berkhamsted","addr:housename":"Unit 3","addr:housenumber":"300","addr:postcode":"HP4 1ZZ","addr:street":"High Street","brand":"M&S Foodhall","brand:wikidata":"Q714491","brand:wikipedia":"en:Marks & Spencer","disused:amenity":"post_office","fhrs:id":"668057","operator":"Marks and Spencer (food)"}}, "geometry":{"type":"MultiPolygon","coordinates":[[[[-0.56932,51.76221],[-0.56942,51.76224],[-0.56937,51.7623],[-0.56919,51.7625],[-0.56912,51.76247],[-0.56907,51.76252],[-0.56894,51.76248],[-0.56888,51.76254],[-0.56867,51.76247],[-0.56908,51.76203],[-0.56939,51.76213],[-0.56932,51.76221]]]]}},
{ "type":"Feature","properties":{"osm_way_id":"491109440","name":"Tesco Extra","building":"yes","shop":"supermarket","other":{"addr:city":"Hemel Hempstead","addr:postcode":"HP2 4JS","addr:street":"Jarman Way","brand":"Tesco Extra","brand:wikidata":"Q25172225","brand:wikipedia":"en:Tesco Extra","contact:website":"https:\/\/www.tesco.com\/store-locator\/hemel-hempstead\/jarman-way","opening_hours":"Mo-Fr 06:00-24:00; Su 10:00-16:00; Sa 06:00-22:00","operator":"Tesco Stores Ltd","payment:cash":"yes","payment:contactless":"yes","payment:credit_cards":"yes","payment:debit_cards":"yes","payment:mastercard":"yes","payment:visa_debit":"yes","phone":"+44 845 677 9349"}}, "geometry":{"type":"MultiPolygon","coordinates":[[[[-0.45871,51.74799],[-0.45832,51.74821],[-0.45862,51.74842],[-0.45789,51.74884],[-0.45799,51.7489],[-0.45784,51.74899],[-0.45685,51.74831],[-0.4579,51.74771],[-0.45823,51.74794],[-0.45841,51.74783],[-0.45803,51.74756],[-0.45806,51.74754],[-0.45871,51.74799]]]]}}
]
}
