{
"type": "FeatureCollection",
"features": [
{ "type":"Feature","properties":{"osm_id":"1990928040","name":"B&M Bargains","other":{"addr:city":"Boston","addr:country":"GB","addr:postcode":"PE21 8QD","addr:street":"Lawrence Lane","fhrs:authority":"Boston","fhrs:id":"427184","fhrs:local_authority_id":"8522","shop":"supermarket"}}, "geometry":{"type":"Point","coordinates":[-0.0265,52.97714 ]}},
{ "type":"Feature","properties":{"osm_id":"3278371387","name":"Heron Foods","other":{"addr:city":"Boston","addr:country":"GB","addr:housenumber":"26a","addr:postcode":"PE21 6RX","addr:street":"Wide Bargate","brand":"Heron Foods","brand:wikidata":"Q5743472","brand:wikipedia":"en:Heron Foods","contact:website":"https:\/\/heronfoods.com\/storelocator\/store-details\/boston","fhrs:id":"231666","shop":"supermarket"}}, "geometry":{"type":"Point","coordinates":[-0.02129,52.98036 ]}},
{ "type":"Feature","properties":{"osm_id":"7295322082","name":"Lincolnshire Co-operative","other":{"addr:city":"Old Leake","addr:country":"GB","addr:postcode":"PE22 9JT","addr:street":"Meadow Way","fhrs:authority":"Boston","fhrs:id":"867711","fhrs:local_authority_id":"39393","shop":"supermarket"}}, "geometry":{"type":"Point","coordinates":[0.10037,53.0289 ]}},
{ "type":"Feature","properties":{"osm_id":"7324019535","name":"Boston Supermarket","other":{"addr:city":"Boston","addr:country":"GB","addr:housenumber":"8","addr:postcode":"PE21 8XF","addr:street":"George Street","fhrs:authority":"Boston","fhrs:id":"1284098","fhrs:local_authority_id":"40007","shop":"supermarket"}}, "geometry":{"type":"Point","coordinates":[-0.02965,52.9756 ]}},
{ "type":"Feature","properties":{"osm_id":"7329960445","name":"Fine Foods Supermarket & Cafe Bar","other":{"addr:city":"Boston","addr:country":"GB","addr:housename":"Johnson's Garden Centre","addr:postcode":"PE21 9RZ","addr:street":"Wainfleet Road","fhrs:authority":"Boston","fhrs:id":"231857","fhrs:local_authority_id":"6935","shop":"supermarket"}}, "geometry":{"type":"Point","coordinates":[0.01453,52.98634 ]}},
{ "type":"Feature","properties":{"osm_id":"8829838502","name":"Spar","other":{"brand":"Spar","brand:wikidata":"Q610492","brand:wikipedia":"en:SPAR (retailer)","shop":"supermarket"}}, "geometry":{"type":"Point","coordinates":[-0.02667,52.96599 ]}},
{ "type":"Feature","properties":{"osm_way_id":"61998754","name":"Tesco","building":"yes","shop":"supermarket","other":{"addr:city":"Wyberton","addr:country":"GB","addr:postcode":"PE21 7JD","addr:street":"New Hammond Beck Road","brand":"Tesco","brand:wikidata":"Q487494","brand:wikipedia":"en:Tesco","designation":"Boston Superstore","fhrs:authority":"Boston","fhrs:id":"231715","fhrs:local_authority_id":"199"}}, "geometry":{"type":"MultiPolygon","coordinates":[[[[-0.0616,52.97052],[-0.06083,52.97059],[-0.06081,52.97052],[-0.06034,52.97057],[-0.0606,52.97155],[-0.06095,52.97157],[-0.06098,52.97138],[-0.06125,52.97139],[-0.06142,52.97137],[-0.06141,52.97135],[-0.06163,52.97133],[-0.06161,52.97123],[-0.06171,52.97122],[-0.0616,52.97077],[-0.06167,52.97076],[-0.0616,52.97052]]]]}},
{ "type":"Feature","properties":{"osm_way_id":"61998798","name":"Asda","building":"yes","shop":"supermarket","other":{"addr:postcode":"PE21 8EQ","addr:street":"Lister Way","brand":"Asda","brand:wikidata":"Q297410","brand:wikipedia":"en:Asda","contact:facebook":"https:\/\/www.facebook.com\/asda\/","contact:twitter":"@asda","contact:website":"https:\/\/storelocator.asda.com\/east-midlands\/boston\/lister-way","designation":"Boston Superstore","fhrs:authority":"Boston","fhrs:id":"231787","fhrs:local_authority_id":"5061","operator":"Asda Stores Ltd"}}, "geometry":{"type":"MultiPolygon","coordinates":[[[[-0.03266,52.97963],[-0.03258,52.97983],[-0.03247,52.98009],[-0.03246,52.98011],[-0.03241,52.98024],[-0.03219,52.98021],[-0.0321,52.98044],[-0.03107,52.98029],[-0.03145,52.97937],[-0.03161,52.97939],[-0.03164,52.9794],[-0.03168,52.9793],[-0.03187,52.97932],[-0.03202,52.97935],[-0.03198,52.97944],[-0.03198,52.97945],[-0.03242,52.97952],[-0.0324,52.97959],[-0.03266,52.97963]]]]}},
{ "type":"Feature","properties":{"osm_way_id":"72127308","name":"Aldi","building":"yes","shop":"supermarket","other":{"addr:city":"Boston","addr:country":"GB","addr:postcode":"PE21 8XZ","addr:street":"Queen Street","branch":"Boston","brand":"ALDI","brand:wikidata":"Q41171672","brand:wikipedia":"en:Aldi","fhrs:id":"231649"}}, "geometry":{"type":"MultiPolygon","coordinates":[[[[-0.03182,52.97589],[-0.03139,52.97588],[-0.03139,52.97576],[-0.03144,52.97576],[-0.03146,52.97547],[-0.03164,52.97547],[-0.03164,52.97541],[-0.03185,52.97542],[-0.03182,52.97589]]]]}},
{ "type":"Feature","properties":{"osm_way_id":"188332765","name":"Korzinka","building":"yes","shop":"supermarket","other":{"addr:city":"Boston","addr:country":"GB","addr:housenumber":"30","addr:postcode":"PE21 6TR","addr:street":"Field Street","fhrs:authority":"Boston","fhrs:id":"767409","fhrs:local_authority_id":"39301"}}, "geometry":{"type":"MultiPolygon","coordinates":[[[[-0.01783,52.97861],[-0.01776,52.9787],[-0.01765,52.9787],[-0.01761,52.97851],[-0.01778,52.97849],[-0.01783,52.97861]]]]}},
{ "type":"Feature","properties":{"osm_way_id":"188376336","name":"Urban and Fresh","building":"yes","shop":"supermarket","other":{"addr:city":"Boston","addr:country":"GB","addr:housenumber":"2","addr:postcode":"PE21 8EG","addr:street":"Sleaford Road","fhrs:id":"1201342"}}, "geometry":{"type":"MultiPolygon","coordinates":[[[[-0.03313,52.97667],[-0.0332,52.97675],[-0.03393,52.97653],[-0.03386,52.97645],[-0.03313,52.97667]]]]}},
{ "type":"Feature","properties":{"osm_way_id":"188388801","name":"Baltic Food and Grocery","building":"yes","shop":"supermarket","other":{"addr:city":"Boston","addr:country":"GB","addr:housenumber":"101","addr:postcode":"PE21 8RE","addr:street":"West Street","fhrs:authority":"Boston","fhrs:id":"231969","fhrs:local_authority_id":"7826"}}, "geometry":{"type":"MultiPolygon","coordinates":[[[[-0.03064,52.97656],[-0.03069,52.97638],[-0.03048,52.97636],[-0.03043,52.97654],[-0.03064,52.97656]]]]}},
{ "type":"Feature","properties":{"osm_way_id":"222635131","name":"Viking Market","building":"yes","shop":"supermarket","other":{"addr:city":"Boston","addr:country":"GB","addr:housenumber":"46-56","addr:postcode":"PE21 8QH","addr:street":"West Street","fhrs:authority":"Boston","fhrs:id":"1008176","fhrs:local_authority_id":"39533"}}, "geometry":{"type":"MultiPolygon","coordinates":[[[[-0.02678,52.97628],[-0.02641,52.97626],[-0.02637,52.97623],[-0.02642,52.97594],[-0.02674,52.97596],[-0.02671,52.97606],[-0.02678,52.97607],[-0.02675,52.97619],[-0.02679,52.97619],[-0.02678,52.97628]]]]}},
{ "type":"Feature","properties":{"osm_way_id":"238079584","name":"Co-op","building":"yes","shop":"supermarket","other":{"addr:housenumber":"29","addr:postcode":"PE22 9NS","addr:street":"Church Street","designation":"Lincolnshire Co-operative"}}, "geometry":{"type":"MultiPolygon","coordinates":[[[[0.09846,53.03145],[0.09862,53.03138],[0.09878,53.0315],[0.09865,53.03156],[0.09846,53.03145]]]]}},
{ "type":"Feature","properties":{"osm_way_id":"238080965","name":"Iceland","building":"yes","shop":"supermarket","other":{"addr:city":"Boston","addr:country":"GB","addr:housenumber":"38-40","addr:postcode":"PE21 6RY","addr:street":"Wide Bargate","branch":"Boston","brand":"Iceland","brand:wikidata":"Q721810","brand:wikipedia":"en:Iceland (supermarket)","fhrs:authority":"Boston","fhrs:id":"231714","fhrs:local_authority_id":"717"}}, "geometry":{"type":"MultiPolygon","coordinates":[[[[-0.02077,52.98102],[-0.02049,52.98079],[-0.02024,52.981],[-0.0203,52.98101],[-0.02038,52.98108],[-0.02046,52.98116],[-0.02064,52.98109],[-0.02077,52.98102]]]]}},
{ "type":"Feature","properties":{"osm_way_id":"321205085","name":"Co-op Foodstore","building":"yes","shop":"supermarket","other":{"addr:city":"Boston","addr:country":"GB","addr:housenumber":"52-60","addr:postcode":"PE21 8PH","addr:street":"Argyle Street","fhrs:id":"231923","operator":"Lincolnshire Co-operative Society"}}, "geometry":{"type":"MultiPolygon","coordinates":[[[[-0.03863,52.98099],[-0.03898,52.98098],[-0.039,52.98112],[-0.03865,52.98113],[-0.03863,52.98099]]]]}},
{ "type":"Feature","properties":{"osm_way_id":"423858567","name":"Co-op Foodstore","building":"yes","shop":"supermarket","other":{"addr:city":"Boston","addr:country":"GB","addr:postcode":"PE21 8BB","addr:street":"Woodville Road","fhrs:authority":"Boston","fhrs:id":"862302","fhrs:local_authority_id":"39385"}}, "geometry":{"type":"MultiPolygon","coordinates":[[[[-0.04012,52.97376],[-0.03972,52.97374],[-0.0397,52.97389],[-0.0401,52.97392],[-0.04012,52.97376]]]]}},
{ "type":"Feature","properties":{"osm_way_id":"706202483","name":"Lidl","building":"yes","shop":"supermarket","other":{"addr:city":"Boston","addr:country":"GB","addr:postcode":"PE21 7TR","addr:street":"Westbridge Road","brand":"Lidl","brand:wikidata":"Q151954","brand:wikipedia":"en:Lidl","fhrs:authority":"Boston","fhrs:id":"1021867","fhrs:local_authority_id":"39554"}}, "geometry":{"type":"MultiPolygon","coordinates":[[[[-0.06366,52.97161],[-0.06359,52.97131],[-0.06463,52.97122],[-0.0647,52.97153],[-0.06366,52.97161]]]]}},
{ "type":"Feature","properties":{"osm_way_id":"779550554","name":"Korzinka","building":"yes","shop":"supermarket","other":{"addr:city":"Boston","addr:country":"GB","addr:housenumber":"69","addr:postcode":"PE21 8PJ","addr:street":"Argyle Street","fhrs:authority":"Boston","fhrs:id":"1021866","fhrs:local_authority_id":"39553"}}, "geometry":{"type":"MultiPolygon","coordinates":[[[[-0.04036,52.98133],[-0.04023,52.98133],[-0.04024,52.98146],[-0.04025,52.98146],[-0.04028,52.98169],[-0.04063,52.98167],[-0.04062,52.9816],[-0.04042,52.98161],[-0.04041,52.98154],[-0.0404,52.98154],[-0.04038,52.98144],[-0.04037,52.98144],[-0.04036,52.98133]]]]}},
{ "type":"Feature","properties":{"osm_way_id":"948453841","name":"Lidl","building":"retail","shop":"supermarket","other":{"addr:city":"Boston","addr:country":"GB","addr:postcode":"PE21 6RS","addr:street":"Tawney Street","brand":"Lidl","brand:wikidata":"Q151954","brand:wikipedia":"en:Lidl","fhrs:authority":"Boston","fhrs:id":"1224916","fhrs:local_authority_id":"39916","opening_hours":"Mo-Sa 08:00-22:00; Su 10:00-16:00","source:outline":"Maxar Premium","website":"https:\/\/lidl.co.uk"}}, "geometry":{"type":"MultiPolygon","coordinates":[[[[-0.02143,52.98114],[-0.02139,52.98109],[-0.02175,52.98097],[-0.02158,52.98079],[-0.02165,52.98076],[-0.02155,52.98066],[-0.02143,52.98064],[-0.02139,52.9806],[-0.02109,52.9807],[-0.02118,52.9808],[-0.02095,52.98088],[-0.02099,52.98092],[-0.02094,52.98094],[-0.02119,52.98122],[-0.02143,52.98114]]]]}}
]
}
