{
"type": "FeatureCollection",
"features": [
{ "type":"Feature","properties":{"osm_id":"416144835","other":{"amenity":"parking"}}, "geometry":{"type":"Point","coordinates":[-3.11988,51.63259 ]}},
{ "type":"Feature","properties":{"osm_id":"416144836","other":{"amenity":"parking"}}, "geometry":{"type":"Point","coordinates":[-3.11761,51.62788 ]}},
{ "type":"Feature","properties":{"osm_id":"416144837","other":{"amenity":"parking"}}, "geometry":{"type":"Point","coordinates":[-3.11005,51.62587 ]}},
{ "type":"Feature","properties":{"osm_id":"416144838","other":{"amenity":"parking"}}, "geometry":{"type":"Point","coordinates":[-3.1027,51.62954 ]}},
{ "type":"Feature","properties":{"osm_id":"416144839","other":{"amenity":"parking"}}, "geometry":{"type":"Point","coordinates":[-3.1051,51.63442 ]}},
{ "type":"Feature","properties":{"osm_id":"416144840","other":{"amenity":"parking"}}, "geometry":{"type":"Point","coordinates":[-3.1092,51.63464 ]}},
{ "type":"Feature","properties":{"osm_id":"522436169","other":{"amenity":"parking"}}, "geometry":{"type":"Point","coordinates":[-3.07993,51.59923 ]}},
{ "type":"Feature","properties":{"osm_id":"974145018","other":{"access":"private","amenity":"parking"}}, "geometry":{"type":"Point","coordinates":[-3.23943,51.68264 ]}},
{ "type":"Feature","properties":{"osm_id":"1310623678","name":"Pub Car Park","other":{"amenity":"parking"}}, "geometry":{"type":"Point","coordinates":[-3.29061,51.63562 ]}},
{ "type":"Feature","properties":{"osm_id":"1313473807","other":{"amenity":"parking","wheelchair":"limited"}}, "geometry":{"type":"Point","coordinates":[-3.17516,51.65737 ]}},
{ "type":"Feature","properties":{"osm_id":"1313473905","other":{"amenity":"parking","wheelchair":"yes"}}, "geometry":{"type":"Point","coordinates":[-3.17284,51.65778 ]}},
{ "type":"Feature","properties":{"osm_id":"1313473907","name":"Pen-y-fan Pond Country Park","other":{"amenity":"parking","fee":"no"}}, "geometry":{"type":"Point","coordinates":[-3.16225,51.70026 ]}},
{ "type":"Feature","properties":{"osm_id":"2072372876","other":{"amenity":"parking"}}, "geometry":{"type":"Point","coordinates":[-3.26811,51.7161 ]}},
{ "type":"Feature","properties":{"osm_id":"3063060669","other":{"amenity":"parking"}}, "geometry":{"type":"Point","coordinates":[-3.08726,51.62716 ]}},
{ "type":"Feature","properties":{"osm_id":"4331051047","other":{"amenity":"parking"}}, "geometry":{"type":"Point","coordinates":[-3.21615,51.56308 ]}},
{ "type":"Feature","properties":{"osm_id":"4838948440","other":{"access":"private","amenity":"parking"}}, "geometry":{"type":"Point","coordinates":[-3.22992,51.70104 ]}},
{ "type":"Feature","properties":{"osm_id":"4838948441","other":{"access":"private","amenity":"parking"}}, "geometry":{"type":"Point","coordinates":[-3.22955,51.70292 ]}},
{ "type":"Feature","properties":{"osm_id":"4838953454","other":{"amenity":"parking"}}, "geometry":{"type":"Point","coordinates":[-3.23902,51.69773 ]}},
{ "type":"Feature","properties":{"osm_id":"4840617136","name":"Emporium Car Park","other":{"amenity":"parking","fee":"yes","operator":"Caerphilly County Borough Council"}}, "geometry":{"type":"Point","coordinates":[-3.23076,51.69173 ]}},
{ "type":"Feature","properties":{"osm_id":"4840617137","name":"St Gwladys Car Park","other":{"amenity":"parking","fee":"yes","operator":"Caerphilly County Borough Council"}}, "geometry":{"type":"Point","coordinates":[-3.23017,51.69214 ]}},
{ "type":"Feature","properties":{"osm_id":"4840631558","other":{"amenity":"parking"}}, "geometry":{"type":"Point","coordinates":[-3.23167,51.69376 ]}},
{ "type":"Feature","properties":{"osm_id":"4840631559","other":{"amenity":"parking"}}, "geometry":{"type":"Point","coordinates":[-3.23413,51.68512 ]}},
{ "type":"Feature","properties":{"osm_id":"4840631560","other":{"amenity":"parking"}}, "geometry":{"type":"Point","coordinates":[-3.23803,51.68778 ]}},
{ "type":"Feature","properties":{"osm_id":"4840631561","other":{"amenity":"parking"}}, "geometry":{"type":"Point","coordinates":[-3.24422,51.68867 ]}},
{ "type":"Feature","properties":{"osm_id":"4840631562","other":{"amenity":"parking"}}, "geometry":{"type":"Point","coordinates":[-3.24667,51.68845 ]}},
{ "type":"Feature","properties":{"osm_id":"4840631563","other":{"access":"private","amenity":"parking"}}, "geometry":{"type":"Point","coordinates":[-3.24104,51.68491 ]}},
{ "type":"Feature","properties":{"osm_id":"4840631564","other":{"access":"customers","amenity":"parking"}}, "geometry":{"type":"Point","coordinates":[-3.23961,51.68444 ]}},
{ "type":"Feature","properties":{"osm_id":"4840631565","other":{"access":"customers","amenity":"parking"}}, "geometry":{"type":"Point","coordinates":[-3.23968,51.68428 ]}},
{ "type":"Feature","properties":{"osm_id":"4840631566","other":{"access":"private","amenity":"parking"}}, "geometry":{"type":"Point","coordinates":[-3.23855,51.68451 ]}},
{ "type":"Feature","properties":{"osm_id":"4840631567","other":{"access":"private","amenity":"parking"}}, "geometry":{"type":"Point","coordinates":[-3.23876,51.6844 ]}},
{ "type":"Feature","properties":{"osm_id":"4840631568","other":{"access":"private","amenity":"parking"}}, "geometry":{"type":"Point","coordinates":[-3.23872,51.68398 ]}},
{ "type":"Feature","properties":{"osm_id":"4840631569","other":{"access":"private","amenity":"parking"}}, "geometry":{"type":"Point","coordinates":[-3.23831,51.68413 ]}},
{ "type":"Feature","properties":{"osm_id":"4840631570","other":{"access":"private","amenity":"parking"}}, "geometry":{"type":"Point","coordinates":[-3.23803,51.68435 ]}},
{ "type":"Feature","properties":{"osm_id":"4840631571","other":{"access":"private","amenity":"parking"}}, "geometry":{"type":"Point","coordinates":[-3.2369,51.68432 ]}},
{ "type":"Feature","properties":{"osm_id":"4840631572","other":{"access":"private","amenity":"parking"}}, "geometry":{"type":"Point","coordinates":[-3.23681,51.68447 ]}},
{ "type":"Feature","properties":{"osm_id":"4840631573","other":{"access":"private","amenity":"parking"}}, "geometry":{"type":"Point","coordinates":[-3.2392,51.68371 ]}},
{ "type":"Feature","properties":{"osm_id":"4840631574","other":{"access":"private","amenity":"parking"}}, "geometry":{"type":"Point","coordinates":[-3.23911,51.68332 ]}},
{ "type":"Feature","properties":{"osm_id":"4840661805","other":{"amenity":"parking"}}, "geometry":{"type":"Point","coordinates":[-3.22874,51.68663 ]}},
{ "type":"Feature","properties":{"osm_id":"4840679549","name":"Bryntirion Surgery Car Park","other":{"access":"customers","amenity":"parking","operator":"Bryntirion Surgery","parking":"surface","surface":"paved"}}, "geometry":{"type":"Point","coordinates":[-3.23477,51.68752 ]}},
{ "type":"Feature","properties":{"osm_id":"4840679550","name":"Bryntirion Surgery Car Park","other":{"access":"customers","amenity":"parking","operator":"Bryntirion Surgery"}}, "geometry":{"type":"Point","coordinates":[-3.23452,51.68758 ]}},
{ "type":"Feature","properties":{"osm_id":"4841964731","other":{"amenity":"parking"}}, "geometry":{"type":"Point","coordinates":[-3.22974,51.68638 ]}},
{ "type":"Feature","properties":{"osm_id":"4841967492","other":{"amenity":"parking"}}, "geometry":{"type":"Point","coordinates":[-3.2994,51.73179 ]}},
{ "type":"Feature","properties":{"osm_id":"4841977222","other":{"amenity":"parking"}}, "geometry":{"type":"Point","coordinates":[-3.29868,51.73213 ]}},
{ "type":"Feature","properties":{"osm_id":"4841977223","other":{"amenity":"parking"}}, "geometry":{"type":"Point","coordinates":[-3.29915,51.73294 ]}},
{ "type":"Feature","properties":{"osm_id":"4841983454","other":{"amenity":"parking"}}, "geometry":{"type":"Point","coordinates":[-3.2353,51.69125 ]}},
{ "type":"Feature","properties":{"osm_id":"4841983455","other":{"access":"customers","amenity":"parking"}}, "geometry":{"type":"Point","coordinates":[-3.24265,51.69043 ]}},
{ "type":"Feature","properties":{"osm_id":"4841986006","other":{"access":"private","amenity":"parking"}}, "geometry":{"type":"Point","coordinates":[-3.24085,51.68358 ]}},
{ "type":"Feature","properties":{"osm_id":"4841986007","other":{"amenity":"parking"}}, "geometry":{"type":"Point","coordinates":[-3.24115,51.68302 ]}},
{ "type":"Feature","properties":{"osm_id":"4841986008","other":{"access":"private","amenity":"parking"}}, "geometry":{"type":"Point","coordinates":[-3.24037,51.68345 ]}},
{ "type":"Feature","properties":{"osm_id":"4841986009","other":{"access":"private","amenity":"parking"}}, "geometry":{"type":"Point","coordinates":[-3.23997,51.68307 ]}},
{ "type":"Feature","properties":{"osm_id":"4841986010","other":{"access":"private","amenity":"parking"}}, "geometry":{"type":"Point","coordinates":[-3.24019,51.68238 ]}},
{ "type":"Feature","properties":{"osm_id":"4841986012","other":{"access":"private","amenity":"parking"}}, "geometry":{"type":"Point","coordinates":[-3.23953,51.68177 ]}},
{ "type":"Feature","properties":{"osm_id":"4841986013","other":{"access":"private","amenity":"parking"}}, "geometry":{"type":"Point","coordinates":[-3.23905,51.68163 ]}},
{ "type":"Feature","properties":{"osm_id":"4841986014","other":{"access":"private","amenity":"parking"}}, "geometry":{"type":"Point","coordinates":[-3.23773,51.68137 ]}},
{ "type":"Feature","properties":{"osm_id":"4841986015","other":{"access":"private","amenity":"parking"}}, "geometry":{"type":"Point","coordinates":[-3.23712,51.68082 ]}},
{ "type":"Feature","properties":{"osm_id":"4841986016","other":{"access":"private","amenity":"parking"}}, "geometry":{"type":"Point","coordinates":[-3.2359,51.68163 ]}},
{ "type":"Feature","properties":{"osm_id":"4841986017","other":{"access":"private","amenity":"parking"}}, "geometry":{"type":"Point","coordinates":[-3.23666,51.68171 ]}},
{ "type":"Feature","properties":{"osm_id":"4841986018","other":{"access":"private","amenity":"parking"}}, "geometry":{"type":"Point","coordinates":[-3.23608,51.68019 ]}},
{ "type":"Feature","properties":{"osm_id":"4841987221","other":{"access":"customers","amenity":"parking"}}, "geometry":{"type":"Point","coordinates":[-3.23557,51.68267 ]}},
{ "type":"Feature","properties":{"osm_id":"4841987222","other":{"access":"customers","amenity":"parking"}}, "geometry":{"type":"Point","coordinates":[-3.236,51.68264 ]}},
{ "type":"Feature","properties":{"osm_id":"4841992389","other":{"access":"customers","amenity":"parking"}}, "geometry":{"type":"Point","coordinates":[-3.23407,51.6828 ]}},
{ "type":"Feature","properties":{"osm_id":"4841992390","other":{"access":"customers","amenity":"parking"}}, "geometry":{"type":"Point","coordinates":[-3.23094,51.68499 ]}},
{ "type":"Feature","properties":{"osm_id":"4841992391","other":{"access":"customers","amenity":"parking"}}, "geometry":{"type":"Point","coordinates":[-3.23062,51.68548 ]}},
{ "type":"Feature","properties":{"osm_id":"4841992394","other":{"access":"private","amenity":"parking"}}, "geometry":{"type":"Point","coordinates":[-3.22943,51.68975 ]}},
{ "type":"Feature","properties":{"osm_id":"4858697739","other":{"amenity":"parking"}}, "geometry":{"type":"Point","coordinates":[-3.24294,51.69108 ]}},
{ "type":"Feature","properties":{"osm_id":"4858697743","other":{"amenity":"parking"}}, "geometry":{"type":"Point","coordinates":[-3.23689,51.69158 ]}},
{ "type":"Feature","properties":{"osm_id":"4858703911","other":{"amenity":"parking"}}, "geometry":{"type":"Point","coordinates":[-3.22915,51.68172 ]}},
{ "type":"Feature","properties":{"osm_id":"4858703912","other":{"amenity":"parking"}}, "geometry":{"type":"Point","coordinates":[-3.22934,51.6814 ]}},
{ "type":"Feature","properties":{"osm_id":"4858703913","other":{"amenity":"parking"}}, "geometry":{"type":"Point","coordinates":[-3.22965,51.68148 ]}},
{ "type":"Feature","properties":{"osm_id":"4858710537","name":"Heolddu Comprehensive","other":{"access":"customers","amenity":"parking"}}, "geometry":{"type":"Point","coordinates":[-3.24472,51.6888 ]}},
{ "type":"Feature","properties":{"osm_id":"4858723799","other":{"amenity":"parking"}}, "geometry":{"type":"Point","coordinates":[-3.22921,51.69167 ]}},
{ "type":"Feature","properties":{"osm_id":"4858723800","other":{"amenity":"parking","operator":"British Rail"}}, "geometry":{"type":"Point","coordinates":[-3.22983,51.69299 ]}},
{ "type":"Feature","properties":{"osm_id":"4858723801","other":{"amenity":"parking"}}, "geometry":{"type":"Point","coordinates":[-3.29513,51.76895 ]}},
{ "type":"Feature","properties":{"osm_id":"4858723803","other":{"amenity":"parking"}}, "geometry":{"type":"Point","coordinates":[-3.29601,51.77068 ]}},
{ "type":"Feature","properties":{"osm_id":"4858730721","other":{"amenity":"parking"}}, "geometry":{"type":"Point","coordinates":[-3.2855,51.76007 ]}},
{ "type":"Feature","properties":{"osm_id":"4858730722","other":{"amenity":"parking"}}, "geometry":{"type":"Point","coordinates":[-3.28779,51.75886 ]}},
{ "type":"Feature","properties":{"osm_id":"4858730723","other":{"amenity":"parking"}}, "geometry":{"type":"Point","coordinates":[-3.28716,51.75872 ]}},
{ "type":"Feature","properties":{"osm_id":"4858730724","other":{"amenity":"parking"}}, "geometry":{"type":"Point","coordinates":[-3.28735,51.75805 ]}},
{ "type":"Feature","properties":{"osm_id":"4858730725","other":{"amenity":"parking"}}, "geometry":{"type":"Point","coordinates":[-3.28406,51.75933 ]}},
{ "type":"Feature","properties":{"osm_id":"4858730726","other":{"amenity":"parking"}}, "geometry":{"type":"Point","coordinates":[-3.28403,51.75901 ]}},
{ "type":"Feature","properties":{"osm_id":"9269639391","other":{"amenity":"parking","parking":"layby"}}, "geometry":{"type":"Point","coordinates":[-3.14733,51.68912 ]}},
{ "type":"Feature","properties":{"osm_id":"9269639404","other":{"amenity":"parking","parking":"layby"}}, "geometry":{"type":"Point","coordinates":[-3.14949,51.69103 ]}},
{ "type":"Feature","properties":{"osm_way_id":"26169444","amenity":"parking"},"geometry":{"type":"MultiPolygon","coordinates":[[[[-3.29256,51.76457],[-3.29195,51.76377],[-3.29153,51.76389],[-3.29192,51.76445],[-3.29208,51.7644],[-3.29215,51.76449],[-3.29229,51.76445],[-3.29241,51.76462],[-3.29256,51.76457]]]]}},
{ "type":"Feature","properties":{"osm_way_id":"26320684","amenity":"parking","other":{"access":"private"}}, "geometry":{"type":"MultiPolygon","coordinates":[[[[-3.2184,51.554],[-3.21859,51.55388],[-3.21901,51.55394],[-3.21908,51.55394],[-3.21916,51.55395],[-3.21926,51.55401],[-3.21932,51.55398],[-3.21935,51.55399],[-3.21938,51.55399],[-3.2194,51.55412],[-3.21934,51.55412],[-3.21916,51.55418],[-3.21913,51.55421],[-3.21904,51.55422],[-3.21881,51.55413],[-3.21871,51.55423],[-3.21866,51.55422],[-3.21837,51.55416],[-3.21834,51.5541],[-3.2184,51.554]]]]}},
{ "type":"Feature","properties":{"osm_way_id":"26718753","amenity":"parking","other":{"capacity:disabled":"11"}}, "geometry":{"type":"MultiPolygon","coordinates":[[[[-3.21505,51.59046],[-3.21526,51.59029],[-3.2138,51.58958],[-3.21387,51.58953],[-3.21357,51.58939],[-3.21329,51.58961],[-3.21347,51.58971],[-3.21351,51.58969],[-3.2142,51.59002],[-3.21417,51.59005],[-3.21496,51.59044],[-3.21498,51.59042],[-3.21505,51.59046]]]]}},
{ "type":"Feature","properties":{"osm_way_id":"26764928","amenity":"parking","other":{"access":"customers","operator":"Asda"}}, "geometry":{"type":"MultiPolygon","coordinates":[[[[-3.22487,51.58536],[-3.22469,51.58452],[-3.22317,51.58454],[-3.22331,51.58517],[-3.2235,51.58595],[-3.22394,51.58592],[-3.22397,51.58603],[-3.22419,51.58601],[-3.2242,51.5861],[-3.22445,51.58608],[-3.2244,51.58586],[-3.22414,51.58588],[-3.22408,51.58556],[-3.22437,51.58554],[-3.22435,51.58538],[-3.22487,51.58536]]]]}},
{ "type":"Feature","properties":{"osm_way_id":"26764931","amenity":"parking"},"geometry":{"type":"MultiPolygon","coordinates":[[[[-3.22606,51.58655],[-3.226,51.58621],[-3.2258,51.58624],[-3.22578,51.58618],[-3.22482,51.58627],[-3.22488,51.5866],[-3.22497,51.58659],[-3.225,51.58664],[-3.22511,51.58664],[-3.22512,51.58669],[-3.22536,51.58667],[-3.22537,51.58671],[-3.2258,51.58667],[-3.22579,51.58664],[-3.22597,51.58663],[-3.22596,51.58656],[-3.22606,51.58655]]]]}},
{ "type":"Feature","properties":{"osm_way_id":"28716288","amenity":"parking","other":{"access":"permissive","parking":"surface"}}, "geometry":{"type":"MultiPolygon","coordinates":[[[[-3.21941,51.56006],[-3.21942,51.55996],[-3.21942,51.55983],[-3.21942,51.55968],[-3.21941,51.5595],[-3.21941,51.55934],[-3.21931,51.55934],[-3.21916,51.55933],[-3.21905,51.55935],[-3.21899,51.55936],[-3.21895,51.55937],[-3.21893,51.5594],[-3.21888,51.55948],[-3.21901,51.55951],[-3.21907,51.55941],[-3.21908,51.55941],[-3.21914,51.5594],[-3.21916,51.55942],[-3.21909,51.55943],[-3.21909,51.5596],[-3.21907,51.55964],[-3.21903,51.55967],[-3.219,51.55968],[-3.21898,51.55969],[-3.21882,51.55969],[-3.21868,51.55967],[-3.21867,51.55972],[-3.21866,51.5598],[-3.21866,51.5599],[-3.21868,51.56002],[-3.21907,51.55997],[-3.21927,51.56003],[-3.21941,51.56006]]]]}},
{ "type":"Feature","properties":{"osm_way_id":"33226925","amenity":"parking","other":{"access":"yes","parking":"surface"}}, "geometry":{"type":"MultiPolygon","coordinates":[[[[-3.18029,51.57107],[-3.18025,51.57116],[-3.18025,51.57123],[-3.18027,51.57126],[-3.18031,51.57127],[-3.18033,51.57125],[-3.18035,51.5712],[-3.18041,51.57114],[-3.1807,51.57106],[-3.18075,51.57114],[-3.18067,51.57116],[-3.18069,51.5712],[-3.1809,51.57115],[-3.18088,51.57111],[-3.1808,51.57113],[-3.18074,51.57104],[-3.18099,51.57097],[-3.18104,51.57107],[-3.18096,51.57109],[-3.18098,51.57112],[-3.18117,51.57108],[-3.18115,51.57104],[-3.18108,51.57106],[-3.18103,51.57096],[-3.18119,51.57094],[-3.18127,51.57097],[-3.1813,51.57105],[-3.18128,51.57113],[-3.18116,51.57118],[-3.18107,51.5712],[-3.18099,51.57122],[-3.18055,51.57134],[-3.18056,51.57126],[-3.1806,51.57125],[-3.18058,51.57122],[-3.18045,51.57126],[-3.18046,51.57128],[-3.1805,51.57127],[-3.18049,51.57135],[-3.18046,51.57136],[-3.18042,51.57137],[-3.18036,51.57138],[-3.18019,51.57135],[-3.18011,51.57131],[-3.18011,51.57123],[-3.18002,51.5712],[-3.18001,51.5712],[-3.17988,51.57119],[-3.18029,51.57107]]]]}},
{ "type":"Feature","properties":{"osm_way_id":"49069070","amenity":"parking","other":{"access":"private"}}, "geometry":{"type":"MultiPolygon","coordinates":[[[[-3.2186,51.57886],[-3.21861,51.5788],[-3.21844,51.57873],[-3.21825,51.5787],[-3.21823,51.5787],[-3.21831,51.57891],[-3.2186,51.57886]]]]}},
{ "type":"Feature","properties":{"osm_way_id":"50001952","amenity":"parking","other":{"access":"yes","addr:city":"Caerphilly","addr:street":"Nantgarw Road","capacity":"128","capacity:disabled":"0","covered":"no","fee":"no","opening_hours":"24\/7","operator":"Caerphilly County Borough Council","operator:type":"council","park_ride":"yes","parking":"surface","surface":"asphalt"}}, "geometry":{"type":"MultiPolygon","coordinates":[[[[-3.23143,51.5762],[-3.23089,51.57574],[-3.23055,51.57584],[-3.23069,51.5764],[-3.23072,51.57653],[-3.23079,51.57657],[-3.23086,51.5766],[-3.231,51.57659],[-3.23119,51.57651],[-3.23155,51.57636],[-3.23143,51.5762]]]]}},
{ "type":"Feature","properties":{"osm_way_id":"50918965","amenity":"parking","other":{"access":"private"}}, "geometry":{"type":"MultiPolygon","coordinates":[[[[-3.20664,51.59194],[-3.20648,51.59208],[-3.20641,51.59208],[-3.20632,51.59203],[-3.20621,51.59209],[-3.20607,51.592],[-3.20601,51.592],[-3.20572,51.59191],[-3.20596,51.59168],[-3.2062,51.59146],[-3.20628,51.5915],[-3.20606,51.5917],[-3.20664,51.59194]]]]}},
{ "type":"Feature","properties":{"osm_way_id":"95839540","amenity":"parking","other":{"capacity:disabled":"yes","parking":"surface"}}, "geometry":{"type":"MultiPolygon","coordinates":[[[[-3.22974,51.6419],[-3.22949,51.64211],[-3.2293,51.6423],[-3.2291,51.64255],[-3.22933,51.64266],[-3.22979,51.64252],[-3.22976,51.64248],[-3.22997,51.64242],[-3.23031,51.64285],[-3.23028,51.64286],[-3.23037,51.64297],[-3.23039,51.64299],[-3.23094,51.64282],[-3.23142,51.64266],[-3.23139,51.64262],[-3.23144,51.6426],[-3.23138,51.64249],[-3.23127,51.64236],[-3.23109,51.64224],[-3.23108,51.64219],[-3.23102,51.64202],[-3.23085,51.64167],[-3.23076,51.64154],[-3.23058,51.64144],[-3.2305,51.64142],[-3.23036,51.64142],[-3.23028,51.64145],[-3.23015,51.64155],[-3.22974,51.6419]]]]}},
{ "type":"Feature","properties":{"osm_way_id":"106361391","amenity":"parking","other":{"parking":"surface"}}, "geometry":{"type":"MultiPolygon","coordinates":[[[[-3.21758,51.57465],[-3.21753,51.57486],[-3.21748,51.57501],[-3.21749,51.57514],[-3.21793,51.57512],[-3.21814,51.57481],[-3.21784,51.57474],[-3.21785,51.57469],[-3.21758,51.57465]]]]}},
{ "type":"Feature","properties":{"osm_way_id":"115969378","amenity":"parking","other":{"access":"yes","fee":"yes","parking":"surface","wheelchair":"yes"}}, "geometry":{"type":"MultiPolygon","coordinates":[[[[-3.22382,51.57393],[-3.22388,51.57412],[-3.22397,51.57426],[-3.22409,51.57434],[-3.22411,51.57435],[-3.22431,51.57426],[-3.22512,51.5739],[-3.22708,51.57322],[-3.2268,51.573],[-3.22646,51.57313],[-3.22655,51.57326],[-3.22515,51.57372],[-3.22382,51.57393]]]]}},
{ "type":"Feature","properties":{"osm_way_id":"116758454","name":"Machen Village Hall","amenity":"parking"},"geometry":{"type":"MultiPolygon","coordinates":[[[[-3.14278,51.59513],[-3.14265,51.59527],[-3.14271,51.59529],[-3.14268,51.59533],[-3.14263,51.59538],[-3.14259,51.59537],[-3.14258,51.59534],[-3.14258,51.59532],[-3.14227,51.59527],[-3.14222,51.59542],[-3.14217,51.59541],[-3.14205,51.59541],[-3.14206,51.59539],[-3.14207,51.59528],[-3.14208,51.59524],[-3.14208,51.59522],[-3.14208,51.59519],[-3.14209,51.59511],[-3.14211,51.59495],[-3.14227,51.59496],[-3.14235,51.59496],[-3.14251,51.59499],[-3.1426,51.59502],[-3.14282,51.59509],[-3.14278,51.59513]]]]}},
{ "type":"Feature","properties":{"osm_way_id":"116758456","name":"Royal British Legion","amenity":"parking","other":{"access":"private"}}, "geometry":{"type":"MultiPolygon","coordinates":[[[[-3.14207,51.59528],[-3.14206,51.59539],[-3.1415,51.59532],[-3.14152,51.59524],[-3.14164,51.59524],[-3.14184,51.59523],[-3.14184,51.59518],[-3.14196,51.59517],[-3.14205,51.59522],[-3.14205,51.59525],[-3.14207,51.59528]]]]}},
{ "type":"Feature","properties":{"osm_way_id":"117143381","amenity":"parking"},"geometry":{"type":"MultiPolygon","coordinates":[[[[-3.20981,51.58855],[-3.20978,51.58857],[-3.20999,51.58877],[-3.21036,51.58865],[-3.21063,51.58854],[-3.21058,51.58849],[-3.21066,51.58845],[-3.21031,51.58828],[-3.21022,51.58824],[-3.21018,51.58824],[-3.21009,51.58827],[-3.21019,51.58837],[-3.20981,51.58855]]]]}},
{ "type":"Feature","properties":{"osm_way_id":"117143393","amenity":"parking"},"geometry":{"type":"MultiPolygon","coordinates":[[[[-3.2093,51.58787],[-3.20909,51.58798],[-3.2087,51.58776],[-3.20876,51.58772],[-3.20869,51.58768],[-3.20874,51.58764],[-3.2088,51.58767],[-3.20885,51.58763],[-3.2089,51.58765],[-3.20893,51.58763],[-3.20888,51.58759],[-3.20892,51.58756],[-3.20898,51.58759],[-3.20903,51.58756],[-3.20908,51.58758],[-3.20909,51.58761],[-3.20929,51.58766],[-3.20928,51.58768],[-3.20928,51.58771],[-3.2093,51.58774],[-3.20933,51.58775],[-3.20945,51.58763],[-3.20952,51.58762],[-3.20957,51.58764],[-3.20963,51.58766],[-3.21027,51.58794],[-3.2102,51.588],[-3.21016,51.58805],[-3.21,51.58798],[-3.20998,51.58801],[-3.20985,51.58792],[-3.20973,51.58791],[-3.20972,51.58794],[-3.20933,51.5879],[-3.2093,51.58787]]]]}},
{ "type":"Feature","properties":{"osm_way_id":"120032348","name":"Hanbury Road Car Park","amenity":"parking","other":{"access":"yes","capacity":"123","fee":"no","name:cy":"Maes Parcio Heol Hanbury","park_ride":"no","parking":"surface"}}, "geometry":{"type":"MultiPolygon","coordinates":[[[[-3.22831,51.6905],[-3.22816,51.69046],[-3.22797,51.68994],[-3.22803,51.68922],[-3.22845,51.68925],[-3.22831,51.6905]]]]}},
{ "type":"Feature","properties":{"osm_way_id":"130911003","amenity":"parking"},"geometry":{"type":"MultiPolygon","coordinates":[[[[-3.22901,51.69244],[-3.22883,51.69253],[-3.22852,51.69257],[-3.22808,51.69225],[-3.2281,51.69208],[-3.22816,51.69203],[-3.22828,51.69205],[-3.22838,51.6921],[-3.22878,51.69219],[-3.22903,51.69238],[-3.22898,51.6924],[-3.22901,51.69244]]]]}},
{ "type":"Feature","properties":{"osm_way_id":"131493162","amenity":"parking"},"geometry":{"type":"MultiPolygon","coordinates":[[[[-3.09279,51.60592],[-3.0929,51.60582],[-3.09166,51.60543],[-3.09159,51.60541],[-3.09098,51.60525],[-3.09049,51.60512],[-3.09033,51.6051],[-3.09028,51.60523],[-3.09145,51.60553],[-3.09149,51.60554],[-3.09174,51.6056],[-3.09178,51.60557],[-3.09279,51.60592]]]]}},
{ "type":"Feature","properties":{"osm_way_id":"147774461","amenity":"parking","other":{"access":"private","capacity:disabled":"yes","capacity:parent":"no","capacity:women":"no","parking":"surface"}}, "geometry":{"type":"MultiPolygon","coordinates":[[[[-3.00064,51.13529],[-3.00062,51.13537],[-3.00057,51.13537],[-3.00049,51.13533],[-3.00051,51.13523],[-3.00037,51.13522],[-3.00035,51.13529],[-3.00028,51.13529],[-3.00021,51.13527],[-3.00019,51.13527],[-3.00023,51.13509],[-3.00015,51.13509],[-3.00016,51.13499],[-3.00017,51.13494],[-3.00021,51.13478],[-3.00026,51.13472],[-3.00035,51.13469],[-3.0004,51.13449],[-3.00046,51.13449],[-3.00046,51.13445],[-3.00062,51.13446],[-3.00057,51.1347],[-3.00061,51.1347],[-3.00065,51.13446],[-3.0008,51.13447],[-3.00081,51.13442],[-3.00085,51.13442],[-3.00084,51.1345],[-3.00085,51.1345],[-3.00082,51.13471],[-3.00085,51.13471],[-3.00089,51.13448],[-3.00097,51.13449],[-3.00098,51.13444],[-3.00113,51.13445],[-3.00108,51.13471],[-3.00107,51.13476],[-3.00107,51.13479],[-3.00077,51.13478],[-3.00077,51.13481],[-3.00047,51.13479],[-3.00048,51.13475],[-3.00044,51.13476],[-3.00041,51.13477],[-3.00038,51.13478],[-3.00037,51.13481],[-3.00045,51.13481],[-3.00042,51.13494],[-3.00073,51.13497],[-3.00072,51.135],[-3.00075,51.135],[-3.00075,51.13503],[-3.00075,51.13506],[-3.00068,51.13506],[-3.00067,51.1351],[-3.00077,51.13511],[-3.00076,51.13518],[-3.00066,51.13518],[-3.00064,51.13529]]]]}},
{ "type":"Feature","properties":{"osm_way_id":"159059482","amenity":"parking","other":{"access":"customers","fee":"no","parking":"surface"}}, "geometry":{"type":"MultiPolygon","coordinates":[[[[-3.21539,51.55153],[-3.21549,51.55151],[-3.21553,51.55149],[-3.21561,51.55138],[-3.21559,51.55135],[-3.21556,51.55133],[-3.21539,51.55134],[-3.21474,51.55138],[-3.21486,51.55162],[-3.21507,51.55158],[-3.21501,51.55148],[-3.21517,51.55146],[-3.21523,51.55148],[-3.21532,51.55166],[-3.21545,51.55164],[-3.21539,51.55153]]]]}},
{ "type":"Feature","properties":{"osm_way_id":"159059483","amenity":"parking","other":{"access":"customers"}}, "geometry":{"type":"MultiPolygon","coordinates":[[[[-3.23643,51.55492],[-3.23598,51.555],[-3.23601,51.55521],[-3.23626,51.55542],[-3.23641,51.55544],[-3.23652,51.55541],[-3.23663,51.55525],[-3.23643,51.55492]]]]}},
{ "type":"Feature","properties":{"osm_way_id":"175139912","amenity":"parking"},"geometry":{"type":"MultiPolygon","coordinates":[[[[1.26802,51.84632],[1.26803,51.84635],[1.26798,51.84636],[1.26791,51.8464],[1.26782,51.84639],[1.26763,51.84642],[1.26748,51.84648],[1.26734,51.84647],[1.2673,51.84649],[1.26717,51.84648],[1.26708,51.84644],[1.26688,51.84642],[1.26674,51.84639],[1.26653,51.84629],[1.26642,51.84628],[1.26616,51.84632],[1.26609,51.84629],[1.26609,51.84626],[1.26575,51.84611],[1.26563,51.84594],[1.26542,51.84582],[1.26547,51.84576],[1.26539,51.84564],[1.26544,51.8456],[1.26572,51.84579],[1.26608,51.84595],[1.26642,51.84607],[1.26687,51.84617],[1.2674,51.84628],[1.26764,51.84632],[1.26765,51.8463],[1.26802,51.84632]]]]}},
{ "type":"Feature","properties":{"osm_way_id":"195611235","amenity":"parking"},"geometry":{"type":"MultiPolygon","coordinates":[[[[-3.13833,51.59596],[-3.13836,51.59598],[-3.13849,51.59599],[-3.1386,51.59601],[-3.13866,51.59601],[-3.13864,51.59591],[-3.1385,51.59591],[-3.13832,51.5959],[-3.13833,51.59596]]]]}},
{ "type":"Feature","properties":{"osm_way_id":"210852745","amenity":"parking"},"geometry":{"type":"MultiPolygon","coordinates":[[[[-3.14761,51.57293],[-3.14785,51.57287],[-3.1477,51.57288],[-3.14756,51.57287],[-3.14747,51.57284],[-3.14736,51.5728],[-3.1473,51.57287],[-3.14708,51.5728],[-3.14696,51.57274],[-3.14656,51.57267],[-3.14655,51.57277],[-3.14708,51.57291],[-3.1473,51.57297],[-3.14741,51.57299],[-3.14761,51.57293]]]]}},
{ "type":"Feature","properties":{"osm_way_id":"223606907","amenity":"parking","other":{"parking":"surface"}}, "geometry":{"type":"MultiPolygon","coordinates":[[[[-3.28923,51.77279],[-3.28902,51.77282],[-3.28899,51.77273],[-3.28921,51.7727],[-3.28923,51.77279]]]]}},
{ "type":"Feature","properties":{"osm_way_id":"234407991","amenity":"parking","other":{"parking":"surface"}}, "geometry":{"type":"MultiPolygon","coordinates":[[[[-3.11608,51.63576],[-3.11478,51.63538],[-3.11444,51.63541],[-3.11431,51.63551],[-3.11429,51.63555],[-3.11487,51.63577],[-3.11601,51.63612],[-3.11655,51.63622],[-3.11661,51.63632],[-3.11685,51.63634],[-3.11672,51.63612],[-3.11615,51.63582],[-3.11608,51.63576]]]]}},
{ "type":"Feature","properties":{"osm_way_id":"237828187","amenity":"parking"},"geometry":{"type":"MultiPolygon","coordinates":[[[[-3.2047,51.57212],[-3.20461,51.57216],[-3.2046,51.57223],[-3.20462,51.57226],[-3.20468,51.57228],[-3.2047,51.57212]]]]}},
{ "type":"Feature","properties":{"osm_way_id":"237828194","amenity":"parking"},"geometry":{"type":"MultiPolygon","coordinates":[[[[-3.20477,51.57221],[-3.20492,51.57222],[-3.20494,51.57214],[-3.20478,51.57213],[-3.20477,51.57221]]]]}},
{ "type":"Feature","properties":{"osm_way_id":"237828199","amenity":"parking"},"geometry":{"type":"MultiPolygon","coordinates":[[[[-3.20516,51.57239],[-3.20507,51.57238],[-3.20511,51.57215],[-3.2052,51.57216],[-3.20516,51.57239]]]]}},
{ "type":"Feature","properties":{"osm_way_id":"237828201","amenity":"parking"},"geometry":{"type":"MultiPolygon","coordinates":[[[[-3.20531,51.57241],[-3.20524,51.5724],[-3.20528,51.57217],[-3.20537,51.57217],[-3.20536,51.57219],[-3.20565,51.57221],[-3.20564,51.57228],[-3.20547,51.57227],[-3.20546,51.57235],[-3.20533,51.57234],[-3.20531,51.57241]]]]}},
{ "type":"Feature","properties":{"osm_way_id":"237828211","amenity":"parking"},"geometry":{"type":"MultiPolygon","coordinates":[[[[-3.2065,51.57143],[-3.20633,51.57135],[-3.20626,51.57135],[-3.20626,51.57131],[-3.20616,51.5713],[-3.20618,51.57115],[-3.20623,51.57112],[-3.20661,51.57113],[-3.20662,51.57104],[-3.20666,51.57102],[-3.2068,51.57102],[-3.20685,51.57105],[-3.20696,51.57106],[-3.20694,51.57128],[-3.20687,51.57132],[-3.20663,51.5713],[-3.20662,51.57137],[-3.2065,51.57143]]]]}},
{ "type":"Feature","properties":{"osm_way_id":"239326118","amenity":"parking"},"geometry":{"type":"MultiPolygon","coordinates":[[[[-3.21598,51.57596],[-3.21556,51.57579],[-3.21559,51.57577],[-3.21574,51.57564],[-3.21562,51.57559],[-3.21572,51.57551],[-3.21621,51.57577],[-3.21609,51.57586],[-3.21606,51.57584],[-3.216,51.57589],[-3.21602,51.5759],[-3.21598,51.57593],[-3.216,51.57594],[-3.21598,51.57596]]]]}},
{ "type":"Feature","properties":{"osm_way_id":"239329668","amenity":"parking"},"geometry":{"type":"MultiPolygon","coordinates":[[[[-3.20699,51.57206],[-3.20652,51.57204],[-3.20653,51.57193],[-3.20669,51.57194],[-3.2067,51.57184],[-3.20633,51.57182],[-3.20628,51.57178],[-3.20631,51.57156],[-3.20658,51.57157],[-3.20651,51.57151],[-3.20648,51.57148],[-3.20652,51.57145],[-3.2066,51.57153],[-3.20685,51.57155],[-3.2069,51.57158],[-3.20686,51.57181],[-3.20703,51.57182],[-3.20699,51.57206]]]]}},
{ "type":"Feature","properties":{"osm_way_id":"239330369","amenity":"parking"},"geometry":{"type":"MultiPolygon","coordinates":[[[[-3.20109,51.5701],[-3.20103,51.57082],[-3.20111,51.57083],[-3.2011,51.57085],[-3.20258,51.57068],[-3.20265,51.57074],[-3.20281,51.57068],[-3.2028,51.57061],[-3.20279,51.57058],[-3.20194,51.57044],[-3.20178,51.57047],[-3.20125,51.57058],[-3.20123,51.57056],[-3.20122,51.57053],[-3.20186,51.57039],[-3.20109,51.5701]]]]}},
{ "type":"Feature","properties":{"osm_way_id":"244334195","amenity":"parking","other":{"access":"customers"}}, "geometry":{"type":"MultiPolygon","coordinates":[[[[-3.21796,51.58421],[-3.21815,51.58418],[-3.21818,51.58414],[-3.21819,51.58412],[-3.21813,51.58409],[-3.21811,51.58402],[-3.2181,51.58396],[-3.21812,51.58393],[-3.21808,51.5839],[-3.21764,51.58396],[-3.21774,51.58425],[-3.21796,51.58421]]]]}},
{ "type":"Feature","properties":{"osm_way_id":"244334197","amenity":"parking","other":{"access":"customers"}}, "geometry":{"type":"MultiPolygon","coordinates":[[[[-3.21809,51.58384],[-3.21829,51.58381],[-3.2182,51.5836],[-3.21878,51.58351],[-3.21885,51.58368],[-3.21891,51.58384],[-3.21844,51.5839],[-3.21851,51.5841],[-3.21892,51.58402],[-3.21911,51.58397],[-3.21917,51.58396],[-3.21919,51.58398],[-3.21922,51.584],[-3.21936,51.58395],[-3.21939,51.58394],[-3.21955,51.58392],[-3.21956,51.58386],[-3.21942,51.58348],[-3.21895,51.58356],[-3.21893,51.58348],[-3.21883,51.58343],[-3.218,51.58349],[-3.21809,51.58384]]]]}},
{ "type":"Feature","properties":{"osm_way_id":"244334198","amenity":"parking","other":{"access":"customers"}}, "geometry":{"type":"MultiPolygon","coordinates":[[[[-3.21922,51.584],[-3.21903,51.58408],[-3.21889,51.58411],[-3.21886,51.58412],[-3.21882,51.58415],[-3.21882,51.58419],[-3.2188,51.58425],[-3.21882,51.58429],[-3.21887,51.58432],[-3.21895,51.58434],[-3.21902,51.58435],[-3.21912,51.58434],[-3.21932,51.58432],[-3.21949,51.5843],[-3.21962,51.58428],[-3.21972,51.58427],[-3.21981,51.58425],[-3.21985,51.58422],[-3.21989,51.58419],[-3.21989,51.58416],[-3.21971,51.58416],[-3.21971,51.58418],[-3.21954,51.58418],[-3.21954,51.58415],[-3.2194,51.58415],[-3.2194,51.58406],[-3.21939,51.58394],[-3.21936,51.58395],[-3.21922,51.584]]]]}},
{ "type":"Feature","properties":{"osm_way_id":"244334200","amenity":"parking","other":{"access":"customers"}}, "geometry":{"type":"MultiPolygon","coordinates":[[[[-3.21796,51.58421],[-3.21774,51.58425],[-3.21784,51.58453],[-3.21798,51.58451],[-3.21792,51.58435],[-3.21801,51.58433],[-3.21796,51.58421]]]]}},
{ "type":"Feature","properties":{"osm_way_id":"251609621","amenity":"parking","building":"parking","other":{"access":"customers","addr:city":"Bargoed","addr:postcode":"CF81 8NX","addr:street":"Bargoed Gateway","capacity":"400","covered":"yes","fee":"no","operator":"Morrisons","park_ride":"no","parking":"multi-storey","surface":"asphalt"}}, "geometry":{"type":"MultiPolygon","coordinates":[[[[-3.22805,51.68785],[-3.22818,51.6873],[-3.22818,51.68727],[-3.22868,51.68731],[-3.22894,51.68734],[-3.22901,51.68736],[-3.22904,51.68739],[-3.22921,51.68793],[-3.22918,51.68796],[-3.22913,51.68797],[-3.22908,51.68803],[-3.22888,51.68799],[-3.2289,51.68796],[-3.22878,51.68793],[-3.22875,51.68795],[-3.2284,51.68787],[-3.22838,51.68792],[-3.22805,51.68785]]]]}},
{ "type":"Feature","properties":{"osm_way_id":"259039474","amenity":"parking"},"geometry":{"type":"MultiPolygon","coordinates":[[[[-3.24917,51.69624],[-3.24869,51.6961],[-3.24828,51.69601],[-3.24832,51.69596],[-3.24844,51.69593],[-3.2492,51.69616],[-3.24917,51.69624]]]]}},
{ "type":"Feature","properties":{"osm_way_id":"285545139","amenity":"parking"},"geometry":{"type":"MultiPolygon","coordinates":[[[[-3.1841,51.59253],[-3.1843,51.59241],[-3.18432,51.59239],[-3.18433,51.59235],[-3.1841,51.59235],[-3.18371,51.59236],[-3.18372,51.59247],[-3.18373,51.59266],[-3.18383,51.59269],[-3.1841,51.59253]]]]}},
{ "type":"Feature","properties":{"osm_way_id":"285579343","amenity":"parking"},"geometry":{"type":"MultiPolygon","coordinates":[[[[-3.14624,51.66406],[-3.14586,51.66393],[-3.14611,51.66374],[-3.14635,51.66396],[-3.14624,51.66406]]]]}},
{ "type":"Feature","properties":{"osm_way_id":"285579344","amenity":"parking"},"geometry":{"type":"MultiPolygon","coordinates":[[[[-3.14436,51.66583],[-3.14435,51.66587],[-3.14461,51.66589],[-3.14468,51.66591],[-3.14474,51.66594],[-3.14475,51.66587],[-3.1448,51.66549],[-3.14472,51.66549],[-3.14467,51.66586],[-3.14436,51.66583]]]]}},
{ "type":"Feature","properties":{"osm_way_id":"285579345","amenity":"parking","other":{"access":"customers","parking":"surface"}}, "geometry":{"type":"MultiPolygon","coordinates":[[[[-3.14365,51.66499],[-3.14368,51.66527],[-3.14339,51.66521],[-3.14349,51.66495],[-3.14365,51.66499]]]]}},
{ "type":"Feature","properties":{"osm_way_id":"285584167","amenity":"parking","other":{"addr:city":"Newbridge","addr:postcode":"NP11 4FH","addr:street":"Meredith Terrace","capacity":"10","capacity:disabled":"1","parking":"surface","surface":"asphalt"}}, "geometry":{"type":"MultiPolygon","coordinates":[[[[-3.147,51.6642],[-3.14688,51.66425],[-3.14682,51.66424],[-3.14678,51.66424],[-3.14673,51.66426],[-3.14666,51.66417],[-3.14688,51.66407],[-3.147,51.6642]]]]}},
{ "type":"Feature","properties":{"osm_way_id":"292487943","amenity":"parking"},"geometry":{"type":"MultiPolygon","coordinates":[[[[-3.19581,51.57049],[-3.19613,51.57043],[-3.19648,51.57038],[-3.19651,51.57036],[-3.19652,51.57032],[-3.19651,51.57028],[-3.19647,51.57026],[-3.19642,51.57014],[-3.19626,51.57016],[-3.19617,51.57017],[-3.19602,51.57027],[-3.19591,51.57036],[-3.19588,51.57039],[-3.19582,51.57041],[-3.19576,51.57043],[-3.19578,51.57046],[-3.19581,51.57049]]]]}},
{ "type":"Feature","properties":{"osm_way_id":"298594432","amenity":"parking"},"geometry":{"type":"MultiPolygon","coordinates":[[[[-3.21841,51.5922],[-3.21858,51.59201],[-3.21863,51.59202],[-3.21888,51.59174],[-3.21846,51.5916],[-3.21815,51.59149],[-3.21793,51.59133],[-3.21768,51.59121],[-3.21725,51.59104],[-3.21704,51.59104],[-3.21692,51.59117],[-3.21672,51.59139],[-3.21667,51.59142],[-3.21658,51.59153],[-3.21653,51.59159],[-3.21665,51.59163],[-3.21668,51.59158],[-3.21686,51.59164],[-3.21682,51.59168],[-3.21706,51.59177],[-3.21736,51.59187],[-3.21745,51.59191],[-3.21747,51.59189],[-3.21763,51.59195],[-3.21762,51.59197],[-3.2177,51.592],[-3.2178,51.59203],[-3.21781,51.59201],[-3.21798,51.59206],[-3.21796,51.59208],[-3.21805,51.59211],[-3.21815,51.59214],[-3.21816,51.59212],[-3.21833,51.59217],[-3.21831,51.59219],[-3.21841,51.59223],[-3.21843,51.59223],[-3.21845,51.59221],[-3.21841,51.5922]]]]}},
{ "type":"Feature","properties":{"osm_way_id":"301160180","name":"Siloam Hill Car Park","amenity":"parking","other":{"capacity":"10","fee":"no","parking":"surface"}}, "geometry":{"type":"MultiPolygon","coordinates":[[[[-3.14205,51.59613],[-3.1424,51.59614],[-3.1424,51.59615],[-3.14239,51.59623],[-3.14204,51.59623],[-3.14205,51.59613]]]]}},
{ "type":"Feature","properties":{"osm_way_id":"308421397","amenity":"parking"},"geometry":{"type":"MultiPolygon","coordinates":[[[[-3.21264,51.58966],[-3.21258,51.58967],[-3.21268,51.58975],[-3.21288,51.58988],[-3.21276,51.58994],[-3.21264,51.58999],[-3.21248,51.59004],[-3.21248,51.59006],[-3.21159,51.59016],[-3.21109,51.59022],[-3.21084,51.59002],[-3.21092,51.59],[-3.2109,51.58989],[-3.21106,51.58988],[-3.21146,51.58984],[-3.21147,51.58988],[-3.21159,51.58986],[-3.21158,51.58982],[-3.21206,51.58977],[-3.21194,51.58939],[-3.21158,51.58943],[-3.21153,51.58927],[-3.21152,51.58922],[-3.21152,51.5892],[-3.21169,51.5892],[-3.21185,51.58922],[-3.212,51.58925],[-3.21203,51.58921],[-3.21225,51.5893],[-3.21237,51.58938],[-3.21246,51.58946],[-3.21252,51.58952],[-3.21264,51.58966]]]]}},
{ "type":"Feature","properties":{"osm_way_id":"308421404","amenity":"parking"},"geometry":{"type":"MultiPolygon","coordinates":[[[[-3.21349,51.58996],[-3.21335,51.5899],[-3.21323,51.59001],[-3.21314,51.59009],[-3.2127,51.59043],[-3.21245,51.59062],[-3.21208,51.5909],[-3.21216,51.59095],[-3.21272,51.5912],[-3.21293,51.59106],[-3.21304,51.59098],[-3.213,51.59096],[-3.2131,51.59088],[-3.21307,51.59086],[-3.21321,51.59075],[-3.21326,51.59077],[-3.21398,51.59021],[-3.21388,51.59016],[-3.21392,51.59013],[-3.21353,51.58994],[-3.21349,51.58996]]]]}},
{ "type":"Feature","properties":{"osm_way_id":"308905103","amenity":"parking","other":{"fee":"no"}}, "geometry":{"type":"MultiPolygon","coordinates":[[[[-3.1993,51.59215],[-3.19935,51.592],[-3.19918,51.59197],[-3.19912,51.59214],[-3.1993,51.59215]]]]}},
{ "type":"Feature","properties":{"osm_way_id":"309624302","amenity":"parking"},"geometry":{"type":"MultiPolygon","coordinates":[[[[-3.19047,51.59421],[-3.19038,51.59422],[-3.19037,51.59424],[-3.19048,51.59446],[-3.19054,51.59446],[-3.19059,51.59448],[-3.19065,51.59451],[-3.19071,51.59453],[-3.191,51.59446],[-3.19103,51.59442],[-3.19099,51.59438],[-3.19091,51.5944],[-3.19084,51.59442],[-3.19063,51.59437],[-3.19053,51.59434],[-3.19047,51.59421]]]]}},
{ "type":"Feature","properties":{"osm_way_id":"311762461","amenity":"parking"},"geometry":{"type":"MultiPolygon","coordinates":[[[[-3.16665,51.57737],[-3.1662,51.57727],[-3.16612,51.57739],[-3.16616,51.5774],[-3.16613,51.57745],[-3.1665,51.57754],[-3.16656,51.57744],[-3.1666,51.57745],[-3.16665,51.57737]]]]}},
{ "type":"Feature","properties":{"osm_way_id":"318847765","amenity":"parking","other":{"access":"private"}}, "geometry":{"type":"MultiPolygon","coordinates":[[[[-3.11258,51.55414],[-3.11271,51.55411],[-3.11274,51.5541],[-3.11245,51.55391],[-3.11205,51.55373],[-3.11198,51.55371],[-3.11185,51.55382],[-3.11214,51.55393],[-3.11231,51.554],[-3.11234,51.55402],[-3.11246,51.55407],[-3.11258,51.55414]]]]}},
{ "type":"Feature","properties":{"osm_way_id":"318847767","amenity":"parking","other":{"access":"private"}}, "geometry":{"type":"MultiPolygon","coordinates":[[[[-3.11382,51.55555],[-3.11353,51.55547],[-3.11328,51.55591],[-3.1136,51.55598],[-3.11382,51.55555]]]]}},
{ "type":"Feature","properties":{"osm_way_id":"320843849","amenity":"parking"},"geometry":{"type":"MultiPolygon","coordinates":[[[[-3.19152,51.59097],[-3.19162,51.59108],[-3.19172,51.59121],[-3.19187,51.5914],[-3.19188,51.59141],[-3.19189,51.59144],[-3.19188,51.59146],[-3.19154,51.59158],[-3.19151,51.59146],[-3.19139,51.59099],[-3.19152,51.59097]]]]}},
{ "type":"Feature","properties":{"osm_way_id":"325559662","amenity":"parking","other":{"access":"private"}}, "geometry":{"type":"MultiPolygon","coordinates":[[[[-3.14171,51.59564],[-3.14171,51.59568],[-3.14125,51.59567],[-3.14123,51.59566],[-3.14129,51.59562],[-3.14135,51.59557],[-3.1414,51.59552],[-3.14145,51.59553],[-3.14144,51.59557],[-3.14168,51.59561],[-3.14167,51.59563],[-3.14171,51.59564]]]]}},
{ "type":"Feature","properties":{"osm_way_id":"325894674","amenity":"parking"},"geometry":{"type":"MultiPolygon","coordinates":[[[[-3.1996,51.59112],[-3.19963,51.59109],[-3.19967,51.59108],[-3.19971,51.59109],[-3.19967,51.59125],[-3.19949,51.59123],[-3.19937,51.59122],[-3.19935,51.59122],[-3.19937,51.59108],[-3.19939,51.59107],[-3.19945,51.59108],[-3.19948,51.59108],[-3.19949,51.59111],[-3.1996,51.59112]]]]}},
{ "type":"Feature","properties":{"osm_way_id":"326259952","name":"Prif Maes Parcio","amenity":"parking","other":{"capacity":"150"}}, "geometry":{"type":"MultiPolygon","coordinates":[[[[-3.21735,51.66021],[-3.21761,51.66017],[-3.21787,51.6601],[-3.21798,51.66004],[-3.2163,51.65947],[-3.21613,51.65944],[-3.21596,51.65943],[-3.2158,51.65943],[-3.21575,51.65947],[-3.2157,51.65949],[-3.21563,51.65954],[-3.2156,51.6596],[-3.21561,51.65966],[-3.21564,51.6597],[-3.21576,51.65976],[-3.21589,51.65981],[-3.2165,51.66],[-3.21686,51.66012],[-3.21701,51.66017],[-3.21719,51.6602],[-3.21735,51.66021]]]]}},
{ "type":"Feature","properties":{"osm_way_id":"340512113","amenity":"parking","other":{"access":"customers","capacity:disabled":"3","fee":"no","lit":"yes","park_ride":"no","parking":"surface","surface":"asphalt"}}, "geometry":{"type":"MultiPolygon","coordinates":[[[[-3.16915,51.6811],[-3.16939,51.68107],[-3.16969,51.68161],[-3.16928,51.68165],[-3.16902,51.68145],[-3.16916,51.68143],[-3.16917,51.68146],[-3.16938,51.68143],[-3.16938,51.68141],[-3.1694,51.68141],[-3.16935,51.68117],[-3.16927,51.68118],[-3.16927,51.68115],[-3.16921,51.68116],[-3.16921,51.68113],[-3.16921,51.68112],[-3.16919,51.68111],[-3.16918,51.68111],[-3.16916,51.6811],[-3.16915,51.6811]]]]}},
{ "type":"Feature","properties":{"osm_way_id":"358947859","amenity":"parking"},"geometry":{"type":"MultiPolygon","coordinates":[[[[-3.14386,51.59607],[-3.14386,51.59605],[-3.14387,51.59595],[-3.14383,51.59598],[-3.14365,51.59598],[-3.14361,51.596],[-3.1436,51.59606],[-3.14366,51.59606],[-3.14377,51.59607],[-3.14386,51.59607]]]]}},
{ "type":"Feature","properties":{"osm_way_id":"368908535","amenity":"parking","other":{"fee":"yes","operator":"Caerphilly County Borough Council","park_ride":"no","parking":"surface","supervised":"no"}}, "geometry":{"type":"MultiPolygon","coordinates":[[[[-3.15065,51.61259],[-3.15073,51.61254],[-3.15085,51.61261],[-3.15094,51.61266],[-3.15087,51.61272],[-3.15075,51.61279],[-3.1506,51.61269],[-3.15061,51.61262],[-3.15065,51.61259]]]]}},
{ "type":"Feature","properties":{"osm_way_id":"373785735","amenity":"parking","other":{"capacity":"24","parking":"surface"}}, "geometry":{"type":"MultiPolygon","coordinates":[[[[-3.20007,51.59008],[-3.19984,51.59006],[-3.19963,51.59003],[-3.19968,51.58994],[-3.19982,51.58973],[-3.20007,51.58975],[-3.20007,51.59008]]]]}},
{ "type":"Feature","properties":{"osm_way_id":"373911942","amenity":"parking"},"geometry":{"type":"MultiPolygon","coordinates":[[[[-3.21432,51.58004],[-3.21456,51.57995],[-3.21464,51.58003],[-3.21425,51.58019],[-3.21395,51.58014],[-3.2135,51.57971],[-3.21357,51.57968],[-3.21357,51.5796],[-3.21353,51.57956],[-3.21374,51.57946],[-3.21347,51.5792],[-3.21355,51.57917],[-3.21353,51.57915],[-3.21358,51.57912],[-3.21367,51.57918],[-3.21372,51.57918],[-3.21376,51.57916],[-3.21394,51.57934],[-3.21395,51.57938],[-3.2141,51.57935],[-3.21424,51.5795],[-3.21418,51.57952],[-3.21419,51.57953],[-3.21388,51.57965],[-3.21404,51.57981],[-3.21407,51.5798],[-3.21432,51.58004]]]]}},
{ "type":"Feature","properties":{"osm_way_id":"384568779","amenity":"parking"},"geometry":{"type":"MultiPolygon","coordinates":[[[[-3.21563,51.57954],[-3.21568,51.57964],[-3.21561,51.57965],[-3.21556,51.57956],[-3.21563,51.57954]]]]}},
{ "type":"Feature","properties":{"osm_way_id":"384568780","amenity":"parking"},"geometry":{"type":"MultiPolygon","coordinates":[[[[-3.21547,51.57961],[-3.2154,51.57962],[-3.21545,51.57971],[-3.21552,51.57969],[-3.21547,51.57961]]]]}},
{ "type":"Feature","properties":{"osm_way_id":"384568781","amenity":"parking"},"geometry":{"type":"MultiPolygon","coordinates":[[[[-3.21567,51.57974],[-3.21574,51.57973],[-3.2158,51.57983],[-3.21573,51.57984],[-3.21567,51.57974]]]]}},
{ "type":"Feature","properties":{"osm_way_id":"384568782","amenity":"parking"},"geometry":{"type":"MultiPolygon","coordinates":[[[[-3.21558,51.57976],[-3.2155,51.57978],[-3.21556,51.57988],[-3.21564,51.57987],[-3.21558,51.57976]]]]}},
{ "type":"Feature","properties":{"osm_way_id":"391909373","amenity":"parking","other":{"capacity":"6"}}, "geometry":{"type":"MultiPolygon","coordinates":[[[[-3.24974,51.69655],[-3.24982,51.69653],[-3.24987,51.69651],[-3.24994,51.69648],[-3.24988,51.69642],[-3.2498,51.69637],[-3.24972,51.69635],[-3.24964,51.69641],[-3.24956,51.69644],[-3.24974,51.69655]]]]}},
{ "type":"Feature","properties":{"osm_way_id":"401923922","amenity":"parking"},"geometry":{"type":"MultiPolygon","coordinates":[[[[-3.22211,51.64014],[-3.22233,51.64026],[-3.22231,51.64028],[-3.22222,51.64033],[-3.22208,51.64027],[-3.22204,51.64021],[-3.22211,51.64014]]]]}},
{ "type":"Feature","properties":{"osm_way_id":"404272484","name":"Morrisons Customer Parking","amenity":"parking","other":{"access":"customers","addr:city":"Caerphilly","addr:postcode":"CF83 1XP","addr:street":"Ton-y-Felin Road","capacity":"200","covered":"no","fee":"no","maxstay":"3 hr","operator":"Morrisons","operator:type":"business","parking":"surface","surface":"asphalt","wheelchair":"yes"}}, "geometry":{"type":"MultiPolygon","coordinates":[[[[-3.21571,51.5767],[-3.21506,51.57684],[-3.21516,51.57701],[-3.21524,51.577],[-3.2153,51.57711],[-3.21535,51.5771],[-3.21547,51.57734],[-3.21543,51.57735],[-3.21547,51.57742],[-3.215,51.57752],[-3.21497,51.57748],[-3.21424,51.57763],[-3.21414,51.57766],[-3.21421,51.57778],[-3.21426,51.57791],[-3.21439,51.57818],[-3.21465,51.57819],[-3.21483,51.57817],[-3.21521,51.57805],[-3.21561,51.57793],[-3.21584,51.57785],[-3.21596,51.57775],[-3.21604,51.57762],[-3.21613,51.57762],[-3.21613,51.57749],[-3.21613,51.57745],[-3.21652,51.57746],[-3.21661,51.57746],[-3.21661,51.57748],[-3.21677,51.57747],[-3.21682,51.57747],[-3.2169,51.57739],[-3.21691,51.57734],[-3.21688,51.57723],[-3.21676,51.57703],[-3.21664,51.57683],[-3.21658,51.57672],[-3.21657,51.5767],[-3.21653,51.57667],[-3.21647,51.57667],[-3.2164,51.57668],[-3.21638,51.57661],[-3.21617,51.57666],[-3.21615,51.57661],[-3.21571,51.5767]]]]}},
{ "type":"Feature","properties":{"osm_way_id":"407230911","amenity":"parking","other":{"access":"private"}}, "geometry":{"type":"MultiPolygon","coordinates":[[[[-3.18523,51.59224],[-3.18533,51.59216],[-3.18508,51.59204],[-3.18498,51.59213],[-3.18523,51.59224]]]]}},
{ "type":"Feature","properties":{"osm_way_id":"408435868","amenity":"parking"},"geometry":{"type":"MultiPolygon","coordinates":[[[[-3.14321,51.67847],[-3.1432,51.67836],[-3.14297,51.67837],[-3.14298,51.6785],[-3.14321,51.67847]]]]}},
{ "type":"Feature","properties":{"osm_way_id":"408833740","amenity":"parking"},"geometry":{"type":"MultiPolygon","coordinates":[[[[-3.21568,51.59008],[-3.21574,51.5901],[-3.21575,51.59009],[-3.21609,51.59025],[-3.21605,51.59028],[-3.21605,51.59031],[-3.21604,51.59034],[-3.21564,51.59065],[-3.21561,51.59067],[-3.21557,51.59067],[-3.21553,51.59066],[-3.21547,51.5907],[-3.21521,51.59057],[-3.21518,51.59054],[-3.21518,51.59049],[-3.21522,51.59044],[-3.21531,51.59036],[-3.21568,51.59008]]]]}},
{ "type":"Feature","properties":{"osm_way_id":"446411287","building":"yes"},"geometry":{"type":"MultiPolygon","coordinates":[[[[-3.21609,51.57173],[-3.2161,51.57164],[-3.2165,51.57166],[-3.21649,51.57175],[-3.21609,51.57173]]]]}},
{ "type":"Feature","properties":{"osm_way_id":"462595735","amenity":"parking","other":{"parking":"surface","surface":"asphalt"}}, "geometry":{"type":"MultiPolygon","coordinates":[[[[-3.25363,51.64494],[-3.25353,51.64508],[-3.25337,51.64504],[-3.2534,51.645],[-3.25338,51.645],[-3.25336,51.645],[-3.25334,51.64501],[-3.25332,51.64502],[-3.2533,51.64503],[-3.25329,51.64507],[-3.25327,51.6451],[-3.25333,51.64512],[-3.25325,51.64524],[-3.25318,51.64523],[-3.25317,51.64524],[-3.25314,51.64526],[-3.25311,51.64527],[-3.25307,51.64527],[-3.25304,51.64528],[-3.253,51.64528],[-3.25297,51.64527],[-3.25294,51.64531],[-3.25278,51.64528],[-3.25281,51.64524],[-3.25279,51.64523],[-3.25276,51.64524],[-3.25274,51.64524],[-3.25272,51.64526],[-3.25269,51.64529],[-3.25268,51.64531],[-3.25265,51.64533],[-3.25259,51.64534],[-3.25255,51.64535],[-3.25248,51.64534],[-3.25239,51.64532],[-3.25236,51.64536],[-3.25165,51.64519],[-3.25167,51.64515],[-3.25163,51.64514],[-3.25161,51.64512],[-3.25158,51.64508],[-3.25158,51.64505],[-3.25151,51.64473],[-3.2515,51.64465],[-3.25147,51.64463],[-3.25142,51.64463],[-3.25125,51.64459],[-3.25117,51.64458],[-3.25111,51.6446],[-3.25111,51.64464],[-3.25113,51.64465],[-3.25119,51.64463],[-3.25133,51.6448],[-3.25127,51.64483],[-3.25131,51.64489],[-3.25138,51.64489],[-3.25138,51.64493],[-3.25137,51.64498],[-3.25134,51.64501],[-3.25128,51.64504],[-3.25125,51.64505],[-3.25137,51.64521],[-3.25122,51.64525],[-3.25116,51.64517],[-3.25109,51.64519],[-3.25104,51.64512],[-3.25098,51.64513],[-3.25094,51.64513],[-3.25093,51.64509],[-3.25089,51.64509],[-3.25084,51.64508],[-3.2508,51.64507],[-3.25077,51.64504],[-3.25072,51.64498],[-3.25064,51.64501],[-3.25047,51.6448],[-3.2504,51.64472],[-3.25037,51.64472],[-3.25025,51.64459],[-3.25023,51.64459],[-3.25015,51.64449],[-3.25014,51.64448],[-3.25003,51.64443],[-3.24995,51.64437],[-3.2498,51.64433],[-3.24981,51.64428],[-3.24992,51.64428],[-3.24996,51.64425],[-3.25025,51.64433],[-3.25057,51.64439],[-3.25089,51.64448],[-3.251,51.64451],[-3.25107,51.64445],[-3.25122,51.6445],[-3.25139,51.64454],[-3.25147,51.64455],[-3.25148,51.6445],[-3.25155,51.6445],[-3.25162,51.64449],[-3.25169,51.64446],[-3.25179,51.64449],[-3.25318,51.64482],[-3.25363,51.64494]]]]}},
{ "type":"Feature","properties":{"osm_way_id":"462595738","amenity":"parking","other":{"access":"private","parking":"surface","surface":"asphalt"}}, "geometry":{"type":"MultiPolygon","coordinates":[[[[-3.24802,51.64401],[-3.24793,51.64413],[-3.248,51.64415],[-3.24797,51.64419],[-3.24852,51.64434],[-3.24869,51.64439],[-3.24881,51.64443],[-3.24894,51.64451],[-3.24898,51.64454],[-3.24903,51.64451],[-3.24905,51.64451],[-3.24906,51.64453],[-3.24903,51.64455],[-3.24893,51.64459],[-3.24891,51.64458],[-3.24891,51.64457],[-3.24893,51.64457],[-3.24896,51.64455],[-3.2489,51.64451],[-3.24884,51.64448],[-3.24874,51.64443],[-3.2487,51.64441],[-3.24862,51.64439],[-3.24856,51.64437],[-3.24849,51.64436],[-3.24836,51.64434],[-3.24821,51.64433],[-3.24806,51.64434],[-3.24788,51.64436],[-3.2478,51.64438],[-3.24785,51.64447],[-3.2479,51.64452],[-3.24803,51.64448],[-3.24817,51.64448],[-3.24841,51.6445],[-3.24856,51.64454],[-3.2487,51.64459],[-3.24876,51.64462],[-3.24884,51.64468],[-3.24886,51.6447],[-3.24911,51.64457],[-3.24917,51.6445],[-3.2493,51.64434],[-3.24915,51.64429],[-3.24906,51.64441],[-3.24913,51.64443],[-3.24911,51.64446],[-3.24909,51.64446],[-3.24906,51.64445],[-3.249,51.64441],[-3.24899,51.64438],[-3.24906,51.64439],[-3.24918,51.64423],[-3.2487,51.6441],[-3.24837,51.64401],[-3.24835,51.64403],[-3.24821,51.64399],[-3.24813,51.64397],[-3.24812,51.64399],[-3.24806,51.64397],[-3.24802,51.64401]]]]}},
{ "type":"Feature","properties":{"osm_way_id":"462595739","amenity":"parking","other":{"parking":"surface","surface":"asphalt"}}, "geometry":{"type":"MultiPolygon","coordinates":[[[[-3.24754,51.64443],[-3.247,51.64426],[-3.24723,51.64399],[-3.24725,51.64397],[-3.24748,51.64404],[-3.24751,51.644],[-3.24757,51.64401],[-3.24759,51.64399],[-3.24767,51.64402],[-3.24765,51.64404],[-3.24771,51.64405],[-3.24776,51.64399],[-3.24783,51.64402],[-3.24797,51.64406],[-3.24786,51.6442],[-3.2478,51.64418],[-3.24777,51.64422],[-3.24784,51.64424],[-3.24773,51.64437],[-3.24762,51.64434],[-3.24757,51.6444],[-3.24754,51.64443]]]]}},
{ "type":"Feature","properties":{"osm_way_id":"462597380","amenity":"parking","other":{"access":"private","parking":"surface","surface":"asphalt"}}, "geometry":{"type":"MultiPolygon","coordinates":[[[[-3.24577,51.64414],[-3.24565,51.64425],[-3.24548,51.64417],[-3.24536,51.64423],[-3.24526,51.64417],[-3.2452,51.6442],[-3.24513,51.64412],[-3.24509,51.64407],[-3.24498,51.6441],[-3.24494,51.64405],[-3.24484,51.64406],[-3.24481,51.64401],[-3.24478,51.64393],[-3.24477,51.64384],[-3.24476,51.64379],[-3.24495,51.64379],[-3.24533,51.64381],[-3.24547,51.64382],[-3.24549,51.64375],[-3.24555,51.64365],[-3.24565,51.64356],[-3.24577,51.64362],[-3.24574,51.64363],[-3.24571,51.64365],[-3.24568,51.64368],[-3.24566,51.64372],[-3.24564,51.64375],[-3.24564,51.64378],[-3.24565,51.64382],[-3.24566,51.64385],[-3.24567,51.64386],[-3.24561,51.64386],[-3.24558,51.64397],[-3.24553,51.64396],[-3.24558,51.64402],[-3.24562,51.64406],[-3.24567,51.64409],[-3.24571,51.64411],[-3.24577,51.64414]]]]}},
{ "type":"Feature","properties":{"osm_way_id":"462772423","amenity":"parking","other":{"access":"customers","surface":"asphalt"}}, "geometry":{"type":"MultiPolygon","coordinates":[[[[-3.23209,51.6322],[-3.23207,51.63259],[-3.23204,51.63293],[-3.23203,51.6331],[-3.23206,51.63318],[-3.23223,51.63339],[-3.23217,51.63341],[-3.23225,51.6335],[-3.23242,51.63352],[-3.23265,51.63348],[-3.23277,51.63346],[-3.23276,51.63349],[-3.23271,51.63351],[-3.2326,51.63356],[-3.23254,51.63358],[-3.23253,51.63359],[-3.23251,51.63364],[-3.23251,51.63371],[-3.23256,51.63376],[-3.23256,51.63381],[-3.23255,51.63384],[-3.23249,51.63403],[-3.23224,51.63407],[-3.23216,51.63405],[-3.23203,51.63381],[-3.23189,51.6335],[-3.23186,51.63348],[-3.2317,51.6335],[-3.23166,51.63342],[-3.23184,51.63338],[-3.2316,51.63298],[-3.23178,51.63293],[-3.2317,51.63277],[-3.23149,51.63248],[-3.23166,51.63242],[-3.23179,51.63236],[-3.23193,51.63231],[-3.23209,51.6322]]]]}},
{ "type":"Feature","properties":{"osm_way_id":"462773505","amenity":"parking","other":{"access":"customers","parking":"surface"}}, "geometry":{"type":"MultiPolygon","coordinates":[[[[-3.23441,51.6381],[-3.23445,51.63823],[-3.23425,51.63852],[-3.23395,51.63864],[-3.23391,51.6385],[-3.234,51.63849],[-3.23398,51.63843],[-3.23401,51.63842],[-3.23399,51.63837],[-3.23396,51.63837],[-3.23393,51.63831],[-3.23386,51.63832],[-3.23385,51.63829],[-3.23397,51.63827],[-3.23393,51.63814],[-3.23441,51.6381]]]]}},
{ "type":"Feature","properties":{"osm_way_id":"483475006","amenity":"parking","other":{"access":"customers"}}, "geometry":{"type":"MultiPolygon","coordinates":[[[[-3.27219,51.65014],[-3.27191,51.65013],[-3.27189,51.65022],[-3.2721,51.65025],[-3.27219,51.65021],[-3.27219,51.65014]]]]}},
{ "type":"Feature","properties":{"osm_way_id":"484566411","amenity":"parking"},"geometry":{"type":"MultiPolygon","coordinates":[[[[-3.26679,51.64879],[-3.26642,51.64902],[-3.2657,51.64925],[-3.26521,51.64938],[-3.26484,51.64942],[-3.26443,51.64924],[-3.26419,51.64917],[-3.26365,51.64905],[-3.2636,51.64897],[-3.26353,51.64886],[-3.26363,51.64879],[-3.2635,51.64872],[-3.26332,51.64865],[-3.26332,51.64853],[-3.26343,51.64848],[-3.26346,51.64837],[-3.26351,51.64825],[-3.2638,51.64816],[-3.26411,51.64812],[-3.26419,51.64806],[-3.26436,51.6479],[-3.26511,51.64816],[-3.26595,51.64846],[-3.26645,51.64865],[-3.26679,51.64879]]]]}},
{ "type":"Feature","properties":{"osm_way_id":"516647229","name":"Ty-Isaf Common Car Park","amenity":"parking","other":{"access":"permissive","addr:street":"Isaf Road","capacity":"26","fee":"no","name:cy":"Maes Parcio Comin T Isaf","operator":"Caerphilly County Borough Council","park_ride":"no","parking":"surface","supervised":"no","surface":"asphalt"}}, "geometry":{"type":"MultiPolygon","coordinates":[[[[-3.08871,51.60455],[-3.08853,51.60469],[-3.08845,51.60464],[-3.08837,51.60459],[-3.08831,51.60456],[-3.08851,51.60438],[-3.08848,51.60432],[-3.0885,51.60429],[-3.08858,51.60429],[-3.08876,51.60438],[-3.08882,51.60441],[-3.08872,51.60448],[-3.08867,51.60453],[-3.08871,51.60455]]]]}},
{ "type":"Feature","properties":{"osm_way_id":"516706997","amenity":"parking","other":{"access":"permissive","fee":"no","park_ride":"no","parking":"surface","supervised":"no","surface":"asphalt"}}, "geometry":{"type":"MultiPolygon","coordinates":[[[[-3.08009,51.60623],[-3.07907,51.60615],[-3.07908,51.60602],[-3.07915,51.60598],[-3.0795,51.60609],[-3.07966,51.60593],[-3.08011,51.60622],[-3.08009,51.60623]]]]}},
{ "type":"Feature","properties":{"osm_way_id":"516707007","amenity":"parking","other":{"parking":"surface"}}, "geometry":{"type":"MultiPolygon","coordinates":[[[[-3.07037,51.60537],[-3.07089,51.60513],[-3.07107,51.60527],[-3.07044,51.60557],[-3.07036,51.60552],[-3.07048,51.60546],[-3.07037,51.60537]]]]}},
{ "type":"Feature","properties":{"osm_way_id":"516838946","name":"Risca RFC Car park","amenity":"parking","other":{"access":"permissive","fee":"no","name:cy":"Maes Parcio Clwb Rygbi a Phl-droed Rhisga","park_ride":"no","parking":"surface","supervised":"no","surface":"asphalt"}}, "geometry":{"type":"MultiPolygon","coordinates":[[[[-3.10281,51.60707],[-3.10303,51.60698],[-3.10252,51.60663],[-3.10226,51.60675],[-3.10221,51.60669],[-3.10189,51.60684],[-3.102,51.60696],[-3.10201,51.60697],[-3.10209,51.60694],[-3.10211,51.60697],[-3.10216,51.60696],[-3.10222,51.60694],[-3.10227,51.60694],[-3.10233,51.60694],[-3.1024,51.60695],[-3.10247,51.60697],[-3.10257,51.60699],[-3.1027,51.60704],[-3.10281,51.60707]]]]}},
{ "type":"Feature","properties":{"osm_way_id":"516838960","name":"Tesco Extra Car Park","amenity":"parking","other":{"access":"customers","capacity":"500","fee":"no","park_ride":"no","parking":"surface","surface":"asphalt"}}, "geometry":{"type":"MultiPolygon","coordinates":[[[[-3.09976,51.60374],[-3.09969,51.60375],[-3.09969,51.60377],[-3.09968,51.6038],[-3.09965,51.60381],[-3.09961,51.60384],[-3.09956,51.60387],[-3.09946,51.60392],[-3.09938,51.60396],[-3.0993,51.60398],[-3.09925,51.60397],[-3.09906,51.60391],[-3.09879,51.60384],[-3.09847,51.60373],[-3.09816,51.60364],[-3.09808,51.60361],[-3.09805,51.60359],[-3.09801,51.60355],[-3.09797,51.6035],[-3.09786,51.60341],[-3.09779,51.60336],[-3.09768,51.60329],[-3.09754,51.60323],[-3.0973,51.60315],[-3.09689,51.60302],[-3.09668,51.60296],[-3.09806,51.60229],[-3.09829,51.60248],[-3.09852,51.60265],[-3.09871,51.60281],[-3.09906,51.60309],[-3.09945,51.60341],[-3.09965,51.60357],[-3.09973,51.60362],[-3.09976,51.60368],[-3.09976,51.60371],[-3.09976,51.60374]]]]}},
{ "type":"Feature","properties":{"osm_way_id":"516838966","amenity":"parking","other":{"access":"customers","capacity":"40","capacity:disabled":"3","fee":"no","operator":"KFC","park_ride":"no","parking":"surface","surface":"asphalt"}}, "geometry":{"type":"MultiPolygon","coordinates":[[[[-3.09497,51.60218],[-3.09537,51.60201],[-3.09531,51.60196],[-3.09537,51.60193],[-3.0953,51.60186],[-3.09516,51.60182],[-3.095,51.60182],[-3.09459,51.60187],[-3.09456,51.60192],[-3.0947,51.60196],[-3.09482,51.60206],[-3.09497,51.60218]]]]}},
{ "type":"Feature","properties":{"osm_way_id":"516838970","name":"Tesco Extra Car Park No. 2","amenity":"parking","other":{"access":"customers","capacity":"100","fee":"no","park_ride":"no","parking":"surface","surface":"asphalt"}}, "geometry":{"type":"MultiPolygon","coordinates":[[[[-3.09481,51.60246],[-3.09567,51.60204],[-3.09629,51.60257],[-3.09586,51.60275],[-3.09556,51.60267],[-3.09531,51.60261],[-3.09506,51.60256],[-3.09486,51.60249],[-3.09481,51.60246]]]]}},
{ "type":"Feature","properties":{"osm_way_id":"516838982","name":"Tesco Extra Lorry Parking","amenity":"parking","other":{"access":"private","capacity":"20","park_ride":"no","parking":"surface","supervised":"yes","surface":"asphalt"}}, "geometry":{"type":"MultiPolygon","coordinates":[[[[-3.09603,51.60211],[-3.0964,51.60194],[-3.09617,51.60178],[-3.09631,51.60172],[-3.09652,51.60186],[-3.09701,51.60162],[-3.09679,51.60147],[-3.09639,51.60162],[-3.09575,51.60191],[-3.09583,51.60196],[-3.09603,51.60211]]]]}},
{ "type":"Feature","properties":{"osm_way_id":"517072431","amenity":"parking","other":{"capacity":"10","fee":"no","operator":"Caerphilly County Borough Council","park_ride":"no","supervised":"no","surface":"asphalt"}}, "geometry":{"type":"MultiPolygon","coordinates":[[[[-3.08716,51.60725],[-3.087,51.60732],[-3.08689,51.60721],[-3.08705,51.60715],[-3.08716,51.60725]]]]}},
{ "type":"Feature","properties":{"osm_way_id":"517088211","name":"Lidl Risca Car Park","amenity":"parking","other":{"name:cy":"Maes Parcio Lidl Rhisga"}}, "geometry":{"type":"MultiPolygon","coordinates":[[[[-3.09966,51.60606],[-3.10044,51.60567],[-3.10044,51.60561],[-3.1004,51.60564],[-3.10019,51.6055],[-3.10024,51.60547],[-3.09987,51.60523],[-3.09968,51.60533],[-3.09978,51.6054],[-3.09935,51.60562],[-3.0995,51.60574],[-3.09942,51.60578],[-3.0994,51.60579],[-3.09939,51.6058],[-3.09939,51.60581],[-3.09938,51.60583],[-3.09939,51.60584],[-3.09939,51.60585],[-3.0994,51.60586],[-3.09941,51.60587],[-3.09957,51.60603],[-3.09962,51.60601],[-3.09966,51.60606]]]]}},
{ "type":"Feature","properties":{"osm_way_id":"525335284","amenity":"parking","other":{"construction":"retail"}}, "geometry":{"type":"MultiPolygon","coordinates":[[[[-3.1376,51.59564],[-3.13765,51.5956],[-3.13787,51.59546],[-3.1381,51.59534],[-3.13829,51.59524],[-3.13843,51.5954],[-3.13819,51.59548],[-3.13823,51.59551],[-3.13821,51.59557],[-3.13827,51.59561],[-3.13826,51.59563],[-3.13818,51.59563],[-3.1382,51.59568],[-3.13785,51.59566],[-3.13776,51.59565],[-3.1376,51.59564]]]]}},
{ "type":"Feature","properties":{"osm_way_id":"525648307","amenity":"parking"},"geometry":{"type":"MultiPolygon","coordinates":[[[[-3.19012,51.63855],[-3.19005,51.6385],[-3.18992,51.63845],[-3.18978,51.63862],[-3.18997,51.63868],[-3.19012,51.63855]]]]}},
{ "type":"Feature","properties":{"osm_way_id":"531068863","amenity":"parking"},"geometry":{"type":"MultiPolygon","coordinates":[[[[-3.16245,51.63828],[-3.16236,51.63836],[-3.16231,51.63843],[-3.16219,51.6384],[-3.16208,51.63859],[-3.16117,51.63837],[-3.16034,51.63817],[-3.16025,51.63815],[-3.16027,51.63813],[-3.16029,51.63812],[-3.16036,51.63811],[-3.16056,51.63816],[-3.16087,51.63822],[-3.16097,51.63825],[-3.16114,51.63829],[-3.16119,51.63821],[-3.16128,51.63822],[-3.16137,51.63825],[-3.16143,51.63815],[-3.16147,51.63808],[-3.16162,51.63813],[-3.16185,51.63814],[-3.16216,51.6382],[-3.16231,51.63823],[-3.16245,51.63828]]]]}},
{ "type":"Feature","properties":{"osm_way_id":"549643199","amenity":"parking"},"geometry":{"type":"MultiPolygon","coordinates":[[[[-3.2218,51.58715],[-3.22232,51.58713],[-3.22235,51.58703],[-3.22214,51.58705],[-3.2221,51.58688],[-3.22206,51.58676],[-3.22242,51.58672],[-3.22223,51.58629],[-3.22206,51.58633],[-3.22174,51.58638],[-3.22162,51.58639],[-3.22139,51.58635],[-3.22153,51.58649],[-3.22154,51.58677],[-3.22182,51.58679],[-3.22179,51.58708],[-3.2218,51.58715]]]]}},
{ "type":"Feature","properties":{"osm_way_id":"551431341","amenity":"parking"},"geometry":{"type":"MultiPolygon","coordinates":[[[[-3.19458,51.6484],[-3.19483,51.64873],[-3.19403,51.64896],[-3.19432,51.64936],[-3.19434,51.64939],[-3.19391,51.64949],[-3.19382,51.64943],[-3.19379,51.64934],[-3.19366,51.64919],[-3.19356,51.64908],[-3.19351,51.64897],[-3.19352,51.64893],[-3.19356,51.64889],[-3.19391,51.64882],[-3.19397,51.64877],[-3.19388,51.64871],[-3.19377,51.64876],[-3.19359,51.64875],[-3.1937,51.64858],[-3.19384,51.64833],[-3.19402,51.64836],[-3.19415,51.64835],[-3.19414,51.64824],[-3.19411,51.64816],[-3.19405,51.64809],[-3.19392,51.64804],[-3.19381,51.64804],[-3.19385,51.64794],[-3.19389,51.64796],[-3.1942,51.64806],[-3.19431,51.64821],[-3.19434,51.64837],[-3.19458,51.6484]]]]}},
{ "type":"Feature","properties":{"osm_way_id":"552665529","amenity":"parking","other":{"parking":"surface"}}, "geometry":{"type":"MultiPolygon","coordinates":[[[[-3.11456,51.6361],[-3.11466,51.63598],[-3.11524,51.63616],[-3.11518,51.63623],[-3.11491,51.6362],[-3.11456,51.6361]]]]}},
{ "type":"Feature","properties":{"osm_way_id":"552792093","amenity":"parking"},"geometry":{"type":"MultiPolygon","coordinates":[[[[-3.23158,51.69869],[-3.23162,51.69859],[-3.23166,51.69841],[-3.23172,51.69845],[-3.23175,51.69854],[-3.23177,51.69864],[-3.23176,51.69874],[-3.23171,51.69881],[-3.23165,51.6989],[-3.23156,51.69896],[-3.23148,51.699],[-3.23138,51.69903],[-3.23144,51.69895],[-3.23149,51.69887],[-3.23154,51.69878],[-3.23158,51.69869]]]]}},
{ "type":"Feature","properties":{"osm_way_id":"563915688","amenity":"parking"},"geometry":{"type":"MultiPolygon","coordinates":[[[[-3.19035,51.65768],[-3.19026,51.65771],[-3.19031,51.65778],[-3.18983,51.6579],[-3.18964,51.65763],[-3.1895,51.65766],[-3.18968,51.65792],[-3.18958,51.65794],[-3.18937,51.65799],[-3.18917,51.65805],[-3.18896,51.6581],[-3.18893,51.6581],[-3.1887,51.65777],[-3.18903,51.65768],[-3.18907,51.65773],[-3.19001,51.65748],[-3.18999,51.65746],[-3.19016,51.65741],[-3.19022,51.65749],[-3.1903,51.65762],[-3.19033,51.65766],[-3.19035,51.65768]]]]}},
{ "type":"Feature","properties":{"osm_way_id":"563915689","amenity":"parking"},"geometry":{"type":"MultiPolygon","coordinates":[[[[-3.18848,51.65691],[-3.1885,51.65695],[-3.18821,51.65702],[-3.18817,51.65696],[-3.18811,51.65687],[-3.18819,51.65683],[-3.18828,51.65679],[-3.18839,51.65674],[-3.18859,51.65668],[-3.18879,51.6566],[-3.18901,51.65654],[-3.18924,51.65648],[-3.18935,51.65645],[-3.18948,51.65664],[-3.18848,51.65691]]]]}},
{ "type":"Feature","properties":{"osm_way_id":"564773027","amenity":"parking"},"geometry":{"type":"MultiPolygon","coordinates":[[[[-3.19057,51.66124],[-3.19057,51.66133],[-3.19077,51.66133],[-3.19078,51.6624],[-3.1906,51.66241],[-3.19061,51.66274],[-3.19082,51.66274],[-3.19083,51.66311],[-3.19073,51.66312],[-3.19073,51.6632],[-3.19029,51.66321],[-3.19022,51.66317],[-3.1901,51.66271],[-3.19006,51.66209],[-3.1901,51.66156],[-3.19015,51.66128],[-3.19022,51.66124],[-3.19057,51.66124]]]]}},
{ "type":"Feature","properties":{"osm_way_id":"564773035","amenity":"parking"},"geometry":{"type":"MultiPolygon","coordinates":[[[[-3.19773,51.66622],[-3.19694,51.66637],[-3.19696,51.6664],[-3.19688,51.66641],[-3.19664,51.66591],[-3.19675,51.66589],[-3.19672,51.66583],[-3.19748,51.66569],[-3.19773,51.66622]]]]}},
{ "type":"Feature","properties":{"osm_way_id":"564773040","amenity":"parking"},"geometry":{"type":"MultiPolygon","coordinates":[[[[-3.19646,51.66547],[-3.19636,51.66547],[-3.19628,51.66545],[-3.19625,51.66541],[-3.19567,51.66465],[-3.19585,51.6646],[-3.19588,51.66464],[-3.19635,51.66528],[-3.1964,51.66535],[-3.19646,51.66547]]]]}},
{ "type":"Feature","properties":{"osm_way_id":"565560877","amenity":"parking"},"geometry":{"type":"MultiPolygon","coordinates":[[[[-3.19464,51.66727],[-3.19458,51.66688],[-3.19452,51.66667],[-3.19431,51.66618],[-3.19404,51.6657],[-3.19394,51.66554],[-3.19358,51.66509],[-3.19353,51.66498],[-3.19368,51.66497],[-3.19385,51.66521],[-3.19391,51.6652],[-3.19412,51.66543],[-3.19428,51.66566],[-3.19429,51.66571],[-3.19441,51.66591],[-3.19456,51.66619],[-3.1947,51.66648],[-3.19474,51.66661],[-3.1948,51.66686],[-3.19486,51.66726],[-3.19464,51.66727]]]]}},
{ "type":"Feature","properties":{"osm_way_id":"565560887","amenity":"parking"},"geometry":{"type":"MultiPolygon","coordinates":[[[[-3.19483,51.66779],[-3.19494,51.66787],[-3.19487,51.66792],[-3.19494,51.66795],[-3.19504,51.66798],[-3.19506,51.66823],[-3.19465,51.66819],[-3.19441,51.66919],[-3.19411,51.66917],[-3.19412,51.66912],[-3.19404,51.66912],[-3.19425,51.66823],[-3.1943,51.66805],[-3.19437,51.66793],[-3.19448,51.66782],[-3.19474,51.66764],[-3.19482,51.66761],[-3.1949,51.66763],[-3.19494,51.66766],[-3.19494,51.66772],[-3.19483,51.66779]]]]}},
{ "type":"Feature","properties":{"osm_way_id":"565560903","amenity":"parking","other":{"wheelchair":"yes"}}, "geometry":{"type":"MultiPolygon","coordinates":[[[[-3.19413,51.67094],[-3.19412,51.67101],[-3.19405,51.67104],[-3.1937,51.67102],[-3.19354,51.67099],[-3.19343,51.67091],[-3.19336,51.67081],[-3.19317,51.67041],[-3.19312,51.67023],[-3.19309,51.67],[-3.19314,51.6698],[-3.19323,51.66966],[-3.19334,51.66956],[-3.19352,51.66948],[-3.19374,51.66943],[-3.19387,51.66941],[-3.19398,51.66942],[-3.1941,51.66947],[-3.19415,51.66952],[-3.1941,51.66954],[-3.19411,51.66962],[-3.19392,51.67042],[-3.19393,51.67046],[-3.19401,51.67052],[-3.19409,51.67069],[-3.19415,51.6708],[-3.19406,51.67089],[-3.19413,51.67094]]]]}},
{ "type":"Feature","properties":{"osm_way_id":"570789090","amenity":"parking","other":{"access":"yes","parking":"surface"}}, "geometry":{"type":"MultiPolygon","coordinates":[[[[-3.28546,51.72305],[-3.28527,51.72285],[-3.28516,51.72274],[-3.28472,51.7224],[-3.28464,51.72245],[-3.28458,51.72249],[-3.28485,51.72267],[-3.28502,51.72278],[-3.28516,51.72292],[-3.28533,51.7231],[-3.2854,51.72307],[-3.28546,51.72305]]]]}},
{ "type":"Feature","properties":{"osm_way_id":"570789092","amenity":"parking","other":{"access":"yes","parking":"surface"}}, "geometry":{"type":"MultiPolygon","coordinates":[[[[-3.28484,51.72284],[-3.28463,51.72293],[-3.28456,51.72291],[-3.28423,51.72259],[-3.28442,51.72251],[-3.28461,51.72265],[-3.28477,51.72277],[-3.28484,51.72284]]]]}},
{ "type":"Feature","properties":{"osm_way_id":"606075173","amenity":"parking","other":{"access":"yes","parking":"surface"}}, "geometry":{"type":"MultiPolygon","coordinates":[[[[-3.27636,51.71943],[-3.27644,51.71935],[-3.2768,51.71942],[-3.27686,51.71938],[-3.27709,51.7195],[-3.27699,51.71964],[-3.27636,51.71943]]]]}},
{ "type":"Feature","properties":{"osm_way_id":"655950297","amenity":"parking"},"geometry":{"type":"MultiPolygon","coordinates":[[[[-3.09109,51.60326],[-3.09118,51.60283],[-3.09105,51.60281],[-3.09093,51.603],[-3.09084,51.60324],[-3.09109,51.60326]]]]}},
{ "type":"Feature","properties":{"osm_way_id":"694648502","amenity":"parking"},"geometry":{"type":"MultiPolygon","coordinates":[[[[-3.28644,51.74685],[-3.28621,51.74693],[-3.28609,51.74686],[-3.28635,51.74676],[-3.28644,51.74685]]]]}},
{ "type":"Feature","properties":{"osm_way_id":"694648503","amenity":"parking"},"geometry":{"type":"MultiPolygon","coordinates":[[[[-3.28624,51.74629],[-3.28646,51.74652],[-3.28631,51.74656],[-3.2861,51.74635],[-3.28624,51.74629]]]]}},
{ "type":"Feature","properties":{"osm_way_id":"694648504","amenity":"parking"},"geometry":{"type":"MultiPolygon","coordinates":[[[[-3.28593,51.74621],[-3.2857,51.74598],[-3.28557,51.74603],[-3.28578,51.74626],[-3.28593,51.74621]]]]}},
{ "type":"Feature","properties":{"osm_way_id":"694648505","amenity":"parking"},"geometry":{"type":"MultiPolygon","coordinates":[[[[-3.285,51.74592],[-3.28508,51.74601],[-3.28496,51.74605],[-3.28488,51.74596],[-3.285,51.74592]]]]}},
{ "type":"Feature","properties":{"osm_way_id":"694648506","amenity":"parking"},"geometry":{"type":"MultiPolygon","coordinates":[[[[-3.28519,51.74563],[-3.28491,51.74573],[-3.28478,51.7456],[-3.28507,51.74549],[-3.28519,51.74563]]]]}},
{ "type":"Feature","properties":{"osm_way_id":"694648507","amenity":"parking"},"geometry":{"type":"MultiPolygon","coordinates":[[[[-3.28484,51.74522],[-3.28451,51.74535],[-3.28444,51.74525],[-3.2844,51.74519],[-3.28476,51.74511],[-3.28484,51.74522]]]]}},
{ "type":"Feature","properties":{"osm_way_id":"694648508","amenity":"parking"},"geometry":{"type":"MultiPolygon","coordinates":[[[[-3.28418,51.74539],[-3.28396,51.74517],[-3.28409,51.74512],[-3.2843,51.74534],[-3.28418,51.74539]]]]}},
{ "type":"Feature","properties":{"osm_way_id":"694648509","amenity":"parking"},"geometry":{"type":"MultiPolygon","coordinates":[[[[-3.28691,51.74694],[-3.28704,51.7469],[-3.28711,51.74701],[-3.28698,51.74704],[-3.28691,51.74694]]]]}},
{ "type":"Feature","properties":{"osm_way_id":"694648510","amenity":"parking"},"geometry":{"type":"MultiPolygon","coordinates":[[[[-3.28378,51.74483],[-3.28377,51.74493],[-3.28407,51.74494],[-3.28407,51.74483],[-3.28378,51.74483]]]]}},
{ "type":"Feature","properties":{"osm_way_id":"694648511","amenity":"parking"},"geometry":{"type":"MultiPolygon","coordinates":[[[[-3.28459,51.7449],[-3.2846,51.74479],[-3.28418,51.74476],[-3.28421,51.74488],[-3.28459,51.7449]]]]}},
{ "type":"Feature","properties":{"osm_way_id":"694648512","amenity":"parking"},"geometry":{"type":"MultiPolygon","coordinates":[[[[-3.2848,51.74444],[-3.28422,51.74442],[-3.28423,51.74429],[-3.28458,51.74431],[-3.28458,51.74434],[-3.28481,51.74436],[-3.2848,51.74444]]]]}},
{ "type":"Feature","properties":{"osm_way_id":"694650714","amenity":"parking"},"geometry":{"type":"MultiPolygon","coordinates":[[[[-3.28158,51.74652],[-3.28114,51.7466],[-3.28095,51.74629],[-3.28127,51.74621],[-3.28158,51.74652]]]]}},
{ "type":"Feature","properties":{"osm_way_id":"694650715","amenity":"parking"},"geometry":{"type":"MultiPolygon","coordinates":[[[[-3.2807,51.74698],[-3.28024,51.74705],[-3.2802,51.747],[-3.28021,51.74697],[-3.28033,51.74688],[-3.28049,51.74685],[-3.28056,51.74685],[-3.28062,51.74686],[-3.28066,51.74689],[-3.28067,51.7469],[-3.2807,51.74698]]]]}},
{ "type":"Feature","properties":{"osm_way_id":"723739116","amenity":"parking","other":{"access":"yes","fee":"no","parking":"surface"}}, "geometry":{"type":"MultiPolygon","coordinates":[[[[-3.17267,51.61384],[-3.17254,51.61379],[-3.17239,51.61378],[-3.17191,51.61383],[-3.17186,51.61389],[-3.17188,51.61392],[-3.17261,51.61389],[-3.17267,51.61384]]]]}},
{ "type":"Feature","properties":{"osm_way_id":"762874159","amenity":"parking","other":{"parking":"surface"}}, "geometry":{"type":"MultiPolygon","coordinates":[[[[-3.24163,51.57943],[-3.24136,51.57964],[-3.24135,51.57982],[-3.24189,51.58007],[-3.24169,51.58015],[-3.24174,51.58022],[-3.24183,51.58027],[-3.24203,51.58019],[-3.24209,51.58015],[-3.24236,51.5799],[-3.24172,51.57964],[-3.24184,51.57952],[-3.24163,51.57943]]]]}},
{ "type":"Feature","properties":{"osm_way_id":"776590371","amenity":"parking","other":{"access":"yes","parking":"surface","surface":"asphalt"}}, "geometry":{"type":"MultiPolygon","coordinates":[[[[-3.19966,51.62835],[-3.19965,51.62828],[-3.19953,51.62827],[-3.19959,51.62839],[-3.19966,51.62835]]]]}},
{ "type":"Feature","properties":{"osm_way_id":"776600347","amenity":"parking"},"geometry":{"type":"MultiPolygon","coordinates":[[[[-3.19283,51.66352],[-3.19267,51.66326],[-3.19244,51.66331],[-3.19237,51.66319],[-3.19223,51.66321],[-3.19239,51.66361],[-3.19252,51.66359],[-3.19245,51.66343],[-3.19248,51.66339],[-3.1925,51.66339],[-3.19252,51.66343],[-3.19256,51.6635],[-3.1926,51.66357],[-3.19283,51.66352]]]]}},
{ "type":"Feature","properties":{"osm_way_id":"776600348","amenity":"parking"},"geometry":{"type":"MultiPolygon","coordinates":[[[[-3.19288,51.6636],[-3.19275,51.66372],[-3.19288,51.66391],[-3.19308,51.66385],[-3.19288,51.6636]]]]}},
{ "type":"Feature","properties":{"osm_way_id":"776600349","amenity":"parking"},"geometry":{"type":"MultiPolygon","coordinates":[[[[-3.19262,51.66373],[-3.19249,51.66378],[-3.19273,51.6641],[-3.19287,51.66427],[-3.19298,51.66439],[-3.19313,51.66454],[-3.19333,51.66473],[-3.19353,51.6647],[-3.19318,51.66431],[-3.19296,51.66405],[-3.1929,51.66407],[-3.1928,51.66394],[-3.19262,51.66373]]]]}},
{ "type":"Feature","properties":{"osm_way_id":"776600350","amenity":"parking"},"geometry":{"type":"MultiPolygon","coordinates":[[[[-3.19293,51.66397],[-3.19296,51.66401],[-3.19316,51.66395],[-3.19313,51.6639],[-3.19293,51.66397]]]]}},
{ "type":"Feature","properties":{"osm_way_id":"785392768","amenity":"parking"},"geometry":{"type":"MultiPolygon","coordinates":[[[[-3.24635,51.72086],[-3.24653,51.72103],[-3.2466,51.72106],[-3.24672,51.72101],[-3.24647,51.72076],[-3.2463,51.72082],[-3.24635,51.72086]]]]}},
{ "type":"Feature","properties":{"osm_way_id":"836220384","amenity":"parking","other":{"access":"customers","addr:city":"Risca","addr:housename":"Terry Howell Timber and Builders Merchants","addr:postcode":"NP11 6PW","addr:street":"Park Road","covered":"no","fee":"no","opening_hours:covid19":"off","parking":"surface","surface":"asphalt"}}, "geometry":{"type":"MultiPolygon","coordinates":[[[[-3.09779,51.60792],[-3.09788,51.60779],[-3.09763,51.60776],[-3.09705,51.6076],[-3.09707,51.60755],[-3.09685,51.60744],[-3.09681,51.60748],[-3.09686,51.60749],[-3.09678,51.60757],[-3.09673,51.60755],[-3.09669,51.60759],[-3.09673,51.60761],[-3.09671,51.60763],[-3.09717,51.60782],[-3.09723,51.60775],[-3.09732,51.60777],[-3.09734,51.60775],[-3.09745,51.60778],[-3.09743,51.60781],[-3.09759,51.60785],[-3.09761,51.60783],[-3.09773,51.60786],[-3.09771,51.60789],[-3.09779,51.60792]]]]}},
{ "type":"Feature","properties":{"osm_way_id":"837358071","amenity":"parking","other":{"access":"private","fee":"no"}}, "geometry":{"type":"MultiPolygon","coordinates":[[[[-3.20422,51.58889],[-3.20421,51.58888],[-3.20418,51.58888],[-3.20401,51.58851],[-3.20405,51.5885],[-3.20414,51.5885],[-3.20419,51.5885],[-3.20422,51.58849],[-3.20439,51.58855],[-3.20447,51.58856],[-3.20451,51.58857],[-3.20452,51.58856],[-3.20464,51.5886],[-3.20472,51.5886],[-3.20479,51.5886],[-3.20489,51.58862],[-3.20497,51.58862],[-3.20503,51.58862],[-3.20511,51.58862],[-3.20518,51.58862],[-3.20525,51.58861],[-3.20534,51.58859],[-3.20556,51.58855],[-3.20559,51.5886],[-3.20542,51.58863],[-3.20548,51.58877],[-3.20532,51.5888],[-3.20531,51.58878],[-3.20517,51.58881],[-3.20516,51.5888],[-3.20503,51.58882],[-3.20487,51.58884],[-3.20487,51.58883],[-3.20467,51.58885],[-3.20466,51.58884],[-3.20445,51.58887],[-3.20443,51.58886],[-3.20422,51.58889]]]]}},
{ "type":"Feature","properties":{"osm_way_id":"837358078","amenity":"parking","other":{"access":"private","fee":"no"}}, "geometry":{"type":"MultiPolygon","coordinates":[[[[-3.20631,51.58857],[-3.20624,51.5884],[-3.20646,51.58835],[-3.20657,51.58833],[-3.2066,51.58834],[-3.20662,51.5884],[-3.20662,51.58842],[-3.20662,51.58847],[-3.20658,51.5885],[-3.20654,51.58852],[-3.20646,51.58854],[-3.20631,51.58857]]]]}},
{ "type":"Feature","properties":{"osm_way_id":"838837912","amenity":"parking","other":{"access":"customers","addr:city":"Ystrad Mynach","addr:postcode":"CF82 7EP","addr:street":"Caerphilly Road","covered":"no","parking":"surface","surface":"asphalt"}}, "geometry":{"type":"MultiPolygon","coordinates":[[[[-3.23609,51.63371],[-3.23586,51.63372],[-3.23588,51.634],[-3.23602,51.63469],[-3.23619,51.63469],[-3.23618,51.63464],[-3.23626,51.63464],[-3.23626,51.63459],[-3.23616,51.6346],[-3.23611,51.63458],[-3.23605,51.63456],[-3.23604,51.63452],[-3.23602,51.63442],[-3.23614,51.6344],[-3.23609,51.63419],[-3.23613,51.63419],[-3.23609,51.63371]]]]}},
{ "type":"Feature","properties":{"osm_way_id":"838837913","amenity":"parking","other":{"access":"customers","addr:city":"Ystrad Mynach","addr:postcode":"CF82 7EP","addr:street":"Caerphilly Road","covered":"no","parking":"surface","surface":"asphalt"}}, "geometry":{"type":"MultiPolygon","coordinates":[[[[-3.23729,51.63574],[-3.23729,51.6357],[-3.2367,51.63571],[-3.23666,51.63506],[-3.23624,51.63507],[-3.23625,51.63511],[-3.23614,51.63512],[-3.23615,51.63522],[-3.23619,51.63522],[-3.2362,51.63536],[-3.23624,51.63536],[-3.23626,51.63559],[-3.23633,51.63558],[-3.23634,51.63563],[-3.23661,51.63563],[-3.23662,51.63575],[-3.23729,51.63574]]]]}},
{ "type":"Feature","properties":{"osm_way_id":"838837930","amenity":"parking","other":{"access":"private","addr:city":"Bargoed","addr:housenumber":"43","addr:postcode":"CF81 8XF","addr:street":"Hanbury Road","covered":"no","operator":"Gwent Police","operator:type":"government","parking":"surface","surface":"asphalt"}}, "geometry":{"type":"MultiPolygon","coordinates":[[[[-3.22941,51.68914],[-3.22941,51.68916],[-3.22947,51.68916],[-3.22952,51.68915],[-3.22955,51.68897],[-3.22957,51.68889],[-3.22961,51.68882],[-3.22943,51.68879],[-3.2294,51.68903],[-3.22942,51.68903],[-3.22942,51.68906],[-3.22941,51.68914]]]]}},
{ "type":"Feature","properties":{"osm_way_id":"838837946","amenity":"parking","other":{"access":"permissive","addr:city":"Pontllanfraith","addr:postcode":"NP12 2XA","addr:street":"Blackwood Road","operator":"Gwent Police","operator:type":"government","parking":"surface","surface":"asphalt"}}, "geometry":{"type":"MultiPolygon","coordinates":[[[[-3.19484,51.65918],[-3.19484,51.6589],[-3.19444,51.65891],[-3.19445,51.65918],[-3.19484,51.65918]]]]}},
{ "type":"Feature","properties":{"osm_way_id":"838837947","amenity":"parking","other":{"access":"permissive","addr:city":"Pontllanfraith","addr:postcode":"NP12 2XA","addr:street":"Blackwood Road","operator":"Gwent Police","operator:type":"government","parking":"surface","surface":"asphalt"}}, "geometry":{"type":"MultiPolygon","coordinates":[[[[-3.19434,51.65932],[-3.19433,51.65926],[-3.19402,51.65927],[-3.19402,51.65933],[-3.19434,51.65932]]]]}},
{ "type":"Feature","properties":{"osm_way_id":"838837948","amenity":"parking","other":{"access":"permissive","addr:city":"Pontllanfraith","addr:postcode":"NP12 2XA","addr:street":"Blackwood Road","operator":"Gwent Police","operator:type":"government","parking":"surface","surface":"asphalt"}}, "geometry":{"type":"MultiPolygon","coordinates":[[[[-3.19414,51.65922],[-3.19414,51.65916],[-3.19373,51.65917],[-3.19374,51.65923],[-3.19414,51.65922]]]]}},
{ "type":"Feature","properties":{"osm_way_id":"838837949","amenity":"parking","other":{"access":"permissive","addr:city":"Pontllanfraith","addr:postcode":"NP12 2XA","addr:street":"Blackwood Road","operator":"Gwent Police","operator:type":"government","parking":"surface","surface":"asphalt"}}, "geometry":{"type":"MultiPolygon","coordinates":[[[[-3.19415,51.65907],[-3.19415,51.65899],[-3.19406,51.65899],[-3.19406,51.65907],[-3.19415,51.65907]]]]}},
{ "type":"Feature","properties":{"osm_way_id":"838837950","amenity":"parking","other":{"access":"permissive","addr:city":"Pontllanfraith","addr:postcode":"NP12 2XA","addr:street":"Blackwood Road","operator":"Gwent Police","operator:type":"government","parking":"surface","surface":"asphalt"}}, "geometry":{"type":"MultiPolygon","coordinates":[[[[-3.19388,51.65908],[-3.19387,51.659],[-3.19379,51.659],[-3.1938,51.65908],[-3.19388,51.65908]]]]}},
{ "type":"Feature","properties":{"osm_way_id":"838837951","amenity":"parking","other":{"access":"permissive","addr:city":"Pontllanfraith","addr:postcode":"NP12 2XA","addr:street":"Blackwood Road","operator":"Gwent Police","operator:type":"government","parking":"surface","surface":"asphalt"}}, "geometry":{"type":"MultiPolygon","coordinates":[[[[-3.19424,51.65896],[-3.19424,51.6589],[-3.19331,51.65893],[-3.19328,51.65897],[-3.19335,51.65898],[-3.19343,51.65897],[-3.19415,51.65895],[-3.19424,51.65896]]]]}},
{ "type":"Feature","properties":{"osm_way_id":"838837952","amenity":"parking","other":{"access":"permissive","addr:city":"Pontllanfraith","addr:postcode":"NP12 2XA","addr:street":"Blackwood Road","operator":"Gwent Police","operator:type":"government","parking":"surface","surface":"asphalt"}}, "geometry":{"type":"MultiPolygon","coordinates":[[[[-3.19326,51.65955],[-3.1933,51.65948],[-3.19305,51.65941],[-3.19297,51.65955],[-3.19309,51.65958],[-3.19314,51.65955],[-3.19326,51.65955]]]]}},
{ "type":"Feature","properties":{"osm_way_id":"838841479","amenity":"parking","other":{"access":"private","addr:city":"Rhymney","addr:postcode":"NP22 5LP","addr:street":"High Street","covered":"no","operator":"Gwent Police","operator:type":"government","parking":"surface","surface":"asphalt"}}, "geometry":{"type":"MultiPolygon","coordinates":[[[[-3.28589,51.75964],[-3.2859,51.75967],[-3.2861,51.75963],[-3.28603,51.75951],[-3.28576,51.75956],[-3.28578,51.75961],[-3.28587,51.7596],[-3.28589,51.75964]]]]}},
{ "type":"Feature","properties":{"osm_way_id":"842227017","amenity":"parking"},"geometry":{"type":"MultiPolygon","coordinates":[[[[-3.20518,51.64865],[-3.2055,51.64874],[-3.20555,51.64889],[-3.20553,51.64894],[-3.20548,51.64896],[-3.20542,51.64897],[-3.20532,51.64897],[-3.20521,51.64897],[-3.20513,51.64897],[-3.20503,51.64893],[-3.20496,51.64889],[-3.20491,51.64886],[-3.20486,51.64882],[-3.20484,51.6488],[-3.20518,51.64865]]]]}},
{ "type":"Feature","properties":{"osm_way_id":"842232144","amenity":"parking"},"geometry":{"type":"MultiPolygon","coordinates":[[[[-3.2022,51.64033],[-3.20262,51.64062],[-3.20203,51.64095],[-3.20162,51.64073],[-3.2022,51.64033]]]]}},
{ "type":"Feature","properties":{"osm_way_id":"849977287","amenity":"parking","other":{"access":"customers","addr:city":"Risca","addr:postcode":"NP11 6GU","addr:street":"St Mary Street","covered":"no","email":"Darran@sabrain.com","fee":"no","opening_hours":"Mo-Th 11:30-23:00; Fr-Sa 11:30-00:00; Su 11:30-22:30","opening_hours:covid19":"Mo-Th 11:30-23:00; Fr-Sa 11:30-00:00; Su 11:30-22:30","operator":"S.A. Brain & Co","operator:type":"business","parking":"surface","phone":"+44 1633 612 414","surface":"asphalt","website":"https:\/\/www.sabrain.com\/pubs-and-hotels\/south-wales\/newport-torfaen\/darran"}}, "geometry":{"type":"MultiPolygon","coordinates":[[[[-3.10712,51.61604],[-3.10716,51.61604],[-3.10727,51.61612],[-3.10732,51.61613],[-3.10737,51.6161],[-3.1074,51.61613],[-3.10745,51.6161],[-3.10736,51.61595],[-3.10729,51.61588],[-3.10724,51.61583],[-3.10693,51.61564],[-3.10688,51.61567],[-3.10692,51.61575],[-3.10693,51.61576],[-3.10696,51.61579],[-3.10704,51.61585],[-3.10713,51.61595],[-3.1072,51.616],[-3.10712,51.61604]]]]}},
{ "type":"Feature","properties":{"osm_way_id":"853039081","amenity":"parking","other":{"access":"customers","capacity:disabled":"yes","capacity:parent":"yes","fee":"no","operator":"Lidl","parking":"surface"}}, "geometry":{"type":"MultiPolygon","coordinates":[[[[-3.24492,51.57121],[-3.24381,51.57102],[-3.24387,51.57085],[-3.24413,51.57074],[-3.24441,51.57079],[-3.24439,51.57083],[-3.24508,51.57095],[-3.24492,51.57121]]]]}},
{ "type":"Feature","properties":{"osm_way_id":"858698993","amenity":"parking","other":{"access":"customers"}}, "geometry":{"type":"MultiPolygon","coordinates":[[[[-3.12577,51.57915],[-3.126,51.57908],[-3.12603,51.57907],[-3.12604,51.57908],[-3.12605,51.57907],[-3.12617,51.5792],[-3.12637,51.57912],[-3.1264,51.57914],[-3.12625,51.57923],[-3.12617,51.5793],[-3.12609,51.57936],[-3.12604,51.5794],[-3.12603,51.57943],[-3.126,51.57946],[-3.12583,51.57944],[-3.12565,51.57942],[-3.1255,51.57939],[-3.12555,51.57932],[-3.12564,51.57928],[-3.12567,51.57924],[-3.12577,51.57915]]]]}},
{ "type":"Feature","properties":{"osm_way_id":"868690533","amenity":"parking","other":{"access":"customers","fee":"no","parking":"surface"}}, "geometry":{"type":"MultiPolygon","coordinates":[[[[-3.23183,51.57206],[-3.23188,51.57205],[-3.23189,51.57206],[-3.23215,51.57208],[-3.23214,51.57214],[-3.23217,51.57215],[-3.2322,51.57221],[-3.23218,51.57228],[-3.23154,51.57225],[-3.23155,51.57215],[-3.23164,51.57208],[-3.23165,51.57205],[-3.23183,51.57206]]]]}},
{ "type":"Feature","properties":{"osm_way_id":"890977549","amenity":"parking","other":{"parking":"surface"}}, "geometry":{"type":"MultiPolygon","coordinates":[[[[-3.22476,51.6109],[-3.22477,51.6108],[-3.22444,51.61078],[-3.22443,51.61088],[-3.22476,51.6109]]]]}},
{ "type":"Feature","properties":{"osm_way_id":"891728869","amenity":"parking"},"geometry":{"type":"MultiPolygon","coordinates":[[[[-3.23614,51.64568],[-3.23606,51.64558],[-3.23583,51.64564],[-3.2359,51.64574],[-3.23614,51.64568]]]]}},
{ "type":"Feature","properties":{"osm_way_id":"916269430","amenity":"parking","other":{"access":"customers","capacity:disabled":"2","operator":"McDonald's","parking":"surface"}}, "geometry":{"type":"MultiPolygon","coordinates":[[[[-3.21053,51.58902],[-3.21079,51.58897],[-3.21077,51.58885],[-3.21087,51.58882],[-3.21082,51.58876],[-3.21113,51.58863],[-3.21126,51.58849],[-3.21109,51.58837],[-3.21095,51.58846],[-3.21028,51.5887],[-3.21047,51.58888],[-3.21041,51.58891],[-3.21053,51.58902]]]]}},
{ "type":"Feature","properties":{"osm_way_id":"917708106","amenity":"parking"},"geometry":{"type":"MultiPolygon","coordinates":[[[[-3.10301,51.60465],[-3.10265,51.60472],[-3.1027,51.60483],[-3.10307,51.60475],[-3.10301,51.60465]]]]}},
{ "type":"Feature","properties":{"osm_way_id":"918042205","amenity":"parking","other":{"access":"customers","addr:city":"Newbridge","addr:postcode":"NP11 5FE","addr:street":"Bridge Street","capacity":"200","covered":"no","email":"leisure@caerphilly.gov.uk","fee":"no","opening_hours":"Mo-Fr 06:30-22:00; Sa 08:00-18:00; Su 08:45-21::00","opening_hours:covid19":"Mo-Fr 06:30-22:00; Sa 08:00-18:00; Su 08:45-21::00","operator":"Caerphilly County Borough Council","operator:type":"council","parking":"surface","phone":"+44 1495 248 100","surface":"asphalt","website":"https:\/\/www.caerphilly.gov.uk\/Things-To-Do\/Sports-and-Leisure\/Leisure-centres","wheelchair":"yes"}}, "geometry":{"type":"MultiPolygon","coordinates":[[[[-3.14289,51.66395],[-3.1429,51.66383],[-3.14263,51.66385],[-3.14223,51.66395],[-3.14227,51.664],[-3.14212,51.66398],[-3.1421,51.66395],[-3.14213,51.66391],[-3.14192,51.66384],[-3.14135,51.66398],[-3.14131,51.66404],[-3.14063,51.66425],[-3.14089,51.66461],[-3.1411,51.66454],[-3.14117,51.66443],[-3.14111,51.66436],[-3.14149,51.66426],[-3.14164,51.66398],[-3.14184,51.66393],[-3.14192,51.66393],[-3.14203,51.66397],[-3.14209,51.66399],[-3.14208,51.66401],[-3.14203,51.66409],[-3.14224,51.66414],[-3.14236,51.66405],[-3.14248,51.66404],[-3.14275,51.66403],[-3.14276,51.66396],[-3.14289,51.66395]]]]}},
{ "type":"Feature","properties":{"osm_way_id":"920547393","amenity":"parking"},"geometry":{"type":"MultiPolygon","coordinates":[[[[-3.20361,51.70408],[-3.20317,51.70402],[-3.2032,51.70387],[-3.20366,51.7039],[-3.20361,51.70408]]]]}},
{ "type":"Feature","properties":{"osm_way_id":"920547394","amenity":"parking"},"geometry":{"type":"MultiPolygon","coordinates":[[[[-3.20303,51.70379],[-3.20274,51.70377],[-3.2027,51.70391],[-3.20301,51.70394],[-3.20303,51.70379]]]]}},
{ "type":"Feature","properties":{"osm_way_id":"920554709","amenity":"parking"},"geometry":{"type":"MultiPolygon","coordinates":[[[[-3.20746,51.70321],[-3.20772,51.70299],[-3.20757,51.70291],[-3.20748,51.70297],[-3.20699,51.70278],[-3.2068,51.70296],[-3.20746,51.70321]]]]}},
{ "type":"Feature","properties":{"osm_way_id":"920564394","amenity":"parking"},"geometry":{"type":"MultiPolygon","coordinates":[[[[-3.20791,51.70178],[-3.20785,51.70178],[-3.20784,51.70171],[-3.20766,51.7017],[-3.20767,51.70161],[-3.20781,51.70155],[-3.20791,51.70154],[-3.20791,51.70178]]]]}},
{ "type":"Feature","properties":{"osm_way_id":"920572215","amenity":"parking"},"geometry":{"type":"MultiPolygon","coordinates":[[[[-3.20044,51.70296],[-3.20031,51.70318],[-3.20012,51.70316],[-3.20025,51.70292],[-3.20044,51.70296]]]]}},
{ "type":"Feature","properties":{"osm_way_id":"920572217","amenity":"parking"},"geometry":{"type":"MultiPolygon","coordinates":[[[[-3.20323,51.70287],[-3.20291,51.70286],[-3.20294,51.70269],[-3.20324,51.70271],[-3.20323,51.70287]]]]}},
{ "type":"Feature","properties":{"osm_way_id":"920572262","amenity":"parking"},"geometry":{"type":"MultiPolygon","coordinates":[[[[-3.20445,51.70186],[-3.20444,51.70186],[-3.20436,51.70186],[-3.20422,51.70186],[-3.20414,51.70186],[-3.20407,51.70185],[-3.20405,51.70172],[-3.20447,51.70172],[-3.20445,51.70186]]]]}},
{ "type":"Feature","properties":{"osm_way_id":"920575853","amenity":"parking"},"geometry":{"type":"MultiPolygon","coordinates":[[[[-3.208,51.69661],[-3.20803,51.69653],[-3.20775,51.69649],[-3.20769,51.69661],[-3.20757,51.69662],[-3.20753,51.69664],[-3.20748,51.69662],[-3.20739,51.69666],[-3.2074,51.69678],[-3.20751,51.69681],[-3.20764,51.69676],[-3.2077,51.69669],[-3.20781,51.69662],[-3.208,51.69661]]]]}},
{ "type":"Feature","properties":{"osm_way_id":"920575855","amenity":"parking","other":{"access":"private"}}, "geometry":{"type":"MultiPolygon","coordinates":[[[[-3.20694,51.69688],[-3.20736,51.69684],[-3.20735,51.69668],[-3.20719,51.69668],[-3.2072,51.69672],[-3.20709,51.69673],[-3.20709,51.69681],[-3.20693,51.69682],[-3.20694,51.69688]]]]}},
{ "type":"Feature","properties":{"osm_way_id":"930208878","amenity":"parking"},"geometry":{"type":"MultiPolygon","coordinates":[[[[-3.21575,51.59084],[-3.21585,51.59076],[-3.21583,51.59075],[-3.21597,51.59063],[-3.21654,51.59092],[-3.21688,51.59065],[-3.21689,51.59063],[-3.21707,51.59062],[-3.21711,51.59079],[-3.21705,51.59084],[-3.21694,51.59085],[-3.21676,51.59098],[-3.2167,51.59094],[-3.21663,51.591],[-3.21667,51.59102],[-3.2166,51.59108],[-3.21661,51.5911],[-3.21653,51.59113],[-3.21645,51.59114],[-3.21637,51.59113],[-3.21629,51.59112],[-3.21575,51.59084]]]]}},
{ "type":"Feature","properties":{"osm_way_id":"948198137","amenity":"parking","other":{"parking":"surface"}}, "geometry":{"type":"MultiPolygon","coordinates":[[[[-3.15042,51.70807],[-3.15002,51.70814],[-3.14993,51.70795],[-3.15033,51.70788],[-3.15042,51.70807]]]]}},
{ "type":"Feature","properties":{"osm_way_id":"960875552","amenity":"parking","other":{"access":"yes","capacity":"20","fee":"yes","payment:credit_cards":"yes","payment:debit_cards":"yes","surface":"asphalt"}}, "geometry":{"type":"MultiPolygon","coordinates":[[[[-3.21657,51.57802],[-3.21701,51.57802],[-3.21716,51.578],[-3.21702,51.57784],[-3.21689,51.57781],[-3.21685,51.57782],[-3.21678,51.57789],[-3.21657,51.57802]]]]}},
{ "type":"Feature","properties":{"osm_way_id":"1009317293","amenity":"parking","other":{"access":"private","addr:city":"Caerphilly","addr:postcode":"CF83 1UA","addr:street":"Castle Street","opening_hours":"Mo-Tu 09:00-17:00; We 10:00-17:00; Th-Fr 09:00-17:00; Sa Off; Su Off","opening_hours:covid19":"Mo-Tu 09:00-17:00; We 10:00-17:00; Th-Fr 09:00-17:00; Sa Off; Su Off","operator":"Jobcentre Plus","operator:type":"government","parking":"surface","phone":"+44 8001 690 190","surface":"asphalt","website":"https:\/\/www.jobcentreplusoffices.com\/jobcentre\/caerphilly-jobcentre\/"}}, "geometry":{"type":"MultiPolygon","coordinates":[[[[-3.21716,51.57766],[-3.21703,51.57764],[-3.21712,51.57753],[-3.21719,51.57754],[-3.21716,51.57766]]]]}},
{ "type":"Feature","properties":{"osm_way_id":"1009317294","amenity":"parking","other":{"access":"customers","addr:city":"Caerphilly","addr:housename":"St Helens Roman Catholic Church","addr:postcode":"CF83 3FB","addr:street":"Nantgarw Road","covered":"no","denomination":"catholic","email":"caerphilly@rcadc.org","operator":"St Helens Roman Catholic Church","operator:type":"religious","parking":"surface","phone":"+44 2920 883 192","surface":"asphalt","website":"https:\/\/sthelenscaerphilly.com\/","wheelchair":"yes"}}, "geometry":{"type":"MultiPolygon","coordinates":[[[[-3.22432,51.57862],[-3.22446,51.57851],[-3.22418,51.57832],[-3.22406,51.57827],[-3.22366,51.57852],[-3.22379,51.57861],[-3.22357,51.57872],[-3.22382,51.57883],[-3.22388,51.5788],[-3.22402,51.57875],[-3.22402,51.57871],[-3.22405,51.57862],[-3.22432,51.57862]]]]}},
{ "type":"Feature","properties":{"osm_way_id":"1009317299","amenity":"parking","other":{"access":"customers","addr:city":"Caerphilly","addr:postcode":"CF83 2SN","addr:street":"Second Avenue","covered":"no","email":"brendagauci@msn.com","operator":"Trecenydd Community Centre","operator:type":"community","parking":"surface","phone":"+44 7974 691 808","surface":"gravel","website":"http:\/\/www.trecenyddcommunitycentre.co.uk\/","wheelchair":"yes"}}, "geometry":{"type":"MultiPolygon","coordinates":[[[[-3.23514,51.57908],[-3.23493,51.57899],[-3.23469,51.57921],[-3.23491,51.5793],[-3.23514,51.57908]]]]}},
{ "type":"Feature","properties":{"osm_way_id":"1009317325","amenity":"parking"},"geometry":{"type":"MultiPolygon","coordinates":[[[[-3.22372,51.57861],[-3.22355,51.57852],[-3.22345,51.57859],[-3.22322,51.57844],[-3.22331,51.57837],[-3.22325,51.57832],[-3.22312,51.5784],[-3.22326,51.57866],[-3.22332,51.57868],[-3.22342,51.57878],[-3.22372,51.57861]]]]}},
{ "type":"Feature","properties":{"osm_way_id":"1009343404","amenity":"parking","other":{"access":"permit","addr:city":"Caerphilly","addr:postcode":"CF83 2SB","addr:street":"Second Avenue","covered":"no","operator":"Cadwyn Housing Association","operator:type":"private_non_profit","parking":"surface","surface":"asphalt","wheelchair":"yes"}}, "geometry":{"type":"MultiPolygon","coordinates":[[[[-3.2342,51.57937],[-3.23433,51.57925],[-3.23418,51.57919],[-3.23405,51.5793],[-3.2342,51.57937]]]]}},
{ "type":"Feature","properties":{"osm_way_id":"1009347063","amenity":"parking","other":{"access":"yes","addr:city":"Caerphilly","addr:postcode":"CF83 1WH","addr:street":"Crescent Road","parking":"surface"}}, "geometry":{"type":"MultiPolygon","coordinates":[[[[-3.22619,51.57496],[-3.2261,51.57487],[-3.2258,51.57497],[-3.22577,51.57493],[-3.22566,51.57497],[-3.22577,51.5751],[-3.22619,51.57496]]]]}},
{ "type":"Feature","properties":{"osm_way_id":"1009348198","amenity":"parking","other":{"access":"private"}}, "geometry":{"type":"MultiPolygon","coordinates":[[[[-3.14266,51.67108],[-3.14285,51.67104],[-3.1429,51.67093],[-3.14289,51.67085],[-3.14311,51.67068],[-3.14294,51.6706],[-3.14271,51.67073],[-3.14266,51.67108]]]]}},
{ "type":"Feature","properties":{"osm_way_id":"1009352610","amenity":"parking","other":{"access":"permit","addr:city":"Caerphilly","addr:postcode":"CF83 1AZ","addr:street":"Nantgarw Road","parking":"surface","surface":"asphalt"}}, "geometry":{"type":"MultiPolygon","coordinates":[[[[-3.22653,51.57725],[-3.22648,51.57724],[-3.22631,51.57704],[-3.2265,51.57695],[-3.22654,51.57702],[-3.22649,51.57703],[-3.22658,51.57721],[-3.22653,51.57725]]]]}},
{ "type":"Feature","properties":{"osm_way_id":"1009352642","amenity":"parking","other":{"access":"private","addr:city":"Caerphilly","addr:postcode":"CF83 1AZ","addr:street":"Heol-y-Parc","covered":"no","parking":"surface","surface":"asphalt"}}, "geometry":{"type":"MultiPolygon","coordinates":[[[[-3.22717,51.57849],[-3.22727,51.57828],[-3.22723,51.57823],[-3.22716,51.57822],[-3.22708,51.57809],[-3.227,51.57806],[-3.22693,51.5781],[-3.22678,51.5784],[-3.22691,51.57842],[-3.22693,51.57842],[-3.22691,51.57845],[-3.22717,51.57849]]]]}},
{ "type":"Feature","properties":{"osm_way_id":"1009353453","amenity":"parking","other":{"addr:city":"Caerphilly","addr:street":"Castle Street","covered":"no","parking":"surface","surface":"asphalt"}}, "geometry":{"type":"MultiPolygon","coordinates":[[[[-3.21758,51.577],[-3.2172,51.57699],[-3.21722,51.57695],[-3.21692,51.57694],[-3.21691,51.57699],[-3.21698,51.57699],[-3.21698,51.57702],[-3.21697,51.57707],[-3.21704,51.57717],[-3.2171,51.57721],[-3.21717,51.57723],[-3.21726,51.57722],[-3.21744,51.57717],[-3.21751,51.57713],[-3.21756,51.57706],[-3.21758,51.577]]]]}},
{ "type":"Feature","properties":{"osm_way_id":"1009353454","amenity":"parking","other":{"addr:city":"Caerphilly","addr:street":"Ton-y-Felin Road","covered":"no","parking":"surface","surface":"asphalt"}}, "geometry":{"type":"MultiPolygon","coordinates":[[[[-3.21658,51.57782],[-3.21655,51.57779],[-3.21644,51.57775],[-3.21621,51.57773],[-3.2161,51.57772],[-3.21604,51.57791],[-3.21609,51.57796],[-3.21613,51.57799],[-3.21631,51.57802],[-3.21648,51.57793],[-3.21658,51.57782]]]]}},
{ "type":"Feature","properties":{"osm_way_id":"1010346733","amenity":"parking","other":{"access":"private","addr:city":"Caerphilly","addr:street":"St. Cenydd Road","covered":"no","parking":"surface"}}, "geometry":{"type":"MultiPolygon","coordinates":[[[[-3.23871,51.57882],[-3.23869,51.57879],[-3.23867,51.5788],[-3.23848,51.57887],[-3.23842,51.5788],[-3.2383,51.57885],[-3.23838,51.57894],[-3.23871,51.57882]]]]}},
{ "type":"Feature","properties":{"osm_way_id":"1015043655","amenity":"parking"},"geometry":{"type":"MultiPolygon","coordinates":[[[[-3.15296,51.56177],[-3.15312,51.56182],[-3.15317,51.56185],[-3.15318,51.5619],[-3.1532,51.56193],[-3.15328,51.56194],[-3.15337,51.56192],[-3.15345,51.56187],[-3.1535,51.56178],[-3.15326,51.5617],[-3.15304,51.56166],[-3.153,51.56171],[-3.15296,51.56177]]]]}},
{ "type":"Feature","properties":{"osm_way_id":"1018250016","amenity":"parking"},"geometry":{"type":"MultiPolygon","coordinates":[[[[-3.27789,51.6509],[-3.27792,51.65087],[-3.27754,51.65075],[-3.27739,51.65071],[-3.27716,51.65068],[-3.27715,51.65072],[-3.27736,51.65073],[-3.27789,51.6509]]]]}},
{ "type":"Feature","properties":{"osm_way_id":"1018250017","amenity":"parking"},"geometry":{"type":"MultiPolygon","coordinates":[[[[-3.27807,51.65124],[-3.27777,51.65116],[-3.27773,51.65111],[-3.27778,51.65099],[-3.27783,51.65099],[-3.27813,51.65104],[-3.27812,51.65114],[-3.27811,51.65116],[-3.27807,51.65124]]]]}}
]
}
