{
"type": "FeatureCollection",
"features": [
{ "type":"Feature","properties":{"osm_way_id":"58805825","building":"warehouse"},"geometry":{"type":"MultiPolygon","coordinates":[[[[-1.35898,52.96112],[-1.35873,52.96116],[-1.35872,52.96112],[-1.35865,52.96113],[-1.35863,52.9611],[-1.35842,52.96113],[-1.35844,52.96116],[-1.35811,52.96121],[-1.35809,52.96117],[-1.35771,52.96122],[-1.35775,52.96133],[-1.35746,52.96137],[-1.35742,52.96126],[-1.3572,52.96129],[-1.35723,52.96137],[-1.35685,52.96142],[-1.3571,52.96209],[-1.35725,52.96207],[-1.35727,52.96212],[-1.35742,52.9621],[-1.35739,52.96202],[-1.35795,52.96194],[-1.35794,52.9619],[-1.35819,52.96186],[-1.35821,52.9619],[-1.35832,52.96188],[-1.35831,52.96185],[-1.35921,52.96173],[-1.35898,52.96112]]]]}},
{ "type":"Feature","properties":{"osm_way_id":"58805830","building":"warehouse"},"geometry":{"type":"MultiPolygon","coordinates":[[[[-1.35774,52.96002],[-1.35668,52.96018],[-1.35672,52.96028],[-1.35599,52.96048],[-1.35551,52.96064],[-1.35577,52.96094],[-1.35567,52.96098],[-1.35584,52.96113],[-1.35717,52.96074],[-1.35716,52.96064],[-1.35793,52.96054],[-1.35774,52.96002]]]]}},
{ "type":"Feature","properties":{"osm_way_id":"58805836","building":"warehouse"},"geometry":{"type":"MultiPolygon","coordinates":[[[[-1.35809,52.96002],[-1.36032,52.96008],[-1.36028,52.96063],[-1.36005,52.96063],[-1.36005,52.9607],[-1.35968,52.96069],[-1.35969,52.96062],[-1.35934,52.96061],[-1.35934,52.96067],[-1.35897,52.96066],[-1.35897,52.96077],[-1.35843,52.96076],[-1.35843,52.96064],[-1.35808,52.96063],[-1.35808,52.96055],[-1.35804,52.96055],[-1.35805,52.96047],[-1.35797,52.96047],[-1.358,52.96008],[-1.35808,52.96008],[-1.35809,52.96002]]]]}},
{ "type":"Feature","properties":{"osm_way_id":"58805844","building":"warehouse"},"geometry":{"type":"MultiPolygon","coordinates":[[[[-1.36392,52.96315],[-1.36156,52.96319],[-1.36155,52.96315],[-1.36167,52.96315],[-1.36166,52.96292],[-1.36173,52.96292],[-1.36172,52.96264],[-1.36337,52.96261],[-1.36389,52.9626],[-1.36392,52.96315]]]]}},
{ "type":"Feature","properties":{"osm_way_id":"58805850","building":"warehouse"},"geometry":{"type":"MultiPolygon","coordinates":[[[[-1.35453,52.96205],[-1.3568,52.96192],[-1.3568,52.96197],[-1.35691,52.96196],[-1.35702,52.96269],[-1.35454,52.96283],[-1.35443,52.96211],[-1.35454,52.9621],[-1.35453,52.96205]]]]}},
{ "type":"Feature","properties":{"osm_way_id":"58805905","building":"warehouse"},"geometry":{"type":"MultiPolygon","coordinates":[[[[-1.36167,52.96028],[-1.36259,52.9609],[-1.36179,52.96133],[-1.36087,52.96072],[-1.36167,52.96028]]]]}},
{ "type":"Feature","properties":{"osm_way_id":"86079557","name":"West Transport","building":"warehouse","other":{"addr:postcode":"DE7 4QU","addr:street":"Low's Lane","addr:subdistrict":"Stanton by Dale","industry":"road haulage","source:addr":"website","source:area":"Bing","website":"http:\/\/www.west-transport.co.uk\/"}}, "geometry":{"type":"MultiPolygon","coordinates":[[[[-1.2872,52.94098],[-1.28749,52.94126],[-1.28543,52.94205],[-1.28535,52.94198],[-1.28528,52.942],[-1.2852,52.94193],[-1.28502,52.94199],[-1.28487,52.94185],[-1.28611,52.94138],[-1.28588,52.94116],[-1.28625,52.94102],[-1.28636,52.94112],[-1.28653,52.94105],[-1.28667,52.94118],[-1.2872,52.94098]]]]}},
{ "type":"Feature","properties":{"osm_way_id":"188977308","name":"Sandicliffe Motor Contracts","building":"warehouse"},"geometry":{"type":"MultiPolygon","coordinates":[[[[-1.27931,52.88474],[-1.27887,52.88482],[-1.27882,52.8847],[-1.27925,52.88462],[-1.27931,52.88474]]]]}},
{ "type":"Feature","properties":{"osm_way_id":"203926641","building":"warehouse"},"geometry":{"type":"MultiPolygon","coordinates":[[[[-1.41091,52.95927],[-1.41064,52.95924],[-1.41041,52.95926],[-1.4104,52.95922],[-1.411,52.95917],[-1.41101,52.95921],[-1.41092,52.95922],[-1.41091,52.95927]]]]}},
{ "type":"Feature","properties":{"osm_way_id":"203926642","building":"warehouse"},"geometry":{"type":"MultiPolygon","coordinates":[[[[-1.41108,52.95944],[-1.41092,52.95942],[-1.41091,52.95945],[-1.41068,52.95942],[-1.41067,52.95945],[-1.41058,52.95943],[-1.41027,52.95939],[-1.41029,52.95931],[-1.41109,52.95941],[-1.41108,52.95944]]]]}},
{ "type":"Feature","properties":{"osm_way_id":"224638546","building":"warehouse"},"geometry":{"type":"MultiPolygon","coordinates":[[[[-1.40297,52.94124],[-1.40293,52.94134],[-1.40251,52.94128],[-1.40255,52.94118],[-1.40297,52.94124]]]]}},
{ "type":"Feature","properties":{"osm_way_id":"224638633","building":"warehouse"},"geometry":{"type":"MultiPolygon","coordinates":[[[[-1.40213,52.94178],[-1.402,52.94201],[-1.40169,52.94194],[-1.40182,52.94171],[-1.40213,52.94178]]]]}},
{ "type":"Feature","properties":{"osm_way_id":"224638676","building":"warehouse"},"geometry":{"type":"MultiPolygon","coordinates":[[[[-1.40274,52.94181],[-1.40262,52.94204],[-1.40232,52.94199],[-1.40245,52.94175],[-1.40274,52.94181]]]]}},
{ "type":"Feature","properties":{"osm_way_id":"224638684","building":"warehouse"},"geometry":{"type":"MultiPolygon","coordinates":[[[[-1.402,52.94156],[-1.40204,52.94148],[-1.40212,52.94149],[-1.40206,52.94161],[-1.40212,52.94162],[-1.40209,52.94168],[-1.40202,52.94167],[-1.40201,52.94168],[-1.40194,52.94167],[-1.40195,52.94164],[-1.40167,52.94158],[-1.40171,52.9415],[-1.40176,52.94151],[-1.402,52.94156]]]]}},
{ "type":"Feature","properties":{"osm_way_id":"224638687","building":"warehouse"},"geometry":{"type":"MultiPolygon","coordinates":[[[[-1.40247,52.94148],[-1.40233,52.94174],[-1.40208,52.94169],[-1.40209,52.94168],[-1.40212,52.94162],[-1.40219,52.94164],[-1.4023,52.94145],[-1.40247,52.94148]]]]}},
{ "type":"Feature","properties":{"osm_way_id":"305920720","name":"Aerosol Solutions Ltd","building":"warehouse","other":{"addr:city":"Derby","addr:postcode":"DE72 3DS","addr:street":"Bridge Field","addr:suburb":"Breaston","addr:unit":"C2","source:postcode":"interpolation","website":"https:\/\/www.aerosolsolutions.co.uk\/"}}, "geometry":{"type":"MultiPolygon","coordinates":[[[[-1.32796,52.89514],[-1.32774,52.89514],[-1.32774,52.89497],[-1.32797,52.89498],[-1.32796,52.89514]]]]}},
{ "type":"Feature","properties":{"osm_way_id":"305920721","name":"Alpha (Maintenance and Building Limited)","building":"warehouse","other":{"addr:city":"Derby","addr:postcode":"DE72 3DS","addr:street":"Bridge Field","addr:suburb":"Breaston","addr:unit":"D1","industry":"property maintenance","source:postcode":"Companies House open data","website":"http:\/\/www.alphamandb.co.uk\/"}}, "geometry":{"type":"MultiPolygon","coordinates":[[[[-1.32871,52.89553],[-1.32848,52.89553],[-1.32848,52.89537],[-1.32871,52.89537],[-1.32871,52.89553]]]]}},
{ "type":"Feature","properties":{"osm_way_id":"305920729","name":"Creative Projects","building":"warehouse","craft":"joiner","other":{"addr:city":"Derby","addr:postcode":"DE72 3DS","addr:street":"Bridge Field","addr:suburb":"Breaston","addr:unit":"A1","source:postcode":"Companies House open data (interpolation)","website":"https:\/\/www.creativeprojectsmids.co.uk\/"}}, "geometry":{"type":"MultiPolygon","coordinates":[[[[-1.32944,52.89522],[-1.32964,52.89543],[-1.3294,52.89551],[-1.3292,52.8953],[-1.32944,52.89522]]]]}},
{ "type":"Feature","properties":{"osm_way_id":"305920731","name":"Exclusive By Design","building":"warehouse","shop":"furniture","other":{"addr:city":"Derby","addr:postcode":"DE72 3DS","addr:street":"Bridge Field","addr:suburb":"Breaston","addr:unit":"C1","furniture":"sofa;chair","source:postcode":"Companies House open data","website":"http:\/\/www.exclusivebydesignuk.co.uk\/"}}, "geometry":{"type":"MultiPolygon","coordinates":[[[[-1.32774,52.89514],[-1.32751,52.89513],[-1.32752,52.89497],[-1.32774,52.89497],[-1.32774,52.89514]]]]}},
{ "type":"Feature","properties":{"osm_way_id":"305920733","name":"HB Jones","building":"warehouse","craft":"builder","other":{"addr:city":"Derby","addr:postcode":"DE72 3DS","addr:street":"Bridge Field","addr:suburb":"Breaston","addr:unit":"B2","source:postcode":"Companies House open data (interpolation)","website":"http:\/\/www.hbjones.co.uk\/"}}, "geometry":{"type":"MultiPolygon","coordinates":[[[[-1.32915,52.89528],[-1.32894,52.89522],[-1.32904,52.89507],[-1.32925,52.89513],[-1.32915,52.89528]]]]}},
{ "type":"Feature","properties":{"osm_way_id":"305920885","name":"Interwood","building":"warehouse","other":{"addr:city":"Derby","addr:postcode":"DE72 3DS","addr:street":"Bridge Field","addr:suburb":"Breaston","addr:unit":"A2","source:postcode":"Companies House open data (interpolation)"}}, "geometry":{"type":"MultiPolygon","coordinates":[[[[-1.32964,52.89543],[-1.32983,52.89564],[-1.32959,52.89572],[-1.3294,52.89551],[-1.32964,52.89543]]]]}},
{ "type":"Feature","properties":{"osm_way_id":"305920886","name":"J.E.T.S. Ltd","building":"warehouse","other":{"addr:city":"Derby","addr:postcode":"DE72 3DS","addr:street":"Bridge Field","addr:suburb":"Breaston","addr:unit":"B1","source:postcode":"Companies House open data"}}, "geometry":{"type":"MultiPolygon","coordinates":[[[[-1.32894,52.89522],[-1.32873,52.89517],[-1.32884,52.89502],[-1.32904,52.89507],[-1.32894,52.89522]]]]}},
{ "type":"Feature","properties":{"osm_way_id":"305920887","name":"London & General Packaging Ltd","building":"warehouse","other":{"addr:city":"Derby","addr:postcode":"DE72 3DS","addr:street":"Bridge Field","addr:suburb":"Breaston","addr:unit":"C4","industry":"packaging","source:postcode":"Companies House open data"}}, "geometry":{"type":"MultiPolygon","coordinates":[[[[-1.32841,52.89515],[-1.32819,52.89514],[-1.32819,52.89498],[-1.32842,52.89498],[-1.32841,52.89515]]]]}},
{ "type":"Feature","properties":{"osm_way_id":"305920891","name":"Trimlace Limited","building":"warehouse","other":{"addr:city":"Derby","addr:postcode":"DE72 3DS","addr:street":"Bridge Field","addr:suburb":"Breaston","addr:unit":"D4","industry":"lace trims","source:postcode":"Companies House open data","website":"http:\/\/www.trimlace.co.uk"}}, "geometry":{"type":"MultiPolygon","coordinates":[[[[-1.32801,52.89552],[-1.32778,52.89552],[-1.32779,52.89536],[-1.32802,52.89536],[-1.32801,52.89552]]]]}},
{ "type":"Feature","properties":{"osm_way_id":"305920899","building":"warehouse","other":{"addr:city":"Derby","addr:postcode":"DE72 3DS","addr:street":"Bridge Field","addr:suburb":"Breaston","addr:unit":"D2","source:postcode":"Companies House open data"}}, "geometry":{"type":"MultiPolygon","coordinates":[[[[-1.32848,52.89553],[-1.32825,52.89553],[-1.32825,52.89537],[-1.32848,52.89537],[-1.32848,52.89553]]]]}},
{ "type":"Feature","properties":{"osm_way_id":"305920900","building":"warehouse","other":{"addr:city":"Derby","addr:postcode":"DE72 3DS","addr:street":"Bridge Field","addr:suburb":"Breaston","addr:unit":"C3","source:postcode":"interpolation"}}, "geometry":{"type":"MultiPolygon","coordinates":[[[[-1.32819,52.89514],[-1.32796,52.89514],[-1.32797,52.89498],[-1.32819,52.89498],[-1.32819,52.89514]]]]}},
{ "type":"Feature","properties":{"osm_way_id":"305920901","building":"warehouse","other":{"addr:city":"Derby","addr:postcode":"DE72 3DS","addr:street":"Bridge Field","addr:suburb":"Breaston","addr:unit":"D3","source:postcode":"Companies House open data"}}, "geometry":{"type":"MultiPolygon","coordinates":[[[[-1.32825,52.89553],[-1.32801,52.89552],[-1.32802,52.89536],[-1.32825,52.89537],[-1.32825,52.89553]]]]}},
{ "type":"Feature","properties":{"osm_way_id":"305920907","building":"warehouse","other":{"addr:city":"Derby","addr:postcode":"DE72 3DS","addr:street":"Bridge Field","addr:suburb":"Breaston","addr:unit":"D5","source:postcode":"Companies House open data"}}, "geometry":{"type":"MultiPolygon","coordinates":[[[[-1.32778,52.89552],[-1.32755,52.89552],[-1.32756,52.89536],[-1.32779,52.89536],[-1.32778,52.89552]]]]}},
{ "type":"Feature","properties":{"osm_way_id":"576314949","building":"warehouse","other":{"source:geometry":"Bing"}}, "geometry":{"type":"MultiPolygon","coordinates":[[[[-1.32558,52.97708],[-1.32626,52.97639],[-1.32562,52.97616],[-1.3254,52.97639],[-1.32534,52.97637],[-1.32506,52.97665],[-1.3251,52.97667],[-1.32493,52.97685],[-1.32558,52.97708]]]]}},
{ "type":"Feature","properties":{"osm_way_id":"696405809","building":"warehouse"},"geometry":{"type":"MultiPolygon","coordinates":[[[[-1.28737,52.94186],[-1.28699,52.9415],[-1.28598,52.94189],[-1.28636,52.94224],[-1.28737,52.94186]]]]}},
{ "type":"Feature","properties":{"osm_way_id":"763368541","building":"warehouse"},"geometry":{"type":"MultiPolygon","coordinates":[[[[-1.41133,52.95945],[-1.41131,52.9595],[-1.41122,52.95949],[-1.41123,52.95944],[-1.41133,52.95945]]]]}}
]
}
