{
"type": "FeatureCollection",
"features": [
{ "type":"Feature","properties":{"osm_id":"8556228769","name":"Green Oranges","other":{"addr:place":"Elan House","addr:postcode":"NG10 1JU","addr:street":"Fletcher Street","addr:unit":"1","fhrs:id":"1355793","shop":"supermarket"}}, "geometry":{"type":"Point","coordinates":[-1.27414,52.89962 ]}},
{ "type":"Feature","properties":{"osm_way_id":"19891076","name":"Asda","building":"yes","shop":"supermarket","other":{"addr:postcode":"NG10 1NY","addr:street":"Midland Street","brand":"Asda","brand:wikidata":"Q297410","brand:wikipedia":"en:Asda","contact:facebook":"https:\/\/www.facebook.com\/asda\/","contact:phone":"+44 115 983 6100","contact:twitter":"@asda","contact:website":"https:\/\/storelocator.asda.com\/east-midlands\/long-eaton\/midland-street","fhrs:id":"252309","opening_hours:covid19":"Mo-Th,Sa 08:00-22:00; Fr 08:00-20:00; Su 10:00-16:00","operator":"Asda Stores Ltd","source:addr":"Food Hygiene Open Data","wheelchair":"yes"}}, "geometry":{"type":"MultiPolygon","coordinates":[[[[-1.27074,52.90221],[-1.27073,52.90212],[-1.27084,52.90212],[-1.27084,52.90207],[-1.27091,52.90206],[-1.27109,52.90193],[-1.27109,52.90137],[-1.27081,52.90137],[-1.27081,52.90127],[-1.2703,52.90127],[-1.27001,52.90127],[-1.2698,52.90127],[-1.2698,52.90136],[-1.26975,52.90136],[-1.26974,52.90187],[-1.27,52.90204],[-1.27007,52.90204],[-1.27006,52.9022],[-1.27074,52.90221]]]]}},
{ "type":"Feature","properties":{"osm_way_id":"33475784","name":"Tesco Extra","building":"yes","shop":"supermarket","other":{"addr:postcode":"NG10 1HG","addr:street":"Waverley Street","brand":"Tesco Extra","brand:wikidata":"Q25172225","brand:wikipedia":"en:Tesco Extra","fhrs:id":"252242","layer":"1","operator":"Tesco","source:addr":"Food Hygiene Open Data"}}, "geometry":{"type":"MultiPolygon","coordinates":[[[[-1.26727,52.89847],[-1.26741,52.89844],[-1.26739,52.8984],[-1.26806,52.89823],[-1.26807,52.89825],[-1.26826,52.8982],[-1.26834,52.89832],[-1.26844,52.89829],[-1.26884,52.89886],[-1.26874,52.89888],[-1.26904,52.89931],[-1.2689,52.89934],[-1.26903,52.89953],[-1.26888,52.89957],[-1.26878,52.89943],[-1.26817,52.89959],[-1.26826,52.89971],[-1.26816,52.89974],[-1.26727,52.89847]]]]}},
{ "type":"Feature","properties":{"osm_way_id":"46673204","name":"Lidl","building":"retail","shop":"supermarket","other":{"addr:city":"Nottingham","addr:postcode":"NG10 5BE","addr:street":"Station Road","addr:suburb":"Sandiacre","brand":"Lidl","brand:wikidata":"Q151954","brand:wikipedia":"en:Lidl","fhrs:id":"252325","not:addr:postcode":"NG10 3BE","source:postcode":"ONS"}}, "geometry":{"type":"MultiPolygon","coordinates":[[[[-1.28632,52.92191],[-1.28738,52.92191],[-1.28738,52.92201],[-1.28728,52.92201],[-1.28728,52.92223],[-1.28632,52.92191]]]]}},
{ "type":"Feature","properties":{"osm_way_id":"51459128","name":"ALDI","building":"retail","shop":"supermarket","other":{"addr:postcode":"NG10 1HD","addr:street":"Cross Street","brand":"ALDI","brand:wikidata":"Q41171672","brand:wikipedia":"en:Aldi","fhrs:id":"251904","source:addr":"Food Hygiene Open Data"}}, "geometry":{"type":"MultiPolygon","coordinates":[[[[-1.26696,52.89753],[-1.26735,52.89742],[-1.2674,52.89743],[-1.26774,52.89784],[-1.26748,52.89792],[-1.26745,52.89787],[-1.26735,52.8979],[-1.26713,52.89764],[-1.26707,52.89766],[-1.26696,52.89753]]]]}},
{ "type":"Feature","properties":{"osm_way_id":"59242810","name":"Tesco Extra","building":"retail","shop":"supermarket","other":{"addr:postcode":"DE7 8DG","addr:street":"Rutland Street","brand":"Tesco Extra","brand:wikidata":"Q25172225","brand:wikipedia":"en:Tesco Extra","fhrs:id":"251780","source:addr":"FHRS Open Data"}}, "geometry":{"type":"MultiPolygon","coordinates":[[[[-1.3072,52.97785],[-1.30718,52.9778],[-1.30722,52.97779],[-1.30719,52.97771],[-1.30712,52.97772],[-1.30709,52.97761],[-1.30715,52.9776],[-1.307,52.97716],[-1.30776,52.97707],[-1.30773,52.97698],[-1.30802,52.97695],[-1.30812,52.97703],[-1.30798,52.97709],[-1.30828,52.9773],[-1.30811,52.97736],[-1.30816,52.97746],[-1.3081,52.97746],[-1.30819,52.97768],[-1.30806,52.97769],[-1.30808,52.97774],[-1.3072,52.97785]]]]}},
{ "type":"Feature","properties":{"osm_way_id":"59337355","name":"M&S Foodhall","building":"retail","shop":"supermarket","other":{"addr:place":"Waterside Retail Park","addr:postcode":"DE7 5LF","addr:street":"Station Road","addr:unit":"Unit 2","brand":"M&S Foodhall","brand:wikidata":"Q714491","brand:wikipedia":"en:Marks & Spencer","building:use":"retail","fhrs:id":"252437","source:addr":"FHRS Open Data"}}, "geometry":{"type":"MultiPolygon","coordinates":[[[[-1.29958,52.9771],[-1.29982,52.97717],[-1.29988,52.9771],[-1.30004,52.97715],[-1.29961,52.97769],[-1.2992,52.97757],[-1.29922,52.97755],[-1.2993,52.97745],[-1.29958,52.9771]]]]}},
{ "type":"Feature","properties":{"osm_way_id":"66745323","name":"ALDI","building":"yes","shop":"supermarket","other":{"addr:city":"Ilkeston","addr:postcode":"DE7 8EG","addr:street":"Manor Road","brand":"ALDI","brand:wikidata":"Q41171672","brand:wikipedia":"en:Aldi","fhrs:id":"252007","not:addr:postcode":"DE7 8TG","source:addr":"FHRS Open Data"}}, "geometry":{"type":"MultiPolygon","coordinates":[[[[-1.31046,52.97727],[-1.31051,52.97748],[-1.31043,52.97749],[-1.31046,52.9776],[-1.31004,52.97764],[-1.31005,52.97766],[-1.3098,52.97768],[-1.30971,52.97734],[-1.31046,52.97727]]]]}},
{ "type":"Feature","properties":{"osm_way_id":"72565502","name":"Co-op Food","building":"retail","shop":"supermarket","other":{"addr:postcode":"DE72 3HE","addr:street":"Victoria Avenue","alt_name":"Borrowash's Co-op","brand":"Co-op Food","brand:wikidata":"Q3277439","brand:wikipedia":"en:Co-op Food","fhrs:id":"251927","operator":"The Co-operative Group","source:addr":"FHRS open data"}}, "geometry":{"type":"MultiPolygon","coordinates":[[[[-1.38051,52.90675],[-1.38047,52.90681],[-1.38049,52.90681],[-1.38038,52.90701],[-1.38046,52.90702],[-1.38048,52.90697],[-1.38099,52.90707],[-1.3811,52.90709],[-1.38121,52.90688],[-1.38116,52.90687],[-1.3809,52.90682],[-1.38059,52.90676],[-1.38051,52.90675]]]]}},
{ "type":"Feature","properties":{"osm_way_id":"84412514","name":"Co-op Food","building":"shop","shop":"supermarket","other":{"addr:city":"Nottingham","addr:postcode":"NG10 5HW","addr:street":"Derby Road","addr:suburb":"Sandiacre","brand":"Co-op Food","brand:wikidata":"Q3277439","brand:wikipedia":"en:Co-op Food","fhrs:id":"252103","source:postcode":"Food hygiene open data"}}, "geometry":{"type":"MultiPolygon","coordinates":[[[[-1.28892,52.92371],[-1.28917,52.92365],[-1.28916,52.9236],[-1.2891,52.9234],[-1.28889,52.92342],[-1.2889,52.92363],[-1.28886,52.92364],[-1.28892,52.92371]]]]}},
{ "type":"Feature","properties":{"osm_way_id":"128274631","name":"Heron Foods","building":"yes","shop":"supermarket","other":{"addr:housenumber":"68-70","addr:postcode":"DE7 8FE","addr:street":"Bath Street","brand":"Heron Foods","brand:wikidata":"Q5743472","brand:wikipedia":"en:Heron Foods","contact:website":"https:\/\/heronfoods.com\/index.php\/storelocator\/store-details\/ilkeston","fhrs:id":"252023","source:addr":"FHRS Open Data"}}, "geometry":{"type":"MultiPolygon","coordinates":[[[[-1.30889,52.97418],[-1.3089,52.97431],[-1.3089,52.97433],[-1.30839,52.97435],[-1.30839,52.97428],[-1.30845,52.97428],[-1.30845,52.97421],[-1.30847,52.97421],[-1.30889,52.97418]]]]}},
{ "type":"Feature","properties":{"osm_way_id":"300065190","name":"Co-op Food","building":"retail","shop":"supermarket","other":{"addr:housenumber":"4","addr:postcode":"DE72 3DU","addr:street":"The Green","alt_name":"Breaston's Co-op","brand":"Co-op Food","brand:wikidata":"Q3277439","brand:wikipedia":"en:Co-op Food","fhrs:id":"252390","operator":"The Co-operative Group","operator:wikidata":"Q117202","operator:wikipedia":"en:The Co-operative Group"}}, "geometry":{"type":"MultiPolygon","coordinates":[[[[-1.31821,52.89725],[-1.31817,52.89729],[-1.31818,52.89741],[-1.31854,52.8974],[-1.31852,52.89724],[-1.31821,52.89725]]]]}},
{ "type":"Feature","properties":{"osm_way_id":"315072595","name":"Morrisons","building":"retail","shop":"supermarket","other":{"addr:city":"Ilkeston","addr:country":"GB","addr:housenumber":"107","addr:postcode":"DE7 5NN","addr:street":"Nottingham Road","brand":"Morrisons","brand:wikidata":"Q922344","brand:wikipedia":"en:Morrisons","fhrs:id":"746149","opening_hours":"Mo-Sa 07:00-22:00; Su 10:00-16:00","source:addr":"FHRS Open Data","source:geometry":"Esri imagery","toilets":"yes","website":"https:\/\/my.morrisons.com\/storefinder\/674","wheelchair":"yes"}}, "geometry":{"type":"MultiPolygon","coordinates":[[[[-1.30578,52.96511],[-1.30551,52.96511],[-1.30551,52.96523],[-1.30477,52.96523],[-1.30477,52.96514],[-1.30467,52.96514],[-1.30467,52.96497],[-1.30463,52.96497],[-1.30463,52.96487],[-1.30465,52.96488],[-1.30467,52.96488],[-1.30468,52.96462],[-1.30468,52.96459],[-1.3046,52.96459],[-1.3046,52.96449],[-1.30476,52.96449],[-1.30475,52.96454],[-1.30498,52.96454],[-1.30579,52.96454],[-1.30579,52.96468],[-1.30578,52.96511]]]]}},
{ "type":"Feature","properties":{"osm_way_id":"363822627","name":"Asda","building":"retail","shop":"supermarket","other":{"addr:city":"Ilkeston","addr:postcode":"DE7 5BN","addr:street":"Nottingham Road","brand":"Asda","brand:wikidata":"Q297410","brand:wikipedia":"en:Asda","fhrs:id":"252584"}}, "geometry":{"type":"MultiPolygon","coordinates":[[[[-1.2949,52.96134],[-1.295,52.96126],[-1.29524,52.96137],[-1.29513,52.96145],[-1.2949,52.96134]]]]}},
{ "type":"Feature","properties":{"osm_way_id":"961890907","name":"M&S Foodhall","building":"yes","shop":"supermarket","other":{"addr:city":"London","addr:housenumber":"820-832","addr:postcode":"NW11 6XL","addr:street":"Finchley Road","brand":"M&S Foodhall","brand:wikidata":"Q714491","brand:wikipedia":"en:Marks & Spencer"}}, "geometry":{"type":"MultiPolygon","coordinates":[[[[-0.19952,51.58348],[-0.1995,51.5835],[-0.19947,51.58351],[-0.19936,51.58353],[-0.19934,51.58351],[-0.19902,51.58355],[-0.19894,51.58353],[-0.1989,51.5834],[-0.19883,51.58341],[-0.19881,51.58335],[-0.19893,51.5833],[-0.19895,51.58333],[-0.19926,51.58329],[-0.19923,51.58322],[-0.19925,51.5832],[-0.19935,51.58317],[-0.19941,51.58317],[-0.19952,51.58348]]]]}}
]
}
