{
"type": "FeatureCollection",
"features": [
{ "type":"Feature","properties":{"osm_id":"364275600","name":"The Co-operative","other":{"addr:city":"Merthyr Tydfil","addr:country":"GB","addr:housename":"Pentrebach Industrial Estate","addr:postcode":"CF48 4BG","contact:website":"https:\/\/www.coop.co.uk\/store-finder\/CF48-4BG\/brown-street","fhrs:id":"918944","shop":"supermarket"}}, "geometry":{"type":"Point","coordinates":[-3.35965,51.72775 ]}},
{ "type":"Feature","properties":{"osm_way_id":"96853929","name":"Tesco Extra","building":"yes","shop":"supermarket","other":{"addr:postcode":"CF47 0AL","addr:street":"Brunel Way","brand":"Tesco Extra","brand:wikidata":"Q25172225","brand:wikipedia":"en:Tesco Extra","contact:website":"https:\/\/www.tesco.com\/store-locator\/merthyr-tydfil\/tramroadside-north","fhrs:id":"919233","source:addr":"FHRS Open Data","wheelchair":"yes"}}, "geometry":{"type":"MultiPolygon","coordinates":[[[[-3.37736,51.7453],[-3.37728,51.7452],[-3.37731,51.74519],[-3.37727,51.74514],[-3.37608,51.74552],[-3.37605,51.74553],[-3.37653,51.74607],[-3.37746,51.74605],[-3.37737,51.74594],[-3.37715,51.74601],[-3.37713,51.74598],[-3.37703,51.74601],[-3.37699,51.74597],[-3.37757,51.74579],[-3.37739,51.74557],[-3.37733,51.74549],[-3.37748,51.74544],[-3.37736,51.7453]]]]}},
{ "type":"Feature","properties":{"osm_way_id":"223611369","name":"Asda","building":"yes","shop":"supermarket","other":{"addr:city":"Merthyr Tydfil","addr:country":"GB","addr:place":"Pengarnddu Industrial Estate","addr:postcode":"CF48 2YF","addr:unit":"E","brand":"Asda","brand:wikidata":"Q297410","brand:wikipedia":"en:Asda","contact:facebook":"https:\/\/www.facebook.com\/asda\/","contact:twitter":"@asda","contact:website":"https:\/\/storelocator.asda.com\/wales\/merthyr-tydfil\/dowlais-top","fhrs:id":"918872","operator":"Asda Stores Ltd"}}, "geometry":{"type":"MultiPolygon","coordinates":[[[[-3.34079,51.76729],[-3.3408,51.76726],[-3.34064,51.76722],[-3.34096,51.7666],[-3.34113,51.76663],[-3.34124,51.76641],[-3.34222,51.76658],[-3.34211,51.76681],[-3.34232,51.76688],[-3.34249,51.76702],[-3.34261,51.76704],[-3.34254,51.76718],[-3.34241,51.76716],[-3.34215,51.76724],[-3.34194,51.7672],[-3.34179,51.76744],[-3.34163,51.76747],[-3.34079,51.76729]]]]}},
{ "type":"Feature","properties":{"osm_way_id":"223611370","name":"Lidl","building":"yes","shop":"supermarket","other":{"addr:postcode":"CF48 2TA","brand":"Lidl","brand:wikidata":"Q151954","brand:wikipedia":"en:Lidl","fhrs:id":"947621","operator":"Lidl","source:addr:postcode":"FHRS Open Data"}}, "geometry":{"type":"MultiPolygon","coordinates":[[[[-3.33682,51.76706],[-3.33703,51.76726],[-3.33641,51.76752],[-3.3362,51.76732],[-3.33682,51.76706]]]]}},
{ "type":"Feature","properties":{"osm_way_id":"927061300","building":"yes"},"geometry":{"type":"MultiPolygon","coordinates":[[[[-3.3815,51.751],[-3.38143,51.75106],[-3.38148,51.75109],[-3.38156,51.75103],[-3.3816,51.75099],[-3.38157,51.75098],[-3.38153,51.75101],[-3.3815,51.751]]]]}},
{ "type":"Feature","properties":{"osm_way_id":"929903725","building":"yes"},"geometry":{"type":"MultiPolygon","coordinates":[[[[-3.39203,51.76324],[-3.39204,51.76332],[-3.39196,51.76333],[-3.39195,51.76325],[-3.39203,51.76324]]]]}},
{ "type":"Feature","properties":{"osm_way_id":"946422160","building":"house","other":{"addr:housenumber":"9","addr:postcode":"CF48 3NP","addr:street":"Rees Street","building:levels":"2"}}, "geometry":{"type":"MultiPolygon","coordinates":[[[[-3.35332,51.76667],[-3.35332,51.76664],[-3.35339,51.76665],[-3.35338,51.76668],[-3.35339,51.76668],[-3.35339,51.76671],[-3.35338,51.76678],[-3.3533,51.76677],[-3.35332,51.76667]]]]}}
]
}
