{
"type": "FeatureCollection",
"features": [
{ "type":"Feature","properties":{"osm_id":"1561118536","name":"M&S Foodhall","other":{"shop":"supermarket","brand":"M&S Foodhall","brand:wikidata":"Q714491","brand:wikipedia":"en:Marks & Spencer"}}, "geometry":{"type":"Point","coordinates":[-1.64035,52.60763 ]}},
{ "type":"Feature","properties":{"osm_id":"4280664695","name":"Spar","other":{"addr:city":"Tamworth","addr:postcode":"B78 1SS","addr:street":"Watling Street","brand":"Spar","brand:wikidata":"Q610492","brand:wikipedia":"en:Spar (retailer)","opening_hours":"Mo-su 05:00-23:00","shop":"supermarket"}}, "geometry":{"type":"Point","coordinates":[-1.60874,52.5962 ]}},
{ "type":"Feature","properties":{"osm_way_id":"150762384","name":"Aldi","building":"yes","shop":"supermarket","other":{"addr:city":"Atherstone","addr:housenumber":"32","addr:postcode":"CV9 1BZ","addr:street":"Station Street","brand":"ALDI","brand:wikidata":"Q41171672","brand:wikipedia":"en:Aldi","fhrs:id":"462796","source:addr":"FHRS Open Data"}}, "geometry":{"type":"MultiPolygon","coordinates":[[[[-1.54954,52.57792],[-1.54927,52.57785],[-1.54936,52.57772],[-1.54903,52.57764],[-1.54911,52.57753],[-1.54936,52.57759],[-1.54945,52.57746],[-1.54985,52.57756],[-1.54975,52.5777],[-1.5497,52.57769],[-1.54954,52.57792]]]]}},
{ "type":"Feature","properties":{"osm_way_id":"150762415","name":"Co-op Food","building":"yes","shop":"supermarket","other":{"addr:city":"Atherstone","addr:postcode":"CV9 1BZ","addr:street":"Station Street","brand":"Co-op Food","brand:wikidata":"Q3277439","brand:wikipedia":"en:Co-op Food","fhrs:id":"283140","opening_hours":"Mo-Sa 07:00-21:00; Su 10:00-16:00","operator":"Central England Co-operative"}}, "geometry":{"type":"MultiPolygon","coordinates":[[[[-1.55095,52.57779],[-1.55091,52.5778],[-1.55087,52.57779],[-1.55083,52.57773],[-1.55085,52.57771],[-1.55081,52.57766],[-1.55091,52.57752],[-1.551,52.57749],[-1.55102,52.57745],[-1.55119,52.5774],[-1.55126,52.57748],[-1.55133,52.57746],[-1.55182,52.57807],[-1.55166,52.57811],[-1.55157,52.578],[-1.55121,52.57811],[-1.55095,52.57779]]]]}},
{ "type":"Feature","properties":{"osm_way_id":"173956205","name":"Coleshill Local Supermarket","building":"yes","shop":"supermarket","other":{"addr:city":"Coleshill","addr:street":"High Street","addr:postcode":"B46 3AH","opening_hours":"Mo-Su 07:00-22:00"}}, "geometry":{"type":"MultiPolygon","coordinates":[[[[-1.70703,52.49916],[-1.70713,52.49914],[-1.70712,52.49911],[-1.70712,52.4991],[-1.70711,52.4991],[-1.70715,52.49909],[-1.70715,52.4991],[-1.70716,52.49911],[-1.70718,52.4991],[-1.70719,52.49912],[-1.70726,52.49911],[-1.70725,52.49908],[-1.7074,52.49906],[-1.70739,52.49905],[-1.70739,52.49904],[-1.7075,52.49902],[-1.7075,52.49903],[-1.70751,52.49904],[-1.70756,52.49902],[-1.70763,52.49916],[-1.70742,52.4992],[-1.70742,52.49921],[-1.70725,52.49924],[-1.70725,52.49925],[-1.70708,52.49928],[-1.70703,52.49916]]]]}},
{ "type":"Feature","properties":{"osm_way_id":"173956262","name":"One Stop Convenience Store","building":"yes","shop":"supermarket"},"geometry":{"type":"MultiPolygon","coordinates":[[[[-1.70614,52.49763],[-1.70617,52.49767],[-1.70638,52.4976],[-1.70641,52.49763],[-1.70648,52.49772],[-1.70631,52.49778],[-1.70611,52.49784],[-1.70598,52.49769],[-1.70614,52.49763]]]]}},
{ "type":"Feature","properties":{"osm_way_id":"194172338","name":"Morrisons","building":"supermarket","shop":"supermarket","other":{"addr:postcode":"B46 1AS","brand":"Morrisons","brand:wikidata":"Q922344","brand:wikipedia":"en:Morrisons","toilets":"yes","toilets:wheelchair":"yes","wheelchair":"limited"}}, "geometry":{"type":"MultiPolygon","coordinates":[[[[-1.70995,52.49885],[-1.70947,52.49902],[-1.70906,52.49859],[-1.70937,52.49848],[-1.70949,52.4986],[-1.70966,52.49854],[-1.70995,52.49885]]]]}},
{ "type":"Feature","properties":{"osm_way_id":"300110796","name":"Co-op Food","building":"yes","shop":"supermarket","other":{"addr:city":"Atherstone","addr:housenumber":"119-123","addr:postcode":"CV9 1AB","addr:street":"Long Street","brand":"Co-op Food","brand:wikidata":"Q3277439","brand:wikipedia":"en:Co-op Food","fhrs:id":"139084","opening_hours":"Mo-Sa 07:00-21:00; Su 10:00-16:00","operator":"Central England Co-operative"}}, "geometry":{"type":"MultiPolygon","coordinates":[[[[-1.54582,52.57699],[-1.54564,52.57695],[-1.54578,52.57676],[-1.54596,52.57652],[-1.546,52.57654],[-1.54597,52.57657],[-1.54608,52.5766],[-1.546,52.57669],[-1.54605,52.57671],[-1.54594,52.57684],[-1.54582,52.57699]]]]}},
{ "type":"Feature","properties":{"osm_way_id":"312738373","name":"The Co-operative Food","building":"yes","shop":"supermarket","other":{"operator":"Tamworth Co-operative Society"}}, "geometry":{"type":"MultiPolygon","coordinates":[[[[-1.68251,52.56741],[-1.6822,52.56755],[-1.68217,52.56753],[-1.68207,52.56757],[-1.68199,52.56751],[-1.68231,52.56737],[-1.68229,52.56736],[-1.68239,52.56732],[-1.68251,52.56741]]]]}},
{ "type":"Feature","properties":{"osm_way_id":"357896759","name":"Co-op Food","building":"yes","shop":"supermarket","other":{"brand":"Co-op Food","brand:wikidata":"Q3277439","brand:wikipedia":"en:Co-op Food","operator":"Tamworth Co-operative Society"}}, "geometry":{"type":"MultiPolygon","coordinates":[[[[-1.61254,52.62039],[-1.61256,52.62056],[-1.61233,52.62057],[-1.61231,52.6204],[-1.61254,52.62039]]]]}},
{ "type":"Feature","properties":{"osm_way_id":"358058411","name":"Co-op Food","building":"yes","shop":"supermarket","other":{"brand":"Co-op Food","brand:wikidata":"Q3277439","brand:wikipedia":"en:Co-op Food","operator":"Heart of England Co-operative Society"}}, "geometry":{"type":"MultiPolygon","coordinates":[[[[-1.56684,52.50506],[-1.56671,52.50517],[-1.56647,52.50506],[-1.56638,52.50502],[-1.5665,52.50491],[-1.56684,52.50506]]]]}},
{ "type":"Feature","properties":{"osm_way_id":"590464433","name":"The Co-operative Wood End","building":"yes","shop":"supermarket","other":{"operator":"Tamworth Cooperative"}}, "geometry":{"type":"MultiPolygon","coordinates":[[[[-1.64452,52.5834],[-1.64443,52.58334],[-1.64468,52.58319],[-1.64477,52.58324],[-1.64452,52.5834]]]]}},
{ "type":"Feature","properties":{"osm_way_id":"705495704","name":"ALDI","building":"yes","shop":"supermarket","other":{"brand":"ALDI","brand:wikidata":"Q41171672","brand:wikipedia":"en:Aldi"}}, "geometry":{"type":"MultiPolygon","coordinates":[[[[-1.70575,52.50677],[-1.70584,52.507],[-1.70503,52.50711],[-1.70491,52.50675],[-1.70561,52.50667],[-1.70562,52.50671],[-1.70576,52.50669],[-1.70579,52.50677],[-1.70575,52.50677]]]]}}
]
}
