{
"type": "FeatureCollection",
"features": [
{ "type":"Feature","properties":{"osm_id":"432832305","name":"Co-op","other":{"shop":"supermarket"}}, "geometry":{"type":"Point","coordinates":[-3.60111,50.60516 ]}},
{ "type":"Feature","properties":{"osm_id":"540741976","name":"Tesco Express","other":{"addr:city":"Newton Abbot","addr:housenumber":"47","addr:postcode":"TQ13 9AB","addr:street":"Fore Street","brand":"Tesco Express","brand:wikidata":"Q98456772","contact:website":"https:\/\/www.tesco.com\/store-locator\/newton-abbot\/47-fore-st","shop":"supermarket"}}, "geometry":{"type":"Point","coordinates":[-3.67449,50.59385 ]}},
{ "type":"Feature","properties":{"osm_id":"4783196031","name":"Co-op Food","other":{"brand":"Co-op Food","brand:wikidata":"Q3277439","brand:wikipedia":"en:Co-op Food","shop":"supermarket"}}, "geometry":{"type":"Point","coordinates":[-3.67543,50.59196 ]}},
{ "type":"Feature","properties":{"osm_id":"6033007993","name":"Co-op Food","other":{"addr:city":"Teignmouth","addr:housenumber":"8","addr:postcode":"TQ14 8AL","addr:street":"Bank Street","atm":"yes","brand":"Co-op Food","brand:wikidata":"Q3277439","brand:wikipedia":"en:Co-op Food","fhrs:id":"11654","fhrs:local_authority_id":"04\/00780\/MIXED","opening_hours":"Mo-Su 07:00-22:00","operator":"Co-operative Group","shop":"supermarket"}}, "geometry":{"type":"Point","coordinates":[-3.49642,50.54615 ]}},
{ "type":"Feature","properties":{"osm_id":"6035297847","name":"The Co-operative Food","other":{"shop":"supermarket"}}, "geometry":{"type":"Point","coordinates":[-3.46701,50.58128 ]}},
{ "type":"Feature","properties":{"osm_id":"8848652509","name":"The Co-operative Food","other":{"addr:city":"Moretonhampstead","addr:postcode":"TQ13 8NE","addr:street":"Court Street","atm":"yes","opening_hours":"Mo-Su 07:00-22:00","shop":"supermarket"}}, "geometry":{"type":"Point","coordinates":[-3.76589,50.66077 ]}},
{ "type":"Feature","properties":{"osm_way_id":"24552307","name":"Sainsbury's","building":"yes","shop":"supermarket","other":{"addr:city":"Newton Abbot","addr:postcode":"TQ12 1BN","addr:street":"Penn Inn","alt_name":"Sainsbury's Newton Abbot Superstore","brand":"Sainsbury's","brand:wikidata":"Q152096"}}, "geometry":{"type":"MultiPolygon","coordinates":[[[[-3.59429,50.52337],[-3.59393,50.52341],[-3.59332,50.52347],[-3.59303,50.52234],[-3.59333,50.52231],[-3.59335,50.52241],[-3.5936,50.52238],[-3.59362,50.52248],[-3.59368,50.52247],[-3.5937,50.52254],[-3.59351,50.52256],[-3.59356,50.52275],[-3.59386,50.52272],[-3.59392,50.52275],[-3.59394,50.52281],[-3.59406,50.5228],[-3.59407,50.52284],[-3.59412,50.52284],[-3.59414,50.52292],[-3.59417,50.52291],[-3.59429,50.52337]]]]}},
{ "type":"Feature","properties":{"osm_way_id":"127325400","name":"Sainsbury's","building":"yes","shop":"supermarket","other":{"brand":"Sainsbury's","brand:wikidata":"Q152096","brand:wikipedia":"en:Sainsbury's"}}, "geometry":{"type":"MultiPolygon","coordinates":[[[[-3.46124,50.59899],[-3.46104,50.59838],[-3.46022,50.59849],[-3.46045,50.59918],[-3.46055,50.59917],[-3.46052,50.59909],[-3.46124,50.59899]]]]}},
{ "type":"Feature","properties":{"osm_way_id":"136387254","name":"Tesco","building":"yes","shop":"supermarket","other":{"addr:city":"Newton Abbot","addr:postcode":"TQ12 3RN","addr:street":"Newton Road","alt_name":"Tesco Newton Abbot Kingsteignton Superstore","brand":"Tesco","brand:wikidata":"Q487494","toilets:wheelchair":"yes","wheelchair":"yes"}}, "geometry":{"type":"MultiPolygon","coordinates":[[[[-3.6013,50.54093],[-3.60155,50.54072],[-3.60155,50.54063],[-3.60179,50.5404],[-3.60193,50.54044],[-3.60197,50.54038],[-3.60207,50.54038],[-3.60219,50.54031],[-3.60239,50.54018],[-3.60245,50.54015],[-3.60308,50.54053],[-3.60271,50.54078],[-3.60249,50.541],[-3.6026,50.54104],[-3.60222,50.54135],[-3.6021,50.54137],[-3.60148,50.54109],[-3.6014,50.54102],[-3.60131,50.54098],[-3.6013,50.54093]]]]}},
{ "type":"Feature","properties":{"osm_way_id":"148973747","name":"Co-op Food","building":"retail","shop":"supermarket","other":{"addr:city":"Newton Abbot","addr:postcode":"TQ12 6JD","addr:street":"Liverton","brand":"Co-op Food","brand:wikidata":"Q3277439","brand:wikipedia":"en:Co-op Food","opening_hours":"Mo-Sa 07:00-20:00; Su 11:00-17:00","operator":"Co-op"}}, "geometry":{"type":"MultiPolygon","coordinates":[[[[-3.66309,50.55871],[-3.6628,50.5591],[-3.6623,50.55895],[-3.6626,50.55856],[-3.66309,50.55871]]]]}},
{ "type":"Feature","properties":{"osm_way_id":"166511638","name":"Asda","building":"yes","shop":"supermarket","other":{"addr:city":"Newton Abbot","addr:country":"GB","addr:postcode":"TQ12 1TG","addr:street":"Highweek Street","alt_name":"ASDA Newton Abbot Superstore","brand":"Asda","brand:wikidata":"Q297410","brand:wikipedia":"en:Asda","contact:facebook":"https:\/\/www.facebook.com\/asda\/","contact:twitter":"@asda","contact:website":"https:\/\/storelocator.asda.com\/south-west\/newton-abbot\/highweek-street","fhrs:id":"18802","operator":"Asda Stores Ltd"}}, "geometry":{"type":"MultiPolygon","coordinates":[[[[-3.61511,50.52994],[-3.61515,50.52991],[-3.61516,50.52989],[-3.61513,50.52984],[-3.61509,50.52982],[-3.61505,50.52983],[-3.61502,50.52983],[-3.61456,50.52994],[-3.61441,50.52998],[-3.61429,50.53002],[-3.61417,50.53006],[-3.61409,50.5301],[-3.61395,50.53017],[-3.61388,50.53021],[-3.61386,50.53023],[-3.61386,50.53025],[-3.61388,50.53027],[-3.61391,50.53028],[-3.61394,50.53028],[-3.61403,50.53027],[-3.61414,50.53041],[-3.61421,50.53051],[-3.61429,50.53061],[-3.61443,50.53079],[-3.61528,50.53051],[-3.61527,50.5305],[-3.6153,50.53049],[-3.61533,50.53052],[-3.6157,50.53044],[-3.61578,50.53033],[-3.61567,50.53014],[-3.61535,50.53024],[-3.61517,50.53002],[-3.61511,50.52994]]]]}},
{ "type":"Feature","properties":{"osm_way_id":"187777232","name":"Lidl","building":"yes","shop":"supermarket","other":{"addr:city":"Newton Abbot","addr:postcode":"TQ12 3AJ","addr:street":"Newton Road","alt_name":"LIDL Kingsteignton","brand":"Lidl","brand:wikidata":"Q151954","brand:wikipedia":"en:Lidl","fhrs:id":"31422","wheelchair":"yes"}}, "geometry":{"type":"MultiPolygon","coordinates":[[[[-3.59767,50.54522],[-3.5974,50.54513],[-3.59701,50.54559],[-3.59729,50.54569],[-3.59735,50.54561],[-3.59741,50.54563],[-3.59771,50.54528],[-3.59764,50.54525],[-3.59767,50.54522]]]]}},
{ "type":"Feature","properties":{"osm_way_id":"216731351","name":"Coop","building":"yes","shop":"supermarket"},"geometry":{"type":"MultiPolygon","coordinates":[[[[-3.58062,50.49909],[-3.58079,50.49892],[-3.58068,50.49888],[-3.58051,50.49905],[-3.58062,50.49909]]]]}},
{ "type":"Feature","properties":{"osm_way_id":"228050553","name":"Lidl","building":"retail","shop":"supermarket","other":{"addr:city":"Teignmouth","addr:country":"GB","addr:postcode":"TQ14 8HR","addr:street":"Lower Brook Street","brand":"Lidl","brand:wikidata":"Q151954","brand:wikipedia":"en:Lidl","contact:phone":"+44 8009 777766","fhrs:id":"1223710","opening_hours":"Mo-Sa 08:00-22:00; Su 10:00-16:00","website":"https:\/\/lidl.co.uk\/"}}, "geometry":{"type":"MultiPolygon","coordinates":[[[[-3.49513,50.54763],[-3.4951,50.54729],[-3.49507,50.54725],[-3.49507,50.54716],[-3.49515,50.54715],[-3.49516,50.54728],[-3.49585,50.54726],[-3.49593,50.54733],[-3.49595,50.54762],[-3.49513,50.54763]]]]}},
{ "type":"Feature","properties":{"osm_way_id":"228189724","name":"Co-op Food","building":"yes","shop":"supermarket","other":{"addr:city":"Newton Abbot","addr:postcode":"TQ12 5RH","addr:street":"Fore Street","brand":"Co-op Food","brand:wikidata":"Q3277439","brand:wikipedia":"en:Co-op Food","designation":"The Co-operative Food"}}, "geometry":{"type":"MultiPolygon","coordinates":[[[[-3.64229,50.48804],[-3.64234,50.48798],[-3.64245,50.48802],[-3.64248,50.48797],[-3.64219,50.48788],[-3.64211,50.48798],[-3.64229,50.48804]]]]}},
{ "type":"Feature","properties":{"osm_way_id":"233753941","name":"Iceland","building":"yes","shop":"supermarket","other":{"addr:city":"Newton Abbot","addr:housenumber":"23","addr:postcode":"TQ12 2QH","addr:street":"Courtenay Street","brand":"Iceland","brand:wikidata":"Q721810","designation":"Newton Abbot"}}, "geometry":{"type":"MultiPolygon","coordinates":[[[[-3.61069,50.53048],[-3.61064,50.53042],[-3.61069,50.5304],[-3.61067,50.53037],[-3.61053,50.5302],[-3.61078,50.53012],[-3.61088,50.53024],[-3.61084,50.53026],[-3.61094,50.53041],[-3.61069,50.53048]]]]}},
{ "type":"Feature","properties":{"osm_way_id":"302683573","name":"Morrisons","building":"yes","shop":"supermarket","other":{"addr:city":"Teignmouth","addr:housename":"Morrisons","addr:postcode":"TQ14 9WP","addr:street":"Newfoundland Road","branch":"Teignmouth","brand":"Morrisons","brand:wikidata":"Q922344","brand:wikipedia":"en:Morrisons","opening_hours":"Mo-Sa 07:00-22:00; Su 10:00-16:00"}}, "geometry":{"type":"MultiPolygon","coordinates":[[[[-3.51853,50.54873],[-3.51802,50.54889],[-3.51806,50.54894],[-3.51789,50.54899],[-3.5178,50.54888],[-3.51744,50.5484],[-3.51812,50.54819],[-3.51853,50.54873]]]]}},
{ "type":"Feature","properties":{"osm_way_id":"306597653","name":"Co-op","building":"yes","shop":"supermarket","other":{"addr:city":"Ashburton","addr:housenumber":"10","addr:postcode":"TQ13 7QD","addr:street":"North Street","alt_name":"The Co-operative Food","building:levels":"1","opening_hours":"Mo-Su 07:00-23:00","phone":"+44 1364 652269","roof:shape":"gabled","website":"https:\/\/www.coop.co.uk\/"}}, "geometry":{"type":"MultiPolygon","coordinates":[[[[-3.75647,50.51574],[-3.75638,50.5157],[-3.75628,50.51579],[-3.75614,50.51593],[-3.75621,50.51595],[-3.75635,50.51582],[-3.75638,50.51583],[-3.75647,50.51574]]]]}},
{ "type":"Feature","properties":{"osm_way_id":"306597654","name":"SPAR","building":"yes","shop":"supermarket","other":{"addr:city":"Ashburton","addr:housenumber":"1","addr:postcode":"TQ13 7QJ","addr:street":"North Street","branch":"Gilletts SPAR Ashburton","brand":"Spar","brand:wikidata":"Q610492","building:levels":"2","opening_hours":"Mo-Su 07:00-23:00","roof:shape":"gabled"}}, "geometry":{"type":"MultiPolygon","coordinates":[[[[-3.7565,50.51553],[-3.75649,50.51553],[-3.75637,50.51548],[-3.7564,50.51546],[-3.75633,50.51542],[-3.75622,50.51549],[-3.75643,50.51559],[-3.7565,50.51553]]]]}},
{ "type":"Feature","properties":{"osm_way_id":"326214941","name":"The Co-op","shop":"supermarket","other":{"addr:city":"Buckfastleigh","addr:housename":"The Co-op","addr:housenumber":"33","addr:postcode":"TQ11 0AB","addr:street":"Chapel Street"}}, "geometry":{"type":"MultiPolygon","coordinates":[[[[-3.77919,50.48134],[-3.77903,50.48133],[-3.77907,50.48105],[-3.77914,50.48105],[-3.77915,50.48102],[-3.77921,50.481],[-3.7792,50.48106],[-3.77937,50.48107],[-3.77935,50.48112],[-3.77923,50.48112],[-3.77919,50.48134]]]]}},
{ "type":"Feature","properties":{"osm_way_id":"602707164","name":"Costcutter","building":"yes","shop":"supermarket","other":{"brand":"Costcutter","brand:wikidata":"Q5175072","brand:wikipedia":"en:Costcutter","opening_hours":"Mo-Sa 08:00-20:00","payment:cash":"yes","payment:credit_cards":"yes","payment:visa":"yes"}}, "geometry":{"type":"MultiPolygon","coordinates":[[[[-3.47142,50.58188],[-3.47136,50.58179],[-3.47133,50.58175],[-3.4715,50.5817],[-3.47159,50.58184],[-3.47142,50.58188]]]]}},
{ "type":"Feature","properties":{"osm_way_id":"663245211","name":"Aldi","shop":"supermarket","other":{"addr:city":"Newton Abbot","addr:street":"Forde Close","brand":"ALDI","brand:wikidata":"Q41171672","brand:wikipedia":"en:Aldi","opening_hours":"Mo-Sa 08:00-22:00; Su 10:00-16:00","opening_hours:covid19":"open","wheelchair":"yes"}}, "geometry":{"type":"MultiPolygon","coordinates":[[[[-3.59818,50.5284],[-3.59861,50.52796],[-3.59878,50.52777],[-3.59889,50.52756],[-3.59891,50.52716],[-3.59886,50.52703],[-3.59886,50.52701],[-3.59885,50.52698],[-3.59884,50.52695],[-3.59882,50.52691],[-3.5987,50.52664],[-3.59869,50.52662],[-3.59868,50.5266],[-3.59789,50.52637],[-3.59775,50.5264],[-3.59762,50.52655],[-3.59818,50.52673],[-3.59837,50.52713],[-3.59835,50.52723],[-3.59789,50.52837],[-3.59818,50.5284]]]]}}
]
}
