{
"type": "FeatureCollection",
"features": [
{ "type":"Feature","properties":{"osm_id":"1550517795","name":"Lidl","other":{"addr:country":"GB","addr:housename":"Staple Tye Shopping Centre","addr:postcode":"CM18 7PJ","addr:street":"Southern Way","addr:unit":"1","brand":"Lidl","brand:wikidata":"Q151954","brand:wikipedia":"en:Lidl","fhrs:id":"872352","shop":"supermarket"}}, "geometry":{"type":"Point","coordinates":[0.09286,51.75348 ]}},
{ "type":"Feature","properties":{"osm_id":"2202903199","name":"Asda","other":{"addr:city":"Harlow","addr:country":"GB","addr:housename":"The Water Gardens","addr:postcode":"CM20 1AN","addr:street":"South Gate","brand":"Asda","brand:wikidata":"Q297410","brand:wikipedia":"en:Asda","contact:facebook":"https:\/\/www.facebook.com\/asda\/","contact:phone":"+44 1279 459700","contact:twitter":"@asda","contact:website":"https:\/\/storelocator.asda.com\/east-of-england\/harlow\/watergardens-southgate","fhrs:id":"872440","opening_hours:covid19":"Mo-Sa 08:00-22:00; Su 11:00-17:00","operator":"Asda Stores Ltd","shop":"supermarket"}}, "geometry":{"type":"Point","coordinates":[0.0962,51.76719 ]}},
{ "type":"Feature","properties":{"osm_id":"2453273103","name":"Coppice Hatch Supermarket","other":{"shop":"supermarket"}}, "geometry":{"type":"Point","coordinates":[0.09656,51.75871 ]}},
{ "type":"Feature","properties":{"osm_id":"2642065769","name":"Tesco Metro","other":{"addr:housenumber":"1-6","addr:street":"Harvey Centre (Ground Floor)","brand":"Tesco Metro","brand:wikidata":"Q57551648","brand:wikipedia":"en:Tesco","operator":"Tesco Stores Ltd","shop":"supermarket"}}, "geometry":{"type":"Point","coordinates":[0.09133,51.76915 ]}},
{ "type":"Feature","properties":{"osm_id":"2994709096","name":"Mini Delikatesy Kubus","other":{"shop":"supermarket"}}, "geometry":{"type":"Point","coordinates":[0.09224,51.7699 ]}},
{ "type":"Feature","properties":{"osm_id":"8820664188","name":"The Food Warehouse","other":{"brand":"The Food Warehouse","brand:wikidata":"Q87263899","shop":"supermarket"}}, "geometry":{"type":"Point","coordinates":[0.11003,51.78151 ]}},
{ "type":"Feature","properties":{"osm_id":"9373696889","name":"Spar","other":{"brand":"Spar","brand:wikidata":"Q610492","brand:wikipedia":"en:SPAR (retailer)","shop":"supermarket"}}, "geometry":{"type":"Point","coordinates":[0.11846,51.75272 ]}},
{ "type":"Feature","properties":{"osm_way_id":"29180290","name":"Tesco","building":"yes","shop":"supermarket","other":{"addr:city":"Harlow","addr:county":"Essex","addr:postcode":"CM17 9TE","addr:street":"Church Langley Way","brand":"Tesco","brand:wikidata":"Q487494","brand:wikipedia":"en:Tesco","contact:website":"https:\/\/www.tesco.com\/store-locator\/harlow\/church-langley-way","fhrs:id":"872185","operator":"Tesco Stores Ltd","source:addr":"FHRS Open Data"}}, "geometry":{"type":"MultiPolygon","coordinates":[[[[0.13292,51.76646],[0.13275,51.76631],[0.1333,51.76601],[0.13309,51.76585],[0.13281,51.76568],[0.13264,51.76574],[0.1325,51.76565],[0.1327,51.76553],[0.13258,51.76546],[0.1323,51.76553],[0.13168,51.76588],[0.1319,51.76603],[0.13214,51.76616],[0.132,51.76625],[0.13241,51.7665],[0.13257,51.76642],[0.13275,51.76653],[0.13292,51.76646]]]]}},
{ "type":"Feature","properties":{"osm_way_id":"208430219","name":"Tesco","building":"yes","shop":"supermarket","other":{"addr:postcode":"CM20 2TG","brand":"Tesco","brand:wikidata":"Q487494","brand:wikipedia":"en:Tesco","layer":"-1","operator":"Tesco Stores Ltd"}}, "geometry":{"type":"MultiPolygon","coordinates":[[[[0.12454,51.78575],[0.12455,51.78574],[0.12469,51.78553],[0.12458,51.7855],[0.12484,51.78511],[0.12463,51.78506],[0.12468,51.78499],[0.12489,51.78504],[0.12487,51.78507],[0.1251,51.78513],[0.12512,51.7851],[0.12503,51.78508],[0.12513,51.78492],[0.12524,51.78495],[0.12523,51.78497],[0.12539,51.78501],[0.1253,51.78514],[0.12528,51.78517],[0.12581,51.7853],[0.1257,51.78548],[0.12573,51.78549],[0.12541,51.78597],[0.12523,51.78593],[0.12516,51.78602],[0.12509,51.78605],[0.12482,51.786],[0.12478,51.78595],[0.12486,51.78583],[0.1248,51.78581],[0.12454,51.78575]]]]}},
{ "type":"Feature","properties":{"osm_way_id":"208474416","name":"Sainsbury's","building":"yes","shop":"supermarket","other":{"addr:city":"Harlow","addr:postcode":"CM20 2AG","brand":"Sainsbury's","brand:wikidata":"Q152096","brand:wikipedia":"en:Sainsbury's","layer":"-1"}}, "geometry":{"type":"MultiPolygon","coordinates":[[[[0.09212,51.77418],[0.09229,51.77381],[0.09244,51.77383],[0.09246,51.77378],[0.09268,51.77382],[0.09271,51.77376],[0.09378,51.77395],[0.09356,51.77449],[0.09319,51.77443],[0.09312,51.7746],[0.09213,51.77443],[0.09222,51.77423],[0.09211,51.77421],[0.09212,51.77418]]]]}},
{ "type":"Feature","properties":{"osm_way_id":"352282684","name":"ALDI","building":"yes","shop":"supermarket","other":{"addr:postcode":"CM20 3FA","brand":"ALDI","brand:wikidata":"Q41171672","brand:wikipedia":"en:Aldi"}}, "geometry":{"type":"MultiPolygon","coordinates":[[[[0.11253,51.77649],[0.11234,51.77647],[0.11227,51.77645],[0.11223,51.77643],[0.1122,51.7764],[0.11218,51.77637],[0.11218,51.77634],[0.11219,51.77625],[0.11229,51.77594],[0.1124,51.77595],[0.11239,51.776],[0.11264,51.77602],[0.11253,51.77649]]]]}}
]
}
