{
"type": "FeatureCollection",
"features": [
{ "type":"Feature","properties":{"osm_id":"324160498","name":"Scoop Wholefoods","other":{"addr:city":"Shetland","addr:housenumber":"26","addr:postcode":"ZE1 0PE","addr:street":"North Road","fhrs:id":"391175","organic":"only","shop":"supermarket","website":"https:\/\/www.scoopwholefoods.co.uk\/"}}, "geometry":{"type":"Point","coordinates":[-1.15529,60.15844 ]}},
{ "type":"Feature","properties":{"osm_id":"533720901","name":"Sainsbury's","other":{"addr:city":"Uxbridge","addr:postcode":"UB8 1QW","addr:street":"York Road","brand":"Sainsbury's","brand:wikidata":"Q152096","brand:wikipedia":"en:Sainsbury's","contact:website":"https:\/\/stores.sainsburys.co.uk\/0603\/uxbridge","opening_hours":"Mo-Sa 07:00-23:00;Su 10:00-16:00","shop":"supermarket"}}, "geometry":{"type":"Point","coordinates":[-0.47478,51.54859 ]}},
{ "type":"Feature","properties":{"osm_way_id":"38543237","name":"Sainsbury's","building":"retail","shop":"supermarket","other":{"addr:city":"Fareham","addr:country":"GB","addr:postcode":"PO16 8SU","addr:street":"Broadcut","branch":"Broadcut","brand":"Sainsbury's","brand:wikidata":"Q152096","brand:wikipedia":"en:Sainsbury's","contact:website":"https:\/\/stores.sainsburys.co.uk\/0681\/broadcut","fhrs:id":"37913","operator":"Sainsbury's Supermarkets Ltd","phone":"+441329827936","wheelchair":"yes"}}, "geometry":{"type":"MultiPolygon","coordinates":[[[[-1.17568,50.85916],[-1.17552,50.85909],[-1.1752,50.85895],[-1.17526,50.8589],[-1.1747,50.85864],[-1.17473,50.85861],[-1.17468,50.85859],[-1.1747,50.85857],[-1.17449,50.85847],[-1.17384,50.85905],[-1.17375,50.85913],[-1.1738,50.85915],[-1.17378,50.85917],[-1.17479,50.85962],[-1.17493,50.8595],[-1.17497,50.85952],[-1.17505,50.85945],[-1.1751,50.85947],[-1.17532,50.85928],[-1.17547,50.85935],[-1.17568,50.85916]]]]}},
{ "type":"Feature","properties":{"osm_way_id":"88285972","name":"A. Humphray General Stores","building":"yes","shop":"supermarket","other":{"payment:cash":"yes"}}, "geometry":{"type":"MultiPolygon","coordinates":[[[[-0.75043,60.42336],[-0.75048,60.42333],[-0.75062,60.4234],[-0.75071,60.42335],[-0.75042,60.42321],[-0.75027,60.42328],[-0.75043,60.42336]]]]}},
{ "type":"Feature","properties":{"osm_way_id":"158088710","name":"Grocery Outlet","building":"yes","shop":"supermarket","other":{"brand":"Grocery Outlet","brand:wikidata":"Q5609934","brand:wikipedia":"en:Grocery Outlet"}}, "geometry":{"type":"MultiPolygon","coordinates":[[[[-1.02381,60.34182],[-1.02383,60.34174],[-1.02423,60.34177],[-1.02422,60.34179],[-1.02429,60.3418],[-1.0243,60.34175],[-1.02455,60.34177],[-1.02453,60.34183],[-1.02457,60.34183],[-1.0246,60.34183],[-1.02459,60.34188],[-1.02455,60.34187],[-1.02381,60.34182]]]]}},
{ "type":"Feature","properties":{"osm_way_id":"170391637","name":"Co-op Food","building":"yes","shop":"supermarket","other":{"addr:city":"Shetland","addr:postcode":"ZE1 0PW","addr:street":"Holmgarth Road","alt_name":"The Co-opeative Food","brand":"Co-op Food","brand:wikidata":"Q3277439","brand:wikipedia":"en:Co-op Food","fhrs:id":"942556","operator":"The Co-operative Group"}}, "geometry":{"type":"MultiPolygon","coordinates":[[[[-1.15685,60.15991],[-1.1563,60.15999],[-1.15605,60.15956],[-1.156,60.15956],[-1.15595,60.15947],[-1.15665,60.15937],[-1.15669,60.15945],[-1.15677,60.15944],[-1.1569,60.15968],[-1.15672,60.1597],[-1.15685,60.15991]]]]}},
{ "type":"Feature","properties":{"osm_way_id":"295686791","name":"Co-op","building":"yes","shop":"supermarket","other":{"addr:city":"Shetland","addr:postcode":"ZE2 9QG","addr:street":"Hillside","alt_name":"The Co-operative Food","fhrs:id":"893663"}}, "geometry":{"type":"MultiPolygon","coordinates":[[[[-1.35453,60.39663],[-1.35433,60.39647],[-1.3543,60.39645],[-1.35437,60.39643],[-1.35434,60.39641],[-1.35418,60.39646],[-1.35421,60.39648],[-1.35398,60.39655],[-1.35422,60.39674],[-1.35437,60.39669],[-1.3544,60.39671],[-1.35457,60.39666],[-1.35453,60.39663]]]]}},
{ "type":"Feature","properties":{"osm_way_id":"295687764","name":"Tesco","building":"yes","shop":"supermarket","other":{"addr:city":"Shetland","addr:postcode":"ZE1 0RD","addr:street":"South Road","alt_name":"Tesco Lerwick Superstore","brand":"Tesco","brand:wikidata":"Q487494","brand:wikipedia":"en:Tesco","fhrs:id":"391207"}}, "geometry":{"type":"MultiPolygon","coordinates":[[[[-1.16196,60.14737],[-1.16191,60.14687],[-1.16094,60.14689],[-1.16098,60.14729],[-1.16085,60.14729],[-1.16087,60.14746],[-1.1612,60.14745],[-1.16119,60.14739],[-1.16196,60.14737]]]]}}
]
}
