{
"type": "FeatureCollection",
"features": [
{ "type":"Feature","properties":{"osm_id":"519662755","ref":"TR21 17","other":{"amenity":"post_box"}}, "geometry":{"type":"Point","coordinates":[-6.2932,49.9262 ]}},
{ "type":"Feature","properties":{"osm_id":"632550029","name":"Sainsbury's","other":{"addr:city":"Kingston Upon Thames","addr:housenumber":"6-12","addr:postcode":"KT1 1BU","addr:street":"Eden Walk","alt_name":"Sainsbury's Kingston Superstore","brand":"Sainsbury's","brand:wikidata":"Q152096","brand:wikipedia":"en:Sainsbury's","fhrs:id":"843185","opening_hours":"Mo-We 07:00-20:00; Th-Fr 07:00-21:00; Sa 07:00-20:00; Su 11:00-17:00","shop":"supermarket"}}, "geometry":{"type":"Point","coordinates":[-0.30341,51.40973 ]}},
{ "type":"Feature","properties":{"osm_id":"1044897546","name":"Tesco Express","other":{"addr:housenumber":"381-385","addr:postcode":"KT9 1EL","addr:street":"Hook Road","brand":"Tesco Express","brand:wikidata":"Q98456772","contact:website":"https:\/\/www.tesco.com\/store-locator\/chessington\/381-385-hook-rd","fhrs:id":"362035","operator":"TESCO","shop":"supermarket","source:addr":"FHRS Open Data"}}, "geometry":{"type":"Point","coordinates":[-0.30642,51.36708 ]}},
{ "type":"Feature","properties":{"osm_id":"1044897554","name":"Sainsbury's Local","other":{"brand:wikidata":"Q13218434","operator":"Sainsburys","shop":"supermarket"}}, "geometry":{"type":"Point","coordinates":[-0.30702,51.36739 ]}},
{ "type":"Feature","properties":{"osm_id":"1569415538","name":"Waitrose","other":{"addr:city":"Kingston Upon Thames","addr:postcode":"KT1 1TG","addr:street":"Wood Street","alt_name":"Waitrose Kingston","brand":"Waitrose","brand:wikidata":"Q771734","brand:wikipedia":"en:Waitrose & Partners","official_name":"Waitrose & Partners","operator":"Waitrose & Partners","shop":"supermarket","wheelchair":"yes"}}, "geometry":{"type":"Point","coordinates":[-0.30586,51.41116 ]}},
{ "type":"Feature","properties":{"osm_id":"1692903432","name":"M&S Simply Food","other":{"addr:city":"Surbiton","addr:housenumber":"78","addr:postcode":"KT6 4NS","addr:street":"Victoria Road","brand":"M&S Simply Food","brand:wikidata":"Q714491","brand:wikipedia":"en:Marks & Spencer","opening_hours":"Mo-Sa 08:00-20:30; Su 09:00-20:00; PH 09:00-19:00","payment:cash":"yes","payment:coins":"yes","payment:credit_cards":"yes","payment:debit_cards":"yes","phone":"+44 20 8399 9433","shop":"supermarket"}}, "geometry":{"type":"Point","coordinates":[-0.3055,51.39253 ]}},
{ "type":"Feature","properties":{"osm_id":"1699816075","name":"Lidl","other":{"addr:country":"GB","addr:housenumber":"64","addr:postcode":"KT9 2HY","addr:street":"Leatherhead Road","brand":"Lidl","brand:wikidata":"Q151954","fhrs:id":"1386378","shop":"supermarket"}}, "geometry":{"type":"Point","coordinates":[-0.31003,51.36049 ]}},
{ "type":"Feature","properties":{"osm_id":"3043305147","name":"Tesco Express","other":{"addr:housenumber":"354-356","addr:postcode":"KT4 7NW","addr:street":"Malden Road","brand":"Tesco Express","brand:wikidata":"Q98456772","contact:website":"https:\/\/www.tesco.com\/store-locator\/worcester-park\/354-356-malden-rd","fhrs:id":"555963","operator":"Tesco","shop":"supermarket","source:addr":"FHRS Open Data"}}, "geometry":{"type":"Point","coordinates":[-0.25254,51.38551 ]}},
{ "type":"Feature","properties":{"osm_id":"4144460294","name":"Aldi","other":{"addr:city":"Kingston Upon Thames","addr:postcode":"KT1 2PD","addr:street":"Fairfield West","brand":"ALDI","brand:wikidata":"Q41171672","brand:wikipedia":"en:Aldi","name:fa":"آلدی","shop":"supermarket"}}, "geometry":{"type":"Point","coordinates":[-0.30124,51.41036 ]}},
{ "type":"Feature","properties":{"osm_id":"5575759222","name":"Co-op Food","other":{"addr:city":"Surbiton","addr:housenumber":"2A","addr:postcode":"KT6 7TX","addr:street":"Ellerton Road","brand":"Co-op Food","brand:wikidata":"Q3277439","brand:wikipedia":"en:Co-op Food","level":"0","opening_hours":"Mo-Su 07:00-22:00","opening_hours:covid19":"Mo-Su 07:00-22:00","operator":"The Co-operative Group","operator:wikidata":"Q117202","operator:wikipedia":"en:The Co-operative Group","shop":"supermarket"}}, "geometry":{"type":"Point","coordinates":[-0.29504,51.38475 ]}},
{ "type":"Feature","properties":{"osm_id":"9330507308","name":"JK Enterprises","other":{"shop":"supermarket"}}, "geometry":{"type":"Point","coordinates":[-0.25538,51.39823 ]}},
{ "type":"Feature","properties":{"osm_id":"9330512024","name":"Seoul Plaza","other":{"shop":"supermarket"}}, "geometry":{"type":"Point","coordinates":[-0.25539,51.39828 ]}},
{ "type":"Feature","properties":{"osm_way_id":"4770293","name":"Sainsbury's","building":"yes","shop":"supermarket","other":{"addr:housenumber":"1","addr:postcode":"KT2 5NZ","addr:street":"Sury Basin","alt_name":"Sainsbury's Sury Basin Superstore","brand":"Sainsbury's","brand:wikidata":"Q152096","brand:wikipedia":"en:Sainsbury's"}}, "geometry":{"type":"MultiPolygon","coordinates":[[[[-0.30262,51.41621],[-0.304,51.41582],[-0.30411,51.4156],[-0.30404,51.41559],[-0.30415,51.41536],[-0.3042,51.41524],[-0.30424,51.41518],[-0.30423,51.41511],[-0.3042,51.41504],[-0.30416,51.415],[-0.30408,51.41497],[-0.30399,51.41498],[-0.30389,51.41499],[-0.30382,51.41505],[-0.30377,51.41516],[-0.30218,51.41561],[-0.30244,51.416],[-0.30247,51.41599],[-0.30262,51.41621]]]]}},
{ "type":"Feature","properties":{"osm_way_id":"22742509","name":"Waitrose","building":"yes","shop":"supermarket","other":{"addr:housenumber":"15a","addr:postcode":"KT6 4QR","addr:street":"Claremont Road","brand":"Waitrose","brand:wikidata":"Q771734","brand:wikipedia":"en:Waitrose & Partners","fhrs:id":"715332","official_name":"Waitrose & Partners","operator":"Waitrose & Partners","source:addr":"FHRS Open Data","wheelchair":"yes"}}, "geometry":{"type":"MultiPolygon","coordinates":[[[[-0.30554,51.39371],[-0.30528,51.39363],[-0.30522,51.3937],[-0.30467,51.39368],[-0.30467,51.39374],[-0.30455,51.39374],[-0.3045,51.39379],[-0.30449,51.39385],[-0.30452,51.3939],[-0.30462,51.3939],[-0.30465,51.3939],[-0.30465,51.39393],[-0.30472,51.39393],[-0.3047,51.39407],[-0.30482,51.39406],[-0.30493,51.39405],[-0.30502,51.39402],[-0.30515,51.39402],[-0.3053,51.39404],[-0.30543,51.39407],[-0.30553,51.39407],[-0.30564,51.39407],[-0.30574,51.39406],[-0.30586,51.39403],[-0.3058,51.39394],[-0.30551,51.39395],[-0.30554,51.39371]]]]}},
{ "type":"Feature","properties":{"osm_way_id":"23023212","name":"Asda","building":"retail","shop":"supermarket","other":{"addr:city":"Kingston upon Thames","addr:country":"GB","addr:housenumber":"142","addr:postcode":"KT2 6QL","addr:street":"London Road","alt_name":"ASDA Kingston-upon-Thames Supermarket","brand":"Asda","brand:wikidata":"Q297410","brand:wikipedia":"en:Asda","contact:facebook":"https:\/\/www.facebook.com\/asda\/","contact:twitter":"@asda","contact:website":"https:\/\/storelocator.asda.com\/london\/kingston-upon-thames\/142-london-road","fhrs:id":"361476","operator":"Asda Stores Ltd"}}, "geometry":{"type":"MultiPolygon","coordinates":[[[[-0.2906,51.41126],[-0.29051,51.4112],[-0.29044,51.41093],[-0.28972,51.41102],[-0.28975,51.41114],[-0.28962,51.41116],[-0.28962,51.41117],[-0.28927,51.41121],[-0.28931,51.41133],[-0.28957,51.4113],[-0.2896,51.41135],[-0.28967,51.41134],[-0.28972,51.41149],[-0.2903,51.41143],[-0.29031,51.41145],[-0.29057,51.41142],[-0.29051,51.41135],[-0.2906,51.41131],[-0.29062,51.41127],[-0.2906,51.41126]]]]}},
{ "type":"Feature","properties":{"osm_way_id":"27920421","name":"Waitrose","building":"retail","shop":"supermarket","other":{"addr:housenumber":"24-28","addr:postcode":"KT3 4HE","addr:street":"High Street","brand":"Waitrose & Partners","brand:wikidata":"Q771734","brand:wikipedia":"en:Waitrose & Partners","fhrs:id":"361542","opening_hours":"Mo-Fr 08:00-21:00; Sa 08:00-20:00; Su 10:00-16:00","operator":"Waitrose & Partners","source:addr":"FHRS Open Data"}}, "geometry":{"type":"MultiPolygon","coordinates":[[[[-0.25639,51.40282],[-0.25598,51.40287],[-0.25601,51.4029],[-0.25607,51.40301],[-0.25594,51.40303],[-0.2559,51.40294],[-0.2558,51.40287],[-0.25572,51.40262],[-0.25598,51.40259],[-0.25593,51.40245],[-0.25613,51.40243],[-0.25618,51.40256],[-0.25616,51.40256],[-0.25617,51.40258],[-0.25618,51.40258],[-0.25629,51.40257],[-0.25629,51.40258],[-0.25632,51.40258],[-0.25637,51.40274],[-0.25638,51.40274],[-0.25641,51.40281],[-0.25639,51.40281],[-0.25639,51.40282]]]]}},
{ "type":"Feature","properties":{"osm_way_id":"32880537","name":"H-Mart","building":"yes","shop":"supermarket"},"geometry":{"type":"MultiPolygon","coordinates":[[[[-0.26771,51.40195],[-0.26811,51.40202],[-0.26803,51.4022],[-0.26811,51.40221],[-0.26802,51.40243],[-0.2679,51.40269],[-0.26743,51.40261],[-0.26769,51.40201],[-0.26771,51.40195]]]]}},
{ "type":"Feature","properties":{"osm_way_id":"157052411","name":"Sainsbury's","building":"retail","shop":"supermarket","other":{"addr:city":"Surbiton","addr:housenumber":"50-58","addr:postcode":"KT6 4NG","addr:street":"Victoria Road","branch":"Surbiton","brand":"Sainsbury's","brand:wikidata":"Q152096","brand:wikipedia":"en:Sainsbury's","building:levels":"3","building:material":"brick","fhrs:id":"371338","opening_hours":"Mo-Sa 08:00-20:00; Th,Fr 08:00-21:00; Su 10:00-16:00","payment:cash":"yes","payment:credit_cards":"yes","payment:debit_cards":"yes","source:addr":"FHRS Open Data"}}, "geometry":{"type":"MultiPolygon","coordinates":[[[[-0.30713,51.39156],[-0.30721,51.39154],[-0.30721,51.39153],[-0.30721,51.39151],[-0.30721,51.3915],[-0.30722,51.39148],[-0.30724,51.39145],[-0.30816,51.39108],[-0.30847,51.39137],[-0.3084,51.3914],[-0.30813,51.39151],[-0.30804,51.39155],[-0.3076,51.39173],[-0.30741,51.39181],[-0.30729,51.39171],[-0.30713,51.39156]]]]}},
{ "type":"Feature","properties":{"osm_way_id":"189835651","name":"ALDI","building":"retail","shop":"supermarket","other":{"brand":"ALDI","brand:wikidata":"Q41171672","brand:wikipedia":"en:Aldi","name:fa":"آلدی","opening_hours":"Mo-Sa 08:00-22:00; Su 10:00-16:00; PH 08:00-20:00"}}, "geometry":{"type":"MultiPolygon","coordinates":[[[[-0.2723,51.40444],[-0.27231,51.40417],[-0.27266,51.40389],[-0.27237,51.40375],[-0.27198,51.40405],[-0.27189,51.40405],[-0.27187,51.40441],[-0.2723,51.40444]]]]}},
{ "type":"Feature","properties":{"osm_way_id":"648582531","name":"Sainsbury's Local","building":"yes","shop":"supermarket","other":{"building_1":"apartments"}}, "geometry":{"type":"MultiPolygon","coordinates":[[[[-0.30763,51.36737],[-0.3076,51.36749],[-0.30717,51.36744],[-0.30716,51.36749],[-0.30691,51.36746],[-0.30696,51.3673],[-0.30699,51.3673],[-0.30741,51.36734],[-0.30763,51.36737]]]]}},
{ "type":"Feature","properties":{"osm_way_id":"657589218","name":"Lidl","building":"yes","shop":"supermarket","other":{"building_1":"apartments"}}, "geometry":{"type":"MultiPolygon","coordinates":[[[[-0.31009,51.36039],[-0.30989,51.36058],[-0.30993,51.3606],[-0.30987,51.36064],[-0.30991,51.36066],[-0.30988,51.36069],[-0.31037,51.36088],[-0.31034,51.3609],[-0.31049,51.36095],[-0.31075,51.3607],[-0.31023,51.36051],[-0.31028,51.36046],[-0.31009,51.36039]]]]}},
{ "type":"Feature","properties":{"osm_way_id":"822357980","name":"Lidl","building":"supermarket","shop":"supermarket","other":{"addr:country":"GB","addr:housenumber":"31-35","addr:postcode":"KT3 4AH","addr:street":"Blagdon Road","brand":"Lidl","brand:wikidata":"Q151954","brand:wikipedia":"en:Lidl","fhrs:id":"1385257","opening_hours":"Mo-Sa 08:00-22:00; Su 11:00-17:00"}}, "geometry":{"type":"MultiPolygon","coordinates":[[[[-0.25368,51.4004],[-0.25405,51.40035],[-0.254,51.4002],[-0.25364,51.40025],[-0.25365,51.40027],[-0.2536,51.40028],[-0.25364,51.40038],[-0.25367,51.40037],[-0.25368,51.4004]]]]}},
{ "type":"Feature","properties":{"osm_way_id":"945762703","building":"yes","shop":"supermarket"},"geometry":{"type":"MultiPolygon","coordinates":[[[[-0.2833,51.38983],[-0.28323,51.38987],[-0.28313,51.38982],[-0.2831,51.3898],[-0.28308,51.38978],[-0.28317,51.38974],[-0.2832,51.38977],[-0.2833,51.38983]]]]}}
]
}
