{
"type": "FeatureCollection",
"features": [
{ "type":"Feature","properties":{"osm_id":"932243529","name":"Connect National Parts Distribution centre","man_made":"works","other":{"addr:city":"Birmingham","addr:postcode":"B9 4UA","addr:street":"Bordesley Green Road"}}, "geometry":{"type":"Point","coordinates":[-1.85791,52.48038 ]}},
{ "type":"Feature","properties":{"osm_id":"3502063787","name":"Washing Machine Distribution","other":{"shop":"electronics"}}, "geometry":{"type":"Point","coordinates":[-1.91237,52.49229 ]}},
{ "type":"Feature","properties":{"osm_id":"3574870526","name":"Enterprise Security Distribution","other":{"office":"company"}}, "geometry":{"type":"Point","coordinates":[-1.87422,52.5024 ]}},
{ "type":"Feature","properties":{"osm_id":"8013969864","other":{"access":"customers","door":"hinged","entrance":"main"}}, "geometry":{"type":"Point","coordinates":[-1.98866,52.58328 ]}},
{ "type":"Feature","properties":{"osm_way_id":"33822730","name":"Co-operative Retail Logistics Halesowen Regional Distribution Centre","building":"industrial"},"geometry":{"type":"MultiPolygon","coordinates":[[[[-2.04711,52.46244],[-2.04547,52.46165],[-2.04491,52.46209],[-2.04642,52.46282],[-2.04651,52.46275],[-2.04663,52.46281],[-2.04711,52.46244]]]]}},
{ "type":"Feature","properties":{"osm_way_id":"57935970","name":"Connect Distribution Services","building":"yes","other":{"addr:city":"Birmingham","addr:housename":"Unit 3","addr:postcode":"B10 0HJ","addr:street":"Talbot Way","url":"http:\/\/www.connect-distribution.co.uk\/"}}, "geometry":{"type":"MultiPolygon","coordinates":[[[[-1.84659,52.46201],[-1.84627,52.46204],[-1.8461,52.46137],[-1.84693,52.46129],[-1.84698,52.46149],[-1.84646,52.46153],[-1.84659,52.46201]]]]}},
{ "type":"Feature","properties":{"osm_way_id":"75108483","name":"CPD Distribution","building":"yes"},"geometry":{"type":"MultiPolygon","coordinates":[[[[-1.88502,52.49348],[-1.88443,52.49323],[-1.88473,52.49297],[-1.88532,52.49321],[-1.88502,52.49348]]]]}},
{ "type":"Feature","properties":{"osm_way_id":"76128741","name":"W H Smith Ltd Birmingham Distribution Centre","building":"warehouse"},"geometry":{"type":"MultiPolygon","coordinates":[[[[-1.87092,52.5142],[-1.87037,52.51462],[-1.87007,52.51448],[-1.86977,52.51471],[-1.86896,52.51431],[-1.86861,52.51415],[-1.86842,52.51405],[-1.86868,52.51386],[-1.86766,52.51336],[-1.86825,52.51291],[-1.87092,52.5142]]]]}},
{ "type":"Feature","properties":{"osm_way_id":"82005328","name":"Centresoft \/ PDQ Distribution Limited","building":"industrial"},"geometry":{"type":"MultiPolygon","coordinates":[[[[-1.88882,52.51904],[-1.88858,52.51909],[-1.88862,52.5192],[-1.88849,52.51922],[-1.88847,52.51919],[-1.8878,52.5193],[-1.88712,52.51941],[-1.88708,52.51932],[-1.88735,52.51928],[-1.8871,52.51869],[-1.88855,52.51845],[-1.88882,52.51904]]]]}},
{ "type":"Feature","properties":{"osm_way_id":"82225214","name":"NCF Distribution","building":"warehouse"},"geometry":{"type":"MultiPolygon","coordinates":[[[[-1.89953,52.52182],[-1.89824,52.52206],[-1.89801,52.52151],[-1.89929,52.52129],[-1.89953,52.52182]]]]}},
{ "type":"Feature","properties":{"osm_way_id":"82928398","name":"T. Quality Birmingham Distribution Centre","building":"industrial"},"geometry":{"type":"MultiPolygon","coordinates":[[[[-1.87336,52.49829],[-1.87307,52.49831],[-1.87295,52.49765],[-1.87322,52.49764],[-1.87326,52.49783],[-1.87337,52.49783],[-1.87344,52.49819],[-1.87334,52.4982],[-1.87336,52.49829]]]]}},
{ "type":"Feature","properties":{"osm_way_id":"103848968","name":"Medway Power Distribution","building":"yes"},"geometry":{"type":"MultiPolygon","coordinates":[[[[0.85864,51.14842],[0.85859,51.14843],[0.85872,51.14864],[0.8589,51.1486],[0.85899,51.14873],[0.85949,51.14862],[0.8594,51.14846],[0.86026,51.14826],[0.86018,51.14813],[0.86011,51.14815],[0.85997,51.14791],[0.85948,51.14802],[0.85939,51.14787],[0.85865,51.14804],[0.85859,51.14795],[0.85839,51.14799],[0.85864,51.14842]]]]}},
{ "type":"Feature","properties":{"osm_way_id":"108557413","name":"Benchmark Distribution Ltd","building":"industrial"},"geometry":{"type":"MultiPolygon","coordinates":[[[[-1.89145,52.49113],[-1.8916,52.49065],[-1.89169,52.49037],[-1.892,52.4904],[-1.89187,52.49084],[-1.89184,52.49092],[-1.89176,52.49117],[-1.89145,52.49113]]]]}},
{ "type":"Feature","properties":{"osm_way_id":"116073276","name":"Western Power Distribution","landuse":"industrial"},"geometry":{"type":"MultiPolygon","coordinates":[[[[-1.87043,52.50245],[-1.86925,52.50029],[-1.86881,52.50078],[-1.86799,52.50171],[-1.86896,52.50195],[-1.86921,52.50201],[-1.86968,52.50224],[-1.87026,52.50249],[-1.87043,52.50245]]]]}},
{ "type":"Feature","properties":{"osm_way_id":"150507421","name":"Nippon Distribution","building":"industrial","other":{"addr:city":"Sutton Coldfield","addr:housenumber":"Unit 8C","addr:postcode":"B75 7BU","addr:street":"Reddicap Trading Estate"}}, "geometry":{"type":"MultiPolygon","coordinates":[[[[-1.80839,52.56062],[-1.80782,52.5606],[-1.80783,52.56048],[-1.80825,52.56049],[-1.80825,52.56047],[-1.8084,52.56048],[-1.80839,52.56062]]]]}},
{ "type":"Feature","properties":{"osm_way_id":"242500514","name":"Fasec Distribution","building":"industrial"},"geometry":{"type":"MultiPolygon","coordinates":[[[[-2.00902,52.50281],[-2.00883,52.50282],[-2.00881,52.50267],[-2.009,52.50266],[-2.00902,52.50281]]]]}},
{ "type":"Feature","properties":{"osm_way_id":"271258247","name":"Car Spares Distribution","building":"yes","shop":"car_parts","other":{"addr:city":"Walsall","addr:housename":"Alpine House","addr:postcode":"WS2 9DY","addr:street":"Long Street","building:levels":"2","opening_hours":"Mo-Fr 08:00-17:30; Sa 09:00-16:00","operator":"Car Spares Distribution Limited","phone":"+44 345 2089241","ref:GB:uprn":"10090067756","website":"http:\/\/www.carsparesltd.com\/"}}, "geometry":{"type":"MultiPolygon","coordinates":[[[[-1.98886,52.58332],[-1.98884,52.58331],[-1.98884,52.58331],[-1.98866,52.58328],[-1.98846,52.58325],[-1.98847,52.58321],[-1.98845,52.58321],[-1.98848,52.58314],[-1.98856,52.58306],[-1.98856,52.58305],[-1.98874,52.58308],[-1.98881,52.58309],[-1.98894,52.58311],[-1.98886,52.58332]]]]}},
{ "type":"Feature","properties":{"osm_way_id":"292794583","name":"CCFL Distribution","building":"yes"},"geometry":{"type":"MultiPolygon","coordinates":[[[[-1.88133,52.47634],[-1.88174,52.47654],[-1.88167,52.47661],[-1.88126,52.47643],[-1.88133,52.47634]]]]}},
{ "type":"Feature","properties":{"osm_way_id":"366732312","name":"Clarke Transport and Distribution Services","building":"yes"},"geometry":{"type":"MultiPolygon","coordinates":[[[[-2.02153,52.51345],[-2.02145,52.5134],[-2.02132,52.51331],[-2.02114,52.5132],[-2.0207,52.5129],[-2.02058,52.51282],[-2.02044,52.51273],[-2.01976,52.5131],[-2.02085,52.51383],[-2.02153,52.51345]]]]}},
{ "type":"Feature","properties":{"osm_way_id":"415757254","name":"Mirage Distribution Ltd","building":"yes"},"geometry":{"type":"MultiPolygon","coordinates":[[[[-2.01634,52.51329],[-2.01614,52.51323],[-2.01599,52.51319],[-2.01587,52.51315],[-2.01572,52.51334],[-2.01564,52.51331],[-2.01559,52.51338],[-2.01614,52.51354],[-2.01634,52.51329]]]]}},
{ "type":"Feature","properties":{"osm_way_id":"415860919","name":"Sandwell Electrical Distribution Ltd","building":"yes"},"geometry":{"type":"MultiPolygon","coordinates":[[[[-2.01745,52.51194],[-2.01717,52.51177],[-2.01713,52.51179],[-2.01719,52.51183],[-2.01717,52.51184],[-2.01739,52.51197],[-2.01745,52.51194]]]]}},
{ "type":"Feature","properties":{"osm_way_id":"426131059","name":"Lidl Distribution Centre","building":"warehouse","other":{"addr:country":"GB","addr:postcode":"WS10 9QY","addr:street":"Axletree Way","brand":"Lidl","brand:wikidata":"Q151954","brand:wikipedia":"en:Lidl","fhrs:id":"977039"}}, "geometry":{"type":"MultiPolygon","coordinates":[[[[-1.99867,52.56464],[-1.99675,52.56421],[-1.99804,52.56213],[-1.99997,52.56258],[-1.99867,52.56464]]]]}},
{ "type":"Feature","properties":{"osm_way_id":"859826907","amenity":"parking_space","other":{"access":"customers","capacity":"1","parking_space":"normal"}}, "geometry":{"type":"MultiPolygon","coordinates":[[[[-1.98858,52.58334],[-1.98855,52.58333],[-1.98856,52.58329],[-1.98856,52.58329],[-1.9886,52.58329],[-1.98858,52.58334]]]]}},
{ "type":"Feature","properties":{"osm_way_id":"859826908","amenity":"parking_space","other":{"access":"customers","capacity":"1","parking_space":"normal"}}, "geometry":{"type":"MultiPolygon","coordinates":[[[[-1.98862,52.58334],[-1.98858,52.58334],[-1.9886,52.58329],[-1.98863,52.58329],[-1.98863,52.5833],[-1.98862,52.58334]]]]}},
{ "type":"Feature","properties":{"osm_way_id":"859826909","amenity":"parking_space","other":{"access":"customers","capacity":"1","parking_space":"normal"}}, "geometry":{"type":"MultiPolygon","coordinates":[[[[-1.98869,52.58335],[-1.98865,52.58335],[-1.98867,52.5833],[-1.98871,52.58331],[-1.98869,52.58335]]]]}},
{ "type":"Feature","properties":{"osm_way_id":"859826910","amenity":"parking_space","other":{"access":"customers","capacity":"1","parking_space":"normal"}}, "geometry":{"type":"MultiPolygon","coordinates":[[[[-1.98873,52.58336],[-1.98869,52.58335],[-1.98871,52.58331],[-1.98874,52.58331],[-1.98874,52.58331],[-1.98873,52.58336]]]]}},
{ "type":"Feature","properties":{"osm_way_id":"859826911","amenity":"parking_space","other":{"access":"customers","capacity":"1","parking_space":"normal"}}, "geometry":{"type":"MultiPolygon","coordinates":[[[[-1.98876,52.58336],[-1.98873,52.58336],[-1.98874,52.58331],[-1.98875,52.58331],[-1.98877,52.58332],[-1.98878,52.58332],[-1.98876,52.58336]]]]}}
]
}
