{
"type": "FeatureCollection",
"features": [
{ "type":"Feature","properties":{"osm_id":"4439553513","name":"Co-op","other":{"shop":"supermarket"}}, "geometry":{"type":"Point","coordinates":[-3.79951,56.15316 ]}},
{ "type":"Feature","properties":{"osm_id":"9403727450","name":"Scotmid","other":{"addr:city":"Menstrie","addr:postcode":"FK11 7BL","addr:street":"Main Street East","brand":"Scotmid","brand:wikidata":"Q7435719","brand:wikipedia":"en:Scotmid","fhrs:id":"692690","opening_hours":"07:00-22:00","operator":"Scotmid Co-Operative","shop":"supermarket","source:addr":"FHRS opendata"}}, "geometry":{"type":"Point","coordinates":[-3.85266,56.15135 ]}},
{ "type":"Feature","properties":{"osm_way_id":"87212117","name":"Morrisons","building":"yes","shop":"supermarket","other":{"brand":"Morrisons","brand:wikidata":"Q922344","brand:wikipedia":"en:Morrisons","operator":"Morrisons Ltd"}}, "geometry":{"type":"MultiPolygon","coordinates":[[[[-3.77575,56.11427],[-3.77448,56.11417],[-3.77561,56.11483],[-3.77575,56.11427]]]]}},
{ "type":"Feature","properties":{"osm_way_id":"92425884","name":"Asda","building":"yes","shop":"supermarket","other":{"addr:city":"Alloa","addr:postcode":"FK10 3SD","addr:street":"Whins Road","brand":"Asda","brand:wikidata":"Q297410","brand:wikipedia":"en:Asda","contact:facebook":"https:\/\/www.facebook.com\/asda\/","contact:twitter":"@asda","contact:website":"https:\/\/storelocator.asda.com\/scotland\/alloa\/whins-road","fhrs:id":"692815","operator":"Asda Stores Ltd"}}, "geometry":{"type":"MultiPolygon","coordinates":[[[[-3.78812,56.11731],[-3.78821,56.11736],[-3.78829,56.11774],[-3.78806,56.11783],[-3.78686,56.11788],[-3.78674,56.11789],[-3.78672,56.11778],[-3.78645,56.11781],[-3.78643,56.11776],[-3.78642,56.11774],[-3.78682,56.11738],[-3.78812,56.11731]]]]}},
{ "type":"Feature","properties":{"osm_way_id":"152341800","name":"Tesco Extra","building":"yes","shop":"supermarket","other":{"brand":"Tesco Extra","brand:wikidata":"Q25172225","brand:wikipedia":"en:Tesco Extra","operator":"Tesco Ltd"}}, "geometry":{"type":"MultiPolygon","coordinates":[[[[-3.78711,56.11372],[-3.78662,56.11326],[-3.78796,56.11282],[-3.78857,56.11338],[-3.78742,56.11376],[-3.78731,56.11366],[-3.78711,56.11372]]]]}},
{ "type":"Feature","properties":{"osm_way_id":"217891809","name":"Co-op Food","building":"yes","shop":"supermarket","other":{"addr:city":"Tillicoultry","addr:housenumber":"74","addr:postcode":"FK13 6AB","addr:street":"High Street","brand":"Co-op Food","brand:wikidata":"Q3277439","brand:wikipedia":"en:Co-op Food","lottery":"yes","opening_hours":"Mo-Sa 07:00-22:00","opening_hours:covid19":"same","operator":"The Co-operative Group","operator:wikidata":"Q117202","operator:wikipedia":"en:The Co-operative Group","payment:cash":"yes","payment:credit_cards":"yes","payment:debit_cards":"yes","phone":"+441259751926","stroller":"yes","website":"https:\/\/finder.coop.co.uk\/food\/store\/FK13-6AB\/74-high-street","wheelchair":"yes"}}, "geometry":{"type":"MultiPolygon","coordinates":[[[[-3.74581,56.15365],[-3.74555,56.15363],[-3.74555,56.15364],[-3.74553,56.15371],[-3.74552,56.15376],[-3.7455,56.15386],[-3.74572,56.15388],[-3.74575,56.15372],[-3.74579,56.15373],[-3.74581,56.15365]]]]}},
{ "type":"Feature","properties":{"osm_way_id":"217891814","name":"Aldi","building":"yes","shop":"supermarket","other":{"brand":"ALDI","brand:wikidata":"Q41171672","brand:wikipedia":"en:Aldi","operator":"Aldi"}}, "geometry":{"type":"MultiPolygon","coordinates":[[[[-3.78502,56.11757],[-3.78509,56.11759],[-3.78526,56.11749],[-3.78557,56.11767],[-3.78496,56.118],[-3.78466,56.11783],[-3.78496,56.11766],[-3.78502,56.11757]]]]}},
{ "type":"Feature","properties":{"osm_way_id":"373415458","name":"Inglewood Stores","building":"yes","shop":"supermarket","other":{"addr:city":"Alloa","addr:housenumber":"1","addr:postcode":"FK10 2HL","addr:street":"Woodburn Drive","fhrs:id":"1178712"}}, "geometry":{"type":"MultiPolygon","coordinates":[[[[-3.81062,56.12739],[-3.81041,56.12732],[-3.81023,56.12742],[-3.8103,56.12746],[-3.81037,56.12743],[-3.81046,56.12742],[-3.81056,56.12746],[-3.81062,56.12739]]]]}},
{ "type":"Feature","properties":{"osm_way_id":"565046623","name":"The Co-operative Food","building":"yes","shop":"supermarket","other":{"brand":"The Co-operative Food","brand:wikidata":"Q3277439","brand:wikipedia":"en:Co-op Food"}}, "geometry":{"type":"MultiPolygon","coordinates":[[[[-3.83841,56.1342],[-3.8381,56.134],[-3.83776,56.13417],[-3.83807,56.13437],[-3.83841,56.1342]]]]}},
{ "type":"Feature","properties":{"osm_way_id":"881270713","name":"Lidl","building":"yes","shop":"supermarket","other":{"addr:postcode":"FK10 4DA","addr:street":"Clackmannan Road","brand":"Lidl","brand:wikidata":"Q151954","brand:wikipedia":"en:Lidl","fhrs:id":"1193612"}}, "geometry":{"type":"MultiPolygon","coordinates":[[[[-3.77636,56.11656],[-3.77595,56.11652],[-3.77594,56.11656],[-3.7758,56.11654],[-3.77598,56.11597],[-3.77653,56.11603],[-3.77636,56.11656]]]]}},
{ "type":"Feature","properties":{"osm_way_id":"1026480266","building":"yes","shop":"supermarket"},"geometry":{"type":"MultiPolygon","coordinates":[[[[-3.84335,56.13444],[-3.84317,56.13444],[-3.84317,56.13433],[-3.84334,56.13433],[-3.84335,56.13444]]]]}}
]
}
