{
"type": "FeatureCollection",
"features": [
{ "type":"Feature","properties":{"osm_id":"8838068315","name":"Aldi","other":{"addr:city":"Burnley","addr:postcode":"BB10 4AA","addr:street":"Todmorden Road","brand:wikidata":"Q41171672","opening_hours":"Mo-Sa 08:00-22:00; Su 10:00-16:00","shop":"supermarket"}}, "geometry":{"type":"Point","coordinates":[-2.2333,53.78594 ]}},
{ "type":"Feature","properties":{"osm_way_id":"166428878","name":"Asda","building":"yes","shop":"supermarket","other":{"addr:city":"Burnley","addr:country":"GB","addr:postcode":"BB12 0EQ","addr:street":"Princess Way","brand":"Asda","brand:wikidata":"Q297410","brand:wikipedia":"en:Asda","fhrs:id":"120611","operator":"Asda Stores Ltd","website":"https:\/\/storelocator.asda.com\/north-west\/burnley\/princess-way"}}, "geometry":{"type":"MultiPolygon","coordinates":[[[[-2.24542,53.79571],[-2.24512,53.79538],[-2.24525,53.79534],[-2.24514,53.79522],[-2.24527,53.79518],[-2.24511,53.795],[-2.24502,53.79503],[-2.24491,53.79491],[-2.24398,53.7952],[-2.24405,53.79528],[-2.24384,53.79535],[-2.24451,53.79609],[-2.2447,53.79603],[-2.24463,53.79596],[-2.24542,53.79571]]]]}},
{ "type":"Feature","properties":{"osm_way_id":"231254056","name":"ALDI","building":"yes","shop":"supermarket","other":{"addr:city":"Burnley","addr:country":"GB","addr:postcode":"BB11 1BS","addr:street":"Active Way","brand":"ALDI","brand:wikidata":"Q41171672","brand:wikipedia":"en:Aldi","contact:website":"https:\/\/www.aldi.co.uk\/store\/s-uk-E0142"}}, "geometry":{"type":"MultiPolygon","coordinates":[[[[-2.24621,53.79223],[-2.24647,53.79267],[-2.24628,53.79272],[-2.24625,53.79267],[-2.24608,53.7927],[-2.24593,53.79244],[-2.24588,53.79245],[-2.24579,53.79233],[-2.24585,53.79231],[-2.24584,53.79229],[-2.24621,53.79223]]]]}},
{ "type":"Feature","properties":{"osm_way_id":"316953678","name":"B&M Home Store","building":"yes","shop":"supermarket","other":{"addr:city":"Burnley","addr:postcode":"BB11 1RT","addr:street":"Active Way","fhrs:id":"119369","operator":"B&M"}}, "geometry":{"type":"MultiPolygon","coordinates":[[[[-2.24954,53.79046],[-2.2489,53.79008],[-2.24845,53.79035],[-2.24906,53.79073],[-2.24954,53.79046]]]]}},
{ "type":"Feature","properties":{"osm_way_id":"473868308","name":"Spar","building":"yes","shop":"supermarket","other":{"addr:city":"Burnley","addr:housenumber":"61-63","addr:postcode":"BB11 4LF","addr:street":"St Matthew Street","brand":"Spar","brand:wikidata":"Q610492","brand:wikipedia":"en:Spar (retailer)","website":"https:\/\/www.spar.co.uk\/"}}, "geometry":{"type":"MultiPolygon","coordinates":[[[[-2.25777,53.78524],[-2.25764,53.78519],[-2.25775,53.78509],[-2.25788,53.78514],[-2.25777,53.78524]]]]}},
{ "type":"Feature","properties":{"osm_way_id":"477350647","name":"Lidl","building":"yes","shop":"supermarket","other":{"addr:city":"Burnley","addr:country":"GB","addr:housenumber":"151","addr:postcode":"BB10 1EH","addr:street":"Colne Road","brand":"Lidl","brand:wikidata":"Q151954","brand:wikipedia":"en:Lidl","fhrs:id":"410238","website":"https:\/\/lidl.co.uk\/"}}, "geometry":{"type":"MultiPolygon","coordinates":[[[[-2.23405,53.80345],[-2.23392,53.8034],[-2.23362,53.80331],[-2.23332,53.80321],[-2.23343,53.80307],[-2.23335,53.80305],[-2.23342,53.80296],[-2.23423,53.80322],[-2.23405,53.80345]]]]}},
{ "type":"Feature","properties":{"osm_way_id":"478551107","name":"Tesco","building":"yes","shop":"supermarket","other":{"brand":"Tesco","brand:wikidata":"Q487494","brand:wikipedia":"en:Tesco"}}, "geometry":{"type":"MultiPolygon","coordinates":[[[[-2.31119,53.80106],[-2.31101,53.80047],[-2.30993,53.80056],[-2.31004,53.80091],[-2.30997,53.80094],[-2.31013,53.80106],[-2.31017,53.80107],[-2.31021,53.80117],[-2.31028,53.80114],[-2.31119,53.80106]]]]}},
{ "type":"Feature","properties":{"osm_way_id":"479610155","name":"Sainsbury's","building":"yes","shop":"supermarket","other":{"addr:city":"Burnley","addr:street":"Active Way","brand":"Sainsbury's","brand:wikidata":"Q152096","brand:wikipedia":"en:Sainsbury's","contact:website":"https:\/\/stores.sainsburys.co.uk\/2848\/burnley"}}, "geometry":{"type":"MultiPolygon","coordinates":[[[[-2.24209,53.79465],[-2.24162,53.79465],[-2.24163,53.7945],[-2.24134,53.79449],[-2.24113,53.79449],[-2.24115,53.79416],[-2.24128,53.79416],[-2.24129,53.79387],[-2.24132,53.79387],[-2.24132,53.79373],[-2.242,53.79374],[-2.242,53.79372],[-2.24219,53.79372],[-2.24219,53.79373],[-2.24219,53.79382],[-2.24229,53.79382],[-2.24229,53.79395],[-2.2423,53.79396],[-2.24229,53.79447],[-2.24221,53.79451],[-2.2421,53.7945],[-2.24209,53.79465]]]]}},
{ "type":"Feature","properties":{"osm_way_id":"479720332","name":"Spar","building":"yes","shop":"supermarket","other":{"addr:city":"Burnley","addr:housename":"Eastern Avenue Service Station","addr:postcode":"BB10 2AR","addr:street":"Eastern Avenue","brand":"Spar","brand:wikidata":"Q610492","brand:wikipedia":"en:Spar (retailer)"}}, "geometry":{"type":"MultiPolygon","coordinates":[[[[-2.22342,53.80229],[-2.2231,53.80227],[-2.22312,53.80217],[-2.22344,53.80219],[-2.22342,53.80229]]]]}},
{ "type":"Feature","properties":{"osm_way_id":"499664932","name":"Tesco Extra","building":"yes","shop":"supermarket","other":{"addr:city":"Burnley","addr:postcode":"BB11 2HE","addr:street":"Centenary Way","brand":"Tesco Extra","brand:wikidata":"Q25172225","brand:wikipedia":"en:Tesco Extra","contact:website":"https:\/\/www.tesco.com\/store-locator\/burnley\/finsley-gate"}}, "geometry":{"type":"MultiPolygon","coordinates":[[[[-2.24176,53.78581],[-2.2406,53.78641],[-2.24025,53.78637],[-2.24016,53.7863],[-2.23969,53.78597],[-2.24023,53.78569],[-2.24007,53.78558],[-2.24028,53.78547],[-2.24046,53.78558],[-2.24098,53.78529],[-2.24176,53.78581]]]]}}
]
}
