{
"type": "FeatureCollection",
"features": [
{ "type":"Feature","properties":{"osm_id":"1037126332","name":"Iceland","other":{"addr:postcode":"LL77 7PN","addr:street":"Stryd y Bont","brand":"Iceland","brand:wikidata":"Q721810","fhrs:id":"349641","shop":"supermarket","source:postcode":"FHRS Open Data"}}, "geometry":{"type":"Point","coordinates":[-4.30952,53.2555 ]}},
{ "type":"Feature","properties":{"osm_id":"1037779061","name":"Co-operative","other":{"addr:postcode":"LL74 8TF","addr:street":"Ffordd Bangor","fhrs:id":"349636","shop":"supermarket","source:addr":"FHRS Open Data"}}, "geometry":{"type":"Point","coordinates":[-4.22666,53.3193 ]}},
{ "type":"Feature","properties":{"osm_id":"1446630640","name":"Spar","other":{"addr:place":"Valley Precinct","addr:postcode":"LL65 3EB","addr:street":"Station Road","addr:unit":"9A","brand":"Spar","brand:wikidata":"Q610492","brand:wikipedia":"en:SPAR (retailer)","fhrs:id":"92841","shop":"supermarket","source:addr":"FHRS Open Data"}}, "geometry":{"type":"Point","coordinates":[-4.56102,53.28214 ]}},
{ "type":"Feature","properties":{"osm_id":"3354468480","name":"Morrisons","other":{"amenity":"fuel","brand":"Morrisons","brand:wikidata":"Q922344","brand:wikipedia":"en:Morrisons","operator":"Morrisons","shop":"supermarket","website":"https:\/\/my.morrisons.com\/storefinder\/425"}}, "geometry":{"type":"Point","coordinates":[-4.6205,53.29987 ]}},
{ "type":"Feature","properties":{"osm_way_id":"89416607","name":"Asda","building":"yes","shop":"supermarket","other":{"addr:country":"GB","addr:postcode":"LL77 7DW","addr:street":"Ffordd Cae","brand":"Asda","brand:wikidata":"Q297410","brand:wikipedia":"en:Asda","contact:facebook":"https:\/\/www.facebook.com\/asda\/","contact:twitter":"@asda","contact:website":"https:\/\/storelocator.asda.com\/wales\/llangefni\/ffordd-cae-sel","fhrs:id":"131896","operator":"Asda Stores Ltd","source:addr":"FHRS Open Data"}}, "geometry":{"type":"MultiPolygon","coordinates":[[[[-4.30982,53.25751],[-4.30981,53.25739],[-4.31004,53.25739],[-4.31002,53.25696],[-4.30929,53.25697],[-4.3093,53.25702],[-4.30914,53.25702],[-4.30916,53.2574],[-4.30934,53.2574],[-4.30935,53.25752],[-4.30982,53.25751]]]]}},
{ "type":"Feature","properties":{"osm_way_id":"94411652","name":"Aldi","building":"yes","shop":"supermarket","other":{"brand":"ALDI","brand:wikidata":"Q41171672","brand:wikipedia":"en:Aldi"}}, "geometry":{"type":"MultiPolygon","coordinates":[[[[-4.3091,53.25411],[-4.30904,53.25394],[-4.30901,53.25394],[-4.30898,53.25385],[-4.30822,53.25393],[-4.30824,53.25402],[-4.30821,53.25402],[-4.30826,53.25422],[-4.30829,53.25423],[-4.30853,53.25421],[-4.30852,53.25418],[-4.3091,53.25411]]]]}},
{ "type":"Feature","properties":{"osm_way_id":"94411849","name":"Lidl","building":"yes","shop":"supermarket","other":{"addr:postcode":"LL77 7JA","addr:street":"Industrial Estate Road","brand":"Lidl","brand:wikidata":"Q151954","fhrs:id":"116343","source:addr":"FHRS Open Data"}}, "geometry":{"type":"MultiPolygon","coordinates":[[[[-4.30726,53.25387],[-4.30755,53.25384],[-4.30755,53.25381],[-4.30797,53.25376],[-4.30793,53.25362],[-4.30808,53.25361],[-4.30805,53.25349],[-4.30718,53.25358],[-4.30726,53.25387]]]]}},
{ "type":"Feature","properties":{"osm_way_id":"131452656","name":"Waitrose","building":"yes","shop":"supermarket","other":{"addr:postcode":"LL59 5EA","addr:street":"Mona Road","alt_name":"Waitrose Menai Bridge","brand":"Waitrose","brand:wikidata":"Q771734","brand:wikipedia":"en:Waitrose","fhrs:id":"133358","official_name":"Waitrose & Partners","opening_hours":"Mo-Sa 08:00-20:00; Fr 08:00-21:00; Su 10:00-16:00","operator":"Waitrose & Partners","wheelchair":"yes"}}, "geometry":{"type":"MultiPolygon","coordinates":[[[[-4.16619,53.22318],[-4.1662,53.22291],[-4.16627,53.22291],[-4.16689,53.22265],[-4.16715,53.22266],[-4.16708,53.2229],[-4.16689,53.2229],[-4.16689,53.22311],[-4.16652,53.2231],[-4.16652,53.22318],[-4.16619,53.22318]]]]}},
{ "type":"Feature","properties":{"osm_way_id":"154808386","name":"Morrisons","building":"yes","shop":"supermarket","other":{"addr:postcode":"LL65 2UQ","addr:street":"Penrhos","alt_name":"Morrisons Holyhead","brand":"Morrisons","brand:wikidata":"Q922344","brand:wikipedia":"en:Morrisons","website":"https:\/\/my.morrisons.com\/storefinder\/425"}}, "geometry":{"type":"MultiPolygon","coordinates":[[[[-4.61862,53.2983],[-4.61942,53.29872],[-4.61931,53.2988],[-4.61923,53.29875],[-4.61869,53.29912],[-4.61791,53.2987],[-4.61815,53.29854],[-4.61808,53.29851],[-4.61815,53.29846],[-4.61805,53.29841],[-4.61822,53.2983],[-4.61804,53.2982],[-4.61821,53.29808],[-4.61862,53.2983]]]]}},
{ "type":"Feature","properties":{"osm_way_id":"158247851","name":"ALDI","building":"yes","shop":"supermarket","other":{"brand":"ALDI","brand:wikidata":"Q41171672","brand:wikipedia":"en:Aldi","contact:website":"https:\/\/www.aldi.co.uk\/store\/s-uk-E1343"}}, "geometry":{"type":"MultiPolygon","coordinates":[[[[-4.61702,53.30138],[-4.61653,53.30104],[-4.61603,53.30131],[-4.61652,53.30164],[-4.61702,53.30138]]]]}},
{ "type":"Feature","properties":{"osm_way_id":"158249037","name":"The Co-operative Food","building":"yes","shop":"supermarket","other":{"addr:housenumber":"45-49","addr:postcode":"LL65 1UL","addr:street":"Market Street","alt_name":"The Co-operative Food","operator":"The Co-operative Group"}}, "geometry":{"type":"MultiPolygon","coordinates":[[[[-4.6333,53.30999],[-4.63281,53.30991],[-4.63272,53.31012],[-4.63268,53.31011],[-4.63264,53.31016],[-4.63286,53.3102],[-4.63322,53.31027],[-4.6333,53.30999]]]]}},
{ "type":"Feature","properties":{"osm_way_id":"158252675","name":"Lidl","building":"yes","shop":"supermarket","other":{"addr:country":"GB","addr:postcode":"LL65 2BS","addr:street":"Llanfawr Road","alt_name":"LIDL Holyhead","brand":"Lidl","brand:wikidata":"Q151954","brand:wikipedia":"en:Lidl","building:levels":"1","building:use":"shop","fhrs:id":"115620","roof:orientation":"along","roof:shape":"pitched"}}, "geometry":{"type":"MultiPolygon","coordinates":[[[[-4.62889,53.3065],[-4.62866,53.3071],[-4.62879,53.30711],[-4.62883,53.30701],[-4.62911,53.30705],[-4.62912,53.307],[-4.62916,53.30701],[-4.62927,53.30672],[-4.62929,53.30673],[-4.62936,53.30655],[-4.62928,53.30654],[-4.62921,53.30653],[-4.6292,53.30654],[-4.62889,53.3065]]]]}},
{ "type":"Feature","properties":{"osm_way_id":"173989046","name":"Co-operative Food","building":"yes","shop":"supermarket","other":{"addr:postcode":"LL61 5YX","addr:street":"Holyhead Road","fhrs:id":"122219","opening_hours":"Mo-Sa 07:00-22:00; Su 10:00-16:00","source:postcode":"FHRS Open Data"}}, "geometry":{"type":"MultiPolygon","coordinates":[[[[-4.2132,53.2215],[-4.21318,53.22158],[-4.2129,53.22156],[-4.21292,53.22148],[-4.21254,53.22145],[-4.2126,53.22115],[-4.21327,53.2212],[-4.21321,53.2215],[-4.2132,53.2215]]]]}},
{ "type":"Feature","properties":{"osm_way_id":"188806025","name":"Asda","building":"yes","shop":"supermarket","other":{"addr:city":"Holyhead","addr:country":"GB","addr:postcode":"LL65 2RN","addr:street":"Kingsland Road","alt_name":"ASDA Holyhead Supermarket","brand":"Asda","brand:wikidata":"Q297410","brand:wikipedia":"en:Asda","contact:facebook":"https:\/\/www.facebook.com\/asda\/","contact:twitter":"@asda","contact:website":"https:\/\/storelocator.asda.com\/wales\/holyhead\/kingsland-road","fhrs:id":"133863","operator":"Asda Stores Ltd"}}, "geometry":{"type":"MultiPolygon","coordinates":[[[[-4.62885,53.30328],[-4.62861,53.30309],[-4.629,53.30291],[-4.62902,53.30292],[-4.62923,53.30309],[-4.6293,53.30306],[-4.62942,53.30316],[-4.62904,53.30333],[-4.62892,53.30324],[-4.62885,53.30328]]]]}},
{ "type":"Feature","properties":{"osm_way_id":"188806606","name":"Tesco Extra","building":"yes","shop":"supermarket","other":{"addr:housename":"Penrhos Industrial Estate","addr:postcode":"LL65 2UH","addr:street":"Penrhos","alt_name":"Tesco Holyhead Extra","brand":"Tesco Extra","brand:wikidata":"Q25172225","brand:wikipedia":"en:Tesco Extra"}}, "geometry":{"type":"MultiPolygon","coordinates":[[[[-4.62143,53.30076],[-4.62121,53.30055],[-4.62065,53.30073],[-4.62055,53.30061],[-4.61949,53.30095],[-4.61959,53.30105],[-4.61948,53.30108],[-4.61987,53.30153],[-4.61999,53.30149],[-4.62012,53.30164],[-4.62027,53.30158],[-4.62086,53.30139],[-4.62143,53.30076]]]]}},
{ "type":"Feature","properties":{"osm_way_id":"229677592","name":"Trearddur Stores","building":"yes","shop":"supermarket","other":{"addr:postcode":"LL65 2YR","addr:street":"LÃ´n Sant Ffraid","fhrs:id":"611206","operator":"Costcutter"}}, "geometry":{"type":"MultiPolygon","coordinates":[[[[-4.61677,53.28044],[-4.61662,53.28027],[-4.61674,53.28019],[-4.6168,53.28017],[-4.61689,53.28026],[-4.61686,53.28027],[-4.61689,53.28031],[-4.61684,53.28033],[-4.61688,53.28038],[-4.61677,53.28044]]]]}},
{ "type":"Feature","properties":{"osm_way_id":"491385845","name":"Co-op Food","building":"yes","shop":"supermarket","other":{"operator":"The Co-operative Group"}}, "geometry":{"type":"MultiPolygon","coordinates":[[[[-4.34349,53.40963],[-4.3434,53.40948],[-4.34326,53.40951],[-4.34323,53.40946],[-4.34281,53.40955],[-4.34295,53.40978],[-4.34292,53.40979],[-4.34298,53.40988],[-4.34317,53.40984],[-4.34315,53.40981],[-4.3434,53.40975],[-4.34335,53.40967],[-4.34349,53.40963]]]]}}
]
}
