{
"type": "FeatureCollection",
"features": [
{ "type":"Feature","properties":{"osm_id":"5086319563","name":"Spar","other":{"addr:city":"Hailsham","addr:street":"Golden Cross","brand":"Spar","brand:wikidata":"Q610492","brand:wikipedia":"en:Spar (retailer)","opening_hours":"24\/7","operator":"Spar","phone":"+44 3334004114","shop":"supermarket","wheelchair":"yes"}}, "geometry":{"type":"Point","coordinates":[0.18372,50.89135 ]}},
{ "type":"Feature","properties":{"osm_way_id":"138533276","name":"Morrisons","building":"yes","shop":"supermarket","other":{"addr:city":"Crowborough","addr:postcode":"TN6 1DP","addr:street":"Pine Grove","brand":"Morrisons","brand:wikidata":"Q922344","brand:wikipedia":"en:Morrisons","fhrs:id":"182787","payment:american_express":"yes","payment:cash":"yes","payment:credit_cards":"yes","payment:visa":"yes","source:addr":"FHRS Open Data","website":"https:\/\/my.morrisons.com\/storefinder\/158"}}, "geometry":{"type":"MultiPolygon","coordinates":[[[[0.16025,51.05957],[0.15992,51.05947],[0.15999,51.05938],[0.15969,51.05928],[0.15964,51.05931],[0.15949,51.05923],[0.15943,51.05927],[0.15915,51.05912],[0.15958,51.05882],[0.15967,51.05872],[0.1599,51.05879],[0.15995,51.05874],[0.16071,51.05899],[0.16069,51.05902],[0.16025,51.05957]]]]}},
{ "type":"Feature","properties":{"osm_way_id":"138915366","name":"Waitrose","building":"retail","shop":"supermarket","other":{"addr:postcode":"TN6 1DL","addr:street":"Croft Road","brand":"Waitrose","brand:wikidata":"Q771734","brand:wikipedia":"en:Waitrose","fhrs:id":"171948","official_name":"Waitrose & Partners","operator":"Waitrose & Partners","source:addr":"FHRS Open Data","toilets:wheelchair":"yes","wheelchair":"yes"}}, "geometry":{"type":"MultiPolygon","coordinates":[[[[0.16146,51.05787],[0.16163,51.05786],[0.1618,51.05812],[0.16164,51.05815],[0.16146,51.05787]]]]}},
{ "type":"Feature","properties":{"osm_way_id":"152300731","name":"Tesco","building":"yes","shop":"supermarket","other":{"addr:city":"Uckfield","addr:postcode":"TN22 1BA","addr:street":"Bell Farm Road","brand":"Tesco","brand:wikidata":"Q487494","brand:wikipedia":"en:Tesco","fhrs:id":"167707;1011110","opening_hours":"Mo-Sa 06:00-24:00; Su 10:00-16:00","source:addr":"FHRS Open Data"}}, "geometry":{"type":"MultiPolygon","coordinates":[[[[0.0938,50.97102],[0.0949,50.97101],[0.09488,50.9704],[0.0946,50.97041],[0.0946,50.97048],[0.09405,50.97049],[0.09405,50.9706],[0.0939,50.97061],[0.0939,50.97078],[0.09378,50.97078],[0.0938,50.97102]]]]}},
{ "type":"Feature","properties":{"osm_way_id":"158259767","name":"Tesco","building":"yes","shop":"supermarket","other":{"addr:city":"Jarvis Brook","addr:place":"Millbrook Business Park","addr:postcode":"TN6 3DZ","addr:street":"Sybron Way","brand":"Tesco","brand:wikidata":"Q487494","brand:wikipedia":"en:Tesco","fhrs:id":"174229","source:addr":"FHRS Open Data"}}, "geometry":{"type":"MultiPolygon","coordinates":[[[[0.19207,51.04612],[0.19312,51.0461],[0.1931,51.04578],[0.19205,51.04581],[0.19207,51.04612]]]]}},
{ "type":"Feature","properties":{"osm_way_id":"185600881","name":"Tesco","building":"yes","shop":"supermarket","other":{"addr:postcode":"BN27 1DN","addr:street":"North Street","brand":"Tesco","brand:wikidata":"Q487494","brand:wikipedia":"en:Tesco","fhrs:id":"183302"}}, "geometry":{"type":"MultiPolygon","coordinates":[[[[0.25633,50.86481],[0.25613,50.86439],[0.25634,50.86441],[0.25638,50.86428],[0.25716,50.86441],[0.25728,50.8644],[0.25731,50.86479],[0.25725,50.86492],[0.25717,50.86497],[0.25633,50.86481]]]]}},
{ "type":"Feature","properties":{"osm_way_id":"185601230","name":"Waitrose","building":"yes","shop":"supermarket","other":{"addr:postcode":"BN27 1BE","addr:street":"Vicarage Field","brand":"Waitrose","brand:wikidata":"Q771734","brand:wikipedia":"en:Waitrose & Partners","fhrs:id":"179505","official_name":"Waitrose & Partners","operator":"Waitrose & Partners","wheelchair":"yes"}}, "geometry":{"type":"MultiPolygon","coordinates":[[[[0.25962,50.86408],[0.2603,50.86382],[0.26052,50.86404],[0.26048,50.86412],[0.26043,50.86414],[0.26049,50.86421],[0.25995,50.8644],[0.25962,50.86408]]]]}},
{ "type":"Feature","properties":{"osm_way_id":"187870730","name":"Sainsbury's","building":"yes","shop":"supermarket","other":{"addr:city":"Heathfield","addr:postcode":"TN21 8LD","addr:street":"Station Road","alt_name":"Sainsbury's Heathfield Superstore","brand":"Sainsbury's","brand:wikidata":"Q152096","brand:wikipedia":"en:Sainsbury's","fhrs:id":"605509","opening_hours":"Mo-Sa 07:00-22:00; Su 10:00-16:00"}}, "geometry":{"type":"MultiPolygon","coordinates":[[[[0.25064,50.97022],[0.2509,50.97],[0.251,50.96998],[0.25124,50.9701],[0.25126,50.97015],[0.25115,50.97023],[0.25123,50.97027],[0.25118,50.97032],[0.25112,50.97033],[0.25107,50.97031],[0.25105,50.97033],[0.25093,50.97028],[0.25087,50.97033],[0.25081,50.97034],[0.25065,50.97027],[0.25064,50.97022]]]]}},
{ "type":"Feature","properties":{"osm_way_id":"187870731","name":"The Co-operative Food","building":"yes","shop":"supermarket","other":{"addr:city":"Heathfield","addr:housenumber":"110","addr:postcode":"TN21 8JD","addr:street":"High Street","opening_hours":"Mo-Sa 06:00-23:00; Su 10:00-16:00"}}, "geometry":{"type":"MultiPolygon","coordinates":[[[[0.24653,50.9706],[0.24664,50.97045],[0.24689,50.97034],[0.24698,50.97036],[0.24699,50.97035],[0.24722,50.97042],[0.24726,50.97047],[0.24717,50.97061],[0.24726,50.97077],[0.24731,50.97078],[0.24729,50.97082],[0.24725,50.97088],[0.24723,50.97087],[0.24705,50.9711],[0.24653,50.97096],[0.24673,50.97067],[0.24653,50.9706]]]]}},
{ "type":"Feature","properties":{"osm_way_id":"250088134","name":"Lidl","building":"yes","shop":"supermarket","other":{"addr:postcode":"TN6 1AS","addr:street":"Beacon Road","brand":"Lidl","brand:wikidata":"Q151954","brand:wikipedia":"en:Lidl","fhrs:id":"700444","operator":"Lidl","source:addr":"FHRS Open Data"}}, "geometry":{"type":"MultiPolygon","coordinates":[[[[0.15838,51.06058],[0.15853,51.06067],[0.15848,51.0607],[0.15861,51.06078],[0.15922,51.0604],[0.1589,51.06019],[0.15872,51.06031],[0.15877,51.06034],[0.15838,51.06058]]]]}},
{ "type":"Feature","properties":{"osm_way_id":"416513578","name":"Waitrose","building":"yes","shop":"supermarket","other":{"addr:housenumber":"96-98","addr:postcode":"TN22 1PU","addr:street":"High Street","brand":"Waitrose","brand:wikidata":"Q771734","brand:wikipedia":"en:Waitrose","fhrs:id":"183226","official_name":"Waitrose & Partners","opening_hours":"Mo-Sa 07:00-21:00; Su 10:00-16:00","operator":"Waitrose & Partners"}}, "geometry":{"type":"MultiPolygon","coordinates":[[[[0.09618,50.96975],[0.09696,50.96963],[0.09705,50.96988],[0.09677,50.96997],[0.0967,50.96988],[0.09662,50.96989],[0.09646,50.96991],[0.09633,50.96992],[0.09633,50.96991],[0.09628,50.96992],[0.09627,50.96992],[0.09618,50.96975]]]]}},
{ "type":"Feature","properties":{"osm_way_id":"454723762","name":"Waitrose","building":"yes","shop":"supermarket","other":{"addr:city":"Heathfield","addr:postcode":"TN21 8DF","addr:street":"Station Road","alt_name":"Waitrose Heathfield","brand":"Waitrose","brand:wikidata":"Q771734","brand:wikipedia":"en:Waitrose","fhrs:id":"785092","official_name":"Waitrose & Partners","opening_hours":"Mo-Sa 07:00-22:00; Su 11:00-17:00","operator":"Waitrose & Partners"}}, "geometry":{"type":"MultiPolygon","coordinates":[[[[0.2524,50.9689],[0.25237,50.96885],[0.25242,50.96873],[0.25266,50.96867],[0.25284,50.96895],[0.25268,50.96899],[0.25259,50.96885],[0.2524,50.9689]]]]}},
{ "type":"Feature","properties":{"osm_way_id":"483917968","name":"Co-operative Food","building":"yes","shop":"supermarket","other":{"addr:city":"Hailsham","addr:housename":"Provenders Lodge","addr:housenumber":"85","addr:postcode":"BN27 1NX","addr:street":"Upper Horsebridge Road","fhrs:id":"178490","source:addr":"FHRS Open Data"}}, "geometry":{"type":"MultiPolygon","coordinates":[[[[0.25334,50.87884],[0.25318,50.87886],[0.25322,50.879],[0.25338,50.87898],[0.25334,50.87884]]]]}},
{ "type":"Feature","properties":{"osm_way_id":"501241001","name":"Asda","shop":"supermarket","other":{"addr:country":"GB","addr:housenumber":"3","addr:place":"The Quintins Centre","addr:postcode":"BN27 1DP","brand":"Asda","brand:wikidata":"Q297410","brand:wikipedia":"en:Asda","contact:facebook":"https:\/\/www.facebook.com\/asda\/","contact:twitter":"@asda","contact:website":"https:\/\/storelocator.asda.com\/south-east\/hailsham\/3-the-quintins-north-street","fhrs:id":"481624","inside":"yes","opening_hours":"Mo-Sa 08:00-22:00; Su 10:00-16:00","operator":"Asda Stores Ltd","wheelchair":"yes"}}, "geometry":{"type":"MultiPolygon","coordinates":[[[[0.25751,50.86361],[0.25764,50.86333],[0.25769,50.86318],[0.25807,50.86326],[0.25831,50.86332],[0.25837,50.86337],[0.25827,50.86354],[0.25821,50.86365],[0.25819,50.86382],[0.25803,50.86379],[0.25807,50.86371],[0.25751,50.86361]]]]}},
{ "type":"Feature","properties":{"osm_way_id":"524851030","name":"Coop","building":"yes","shop":"supermarket","other":{"addr:city":"Horam","addr:postcode":"TN21 0EL","addr:street":"High Street"}}, "geometry":{"type":"MultiPolygon","coordinates":[[[[0.24343,50.93472],[0.24354,50.93467],[0.24338,50.93454],[0.24335,50.93456],[0.24334,50.93454],[0.24324,50.9346],[0.24328,50.93463],[0.24331,50.93462],[0.24343,50.93472]]]]}},
{ "type":"Feature","properties":{"osm_way_id":"724575460","name":"Spar","building":"yes","shop":"supermarket","other":{"addr:postcode":"TN21 8SU","addr:street":"Burwash Road","brand":"Spar","brand:wikidata":"Q610492","fhrs:id":"180308","source:addr":"FHRS Open Data"}}, "geometry":{"type":"MultiPolygon","coordinates":[[[[0.28323,50.97701],[0.28309,50.97717],[0.28319,50.9772],[0.28323,50.97716],[0.28335,50.97719],[0.28344,50.97709],[0.28323,50.97701]]]]}},
{ "type":"Feature","properties":{"osm_way_id":"820493774","name":"Lidl","building":"yes","shop":"supermarket","other":{"addr:city":"Polegate","addr:postcode":"BN26 6HY","addr:street":"Dittons Road","brand":"Lidl","brand:wikidata":"Q151954","brand:wikipedia":"en:Lidl","fhrs:id":"1025515"}}, "geometry":{"type":"MultiPolygon","coordinates":[[[[0.2734,50.82033],[0.27396,50.82032],[0.27396,50.82057],[0.27404,50.82056],[0.27406,50.82065],[0.27396,50.82066],[0.27396,50.82081],[0.27353,50.82084],[0.27353,50.82052],[0.27343,50.82052],[0.2734,50.82033]]]]}},
{ "type":"Feature","properties":{"osm_way_id":"956326615","building":"yes","other":{"addr:city":"Crowborough","addr:housenumber":"1","addr:postcode":"TN6 2EH","addr:street":"Burdett Road"}}, "geometry":{"type":"MultiPolygon","coordinates":[[[[0.18733,51.04898],[0.18724,51.04893],[0.18731,51.04889],[0.18739,51.04893],[0.18733,51.04898]]]]}},
{ "type":"Feature","properties":{"osm_way_id":"963243436","name":"Costcutter","building":"yes","shop":"supermarket","other":{"addr:city":"Hailsham","addr:housenumber":"23","addr:postcode":"BN27 3JG","addr:street":"South Road","brand":"Costcutter","brand:wikidata":"Q5175072","brand:wikipedia":"en:Costcutter"}}, "geometry":{"type":"MultiPolygon","coordinates":[[[[0.25441,50.86007],[0.25452,50.86012],[0.25469,50.85999],[0.25457,50.85991],[0.25441,50.86007]]]]}}
]
}
