{
"type": "FeatureCollection",
"features": [
{ "type":"Feature","properties":{"osm_id":"6468792160","name":"Le Mirage","other":{"addr:city":"New Malden","addr:housenumber":"249A","addr:street":"Burlington Road","building":"warehouse"}}, "geometry":{"type":"Point","coordinates":[-0.23879,51.40046 ]}},
{ "type":"Feature","properties":{"osm_way_id":"4993835","building":"warehouse"},"geometry":{"type":"MultiPolygon","coordinates":[[[[-0.15434,51.41257],[-0.15363,51.41312],[-0.15399,51.41331],[-0.15472,51.41274],[-0.15434,51.41257]]]]}},
{ "type":"Feature","properties":{"osm_way_id":"4993837","building":"warehouse"},"geometry":{"type":"MultiPolygon","coordinates":[[[[-0.15359,51.41326],[-0.15388,51.41341],[-0.15339,51.41384],[-0.15307,51.41369],[-0.15359,51.41326]]]]}},
{ "type":"Feature","properties":{"osm_way_id":"4993838","building":"warehouse"},"geometry":{"type":"MultiPolygon","coordinates":[[[[-0.15382,51.41468],[-0.15162,51.4136],[-0.15189,51.41338],[-0.15408,51.41446],[-0.15382,51.41468]]]]}},
{ "type":"Feature","properties":{"osm_way_id":"4993839","building":"warehouse"},"geometry":{"type":"MultiPolygon","coordinates":[[[[-0.15242,51.41346],[-0.15204,51.4133],[-0.15375,51.41188],[-0.15412,51.41204],[-0.15242,51.41346]]]]}},
{ "type":"Feature","properties":{"osm_way_id":"4996853","name":"Ocado","building":"warehouse","other":{"addr:city":"London","addr:housenumber":"39-41","addr:postcode":"SW19 8UG","addr:street":"Weir Road","building:levels":"2","roof:shape":"gabled"}}, "geometry":{"type":"MultiPolygon","coordinates":[[[[-0.19344,51.43515],[-0.1931,51.43563],[-0.19232,51.43542],[-0.19266,51.43494],[-0.19344,51.43515]]]]}},
{ "type":"Feature","properties":{"osm_way_id":"95894876","name":"Abel & Cole","building":"warehouse","other":{"addr:city":"Mitcham","addr:parentstreet":"Church Road","addr:street":"Boundary Business Court"}}, "geometry":{"type":"MultiPolygon","coordinates":[[[[-0.17621,51.40444],[-0.17608,51.40415],[-0.17558,51.40423],[-0.17571,51.40452],[-0.17621,51.40444]]]]}},
{ "type":"Feature","properties":{"osm_way_id":"140595149","name":"Abel & Cole","building":"warehouse","other":{"addr:housenumber":"16","addr:postcode":"SW17 0HB","addr:street":"Waterside Way","building:levels":"2"}}, "geometry":{"type":"MultiPolygon","coordinates":[[[[-0.18604,51.42672],[-0.18559,51.42686],[-0.18556,51.42683],[-0.18531,51.4269],[-0.18516,51.42671],[-0.18587,51.4265],[-0.18604,51.42672]]]]}},
{ "type":"Feature","properties":{"osm_way_id":"217540667","name":"Champion Timber","building":"warehouse","shop":"trade","other":{"trade":"wood"}}, "geometry":{"type":"MultiPolygon","coordinates":[[[[-0.24152,51.40003],[-0.24156,51.40022],[-0.24167,51.40021],[-0.24188,51.40019],[-0.24212,51.40028],[-0.24192,51.40051],[-0.24167,51.40077],[-0.24161,51.40083],[-0.24157,51.40079],[-0.24148,51.40076],[-0.24135,51.40076],[-0.24117,51.40007],[-0.24124,51.40006],[-0.24152,51.40003]]]]}},
{ "type":"Feature","properties":{"osm_way_id":"249426298","building":"warehouse"},"geometry":{"type":"MultiPolygon","coordinates":[[[[-0.18323,51.41428],[-0.18319,51.41449],[-0.18314,51.41475],[-0.18334,51.41477],[-0.18336,51.41465],[-0.18349,51.41466],[-0.18356,51.41431],[-0.18323,51.41428]]]]}},
{ "type":"Feature","properties":{"osm_way_id":"357278387","name":"B&Q","building":"warehouse","shop":"doityourself","other":{"addr:housenumber":"1","addr:postcode":"SW19 3BL","addr:street":"The Path","addr:unit":"1","brand":"B&Q","brand:wikidata":"Q707602","brand:wikipedia":"en:B&Q","fhrs:id":"505266"}}, "geometry":{"type":"MultiPolygon","coordinates":[[[[-0.19347,51.41343],[-0.19339,51.41326],[-0.19331,51.41309],[-0.19284,51.41317],[-0.193,51.41351],[-0.19347,51.41343]]]]}},
{ "type":"Feature","properties":{"osm_way_id":"357278399","building":"warehouse"},"geometry":{"type":"MultiPolygon","coordinates":[[[[-0.19552,51.41325],[-0.1954,51.41297],[-0.19387,51.41323],[-0.194,51.41352],[-0.19552,51.41325]]]]}},
{ "type":"Feature","properties":{"osm_way_id":"357278404","building":"warehouse"},"geometry":{"type":"MultiPolygon","coordinates":[[[[-0.19542,51.41263],[-0.19534,51.41245],[-0.1948,51.41255],[-0.19479,51.41252],[-0.19328,51.41278],[-0.19327,51.41275],[-0.19299,51.4128],[-0.1931,51.41303],[-0.19542,51.41263]]]]}},
{ "type":"Feature","properties":{"osm_way_id":"364029783","name":"Ocado","building":"warehouse","other":{"addr:city":"London","addr:postcode":"SW19 3XD","addr:street":"Lee Road","building:levels":"1","start_date":"2020"}}, "geometry":{"type":"MultiPolygon","coordinates":[[[[-0.19146,51.4119],[-0.19144,51.41145],[-0.19193,51.41144],[-0.19194,51.4115],[-0.19226,51.4115],[-0.19228,51.41188],[-0.19146,51.4119]]]]}},
{ "type":"Feature","properties":{"osm_way_id":"689550174","building":"warehouse"},"geometry":{"type":"MultiPolygon","coordinates":[[[[-0.23876,51.40053],[-0.23881,51.40051],[-0.23889,51.4006],[-0.2389,51.40062],[-0.239,51.40075],[-0.23888,51.40079],[-0.23885,51.40079],[-0.23864,51.40058],[-0.23864,51.40058],[-0.23876,51.40053]]]]}},
{ "type":"Feature","properties":{"osm_way_id":"964682863","building":"warehouse"},"geometry":{"type":"MultiPolygon","coordinates":[[[[-0.20177,51.4184],[-0.20172,51.41829],[-0.20138,51.41835],[-0.20143,51.41846],[-0.20177,51.4184]]]]}}
]
}
