{
"type": "FeatureCollection",
"features": [
{ "type":"Feature","properties":{"osm_id":"312671346","name":"Sainsbury's","other":{"brand":"Sainsbury's","brand:wikidata":"Q152096","brand:wikipedia":"en:Sainsbury's","shop":"supermarket"}}, "geometry":{"type":"Point","coordinates":[-0.19319,51.40294 ]}},
{ "type":"Feature","properties":{"osm_id":"1109388560","name":"Iceland","other":{"addr:city":"Mitcham","addr:housename":"Durham House","addr:housenumber":"12-16","addr:postcode":"CR4 3AA","addr:street":"Upper Green West","brand":"Iceland","brand:wikidata":"Q721810","fhrs:authority":"Merton","fhrs:id":"726440","shop":"supermarket"}}, "geometry":{"type":"Point","coordinates":[-0.165,51.40564 ]}},
{ "type":"Feature","properties":{"osm_id":"1940052292","name":"Lidl","other":{"addr:housenumber":"31","addr:postcode":"SM4 5LN","addr:street":"Aberconway Road","brand":"Lidl","brand:wikidata":"Q151954","fhrs:id":"578966","shop":"supermarket"}}, "geometry":{"type":"Point","coordinates":[-0.19376,51.40134 ]}},
{ "type":"Feature","properties":{"osm_id":"4264086047","name":"The Savanna","other":{"addr:city":"London","addr:country":"GB","addr:housename":"Raynes Park Station","addr:postcode":"SW20 0JY","addr:street":"Approach Road","email":"rpshop@thesavanna.co.uk","fhrs:id":"199905","opening_hours":"Mo-Sa 10:00-20:00; Su 11:00-17:00","phone":"+44 20 8417 0044","shop":"supermarket","website":"https:\/\/www.thesavanna.co.uk\/"}}, "geometry":{"type":"Point","coordinates":[-0.2302,51.40879 ]}},
{ "type":"Feature","properties":{"osm_id":"4366145291","name":"Lidl","other":{"addr:city":"London","addr:housename":"Plough Lane Retail Park","addr:postcode":"SW17 0BW","addr:street":"Plough Lane","addr:unit":"Unit 1","brand":"Lidl","brand:wikidata":"Q151954","brand:wikipedia":"en:Lidl","fhrs:id":"1022850","shop":"supermarket","source:addr":"FHRS Open Data"}}, "geometry":{"type":"Point","coordinates":[-0.18495,51.43042 ]}},
{ "type":"Feature","properties":{"osm_id":"5101640776","name":"Global Food Store","other":{"shop":"supermarket"}}, "geometry":{"type":"Point","coordinates":[-0.19214,51.40225 ]}},
{ "type":"Feature","properties":{"osm_id":"5438825599","name":"Co-op","other":{"automatic_door":"yes","door":"sliding","shop":"supermarket","wheelchair":"yes"}}, "geometry":{"type":"Point","coordinates":[-0.23188,51.40954 ]}},
{ "type":"Feature","properties":{"osm_id":"5545009802","name":"Ecklee","other":{"addr:city":"New Malden","addr:housenumber":"341-345","addr:postcode":"KT3 6JF","addr:street":"West Barnes Lane","automatic_door":"no","door":"hinged","opening_hours":"Mo-Su 08:00-21:00","payment:cash":"yes","payment:mastercard":"yes","payment:visa":"yes","phone":"+44 20 8715 3420","shop":"supermarket","website":"https:\/\/www.ecklee.co.uk\/"}}, "geometry":{"type":"Point","coordinates":[-0.23782,51.39501 ]}},
{ "type":"Feature","properties":{"osm_id":"6032700640","name":"Co-op","other":{"addr:city":"Mitcham","addr:housenumber":"32","addr:postcode":"CR4 1LU","addr:street":"South Lodge Avenue","fhrs:authority":"Merton","fhrs:id":"1038908","opening_hours":"Mo-Su 07:00-22:00","shop":"supermarket"}}, "geometry":{"type":"Point","coordinates":[-0.13228,51.3997 ]}},
{ "type":"Feature","properties":{"osm_id":"6167219574","name":"ALDI","other":{"brand":"ALDI","brand:wikidata":"Q41171672","brand:wikipedia":"en:Aldi","shop":"supermarket"}}, "geometry":{"type":"Point","coordinates":[-0.17882,51.41592 ]}},
{ "type":"Feature","properties":{"osm_id":"6355765327","name":"Waitrose","other":{"addr:housenumber":"25","addr:postcode":"SW20 0BW","addr:street":"Coombe Lane","brand":"Waitrose & Partners","brand:wikidata":"Q771734","brand:wikipedia":"en:Waitrose & Partners","building":"apartments","building:levels":"4","fhrs:id":"486406","level":"0","opening_hours":"Mo-Fr 08:00-21:00; Sa 09:00-20:00; Su 10:00-16:00","operator":"Waitrose & Partners","shop":"supermarket","wheelchair":"yes"}}, "geometry":{"type":"Point","coordinates":[-0.23338,51.40918 ]}},
{ "type":"Feature","properties":{"osm_id":"6561914324","name":"Co-op Food","other":{"brand":"Co-op Food","brand:wikidata":"Q3277439","brand:wikipedia":"en:Co-op Food","shop":"supermarket"}}, "geometry":{"type":"Point","coordinates":[-0.22307,51.39258 ]}},
{ "type":"Feature","properties":{"osm_id":"6708867463","name":"Sainsbury's Local","other":{"addr:city":"London","addr:housenumber":"213","addr:postcode":"SW20 8QY","addr:street":"Worple Road","brand:wikidata":"Q13218434","fhrs:id":"375885","opening_hours":"Mo-Su 07:00-23:00","shop":"supermarket"}}, "geometry":{"type":"Point","coordinates":[-0.22967,51.41047 ]}},
{ "type":"Feature","properties":{"osm_id":"8879524885","name":"Lidl","other":{"addr:country":"GB","addr:housename":"The Tandem Centre","addr:postcode":"SW19 2TY","addr:street":"Tandem Way","addr:unit":"6,7","brand":"Lidl","brand:wikidata":"Q151954","brand:wikipedia":"en:Lidl","fhrs:id":"1270475","shop":"supermarket"}}, "geometry":{"type":"Point","coordinates":[-0.17607,51.41372 ]}},
{ "type":"Feature","properties":{"osm_way_id":"4993828","name":"Lidl","building":"yes","shop":"supermarket","other":{"addr:country":"GB","addr:housenumber":"23","addr:postcode":"CR4 2AD","addr:street":"Streatham Road","brand":"Lidl","brand:wikidata":"Q151954","fhrs:id":"1109961"}}, "geometry":{"type":"MultiPolygon","coordinates":[[[[-0.1589,51.41202],[-0.15918,51.41186],[-0.15846,51.41136],[-0.15818,51.41152],[-0.1589,51.41202]]]]}},
{ "type":"Feature","properties":{"osm_way_id":"4997029","name":"Waitrose & Partners","building":"retail","shop":"supermarket","other":{"addr:city":"London","addr:postcode":"SW19 7JY","addr:street":"Alexandra Road","alt_name":"Waitrose Wimbledon","brand":"Waitrose","brand:wikidata":"Q771734","brand:wikipedia":"en:Waitrose & Partners","contact:phone":"+44 20 8947 9619","contact:website":"http:\/\/www.waitrose.com\/bf_home\/bf\/314.html","fhrs:id":"505278","official_name":"Waitrose & Partners","opening_hours":"Mo-Th 08:00-21:00; Fr 08:00-22:00; Sa 08:00-21:00; Su 11:00-17:00","operator":"Waitrose & Partners","operator:wikidata":"Q771734","roof:colour":"silver","roof:levels":"0","roof:shape":"gabled","toilets":"yes","wheelchair":"yes"}}, "geometry":{"type":"MultiPolygon","coordinates":[[[[-0.20233,51.42472],[-0.20192,51.42513],[-0.20162,51.42543],[-0.20153,51.42551],[-0.20149,51.42556],[-0.20134,51.4255],[-0.20118,51.42544],[-0.20117,51.4254],[-0.20198,51.42458],[-0.20233,51.42472]]]]}},
{ "type":"Feature","properties":{"osm_way_id":"23039045","name":"Tesco Extra","building":"retail","shop":"supermarket","other":{"addr:housenumber":"300","addr:postcode":"KT3 4PJ","addr:street":"Beverley Way","brand":"Tesco Extra","brand:wikidata":"Q25172225","brand:wikipedia":"en:Tesco Extra","building:levels":"2","fhrs:id":"552907","opening_hours":"Mo-Sa 00:00-24:00; Su 10:00-16:00","opening_hours:covid19":"Mo-Sa 06:00-24:00; Su 10:00-16:00","website":"https:\/\/www.tesco.com\/store-locator\/new-malden\/300-beverley-way"}}, "geometry":{"type":"MultiPolygon","coordinates":[[[[-0.24089,51.40209],[-0.24091,51.40229],[-0.24063,51.40297],[-0.23977,51.40282],[-0.23932,51.40262],[-0.23902,51.40256],[-0.23922,51.40211],[-0.23917,51.40204],[-0.23923,51.40189],[-0.23933,51.40185],[-0.23956,51.40189],[-0.23959,51.40182],[-0.23994,51.40188],[-0.23991,51.40194],[-0.24089,51.40209]]]]}},
{ "type":"Feature","properties":{"osm_way_id":"26587165","name":"Sainsbury's Local","building":"yes","shop":"supermarket","other":{"brand:wikidata":"Q13218434","operator":"Sainsburys"}}, "geometry":{"type":"MultiPolygon","coordinates":[[[[-0.19434,51.39519],[-0.1942,51.39505],[-0.19397,51.39514],[-0.19401,51.39518],[-0.19391,51.39521],[-0.19399,51.39528],[-0.19391,51.39532],[-0.19398,51.39539],[-0.19428,51.39527],[-0.19424,51.39523],[-0.19434,51.39519]]]]}},
{ "type":"Feature","properties":{"osm_way_id":"95689883","name":"Lidl","building":"yes","shop":"supermarket","other":{"addr:city":"Mitcham","addr:housenumber":"9-17","addr:postcode":"CR4 3ED","addr:street":"Western Road","brand":"Lidl","brand:wikidata":"Q151954","fhrs:id":"669658","survey:date":"2018-11-02"}}, "geometry":{"type":"MultiPolygon","coordinates":[[[[-0.16669,51.40594],[-0.16679,51.40578],[-0.16612,51.40562],[-0.16589,51.40597],[-0.16626,51.40606],[-0.16639,51.40587],[-0.16669,51.40594]]]]}},
{ "type":"Feature","properties":{"osm_way_id":"95894491","name":"Asda","building":"supermarket","shop":"supermarket","other":{"addr:city":"Mitcham","addr:country":"GB","addr:parentstreet":"Bond Road","addr:postcode":"CR4 3HG","addr:street":"James Estate","addr:unit":"1","alt_name":"Asda Mitcham Supermarket","brand":"Asda","brand:wikidata":"Q297410","brand:wikipedia":"en:Asda","contact:facebook":"https:\/\/www.facebook.com\/asda\/","contact:twitter":"@asda","contact:website":"https:\/\/storelocator.asda.com\/london\/mitcham\/st-james-estate-bond-road","fhrs:id":"480258","operator":"Asda Stores Ltd"}}, "geometry":{"type":"MultiPolygon","coordinates":[[[[-0.16835,51.40776],[-0.16875,51.40747],[-0.16818,51.40711],[-0.16777,51.40729],[-0.16786,51.40734],[-0.16776,51.40745],[-0.16835,51.40776]]]]}},
{ "type":"Feature","properties":{"osm_way_id":"95894493","name":"Hoo Hing","building":"yes","shop":"supermarket","other":{"addr:city":"Mitcham","addr:parentstreet":"Bond Road","addr:postcode":"CR4 3HG","addr:street":"James Estate","addr:unit":"3","fhrs:authority":"Merton","fhrs:id":"505248","opening_hours":"Mo-Fr 09:30-18:00; Sa, PH 10:00-18:00; Su 10:30-16:30","origin":"asian","payment:american_express":"no","payment:cash":"yes","payment:contactless":"yes","payment:mastercard":"yes","payment:visa":"yes","phone":"+44 20 8687 2633","website":"http:\/\/www.hoohing.com\/stores\/mitcham.htm"}}, "geometry":{"type":"MultiPolygon","coordinates":[[[[-0.16842,51.40822],[-0.16776,51.40759],[-0.16737,51.40773],[-0.16808,51.40835],[-0.16842,51.40822]]]]}},
{ "type":"Feature","properties":{"osm_way_id":"114409100","name":"Lidl","building":"yes","shop":"supermarket","other":{"addr:housenumber":"14","addr:postcode":"SW17 9HW","addr:street":"London Road","brand":"Lidl","brand:wikidata":"Q151954","brand:wikipedia":"en:Lidl","fhrs:id":"578970"}}, "geometry":{"type":"MultiPolygon","coordinates":[[[[-0.16332,51.41985],[-0.1633,51.41982],[-0.1632,51.41963],[-0.1637,51.41953],[-0.16373,51.41959],[-0.16418,51.4195],[-0.16425,51.41963],[-0.16433,51.41962],[-0.16437,51.41968],[-0.16339,51.41988],[-0.16337,51.41984],[-0.16332,51.41985]]]]}},
{ "type":"Feature","properties":{"osm_way_id":"159709417","name":"Morrisons","shop":"supermarket","other":{"addr:city":"London","addr:housenumber":"51","addr:postcode":"SW19 1QD","addr:street":"The Broadway","alt_name":"Morrisons Wimbledon","brand":"Morrisons","brand:wikidata":"Q922344","brand:wikipedia":"en:Morrisons","building:part":"yes","fhrs:id":"455478;455483","opening_hours":"Mo-Sa 06:00-23:00; Su 11:00-17:00","operator":"Morrisons Supermarkets plc","phone":"+44 20 8879 3353","wheelchair":"yes"}}, "geometry":{"type":"MultiPolygon","coordinates":[[[[-0.2041,51.41991],[-0.20427,51.41959],[-0.20409,51.41956],[-0.20389,51.41952],[-0.20395,51.41943],[-0.20463,51.41906],[-0.20516,51.41945],[-0.20492,51.41956],[-0.20485,51.41959],[-0.20471,51.41974],[-0.20469,51.41979],[-0.20466,51.41983],[-0.20457,51.41983],[-0.20442,51.41989],[-0.20438,51.41993],[-0.20436,51.41997],[-0.2041,51.41991]]]]}},
{ "type":"Feature","properties":{"osm_way_id":"357278392","name":"Sainsbury's","building":"yes","shop":"supermarket","other":{"addr:city":"London","addr:housenumber":"1","addr:postcode":"SW19 1DD","addr:street":"Merton High Street","alt_name":"Sainsbury's Merton Superstore","brand":"Sainsbury's","brand:wikidata":"Q152096","brand:wikipedia":"en:Sainsbury's","fhrs:id":"455446","layer":"1","opening_hours":"Mo-Sa 07:00-23:00; Su 11:00-17:00","website":"https:\/\/stores.sainsburys.co.uk\/0566\/merton","wheelchair":"yes"}}, "geometry":{"type":"MultiPolygon","coordinates":[[[[-0.18252,51.4147],[-0.18246,51.41471],[-0.18243,51.41472],[-0.18222,51.41475],[-0.18219,51.41475],[-0.18204,51.41443],[-0.18187,51.41446],[-0.18165,51.4145],[-0.18163,51.4145],[-0.18142,51.41454],[-0.18119,51.41458],[-0.18097,51.41461],[-0.18074,51.41466],[-0.18052,51.41469],[-0.18034,51.41472],[-0.18045,51.41496],[-0.18074,51.41565],[-0.18086,51.41591],[-0.18102,51.41588],[-0.18127,51.41584],[-0.18147,51.41581],[-0.1817,51.41577],[-0.18172,51.41582],[-0.18174,51.41582],[-0.18189,51.41579],[-0.182,51.41577],[-0.18203,51.41585],[-0.18216,51.41583],[-0.18228,51.41581],[-0.18225,51.41573],[-0.18241,51.4157],[-0.18255,51.41551],[-0.18261,51.41543],[-0.18261,51.41539],[-0.18259,51.41534],[-0.18278,51.41531],[-0.18252,51.4147]]]]}},
{ "type":"Feature","properties":{"osm_way_id":"434028041","name":"Tesco Metro","shop":"supermarket","other":{"addr:city":"London","addr:housename":"Old Town Hall","addr:postcode":"SW19 8YA","addr:street":"The Broadway","alt_name":"Tesco Wimbledon Metro","brand":"Tesco Metro","brand:wikidata":"Q57551648","fhrs:id":"929405","indoor":"room","level":"0","name:fa":"تسکو مترو","opening_hours":"Mo-Sa 07:00-22:00; Su,PH 11:00-17:00","operator:wikidata":"Q487494"}}, "geometry":{"type":"MultiPolygon","coordinates":[[[[-0.20469,51.42075],[-0.20472,51.4208],[-0.20475,51.42086],[-0.20481,51.4209],[-0.20486,51.42093],[-0.20491,51.42094],[-0.20497,51.42096],[-0.20505,51.42097],[-0.20513,51.42097],[-0.20518,51.4209],[-0.2053,51.42093],[-0.20537,51.42089],[-0.20544,51.42085],[-0.20543,51.42081],[-0.20537,51.42071],[-0.20514,51.42069],[-0.20501,51.42067],[-0.20483,51.42065],[-0.20469,51.42075]]]]}},
{ "type":"Feature","properties":{"osm_way_id":"456267660","name":"Sainsbury's Local","shop":"supermarket","other":{"addr:city":"London","addr:housenumber":"102","addr:postcode":"SW19 1AW","addr:street":"Haydons Road","atm":"yes","brand:wikidata":"Q13218434","level":"0","opening_hours":"Mo-Su 07:00-23:00","operator":"Sainsbury's"}}, "geometry":{"type":"MultiPolygon","coordinates":[[[[-0.18733,51.4202],[-0.18726,51.42003],[-0.18713,51.42005],[-0.1872,51.42022],[-0.18733,51.4202]]]]}},
{ "type":"Feature","properties":{"osm_way_id":"461976340","name":"Sainsbury's","building":"yes","shop":"supermarket","other":{"addr:city":"London","addr:housenumber":"8-12","addr:postcode":"SW19 4DD","addr:street":"Worple Road","alt_name":"Sainsbury's Wimbledon Superstore","brand":"Sainsbury's","brand:wikidata":"Q152096","fhrs:id":"552903","opening_hours":"Mo-Fr 07:00-22:00; Sa 07:00-21:00; Su 11:00-17:00","phone":"+44 20 8946 2210","website":"https:\/\/stores.sainsburys.co.uk\/0016\/wimbledon"}}, "geometry":{"type":"MultiPolygon","coordinates":[[[[-0.20884,51.42077],[-0.2086,51.42092],[-0.20863,51.42094],[-0.20892,51.42112],[-0.20881,51.4212],[-0.2089,51.42124],[-0.20896,51.4212],[-0.209,51.42123],[-0.20915,51.42132],[-0.20942,51.42114],[-0.20942,51.42112],[-0.20884,51.42077]]]]}},
{ "type":"Feature","properties":{"osm_way_id":"469166070","name":"Lidl Streatham","building":"retail","shop":"supermarket","other":{"addr:city":"London","addr:housenumber":"216","addr:postcode":"SW16 5HX","addr:street":"Rowan Road","brand":"Lidl","brand:wikidata":"Q151954","fhrs:id":"578964","operator":"Lidl UK GmbH"}}, "geometry":{"type":"MultiPolygon","coordinates":[[[[-0.13854,51.41122],[-0.13945,51.41149],[-0.13963,51.41126],[-0.13915,51.41112],[-0.13918,51.41106],[-0.13905,51.41102],[-0.13901,51.41107],[-0.13872,51.41099],[-0.13854,51.41122]]]]}},
{ "type":"Feature","properties":{"osm_way_id":"579550328","name":"Morrisons","building":"yes","shop":"supermarket","other":{"addr:city":"Mitcham","addr:housenumber":"11","addr:postcode":"CR4 2JS","addr:street":"Majestic Way","brand":"Morrisons","brand:wikidata":"Q922344","brand:wikipedia":"en:Morrisons","fhrs:id":"200019"}}, "geometry":{"type":"MultiPolygon","coordinates":[[[[-0.16296,51.40638],[-0.16251,51.40643],[-0.16251,51.40645],[-0.16248,51.40645],[-0.16249,51.40652],[-0.16249,51.40659],[-0.16256,51.40665],[-0.16264,51.40703],[-0.16312,51.40698],[-0.16296,51.40638]]]]}},
{ "type":"Feature","properties":{"osm_way_id":"696533247","name":"Tesco Extra","building":"retail","shop":"supermarket","other":{"brand":"Tesco Extra","brand:wikidata":"Q25172225","brand:wikipedia":"en:Tesco Extra","building:levels":"1","website":"https:\/\/www.tesco.com\/store-locator\/new-malden\/300-beverley-way"}}, "geometry":{"type":"MultiPolygon","coordinates":[[[[-0.24095,51.40104],[-0.24096,51.40093],[-0.24106,51.40094],[-0.24105,51.40105],[-0.24095,51.40104]]]]}},
{ "type":"Feature","properties":{"osm_way_id":"906782117","building":"construction","shop":"supermarket","other":{"construction":"retail"}}, "geometry":{"type":"MultiPolygon","coordinates":[[[[-0.18594,51.43076],[-0.18566,51.43085],[-0.18551,51.43066],[-0.1858,51.43057],[-0.18594,51.43076]]]]}}
]
}
