{
"type": "FeatureCollection",
"features": [
{ "type":"Feature","properties":{"osm_id":"64502249","name":"Scotmid","other":{"addr:city":"Edinburgh","addr:country":"GB","addr:housenumber":"236","addr:street":"Gorgie Road","brand":"Scotmid","brand:wikidata":"Q7435719","brand:wikipedia":"en:Scotmid","opening_hours":"Mo-Su 07:00-22:00","shop":"supermarket"}}, "geometry":{"type":"Point","coordinates":[-3.23469,55.93741 ]}},
{ "type":"Feature","properties":{"osm_id":"270588828","name":"Scotmid","other":{"addr:city":"Currie","addr:housenumber":"7","addr:postcode":"EH14 5NP","addr:street":"Pentland View Court","brand":"Scotmid","brand:wikidata":"Q7435719","brand:wikipedia":"en:Scotmid","fhrs:id":"661837","shop":"supermarket","source:addr":"FHRS Open Data"}}, "geometry":{"type":"Point","coordinates":[-3.31272,55.89568 ]}},
{ "type":"Feature","properties":{"osm_id":"719148829","name":"Sainsbury's","other":{"brand":"Sainsbury's","brand:wikidata":"Q152096","brand:wikipedia":"en:Sainsbury's","opening_hours":"Mo-Fr 08:00-22:00;Sa 07:00-22:00; Su 08:00-22:00","operator":"Sainsbury's","shop":"supermarket","toilets":"yes","toilets:wheelchair":"yes","wheelchair":"yes"}}, "geometry":{"type":"Point","coordinates":[-3.16436,55.95878 ]}},
{ "type":"Feature","properties":{"osm_id":"734669958","name":"Maqbool's Supermarket","other":{"addr:city":"Edinburgh","addr:housenumber":"36","addr:postcode":"EH8 9BT","addr:street":"Potterrow","opening_hours":"Mo-Su 10:00-20:00","shop":"supermarket","wheelchair":"yes"}}, "geometry":{"type":"Point","coordinates":[-3.18643,55.94517 ]}},
{ "type":"Feature","properties":{"osm_id":"783575155","name":"Scotmid","other":{"addr:housenumber":"283-289","addr:postcode":"EH11 4RH","addr:street":"Calder Road","brand":"Scotmid","brand:wikidata":"Q7435719","brand:wikipedia":"en:Scotmid","fhrs:id":"663192","opening_hours":"Mo-Su 07:00-22:00","shop":"supermarket","wheelchair":"yes"}}, "geometry":{"type":"Point","coordinates":[-3.27633,55.92466 ]}},
{ "type":"Feature","properties":{"osm_id":"804415827","name":"Scotmid","other":{"brand":"Scotmid","brand:wikidata":"Q7435719","brand:wikipedia":"en:Scotmid","opening_hours":"Mo-Su 07:00-22:00","shop":"supermarket"}}, "geometry":{"type":"Point","coordinates":[-3.23843,55.97525 ]}},
{ "type":"Feature","properties":{"osm_id":"881262800","name":"Scotmid","other":{"addr:city":"Edinburgh","addr:housenumber":"230","addr:postcode":"EH13 9BQ","addr:street":"Oxgangs Road North","brand":"Scotmid","brand:wikidata":"Q7435719","brand:wikipedia":"en:Scotmid","opening_hours":"Mo-Su 07:00-22:00","shop":"supermarket","wheelchair":"yes"}}, "geometry":{"type":"Point","coordinates":[-3.22869,55.90882 ]}},
{ "type":"Feature","properties":{"osm_id":"1131231847","name":"Sainsbury's","other":{"brand":"Sainsbury's","brand:wikidata":"Q152096","brand:wikipedia":"en:Sainsbury's","opening_hours":"Mo-Sa 07:30-22:00; Su 08:00-20:00","opening_hours:covid19":"same","shop":"supermarket","wheelchair":"yes"}}, "geometry":{"type":"Point","coordinates":[-3.1633,55.92698 ]}},
{ "type":"Feature","properties":{"osm_id":"1497913869","name":"Scotmid","other":{"addr:city":"Edinburgh","addr:housenumber":"370","addr:postcode":"EH7 4PE","addr:street":"Leith Walk","branch":"Pilrig","brand":"Scotmid","brand:wikidata":"Q7435719","brand:wikipedia":"en:Scotmid","fhrs:id":"523138","opening_hours":"Mo-Su 06:00-23:00","operator":"Scotmid","shop":"supermarket","wheelchair":"yes"}}, "geometry":{"type":"Point","coordinates":[-3.17849,55.96345 ]}},
{ "type":"Feature","properties":{"osm_id":"1818223665","name":"The Co-operative Food","other":{"addr:city":"Edinburgh","addr:housenumber":"1","addr:postcode":"EH12 8XP","addr:street":"Bughtlin Market","brand":"The Co-operative Food","brand:wikidata":"Q3277439","brand:wikipedia":"en:Co-op Food","fhrs:id":"662375","shop":"supermarket","source:addr":"FHRS Open Data"}}, "geometry":{"type":"Point","coordinates":[-3.30456,55.95179 ]}},
{ "type":"Feature","properties":{"osm_id":"1889139299","name":"Co-op Food","other":{"addr:city":"Edinburgh","addr:housenumber":"141","addr:postcode":"EH12 7SD","addr:street":"St John's Road","brand":"Co-op Food","brand:wikidata":"Q3277439","brand:wikipedia":"en:Co-op Food","opening_hours":"Mo-Su 07:00-23:00","operator":"The Co-operative Group","operator:wikidata":"Q117202","operator:wikipedia":"en:The Co-operative Group","shop":"supermarket","wheelchair":"yes"}}, "geometry":{"type":"Point","coordinates":[-3.28186,55.94249 ]}},
{ "type":"Feature","properties":{"osm_id":"2129876989","name":"Locavore","other":{"addr:city":"Edinburgh","addr:country":"GB","addr:housenumber":"118-126","addr:interpolation":"even","addr:postcode":"EH11 2EZ","addr:street":"Dalry Road","old_name":"Maplin","opening_hours":"Mo-Su 08:00-20:00","operator":"Locavore","organic":"only","shop":"supermarket","website":"https:\/\/locavore.scot"}}, "geometry":{"type":"Point","coordinates":[-3.22155,55.94277 ]}},
{ "type":"Feature","properties":{"osm_id":"2370012271","name":"Scotmid","other":{"addr:city":"Edinburgh","addr:housenumber":"37-41","addr:postcode":"EH5 2BR","addr:street":"Boswall Parkway","brand":"Scotmid","brand:wikidata":"Q7435719","brand:wikipedia":"en:Scotmid","fhrs:id":"663085","opening_hours":"Mo-Su 07:00-22:00","shop":"supermarket"}}, "geometry":{"type":"Point","coordinates":[-3.22262,55.97616 ]}},
{ "type":"Feature","properties":{"osm_id":"2381060152","name":"Lidl","other":{"addr:city":"Edinburgh","addr:country":"GB","addr:housenumber":"56-58","addr:postcode":"EH8 9DT","addr:street":"Nicolson Street","brand":"Lidl","brand:wikidata":"Q151954","brand:wikipedia":"en:Lidl","fhrs:id":"522397","opening_hours":"Mo-Sa 07:00-22:00; Su 08:00-22:00","shop":"supermarket","wheelchair":"yes"}}, "geometry":{"type":"Point","coordinates":[-3.18437,55.94558 ]}},
{ "type":"Feature","properties":{"osm_id":"2394807401","name":"萬富行 Matthew's Foods","other":{"addr:city":"Edinburgh","addr:housenumber":"36","addr:postcode":"EH14 2ER","addr:street":"Inglis Green Road","cuisine":"chinese","fhrs:id":"674338","name:en":"Matthew's Foods","name:zh":"萬富行","shop":"supermarket"}}, "geometry":{"type":"Point","coordinates":[-3.25433,55.92495 ]}},
{ "type":"Feature","properties":{"osm_id":"2407310438","name":"Co-op Food","other":{"addr:city":"Edinburgh","addr:housenumber":"49","addr:postcode":"EH8 9NZ","addr:street":"South Clerk Street","brand":"Co-op Food","brand:wikidata":"Q3277439","brand:wikipedia":"en:Co-op Food","opening_hours":"Mo-Su 06:00-23:00","shop":"supermarket","website":"https:\/\/www.co-operative.coop\/","wheelchair":"yes"}}, "geometry":{"type":"Point","coordinates":[-3.18008,55.94014 ]}},
{ "type":"Feature","properties":{"osm_id":"2421592659","name":"Aldi","other":{"addr:city":"Edinburgh","addr:housename":"Cameron Toll Shopping Centre","addr:postcode":"EH16 5PB","brand":"ALDI","brand:wikidata":"Q41171672","brand:wikipedia":"en:Aldi","contact:website":"https:\/\/www.aldi.co.uk\/store\/s-uk-E1248","opening_hours":"Mo-Sa 08:00-22:00; Su 09:00-20:00","shop":"supermarket","wheelchair":"yes"}}, "geometry":{"type":"Point","coordinates":[-3.16411,55.92639 ]}},
{ "type":"Feature","properties":{"osm_id":"2498181335","name":"Scotmid","other":{"addr:city":"Edinburgh","addr:country":"GB","addr:housenumber":"112-120","addr:postcode":"EH7 5RH","addr:street":"Easter Road","brand":"Scotmid","brand:wikidata":"Q7435719","brand:wikipedia":"en:Scotmid","fhrs:id":"661796","opening_hours":"Mo-Su 07:00-22:00","shop":"supermarket"}}, "geometry":{"type":"Point","coordinates":[-3.17147,55.95932 ]}},
{ "type":"Feature","properties":{"osm_id":"3053838419","other":{"addr:city":"Edinburgh","addr:country":"GB","addr:housenumber":"76","addr:postcode":"EH6 8HL","addr:street":"Duke Street"}}, "geometry":{"type":"Point","coordinates":[-3.17022,55.97004 ]}},
{ "type":"Feature","properties":{"osm_id":"3129081217","name":"Rajah's Supermarket","other":{"addr:city":"Edinburgh","addr:housenumber":"33","addr:street":"Albert Street","diet:halal":"yes","shop":"supermarket"}}, "geometry":{"type":"Point","coordinates":[-3.17633,55.96243 ]}},
{ "type":"Feature","properties":{"osm_id":"3179629803","name":"Co-op Food","other":{"brand":"Co-op Food","brand:wikidata":"Q3277439","brand:wikipedia":"en:Co-op Food","opening_hours":"Mo-Su 07:00-23:00","shop":"supermarket","wheelchair":"yes"}}, "geometry":{"type":"Point","coordinates":[-3.20417,55.94447 ]}},
{ "type":"Feature","properties":{"osm_id":"3348201168","name":"Lidl","other":{"addr:city":"Edinburgh","addr:country":"GB","addr:housenumber":"234-248","addr:postcode":"EH6 8LE","addr:street":"Easter Road","brand":"Lidl","brand:wikidata":"Q151954","brand:wikipedia":"en:Lidl","fhrs:id":"1127234","level":"1","opening_hours":"PH,Mo-Su 08:00-22:00","shop":"supermarket","wheelchair":"yes"}}, "geometry":{"type":"Point","coordinates":[-3.17027,55.96317 ]}},
{ "type":"Feature","properties":{"osm_id":"3804025685","name":"Lidl","other":{"brand":"Lidl","brand:wikidata":"Q151954","brand:wikipedia":"en:Lidl","opening_hours":"Mo-Sa 08:00-21:00; Su 08:00-20:00","shop":"supermarket"}}, "geometry":{"type":"Point","coordinates":[-3.28423,55.91522 ]}},
{ "type":"Feature","properties":{"osm_id":"4121600005","name":"M&S Foodhall","other":{"brand":"M&S Foodhall","brand:wikidata":"Q714491","brand:wikipedia":"en:Marks & Spencer","opening_hours":"Mo-Fr 08:00-20:00; Sa 08:00-19:00; Su 10:00-19:00","shop":"supermarket"}}, "geometry":{"type":"Point","coordinates":[-3.24728,55.92926 ]}},
{ "type":"Feature","properties":{"osm_id":"4121600029","name":"Aldi","other":{"brand":"ALDI","brand:wikidata":"Q41171672","brand:wikipedia":"en:Aldi","opening_hours":"Mo-Sa 08:00-22:00; Su 09:00-19:00","shop":"supermarket"}}, "geometry":{"type":"Point","coordinates":[-3.24769,55.92905 ]}},
{ "type":"Feature","properties":{"osm_id":"4121600047","name":"The Food Warehouse","other":{"brand":"The Food Warehouse","brand:wikidata":"Q87263899","opening_hours":"Mo-Su 08:00-20:00","shop":"supermarket"}}, "geometry":{"type":"Point","coordinates":[-3.24708,55.92936 ]}},
{ "type":"Feature","properties":{"osm_id":"4356031958","other":{"addr:city":"Edinburgh","addr:country":"GB","addr:housenumber":"185","addr:postcode":"EH4 2EB","addr:street":"Craigleith Road"}}, "geometry":{"type":"Point","coordinates":[-3.24155,55.95734 ]}},
{ "type":"Feature","properties":{"osm_id":"4357377782","name":"Lidl","other":{"addr:city":"Edinburgh","addr:country":"GB","addr:postcode":"EH4 2LN","addr:street":"South Groathill Avenue","addr:unit":"15","brand":"Lidl","brand:wikidata":"Q151954","brand:wikipedia":"en:Lidl","check_date":"2021-08-04","old_name":"Toys R Us","shop":"supermarket"}}, "geometry":{"type":"Point","coordinates":[-3.24331,55.95871 ]}},
{ "type":"Feature","properties":{"osm_id":"4413422914","name":"Scotmid","other":{"addr:city":"Edinburgh","addr:housenumber":"140-142-144","addr:postcode":"EH12 5TT","addr:street":"Saughtonhall Drive","brand":"Scotmid","brand:wikidata":"Q7435719","brand:wikipedia":"en:Scotmid","fhrs:id":"662976","opening_hours":"Mo-Su 07:00-22:00","shop":"supermarket","wheelchair":"yes"}}, "geometry":{"type":"Point","coordinates":[-3.2517,55.93935 ]}},
{ "type":"Feature","properties":{"osm_id":"4548158483","name":"Scotmid","other":{"addr:city":"Edinburgh","addr:housenumber":"191-193","addr:postcode":"EH15 3EJ","addr:street":"Duddingston Park South","brand":"Scotmid","brand:wikidata":"Q7435719","brand:wikipedia":"en:Scotmid","opening_hours":"Mo-Su 07:00-22:00","shop":"supermarket"}}, "geometry":{"type":"Point","coordinates":[-3.1142,55.93492 ]}},
{ "type":"Feature","properties":{"osm_id":"4548158513","name":"M&S Foodhall","other":{"addr:city":"Edinburgh","addr:housenumber":"52","addr:postcode":"EH15 3RD","addr:street":"Kinnaird Park","brand":"M&S Foodhall","brand:wikidata":"Q714491","brand:wikipedia":"en:Marks & Spencer","opening_hours":"Mo-Fr 08:00-22:00; Sa 08:00-20:00; Su 09:00-19:00","shop":"supermarket","website":"https:\/\/www.marksandspencer.com\/stores\/edinburgh-fort-kinnaird-5283"}}, "geometry":{"type":"Point","coordinates":[-3.10043,55.93537 ]}},
{ "type":"Feature","properties":{"osm_id":"4599661735","other":{"addr:city":"Edinburgh","addr:country":"GB","addr:housenumber":"212-214-216","addr:postcode":"EH10 4QQ","addr:street":"Morningside Road"}}, "geometry":{"type":"Point","coordinates":[-3.20969,55.92806 ]}},
{ "type":"Feature","properties":{"osm_id":"4752606949","name":"Scotmid","other":{"addr:city":"Edinburgh","addr:housenumber":"36-38","addr:postcode":"EH4 1HN","addr:street":"Raeburn Place","brand":"Scotmid","brand:wikidata":"Q7435719","brand:wikipedia":"en:Scotmid","fhrs:id":"1293955","opening_hours":"Mo-Su 07:00-23:00","shop":"supermarket"}}, "geometry":{"type":"Point","coordinates":[-3.21151,55.95926 ]}},
{ "type":"Feature","properties":{"osm_id":"4888213429","name":"The Co-operative Food","other":{"addr:city":"Edinburgh","addr:housenumber":"114","addr:street":"Dalry Road","brand":"The Co-operative Food","brand:wikidata":"Q3277439","brand:wikipedia":"en:Co-op Food","opening_hours":"Mo-Su 07:00-22:00","phone":"+44 131 337 6376","shop":"supermarket","website":"http:\/\/www.co-operativefood.co.uk\/","wheelchair":"yes"}}, "geometry":{"type":"Point","coordinates":[-3.22128,55.94313 ]}},
{ "type":"Feature","properties":{"osm_id":"5284336157","other":{"addr:city":"Edinburgh","addr:housenumber":"35","addr:postcode":"EH6 6AA","addr:street":"Newkirkgate"}}, "geometry":{"type":"Point","coordinates":[-3.17173,55.97126 ]}},
{ "type":"Feature","properties":{"osm_id":"5696929398","other":{"addr:city":"Edinburgh","addr:housenumber":"2;4;6","addr:street":"Stoddart Way"}}, "geometry":{"type":"Point","coordinates":[-3.19543,55.96417 ]}},
{ "type":"Feature","properties":{"osm_id":"6660620836","name":"H M Foods","other":{"addr:city":"Edinburgh","addr:housenumber":"339","addr:postcode":"EH11 4AH","addr:street":"Calder Road","description":"African-Carribean food providers","email":"sales@heightsmagnafoods.com","fhrs:id":"1006522","opening_hours":"Mo-Sa 10:00-19:00; Su 13:00-18:00","phone":"+441312819042","shop":"supermarket"}}, "geometry":{"type":"Point","coordinates":[-3.27755,55.92437 ]}},
{ "type":"Feature","properties":{"osm_id":"8069088670","name":"Fair Price Supermarket","other":{"shop":"supermarket"}}, "geometry":{"type":"Point","coordinates":[-3.24519,55.96731 ]}},
{ "type":"Feature","properties":{"osm_id":"8273715640","name":"Co-op Food","other":{"addr:city":"Edinburgh","addr:postcode":"EH4 1HG","brand":"Co-op Food","brand:wikidata":"Q3277439","brand:wikipedia":"en:Co-op Food","opening_hours":"Mo-Su 06:00-22:00","operator":"The Co-operative Group","operator:wikidata":"Q117202","operator:wikipedia":"en:The Co-operative Group","shop":"supermarket","wheelchair":"yes"}}, "geometry":{"type":"Point","coordinates":[-3.21631,55.95963 ]}},
{ "type":"Feature","properties":{"osm_id":"8702775170","name":"Scotmid","other":{"addr:city":"Edinburgh","addr:housenumber":"80-88","addr:interpolation":"even","addr:postcode":"EH17 7HG","addr:street":"Moredun Park Road","brand":"Scotmid","brand:wikidata":"Q7435719","brand:wikipedia":"en:Scotmid","fhrs:id":"663459","opening_hours":"Mo-Su 07:00-22:00","shop":"supermarket"}}, "geometry":{"type":"Point","coordinates":[-3.13576,55.91359 ]}},
{ "type":"Feature","properties":{"osm_id":"8806685455","other":{"defibrillator:location":"wall","emergency":"defibrillator","indoor":"no"}}, "geometry":{"type":"Point","coordinates":[-3.2095,55.92993 ]}},
{ "type":"Feature","properties":{"osm_id":"9354058014","other":{"emergency":"defibrillator"}}, "geometry":{"type":"Point","coordinates":[-3.27445,55.96608 ]}},
{ "type":"Feature","properties":{"osm_way_id":"4438060","name":"Morrisons","building":"shop","shop":"supermarket","other":{"brand":"Morrisons","brand:wikidata":"Q922344","brand:wikipedia":"en:Morrisons","operator":"Morrisons","wheelchair":"yes"}}, "geometry":{"type":"MultiPolygon","coordinates":[[[[-3.14349,55.90899],[-3.14257,55.90951],[-3.14185,55.90911],[-3.14291,55.90851],[-3.14307,55.9086],[-3.14293,55.90868],[-3.14349,55.90899]]]]}},
{ "type":"Feature","properties":{"osm_way_id":"4438748","name":"Lidl","building":"supermarket","shop":"supermarket","other":{"addr:country":"GB","addr:housenumber":"5-7","addr:postcode":"EH17 8QQ","addr:street":"Drum Street","brand":"Lidl","brand:wikidata":"Q151954","brand:wikipedia":"en:Lidl","fhrs:id":"661884","wheelchair":"yes"}}, "geometry":{"type":"MultiPolygon","coordinates":[[[[-3.13281,55.90661],[-3.13325,55.90645],[-3.1332,55.90641],[-3.13361,55.90626],[-3.13391,55.90653],[-3.13343,55.90671],[-3.13338,55.90667],[-3.13304,55.9068],[-3.13281,55.90661]]]]}},
{ "type":"Feature","properties":{"osm_way_id":"4449864","name":"Tesco","building":"yes","shop":"supermarket","other":{"brand":"Tesco","brand:wikidata":"Q487494","brand:wikipedia":"en:Tesco","opening_hours":"Mo-Sa 07:00-23:00; Su 08:00-20:00","wheelchair":"yes"}}, "geometry":{"type":"MultiPolygon","coordinates":[[[[-3.23842,55.9119],[-3.23819,55.91157],[-3.2381,55.91159],[-3.2379,55.9113],[-3.23811,55.91125],[-3.23892,55.91108],[-3.23903,55.91124],[-3.23933,55.91118],[-3.23947,55.91137],[-3.23936,55.91147],[-3.2394,55.91147],[-3.23955,55.91153],[-3.23935,55.9117],[-3.23842,55.9119]]]]}},
{ "type":"Feature","properties":{"osm_way_id":"4802926","name":"Tesco Extra","building":"retail","shop":"supermarket","other":{"addr:city":"Edinburgh","addr:postcode":"EH12 7UQ","addr:street":"Meadow Place Road","alt_name":"Tesco Edinburgh Corstorphine Extra","brand":"Tesco Extra","brand:wikidata":"Q25172225","brand:wikipedia":"en:Tesco Extra","opening_hours":"24\/7","operator":"Tesco","supermarket":"hypermarket"}}, "geometry":{"type":"MultiPolygon","coordinates":[[[[-3.29571,55.93997],[-3.29603,55.94106],[-3.29576,55.94109],[-3.29573,55.94101],[-3.29469,55.9411],[-3.29466,55.94101],[-3.29456,55.94102],[-3.29428,55.94011],[-3.29571,55.93997]]]]}},
{ "type":"Feature","properties":{"osm_way_id":"4878387","name":"Morrisons Ferry Road","building":"yes","shop":"supermarket","other":{"addr:city":"Edinburgh","addr:housenumber":"102","addr:postcode":"EH5 2XS","addr:street":"Pilton Drive","alt_name":"Morrisons Edinburgh - Ferry Road","brand":"Morrisons","brand:wikidata":"Q922344","brand:wikipedia":"en:Morrisons","opening_hours":"Mo-Sa 08:00-22:00; Su 09:00-20:00","operator":"Morrisons"}}, "geometry":{"type":"MultiPolygon","coordinates":[[[[-3.23132,55.96984],[-3.23179,55.96979],[-3.23245,55.96972],[-3.23268,55.97042],[-3.23155,55.97054],[-3.23133,55.96989],[-3.23132,55.96984]]]]}},
{ "type":"Feature","properties":{"osm_way_id":"4892124","name":"Waitrose","building":"retail","shop":"supermarket","other":{"addr:city":"Edinburgh","addr:housenumber":"38","addr:postcode":"EH4 1AW","addr:street":"Comely Bank Road","brand":"Waitrose","brand:wikidata":"Q771734","brand:wikipedia":"en:Waitrose","description":"Comely Bank","official_name":"Waitrose & Partners","opening_hours":"Mo-Fr 08:00-21:00; Sa 08:00-20:00; Su 09:00-20:00","operator":"Waitrose & Partners","website":"https:\/\/www.waitrose.com\/"}}, "geometry":{"type":"MultiPolygon","coordinates":[[[[-3.22323,55.95911],[-3.22332,55.95931],[-3.22344,55.95937],[-3.22346,55.95943],[-3.22431,55.95931],[-3.22464,55.95926],[-3.22452,55.959],[-3.22452,55.95898],[-3.22447,55.95887],[-3.22334,55.95903],[-3.22334,55.95904],[-3.22329,55.95905],[-3.2233,55.95908],[-3.22325,55.95908],[-3.22326,55.95911],[-3.22323,55.95911]]]]}},
{ "type":"Feature","properties":{"osm_way_id":"5575702","name":"Tesco","building":"yes","landuse":"retail","shop":"supermarket","other":{"brand":"Tesco","brand:wikidata":"Q487494","brand:wikipedia":"en:Tesco","opening_hours":"Mo-Sa 06:00-24:00; Su 08:00-22:00","operator":"Tesco"}}, "geometry":{"type":"MultiPolygon","coordinates":[[[[-3.40074,55.98298],[-3.40143,55.98282],[-3.40219,55.98383],[-3.40188,55.98391],[-3.40173,55.98371],[-3.40135,55.9838],[-3.40074,55.98298]]]]}},
{ "type":"Feature","properties":{"osm_way_id":"6109895","name":"Waitrose","building":"retail","shop":"supermarket","other":{"addr:city":"Edinburgh","addr:housenumber":"145","addr:postcode":"EH10 4AX","addr:street":"Morningside Road","brand":"Waitrose","brand:wikidata":"Q771734","brand:wikipedia":"en:Waitrose & Partners","building:levels":"1","fhrs:id":"64929","official_name":"Waitrose & Partners","opening_hours":"Mo-Fr 08:00-21:00; Sa 08:00-20:00; Su 09:00-20:00","operator":"Waitrose & Partners","phone":"+44 131 447 6899","roof:levels":"1","website":"https:\/\/www.waitrose.com\/morningside","wheelchair":"yes"}}, "geometry":{"type":"MultiPolygon","coordinates":[[[[-3.20955,55.92993],[-3.20951,55.92963],[-3.20924,55.92965],[-3.20921,55.92965],[-3.20893,55.92959],[-3.20892,55.92952],[-3.20891,55.92945],[-3.2089,55.92939],[-3.20826,55.92943],[-3.2084,55.92952],[-3.20845,55.92955],[-3.20846,55.92963],[-3.20839,55.92963],[-3.20843,55.92998],[-3.2095,55.92993],[-3.20955,55.92993]]]]}},
{ "type":"Feature","properties":{"osm_way_id":"23166980","name":"Tesco","building":"yes","shop":"supermarket","other":{"addr:city":"Edinburgh","addr:housenumber":"76","addr:postcode":"EH6 8HL","addr:street":"Duke Street","alt_name":"Tesco Edinburgh Leith Superstore","brand":"Tesco","brand:wikidata":"Q487494","brand:wikipedia":"en:Tesco","operator":"Tesco"}}, "geometry":{"type":"MultiPolygon","coordinates":[[[[-3.16987,55.96993],[-3.17005,55.96973],[-3.16973,55.96964],[-3.16994,55.9694],[-3.17097,55.96972],[-3.17092,55.96977],[-3.17097,55.96981],[-3.17071,55.97009],[-3.17062,55.97009],[-3.17057,55.97015],[-3.17022,55.97004],[-3.16987,55.96993]]]]}},
{ "type":"Feature","properties":{"osm_way_id":"24551919","name":"Aldi","building":"yes","shop":"supermarket","other":{"addr:city":"Edinburgh","addr:housenumber":"100","addr:postcode":"EH11 2QH","addr:street":"Gorgie Park Road","brand":"ALDI","brand:wikidata":"Q41171672","brand:wikipedia":"en:Aldi","opening_hours":"Mo-Fr 09:00-20:00; Sa 09:00-19:00; Su 10:00-18:00","wheelchair":"yes"}}, "geometry":{"type":"MultiPolygon","coordinates":[[[[-3.2389,55.93646],[-3.23872,55.9365],[-3.23871,55.93649],[-3.23808,55.93664],[-3.23803,55.93659],[-3.23797,55.9366],[-3.23791,55.93653],[-3.23798,55.93651],[-3.23791,55.93642],[-3.23847,55.93628],[-3.23843,55.93623],[-3.23868,55.93617],[-3.2389,55.93646]]]]}},
{ "type":"Feature","properties":{"osm_way_id":"29255446","name":"Asda","building":"retail","shop":"supermarket","other":{"addr:city":"Edinburgh","addr:country":"GB","addr:housenumber":"100","addr:postcode":"EH15 3SA","addr:street":"The Jewel","alt_name":"Asda Edinburgh","brand":"Asda","brand:wikidata":"Q297410","brand:wikipedia":"en:Asda","building:levels":"1","contact:facebook":"https:\/\/www.facebook.com\/asda\/","contact:twitter":"@asda","contact:website":"https:\/\/storelocator.asda.com\/scotland\/edinburgh\/100-the-jewel-brunstane","fhrs:id":"663553","opening_hours":"24\/7","operator":"Asda Stores Ltd"}}, "geometry":{"type":"MultiPolygon","coordinates":[[[[-3.10415,55.93907],[-3.1036,55.93916],[-3.10363,55.93922],[-3.10277,55.93937],[-3.10273,55.93928],[-3.10279,55.93927],[-3.10268,55.93909],[-3.10228,55.93917],[-3.1022,55.93902],[-3.10228,55.93901],[-3.1019,55.93837],[-3.1021,55.93833],[-3.10204,55.93823],[-3.10319,55.93802],[-3.10331,55.93822],[-3.10386,55.93812],[-3.10394,55.93826],[-3.10417,55.93822],[-3.1043,55.93841],[-3.10409,55.93844],[-3.10422,55.93848],[-3.10432,55.93865],[-3.10393,55.93872],[-3.10415,55.93907]]]]}},
{ "type":"Feature","properties":{"osm_way_id":"30242915","name":"Scotmid","building":"retail","shop":"supermarket","other":{"addr:city":"Edinburgh","addr:housenumber":"21","addr:postcode":"EH16 6RP","addr:street":"Captain's Road","brand":"Scotmid","brand:wikidata":"Q7435719","brand:wikipedia":"en:Scotmid","building:levels":"1","fhrs:id":"663456","opening_hours":"Mo-Su 07:00-22:00"}}, "geometry":{"type":"MultiPolygon","coordinates":[[[[-3.15636,55.90277],[-3.15631,55.90271],[-3.15623,55.90274],[-3.1562,55.90269],[-3.15594,55.90275],[-3.15598,55.9028],[-3.15591,55.90282],[-3.15616,55.90306],[-3.15648,55.90293],[-3.1564,55.90282],[-3.15636,55.90277]]]]}},
{ "type":"Feature","properties":{"osm_way_id":"31319873","name":"Asda","building":"retail","shop":"supermarket","other":{"addr:city":"Edinburgh","addr:country":"GB","addr:housenumber":"2","addr:postcode":"EH6 6PQ","addr:street":"Sandpiper Drive","alt_name":"Asda Leith","brand":"Asda","brand:wikidata":"Q297410","brand:wikipedia":"en:Asda","contact:facebook":"https:\/\/www.facebook.com\/asda\/","contact:twitter":"@asda","contact:website":"https:\/\/storelocator.asda.com\/scotland\/edinburgh\/2-sandpiper-drive","fhrs:id":"662163","opening_hours":"24\/7","operator":"Asda Stores Ltd","wheelchair":"yes"}}, "geometry":{"type":"MultiPolygon","coordinates":[[[[-3.18886,55.98161],[-3.18876,55.98168],[-3.18955,55.98205],[-3.18965,55.98199],[-3.1897,55.98201],[-3.19058,55.98144],[-3.19054,55.98142],[-3.19063,55.98136],[-3.19056,55.98132],[-3.19014,55.98117],[-3.19011,55.9812],[-3.18979,55.98106],[-3.18978,55.98107],[-3.18975,55.98108],[-3.18943,55.98129],[-3.18936,55.98133],[-3.1891,55.9813],[-3.18871,55.98154],[-3.18886,55.98161]]]]}},
{ "type":"Feature","properties":{"osm_way_id":"31562095","name":"Tesco","building":"retail","shop":"supermarket","other":{"addr:city":"Edinburgh","addr:housenumber":"7","addr:postcode":"EH7 4EW","addr:street":"Broughton Road","alt_name":"Edinburgh Superstore","brand":"Tesco","brand:wikidata":"Q487494","brand:wikipedia":"en:Tesco","building:levels":"1","check_date:opening_hours":"2022-01-04","opening_hours":"Mo-Sa 07:00-22:00, Su 09:00-22:00","operator":"Tesco","roof:levels":"0","wheelchair":"yes"}}, "geometry":{"type":"MultiPolygon","coordinates":[[[[-3.1968,55.96369],[-3.19646,55.96355],[-3.19631,55.96366],[-3.1959,55.96348],[-3.19586,55.9635],[-3.19568,55.96342],[-3.1957,55.96341],[-3.19549,55.96331],[-3.19554,55.96328],[-3.19552,55.96328],[-3.19571,55.96314],[-3.19576,55.96316],[-3.19612,55.9629],[-3.19643,55.96304],[-3.19631,55.96313],[-3.19702,55.96344],[-3.19699,55.96346],[-3.19711,55.96351],[-3.19701,55.96359],[-3.19697,55.96357],[-3.1968,55.96369]]]]}},
{ "type":"Feature","properties":{"osm_way_id":"37863570","name":"Company Shop","building":"yes","shop":"supermarket","other":{"addr:street":"Dumbryden Road"}}, "geometry":{"type":"MultiPolygon","coordinates":[[[[-3.27157,55.91788],[-3.27142,55.91766],[-3.2702,55.91795],[-3.27038,55.91817],[-3.27157,55.91788]]]]}},
{ "type":"Feature","properties":{"osm_way_id":"38043139","name":"Scotmid","building":"retail","shop":"supermarket","other":{"addr:city":"South Queensferry","addr:country":"GB","addr:housenumber":"55","addr:postcode":"EH30 9PH","addr:street":"The Load","brand":"Scotmid","brand:wikidata":"Q7435719","brand:wikipedia":"en:Scotmid","building:levels":"1","fhrs:id":"522940","opening_hours":"Mo-Su 07:00-22:00","roof:levels":"1","roof:shape":"hipped"}}, "geometry":{"type":"MultiPolygon","coordinates":[[[[-3.39927,55.98962],[-3.39929,55.98948],[-3.39943,55.98948],[-3.39946,55.98919],[-3.39928,55.98918],[-3.39929,55.98913],[-3.3987,55.98911],[-3.39868,55.98928],[-3.39863,55.98928],[-3.39862,55.98939],[-3.39855,55.98939],[-3.39854,55.98951],[-3.3986,55.98952],[-3.39859,55.9896],[-3.39927,55.98962]]]]}},
{ "type":"Feature","properties":{"osm_way_id":"41225011","name":"Lidl","building":"retail","shop":"supermarket","other":{"addr:city":"Edinburgh","addr:country":"GB","addr:housenumber":"201-207","addr:postcode":"EH11 2EF","addr:street":"Dalry Road","brand":"Lidl","brand:wikidata":"Q151954","brand:wikipedia":"en:Lidl","building:levels":"1","fhrs:id":"661835","opening_hours":"Mo-Su 08:00-22:00"}}, "geometry":{"type":"MultiPolygon","coordinates":[[[[-3.2214,55.94162],[-3.22114,55.94114],[-3.2213,55.94111],[-3.22133,55.94117],[-3.22162,55.94112],[-3.22176,55.94138],[-3.22184,55.94137],[-3.22193,55.94153],[-3.2214,55.94162]]]]}},
{ "type":"Feature","properties":{"osm_way_id":"41225038","name":"Sainsbury's","building":"retail","shop":"supermarket","other":{"addr:city":"Edinburgh","addr:housenumber":"22","addr:postcode":"EH14 2ER","addr:street":"Inglis Green Road","brand":"Sainsbury's","brand:wikidata":"Q152096","brand:wikipedia":"en:Sainsbury's","fhrs:id":"662503","layer":"1","opening_hours":"Mo-Sa 07:00-22:00; Su 08:00-10:00"}}, "geometry":{"type":"MultiPolygon","coordinates":[[[[-3.25127,55.92451],[-3.25131,55.92454],[-3.25121,55.9246],[-3.25116,55.92457],[-3.25109,55.92461],[-3.25103,55.92465],[-3.24964,55.92393],[-3.2498,55.92383],[-3.25004,55.92396],[-3.25074,55.92354],[-3.25077,55.92352],[-3.25104,55.92367],[-3.25118,55.92358],[-3.25137,55.92369],[-3.25134,55.92371],[-3.25183,55.92397],[-3.25186,55.92396],[-3.25201,55.92404],[-3.25189,55.92411],[-3.25191,55.92412],[-3.25177,55.92421],[-3.25164,55.92429],[-3.2516,55.92431],[-3.25165,55.92433],[-3.25156,55.92439],[-3.25152,55.92436],[-3.25147,55.92439],[-3.25129,55.9245],[-3.25127,55.92451]]]]}},
{ "type":"Feature","properties":{"osm_way_id":"41523882","name":"Sainsbury's","building":"retail","shop":"supermarket","other":{"addr:city":"Edinburgh","addr:housenumber":"185","addr:street":"Craigleith Road","alt_name":"Sainsbury's Blackhall Superstore","brand":"Sainsbury's","brand:wikidata":"Q152096","brand:wikipedia":"en:Sainsbury's","building:levels":"2","contact:website":"https:\/\/stores.sainsburys.co.uk\/0752\/blackhall","opening_hours":"Mo-Sa 07:00-22:00; Su 08:00-22:00","phone":"+44 131 332 0704","roof:shape":"flat"}}, "geometry":{"type":"MultiPolygon","coordinates":[[[[-3.2418,55.95791],[-3.24114,55.95801],[-3.24111,55.95797],[-3.24068,55.95784],[-3.24034,55.95788],[-3.24041,55.95802],[-3.24016,55.95806],[-3.23987,55.95735],[-3.24034,55.95728],[-3.24025,55.95708],[-3.24032,55.957],[-3.24134,55.95686],[-3.24155,55.95734],[-3.2418,55.95791]]]]}},
{ "type":"Feature","properties":{"osm_way_id":"42710135","name":"M&S Foodhall","building":"retail","shop":"supermarket","other":{"addr:city":"Edinburgh","addr:housenumber":"212-216","addr:street":"Morningside Road","brand":"M&S Foodhall","brand:wikidata":"Q714491","brand:wikipedia":"en:Marks & Spencer","building:levels":"2","building:material":"plaster","opening_hours":"Mo-Fr 08:00-21:00; Sa 08:00-20:00; Su 09:00-19:00","operator":"Marks and Spencer","phone":"+44 131 447 7369","roof:material":"tar_paper","website":"https:\/\/www.marksandspencer.com\/","wheelchair":"yes"}}, "geometry":{"type":"MultiPolygon","coordinates":[[[[-3.20971,55.92822],[-3.20969,55.92806],[-3.20968,55.92802],[-3.21016,55.928],[-3.21017,55.92811],[-3.21019,55.9282],[-3.20971,55.92822]]]]}},
{ "type":"Feature","properties":{"osm_way_id":"61118363","name":"Morrisons","building":"yes","shop":"supermarket","other":{"addr:postcode":"EH5 1SA","addr:street":"Waterfront Broadway","alt_name":"Morrisons Edinburgh - Granton","brand":"Morrisons","brand:wikidata":"Q922344","brand:wikipedia":"en:Morrisons","operator":"Morrisons","website":"https:\/\/my.morrisons.com\/storefinder\/147"}}, "geometry":{"type":"MultiPolygon","coordinates":[[[[-3.24245,55.97794],[-3.24348,55.97782],[-3.24347,55.9778],[-3.24366,55.97778],[-3.24366,55.9778],[-3.24417,55.97774],[-3.24428,55.97803],[-3.24405,55.97806],[-3.2441,55.9782],[-3.24384,55.97823],[-3.24392,55.97844],[-3.24293,55.97856],[-3.24295,55.97862],[-3.2432,55.97859],[-3.24323,55.97867],[-3.24261,55.97874],[-3.24247,55.97836],[-3.2426,55.97835],[-3.24251,55.97811],[-3.24237,55.97812],[-3.24234,55.97804],[-3.24248,55.97802],[-3.24245,55.97794]]]]}},
{ "type":"Feature","properties":{"osm_way_id":"71951249","name":"Sainsbury's","building":"yes","shop":"supermarket","other":{"addr:city":"Edinburgh","addr:country":"GB","addr:housenumber":"39","addr:postcode":"EH11 2QW","addr:street":"Westfield Road","brand":"Sainsbury's","brand:wikidata":"Q152096","brand:wikipedia":"en:Sainsbury's","opening_hours":"Mo-Sa 07:00-22:00; Su 08:00-22:00","wheelchair":"yes"}}, "geometry":{"type":"MultiPolygon","coordinates":[[[[-3.2405,55.9378],[-3.24019,55.93797],[-3.24014,55.93795],[-3.23987,55.93809],[-3.2396,55.9381],[-3.23948,55.9381],[-3.23941,55.93806],[-3.23947,55.93803],[-3.23938,55.93798],[-3.23921,55.93807],[-3.23906,55.93798],[-3.23881,55.93811],[-3.23825,55.93778],[-3.23872,55.93753],[-3.23852,55.93741],[-3.23873,55.9373],[-3.23891,55.93742],[-3.23895,55.9374],[-3.2394,55.93716],[-3.2405,55.9378]]]]}},
{ "type":"Feature","properties":{"osm_way_id":"72459828","name":"Morrisons","building":"yes","shop":"supermarket","other":{"brand":"Morrisons","brand:wikidata":"Q922344","brand:wikipedia":"en:Morrisons","opening_hours":"Mo-Sa 07:00-22:00; Su 08:00-19:00","phone":"+44 131 445 5647","website":"https:\/\/my.morrisons.com\/storefinder\/174"}}, "geometry":{"type":"MultiPolygon","coordinates":[[[[-3.2221,55.9019],[-3.22223,55.90202],[-3.22234,55.90201],[-3.22257,55.90193],[-3.22271,55.90188],[-3.22291,55.90181],[-3.2228,55.90171],[-3.22299,55.90165],[-3.22292,55.90158],[-3.22278,55.90163],[-3.22265,55.90151],[-3.22259,55.90153],[-3.22232,55.90129],[-3.22153,55.90156],[-3.22196,55.90195],[-3.2221,55.9019]]]]}},
{ "type":"Feature","properties":{"osm_way_id":"93324187","name":"Morrisons","building":"yes","shop":"supermarket","other":{"addr:postcode":"EH8 7EF","brand":"Morrisons","brand:wikidata":"Q922344","brand:wikipedia":"en:Morrisons","operator":"Morrisons","website":"https:\/\/my.morrisons.com\/storefinder\/176"}}, "geometry":{"type":"MultiPolygon","coordinates":[[[[-3.14212,55.95461],[-3.1421,55.95456],[-3.14148,55.95463],[-3.14142,55.95447],[-3.14118,55.95449],[-3.14102,55.95408],[-3.14233,55.95395],[-3.14252,55.95445],[-3.14249,55.95447],[-3.14256,55.9545],[-3.14246,55.95458],[-3.1424,55.95456],[-3.14237,55.95458],[-3.14212,55.95461]]]]}},
{ "type":"Feature","properties":{"osm_way_id":"99100551","name":"Scotmid","building":"retail","shop":"supermarket","other":{"addr:city":"Edinburgh","addr:housenumber":"5-19","addr:postcode":"EH3 9LH","addr:street":"Leven Street","brand":"Scotmid","brand:wikidata":"Q7435719","brand:wikipedia":"en:Scotmid","building:levels":"1","level":"0","location":"surface","opening_hours":"Mo-Su 07:00-22:00","operator":"Scotmid Co-operative","phone":"+44131 229 7656","roof:shape":"flat","start_date":"1959","website":"https:\/\/www.scotmid.coop","wheelchair":"yes"}}, "geometry":{"type":"MultiPolygon","coordinates":[[[[-3.20427,55.94155],[-3.20428,55.94161],[-3.20428,55.94162],[-3.20419,55.94163],[-3.20409,55.94165],[-3.20401,55.94166],[-3.20392,55.94167],[-3.20388,55.94168],[-3.20385,55.9416],[-3.20376,55.94162],[-3.20364,55.94162],[-3.20366,55.94143],[-3.2037,55.94143],[-3.2037,55.94144],[-3.20377,55.94144],[-3.20378,55.94145],[-3.2038,55.94143],[-3.20413,55.94138],[-3.20413,55.94137],[-3.20423,55.94135],[-3.20424,55.94143],[-3.20426,55.9415],[-3.20426,55.94152],[-3.20427,55.94155]]]]}},
{ "type":"Feature","properties":{"osm_way_id":"103799725","name":"Tesco Metro","building":"yes","shop":"supermarket","other":{"addr:city":"Edinburgh","addr:housenumber":"36","addr:postcode":"EH4 6AA","addr:street":"Cramond Road South","alt_name":"Tesco Edinburgh Davidson Metro","atm":"yes","brand":"Tesco Metro","brand:wikidata":"Q57551648","opening_hours":"Mo-Sa 07:00-22:00; Su 09:00-22:00","operator":"Tesco"}}, "geometry":{"type":"MultiPolygon","coordinates":[[[[-3.27459,55.96618],[-3.27412,55.96639],[-3.27408,55.96636],[-3.27401,55.96639],[-3.27388,55.9664],[-3.27387,55.96634],[-3.27367,55.96621],[-3.27425,55.96594],[-3.27445,55.96608],[-3.27459,55.96618]]]]}},
{ "type":"Feature","properties":{"osm_way_id":"105262383","name":"Lidl","building":"retail","shop":"supermarket","other":{"brand":"Lidl","brand:wikidata":"Q151954","brand:wikipedia":"en:Lidl","opening_hours":"Mo-Su 08:00-22:00"}}, "geometry":{"type":"MultiPolygon","coordinates":[[[[-3.17212,55.97125],[-3.17212,55.97125],[-3.17218,55.97125],[-3.17222,55.97127],[-3.17224,55.97124],[-3.17251,55.97129],[-3.17249,55.97133],[-3.17266,55.97135],[-3.17265,55.9714],[-3.17273,55.97141],[-3.17263,55.97161],[-3.17223,55.97154],[-3.17214,55.97152],[-3.17171,55.97145],[-3.17172,55.97143],[-3.17167,55.97136],[-3.17173,55.97126],[-3.17174,55.97124],[-3.17202,55.97129],[-3.17204,55.97126],[-3.17212,55.97125]]]]}},
{ "type":"Feature","properties":{"osm_way_id":"161115474","name":"Asda","building":"yes","shop":"supermarket","other":{"addr:city":"Sheffield","addr:country":"GB","addr:housenumber":"978","addr:postcode":"S12 2AB","addr:street":"City Road","brand":"Asda","brand:wikidata":"Q297410","brand:wikipedia":"en:Asda","contact:website":"https:\/\/storelocator.asda.com\/yorkshire-&-humber\/sheffield\/manor-top-shopping-centre-978-city-road","fhrs:id":"505596","operator":"Asda Stores Ltd"}}, "geometry":{"type":"MultiPolygon","coordinates":[[[[-1.42801,53.36008],[-1.42741,53.35986],[-1.42743,53.35984],[-1.42736,53.35981],[-1.42736,53.35981],[-1.42749,53.35968],[-1.42754,53.35972],[-1.42762,53.35971],[-1.4281,53.35987],[-1.42812,53.35993],[-1.42804,53.36001],[-1.42807,53.36002],[-1.42801,53.36008]]]]}},
{ "type":"Feature","properties":{"osm_way_id":"174312069","name":"Scotmid","building":"yes","shop":"supermarket","other":{"addr:city":"Edinburgh","addr:housenumber":"1","addr:postcode":"EH12 8TE","addr:street":"Drum Brae Avenue","brand":"Scotmid","brand:wikidata":"Q7435719","brand:wikipedia":"en:Scotmid","fhrs:id":"663391","opening_hours":"Mo-Su 07:00-22:00"}}, "geometry":{"type":"MultiPolygon","coordinates":[[[[-3.29605,55.95133],[-3.29557,55.9514],[-3.29553,55.95132],[-3.29548,55.95122],[-3.29558,55.9512],[-3.29557,55.95118],[-3.29595,55.95112],[-3.29605,55.95133]]]]}},
{ "type":"Feature","properties":{"osm_way_id":"230776863","name":"Scotmid","building":"retail","shop":"supermarket","other":{"addr:city":"Balerno","addr:housenumber":"6","addr:postcode":"EH14 7EH","addr:street":"Main Street","brand":"Scotmid","brand:wikidata":"Q7435719","brand:wikipedia":"en:Scotmid","fhrs:id":"661681","opening_hours":"Mo-Su 07:00-22:00","source:addr":"FHRS Open Data"}}, "geometry":{"type":"MultiPolygon","coordinates":[[[[-3.33979,55.88411],[-3.33968,55.88416],[-3.33971,55.88418],[-3.33946,55.88429],[-3.33937,55.88422],[-3.33929,55.88426],[-3.33915,55.88416],[-3.3395,55.88399],[-3.33945,55.88396],[-3.33944,55.88394],[-3.33947,55.88392],[-3.33952,55.88393],[-3.33979,55.88411]]]]}},
{ "type":"Feature","properties":{"osm_way_id":"231067785","name":"Scotmid","building":"yes","shop":"supermarket","other":{"addr:city":"Edinburgh","addr:housenumber":"7","addr:postcode":"EH14 2BN","addr:street":"Kingsknowe Road North","brand":"Scotmid","brand:wikidata":"Q7435719","brand:wikipedia":"en:Scotmid","building:levels":"1","fhrs:id":"663407"}}, "geometry":{"type":"MultiPolygon","coordinates":[[[[-3.25942,55.92443],[-3.25909,55.92447],[-3.25915,55.92463],[-3.25929,55.92461],[-3.25932,55.9247],[-3.25953,55.92467],[-3.25942,55.92443]]]]}},
{ "type":"Feature","properties":{"osm_way_id":"244904021","name":"Scotmid","building":"retail","shop":"supermarket","other":{"addr:city":"Edinburgh","addr:housenumber":"1","addr:postcode":"EH4 7ER","addr:street":"Rannoch Terrace","brand":"Scotmid","brand:wikidata":"Q7435719","brand:wikipedia":"en:Scotmid","fhrs:id":"523033","opening_hours":"Mo-Su 07:00-22:00","source:addr":"FHRS Open Data"}}, "geometry":{"type":"MultiPolygon","coordinates":[[[[-3.28641,55.95484],[-3.28635,55.95471],[-3.28614,55.95475],[-3.28611,55.95468],[-3.28568,55.95475],[-3.28585,55.95493],[-3.28641,55.95484]]]]}},
{ "type":"Feature","properties":{"osm_way_id":"273333177","name":"Food Plus","building":"yes","shop":"supermarket","other":{"addr:country":"GB","old_name":"Dears"}}, "geometry":{"type":"MultiPolygon","coordinates":[[[[-3.13774,55.93258],[-3.13753,55.93261],[-3.13762,55.93281],[-3.13782,55.93279],[-3.138,55.93276],[-3.13794,55.93263],[-3.13785,55.93264],[-3.13782,55.93257],[-3.13774,55.93258]]]]}},
{ "type":"Feature","properties":{"osm_way_id":"278266011","building":"residential"},"geometry":{"type":"MultiPolygon","coordinates":[[[[-3.21507,55.94949],[-3.2151,55.94951],[-3.21507,55.94953],[-3.21503,55.9495],[-3.21507,55.94949]]]]}},
{ "type":"Feature","properties":{"osm_way_id":"282751059","name":"Scotmid","shop":"supermarket","other":{"addr:city":"Edinburgh","addr:housenumber":"187-189","addr:postcode":"EH4 6BU","addr:street":"Whitehouse Road","alt_name":"Scotmid Barnton","brand":"Scotmid","brand:wikidata":"Q7435719","brand:wikipedia":"en:Scotmid","fhrs:id":"662982","opening_hours":"Mo-Su 06:00-22:00","source:addr":"FHRS Open Data"}}, "geometry":{"type":"MultiPolygon","coordinates":[[[[-3.30595,55.96182],[-3.30575,55.96185],[-3.3057,55.96177],[-3.30598,55.96172],[-3.30603,55.96181],[-3.30595,55.96182]]]]}},
{ "type":"Feature","properties":{"osm_way_id":"284264846","name":"Asda","building":"retail","shop":"supermarket","other":{"addr:city":"Edinburgh","addr:country":"GB","addr:housenumber":"3","addr:postcode":"EH14 1RJ","addr:street":"New Mart Road","alt_name":"Asda Chesser","brand":"Asda","brand:wikidata":"Q297410","brand:wikipedia":"en:Asda","contact:facebook":"https:\/\/www.facebook.com\/asda\/","contact:phone":"+44 131 442 6750","contact:twitter":"@asda","contact:website":"https:\/\/storelocator.asda.com\/scotland\/edinburgh\/3-new-mart-road","fhrs:id":"663285","opening_hours":"24\/7","operator":"Asda Stores Ltd"}}, "geometry":{"type":"MultiPolygon","coordinates":[[[[-3.24607,55.92655],[-3.24608,55.92654],[-3.24549,55.92618],[-3.24565,55.9261],[-3.24555,55.92604],[-3.24661,55.9255],[-3.24655,55.92546],[-3.24684,55.92531],[-3.24718,55.92552],[-3.24691,55.92567],[-3.24723,55.92586],[-3.24736,55.92579],[-3.24761,55.92594],[-3.24632,55.92661],[-3.24631,55.92661],[-3.24631,55.92662],[-3.24629,55.92664],[-3.24627,55.92665],[-3.24624,55.92667],[-3.24619,55.92668],[-3.2461,55.92666],[-3.24605,55.92664],[-3.24604,55.92661],[-3.24604,55.92658],[-3.24605,55.92656],[-3.24607,55.92655]]]]}},
{ "type":"Feature","properties":{"osm_way_id":"286383468","name":"Scotmid","building":"commercial","shop":"supermarket","other":{"brand":"Scotmid","brand:wikidata":"Q7435719","brand:wikipedia":"en:Scotmid"}}, "geometry":{"type":"MultiPolygon","coordinates":[[[[-3.1142,55.95388],[-3.11475,55.95363],[-3.11436,55.95337],[-3.11406,55.9535],[-3.11409,55.95352],[-3.11384,55.95363],[-3.1142,55.95388]]]]}},
{ "type":"Feature","properties":{"osm_way_id":"296725057","name":"ALDI","building":"yes","shop":"supermarket","other":{"brand":"ALDI","brand:wikidata":"Q41171672","brand:wikipedia":"en:Aldi","disused:shop":"supermarket","old_name":"Mothercare ELC","operator":"ALDI"}}, "geometry":{"type":"MultiPolygon","coordinates":[[[[-3.30566,55.92586],[-3.30578,55.92609],[-3.30659,55.92597],[-3.30648,55.92573],[-3.30566,55.92586]]]]}},
{ "type":"Feature","properties":{"osm_way_id":"296725061","name":"Tesco","building":"retail","shop":"supermarket","other":{"addr:postcode":"EH11 4DG","addr:street":"Cultins Road","alt_name":"Tesco Edinburgh Hermiston Gait Superstore","brand":"Tesco","brand:wikidata":"Q487494","brand:wikipedia":"en:Tesco","contact:website":"https:\/\/www.tesco.com\/store-locator\/edinburgh\/cultins-road","opening_hours":"Mo-Sa 06:00-22:00; Su 08:00-22:00","operator":"Tesco"}}, "geometry":{"type":"MultiPolygon","coordinates":[[[[-3.30628,55.92514],[-3.30545,55.92526],[-3.30535,55.92503],[-3.3054,55.92503],[-3.30532,55.92486],[-3.30499,55.92491],[-3.30471,55.9243],[-3.30581,55.92414],[-3.30616,55.92488],[-3.30623,55.92487],[-3.30628,55.92498],[-3.30621,55.92499],[-3.30628,55.92514]]]]}},
{ "type":"Feature","properties":{"osm_way_id":"296726616","name":"Morrisons","shop":"supermarket","other":{"addr:city":"Edinburgh","addr:housenumber":"47","addr:postcode":"EH12 9JU","addr:street":"Gyle Avenue","alt_name":"Morrisons Edinburgh - Gyle","branch":"Edinburgh - Gyle","brand":"Morrisons","brand:wikidata":"Q922344","brand:wikipedia":"en:Morrisons","fhrs:id":"1006521","level":"0","opening_hours":"Mo-Sa 07:00-22:00; Su 08:00-20:00","operator":"Morrisons","supermarket":"hypermarket","wheelchair":"yes"}}, "geometry":{"type":"MultiPolygon","coordinates":[[[[-3.31757,55.93946],[-3.31733,55.93952],[-3.31736,55.93956],[-3.31644,55.9398],[-3.31641,55.93976],[-3.31616,55.93982],[-3.31562,55.93916],[-3.31655,55.93891],[-3.31702,55.93879],[-3.31757,55.93946]]]]}},
{ "type":"Feature","properties":{"osm_way_id":"332708740","name":"Aldi","building":"retail","shop":"supermarket","other":{"addr:city":"Edinburgh","addr:housenumber":"376","addr:postcode":"EH17 7QS","addr:street":"Gilmerton Road","brand":"ALDI","brand:wikidata":"Q41171672","brand:wikipedia":"en:Aldi","building:levels":"1","fhrs:id":"769447","opening_hours":"Mo-Sa 08:00-22:00; Su 09:00-19:00","wheelchair":"yes"}}, "geometry":{"type":"MultiPolygon","coordinates":[[[[-3.14714,55.91275],[-3.14666,55.91291],[-3.14669,55.91293],[-3.14636,55.91304],[-3.14618,55.91287],[-3.14622,55.91285],[-3.14616,55.9128],[-3.14698,55.91252],[-3.14704,55.91257],[-3.14698,55.91259],[-3.14714,55.91275]]]]}},
{ "type":"Feature","properties":{"osm_way_id":"391593035","name":"Lidl","building":"retail","shop":"supermarket","other":{"brand":"Lidl","brand:wikidata":"Q151954","brand:wikipedia":"en:Lidl","opening_hours":"Mo-Sa 08:00-22:00; Su 09:00-22:00"}}, "geometry":{"type":"MultiPolygon","coordinates":[[[[-3.19499,55.96384],[-3.19521,55.96378],[-3.19536,55.96374],[-3.19567,55.96411],[-3.19543,55.96417],[-3.19527,55.96422],[-3.19522,55.96421],[-3.19517,55.96414],[-3.19518,55.96411],[-3.19522,55.9641],[-3.19499,55.96384]]]]}},
{ "type":"Feature","properties":{"osm_way_id":"458885870","name":"Aldi","building":"yes","shop":"supermarket","other":{"addr:city":"Edinburgh","brand":"ALDI","brand:wikidata":"Q41171672","brand:wikipedia":"en:Aldi","opening_hours":"Mo-Sa 08:00-22:00; Su 09:00-19:00"}}, "geometry":{"type":"MultiPolygon","coordinates":[[[[-3.12056,55.95551],[-3.12051,55.95555],[-3.12075,55.95566],[-3.12015,55.95604],[-3.11978,55.95586],[-3.12043,55.95545],[-3.12056,55.95551]]]]}},
{ "type":"Feature","properties":{"osm_way_id":"473852756","name":"Lidl","building":"retail","shop":"supermarket","other":{"addr:city":"Edinburgh","addr:country":"GB","addr:housenumber":"201","addr:postcode":"EH16 4PA","addr:street":"Niddrie Mains Road","brand":"Lidl","brand:wikidata":"Q151954","brand:wikipedia":"en:Lidl","fhrs:id":"1218208","opening_hours":"Mo-Sa 08:00-22:00; Su 08:00-21:00"}}, "geometry":{"type":"MultiPolygon","coordinates":[[[[-3.13313,55.93345],[-3.13292,55.93344],[-3.13293,55.93339],[-3.13257,55.93338],[-3.1332,55.93286],[-3.13313,55.93345]]]]}},
{ "type":"Feature","properties":{"osm_way_id":"525578610","name":"Lidl","building":"shop","shop":"supermarket","other":{"addr:city":"Edinburgh","addr:country":"GB","addr:housenumber":"155","addr:postcode":"EH14 1NZ","addr:street":"Slateford Road","brand":"Lidl","brand:wikidata":"Q151954","brand:wikipedia":"en:Lidl","fhrs:id":"1192939","opening_hours":"Mo-Su 08:00-22:00","wheelchair":"yes"}}, "geometry":{"type":"MultiPolygon","coordinates":[[[[-3.23559,55.93088],[-3.23597,55.93107],[-3.23524,55.93153],[-3.23501,55.93142],[-3.23494,55.93146],[-3.23479,55.93139],[-3.23559,55.93088]]]]}},
{ "type":"Feature","properties":{"osm_way_id":"558053220","name":"Aldi","building":"yes","shop":"supermarket","other":{"addr:city":"Edinburgh","addr:housenumber":"345","addr:postcode":"EH13 9LY","addr:street":"Oxgangs Road North","brand":"ALDI","brand:wikidata":"Q41171672","brand:wikipedia":"en:Aldi","fhrs:id":"1027011","opening_hours":"Mo-Sa 08:00-22:00; Su 09:00-20:00","source:addr":"FHRS Open Data","wheelchair":"yes"}}, "geometry":{"type":"MultiPolygon","coordinates":[[[[-3.22282,55.90459],[-3.22289,55.90464],[-3.22305,55.90478],[-3.22277,55.90488],[-3.2223,55.90505],[-3.22218,55.90494],[-3.22206,55.90498],[-3.22196,55.9049],[-3.22282,55.90459]]]]}},
{ "type":"Feature","properties":{"osm_way_id":"865977181","name":"Aldi","building":"retail","shop":"supermarket","other":{"brand":"ALDI","brand:wikidata":"Q41171672","brand:wikipedia":"en:Aldi","building:levels":"1","contact:website":"https:\/\/www.aldi.co.uk\/store\/s-uk-E0641","height":"5","opening_hours":"Mo-Sa 08:00-22:00; Su 09:00-20:00","wheelchair":"yes"}}, "geometry":{"type":"MultiPolygon","coordinates":[[[[-3.17342,55.97688],[-3.17255,55.97672],[-3.17264,55.97656],[-3.17268,55.97657],[-3.1727,55.97653],[-3.17322,55.97663],[-3.17349,55.97655],[-3.17354,55.9766],[-3.17356,55.97662],[-3.17342,55.97688]]]]}},
{ "type":"Feature","properties":{"osm_way_id":"867881013","name":"Lidl","building":"yes","shop":"supermarket","other":{"brand":"Lidl","brand:wikidata":"Q151954","brand:wikipedia":"en:Lidl","opening_hours":"Mo-Su 08:00-22:00"}}, "geometry":{"type":"MultiPolygon","coordinates":[[[[-3.23497,55.97898],[-3.23405,55.97911],[-3.23408,55.97917],[-3.23415,55.97916],[-3.23418,55.97921],[-3.23379,55.97926],[-3.23376,55.97919],[-3.23365,55.97921],[-3.23352,55.97891],[-3.23431,55.9788],[-3.23433,55.97884],[-3.23439,55.97883],[-3.23437,55.9788],[-3.23467,55.97876],[-3.23468,55.97879],[-3.23487,55.97876],[-3.23497,55.97898]]]]}}
]
}
