{
"type": "FeatureCollection",
"features": [
{ "type":"Feature","properties":{"osm_id":"352784673","name":"Clare Co-op","other":{"addr:city":"Clare","addr:postcode":"CO10 8NY","addr:street":"Market Hill","opening_hours:covid19":"open","operator":"Co-operative","shop":"supermarket"}}, "geometry":{"type":"Point","coordinates":[0.58121,52.07838 ]}},
{ "type":"Feature","properties":{"osm_id":"875496104","name":"The Village Shop","other":{"addr:city":"scurlage","addr:postcode":"SA3 1AY","addr:street":"Monksland Road","fhrs:id":"736414","shop":"supermarket"}}, "geometry":{"type":"Point","coordinates":[-4.2188,51.56544 ]}},
{ "type":"Feature","properties":{"osm_id":"2333116230","name":"ParcMarket","other":{"fhrs:id":"177429","not:addr:postcode":"IP24 3TY","shop":"supermarket"}}, "geometry":{"type":"Point","coordinates":[0.64454,52.39272 ]}},
{ "type":"Feature","properties":{"osm_id":"6913627386","name":"Lidl","other":{"addr:country":"GB","addr:housename":"Haverhill Retail Park","addr:postcode":"CB9 0BU","addr:street":"Ehringshausen Way","addr:unit":"4","brand":"Lidl","brand:wikidata":"Q151954","brand:wikipedia":"en:Lidl","fhrs:id":"1113691","opening_hours":"Mo-Su 08:00-22:00","shop":"supermarket","website":"http:\/\/lidl.co.uk"}}, "geometry":{"type":"Point","coordinates":[0.44761,52.07824 ]}},
{ "type":"Feature","properties":{"osm_id":"9026635013","name":"AB's minimarket","other":{"shop":"supermarket"}}, "geometry":{"type":"Point","coordinates":[0.4246,52.08396 ]}},
{ "type":"Feature","properties":{"osm_way_id":"26367413","name":"Tesco","building":"retail","shop":"supermarket","other":{"addr:city":"Bury St Edmunds","addr:postcode":"IP32 7JS","addr:street":"St. Saviours Interchange","branch":"Bury St Edmunds Superstore","brand":"Tesco","brand:wikidata":"Q487494","brand:wikipedia":"en:Tesco","fhrs:id":"1113615","opening_hours":"Mo 06:00 - Sa 24:00; Su 10:00-16:00","operator":"Tesco Stores Ltd","pharmacy":"yes"}}, "geometry":{"type":"MultiPolygon","coordinates":[[[[0.71524,52.25473],[0.71507,52.25464],[0.71483,52.2545],[0.71477,52.25454],[0.71486,52.25459],[0.7148,52.25464],[0.71487,52.25467],[0.71478,52.25482],[0.71462,52.25478],[0.71472,52.25463],[0.71475,52.25458],[0.71462,52.25455],[0.71466,52.25451],[0.71459,52.25448],[0.71462,52.25442],[0.71467,52.25434],[0.71473,52.25425],[0.71455,52.25415],[0.71517,52.25372],[0.71531,52.25372],[0.71596,52.25407],[0.71609,52.25415],[0.71603,52.2542],[0.71606,52.25421],[0.71593,52.2543],[0.7159,52.25429],[0.71532,52.25468],[0.71531,52.25468],[0.71524,52.25473]]]]}},
{ "type":"Feature","properties":{"osm_way_id":"31352637","name":"Waitrose","building":"yes","shop":"supermarket","other":{"addr:city":"Bury St Edmunds","addr:postcode":"IP33 3DH","addr:street":"Robert Boby Way","branch":"Bury St Edmunds","brand":"Waitrose","brand:wikidata":"Q771734","brand:wikipedia":"en:Waitrose & Partners","fhrs:id":"1113896","official_name":"Waitrose & Partners","opening_hours":"Mo-Sa 07:30-20:00; Su 10:00-16:00","operator":"Waitrose & Partners"}}, "geometry":{"type":"MultiPolygon","coordinates":[[[[0.70941,52.24418],[0.70889,52.24416],[0.70884,52.24416],[0.70887,52.24393],[0.7085,52.24391],[0.70854,52.24356],[0.70949,52.24361],[0.70941,52.24418]]]]}},
{ "type":"Feature","properties":{"osm_way_id":"31352897","name":"Sainsbury's","building":"retail","landuse":"retail","shop":"supermarket","other":{"addr:city":"Bury St. Edmunds","addr:country":"GB","addr:postcode":"IP32 7EJ","addr:street":"Bedingfeld Way","alt_name":"Sainsbury's Bury St Edmunds Superstore","brand":"Sainsbury's","brand:wikidata":"Q152096","brand:wikipedia":"en:Sainsbury's","dog":"guide_only","fhrs:id":"1113944","opening_hours":"Mo-Sa 07:00-22:00; Su 10:00-16:00","phone":"+44 1284 767212","website":"https:\/\/stores.sainsburys.co.uk\/0411\/bury-st-edmunds","wheelchair":"yes"}}, "geometry":{"type":"MultiPolygon","coordinates":[[[[0.73712,52.2397],[0.73823,52.23956],[0.73818,52.2394],[0.73839,52.23938],[0.73832,52.23917],[0.73864,52.23913],[0.73858,52.23895],[0.73819,52.23899],[0.73815,52.23888],[0.73789,52.23891],[0.73786,52.23881],[0.73706,52.23891],[0.7371,52.23903],[0.73689,52.23906],[0.73712,52.2397]]]]}},
{ "type":"Feature","properties":{"osm_way_id":"111507147","name":"Tesco","building":"yes","shop":"supermarket","other":{"addr:city":"Haverhill","addr:postcode":"CB9 0BQ","addr:street":"Cangle Road","branch":"Haverhill Superstore","brand":"Tesco","brand:wikidata":"Q487494","brand:wikipedia":"en:Tesco","fhrs:id":"1114688","opening_hours":"Mo-Sa 07:00-23:00; Su 10:00-16:00","operator":"Tesco Stores Ltd"}}, "geometry":{"type":"MultiPolygon","coordinates":[[[[0.43889,52.08463],[0.43899,52.08469],[0.43903,52.08466],[0.43906,52.08468],[0.43965,52.0851],[0.43847,52.08575],[0.43839,52.08572],[0.43835,52.0857],[0.43858,52.08558],[0.43851,52.08553],[0.43868,52.08545],[0.43812,52.08506],[0.43889,52.08463]]]]}},
{ "type":"Feature","properties":{"osm_way_id":"111512128","name":"Sainsbury's","building":"yes","shop":"supermarket","other":{"addr:city":"Haverhill","addr:postcode":"CB9 7YL","addr:street":"Haycocks Road","branch":"Haverhill Superstore","brand":"Sainsbury's","brand:wikidata":"Q152096","brand:wikipedia":"en:Sainsbury's","opening_hours":"Mo-Fr 08:00-22:00; Sa 07:30-22:00; Su 10:00-16:00"}}, "geometry":{"type":"MultiPolygon","coordinates":[[[[0.41263,52.09225],[0.41263,52.09223],[0.41261,52.09147],[0.41364,52.09146],[0.41385,52.09148],[0.41384,52.09163],[0.41404,52.09163],[0.41406,52.09225],[0.41263,52.09225]]]]}},
{ "type":"Feature","properties":{"osm_way_id":"116502033","name":"Aldi","building":"yes","shop":"supermarket","other":{"addr:city":"Brandon","addr:housenumber":"62","addr:postcode":"IP27 0AU","addr:street":"High Street","brand":"ALDI","brand:wikidata":"Q41171672","brand:wikipedia":"en:Aldi","fhrs:id":"936748","source:addr":"FSA Food Hygiene Ratings Database"}}, "geometry":{"type":"MultiPolygon","coordinates":[[[[0.62429,52.4499],[0.62495,52.44986],[0.62488,52.44952],[0.62439,52.44955],[0.62441,52.44965],[0.62424,52.44966],[0.62429,52.4499]]]]}},
{ "type":"Feature","properties":{"osm_way_id":"152117397","name":"Tesco","building":"yes","shop":"supermarket","other":{"addr:city":"Brandon","addr:postcode":"IP27 0LD","addr:street":"London Road","brand":"Tesco","brand:wikidata":"Q487494","brand:wikipedia":"en:Tesco","fhrs:id":"165252","operator":"Tesco Stores Ltd","source:addr":"FSA Food Hygiene Ratings Database","website":"https:\/\/www.tesco.com\/store-locator\/brandon\/london-rd"}}, "geometry":{"type":"MultiPolygon","coordinates":[[[[0.61784,52.44408],[0.61796,52.44417],[0.61793,52.44418],[0.61817,52.44436],[0.61821,52.44434],[0.61834,52.44443],[0.61872,52.44424],[0.61868,52.44422],[0.61874,52.44418],[0.61859,52.44407],[0.61853,52.4441],[0.61822,52.44388],[0.61784,52.44408]]]]}},
{ "type":"Feature","properties":{"osm_way_id":"164725820","name":"Waitrose","building":"yes","shop":"supermarket","other":{"addr:city":"Newmarket","addr:postcode":"CB8 8NY","addr:street":"Fred Archer Way","branch":"Newmarket","brand":"Waitrose","brand:wikidata":"Q771734","brand:wikipedia":"en:Waitrose & Partners","fhrs:id":"169590","official_name":"Waitrose & Partners","opening_hours":"Mo-Sa 07:00-20:00; Su 10:00-16:00","operator":"Waitrose & Partners"}}, "geometry":{"type":"MultiPolygon","coordinates":[[[[0.40795,52.24654],[0.40789,52.24672],[0.40784,52.24671],[0.40773,52.24705],[0.40771,52.24708],[0.40842,52.24717],[0.40849,52.24695],[0.40868,52.24697],[0.4088,52.24661],[0.40855,52.24658],[0.40854,52.24661],[0.40795,52.24654]]]]}},
{ "type":"Feature","properties":{"osm_way_id":"164725822","name":"Tesco Extra","building":"yes","shop":"supermarket","other":{"addr:city":"Newmarket","addr:postcode":"CB8 7AH","addr:street":"Fordham Road","branch":"Newmarket Extra","brand":"Tesco Extra","brand:wikidata":"Q25172225","brand:wikipedia":"en:Tesco Extra","contact:website":"https:\/\/www.tesco.com\/store-locator\/newmarket\/fordham-rd","fhrs:id":"829187","opening_hours":"Mo-Sa 06:00-24:00; Su 10:00-16:00","operator":"Tesco Stores Ltd"}}, "geometry":{"type":"MultiPolygon","coordinates":[[[[0.39516,52.26104],[0.39487,52.26093],[0.39519,52.26061],[0.39564,52.26076],[0.39591,52.26049],[0.39733,52.26098],[0.3973,52.26102],[0.39738,52.26105],[0.39675,52.2617],[0.39575,52.26138],[0.39507,52.26114],[0.39516,52.26104]]]]}},
{ "type":"Feature","properties":{"osm_way_id":"164725838","name":"The Food Warehouse","building":"commercial","shop":"supermarket","other":{"addr:city":"Newmarket","addr:housename":"Fordhall Retail Park","addr:postcode":"CB8 7SX","addr:street":"Oaks Drive","brand":"The Food Warehouse","brand:wikidata":"Q87263899","website":"https:\/\/www.thefoodwarehouse.com\/store-locator\/newmarket"}}, "geometry":{"type":"MultiPolygon","coordinates":[[[[0.39632,52.26205],[0.39651,52.26192],[0.39708,52.26222],[0.3969,52.26235],[0.39632,52.26205]]]]}},
{ "type":"Feature","properties":{"osm_way_id":"166428922","name":"Asda","building":"yes","shop":"supermarket","other":{"addr:city":"Bury St Edmunds","addr:postcode":"IP33 3SP","addr:street":"Western Way","alt_name":"ASDA Bury St Edmunds Superstore","brand":"Asda","brand:wikidata":"Q297410","brand:wikipedia":"en:Asda","contact:facebook":"https:\/\/www.facebook.com\/asda\/","contact:phone":"+44 1284 733500","contact:twitter":"@asda","contact:website":"https:\/\/storelocator.asda.com\/east-of-england\/bury-st-edmunds\/western-way","fhrs:id":"1114199","opening_hours":"Mo-Fr 06:00-24:00; Sa 06:00-22:00; Su 10:00-16:00","opening_hours:covid19":"Mo-Sa 08:00-22:00; Su 10:00-16:00","operator":"Asda Stores Ltd","payment:cash":"yes","payment:contactless":"yes","payment:credit_cards":"yes","payment:debit_cards":"yes"}}, "geometry":{"type":"MultiPolygon","coordinates":[[[[0.6913,52.2522],[0.6913,52.25214],[0.69124,52.25214],[0.69125,52.25211],[0.69131,52.25211],[0.69137,52.25151],[0.69137,52.25149],[0.69097,52.25148],[0.69097,52.25153],[0.69027,52.2515],[0.69022,52.25194],[0.68997,52.25193],[0.68995,52.25215],[0.69008,52.25215],[0.6913,52.2522]]]]}},
{ "type":"Feature","properties":{"osm_way_id":"170170451","name":"Sainsbury's","building":"retail","shop":"supermarket","other":{"addr:city":"Bury St Edmunds","addr:postcode":"IP28 7HG","addr:street":"Recreation Way","addr:town":"Mildenhall","branch_name":"Mildenhall Superstore","brand":"Sainsbury's","brand:wikidata":"Q152096","brand:wikipedia":"en:Sainsbury's","fhrs:id":"177839","opening_hours":"Mo-Sa 08:00-22:00; Su 10:00-16:00","payment:cash":"yes","payment:credit_cards":"yes","payment:debit_cards":"yes","phone":"+44 1683 686220","source:addr":"FHRS Open Data","superstore":"yes","website":"https:\/\/stores.sainsburys.co.uk\/2163\/mildenhall"}}, "geometry":{"type":"MultiPolygon","coordinates":[[[[0.51246,52.34275],[0.51248,52.34221],[0.51292,52.34222],[0.51293,52.34207],[0.51323,52.34208],[0.51321,52.34238],[0.51323,52.34238],[0.51325,52.34238],[0.51324,52.3425],[0.51322,52.3425],[0.5132,52.3425],[0.51319,52.34277],[0.51312,52.34277],[0.51246,52.34275]]]]}},
{ "type":"Feature","properties":{"osm_way_id":"170170505","name":"The Co-operative Food","building":"yes","shop":"supermarket","other":{"addr:city":"Bury St Edmunds","addr:postcode":"IP28 7ES","addr:street":"King Street","addr:town":"Mildenhall","fhrs:id":"164740","opening_hours":"Mo-Sa 07:00-22:00; Su 10:00-16:00","operator":"The Co-operative Group","website":"https:\/\/www.coop.co.uk\/store-finder\/IP28-7ES\/kings-street"}}, "geometry":{"type":"MultiPolygon","coordinates":[[[[0.51135,52.34331],[0.51144,52.34316],[0.51149,52.34307],[0.51161,52.3431],[0.51183,52.34315],[0.51185,52.34315],[0.51169,52.34343],[0.51144,52.34338],[0.51146,52.34333],[0.51135,52.34331]]]]}},
{ "type":"Feature","properties":{"osm_way_id":"180265799","name":"ALDI","building":"retail","shop":"supermarket","other":{"addr:city":"Haverhill","addr:postcode":"CB9 0ER","addr:street":"Lordscroft Lane","branch":"Haverhill","brand":"ALDI","brand:wikidata":"Q41171672","brand:wikipedia":"en:Aldi","opening_hours":"Mo-Sa 08:00-22:00; Su 10:00-16:00"}}, "geometry":{"type":"MultiPolygon","coordinates":[[[[0.44075,52.08344],[0.44099,52.08332],[0.44141,52.08311],[0.44166,52.08329],[0.44175,52.08324],[0.44181,52.08329],[0.44106,52.08367],[0.44075,52.08344]]]]}},
{ "type":"Feature","properties":{"osm_way_id":"189582844","name":"Co-op Food","building":"retail","shop":"supermarket","other":{"addr:city":"Bury St Edmunds","addr:postcode":"IP32 6EN","addr:street":"Mildenhall Road","brand":"Co-op Food","brand:wikidata":"Q3277439","brand:wikipedia":"en:Co-op Food","fhrs:id":"1114030","source:addr":"FHRS Open Data","source:outline":"Bing"}}, "geometry":{"type":"MultiPolygon","coordinates":[[[[0.70908,52.26326],[0.70947,52.26346],[0.70893,52.26385],[0.70872,52.26374],[0.70864,52.26379],[0.70856,52.26375],[0.70863,52.2637],[0.70854,52.26365],[0.70908,52.26326]]]]}},
{ "type":"Feature","properties":{"osm_way_id":"205523382","name":"Co-op Food","building":"yes","shop":"supermarket","other":{"addr:housenumber":"2-5","addr:postcode":"CB8 0BP","addr:street":"Elizabeth Parade","brand":"Co-op Food","brand:wikidata":"Q3277439","brand:wikipedia":"en:Co-op Food","fhrs:id":"162645"}}, "geometry":{"type":"MultiPolygon","coordinates":[[[[0.39065,52.25427],[0.3908,52.25418],[0.3907,52.25411],[0.39067,52.25413],[0.39062,52.2541],[0.39047,52.25418],[0.39051,52.25422],[0.39054,52.2542],[0.39065,52.25427]]]]}},
{ "type":"Feature","properties":{"osm_way_id":"306918651","name":"ALDI","building":"retail","shop":"supermarket","other":{"addr:city":"Bury St Edmunds","addr:postcode":"IP33 3TU","addr:street":"Dettingen Way","alt_name":"ALDI Bury St Edmunds","brand":"ALDI","brand:wikidata":"Q41171672","brand:wikipedia":"en:Aldi","fhrs:id":"1113626","old_name":"Lookers Land Rover","opening_hours":"Mo-Sa 08:00-22:00; Su 10:00-16:00"}}, "geometry":{"type":"MultiPolygon","coordinates":[[[[0.68993,52.24882],[0.69003,52.24878],[0.69008,52.24883],[0.6903,52.24873],[0.69077,52.24914],[0.69045,52.24928],[0.68993,52.24882]]]]}},
{ "type":"Feature","properties":{"osm_way_id":"308786443","name":"The Co-operative Food","building":"yes","shop":"supermarket","other":{"addr:city":"Brandon","addr:housenumber":"46-50","addr:postcode":"IP27 9DS","addr:street":"High Street","addr:village":"Lakenheath","brand":"Co-op Food","brand:wikidata":"Q3277439","brand:wikipedia":"en:Co-op Food","fhrs:id":"163967","opening_hours":"Mo-Su 07:00-22:00"}}, "geometry":{"type":"MultiPolygon","coordinates":[[[[0.51839,52.41674],[0.51839,52.41666],[0.51827,52.41665],[0.51799,52.41668],[0.51796,52.41686],[0.51818,52.41685],[0.51825,52.41685],[0.51825,52.41674],[0.51839,52.41674]]]]}},
{ "type":"Feature","properties":{"osm_way_id":"358787507","name":"Tesco Express","building":"yes","shop":"supermarket","other":{"addr:city":"Bury St Edmunds","addr:postcode":"IP32 7EW","addr:street":"Lawson Place","brand":"Tesco Express","brand:wikidata":"Q98456772","brand:wikipedia":"en:Tesco","fhrs:id":"1114381","operator":"Tesco Stores Ltd","source:addr":"FHRS Open Data"}}, "geometry":{"type":"MultiPolygon","coordinates":[[[[0.74171,52.24479],[0.74171,52.2447],[0.74174,52.2447],[0.74174,52.24466],[0.74203,52.24466],[0.74202,52.24483],[0.74174,52.24483],[0.74174,52.24479],[0.74171,52.24479]]]]}},
{ "type":"Feature","properties":{"osm_way_id":"397850290","name":"Nisa Local","building":"yes","shop":"supermarket","other":{"addr:housenumber":"1","addr:postcode":"IP28 8XQ","addr:street":"Bellflower Crescent","brand":"Nisa Local","brand:wikidata":"Q16999069","brand:wikipedia":"en:Nisa (retailer)","fhrs:id":"664921","source:addr":"FSA Food Hygiene Ratings Database"}}, "geometry":{"type":"MultiPolygon","coordinates":[[[[0.49607,52.30521],[0.49606,52.30507],[0.49652,52.30506],[0.49652,52.3052],[0.49629,52.30521],[0.49629,52.30527],[0.49612,52.30527],[0.49612,52.30521],[0.49607,52.30521]]]]}},
{ "type":"Feature","properties":{"osm_way_id":"672777943","name":"Tesco Express","building":"yes","shop":"supermarket","other":{"addr:city":"Bury St Edmunds","addr:housenumber":"1-2","addr:postcode":"IP33 2DF","addr:street":"Stamford Court","brand":"Tesco Express","brand:wikidata":"Q98456772","brand:wikipedia":"en:Tesco","fhrs:id":"1113852","operator":"Tesco Stores Ltd","source:addr":"FSA Food Hygiene Ratings Database"}}, "geometry":{"type":"MultiPolygon","coordinates":[[[[0.70428,52.23855],[0.70441,52.2386],[0.70455,52.23845],[0.70441,52.23841],[0.70435,52.23847],[0.70424,52.23843],[0.70417,52.23851],[0.70428,52.23855]]]]}}
]
}
