{
"type": "FeatureCollection",
"features": [
{ "type":"Feature","properties":{"osm_way_id":"94196887","building":"warehouse","other":{"addr:postcode":"IP28 6RX"}}, "geometry":{"type":"MultiPolygon","coordinates":[[[[0.64488,52.25824],[0.64401,52.25829],[0.64386,52.25744],[0.64394,52.25743],[0.64392,52.25727],[0.64431,52.25725],[0.64434,52.25741],[0.6444,52.25741],[0.6444,52.2575],[0.64477,52.25748],[0.64488,52.25824]]]]}},
{ "type":"Feature","properties":{"osm_way_id":"94197098","name":"Dorel","building":"warehouse"},"geometry":{"type":"MultiPolygon","coordinates":[[[[0.64598,52.25811],[0.64804,52.25802],[0.64797,52.25738],[0.64795,52.25722],[0.64587,52.2573],[0.64598,52.25811]]]]}},
{ "type":"Feature","properties":{"osm_way_id":"189582845","name":"UPS","building":"warehouse"},"geometry":{"type":"MultiPolygon","coordinates":[[[[0.70861,52.2643],[0.70889,52.26444],[0.70861,52.26464],[0.7091,52.2649],[0.70905,52.26494],[0.70855,52.26468],[0.7083,52.26486],[0.70895,52.2652],[0.7089,52.26524],[0.70825,52.26489],[0.70799,52.26508],[0.70787,52.26502],[0.70811,52.26485],[0.70804,52.26481],[0.70811,52.26476],[0.70802,52.26471],[0.70861,52.2643]]]]}},
{ "type":"Feature","properties":{"osm_way_id":"190022591","building":"warehouse"},"geometry":{"type":"MultiPolygon","coordinates":[[[[0.40634,52.24285],[0.40645,52.24292],[0.40631,52.243],[0.40626,52.24303],[0.40615,52.24297],[0.40634,52.24285]]]]}},
{ "type":"Feature","properties":{"osm_way_id":"190022592","building":"warehouse"},"geometry":{"type":"MultiPolygon","coordinates":[[[[0.40639,52.24305],[0.40646,52.24302],[0.40653,52.24299],[0.40647,52.24291],[0.40645,52.24292],[0.40631,52.243],[0.40639,52.24305]]]]}},
{ "type":"Feature","properties":{"osm_way_id":"219770361","building":"warehouse","other":{"building:levels":"1"}}, "geometry":{"type":"MultiPolygon","coordinates":[[[[0.43857,52.07493],[0.43898,52.07469],[0.43863,52.07447],[0.43822,52.07471],[0.43857,52.07493]]]]}},
{ "type":"Feature","properties":{"osm_way_id":"219823395","building":"warehouse","other":{"building:levels":"1"}}, "geometry":{"type":"MultiPolygon","coordinates":[[[[0.44179,52.07452],[0.44189,52.07459],[0.44205,52.07451],[0.44196,52.07443],[0.44179,52.07452]]]]}},
{ "type":"Feature","properties":{"osm_way_id":"304287316","name":"Suffolk Mind","building":"warehouse"},"geometry":{"type":"MultiPolygon","coordinates":[[[[0.71412,52.25081],[0.71426,52.2507],[0.71444,52.25078],[0.71436,52.25084],[0.71437,52.25085],[0.71433,52.25088],[0.7143,52.25087],[0.71428,52.25088],[0.71412,52.25081]]]]}},
{ "type":"Feature","properties":{"osm_way_id":"494682646","building":"warehouse"},"geometry":{"type":"MultiPolygon","coordinates":[[[[-0.59649,52.60843],[-0.59609,52.6082],[-0.59597,52.60827],[-0.59511,52.60778],[-0.5943,52.6083],[-0.59517,52.60879],[-0.59507,52.60885],[-0.59547,52.60908],[-0.59649,52.60843]]]]}},
{ "type":"Feature","properties":{"osm_way_id":"494682649","building":"warehouse"},"geometry":{"type":"MultiPolygon","coordinates":[[[[-0.59783,52.60813],[-0.59746,52.60792],[-0.59735,52.60799],[-0.59733,52.60798],[-0.59686,52.60829],[-0.59696,52.60835],[-0.59695,52.60836],[-0.59722,52.60851],[-0.5975,52.60834],[-0.59753,52.60835],[-0.59772,52.60823],[-0.59769,52.60822],[-0.59783,52.60813]]]]}},
{ "type":"Feature","properties":{"osm_way_id":"546686125","name":"Culina","building":"warehouse","other":{"addr:postcode":"CB9 7FD"}}, "geometry":{"type":"MultiPolygon","coordinates":[[[[0.44921,52.07073],[0.45215,52.07113],[0.45242,52.07038],[0.44947,52.06998],[0.44921,52.07073]]]]}},
{ "type":"Feature","properties":{"osm_way_id":"568991467","name":"Helmsman","building":"warehouse","other":{"addr:postcode":"IP32 6NH","website":"https:\/\/helmsman.co.uk\/"}}, "geometry":{"type":"MultiPolygon","coordinates":[[[[0.70227,52.26713],[0.70149,52.2677],[0.70174,52.26783],[0.70164,52.2679],[0.70172,52.26794],[0.70174,52.26793],[0.70194,52.26803],[0.70192,52.26805],[0.702,52.26809],[0.70245,52.26776],[0.70243,52.26775],[0.70248,52.26771],[0.70241,52.26767],[0.70279,52.2674],[0.70261,52.26731],[0.70227,52.26713]]]]}},
{ "type":"Feature","properties":{"osm_way_id":"573553675","name":"BMW Lancaster","building":"warehouse","shop":"car","other":{"addr:city":"Bury St Edmunds","addr:country":"GB","addr:housename":"Tollgate Business Centre","addr:place":"Fornham St Martin","addr:postcode":"IP31 1SX","addr:street":"Thetford Road","alt_name":"Lancaster BMW","brand":"BMW","brand:wikidata":"Q26678","brand:wikipedia":"en:BMW","email":"sales@burystedmunds.lancasterbmw.co.uk","opening_hours":"Mo-Fr 08:30-18:00; Sa 09:00-17:00; Su 10:00-16:00","phone":"+44 1284 603013","start_date":"1988","website":"http:\/\/www.lancasterburystedmundsbmw.co.uk\/"}}, "geometry":{"type":"MultiPolygon","coordinates":[[[[0.71306,52.26245],[0.71271,52.26228],[0.71231,52.26259],[0.71241,52.26264],[0.71249,52.26258],[0.71256,52.26262],[0.7124,52.26274],[0.71257,52.26283],[0.71306,52.26245]]]]}},
{ "type":"Feature","properties":{"osm_way_id":"573553686","building":"warehouse","other":{"addr:city":"Bury St Edmunds","addr:country":"GB","addr:housename":"Tollgate Business Centre","addr:housenumber":"1","addr:place":"Fornham St Martin","addr:postcode":"IP31 1SX","addr:street":"Thetford Road"}}, "geometry":{"type":"MultiPolygon","coordinates":[[[[0.71254,52.26221],[0.71206,52.26198],[0.71154,52.26239],[0.71212,52.26266],[0.71246,52.26239],[0.71236,52.26235],[0.71254,52.26221]]]]}},
{ "type":"Feature","properties":{"osm_way_id":"809909494","name":"NHS Supply Chain","building":"warehouse"},"geometry":{"type":"MultiPolygon","coordinates":[[[[0.76162,52.23907],[0.76211,52.23765],[0.76338,52.23781],[0.76289,52.23923],[0.76162,52.23907]]]]}},
{ "type":"Feature","properties":{"osm_way_id":"809909495","name":"MH Star","building":"warehouse"},"geometry":{"type":"MultiPolygon","coordinates":[[[[0.7591,52.23877],[0.76078,52.23899],[0.7613,52.23749],[0.75962,52.23728],[0.7591,52.23877]]]]}},
{ "type":"Feature","properties":{"osm_way_id":"928231117","building":"warehouse"},"geometry":{"type":"MultiPolygon","coordinates":[[[[-0.59796,52.60962],[-0.59737,52.60929],[-0.59761,52.60913],[-0.59758,52.60912],[-0.59762,52.60909],[-0.5976,52.60909],[-0.59765,52.60905],[-0.59828,52.60941],[-0.59796,52.60962]]]]}},
{ "type":"Feature","properties":{"osm_way_id":"942913363","name":"Skechers UK Distrubution Centre","building":"warehouse","other":{"addr:city":"Bury Saint Edmunds","addr:postcode":"IP32 7FQ","construction":"yes"}}, "geometry":{"type":"MultiPolygon","coordinates":[[[[0.76323,52.24097],[0.76609,52.24125],[0.7668,52.23857],[0.76394,52.23828],[0.76323,52.24097]]]]}}
]
}
