{
"type": "FeatureCollection",
"features": [
{ "type":"Feature","properties":{"osm_id":"1645739186","name":"The Co-operative","other":{"shop":"supermarket"}}, "geometry":{"type":"Point","coordinates":[-0.37421,53.75604 ]}},
{ "type":"Feature","properties":{"osm_id":"3044731942","other":{"addr:street":"Greenwich Avenue","addr:postcode":"HU9 4UZ"}}, "geometry":{"type":"Point","coordinates":[-0.26434,53.77047 ]}},
{ "type":"Feature","properties":{"osm_id":"3378359889","name":"Grains","other":{"shop":"supermarket","organic":"yes","addr:city":"Kingston upon Hull","addr:street":"Newland Avenue"}}, "geometry":{"type":"Point","coordinates":[-0.35914,53.7607 ]}},
{ "type":"Feature","properties":{"osm_id":"3378363400","name":"Indian and Continental Stores","other":{"shop":"supermarket"}}, "geometry":{"type":"Point","coordinates":[-0.35877,53.76588 ]}},
{ "type":"Feature","properties":{"osm_id":"5858822125","name":"Heron Foods","other":{"addr:city":"Kingston Upon Hull","addr:country":"GB","addr:housenumber":"419,493","addr:postcode":"HU3 6DT","addr:street":"Anlaby Road","brand":"Heron Foods","brand:wikidata":"Q5743472","brand:wikipedia":"en:Heron Foods","contact:website":"https:\/\/heronfoods.com\/storelocator\/store-details\/anlaby-road","fhrs:id":"192470","shop":"supermarket","wheelchair":"limited"}}, "geometry":{"type":"Point","coordinates":[-0.37569,53.74359 ]}},
{ "type":"Feature","properties":{"osm_id":"5858822143","name":"Aldi","other":{"brand":"ALDI","brand:wikidata":"Q41171672","brand:wikipedia":"en:Aldi","shop":"supermarket","wheelchair":"yes"}}, "geometry":{"type":"Point","coordinates":[-0.38593,53.74259 ]}},
{ "type":"Feature","properties":{"osm_id":"6737148249","name":"D&D market","other":{"shop":"supermarket","opening_hours":"Mo-Su 08:00-23:00"}}, "geometry":{"type":"Point","coordinates":[-0.34985,53.76156 ]}},
{ "type":"Feature","properties":{"osm_id":"6977596175","name":"Aldi","other":{"brand":"ALDI","brand:wikidata":"Q41171672","brand:wikipedia":"en:Aldi","shop":"supermarket"}}, "geometry":{"type":"Point","coordinates":[-0.33123,53.77894 ]}},
{ "type":"Feature","properties":{"osm_way_id":"5935388","name":"Asda","building":"store","shop":"supermarket","other":{"addr:city":"Kingston Upon Hull","addr:country":"GB","addr:postcode":"HU3 4PE","addr:street":"Hessle Road","alt_name":"ASDA Hessle Superstore","brand":"Asda","brand:wikidata":"Q297410","brand:wikipedia":"en:Asda","contact:website":"https:\/\/storelocator.asda.com\/yorkshire-&-humber\/hull\/hessle-road","fhrs:id":"192512","operator":"Asda Stores Ltd","wheelchair":"yes"}}, "geometry":{"type":"MultiPolygon","coordinates":[[[[-0.37257,53.73397],[-0.37254,53.73388],[-0.37267,53.73387],[-0.37264,53.73374],[-0.37244,53.73376],[-0.3724,53.73355],[-0.37201,53.73302],[-0.37211,53.733],[-0.37226,53.73323],[-0.3723,53.73323],[-0.37232,53.73327],[-0.37251,53.73325],[-0.37248,53.73312],[-0.37353,53.73303],[-0.37363,53.73341],[-0.37373,53.7334],[-0.37374,53.73344],[-0.37391,53.73342],[-0.37397,53.73364],[-0.37379,53.73365],[-0.37384,53.73386],[-0.37257,53.73397]]]]}},
{ "type":"Feature","properties":{"osm_way_id":"8761733","name":"Sainsbury's","building":"supermarket","shop":"supermarket","other":{"addr:city":"Hessle","addr:postcode":"HU13 9NS","addr:street":"Sainsbury Way","brand":"Sainsbury's","brand:wikidata":"Q152096","opening_hours":"Mo-Sa 07:00-22:00; Su 10:00-16:00","toilets":"yes","wheelchair":"yes"}}, "geometry":{"type":"MultiPolygon","coordinates":[[[[-0.42004,53.72366],[-0.4196,53.72307],[-0.41988,53.723],[-0.41991,53.72304],[-0.42,53.72302],[-0.42004,53.72366]]]]}},
{ "type":"Feature","properties":{"osm_way_id":"24697211","name":"Asda","building":"yes","shop":"supermarket","other":{"addr:city":"Kingston Upon Hull","addr:country":"GB","addr:postcode":"HU7 3DA","addr:street":"Althorp Road","brand":"Asda","brand:wikidata":"Q297410","brand:wikipedia":"en:Asda","contact:website":"https:\/\/storelocator.asda.com\/yorkshire-&-humber\/hull\/bude-road-kingswood-retail-park","fhrs:id":"192218","toilets:wheelchair":"yes","wheelchair":"yes"}}, "geometry":{"type":"MultiPolygon","coordinates":[[[[-0.34636,53.795],[-0.34632,53.79489],[-0.34651,53.79484],[-0.34648,53.79481],[-0.3463,53.79486],[-0.34626,53.79482],[-0.34658,53.79472],[-0.34646,53.79459],[-0.34636,53.79462],[-0.34629,53.79454],[-0.3464,53.7945],[-0.34627,53.79435],[-0.34593,53.79445],[-0.34564,53.79409],[-0.34488,53.79431],[-0.34491,53.79435],[-0.34474,53.7944],[-0.34495,53.79466],[-0.34469,53.79473],[-0.34487,53.79494],[-0.3451,53.79488],[-0.34531,53.79513],[-0.34553,53.79507],[-0.34564,53.79521],[-0.34636,53.795]]]]}},
{ "type":"Feature","properties":{"osm_way_id":"28252449","name":"Morrisons","building":"yes","shop":"supermarket","other":{"addr:city":"Kingston upon Hull","addr:housenumber":"716-718","addr:postcode":"HU9 3JA","addr:street":"Holderness Road","brand":"Morrisons","brand:wikidata":"Q922344","brand:wikipedia":"en:Morrisons","website":"https:\/\/my.morrisons.com\/storefinder\/109"}}, "geometry":{"type":"MultiPolygon","coordinates":[[[[-0.29206,53.76271],[-0.29162,53.76289],[-0.29147,53.76277],[-0.29111,53.76246],[-0.2925,53.76189],[-0.293,53.76232],[-0.29213,53.76268],[-0.29206,53.76271]]]]}},
{ "type":"Feature","properties":{"osm_way_id":"54727740","name":"Tesco Extra","building":"store","shop":"supermarket","other":{"addr:housename":"St Stephens Centre","addr:postcode":"HU2 8LN","addr:street":"Park Street","alt_name":"Tesco Hull St Stephens Extra","brand":"Tesco Extra","brand:wikidata":"Q25172225","brand:wikipedia":"en:Tesco Extra","layer":"1","toilets:wheelchair":"yes","website":"https:\/\/www.tesco.com\/store-locator\/hull\/5-st-stephens-centre","wheelchair":"yes"}}, "geometry":{"type":"MultiPolygon","coordinates":[[[[-0.35003,53.74602],[-0.34836,53.74551],[-0.34892,53.74488],[-0.34961,53.74509],[-0.34977,53.74492],[-0.35001,53.745],[-0.34995,53.74513],[-0.35058,53.74539],[-0.35038,53.74562],[-0.35007,53.74597],[-0.35003,53.74602]]]]}},
{ "type":"Feature","properties":{"osm_way_id":"65138291","name":"ALDI","building":"store","shop":"supermarket","other":{"brand":"ALDI","brand:wikidata":"Q41171672","brand:wikipedia":"en:Aldi","wheelchair":"yes"}}, "geometry":{"type":"MultiPolygon","coordinates":[[[[-0.41759,53.72316],[-0.41689,53.7233],[-0.41687,53.72328],[-0.41681,53.72329],[-0.41676,53.72321],[-0.41687,53.72319],[-0.41681,53.72308],[-0.41763,53.72291],[-0.41773,53.72308],[-0.41756,53.72311],[-0.41759,53.72316]]]]}},
{ "type":"Feature","properties":{"osm_way_id":"111800402","name":"Home Bargins","building":"store","shop":"supermarket"},"geometry":{"type":"MultiPolygon","coordinates":[[[[-0.36414,53.73466],[-0.36364,53.73476],[-0.36355,53.73462],[-0.36365,53.7346],[-0.36348,53.73434],[-0.36391,53.73425],[-0.36414,53.73466]]]]}},
{ "type":"Feature","properties":{"osm_way_id":"148594715","name":"Morrisons","building":"retail","shop":"supermarket"},"geometry":{"type":"MultiPolygon","coordinates":[[[[-0.31947,53.78609],[-0.31943,53.78607],[-0.31939,53.78609],[-0.31923,53.78601],[-0.31926,53.78599],[-0.31921,53.78596],[-0.31966,53.78565],[-0.31991,53.78577],[-0.31978,53.78587],[-0.31947,53.78609]]]]}},
{ "type":"Feature","properties":{"osm_way_id":"185682930","name":"Tesco","building":"store","shop":"supermarket","other":{"addr:city":"Kingston upon Hull","addr:postcode":"HU6 7XP","brand":"Tesco","brand:wikidata":"Q487494","brand:wikipedia":"en:Tesco","toilets:wheelchair":"yes","wheelchair":"yes"}}, "geometry":{"type":"MultiPolygon","coordinates":[[[[-0.36462,53.78851],[-0.36451,53.78824],[-0.36464,53.78813],[-0.36456,53.78796],[-0.36394,53.78806],[-0.36362,53.7875],[-0.36356,53.78751],[-0.36386,53.78811],[-0.36315,53.78824],[-0.36359,53.78902],[-0.36425,53.78891],[-0.36418,53.7888],[-0.36431,53.78877],[-0.36426,53.78869],[-0.36446,53.78866],[-0.36439,53.78854],[-0.36462,53.78851]]]]}},
{ "type":"Feature","properties":{"osm_way_id":"186891093","name":"Aldi","building":"yes","shop":"supermarket","other":{"addr:city":"Kingston upon Hull","addr:postcode":"HU9 5AJ","addr:street":"249 Preston Road","brand":"ALDI","brand:wikidata":"Q41171672","brand:wikipedia":"en:Aldi","opening_hours":"Mo-Sa 08:00-21:00; Su 10:00-16:00","phone":"+44 800 042 0800"}}, "geometry":{"type":"MultiPolygon","coordinates":[[[[-0.27198,53.75733],[-0.27199,53.75721],[-0.27154,53.75719],[-0.2715,53.75766],[-0.27171,53.75767],[-0.27171,53.75762],[-0.27191,53.75763],[-0.27194,53.75733],[-0.27198,53.75733]]]]}},
{ "type":"Feature","properties":{"osm_way_id":"186892471","name":"Morrisons Daily","building":"store","shop":"supermarket","other":{"addr:city":"Kingston upon Hull","addr:postcode":"HU9 3QP","addr:street":"Preston Road","operator":"Morrisons"}}, "geometry":{"type":"MultiPolygon","coordinates":[[[[-0.28417,53.75852],[-0.2842,53.75837],[-0.2838,53.75834],[-0.28376,53.75851],[-0.28384,53.75851],[-0.28385,53.7585],[-0.28389,53.7585],[-0.28389,53.75848],[-0.28402,53.75849],[-0.28402,53.75851],[-0.28417,53.75852]]]]}},
{ "type":"Feature","properties":{"osm_way_id":"201817189","name":"Asda","building":"yes","shop":"supermarket","other":{"addr:city":"Kingston Upon Hull","addr:country":"GB","addr:postcode":"HU11 4AL","addr:street":"Main Road","brand":"Asda","brand:wikidata":"Q297410","brand:wikipedia":"en:Asda","contact:website":"https:\/\/storelocator.asda.com\/yorkshire-&-humber\/hull\/main-road-bilton","fhrs:id":"193151","operator":"Asda Stores Ltd","wheelchair":"yes"}}, "geometry":{"type":"MultiPolygon","coordinates":[[[[-0.25458,53.77856],[-0.25458,53.77828],[-0.2542,53.77828],[-0.2542,53.77814],[-0.25283,53.77814],[-0.25283,53.77846],[-0.25266,53.77846],[-0.25267,53.7788],[-0.25287,53.7788],[-0.25287,53.77883],[-0.25397,53.77884],[-0.25398,53.77873],[-0.25398,53.77862],[-0.25418,53.77862],[-0.25418,53.77856],[-0.25458,53.77856]]]]}},
{ "type":"Feature","properties":{"osm_way_id":"203791642","name":"Asda","building":"retail","shop":"supermarket","other":{"addr:city":"Kingston Upon Hull","addr:country":"GB","addr:housename":"The Mount Retail Park","addr:postcode":"HU9 2BN","addr:street":"Mount Pleasant","brand":"Asda","brand:wikidata":"Q297410","brand:wikipedia":"en:Asda","contact:website":"https:\/\/storelocator.asda.com\/yorkshire-&-humber\/hull\/mount-pleasant","fhrs:id":"192120","operator":"Asda Stores Ltd"}}, "geometry":{"type":"MultiPolygon","coordinates":[[[[-0.31476,53.75279],[-0.31221,53.7515],[-0.31292,53.75101],[-0.31548,53.7523],[-0.31476,53.75279]]]]}},
{ "type":"Feature","properties":{"osm_way_id":"205539140","name":"Lidl","building":"yes","shop":"supermarket","other":{"brand":"Lidl","fhrs:id":"1027780","addr:city":"Kingston Upon Hull","addr:street":"Brighton Street","addr:country":"GB","addr:postcode":"HU3 4UW","brand:wikidata":"Q151954","brand:wikipedia":"en:Lidl"}}, "geometry":{"type":"MultiPolygon","coordinates":[[[[-0.37778,53.73307],[-0.37749,53.73247],[-0.37701,53.73255],[-0.3773,53.73315],[-0.37778,53.73307]]]]}},
{ "type":"Feature","properties":{"osm_way_id":"206175966","name":"Asda","building":"yes","shop":"supermarket","other":{"addr:city":"Kingston Upon Hull","addr:country":"GB","addr:housenumber":"165-173","addr:postcode":"HU3 1TY","addr:street":"Beverley Road","brand":"Asda","brand:wikidata":"Q297410","brand:wikipedia":"en:Asda","contact:website":"https:\/\/storelocator.asda.com\/yorkshire-&-humber\/hull\/beverley-road","fhrs:id":"192583","operator":"Asda Stores Ltd","wheelchair":"yes"}}, "geometry":{"type":"MultiPolygon","coordinates":[[[[-0.34922,53.75586],[-0.34922,53.75583],[-0.34926,53.75582],[-0.34924,53.7557],[-0.34918,53.75571],[-0.34914,53.7554],[-0.34881,53.75542],[-0.34887,53.75583],[-0.34884,53.75584],[-0.34885,53.7559],[-0.34896,53.75589],[-0.34895,53.75587],[-0.34922,53.75586]]]]}},
{ "type":"Feature","properties":{"osm_way_id":"206176292","name":"Aldi","building":"supermarket","shop":"supermarket","other":{"brand":"ALDI","brand:wikidata":"Q41171672","brand:wikipedia":"en:Aldi"}}, "geometry":{"type":"MultiPolygon","coordinates":[[[[-0.35067,53.75661],[-0.35062,53.75632],[-0.34989,53.75636],[-0.34993,53.7566],[-0.35044,53.75657],[-0.35044,53.75662],[-0.35067,53.75661]]]]}},
{ "type":"Feature","properties":{"osm_way_id":"263657806","name":"Asda","building":"yes","shop":"supermarket","other":{"brand":"Asda","fhrs:id":"193601","operator":"Asda Stores Ltd","addr:city":"Kingston Upon Hull","addr:street":"Savoy Road","addr:country":"GB","addr:postcode":"HU8 0TX","brand:wikidata":"Q297410","brand:wikipedia":"en:Asda","contact:website":"https:\/\/storelocator.asda.com\/yorkshire-&-humber\/hull\/ings-centre-savoy-road"}}, "geometry":{"type":"MultiPolygon","coordinates":[[[[-0.28928,53.77178],[-0.28923,53.77177],[-0.28922,53.77181],[-0.28905,53.77179],[-0.28906,53.77175],[-0.28864,53.7717],[-0.28871,53.77146],[-0.28936,53.77154],[-0.28928,53.77178]]]]}},
{ "type":"Feature","properties":{"osm_way_id":"297622190","name":"The Co-op","building":"yes","shop":"supermarket","other":{"operator":"The Co-operative Group","wheelchair":"yes","opening_hours":"Mo-Su 06:00-22:00"}}, "geometry":{"type":"MultiPolygon","coordinates":[[[[-0.25505,53.75663],[-0.25465,53.75661],[-0.25467,53.75643],[-0.2547,53.75644],[-0.25471,53.75632],[-0.25508,53.75634],[-0.25508,53.75639],[-0.25494,53.75638],[-0.25494,53.75642],[-0.25507,53.75643],[-0.25505,53.75663]]]]}},
{ "type":"Feature","properties":{"osm_way_id":"298381053","name":"Heron Foods","building":"retail","shop":"supermarket","other":{"brand":"Heron Foods","fhrs:id":"192649","addr:city":"Kingston upon Hull","addr:street":"Greenwich Avenue","addr:country":"GB","addr:postcode":"HU9 4UX","brand:wikidata":"Q5743472","brand:wikipedia":"en:Heron Foods","contact:website":"https:\/\/heronfoods.com\/index.php\/storelocator\/store-details\/greenwich-ave","addr:housenumber":"15"}}, "geometry":{"type":"MultiPolygon","coordinates":[[[[-0.26526,53.77161],[-0.26515,53.77173],[-0.26509,53.77171],[-0.26506,53.77174],[-0.26481,53.77166],[-0.26494,53.77151],[-0.26526,53.77161]]]]}},
{ "type":"Feature","properties":{"osm_way_id":"299141264","name":"Tesco Express","building":"yes","shop":"supermarket","other":{"addr:housenumber":"490-504","addr:postcode":"HU3 6TA","addr:street":"Anlaby Road","alt_name":"Tesco Anlaby Road Express","brand":"Tesco Express","brand:wikidata":"Q98456772","opening_hours":"Mo-Su,PH 06:00-23:00"}}, "geometry":{"type":"MultiPolygon","coordinates":[[[[-0.38276,53.74408],[-0.38271,53.74396],[-0.38235,53.74401],[-0.38239,53.74413],[-0.38276,53.74408]]]]}},
{ "type":"Feature","properties":{"osm_way_id":"299141269","name":"Sainsbury's Local","building":"yes","shop":"supermarket","other":{"addr:housenumber":"1022-1024","addr:postcode":"HU4 6AT","addr:street":"Anlaby Road","alt_name":"Sainsbury's Anlaby Park Local","brand:wikidata":"Q13218434","opening_hours":"Mo-Su 06:00-23:00"}}, "geometry":{"type":"MultiPolygon","coordinates":[[[[-0.40819,53.74462],[-0.40816,53.74443],[-0.408,53.74444],[-0.40803,53.74463],[-0.40819,53.74462]]]]}},
{ "type":"Feature","properties":{"osm_way_id":"301389173","name":"Heron Foods","building":"yes","shop":"supermarket","other":{"brand":"Heron Foods","brand:wikidata":"Q5743472","brand:wikipedia":"en:Heron Foods"}}, "geometry":{"type":"MultiPolygon","coordinates":[[[[-0.38057,53.77815],[-0.38043,53.77814],[-0.38042,53.77825],[-0.38018,53.77824],[-0.38019,53.77811],[-0.38024,53.77811],[-0.38027,53.77791],[-0.3806,53.77793],[-0.38057,53.77815]]]]}},
{ "type":"Feature","properties":{"osm_way_id":"302580204","name":"Lidl","building":"yes","shop":"supermarket","other":{"addr:country":"GB","addr:housenumber":"23","addr:postcode":"HU5 2PP","addr:street":"Cottingham Road","brand":"Lidl","brand:wikidata":"Q151954","fhrs:id":"192198"}}, "geometry":{"type":"MultiPolygon","coordinates":[[[[-0.35488,53.76772],[-0.3541,53.76781],[-0.35423,53.76824],[-0.35436,53.76823],[-0.35435,53.7682],[-0.35445,53.76819],[-0.35441,53.76806],[-0.35489,53.76801],[-0.35483,53.76782],[-0.35491,53.76781],[-0.35488,53.76772]]]]}},
{ "type":"Feature","properties":{"osm_way_id":"303661422","name":"Heron Foods","building":"yes","shop":"supermarket","other":{"brand":"Heron Foods","fhrs:id":"193727","addr:city":"Kingston upon Hull","addr:street":"Marfleet Lane","addr:country":"GB","addr:postcode":"HU9 5AQ","contact:phone":"+44 1482 712238","opening_hours":"Mo-Sa 8:00-17:30, Su closed","brand:wikidata":"Q5743472","brand:wikipedia":"en:Heron Foods","contact:website":"https:\/\/heronfoods.com\/storelocator\/store-details\/marfleet-lane","addr:housenumber":"306,308"}}, "geometry":{"type":"MultiPolygon","coordinates":[[[[-0.27309,53.75771],[-0.2731,53.75762],[-0.27292,53.75762],[-0.27291,53.75771],[-0.27309,53.75771]]]]}},
{ "type":"Feature","properties":{"osm_way_id":"304229192","name":"Heron Foods","building":"yes","shop":"supermarket","other":{"brand":"Heron Foods","fhrs:id":"191903","addr:city":"Kingston upon Hull","addr:street":"Hotham Road South","addr:country":"GB","addr:postcode":"HU5 5JX","brand:wikidata":"Q5743472","brand:wikipedia":"en:Heron Foods","contact:website":"https:\/\/heronfoods.com\/storelocator\/store-details\/hotham-road","addr:housenumber":"793"}}, "geometry":{"type":"MultiPolygon","coordinates":[[[[-0.41553,53.75373],[-0.41546,53.75376],[-0.41537,53.7537],[-0.41545,53.75367],[-0.41553,53.75373]]]]}},
{ "type":"Feature","properties":{"osm_way_id":"304967595","name":"Heron Foods","building":"yes","shop":"supermarket","other":{"brand":"Heron Foods","fhrs:id":"192542","addr:city":"Kingston upon Hull","addr:street":"Holderness Road","addr:country":"GB","addr:postcode":"HU9 2JX","brand:wikidata":"Q5743472","brand:wikipedia":"en:Heron Foods","contact:website":"https:\/\/heronfoods.com\/storelocator\/store-details\/holderness-rd","addr:housenumber":"280-284"}}, "geometry":{"type":"MultiPolygon","coordinates":[[[[-0.31141,53.75498],[-0.31131,53.75504],[-0.31102,53.75487],[-0.31112,53.75481],[-0.31141,53.75498]]]]}},
{ "type":"Feature","properties":{"osm_way_id":"305897656","name":"Heron Foods","building":"yes","shop":"supermarket","other":{"addr:city":"Kingston upon Hull","addr:country":"GB","addr:housename":"Grampian Shopping Centre","addr:postcode":"HU7 5BJ","addr:street":"Grampian Way","addr:unit":"1","brand":"Heron Foods","brand:wikidata":"Q5743472","brand:wikipedia":"en:Heron Foods","contact:website":"https:\/\/heronfoods.com\/storelocator\/store-details\/north-bransholme","fhrs:id":"193080","toilets:wheelchair":"no","wheelchair":"yes"}}, "geometry":{"type":"MultiPolygon","coordinates":[[[[-0.32808,53.80545],[-0.32767,53.80546],[-0.32765,53.80513],[-0.32805,53.80512],[-0.32805,53.80517],[-0.32826,53.80517],[-0.32826,53.80521],[-0.32828,53.80537],[-0.32808,53.80537],[-0.32808,53.80545]]]]}},
{ "type":"Feature","properties":{"osm_way_id":"316969871","name":"The Co-operative Food","building":"yes","shop":"supermarket","other":{"operator":"The Co-operative Group"}}, "geometry":{"type":"MultiPolygon","coordinates":[[[[-0.35263,53.80181],[-0.35265,53.8016],[-0.35218,53.80159],[-0.35219,53.80181],[-0.35263,53.80181]]]]}},
{ "type":"Feature","properties":{"osm_way_id":"319265736","name":"The Co-operative Food","building":"yes","shop":"supermarket","other":{"operator":"The Co-operative Group","addr:city":"Kingston upon Hull","addr:street":"Greenwich Avenue"}}, "geometry":{"type":"MultiPolygon","coordinates":[[[[-0.26434,53.77047],[-0.26404,53.7707],[-0.26386,53.77062],[-0.26391,53.77058],[-0.26377,53.77052],[-0.26402,53.77033],[-0.26434,53.77047]]]]}},
{ "type":"Feature","properties":{"osm_way_id":"334694682","name":"Heron Foods","building":"yes","shop":"supermarket","other":{"brand":"Heron Foods","fhrs:id":"1214491","addr:city":"Kingston Upon Hull","addr:street":"Annandale Road","addr:country":"GB","addr:postcode":"HU9 4JZ","brand:wikidata":"Q5743472","brand:wikipedia":"en:Heron Foods","contact:website":"https:\/\/heronfoods.com\/storelocator\/store-details\/annandale-road","addr:housenumber":"160"}}, "geometry":{"type":"MultiPolygon","coordinates":[[[[-0.25375,53.7566],[-0.25376,53.75652],[-0.25357,53.75651],[-0.25356,53.75659],[-0.25375,53.7566]]]]}},
{ "type":"Feature","properties":{"osm_way_id":"352775315","name":"Heron Foods","building":"yes","shop":"supermarket","other":{"brand":"Heron Foods","fhrs:id":"606358","addr:city":"Kingston Upon Hull","addr:street":"Newland Avenue","addr:country":"GB","addr:postcode":"HU5 3AB","brand:wikidata":"Q5743472","brand:wikipedia":"en:Heron Foods","contact:website":"https:\/\/heronfoods.com\/storelocator\/store-details\/newland-ave","addr:housenumber":"76,78"}}, "geometry":{"type":"MultiPolygon","coordinates":[[[[-0.35865,53.76239],[-0.35855,53.76239],[-0.35855,53.76247],[-0.35865,53.76248],[-0.35865,53.76239]]]]}},
{ "type":"Feature","properties":{"osm_way_id":"437729726","name":"Heron Foods","building":"commercial","shop":"supermarket","other":{"brand":"Heron Foods","fhrs:id":"193024","smoking":"no","addr:city":"Kingston upon Hull","addr:street":"Shannon Road","addr:country":"GB","addr:postcode":"HU8 9PD","brand:wikidata":"Q5743472","brand:wikipedia":"en:Heron Foods","building:levels":"1","contact:website":"https:\/\/heronfoods.com\/storelocator\/store-details\/shannon-road","addr:housenumber":"82"}}, "geometry":{"type":"MultiPolygon","coordinates":[[[[-0.26826,53.77652],[-0.2683,53.77664],[-0.26787,53.77669],[-0.26785,53.77664],[-0.2678,53.77665],[-0.26779,53.77657],[-0.26826,53.77652]]]]}},
{ "type":"Feature","properties":{"osm_way_id":"516784009","name":"Marks & Spencer","building":"yes","shop":"supermarket","other":{"addr:city":"Kingston Upon Hull","addr:housenumber":"12a","addr:parentstreet":"Althorp Road","addr:place":"Kingswood Retail Park","addr:postcode":"HU7 3DA","brand":"Marks & Spencer","brand:wikidata":"Q714491","brand:wikipedia":"en:Marks & Spencer","building:levels":"2","fhrs:id":"466228","source:addr":"FHRS Open Data","website":"https:\/\/www.marksandspencer.com\/stores\/hull-kingswood-simply-food-1147"}}, "geometry":{"type":"MultiPolygon","coordinates":[[[[-0.34972,53.79538],[-0.34935,53.79548],[-0.34909,53.79514],[-0.34942,53.79504],[-0.34957,53.79521],[-0.34972,53.79538]]]]}},
{ "type":"Feature","properties":{"osm_way_id":"620063320","name":"Iceland","building":"yes","shop":"supermarket","other":{"brand":"Iceland","brand:wikidata":"Q721810"}}, "geometry":{"type":"MultiPolygon","coordinates":[[[[-0.38656,53.74416],[-0.3863,53.74419],[-0.38615,53.74381],[-0.3864,53.74377],[-0.38656,53.74416]]]]}},
{ "type":"Feature","properties":{"osm_way_id":"654766095","name":"Co-op","building":"yes","shop":"supermarket","other":{"brand":"Co-op","operator":"The Co-operative Group","addr:city":"Kingston-upon-Hull","addr:street":"Greenwood Avenue","addr:country":"GB","addr:postcode":"HU6 9NA","contact:phone":"+44 1482 805857","opening_hours":"Mo-Su 07:00-23:00","brand:wikidata":"Q117202","brand:wikipedia":"en:The Co-operative Group"}}, "geometry":{"type":"MultiPolygon","coordinates":[[[[-0.35987,53.78166],[-0.35965,53.78171],[-0.35954,53.78153],[-0.35975,53.78148],[-0.35987,53.78166]]]]}},
{ "type":"Feature","properties":{"osm_way_id":"685326139","name":"Tesco Express","building":"yes","shop":"supermarket","other":{"brand":"Tesco Express","brand:wikidata":"Q98456772","brand:wikipedia":"en:Tesco"}}, "geometry":{"type":"MultiPolygon","coordinates":[[[[-0.35859,53.76799],[-0.35896,53.768],[-0.35911,53.768],[-0.35912,53.76788],[-0.35878,53.76787],[-0.3586,53.76787],[-0.35859,53.76799]]]]}},
{ "type":"Feature","properties":{"osm_way_id":"848048164","building":"retail","shop":"supermarket","other":{"brand":"B&M Bargains"}}, "geometry":{"type":"MultiPolygon","coordinates":[[[[-0.31542,53.75295],[-0.31576,53.75275],[-0.31593,53.75265],[-0.31648,53.75298],[-0.31597,53.75328],[-0.31542,53.75295]]]]}},
{ "type":"Feature","properties":{"osm_way_id":"853041691","name":"Lidl","building":"retail","shop":"supermarket","other":{"addr:country":"GB","addr:postcode":"HU9 1AY","addr:street":"Hedon Road","brand":"Lidl","brand:wikidata":"Q151954","fhrs:id":"930144"}}, "geometry":{"type":"MultiPolygon","coordinates":[[[[-0.31538,53.74711],[-0.3146,53.74755],[-0.31492,53.74775],[-0.31494,53.74776],[-0.31579,53.74729],[-0.31566,53.74721],[-0.31559,53.74725],[-0.31538,53.74711]]]]}},
{ "type":"Feature","properties":{"osm_way_id":"1022845725","name":"Herons food","building":"yes","shop":"supermarket","other":{"addr:city":"Kingston Upon Hull","addr:postcode":"HU1 2EX","addr:street":"Whitefriargate","operator":"Herons food"}}, "geometry":{"type":"MultiPolygon","coordinates":[[[[-0.33686,53.74318],[-0.33693,53.74301],[-0.33691,53.74301],[-0.33693,53.74295],[-0.3372,53.74298],[-0.33717,53.74305],[-0.33714,53.74312],[-0.3371,53.74321],[-0.33686,53.74318]]]]}}
]
}
