{
"type": "FeatureCollection",
"features": [
{ "type":"Feature","properties":{"osm_id":"299106549","name":"Tesco Express","other":{"addr:city":"Croydon","addr:housenumber":"100-102","addr:postcode":"CR0 6AD","addr:street":"Lower Addiscombe Road","brand":"Tesco Express","brand:wikidata":"Q98456772","contact:website":"https:\/\/www.tesco.com\/store-locator\/croydon\/100-102-lower-addiscombe-rd","fhrs:id":"293475","name:fa":"تسکو اکسپرس","opening_hours":"Mo-Su 06:00-24:00","shop":"supermarket","wheelchair":"yes"}}, "geometry":{"type":"Point","coordinates":[-0.08355,51.37933 ]}},
{ "type":"Feature","properties":{"osm_id":"367075882","name":"Costcutter","other":{"addr:city":"Thornton Heath","addr:housenumber":"39-41","addr:postcode":"CR7 8JP","addr:street":"Norbury Road","fhrs:authority":"Croydon","fhrs:id":"5056","shop":"supermarket"}}, "geometry":{"type":"Point","coordinates":[-0.09761,51.40472 ]}},
{ "type":"Feature","properties":{"osm_id":"467499196","name":"Tesco Express","other":{"addr:city":"London","addr:housenumber":"156","addr:postcode":"SE25 4PT","addr:street":"Portland Road","addr:suburb":"South Norwood","brand":"Tesco Express","brand:wikidata":"Q98456772","contact:website":"https:\/\/www.tesco.com\/store-locator\/london\/156-162-portland-rd","fhrs:id":"22219","name:fa":"تسکو اکسپرس","shop":"supermarket","source:addr":"fhrs","wheelchair":"yes"}}, "geometry":{"type":"Point","coordinates":[-0.06729,51.39381 ]}},
{ "type":"Feature","properties":{"osm_id":"1421116841","name":"Co-operative Food","other":{"addr:city":"Croydon","addr:housenumber":"311-313","addr:postcode":"CR0 6RF","addr:street":"Lower Addiscombe Road","fhrs:authority":"Croydon","fhrs:id":"4844","opening_hours":"Mo-Sa 07:00-22:00; Su 10:00-16:00","shop":"supermarket"}}, "geometry":{"type":"Point","coordinates":[-0.06986,51.38193 ]}},
{ "type":"Feature","properties":{"osm_id":"2277378038","name":"The Co-operative Food","other":{"addr:city":"Purley","addr:housenumber":"60","addr:postcode":"CR8 5AA","addr:street":"Godstone Road","addr:village":"Kenley","brand":"The Co-operative Food","brand:wikidata":"Q3277439","brand:wikipedia":"en:Co-op Food","fhrs:authority":"Croydon","fhrs:id":"2472","shop":"supermarket","survey:date":"2018-09-28"}}, "geometry":{"type":"Point","coordinates":[-0.10121,51.32581 ]}},
{ "type":"Feature","properties":{"osm_id":"2712539251","name":"Iceland","other":{"addr:city":"London","addr:housenumber":"1372","addr:postcode":"SW16 4DE","addr:street":"London Road","addr:suburb":"Norbury","brand":"Iceland","brand:wikidata":"Q721810","fhrs:authority":"Croydon","fhrs:id":"7062","name:fa":"ایسلند","shop":"supermarket"}}, "geometry":{"type":"Point","coordinates":[-0.12192,51.40927 ]}},
{ "type":"Feature","properties":{"osm_id":"3230431466","name":"Tesco","other":{"amenity":"parking_entrance","layer":"0","parking":"underground"}}, "geometry":{"type":"Point","coordinates":[-0.1001,51.39947 ]}},
{ "type":"Feature","properties":{"osm_id":"3406254803","name":"Foodland Supermarket","other":{"addr:housenumber":"70","addr:street":"Windmill Road","name:fa":"سوپرمارکت فودلند","shop":"supermarket"}}, "geometry":{"type":"Point","coordinates":[-0.10008,51.38547 ]}},
{ "type":"Feature","properties":{"osm_id":"3706671121","name":"Cooperative Food","other":{"addr:city":"Croydon","addr:housenumber":"61","addr:postcode":"CR0 6PQ","addr:street":"Lower Addiscombe Road","fhrs:authority":"Croydon","fhrs:id":"4812","opening_hours":"Mo-Su 07:00-22:00","shop":"supermarket"}}, "geometry":{"type":"Point","coordinates":[-0.08654,51.38044 ]}},
{ "type":"Feature","properties":{"osm_id":"5141294130","name":"Lidl","other":{"addr:country":"GB","addr:housenumber":"2","addr:postcode":"CR0 4XL","addr:street":"Trojan Way","brand":"Lidl","brand:wikidata":"Q151954","brand:wikipedia":"en:Lidl","fhrs:id":"1176079","old_name":"Fabb","shop":"supermarket"}}, "geometry":{"type":"Point","coordinates":[-0.11984,51.37393 ]}},
{ "type":"Feature","properties":{"osm_id":"5802389148","name":"One Stop","other":{"addr:city":"South Croydon","addr:housenumber":"450-454","addr:postcode":"CR2 6AP","addr:street":"Brighton Road","fhrs:authority":"Croydon","fhrs:id":"190081","shop":"supermarket"}}, "geometry":{"type":"Point","coordinates":[-0.10134,51.34896 ]}},
{ "type":"Feature","properties":{"osm_id":"5809993972","name":"Co-op Food","other":{"addr:city":"Croydon","addr:housename":"The Forestdale Centre","addr:postcode":"CR0 9AS","addr:street":"Featherbed Lane","addr:unit":"4","brand":"Co-op Food","brand:wikidata":"Q3277439","brand:wikipedia":"en:Co-op Food","fhrs:authority":"Croydon","fhrs:id":"35254","shop":"supermarket"}}, "geometry":{"type":"Point","coordinates":[-0.03816,51.35087 ]}},
{ "type":"Feature","properties":{"osm_id":"5892620652","name":"The Co-operative Food","other":{"addr:city":"Thornton Heath","addr:housenumber":"26-28","addr:postcode":"CR7 8BB","addr:street":"Green Lane","fhrs:authority":"Croydon","fhrs:id":"6966","not:addr:housenumber":"26a","shop":"supermarket","source:addr":"website","source:not:addr:housenumber":"fhrs","website":"https:\/\/finder.coop.co.uk\/food\/store\/CR7-8BB\/26-28-green-lane"}}, "geometry":{"type":"Point","coordinates":[-0.10592,51.40878 ]}},
{ "type":"Feature","properties":{"osm_id":"5959453012","name":"Co-op","other":{"addr:city":"Croydon","addr:housenumber":"225","addr:postcode":"CR0 8TG","addr:street":"Wickham Road","fhrs:authority":"Croydon","fhrs:id":"6577","shop":"supermarket","survey:date":"2018-10-04"}}, "geometry":{"type":"Point","coordinates":[-0.04693,51.37532 ]}},
{ "type":"Feature","properties":{"osm_id":"5966035998","name":"Tesco Express","other":{"addr:city":"Croydon","addr:housenumber":"10-14","addr:postcode":"CR0 7RA","addr:street":"Bywood Avenue","brand":"Tesco Express","brand:wikidata":"Q98456772","contact:website":"https:\/\/www.tesco.com\/store-locator\/croydon\/10-14-bywood-ave","fhrs:id":"10676","name:fa":"تسکو اکسپرس","shop":"supermarket","survey:date":"2018-10-04"}}, "geometry":{"type":"Point","coordinates":[-0.05224,51.38858 ]}},
{ "type":"Feature","properties":{"osm_id":"5966233132","name":"The Co-operative Food","other":{"addr:city":"Croydon","addr:housenumber":"118-122","addr:postcode":"CR0 7NN","addr:street":"Orchard Way","fhrs:authority":"Croydon","fhrs:id":"906956","shop":"supermarket","survey:date":"2018-10-04"}}, "geometry":{"type":"Point","coordinates":[-0.04021,51.38597 ]}},
{ "type":"Feature","properties":{"osm_id":"5999891650","name":"The Co-operative Food","other":{"addr:city":"Croydon","addr:housenumber":"7-10","addr:postcode":"CR0 0JB","addr:street":"Central Parade","addr:village":"New Addington","fhrs:authority":"Croydon","fhrs:id":"1787","shop":"supermarket","survey:date":"2018-10-19"}}, "geometry":{"type":"Point","coordinates":[-0.01625,51.34235 ]}},
{ "type":"Feature","properties":{"osm_id":"5999891676","name":"Iceland","other":{"addr:city":"Croydon","addr:housenumber":"34-37","addr:postcode":"CR0 0JD","addr:street":"Central Parade","addr:village":"New Addington","brand":"Iceland","brand:wikidata":"Q721810","fhrs:authority":"Croydon","fhrs:id":"1793","shop":"supermarket","survey:date":"2018-10-19"}}, "geometry":{"type":"Point","coordinates":[-0.01459,51.34145 ]}},
{ "type":"Feature","properties":{"osm_id":"5999893289","name":"Tropical Essentials Supermarket","other":{"addr:city":"Croydon","addr:housenumber":"52","addr:postcode":"CR0 0JD","addr:street":"Central Parade","addr:village":"New Addington","fhrs:authority":"Croydon","fhrs:id":"15135","shop":"supermarket","survey:date":"2018-10-19"}}, "geometry":{"type":"Point","coordinates":[-0.01382,51.34073 ]}},
{ "type":"Feature","properties":{"osm_id":"6531720860","name":"Sainsbury's","other":{"addr:city":"Croydon","addr:housename":"Whitgift Centre","addr:postcode":"CR0 1UP","addr:unit":"19-20","brand":"Sainsbury's","brand:wikidata":"Q152096","brand:wikipedia":"en:Sainsbury's","fhrs:authority":"Croydon","fhrs:id":"6754","level":"0","shop":"supermarket"}}, "geometry":{"type":"Point","coordinates":[-0.10046,51.37693 ]}},
{ "type":"Feature","properties":{"osm_id":"7626967527","other":{"addr:city":"Coulsdon","addr:housenumber":"21","addr:postcode":"CR5 3DS","addr:street":"Rickman Hill"}}, "geometry":{"type":"Point","coordinates":[-0.15157,51.31694 ]}},
{ "type":"Feature","properties":{"osm_id":"7626967529","other":{"addr:city":"Coulsdon","addr:housenumber":"29","addr:postcode":"CR5 3DS","addr:street":"Rickman Hill"}}, "geometry":{"type":"Point","coordinates":[-0.15184,51.31658 ]}},
{ "type":"Feature","properties":{"osm_id":"8094461882","name":"Lidl","other":{"addr:country":"GB","addr:housenumber":"411","addr:postcode":"SE19 3HD","addr:street":"Beulah Hill","brand":"Lidl","brand:wikidata":"Q151954","brand:wikipedia":"en:Lidl","fhrs:id":"1159954","opening_hours":"Mo-Sa 08:00-22:00; Su 11:00-17:00","shop":"supermarket"}}, "geometry":{"type":"Point","coordinates":[-0.1069,51.42223 ]}},
{ "type":"Feature","properties":{"osm_id":"8154801219","other":{"defibrillator:location":"external wall of Waitrose on Malcolm Road, near car park","emergency":"defibrillator","indoor":"no","operator":"EireMed"}}, "geometry":{"type":"Point","coordinates":[-0.13736,51.32186 ]}},
{ "type":"Feature","properties":{"osm_id":"8983092414","name":"ALDI","other":{"addr:city":"Croydon","addr:housenumber":"330","addr:postcode":"CR0 4XJ","addr:street":"Purley Way","brand":"ALDI","brand:wikidata":"Q41171672","brand:wikipedia":"en:Aldi","fhrs:id":"1316032","shop":"supermarket","source:addr":"FHRS Open Data"}}, "geometry":{"type":"Point","coordinates":[-0.11888,51.37236 ]}},
{ "type":"Feature","properties":{"osm_id":"9223751624","name":"Lidl","other":{"addr:country":"GB","addr:postcode":"CR0 0JA","addr:street":"Parkway","brand":"Lidl","brand:wikidata":"Q151954","brand:wikipedia":"en:Lidl","fhrs:id":"563370","shop":"supermarket","survey:date":"2019-07-01"}}, "geometry":{"type":"Point","coordinates":[-0.02002,51.34676 ]}},
{ "type":"Feature","properties":{"osm_id":"9331931815","name":"Budgens","other":{"brand":"Budgens","brand:wikidata":"Q4985016","brand:wikipedia":"en:Budgens","shop":"supermarket"}}, "geometry":{"type":"Point","coordinates":[-0.11862,51.36414 ]}},
{ "type":"Feature","properties":{"osm_way_id":"26129774","name":"Sainsbury's","building":"shop","shop":"supermarket","other":{"addr:city":"London","addr:housenumber":"64","addr:postcode":"SE19 3AF","addr:street":"Westow Street","addr:suburb":"Upper Norwood","alt_name":"Sainsbury's Upper Norwood Superstore","brand":"Sainsbury's","brand:wikidata":"Q152096","building:levels":"1","check_date:opening_hours":"2022-02-27","fhrs:authority":"Croydon","fhrs:id":"18455","opening_hours":"Mo-Fr 08:00-21:00; Sa 07:30-21:00; Su 11:00-17:00"}}, "geometry":{"type":"MultiPolygon","coordinates":[[[[-0.08299,51.41734],[-0.08288,51.41736],[-0.08287,51.41732],[-0.08242,51.41743],[-0.08261,51.41787],[-0.08263,51.41791],[-0.08273,51.41789],[-0.08279,51.41801],[-0.08282,51.41806],[-0.08286,51.41812],[-0.08303,51.41808],[-0.08335,51.41798],[-0.08332,51.41791],[-0.08337,51.4179],[-0.08311,51.41744],[-0.08305,51.41745],[-0.08302,51.4174],[-0.08299,51.41734]]]]}},
{ "type":"Feature","properties":{"osm_way_id":"30906738","name":"Sainsbury's","building":"shop","shop":"supermarket","other":{"addr:city":"London","addr:housenumber":"120-122","addr:postcode":"SE25 6XB","addr:street":"Whitehorse Lane","branch":"Crystal Palace Superstore","brand:wikidata":"Q152096","opening_hours":"Mo-Sa 07:00-22:00; Su 11:00-17:00","wheelchair":"yes"}}, "geometry":{"type":"MultiPolygon","coordinates":[[[[-0.08716,51.39869],[-0.08711,51.39872],[-0.08692,51.39881],[-0.08684,51.39885],[-0.08686,51.39887],[-0.0868,51.3989],[-0.08674,51.39885],[-0.08571,51.39936],[-0.0855,51.3992],[-0.08652,51.39869],[-0.0865,51.39867],[-0.08644,51.39862],[-0.08654,51.39857],[-0.08659,51.3986],[-0.08686,51.39846],[-0.08716,51.39869]]]]}},
{ "type":"Feature","properties":{"osm_way_id":"137721387","name":"Tesco Extra","building":"yes","shop":"supermarket","other":{"addr:city":"Purley","addr:housenumber":"8","addr:postcode":"CR8 2HA","addr:street":"Purley Road","brand":"Tesco Extra","brand:wikidata":"Q25172225","brand:wikipedia":"en:Tesco Extra","building:levels":"2","fhrs:authority":"Croydon","fhrs:id":"6734","fhrs:local_authority_id":"02460\/0008\/0\/207"}}, "geometry":{"type":"MultiPolygon","coordinates":[[[[-0.11815,51.33672],[-0.11734,51.33636],[-0.1171,51.33657],[-0.11696,51.33649],[-0.1167,51.33638],[-0.11662,51.33634],[-0.11605,51.3368],[-0.11611,51.33683],[-0.11596,51.33695],[-0.11705,51.3375],[-0.11776,51.33692],[-0.11783,51.33691],[-0.11792,51.33685],[-0.118,51.33684],[-0.11815,51.33672]]]]}},
{ "type":"Feature","properties":{"osm_way_id":"138836923","name":"Sainsbury's","building":"retail","shop":"supermarket","other":{"addr:city":"South Croydon","addr:housenumber":"130","addr:postcode":"CR2 8LA","addr:street":"Addington Road","branch":"Selsdon","brand":"Sainsbury's","brand:wikidata":"Q152096","brand:wikipedia":"en:Sainsbury's","fhrs:authority":"Croydon","fhrs:id":"29309"}}, "geometry":{"type":"MultiPolygon","coordinates":[[[[-0.06296,51.34267],[-0.06302,51.34264],[-0.06306,51.3426],[-0.06306,51.34256],[-0.06357,51.34233],[-0.06345,51.34222],[-0.06342,51.3422],[-0.06338,51.34221],[-0.06298,51.34189],[-0.06234,51.3422],[-0.06246,51.34231],[-0.06296,51.34267]]]]}},
{ "type":"Feature","properties":{"osm_way_id":"164682937","name":"Lidl","building":"shop","shop":"supermarket","other":{"addr:city":"London","addr:housenumber":"1","addr:postcode":"SW16 3LH","addr:street":"Hermitage Lane","addr:suburb":"Norbury","alt_name":"LIDL London","brand":"Lidl","brand:wikidata":"Q151954","fhrs:authority":"Croydon","fhrs:id":"859654","name:fa":"لیدل"}}, "geometry":{"type":"MultiPolygon","coordinates":[[[[-0.12401,51.41418],[-0.12376,51.41408],[-0.1237,51.41415],[-0.12356,51.4143],[-0.12352,51.41428],[-0.12336,51.41443],[-0.12338,51.41447],[-0.12343,51.41452],[-0.12351,51.41457],[-0.1236,51.41459],[-0.1237,51.41459],[-0.12378,51.41457],[-0.12383,51.41455],[-0.1237,51.4145],[-0.12401,51.41418]]]]}},
{ "type":"Feature","properties":{"osm_way_id":"168695291","name":"Lidl","building":"shop","shop":"supermarket","other":{"addr:city":"Croydon","addr:housenumber":"99-101","addr:postcode":"CR0 2RF","addr:street":"London Road","brand":"Lidl","brand:wikidata":"Q151954","fhrs:authority":"Croydon","fhrs:id":"6987","name:fa":"لیدل","source:postcode":"FSA Food Hygiene Ratings database"}}, "geometry":{"type":"MultiPolygon","coordinates":[[[[-0.10621,51.38054],[-0.10638,51.38076],[-0.1062,51.38082],[-0.10622,51.38084],[-0.10565,51.38103],[-0.10557,51.38102],[-0.10521,51.38063],[-0.10523,51.38058],[-0.10516,51.38057],[-0.1052,51.3805],[-0.10532,51.38051],[-0.1058,51.38036],[-0.10597,51.38056],[-0.10601,51.38054],[-0.10606,51.38059],[-0.10621,51.38054]]]]}},
{ "type":"Feature","properties":{"osm_way_id":"180779518","name":"Wing Yip","building":"retail","shop":"supermarket","other":{"addr:city":"Croydon","addr:housename":"Wing Yip Business Centre","addr:housenumber":"544","addr:postcode":"CR0 4RE","addr:street":"Purley Way","fhrs:authority":"Croydon","fhrs:id":"7107"}}, "geometry":{"type":"MultiPolygon","coordinates":[[[[-0.11986,51.36274],[-0.11982,51.36275],[-0.11953,51.36277],[-0.11953,51.36279],[-0.11939,51.3628],[-0.11938,51.36278],[-0.1191,51.3628],[-0.11906,51.36256],[-0.11898,51.36257],[-0.11897,51.36251],[-0.11887,51.362],[-0.11886,51.36194],[-0.11916,51.36192],[-0.11915,51.36187],[-0.11924,51.36186],[-0.11923,51.36183],[-0.11963,51.3618],[-0.11978,51.36251],[-0.11982,51.3625],[-0.11985,51.36272],[-0.11986,51.36274]]]]}},
{ "type":"Feature","properties":{"osm_way_id":"180779603","name":"Morrisons","building":"supermarket","shop":"supermarket","other":{"addr:city":"Croydon","addr:housenumber":"500","addr:postcode":"CR0 4NZ","addr:street":"Purley Way","brand":"Morrisons","brand:wikidata":"Q922344","brand:wikipedia":"en:Morrisons","fhrs:authority":"Croydon","fhrs:id":"605458"}}, "geometry":{"type":"MultiPolygon","coordinates":[[[[-0.12081,51.36501],[-0.12063,51.36462],[-0.12088,51.36457],[-0.12079,51.36437],[-0.11961,51.36458],[-0.11978,51.36494],[-0.11989,51.36517],[-0.12081,51.36501]]]]}},
{ "type":"Feature","properties":{"osm_way_id":"190126013","name":"Aldi","building":"yes","shop":"supermarket","other":{"addr:city":"South Croydon","addr:housenumber":"232-236","addr:postcode":"CR2 8LE","addr:street":"Addington Road","brand":"ALDI","brand:wikidata":"Q41171672","brand:wikipedia":"en:Aldi","fhrs:id":"22206"}}, "geometry":{"type":"MultiPolygon","coordinates":[[[[-0.05949,51.34495],[-0.05916,51.34468],[-0.059,51.34475],[-0.05894,51.3447],[-0.05868,51.34482],[-0.05873,51.34486],[-0.05907,51.34515],[-0.05949,51.34495]]]]}},
{ "type":"Feature","properties":{"osm_way_id":"191154250","name":"Aldi","building":"shop","shop":"supermarket","other":{"addr:city":"London","addr:housenumber":"18-20","addr:postcode":"SE25 5AJ","addr:street":"Station Road","addr:suburb":"South Norwood","branch":"South Norwood","brand":"ALDI","brand:wikidata":"Q41171672","brand:wikipedia":"en:Aldi","fhrs:id":"983328","name:fa":"آلدی","old_name":"Co-operative","opening_hours":"Mo-Sa 08:00-22:00; Su 11:00-17:00","wheelchair":"yes"}}, "geometry":{"type":"MultiPolygon","coordinates":[[[[-0.07674,51.39747],[-0.07665,51.39757],[-0.07689,51.39767],[-0.07658,51.39797],[-0.07608,51.39772],[-0.07626,51.39754],[-0.07644,51.39736],[-0.07674,51.39747]]]]}},
{ "type":"Feature","properties":{"osm_way_id":"198354790","name":"Mr Meat","building":"retail","shop":"supermarket","other":{"addr:city":"Croydon","addr:housenumber":"31-33","addr:postcode":"CR0 1RH","addr:street":"Church Street","fhrs:authority":"Croydon","fhrs:id":"1093311","survey:date":"2019-05-17"}}, "geometry":{"type":"MultiPolygon","coordinates":[[[[-0.10219,51.37342],[-0.10231,51.37339],[-0.10227,51.37333],[-0.10225,51.37331],[-0.10221,51.37329],[-0.10215,51.37329],[-0.10216,51.37333],[-0.10219,51.37342]]]]}},
{ "type":"Feature","properties":{"osm_way_id":"199735121","name":"Waitrose","building":"retail","shop":"supermarket","other":{"addr:city":"Croydon","addr:housename":"Norfolk House","addr:postcode":"CR0 1LG","addr:street":"George Street","addr:unit":"24-27","branch":"Croydon","brand":"Waitrose","brand:wikidata":"Q771734","brand:wikipedia":"en:Waitrose","building:levels":"2","fhrs:authority":"Croydon","fhrs:id":"29724","official_name":"Waitrose & Partners","operator":"Waitrose & Partners","wheelchair":"yes"}}, "geometry":{"type":"MultiPolygon","coordinates":[[[[-0.09617,51.37456],[-0.09607,51.37437],[-0.09585,51.37439],[-0.09566,51.37442],[-0.09574,51.37461],[-0.09594,51.37458],[-0.09609,51.3749],[-0.0963,51.37486],[-0.09617,51.37456]]]]}},
{ "type":"Feature","properties":{"osm_way_id":"201338061","name":"Terra House","building":"retail","shop":"supermarket","other":{"addr:city":"Croydon","addr:housenumber":"206","addr:postcode":"CR0 1NE","addr:street":"High Street","fhrs:authority":"Croydon","fhrs:id":"1001668"}}, "geometry":{"type":"MultiPolygon","coordinates":[[[[-0.09994,51.36964],[-0.09995,51.36968],[-0.09998,51.36969],[-0.10017,51.36967],[-0.10016,51.36962],[-0.09994,51.36964]]]]}},
{ "type":"Feature","properties":{"osm_way_id":"204867661","name":"Waitrose","building":"retail","shop":"supermarket","other":{"addr:city":"South Croydon","addr:housenumber":"87","addr:postcode":"CR2 9LE","addr:street":"Limpsfield Road","brand":"Waitrose","brand:wikidata":"Q771734","brand:wikipedia":"en:Waitrose & Partners","fhrs:authority":"Croydon","fhrs:id":"10617","official_name":"Waitrose & Partners","operator":"Waitrose & Partners"}}, "geometry":{"type":"MultiPolygon","coordinates":[[[[-0.07516,51.33168],[-0.07527,51.33181],[-0.07528,51.33184],[-0.07528,51.33185],[-0.07526,51.33187],[-0.07495,51.33214],[-0.07493,51.33215],[-0.0749,51.33215],[-0.07487,51.33214],[-0.07468,51.33206],[-0.07466,51.33208],[-0.07454,51.33202],[-0.07456,51.332],[-0.07441,51.33193],[-0.07442,51.33192],[-0.07424,51.33185],[-0.07425,51.33184],[-0.07516,51.33168]]]]}},
{ "type":"Feature","properties":{"osm_way_id":"219009064","name":"Sainsbury's","building":"yes","shop":"supermarket","other":{"addr:city":"Croydon","addr:housenumber":"2","addr:postcode":"CR0 4XT","addr:street":"Trafalgar Way","alt_name":"Sainsbury's Purley Way Superstore","brand":"Sainsbury's","brand:wikidata":"Q152096","brand:wikipedia":"en:Sainsbury's","fhrs:authority":"Croydon","fhrs:id":"6391;1032234;28724","survey:date":"2018-10-29"}}, "geometry":{"type":"MultiPolygon","coordinates":[[[[-0.11842,51.37577],[-0.11818,51.37537],[-0.11813,51.37526],[-0.11803,51.37528],[-0.1179,51.37531],[-0.11768,51.37536],[-0.11767,51.37535],[-0.11719,51.37546],[-0.11725,51.37559],[-0.117,51.37565],[-0.11721,51.37597],[-0.1175,51.37623],[-0.11757,51.37622],[-0.11765,51.37637],[-0.11786,51.37632],[-0.11787,51.37635],[-0.11841,51.37623],[-0.11864,51.37618],[-0.11842,51.37577]]]]}},
{ "type":"Feature","properties":{"osm_way_id":"221661337","name":"Lidl","building":"retail","shop":"supermarket","other":{"addr:city":"Croydon","addr:country":"GB","addr:housenumber":"119-123","addr:postcode":"CR0 2LG","addr:street":"Whitehorse Road","brand":"Lidl","brand:wikidata":"Q151954","brand:wikipedia":"en:Lidl","fhrs:id":"1172973","opening_hours":"Mo-Sa 08:00-22:00, Su 11:00-17:00","payment:cash":"yes","payment:contactless":"yes","payment:credit_cards":"yes"}}, "geometry":{"type":"MultiPolygon","coordinates":[[[[-0.09718,51.38775],[-0.09692,51.38753],[-0.09636,51.3878],[-0.09671,51.38809],[-0.09718,51.38775]]]]}},
{ "type":"Feature","properties":{"osm_way_id":"225726574","name":"Haran Bros","building":"retail","shop":"supermarket","other":{"addr:city":"Croydon","addr:housenumber":"245","addr:postcode":"CR0 2RL","addr:street":"London Road","fhrs:authority":"Croydon","fhrs:id":"6992","source:postcode":"FSA Food Hygiene Ratings database"}}, "geometry":{"type":"MultiPolygon","coordinates":[[[[-0.10836,51.38345],[-0.1083,51.38341],[-0.10814,51.38348],[-0.1082,51.38353],[-0.10837,51.38346],[-0.10836,51.38345]]]]}},
{ "type":"Feature","properties":{"osm_way_id":"225726594","name":"Best Foods Supermarket","building":"retail","shop":"supermarket","other":{"addr:city":"Croydon","addr:housenumber":"259-261","addr:postcode":"CR0 2RL","addr:street":"London Road","fhrs:authority":"Croydon","fhrs:id":"6997","source:postcode":"FSA Food Hygiene Ratings database"}}, "geometry":{"type":"MultiPolygon","coordinates":[[[[-0.10873,51.38372],[-0.10854,51.38381],[-0.10852,51.38381],[-0.10844,51.38374],[-0.10854,51.3837],[-0.10863,51.38366],[-0.10866,51.38368],[-0.10867,51.38367],[-0.10873,51.38372]]]]}},
{ "type":"Feature","properties":{"osm_way_id":"232282145","name":"Tesco Express","building":"retail","shop":"supermarket","other":{"addr:city":"Croydon","addr:housenumber":"369-373","addr:postcode":"CR0 3PB","addr:street":"London Road","brand":"Tesco Express","brand:wikidata":"Q98456772","contact:website":"https:\/\/www.tesco.com\/store-locator\/croydon\/369-373-london-rd","fhrs:id":"28641","name:fa":"تسکو اکسپرس"}}, "geometry":{"type":"MultiPolygon","coordinates":[[[[-0.11051,51.38571],[-0.11055,51.38574],[-0.11053,51.38575],[-0.11061,51.38582],[-0.11046,51.3859],[-0.11042,51.3859],[-0.11033,51.38579],[-0.11051,51.38571]]]]}},
{ "type":"Feature","properties":{"osm_way_id":"232282183","name":"Grace Afro-Caribbean Supermarket","building":"retail","shop":"supermarket","other":{"addr:city":"Croydon","addr:housenumber":"383","addr:postcode":"CR0 3PB","addr:street":"London Road","fhrs:authority":"Croydon","fhrs:id":"963541"}}, "geometry":{"type":"MultiPolygon","coordinates":[[[[-0.11097,51.38601],[-0.11089,51.38594],[-0.11075,51.38599],[-0.11073,51.38598],[-0.11052,51.38607],[-0.11058,51.38617],[-0.11094,51.38602],[-0.11097,51.38601]]]]}},
{ "type":"Feature","properties":{"osm_way_id":"232282185","name":"Family Choice","building":"retail","shop":"supermarket","other":{"addr:city":"Croydon","addr:housenumber":"333","addr:postcode":"CR0 3PA","addr:street":"London Road","fhrs:authority":"Croydon","fhrs:id":"983420","source:postcode":"FSA Food Hygiene Ratings database"}}, "geometry":{"type":"MultiPolygon","coordinates":[[[[-0.10972,51.38511],[-0.10975,51.38515],[-0.10986,51.38509],[-0.10986,51.38509],[-0.11002,51.38501],[-0.10997,51.38498],[-0.10982,51.38505],[-0.10972,51.38511]]]]}},
{ "type":"Feature","properties":{"osm_way_id":"256099094","name":"Phoomi Supermarket","building":"retail","shop":"supermarket","other":{"addr:city":"Croydon","addr:housenumber":"247","addr:postcode":"CR0 2RL","addr:street":"London Road","alt_name":"Yalaaby Supermarket","fhrs:authority":"Croydon","fhrs:id":"1022175","source:postcode":"FSA Food Hygiene Ratings database"}}, "geometry":{"type":"MultiPolygon","coordinates":[[[[-0.10826,51.38358],[-0.1082,51.38353],[-0.10837,51.38346],[-0.10836,51.38345],[-0.10846,51.38341],[-0.10852,51.38346],[-0.10826,51.38358]]]]}},
{ "type":"Feature","properties":{"osm_way_id":"289774141","name":"Co-op Food","building":"yes","shop":"supermarket","other":{"addr:city":"London","addr:housenumber":"2","addr:postcode":"SW16 5PY","addr:street":"Fairview Road","addr:suburb":"Norbury","alt_name":"The Co-operative Food","brand":"Co-op Food","brand:wikidata":"Q3277439","brand:wikipedia":"en:Co-op Food","fhrs:authority":"Croydon","fhrs:id":"459448"}}, "geometry":{"type":"MultiPolygon","coordinates":[[[[-0.12302,51.41057],[-0.12293,51.41038],[-0.12352,51.41026],[-0.1236,51.41042],[-0.12355,51.41043],[-0.12356,51.41046],[-0.12302,51.41057]]]]}},
{ "type":"Feature","properties":{"osm_way_id":"296989385","name":"JUSTin GREEN","building":"yes","shop":"supermarket","other":{"addr:city":"South Croydon","addr:housename":"Formerly The Red Deer","addr:housenumber":"279","addr:postcode":"CR2 6EQ","addr:street":"Brighton Road","fhrs:authority":"Croydon","fhrs:id":"1022151"}}, "geometry":{"type":"MultiPolygon","coordinates":[[[[-0.09787,51.35309],[-0.09773,51.35309],[-0.09769,51.35307],[-0.09769,51.35302],[-0.09768,51.35302],[-0.09768,51.35301],[-0.09767,51.353],[-0.09764,51.35291],[-0.09769,51.3529],[-0.0977,51.35288],[-0.09772,51.35283],[-0.09797,51.35288],[-0.09793,51.35299],[-0.09791,51.35299],[-0.09791,51.35303],[-0.0979,51.35303],[-0.0979,51.35308],[-0.09787,51.35309]]]]}},
{ "type":"Feature","properties":{"osm_way_id":"316861525","name":"Tesco","building":"yes","shop":"supermarket","other":{"addr:city":"Thornton Heath","addr:housenumber":"32","addr:postcode":"CR7 8RX","addr:street":"Brigstock Road","branch":"Thornton Heath Superstore","brand":"Tesco","brand:wikidata":"Q487494","brand:wikipedia":"en:Tesco","contact:website":"https:\/\/www.tesco.com\/store-locator\/thornton-heath\/4-32-brigstock-road","fhrs:authority":"Croydon","fhrs:id":"1590","opening_hours":"Mo-Sa 05:00-24:00; Su 11:00-17:00","wheelchair":"yes"}}, "geometry":{"type":"MultiPolygon","coordinates":[[[[-0.09948,51.3995],[-0.09945,51.39948],[-0.09925,51.39932],[-0.09921,51.39935],[-0.09915,51.3993],[-0.0992,51.39927],[-0.09889,51.39903],[-0.09876,51.39893],[-0.09879,51.39892],[-0.09882,51.3989],[-0.09878,51.39887],[-0.09881,51.39886],[-0.09895,51.39879],[-0.09898,51.39881],[-0.09899,51.3988],[-0.09913,51.39874],[-0.09915,51.39876],[-0.09917,51.39875],[-0.09931,51.39868],[-0.09933,51.3987],[-0.09935,51.39869],[-0.09949,51.39862],[-0.09951,51.39861],[-0.09954,51.39864],[-0.0996,51.39861],[-0.09965,51.39859],[-0.09967,51.3986],[-0.09969,51.3986],[-0.0997,51.39859],[-0.09972,51.3986],[-0.09976,51.39859],[-0.09987,51.39868],[-0.09984,51.39869],[-0.09985,51.3987],[-0.09994,51.39877],[-0.10029,51.39905],[-0.10055,51.39925],[-0.10053,51.39926],[-0.10024,51.39941],[-0.1001,51.39947],[-0.10001,51.39952],[-0.09967,51.39951],[-0.09948,51.3995]]]]}},
{ "type":"Feature","properties":{"osm_way_id":"325114776","name":"Waitrose","building":"retail","shop":"supermarket","other":{"addr:city":"Coulsdon","addr:housenumber":"110-112","addr:postcode":"CR5 2NB","addr:street":"Brighton Road","brand":"Waitrose","brand:wikidata":"Q771734","brand:wikipedia":"en:Waitrose & Partners","building:levels":"2","fhrs:authority":"Croydon","fhrs:id":"1681","fhrs:local_authority_id":"00351\/0112\/0\/200","official_name":"Waitrose & Partners","operator":"Waitrose & Partners"}}, "geometry":{"type":"MultiPolygon","coordinates":[[[[-0.13741,51.32187],[-0.13736,51.32186],[-0.13712,51.32184],[-0.13683,51.32204],[-0.13692,51.32205],[-0.13744,51.32213],[-0.13749,51.32199],[-0.13737,51.32197],[-0.13741,51.32187]]]]}},
{ "type":"Feature","properties":{"osm_way_id":"379841463","name":"Aldi","building":"retail","shop":"supermarket","other":{"addr:city":"Coulsdon","addr:housenumber":"159","addr:postcode":"CR5 2NH","addr:street":"Brighton Road","brand":"ALDI","brand:wikidata":"Q41171672","brand:wikipedia":"en:Aldi","building:levels":"2","fhrs:id":"817888"}}, "geometry":{"type":"MultiPolygon","coordinates":[[[[-0.13802,51.32085],[-0.13768,51.32072],[-0.13735,51.32108],[-0.13762,51.32118],[-0.13784,51.32101],[-0.13802,51.32085]]]]}},
{ "type":"Feature","properties":{"osm_way_id":"438335677","name":"Lidl","building":"retail","shop":"supermarket","other":{"addr:city":"Thornton Heath","addr:housenumber":"845","addr:postcode":"CR7 6AW","addr:street":"London Road","brand":"Lidl","brand:wikidata":"Q151954","fhrs:authority":"Croydon","fhrs:id":"7032","name:fa":"لیدل"}}, "geometry":{"type":"MultiPolygon","coordinates":[[[[-0.1167,51.39704],[-0.11638,51.3971],[-0.11626,51.39685],[-0.11619,51.39686],[-0.11614,51.39675],[-0.11621,51.39674],[-0.11612,51.39655],[-0.11643,51.39649],[-0.11644,51.39651],[-0.1167,51.39704]]]]}},
{ "type":"Feature","properties":{"osm_way_id":"544625583","name":"The Co-operative Food","building":"yes","shop":"supermarket"},"geometry":{"type":"MultiPolygon","coordinates":[[[[-0.08913,51.38925],[-0.08897,51.38901],[-0.08879,51.38906],[-0.08896,51.3893],[-0.08913,51.38925]]]]}},
{ "type":"Feature","properties":{"osm_way_id":"624196263","name":"Amy's Kerala Supermarket","building":"retail","shop":"supermarket","other":{"addr:city":"Croydon","addr:housenumber":"309","addr:postcode":"CR0 3PA","addr:street":"London Road","fhrs:authority":"Croydon","fhrs:id":"1070319","source:postcode":"FSA Food Hygiene Ratings database"}}, "geometry":{"type":"MultiPolygon","coordinates":[[[[-0.10979,51.38481],[-0.10973,51.38483],[-0.10955,51.38492],[-0.10953,51.38489],[-0.10965,51.38483],[-0.10975,51.38477],[-0.10979,51.38481]]]]}},
{ "type":"Feature","properties":{"osm_way_id":"913852182","name":"Spar","building":"yes","shop":"supermarket","other":{"brand":"Spar","brand:wikidata":"Q610492","brand:wikipedia":"en:Spar (retailer)"}}, "geometry":{"type":"MultiPolygon","coordinates":[[[[-0.07745,51.38377],[-0.07729,51.38381],[-0.07734,51.38387],[-0.07735,51.38387],[-0.07742,51.38397],[-0.07749,51.38395],[-0.07742,51.38386],[-0.07749,51.38384],[-0.07747,51.38383],[-0.07749,51.38382],[-0.07745,51.38377]]]]}},
{ "type":"Feature","properties":{"osm_way_id":"913852183","name":"Budgens","building":"yes","shop":"supermarket","other":{"brand":"Budgens","brand:wikidata":"Q4985016","brand:wikipedia":"en:Budgens"}}, "geometry":{"type":"MultiPolygon","coordinates":[[[[-0.07745,51.38377],[-0.07759,51.38373],[-0.07763,51.38379],[-0.07762,51.38379],[-0.07763,51.38381],[-0.07761,51.38382],[-0.07765,51.38388],[-0.07765,51.38391],[-0.07756,51.38393],[-0.07749,51.38382],[-0.07745,51.38377]]]]}}
]
}
