{
"type": "FeatureCollection",
"features": [
{ "type":"Feature","properties":{"osm_id":"21591550","name":"Co-op Food","other":{"addr:city":"Cambridge","addr:housenumber":"175","addr:postcode":"CB4 3HL","addr:street":"Histon Road","brand":"Co-op Food","brand:wikidata":"Q3277439","brand:wikipedia":"en:Co-op Food","opening_hours":"07:00-23:00","operator":"The Co-operative Group","shop":"supermarket","wheelchair":"yes"}}, "geometry":{"type":"Point","coordinates":[0.11148,52.22027 ]}},
{ "type":"Feature","properties":{"osm_id":"21591552","name":"Aldi","other":{"addr:city":"Cambridge","addr:housenumber":"157","addr:postcode":"CB4 3JD","addr:street":"Histon Road","brand":"ALDI","brand:wikidata":"Q41171672","brand:wikipedia":"en:Aldi","fhrs:id":"506877","opening_hours":"Mo-Sa 08:00-22:00; Su 11:00-17:00; PH 08:00-20:00","shop":"supermarket","website":"https:\/\/www.aldi.co.uk\/store\/s-uk-E0221","wheelchair":"yes"}}, "geometry":{"type":"Point","coordinates":[0.11071,52.21945 ]}},
{ "type":"Feature","properties":{"osm_id":"21591553","name":"Iceland","other":{"addr:city":"Cambridge","addr:housenumber":"167","addr:postcode":"CB4 3JD","addr:street":"Histon Road","brand":"Iceland","brand:wikidata":"Q721810","fhrs:id":"506878","opening_hours":"Mo, We-Fr 09:00-20:00; Tu 09:00-19:00; Sa 08:00-19:00; Su 10:00-16:00","shop":"supermarket","wheelchair":"yes"}}, "geometry":{"type":"Point","coordinates":[0.1108,52.21977 ]}},
{ "type":"Feature","properties":{"osm_id":"298844542","name":"Co-op Food","other":{"addr:city":"Cambridge","addr:housenumber":"52","addr:postcode":"CB2 1LA","addr:street":"Hills Road","brand":"Co-op Food","brand:wikidata":"Q3277439","brand:wikipedia":"en:Co-op Food","fhrs:id":"1473309","operator":"The Co-operative Group","shop":"supermarket","website":"https:\/\/www.coop.co.uk\/store-finder\/CB2-1LA\/52-hills-road","wheelchair":"yes"}}, "geometry":{"type":"Point","coordinates":[0.12943,52.1968 ]}},
{ "type":"Feature","properties":{"osm_id":"634995716","name":"Sainsbury's","other":{"addr:city":"Cambridge","addr:housenumber":"42-45","addr:postcode":"CB2 3HX","addr:street":"Sidney Street","brand":"Sainsbury's","brand:wikidata":"Q152096","brand:wikipedia":"en:Sainsbury's","fhrs:id":"1473363","opening_hours":"Mo-Sa 08:00-23:30; Su 11:00-17:00","operator":"Sainsbury's Supermarkets Ltd","payment:cash":"yes","payment:credit_cards":"yes","payment:debit_cards":"yes","phone":"+44 1223 366891","shop":"supermarket","website":"https:\/\/stores.sainsburys.co.uk\/0728\/sidney-street","wheelchair":"yes"}}, "geometry":{"type":"Point","coordinates":[0.1198,52.20708 ]}},
{ "type":"Feature","properties":{"osm_id":"1573848802","name":"The Co-operative Food","other":{"addr:city":"Cambridge","addr:full":"Unity Court, Mill Road","addr:housenumber":"177","addr:postcode":"CB1 3AN","addr:street":"Mill Road","brand":"The Co-operative Food","brand:wikidata":"Q3277439","brand:wikipedia":"en:Co-op Food","fhrs:id":"1473331","opening_hours":"Mo-Sa 06:00-23:00; Su 11:00-17:00","shop":"supermarket","source:addr":"FHRS Open Data","wheelchair":"yes"}}, "geometry":{"type":"Point","coordinates":[0.14538,52.19757 ]}},
{ "type":"Feature","properties":{"osm_id":"1618875725","name":"Budgens","other":{"addr:city":"Cambridge","addr:housenumber":"50a","addr:postcode":"CB4 2JQ","addr:street":"Arbury Court","brand":"Budgens","brand:wikidata":"Q4985016","opening_hours":"Mo-Fr 07:00-22:00; Sa 07:00-21:00; Su 10:00-16:00","shop":"supermarket"}}, "geometry":{"type":"Point","coordinates":[0.12793,52.22498 ]}},
{ "type":"Feature","properties":{"osm_id":"1800593385","name":"One Stop","other":{"addr:city":"Cambridge","addr:housenumber":"43-47","addr:postcode":"CB5 8SR","addr:street":"Ditton Lane","opening_hours":"Mo-Su 06:00-22:00","opening_hours:covid19":"same","payment:cash":"yes","payment:credit_cards":"yes","payment:debit_cards":"yes","payment:mastercard":"yes","payment:visa":"yes","shop":"supermarket","website":"https:\/\/www.onestop.co.uk\/store\/?store=505af1eb-dbda-4663-9c82-811679f53dc3"}}, "geometry":{"type":"Point","coordinates":[0.16903,52.21546 ]}},
{ "type":"Feature","properties":{"osm_id":"2014597226","name":"Co-op Food","other":{"addr:housenumber":"2","addr:postcode":"CB2 1PG","addr:street":"Brookgate","brand":"Co-op Food","brand:wikidata":"Q3277439","brand:wikipedia":"en:Co-op Food","operator":"The Co-operative Group","shop":"supermarket","wheelchair":"yes"}}, "geometry":{"type":"Point","coordinates":[0.13408,52.19234 ]}},
{ "type":"Feature","properties":{"osm_id":"3356621510","name":"The Co-operative Food","other":{"addr:city":"Cambridge","addr:housename":"Ailsa Court","addr:housenumber":"179-185","addr:postcode":"CB4 1AB","addr:street":"Chesterton Road","fhrs:id":"506932","not:addr:postcode":"CB4 1AF","opening_hours":"07:00-23:00","operator":"The Co-operative Group","phone":"+44 1223 367577","shop":"supermarket"}}, "geometry":{"type":"Point","coordinates":[0.12744,52.21496 ]}},
{ "type":"Feature","properties":{"osm_id":"4124526690","name":"Co-op","other":{"addr:city":"Cambridge","addr:postcode":"CB2 8RA","addr:street":"Hills Road","opening_hours":"Mo-Su 07:00-22:00","shop":"supermarket"}}, "geometry":{"type":"Point","coordinates":[0.13639,52.18883 ]}},
{ "type":"Feature","properties":{"osm_id":"4940915379","name":"The Co-operative Food","other":{"addr:city":"Cambridge","addr:housenumber":"3","addr:postcode":"CB4 1UY","addr:street":"Milton Road","fhrs:id":"1096595","opening_hours":"Mo-Su 06:00-23:00","operator":"The Co-operative Group","phone":"+44 1223 229064","shop":"supermarket"}}, "geometry":{"type":"Point","coordinates":[0.12492,52.21471 ]}},
{ "type":"Feature","properties":{"osm_id":"4969325439","name":"Jiamart","other":{"addr:city":"Cambridge","addr:housenumber":"31","addr:postcode":"CB1 1DG","addr:street":"Burleigh Street","fhrs:id":"1472578","shop":"supermarket"}}, "geometry":{"type":"Point","coordinates":[0.13339,52.20576 ]}},
{ "type":"Feature","properties":{"osm_id":"7163063533","name":"M&S Simply Food","other":{"brand":"M&S Simply Food","brand:wikidata":"Q714491","brand:wikipedia":"en:Marks & Spencer","fhrs:id":"682667","shop":"supermarket","website":"https:\/\/www.marksandspencer.com\/stores\/addenbrookes-hospital-1175"}}, "geometry":{"type":"Point","coordinates":[0.13979,52.17484 ]}},
{ "type":"Feature","properties":{"osm_id":"7435723768","name":"Lidl","other":{"addr:city":"Cambridge","addr:country":"GB","addr:housename":"Cambridge Retail Park","addr:postcode":"CB5 8WR","addr:street":"Newmarket Road","addr:unit":"10A","brand":"Lidl","brand:wikidata":"Q151954","brand:wikipedia":"en:Lidl","fhrs:id":"1223842","shop":"supermarket"}}, "geometry":{"type":"Point","coordinates":[0.14633,52.20874 ]}},
{ "type":"Feature","properties":{"osm_way_id":"3875404","name":"Tesco","building":"retail","shop":"supermarket","other":{"addr:city":"Cambridge","addr:country":"GB","addr:postcode":"CB5 8LD","addr:street":"Cheddars Lane, Newmarket Road","brand":"Tesco","brand:wikidata":"Q487494","brand:wikipedia":"en:Tesco","contact:website":"https:\/\/www.tesco.com\/store-locator\/cambridge\/cheddars-ln","fhrs:id":"506598","opening_hours":"Mo-Sa 07:30-22:00; Su 11:00-17:00","operator":"Tesco Stores Ltd","payment:cash":"yes","payment:contactless":"yes","payment:credit_cards":"yes","phone":"+44 345 677 9127","wheelchair":"yes"}}, "geometry":{"type":"MultiPolygon","coordinates":[[[[0.14341,52.21086],[0.14326,52.21092],[0.14302,52.21102],[0.14288,52.21091],[0.14267,52.21101],[0.1428,52.21112],[0.14257,52.21122],[0.14355,52.21204],[0.14362,52.21201],[0.14367,52.21206],[0.14373,52.21203],[0.14369,52.21193],[0.14367,52.21191],[0.14417,52.21169],[0.14418,52.2117],[0.14434,52.21163],[0.14341,52.21086]]]]}},
{ "type":"Feature","properties":{"osm_way_id":"3875475","name":"ALDI","building":"yes","shop":"supermarket","other":{"addr:city":"Cambridge","addr:country":"GB","addr:housenumber":"393","addr:postcode":"CB5 8JL","addr:street":"Newmarket Road","brand":"ALDI","brand:wikidata":"Q41171672","brand:wikipedia":"en:Aldi","website":"https:\/\/www.aldi.co.uk\/store\/s-uk-E1304"}}, "geometry":{"type":"MultiPolygon","coordinates":[[[[0.14759,52.21176],[0.14719,52.21148],[0.14647,52.21186],[0.14687,52.21214],[0.14759,52.21176]]]]}},
{ "type":"Feature","properties":{"osm_way_id":"28410568","name":"Co-op Food","building":"retail","shop":"supermarket","other":{"addr:city":"Cambridge","addr:country":"GB","addr:housenumber":"129","addr:postcode":"CB4 1XE","addr:street":"Milton Road","brand":"Co-op Food","brand:wikidata":"Q3277439","brand:wikipedia":"en:Co-op Food","opening_hours":"Mo-Su 07:00-23:00","operator":"The Co-operative Group","operator:wikidata":"Q117202","operator:wikipedia":"en:The Co-operative Group"}}, "geometry":{"type":"MultiPolygon","coordinates":[[[[0.13348,52.22034],[0.13359,52.22041],[0.13349,52.22049],[0.13342,52.22055],[0.13332,52.22062],[0.13327,52.22059],[0.13331,52.22056],[0.13324,52.22052],[0.13348,52.22034]]]]}},
{ "type":"Feature","properties":{"osm_way_id":"42867738","name":"M&S Foodhall","building":"retail","shop":"supermarket","other":{"addr:city":"Cambridge","addr:country":"GB","addr:housenumber":"Unit 8","addr:parentstreet":"Coldhams Lane","addr:place":"Beehive Centre","addr:postcode":"CB1 3ET","brand":"M&S Foodhall","brand:wikidata":"Q714491","fhrs:id":"506767"}}, "geometry":{"type":"MultiPolygon","coordinates":[[[[0.14507,52.20506],[0.14514,52.20516],[0.14463,52.2053],[0.14461,52.20531],[0.14475,52.2055],[0.14544,52.20531],[0.14522,52.20502],[0.14507,52.20506]]]]}},
{ "type":"Feature","properties":{"osm_way_id":"126358284","name":"Asda","building":"retail","shop":"supermarket","other":{"addr:city":"Cambridge","addr:country":"GB","addr:housenumber":"9","addr:parentstreet":"Coldhams Lane","addr:place":"Beehive Centre","addr:postcode":"CB1 3ER","brand":"Asda","brand:wikidata":"Q297410","brand:wikipedia":"en:Asda","contact:facebook":"https:\/\/www.facebook.com\/asda\/","contact:phone":"+44 1223 531600","contact:twitter":"@asda","contact:website":"https:\/\/storelocator.asda.com\/east-of-england\/cambridge\/beehive-centre-coldhams-lane","fhrs:id":"506648","opening_hours":"Mo-Fr 06:00-24:00; Sa 06:00-22:00; Su 10:00-16:00","opening_hours:covid19":"Mo-Sa 08:00-22:00; Su 10:00-16:00","operator":"Asda Stores Ltd","source:addr":"FHRS Open Data","wheelchair":"yes"}}, "geometry":{"type":"MultiPolygon","coordinates":[[[[0.14487,52.20587],[0.14484,52.20587],[0.14514,52.20628],[0.14516,52.20627],[0.14526,52.20641],[0.14538,52.20638],[0.14547,52.20651],[0.14615,52.20632],[0.14586,52.20592],[0.14592,52.2059],[0.14554,52.20536],[0.14548,52.20538],[0.14544,52.20531],[0.14475,52.2055],[0.14489,52.2057],[0.14477,52.20573],[0.14487,52.20587]]]]}},
{ "type":"Feature","properties":{"osm_way_id":"132570256","name":"Sainsbury's Coldhams Lane","building":"retail","shop":"supermarket","other":{"addr:city":"Cambridge","addr:postcode":"CB1 3HP","addr:street":"Brooks Road","brand":"Sainsbury's","brand:wikidata":"Q152096","brand:wikipedia":"en:Sainsbury's","opening_hours":"Mo-Fr 07:00-23:00; Sa 07:00-22:00; Su 10:00-16:00","operator":"Sainsbury's Supermarkets Ltd","phone":"+44 1223 246183","website":"https:\/\/stores.sainsburys.co.uk\/0815\/coldhams-lane","wheelchair":"yes"}}, "geometry":{"type":"MultiPolygon","coordinates":[[[[0.15823,52.19919],[0.15784,52.19876],[0.15776,52.19861],[0.15754,52.19865],[0.15758,52.19872],[0.15744,52.19875],[0.15741,52.19871],[0.15738,52.19872],[0.1573,52.19864],[0.15672,52.19873],[0.15687,52.19905],[0.15706,52.19926],[0.15699,52.19928],[0.15724,52.19955],[0.15727,52.19959],[0.15734,52.1996],[0.15752,52.19954],[0.15758,52.1996],[0.15795,52.19947],[0.15789,52.19941],[0.15815,52.19932],[0.15818,52.19935],[0.15833,52.1993],[0.15823,52.19919]]]]}},
{ "type":"Feature","properties":{"osm_way_id":"134951136","name":"Co-operative","building":"commercial","shop":"supermarket","other":{"addr:city":"Cambridge","addr:housenumber":"44a","addr:postcode":"CB1 2AS","addr:street":"Mill Road","fhrs:id":"1473900","internet_access":"wlan","internet_access:fee":"no","wikidata":"Q39197360"}}, "geometry":{"type":"MultiPolygon","coordinates":[[[[0.13474,52.20092],[0.13495,52.20085],[0.13479,52.20065],[0.13477,52.20064],[0.13458,52.20069],[0.13459,52.20072],[0.13474,52.20092]]]]}},
{ "type":"Feature","properties":{"osm_way_id":"135032821","name":"Ocean Supermarket","building":"commercial","shop":"supermarket","other":{"addr:city":"Cambridge","addr:housenumber":"58","addr:postcode":"CB1 2AS","addr:street":"Mill Road","cuisine":"chinese","fhrs:id":"1472900"}}, "geometry":{"type":"MultiPolygon","coordinates":[[[[0.13578,52.20059],[0.13571,52.20052],[0.13567,52.20048],[0.13565,52.20049],[0.1356,52.20043],[0.13549,52.20047],[0.13559,52.20057],[0.13566,52.20063],[0.13566,52.20064],[0.13578,52.20059]]]]}},
{ "type":"Feature","properties":{"osm_way_id":"135037216","name":"Mill Road International Supermarket","building":"commercial","shop":"supermarket","other":{"addr:city":"Cambridge","addr:housenumber":"28","addr:postcode":"CB1 2AD","addr:street":"Mill Road","fhrs:id":"507145","opening_hours":"Mo-Fr 08:00-12:00; Sa,Su 09:00-12:00"}}, "geometry":{"type":"MultiPolygon","coordinates":[[[[0.13407,52.20121],[0.13398,52.20113],[0.13387,52.20118],[0.13395,52.20125],[0.13407,52.20121]]]]}},
{ "type":"Feature","properties":{"osm_way_id":"143735534","name":"Co-op Food","building":"retail","shop":"supermarket","other":{"addr:city":"Cambridge","addr:full":"Adkins Corner, Perne Road","addr:housenumber":"6","addr:postcode":"CB1 3RU","addr:street":"Adkins Corner","brand":"Co-op Food","brand:wikidata":"Q3277439","brand:wikipedia":"en:Co-op Food","old_name":"Budgens","old_shop":"supermarket","opening_hours":"Mo-Sa 07:00-22:00; Su 10:00-16:00"}}, "geometry":{"type":"MultiPolygon","coordinates":[[[[0.15294,52.18715],[0.1534,52.18707],[0.15341,52.18708],[0.15343,52.18715],[0.15309,52.1872],[0.15294,52.18715]]]]}},
{ "type":"Feature","properties":{"osm_way_id":"166482606","name":"Morrisons","building":"yes","shop":"supermarket","other":{"brand":"Morrisons","brand:wikidata":"Q922344","brand:wikipedia":"en:Morrisons"}}, "geometry":{"type":"MultiPolygon","coordinates":[[[[-5.02163,54.90442],[-5.02158,54.90415],[-5.02174,54.90414],[-5.02169,54.9039],[-5.02159,54.90391],[-5.02159,54.90387],[-5.02109,54.9039],[-5.02109,54.90394],[-5.02069,54.90396],[-5.02076,54.90432],[-5.02078,54.90447],[-5.02102,54.90445],[-5.02105,54.90457],[-5.02121,54.90456],[-5.02121,54.90459],[-5.02133,54.90458],[-5.02132,54.90456],[-5.02144,54.90455],[-5.02143,54.9045],[-5.02147,54.9045],[-5.02146,54.90443],[-5.02163,54.90442]]]]}},
{ "type":"Feature","properties":{"osm_way_id":"184443408","name":"Waitrose","building":"yes","shop":"supermarket","other":{"addr:housenumber":"50","addr:postcode":"CB2 9FT","addr:street":"Hauxton Road","alt_name":"Waitrose Cambridge","brand":"Waitrose & Partners","brand:wikidata":"Q771734","brand:wikipedia":"en:Waitrose & Partners","operator":"Waitrose & Partners"}}, "geometry":{"type":"MultiPolygon","coordinates":[[[[0.11068,52.172],[0.1114,52.17184],[0.11169,52.17178],[0.11168,52.17176],[0.11153,52.17151],[0.11144,52.17146],[0.11141,52.17147],[0.11132,52.17131],[0.11102,52.17138],[0.1109,52.17117],[0.11086,52.17118],[0.11084,52.17113],[0.1103,52.17125],[0.11033,52.1713],[0.11029,52.1713],[0.11068,52.172]]]]}},
{ "type":"Feature","properties":{"osm_way_id":"229680560","name":"Marks & Spencer","building":"retail","shop":"supermarket","other":{"addr:city":"Cambridge","addr:country":"GB","addr:housenumber":"5","addr:postcode":"CB2 3NJ","addr:street":"Market Hill","brand":"Marks & Spencer","brand:wikidata":"Q714491","fhrs:id":"1473325","level":"0","website":"https:\/\/www.marksandspencer.com\/stores\/cambridge-st-3450","wheelchair":"yes","wikidata":"Q17527473"}}, "geometry":{"type":"MultiPolygon","coordinates":[[[[0.11974,52.2054],[0.12025,52.20548],[0.12016,52.2057],[0.12015,52.20571],[0.12014,52.20572],[0.11997,52.20569],[0.11995,52.20575],[0.11984,52.20572],[0.11981,52.20579],[0.11971,52.20576],[0.11974,52.20571],[0.1194,52.20565],[0.11949,52.20536],[0.11974,52.2054]]]]}},
{ "type":"Feature","properties":{"osm_way_id":"501347165","name":"Sainsbury's","building":"retail","shop":"supermarket","other":{"addr:city":"Cambridge","addr:postcode":"CB3 1SE","brand":"Sainsbury's","brand:wikidata":"Q152096","brand:wikipedia":"en:Sainsbury's","internet_access":"wlan","opening_hours":"Mo-Sa 07:30-22:00; Su 10:00-16:00","operator":"J Sainsbury plc","ref:university_of_cambridge":"NW001.1"}}, "geometry":{"type":"MultiPolygon","coordinates":[[[[0.08709,52.21796],[0.08707,52.21796],[0.0871,52.21754],[0.08765,52.21756],[0.08765,52.21749],[0.08776,52.21749],[0.08778,52.21729],[0.08789,52.2173],[0.08789,52.21733],[0.08787,52.21761],[0.08783,52.21817],[0.08776,52.21817],[0.08733,52.21815],[0.08726,52.21815],[0.08727,52.21813],[0.0872,52.21813],[0.0872,52.21808],[0.08708,52.21807],[0.08709,52.21796]]]]}},
{ "type":"Feature","properties":{"osm_way_id":"582343965","name":"Budgens","building":"retail","shop":"supermarket","other":{"addr:city":"Cambridge","addr:postcode":"CB1 8DH","brand":"Budgens","brand:wikidata":"Q4985016","opening_hours":"24\/7"}}, "geometry":{"type":"MultiPolygon","coordinates":[[[[0.15994,52.18555],[0.16012,52.18552],[0.16004,52.18532],[0.15986,52.18534],[0.15994,52.18555]]]]}}
]
}
