{
"type": "FeatureCollection",
"features": [
{ "type":"Feature","properties":{"osm_id":"286964371","name":"Sainsbury's","other":{"brand":"Sainsbury's","brand:wikidata":"Q152096","brand:wikipedia":"en:Sainsbury's","shop":"supermarket"}}, "geometry":{"type":"Point","coordinates":[-2.11184,53.53968 ]}},
{ "type":"Feature","properties":{"osm_id":"287027024","name":"Cooperative","other":{"shop":"supermarket"}}, "geometry":{"type":"Point","coordinates":[-2.15051,53.51485 ]}},
{ "type":"Feature","properties":{"osm_id":"1965795124","name":"Asda","other":{"addr:city":"Shaw","addr:country":"GB","addr:postcode":"OL2 8QP","addr:street":"Greenfield Lane","brand":"Asda","brand:wikidata":"Q297410","brand:wikipedia":"en:Asda","contact:website":"https:\/\/storelocator.asda.com\/north-west\/shaw-oldham\/greenfield-lane","fhrs:id":"117796","operator":"Asda Stores Ltd","shop":"supermarket","toilets:wheelchair":"no","wheelchair":"yes"}}, "geometry":{"type":"Point","coordinates":[-2.09163,53.57602 ]}},
{ "type":"Feature","properties":{"osm_id":"1965796430","name":"ALDI","other":{"brand":"ALDI","brand:wikidata":"Q41171672","brand:wikipedia":"en:Aldi","shop":"supermarket","wheelchair":"yes"}}, "geometry":{"type":"Point","coordinates":[-2.09362,53.57525 ]}},
{ "type":"Feature","properties":{"osm_way_id":"64047746","name":"Tesco","building":"yes","shop":"supermarket","other":{"brand":"Tesco","brand:wikidata":"Q487494","brand:wikipedia":"en:Tesco"}}, "geometry":{"type":"MultiPolygon","coordinates":[[[[-2.12683,53.54589],[-2.12673,53.54563],[-2.12655,53.54516],[-2.12563,53.54529],[-2.12553,53.54505],[-2.12513,53.5451],[-2.12551,53.54607],[-2.12683,53.54589]]]]}},
{ "type":"Feature","properties":{"osm_way_id":"103422530","name":"Tesco","building":"retail","shop":"supermarket","other":{"addr:postcode":"OL3 7AF","addr:street":"Chew Valley Road","alt_name":"Tesco Greenfield Superstore","brand":"Tesco","brand:wikidata":"Q487494","brand:wikipedia":"en:Tesco","building:levels":"1","fhrs:id":"122850","nohousenumber":"yes","opening_hours":"Su 10:00-16:00","roof:levels":"0","roof:shape":"flat"}}, "geometry":{"type":"MultiPolygon","coordinates":[[[[-2.01121,53.53885],[-2.01062,53.53857],[-2.01011,53.53895],[-2.01059,53.53918],[-2.01054,53.53923],[-2.01049,53.5392],[-2.01044,53.53924],[-2.01049,53.53926],[-2.01044,53.5393],[-2.01053,53.53934],[-2.01121,53.53885]]]]}},
{ "type":"Feature","properties":{"osm_way_id":"166300578","name":"Morrisons","shop":"supermarket","other":{"brand":"Morrisons","brand:wikidata":"Q922344","brand:wikipedia":"en:Morrisons"}}, "geometry":{"type":"MultiPolygon","coordinates":[[[[-2.15521,53.52241],[-2.15511,53.5221],[-2.1548,53.52133],[-2.15442,53.52029],[-2.15327,53.52035],[-2.15328,53.52043],[-2.15328,53.52046],[-2.15329,53.52053],[-2.15272,53.52123],[-2.15268,53.52127],[-2.15262,53.52134],[-2.15254,53.52144],[-2.15216,53.52191],[-2.15218,53.52211],[-2.15328,53.52233],[-2.15364,53.52236],[-2.154,53.52244],[-2.15487,53.52246],[-2.15521,53.52241]]]]}},
{ "type":"Feature","properties":{"osm_way_id":"167561064","name":"Asda","building":"yes","shop":"supermarket","other":{"addr:city":"Oldham","addr:country":"GB","addr:housenumber":"1","addr:postcode":"OL9 0JE","addr:street":"Milne Street","brand":"Asda","brand:wikidata":"Q297410","brand:wikipedia":"en:Asda","contact:website":"https:\/\/storelocator.asda.com\/north-west\/oldham\/milne-street-chadderton","fhrs:id":"146139","operator":"Asda Stores Ltd"}}, "geometry":{"type":"MultiPolygon","coordinates":[[[[-2.14053,53.54688],[-2.13873,53.54649],[-2.13894,53.54615],[-2.13914,53.54619],[-2.1393,53.54594],[-2.13949,53.54598],[-2.1395,53.54596],[-2.13989,53.54604],[-2.13992,53.54599],[-2.14012,53.54604],[-2.14009,53.54608],[-2.14019,53.5461],[-2.14021,53.54606],[-2.14038,53.5461],[-2.14034,53.54617],[-2.14041,53.54619],[-2.14035,53.54629],[-2.14083,53.5464],[-2.14053,53.54688]]]]}},
{ "type":"Feature","properties":{"osm_way_id":"175927728","name":"Lidl","building":"supermarket","shop":"supermarket","other":{"addr:country":"GB","addr:postcode":"OL9 9QL","addr:street":"Jardine Way","addr:unit":"2","brand":"Lidl","brand:wikidata":"Q151954","brand:wikipedia":"en:Lidl","fhrs:id":"62737","wheelchair":"yes"}}, "geometry":{"type":"MultiPolygon","coordinates":[[[[-2.15573,53.53261],[-2.15557,53.53267],[-2.15552,53.53262],[-2.15532,53.5327],[-2.15501,53.53244],[-2.15495,53.53246],[-2.15479,53.53232],[-2.15521,53.53215],[-2.15573,53.53261]]]]}},
{ "type":"Feature","properties":{"osm_way_id":"246532005","name":"Aldi","building":"yes","shop":"supermarket","other":{"addr:city":"Chadderton","addr:housename":"Aldi","addr:postcode":"OL9 6QR","addr:street":"Ellen Street","brand":"ALDI","brand:wikidata":"Q41171672","brand:wikipedia":"en:Aldi"}}, "geometry":{"type":"MultiPolygon","coordinates":[[[[-2.12762,53.54831],[-2.12823,53.54797],[-2.12792,53.54777],[-2.12731,53.54811],[-2.12762,53.54831]]]]}},
{ "type":"Feature","properties":{"osm_way_id":"303377113","name":"Tesco Extra","building":"retail","shop":"supermarket","other":{"brand":"Tesco Extra","brand:wikidata":"Q25172225","brand:wikipedia":"en:Tesco Extra","contact:website":"https:\/\/www.tesco.com\/store-locator\/manchester\/ashton-road"}}, "geometry":{"type":"MultiPolygon","coordinates":[[[[-2.15775,53.50842],[-2.15862,53.50903],[-2.15967,53.50851],[-2.15916,53.50815],[-2.15897,53.50824],[-2.1588,53.50813],[-2.1587,53.50818],[-2.1585,53.50803],[-2.1582,53.50818],[-2.15816,53.50816],[-2.15798,53.50825],[-2.15803,53.50828],[-2.15775,53.50842]]]]}},
{ "type":"Feature","properties":{"osm_way_id":"381802171","name":"Aldi","building":"yes","shop":"supermarket","other":{"brand":"ALDI","brand:wikidata":"Q41171672","brand:wikipedia":"en:Aldi"}}, "geometry":{"type":"MultiPolygon","coordinates":[[[[-2.15924,53.51005],[-2.15885,53.5102],[-2.15854,53.5099],[-2.15892,53.50976],[-2.15924,53.51005]]]]}},
{ "type":"Feature","properties":{"osm_way_id":"381802172","name":"Morrisons","building":"yes","shop":"supermarket","other":{"brand":"Morrisons","brand:wikidata":"Q922344","brand:wikipedia":"en:Morrisons","website":"https:\/\/my.morrisons.com\/storefinder\/22"}}, "geometry":{"type":"MultiPolygon","coordinates":[[[[-2.17004,53.50379],[-2.17048,53.50435],[-2.16896,53.5047],[-2.16863,53.50425],[-2.16938,53.50406],[-2.16927,53.5039],[-2.16937,53.50387],[-2.16942,53.50379],[-2.16977,53.50368],[-2.16987,53.50382],[-2.17004,53.50379]]]]}},
{ "type":"Feature","properties":{"osm_way_id":"401010048","name":"Tesco Extra","building":"retail","shop":"supermarket","other":{"addr:postcode":"OL4 2AJ","addr:street":"Huddersfield Road","brand":"Tesco Extra","brand:wikidata":"Q25172225","brand:wikipedia":"en:Tesco Extra","fhrs:id":"120607","source:addr":"FHRS Open Data","website":"https:\/\/www.tesco.com\/store-locator\/oldham\/huddersfield-road"}}, "geometry":{"type":"MultiPolygon","coordinates":[[[[-2.09098,53.54643],[-2.09204,53.54603],[-2.09141,53.54524],[-2.09136,53.54525],[-2.09107,53.54498],[-2.09084,53.54505],[-2.09103,53.54524],[-2.09046,53.54545],[-2.09026,53.54527],[-2.08996,53.54538],[-2.09051,53.54589],[-2.09044,53.54592],[-2.09063,53.54609],[-2.09057,53.54611],[-2.09062,53.54617],[-2.09066,53.54615],[-2.09093,53.54642],[-2.09096,53.54641],[-2.09098,53.54643]]]]}},
{ "type":"Feature","properties":{"osm_way_id":"522976819","name":"Co-op","building":"retail","shop":"supermarket","other":{"addr:postcode":"OL4 3BP","addr:street":"Owl Mill","fhrs:id":"51064"}}, "geometry":{"type":"MultiPolygon","coordinates":[[[[-2.07449,53.53879],[-2.07457,53.53879],[-2.07457,53.53907],[-2.07449,53.53907],[-2.07449,53.53912],[-2.07442,53.53912],[-2.07442,53.53919],[-2.07389,53.53919],[-2.0739,53.53879],[-2.07437,53.53879],[-2.07437,53.53876],[-2.07449,53.53876],[-2.07449,53.53879]]]]}},
{ "type":"Feature","properties":{"osm_way_id":"533641554","name":"Moorside Co-op","building":"yes","shop":"supermarket"},"geometry":{"type":"MultiPolygon","coordinates":[[[[-2.07563,53.56203],[-2.0755,53.56196],[-2.07556,53.56192],[-2.07549,53.56189],[-2.07561,53.56178],[-2.07563,53.56179],[-2.07565,53.56177],[-2.07569,53.56179],[-2.07567,53.5618],[-2.07583,53.56188],[-2.07563,53.56203]]]]}},
{ "type":"Feature","properties":{"osm_way_id":"584019071","name":"Asda","building":"yes","shop":"supermarket","other":{"addr:city":"Oldham","addr:country":"GB","addr:housenumber":"242","addr:postcode":"OL4 2RB","addr:street":"Huddersfield Road","brand":"Asda","brand:wikidata":"Q297410","brand:wikipedia":"en:Asda","contact:website":"https:\/\/storelocator.asda.com\/north-west\/oldham\/huddersfield-road","fhrs:id":"118545","operator":"Asda Stores Ltd"}}, "geometry":{"type":"MultiPolygon","coordinates":[[[[-2.08381,53.54829],[-2.08373,53.54817],[-2.08363,53.54819],[-2.08358,53.54811],[-2.08431,53.54796],[-2.08444,53.5482],[-2.08417,53.54825],[-2.08415,53.54821],[-2.08381,53.54829]]]]}},
{ "type":"Feature","properties":{"osm_way_id":"654817482","name":"Asda","building":"retail","shop":"supermarket","other":{"addr:city":"Oldham","addr:country":"GB","addr:postcode":"OL8 4JZ","addr:street":"Hollins Road","brand":"Asda","brand:wikidata":"Q297410","brand:wikipedia":"en:Asda","contact:website":"https:\/\/storelocator.asda.com\/north-west\/oldham\/hollins-road","fhrs:id":"117624","old_name":"Netto","operator":"Asda Stores Ltd"}}, "geometry":{"type":"MultiPolygon","coordinates":[[[[-2.13501,53.52013],[-2.13475,53.52017],[-2.13474,53.52014],[-2.13448,53.52018],[-2.13442,53.52002],[-2.13432,53.51977],[-2.13474,53.51972],[-2.13485,53.52001],[-2.13496,53.52],[-2.13501,53.52013]]]]}},
{ "type":"Feature","properties":{"osm_way_id":"703931092","name":"Worldwide Superstore","building":"yes","shop":"supermarket","other":{"addr:housenumber":"43","addr:postcode":"OL4 1AR","addr:street":"Glodwick Road","phone":"0161 620 7215"}}, "geometry":{"type":"MultiPolygon","coordinates":[[[[-2.09588,53.53625],[-2.09566,53.53622],[-2.0957,53.53613],[-2.09541,53.53608],[-2.09549,53.5359],[-2.09597,53.53598],[-2.09592,53.5361],[-2.09594,53.53611],[-2.09588,53.53625]]]]}},
{ "type":"Feature","properties":{"osm_way_id":"1040827411","name":"Heron Foods","building":"yes","shop":"supermarket","other":{"brand":"Heron Foods","brand:wikidata":"Q5743472","brand:wikipedia":"en:Heron Foods"}}, "geometry":{"type":"MultiPolygon","coordinates":[[[[-2.11312,53.5419],[-2.1129,53.54191],[-2.11288,53.54174],[-2.1131,53.54171],[-2.11312,53.5419]]]]}}
]
}
