{
"type": "FeatureCollection",
"features": [
{ "type":"Feature","properties":{"osm_id":"290766782","name":"Spar","other":{"brand":"Spar","brand:wikidata":"Q610492","brand:wikipedia":"en:Spar (retailer)","shop":"supermarket"}}, "geometry":{"type":"Point","coordinates":[-3.76917,51.67858 ]}},
{ "type":"Feature","properties":{"osm_id":"387735781","name":"Aldi","other":{"brand":"ALDI","brand:wikidata":"Q41171672","brand:wikipedia":"en:Aldi","operator":"Aldi","shop":"supermarket"}}, "geometry":{"type":"Point","coordinates":[-3.77121,51.58489 ]}},
{ "type":"Feature","properties":{"osm_id":"388180757","name":"Filco","other":{"operator":"Filco","shop":"supermarket"}}, "geometry":{"type":"Point","coordinates":[-3.77189,51.58581 ]}},
{ "type":"Feature","properties":{"osm_id":"752174111","name":"kumar stores","other":{"shop":"supermarket"}}, "geometry":{"type":"Point","coordinates":[-3.81984,51.60231 ]}},
{ "type":"Feature","properties":{"osm_id":"7058665310","name":"Lidl","other":{"addr:city":"Pontardawe","addr:country":"GB","addr:postcode":"SA8 4AG","addr:street":"Ffordd Parc Ynysderw","addr:unit":"3","brand":"Lidl","brand:wikidata":"Q151954","brand:wikipedia":"en:Lidl","fhrs:id":"948108","opening_hours":"Mo-Sa 08:00-22:00; Su 10:00-16:00","phone":"+44 8009 777 766","shop":"supermarket"}}, "geometry":{"type":"Point","coordinates":[-3.85134,51.71765 ]}},
{ "type":"Feature","properties":{"osm_id":"7058665322","name":"Tesco","other":{"addr:city":"Swansea","addr:housename":"Gwyn's Drift","addr:postcode":"SA8 4EG","brand":"Tesco","brand:wikidata":"Q487494","brand:wikipedia":"en:Tesco","contact:website":"https:\/\/www.tesco.com\/store-locator\/swansea\/gwyns-drift","opening_hours":"Mo-Sa 06:00-00:00 Su 10:00-16:00","phone":"+44 3456 779 831","shop":"supermarket"}}, "geometry":{"type":"Point","coordinates":[-3.85212,51.71453 ]}},
{ "type":"Feature","properties":{"osm_id":"7389396901","name":"Fresh and Fine Foods","other":{"addr:city":"Glynneath","addr:housename":"Oddfellows","addr:housenumber":"82","addr:postcode":"SA11 5DA","addr:street":"High Street","opening_hours":"Mo-Fr 06:00-18:00; Sa 06:00-16:00","shop":"supermarket"}}, "geometry":{"type":"Point","coordinates":[-3.61982,51.74638 ]}},
{ "type":"Feature","properties":{"osm_id":"7389412912","name":"Family Shopper","other":{"addr:city":"Glynneath","addr:street":"High Street","payment:cash":"yes","payment:credit_cards":"yes","payment:debit_cards":"yes","shop":"supermarket"}}, "geometry":{"type":"Point","coordinates":[-3.62379,51.74604 ]}},
{ "type":"Feature","properties":{"osm_way_id":"26337175","name":"Lidl","building":"yes","shop":"supermarket","other":{"addr:country":"GB","addr:place":"Vale Of Neath Retail Park","addr:postcode":"SA10 7AY","brand":"Lidl","brand:wikidata":"Q151954","brand:wikipedia":"en:Lidl","fhrs:id":"973181"}}, "geometry":{"type":"MultiPolygon","coordinates":[[[[-3.80618,51.66866],[-3.80591,51.66849],[-3.80522,51.66891],[-3.80549,51.66908],[-3.80618,51.66866]]]]}},
{ "type":"Feature","properties":{"osm_way_id":"28658870","name":"Morrisons","building":"yes","shop":"supermarket","other":{"brand":"Morrisons","brand:wikidata":"Q922344","brand:wikipedia":"en:Morrisons"}}, "geometry":{"type":"MultiPolygon","coordinates":[[[[-3.8068,51.66491],[-3.80638,51.66501],[-3.80654,51.66527],[-3.80629,51.66533],[-3.80634,51.66543],[-3.80616,51.66547],[-3.80611,51.66537],[-3.80597,51.6654],[-3.80568,51.66491],[-3.80565,51.66492],[-3.80551,51.66467],[-3.80653,51.66444],[-3.8068,51.66491]]]]}},
{ "type":"Feature","properties":{"osm_way_id":"34834326","name":"Tesco Port Talbot","building":"yes","shop":"supermarket","other":{"addr:city":"Port Talbot","addr:postcode":"SA13 1YA","addr:street":"Prior Street","brand":"Tesco","brand:wikidata":"Q487494","brand:wikipedia":"en:Tesco","contact:website":"https:\/\/www.tesco.com\/store-locator\/port-talbot\/prior-st","opening_hours":"Mo-Sa 06:00-00:00; Su 10:00-16:00","opening_hours:covid19":"Mo-Sa 06:00-00:00; Su 10:00-16:00","operator":"Tesco","phone":"+44 3456 779 562"}}, "geometry":{"type":"MultiPolygon","coordinates":[[[[-3.78366,51.59658],[-3.78277,51.59694],[-3.78262,51.5968],[-3.78272,51.59676],[-3.78249,51.59655],[-3.78245,51.59656],[-3.7823,51.59643],[-3.78261,51.5963],[-3.78252,51.59622],[-3.78253,51.5962],[-3.78248,51.59615],[-3.7828,51.59603],[-3.78283,51.59605],[-3.7829,51.59603],[-3.78288,51.59601],[-3.78301,51.59596],[-3.78314,51.59609],[-3.78318,51.59607],[-3.7835,51.59639],[-3.78348,51.59641],[-3.78366,51.59658]]]]}},
{ "type":"Feature","properties":{"osm_way_id":"60418224","name":"lifestyle","building":"retail","shop":"supermarket"},"geometry":{"type":"MultiPolygon","coordinates":[[[[-3.81962,51.60218],[-3.81923,51.60203],[-3.81892,51.60233],[-3.81913,51.60241],[-3.81925,51.60229],[-3.8192,51.60227],[-3.81925,51.60222],[-3.81923,51.60221],[-3.81926,51.60218],[-3.81923,51.60217],[-3.81925,51.60215],[-3.81933,51.60218],[-3.81931,51.6022],[-3.81952,51.60228],[-3.81962,51.60218]]]]}},
{ "type":"Feature","properties":{"osm_way_id":"87817356","name":"Tesco Neath Abbey","building":"supermarket","shop":"supermarket","other":{"brand":"Tesco","brand:wikidata":"Q487494","brand:wikipedia":"en:Tesco","source:outline":"bing"}}, "geometry":{"type":"MultiPolygon","coordinates":[[[[-3.82242,51.66222],[-3.82277,51.66223],[-3.82279,51.66187],[-3.82269,51.66187],[-3.8227,51.66179],[-3.82278,51.66179],[-3.82279,51.66157],[-3.82246,51.66156],[-3.82246,51.6616],[-3.82133,51.66157],[-3.82131,51.66189],[-3.82144,51.66189],[-3.82144,51.66198],[-3.82151,51.66198],[-3.82157,51.66203],[-3.82168,51.66204],[-3.82167,51.6622],[-3.82187,51.66221],[-3.82187,51.66217],[-3.82243,51.66219],[-3.82242,51.66222]]]]}},
{ "type":"Feature","properties":{"osm_way_id":"99857497","name":"Costcutter","building":"yes","shop":"supermarket"},"geometry":{"type":"MultiPolygon","coordinates":[[[[-3.69315,51.71036],[-3.69274,51.71025],[-3.69269,51.71032],[-3.6931,51.71042],[-3.69315,51.71036]]]]}},
{ "type":"Feature","properties":{"osm_way_id":"102681869","name":"Bryncoch Supermarket","building":"yes","shop":"supermarket"},"geometry":{"type":"MultiPolygon","coordinates":[[[[-3.81786,51.68385],[-3.81784,51.68361],[-3.81805,51.68361],[-3.81807,51.68384],[-3.81786,51.68385]]]]}},
{ "type":"Feature","properties":{"osm_way_id":"199899663","name":"Asda","building":"yes","shop":"supermarket","other":{"addr:city":"Godrergraig","addr:country":"GB","addr:postcode":"SA9 2DE","addr:street":"Glan Yr Afon","brand":"Asda","brand:wikidata":"Q297410","brand:wikipedia":"en:Asda","contact:facebook":"https:\/\/www.facebook.com\/asda\/","contact:twitter":"@asda","contact:website":"https:\/\/storelocator.asda.com\/wales\/swansea\/glanyrafon-godrergraig","fhrs:id":"516455","operator":"Asda Stores Ltd"}}, "geometry":{"type":"MultiPolygon","coordinates":[[[[-3.78984,51.76114],[-3.79056,51.76083],[-3.7902,51.76049],[-3.79006,51.76036],[-3.78991,51.76043],[-3.79002,51.76053],[-3.78946,51.7608],[-3.78984,51.76114]]]]}},
{ "type":"Feature","properties":{"osm_way_id":"304107787","name":"Lidl","building":"retail","shop":"supermarket","other":{"addr:country":"GB","addr:postcode":"SA12 6NR","addr:street":"Afan Way","brand":"Lidl","brand:wikidata":"Q151954","brand:wikipedia":"en:Lidl","fhrs:id":"973182"}}, "geometry":{"type":"MultiPolygon","coordinates":[[[[-3.81192,51.60405],[-3.81173,51.60391],[-3.81167,51.60394],[-3.8114,51.60375],[-3.8111,51.60391],[-3.81156,51.60424],[-3.81192,51.60405]]]]}},
{ "type":"Feature","properties":{"osm_way_id":"328404684","name":"Co-op Food","building":"yes","shop":"supermarket","other":{"addr:postcode":"SA11 5AL","addr:street":"High Street","brand":"Co-op Food","brand:wikidata":"Q3277439","brand:wikipedia":"en:Co-op Food","wheelchair":"yes"}}, "geometry":{"type":"MultiPolygon","coordinates":[[[[-3.62081,51.74669],[-3.62068,51.74646],[-3.62044,51.74651],[-3.62038,51.74648],[-3.6203,51.74649],[-3.62027,51.74652],[-3.62028,51.74656],[-3.62031,51.74658],[-3.62038,51.74669],[-3.62061,51.74664],[-3.62066,51.74673],[-3.62081,51.74669]]]]}},
{ "type":"Feature","properties":{"osm_way_id":"328404686","name":"SPAR","building":"yes","shop":"supermarket","other":{"addr:housenumber":"24","addr:postcode":"SA11 5TA","addr:street":"High Street","alt_name":"SPAR, Cwmgrach","brand":"Spar","brand:wikidata":"Q610492"}}, "geometry":{"type":"MultiPolygon","coordinates":[[[[-3.64042,51.73504],[-3.64012,51.73485],[-3.64003,51.73491],[-3.64034,51.73509],[-3.64042,51.73504]]]]}},
{ "type":"Feature","properties":{"osm_way_id":"517092582","name":"Lidl","building":"supermarket","shop":"supermarket","other":{"addr:country":"GB","addr:postcode":"SA11 1AS","addr:street":"Briton Ferry Road","brand":"Lidl","brand:wikidata":"Q151954","brand:wikipedia":"en:Lidl","fhrs:id":"978682","operator":"Lidl"}}, "geometry":{"type":"MultiPolygon","coordinates":[[[[-3.814,51.65271],[-3.81394,51.65279],[-3.81385,51.65277],[-3.81362,51.6531],[-3.81324,51.65299],[-3.81332,51.65287],[-3.81337,51.65289],[-3.81358,51.65259],[-3.814,51.65271]]]]}},
{ "type":"Feature","properties":{"osm_way_id":"543680727","name":"Morrisons","building":"retail","shop":"supermarket","other":{"addr:city":"Port Talbot","addr:postcode":"SA12 7DA","addr:street":"Christchurch Road","addr:unit":"Baglan Industrial Park","brand":"Morrisons","brand:wikidata":"Q922344","brand:wikipedia":"en:Morrisons","phone":"+44 1639 822097","toilets:wheelchair":"yes","website":"https:\/\/my.morrisons.com\/storefinder\/96","wheelchair":"yes"}}, "geometry":{"type":"MultiPolygon","coordinates":[[[[-3.80891,51.60368],[-3.8087,51.6038],[-3.80881,51.60387],[-3.80862,51.60398],[-3.80872,51.60405],[-3.80865,51.60409],[-3.80871,51.60413],[-3.80857,51.60422],[-3.80938,51.60476],[-3.80996,51.60442],[-3.81,51.60446],[-3.8103,51.60428],[-3.81007,51.60412],[-3.80999,51.60417],[-3.80956,51.60388],[-3.80944,51.60395],[-3.80907,51.60371],[-3.809,51.60375],[-3.80891,51.60368]]]]}},
{ "type":"Feature","properties":{"osm_way_id":"566056630","name":"Nisa Extra","building":"yes","shop":"supermarket"},"geometry":{"type":"MultiPolygon","coordinates":[[[[-3.88283,51.79181],[-3.88313,51.79169],[-3.8834,51.79194],[-3.88319,51.79202],[-3.88314,51.79198],[-3.88308,51.792],[-3.88305,51.79197],[-3.88302,51.79198],[-3.88283,51.79181]]]]}},
{ "type":"Feature","properties":{"osm_way_id":"769269059","name":"Tesco Express","building":"yes","shop":"supermarket","other":{"brand":"Tesco Express","brand:wikidata":"Q98456772"}}, "geometry":{"type":"MultiPolygon","coordinates":[[[[-3.79204,51.65277],[-3.79185,51.65267],[-3.79184,51.65265],[-3.79201,51.65254],[-3.79212,51.6526],[-3.79225,51.65251],[-3.79235,51.65257],[-3.79204,51.65277]]]]}},
{ "type":"Feature","properties":{"osm_way_id":"769269060","name":"CK's Supermarket","building":"yes","shop":"supermarket"},"geometry":{"type":"MultiPolygon","coordinates":[[[[-3.79187,51.65233],[-3.79167,51.65211],[-3.79159,51.65208],[-3.79141,51.65208],[-3.79164,51.65232],[-3.79167,51.65231],[-3.79174,51.65237],[-3.79187,51.65233]]]]}}
]
}
