{
"type": "FeatureCollection",
"features": [
{ "type":"Feature","properties":{"osm_way_id":"157081476","name":"Karndean Designflooring Training Academy","building":"warehouse","other":{"addr:city":"Evesham","addr:postcode":"WR11 1GP","addr:street":"Crab Apple Way"}}, "geometry":{"type":"MultiPolygon","coordinates":[[[[-1.93353,52.07493],[-1.93311,52.07507],[-1.93263,52.0745],[-1.93276,52.07446],[-1.93281,52.07453],[-1.93311,52.07443],[-1.93353,52.07493]]]]}},
{ "type":"Feature","properties":{"osm_way_id":"157081479","name":"Travis Perkins","building":"warehouse","other":{"addr:city":"Evesham","addr:postcode":"WR11 1GS","addr:street":"Enterprise Way","phone":"+441386422866","website":"https:\/\/www.travisperkins.co.uk\/branch-locator\/3986"}}, "geometry":{"type":"MultiPolygon","coordinates":[[[[-1.93306,52.07509],[-1.93274,52.07518],[-1.93267,52.0751],[-1.93259,52.07502],[-1.93236,52.07475],[-1.93268,52.07465],[-1.93306,52.07509]]]]}},
{ "type":"Feature","properties":{"osm_way_id":"854291017","name":"Paul Mathew Transport Ltd","building":"warehouse","other":{"addr:city":"Evesham","addr:housename":"Proscenium House, Block C, Crab Apple Court","addr:postcode":"WR11 1AE","addr:street":"Crab Apple Way"}}, "geometry":{"type":"MultiPolygon","coordinates":[[[[-1.93352,52.07619],[-1.93265,52.07601],[-1.9325,52.07626],[-1.93335,52.07645],[-1.93352,52.07619]]]]}},
{ "type":"Feature","properties":{"osm_way_id":"854291020","name":"Rotec Engineering Group Ltd","building":"warehouse","other":{"addr:city":"Evesham","addr:housename":"Unit 6b","addr:postcode":"WR11 1GS","addr:street":"Enterprise Way","phone":"+441386424111","website":"http:\/\/www.rotec-ltd.com\/"}}, "geometry":{"type":"MultiPolygon","coordinates":[[[[-1.93071,52.0737],[-1.9305,52.07354],[-1.92967,52.07394],[-1.92986,52.07409],[-1.93071,52.0737]]]]}},
{ "type":"Feature","properties":{"osm_way_id":"854291021","name":"AIM Logistics Ltd","building":"warehouse","other":{"addr:city":"Evesham","addr:postcode":"WR11 1GP","addr:street":"Crab Apple Way","phone":"+44138649111","website":"http:\/\/www.aimlogisticsltd.com\/"}}, "geometry":{"type":"MultiPolygon","coordinates":[[[[-1.93007,52.07515],[-1.9294,52.07464],[-1.92913,52.07478],[-1.92978,52.07529],[-1.93007,52.07515]]]]}},
{ "type":"Feature","properties":{"osm_way_id":"854291022","name":"Walsh Mushrooms","building":"warehouse"},"geometry":{"type":"MultiPolygon","coordinates":[[[[-1.93037,52.07679],[-1.93017,52.0766],[-1.92941,52.07691],[-1.9296,52.07709],[-1.93037,52.07679]]]]}},
{ "type":"Feature","properties":{"osm_way_id":"854291023","name":"Eurofresh Evesham Ltd","building":"warehouse","other":{"addr:city":"Evesham","addr:postcode":"WR11 1GP","addr:street":"Crab Apple Way","phone":"+441386443343","website":"http:\/\/www.euro-fresh.co.uk\/"}}, "geometry":{"type":"MultiPolygon","coordinates":[[[[-1.92831,52.07526],[-1.9288,52.07572],[-1.92868,52.07577],[-1.92866,52.07575],[-1.92837,52.07587],[-1.9279,52.07543],[-1.92831,52.07526]]]]}},
{ "type":"Feature","properties":{"osm_way_id":"938059538","name":"Bunzl Woodway","building":"warehouse","other":{"addr:city":"Burton Latimer","addr:housename":"Bunzl Woodway","addr:postcode":"NN15 5ZS"}}, "geometry":{"type":"MultiPolygon","coordinates":[[[[-0.67733,52.3762],[-0.6757,52.37646],[-0.67505,52.37491],[-0.67633,52.37471],[-0.67627,52.37457],[-0.67679,52.37449],[-0.67694,52.37483],[-0.67676,52.37486],[-0.67733,52.3762]]]]}}
]
}
