{
"type": "FeatureCollection",
"features": [
{ "type":"Feature","properties":{"osm_id":"158488944","name":"Morrisons","other":{"addr:city":"Chatham","addr:country":"GB","addr:county":"Kent","addr:postcode":"ME5 7PQ","addr:street":"Princes Avenue","brand":"Morrisons","brand:wikidata":"Q922344","brand:wikipedia":"en:Morrisons","fhrs:id":"783923","not:addr:postcode":"ME5 8BA","opening_hours":"Mo-Sa 07:00-22:00; Su 10:00-16:00","shop":"supermarket","website":"https:\/\/my.morrisons.com\/storefinder\/295"}}, "geometry":{"type":"Point","coordinates":[0.53491,51.3537 ]}},
{ "type":"Feature","properties":{"osm_id":"192091805","name":"The Co-operative Food","other":{"addr:housenumber":"302D-304","addr:postcode":"ME7 5JP","addr:street":"Canterbury Street","fhrs:authority":"Medway","fhrs:id":"683358","fhrs:inspectiondate":"2016-05-19","fhrs:rating":"5","shop":"supermarket"}}, "geometry":{"type":"Point","coordinates":[0.5499,51.37752 ]}},
{ "type":"Feature","properties":{"osm_id":"346299846","name":"Co-Op","other":{"addr:city":"Rochester","addr:country":"GB","addr:county":"Kent","addr:housenumber":"7-11","addr:postcode":"ME1 2LQ","addr:street":"Central Parade","fhrs:authority":"Medway","fhrs:id":"683397","shop":"supermarket","source:addr":"FHRS Open Data"}}, "geometry":{"type":"Point","coordinates":[0.50599,51.37339 ]}},
{ "type":"Feature","properties":{"osm_id":"346299852","name":"The Co-operative Food","other":{"addr:housenumber":"124-126","addr:postcode":"ME1 2DT","addr:street":"Delce Road","fhrs:authority":"Medway","fhrs:id":"683362","fhrs:inspectiondate":"2016-05-26","fhrs:rating":"4","operator":"The Co-operative Group","shop":"supermarket"}}, "geometry":{"type":"Point","coordinates":[0.50801,51.38056 ]}},
{ "type":"Feature","properties":{"osm_id":"602986745","name":"jassal Superstore","other":{"operator":"Happy Shopper","shop":"supermarket"}}, "geometry":{"type":"Point","coordinates":[0.49324,51.40061 ]}},
{ "type":"Feature","properties":{"osm_id":"662411536","name":"Tesco Express","other":{"addr:city":"Chatham","addr:country":"GB","addr:county":"Kent","addr:postcode":"ME5 8TH","addr:street":"Newton Close","brand":"Tesco Express","brand:wikidata":"Q98456772","contact:website":"https:\/\/www.tesco.com\/store-locator\/chatham\/newton-close","fhrs:id":"605619","opening_hours":"Mo-Su 06:00-23:00","phone":"+44 345 671 9586","shop":"supermarket","source:addr":"tesco website"}}, "geometry":{"type":"Point","coordinates":[0.54457,51.33511 ]}},
{ "type":"Feature","properties":{"osm_id":"988821822","name":"Sainsbury's","other":{"addr:country":"GB","addr:housename":"Hempstead Valley Shopping Centre","addr:postcode":"ME7 3PD","addr:street":"Hempstead Valley Drive","addr:town":"Gillingham","addr:unit":"10-14","addr:village":"Hempstead","brand":"Sainsbury's","brand:wikidata":"Q152096","brand:wikipedia":"en:Sainsbury's","shop":"supermarket"}}, "geometry":{"type":"Point","coordinates":[0.57294,51.34204 ]}},
{ "type":"Feature","properties":{"osm_id":"2177031978","name":"Tesco","other":{"addr:housenumber":"2","addr:postcode":"ME8 7HW","addr:street":"Rainham Shopping Centre","brand":"Tesco","brand:wikidata":"Q487494","brand:wikipedia":"en:Tesco","fhrs:authority":"Medway","fhrs:id":"745539","fhrs:inspectiondate":"2017-01-31","fhrs:rating":"5","shop":"supermarket","website":"https:\/\/www.tesco.com\/store-locator\/gillingham\/1-rainham-centre"}}, "geometry":{"type":"Point","coordinates":[0.60736,51.3641 ]}},
{ "type":"Feature","properties":{"osm_id":"4594507111","name":"Sainsbury's","other":{"addr:postcode":"ME4 4HP","brand":"Sainsbury's","brand:wikidata":"Q152096","brand:wikipedia":"en:Sainsbury's","fhrs:authority":"Medway","fhrs:id":"772081","fhrs:inspectiondate":"2015-06-19","fhrs:rating":"5","level":"0","shop":"supermarket"}}, "geometry":{"type":"Point","coordinates":[0.52587,51.38405 ]}},
{ "type":"Feature","properties":{"osm_id":"4958866630","name":"Spar","other":{"addr:city":"Chatham","addr:housenumber":"76","addr:postcode":"ME5 0QX","addr:street":"Silverweed Road","brand":"Spar","brand:wikidata":"Q610492","fhrs:authority":"Medway","fhrs:id":"580545","fhrs:inspectiondate":"2015-08-03","fhrs:rating":"5","level":"0","shop":"supermarket","wheelchair":"yes"}}, "geometry":{"type":"Point","coordinates":[0.52116,51.34636 ]}},
{ "type":"Feature","properties":{"osm_id":"5139424779","name":"Aldi","other":{"brand":"ALDI","brand:wikidata":"Q41171672","brand:wikipedia":"en:Aldi","shop":"supermarket"}}, "geometry":{"type":"Point","coordinates":[0.57837,51.36809 ]}},
{ "type":"Feature","properties":{"osm_id":"6139401050","name":"M&S Foodhall","other":{"addr:city":"Rochester","addr:country":"GB","addr:county":"Kent","addr:postcode":"ME2 2AB","addr:street":"Commercial Road","addr:unit":"C1","brand":"M&S Foodhall","brand:wikidata":"Q714491","brand:wikipedia":"en:Marks & Spencer","fhrs:id":"1049234","opening_hours":"Mo-Fr 08:00-20:00; Sa 08:00-19:00; Su 10:00-16:00","payment:american_express":"yes","payment:mastercard":"yes","payment:visa":"yes","phone":"+44 1634648137","shop":"supermarket","website":"https:\/\/www.marksandspencer.com\/stores\/strood-foodhall-2174?extid=local"}}, "geometry":{"type":"Point","coordinates":[0.49537,51.39423 ]}},
{ "type":"Feature","properties":{"osm_id":"6300907819","name":"One Stop","other":{"addr:city":"Rochester","addr:housenumber":"1A-1B","addr:postcode":"ME1 2TG","addr:street":"Beatty Road","opening_hours":"Mo-Su 06:00-23:00","shop":"supermarket"}}, "geometry":{"type":"Point","coordinates":[0.50973,51.36389 ]}},
{ "type":"Feature","properties":{"osm_id":"7157835954","name":"Shop","other":{"operator":"Nisa","shop":"supermarket"}}, "geometry":{"type":"Point","coordinates":[0.64608,51.47615 ]}},
{ "type":"Feature","properties":{"osm_id":"7683227867","name":"M&S Simply Food","other":{"addr:city":"Rainham","addr:place":"Farthing Corner Motorway Services A","addr:postcode":"ME8 8PQ","brand":"M&S Simply Food","brand:wikidata":"Q714491","brand:wikipedia":"en:Marks & Spencer","shop":"supermarket","website":"https:\/\/www.marksandspencer.com\/stores\/medway-moto-1185"}}, "geometry":{"type":"Point","coordinates":[0.60825,51.34167 ]}},
{ "type":"Feature","properties":{"osm_way_id":"19179214","name":"Asda","building":"retail","shop":"supermarket","other":{"addr:city":"Chatham","addr:country":"GB","addr:housenumber":"387","addr:postcode":"ME5 9SE","addr:street":"Maidstone Road","brand":"Asda","brand:wikidata":"Q297410","brand:wikipedia":"en:Asda","contact:facebook":"https:\/\/www.facebook.com\/asda\/","contact:twitter":"@asda","contact:website":"https:\/\/storelocator.asda.com\/south-east\/chatham\/387-maidstone-road","fhrs:id":"643396","opening_hours":"Mo 07:00-23:59; Tu-Fr 00:00-23:59; Sa 00:00-22:00; Su 10:00-16:00","operator":"Asda Stores Ltd"}}, "geometry":{"type":"MultiPolygon","coordinates":[[[[0.50876,51.34544],[0.50874,51.34531],[0.50844,51.34531],[0.50841,51.3451],[0.50836,51.34463],[0.50953,51.34456],[0.50962,51.34526],[0.50919,51.34528],[0.5092,51.34542],[0.50876,51.34544]]]]}},
{ "type":"Feature","properties":{"osm_way_id":"19180064","name":"ALDI","building":"retail","shop":"supermarket","other":{"addr:postcode":"ME5 9SQ","addr:street":"Maidstone Road","brand":"ALDI","brand:wikidata":"Q41171672","brand:wikipedia":"en:Aldi","opening_hours":"Mo-Sa 08:00-22:00; Su 10:00-16:00","smoking":"no"}}, "geometry":{"type":"MultiPolygon","coordinates":[[[[0.50741,51.35346],[0.50736,51.35286],[0.50775,51.35285],[0.5078,51.35345],[0.50772,51.35345],[0.50773,51.35356],[0.50757,51.35356],[0.50756,51.35346],[0.50741,51.35346]]]]}},
{ "type":"Feature","properties":{"osm_way_id":"23206829","name":"Morrisons","building":"yes","shop":"supermarket","other":{"addr:city":"Rochester","addr:housenumber":"1","addr:postcode":"ME2 2BD","addr:street":"Knight Road","addr:suburb":"Strood","brand":"Morrisons","brand:wikidata":"Q922344","brand:wikipedia":"en:Morrisons","fhrs:authority":"Medway","fhrs:id":"620906","fhrs:inspectiondate":"2015-06-27","fhrs:rating":"5","opening_hours":"Mo-Sa 06:00-22:00; Su 10:00-16:00","operator":"Wm Morrison Supermarkets Plc","source:shape":"Bing","website":"https:\/\/my.morrisons.com\/storefinder\/140"}}, "geometry":{"type":"MultiPolygon","coordinates":[[[[0.49307,51.3934],[0.49253,51.39303],[0.49248,51.39304],[0.49241,51.39301],[0.49237,51.39296],[0.49242,51.39293],[0.49247,51.3929],[0.49251,51.3929],[0.49259,51.39286],[0.49264,51.39288],[0.49268,51.39286],[0.49264,51.39283],[0.49288,51.39271],[0.49292,51.39273],[0.49319,51.39258],[0.49337,51.3927],[0.49357,51.3926],[0.49419,51.39305],[0.4941,51.3931],[0.49406,51.39308],[0.49395,51.39313],[0.4939,51.3931],[0.49333,51.3934],[0.49328,51.39346],[0.49319,51.39347],[0.4931,51.39344],[0.49307,51.3934]]]]}},
{ "type":"Feature","properties":{"osm_way_id":"60237140","name":"Tesco Extra","building":"yes","shop":"supermarket","other":{"addr:postcode":"ME8 0GX","addr:street":"Courteney Road","brand":"Tesco Extra","brand:wikidata":"Q25172225","brand:wikipedia":"en:Tesco Extra","fhrs:authority":"Medway","fhrs:id":"763805","fhrs:inspectiondate":"2015-04-30","fhrs:rating":"5"}}, "geometry":{"type":"MultiPolygon","coordinates":[[[[0.58293,51.36799],[0.58243,51.36712],[0.58279,51.36704],[0.58286,51.36715],[0.58321,51.36707],[0.583,51.36671],[0.58329,51.36664],[0.58334,51.36672],[0.58344,51.3667],[0.58369,51.36714],[0.5838,51.36712],[0.58396,51.3674],[0.58403,51.36738],[0.58403,51.36739],[0.58387,51.36743],[0.58405,51.36775],[0.58293,51.36799]]]]}},
{ "type":"Feature","properties":{"osm_way_id":"87179883","name":"Co-op Food","building":"yes","shop":"supermarket","other":{"addr:city":"Chatham","addr:country":"GB","addr:county":"Kent","addr:postcode":"ME5 9LL","addr:street":"Walderslade Road","brand":"Co-op Food","brand:wikidata":"Q3277439","brand:wikipedia":"en:Co-op Food","fhrs:authority":"Medway","fhrs:id":"692120","not:addr:postcode":"ME5 9LR","opening_hours":"Mo-Sa 08:00-22:00; Su 10:00-16:00"}}, "geometry":{"type":"MultiPolygon","coordinates":[[[[0.52541,51.34013],[0.52551,51.3402],[0.52549,51.34021],[0.5257,51.34034],[0.52573,51.34033],[0.52584,51.3404],[0.5263,51.34011],[0.52633,51.34013],[0.52642,51.34008],[0.52613,51.33989],[0.52611,51.3399],[0.52595,51.3398],[0.52541,51.34013]]]]}},
{ "type":"Feature","properties":{"osm_way_id":"89439940","name":"Tesco","building":"supermarket","shop":"supermarket","other":{"addr:city":"Rochester","addr:country":"GB","addr:county":"Kent","addr:housenumber":"3","addr:postcode":"ME2 2DE","addr:street":"Charles Street","brand":"Tesco","brand:wikidata":"Q487494","brand:wikipedia":"en:Tesco","contact:website":"https:\/\/www.tesco.com\/store-locator\/rochester\/3-cuxton-road","fhrs:authority":"Medway","fhrs:id":"947258","opening_hours":"Mo-Sa 06:00-24:00; Su 10:00-16:00","phone":"+44 345 677 9654","source:shape":"Bing"}}, "geometry":{"type":"MultiPolygon","coordinates":[[[[0.49166,51.39553],[0.49087,51.39518],[0.49116,51.39493],[0.4911,51.39491],[0.49117,51.39485],[0.49123,51.39487],[0.49127,51.39483],[0.49206,51.39517],[0.49166,51.39553]]]]}},
{ "type":"Feature","properties":{"osm_way_id":"117920810","name":"The Co-operative Food","building":"yes","shop":"supermarket","other":{"addr:city":"Rochester","addr:housenumber":"4","addr:place":"Wainscott","addr:postcode":"ME2 4LB","addr:street":"Wainscott Road","fhrs:authority":"Medway","fhrs:id":"814461","fhrs:inspectiondate":"2015-10-20","fhrs:rating":"5","source:shape":"Bing","wheelchair":"designated"}}, "geometry":{"type":"MultiPolygon","coordinates":[[[[0.512,51.41218],[0.51203,51.41213],[0.51201,51.41212],[0.51212,51.41197],[0.51232,51.41202],[0.51253,51.41204],[0.51256,51.41204],[0.51255,51.41209],[0.51251,51.4121],[0.5124,51.41223],[0.51246,51.41223],[0.51246,51.41229],[0.51234,51.41229],[0.51214,51.41223],[0.51211,51.41227],[0.51201,51.41224],[0.51204,51.4122],[0.512,51.41218]]]]}},
{ "type":"Feature","properties":{"osm_way_id":"121822175","name":"Asda","building":"yes","shop":"supermarket","other":{"addr:city":"Rochester","addr:country":"GB","addr:housenumber":"108\/110","addr:postcode":"ME2 4TR","addr:street":"High Street","brand":"Asda","brand:wikidata":"Q297410","brand:wikipedia":"en:Asda","contact:facebook":"https:\/\/www.facebook.com\/asda\/","contact:twitter":"@asda","contact:website":"https:\/\/storelocator.asda.com\/south-east\/strood\/108\/110-high-street","fhrs:id":"732131","operator":"Asda Stores Ltd","source:shape":"Bing"}}, "geometry":{"type":"MultiPolygon","coordinates":[[[[0.49458,51.39601],[0.49462,51.3961],[0.49467,51.39633],[0.49461,51.39634],[0.49457,51.39634],[0.49454,51.39629],[0.49398,51.39638],[0.494,51.39645],[0.49385,51.39647],[0.49374,51.39616],[0.49393,51.39613],[0.49458,51.39601]]]]}},
{ "type":"Feature","properties":{"osm_way_id":"293729211","name":"Qin Food Centre","building":"yes","shop":"supermarket","other":{"addr:city":"Gillingham","addr:housenumber":"112-114","addr:postcode":"ME7 1AU","addr:street":"High Street","fhrs:authority":"Medway","fhrs:id":"605623","fhrs:inspectiondate":"2015-04-09","fhrs:rating":"3","wheelchair":"yes"}}, "geometry":{"type":"MultiPolygon","coordinates":[[[[0.54639,51.38738],[0.54655,51.38735],[0.54648,51.38719],[0.54631,51.38722],[0.54639,51.38738]]]]}},
{ "type":"Feature","properties":{"osm_way_id":"293838457","name":"Budgens","building":"yes","shop":"supermarket","other":{"addr:city":"Gillingham","addr:postcode":"ME7 1AL","addr:street":"High Street","brand":"Budgens","brand:wikidata":"Q4985016","brand:wikipedia":"en:Budgens","phone":"+44 1634 575229","wheelchair":"yes"}}, "geometry":{"type":"MultiPolygon","coordinates":[[[[0.54444,51.38822],[0.54403,51.38855],[0.54447,51.38877],[0.54459,51.38868],[0.54456,51.38866],[0.54487,51.38841],[0.54444,51.38822]]]]}},
{ "type":"Feature","properties":{"osm_way_id":"293853991","name":"Express Food Centre","building":"yes","shop":"supermarket","other":{"addr:city":"Gillingham","addr:housenumber":"3","addr:postcode":"ME7 1BE","addr:street":"High Street","fhrs:authority":"Medway","fhrs:id":"734934","fhrs:inspectiondate":"2015-02-09","fhrs:rating":"1"}}, "geometry":{"type":"MultiPolygon","coordinates":[[[[0.54249,51.38889],[0.54254,51.38888],[0.54255,51.38887],[0.54279,51.38898],[0.54269,51.38907],[0.5426,51.38906],[0.54249,51.38889]]]]}},
{ "type":"Feature","properties":{"osm_way_id":"300957270","name":"SPAR","building":"yes","shop":"supermarket","other":{"addr:city":"Rochester","addr:housenumber":"11-17","addr:postcode":"ME3 9AH","addr:street":"Chruch Road","brand":"Spar","brand:wikidata":"Q610492"}}, "geometry":{"type":"MultiPolygon","coordinates":[[[[0.56372,51.41981],[0.56411,51.41983],[0.56413,51.41971],[0.56373,51.41968],[0.56372,51.41981]]]]}},
{ "type":"Feature","properties":{"osm_way_id":"310342419","name":"Aldi","building":"yes","shop":"supermarket","other":{"addr:postcode":"ME2 4WR","addr:street":"Friary Place","brand":"ALDI","brand:wikidata":"Q41171672","brand:wikipedia":"en:Aldi","fhrs:id":"508445"}}, "geometry":{"type":"MultiPolygon","coordinates":[[[[0.49624,51.39581],[0.49658,51.39601],[0.49609,51.39632],[0.49578,51.39613],[0.49624,51.39581]]]]}},
{ "type":"Feature","properties":{"osm_way_id":"359423223","name":"Co-operative Food","building":"yes","shop":"supermarket","other":{"addr:housenumber":"13A","addr:postcode":"ME3 9AA","addr:street":"Main Road"}}, "geometry":{"type":"MultiPolygon","coordinates":[[[[0.56262,51.41991],[0.56264,51.41972],[0.56277,51.41972],[0.56276,51.41978],[0.56288,51.41978],[0.56286,51.41995],[0.56272,51.41994],[0.56272,51.41991],[0.56262,51.41991]]]]}},
{ "type":"Feature","properties":{"osm_way_id":"387894508","name":"Asda","building":"yes","shop":"supermarket","other":{"addr:city":"Gillingham","addr:country":"GB","addr:postcode":"ME7 1RZ","addr:street":"Pier Approach Road","alt_name":"ASDA Gillingham Pier Superstore","brand":"Asda","brand:wikidata":"Q297410","brand:wikipedia":"en:Asda","contact:facebook":"https:\/\/www.facebook.com\/asda\/","contact:twitter":"@asda","contact:website":"https:\/\/storelocator.asda.com\/south-east\/gillingham\/pier-road","fhrs:id":"806036","opening_hours":"Mo-Sa 07:00-23:00; Su 10:00-16:00","operator":"Asda Stores Ltd"}}, "geometry":{"type":"MultiPolygon","coordinates":[[[[0.55356,51.3977],[0.55252,51.39811],[0.55199,51.39758],[0.55187,51.39744],[0.55243,51.39727],[0.55253,51.39737],[0.55272,51.39729],[0.55303,51.39717],[0.55356,51.3977]]]]}},
{ "type":"Feature","properties":{"osm_way_id":"721490036","name":"Aldi","building":"yes","shop":"supermarket","other":{"addr:city":"Gillingham","addr:housenumber":"70","addr:postcode":"ME7 4JS","addr:street":"Duncan Road","brand":"ALDI","brand:wikidata":"Q41171672","brand:wikipedia":"en:Aldi","fhrs:id":"802075"}}, "geometry":{"type":"MultiPolygon","coordinates":[[[[0.55123,51.38594],[0.55049,51.38608],[0.55042,51.38593],[0.5505,51.38591],[0.55043,51.38577],[0.55109,51.38565],[0.55123,51.38594]]]]}},
{ "type":"Feature","properties":{"osm_way_id":"955810023","name":"Co-op Food","building":"yes","shop":"supermarket","other":{"addr:city":"Banbury","addr:housenumber":"1","addr:postcode":"OX16 1PH","addr:street":"Ruscote Arcade","brand":"Co-op Food","brand:wikidata":"Q3277439","brand:wikipedia":"en:Co-op Food"}}, "geometry":{"type":"MultiPolygon","coordinates":[[[[-1.34886,52.07109],[-1.34876,52.07111],[-1.34883,52.07122],[-1.34893,52.07119],[-1.34886,52.07109]]]]}}
]
}
