{
"type": "FeatureCollection",
"features": [
{ "type":"Feature","properties":{"osm_id":"365802777","name":"The Co-operative Food","other":{"addr:housenumber":"601","addr:postcode":"ST6 7EP","addr:street":"High Lane","brand":"The Co-operative Food","brand:wikidata":"Q3277439","brand:wikipedia":"en:Co-op Food","fhrs:id":"136992","opening_hours":"Mo-Su 07:00-23:00","shop":"supermarket","source:addr":"FHRS Open Data"}}, "geometry":{"type":"Point","coordinates":[-2.19086,53.05965 ]}},
{ "type":"Feature","properties":{"osm_id":"809808547","name":"Meir Supermarket (nisa)","other":{"addr:housenumber":"45","addr:postcode":"ST3 6LX","addr:street":"Stansmore Road","fhrs:id":"486354","shop":"supermarket","source:addr":"FHRS Open Data"}}, "geometry":{"type":"Point","coordinates":[-2.09511,52.98185 ]}},
{ "type":"Feature","properties":{"osm_id":"836480194","name":"Co-op","other":{"addr:city":"Bentilee, Stoke-On-Trent","addr:housenumber":"25","addr:postcode":"ST2 0ES","addr:street":"Devonshire Square","fhrs:id":"136998","operator":"The Co-operative Group","shop":"supermarket"}}, "geometry":{"type":"Point","coordinates":[-2.12811,53.01322 ]}},
{ "type":"Feature","properties":{"osm_id":"1456829042","name":"Co-op","other":{"addr:postcode":"ST3 6NA","addr:street":"New Kingsway","fhrs:id":"137006","old_name":"The Co-operative Food","shop":"supermarket","source:addr":"FHRS Open Data"}}, "geometry":{"type":"Point","coordinates":[-2.09928,52.98998 ]}},
{ "type":"Feature","properties":{"osm_id":"2155774156","name":"The Co-operative Food","other":{"addr:housenumber":"8-10","addr:postcode":"ST4 5DW","addr:street":"Manor Court Street","brand":"The Co-operative Food","brand:wikidata":"Q3277439","brand:wikipedia":"en:Co-op Food","fhrs:id":"137000","shop":"supermarket","source:addr":"FHRS Open Data"}}, "geometry":{"type":"Point","coordinates":[-2.19683,53.00075 ]}},
{ "type":"Feature","properties":{"osm_id":"3303038287","name":"Premier","other":{"shop":"supermarket"}}, "geometry":{"type":"Point","coordinates":[-2.20253,53.07917 ]}},
{ "type":"Feature","properties":{"osm_id":"3717485856","name":"The Co-operative Food","other":{"operator":"The Co-operative Group","shop":"supermarket"}}, "geometry":{"type":"Point","coordinates":[-2.12864,52.9929 ]}},
{ "type":"Feature","properties":{"osm_id":"6222652686","name":"Heron Foods","other":{"addr:city":"Bentilee, Stoke-On-Trent","addr:housenumber":"30","addr:postcode":"ST2 0ES","addr:street":"Devonshire Square","brand":"Heron Foods","brand:wikidata":"Q5743472","brand:wikipedia":"en:Heron Foods","contact:website":"https:\/\/heronfoods.com\/storelocator\/store-details\/bentilee","fhrs:id":"132870","shop":"supermarket"}}, "geometry":{"type":"Point","coordinates":[-2.12802,53.01331 ]}},
{ "type":"Feature","properties":{"osm_id":"6444068700","name":"Lidl","other":{"addr:country":"GB","addr:postcode":"ST3 4DY","addr:street":"Trentham Road","brand":"Lidl","brand:wikidata":"Q151954","fhrs:id":"1210390","shop":"supermarket"}}, "geometry":{"type":"Point","coordinates":[-2.13526,52.98424 ]}},
{ "type":"Feature","properties":{"osm_id":"6444096998","name":"Home Bargins","other":{"shop":"supermarket"}}, "geometry":{"type":"Point","coordinates":[-2.13465,52.98755 ]}},
{ "type":"Feature","properties":{"osm_id":"7138658569","name":"Vana Mini Market","other":{"atm":"yes","atm:fee":"no","phone":"+44 7401 044452","shop":"supermarket"}}, "geometry":{"type":"Point","coordinates":[-2.21021,53.05752 ]}},
{ "type":"Feature","properties":{"osm_id":"7439889741","name":"Asda","other":{"addr:city":"Stoke-On-Trent","addr:country":"GB","addr:postcode":"ST2 9AL","addr:street":"Werrington Road","brand":"Asda","brand:wikidata":"Q297410","brand:wikipedia":"en:Asda","contact:facebook":"https:\/\/www.facebook.com\/asda\/","contact:twitter":"@asda","contact:website":"https:\/\/storelocator.asda.com\/west-midlands\/bucknall-stoke-on-trent\/werrington-road","fhrs:id":"1036381","operator":"Asda Stores Ltd","shop":"supermarket"}}, "geometry":{"type":"Point","coordinates":[-2.14099,53.02587 ]}},
{ "type":"Feature","properties":{"osm_id":"9231006841","name":"PAK Foods","other":{"addr:city":"Stoke on Trent","addr:housenumber":"118 -134","addr:postcode":"ST3 4LR","addr:street":"Belgrave Road","shop":"supermarket","website":"http:\/\/pakfoods.net\/"}}, "geometry":{"type":"Point","coordinates":[-2.13155,52.9787 ]}},
{ "type":"Feature","properties":{"osm_way_id":"29978868","name":"Asda","building":"yes","shop":"supermarket","other":{"addr:country":"GB","addr:postcode":"ST6 6AT","addr:street":"Woodland Street","brand":"Asda","brand:wikidata":"Q297410","brand:wikipedia":"en:Asda","contact:facebook":"https:\/\/www.facebook.com\/asda\/","contact:twitter":"@asda","contact:website":"https:\/\/storelocator.asda.com\/west-midlands\/stoke-on-trent\/asda-tunstall-scotia-road-tunstall","fhrs:id":"634111","opening_hours":"Tu-Fr 00:00-24:00; Mo 07:00-24:00; Sa 00:00-22:00; Su 10:00-16:00","operator":"Asda Stores Ltd","source:addr":"FHRS Open Data"}}, "geometry":{"type":"MultiPolygon","coordinates":[[[[-2.20798,53.0564],[-2.20798,53.05618],[-2.208,53.05618],[-2.20801,53.05563],[-2.20811,53.05563],[-2.20811,53.05558],[-2.20922,53.05558],[-2.20921,53.05577],[-2.20947,53.05577],[-2.20947,53.0561],[-2.2092,53.0561],[-2.2092,53.05641],[-2.20798,53.0564]]]]}},
{ "type":"Feature","properties":{"osm_way_id":"33805108","name":"Heron Foods","building":"retail","shop":"supermarket","other":{"addr:housenumber":"113-117","addr:postcode":"ST6 1PF","addr:street":"Ford Green Road","brand":"Heron Foods","brand:wikidata":"Q5743472","brand:wikipedia":"en:Heron Foods","building:levels":"2","contact:website":"https:\/\/heronfoods.com\/storelocator\/store-details\/smallthorne","fhrs:id":"136416","opening_hours":"Mo-Sa 08:00-20:00; Su 09:00-17:00","roof:levels":"0","source:addr":"FHRS Open Data","wheelchair":"yes"}}, "geometry":{"type":"MultiPolygon","coordinates":[[[[-2.17354,53.05182],[-2.17374,53.05195],[-2.1736,53.05202],[-2.1734,53.0519],[-2.17354,53.05182]]]]}},
{ "type":"Feature","properties":{"osm_way_id":"38525358","name":"Morrisons","building":"yes","shop":"supermarket","other":{"addr:postcode":"ST1 5NY","addr:street":"Ridgehouse Drive","brand":"Morrisons","brand:wikidata":"Q922344","brand:wikipedia":"en:Morrisons","fhrs:id":"116600","source:addr":"FHRS Open Data"}}, "geometry":{"type":"MultiPolygon","coordinates":[[[[-2.19237,53.03092],[-2.19247,53.03108],[-2.19164,53.03128],[-2.19166,53.03129],[-2.1915,53.03132],[-2.19154,53.03138],[-2.19168,53.03135],[-2.19188,53.03164],[-2.19163,53.0317],[-2.19167,53.03178],[-2.19197,53.03188],[-2.19204,53.03187],[-2.19206,53.0319],[-2.1933,53.0316],[-2.19302,53.03116],[-2.19324,53.0311],[-2.19315,53.03097],[-2.1932,53.03095],[-2.19316,53.03089],[-2.1931,53.0309],[-2.19308,53.03087],[-2.19315,53.03085],[-2.19309,53.03075],[-2.19264,53.03085],[-2.19262,53.03083],[-2.19251,53.03086],[-2.19252,53.03088],[-2.19237,53.03092]]]]}},
{ "type":"Feature","properties":{"osm_way_id":"48961653","name":"Asda","building":"yes","shop":"supermarket","other":{"addr:city":"Stoke-On-Trent","addr:country":"GB","addr:postcode":"ST4 2HE","addr:street":"Victoria Road","brand":"Asda","brand:wikidata":"Q297410","brand:wikipedia":"en:Asda","contact:facebook":"https:\/\/www.facebook.com\/asda\/","contact:twitter":"@asda","contact:website":"https:\/\/storelocator.asda.com\/west-midlands\/stoke-on-trent\/victoria-road-berry-hill-fenton","fhrs:id":"142958","operator":"Asda Stores Ltd"}}, "geometry":{"type":"MultiPolygon","coordinates":[[[[-2.16783,53.01164],[-2.16773,53.01166],[-2.16777,53.01173],[-2.16758,53.01177],[-2.16761,53.01182],[-2.16739,53.01186],[-2.16741,53.0119],[-2.16725,53.01193],[-2.16707,53.01159],[-2.16774,53.01146],[-2.16783,53.01164]]]]}},
{ "type":"Feature","properties":{"osm_way_id":"48963047","name":"Sainsbury's","building":"retail","shop":"supermarket","other":{"addr:postcode":"ST1 5SA","addr:street":"Etruria Road","brand":"Sainsbury's","brand:wikidata":"Q152096","brand:wikipedia":"en:Sainsbury's","fhrs:id":"115573","source:addr":"FHRS Open Data"}}, "geometry":{"type":"MultiPolygon","coordinates":[[[[-2.18331,53.0258],[-2.18233,53.02586],[-2.18234,53.02592],[-2.18196,53.02594],[-2.18204,53.02645],[-2.18338,53.02638],[-2.18333,53.02606],[-2.18335,53.02606],[-2.18331,53.0258]]]]}},
{ "type":"Feature","properties":{"osm_way_id":"54827442","name":"Tesco","building":"retail","shop":"supermarket","other":{"addr:city":"Stoke-on-Trent","addr:housenumber":"291","addr:postcode":"ST4 6PL","addr:street":"Newcastle Road","brand":"Tesco","brand:wikidata":"Q487494","brand:wikipedia":"en:Tesco","designation":"Stoke-On-Trent Superstore","fhrs:id":"113317"}}, "geometry":{"type":"MultiPolygon","coordinates":[[[[-2.21031,52.99499],[-2.21,52.9946],[-2.20992,52.99449],[-2.2098,52.99435],[-2.2099,52.99432],[-2.20979,52.99419],[-2.21008,52.99405],[-2.21013,52.99409],[-2.21015,52.99409],[-2.21021,52.99418],[-2.21017,52.99419],[-2.21021,52.99424],[-2.21043,52.99418],[-2.21037,52.99409],[-2.21065,52.99401],[-2.21072,52.9941],[-2.21076,52.99409],[-2.21124,52.99471],[-2.21031,52.99499]]]]}},
{ "type":"Feature","properties":{"osm_way_id":"56785072","name":"Aldi","building":"retail","shop":"supermarket","other":{"addr:housename":"Aldi","addr:postcode":"ST1 6AX","addr:street":"Daisy Bank Road","brand":"ALDI","brand:wikidata":"Q41171672","brand:wikipedia":"en:Aldi","building:levels":"1","check_date:opening_hours":"2021-12-20","fhrs:id":"133015","opening_hours":"Mo-Sa 08:00-22:00; Su 10:00-16:00","roof:levels":"0","source:addr":"FHRS Open Data"}}, "geometry":{"type":"MultiPolygon","coordinates":[[[[-2.162,53.04832],[-2.16101,53.04872],[-2.16078,53.04851],[-2.16188,53.04806],[-2.16196,53.04814],[-2.16185,53.04818],[-2.162,53.04832]]]]}},
{ "type":"Feature","properties":{"osm_way_id":"64453224","name":"Tesco","building":"yes","shop":"supermarket","other":{"addr:city":"Stoke-On-Trent","addr:postcode":"ST3 7WB","addr:street":"Lysander Road","alt_name":"Tesco Stoke-On-Trent Meir Superstore","brand":"Tesco","brand:wikidata":"Q487494","brand:wikipedia":"en:Tesco","fhrs:id":"118508"}}, "geometry":{"type":"MultiPolygon","coordinates":[[[[-2.09008,52.97267],[-2.08961,52.97255],[-2.08965,52.97248],[-2.08897,52.9723],[-2.08873,52.97266],[-2.0887,52.9727],[-2.08853,52.97266],[-2.0884,52.97286],[-2.0885,52.97296],[-2.0884,52.97301],[-2.08844,52.97304],[-2.08852,52.97307],[-2.08851,52.97311],[-2.08864,52.97314],[-2.08864,52.97319],[-2.0889,52.97325],[-2.08887,52.97331],[-2.08924,52.9734],[-2.08937,52.97321],[-2.08966,52.97328],[-2.09008,52.97267]]]]}},
{ "type":"Feature","properties":{"osm_way_id":"66015118","name":"Tesco Extra","building":"yes","shop":"supermarket","other":{"addr:postcode":"ST3 2JB","addr:street":"Baths Road","brand":"Tesco Extra","brand:wikidata":"Q25172225","brand:wikipedia":"en:Tesco Extra","fhrs:id":"127850","source:addr":"FHRS Open Data","website":"https:\/\/www.tesco.com\/store-locator\/stoke-on-trent\/baths-rd"}}, "geometry":{"type":"MultiPolygon","coordinates":[[[[-2.14071,52.98986],[-2.13905,52.98931],[-2.1389,52.98948],[-2.13894,52.98949],[-2.13842,52.99005],[-2.14002,52.99059],[-2.14006,52.99054],[-2.14044,52.99066],[-2.1407,52.9904],[-2.14065,52.9903],[-2.14055,52.99031],[-2.14032,52.99056],[-2.14028,52.99054],[-2.14029,52.99052],[-2.14023,52.99051],[-2.14025,52.99048],[-2.14021,52.99046],[-2.14017,52.9905],[-2.14011,52.99048],[-2.1406,52.98992],[-2.14065,52.98993],[-2.14068,52.98989],[-2.14071,52.98986]]]]}},
{ "type":"Feature","properties":{"osm_way_id":"66848856","name":"Co-op","building":"yes","shop":"supermarket","other":{"addr:housenumber":"58-62","addr:postcode":"ST3 6AD","addr:street":"Weston Road","fhrs:id":"137008","old_name":"The Co-operative Food","operator":"The Co-operative Group","source:addr":"FHRS Open Data"}}, "geometry":{"type":"MultiPolygon","coordinates":[[[[-2.10366,52.97894],[-2.10313,52.97877],[-2.10294,52.97891],[-2.10352,52.9791],[-2.10366,52.97894]]]]}},
{ "type":"Feature","properties":{"osm_way_id":"66848857","name":"Nisa Metro","building":"yes","shop":"supermarket","other":{"addr:housenumber":"93-95","addr:postcode":"ST3 6AJ","addr:street":"Weston Road","fhrs:id":"134385","source:addr":"FHRS Open Data"}}, "geometry":{"type":"MultiPolygon","coordinates":[[[[-2.10179,52.9794],[-2.10164,52.97932],[-2.10148,52.97943],[-2.10164,52.97951],[-2.10179,52.9794]]]]}},
{ "type":"Feature","properties":{"osm_way_id":"68203834","name":"Sainsbury's","building":"yes","shop":"supermarket","other":{"addr:postcode":"ST4 7QD","addr:street":"London Road","brand":"Sainsbury's","brand:wikidata":"Q152096","brand:wikipedia":"en:Sainsbury's","fhrs:id":"125686","source:addr":"FHRS Open Data"}}, "geometry":{"type":"MultiPolygon","coordinates":[[[[-2.18662,53.00203],[-2.18615,53.00269],[-2.1862,53.0027],[-2.18613,53.00279],[-2.18584,53.00271],[-2.18584,53.00269],[-2.18558,53.00262],[-2.18546,53.00244],[-2.18548,53.00242],[-2.18487,53.00225],[-2.18518,53.00181],[-2.18494,53.00174],[-2.185,53.00167],[-2.18619,53.00199],[-2.18624,53.00194],[-2.18662,53.00203]]]]}},
{ "type":"Feature","properties":{"osm_way_id":"88754980","name":"Tesco Extra","building":"retail","shop":"supermarket","other":{"addr:postcode":"ST1 4AA","addr:street":"Clough Street","brand":"Tesco Extra","brand:wikidata":"Q25172225","brand:wikipedia":"en:Tesco Extra","fhrs:id":"127956","nohousenumber":"yes","opening_hours":"Tu-Sa 00:00-00:00; Mo 06:00-00:00; Su 10:00-16:00","source:addr":"FHRS Open Data","toilets:wheelchair":"yes","wheelchair":"yes"}}, "geometry":{"type":"MultiPolygon","coordinates":[[[[-2.1819,53.02324],[-2.18088,53.02381],[-2.18061,53.02397],[-2.18047,53.02388],[-2.18049,53.02387],[-2.18051,53.02386],[-2.1797,53.02333],[-2.18125,53.02246],[-2.18173,53.02272],[-2.18209,53.02299],[-2.18178,53.02317],[-2.1819,53.02324]]]]}},
{ "type":"Feature","properties":{"osm_way_id":"89884334","name":"Wing Lee Chinese Groceries","building":"yes","shop":"supermarket","other":{"addr:housenumber":"5A","addr:postcode":"ST4 4TN","addr:street":"Dennis Viollet Avenue","fhrs:id":"134922","source:addr":"FHRS Open Data"}}, "geometry":{"type":"MultiPolygon","coordinates":[[[[-2.17118,52.98692],[-2.17066,52.98678],[-2.17094,52.98641],[-2.17146,52.98655],[-2.17118,52.98692]]]]}},
{ "type":"Feature","properties":{"osm_way_id":"111261927","name":"Aldi","building":"retail","shop":"supermarket","other":{"addr:postcode":"ST4 6NY","addr:street":"Newcastle Road","brand":"ALDI","brand:wikidata":"Q41171672","brand:wikipedia":"en:Aldi","designation":"Stoke on Trent","fhrs:id":"113715"}}, "geometry":{"type":"MultiPolygon","coordinates":[[[[-2.20727,52.99423],[-2.20761,52.99465],[-2.20734,52.99473],[-2.20731,52.99469],[-2.20721,52.99471],[-2.207,52.99446],[-2.20692,52.99448],[-2.20682,52.99436],[-2.20727,52.99423]]]]}},
{ "type":"Feature","properties":{"osm_way_id":"151650312","name":"Aldi","building":"yes","shop":"supermarket","other":{"addr:postcode":"ST4 2HX","addr:street":"Victoria Road","brand":"ALDI","brand:wikidata":"Q41171672","brand:wikipedia":"en:Aldi","fhrs:id":"894195","source:addr":"FHRS Open Data"}}, "geometry":{"type":"MultiPolygon","coordinates":[[[[-2.16712,53.00837],[-2.16658,53.00846],[-2.16652,53.00835],[-2.16658,53.00833],[-2.16644,53.00805],[-2.16669,53.008],[-2.16666,53.00795],[-2.16688,53.00791],[-2.16692,53.00799],[-2.16707,53.00827],[-2.16712,53.00837]]]]}},
{ "type":"Feature","properties":{"osm_way_id":"156936247","name":"The Food Warehouse","building":"retail","shop":"supermarket","other":{"addr:postcode":"ST4 6PD","addr:street":"Newcastle Road","brand":"The Food Warehouse","brand:wikidata":"Q87263899","fhrs:id":"769696","source:addr":"FHRS Open Data"}}, "geometry":{"type":"MultiPolygon","coordinates":[[[[-2.20897,52.99582],[-2.20916,52.99606],[-2.20867,52.99619],[-2.20849,52.99596],[-2.20897,52.99582]]]]}},
{ "type":"Feature","properties":{"osm_way_id":"173656384","name":"Co-op","building":"retail","shop":"supermarket","other":{"addr:city":"Milton","addr:housenumber":"20","addr:postcode":"ST2 7BW","addr:street":"Millrise Road","fhrs:id":"137011","operator":"The Co-operative Group"}}, "geometry":{"type":"MultiPolygon","coordinates":[[[[-2.14148,53.04999],[-2.14126,53.05005],[-2.14105,53.04976],[-2.14127,53.0497],[-2.14136,53.04983],[-2.14148,53.04999]]]]}},
{ "type":"Feature","properties":{"osm_way_id":"173656398","name":"Nisa Extra","building":"yes","shop":"supermarket","other":{"addr:city":"Milton","addr:postcode":"ST2 7BN","addr:street":"Millrise Road","fhrs:id":"137437"}}, "geometry":{"type":"MultiPolygon","coordinates":[[[[-2.1421,53.04872],[-2.14194,53.04872],[-2.14194,53.04881],[-2.14174,53.0488],[-2.14175,53.0487],[-2.14148,53.0487],[-2.14149,53.04861],[-2.14151,53.04861],[-2.14152,53.04856],[-2.14167,53.04857],[-2.14167,53.04846],[-2.14211,53.04847],[-2.1421,53.04872]]]]}},
{ "type":"Feature","properties":{"osm_way_id":"199077829","name":"Lidl","building":"retail","shop":"supermarket","other":{"addr:postcode":"ST4 7SG","addr:street":"London Road","brand":"Lidl","brand:wikidata":"Q151954","brand:wikipedia":"en:Lidl","fhrs:id":"221302","source:addr":"FHRS Open Data"}}, "geometry":{"type":"MultiPolygon","coordinates":[[[[-2.18704,53.0008],[-2.18684,53.00074],[-2.18687,53.0007],[-2.18664,53.00064],[-2.18675,53.00049],[-2.18663,53.00046],[-2.18675,53.0003],[-2.18724,53.00043],[-2.18709,53.00065],[-2.18706,53.00068],[-2.18711,53.00069],[-2.18704,53.0008]]]]}},
{ "type":"Feature","properties":{"osm_way_id":"226916441","name":"Aldi","building":"supermarket","shop":"supermarket","other":{"addr:city":"Trentham","addr:postcode":"ST4 8HP","addr:street":"Stanley Matthews Way","branch":"Stanley Matthews Way","brand":"ALDI","brand:wikidata":"Q41171672","brand:wikipedia":"en:Aldi","opening_hours":"Mo-Sa 08:00-22:00; Su 10:00-16:00"}}, "geometry":{"type":"MultiPolygon","coordinates":[[[[-2.16994,52.96829],[-2.16948,52.9683],[-2.16951,52.96877],[-2.16974,52.96877],[-2.16975,52.96881],[-2.16997,52.96881],[-2.16994,52.96829]]]]}},
{ "type":"Feature","properties":{"osm_way_id":"233149659","name":"Co-op","building":"retail","shop":"supermarket","other":{"addr:housenumber":"188","addr:postcode":"ST4 4QY","addr:street":"Mayne Street","fhrs:id":"113436","old_name":"The Co-operative Food","source:addr":"FHRS Open Data"}}, "geometry":{"type":"MultiPolygon","coordinates":[[[[-2.19885,52.97586],[-2.19839,52.97586],[-2.19839,52.97585],[-2.19829,52.97585],[-2.19829,52.9759],[-2.19838,52.97591],[-2.19839,52.97612],[-2.19876,52.97611],[-2.19877,52.97613],[-2.19888,52.97613],[-2.19888,52.97609],[-2.19887,52.976],[-2.19891,52.976],[-2.1989,52.97591],[-2.19886,52.97592],[-2.19885,52.97586]]]]}},
{ "type":"Feature","properties":{"osm_way_id":"236041919","name":"ALDI","building":"retail","shop":"supermarket","other":{"brand":"ALDI","brand:wikidata":"Q41171672","brand:wikipedia":"en:Aldi","phone":"0844 406 8800","website":"https:\/\/www.aldi.co.uk\/"}}, "geometry":{"type":"MultiPolygon","coordinates":[[[[-2.21016,52.99707],[-2.20982,52.99722],[-2.20977,52.99718],[-2.20941,52.99734],[-2.20971,52.99759],[-2.21005,52.99744],[-2.21011,52.99748],[-2.21048,52.99732],[-2.21016,52.99707]]]]}},
{ "type":"Feature","properties":{"osm_way_id":"249370214","name":"Asda","building":"yes","shop":"supermarket","other":{"addr:country":"GB","addr:postcode":"ST6 4HE","addr:street":"Scotia Road","brand":"Asda","brand:wikidata":"Q297410","brand:wikipedia":"en:Asda","contact:facebook":"https:\/\/www.facebook.com\/asda\/","contact:twitter":"@asda","contact:website":"https:\/\/storelocator.asda.com\/west-midlands\/stoke-on-trent\/scotia-road-tunstall","fhrs:id":"221310","opening_hours":"Mo-Sa 07:00-22:00; Su 11:00-17:00","operator":"Asda Stores Ltd","source:addr":"FHRS Open Data"}}, "geometry":{"type":"MultiPolygon","coordinates":[[[[-2.20021,53.05396],[-2.20003,53.05366],[-2.20042,53.05358],[-2.2006,53.05387],[-2.20021,53.05396]]]]}},
{ "type":"Feature","properties":{"osm_way_id":"251698583","name":"Booker","building":"yes","shop":"supermarket","other":{"addr:postcode":"ST4 4RU","addr:street":"Campbell Road"}}, "geometry":{"type":"MultiPolygon","coordinates":[[[[-2.18389,52.99175],[-2.18338,52.99251],[-2.18467,52.99282],[-2.18521,52.99201],[-2.18428,52.99178],[-2.18424,52.99184],[-2.18389,52.99175]]]]}},
{ "type":"Feature","properties":{"osm_way_id":"255378591","name":"The Food Warehouse","building":"yes","shop":"supermarket","other":{"addr:postcode":"ST1 5QQ","addr:street":"New Century Street","brand":"The Food Warehouse","brand:wikidata":"Q87263899","fhrs:id":"1177111","old_name":"Staples;Office Warehouse","source:addr":"FHRS Open Data"}}, "geometry":{"type":"MultiPolygon","coordinates":[[[[-2.18511,53.02633],[-2.18473,53.02635],[-2.1847,53.02612],[-2.1847,53.02612],[-2.18466,53.02587],[-2.18504,53.02585],[-2.18506,53.02601],[-2.18511,53.02633]]]]}},
{ "type":"Feature","properties":{"osm_way_id":"255391389","name":"Freshways","building":"yes","shop":"supermarket","other":{"addr:housenumber":"280","addr:postcode":"ST6 3HL","addr:street":"Waterloo Road","fhrs:id":"1136823","source:addr":"FHRS Open Data"}}, "geometry":{"type":"MultiPolygon","coordinates":[[[[-2.1893,53.03618],[-2.18983,53.03608],[-2.18984,53.0361],[-2.18992,53.03608],[-2.18996,53.03618],[-2.18988,53.0362],[-2.18991,53.03624],[-2.18938,53.03634],[-2.1893,53.03618]]]]}},
{ "type":"Feature","properties":{"osm_way_id":"306847056","name":"Aldi","building":"yes","shop":"supermarket","other":{"addr:city":"Stoke-On-Trent","addr:postcode":"ST3 7TU","addr:street":"Whittle Road","alt_name":"ALDI Meir","brand":"ALDI","brand:wikidata":"Q41171672","brand:wikipedia":"en:Aldi","fhrs:id":"802482"}}, "geometry":{"type":"MultiPolygon","coordinates":[[[[-2.09,52.9708],[-2.08985,52.97077],[-2.0899,52.9707],[-2.08965,52.97064],[-2.08996,52.97015],[-2.09036,52.97024],[-2.09,52.9708]]]]}},
{ "type":"Feature","properties":{"osm_way_id":"332354549","name":"JTF Mega Discount Warehouse","building":"yes","shop":"supermarket"},"geometry":{"type":"MultiPolygon","coordinates":[[[[-2.1593,52.99715],[-2.15854,52.99655],[-2.15786,52.99687],[-2.15862,52.99746],[-2.1593,52.99715]]]]}},
{ "type":"Feature","properties":{"osm_way_id":"347242575","name":"B&M","building":"yes","shop":"supermarket","other":{"addr:housenumber":"2","addr:postcode":"ST1 1QT","addr:street":"Old Hall Street","fhrs:id":"127021","operator":"B&M","source:addr":"FHRS Open Data"}}, "geometry":{"type":"MultiPolygon","coordinates":[[[[-2.17444,53.02415],[-2.17438,53.02411],[-2.17434,53.02408],[-2.1744,53.02406],[-2.17428,53.02396],[-2.17422,53.02399],[-2.17412,53.02404],[-2.17433,53.02419],[-2.1744,53.02417],[-2.17444,53.02415]]]]}},
{ "type":"Feature","properties":{"osm_way_id":"367874375","name":"Co-op Food","building":"yes","shop":"supermarket","other":{"addr:housenumber":"12-16","addr:postcode":"ST4 3AD","addr:street":"Christchurch Street","brand":"Co-op Food","brand:wikidata":"Q3277439","brand:wikipedia":"en:Co-op Food","fhrs:id":"137004","operator":"The Co-operative Group","source:addr":"FHRS Open Data"}}, "geometry":{"type":"MultiPolygon","coordinates":[[[[-2.16464,52.99893],[-2.16464,52.999],[-2.16455,52.999],[-2.16443,52.999],[-2.16435,52.999],[-2.16434,52.99899],[-2.16431,52.99898],[-2.16431,52.99896],[-2.16428,52.99896],[-2.16427,52.99883],[-2.16463,52.99882],[-2.16464,52.99893]]]]}},
{ "type":"Feature","properties":{"osm_way_id":"385748122","name":"Aldi","building":"yes","shop":"supermarket","other":{"addr:postcode":"ST6 4JU","addr:street":"Brownhills Road","brand":"ALDI","brand:wikidata":"Q41171672","brand:wikipedia":"en:Aldi","fhrs:id":"1056799","source:addr":"FHRS Open Data"}}, "geometry":{"type":"MultiPolygon","coordinates":[[[[-2.20972,53.0544],[-2.20971,53.05467],[-2.20881,53.05466],[-2.2088,53.05457],[-2.20889,53.05457],[-2.2089,53.05438],[-2.20972,53.0544]]]]}},
{ "type":"Feature","properties":{"osm_way_id":"439944755","name":"Lidl","building":"yes","shop":"supermarket","other":{"addr:country":"GB","addr:postcode":"ST6 5EG","addr:street":"High Street","brand":"Lidl","brand:wikidata":"Q151954","fhrs:id":"134307"}}, "geometry":{"type":"MultiPolygon","coordinates":[[[[-2.21182,53.06403],[-2.21225,53.06388],[-2.21192,53.06356],[-2.212,53.06353],[-2.21185,53.06338],[-2.21182,53.06339],[-2.21175,53.06341],[-2.21139,53.06355],[-2.21133,53.06358],[-2.21182,53.06403]]]]}},
{ "type":"Feature","properties":{"osm_way_id":"538372563","name":"Lidl","building":"yes","shop":"supermarket","other":{"addr:postcode":"ST2 0SP","addr:street":"Dividy Road","brand":"Lidl","brand:wikidata":"Q151954","brand:wikipedia":"en:Lidl","fhrs:id":"318305","source:addr":"FHRS Open Data"}}, "geometry":{"type":"MultiPolygon","coordinates":[[[[-2.1228,53.00563],[-2.12308,53.00549],[-2.12317,53.00545],[-2.12382,53.00595],[-2.12371,53.006],[-2.12366,53.00596],[-2.12346,53.00605],[-2.12321,53.00586],[-2.12315,53.00589],[-2.1228,53.00563]]]]}},
{ "type":"Feature","properties":{"osm_way_id":"557448218","name":"The Co-operative","building":"retail","shop":"supermarket","other":{"addr:housenumber":"23-25","addr:postcode":"ST6 8HT","addr:street":"Knypersley Road","fhrs:id":"877990","source:addr":"FHRS Open Data"}}, "geometry":{"type":"MultiPolygon","coordinates":[[[[-2.16147,53.06329],[-2.16135,53.06317],[-2.16155,53.0631],[-2.16141,53.06296],[-2.16152,53.06292],[-2.16178,53.06319],[-2.16167,53.06323],[-2.16147,53.06329]]]]}},
{ "type":"Feature","properties":{"osm_way_id":"563407242","name":"The Co-operative","building":"yes","shop":"supermarket","other":{"addr:housenumber":"170","addr:postcode":"ST3 5SN","addr:street":"Heathcote Street","fhrs:id":"927015","source:addr":"FHRS Open Data"}}, "geometry":{"type":"MultiPolygon","coordinates":[[[[-2.13595,52.998],[-2.13602,52.99826],[-2.13579,52.99828],[-2.13572,52.99802],[-2.13595,52.998]]]]}}
]
}
