{
"type": "FeatureCollection",
"features": [
{ "type":"Feature","properties":{"osm_id":"312763570","name":"Co-op Food","other":{"addr:city":"Honiton","addr:postcode":"EX14 1LR","addr:street":"Lace Walk","brand":"Co-op Food","brand:wikidata":"Q3277439","brand:wikipedia":"en:Co-op Food","shop":"supermarket"}}, "geometry":{"type":"Point","coordinates":[-3.19151,50.7999 ]}},
{ "type":"Feature","properties":{"osm_id":"419131691","highway":"turning_circle"},"geometry":{"type":"Point","coordinates":[-3.39705,50.6787 ]}},
{ "type":"Feature","properties":{"osm_id":"427746852","name":"Tesco Express","other":{"addr:city":"Budleigh Salterton","addr:housenumber":"10","addr:postcode":"EX9 6NG","addr:street":"Fore Street","brand":"Tesco Express","brand:wikidata":"Q98456772","brand:wikipedia":"en:Tesco","contact:website":"https:\/\/www.tesco.com\/store-locator\/budleigh-salterton\/10-fore-street","shop":"supermarket"}}, "geometry":{"type":"Point","coordinates":[-3.32425,50.62907 ]}},
{ "type":"Feature","properties":{"osm_id":"586470736","name":"Spar","other":{"brand":"Spar","brand:wikidata":"Q610492","shop":"supermarket"}}, "geometry":{"type":"Point","coordinates":[-3.28477,50.78692 ]}},
{ "type":"Feature","properties":{"osm_id":"1495113941","name":"Co-op Food","other":{"addr:city":"Exmouth","addr:housenumber":"190B","addr:postcode":"EX8 3EA","addr:street":"Exeter Road","brand":"Co-op Food","brand:wikidata":"Q3277439","brand:wikipedia":"en:Co-op Food","fhrs:id":"700386","operator":"Southern Co-op","shop":"supermarket"}}, "geometry":{"type":"Point","coordinates":[-3.40989,50.63206 ]}},
{ "type":"Feature","properties":{"osm_id":"2710072989","name":"Aldi","other":{"addr:city":"Honiton","addr:postcode":"EX14 1AZ","addr:street":"Exeter Road","alt_name":"ALDI Honiton","brand":"ALDI","brand:wikidata":"Q41171672","brand:wikipedia":"en:Aldi","shop":"supermarket"}}, "geometry":{"type":"Point","coordinates":[-3.20698,50.79509 ]}},
{ "type":"Feature","properties":{"osm_id":"3386257301","name":"Darts Farm","other":{"shop":"supermarket"}}, "geometry":{"type":"Point","coordinates":[-3.44815,50.68603 ]}},
{ "type":"Feature","properties":{"osm_id":"4789079671","name":"Budgens","other":{"addr:city":"Exmouth","addr:housename":"Unit 1-3 Ocean Blue","addr:postcode":"EX8 2AZ","addr:street":"The Esplanade","branch":"Exmouth","brand":"Budgens","brand:wikidata":"Q4985016","opening_hours":"Mo-Su 07:00-21:00","shop":"supermarket"}}, "geometry":{"type":"Point","coordinates":[-3.41039,50.61355 ]}},
{ "type":"Feature","properties":{"osm_id":"5140421080","name":"The Co-operative","other":{"addr:city":"Exeter","addr:housenumber":"147","addr:postcode":"EX5 7DR","addr:street":"Younghayes Road","addr:village":"Cranbrook","contact:website":"https:\/\/stores.thesouthernco-operative.co.uk\/devon\/exeter\/gallops-court.html","level":"0","opening_hours":"Mo-Su 06:30-23:00","phone":"+44 1404 510648","shop":"supermarket","wheelchair":"yes"}}, "geometry":{"type":"Point","coordinates":[-3.41543,50.74753 ]}},
{ "type":"Feature","properties":{"osm_id":"5237215032","other":{"emergency":"defibrillator","indoor":"no","location":"outside Co-op on Otley Road, Lawnswood"}}, "geometry":{"type":"Point","coordinates":[-1.59264,53.85172 ]}},
{ "type":"Feature","properties":{"osm_id":"6170693554","name":"Greendale Farm Shop","other":{"shop":"supermarket"}}, "geometry":{"type":"Point","coordinates":[-3.39869,50.70403 ]}},
{ "type":"Feature","properties":{"osm_id":"7235629137","name":"Morrisons Proposed Site","other":{"shop":"supermarket"}}, "geometry":{"type":"Point","coordinates":[-3.39995,50.75144 ]}},
{ "type":"Feature","properties":{"osm_id":"8898469465","name":"Co-op Food","other":{"addr:city":"Exmouth","addr:housenumber":"3","addr:postcode":"EX8 1HB","addr:street":"Magnolia Walk","branch":"Exmouth - Magnolia Walk","brand":"Co-op Food","brand:wikidata":"Q3277439","brand:wikipedia":"en:Co-op Food","opening_hours":"Mo-Sa 06:00-23:00; Su 10:00-16:00","operator":"The Co-operative","shop":"supermarket","wheelchair":"yes"}}, "geometry":{"type":"Point","coordinates":[-3.4125,50.61951 ]}},
{ "type":"Feature","properties":{"osm_id":"9123152108","name":"Hurford","other":{"shop":"supermarket"}}, "geometry":{"type":"Point","coordinates":[-3.03299,50.77606 ]}},
{ "type":"Feature","properties":{"osm_id":"9178146682","name":"The Co-operative Food","other":{"addr:city":"Budleigh Salterton","addr:housenumber":"21-23","addr:postcode":"EX9 6LD","addr:street":"High Street","designation":"The Co-operative Food","opening_hours":"Mo-Su 07:00-22:00","shop":"supermarket"}}, "geometry":{"type":"Point","coordinates":[-3.32653,50.62935 ]}},
{ "type":"Feature","properties":{"osm_way_id":"26614151","name":"Sainsbury's","building":"retail","shop":"supermarket","other":{"addr:housenumber":"158a","addr:postcode":"SW7 4EJ","addr:street":"Cromwell Road","alt_name":"Sainsbury's Cromwell Road Superstore","brand":"Sainsbury's","brand:wikidata":"Q152096","brand:wikipedia":"en:Sainsbury's","opening_hours":"Mo 07:00-24:00, Tu-Fr 06:00-24:00, Sa 06:00-22:00; Su 11:00-17:00"}}, "geometry":{"type":"MultiPolygon","coordinates":[[[[-0.189,51.49519],[-0.18885,51.49536],[-0.18878,51.49536],[-0.18864,51.49557],[-0.18847,51.49582],[-0.18845,51.49585],[-0.18843,51.49587],[-0.18839,51.49589],[-0.18809,51.49592],[-0.18795,51.49525],[-0.18794,51.49518],[-0.18793,51.49511],[-0.18822,51.49502],[-0.18836,51.49499],[-0.18844,51.49498],[-0.18852,51.49491],[-0.18851,51.4949],[-0.18857,51.49483],[-0.18879,51.4949],[-0.1887,51.49499],[-0.18889,51.49507],[-0.18892,51.49512],[-0.18895,51.49511],[-0.18896,51.49511],[-0.18898,51.49512],[-0.189,51.49515],[-0.189,51.49519]]]]}},
{ "type":"Feature","properties":{"osm_way_id":"32022720","name":"Waitrose","building":"yes","shop":"supermarket","other":{"addr:city":"Sidmouth","addr:postcode":"EX10 9GA","addr:street":"Stowford Rise","alt_name":"Waitrose Sidmouth","brand":"Waitrose & Partners","brand:wikidata":"Q771734","brand:wikipedia":"en:Waitrose & Partners","opening_hours":"Mo-Sa 08:00-21:00; Su 10:00-16:00","operator":"Waitrose & Partners"}}, "geometry":{"type":"MultiPolygon","coordinates":[[[[-3.2448,50.6998],[-3.2447,50.69981],[-3.24471,50.69983],[-3.2444,50.69985],[-3.24441,50.69987],[-3.24428,50.69988],[-3.24427,50.69983],[-3.24418,50.69983],[-3.24406,50.69982],[-3.24406,50.69984],[-3.24386,50.69988],[-3.24395,50.70029],[-3.24481,50.70022],[-3.24474,50.6999],[-3.24482,50.69989],[-3.2448,50.6998]]]]}},
{ "type":"Feature","properties":{"osm_way_id":"123755593","name":"The Co-operative Food","building":"yes","shop":"supermarket","other":{"addr:housenumber":"425","addr:postcode":"LS16 6AJ","addr:street":"Otley Road","brand":"The Co-operative Food","brand:wikidata":"Q107617274","building:levels":"1","fhrs:id":"467447","operator":"The Co-operative Group","phone":"+44 113 267 3060"}}, "geometry":{"type":"MultiPolygon","coordinates":[[[[-1.59282,53.85187],[-1.59253,53.85184],[-1.59257,53.85171],[-1.59264,53.85172],[-1.59286,53.85174],[-1.59282,53.85187]]]]}},
{ "type":"Feature","properties":{"osm_way_id":"133856021","name":"Sainsbury's","building":"yes","shop":"supermarket","other":{"brand":"Sainsbury's","brand:wikidata":"Q152096","brand:wikipedia":"en:Sainsbury's"}}, "geometry":{"type":"MultiPolygon","coordinates":[[[[-3.28127,50.7523],[-3.28148,50.75204],[-3.28142,50.75203],[-3.28147,50.75197],[-3.2815,50.75193],[-3.28157,50.75195],[-3.28163,50.75188],[-3.2818,50.75193],[-3.28178,50.75196],[-3.28253,50.7522],[-3.28234,50.75244],[-3.2821,50.75236],[-3.28201,50.75248],[-3.28147,50.7523],[-3.28143,50.75235],[-3.28127,50.7523]]]]}},
{ "type":"Feature","properties":{"osm_way_id":"134550487","name":"Lidl","building":"yes","shop":"supermarket","other":{"addr:city":"Exmouth","addr:country":"GB","addr:postcode":"EX8 4FG","addr:street":"Dinan Way","branch":"Exmouth","brand":"Lidl","brand:wikidata":"Q151954","fhrs:id":"625275","opening_hours":"Mo-Sa 08:00-21:00; Su 10:00-16:00"}}, "geometry":{"type":"MultiPolygon","coordinates":[[[[-3.38144,50.62921],[-3.38167,50.62911],[-3.38172,50.62916],[-3.38184,50.6291],[-3.38136,50.62866],[-3.38094,50.62884],[-3.38127,50.62915],[-3.38134,50.62912],[-3.38144,50.62921]]]]}},
{ "type":"Feature","properties":{"osm_way_id":"152022622","name":"Tesco","building":"retail","shop":"supermarket","other":{"addr:city":"Seaton","addr:postcode":"EX12 2US","addr:street":"Swan Road","atm":"yes","branch":"Seaton Superstore","brand":"Tesco","brand:wikidata":"Q487494","brand:wikipedia":"en:Tesco","building:levels":"1","opening_hours":"Mo-Sa 07:00-24:00; Su 10:00-16:00","website":"https:\/\/www.tesco.com\/store-locator\/seaton\/harbour-rd","wheelchair":"yes"}}, "geometry":{"type":"MultiPolygon","coordinates":[[[[-3.06752,50.70514],[-3.06628,50.70505],[-3.06618,50.70557],[-3.06622,50.70557],[-3.06616,50.70588],[-3.06635,50.7059],[-3.06637,50.70582],[-3.06644,50.70583],[-3.06645,50.70579],[-3.06638,50.70578],[-3.06639,50.70573],[-3.06707,50.70579],[-3.06705,50.70593],[-3.06727,50.70595],[-3.06733,50.70566],[-3.06736,50.70566],[-3.06743,50.70535],[-3.06748,50.70535],[-3.06752,50.70514]]]]}},
{ "type":"Feature","properties":{"osm_way_id":"160319750","name":"Tesco","building":"retail","shop":"supermarket","other":{"addr:city":"Honiton","addr:postcode":"EX14 2XD","addr:street":"Battishorne Way","alt_name":"Tesco Honiton Superstore","brand":"Tesco","brand:wikidata":"Q487494","brand:wikipedia":"en:Tesco","designation":"Honiton Superstore","opening_hours":"Mo-Sa 06:00-23:00; Su 10:00-16:00","website":"https:\/\/www.tesco.com\/store-locator\/honiton\/battishorne-way","wheelchair":"yes"}}, "geometry":{"type":"MultiPolygon","coordinates":[[[[-3.2025,50.79127],[-3.20154,50.79104],[-3.20162,50.7909],[-3.20168,50.7908],[-3.20176,50.79082],[-3.2017,50.79091],[-3.20184,50.79094],[-3.20206,50.79056],[-3.20224,50.7906],[-3.20227,50.79054],[-3.20258,50.79062],[-3.20289,50.79069],[-3.20288,50.7907],[-3.20281,50.79083],[-3.20278,50.79082],[-3.20276,50.79082],[-3.2025,50.79127]]]]}},
{ "type":"Feature","properties":{"osm_way_id":"160319953","name":"Lidl","building":"yes","shop":"supermarket","other":{"addr:city":"Honiton","addr:postcode":"EX14 1SF","addr:street":"Heathpark Way","alt_name":"LIDL Honiton","brand":"Lidl","brand:wikidata":"Q151954","brand:wikipedia":"en:Lidl","fhrs:id":"625260"}}, "geometry":{"type":"MultiPolygon","coordinates":[[[[-3.21014,50.79343],[-3.2097,50.79307],[-3.20956,50.79314],[-3.2096,50.79317],[-3.20938,50.79328],[-3.20941,50.7933],[-3.20936,50.79333],[-3.20973,50.79363],[-3.21014,50.79343]]]]}},
{ "type":"Feature","properties":{"osm_way_id":"173606280","name":"Tesco","building":"yes","shop":"supermarket","other":{"addr:city":"Axminster","addr:postcode":"EX13 5NG","addr:street":"Shand Park","alt_name":"Tesco Axminster Superstore","brand":"Tesco","brand:wikidata":"Q487494","brand:wikipedia":"en:Tesco","operator":"Tesco"}}, "geometry":{"type":"MultiPolygon","coordinates":[[[[-3.0018,50.78228],[-3.0011,50.78201],[-3.00076,50.78236],[-3.00084,50.7824],[-3.00077,50.78247],[-3.00086,50.78251],[-3.00075,50.78263],[-3.00098,50.78272],[-3.0012,50.78249],[-3.00149,50.7826],[-3.0018,50.78228]]]]}},
{ "type":"Feature","properties":{"osm_way_id":"173609755","name":"The Co-operative Food","building":"yes","shop":"supermarket","other":{"addr:city":"Axminster","addr:postcode":"EX13 5PA","addr:street":"West Street"}}, "geometry":{"type":"MultiPolygon","coordinates":[[[[-2.99991,50.78042],[-2.99967,50.78032],[-2.99962,50.78038],[-2.99947,50.78032],[-2.99919,50.7806],[-2.99957,50.78075],[-2.99991,50.78042]]]]}},
{ "type":"Feature","properties":{"osm_way_id":"173934431","name":"Lidl","building":"yes","shop":"supermarket","other":{"addr:city":"Sidmouth","addr:postcode":"EX10 9UU","addr:street":"Woolbrook Road","alt_name":"LIDL Sidmouth","brand":"Lidl","brand:wikidata":"Q151954","brand:wikipedia":"en:Lidl","fhrs:id":"625720","opening_hours":"Mo-Sa 08:00-21:00; Su 10:00-16:00","wheelchair":"yes"}}, "geometry":{"type":"MultiPolygon","coordinates":[[[[-3.23941,50.69387],[-3.23926,50.69398],[-3.23917,50.69404],[-3.23866,50.69375],[-3.23871,50.69372],[-3.23862,50.69367],[-3.23882,50.69353],[-3.23941,50.69387]]]]}},
{ "type":"Feature","properties":{"osm_way_id":"184331500","name":"Spar","building":"yes","shop":"supermarket","other":{"addr:city":"Honiton","addr:housenumber":"88-90","addr:postcode":"EX14 1JW","addr:street":"High Street","brand":"Spar","brand:wikidata":"Q610492","brand:wikipedia":"en:SPAR (retailer)","designation":"Honiton"}}, "geometry":{"type":"MultiPolygon","coordinates":[[[[-3.18958,50.79939],[-3.18953,50.79927],[-3.18951,50.79928],[-3.18947,50.79922],[-3.18944,50.79905],[-3.18928,50.79906],[-3.18936,50.79929],[-3.18939,50.79929],[-3.18945,50.79942],[-3.18958,50.79939]]]]}},
{ "type":"Feature","properties":{"osm_way_id":"254418049","name":"Tesco","building":"yes","shop":"supermarket","other":{"addr:city":"Exmouth","addr:postcode":"EX8 2TS","addr:street":"Salterton Road","branch":"Exmouth Superstore","brand":"Tesco","brand:wikidata":"Q487494","brand:wikipedia":"en:Tesco","opening_hours":"Mo-Sa 06:00-24:00; Su 10:00-16:00"}}, "geometry":{"type":"MultiPolygon","coordinates":[[[[-3.38654,50.62789],[-3.38632,50.62768],[-3.38642,50.62764],[-3.38645,50.62757],[-3.38629,50.62742],[-3.38619,50.62742],[-3.38611,50.62734],[-3.38609,50.62732],[-3.38532,50.62764],[-3.3853,50.62762],[-3.38509,50.6277],[-3.38546,50.62801],[-3.38543,50.62803],[-3.3853,50.62802],[-3.38537,50.62809],[-3.38503,50.62823],[-3.38522,50.62841],[-3.38575,50.62821],[-3.38572,50.62818],[-3.38643,50.62787],[-3.38647,50.62791],[-3.38654,50.62789]]]]}},
{ "type":"Feature","properties":{"osm_way_id":"269279312","name":"Co-op Food","building":"yes","shop":"supermarket","other":{"addr:city":"Sidmouth","addr:housenumber":"78","addr:postcode":"EX10 8EQ","addr:street":"High Street","alt_name":"The Co-operative Food","brand":"Co-op Food","brand:wikidata":"Q3277439","brand:wikipedia":"en:Co-op Food","operator":"The Co-operative Group","operator:wikidata":"Q117202","operator:wikipedia":"en:The Co-operative Group"}}, "geometry":{"type":"MultiPolygon","coordinates":[[[[-3.2376,50.68146],[-3.23752,50.68135],[-3.23717,50.68146],[-3.23723,50.68153],[-3.2374,50.68148],[-3.23742,50.68151],[-3.2376,50.68146]]]]}},
{ "type":"Feature","properties":{"osm_way_id":"447874868","name":"The Co-operative Food","building":"yes","shop":"supermarket","other":{"addr:city":"Seaton","addr:postcode":"EX12 2PQ","addr:street":"Underfleet Way","atm":"yes","branch":"Seaton - Underfleet","brand":"The Co-operative Food","brand:wikidata":"Q107617274","opening_hours":"Mo-Sa 07:00-22:00; Su 10:00-16:00"}}, "geometry":{"type":"MultiPolygon","coordinates":[[[[-3.06905,50.70504],[-3.06949,50.70469],[-3.06923,50.70455],[-3.06879,50.7049],[-3.06905,50.70504]]]]}},
{ "type":"Feature","properties":{"osm_way_id":"492172648","name":"M&S Foodhall","building":"yes","shop":"supermarket","other":{"brand":"M&S Foodhall","brand:wikidata":"Q714491","brand:wikipedia":"en:Marks & Spencer"}}, "geometry":{"type":"MultiPolygon","coordinates":[[[[-3.41516,50.62156],[-3.41511,50.62127],[-3.41557,50.62123],[-3.4156,50.6214],[-3.41563,50.62153],[-3.41536,50.62155],[-3.41536,50.62155],[-3.41516,50.62156]]]]}},
{ "type":"Feature","properties":{"osm_way_id":"563013359","name":"Spar","building":"yes","shop":"supermarket","other":{"addr:street":"Winchester Close","brand":"Spar","brand:wikidata":"Q610492"}}, "geometry":{"type":"MultiPolygon","coordinates":[[[[-3.28474,50.78702],[-3.28484,50.78693],[-3.28468,50.78686],[-3.28467,50.78688],[-3.28463,50.78686],[-3.28455,50.78694],[-3.28474,50.78702]]]]}},
{ "type":"Feature","properties":{"osm_way_id":"849329785","building":"house"},"geometry":{"type":"MultiPolygon","coordinates":[[[[-3.03004,52.85845],[-3.02993,52.85846],[-3.02991,52.8584],[-3.03002,52.85839],[-3.03004,52.85845]]]]}},
{ "type":"Feature","properties":{"osm_way_id":"1014498520","name":"Co-Op Food","shop":"supermarket","other":{"addr:city":"Exeter","addr:housename":"Pinn House","addr:postcode":"EX1 3BG","addr:street":"Coaker Road","brand":"Co-Op Food","brand:wikidata":"Q3277439","brand:wikipedia":"en:Co-op Food","building:levels":"1","building:part":"retail","fhrs:id":"1206455","level":"0","opening_hours":"Mo-Su 07:00-22:00","opening_hours:url":"https:\/\/www.coop.co.uk\/store-finder\/EX1-3HU\/coaker-road","phone":"+44 1392 469801","source:addr":"FHRS Open Data","wheelchair":"yes"}}, "geometry":{"type":"MultiPolygon","coordinates":[[[[-3.462,50.74618],[-3.46188,50.74613],[-3.46181,50.7461],[-3.46183,50.74607],[-3.46177,50.74605],[-3.46184,50.74599],[-3.46192,50.74591],[-3.46217,50.74602],[-3.462,50.74618]]]]}}
]
}
