{
"type": "FeatureCollection",
"features": [
{ "type":"Feature","properties":{"osm_id":"1439207385","name":"Sainsbury's","other":{"addr:city":"Hounslow","addr:housenumber":"333","addr:postcode":"TW3 3DH","addr:street":"Bath Road","brand":"Sainsbury's","brand:wikidata":"Q152096","brand:wikipedia":"en:Sainsbury's","fhrs:id":"1360941","shop":"supermarket","source:addr":"FHRS Open Data","website":"https:\/\/stores.sainsburys.co.uk\/5065\/hounslow-west-station-local"}}, "geometry":{"type":"Point","coordinates":[-0.38461,51.47267 ]}},
{ "type":"Feature","properties":{"osm_id":"5352806574","name":"Co-op","other":{"addr:city":"Brentford","addr:postcode":"TW8 9GB","addr:street":"Boston Manor Road","fhrs:id":"493077","opening_hours":"Mo-Su 07:00-23:00","operator":"The Co-operative Group","shop":"supermarket"}}, "geometry":{"type":"Point","coordinates":[-0.31438,51.48903 ]}},
{ "type":"Feature","properties":{"osm_id":"5553890959","name":"Sainsbury's Local","other":{"addr:city":"Brentford","addr:housename":"Unit 1, Burgoyne House","addr:postcode":"TW8 0GB","addr:street":"Ealing Road","brand:wikidata":"Q13218434","opening_hours":"Mo-Sa 07:00-23:00, Su 11:00-23:00","operator":"Sainsbury's","shop":"supermarket"}}, "geometry":{"type":"Point","coordinates":[-0.30258,51.49054 ]}},
{ "type":"Feature","properties":{"osm_id":"6151630446","name":"Londis","other":{"addr:city":"Brentford","addr:housename":"Londis, GSK House","addr:housenumber":"980","addr:postcode":"TW8 9GS","addr:street":"Great West Rd","operator":"Londis","shop":"supermarket","source:postcode":"FHRS data"}}, "geometry":{"type":"Point","coordinates":[-0.31686,51.48822 ]}},
{ "type":"Feature","properties":{"osm_id":"6228055948","name":"Co-op","other":{"addr:city":"Isleworth","addr:housenumber":"33","addr:postcode":"TW7 7AL","addr:street":"South Street","fhrs:id":"689477","operator":"The Co-operative Group","shop":"supermarket"}}, "geometry":{"type":"Point","coordinates":[-0.326,51.46843 ]}},
{ "type":"Feature","properties":{"osm_id":"6557110190","name":"CEO African Caribbean Food","other":{"addr:city":"Feltham","addr:housename":"Parkfield Parade","addr:housenumber":"3","addr:postcode":"TW13 4HJ","addr:street":"High Street","cuisine":"african;caribbean","fhrs:id":"1200981","fhrs:local_authority_id":"101912","level":"0","old_name":"Unique Moda","shop":"supermarket","was:shop":"clothes"}}, "geometry":{"type":"Point","coordinates":[-0.41552,51.44008 ]}},
{ "type":"Feature","properties":{"osm_id":"7419127852","name":"Asda","other":{"addr:city":"Isleworth","addr:country":"GB","addr:housename":"Ivybridge Retail Park","addr:postcode":"TW7 7DY","addr:street":"Twickenham Road","addr:unit":"1","brand":"Asda","brand:wikidata":"Q297410","brand:wikipedia":"en:Asda","contact:facebook":"https:\/\/www.facebook.com\/asda\/","contact:twitter":"@asda","contact:website":"https:\/\/storelocator.asda.com\/london\/twickenham\/ivy-bridge-retail-park-twickenham-rd","fhrs:id":"490556","operator":"Asda Stores Ltd","shop":"supermarket"}}, "geometry":{"type":"Point","coordinates":[-0.33182,51.45913 ]}},
{ "type":"Feature","properties":{"osm_id":"7780870532","name":"Asda","other":{"addr:city":"Hounslow","addr:country":"GB","addr:housename":"The Blenheim Centre","addr:postcode":"TW3 1NL","addr:street":"Prince Regent Road","brand":"Asda","brand:wikidata":"Q297410","brand:wikipedia":"en:Asda","fhrs:id":"490362","opening_hours":"Mo-Fr 07:00-24:00; Sa 07:00-22:00; Su 10:30-17:00","operator":"Asda","phone":"+44 20 8607 1010","shop":"supermarket","website":"https:\/\/storelocator.asda.com\/london\/hounslow\/access-from-high-street"}}, "geometry":{"type":"Point","coordinates":[-0.36106,51.47121 ]}},
{ "type":"Feature","properties":{"osm_id":"8252199919","name":"M & A Ghadeer Supermarket","other":{"addr:city":"Hounslow","addr:housenumber":"84","addr:postcode":"TW3 1NH","addr:street":"High Street","fhrs:id":"490448","shop":"supermarket","source:addr":"FHRS Open Data"}}, "geometry":{"type":"Point","coordinates":[-0.35754,51.47002 ]}},
{ "type":"Feature","properties":{"osm_id":"8252199921","name":"Instanbul Grand Bazaar Butcher","other":{"shop":"supermarket"}}, "geometry":{"type":"Point","coordinates":[-0.35775,51.46998 ]}},
{ "type":"Feature","properties":{"osm_id":"8252199923","name":"Safa & Marna Supermarket","other":{"shop":"supermarket"}}, "geometry":{"type":"Point","coordinates":[-0.35803,51.46992 ]}},
{ "type":"Feature","properties":{"osm_id":"8284450440","name":"Costcutter","other":{"brand":"Costcutter","brand:wikidata":"Q5175072","brand:wikipedia":"en:Costcutter","shop":"supermarket"}}, "geometry":{"type":"Point","coordinates":[-0.30998,51.48281 ]}},
{ "type":"Feature","properties":{"osm_id":"9261298160","name":"Ortadogu Supermarket","other":{"addr:city":"Hounslow","addr:housenumber":"51-53","addr:postcode":"TW3 1RB","addr:street":"High Street","fhrs:id":"490388","shop":"supermarket","source:addr":"FHRS Open Data"}}, "geometry":{"type":"Point","coordinates":[-0.3555,51.47024 ]}},
{ "type":"Feature","properties":{"osm_id":"9325741425","name":"Amazon Fresh","other":{"brand":"Amazon Fresh","brand:wikidata":"Q4740834","brand:wikipedia":"en:Amazon Fresh","shop":"supermarket"}}, "geometry":{"type":"Point","coordinates":[-0.35396,51.47105 ]}},
{ "type":"Feature","properties":{"osm_id":"9325741427","name":"USSR Retail","other":{"addr:city":"Hounslow","addr:housenumber":"79-83","addr:postcode":"TW3 1RB","addr:street":"High Street","phone":"+44 20 8814 1578","shop":"supermarket","website":"http:\/\/www.ussrltd.com\/retail\/"}}, "geometry":{"type":"Point","coordinates":[-0.35659,51.46993 ]}},
{ "type":"Feature","properties":{"osm_way_id":"5053285","name":"Tesco","building":"yes","shop":"supermarket","other":{"brand":"Tesco","brand:wikidata":"Q487494","brand:wikipedia":"en:Tesco"}}, "geometry":{"type":"MultiPolygon","coordinates":[[[[-0.4151,51.45884],[-0.41563,51.45882],[-0.41567,51.45898],[-0.41558,51.45901],[-0.41537,51.45895],[-0.41529,51.45897],[-0.41541,51.45909],[-0.41547,51.45907],[-0.41572,51.45916],[-0.41577,51.45922],[-0.41583,51.45921],[-0.41593,51.45935],[-0.41571,51.45943],[-0.41576,51.45948],[-0.41469,51.45987],[-0.41445,51.45962],[-0.41462,51.45956],[-0.41423,51.45919],[-0.4151,51.45884]]]]}},
{ "type":"Feature","properties":{"osm_way_id":"7848031","name":"Tesco Extra","building":"retail","shop":"supermarket","other":{"addr:city":"Isleworth","addr:housename":"Tesco Superstore","addr:postcode":"TW7 7JY","addr:street":"Mogden Lane","brand":"Tesco Extra","brand:wikidata":"Q25172225","brand:wikipedia":"en:Tesco Extra","fhrs:id":"490225","source:addr":"FHRS Open Data","toilets:wheelchair":"yes","website":"https:\/\/www.tesco.com\/store-locator\/isleworth\/mogden-ln","wheelchair":"yes","wheelchair:description":"Disabled toilet filled with bins so impossible to use. Staff very poorly trained with low IQs"}}, "geometry":{"type":"MultiPolygon","coordinates":[[[[-0.3382,51.45956],[-0.33736,51.45971],[-0.33674,51.45874],[-0.33764,51.45854],[-0.3382,51.45956]]]]}},
{ "type":"Feature","properties":{"osm_way_id":"9935799","name":"Tesco Extra","building":"retail","shop":"supermarket","other":{"addr:city":"Isleworth","addr:place":"Osterley Park","addr:postcode":"TW7 5NZ","addr:street":"Syon Lane","brand":"Tesco Extra","brand:wikidata":"Q25172225","brand:wikipedia":"en:Tesco Extra","opening_hours":"Mo-Sa 07:00-22:00; Su 10:00-16:00","operator":"Tesco"}}, "geometry":{"type":"MultiPolygon","coordinates":[[[[-0.3307,51.48629],[-0.33079,51.4861],[-0.33065,51.48607],[-0.331,51.48544],[-0.33095,51.48543],[-0.33051,51.48534],[-0.33028,51.4853],[-0.33013,51.48527],[-0.33012,51.4853],[-0.3298,51.48523],[-0.32971,51.48539],[-0.3294,51.48532],[-0.32934,51.48543],[-0.32944,51.48545],[-0.32939,51.48555],[-0.32932,51.48555],[-0.32931,51.48552],[-0.32925,51.48552],[-0.3293,51.4857],[-0.32928,51.48571],[-0.32929,51.48573],[-0.32922,51.48574],[-0.32915,51.48575],[-0.32917,51.48581],[-0.32917,51.48586],[-0.32927,51.48588],[-0.32925,51.48591],[-0.3298,51.48603],[-0.32977,51.48609],[-0.3307,51.48629]]]]}},
{ "type":"Feature","properties":{"osm_way_id":"22936252","name":"Lidl","building":"commercial","shop":"supermarket","other":{"addr:country":"GB","addr:postcode":"TW14 9BG","addr:street":"New Road","brand":"Lidl","brand:wikidata":"Q151954","brand:wikipedia":"en:Lidl","fhrs:id":"491304"}}, "geometry":{"type":"MultiPolygon","coordinates":[[[[-0.41005,51.44806],[-0.40916,51.44824],[-0.40918,51.44828],[-0.40903,51.44832],[-0.40916,51.44854],[-0.41008,51.44835],[-0.41008,51.44834],[-0.41015,51.44832],[-0.41004,51.44812],[-0.41007,51.44811],[-0.41005,51.44806]]]]}},
{ "type":"Feature","properties":{"osm_way_id":"23404598","name":"Tesco","building":"commercial","shop":"supermarket","other":{"addr:city":"Feltham","addr:housenumber":"98","addr:postcode":"TW13 4EX","addr:street":"High Street","brand":"Tesco","brand:wikidata":"Q487494","brand:wikipedia":"en:Tesco","fhrs:id":"490752","fhrs:local_authority_id":"4","operator":"Tesco Stores Ltd","wheelchair":"yes"}}, "geometry":{"type":"MultiPolygon","coordinates":[[[[-0.41339,51.44423],[-0.41379,51.44364],[-0.41348,51.44355],[-0.41355,51.44347],[-0.413,51.4433],[-0.41282,51.44358],[-0.41262,51.44353],[-0.41254,51.44367],[-0.41258,51.44373],[-0.41263,51.44377],[-0.41252,51.44383],[-0.41246,51.44378],[-0.41235,51.44375],[-0.41232,51.44378],[-0.41228,51.44377],[-0.41221,51.44383],[-0.41246,51.44394],[-0.41253,51.44392],[-0.41261,51.444],[-0.41271,51.44405],[-0.41339,51.44423]]]]}},
{ "type":"Feature","properties":{"osm_way_id":"23484584","name":"Aldi","building":"yes","shop":"supermarket","other":{"addr:city":"Feltham","addr:housenumber":"76-86","addr:postcode":"TW13 4EX","addr:street":"High Street","brand":"ALDI","brand:wikidata":"Q41171672","brand:wikipedia":"en:Aldi","building:levels":"1","fhrs:id":"491006","name:fa":"آلدی","operator":"Aldi Stores Ltd","wheelchair":"yes"}}, "geometry":{"type":"MultiPolygon","coordinates":[[[[-0.41246,51.44396],[-0.41175,51.44366],[-0.41152,51.44387],[-0.41172,51.44396],[-0.41174,51.44394],[-0.41219,51.44413],[-0.41228,51.44404],[-0.41235,51.44407],[-0.41246,51.44396]]]]}},
{ "type":"Feature","properties":{"osm_way_id":"23777663","name":"Morrisons","building":"retail","shop":"supermarket","other":{"addr:city":"Brentford","addr:housenumber":"228-246","addr:postcode":"TW8 0JG","addr:street":"Brentford High Street","alt_name":"Morrisons Brentford","brand":"Morrisons","brand:wikidata":"Q922344","brand:wikipedia":"en:Morrisons","opening_hours":"Mo-Sa 07:00-23:00; Su 10:00-16:00","wheelchair":"yes"}}, "geometry":{"type":"MultiPolygon","coordinates":[[[[-0.30523,51.48378],[-0.30521,51.48371],[-0.30602,51.48359],[-0.30609,51.48381],[-0.30615,51.48394],[-0.3058,51.48407],[-0.30579,51.48405],[-0.30539,51.48419],[-0.30536,51.48415],[-0.30523,51.48402],[-0.30531,51.48399],[-0.30525,51.48383],[-0.30523,51.48378]]]]}},
{ "type":"Feature","properties":{"osm_way_id":"26505418","name":"Asda","shop":"supermarket","other":{"addr:city":"Feltham","addr:country":"GB","addr:housenumber":"4","addr:postcode":"TW13 4BB","addr:street":"Tilley Road","brand":"Asda","brand:wikidata":"Q297410","brand:wikipedia":"en:Asda","building:part":"retail","contact:facebook":"https:\/\/www.facebook.com\/asda\/","contact:twitter":"@asda","contact:website":"https:\/\/storelocator.asda.com\/london\/feltham\/tilley-road","fhrs:id":"490345","fhrs:local_authority_id":"22883","level":"0","operator":"Asda Stores Ltd","wheelchair":"yes"}}, "geometry":{"type":"MultiPolygon","coordinates":[[[[-0.41291,51.44693],[-0.41282,51.44677],[-0.41277,51.4467],[-0.41269,51.44656],[-0.41262,51.44644],[-0.41253,51.4463],[-0.41252,51.44627],[-0.41172,51.44646],[-0.41167,51.44638],[-0.41143,51.44644],[-0.4114,51.44649],[-0.41142,51.44654],[-0.41133,51.44657],[-0.41147,51.44674],[-0.41151,51.44679],[-0.41153,51.44683],[-0.41152,51.44683],[-0.41172,51.44713],[-0.41186,51.44709],[-0.4119,51.44717],[-0.41205,51.44714],[-0.41286,51.44695],[-0.41291,51.44693]]]]}},
{ "type":"Feature","properties":{"osm_way_id":"119451230","name":"Tesco Extra","building":"retail","shop":"supermarket","other":{"alt_name":"Tesco Extra - Bulls Bridge","brand":"Tesco Extra","brand:wikidata":"Q25172225","brand:wikipedia":"en:Tesco Extra"}}, "geometry":{"type":"MultiPolygon","coordinates":[[[[-0.40823,51.49959],[-0.40799,51.49955],[-0.40794,51.49968],[-0.40779,51.49966],[-0.40777,51.4997],[-0.40769,51.49969],[-0.40762,51.49961],[-0.40766,51.4995],[-0.40749,51.49947],[-0.40751,51.49941],[-0.40706,51.49935],[-0.4074,51.49843],[-0.40824,51.49855],[-0.4082,51.49866],[-0.40829,51.49867],[-0.40821,51.49889],[-0.40848,51.49893],[-0.40823,51.49959]]]]}},
{ "type":"Feature","properties":{"osm_way_id":"160474946","name":"Sainsbury's","building":"yes","shop":"supermarket","other":{"addr:city":"London","addr:housenumber":"31","addr:postcode":"W4 5UT","addr:street":"Essex Place","alt_name":"Sainsbury's Chiswick Superstore","brand":"Sainsbury's","brand:wikidata":"Q152096","brand:wikipedia":"en:Sainsbury's"}}, "geometry":{"type":"MultiPolygon","coordinates":[[[[-0.26554,51.49325],[-0.26555,51.49309],[-0.26462,51.49302],[-0.26462,51.49304],[-0.26433,51.49304],[-0.26433,51.49309],[-0.26447,51.49313],[-0.26457,51.49313],[-0.26456,51.49315],[-0.26469,51.49325],[-0.26472,51.49325],[-0.2647,51.49339],[-0.26474,51.4934],[-0.26467,51.49377],[-0.26505,51.49379],[-0.26506,51.49378],[-0.26545,51.4938],[-0.26545,51.49378],[-0.26557,51.49379],[-0.26561,51.49364],[-0.2659,51.4936],[-0.26586,51.49343],[-0.26577,51.49343],[-0.26578,51.4934],[-0.26564,51.49339],[-0.26566,51.49325],[-0.26554,51.49325]]]]}},
{ "type":"Feature","properties":{"osm_way_id":"205145219","name":"Waitrose & Partners","building":"yes","shop":"supermarket","other":{"addr:city":"London","addr:housenumber":"356-362","addr:postcode":"W4 5TA","addr:street":"Chiswick High Road","alt_name":"Waitrose Chiswick","brand":"Waitrose","brand:wikidata":"Q771734","brand:wikipedia":"en:Waitrose & Partners","building:levels":"2","building:material":"brick","official_name":"Waitrose & Partners","operator":"Waitrose & Partners"}}, "geometry":{"type":"MultiPolygon","coordinates":[[[[-0.26301,51.49257],[-0.26334,51.49259],[-0.26331,51.49278],[-0.26323,51.49277],[-0.26322,51.4928],[-0.26328,51.4928],[-0.26325,51.49296],[-0.26296,51.49294],[-0.26282,51.49294],[-0.26283,51.49284],[-0.26284,51.49278],[-0.26296,51.49279],[-0.26297,51.4927],[-0.26299,51.4927],[-0.26301,51.49257]]]]}},
{ "type":"Feature","properties":{"osm_way_id":"205748423","name":"M&S Foodhall","building":"yes","shop":"supermarket","other":{"addr:city":"London","addr:housenumber":"236","addr:postcode":"W4 1PJ","addr:street":"Chiswick High Road","brand":"M&S Foodhall","brand:wikidata":"Q714491","brand:wikipedia":"en:Marks & Spencer","building:levels":"3","building:material":"stone"}}, "geometry":{"type":"MultiPolygon","coordinates":[[[[-0.25783,51.4927],[-0.25811,51.49268],[-0.25815,51.4929],[-0.2582,51.49313],[-0.25808,51.49314],[-0.25798,51.49319],[-0.2579,51.49316],[-0.25788,51.49304],[-0.25783,51.4927]]]]}},
{ "type":"Feature","properties":{"osm_way_id":"205902761","name":"Planet Organic","building":"yes","shop":"supermarket","other":{"addr:housenumber":"201","addr:street":"Chiswick High Road","brand":"Planet Organic","brand:wikidata":"Q24298870","brand:wikipedia":"en:Planet Organic","opening_hours":"Mo-Sa 08:00-21:00; Su 09:00-19:00","organic":"only","phone":"+44 20 8742 8838","website":"https:\/\/www.planetorganic.com\/"}}, "geometry":{"type":"MultiPolygon","coordinates":[[[[-0.2578,51.49232],[-0.25766,51.49234],[-0.25761,51.49222],[-0.25776,51.4922],[-0.2578,51.49232]]]]}},
{ "type":"Feature","properties":{"osm_way_id":"343519562","name":"ALDI","building":"yes","shop":"supermarket","other":{"addr:city":"Hounslow","addr:housename":"Aldi","addr:postcode":"TW3 3HY","addr:street":"Hospital Road","brand":"ALDI","brand:wikidata":"Q41171672","brand:wikipedia":"en:Aldi","fhrs:id":"491058","name:fa":"آلدی","source:addr":"FHRS Open Data"}}, "geometry":{"type":"MultiPolygon","coordinates":[[[[-0.37272,51.46746],[-0.3725,51.4675],[-0.37245,51.4674],[-0.37167,51.46754],[-0.37177,51.46775],[-0.37277,51.46757],[-0.37272,51.46746]]]]}},
{ "type":"Feature","properties":{"osm_way_id":"752987668","name":"Huong Viet","shop":"supermarket","other":{"addr:city":"Feltham","addr:housename":"Cavendish Terrace","addr:housenumber":"2-3","addr:postcode":"TW13 4HE","addr:street":"High Street","building:part":"retail","contact:phone":"+44 20 8890 5336","fhrs:id":"490203","fhrs:local_authority_id":"14550","level":"0"}}, "geometry":{"type":"MultiPolygon","coordinates":[[[[-0.41242,51.44259],[-0.41231,51.44254],[-0.41236,51.4425],[-0.41241,51.44245],[-0.41252,51.4425],[-0.41247,51.44255],[-0.41242,51.44259]]]]}},
{ "type":"Feature","properties":{"osm_way_id":"929290852","name":"Londis","building":"yes","shop":"supermarket","other":{"addr:city":"Hounslow","addr:housenumber":"71","addr:postcode":"TW4 7NW","addr:street":"Salisbury Road","brand":"Londis","brand:wikidata":"Q21008564","brand:wikipedia":"en:Londis (United Kingdom)","fhrs:id":"490309","source:addr":"FHRS Open Data"}}, "geometry":{"type":"MultiPolygon","coordinates":[[[[-0.39687,51.46958],[-0.39683,51.46967],[-0.39663,51.46963],[-0.39667,51.46955],[-0.39687,51.46958]]]]}},
{ "type":"Feature","properties":{"osm_way_id":"1009723056","name":"Desi Supermarket","building":"yes","shop":"supermarket","other":{"addr:city":"Hounslow","addr:housename":"Green Parade","addr:housenumber":"3-4","addr:postcode":"TW3 2EN","addr:street":"Whitton Road","fhrs:id":"490186","source:addr":"FHRS Open Data"}}, "geometry":{"type":"MultiPolygon","coordinates":[[[[-0.36279,51.45792],[-0.3628,51.45802],[-0.36266,51.45802],[-0.36265,51.45792],[-0.36279,51.45792]]]]}},
{ "type":"Feature","properties":{"osm_way_id":"1039087046","name":"Quality Foods - Hounslow","building":"yes","shop":"supermarket","other":{"addr:city":"Hounslow","addr:housenumber":"34-62","addr:postcode":"TW3 3LZ","addr:street":"Staines Road"}}, "geometry":{"type":"MultiPolygon","coordinates":[[[[-0.36746,51.46742],[-0.36812,51.46726],[-0.3681,51.46722],[-0.36817,51.46721],[-0.36814,51.4672],[-0.36808,51.46718],[-0.36804,51.46714],[-0.36803,51.4671],[-0.3674,51.46724],[-0.36735,51.46725],[-0.36746,51.46742]]]]}},
{ "type":"Feature","properties":{"osm_way_id":"1039272718","name":"Lidl","building":"yes","shop":"supermarket","other":{"brand":"Lidl","brand:wikidata":"Q151954","brand:wikipedia":"en:Lidl"}}, "geometry":{"type":"MultiPolygon","coordinates":[[[[-0.37077,51.46804],[-0.37055,51.46753],[-0.37071,51.4675],[-0.37071,51.4675],[-0.37069,51.46746],[-0.37082,51.46744],[-0.37106,51.46799],[-0.37077,51.46804]]]]}}
]
}
