{
"type": "FeatureCollection",
"features": [
{ "type":"Feature","properties":{"osm_id":"3082012089","other":{"addr:city":"Edinburgh","addr:country":"GB","addr:housenumber":"29","addr:street":"Arthur Street"}}, "geometry":{"type":"Point","coordinates":[-3.17862,55.96472 ]}},
{ "type":"Feature","properties":{"osm_id":"3249091705","other":{"addr:city":"Edinburgh","addr:country":"GB","addr:housenumber":"24-26","addr:street":"Coburg Street"}}, "geometry":{"type":"Point","coordinates":[-3.17522,55.97621 ]}},
{ "type":"Feature","properties":{"osm_id":"3354480347","other":{"addr:city":"Edinburgh","addr:country":"GB","addr:housenumber":"69","addr:street":"Marionville Road"}}, "geometry":{"type":"Point","coordinates":[-3.15794,55.95846 ]}},
{ "type":"Feature","properties":{"osm_id":"4195509540","other":{"addr:city":"Edinburgh","addr:country":"GB","addr:housenumber":"56-58","addr:postcode":"EH6 5JX","addr:street":"Bangor Road"}}, "geometry":{"type":"Point","coordinates":[-3.17887,55.97238 ]}},
{ "type":"Feature","properties":{"osm_id":"4208848858","other":{"addr:city":"Edinburgh","addr:country":"GB","addr:housenumber":"12","addr:postcode":"EH6 5BJ","addr:street":"Bonnington Road Lane"}}, "geometry":{"type":"Point","coordinates":[-3.18392,55.97121 ]}},
{ "type":"Feature","properties":{"osm_id":"4208848859","other":{"addr:city":"Edinburgh","addr:country":"GB","addr:housenumber":"12A","addr:postcode":"EH6 5BJ","addr:street":"Bonnington Road Lane"}}, "geometry":{"type":"Point","coordinates":[-3.18426,55.97105 ]}},
{ "type":"Feature","properties":{"osm_id":"4208947705","other":{"addr:city":"Edinburgh","addr:country":"GB","addr:housenumber":"5","addr:postcode":"EH6 5PY","addr:street":"Elizafield"}}, "geometry":{"type":"Point","coordinates":[-3.18541,55.97043 ]}},
{ "type":"Feature","properties":{"osm_id":"4208947706","other":{"addr:city":"Edinburgh","addr:country":"GB","addr:housenumber":"6","addr:postcode":"EH6 5PY","addr:street":"Elizafield"}}, "geometry":{"type":"Point","coordinates":[-3.18547,55.97048 ]}},
{ "type":"Feature","properties":{"osm_id":"4208947707","other":{"addr:city":"Edinburgh","addr:country":"GB","addr:housenumber":"7-8","addr:postcode":"EH6 5PY","addr:street":"Elizafield"}}, "geometry":{"type":"Point","coordinates":[-3.18573,55.9707 ]}},
{ "type":"Feature","properties":{"osm_id":"4208947708","other":{"addr:city":"Edinburgh","addr:country":"GB","addr:housenumber":"9A","addr:postcode":"EH6 5PY","addr:street":"Elizafield"}}, "geometry":{"type":"Point","coordinates":[-3.18574,55.971 ]}},
{ "type":"Feature","properties":{"osm_id":"4208947709","other":{"addr:city":"Edinburgh","addr:country":"GB","addr:housenumber":"9B","addr:postcode":"EH6 5PY","addr:street":"Elizafield"}}, "geometry":{"type":"Point","coordinates":[-3.18591,55.97096 ]}},
{ "type":"Feature","properties":{"osm_id":"4208947710","other":{"addr:city":"Edinburgh","addr:country":"GB","addr:housenumber":"9C","addr:postcode":"EH6 5PY","addr:street":"Elizafield"}}, "geometry":{"type":"Point","coordinates":[-3.18607,55.97093 ]}},
{ "type":"Feature","properties":{"osm_id":"4208947711","other":{"addr:city":"Edinburgh","addr:country":"GB","addr:housenumber":"9D","addr:postcode":"EH6 5PY","addr:street":"Elizafield"}}, "geometry":{"type":"Point","coordinates":[-3.18602,55.97073 ]}},
{ "type":"Feature","properties":{"osm_id":"4221766390","other":{"addr:city":"Edinburgh","addr:country":"GB","addr:housenumber":"4b","addr:postcode":"EH6 5RQ","addr:street":"Stewartfield"}}, "geometry":{"type":"Point","coordinates":[-3.18817,55.96984 ]}},
{ "type":"Feature","properties":{"osm_id":"4233747994","other":{"addr:city":"Edinburgh","addr:country":"GB","addr:housenumber":"128","addr:postcode":"EH6 4DD","addr:street":"Pitt Street"}}, "geometry":{"type":"Point","coordinates":[-3.18399,55.97352 ]}},
{ "type":"Feature","properties":{"osm_id":"4235268583","other":{"addr:city":"Edinburgh","addr:country":"GB","addr:housenumber":"145","addr:postcode":"EH6 4DE","addr:street":"Pitt Street"}}, "geometry":{"type":"Point","coordinates":[-3.18324,55.9738 ]}},
{ "type":"Feature","properties":{"osm_id":"7403321886","other":{"addr:city":"Edinburgh","addr:housenumber":"58","addr:postcode":"EH9 2NH","addr:street":"Mayfield Road"}}, "geometry":{"type":"Point","coordinates":[-3.17659,55.93064 ]}},
{ "type":"Feature","properties":{"osm_id":"7542537806","other":{"addr:city":"Edinburgh","addr:housenumber":"171","addr:street":"Turnhouse Road"}}, "geometry":{"type":"Point","coordinates":[-3.34911,55.95141 ]}},
{ "type":"Feature","properties":{"osm_id":"8354672890","other":{"addr:city":"Edinburgh","addr:housenumber":"4A","addr:postcode":"EH6 5RQ","addr:street":"Stewartfield"}}, "geometry":{"type":"Point","coordinates":[-3.18774,55.97007 ]}},
{ "type":"Feature","properties":{"osm_way_id":"26966815","name":"Shed 2","building":"warehouse","other":{"building:levels":"1"}}, "geometry":{"type":"MultiPolygon","coordinates":[[[[-3.17066,55.98196],[-3.17093,55.98171],[-3.17195,55.98207],[-3.17168,55.98231],[-3.17066,55.98196]]]]}},
{ "type":"Feature","properties":{"osm_way_id":"26966830","name":"Shed 1","building":"warehouse"},"geometry":{"type":"MultiPolygon","coordinates":[[[[-3.17214,55.98245],[-3.17253,55.98229],[-3.17327,55.98287],[-3.17288,55.98302],[-3.17214,55.98245]]]]}},
{ "type":"Feature","properties":{"osm_way_id":"26966839","name":"Shed 9","building":"warehouse"},"geometry":{"type":"MultiPolygon","coordinates":[[[[-3.157,55.97851],[-3.15731,55.97825],[-3.15993,55.97919],[-3.16032,55.97976],[-3.15984,55.97986],[-3.15957,55.97948],[-3.15929,55.97939],[-3.15934,55.97934],[-3.157,55.97851]]]]}},
{ "type":"Feature","properties":{"osm_way_id":"27889671","building":"warehouse"},"geometry":{"type":"MultiPolygon","coordinates":[[[[-3.42186,55.9303],[-3.41978,55.93098],[-3.41905,55.93028],[-3.42113,55.92961],[-3.42186,55.9303]]]]}},
{ "type":"Feature","properties":{"osm_way_id":"27889678","building":"warehouse"},"geometry":{"type":"MultiPolygon","coordinates":[[[[-3.41888,55.93111],[-3.41747,55.93142],[-3.41713,55.93093],[-3.41854,55.93062],[-3.41888,55.93111]]]]}},
{ "type":"Feature","properties":{"osm_way_id":"27889693","building":"warehouse"},"geometry":{"type":"MultiPolygon","coordinates":[[[[-3.41528,55.93222],[-3.41402,55.93249],[-3.41377,55.93213],[-3.41366,55.93216],[-3.4135,55.93193],[-3.41404,55.93181],[-3.41414,55.93196],[-3.41418,55.93202],[-3.41414,55.93203],[-3.41415,55.93205],[-3.41503,55.93186],[-3.41528,55.93222]]]]}},
{ "type":"Feature","properties":{"osm_way_id":"27889708","building":"warehouse"},"geometry":{"type":"MultiPolygon","coordinates":[[[[-3.41671,55.93316],[-3.41662,55.93318],[-3.41672,55.93332],[-3.41658,55.93335],[-3.41637,55.93332],[-3.41632,55.93333],[-3.41627,55.93325],[-3.41631,55.93324],[-3.41624,55.93314],[-3.41617,55.93316],[-3.41615,55.93314],[-3.41607,55.93316],[-3.41601,55.93308],[-3.41599,55.93309],[-3.41591,55.93298],[-3.41557,55.93305],[-3.41548,55.93293],[-3.41563,55.9329],[-3.41552,55.93273],[-3.41629,55.93256],[-3.41671,55.93316]]]]}},
{ "type":"Feature","properties":{"osm_way_id":"27889710","building":"warehouse"},"geometry":{"type":"MultiPolygon","coordinates":[[[[-3.41299,55.93207],[-3.41215,55.93234],[-3.41249,55.93268],[-3.41245,55.93269],[-3.41284,55.93307],[-3.41314,55.93297],[-3.41299,55.93283],[-3.41306,55.93281],[-3.41285,55.9326],[-3.41336,55.93244],[-3.41339,55.93246],[-3.41353,55.93241],[-3.41331,55.9322],[-3.41325,55.93223],[-3.41314,55.93212],[-3.41307,55.93214],[-3.41299,55.93207]]]]}},
{ "type":"Feature","properties":{"osm_way_id":"27889731","building":"warehouse"},"geometry":{"type":"MultiPolygon","coordinates":[[[[-3.41127,55.93278],[-3.41112,55.93285],[-3.4112,55.93289],[-3.41133,55.93282],[-3.41168,55.93305],[-3.41214,55.93282],[-3.41154,55.93244],[-3.41108,55.93266],[-3.41127,55.93278]]]]}},
{ "type":"Feature","properties":{"osm_way_id":"28555301","name":"Finix","building":"warehouse"},"geometry":{"type":"MultiPolygon","coordinates":[[[[-3.14492,55.93487],[-3.14525,55.93458],[-3.14503,55.9345],[-3.1447,55.9348],[-3.14492,55.93487]]]]}},
{ "type":"Feature","properties":{"osm_way_id":"28555304","name":"CEF","building":"warehouse"},"geometry":{"type":"MultiPolygon","coordinates":[[[[-3.14554,55.93509],[-3.14584,55.9348],[-3.14563,55.93473],[-3.14532,55.93501],[-3.14554,55.93509]]]]}},
{ "type":"Feature","properties":{"osm_way_id":"28555307","name":"St Andrews Timber Supplies","building":"warehouse"},"geometry":{"type":"MultiPolygon","coordinates":[[[[-3.14632,55.93496],[-3.14617,55.9351],[-3.14576,55.93497],[-3.14591,55.93482],[-3.14632,55.93496]]]]}},
{ "type":"Feature","properties":{"osm_way_id":"28555328","building":"warehouse"},"geometry":{"type":"MultiPolygon","coordinates":[[[[-3.14846,55.93372],[-3.14872,55.93348],[-3.14829,55.93334],[-3.14803,55.93357],[-3.14846,55.93372]]]]}},
{ "type":"Feature","properties":{"osm_way_id":"28555331","name":"Summerhall Direct","building":"warehouse"},"geometry":{"type":"MultiPolygon","coordinates":[[[[-3.14737,55.93338],[-3.14772,55.93306],[-3.1472,55.93288],[-3.14707,55.93299],[-3.14697,55.93296],[-3.14683,55.93308],[-3.14714,55.93319],[-3.14708,55.93324],[-3.14735,55.93333],[-3.14732,55.93336],[-3.14737,55.93338]]]]}},
{ "type":"Feature","properties":{"osm_way_id":"28826749","building":"warehouse"},"geometry":{"type":"MultiPolygon","coordinates":[[[[-3.14536,55.93402],[-3.14548,55.93391],[-3.14495,55.93372],[-3.14482,55.93383],[-3.14536,55.93402]]]]}},
{ "type":"Feature","properties":{"osm_way_id":"28826770","building":"warehouse"},"geometry":{"type":"MultiPolygon","coordinates":[[[[-3.14427,55.93423],[-3.14411,55.93418],[-3.14461,55.93373],[-3.14477,55.93378],[-3.14427,55.93423]]]]}},
{ "type":"Feature","properties":{"osm_way_id":"28826786","building":"warehouse"},"geometry":{"type":"MultiPolygon","coordinates":[[[[-3.1447,55.93437],[-3.14494,55.93415],[-3.14513,55.93422],[-3.1449,55.93444],[-3.1447,55.93437]]]]}},
{ "type":"Feature","properties":{"osm_way_id":"28826805","name":"Express Removals","building":"warehouse"},"geometry":{"type":"MultiPolygon","coordinates":[[[[-3.14465,55.9347],[-3.14488,55.93448],[-3.1441,55.93422],[-3.14387,55.93444],[-3.14465,55.9347]]]]}},
{ "type":"Feature","properties":{"osm_way_id":"28826808","name":"Howden Joinery","building":"warehouse"},"geometry":{"type":"MultiPolygon","coordinates":[[[[-3.14423,55.93484],[-3.144,55.93506],[-3.14339,55.93485],[-3.14362,55.93463],[-3.14423,55.93484]]]]}},
{ "type":"Feature","properties":{"osm_way_id":"28826820","building":"warehouse"},"geometry":{"type":"MultiPolygon","coordinates":[[[[-3.14374,55.93532],[-3.14351,55.93553],[-3.14288,55.93532],[-3.14311,55.9351],[-3.14374,55.93532]]]]}},
{ "type":"Feature","properties":{"osm_way_id":"28827146","building":"warehouse"},"geometry":{"type":"MultiPolygon","coordinates":[[[[-3.14535,55.93524],[-3.14489,55.93508],[-3.14448,55.93546],[-3.14494,55.93562],[-3.14535,55.93524]]]]}},
{ "type":"Feature","properties":{"osm_way_id":"29493297","building":"warehouse"},"geometry":{"type":"MultiPolygon","coordinates":[[[[-3.13324,55.96601],[-3.13217,55.96527],[-3.13257,55.96509],[-3.13364,55.96583],[-3.13324,55.96601]]]]}},
{ "type":"Feature","properties":{"osm_way_id":"29493304","building":"warehouse"},"geometry":{"type":"MultiPolygon","coordinates":[[[[-3.13205,55.96512],[-3.13163,55.96434],[-3.13212,55.96426],[-3.13254,55.96504],[-3.13205,55.96512]]]]}},
{ "type":"Feature","properties":{"osm_way_id":"29493325","name":"Screwfix","building":"warehouse","shop":"doityourself","other":{"brand":"Screwfix","brand:wikidata":"Q7439115","brand:wikipedia":"en:Screwfix"}}, "geometry":{"type":"MultiPolygon","coordinates":[[[[-3.13158,55.96369],[-3.1318,55.96387],[-3.13081,55.96424],[-3.13059,55.96406],[-3.13158,55.96369]]]]}},
{ "type":"Feature","properties":{"osm_way_id":"29493340","building":"warehouse"},"geometry":{"type":"MultiPolygon","coordinates":[[[[-3.13098,55.96304],[-3.1312,55.96322],[-3.13009,55.96364],[-3.12986,55.96346],[-3.12964,55.96327],[-3.13075,55.96285],[-3.13098,55.96304]]]]}},
{ "type":"Feature","properties":{"osm_way_id":"29493402","building":"warehouse"},"geometry":{"type":"MultiPolygon","coordinates":[[[[-3.12935,55.96304],[-3.12843,55.96227],[-3.12912,55.96202],[-3.13004,55.96278],[-3.12935,55.96304]]]]}},
{ "type":"Feature","properties":{"osm_way_id":"29493418","building":"warehouse"},"geometry":{"type":"MultiPolygon","coordinates":[[[[-3.128,55.96167],[-3.12795,55.96163],[-3.12823,55.96152],[-3.12861,55.96182],[-3.12865,55.96185],[-3.12837,55.96196],[-3.12836,55.96195],[-3.128,55.96167]]]]}},
{ "type":"Feature","properties":{"osm_way_id":"37865963","name":"Network Rail","building":"warehouse"},"geometry":{"type":"MultiPolygon","coordinates":[[[[-3.30076,55.93103],[-3.30037,55.93108],[-3.30011,55.93035],[-3.30046,55.93031],[-3.30043,55.93023],[-3.3006,55.93021],[-3.30071,55.9305],[-3.30057,55.93051],[-3.30076,55.93103]]]]}},
{ "type":"Feature","properties":{"osm_way_id":"40752338","name":"CEC\/NHS Lothian Community Equipment Store","building":"warehouse"},"geometry":{"type":"MultiPolygon","coordinates":[[[[-3.1441,55.93606],[-3.14461,55.93558],[-3.14404,55.93539],[-3.14353,55.93587],[-3.1441,55.93606]]]]}},
{ "type":"Feature","properties":{"osm_way_id":"53163147","name":"TNT Edinburgh Airport","building":"warehouse","other":{"operator":"TNT"}}, "geometry":{"type":"MultiPolygon","coordinates":[[[[-3.35009,55.95055],[-3.34942,55.95129],[-3.34947,55.95131],[-3.34959,55.95134],[-3.34944,55.9515],[-3.34911,55.95141],[-3.34875,55.95131],[-3.34889,55.95115],[-3.34906,55.9512],[-3.3491,55.95121],[-3.34978,55.95046],[-3.35009,55.95055]]]]}},
{ "type":"Feature","properties":{"osm_way_id":"90714447","name":"Sports Warehouse","building":"warehouse","shop":"sports","other":{"addr:city":"Edinburgh","addr:housenumber":"24-26","addr:street":"Coburg Street"}}, "geometry":{"type":"MultiPolygon","coordinates":[[[[-3.17553,55.97641],[-3.17538,55.97618],[-3.17522,55.97621],[-3.17498,55.97626],[-3.17513,55.97649],[-3.17524,55.97647],[-3.17547,55.97642],[-3.17553,55.97641]]]]}},
{ "type":"Feature","properties":{"osm_way_id":"102440471","building":"warehouse"},"geometry":{"type":"MultiPolygon","coordinates":[[[[-3.18609,55.97009],[-3.18568,55.97024],[-3.18617,55.97066],[-3.18641,55.97057],[-3.18668,55.97048],[-3.18663,55.97045],[-3.18609,55.97009]]]]}},
{ "type":"Feature","properties":{"osm_way_id":"106272108","building":"warehouse"},"geometry":{"type":"MultiPolygon","coordinates":[[[[-3.2101,55.96968],[-3.20989,55.96947],[-3.20963,55.96955],[-3.20984,55.96976],[-3.2101,55.96968]]]]}},
{ "type":"Feature","properties":{"osm_way_id":"120957814","building":"warehouse"},"geometry":{"type":"MultiPolygon","coordinates":[[[[-3.18343,55.97378],[-3.18355,55.974],[-3.18343,55.97402],[-3.18319,55.97406],[-3.18303,55.97389],[-3.183,55.97384],[-3.18324,55.9738],[-3.18343,55.97378]]]]}},
{ "type":"Feature","properties":{"osm_way_id":"124073778","building":"warehouse","other":{"addr:city":"Edinburgh","addr:housenumber":"1-7","addr:street":"Sandport Place"}}, "geometry":{"type":"MultiPolygon","coordinates":[[[[-3.17354,55.97552],[-3.17345,55.97541],[-3.17277,55.97545],[-3.17286,55.97556],[-3.17317,55.97576],[-3.17318,55.97576],[-3.17327,55.97573],[-3.17341,55.97569],[-3.17344,55.97569],[-3.17334,55.97558],[-3.17354,55.97552]]]]}},
{ "type":"Feature","properties":{"osm_way_id":"124339976","building":"warehouse"},"geometry":{"type":"MultiPolygon","coordinates":[[[[-3.41797,55.93012],[-3.41683,55.93037],[-3.4168,55.93032],[-3.41669,55.93035],[-3.41657,55.93017],[-3.41667,55.93015],[-3.41642,55.92979],[-3.41756,55.92954],[-3.41797,55.93012]]]]}},
{ "type":"Feature","properties":{"osm_way_id":"124339985","building":"warehouse"},"geometry":{"type":"MultiPolygon","coordinates":[[[[-3.41819,55.92849],[-3.41678,55.92871],[-3.4168,55.92876],[-3.41661,55.92879],[-3.41659,55.92875],[-3.41605,55.92883],[-3.41609,55.9289],[-3.41553,55.92898],[-3.4155,55.92891],[-3.41539,55.92893],[-3.41524,55.92864],[-3.41545,55.92861],[-3.41541,55.92853],[-3.41635,55.92839],[-3.41639,55.92846],[-3.41805,55.92821],[-3.41819,55.92849]]]]}},
{ "type":"Feature","properties":{"osm_way_id":"133789455","building":"warehouse"},"geometry":{"type":"MultiPolygon","coordinates":[[[[-3.18712,55.96554],[-3.18701,55.96559],[-3.18657,55.9653],[-3.18602,55.96556],[-3.1859,55.96548],[-3.18657,55.96517],[-3.18707,55.9655],[-3.18712,55.96554]]]]}},
{ "type":"Feature","properties":{"osm_way_id":"143444160","building":"warehouse"},"geometry":{"type":"MultiPolygon","coordinates":[[[[-3.18927,55.9697],[-3.1896,55.96968],[-3.18961,55.96979],[-3.18929,55.9698],[-3.18927,55.9697]]]]}},
{ "type":"Feature","properties":{"osm_way_id":"143444162","building":"warehouse"},"geometry":{"type":"MultiPolygon","coordinates":[[[[-3.1896,55.96968],[-3.18977,55.96968],[-3.18978,55.96982],[-3.18962,55.96983],[-3.18961,55.96979],[-3.1896,55.96968]]]]}},
{ "type":"Feature","properties":{"osm_way_id":"152497861","building":"warehouse"},"geometry":{"type":"MultiPolygon","coordinates":[[[[-3.17765,55.93467],[-3.17755,55.93455],[-3.17784,55.93447],[-3.17789,55.93452],[-3.17794,55.93458],[-3.17765,55.93467]]]]}},
{ "type":"Feature","properties":{"osm_way_id":"152497866","building":"warehouse"},"geometry":{"type":"MultiPolygon","coordinates":[[[[-3.17803,55.93438],[-3.17825,55.93433],[-3.17831,55.93432],[-3.17849,55.93428],[-3.17872,55.93454],[-3.17858,55.93457],[-3.17849,55.93459],[-3.17804,55.93468],[-3.17803,55.93468],[-3.17794,55.93458],[-3.17789,55.93452],[-3.17784,55.93447],[-3.17781,55.93443],[-3.17803,55.93438]]]]}},
{ "type":"Feature","properties":{"osm_way_id":"166454574","building":"warehouse","other":{"old_name":"Taoist Tai Chi Centre"}}, "geometry":{"type":"MultiPolygon","coordinates":[[[[-3.15866,55.95842],[-3.15861,55.95849],[-3.15808,55.95836],[-3.15803,55.95834],[-3.15794,55.95846],[-3.15782,55.95861],[-3.15897,55.9589],[-3.15923,55.95858],[-3.15866,55.95842]]]]}},
{ "type":"Feature","properties":{"osm_way_id":"215401357","building":"warehouse"},"geometry":{"type":"MultiPolygon","coordinates":[[[[-3.20039,55.91023],[-3.20032,55.91032],[-3.19996,55.91024],[-3.20003,55.91015],[-3.20039,55.91023]]]]}},
{ "type":"Feature","properties":{"osm_way_id":"232369359","name":"The Warehouse Sound Services Ltd","building":"warehouse","other":{"addr:city":"Edinburgh","addr:housenumber":"23","addr:street":"Water Street","building:levels":"4","smoking":"no","website":"https:\/\/www.warehousesound.co.uk\/","wheelchair":"yes"}}, "geometry":{"type":"MultiPolygon","coordinates":[[[[-3.16977,55.97542],[-3.16971,55.97547],[-3.16969,55.97548],[-3.16962,55.97555],[-3.16934,55.97545],[-3.16937,55.97543],[-3.16933,55.97541],[-3.16945,55.97531],[-3.16969,55.97539],[-3.16977,55.97542]]]]}},
{ "type":"Feature","properties":{"osm_way_id":"256676772","building":"warehouse"},"geometry":{"type":"MultiPolygon","coordinates":[[[[-3.17894,55.97232],[-3.17887,55.97238],[-3.17866,55.97256],[-3.17928,55.97278],[-3.17956,55.97254],[-3.17894,55.97232]]]]}},
{ "type":"Feature","properties":{"osm_way_id":"279541941","building":"warehouse"},"geometry":{"type":"MultiPolygon","coordinates":[[[[-3.19224,55.95867],[-3.19213,55.9587],[-3.19211,55.95868],[-3.19201,55.95853],[-3.19213,55.95851],[-3.19224,55.95867]]]]}},
{ "type":"Feature","properties":{"osm_way_id":"279766286","building":"warehouse"},"geometry":{"type":"MultiPolygon","coordinates":[[[[-3.19192,55.95825],[-3.192,55.95825],[-3.1921,55.95825],[-3.19209,55.9583],[-3.19206,55.95836],[-3.19199,55.95836],[-3.19192,55.95825]]]]}},
{ "type":"Feature","properties":{"osm_way_id":"288858037","building":"warehouse"},"geometry":{"type":"MultiPolygon","coordinates":[[[[-3.18826,55.9698],[-3.18817,55.96984],[-3.18791,55.96998],[-3.18774,55.97007],[-3.18768,55.9701],[-3.18755,55.97002],[-3.18741,55.96994],[-3.188,55.96964],[-3.18826,55.9698]]]]}},
{ "type":"Feature","properties":{"osm_way_id":"294418249","building":"warehouse"},"geometry":{"type":"MultiPolygon","coordinates":[[[[-3.18617,55.96362],[-3.18628,55.96357],[-3.1865,55.9637],[-3.18595,55.96398],[-3.18587,55.96393],[-3.18583,55.96395],[-3.18569,55.96387],[-3.18572,55.96386],[-3.18574,55.96384],[-3.18585,55.96379],[-3.18609,55.96366],[-3.18612,55.96368],[-3.1862,55.96363],[-3.18617,55.96362]]]]}},
{ "type":"Feature","properties":{"osm_way_id":"303765858","name":"Edinburgh Free Church Continuing","amenity":"place_of_worship","building":"warehouse","other":{"addr:city":"Edinburgh","addr:housename":"Arthur Street Church","addr:housenumber":"29","addr:postcode":"EH6 5DA","addr:street":"Arthur Street","denomination":"presbyterian","phone":"+44 131 202 6771","religion":"christian","website":"http:\/\/edinburghfreechurchcontinuing.com\/"}}, "geometry":{"type":"MultiPolygon","coordinates":[[[[-3.17877,55.96466],[-3.17862,55.96472],[-3.17848,55.96477],[-3.17837,55.96469],[-3.17867,55.96457],[-3.17868,55.96459],[-3.17877,55.96466]]]]}},
{ "type":"Feature","properties":{"osm_way_id":"317941927","building":"warehouse"},"geometry":{"type":"MultiPolygon","coordinates":[[[[-3.18927,55.96972],[-3.18917,55.96973],[-3.18917,55.9697],[-3.18926,55.9697],[-3.18927,55.96972]]]]}},
{ "type":"Feature","properties":{"osm_way_id":"317941928","building":"warehouse"},"geometry":{"type":"MultiPolygon","coordinates":[[[[-3.18908,55.96984],[-3.18914,55.9698],[-3.18914,55.96979],[-3.18906,55.96973],[-3.18898,55.96977],[-3.18908,55.96984]]]]}},
{ "type":"Feature","properties":{"osm_way_id":"317941929","building":"warehouse"},"geometry":{"type":"MultiPolygon","coordinates":[[[[-3.18898,55.96977],[-3.18863,55.96994],[-3.18875,55.97001],[-3.18913,55.97026],[-3.18918,55.97029],[-3.18939,55.97019],[-3.18914,55.97003],[-3.18912,55.97004],[-3.18896,55.96993],[-3.18911,55.96986],[-3.18908,55.96984],[-3.18898,55.96977]]]]}},
{ "type":"Feature","properties":{"osm_way_id":"318399288","name":"Unit 9D","building":"warehouse","other":{"addr:city":"Edinburgh","addr:housename":"Bonnington Industrial Estate, Elizafield","addr:postcode":"EH6 5PY","addr:street":"Newhaven Road"}}, "geometry":{"type":"MultiPolygon","coordinates":[[[[-3.18614,55.97091],[-3.18602,55.97073],[-3.18646,55.97064],[-3.1865,55.9707],[-3.18653,55.97074],[-3.18656,55.97079],[-3.18658,55.97082],[-3.18656,55.97082],[-3.18645,55.97084],[-3.18625,55.97089],[-3.18614,55.97091]]]]}},
{ "type":"Feature","properties":{"osm_way_id":"318399290","building":"warehouse"},"geometry":{"type":"MultiPolygon","coordinates":[[[[-3.18625,55.97089],[-3.18633,55.971],[-3.18574,55.97113],[-3.18566,55.97102],[-3.18574,55.971],[-3.18591,55.97096],[-3.18607,55.97093],[-3.18614,55.97091],[-3.18625,55.97089]]]]}},
{ "type":"Feature","properties":{"osm_way_id":"348557704","building":"warehouse"},"geometry":{"type":"MultiPolygon","coordinates":[[[[-3.12836,55.96195],[-3.12816,55.96203],[-3.1278,55.96175],[-3.128,55.96167],[-3.12836,55.96195]]]]}},
{ "type":"Feature","properties":{"osm_way_id":"394374006","building":"warehouse"},"geometry":{"type":"MultiPolygon","coordinates":[[[[-3.18368,55.97347],[-3.18372,55.97356],[-3.18399,55.97352],[-3.18408,55.97351],[-3.18403,55.9734],[-3.18368,55.97347]]]]}},
{ "type":"Feature","properties":{"osm_way_id":"419306435","building":"warehouse"},"geometry":{"type":"MultiPolygon","coordinates":[[[[-3.17989,55.93434],[-3.1796,55.93441],[-3.17945,55.93445],[-3.17937,55.93436],[-3.17932,55.9343],[-3.17977,55.93419],[-3.17989,55.93434]]]]}},
{ "type":"Feature","properties":{"osm_way_id":"421040515","building":"warehouse"},"geometry":{"type":"MultiPolygon","coordinates":[[[[-3.18363,55.97133],[-3.18388,55.97151],[-3.18412,55.97168],[-3.18451,55.97151],[-3.1847,55.97142],[-3.18452,55.97129],[-3.18461,55.97125],[-3.1843,55.97104],[-3.18426,55.97105],[-3.18402,55.97116],[-3.18392,55.97121],[-3.18363,55.97133]]]]}},
{ "type":"Feature","properties":{"osm_way_id":"421056809","building":"warehouse"},"geometry":{"type":"MultiPolygon","coordinates":[[[[-3.18544,55.97046],[-3.18541,55.97043],[-3.18531,55.97035],[-3.18489,55.9705],[-3.18502,55.97061],[-3.1853,55.97051],[-3.18544,55.97046]]]]}},
{ "type":"Feature","properties":{"osm_way_id":"421056810","building":"warehouse"},"geometry":{"type":"MultiPolygon","coordinates":[[[[-3.18502,55.97061],[-3.18515,55.97072],[-3.18543,55.97062],[-3.18557,55.97057],[-3.18547,55.97048],[-3.18544,55.97046],[-3.1853,55.97051],[-3.18502,55.97061]]]]}},
{ "type":"Feature","properties":{"osm_way_id":"421056811","building":"warehouse"},"geometry":{"type":"MultiPolygon","coordinates":[[[[-3.18557,55.97057],[-3.18543,55.97062],[-3.18515,55.97072],[-3.18528,55.97084],[-3.18542,55.97095],[-3.18552,55.97091],[-3.18583,55.97079],[-3.18582,55.97078],[-3.18573,55.9707],[-3.1857,55.97068],[-3.18557,55.97057]]]]}},
{ "type":"Feature","properties":{"osm_way_id":"707696982","building":"warehouse"},"geometry":{"type":"MultiPolygon","coordinates":[[[[-3.14667,55.93266],[-3.14598,55.93241],[-3.14626,55.93215],[-3.14696,55.93241],[-3.14667,55.93266]]]]}},
{ "type":"Feature","properties":{"osm_way_id":"777470252","building":"warehouse"},"geometry":{"type":"MultiPolygon","coordinates":[[[[-3.13059,55.96406],[-3.13037,55.96388],[-3.13136,55.96351],[-3.13158,55.96369],[-3.13059,55.96406]]]]}},
{ "type":"Feature","properties":{"osm_way_id":"791914943","name":"Edinburgh Roofing Services","building":"warehouse","other":{"addr:city":"Edinburgh","addr:housenumber":"58","addr:postcode":"EH9 2NH","addr:street":"Mayfield Road"}}, "geometry":{"type":"MultiPolygon","coordinates":[[[[-3.17661,55.93067],[-3.17659,55.93064],[-3.17657,55.93062],[-3.17663,55.93061],[-3.17667,55.93066],[-3.17661,55.93067]]]]}},
{ "type":"Feature","properties":{"osm_way_id":"813384410","building":"warehouse"},"geometry":{"type":"MultiPolygon","coordinates":[[[[-3.17967,55.97258],[-3.17952,55.97282],[-3.17928,55.97278],[-3.17956,55.97254],[-3.17967,55.97258]]]]}},
{ "type":"Feature","properties":{"osm_way_id":"920461712","name":"Shed 3","building":"warehouse","other":{"building:levels":"1"}}, "geometry":{"type":"MultiPolygon","coordinates":[[[[-3.17066,55.98196],[-3.17093,55.98171],[-3.17001,55.98138],[-3.16974,55.98164],[-3.17066,55.98196]]]]}},
{ "type":"Feature","properties":{"osm_way_id":"920461713","name":"Shed 4","building":"warehouse","other":{"building:levels":"1"}}, "geometry":{"type":"MultiPolygon","coordinates":[[[[-3.16974,55.98164],[-3.17001,55.98138],[-3.16914,55.98108],[-3.16888,55.98132],[-3.16974,55.98164]]]]}},
{ "type":"Feature","properties":{"osm_way_id":"997567222","building":"warehouse"},"geometry":{"type":"MultiPolygon","coordinates":[[[[-3.09668,55.93162],[-3.09639,55.93163],[-3.0964,55.9317],[-3.09669,55.93168],[-3.09668,55.93162]]]]}}
]
}
