{
"type": "FeatureCollection",
"features": [
{ "type":"Feature","properties":{"osm_id":"675748021","name":"LIDL","other":{"addr:city":"Enfield","addr:housenumber":"107","addr:postcode":"EN2 6TR","addr:street":"Cecil Road","alt_name":"LIDL Enfield Town","brand":"Lidl","brand:wikidata":"Q151954","fhrs:id":"317649","shop":"supermarket","source:postcode":"FHRS data","wheelchair":"yes"}}, "geometry":{"type":"Point","coordinates":[-0.0808,51.6505 ]}},
{ "type":"Feature","properties":{"osm_id":"885372058","name":"Nisa Local","other":{"shop":"supermarket","addr:street":"Colman Parade","addr:postcode":"EN1 1YY","addr:housenumber":"12-14"}}, "geometry":{"type":"Point","coordinates":[-0.07806,51.65223 ]}},
{ "type":"Feature","properties":{"osm_id":"1139399386","name":"Asda","other":{"shop":"supermarket","brand":"Asda","fhrs:id":"317838","operator":"Asda Stores Ltd","addr:city":"London","wheelchair":"yes","addr:street":"West Mall","addr:country":"GB","addr:postcode":"N9 0AL","brand:wikidata":"Q297410","brand:wikipedia":"en:Asda","contact:twitter":"@asda","contact:website":"https:\/\/storelocator.asda.com\/london\/edmonton\/1-west-mall","addr:housenumber":"1","contact:facebook":"https:\/\/www.facebook.com\/asda\/"}}, "geometry":{"type":"Point","coordinates":[-0.05994,51.62264 ]}},
{ "type":"Feature","properties":{"osm_id":"1507914720","name":"Co-Operative","other":{"shop":"supermarket"}}, "geometry":{"type":"Point","coordinates":[-0.08146,51.6457 ]}},
{ "type":"Feature","properties":{"osm_id":"1507914721","name":"Sainsbury's","other":{"addr:city":"Enfield","addr:housenumber":"5","addr:parentstreet":"London Road","addr:postcode":"EN2 6JG","addr:street":"Clock Parade","brand":"Sainsbury's","brand:wikidata":"Q152096","fhrs:id":"317959","shop":"supermarket","source:addr":"FHRS Open Data","website":"https:\/\/stores.sainsburys.co.uk\/4412\/enfield-london-road-local"}}, "geometry":{"type":"Point","coordinates":[-0.08051,51.64578 ]}},
{ "type":"Feature","properties":{"osm_id":"1600339691","name":"M&S Simply Food","other":{"addr:postcode":"N14 6AQ","brand":"M&S Simply Food","brand:wikidata":"Q714491","brand:wikipedia":"en:Marks & Spencer","shop":"supermarket","wheelchair":"yes"}}, "geometry":{"type":"Point","coordinates":[-0.12528,51.63354 ]}},
{ "type":"Feature","properties":{"osm_id":"1640218897","name":"Waitrose","ref":"179","other":{"addr:city":"Enfield","addr:housename":"Palace Green Shopping Centre","addr:housenumber":"8-12","addr:postcode":"EN2 6SN","addr:street":"Palace Gardens","alt_name":"Waitrose Enfield","branch":"Enfield","brand":"Waitrose & Partners","brand:wikidata":"Q771734","brand:wikipedia":"en:Waitrose & Partners","contact:website":"http:\/\/www.waitrose.com\/content\/waitrose\/en\/bf_home\/bf\/179.html","fhrs:authority":"Enfield","fhrs:id":"316948","fhrs:local_authority_id":"PI\/000092461","operator":"Waitrose & Partners","shop":"supermarket","source:addr":"FHRS Open Data","wheelchair":"yes"}}, "geometry":{"type":"Point","coordinates":[-0.08416,51.65171 ]}},
{ "type":"Feature","properties":{"osm_id":"2437755947","name":"Costcutter","other":{"shop":"supermarket","addr:street":"Bramley Road","addr:postcode":"N14 4XA","addr:housenumber":"189"}}, "geometry":{"type":"Point","coordinates":[-0.12905,51.64895 ]}},
{ "type":"Feature","properties":{"osm_id":"2445328601","name":"Express Supermarket","other":{"shop":"supermarket","addr:street":"Hertford Road, Edmonton","addr:housenumber":"351"}}, "geometry":{"type":"Point","coordinates":[-0.05222,51.63558 ]}},
{ "type":"Feature","properties":{"osm_id":"2451262443","name":"Lidl","other":{"addr:city":"London","addr:housenumber":"21-29","addr:postcode":"N9 0TY","addr:street":"The Concourse","brand":"Lidl","brand:wikidata":"Q151954","brand:wikipedia":"en:Lidl","fhrs:authority":"Enfield","fhrs:id":"317654","fhrs:local_authority_id":"PI\/000160107","shop":"supermarket","source:addr":"FHRS Open Data","wheelchair":"yes"}}, "geometry":{"type":"Point","coordinates":[-0.05975,51.62465 ]}},
{ "type":"Feature","properties":{"osm_id":"3130095871","name":"Oncu Food","other":{"shop":"supermarket"}}, "geometry":{"type":"Point","coordinates":[-0.05153,51.63572 ]}},
{ "type":"Feature","properties":{"osm_id":"3138276750","name":"Asda","other":{"shop":"supermarket","brand":"Asda","operator":"Asda Stores Ltd","addr:city":"Enfield","addr:unit":"4","addr:street":"High Street","addr:country":"GB","addr:postcode":"EN3 4EF","brand:wikidata":"Q297410","brand:wikipedia":"en:Asda","contact:twitter":"@asda","contact:website":"https:\/\/storelocator.asda.com\/london\/enfield\/67-high-street-ponders-end","addr:housenumber":"67","contact:facebook":"https:\/\/www.facebook.com\/asda\/"}}, "geometry":{"type":"Point","coordinates":[-0.04603,51.64165 ]}},
{ "type":"Feature","properties":{"osm_id":"3152358847","name":"Morrisons","other":{"addr:city":"London","addr:housenumber":"19","addr:postcode":"N13 4YD","addr:street":"Alderman's Hill","brand":"Morrisons","brand:wikidata":"Q922344","brand:wikipedia":"en:Morrisons","fhrs:id":"316031","operator":"Morrisons","phone":"+44 20 8886 6358","shop":"supermarket","source:addr":"FHRS Open Data","website":"https:\/\/my.morrisons.com\/storefinder\/305"}}, "geometry":{"type":"Point","coordinates":[-0.1105,51.61759 ]}},
{ "type":"Feature","properties":{"osm_id":"3160179099","name":"Booze Store","other":{"shop":"supermarket","addr:city":"Enfield","addr:street":"Southbury Road","addr:housenumber":"34"}}, "geometry":{"type":"Point","coordinates":[-0.07386,51.65232 ]}},
{ "type":"Feature","properties":{"osm_id":"6293868956","name":"Green Lanes Surgery & Pharmacy","other":{"shop":"supermarket","amenity":"doctors"}}, "geometry":{"type":"Point","coordinates":[-0.09402,51.63308 ]}},
{ "type":"Feature","properties":{"osm_id":"6345933555","name":"Waitrose","other":{"addr:housenumber":"889","addr:postcode":"N21 2QP","addr:street":"Green Lanes","brand":"Waitrose","brand:wikidata":"Q771734","phone":"+44 20 8360 3373","shop":"supermarket","website":"https:\/\/www.waitrose.com\/content\/waitrose\/en\/bf_home\/bf\/878.html"}}, "geometry":{"type":"Point","coordinates":[-0.09397,51.63533 ]}},
{ "type":"Feature","properties":{"osm_id":"7794844075","name":"Sirwan Food Centre","other":{"shop":"supermarket","website":"https:\/\/sirwan-food-centre-palmers-green-branch.business.site\/"}}, "geometry":{"type":"Point","coordinates":[-0.11056,51.60846 ]}},
{ "type":"Feature","properties":{"osm_id":"7834833559","highway":"crossing","other":{"crossing":"marked"}}, "geometry":{"type":"Point","coordinates":[-0.13242,51.63452 ]}},
{ "type":"Feature","properties":{"osm_id":"7908384785","name":"The Good Kind","other":{"addr:housenumber":"105","addr:street":"Lincoln Road","shop":"supermarket"}}, "geometry":{"type":"Point","coordinates":[-0.07026,51.64694 ]}},
{ "type":"Feature","properties":{"osm_id":"7919827149","name":"Sainsbury's Local","other":{"brand":"Sainsbury's Local","brand:wikidata":"Q13218434","shop":"supermarket"}}, "geometry":{"type":"Point","coordinates":[-0.13576,51.61638 ]}},
{ "type":"Feature","properties":{"osm_id":"7919827151","name":"International Food Centre","other":{"shop":"supermarket"}}, "geometry":{"type":"Point","coordinates":[-0.1405,51.61674 ]}},
{ "type":"Feature","properties":{"osm_id":"8415034641","name":"Fio's","other":{"shop":"supermarket"}}, "geometry":{"type":"Point","coordinates":[-0.12826,51.63175 ]}},
{ "type":"Feature","properties":{"osm_id":"8683115809","name":"Silverpoint Food Centre","other":{"shop":"supermarket"}}, "geometry":{"type":"Point","coordinates":[-0.06495,51.61137 ]}},
{ "type":"Feature","properties":{"osm_id":"940575601","highway":"path","other":{"surface":"asphalt"}}, "geometry":{"type":"LineString","coordinates":[[-0.09384,51.66442],[-0.0936,51.66424],[-0.09347,51.66413],[-0.0934,51.66407]]}},
{ "type":"Feature","properties":{"osm_way_id":"4993543","name":"Tesco","building":"retail","shop":"supermarket","other":{"addr:postcode":"EN1 1RT","addr:street":"Savoy Parade, Southbury Road","alt_name":"Tesco Enfield Southbury Road Superstore","brand":"Tesco","brand:wikidata":"Q487494"}}, "geometry":{"type":"MultiPolygon","coordinates":[[[[-0.07702,51.65131],[-0.07691,51.65128],[-0.07685,51.65136],[-0.07652,51.65128],[-0.0765,51.65131],[-0.07634,51.65126],[-0.07635,51.65123],[-0.07621,51.6512],[-0.07647,51.6508],[-0.07636,51.65077],[-0.07643,51.65068],[-0.07654,51.65071],[-0.07686,51.65057],[-0.07727,51.6509],[-0.07702,51.65131]]]]}},
{ "type":"Feature","properties":{"osm_way_id":"5791118","name":"Morrisons","building":"yes","shop":"supermarket","other":{"addr:postcode":"EN1 1TW","addr:street":"Southbury","alt_name":"Morrisons Enfield","brand":"Morrisons","brand:wikidata":"Q922344","brand:wikipedia":"en:Morrisons","toilets":"yes","toilets:wheelchair":"yes","website":"https:\/\/www.morrisons.co.uk\/","wheelchair":"yes"}}, "geometry":{"type":"MultiPolygon","coordinates":[[[[-0.05998,51.64839],[-0.05988,51.64839],[-0.0592,51.64837],[-0.05919,51.64848],[-0.05895,51.64847],[-0.05889,51.64847],[-0.05884,51.64844],[-0.05882,51.64845],[-0.05864,51.64834],[-0.05867,51.64832],[-0.05862,51.64829],[-0.05862,51.64825],[-0.05863,51.64805],[-0.05881,51.64805],[-0.05883,51.64777],[-0.05925,51.64777],[-0.05925,51.64771],[-0.05943,51.64771],[-0.05943,51.64751],[-0.06004,51.64753],[-0.05998,51.64839]]]]}},
{ "type":"Feature","properties":{"osm_way_id":"6063073","name":"Sainsbury's","building":"yes","shop":"supermarket","other":{"addr:city":"Enfield","addr:housenumber":"3","addr:postcode":"EN1 1TH","addr:street":"Crown Road","alt_name":"Sainsbury's Enfield Superstore","brand":"Sainsbury's","brand:wikidata":"Q152096","fhrs:authority":"Enfield","fhrs:id":"316346","fhrs:local_authority_id":"PI\/000035042","phone":"+44 20 8805 5209","toilets:wheelchair":"yes","website":"https:\/\/stores.sainsburys.co.uk\/0444\/enfield","wheelchair":"yes"}}, "geometry":{"type":"MultiPolygon","coordinates":[[[[-0.05839,51.6524],[-0.05713,51.65237],[-0.05713,51.65226],[-0.05702,51.65226],[-0.05706,51.65153],[-0.05825,51.65155],[-0.05824,51.6517],[-0.05818,51.6517],[-0.05818,51.6518],[-0.05842,51.65181],[-0.05839,51.6524]]]]}},
{ "type":"Feature","properties":{"osm_way_id":"6197541","name":"Tesco Lea Valley Extra","building":"retail","shop":"supermarket","other":{"brand":"Tesco Extra","alt_name":"Tesco Lea Valley Tesco Extra","operator":"Tesco PLC","addr:city":"London","roof:shape":"flat","wheelchair":"yes","addr:street":"Glover Drive","roof:colour":"silver","addr:country":"GB","addr:postcode":"N18 3HF","opening_hours":"Mo-Sa 00:00-24:00; Su 11:00-17:00","brand:wikidata":"Q25172225","brand:wikipedia":"en:Tesco Extra","addr:housenumber":"1","toilets:wheelchair":"yes"}}, "geometry":{"type":"MultiPolygon","coordinates":[[[[-0.04915,51.61029],[-0.04923,51.6103],[-0.0492,51.61039],[-0.04905,51.61038],[-0.04905,51.61037],[-0.04851,51.6103],[-0.04846,51.61046],[-0.04836,51.61046],[-0.04837,51.61042],[-0.04808,51.61038],[-0.04797,51.61042],[-0.04797,51.61044],[-0.04784,51.61043],[-0.04785,51.6104],[-0.04777,51.61033],[-0.04774,51.61032],[-0.04774,51.6103],[-0.04738,51.61025],[-0.04739,51.61023],[-0.04741,51.61014],[-0.04744,51.61015],[-0.04761,51.60957],[-0.04819,51.60963],[-0.04821,51.60959],[-0.04831,51.60959],[-0.04831,51.60964],[-0.04842,51.60965],[-0.04846,51.60958],[-0.04876,51.60962],[-0.04874,51.60969],[-0.04879,51.6097],[-0.04881,51.60966],[-0.04895,51.60968],[-0.04894,51.60972],[-0.04897,51.60971],[-0.04904,51.60951],[-0.04929,51.60952],[-0.04928,51.60955],[-0.04938,51.60955],[-0.04936,51.60962],[-0.04942,51.60963],[-0.04938,51.60982],[-0.04929,51.60981],[-0.04915,51.61029]]]]}},
{ "type":"Feature","properties":{"osm_way_id":"9404298","name":"Asda","building":"yes","shop":"supermarket","other":{"addr:city":"London","addr:country":"GB","addr:housenumber":"130","addr:postcode":"N14 5PW","addr:street":"Chase Side","brand":"Asda","brand:wikidata":"Q297410","brand:wikipedia":"en:Asda","contact:facebook":"https:\/\/www.facebook.com\/asda\/","contact:twitter":"@asda","contact:website":"https:\/\/storelocator.asda.com\/london\/southgate\/130-chase-side","fhrs:id":"316237","layer":"-1","operator":"Asda Stores Ltd"}}, "geometry":{"type":"MultiPolygon","coordinates":[[[[-0.13162,51.63483],[-0.13045,51.63437],[-0.13093,51.63389],[-0.13103,51.63393],[-0.13104,51.63392],[-0.1314,51.63407],[-0.13142,51.63404],[-0.13151,51.63408],[-0.13156,51.63404],[-0.13184,51.63415],[-0.13183,51.63416],[-0.13198,51.63422],[-0.13202,51.6342],[-0.13205,51.63421],[-0.1321,51.63416],[-0.13219,51.6342],[-0.13215,51.63425],[-0.13224,51.63428],[-0.13218,51.63434],[-0.13248,51.63446],[-0.13242,51.63452],[-0.13239,51.63455],[-0.13205,51.63441],[-0.13162,51.63483]]]]}},
{ "type":"Feature","properties":{"osm_way_id":"12542796","name":"Tesco Extra","building":"supermarket","shop":"supermarket","other":{"addr:postcode":"EN3 4DP","addr:street":"High Street, Ponders End","brand":"Tesco Extra","brand:wikidata":"Q25172225","brand:wikipedia":"en:Tesco Extra","contact:website":"https:\/\/www.tesco.com\/store-locator\/enfield\/288-high-st","loc_name":"Tesco"}}, "geometry":{"type":"MultiPolygon","coordinates":[[[[-0.04817,51.64848],[-0.04757,51.64843],[-0.04759,51.6483],[-0.04701,51.64824],[-0.04711,51.64788],[-0.04698,51.64786],[-0.04694,51.64786],[-0.04697,51.64776],[-0.04692,51.64775],[-0.04694,51.64769],[-0.04699,51.6477],[-0.04701,51.64762],[-0.04711,51.64763],[-0.04709,51.64768],[-0.04771,51.64775],[-0.04772,51.64768],[-0.04818,51.64774],[-0.04832,51.64783],[-0.04817,51.64848]]]]}},
{ "type":"Feature","properties":{"osm_way_id":"26675031","name":"Lidl","building":"retail","shop":"supermarket","other":{"addr:country":"GB","addr:housenumber":"654,656,658,670","addr:postcode":"EN3 6LZ","addr:street":"Hertford Road","brand":"Lidl","brand:wikidata":"Q151954","brand:wikipedia":"en:Lidl","building:levels":"1","fhrs:id":"1030259","opening_hours":"Mo-Sa 08:00-22:00; Su 11:00-17:00","roof:shape":"gabled"}}, "geometry":{"type":"MultiPolygon","coordinates":[[[[-0.04092,51.67204],[-0.04151,51.67223],[-0.04172,51.67199],[-0.04166,51.67197],[-0.04169,51.67193],[-0.0417,51.67194],[-0.04179,51.67183],[-0.04133,51.67169],[-0.04128,51.67175],[-0.04123,51.67173],[-0.0412,51.67172],[-0.04114,51.6718],[-0.04112,51.6718],[-0.04092,51.67204]]]]}},
{ "type":"Feature","properties":{"osm_way_id":"47847925","name":"Sainsbury's","building":"yes","shop":"supermarket","other":{"addr:city":"London","addr:housename":"Sainsburys Winchmore Hill","addr:housenumber":"681","addr:postcode":"N21 3RS","addr:street":"Green Lanes","brand":"Sainsbury's","brand:wikidata":"Q152096","opening_hours":"Mo-Fr 08:00-22:00, Sa 07:00-22:00, Su 10:00-16:00","operator":"Sainsbury's","payment:cash":"yes","payment:credit_cards":"yes","payment:debit_cards":"yes"}}, "geometry":{"type":"MultiPolygon","coordinates":[[[[-0.09882,51.62996],[-0.09874,51.62995],[-0.09869,51.63004],[-0.09823,51.62994],[-0.09833,51.62977],[-0.09777,51.62965],[-0.09803,51.62917],[-0.09798,51.62916],[-0.09804,51.62905],[-0.09792,51.62902],[-0.09796,51.62896],[-0.09812,51.62899],[-0.09812,51.62898],[-0.09841,51.62904],[-0.09841,51.62906],[-0.09881,51.62914],[-0.09884,51.62909],[-0.09902,51.62912],[-0.09904,51.62909],[-0.09933,51.62916],[-0.09931,51.62919],[-0.09936,51.6292],[-0.09926,51.62939],[-0.09915,51.62936],[-0.09882,51.62996]]]]}},
{ "type":"Feature","properties":{"osm_way_id":"99490467","name":"Oncu Food Centre","building":"retail","shop":"supermarket"},"geometry":{"type":"MultiPolygon","coordinates":[[[[-0.03476,51.67819],[-0.03462,51.67818],[-0.0347,51.67797],[-0.03512,51.67799],[-0.03512,51.67804],[-0.03503,51.67822],[-0.03476,51.67821],[-0.03476,51.67819]]]]}},
{ "type":"Feature","properties":{"osm_way_id":"100854895","name":"FoodArt","building":"retail","shop":"supermarket","other":{"addr:housenumber":"614-616","addr:postcode":"EN3 5TD","addr:street":"Hertford Road","fhrs:id":"1250920","website":"https:\/\/foodartdirect.com\/"}}, "geometry":{"type":"MultiPolygon","coordinates":[[[[-0.04115,51.67022],[-0.04112,51.67022],[-0.04116,51.67013],[-0.04134,51.67016],[-0.04133,51.67016],[-0.04143,51.67018],[-0.0414,51.67025],[-0.04131,51.67024],[-0.0413,51.67025],[-0.04115,51.67022]]]]}},
{ "type":"Feature","properties":{"osm_way_id":"100857199","name":"Enfield Food Centre","building":"retail","shop":"supermarket","other":{"addr:housenumber":"606","addr:postcode":"EN3 5SX","addr:street":"Hertford Road"}}, "geometry":{"type":"MultiPolygon","coordinates":[[[[-0.04138,51.6697],[-0.0415,51.6697],[-0.0415,51.66969],[-0.04161,51.66969],[-0.04162,51.66974],[-0.04164,51.66974],[-0.04164,51.66976],[-0.0416,51.66976],[-0.04159,51.66983],[-0.04144,51.66982],[-0.04144,51.66983],[-0.04133,51.66983],[-0.04135,51.66974],[-0.04137,51.66974],[-0.04138,51.6697]]]]}},
{ "type":"Feature","properties":{"osm_way_id":"102028995","name":"Fresh Food Centre","building":"retail","shop":"supermarket","other":{"addr:postcode":"EN3 5BH","layer":"1"}}, "geometry":{"type":"MultiPolygon","coordinates":[[[[-0.04748,51.65792],[-0.0475,51.65775],[-0.04751,51.65775],[-0.04763,51.65776],[-0.04761,51.65793],[-0.04759,51.65793],[-0.04748,51.65792]]]]}},
{ "type":"Feature","properties":{"osm_way_id":"102030560","name":"Efe Food & Wine","building":"retail","shop":"supermarket","other":{"addr:postcode":"EN3 5AZ"}}, "geometry":{"type":"MultiPolygon","coordinates":[[[[-0.04762,51.65728],[-0.04761,51.65731],[-0.04764,51.65735],[-0.04755,51.65737],[-0.0475,51.65727],[-0.04762,51.65728]]]]}},
{ "type":"Feature","properties":{"osm_way_id":"222834046","name":"Lidl","building":"retail","shop":"supermarket","other":{"addr:country":"GB","addr:housenumber":"6-16","addr:postcode":"N18 2XZ","addr:street":"Sterling Way","brand":"Lidl","brand:wikidata":"Q151954","brand:wikipedia":"en:Lidl","building:levels":"3","fhrs:id":"317485","roof:levels":"0","roof:shape":"flat"}}, "geometry":{"type":"MultiPolygon","coordinates":[[[[-0.06553,51.61452],[-0.06557,51.61427],[-0.06561,51.61405],[-0.06501,51.61401],[-0.06501,51.61399],[-0.06497,51.61398],[-0.06492,51.61398],[-0.06484,51.61447],[-0.06553,51.61452]]]]}},
{ "type":"Feature","properties":{"osm_way_id":"229723874","name":"Waitrose","building":"retail","shop":"supermarket","other":{"addr:housenumber":"38-40","addr:postcode":"EN2 7AS","addr:street":"Windmill Hill","alt_name":"Waitrose Enfield Chase","brand":"Waitrose","brand:wikidata":"Q771734","brand:wikipedia":"en:Waitrose & Partners","building:levels":"4","official_name":"Waitrose & Partners","opening_hours":"Mo-Sa 07:00-21:00; Su 11:00-17:00","operator":"Waitrose & Partners","website":"https:\/\/www.waitrose.com\/bf_home\/bf\/521.html","wheelchair":"yes"}}, "geometry":{"type":"MultiPolygon","coordinates":[[[[-0.09268,51.65355],[-0.09225,51.65355],[-0.09225,51.65332],[-0.09245,51.65332],[-0.09245,51.65326],[-0.09268,51.65326],[-0.09268,51.65328],[-0.09269,51.65338],[-0.09268,51.65355]]]]}},
{ "type":"Feature","properties":{"osm_way_id":"236434062","name":"Enfield Food Hall","building":"commercial","shop":"supermarket","other":{"addr:housenumber":"234","addr:postcode":"EN3 4EZ","addr:street":"High Street, Ponders End"}}, "geometry":{"type":"MultiPolygon","coordinates":[[[[-0.04713,51.64613],[-0.04713,51.64615],[-0.04725,51.64614],[-0.04725,51.64619],[-0.04712,51.64619],[-0.04703,51.64619],[-0.04702,51.64614],[-0.04713,51.64613]]]]}},
{ "type":"Feature","properties":{"osm_way_id":"236440781","name":"Ponders End Food Centre","building":"commercial","shop":"supermarket","other":{"addr:postcode":"EN3 4EU","addr:street":"High Street, Ponders End"}}, "geometry":{"type":"MultiPolygon","coordinates":[[[[-0.04673,51.64463],[-0.04672,51.64469],[-0.04659,51.64468],[-0.0466,51.64462],[-0.04661,51.64463],[-0.04663,51.64453],[-0.04674,51.64454],[-0.04673,51.64463]]]]}},
{ "type":"Feature","properties":{"osm_way_id":"303466732","name":"Yasar Halim","building":"yes","shop":"supermarket","other":{"addr:housenumber":"2a\/2b","addr:postcode":"N13 5SH","addr:street":"Hedge Lane","fhrs:id":"317262","fixme:place":"Southgate","operator":"Yasar Halim","phone":"+44 20 8882 3100","source:addr":"FHRS Open Data","website":"http:\/\/www.yasarhalim.com\/"}}, "geometry":{"type":"MultiPolygon","coordinates":[[[[-0.10354,51.62321],[-0.10309,51.62305],[-0.10311,51.62302],[-0.10296,51.62297],[-0.10307,51.62285],[-0.10367,51.62306],[-0.10354,51.62321]]]]}},
{ "type":"Feature","properties":{"osm_way_id":"304086494","name":"Despina's Food Store","building":"yes","shop":"supermarket","other":{"addr:housenumber":"456\/458","addr:postcode":"N11 1NL","addr:street":"Bowes Road","cuisine":"greek_cypriot","opening_hours":"Mo-Sa 08:30-19:30;Su 08:30-17:00","phone":"+44 20 8368 8855","website":"http:\/\/www.despinafoods.co.uk\/"}}, "geometry":{"type":"MultiPolygon","coordinates":[[[[-0.14038,51.61663],[-0.14029,51.61659],[-0.14021,51.61656],[-0.14011,51.61654],[-0.14005,51.61664],[-0.14013,51.61665],[-0.14021,51.61668],[-0.14029,51.61671],[-0.14038,51.61663]]]]}},
{ "type":"Feature","properties":{"osm_way_id":"309197983","name":"Akin","building":"yes","shop":"supermarket","other":{"addr:housenumber":"397"}}, "geometry":{"type":"MultiPolygon","coordinates":[[[[-0.06165,51.62239],[-0.06175,51.6224],[-0.06166,51.62271],[-0.06156,51.6227],[-0.06165,51.62239]]]]}},
{ "type":"Feature","properties":{"osm_way_id":"338641380","name":"EGE Food Centre","building":"yes","shop":"supermarket","other":{"addr:street":"Bridport Road","addr:housenumber":"150"}}, "geometry":{"type":"MultiPolygon","coordinates":[[[[-0.07352,51.61186],[-0.07321,51.61187],[-0.07321,51.61194],[-0.07322,51.61195],[-0.07353,51.61194],[-0.07352,51.61186]]]]}},
{ "type":"Feature","properties":{"osm_way_id":"356221838","name":"ALDI","building":"retail","shop":"supermarket","other":{"addr:unit":"Unit 6","brand":"ALDI","brand:wikidata":"Q41171672","brand:wikipedia":"en:Aldi","name:fa":"آلدی"}}, "geometry":{"type":"MultiPolygon","coordinates":[[[[-0.05679,51.65472],[-0.0564,51.6547],[-0.05644,51.65422],[-0.05683,51.65424],[-0.05679,51.65472]]]]}},
{ "type":"Feature","properties":{"osm_way_id":"404260493","name":"Turkish Food Centre","building":"retail","shop":"supermarket","other":{"addr:city":"London","addr:street":"Green Lanes","addr:country":"GB","addr:postcode":"N13 5UP","addr:housenumber":"88"}}, "geometry":{"type":"MultiPolygon","coordinates":[[[[-0.10932,51.6127],[-0.10932,51.61251],[-0.10924,51.61247],[-0.1089,51.61248],[-0.10892,51.61272],[-0.10932,51.6127]]]]}},
{ "type":"Feature","properties":{"osm_way_id":"549429891","name":"M&S Foodhall","building":"retail","shop":"supermarket","other":{"addr:housenumber":"Unit 5","brand":"M&S Foodhall","brand:wikidata":"Q714491"}}, "geometry":{"type":"MultiPolygon","coordinates":[[[[-0.05718,51.65458],[-0.05717,51.65473],[-0.05679,51.65472],[-0.05683,51.65424],[-0.05721,51.65425],[-0.05718,51.65458]]]]}},
{ "type":"Feature","properties":{"osm_way_id":"846243396","name":"Sainsbury's","building":"retail","shop":"supermarket","other":{"brand":"Sainsbury's","brand:wikidata":"Q152096"}}, "geometry":{"type":"MultiPolygon","coordinates":[[[[-0.11135,51.646],[-0.11144,51.64543],[-0.11132,51.64542],[-0.11122,51.64544],[-0.11121,51.64548],[-0.1109,51.64546],[-0.11087,51.64561],[-0.11061,51.6456],[-0.11059,51.64569],[-0.1108,51.64571],[-0.11077,51.64597],[-0.11135,51.646]]]]}},
{ "type":"Feature","properties":{"osm_way_id":"862792678","name":"Hertford Supermarket","building":"retail","shop":"supermarket","other":{"addr:postcode":"EN3 5BH","layer":"1"}}, "geometry":{"type":"MultiPolygon","coordinates":[[[[-0.04743,51.65831],[-0.04744,51.65826],[-0.04754,51.65827],[-0.04754,51.65831],[-0.04743,51.65831]]]]}},
{ "type":"Feature","properties":{"osm_way_id":"862792685","name":"Enfield Pound+\/EViM","building":"retail","shop":"supermarket","other":{"addr:postcode":"EN3 5BH","layer":"1"}}, "geometry":{"type":"MultiPolygon","coordinates":[[[[-0.04747,51.65872],[-0.04746,51.65882],[-0.04735,51.65882],[-0.04737,51.65872],[-0.04747,51.65872]]]]}},
{ "type":"Feature","properties":{"osm_way_id":"862829078","name":"Afromart","building":"retail","shop":"supermarket"},"geometry":{"type":"MultiPolygon","coordinates":[[[[-0.04755,51.65692],[-0.04756,51.65687],[-0.04768,51.65688],[-0.04767,51.65693],[-0.04755,51.65692]]]]}},
{ "type":"Feature","properties":{"osm_way_id":"862940576","name":"Metro Food Centre","building":"commercial","shop":"supermarket","other":{"addr:postcode":"EN3 4HB","addr:street":"High Street, Ponders End"}}, "geometry":{"type":"MultiPolygon","coordinates":[[[[-0.04724,51.64701],[-0.04722,51.64706],[-0.04719,51.64711],[-0.04709,51.64709],[-0.04711,51.64704],[-0.04713,51.64699],[-0.04724,51.64701]]]]}},
{ "type":"Feature","properties":{"osm_way_id":"862940581","name":"New African Supermarket","building":"yes","shop":"supermarket","other":{"addr:postcode":"EN3 4HF"}}, "geometry":{"type":"MultiPolygon","coordinates":[[[[-0.04687,51.64749],[-0.0469,51.64744],[-0.04703,51.64746],[-0.04701,51.64752],[-0.04687,51.64749]]]]}},
{ "type":"Feature","properties":{"osm_way_id":"874024790","building":"residential","other":{"addr:street":"Chesterfield Road"}}, "geometry":{"type":"MultiPolygon","coordinates":[[[[-0.03223,51.66901],[-0.03224,51.66896],[-0.03235,51.66897],[-0.03234,51.66902],[-0.03223,51.66901]]]]}}
]
}
