{
"type": "FeatureCollection",
"features": [
{ "type":"Feature","properties":{"osm_id":"746955845","name":"Tesco Express","other":{"brand":"Tesco Express","brand:wikidata":"Q98456772","contact:website":"https:\/\/www.tesco.com\/store-locator\/paignton\/concord-house","shop":"supermarket","wheelchair":"yes"}}, "geometry":{"type":"Point","coordinates":[-3.55985,50.44591 ]}},
{ "type":"Feature","properties":{"osm_id":"774533583","name":"Sainsbury's Local","other":{"brand:wikidata":"Q13218434","shop":"supermarket","wheelchair":"yes"}}, "geometry":{"type":"Point","coordinates":[-3.56386,50.44405 ]}},
{ "type":"Feature","properties":{"osm_id":"1018724573","name":"Lidl","other":{"addr:city":"Paignton","addr:housename":"Victoria Shopping Centre","addr:postcode":"TQ4 6PE","addr:street":"Parkside Road","addr:unit":"1,2","alt_name":"LIDL Paignton","brand":"Lidl","brand:wikidata":"Q151954","brand:wikipedia":"en:Lidl","fhrs:id":"1036944","shop":"supermarket","source:postcode":"ONS_Postcode_Directory","wheelchair":"yes"}}, "geometry":{"type":"Point","coordinates":[-3.56386,50.43611 ]}},
{ "type":"Feature","properties":{"osm_id":"1141078343","name":"Coop","other":{"shop":"supermarket"}}, "geometry":{"type":"Point","coordinates":[-3.5613,50.41779 ]}},
{ "type":"Feature","properties":{"osm_id":"2376054786","name":"Iceland","other":{"addr:city":"Torquay","addr:housename":"Union Square Shopping Centre","addr:housenumber":"5-6","addr:postcode":"TQ1 3UT","addr:street":"Union Street","brand":"Iceland","brand:wikidata":"Q721810","shop":"supermarket"}}, "geometry":{"type":"Point","coordinates":[-3.52964,50.46732 ]}},
{ "type":"Feature","properties":{"osm_id":"2537373600","name":"The Co-operative","other":{"addr:street":"Walnut Road","shop":"supermarket"}}, "geometry":{"type":"Point","coordinates":[-3.54578,50.46304 ]}},
{ "type":"Feature","properties":{"osm_id":"6114042587","name":"Sainsbury's Local","other":{"brand:wikidata":"Q13218434","shop":"supermarket"}}, "geometry":{"type":"Point","coordinates":[-3.5233,50.48155 ]}},
{ "type":"Feature","properties":{"osm_id":"6938852601","name":"The Food Warehouse","other":{"addr:city":"Paignton","addr:housename":"Devonshire Retail Park","addr:postcode":"TQ4 7TQ","addr:street":"Long Road","addr:unit":"5","brand":"The Food Warehouse","brand:wikidata":"Q87263899","shop":"supermarket"}}, "geometry":{"type":"Point","coordinates":[-3.58051,50.41506 ]}},
{ "type":"Feature","properties":{"osm_id":"8909568823","name":"Food Plus","other":{"addr:street":"Market Street","shop":"supermarket"}}, "geometry":{"type":"Point","coordinates":[-3.52872,50.46682 ]}},
{ "type":"Feature","properties":{"osm_way_id":"19179214","name":"Asda","building":"retail","shop":"supermarket","other":{"addr:city":"Chatham","addr:country":"GB","addr:housenumber":"387","addr:postcode":"ME5 9SE","addr:street":"Maidstone Road","brand":"Asda","brand:wikidata":"Q297410","brand:wikipedia":"en:Asda","contact:facebook":"https:\/\/www.facebook.com\/asda\/","contact:twitter":"@asda","contact:website":"https:\/\/storelocator.asda.com\/south-east\/chatham\/387-maidstone-road","fhrs:id":"643396","opening_hours":"Mo 07:00-23:59; Tu-Fr 00:00-23:59; Sa 00:00-22:00; Su 10:00-16:00","operator":"Asda Stores Ltd"}}, "geometry":{"type":"MultiPolygon","coordinates":[[[[0.50876,51.34544],[0.50874,51.34531],[0.50844,51.34531],[0.50841,51.3451],[0.50836,51.34463],[0.50953,51.34456],[0.50962,51.34526],[0.50919,51.34528],[0.5092,51.34542],[0.50876,51.34544]]]]}},
{ "type":"Feature","properties":{"osm_way_id":"56689725","name":"Sainsbury's","building":"yes","shop":"supermarket","other":{"addr:postcode":"TQ4 7PE","addr:street":"Yalberton Road","alt_name":"Sainsbury's Paignton Superstore","brand":"Sainsbury's","brand:wikidata":"Q152096","brand:wikipedia":"en:Sainsbury's"}}, "geometry":{"type":"MultiPolygon","coordinates":[[[[-3.5885,50.4214],[-3.58868,50.42137],[-3.5887,50.42141],[-3.58876,50.4214],[-3.58902,50.4219],[-3.58915,50.42189],[-3.58904,50.42168],[-3.58928,50.42163],[-3.58917,50.4214],[-3.58938,50.42135],[-3.58929,50.42116],[-3.58935,50.42114],[-3.58917,50.42075],[-3.58909,50.42077],[-3.58894,50.42047],[-3.5888,50.4205],[-3.58883,50.42058],[-3.58878,50.42059],[-3.58879,50.42063],[-3.58821,50.42076],[-3.58824,50.42083],[-3.58819,50.42084],[-3.58809,50.4208],[-3.58804,50.42086],[-3.58806,50.42088],[-3.58816,50.42091],[-3.58813,50.42096],[-3.58814,50.42097],[-3.58821,50.42099],[-3.58822,50.421],[-3.58816,50.42109],[-3.58823,50.42111],[-3.58827,50.42105],[-3.58833,50.42104],[-3.5885,50.4214]]]]}},
{ "type":"Feature","properties":{"osm_way_id":"56689745","name":"Asda","building":"yes","shop":"supermarket","other":{"addr:city":"Paignton","addr:country":"GB","addr:postcode":"TQ4 7EP","addr:street":"Borough Close","alt_name":"ASDA Paignton Supermarket","brand":"Asda","brand:wikidata":"Q297410","brand:wikipedia":"en:Asda","contact:facebook":"https:\/\/www.facebook.com\/asda\/","contact:twitter":"@asda","contact:website":"https:\/\/storelocator.asda.com\/south-west\/paignton\/borough-close","fhrs:id":"707764","operator":"Asda Stores Ltd"}}, "geometry":{"type":"MultiPolygon","coordinates":[[[[-3.58841,50.42432],[-3.58844,50.42388],[-3.58849,50.42387],[-3.5885,50.42376],[-3.58786,50.42374],[-3.58785,50.4243],[-3.58841,50.42432]]]]}},
{ "type":"Feature","properties":{"osm_way_id":"67762465","name":"Lidl","building":"retail","shop":"supermarket","other":{"addr:postcode":"S8 0YH","addr:street":"Chesterfield Road","brand":"Lidl","brand:wikidata":"Q151954","brand:wikipedia":"en:Lidl","building:levels":"1","nohousenumber":"yes","opening_hours":"Mo-Sa 08:00-22:00; Su 10:00-16:00; PH 08:00-20:00","roof:levels":"0","roof:shape":"flat","wheelchair":"yes"}}, "geometry":{"type":"MultiPolygon","coordinates":[[[[-1.47693,53.35769],[-1.47679,53.35778],[-1.47649,53.35798],[-1.47645,53.35795],[-1.47627,53.35807],[-1.47644,53.35816],[-1.47661,53.35826],[-1.47732,53.3578],[-1.47736,53.35768],[-1.47715,53.35766],[-1.47714,53.35769],[-1.47713,53.35772],[-1.47693,53.35769]]]]}},
{ "type":"Feature","properties":{"osm_way_id":"68152613","name":"Lidl","building":"yes","shop":"supermarket","other":{"addr:city":"Torquay","addr:housenumber":"173","addr:postcode":"TQ2 7AJ","addr:street":"Newton Road","brand":"Lidl","brand:wikidata":"Q151954","brand:wikipedia":"en:Lidl","fhrs:id":"372278"}}, "geometry":{"type":"MultiPolygon","coordinates":[[[[-3.55453,50.48589],[-3.55476,50.4856],[-3.55448,50.48551],[-3.55416,50.4854],[-3.55419,50.48537],[-3.55388,50.48527],[-3.55362,50.48559],[-3.55453,50.48589]]]]}},
{ "type":"Feature","properties":{"osm_way_id":"72085472","name":"Asda","building":"yes","shop":"supermarket","other":{"addr:city":"Torquay","addr:postcode":"TQ2 7AN","addr:street":"Regents Close, Newton Road","brand":"Asda","brand:wikidata":"Q297410","brand:wikipedia":"en:Asda","contact:facebook":"https:\/\/www.facebook.com\/asda\/","contact:twitter":"@asda","contact:website":"https:\/\/storelocator.asda.com\/south-west\/torquay\/regents-close-newton-road","operator":"Asda Stores Ltd"}}, "geometry":{"type":"MultiPolygon","coordinates":[[[[-3.54888,50.48094],[-3.54895,50.48018],[-3.54839,50.48015],[-3.54834,50.48085],[-3.54831,50.48085],[-3.54831,50.48092],[-3.54888,50.48094]]]]}},
{ "type":"Feature","properties":{"osm_way_id":"78455436","name":"Sainsbury's","building":"yes","shop":"supermarket","other":{"addr:city":"Torquay","addr:postcode":"TQ2 7HT","addr:street":"Nicholson Road","brand":"Sainsbury's","brand:wikidata":"Q152096"}}, "geometry":{"type":"MultiPolygon","coordinates":[[[[-3.55422,50.48791],[-3.55432,50.48791],[-3.55432,50.48804],[-3.55539,50.48802],[-3.55539,50.48798],[-3.55588,50.48797],[-3.55587,50.4878],[-3.55566,50.48781],[-3.55565,50.48753],[-3.55556,50.48745],[-3.55541,50.48746],[-3.55541,50.48735],[-3.55567,50.48734],[-3.55567,50.48716],[-3.55541,50.48716],[-3.55541,50.4871],[-3.55419,50.48712],[-3.55422,50.48791]]]]}},
{ "type":"Feature","properties":{"osm_way_id":"149148126","name":"coop","building":"yes","shop":"supermarket","other":{"addr:city":"Paignton","addr:country":"GB","addr:housename":"Cherry Brook Square","addr:postcode":"TQ4 7LY","addr:street":"Hookhills Road","addr:unit":"5,6","fhrs:id":"1029280"}}, "geometry":{"type":"MultiPolygon","coordinates":[[[[-3.56558,50.41138],[-3.56566,50.41109],[-3.56551,50.41107],[-3.56542,50.41136],[-3.56558,50.41138]]]]}},
{ "type":"Feature","properties":{"osm_way_id":"159204926","name":"Morrisons","building":"yes","shop":"supermarket","other":{"addr:postcode":"TQ4 7ET","addr:street":"Totnes Road","alt_name":"Morrisons Paignton","brand":"Morrisons","brand:wikidata":"Q922344","brand:wikipedia":"en:Morrisons","source:postcode":"ONS_Postcode_Directory"}}, "geometry":{"type":"MultiPolygon","coordinates":[[[[-3.58539,50.42697],[-3.58426,50.42708],[-3.58424,50.42697],[-3.58429,50.42697],[-3.58428,50.42692],[-3.58421,50.42692],[-3.58419,50.42685],[-3.58426,50.42685],[-3.58419,50.42648],[-3.5855,50.42637],[-3.58551,50.42646],[-3.58571,50.42644],[-3.58575,50.42658],[-3.58544,50.4266],[-3.58547,50.42677],[-3.58553,50.42677],[-3.58556,50.42692],[-3.58538,50.42694],[-3.58539,50.42697]]]]}},
{ "type":"Feature","properties":{"osm_way_id":"169965947","name":"Tesco Express","building":"yes","shop":"supermarket","other":{"addr:city":"Paignton","addr:housenumber":"2","addr:postcode":"TQ4 5DL","addr:street":"Victoria Street","alt_name":"Paignton Metro","brand":"Tesco Express","brand:wikidata":"Q98456772","fhrs:id":"507704","opening_hours":"Mo-Su 06:00-23:00","source:addr:postcode":"FSA Food Hygiene Ratings Database"}}, "geometry":{"type":"MultiPolygon","coordinates":[[[[-3.56779,50.43551],[-3.56759,50.43551],[-3.56758,50.43562],[-3.56758,50.43565],[-3.56758,50.4357],[-3.56779,50.43551]]]]}},
{ "type":"Feature","properties":{"osm_way_id":"169966546","name":"Co-op","building":"yes","shop":"supermarket","other":{"addr:city":"Paignton","addr:housenumber":"60-66","addr:postcode":"TQ3 3HH","addr:street":"Winner Street","alt_name":"The Co-operative Food","opening_hours":"Mo-Su 07:00-23:00","source:postcode":"ONS_Postcode_Directory"}}, "geometry":{"type":"MultiPolygon","coordinates":[[[[-3.57159,50.43568],[-3.57156,50.43543],[-3.57121,50.43545],[-3.57127,50.43571],[-3.57135,50.43571],[-3.57138,50.43568],[-3.57141,50.43568],[-3.57159,50.43568]]]]}},
{ "type":"Feature","properties":{"osm_way_id":"194979923","name":"Lidl","building":"supermarket","shop":"supermarket","other":{"addr:city":"Torquay","addr:postcode":"TQ1 3HL","addr:street":"St Marychurch Road","brand":"Lidl","brand:wikidata":"Q151954","brand:wikipedia":"en:Lidl","fhrs:id":"1257105","survey:date":"2021-05-04"}}, "geometry":{"type":"MultiPolygon","coordinates":[[[[-3.5285,50.4771],[-3.52833,50.47697],[-3.52826,50.47701],[-3.5282,50.47696],[-3.52766,50.47727],[-3.5279,50.47744],[-3.5285,50.4771]]]]}},
{ "type":"Feature","properties":{"osm_way_id":"199043067","name":"The Co-operative Food","building":"yes","shop":"supermarket"},"geometry":{"type":"MultiPolygon","coordinates":[[[[-3.52283,50.48205],[-3.52318,50.48189],[-3.52307,50.48179],[-3.52289,50.48187],[-3.52284,50.48183],[-3.52275,50.48187],[-3.5228,50.48191],[-3.52271,50.48195],[-3.52283,50.48205]]]]}},
{ "type":"Feature","properties":{"osm_way_id":"221251428","name":"Co-op","building":"retail","shop":"supermarket","other":{"addr:city":"Brixham","addr:housenumber":"75","addr:postcode":"TQ5 8AG","addr:street":"Fore Street","opening_hours":"Mo-Sa 07:00-23:00,07:00-23:00"}}, "geometry":{"type":"MultiPolygon","coordinates":[[[[-3.51293,50.39537],[-3.51287,50.39526],[-3.51283,50.39517],[-3.51255,50.39523],[-3.51263,50.39535],[-3.51272,50.39547],[-3.51287,50.39542],[-3.51295,50.39539],[-3.51293,50.39537]]]]}},
{ "type":"Feature","properties":{"osm_way_id":"221251430","name":"Tesco Express","building":"yes","shop":"supermarket","other":{"addr:city":"Brixham","addr:housenumber":"18-20","addr:postcode":"TQ5 8DS","addr:street":"Fore Street","brand":"Tesco Express","brand:wikidata":"Q98456772"}}, "geometry":{"type":"MultiPolygon","coordinates":[[[[-3.51462,50.39457],[-3.5148,50.39447],[-3.51503,50.39467],[-3.51487,50.39477],[-3.51462,50.39457]]]]}},
{ "type":"Feature","properties":{"osm_way_id":"221251433","name":"Co-op","shop":"supermarket","other":{"addr:city":"Brixham","addr:housenumber":"14-16","addr:postcode":"TQ5 8DS","addr:street":"Fore Street"}}, "geometry":{"type":"MultiPolygon","coordinates":[[[[-3.51495,50.39439],[-3.5151,50.39432],[-3.51515,50.39436],[-3.51534,50.39453],[-3.51518,50.3946],[-3.51495,50.39439]]]]}},
{ "type":"Feature","properties":{"osm_way_id":"224513228","name":"Co-op","building":"yes","shop":"supermarket","other":{"addr:city":"Brixham","addr:housenumber":"16","addr:postcode":"TQ5 9SW","addr:street":"Great Rea Road"}}, "geometry":{"type":"MultiPolygon","coordinates":[[[[-3.50818,50.39397],[-3.50809,50.39391],[-3.50789,50.39404],[-3.50799,50.3941],[-3.50818,50.39397]]]]}},
{ "type":"Feature","properties":{"osm_way_id":"628900541","name":"Aldi","building":"yes","shop":"supermarket","other":{"addr:city":"Paignton","addr:county":"Devon","addr:postcode":"TQ4 7BD","addr:street":"Brixham Road","brand":"ALDI","brand:wikidata":"Q41171672","brand:wikipedia":"en:Aldi","operator":"Aldi"}}, "geometry":{"type":"MultiPolygon","coordinates":[[[[-3.58551,50.41909],[-3.58576,50.41933],[-3.5862,50.41913],[-3.58596,50.4189],[-3.58551,50.41909]]]]}},
{ "type":"Feature","properties":{"osm_way_id":"629253834","name":"Lidl","building":"retail","shop":"supermarket","other":{"addr:country":"GB","addr:postcode":"TQ4 7RZ","addr:street":"Waddeton Close","brand":"Lidl","brand:wikidata":"Q151954","brand:wikipedia":"en:Lidl","fhrs:id":"1182338","nohousenumber":"yes","opening_hours":"Mo-Sa 08:00-22:00; Su 10:00-16:00","source:postcode":"ons_opendata_postcodes","start_date":"2019-01-31"}}, "geometry":{"type":"MultiPolygon","coordinates":[[[[-3.57885,50.4125],[-3.57805,50.41287],[-3.57832,50.41311],[-3.57912,50.41273],[-3.57885,50.4125]]]]}}
]
}
