{
"type": "FeatureCollection",
"features": [
{ "type":"Feature","properties":{"osm_id":"661641716","name":"Lincolnshire Co-op","other":{"addr:city":"Nettleham","addr:housenumber":"19","addr:street":"The Green","operator":"Lincolnshire Co-operative","shop":"supermarket","source:addr":"Food hygiene open data"}}, "geometry":{"type":"Point","coordinates":[-0.48829,53.26572 ]}},
{ "type":"Feature","properties":{"osm_id":"3245862479","name":"Lincolnshire Co-op","other":{"shop":"supermarket"}}, "geometry":{"type":"Point","coordinates":[-0.6659,53.49704 ]}},
{ "type":"Feature","properties":{"osm_id":"5051412321","name":"Lincolnshire Co-op","other":{"addr:city":"Gainsborough","addr:country":"GB","addr:county":"Lincolnshire","addr:postcode":"DN21 1SH","addr:street":"Heapham Road","addr:unit":"1","brand":"Lincolnshire Co-op","brand:wikidata":"Q6551231","brand:wikipedia":"en:Lincolnshire Co-operative","contact:website":"https:\/\/www.lincolnshire.coop\/branches\/food-stores\/heapham-road-food-store","fhrs:id":"234605","opening_hours":"Mo-Su 07:00-22:00","operator":"Lincolnshire Co-operative Ltd","shop":"supermarket"}}, "geometry":{"type":"Point","coordinates":[-0.76368,53.3993 ]}},
{ "type":"Feature","properties":{"osm_id":"7276372173","other":{"amenity":"loading_dock","door":"loadingdock"}}, "geometry":{"type":"Point","coordinates":[-0.77212,53.39795 ]}},
{ "type":"Feature","properties":{"osm_id":"9585339988","name":"Heron Foods","other":{"addr:city":"Gainsborough","addr:country":"GB","addr:county":"Lincolnshire","addr:housenumber":"32","addr:postcode":"DN21 2BY","addr:street":"Market Place","brand":"Heron Foods","brand:wikidata":"Q5743472","brand:wikipedia":"en:Heron Foods","fhrs:id":"234470","shop":"supermarket"}}, "geometry":{"type":"Point","coordinates":[-0.77628,53.39933 ]}},
{ "type":"Feature","properties":{"osm_way_id":"33827039","name":"Morrisons","building":"yes","shop":"supermarket","other":{"addr:city":"Gainsborough","addr:country":"GB","addr:county":"Lincolnshire","addr:postcode":"DN21 1XY","addr:street":"Heapham Road South","alt_name":"Morrisons Gainsborough","brand":"Morrisons","brand:wikidata":"Q922344","brand:wikipedia":"en:Morrisons","fhrs:id":"235049","operator":"WM Morrison Supermarkets Plc"}}, "geometry":{"type":"MultiPolygon","coordinates":[[[[-0.74643,53.39087],[-0.74592,53.39047],[-0.74716,53.38992],[-0.74766,53.39032],[-0.74724,53.39051],[-0.74643,53.39087]]]]}},
{ "type":"Feature","properties":{"osm_way_id":"34006876","name":"M&S Foodhall","building":"yes","shop":"supermarket","other":{"addr:city":"Gainsborough","addr:country":"GB","addr:county":"Lincolnshire","addr:housename":"Marshall's Yard","addr:postcode":"DN21 2NA","addr:street":"Beaumont Street","addr:unit":"7,8","alt_name":"M&S Gainsborough Simply Food","brand":"M&S Foodhall","brand:wikidata":"Q714491","brand:wikipedia":"en:Marks & Spencer","fhrs:id":"234442"}}, "geometry":{"type":"MultiPolygon","coordinates":[[[[-0.77138,53.39903],[-0.77114,53.39905],[-0.77109,53.3988],[-0.77134,53.39879],[-0.77138,53.39903]]]]}},
{ "type":"Feature","properties":{"osm_way_id":"172391830","name":"Lincolnshire Co-op","building":"yes","shop":"supermarket"},"geometry":{"type":"MultiPolygon","coordinates":[[[[-0.66405,53.27065],[-0.66403,53.27052],[-0.66372,53.27054],[-0.66376,53.27086],[-0.66407,53.27085],[-0.66406,53.27073],[-0.66399,53.27074],[-0.66398,53.27065],[-0.66405,53.27065]]]]}},
{ "type":"Feature","properties":{"osm_way_id":"208566478","name":"Tesco","building":"supermarket","shop":"supermarket","other":{"addr:postcode":"LN8 3AW","addr:street":"Linwood Road","brand":"Tesco","brand:wikidata":"Q487494","brand:wikipedia":"en:Tesco","fhrs:id":"234296","source:addr":"FHRS Open Data"}}, "geometry":{"type":"MultiPolygon","coordinates":[[[[-0.33658,53.38399],[-0.33662,53.38394],[-0.33657,53.38393],[-0.33686,53.38353],[-0.33665,53.38348],[-0.33657,53.38358],[-0.33579,53.38337],[-0.33557,53.38367],[-0.33552,53.38365],[-0.33549,53.38371],[-0.33658,53.38399]]]]}},
{ "type":"Feature","properties":{"osm_way_id":"259022526","name":"Tesco","building":"yes","shop":"supermarket","other":{"addr:city":"Gainsborough","addr:country":"GB","addr:county":"Lincolnshire","addr:postcode":"DN21 2HA","addr:street":"Trinity Street","alt_name":"Tesco Gainsborough Superstore","brand":"Tesco","brand:wikidata":"Q487494","brand:wikipedia":"en:Tesco","fhrs:id":"234364","operator":"Tesco Stores Ltd"}}, "geometry":{"type":"MultiPolygon","coordinates":[[[[-0.77189,53.39736],[-0.77192,53.39753],[-0.77198,53.39796],[-0.77212,53.39795],[-0.77223,53.39795],[-0.77225,53.39808],[-0.77096,53.39814],[-0.77087,53.39754],[-0.77078,53.39754],[-0.77076,53.39742],[-0.77189,53.39736]]]]}},
{ "type":"Feature","properties":{"osm_way_id":"264781549","name":"Lincolnshire Co-op","building":"yes","shop":"supermarket","other":{"addr:city":"Gainsborough","addr:country":"GB","addr:hamlet":"Morton","addr:housenumber":"28","addr:postcode":"DN21 3AA","addr:street":"Front Street","alt_name":"Morton Food Store","brand":"Lincolnshire Co-op","brand:wikidata":"Q6551231","brand:wikipedia":"en:Lincolnshire Co-operative","fhrs:id":"234840","operator":"Lincolnshire Co-Operative","payment:cash":"yes","payment:coins":"yes","payment:credit_cards":"yes","payment:debit_cards":"yes","payment:visa":"yes"}}, "geometry":{"type":"MultiPolygon","coordinates":[[[[-0.78445,53.41455],[-0.78438,53.41434],[-0.78419,53.41436],[-0.78427,53.41457],[-0.78445,53.41455]]]]}},
{ "type":"Feature","properties":{"osm_way_id":"264835499","name":"ALDI","building":"yes","shop":"supermarket","other":{"addr:city":"Gainsborough","addr:country":"GB","addr:county":"Lincolnshire","addr:postcode":"DN21 1AF","addr:street":"Lea Road","alt_name":"ALDI Gainsborough","brand":"ALDI","brand:wikidata":"Q41171672","brand:wikipedia":"en:Aldi","fhrs:id":"234888"}}, "geometry":{"type":"MultiPolygon","coordinates":[[[[-0.77003,53.38772],[-0.76975,53.38748],[-0.76907,53.38775],[-0.76917,53.38784],[-0.76924,53.38781],[-0.76937,53.38792],[-0.76975,53.38777],[-0.7698,53.38781],[-0.77003,53.38772]]]]}},
{ "type":"Feature","properties":{"osm_way_id":"269851318","name":"Affordable Foods","building":"retail","shop":"supermarket","other":{"addr:city":"Gainsborough","addr:housenumber":"34","addr:postcode":"DN21 1SN","addr:street":"Queensway","alt_name":"Queensway Food Store","opening_hours":"Mo-Fr 08:30-16:00; Sa 10:00-16:00","website":"https:\/\/www.facebook.com\/AffordableFoodsGains\/"}}, "geometry":{"type":"MultiPolygon","coordinates":[[[[-0.75996,53.39902],[-0.75992,53.39914],[-0.76009,53.39916],[-0.76014,53.39904],[-0.75996,53.39902]]]]}},
{ "type":"Feature","properties":{"osm_way_id":"287146916","name":"Lincolnshire Co-op","building":"yes","shop":"supermarket","other":{"brand":"Lincolnshire Co-op","brand:wikidata":"Q6551231","brand:wikipedia":"en:Lincolnshire Co-operative","operator":"Lincolnshire Co-operative"}}, "geometry":{"type":"MultiPolygon","coordinates":[[[[-0.31596,53.49792],[-0.31584,53.49791],[-0.31566,53.49789],[-0.31575,53.49757],[-0.31605,53.4976],[-0.31596,53.49792]]]]}},
{ "type":"Feature","properties":{"osm_way_id":"318191845","name":"Lincolnshire Co-op","building":"supermarket","shop":"supermarket","other":{"addr:city":"Market Rasen","addr:street":"John Street","brand":"Lincolnshire Co-op","brand:wikidata":"Q6551231","brand:wikipedia":"en:Lincolnshire Co-operative","opening_hours":"Mo-Sa 07:00-22:00; Su 10:00-16:00","operator":"Lincolnshire Co-operative Society"}}, "geometry":{"type":"MultiPolygon","coordinates":[[[[-0.33846,53.38703],[-0.33845,53.38705],[-0.33863,53.38709],[-0.33851,53.38734],[-0.33799,53.38725],[-0.33804,53.38713],[-0.3381,53.38714],[-0.33818,53.38699],[-0.33846,53.38703]]]]}},
{ "type":"Feature","properties":{"osm_way_id":"779264384","name":"Lidl","building":"yes","shop":"supermarket","other":{"addr:country":"GB","addr:postcode":"DN21 2ER","addr:street":"Beaumont Street","brand":"Lidl","brand:wikidata":"Q151954","brand:wikipedia":"en:Lidl","fhrs:id":"1008401"}}, "geometry":{"type":"MultiPolygon","coordinates":[[[[-0.77456,53.39898],[-0.77341,53.39903],[-0.77337,53.39871],[-0.77444,53.39866],[-0.77446,53.39882],[-0.77454,53.39882],[-0.77456,53.39898]]]]}},
{ "type":"Feature","properties":{"osm_way_id":"862186686","name":"Co-op","building":"yes","shop":"supermarket"},"geometry":{"type":"MultiPolygon","coordinates":[[[[-0.32364,53.21181],[-0.32348,53.21185],[-0.32339,53.21187],[-0.32333,53.21177],[-0.32342,53.21175],[-0.32337,53.21166],[-0.32353,53.21163],[-0.32364,53.21181]]]]}}
]
}
