{
"type": "FeatureCollection",
"features": [
{ "type":"Feature","properties":{"osm_id":"556624258","name":"Lexden Convenience Store","other":{"shop":"supermarket","addr:city":"Colchester","wheelchair":"no","addr:street":"Church Lane","addr:postcode":"CO3 4AF","addr:housenumber":"16"}}, "geometry":{"type":"Point","coordinates":[0.85978,51.88293 ]}},
{ "type":"Feature","properties":{"osm_id":"3276736730","name":"Iceland","other":{"brand":"Iceland","brand:wikidata":"Q721810","shop":"supermarket"}}, "geometry":{"type":"Point","coordinates":[0.75105,51.81066 ]}},
{ "type":"Feature","properties":{"osm_id":"3832578995","name":"Co-op Food","other":{"addr:city":"Colchester","addr:housename":"The Maltings","addr:postcode":"CO2 8JB","addr:street":"Haven Road","brand":"Co-op Food","brand:wikidata":"Q3277439","brand:wikipedia":"en:Co-op Food","shop":"supermarket"}}, "geometry":{"type":"Point","coordinates":[0.92721,51.87962 ]}},
{ "type":"Feature","properties":{"osm_id":"6775278628","other":{"emergency":"defibrillator"}}, "geometry":{"type":"Point","coordinates":[0.96003,51.85964 ]}},
{ "type":"Feature","properties":{"osm_id":"8741765498","name":"Co-operative Food Store","other":{"building":"construction","shop":"supermarket"}}, "geometry":{"type":"Point","coordinates":[0.88558,51.91738 ]}},
{ "type":"Feature","properties":{"osm_way_id":"32794062","name":"Fiveways Co-op","building":"retail","shop":"supermarket"},"geometry":{"type":"MultiPolygon","coordinates":[[[[0.84404,51.87852],[0.84403,51.87864],[0.84554,51.87869],[0.84557,51.87837],[0.84451,51.87833],[0.84449,51.87854],[0.84404,51.87852]]]]}},
{ "type":"Feature","properties":{"osm_way_id":"33795548","name":"Costcutter","building":"shop","landuse":"retail","shop":"supermarket","other":{"addr:city":"Colchester","addr:housename":"Homefield Road Store","addr:postcode":"CO2 9PF","addr:street":"Homefield Road","brand":"Costcutter","brand:wikidata":"Q5175072","brand:wikipedia":"en:Costcutter","website":"https:\/\/www.costcutter.co.uk\/location\/HOMEFIELD-ROAD-STORE-CO2-9PF\/"}}, "geometry":{"type":"MultiPolygon","coordinates":[[[[0.8802,51.86585],[0.88018,51.86581],[0.88026,51.8658],[0.88024,51.86572],[0.88061,51.86568],[0.88074,51.86612],[0.88037,51.86616],[0.88027,51.86584],[0.8802,51.86585]]]]}},
{ "type":"Feature","properties":{"osm_way_id":"34549575","name":"Tesco Express","building":"yes","shop":"supermarket","other":{"brand":"Tesco Express","brand:wikidata":"Q98456772","brand:wikipedia":"en:Tesco","operator":"Tesco Stores Ltd"}}, "geometry":{"type":"MultiPolygon","coordinates":[[[[0.91271,51.77891],[0.91268,51.77877],[0.91307,51.77873],[0.9131,51.77888],[0.91271,51.77891]]]]}},
{ "type":"Feature","properties":{"osm_way_id":"35801895","name":"Co-op Local","building":"yes","landuse":"retail","shop":"supermarket"},"geometry":{"type":"MultiPolygon","coordinates":[[[[0.90563,51.88],[0.90529,51.87978],[0.90513,51.87967],[0.90541,51.8795],[0.90592,51.87983],[0.90563,51.88]]]]}},
{ "type":"Feature","properties":{"osm_way_id":"36140632","name":"Tesco","building":"yes","shop":"supermarket","other":{"brand":"Tesco","operator":"Tesco Stores Ltd","brand:wikidata":"Q487494","brand:wikipedia":"en:Tesco"}}, "geometry":{"type":"MultiPolygon","coordinates":[[[[0.75105,51.80899],[0.75136,51.80912],[0.7515,51.80899],[0.75195,51.80918],[0.75143,51.80964],[0.75068,51.80932],[0.75105,51.80899]]]]}},
{ "type":"Feature","properties":{"osm_way_id":"90273921","name":"Asda","building":"yes","shop":"supermarket","other":{"brand":"Asda","fhrs:id":"137695","operator":"Asda Stores Ltd","addr:city":"Colchester","addr:street":"Church Road","addr:country":"GB","addr:postcode":"CO5 0LA","brand:wikidata":"Q297410","brand:wikipedia":"en:Asda","contact:twitter":"@asda","contact:website":"https:\/\/storelocator.asda.com\/east-of-england\/colchester\/25-church-road-tiptree","addr:housenumber":"25","contact:facebook":"https:\/\/www.facebook.com\/asda\/"}}, "geometry":{"type":"MultiPolygon","coordinates":[[[[0.74787,51.81456],[0.74763,51.81449],[0.74781,51.81423],[0.74835,51.81438],[0.74842,51.81427],[0.74861,51.81432],[0.74823,51.81486],[0.74774,51.81473],[0.74787,51.81456]]]]}},
{ "type":"Feature","properties":{"osm_way_id":"93385818","name":"Coop Daily","building":"yes","shop":"supermarket","other":{"addr:city":"Colchester","addr:housenumber":"193","addr:postcode":"CO2 8AT","addr:street":"Old Heath Road","operator":"East of England Co-op","source:addr":"Food Hygiene Open Data"}}, "geometry":{"type":"MultiPolygon","coordinates":[[[[0.92379,51.8741],[0.92391,51.87412],[0.92396,51.87403],[0.92394,51.874],[0.92368,51.87395],[0.92353,51.87391],[0.92347,51.87401],[0.92362,51.87405],[0.92379,51.8741]]]]}},
{ "type":"Feature","properties":{"osm_way_id":"145204107","name":"Waitrose","building":"shop","shop":"supermarket","other":{"addr:city":"Colchester","addr:housename":"Waitrose","addr:postcode":"CO4 3EQ","addr:street":"St Andrew's Avenue","alt_name":"Waitrose Colchester","brand":"Waitrose","brand:wikidata":"Q771734","brand:wikipedia":"en:Waitrose & Partners","fhrs:id":"144873","official_name":"Waitrose & Partners","operator":"Waitrose & Partners","website":"https:\/\/www.waitrose.com\/bf_home\/bf\/455.html"}}, "geometry":{"type":"MultiPolygon","coordinates":[[[[0.91843,51.89379],[0.91816,51.89338],[0.91824,51.89336],[0.91823,51.89334],[0.9187,51.89322],[0.91868,51.89318],[0.91903,51.8931],[0.91923,51.8934],[0.9193,51.89338],[0.91943,51.89356],[0.91886,51.89371],[0.91884,51.89368],[0.91869,51.89372],[0.91874,51.89379],[0.91862,51.89382],[0.91857,51.89375],[0.91843,51.89379]]]]}},
{ "type":"Feature","properties":{"osm_way_id":"151201869","name":"Co-op Foodstore","building":"retail","shop":"supermarket","other":{"fhrs:id":"45054","alt_name":"East of England Co-op","wheelchair":"yes","addr:street":"The Avenue","source:addr":"fhrs","addr:postcode":"CO7 9AH","contact:website":"http:\/\/www.eastofengland.coop","source:alt_name":"fhrs","addr:housenumber":"2"}}, "geometry":{"type":"MultiPolygon","coordinates":[[[[0.96016,51.85982],[0.96016,51.85965],[0.96006,51.85965],[0.96006,51.85964],[0.96003,51.85964],[0.96001,51.85964],[0.9599,51.85964],[0.9599,51.8597],[0.95987,51.8597],[0.95987,51.85976],[0.95987,51.85981],[0.95987,51.85981],[0.95987,51.85982],[0.95987,51.85982],[0.95987,51.85992],[0.95987,51.85992],[0.95987,51.85994],[0.95998,51.85994],[0.95998,51.85994],[0.96016,51.85992],[0.96016,51.85982]]]]}},
{ "type":"Feature","properties":{"osm_way_id":"189838462","name":"Co-op Food","building":"yes","shop":"supermarket","other":{"brand":"Co-op Food","operator":"East of England Co-operative Society","addr:city":"Colchester","addr:street":"Wimpole Road","addr:postcode":"CO1 2DB","brand:wikidata":"Q3277439","brand:wikipedia":"en:Co-op Food","addr:housenumber":"89"}}, "geometry":{"type":"MultiPolygon","coordinates":[[[[0.91373,51.88411],[0.91373,51.88383],[0.91403,51.88382],[0.91415,51.88383],[0.91415,51.88398],[0.91403,51.88398],[0.91403,51.88411],[0.91373,51.88411]]]]}},
{ "type":"Feature","properties":{"osm_way_id":"190076257","name":"Tesco","building":"retail","shop":"supermarket","other":{"addr:city":"Colchester","addr:postcode":"CO1 2TE","addr:street":"Greenstead Road","alt_name":"Tesco Colchester Hythe Superstore","brand":"Tesco","brand:wikidata":"Q487494","brand:wikipedia":"en:Tesco","internet_access":"wlan","operator":"Tesco Stores Ltd","wheelchair":"yes"}}, "geometry":{"type":"MultiPolygon","coordinates":[[[[0.92857,51.88531],[0.92876,51.88515],[0.92881,51.88517],[0.92945,51.88461],[0.9295,51.88463],[0.92954,51.8846],[0.92969,51.88467],[0.92967,51.88468],[0.92991,51.88478],[0.92992,51.88477],[0.92997,51.88479],[0.93071,51.88415],[0.93076,51.88418],[0.93002,51.88482],[0.93007,51.88484],[0.93006,51.88485],[0.93016,51.8849],[0.93019,51.88487],[0.93024,51.88489],[0.93026,51.88487],[0.93032,51.88489],[0.93034,51.88488],[0.93061,51.885],[0.9306,51.88502],[0.93064,51.88503],[0.93062,51.88505],[0.93073,51.8851],[0.93052,51.88528],[0.93043,51.88524],[0.93035,51.88531],[0.9304,51.88533],[0.9303,51.88541],[0.93028,51.88542],[0.93024,51.8854],[0.93013,51.88549],[0.92998,51.88542],[0.92978,51.8856],[0.92943,51.88545],[0.92933,51.88553],[0.9288,51.8853],[0.92872,51.88538],[0.92857,51.88531]]]]}},
{ "type":"Feature","properties":{"osm_way_id":"190077008","name":"Asda","building":"retail","shop":"supermarket","other":{"addr:city":"Colchester","addr:country":"GB","addr:postcode":"CO4 5TU","branch":"Colchester Superstore","brand":"Asda","brand:wikidata":"Q297410","brand:wikipedia":"en:Asda","contact:facebook":"https:\/\/www.facebook.com\/asda\/","contact:phone":"+44 1206 543159","contact:twitter":"@asda","contact:website":"https:\/\/storelocator.asda.com\/east-of-england\/colchester\/turner-rise","fhrs:id":"118195","opening_hours:covid19":"Mo-Sa 08:00-22:00; Su 10:00-16:00","operator":"Asda Stores Ltd"}}, "geometry":{"type":"MultiPolygon","coordinates":[[[[0.89743,51.90132],[0.89734,51.90126],[0.89749,51.90116],[0.89759,51.90122],[0.89779,51.90108],[0.89804,51.90122],[0.89814,51.90115],[0.89891,51.90158],[0.89809,51.90213],[0.89791,51.90202],[0.89777,51.90212],[0.8975,51.90198],[0.8974,51.90204],[0.89721,51.90194],[0.89715,51.90185],[0.89723,51.90183],[0.89716,51.90171],[0.89725,51.90166],[0.89709,51.90156],[0.89743,51.90132]]]]}},
{ "type":"Feature","properties":{"osm_way_id":"190077795","name":"Sainsbury's","building":"yes","shop":"supermarket","other":{"brand":"Sainsbury's","alt_name":"Sainsbury's Colchester Superstore","addr:street":"Priory Walk","addr:postcode":"CO1 1LG","brand:wikidata":"Q152096","brand:wikipedia":"en:Sainsbury's","addr:housenumber":"11-14"}}, "geometry":{"type":"MultiPolygon","coordinates":[[[[0.90292,51.88874],[0.90328,51.88866],[0.90332,51.88874],[0.90335,51.88879],[0.9034,51.88885],[0.90354,51.88883],[0.90366,51.88905],[0.90363,51.88919],[0.90351,51.88919],[0.9035,51.88924],[0.90309,51.88921],[0.90311,51.88912],[0.90305,51.88912],[0.90297,51.88898],[0.903,51.88898],[0.90297,51.88891],[0.90301,51.8889],[0.90298,51.88885],[0.90292,51.88874]]]]}},
{ "type":"Feature","properties":{"osm_way_id":"190078239","name":"Aldi","building":"yes","shop":"supermarket","other":{"addr:city":"Colchester","addr:postcode":"CO1 2FJ","addr:street":"Magdalen Street","alt_name":"ALDI Colchester","brand":"ALDI","brand:wikidata":"Q41171672","brand:wikipedia":"en:Aldi","level":"0"}}, "geometry":{"type":"MultiPolygon","coordinates":[[[[0.90864,51.88545],[0.90857,51.88522],[0.90916,51.88514],[0.90914,51.88509],[0.90933,51.88506],[0.90943,51.88534],[0.90864,51.88545]]]]}},
{ "type":"Feature","properties":{"osm_way_id":"190078844","name":"Lidl","building":"yes","shop":"supermarket","other":{"addr:postcode":"CO4 3BG","addr:street":"Saint Andrew's Avenue","brand":"Lidl","brand:wikidata":"Q151954","brand:wikipedia":"en:Lidl"}}, "geometry":{"type":"MultiPolygon","coordinates":[[[[0.91834,51.89207],[0.91878,51.89153],[0.91936,51.89171],[0.91895,51.8922],[0.91909,51.89225],[0.91913,51.89224],[0.91918,51.89226],[0.91909,51.89229],[0.91872,51.89222],[0.91866,51.89231],[0.91847,51.89235],[0.91833,51.89231],[0.91827,51.89219],[0.91834,51.8921],[0.91834,51.89207]]]]}},
{ "type":"Feature","properties":{"osm_way_id":"190080692","name":"Tesco Extra","building":"yes","shop":"supermarket","other":{"addr:city":"Colchester","addr:housename":"Tesco Extra","addr:postcode":"CO4 9ED","addr:street":"Highwoods Square","branch":"Colchester Extra","brand":"Tesco Extra","brand:wikidata":"Q25172225","brand:wikipedia":"en:Tesco Extra","opening_hours":"Mo-Sa 06:00-00:00, Sun 10:00-16:00","opening_hours:covid19":"same","operator":"Tesco Stores Ltd","phone":"+443456779188","website":"https:\/\/www.tesco.com\/store-locator\/colchester\/highwoods-square"}}, "geometry":{"type":"MultiPolygon","coordinates":[[[[0.91803,51.90941],[0.91838,51.90936],[0.91835,51.90925],[0.91848,51.90924],[0.9185,51.90928],[0.91897,51.90924],[0.91907,51.90961],[0.9193,51.90959],[0.91932,51.90964],[0.91968,51.9096],[0.91979,51.90996],[0.91987,51.90995],[0.9201,51.91004],[0.91977,51.91037],[0.91973,51.91035],[0.91946,51.91038],[0.91942,51.91036],[0.91939,51.91027],[0.91872,51.91034],[0.91873,51.9104],[0.91843,51.91043],[0.91842,51.91038],[0.91825,51.9104],[0.91809,51.91041],[0.91803,51.91042],[0.918,51.91032],[0.91831,51.91028],[0.91827,51.91017],[0.91803,51.90941]]]]}},
{ "type":"Feature","properties":{"osm_way_id":"199250517","name":"Sainsbury's","building":"shop","shop":"supermarket","other":{"addr:city":"Colchester","addr:housenumber":"1","addr:postcode":"CO3 8AA","addr:street":"Western Approach","alt_name":"Sainsbury's Stanway Superstore","brand":"Sainsbury's","brand:wikidata":"Q152096","brand:wikipedia":"en:Sainsbury's"}}, "geometry":{"type":"MultiPolygon","coordinates":[[[[0.83016,51.88646],[0.83112,51.88664],[0.83106,51.88677],[0.83113,51.88679],[0.83113,51.88693],[0.83107,51.88704],[0.83121,51.88707],[0.83124,51.88712],[0.83124,51.88714],[0.83104,51.88711],[0.83089,51.88742],[0.83076,51.8874],[0.83064,51.88765],[0.83023,51.88776],[0.82961,51.88765],[0.82979,51.88728],[0.82966,51.88725],[0.82973,51.8871],[0.82985,51.88712],[0.83016,51.88646]]]]}},
{ "type":"Feature","properties":{"osm_way_id":"256323233","name":"East of England Co-op","building":"yes","shop":"supermarket","other":{"addr:street":"Chapel Road","designation":"Co-op Foodstore","addr:postcode":"CO6 3TB","addr:housenumber":"43"}}, "geometry":{"type":"MultiPolygon","coordinates":[[[[0.85257,51.91258],[0.85264,51.91248],[0.85297,51.91257],[0.85281,51.9128],[0.85261,51.91275],[0.85271,51.91261],[0.85257,51.91258]]]]}},
{ "type":"Feature","properties":{"osm_way_id":"330897628","name":"mm","building":"shop","shop":"supermarket","other":{"cuisine":"asian","addr:city":"Colchester","addr:street":"St Botolphs Street","addr:postcode":"CO2 7EA","addr:housenumber":"30"}}, "geometry":{"type":"MultiPolygon","coordinates":[[[[0.90373,51.8869],[0.90368,51.8869],[0.90355,51.88689],[0.90356,51.88684],[0.90373,51.88686],[0.90373,51.8869]]]]}},
{ "type":"Feature","properties":{"osm_way_id":"331352217","name":"Premier Queen Street Continental Supermarket","building":"shop","shop":"supermarket","other":{"addr:city":"Colchester","addr:street":"Queen Street","addr:postcode":"CO1 2ZH"}}, "geometry":{"type":"MultiPolygon","coordinates":[[[[0.9034,51.88819],[0.90322,51.88822],[0.90318,51.8881],[0.90327,51.8881],[0.90325,51.88802],[0.90333,51.88801],[0.9034,51.88819]]]]}},
{ "type":"Feature","properties":{"osm_way_id":"407942239","name":"East of England Co-op","building":"retail","shop":"supermarket","other":{"addr:city":"West Mersea"}}, "geometry":{"type":"MultiPolygon","coordinates":[[[[0.91841,51.7784],[0.91822,51.77809],[0.91871,51.77798],[0.9189,51.77828],[0.91841,51.7784]]]]}},
{ "type":"Feature","properties":{"osm_way_id":"416923590","name":"Aldi","building":"retail","shop":"supermarket","other":{"addr:housename":"Colne View Retail Park","addr:postcode":"CO1 1YN","addr:street":"Cowdray Avenue","brand":"ALDI","brand:wikidata":"Q41171672","brand:wikipedia":"en:Aldi","fhrs:id":"507435","opening_hours":"Mo-Sa 08:00-22:00; Su 10:00-16:00","website":"https:\/\/www.aldi.co.uk\/store\/s-uk-E1126"}}, "geometry":{"type":"MultiPolygon","coordinates":[[[[0.91059,51.89884],[0.91053,51.89844],[0.91104,51.89841],[0.91105,51.89846],[0.91113,51.89888],[0.91061,51.89892],[0.91059,51.89884]]]]}},
{ "type":"Feature","properties":{"osm_way_id":"429954126","name":"Lidl","building":"yes","shop":"supermarket","other":{"addr:country":"GB","addr:housenumber":"117","addr:postcode":"CO2 9JT","addr:street":"Gosbecks Road","brand":"Lidl","brand:wikidata":"Q151954","brand:wikipedia":"en:Lidl","fhrs:id":"915834"}}, "geometry":{"type":"MultiPolygon","coordinates":[[[[0.86765,51.86965],[0.8676,51.86962],[0.86781,51.86945],[0.86757,51.86933],[0.8671,51.86911],[0.86677,51.86938],[0.86753,51.86974],[0.86765,51.86965]]]]}},
{ "type":"Feature","properties":{"osm_way_id":"488635584","name":"COOP Daily","building":"yes","shop":"supermarket","other":{"addr:city":"Colchester","wheelchair":"yes","addr:street":"The Commons","addr:postcode":"CO3 4NW","addr:housenumber":"96"}}, "geometry":{"type":"MultiPolygon","coordinates":[[[[0.86535,51.88049],[0.86563,51.88059],[0.86568,51.8807],[0.86546,51.88074],[0.86535,51.88049]]]]}},
{ "type":"Feature","properties":{"osm_way_id":"490621544","name":"Baltika","building":"yes","shop":"supermarket","other":{"addr:city":"Colchester","addr:street":"The Willows","addr:postcode":"CO2 8PZ","addr:housenumber":"8"}}, "geometry":{"type":"MultiPolygon","coordinates":[[[[0.90882,51.87161],[0.90878,51.87171],[0.90886,51.87173],[0.90891,51.87163],[0.90882,51.87161]]]]}},
{ "type":"Feature","properties":{"osm_way_id":"493918304","name":"Noor Supermarket","building":"yes","shop":"supermarket","other":{"addr:city":"Colchester","addr:street":"Priory Walk","addr:postcode":"CO1 2ZH","addr:housenumber":"17-19"}}, "geometry":{"type":"MultiPolygon","coordinates":[[[[0.90341,51.88862],[0.90346,51.88871],[0.90372,51.88866],[0.90365,51.88855],[0.90341,51.88862]]]]}},
{ "type":"Feature","properties":{"osm_way_id":"519518363","name":"Co-op Food","building":"yes","shop":"supermarket","other":{"brand":"Co-op Food","brand:wikidata":"Q3277439","brand:wikipedia":"en:Co-op Food"}}, "geometry":{"type":"MultiPolygon","coordinates":[[[[0.86234,51.87308],[0.86238,51.87305],[0.86239,51.87306],[0.86243,51.87309],[0.86259,51.87299],[0.86257,51.87298],[0.86264,51.87294],[0.86276,51.87301],[0.86256,51.87314],[0.86251,51.87312],[0.8625,51.87313],[0.86247,51.87311],[0.86245,51.87312],[0.86242,51.8731],[0.8624,51.87311],[0.86234,51.87308]]]]}},
{ "type":"Feature","properties":{"osm_way_id":"623533506","name":"Lidl","building":"yes","shop":"supermarket","other":{"addr:city":"Colchester","addr:country":"GB","addr:housenumber":"118","addr:postcode":"CO2 8BG","addr:street":"Abbot's Road","brand":"Lidl","brand:wikidata":"Q151954","brand:wikipedia":"en:Lidl","fhrs:id":"142485"}}, "geometry":{"type":"MultiPolygon","coordinates":[[[[0.91533,51.87293],[0.91582,51.87267],[0.91571,51.87259],[0.91565,51.87262],[0.91545,51.87248],[0.91539,51.87251],[0.91508,51.87229],[0.91533,51.87293]]]]}},
{ "type":"Feature","properties":{"osm_way_id":"733736334","name":"Co-op Daily","building":"shop","shop":"supermarket","other":{"addr:city":"Colchester","addr:street":"Harwich Road","addr:postcode":"CO4 3DB","source:building":"Bing","addr:housenumber":"185"}}, "geometry":{"type":"MultiPolygon","coordinates":[[[[0.92661,51.89437],[0.92683,51.89416],[0.92695,51.89421],[0.92685,51.89431],[0.92678,51.89438],[0.92674,51.89442],[0.92661,51.89437]]]]}}
]
}
