{
"type": "FeatureCollection",
"features": [
{ "type":"Feature","properties":{"osm_way_id":"31109756","name":"Nova Biomedical","building":"warehouse","other":{"addr:housename":"1 Zip56","addr:postcode":"WA7 3FZ","addr:street":"Aston Fields Road"}}, "geometry":{"type":"MultiPolygon","coordinates":[[[[-2.66101,53.31135],[-2.65905,53.31102],[-2.65926,53.31058],[-2.65938,53.31032],[-2.66134,53.31065],[-2.66101,53.31135]]]]}},
{ "type":"Feature","properties":{"osm_way_id":"252791100","name":"Encirc Glass","building":"warehouse","other":{"building:levels":"1"}}, "geometry":{"type":"MultiPolygon","coordinates":[[[[-2.81556,53.27859],[-2.81476,53.27796],[-2.8146,53.27803],[-2.81447,53.27793],[-2.81372,53.27827],[-2.81386,53.27838],[-2.81189,53.27927],[-2.81179,53.2792],[-2.81125,53.27945],[-2.81235,53.28032],[-2.81214,53.28041],[-2.81221,53.28047],[-2.81062,53.28119],[-2.81068,53.28124],[-2.81042,53.28136],[-2.81101,53.28183],[-2.81129,53.2817],[-2.81193,53.28221],[-2.81352,53.28149],[-2.81359,53.28155],[-2.8143,53.28122],[-2.81265,53.27992],[-2.81556,53.27859]]]]}},
{ "type":"Feature","properties":{"osm_way_id":"256140361","name":"Big Storage","building":"warehouse"},"geometry":{"type":"MultiPolygon","coordinates":[[[[-2.92159,53.19488],[-2.92082,53.19445],[-2.92038,53.19474],[-2.92037,53.1949],[-2.92102,53.19525],[-2.92159,53.19488]]]]}},
{ "type":"Feature","properties":{"osm_way_id":"258180097","building":"warehouse"},"geometry":{"type":"MultiPolygon","coordinates":[[[[-2.89949,53.29128],[-2.89982,53.29109],[-2.89885,53.2905],[-2.89852,53.29069],[-2.89949,53.29128]]]]}},
{ "type":"Feature","properties":{"osm_way_id":"258180115","building":"warehouse"},"geometry":{"type":"MultiPolygon","coordinates":[[[[-2.8984,53.29062],[-2.89858,53.29052],[-2.89862,53.29055],[-2.89876,53.29047],[-2.89842,53.29025],[-2.8981,53.29043],[-2.8984,53.29062]]]]}},
{ "type":"Feature","properties":{"osm_way_id":"279524981","building":"warehouse"},"geometry":{"type":"MultiPolygon","coordinates":[[[[-2.48566,53.27272],[-2.48504,53.27292],[-2.48553,53.27346],[-2.48538,53.27351],[-2.48566,53.27383],[-2.48675,53.27348],[-2.48669,53.27341],[-2.48692,53.27333],[-2.48631,53.27266],[-2.48603,53.27275],[-2.48614,53.27287],[-2.48587,53.27295],[-2.48566,53.27272]]]]}},
{ "type":"Feature","properties":{"osm_way_id":"290196242","building":"warehouse","other":{"addr:housename":"2a Zip56","addr:postcode":"WA7 3FZ","addr:street":"Aston Fields Road"}}, "geometry":{"type":"MultiPolygon","coordinates":[[[[-2.66174,53.31113],[-2.66213,53.31119],[-2.66228,53.31086],[-2.66189,53.3108],[-2.66174,53.31113]]]]}},
{ "type":"Feature","properties":{"osm_way_id":"290196245","building":"warehouse","other":{"addr:housename":"2b Zip56","addr:postcode":"WA7 3FZ","addr:street":"Aston Fields Road"}}, "geometry":{"type":"MultiPolygon","coordinates":[[[[-2.66213,53.31119],[-2.66251,53.31125],[-2.66266,53.31092],[-2.66228,53.31086],[-2.66213,53.31119]]]]}},
{ "type":"Feature","properties":{"osm_way_id":"290196248","building":"warehouse","other":{"addr:housename":"2c Zip56","addr:postcode":"WA7 3FZ","addr:street":"Aston Fields Road"}}, "geometry":{"type":"MultiPolygon","coordinates":[[[[-2.66251,53.31125],[-2.6629,53.31131],[-2.66305,53.31098],[-2.66266,53.31092],[-2.66251,53.31125]]]]}},
{ "type":"Feature","properties":{"osm_way_id":"290196250","building":"warehouse","other":{"addr:housename":"2d Zip56","addr:postcode":"WA7 3FZ","addr:street":"Aston Fields Road"}}, "geometry":{"type":"MultiPolygon","coordinates":[[[[-2.6629,53.31131],[-2.66328,53.31138],[-2.66337,53.31117],[-2.66349,53.31119],[-2.66354,53.3111],[-2.66363,53.31111],[-2.66365,53.31108],[-2.66343,53.31104],[-2.66305,53.31098],[-2.6629,53.31131]]]]}},
{ "type":"Feature","properties":{"osm_way_id":"317350941","building":"warehouse"},"geometry":{"type":"MultiPolygon","coordinates":[[[[-2.55488,53.18315],[-2.55482,53.18322],[-2.55521,53.18334],[-2.55527,53.18327],[-2.55488,53.18315]]]]}},
{ "type":"Feature","properties":{"osm_way_id":"318137086","name":"Cheshire Warehousing","building":"warehouse"},"geometry":{"type":"MultiPolygon","coordinates":[[[[-2.5106,53.19937],[-2.51067,53.19925],[-2.51061,53.19923],[-2.51073,53.19902],[-2.50975,53.19882],[-2.50955,53.19915],[-2.5106,53.19937]]]]}},
{ "type":"Feature","properties":{"osm_way_id":"326268339","building":"warehouse"},"geometry":{"type":"MultiPolygon","coordinates":[[[[-2.88802,53.28519],[-2.88888,53.28491],[-2.88886,53.28488],[-2.88891,53.28486],[-2.88879,53.28475],[-2.88847,53.28486],[-2.88836,53.28472],[-2.88827,53.28474],[-2.88816,53.28463],[-2.88775,53.28479],[-2.88788,53.28509],[-2.88802,53.28519]]]]}},
{ "type":"Feature","properties":{"osm_way_id":"330883428","name":"DX Freight","building":"warehouse","other":{"website":"https:\/\/www.dxdelivery.com\/","wikipedia":"en:DX Freight"}}, "geometry":{"type":"MultiPolygon","coordinates":[[[[-2.4136,53.22036],[-2.41319,53.22087],[-2.41358,53.22098],[-2.41398,53.22047],[-2.4136,53.22036]]]]}},
{ "type":"Feature","properties":{"osm_way_id":"581241224","name":"S Cooper & Sons Ltd","building":"warehouse"},"geometry":{"type":"MultiPolygon","coordinates":[[[[-2.5106,53.19937],[-2.50955,53.19915],[-2.50914,53.19985],[-2.51027,53.20009],[-2.51039,53.19988],[-2.51031,53.19986],[-2.5106,53.19937]]]]}},
{ "type":"Feature","properties":{"osm_way_id":"676646546","name":"J and S Accessories","building":"warehouse","other":{"addr:postcode":"CW8 2HB","building:levels":"0"}}, "geometry":{"type":"MultiPolygon","coordinates":[[[[-2.64936,53.21458],[-2.64906,53.21467],[-2.64896,53.21454],[-2.64929,53.21445],[-2.64936,53.21453],[-2.64932,53.21454],[-2.64936,53.21458]]]]}},
{ "type":"Feature","properties":{"osm_way_id":"891871972","name":"Encirc Glass","building":"warehouse","other":{"building:levels":"1"}}, "geometry":{"type":"MultiPolygon","coordinates":[[[[-2.8143,53.28122],[-2.81782,53.27961],[-2.81617,53.27831],[-2.81556,53.27859],[-2.81265,53.27992],[-2.8143,53.28122]]]]}}
]
}
