{
"type": "FeatureCollection",
"features": [
{ "type":"Feature","properties":{"osm_id":"25544124","name":"Tesco Metro","other":{"addr:city":"London","addr:housenumber":"22-25","addr:postcode":"WC2E 9EQ","addr:street":"Bedford Street","brand":"Tesco Metro","brand:wikidata":"Q57551648","fhrs:confidence_management":"10","fhrs:hygiene":"5","fhrs:id":"428021","fhrs:local_authority_id":"01103\/0022\/0\/000","fhrs:rating":"2","fhrs:structural":"15","name:fa":"تسکو مترو","name:ja":"テスコ・メトロ","payment:american_express":"yes","shop":"supermarket","source:postcode":"FSA Food Hygiene Ratings Database","wheelchair":"yes"}}, "geometry":{"type":"Point","coordinates":[-0.12516,51.51112 ]}},
{ "type":"Feature","properties":{"osm_id":"34578754","name":"Tesco Metro","other":{"addr:housenumber":"94","addr:postcode":"NW8 8EX","addr:street":"Church Street","alt_name":"Tesco Paddington Metro","brand":"Tesco Metro","brand:wikidata":"Q57551648","operator":"tesco","shop":"supermarket"}}, "geometry":{"type":"Point","coordinates":[-0.17224,51.52229 ]}},
{ "type":"Feature","properties":{"osm_id":"272079218","name":"Euro Foods","other":{"shop":"supermarket","wheelchair":"limited"}}, "geometry":{"type":"Point","coordinates":[-0.13755,51.49124 ]}},
{ "type":"Feature","properties":{"osm_id":"296014936","name":"Costless Supermarket","other":{"shop":"supermarket"}}, "geometry":{"type":"Point","coordinates":[-0.16771,51.52519 ]}},
{ "type":"Feature","properties":{"osm_id":"385592206","name":"Tesco Metro","other":{"addr:city":"London","addr:housenumber":"2-4","addr:postcode":"W1D 3RG","addr:street":"Dean Street","brand":"Tesco Metro","brand:wikidata":"Q57551648","fhrs:confidence_management":"5","fhrs:hygiene":"5","fhrs:id":"427976","fhrs:local_authority_id":"00953\/0002\/0\/001","fhrs:rating":"5","fhrs:structural":"5","name:fa":"تسکو مترو","opening_hours":"Mo-Fr 06:00-23:00; Sa 06:00-22:00; Su 12:00-18:00","payment:american_express":"yes","shop":"supermarket","source:postcode":"FSA Food Hygiene Ratings Database"}}, "geometry":{"type":"Point","coordinates":[-0.13356,51.51555 ]}},
{ "type":"Feature","properties":{"osm_id":"452168084","name":"Green Valley","other":{"shop":"supermarket","cuisine":"lebanese","fhrs:id":"412133","addr:city":"London","wheelchair":"yes","addr:street":"Upper Berkeley Street","fhrs:rating":"5","fhrs:hygiene":"5","addr:postcode":"W1H 5QF","fhrs:structural":"5","source:postcode":"FSA Food Hygiene Ratings Database","addr:housenumber":"36-37","fhrs:local_authority_id":"00674\/0036\/0\/000","fhrs:confidence_management":"0"}}, "geometry":{"type":"Point","coordinates":[-0.16229,51.5152 ]}},
{ "type":"Feature","properties":{"osm_id":"509901938","name":"Tesco Express","other":{"atm":"yes","brand":"Tesco Express","brand:wikidata":"Q98456772","brand:wikipedia":"en:Tesco","contact:website":"https:\/\/www.tesco.com\/store-locator\/london\/south-wharf-rd","opening_hours":"24\/7","shop":"supermarket","wheelchair":"yes"}}, "geometry":{"type":"Point","coordinates":[-0.17122,51.51832 ]}},
{ "type":"Feature","properties":{"osm_id":"511168315","name":"Planet Organic","other":{"addr:housenumber":"42","addr:street":"Westbourne Grove","brand":"Planet Organic","brand:wikidata":"Q24298870","brand:wikipedia":"en:Planet Organic","organic":"only","phone":"+44 20 7727 2227","shop":"supermarket","website":"https:\/\/www.planetorganic.com\/pages\/planet-organic-westbourne-grove"}}, "geometry":{"type":"Point","coordinates":[-0.19115,51.51555 ]}},
{ "type":"Feature","properties":{"osm_id":"845373765","name":"Tesco Express","other":{"addr:city":"London","addr:housenumber":"93-95","addr:postcode":"SW1V 3EN","addr:street":"Lupus Street","brand":"Tesco Express","brand:wikidata":"Q98456772","contact:website":"https:\/\/www.tesco.com\/store-locator\/london\/89-95-lupus-st","fhrs:id":"428044","name:fa":"تسکو اکسپرس","operator":"Tesco","shop":"supermarket","source:addr":"FSA Food Hygiene Ratings Database","source:postcode":"FSA Food Hygiene Ratings Database"}}, "geometry":{"type":"Point","coordinates":[-0.14069,51.48769 ]}},
{ "type":"Feature","properties":{"osm_id":"2316983587","name":"Cumberland Food & Wine","other":{"shop":"supermarket","fhrs:id":"413714","addr:city":"London","addr:street":"Great Cumberland Place","fhrs:rating":"3","source:addr":"FSA Food Hygiene Ratings Database","fhrs:hygiene":"10","addr:postcode":"W1H 7AL","addr:housename":"Cumberland Court","fhrs:structural":"10","source:postcode":"FSA Food Hygiene Ratings Database","addr:housenumber":"11","fhrs:local_authority_id":"01371\/0011\/0\/000","fhrs:confidence_management":"10"}}, "geometry":{"type":"Point","coordinates":[-0.15947,51.51407 ]}},
{ "type":"Feature","properties":{"osm_id":"2793137225","name":"Westbourne Nogs Grocery","other":{"shop":"supermarket","addr:street":"Chepstow Road","addr:housenumber":"110"}}, "geometry":{"type":"Point","coordinates":[-0.19619,51.51901 ]}},
{ "type":"Feature","properties":{"osm_id":"2870216805","name":"Tesco Metro","other":{"addr:housenumber":"90-100","addr:postcode":"W2 2EA","addr:street":"Edgware Road","alt_name":"Tesco Edgware Road Metro","brand":"Tesco Metro","brand:wikidata":"Q57551648","shop":"supermarket","wheelchair":"yes"}}, "geometry":{"type":"Point","coordinates":[-0.16355,51.51568 ]}},
{ "type":"Feature","properties":{"osm_id":"3041705494","name":"Tesco Metro","other":{"addr:housenumber":"17-25","addr:postcode":"SW1Y 4LR","addr:street":"Regent Street","alt_name":"Tesco Regent Street Metro","brand":"Tesco Metro","brand:wikidata":"Q57551648","name:fa":"تسکو مترو","payment:american_express":"yes","shop":"supermarket","wheelchair":"yes"}}, "geometry":{"type":"Point","coordinates":[-0.13441,51.50905 ]}},
{ "type":"Feature","properties":{"osm_id":"3041707059","name":"Whole Foods Market","other":{"addr:housenumber":"20","addr:postcode":"W1B 5AR","addr:street":"Glasshouse Street","brand":"Whole Foods Market","brand:wikidata":"Q1809448","brand:wikipedia":"en:Whole Foods Market","opening_hours":"Mo-Fr 07:30-22:00; Sa 09:00-22:00; Su 12:00-18:00","outdoor_seating":"yes","payment:american_express":"yes","shop":"supermarket","website":"https:\/\/www.wholefoodsmarket.co.uk\/stores\/piccadilly\/","wheelchair":"yes"}}, "geometry":{"type":"Point","coordinates":[-0.13609,51.51053 ]}},
{ "type":"Feature","properties":{"osm_id":"3190931061","name":"Costcutter","other":{"addr:city":"London","addr:housenumber":"40-44","addr:postcode":"SW1V 2RX","addr:street":"Vauxhall Bridge Road","brand":"Costcutter","brand:wikidata":"Q5175072","brand:wikipedia":"en:Costcutter","fhrs:id":"580314","payment:american_express":"no","shop":"supermarket","wheelchair":"yes"}}, "geometry":{"type":"Point","coordinates":[-0.13279,51.49041 ]}},
{ "type":"Feature","properties":{"osm_id":"3357928801","name":"M&S Simply Food","other":{"addr:housenumber":"78","addr:street":"Piccadilly","brand":"M&S Simply Food","brand:wikidata":"Q714491","brand:wikipedia":"en:Marks & Spencer","phone":"+44 20 7491 0690","shop":"supermarket","website":"https:\/\/www.marksandspencer.com\/","wheelchair":"limited"}}, "geometry":{"type":"Point","coordinates":[-0.1429,51.5069 ]}},
{ "type":"Feature","properties":{"osm_id":"3357928802","name":"M&S Simply Food","other":{"shop":"supermarket","brand":"M&S Simply Food","level":"-1","brand:wikidata":"Q714491","brand:wikipedia":"en:Marks & Spencer"}}, "geometry":{"type":"Point","coordinates":[-0.14971,51.51397 ]}},
{ "type":"Feature","properties":{"osm_id":"3664425342","name":"Tawana Oriental Supermarket","other":{"shop":"supermarket","addr:city":"London","addr:street":"Chepstow Road","addr:postcode":"W2 5BD","opening_hours":"10:00-20:00","addr:housenumber":"16-18"}}, "geometry":{"type":"Point","coordinates":[-0.19515,51.51581 ]}},
{ "type":"Feature","properties":{"osm_id":"4054930316","name":"As Nature Intended","other":{"addr:city":"London","addr:housenumber":"36","addr:postcode":"W2 2EH","addr:street":"Edgware Road","brand:wikidata":"Q99200610","shop":"supermarket","website":"https:\/\/www.asnatureintended.uk.com\/stores\/marble-arch\/","wheelchair":"yes"}}, "geometry":{"type":"Point","coordinates":[-0.1617,51.51446 ]}},
{ "type":"Feature","properties":{"osm_id":"4365108690","name":"Rice Wine Shop","other":{"shop":"supermarket","email":"info@ricewineshop.com","phone":"+44 20 7439 3705","website":"http:\/\/www.ricewineshop.com","wheelchair":"limited","addr:street":"Brewer Street","addr:postcode":"W1F 9UA","opening_hours":"Mo-Sa 10:00-21:00; Su 12:00-20:00","addr:housenumber":"82"}}, "geometry":{"type":"Point","coordinates":[-0.13708,51.51077 ]}},
{ "type":"Feature","properties":{"osm_id":"4878468498","name":"Young Cheng Fresh Seafood Shop","other":{"shop":"supermarket"}}, "geometry":{"type":"Point","coordinates":[-0.13186,51.51174 ]}},
{ "type":"Feature","properties":{"osm_id":"5211669216","name":"Waitrose","other":{"addr:city":"London","addr:country":"GB","addr:street":"Bressenden Place","brand":"Waitrose","brand:wikidata":"Q771734","brand:wikipedia":"en:Waitrose & Partners","fhrs:id":"960382","official_name":"Waitrose & Partners","shop":"supermarket"}}, "geometry":{"type":"Point","coordinates":[-0.14222,51.49795 ]}},
{ "type":"Feature","properties":{"osm_id":"5324642162","name":"Jumbo","other":{"shop":"supermarket","brand":"Jumbo","description":"South African shop","brand:wikidata":"Q2262314","brand:wikipedia":"en:Jumbo (supermarket)"}}, "geometry":{"type":"Point","coordinates":[-0.12431,51.50785 ]}},
{ "type":"Feature","properties":{"osm_id":"5486109122","name":"Japan Centre","other":{"addr:housenumber":"35b","addr:postcode":"SW1Y 4EA","addr:street":"Panton Street","opening_hours":"Mo-Su 10:00-21:30","phone":"+44 20 3405 1246","shop":"supermarket","toilets":"yes","toilets:wheelchair":"yes","website":"https:\/\/www.japancentre.com\/special\/panton_street","wheelchair":"yes"}}, "geometry":{"type":"Point","coordinates":[-0.13137,51.50973 ]}},
{ "type":"Feature","properties":{"osm_id":"5634050684","name":"Vital Ingredient","other":{"shop":"supermarket","phone":"+44 20 7491 8744","organic":"only","website":"http:\/\/www.vitalingredient.co.uk","wheelchair":"no","addr:street":"Maddox Street","description":"Vital Ingredient serves salads, soups and juices.","addr:housenumber":"18a"}}, "geometry":{"type":"Point","coordinates":[-0.14199,51.5133 ]}},
{ "type":"Feature","properties":{"osm_id":"5839747185","name":"The Fruit Garden","other":{"shop":"supermarket","addr:city":"London","addr:street":"Melcombe Street","addr:postcode":"NW1 6AG","addr:housenumber":"21-23"}}, "geometry":{"type":"Point","coordinates":[-0.15935,51.52273 ]}},
{ "type":"Feature","properties":{"osm_id":"6530436180","name":"Panzer's Delicatessen","other":{"shop":"supermarket","website":"https:\/\/panzers.co.uk\/","addr:street":"Circus Road","addr:housenumber":"13-19"}}, "geometry":{"type":"Point","coordinates":[-0.17228,51.53346 ]}},
{ "type":"Feature","properties":{"osm_id":"6634708662","name":"Milad Supermarket","other":{"shop":"supermarket","addr:street":"Maida Vale","addr:housenumber":"235-239"}}, "geometry":{"type":"Point","coordinates":[-0.18934,51.53473 ]}},
{ "type":"Feature","properties":{"osm_id":"6821298086","name":"Market Hall Victoria","other":{"shop":"supermarket"}}, "geometry":{"type":"Point","coordinates":[-0.14374,51.49592 ]}},
{ "type":"Feature","properties":{"osm_id":"7038433916","name":"Happy Mart","other":{"addr:housenumber":"28","addr:street":"Queensway","opening_hours":"Mo-Su 08:00-23:00","phone":"+44 20 7243 2618","shop":"supermarket"}}, "geometry":{"type":"Point","coordinates":[-0.18704,51.51119 ]}},
{ "type":"Feature","properties":{"osm_id":"7042171556","name":"Tesco Express","other":{"addr:housenumber":"138-144","addr:street":"Queensway","brand":"Tesco Express","brand:wikidata":"Q98456772","brand:wikipedia":"en:Tesco","contact:website":"https:\/\/www.tesco.com\/store-locator\/london\/138-144-queensway","phone":"+44 345 610 6709","shop":"supermarket"}}, "geometry":{"type":"Point","coordinates":[-0.18783,51.51476 ]}},
{ "type":"Feature","properties":{"osm_id":"7099233724","name":"Prezzemolo & Vitale","other":{"shop":"supermarket","phone":"+44 20 7792 8009","website":"https:\/\/www.prezzemoloevitale.co.uk\/","addr:street":"Westbourne Grove","addr:housenumber":"87"}}, "geometry":{"type":"Point","coordinates":[-0.19268,51.51522 ]}},
{ "type":"Feature","properties":{"osm_id":"7113202048","name":"M&S Simply Food","other":{"brand":"M&S Simply Food","brand:wikidata":"Q714491","brand:wikipedia":"en:Marks & Spencer","level":"-1","payment:cash":"yes","payment:mastercard":"yes","payment:visa":"yes","phone":"+44 20 7935 7954","shop":"supermarket","website":"https:\/\/www.marksandspencer.com\/stores\/marble-arch-0770","wheelchair":"yes"}}, "geometry":{"type":"Point","coordinates":[-0.15423,51.5142 ]}},
{ "type":"Feature","properties":{"osm_id":"9178075350","other":{"colour":"green","erected_by":"Westminster City Council","historic":"memorial","inscription":"Here in the former Turk's Head Tavern Dr. Samuel Johnson & Joshua Reynolds founded The Club in 1764","memorial":"plaque","openplaques:id":"3001"}}, "geometry":{"type":"Point","coordinates":[-0.13073,51.51197 ]}},
{ "type":"Feature","properties":{"osm_id":"148894836"},"geometry":{"type":"LineString","coordinates":[[-0.15206,51.51959],[-0.15186,51.5196],[-0.15183,51.51939],[-0.15182,51.51934],[-0.15207,51.51932],[-0.15207,51.51931],[-0.15206,51.51927],[-0.15206,51.51924],[-0.15205,51.5192],[-0.15205,51.51918],[-0.15205,51.51915],[-0.15204,51.51914],[-0.15205,51.51912],[-0.15233,51.51911],[-0.15239,51.51957],[-0.15235,51.51957],[-0.15213,51.51958],[-0.1521,51.51958],[-0.1521,51.51955],[-0.15206,51.51956],[-0.15206,51.51959]]}},
{ "type":"Feature","properties":{"osm_id":"5268519","name":"Waitrose","type":"multipolygon","building":"yes","shop":"supermarket","other":{"addr:housenumber":"98-101","addr:postcode":"W1U 4SB","addr:street":"Marylebone High Street","brand":"Waitrose","brand:wikidata":"Q771734","brand:wikipedia":"en:Waitrose","building:colour":"grey","building:levels":"4","fhrs:id":"580310","level":"0","official_name":"Waitrose & Partners","operator":"Waitrose & Partners","source:addr":"FHRS Open Data","website":"https:\/\/www.waitrose.com\/bf_home\/bf\/236.html"}}, "geometry":{"type":"MultiPolygon","coordinates":[[[[-0.15206,51.51959],[-0.15186,51.5196],[-0.15183,51.51939],[-0.15182,51.51934],[-0.15207,51.51932],[-0.15207,51.51931],[-0.15206,51.51927],[-0.15206,51.51924],[-0.15205,51.5192],[-0.15205,51.51918],[-0.15205,51.51915],[-0.15204,51.51914],[-0.15205,51.51912],[-0.15233,51.51911],[-0.15239,51.51957],[-0.15235,51.51957],[-0.15213,51.51958],[-0.1521,51.51958],[-0.1521,51.51955],[-0.15206,51.51956],[-0.15206,51.51959 ]],[[ -0.1521,51.51952],[-0.15209,51.51949],[-0.15203,51.51949],[-0.15203,51.51948],[-0.152,51.51949],[-0.15201,51.51953],[-0.15203,51.51953],[-0.15203,51.51952],[-0.1521,51.51952 ]],[[ -0.15208,51.51939],[-0.15208,51.51937],[-0.15203,51.51937],[-0.15201,51.51937],[-0.15199,51.51937],[-0.15199,51.51939],[-0.15199,51.5194],[-0.15201,51.5194],[-0.15201,51.51939],[-0.15208,51.51939]]]]}},
{ "type":"Feature","properties":{"osm_way_id":"202753222","name":"Waitrose","building":"retail","shop":"supermarket","other":{"addr:city":"London","addr:housenumber":"168-176","addr:postcode":"W2 2DS","addr:street":"Edgware Road","alt_name":"Waitrose Edgware Road","brand":"Waitrose","brand:wikidata":"Q771734","brand:wikipedia":"en:Waitrose","building:levels":"3","fhrs:confidence_management":"10","fhrs:hygiene":"10","fhrs:id":"457651","fhrs:local_authority_id":"00919\/0168\/0\/001","fhrs:rating":"3","fhrs:structural":"5","official_name":"Waitrose & Partners","opening_hours":"Mo-Sa 08:00-22:00; Su 12:00-18:00","operator":"Waitrose & Partners","source:addr":"FSA Food Hygiene Ratings Database","source:postcode":"Waitrose website","wheelchair":"limited"}}, "geometry":{"type":"MultiPolygon","coordinates":[[[[-0.16553,51.51745],[-0.16547,51.51749],[-0.16529,51.51759],[-0.16565,51.51784],[-0.16572,51.5178],[-0.16569,51.51778],[-0.16582,51.5177],[-0.16585,51.51773],[-0.16588,51.51771],[-0.1659,51.5177],[-0.16626,51.51749],[-0.16599,51.51731],[-0.16562,51.51752],[-0.16553,51.51745]]]]}},
{ "type":"Feature","properties":{"osm_way_id":"252251159","name":"Waitrose","building":"yes","shop":"supermarket","other":{"addr:housenumber":"27","addr:postcode":"SW1X 8GG","addr:street":"Motcomb Street","alt_name":"Waitrose Belgravia","brand":"Waitrose","brand:wikidata":"Q771734","brand:wikipedia":"en:Waitrose & Partners","building:colour":"white","building:levels":"3","building:material":"plaster","fhrs:id":"772653","official_name":"Waitrose & Partners","opening_hours":"Mo-Sa 07:30-21:00; Su 11:00-17:00","operator":"Waitrose & Partners","phone":"+44 20 7235 4958","website":"https:\/\/www.waitrose.com\/belgravia","wikidata":"Q27083707"}}, "geometry":{"type":"MultiPolygon","coordinates":[[[[-0.15684,51.4992],[-0.15722,51.49898],[-0.15711,51.49892],[-0.15706,51.4989],[-0.15691,51.4988],[-0.15645,51.49896],[-0.15654,51.49906],[-0.15659,51.49904],[-0.15664,51.49907],[-0.1568,51.49918],[-0.15684,51.4992]]]]}},
{ "type":"Feature","properties":{"osm_way_id":"270743409","name":"The Co-operative Food","building":"yes","shop":"supermarket","other":{"brand":"The Co-operative Food","operator":"The Co-operative Group","addr:city":"London","addr:street":"Harrow Road","roof:colour":"black","addr:postcode":"W9 3QA","brand:wikidata":"Q3277439","brand:wikipedia":"en:Co-op Food","building:colour":"white","building:levels":"3","addr:housenumber":"504-506"}}, "geometry":{"type":"MultiPolygon","coordinates":[[[[-0.20226,51.52501],[-0.20254,51.52479],[-0.20281,51.52492],[-0.20252,51.52514],[-0.20226,51.52501]]]]}},
{ "type":"Feature","properties":{"osm_way_id":"449102844","name":"Sainsbury's","shop":"supermarket","other":{"addr:city":"London","addr:housenumber":"99","addr:postcode":"SW1V 1DT","addr:street":"Wilton Road","brand":"Sainsbury's","brand:wikidata":"Q152096","brand:wikipedia":"en:Sainsbury's","fhrs:id":"428181","opening_hours":"Mo-Fr 07:00-23:00; Sa 07:00-22:00; Su 11:00-17:00","payment:american_express":"yes","payment:cash":"yes","payment:coins":"yes","payment:contactless":"yes","payment:credit_cards":"yes","payment:debit_cards":"yes","payment:mastercard":"yes","payment:notes":"yes","payment:visa":"yes","source:addr":"FSA Food Hygiene Ratings Scheme open data","wheelchair":"yes"}}, "geometry":{"type":"MultiPolygon","coordinates":[[[[-0.14085,51.49289],[-0.1409,51.49286],[-0.14104,51.4928],[-0.14109,51.49284],[-0.14123,51.49296],[-0.14112,51.49301],[-0.14111,51.49301],[-0.1411,51.49302],[-0.14109,51.49303],[-0.14105,51.49305],[-0.14085,51.49289]]]]}},
{ "type":"Feature","properties":{"osm_way_id":"754374553","name":"Al Noor","building":"yes","shop":"supermarket","other":{"addr:housenumber":"21","addr:street":"Porchester Road","phone":"+44 20 3417 6397"}}, "geometry":{"type":"MultiPolygon","coordinates":[[[[-0.18791,51.51654],[-0.18784,51.51656],[-0.18795,51.51671],[-0.18799,51.5167],[-0.18802,51.5167],[-0.18791,51.51654]]]]}},
{ "type":"Feature","properties":{"osm_way_id":"993318704","name":"New Loon Moon Supermarket","building":"retail","shop":"supermarket","other":{"building:colour":"white","building:levels":"3","roof:colour":"grey"}}, "geometry":{"type":"MultiPolygon","coordinates":[[[[-0.1306,51.51202],[-0.13065,51.512],[-0.13065,51.51199],[-0.13071,51.51197],[-0.13071,51.51198],[-0.13073,51.51197],[-0.13075,51.51197],[-0.13082,51.51205],[-0.13083,51.51206],[-0.1308,51.51207],[-0.13079,51.51206],[-0.13074,51.51208],[-0.13076,51.51211],[-0.13073,51.51212],[-0.13073,51.51213],[-0.13071,51.51213],[-0.1307,51.51213],[-0.1306,51.51202]]]]}},
{ "type":"Feature","properties":{"osm_way_id":"993439439","name":"Loon Fung Chinatown","shop":"supermarket","other":{"addr:city":"London","addr:housenumber":"42-44","addr:postcode":"W1D 5QG","addr:street":"Gerrard Street","description":"Chinese Supermarket","name:zh":"龍鳳行","name:zh_pinyin":"Lóngfèngháng","opening_hours":"Mo-Sa 10:00-21:00; Su 10:00-21:00; Ph 10:00-21:00","phone":"+44 20 7437 7332","website":"loonfung.com"}}, "geometry":{"type":"MultiPolygon","coordinates":[[[[-0.13048,51.51195],[-0.13033,51.51179],[-0.1303,51.5118],[-0.13028,51.51181],[-0.13024,51.51182],[-0.13021,51.51183],[-0.1302,51.51184],[-0.13023,51.51188],[-0.13022,51.51188],[-0.13024,51.5119],[-0.13033,51.512],[-0.13048,51.51195]]]]}},
{ "type":"Feature","properties":{"osm_way_id":"995869087","name":"SeeWoo","shop":"supermarket","other":{"addr:housenumber":"18-20","addr:street":"Lisle Street","image":"https:\/\/archive.org\/details\/west-end-2019-05-24\/DSCN0064.JPG","level":"0","wheelchair":"no"}}, "geometry":{"type":"MultiPolygon","coordinates":[[[[-0.13032,51.51162],[-0.13039,51.51161],[-0.13039,51.51161],[-0.13045,51.51158],[-0.13052,51.51156],[-0.13058,51.51163],[-0.13057,51.51163],[-0.13057,51.51164],[-0.13052,51.51166],[-0.13052,51.51166],[-0.13049,51.51168],[-0.1305,51.51168],[-0.1306,51.51165],[-0.13064,51.51168],[-0.13062,51.51169],[-0.13054,51.51172],[-0.13051,51.51173],[-0.1305,51.51173],[-0.13049,51.51174],[-0.13045,51.51175],[-0.13043,51.51176],[-0.1304,51.51172],[-0.13037,51.5117],[-0.13032,51.51162]]]]}}
]
}
