{
"type": "FeatureCollection",
"features": [
{ "type":"Feature","properties":{"osm_id":"1115993946","name":"Co-operative Food","other":{"shop":"supermarket","fhrs:id":"206240","operator":"Co-operative","addr:street":"North Street","addr:postcode":"BN1 1RE","opening_hours":"Mo-Su 07:00-23:00","addr:housenumber":"147-148"}}, "geometry":{"type":"Point","coordinates":[-0.14108,50.82325 ]}},
{ "type":"Feature","properties":{"osm_id":"1134845806","name":"The Co-operative Food","other":{"addr:city":"Hove","addr:housenumber":"130","addr:postcode":"BN3 1DA","addr:street":"Western Road","atm":"yes","check_date:opening_hours":"2020-11-14","fhrs:id":"206813","opening_hours":"Mo-Su 06:00-23:00","operator":"The Southern Co-operative Society","shop":"supermarket"}}, "geometry":{"type":"Point","coordinates":[-0.15602,50.8254 ]}},
{ "type":"Feature","properties":{"osm_id":"1747674067","other":{"amenity":"bicycle_parking","covered":"no"}}, "geometry":{"type":"Point","coordinates":[-0.12682,50.83467 ]}},
{ "type":"Feature","properties":{"osm_id":"2349902878","name":"Co-op Food","other":{"addr:housenumber":"269","addr:postcode":"BN1 6FL","addr:street":"Preston Drove","brand":"Co-op Food","brand:wikidata":"Q3277439","brand:wikipedia":"en:Co-op Food","fhrs:id":"206021","shop":"supermarket"}}, "geometry":{"type":"Point","coordinates":[-0.13492,50.84363 ]}},
{ "type":"Feature","properties":{"osm_id":"2424683796","name":"Budgens","other":{"shop":"supermarket","brand":"Budgens","fhrs:id":"206651","operator":"Budgens","addr:city":"Brighton","addr:street":"High Street","addr:postcode":"BN2 7HF","brand:wikidata":"Q4985016","brand:wikipedia":"en:Budgens","addr:housenumber":"90-92"}}, "geometry":{"type":"Point","coordinates":[-0.05784,50.80472 ]}},
{ "type":"Feature","properties":{"osm_id":"2428496567","name":"Seven Stars Oriental Supermarket","other":{"shop":"supermarket","fhrs:id":"207007","addr:city":"Brighton","addr:street":"George Street","addr:country":"GB","addr:postcode":"BN2 1RJ","addr:housenumber":"44A"}}, "geometry":{"type":"Point","coordinates":[-0.13429,50.8218 ]}},
{ "type":"Feature","properties":{"osm_id":"2469884931","name":"Mulberrys","other":{"shop":"supermarket","fhrs:id":"1109909","addr:street":"Church Road","addr:postcode":"BN3 2FL","addr:housenumber":"18"}}, "geometry":{"type":"Point","coordinates":[-0.16651,50.82706 ]}},
{ "type":"Feature","properties":{"osm_id":"2496311513","name":"M&S Simply Food","other":{"shop":"supermarket","brand":"M&S Simply Food","fhrs:id":"208380","operator":"Marks & Spencer","addr:city":"Brighton","wheelchair":"yes","addr:street":"Main Concourse, Brighton Station","addr:postcode":"BN1 3ZE","brand:wikidata":"Q714491","brand:wikipedia":"en:Marks & Spencer","toilets:wheelchair":"no","wheelchair:description":"Step-free from concourse and via doorway from station forecourt."}}, "geometry":{"type":"Point","coordinates":[-0.14161,50.82889 ]}},
{ "type":"Feature","properties":{"osm_id":"2626244375","name":"Hisbe Ethical Supermarket","other":{"shop":"supermarket","fhrs:id":"666406","addr:city":"Brighton","wheelchair":"yes","addr:street":"York Place","addr:postcode":"BN1 4GU","addr:housenumber":"20-21","wheelchair:description":"Spacious. Helpful."}}, "geometry":{"type":"Point","coordinates":[-0.13568,50.82887 ]}},
{ "type":"Feature","properties":{"osm_id":"2680570701","name":"Seed'N'Sprout","other":{"addr:city":"Brighton","addr:housenumber":"82","addr:postcode":"BN2 1EF","addr:street":"St. Georges Road","fhrs:id":"568417","phone":"+44 1273 945833","shop":"supermarket","website":"https:\/\/www.facebook.com\/pages\/SeedNSprout\/630662130283620"}}, "geometry":{"type":"Point","coordinates":[-0.1187,50.81776 ]}},
{ "type":"Feature","properties":{"osm_id":"2803100404","name":"M&S Simply Food","other":{"addr:city":"Brighton","addr:housenumber":"Unit 1 Brighton Retail Park","addr:postcode":"BN1 8LW","addr:street":"Carden Avenue","brand":"M&S Simply Food","brand:wikidata":"Q714491","brand:wikipedia":"en:Marks & Spencer","fhrs:id":"206626","shop":"supermarket","website":"https:\/\/www.marksandspencer.com\/stores\/brighton-carden-avenue-simply-food-0382","wheelchair":"yes"}}, "geometry":{"type":"Point","coordinates":[-0.12812,50.86597 ]}},
{ "type":"Feature","properties":{"osm_id":"4492845485","name":"Mulberrys","other":{"addr:city":"Brighton","addr:housenumber":"14","addr:postcode":"BN1 7GE","addr:street":"Hollingbury Place","fhrs:id":"206578","shop":"supermarket"}}, "geometry":{"type":"Point","coordinates":[-0.13061,50.84378 ]}},
{ "type":"Feature","properties":{"osm_id":"5672581421","name":"Foodshed","other":{"addr:housename":"Unit 9, Open Market","addr:postcode":"BN1 4JU","addr:street":"Marshalls Row","fhrs:id":"710427","shop":"supermarket"}}, "geometry":{"type":"Point","coordinates":[-0.13541,50.83156 ]}},
{ "type":"Feature","properties":{"osm_id":"6300081319","name":"Budgens","other":{"shop":"supermarket","brand":"Budgens","fhrs:id":"208065","addr:city":"Brighton","wheelchair":"yes","addr:street":"Queen's Road","addr:postcode":"BN1 3XE","opening_hours":"24\/7","brand:wikidata":"Q4985016","brand:wikipedia":"en:Budgens","addr:housenumber":"78-82"}}, "geometry":{"type":"Point","coordinates":[-0.14105,50.82841 ]}},
{ "type":"Feature","properties":{"osm_id":"6408481327","name":"Lidl","other":{"addr:city":"Hove","addr:country":"GB","addr:housename":"Goldstone Retail Park","addr:street":"Newtown Road","brand":"Lidl","brand:wikidata":"Q151954","brand:wikipedia":"en:Lidl","level":"0","shop":"supermarket"}}, "geometry":{"type":"Point","coordinates":[-0.17425,50.83819 ]}},
{ "type":"Feature","properties":{"osm_id":"6518471669","name":"Unithai","other":{"shop":"supermarket","fhrs:id":"207595","wheelchair":"no","addr:street":"Church Road","addr:postcode":"BN3 2FL","addr:housenumber":"10"}}, "geometry":{"type":"Point","coordinates":[-0.16611,50.82701 ]}},
{ "type":"Feature","properties":{"osm_id":"6545185088","name":"Co-op Food","other":{"addr:housenumber":"51-57","addr:postcode":"BN2 8LG","addr:street":"Longridge Road","brand":"Co-op Food","brand:wikidata":"Q3277439","brand:wikipedia":"en:Co-op Food","fhrs:id":"207343","shop":"supermarket"}}, "geometry":{"type":"Point","coordinates":[-0.03703,50.80116 ]}},
{ "type":"Feature","properties":{"osm_id":"6763999166","name":"Pamir Grocery","other":{"addr:housenumber":"2A","addr:postcode":"BN1 4QF","addr:street":"Preston Road","fhrs:id":"956326","shop":"supermarket","source:addr:postcode":"FHRS Open Data"}}, "geometry":{"type":"Point","coordinates":[-0.13915,50.8341 ]}},
{ "type":"Feature","properties":{"osm_id":"8501422921","other":{"amenity":"loading_dock"}}, "geometry":{"type":"Point","coordinates":[-0.10758,50.81718 ]}},
{ "type":"Feature","properties":{"osm_id":"8608135817","other":{"shop":"supermarket"}}, "geometry":{"type":"Point","coordinates":[-0.10634,50.81849 ]}},
{ "type":"Feature","properties":{"osm_id":"8608135831","name":"Emmanuel International Groceries","other":{"addr:city":"Brighton","addr:housenumber":"1A","addr:postcode":"BN2 5FA","addr:street":"Whitehawk Road","fhrs:id":"1222615","shop":"supermarket","source:addr":"FHRS Open Data"}}, "geometry":{"type":"Point","coordinates":[-0.10684,50.81755 ]}},
{ "type":"Feature","properties":{"osm_id":"8730938567","name":"Ricci's","other":{"addr:city":"Brighton","addr:housename":"Garnet House","addr:postcode":"BN2 1EU","addr:street":"St Georges Road","addr:unit":"8","fhrs:id":"829154","opening_hours":"Mo-Fr 07:30-17:30; Sa 07:30-16:00; Su 08:30-14:00","shop":"supermarket","source:addr":"FHRS Open Data"}}, "geometry":{"type":"Point","coordinates":[-0.1236,50.81935 ]}},
{ "type":"Feature","properties":{"osm_way_id":"23583833","name":"Asda","building":"retail","shop":"supermarket","other":{"addr:city":"Brighton","addr:country":"GB","addr:postcode":"BN1 8AS","addr:street":"Crowhurst Road","addr:unit":"1","brand":"Asda","brand:wikidata":"Q297410","brand:wikipedia":"en:Asda","contact:facebook":"https:\/\/www.facebook.com\/asda\/","contact:phone":"+44 1273 541166","contact:twitter":"@asda","contact:website":"https:\/\/storelocator.asda.com\/south-east\/brighton\/unit-1-crowhurst-road-off-carden-avenue","fhrs:id":"206099","opening_hours":"Mo-Sa 06:00-22:00; Su 10:00-16:00","operator":"Asda Stores Ltd","toilets:wheelchair":"yes","wheelchair":"yes"}}, "geometry":{"type":"MultiPolygon","coordinates":[[[[-0.12483,50.86799],[-0.12464,50.86801],[-0.12476,50.86853],[-0.12461,50.86854],[-0.12463,50.86867],[-0.12338,50.8688],[-0.12324,50.86819],[-0.12355,50.86803],[-0.1235,50.86783],[-0.12367,50.86781],[-0.12363,50.86765],[-0.12438,50.86757],[-0.12442,50.86772],[-0.12456,50.86771],[-0.12459,50.86786],[-0.12479,50.86784],[-0.12483,50.86799]]]]}},
{ "type":"Feature","properties":{"osm_way_id":"119018620","name":"Sainsbury's","building":"yes","shop":"supermarket","other":{"addr:city":"Hove","addr:housenumber":"361-367","addr:postcode":"BN3 7GD","addr:street":"Old Shoreham Road","addr:suburb":"Benfield Valley","brand":"Sainsbury's","brand:wikidata":"Q152096","fhrs:id":"207809","opening_hours":"Mo-Fr 07:00-23:00; Sa 07:00-22:00; Su 10:00-16:00","phone":"+44 1273 439257","source:addr":"FHRS Open Data"}}, "geometry":{"type":"MultiPolygon","coordinates":[[[[-0.20562,50.8418],[-0.20534,50.84184],[-0.20532,50.8418],[-0.20523,50.84181],[-0.20514,50.84182],[-0.20514,50.84187],[-0.20489,50.84189],[-0.2049,50.84195],[-0.2039,50.84206],[-0.20405,50.84259],[-0.20433,50.84257],[-0.2044,50.8428],[-0.20534,50.84269],[-0.20537,50.84274],[-0.20558,50.84271],[-0.20556,50.84266],[-0.20565,50.84265],[-0.20561,50.84251],[-0.20554,50.84251],[-0.20553,50.84248],[-0.20566,50.84246],[-0.20561,50.84227],[-0.20547,50.84229],[-0.20544,50.84214],[-0.2057,50.84209],[-0.20562,50.8418]]]]}},
{ "type":"Feature","properties":{"osm_way_id":"119303346","name":"Waitrose","building":"yes","shop":"supermarket","other":{"addr:city":"Hove","addr:housenumber":"121","addr:postcode":"BN3 7PZ","addr:street":"Nevill Road","alt_name":"Waitrose Hove","brand":"Waitrose & Partners","brand:wikidata":"Q771734","brand:wikipedia":"en:Waitrose & Partners","fhrs:id":"691302","opening_hours":"Mo-Sa 07:30-21:00 Su 10:00-16:00","operator":"Waitrose & Partners","source:addr":"FHRS Open Data","toilets:wheelchair":"yes","wheelchair":"yes"}}, "geometry":{"type":"MultiPolygon","coordinates":[[[[-0.17669,50.84415],[-0.17672,50.84411],[-0.1768,50.84409],[-0.17714,50.84345],[-0.17619,50.84324],[-0.17591,50.84375],[-0.17647,50.84389],[-0.17637,50.84406],[-0.17645,50.84408],[-0.17644,50.8441],[-0.17669,50.84415]]]]}},
{ "type":"Feature","properties":{"osm_way_id":"137427144","name":"Morrisons","building":"yes","shop":"supermarket","other":{"brand":"Morrisons","fhrs:id":"207184","addr:street":"St James's Street","addr:postcode":"BN2 1RE","opening_hours":"Mo-Sa 07:00-22:00; Su 11:00-17:00","brand:wikidata":"Q922344","brand:wikipedia":"en:Morrisons","building:levels":"3","addr:housenumber":"5-8"}}, "geometry":{"type":"MultiPolygon","coordinates":[[[[-0.13554,50.82119],[-0.13534,50.82115],[-0.1354,50.82104],[-0.13561,50.82106],[-0.13556,50.82116],[-0.13554,50.82119]]]]}},
{ "type":"Feature","properties":{"osm_way_id":"137685560","name":"Co-op Food","building":"apartments","shop":"supermarket","other":{"addr:city":"Brighton","addr:country":"GB","addr:housenumber":"41-45","addr:postcode":"BN2 1RG","addr:street":"St James's Street","brand":"Co-op Food","brand:wikidata":"Q3277439","brand:wikipedia":"en:Co-op Food","building:levels":"3","fhrs:id":"208621"}}, "geometry":{"type":"MultiPolygon","coordinates":[[[[-0.13242,50.82064],[-0.13211,50.82058],[-0.13204,50.82074],[-0.13201,50.82082],[-0.13231,50.82087],[-0.13235,50.82079],[-0.13236,50.82076],[-0.13242,50.82064]]]]}},
{ "type":"Feature","properties":{"osm_way_id":"137836563","name":"Waitrose","building":"yes","shop":"supermarket","other":{"addr:city":"Brighton","addr:housenumber":"130-134","addr:postcode":"BN1 2LA","addr:street":"Western Road","branch":"Brighton","brand":"Waitrose","brand:wikidata":"Q771734","brand:wikipedia":"en:Waitrose & Partners","cafe":"no","description":"This store is the Brighton branch.","fhrs:id":"206666","official_name":"Waitrose & Partners","opening_hours":"Mo-Fr 07:30-22:00; Sa 07:30-21:00; Su 11:00-17:00","operator":"Waitrose & Partners","phone":"+44 1273 326549","source:addr":"FHRS Open Data","store_ref":"114","toilets":"no","website":"https:\/\/www.waitrose.com\/bf_home\/bf\/114.html","wheelchair":"yes"}}, "geometry":{"type":"MultiPolygon","coordinates":[[[[-0.15221,50.82491],[-0.15171,50.82484],[-0.15167,50.82496],[-0.1517,50.82496],[-0.15167,50.82505],[-0.15165,50.82504],[-0.15164,50.82508],[-0.1516,50.82523],[-0.15206,50.82529],[-0.15211,50.82518],[-0.15212,50.82515],[-0.15221,50.82491]]]]}},
{ "type":"Feature","properties":{"osm_way_id":"151557131","name":"Spar","building":"yes","shop":"supermarket","other":{"addr:housename":"BP Service Station","addr:postcode":"BN1 8ZF","addr:street":"Mill Road","brand":"Spar","brand:wikidata":"Q610492","brand:wikipedia":"en:Spar (retailer)","fhrs:id":"207516"}}, "geometry":{"type":"MultiPolygon","coordinates":[[[[-0.15673,50.86804],[-0.15664,50.86797],[-0.15649,50.86787],[-0.15658,50.86782],[-0.15664,50.86779],[-0.15683,50.86793],[-0.15687,50.86796],[-0.15673,50.86804]]]]}},
{ "type":"Feature","properties":{"osm_way_id":"184452021","name":"Tesco Express","building":"yes","shop":"supermarket","other":{"addr:city":"Hove","addr:housenumber":"83","addr:postcode":"BN3 1JB","addr:street":"Western Road","branch":"Hove Western Road Express","brand":"Tesco Express","brand:wikidata":"Q98456772","brand:wikipedia":"en:Tesco","fhrs:id":"206341","opening_hours":"Mo-Su 07:00-23:00","source:addr":"FHRS Open Data","wheelchair":"yes"}}, "geometry":{"type":"MultiPolygon","coordinates":[[[[-0.16167,50.82649],[-0.16173,50.82635],[-0.16128,50.82622],[-0.16124,50.82624],[-0.16118,50.82637],[-0.16145,50.82643],[-0.16144,50.82645],[-0.1615,50.82646],[-0.16167,50.82649]]]]}},
{ "type":"Feature","properties":{"osm_way_id":"184452208","name":"Tesco","building":"yes","shop":"supermarket","other":{"addr:city":"Hove","addr:housenumber":"165-169","addr:postcode":"BN3 2DL","addr:street":"Church Road","alt_name":"Tesco Hove Superstore","atm":"yes","brand":"Tesco","brand:wikidata":"Q487494","brand:wikipedia":"en:Tesco","fhrs:id":"207576","opening_hours":"Mo-Sa 08:00-22:00 Su 10:00-16:00","wheelchair":"yes"}}, "geometry":{"type":"MultiPolygon","coordinates":[[[[-0.17665,50.82857],[-0.17644,50.82854],[-0.17643,50.82855],[-0.17588,50.82847],[-0.17588,50.82846],[-0.17586,50.82845],[-0.17583,50.82845],[-0.1758,50.82845],[-0.17578,50.82846],[-0.17575,50.82847],[-0.17574,50.82849],[-0.17573,50.82852],[-0.17574,50.82852],[-0.1755,50.82914],[-0.17548,50.82914],[-0.17548,50.82916],[-0.17548,50.82917],[-0.17548,50.82918],[-0.17549,50.8292],[-0.17551,50.82922],[-0.17554,50.82923],[-0.17557,50.82924],[-0.17558,50.82924],[-0.17559,50.82919],[-0.17611,50.82927],[-0.17625,50.82929],[-0.17628,50.82919],[-0.1764,50.82921],[-0.17665,50.82857]]]]}},
{ "type":"Feature","properties":{"osm_way_id":"184454091","name":"Sainsbury's","building":"commercial","shop":"supermarket","other":{"addr:housenumber":"27","addr:postcode":"BN1 4GQ","addr:street":"New England Street","brand":"Sainsbury's","brand:wikidata":"Q152096","brand:wikipedia":"en:Sainsbury's","contact:website":"https:\/\/stores.sainsburys.co.uk\/2147\/brighton","designation":"Brighton Superstore","fhrs:id":"206728","opening_hours":"Mo-Fr 08:00-20:00; Sa 09:00-20:00; Su 11:00-17:00","phone":"+44 1273 696539"}}, "geometry":{"type":"MultiPolygon","coordinates":[[[[-0.13852,50.83101],[-0.13812,50.83105],[-0.13805,50.83074],[-0.13798,50.8305],[-0.13838,50.83046],[-0.13852,50.83101]]]]}},
{ "type":"Feature","properties":{"osm_way_id":"184454507","name":"ALDI","building":"yes","shop":"supermarket","other":{"addr:housenumber":"1-4","addr:postcode":"BN1 4JA","addr:street":"London Road","brand":"ALDI","brand:wikidata":"Q41171672","brand:wikipedia":"en:Aldi","designation":"Brighton","fhrs:id":"208540"}}, "geometry":{"type":"MultiPolygon","coordinates":[[[[-0.13655,50.82949],[-0.13646,50.82949],[-0.13639,50.82949],[-0.13633,50.8295],[-0.13627,50.8295],[-0.13627,50.82949],[-0.13607,50.82949],[-0.13599,50.8295],[-0.13588,50.82952],[-0.13587,50.82953],[-0.13587,50.82955],[-0.13593,50.82972],[-0.13596,50.8298],[-0.13658,50.8297],[-0.13656,50.82958],[-0.13661,50.82958],[-0.13661,50.82953],[-0.13655,50.82954],[-0.13655,50.82949]]]]}},
{ "type":"Feature","properties":{"osm_way_id":"184454670","name":"Asda","building":"retail","shop":"supermarket","other":{"addr:city":"Brighton","addr:country":"GB","addr:postcode":"BN2 5UT","addr:street":"Brighton Marina","alt_name":"ASDA Brighton Marina Superstore","brand":"Asda","brand:wikidata":"Q297410","brand:wikipedia":"en:Asda","building:levels":"2","contact:facebook":"https:\/\/www.facebook.com\/asda\/","contact:phone":"+44 1273 606611","contact:twitter":"@asda","contact:website":"https:\/\/storelocator.asda.com\/south-east\/brighton\/brighton-marina","fhrs:id":"206874","nohousenumber":"yes","operator":"Asda Stores Ltd","roof:levels":"0","roof:shape":"quadruple_saltbox"}}, "geometry":{"type":"MultiPolygon","coordinates":[[[[-0.10443,50.81344],[-0.10315,50.81321],[-0.10312,50.81327],[-0.10291,50.81323],[-0.10269,50.81381],[-0.10268,50.81385],[-0.10271,50.81389],[-0.10277,50.81391],[-0.10286,50.81393],[-0.10287,50.81391],[-0.103,50.81393],[-0.10304,50.81384],[-0.10354,50.81392],[-0.1035,50.81401],[-0.10383,50.81407],[-0.10381,50.81411],[-0.1039,50.81413],[-0.10392,50.8141],[-0.10409,50.81413],[-0.10419,50.8139],[-0.1043,50.81392],[-0.10445,50.81358],[-0.10455,50.8136],[-0.10441,50.8135],[-0.10443,50.81344]]]]}},
{ "type":"Feature","properties":{"osm_way_id":"219050011","name":"Co-op Food","building":"retail","shop":"supermarket","other":{"addr:postcode":"BN2 5NS","addr:street":"Whitehawk Road","brand":"Co-op Food","brand:wikidata":"Q3277439","brand:wikipedia":"en:Co-op Food","building:levels":"1","fhrs:id":"206849"}}, "geometry":{"type":"MultiPolygon","coordinates":[[[[-0.10605,50.81826],[-0.10614,50.81806],[-0.10602,50.81803],[-0.10598,50.81811],[-0.10583,50.81808],[-0.10587,50.818],[-0.10582,50.81799],[-0.10576,50.8181],[-0.10572,50.81818],[-0.10572,50.8182],[-0.10605,50.81826]]]]}},
{ "type":"Feature","properties":{"osm_way_id":"234349063","name":"Lidl","building":"retail","shop":"supermarket","other":{"addr:city":"Brighton","addr:housenumber":"45","addr:postcode":"BN2 5TB","addr:street":"Arundel Road","alt_name":"LIDL Brighton","brand":"Lidl","brand:wikidata":"Q151954","brand:wikipedia":"en:Lidl","building:levels":"1","fhrs:id":"206861","opening_hours":"Mo-Sa 08:00-22:00; Su 10:00-16:00; PH 08:00-20:00","roof:shape":"gabled"}}, "geometry":{"type":"MultiPolygon","coordinates":[[[[-0.1076,50.81714],[-0.10758,50.81718],[-0.10756,50.81721],[-0.10776,50.81725],[-0.10811,50.81665],[-0.10772,50.81656],[-0.10766,50.81668],[-0.10769,50.8167],[-0.10744,50.8171],[-0.1076,50.81714]]]]}},
{ "type":"Feature","properties":{"osm_way_id":"234937946","name":"Aldi","building":"yes","shop":"supermarket","other":{"addr:city":"Portslade","addr:housenumber":"7","addr:postcode":"BN41 1XF","addr:street":"Carlton Terrace","brand":"ALDI","brand:wikidata":"Q41171672","brand:wikipedia":"en:Aldi","fhrs:id":"208234","operator":"Aldi Stores Limited","source:addr":"FHRS Open Data","website":"https:\/\/www.aldi.co.uk\/store\/s-uk-E0463"}}, "geometry":{"type":"MultiPolygon","coordinates":[[[[-0.2063,50.83654],[-0.20647,50.83629],[-0.20625,50.83622],[-0.20624,50.83623],[-0.20617,50.83621],[-0.20615,50.83625],[-0.20595,50.8362],[-0.20576,50.83615],[-0.20558,50.83637],[-0.20581,50.83644],[-0.20585,50.8364],[-0.2063,50.83654]]]]}},
{ "type":"Feature","properties":{"osm_way_id":"234937951","name":"Tesco Metro","building":"yes","shop":"supermarket","other":{"brand":"Tesco Metro","fhrs:id":"206277","addr:city":"Portslade","addr:street":"Station Road","source:addr":"FHRS Open Data","addr:postcode":"BN41 1GB","brand:wikidata":"Q57551648","addr:housenumber":"19-20"}}, "geometry":{"type":"MultiPolygon","coordinates":[[[[-0.20728,50.83425],[-0.20733,50.83416],[-0.20699,50.83408],[-0.20694,50.83418],[-0.20728,50.83425]]]]}},
{ "type":"Feature","properties":{"osm_way_id":"237087932","name":"The Co-operative Food","building":"yes","shop":"supermarket","other":{"atm":"yes","fhrs:id":"206865","addr:city":"Hove","addr:street":"Blatchington Road","addr:postcode":"BN3 3YH","opening_hours":"Mo-Sa 06:00-23:00 Su 10:00-16:00","addr:housenumber":"76-82"}}, "geometry":{"type":"MultiPolygon","coordinates":[[[[-0.17396,50.83113],[-0.17364,50.83108],[-0.17382,50.83069],[-0.17417,50.83075],[-0.17415,50.83079],[-0.17411,50.83079],[-0.17407,50.83088],[-0.17405,50.83094],[-0.17396,50.83113]]]]}},
{ "type":"Feature","properties":{"osm_way_id":"237116028","name":"Tesco Express","building":"yes","shop":"supermarket","other":{"addr:housenumber":"3","addr:postcode":"BN3 8LD","addr:street":"West Way","brand":"Tesco Express","brand:wikidata":"Q98456772","brand:wikipedia":"en:Tesco","fhrs:id":"269637"}}, "geometry":{"type":"MultiPolygon","coordinates":[[[[-0.19429,50.8452],[-0.1941,50.84524],[-0.19407,50.84517],[-0.19425,50.84513],[-0.19429,50.8452]]]]}},
{ "type":"Feature","properties":{"osm_way_id":"239652920","name":"Co-op Food","building":"yes","shop":"supermarket","other":{"fhrs:id":"207596","addr:city":"Hove","addr:street":"Hangleton Road","addr:country":"GB","addr:postcode":"BN3 7LU","addr:housename":"The Parade","addr:housenumber":"5"}}, "geometry":{"type":"MultiPolygon","coordinates":[[[[-0.1949,50.84464],[-0.19488,50.84457],[-0.19507,50.84454],[-0.19511,50.84466],[-0.19503,50.84467],[-0.19502,50.84463],[-0.195,50.84463],[-0.19501,50.84467],[-0.19493,50.84469],[-0.19491,50.84464],[-0.1949,50.84464]]]]}},
{ "type":"Feature","properties":{"osm_way_id":"240206649","name":"Sainsbury's","building":"yes","shop":"supermarket","other":{"addr:city":"Brighton","addr:housenumber":"93","addr:postcode":"BN2 3QA","addr:street":"Lewes Road","brand":"Sainsbury's","brand:wikidata":"Q152096","opening_hours":"Mo-Sa 08:00-22:00, Su 11:00-15:00","wheelchair":"yes"}}, "geometry":{"type":"MultiPolygon","coordinates":[[[[-0.12645,50.83729],[-0.12626,50.83728],[-0.12617,50.83728],[-0.12595,50.83727],[-0.12594,50.83736],[-0.12549,50.83734],[-0.1255,50.83726],[-0.12547,50.83726],[-0.12552,50.83678],[-0.12589,50.8368],[-0.1259,50.83678],[-0.12609,50.83678],[-0.12609,50.83684],[-0.12652,50.83686],[-0.12649,50.83701],[-0.12645,50.83729]]]]}},
{ "type":"Feature","properties":{"osm_way_id":"240239809","name":"Tesco Express","building":"yes","shop":"supermarket","other":{"addr:city":"Brighton","addr:housenumber":"10-18","addr:postcode":"BN2 6BB","addr:street":"Warren Road","brand":"Tesco Express","brand:wikidata":"Q98456772","fhrs:id":"206701"}}, "geometry":{"type":"MultiPolygon","coordinates":[[[[-0.07783,50.83647],[-0.07754,50.83653],[-0.07749,50.83643],[-0.07777,50.83636],[-0.07783,50.83647]]]]}},
{ "type":"Feature","properties":{"osm_way_id":"242204579","name":"Co-op Food","building":"yes","shop":"supermarket","other":{"addr:city":"Brighton","addr:housenumber":"56","addr:postcode":"BN2 3HW","addr:street":"Lewes Road","brand":"Co-op Food","brand:wikidata":"Q3277439","brand:wikipedia":"en:Co-op Food","fhrs:id":"1068895","opening_hours":"Mo-Su 07:00-23:00"}}, "geometry":{"type":"MultiPolygon","coordinates":[[[[-0.12677,50.83485],[-0.12665,50.8348],[-0.12678,50.83466],[-0.12682,50.83467],[-0.12695,50.83473],[-0.12682,50.83485],[-0.12679,50.83483],[-0.12677,50.83485]]]]}},
{ "type":"Feature","properties":{"osm_way_id":"296346959","name":"Tesco Express","shop":"supermarket","other":{"addr:city":"Hove","addr:housenumber":"84-86","addr:postcode":"BN3 3TJ","addr:street":"Denmark Villas","alt_name":"Tesco Hove Denmark Villas Express","atm":"yes","brand":"Tesco Express","brand:wikidata":"Q98456772","fhrs:id":"207442","opening_hours":"Mo-Su 06:00-23:00"}}, "geometry":{"type":"MultiPolygon","coordinates":[[[[-0.16928,50.83448],[-0.1689,50.83441],[-0.16894,50.83433],[-0.16939,50.8344],[-0.16935,50.83449],[-0.16928,50.83448]]]]}},
{ "type":"Feature","properties":{"osm_way_id":"308662860","name":"Co-op","building":"apartments","shop":"supermarket","other":{"addr:city":"Brighton","addr:housenumber":"22-23","addr:postcode":"BN2 1ED","addr:street":"St George's Road","alt_name":"The Co-operative Food","building:levels":"3","fhrs:id":"208197"}}, "geometry":{"type":"MultiPolygon","coordinates":[[[[-0.12231,50.81901],[-0.1224,50.81889],[-0.12232,50.81887],[-0.12227,50.81894],[-0.12227,50.81894],[-0.12229,50.81895],[-0.12226,50.819],[-0.12231,50.81901]]]]}},
{ "type":"Feature","properties":{"osm_way_id":"434453704","name":"Tesco Express","building":"retail","shop":"supermarket","other":{"addr:city":"Hove","addr:housenumber":"239","addr:postcode":"BN3 6NF","addr:street":"Dyke Road","alt_name":"Tesco Hove Dyke Rd Esso Express","atm":"yes","brand":"Tesco Express","brand:wikidata":"Q98456772","brand:wikipedia":"en:Tesco","fhrs:id":"206506","opening_hours":"24\/7"}}, "geometry":{"type":"MultiPolygon","coordinates":[[[[-0.15499,50.83827],[-0.15516,50.83818],[-0.15512,50.83815],[-0.15507,50.83818],[-0.15502,50.83815],[-0.15511,50.8381],[-0.155,50.83801],[-0.15478,50.83814],[-0.15495,50.83827],[-0.15499,50.83827]]]]}},
{ "type":"Feature","properties":{"osm_way_id":"435284972","name":"Tesco Express","building":"yes","shop":"supermarket","other":{"addr:city":"Hove","addr:housenumber":"26","addr:postcode":"BN3 6LE","addr:street":"The Droveway","alt_name":"Tesco Hove Droveway Express","brand":"Tesco Express","brand:wikidata":"Q98456772","fhrs:id":"206917","opening_hours":"Mo-Su 06:00-23:00","source:addr":"FHRS Open Data"}}, "geometry":{"type":"MultiPolygon","coordinates":[[[[-0.16328,50.84187],[-0.16296,50.84186],[-0.16296,50.84178],[-0.16306,50.84178],[-0.16306,50.84175],[-0.16329,50.84176],[-0.16328,50.84187]]]]}},
{ "type":"Feature","properties":{"osm_way_id":"559477925","name":"Coachwerks Wholefoods","building":"yes","shop":"supermarket","other":{"organic":"only","addr:city":"Brighton","addr:street":"Hollingdean Terrace","addr:postcode":"BN1 7HB","opening_hours":"Tu-Sa 09:00-17:00; We,Fr 10:00-18:00","addr:housenumber":"19a"}}, "geometry":{"type":"MultiPolygon","coordinates":[[[[-0.13162,50.8408],[-0.13164,50.84056],[-0.13174,50.84057],[-0.13173,50.84081],[-0.13162,50.8408]]]]}},
{ "type":"Feature","properties":{"osm_way_id":"608459078","name":"Aldi","building":"yes","shop":"supermarket","other":{"addr:city":"Brighton","addr:housename":"Pavillion Retail Park","addr:postcode":"BN2 3QA","addr:street":"Lewes Road","brand":"ALDI","brand:wikidata":"Q41171672","brand:wikipedia":"en:Aldi","building:levels":"1","fhrs:id":"1072086"}}, "geometry":{"type":"MultiPolygon","coordinates":[[[[-0.12331,50.84074],[-0.1228,50.84056],[-0.12295,50.84039],[-0.12315,50.84045],[-0.12346,50.84056],[-0.12331,50.84074]]]]}},
{ "type":"Feature","properties":{"osm_way_id":"974380172","name":"Co-op Food","building":"yes","shop":"supermarket","other":{"brand":"Co-op Food","brand:wikidata":"Q3277439","brand:wikipedia":"en:Co-op Food","operator":"The Co-operative Group","operator:wikidata":"Q117202","operator:wikipedia":"en:The Co-operative Group"}}, "geometry":{"type":"MultiPolygon","coordinates":[[[[-0.18767,50.83906],[-0.18746,50.83896],[-0.18747,50.83892],[-0.18743,50.83893],[-0.18741,50.83885],[-0.18757,50.83883],[-0.18783,50.83895],[-0.18767,50.83906]]]]}}
]
}
