{
"type": "FeatureCollection",
"features": [
{ "type":"Feature","properties":{"osm_id":"262656","other":{"amenity":"parking"}}, "geometry":{"type":"Point","coordinates":[-0.73135,51.0703 ]}},
{ "type":"Feature","properties":{"osm_id":"262657","other":{"amenity":"parking"}}, "geometry":{"type":"Point","coordinates":[-0.86971,51.0244 ]}},
{ "type":"Feature","properties":{"osm_id":"262658","name":"Tullecombe","other":{"amenity":"parking","maxheight":"2.1","operator":"Forestry Commision","parking":"surface"}}, "geometry":{"type":"Point","coordinates":[-0.84954,51.02273 ]}},
{ "type":"Feature","properties":{"osm_id":"262659","other":{"amenity":"parking"}}, "geometry":{"type":"Point","coordinates":[-0.87418,51.02796 ]}},
{ "type":"Feature","properties":{"osm_id":"262758","other":{"amenity":"parking","fee":"no","parking":"surface","surface":"asphalt"}}, "geometry":{"type":"Point","coordinates":[-0.78691,50.9911 ]}},
{ "type":"Feature","properties":{"osm_id":"262759","other":{"amenity":"parking"}}, "geometry":{"type":"Point","coordinates":[-0.79799,50.9863 ]}},
{ "type":"Feature","properties":{"osm_id":"29169820","other":{"amenity":"parking"}}, "geometry":{"type":"Point","coordinates":[-0.84178,51.04711 ]}},
{ "type":"Feature","properties":{"osm_id":"98113258","other":{"amenity":"parking"}}, "geometry":{"type":"Point","coordinates":[-0.76132,51.02711 ]}},
{ "type":"Feature","properties":{"osm_id":"98666559","other":{"amenity":"parking"}}, "geometry":{"type":"Point","coordinates":[-0.75394,51.02343 ]}},
{ "type":"Feature","properties":{"osm_id":"254166250","other":{"amenity":"parking"}}, "geometry":{"type":"Point","coordinates":[-0.73867,50.8922 ]}},
{ "type":"Feature","properties":{"osm_id":"254166299","other":{"amenity":"parking"}}, "geometry":{"type":"Point","coordinates":[-0.74271,50.89093 ]}},
{ "type":"Feature","properties":{"osm_id":"264210990","other":{"access":"customers","amenity":"parking"}}, "geometry":{"type":"Point","coordinates":[-0.75188,50.94989 ]}},
{ "type":"Feature","properties":{"osm_id":"288824609","other":{"amenity":"parking_entrance"}}, "geometry":{"type":"Point","coordinates":[-0.7836,50.83279 ]}},
{ "type":"Feature","properties":{"osm_id":"291891572","name":"Carron Lane","other":{"amenity":"parking"}}, "geometry":{"type":"Point","coordinates":[-0.75093,50.98556 ]}},
{ "type":"Feature","properties":{"osm_id":"303812868","other":{"amenity":"parking"}}, "geometry":{"type":"Point","coordinates":[-0.79204,50.73196 ]}},
{ "type":"Feature","properties":{"osm_id":"310398342","other":{"amenity":"parking"}}, "geometry":{"type":"Point","coordinates":[-0.53906,51.07087 ]}},
{ "type":"Feature","properties":{"osm_id":"310398345","other":{"amenity":"parking"}}, "geometry":{"type":"Point","coordinates":[-0.53114,51.06407 ]}},
{ "type":"Feature","properties":{"osm_id":"370198707","other":{"amenity":"parking"}}, "geometry":{"type":"Point","coordinates":[-0.68478,51.05362 ]}},
{ "type":"Feature","properties":{"osm_id":"431221254","other":{"amenity":"parking","parking":"street_side"}}, "geometry":{"type":"Point","coordinates":[-0.79014,50.84198 ]}},
{ "type":"Feature","properties":{"osm_id":"479522212","other":{"amenity":"parking"}}, "geometry":{"type":"Point","coordinates":[-0.65013,50.96023 ]}},
{ "type":"Feature","properties":{"osm_id":"480638174","name":"Woolbeding","other":{"amenity":"parking","operator":"National Trust"}}, "geometry":{"type":"Point","coordinates":[-0.76884,51.02135 ]}},
{ "type":"Feature","properties":{"osm_id":"534763464","other":{"access":"destination","amenity":"parking","operator":"The Fox Goes Free","parking":"surface"}}, "geometry":{"type":"Point","coordinates":[-0.7366,50.90971 ]}},
{ "type":"Feature","properties":{"osm_id":"705036557","name":"Selhurst","other":{"amenity":"parking"}}, "geometry":{"type":"Point","coordinates":[-0.68309,50.89909 ]}},
{ "type":"Feature","properties":{"osm_id":"931833473","name":"Village Hall parking","other":{"amenity":"parking"}}, "geometry":{"type":"Point","coordinates":[-0.66469,51.034 ]}},
{ "type":"Feature","properties":{"osm_id":"945690399","other":{"amenity":"parking"}}, "geometry":{"type":"Point","coordinates":[-0.57437,50.98867 ]}},
{ "type":"Feature","properties":{"osm_id":"1019060497","other":{"access":"yes","amenity":"parking","fee":"yes","parking":"surface"}}, "geometry":{"type":"Point","coordinates":[-0.77516,50.83434 ]}},
{ "type":"Feature","properties":{"osm_id":"1272950008","other":{"amenity":"parking"}}, "geometry":{"type":"Point","coordinates":[-0.71208,50.81468 ]}},
{ "type":"Feature","properties":{"osm_id":"1272950215","other":{"amenity":"parking"}}, "geometry":{"type":"Point","coordinates":[-0.71261,50.81647 ]}},
{ "type":"Feature","properties":{"osm_id":"1279247839","other":{"amenity":"parking"}}, "geometry":{"type":"Point","coordinates":[-0.78647,50.79614 ]}},
{ "type":"Feature","properties":{"osm_id":"1308213674","other":{"amenity":"parking_entrance"}}, "geometry":{"type":"Point","coordinates":[-0.78359,50.83283 ]}},
{ "type":"Feature","properties":{"osm_id":"1350420276","other":{"amenity":"parking"}}, "geometry":{"type":"Point","coordinates":[-0.81853,50.83886 ]}},
{ "type":"Feature","properties":{"osm_id":"1359291845","other":{"amenity":"parking"}}, "geometry":{"type":"Point","coordinates":[-0.80786,50.84184 ]}},
{ "type":"Feature","properties":{"osm_id":"1359291858","other":{"amenity":"parking"}}, "geometry":{"type":"Point","coordinates":[-0.8319,50.84745 ]}},
{ "type":"Feature","properties":{"osm_id":"1375531216","other":{"amenity":"parking"}}, "geometry":{"type":"Point","coordinates":[-0.75536,50.91853 ]}},
{ "type":"Feature","properties":{"osm_id":"1486280709","other":{"amenity":"parking"}}, "geometry":{"type":"Point","coordinates":[-0.70003,50.96915 ]}},
{ "type":"Feature","properties":{"osm_id":"1506175152","other":{"amenity":"parking","parking":"layby"}}, "geometry":{"type":"Point","coordinates":[-0.83587,51.00744 ]}},
{ "type":"Feature","properties":{"osm_id":"1506181058","other":{"amenity":"parking","parking":"layby"}}, "geometry":{"type":"Point","coordinates":[-0.89429,51.00998 ]}},
{ "type":"Feature","properties":{"osm_id":"1559346417","other":{"access":"yes","amenity":"parking","fee":"no","parking":"surface","spaces":"6","surface":"unpaved"}}, "geometry":{"type":"Point","coordinates":[-0.88179,50.88843 ]}},
{ "type":"Feature","properties":{"osm_id":"1569754091","other":{"amenity":"parking"}}, "geometry":{"type":"Point","coordinates":[0.95064,51.91317 ]}},
{ "type":"Feature","properties":{"osm_id":"1569754094","other":{"amenity":"parking"}}, "geometry":{"type":"Point","coordinates":[0.96336,51.90841 ]}},
{ "type":"Feature","properties":{"osm_id":"1569754105","other":{"amenity":"parking"}}, "geometry":{"type":"Point","coordinates":[0.96975,51.90618 ]}},
{ "type":"Feature","properties":{"osm_id":"1569754110","other":{"amenity":"parking"}}, "geometry":{"type":"Point","coordinates":[0.94821,51.91474 ]}},
{ "type":"Feature","properties":{"osm_id":"1602779039","name":"Cobnor Car Park","other":{"amenity":"parking","capacity":"12","maxheight:physical":"1.8"}}, "geometry":{"type":"Point","coordinates":[-0.87538,50.82548 ]}},
{ "type":"Feature","properties":{"osm_id":"1602852120","other":{"amenity":"parking"}}, "geometry":{"type":"Point","coordinates":[-0.85023,50.83355 ]}},
{ "type":"Feature","properties":{"osm_id":"1674662166","other":{"amenity":"parking","capacity":"15","parking":"surface","service":"customer"}}, "geometry":{"type":"Point","coordinates":[-0.87533,50.7667 ]}},
{ "type":"Feature","properties":{"osm_id":"1783159789","ref":"GU30 17","other":{"amenity":"post_box","collection_plate":"not visible","collection_times":"Mo-Fr 16:15; Sa 09:30","last_checked":"2021-02-06","operator":"Royal Mail","post_box:type":"wall","royal_cypher":"GR"}}, "geometry":{"type":"Point","coordinates":[-0.8149,51.05066 ]}},
{ "type":"Feature","properties":{"osm_id":"1800231957","name":"Brittania (Underground)","other":{"amenity":"parking","operator":"Brittanica"}}, "geometry":{"type":"Point","coordinates":[-0.78079,50.83758 ]}},
{ "type":"Feature","properties":{"osm_id":"2145855699","other":{"amenity":"parking"}}, "geometry":{"type":"Point","coordinates":[-0.80687,50.82239 ]}},
{ "type":"Feature","properties":{"osm_id":"2159034413","other":{"amenity":"parking","parking":"surface"}}, "geometry":{"type":"Point","coordinates":[-0.66639,50.8998 ]}},
{ "type":"Feature","properties":{"osm_id":"2212905825","other":{"amenity":"parking"}}, "geometry":{"type":"Point","coordinates":[-0.89656,50.92742 ]}},
{ "type":"Feature","properties":{"osm_id":"2333877368","other":{"amenity":"parking","capacity":"5"}}, "geometry":{"type":"Point","coordinates":[-0.8593,50.96644 ]}},
{ "type":"Feature","properties":{"osm_id":"2482326961","other":{"access":"yes","amenity":"parking","fee":"no","parking":"layby"}}, "geometry":{"type":"Point","coordinates":[-0.80278,50.83415 ]}},
{ "type":"Feature","properties":{"osm_id":"3044721390","other":{"maxheight":"2"}}, "geometry":{"type":"Point","coordinates":[-0.71283,50.86119 ]}},
{ "type":"Feature","properties":{"osm_id":"3113142107","other":{"amenity":"atm","check_date":"2021-12-27"}}, "geometry":{"type":"Point","coordinates":[-3.3986,55.98953 ]}},
{ "type":"Feature","properties":{"osm_id":"4441181458","name":"Iron Hill","other":{"amenity":"parking"}}, "geometry":{"type":"Point","coordinates":[-0.79001,51.06479 ]}},
{ "type":"Feature","properties":{"osm_id":"4743375775","highway":"crossing","other":{"crossing":"zebra"}}, "geometry":{"type":"Point","coordinates":[-0.75675,50.84383 ]}},
{ "type":"Feature","properties":{"osm_id":"4743375776","highway":"crossing","other":{"crossing":"zebra","tactile_paving":"no"}}, "geometry":{"type":"Point","coordinates":[-0.7565,50.84385 ]}},
{ "type":"Feature","properties":{"osm_id":"4801249202","other":{"amenity":"parking","surface":"gravel"}}, "geometry":{"type":"Point","coordinates":[-0.70165,50.96681 ]}},
{ "type":"Feature","properties":{"osm_id":"4825627437","other":{"amenity":"parking","parking":"surface"}}, "geometry":{"type":"Point","coordinates":[-0.89309,50.78092 ]}},
{ "type":"Feature","properties":{"osm_id":"8227531241","other":{"amenity":"parking"}}, "geometry":{"type":"Point","coordinates":[-0.55973,50.9627 ]}},
{ "type":"Feature","properties":{"osm_id":"8227642340","other":{"amenity":"parking"}}, "geometry":{"type":"Point","coordinates":[-0.56155,50.96189 ]}},
{ "type":"Feature","properties":{"osm_id":"8491263284","name":"Loxwood Sports Centre","other":{"naptan:AtcoCode":"4400HR0264","naptan:Bearing":"W","naptan:BusStopType":"CUS","naptan:CommonName":"Loxwood Sports Centre","naptan:Indicator":"adj Sports Ground","naptan:Landmark":"Cricket ground","naptan:NaptanCode":"wsxatwtj","naptan:Street":"Loxwood Road","naptan:verified":"no"}}, "geometry":{"type":"Point","coordinates":[-0.51892,51.0636 ]}},
{ "type":"Feature","properties":{"osm_id":"8620636592","other":{"amenity":"parking","surface":"gravel"}}, "geometry":{"type":"Point","coordinates":[-0.70241,50.96697 ]}},
{ "type":"Feature","properties":{"osm_id":"8670727538","other":{"amenity":"parking","parking":"street_side","surface":"gravel"}}, "geometry":{"type":"Point","coordinates":[-0.65129,50.86861 ]}},
{ "type":"Feature","properties":{"osm_id":"8670727540","other":{"amenity":"parking","surface":"gravel"}}, "geometry":{"type":"Point","coordinates":[-0.76172,50.89161 ]}},
{ "type":"Feature","properties":{"osm_id":"8670727541","other":{"amenity":"parking","surface":"gravel"}}, "geometry":{"type":"Point","coordinates":[-0.76153,50.89178 ]}},
{ "type":"Feature","properties":{"osm_id":"8670727542","other":{"amenity":"parking","surface":"gravel"}}, "geometry":{"type":"Point","coordinates":[-0.75073,50.89502 ]}},
{ "type":"Feature","properties":{"osm_id":"8670727543","other":{"amenity":"parking","surface":"gravel"}}, "geometry":{"type":"Point","coordinates":[-0.72404,50.89466 ]}},
{ "type":"Feature","properties":{"osm_id":"8670727544","other":{"access":"yes","amenity":"parking","fee":"no","parking":"surface","surface":"gravel"}}, "geometry":{"type":"Point","coordinates":[-0.6667,50.88846 ]}},
{ "type":"Feature","properties":{"osm_id":"8831503621","other":{"access":"residents","amenity":"parking","parking":"surface"}}, "geometry":{"type":"Point","coordinates":[-0.8545,50.75886 ]}},
{ "type":"Feature","properties":{"osm_id":"8851439896","other":{"access":"customers","amenity":"parking","parking":"surface"}}, "geometry":{"type":"Point","coordinates":[-0.8742,50.76939 ]}},
{ "type":"Feature","properties":{"osm_id":"8851458617","other":{"amenity":"parking","parking":"lane"}}, "geometry":{"type":"Point","coordinates":[-0.87436,50.76882 ]}},
{ "type":"Feature","properties":{"osm_id":"8855203474","other":{"access":"customers","amenity":"parking","parking":"surface"}}, "geometry":{"type":"Point","coordinates":[-0.80362,50.81238 ]}},
{ "type":"Feature","properties":{"osm_id":"8857931722","other":{"amenity":"parking","parking":"lane"}}, "geometry":{"type":"Point","coordinates":[-0.87346,50.76944 ]}},
{ "type":"Feature","properties":{"osm_id":"9113846207","other":{"amenity":"parking"}}, "geometry":{"type":"Point","coordinates":[-0.68743,51.07012 ]}},
{ "type":"Feature","properties":{"osm_id":"9113846209","other":{"amenity":"parking"}}, "geometry":{"type":"Point","coordinates":[-0.68739,51.06891 ]}},
{ "type":"Feature","properties":{"osm_id":"9113846211","other":{"amenity":"parking"}}, "geometry":{"type":"Point","coordinates":[-0.6847,51.06762 ]}},
{ "type":"Feature","properties":{"osm_id":"9143257300","other":{"amenity":"parking"}}, "geometry":{"type":"Point","coordinates":[-0.76843,50.82252 ]}},
{ "type":"Feature","properties":{"osm_id":"9143257301","other":{"amenity":"parking"}}, "geometry":{"type":"Point","coordinates":[-0.76943,50.82186 ]}},
{ "type":"Feature","properties":{"osm_way_id":"4404108","amenity":"parking","other":{"fee":"2 GBP per day","layer":"2"}}, "geometry":{"type":"MultiPolygon","coordinates":[[[[-0.62389,51.00613],[-0.62393,51.00634],[-0.62394,51.00638],[-0.62415,51.00656],[-0.62481,51.00645],[-0.62469,51.00609],[-0.62446,51.00592],[-0.62419,51.00595],[-0.62389,51.00613]]]]}},
{ "type":"Feature","properties":{"osm_way_id":"4587304","amenity":"parking"},"geometry":{"type":"MultiPolygon","coordinates":[[[[-0.58908,50.94377],[-0.58934,50.9438],[-0.58951,50.94368],[-0.58929,50.94347],[-0.58925,50.94343],[-0.58894,50.94342],[-0.58883,50.94351],[-0.58894,50.94362],[-0.58908,50.94377]]]]}},
{ "type":"Feature","properties":{"osm_way_id":"4587305","amenity":"parking","other":{"access":"yes","fee":"no","parking":"surface","surface":"ground"}}, "geometry":{"type":"MultiPolygon","coordinates":[[[[-0.59182,50.94727],[-0.59177,50.94738],[-0.59184,50.94744],[-0.59217,50.94759],[-0.59264,50.94764],[-0.59253,50.94749],[-0.59239,50.94729],[-0.59226,50.94703],[-0.59182,50.94727]]]]}},
{ "type":"Feature","properties":{"osm_way_id":"4627287","amenity":"parking"},"geometry":{"type":"MultiPolygon","coordinates":[[[[-0.56327,50.95703],[-0.56305,50.95714],[-0.56309,50.95699],[-0.56327,50.95703]]]]}},
{ "type":"Feature","properties":{"osm_way_id":"4627294","amenity":"parking"},"geometry":{"type":"MultiPolygon","coordinates":[[[[-0.57445,50.96442],[-0.57487,50.96466],[-0.57476,50.96473],[-0.57464,50.9648],[-0.57429,50.96463],[-0.57438,50.9645],[-0.57445,50.96442]]]]}},
{ "type":"Feature","properties":{"osm_way_id":"4684796","name":"Triangle Car Park","amenity":"parking","other":{"parking":"surface"}}, "geometry":{"type":"MultiPolygon","coordinates":[[[[-0.75056,50.89478],[-0.75071,50.89483],[-0.75113,50.89495],[-0.7515,50.89505],[-0.75158,50.89506],[-0.7517,50.89507],[-0.75148,50.89516],[-0.75145,50.89518],[-0.75136,50.89522],[-0.75092,50.8954],[-0.75086,50.89543],[-0.75079,50.89547],[-0.75075,50.89549],[-0.75071,50.89551],[-0.75065,50.89551],[-0.75061,50.89549],[-0.7506,50.89545],[-0.75059,50.8954],[-0.75059,50.89532],[-0.75059,50.89523],[-0.75059,50.89516],[-0.75056,50.89507],[-0.75052,50.89491],[-0.75049,50.89482],[-0.75045,50.89474],[-0.75056,50.89478]]]]}},
{ "type":"Feature","properties":{"osm_way_id":"4701325","amenity":"parking","other":{"access":"customers","fee":"yes","parking":"surface"}}, "geometry":{"type":"MultiPolygon","coordinates":[[[[-0.77151,50.84239],[-0.77117,50.84248],[-0.77083,50.84256],[-0.77051,50.84264],[-0.76992,50.84224],[-0.7713,50.84191],[-0.77139,50.84198],[-0.7715,50.84223],[-0.77151,50.84239]]]]}},
{ "type":"Feature","properties":{"osm_way_id":"4731179","name":"North Street Car Park","amenity":"parking","other":{"capacity":"173","capacity:disabled":"3","operator":"Chichester District Council"}}, "geometry":{"type":"MultiPolygon","coordinates":[[[[-0.73775,50.98869],[-0.73769,50.98877],[-0.73755,50.98879],[-0.73747,50.98878],[-0.73646,50.98859],[-0.73703,50.98801],[-0.73779,50.98861],[-0.73775,50.98869]]]]}},
{ "type":"Feature","properties":{"osm_way_id":"4731220","amenity":"parking"},"geometry":{"type":"MultiPolygon","coordinates":[[[[-0.61148,50.98351],[-0.61199,50.98356],[-0.61198,50.98369],[-0.6119,50.98368],[-0.61184,50.98394],[-0.61216,50.98398],[-0.61212,50.98414],[-0.61197,50.98413],[-0.6117,50.98412],[-0.61144,50.98397],[-0.61148,50.98351]]]]}},
{ "type":"Feature","properties":{"osm_way_id":"4788104","name":"Avenue De Chartres","amenity":"parking","building":"yes","other":{"access":"yes","capacity":"894","capacity:disabled":"9","parking":"multi-storey"}}, "geometry":{"type":"MultiPolygon","coordinates":[[[[-0.78357,50.83322],[-0.78359,50.83283],[-0.7836,50.83279],[-0.7836,50.83277],[-0.78305,50.83276],[-0.78246,50.83272],[-0.78205,50.83265],[-0.78173,50.8326],[-0.78157,50.83305],[-0.78152,50.83315],[-0.78166,50.83318],[-0.78279,50.83338],[-0.7831,50.8334],[-0.78332,50.83337],[-0.78356,50.83329],[-0.78357,50.83322]]]]}},
{ "type":"Feature","properties":{"osm_way_id":"4790729","name":"East Pallant","amenity":"parking","other":{"access":"yes","capacity":"188","capacity:disabled":"no","fee":"yes","parking":"surface"}}, "geometry":{"type":"MultiPolygon","coordinates":[[[[-0.77607,50.83492],[-0.77612,50.83458],[-0.77619,50.83431],[-0.77642,50.83412],[-0.7766,50.83406],[-0.77677,50.83409],[-0.77693,50.83419],[-0.77698,50.8342],[-0.7772,50.83422],[-0.77757,50.83422],[-0.77763,50.83422],[-0.77779,50.83422],[-0.77789,50.83427],[-0.77785,50.83442],[-0.77757,50.83439],[-0.77731,50.83437],[-0.77706,50.83438],[-0.77675,50.83436],[-0.77666,50.83465],[-0.77664,50.83471],[-0.77663,50.83477],[-0.77657,50.83499],[-0.77648,50.83498],[-0.77634,50.83504],[-0.77614,50.83506],[-0.77605,50.83505],[-0.77607,50.83492]]]]}},
{ "type":"Feature","properties":{"osm_way_id":"4790761","name":"Market Road A","amenity":"parking","other":{"access":"yes","capacity":"55","capacity:disabled":"no","fee":"yes","parking":"surface"}}, "geometry":{"type":"MultiPolygon","coordinates":[[[[-0.7748,50.83465],[-0.77492,50.83473],[-0.77451,50.8349],[-0.77439,50.83497],[-0.77438,50.83506],[-0.7741,50.83504],[-0.77415,50.8349],[-0.7743,50.83478],[-0.77449,50.83464],[-0.7747,50.83458],[-0.7748,50.83465]]]]}},
{ "type":"Feature","properties":{"osm_way_id":"4800221","amenity":"parking"},"geometry":{"type":"MultiPolygon","coordinates":[[[[-0.76563,50.7538],[-0.76568,50.75378],[-0.76573,50.75384],[-0.76571,50.75401],[-0.76571,50.75416],[-0.76569,50.75431],[-0.76558,50.75431],[-0.76547,50.75423],[-0.76539,50.75414],[-0.76547,50.75405],[-0.76562,50.75404],[-0.76561,50.75394],[-0.76563,50.7538]]]]}},
{ "type":"Feature","properties":{"osm_way_id":"4800310","name":"Marine Carpark","amenity":"parking","other":{"parking":"surface","surface":"ground"}}, "geometry":{"type":"MultiPolygon","coordinates":[[[[-0.79624,50.72467],[-0.79631,50.72475],[-0.79623,50.7248],[-0.79568,50.72456],[-0.79491,50.7243],[-0.79435,50.72408],[-0.79437,50.72404],[-0.79457,50.72411],[-0.79462,50.72405],[-0.79624,50.72467]]]]}},
{ "type":"Feature","properties":{"osm_way_id":"4800534","name":"East Beach","amenity":"parking","other":{"access":"yes","fee":"yes","maxheight":"A height barrier is sometimes in operation.","parking":"surface"}}, "geometry":{"type":"MultiPolygon","coordinates":[[[[-0.77499,50.73358],[-0.77507,50.73366],[-0.77508,50.73373],[-0.77512,50.73383],[-0.77519,50.73391],[-0.77461,50.73444],[-0.77449,50.7344],[-0.77452,50.73437],[-0.77439,50.73433],[-0.77419,50.73431],[-0.77398,50.7343],[-0.774,50.73423],[-0.77391,50.73419],[-0.77366,50.73438],[-0.77352,50.73432],[-0.77351,50.73433],[-0.77346,50.7343],[-0.77349,50.73429],[-0.77385,50.73394],[-0.77447,50.73337],[-0.77478,50.7335],[-0.77499,50.73358]]]]}},
{ "type":"Feature","properties":{"osm_way_id":"4800646","name":"Pagham Harbour Nature Reserve","amenity":"parking"},"geometry":{"type":"MultiPolygon","coordinates":[[[[-0.7873,50.76243],[-0.78733,50.76257],[-0.78738,50.76256],[-0.7874,50.76263],[-0.78702,50.76267],[-0.78692,50.76268],[-0.78689,50.76263],[-0.78682,50.7626],[-0.78675,50.76258],[-0.78672,50.76262],[-0.78632,50.76251],[-0.78635,50.76243],[-0.78639,50.76239],[-0.78678,50.76249],[-0.78678,50.76254],[-0.78698,50.76259],[-0.78708,50.76258],[-0.78706,50.76245],[-0.7873,50.76243]]]]}},
{ "type":"Feature","properties":{"osm_way_id":"4805766","name":"South Pallant","amenity":"parking","other":{"access":"yes","capacity":"56","capacity:disabled":"2","fee":"yes","parking":"surface"}}, "geometry":{"type":"MultiPolygon","coordinates":[[[[-0.77848,50.8343],[-0.77853,50.83422],[-0.77858,50.83413],[-0.77912,50.83425],[-0.77907,50.83444],[-0.779,50.83443],[-0.77895,50.83472],[-0.77899,50.83472],[-0.77899,50.83474],[-0.77898,50.83476],[-0.77892,50.83476],[-0.77887,50.83476],[-0.77887,50.83474],[-0.7787,50.83473],[-0.77874,50.83461],[-0.77861,50.83459],[-0.7787,50.83443],[-0.77873,50.83437],[-0.77866,50.83435],[-0.77848,50.8343]]]]}},
{ "type":"Feature","properties":{"osm_way_id":"4805816","name":"Cawley Priory","amenity":"parking","other":{"access":"yes","capacity":"81","capacity:disabled":"1","fee":"yes","parking":"surface","surface":"asphalt"}}, "geometry":{"type":"MultiPolygon","coordinates":[[[[-0.77857,50.83386],[-0.77854,50.83382],[-0.77833,50.83379],[-0.77802,50.83371],[-0.77781,50.83373],[-0.7774,50.83377],[-0.77719,50.83379],[-0.77723,50.834],[-0.77729,50.83403],[-0.77741,50.83405],[-0.77795,50.83399],[-0.778,50.8339],[-0.77835,50.83388],[-0.77848,50.83387],[-0.77856,50.83387],[-0.77857,50.83386]]]]}},
{ "type":"Feature","properties":{"osm_way_id":"4805911","name":"Chichester Gate","amenity":"parking","other":{"access":"customers"}}, "geometry":{"type":"MultiPolygon","coordinates":[[[[-0.78569,50.82985],[-0.78564,50.82993],[-0.78561,50.82997],[-0.78556,50.82996],[-0.78532,50.82989],[-0.78474,50.82974],[-0.78471,50.82979],[-0.78434,50.8297],[-0.78477,50.82901],[-0.78494,50.82906],[-0.78502,50.82908],[-0.78521,50.82879],[-0.78583,50.82895],[-0.7864,50.82911],[-0.78632,50.82961],[-0.78587,50.82958],[-0.78569,50.82985]]]]}},
{ "type":"Feature","properties":{"osm_way_id":"4810906","amenity":"parking","other":{"access":"yes","fee":"yes","fee:conditional":"no @ 18:00-08:00","operator":"Chichester District Council","operator:type":"council","parking":"surface","surface":"asphalt"}}, "geometry":{"type":"MultiPolygon","coordinates":[[[[-0.87389,50.77002],[-0.87385,50.77006],[-0.87399,50.77011],[-0.87394,50.77018],[-0.87377,50.77014],[-0.87377,50.77012],[-0.87376,50.77008],[-0.87372,50.77006],[-0.87368,50.77012],[-0.87284,50.76988],[-0.87264,50.76979],[-0.87268,50.7697],[-0.87389,50.77002]]]]}},
{ "type":"Feature","properties":{"osm_way_id":"4811061","name":"Orchard Street","amenity":"parking","other":{"access":"yes","capacity":"66","capacity:disabled":"1","fee":"yes","parking":"surface"}}, "geometry":{"type":"MultiPolygon","coordinates":[[[[-0.78432,50.83754],[-0.78425,50.83754],[-0.78419,50.83754],[-0.78418,50.83764],[-0.78407,50.83764],[-0.78405,50.83779],[-0.78405,50.83782],[-0.78403,50.83796],[-0.784,50.83818],[-0.78381,50.83828],[-0.78409,50.83833],[-0.78416,50.83819],[-0.78423,50.838],[-0.7843,50.83781],[-0.78437,50.83764],[-0.78432,50.83754]]]]}},
{ "type":"Feature","properties":{"osm_way_id":"5457718","amenity":"parking","other":{"wheelchair":"yes"}}, "geometry":{"type":"MultiPolygon","coordinates":[[[[-0.61059,50.98537],[-0.61053,50.98532],[-0.6104,50.98526],[-0.61021,50.9852],[-0.61024,50.98516],[-0.61058,50.98468],[-0.6107,50.98452],[-0.61063,50.98443],[-0.60991,50.98433],[-0.60997,50.98401],[-0.61073,50.98408],[-0.61089,50.98413],[-0.61074,50.98435],[-0.61082,50.98452],[-0.61094,50.98453],[-0.61086,50.9848],[-0.61084,50.98507],[-0.61106,50.98508],[-0.61103,50.98539],[-0.61077,50.98537],[-0.61059,50.98537]]]]}},
{ "type":"Feature","properties":{"osm_way_id":"6231240","amenity":"parking"},"geometry":{"type":"MultiPolygon","coordinates":[[[[-0.60681,50.98351],[-0.60677,50.98368],[-0.60726,50.98372],[-0.60736,50.98369],[-0.60738,50.98355],[-0.60726,50.98355],[-0.60722,50.98355],[-0.60681,50.98351]]]]}},
{ "type":"Feature","properties":{"osm_way_id":"6241790","amenity":"parking","other":{"access":"customers","operator":"Bignor Roman Villa","parking":"surface"}}, "geometry":{"type":"MultiPolygon","coordinates":[[[[-0.59523,50.92216],[-0.59654,50.9221],[-0.59643,50.92265],[-0.5953,50.9227],[-0.59519,50.9227],[-0.59523,50.92216]]]]}},
{ "type":"Feature","properties":{"osm_way_id":"8443066","name":"Droke (Forestry Commission)","amenity":"parking"},"geometry":{"type":"MultiPolygon","coordinates":[[[[-0.68613,50.90622],[-0.68642,50.90627],[-0.68638,50.90645],[-0.68634,50.90654],[-0.68629,50.90653],[-0.68629,50.90648],[-0.68619,50.90639],[-0.68611,50.90632],[-0.68613,50.90622]]]]}},
{ "type":"Feature","properties":{"osm_way_id":"13275276","amenity":"parking","other":{"access":"yes"}}, "geometry":{"type":"MultiPolygon","coordinates":[[[[-0.7356,51.0732],[-0.73514,51.07323],[-0.73514,51.07315],[-0.73517,51.07312],[-0.73521,51.07309],[-0.73529,51.07308],[-0.73543,51.07306],[-0.73555,51.07306],[-0.7356,51.0732]]]]}},
{ "type":"Feature","properties":{"osm_way_id":"25418789","amenity":"parking"},"geometry":{"type":"MultiPolygon","coordinates":[[[[-0.75802,50.81549],[-0.75821,50.81544],[-0.7583,50.81565],[-0.7583,50.81567],[-0.75832,50.81574],[-0.75832,50.8158],[-0.75834,50.81619],[-0.75809,50.81625],[-0.75806,50.81625],[-0.75802,50.81549]]]]}},
{ "type":"Feature","properties":{"osm_way_id":"25896593","name":"Chichester Railway Station (South)","amenity":"parking","other":{"access":"yes","fee":"yes","parking":"surface"}}, "geometry":{"type":"MultiPolygon","coordinates":[[[[-0.78152,50.83162],[-0.78207,50.83167],[-0.78225,50.83168],[-0.78227,50.83163],[-0.78235,50.83141],[-0.78214,50.83137],[-0.78193,50.83134],[-0.78189,50.83137],[-0.78152,50.83162]]]]}},
{ "type":"Feature","properties":{"osm_way_id":"25896704","name":"Westgate Leisure","amenity":"parking","other":{"access":"customers","capacity":"124","capacity:disabled":"6","fee":"Mo-Sa 08:00-18:00; Su 10:00-17:00; PH 08:00-18:00","fee:amount:PT01H":"Mo-Sa 0.70 GBP; PH 0.70 GBP","fee:amount:PT02H":"Mo-Sa 1.50 GBP; PH 1.50 GBP","fee:amount:PT03H":"Mo-Sa 2.20 GBP; PH 2.20 GBP","fee:amount:PT04H":"Mo-Sa 3.00 GBP; Su 1.00 GBP; PH 3.00 GBP","fee:amount:PT05H":"Mo-Sa 3.80 GBP; PH 3.80 GBP","fee:amount:PT06H":"Mo-Sa 4.20 GBP; PH 4.20 GBP","fee:amount:PT07H":"Su 2.00 GBP","fee:amount:PT08H":"Mo-Sa 4.40 GBP; PH 4.40 GBP","fee:amount:PT10H":"Mo-Sa 5.60 GBP; PH 5.60 GBP","fee:amount:PT30M":"Mo-Sa 0.50 GBP; PH 0.5 GBP","fee:disabled":"no","operator":"Chichester District Council","park_ride":"no","parking":"surface"}}, "geometry":{"type":"MultiPolygon","coordinates":[[[[-0.78639,50.83301],[-0.78623,50.83315],[-0.78569,50.83322],[-0.78543,50.83328],[-0.78517,50.83337],[-0.78481,50.83325],[-0.78485,50.8332],[-0.78479,50.83314],[-0.78515,50.83301],[-0.78534,50.83296],[-0.78552,50.83292],[-0.78622,50.83285],[-0.78635,50.83289],[-0.78639,50.83301]]]]}},
{ "type":"Feature","properties":{"osm_way_id":"25914735","name":"Cattle Market","amenity":"parking","other":{"access":"yes","capacity":"911","capacity:disabled":"6","fee":"yes","parking":"surface"}}, "geometry":{"type":"MultiPolygon","coordinates":[[[[-0.77153,50.8344],[-0.77354,50.83399],[-0.77382,50.83395],[-0.77406,50.83396],[-0.77428,50.83405],[-0.77442,50.83418],[-0.77444,50.83428],[-0.7743,50.83433],[-0.77438,50.83449],[-0.77409,50.83467],[-0.77399,50.83477],[-0.7738,50.83517],[-0.77365,50.8352],[-0.77349,50.83569],[-0.77345,50.8357],[-0.77339,50.83563],[-0.77329,50.83566],[-0.77326,50.83561],[-0.77306,50.83565],[-0.77287,50.83568],[-0.77292,50.83544],[-0.77258,50.83548],[-0.77241,50.8353],[-0.77228,50.83514],[-0.7721,50.83491],[-0.77193,50.83477],[-0.77171,50.83456],[-0.77153,50.8344]]]]}},
{ "type":"Feature","properties":{"osm_way_id":"25914838","name":"Chichester Westgate Leisure Centre","amenity":"parking","other":{"access":"customers"}}, "geometry":{"type":"MultiPolygon","coordinates":[[[[-0.78738,50.83339],[-0.78758,50.83349],[-0.78766,50.83352],[-0.78821,50.83303],[-0.78816,50.83296],[-0.78764,50.8329],[-0.78725,50.83289],[-0.78723,50.83294],[-0.78767,50.83315],[-0.78738,50.83339]]]]}},
{ "type":"Feature","properties":{"osm_way_id":"26344469","name":"Basin Road","amenity":"parking","other":{"capacity":"115","capacity:disabled":"2","fee":"yes","parking":"surface"}}, "geometry":{"type":"MultiPolygon","coordinates":[[[[-0.77879,50.83268],[-0.77864,50.83274],[-0.77847,50.8327],[-0.77836,50.83268],[-0.77822,50.83264],[-0.7781,50.83264],[-0.77809,50.83227],[-0.77856,50.83226],[-0.77903,50.83228],[-0.77944,50.83239],[-0.77936,50.8325],[-0.77897,50.8324],[-0.7789,50.83253],[-0.77887,50.83258],[-0.77879,50.83268]]]]}},
{ "type":"Feature","properties":{"osm_way_id":"26359448","name":"Northgate","amenity":"parking","other":{"access":"yes","capacity":"853","capacity:disabled":"11","fee":"yes","parking":"surface"}}, "geometry":{"type":"MultiPolygon","coordinates":[[[[-0.77669,50.84089],[-0.7768,50.84121],[-0.77683,50.8413],[-0.77675,50.8413],[-0.77662,50.84131],[-0.77646,50.84132],[-0.77682,50.84233],[-0.77684,50.84239],[-0.7772,50.84233],[-0.7775,50.84229],[-0.77782,50.84222],[-0.77805,50.84217],[-0.77833,50.84209],[-0.77875,50.842],[-0.77873,50.84195],[-0.77868,50.84196],[-0.77859,50.84176],[-0.77849,50.84158],[-0.77826,50.84119],[-0.77823,50.84109],[-0.77807,50.84111],[-0.77802,50.84094],[-0.778,50.84089],[-0.77791,50.84086],[-0.77783,50.84084],[-0.77775,50.84083],[-0.77767,50.84083],[-0.77669,50.84089]]]]}},
{ "type":"Feature","properties":{"osm_way_id":"26359556","name":"Baffins Lane","amenity":"parking","other":{"access":"yes","capacity":"87","capacity:disabled":"2","fee":"yes","parking":"surface"}}, "geometry":{"type":"MultiPolygon","coordinates":[[[[-0.77648,50.83558],[-0.77631,50.83559],[-0.77629,50.83574],[-0.7763,50.83579],[-0.77644,50.8358],[-0.77643,50.83586],[-0.77694,50.83592],[-0.77744,50.83598],[-0.77747,50.83583],[-0.77748,50.83581],[-0.77704,50.83577],[-0.7771,50.83552],[-0.77661,50.83547],[-0.7766,50.83554],[-0.77655,50.83553],[-0.77654,50.83556],[-0.77654,50.83559],[-0.77648,50.83558]]]]}},
{ "type":"Feature","properties":{"osm_way_id":"26359616","name":"New Park Road","amenity":"parking","other":{"access":"yes","capacity":"263","capacity:disabled":"4","fee":"yes","parking":"surface","surface":"asphalt"}}, "geometry":{"type":"MultiPolygon","coordinates":[[[[-0.77333,50.83693],[-0.77341,50.83691],[-0.77346,50.8369],[-0.77357,50.83689],[-0.77362,50.83726],[-0.77321,50.83735],[-0.7733,50.83757],[-0.77315,50.83762],[-0.77274,50.83708],[-0.7732,50.83696],[-0.77333,50.83693]]]]}},
{ "type":"Feature","properties":{"osm_way_id":"26359668","name":"Little London","amenity":"parking","other":{"access":"yes","capacity":"123","capacity:disabled":"3","fee":"yes","parking":"surface"}}, "geometry":{"type":"MultiPolygon","coordinates":[[[[-0.77633,50.83725],[-0.7764,50.83697],[-0.77655,50.83684],[-0.77658,50.83684],[-0.77661,50.83673],[-0.77721,50.83678],[-0.77715,50.83698],[-0.77731,50.83701],[-0.77719,50.83731],[-0.77717,50.83738],[-0.77633,50.83725]]]]}},
{ "type":"Feature","properties":{"osm_way_id":"26359764","name":"Chichester Railway Station (North)","amenity":"parking","other":{"access":"yes","fee":"yes","parking":"surface"}}, "geometry":{"type":"MultiPolygon","coordinates":[[[[-0.78122,50.83205],[-0.78165,50.83206],[-0.78169,50.8321],[-0.78201,50.8321],[-0.78218,50.8321],[-0.78257,50.83205],[-0.78256,50.83197],[-0.78368,50.83201],[-0.78368,50.83205],[-0.78366,50.8326],[-0.7834,50.83258],[-0.78213,50.8325],[-0.78175,50.83246],[-0.78186,50.83239],[-0.78175,50.83232],[-0.78162,50.83232],[-0.78145,50.83232],[-0.78146,50.83225],[-0.7809,50.83214],[-0.78105,50.83198],[-0.78108,50.83199],[-0.78112,50.83201],[-0.78115,50.83203],[-0.78119,50.83205],[-0.78122,50.83205]]]]}},
{ "type":"Feature","properties":{"osm_way_id":"26359837","name":"Market Avenue C","amenity":"parking","other":{"access":"yes","capacity":"75","capacity:disabled":"no","fee":"yes","parking":"surface","surface":"asphalt"}}, "geometry":{"type":"MultiPolygon","coordinates":[[[[-0.77855,50.83358],[-0.77817,50.83343],[-0.77783,50.83332],[-0.77746,50.83339],[-0.77711,50.83346],[-0.77713,50.83363],[-0.77725,50.83365],[-0.77779,50.8336],[-0.77807,50.83357],[-0.77844,50.83366],[-0.77855,50.83358]]]]}},
{ "type":"Feature","properties":{"osm_way_id":"26359884","name":"Waitrose","amenity":"parking","other":{"access":"customers","operator":"Waitrose & Partners","parking":"surface"}}, "geometry":{"type":"MultiPolygon","coordinates":[[[[-0.78555,50.83261],[-0.78555,50.83263],[-0.78459,50.83287],[-0.78434,50.83287],[-0.78426,50.83282],[-0.78398,50.83281],[-0.78398,50.83273],[-0.78433,50.83273],[-0.78436,50.83222],[-0.78438,50.83214],[-0.78475,50.83215],[-0.78547,50.83223],[-0.78554,50.83225],[-0.78564,50.83227],[-0.78555,50.83261]]]]}},
{ "type":"Feature","properties":{"osm_way_id":"26361173","name":"St. Cyriac's","amenity":"parking","other":{"access":"yes","capacity":"51","capacity:disabled":"2","fee":"yes","parking":"surface"}}, "geometry":{"type":"MultiPolygon","coordinates":[[[[-0.77972,50.83872],[-0.77971,50.83877],[-0.77971,50.83918],[-0.77955,50.83921],[-0.77955,50.83934],[-0.77919,50.83933],[-0.7792,50.83923],[-0.7792,50.83921],[-0.77925,50.83921],[-0.77924,50.83898],[-0.77937,50.83895],[-0.77953,50.83892],[-0.77954,50.83872],[-0.77972,50.83872]]]]}},
{ "type":"Feature","properties":{"osm_way_id":"26362147","amenity":"parking","other":{"access":"yes","fee":"yes","parking":"surface","surface":"asphalt"}}, "geometry":{"type":"MultiPolygon","coordinates":[[[[-0.78088,50.83397],[-0.78066,50.83419],[-0.78085,50.83424],[-0.78074,50.83438],[-0.7804,50.83429],[-0.78032,50.83426],[-0.78036,50.83421],[-0.78034,50.8342],[-0.78041,50.83413],[-0.78044,50.8341],[-0.78049,50.83411],[-0.78058,50.83401],[-0.78053,50.83399],[-0.7805,50.83397],[-0.78051,50.83394],[-0.78053,50.8339],[-0.7806,50.83379],[-0.78075,50.83382],[-0.78085,50.83359],[-0.78095,50.83361],[-0.78088,50.83377],[-0.7808,50.83394],[-0.78089,50.83396],[-0.78088,50.83397]]]]}},
{ "type":"Feature","properties":{"osm_way_id":"26513678","name":"West Stoke","amenity":"parking","other":{"access":"yes","fee":"no","parking":"surface"}}, "geometry":{"type":"MultiPolygon","coordinates":[[[[-0.8294,50.8724],[-0.82917,50.87255],[-0.82942,50.87297],[-0.82969,50.87292],[-0.82972,50.87291],[-0.82945,50.8725],[-0.8294,50.8724]]]]}},
{ "type":"Feature","properties":{"osm_way_id":"26648342","amenity":"parking"},"geometry":{"type":"MultiPolygon","coordinates":[[[[-0.56659,50.90858],[-0.56659,50.90854],[-0.56659,50.90849],[-0.56607,50.90846],[-0.56606,50.90858],[-0.56626,50.90859],[-0.56633,50.90855],[-0.56659,50.90858]]]]}},
{ "type":"Feature","properties":{"osm_way_id":"27391927","amenity":"parking"},"geometry":{"type":"MultiPolygon","coordinates":[[[[-0.77164,50.84212],[-0.77212,50.84202],[-0.7724,50.84254],[-0.77234,50.84256],[-0.77185,50.84268],[-0.77164,50.84212]]]]}},
{ "type":"Feature","properties":{"osm_way_id":"27419851","name":"Main Car Park","amenity":"parking","other":{"parking":"surface"}}, "geometry":{"type":"MultiPolygon","coordinates":[[[[-0.77341,50.84559],[-0.77352,50.84629],[-0.77358,50.84669],[-0.77346,50.84672],[-0.7735,50.84709],[-0.77282,50.84719],[-0.77238,50.84631],[-0.7722,50.84596],[-0.77218,50.84592],[-0.77204,50.84562],[-0.77263,50.84556],[-0.77309,50.84562],[-0.77341,50.84559]]]]}},
{ "type":"Feature","properties":{"osm_way_id":"27419950","amenity":"parking","other":{"access":"customers","fee":"no","parking":"surface"}}, "geometry":{"type":"MultiPolygon","coordinates":[[[[-0.76968,50.84701],[-0.7696,50.84726],[-0.76965,50.8473],[-0.7698,50.84733],[-0.77047,50.84729],[-0.77063,50.84712],[-0.77,50.84695],[-0.76968,50.84701]]]]}},
{ "type":"Feature","properties":{"osm_way_id":"27420029","amenity":"parking"},"geometry":{"type":"MultiPolygon","coordinates":[[[[-0.77502,50.84518],[-0.77511,50.84544],[-0.77468,50.8455],[-0.77459,50.84525],[-0.77491,50.8452],[-0.77502,50.84518]]]]}},
{ "type":"Feature","properties":{"osm_way_id":"27507421","amenity":"parking"},"geometry":{"type":"MultiPolygon","coordinates":[[[[-0.56659,50.96401],[-0.56714,50.96426],[-0.56729,50.96412],[-0.56742,50.96402],[-0.56732,50.96398],[-0.56659,50.96366],[-0.56652,50.96372],[-0.56629,50.96391],[-0.56659,50.96401]]]]}},
{ "type":"Feature","properties":{"osm_way_id":"27662991","name":"Goodwood Country Park - Counter's Gate","amenity":"parking"},"geometry":{"type":"MultiPolygon","coordinates":[[[[-0.72374,50.89471],[-0.72407,50.89474],[-0.72418,50.89475],[-0.72434,50.89476],[-0.72435,50.89471],[-0.72431,50.89464],[-0.72406,50.89445],[-0.72382,50.89421],[-0.7237,50.89418],[-0.72351,50.89414],[-0.72312,50.8946],[-0.72345,50.89467],[-0.72374,50.89471]]]]}},
{ "type":"Feature","properties":{"osm_way_id":"27777226","name":"Peters Place Car park","amenity":"parking"},"geometry":{"type":"MultiPolygon","coordinates":[[[[-0.81331,50.73879],[-0.81328,50.73887],[-0.81324,50.73895],[-0.81323,50.73899],[-0.81317,50.73904],[-0.81297,50.73896],[-0.81279,50.73892],[-0.8125,50.73895],[-0.81258,50.73879],[-0.81267,50.73863],[-0.81283,50.73869],[-0.81304,50.73872],[-0.81331,50.73879]]]]}},
{ "type":"Feature","properties":{"osm_way_id":"27777241","amenity":"parking"},"geometry":{"type":"MultiPolygon","coordinates":[[[[-0.79273,50.73345],[-0.79249,50.73338],[-0.79204,50.73411],[-0.79133,50.73387],[-0.79092,50.73427],[-0.79152,50.73445],[-0.79158,50.73447],[-0.79154,50.73453],[-0.79137,50.73476],[-0.79135,50.73481],[-0.79165,50.73489],[-0.79186,50.73458],[-0.79169,50.73454],[-0.79197,50.73415],[-0.79203,50.73414],[-0.79226,50.73421],[-0.79236,50.73406],[-0.79271,50.73347],[-0.79273,50.73345]]]]}},
{ "type":"Feature","properties":{"osm_way_id":"28370906","amenity":"parking","other":{"access":"customers","fee":"no","parking":"surface"}}, "geometry":{"type":"MultiPolygon","coordinates":[[[[-0.78267,50.8681],[-0.7826,50.86808],[-0.78261,50.86799],[-0.78251,50.86797],[-0.78237,50.86793],[-0.78234,50.86829],[-0.78253,50.86843],[-0.78255,50.86835],[-0.78256,50.86831],[-0.78267,50.8681]]]]}},
{ "type":"Feature","properties":{"osm_way_id":"28754455","amenity":"parking"},"geometry":{"type":"MultiPolygon","coordinates":[[[[-0.7181,50.85136],[-0.71791,50.85136],[-0.71789,50.85156],[-0.71764,50.85156],[-0.71742,50.85168],[-0.71741,50.85192],[-0.71715,50.85193],[-0.71714,50.85159],[-0.71745,50.85159],[-0.71746,50.85124],[-0.7181,50.85125],[-0.7181,50.85136]]]]}},
{ "type":"Feature","properties":{"osm_way_id":"28755432","amenity":"parking"},"geometry":{"type":"MultiPolygon","coordinates":[[[[-0.7387,50.83076],[-0.73887,50.83099],[-0.73893,50.83107],[-0.7376,50.83147],[-0.73736,50.83116],[-0.7387,50.83076]]]]}},
{ "type":"Feature","properties":{"osm_way_id":"28882241","amenity":"parking","other":{"access":"destination","access_1":"foot","parking":"surface","supervised":"no","surface":"asphalt"}}, "geometry":{"type":"MultiPolygon","coordinates":[[[[-0.805,50.83392],[-0.80505,50.83442],[-0.8053,50.83441],[-0.80525,50.83392],[-0.805,50.83392]]]]}},
{ "type":"Feature","properties":{"osm_way_id":"28883059","amenity":"parking"},"geometry":{"type":"MultiPolygon","coordinates":[[[[-0.81941,50.80256],[-0.81904,50.80251],[-0.81774,50.80247],[-0.81731,50.80251],[-0.81652,50.80264],[-0.81639,50.80295],[-0.81623,50.80299],[-0.81599,50.80275],[-0.81601,50.80262],[-0.81676,50.80244],[-0.81747,50.80234],[-0.81816,50.80231],[-0.8189,50.80235],[-0.81944,50.8024],[-0.81941,50.80256]]]]}},
{ "type":"Feature","properties":{"osm_way_id":"28883063","amenity":"parking"},"geometry":{"type":"MultiPolygon","coordinates":[[[[-0.81582,50.80273],[-0.81592,50.80284],[-0.81589,50.80286],[-0.81568,50.80289],[-0.81569,50.80295],[-0.81521,50.80303],[-0.81514,50.80301],[-0.81502,50.80303],[-0.81486,50.80302],[-0.81478,50.80298],[-0.81469,50.80295],[-0.81567,50.80271],[-0.81582,50.80273]]]]}},
{ "type":"Feature","properties":{"osm_way_id":"28883072","amenity":"parking"},"geometry":{"type":"MultiPolygon","coordinates":[[[[-0.82059,50.80254],[-0.82221,50.80271],[-0.82349,50.8029],[-0.8233,50.80317],[-0.82303,50.80309],[-0.822,50.8029],[-0.82145,50.80289],[-0.82056,50.80275],[-0.82059,50.80254]]]]}},
{ "type":"Feature","properties":{"osm_way_id":"28883085","amenity":"parking"},"geometry":{"type":"MultiPolygon","coordinates":[[[[-0.82705,50.80387],[-0.82639,50.80371],[-0.82585,50.80354],[-0.82583,50.80371],[-0.82694,50.80404],[-0.82705,50.80387]]]]}},
{ "type":"Feature","properties":{"osm_way_id":"29018674","amenity":"parking"},"geometry":{"type":"MultiPolygon","coordinates":[[[[-0.83693,50.79065],[-0.83688,50.79059],[-0.83686,50.79056],[-0.8371,50.79045],[-0.83694,50.79029],[-0.83696,50.79028],[-0.83737,50.79011],[-0.83742,50.79016],[-0.83712,50.79054],[-0.83742,50.79062],[-0.83733,50.79072],[-0.83693,50.79065]]]]}},
{ "type":"Feature","properties":{"osm_way_id":"29023059","amenity":"parking"},"geometry":{"type":"MultiPolygon","coordinates":[[[[-0.83664,50.79252],[-0.83635,50.79244],[-0.83649,50.79226],[-0.83665,50.79231],[-0.83681,50.7921],[-0.83687,50.79202],[-0.83668,50.79196],[-0.83678,50.79182],[-0.83705,50.7919],[-0.83692,50.79207],[-0.83696,50.79209],[-0.83664,50.79252]]]]}},
{ "type":"Feature","properties":{"osm_way_id":"29023118","amenity":"parking"},"geometry":{"type":"MultiPolygon","coordinates":[[[[-0.83333,50.79594],[-0.833,50.79613],[-0.83277,50.79607],[-0.83281,50.79593],[-0.83292,50.79586],[-0.83304,50.79596],[-0.83327,50.79586],[-0.83333,50.79594]]]]}},
{ "type":"Feature","properties":{"osm_way_id":"29024705","amenity":"parking","other":{"capacity:disabled":"1","parking":"surface"}}, "geometry":{"type":"MultiPolygon","coordinates":[[[[-0.85513,50.76307],[-0.85512,50.76306],[-0.85503,50.76288],[-0.8545,50.76299],[-0.85458,50.76315],[-0.85464,50.76327],[-0.85465,50.76329],[-0.85502,50.76322],[-0.855,50.76319],[-0.85508,50.76317],[-0.85517,50.76316],[-0.85513,50.76307]]]]}},
{ "type":"Feature","properties":{"osm_way_id":"29042051","amenity":"parking","other":{"parking":"surface"}}, "geometry":{"type":"MultiPolygon","coordinates":[[[[-0.85796,50.76174],[-0.85783,50.76181],[-0.85763,50.76171],[-0.8574,50.76191],[-0.8573,50.76187],[-0.85761,50.76155],[-0.85796,50.76174]]]]}},
{ "type":"Feature","properties":{"osm_way_id":"29042118","amenity":"parking"},"geometry":{"type":"MultiPolygon","coordinates":[[[[-0.84637,50.75629],[-0.84623,50.75639],[-0.84621,50.75638],[-0.84573,50.75614],[-0.84592,50.75599],[-0.84604,50.75605],[-0.84598,50.75609],[-0.84637,50.75629]]]]}},
{ "type":"Feature","properties":{"osm_way_id":"29042285","amenity":"parking","other":{"fee":"yes","parking":"surface"}}, "geometry":{"type":"MultiPolygon","coordinates":[[[[-0.85995,50.76128],[-0.85989,50.76126],[-0.85926,50.76097],[-0.85927,50.76096],[-0.85953,50.76075],[-0.8602,50.76104],[-0.85995,50.76128]]]]}},
{ "type":"Feature","properties":{"osm_way_id":"29042383","amenity":"parking"},"geometry":{"type":"MultiPolygon","coordinates":[[[[-0.85857,50.76433],[-0.85841,50.76453],[-0.85873,50.76463],[-0.85865,50.76472],[-0.85818,50.76457],[-0.85835,50.76435],[-0.85851,50.76431],[-0.85857,50.76433]]]]}},
{ "type":"Feature","properties":{"osm_way_id":"29060221","amenity":"parking","other":{"parking":"surface"}}, "geometry":{"type":"MultiPolygon","coordinates":[[[[-0.81337,50.73688],[-0.81522,50.73815],[-0.81492,50.73828],[-0.8143,50.73793],[-0.81311,50.73699],[-0.81337,50.73688]]]]}},
{ "type":"Feature","properties":{"osm_way_id":"29226009","amenity":"parking","other":{"parking":"surface"}}, "geometry":{"type":"MultiPolygon","coordinates":[[[[-0.73261,50.8675],[-0.73262,50.86747],[-0.73266,50.86735],[-0.73267,50.86733],[-0.73271,50.8673],[-0.73272,50.86728],[-0.73272,50.86727],[-0.73271,50.86725],[-0.7327,50.86723],[-0.73274,50.86714],[-0.73287,50.86719],[-0.73301,50.8673],[-0.7331,50.8673],[-0.7331,50.86721],[-0.73331,50.86701],[-0.7333,50.86701],[-0.73309,50.86693],[-0.7332,50.8668],[-0.73325,50.86681],[-0.73327,50.86681],[-0.73328,50.8668],[-0.73327,50.86675],[-0.73328,50.86671],[-0.73331,50.86665],[-0.73336,50.86658],[-0.7334,50.86653],[-0.73344,50.86649],[-0.73352,50.86646],[-0.73355,50.86648],[-0.73358,50.86649],[-0.73361,50.86651],[-0.73364,50.86653],[-0.7337,50.86659],[-0.73378,50.86656],[-0.73382,50.8666],[-0.73384,50.86662],[-0.73388,50.86667],[-0.73378,50.86671],[-0.73374,50.86675],[-0.73374,50.86679],[-0.73375,50.86683],[-0.73379,50.86687],[-0.73383,50.8669],[-0.73378,50.86693],[-0.73379,50.86699],[-0.7337,50.86704],[-0.73366,50.86705],[-0.7336,50.86706],[-0.73358,50.86711],[-0.73361,50.86758],[-0.73354,50.86758],[-0.73354,50.86762],[-0.73331,50.86763],[-0.7333,50.86761],[-0.73317,50.86761],[-0.73314,50.8676],[-0.7331,50.86761],[-0.73304,50.86762],[-0.73299,50.86764],[-0.73294,50.86766],[-0.73266,50.8676],[-0.73255,50.86758],[-0.73256,50.86756],[-0.73258,50.86754],[-0.73259,50.86752],[-0.73261,50.8675]]]]}},
{ "type":"Feature","properties":{"osm_way_id":"29234241","name":"Sainsbury's","amenity":"parking","other":{"access":"customers","fee":"no","parking":"surface","supervised":"no"}}, "geometry":{"type":"MultiPolygon","coordinates":[[[[-0.75745,50.84382],[-0.75742,50.84382],[-0.75739,50.84382],[-0.75736,50.84381],[-0.75733,50.8438],[-0.75732,50.84378],[-0.7573,50.84377],[-0.75704,50.84382],[-0.75701,50.84382],[-0.75695,50.84382],[-0.75686,50.84383],[-0.75675,50.84383],[-0.75663,50.84384],[-0.7565,50.84385],[-0.75643,50.84385],[-0.7562,50.84386],[-0.75599,50.84388],[-0.75596,50.84388],[-0.75589,50.84388],[-0.75564,50.8439],[-0.75578,50.84503],[-0.75674,50.84497],[-0.75678,50.84536],[-0.75696,50.84535],[-0.75715,50.84516],[-0.75735,50.84495],[-0.75788,50.8441],[-0.75771,50.84412],[-0.75771,50.84409],[-0.7577,50.84405],[-0.7577,50.84402],[-0.75768,50.84398],[-0.75765,50.84394],[-0.7576,50.8439],[-0.75757,50.84387],[-0.7575,50.84382],[-0.75745,50.84382]]]]}},
{ "type":"Feature","properties":{"osm_way_id":"29234248","amenity":"parking","other":{"access":"customers","fee":"no","parking":"surface"}}, "geometry":{"type":"MultiPolygon","coordinates":[[[[-0.7569,50.84186],[-0.75662,50.84156],[-0.75655,50.84148],[-0.75649,50.8415],[-0.75642,50.84143],[-0.75648,50.84141],[-0.7564,50.84133],[-0.75633,50.84125],[-0.75627,50.84127],[-0.7562,50.8412],[-0.75626,50.84118],[-0.75619,50.8411],[-0.75606,50.84098],[-0.75587,50.84077],[-0.75568,50.84057],[-0.7555,50.84038],[-0.75551,50.84034],[-0.75593,50.84019],[-0.75598,50.8402],[-0.75608,50.8403],[-0.75684,50.84001],[-0.75667,50.8398],[-0.75591,50.84008],[-0.75581,50.83997],[-0.75576,50.83998],[-0.75571,50.83993],[-0.75575,50.83991],[-0.75565,50.8398],[-0.75641,50.83952],[-0.75619,50.83928],[-0.75548,50.83962],[-0.75545,50.8397],[-0.75538,50.83971],[-0.75532,50.84126],[-0.75558,50.84155],[-0.75571,50.84169],[-0.75625,50.84194],[-0.75658,50.84207],[-0.75661,50.84208],[-0.75673,50.84214],[-0.75735,50.84251],[-0.75754,50.84244],[-0.75738,50.84222],[-0.75733,50.84224],[-0.75728,50.84217],[-0.75732,50.84216],[-0.7573,50.84214],[-0.7571,50.84192],[-0.7569,50.84186]]]]}},
{ "type":"Feature","properties":{"osm_way_id":"29234249","amenity":"parking","other":{"access":"customers","parking":"surface"}}, "geometry":{"type":"MultiPolygon","coordinates":[[[[-0.75872,50.84281],[-0.7586,50.84276],[-0.7583,50.84294],[-0.75811,50.84281],[-0.75815,50.84278],[-0.75782,50.84256],[-0.7579,50.84251],[-0.75781,50.84243],[-0.75745,50.8425],[-0.75749,50.8426],[-0.75779,50.84277],[-0.758,50.8429],[-0.75815,50.84301],[-0.75831,50.84313],[-0.75835,50.84315],[-0.75839,50.84316],[-0.75843,50.84317],[-0.75848,50.84317],[-0.75855,50.84317],[-0.75862,50.84317],[-0.7587,50.84316],[-0.75878,50.84315],[-0.75886,50.84312],[-0.75902,50.84308],[-0.75872,50.84281]]]]}},
{ "type":"Feature","properties":{"osm_way_id":"29234252","amenity":"parking","other":{"access":"customers","fee":"no","parking":"surface"}}, "geometry":{"type":"MultiPolygon","coordinates":[[[[-0.75876,50.8457],[-0.75959,50.84523],[-0.75928,50.84499],[-0.75947,50.8449],[-0.75998,50.84548],[-0.7604,50.8458],[-0.75954,50.84627],[-0.75879,50.84572],[-0.75876,50.8457]]]]}},
{ "type":"Feature","properties":{"osm_way_id":"29234257","amenity":"parking","other":{"access":"customers","parking":"surface"}}, "geometry":{"type":"MultiPolygon","coordinates":[[[[-0.75653,50.84263],[-0.75587,50.84267],[-0.7558,50.84227],[-0.75556,50.84228],[-0.75563,50.84272],[-0.75545,50.84273],[-0.75545,50.84278],[-0.75548,50.84299],[-0.75571,50.84298],[-0.75607,50.84295],[-0.75606,50.84291],[-0.7563,50.84289],[-0.75656,50.84288],[-0.75653,50.84263]]]]}},
{ "type":"Feature","properties":{"osm_way_id":"29371870","amenity":"parking"},"geometry":{"type":"MultiPolygon","coordinates":[[[[-0.73861,50.98454],[-0.73869,50.98451],[-0.73878,50.98449],[-0.73919,50.98501],[-0.73915,50.98503],[-0.7391,50.98506],[-0.73889,50.98505],[-0.73861,50.98454]]]]}},
{ "type":"Feature","properties":{"osm_way_id":"30120241","name":"Harting Down","amenity":"parking","other":{"fee":"Â£2.00","operator":"National Trust","parking":"surface"}}, "geometry":{"type":"MultiPolygon","coordinates":[[[[-0.87659,50.95653],[-0.87599,50.95675],[-0.87561,50.95643],[-0.87555,50.95646],[-0.87545,50.95651],[-0.8756,50.95663],[-0.87595,50.95693],[-0.87637,50.95675],[-0.87671,50.95663],[-0.87659,50.95653]]]]}},
{ "type":"Feature","properties":{"osm_way_id":"30451993","amenity":"parking"},"geometry":{"type":"MultiPolygon","coordinates":[[[[-0.86921,50.80554],[-0.86832,50.80545],[-0.86821,50.80544],[-0.86833,50.80492],[-0.86939,50.80506],[-0.86925,50.80542],[-0.86921,50.80554]]]]}},
{ "type":"Feature","properties":{"osm_way_id":"30452394","amenity":"parking","other":{"access":"customers","charge":"Â£7","fee":"yes","operator":"West Wittering Estate Plc","operator:type":"private","park_ride":"no","parking":"surface","payment:cash":"yes","payment:credit_cards":"yes","payment:debit_cards":"yes","surface":"asphalt"}}, "geometry":{"type":"MultiPolygon","coordinates":[[[[-0.90505,50.77595],[-0.90537,50.77573],[-0.90586,50.77552],[-0.9059,50.77574],[-0.90642,50.77581],[-0.90648,50.77568],[-0.90624,50.77557],[-0.90625,50.77547],[-0.90641,50.77522],[-0.90688,50.77541],[-0.90658,50.77567],[-0.90688,50.7758],[-0.90721,50.77555],[-0.90767,50.77584],[-0.90819,50.77617],[-0.9083,50.7762],[-0.90957,50.7768],[-0.9096,50.77682],[-0.90926,50.77704],[-0.90998,50.77744],[-0.91009,50.77739],[-0.91089,50.77779],[-0.91206,50.77844],[-0.91311,50.77897],[-0.91325,50.77906],[-0.91355,50.77905],[-0.91459,50.77953],[-0.91502,50.77977],[-0.91529,50.78],[-0.91506,50.7802],[-0.91539,50.7804],[-0.91517,50.78047],[-0.91493,50.78052],[-0.91467,50.78053],[-0.91449,50.78048],[-0.91404,50.78023],[-0.91362,50.78052],[-0.90505,50.77595]]]]}},
{ "type":"Feature","properties":{"osm_way_id":"30452588","amenity":"parking","other":{"parking":"surface"}}, "geometry":{"type":"MultiPolygon","coordinates":[[[[-0.87579,50.76784],[-0.87587,50.76786],[-0.87593,50.76787],[-0.87603,50.76795],[-0.87636,50.76804],[-0.87632,50.76818],[-0.87595,50.76812],[-0.87579,50.76836],[-0.87573,50.76834],[-0.8757,50.76838],[-0.87542,50.76831],[-0.87545,50.76826],[-0.87539,50.76824],[-0.87553,50.76803],[-0.87559,50.76805],[-0.87563,50.768],[-0.87567,50.76801],[-0.87579,50.76784]]]]}},
{ "type":"Feature","properties":{"osm_way_id":"30452788","amenity":"parking","other":{"parking":"surface"}}, "geometry":{"type":"MultiPolygon","coordinates":[[[[-0.87417,50.76989],[-0.87439,50.76996],[-0.87422,50.7702],[-0.87409,50.7702],[-0.87399,50.77017],[-0.87417,50.76989]]]]}},
{ "type":"Feature","properties":{"osm_way_id":"30453104","amenity":"parking"},"geometry":{"type":"MultiPolygon","coordinates":[[[[-0.86838,50.77139],[-0.86849,50.77102],[-0.86905,50.77109],[-0.86893,50.77146],[-0.86838,50.77139]]]]}},
{ "type":"Feature","properties":{"osm_way_id":"30883145","amenity":"parking"},"geometry":{"type":"MultiPolygon","coordinates":[[[[-0.847,50.84258],[-0.84768,50.84264],[-0.84772,50.84269],[-0.84769,50.84276],[-0.84698,50.84269],[-0.847,50.84258]]]]}},
{ "type":"Feature","properties":{"osm_way_id":"30980833","amenity":"parking","other":{"access":"yes","fee":"no","parking":"surface","surface":"gravel","tidal":"yes"}}, "geometry":{"type":"MultiPolygon","coordinates":[[[[-0.85736,50.82857],[-0.85702,50.82862],[-0.85694,50.82842],[-0.85722,50.82835],[-0.85736,50.82857]]]]}},
{ "type":"Feature","properties":{"osm_way_id":"30980938","amenity":"parking"},"geometry":{"type":"MultiPolygon","coordinates":[[[[-0.85694,50.83032],[-0.85663,50.82981],[-0.85652,50.82962],[-0.85634,50.8296],[-0.85579,50.82972],[-0.85598,50.83002],[-0.8556,50.83013],[-0.85594,50.8306],[-0.85694,50.83032]]]]}},
{ "type":"Feature","properties":{"osm_way_id":"30982835","amenity":"parking","other":{"access":"customers","parking":"surface","surface":"concrete"}}, "geometry":{"type":"MultiPolygon","coordinates":[[[[-0.85216,50.83965],[-0.85175,50.83969],[-0.85137,50.83966],[-0.85137,50.83952],[-0.85148,50.83951],[-0.85147,50.83935],[-0.85147,50.83932],[-0.85146,50.8392],[-0.85181,50.83919],[-0.85214,50.83927],[-0.85216,50.83965]]]]}},
{ "type":"Feature","properties":{"osm_way_id":"31119952","amenity":"parking"},"geometry":{"type":"MultiPolygon","coordinates":[[[[-0.87413,50.84208],[-0.87399,50.84236],[-0.8742,50.8424],[-0.87422,50.84246],[-0.87448,50.8425],[-0.87439,50.84271],[-0.87417,50.84266],[-0.87423,50.84252],[-0.87364,50.84244],[-0.87367,50.84203],[-0.87374,50.84204],[-0.87413,50.84208]]]]}},
{ "type":"Feature","properties":{"osm_way_id":"31454736","amenity":"parking"},"geometry":{"type":"MultiPolygon","coordinates":[[[[-0.7589,50.81127],[-0.75905,50.8115],[-0.75842,50.81143],[-0.7589,50.81127]]]]}},
{ "type":"Feature","properties":{"osm_way_id":"31454791","amenity":"parking","other":{"fee":"no"}}, "geometry":{"type":"MultiPolygon","coordinates":[[[[-0.77329,50.81375],[-0.77336,50.8138],[-0.77341,50.81385],[-0.77301,50.81398],[-0.77292,50.81388],[-0.77329,50.81375]]]]}},
{ "type":"Feature","properties":{"osm_way_id":"32856518","name":"Seven Points Car Park","amenity":"parking"},"geometry":{"type":"MultiPolygon","coordinates":[[[[-0.76216,50.89163],[-0.76219,50.89165],[-0.76223,50.89168],[-0.76224,50.89169],[-0.76222,50.89171],[-0.76222,50.89173],[-0.76225,50.89177],[-0.76222,50.89179],[-0.7622,50.8918],[-0.76215,50.89182],[-0.76208,50.89187],[-0.76207,50.89192],[-0.762,50.89193],[-0.76199,50.89191],[-0.76196,50.89189],[-0.7619,50.89188],[-0.76184,50.89188],[-0.76171,50.89188],[-0.76158,50.89187],[-0.76151,50.89187],[-0.76147,50.89186],[-0.76142,50.89184],[-0.76138,50.89182],[-0.76137,50.89181],[-0.76138,50.89179],[-0.7614,50.89175],[-0.76158,50.89165],[-0.76158,50.89162],[-0.76158,50.89161],[-0.76159,50.8916],[-0.76162,50.89159],[-0.76167,50.89158],[-0.7617,50.89158],[-0.76203,50.89159],[-0.76209,50.8916],[-0.76216,50.89163]]]]}},
{ "type":"Feature","properties":{"osm_way_id":"32856684","amenity":"parking"},"geometry":{"type":"MultiPolygon","coordinates":[[[[-0.77357,50.86946],[-0.77377,50.86931],[-0.77404,50.86945],[-0.77372,50.8695],[-0.77357,50.86946]]]]}},
{ "type":"Feature","properties":{"osm_way_id":"35435567","amenity":"parking"},"geometry":{"type":"MultiPolygon","coordinates":[[[[-0.83997,50.75645],[-0.83968,50.75665],[-0.83911,50.7564],[-0.83937,50.75619],[-0.83997,50.75645]]]]}},
{ "type":"Feature","properties":{"osm_way_id":"35608468","amenity":"parking"},"geometry":{"type":"MultiPolygon","coordinates":[[[[-0.62363,50.98599],[-0.62368,50.98597],[-0.62369,50.98596],[-0.62349,50.98589],[-0.6233,50.98582],[-0.62329,50.98583],[-0.62328,50.98586],[-0.62363,50.98599]]]]}},
{ "type":"Feature","properties":{"osm_way_id":"36579120","amenity":"parking","other":{"access":"private"}}, "geometry":{"type":"MultiPolygon","coordinates":[[[[-0.78719,50.89347],[-0.78678,50.8934],[-0.78671,50.89346],[-0.78646,50.89342],[-0.78641,50.89341],[-0.78646,50.89329],[-0.78658,50.89303],[-0.78676,50.89307],[-0.78712,50.89312],[-0.78744,50.89319],[-0.78719,50.89347]]]]}},
{ "type":"Feature","properties":{"osm_way_id":"36852775","amenity":"parking","other":{"access":"customers","parking":"surface"}}, "geometry":{"type":"MultiPolygon","coordinates":[[[[-0.61931,50.9648],[-0.61927,50.96478],[-0.61919,50.96478],[-0.61898,50.9647],[-0.61895,50.96475],[-0.61934,50.96493],[-0.61937,50.96487],[-0.61931,50.9648]]]]}},
{ "type":"Feature","properties":{"osm_way_id":"38043138","amenity":"parking","other":{"access":"yes","fee":"no","parking":"surface"}}, "geometry":{"type":"MultiPolygon","coordinates":[[[[-3.39859,55.9896],[-3.3986,55.98953],[-3.3986,55.98952],[-3.39854,55.98951],[-3.39855,55.98939],[-3.39862,55.98939],[-3.39863,55.98928],[-3.39868,55.98928],[-3.3987,55.98911],[-3.39868,55.98903],[-3.39768,55.98899],[-3.39767,55.98913],[-3.39788,55.98957],[-3.39789,55.98958],[-3.39847,55.98961],[-3.39858,55.98962],[-3.39859,55.9896]]]]}},
{ "type":"Feature","properties":{"osm_way_id":"40005693","amenity":"parking"},"geometry":{"type":"MultiPolygon","coordinates":[[[[-0.75812,50.84575],[-0.75858,50.84612],[-0.75841,50.84629],[-0.75833,50.84634],[-0.75778,50.8459],[-0.75812,50.84575]]]]}},
{ "type":"Feature","properties":{"osm_way_id":"52697974","amenity":"parking"},"geometry":{"type":"MultiPolygon","coordinates":[[[[-0.9137,50.85036],[-0.91381,50.85021],[-0.91435,50.85035],[-0.91433,50.85037],[-0.91455,50.85043],[-0.91457,50.8504],[-0.91481,50.85046],[-0.91482,50.85044],[-0.91519,50.85052],[-0.91506,50.85072],[-0.9137,50.85036]]]]}},
{ "type":"Feature","properties":{"osm_way_id":"52697983","amenity":"parking"},"geometry":{"type":"MultiPolygon","coordinates":[[[[-0.91328,50.85064],[-0.91312,50.85055],[-0.91296,50.85078],[-0.91308,50.85084],[-0.91318,50.85076],[-0.91314,50.85074],[-0.91328,50.85064]]]]}},
{ "type":"Feature","properties":{"osm_way_id":"55610173","amenity":"parking","other":{"description":"Locked at 17:30","hgv":"no","level":"1","maxheight":"1.9"}}, "geometry":{"type":"MultiPolygon","coordinates":[[[[-0.92943,50.88751],[-0.92954,50.88743],[-0.92987,50.88746],[-0.92997,50.88756],[-0.92986,50.88781],[-0.92977,50.8879],[-0.92937,50.88786],[-0.92943,50.88751]]]]}},
{ "type":"Feature","properties":{"osm_way_id":"55610188","name":"Locked at 17:30","amenity":"parking","other":{"level":"1"}}, "geometry":{"type":"MultiPolygon","coordinates":[[[[-0.92787,50.89432],[-0.92786,50.89438],[-0.92769,50.89436],[-0.92783,50.89379],[-0.928,50.89381],[-0.92787,50.89432]]]]}},
{ "type":"Feature","properties":{"osm_way_id":"93064050","name":"Petworth House Car Park","amenity":"parking","other":{"wheelchair":"yes"}}, "geometry":{"type":"MultiPolygon","coordinates":[[[[-0.61114,50.9942],[-0.6104,50.99362],[-0.61045,50.99354],[-0.61063,50.99343],[-0.61085,50.99335],[-0.61098,50.99334],[-0.61201,50.99412],[-0.61189,50.99417],[-0.61114,50.9942]]]]}},
{ "type":"Feature","properties":{"osm_way_id":"98009740","amenity":"parking","other":{"access":"private"}}, "geometry":{"type":"MultiPolygon","coordinates":[[[[-0.93019,50.82087],[-0.92935,50.82089],[-0.92934,50.82067],[-0.92932,50.82043],[-0.92931,50.82023],[-0.93014,50.8202],[-0.93019,50.82087]]]]}},
{ "type":"Feature","properties":{"osm_way_id":"102225807","name":"garden centre and cafe'","amenity":"parking","other":{"capacity":"30"}}, "geometry":{"type":"MultiPolygon","coordinates":[[[[-0.84533,50.78804],[-0.84497,50.7881],[-0.8448,50.78749],[-0.84518,50.78744],[-0.84533,50.78804]]]]}},
{ "type":"Feature","properties":{"osm_way_id":"102313339","amenity":"parking","other":{"motorcar":"yes","psv":"no"}}, "geometry":{"type":"MultiPolygon","coordinates":[[[[-0.81006,50.83742],[-0.81014,50.83742],[-0.81036,50.83742],[-0.81047,50.83742],[-0.81048,50.83702],[-0.81049,50.8368],[-0.81008,50.8368],[-0.81006,50.83742]]]]}},
{ "type":"Feature","properties":{"osm_way_id":"102313367","amenity":"parking","other":{"access":"customers","motorcar":"no","parking":"surface","psv":"yes"}}, "geometry":{"type":"MultiPolygon","coordinates":[[[[-0.8109,50.83748],[-0.8108,50.83747],[-0.81058,50.83744],[-0.81047,50.83742],[-0.81048,50.83702],[-0.81089,50.83701],[-0.8109,50.83748]]]]}},
{ "type":"Feature","properties":{"osm_way_id":"112172421","amenity":"parking","other":{"access":"private"}}, "geometry":{"type":"MultiPolygon","coordinates":[[[[-0.77951,50.83283],[-0.7794,50.83282],[-0.77937,50.8328],[-0.77937,50.83277],[-0.77938,50.83274],[-0.7794,50.83269],[-0.77955,50.83245],[-0.77958,50.83243],[-0.77962,50.83241],[-0.77966,50.8324],[-0.77971,50.8324],[-0.7798,50.83241],[-0.77978,50.83246],[-0.77967,50.83275],[-0.7796,50.83274],[-0.77959,50.83275],[-0.77955,50.83284],[-0.77951,50.83283]]]]}},
{ "type":"Feature","properties":{"osm_way_id":"115908613","name":"Cathedral Way","amenity":"parking","other":{"access":"yes","capacity":"12","fee":"yes","hgv":"yes","motorcar":"no","motorcycle":"no","parking":"surface","psv":"yes","surface":"asphalt"}}, "geometry":{"type":"MultiPolygon","coordinates":[[[[-0.78627,50.83253],[-0.78592,50.83264],[-0.78555,50.83261],[-0.78564,50.83227],[-0.78609,50.83233],[-0.78615,50.83236],[-0.78627,50.83253]]]]}},
{ "type":"Feature","properties":{"osm_way_id":"119023298","amenity":"parking"},"geometry":{"type":"MultiPolygon","coordinates":[[[[-0.92903,50.84589],[-0.92881,50.84591],[-0.92882,50.84608],[-0.92906,50.84607],[-0.92903,50.84589]]]]}},
{ "type":"Feature","properties":{"osm_way_id":"123113565","amenity":"parking"},"geometry":{"type":"MultiPolygon","coordinates":[[[[-0.75463,50.85811],[-0.75432,50.85813],[-0.75438,50.85833],[-0.75451,50.8589],[-0.75452,50.85894],[-0.75462,50.85929],[-0.75463,50.85934],[-0.75466,50.85944],[-0.75468,50.85943],[-0.7547,50.85942],[-0.75474,50.85941],[-0.75479,50.85941],[-0.75482,50.85942],[-0.75483,50.8594],[-0.75482,50.85918],[-0.75475,50.85889],[-0.75474,50.85887],[-0.75474,50.85884],[-0.75466,50.85856],[-0.75475,50.85855],[-0.75463,50.85811]]]]}},
{ "type":"Feature","properties":{"osm_way_id":"123114133","amenity":"parking","other":{"parking":"surface","surface":"asphalt"}}, "geometry":{"type":"MultiPolygon","coordinates":[[[[-0.75058,50.86167],[-0.75074,50.86101],[-0.75083,50.86067],[-0.75101,50.8603],[-0.75149,50.86028],[-0.75152,50.86052],[-0.75154,50.86058],[-0.75158,50.86061],[-0.75165,50.86065],[-0.75166,50.86066],[-0.75168,50.86068],[-0.75168,50.8607],[-0.75168,50.86071],[-0.75161,50.86099],[-0.75163,50.86108],[-0.75153,50.86108],[-0.75143,50.8615],[-0.75092,50.86147],[-0.75092,50.86148],[-0.75088,50.86169],[-0.75058,50.86167]]]]}},
{ "type":"Feature","properties":{"osm_way_id":"133131567","amenity":"parking","other":{"fee":"no","parking":"surface"}}, "geometry":{"type":"MultiPolygon","coordinates":[[[[-0.84251,50.90722],[-0.84245,50.90723],[-0.8422,50.90735],[-0.84206,50.90743],[-0.84171,50.90716],[-0.84193,50.90705],[-0.84206,50.90716],[-0.84219,50.90726],[-0.84224,50.90727],[-0.8423,50.90725],[-0.84239,50.9072],[-0.84248,50.90714],[-0.84251,50.90722]]]]}},
{ "type":"Feature","properties":{"osm_way_id":"133169165","amenity":"parking"},"geometry":{"type":"MultiPolygon","coordinates":[[[[-0.86104,50.89694],[-0.86104,50.89688],[-0.86074,50.897],[-0.86111,50.89697],[-0.86104,50.89694]]]]}},
{ "type":"Feature","properties":{"osm_way_id":"133606587","amenity":"parking","other":{"access":"customers","fee":"yes","parking":"surface"}}, "geometry":{"type":"MultiPolygon","coordinates":[[[[-0.79312,50.83514],[-0.79331,50.83514],[-0.79333,50.83501],[-0.79333,50.83496],[-0.79327,50.83477],[-0.79328,50.83471],[-0.79322,50.83463],[-0.79312,50.83455],[-0.793,50.83447],[-0.79291,50.83442],[-0.79203,50.83409],[-0.7919,50.83408],[-0.79179,50.83411],[-0.79173,50.83416],[-0.79169,50.83422],[-0.79143,50.83483],[-0.79233,50.83511],[-0.79237,50.83513],[-0.79236,50.83519],[-0.79231,50.83519],[-0.79223,50.83519],[-0.79211,50.83521],[-0.79209,50.83523],[-0.79149,50.8352],[-0.79108,50.83519],[-0.79108,50.8353],[-0.79122,50.83539],[-0.79126,50.83561],[-0.79333,50.83538],[-0.7933,50.83526],[-0.79296,50.83528],[-0.79276,50.83528],[-0.79256,50.83523],[-0.79256,50.83516],[-0.79312,50.83514]]]]}},
{ "type":"Feature","properties":{"osm_way_id":"146337429","amenity":"parking","other":{"access":"destination","parking":"surface"}}, "geometry":{"type":"MultiPolygon","coordinates":[[[[-0.79851,50.83512],[-0.79851,50.83494],[-0.79861,50.83449],[-0.79869,50.8344],[-0.79888,50.83418],[-0.79902,50.83398],[-0.79919,50.83371],[-0.79926,50.83366],[-0.79936,50.83365],[-0.79981,50.83366],[-0.80001,50.83372],[-0.80011,50.83379],[-0.80008,50.83448],[-0.79997,50.83455],[-0.79994,50.83482],[-0.79998,50.83488],[-0.8,50.83515],[-0.79851,50.83512]]]]}},
{ "type":"Feature","properties":{"osm_way_id":"158702823","amenity":"parking"},"geometry":{"type":"MultiPolygon","coordinates":[[[[-0.6763,50.95297],[-0.67594,50.95292],[-0.67598,50.95275],[-0.67639,50.95279],[-0.6763,50.95297]]]]}},
{ "type":"Feature","properties":{"osm_way_id":"158702827","amenity":"parking"},"geometry":{"type":"MultiPolygon","coordinates":[[[[-0.67543,50.95066],[-0.67543,50.95049],[-0.67601,50.95062],[-0.67543,50.95066]]]]}},
{ "type":"Feature","properties":{"osm_way_id":"159029437","name":"Duncton Hill","amenity":"parking"},"geometry":{"type":"MultiPolygon","coordinates":[[[[-0.64244,50.93627],[-0.64238,50.9363],[-0.64232,50.93632],[-0.64228,50.93635],[-0.64228,50.9364],[-0.6423,50.93644],[-0.64241,50.93644],[-0.64252,50.9364],[-0.64261,50.93637],[-0.64266,50.93633],[-0.64266,50.93629],[-0.64261,50.93628],[-0.64254,50.93626],[-0.64244,50.93627]]]]}},
{ "type":"Feature","properties":{"osm_way_id":"159748816","amenity":"parking","other":{"access":"yes","fee":"no","maxheight":"2","parking":"surface"}}, "geometry":{"type":"MultiPolygon","coordinates":[[[[-0.66645,50.88789],[-0.66613,50.88778],[-0.66602,50.88797],[-0.66637,50.8881],[-0.66638,50.88824],[-0.66619,50.88869],[-0.66675,50.88895],[-0.66699,50.88881],[-0.66698,50.88864],[-0.66706,50.88849],[-0.66696,50.88833],[-0.66666,50.8882],[-0.66657,50.88801],[-0.66663,50.88794],[-0.66645,50.88789]]]]}},
{ "type":"Feature","properties":{"osm_way_id":"159918883","amenity":"parking"},"geometry":{"type":"MultiPolygon","coordinates":[[[[-2.00613,52.49113],[-2.00621,52.49096],[-2.00641,52.49097],[-2.00638,52.49101],[-2.00631,52.49115],[-2.00613,52.49113]]]]}},
{ "type":"Feature","properties":{"osm_way_id":"160334662","name":"Burton Mill Pond Car Park","amenity":"parking","other":{"operator":"West Sussex County Council","parking":"surface"}}, "geometry":{"type":"MultiPolygon","coordinates":[[[[-0.60791,50.95344],[-0.60787,50.95351],[-0.60787,50.95353],[-0.60818,50.95358],[-0.60819,50.95355],[-0.60821,50.95349],[-0.60791,50.95344]]]]}},
{ "type":"Feature","properties":{"osm_way_id":"166706597","amenity":"parking","other":{"parking":"surface"}}, "geometry":{"type":"MultiPolygon","coordinates":[[[[-0.74259,50.98476],[-0.74275,50.98475],[-0.74276,50.9852],[-0.74172,50.9852],[-0.74172,50.98513],[-0.74178,50.98512],[-0.74177,50.98509],[-0.74178,50.98478],[-0.74179,50.98466],[-0.74197,50.98452],[-0.74198,50.98452],[-0.74212,50.98453],[-0.74211,50.98461],[-0.74222,50.98461],[-0.74221,50.98495],[-0.74216,50.98495],[-0.74216,50.98507],[-0.74231,50.98508],[-0.74232,50.98505],[-0.74259,50.98505],[-0.74259,50.98476]]]]}},
{ "type":"Feature","properties":{"osm_way_id":"166940191","amenity":"parking","other":{"surface":"asphalt"}}, "geometry":{"type":"MultiPolygon","coordinates":[[[[-0.73585,50.8733],[-0.73731,50.87335],[-0.73737,50.87335],[-0.7374,50.87279],[-0.73742,50.87259],[-0.73721,50.87259],[-0.73716,50.87258],[-0.73713,50.87258],[-0.73702,50.87258],[-0.73663,50.87258],[-0.73656,50.87258],[-0.73636,50.87281],[-0.73626,50.87287],[-0.73621,50.87294],[-0.73619,50.87296],[-0.73598,50.87316],[-0.73591,50.87322],[-0.73584,50.87327],[-0.73585,50.8733]]]]}},
{ "type":"Feature","properties":{"osm_way_id":"166961071","amenity":"parking","other":{"parking":"surface"}}, "geometry":{"type":"MultiPolygon","coordinates":[[[[-0.73376,50.86654],[-0.73382,50.86652],[-0.7339,50.86651],[-0.73399,50.86651],[-0.73469,50.8666],[-0.73475,50.86656],[-0.73479,50.86647],[-0.73406,50.86637],[-0.73399,50.86637],[-0.73393,50.86637],[-0.73385,50.86637],[-0.73378,50.86638],[-0.73371,50.86639],[-0.73365,50.86641],[-0.7337,50.86648],[-0.73376,50.86654]]]]}},
{ "type":"Feature","properties":{"osm_way_id":"167296889","amenity":"parking","other":{"parking":"surface"}}, "geometry":{"type":"MultiPolygon","coordinates":[[[[-0.74823,50.99042],[-0.74798,50.99043],[-0.7479,50.99038],[-0.74783,50.99033],[-0.7479,50.99029],[-0.74832,50.99028],[-0.74833,50.99037],[-0.74823,50.99042]]]]}},
{ "type":"Feature","properties":{"osm_way_id":"167297160","name":"Cowdray farm Shop Car Park","amenity":"parking","other":{"parking":"surface"}}, "geometry":{"type":"MultiPolygon","coordinates":[[[[-0.72609,50.99455],[-0.72619,50.99447],[-0.72628,50.99444],[-0.72636,50.99442],[-0.72683,50.99461],[-0.72671,50.99463],[-0.72663,50.99472],[-0.72662,50.99473],[-0.72656,50.99472],[-0.72644,50.99467],[-0.72649,50.99462],[-0.72642,50.99459],[-0.72637,50.99465],[-0.72609,50.99455]]]]}},
{ "type":"Feature","properties":{"osm_way_id":"169239806","amenity":"parking","other":{"parking":"surface"}}, "geometry":{"type":"MultiPolygon","coordinates":[[[[-0.74078,50.97405],[-0.74068,50.97424],[-0.74019,50.97414],[-0.74029,50.97395],[-0.74078,50.97405]]]]}},
{ "type":"Feature","properties":{"osm_way_id":"171558536","amenity":"parking","other":{"parking":"surface","surface":"asphalt"}}, "geometry":{"type":"MultiPolygon","coordinates":[[[[-0.75162,50.85934],[-0.75157,50.85934],[-0.75153,50.85935],[-0.75149,50.85936],[-0.75146,50.85938],[-0.75143,50.85939],[-0.7514,50.85941],[-0.75134,50.85945],[-0.7513,50.85948],[-0.75125,50.8595],[-0.75119,50.85975],[-0.75119,50.8598],[-0.75137,50.85981],[-0.7514,50.85977],[-0.75143,50.85971],[-0.75159,50.85939],[-0.75162,50.85934]]]]}},
{ "type":"Feature","properties":{"osm_way_id":"178333672","amenity":"parking","other":{"operator":"National Trust"}}, "geometry":{"type":"MultiPolygon","coordinates":[[[[-0.75607,50.98906],[-0.75577,50.98905],[-0.75577,50.98918],[-0.75615,50.98918],[-0.75615,50.98917],[-0.75612,50.98914],[-0.75607,50.98906]]]]}},
{ "type":"Feature","properties":{"osm_way_id":"191646807","amenity":"parking","other":{"access":"destination","operator":"Our Lady of the Assumption Church","parking":"surface"}}, "geometry":{"type":"MultiPolygon","coordinates":[[[[-0.85192,50.83295],[-0.85209,50.83293],[-0.85183,50.83225],[-0.85167,50.83228],[-0.85172,50.83241],[-0.85181,50.83267],[-0.85192,50.83295]]]]}},
{ "type":"Feature","properties":{"osm_way_id":"191801230","amenity":"parking"},"geometry":{"type":"MultiPolygon","coordinates":[[[[-0.8431,50.84101],[-0.84317,50.84085],[-0.8433,50.84087],[-0.84323,50.84103],[-0.8431,50.84101]]]]}},
{ "type":"Feature","properties":{"osm_way_id":"206004104","amenity":"parking","other":{"access":"customers","fee":"no","operator":"The Barley Mow","operator:type":"private","parking":"surface"}}, "geometry":{"type":"MultiPolygon","coordinates":[[[[-0.87872,50.8902],[-0.87859,50.89025],[-0.87824,50.88993],[-0.87846,50.88984],[-0.87872,50.8902]]]]}},
{ "type":"Feature","properties":{"osm_way_id":"207077761","amenity":"parking"},"geometry":{"type":"MultiPolygon","coordinates":[[[[-0.85022,50.84135],[-0.84951,50.841],[-0.8496,50.84089],[-0.84965,50.84082],[-0.84989,50.84087],[-0.84989,50.84099],[-0.85038,50.84115],[-0.85022,50.84135]]]]}},
{ "type":"Feature","properties":{"osm_way_id":"207077766","amenity":"parking"},"geometry":{"type":"MultiPolygon","coordinates":[[[[-0.84893,50.84061],[-0.84903,50.84075],[-0.84915,50.84076],[-0.84916,50.84078],[-0.84917,50.84081],[-0.84902,50.84082],[-0.84892,50.84079],[-0.84869,50.84068],[-0.8488,50.84063],[-0.84893,50.84061]]]]}},
{ "type":"Feature","properties":{"osm_way_id":"207077772","amenity":"parking"},"geometry":{"type":"MultiPolygon","coordinates":[[[[-0.8487,50.84144],[-0.84882,50.84154],[-0.84871,50.84162],[-0.84874,50.84165],[-0.84854,50.84177],[-0.8484,50.8417],[-0.8486,50.8415],[-0.8487,50.84144]]]]}},
{ "type":"Feature","properties":{"osm_way_id":"207662432","amenity":"parking","other":{"access":"destination","operator":"West Dean College"}}, "geometry":{"type":"MultiPolygon","coordinates":[[[[-0.77367,50.90619],[-0.77334,50.90642],[-0.77275,50.90626],[-0.7728,50.90586],[-0.77339,50.90579],[-0.77365,50.90603],[-0.77373,50.9061],[-0.77367,50.90619]]]]}},
{ "type":"Feature","properties":{"osm_way_id":"210041772","amenity":"parking"},"geometry":{"type":"MultiPolygon","coordinates":[[[[-0.77206,50.90783],[-0.77191,50.90785],[-0.77166,50.9079],[-0.77149,50.90792],[-0.77088,50.90805],[-0.7707,50.90789],[-0.7712,50.90768],[-0.77111,50.90758],[-0.77146,50.9074],[-0.77151,50.90737],[-0.77172,50.90752],[-0.77187,50.90762],[-0.77206,50.90783]]]]}},
{ "type":"Feature","properties":{"osm_way_id":"210041783","amenity":"parking"},"geometry":{"type":"MultiPolygon","coordinates":[[[[-0.78114,50.90445],[-0.78107,50.9045],[-0.78078,50.90437],[-0.78086,50.90428],[-0.78102,50.90433],[-0.78114,50.90445]]]]}},
{ "type":"Feature","properties":{"osm_way_id":"211689748","name":"Grange Road Car Park","amenity":"parking","other":{"parking":"surface"}}, "geometry":{"type":"MultiPolygon","coordinates":[[[[-0.74122,50.98392],[-0.73999,50.98424],[-0.73952,50.98359],[-0.73993,50.98343],[-0.73989,50.98334],[-0.74051,50.98317],[-0.7408,50.98348],[-0.74102,50.9836],[-0.74122,50.98392]]]]}},
{ "type":"Feature","properties":{"osm_way_id":"211692135","amenity":"parking","other":{"parking":"surface"}}, "geometry":{"type":"MultiPolygon","coordinates":[[[[-0.66017,50.93895],[-0.66025,50.93883],[-0.66016,50.9388],[-0.66017,50.93877],[-0.6595,50.93861],[-0.6594,50.93879],[-0.66017,50.93895]]]]}},
{ "type":"Feature","properties":{"osm_way_id":"211692142","amenity":"parking","other":{"parking":"surface"}}, "geometry":{"type":"MultiPolygon","coordinates":[[[[-0.65807,50.93973],[-0.65791,50.93972],[-0.65792,50.93969],[-0.65801,50.93954],[-0.65809,50.9394],[-0.65826,50.93944],[-0.65807,50.93973]]]]}},
{ "type":"Feature","properties":{"osm_way_id":"211692149","amenity":"parking"},"geometry":{"type":"MultiPolygon","coordinates":[[[[-0.65797,50.94007],[-0.65801,50.93995],[-0.65804,50.93983],[-0.65767,50.93976],[-0.65715,50.93972],[-0.6571,50.93997],[-0.65797,50.94007]]]]}},
{ "type":"Feature","properties":{"osm_way_id":"211692150","amenity":"parking"},"geometry":{"type":"MultiPolygon","coordinates":[[[[-0.65148,50.93999],[-0.65095,50.93992],[-0.65097,50.93987],[-0.65071,50.93984],[-0.65075,50.93968],[-0.65077,50.93964],[-0.65157,50.93974],[-0.65148,50.93999]]]]}},
{ "type":"Feature","properties":{"osm_way_id":"212755368","amenity":"parking","other":{"parking":"surface"}}, "geometry":{"type":"MultiPolygon","coordinates":[[[[-0.72151,50.99838],[-0.72188,50.9982],[-0.72166,50.99801],[-0.72152,50.99789],[-0.72114,50.99807],[-0.72151,50.99838]]]]}},
{ "type":"Feature","properties":{"osm_way_id":"216202106","amenity":"parking","other":{"access":"private","parking":"surface"}}, "geometry":{"type":"MultiPolygon","coordinates":[[[[-0.74455,50.85028],[-0.7446,50.8503],[-0.74463,50.85031],[-0.74468,50.85035],[-0.7447,50.85038],[-0.74475,50.85045],[-0.7448,50.85054],[-0.74483,50.85062],[-0.74486,50.8507],[-0.74488,50.85078],[-0.74489,50.85086],[-0.74489,50.85092],[-0.74487,50.85099],[-0.74484,50.85106],[-0.74478,50.85122],[-0.7447,50.85121],[-0.74467,50.85132],[-0.74471,50.85133],[-0.74473,50.8513],[-0.74482,50.85133],[-0.74485,50.85134],[-0.7449,50.85136],[-0.74492,50.85139],[-0.74493,50.85141],[-0.74495,50.85146],[-0.74494,50.85151],[-0.74492,50.85154],[-0.74489,50.85157],[-0.74485,50.85159],[-0.74424,50.85178],[-0.74416,50.85177],[-0.74408,50.85177],[-0.74401,50.85177],[-0.74393,50.85177],[-0.74385,50.85178],[-0.74375,50.85179],[-0.74365,50.85181],[-0.74354,50.85184],[-0.74343,50.85187],[-0.74338,50.85189],[-0.74333,50.85191],[-0.74326,50.85194],[-0.7432,50.85197],[-0.74311,50.85203],[-0.74301,50.85208],[-0.74293,50.85214],[-0.74288,50.85216],[-0.74282,50.85219],[-0.74276,50.8522],[-0.7427,50.8522],[-0.74265,50.8522],[-0.7426,50.85219],[-0.74253,50.85217],[-0.74248,50.85214],[-0.74246,50.85212],[-0.74245,50.85209],[-0.74244,50.85205],[-0.74244,50.85202],[-0.74244,50.85197],[-0.74246,50.85194],[-0.7425,50.8519],[-0.74257,50.85184],[-0.74279,50.85172],[-0.74299,50.85162],[-0.74318,50.85155],[-0.74338,50.85149],[-0.74358,50.85145],[-0.74373,50.85143],[-0.74372,50.85139],[-0.74363,50.85137],[-0.74356,50.85133],[-0.74353,50.85131],[-0.74375,50.85123],[-0.74384,50.85119],[-0.74391,50.85117],[-0.74406,50.85097],[-0.74408,50.85083],[-0.74405,50.85069],[-0.744,50.85063],[-0.74396,50.85057],[-0.74395,50.85053],[-0.74395,50.8505],[-0.74396,50.85045],[-0.74399,50.85042],[-0.74403,50.85039],[-0.74407,50.85037],[-0.74413,50.85034],[-0.74421,50.85032],[-0.74432,50.85029],[-0.74434,50.85029],[-0.74442,50.85027],[-0.74446,50.85027],[-0.74451,50.85027],[-0.74455,50.85028]]]]}},
{ "type":"Feature","properties":{"osm_way_id":"217341883","amenity":"parking"},"geometry":{"type":"MultiPolygon","coordinates":[[[[-0.7883,50.73221],[-0.78838,50.73204],[-0.78846,50.73206],[-0.7887,50.73211],[-0.78861,50.73227],[-0.78844,50.73224],[-0.7883,50.73221]]]]}},
{ "type":"Feature","properties":{"osm_way_id":"218728734","amenity":"parking"},"geometry":{"type":"MultiPolygon","coordinates":[[[[-0.77528,50.90584],[-0.77558,50.90578],[-0.77577,50.90574],[-0.7758,50.90581],[-0.77589,50.90599],[-0.77567,50.90603],[-0.77557,50.90605],[-0.77539,50.90608],[-0.77528,50.90584]]]]}},
{ "type":"Feature","properties":{"osm_way_id":"220534494","amenity":"parking","other":{"parking":"surface"}}, "geometry":{"type":"MultiPolygon","coordinates":[[[[-0.51517,51.07227],[-0.51519,51.07214],[-0.5147,51.07211],[-0.51466,51.07239],[-0.51474,51.0724],[-0.51482,51.07234],[-0.51482,51.07232],[-0.51489,51.07232],[-0.5149,51.07226],[-0.51517,51.07227]]]]}},
{ "type":"Feature","properties":{"osm_way_id":"222184843","amenity":"parking"},"geometry":{"type":"MultiPolygon","coordinates":[[[[-0.73609,50.99372],[-0.73538,50.99351],[-0.73541,50.99345],[-0.73544,50.99345],[-0.73519,50.99337],[-0.73501,50.99331],[-0.73505,50.99321],[-0.73511,50.99321],[-0.73517,50.99321],[-0.73524,50.99321],[-0.73532,50.99321],[-0.73537,50.99322],[-0.73542,50.99324],[-0.73545,50.99328],[-0.73548,50.99333],[-0.73549,50.99336],[-0.73548,50.99342],[-0.73563,50.99347],[-0.73567,50.99343],[-0.73586,50.99349],[-0.73589,50.99347],[-0.73587,50.99345],[-0.73601,50.99337],[-0.73572,50.99318],[-0.73581,50.99313],[-0.73623,50.99335],[-0.73612,50.99357],[-0.73618,50.99358],[-0.73609,50.99372]]]]}},
{ "type":"Feature","properties":{"osm_way_id":"224007424","amenity":"parking","other":{"parking":"surface"}}, "geometry":{"type":"MultiPolygon","coordinates":[[[[-0.74156,50.98325],[-0.7416,50.98322],[-0.74173,50.98318],[-0.74159,50.98309],[-0.74139,50.98319],[-0.74135,50.98322],[-0.74138,50.98325],[-0.74148,50.98326],[-0.74156,50.98325]]]]}},
{ "type":"Feature","properties":{"osm_way_id":"224832919","amenity":"parking","other":{"parking":"surface"}}, "geometry":{"type":"MultiPolygon","coordinates":[[[[-0.74032,50.98261],[-0.74067,50.98235],[-0.74065,50.98233],[-0.74057,50.98227],[-0.74057,50.98225],[-0.74043,50.98219],[-0.74021,50.98238],[-0.74033,50.98244],[-0.74018,50.98257],[-0.74032,50.98261]]]]}},
{ "type":"Feature","properties":{"osm_way_id":"225775614","amenity":"parking","other":{"parking":"surface"}}, "geometry":{"type":"MultiPolygon","coordinates":[[[[-0.74156,50.97772],[-0.74157,50.97765],[-0.74148,50.97765],[-0.74148,50.97758],[-0.74109,50.97757],[-0.7411,50.97784],[-0.74113,50.97784],[-0.74124,50.97784],[-0.74133,50.97784],[-0.7414,50.97783],[-0.74145,50.97772],[-0.74149,50.97771],[-0.74153,50.97771],[-0.74156,50.97772]]]]}},
{ "type":"Feature","properties":{"osm_way_id":"225776295","amenity":"parking","other":{"parking":"surface"}}, "geometry":{"type":"MultiPolygon","coordinates":[[[[-0.7448,50.96985],[-0.74494,50.96967],[-0.74455,50.96955],[-0.74447,50.96962],[-0.74439,50.96971],[-0.7448,50.96985]]]]}},
{ "type":"Feature","properties":{"osm_way_id":"228993976","amenity":"parking","other":{"parking":"surface"}}, "geometry":{"type":"MultiPolygon","coordinates":[[[[-0.72537,50.99458],[-0.72548,50.99451],[-0.72574,50.9943],[-0.72516,50.9939],[-0.72476,50.99421],[-0.72531,50.99454],[-0.72533,50.99456],[-0.72537,50.99458]]]]}},
{ "type":"Feature","properties":{"osm_way_id":"230825624","amenity":"parking","other":{"parking":"surface"}}, "geometry":{"type":"MultiPolygon","coordinates":[[[[-0.72421,51.04835],[-0.72419,51.04832],[-0.72421,51.04829],[-0.72427,51.04828],[-0.72441,51.04809],[-0.72385,51.04796],[-0.72367,51.04826],[-0.72388,51.04832],[-0.72391,51.04829],[-0.72408,51.04833],[-0.72409,51.04835],[-0.72421,51.04835]]]]}},
{ "type":"Feature","properties":{"osm_way_id":"231108923","amenity":"parking"},"geometry":{"type":"MultiPolygon","coordinates":[[[[-0.90964,50.84811],[-0.90974,50.84818],[-0.90976,50.84838],[-0.90943,50.84834],[-0.90938,50.84812],[-0.90964,50.84811]]]]}},
{ "type":"Feature","properties":{"osm_way_id":"231595234","amenity":"parking","other":{"capacity":"16","parking":"surface"}}, "geometry":{"type":"MultiPolygon","coordinates":[[[[-0.6577,50.93966],[-0.65715,50.93959],[-0.65712,50.93955],[-0.65718,50.93953],[-0.65728,50.93952],[-0.65736,50.93952],[-0.65741,50.93953],[-0.65759,50.93958],[-0.65773,50.93962],[-0.6577,50.93966]]]]}},
{ "type":"Feature","properties":{"osm_way_id":"231798512","name":"WSCC Staff","amenity":"parking","other":{"access":"private","parking":"surface"}}, "geometry":{"type":"MultiPolygon","coordinates":[[[[-0.78552,50.83804],[-0.78545,50.83811],[-0.78528,50.83827],[-0.78501,50.83853],[-0.78564,50.83879],[-0.78637,50.83805],[-0.78598,50.83793],[-0.78578,50.83814],[-0.78552,50.83804]]]]}},
{ "type":"Feature","properties":{"osm_way_id":"233387567","amenity":"parking","other":{"access":"yes","fee":"no","parking":"surface"}}, "geometry":{"type":"MultiPolygon","coordinates":[[[[-0.92058,50.86431],[-0.92073,50.8644],[-0.92042,50.86459],[-0.92027,50.8645],[-0.92058,50.86431]]]]}},
{ "type":"Feature","properties":{"osm_way_id":"233898784","amenity":"parking"},"geometry":{"type":"MultiPolygon","coordinates":[[[[-0.75383,50.85763],[-0.75385,50.85771],[-0.75385,50.85774],[-0.75386,50.85778],[-0.75371,50.85779],[-0.75345,50.8578],[-0.7532,50.85781],[-0.75306,50.85781],[-0.75302,50.85766],[-0.75344,50.85764],[-0.75355,50.85764],[-0.75383,50.85763]]]]}},
{ "type":"Feature","properties":{"osm_way_id":"234765958","amenity":"parking","other":{"access":"private","operator":"Conifers School"}}, "geometry":{"type":"MultiPolygon","coordinates":[[[[-0.72985,50.9944],[-0.7296,50.99463],[-0.72908,50.99438],[-0.72933,50.99416],[-0.72985,50.9944]]]]}},
{ "type":"Feature","properties":{"osm_way_id":"240969830","amenity":"parking","other":{"access":"customers","fee":"no","operator":"National Trust","parking":"surface"}}, "geometry":{"type":"MultiPolygon","coordinates":[[[[-0.89023,50.95516],[-0.8899,50.9551],[-0.88965,50.95499],[-0.88988,50.95474],[-0.89019,50.95444],[-0.8903,50.95432],[-0.89081,50.95432],[-0.8911,50.95442],[-0.89023,50.95516]]]]}},
{ "type":"Feature","properties":{"osm_way_id":"254501360","name":"Market Avenue","amenity":"parking","other":{"access":"yes","capacity":"29","capacity:disabled":"1","fee":"yes","parking":"surface"}}, "geometry":{"type":"MultiPolygon","coordinates":[[[[-0.7754,50.8342],[-0.77521,50.83427],[-0.77512,50.83434],[-0.775,50.83441],[-0.77513,50.83453],[-0.77555,50.83433],[-0.7754,50.8342]]]]}},
{ "type":"Feature","properties":{"osm_way_id":"255172885","amenity":"parking","other":{"access":"customers"}}, "geometry":{"type":"MultiPolygon","coordinates":[[[[-0.52145,51.08978],[-0.5213,51.08996],[-0.52094,51.08983],[-0.521,51.0896],[-0.52145,51.08978]]]]}},
{ "type":"Feature","properties":{"osm_way_id":"256450228","amenity":"parking"},"geometry":{"type":"MultiPolygon","coordinates":[[[[-0.78738,50.83553],[-0.78714,50.83565],[-0.78697,50.83556],[-0.78707,50.83533],[-0.78738,50.83553]]]]}},
{ "type":"Feature","properties":{"osm_way_id":"256450235","amenity":"parking","other":{"toilets:wheelchair":"yes","wheelchair":"yes"}}, "geometry":{"type":"MultiPolygon","coordinates":[[[[-0.78797,50.83475],[-0.78797,50.8346],[-0.78778,50.83461],[-0.78777,50.83475],[-0.78797,50.83475]]]]}},
{ "type":"Feature","properties":{"osm_way_id":"256455003","amenity":"parking","other":{"access":"customers","fee":"yes","parking":"street_side","toilets:wheelchair":"yes","wheelchair":"yes"}}, "geometry":{"type":"MultiPolygon","coordinates":[[[[-0.79119,50.83465],[-0.79101,50.83465],[-0.791,50.83471],[-0.79089,50.83471],[-0.7909,50.83453],[-0.7912,50.83453],[-0.79119,50.83465]]]]}},
{ "type":"Feature","properties":{"osm_way_id":"259624414","amenity":"parking"},"geometry":{"type":"MultiPolygon","coordinates":[[[[-0.80632,50.73446],[-0.8058,50.73439],[-0.80586,50.73425],[-0.80637,50.73432],[-0.80632,50.73446]]]]}},
{ "type":"Feature","properties":{"osm_way_id":"273385084","amenity":"parking","other":{"access":"customers"}}, "geometry":{"type":"MultiPolygon","coordinates":[[[[-0.72578,50.99624],[-0.72566,50.99631],[-0.72541,50.99608],[-0.72555,50.99602],[-0.72578,50.99624]]]]}},
{ "type":"Feature","properties":{"osm_way_id":"275799853","amenity":"parking","other":{"access":"private","parking":"surface"}}, "geometry":{"type":"MultiPolygon","coordinates":[[[[-0.78461,51.0587],[-0.78324,51.0582],[-0.78205,51.05775],[-0.78214,51.05765],[-0.78227,51.05754],[-0.78289,51.05773],[-0.78337,51.05789],[-0.7837,51.05801],[-0.78469,51.05864],[-0.78461,51.0587]]]]}},
{ "type":"Feature","properties":{"osm_way_id":"281271984","amenity":"parking","other":{"access":"destination"}}, "geometry":{"type":"MultiPolygon","coordinates":[[[[-0.77688,50.82975],[-0.77636,50.82975],[-0.77637,50.82978],[-0.77577,50.82979],[-0.77576,50.82945],[-0.77636,50.82945],[-0.77637,50.82952],[-0.77647,50.82952],[-0.77646,50.82938],[-0.77687,50.82938],[-0.77688,50.82975]]]]}},
{ "type":"Feature","properties":{"osm_way_id":"281327732","amenity":"parking","other":{"access":"customers","fee":"yes","parking":"surface"}}, "geometry":{"type":"MultiPolygon","coordinates":[[[[-0.76714,50.84465],[-0.76699,50.84442],[-0.7664,50.84351],[-0.76639,50.84348],[-0.76686,50.84336],[-0.76695,50.84345],[-0.76705,50.84344],[-0.76699,50.84353],[-0.76723,50.8439],[-0.76715,50.84391],[-0.76718,50.84398],[-0.76704,50.84401],[-0.76722,50.84408],[-0.76729,50.8441],[-0.76736,50.84414],[-0.7674,50.8442],[-0.76752,50.84418],[-0.76779,50.8446],[-0.76796,50.84486],[-0.76798,50.84489],[-0.76815,50.84485],[-0.76812,50.8448],[-0.76854,50.84469],[-0.76873,50.84465],[-0.76876,50.8447],[-0.76898,50.84465],[-0.76901,50.84471],[-0.76902,50.84475],[-0.76903,50.8448],[-0.76904,50.84484],[-0.76901,50.84509],[-0.769,50.84517],[-0.76899,50.8452],[-0.76897,50.84522],[-0.76893,50.84523],[-0.76858,50.8453],[-0.76855,50.84531],[-0.7685,50.84531],[-0.76847,50.8453],[-0.7681,50.84516],[-0.76793,50.84509],[-0.76787,50.84507],[-0.76784,50.84504],[-0.7678,50.845],[-0.76772,50.84502],[-0.76755,50.84509],[-0.76761,50.84517],[-0.76769,50.84515],[-0.76778,50.84528],[-0.76803,50.84523],[-0.76814,50.84538],[-0.76835,50.84534],[-0.76837,50.84538],[-0.76841,50.84537],[-0.76847,50.84547],[-0.76774,50.84561],[-0.76753,50.84528],[-0.76737,50.84502],[-0.76714,50.84465]]]]}},
{ "type":"Feature","properties":{"osm_way_id":"296948205","amenity":"parking","other":{"access":"customers","operator":"Victoria Inn","parking":"surface"}}, "geometry":{"type":"MultiPolygon","coordinates":[[[[-0.90326,50.91693],[-0.90324,50.91675],[-0.90302,50.91679],[-0.90306,50.91695],[-0.90313,50.91695],[-0.90313,50.91692],[-0.90326,50.91693]]]]}},
{ "type":"Feature","properties":{"osm_way_id":"300384235","amenity":"parking","other":{"parking":"surface"}}, "geometry":{"type":"MultiPolygon","coordinates":[[[[-0.71291,50.86189],[-0.71275,50.86188],[-0.71269,50.86187],[-0.71283,50.86119],[-0.71287,50.86099],[-0.71313,50.86101],[-0.71309,50.86116],[-0.71291,50.86189]]]]}},
{ "type":"Feature","properties":{"osm_way_id":"301457096","amenity":"parking","other":{"access":"private","access:disabled":"customers","fee":"no","parking":"surface"}}, "geometry":{"type":"MultiPolygon","coordinates":[[[[-0.92173,50.8857],[-0.92173,50.88582],[-0.92168,50.88582],[-0.92172,50.88597],[-0.92201,50.88602],[-0.92205,50.8857],[-0.92173,50.8857]]]]}},
{ "type":"Feature","properties":{"osm_way_id":"304512911","amenity":"parking"},"geometry":{"type":"MultiPolygon","coordinates":[[[[-0.83784,50.97111],[-0.83796,50.971],[-0.83742,50.97077],[-0.83731,50.97086],[-0.83758,50.97097],[-0.83784,50.97111]]]]}},
{ "type":"Feature","properties":{"osm_way_id":"304512912","name":"The Three Horsehoes car park","amenity":"parking","other":{"fee":"no","operator":"The Three Horseshoes","operator:type":"private"}}, "geometry":{"type":"MultiPolygon","coordinates":[[[[-0.83644,50.97001],[-0.83626,50.97015],[-0.83643,50.97023],[-0.8366,50.97025],[-0.83664,50.97022],[-0.83667,50.97021],[-0.83664,50.9701],[-0.83644,50.97001]]]]}},
{ "type":"Feature","properties":{"osm_way_id":"304513641","amenity":"parking","other":{"access":"customers","description":"Pub car park","fee":"no","parking":"surface"}}, "geometry":{"type":"MultiPolygon","coordinates":[[[[-0.86538,50.86879],[-0.8654,50.86863],[-0.86492,50.86861],[-0.86491,50.86876],[-0.86538,50.86879]]]]}},
{ "type":"Feature","properties":{"osm_way_id":"304536107","amenity":"parking","other":{"access":"destination","fee":"no","parking":"surface"}}, "geometry":{"type":"MultiPolygon","coordinates":[[[[-0.92325,50.88444],[-0.92395,50.88454],[-0.92366,50.8852],[-0.92304,50.88517],[-0.92236,50.88509],[-0.92214,50.88507],[-0.92216,50.88498],[-0.92231,50.88448],[-0.92242,50.88449],[-0.92253,50.88448],[-0.92325,50.88444]]]]}},
{ "type":"Feature","properties":{"osm_way_id":"305960997","amenity":"parking","other":{"access":"private","parking":"surface"}}, "geometry":{"type":"MultiPolygon","coordinates":[[[[-0.78889,50.83605],[-0.78823,50.83607],[-0.78825,50.83632],[-0.78891,50.8363],[-0.7889,50.83625],[-0.78889,50.83605]]]]}},
{ "type":"Feature","properties":{"osm_way_id":"307512584","amenity":"parking"},"geometry":{"type":"MultiPolygon","coordinates":[[[[-0.72236,51.04765],[-0.72255,51.04752],[-0.72268,51.04755],[-0.72267,51.04759],[-0.72259,51.04758],[-0.72256,51.04767],[-0.7229,51.04772],[-0.72294,51.04772],[-0.72293,51.04776],[-0.72241,51.04767],[-0.72236,51.04765]]]]}},
{ "type":"Feature","properties":{"osm_way_id":"324094927","amenity":"parking"},"geometry":{"type":"MultiPolygon","coordinates":[[[[-0.83674,51.06432],[-0.8368,51.06434],[-0.83685,51.06431],[-0.83698,51.06437],[-0.83675,51.0646],[-0.8366,51.06455],[-0.83664,51.06452],[-0.83659,51.06449],[-0.83674,51.06432]]]]}},
{ "type":"Feature","properties":{"osm_way_id":"324094928","amenity":"parking"},"geometry":{"type":"MultiPolygon","coordinates":[[[[-0.83643,51.0646],[-0.83644,51.06461],[-0.83649,51.0646],[-0.83654,51.0647],[-0.83613,51.06478],[-0.83608,51.06468],[-0.83643,51.0646]]]]}},
{ "type":"Feature","properties":{"osm_way_id":"324094929","amenity":"parking"},"geometry":{"type":"MultiPolygon","coordinates":[[[[-0.83582,51.06366],[-0.83563,51.06337],[-0.83624,51.06322],[-0.83632,51.06356],[-0.83653,51.06354],[-0.83644,51.06372],[-0.83645,51.06389],[-0.83654,51.06395],[-0.83623,51.06408],[-0.83582,51.06366]]]]}},
{ "type":"Feature","properties":{"osm_way_id":"327485183","amenity":"parking","other":{"access":"customers","fee":"no","park_ride":"no","parking":"surface","supervised":"no"}}, "geometry":{"type":"MultiPolygon","coordinates":[[[[-0.83071,51.05909],[-0.83006,51.05927],[-0.82992,51.05903],[-0.8305,51.05887],[-0.8306,51.05899],[-0.83062,51.05898],[-0.83071,51.05909]]]]}},
{ "type":"Feature","properties":{"osm_way_id":"327485225","amenity":"parking","other":{"access":"customers","fee":"no","park_ride":"no","parking":"surface","supervised":"no"}}, "geometry":{"type":"MultiPolygon","coordinates":[[[[-0.83074,51.05844],[-0.8303,51.05853],[-0.83,51.05815],[-0.83045,51.05804],[-0.83074,51.05844]]]]}},
{ "type":"Feature","properties":{"osm_way_id":"327534950","amenity":"parking","other":{"access":"customers","fee":"no","park_ride":"no","parking":"surface","supervised":"no"}}, "geometry":{"type":"MultiPolygon","coordinates":[[[[-0.85132,51.04584],[-0.85107,51.04545],[-0.851,51.04545],[-0.85093,51.04533],[-0.85139,51.04522],[-0.85164,51.04565],[-0.85179,51.04563],[-0.85183,51.04569],[-0.85132,51.04584]]]]}},
{ "type":"Feature","properties":{"osm_way_id":"327669704","amenity":"parking","other":{"access":"customers","fee":"no","park_ride":"no","parking":"surface","supervised":"no"}}, "geometry":{"type":"MultiPolygon","coordinates":[[[[-0.87717,51.03053],[-0.87697,51.03041],[-0.87683,51.03048],[-0.87671,51.03041],[-0.87684,51.03033],[-0.87677,51.03028],[-0.87647,51.03042],[-0.8763,51.03029],[-0.87672,51.03011],[-0.87705,51.03036],[-0.87721,51.0305],[-0.87717,51.03053]]]]}},
{ "type":"Feature","properties":{"osm_way_id":"333418122","amenity":"parking","other":{"access":"customers","fee":"no","park_ride":"no","parking":"surface","supervised":"no"}}, "geometry":{"type":"MultiPolygon","coordinates":[[[[-0.85688,51.03526],[-0.85634,51.03508],[-0.85631,51.03493],[-0.85639,51.03491],[-0.85661,51.03494],[-0.85677,51.03498],[-0.85671,51.03505],[-0.85688,51.03514],[-0.8569,51.0352],[-0.85688,51.03526]]]]}},
{ "type":"Feature","properties":{"osm_way_id":"343271736","amenity":"parking"},"geometry":{"type":"MultiPolygon","coordinates":[[[[-0.75778,50.84682],[-0.75772,50.84686],[-0.75767,50.84683],[-0.75774,50.8468],[-0.75778,50.84682]]]]}},
{ "type":"Feature","properties":{"osm_way_id":"343271737","amenity":"parking","other":{"access":"customers"}}, "geometry":{"type":"MultiPolygon","coordinates":[[[[-0.75976,50.84476],[-0.75956,50.84484],[-0.75945,50.84473],[-0.75942,50.84471],[-0.75938,50.8447],[-0.75934,50.84469],[-0.75913,50.84464],[-0.7587,50.84453],[-0.75873,50.84449],[-0.75874,50.84448],[-0.75874,50.84445],[-0.75873,50.84441],[-0.75876,50.84439],[-0.75887,50.84431],[-0.7589,50.84429],[-0.75914,50.84441],[-0.7592,50.84443],[-0.75926,50.84445],[-0.75945,50.8445],[-0.7595,50.84452],[-0.75954,50.84454],[-0.75958,50.84456],[-0.75962,50.8446],[-0.75976,50.84476]]]]}},
{ "type":"Feature","properties":{"osm_way_id":"346672905","amenity":"parking","other":{"access":"customers"}}, "geometry":{"type":"MultiPolygon","coordinates":[[[[-1.52619,54.13654],[-1.52608,54.13657],[-1.52605,54.1366],[-1.52605,54.13665],[-1.526,54.13668],[-1.526,54.13668],[-1.526,54.13673],[-1.52608,54.13672],[-1.52614,54.13672],[-1.52617,54.13672],[-1.52624,54.1367],[-1.52626,54.13668],[-1.52626,54.13666],[-1.52623,54.13664],[-1.52621,54.1366],[-1.52619,54.13654]]]]}},
{ "type":"Feature","properties":{"osm_way_id":"346988963","amenity":"parking","other":{"access":"private"}}, "geometry":{"type":"MultiPolygon","coordinates":[[[[-0.78192,50.83853],[-0.78167,50.83852],[-0.78169,50.83879],[-0.78172,50.83903],[-0.78173,50.83906],[-0.78175,50.83907],[-0.78183,50.83908],[-0.78193,50.83908],[-0.78194,50.83908],[-0.78201,50.83908],[-0.78205,50.83907],[-0.78209,50.83905],[-0.78216,50.83901],[-0.78239,50.83885],[-0.7824,50.83884],[-0.78241,50.83879],[-0.78243,50.83843],[-0.78242,50.83841],[-0.78241,50.8384],[-0.7822,50.83844],[-0.78216,50.83896],[-0.78214,50.83897],[-0.78212,50.83898],[-0.78205,50.83899],[-0.78192,50.83898],[-0.78188,50.83894],[-0.78192,50.83853]]]]}},
{ "type":"Feature","properties":{"osm_way_id":"346988964","name":"WSCC Staff","amenity":"parking","other":{"access":"private"}}, "geometry":{"type":"MultiPolygon","coordinates":[[[[-0.78286,50.83862],[-0.78255,50.83875],[-0.78251,50.83876],[-0.78247,50.83877],[-0.78244,50.83876],[-0.78244,50.83874],[-0.78244,50.83862],[-0.78245,50.83861],[-0.78254,50.83857],[-0.78275,50.8385],[-0.78278,50.83853],[-0.7828,50.83855],[-0.7829,50.83851],[-0.78271,50.83824],[-0.7828,50.83824],[-0.7828,50.8382],[-0.78288,50.83821],[-0.78288,50.83816],[-0.78339,50.83818],[-0.78344,50.8376],[-0.78348,50.83761],[-0.78354,50.83762],[-0.78363,50.83764],[-0.78368,50.83767],[-0.78372,50.83769],[-0.78388,50.8377],[-0.78386,50.83787],[-0.78383,50.83802],[-0.78382,50.83806],[-0.7838,50.8381],[-0.78376,50.83814],[-0.78372,50.83818],[-0.78368,50.83822],[-0.78348,50.83833],[-0.78342,50.83829],[-0.78302,50.83852],[-0.78295,50.83856],[-0.78291,50.83858],[-0.78284,50.8386],[-0.78286,50.83862]]]]}},
{ "type":"Feature","properties":{"osm_way_id":"348429536","name":"Library Users","amenity":"parking","other":{"access":"yes","parking":"surface"}}, "geometry":{"type":"MultiPolygon","coordinates":[[[[-0.78214,50.838],[-0.78194,50.83799],[-0.78194,50.83789],[-0.78184,50.83794],[-0.7818,50.8379],[-0.78174,50.83792],[-0.78165,50.83786],[-0.78175,50.83782],[-0.7818,50.83779],[-0.7819,50.83778],[-0.78209,50.83776],[-0.78208,50.83781],[-0.78216,50.83782],[-0.78214,50.838]]]]}},
{ "type":"Feature","properties":{"osm_way_id":"354957219","amenity":"parking","other":{"access":"private"}}, "geometry":{"type":"MultiPolygon","coordinates":[[[[-0.78252,50.83754],[-0.7822,50.83753],[-0.78216,50.83753],[-0.7821,50.83752],[-0.7821,50.83736],[-0.78208,50.83736],[-0.78204,50.83737],[-0.78204,50.83743],[-0.78192,50.83742],[-0.78193,50.83728],[-0.78205,50.83728],[-0.78206,50.83725],[-0.78211,50.83724],[-0.78215,50.83723],[-0.78218,50.83723],[-0.78257,50.83727],[-0.78252,50.83754]]]]}},
{ "type":"Feature","properties":{"osm_way_id":"354959255","amenity":"parking","other":{"access":"private"}}, "geometry":{"type":"MultiPolygon","coordinates":[[[[-0.78543,50.83801],[-0.78526,50.83797],[-0.78538,50.83779],[-0.78554,50.83784],[-0.78543,50.83801]]]]}},
{ "type":"Feature","properties":{"osm_way_id":"384568778","amenity":"parking","other":{"access":"permissive"}}, "geometry":{"type":"MultiPolygon","coordinates":[[[[-0.61162,50.98662],[-0.61201,50.98663],[-0.61201,50.98656],[-0.61163,50.98655],[-0.61162,50.98662]]]]}},
{ "type":"Feature","properties":{"osm_way_id":"389001334","amenity":"parking"},"geometry":{"type":"MultiPolygon","coordinates":[[[[-0.81519,50.81934],[-0.81494,50.81928],[-0.81489,50.81916],[-0.81486,50.8191],[-0.8148,50.81911],[-0.8147,50.81905],[-0.81482,50.81894],[-0.81491,50.819],[-0.81503,50.81911],[-0.81507,50.8191],[-0.81519,50.81934]]]]}},
{ "type":"Feature","properties":{"osm_way_id":"389407195","amenity":"parking","other":{"access":"yes","fee":"no","parking":"surface","surface":"asphalt"}}, "geometry":{"type":"MultiPolygon","coordinates":[[[[-0.75557,50.94233],[-0.75572,50.94237],[-0.75577,50.94238],[-0.75578,50.94281],[-0.75563,50.94278],[-0.7556,50.94277],[-0.75556,50.94277],[-0.75545,50.94275],[-0.75542,50.94272],[-0.75554,50.9424],[-0.75555,50.94238],[-0.75556,50.94235],[-0.75557,50.94233]]]]}},
{ "type":"Feature","properties":{"osm_way_id":"395873112","amenity":"parking","other":{"access":"customers","fee":"no","parking":"surface"}}, "geometry":{"type":"MultiPolygon","coordinates":[[[[-0.80991,50.83551],[-0.80989,50.83519],[-0.80962,50.8352],[-0.80962,50.83522],[-0.80963,50.83526],[-0.80962,50.83526],[-0.80963,50.83534],[-0.8096,50.83534],[-0.8096,50.83535],[-0.8095,50.83536],[-0.8095,50.83535],[-0.80946,50.83535],[-0.80942,50.83535],[-0.80942,50.83536],[-0.80932,50.83537],[-0.80932,50.83536],[-0.80926,50.83536],[-0.80926,50.83538],[-0.8093,50.83545],[-0.80938,50.83545],[-0.80957,50.83546],[-0.80966,50.83548],[-0.80978,50.8355],[-0.8098,50.8355],[-0.80984,50.8355],[-0.80991,50.83551]]]]}},
{ "type":"Feature","properties":{"osm_way_id":"395878809","name":"The Bulls Head car park","amenity":"parking","other":{"access":"customers","parking":"surface"}}, "geometry":{"type":"MultiPolygon","coordinates":[[[[-0.8118,50.83473],[-0.81183,50.835],[-0.81215,50.835],[-0.81213,50.83485],[-0.81211,50.83471],[-0.8118,50.83473]]]]}},
{ "type":"Feature","properties":{"osm_way_id":"396087580","amenity":"parking"},"geometry":{"type":"MultiPolygon","coordinates":[[[[-0.76797,50.83696],[-0.76777,50.83698],[-0.76775,50.8369],[-0.76773,50.83685],[-0.76781,50.83684],[-0.76774,50.83659],[-0.76806,50.83656],[-0.76811,50.8367],[-0.76789,50.83673],[-0.76797,50.83696]]]]}},
{ "type":"Feature","properties":{"osm_way_id":"396593951","amenity":"parking","other":{"access":"private"}}, "geometry":{"type":"MultiPolygon","coordinates":[[[[-0.93218,50.8221],[-0.93219,50.82213],[-0.93221,50.8224],[-0.93182,50.82241],[-0.9318,50.82211],[-0.93218,50.8221]]]]}},
{ "type":"Feature","properties":{"osm_way_id":"404403810","amenity":"parking"},"geometry":{"type":"MultiPolygon","coordinates":[[[[-0.88692,50.96947],[-0.88679,50.96945],[-0.88702,50.96893],[-0.88715,50.96896],[-0.88692,50.96947]]]]}},
{ "type":"Feature","properties":{"osm_way_id":"405486377","amenity":"parking","other":{"access":"private"}}, "geometry":{"type":"MultiPolygon","coordinates":[[[[-0.85324,51.00667],[-0.85294,51.00685],[-0.85277,51.00677],[-0.85286,51.00669],[-0.85294,51.00672],[-0.85313,51.00661],[-0.85324,51.00667]]]]}},
{ "type":"Feature","properties":{"osm_way_id":"405486408","amenity":"parking","other":{"access":"private"}}, "geometry":{"type":"MultiPolygon","coordinates":[[[[-0.85172,51.00718],[-0.85153,51.00722],[-0.85137,51.00694],[-0.85151,51.00691],[-0.85152,51.00688],[-0.85158,51.00687],[-0.85161,51.00687],[-0.85165,51.00689],[-0.85168,51.00693],[-0.8516,51.00695],[-0.85172,51.00718]]]]}},
{ "type":"Feature","properties":{"osm_way_id":"406976428","name":"Rogate Village Hall","amenity":"parking"},"geometry":{"type":"MultiPolygon","coordinates":[[[[-0.85138,51.00917],[-0.8515,51.00942],[-0.85149,51.00943],[-0.85123,51.00945],[-0.8512,51.0093],[-0.85125,51.0093],[-0.85121,51.00919],[-0.85138,51.00917]]]]}},
{ "type":"Feature","properties":{"osm_way_id":"406976440","name":"The White Horse","amenity":"parking","other":{"access":"customers","parking":"surface"}}, "geometry":{"type":"MultiPolygon","coordinates":[[[[-0.85046,51.00836],[-0.85046,51.00842],[-0.85043,51.00852],[-0.85036,51.00852],[-0.85007,51.0085],[-0.85009,51.00836],[-0.85046,51.00836]]]]}},
{ "type":"Feature","properties":{"osm_way_id":"410261828","amenity":"parking","other":{"access":"customers"}}, "geometry":{"type":"MultiPolygon","coordinates":[[[[-0.742,51.08466],[-0.74148,51.08468],[-0.74147,51.08456],[-0.74199,51.08453],[-0.742,51.08466]]]]}},
{ "type":"Feature","properties":{"osm_way_id":"413184254","amenity":"parking","other":{"access":"customers","parking":"surface"}}, "geometry":{"type":"MultiPolygon","coordinates":[[[[-0.49222,51.03059],[-0.4919,51.03036],[-0.49198,51.03032],[-0.4923,51.03054],[-0.49222,51.03059]]]]}},
{ "type":"Feature","properties":{"osm_way_id":"413184255","amenity":"parking","other":{"park_ride":"no","parking":"surface"}}, "geometry":{"type":"MultiPolygon","coordinates":[[[[-0.49186,51.03034],[-0.49172,51.03024],[-0.49152,51.03012],[-0.4917,51.02978],[-0.49167,51.02973],[-0.49158,51.02969],[-0.49162,51.0296],[-0.49188,51.02899],[-0.49213,51.02905],[-0.49209,51.02919],[-0.49222,51.0292],[-0.492,51.0297],[-0.49204,51.02977],[-0.49212,51.02987],[-0.49186,51.03034]]]]}},
{ "type":"Feature","properties":{"osm_way_id":"428178377","name":"Governors' Car Park","amenity":"parking"},"geometry":{"type":"MultiPolygon","coordinates":[[[[-0.77493,50.84405],[-0.775,50.84426],[-0.7751,50.84425],[-0.77522,50.84432],[-0.77529,50.8443],[-0.77538,50.84428],[-0.77522,50.844],[-0.77508,50.84402],[-0.77493,50.84405]]]]}},
{ "type":"Feature","properties":{"osm_way_id":"439925304","amenity":"parking","other":{"access":"permissive"}}, "geometry":{"type":"MultiPolygon","coordinates":[[[[-0.92352,50.84333],[-0.92352,50.84356],[-0.9242,50.84353],[-0.92416,50.84278],[-0.92408,50.84279],[-0.92373,50.84283],[-0.9235,50.84285],[-0.92351,50.84316],[-0.92352,50.84333]]]]}},
{ "type":"Feature","properties":{"osm_way_id":"439925307","amenity":"parking","other":{"access":"permissive"}}, "geometry":{"type":"MultiPolygon","coordinates":[[[[-0.92306,50.84318],[-0.92339,50.84316],[-0.92351,50.84316],[-0.9235,50.84285],[-0.92336,50.84287],[-0.92315,50.84289],[-0.92307,50.84293],[-0.92304,50.84295],[-0.92304,50.84298],[-0.92306,50.84318]]]]}},
{ "type":"Feature","properties":{"osm_way_id":"444883749","amenity":"parking"},"geometry":{"type":"MultiPolygon","coordinates":[[[[-0.71672,50.85157],[-0.71672,50.85147],[-0.71683,50.85147],[-0.71683,50.85143],[-0.71683,50.8514],[-0.71682,50.85132],[-0.7168,50.85132],[-0.71673,50.8513],[-0.71645,50.85128],[-0.71635,50.85132],[-0.71636,50.85156],[-0.71672,50.85157]]]]}},
{ "type":"Feature","properties":{"osm_way_id":"447218548","name":"Disabled Parking","amenity":"parking","other":{"capacity":"2"}}, "geometry":{"type":"MultiPolygon","coordinates":[[[[-0.77556,50.84505],[-0.77537,50.84508],[-0.77533,50.84497],[-0.77552,50.84494],[-0.77554,50.84499],[-0.77556,50.84505]]]]}},
{ "type":"Feature","properties":{"osm_way_id":"447221703","amenity":"parking","other":{"maxstay":"30 min"}}, "geometry":{"type":"MultiPolygon","coordinates":[[[[-0.77583,50.84477],[-0.77573,50.84478],[-0.77564,50.84463],[-0.77574,50.84461],[-0.77583,50.84477]]]]}},
{ "type":"Feature","properties":{"osm_way_id":"447227171","amenity":"parking"},"geometry":{"type":"MultiPolygon","coordinates":[[[[-0.77529,50.84457],[-0.77538,50.84456],[-0.7754,50.84461],[-0.77512,50.84465],[-0.77509,50.8446],[-0.7752,50.84459],[-0.77529,50.84457]]]]}},
{ "type":"Feature","properties":{"osm_way_id":"447749756","amenity":"parking"},"geometry":{"type":"MultiPolygon","coordinates":[[[[-0.77475,50.84822],[-0.77472,50.84806],[-0.77479,50.84806],[-0.77476,50.84788],[-0.77479,50.84788],[-0.77503,50.84786],[-0.77503,50.8479],[-0.77504,50.84795],[-0.77504,50.84795],[-0.77504,50.84796],[-0.77504,50.84796],[-0.77503,50.84797],[-0.77502,50.84797],[-0.77501,50.84797],[-0.77499,50.84797],[-0.77493,50.84798],[-0.77494,50.84805],[-0.7751,50.84804],[-0.77513,50.84819],[-0.77475,50.84822]]]]}},
{ "type":"Feature","properties":{"osm_way_id":"449716207","amenity":"parking","other":{"access":"private","parking":"surface"}}, "geometry":{"type":"MultiPolygon","coordinates":[[[[-0.77758,50.84779],[-0.7769,50.8479],[-0.7768,50.84727],[-0.77705,50.84724],[-0.77713,50.84749],[-0.77746,50.84745],[-0.77758,50.84779]]]]}},
{ "type":"Feature","properties":{"osm_way_id":"459547551","amenity":"parking"},"geometry":{"type":"MultiPolygon","coordinates":[[[[-0.83524,51.06482],[-0.83501,51.06486],[-0.83464,51.0649],[-0.83448,51.06491],[-0.83434,51.06465],[-0.83462,51.06458],[-0.83483,51.06468],[-0.83507,51.06462],[-0.83518,51.06473],[-0.83524,51.06482]]]]}},
{ "type":"Feature","properties":{"osm_way_id":"468615753","amenity":"parking","other":{"access":"private"}}, "geometry":{"type":"MultiPolygon","coordinates":[[[[-0.78225,50.84311],[-0.78225,50.84298],[-0.78185,50.84302],[-0.78183,50.84293],[-0.78155,50.84295],[-0.78157,50.843],[-0.78129,50.84303],[-0.78129,50.84308],[-0.78158,50.84307],[-0.78158,50.84313],[-0.78225,50.84311]]]]}},
{ "type":"Feature","properties":{"osm_way_id":"471099566","amenity":"parking"},"geometry":{"type":"MultiPolygon","coordinates":[[[[-0.74348,50.82149],[-0.74346,50.8213],[-0.74319,50.82131],[-0.74318,50.82119],[-0.74277,50.8212],[-0.74276,50.82103],[-0.74256,50.82104],[-0.74253,50.82069],[-0.74198,50.82072],[-0.742,50.82105],[-0.74253,50.82104],[-0.74257,50.82147],[-0.74264,50.82151],[-0.74348,50.82149]]]]}},
{ "type":"Feature","properties":{"osm_way_id":"471099587","amenity":"parking"},"geometry":{"type":"MultiPolygon","coordinates":[[[[-0.75018,50.82346],[-0.75024,50.82359],[-0.75029,50.82359],[-0.75033,50.8237],[-0.7504,50.82374],[-0.75048,50.82376],[-0.75065,50.82375],[-0.75054,50.82349],[-0.75044,50.8235],[-0.75042,50.82345],[-0.75052,50.82343],[-0.75049,50.82336],[-0.75063,50.82334],[-0.75058,50.82329],[-0.75026,50.82334],[-0.75031,50.82344],[-0.75018,50.82346]]]]}},
{ "type":"Feature","properties":{"osm_way_id":"471099595","amenity":"parking"},"geometry":{"type":"MultiPolygon","coordinates":[[[[-0.74767,50.82144],[-0.74764,50.82124],[-0.7473,50.82126],[-0.74732,50.82146],[-0.74767,50.82144]]]]}},
{ "type":"Feature","properties":{"osm_way_id":"471099606","amenity":"parking"},"geometry":{"type":"MultiPolygon","coordinates":[[[[-0.74698,50.81963],[-0.74771,50.81959],[-0.74774,50.82016],[-0.74736,50.82018],[-0.74731,50.81998],[-0.74698,50.81963]]]]}},
{ "type":"Feature","properties":{"osm_way_id":"471099607","amenity":"parking"},"geometry":{"type":"MultiPolygon","coordinates":[[[[-0.74778,50.82019],[-0.74777,50.82],[-0.74829,50.81998],[-0.74831,50.82013],[-0.74833,50.82024],[-0.74805,50.82025],[-0.74803,50.82018],[-0.74778,50.82019]]]]}},
{ "type":"Feature","properties":{"osm_way_id":"471100251","amenity":"parking"},"geometry":{"type":"MultiPolygon","coordinates":[[[[-0.74399,50.81079],[-0.74324,50.81073],[-0.74325,50.81066],[-0.744,50.81073],[-0.74399,50.81079]]]]}},
{ "type":"Feature","properties":{"osm_way_id":"471100806","amenity":"parking"},"geometry":{"type":"MultiPolygon","coordinates":[[[[-0.73654,50.81059],[-0.73672,50.8104],[-0.73732,50.8106],[-0.73752,50.81074],[-0.73744,50.81083],[-0.73654,50.81059]]]]}},
{ "type":"Feature","properties":{"osm_way_id":"471100819","amenity":"parking"},"geometry":{"type":"MultiPolygon","coordinates":[[[[-0.73823,50.81458],[-0.73836,50.81428],[-0.73767,50.81415],[-0.73758,50.81433],[-0.73756,50.81454],[-0.73823,50.81458]]]]}},
{ "type":"Feature","properties":{"osm_way_id":"471102935","amenity":"parking"},"geometry":{"type":"MultiPolygon","coordinates":[[[[-0.73792,50.80891],[-0.73827,50.80924],[-0.7382,50.80933],[-0.73802,50.80926],[-0.73791,50.80938],[-0.7378,50.80934],[-0.73789,50.80922],[-0.73759,50.80911],[-0.73764,50.80905],[-0.73778,50.80911],[-0.73792,50.80891]]]]}},
{ "type":"Feature","properties":{"osm_way_id":"471102941","amenity":"parking"},"geometry":{"type":"MultiPolygon","coordinates":[[[[-0.73582,50.80889],[-0.73561,50.8091],[-0.73544,50.80903],[-0.7355,50.80897],[-0.73555,50.80893],[-0.73565,50.8089],[-0.73576,50.80889],[-0.73582,50.80889]]]]}},
{ "type":"Feature","properties":{"osm_way_id":"478315911","amenity":"parking"},"geometry":{"type":"MultiPolygon","coordinates":[[[[-0.78526,50.8251],[-0.7853,50.82514],[-0.78523,50.82517],[-0.78519,50.82513],[-0.78526,50.8251]]]]}},
{ "type":"Feature","properties":{"osm_way_id":"478315912","amenity":"parking"},"geometry":{"type":"MultiPolygon","coordinates":[[[[-0.78521,50.82532],[-0.78506,50.8254],[-0.78496,50.8254],[-0.78497,50.82552],[-0.78508,50.82559],[-0.78525,50.82554],[-0.78526,50.8255],[-0.78532,50.82548],[-0.78539,50.82545],[-0.78542,50.82542],[-0.78543,50.82536],[-0.78538,50.82531],[-0.78533,50.82528],[-0.78521,50.82532]]]]}},
{ "type":"Feature","properties":{"osm_way_id":"478656926","amenity":"parking"},"geometry":{"type":"MultiPolygon","coordinates":[[[[-0.73932,50.82716],[-0.73798,50.82745],[-0.73766,50.82688],[-0.73797,50.82681],[-0.73811,50.82684],[-0.73821,50.82693],[-0.73876,50.82686],[-0.73932,50.82716]]]]}},
{ "type":"Feature","properties":{"osm_way_id":"486788769","amenity":"parking"},"geometry":{"type":"MultiPolygon","coordinates":[[[[-0.72142,50.81826],[-0.72134,50.8186],[-0.72001,50.8184],[-0.71999,50.81829],[-0.72142,50.81826]]]]}},
{ "type":"Feature","properties":{"osm_way_id":"496281902","amenity":"parking"},"geometry":{"type":"MultiPolygon","coordinates":[[[[-0.77823,50.83885],[-0.77777,50.83884],[-0.77776,50.83914],[-0.77797,50.83915],[-0.77798,50.83904],[-0.77817,50.83902],[-0.77822,50.839],[-0.77823,50.83885]]]]}},
{ "type":"Feature","properties":{"osm_way_id":"498071272","amenity":"parking"},"geometry":{"type":"MultiPolygon","coordinates":[[[[-0.66721,50.8758],[-0.66713,50.87579],[-0.66716,50.87558],[-0.66724,50.87559],[-0.66721,50.8758]]]]}},
{ "type":"Feature","properties":{"osm_way_id":"498071273","amenity":"parking"},"geometry":{"type":"MultiPolygon","coordinates":[[[[-0.66665,50.87599],[-0.66652,50.87599],[-0.66652,50.87547],[-0.66665,50.87548],[-0.66665,50.87599]]]]}},
{ "type":"Feature","properties":{"osm_way_id":"498071274","amenity":"parking"},"geometry":{"type":"MultiPolygon","coordinates":[[[[-0.66629,50.8754],[-0.66641,50.8754],[-0.66639,50.87591],[-0.66627,50.8759],[-0.66629,50.8754]]]]}},
{ "type":"Feature","properties":{"osm_way_id":"498071280","amenity":"parking"},"geometry":{"type":"MultiPolygon","coordinates":[[[[-0.66914,50.87441],[-0.66891,50.87439],[-0.66895,50.87423],[-0.66917,50.87424],[-0.66914,50.87441]]]]}},
{ "type":"Feature","properties":{"osm_way_id":"502734348","amenity":"parking"},"geometry":{"type":"MultiPolygon","coordinates":[[[[-0.74792,50.83009],[-0.748,50.83003],[-0.74817,50.8299],[-0.74817,50.82982],[-0.74803,50.82982],[-0.74802,50.82977],[-0.74797,50.82977],[-0.74797,50.82971],[-0.74794,50.8297],[-0.74691,50.82966],[-0.74688,50.82965],[-0.74642,50.82957],[-0.7464,50.82956],[-0.74637,50.82964],[-0.7463,50.82987],[-0.74661,50.82993],[-0.74773,50.83008],[-0.74792,50.83009]]]]}},
{ "type":"Feature","properties":{"osm_way_id":"506216745","amenity":"parking"},"geometry":{"type":"MultiPolygon","coordinates":[[[[-0.75158,50.86269],[-0.75146,50.86274],[-0.75176,50.86314],[-0.75199,50.86308],[-0.75196,50.86304],[-0.75199,50.86299],[-0.75195,50.86298],[-0.75191,50.86297],[-0.75185,50.86294],[-0.75167,50.86282],[-0.75161,50.86275],[-0.75158,50.86269]]]]}},
{ "type":"Feature","properties":{"osm_way_id":"507224374","amenity":"parking","other":{"access":"customers","operator":"The Halfway House","parking":"surface"}}, "geometry":{"type":"MultiPolygon","coordinates":[[[[-0.67491,50.98937],[-0.67485,50.9893],[-0.67493,50.98923],[-0.67489,50.98918],[-0.67436,50.98937],[-0.67444,50.98942],[-0.67468,50.98944],[-0.67491,50.98937]]]]}},
{ "type":"Feature","properties":{"osm_way_id":"511290531","amenity":"parking"},"geometry":{"type":"MultiPolygon","coordinates":[[[[-0.77778,50.79556],[-0.77783,50.79551],[-0.77783,50.79544],[-0.77763,50.79521],[-0.77748,50.79516],[-0.77732,50.79515],[-0.77632,50.79541],[-0.77637,50.79549],[-0.77649,50.79568],[-0.77672,50.79562],[-0.77675,50.79567],[-0.77709,50.79558],[-0.77718,50.79572],[-0.77778,50.79556]]]]}},
{ "type":"Feature","properties":{"osm_way_id":"513336392","amenity":"parking","other":{"parking":"surface"}}, "geometry":{"type":"MultiPolygon","coordinates":[[[[-0.77887,50.84084],[-0.77916,50.84079],[-0.77908,50.84058],[-0.77878,50.84063],[-0.77887,50.84084]]]]}},
{ "type":"Feature","properties":{"osm_way_id":"520794940","amenity":"parking","other":{"access":"customers","fee":"no","operator":"Asda","parking":"surface","surface":"asphalt"}}, "geometry":{"type":"MultiPolygon","coordinates":[[[[-0.78075,50.74248],[-0.78044,50.74279],[-0.78045,50.74282],[-0.78063,50.74289],[-0.78065,50.74287],[-0.78101,50.74303],[-0.78115,50.74308],[-0.7812,50.74303],[-0.78126,50.74305],[-0.78146,50.74286],[-0.78153,50.74278],[-0.78162,50.74268],[-0.78149,50.74262],[-0.7815,50.7426],[-0.78146,50.74257],[-0.78142,50.74254],[-0.78137,50.74248],[-0.7813,50.74239],[-0.78136,50.74231],[-0.78125,50.74227],[-0.78096,50.74217],[-0.78077,50.74202],[-0.78072,50.74197],[-0.78064,50.74205],[-0.78058,50.7421],[-0.78039,50.74212],[-0.78041,50.74233],[-0.78051,50.74237],[-0.78063,50.74242],[-0.78073,50.74247],[-0.78075,50.74248]]]]}},
{ "type":"Feature","properties":{"osm_way_id":"520801550","amenity":"parking"},"geometry":{"type":"MultiPolygon","coordinates":[[[[-0.78793,50.73925],[-0.78789,50.73918],[-0.78787,50.73912],[-0.78782,50.73906],[-0.78776,50.73898],[-0.78765,50.73885],[-0.78745,50.73892],[-0.78754,50.73901],[-0.78736,50.7391],[-0.78736,50.73924],[-0.78745,50.73923],[-0.78752,50.73921],[-0.78765,50.73935],[-0.78793,50.73925]]]]}},
{ "type":"Feature","properties":{"osm_way_id":"522279657","amenity":"parking","other":{"access":"private"}}, "geometry":{"type":"MultiPolygon","coordinates":[[[[-0.76583,50.82873],[-0.76585,50.82868],[-0.7658,50.82867],[-0.76578,50.82873],[-0.76583,50.82873]]]]}},
{ "type":"Feature","properties":{"osm_way_id":"531550930","amenity":"parking","other":{"access":"customers","fee":"no","parking":"surface"}}, "geometry":{"type":"MultiPolygon","coordinates":[[[[-0.76153,50.83348],[-0.7614,50.83341],[-0.76107,50.83368],[-0.76121,50.83375],[-0.76153,50.83348]]]]}},
{ "type":"Feature","properties":{"osm_way_id":"541347984","amenity":"parking","other":{"access":"customers"}}, "geometry":{"type":"MultiPolygon","coordinates":[[[[1.16318,51.81833],[1.16344,51.81832],[1.16343,51.81826],[1.16342,51.81826],[1.1634,51.81811],[1.16322,51.81813],[1.1631,51.81814],[1.16306,51.81787],[1.16316,51.81786],[1.16313,51.8177],[1.16309,51.8177],[1.16278,51.81779],[1.1626,51.81784],[1.16261,51.81789],[1.16268,51.81827],[1.16268,51.8183],[1.16315,51.81826],[1.16317,51.81826],[1.16318,51.81833]]]]}},
{ "type":"Feature","properties":{"osm_way_id":"543509116","amenity":"parking","other":{"access":"customers"}}, "geometry":{"type":"MultiPolygon","coordinates":[[[[1.16388,51.81821],[1.16342,51.81826],[1.1634,51.81811],[1.16386,51.81808],[1.16388,51.81821]]]]}},
{ "type":"Feature","properties":{"osm_way_id":"543511806","amenity":"parking","other":{"access":"private"}}, "geometry":{"type":"MultiPolygon","coordinates":[[[[1.16543,51.81824],[1.16576,51.81822],[1.16575,51.81817],[1.16562,51.81798],[1.16539,51.81802],[1.16543,51.81824]]]]}},
{ "type":"Feature","properties":{"osm_way_id":"543803501","amenity":"parking","other":{"parking":"surface"}}, "geometry":{"type":"MultiPolygon","coordinates":[[[[-0.78957,50.73224],[-0.79,50.73236],[-0.79038,50.73247],[-0.79099,50.73262],[-0.79105,50.73255],[-0.79112,50.73242],[-0.79001,50.7321],[-0.78995,50.73208],[-0.78977,50.73202],[-0.78979,50.73205],[-0.78974,50.73213],[-0.78966,50.73212],[-0.78957,50.73224]]]]}},
{ "type":"Feature","properties":{"osm_way_id":"556345739","amenity":"parking","other":{"access":"customers","fee":"no","parking":"surface"}}, "geometry":{"type":"MultiPolygon","coordinates":[[[[-0.77438,50.84091],[-0.77417,50.84088],[-0.77423,50.84107],[-0.77441,50.84097],[-0.77438,50.84091]]]]}},
{ "type":"Feature","properties":{"osm_way_id":"556702648","amenity":"parking","other":{"access":"private","parking":"surface"}}, "geometry":{"type":"MultiPolygon","coordinates":[[[[-0.64481,50.99786],[-0.64538,50.9978],[-0.6453,50.9974],[-0.64494,50.99742],[-0.64481,50.99786]]]]}},
{ "type":"Feature","properties":{"osm_way_id":"556702650","amenity":"parking"},"geometry":{"type":"MultiPolygon","coordinates":[[[[-0.69908,50.9924],[-0.69897,50.99234],[-0.69903,50.99228],[-0.69934,50.99208],[-0.69941,50.99209],[-0.69945,50.99212],[-0.69926,50.99224],[-0.69908,50.9924]]]]}},
{ "type":"Feature","properties":{"osm_way_id":"571017393","amenity":"parking"},"geometry":{"type":"MultiPolygon","coordinates":[[[[-0.75183,50.85895],[-0.75184,50.859],[-0.75215,50.859],[-0.75237,50.85895],[-0.75227,50.85839],[-0.75224,50.85834],[-0.75214,50.85835],[-0.75183,50.85835],[-0.75171,50.85838],[-0.75175,50.85861],[-0.75183,50.85895]]]]}},
{ "type":"Feature","properties":{"osm_way_id":"577466225","name":"Car Park 4","amenity":"parking"},"geometry":{"type":"MultiPolygon","coordinates":[[[[-0.74503,50.89006],[-0.7457,50.89004],[-0.74583,50.88993],[-0.74604,50.88991],[-0.74604,50.89],[-0.74604,50.89042],[-0.74604,50.89069],[-0.74691,50.89046],[-0.74696,50.89035],[-0.74656,50.88929],[-0.74619,50.88938],[-0.74611,50.88964],[-0.74605,50.88978],[-0.746,50.88983],[-0.7459,50.88979],[-0.74599,50.88948],[-0.74565,50.88959],[-0.7452,50.88974],[-0.74503,50.89006]]]]}},
{ "type":"Feature","properties":{"osm_way_id":"577591381","amenity":"parking"},"geometry":{"type":"MultiPolygon","coordinates":[[[[-0.74568,50.89059],[-0.74578,50.89013],[-0.74501,50.89011],[-0.7448,50.89033],[-0.74469,50.89053],[-0.74485,50.89058],[-0.74521,50.89055],[-0.74558,50.89064],[-0.74568,50.89059]]]]}},
{ "type":"Feature","properties":{"osm_way_id":"580125787","amenity":"parking"},"geometry":{"type":"MultiPolygon","coordinates":[[[[-0.73181,50.84111],[-0.73172,50.84096],[-0.7318,50.84094],[-0.73188,50.8411],[-0.73181,50.84111]]]]}},
{ "type":"Feature","properties":{"osm_way_id":"589253164","amenity":"parking","other":{"access":"customers","fee":"no","parking":"surface","supervised":"no","surface":"asphalt"}}, "geometry":{"type":"MultiPolygon","coordinates":[[[[-0.76102,50.84743],[-0.76104,50.84746],[-0.76116,50.84743],[-0.76127,50.8474],[-0.76136,50.84737],[-0.76162,50.84728],[-0.76167,50.84725],[-0.76172,50.84717],[-0.76027,50.84668],[-0.75994,50.84711],[-0.75998,50.84719],[-0.76002,50.84728],[-0.76086,50.84712],[-0.76102,50.84743]]]]}},
{ "type":"Feature","properties":{"osm_way_id":"590825047","name":"Car Park 8","amenity":"parking","other":{"access":"customers","fee":"yes","operator":"Goodwood","parking":"surface","surface":"grass"}}, "geometry":{"type":"MultiPolygon","coordinates":[[[[-0.74295,50.89161],[-0.74272,50.89169],[-0.74211,50.89185],[-0.7409,50.89203],[-0.74043,50.89212],[-0.73984,50.89227],[-0.73909,50.89254],[-0.73904,50.89251],[-0.73902,50.8925],[-0.73899,50.89249],[-0.73945,50.89114],[-0.73954,50.89043],[-0.73957,50.89033],[-0.73955,50.89019],[-0.73948,50.88967],[-0.73947,50.88959],[-0.73945,50.88949],[-0.73935,50.88913],[-0.7393,50.88901],[-0.73916,50.88884],[-0.7391,50.88885],[-0.73808,50.88903],[-0.73806,50.88858],[-0.73816,50.88845],[-0.73921,50.88806],[-0.73959,50.88796],[-0.73968,50.88822],[-0.74018,50.88814],[-0.74073,50.88802],[-0.74094,50.8884],[-0.74118,50.88904],[-0.74104,50.88959],[-0.74106,50.88993],[-0.74114,50.89031],[-0.74157,50.89147],[-0.74191,50.89137],[-0.7423,50.89108],[-0.74238,50.89103],[-0.74257,50.89109],[-0.74295,50.89161]]]]}},
{ "type":"Feature","properties":{"osm_way_id":"590825053","name":"Car Park 4A","amenity":"parking","other":{"access":"private","fee":"no","operator":"Goodwood","supervised":"yes","surface":"gravel"}}, "geometry":{"type":"MultiPolygon","coordinates":[[[[-0.74286,50.8913],[-0.74298,50.89145],[-0.74306,50.8915],[-0.74316,50.8915],[-0.7433,50.89143],[-0.7435,50.89125],[-0.74373,50.89107],[-0.74365,50.89104],[-0.74364,50.89103],[-0.74354,50.89101],[-0.74306,50.89116],[-0.74286,50.8913]]]]}},
{ "type":"Feature","properties":{"osm_way_id":"594332130","amenity":"parking","other":{"access":"private","parking":"surface","surface":"asphalt"}}, "geometry":{"type":"MultiPolygon","coordinates":[[[[-0.7687,50.83818],[-0.76851,50.8383],[-0.76876,50.83848],[-0.76913,50.8383],[-0.76923,50.83832],[-0.76932,50.83821],[-0.7692,50.83812],[-0.76887,50.8383],[-0.7687,50.83818]]]]}},
{ "type":"Feature","properties":{"osm_way_id":"609713346","amenity":"parking"},"geometry":{"type":"MultiPolygon","coordinates":[[[[-0.74194,50.8714],[-0.74234,50.87152],[-0.74219,50.87178],[-0.74177,50.87167],[-0.74178,50.87165],[-0.74177,50.87164],[-0.74174,50.87163],[-0.74173,50.87162],[-0.74172,50.87158],[-0.74174,50.87143],[-0.74175,50.87141],[-0.74176,50.8714],[-0.74179,50.87139],[-0.74182,50.8714],[-0.74188,50.8714],[-0.74193,50.87142],[-0.74194,50.8714]]]]}},
{ "type":"Feature","properties":{"osm_way_id":"619205369","amenity":"parking","other":{"access":"customers","fee":"no","parking":"surface"}}, "geometry":{"type":"MultiPolygon","coordinates":[[[[-0.80448,50.73778],[-0.80444,50.73771],[-0.80442,50.73771],[-0.80411,50.73776],[-0.80409,50.73777],[-0.80387,50.73781],[-0.80392,50.73792],[-0.80448,50.73778]]]]}},
{ "type":"Feature","properties":{"osm_way_id":"619209258","amenity":"parking"},"geometry":{"type":"MultiPolygon","coordinates":[[[[-0.80736,50.73586],[-0.80726,50.73584],[-0.80734,50.73565],[-0.80745,50.73567],[-0.80736,50.73586]]]]}},
{ "type":"Feature","properties":{"osm_way_id":"619214178","amenity":"parking"},"geometry":{"type":"MultiPolygon","coordinates":[[[[-0.80727,50.73625],[-0.80717,50.73625],[-0.80716,50.73619],[-0.80717,50.73613],[-0.80718,50.73606],[-0.8072,50.736],[-0.80721,50.73595],[-0.80732,50.73596],[-0.80729,50.73605],[-0.80727,50.73625]]]]}},
{ "type":"Feature","properties":{"osm_way_id":"619214244","amenity":"parking","other":{"access":"customers","fee":"no","parking":"surface"}}, "geometry":{"type":"MultiPolygon","coordinates":[[[[-0.80567,50.73733],[-0.80572,50.73741],[-0.80546,50.73747],[-0.80539,50.7374],[-0.80567,50.73733]]]]}},
{ "type":"Feature","properties":{"osm_way_id":"619230645","amenity":"parking","other":{"access":"customers","fee":"no","parking":"surface"}}, "geometry":{"type":"MultiPolygon","coordinates":[[[[-0.80183,50.73805],[-0.80169,50.73781],[-0.80132,50.73786],[-0.8014,50.73796],[-0.80132,50.7381],[-0.80139,50.73811],[-0.80169,50.7381],[-0.80183,50.73805]]]]}},
{ "type":"Feature","properties":{"osm_way_id":"619289031","amenity":"parking","other":{"access":"customers","fee":"no","parking":"surface"}}, "geometry":{"type":"MultiPolygon","coordinates":[[[[-0.80744,50.73762],[-0.80753,50.73778],[-0.80767,50.73776],[-0.80773,50.73773],[-0.80777,50.7377],[-0.80784,50.73773],[-0.80801,50.7376],[-0.80793,50.73756],[-0.80779,50.73766],[-0.80775,50.73763],[-0.80772,50.73756],[-0.80775,50.73749],[-0.80778,50.73741],[-0.80744,50.73762]]]]}},
{ "type":"Feature","properties":{"osm_way_id":"619289032","amenity":"parking","other":{"access":"customers","fee":"no","parking":"surface"}}, "geometry":{"type":"MultiPolygon","coordinates":[[[[-0.80799,50.73839],[-0.80771,50.73849],[-0.80714,50.73807],[-0.80735,50.73793],[-0.80799,50.73839]]]]}},
{ "type":"Feature","properties":{"osm_way_id":"619289033","amenity":"parking","other":{"access":"customers","fee":"no","parking":"surface"}}, "geometry":{"type":"MultiPolygon","coordinates":[[[[-0.80893,50.73811],[-0.80873,50.73792],[-0.80829,50.73821],[-0.80834,50.73828],[-0.80893,50.73811]]]]}},
{ "type":"Feature","properties":{"osm_way_id":"620004217","amenity":"parking","other":{"access":"yes","capacity":"15","parking":"surface","surface":"gravel"}}, "geometry":{"type":"MultiPolygon","coordinates":[[[[-0.91404,50.84001],[-0.91401,50.84017],[-0.91368,50.84014],[-0.91359,50.8402],[-0.91352,50.84011],[-0.9137,50.84004],[-0.91374,50.84001],[-0.91375,50.83998],[-0.91374,50.83995],[-0.91374,50.83991],[-0.91393,50.83998],[-0.91402,50.83997],[-0.91404,50.84001]]]]}},
{ "type":"Feature","properties":{"osm_way_id":"620340558","amenity":"parking"},"geometry":{"type":"MultiPolygon","coordinates":[[[[-0.80789,50.73582],[-0.80784,50.73584],[-0.80779,50.73577],[-0.80781,50.73575],[-0.80786,50.73573],[-0.80792,50.73572],[-0.80797,50.73571],[-0.80803,50.73571],[-0.80808,50.73571],[-0.80813,50.73572],[-0.80813,50.73573],[-0.80812,50.73577],[-0.80811,50.73581],[-0.80802,50.7358],[-0.80789,50.73582]]]]}},
{ "type":"Feature","properties":{"osm_way_id":"620340559","amenity":"parking"},"geometry":{"type":"MultiPolygon","coordinates":[[[[-0.80793,50.7359],[-0.80795,50.73587],[-0.80799,50.73586],[-0.80805,50.73586],[-0.8081,50.73587],[-0.80813,50.73589],[-0.8082,50.73583],[-0.80811,50.73581],[-0.80802,50.7358],[-0.80789,50.73582],[-0.80784,50.73584],[-0.80793,50.7359]]]]}},
{ "type":"Feature","properties":{"osm_way_id":"620343771","amenity":"parking","other":{"access":"customers","fee":"no","parking":"surface"}}, "geometry":{"type":"MultiPolygon","coordinates":[[[[-0.80801,50.73665],[-0.80804,50.73671],[-0.80788,50.73674],[-0.80784,50.73669],[-0.80801,50.73665]]]]}},
{ "type":"Feature","properties":{"osm_way_id":"620372161","amenity":"parking","other":{"access":"customers","fee":"no","parking":"surface"}}, "geometry":{"type":"MultiPolygon","coordinates":[[[[-0.80864,50.73642],[-0.80855,50.73639],[-0.80836,50.73646],[-0.80841,50.73654],[-0.80859,50.73648],[-0.80864,50.73642]]]]}},
{ "type":"Feature","properties":{"osm_way_id":"620373288","amenity":"parking","other":{"access":"customers","fee":"no","parking":"surface"}}, "geometry":{"type":"MultiPolygon","coordinates":[[[[-0.80383,50.73912],[-0.80421,50.73891],[-0.80392,50.7387],[-0.80353,50.73891],[-0.80368,50.73902],[-0.80383,50.73912]]]]}},
{ "type":"Feature","properties":{"osm_way_id":"620373289","amenity":"parking","other":{"access":"customers","fee":"no","parking":"surface"}}, "geometry":{"type":"MultiPolygon","coordinates":[[[[-0.80434,50.73859],[-0.80424,50.73843],[-0.80413,50.73846],[-0.8042,50.73861],[-0.80434,50.73859]]]]}},
{ "type":"Feature","properties":{"osm_way_id":"621397953","amenity":"parking","other":{"access":"customers","fee":"no","parking":"surface"}}, "geometry":{"type":"MultiPolygon","coordinates":[[[[-0.80612,50.73776],[-0.80599,50.73774],[-0.80603,50.73759],[-0.80617,50.73759],[-0.80613,50.73772],[-0.80612,50.73776]]]]}},
{ "type":"Feature","properties":{"osm_way_id":"621397954","amenity":"parking","other":{"access":"customers","fee":"no","parking":"surface"}}, "geometry":{"type":"MultiPolygon","coordinates":[[[[-0.80613,50.73772],[-0.80625,50.73774],[-0.80627,50.73768],[-0.80628,50.73762],[-0.80627,50.73756],[-0.80626,50.73751],[-0.80624,50.73745],[-0.80621,50.73737],[-0.80618,50.73732],[-0.80607,50.73735],[-0.80612,50.73742],[-0.80617,50.73759],[-0.80613,50.73772]]]]}},
{ "type":"Feature","properties":{"osm_way_id":"624216798","amenity":"parking"},"geometry":{"type":"MultiPolygon","coordinates":[[[[-0.91826,50.83487],[-0.91773,50.83506],[-0.91764,50.83497],[-0.91818,50.83478],[-0.91826,50.83487]]]]}},
{ "type":"Feature","properties":{"osm_way_id":"624339391","amenity":"parking","other":{"access":"customers","parking":"surface"}}, "geometry":{"type":"MultiPolygon","coordinates":[[[[-0.66214,50.95811],[-0.66199,50.95798],[-0.66218,50.95792],[-0.66224,50.95798],[-0.66215,50.95809],[-0.66214,50.95811]]]]}},
{ "type":"Feature","properties":{"osm_way_id":"625362740","name":"Easton Lane Car Park","amenity":"parking","other":{"access":"yes","capacity":"12","fee":"no","operator":"RSPB","operator:type":"charitable","parking":"surface","supervised":"no","surface":"gravel"}}, "geometry":{"type":"MultiPolygon","coordinates":[[[[-0.81882,50.76457],[-0.81863,50.7645],[-0.81876,50.76436],[-0.81892,50.76442],[-0.81895,50.76443],[-0.81882,50.76457]]]]}},
{ "type":"Feature","properties":{"osm_way_id":"632613286","amenity":"parking","other":{"access":"private","capacity":"12","fee":"no","operator":"RNLI Selsey","parking":"surface","surface":"concrete"}}, "geometry":{"type":"MultiPolygon","coordinates":[[[[-0.78036,50.72841],[-0.78058,50.72836],[-0.78067,50.72834],[-0.78076,50.72831],[-0.78089,50.7283],[-0.78033,50.72816],[-0.78019,50.72822],[-0.78036,50.72841]]]]}},
{ "type":"Feature","properties":{"osm_way_id":"661682724","amenity":"parking","other":{"access":"customers","parking":"surface","surface":"gravel"}}, "geometry":{"type":"MultiPolygon","coordinates":[[[[-0.92448,50.88456],[-0.92493,50.88437],[-0.92447,50.88397],[-0.92431,50.88411],[-0.92431,50.8842],[-0.92431,50.8843],[-0.92424,50.88443],[-0.92448,50.88456]]]]}},
{ "type":"Feature","properties":{"osm_way_id":"666354573","amenity":"parking","other":{"access":"yes","capacity":"10","fee":"no","parking":"surface","surface":"gravel"}}, "geometry":{"type":"MultiPolygon","coordinates":[[[[-0.88466,50.9676],[-0.88448,50.96762],[-0.88456,50.96782],[-0.8846,50.96782],[-0.88466,50.9676]]]]}},
{ "type":"Feature","properties":{"osm_way_id":"672865785","amenity":"parking","other":{"opening_hours":"08:00-20:00","operator":"National Trust","parking":"surface","surface":"dirt"}}, "geometry":{"type":"MultiPolygon","coordinates":[[[[-0.68738,51.07021],[-0.68712,51.06996],[-0.68739,51.06985],[-0.68765,51.07009],[-0.68738,51.07021]]]]}},
{ "type":"Feature","properties":{"osm_way_id":"672865786","amenity":"parking","other":{"fee":"no","opening_hours":"08:00-20:00","operator":"National Trust","parking":"surface","surface":"dirt"}}, "geometry":{"type":"MultiPolygon","coordinates":[[[[-0.68757,51.06908],[-0.68757,51.06887],[-0.68723,51.06888],[-0.68723,51.06908],[-0.68757,51.06908]]]]}},
{ "type":"Feature","properties":{"osm_way_id":"674283061","amenity":"parking","other":{"fee":"no","parking":"surface","surface":"unpaved"}}, "geometry":{"type":"MultiPolygon","coordinates":[[[[-0.80801,50.73477],[-0.80808,50.73478],[-0.80801,50.73494],[-0.80795,50.73493],[-0.80801,50.73477]]]]}},
{ "type":"Feature","properties":{"osm_way_id":"674283064","amenity":"parking","other":{"access":"customers","fee":"no","parking":"surface","surface":"unpaved"}}, "geometry":{"type":"MultiPolygon","coordinates":[[[[-0.80048,50.73973],[-0.80037,50.73975],[-0.80026,50.73977],[-0.80019,50.73975],[-0.80012,50.73974],[-0.80003,50.73974],[-0.79995,50.73975],[-0.79993,50.73976],[-0.7999,50.73979],[-0.79985,50.73977],[-0.79981,50.73973],[-0.7998,50.73969],[-0.79979,50.73964],[-0.79982,50.73959],[-0.79987,50.73954],[-0.7999,50.7395],[-0.79995,50.73946],[-0.8,50.73949],[-0.80004,50.73948],[-0.8001,50.73946],[-0.80012,50.73944],[-0.80019,50.73945],[-0.80026,50.73949],[-0.80032,50.73954],[-0.80038,50.73961],[-0.80043,50.73966],[-0.80046,50.7397],[-0.80048,50.73973]]]]}},
{ "type":"Feature","properties":{"osm_way_id":"674283065","amenity":"parking","other":{"access":"customers","fee":"no","parking":"surface","surface":"grass"}}, "geometry":{"type":"MultiPolygon","coordinates":[[[[-0.80028,50.73923],[-0.80017,50.73941],[-0.8003,50.73948],[-0.80039,50.73953],[-0.80046,50.73961],[-0.80051,50.73967],[-0.80054,50.73969],[-0.80081,50.73967],[-0.80028,50.73923]]]]}},
{ "type":"Feature","properties":{"osm_way_id":"674283070","amenity":"parking","other":{"fee":"no","parking":"surface","surface":"asphalt"}}, "geometry":{"type":"MultiPolygon","coordinates":[[[[-0.78979,50.7401],[-0.78983,50.74001],[-0.78991,50.74003],[-0.78986,50.74011],[-0.78979,50.7401]]]]}},
{ "type":"Feature","properties":{"osm_way_id":"674283071","amenity":"parking","other":{"fee":"no","parking":"surface","surface":"asphalt"}}, "geometry":{"type":"MultiPolygon","coordinates":[[[[-0.78964,50.73913],[-0.78967,50.73908],[-0.78944,50.73901],[-0.78941,50.73906],[-0.78964,50.73913]]]]}},
{ "type":"Feature","properties":{"osm_way_id":"674283076","amenity":"parking","other":{"fee":"no","parking":"surface","surface":"asphalt"}}, "geometry":{"type":"MultiPolygon","coordinates":[[[[-0.79316,50.74005],[-0.79288,50.74034],[-0.79249,50.7402],[-0.79304,50.74001],[-0.79316,50.74005]]]]}},
{ "type":"Feature","properties":{"osm_way_id":"674283079","amenity":"parking","other":{"fee":"no","parking":"surface","surface":"asphalt"}}, "geometry":{"type":"MultiPolygon","coordinates":[[[[-0.78608,50.7404],[-0.78605,50.74046],[-0.78597,50.74046],[-0.78602,50.74038],[-0.78608,50.7404]]]]}},
{ "type":"Feature","properties":{"osm_way_id":"674283080","amenity":"parking","other":{"fee":"no","parking":"surface","surface":"asphalt"}}, "geometry":{"type":"MultiPolygon","coordinates":[[[[-0.78564,50.74085],[-0.78567,50.74078],[-0.7856,50.74076],[-0.78555,50.74083],[-0.78564,50.74085]]]]}},
{ "type":"Feature","properties":{"osm_way_id":"674283081","amenity":"parking","other":{"fee":"no","parking":"surface","surface":"asphalt"}}, "geometry":{"type":"MultiPolygon","coordinates":[[[[-0.78572,50.74111],[-0.78572,50.74115],[-0.7856,50.74115],[-0.7856,50.74111],[-0.78572,50.74111]]]]}},
{ "type":"Feature","properties":{"osm_way_id":"674283082","amenity":"parking","other":{"fee":"no","parking":"surface","surface":"asphalt"}}, "geometry":{"type":"MultiPolygon","coordinates":[[[[-0.78538,50.74111],[-0.7853,50.74102],[-0.78538,50.741],[-0.78545,50.74109],[-0.78538,50.74111]]]]}},
{ "type":"Feature","properties":{"osm_way_id":"674283083","amenity":"parking","other":{"fee":"no","parking":"surface","surface":"asphalt"}}, "geometry":{"type":"MultiPolygon","coordinates":[[[[-0.78604,50.74091],[-0.78604,50.74087],[-0.7861,50.74087],[-0.7861,50.74092],[-0.78604,50.74091]]]]}},
{ "type":"Feature","properties":{"osm_way_id":"674283084","amenity":"parking","other":{"fee":"no","parking":"surface","surface":"asphalt"}}, "geometry":{"type":"MultiPolygon","coordinates":[[[[-0.78608,50.74073],[-0.78609,50.74068],[-0.78619,50.74067],[-0.78617,50.74073],[-0.78608,50.74073]]]]}},
{ "type":"Feature","properties":{"osm_way_id":"674283085","amenity":"parking","other":{"fee":"no","parking":"surface","surface":"asphalt"}}, "geometry":{"type":"MultiPolygon","coordinates":[[[[-0.78653,50.74012],[-0.78653,50.74016],[-0.78647,50.74017],[-0.78645,50.74012],[-0.78653,50.74012]]]]}},
{ "type":"Feature","properties":{"osm_way_id":"674283086","amenity":"parking","other":{"fee":"no","parking":"surface","surface":"asphalt"}}, "geometry":{"type":"MultiPolygon","coordinates":[[[[-0.78647,50.74148],[-0.78652,50.7415],[-0.78655,50.74146],[-0.78649,50.74144],[-0.78647,50.74148]]]]}},
{ "type":"Feature","properties":{"osm_way_id":"674283087","amenity":"parking","other":{"fee":"no","parking":"surface","surface":"asphalt"}}, "geometry":{"type":"MultiPolygon","coordinates":[[[[-0.78635,50.73998],[-0.78642,50.73998],[-0.78645,50.73987],[-0.78637,50.73987],[-0.78635,50.73998]]]]}},
{ "type":"Feature","properties":{"osm_way_id":"674283088","amenity":"parking","other":{"fee":"no","parking":"surface","surface":"asphalt"}}, "geometry":{"type":"MultiPolygon","coordinates":[[[[-0.78661,50.73992],[-0.78666,50.73979],[-0.78658,50.73978],[-0.78652,50.73991],[-0.78661,50.73992]]]]}},
{ "type":"Feature","properties":{"osm_way_id":"674289691","amenity":"parking","other":{"fee":"no","parking":"surface","surface":"asphalt"}}, "geometry":{"type":"MultiPolygon","coordinates":[[[[-0.78864,50.73946],[-0.78863,50.7395],[-0.78862,50.73951],[-0.7885,50.7395],[-0.78851,50.73945],[-0.78864,50.73946]]]]}},
{ "type":"Feature","properties":{"osm_way_id":"674289692","amenity":"parking","other":{"fee":"no","parking":"surface","surface":"asphalt"}}, "geometry":{"type":"MultiPolygon","coordinates":[[[[-0.78913,50.73967],[-0.78911,50.73968],[-0.78905,50.73974],[-0.78909,50.73975],[-0.78918,50.73969],[-0.78913,50.73967]]]]}},
{ "type":"Feature","properties":{"osm_way_id":"674289693","amenity":"parking","other":{"fee":"no","parking":"surface","surface":"grass"}}, "geometry":{"type":"MultiPolygon","coordinates":[[[[-0.78918,50.73975],[-0.7892,50.73979],[-0.78913,50.73981],[-0.78911,50.73979],[-0.78918,50.73975]]]]}},
{ "type":"Feature","properties":{"osm_way_id":"674289694","amenity":"parking","other":{"fee":"no","parking":"surface","surface":"grass"}}, "geometry":{"type":"MultiPolygon","coordinates":[[[[-0.78915,50.73988],[-0.78917,50.73984],[-0.78908,50.73983],[-0.78906,50.73986],[-0.78915,50.73988]]]]}},
{ "type":"Feature","properties":{"osm_way_id":"674289695","amenity":"parking","other":{"fee":"no","parking":"surface","surface":"grass"}}, "geometry":{"type":"MultiPolygon","coordinates":[[[[-0.79104,50.73896],[-0.79103,50.73898],[-0.79085,50.73894],[-0.79086,50.73892],[-0.79104,50.73896]]]]}},
{ "type":"Feature","properties":{"osm_way_id":"674289696","amenity":"parking","other":{"fee":"no","parking":"surface","surface":"asphalt"}}, "geometry":{"type":"MultiPolygon","coordinates":[[[[-0.79103,50.7388],[-0.79101,50.73884],[-0.79081,50.73881],[-0.79084,50.73877],[-0.79103,50.7388]]]]}},
{ "type":"Feature","properties":{"osm_way_id":"674289698","amenity":"parking","other":{"fee":"no","parking":"surface","surface":"dirt"}}, "geometry":{"type":"MultiPolygon","coordinates":[[[[-0.79432,50.74066],[-0.79496,50.73973],[-0.79506,50.73975],[-0.79443,50.74068],[-0.79432,50.74066]]]]}},
{ "type":"Feature","properties":{"osm_way_id":"674289701","amenity":"parking","other":{"fee":"no","parking":"surface","surface":"asphalt"}}, "geometry":{"type":"MultiPolygon","coordinates":[[[[-0.79663,50.73927],[-0.79684,50.73929],[-0.79687,50.73915],[-0.79682,50.73915],[-0.79666,50.73914],[-0.79663,50.73927]]]]}},
{ "type":"Feature","properties":{"osm_way_id":"674289702","amenity":"parking","other":{"fee":"no","parking":"surface","surface":"asphalt"}}, "geometry":{"type":"MultiPolygon","coordinates":[[[[-0.79768,50.73938],[-0.79766,50.73935],[-0.79771,50.73928],[-0.79776,50.73922],[-0.79781,50.73923],[-0.79776,50.73932],[-0.79773,50.73937],[-0.79768,50.73938]]]]}},
{ "type":"Feature","properties":{"osm_way_id":"674289706","amenity":"parking","other":{"fee":"no","parking":"surface","surface":"asphalt"}}, "geometry":{"type":"MultiPolygon","coordinates":[[[[-0.79507,50.73918],[-0.79515,50.739],[-0.79529,50.7387],[-0.79533,50.73871],[-0.79512,50.73919],[-0.79507,50.73918]]]]}},
{ "type":"Feature","properties":{"osm_way_id":"674289707","amenity":"parking","other":{"fee":"no","parking":"surface","surface":"asphalt"}}, "geometry":{"type":"MultiPolygon","coordinates":[[[[-0.79532,50.73905],[-0.79535,50.73898],[-0.79528,50.73897],[-0.79525,50.73905],[-0.79532,50.73905]]]]}},
{ "type":"Feature","properties":{"osm_way_id":"674289709","amenity":"parking","other":{"fee":"no","parking":"surface","surface":"asphalt"}}, "geometry":{"type":"MultiPolygon","coordinates":[[[[-0.79497,50.73943],[-0.79494,50.73946],[-0.79487,50.73947],[-0.79479,50.73947],[-0.79471,50.73946],[-0.79465,50.73946],[-0.79462,50.73945],[-0.79459,50.73943],[-0.79497,50.73943]]]]}},
{ "type":"Feature","properties":{"osm_way_id":"674289710","amenity":"parking","other":{"fee":"no","parking":"surface","surface":"asphalt"}}, "geometry":{"type":"MultiPolygon","coordinates":[[[[-0.79457,50.73943],[-0.79451,50.73946],[-0.7944,50.73944],[-0.79429,50.73941],[-0.7942,50.73938],[-0.79413,50.73935],[-0.79402,50.7393],[-0.79394,50.73925],[-0.79388,50.7392],[-0.79381,50.73914],[-0.79379,50.73911],[-0.79383,50.73909],[-0.79395,50.7392],[-0.79403,50.73925],[-0.79409,50.7393],[-0.79418,50.73934],[-0.79428,50.73938],[-0.7944,50.73942],[-0.79452,50.73943],[-0.79457,50.73943]]]]}},
{ "type":"Feature","properties":{"osm_way_id":"674289713","amenity":"parking","other":{"fee":"no","parking":"surface","surface":"asphalt"}}, "geometry":{"type":"MultiPolygon","coordinates":[[[[-0.79445,50.73747],[-0.79427,50.7377],[-0.79405,50.73767],[-0.79404,50.73764],[-0.79402,50.73758],[-0.79405,50.73742],[-0.79445,50.73747]]]]}},
{ "type":"Feature","properties":{"osm_way_id":"674289718","amenity":"parking","other":{"fee":"no","parking":"surface","surface":"asphalt"}}, "geometry":{"type":"MultiPolygon","coordinates":[[[[-0.788,50.73852],[-0.78774,50.73869],[-0.78778,50.73879],[-0.78804,50.73862],[-0.788,50.73852]]]]}},
{ "type":"Feature","properties":{"osm_way_id":"688729755","amenity":"parking","other":{"access":"yes","parking":"surface","surface":"asphalt"}}, "geometry":{"type":"MultiPolygon","coordinates":[[[[-0.7621,50.8359],[-0.76218,50.83588],[-0.76244,50.83586],[-0.76242,50.83573],[-0.7622,50.83574],[-0.76218,50.83562],[-0.76188,50.83564],[-0.76196,50.83586],[-0.76203,50.83587],[-0.76209,50.83586],[-0.7621,50.8359]]]]}},
{ "type":"Feature","properties":{"osm_way_id":"690210544","amenity":"parking"},"geometry":{"type":"MultiPolygon","coordinates":[[[[-0.62969,50.95129],[-0.62978,50.95113],[-0.62929,50.95107],[-0.62926,50.95116],[-0.62941,50.95118],[-0.62951,50.95122],[-0.6295,50.95126],[-0.62961,50.95125],[-0.62967,50.95128],[-0.62969,50.95129]]]]}},
{ "type":"Feature","properties":{"osm_way_id":"691715968","amenity":"parking","other":{"fee":"no","opening_hours":"08:00-20:00","operator":"National Trust","parking":"surface","surface":"dirt"}}, "geometry":{"type":"MultiPolygon","coordinates":[[[[-0.68488,51.06776],[-0.68513,51.06749],[-0.68485,51.06747],[-0.68468,51.06763],[-0.68464,51.06778],[-0.68488,51.06776]]]]}},
{ "type":"Feature","properties":{"osm_way_id":"696139531","amenity":"parking","other":{"access":"customers"}}, "geometry":{"type":"MultiPolygon","coordinates":[[[[-0.66459,51.0365],[-0.66462,51.03655],[-0.66467,51.03654],[-0.66471,51.0366],[-0.66465,51.03662],[-0.66467,51.03665],[-0.66456,51.03668],[-0.66449,51.03669],[-0.66441,51.03657],[-0.66438,51.03657],[-0.66439,51.03638],[-0.66446,51.03635],[-0.66454,51.03635],[-0.66454,51.03644],[-0.66457,51.03647],[-0.66459,51.0365]]]]}},
{ "type":"Feature","properties":{"osm_way_id":"696139595","amenity":"parking","other":{"access":"customers"}}, "geometry":{"type":"MultiPolygon","coordinates":[[[[-0.66485,51.03408],[-0.66483,51.03391],[-0.66457,51.03393],[-0.66457,51.03409],[-0.66485,51.03408]]]]}},
{ "type":"Feature","properties":{"osm_way_id":"708192360","amenity":"parking","other":{"access":"customers","fee":"no","operator":"St Georges Church","operator:type":"religious","parking":"surface","surface":"asphalt"}}, "geometry":{"type":"MultiPolygon","coordinates":[[[[-0.76626,50.8329],[-0.76634,50.83269],[-0.76615,50.83266],[-0.76606,50.83287],[-0.76626,50.8329]]]]}},
{ "type":"Feature","properties":{"osm_way_id":"708228094","amenity":"parking","other":{"access":"customers","operator":"Seaman.","operator:type":"business","parking":"surface"}}, "geometry":{"type":"MultiPolygon","coordinates":[[[[-0.8167,50.80013],[-0.81694,50.80001],[-0.81686,50.79995],[-0.81684,50.79996],[-0.81657,50.79976],[-0.81636,50.79987],[-0.8167,50.80013]]]]}},
{ "type":"Feature","properties":{"osm_way_id":"713887435","amenity":"parking","other":{"access":"private"}}, "geometry":{"type":"MultiPolygon","coordinates":[[[[-0.48927,51.03499],[-0.48924,51.03502],[-0.48929,51.03519],[-0.48952,51.03516],[-0.48954,51.03521],[-0.48982,51.03518],[-0.49009,51.03515],[-0.49058,51.03508],[-0.49066,51.03493],[-0.4907,51.03486],[-0.49043,51.03482],[-0.49034,51.03483],[-0.49019,51.03484],[-0.48948,51.03496],[-0.48946,51.03499],[-0.48939,51.03501],[-0.48935,51.03498],[-0.48927,51.03499]]]]}},
{ "type":"Feature","properties":{"osm_way_id":"753145222","amenity":"parking","other":{"access":"private","fee":"no","operator":"Kingdom Hall of Jehovah's Witnesses","operator:type":"private","parking":"surface","surface":"gravel"}}, "geometry":{"type":"MultiPolygon","coordinates":[[[[-0.74756,50.98106],[-0.74781,50.98126],[-0.74763,50.98134],[-0.74716,50.9811],[-0.74742,50.98098],[-0.74753,50.98107],[-0.74756,50.98106]]]]}},
{ "type":"Feature","properties":{"osm_way_id":"776181242","amenity":"parking","other":{"access":"customers","fee":"no","parking":"surface"}}, "geometry":{"type":"MultiPolygon","coordinates":[[[[-0.77081,50.83784],[-0.77108,50.8382],[-0.77097,50.83822],[-0.77072,50.83788],[-0.77081,50.83784]]]]}},
{ "type":"Feature","properties":{"osm_way_id":"778556155","amenity":"parking","other":{"access":"private","capacity":"20","fee":"no","parking":"surface","surface":"compacted"}}, "geometry":{"type":"MultiPolygon","coordinates":[[[[-0.77657,50.90668],[-0.77661,50.90671],[-0.77661,50.90674],[-0.77659,50.90679],[-0.77652,50.90681],[-0.77646,50.90684],[-0.77636,50.90689],[-0.77623,50.90677],[-0.77636,50.90672],[-0.77643,50.90667],[-0.77646,50.90663],[-0.77651,50.90661],[-0.77653,50.90665],[-0.77657,50.90668]]]]}},
{ "type":"Feature","properties":{"osm_way_id":"779101625","amenity":"parking","other":{"access":"private","fee":"no","parking":"surface","surface":"asphalt"}}, "geometry":{"type":"MultiPolygon","coordinates":[[[[-0.75758,50.83898],[-0.75813,50.83905],[-0.75818,50.83889],[-0.75763,50.83882],[-0.75758,50.83898]]]]}},
{ "type":"Feature","properties":{"osm_way_id":"779101690","amenity":"parking","other":{"access":"private","fee":"no","parking":"surface","surface":"asphalt"}}, "geometry":{"type":"MultiPolygon","coordinates":[[[[-0.75832,50.8395],[-0.75864,50.83935],[-0.75849,50.83923],[-0.75818,50.83937],[-0.75832,50.8395]]]]}},
{ "type":"Feature","properties":{"osm_way_id":"779101872","amenity":"parking","other":{"access":"private","fee":"no","parking":"surface","surface":"asphalt"}}, "geometry":{"type":"MultiPolygon","coordinates":[[[[-0.75649,50.83942],[-0.75692,50.83927],[-0.7568,50.83913],[-0.75636,50.83929],[-0.75649,50.83942]]]]}},
{ "type":"Feature","properties":{"osm_way_id":"779541894","amenity":"parking","other":{"access":"private","fee":"no","parking":"surface","surface":"asphalt"}}, "geometry":{"type":"MultiPolygon","coordinates":[[[[-0.75681,50.8386],[-0.75708,50.83851],[-0.75687,50.83827],[-0.7566,50.83836],[-0.75681,50.8386]]]]}},
{ "type":"Feature","properties":{"osm_way_id":"795139045","amenity":"parking","other":{"access":"permissive","capacity":"8","fee":"no","operator":"Hare & Hounds Pub","parking":"surface","surface":"asphalt"}}, "geometry":{"type":"MultiPolygon","coordinates":[[[[-0.85961,50.89747],[-0.85943,50.89752],[-0.85936,50.89745],[-0.85955,50.8974],[-0.85961,50.89747]]]]}},
{ "type":"Feature","properties":{"osm_way_id":"815930598","amenity":"parking","other":{"parking":"surface","surface":"unpaved"}}, "geometry":{"type":"MultiPolygon","coordinates":[[[[-0.87528,50.9563],[-0.8751,50.9564],[-0.87502,50.95634],[-0.87521,50.95624],[-0.87528,50.9563]]]]}},
{ "type":"Feature","properties":{"osm_way_id":"826616933","amenity":"parking","other":{"parking":"surface","surface":"grass"}}, "geometry":{"type":"MultiPolygon","coordinates":[[[[-0.76179,50.90891],[-0.76165,50.90865],[-0.76183,50.90861],[-0.76175,50.90851],[-0.76246,50.90834],[-0.76254,50.90845],[-0.76266,50.90851],[-0.76286,50.90852],[-0.76306,50.90847],[-0.76313,50.90838],[-0.76334,50.90834],[-0.7636,50.90895],[-0.76339,50.90896],[-0.76334,50.90885],[-0.76316,50.9089],[-0.76315,50.90896],[-0.76267,50.90894],[-0.76242,50.9089],[-0.76218,50.90888],[-0.76179,50.90891]]]]}},
{ "type":"Feature","properties":{"osm_way_id":"830796928","amenity":"parking","other":{"parking":"surface"}}, "geometry":{"type":"MultiPolygon","coordinates":[[[[-0.81066,50.73848],[-0.81072,50.7385],[-0.81083,50.73862],[-0.8109,50.73864],[-0.81113,50.73837],[-0.81083,50.73831],[-0.81066,50.73848]]]]}},
{ "type":"Feature","properties":{"osm_way_id":"830796929","amenity":"parking"},"geometry":{"type":"MultiPolygon","coordinates":[[[[-0.8109,50.73818],[-0.81123,50.73825],[-0.81129,50.73815],[-0.81106,50.73809],[-0.81113,50.73792],[-0.81101,50.7379],[-0.81095,50.73805],[-0.8109,50.73818]]]]}},
{ "type":"Feature","properties":{"osm_way_id":"830796930","amenity":"parking"},"geometry":{"type":"MultiPolygon","coordinates":[[[[-0.81095,50.73805],[-0.81077,50.73801],[-0.81073,50.73809],[-0.81062,50.73828],[-0.81069,50.7383],[-0.81042,50.7385],[-0.81047,50.73858],[-0.81066,50.73848],[-0.81081,50.73833],[-0.81095,50.73805]]]]}},
{ "type":"Feature","properties":{"osm_way_id":"832593265","amenity":"parking","other":{"access":"customers","parking":"surface"}}, "geometry":{"type":"MultiPolygon","coordinates":[[[[-0.61931,50.9648],[-0.61956,50.96463],[-0.61969,50.96464],[-0.61937,50.96487],[-0.61931,50.9648]]]]}},
{ "type":"Feature","properties":{"osm_way_id":"835487035","amenity":"parking"},"geometry":{"type":"MultiPolygon","coordinates":[[[[-0.75116,50.85905],[-0.75118,50.85892],[-0.75126,50.85886],[-0.75148,50.85887],[-0.75162,50.8589],[-0.75162,50.85905],[-0.75116,50.85905]]]]}},
{ "type":"Feature","properties":{"osm_way_id":"844773640","amenity":"parking"},"geometry":{"type":"MultiPolygon","coordinates":[[[[-0.90727,50.84686],[-0.90742,50.84686],[-0.90743,50.84691],[-0.9078,50.84692],[-0.90781,50.84668],[-0.90763,50.84668],[-0.90731,50.84656],[-0.90729,50.84658],[-0.90727,50.84686]]]]}},
{ "type":"Feature","properties":{"osm_way_id":"846899897","amenity":"parking","other":{"access":"yes"}}, "geometry":{"type":"MultiPolygon","coordinates":[[[[-0.6846,51.58849],[-0.68459,51.58857],[-0.68453,51.58875],[-0.68433,51.58872],[-0.6842,51.5887],[-0.68419,51.5887],[-0.68415,51.58869],[-0.68421,51.58845],[-0.6846,51.58849]]]]}},
{ "type":"Feature","properties":{"osm_way_id":"857249093","amenity":"parking"},"geometry":{"type":"MultiPolygon","coordinates":[[[[-0.82502,50.8043],[-0.82453,50.80417],[-0.82454,50.80411],[-0.82459,50.80404],[-0.82511,50.80417],[-0.82502,50.8043]]]]}},
{ "type":"Feature","properties":{"osm_way_id":"857340489","amenity":"parking","other":{"parking":"surface","surface":"asphalt"}}, "geometry":{"type":"MultiPolygon","coordinates":[[[[-0.88165,50.96774],[-0.88216,50.96773],[-0.88215,50.96758],[-0.88177,50.96759],[-0.88177,50.96765],[-0.88166,50.96765],[-0.88164,50.96766],[-0.88162,50.96767],[-0.8816,50.96767],[-0.88157,50.96765],[-0.88157,50.9677],[-0.88165,50.9677],[-0.88165,50.96774]]]]}},
{ "type":"Feature","properties":{"osm_way_id":"857758035","amenity":"parking","other":{"access":"yes","fee":"no","parking":"surface","surface":"compacted"}}, "geometry":{"type":"MultiPolygon","coordinates":[[[[-0.61607,50.90787],[-0.61617,50.9079],[-0.61631,50.90783],[-0.61627,50.90779],[-0.61684,50.90747],[-0.6167,50.90738],[-0.61636,50.90758],[-0.61596,50.90779],[-0.61599,50.90783],[-0.61607,50.90787]]]]}},
{ "type":"Feature","properties":{"osm_way_id":"858268140","amenity":"parking"},"geometry":{"type":"MultiPolygon","coordinates":[[[[-0.73547,50.86511],[-0.73518,50.86523],[-0.73512,50.86514],[-0.73509,50.86501],[-0.73526,50.86486],[-0.73547,50.86511]]]]}},
{ "type":"Feature","properties":{"osm_way_id":"858276026","amenity":"parking"},"geometry":{"type":"MultiPolygon","coordinates":[[[[-0.74856,50.85238],[-0.74841,50.85239],[-0.74824,50.85239],[-0.74802,50.85237],[-0.74783,50.85233],[-0.74765,50.85229],[-0.74749,50.85223],[-0.74741,50.85218],[-0.74736,50.85212],[-0.74725,50.85176],[-0.74725,50.85171],[-0.74728,50.85168],[-0.7474,50.8516],[-0.74754,50.85149],[-0.74779,50.85087],[-0.74788,50.85077],[-0.74774,50.85064],[-0.74781,50.85061],[-0.74785,50.85054],[-0.74805,50.85045],[-0.74812,50.85041],[-0.74839,50.85066],[-0.74858,50.85093],[-0.74864,50.85104],[-0.74845,50.85119],[-0.74859,50.85153],[-0.74878,50.85207],[-0.74856,50.85238]]]]}},
{ "type":"Feature","properties":{"osm_way_id":"859017474","amenity":"parking"},"geometry":{"type":"MultiPolygon","coordinates":[[[[-0.75407,50.86422],[-0.75379,50.86421],[-0.75379,50.86425],[-0.75328,50.86423],[-0.75321,50.86412],[-0.75387,50.86387],[-0.75391,50.86386],[-0.7541,50.86384],[-0.75407,50.86422]]]]}},
{ "type":"Feature","properties":{"osm_way_id":"867932556","amenity":"parking","other":{"access":"private","operator":"Pontefract Academy Trust","operator:type":"school","parking":"surface"}}, "geometry":{"type":"MultiPolygon","coordinates":[[[[-1.32625,53.68936],[-1.32601,53.68942],[-1.32595,53.68945],[-1.32576,53.68954],[-1.32575,53.68955],[-1.32557,53.68941],[-1.32579,53.68931],[-1.32611,53.68922],[-1.32625,53.68936]]]]}},
{ "type":"Feature","properties":{"osm_way_id":"868636527","amenity":"parking"},"geometry":{"type":"MultiPolygon","coordinates":[[[[0.89361,51.14492],[0.89392,51.14479],[0.89401,51.14485],[0.89408,51.14481],[0.89404,51.14477],[0.89405,51.14476],[0.89398,51.1447],[0.89397,51.1447],[0.89392,51.14466],[0.89354,51.14483],[0.89352,51.14485],[0.89353,51.14486],[0.89361,51.14492]]]]}},
{ "type":"Feature","properties":{"osm_way_id":"869097484","amenity":"parking","other":{"parking":"surface"}}, "geometry":{"type":"MultiPolygon","coordinates":[[[[-0.78739,50.77416],[-0.78772,50.77403],[-0.78754,50.77385],[-0.78788,50.77375],[-0.788,50.77395],[-0.78789,50.77398],[-0.78794,50.77406],[-0.78804,50.77403],[-0.7881,50.77411],[-0.78753,50.77434],[-0.78739,50.77416]]]]}},
{ "type":"Feature","properties":{"osm_way_id":"874769389","amenity":"parking","other":{"access":"restricted","operator":"Nunnington Farm","parking":"surface","surface":"gravel"}}, "geometry":{"type":"MultiPolygon","coordinates":[[[[-0.88797,50.78401],[-0.88778,50.78405],[-0.88754,50.78355],[-0.88776,50.78347],[-0.88797,50.78401]]]]}},
{ "type":"Feature","properties":{"osm_way_id":"884403684","amenity":"parking","other":{"access":"customers","fee":"no","parking":"surface"}}, "geometry":{"type":"MultiPolygon","coordinates":[[[[-0.89024,51.00306],[-0.89018,51.00275],[-0.89031,51.00274],[-0.89023,51.0025],[-0.88978,51.00249],[-0.88975,51.00252],[-0.88974,51.00271],[-0.88973,51.00285],[-0.88973,51.00301],[-0.88973,51.00307],[-0.88973,51.00308],[-0.8899,51.00309],[-0.89005,51.00304],[-0.8901,51.00304],[-0.89013,51.00305],[-0.89015,51.00306],[-0.89024,51.00306]]]]}},
{ "type":"Feature","properties":{"osm_way_id":"886779162","amenity":"parking","other":{"access":"permissive","fee":"no","operator":"Cocking village hall.","parking":"surface","surface":"asphalt"}}, "geometry":{"type":"MultiPolygon","coordinates":[[[[-0.75578,50.95228],[-0.75573,50.95244],[-0.75551,50.9524],[-0.75529,50.95244],[-0.75518,50.95244],[-0.75496,50.9524],[-0.75497,50.95239],[-0.75514,50.95232],[-0.75523,50.95219],[-0.75578,50.95228]]]]}},
{ "type":"Feature","properties":{"osm_way_id":"888954721","amenity":"parking","other":{"fee":"no","surface":"ground"}}, "geometry":{"type":"MultiPolygon","coordinates":[[[[-0.89872,50.92501],[-0.89848,50.92498],[-0.89854,50.92463],[-0.89874,50.92464],[-0.89872,50.92501]]]]}},
{ "type":"Feature","properties":{"osm_way_id":"889024197","amenity":"parking","other":{"access":"private","layer":"-1","parking":"underground","surface":"concrete"}}, "geometry":{"type":"MultiPolygon","coordinates":[[[[-0.74926,51.01711],[-0.7491,51.01713],[-0.74845,51.01719],[-0.74826,51.01642],[-0.74909,51.01635],[-0.74926,51.01711]]]]}},
{ "type":"Feature","properties":{"osm_way_id":"889024907","amenity":"parking","other":{"parking":"surface"}}, "geometry":{"type":"MultiPolygon","coordinates":[[[[-0.74618,51.01764],[-0.74494,51.01774],[-0.74491,51.01743],[-0.74611,51.01732],[-0.74618,51.01764]]]]}},
{ "type":"Feature","properties":{"osm_way_id":"889630857","amenity":"parking","other":{"access":"private","parking":"surface","surface":"concrete"}}, "geometry":{"type":"MultiPolygon","coordinates":[[[[-0.76888,50.84856],[-0.76891,50.84856],[-0.76895,50.84856],[-0.76895,50.84855],[-0.76908,50.84848],[-0.76913,50.84852],[-0.76926,50.84846],[-0.7691,50.84834],[-0.76886,50.84846],[-0.76879,50.8485],[-0.76888,50.84856]]]]}},
{ "type":"Feature","properties":{"osm_way_id":"890832833","amenity":"parking","other":{"fee":"no","operator":"Selsey Golf Club","operator:type":"private","parking":"surface"}}, "geometry":{"type":"MultiPolygon","coordinates":[[[[-0.79022,50.74364],[-0.78983,50.74338],[-0.78962,50.74343],[-0.78954,50.74344],[-0.78944,50.74328],[-0.78923,50.74335],[-0.78927,50.74351],[-0.78945,50.74349],[-0.78961,50.7439],[-0.7894,50.74397],[-0.78946,50.74403],[-0.7899,50.7439],[-0.79018,50.74373],[-0.79014,50.7437],[-0.79022,50.74364]]]]}},
{ "type":"Feature","properties":{"osm_way_id":"893394585","amenity":"parking","other":{"access":"customers","parking":"surface"}}, "geometry":{"type":"MultiPolygon","coordinates":[[[[-0.79059,50.8174],[-0.79081,50.81741],[-0.79081,50.81738],[-0.79081,50.81736],[-0.79072,50.81735],[-0.79073,50.81728],[-0.7906,50.81728],[-0.79059,50.8174]]]]}},
{ "type":"Feature","properties":{"osm_way_id":"898635802","amenity":"parking"},"geometry":{"type":"MultiPolygon","coordinates":[[[[-0.75585,50.83903],[-0.75593,50.83899],[-0.75582,50.83887],[-0.75573,50.83891],[-0.75585,50.83903]]]]}},
{ "type":"Feature","properties":{"osm_way_id":"898635804","amenity":"parking"},"geometry":{"type":"MultiPolygon","coordinates":[[[[-0.75612,50.83921],[-0.75606,50.83923],[-0.75598,50.83915],[-0.75604,50.83912],[-0.75612,50.83921]]]]}},
{ "type":"Feature","properties":{"osm_way_id":"906284029","amenity":"parking"},"geometry":{"type":"MultiPolygon","coordinates":[[[[-0.67027,50.97719],[-0.67001,50.97719],[-0.67002,50.97693],[-0.67029,50.97694],[-0.67027,50.97719]]]]}},
{ "type":"Feature","properties":{"osm_way_id":"907532382","amenity":"parking","other":{"access":"yes","fee":"no","parking":"surface","surface":"asphalt"}}, "geometry":{"type":"MultiPolygon","coordinates":[[[[-0.68454,51.00048],[-0.68401,51.0005],[-0.68381,51.00055],[-0.68378,51.0005],[-0.68376,51.00036],[-0.68452,51.00033],[-0.68454,51.00048]]]]}},
{ "type":"Feature","properties":{"osm_way_id":"909363501","name":"Medmerry Nature Reserve Main Car Park","amenity":"parking","other":{"access":"yes","fee":"no","operator":"RSPB","operator:type":"charitable","parking":"surface","surface":"gravel"}}, "geometry":{"type":"MultiPolygon","coordinates":[[[[-0.84378,50.76399],[-0.84377,50.76395],[-0.84379,50.76392],[-0.84381,50.76388],[-0.84374,50.76384],[-0.84394,50.76376],[-0.84403,50.76376],[-0.84412,50.76379],[-0.84419,50.76382],[-0.84424,50.76387],[-0.84417,50.7639],[-0.84425,50.76391],[-0.84425,50.76398],[-0.84419,50.76398],[-0.84411,50.76403],[-0.84414,50.76417],[-0.84397,50.76418],[-0.84395,50.76409],[-0.84388,50.76409],[-0.84386,50.76403],[-0.84384,50.76401],[-0.84381,50.76399],[-0.84378,50.76399]]]]}},
{ "type":"Feature","properties":{"osm_way_id":"912164414","amenity":"parking","other":{"access":"permissive","fee":"no","operator":"Durleigh Marsh Farm","operator:type":"public","parking":"surface","surface":"unpaved"}}, "geometry":{"type":"MultiPolygon","coordinates":[[[[-0.88297,51.00793],[-0.88301,51.00781],[-0.88232,51.00772],[-0.8823,51.00778],[-0.88221,51.00777],[-0.8821,51.00776],[-0.88205,51.00787],[-0.88233,51.00791],[-0.8823,51.00801],[-0.88279,51.00806],[-0.88284,51.00791],[-0.88297,51.00793]]]]}},
{ "type":"Feature","properties":{"osm_way_id":"914113771","amenity":"parking","other":{"access":"yes","fee":"no","parking":"surface","surface":"asphalt"}}, "geometry":{"type":"MultiPolygon","coordinates":[[[[-0.51832,51.06359],[-0.51839,51.06332],[-0.51845,51.06333],[-0.51904,51.06342],[-0.51893,51.0635],[-0.51893,51.06356],[-0.51892,51.0636],[-0.51842,51.06359],[-0.51832,51.06359]]]]}},
{ "type":"Feature","properties":{"osm_way_id":"931699574","amenity":"parking","other":{"access":"customers","parking":"surface","surface":"gravel"}}, "geometry":{"type":"MultiPolygon","coordinates":[[[[-0.73509,51.08304],[-0.73477,51.08299],[-0.7348,51.0829],[-0.73482,51.08285],[-0.73518,51.08291],[-0.73515,51.08298],[-0.73509,51.08304]]]]}},
{ "type":"Feature","properties":{"osm_way_id":"937417684","amenity":"parking","other":{"access":"customers","fee":"no","operator":"Lidl.","parking":"surface","surface":"asphalt"}}, "geometry":{"type":"MultiPolygon","coordinates":[[[[-0.76044,50.84374],[-0.76102,50.84364],[-0.7611,50.84362],[-0.76101,50.84342],[-0.76107,50.84341],[-0.7609,50.84303],[-0.76084,50.84304],[-0.76074,50.84283],[-0.76078,50.84283],[-0.76086,50.84281],[-0.7612,50.84275],[-0.76116,50.84265],[-0.76072,50.84273],[-0.76069,50.84274],[-0.76064,50.84279],[-0.76039,50.84283],[-0.76019,50.84303],[-0.76018,50.84317],[-0.76044,50.84374]]]]}},
{ "type":"Feature","properties":{"osm_way_id":"972219846","amenity":"parking","other":{"access":"permissive","capacity":"52","fee":"yes","parking":"surface","surface":"dirt"}}, "geometry":{"type":"MultiPolygon","coordinates":[[[[-0.92902,50.84235],[-0.92861,50.84237],[-0.92852,50.84197],[-0.92895,50.84194],[-0.92902,50.84235]]]]}},
{ "type":"Feature","properties":{"osm_way_id":"972219860","amenity":"parking","other":{"access":"permissive","fee":"no","operator":"Twopenny Barn","operator:type":"charitable","surface":"dirt"}}, "geometry":{"type":"MultiPolygon","coordinates":[[[[-0.91961,50.84601],[-0.91927,50.84595],[-0.9193,50.84581],[-0.91966,50.84584],[-0.91961,50.84601]]]]}},
{ "type":"Feature","properties":{"osm_way_id":"972379781","amenity":"parking","other":{"access":"customers","lit":"no","operator":"Woodfire Camping"}}, "geometry":{"type":"MultiPolygon","coordinates":[[[[-0.64942,50.95642],[-0.64929,50.9564],[-0.64921,50.95639],[-0.64924,50.95617],[-0.64926,50.956],[-0.64968,50.95605],[-0.64955,50.95628],[-0.64951,50.95641],[-0.64942,50.95642]]]]}},
{ "type":"Feature","properties":{"osm_way_id":"973212352","name":"All Saints","amenity":"parking"},"geometry":{"type":"MultiPolygon","coordinates":[[[[-0.71351,50.9115],[-0.71345,50.91136],[-0.71312,50.91142],[-0.71303,50.91144],[-0.71308,50.91152],[-0.71351,50.9115]]]]}},
{ "type":"Feature","properties":{"osm_way_id":"975310961","amenity":"parking","other":{"access":"customers","fee":"no","operator":"Ashling Park Estate Ltd","operator:type":"private","parking":"surface","surface":"gravel"}}, "geometry":{"type":"MultiPolygon","coordinates":[[[[-0.84953,50.86479],[-0.85004,50.86491],[-0.85038,50.86435],[-0.84986,50.86423],[-0.84953,50.86479]]]]}},
{ "type":"Feature","properties":{"osm_way_id":"976614419","amenity":"parking","other":{"access":"yes","capacity":"12","fee":"no","parking":"lane","surface":"asphalt"}}, "geometry":{"type":"MultiPolygon","coordinates":[[[[-0.69998,50.87061],[-0.69989,50.87054],[-0.70008,50.87046],[-0.70016,50.87051],[-0.69998,50.87061]]]]}},
{ "type":"Feature","properties":{"osm_way_id":"979529206","amenity":"parking","other":{"access":"customers","capacity":"15","capacity:disabled":"2","fee":"no","operator":"The Flying Bull","parking":"surface","surface":"asphalt"}}, "geometry":{"type":"MultiPolygon","coordinates":[[[[-0.85469,51.04403],[-0.8545,51.04416],[-0.85455,51.04419],[-0.85433,51.04433],[-0.85425,51.04427],[-0.85423,51.04418],[-0.85429,51.04412],[-0.85463,51.04399],[-0.85469,51.04403]]]]}},
{ "type":"Feature","properties":{"osm_way_id":"985126518","amenity":"parking","other":{"access":"yes","fee":"yes","parking":"surface"}}, "geometry":{"type":"MultiPolygon","coordinates":[[[[-0.77313,50.83733],[-0.77353,50.83724],[-0.77347,50.83695],[-0.77296,50.8371],[-0.77305,50.83723],[-0.77307,50.83725],[-0.77313,50.83733]]]]}},
{ "type":"Feature","properties":{"osm_way_id":"1002705216","amenity":"parking","other":{"access":"private","fee":"no","parking":"surface","surface":"gravel"}}, "geometry":{"type":"MultiPolygon","coordinates":[[[[-0.79342,50.89076],[-0.79335,50.89075],[-0.79329,50.89071],[-0.79323,50.8907],[-0.7933,50.89052],[-0.79337,50.89053],[-0.79341,50.89045],[-0.79353,50.89047],[-0.79342,50.89076]]]]}},
{ "type":"Feature","properties":{"osm_way_id":"1004458371","amenity":"parking"},"geometry":{"type":"MultiPolygon","coordinates":[[[[-0.51428,51.07011],[-0.51426,51.07021],[-0.51423,51.07021],[-0.51418,51.0702],[-0.5141,51.0702],[-0.51401,51.07018],[-0.51372,51.07013],[-0.51337,51.07008],[-0.51317,51.07005],[-0.51323,51.06996],[-0.51325,51.06993],[-0.51327,51.06991],[-0.51329,51.06989],[-0.51331,51.06988],[-0.51333,51.06987],[-0.51338,51.06985],[-0.51379,51.06998],[-0.51403,51.07006],[-0.51415,51.07009],[-0.51418,51.0701],[-0.51422,51.07011],[-0.51428,51.07011]]]]}},
{ "type":"Feature","properties":{"osm_way_id":"1004458381","amenity":"parking"},"geometry":{"type":"MultiPolygon","coordinates":[[[[-0.51524,51.07005],[-0.51529,51.07021],[-0.51525,51.0702],[-0.5152,51.0702],[-0.51517,51.07019],[-0.51512,51.07019],[-0.51508,51.07019],[-0.5149,51.07019],[-0.51485,51.07019],[-0.51485,51.07024],[-0.51483,51.07028],[-0.51473,51.07026],[-0.5147,51.07026],[-0.51456,51.07023],[-0.51448,51.07023],[-0.51447,51.07016],[-0.51453,51.07016],[-0.51455,51.07013],[-0.51464,51.07013],[-0.51464,51.07014],[-0.51465,51.07015],[-0.51467,51.07015],[-0.5147,51.07015],[-0.5148,51.07014],[-0.5148,51.07008],[-0.51524,51.07005]]]]}},
{ "type":"Feature","properties":{"osm_way_id":"1011537972","amenity":"parking"},"geometry":{"type":"MultiPolygon","coordinates":[[[[-0.7244,52.40296],[-0.72425,52.403],[-0.72412,52.40283],[-0.72409,52.40284],[-0.72403,52.40276],[-0.72406,52.40271],[-0.72435,52.40274],[-0.72437,52.40277],[-0.72429,52.40279],[-0.7244,52.40296]]]]}},
{ "type":"Feature","properties":{"osm_way_id":"1011537976","amenity":"parking"},"geometry":{"type":"MultiPolygon","coordinates":[[[[-0.72623,52.40273],[-0.72562,52.40277],[-0.72547,52.40278],[-0.72507,52.40289],[-0.72499,52.40278],[-0.7252,52.40274],[-0.72523,52.40275],[-0.72527,52.40276],[-0.72531,52.40276],[-0.72533,52.40274],[-0.72533,52.40272],[-0.72532,52.40268],[-0.72554,52.40265],[-0.72555,52.4027],[-0.72557,52.40272],[-0.7256,52.40272],[-0.72565,52.40272],[-0.72567,52.4027],[-0.72567,52.40269],[-0.72566,52.40265],[-0.7261,52.40262],[-0.72622,52.40267],[-0.72623,52.40273]]]]}},
{ "type":"Feature","properties":{"osm_way_id":"1013857093","amenity":"parking","other":{"parking":"street_side","surface":"gravel"}}, "geometry":{"type":"MultiPolygon","coordinates":[[[[-0.9901,53.98212],[-0.99018,53.98199],[-0.99019,53.98207],[-0.99017,53.9821],[-0.9901,53.98212]]]]}},
{ "type":"Feature","properties":{"osm_way_id":"1014508595","amenity":"parking"},"geometry":{"type":"MultiPolygon","coordinates":[[[[-3.25944,56.1419],[-3.25912,56.14196],[-3.25907,56.1419],[-3.25916,56.14188],[-3.25913,56.14184],[-3.25938,56.14179],[-3.25944,56.1419]]]]}},
{ "type":"Feature","properties":{"osm_way_id":"1017174011","amenity":"parking","other":{"surface":"asphalt"}}, "geometry":{"type":"MultiPolygon","coordinates":[[[[-0.8256,50.99079],[-0.8256,50.99063],[-0.82499,50.99064],[-0.82499,50.99079],[-0.8256,50.99079]]]]}},
{ "type":"Feature","properties":{"osm_way_id":"1017174012","amenity":"parking"},"geometry":{"type":"MultiPolygon","coordinates":[[[[-0.82547,50.9906],[-0.82501,50.99061],[-0.82501,50.99047],[-0.82546,50.99046],[-0.82547,50.9906]]]]}},
{ "type":"Feature","properties":{"osm_way_id":"1021377233","amenity":"parking","other":{"access":"customers","fee":"no","parking":"surface","surface":"gravel"}}, "geometry":{"type":"MultiPolygon","coordinates":[[[[-0.91351,50.97862],[-0.91343,50.97853],[-0.91338,50.97848],[-0.91351,50.97843],[-0.91364,50.97857],[-0.91351,50.97862]]]]}},
{ "type":"Feature","properties":{"osm_way_id":"1024224619","amenity":"parking","other":{"access":"private","parking":"surface","surface":"asphalt"}}, "geometry":{"type":"MultiPolygon","coordinates":[[[[-0.77205,50.83516],[-0.77159,50.8353],[-0.77147,50.83514],[-0.77193,50.835],[-0.77205,50.83516]]]]}},
{ "type":"Feature","properties":{"osm_way_id":"1026167684","amenity":"parking","other":{"access":"customers","fee":"no","parking":"surface","surface":"asphalt"}}, "geometry":{"type":"MultiPolygon","coordinates":[[[[-0.89778,50.84382],[-0.89754,50.84379],[-0.89776,50.84363],[-0.89816,50.84367],[-0.89814,50.8438],[-0.89809,50.8438],[-0.89789,50.84378],[-0.89788,50.84383],[-0.89778,50.84382]]]]}},
{ "type":"Feature","properties":{"osm_way_id":"1028528459","amenity":"parking"},"geometry":{"type":"MultiPolygon","coordinates":[[[[-0.77026,50.99247],[-0.77025,50.9923],[-0.77088,50.9923],[-0.77102,50.99229],[-0.77114,50.99225],[-0.77116,50.99231],[-0.77125,50.99233],[-0.77126,50.9925],[-0.77074,50.9925],[-0.77026,50.99247]]]]}}
]
}
