{
"type": "FeatureCollection",
"features": [
{ "type":"Feature","properties":{"osm_id":"512431765","name":"Co-Operative","other":{"addr:housename":"The Cross","addr:postcode":"NP26 3EG","shop":"supermarket","website":"https:\/\/www.co-operative.coop\/store\/food\/NP26-3EG\/the-cross"}}, "geometry":{"type":"Point","coordinates":[-2.8306,51.58039 ]}},
{ "type":"Feature","properties":{"osm_id":"712737901","name":"Waitrose","other":{"brand":"Waitrose","brand:wikidata":"Q771734","brand:wikipedia":"en:Waitrose & Partners","official_name":"Waitrose & Partners","operator":"Waitrose & Partners","shop":"supermarket","website":"https:\/\/www.waitrose.com\/bf_home\/bf\/476.html"}}, "geometry":{"type":"Point","coordinates":[-2.75257,51.5903 ]}},
{ "type":"Feature","properties":{"osm_id":"4859270101","name":"Marks & Spencer Food","other":{"brand":"M&S Foodhall","brand:wikidata":"Q714491","brand:wikipedia":"en:Marks & Spencer","shop":"supermarket"}}, "geometry":{"type":"Point","coordinates":[-2.67809,51.64063 ]}},
{ "type":"Feature","properties":{"osm_id":"7835976676","name":"Co-op Food","other":{"addr:city":"Usk","addr:housenumber":"51","addr:postcode":"NP15 1BQ","addr:street":"Bridge Street","brand":"Co-op Food","brand:wikidata":"Q3277439","brand:wikipedia":"en:Co-op Food","opening_hours":"Mo-Su 06:00-22:00","opening_hours:covid19":"Mo-Su 06:00-22:00","operator":"The Co-operative Group","phone":"+44 1291 673 083","shop":"supermarket","website":"https:\/\/finder.coop.co.uk\/food\/store\/NP15-1BQ\/51-bridge-street"}}, "geometry":{"type":"Point","coordinates":[-2.90514,51.70244 ]}},
{ "type":"Feature","properties":{"osm_way_id":"72011294","name":"Tesco","building":"yes","shop":"supermarket","other":{"addr:city":"Bristol","addr:postcode":"NP16 5PB","addr:street":"Station Road","alt_name":"Tesco Chepstow Superstore","brand":"Tesco","brand:wikidata":"Q487494","brand:wikipedia":"en:Tesco"}}, "geometry":{"type":"MultiPolygon","coordinates":[[[[-2.67201,51.64091],[-2.67136,51.64082],[-2.6714,51.6407],[-2.67115,51.64066],[-2.67088,51.6414],[-2.67178,51.64153],[-2.67201,51.64091]]]]}},
{ "type":"Feature","properties":{"osm_way_id":"72011298","name":"Co-op","building":"yes","shop":"supermarket","other":{"addr:city":"Bristol","addr:postcode":"NP16 5DH","addr:street":"Thomas Street","alt_name":"The Co-operative Food"}}, "geometry":{"type":"MultiPolygon","coordinates":[[[[-2.6782,51.64048],[-2.67782,51.64068],[-2.67816,51.64093],[-2.67855,51.64072],[-2.67844,51.64064],[-2.67849,51.64061],[-2.67836,51.64052],[-2.6783,51.64055],[-2.6782,51.64048]]]]}},
{ "type":"Feature","properties":{"osm_way_id":"88879178","name":"Waitrose","building":"yes","shop":"supermarket","other":{"addr:city":"Abergavenny","addr:postcode":"NP7 9LL","addr:street":"Merthyr Road","alt_name":"Waitrose Abergavenny","brand":"Waitrose & Partners","brand:wikidata":"Q771734","brand:wikipedia":"en:Waitrose & Partners","opening_hours":"Mo-Th,Sa 08:00-20:00; Fr 08:00-21:00; Su 10:00-16:00","operator":"Waitrose & Partners"}}, "geometry":{"type":"MultiPolygon","coordinates":[[[[-3.02899,51.81631],[-3.02811,51.81625],[-3.02798,51.81697],[-3.02886,51.81703],[-3.02899,51.81631]]]]}},
{ "type":"Feature","properties":{"osm_way_id":"219891167","name":"Budgens","building":"yes","shop":"supermarket","other":{"addr:city":"Monmouth","addr:housename":"10 Oldway Centre","addr:housenumber":"95-97","addr:postcode":"NP25 3PS","addr:street":"Monnow Street","brand":"Budgens","brand:wikidata":"Q4985016","brand:wikipedia":"en:Budgens","old_name":"The Co-operative Food","opening_hours":"Mo-Sa 07:00-23:00 Su 10:00-16:00"}}, "geometry":{"type":"MultiPolygon","coordinates":[[[[-2.71937,51.81076],[-2.71937,51.81067],[-2.71903,51.8105],[-2.71862,51.81084],[-2.71874,51.81089],[-2.7187,51.81093],[-2.71891,51.81103],[-2.71894,51.811],[-2.71902,51.81103],[-2.71937,51.81076]]]]}},
{ "type":"Feature","properties":{"osm_way_id":"219891173","name":"Waitrose","building":"yes","shop":"supermarket","other":{"addr:city":"Monmouth","addr:housenumber":"110-114","addr:postcode":"NP25 3EQ","addr:street":"Monnow Street","branch":"Monmouth","brand":"Waitrose","brand:wikidata":"Q771734","brand:wikipedia":"en:Waitrose & Partners","official_name":"Waitrose & Partners","opening_hours":"Mo-Fr 07:30-21:00 Sa 07:30-20:00 Su 10:00-16:00","operator":"Waitrose & Partners","wheelchair":"yes"}}, "geometry":{"type":"MultiPolygon","coordinates":[[[[-2.71909,51.80953],[-2.71858,51.80929],[-2.71871,51.80918],[-2.71858,51.80912],[-2.71852,51.80917],[-2.71842,51.80912],[-2.71837,51.80917],[-2.71832,51.80914],[-2.71817,51.80926],[-2.71812,51.80924],[-2.71797,51.80936],[-2.71851,51.80961],[-2.71855,51.80958],[-2.71876,51.80968],[-2.71885,51.80961],[-2.71909,51.80973],[-2.71916,51.80967],[-2.71901,51.80959],[-2.71909,51.80953]]]]}},
{ "type":"Feature","properties":{"osm_way_id":"219891176","name":"Lidl","building":"yes","shop":"supermarket","other":{"addr:city":"Monmouth","addr:country":"GB","addr:postcode":"NP25 3LY","addr:street":"Redbrook Road","branch":"Monmouth","brand":"Lidl","brand:wikidata":"Q151954","fhrs:id":"729354","opening_hours":"Mo-Sa 08:00-21:00; Su 10:00-16:00"}}, "geometry":{"type":"MultiPolygon","coordinates":[[[[-2.7066,51.81038],[-2.70681,51.80983],[-2.70659,51.8098],[-2.70661,51.80974],[-2.70646,51.80972],[-2.70622,51.81033],[-2.7066,51.81038]]]]}},
{ "type":"Feature","properties":{"osm_way_id":"277840082","name":"Lidl","building":"yes","shop":"supermarket","other":{"addr:city":"Bristol","addr:postcode":"NP16 5JW","addr:street":"Bulwark Road","alt_name":"LIDL Chepstow","brand":"Lidl","brand:wikidata":"Q151954","fhrs:id":"722321"}}, "geometry":{"type":"MultiPolygon","coordinates":[[[[-2.67523,51.63127],[-2.67499,51.63092],[-2.6746,51.63102],[-2.67484,51.63137],[-2.67523,51.63127]]]]}},
{ "type":"Feature","properties":{"osm_way_id":"281319250","name":"Tesco Express","shop":"supermarket","other":{"addr:city":"Bristol","addr:housename":"Old Farm Shopping Centre","addr:housenumber":"2","addr:postcode":"NP16 5TY","addr:street":"Denbigh Drive","alt_name":"Tesco Chepstow Old Farm Express","brand":"Tesco Express","brand:wikidata":"Q98456772"}}, "geometry":{"type":"MultiPolygon","coordinates":[[[[-2.66836,51.62263],[-2.66823,51.62251],[-2.66845,51.62241],[-2.66861,51.62255],[-2.66838,51.62265],[-2.66836,51.62263]]]]}},
{ "type":"Feature","properties":{"osm_way_id":"419295694","name":"Asda","building":"yes","shop":"supermarket","other":{"addr:city":"Caldicot","addr:country":"GB","addr:street":"Woodstock Way","brand":"Asda","brand:wikidata":"Q297410","brand:wikipedia":"en:Asda","contact:facebook":"https:\/\/www.facebook.com\/asda\/","contact:twitter":"@asda","contact:website":"https:\/\/storelocator.asda.com\/wales\/caldicot\/woodstock-way","fhrs:id":"740766","operator":"Asda Stores Ltd"}}, "geometry":{"type":"MultiPolygon","coordinates":[[[[-2.75071,51.58994],[-2.75005,51.5901],[-2.7502,51.59034],[-2.75012,51.59036],[-2.75029,51.59064],[-2.75049,51.59059],[-2.75048,51.59056],[-2.75101,51.59044],[-2.75071,51.58994]]]]}},
{ "type":"Feature","properties":{"osm_way_id":"439709907","name":"Tesco Metro","building":"yes","shop":"supermarket","other":{"addr:city":"Abergavenny","addr:housenumber":"26","addr:postcode":"NP7 5AH","addr:street":"Frogmore Street","alt_name":"tesco Metro Abergavenny","brand":"Tesco Metro","brand:wikidata":"Q57551648","opening_hours":"Mo-Fr 07:00-22:00; Sa 07:00-21:00; Su 10:00-16:00"}}, "geometry":{"type":"MultiPolygon","coordinates":[[[[-3.02096,51.82467],[-3.0207,51.82447],[-3.0206,51.82452],[-3.02028,51.82467],[-3.02058,51.82489],[-3.02096,51.82467]]]]}},
{ "type":"Feature","properties":{"osm_way_id":"439710683","name":"Aldi","building":"yes","shop":"supermarket","other":{"addr:city":"Abergavenny","addr:postcode":"NP7 5HF","addr:street":"Monmouth Road","alt_name":"ALDI Abergavenny","brand":"ALDI","brand:wikidata":"Q41171672","brand:wikipedia":"en:Aldi","opening_hours":"Mo-Sa 08:00-21:00; Su 10:00-16:00"}}, "geometry":{"type":"MultiPolygon","coordinates":[[[[-3.01593,51.81955],[-3.01544,51.81944],[-3.0156,51.81917],[-3.01608,51.81927],[-3.01593,51.81955]]]]}},
{ "type":"Feature","properties":{"osm_way_id":"533677783","name":"The Co-operative Bywd","building":"yes","shop":"supermarket","other":{"addr:city":"Caldicot","addr:housenumber":"180E","addr:postcode":"NP26 4AA","addr:street":"Newport Road","fhrs:id":"459810","name:cy":"The Co-operative Bywd","name:en":"The Co-operative Food"}}, "geometry":{"type":"MultiPolygon","coordinates":[[[[-2.75967,51.58824],[-2.75984,51.58816],[-2.75996,51.58825],[-2.75999,51.58827],[-2.75981,51.58836],[-2.75967,51.58824]]]]}},
{ "type":"Feature","properties":{"osm_way_id":"727735173","name":"Morrisons","building":"supermarket","shop":"supermarket","other":{"addr:city":"Abergavenny","addr:country":"GB","addr:postcode":"NP7 5TP","addr:street":"Park Road","brand":"Morrisons","brand:wikidata":"Q922344","brand:wikipedia":"en:Morrisons","contact:facebook":"http:\/\/www.facebook.com\/morrisons","contact:phone":"+44 1873 719 443","contact:twitter":"@Morrisons","contact:website":"https:\/\/my.morrisons.com\/storefinder\/468","opening_hours":"Mo-Sa 07:00-22:00; Su 10:00-16:00","ref":"468","wheelchair":"yes"}}, "geometry":{"type":"MultiPolygon","coordinates":[[[[-3.01665,51.82418],[-3.01642,51.82414],[-3.01646,51.82407],[-3.01562,51.82393],[-3.01581,51.82352],[-3.01616,51.82358],[-3.0162,51.82349],[-3.01685,51.82358],[-3.01691,51.82359],[-3.01686,51.82371],[-3.01665,51.82418]]]]}}
]
}
