{
"type": "FeatureCollection",
"features": [
{ "type":"Feature","properties":{"osm_way_id":"111205400","name":"Asda Bedford Distribution Centre","building":"warehouse","other":{"addr:city":"Kempston","addr:country":"GB","addr:housename":"Distribution Centre, Marsh Leys Farm","addr:postcode":"MK43 9AA","addr:street":"Woburn Road","fhrs:authority":"Bedford","fhrs:id":"108106","fhrs:local_authority_id":"38421"}}, "geometry":{"type":"Polygon","coordinates":[[[ -0.4983,52.10077],[-0.49981,52.10017],[-0.50204,52.10229],[-0.50054,52.10289],[-0.49902,52.10145],[-0.49877,52.10155],[-0.49856,52.10136],[-0.49881,52.10126],[-0.4983,52.10077]] ]}},
{ "type":"Feature","properties":{"osm_way_id":"111205403","name":"Sainsbury's Bedford Distribution Centre","building":"warehouse","other":{"addr:city":"Kempston","addr:country":"GB","addr:housename":"Unit 3, Marsh Leys Farm","addr:postcode":"MK43 9AA","addr:street":"Woburn Road","fhrs:authority":"Bedford","fhrs:id":"846800","fhrs:local_authority_id":"122538"}}, "geometry":{"type":"Polygon","coordinates":[[[ -0.50161,52.09919],[-0.50085,52.09899],[-0.50094,52.09886],[-0.50018,52.09865],[-0.50223,52.0958],[-0.50375,52.09621],[-0.50161,52.09919]] ]}},
{ "type":"Feature","properties":{"osm_way_id":"111205404","name":"Argos Marsh Leys Distribution Centre","building":"warehouse","other":{"fhrs:id":"108103","addr:city":"Kempston","addr:unit":"Distribution Centre, Marsh Leys Farm","addr:street":"Woburn Road","addr:country":"GB","addr:postcode":"MK43 9AA","fhrs:authority":"Bedford","fhrs:local_authority_id":"38417"}}, "geometry":{"type":"Polygon","coordinates":[[[ -0.50559,52.0967],[-0.50759,52.09743],[-0.50645,52.09861],[-0.50664,52.09868],[-0.50652,52.09881],[-0.50632,52.09874],[-0.50487,52.10023],[-0.50286,52.0995],[-0.50431,52.09801],[-0.50411,52.09793],[-0.50424,52.0978],[-0.50444,52.09788],[-0.50559,52.0967]] ]}},
{ "type":"Feature","properties":{"osm_way_id":"114606099","name":"3M European Distribution Centre","building":"yes","other":{"fhrs:id":"94137","addr:city":"Bedford","addr:street":"Hudson Road","addr:country":"GB","addr:postcode":"MK41 0HR","fhrs:authority":"Bedford","fhrs:local_authority_id":"27329"}}, "geometry":{"type":"Polygon","coordinates":[[[ -0.4188,52.15016],[-0.41713,52.15052],[-0.41704,52.15037],[-0.41592,52.15062],[-0.41575,52.15033],[-0.41679,52.1501],[-0.41677,52.15006],[-0.41685,52.15004],[-0.41668,52.14974],[-0.41835,52.14938],[-0.4188,52.15016]] ]}},
{ "type":"Feature","properties":{"osm_way_id":"939031470","name":"B&M Distribution Centre","building":"warehouse","other":{"addr:city":"Bedford","addr:housename":"The Fort","addr:locality":"Wixams","addr:postcode":"MK42 6EY","addr:street":"Zander Way","source:addr":"https:\/\/careers.bmstores.co.uk\/grow-your-career\/our-distribution-centres\/"}}, "geometry":{"type":"Polygon","coordinates":[[[ -0.48069,52.09644],[-0.47335,52.09545],[-0.47388,52.09387],[-0.48126,52.09485],[-0.48069,52.09644]] ]}},
{ "type":"Feature","properties":{"osm_way_id":"942382139","name":"Modular Distribution Systems Ltd","building":"yes","other":{"addr:city":"Bedford","addr:housename":"Unit 1A","addr:locality":"Elms Farm Industrial Estate","addr:postcode":"MK41 0QB","addr:street":"Hudson Road"}}, "geometry":{"type":"Polygon","coordinates":[[[ -0.41273,52.15145],[-0.41232,52.15137],[-0.41243,52.15115],[-0.41284,52.15123],[-0.41273,52.15145]] ]}}
]
}
