{
"type": "FeatureCollection",
"features": [
{ "type":"Feature","properties":{"osm_id":"1464442677","name":"Asda","other":{"addr:city":"Chelmsford","addr:country":"GB","addr:housenumber":"1-10","addr:postcode":"CM3 5SY","addr:street":"Queen Elizabeth II Square","brand":"Asda","brand:wikidata":"Q297410","brand:wikipedia":"en:Asda","contact:phone":"+44 1245 321888","fhrs:id":"397029","opening_hours:covid19":"Mo-Th,Sa 08:00-22:00; Fr 08:00-20:00; Su 10:00-16:00","operator":"Asda Stores Ltd","shop":"supermarket","website":"https:\/\/storelocator.asda.com\/east-of-england\/chelmsford\/1-10-queen-elizabeth-square"}}, "geometry":{"type":"Point","coordinates":[0.61795,51.64362 ]}},
{ "type":"Feature","properties":{"osm_id":"1464442683","name":"Asda","other":{"addr:city":"Chelmsford","addr:country":"GB","addr:housenumber":"1-10","addr:postcode":"CM3 5SY","addr:street":"Queen Elizabeth II Square","brand":"Asda","brand:wikidata":"Q297410","brand:wikipedia":"en:Asda","contact:facebook":"https:\/\/www.facebook.com\/asda\/","contact:phone":"+44 1245 321888","contact:twitter":"@asda","description":"This store contains George, homeware and opticians.","operator":"Asda Stores Ltd","shop":"supermarket","website":"https:\/\/storelocator.asda.com\/east-of-england\/chelmsford\/1-10-queen-elizabeth-square"}}, "geometry":{"type":"Point","coordinates":[0.61746,51.64446 ]}},
{ "type":"Feature","properties":{"osm_id":"7107651768","name":"Co-op","other":{"shop":"supermarket","wheelchair":"yes","opening_hours":"Mo-Su 07:00-22:00","addr:housename":"1-3"}}, "geometry":{"type":"Point","coordinates":[0.61685,51.6454 ]}},
{ "type":"Feature","properties":{"osm_way_id":"39027110","name":"Tesco","building":"yes","shop":"supermarket","other":{"addr:city":"Chelmsford","addr:postcode":"CM2 9XW","addr:street":"Princes Road","alt_name":"Tesco Chelmsford Prines Road Superstore","brand":"Tesco","brand:wikidata":"Q487494","brand:wikipedia":"en:Tesco","contact:website":"https:\/\/www.tesco.com\/store-locator\/chelmsford\/princes-rd","internet_access":"wlan","internet_access:fee":"no","internet_access:ssid":"Tesco Wifi","opening_hours":"Mo 06:00-00:00; Tu-Fr 00:00-24:00; Sa 00:00-22:00; Su 10:00-16:00","opening_hours:covid19":"Mo-Sa 06:00-22:00; Su 10:00-17:00","operator":"Tesco Stores Ltd","phone":"+44 345 677 9191","toilets":"yes","toilets:wheelchair":"yes","wheelchair":"yes"}}, "geometry":{"type":"MultiPolygon","coordinates":[[[[0.46164,51.72084],[0.46158,51.72085],[0.46139,51.72027],[0.4627,51.72011],[0.46272,51.72017],[0.4632,51.72011],[0.46328,51.72038],[0.46287,51.72043],[0.46291,51.72055],[0.46295,51.72057],[0.46302,51.72081],[0.46295,51.72088],[0.46283,51.72089],[0.46279,51.72077],[0.46278,51.72073],[0.46256,51.72076],[0.46243,51.72077],[0.46239,51.72078],[0.46232,51.72079],[0.46233,51.72081],[0.46229,51.72084],[0.46204,51.72087],[0.46199,51.72085],[0.46198,51.7208],[0.46177,51.72083],[0.46179,51.72089],[0.46166,51.7209],[0.46164,51.72084]]]]}},
{ "type":"Feature","properties":{"osm_way_id":"154804013","name":"Asda","building":"retail","shop":"supermarket","other":{"addr:city":"Chelmsford","addr:country":"GB","addr:housenumber":"1-11","addr:postcode":"CM2 6RE","addr:street":"CM2 6RE","brand":"Asda","brand:wikidata":"Q297410","brand:wikipedia":"en:Asda","contact:facebook":"https:\/\/www.facebook.com\/asda\/","contact:twitter":"@asda","contact:website":"https:\/\/storelocator.asda.com\/east-of-england\/chelmsford\/chelmer-village-centre","fhrs:id":"83732","opening_hours":"Mo-Sa 07:00-22:00; Su 10:00-16:00","opening_hours:covid19":"same","operator":"Asda Stores Ltd","phone":"+44 1245 466566","website":"https:\/\/www.asda.com\/","wheelchair":"yes"}}, "geometry":{"type":"MultiPolygon","coordinates":[[[[0.50546,51.73607],[0.50598,51.73643],[0.50602,51.73641],[0.50611,51.73647],[0.50653,51.73624],[0.50645,51.73618],[0.50685,51.73596],[0.50677,51.7359],[0.50657,51.73576],[0.50665,51.73571],[0.50647,51.73558],[0.50645,51.73557],[0.50637,51.73561],[0.50634,51.73559],[0.50618,51.73548],[0.50615,51.73549],[0.5061,51.73552],[0.50626,51.73563],[0.50596,51.7358],[0.50573,51.73564],[0.50538,51.73583],[0.50561,51.73599],[0.50546,51.73607]]]]}},
{ "type":"Feature","properties":{"osm_way_id":"154804278","name":"Sainsbury's","building":"retail","shop":"supermarket","other":{"addr:city":"Chelmsford","addr:postcode":"CM2 5PA","addr:street":"White Hart Lane","brand":"Sainsbury's","brand:wikidata":"Q152096","brand:wikipedia":"en:Sainsbury's","building:levels":"1","check_date:opening_hours":"2021-11-20","internet_access":"wlan","internet_access:fee":"no","internet_access:ssid":"O2 Wifi","opening_hours":"Mo-Fr 07:00-23:00, Sa 07:00-22:00, Su 10:00-16:00","opening_hours:covid19":"Mo-Sa 08:00-22:00; Su 10:00-16:00","operator":"J Sainsbury PLC","payment:american_express":"yes","payment:cash":"yes","payment:contactless":"yes","payment:credit_cards":"yes","payment:debit_cards":"yes","payment:mastercard":"yes","payment:visa":"yes","payment:visa_debit":"yes","payment:visa_electron":"yes","phone":"+44 1245 451797","roof:levels":"0","website":"https:\/\/stores.sainsburys.co.uk\/0415\/springfield"}}, "geometry":{"type":"MultiPolygon","coordinates":[[[[0.51396,51.75272],[0.51378,51.75282],[0.51375,51.75284],[0.51359,51.75273],[0.51292,51.75312],[0.51211,51.75259],[0.51227,51.7525],[0.51217,51.75244],[0.51213,51.75241],[0.51212,51.7524],[0.51239,51.75225],[0.51262,51.75212],[0.51294,51.75193],[0.51297,51.75195],[0.51309,51.75202],[0.51338,51.75185],[0.51402,51.75228],[0.51408,51.75224],[0.5142,51.75231],[0.51414,51.75235],[0.51419,51.75238],[0.5138,51.7526],[0.51396,51.75272]]]]}},
{ "type":"Feature","properties":{"osm_way_id":"154804588","name":"ALDI","building":"retail","shop":"supermarket","other":{"addr:city":"Chelmsford","addr:country":"GB","addr:housenumber":"471","addr:postcode":"CM2 6AP","addr:street":"Springfield Road","brand":"ALDI","brand:wikidata":"Q41171672","brand:wikipedia":"en:Aldi","building:levels":"1","contact:website":"https:\/\/www.aldi.co.uk\/store\/s-uk-E0240","internet_access":"wlan","internet_access:fee":"no","internet_access:ssid":"ALDI WiFi","opening_hours":"Mo-Sa 08:00-22:00; Su 10:00-16:00","opening_hours:covid19":"same"}}, "geometry":{"type":"MultiPolygon","coordinates":[[[[0.50052,51.74615],[0.50075,51.74597],[0.50143,51.74629],[0.50114,51.74653],[0.50068,51.74631],[0.50075,51.74626],[0.50052,51.74615]]]]}},
{ "type":"Feature","properties":{"osm_way_id":"167643538","name":"Co-op Food","building":"retail","shop":"supermarket","other":{"addr:city":"Chelmsford","addr:housenumber":"40-42","addr:postcode":"CM1 1JA","addr:street":"Duke Street","brand":"Co-op Food","brand:wikidata":"Q3277439","brand:wikipedia":"en:Co-op Food","opening_hours":"Mo-Sa 07:00-22:00; Su 08:00-22:00","opening_hours:covid19":"same","operator":"The Co-operative Group","operator:wikidata":"Q117202","operator:wikipedia":"en:The Co-operative Group","phone":"+44 1245 345490","source:addr":"Food hygiene open data","website":"https:\/\/www.coop.co.uk\/"}}, "geometry":{"type":"MultiPolygon","coordinates":[[[[0.4669,51.73688],[0.46693,51.73694],[0.46683,51.73696],[0.46678,51.73697],[0.46674,51.73693],[0.46672,51.7369],[0.46669,51.73686],[0.467,51.73676],[0.46705,51.73683],[0.4669,51.73688]]]]}},
{ "type":"Feature","properties":{"osm_way_id":"202779902","name":"Lidl","building":"retail","shop":"supermarket","other":{"addr:city":"Chelmsford","addr:country":"GB","addr:housenumber":"2","addr:postcode":"CM2 9PB","addr:street":"Waterson Vale","brand":"Lidl","brand:wikidata":"Q151954","brand:wikipedia":"en:Lidl","fhrs:id":"397026","opening_hours:covid19":"same","website":"https:\/\/www.lidl.co.uk\/"}}, "geometry":{"type":"MultiPolygon","coordinates":[[[[0.47672,51.72317],[0.47706,51.72332],[0.47725,51.72315],[0.47729,51.72316],[0.47746,51.72301],[0.47743,51.72299],[0.47723,51.72291],[0.47709,51.72284],[0.47672,51.72317]]]]}},
{ "type":"Feature","properties":{"osm_way_id":"260848189","name":"Premier Writtle Road","building":"yes","shop":"supermarket"},"geometry":{"type":"MultiPolygon","coordinates":[[[[0.45534,51.72655],[0.45532,51.72648],[0.45541,51.72647],[0.45542,51.72654],[0.45534,51.72655]]]]}},
{ "type":"Feature","properties":{"osm_way_id":"260848194","name":"Home Foods Grocery","building":"yes","shop":"supermarket","other":{"addr:city":"Chelmsford","addr:housenumber":"38","addr:postcode":"CM1 1HY","addr:street":"Duke Street","opening_hours":"Mo-Sa 07:00-00:00; Su 08:00-00:00","phone":"+441245290808","website":"https:\/\/homefoodsgrocery.com\/"}}, "geometry":{"type":"MultiPolygon","coordinates":[[[[0.46722,51.73672],[0.46719,51.73667],[0.46711,51.73671],[0.4671,51.73673],[0.46713,51.73675],[0.46722,51.73672]]]]}},
{ "type":"Feature","properties":{"osm_way_id":"299927247","name":"The Co-operative Food","building":"yes","shop":"supermarket","other":{"addr:housenumber":"17","addr:postcode":"CM1 3DZ","addr:street":"Bridge Street","alt_name":"Chelmsford Star Co-operative Society","brand":"The Co-operative Food","brand:wikidata":"Q107617274","brand:wikipedia":"en:Co-op Food","operator":"The Co-operative Group","operator:wikidata":"Q117202","operator:wikipedia":"en:The Co-operative Group"}}, "geometry":{"type":"MultiPolygon","coordinates":[[[[0.43196,51.72971],[0.43191,51.72944],[0.43219,51.72943],[0.43223,51.72969],[0.43212,51.7297],[0.43211,51.72966],[0.43207,51.72966],[0.43211,51.72976],[0.43193,51.72978],[0.43192,51.72972],[0.43196,51.72971]]]]}},
{ "type":"Feature","properties":{"osm_way_id":"299927249","name":"Co-op Food","building":"yes","shop":"supermarket","other":{"addr:city":"Writtle","addr:housenumber":"38-40","addr:postcode":"CM1 3JP","addr:street":"Long Brandocks","alt_name":"The Co-operative Food","brand":"Co-op Food","brand:wikidata":"Q3277439","brand:wikipedia":"en:Co-op Food","opening_hours":"Mo-Su 07:00-22:00","operator":"The Co-operative Group","operator:wikidata":"Q117202","operator:wikipedia":"en:The Co-operative Group","phone":"+44 1245 421449","website":"https:\/\/www.coop.co.uk\/"}}, "geometry":{"type":"MultiPolygon","coordinates":[[[[0.42203,51.72842],[0.42207,51.72829],[0.42235,51.72831],[0.42231,51.72845],[0.42203,51.72842]]]]}},
{ "type":"Feature","properties":{"osm_way_id":"306864079","name":"Morrisons","building":"yes","shop":"supermarket","other":{"brand":"Morrisons","brand:wikidata":"Q922344","brand:wikipedia":"en:Morrisons","height":"4","website":"https:\/\/my.morrisons.com\/storefinder\/34620"}}, "geometry":{"type":"MultiPolygon","coordinates":[[[[0.45576,51.73254],[0.45557,51.73261],[0.45571,51.73277],[0.4559,51.7327],[0.45588,51.73268],[0.45576,51.73254]]]]}},
{ "type":"Feature","properties":{"osm_way_id":"309831344","name":"Morrisons","building":"supermarket","shop":"supermarket","other":{"addr:city":"Chelmsford","addr:postcode":"CM1 4UX","addr:street":"Copperfield Road","brand":"Morrisons","brand:wikidata":"Q922344","brand:wikipedia":"en:Morrisons","opening_hours":"Mo-Sa 07:00-22:00; Su 10:00-16:00","opening_hours:covid19":"same","website":"https:\/\/groceries.morrisons.com\/","wheelchair":"yes"}}, "geometry":{"type":"MultiPolygon","coordinates":[[[[0.44606,51.75509],[0.44611,51.75511],[0.44684,51.75536],[0.44677,51.75545],[0.44684,51.75548],[0.44692,51.75539],[0.44694,51.7554],[0.44732,51.75498],[0.44646,51.75468],[0.44634,51.75482],[0.44631,51.75481],[0.44606,51.75509]]]]}},
{ "type":"Feature","properties":{"osm_way_id":"320392609","name":"Co-op Food","shop":"supermarket","other":{"addr:city":"Chelmsford","addr:housenumber":"156","addr:postcode":"CM2 9LG","addr:street":"Gloucester Avenue","brand":"Co-op Food","brand:wikidata":"Q3277439","brand:wikipedia":"en:Co-op Food","operator":"The Co-operative Group","operator:wikidata":"Q117202","operator:wikipedia":"en:The Co-operative Group"}}, "geometry":{"type":"MultiPolygon","coordinates":[[[[0.47499,51.71643],[0.47513,51.7164],[0.47513,51.71639],[0.4752,51.71638],[0.47518,51.71633],[0.4752,51.71633],[0.47519,51.7163],[0.47521,51.7163],[0.47526,51.71629],[0.47516,51.71609],[0.47511,51.7161],[0.47486,51.71615],[0.47499,51.71643]]]]}},
{ "type":"Feature","properties":{"osm_way_id":"378558627","name":"Co-op Food","building":"yes","shop":"supermarket","other":{"addr:city":"Chelmsford","addr:housename":"Abercorn House","addr:housenumber":"1","addr:postcode":"CM3 3BT","addr:street":"Butterfield Road","brand":"Co-op Food","brand:wikidata":"Q3277439","brand:wikipedia":"en:Co-op Food","building:levels":"2","opening_hours":"Mo-Su 07:00-22:00","operator":"The Co-operative Group","operator:wikidata":"Q117202","operator:wikipedia":"en:The Co-operative Group","phone":"+44 1245 463421","smoking":"no"}}, "geometry":{"type":"MultiPolygon","coordinates":[[[[0.53991,51.75833],[0.53993,51.75838],[0.54,51.75837],[0.54001,51.75843],[0.54022,51.75841],[0.54024,51.7584],[0.54023,51.75837],[0.5403,51.75837],[0.54028,51.75829],[0.53991,51.75833]]]]}},
{ "type":"Feature","properties":{"osm_way_id":"378752722","name":"Co-op Food","building":"yes","shop":"supermarket","other":{"addr:city":"Chelmsford","addr:postcode":"CM3 3JG","addr:street":"Main Road","brand":"Co-op Food","brand:wikidata":"Q3277439","brand:wikipedia":"en:Co-op Food","opening_hours":"Mo-Su 06:00-23:00","operator":"The Co-operative Group","operator:wikidata":"Q117202","operator:wikipedia":"en:The Co-operative Group","phone":"+44 1245 468066","website":"https:\/\/finder.coop.co.uk\/food\/store\/CM3-3JG\/main-road"}}, "geometry":{"type":"MultiPolygon","coordinates":[[[[0.53885,51.76149],[0.53921,51.7616],[0.53917,51.76164],[0.53912,51.76163],[0.53908,51.76169],[0.53877,51.76159],[0.53885,51.76149]]]]}},
{ "type":"Feature","properties":{"osm_way_id":"461849943","name":"Tesco","building":"retail","shop":"supermarket","other":{"addr:city":"Chelmsford","addr:housenumber":"47-53","addr:postcode":"CM2 6QT","addr:street":"Springfield Road","branch":"Chelsmford Springfield Road Superstore","brand":"Tesco","brand:wikidata":"Q487494","brand:wikipedia":"en:Tesco","building:levels":"3","contact:website":"https:\/\/www.tesco.com\/store-locator\/chelmsford\/47-53-springfield-rd","fhrs:id":"76035","opening_hours":"Mo-Sa 06:00-22:00, Su 11:00-17:00","opening_hours:covid19":"same","operator":"Tesco Stores Ltd","pharmacy":"yes","phone":"+44 345 677 9189","roof:shape":"quadruple_saltbox"}}, "geometry":{"type":"MultiPolygon","coordinates":[[[[0.47762,51.73318],[0.47795,51.73334],[0.47839,51.73355],[0.47789,51.73394],[0.47799,51.734],[0.47778,51.73416],[0.47769,51.73412],[0.47766,51.73415],[0.47762,51.73418],[0.47761,51.73419],[0.47761,51.73419],[0.47734,51.73406],[0.47735,51.73405],[0.47738,51.73403],[0.47741,51.73401],[0.47719,51.7339],[0.47717,51.73392],[0.47714,51.73394],[0.47713,51.73395],[0.47694,51.73386],[0.47699,51.73382],[0.47711,51.73373],[0.47702,51.73369],[0.47699,51.73367],[0.47703,51.73364],[0.47734,51.7334],[0.47728,51.73337],[0.47726,51.73336],[0.47748,51.73319],[0.47751,51.7332],[0.47756,51.73322],[0.47761,51.73319],[0.47762,51.73318]]]]}},
{ "type":"Feature","properties":{"osm_way_id":"475504012","name":"M&S Foodhall","building":"retail","shop":"supermarket","other":{"addr:city":"Chelmsford","addr:housenumber":"1 Clock Tower Retail Park","addr:postcode":"CM1 3FJ","addr:street":"Westway","brand":"M&S Foodhall","brand:wikidata":"Q714491","brand:wikipedia":"en:Marks & Spencer","internet_access":"wlan","opening_hours":"Mo-Sa 08:00-21:00; Su 10:00-16:00","opening_hours:covid19":"same","operator":"Marks & Spencer PLC","payment:cash":"yes","payment:credit_cards":"yes","payment:debit_cards":"yes","phone":"+44 1245 847895","website":"https:\/\/www.marksandspencer.com\/"}}, "geometry":{"type":"MultiPolygon","coordinates":[[[[0.45177,51.72374],[0.45189,51.72403],[0.45139,51.72411],[0.45127,51.72382],[0.45177,51.72374]]]]}},
{ "type":"Feature","properties":{"osm_way_id":"556318217","name":"ALDI","building":"retail","shop":"supermarket","other":{"addr:city":"Chelmsford","addr:country":"GB","addr:housename":"Clock Tower Retail Park","addr:postcode":"CM1 3FJ","addr:street":"Westway","addr:unit":"7","brand":"ALDI","brand:wikidata":"Q41171672","brand:wikipedia":"en:Aldi","contact:website":"https:\/\/www.aldi.co.uk\/store\/s-uk-E1243","opening_hours":"Mo-Sa 08:00-22:00; Su 10:00-16:00","opening_hours:covid19":"same"}}, "geometry":{"type":"MultiPolygon","coordinates":[[[[0.45322,51.72304],[0.45306,51.72262],[0.45314,51.72261],[0.4531,51.72252],[0.45293,51.72255],[0.45294,51.72257],[0.45259,51.72263],[0.45277,51.72311],[0.45322,51.72304]]]]}},
{ "type":"Feature","properties":{"osm_way_id":"682232917","name":"ALDI","building":"yes","shop":"supermarket","other":{"addr:city":"Chelmsford","addr:country":"GB","addr:postcode":"CM2 7FS","addr:street":"Parkway","brand":"ALDI","brand:wikidata":"Q41171672","brand:wikipedia":"en:Aldi","construction":"commercial","contact:website":"https:\/\/www.aldi.co.uk\/store\/s-uk-E0734","internet_access":"wlan","internet_access:fee":"no","internet_access:ssid":"ALDI WiFi","opening_hours":"Mo-Sa 08:00-22:00; Su 10:00-16:00","opening_hours:covid19":"same"}}, "geometry":{"type":"MultiPolygon","coordinates":[[[[0.48108,51.72723],[0.48071,51.72753],[0.48073,51.72754],[0.48065,51.7276],[0.48063,51.72759],[0.48047,51.72771],[0.48045,51.72773],[0.48045,51.72776],[0.48045,51.72779],[0.48048,51.72781],[0.48051,51.72783],[0.48055,51.72784],[0.48056,51.72778],[0.48079,51.72779],[0.48082,51.72777],[0.48086,51.72778],[0.48118,51.72752],[0.48121,51.72754],[0.4814,51.72738],[0.48108,51.72723]]]]}},
{ "type":"Feature","properties":{"osm_way_id":"760789643","name":"Sainsbury's","building":"retail","shop":"supermarket","other":{"brand":"Sainsbury's","brand:wikidata":"Q152096","brand:wikipedia":"en:Sainsbury's","wheelchair":"yes"}}, "geometry":{"type":"MultiPolygon","coordinates":[[[[0.60384,51.65562],[0.60414,51.65568],[0.60409,51.65577],[0.60431,51.65582],[0.60428,51.65588],[0.60446,51.65592],[0.60455,51.65576],[0.60505,51.65587],[0.60536,51.65533],[0.60413,51.65506],[0.60398,51.65533],[0.604,51.65534],[0.60384,51.65562]]]]}},
{ "type":"Feature","properties":{"osm_way_id":"846547756","name":"Co-op Food","shop":"supermarket","other":{"addr:city":"Chelmsford","addr:housenumber":"164-170","addr:postcode":"CM2 7LJ","addr:street":"Meadgate Avenue","brand":"Co-op Food","brand:wikidata":"Q3277439","brand:wikipedia":"en:Co-op Food","level":"0","opening_hours":"Mo-Su 07:00-22:00","opening_hours:covid19":"same","operator":"The Co-operative Group","operator:wikidata":"Q117202","operator:wikipedia":"en:The Co-operative Group","phone":"+44 1245 354759","website":"https:\/\/www.coop.co.uk\/"}}, "geometry":{"type":"MultiPolygon","coordinates":[[[[0.49021,51.72331],[0.49032,51.72348],[0.49006,51.72355],[0.4899,51.72359],[0.48979,51.72341],[0.49021,51.72331]]]]}}
]
}
