{
"type": "FeatureCollection",
"features": [
{ "type":"Feature","properties":{"osm_way_id":"57914276","building":"warehouse"},"geometry":{"type":"MultiPolygon","coordinates":[[[[-1.38518,53.70493],[-1.38304,53.70548],[-1.3823,53.70448],[-1.38445,53.70392],[-1.38454,53.70405],[-1.38472,53.704],[-1.38511,53.70453],[-1.38492,53.70458],[-1.38518,53.70493]]]]}},
{ "type":"Feature","properties":{"osm_way_id":"57914280","name":"Asda Distribution Centre","building":"warehouse","other":{"addr:city":"Wakefield","addr:housenumber":"3","addr:postcode":"WF6 1TN","addr:street":"Foxbridge Way","addr:suburb":"Normanton"}}, "geometry":{"type":"MultiPolygon","coordinates":[[[[-1.39299,53.70606],[-1.393,53.70632],[-1.39279,53.70632],[-1.39283,53.70748],[-1.3905,53.70751],[-1.3905,53.70729],[-1.38955,53.7073],[-1.38952,53.7062],[-1.39125,53.70618],[-1.39124,53.70604],[-1.39141,53.70604],[-1.39142,53.70617],[-1.39257,53.70616],[-1.39256,53.70607],[-1.39299,53.70606]]]]}},
{ "type":"Feature","properties":{"osm_way_id":"108954539","name":"Next","building":"warehouse"},"geometry":{"type":"MultiPolygon","coordinates":[[[[-1.27193,53.60391],[-1.27029,53.60244],[-1.27182,53.60179],[-1.27346,53.60331],[-1.27193,53.60391]]]]}},
{ "type":"Feature","properties":{"osm_way_id":"108954542","name":"Next","building":"warehouse"},"geometry":{"type":"MultiPolygon","coordinates":[[[[-1.27525,53.60064],[-1.27295,53.60106],[-1.27207,53.59933],[-1.27436,53.5989],[-1.27525,53.60064]]]]}},
{ "type":"Feature","properties":{"osm_way_id":"108954546","name":"Superdrug","building":"warehouse","other":{"addr:city":"Pontefract","addr:postcode":"WF9 2XP","addr:street":"Stadium Way","addr:suburb":"South Elmsall","addr:town":"Pontefract","fhrs:id":"284725"}}, "geometry":{"type":"MultiPolygon","coordinates":[[[[-1.27957,53.602],[-1.28088,53.60322],[-1.28116,53.60311],[-1.28139,53.60332],[-1.2819,53.60314],[-1.28183,53.60307],[-1.28292,53.60266],[-1.2814,53.60126],[-1.27957,53.602]]]]}},
{ "type":"Feature","properties":{"osm_way_id":"108954547","name":"Next","building":"warehouse"},"geometry":{"type":"MultiPolygon","coordinates":[[[[-1.27019,53.60234],[-1.26937,53.60159],[-1.27105,53.60094],[-1.27187,53.60169],[-1.27019,53.60234]]]]}},
{ "type":"Feature","properties":{"osm_way_id":"108954980","name":"Next","building":"warehouse"},"geometry":{"type":"MultiPolygon","coordinates":[[[[-1.26986,53.60432],[-1.26697,53.60322],[-1.26628,53.60268],[-1.26798,53.60203],[-1.26866,53.60261],[-1.26848,53.60267],[-1.26858,53.60273],[-1.26848,53.60281],[-1.27059,53.60362],[-1.26986,53.60432]]]]}},
{ "type":"Feature","properties":{"osm_way_id":"108954981","name":"Asda XDC","building":"warehouse","other":{"addr:city":"Pontefract","addr:postcode":"WF9 2XX","addr:street":"Elmsall Way","addr:suburb":"South Elmsall","addr:town":"Pontefract","fhrs:id":"1002165"}}, "geometry":{"type":"MultiPolygon","coordinates":[[[[-1.27593,53.60603],[-1.27539,53.60587],[-1.27536,53.6059],[-1.27238,53.60499],[-1.27296,53.60432],[-1.27323,53.60441],[-1.27333,53.60429],[-1.27337,53.60427],[-1.27605,53.60509],[-1.27592,53.60523],[-1.2771,53.6056],[-1.27669,53.60608],[-1.27607,53.60588],[-1.27593,53.60603]]]]}},
{ "type":"Feature","properties":{"osm_way_id":"149996066","building":"warehouse"},"geometry":{"type":"MultiPolygon","coordinates":[[[[-1.4149,53.7202],[-1.41479,53.7203],[-1.41415,53.72091],[-1.41403,53.72103],[-1.41419,53.72109],[-1.41403,53.72124],[-1.41318,53.72093],[-1.41305,53.72106],[-1.41226,53.72077],[-1.41238,53.72064],[-1.41234,53.72063],[-1.41225,53.72071],[-1.41212,53.72066],[-1.41221,53.72058],[-1.41178,53.72042],[-1.41173,53.72047],[-1.41164,53.72044],[-1.41169,53.72039],[-1.4116,53.72035],[-1.41263,53.71937],[-1.41291,53.71947],[-1.41299,53.7194],[-1.41377,53.71968],[-1.41369,53.71976],[-1.4149,53.7202]]]]}},
{ "type":"Feature","properties":{"osm_way_id":"150004142","name":"Hagen","building":"warehouse","other":{"addr:city":"Wakefield","addr:postcode":"WF10 5QH","addr:street":"California Drive","addr:town":"Castleford","fhrs:id":"284765"}}, "geometry":{"type":"MultiPolygon","coordinates":[[[[-1.39945,53.71102],[-1.40025,53.71158],[-1.39973,53.71184],[-1.3998,53.71189],[-1.39929,53.71214],[-1.39927,53.71213],[-1.39913,53.7122],[-1.39893,53.71206],[-1.399,53.71203],[-1.39835,53.71157],[-1.39945,53.71102]]]]}},
{ "type":"Feature","properties":{"osm_way_id":"150004148","building":"warehouse","other":{"addr:city":"Wakefield","addr:postcode":"WF10 5QH","addr:street":"California Drive","addr:town":"Castleford","fhrs:id":"284764","old_name":"Argos"}}, "geometry":{"type":"MultiPolygon","coordinates":[[[[-1.39391,53.7132],[-1.39417,53.71339],[-1.39423,53.71336],[-1.39496,53.71389],[-1.3949,53.71392],[-1.39503,53.71401],[-1.39513,53.71396],[-1.39528,53.71407],[-1.39517,53.71412],[-1.39548,53.71434],[-1.39558,53.7143],[-1.39569,53.71438],[-1.3956,53.71442],[-1.39589,53.71463],[-1.39572,53.71471],[-1.39569,53.71469],[-1.39542,53.71482],[-1.3952,53.71466],[-1.39437,53.71506],[-1.3945,53.71516],[-1.39436,53.71523],[-1.39429,53.71526],[-1.39415,53.71517],[-1.39374,53.71536],[-1.39356,53.71522],[-1.39349,53.71525],[-1.39275,53.71472],[-1.39281,53.71469],[-1.39274,53.71463],[-1.39261,53.7147],[-1.39249,53.71461],[-1.39195,53.71487],[-1.39179,53.71476],[-1.39189,53.71471],[-1.39144,53.71439],[-1.39391,53.7132]]]]}},
{ "type":"Feature","properties":{"osm_way_id":"203728683","building":"warehouse"},"geometry":{"type":"MultiPolygon","coordinates":[[[[-1.35974,53.6798],[-1.35959,53.67922],[-1.35897,53.67927],[-1.35909,53.67975],[-1.35945,53.67972],[-1.35947,53.67982],[-1.35974,53.6798]]]]}},
{ "type":"Feature","properties":{"osm_way_id":"243763298","name":"Grafitech Web Ltd","building":"warehouse","other":{"addr:city":"Featherstone","addr:country":"GB","addr:housename":"Web House","addr:place":"Green Lane Industrial Park","addr:postcode":"WF7 6TA","email":"sales@grafitcweb.com","fax":"+44 (0)1977 708822","phone":"+44 1977 704466","website":"http:\/\/grafitecweb.com"}}, "geometry":{"type":"MultiPolygon","coordinates":[[[[-1.37607,53.68099],[-1.37591,53.68132],[-1.37546,53.68124],[-1.37562,53.68091],[-1.37607,53.68099]]]]}},
{ "type":"Feature","properties":{"osm_way_id":"243763299","name":"Aspray24","building":"warehouse","other":{"addr:city":"Featherstone","addr:country":"GB","addr:housenumber":"Unit 1A","addr:place":"Green Lane Industrial Park","addr:postcode":"WF7 6EP","addr:street":"Phoenix Avenue","phone":"+44 1977 700 371","website":"http:\/\/aspray24.com\/depots.html#yorkshire"}}, "geometry":{"type":"MultiPolygon","coordinates":[[[[-1.36884,53.67899],[-1.36878,53.67849],[-1.36872,53.67849],[-1.36872,53.67842],[-1.36725,53.67848],[-1.36726,53.67853],[-1.36718,53.67854],[-1.36724,53.67905],[-1.36884,53.67899]]]]}},
{ "type":"Feature","properties":{"osm_way_id":"243763316","name":"Snowden Seamless Floors Ltd","building":"warehouse","other":{"addr:city":"Featherstone","addr:country":"GB","addr:housenumber":"Unit 1","addr:place":"Green Lane Industrial Park","addr:postcode":"WF7 6EL","email":"info@snowdenflooring.com","phone":"+44 1977 695050","website":"http:\/\/www.snowdenflooring.com"}}, "geometry":{"type":"MultiPolygon","coordinates":[[[[-1.37318,53.68057],[-1.37305,53.68085],[-1.3726,53.68078],[-1.37273,53.68049],[-1.37318,53.68057]]]]}},
{ "type":"Feature","properties":{"osm_way_id":"243763320","name":"Healthcare at Home","building":"warehouse","other":{"addr:city":"Featherstone","addr:country":"GB","addr:place":"Green Lane Industrial Park","addr:postcode":"WF7 6ER","addr:street":"Junction Close"}}, "geometry":{"type":"MultiPolygon","coordinates":[[[[-1.3689,53.68024],[-1.36896,53.67953],[-1.3688,53.67952],[-1.3688,53.67947],[-1.36852,53.67946],[-1.36851,53.67951],[-1.36833,53.67951],[-1.36827,53.68022],[-1.3689,53.68024]]]]}},
{ "type":"Feature","properties":{"osm_way_id":"243763326","name":"Bobby's","building":"warehouse","other":{"addr:city":"Featherstone","addr:country":"GB","addr:place":"Green Lane Industrial Park","addr:postcode":"WF7 6RA","addr:street":"Boothroyds Way","addr:suburb":"Featherstone","addr:town":"Pontefect","addr:unit":"A1"}}, "geometry":{"type":"MultiPolygon","coordinates":[[[[-1.37544,53.68104],[-1.37537,53.68122],[-1.37494,53.68115],[-1.37502,53.68098],[-1.37544,53.68104]]]]}},
{ "type":"Feature","properties":{"osm_way_id":"439877162","name":"Whitwood Delivery Office","amenity":"post_depot","building":"warehouse","other":{"addr:city":"Castleford","addr:postcode":"WF10 5QA","addr:street":"Speedwell Road","operator":"Royal Mail"}}, "geometry":{"type":"MultiPolygon","coordinates":[[[[-1.39031,53.71665],[-1.3907,53.7164],[-1.39039,53.71623],[-1.39,53.71648],[-1.39031,53.71665]]]]}},
{ "type":"Feature","properties":{"osm_way_id":"440013206","name":"La Redoute","building":"warehouse","other":{"addr:city":"Wakefield","addr:postcode":"WF2 7YY","addr:street":"Standbridge Lane"}}, "geometry":{"type":"MultiPolygon","coordinates":[[[[-1.51805,53.64101],[-1.51903,53.64055],[-1.52039,53.64156],[-1.52016,53.64166],[-1.5194,53.64202],[-1.51805,53.64101]]]]}},
{ "type":"Feature","properties":{"osm_way_id":"450630235","name":"West Yorkshire Police Learning & Development Centre","amenity":"police","building":"warehouse","other":{"addr:housename":"Learning & Development Centre","police":"training_area"}}, "geometry":{"type":"MultiPolygon","coordinates":[[[[-1.53815,53.71233],[-1.53825,53.71278],[-1.53829,53.71295],[-1.53832,53.71304],[-1.53983,53.71293],[-1.53968,53.71228],[-1.53848,53.71237],[-1.53846,53.71231],[-1.53815,53.71233]]]]}},
{ "type":"Feature","properties":{"osm_way_id":"471115433","building":"warehouse"},"geometry":{"type":"MultiPolygon","coordinates":[[[[-1.46262,53.66699],[-1.46282,53.66702],[-1.46274,53.66722],[-1.46246,53.66719],[-1.4625,53.66707],[-1.46259,53.66708],[-1.46262,53.66699]]]]}},
{ "type":"Feature","properties":{"osm_way_id":"575656046","name":"McCarthy's Storage World","building":"warehouse","shop":"storage_rental","other":{"addr:city":"Wakefield","addr:housenumber":"2-4","addr:postcode":"WF1 1UW","addr:street":"Grove Road","email":"wakefield@mccarthysstorageworld.co.uk","opening_hours":"Mo-Fr 08:00-17:30; Sa 09:00-16:00","phone":"+44 1924 663 555","website":"https:\/\/www.mjmccarthy.co.uk\/self-storage-wakefield\/"}}, "geometry":{"type":"MultiPolygon","coordinates":[[[[-1.49285,53.67884],[-1.49236,53.67892],[-1.49237,53.67893],[-1.49231,53.67895],[-1.49226,53.67898],[-1.49223,53.67902],[-1.49222,53.67906],[-1.49219,53.67906],[-1.49227,53.67932],[-1.49301,53.67921],[-1.49285,53.67884]]]]}},
{ "type":"Feature","properties":{"osm_way_id":"730795423","name":"TJX Distribution","building":"warehouse","other":{"addr:city":"Knottingley","addr:postcode":"WF11 0AB","addr:street":"Grovehall Lane"}}, "geometry":{"type":"MultiPolygon","coordinates":[[[[-1.27374,53.69507],[-1.27244,53.69262],[-1.27286,53.69254],[-1.27258,53.69201],[-1.27057,53.69239],[-1.27054,53.69233],[-1.27004,53.69242],[-1.27008,53.6925],[-1.26986,53.69254],[-1.27051,53.69374],[-1.27012,53.69382],[-1.27026,53.69408],[-1.27062,53.69401],[-1.27124,53.69516],[-1.27146,53.69512],[-1.27151,53.69521],[-1.27194,53.69513],[-1.27208,53.69538],[-1.27374,53.69507]]]]}},
{ "type":"Feature","properties":{"osm_way_id":"754698012","building":"warehouse"},"geometry":{"type":"MultiPolygon","coordinates":[[[[-1.52016,53.64166],[-1.5194,53.64202],[-1.51938,53.64203],[-1.51969,53.64227],[-1.51974,53.64224],[-1.5198,53.64229],[-1.52053,53.64195],[-1.52016,53.64166]]]]}},
{ "type":"Feature","properties":{"osm_way_id":"756056702","name":"Puma","building":"warehouse","other":{"addr:housename":"Super G","addr:postcode":"WF10 5XY","addr:street":"Steamboat Way","addr:town":"Castleford","roof:colour":"grey"}}, "geometry":{"type":"MultiPolygon","coordinates":[[[[-1.34882,53.71034],[-1.34567,53.7094],[-1.34596,53.70902],[-1.34617,53.70909],[-1.34657,53.70857],[-1.34682,53.70864],[-1.34695,53.70849],[-1.34749,53.70865],[-1.34737,53.70882],[-1.34955,53.70947],[-1.34882,53.71034]]]]}},
{ "type":"Feature","properties":{"osm_way_id":"977792510","name":"Castlewater Bathrooms Warehouse","building":"warehouse","other":{"addr:postcode":"WF10 1PD","addr:street":"Savile Road"}}, "geometry":{"type":"MultiPolygon","coordinates":[[[[-1.35842,53.7277],[-1.3583,53.72773],[-1.3582,53.72776],[-1.35837,53.72797],[-1.35859,53.72791],[-1.35842,53.7277]]]]}},
{ "type":"Feature","properties":{"osm_way_id":"1009499682","name":"Next","building":"warehouse"},"geometry":{"type":"MultiPolygon","coordinates":[[[[-1.26403,53.59747],[-1.26604,53.59698],[-1.2675,53.59911],[-1.26549,53.5996],[-1.26403,53.59747]]]]}}
]
}
