{
"type": "FeatureCollection",
"features": [
{ "type":"Feature","properties":{"osm_id":"431534156","name":"Costcutter","other":{"addr:city":"Cullompton","addr:housenumber":"3","addr:street":"Fore Street","brand":"Costcutter","brand:wikidata":"Q5175072","brand:wikipedia":"en:Costcutter","shop":"supermarket"}}, "geometry":{"type":"Point","coordinates":[-3.39272,50.85726 ]}},
{ "type":"Feature","properties":{"osm_id":"1852065857","name":"Spar","other":{"addr:city":"Tiverton","addr:country":"GB","addr:county":"Devon","addr:housenumber":"4-6","addr:postcode":"EX16 9NE","addr:street":"Newton Square","addr:suburb":"Bampton","brand":"Spar","brand:wikidata":"Q610492","brand:wikipedia":"en:Spar (retailer)","fhrs:id":"1046420","phone":"+44 1398 331200","shop":"supermarket","website":"https:\/\/www.spar.co.uk\/"}}, "geometry":{"type":"Point","coordinates":[-3.48734,50.99064 ]}},
{ "type":"Feature","properties":{"osm_id":"2929213757","name":"Costcutter","other":{"addr:city":"Tiverton","addr:country":"GB","addr:housenumber":"39","addr:postcode":"EX16 9LU","addr:street":"Brook Street","addr:suburb":"Bampton","brand":"Costcutter","brand:wikidata":"Q5175072","brand:wikipedia":"en:Costcutter","fhrs:id":"8319","phone":"+44 1398 331403","shop":"supermarket","website":"https:\/\/www.costcutter.co.uk\/"}}, "geometry":{"type":"Point","coordinates":[-3.48511,50.98987 ]}},
{ "type":"Feature","properties":{"osm_id":"6168063986","name":"Londis","other":{"shop":"supermarket"}}, "geometry":{"type":"Point","coordinates":[-3.487,50.90424 ]}},
{ "type":"Feature","properties":{"osm_id":"6258030969","name":"Spar","other":{"addr:city":"Exeter","addr:housenumber":"2-4","addr:postcode":"EX5 4HR","addr:street":"Newcourt Road","brand":"Spar","brand:wikidata":"Q610492","brand:wikipedia":"en:SPAR (retailer)","fhrs:id":"8167","opening_hours":"Mo-Su 06:00-21:00","operator":"Spar","payment:cash":"yes","payment:credit_cards":"yes","shop":"supermarket","source:addr":"FHRS Open Data"}}, "geometry":{"type":"Point","coordinates":[-3.48405,50.81564 ]}},
{ "type":"Feature","properties":{"osm_id":"7020802470","other":{"defibrillator:location":"On outside wall.","emergency":"defibrillator","opening_hours":"24\/7"}}, "geometry":{"type":"Point","coordinates":[-1.32589,53.2954 ]}},
{ "type":"Feature","properties":{"osm_id":"8447025466","name":"Lidl","other":{"brand":"Lidl","brand:wikidata":"Q151954","brand:wikipedia":"en:Lidl","shop":"supermarket"}}, "geometry":{"type":"Point","coordinates":[-3.47943,50.90533 ]}},
{ "type":"Feature","properties":{"osm_way_id":"30320563","name":"Morrisons","building":"supermarket","shop":"supermarket","other":{"addr:city":"Crediton","addr:postcode":"EX17 1EY","addr:street":"Mill Street","alt_name":"Morrisons Crediton","brand":"Morrisons","brand:wikidata":"Q922344","brand:wikipedia":"en:Morrisons","fhrs:id":"8320"}}, "geometry":{"type":"MultiPolygon","coordinates":[[[[-3.64996,50.78959],[-3.64998,50.79001],[-3.64937,50.79002],[-3.64936,50.7898],[-3.64943,50.7898],[-3.64942,50.7896],[-3.64996,50.78959]]]]}},
{ "type":"Feature","properties":{"osm_way_id":"37106643","name":"Tesco","building":"yes","shop":"supermarket","other":{"addr:city":"Cullompton","addr:postcode":"EX15 1BQ","addr:street":"Station Road","alt_name":"Tesco Cullompton Superstore","brand":"Tesco","brand:wikidata":"Q487494","brand:wikipedia":"en:Tesco","fhrs:id":"27340","operator":"Tesco"}}, "geometry":{"type":"MultiPolygon","coordinates":[[[[-3.38929,50.85837],[-3.38922,50.85776],[-3.38873,50.85778],[-3.3887,50.85766],[-3.38844,50.85772],[-3.38849,50.8584],[-3.38896,50.85838],[-3.38929,50.85837]]]]}},
{ "type":"Feature","properties":{"osm_way_id":"37450060","name":"Tesco","building":"yes","shop":"supermarket","other":{"addr:city":"Tiverton","addr:postcode":"EX16 4DB","addr:street":"Blundells Road","branch":"Tiverton Superstore","brand":"Tesco","brand:wikidata":"Q487494","brand:wikipedia":"en:Tesco","fhrs:id":"16346","opening_hours":"Mo 06:00-24:00; Tu-Sa 00:00-24:00; Su 10:00-16:00"}}, "geometry":{"type":"MultiPolygon","coordinates":[[[[-3.48096,50.90466],[-3.48194,50.90409],[-3.48212,50.90422],[-3.4821,50.90423],[-3.48249,50.90452],[-3.4815,50.90508],[-3.48117,50.90485],[-3.48121,50.90484],[-3.48096,50.90466]]]]}},
{ "type":"Feature","properties":{"osm_way_id":"132800944","name":"M&S Simply Food","building":"yes","shop":"supermarket","other":{"addr:city":"Tiverton","addr:housename":"The Old Brewery","addr:postcode":"EX16 6LU","addr:street":"Phoenix Lane","branch":"Tiverton Simply Food","brand":"M&S Simply Food","brand:wikidata":"Q714491","brand:wikipedia":"en:Marks & Spencer","fhrs:id":"23707","opening_hours":"Mo-Sa 08:00-20:00; Su 10:00-16:00"}}, "geometry":{"type":"MultiPolygon","coordinates":[[[[-3.48564,50.90215],[-3.48559,50.90213],[-3.48561,50.9021],[-3.48531,50.90197],[-3.48529,50.90199],[-3.48523,50.90197],[-3.48495,50.90223],[-3.48511,50.90229],[-3.48508,50.90232],[-3.48533,50.90243],[-3.4856,50.90218],[-3.48564,50.90215]]]]}},
{ "type":"Feature","properties":{"osm_way_id":"136989194","name":"Aldi","building":"yes","shop":"supermarket","other":{"addr:city":"Cullompton","addr:housenumber":"Unit 1","addr:postcode":"EX15 1FU","addr:street":"Brook Road","alt_name":"ALDI Cullompton","brand":"ALDI","brand:wikidata":"Q41171672","brand:wikipedia":"en:Aldi","fhrs:id":"1090985","operator":"Aldi"}}, "geometry":{"type":"MultiPolygon","coordinates":[[[[-3.39374,50.85409],[-3.39394,50.85376],[-3.39397,50.85368],[-3.39339,50.85355],[-3.3934,50.85353],[-3.39331,50.8535],[-3.39325,50.85347],[-3.39292,50.85376],[-3.39297,50.85378],[-3.39289,50.8539],[-3.39304,50.85394],[-3.393,50.854],[-3.39334,50.85407],[-3.39338,50.85401],[-3.39374,50.85409]]]]}},
{ "type":"Feature","properties":{"osm_way_id":"148435527","name":"Morrisons","building":"yes","shop":"supermarket","other":{"addr:city":"Tiverton","addr:postcode":"EX16 6RZ","addr:street":"Kennedy Way","branch":"Tiverton","brand":"Morrisons","brand:wikidata":"Q922344","brand:wikipedia":"en:Morrisons","fhrs:id":"8249","opening_hours":"Mo-Sa 07:00-22:00; Su 10:00-16:00"}}, "geometry":{"type":"MultiPolygon","coordinates":[[[[-3.49199,50.90745],[-3.49191,50.90742],[-3.49195,50.90736],[-3.49148,50.90724],[-3.49147,50.90725],[-3.49132,50.90721],[-3.49129,50.90725],[-3.49123,50.90723],[-3.49119,50.90729],[-3.49112,50.90727],[-3.49095,50.90751],[-3.49103,50.90753],[-3.49083,50.90783],[-3.4916,50.90803],[-3.49189,50.90758],[-3.49191,50.9076],[-3.49193,50.90761],[-3.49197,50.90761],[-3.49201,50.9076],[-3.49205,50.90756],[-3.49206,50.90752],[-3.49204,50.9075],[-3.49201,50.90749],[-3.49197,50.90748],[-3.49199,50.90745]]]]}},
{ "type":"Feature","properties":{"osm_way_id":"176300511","name":"Tesco","building":"yes","shop":"supermarket","other":{"addr:city":"Crediton","addr:housename":"Well Parks","addr:postcode":"EX17 3PH","alt_name":"Tesco Crediton Superstore","brand":"Tesco","brand:wikidata":"Q487494","brand:wikipedia":"en:Tesco","fhrs:id":"31779"}}, "geometry":{"type":"MultiPolygon","coordinates":[[[[-3.64404,50.78362],[-3.64404,50.78381],[-3.64434,50.78381],[-3.64435,50.78393],[-3.64436,50.78395],[-3.64368,50.78394],[-3.64368,50.78396],[-3.64281,50.78396],[-3.64282,50.78332],[-3.6437,50.78333],[-3.6437,50.78334],[-3.64393,50.78334],[-3.64392,50.78362],[-3.64404,50.78362]]]]}},
{ "type":"Feature","properties":{"osm_way_id":"290152190","name":"Co-op","shop":"supermarket","other":{"addr:city":"Cullompton","addr:housenumber":"23-25","addr:postcode":"EX15 1JS","addr:street":"Fore Street","alt_name":"The Co-operative Food","building:part":"yes","fhrs:id":"8486"}}, "geometry":{"type":"MultiPolygon","coordinates":[[[[-3.39271,50.8566],[-3.3927,50.8565],[-3.39256,50.85651],[-3.39257,50.8566],[-3.39271,50.8566]]]]}},
{ "type":"Feature","properties":{"osm_way_id":"658719124","name":"COOP","building":"retail","shop":"supermarket","other":{"addr:city":"Cullompton","addr:postcode":"EX15 2EZ","building:levels":"1","fhrs:id":"1090998","source:addr:postcode":"FHRS Open Data"}}, "geometry":{"type":"MultiPolygon","coordinates":[[[[-3.36865,50.89422],[-3.36846,50.89405],[-3.3681,50.89421],[-3.3683,50.89438],[-3.36865,50.89422]]]]}},
{ "type":"Feature","properties":{"osm_way_id":"750949354","name":"Co-operative","building":"yes","shop":"supermarket"},"geometry":{"type":"MultiPolygon","coordinates":[[[[-1.32589,53.29541],[-1.32602,53.29542],[-1.32602,53.29541],[-1.32629,53.29543],[-1.32633,53.29528],[-1.32631,53.29528],[-1.32634,53.2952],[-1.32609,53.29518],[-1.32607,53.29526],[-1.32604,53.29526],[-1.32604,53.29529],[-1.32593,53.29527],[-1.32589,53.2954],[-1.32589,53.29541]]]]}}
]
}
