{
"type": "FeatureCollection",
"features": [
{ "type":"Feature","properties":{"osm_id":"207289070","name":"Pilleth","place":"village","other":{"name:cy":"Pilalau","name:en":"Pilleth","wikidata":"Q7194165"}}, "geometry":{"type":"Point","coordinates":[-3.09064,52.30488 ]}},
{ "type":"Feature","properties":{"osm_way_id":"830793879","building":"warehouse","other":{"addr:city":"Cullompton","addr:parentstreet":"Station Road","addr:postcode":"EX15 3SE","addr:street":"Station Road Industrial Estate","addr:unit":"1A","addr:village":"Hemyock","building:levels":"1"}}, "geometry":{"type":"MultiPolygon","coordinates":[[[[-3.22844,50.91669],[-3.22827,50.91669],[-3.22826,50.91676],[-3.22844,50.91677],[-3.22844,50.91669]]]]}},
{ "type":"Feature","properties":{"osm_way_id":"830793880","building":"warehouse","other":{"addr:city":"Cullompton","addr:parentstreet":"Station Road","addr:postcode":"EX15 3SE","addr:street":"Station Road Industrial Estate","addr:unit":"1B","addr:village":"Hemyock","building:levels":"1"}}, "geometry":{"type":"MultiPolygon","coordinates":[[[[-3.22844,50.91677],[-3.22826,50.91676],[-3.22825,50.91684],[-3.22843,50.91684],[-3.22844,50.91677]]]]}},
{ "type":"Feature","properties":{"osm_way_id":"830793881","building":"warehouse","other":{"addr:city":"Cullompton","addr:parentstreet":"Station Road","addr:postcode":"EX15 3SE","addr:street":"Station Road Industrial Estate","addr:unit":"1C","addr:village":"Hemyock","building:levels":"1"}}, "geometry":{"type":"MultiPolygon","coordinates":[[[[-3.22843,50.91684],[-3.22825,50.91684],[-3.22825,50.91691],[-3.22839,50.91692],[-3.22842,50.91692],[-3.22843,50.91684]]]]}},
{ "type":"Feature","properties":{"osm_way_id":"830793882","building":"warehouse","other":{"addr:city":"Cullompton","addr:parentstreet":"Station Road","addr:postcode":"EX15 3SE","addr:street":"Station Road Industrial Estate","addr:unit":"1D","addr:village":"Hemyock","building:levels":"1"}}, "geometry":{"type":"MultiPolygon","coordinates":[[[[-3.22839,50.91692],[-3.22825,50.91691],[-3.22824,50.91696],[-3.22838,50.91696],[-3.22839,50.91692]]]]}},
{ "type":"Feature","properties":{"osm_way_id":"830793883","building":"warehouse","other":{"addr:city":"Cullompton","addr:parentstreet":"Station Road","addr:postcode":"EX15 3SE","addr:street":"Station Road Industrial Estate","addr:unit":"1E","addr:village":"Hemyock","building:levels":"1"}}, "geometry":{"type":"MultiPolygon","coordinates":[[[[-3.22838,50.91696],[-3.22824,50.91696],[-3.22824,50.917],[-3.22838,50.91701],[-3.22838,50.91696]]]]}},
{ "type":"Feature","properties":{"osm_way_id":"830793884","building":"warehouse","other":{"addr:city":"Cullompton","addr:parentstreet":"Station Road","addr:postcode":"EX15 3SE","addr:street":"Station Road Industrial Estate","addr:unit":"1G","addr:village":"Hemyock","building:levels":"1"}}, "geometry":{"type":"MultiPolygon","coordinates":[[[[-3.22838,50.91705],[-3.22823,50.91705],[-3.22823,50.91709],[-3.22837,50.9171],[-3.22838,50.91705]]]]}},
{ "type":"Feature","properties":{"osm_way_id":"830793885","building":"warehouse","other":{"addr:city":"Cullompton","addr:parentstreet":"Station Road","addr:postcode":"EX15 3SE","addr:street":"Station Road Industrial Estate","addr:unit":"1F","addr:village":"Hemyock","building:levels":"1"}}, "geometry":{"type":"MultiPolygon","coordinates":[[[[-3.22838,50.91701],[-3.22824,50.917],[-3.22823,50.91705],[-3.22838,50.91705],[-3.22838,50.91701]]]]}},
{ "type":"Feature","properties":{"osm_way_id":"830793886","building":"warehouse","other":{"addr:city":"Cullompton","addr:parentstreet":"Station Road","addr:postcode":"EX15 3SE","addr:street":"Station Road Industrial Estate","addr:unit":"2","addr:village":"Hemyock","building:levels":"1"}}, "geometry":{"type":"MultiPolygon","coordinates":[[[[-3.22842,50.91714],[-3.22818,50.91713],[-3.22815,50.91738],[-3.22839,50.91739],[-3.22842,50.91714]]]]}},
{ "type":"Feature","properties":{"osm_way_id":"830793887","building":"warehouse","other":{"addr:city":"Cullompton","addr:parentstreet":"Station Road","addr:postcode":"EX15 3SE","addr:street":"Station Road Industrial Estate","addr:unit":"3-4","addr:village":"Hemyock","building:levels":"1"}}, "geometry":{"type":"MultiPolygon","coordinates":[[[[-3.22788,50.91712],[-3.22762,50.91711],[-3.22759,50.91735],[-3.22786,50.91736],[-3.22788,50.91712]]]]}},
{ "type":"Feature","properties":{"osm_way_id":"830793888","building":"warehouse","other":{"addr:city":"Cullompton","addr:parentstreet":"Station Road","addr:postcode":"EX15 3SE","addr:street":"Station Road Industrial Estate","addr:unit":"5-6","addr:village":"Hemyock","building:levels":"1"}}, "geometry":{"type":"MultiPolygon","coordinates":[[[[-3.22795,50.91679],[-3.22773,50.91678],[-3.22771,50.91692],[-3.22794,50.91693],[-3.22795,50.91679]]]]}}
]
}
