{
"type": "FeatureCollection",
"features": [
{ "type":"Feature","properties":{"osm_id":"288853761","name":"The Co-operative Food","other":{"addr:postcode":"PE27 3ER","brand":"The Co-operative Food","brand:wikidata":"Q3277439","brand:wikipedia":"en:Co-op Food","operator":"Co-operative Society","shop":"supermarket"}}, "geometry":{"type":"Point","coordinates":[-0.07594,52.34346 ]}},
{ "type":"Feature","properties":{"osm_id":"339777102","name":"Co-op Food","other":{"brand":"Co-op Food","brand:wikidata":"Q3277439","brand:wikipedia":"en:Co-op Food","operator":"The Co-operative Group","operator:wikidata":"Q117202","operator:wikipedia":"en:The Co-operative Group","shop":"supermarket"}}, "geometry":{"type":"Point","coordinates":[-0.22684,52.32354 ]}},
{ "type":"Feature","properties":{"osm_id":"5087818536","name":"M&S Foodhall","other":{"brand":"M&S Foodhall","brand:wikidata":"Q714491","brand:wikipedia":"en:Marks & Spencer","shop":"supermarket"}}, "geometry":{"type":"Point","coordinates":[-0.181,52.33049 ]}},
{ "type":"Feature","properties":{"osm_id":"5497704669","name":"Morrisons Daily","other":{"brand":"Morrisons Daily","brand:wikidata":"Q99752411","shop":"supermarket","website":"https:\/\/my.morrisons.com\/storefinder\/644"}}, "geometry":{"type":"Point","coordinates":[-0.05974,52.3311 ]}},
{ "type":"Feature","properties":{"osm_id":"6553806650","name":"Co Op","other":{"shop":"supermarket"}}, "geometry":{"type":"Point","coordinates":[-0.2227,52.31708 ]}},
{ "type":"Feature","properties":{"osm_way_id":"28728314","name":"Co-op Food","building":"yes","shop":"supermarket","other":{"addr:city":"Yaxley","addr:postcode":"PE7 3NT","addr:street":"Bentley Avenue","brand":"Co-op Food","brand:wikidata":"Q3277439","brand:wikipedia":"en:Co-op Food","fhrs:id":"341467","operator":"Central England Co-operative"}}, "geometry":{"type":"MultiPolygon","coordinates":[[[[-0.25645,52.52157],[-0.25709,52.52144],[-0.25728,52.5218],[-0.25665,52.52192],[-0.25658,52.52179],[-0.25684,52.52174],[-0.25678,52.52164],[-0.25652,52.52169],[-0.25645,52.52157]]]]}},
{ "type":"Feature","properties":{"osm_way_id":"38500596","name":"Tesco Extra","building":"yes","shop":"supermarket","other":{"addr:postcode":"PE19 2SA","addr:street":"Barford Road","brand":"Tesco Extra","brand:wikidata":"Q25172225","brand:wikipedia":"en:Tesco Extra","designation":"3145","operator":"Tesco Stores Ltd","toilets:wheelchair":"yes","wheelchair":"yes"}}, "geometry":{"type":"MultiPolygon","coordinates":[[[[-0.27032,52.21004],[-0.27023,52.20965],[-0.26901,52.20976],[-0.26918,52.21044],[-0.26927,52.21043],[-0.26933,52.21067],[-0.27087,52.21052],[-0.27085,52.21043],[-0.27072,52.21044],[-0.27061,52.21001],[-0.27032,52.21004]]]]}},
{ "type":"Feature","properties":{"osm_way_id":"43591130","name":"Waitrose","building":"yes","shop":"supermarket","other":{"addr:city":"St Ives","addr:postcode":"PE27 5BW","addr:street":"Station Road","brand":"Waitrose","brand:wikidata":"Q771734","brand:wikipedia":"en:Waitrose & Partners","official_name":"Waitrose & Partners","operator":"Waitrose & Partners","phone":"+44 1480 492949","website":"https:\/\/www.waitrose.com\/bf_home\/bf\/108.html"}}, "geometry":{"type":"MultiPolygon","coordinates":[[[[-0.06915,52.3226],[-0.0691,52.32257],[-0.06878,52.32239],[-0.06858,52.32227],[-0.06864,52.32224],[-0.06859,52.32221],[-0.06857,52.32213],[-0.06875,52.32212],[-0.0688,52.32214],[-0.06891,52.32207],[-0.06932,52.32229],[-0.06925,52.32233],[-0.06941,52.32242],[-0.06915,52.3226]]]]}},
{ "type":"Feature","properties":{"osm_way_id":"48837812","name":"Budgens","building":"yes","shop":"supermarket","other":{"addr:city":"Bluntisham","addr:postcode":"PE28 3PA","addr:street":"Station Road","brand":"Budgens","brand:wikidata":"Q4985016","operator":"Budgens"}}, "geometry":{"type":"MultiPolygon","coordinates":[[[[0.00374,52.34933],[0.00379,52.34935],[0.00374,52.34941],[0.00404,52.34949],[0.00414,52.34935],[0.00379,52.34925],[0.00374,52.34933]]]]}},
{ "type":"Feature","properties":{"osm_way_id":"118619712","name":"Co-op Food","building":"yes","shop":"supermarket","other":{"addr:postcode":"PE19 8FT","brand":"Co-op Food","brand:wikidata":"Q3277439","brand:wikipedia":"en:Co-op Food","operator":"Central England Co-operative Society"}}, "geometry":{"type":"MultiPolygon","coordinates":[[[[-0.2865,52.2281],[-0.28671,52.22811],[-0.28673,52.22797],[-0.28714,52.22799],[-0.28721,52.22758],[-0.28659,52.22754],[-0.2865,52.2281]]]]}},
{ "type":"Feature","properties":{"osm_way_id":"162072815","name":"Co-op Food","building":"retail","shop":"supermarket","other":{"addr:city":"Godmanchester","addr:housenumber":"32","addr:postcode":"PE29 2BT","addr:street":"Cambridge Road","brand":"Co-op Food","brand:wikidata":"Q3277439","brand:wikipedia":"en:Co-op Food","fhrs:id":"748539","opening_hours":"Mo-Su 07:00-22:00","operator":"The Co-operative Group","operator:wikidata":"Q117202","operator:wikipedia":"en:The Co-operative Group","phone":"01480 433139","website":"https:\/\/www.centralengland.coop\/"}}, "geometry":{"type":"MultiPolygon","coordinates":[[[[-0.16808,52.31871],[-0.16793,52.31861],[-0.16795,52.3186],[-0.16778,52.31851],[-0.16767,52.31859],[-0.16779,52.31866],[-0.16774,52.31869],[-0.16794,52.3188],[-0.16808,52.31871]]]]}},
{ "type":"Feature","properties":{"osm_way_id":"189956249","name":"Waitrose","building":"yes","shop":"supermarket","other":{"addr:postcode":"PE19 2BH","addr:street":"Priory Lane","brand":"Waitrose","brand:wikidata":"Q771734","brand:wikipedia":"en:Waitrose","fhrs:id":"341541","official_name":"Waitrose & Partners","operator":"Waitrose & Partners","source:addr":"FHRS Open Data","toilets:wheelchair":"no","wheelchair":"yes"}}, "geometry":{"type":"MultiPolygon","coordinates":[[[[-0.27039,52.22881],[-0.27041,52.22862],[-0.27042,52.22839],[-0.26988,52.22837],[-0.26988,52.22849],[-0.26967,52.22848],[-0.26967,52.22858],[-0.26966,52.22865],[-0.26976,52.22866],[-0.26975,52.22874],[-0.27009,52.22875],[-0.27008,52.22882],[-0.27033,52.22883],[-0.27033,52.22881],[-0.27039,52.22881]]]]}},
{ "type":"Feature","properties":{"osm_way_id":"189956391","name":"Lidl","building":"yes","shop":"supermarket","other":{"addr:country":"GB","addr:housenumber":"45","addr:postcode":"PE19 1JL","addr:street":"Cambridge Street","brand":"Lidl","brand:wikidata":"Q151954","brand:wikipedia":"en:Lidl","fhrs:id":"740039","toilets:wheelchair":"no","wheelchair":"yes"}}, "geometry":{"type":"MultiPolygon","coordinates":[[[[-0.26384,52.22822],[-0.2634,52.22814],[-0.26335,52.22826],[-0.26322,52.22824],[-0.26309,52.22853],[-0.26332,52.22857],[-0.26334,52.22852],[-0.26362,52.22857],[-0.26371,52.22836],[-0.26377,52.22837],[-0.26384,52.22822]]]]}},
{ "type":"Feature","properties":{"osm_way_id":"189956549","name":"M&S Foodhall","building":"yes","shop":"supermarket","other":{"addr:housenumber":"47-51","addr:postcode":"PE19 1BN","addr:street":"High Street","brand":"M&S Foodhall","brand:wikidata":"Q714491","brand:wikipedia":"en:Marks & Spencer","toilets:wheelchair":"no","wheelchair":"yes"}}, "geometry":{"type":"MultiPolygon","coordinates":[[[[-0.2668,52.22876],[-0.26678,52.22867],[-0.26674,52.22848],[-0.26639,52.22854],[-0.26646,52.22883],[-0.26664,52.22881],[-0.26663,52.22878],[-0.2668,52.22876]]]]}},
{ "type":"Feature","properties":{"osm_way_id":"189956998","name":"Spar","building":"yes","shop":"supermarket","other":{"addr:postcode":"PE19 1QB","addr:street":"Cambridge Street","brand":"Spar","brand:wikidata":"Q610492","brand:wikipedia":"en:SPAR (retailer)","wheelchair":"yes"}}, "geometry":{"type":"MultiPolygon","coordinates":[[[[-0.25298,52.22851],[-0.25301,52.22841],[-0.25283,52.22839],[-0.25284,52.22836],[-0.25267,52.22835],[-0.25267,52.22836],[-0.25259,52.22835],[-0.25256,52.22846],[-0.25298,52.22851]]]]}},
{ "type":"Feature","properties":{"osm_way_id":"296525847","name":"Co-op Food","building":"retail","shop":"supermarket","other":{"brand":"Co-op Food","brand:wikidata":"Q3277439","brand:wikipedia":"en:Co-op Food","operator":"Central England Co-operative Society"}}, "geometry":{"type":"MultiPolygon","coordinates":[[[[-0.28578,52.44319],[-0.2858,52.44321],[-0.28557,52.4433],[-0.28545,52.44318],[-0.28535,52.44322],[-0.28525,52.44313],[-0.28558,52.443],[-0.28561,52.44302],[-0.28578,52.44319]]]]}},
{ "type":"Feature","properties":{"osm_way_id":"388994658","name":"Lidl","building":"supermarket","shop":"supermarket","other":{"addr:city":"Huntingdon","addr:country":"GB","addr:county":"Cambridgeshire","addr:housenumber":"11","addr:postcode":"PE29 6HG","addr:street":"Stukeley Road","alt_name":"LIDL Huntingdon","brand":"Lidl","brand:wikidata":"Q151954","brand:wikipedia":"en:Lidl","fhrs:id":"840484","opening_hours":"Mo-Sa 08:00-20:00; Su 10:00-16:00","operator":"Lidl UK GmbH"}}, "geometry":{"type":"MultiPolygon","coordinates":[[[[-0.19115,52.33668],[-0.19091,52.33646],[-0.19183,52.33609],[-0.19198,52.33623],[-0.19207,52.33619],[-0.19216,52.33627],[-0.19115,52.33668]]]]}},
{ "type":"Feature","properties":{"osm_way_id":"412714255","name":"Tesco","building":"yes","shop":"supermarket","other":{"addr:city":"Ramsey","addr:postcode":"PE26 2SB","addr:street":"Neil Way","alt_name":"Tesco Ramsey Superstore","brand":"Tesco","brand:wikidata":"Q487494","brand:wikipedia":"en:Tesco","operator":"Tesco Stores Ltd"}}, "geometry":{"type":"MultiPolygon","coordinates":[[[[-0.11208,52.45595],[-0.11269,52.45563],[-0.11276,52.4556],[-0.11285,52.45566],[-0.11332,52.456],[-0.1133,52.45601],[-0.11247,52.45644],[-0.11207,52.45615],[-0.11224,52.45606],[-0.11208,52.45595]]]]}},
{ "type":"Feature","properties":{"osm_way_id":"418294965","name":"Tesco Extra","building":"yes","shop":"supermarket","other":{"addr:city":"Huntingdon","addr:postcode":"PE28 2LA","addr:street":"Abbots Ripton Road","alt_name":"Tesco Huntingdon Extra","brand":"Tesco Extra","brand:wikidata":"Q25172225","brand:wikipedia":"en:Tesco Extra","opening_hours":"Mo-Sa 00:00-24:00; Su 10:00-16:00","operator":"Tesco Stores Ltd"}}, "geometry":{"type":"MultiPolygon","coordinates":[[[[-0.18106,52.35321],[-0.17935,52.35309],[-0.17936,52.35302],[-0.17898,52.353],[-0.17901,52.35286],[-0.17936,52.35289],[-0.17944,52.35242],[-0.17957,52.35243],[-0.17957,52.35246],[-0.1802,52.35251],[-0.18021,52.35246],[-0.18085,52.3525],[-0.18082,52.3527],[-0.1807,52.35269],[-0.18065,52.35295],[-0.18072,52.35295],[-0.1807,52.35305],[-0.18108,52.35307],[-0.18106,52.35321]]]]}},
{ "type":"Feature","properties":{"osm_way_id":"442350072","name":"Lidl","building":"retail","shop":"supermarket","other":{"addr:country":"GB","addr:housenumber":"29","addr:postcode":"PE19 8EN","addr:street":"Great North Road","brand":"Lidl","brand:wikidata":"Q151954","brand:wikipedia":"en:Lidl","fhrs:id":"974859","toilets:wheelchair":"yes","wheelchair":"yes"}}, "geometry":{"type":"MultiPolygon","coordinates":[[[[-0.29084,52.20896],[-0.29003,52.20885],[-0.29013,52.20854],[-0.29094,52.20865],[-0.29084,52.20896]]]]}},
{ "type":"Feature","properties":{"osm_way_id":"442350430","name":"Aldi","building":"retail","shop":"supermarket","other":{"addr:postcode":"PE19 8EX","brand":"ALDI","brand:wikidata":"Q41171672","brand:wikipedia":"en:Aldi"}}, "geometry":{"type":"MultiPolygon","coordinates":[[[[-0.28969,52.2113],[-0.28963,52.21103],[-0.28873,52.2111],[-0.28877,52.21129],[-0.28867,52.2113],[-0.28869,52.21138],[-0.28969,52.2113]]]]}},
{ "type":"Feature","properties":{"osm_way_id":"611666505","name":"Sainsbury's","building":"yes","landuse":"retail","shop":"supermarket","other":{"addr:city":"Huntingdon","addr:postcode":"PE29 3FG","addr:street":"St Germain Street","branch":"Huntingdon Superstore","brand":"Sainsbury's","brand:wikidata":"Q152096","brand:wikipedia":"en:Sainsbury's","opening_hours":"Mo-We 08:00-20:00; Th-Fr 08:00-21:00; Sa 07:30-20:00; Su 10:00-16:00","website":"https:\/\/stores.sainsburys.co.uk\/2007\/huntingdon"}}, "geometry":{"type":"MultiPolygon","coordinates":[[[[-0.18235,52.3317],[-0.18206,52.33154],[-0.18198,52.3315],[-0.18164,52.33131],[-0.18153,52.33125],[-0.18142,52.33132],[-0.18143,52.33132],[-0.18091,52.33167],[-0.18103,52.33174],[-0.18092,52.33182],[-0.18099,52.33185],[-0.18145,52.33211],[-0.18142,52.33213],[-0.18158,52.33222],[-0.18206,52.33189],[-0.18235,52.3317]]]]}},
{ "type":"Feature","properties":{"osm_way_id":"612339906","name":"Aldi","building":"retail","shop":"supermarket","other":{"addr:city":"Huntingdon","addr:country":"GB","addr:county":"Cambridgeshire","addr:housenumber":"4","addr:postcode":"PE29 3HG","addr:street":"Edison Bell Way","branch":"Huntingdon","brand":"ALDI","brand:wikidata":"Q41171672","brand:wikipedia":"en:Aldi","fhrs:id":"949417","opening_hours":"Mo-Sa 08:00-22:00; Su 10:00-16:00"}}, "geometry":{"type":"MultiPolygon","coordinates":[[[[-0.19072,52.33309],[-0.19042,52.33296],[-0.18994,52.33338],[-0.19022,52.3335],[-0.19019,52.33353],[-0.19029,52.33357],[-0.19053,52.33337],[-0.1906,52.33339],[-0.19071,52.3333],[-0.19064,52.33327],[-0.19078,52.33315],[-0.19069,52.33311],[-0.19072,52.33309]]]]}},
{ "type":"Feature","properties":{"osm_way_id":"663558752","name":"Co-op Food","building":"yes","shop":"supermarket","other":{"addr:city":"Godmanchester","addr:housename":"Unit 1","addr:housenumber":"King James Retail Centre","addr:postcode":"PE29 2PA","addr:street":"Ermine Street","brand":"Co-op Food","brand:wikidata":"Q3277439","brand:wikipedia":"en:Co-op Food","fhrs:id":"1036869","opening_hours":"Mo-Su 10:00-22:00","operator":"The Co-operative Group","operator:wikidata":"Q117202","operator:wikipedia":"en:The Co-operative Group","owner":"Central England Co-operative","phone":"01480 450033","website":"https:\/\/www.centralengland.coop\/"}}, "geometry":{"type":"MultiPolygon","coordinates":[[[[-0.16333,52.31192],[-0.16325,52.3121],[-0.16327,52.31211],[-0.16331,52.31211],[-0.16357,52.31215],[-0.16361,52.31216],[-0.16369,52.31198],[-0.16333,52.31192]]]]}},
{ "type":"Feature","properties":{"osm_way_id":"825485350","name":"Aldi","building":"yes","shop":"supermarket","other":{"brand":"ALDI","brand:wikidata":"Q41171672","brand:wikipedia":"en:Aldi","website":"https:\/\/www.aldi.co.uk\/store\/s-uk-E1242"}}, "geometry":{"type":"MultiPolygon","coordinates":[[[[-0.05903,52.33248],[-0.05944,52.33249],[-0.05949,52.33199],[-0.05908,52.33199],[-0.05903,52.33248]]]]}},
{ "type":"Feature","properties":{"osm_way_id":"983654848","name":"Morrisons","shop":"supermarket","other":{"addr:city":"St Ives","addr:postcode":"PE27 4NB","addr:street":"Parsons Green","brand":"Morrisons","brand:wikidata":"Q922344","brand:wikipedia":"en:Morrisons","website":"https:\/\/my.morrisons.com\/storefinder\/644"}}, "geometry":{"type":"MultiPolygon","coordinates":[[[[-0.0573,52.3297],[-0.05752,52.33081],[-0.05768,52.33085],[-0.05807,52.33079],[-0.05839,52.33065],[-0.05916,52.33062],[-0.05943,52.3306],[-0.05884,52.32935],[-0.05836,52.32937],[-0.05838,52.32958],[-0.0578,52.32961],[-0.05775,52.32968],[-0.0573,52.3297]]]]}}
]
}
