{
"type": "FeatureCollection",
"features": [
{ "type":"Feature","properties":{"osm_id":"3170153247","name":"MontyCarvo Ltd","other":{"addr:city":"Abbots Ripton","addr:housenumber":"Unit 2A","addr:postcode":"PE28 2PH","addr:street":"Grange Farm","building":"warehouse","building:levels":"1"}}, "geometry":{"type":"Point","coordinates":[-0.16552,52.37767 ]}},
{ "type":"Feature","properties":{"osm_way_id":"123407536","name":"Nottingham Rehab Services","building":"warehouse","other":{"addr:postcode":"PE29 6FQ"}}, "geometry":{"type":"MultiPolygon","coordinates":[[[[-0.20592,52.33586],[-0.2056,52.33649],[-0.20505,52.33638],[-0.20538,52.33576],[-0.20592,52.33586]]]]}},
{ "type":"Feature","properties":{"osm_way_id":"168213516","building":"warehouse"},"geometry":{"type":"MultiPolygon","coordinates":[[[[-0.23805,52.52371],[-0.23838,52.52333],[-0.23847,52.52336],[-0.23853,52.52329],[-0.2386,52.5233],[-0.23865,52.52322],[-0.23845,52.52318],[-0.23843,52.52324],[-0.2381,52.52314],[-0.23773,52.52361],[-0.23805,52.52371]]]]}},
{ "type":"Feature","properties":{"osm_way_id":"168213517","building":"warehouse"},"geometry":{"type":"MultiPolygon","coordinates":[[[[-0.24201,52.52876],[-0.24147,52.52879],[-0.24146,52.52874],[-0.24124,52.52876],[-0.24116,52.52829],[-0.24125,52.52828],[-0.24124,52.52822],[-0.24134,52.52821],[-0.24127,52.5278],[-0.24158,52.52778],[-0.24155,52.52763],[-0.24181,52.52761],[-0.24201,52.52876]]]]}},
{ "type":"Feature","properties":{"osm_way_id":"168213519","building":"warehouse"},"geometry":{"type":"MultiPolygon","coordinates":[[[[-0.23707,52.52515],[-0.23731,52.52488],[-0.23701,52.52479],[-0.23706,52.52473],[-0.2368,52.52465],[-0.23652,52.52497],[-0.23707,52.52515]]]]}},
{ "type":"Feature","properties":{"osm_way_id":"168213522","building":"warehouse","other":{"addr:postcode":"PE7 3FW"}}, "geometry":{"type":"MultiPolygon","coordinates":[[[[-0.23724,52.5261],[-0.23733,52.52599],[-0.23742,52.52587],[-0.23677,52.52568],[-0.23659,52.52591],[-0.23724,52.5261]]]]}},
{ "type":"Feature","properties":{"osm_way_id":"168213524","building":"warehouse"},"geometry":{"type":"MultiPolygon","coordinates":[[[[-0.24065,52.52773],[-0.24096,52.52741],[-0.24061,52.52728],[-0.2403,52.5276],[-0.24065,52.52773]]]]}},
{ "type":"Feature","properties":{"osm_way_id":"168213525","building":"warehouse"},"geometry":{"type":"MultiPolygon","coordinates":[[[[-0.23951,52.52456],[-0.23964,52.52445],[-0.2394,52.52435],[-0.23928,52.52446],[-0.23951,52.52456]]]]}},
{ "type":"Feature","properties":{"osm_way_id":"168213526","building":"warehouse"},"geometry":{"type":"MultiPolygon","coordinates":[[[[-0.24158,52.52694],[-0.24152,52.52667],[-0.24115,52.5267],[-0.24121,52.52697],[-0.24158,52.52694]]]]}},
{ "type":"Feature","properties":{"osm_way_id":"168213527","building":"warehouse"},"geometry":{"type":"MultiPolygon","coordinates":[[[[-0.2406,52.52728],[-0.24029,52.5276],[-0.23999,52.52749],[-0.2403,52.52717],[-0.2406,52.52728]]]]}},
{ "type":"Feature","properties":{"osm_way_id":"168213528","building":"warehouse"},"geometry":{"type":"MultiPolygon","coordinates":[[[[-0.2383,52.52532],[-0.23835,52.52519],[-0.23809,52.52514],[-0.23803,52.52527],[-0.2383,52.52532]]]]}},
{ "type":"Feature","properties":{"osm_way_id":"168213529","building":"warehouse","other":{"addr:postcode":"PE7 3EL"}}, "geometry":{"type":"MultiPolygon","coordinates":[[[[-0.24086,52.5267],[-0.23979,52.52628],[-0.23999,52.52609],[-0.24096,52.52646],[-0.24089,52.52653],[-0.24099,52.52657],[-0.24086,52.5267]]]]}},
{ "type":"Feature","properties":{"osm_way_id":"168213530","building":"warehouse"},"geometry":{"type":"MultiPolygon","coordinates":[[[[-0.24069,52.52668],[-0.24055,52.52682],[-0.24008,52.52664],[-0.24012,52.5266],[-0.23997,52.52654],[-0.24008,52.52644],[-0.24069,52.52668]]]]}},
{ "type":"Feature","properties":{"osm_way_id":"168213531","building":"warehouse","other":{"addr:postcode":"PE7 3EN"}}, "geometry":{"type":"MultiPolygon","coordinates":[[[[-0.2403,52.52716],[-0.23997,52.52748],[-0.23967,52.52737],[-0.24001,52.52705],[-0.2403,52.52716]]]]}},
{ "type":"Feature","properties":{"osm_way_id":"168213532","building":"warehouse"},"geometry":{"type":"MultiPolygon","coordinates":[[[[-0.2374,52.52551],[-0.23755,52.52534],[-0.23706,52.52518],[-0.23691,52.52535],[-0.2374,52.52551]]]]}},
{ "type":"Feature","properties":{"osm_way_id":"168213534","building":"warehouse"},"geometry":{"type":"MultiPolygon","coordinates":[[[[-0.24096,52.5246],[-0.24087,52.52417],[-0.24039,52.5242],[-0.24041,52.52429],[-0.2406,52.52428],[-0.24067,52.52462],[-0.24096,52.5246]]]]}},
{ "type":"Feature","properties":{"osm_way_id":"168213536","building":"warehouse"},"geometry":{"type":"MultiPolygon","coordinates":[[[[-0.23883,52.52394],[-0.23892,52.52376],[-0.23877,52.52373],[-0.23888,52.52355],[-0.23856,52.52349],[-0.23834,52.52384],[-0.23883,52.52394]]]]}},
{ "type":"Feature","properties":{"osm_way_id":"168213537","building":"warehouse"},"geometry":{"type":"MultiPolygon","coordinates":[[[[-0.23921,52.52514],[-0.23933,52.52503],[-0.23919,52.52498],[-0.23908,52.52508],[-0.23921,52.52514]]]]}},
{ "type":"Feature","properties":{"osm_way_id":"168213540","building":"warehouse"},"geometry":{"type":"MultiPolygon","coordinates":[[[[-0.23823,52.52552],[-0.2383,52.52538],[-0.23803,52.52533],[-0.23797,52.52547],[-0.23823,52.52552]]]]}},
{ "type":"Feature","properties":{"osm_way_id":"168213541","building":"warehouse","other":{"addr:postcode":"PE7 3GP"}}, "geometry":{"type":"MultiPolygon","coordinates":[[[[-0.23836,52.52512],[-0.2384,52.52502],[-0.23814,52.52498],[-0.2381,52.52508],[-0.23836,52.52512]]]]}},
{ "type":"Feature","properties":{"osm_way_id":"168213543","building":"warehouse","other":{"addr:postcode":"PE7 3EJ"}}, "geometry":{"type":"MultiPolygon","coordinates":[[[[-0.2407,52.52482],[-0.24026,52.5246],[-0.24044,52.52446],[-0.24035,52.52441],[-0.24018,52.52455],[-0.23997,52.52444],[-0.23972,52.52463],[-0.23962,52.52458],[-0.23939,52.52475],[-0.23935,52.52478],[-0.23954,52.52487],[-0.23935,52.52502],[-0.24009,52.52538],[-0.2404,52.52515],[-0.24032,52.52511],[-0.2407,52.52482]]]]}},
{ "type":"Feature","properties":{"osm_way_id":"168213544","building":"warehouse"},"geometry":{"type":"MultiPolygon","coordinates":[[[[-0.23774,52.52431],[-0.23795,52.52399],[-0.23769,52.52393],[-0.23748,52.52425],[-0.23774,52.52431]]]]}},
{ "type":"Feature","properties":{"osm_way_id":"168445500","name":"Hotel Chocolat","building":"warehouse"},"geometry":{"type":"MultiPolygon","coordinates":[[[[-0.29379,52.20924],[-0.29284,52.20921],[-0.29112,52.20917],[-0.2912,52.20819],[-0.29386,52.20826],[-0.29383,52.20881],[-0.29399,52.20881],[-0.29396,52.20917],[-0.2938,52.20917],[-0.29379,52.20924]]]]}},
{ "type":"Feature","properties":{"osm_way_id":"168506927","building":"warehouse"},"geometry":{"type":"MultiPolygon","coordinates":[[[[-0.2468,52.51442],[-0.24665,52.5143],[-0.24673,52.51427],[-0.24672,52.51426],[-0.24648,52.51406],[-0.24692,52.51386],[-0.24711,52.51402],[-0.24723,52.51397],[-0.24743,52.51413],[-0.2468,52.51442]]]]}},
{ "type":"Feature","properties":{"osm_way_id":"173271613","name":"Amazon Logistics (DCB1)","building":"warehouse","other":{"addr:city":"Huntingdon","addr:postcode":"PE29 6SY","addr:street":"Washingley Road","operator":"Amazon Logistics"}}, "geometry":{"type":"MultiPolygon","coordinates":[[[[-0.19231,52.3526],[-0.19109,52.35238],[-0.19136,52.35182],[-0.19088,52.35173],[-0.19114,52.35119],[-0.19159,52.35127],[-0.19196,52.35052],[-0.1932,52.35074],[-0.19309,52.35098],[-0.19329,52.35102],[-0.19316,52.3513],[-0.19296,52.35126],[-0.19231,52.3526]]]]}},
{ "type":"Feature","properties":{"osm_way_id":"218466893","building":"warehouse","other":{"addr:postcode":"PE19 5UL"}}, "geometry":{"type":"MultiPolygon","coordinates":[[[[-0.25811,52.29374],[-0.25822,52.29374],[-0.25822,52.29371],[-0.25828,52.29371],[-0.25827,52.29351],[-0.25809,52.29351],[-0.25811,52.29374]]]]}},
{ "type":"Feature","properties":{"osm_way_id":"218466919","building":"warehouse"},"geometry":{"type":"MultiPolygon","coordinates":[[[[-0.25797,52.29375],[-0.25795,52.29345],[-0.25778,52.29346],[-0.25781,52.29376],[-0.25797,52.29375]]]]}},
{ "type":"Feature","properties":{"osm_way_id":"694652251","building":"warehouse","other":{"building:levels":"2"}}, "geometry":{"type":"MultiPolygon","coordinates":[[[[-0.05364,52.33078],[-0.05336,52.33079],[-0.05336,52.3308],[-0.05104,52.33089],[-0.05103,52.33078],[-0.0515,52.33077],[-0.05148,52.3306],[-0.05335,52.33053],[-0.05335,52.33055],[-0.05361,52.33054],[-0.05364,52.33078]]]]}},
{ "type":"Feature","properties":{"osm_way_id":"1036070028","building":"warehouse","other":{"addr:postcode":"PE7 3GP"}}, "geometry":{"type":"MultiPolygon","coordinates":[[[[-0.23842,52.52496],[-0.23847,52.52486],[-0.23821,52.52482],[-0.23816,52.52492],[-0.23842,52.52496]]]]}}
]
}
