{
"type": "FeatureCollection",
"features": [
{ "type":"Feature","properties":{"osm_id":"789067988","name":"The co-operative food","other":{"shop":"supermarket","addr:city":"Darlington","addr:street":"North Road"}}, "geometry":{"type":"Point","coordinates":[-1.54759,54.548 ]}},
{ "type":"Feature","properties":{"osm_id":"1366792879","name":"Co-op Food","other":{"shop":"supermarket","brand":"Co-op Food","fhrs:id":"232473","addr:city":"Darlington","addr:street":"West Auckland Road","addr:postcode":"DL3 9EP","opening_hours":"Mo-Su 07:00-23:00","brand:wikidata":"Q3277439","brand:wikipedia":"en:Co-op Food","addr:housenumber":"25-58"}}, "geometry":{"type":"Point","coordinates":[-1.57817,54.53514 ]}},
{ "type":"Feature","properties":{"osm_id":"1366792884","name":"The Co-operative Food","other":{"shop":"supermarket","branch":"Cockerton","fhrs:id":"232589","addr:city":"Darlington","addr:street":"Cockerton Green","addr:postcode":"DL3 9AA","opening_hours":"Mo-Sa 07:00-22:00; Su 10:00-16:00","addr:housenumber":"11"}}, "geometry":{"type":"Point","coordinates":[-1.57887,54.5336 ]}},
{ "type":"Feature","properties":{"osm_id":"3842351670","name":"The Co-operative","other":{"shop":"supermarket","fhrs:id":"232931","addr:city":"Darlington","addr:street":"Tillage Green","source:addr":"FHRS Open Data","addr:postcode":"DL2 2GL","addr:housenumber":"10"}}, "geometry":{"type":"Point","coordinates":[-1.58723,54.5475 ]}},
{ "type":"Feature","properties":{"osm_id":"3844848041","name":"Heron Foods","other":{"shop":"supermarket","brand":"Heron Foods","fhrs:id":"700947","addr:city":"Darlington","addr:street":"Cockerton Green","addr:country":"GB","addr:postcode":"DL3 9EH","brand:wikidata":"Q5743472","brand:wikipedia":"en:Heron Foods","contact:website":"https:\/\/heronfoods.com\/storelocator\/store-details\/cockerton-green","addr:housenumber":"16-22"}}, "geometry":{"type":"Point","coordinates":[-1.57922,54.53407 ]}},
{ "type":"Feature","properties":{"osm_id":"3872876460","name":"The Co-operative","other":{"shop":"supermarket","fhrs:id":"232830","addr:city":"Darlington","addr:street":"Fulthorpe Avenue","source:addr":"FHRS Open Data","addr:postcode":"DL3 9XT","addr:housenumber":"102-106"}}, "geometry":{"type":"Point","coordinates":[-1.59429,54.52695 ]}},
{ "type":"Feature","properties":{"osm_id":"3881992179","name":"Asda","other":{"shop":"supermarket","brand":"Asda","fhrs:id":"232656","operator":"Asda Stores Ltd","addr:city":"Darlington","addr:street":"Neasham Road","addr:country":"GB","addr:postcode":"DL1 4DF","brand:wikidata":"Q297410","brand:wikipedia":"en:Asda","contact:twitter":"@asda","contact:website":"https:\/\/storelocator.asda.com\/north-east\/darlington\/neasham-road","contact:facebook":"https:\/\/www.facebook.com\/asda\/"}}, "geometry":{"type":"Point","coordinates":[-1.54456,54.52036 ]}},
{ "type":"Feature","properties":{"osm_id":"7125926300","other":{"building":"entrance"}}, "geometry":{"type":"Point","coordinates":[-1.55276,54.5378 ]}},
{ "type":"Feature","properties":{"osm_way_id":"55431708","name":"Asda","building":"supermarket","shop":"supermarket","other":{"brand":"Asda","fhrs:id":"232446","operator":"Asda Stores Ltd","addr:city":"Darlington","addr:street":"Whinbush Way","addr:country":"GB","addr:postcode":"DL1 3RB","brand:wikidata":"Q297410","brand:wikipedia":"en:Asda","contact:twitter":"@asda","contact:website":"https:\/\/storelocator.asda.com\/north-east\/darlington\/whinbush-way","contact:facebook":"https:\/\/www.facebook.com\/asda\/"}}, "geometry":{"type":"MultiPolygon","coordinates":[[[[-1.5235,54.54571],[-1.52374,54.54524],[-1.52378,54.54523],[-1.52395,54.5449],[-1.52368,54.54485],[-1.52366,54.5449],[-1.52323,54.54483],[-1.52317,54.54494],[-1.52264,54.54486],[-1.52252,54.54511],[-1.52268,54.54514],[-1.52249,54.54554],[-1.52249,54.54555],[-1.5235,54.54571]]]]}},
{ "type":"Feature","properties":{"osm_way_id":"63385984","name":"Morrisons","building":"yes","shop":"supermarket","other":{"brand":"Morrisons","branch":"Darlington","fhrs:id":"232417","addr:city":"Darlington","addr:street":"North Road","addr:postcode":"DL1 2PY","opening_hours":"Mo-Sa 07:00-22:00; Su 10:00-16:00","brand:wikidata":"Q922344","brand:wikipedia":"en:Morrisons","addr:housenumber":"97"}}, "geometry":{"type":"MultiPolygon","coordinates":[[[[-1.55429,54.53807],[-1.55414,54.53827],[-1.55403,54.53824],[-1.55364,54.53869],[-1.55363,54.53872],[-1.55284,54.5385],[-1.55272,54.53865],[-1.5527,54.53868],[-1.5523,54.53856],[-1.55274,54.5379],[-1.55276,54.5378],[-1.55282,54.53735],[-1.55361,54.53739],[-1.55362,54.53739],[-1.55357,54.53777],[-1.55376,54.53778],[-1.55374,54.53801],[-1.55392,54.53805],[-1.55398,54.53799],[-1.55429,54.53807]]]]}},
{ "type":"Feature","properties":{"osm_way_id":"63386021","name":"Sainsbury's","building":"retail","shop":"supermarket","other":{"brand":"Sainsbury's","branch":"Darlington Superstore","addr:city":"Darlington","addr:street":"Victoria Road","addr:postcode":"DL1 5JG","opening_hours":"Mo-Sa 07:00-22:00; Su 10:00-16:00","brand:wikidata":"Q152096","brand:wikipedia":"en:Sainsbury's"}}, "geometry":{"type":"MultiPolygon","coordinates":[[[[-1.55714,54.52039],[-1.55696,54.52062],[-1.55713,54.52067],[-1.55697,54.52086],[-1.5568,54.5208],[-1.55662,54.52104],[-1.55673,54.52107],[-1.55657,54.52132],[-1.55759,54.52157],[-1.5578,54.52131],[-1.55793,54.52116],[-1.55785,54.52113],[-1.55819,54.52067],[-1.55714,54.52039]]]]}},
{ "type":"Feature","properties":{"osm_way_id":"92723658","name":"Morrisons","building":"supermarket","shop":"supermarket","other":{"brand":"Morrisons","fhrs:id":"318579","operator":"Morrisons","addr:city":"Darlington","addr:street":"Morton Park","building:use":"shop","addr:postcode":"DL1 4PJ","brand:wikidata":"Q922344","brand:wikipedia":"en:Morrisons","building:levels":"1","building:roof:shape":"flat"}}, "geometry":{"type":"MultiPolygon","coordinates":[[[[-1.50148,54.52011],[-1.50213,54.52055],[-1.50207,54.52092],[-1.50134,54.52088],[-1.50132,54.521],[-1.49999,54.52093],[-1.50001,54.52084],[-1.49973,54.52083],[-1.49976,54.52065],[-1.49953,54.52064],[-1.49957,54.52041],[-1.50007,54.52044],[-1.50009,54.52034],[-1.50031,54.52035],[-1.50033,54.52023],[-1.50113,54.52028],[-1.50148,54.52011]]]]}},
{ "type":"Feature","properties":{"osm_way_id":"187089532","name":"Lidl","building":"yes","shop":"supermarket","other":{"brand":"Lidl","fhrs:id":"233105","addr:city":"Darlington","addr:street":"Yarm Road","addr:postcode":"DL1 1BA","brand:wikidata":"Q151954","brand:wikipedia":"en:Lidl"}}, "geometry":{"type":"MultiPolygon","coordinates":[[[[-1.52529,54.52326],[-1.5255,54.52272],[-1.52494,54.52264],[-1.52487,54.5228],[-1.52497,54.52282],[-1.52484,54.52314],[-1.52513,54.52318],[-1.52511,54.52324],[-1.52529,54.52326]]]]}},
{ "type":"Feature","properties":{"osm_way_id":"187089534","name":"Aldi","building":"yes","shop":"supermarket","other":{"addr:city":"Darlington","addr:housenumber":"255","addr:postcode":"DL1 1BA","addr:street":"Yarm Road","brand":"ALDI","brand:wikidata":"Q41171672","brand:wikipedia":"en:Aldi","fhrs:id":"232218"}}, "geometry":{"type":"MultiPolygon","coordinates":[[[[-1.5259,54.52302],[-1.52551,54.52297],[-1.52527,54.52354],[-1.52552,54.52357],[-1.52554,54.52351],[-1.52569,54.52354],[-1.5259,54.52302]]]]}},
{ "type":"Feature","properties":{"osm_way_id":"604097848","name":"M&S Foodhall","building":"retail","shop":"supermarket","other":{"brand":"M&S Foodhall","brand:wikidata":"Q714491","brand:wikipedia":"en:Marks & Spencer"}}, "geometry":{"type":"MultiPolygon","coordinates":[[[[-1.58743,54.54862],[-1.58758,54.5489],[-1.58742,54.54893],[-1.58744,54.54898],[-1.58723,54.54902],[-1.58718,54.54892],[-1.58708,54.54894],[-1.58696,54.54871],[-1.58743,54.54862]]]]}},
{ "type":"Feature","properties":{"osm_way_id":"604097855","name":"Aldi","building":"supermarket","shop":"supermarket","other":{"addr:city":"Darlington","brand":"ALDI","brand:wikidata":"Q41171672","brand:wikipedia":"en:Aldi"}}, "geometry":{"type":"MultiPolygon","coordinates":[[[[-1.58772,54.54789],[-1.58723,54.54797],[-1.58749,54.54847],[-1.58798,54.54838],[-1.58782,54.54809],[-1.58791,54.54807],[-1.58785,54.54796],[-1.58777,54.54798],[-1.58772,54.54789]]]]}},
{ "type":"Feature","properties":{"osm_way_id":"760403445","name":"Aldi","building":"yes","shop":"supermarket","other":{"brand":"ALDI","brand:wikidata":"Q41171672","brand:wikipedia":"en:Aldi"}}, "geometry":{"type":"MultiPolygon","coordinates":[[[[-1.55203,54.53518],[-1.55129,54.5349],[-1.55119,54.53499],[-1.55126,54.53501],[-1.55109,54.53517],[-1.55176,54.53542],[-1.55203,54.53518]]]]}}
]
}
