{
"type": "FeatureCollection",
"features": [
{ "type":"Feature","properties":{"osm_id":"3685248289","name":"Spar","other":{"addr:city":"Skipton","addr:housenumber":"42","addr:postcode":"BD23 2PS","addr:street":"Sackville Street","brand":"Spar","brand:wikidata":"Q610492","brand:wikipedia":"en:Spar (retailer)","fhrs:id":"292408","phone":"+44 1756 700036","shop":"supermarket","source:addr":"FHRS Open Data"}}, "geometry":{"type":"Point","coordinates":[-2.01579,53.95706 ]}},
{ "type":"Feature","properties":{"osm_way_id":"56068876","name":"Booths","building":"commercial","shop":"supermarket","other":{"addr:city":"Settle","addr:country":"GB","addr:postcode":"BD24 9BP","addr:street":"Kirkgate","brand":"Booths","brand:wikidata":"Q4943949","brand:wikipedia":"en:Booths","contact:website":"https:\/\/www.booths.co.uk\/store\/settle\/","fhrs:id":"292460","operator":"E H Booth & Co. Ltd.","source:addr":"FHRS Open Data"}}, "geometry":{"type":"MultiPolygon","coordinates":[[[[-2.28301,54.06862],[-2.28257,54.06862],[-2.28257,54.06818],[-2.28301,54.06818],[-2.28301,54.06862]]]]}},
{ "type":"Feature","properties":{"osm_way_id":"62066716","name":"Morrisons","building":"retail","shop":"supermarket","other":{"addr:city":"Skipton","addr:postcode":"BD23 1RT","addr:street":"Broughton Road","branch":"Skipton","brand":"Morrisons","brand:wikidata":"Q922344","brand:wikipedia":"en:Morrisons","opening_hours":"Mo-Sa 07:00-22:00; Su 10:00-16:00","operator":"Morrisons"}}, "geometry":{"type":"MultiPolygon","coordinates":[[[[-2.02504,53.95857],[-2.02481,53.95885],[-2.02458,53.95878],[-2.02433,53.95909],[-2.02403,53.95899],[-2.02394,53.9591],[-2.02328,53.9589],[-2.02324,53.95879],[-2.02365,53.95835],[-2.02379,53.95838],[-2.02392,53.95824],[-2.02504,53.95857]]]]}},
{ "type":"Feature","properties":{"osm_way_id":"111310862","name":"Tesco","building":"supermarket","shop":"supermarket","other":{"addr:city":"Skipton","addr:postcode":"BD23 2AG","addr:street":"Craven Street","branch":"Skipton Superstore","brand":"Tesco","brand:wikidata":"Q487494","brand:wikipedia":"en:Tesco","fhrs:id":"292868","opening_hours":"Mo 06:00-24:00; Tu-Sa 00:00-24:00; Su 10:00-16:00","wheelchair":"yes"}}, "geometry":{"type":"MultiPolygon","coordinates":[[[[-2.02158,53.9579],[-2.02097,53.95756],[-2.02097,53.95749],[-2.02159,53.95708],[-2.0225,53.95754],[-2.02245,53.95757],[-2.02256,53.95762],[-2.02239,53.95772],[-2.0223,53.95767],[-2.02212,53.95777],[-2.02226,53.95793],[-2.02222,53.95795],[-2.02199,53.95793],[-2.02195,53.9579],[-2.0219,53.95793],[-2.02168,53.9579],[-2.02163,53.95786],[-2.02158,53.9579]]]]}},
{ "type":"Feature","properties":{"osm_way_id":"150821908","name":"Co-op","building":"yes","shop":"supermarket","other":{"atm":"yes","fhrs:id":"292479","operator":"The Co-operative Group","addr:city":"Skipton","addr:street":"High Street","designation":"The Co-operative Food","addr:village":"Gargrave","addr:postcode":"BD23 3RA","addr:housenumber":"21"}}, "geometry":{"type":"MultiPolygon","coordinates":[[[[-2.10447,53.9835],[-2.10429,53.98363],[-2.10403,53.9835],[-2.10421,53.98337],[-2.10447,53.9835]]]]}},
{ "type":"Feature","properties":{"osm_way_id":"258200743","name":"M&S Simply Food","building":"yes","shop":"supermarket","other":{"addr:city":"Skipton","addr:postcode":"BD23 1EE","addr:street":"Thanets Yard","branch":"Skipton Simply Food","brand":"M&S Simply Food","brand:wikidata":"Q714491","opening_hours":"Mo-Sa 08:00-20:00; Su 11:00-17:00","phone":"+44 1756 796502"}}, "geometry":{"type":"MultiPolygon","coordinates":[[[[-2.01542,53.96212],[-2.01541,53.96204],[-2.01477,53.96206],[-2.01487,53.96214],[-2.01542,53.96212]]]]}},
{ "type":"Feature","properties":{"osm_way_id":"319531992","name":"Co-op Food","building":"yes","shop":"supermarket","other":{"addr:city":"Settle","addr:county":"North Yorkshire","addr:postcode":"BD24 9EF","addr:street":"Market Place","brand":"Co-op Food","brand:wikidata":"Q3277439","brand:wikipedia":"en:Co-op Food","fhrs:id":"292784","opening_hours":"Mo-Sa 08:00-20:00; Su 10:00-16:00","operator":"West Yorkshire Co Operative","source:addr":"FHRS Open Data"}}, "geometry":{"type":"MultiPolygon","coordinates":[[[[-2.27644,54.0691],[-2.27644,54.06912],[-2.27643,54.0692],[-2.27643,54.0693],[-2.2763,54.0693],[-2.27631,54.0691],[-2.27644,54.0691]]]]}},
{ "type":"Feature","properties":{"osm_way_id":"359403114","name":"Co-op Food","building":"yes","shop":"supermarket","other":{"addr:city":"Keighley","addr:housenumber":"14","addr:postcode":"BD20 8TB","addr:street":"Main Street","addr:village":"Crosshills","brand":"Co-op Food","brand:wikidata":"Q3277439","brand:wikipedia":"en:Co-op Food","fhrs:id":"292427","operator":"The Co-operative Group","operator:wikidata":"Q117202","operator:wikipedia":"en:The Co-operative Group","wheelchair":"limited"}}, "geometry":{"type":"MultiPolygon","coordinates":[[[[-1.99164,53.90151],[-1.99157,53.90153],[-1.99151,53.9018],[-1.99183,53.90182],[-1.9919,53.90153],[-1.99164,53.90151]]]]}},
{ "type":"Feature","properties":{"osm_way_id":"362931634","name":"Keelham Farm Shop","building":"retail","shop":"supermarket","other":{"phone":"+44 1756 664170","website":"https:\/\/keelhamfarmshop.co.uk\/pages\/skipton","addr:city":"Skipton","wheelchair":"yes","addr:street":"Gargrave Road","addr:postcode":"BD23 1UD"}}, "geometry":{"type":"MultiPolygon","coordinates":[[[[-2.04064,53.96542],[-2.04097,53.96553],[-2.04093,53.96558],[-2.04108,53.96563],[-2.04113,53.96558],[-2.04136,53.96566],[-2.04155,53.96546],[-2.04149,53.96544],[-2.04154,53.96538],[-2.04131,53.9653],[-2.04125,53.96537],[-2.04082,53.96523],[-2.04064,53.96542]]]]}},
{ "type":"Feature","properties":{"osm_way_id":"462794592","name":"Aldi","building":"yes","shop":"supermarket","other":{"addr:city":"Skipton","addr:postcode":"BD23 2TA","addr:street":"Keighley Road","branch":"Skipton","brand":"ALDI","brand:wikidata":"Q41171672","brand:wikipedia":"en:Aldi","opening_hours":"Mo-Sa 08:00-22:00; Su 10:00-16:00"}}, "geometry":{"type":"MultiPolygon","coordinates":[[[[-2.01384,53.94215],[-2.01383,53.94206],[-2.01377,53.94207],[-2.01372,53.94207],[-2.01369,53.94192],[-2.01354,53.94193],[-2.01318,53.94195],[-2.01281,53.94197],[-2.01285,53.94221],[-2.01384,53.94215]]]]}}
]
}
