{
"type": "FeatureCollection",
"features": [
{ "type":"Feature","properties":{"osm_id":"12774712","other":{"amenity":"parking"}}, "geometry":{"type":"Point","coordinates":[-2.27862,54.06779 ]}},
{ "type":"Feature","properties":{"osm_id":"27351214","name":"Long Slack Gate","other":{"amenity":"parking","parking":"surface"}}, "geometry":{"type":"Point","coordinates":[-2.21621,54.25004 ]}},
{ "type":"Feature","properties":{"osm_id":"27351707","other":{"amenity":"parking"}}, "geometry":{"type":"Point","coordinates":[-2.16667,54.21296 ]}},
{ "type":"Feature","properties":{"osm_id":"28330081","other":{"access":"yes","amenity":"parking","fee":"no","parking":"street_side"}}, "geometry":{"type":"Point","coordinates":[-1.94443,53.99425 ]}},
{ "type":"Feature","properties":{"osm_id":"33195792","name":"Guest parking","other":{"access":"customers","amenity":"parking"}}, "geometry":{"type":"Point","coordinates":[-2.04137,54.07253 ]}},
{ "type":"Feature","properties":{"osm_id":"33227332","name":"The Strid","other":{"amenity":"parking"}}, "geometry":{"type":"Point","coordinates":[-1.91189,54.00325 ]}},
{ "type":"Feature","properties":{"osm_id":"33227377","other":{"amenity":"parking"}}, "geometry":{"type":"Point","coordinates":[-1.89508,53.97486 ]}},
{ "type":"Feature","properties":{"osm_id":"33236865","other":{"amenity":"parking","description":"Farmer charges GBP 4.00 to park in field.","fee":"yes","parking":"surface","surface":"grass"}}, "geometry":{"type":"Point","coordinates":[-1.94915,54.04598 ]}},
{ "type":"Feature","properties":{"osm_id":"33243618","name":"Fountaine Inn","other":{"amenity":"parking"}}, "geometry":{"type":"Point","coordinates":[-2.00638,54.06117 ]}},
{ "type":"Feature","properties":{"osm_id":"33243637","other":{"access":"yes","amenity":"parking","description":"pay and display","fee":"yes","parking":"street_side"}}, "geometry":{"type":"Point","coordinates":[-1.99874,54.06473 ]}},
{ "type":"Feature","properties":{"osm_id":"33243641","other":{"amenity":"parking","description":"small number of spaces, church carpark is locked outside services.","parking":"street_side"}}, "geometry":{"type":"Point","coordinates":[-1.99457,54.06477 ]}},
{ "type":"Feature","properties":{"osm_id":"33392116","name":"Grass Wood","other":{"amenity":"parking","capacity":"6"}}, "geometry":{"type":"Point","coordinates":[-2.02465,54.08209 ]}},
{ "type":"Feature","properties":{"osm_id":"370659223","other":{"amenity":"parking"}}, "geometry":{"type":"Point","coordinates":[-2.09267,53.98616 ]}},
{ "type":"Feature","properties":{"osm_id":"371713391","other":{"amenity":"parking","fee":"no","park_ride":"no","parking":"lane","supervised":"no"}}, "geometry":{"type":"Point","coordinates":[-2.50726,54.16224 ]}},
{ "type":"Feature","properties":{"osm_id":"373445315","other":{"amenity":"parking","parking":"surface"}}, "geometry":{"type":"Point","coordinates":[-2.28708,54.05397 ]}},
{ "type":"Feature","properties":{"osm_id":"373487700","other":{"amenity":"parking","parking":"surface"}}, "geometry":{"type":"Point","coordinates":[-2.1377,53.99112 ]}},
{ "type":"Feature","properties":{"osm_id":"389678571","other":{"amenity":"parking"}}, "geometry":{"type":"Point","coordinates":[-1.97257,53.90409 ]}},
{ "type":"Feature","properties":{"osm_id":"391089677","other":{"amenity":"parking"}}, "geometry":{"type":"Point","coordinates":[-1.99784,53.91735 ]}},
{ "type":"Feature","properties":{"osm_id":"391089678","other":{"amenity":"parking"}}, "geometry":{"type":"Point","coordinates":[-1.9772,53.90569 ]}},
{ "type":"Feature","properties":{"osm_id":"413545464","other":{"amenity":"parking"}}, "geometry":{"type":"Point","coordinates":[-2.03621,53.95289 ]}},
{ "type":"Feature","properties":{"osm_id":"413545465","other":{"amenity":"parking","capacity":"4","fee":"no"}}, "geometry":{"type":"Point","coordinates":[-2.09335,53.98578 ]}},
{ "type":"Feature","properties":{"osm_id":"473193851","other":{"access":"permissive","amenity":"parking","operator":"Church","parking":"surface"}}, "geometry":{"type":"Point","coordinates":[-2.40266,54.18924 ]}},
{ "type":"Feature","properties":{"osm_id":"480441958","name":"Blea Moor Common","other":{"description":"Ribblehead Railway Construction Camp, Scheduled Monument","information":"history","tourism":"information"}}, "geometry":{"type":"Point","coordinates":[-2.36222,54.20739 ]}},
{ "type":"Feature","properties":{"osm_id":"544576650","other":{"amenity":"parking"}}, "geometry":{"type":"Point","coordinates":[-1.89343,53.96905 ]}},
{ "type":"Feature","properties":{"osm_id":"632943044","name":"Open Access around Ingleton","other":{"hiking":"no","information":"map","map_type":"topo","tourism":"information"}}, "geometry":{"type":"Point","coordinates":[-2.46912,54.15201 ]}},
{ "type":"Feature","properties":{"osm_id":"708702173","other":{"access":"yes","amenity":"parking","fee":"no"}}, "geometry":{"type":"Point","coordinates":[-1.85307,53.98469 ]}},
{ "type":"Feature","properties":{"osm_id":"712895673","other":{"amenity":"parking","charge":"Â£10","designation":"Seasonal\/special events only","fee":"yes","parking":"surface"}}, "geometry":{"type":"Point","coordinates":[-1.92111,54.01222 ]}},
{ "type":"Feature","properties":{"osm_id":"733911647","other":{"amenity":"parking","description":"road side parking; 3 cars","fee":"no"}}, "geometry":{"type":"Point","coordinates":[-2.0397,54.10796 ]}},
{ "type":"Feature","properties":{"osm_id":"735026491","other":{"access":"permissive","amenity":"parking"}}, "geometry":{"type":"Point","coordinates":[-2.27796,54.06918 ]}},
{ "type":"Feature","properties":{"osm_id":"736621878","highway":"street_lamp","ref":"LP22A"},"geometry":{"type":"Point","coordinates":[-2.27656,54.06896 ]}},
{ "type":"Feature","properties":{"osm_id":"736621889","highway":"street_lamp","ref":"LP22"},"geometry":{"type":"Point","coordinates":[-2.27657,54.06873 ]}},
{ "type":"Feature","properties":{"osm_id":"904042477","other":{"amenity":"parking","parking":"surface"}}, "geometry":{"type":"Point","coordinates":[-2.47306,54.14759 ]}},
{ "type":"Feature","properties":{"osm_id":"1054388713","other":{"amenity":"parking"}}, "geometry":{"type":"Point","coordinates":[-2.04996,53.96495 ]}},
{ "type":"Feature","properties":{"osm_id":"1054388722","other":{"amenity":"parking"}}, "geometry":{"type":"Point","coordinates":[-2.04955,53.96527 ]}},
{ "type":"Feature","properties":{"osm_id":"1054417485","other":{"amenity":"parking"}}, "geometry":{"type":"Point","coordinates":[-2.02042,53.9708 ]}},
{ "type":"Feature","properties":{"osm_id":"1054417500","other":{"amenity":"parking"}}, "geometry":{"type":"Point","coordinates":[-1.95771,53.96645 ]}},
{ "type":"Feature","properties":{"osm_id":"1054417509","other":{"amenity":"parking"}}, "geometry":{"type":"Point","coordinates":[-1.96068,53.96598 ]}},
{ "type":"Feature","properties":{"osm_id":"1054417581","other":{"amenity":"parking","parking":"layby"}}, "geometry":{"type":"Point","coordinates":[-1.94235,53.96556 ]}},
{ "type":"Feature","properties":{"osm_id":"1054417637","other":{"amenity":"parking"}}, "geometry":{"type":"Point","coordinates":[-2.02087,53.97096 ]}},
{ "type":"Feature","properties":{"osm_id":"1070820255","other":{"amenity":"parking"}}, "geometry":{"type":"Point","coordinates":[-2.26067,54.08406 ]}},
{ "type":"Feature","properties":{"osm_id":"1164108948","other":{"amenity":"parking","parking":"layby"}}, "geometry":{"type":"Point","coordinates":[-2.32782,54.09046 ]}},
{ "type":"Feature","properties":{"osm_id":"1164108980","other":{"amenity":"parking","parking":"layby"}}, "geometry":{"type":"Point","coordinates":[-2.29472,54.05659 ]}},
{ "type":"Feature","properties":{"osm_id":"1164109010","other":{"amenity":"parking","parking":"layby"}}, "geometry":{"type":"Point","coordinates":[-2.38432,54.11073 ]}},
{ "type":"Feature","properties":{"osm_id":"1164109012","other":{"amenity":"parking","parking":"surface"}}, "geometry":{"type":"Point","coordinates":[-2.33638,54.0996 ]}},
{ "type":"Feature","properties":{"osm_id":"1164109017","other":{"amenity":"parking","parking":"layby"}}, "geometry":{"type":"Point","coordinates":[-2.32661,54.0874 ]}},
{ "type":"Feature","properties":{"osm_id":"1164109058","other":{"amenity":"parking"}}, "geometry":{"type":"Point","coordinates":[-2.30937,54.06687 ]}},
{ "type":"Feature","properties":{"osm_id":"1239170800","other":{"amenity":"parking"}}, "geometry":{"type":"Point","coordinates":[-1.88396,54.04778 ]}},
{ "type":"Feature","properties":{"osm_id":"1273492143","other":{"amenity":"parking","description":"Layby"}}, "geometry":{"type":"Point","coordinates":[-2.07625,53.87627 ]}},
{ "type":"Feature","properties":{"osm_id":"1301127841","other":{"amenity":"parking","capacity":"8","fee":"no","parking":"surface"}}, "geometry":{"type":"Point","coordinates":[-2.05971,53.97165 ]}},
{ "type":"Feature","properties":{"osm_id":"1379408544","other":{"amenity":"parking","parking":"layby"}}, "geometry":{"type":"Point","coordinates":[-1.9403,53.96533 ]}},
{ "type":"Feature","properties":{"osm_id":"1386136726","name":"Town Hall Parking","other":{"amenity":"parking","parking":"surface"}}, "geometry":{"type":"Point","coordinates":[-2.50953,54.11749 ]}},
{ "type":"Feature","properties":{"osm_id":"1390067672","other":{"amenity":"parking","parking":"layby"}}, "geometry":{"type":"Point","coordinates":[-2.31918,54.08906 ]}},
{ "type":"Feature","properties":{"osm_id":"1390067687","other":{"amenity":"parking","parking":"layby"}}, "geometry":{"type":"Point","coordinates":[-2.32344,54.0907 ]}},
{ "type":"Feature","properties":{"osm_id":"1399796130","other":{"amenity":"parking","parking":"layby"}}, "geometry":{"type":"Point","coordinates":[-2.20705,54.00301 ]}},
{ "type":"Feature","properties":{"osm_id":"1467328789","other":{"amenity":"parking","capacity":"2"}}, "geometry":{"type":"Point","coordinates":[-2.01913,54.08029 ]}},
{ "type":"Feature","properties":{"osm_id":"1467328800","other":{"amenity":"parking","capacity":"2"}}, "geometry":{"type":"Point","coordinates":[-2.02364,54.08192 ]}},
{ "type":"Feature","properties":{"osm_id":"1639636694","other":{"amenity":"waste_basket"}}, "geometry":{"type":"Point","coordinates":[-2.29561,54.14874 ]}},
{ "type":"Feature","properties":{"osm_id":"1879012209","is_in":"UK,Yorkshire,North Yorkshire,Nidderdale","other":{"historic":"mine_shaft","is_in:country":"UK","is_in:county":"North Yorkshire","is_in:historical_county":"Yorkshire"}}, "geometry":{"type":"Point","coordinates":[-1.96325,54.10482 ]}},
{ "type":"Feature","properties":{"osm_id":"1990822441","other":{"amenity":"parking","parking":"layby"}}, "geometry":{"type":"Point","coordinates":[-1.96025,53.9749 ]}},
{ "type":"Feature","properties":{"osm_id":"2074881515","other":{"access":"permissive","amenity":"parking","parking":"surface"}}, "geometry":{"type":"Point","coordinates":[-2.50987,54.11686 ]}},
{ "type":"Feature","properties":{"osm_id":"2074881524","other":{"access":"permissive","amenity":"parking"}}, "geometry":{"type":"Point","coordinates":[-2.50984,54.11707 ]}},
{ "type":"Feature","properties":{"osm_id":"2114733102","other":{"amenity":"parking","parking":"surface"}}, "geometry":{"type":"Point","coordinates":[-2.50969,54.11843 ]}},
{ "type":"Feature","properties":{"osm_id":"2268633710","other":{"amenity":"parking"}}, "geometry":{"type":"Point","coordinates":[-1.92376,53.97673 ]}},
{ "type":"Feature","properties":{"osm_id":"2268633726","other":{"amenity":"parking","parking":"layby"}}, "geometry":{"type":"Point","coordinates":[-1.92776,53.97582 ]}},
{ "type":"Feature","properties":{"osm_id":"2269124113","other":{"amenity":"parking"}}, "geometry":{"type":"Point","coordinates":[-2.07892,53.95796 ]}},
{ "type":"Feature","properties":{"osm_id":"2284350466","other":{"amenity":"parking"}}, "geometry":{"type":"Point","coordinates":[-2.18437,54.18384 ]}},
{ "type":"Feature","properties":{"osm_id":"2351258671","other":{"amenity":"parking","capacity":"4"}}, "geometry":{"type":"Point","coordinates":[-1.93946,53.96562 ]}},
{ "type":"Feature","properties":{"osm_id":"2394236683","other":{"amenity":"parking","description":"Layby"}}, "geometry":{"type":"Point","coordinates":[-2.1034,53.96949 ]}},
{ "type":"Feature","properties":{"osm_id":"2394255200","other":{"amenity":"parking","description":"Layby"}}, "geometry":{"type":"Point","coordinates":[-2.09865,53.9655 ]}},
{ "type":"Feature","properties":{"osm_id":"2880776453","other":{"amenity":"parking","description":"Signed car parking, perpendicular to the road."}}, "geometry":{"type":"Point","coordinates":[-2.10615,53.98156 ]}},
{ "type":"Feature","properties":{"osm_id":"3344602288","other":{"amenity":"parking"}}, "geometry":{"type":"Point","coordinates":[-2.27497,54.09613 ]}},
{ "type":"Feature","properties":{"osm_id":"3595262236","other":{"amenity":"parking","parking":"layby"}}, "geometry":{"type":"Point","coordinates":[-2.47463,54.17616 ]}},
{ "type":"Feature","properties":{"osm_id":"3625900530","other":{"amenity":"parking","capacity":"2","fee":"no","park_ride":"no","parking":"lane","supervised":"no"}}, "geometry":{"type":"Point","coordinates":[-2.25454,54.08932 ]}},
{ "type":"Feature","properties":{"osm_id":"3670234648","other":{"amenity":"parking","fee":"no","park_ride":"no","parking":"lane","supervised":"no"}}, "geometry":{"type":"Point","coordinates":[-2.23153,54.00595 ]}},
{ "type":"Feature","properties":{"osm_id":"3693530973","other":{"amenity":"parking"}}, "geometry":{"type":"Point","coordinates":[-2.03537,53.95588 ]}},
{ "type":"Feature","properties":{"osm_id":"3695259906","other":{"amenity":"parking","fee":"no","park_ride":"no","parking":"lane","supervised":"no"}}, "geometry":{"type":"Point","coordinates":[-2.01309,53.94443 ]}},
{ "type":"Feature","properties":{"osm_id":"4827821054","other":{"amenity":"parking","capacity":"3","fee":"no","park_ride":"no","parking":"surface","supervised":"no","surface":"compacted"}}, "geometry":{"type":"Point","coordinates":[-2.39346,54.19463 ]}},
{ "type":"Feature","properties":{"osm_id":"4827821055","other":{"amenity":"parking","capacity":"10","fee":"no","park_ride":"no","parking":"surface","supervised":"no","surface":"compacted"}}, "geometry":{"type":"Point","coordinates":[-2.39305,54.19469 ]}},
{ "type":"Feature","properties":{"osm_id":"4831158733","other":{"amenity":"parking","capacity":"10","fee":"no","park_ride":"no","parking":"surface","supervised":"no","surface":"compacted"}}, "geometry":{"type":"Point","coordinates":[-2.39179,54.19522 ]}},
{ "type":"Feature","properties":{"osm_id":"4965460460","other":{"amenity":"parking"}}, "geometry":{"type":"Point","coordinates":[-1.98391,53.96602 ]}},
{ "type":"Feature","properties":{"osm_id":"4976805705","other":{"access":"yes","amenity":"parking","fee":"no","parking":"street_side"}}, "geometry":{"type":"Point","coordinates":[-2.07907,53.93064 ]}},
{ "type":"Feature","properties":{"osm_id":"5238452034","other":{"access":"yes","amenity":"parking","capacity":"4","fee":"no","park_ride":"no","parking":"surface","supervised":"no","surface":"compacted"}}, "geometry":{"type":"Point","coordinates":[-2.46211,54.19146 ]}},
{ "type":"Feature","properties":{"osm_id":"5249055445","other":{"amenity":"parking","parking":"layby"}}, "geometry":{"type":"Point","coordinates":[-2.11521,53.94433 ]}},
{ "type":"Feature","properties":{"osm_id":"5249373779","other":{"amenity":"parking"}}, "geometry":{"type":"Point","coordinates":[-2.04844,54.02472 ]}},
{ "type":"Feature","properties":{"osm_id":"5348874394","other":{"access":"yes","amenity":"parking","capacity":"4","fee":"no","park_ride":"no","parking":"surface","supervised":"no","surface":"asphalt"}}, "geometry":{"type":"Point","coordinates":[-2.45444,54.2009 ]}},
{ "type":"Feature","properties":{"osm_id":"5348874395","other":{"access":"yes","amenity":"parking","capacity":"4","fee":"no","park_ride":"no","parking":"surface","supervised":"no","surface":"asphalt"}}, "geometry":{"type":"Point","coordinates":[-2.4563,54.19851 ]}},
{ "type":"Feature","properties":{"osm_id":"5348874396","other":{"access":"yes","amenity":"parking","capacity":"4","fee":"no","park_ride":"no","parking":"surface","supervised":"no","surface":"asphalt"}}, "geometry":{"type":"Point","coordinates":[-2.45783,54.197 ]}},
{ "type":"Feature","properties":{"osm_id":"5348874397","other":{"access":"yes","amenity":"parking","capacity":"4","fee":"no","park_ride":"no","parking":"lane","supervised":"no","surface":"asphalt"}}, "geometry":{"type":"Point","coordinates":[-2.46037,54.19407 ]}},
{ "type":"Feature","properties":{"osm_id":"5348874401","other":{"access":"yes","amenity":"parking","capacity":"4","fee":"no","park_ride":"no","parking":"lane","supervised":"no","surface":"asphalt"}}, "geometry":{"type":"Point","coordinates":[-2.46281,54.19047 ]}},
{ "type":"Feature","properties":{"osm_id":"5697184991","other":{"amenity":"parking","parking":"surface","surface":"unpaved"}}, "geometry":{"type":"Point","coordinates":[-2.36042,54.20508 ]}},
{ "type":"Feature","properties":{"osm_id":"6051631432","other":{"amenity":"parking","parking":"layby"}}, "geometry":{"type":"Point","coordinates":[-2.18633,54.09361 ]}},
{ "type":"Feature","properties":{"osm_id":"7562606684","name":"Parkway Avenue\/Parkway Close","other":{"bus":"yes","public_transport":"stop_position"}}, "geometry":{"type":"Point","coordinates":[-1.43222,53.3844 ]}},
{ "type":"Feature","properties":{"osm_id":"8062950552","other":{"amenity":"parking"}}, "geometry":{"type":"Point","coordinates":[-2.00492,54.06087 ]}},
{ "type":"Feature","properties":{"osm_id":"8062950565","other":{"access":"customers","amenity":"parking","parking":"surface"}}, "geometry":{"type":"Point","coordinates":[-2.01787,54.06805 ]}},
{ "type":"Feature","properties":{"osm_id":"8062950576","other":{"amenity":"parking","parking":"surface"}}, "geometry":{"type":"Point","coordinates":[-1.99943,54.07113 ]}},
{ "type":"Feature","properties":{"osm_id":"8065442233","other":{"amenity":"parking"}}, "geometry":{"type":"Point","coordinates":[-2.03349,54.07849 ]}},
{ "type":"Feature","properties":{"osm_id":"8077278998","other":{"access":"customers","amenity":"parking","parking":"surface"}}, "geometry":{"type":"Point","coordinates":[-2.04016,54.10662 ]}},
{ "type":"Feature","properties":{"osm_id":"8077311612","other":{"amenity":"parking"}}, "geometry":{"type":"Point","coordinates":[-2.0403,54.10628 ]}},
{ "type":"Feature","properties":{"osm_id":"8265154031","other":{"access":"yes","amenity":"parking","capacity":"4","fee":"no","parking":"lane","surface":"compacted"}}, "geometry":{"type":"Point","coordinates":[-2.35453,54.11815 ]}},
{ "type":"Feature","properties":{"osm_id":"8473597997","other":{"amenity":"parking","parking":"surface"}}, "geometry":{"type":"Point","coordinates":[-2.01997,53.95781 ]}},
{ "type":"Feature","properties":{"osm_id":"8473598006","other":{"access":"customers","amenity":"parking","fee":"no","parking":"surface"}}, "geometry":{"type":"Point","coordinates":[-2.02051,53.95792 ]}},
{ "type":"Feature","properties":{"osm_id":"8473598007","other":{"amenity":"parking","parking":"surface"}}, "geometry":{"type":"Point","coordinates":[-2.01947,53.95771 ]}},
{ "type":"Feature","properties":{"osm_id":"8830043135","other":{"access":"customers","amenity":"parking","operator":"catgill farm"}}, "geometry":{"type":"Point","coordinates":[-1.90565,53.98226 ]}},
{ "type":"Feature","properties":{"osm_id":"9125087186","other":{"amenity":"parking"}}, "geometry":{"type":"Point","coordinates":[-2.04446,54.10552 ]}},
{ "type":"Feature","properties":{"osm_id":"9370788756","other":{"access":"permissive","amenity":"parking","charge":"2 GBP","fee":"yes","operator":"Twisleton Dale House","parking":"lane","payment:cash":"yes","surface":"grass"}}, "geometry":{"type":"Point","coordinates":[-2.43428,54.17716 ]}},
{ "type":"Feature","properties":{"osm_id":"9442252976","other":{"access":"customers","amenity":"parking","lit":"no","parking":"surface","supervised":"no"}}, "geometry":{"type":"Point","coordinates":[-2.14243,53.95214 ]}},
{ "type":"Feature","properties":{"osm_id":"9442367551","other":{"access":"customers","amenity":"parking"}}, "geometry":{"type":"Point","coordinates":[-2.14001,53.95576 ]}},
{ "type":"Feature","properties":{"osm_id":"9505292024","other":{"defibrillator:location":"To RH side of main entrance","emergency":"defibrillator","indoor":"no"}}, "geometry":{"type":"Point","coordinates":[-2.46925,54.15208 ]}},
{ "type":"Feature","properties":{"osm_id":"9519603811","other":{"natural":"tree"}}, "geometry":{"type":"Point","coordinates":[-2.12315,54.14406 ]}},
{ "type":"Feature","properties":{"osm_id":"9519603813","other":{"natural":"tree"}}, "geometry":{"type":"Point","coordinates":[-2.12038,54.14308 ]}},
{ "type":"Feature","properties":{"osm_way_id":"4545584","name":"Coach Park","amenity":"parking","other":{"access":"yes","fee":"yes","parking":"surface"}}, "geometry":{"type":"MultiPolygon","coordinates":[[[[-2.01351,53.9623],[-2.01453,53.96222],[-2.01439,53.96269],[-2.01433,53.96289],[-2.01264,53.96277],[-2.01283,53.96224],[-2.01288,53.96212],[-2.01299,53.96212],[-2.01305,53.96188],[-2.01314,53.96187],[-2.01347,53.96186],[-2.01351,53.9623]]]]}},
{ "type":"Feature","properties":{"osm_way_id":"4959045","amenity":"parking","other":{"parking":"surface"}}, "geometry":{"type":"MultiPolygon","coordinates":[[[[-1.91073,53.9809],[-1.91044,53.98084],[-1.91042,53.98055],[-1.91145,53.98059],[-1.91142,53.98114],[-1.91127,53.98107],[-1.91073,53.9809]]]]}},
{ "type":"Feature","properties":{"osm_way_id":"4959048","amenity":"parking","other":{"access":"permissive","charge":"10 GBP","fee":"yes","parking":"surface","surface":"unpaved"}}, "geometry":{"type":"MultiPolygon","coordinates":[[[[-1.88102,53.99178],[-1.88107,53.9916],[-1.88121,53.9916],[-1.8812,53.99173],[-1.88123,53.99182],[-1.88129,53.9919],[-1.88151,53.99182],[-1.88182,53.99203],[-1.88216,53.99228],[-1.88242,53.99246],[-1.88263,53.99261],[-1.88277,53.99278],[-1.88291,53.99292],[-1.88321,53.99318],[-1.883,53.99327],[-1.88294,53.99321],[-1.88285,53.9932],[-1.88284,53.99318],[-1.88286,53.99313],[-1.883,53.99314],[-1.88301,53.99312],[-1.88297,53.9931],[-1.88293,53.99313],[-1.88287,53.99311],[-1.88263,53.99304],[-1.88242,53.99295],[-1.88227,53.99286],[-1.88117,53.99196],[-1.88111,53.99189],[-1.88102,53.99178]]]]}},
{ "type":"Feature","properties":{"osm_way_id":"4998872","amenity":"parking"},"geometry":{"type":"MultiPolygon","coordinates":[[[[-2.01634,54.07465],[-2.01663,54.07484],[-2.01638,54.07497],[-2.01635,54.07499],[-2.01606,54.0748],[-2.01634,54.07465]]]]}},
{ "type":"Feature","properties":{"osm_way_id":"4999866","amenity":"parking","other":{"access":"yes","fee":"yes","operator":"Yorkshire Dales National Park"}}, "geometry":{"type":"MultiPolygon","coordinates":[[[[-1.99702,54.06925],[-1.99691,54.06912],[-1.99744,54.06879],[-1.9976,54.06859],[-1.99774,54.06852],[-1.99817,54.06834],[-1.99821,54.06833],[-1.99853,54.06853],[-1.99825,54.06876],[-1.99897,54.06895],[-1.99976,54.06922],[-1.99775,54.06998],[-1.99749,54.07003],[-1.99738,54.0699],[-1.99754,54.06987],[-1.99756,54.0699],[-1.99764,54.06988],[-1.99768,54.06987],[-1.99809,54.0697],[-1.99812,54.06964],[-1.99776,54.06956],[-1.99765,54.06942],[-1.99766,54.06932],[-1.99727,54.06926],[-1.99702,54.06925]]]]}},
{ "type":"Feature","properties":{"osm_way_id":"5003546","amenity":"parking","other":{"fee":"3.00","parking":"surface","surface":"unpaved"}}, "geometry":{"type":"MultiPolygon","coordinates":[[[[-1.95324,54.04521],[-1.9533,54.04538],[-1.95333,54.04567],[-1.95326,54.04579],[-1.95319,54.04587],[-1.95314,54.04595],[-1.95283,54.04584],[-1.95301,54.04539],[-1.95296,54.04526],[-1.95324,54.04521]]]]}},
{ "type":"Feature","properties":{"osm_way_id":"5003547","amenity":"parking","other":{"access":"permissive","charge":"10 GBP","fee":"yes","parking":"surface","surface":"dirt"}}, "geometry":{"type":"MultiPolygon","coordinates":[[[[-1.89458,53.9816],[-1.89396,53.98161],[-1.89391,53.9816],[-1.89341,53.98158],[-1.89309,53.98149],[-1.89307,53.98144],[-1.89303,53.98141],[-1.893,53.98134],[-1.89281,53.98066],[-1.89287,53.98054],[-1.89288,53.98046],[-1.89416,53.98021],[-1.89458,53.9816]]]]}},
{ "type":"Feature","properties":{"osm_way_id":"5004670","amenity":"parking"},"geometry":{"type":"MultiPolygon","coordinates":[[[[-1.99626,54.07353],[-1.99652,54.07348],[-1.99665,54.07338],[-1.99668,54.0734],[-1.99645,54.07364],[-1.99639,54.07367],[-1.99626,54.07353]]]]}},
{ "type":"Feature","properties":{"osm_way_id":"25744945","name":"Public car park","amenity":"parking","other":{"access":"yes","capacity:disabled":"yes","fee":"yes","park_ride":"no","parking":"surface"}}, "geometry":{"type":"MultiPolygon","coordinates":[[[[-2.02069,53.9596],[-2.02074,53.95966],[-2.02045,53.95968],[-2.01991,53.95974],[-2.01985,53.95952],[-2.01959,53.95903],[-2.01988,53.95883],[-2.01992,53.95885],[-2.02011,53.95898],[-2.02023,53.95899],[-2.02026,53.95904],[-2.02025,53.95918],[-2.02045,53.95918],[-2.02059,53.95919],[-2.02059,53.95934],[-2.02058,53.95953],[-2.0206,53.95952],[-2.02071,53.95952],[-2.02069,53.9596]]]]}},
{ "type":"Feature","properties":{"osm_way_id":"25807500","amenity":"parking"},"geometry":{"type":"MultiPolygon","coordinates":[[[[1.27781,52.06743],[1.27691,52.06658],[1.27687,52.06648],[1.27683,52.06646],[1.27677,52.0664],[1.27676,52.06635],[1.27651,52.06607],[1.27643,52.0661],[1.27623,52.0661],[1.27613,52.06614],[1.27609,52.0661],[1.27531,52.06642],[1.27535,52.06647],[1.27529,52.0665],[1.27593,52.06711],[1.2763,52.06746],[1.27665,52.06779],[1.27668,52.06782],[1.27685,52.06776],[1.27689,52.06779],[1.27781,52.06743]]]]}},
{ "type":"Feature","properties":{"osm_way_id":"29016279","amenity":"parking","other":{"capacity:disabled":"yes","coach":"yes","fee":"yes","park_ride":"no","parking":"surface","surface":"asphalt"}}, "geometry":{"type":"MultiPolygon","coordinates":[[[[-2.46926,54.15231],[-2.46954,54.15244],[-2.46949,54.15248],[-2.4698,54.15262],[-2.46998,54.15249],[-2.46956,54.15233],[-2.46982,54.15215],[-2.46854,54.15161],[-2.46784,54.15148],[-2.4674,54.15125],[-2.4673,54.15136],[-2.46774,54.15159],[-2.46779,54.15167],[-2.46789,54.15171],[-2.46785,54.15176],[-2.46794,54.15179],[-2.46869,54.15207],[-2.46871,54.15205],[-2.46889,54.1519],[-2.46912,54.15201],[-2.46926,54.15208],[-2.46925,54.15208],[-2.46924,54.15209],[-2.46942,54.15216],[-2.46934,54.15222],[-2.46936,54.15223],[-2.46926,54.15231]]]]}},
{ "type":"Feature","properties":{"osm_way_id":"29169036","amenity":"parking"},"geometry":{"type":"MultiPolygon","coordinates":[[[[-2.05101,54.14613],[-2.05107,54.14625],[-2.05086,54.14648],[-2.0505,54.14661],[-2.0501,54.14669],[-2.04988,54.14672],[-2.04977,54.14659],[-2.04988,54.14655],[-2.05008,54.14647],[-2.05026,54.14641],[-2.05048,54.14641],[-2.05066,54.1463],[-2.05063,54.14622],[-2.05061,54.14618],[-2.05043,54.14611],[-2.05066,54.14593],[-2.05071,54.1459],[-2.0508,54.14593],[-2.05101,54.14613]]]]}},
{ "type":"Feature","properties":{"osm_way_id":"29385298","amenity":"parking","other":{"access":"permissive","parking":"surface"}}, "geometry":{"type":"MultiPolygon","coordinates":[[[[-2.3647,54.10449],[-2.36474,54.10451],[-2.36502,54.10468],[-2.36515,54.1046],[-2.36505,54.10455],[-2.36483,54.10443],[-2.3647,54.10449]]]]}},
{ "type":"Feature","properties":{"osm_way_id":"29385468","amenity":"parking","other":{"access":"permissive"}}, "geometry":{"type":"MultiPolygon","coordinates":[[[[-2.36505,54.10444],[-2.36523,54.10434],[-2.36521,54.1042],[-2.36488,54.10441],[-2.36505,54.10444]]]]}},
{ "type":"Feature","properties":{"osm_way_id":"29386135","amenity":"parking","other":{"access":"permissive"}}, "geometry":{"type":"MultiPolygon","coordinates":[[[[-2.3649,54.10402],[-2.36479,54.10398],[-2.36472,54.10388],[-2.36485,54.10389],[-2.36486,54.10398],[-2.3649,54.10402]]]]}},
{ "type":"Feature","properties":{"osm_way_id":"29979237","name":"Market Square","amenity":"parking"},"geometry":{"type":"MultiPolygon","coordinates":[[[[-2.50978,54.11854],[-2.50988,54.11816],[-2.5098,54.11816],[-2.50961,54.11817],[-2.50948,54.11859],[-2.50974,54.11862],[-2.50978,54.11854]]]]}},
{ "type":"Feature","properties":{"osm_way_id":"29979595","amenity":"parking","other":{"parking":"surface"}}, "geometry":{"type":"MultiPolygon","coordinates":[[[[-2.51059,54.11882],[-2.51124,54.11885],[-2.51114,54.11871],[-2.51092,54.1187],[-2.51092,54.11862],[-2.51074,54.11863],[-2.51028,54.11865],[-2.51013,54.11865],[-2.50996,54.11864],[-2.50995,54.1188],[-2.50994,54.11884],[-2.51057,54.11892],[-2.51059,54.11882]]]]}},
{ "type":"Feature","properties":{"osm_way_id":"30091994","amenity":"parking"},"geometry":{"type":"MultiPolygon","coordinates":[[[[-2.50928,54.11767],[-2.50924,54.1174],[-2.50982,54.11739],[-2.50982,54.11764],[-2.50975,54.11765],[-2.50967,54.11765],[-2.50967,54.11757],[-2.50957,54.11757],[-2.50956,54.11768],[-2.50928,54.11767]]]]}},
{ "type":"Feature","properties":{"osm_way_id":"30092173","amenity":"parking","other":{"fee":"no"}}, "geometry":{"type":"MultiPolygon","coordinates":[[[[-2.50529,54.11946],[-2.50517,54.11929],[-2.5049,54.11855],[-2.50478,54.11857],[-2.50478,54.11907],[-2.5049,54.11931],[-2.50504,54.11948],[-2.50529,54.11946]]]]}},
{ "type":"Feature","properties":{"osm_way_id":"38078252","amenity":"parking","other":{"operator":"private"}}, "geometry":{"type":"MultiPolygon","coordinates":[[[[-0.47437,52.14135],[-0.47444,52.14119],[-0.47392,52.14108],[-0.47382,52.14123],[-0.47437,52.14135]]]]}},
{ "type":"Feature","properties":{"osm_way_id":"39365864","amenity":"parking","other":{"fee":"yes"}}, "geometry":{"type":"MultiPolygon","coordinates":[[[[-2.27577,54.1012],[-2.27569,54.10114],[-2.27576,54.1011],[-2.27565,54.10101],[-2.27556,54.10105],[-2.27547,54.10098],[-2.27582,54.10083],[-2.27597,54.10076],[-2.27603,54.10081],[-2.27608,54.10079],[-2.2763,54.10094],[-2.27612,54.10102],[-2.2759,54.10114],[-2.27577,54.1012]]]]}},
{ "type":"Feature","properties":{"osm_way_id":"40303538","name":"Whitefriars Car Park","amenity":"parking","other":{"access":"yes","capacity:disabled":"yes","fee":"yes","opening_hours":"24\/7","operator":"Craven District Council","parking":"surface","surface":"asphalt"}}, "geometry":{"type":"MultiPolygon","coordinates":[[[[-2.27835,54.06971],[-2.27849,54.0696],[-2.2787,54.06961],[-2.27878,54.06953],[-2.27883,54.06955],[-2.27872,54.0699],[-2.27861,54.06992],[-2.2785,54.0699],[-2.27828,54.06991],[-2.27808,54.06999],[-2.27787,54.07004],[-2.27776,54.06991],[-2.27769,54.06975],[-2.27767,54.0697],[-2.27774,54.06971],[-2.27788,54.06972],[-2.27791,54.06964],[-2.27835,54.06971]]]]}},
{ "type":"Feature","properties":{"osm_way_id":"41455445","amenity":"parking","other":{"access":"permissive"}}, "geometry":{"type":"MultiPolygon","coordinates":[[[[-2.47131,54.14678],[-2.47121,54.14674],[-2.47113,54.1467],[-2.47106,54.14681],[-2.47107,54.1469],[-2.47112,54.14696],[-2.47131,54.14678]]]]}},
{ "type":"Feature","properties":{"osm_way_id":"42870193","amenity":"parking","other":{"access":"private"}}, "geometry":{"type":"MultiPolygon","coordinates":[[[[-2.3556,54.1103],[-2.35584,54.11009],[-2.35612,54.1102],[-2.3561,54.11024],[-2.35597,54.11041],[-2.35583,54.11037],[-2.35589,54.11031],[-2.35585,54.11026],[-2.35575,54.11025],[-2.35567,54.11032],[-2.3556,54.1103]]]]}},
{ "type":"Feature","properties":{"osm_way_id":"52511633","amenity":"parking"},"geometry":{"type":"MultiPolygon","coordinates":[[[[-2.29262,54.00773],[-2.29287,54.00805],[-2.29239,54.00819],[-2.29221,54.00797],[-2.29174,54.00812],[-2.29169,54.00807],[-2.29262,54.00773]]]]}},
{ "type":"Feature","properties":{"osm_way_id":"52511724","amenity":"parking"},"geometry":{"type":"MultiPolygon","coordinates":[[[[-2.30029,54.03589],[-2.3003,54.03593],[-2.30031,54.03596],[-2.29999,54.03603],[-2.29994,54.03585],[-2.30028,54.03581],[-2.30029,54.03589]]]]}},
{ "type":"Feature","properties":{"osm_way_id":"59283956","amenity":"parking"},"geometry":{"type":"MultiPolygon","coordinates":[[[[-2.28242,54.07066],[-2.28271,54.07071],[-2.28275,54.07064],[-2.28271,54.07063],[-2.28267,54.07061],[-2.28246,54.07056],[-2.28242,54.07066]]]]}},
{ "type":"Feature","properties":{"osm_way_id":"59285186","amenity":"parking","other":{"access":"private"}}, "geometry":{"type":"MultiPolygon","coordinates":[[[[-2.2821,54.07298],[-2.28164,54.07278],[-2.28196,54.07274],[-2.2821,54.07266],[-2.28233,54.07275],[-2.2821,54.07298]]]]}},
{ "type":"Feature","properties":{"osm_way_id":"59312659","name":"Greenfoot Car Park","amenity":"parking","other":{"capacity:disabled":"yes","fee":"yes","operator":"Craven District Council","parking":"surface"}}, "geometry":{"type":"MultiPolygon","coordinates":[[[[-2.27597,54.06681],[-2.27591,54.06681],[-2.2757,54.06677],[-2.2756,54.06655],[-2.27556,54.06618],[-2.27557,54.06569],[-2.27589,54.06568],[-2.27604,54.06567],[-2.27603,54.06582],[-2.27602,54.06595],[-2.27591,54.066],[-2.27575,54.06601],[-2.27577,54.06609],[-2.27602,54.06609],[-2.27597,54.06681]]]]}},
{ "type":"Feature","properties":{"osm_way_id":"59321486","amenity":"parking","other":{"access":"yes","capacity:disabled":"1","fee":"no","parking":"surface"}}, "geometry":{"type":"MultiPolygon","coordinates":[[[[-2.30289,54.06193],[-2.30285,54.06195],[-2.30285,54.06195],[-2.30272,54.06202],[-2.30268,54.06204],[-2.30264,54.06201],[-2.30236,54.06179],[-2.30253,54.06169],[-2.30258,54.06172],[-2.3026,54.06173],[-2.30265,54.06177],[-2.30268,54.06178],[-2.3027,54.0618],[-2.30273,54.06182],[-2.30276,54.06184],[-2.30278,54.06186],[-2.3028,54.06187],[-2.30283,54.06189],[-2.30286,54.06191],[-2.30289,54.06193]]]]}},
{ "type":"Feature","properties":{"osm_way_id":"59359451","amenity":"parking","other":{"access":"yes","parking":"surface"}}, "geometry":{"type":"MultiPolygon","coordinates":[[[[-2.27849,54.06759],[-2.27878,54.06762],[-2.27874,54.06776],[-2.27889,54.06778],[-2.27881,54.06803],[-2.27978,54.06813],[-2.27967,54.06843],[-2.27947,54.06841],[-2.27888,54.06835],[-2.27885,54.06839],[-2.27837,54.06833],[-2.27842,54.06805],[-2.27849,54.06759]]]]}},
{ "type":"Feature","properties":{"osm_way_id":"59397894","amenity":"parking","other":{"capacity:disabled":"yes","parking":"surface"}}, "geometry":{"type":"MultiPolygon","coordinates":[[[[-2.27676,54.06869],[-2.27675,54.0687],[-2.27674,54.06873],[-2.27674,54.06896],[-2.27677,54.06902],[-2.27695,54.06901],[-2.27712,54.069],[-2.27707,54.06899],[-2.27698,54.0689],[-2.27676,54.06869]]]]}},
{ "type":"Feature","properties":{"osm_way_id":"59397895","amenity":"parking","other":{"capacity:disabled":"yes"}}, "geometry":{"type":"MultiPolygon","coordinates":[[[[-2.27664,54.06837],[-2.27661,54.06843],[-2.2766,54.06854],[-2.27658,54.06855],[-2.27648,54.06844],[-2.27642,54.06837],[-2.27664,54.06837]]]]}},
{ "type":"Feature","properties":{"osm_way_id":"59397896","amenity":"parking"},"geometry":{"type":"MultiPolygon","coordinates":[[[[-2.27655,54.06874],[-2.27657,54.06873],[-2.27656,54.06896],[-2.27657,54.06901],[-2.27633,54.06902],[-2.27633,54.06899],[-2.27645,54.06886],[-2.27654,54.06877],[-2.27655,54.06874]]]]}},
{ "type":"Feature","properties":{"osm_way_id":"59397897","amenity":"parking"},"geometry":{"type":"MultiPolygon","coordinates":[[[[-2.27655,54.06874],[-2.27657,54.06873],[-2.27667,54.06873],[-2.27667,54.06869],[-2.27676,54.06869],[-2.27667,54.06864],[-2.27663,54.0686],[-2.27658,54.06855],[-2.27655,54.06874]]]]}},
{ "type":"Feature","properties":{"osm_way_id":"59397898","amenity":"parking"},"geometry":{"type":"MultiPolygon","coordinates":[[[[-2.27694,54.06864],[-2.277,54.06864],[-2.27701,54.06877],[-2.27706,54.06882],[-2.27712,54.069],[-2.27707,54.06899],[-2.27698,54.0689],[-2.27676,54.06869],[-2.27667,54.06864],[-2.27663,54.0686],[-2.27694,54.06864]]]]}},
{ "type":"Feature","properties":{"osm_way_id":"74174936","amenity":"parking","other":{"fee":"no","parking":"surface"}}, "geometry":{"type":"MultiPolygon","coordinates":[[[[-2.53541,54.11871],[-2.53544,54.11859],[-2.53545,54.11854],[-2.53619,54.11861],[-2.53617,54.11872],[-2.53616,54.11879],[-2.53541,54.11871]]]]}},
{ "type":"Feature","properties":{"osm_way_id":"78063713","amenity":"parking","other":{"covered":"no","fee":"no","surface":"unpaved"}}, "geometry":{"type":"MultiPolygon","coordinates":[[[[-1.92103,54.01331],[-1.92115,54.01333],[-1.92142,54.01274],[-1.92135,54.01273],[-1.92123,54.0127],[-1.921,54.0133],[-1.92103,54.01331]]]]}},
{ "type":"Feature","properties":{"osm_way_id":"87561217","amenity":"parking","other":{"access":"customers"}}, "geometry":{"type":"MultiPolygon","coordinates":[[[[-1.92479,54.03747],[-1.92478,54.03752],[-1.92478,54.03752],[-1.92427,54.03748],[-1.92399,54.03743],[-1.92398,54.03743],[-1.92401,54.03738],[-1.92432,54.03743],[-1.92442,54.03744],[-1.92479,54.03747]]]]}},
{ "type":"Feature","properties":{"osm_way_id":"88730746","amenity":"parking","other":{"access":"customers","operator":"The Station Inn","parking":"surface","surface":"unpaved"}}, "geometry":{"type":"MultiPolygon","coordinates":[[[[-2.36369,54.20705],[-2.36306,54.20727],[-2.36318,54.20736],[-2.36326,54.20738],[-2.36336,54.20737],[-2.36363,54.20732],[-2.36391,54.20725],[-2.36369,54.20705]]]]}},
{ "type":"Feature","properties":{"osm_way_id":"88730753","name":"Ribblehead Station Car Park","amenity":"parking","other":{"access":"customers","parking":"surface","surface":"unpaved"}}, "geometry":{"type":"MultiPolygon","coordinates":[[[[-2.3611,54.2058],[-2.36117,54.20582],[-2.36112,54.20588],[-2.36113,54.20592],[-2.3611,54.20599],[-2.36108,54.20607],[-2.36052,54.20585],[-2.36073,54.20576],[-2.36081,54.20577],[-2.36096,54.20581],[-2.36097,54.20581],[-2.36108,54.20583],[-2.3611,54.2058]]]]}},
{ "type":"Feature","properties":{"osm_way_id":"89145981","amenity":"parking","other":{"access":"yes","fee":"no","parking":"surface","surface":"unpaved"}}, "geometry":{"type":"MultiPolygon","coordinates":[[[[-2.36106,54.20883],[-2.36098,54.20879],[-2.36082,54.20882],[-2.36051,54.20888],[-2.36002,54.209],[-2.36004,54.20906],[-2.3608,54.2089],[-2.36106,54.20883]]]]}},
{ "type":"Feature","properties":{"osm_way_id":"92233583","amenity":"parking","other":{"access":"permissive"}}, "geometry":{"type":"MultiPolygon","coordinates":[[[[-2.27951,54.07526],[-2.27874,54.07534],[-2.27859,54.07498],[-2.27898,54.07494],[-2.27902,54.07502],[-2.27918,54.075],[-2.27904,54.07462],[-2.27928,54.07461],[-2.27951,54.07526]]]]}},
{ "type":"Feature","properties":{"osm_way_id":"92233588","amenity":"parking","other":{"access":"permissive"}}, "geometry":{"type":"MultiPolygon","coordinates":[[[[-2.2789,54.07441],[-2.27859,54.07443],[-2.27854,54.0742],[-2.2788,54.07417],[-2.2789,54.07441]]]]}},
{ "type":"Feature","properties":{"osm_way_id":"93368013","amenity":"parking"},"geometry":{"type":"MultiPolygon","coordinates":[[[[-1.43114,53.38537],[-1.43209,53.38458],[-1.43211,53.38448],[-1.43228,53.38444],[-1.43222,53.3844],[-1.43215,53.38437],[-1.43185,53.38412],[-1.43163,53.38395],[-1.43119,53.38358],[-1.43064,53.38381],[-1.43117,53.38419],[-1.42968,53.38501],[-1.42989,53.38509],[-1.4306,53.38523],[-1.431,53.3854],[-1.43114,53.38537]]]]}},
{ "type":"Feature","properties":{"osm_way_id":"93626681","amenity":"parking"},"geometry":{"type":"MultiPolygon","coordinates":[[[[-1.86124,53.96483],[-1.86142,53.96486],[-1.86149,53.96486],[-1.86152,53.96493],[-1.86169,53.96496],[-1.86166,53.96502],[-1.86154,53.96507],[-1.86124,53.96483]]]]}},
{ "type":"Feature","properties":{"osm_way_id":"99007591","name":"Hill Inn","amenity":"parking"},"geometry":{"type":"MultiPolygon","coordinates":[[[[-2.39637,54.19348],[-2.39608,54.19363],[-2.39615,54.19369],[-2.39607,54.19372],[-2.39559,54.19337],[-2.39558,54.19332],[-2.39563,54.1933],[-2.39571,54.19328],[-2.39583,54.19336],[-2.39579,54.19341],[-2.39588,54.19343],[-2.39607,54.19335],[-2.39623,54.19337],[-2.39637,54.19348]]]]}},
{ "type":"Feature","properties":{"osm_way_id":"99288640","amenity":"parking"},"geometry":{"type":"MultiPolygon","coordinates":[[[[-2.30549,54.12596],[-2.30547,54.12609],[-2.30527,54.12613],[-2.30518,54.12614],[-2.30495,54.12628],[-2.30488,54.12625],[-2.30468,54.1261],[-2.30485,54.12605],[-2.30505,54.12591],[-2.30549,54.12596]]]]}},
{ "type":"Feature","properties":{"osm_way_id":"99292817","amenity":"parking","other":{"parking":"surface"}}, "geometry":{"type":"MultiPolygon","coordinates":[[[[-2.3011,54.15053],[-2.3007,54.15059],[-2.30066,54.1505],[-2.30057,54.15029],[-2.30093,54.15023],[-2.3011,54.15053]]]]}},
{ "type":"Feature","properties":{"osm_way_id":"99294173","amenity":"parking"},"geometry":{"type":"MultiPolygon","coordinates":[[[[-2.29284,54.14334],[-2.29309,54.14333],[-2.29284,54.14397],[-2.29276,54.14395],[-2.29288,54.14357],[-2.29278,54.14355],[-2.29284,54.14334]]]]}},
{ "type":"Feature","properties":{"osm_way_id":"104026226","amenity":"parking","other":{"access":"private"}}, "geometry":{"type":"MultiPolygon","coordinates":[[[[-2.53125,54.147],[-2.5312,54.14715],[-2.53115,54.14714],[-2.5312,54.14696],[-2.53125,54.147]]]]}},
{ "type":"Feature","properties":{"osm_way_id":"107675281","amenity":"parking"},"geometry":{"type":"MultiPolygon","coordinates":[[[[-2.28441,54.07285],[-2.28446,54.0732],[-2.28421,54.07323],[-2.28367,54.0733],[-2.28374,54.07291],[-2.28441,54.07285]]]]}},
{ "type":"Feature","properties":{"osm_way_id":"108163325","amenity":"parking"},"geometry":{"type":"MultiPolygon","coordinates":[[[[-1.98443,53.90843],[-1.98437,53.90842],[-1.9843,53.90839],[-1.98401,53.90839],[-1.98399,53.9084],[-1.98382,53.9084],[-1.98379,53.90812],[-1.98403,53.90812],[-1.98404,53.90829],[-1.98443,53.90829],[-1.98443,53.90843]]]]}},
{ "type":"Feature","properties":{"osm_way_id":"108177692","amenity":"parking","other":{"access":"private"}}, "geometry":{"type":"MultiPolygon","coordinates":[[[[-1.98385,53.91253],[-1.98419,53.91245],[-1.98414,53.91227],[-1.98374,53.91228],[-1.98379,53.91253],[-1.98385,53.91253]]]]}},
{ "type":"Feature","properties":{"osm_way_id":"118301792","name":"Malham Car Park","amenity":"parking","other":{"access":"yes","capacity:disabled":"4","fee":"yes","operator":"The Yorkshire Dales National Park Authority","parking":"surface","website":"https:\/\/en.parkopedia.co.uk\/parking\/carpark\/malham_yorkshire_dales_national_park_centre\/bd23\/malham\/?arriving=201711141130&leaving=201711141330"}}, "geometry":{"type":"MultiPolygon","coordinates":[[[[-2.1549,54.06059],[-2.15421,54.0606],[-2.15404,54.06022],[-2.15425,54.06022],[-2.15427,54.05982],[-2.15441,54.0598],[-2.15463,54.05989],[-2.15468,54.05984],[-2.15487,54.05989],[-2.15498,54.05995],[-2.15511,54.06006],[-2.15516,54.06019],[-2.15516,54.06029],[-2.15512,54.0604],[-2.15502,54.06041],[-2.15499,54.06051],[-2.15497,54.06056],[-2.1549,54.06059]]]]}},
{ "type":"Feature","properties":{"osm_way_id":"123312383","name":"Lorry & Caravan Parking","amenity":"parking","other":{"access":"permissive","parking":"surface"}}, "geometry":{"type":"MultiPolygon","coordinates":[[[[-3.14634,50.97762],[-3.14642,50.9776],[-3.14648,50.97761],[-3.14651,50.97763],[-3.1466,50.97779],[-3.14675,50.9781],[-3.14677,50.97816],[-3.14676,50.97821],[-3.14675,50.97824],[-3.14664,50.9783],[-3.14656,50.97834],[-3.14618,50.97841],[-3.14599,50.97842],[-3.14582,50.97842],[-3.14568,50.97845],[-3.14539,50.9786],[-3.14531,50.97863],[-3.14522,50.97863],[-3.14513,50.97861],[-3.14503,50.9786],[-3.14499,50.97857],[-3.14496,50.97854],[-3.14491,50.97843],[-3.14486,50.97832],[-3.14481,50.97828],[-3.14471,50.97821],[-3.14473,50.97813],[-3.14493,50.97812],[-3.14507,50.97806],[-3.14525,50.97802],[-3.14554,50.97787],[-3.14566,50.97783],[-3.14598,50.97777],[-3.14595,50.9777],[-3.14634,50.97762]]]]}},
{ "type":"Feature","properties":{"osm_way_id":"123313828","amenity":"parking","other":{"access":"permissive","parking":"surface"}}, "geometry":{"type":"MultiPolygon","coordinates":[[[[-3.14698,50.9764],[-3.1467,50.97644],[-3.14675,50.97616],[-3.14702,50.97611],[-3.14711,50.97564],[-3.14714,50.97545],[-3.14708,50.97545],[-3.14709,50.97526],[-3.14716,50.97526],[-3.14717,50.97521],[-3.14724,50.97516],[-3.14732,50.97516],[-3.14732,50.97511],[-3.14741,50.97512],[-3.14742,50.97508],[-3.14751,50.97505],[-3.14759,50.97505],[-3.1476,50.97502],[-3.14786,50.97504],[-3.14786,50.97507],[-3.14795,50.97508],[-3.14812,50.97509],[-3.14802,50.97571],[-3.14794,50.97571],[-3.14791,50.97593],[-3.14784,50.97593],[-3.1478,50.97594],[-3.1478,50.97597],[-3.14787,50.97598],[-3.14784,50.97619],[-3.14777,50.97619],[-3.14778,50.97625],[-3.14712,50.97637],[-3.14698,50.9764]]]]}},
{ "type":"Feature","properties":{"osm_way_id":"125080605","amenity":"parking","other":{"access":"customers","fee":"no","surface":"asphalt"}}, "geometry":{"type":"MultiPolygon","coordinates":[[[[-2.42183,54.12427],[-2.42147,54.12424],[-2.42148,54.12413],[-2.42157,54.1241],[-2.42217,54.12416],[-2.422,54.12429],[-2.42183,54.12427]]]]}},
{ "type":"Feature","properties":{"osm_way_id":"126206247","name":"Bridge Street Car Park","amenity":"parking","other":{"access":"yes","fee":"yes","parking":"surface","surface":"asphalt"}}, "geometry":{"type":"MultiPolygon","coordinates":[[[[-2.021,53.96208],[-2.02074,53.96205],[-2.01984,53.96199],[-2.01975,53.96196],[-2.0197,53.96179],[-2.01968,53.96169],[-2.01972,53.96166],[-2.01978,53.96164],[-2.02094,53.96156],[-2.02112,53.9621],[-2.021,53.96208]]]]}},
{ "type":"Feature","properties":{"osm_way_id":"126206258","name":"Coach Street Car Park","amenity":"parking","other":{"access":"yes","fee":"yes","parking":"surface"}}, "geometry":{"type":"MultiPolygon","coordinates":[[[[-2.01957,53.96137],[-2.01958,53.96124],[-2.01972,53.96118],[-2.01989,53.9611],[-2.02007,53.96108],[-2.02008,53.96112],[-2.02016,53.96112],[-2.02015,53.96107],[-2.02077,53.96102],[-2.02093,53.96105],[-2.02101,53.96109],[-2.02126,53.96112],[-2.02151,53.96114],[-2.02176,53.96113],[-2.02228,53.96106],[-2.02248,53.96144],[-2.0225,53.96155],[-2.02247,53.9616],[-2.02242,53.96163],[-2.02236,53.96163],[-2.02213,53.96158],[-2.02211,53.96163],[-2.02193,53.96158],[-2.02175,53.96153],[-2.0216,53.96149],[-2.02147,53.96147],[-2.02133,53.96145],[-2.0212,53.96144],[-2.02102,53.96141],[-2.02102,53.96135],[-2.02093,53.96135],[-2.02094,53.96129],[-2.02091,53.96126],[-2.02086,53.96126],[-2.02047,53.96128],[-2.01981,53.96134],[-2.01957,53.96137]]]]}},
{ "type":"Feature","properties":{"osm_way_id":"126905567","amenity":"parking","other":{"access":"customers","fee":"no","parking":"surface","surface":"unpaved"}}, "geometry":{"type":"MultiPolygon","coordinates":[[[[-1.90733,53.97606],[-1.90674,53.97585],[-1.90665,53.97578],[-1.90647,53.97569],[-1.90553,53.97536],[-1.90523,53.97519],[-1.90528,53.97512],[-1.90797,53.97599],[-1.90767,53.9763],[-1.90749,53.97613],[-1.90733,53.97606]]]]}},
{ "type":"Feature","properties":{"osm_way_id":"130992532","amenity":"parking","other":{"access":"customers","fee":"yes","park_ride":"no","parking":"surface","supervised":"no"}}, "geometry":{"type":"MultiPolygon","coordinates":[[[[-2.02225,53.95978],[-2.02212,53.9598],[-2.02145,53.95992],[-2.02126,53.9599],[-2.02126,53.95995],[-2.02099,53.95994],[-2.02101,53.95959],[-2.02224,53.95928],[-2.02242,53.95949],[-2.02239,53.95955],[-2.02225,53.95978]]]]}},
{ "type":"Feature","properties":{"osm_way_id":"130992533","amenity":"parking","other":{"access":"yes","capacity:disabled":"yes","fee":"yes","parking":"surface"}}, "geometry":{"type":"MultiPolygon","coordinates":[[[[-2.0229,53.95958],[-2.02268,53.95958],[-2.02254,53.95943],[-2.02248,53.95934],[-2.02229,53.95914],[-2.02184,53.95859],[-2.02199,53.95851],[-2.02265,53.95838],[-2.02253,53.95814],[-2.02343,53.95807],[-2.02389,53.95824],[-2.02378,53.95839],[-2.02365,53.95833],[-2.02318,53.95891],[-2.02425,53.95921],[-2.02424,53.95935],[-2.02301,53.95957],[-2.0229,53.95958]]]]}},
{ "type":"Feature","properties":{"osm_way_id":"130992669","amenity":"parking","other":{"access":"yes","fee":"no","parking":"surface","wheelchair":"yes"}}, "geometry":{"type":"MultiPolygon","coordinates":[[[[-2.02069,53.95727],[-2.0206,53.95729],[-2.02056,53.95729],[-2.02004,53.95685],[-2.01968,53.95659],[-2.01967,53.95654],[-2.01971,53.95638],[-2.02033,53.95641],[-2.02034,53.95635],[-2.0202,53.95613],[-2.02002,53.95579],[-2.02015,53.95576],[-2.02027,53.95573],[-2.02055,53.95614],[-2.0208,53.95643],[-2.02107,53.95669],[-2.02101,53.95672],[-2.02125,53.95691],[-2.02132,53.95688],[-2.02153,53.95704],[-2.02145,53.95707],[-2.0209,53.95743],[-2.02077,53.95747],[-2.0207,53.95736],[-2.02077,53.95732],[-2.02069,53.95727]]]]}},
{ "type":"Feature","properties":{"osm_way_id":"132106384","amenity":"parking","other":{"access":"permissive","operator":"The Devonshire Arms","operator:type":"business","parking":"surface"}}, "geometry":{"type":"MultiPolygon","coordinates":[[[[-1.89358,53.97467],[-1.89385,53.97477],[-1.89382,53.97485],[-1.89387,53.97495],[-1.89379,53.97503],[-1.89382,53.97505],[-1.89367,53.97524],[-1.89357,53.9753],[-1.89334,53.97531],[-1.89315,53.97527],[-1.89303,53.97521],[-1.89301,53.97515],[-1.89312,53.97507],[-1.89323,53.97507],[-1.89326,53.97512],[-1.89344,53.97514],[-1.89356,53.97502],[-1.89358,53.97494],[-1.89353,53.97489],[-1.89341,53.97483],[-1.89338,53.97478],[-1.89341,53.97476],[-1.89348,53.97473],[-1.8935,53.97471],[-1.89358,53.97467]]]]}},
{ "type":"Feature","properties":{"osm_way_id":"132328653","amenity":"parking","other":{"access":"yes","fee":"no","parking":"street_side"}}, "geometry":{"type":"MultiPolygon","coordinates":[[[[-1.89357,53.97282],[-1.8939,53.97298],[-1.8938,53.97304],[-1.89349,53.97289],[-1.89357,53.97282]]]]}},
{ "type":"Feature","properties":{"osm_way_id":"132407659","amenity":"parking","other":{"access":"customers","operator":"The George Inn","parking":"surface"}}, "geometry":{"type":"MultiPolygon","coordinates":[[[[-2.11469,54.19921],[-2.11463,54.19934],[-2.11447,54.19932],[-2.11447,54.19928],[-2.11438,54.19927],[-2.11429,54.1993],[-2.11423,54.1993],[-2.11424,54.19918],[-2.11469,54.19921]]]]}},
{ "type":"Feature","properties":{"osm_way_id":"134521194","amenity":"parking","other":{"fee":"yes","parking":"surface","surface":"asphalt"}}, "geometry":{"type":"MultiPolygon","coordinates":[[[[-2.08991,54.19178],[-2.08994,54.19182],[-2.08992,54.19184],[-2.08981,54.19208],[-2.08976,54.19226],[-2.0897,54.19246],[-2.08956,54.19248],[-2.08921,54.19229],[-2.08948,54.19215],[-2.08947,54.19202],[-2.08946,54.19195],[-2.0894,54.19189],[-2.08949,54.19185],[-2.08978,54.19172],[-2.08991,54.19178]]]]}},
{ "type":"Feature","properties":{"osm_way_id":"136431009","amenity":"parking","other":{"capacity":"10","designation":"car_parking","operator":"Burton in Lonsdale Parish Council"}}, "geometry":{"type":"MultiPolygon","coordinates":[[[[-2.52848,54.14218],[-2.52862,54.14225],[-2.52869,54.14224],[-2.52876,54.14217],[-2.52848,54.14208],[-2.5284,54.14216],[-2.52848,54.14218]]]]}},
{ "type":"Feature","properties":{"osm_way_id":"143415464","amenity":"parking","other":{"fee":"yes","hgv":"yes"}}, "geometry":{"type":"MultiPolygon","coordinates":[[[[-2.46644,54.15228],[-2.46659,54.15217],[-2.46676,54.15203],[-2.4668,54.15199],[-2.46695,54.15205],[-2.4674,54.1522],[-2.46703,54.1525],[-2.46644,54.15228]]]]}},
{ "type":"Feature","properties":{"osm_way_id":"143428658","amenity":"parking","other":{"access":"yes","fee":"yes","parking":"surface"}}, "geometry":{"type":"MultiPolygon","coordinates":[[[[-2.28077,54.06675],[-2.28068,54.06672],[-2.28095,54.06642],[-2.28102,54.06643],[-2.28077,54.06675]]]]}},
{ "type":"Feature","properties":{"osm_way_id":"143445257","amenity":"parking","other":{"fee":"yes","parking":"surface"}}, "geometry":{"type":"MultiPolygon","coordinates":[[[[-2.29576,54.14906],[-2.29569,54.1489],[-2.29561,54.14874],[-2.29551,54.14856],[-2.29584,54.14848],[-2.29607,54.14854],[-2.29636,54.14848],[-2.29674,54.14893],[-2.29642,54.14912],[-2.29602,54.14877],[-2.29611,54.14896],[-2.29582,54.14901],[-2.29584,54.14905],[-2.29576,54.14906]]]]}},
{ "type":"Feature","properties":{"osm_way_id":"143535323","name":"Rackhams Car Park","amenity":"parking","other":{"access":"yes","fee":"yes","operator":"Rackhams","parking":"surface"}}, "geometry":{"type":"MultiPolygon","coordinates":[[[[-2.01548,53.9619],[-2.015,53.96195],[-2.01476,53.96196],[-2.01485,53.96173],[-2.01543,53.96167],[-2.01548,53.9619]]]]}},
{ "type":"Feature","properties":{"osm_way_id":"143537690","amenity":"parking","other":{"access":"customers"}}, "geometry":{"type":"MultiPolygon","coordinates":[[[[-2.01754,53.96418],[-2.01737,53.96436],[-2.01723,53.96448],[-2.01719,53.9645],[-2.01717,53.96448],[-2.01704,53.96455],[-2.01696,53.96458],[-2.01684,53.9646],[-2.0167,53.96461],[-2.01667,53.96455],[-2.01666,53.96451],[-2.01691,53.96445],[-2.01708,53.96438],[-2.0172,53.96431],[-2.01729,53.96421],[-2.01737,53.96412],[-2.01754,53.96418]]]]}},
{ "type":"Feature","properties":{"osm_way_id":"143546760","name":"Public car park","amenity":"parking","other":{"access":"yes","capacity:disabled":"3","fee":"yes","parking":"surface"}}, "geometry":{"type":"MultiPolygon","coordinates":[[[[-2.01958,53.95955],[-2.01944,53.95958],[-2.0193,53.95958],[-2.0191,53.95955],[-2.019,53.95955],[-2.01899,53.9595],[-2.01895,53.9595],[-2.01888,53.9595],[-2.01879,53.95951],[-2.01867,53.95951],[-2.01854,53.95955],[-2.01836,53.95959],[-2.01808,53.95965],[-2.01792,53.95971],[-2.01796,53.95957],[-2.01801,53.95938],[-2.01809,53.95938],[-2.01812,53.95934],[-2.0189,53.9594],[-2.01934,53.95931],[-2.0195,53.95936],[-2.01958,53.95955]]]]}},
{ "type":"Feature","properties":{"osm_way_id":"143825035","amenity":"parking","other":{"access":"customers"}}, "geometry":{"type":"MultiPolygon","coordinates":[[[[-2.11445,53.94452],[-2.11418,53.94465],[-2.11409,53.94465],[-2.11376,53.94445],[-2.11382,53.94444],[-2.11401,53.94444],[-2.11427,53.94446],[-2.11445,53.94452]]]]}},
{ "type":"Feature","properties":{"osm_way_id":"143825043","amenity":"parking","other":{"access":"customers"}}, "geometry":{"type":"MultiPolygon","coordinates":[[[[-2.11274,53.94488],[-2.1126,53.94478],[-2.11263,53.94466],[-2.11268,53.9447],[-2.11277,53.94465],[-2.11296,53.94458],[-2.11291,53.94453],[-2.11306,53.94446],[-2.11312,53.94451],[-2.11318,53.94448],[-2.11324,53.94454],[-2.11357,53.9444],[-2.11366,53.94447],[-2.11336,53.94471],[-2.11321,53.94479],[-2.11308,53.94484],[-2.11286,53.94481],[-2.11274,53.94488]]]]}},
{ "type":"Feature","properties":{"osm_way_id":"153258921","amenity":"parking","other":{"bus":"no","hgv":"no","maxweight":"1.5","operator":"Craven District Council"}}, "geometry":{"type":"MultiPolygon","coordinates":[[[[-2.10573,53.98501],[-2.10568,53.98488],[-2.10563,53.98485],[-2.10556,53.98484],[-2.10502,53.98479],[-2.10497,53.98487],[-2.10495,53.98496],[-2.10573,53.98501]]]]}},
{ "type":"Feature","properties":{"osm_way_id":"153258922","amenity":"parking","other":{"access":"customers","fee":"no","operator":"Old Swan Inn","park_ride":"no","parking":"surface","supervised":"no"}}, "geometry":{"type":"MultiPolygon","coordinates":[[[[-2.1042,53.98456],[-2.10386,53.98453],[-2.10378,53.98451],[-2.10375,53.98449],[-2.10373,53.98446],[-2.10377,53.98441],[-2.10393,53.98444],[-2.10398,53.98439],[-2.1042,53.98443],[-2.10423,53.9845],[-2.1042,53.98456]]]]}},
{ "type":"Feature","properties":{"osm_way_id":"153847507","name":"Bunkers Hill Car Park","amenity":"parking","other":{"access":"yes","capacity":"9","fee":"yes","parking":"surface"}}, "geometry":{"type":"MultiPolygon","coordinates":[[[[-2.01283,53.96114],[-2.01268,53.96116],[-2.01262,53.96098],[-2.01285,53.96096],[-2.01284,53.96102],[-2.01284,53.9611],[-2.01283,53.96114]]]]}},
{ "type":"Feature","properties":{"osm_way_id":"153866705","amenity":"parking","other":{"capacity":"10"}}, "geometry":{"type":"MultiPolygon","coordinates":[[[[-2.10653,53.98307],[-2.10639,53.98306],[-2.1063,53.98305],[-2.10624,53.98303],[-2.10622,53.98299],[-2.10621,53.98296],[-2.10652,53.98297],[-2.10652,53.98303],[-2.10653,53.98307]]]]}},
{ "type":"Feature","properties":{"osm_way_id":"153866706","amenity":"parking","other":{"fee":"no"}}, "geometry":{"type":"MultiPolygon","coordinates":[[[[-2.10614,53.98405],[-2.10598,53.98387],[-2.10582,53.98397],[-2.10577,53.98403],[-2.10572,53.98411],[-2.10573,53.98413],[-2.10586,53.98412],[-2.10614,53.98405]]]]}},
{ "type":"Feature","properties":{"osm_way_id":"156682396","amenity":"parking"},"geometry":{"type":"MultiPolygon","coordinates":[[[[-2.09987,53.98656],[-2.09984,53.98652],[-2.10022,53.98643],[-2.10038,53.9867],[-2.09997,53.98677],[-2.09987,53.98656]]]]}},
{ "type":"Feature","properties":{"osm_way_id":"177362331","amenity":"parking"},"geometry":{"type":"MultiPolygon","coordinates":[[[[-1.84895,54.07421],[-1.84886,54.07426],[-1.84886,54.07374],[-1.84895,54.07376],[-1.84895,54.07421]]]]}},
{ "type":"Feature","properties":{"osm_way_id":"177389248","amenity":"parking"},"geometry":{"type":"MultiPolygon","coordinates":[[[[-1.90449,54.0724],[-1.90403,54.07239],[-1.90403,54.07235],[-1.90449,54.07236],[-1.90449,54.0724]]]]}},
{ "type":"Feature","properties":{"osm_way_id":"177389302","amenity":"parking","other":{"access":"yes","description":"Gate closes 1 hour before dusk. No overnight parking.","fee":"no"}}, "geometry":{"type":"MultiPolygon","coordinates":[[[[-1.90502,54.07228],[-1.90494,54.0723],[-1.90467,54.07223],[-1.90401,54.07224],[-1.90394,54.07227],[-1.90394,54.07229],[-1.90394,54.07231],[-1.90367,54.07228],[-1.90374,54.07225],[-1.90394,54.07219],[-1.90414,54.07216],[-1.9048,54.07213],[-1.90494,54.07211],[-1.90494,54.07208],[-1.90445,54.07209],[-1.90393,54.07214],[-1.90378,54.07217],[-1.90363,54.07222],[-1.90357,54.07223],[-1.90352,54.07222],[-1.90349,54.07225],[-1.90347,54.07227],[-1.90335,54.07227],[-1.90323,54.07226],[-1.90351,54.07207],[-1.90407,54.07201],[-1.90488,54.07196],[-1.90502,54.07202],[-1.90539,54.07197],[-1.90541,54.07207],[-1.90529,54.07207],[-1.90517,54.07208],[-1.90509,54.07217],[-1.90502,54.07228]]]]}},
{ "type":"Feature","properties":{"osm_way_id":"177389447","amenity":"parking","other":{"access":"private"}}, "geometry":{"type":"MultiPolygon","coordinates":[[[[-1.90095,54.08102],[-1.90098,54.08091],[-1.90099,54.08089],[-1.90041,54.08086],[-1.90041,54.0808],[-1.90102,54.08083],[-1.90102,54.08087],[-1.90151,54.08091],[-1.90139,54.08113],[-1.90132,54.08111],[-1.90095,54.08102]]]]}},
{ "type":"Feature","properties":{"osm_way_id":"177730290","amenity":"parking","other":{"access":"customers","owner":"Craven Heifer"}}, "geometry":{"type":"MultiPolygon","coordinates":[[[[-2.27424,54.10101],[-2.27425,54.10092],[-2.27389,54.10095],[-2.27392,54.10101],[-2.27424,54.10101]]]]}},
{ "type":"Feature","properties":{"osm_way_id":"177904682","amenity":"parking"},"geometry":{"type":"MultiPolygon","coordinates":[[[[-2.04251,53.96608],[-2.04246,53.96605],[-2.04238,53.96608],[-2.04232,53.96605],[-2.04226,53.96608],[-2.04193,53.96589],[-2.04209,53.96581],[-2.04202,53.96577],[-2.04255,53.96549],[-2.0427,53.9656],[-2.04247,53.96572],[-2.0423,53.9658],[-2.04249,53.96594],[-2.04272,53.96583],[-2.04276,53.96581],[-2.04284,53.96586],[-2.0428,53.96588],[-2.04285,53.96592],[-2.04251,53.96608]]]]}},
{ "type":"Feature","properties":{"osm_way_id":"177904684","amenity":"parking"},"geometry":{"type":"MultiPolygon","coordinates":[[[[-2.04116,53.96319],[-2.04087,53.96309],[-2.04064,53.96295],[-2.04052,53.96283],[-2.04055,53.96278],[-2.04061,53.96271],[-2.04069,53.96267],[-2.04083,53.96267],[-2.04093,53.96274],[-2.041,53.96272],[-2.04106,53.96277],[-2.04116,53.96282],[-2.04127,53.96287],[-2.04143,53.9629],[-2.04161,53.96291],[-2.04171,53.96289],[-2.04181,53.96287],[-2.0419,53.96283],[-2.04195,53.96278],[-2.04202,53.96269],[-2.04205,53.96259],[-2.04226,53.96257],[-2.04257,53.96253],[-2.04257,53.96262],[-2.04255,53.96276],[-2.04243,53.96292],[-2.04226,53.96304],[-2.04206,53.96315],[-2.04184,53.96321],[-2.0416,53.96322],[-2.04129,53.9632],[-2.04116,53.96319]]]]}},
{ "type":"Feature","properties":{"osm_way_id":"177968532","amenity":"parking","other":{"access":"yes","fee":"no","parking":"surface"}}, "geometry":{"type":"MultiPolygon","coordinates":[[[[-2.00043,53.93086],[-2.00035,53.93086],[-2.00021,53.93083],[-2.00013,53.93078],[-2.00011,53.93073],[-2.00019,53.93069],[-2.0003,53.93069],[-2.0004,53.93072],[-2.00054,53.93081],[-2.00057,53.93084],[-2.00043,53.93086]]]]}},
{ "type":"Feature","properties":{"osm_way_id":"179893658","amenity":"parking"},"geometry":{"type":"MultiPolygon","coordinates":[[[[-2.02426,53.87941],[-2.02427,53.87945],[-2.02414,53.87949],[-2.02399,53.87959],[-2.02392,53.87961],[-2.02385,53.87965],[-2.02381,53.87965],[-2.02379,53.87961],[-2.02371,53.87954],[-2.02371,53.87947],[-2.02381,53.87947],[-2.02404,53.87944],[-2.02426,53.87941]]]]}},
{ "type":"Feature","properties":{"osm_way_id":"180955552","amenity":"parking","historic":"quarry","other":{"access":"yes","fee":"no","mineral":"sandstone","parking":"street_side","source:mineral":"OS sheet 151,publ. 1853"}}, "geometry":{"type":"MultiPolygon","coordinates":[[[[-1.94399,53.99606],[-1.94416,53.99614],[-1.94393,53.99624],[-1.94371,53.99619],[-1.94364,53.99619],[-1.94362,53.99615],[-1.9437,53.99614],[-1.94384,53.99612],[-1.94399,53.99606]]]]}},
{ "type":"Feature","properties":{"osm_way_id":"187725723","amenity":"parking","other":{"parking":"surface"}}, "geometry":{"type":"MultiPolygon","coordinates":[[[[-1.99861,54.07052],[-1.99884,54.0704],[-1.99865,54.07028],[-1.99842,54.0704],[-1.99861,54.07052]]]]}},
{ "type":"Feature","properties":{"osm_way_id":"188945137","amenity":"parking","other":{"parking":"surface"}}, "geometry":{"type":"MultiPolygon","coordinates":[[[[-2.27696,54.06591],[-2.27712,54.06593],[-2.27718,54.06581],[-2.27704,54.06573],[-2.27631,54.06546],[-2.27611,54.06563],[-2.27614,54.06591],[-2.27696,54.06591]]]]}},
{ "type":"Feature","properties":{"osm_way_id":"195764115","amenity":"parking"},"geometry":{"type":"MultiPolygon","coordinates":[[[[-2.0897,54.19044],[-2.08959,54.19038],[-2.08999,54.1902],[-2.09015,54.1903],[-2.09015,54.19053],[-2.08988,54.19038],[-2.08987,54.19038],[-2.0897,54.19044]]]]}},
{ "type":"Feature","properties":{"osm_way_id":"199024315","amenity":"parking"},"geometry":{"type":"MultiPolygon","coordinates":[[[[-2.0906,53.952],[-2.09061,53.95182],[-2.09017,53.95173],[-2.08977,53.95174],[-2.089,53.95183],[-2.08886,53.9518],[-2.08881,53.95181],[-2.08866,53.95182],[-2.08871,53.95197],[-2.089,53.95206],[-2.08992,53.95202],[-2.0906,53.952]]]]}},
{ "type":"Feature","properties":{"osm_way_id":"199024321","amenity":"parking"},"geometry":{"type":"MultiPolygon","coordinates":[[[[-2.09164,53.95249],[-2.09171,53.95223],[-2.09155,53.95221],[-2.09139,53.95209],[-2.09095,53.95199],[-2.09084,53.952],[-2.09076,53.95214],[-2.09077,53.95231],[-2.09149,53.95228],[-2.0915,53.95248],[-2.09164,53.95249]]]]}},
{ "type":"Feature","properties":{"osm_way_id":"204166197","amenity":"parking","other":{"access":"private","parking":"surface"}}, "geometry":{"type":"MultiPolygon","coordinates":[[[[-2.03964,53.96646],[-2.0399,53.96572],[-2.03903,53.96561],[-2.03901,53.96565],[-2.03883,53.96563],[-2.03876,53.96563],[-2.03873,53.96565],[-2.03869,53.96574],[-2.03829,53.96567],[-2.03815,53.96601],[-2.03807,53.96604],[-2.03811,53.96619],[-2.03821,53.96628],[-2.03833,53.96628],[-2.0384,53.96635],[-2.03938,53.96647],[-2.0394,53.96642],[-2.03964,53.96646]]]]}},
{ "type":"Feature","properties":{"osm_way_id":"204514529","amenity":"parking"},"geometry":{"type":"MultiPolygon","coordinates":[[[[-1.87671,53.98483],[-1.87683,53.98494],[-1.87676,53.98496],[-1.87664,53.98486],[-1.87671,53.98483]]]]}},
{ "type":"Feature","properties":{"osm_way_id":"204551724","amenity":"parking"},"geometry":{"type":"MultiPolygon","coordinates":[[[[-1.8773,53.9858],[-1.87705,53.98571],[-1.87713,53.98559],[-1.87717,53.98554],[-1.87721,53.98559],[-1.87722,53.9856],[-1.87727,53.98561],[-1.87743,53.98567],[-1.8773,53.9858]]]]}},
{ "type":"Feature","properties":{"osm_way_id":"205185237","amenity":"parking"},"geometry":{"type":"MultiPolygon","coordinates":[[[[-2.1539,54.20893],[-2.15404,54.20898],[-2.15404,54.20903],[-2.15409,54.20907],[-2.15354,54.20893],[-2.1539,54.20893]]]]}},
{ "type":"Feature","properties":{"osm_way_id":"208010257","amenity":"parking"},"geometry":{"type":"MultiPolygon","coordinates":[[[[-1.9635,54.06407],[-1.96359,54.06416],[-1.96354,54.06417],[-1.96356,54.06421],[-1.96348,54.06425],[-1.96335,54.06427],[-1.96314,54.06429],[-1.96308,54.06425],[-1.96314,54.06423],[-1.9631,54.0642],[-1.9635,54.06407]]]]}},
{ "type":"Feature","properties":{"osm_way_id":"209203265","amenity":"parking","building":"yes"},"geometry":{"type":"MultiPolygon","coordinates":[[[[-2.01128,53.96459],[-2.01129,53.96453],[-2.0113,53.96442],[-2.0113,53.96438],[-2.01131,53.96433],[-2.01131,53.9643],[-2.01096,53.96428],[-2.01096,53.96433],[-2.01085,53.96433],[-2.01086,53.96428],[-2.01039,53.96427],[-2.01038,53.96431],[-2.01029,53.9643],[-2.01029,53.96426],[-2.00993,53.96424],[-2.00992,53.96431],[-2.00992,53.96434],[-2.00991,53.96444],[-2.00991,53.96446],[-2.0099,53.96453],[-2.01081,53.96457],[-2.01082,53.96452],[-2.01093,53.96453],[-2.01093,53.96457],[-2.01128,53.96459]]]]}},
{ "type":"Feature","properties":{"osm_way_id":"210188991","amenity":"parking","other":{"parking":"street_side"}}, "geometry":{"type":"MultiPolygon","coordinates":[[[[-1.99517,54.06494],[-1.99475,54.06491],[-1.99474,54.06483],[-1.99482,54.06483],[-1.99509,54.06487],[-1.99521,54.06489],[-1.99517,54.06494]]]]}},
{ "type":"Feature","properties":{"osm_way_id":"213473614","amenity":"parking","other":{"access":"customers"}}, "geometry":{"type":"MultiPolygon","coordinates":[[[[-1.99707,54.0718],[-1.99696,54.07167],[-1.9969,54.07157],[-1.99683,54.07149],[-1.99677,54.07144],[-1.99674,54.07143],[-1.99679,54.0714],[-1.99674,54.07134],[-1.99685,54.07131],[-1.997,54.07142],[-1.99712,54.07154],[-1.99721,54.07167],[-1.99719,54.07167],[-1.99712,54.07169],[-1.99715,54.07175],[-1.99718,54.07178],[-1.99707,54.0718]]]]}},
{ "type":"Feature","properties":{"osm_way_id":"213906074","building":"semidetached_house"},"geometry":{"type":"MultiPolygon","coordinates":[[[[-2.01567,53.91708],[-2.01552,53.91698],[-2.01564,53.91692],[-2.01579,53.91702],[-2.01567,53.91708]]]]}},
{ "type":"Feature","properties":{"osm_way_id":"219655653","amenity":"parking"},"geometry":{"type":"MultiPolygon","coordinates":[[[[-2.01183,53.9176],[-2.01198,53.91755],[-2.01155,53.91692],[-2.01145,53.91696],[-2.01177,53.91745],[-2.01182,53.91756],[-2.01175,53.91757],[-2.01178,53.91761],[-2.01178,53.91766],[-2.01181,53.91766],[-2.01181,53.91761],[-2.01183,53.9176]]]]}},
{ "type":"Feature","properties":{"osm_way_id":"226364448","amenity":"parking","other":{"capacity":"3"}}, "geometry":{"type":"MultiPolygon","coordinates":[[[[-1.94254,53.96687],[-1.94231,53.96678],[-1.94231,53.96675],[-1.94235,53.96672],[-1.94258,53.96684],[-1.94254,53.96687]]]]}},
{ "type":"Feature","properties":{"osm_way_id":"226370734","amenity":"parking"},"geometry":{"type":"MultiPolygon","coordinates":[[[[-1.94222,53.96789],[-1.94231,53.96792],[-1.94213,53.96814],[-1.94204,53.96812],[-1.94222,53.96789]]]]}},
{ "type":"Feature","properties":{"osm_way_id":"226405272","name":"Devonshire Arms","amenity":"parking","other":{"access":"permissive","operator":"The Devonshire Arms","operator:type":"business","parking":"surface"}}, "geometry":{"type":"MultiPolygon","coordinates":[[[[-1.89451,53.97338],[-1.89458,53.97349],[-1.89441,53.97362],[-1.89432,53.97376],[-1.89428,53.97394],[-1.89424,53.97394],[-1.89414,53.97392],[-1.89408,53.97387],[-1.89403,53.97382],[-1.89391,53.97378],[-1.89395,53.97371],[-1.89369,53.97367],[-1.89368,53.9736],[-1.8937,53.97342],[-1.89383,53.97333],[-1.89414,53.97345],[-1.89442,53.97336],[-1.89451,53.97338]]]]}},
{ "type":"Feature","properties":{"osm_way_id":"227364317","amenity":"parking","other":{"capacity:disabled":"3","fee":"no","lit":"yes","opening_hours":"Apr,Oct 08:00-19:30; May,Sep 08:00-20:30; Jun-Aug 08:00-21:00; Nov-Mar 08:00-17:30","parking":"surface"}}, "geometry":{"type":"MultiPolygon","coordinates":[[[[-0.05142,51.59811],[-0.05145,51.59813],[-0.05149,51.59815],[-0.05154,51.59817],[-0.05159,51.59818],[-0.05165,51.59818],[-0.0517,51.59817],[-0.05176,51.59815],[-0.05171,51.5981],[-0.05176,51.59808],[-0.05181,51.59813],[-0.05186,51.59811],[-0.05188,51.59809],[-0.05189,51.59807],[-0.05191,51.59804],[-0.05192,51.59801],[-0.05191,51.59797],[-0.05189,51.59795],[-0.05178,51.59784],[-0.05176,51.59783],[-0.05176,51.59782],[-0.05173,51.59779],[-0.05171,51.59777],[-0.05158,51.59766],[-0.05158,51.59765],[-0.05151,51.59768],[-0.05148,51.59765],[-0.05145,51.59762],[-0.05137,51.59765],[-0.05129,51.59758],[-0.05126,51.59759],[-0.05117,51.59762],[-0.05115,51.59763],[-0.05111,51.59764],[-0.0511,51.5977],[-0.0511,51.59772],[-0.05111,51.59774],[-0.0511,51.59776],[-0.05107,51.59778],[-0.05115,51.59785],[-0.05129,51.59798],[-0.05132,51.59802],[-0.05142,51.59811]]]]}},
{ "type":"Feature","properties":{"osm_way_id":"239381849","amenity":"parking"},"geometry":{"type":"MultiPolygon","coordinates":[[[[-2.16299,53.94957],[-2.16321,53.94981],[-2.16308,53.94983],[-2.1628,53.94983],[-2.16277,53.94961],[-2.16299,53.94957]]]]}},
{ "type":"Feature","properties":{"osm_way_id":"254773645","amenity":"parking","other":{"access":"customers","capacity:disabled":"yes","fee":"no","operator":"Co-op Supermarket","operator:type":"business","parking":"surface"}}, "geometry":{"type":"MultiPolygon","coordinates":[[[[-2.55431,55.47973],[-2.55443,55.47969],[-2.55461,55.47946],[-2.55459,55.47944],[-2.55456,55.47943],[-2.5545,55.4794],[-2.55444,55.47938],[-2.55439,55.47936],[-2.55427,55.47931],[-2.55416,55.47927],[-2.55403,55.47921],[-2.55398,55.47925],[-2.55359,55.47955],[-2.55342,55.4797],[-2.55353,55.47974],[-2.55343,55.47985],[-2.55369,55.47993],[-2.5538,55.47982],[-2.55385,55.47975],[-2.55386,55.47969],[-2.55374,55.47965],[-2.55381,55.4796],[-2.55385,55.47961],[-2.55387,55.47959],[-2.55394,55.47961],[-2.55431,55.47973]]]]}},
{ "type":"Feature","properties":{"osm_way_id":"256686857","amenity":"parking"},"geometry":{"type":"MultiPolygon","coordinates":[[[[-2.09912,54.2011],[-2.09888,54.20105],[-2.09875,54.20079],[-2.09875,54.20073],[-2.09883,54.20071],[-2.09912,54.2011]]]]}},
{ "type":"Feature","properties":{"osm_way_id":"260985216","amenity":"parking","other":{"access":"customers","parking":"surface"}}, "geometry":{"type":"MultiPolygon","coordinates":[[[[-2.15266,54.06218],[-2.15261,54.06211],[-2.15262,54.06202],[-2.15264,54.06198],[-2.1526,54.06194],[-2.15268,54.06191],[-2.15283,54.06187],[-2.15294,54.06212],[-2.15266,54.06218]]]]}},
{ "type":"Feature","properties":{"osm_way_id":"261458909","amenity":"parking","other":{"access":"yes"}}, "geometry":{"type":"MultiPolygon","coordinates":[[[[-2.27209,54.08147],[-2.27214,54.08153],[-2.27206,54.08159],[-2.27185,54.08167],[-2.27164,54.08152],[-2.27194,54.08136],[-2.27198,54.08133],[-2.27202,54.08139],[-2.27198,54.08144],[-2.27201,54.08148],[-2.27209,54.08147]]]]}},
{ "type":"Feature","properties":{"osm_way_id":"261662833","amenity":"parking"},"geometry":{"type":"MultiPolygon","coordinates":[[[[-1.86457,54.0676],[-1.86461,54.06755],[-1.86465,54.06753],[-1.86471,54.06751],[-1.86479,54.06746],[-1.86496,54.06744],[-1.86515,54.06743],[-1.86518,54.06758],[-1.86522,54.06759],[-1.86528,54.06758],[-1.86529,54.06764],[-1.86535,54.06764],[-1.86598,54.06762],[-1.866,54.06773],[-1.8653,54.06774],[-1.8653,54.06775],[-1.86517,54.06775],[-1.86478,54.06775],[-1.86466,54.06775],[-1.8646,54.06768],[-1.86457,54.0676]]]]}},
{ "type":"Feature","properties":{"osm_way_id":"261834810","amenity":"parking","other":{"access":"permissive"}}, "geometry":{"type":"MultiPolygon","coordinates":[[[[-2.27063,54.09164],[-2.27063,54.09194],[-2.2703,54.09194],[-2.27005,54.09189],[-2.27014,54.09177],[-2.27026,54.09163],[-2.27063,54.09164]]]]}},
{ "type":"Feature","properties":{"osm_way_id":"262148840","amenity":"parking","other":{"parking":"surface"}}, "geometry":{"type":"MultiPolygon","coordinates":[[[[-1.9911,53.97562],[-1.99069,53.97566],[-1.99045,53.97568],[-1.99043,53.97569],[-1.99042,53.97572],[-1.99046,53.97587],[-1.99039,53.97588],[-1.99033,53.97588],[-1.9903,53.97586],[-1.99003,53.97589],[-1.98974,53.97594],[-1.98924,53.97596],[-1.98917,53.97563],[-1.99014,53.97554],[-1.99048,53.97551],[-1.99048,53.97555],[-1.99068,53.97553],[-1.99075,53.97553],[-1.99085,53.97552],[-1.99107,53.9755],[-1.9911,53.97562]]]]}},
{ "type":"Feature","properties":{"osm_way_id":"262339649","amenity":"parking"},"geometry":{"type":"MultiPolygon","coordinates":[[[[-1.96492,54.07278],[-1.96485,54.07269],[-1.96482,54.07264],[-1.96493,54.07262],[-1.96512,54.0726],[-1.96516,54.07263],[-1.9652,54.07275],[-1.96492,54.07278]]]]}},
{ "type":"Feature","properties":{"osm_way_id":"262546899","amenity":"parking"},"geometry":{"type":"MultiPolygon","coordinates":[[[[-1.90417,54.034],[-1.90418,54.03389],[-1.90431,54.03377],[-1.90445,54.03379],[-1.90438,54.03397],[-1.9044,54.03402],[-1.90417,54.034]]]]}},
{ "type":"Feature","properties":{"osm_way_id":"262728629","amenity":"parking"},"geometry":{"type":"MultiPolygon","coordinates":[[[[-2.09653,53.95387],[-2.09587,53.95395],[-2.09575,53.95391],[-2.09575,53.95375],[-2.09581,53.9536],[-2.09558,53.95355],[-2.09567,53.95344],[-2.09579,53.95336],[-2.09584,53.95339],[-2.09595,53.95333],[-2.0961,53.95327],[-2.0962,53.95337],[-2.09633,53.95334],[-2.09663,53.95361],[-2.09664,53.95367],[-2.09659,53.95369],[-2.09661,53.95372],[-2.09654,53.95376],[-2.09653,53.95378],[-2.09652,53.95381],[-2.09653,53.95387]]]]}},
{ "type":"Feature","properties":{"osm_way_id":"262728635","amenity":"parking"},"geometry":{"type":"MultiPolygon","coordinates":[[[[-2.08793,53.95228],[-2.08776,53.95188],[-2.08753,53.9519],[-2.08734,53.95191],[-2.08732,53.95201],[-2.08737,53.95217],[-2.08747,53.95237],[-2.08793,53.95228]]]]}},
{ "type":"Feature","properties":{"osm_way_id":"262728636","amenity":"parking"},"geometry":{"type":"MultiPolygon","coordinates":[[[[-2.0898,53.95286],[-2.08971,53.95276],[-2.08928,53.95276],[-2.08929,53.95288],[-2.08935,53.95288],[-2.08943,53.95285],[-2.08953,53.95294],[-2.0898,53.95286]]]]}},
{ "type":"Feature","properties":{"osm_way_id":"270402255","amenity":"parking","other":{"access":"yes","fee":"yes","parking":"surface"}}, "geometry":{"type":"MultiPolygon","coordinates":[[[[-2.03469,53.96304],[-2.03465,53.96304],[-2.03464,53.96313],[-2.03452,53.96318],[-2.03426,53.96298],[-2.03417,53.96302],[-2.03377,53.96275],[-2.03376,53.96235],[-2.0347,53.96235],[-2.03471,53.96261],[-2.03469,53.96304]]]]}},
{ "type":"Feature","properties":{"osm_way_id":"273210344","amenity":"parking"},"geometry":{"type":"MultiPolygon","coordinates":[[[[-1.98709,54.0787],[-1.98706,54.0789],[-1.98688,54.0788],[-1.98688,54.07874],[-1.98696,54.07874],[-1.98705,54.07874],[-1.98709,54.0787]]]]}},
{ "type":"Feature","properties":{"osm_way_id":"274297428","building":"yes"},"geometry":{"type":"MultiPolygon","coordinates":[[[[-2.04778,54.14704],[-2.04792,54.14713],[-2.04783,54.14718],[-2.04769,54.14709],[-2.04778,54.14704]]]]}},
{ "type":"Feature","properties":{"osm_way_id":"277208275","amenity":"parking"},"geometry":{"type":"MultiPolygon","coordinates":[[[[-1.91863,53.96217],[-1.91868,53.96221],[-1.91858,53.96225],[-1.91852,53.96221],[-1.91856,53.96221],[-1.91863,53.96217]]]]}},
{ "type":"Feature","properties":{"osm_way_id":"279667250","name":"Water Sinks","amenity":"parking","other":{"access":"yes","fee":"no","lit":"no","opening_hours":"24\/7","parking":"surface","supervised":"no","surface":"compacted"}}, "geometry":{"type":"MultiPolygon","coordinates":[[[[-2.16333,54.08814],[-2.1634,54.08816],[-2.16333,54.08827],[-2.16326,54.08826],[-2.16322,54.0883],[-2.16319,54.08833],[-2.16291,54.08831],[-2.16274,54.08829],[-2.16275,54.08826],[-2.16276,54.08811],[-2.16314,54.0881],[-2.16314,54.08814],[-2.16333,54.08814]]]]}},
{ "type":"Feature","properties":{"osm_way_id":"294296953","amenity":"parking"},"geometry":{"type":"MultiPolygon","coordinates":[[[[-2.01751,54.07437],[-2.01688,54.0747],[-2.01679,54.07465],[-2.01691,54.07458],[-2.01702,54.07452],[-2.01693,54.07447],[-2.01683,54.07441],[-2.01723,54.07418],[-2.01751,54.07437]]]]}},
{ "type":"Feature","properties":{"osm_way_id":"294450503","amenity":"parking","other":{"access":"customers","parking":"surface"}}, "geometry":{"type":"MultiPolygon","coordinates":[[[[-2.09039,54.20833],[-2.09013,54.20857],[-2.08999,54.20848],[-2.09006,54.20846],[-2.09014,54.20844],[-2.09013,54.20839],[-2.09022,54.20835],[-2.09026,54.2083],[-2.09039,54.20833]]]]}},
{ "type":"Feature","properties":{"osm_way_id":"315950164","amenity":"parking"},"geometry":{"type":"MultiPolygon","coordinates":[[[[-2.02977,53.95626],[-2.0295,53.95628],[-2.02973,53.95722],[-2.02978,53.95722],[-2.02983,53.95739],[-2.03004,53.95737],[-2.02995,53.95692],[-2.03016,53.9569],[-2.03012,53.95666],[-2.03022,53.95666],[-2.03022,53.95664],[-2.03018,53.95632],[-2.02984,53.95633],[-2.02979,53.95634],[-2.02977,53.95626]]]]}},
{ "type":"Feature","properties":{"osm_way_id":"329315210","amenity":"parking","other":{"access":"customers"}}, "geometry":{"type":"MultiPolygon","coordinates":[[[[-1.89471,53.98185],[-1.89458,53.9816],[-1.89396,53.98161],[-1.89392,53.98183],[-1.89398,53.98183],[-1.89413,53.98184],[-1.89471,53.98185]]]]}},
{ "type":"Feature","properties":{"osm_way_id":"336283985","amenity":"parking"},"geometry":{"type":"MultiPolygon","coordinates":[[[[-2.28085,54.07244],[-2.28103,54.07261],[-2.28076,54.0727],[-2.28071,54.07268],[-2.2807,54.07268],[-2.28068,54.07268],[-2.28059,54.07266],[-2.28053,54.07265],[-2.28047,54.07264],[-2.28056,54.07259],[-2.28085,54.07244]]]]}},
{ "type":"Feature","properties":{"osm_way_id":"353723793","amenity":"parking","other":{"access":"customers","fee":"no","operator":"Wheatsheaf Hotel","parking":"surface"}}, "geometry":{"type":"MultiPolygon","coordinates":[[[[-2.46597,54.15375],[-2.46597,54.15376],[-2.46601,54.15378],[-2.4661,54.15383],[-2.46613,54.15385],[-2.4662,54.1539],[-2.46622,54.15391],[-2.46625,54.15389],[-2.46636,54.1538],[-2.46647,54.15371],[-2.46651,54.15368],[-2.46646,54.15366],[-2.46649,54.1536],[-2.46641,54.15354],[-2.46628,54.1536],[-2.46623,54.15355],[-2.46614,54.15362],[-2.46597,54.15375]]]]}},
{ "type":"Feature","properties":{"osm_way_id":"354328590","name":"Hotel Parking","amenity":"parking","other":{"access":"customers","fee":"no","park_ride":"no","parking":"surface","supervised":"no"}}, "geometry":{"type":"MultiPolygon","coordinates":[[[[-2.11704,53.98379],[-2.11706,53.98381],[-2.11708,53.98383],[-2.11711,53.98386],[-2.11715,53.9839],[-2.1176,53.98377],[-2.11765,53.9837],[-2.1175,53.98366],[-2.11704,53.98379]]]]}},
{ "type":"Feature","properties":{"osm_way_id":"354328596","name":"Anchor Inn Parking","amenity":"parking","other":{"access":"customers","fee":"no","park_ride":"no","parking":"surface","supervised":"no"}}, "geometry":{"type":"MultiPolygon","coordinates":[[[[-2.11693,53.98423],[-2.11695,53.98419],[-2.11677,53.98404],[-2.11706,53.98396],[-2.11761,53.98379],[-2.11794,53.98388],[-2.11829,53.98422],[-2.11807,53.98436],[-2.11772,53.98432],[-2.11767,53.98438],[-2.11693,53.98423]]]]}},
{ "type":"Feature","properties":{"osm_way_id":"354328607","name":"Garden Centre Parking","amenity":"parking"},"geometry":{"type":"MultiPolygon","coordinates":[[[[-2.11834,53.98423],[-2.11848,53.98432],[-2.11867,53.98426],[-2.1185,53.98405],[-2.11804,53.98348],[-2.11796,53.9834],[-2.11766,53.98349],[-2.11791,53.98378],[-2.11787,53.9838],[-2.11796,53.98388],[-2.11825,53.98415],[-2.11834,53.98423]]]]}},
{ "type":"Feature","properties":{"osm_way_id":"359403115","amenity":"parking"},"geometry":{"type":"MultiPolygon","coordinates":[[[[-1.99123,53.90141],[-1.99145,53.90162],[-1.99139,53.90179],[-1.99152,53.90182],[-1.99155,53.90184],[-1.99157,53.90187],[-1.9915,53.90208],[-1.99096,53.90201],[-1.99106,53.90175],[-1.99109,53.90168],[-1.99117,53.90165],[-1.99117,53.90163],[-1.99103,53.9015],[-1.99123,53.90141]]]]}},
{ "type":"Feature","properties":{"osm_way_id":"361717391","amenity":"parking","other":{"access":"private","capacity":"10","fee":"no","supervised":"no"}}, "geometry":{"type":"MultiPolygon","coordinates":[[[[-2.16586,54.10225],[-2.16589,54.10219],[-2.1661,54.10223],[-2.16615,54.10216],[-2.16593,54.10212],[-2.16587,54.1021],[-2.16578,54.10208],[-2.1657,54.10222],[-2.16586,54.10225]]]]}},
{ "type":"Feature","properties":{"osm_way_id":"361719406","amenity":"parking","other":{"access":"private"}}, "geometry":{"type":"MultiPolygon","coordinates":[[[[-2.16358,54.10092],[-2.16348,54.10091],[-2.16337,54.10096],[-2.16341,54.10106],[-2.16348,54.10111],[-2.16365,54.10111],[-2.16363,54.10102],[-2.16357,54.10102],[-2.16356,54.10098],[-2.1636,54.10097],[-2.16358,54.10092]]]]}},
{ "type":"Feature","properties":{"osm_way_id":"361719407","amenity":"parking","other":{"access":"private"}}, "geometry":{"type":"MultiPolygon","coordinates":[[[[-2.1643,54.10096],[-2.16407,54.10098],[-2.16409,54.10105],[-2.16429,54.10104],[-2.1643,54.10096]]]]}},
{ "type":"Feature","properties":{"osm_way_id":"361862313","amenity":"parking","other":{"access":"customers","fee":"no","park_ride":"no","parking":"surface","supervised":"no"}}, "geometry":{"type":"MultiPolygon","coordinates":[[[[-2.47083,54.15153],[-2.47117,54.15162],[-2.47128,54.15153],[-2.47092,54.15142],[-2.4709,54.15144],[-2.47083,54.15153]]]]}},
{ "type":"Feature","properties":{"osm_way_id":"361887134","amenity":"parking","other":{"fee":"yes","parking":"surface"}}, "geometry":{"type":"MultiPolygon","coordinates":[[[[-2.46816,54.15325],[-2.46867,54.15341],[-2.46879,54.15326],[-2.46851,54.15317],[-2.46857,54.15311],[-2.46834,54.15303],[-2.46816,54.15325]]]]}},
{ "type":"Feature","properties":{"osm_way_id":"361903759","amenity":"parking","other":{"access":"customers","fee":"no","parking":"surface"}}, "geometry":{"type":"MultiPolygon","coordinates":[[[[-2.39599,54.11556],[-2.39623,54.1158],[-2.39646,54.11574],[-2.39628,54.11552],[-2.39599,54.11556]]]]}},
{ "type":"Feature","properties":{"osm_way_id":"362608688","amenity":"parking","other":{"access":"customers","fee":"no","park_ride":"no","parking":"surface","supervised":"no","wheelchair":"yes"}}, "geometry":{"type":"MultiPolygon","coordinates":[[[[-2.3915,54.11722],[-2.39155,54.11713],[-2.39127,54.11707],[-2.39133,54.11697],[-2.39142,54.11699],[-2.39152,54.11683],[-2.39126,54.11677],[-2.39104,54.11713],[-2.3915,54.11722]]]]}},
{ "type":"Feature","properties":{"osm_way_id":"362612286","amenity":"parking","other":{"access":"customers","fee":"no","operator":"The Courtyard Dairy","operator:type":"business","park_ride":"no","parking":"surface","supervised":"no","surface":"compacted"}}, "geometry":{"type":"MultiPolygon","coordinates":[[[[-2.33594,54.09878],[-2.33628,54.09911],[-2.33679,54.09898],[-2.33667,54.09871],[-2.33657,54.09862],[-2.33632,54.09851],[-2.33623,54.09857],[-2.33594,54.09878]]]]}},
{ "type":"Feature","properties":{"osm_way_id":"362614292","amenity":"parking","other":{"access":"customers","fee":"no","park_ride":"no","supervised":"no"}}, "geometry":{"type":"MultiPolygon","coordinates":[[[[-2.2947,54.07929],[-2.29486,54.07926],[-2.29496,54.07944],[-2.29516,54.07942],[-2.29487,54.07907],[-2.29473,54.0791],[-2.29473,54.07918],[-2.29466,54.07923],[-2.2947,54.07929]]]]}},
{ "type":"Feature","properties":{"osm_way_id":"362720564","name":"Style Car Park","amenity":"parking"},"geometry":{"type":"MultiPolygon","coordinates":[[[[-2.29161,54.07139],[-2.29156,54.07151],[-2.29158,54.07158],[-2.29165,54.07164],[-2.29178,54.07167],[-2.2918,54.07156],[-2.29181,54.07147],[-2.29204,54.07147],[-2.2923,54.07147],[-2.29202,54.0712],[-2.29187,54.0712],[-2.29186,54.07131],[-2.29162,54.07131],[-2.29161,54.07139]]]]}},
{ "type":"Feature","properties":{"osm_way_id":"362722728","amenity":"parking","other":{"access":"customers","fee":"no","park_ride":"yes","supervised":"no"}}, "geometry":{"type":"MultiPolygon","coordinates":[[[[-2.28874,54.07261],[-2.28882,54.07269],[-2.28923,54.07261],[-2.28911,54.07243],[-2.28881,54.07248],[-2.28885,54.07258],[-2.28874,54.07261]]]]}},
{ "type":"Feature","properties":{"osm_way_id":"362734194","amenity":"parking","other":{"access":"customers","fee":"no","park_ride":"no","parking":"surface","supervised":"no"}}, "geometry":{"type":"MultiPolygon","coordinates":[[[[-2.25506,54.02006],[-2.25514,54.02036],[-2.2552,54.02042],[-2.25556,54.0203],[-2.2554,54.02008],[-2.25506,54.02006]]]]}},
{ "type":"Feature","properties":{"osm_way_id":"362745127","amenity":"parking","other":{"fee":"no","park_ride":"no","parking":"surface","supervised":"no"}}, "geometry":{"type":"MultiPolygon","coordinates":[[[[-2.25414,54.01881],[-2.25429,54.0189],[-2.25439,54.01879],[-2.25414,54.01881]]]]}},
{ "type":"Feature","properties":{"osm_way_id":"362745136","amenity":"parking","other":{"access":"customers","fee":"no","park_ride":"no","parking":"surface","supervised":"no"}}, "geometry":{"type":"MultiPolygon","coordinates":[[[[-2.25365,54.01842],[-2.25382,54.01849],[-2.254,54.01836],[-2.25381,54.01828],[-2.25365,54.01842]]]]}},
{ "type":"Feature","properties":{"osm_way_id":"362771885","amenity":"parking","other":{"access":"private"}}, "geometry":{"type":"MultiPolygon","coordinates":[[[[-2.22265,54.00496],[-2.22272,54.00489],[-2.22268,54.00486],[-2.22279,54.0048],[-2.22247,54.00471],[-2.22232,54.00487],[-2.22265,54.00496]]]]}},
{ "type":"Feature","properties":{"osm_way_id":"362771900","amenity":"parking","other":{"access":"customers","fee":"no","park_ride":"no","parking":"surface","supervised":"no"}}, "geometry":{"type":"MultiPolygon","coordinates":[[[[-2.22212,54.00446],[-2.22224,54.00435],[-2.22258,54.00415],[-2.22259,54.00409],[-2.22233,54.00398],[-2.22224,54.00403],[-2.22232,54.00409],[-2.22195,54.00428],[-2.22209,54.00435],[-2.22202,54.00444],[-2.22212,54.00446]]]]}},
{ "type":"Feature","properties":{"osm_way_id":"362771908","amenity":"parking","other":{"access":"customers"}}, "geometry":{"type":"MultiPolygon","coordinates":[[[[-2.22138,54.00407],[-2.22151,54.00415],[-2.22172,54.00397],[-2.22165,54.0039],[-2.22138,54.00407]]]]}},
{ "type":"Feature","properties":{"osm_way_id":"362777927","name":"Staff Parking","amenity":"parking","other":{"access":"private","operator":"The Coniston Hotel","parking":"surface"}}, "geometry":{"type":"MultiPolygon","coordinates":[[[[-2.1631,53.99389],[-2.16322,53.99363],[-2.16248,53.99354],[-2.16242,53.99366],[-2.1631,53.99389]]]]}},
{ "type":"Feature","properties":{"osm_way_id":"362777928","amenity":"parking","other":{"access":"customers","fee":"no","operator":"The Coniston Hotel","park_ride":"no","parking":"surface","smoothness":"excellent","supervised":"no","surface":"asphalt"}}, "geometry":{"type":"MultiPolygon","coordinates":[[[[-2.16338,53.99355],[-2.16364,53.99311],[-2.16446,53.99341],[-2.16428,53.99363],[-2.1643,53.99367],[-2.16376,53.99352],[-2.16365,53.99352],[-2.16362,53.99359],[-2.16338,53.99355]]]]}},
{ "type":"Feature","properties":{"osm_way_id":"362902146","amenity":"parking","other":{"access":"customers"}}, "geometry":{"type":"MultiPolygon","coordinates":[[[[-2.10502,53.98452],[-2.10503,53.98461],[-2.10503,53.98469],[-2.10554,53.98473],[-2.10561,53.98472],[-2.10563,53.9847],[-2.10564,53.98468],[-2.10561,53.98451],[-2.10502,53.98452]]]]}},
{ "type":"Feature","properties":{"osm_way_id":"362904759","amenity":"parking","other":{"access":"customers","fee":"no","park_ride":"no","parking":"surface","supervised":"no"}}, "geometry":{"type":"MultiPolygon","coordinates":[[[[-2.10659,53.98178],[-2.10689,53.98178],[-2.10688,53.98169],[-2.10704,53.98167],[-2.1071,53.98189],[-2.10668,53.98192],[-2.10666,53.98185],[-2.1066,53.98186],[-2.10659,53.98178]]]]}},
{ "type":"Feature","properties":{"osm_way_id":"362904772","amenity":"parking","other":{"access":"customers","fee":"no","park_ride":"no","parking":"surface","supervised":"no"}}, "geometry":{"type":"MultiPolygon","coordinates":[[[[-2.13409,53.96804],[-2.13424,53.96808],[-2.1344,53.96811],[-2.13439,53.96782],[-2.13416,53.96778],[-2.13409,53.96804]]]]}},
{ "type":"Feature","properties":{"osm_way_id":"362906972","amenity":"parking","other":{"access":"customers","fee":"no","park_ride":"no","parking":"surface","supervised":"no"}}, "geometry":{"type":"MultiPolygon","coordinates":[[[[-2.10412,53.98376],[-2.10425,53.98363],[-2.10399,53.9835],[-2.1042,53.98336],[-2.10411,53.98326],[-2.10371,53.98334],[-2.10381,53.98354],[-2.10373,53.98356],[-2.10381,53.98365],[-2.10412,53.98376]]]]}},
{ "type":"Feature","properties":{"osm_way_id":"364181071","name":"Disabled Parking","amenity":"parking","other":{"access":"yes","capacity":"3","fee":"no","park_ride":"no","parking":"surface","supervised":"no"}}, "geometry":{"type":"MultiPolygon","coordinates":[[[[-2.0159,53.96259],[-2.016,53.96247],[-2.01615,53.9625],[-2.01603,53.96263],[-2.0159,53.96259]]]]}},
{ "type":"Feature","properties":{"osm_way_id":"364183862","name":"Disabled Parking","amenity":"parking","other":{"access":"yes","capacity":"11","fee":"yes","park_ride":"no","parking":"surface","supervised":"no"}}, "geometry":{"type":"MultiPolygon","coordinates":[[[[-2.01353,53.96211],[-2.01354,53.9622],[-2.01408,53.96216],[-2.01406,53.96208],[-2.01353,53.96211]]]]}},
{ "type":"Feature","properties":{"osm_way_id":"364196080","amenity":"parking","other":{"access":"private","parking":"surface"}}, "geometry":{"type":"MultiPolygon","coordinates":[[[[-2.01478,53.96131],[-2.01494,53.96132],[-2.01505,53.96111],[-2.01486,53.96109],[-2.01478,53.96131]]]]}},
{ "type":"Feature","properties":{"osm_way_id":"364315535","amenity":"parking","other":{"access":"customers","fee":"no","parking":"surface"}}, "geometry":{"type":"MultiPolygon","coordinates":[[[[-2.01133,53.96115],[-2.01136,53.96127],[-2.01123,53.96131],[-2.0112,53.96118],[-2.01133,53.96115]]]]}},
{ "type":"Feature","properties":{"osm_way_id":"364317280","amenity":"parking","other":{"access":"customers","fee":"no","parking":"surface"}}, "geometry":{"type":"MultiPolygon","coordinates":[[[[-2.01046,53.96072],[-2.01084,53.96081],[-2.0109,53.9607],[-2.0107,53.96071],[-2.01067,53.96063],[-2.01044,53.96067],[-2.01046,53.96072]]]]}},
{ "type":"Feature","properties":{"osm_way_id":"364319897","amenity":"parking","other":{"access":"customers","fee":"no","park_ride":"no","parking":"surface","supervised":"no"}}, "geometry":{"type":"MultiPolygon","coordinates":[[[[-2.01396,53.96003],[-2.01412,53.96015],[-2.01415,53.96028],[-2.01423,53.96028],[-2.01432,53.96027],[-2.01438,53.96027],[-2.01428,53.9601],[-2.0142,53.96005],[-2.01408,53.95997],[-2.01396,53.96003]]]]}},
{ "type":"Feature","properties":{"osm_way_id":"364487774","amenity":"parking","other":{"park_ride":"no","parking":"surface"}}, "geometry":{"type":"MultiPolygon","coordinates":[[[[-2.01785,53.95557],[-2.01781,53.95572],[-2.01804,53.95573],[-2.01813,53.9558],[-2.01851,53.95584],[-2.01851,53.95577],[-2.01853,53.95573],[-2.01836,53.95572],[-2.01838,53.95564],[-2.01838,53.9556],[-2.01829,53.95559],[-2.01806,53.95558],[-2.01785,53.95557]]]]}},
{ "type":"Feature","properties":{"osm_way_id":"364487776","amenity":"parking","other":{"park_ride":"no","parking":"surface"}}, "geometry":{"type":"MultiPolygon","coordinates":[[[[-2.01923,53.95582],[-2.01929,53.9556],[-2.01955,53.95561],[-2.0195,53.95584],[-2.01923,53.95582]]]]}},
{ "type":"Feature","properties":{"osm_way_id":"364487779","amenity":"parking","other":{"park_ride":"no","parking":"surface"}}, "geometry":{"type":"MultiPolygon","coordinates":[[[[-2.01929,53.95544],[-2.01927,53.95554],[-2.01956,53.95555],[-2.01953,53.95546],[-2.01929,53.95544]]]]}},
{ "type":"Feature","properties":{"osm_way_id":"364487780","amenity":"parking","other":{"access":"yes","fee":"no","park_ride":"no","parking":"surface"}}, "geometry":{"type":"MultiPolygon","coordinates":[[[[-2.01912,53.95499],[-2.01905,53.9549],[-2.0191,53.95483],[-2.01922,53.95475],[-2.01844,53.95468],[-2.01836,53.95492],[-2.01912,53.95499]]]]}},
{ "type":"Feature","properties":{"osm_way_id":"364514933","amenity":"parking","other":{"access":"private","parking":"surface"}}, "geometry":{"type":"MultiPolygon","coordinates":[[[[-2.01945,53.96063],[-2.01963,53.96057],[-2.01965,53.96059],[-2.01972,53.96056],[-2.01963,53.96037],[-2.01954,53.96037],[-2.01943,53.96039],[-2.01945,53.96063]]]]}},
{ "type":"Feature","properties":{"osm_way_id":"365317449","amenity":"parking","other":{"access":"customers","fee":"yes","park_ride":"no","parking":"surface","supervised":"no"}}, "geometry":{"type":"MultiPolygon","coordinates":[[[[-2.02047,53.95917],[-2.02048,53.95903],[-2.02072,53.95908],[-2.02082,53.95909],[-2.02082,53.95931],[-2.02061,53.95931],[-2.02061,53.95918],[-2.02047,53.95917]]]]}},
{ "type":"Feature","properties":{"osm_way_id":"365320309","amenity":"parking","other":{"access":"yes","fee":"yes","parking":"surface"}}, "geometry":{"type":"MultiPolygon","coordinates":[[[[-2.02586,53.95909],[-2.02702,53.95884],[-2.02749,53.95877],[-2.02747,53.95873],[-2.02745,53.95869],[-2.02723,53.9587],[-2.02722,53.9586],[-2.02676,53.9586],[-2.02676,53.95869],[-2.02615,53.95866],[-2.0258,53.95861],[-2.02574,53.95864],[-2.02517,53.95853],[-2.02502,53.95881],[-2.02548,53.95888],[-2.02561,53.95883],[-2.02576,53.95888],[-2.02586,53.95909]]]]}},
{ "type":"Feature","properties":{"osm_way_id":"365322848","amenity":"parking","other":{"access":"customers","operator":"Herriots Hotel","parking":"surface"}}, "geometry":{"type":"MultiPolygon","coordinates":[[[[-2.02509,53.95937],[-2.02521,53.95962],[-2.02561,53.95958],[-2.02553,53.95944],[-2.02545,53.9593],[-2.02509,53.95937]]]]}},
{ "type":"Feature","properties":{"osm_way_id":"365348150","amenity":"parking","other":{"access":"customers","fee":"no","park_ride":"no","parking":"surface","supervised":"no"}}, "geometry":{"type":"MultiPolygon","coordinates":[[[[-2.01237,53.94454],[-2.01288,53.94446],[-2.01277,53.94401],[-2.0126,53.94338],[-2.01256,53.94332],[-2.0125,53.94329],[-2.01244,53.94328],[-2.01237,53.94329],[-2.01188,53.94347],[-2.01199,53.94376],[-2.01206,53.94375],[-2.01199,53.94354],[-2.01235,53.94349],[-2.01246,53.94378],[-2.0126,53.94377],[-2.01264,53.9439],[-2.01255,53.94392],[-2.01269,53.94429],[-2.01225,53.94435],[-2.01237,53.94454]]]]}},
{ "type":"Feature","properties":{"osm_way_id":"365349639","amenity":"parking","other":{"access":"customers","fee":"no","park_ride":"no","parking":"surface","supervised":"no"}}, "geometry":{"type":"MultiPolygon","coordinates":[[[[-2.01155,53.94094],[-2.01161,53.94149],[-2.0122,53.94144],[-2.01208,53.94084],[-2.01155,53.94094]]]]}},
{ "type":"Feature","properties":{"osm_way_id":"366081720","amenity":"parking","other":{"access":"customers","fee":"no","park_ride":"no","parking":"surface","supervised":"no"}}, "geometry":{"type":"MultiPolygon","coordinates":[[[[-2.0167,53.94482],[-2.01703,53.94514],[-2.01738,53.94501],[-2.01707,53.9447],[-2.0167,53.94482]]]]}},
{ "type":"Feature","properties":{"osm_way_id":"371377798","amenity":"parking","other":{"access":"customers","fee":"no","operator":"Northern Rail","parking":"surface","source:geometry":"gps"}}, "geometry":{"type":"MultiPolygon","coordinates":[[[[-2.25508,54.01709],[-2.25518,54.01706],[-2.25524,54.017],[-2.25525,54.01692],[-2.2552,54.01686],[-2.25509,54.01677],[-2.25493,54.01665],[-2.25481,54.01664],[-2.2548,54.01668],[-2.25493,54.01683],[-2.25493,54.0169],[-2.25496,54.01698],[-2.25493,54.01709],[-2.25499,54.01711],[-2.25508,54.01709]]]]}},
{ "type":"Feature","properties":{"osm_way_id":"371510583","amenity":"parking"},"geometry":{"type":"MultiPolygon","coordinates":[[[[-2.30186,54.14935],[-2.30199,54.14932],[-2.30203,54.14932],[-2.3019,54.14908],[-2.30177,54.14909],[-2.30174,54.1491],[-2.30186,54.14935]]]]}},
{ "type":"Feature","properties":{"osm_way_id":"374055061","amenity":"parking","other":{"fee":"no","parking":"surface","surface":"unpaved"}}, "geometry":{"type":"MultiPolygon","coordinates":[[[[-2.36017,54.2091],[-2.36005,54.20919],[-2.3595,54.20939],[-2.35906,54.20964],[-2.35867,54.2098],[-2.35813,54.20995],[-2.35756,54.21005],[-2.35747,54.21006],[-2.35826,54.20985],[-2.3586,54.20974],[-2.3588,54.20965],[-2.35915,54.20947],[-2.35946,54.20931],[-2.35975,54.2092],[-2.36002,54.20913],[-2.36017,54.2091]]]]}},
{ "type":"Feature","properties":{"osm_way_id":"374055064","amenity":"parking"},"geometry":{"type":"MultiPolygon","coordinates":[[[[-2.3689,54.20479],[-2.36856,54.20482],[-2.36813,54.205],[-2.36808,54.20508],[-2.3689,54.20479]]]]}},
{ "type":"Feature","properties":{"osm_way_id":"380232315","amenity":"parking","other":{"parking":"surface"}}, "geometry":{"type":"MultiPolygon","coordinates":[[[[-1.9998,53.89777],[-1.99974,53.89776],[-1.99973,53.89781],[-1.9994,53.8978],[-1.99941,53.89776],[-1.99933,53.89775],[-1.99935,53.89738],[-1.99943,53.89738],[-1.99943,53.89734],[-1.99984,53.89736],[-1.99984,53.8974],[-1.99976,53.89745],[-1.99975,53.89764],[-1.99981,53.89764],[-1.9998,53.89777]]]]}},
{ "type":"Feature","properties":{"osm_way_id":"380232325","amenity":"parking","other":{"access":"private"}}, "geometry":{"type":"MultiPolygon","coordinates":[[[[-2.0018,53.89798],[-2.00165,53.89799],[-2.00152,53.89736],[-2.0017,53.89735],[-2.00198,53.89742],[-2.00216,53.89736],[-2.00262,53.89773],[-2.00249,53.89784],[-2.00176,53.89778],[-2.0018,53.89798]]]]}},
{ "type":"Feature","properties":{"osm_way_id":"380232327","amenity":"parking","other":{"access":"private","parking":"surface"}}, "geometry":{"type":"MultiPolygon","coordinates":[[[[-1.99806,53.8984],[-1.99826,53.89869],[-1.99749,53.89884],[-1.99742,53.89875],[-1.99768,53.89868],[-1.99755,53.8985],[-1.99806,53.8984]]]]}},
{ "type":"Feature","properties":{"osm_way_id":"384753943","amenity":"parking","other":{"parking":"surface"}}, "geometry":{"type":"MultiPolygon","coordinates":[[[[-2.07318,54.16903],[-2.0735,54.16898],[-2.07348,54.16907],[-2.07343,54.16906],[-2.07337,54.16907],[-2.07332,54.16908],[-2.07325,54.16912],[-2.07316,54.16917],[-2.07306,54.16909],[-2.07318,54.16903]]]]}},
{ "type":"Feature","properties":{"osm_way_id":"388669181","name":"Pen-y-Ghent Cafe Car Park","amenity":"parking","other":{"access":"customers"}}, "geometry":{"type":"MultiPolygon","coordinates":[[[[-2.29483,54.14785],[-2.29487,54.14782],[-2.29478,54.14775],[-2.29489,54.14769],[-2.2951,54.14771],[-2.2952,54.14768],[-2.29528,54.14776],[-2.2952,54.14779],[-2.295,54.14784],[-2.29501,54.14786],[-2.29487,54.1479],[-2.29483,54.14785]]]]}},
{ "type":"Feature","properties":{"osm_way_id":"391653930","amenity":"parking"},"geometry":{"type":"MultiPolygon","coordinates":[[[[-1.99067,53.8997],[-1.99059,53.89937],[-1.99043,53.89938],[-1.99021,53.8994],[-1.98987,53.89943],[-1.98995,53.89977],[-1.99029,53.89973],[-1.99051,53.89972],[-1.99067,53.8997]]]]}},
{ "type":"Feature","properties":{"osm_way_id":"391653933","amenity":"parking"},"geometry":{"type":"MultiPolygon","coordinates":[[[[-1.9905,53.89901],[-1.98983,53.89908],[-1.98993,53.8994],[-1.9902,53.89937],[-1.99042,53.89935],[-1.99059,53.89933],[-1.9905,53.89901]]]]}},
{ "type":"Feature","properties":{"osm_way_id":"392094922","amenity":"parking"},"geometry":{"type":"MultiPolygon","coordinates":[[[[-2.00517,54.06639],[-2.0051,54.06619],[-2.00488,54.06622],[-2.005,54.06642],[-2.00517,54.06639]]]]}},
{ "type":"Feature","properties":{"osm_way_id":"393645337","amenity":"parking"},"geometry":{"type":"MultiPolygon","coordinates":[[[[-1.99007,53.98055],[-1.99004,53.98055],[-1.98998,53.98057],[-1.98994,53.98057],[-1.98996,53.98061],[-1.98985,53.98062],[-1.98988,53.98071],[-1.99014,53.98068],[-1.99007,53.98055]]]]}},
{ "type":"Feature","properties":{"osm_way_id":"395591496","amenity":"parking","other":{"access":"private","fee":"no","parking":"surface","surface":"asphalt"}}, "geometry":{"type":"MultiPolygon","coordinates":[[[[-2.01192,53.96181],[-2.01129,53.96179],[-2.01131,53.96198],[-2.01137,53.96199],[-2.01139,53.96206],[-2.01189,53.96202],[-2.01192,53.96181]]]]}},
{ "type":"Feature","properties":{"osm_way_id":"395591497","amenity":"parking","other":{"access":"private","parking":"surface"}}, "geometry":{"type":"MultiPolygon","coordinates":[[[[-2.01096,53.96207],[-2.01096,53.96191],[-2.01102,53.96191],[-2.01103,53.96188],[-2.01124,53.96187],[-2.01123,53.96197],[-2.01131,53.96206],[-2.01128,53.96206],[-2.01111,53.96206],[-2.01104,53.96207],[-2.01096,53.96207]]]]}},
{ "type":"Feature","properties":{"osm_way_id":"397820642","amenity":"parking"},"geometry":{"type":"MultiPolygon","coordinates":[[[[-2.04256,54.03427],[-2.04282,54.03455],[-2.04283,54.03454],[-2.04328,54.0344],[-2.0433,54.03437],[-2.0433,54.03435],[-2.04327,54.03433],[-2.04332,54.0343],[-2.04335,54.03428],[-2.04328,54.03421],[-2.04324,54.03421],[-2.04314,54.03421],[-2.04299,54.03423],[-2.04288,54.03423],[-2.04279,54.03422],[-2.04267,54.03424],[-2.04256,54.03427]]]]}},
{ "type":"Feature","properties":{"osm_way_id":"398219383","amenity":"parking","other":{"access":"private"}}, "geometry":{"type":"MultiPolygon","coordinates":[[[[-2.29393,54.14618],[-2.29379,54.14579],[-2.29338,54.14586],[-2.29355,54.14621],[-2.29393,54.14618]]]]}},
{ "type":"Feature","properties":{"osm_way_id":"398492664","amenity":"parking"},"geometry":{"type":"MultiPolygon","coordinates":[[[[-2.29535,54.1497],[-2.29538,54.1496],[-2.29574,54.14961],[-2.29575,54.14968],[-2.29535,54.1497]]]]}},
{ "type":"Feature","properties":{"osm_way_id":"398492665","name":"Crown Hotel","amenity":"parking","other":{"access":"customers"}}, "geometry":{"type":"MultiPolygon","coordinates":[[[[-2.29602,54.15014],[-2.29555,54.1502],[-2.29549,54.15006],[-2.29608,54.14998],[-2.29611,54.15005],[-2.29603,54.1501],[-2.29602,54.15014]]]]}},
{ "type":"Feature","properties":{"osm_way_id":"398946938","name":"Halton Gill Bunk Barn Car Park","amenity":"parking","other":{"access":"customers","park_ride":"no","parking":"surface"}}, "geometry":{"type":"MultiPolygon","coordinates":[[[[-2.18232,54.18342],[-2.18231,54.18344],[-2.18229,54.18351],[-2.18229,54.18352],[-2.18245,54.18355],[-2.18264,54.18347],[-2.18268,54.18345],[-2.18272,54.18344],[-2.18283,54.18339],[-2.18284,54.18336],[-2.18276,54.18333],[-2.1828,54.18331],[-2.18254,54.18318],[-2.18249,54.18321],[-2.18246,54.18325],[-2.18243,54.18329],[-2.18255,54.1833],[-2.18253,54.18334],[-2.18261,54.18335],[-2.18258,54.18345],[-2.18232,54.18342]]]]}},
{ "type":"Feature","properties":{"osm_way_id":"404478833","amenity":"parking","other":{"access":"customers","operator":"Old School Holiday Accommodation","park_ride":"no","parking":"surface","supervised":"no","surface":"asphalt"}}, "geometry":{"type":"MultiPolygon","coordinates":[[[[-2.39717,54.19328],[-2.39733,54.19339],[-2.39753,54.1933],[-2.39751,54.19329],[-2.39756,54.19327],[-2.39744,54.19319],[-2.39738,54.19317],[-2.39732,54.1932],[-2.39717,54.19328]]]]}},
{ "type":"Feature","properties":{"osm_way_id":"404557473","amenity":"parking","other":{"access":"private","fee":"no"}}, "geometry":{"type":"MultiPolygon","coordinates":[[[[-2.46639,54.15545],[-2.46654,54.15554],[-2.4666,54.15551],[-2.46657,54.15549],[-2.4667,54.15543],[-2.46651,54.1553],[-2.46629,54.1554],[-2.46633,54.15544],[-2.46639,54.15545]]]]}},
{ "type":"Feature","properties":{"osm_way_id":"404559750","amenity":"parking","other":{"access":"permissive","capacity":"7","fee":"no","park_ride":"no","parking":"surface","supervised":"no","surface":"gravel"}}, "geometry":{"type":"MultiPolygon","coordinates":[[[[-2.45762,54.15564],[-2.45732,54.1555],[-2.45741,54.15546],[-2.45749,54.15539],[-2.45759,54.1554],[-2.45765,54.15549],[-2.45771,54.1555],[-2.45779,54.15547],[-2.45784,54.15549],[-2.4578,54.15552],[-2.45774,54.15556],[-2.45766,54.15561],[-2.45762,54.15564]]]]}},
{ "type":"Feature","properties":{"osm_way_id":"444943121","name":"Riverside Campsite Private Car Park","amenity":"parking","other":{"access":"customers","parking":"surface"}}, "geometry":{"type":"MultiPolygon","coordinates":[[[[-2.15601,54.06528],[-2.15564,54.06533],[-2.15556,54.06523],[-2.15533,54.06516],[-2.15526,54.06513],[-2.1552,54.06508],[-2.15591,54.06505],[-2.15593,54.06508],[-2.15597,54.06509],[-2.15601,54.06528]]]]}},
{ "type":"Feature","properties":{"osm_way_id":"446093168","amenity":"parking","other":{"capacity:disabled":"19","maxheight":"2.1","park_ride":"yes","parking":"surface"}}, "geometry":{"type":"MultiPolygon","coordinates":[[[[-2.6127,53.45295],[-2.61132,53.45304],[-2.6112,53.45272],[-2.61117,53.45263],[-2.61103,53.45209],[-2.611,53.45194],[-2.61151,53.45195],[-2.61217,53.45195],[-2.61226,53.45197],[-2.61234,53.45217],[-2.61249,53.45214],[-2.61256,53.45224],[-2.61288,53.45219],[-2.61298,53.45242],[-2.61249,53.45247],[-2.6126,53.45273],[-2.61263,53.45279],[-2.61265,53.45279],[-2.61269,53.45292],[-2.61272,53.45293],[-2.6127,53.45295]]]]}},
{ "type":"Feature","properties":{"osm_way_id":"450217961","name":"The Willow Beck Car Park","amenity":"parking"},"geometry":{"type":"MultiPolygon","coordinates":[[[[-1.44111,54.34553],[-1.44125,54.34553],[-1.4418,54.34554],[-1.44179,54.34582],[-1.44111,54.34582],[-1.44111,54.34574],[-1.44111,54.34553]]]]}},
{ "type":"Feature","properties":{"osm_way_id":"471925222","amenity":"parking"},"geometry":{"type":"MultiPolygon","coordinates":[[[[-2.54311,54.11856],[-2.5429,54.1186],[-2.54272,54.11832],[-2.54286,54.11829],[-2.54311,54.11856]]]]}},
{ "type":"Feature","properties":{"osm_way_id":"481043729","amenity":"parking","other":{"motor_vehicle":"private"}}, "geometry":{"type":"MultiPolygon","coordinates":[[[[-1.84809,53.99171],[-1.84804,53.99179],[-1.84788,53.99175],[-1.84793,53.99166],[-1.84809,53.99171]]]]}},
{ "type":"Feature","properties":{"osm_way_id":"484182659","amenity":"parking"},"geometry":{"type":"MultiPolygon","coordinates":[[[[-2.28228,54.0689],[-2.2824,54.06888],[-2.2824,54.06882],[-2.2825,54.06883],[-2.28249,54.06866],[-2.28231,54.06866],[-2.2823,54.06852],[-2.2824,54.06845],[-2.28227,54.06842],[-2.28169,54.06843],[-2.28106,54.06834],[-2.28096,54.06874],[-2.28129,54.06879],[-2.28151,54.06885],[-2.2818,54.06887],[-2.28228,54.0689]]]]}},
{ "type":"Feature","properties":{"osm_way_id":"491116661","amenity":"parking","other":{"access":"customers","fee":"no","operator":"Northern Pennine Club","park_ride":"no","parking":"surface","supervised":"no"}}, "geometry":{"type":"MultiPolygon","coordinates":[[[[-2.42942,54.11942],[-2.42914,54.11938],[-2.42912,54.11926],[-2.42905,54.11925],[-2.42908,54.11917],[-2.42922,54.1192],[-2.42956,54.11931],[-2.42947,54.11937],[-2.42942,54.11942]]]]}},
{ "type":"Feature","properties":{"osm_way_id":"494114649","amenity":"parking"},"geometry":{"type":"MultiPolygon","coordinates":[[[[-2.03541,53.95597],[-2.03577,53.9559],[-2.03571,53.9558],[-2.03579,53.95579],[-2.03576,53.95574],[-2.0359,53.9557],[-2.03594,53.95578],[-2.03619,53.95572],[-2.03623,53.95579],[-2.03665,53.95571],[-2.03681,53.95549],[-2.03681,53.95545],[-2.03677,53.95544],[-2.03669,53.95544],[-2.03588,53.9556],[-2.03577,53.95563],[-2.03573,53.95566],[-2.03568,53.95559],[-2.03561,53.95556],[-2.03524,53.95563],[-2.03537,53.95588],[-2.03541,53.95597]]]]}},
{ "type":"Feature","properties":{"osm_way_id":"495644474","amenity":"parking","other":{"access":"private","operator":"Royal Holloway, University of London","parking":"surface","surface":"gravel"}}, "geometry":{"type":"MultiPolygon","coordinates":[[[[-0.55888,51.42423],[-0.55895,51.42419],[-0.5589,51.42416],[-0.55887,51.42414],[-0.55871,51.4241],[-0.55867,51.42411],[-0.5586,51.42414],[-0.55848,51.42432],[-0.55805,51.42421],[-0.55802,51.42425],[-0.55809,51.4243],[-0.55804,51.42437],[-0.55864,51.42455],[-0.55865,51.42453],[-0.55888,51.42423]]]]}},
{ "type":"Feature","properties":{"osm_way_id":"499880125","amenity":"parking","other":{"disabled":"designated"}}, "geometry":{"type":"MultiPolygon","coordinates":[[[[-2.0345,53.96211],[-2.03417,53.96211],[-2.03416,53.96205],[-2.0345,53.96204],[-2.0345,53.96211]]]]}},
{ "type":"Feature","properties":{"osm_way_id":"500361336","name":"Bailey","amenity":"parking","other":{"access":"yes","fee":"yes","maxstay":"Long Stay","parking":"surface"}}, "geometry":{"type":"MultiPolygon","coordinates":[[[[-2.01135,53.96581],[-2.01138,53.96604],[-2.0114,53.96612],[-2.01163,53.96617],[-2.0124,53.966],[-2.01244,53.9658],[-2.01234,53.96534],[-2.01244,53.96505],[-2.01254,53.96472],[-2.01259,53.9646],[-2.01243,53.96451],[-2.01223,53.96446],[-2.01203,53.96447],[-2.01191,53.96487],[-2.01175,53.96538],[-2.01135,53.96581]]]]}},
{ "type":"Feature","properties":{"osm_way_id":"500369255","amenity":"parking","other":{"access":"customers","fee":"no","parking":"street_side"}}, "geometry":{"type":"MultiPolygon","coordinates":[[[[-2.01731,53.95823],[-2.01735,53.95819],[-2.01721,53.95815],[-2.01714,53.95818],[-2.01731,53.95823]]]]}},
{ "type":"Feature","properties":{"osm_way_id":"500369256","amenity":"parking","other":{"access":"private","parking":"street_side"}}, "geometry":{"type":"MultiPolygon","coordinates":[[[[-2.01753,53.95828],[-2.01746,53.95826],[-2.01751,53.95822],[-2.01756,53.95825],[-2.01753,53.95828]]]]}},
{ "type":"Feature","properties":{"osm_way_id":"500424423","name":"Aldi Car Park","amenity":"parking","other":{"access":"yes","fee":"no","parking":"surface"}}, "geometry":{"type":"MultiPolygon","coordinates":[[[[-2.01323,53.94184],[-2.01317,53.9413],[-2.01263,53.94133],[-2.01265,53.94147],[-2.01274,53.94188],[-2.01323,53.94184]]]]}},
{ "type":"Feature","properties":{"osm_way_id":"500424424","name":"McDonald's Car Park","amenity":"parking","other":{"access":"customers"}}, "geometry":{"type":"MultiPolygon","coordinates":[[[[-2.01326,53.94118],[-2.01323,53.94095],[-2.01329,53.94089],[-2.01328,53.94083],[-2.01302,53.94085],[-2.01304,53.9409],[-2.01302,53.941],[-2.01301,53.94119],[-2.01302,53.94124],[-2.01311,53.94124],[-2.01319,53.94118],[-2.01326,53.94118]]]]}},
{ "type":"Feature","properties":{"osm_way_id":"500425978","amenity":"parking","other":{"access":"yes","fee":"no","parking":"surface"}}, "geometry":{"type":"MultiPolygon","coordinates":[[[[-2.00388,53.98565],[-2.0034,53.98579],[-2.00317,53.98582],[-2.00277,53.98589],[-2.00273,53.98563],[-2.0035,53.98564],[-2.00383,53.98561],[-2.00388,53.98565]]]]}},
{ "type":"Feature","properties":{"osm_way_id":"500690625","amenity":"parking","other":{"access":"customers"}}, "geometry":{"type":"MultiPolygon","coordinates":[[[[-2.01812,53.9712],[-2.01804,53.97109],[-2.01802,53.97105],[-2.01732,53.97121],[-2.01667,53.97136],[-2.01615,53.97147],[-2.01604,53.9715],[-2.01578,53.97154],[-2.0155,53.97159],[-2.01501,53.97165],[-2.0151,53.97178],[-2.01523,53.97174],[-2.01527,53.97172],[-2.01533,53.97178],[-2.01543,53.97175],[-2.01537,53.97169],[-2.01553,53.97166],[-2.01568,53.97166],[-2.01584,53.97164],[-2.01616,53.97159],[-2.01709,53.97137],[-2.01754,53.97128],[-2.01769,53.97125],[-2.01776,53.97127],[-2.01812,53.9712]]]]}},
{ "type":"Feature","properties":{"osm_way_id":"500690627","amenity":"parking","other":{"access":"customers"}}, "geometry":{"type":"MultiPolygon","coordinates":[[[[-2.01556,53.97208],[-2.01545,53.97191],[-2.01557,53.97188],[-2.0156,53.97192],[-2.01572,53.97189],[-2.01579,53.972],[-2.01572,53.97204],[-2.01556,53.97208]]]]}},
{ "type":"Feature","properties":{"osm_way_id":"500898496","name":"Craven Heifer","amenity":"parking","other":{"access":"customers","surface":"gravel"}}, "geometry":{"type":"MultiPolygon","coordinates":[[[[-2.02749,53.9766],[-2.02719,53.97661],[-2.02721,53.97692],[-2.02699,53.97692],[-2.02694,53.97696],[-2.02677,53.97697],[-2.02654,53.97696],[-2.0265,53.97695],[-2.02649,53.97674],[-2.02656,53.97673],[-2.02656,53.97662],[-2.02656,53.97647],[-2.02661,53.97646],[-2.02692,53.97645],[-2.02707,53.97645],[-2.02707,53.97628],[-2.02726,53.97625],[-2.02753,53.97625],[-2.02768,53.97624],[-2.02769,53.9764],[-2.02763,53.97642],[-2.02764,53.97649],[-2.02765,53.97652],[-2.02749,53.97655],[-2.02749,53.9766]]]]}},
{ "type":"Feature","properties":{"osm_way_id":"500898499","amenity":"parking","other":{"access":"private","description":"Parking for limousines and hearses only. Otehr visitors, use Craven Heifer pub carpark","surface":"gravel"}}, "geometry":{"type":"MultiPolygon","coordinates":[[[[-2.02585,53.97672],[-2.0254,53.97673],[-2.0254,53.97664],[-2.02584,53.97663],[-2.02585,53.97672]]]]}},
{ "type":"Feature","properties":{"osm_way_id":"500898500","amenity":"parking"},"geometry":{"type":"MultiPolygon","coordinates":[[[[-2.02583,53.97651],[-2.02564,53.97651],[-2.02564,53.9764],[-2.02571,53.97636],[-2.02582,53.97635],[-2.02583,53.97651]]]]}},
{ "type":"Feature","properties":{"osm_way_id":"501701339","amenity":"parking","other":{"access":"private"}}, "geometry":{"type":"MultiPolygon","coordinates":[[[[-2.02956,53.96475],[-2.0295,53.96458],[-2.02924,53.96461],[-2.02929,53.96478],[-2.02956,53.96475]]]]}},
{ "type":"Feature","properties":{"osm_way_id":"502056212","amenity":"parking","other":{"access":"customers"}}, "geometry":{"type":"MultiPolygon","coordinates":[[[[-2.04085,53.97324],[-2.04055,53.97323],[-2.04058,53.97279],[-2.04063,53.97278],[-2.04079,53.97283],[-2.04084,53.97287],[-2.04086,53.97296],[-2.04085,53.97324]]]]}},
{ "type":"Feature","properties":{"osm_way_id":"502061487","amenity":"parking"},"geometry":{"type":"MultiPolygon","coordinates":[[[[-2.03655,53.97736],[-2.03656,53.97724],[-2.03607,53.97722],[-2.03607,53.97731],[-2.03607,53.97734],[-2.03655,53.97736]]]]}},
{ "type":"Feature","properties":{"osm_way_id":"502061502","amenity":"parking"},"geometry":{"type":"MultiPolygon","coordinates":[[[[-2.03652,53.97655],[-2.03594,53.97653],[-2.03596,53.97649],[-2.03602,53.97648],[-2.03652,53.97648],[-2.03652,53.97655]]]]}},
{ "type":"Feature","properties":{"osm_way_id":"502061503","amenity":"parking"},"geometry":{"type":"MultiPolygon","coordinates":[[[[-2.0368,53.97653],[-2.03698,53.97653],[-2.03703,53.97649],[-2.03704,53.97641],[-2.03694,53.97637],[-2.03684,53.97636],[-2.03678,53.97638],[-2.0368,53.97653]]]]}},
{ "type":"Feature","properties":{"osm_way_id":"502061505","amenity":"parking"},"geometry":{"type":"MultiPolygon","coordinates":[[[[-2.03501,53.97763],[-2.03504,53.97754],[-2.03451,53.97753],[-2.03455,53.97762],[-2.03501,53.97763]]]]}},
{ "type":"Feature","properties":{"osm_way_id":"502413588","amenity":"parking"},"geometry":{"type":"MultiPolygon","coordinates":[[[[-2.02091,53.96421],[-2.02092,53.96412],[-2.02092,53.96411],[-2.02094,53.96398],[-2.02098,53.96376],[-2.02086,53.96376],[-2.02074,53.96375],[-2.02062,53.96375],[-2.02063,53.96398],[-2.02067,53.96422],[-2.02082,53.96421],[-2.02091,53.96421]]]]}},
{ "type":"Feature","properties":{"osm_way_id":"502417280","amenity":"parking"},"geometry":{"type":"MultiPolygon","coordinates":[[[[-2.02102,53.96281],[-2.02104,53.9626],[-2.02073,53.96259],[-2.02071,53.96279],[-2.02082,53.96279],[-2.02102,53.96281]]]]}},
{ "type":"Feature","properties":{"osm_way_id":"502422154","amenity":"parking"},"geometry":{"type":"MultiPolygon","coordinates":[[[[-2.02131,53.96225],[-2.0212,53.96224],[-2.02115,53.96223],[-2.02112,53.96236],[-2.0211,53.96236],[-2.02108,53.96243],[-2.02131,53.96245],[-2.02131,53.96225]]]]}},
{ "type":"Feature","properties":{"osm_way_id":"502641733","amenity":"parking"},"geometry":{"type":"MultiPolygon","coordinates":[[[[-2.02428,53.96071],[-2.02428,53.96085],[-2.02412,53.96085],[-2.02412,53.9609],[-2.02396,53.9609],[-2.02393,53.9609],[-2.02389,53.96088],[-2.02388,53.96086],[-2.02393,53.96081],[-2.02407,53.96079],[-2.0241,53.96079],[-2.02413,53.96076],[-2.02417,53.96072],[-2.02422,53.96071],[-2.02428,53.96071]]]]}},
{ "type":"Feature","properties":{"osm_way_id":"502691480","amenity":"parking"},"geometry":{"type":"MultiPolygon","coordinates":[[[[-2.03235,53.95921],[-2.03226,53.9592],[-2.03229,53.95884],[-2.03238,53.95885],[-2.03235,53.95921]]]]}},
{ "type":"Feature","properties":{"osm_way_id":"502691481","amenity":"parking"},"geometry":{"type":"MultiPolygon","coordinates":[[[[-2.03227,53.9585],[-2.03217,53.9585],[-2.03215,53.95842],[-2.03212,53.95829],[-2.03222,53.95828],[-2.03224,53.95841],[-2.03227,53.9585]]]]}},
{ "type":"Feature","properties":{"osm_way_id":"502705232","amenity":"parking","other":{"access":"customers"}}, "geometry":{"type":"MultiPolygon","coordinates":[[[[-2.03411,53.95932],[-2.03428,53.9593],[-2.03428,53.95933],[-2.03438,53.95933],[-2.0344,53.95958],[-2.03418,53.95956],[-2.03417,53.9595],[-2.03419,53.9595],[-2.03418,53.95944],[-2.03413,53.95945],[-2.03411,53.95932]]]]}},
{ "type":"Feature","properties":{"osm_way_id":"502858947","amenity":"parking","other":{"access":"yes","fee":"no","parking":"street_side"}}, "geometry":{"type":"MultiPolygon","coordinates":[[[[-2.0337,53.95687],[-2.03363,53.95677],[-2.03322,53.95687],[-2.03329,53.95697],[-2.0337,53.95687]]]]}},
{ "type":"Feature","properties":{"osm_way_id":"503333364","amenity":"parking"},"geometry":{"type":"MultiPolygon","coordinates":[[[[-2.02474,53.95584],[-2.02405,53.95599],[-2.024,53.95591],[-2.02389,53.95587],[-2.02396,53.95581],[-2.02406,53.95577],[-2.02408,53.95575],[-2.02461,53.95563],[-2.02474,53.95584]]]]}},
{ "type":"Feature","properties":{"osm_way_id":"503344511","amenity":"parking"},"geometry":{"type":"MultiPolygon","coordinates":[[[[-2.02353,53.95488],[-2.02304,53.95483],[-2.02306,53.95477],[-2.02355,53.95481],[-2.02354,53.95485],[-2.02353,53.95488]]]]}},
{ "type":"Feature","properties":{"osm_way_id":"503344513","amenity":"parking"},"geometry":{"type":"MultiPolygon","coordinates":[[[[-2.02378,53.95457],[-2.02379,53.95452],[-2.02312,53.95448],[-2.02307,53.95475],[-2.02337,53.95478],[-2.02335,53.95455],[-2.02378,53.95457]]]]}},
{ "type":"Feature","properties":{"osm_way_id":"503344515","amenity":"parking"},"geometry":{"type":"MultiPolygon","coordinates":[[[[-2.02445,53.9544],[-2.02444,53.95437],[-2.02439,53.95417],[-2.02438,53.95414],[-2.02423,53.95415],[-2.02428,53.95438],[-2.02379,53.95442],[-2.0238,53.95451],[-2.02396,53.95449],[-2.024,53.95444],[-2.02445,53.9544]]]]}},
{ "type":"Feature","properties":{"osm_way_id":"503344995","amenity":"parking"},"geometry":{"type":"MultiPolygon","coordinates":[[[[-2.02342,53.95377],[-2.02329,53.95345],[-2.0232,53.95346],[-2.02331,53.95378],[-2.02342,53.95377]]]]}},
{ "type":"Feature","properties":{"osm_way_id":"503523050","amenity":"parking"},"geometry":{"type":"MultiPolygon","coordinates":[[[[-2.02718,53.95095],[-2.0271,53.95095],[-2.02701,53.95095],[-2.02703,53.95113],[-2.02709,53.95113],[-2.02719,53.95112],[-2.02727,53.95112],[-2.02719,53.95104],[-2.02718,53.95095]]]]}},
{ "type":"Feature","properties":{"osm_way_id":"503523052","amenity":"parking"},"geometry":{"type":"MultiPolygon","coordinates":[[[[-2.02577,53.95152],[-2.02568,53.95152],[-2.02555,53.951],[-2.02565,53.95099],[-2.02571,53.95127],[-2.02577,53.95152]]]]}},
{ "type":"Feature","properties":{"osm_way_id":"503716108","amenity":"parking","other":{"access":"yes","fee":"no","parking":"street_side"}}, "geometry":{"type":"MultiPolygon","coordinates":[[[[-2.01831,53.95333],[-2.01825,53.9532],[-2.01832,53.95319],[-2.01838,53.95332],[-2.01831,53.95333]]]]}},
{ "type":"Feature","properties":{"osm_way_id":"503735825","amenity":"parking","other":{"access":"yes","fee":"no","parking":"street_side"}}, "geometry":{"type":"MultiPolygon","coordinates":[[[[-2.01756,53.95371],[-2.01753,53.95371],[-2.01747,53.95353],[-2.01742,53.95342],[-2.01736,53.95327],[-2.01731,53.95317],[-2.01726,53.95309],[-2.0172,53.953],[-2.01715,53.95294],[-2.01708,53.95284],[-2.0171,53.95283],[-2.01723,53.95297],[-2.01732,53.95309],[-2.01736,53.95316],[-2.01744,53.95333],[-2.01752,53.95351],[-2.01756,53.95371]]]]}},
{ "type":"Feature","properties":{"osm_way_id":"503943802","amenity":"parking","other":{"access":"private","fee":"no","parking":"surface"}}, "geometry":{"type":"MultiPolygon","coordinates":[[[[-2.01314,53.94975],[-2.01311,53.94971],[-2.01317,53.94969],[-2.01311,53.94963],[-2.01303,53.94965],[-2.01288,53.94967],[-2.01283,53.94969],[-2.01291,53.94976],[-2.01295,53.94979],[-2.01301,53.94977],[-2.01304,53.94979],[-2.01314,53.94975]]]]}},
{ "type":"Feature","properties":{"osm_way_id":"503972414","amenity":"parking","other":{"access":"yes","fee":"no","parking":"street_side"}}, "geometry":{"type":"MultiPolygon","coordinates":[[[[-2.01064,53.95406],[-2.01063,53.95406],[-2.0106,53.95406],[-2.01071,53.95381],[-2.01082,53.95356],[-2.01092,53.95337],[-2.01106,53.95318],[-2.01111,53.95319],[-2.01102,53.95333],[-2.01096,53.95343],[-2.01089,53.95357],[-2.01084,53.95367],[-2.01075,53.95385],[-2.01067,53.954],[-2.01064,53.95406]]]]}},
{ "type":"Feature","properties":{"osm_way_id":"504169224","amenity":"parking"},"geometry":{"type":"MultiPolygon","coordinates":[[[[-2.00824,53.95743],[-2.00848,53.95719],[-2.0084,53.95716],[-2.00844,53.95712],[-2.00852,53.95715],[-2.0085,53.95718],[-2.00855,53.9572],[-2.00856,53.9572],[-2.00834,53.95744],[-2.00824,53.95743]]]]}},
{ "type":"Feature","properties":{"osm_way_id":"504697651","amenity":"parking","other":{"access":"private","parking":"street_side"}}, "geometry":{"type":"MultiPolygon","coordinates":[[[[-2.00582,53.95743],[-2.00574,53.9574],[-2.00572,53.95743],[-2.00571,53.95744],[-2.00569,53.95746],[-2.00577,53.95749],[-2.00582,53.95743]]]]}},
{ "type":"Feature","properties":{"osm_way_id":"505055307","amenity":"parking","other":{"access":"private"}}, "geometry":{"type":"MultiPolygon","coordinates":[[[[-2.00582,53.95743],[-2.00587,53.95744],[-2.00599,53.95748],[-2.00602,53.95744],[-2.00597,53.95742],[-2.00595,53.95741],[-2.00585,53.95739],[-2.00582,53.95743]]]]}},
{ "type":"Feature","properties":{"osm_way_id":"505228940","amenity":"parking","other":{"access":"yes","fee":"no","parking":"street_side"}}, "geometry":{"type":"MultiPolygon","coordinates":[[[[-2.00315,53.95918],[-2.00313,53.95912],[-2.0025,53.9592],[-2.00252,53.95926],[-2.00315,53.95918]]]]}},
{ "type":"Feature","properties":{"osm_way_id":"505228942","amenity":"parking","other":{"access":"customers"}}, "geometry":{"type":"MultiPolygon","coordinates":[[[[-2.00383,53.95902],[-2.00386,53.95901],[-2.00388,53.95899],[-2.00389,53.95897],[-2.00389,53.95891],[-2.0039,53.95887],[-2.00391,53.95884],[-2.00388,53.95883],[-2.00389,53.95882],[-2.00391,53.95877],[-2.00381,53.95875],[-2.00375,53.95882],[-2.00382,53.95884],[-2.0038,53.95902],[-2.00383,53.95902]]]]}},
{ "type":"Feature","properties":{"osm_way_id":"505827089","amenity":"parking","other":{"access":"private"}}, "geometry":{"type":"MultiPolygon","coordinates":[[[[-2.00045,53.96132],[-2.00012,53.96138],[-2.00008,53.96131],[-2.00025,53.96128],[-2.00041,53.96125],[-2.00045,53.96132]]]]}},
{ "type":"Feature","properties":{"osm_way_id":"505983679","amenity":"parking","other":{"fee":"no","parking":"surface","surface":"gravel"}}, "geometry":{"type":"MultiPolygon","coordinates":[[[[-1.87228,54.06735],[-1.87093,54.06765],[-1.87091,54.06761],[-1.87206,54.06735],[-1.87213,54.06735],[-1.87228,54.06735]]]]}},
{ "type":"Feature","properties":{"osm_way_id":"506982816","amenity":"parking","other":{"access":"customers","fee":"no","parking":"surface"}}, "geometry":{"type":"MultiPolygon","coordinates":[[[[-2.00377,53.96417],[-2.00368,53.96407],[-2.00358,53.9641],[-2.00368,53.9642],[-2.00377,53.96417]]]]}},
{ "type":"Feature","properties":{"osm_way_id":"506982817","amenity":"parking","other":{"access":"private","parking":"surface"}}, "geometry":{"type":"MultiPolygon","coordinates":[[[[-2.00323,53.96414],[-2.00315,53.9641],[-2.00301,53.96419],[-2.00309,53.96423],[-2.00323,53.96414]]]]}},
{ "type":"Feature","properties":{"osm_way_id":"507490774","amenity":"parking"},"geometry":{"type":"MultiPolygon","coordinates":[[[[-2.01005,53.96626],[-2.0099,53.96625],[-2.00992,53.96613],[-2.01007,53.96614],[-2.01005,53.96626]]]]}},
{ "type":"Feature","properties":{"osm_way_id":"507490775","amenity":"parking"},"geometry":{"type":"MultiPolygon","coordinates":[[[[-2.01044,53.96602],[-2.01033,53.96602],[-2.01036,53.96583],[-2.01047,53.96584],[-2.01044,53.96602]]]]}},
{ "type":"Feature","properties":{"osm_way_id":"507490777","amenity":"parking"},"geometry":{"type":"MultiPolygon","coordinates":[[[[-2.01004,53.966],[-2.00994,53.966],[-2.00997,53.96578],[-2.01007,53.96579],[-2.01004,53.966]]]]}},
{ "type":"Feature","properties":{"osm_way_id":"507490778","amenity":"parking"},"geometry":{"type":"MultiPolygon","coordinates":[[[[-2.00949,53.96623],[-2.00933,53.96622],[-2.00934,53.96612],[-2.00949,53.96613],[-2.00949,53.96623]]]]}},
{ "type":"Feature","properties":{"osm_way_id":"507490779","amenity":"parking"},"geometry":{"type":"MultiPolygon","coordinates":[[[[-2.0095,53.96599],[-2.00935,53.96599],[-2.00944,53.96536],[-2.00959,53.96537],[-2.0095,53.96599]]]]}},
{ "type":"Feature","properties":{"osm_way_id":"507490780","amenity":"parking"},"geometry":{"type":"MultiPolygon","coordinates":[[[[-2.00967,53.96601],[-2.0096,53.966],[-2.00961,53.96587],[-2.00968,53.96588],[-2.00967,53.96601]]]]}},
{ "type":"Feature","properties":{"osm_way_id":"507490781","amenity":"parking"},"geometry":{"type":"MultiPolygon","coordinates":[[[[-2.00969,53.96583],[-2.00962,53.96583],[-2.00962,53.96576],[-2.0097,53.96576],[-2.00969,53.96583]]]]}},
{ "type":"Feature","properties":{"osm_way_id":"507490782","amenity":"parking"},"geometry":{"type":"MultiPolygon","coordinates":[[[[-2.0097,53.96575],[-2.00963,53.96574],[-2.00963,53.96567],[-2.00971,53.96568],[-2.0097,53.96575]]]]}},
{ "type":"Feature","properties":{"osm_way_id":"507490783","amenity":"parking"},"geometry":{"type":"MultiPolygon","coordinates":[[[[-2.00971,53.96564],[-2.00964,53.96564],[-2.00965,53.96551],[-2.00973,53.96551],[-2.00971,53.96564]]]]}},
{ "type":"Feature","properties":{"osm_way_id":"507490784","amenity":"parking"},"geometry":{"type":"MultiPolygon","coordinates":[[[[-2.00974,53.96547],[-2.00966,53.96547],[-2.00968,53.96536],[-2.00975,53.96536],[-2.00974,53.96547]]]]}},
{ "type":"Feature","properties":{"osm_way_id":"507490787","amenity":"parking"},"geometry":{"type":"MultiPolygon","coordinates":[[[[-2.00961,53.96522],[-2.00947,53.96521],[-2.00949,53.96504],[-2.00963,53.96505],[-2.00961,53.96522]]]]}},
{ "type":"Feature","properties":{"osm_way_id":"507490788","amenity":"parking"},"geometry":{"type":"MultiPolygon","coordinates":[[[[-2.00963,53.965],[-2.00949,53.965],[-2.00954,53.96463],[-2.00968,53.96464],[-2.00963,53.965]]]]}},
{ "type":"Feature","properties":{"osm_way_id":"507490789","amenity":"parking"},"geometry":{"type":"MultiPolygon","coordinates":[[[[-2.00991,53.96444],[-2.00957,53.96443],[-2.00959,53.96433],[-2.00992,53.96434],[-2.00991,53.96444]]]]}},
{ "type":"Feature","properties":{"osm_way_id":"507490790","amenity":"parking"},"geometry":{"type":"MultiPolygon","coordinates":[[[[-2.00984,53.96454],[-2.00985,53.96449],[-2.00964,53.96448],[-2.00963,53.96453],[-2.00984,53.96454]]]]}},
{ "type":"Feature","properties":{"osm_way_id":"507490791","amenity":"parking"},"geometry":{"type":"MultiPolygon","coordinates":[[[[-2.01031,53.96461],[-2.0099,53.96459],[-2.00989,53.96464],[-2.01031,53.96466],[-2.01031,53.96461]]]]}},
{ "type":"Feature","properties":{"osm_way_id":"507490792","amenity":"parking"},"geometry":{"type":"MultiPolygon","coordinates":[[[[-2.01089,53.96464],[-2.01042,53.96461],[-2.01041,53.96466],[-2.01089,53.96468],[-2.01089,53.96464]]]]}},
{ "type":"Feature","properties":{"osm_way_id":"508121454","name":"The Dog and Gun Inn","amenity":"parking"},"geometry":{"type":"MultiPolygon","coordinates":[[[[-2.01175,53.89634],[-2.01087,53.89659],[-2.01069,53.89642],[-2.0115,53.89613],[-2.01165,53.89619],[-2.01174,53.89628],[-2.01175,53.89634]]]]}},
{ "type":"Feature","properties":{"osm_way_id":"508210464","amenity":"parking"},"geometry":{"type":"MultiPolygon","coordinates":[[[[-2.00918,53.96624],[-2.00923,53.96574],[-2.00927,53.96543],[-2.00934,53.96485],[-2.00941,53.96423],[-2.00992,53.96425],[-2.00991,53.96429],[-2.00949,53.96428],[-2.00946,53.96453],[-2.00943,53.96476],[-2.00941,53.96501],[-2.00938,53.9653],[-2.00925,53.96625],[-2.00918,53.96624]]]]}},
{ "type":"Feature","properties":{"osm_way_id":"508363099","amenity":"parking","other":{"access":"yes","fee":"no","parking":"street_side"}}, "geometry":{"type":"MultiPolygon","coordinates":[[[[-2.0937,53.92116],[-2.09382,53.92107],[-2.09391,53.92097],[-2.09399,53.92081],[-2.09403,53.92088],[-2.09405,53.92094],[-2.09401,53.921],[-2.09396,53.92106],[-2.0939,53.92112],[-2.09384,53.92116],[-2.09378,53.92117],[-2.0937,53.92116]]]]}},
{ "type":"Feature","properties":{"osm_way_id":"509161998","amenity":"parking"},"geometry":{"type":"MultiPolygon","coordinates":[[[[-2.00271,53.96626],[-2.00264,53.96627],[-2.00259,53.96627],[-2.00258,53.96623],[-2.00272,53.96621],[-2.00271,53.96624],[-2.00271,53.96626]]]]}},
{ "type":"Feature","properties":{"osm_way_id":"510706443","amenity":"parking","other":{"access":"private"}}, "geometry":{"type":"MultiPolygon","coordinates":[[[[-2.00347,53.96925],[-2.00338,53.96917],[-2.00327,53.96918],[-2.00321,53.96905],[-2.00292,53.9691],[-2.00302,53.96937],[-2.00327,53.96931],[-2.00326,53.96929],[-2.00329,53.96929],[-2.00347,53.96925]]]]}},
{ "type":"Feature","properties":{"osm_way_id":"510706444","amenity":"parking","other":{"access":"private"}}, "geometry":{"type":"MultiPolygon","coordinates":[[[[-2.00264,53.96792],[-2.00257,53.96782],[-2.00229,53.9679],[-2.00233,53.96798],[-2.00264,53.96792]]]]}},
{ "type":"Feature","properties":{"osm_way_id":"517622841","amenity":"parking"},"geometry":{"type":"MultiPolygon","coordinates":[[[[-2.00384,53.96972],[-2.00374,53.96967],[-2.00352,53.96979],[-2.00362,53.96985],[-2.00384,53.96972]]]]}},
{ "type":"Feature","properties":{"osm_way_id":"530495146","amenity":"parking","other":{"access":"customers","parking":"surface"}}, "geometry":{"type":"MultiPolygon","coordinates":[[[[-2.15164,54.06236],[-2.15132,54.06238],[-2.1513,54.06226],[-2.15161,54.06223],[-2.15164,54.06236]]]]}},
{ "type":"Feature","properties":{"osm_way_id":"537946048","amenity":"parking","other":{"access":"customers","operator":"Beck Hall","parking":"surface"}}, "geometry":{"type":"MultiPolygon","coordinates":[[[[-2.15439,54.06388],[-2.15405,54.06399],[-2.1537,54.06361],[-2.15404,54.0635],[-2.15417,54.06364],[-2.15439,54.06388]]]]}},
{ "type":"Feature","properties":{"osm_way_id":"544153483","amenity":"parking","other":{"parking":"surface","surface":"asphalt"}}, "geometry":{"type":"MultiPolygon","coordinates":[[[[-2.4433,54.16529],[-2.44302,54.16514],[-2.4428,54.16519],[-2.44225,54.16551],[-2.44231,54.16555],[-2.4418,54.16585],[-2.44189,54.16591],[-2.44181,54.16597],[-2.44189,54.16601],[-2.44184,54.16605],[-2.44196,54.16611],[-2.4433,54.16529]]]]}},
{ "type":"Feature","properties":{"osm_way_id":"544747551","amenity":"parking"},"geometry":{"type":"MultiPolygon","coordinates":[[[[-1.99212,53.97629],[-1.99207,53.9763],[-1.99202,53.97619],[-1.99199,53.9761],[-1.99217,53.97608],[-1.99219,53.97602],[-1.99223,53.97601],[-1.99226,53.97597],[-1.99224,53.97587],[-1.99226,53.97587],[-1.9926,53.97588],[-1.99272,53.97589],[-1.99284,53.9759],[-1.99285,53.97593],[-1.99271,53.97598],[-1.99262,53.976],[-1.99251,53.97605],[-1.99239,53.97609],[-1.99228,53.97613],[-1.99223,53.97615],[-1.99221,53.9762],[-1.99216,53.97623],[-1.99212,53.97629]]]]}},
{ "type":"Feature","properties":{"osm_way_id":"547637687","amenity":"parking"},"geometry":{"type":"MultiPolygon","coordinates":[[[[-1.99255,53.97682],[-1.99267,53.97679],[-1.99279,53.97677],[-1.99281,53.97663],[-1.99278,53.97661],[-1.99228,53.97676],[-1.99216,53.9768],[-1.99206,53.97681],[-1.99201,53.97682],[-1.99194,53.97683],[-1.99187,53.97691],[-1.99184,53.97695],[-1.99185,53.97698],[-1.99213,53.97695],[-1.99213,53.97691],[-1.99221,53.9769],[-1.9923,53.9769],[-1.9924,53.97689],[-1.99246,53.97689],[-1.99251,53.97689],[-1.99252,53.97685],[-1.99255,53.97682]]]]}},
{ "type":"Feature","properties":{"osm_way_id":"547908358","amenity":"parking"},"geometry":{"type":"MultiPolygon","coordinates":[[[[-1.98754,53.98036],[-1.98756,53.98048],[-1.98761,53.98049],[-1.98762,53.98054],[-1.98775,53.98052],[-1.98791,53.98052],[-1.98789,53.98045],[-1.98789,53.98042],[-1.9878,53.98042],[-1.98779,53.98037],[-1.98779,53.98035],[-1.98773,53.98035],[-1.98772,53.98034],[-1.98758,53.98035],[-1.98756,53.98036],[-1.98754,53.98036]]]]}},
{ "type":"Feature","properties":{"osm_way_id":"547908359","amenity":"parking"},"geometry":{"type":"MultiPolygon","coordinates":[[[[-1.98737,53.98057],[-1.98734,53.98051],[-1.98732,53.98047],[-1.98731,53.98038],[-1.98732,53.98037],[-1.98732,53.98035],[-1.98731,53.98036],[-1.98726,53.98037],[-1.98712,53.9804],[-1.98705,53.98042],[-1.98702,53.98045],[-1.98701,53.98049],[-1.98702,53.98051],[-1.98692,53.98053],[-1.98684,53.98054],[-1.98681,53.98048],[-1.98664,53.98051],[-1.98668,53.98063],[-1.9867,53.98068],[-1.98702,53.98063],[-1.98704,53.98062],[-1.98737,53.98057]]]]}},
{ "type":"Feature","properties":{"osm_way_id":"548109128","amenity":"parking","other":{"access":"yes","fee":"no","operator":"Church Parking Only","parking":"surface"}}, "geometry":{"type":"MultiPolygon","coordinates":[[[[-1.98321,53.98298],[-1.98311,53.98295],[-1.983,53.98292],[-1.98292,53.98288],[-1.98288,53.98282],[-1.98288,53.98276],[-1.98291,53.98272],[-1.983,53.98268],[-1.98315,53.98265],[-1.98322,53.98263],[-1.98329,53.98264],[-1.98324,53.9828],[-1.98322,53.98289],[-1.98321,53.98298]]]]}},
{ "type":"Feature","properties":{"osm_way_id":"550819224","amenity":"parking","other":{"access":"customers"}}, "geometry":{"type":"MultiPolygon","coordinates":[[[[-2.0432,53.94367],[-2.04321,53.94368],[-2.04338,53.94364],[-2.04329,53.94346],[-2.04322,53.94347],[-2.04318,53.94342],[-2.04307,53.94344],[-2.04317,53.94358],[-2.04319,53.94361],[-2.04318,53.94365],[-2.0432,53.94367]]]]}},
{ "type":"Feature","properties":{"osm_way_id":"551692789","name":"Newfield Hall","amenity":"parking","other":{"access":"customers"}}, "geometry":{"type":"MultiPolygon","coordinates":[[[[-2.13724,54.01904],[-2.13712,54.01909],[-2.13691,54.01914],[-2.13681,54.01904],[-2.13675,54.01899],[-2.13707,54.01888],[-2.13724,54.01904]]]]}},
{ "type":"Feature","properties":{"osm_way_id":"553376288","amenity":"parking","other":{"access":"customers","parking":"surface"}}, "geometry":{"type":"MultiPolygon","coordinates":[[[[-2.14103,53.95424],[-2.14107,53.95416],[-2.14119,53.95424],[-2.14121,53.95429],[-2.14103,53.95424]]]]}},
{ "type":"Feature","properties":{"osm_way_id":"553376289","amenity":"parking","other":{"access":"customers","parking":"surface"}}, "geometry":{"type":"MultiPolygon","coordinates":[[[[-2.14104,53.9546],[-2.14079,53.95454],[-2.14085,53.95442],[-2.14093,53.95443],[-2.14112,53.95448],[-2.14104,53.9546]]]]}},
{ "type":"Feature","properties":{"osm_way_id":"555465634","amenity":"parking","other":{"access":"yes"}}, "geometry":{"type":"MultiPolygon","coordinates":[[[[-1.98719,53.91017],[-1.98724,53.91016],[-1.98723,53.91014],[-1.98708,53.90998],[-1.98703,53.90995],[-1.9869,53.91001],[-1.98702,53.91011],[-1.98711,53.91017],[-1.98714,53.91016],[-1.98717,53.91017],[-1.98719,53.91017]]]]}},
{ "type":"Feature","properties":{"osm_way_id":"562812310","amenity":"parking","other":{"access":"yes","capacity":"6","fee":"no","park_ride":"no","parking":"surface","supervised":"no","surface":"compacted"}}, "geometry":{"type":"MultiPolygon","coordinates":[[[[-2.36241,54.20726],[-2.36252,54.20732],[-2.36237,54.20745],[-2.36222,54.20739],[-2.36241,54.20726]]]]}},
{ "type":"Feature","properties":{"osm_way_id":"564399541","amenity":"parking","other":{"access":"yes","fee":"no","parking":"surface"}}, "geometry":{"type":"MultiPolygon","coordinates":[[[[-2.01353,53.94185],[-2.01354,53.94193],[-2.01318,53.94195],[-2.01317,53.94187],[-2.01353,53.94185]]]]}},
{ "type":"Feature","properties":{"osm_way_id":"577807476","amenity":"parking","other":{"access":"yes","fee":"no","park_ride":"no","parking":"surface","supervised":"no","surface":"gravel"}}, "geometry":{"type":"MultiPolygon","coordinates":[[[[-2.04861,53.95851],[-2.04856,53.95854],[-2.04849,53.95859],[-2.04846,53.95862],[-2.04834,53.9586],[-2.04818,53.95859],[-2.04797,53.95859],[-2.04861,53.95851]]]]}},
{ "type":"Feature","properties":{"osm_way_id":"590110328","amenity":"parking","other":{"access":"yes","fee":"no","parking":"surface","surface":"compacted"}}, "geometry":{"type":"MultiPolygon","coordinates":[[[[-2.29196,54.12044],[-2.29205,54.12046],[-2.29182,54.12072],[-2.29128,54.12096],[-2.29113,54.12096],[-2.29095,54.12088],[-2.291,54.12072],[-2.29107,54.12064],[-2.29159,54.12046],[-2.29182,54.1205],[-2.2919,54.12042],[-2.29196,54.12044]]]]}},
{ "type":"Feature","properties":{"osm_way_id":"598635135","amenity":"parking","other":{"access":"customers","operator":"Broadwood Car Park","parking":"surface"}}, "geometry":{"type":"MultiPolygon","coordinates":[[[[-2.47147,54.15549],[-2.47136,54.15544],[-2.47116,54.15546],[-2.47104,54.15547],[-2.47099,54.15552],[-2.4709,54.15606],[-2.47053,54.15659],[-2.47052,54.1567],[-2.4708,54.15707],[-2.47105,54.15718],[-2.4713,54.15735],[-2.47147,54.15757],[-2.47158,54.15755],[-2.47153,54.15743],[-2.4713,54.15709],[-2.47103,54.15668],[-2.47111,54.15625],[-2.47133,54.15598],[-2.47142,54.15584],[-2.47147,54.15549]]]]}},
{ "type":"Feature","properties":{"osm_way_id":"618204868","amenity":"parking"},"geometry":{"type":"MultiPolygon","coordinates":[[[[-2.08987,53.95161],[-2.08984,53.95153],[-2.08965,53.95149],[-2.08942,53.95144],[-2.08918,53.95146],[-2.089,53.9515],[-2.08885,53.95162],[-2.08891,53.95167],[-2.08912,53.95163],[-2.0894,53.95162],[-2.08987,53.95165],[-2.08987,53.95161]]]]}},
{ "type":"Feature","properties":{"osm_way_id":"629247308","amenity":"parking"},"geometry":{"type":"MultiPolygon","coordinates":[[[[-2.06827,53.87935],[-2.06888,53.87905],[-2.06862,53.87912],[-2.06842,53.87921],[-2.06827,53.87935]]]]}},
{ "type":"Feature","properties":{"osm_way_id":"629247309","amenity":"parking"},"geometry":{"type":"MultiPolygon","coordinates":[[[[-2.07009,53.87873],[-2.07002,53.87867],[-2.07137,53.87811],[-2.07131,53.87818],[-2.07013,53.87867],[-2.07009,53.87873]]]]}},
{ "type":"Feature","properties":{"osm_way_id":"629256623","name":"Village Hall Car Park","amenity":"parking","other":{"fee":"no"}}, "geometry":{"type":"MultiPolygon","coordinates":[[[[-2.04285,53.88387],[-2.04284,53.88378],[-2.04312,53.88377],[-2.04314,53.88385],[-2.04285,53.88387]]]]}},
{ "type":"Feature","properties":{"osm_way_id":"646807410","amenity":"parking"},"geometry":{"type":"MultiPolygon","coordinates":[[[[-2.03353,54.07823],[-2.03353,54.07829],[-2.03345,54.07827],[-2.03333,54.07826],[-2.03314,54.07823],[-2.03299,54.07821],[-2.03291,54.07818],[-2.03284,54.07814],[-2.0328,54.07807],[-2.03277,54.07802],[-2.03285,54.07801],[-2.03289,54.07809],[-2.03295,54.07814],[-2.03302,54.07817],[-2.03311,54.07819],[-2.03325,54.07819],[-2.03339,54.0782],[-2.03347,54.07821],[-2.03353,54.07823]]]]}},
{ "type":"Feature","properties":{"osm_way_id":"655738338","amenity":"parking","other":{"parking":"surface"}}, "geometry":{"type":"MultiPolygon","coordinates":[[[[-2.64472,53.40156],[-2.6446,53.40146],[-2.64473,53.4014],[-2.64474,53.40141],[-2.64483,53.40137],[-2.6449,53.40142],[-2.64496,53.40139],[-2.64504,53.40146],[-2.64486,53.40154],[-2.64482,53.40151],[-2.64472,53.40156]]]]}},
{ "type":"Feature","properties":{"osm_way_id":"663848871","amenity":"parking","other":{"capacity":"2","capacity:disabled":"2","fee":"yes","parking":"surface"}}, "geometry":{"type":"MultiPolygon","coordinates":[[[[-2.09019,54.19162],[-2.09013,54.1916],[-2.09017,54.19155],[-2.09024,54.19157],[-2.09033,54.19159],[-2.09028,54.19163],[-2.09019,54.19162]]]]}},
{ "type":"Feature","properties":{"osm_way_id":"663862413","amenity":"parking","other":{"parking":"surface","surface":"grass"}}, "geometry":{"type":"MultiPolygon","coordinates":[[[[-2.08982,54.19244],[-2.0902,54.19242],[-2.09021,54.19228],[-2.08989,54.19225],[-2.08982,54.19244]]]]}},
{ "type":"Feature","properties":{"osm_way_id":"689328315","amenity":"parking","other":{"access":"customers"}}, "geometry":{"type":"MultiPolygon","coordinates":[[[[-1.89757,54.04527],[-1.89791,54.04565],[-1.89753,54.04577],[-1.89722,54.04544],[-1.89729,54.04542],[-1.89725,54.04538],[-1.89739,54.04533],[-1.89757,54.04527]]]]}},
{ "type":"Feature","properties":{"osm_way_id":"689328606","amenity":"parking","other":{"access":"private"}}, "geometry":{"type":"MultiPolygon","coordinates":[[[[-1.89798,54.04729],[-1.89796,54.04729],[-1.89763,54.04727],[-1.89766,54.04714],[-1.89801,54.04717],[-1.89798,54.04729]]]]}},
{ "type":"Feature","properties":{"osm_way_id":"689353235","amenity":"parking","other":{"access":"unknown"}}, "geometry":{"type":"MultiPolygon","coordinates":[[[[-1.99622,54.07129],[-1.99582,54.07144],[-1.99568,54.07131],[-1.9957,54.07128],[-1.9958,54.07124],[-1.99597,54.0712],[-1.996,54.07123],[-1.99613,54.07119],[-1.99622,54.07129]]]]}},
{ "type":"Feature","properties":{"osm_way_id":"689642505","amenity":"parking","other":{"access":"customers"}}, "geometry":{"type":"MultiPolygon","coordinates":[[[[-1.92162,54.03724],[-1.92148,54.03724],[-1.9213,54.03723],[-1.92129,54.03719],[-1.92135,54.03717],[-1.92133,54.03698],[-1.92158,54.03699],[-1.92158,54.03705],[-1.92156,54.03717],[-1.92163,54.03717],[-1.92162,54.03724]]]]}},
{ "type":"Feature","properties":{"osm_way_id":"689645533","amenity":"parking","other":{"access":"customers"}}, "geometry":{"type":"MultiPolygon","coordinates":[[[[-1.92463,54.0379],[-1.92464,54.03802],[-1.92406,54.03794],[-1.92406,54.0379],[-1.92387,54.03787],[-1.92387,54.03775],[-1.924,54.03779],[-1.924,54.03772],[-1.92406,54.03772],[-1.92413,54.03772],[-1.92423,54.03773],[-1.92425,54.03777],[-1.92424,54.03785],[-1.92428,54.03788],[-1.92442,54.0379],[-1.92452,54.0379],[-1.92463,54.0379]]]]}},
{ "type":"Feature","properties":{"osm_way_id":"702183397","amenity":"parking","other":{"access":"yes","fee":"no","parking":"street_side"}}, "geometry":{"type":"MultiPolygon","coordinates":[[[[-1.94412,53.99499],[-1.9443,53.99504],[-1.94429,53.99513],[-1.94419,53.99512],[-1.9441,53.99512],[-1.94412,53.99499]]]]}},
{ "type":"Feature","properties":{"osm_way_id":"702394112","amenity":"parking","other":{"access":"yes","fee":"no","parking":"street_side"}}, "geometry":{"type":"MultiPolygon","coordinates":[[[[-1.95199,53.99167],[-1.95213,53.99164],[-1.95233,53.99167],[-1.95198,53.99173],[-1.95199,53.99167]]]]}},
{ "type":"Feature","properties":{"osm_way_id":"704282755","amenity":"parking"},"geometry":{"type":"MultiPolygon","coordinates":[[[[-2.03544,54.03647],[-2.0351,54.03652],[-2.03485,54.03652],[-2.03473,54.03643],[-2.03483,54.0364],[-2.03475,54.03633],[-2.035,54.03626],[-2.03504,54.03633],[-2.03534,54.03628],[-2.03532,54.03625],[-2.03545,54.03623],[-2.03548,54.0364],[-2.03549,54.03646],[-2.03544,54.03647]]]]}},
{ "type":"Feature","properties":{"osm_way_id":"705091433","amenity":"parking"},"geometry":{"type":"MultiPolygon","coordinates":[[[[-2.28529,54.08],[-2.28502,54.08],[-2.2849,54.07991],[-2.28483,54.07975],[-2.28504,54.0797],[-2.28509,54.07982],[-2.28529,54.08]]]]}},
{ "type":"Feature","properties":{"osm_way_id":"710540612","amenity":"parking","other":{"charge":"3 GBP","fee":"yes"}}, "geometry":{"type":"MultiPolygon","coordinates":[[[[-2.05049,54.14603],[-2.05065,54.14592],[-2.0507,54.14589],[-2.05069,54.14585],[-2.05078,54.14583],[-2.05054,54.14552],[-2.05038,54.14557],[-2.05023,54.14592],[-2.05049,54.14603]]]]}},
{ "type":"Feature","properties":{"osm_way_id":"710713389","amenity":"parking","other":{"access":"customers","source:geometry":"Bing"}}, "geometry":{"type":"MultiPolygon","coordinates":[[[[-2.28581,54.04801],[-2.2858,54.04756],[-2.28556,54.04765],[-2.2852,54.04777],[-2.28531,54.04812],[-2.28581,54.04801]]]]}},
{ "type":"Feature","properties":{"osm_way_id":"711403799","name":"The Green Car Park","amenity":"parking","other":{"access":"yes","fee":"no","operator":"Craven District Council","parking":"surface"}}, "geometry":{"type":"MultiPolygon","coordinates":[[[[-2.22214,54.00385],[-2.222,54.00379],[-2.22231,54.00361],[-2.22289,54.00371],[-2.22286,54.00375],[-2.223,54.00378],[-2.22278,54.00412],[-2.22262,54.0041],[-2.22257,54.00402],[-2.22256,54.00385],[-2.22214,54.00385]]]]}},
{ "type":"Feature","properties":{"osm_way_id":"715102944","amenity":"parking"},"geometry":{"type":"MultiPolygon","coordinates":[[[[-2.28824,54.07251],[-2.28813,54.07242],[-2.28792,54.07249],[-2.28805,54.07257],[-2.28808,54.07259],[-2.28824,54.07251]]]]}},
{ "type":"Feature","properties":{"osm_way_id":"720586127","name":"Yorkshire Craft Shop","amenity":"parking"},"geometry":{"type":"MultiPolygon","coordinates":[[[[-1.9244,54.01349],[-1.92459,54.01349],[-1.9247,54.0136],[-1.92469,54.0137],[-1.92461,54.01375],[-1.9244,54.01349]]]]}},
{ "type":"Feature","properties":{"osm_way_id":"720779369","amenity":"parking","other":{"access":"unknown"}}, "geometry":{"type":"MultiPolygon","coordinates":[[[[-1.95287,54.0098],[-1.95282,54.00981],[-1.9528,54.00984],[-1.95277,54.00988],[-1.95268,54.00991],[-1.95264,54.0099],[-1.9526,54.00989],[-1.9526,54.00985],[-1.95263,54.00981],[-1.95269,54.00981],[-1.95268,54.00977],[-1.95287,54.0098]]]]}},
{ "type":"Feature","properties":{"osm_way_id":"720844747","amenity":"parking","other":{"access":"customers","fee":"no","parking":"surface"}}, "geometry":{"type":"MultiPolygon","coordinates":[[[[-1.89413,53.97278],[-1.8943,53.97301],[-1.89444,53.97295],[-1.89447,53.97288],[-1.89447,53.9728],[-1.89413,53.97278]]]]}},
{ "type":"Feature","properties":{"osm_way_id":"720844748","amenity":"parking","other":{"access":"customers","fee":"no","parking":"surface"}}, "geometry":{"type":"MultiPolygon","coordinates":[[[[-1.89489,53.97298],[-1.89475,53.97298],[-1.89453,53.97298],[-1.89454,53.97301],[-1.89458,53.97304],[-1.89471,53.97313],[-1.89484,53.97318],[-1.89492,53.97316],[-1.89495,53.97314],[-1.89496,53.97309],[-1.89494,53.97306],[-1.89489,53.97298]]]]}},
{ "type":"Feature","properties":{"osm_way_id":"722697272","amenity":"parking","other":{"access":"customers","fee":"no","parking":"surface","surface":"unpaved"}}, "geometry":{"type":"MultiPolygon","coordinates":[[[[-1.90817,53.97635],[-1.90828,53.97622],[-1.90857,53.9763],[-1.9085,53.97639],[-1.90839,53.97636],[-1.90817,53.97635]]]]}},
{ "type":"Feature","properties":{"osm_way_id":"727676345","amenity":"parking","other":{"access":"customers","fee":"no","operator":"The Coniston Hotel","park_ride":"no","parking":"surface","smoothness":"intermediate","supervised":"no","surface":"gravel"}}, "geometry":{"type":"MultiPolygon","coordinates":[[[[-2.16118,53.99377],[-2.16119,53.99355],[-2.1621,53.99361],[-2.16242,53.99366],[-2.16227,53.99379],[-2.16216,53.99383],[-2.16118,53.99377]]]]}},
{ "type":"Feature","properties":{"osm_way_id":"732087543","amenity":"parking","other":{"access":"customers","fee":"no","operator":"The Helwith Bridge Inn","operator:type":"business","parking":"surface"}}, "geometry":{"type":"MultiPolygon","coordinates":[[[[-2.29124,54.12127],[-2.29134,54.1214],[-2.29131,54.12141],[-2.29135,54.1215],[-2.291,54.12154],[-2.29096,54.12155],[-2.29081,54.12161],[-2.29066,54.12162],[-2.29065,54.12152],[-2.29063,54.12145],[-2.29077,54.12141],[-2.29088,54.12136],[-2.29108,54.12126],[-2.29124,54.12127]]]]}},
{ "type":"Feature","properties":{"osm_way_id":"732087584","amenity":"parking","other":{"access":"private","capacity":"6","fee":"no","operator":"Yorkshire Subterranean Society (YSS)","operator:type":"private","parking":"surface","surface":"asphalt"}}, "geometry":{"type":"MultiPolygon","coordinates":[[[[-2.29198,54.12099],[-2.29202,54.12102],[-2.29192,54.12106],[-2.29186,54.121],[-2.29185,54.12101],[-2.29181,54.12098],[-2.29174,54.121],[-2.29172,54.12098],[-2.29189,54.12091],[-2.29198,54.12099]]]]}},
{ "type":"Feature","properties":{"osm_way_id":"738564793","amenity":"parking","other":{"parking":"street_side"}}, "geometry":{"type":"MultiPolygon","coordinates":[[[[-2.06074,53.91017],[-2.06112,53.9103],[-2.06118,53.91011],[-2.06074,53.91017]]]]}},
{ "type":"Feature","properties":{"osm_way_id":"754250382","amenity":"parking","other":{"access":"customers","fee":"no","parking":"surface","surface":"asphalt"}}, "geometry":{"type":"MultiPolygon","coordinates":[[[[-2.4704,54.14993],[-2.47,54.14971],[-2.47021,54.14957],[-2.47034,54.14965],[-2.47041,54.14962],[-2.47066,54.14976],[-2.47045,54.1499],[-2.4704,54.14993]]]]}},
{ "type":"Feature","properties":{"osm_way_id":"754250383","amenity":"parking","other":{"capacity:disabled":"1","parking":"surface"}}, "geometry":{"type":"MultiPolygon","coordinates":[[[[-2.47152,54.14973],[-2.47165,54.14964],[-2.47109,54.14927],[-2.47098,54.14935],[-2.47117,54.14946],[-2.47113,54.14949],[-2.47152,54.14973]]]]}},
{ "type":"Feature","properties":{"osm_way_id":"754250384","amenity":"parking","other":{"access":"customers","fee":"no","parking":"surface","surface":"asphalt"}}, "geometry":{"type":"MultiPolygon","coordinates":[[[[-2.47109,54.15006],[-2.47096,54.15013],[-2.47085,54.15008],[-2.47081,54.15011],[-2.47045,54.1499],[-2.47066,54.14976],[-2.47079,54.14983],[-2.47067,54.14991],[-2.4708,54.14999],[-2.47091,54.14993],[-2.47112,54.15005],[-2.47109,54.15006]]]]}},
{ "type":"Feature","properties":{"osm_way_id":"757319765","name":"ALDI Car Park","amenity":"parking","other":{"access":"customers","operator":"ALDI","parking":"surface"}}, "geometry":{"type":"MultiPolygon","coordinates":[[[[-0.16326,51.64466],[-0.16348,51.64474],[-0.16376,51.64445],[-0.16402,51.64456],[-0.16414,51.64444],[-0.16394,51.64436],[-0.16407,51.64423],[-0.16378,51.64413],[-0.16326,51.64466]]]]}},
{ "type":"Feature","properties":{"osm_way_id":"759874000","amenity":"parking","other":{"access":"customers","fee":"no","parking":"surface","surface":"asphalt"}}, "geometry":{"type":"MultiPolygon","coordinates":[[[[-2.04219,53.96564],[-2.04244,53.96548],[-2.04238,53.96542],[-2.04196,53.96522],[-2.04193,53.96526],[-2.0419,53.96524],[-2.04187,53.96522],[-2.04206,53.96508],[-2.04184,53.96497],[-2.04145,53.9653],[-2.04168,53.96539],[-2.04173,53.96542],[-2.04143,53.9657],[-2.04113,53.96561],[-2.04109,53.96565],[-2.0409,53.96559],[-2.04094,53.96555],[-2.04062,53.96544],[-2.04049,53.96556],[-2.04169,53.96592],[-2.04219,53.96564]]]]}},
{ "type":"Feature","properties":{"osm_way_id":"760031930","amenity":"parking","other":{"access":"permissive","capacity":"20","charge":"2 GBP","fee":"yes","operator":"Dale Head Farm","parking":"surface","payment:cash":"yes","surface":"grass"}}, "geometry":{"type":"MultiPolygon","coordinates":[[[[-2.24242,54.13859],[-2.24245,54.13861],[-2.24249,54.13864],[-2.24252,54.13868],[-2.24248,54.13871],[-2.24247,54.1387],[-2.24239,54.13872],[-2.24179,54.13892],[-2.24126,54.13925],[-2.24117,54.13929],[-2.2411,54.13939],[-2.24102,54.13953],[-2.24098,54.13958],[-2.24095,54.13973],[-2.24081,54.13979],[-2.24026,54.13951],[-2.24015,54.13946],[-2.24041,54.13905],[-2.24085,54.13883],[-2.24196,54.13873],[-2.24242,54.13859]]]]}},
{ "type":"Feature","properties":{"osm_way_id":"761807646","amenity":"parking","other":{"access":"private","parking":"surface","surface":"asphalt"}}, "geometry":{"type":"MultiPolygon","coordinates":[[[[-2.22428,54.0063],[-2.2241,54.00633],[-2.22404,54.00622],[-2.22422,54.00619],[-2.22428,54.0063]]]]}},
{ "type":"Feature","properties":{"osm_way_id":"761807649","amenity":"parking","other":{"access":"private","parking":"surface","surface":"asphalt"}}, "geometry":{"type":"MultiPolygon","coordinates":[[[[-2.22452,54.0069],[-2.22448,54.00681],[-2.22472,54.00677],[-2.22476,54.00686],[-2.22452,54.0069]]]]}},
{ "type":"Feature","properties":{"osm_way_id":"762511315","amenity":"parking","other":{"access":"yes","capacity":"8","fee":"yes","operator":"Elaine's Tea Room","operator:type":"business","parking":"surface","payment:cash":"yes","surface":"compacted"}}, "geometry":{"type":"MultiPolygon","coordinates":[[[[-2.32256,54.10461],[-2.32224,54.10461],[-2.32223,54.10447],[-2.32232,54.10447],[-2.32257,54.10445],[-2.32261,54.1045],[-2.32256,54.10461]]]]}},
{ "type":"Feature","properties":{"osm_way_id":"767300466","amenity":"parking","other":{"access":"yes","capacity":"10","fee":"no","operator":"Hellifield Railway Station","parking":"surface","surface":"compacted"}}, "geometry":{"type":"MultiPolygon","coordinates":[[[[-2.22771,54.01028],[-2.22802,54.01043],[-2.22793,54.01051],[-2.22779,54.0105],[-2.22765,54.01043],[-2.22759,54.01036],[-2.22771,54.01028]]]]}},
{ "type":"Feature","properties":{"osm_way_id":"769370069","amenity":"parking","other":{"access":"customers"}}, "geometry":{"type":"MultiPolygon","coordinates":[[[[-2.15176,54.06082],[-2.15177,54.06087],[-2.15142,54.06091],[-2.15139,54.06074],[-2.15176,54.06073],[-2.15176,54.06079],[-2.15176,54.06082]]]]}},
{ "type":"Feature","properties":{"osm_way_id":"769718843","name":"Newfield Hall","amenity":"parking","other":{"access":"customers"}}, "geometry":{"type":"MultiPolygon","coordinates":[[[[-2.13705,54.01885],[-2.13672,54.01895],[-2.13669,54.01889],[-2.13666,54.01881],[-2.13692,54.01873],[-2.13705,54.01885]]]]}},
{ "type":"Feature","properties":{"osm_way_id":"804268378","amenity":"parking","other":{"access":"customers"}}, "geometry":{"type":"MultiPolygon","coordinates":[[[[-1.86987,53.97468],[-1.87022,53.97501],[-1.87039,53.97496],[-1.87033,53.97489],[-1.87007,53.97463],[-1.86987,53.97468]]]]}},
{ "type":"Feature","properties":{"osm_way_id":"823605365","amenity":"parking","other":{"access":"private","parking":"surface","surface":"compacted"}}, "geometry":{"type":"MultiPolygon","coordinates":[[[[-2.20038,54.22876],[-2.20043,54.22877],[-2.20037,54.22886],[-2.20001,54.22879],[-2.20003,54.22875],[-2.20007,54.22873],[-2.20014,54.22873],[-2.20019,54.22873],[-2.20024,54.22875],[-2.20029,54.22876],[-2.20038,54.22876]]]]}},
{ "type":"Feature","properties":{"osm_way_id":"846884033","amenity":"parking","other":{"operator":"Craven District Council","operator:type":"public","parking":"surface"}}, "geometry":{"type":"MultiPolygon","coordinates":[[[[-1.9905,53.90141],[-1.99044,53.90139],[-1.99042,53.90143],[-1.98985,53.90136],[-1.98983,53.90123],[-1.98993,53.90122],[-1.99031,53.90127],[-1.9905,53.90141]]]]}},
{ "type":"Feature","properties":{"osm_way_id":"874735057","amenity":"parking","other":{"capacity":"11","parking":"surface"}}, "geometry":{"type":"MultiPolygon","coordinates":[[[[-2.27625,54.06504],[-2.27629,54.065],[-2.27593,54.06487],[-2.2759,54.06491],[-2.27625,54.06504]]]]}},
{ "type":"Feature","properties":{"osm_way_id":"874735061","amenity":"parking","other":{"capacity:disabled":"yes","parking":"surface"}}, "geometry":{"type":"MultiPolygon","coordinates":[[[[-2.27654,54.06454],[-2.27633,54.06433],[-2.27614,54.06438],[-2.27614,54.06446],[-2.2762,54.06452],[-2.27616,54.06455],[-2.27635,54.06464],[-2.2764,54.0646],[-2.27654,54.06454]]]]}},
{ "type":"Feature","properties":{"osm_way_id":"874735066","amenity":"parking","other":{"parking":"surface"}}, "geometry":{"type":"MultiPolygon","coordinates":[[[[-2.28126,54.066],[-2.28138,54.06586],[-2.28115,54.06579],[-2.28103,54.06594],[-2.28126,54.066]]]]}},
{ "type":"Feature","properties":{"osm_way_id":"874735072","amenity":"parking"},"geometry":{"type":"MultiPolygon","coordinates":[[[[-2.28179,54.06789],[-2.28186,54.06781],[-2.28175,54.06779],[-2.28176,54.06772],[-2.28154,54.06768],[-2.28152,54.06775],[-2.28138,54.06773],[-2.28135,54.06783],[-2.28179,54.06789]]]]}},
{ "type":"Feature","properties":{"osm_way_id":"876961060","amenity":"parking"},"geometry":{"type":"MultiPolygon","coordinates":[[[[-2.28454,54.07209],[-2.28435,54.07192],[-2.28422,54.07181],[-2.28397,54.0719],[-2.28421,54.07212],[-2.28438,54.07215],[-2.28454,54.07209]]]]}},
{ "type":"Feature","properties":{"osm_way_id":"876961061","amenity":"parking"},"geometry":{"type":"MultiPolygon","coordinates":[[[[-2.28643,54.07173],[-2.28629,54.07172],[-2.28628,54.07191],[-2.28627,54.072],[-2.28626,54.07204],[-2.28649,54.07205],[-2.28652,54.07173],[-2.28643,54.07173]]]]}},
{ "type":"Feature","properties":{"osm_way_id":"891535556","amenity":"parking","other":{"access":"private"}}, "geometry":{"type":"MultiPolygon","coordinates":[[[[-0.72626,52.6746],[-0.72662,52.67462],[-0.72671,52.67458],[-0.72675,52.67432],[-0.72633,52.6743],[-0.7263,52.67429],[-0.72626,52.6746]]]]}},
{ "type":"Feature","properties":{"osm_way_id":"891667435","amenity":"parking","other":{"access":"customers","capacity:disabled":"2","capacity:parent":"2","operator":"McDonald's","parking":"surface"}}, "geometry":{"type":"MultiPolygon","coordinates":[[[[-1.14357,53.30991],[-1.14371,53.30999],[-1.14389,53.31013],[-1.14424,53.31007],[-1.1443,53.31003],[-1.14419,53.30988],[-1.14415,53.30979],[-1.14396,53.30966],[-1.14357,53.30991]]]]}},
{ "type":"Feature","properties":{"osm_way_id":"891896353","amenity":"parking","other":{"access":"private"}}, "geometry":{"type":"MultiPolygon","coordinates":[[[[-0.72862,52.67343],[-0.7287,52.67343],[-0.72871,52.67332],[-0.72859,52.67332],[-0.72839,52.67332],[-0.72839,52.67329],[-0.72828,52.67329],[-0.72828,52.67321],[-0.72831,52.67313],[-0.72816,52.67311],[-0.72809,52.67328],[-0.72803,52.67342],[-0.72807,52.67342],[-0.72862,52.67343]]]]}},
{ "type":"Feature","properties":{"osm_way_id":"902677262","amenity":"parking","other":{"access":"private","parking":"surface"}}, "geometry":{"type":"MultiPolygon","coordinates":[[[[-2.00326,53.96366],[-2.00345,53.96348],[-2.00334,53.96344],[-2.00315,53.96362],[-2.00326,53.96366]]]]}},
{ "type":"Feature","properties":{"osm_way_id":"902677263","amenity":"parking","other":{"access":"private","parking":"surface"}}, "geometry":{"type":"MultiPolygon","coordinates":[[[[-2.01092,53.96192],[-2.01091,53.96185],[-2.01055,53.96186],[-2.01052,53.96156],[-2.01019,53.96162],[-2.01035,53.96198],[-2.01092,53.96192]]]]}},
{ "type":"Feature","properties":{"osm_way_id":"902677264","amenity":"parking","other":{"access":"private","parking":"surface"}}, "geometry":{"type":"MultiPolygon","coordinates":[[[[-2.01039,53.96204],[-2.01025,53.96179],[-2.00985,53.96186],[-2.00989,53.96194],[-2.01016,53.96191],[-2.01024,53.96207],[-2.01039,53.96204]]]]}},
{ "type":"Feature","properties":{"osm_way_id":"902677265","amenity":"parking","other":{"access":"yes","fee":"no","parking":"surface"}}, "geometry":{"type":"MultiPolygon","coordinates":[[[[-2.01037,53.96143],[-2.01032,53.96126],[-2.01095,53.9612],[-2.011,53.96137],[-2.01037,53.96143]]]]}},
{ "type":"Feature","properties":{"osm_way_id":"906127691","amenity":"parking","other":{"access":"yes","capacity":"4","fee":"no","parking":"lane","surface":"compacted"}}, "geometry":{"type":"MultiPolygon","coordinates":[[[[-2.50429,54.09203],[-2.50434,54.09209],[-2.50434,54.09213],[-2.50433,54.09218],[-2.50428,54.09224],[-2.50426,54.09224],[-2.50428,54.0921],[-2.50429,54.09203]]]]}},
{ "type":"Feature","properties":{"osm_way_id":"906336355","amenity":"parking","other":{"capacity:disabled":"1","parking":"surface"}}, "geometry":{"type":"MultiPolygon","coordinates":[[[[-2.47085,54.1507],[-2.47081,54.15067],[-2.47109,54.15054],[-2.47113,54.15057],[-2.47085,54.1507]]]]}},
{ "type":"Feature","properties":{"osm_way_id":"906336361","amenity":"parking","other":{"capacity":"5","capacity:disabled":"0","parking":"surface"}}, "geometry":{"type":"MultiPolygon","coordinates":[[[[-2.46773,54.15121],[-2.46769,54.15114],[-2.46746,54.15122],[-2.46756,54.15128],[-2.46773,54.15121]]]]}},
{ "type":"Feature","properties":{"osm_way_id":"906680988","amenity":"parking","other":{"parking":"surface"}}, "geometry":{"type":"MultiPolygon","coordinates":[[[[-1.882,53.97238],[-1.88192,53.97217],[-1.88176,53.97221],[-1.88172,53.9722],[-1.88168,53.97218],[-1.88124,53.97226],[-1.88133,53.97239],[-1.88139,53.97242],[-1.88146,53.97244],[-1.88155,53.97244],[-1.8818,53.97241],[-1.882,53.97238]]]]}},
{ "type":"Feature","properties":{"osm_way_id":"908803940","amenity":"parking","other":{"access":"private","parking":"surface"}}, "geometry":{"type":"MultiPolygon","coordinates":[[[[-0.15253,50.8423],[-0.15253,50.84222],[-0.15253,50.84216],[-0.15249,50.84216],[-0.15249,50.8421],[-0.15238,50.8421],[-0.15237,50.84209],[-0.15237,50.84203],[-0.15241,50.84203],[-0.15241,50.84204],[-0.15255,50.84203],[-0.15255,50.84204],[-0.1526,50.84204],[-0.15259,50.84203],[-0.15266,50.84202],[-0.15265,50.84192],[-0.15254,50.84192],[-0.15253,50.84182],[-0.15239,50.84183],[-0.15239,50.84178],[-0.15268,50.84175],[-0.15288,50.84231],[-0.1527,50.8423],[-0.15265,50.8423],[-0.15259,50.8423],[-0.15253,50.8423]]]]}},
{ "type":"Feature","properties":{"osm_way_id":"911044877","amenity":"parking","other":{"parking":"surface"}}, "geometry":{"type":"MultiPolygon","coordinates":[[[[-1.944,53.98299],[-1.9436,53.98316],[-1.94318,53.98334],[-1.94323,53.98338],[-1.94305,53.98346],[-1.94306,53.98347],[-1.94373,53.98356],[-1.94388,53.98392],[-1.94438,53.98384],[-1.944,53.98299]]]]}},
{ "type":"Feature","properties":{"osm_way_id":"911843410","amenity":"parking","other":{"access":"private","operator":"Royal Holloway, University of London","parking":"surface"}}, "geometry":{"type":"MultiPolygon","coordinates":[[[[-0.5596,51.42225],[-0.55947,51.42249],[-0.55943,51.42257],[-0.55932,51.42277],[-0.55941,51.42279],[-0.55946,51.4228],[-0.55947,51.42282],[-0.55942,51.42284],[-0.55937,51.42291],[-0.55935,51.42295],[-0.55958,51.42296],[-0.55958,51.42294],[-0.55962,51.42294],[-0.55965,51.42293],[-0.55968,51.42292],[-0.55969,51.42284],[-0.5597,51.42278],[-0.55992,51.42237],[-0.55993,51.42234],[-0.55983,51.42232],[-0.55975,51.4223],[-0.5597,51.42228],[-0.5596,51.42225]]]]}},
{ "type":"Feature","properties":{"osm_way_id":"912169800","amenity":"parking","other":{"access":"yes","capacity":"7","capacity:disabled":"0","fee":"no","parking":"surface"}}, "geometry":{"type":"MultiPolygon","coordinates":[[[[-2.02169,53.95809],[-2.02172,53.95801],[-2.02134,53.95793],[-2.02122,53.95801],[-2.02124,53.95805],[-2.02134,53.95802],[-2.02144,53.95815],[-2.02169,53.95809]]]]}},
{ "type":"Feature","properties":{"osm_way_id":"912169802","amenity":"parking","other":{"access":"customers","capacity":"3","capacity:disabled":"0","fee":"no","parking":"surface"}}, "geometry":{"type":"MultiPolygon","coordinates":[[[[-2.02125,53.95808],[-2.02124,53.95805],[-2.0211,53.95809],[-2.02112,53.95811],[-2.02125,53.95808]]]]}},
{ "type":"Feature","properties":{"osm_way_id":"912169806","amenity":"parking","other":{"access":"private","parking":"surface"}}, "geometry":{"type":"MultiPolygon","coordinates":[[[[-2.01876,53.96061],[-2.0187,53.96046],[-2.01843,53.9605],[-2.01835,53.96051],[-2.01823,53.96052],[-2.01825,53.96064],[-2.01869,53.96061],[-2.01876,53.96061]]]]}},
{ "type":"Feature","properties":{"osm_way_id":"915479259","amenity":"parking","other":{"access":"permissive","parking":"surface"}}, "geometry":{"type":"MultiPolygon","coordinates":[[[[-2.04176,53.95798],[-2.04167,53.95798],[-2.04163,53.95792],[-2.04162,53.95784],[-2.04172,53.95782],[-2.04175,53.9579],[-2.04176,53.95798]]]]}},
{ "type":"Feature","properties":{"osm_way_id":"915479260","amenity":"parking","other":{"access":"permissive","parking":"surface"}}, "geometry":{"type":"MultiPolygon","coordinates":[[[[-2.04062,53.95781],[-2.04056,53.95772],[-2.04039,53.95774],[-2.04043,53.95778],[-2.04047,53.95783],[-2.04062,53.95781]]]]}},
{ "type":"Feature","properties":{"osm_way_id":"936316202","amenity":"parking"},"geometry":{"type":"MultiPolygon","coordinates":[[[[-1.1575,51.89307],[-1.15756,51.89298],[-1.15682,51.89278],[-1.15676,51.89287],[-1.1575,51.89307]]]]}},
{ "type":"Feature","properties":{"osm_way_id":"936316203","amenity":"parking"},"geometry":{"type":"MultiPolygon","coordinates":[[[[-1.157,51.89304],[-1.15703,51.893],[-1.15703,51.893],[-1.15679,51.89293],[-1.15677,51.89298],[-1.157,51.89304]]]]}},
{ "type":"Feature","properties":{"osm_way_id":"948461643","amenity":"parking","other":{"access":"customers","fee":"no","parking":"surface"}}, "geometry":{"type":"MultiPolygon","coordinates":[[[[-2.55356,55.47954],[-2.55366,55.47946],[-2.55354,55.47941],[-2.5534,55.47935],[-2.55356,55.47924],[-2.55338,55.47917],[-2.55314,55.47935],[-2.55324,55.47938],[-2.55326,55.47941],[-2.55323,55.47944],[-2.55356,55.47954]]]]}},
{ "type":"Feature","properties":{"osm_way_id":"949960388","amenity":"parking","other":{"access":"private","parking":"surface"}}, "geometry":{"type":"MultiPolygon","coordinates":[[[[-2.00072,54.06566],[-2.00074,54.0656],[-2.0009,54.0656],[-2.00092,54.06563],[-2.0008,54.06567],[-2.00072,54.06566]]]]}},
{ "type":"Feature","properties":{"osm_way_id":"949973576","amenity":"parking","other":{"access":"customers","parking":"surface"}}, "geometry":{"type":"MultiPolygon","coordinates":[[[[-2.01026,54.07105],[-2.01022,54.07101],[-2.00991,54.07104],[-2.01001,54.0712],[-2.01026,54.07105]]]]}},
{ "type":"Feature","properties":{"osm_way_id":"952636366","amenity":"parking"},"geometry":{"type":"MultiPolygon","coordinates":[[[[-2.03542,53.963],[-2.03553,53.96292],[-2.03523,53.96267],[-2.03534,53.96247],[-2.03567,53.96244],[-2.03564,53.96234],[-2.03538,53.96236],[-2.03535,53.96226],[-2.03521,53.96223],[-2.03509,53.96229],[-2.03512,53.96243],[-2.03515,53.96251],[-2.03525,53.96251],[-2.03515,53.96271],[-2.03511,53.96278],[-2.03529,53.96299],[-2.03542,53.963]]]]}},
{ "type":"Feature","properties":{"osm_way_id":"953847044","amenity":"parking","other":{"access":"customers","operator":"Gearstones Lodge","parking":"surface","surface":"unpaved"}}, "geometry":{"type":"MultiPolygon","coordinates":[[[[-2.33915,54.21538],[-2.33907,54.21529],[-2.3389,54.21534],[-2.33898,54.21543],[-2.33915,54.21538]]]]}},
{ "type":"Feature","properties":{"osm_way_id":"956241899","amenity":"parking","other":{"access":"private","parking":"surface"}}, "geometry":{"type":"MultiPolygon","coordinates":[[[[-2.30504,54.06537],[-2.30495,54.06533],[-2.30475,54.06517],[-2.3048,54.06515],[-2.30484,54.06518],[-2.30512,54.0653],[-2.30504,54.06537]]]]}},
{ "type":"Feature","properties":{"osm_way_id":"956241910","amenity":"parking","other":{"access":"customers","parking":"surface"}}, "geometry":{"type":"MultiPolygon","coordinates":[[[[-2.28427,54.1001],[-2.28408,54.10016],[-2.28385,54.10015],[-2.28377,54.10003],[-2.2842,54.09994],[-2.28427,54.1001]]]]}},
{ "type":"Feature","properties":{"osm_way_id":"956241911","amenity":"parking","other":{"access":"customers"}}, "geometry":{"type":"MultiPolygon","coordinates":[[[[-2.28498,54.10016],[-2.28484,54.10013],[-2.28484,54.10009],[-2.28476,54.10005],[-2.2847,54.10007],[-2.28464,54.10003],[-2.28471,54.1],[-2.28462,54.09993],[-2.28476,54.09989],[-2.28486,54.09997],[-2.28502,54.09997],[-2.28503,54.10009],[-2.28499,54.10009],[-2.28498,54.10016]]]]}},
{ "type":"Feature","properties":{"osm_way_id":"958198417","amenity":"parking"},"geometry":{"type":"MultiPolygon","coordinates":[[[[-2.1067,53.95193],[-2.10673,53.95196],[-2.10678,53.952],[-2.10689,53.95203],[-2.10682,53.95208],[-2.10675,53.95212],[-2.10668,53.95215],[-2.10659,53.95217],[-2.10655,53.95217],[-2.10648,53.95217],[-2.10638,53.95214],[-2.10634,53.95211],[-2.10632,53.95209],[-2.10634,53.95204],[-2.10644,53.95199],[-2.10651,53.95196],[-2.1067,53.95193]]]]}},
{ "type":"Feature","properties":{"osm_way_id":"958198419","amenity":"parking"},"geometry":{"type":"MultiPolygon","coordinates":[[[[-2.10731,53.95239],[-2.10704,53.9522],[-2.10647,53.95251],[-2.10675,53.95268],[-2.10731,53.95239]]]]}},
{ "type":"Feature","properties":{"osm_way_id":"958198423","amenity":"parking"},"geometry":{"type":"MultiPolygon","coordinates":[[[[-2.10791,53.9519],[-2.10801,53.9519],[-2.1081,53.95192],[-2.10824,53.95198],[-2.10831,53.95194],[-2.10802,53.95183],[-2.10789,53.95188],[-2.10791,53.9519]]]]}},
{ "type":"Feature","properties":{"osm_way_id":"958456906","amenity":"parking"},"geometry":{"type":"MultiPolygon","coordinates":[[[[-2.10201,53.95614],[-2.10247,53.95585],[-2.10284,53.95598],[-2.10301,53.95587],[-2.10291,53.95582],[-2.10301,53.95573],[-2.10263,53.95558],[-2.10255,53.9556],[-2.10237,53.9556],[-2.10197,53.95593],[-2.10169,53.9561],[-2.10174,53.95614],[-2.10155,53.95623],[-2.10122,53.95639],[-2.1011,53.95644],[-2.10156,53.95679],[-2.10176,53.95689],[-2.10239,53.95656],[-2.10227,53.95649],[-2.10186,53.95621],[-2.10189,53.9562],[-2.10201,53.95614]]]]}},
{ "type":"Feature","properties":{"osm_way_id":"958603354","amenity":"parking"},"geometry":{"type":"MultiPolygon","coordinates":[[[[-2.08808,53.95618],[-2.08814,53.95626],[-2.08843,53.9562],[-2.08838,53.95611],[-2.08808,53.95618]]]]}},
{ "type":"Feature","properties":{"osm_way_id":"958603355","amenity":"parking"},"geometry":{"type":"MultiPolygon","coordinates":[[[[-2.08794,53.9563],[-2.08786,53.9562],[-2.08764,53.95627],[-2.0877,53.95633],[-2.08786,53.95632],[-2.08794,53.9563]]]]}},
{ "type":"Feature","properties":{"osm_way_id":"958603356","amenity":"parking"},"geometry":{"type":"MultiPolygon","coordinates":[[[[-2.08717,53.9562],[-2.08731,53.95615],[-2.08728,53.95614],[-2.08739,53.95609],[-2.08756,53.95604],[-2.08736,53.95592],[-2.0873,53.9559],[-2.08695,53.95605],[-2.08717,53.9562]]]]}},
{ "type":"Feature","properties":{"osm_way_id":"958650728","amenity":"parking","other":{"access":"customers"}}, "geometry":{"type":"MultiPolygon","coordinates":[[[[-2.14538,53.93177],[-2.14516,53.93179],[-2.1451,53.93177],[-2.14507,53.93173],[-2.14521,53.93159],[-2.14533,53.93158],[-2.1454,53.93158],[-2.14549,53.93156],[-2.14559,53.93154],[-2.14555,53.93161],[-2.14544,53.93167],[-2.14542,53.9317],[-2.14542,53.93176],[-2.14538,53.93177]]]]}},
{ "type":"Feature","properties":{"osm_way_id":"965400892","amenity":"parking","other":{"parking":"surface"}}, "geometry":{"type":"MultiPolygon","coordinates":[[[[-2.54914,54.11929],[-2.54905,54.11943],[-2.5488,54.11933],[-2.54894,54.11921],[-2.54914,54.11929]]]]}},
{ "type":"Feature","properties":{"osm_way_id":"965401012","amenity":"parking","other":{"parking":"street_side"}}, "geometry":{"type":"MultiPolygon","coordinates":[[[[-2.53677,54.11964],[-2.53667,54.11983],[-2.53677,54.11984],[-2.53685,54.11968],[-2.53677,54.11964]]]]}},
{ "type":"Feature","properties":{"osm_way_id":"970962959","amenity":"parking","other":{"access":"yes","capacity":"10","capacity:disabled":"4","fee":"no","operator":"St Andrew's Church","operator:type":"private_non_profit","parking":"surface"}}, "geometry":{"type":"MultiPolygon","coordinates":[[[[-1.98478,53.9091],[-1.98489,53.90909],[-1.98486,53.90893],[-1.98473,53.90893],[-1.98469,53.90897],[-1.98467,53.90897],[-1.98466,53.909],[-1.98468,53.90907],[-1.9847,53.9091],[-1.98478,53.9091]]]]}},
{ "type":"Feature","properties":{"osm_way_id":"971618366","amenity":"parking","other":{"access":"customers","fee":"no","parking":"surface","surface":"asphalt"}}, "geometry":{"type":"MultiPolygon","coordinates":[[[[-2.02211,53.96012],[-2.02194,53.96017],[-2.02182,53.96],[-2.02193,53.95999],[-2.02199,53.95998],[-2.02204,53.96],[-2.02211,53.96012]]]]}},
{ "type":"Feature","properties":{"osm_way_id":"971621414","amenity":"parking","other":{"access":"yes","fee":"no","parking":"street_side","surface":"asphalt"}}, "geometry":{"type":"MultiPolygon","coordinates":[[[[-2.01282,53.9608],[-2.0141,53.96066],[-2.01401,53.96065],[-2.01296,53.96076],[-2.01282,53.9608]]]]}},
{ "type":"Feature","properties":{"osm_way_id":"972080600","amenity":"parking","other":{"access":"yes","fee":"no","parking":"street_side"}}, "geometry":{"type":"MultiPolygon","coordinates":[[[[-2.01824,53.95315],[-2.01819,53.95303],[-2.01825,53.95302],[-2.0183,53.95314],[-2.01824,53.95315]]]]}},
{ "type":"Feature","properties":{"osm_way_id":"972080601","amenity":"parking","other":{"access":"yes","fee":"no","parking":"street_side"}}, "geometry":{"type":"MultiPolygon","coordinates":[[[[-2.0187,53.95311],[-2.01864,53.95298],[-2.0187,53.95297],[-2.01876,53.9531],[-2.0187,53.95311]]]]}},
{ "type":"Feature","properties":{"osm_way_id":"972080607","amenity":"parking","other":{"access":"yes","fee":"no","parking":"surface","surface":"sett"}}, "geometry":{"type":"MultiPolygon","coordinates":[[[[-2.01786,53.95247],[-2.01786,53.95243],[-2.01808,53.95243],[-2.01808,53.95248],[-2.01786,53.95247]]]]}},
{ "type":"Feature","properties":{"osm_way_id":"972080608","amenity":"parking","other":{"access":"yes","fee":"no","parking":"surface","surface":"sett"}}, "geometry":{"type":"MultiPolygon","coordinates":[[[[-2.01786,53.95286],[-2.01779,53.95287],[-2.01777,53.95278],[-2.01785,53.95277],[-2.01786,53.95286]]]]}},
{ "type":"Feature","properties":{"osm_way_id":"972080609","amenity":"parking","other":{"access":"yes","fee":"no","parking":"surface","surface":"sett"}}, "geometry":{"type":"MultiPolygon","coordinates":[[[[-2.01834,53.95361],[-2.01824,53.95373],[-2.01833,53.95375],[-2.01843,53.95363],[-2.01834,53.95361]]]]}},
{ "type":"Feature","properties":{"osm_way_id":"972289443","amenity":"parking","other":{"access":"customers","fee":"no","parking":"surface","surface":"asphalt"}}, "geometry":{"type":"MultiPolygon","coordinates":[[[[-2.02111,53.96177],[-2.02103,53.96176],[-2.02096,53.96158],[-2.02101,53.96157],[-2.02104,53.96151],[-2.02118,53.96151],[-2.02126,53.96152],[-2.02144,53.96154],[-2.02171,53.9616],[-2.02188,53.96164],[-2.0221,53.9617],[-2.02207,53.96174],[-2.02203,53.96174],[-2.02201,53.96177],[-2.0218,53.96175],[-2.02183,53.96166],[-2.02157,53.96158],[-2.02146,53.96157],[-2.02129,53.96155],[-2.02128,53.96159],[-2.02121,53.96159],[-2.02125,53.9617],[-2.02121,53.96173],[-2.02113,53.96172],[-2.02111,53.96177]]]]}},
{ "type":"Feature","properties":{"osm_way_id":"986994378","amenity":"parking","other":{"access":"customers","parking":"surface"}}, "geometry":{"type":"MultiPolygon","coordinates":[[[[-2.03117,54.07548],[-2.03139,54.07537],[-2.03135,54.07534],[-2.0312,54.0754],[-2.03114,54.07547],[-2.03117,54.07548]]]]}},
{ "type":"Feature","properties":{"osm_way_id":"987314914","amenity":"parking","other":{"access":"customers","parking":"surface"}}, "geometry":{"type":"MultiPolygon","coordinates":[[[[-2.04088,54.10467],[-2.04043,54.10472],[-2.04044,54.10482],[-2.04081,54.10484],[-2.04087,54.10481],[-2.04088,54.10467]]]]}},
{ "type":"Feature","properties":{"osm_way_id":"987314915","amenity":"parking","other":{"access":"customers","parking":"surface"}}, "geometry":{"type":"MultiPolygon","coordinates":[[[[-2.04095,54.10477],[-2.04096,54.10466],[-2.04158,54.10465],[-2.04158,54.10473],[-2.04124,54.10477],[-2.04095,54.10477]]]]}},
{ "type":"Feature","properties":{"osm_way_id":"987790750","amenity":"parking","other":{"access":"customers","fee":"yes","parking":"surface"}}, "geometry":{"type":"MultiPolygon","coordinates":[[[[-1.88303,53.98737],[-1.88272,53.98725],[-1.88211,53.98771],[-1.88171,53.98808],[-1.88142,53.9885],[-1.88125,53.98863],[-1.88102,53.98921],[-1.88085,53.98973],[-1.88071,53.99048],[-1.88056,53.99081],[-1.88058,53.99122],[-1.88082,53.99121],[-1.88082,53.99079],[-1.8811,53.9904],[-1.88167,53.98997],[-1.88185,53.98985],[-1.88227,53.98959],[-1.88234,53.98949],[-1.88274,53.98895],[-1.8828,53.9887],[-1.88283,53.98856],[-1.88274,53.98828],[-1.88287,53.98799],[-1.88291,53.9879],[-1.88295,53.98766],[-1.88303,53.98737]]]]}},
{ "type":"Feature","properties":{"osm_way_id":"988087408","amenity":"parking","other":{"access":"customers","parking":"surface"}}, "geometry":{"type":"MultiPolygon","coordinates":[[[[-2.03468,54.03808],[-2.03447,54.03816],[-2.03456,54.03823],[-2.03466,54.03827],[-2.03473,54.03827],[-2.03483,54.03824],[-2.03468,54.03808]]]]}},
{ "type":"Feature","properties":{"osm_way_id":"988087409","amenity":"parking","other":{"access":"customers","parking":"surface"}}, "geometry":{"type":"MultiPolygon","coordinates":[[[[-2.03442,54.0381],[-2.03449,54.03808],[-2.03436,54.03795],[-2.03427,54.03796],[-2.03442,54.0381]]]]}},
{ "type":"Feature","properties":{"osm_way_id":"993912826","amenity":"parking","other":{"access":"private","parking":"surface"}}, "geometry":{"type":"MultiPolygon","coordinates":[[[[-2.52103,54.11988],[-2.52101,54.11987],[-2.52094,54.11987],[-2.52094,54.11985],[-2.52095,54.11982],[-2.52095,54.1198],[-2.52096,54.11979],[-2.52097,54.11979],[-2.52098,54.11977],[-2.52098,54.11975],[-2.52098,54.11973],[-2.52097,54.11971],[-2.52095,54.11969],[-2.52093,54.11967],[-2.5209,54.11966],[-2.52086,54.11965],[-2.52083,54.11965],[-2.52079,54.11965],[-2.5208,54.1196],[-2.52082,54.11956],[-2.52083,54.11955],[-2.52084,54.1195],[-2.52125,54.11953],[-2.52123,54.11959],[-2.52118,54.11967],[-2.52125,54.11968],[-2.52119,54.11993],[-2.52111,54.11992],[-2.52103,54.11988]]]]}},
{ "type":"Feature","properties":{"osm_way_id":"997276456","amenity":"parking","other":{"parking":"surface"}}, "geometry":{"type":"MultiPolygon","coordinates":[[[[-2.03896,54.13629],[-2.03892,54.13617],[-2.03888,54.13608],[-2.03899,54.13612],[-2.03901,54.13621],[-2.03896,54.13629]]]]}},
{ "type":"Feature","properties":{"osm_way_id":"997280760","amenity":"parking","other":{"parking":"surface"}}, "geometry":{"type":"MultiPolygon","coordinates":[[[[-2.03637,54.13582],[-2.03631,54.13566],[-2.03623,54.13567],[-2.0363,54.13583],[-2.03637,54.13582]]]]}},
{ "type":"Feature","properties":{"osm_way_id":"997280762","amenity":"parking","other":{"parking":"surface"}}, "geometry":{"type":"MultiPolygon","coordinates":[[[[-2.03702,54.1366],[-2.03679,54.13634],[-2.03671,54.13637],[-2.03694,54.13663],[-2.03702,54.1366]]]]}},
{ "type":"Feature","properties":{"osm_way_id":"1015887302","natural":"water"},"geometry":{"type":"MultiPolygon","coordinates":[[[[-3.58526,51.22399],[-3.58528,51.22383],[-3.58521,51.22375],[-3.58507,51.22367],[-3.58485,51.22363],[-3.58466,51.22358],[-3.58442,51.22356],[-3.58424,51.22356],[-3.5841,51.22354],[-3.58398,51.22351],[-3.58383,51.22339],[-3.5837,51.22331],[-3.58364,51.22331],[-3.58345,51.22337],[-3.58329,51.22344],[-3.58321,51.22345],[-3.58312,51.22342],[-3.58301,51.22334],[-3.58293,51.22341],[-3.58297,51.22345],[-3.58305,51.22349],[-3.58317,51.22352],[-3.58328,51.22352],[-3.58338,51.2235],[-3.58349,51.22346],[-3.58357,51.22343],[-3.58365,51.2234],[-3.58371,51.22339],[-3.58398,51.22361],[-3.58429,51.22364],[-3.58462,51.22365],[-3.58472,51.22372],[-3.58483,51.22383],[-3.58495,51.22391],[-3.58509,51.22399],[-3.58516,51.22406],[-3.58526,51.22399]]]]}},
{ "type":"Feature","properties":{"osm_way_id":"1016904097","amenity":"parking","other":{"access":"customers","capacity":"18","capacity:disabled":"1","fee":"no","operator":"Three Peaks Service Station","parking":"surface","surface":"asphalt"}}, "geometry":{"type":"MultiPolygon","coordinates":[[[[-2.46944,54.14636],[-2.46937,54.14633],[-2.46938,54.14632],[-2.4694,54.14631],[-2.46941,54.14629],[-2.46943,54.14627],[-2.46961,54.14611],[-2.46943,54.14604],[-2.46941,54.14606],[-2.46935,54.14604],[-2.46939,54.146],[-2.46946,54.14603],[-2.46949,54.146],[-2.46966,54.14606],[-2.46961,54.1461],[-2.46969,54.14613],[-2.4695,54.1463],[-2.46948,54.14632],[-2.46947,54.14633],[-2.46945,54.14635],[-2.46944,54.14636]]]]}},
{ "type":"Feature","properties":{"osm_way_id":"1022106156","amenity":"parking","other":{"access":"yes","capacity":"10","fee":"no","parking":"lane","surface":"compacted"}}, "geometry":{"type":"MultiPolygon","coordinates":[[[[-2.43343,54.17075],[-2.43348,54.17078],[-2.43346,54.1708],[-2.43346,54.17092],[-2.43331,54.171],[-2.43316,54.17104],[-2.43293,54.17107],[-2.43286,54.17105],[-2.43343,54.17075]]]]}},
{ "type":"Feature","properties":{"osm_way_id":"1022325521","amenity":"parking"},"geometry":{"type":"MultiPolygon","coordinates":[[[[0.81453,52.57498],[0.81465,52.57473],[0.81555,52.57497],[0.81535,52.57522],[0.81453,52.57498]]]]}},
{ "type":"Feature","properties":{"osm_way_id":"1023623654","other":{"disused:railway":"platform","public_transport":"platform","railway":"platform","train":"yes"}}, "geometry":{"type":"MultiPolygon","coordinates":[[[[-2.30335,54.06218],[-2.30343,54.06223],[-2.30339,54.06225],[-2.30332,54.0622],[-2.30335,54.06218]]]]}},
{ "type":"Feature","properties":{"osm_way_id":"1023623655","other":{"disused:railway":"platform","public_transport":"platform","railway":"platform","train":"yes"}}, "geometry":{"type":"MultiPolygon","coordinates":[[[[-2.30346,54.06212],[-2.30353,54.06217],[-2.30349,54.06219],[-2.30343,54.06213],[-2.30346,54.06212]]]]}},
{ "type":"Feature","properties":{"osm_way_id":"1023647832","amenity":"parking","other":{"access":"destination"}}, "geometry":{"type":"MultiPolygon","coordinates":[[[[-2.10218,53.94881],[-2.10207,53.94868],[-2.10198,53.94871],[-2.10187,53.94877],[-2.10178,53.94883],[-2.10171,53.94895],[-2.10174,53.94898],[-2.10218,53.94881]]]]}},
{ "type":"Feature","properties":{"osm_way_id":"1024025393","amenity":"parking"},"geometry":{"type":"MultiPolygon","coordinates":[[[[-2.14592,54.20339],[-2.14598,54.20342],[-2.14596,54.2035],[-2.14594,54.2036],[-2.14581,54.20351],[-2.14564,54.20344],[-2.14545,54.20337],[-2.14547,54.20337],[-2.14548,54.20336],[-2.1455,54.20334],[-2.14561,54.20337],[-2.1456,54.20339],[-2.14571,54.20342],[-2.14581,54.20342],[-2.14583,54.20339],[-2.14592,54.20339]]]]}},
{ "type":"Feature","properties":{"osm_way_id":"1024025427","amenity":"parking"},"geometry":{"type":"MultiPolygon","coordinates":[[[[-2.15785,54.21023],[-2.1579,54.21023],[-2.1579,54.2102],[-2.15798,54.2102],[-2.15802,54.21024],[-2.15801,54.21026],[-2.15798,54.21028],[-2.158,54.21032],[-2.15777,54.21021],[-2.15785,54.21023]]]]}},
{ "type":"Feature","properties":{"osm_way_id":"1024553486","amenity":"parking","other":{"access":"permissive","description":"access only allowed for allotments when unloading","fee":"no","surface":"gravel"}}, "geometry":{"type":"MultiPolygon","coordinates":[[[[-2.50804,54.11412],[-2.508,54.11409],[-2.50792,54.11407],[-2.50775,54.11407],[-2.50759,54.11412],[-2.50804,54.11412]]]]}},
{ "type":"Feature","properties":{"osm_way_id":"1024560735","amenity":"parking"},"geometry":{"type":"MultiPolygon","coordinates":[[[[-2.51188,54.11398],[-2.51189,54.11401],[-2.5119,54.11403],[-2.5119,54.11405],[-2.51148,54.11409],[-2.51167,54.11416],[-2.51212,54.11414],[-2.51208,54.11396],[-2.51188,54.11398]]]]}},
{ "type":"Feature","properties":{"osm_way_id":"1025343418","amenity":"parking"},"geometry":{"type":"MultiPolygon","coordinates":[[[[-2.40999,54.10527],[-2.40997,54.10528],[-2.40987,54.10521],[-2.40984,54.10518],[-2.4099,54.10514],[-2.40999,54.10521],[-2.41004,54.10524],[-2.40999,54.10527]]]]}},
{ "type":"Feature","properties":{"osm_way_id":"1028537065","amenity":"parking"},"geometry":{"type":"MultiPolygon","coordinates":[[[[-0.16348,51.64443],[-0.16333,51.64437],[-0.16307,51.64464],[-0.16322,51.6447],[-0.16348,51.64443]]]]}},
{ "type":"Feature","properties":{"osm_way_id":"1030116405","amenity":"parking","other":{"access":"customers","parking":"surface"}}, "geometry":{"type":"MultiPolygon","coordinates":[[[[-2.1541,54.06083],[-2.15367,54.06081],[-2.15327,54.06079],[-2.15327,54.06082],[-2.15358,54.06084],[-2.15357,54.06089],[-2.15387,54.0609],[-2.15399,54.06093],[-2.15412,54.06092],[-2.15413,54.06082],[-2.1541,54.06083]]]]}},
{ "type":"Feature","properties":{"osm_way_id":"1030434869","amenity":"parking","other":{"access":"private","parking":"surface"}}, "geometry":{"type":"MultiPolygon","coordinates":[[[[-2.15771,54.05218],[-2.15758,54.05218],[-2.15752,54.05219],[-2.15744,54.05219],[-2.1572,54.05219],[-2.15715,54.05218],[-2.15716,54.05212],[-2.15726,54.05201],[-2.15731,54.05195],[-2.15733,54.05194],[-2.15737,54.05189],[-2.15771,54.05218]]]]}},
{ "type":"Feature","properties":{"osm_way_id":"1037432545","amenity":"parking","other":{"parking":"surface","surface":"unpaved"}}, "geometry":{"type":"MultiPolygon","coordinates":[[[[-2.28262,54.14507],[-2.28258,54.14508],[-2.28251,54.14506],[-2.28235,54.1449],[-2.28264,54.14483],[-2.28268,54.1449],[-2.28268,54.14498],[-2.28265,54.14505],[-2.28262,54.14507]]]]}}
]
}
