{
"type": "FeatureCollection",
"features": [
{ "type":"Feature","properties":{"osm_id":"3639457709","name":"Co-op Food","other":{"addr:city":"Kirkwall","addr:housenumber":"19","addr:postcode":"KW15 1HP","addr:street":"Albert Street","branch":"Kirkwall - Albert Street","brand":"Co-op Food","brand:wikidata":"Q3277439","brand:wikipedia":"en:Co-op Food","opening_hours":"Mo-Su 07:00-22:00","operator":"The Co-operative Group","shop":"supermarket"}}, "geometry":{"type":"Point","coordinates":[-2.95843,58.98356 ]}},
{ "type":"Feature","properties":{"osm_id":"4536676363","other":{"amenity":"post_box","post_box:type":"wall"}}, "geometry":{"type":"Point","coordinates":[-2.98834,59.32135 ]}},
{ "type":"Feature","properties":{"osm_id":"4986545874","name":"Frozen Food Center","other":{"level":"0","shop":"supermarket"}}, "geometry":{"type":"Point","coordinates":[-2.9576,58.98381 ]}},
{ "type":"Feature","properties":{"osm_id":"5549153454","other":{"emergency":"defibrillator","location":"On exterior wall of CoOp store, to the right of the main entrance, facing the car park."}}, "geometry":{"type":"Point","coordinates":[1.23379,52.48749 ]}},
{ "type":"Feature","properties":{"osm_id":"8361740725","man_made":"mast"},"geometry":{"type":"Point","coordinates":[-2.95967,58.95296 ]}},
{ "type":"Feature","properties":{"osm_way_id":"67240658","name":"Morrisons","building":"retail","shop":"supermarket","other":{"addr:city":"Felixstowe","addr:country":"GB","addr:postcode":"IP11 2XD","addr:street":"Grange Farm Avenue","alt_name":"Morrions Felixstowe","brand":"Morrisons","brand:wikidata":"Q922344","brand:wikipedia":"en:Morrisons","delivery":"yes","fhrs:id":"659506","opening_hours":"Mo-Sa 06:00-21:00; Su 10:00-16:00","takeaway":"yes","website":"https:\/\/my.morrisons.com\/storefinder\/283"}}, "geometry":{"type":"MultiPolygon","coordinates":[[[[1.32804,51.96498],[1.32799,51.96501],[1.32768,51.96486],[1.32754,51.9648],[1.32749,51.9648],[1.3274,51.96486],[1.3271,51.96512],[1.32707,51.9651],[1.32699,51.96516],[1.32694,51.96521],[1.32705,51.96526],[1.32685,51.96543],[1.32685,51.96547],[1.32698,51.96552],[1.32714,51.96536],[1.32714,51.96533],[1.32759,51.96551],[1.32766,51.96545],[1.32776,51.9655],[1.32782,51.96545],[1.32811,51.96517],[1.32814,51.96519],[1.3282,51.96514],[1.32822,51.96512],[1.32824,51.9651],[1.32824,51.96509],[1.32823,51.96506],[1.3282,51.96505],[1.32816,51.96503],[1.3281,51.965],[1.32804,51.96498]]]]}},
{ "type":"Feature","properties":{"osm_way_id":"75038305","name":"Co-op Food","building":"yes","shop":"supermarket","other":{"addr:city":"Kirkwall","addr:postcode":"KW15 1RR","addr:street":"Pickaquoy Road","branch":"Kirkwall","brand":"Co-op Food","brand:wikidata":"Q3277439","brand:wikipedia":"en:Co-op Food","opening_hours":"Mo-Su 07:00-22:00","operator":"The Co-operative Group","wheelchair":"yes"}}, "geometry":{"type":"MultiPolygon","coordinates":[[[[-2.96864,58.98073],[-2.96875,58.98057],[-2.96923,58.98066],[-2.96913,58.98082],[-2.96864,58.98073]]]]}},
{ "type":"Feature","properties":{"osm_way_id":"75038317","name":"Tesco","building":"yes","shop":"supermarket","other":{"addr:city":"Kirkwall","addr:housenumber":"18","addr:postcode":"KW15 1RP","addr:street":"Pickaquoy Road","branch":"Kirkwall Superstore","brand":"Tesco","brand:wikidata":"Q487494","brand:wikipedia":"en:Tesco","fhrs:id":"564997","opening_hours":"Mo-Sa 06:00-24:00; Su 08:00-22:00","operator":"Tesco","toilets:wheelchair":"yes","wheelchair":"yes"}}, "geometry":{"type":"MultiPolygon","coordinates":[[[[-2.96695,58.98093],[-2.96739,58.98031],[-2.9685,58.98052],[-2.96842,58.98065],[-2.96835,58.98063],[-2.96831,58.98069],[-2.96822,58.98067],[-2.96819,58.98071],[-2.96809,58.98069],[-2.96781,58.98109],[-2.96695,58.98093]]]]}},
{ "type":"Feature","properties":{"osm_way_id":"75038318","name":"Lidl","building":"yes","shop":"supermarket","other":{"addr:city":"Kirkwall","addr:country":"GB","addr:postcode":"KW15 1RP","addr:street":"Pickaquoy Road","branch":"Kirkwall","brand":"Lidl","brand:wikidata":"Q151954","brand:wikipedia":"en:Lidl","fhrs:id":"1137324","opening_hours":"Mo-Sa 08:00-22:00; Su 08:00-20:00","operator":"Lidl UK"}}, "geometry":{"type":"MultiPolygon","coordinates":[[[[-2.96515,58.98046],[-2.96526,58.98031],[-2.96534,58.98032],[-2.96557,58.98001],[-2.96589,58.98007],[-2.96593,58.98002],[-2.96617,58.98007],[-2.96578,58.98059],[-2.96515,58.98046]]]]}},
{ "type":"Feature","properties":{"osm_way_id":"89051324","name":"Morrisons","building":"yes","shop":"supermarket","other":{"addr:city":"Brecon","addr:postcode":"LD3 7SE","addr:street":"Free Street","alt_name":"Morrisons Brecon","brand":"Morrisons","brand:wikidata":"Q922344","brand:wikipedia":"en:Morrisons","opening_hours":"Mo-Sa 07:00-22:00 Su 10:00-16:00","wheelchair":"yes"}}, "geometry":{"type":"MultiPolygon","coordinates":[[[[-3.38856,51.94745],[-3.38845,51.94735],[-3.38849,51.94732],[-3.38842,51.94727],[-3.38857,51.9472],[-3.38838,51.94705],[-3.38824,51.94713],[-3.38809,51.947],[-3.38802,51.94702],[-3.38792,51.94706],[-3.38789,51.94703],[-3.38781,51.94706],[-3.38784,51.9471],[-3.38763,51.94721],[-3.38769,51.94726],[-3.38759,51.94732],[-3.38769,51.94741],[-3.38765,51.94743],[-3.38784,51.94758],[-3.38782,51.9476],[-3.38792,51.94768],[-3.38796,51.94766],[-3.38804,51.94772],[-3.38817,51.94766],[-3.38829,51.9476],[-3.38827,51.94758],[-3.38856,51.94745]]]]}},
{ "type":"Feature","properties":{"osm_way_id":"162571364","name":"Co-op Food","building":"yes","shop":"supermarket","other":{"addr:city":"Norwich","addr:country":"GB","addr:postcode":"NR15 2XJ","addr:street":"The Street","alt_name":"East of England Co-operative Society","brand":"Co-op Food","brand:wikidata":"Q3277439","brand:wikipedia":"en:Co-op Food","fhrs:id":"648549"}}, "geometry":{"type":"MultiPolygon","coordinates":[[[[1.23348,52.48755],[1.23336,52.48731],[1.23351,52.48728],[1.23349,52.48723],[1.23388,52.48716],[1.23403,52.48747],[1.23393,52.48749],[1.23392,52.48747],[1.23379,52.48749],[1.23348,52.48755]]]]}},
{ "type":"Feature","properties":{"osm_way_id":"199252080","name":"W I Rendall Store and Cafe","building":"retail","shop":"supermarket","other":{"addr:city":"Pierowall, Westray","addr:postcode":"KW17 2DH"}}, "geometry":{"type":"MultiPolygon","coordinates":[[[[-2.98931,59.32126],[-2.98955,59.32106],[-2.98925,59.32097],[-2.98904,59.32114],[-2.98923,59.3212],[-2.98919,59.32123],[-2.98931,59.32126]]]]}},
{ "type":"Feature","properties":{"osm_way_id":"199252086","name":"J. C. Tulloch","building":"yes","shop":"supermarket","other":{"addr:city":"Pierowall, Westray","addr:postcode":"KW17 2DH"}}, "geometry":{"type":"MultiPolygon","coordinates":[[[[-2.98811,59.32151],[-2.98814,59.32146],[-2.98826,59.32148],[-2.98834,59.32135],[-2.9884,59.32125],[-2.9883,59.32123],[-2.98822,59.32136],[-2.98803,59.32133],[-2.98799,59.32133],[-2.98791,59.32146],[-2.9879,59.32148],[-2.98801,59.3215],[-2.98811,59.32151]]]]}},
{ "type":"Feature","properties":{"osm_way_id":"204649648","name":"Marion's Shop","building":"yes","shop":"supermarket","other":{"addr:city":"Rousay, Orkney","addr:postcode":"KW17 2PR"}}, "geometry":{"type":"MultiPolygon","coordinates":[[[[-2.98971,59.16721],[-2.98968,59.16717],[-2.98952,59.1672],[-2.98955,59.16725],[-2.98971,59.16721]]]]}},
{ "type":"Feature","properties":{"osm_way_id":"359189857","name":"Petrol Dounby","building":"yes","shop":"supermarket","other":{"addr:city":"Kirkwall","addr:postcode":"KW17 2HT","addr:street":"Dounby","opening_hours":"Mo-Sa 08:00-22:00; Su 09:00-22:00","operator":"The Co-operative Group"}}, "geometry":{"type":"MultiPolygon","coordinates":[[[[-3.23176,59.06801],[-3.23198,59.06813],[-3.23162,59.0683],[-3.23149,59.06823],[-3.23144,59.06824],[-3.23136,59.0682],[-3.23176,59.06801]]]]}},
{ "type":"Feature","properties":{"osm_way_id":"584031336","name":"The Co-operative","building":"supermarket","shop":"supermarket","other":{"addr:city":"Stromness","addr:postcode":"KW16 3AE","addr:street":"Ferry Road","branch":"Stromness","opening_hours":"Mo-Su,PH 07:00-22:00","operator":"The Co-operative Group"}}, "geometry":{"type":"MultiPolygon","coordinates":[[[[-3.29425,58.96803],[-3.29392,58.96799],[-3.29404,58.96776],[-3.29438,58.96781],[-3.29425,58.96803]]]]}},
{ "type":"Feature","properties":{"osm_way_id":"633498376","name":"B Doull & Son Self Service Store","building":"yes","shop":"supermarket","other":{"addr:city":"St Margaret's Hope","addr:postcode":"KW17 2SR","addr:street":"Church Road"}}, "geometry":{"type":"MultiPolygon","coordinates":[[[[-2.95645,58.82536],[-2.95663,58.82531],[-2.95664,58.82533],[-2.95666,58.82532],[-2.95675,58.82542],[-2.95669,58.82543],[-2.95672,58.82546],[-2.95677,58.82544],[-2.9568,58.82547],[-2.95684,58.82552],[-2.95688,58.82557],[-2.95672,58.82561],[-2.95668,58.82556],[-2.95665,58.82557],[-2.95645,58.82536]]]]}}
]
}
