{
"type": "FeatureCollection",
"features": [
{ "type":"Feature","properties":{"osm_id":"262660","other":{"amenity":"parking"}}, "geometry":{"type":"Point","coordinates":[-0.72525,51.10431 ]}},
{ "type":"Feature","properties":{"osm_id":"36237250","name":"Sugar Loaf","other":{"amenity":"parking"}}, "geometry":{"type":"Point","coordinates":[-0.72183,51.12262 ]}},
{ "type":"Feature","properties":{"osm_id":"99459885","other":{"amenity":"parking_entrance"}}, "geometry":{"type":"Point","coordinates":[-0.79854,51.21126 ]}},
{ "type":"Feature","properties":{"osm_id":"258682558","other":{"amenity":"parking"}}, "geometry":{"type":"Point","coordinates":[-0.73905,51.1458 ]}},
{ "type":"Feature","properties":{"osm_id":"258862506","other":{"access":"private","amenity":"parking"}}, "geometry":{"type":"Point","coordinates":[-0.74663,51.12762 ]}},
{ "type":"Feature","properties":{"osm_id":"258862845","other":{"amenity":"parking","description":"National Trust parking bay","fee":"no","parking":"street_side"}}, "geometry":{"type":"Point","coordinates":[-0.73375,51.12086 ]}},
{ "type":"Feature","properties":{"osm_id":"258912039","other":{"amenity":"parking","capacity":"6","surface":"dirt"}}, "geometry":{"type":"Point","coordinates":[-0.65645,51.15525 ]}},
{ "type":"Feature","properties":{"osm_id":"258914061","other":{"amenity":"parking","capacity":"8","surface":"dirt"}}, "geometry":{"type":"Point","coordinates":[-0.65201,51.1653 ]}},
{ "type":"Feature","properties":{"osm_id":"259018888","other":{"amenity":"parking"}}, "geometry":{"type":"Point","coordinates":[-0.63765,51.14302 ]}},
{ "type":"Feature","properties":{"osm_id":"260142318","name":"Hurtwood Car park 12: Reynards Hill","other":{"access":"yes","amenity":"parking","fee":"no","park_ride":"no","parking":"surface","supervised":"no","surface":"ground"}}, "geometry":{"type":"Point","coordinates":[-0.46811,51.17162 ]}},
{ "type":"Feature","properties":{"osm_id":"260142319","name":"Hurtwood Car Park 4: Top of Horseblock Hollow aka Judge's Seat","other":{"access":"yes","amenity":"parking","fee":"no","park_ride":"no","parking":"surface","supervised":"no","surface":"ground"}}, "geometry":{"type":"Point","coordinates":[-0.46429,51.17192 ]}},
{ "type":"Feature","properties":{"osm_id":"265582582","other":{"amenity":"parking"}}, "geometry":{"type":"Point","coordinates":[-0.75406,51.18364 ]}},
{ "type":"Feature","properties":{"osm_id":"268997694","other":{"amenity":"parking"}}, "geometry":{"type":"Point","coordinates":[-0.61686,51.17591 ]}},
{ "type":"Feature","properties":{"osm_id":"296990868","other":{"access":"customers","amenity":"parking"}}, "geometry":{"type":"Point","coordinates":[-0.78336,51.21859 ]}},
{ "type":"Feature","properties":{"osm_id":"297050900","name":"Riverside 1 Car Park","other":{"amenity":"parking","fee":"yes"}}, "geometry":{"type":"Point","coordinates":[-0.792,51.21721 ]}},
{ "type":"Feature","properties":{"osm_id":"297071422","name":"Farnham Maltings Private Car Park","other":{"access":"private","amenity":"parking","parking":"surface"}}, "geometry":{"type":"Point","coordinates":[-0.79761,51.21179 ]}},
{ "type":"Feature","properties":{"osm_id":"297279986","other":{"amenity":"parking"}}, "geometry":{"type":"Point","coordinates":[-0.80753,51.21146 ]}},
{ "type":"Feature","properties":{"osm_id":"297396923","other":{"access":"visitors","amenity":"parking"}}, "geometry":{"type":"Point","coordinates":[-0.81556,51.21507 ]}},
{ "type":"Feature","properties":{"osm_id":"297914010","name":"Ridgway Court","other":{"access":"private","amenity":"parking","parking":"surface"}}, "geometry":{"type":"Point","coordinates":[-0.79688,51.20281 ]}},
{ "type":"Feature","properties":{"osm_id":"298063122","other":{"amenity":"parking"}}, "geometry":{"type":"Point","coordinates":[-0.80325,51.20444 ]}},
{ "type":"Feature","properties":{"osm_id":"298066667","other":{"access":"private","amenity":"parking"}}, "geometry":{"type":"Point","coordinates":[-0.81232,51.2036 ]}},
{ "type":"Feature","properties":{"osm_id":"298536687","other":{"access":"customers","amenity":"parking"}}, "geometry":{"type":"Point","coordinates":[-0.80916,51.20436 ]}},
{ "type":"Feature","properties":{"osm_id":"298550743","other":{"access":"private","amenity":"parking"}}, "geometry":{"type":"Point","coordinates":[-0.78962,51.21111 ]}},
{ "type":"Feature","properties":{"osm_id":"302870564","other":{"amenity":"parking","parking":"surface"}}, "geometry":{"type":"Point","coordinates":[-0.79729,51.2332 ]}},
{ "type":"Feature","properties":{"osm_id":"447988998","other":{"amenity":"parking","capacity:disabled":"no","parking":"surface"}}, "geometry":{"type":"Point","coordinates":[-0.59891,51.19688 ]}},
{ "type":"Feature","properties":{"osm_id":"453105665","other":{"amenity":"parking","wheelchair":"yes"}}, "geometry":{"type":"Point","coordinates":[-0.64407,51.17353 ]}},
{ "type":"Feature","properties":{"osm_id":"467168714","other":{"access":"private","amenity":"parking"}}, "geometry":{"type":"Point","coordinates":[-0.64911,51.1735 ]}},
{ "type":"Feature","properties":{"osm_id":"475222021","other":{"amenity":"parking"}}, "geometry":{"type":"Point","coordinates":[-0.73235,51.1132 ]}},
{ "type":"Feature","properties":{"osm_id":"484793357","other":{"access":"private","amenity":"parking"}}, "geometry":{"type":"Point","coordinates":[-0.60715,51.19015 ]}},
{ "type":"Feature","properties":{"osm_id":"486095475","name":"Meadrow","other":{"amenity":"parking","capacity":"51","fee":"yes","operator":"Waverley Borough Council","parking":"surface"}}, "geometry":{"type":"Point","coordinates":[-0.59894,51.1935 ]}},
{ "type":"Feature","properties":{"osm_id":"498842313","name":"Hurtwood Car Park 13: Winterfold","other":{"access":"yes","amenity":"parking","fee":"no","park_ride":"no","parking":"surface","supervised":"no","surface":"ground"}}, "geometry":{"type":"Point","coordinates":[-0.46603,51.17205 ]}},
{ "type":"Feature","properties":{"osm_id":"559494728","other":{"access":"private","amenity":"parking"}}, "geometry":{"type":"Point","coordinates":[-0.60096,51.19812 ]}},
{ "type":"Feature","properties":{"osm_id":"564773871","other":{"access":"private","amenity":"parking"}}, "geometry":{"type":"Point","coordinates":[-0.59632,51.19999 ]}},
{ "type":"Feature","properties":{"osm_id":"564827928","other":{"amenity":"parking"}}, "geometry":{"type":"Point","coordinates":[-0.56408,51.20055 ]}},
{ "type":"Feature","properties":{"osm_id":"624304244","other":{"amenity":"parking"}}, "geometry":{"type":"Point","coordinates":[-0.61832,51.14306 ]}},
{ "type":"Feature","properties":{"osm_id":"639172350","other":{"amenity":"parking"}}, "geometry":{"type":"Point","coordinates":[-0.78083,51.18353 ]}},
{ "type":"Feature","properties":{"osm_id":"639172393","other":{"amenity":"parking","fee":"no"}}, "geometry":{"type":"Point","coordinates":[-0.77282,51.18224 ]}},
{ "type":"Feature","properties":{"osm_id":"639172417","name":"RSPB Farnham Heath","other":{"amenity":"parking","fee":"no"}}, "geometry":{"type":"Point","coordinates":[-0.77425,51.18314 ]}},
{ "type":"Feature","properties":{"osm_id":"648241127","ref":"GU7 96","other":{"amenity":"post_box"}}, "geometry":{"type":"Point","coordinates":[-0.61266,51.20014 ]}},
{ "type":"Feature","properties":{"osm_id":"811143384","other":{"amenity":"parking"}}, "geometry":{"type":"Point","coordinates":[-0.61377,51.1417 ]}},
{ "type":"Feature","properties":{"osm_id":"864704762","other":{"amenity":"parking_entrance"}}, "geometry":{"type":"Point","coordinates":[-0.79298,51.21165 ]}},
{ "type":"Feature","properties":{"osm_id":"921265833","other":{"access":"private","amenity":"parking"}}, "geometry":{"type":"Point","coordinates":[-0.4708,51.1562 ]}},
{ "type":"Feature","properties":{"osm_id":"968149561","other":{"amenity":"parking"}}, "geometry":{"type":"Point","coordinates":[-0.65627,51.16398 ]}},
{ "type":"Feature","properties":{"osm_id":"1214164590","other":{"amenity":"parking"}}, "geometry":{"type":"Point","coordinates":[-0.70714,51.09298 ]}},
{ "type":"Feature","properties":{"osm_id":"1328032398","other":{"amenity":"parking","capacity":"2","capacity:disabled":"2","parking":"surface"}}, "geometry":{"type":"Point","coordinates":[-0.80293,51.21358 ]}},
{ "type":"Feature","properties":{"osm_id":"1357654463","other":{"access":"yes","amenity":"parking","fee":"no","parking":"street_side"}}, "geometry":{"type":"Point","coordinates":[-0.8033,51.224 ]}},
{ "type":"Feature","properties":{"osm_id":"1437026462","other":{"amenity":"parking"}}, "geometry":{"type":"Point","coordinates":[-0.44453,51.17527 ]}},
{ "type":"Feature","properties":{"osm_id":"1483775191","other":{"amenity":"atm"}}, "geometry":{"type":"Point","coordinates":[-0.7304,51.08684 ]}},
{ "type":"Feature","properties":{"osm_id":"1642888584","name":"Waverley Abbey","other":{"amenity":"parking"}}, "geometry":{"type":"Point","coordinates":[-0.756,51.20256 ]}},
{ "type":"Feature","properties":{"osm_id":"1646169329","other":{"access":"private","amenity":"parking"}}, "geometry":{"type":"Point","coordinates":[-0.79379,51.20282 ]}},
{ "type":"Feature","properties":{"osm_id":"1646232112","other":{"amenity":"parking","capacity":"3"}}, "geometry":{"type":"Point","coordinates":[-0.78966,51.19647 ]}},
{ "type":"Feature","properties":{"osm_id":"1755026487","other":{"amenity":"parking","capacity":"4","fee":"no","parking":"layby"}}, "geometry":{"type":"Point","coordinates":[-0.79083,51.19722 ]}},
{ "type":"Feature","properties":{"osm_id":"1952646323","other":{"traffic_calming":"bump"}}, "geometry":{"type":"Point","coordinates":[-1.83495,52.45497 ]}},
{ "type":"Feature","properties":{"osm_id":"2011362051","other":{"amenity":"parking","fee":"yes","motorcycle":"designated","vehicle":"no"}}, "geometry":{"type":"Point","coordinates":[-0.48781,51.14023 ]}},
{ "type":"Feature","properties":{"osm_id":"2011362634","other":{"amenity":"parking","fee":"no"}}, "geometry":{"type":"Point","coordinates":[-0.52443,51.16736 ]}},
{ "type":"Feature","properties":{"osm_id":"2029939326","other":{"amenity":"parking_entrance","maxheight":"1.9"}}, "geometry":{"type":"Point","coordinates":[-0.79578,51.21445 ]}},
{ "type":"Feature","properties":{"osm_id":"2029939331","other":{"amenity":"parking_entrance","maxheight":"1.9"}}, "geometry":{"type":"Point","coordinates":[-0.79547,51.2146 ]}},
{ "type":"Feature","properties":{"osm_id":"2370880169","other":{"amenity":"parking","parking":"surface"}}, "geometry":{"type":"Point","coordinates":[-0.68308,51.18112 ]}},
{ "type":"Feature","properties":{"osm_id":"3416712253","name":"Bourne Wood","other":{"access":"yes","amenity":"parking","fee":"no","operator":"Forestry Commission","operator:type":"public","parking":"surface","surface":"compacted"}}, "geometry":{"type":"Point","coordinates":[-0.77063,51.19275 ]}},
{ "type":"Feature","properties":{"osm_id":"4402555244","other":{"amenity":"parking"}}, "geometry":{"type":"Point","coordinates":[-0.64975,51.14768 ]}},
{ "type":"Feature","properties":{"osm_id":"4456975393","other":{"amenity":"parking","parking":"surface"}}, "geometry":{"type":"Point","coordinates":[-0.7667,51.18336 ]}},
{ "type":"Feature","properties":{"osm_id":"4458416704","highway":"give_way","other":{"amenity":"parking_entrance"}}, "geometry":{"type":"Point","coordinates":[-0.79753,51.21372 ]}},
{ "type":"Feature","properties":{"osm_id":"4608129603","name":"Exit","other":{"amenity":"parking_entrance"}}, "geometry":{"type":"Point","coordinates":[-0.71661,51.08946 ]}},
{ "type":"Feature","properties":{"osm_id":"4608129607","name":"Entrance","other":{"amenity":"parking_entrance"}}, "geometry":{"type":"Point","coordinates":[-0.71672,51.08941 ]}},
{ "type":"Feature","properties":{"osm_id":"4689104925","other":{"amenity":"parking","park_ride":"no","parking":"surface","surface":"asphalt"}}, "geometry":{"type":"Point","coordinates":[-0.59765,51.20007 ]}},
{ "type":"Feature","properties":{"osm_id":"4689104928","other":{"amenity":"parking","park_ride":"no","parking":"surface","surface":"asphalt"}}, "geometry":{"type":"Point","coordinates":[-0.59797,51.19939 ]}},
{ "type":"Feature","properties":{"osm_id":"4771115023","name":"Sea Cadets","other":{"access":"private","amenity":"parking"}}, "geometry":{"type":"Point","coordinates":[-0.76797,51.23282 ]}},
{ "type":"Feature","properties":{"osm_id":"4937340279","name":"South Street","other":{"access":"yes","addr:city":"Farnham","addr:postcode":"GU9 7QU","addr:street":"South Street","amenity":"parking","capacity":"210","fee":"yes","operator":"Waverley Borough Council","parking":"multi-storey","surface":"asphalt","website":"https:\/\/www.waverley.gov.uk\/directory_record\/3349\/south_street_farnham\/category\/715\/farnham_car_parks","wheelchair":"limited","wheelchair:description":"Several Dedicated Blue Badge spaces near pay machine on upper level."}}, "geometry":{"type":"Point","coordinates":[-0.79585,51.21484 ]}},
{ "type":"Feature","properties":{"osm_id":"4943883471","name":"Council Office","other":{"access":"visitors","addr:city":"Farnham","addr:street":"South Street","amenity":"parking","parking":"surface","toilets:wheelchair":"no","wheelchair":"yes","wheelchair:description":"Dedicated Blue Badge space. Step-free around building to ramp at front of Council Offices. NB: Accessible toilet in offices is too narrow for many users."}}, "geometry":{"type":"Point","coordinates":[-0.79513,51.2141 ]}},
{ "type":"Feature","properties":{"osm_id":"5238673468","name":"Farnham Library","other":{"addr:city":"Farnham","addr:street":"West Street","amenity":"parking","wheelchair":"yes","wheelchair:description":"1 Blue Badge space near entrance to Library and Registrars Office."}}, "geometry":{"type":"Point","coordinates":[-0.80306,51.21347 ]}},
{ "type":"Feature","properties":{"osm_id":"5909533665","other":{"amenity":"parking","capacity":"4","parking":"lane"}}, "geometry":{"type":"Point","coordinates":[-0.52434,51.1311 ]}},
{ "type":"Feature","properties":{"osm_id":"7352158561","other":{"amenity":"parking"}}, "geometry":{"type":"Point","coordinates":[-0.64905,51.15404 ]}},
{ "type":"Feature","properties":{"osm_id":"7653373431","other":{"access":"yes","amenity":"bicycle_parking","bicycle_parking":"stands","capacity":"6","covered":"yes","fee":"no"}}, "geometry":{"type":"Point","coordinates":[-0.77693,51.2224 ]}},
{ "type":"Feature","properties":{"osm_id":"7910101145","other":{"amenity":"parking","parking:condition":"Mo-Sa 08:30-18:30 1 hour No return within 1 hour."}}, "geometry":{"type":"Point","coordinates":[-0.73094,51.08863 ]}},
{ "type":"Feature","properties":{"osm_id":"8376586455","other":{"access":"yes","amenity":"parking","capacity":"3","fee":"no","payment:cash":"no","payment:coins":"no","payment:credit_cards":"no","payment:visa":"no","surface":"dirt","wheelchair":"no"}}, "geometry":{"type":"Point","coordinates":[-0.73439,51.09669 ]}},
{ "type":"Feature","properties":{"osm_id":"8560466461","other":{"amenity":"parking"}}, "geometry":{"type":"Point","coordinates":[-0.77294,51.1829 ]}},
{ "type":"Feature","properties":{"osm_id":"8957637164","other":{"amenity":"parking"}}, "geometry":{"type":"Point","coordinates":[-0.75449,51.22321 ]}},
{ "type":"Feature","properties":{"osm_id":"8977570218","other":{"amenity":"parking","operator":"Shackleford Heath Car Park"}}, "geometry":{"type":"Point","coordinates":[-0.66313,51.19225 ]}},
{ "type":"Feature","properties":{"osm_id":"9380789741","other":{"access":"private","amenity":"parking","fee":"no"}}, "geometry":{"type":"Point","coordinates":[-0.75117,51.19203 ]}},
{ "type":"Feature","properties":{"osm_id":"9610759135","other":{"amenity":"parking","capacity:disabled":"6","fee":"no","parking":"street_side"}}, "geometry":{"type":"Point","coordinates":[-0.79931,51.15398 ]}},
{ "type":"Feature","properties":{"osm_way_id":"4677218","name":"Crown Court Car Park","amenity":"parking","other":{"access":"yes","capacity":"325","fee":"yes","operator":"Waverley Borough Council","parking":"surface","wheelchair":"yes"}}, "geometry":{"type":"MultiPolygon","coordinates":[[[[-0.61221,51.18659],[-0.61186,51.1866],[-0.61186,51.18644],[-0.61193,51.18633],[-0.61207,51.18626],[-0.61203,51.18619],[-0.61206,51.18618],[-0.61207,51.18618],[-0.61209,51.18618],[-0.61217,51.18616],[-0.61221,51.18615],[-0.61224,51.18623],[-0.61228,51.18623],[-0.61281,51.18617],[-0.61332,51.18692],[-0.61327,51.18705],[-0.6128,51.18724],[-0.6126,51.18731],[-0.61221,51.18659]]]]}},
{ "type":"Feature","properties":{"osm_way_id":"5363833","amenity":"parking","other":{"description":"This car park is called Weydown Road Pay & Display Car Park.","fee":"yes","operator":"Waverley Borough Council","operator:type":"public","parking":"surface","surface":"paved"}}, "geometry":{"type":"MultiPolygon","coordinates":[[[[-0.72313,51.08902],[-0.72329,51.08917],[-0.72355,51.0893],[-0.7237,51.08946],[-0.72365,51.08963],[-0.7235,51.08971],[-0.72332,51.08968],[-0.72332,51.08968],[-0.72271,51.0891],[-0.72256,51.08897],[-0.72243,51.08892],[-0.72219,51.08891],[-0.72222,51.08869],[-0.72228,51.0883],[-0.72313,51.08902]]]]}},
{ "type":"Feature","properties":{"osm_way_id":"5949168","name":"Templar Street Car Park","amenity":"parking","other":{"fee":"yes","operator":"NCP","park_ride":"no","parking":"surface"}}, "geometry":{"type":"MultiPolygon","coordinates":[[[[-1.53845,53.80055],[-1.53633,53.80016],[-1.53638,53.79994],[-1.53646,53.7999],[-1.53683,53.79991],[-1.53711,53.79992],[-1.53752,53.79997],[-1.5386,53.80013],[-1.53853,53.80033],[-1.53845,53.80055]]]]}},
{ "type":"Feature","properties":{"osm_way_id":"8039521","name":"Weyhill Car Park","amenity":"parking","other":{"operator":"Waverley Borough Council"}}, "geometry":{"type":"MultiPolygon","coordinates":[[[[-0.72635,51.08774],[-0.72623,51.0878],[-0.72606,51.08788],[-0.72545,51.08792],[-0.72534,51.08749],[-0.7258,51.0874],[-0.72625,51.08725],[-0.7264,51.08747],[-0.72644,51.08749],[-0.72652,51.08755],[-0.72659,51.08761],[-0.72635,51.08774]]]]}},
{ "type":"Feature","properties":{"osm_way_id":"10300929","name":"Central Car Park","amenity":"parking","other":{"access":"yes","addr:city":"Farnham","addr:street":"Victoria Road","fee":"yes","parking":"surface","toilets:wheelchair":"no","wheelchair":"yes","wheelchair:description":"Dedicated Blue Badge spaces (CHARGES) near rear entrance to Boots. Pay station may be difficult to access."}}, "geometry":{"type":"MultiPolygon","coordinates":[[[[-0.79699,51.214],[-0.79753,51.21372],[-0.79759,51.21368],[-0.79796,51.21353],[-0.79808,51.2135],[-0.79833,51.21343],[-0.79854,51.21374],[-0.79858,51.2138],[-0.79839,51.21401],[-0.79878,51.21453],[-0.79861,51.2146],[-0.79844,51.21449],[-0.79829,51.21435],[-0.79837,51.21433],[-0.79816,51.21411],[-0.79801,51.21416],[-0.79797,51.21417],[-0.79784,51.21414],[-0.79738,51.21433],[-0.79728,51.21425],[-0.79699,51.214]]]]}},
{ "type":"Feature","properties":{"osm_way_id":"11173627","name":"The Maltings Car Park","amenity":"parking","other":{"fee":"yes"}}, "geometry":{"type":"MultiPolygon","coordinates":[[[[-0.79914,51.211],[-0.79959,51.21137],[-0.79919,51.21154],[-0.79836,51.21187],[-0.79811,51.21144],[-0.79854,51.21126],[-0.79878,51.21118],[-0.79914,51.211]]]]}},
{ "type":"Feature","properties":{"osm_way_id":"11175017","name":"Waggon Yard","amenity":"parking","other":{"access":"yes","fee":"yes","parking":"surface"}}, "geometry":{"type":"MultiPolygon","coordinates":[[[[-0.79934,51.21288],[-0.79924,51.21287],[-0.79918,51.21271],[-0.79907,51.21267],[-0.79899,51.21267],[-0.799,51.21258],[-0.79866,51.21259],[-0.7986,51.21245],[-0.79859,51.2123],[-0.79913,51.21226],[-0.7996,51.21231],[-0.80035,51.21239],[-0.80038,51.21267],[-0.80023,51.21279],[-0.8,51.21278],[-0.8,51.21276],[-0.7999,51.21275],[-0.79989,51.21281],[-0.79945,51.2128],[-0.79934,51.21288]]]]}},
{ "type":"Feature","properties":{"osm_way_id":"16742504","name":"Moat Pond Car Park","amenity":"parking","other":{"operator":"Moat Pond Car Park"}}, "geometry":{"type":"MultiPolygon","coordinates":[[[[-0.715,51.1668],[-0.715,51.16697],[-0.71471,51.16697],[-0.71465,51.16667],[-0.71472,51.16658],[-0.7148,51.16651],[-0.71522,51.16648],[-0.715,51.1668]]]]}},
{ "type":"Feature","properties":{"osm_way_id":"23861183","amenity":"parking","other":{"access":"yes","fee":"yes","parking":"surface"}}, "geometry":{"type":"MultiPolygon","coordinates":[[[[-0.61857,51.18691],[-0.6184,51.18715],[-0.61823,51.18741],[-0.61795,51.18771],[-0.61787,51.1877],[-0.61796,51.18748],[-0.61821,51.18713],[-0.61827,51.187],[-0.6183,51.18686],[-0.61845,51.18688],[-0.61857,51.18691]]]]}},
{ "type":"Feature","properties":{"osm_way_id":"23861448","amenity":"parking","other":{"access":"yes","fee":"yes","parking":"surface"}}, "geometry":{"type":"MultiPolygon","coordinates":[[[[-0.61786,51.18734],[-0.61792,51.18732],[-0.61809,51.18709],[-0.61813,51.18694],[-0.6181,51.18684],[-0.61759,51.18704],[-0.61786,51.18734]]]]}},
{ "type":"Feature","properties":{"osm_way_id":"23861863","amenity":"parking","other":{"access":"private"}}, "geometry":{"type":"MultiPolygon","coordinates":[[[[-0.61894,51.18551],[-0.61855,51.18537],[-0.61899,51.18485],[-0.61933,51.18496],[-0.61894,51.18551]]]]}},
{ "type":"Feature","properties":{"osm_way_id":"23881738","amenity":"parking","other":{"operator":"Waverley Borough Council"}}, "geometry":{"type":"MultiPolygon","coordinates":[[[[-0.64292,51.17133],[-0.64246,51.17116],[-0.64263,51.17098],[-0.64309,51.17115],[-0.64292,51.17133]]]]}},
{ "type":"Feature","properties":{"osm_way_id":"23882023","name":"Village Hall car park","amenity":"parking"},"geometry":{"type":"MultiPolygon","coordinates":[[[[-0.64582,51.17189],[-0.64563,51.17208],[-0.64516,51.17195],[-0.64516,51.17195],[-0.64533,51.17177],[-0.64582,51.17189]]]]}},
{ "type":"Feature","properties":{"osm_way_id":"23882184","amenity":"parking"},"geometry":{"type":"MultiPolygon","coordinates":[[[[-0.72776,51.16221],[-0.72795,51.16208],[-0.72781,51.16187],[-0.72751,51.16184],[-0.72729,51.16196],[-0.72733,51.16214],[-0.72776,51.16221]]]]}},
{ "type":"Feature","properties":{"osm_way_id":"23883417","name":"Waitrose Carpark","amenity":"parking","other":{"operator":"Waitrose","wheelchair":"yes"}}, "geometry":{"type":"MultiPolygon","coordinates":[[[[-0.6093,51.18661],[-0.60912,51.1865],[-0.60912,51.18648],[-0.60901,51.18642],[-0.60908,51.18638],[-0.60859,51.1861],[-0.60853,51.18611],[-0.6082,51.1863],[-0.60794,51.18647],[-0.60777,51.1867],[-0.60781,51.18673],[-0.60781,51.18685],[-0.60797,51.18691],[-0.60815,51.18668],[-0.60839,51.1868],[-0.60842,51.18677],[-0.60881,51.18697],[-0.6093,51.18661]]]]}},
{ "type":"Feature","properties":{"osm_way_id":"23885172","amenity":"parking"},"geometry":{"type":"MultiPolygon","coordinates":[[[[-0.60711,51.2026],[-0.60682,51.20242],[-0.60673,51.20243],[-0.60651,51.20254],[-0.60657,51.20258],[-0.60672,51.20248],[-0.60702,51.20266],[-0.60711,51.2026]]]]}},
{ "type":"Feature","properties":{"osm_way_id":"23886316","name":"South Street Car Park","amenity":"parking","other":{"access":"yes","capacity":"62","fee":"yes","operator":"Waverley Borough Council","parking":"surface","wheelchair":"yes"}}, "geometry":{"type":"MultiPolygon","coordinates":[[[[-0.61556,51.18492],[-0.6154,51.18487],[-0.61539,51.18486],[-0.6153,51.18487],[-0.61529,51.18467],[-0.61531,51.18464],[-0.61535,51.18462],[-0.61539,51.1846],[-0.61545,51.18459],[-0.61592,51.18455],[-0.61615,51.18455],[-0.61624,51.18455],[-0.61633,51.18454],[-0.61647,51.18453],[-0.61649,51.18458],[-0.61589,51.18466],[-0.61598,51.18484],[-0.61587,51.18485],[-0.61579,51.1849],[-0.61556,51.18492]]]]}},
{ "type":"Feature","properties":{"osm_way_id":"23887597","amenity":"parking","other":{"capacity":"40"}}, "geometry":{"type":"MultiPolygon","coordinates":[[[[-0.65142,51.16511],[-0.65132,51.16504],[-0.65114,51.16527],[-0.65124,51.16534],[-0.65142,51.16511]]]]}},
{ "type":"Feature","properties":{"osm_way_id":"23888486","amenity":"parking"},"geometry":{"type":"MultiPolygon","coordinates":[[[[-0.6235,51.18093],[-0.62333,51.18087],[-0.62305,51.18081],[-0.62291,51.18079],[-0.62281,51.18074],[-0.62274,51.18066],[-0.6229,51.18055],[-0.62303,51.18062],[-0.62306,51.18066],[-0.62311,51.18071],[-0.62323,51.18075],[-0.6233,51.1807],[-0.62347,51.18075],[-0.62367,51.18059],[-0.62381,51.18066],[-0.62363,51.18082],[-0.6235,51.18093]]]]}},
{ "type":"Feature","properties":{"osm_way_id":"23888885","amenity":"parking","other":{"wheelchair":"yes"}}, "geometry":{"type":"MultiPolygon","coordinates":[[[[-0.63777,51.17326],[-0.63725,51.17339],[-0.6374,51.17364],[-0.63705,51.17373],[-0.63721,51.17398],[-0.63679,51.17409],[-0.63634,51.17337],[-0.63764,51.17305],[-0.63777,51.17326]]]]}},
{ "type":"Feature","properties":{"osm_way_id":"23889172","amenity":"parking"},"geometry":{"type":"MultiPolygon","coordinates":[[[[-0.63212,51.18149],[-0.63209,51.18158],[-0.63237,51.18162],[-0.6324,51.18153],[-0.63212,51.18149]]]]}},
{ "type":"Feature","properties":{"osm_way_id":"23889291","amenity":"parking"},"geometry":{"type":"MultiPolygon","coordinates":[[[[-0.6257,51.18457],[-0.62567,51.18504],[-0.62557,51.18505],[-0.62547,51.18504],[-0.62549,51.18455],[-0.6257,51.18457]]]]}},
{ "type":"Feature","properties":{"osm_way_id":"23897575","amenity":"parking","other":{"parking":"surface"}}, "geometry":{"type":"MultiPolygon","coordinates":[[[[-0.71419,51.15033],[-0.71508,51.15054],[-0.71512,51.15044],[-0.71425,51.15024],[-0.71419,51.15033]]]]}},
{ "type":"Feature","properties":{"osm_way_id":"24633029","amenity":"parking","other":{"capacity":"20"}}, "geometry":{"type":"MultiPolygon","coordinates":[[[[-0.51844,51.20575],[-0.51846,51.2057],[-0.51846,51.20564],[-0.5175,51.20551],[-0.51746,51.20557],[-0.51746,51.20566],[-0.51791,51.20569],[-0.51844,51.20575]]]]}},
{ "type":"Feature","properties":{"osm_way_id":"24752254","amenity":"parking"},"geometry":{"type":"MultiPolygon","coordinates":[[[[-0.61677,51.17695],[-0.61588,51.17692],[-0.61603,51.17725],[-0.61645,51.17738],[-0.61677,51.17695]]]]}},
{ "type":"Feature","properties":{"osm_way_id":"24752255","amenity":"parking"},"geometry":{"type":"MultiPolygon","coordinates":[[[[-0.61734,51.17613],[-0.61786,51.1762],[-0.61742,51.17708],[-0.61692,51.17697],[-0.61734,51.17613]]]]}},
{ "type":"Feature","properties":{"osm_way_id":"26157990","amenity":"parking"},"geometry":{"type":"MultiPolygon","coordinates":[[[[-0.54535,51.18109],[-0.54511,51.18104],[-0.54532,51.18056],[-0.54623,51.18074],[-0.54618,51.18083],[-0.54603,51.18082],[-0.54601,51.18086],[-0.54593,51.18084],[-0.54592,51.18086],[-0.54551,51.18077],[-0.54535,51.18109]]]]}},
{ "type":"Feature","properties":{"osm_way_id":"26545134","amenity":"parking","other":{"fee":"yes","operator":"National Trust","parking":"surface","payment:app":"yes","surface":"unpaved"}}, "geometry":{"type":"MultiPolygon","coordinates":[[[[-0.77572,51.16923],[-0.775,51.16943],[-0.77498,51.16928],[-0.7748,51.16896],[-0.77557,51.1688],[-0.77572,51.16923]]]]}},
{ "type":"Feature","properties":{"osm_way_id":"27209168","amenity":"parking","other":{"access":"private"}}, "geometry":{"type":"MultiPolygon","coordinates":[[[[-0.81641,51.20141],[-0.81637,51.20138],[-0.81632,51.20132],[-0.81591,51.20147],[-0.81641,51.20141]]]]}},
{ "type":"Feature","properties":{"osm_way_id":"28179442","amenity":"parking"},"geometry":{"type":"MultiPolygon","coordinates":[[[[-0.52021,51.20118],[-0.51937,51.20116],[-0.51938,51.20102],[-0.52018,51.20104],[-0.52048,51.20108],[-0.52053,51.20112],[-0.52021,51.20118]]]]}},
{ "type":"Feature","properties":{"osm_way_id":"29080251","amenity":"parking"},"geometry":{"type":"MultiPolygon","coordinates":[[[[-1.65342,52.81625],[-1.65332,52.81621],[-1.65326,52.81619],[-1.65332,52.81612],[-1.65339,52.81614],[-1.65402,52.81544],[-1.65513,52.81576],[-1.65485,52.81608],[-1.65519,52.81619],[-1.65508,52.81631],[-1.65489,52.81625],[-1.65496,52.81616],[-1.65478,52.81615],[-1.65434,52.81621],[-1.65415,52.81623],[-1.65403,52.81625],[-1.65394,52.8163],[-1.65387,52.8163],[-1.65348,52.81618],[-1.65342,52.81625]]]]}},
{ "type":"Feature","properties":{"osm_way_id":"29080253","amenity":"parking"},"geometry":{"type":"MultiPolygon","coordinates":[[[[-1.65404,52.81693],[-1.6542,52.81695],[-1.65421,52.81684],[-1.65417,52.81674],[-1.65401,52.81678],[-1.65405,52.81686],[-1.65404,52.81693]]]]}},
{ "type":"Feature","properties":{"osm_way_id":"31118503","amenity":"parking"},"geometry":{"type":"MultiPolygon","coordinates":[[[[-0.55705,51.19284],[-0.55717,51.19313],[-0.55684,51.19317],[-0.55673,51.19289],[-0.55705,51.19284]]]]}},
{ "type":"Feature","properties":{"osm_way_id":"31357034","amenity":"parking","other":{"access":"permissive"}}, "geometry":{"type":"MultiPolygon","coordinates":[[[[-0.52067,51.20629],[-0.52045,51.20628],[-0.52054,51.206],[-0.52065,51.20601],[-0.52075,51.20602],[-0.52067,51.20629]]]]}},
{ "type":"Feature","properties":{"osm_way_id":"33199093","amenity":"parking"},"geometry":{"type":"MultiPolygon","coordinates":[[[[-0.52062,51.20503],[-0.52044,51.20513],[-0.52041,51.2051],[-0.52047,51.2049],[-0.52065,51.2049],[-0.52064,51.20497],[-0.52062,51.20503]]]]}},
{ "type":"Feature","properties":{"osm_way_id":"33630546","name":"Shackleford Heath","amenity":"parking","other":{"fee":"no"}}, "geometry":{"type":"MultiPolygon","coordinates":[[[[-0.66383,51.19266],[-0.66374,51.19237],[-0.66322,51.19249],[-0.66334,51.19279],[-0.66383,51.19266]]]]}},
{ "type":"Feature","properties":{"osm_way_id":"35471105","name":"Stockbridge","amenity":"parking","other":{"parking":"surface"}}, "geometry":{"type":"MultiPolygon","coordinates":[[[[-0.7504,51.17946],[-0.75033,51.17948],[-0.75024,51.17949],[-0.75019,51.17952],[-0.75016,51.17956],[-0.75013,51.17961],[-0.74991,51.17967],[-0.74971,51.17966],[-0.7497,51.17956],[-0.74997,51.17943],[-0.75007,51.17934],[-0.75011,51.17932],[-0.75021,51.17929],[-0.75034,51.17929],[-0.7504,51.17933],[-0.75043,51.17938],[-0.75043,51.17942],[-0.7504,51.17946]]]]}},
{ "type":"Feature","properties":{"osm_way_id":"40295227","name":"Meadrow Car Park","amenity":"parking","other":{"fee":"yes"}}, "geometry":{"type":"MultiPolygon","coordinates":[[[[-0.60011,51.19402],[-0.59993,51.19414],[-0.59895,51.19361],[-0.59912,51.19348],[-0.60011,51.19402]]]]}},
{ "type":"Feature","properties":{"osm_way_id":"55759829","name":"Chestnut Avenue Car Park","amenity":"parking","other":{"access":"yes","capacity":"130","capacity:disabled":"3","operator":"Waverley Borough Council","parking":"surface"}}, "geometry":{"type":"MultiPolygon","coordinates":[[[[-0.71042,51.08953],[-0.71032,51.08942],[-0.70993,51.08916],[-0.70981,51.08921],[-0.70918,51.08945],[-0.70902,51.08952],[-0.70926,51.08973],[-0.7099,51.08953],[-0.71016,51.08977],[-0.71043,51.08967],[-0.71038,51.08957],[-0.71042,51.08953]]]]}},
{ "type":"Feature","properties":{"osm_way_id":"55924481","amenity":"parking","other":{"fee":"yes"}}, "geometry":{"type":"MultiPolygon","coordinates":[[[[-0.71166,51.08898],[-0.71067,51.08863],[-0.71072,51.08857],[-0.71068,51.08847],[-0.71057,51.08844],[-0.71072,51.08826],[-0.71195,51.08868],[-0.71166,51.08898]]]]}},
{ "type":"Feature","properties":{"osm_way_id":"56340766","name":"Council Offices Car Park","amenity":"parking","other":{"access":"private","parking":"surface","wheelchair":"yes"}}, "geometry":{"type":"MultiPolygon","coordinates":[[[[-0.60957,51.18729],[-0.60978,51.18737],[-0.61,51.18742],[-0.61024,51.18743],[-0.61029,51.18725],[-0.61038,51.18725],[-0.61053,51.18738],[-0.61064,51.18738],[-0.61071,51.18676],[-0.6105,51.18665],[-0.61041,51.18671],[-0.61028,51.18677],[-0.61027,51.18681],[-0.61018,51.18687],[-0.61026,51.18691],[-0.61023,51.18694],[-0.61021,51.18717],[-0.61016,51.18724],[-0.61003,51.18734],[-0.60972,51.18717],[-0.60957,51.18729]]]]}},
{ "type":"Feature","properties":{"osm_way_id":"58323417","amenity":"parking"},"geometry":{"type":"MultiPolygon","coordinates":[[[[-0.54974,51.19665],[-0.54959,51.19671],[-0.54955,51.19673],[-0.54931,51.19645],[-0.54951,51.19638],[-0.54953,51.19641],[-0.54974,51.19665]]]]}},
{ "type":"Feature","properties":{"osm_way_id":"58323419","name":"Chinthurst Hill car Park","amenity":"parking","other":{"parking":"surface","surface":"unpaved"}}, "geometry":{"type":"MultiPolygon","coordinates":[[[[-0.54918,51.20688],[-0.54923,51.2069],[-0.54944,51.20701],[-0.54981,51.20666],[-0.54996,51.20642],[-0.54969,51.20636],[-0.54956,51.20653],[-0.54956,51.20662],[-0.54918,51.20688]]]]}},
{ "type":"Feature","properties":{"osm_way_id":"58327153","amenity":"parking"},"geometry":{"type":"MultiPolygon","coordinates":[[[[-0.53613,51.19594],[-0.53598,51.19594],[-0.53549,51.19595],[-0.53549,51.19592],[-0.53548,51.19574],[-0.53612,51.19573],[-0.53613,51.19576],[-0.53613,51.19594]]]]}},
{ "type":"Feature","properties":{"osm_way_id":"58574877","amenity":"parking","other":{"access":"permissive"}}, "geometry":{"type":"MultiPolygon","coordinates":[[[[-0.54557,51.19725],[-0.54545,51.197],[-0.54518,51.19708],[-0.54513,51.19726],[-0.54545,51.19725],[-0.54557,51.19725]]]]}},
{ "type":"Feature","properties":{"osm_way_id":"58757711","amenity":"parking","other":{"wheelchair":"yes"}}, "geometry":{"type":"MultiPolygon","coordinates":[[[[-0.60621,51.18696],[-0.60615,51.187],[-0.60607,51.18709],[-0.60602,51.1872],[-0.60609,51.18731],[-0.60622,51.18751],[-0.60658,51.18733],[-0.60669,51.18741],[-0.60749,51.187],[-0.60754,51.18697],[-0.60748,51.18685],[-0.60742,51.18678],[-0.60733,51.18673],[-0.60717,51.18671],[-0.60706,51.18674],[-0.60666,51.18693],[-0.6066,51.1869],[-0.60637,51.18691],[-0.60627,51.18693],[-0.60621,51.18696]]]]}},
{ "type":"Feature","properties":{"osm_way_id":"59104616","amenity":"parking","other":{"access":"permissive"}}, "geometry":{"type":"MultiPolygon","coordinates":[[[[-0.54495,51.19864],[-0.5449,51.19861],[-0.54502,51.19854],[-0.54494,51.19849],[-0.54496,51.19846],[-0.54488,51.19841],[-0.54497,51.19836],[-0.54511,51.19844],[-0.54514,51.19847],[-0.54515,51.1985],[-0.54495,51.19864]]]]}},
{ "type":"Feature","properties":{"osm_way_id":"59118139","amenity":"parking"},"geometry":{"type":"MultiPolygon","coordinates":[[[[-0.5071,51.14854],[-0.50708,51.14849],[-0.50717,51.14849],[-0.50717,51.14827],[-0.50686,51.14827],[-0.5066,51.14826],[-0.50634,51.14826],[-0.50609,51.14826],[-0.5056,51.14826],[-0.50496,51.14823],[-0.50497,51.14831],[-0.50518,51.14835],[-0.50538,51.14841],[-0.50567,51.14854],[-0.50561,51.14867],[-0.50589,51.14869],[-0.5059,51.14851],[-0.50649,51.14851],[-0.50649,51.1486],[-0.50714,51.1486],[-0.5071,51.14854]]]]}},
{ "type":"Feature","properties":{"osm_way_id":"59120054","amenity":"parking"},"geometry":{"type":"MultiPolygon","coordinates":[[[[-0.50549,51.1482],[-0.50542,51.14816],[-0.50544,51.14798],[-0.50553,51.14799],[-0.50553,51.14794],[-0.50545,51.14793],[-0.50545,51.14785],[-0.50545,51.14765],[-0.50545,51.14761],[-0.50513,51.14768],[-0.50502,51.14805],[-0.50516,51.14818],[-0.50549,51.1482]]]]}},
{ "type":"Feature","properties":{"osm_way_id":"59132951","amenity":"parking","other":{"access":"permissive"}}, "geometry":{"type":"MultiPolygon","coordinates":[[[[-0.54609,51.19674],[-0.54601,51.19678],[-0.5459,51.19667],[-0.54637,51.19648],[-0.54647,51.19659],[-0.54637,51.19662],[-0.54641,51.19666],[-0.54643,51.19677],[-0.54629,51.19677],[-0.54628,51.19667],[-0.54616,51.19671],[-0.54619,51.19673],[-0.54623,51.19672],[-0.54626,51.19687],[-0.5463,51.19692],[-0.54614,51.19693],[-0.54611,51.1969],[-0.54605,51.19691],[-0.54603,51.1968],[-0.54612,51.19676],[-0.54609,51.19674]]]]}},
{ "type":"Feature","properties":{"osm_way_id":"59151486","amenity":"parking","other":{"access":"customers"}}, "geometry":{"type":"MultiPolygon","coordinates":[[[[-0.53507,51.19963],[-0.53506,51.19938],[-0.53478,51.19939],[-0.53473,51.19938],[-0.53463,51.19941],[-0.53471,51.19965],[-0.53507,51.19963]]]]}},
{ "type":"Feature","properties":{"osm_way_id":"59213420","amenity":"parking","building":"yes","other":{"fee":"yes","maxheight":"2.1","operator":"South West Trains","parking":"multi-storey"}}, "geometry":{"type":"MultiPolygon","coordinates":[[[[-0.71859,51.08898],[-0.71667,51.08958],[-0.71666,51.08957],[-0.71664,51.08954],[-0.71658,51.08947],[-0.71661,51.08946],[-0.71673,51.08942],[-0.71672,51.08941],[-0.7167,51.08939],[-0.71663,51.0893],[-0.71722,51.08911],[-0.71724,51.08914],[-0.71822,51.08884],[-0.71827,51.08889],[-0.71827,51.0889],[-0.71828,51.08891],[-0.71846,51.08885],[-0.71848,51.08885],[-0.71856,51.08894],[-0.71859,51.08898]]]]}},
{ "type":"Feature","properties":{"osm_way_id":"59219200","amenity":"parking","other":{"access":"permissive"}}, "geometry":{"type":"MultiPolygon","coordinates":[[[[-0.54553,51.19999],[-0.54555,51.19988],[-0.54527,51.19985],[-0.54526,51.19993],[-0.54525,51.19994],[-0.54543,51.19995],[-0.54544,51.19998],[-0.54553,51.19999]]]]}},
{ "type":"Feature","properties":{"osm_way_id":"60539175","amenity":"parking"},"geometry":{"type":"MultiPolygon","coordinates":[[[[-0.56534,51.12299],[-0.56524,51.12286],[-0.56523,51.12284],[-0.56502,51.12291],[-0.56496,51.12284],[-0.56465,51.12296],[-0.56483,51.12314],[-0.56502,51.12308],[-0.56534,51.12299]]]]}},
{ "type":"Feature","properties":{"osm_way_id":"60541006","amenity":"parking"},"geometry":{"type":"MultiPolygon","coordinates":[[[[-0.56266,51.11681],[-0.56249,51.1165],[-0.56238,51.11652],[-0.56249,51.11673],[-0.56238,51.11676],[-0.56226,51.11655],[-0.56198,51.11661],[-0.56215,51.11691],[-0.56266,51.11681]]]]}},
{ "type":"Feature","properties":{"osm_way_id":"60541188","amenity":"parking"},"geometry":{"type":"MultiPolygon","coordinates":[[[[-0.56374,51.11725],[-0.56366,51.11712],[-0.5633,51.11721],[-0.56338,51.11733],[-0.56374,51.11725]]]]}},
{ "type":"Feature","properties":{"osm_way_id":"61295210","amenity":"parking","other":{"access":"private","parking":"surface","surface":"asphalt"}}, "geometry":{"type":"MultiPolygon","coordinates":[[[[-0.52854,51.12073],[-0.52845,51.12058],[-0.52632,51.12107],[-0.52626,51.12112],[-0.52628,51.12125],[-0.5269,51.1211],[-0.52836,51.12077],[-0.52854,51.12073]]]]}},
{ "type":"Feature","properties":{"osm_way_id":"61301116","amenity":"parking","other":{"access":"private","parking":"surface","surface":"asphalt"}}, "geometry":{"type":"MultiPolygon","coordinates":[[[[-0.53949,51.11902],[-0.5393,51.11874],[-0.5387,51.1189],[-0.53862,51.11876],[-0.5385,51.11878],[-0.53843,51.11868],[-0.53871,51.11861],[-0.5388,51.11874],[-0.53972,51.11851],[-0.53975,51.11856],[-0.5398,51.11855],[-0.53988,51.11864],[-0.53998,51.11891],[-0.53949,51.11902]]]]}},
{ "type":"Feature","properties":{"osm_way_id":"61301144","amenity":"parking","other":{"access":"private","parking":"surface","surface":"asphalt"}}, "geometry":{"type":"MultiPolygon","coordinates":[[[[-0.53643,51.11963],[-0.53631,51.11966],[-0.53569,51.11981],[-0.53551,51.11954],[-0.53563,51.11951],[-0.53564,51.11954],[-0.53568,51.11959],[-0.53582,51.11956],[-0.53595,51.11953],[-0.53583,51.11932],[-0.53573,51.11912],[-0.53595,51.11905],[-0.53603,51.11908],[-0.53619,51.11931],[-0.53623,51.11936],[-0.53627,51.1194],[-0.53644,51.11954],[-0.53648,51.11962],[-0.53643,51.11963]]]]}},
{ "type":"Feature","properties":{"osm_way_id":"61302146","amenity":"parking","other":{"access":"private","parking":"surface","surface":"asphalt"}}, "geometry":{"type":"MultiPolygon","coordinates":[[[[-0.53451,51.12126],[-0.53448,51.12121],[-0.53323,51.12144],[-0.533,51.12141],[-0.53304,51.12152],[-0.53451,51.12126]]]]}},
{ "type":"Feature","properties":{"osm_way_id":"71714937","amenity":"parking","other":{"capacity:disabled":"yes"}}, "geometry":{"type":"MultiPolygon","coordinates":[[[[-0.64208,51.11337],[-0.64179,51.11328],[-0.64183,51.11323],[-0.64177,51.11321],[-0.64184,51.11312],[-0.64219,51.11323],[-0.64208,51.11337]]]]}},
{ "type":"Feature","properties":{"osm_way_id":"72863450","name":"Farnham Station","amenity":"parking","other":{"access":"yes","fee":"yes","parking":"surface"}}, "geometry":{"type":"MultiPolygon","coordinates":[[[[-0.79294,51.21162],[-0.79296,51.21161],[-0.79326,51.21142],[-0.7932,51.21138],[-0.79352,51.21119],[-0.79359,51.21123],[-0.7939,51.21102],[-0.79477,51.2105],[-0.7953,51.21023],[-0.79576,51.21001],[-0.79639,51.20971],[-0.79645,51.20976],[-0.79582,51.21006],[-0.79537,51.21028],[-0.79515,51.2104],[-0.79501,51.21048],[-0.79483,51.21063],[-0.7947,51.21079],[-0.79463,51.21092],[-0.79459,51.21105],[-0.79455,51.21131],[-0.79419,51.21125],[-0.794,51.21178],[-0.79394,51.21178],[-0.79392,51.21182],[-0.79376,51.2118],[-0.79366,51.21178],[-0.79354,51.21173],[-0.7935,51.21171],[-0.79332,51.21168],[-0.79306,51.21166],[-0.79298,51.21165],[-0.79294,51.21162]]]]}},
{ "type":"Feature","properties":{"osm_way_id":"78507156","amenity":"parking"},"geometry":{"type":"MultiPolygon","coordinates":[[[[-0.48789,51.13808],[-0.48801,51.13828],[-0.48774,51.13833],[-0.4877,51.13828],[-0.48755,51.1383],[-0.48732,51.13792],[-0.48748,51.13795],[-0.48755,51.1378],[-0.48756,51.13778],[-0.48759,51.13772],[-0.48765,51.13771],[-0.48789,51.13808]]]]}},
{ "type":"Feature","properties":{"osm_way_id":"89421515","amenity":"parking","other":{"access":"yes","fee":"no","parking":"surface"}}, "geometry":{"type":"MultiPolygon","coordinates":[[[[-0.60142,51.15266],[-0.60134,51.15258],[-0.60143,51.15253],[-0.6016,51.15257],[-0.60168,51.15261],[-0.60172,51.15267],[-0.60173,51.15276],[-0.60172,51.15284],[-0.60169,51.15285],[-0.60167,51.15286],[-0.60157,51.15281],[-0.60146,51.15273],[-0.60142,51.15266]]]]}},
{ "type":"Feature","properties":{"osm_way_id":"89529596","amenity":"parking","other":{"access":"yes","fee":"no","parking":"surface"}}, "geometry":{"type":"MultiPolygon","coordinates":[[[[-0.82633,51.18373],[-0.82673,51.18366],[-0.82659,51.18336],[-0.82618,51.18339],[-0.82633,51.18373]]]]}},
{ "type":"Feature","properties":{"osm_way_id":"92464602","amenity":"parking"},"geometry":{"type":"MultiPolygon","coordinates":[[[[-0.55641,51.19647],[-0.55653,51.19643],[-0.5563,51.19617],[-0.55618,51.19621],[-0.55641,51.19647]]]]}},
{ "type":"Feature","properties":{"osm_way_id":"102981353","amenity":"parking","other":{"access":"yes","fee":"no","parking":"street_side"}}, "geometry":{"type":"MultiPolygon","coordinates":[[[[-1.48169,53.37487],[-1.48148,53.37469],[-1.48146,53.37466],[-1.48134,53.3747],[-1.48109,53.37446],[-1.48079,53.37457],[-1.48109,53.37485],[-1.48133,53.37477],[-1.48151,53.37493],[-1.48153,53.37493],[-1.48169,53.37487]]]]}},
{ "type":"Feature","properties":{"osm_way_id":"119783747","amenity":"parking"},"geometry":{"type":"MultiPolygon","coordinates":[[[[-0.72975,51.0884],[-0.73035,51.08819],[-0.73055,51.0884],[-0.73069,51.08855],[-0.73038,51.08866],[-0.73013,51.08838],[-0.72983,51.08848],[-0.72975,51.0884]]]]}},
{ "type":"Feature","properties":{"osm_way_id":"119783752","amenity":"parking"},"geometry":{"type":"MultiPolygon","coordinates":[[[[-0.73102,51.08543],[-0.73161,51.08528],[-0.7316,51.08524],[-0.73217,51.08518],[-0.7323,51.08559],[-0.73228,51.08561],[-0.73189,51.08566],[-0.73163,51.08567],[-0.73142,51.08564],[-0.73127,51.08559],[-0.73111,51.08551],[-0.73102,51.08543]]]]}},
{ "type":"Feature","properties":{"osm_way_id":"123850953","amenity":"parking"},"geometry":{"type":"MultiPolygon","coordinates":[[[[1.05724,51.29781],[1.05733,51.29784],[1.05744,51.29788],[1.05723,51.29809],[1.05717,51.29807],[1.05714,51.2981],[1.05706,51.29807],[1.05709,51.29804],[1.05703,51.29802],[1.05724,51.29781]]]]}},
{ "type":"Feature","properties":{"osm_way_id":"130458500","amenity":"parking","other":{"capacity":"10","fee":"no"}}, "geometry":{"type":"MultiPolygon","coordinates":[[[[-0.44219,51.15063],[-0.44215,51.15042],[-0.44197,51.15042],[-0.44196,51.15053],[-0.44196,51.15058],[-0.44201,51.15067],[-0.44219,51.15063]]]]}},
{ "type":"Feature","properties":{"osm_way_id":"133640079","name":"High Street Car Park","amenity":"parking","other":{"fee":"yes","operator":"Waverley Borough Council","wheelchair":"yes"}}, "geometry":{"type":"MultiPolygon","coordinates":[[[[-0.71031,51.0884],[-0.71003,51.08832],[-0.7101,51.08821],[-0.71013,51.08817],[-0.7102,51.08819],[-0.71035,51.08823],[-0.71045,51.08825],[-0.71043,51.08827],[-0.71041,51.08829],[-0.7104,51.08831],[-0.71031,51.0884]]]]}},
{ "type":"Feature","properties":{"osm_way_id":"133640084","name":"High Street Car Park","amenity":"parking","other":{"fee":"yes","operator":"Waverley Borough Council"}}, "geometry":{"type":"MultiPolygon","coordinates":[[[[-0.70993,51.0883],[-0.70963,51.08822],[-0.70984,51.08802],[-0.71002,51.08807],[-0.70998,51.08813],[-0.71004,51.08815],[-0.70993,51.0883]]]]}},
{ "type":"Feature","properties":{"osm_way_id":"133756826","amenity":"parking"},"geometry":{"type":"MultiPolygon","coordinates":[[[[-0.70975,51.08186],[-0.70978,51.08182],[-0.70956,51.08173],[-0.70898,51.08161],[-0.70879,51.08158],[-0.70876,51.08169],[-0.70877,51.08175],[-0.70975,51.08186]]]]}},
{ "type":"Feature","properties":{"osm_way_id":"133847749","amenity":"parking"},"geometry":{"type":"MultiPolygon","coordinates":[[[[-0.70975,51.0954],[-0.70962,51.09557],[-0.70942,51.09551],[-0.70956,51.09534],[-0.70975,51.0954]]]]}},
{ "type":"Feature","properties":{"osm_way_id":"134699858","amenity":"parking","other":{"parking":"surface"}}, "geometry":{"type":"MultiPolygon","coordinates":[[[[-0.58628,51.08805],[-0.58599,51.08804],[-0.58586,51.08804],[-0.58605,51.08779],[-0.58619,51.0878],[-0.58626,51.0878],[-0.58628,51.08805]]]]}},
{ "type":"Feature","properties":{"osm_way_id":"134751636","amenity":"parking","other":{"parking":"surface"}}, "geometry":{"type":"MultiPolygon","coordinates":[[[[-0.73117,51.08675],[-0.73132,51.08673],[-0.7314,51.08677],[-0.73153,51.08692],[-0.73163,51.0871],[-0.73161,51.08715],[-0.73152,51.0872],[-0.7311,51.08721],[-0.73089,51.08726],[-0.7303,51.08731],[-0.72976,51.08737],[-0.72961,51.08732],[-0.72965,51.08715],[-0.72971,51.087],[-0.7298,51.08692],[-0.72987,51.08687],[-0.73,51.08684],[-0.73001,51.08687],[-0.73031,51.08683],[-0.73032,51.08685],[-0.7304,51.08684],[-0.73067,51.08679],[-0.73085,51.08677],[-0.73084,51.08674],[-0.73109,51.0867],[-0.73117,51.08675]]]]}},
{ "type":"Feature","properties":{"osm_way_id":"135260739","amenity":"parking","other":{"access":"private"}}, "geometry":{"type":"MultiPolygon","coordinates":[[[[-0.72933,51.08618],[-0.72939,51.08628],[-0.72933,51.08629],[-0.72933,51.08633],[-0.72886,51.08638],[-0.72881,51.08632],[-0.7289,51.08622],[-0.72915,51.0862],[-0.72933,51.08618]]]]}},
{ "type":"Feature","properties":{"osm_way_id":"135855438","amenity":"parking","other":{"fee":"yes"}}, "geometry":{"type":"MultiPolygon","coordinates":[[[[-0.7197,51.08857],[-0.71973,51.08861],[-0.72059,51.08836],[-0.72048,51.08822],[-0.71955,51.0885],[-0.7196,51.08855],[-0.7197,51.08857]]]]}},
{ "type":"Feature","properties":{"osm_way_id":"136389925","name":"Whitley & Millford Common","amenity":"parking","other":{"addr:city":"Godalming","addr:street":"Webb Road","capacity":"20","parking":"surface","toilets:wheelchair":"no","website":"https:\/\/www.nationaltrust.org.uk\/witley-and-milford-commons","wheelchair":"yes","wheelchair:description":"NT members park free. Walk along Webb Road north towards the A3 has an asphalt surface. Other paths\/routes are mainly firm, fairly gentle slopes on sand or gravel."}}, "geometry":{"type":"MultiPolygon","coordinates":[[[[-0.66681,51.16001],[-0.66694,51.15992],[-0.66637,51.15968],[-0.66615,51.15959],[-0.66604,51.15968],[-0.66681,51.16001]]]]}},
{ "type":"Feature","properties":{"osm_way_id":"136503438","amenity":"parking"},"geometry":{"type":"MultiPolygon","coordinates":[[[[-0.75109,51.09424],[-0.75099,51.09431],[-0.75091,51.09432],[-0.75067,51.09426],[-0.75013,51.09399],[-0.75027,51.09387],[-0.75109,51.09424]]]]}},
{ "type":"Feature","properties":{"osm_way_id":"136503440","amenity":"parking"},"geometry":{"type":"MultiPolygon","coordinates":[[[[-0.75,51.09496],[-0.74973,51.09492],[-0.74995,51.09437],[-0.75023,51.09442],[-0.75,51.09496]]]]}},
{ "type":"Feature","properties":{"osm_way_id":"136504400","amenity":"parking","other":{"service":"driveway"}}, "geometry":{"type":"MultiPolygon","coordinates":[[[[-0.74912,51.09557],[-0.74906,51.09568],[-0.74777,51.09544],[-0.74783,51.09531],[-0.74913,51.09555],[-0.74912,51.09557]]]]}},
{ "type":"Feature","properties":{"osm_way_id":"136708740","amenity":"parking","other":{"access":"private"}}, "geometry":{"type":"MultiPolygon","coordinates":[[[[-0.70826,51.08842],[-0.70831,51.08838],[-0.70842,51.08826],[-0.70849,51.08812],[-0.7085,51.08809],[-0.70803,51.08797],[-0.70792,51.08826],[-0.70826,51.08842]]]]}},
{ "type":"Feature","properties":{"osm_way_id":"136733845","name":"Tanner's Lane Car Park","amenity":"parking","other":{"access":"yes","capacity":"46","capacity:disabled":"no","fee":"yes","maxheight":"2.2","operator":"Waverley Borough Council","parking":"surface"}}, "geometry":{"type":"MultiPolygon","coordinates":[[[[-0.71283,51.08982],[-0.71278,51.08987],[-0.71276,51.08989],[-0.7127,51.08995],[-0.71352,51.09029],[-0.71357,51.09023],[-0.71364,51.09018],[-0.71283,51.08982]]]]}},
{ "type":"Feature","properties":{"osm_way_id":"141072248","amenity":"parking","other":{"access":"permissive"}}, "geometry":{"type":"MultiPolygon","coordinates":[[[[-0.71885,51.08852],[-0.71878,51.08843],[-0.71893,51.08838],[-0.71898,51.08836],[-0.719,51.0884],[-0.71934,51.08829],[-0.71937,51.08828],[-0.71939,51.08827],[-0.7194,51.08825],[-0.71941,51.08824],[-0.71941,51.08822],[-0.71939,51.0882],[-0.71956,51.08815],[-0.71949,51.08807],[-0.71962,51.08804],[-0.71954,51.08825],[-0.7195,51.0883],[-0.71929,51.08837],[-0.71885,51.08852]]]]}},
{ "type":"Feature","properties":{"osm_way_id":"142808111","amenity":"parking","other":{"access":"permissive"}}, "geometry":{"type":"MultiPolygon","coordinates":[[[[-0.55819,51.19679],[-0.55795,51.19688],[-0.55765,51.19658],[-0.55788,51.19648],[-0.55819,51.19679]]]]}},
{ "type":"Feature","properties":{"osm_way_id":"142947844","amenity":"parking"},"geometry":{"type":"MultiPolygon","coordinates":[[[[-0.5577,51.194],[-0.55775,51.19398],[-0.55759,51.19381],[-0.55754,51.19383],[-0.5577,51.194]]]]}},
{ "type":"Feature","properties":{"osm_way_id":"142947848","amenity":"parking"},"geometry":{"type":"MultiPolygon","coordinates":[[[[-0.55742,51.19419],[-0.55714,51.19427],[-0.55707,51.19418],[-0.5573,51.19411],[-0.55726,51.19406],[-0.55731,51.19405],[-0.55742,51.19419]]]]}},
{ "type":"Feature","properties":{"osm_way_id":"142947851","amenity":"parking"},"geometry":{"type":"MultiPolygon","coordinates":[[[[-0.55874,51.19387],[-0.55852,51.19399],[-0.5585,51.19397],[-0.55841,51.19402],[-0.55835,51.19398],[-0.55846,51.19391],[-0.55842,51.19388],[-0.55862,51.19377],[-0.55874,51.19387]]]]}},
{ "type":"Feature","properties":{"osm_way_id":"142947854","amenity":"parking"},"geometry":{"type":"MultiPolygon","coordinates":[[[[-0.55632,51.19334],[-0.55632,51.19322],[-0.55583,51.19322],[-0.55583,51.19332],[-0.55632,51.19334]]]]}},
{ "type":"Feature","properties":{"osm_way_id":"142947855","amenity":"parking"},"geometry":{"type":"MultiPolygon","coordinates":[[[[-0.55702,51.19365],[-0.55661,51.19373],[-0.55659,51.19368],[-0.55655,51.19361],[-0.55669,51.19359],[-0.55664,51.19345],[-0.55692,51.19342],[-0.55702,51.19365]]]]}},
{ "type":"Feature","properties":{"osm_way_id":"143256757","amenity":"parking"},"geometry":{"type":"MultiPolygon","coordinates":[[[[-0.55709,51.19255],[-0.5568,51.19258],[-0.55676,51.19241],[-0.55705,51.19239],[-0.55709,51.19255]]]]}},
{ "type":"Feature","properties":{"osm_way_id":"143256764","amenity":"parking"},"geometry":{"type":"MultiPolygon","coordinates":[[[[-0.55787,51.1922],[-0.55766,51.19224],[-0.55754,51.19202],[-0.55758,51.19201],[-0.55757,51.19198],[-0.55768,51.19195],[-0.5577,51.19199],[-0.55775,51.19199],[-0.55787,51.1922]]]]}},
{ "type":"Feature","properties":{"osm_way_id":"143717688","amenity":"parking"},"geometry":{"type":"MultiPolygon","coordinates":[[[[-0.55614,51.19234],[-0.55587,51.19236],[-0.55585,51.19227],[-0.55611,51.19225],[-0.55614,51.19234]]]]}},
{ "type":"Feature","properties":{"osm_way_id":"143725016","amenity":"parking"},"geometry":{"type":"MultiPolygon","coordinates":[[[[-0.55844,51.19288],[-0.5586,51.19279],[-0.55844,51.19266],[-0.5578,51.19293],[-0.55788,51.19301],[-0.55833,51.19279],[-0.55844,51.19288]]]]}},
{ "type":"Feature","properties":{"osm_way_id":"147173247","amenity":"parking"},"geometry":{"type":"MultiPolygon","coordinates":[[[[-0.5505,51.18511],[-0.55065,51.18502],[-0.55086,51.18514],[-0.5509,51.18519],[-0.55063,51.18521],[-0.5505,51.18511]]]]}},
{ "type":"Feature","properties":{"osm_way_id":"147173286","amenity":"parking"},"geometry":{"type":"MultiPolygon","coordinates":[[[[-0.55136,51.18579],[-0.55151,51.18574],[-0.55138,51.18563],[-0.55126,51.18568],[-0.55136,51.18579]]]]}},
{ "type":"Feature","properties":{"osm_way_id":"150081233","amenity":"parking","other":{"access":"customers","fee":"no","parking":"surface","wheelchair":"yes"}}, "geometry":{"type":"MultiPolygon","coordinates":[[[[-0.70899,51.18625],[-0.70909,51.18597],[-0.70886,51.18592],[-0.70876,51.18594],[-0.70865,51.18599],[-0.70838,51.18607],[-0.70817,51.18605],[-0.7081,51.18613],[-0.70843,51.18616],[-0.70843,51.18621],[-0.70856,51.18626],[-0.70869,51.18624],[-0.70899,51.18625]]]]}},
{ "type":"Feature","properties":{"osm_way_id":"150213559","amenity":"parking"},"geometry":{"type":"MultiPolygon","coordinates":[[[[-0.69836,51.18316],[-0.69814,51.18307],[-0.69818,51.18302],[-0.69825,51.18305],[-0.69829,51.18302],[-0.69844,51.18309],[-0.69836,51.18316]]]]}},
{ "type":"Feature","properties":{"osm_way_id":"150213574","amenity":"parking"},"geometry":{"type":"MultiPolygon","coordinates":[[[[-0.69771,51.18323],[-0.69781,51.18315],[-0.69794,51.1832],[-0.69785,51.1833],[-0.69771,51.18323]]]]}},
{ "type":"Feature","properties":{"osm_way_id":"150242400","amenity":"parking"},"geometry":{"type":"MultiPolygon","coordinates":[[[[-0.7067,51.18127],[-0.70668,51.18112],[-0.70648,51.18115],[-0.70648,51.18128],[-0.7067,51.18127]]]]}},
{ "type":"Feature","properties":{"osm_way_id":"150393841","amenity":"parking"},"geometry":{"type":"MultiPolygon","coordinates":[[[[-0.70897,51.18237],[-0.70884,51.18234],[-0.70898,51.18212],[-0.7091,51.18215],[-0.70897,51.18237]]]]}},
{ "type":"Feature","properties":{"osm_way_id":"151042085","name":"Mill Lane","amenity":"parking","other":{"access":"yes","capacity":"32","fee":"yes","operator":"Waverley Borough Council","parking":"surface","wheelchair":"limited"}}, "geometry":{"type":"MultiPolygon","coordinates":[[[[-0.61723,51.18534],[-0.61724,51.1852],[-0.61698,51.18516],[-0.61677,51.18514],[-0.61674,51.18526],[-0.61679,51.1853],[-0.61723,51.18534]]]]}},
{ "type":"Feature","properties":{"osm_way_id":"151229204","amenity":"parking"},"geometry":{"type":"MultiPolygon","coordinates":[[[[-0.53348,51.18343],[-0.53304,51.1836],[-0.53279,51.18335],[-0.53323,51.18318],[-0.53348,51.18343]]]]}},
{ "type":"Feature","properties":{"osm_way_id":"151330229","amenity":"parking"},"geometry":{"type":"MultiPolygon","coordinates":[[[[-0.62599,51.19609],[-0.62618,51.19616],[-0.6263,51.19629],[-0.62632,51.19648],[-0.62614,51.19649],[-0.62611,51.1964],[-0.62598,51.19639],[-0.62599,51.19609]]]]}},
{ "type":"Feature","properties":{"osm_way_id":"151591167","amenity":"parking"},"geometry":{"type":"MultiPolygon","coordinates":[[[[-0.49109,51.14449],[-0.4911,51.14418],[-0.49104,51.14418],[-0.49103,51.14414],[-0.49071,51.14413],[-0.49069,51.14449],[-0.49109,51.14449]]]]}},
{ "type":"Feature","properties":{"osm_way_id":"151591177","name":"Staff Car Park","amenity":"parking","other":{"access":"private"}}, "geometry":{"type":"MultiPolygon","coordinates":[[[[-0.48781,51.14366],[-0.48755,51.14365],[-0.48752,51.14379],[-0.48727,51.14377],[-0.48726,51.14343],[-0.48759,51.14345],[-0.4876,51.1434],[-0.48784,51.14341],[-0.48784,51.14343],[-0.48781,51.14366]]]]}},
{ "type":"Feature","properties":{"osm_way_id":"151594875","amenity":"parking","other":{"access":"private"}}, "geometry":{"type":"MultiPolygon","coordinates":[[[[-0.48981,51.1434],[-0.48897,51.14335],[-0.48895,51.14348],[-0.48935,51.14351],[-0.48936,51.14349],[-0.4896,51.14351],[-0.48974,51.14352],[-0.48973,51.14359],[-0.48989,51.1436],[-0.48997,51.14358],[-0.49003,51.14353],[-0.49005,51.14341],[-0.48981,51.1434]]]]}},
{ "type":"Feature","properties":{"osm_way_id":"151632380","amenity":"parking","other":{"access":"private"}}, "geometry":{"type":"MultiPolygon","coordinates":[[[[-0.78474,51.21021],[-0.78441,51.21043],[-0.78395,51.21023],[-0.78436,51.20998],[-0.78474,51.21021]]]]}},
{ "type":"Feature","properties":{"osm_way_id":"151742943","amenity":"parking"},"geometry":{"type":"MultiPolygon","coordinates":[[[[-0.78584,51.19483],[-0.786,51.19471],[-0.78621,51.19457],[-0.78649,51.19475],[-0.78609,51.195],[-0.78584,51.19483]]]]}},
{ "type":"Feature","properties":{"osm_way_id":"151912623","amenity":"parking","other":{"access":"private"}}, "geometry":{"type":"MultiPolygon","coordinates":[[[[-0.61068,51.18326],[-0.61094,51.18347],[-0.61111,51.18346],[-0.61113,51.18354],[-0.61108,51.1836],[-0.61089,51.18361],[-0.61087,51.18354],[-0.6108,51.1835],[-0.61075,51.18352],[-0.61052,51.18334],[-0.61068,51.18326]]]]}},
{ "type":"Feature","properties":{"osm_way_id":"151912642","amenity":"parking","other":{"access":"private"}}, "geometry":{"type":"MultiPolygon","coordinates":[[[[-0.61053,51.18322],[-0.61023,51.18339],[-0.61017,51.18336],[-0.61049,51.18318],[-0.61053,51.18322]]]]}},
{ "type":"Feature","properties":{"osm_way_id":"152338885","amenity":"parking"},"geometry":{"type":"MultiPolygon","coordinates":[[[[-0.488,51.14017],[-0.48744,51.14015],[-0.48677,51.14014],[-0.48669,51.14013],[-0.48668,51.14004],[-0.48667,51.13999],[-0.48664,51.13957],[-0.48664,51.1392],[-0.48672,51.1392],[-0.48694,51.13921],[-0.48695,51.13908],[-0.48712,51.13908],[-0.48713,51.139],[-0.48723,51.139],[-0.48723,51.13907],[-0.48729,51.13908],[-0.48727,51.13937],[-0.48775,51.13938],[-0.48799,51.13939],[-0.48803,51.13942],[-0.488,51.14017]]]]}},
{ "type":"Feature","properties":{"osm_way_id":"152338929","amenity":"parking"},"geometry":{"type":"MultiPolygon","coordinates":[[[[-0.49017,51.14093],[-0.49005,51.14093],[-0.48997,51.14092],[-0.48988,51.14089],[-0.48977,51.14087],[-0.48984,51.14072],[-0.48957,51.14067],[-0.48961,51.14057],[-0.48966,51.14046],[-0.49011,51.14054],[-0.49026,51.14052],[-0.49033,51.14052],[-0.49028,51.14073],[-0.49022,51.14073],[-0.49018,51.14089],[-0.49017,51.14093]]]]}},
{ "type":"Feature","properties":{"osm_way_id":"152346080","amenity":"parking"},"geometry":{"type":"MultiPolygon","coordinates":[[[[-0.49523,51.14236],[-0.49519,51.14242],[-0.49514,51.14241],[-0.49511,51.1424],[-0.49503,51.14238],[-0.49481,51.14232],[-0.49469,51.1423],[-0.49447,51.14226],[-0.49406,51.1422],[-0.49387,51.14218],[-0.49383,51.14217],[-0.49372,51.14216],[-0.49365,51.14215],[-0.49348,51.14212],[-0.49335,51.1421],[-0.49316,51.14208],[-0.49319,51.14197],[-0.4931,51.14194],[-0.49318,51.14185],[-0.49333,51.14167],[-0.49342,51.1417],[-0.49345,51.14167],[-0.49533,51.14214],[-0.49532,51.14217],[-0.49527,51.14228],[-0.49523,51.14236]]]]}},
{ "type":"Feature","properties":{"osm_way_id":"152346090","amenity":"parking"},"geometry":{"type":"MultiPolygon","coordinates":[[[[-0.49016,51.14193],[-0.4897,51.14183],[-0.48976,51.14168],[-0.48974,51.14168],[-0.48975,51.14165],[-0.48992,51.14169],[-0.48994,51.14166],[-0.49001,51.14167],[-0.49013,51.14172],[-0.49011,51.14174],[-0.49017,51.14176],[-0.49022,51.14179],[-0.49019,51.14182],[-0.49016,51.14193]]]]}},
{ "type":"Feature","properties":{"osm_way_id":"152346091","amenity":"parking"},"geometry":{"type":"MultiPolygon","coordinates":[[[[-0.49285,51.14164],[-0.49228,51.14143],[-0.49234,51.14137],[-0.49215,51.1413],[-0.49218,51.14126],[-0.49175,51.14112],[-0.49172,51.14116],[-0.49132,51.14098],[-0.49077,51.14068],[-0.49083,51.14054],[-0.49158,51.14093],[-0.4917,51.14099],[-0.49185,51.14107],[-0.49294,51.14153],[-0.49285,51.14164]]]]}},
{ "type":"Feature","properties":{"osm_way_id":"152410974","amenity":"parking","other":{"access":"private"}}, "geometry":{"type":"MultiPolygon","coordinates":[[[[-0.48615,51.14242],[-0.48615,51.14199],[-0.48597,51.142],[-0.48584,51.14212],[-0.48587,51.1422],[-0.48592,51.1422],[-0.48598,51.1424],[-0.48615,51.14242]]]]}},
{ "type":"Feature","properties":{"osm_way_id":"152410988","amenity":"parking"},"geometry":{"type":"MultiPolygon","coordinates":[[[[-0.49903,51.14331],[-0.49903,51.14344],[-0.49911,51.14343],[-0.49938,51.14343],[-0.49948,51.14342],[-0.49961,51.14342],[-0.5,51.1434],[-0.49999,51.14309],[-0.49998,51.14302],[-0.49973,51.14301],[-0.49973,51.14312],[-0.49973,51.1432],[-0.49973,51.14325],[-0.49949,51.14326],[-0.4994,51.14326],[-0.4994,51.14331],[-0.49903,51.14331]]]]}},
{ "type":"Feature","properties":{"osm_way_id":"152410989","amenity":"parking","other":{"access":"permissive"}}, "geometry":{"type":"MultiPolygon","coordinates":[[[[-0.4985,51.14398],[-0.49861,51.14382],[-0.49841,51.14379],[-0.4982,51.14378],[-0.49797,51.14376],[-0.49797,51.14371],[-0.49798,51.14359],[-0.49759,51.14363],[-0.4976,51.14369],[-0.49773,51.1437],[-0.49786,51.14375],[-0.49797,51.14383],[-0.49808,51.14383],[-0.49828,51.14392],[-0.4985,51.14398]]]]}},
{ "type":"Feature","properties":{"osm_way_id":"152843139","amenity":"parking","other":{"parking":"surface","surface":"gravel"}}, "geometry":{"type":"MultiPolygon","coordinates":[[[[-0.79509,51.19556],[-0.7951,51.19565],[-0.79533,51.19563],[-0.79532,51.19554],[-0.79509,51.19556]]]]}},
{ "type":"Feature","properties":{"osm_way_id":"152849171","amenity":"parking","other":{"access":"customers"}}, "geometry":{"type":"MultiPolygon","coordinates":[[[[-0.77823,51.17913],[-0.77808,51.17921],[-0.77797,51.17926],[-0.77751,51.17873],[-0.77758,51.17863],[-0.77823,51.17913]]]]}},
{ "type":"Feature","properties":{"osm_way_id":"154211830","amenity":"parking","other":{"access":"private"}}, "geometry":{"type":"MultiPolygon","coordinates":[[[[-0.61166,51.18622],[-0.61158,51.18606],[-0.61136,51.18608],[-0.61135,51.18604],[-0.6112,51.18606],[-0.61119,51.18608],[-0.61123,51.18618],[-0.61138,51.18617],[-0.61142,51.18617],[-0.61143,51.18617],[-0.61144,51.1862],[-0.61145,51.18624],[-0.61166,51.18622]]]]}},
{ "type":"Feature","properties":{"osm_way_id":"154602540","amenity":"parking","other":{"access":"private","fee":"no","park_ride":"no","parking":"surface"}}, "geometry":{"type":"MultiPolygon","coordinates":[[[[-3.00892,51.12809],[-3.00885,51.12814],[-3.00913,51.12828],[-3.0092,51.12822],[-3.00892,51.12809]]]]}},
{ "type":"Feature","properties":{"osm_way_id":"154602546","amenity":"parking","other":{"access":"customers","fee":"no","park_ride":"no","parking":"surface"}}, "geometry":{"type":"MultiPolygon","coordinates":[[[[-3.00938,51.1283],[-3.00923,51.12842],[-3.00906,51.12833],[-3.00913,51.12828],[-3.0092,51.12822],[-3.00938,51.1283]]]]}},
{ "type":"Feature","properties":{"osm_way_id":"154602565","amenity":"parking","other":{"access":"private","capacity:disabled":"yes","fee":"no","park_ride":"no","parking":"surface"}}, "geometry":{"type":"MultiPolygon","coordinates":[[[[-3.00897,51.12753],[-3.00883,51.12761],[-3.0088,51.12763],[-3.00905,51.12777],[-3.00908,51.12779],[-3.00914,51.12783],[-3.00931,51.12767],[-3.00903,51.12753],[-3.00897,51.12753]]]]}},
{ "type":"Feature","properties":{"osm_way_id":"154602572","amenity":"parking","other":{"access":"private","capacity:disabled":"yes","fee":"no","park_ride":"no","parking":"surface"}}, "geometry":{"type":"MultiPolygon","coordinates":[[[[-3.00859,51.12834],[-3.00866,51.12837],[-3.00877,51.12843],[-3.00931,51.12869],[-3.00943,51.1286],[-3.00899,51.12838],[-3.00871,51.12825],[-3.00867,51.12828],[-3.00863,51.12831],[-3.00859,51.12834]]]]}},
{ "type":"Feature","properties":{"osm_way_id":"154756456","amenity":"parking","other":{"access":"private","parking":"surface"}}, "geometry":{"type":"MultiPolygon","coordinates":[[[[-0.61755,51.18643],[-0.61751,51.18624],[-0.61764,51.18623],[-0.61762,51.18618],[-0.61767,51.18617],[-0.61765,51.1861],[-0.61724,51.18614],[-0.61735,51.18651],[-0.61744,51.1865],[-0.61755,51.18643]]]]}},
{ "type":"Feature","properties":{"osm_way_id":"154756458","amenity":"parking","other":{"access":"private","parking":"surface"}}, "geometry":{"type":"MultiPolygon","coordinates":[[[[-0.61797,51.18628],[-0.61784,51.1862],[-0.61766,51.18633],[-0.61774,51.18638],[-0.61785,51.18635],[-0.61789,51.18635],[-0.61797,51.18628]]]]}},
{ "type":"Feature","properties":{"osm_way_id":"154756484","amenity":"parking","other":{"operator":"Waverley Borough Council","wheelchair":"yes"}}, "geometry":{"type":"MultiPolygon","coordinates":[[[[-0.61704,51.185],[-0.61697,51.18497],[-0.61687,51.18491],[-0.61682,51.18496],[-0.61683,51.18503],[-0.61693,51.18507],[-0.61706,51.18509],[-0.61704,51.185]]]]}},
{ "type":"Feature","properties":{"osm_way_id":"154756493","amenity":"parking","other":{"access":"private","parking":"surface"}}, "geometry":{"type":"MultiPolygon","coordinates":[[[[-0.61858,51.18624],[-0.61854,51.18622],[-0.61809,51.18597],[-0.61825,51.18585],[-0.61869,51.18609],[-0.61866,51.18612],[-0.6187,51.18614],[-0.61858,51.18624]]]]}},
{ "type":"Feature","properties":{"osm_way_id":"154798303","amenity":"parking","other":{"access":"private","parking":"garage"}}, "geometry":{"type":"MultiPolygon","coordinates":[[[[-0.61464,51.18517],[-0.61441,51.18521],[-0.61438,51.18499],[-0.61457,51.18496],[-0.61464,51.18517]]]]}},
{ "type":"Feature","properties":{"osm_way_id":"157394159","amenity":"parking","other":{"access":"customers","operator":"National Trust","parking":"surface","wheelchair":"yes","wheelchair:description":"3 Blue Badge spaces. Gravel surface and paths, muddy in places."}}, "geometry":{"type":"MultiPolygon","coordinates":[[[[-0.58651,51.16166],[-0.58646,51.16157],[-0.58625,51.16121],[-0.58579,51.16137],[-0.58579,51.16167],[-0.5859,51.16172],[-0.58615,51.16181],[-0.58608,51.16196],[-0.58562,51.16221],[-0.58543,51.16229],[-0.58468,51.16262],[-0.58383,51.163],[-0.58333,51.1632],[-0.58333,51.16352],[-0.58436,51.16307],[-0.585,51.16275],[-0.58566,51.16239],[-0.58638,51.16205],[-0.58649,51.16196],[-0.5867,51.16187],[-0.58651,51.16166]]]]}},
{ "type":"Feature","properties":{"osm_way_id":"157501033","amenity":"parking","other":{"access":"yes","fee":"yes","operator":"National Trust","parking":"surface","toilets:wheelchair":"yes","wheelchair":"yes","wheelchair:description":"Dedicated Blue Badge spaces near entrance to cafe with toilet."}}, "geometry":{"type":"MultiPolygon","coordinates":[[[[-0.72994,51.11427],[-0.72981,51.11427],[-0.72975,51.11427],[-0.72972,51.11427],[-0.72906,51.11444],[-0.72895,51.114],[-0.72919,51.11398],[-0.72916,51.11387],[-0.72962,51.11385],[-0.72964,51.11395],[-0.72994,51.11393],[-0.72994,51.11427]]]]}},
{ "type":"Feature","properties":{"osm_way_id":"157533647","amenity":"parking","other":{"parking":"surface","wheelchair":"yes"}}, "geometry":{"type":"MultiPolygon","coordinates":[[[[-0.60486,51.18713],[-0.60489,51.18712],[-0.60479,51.18706],[-0.60473,51.18699],[-0.60453,51.18673],[-0.6045,51.18669],[-0.60438,51.18651],[-0.60432,51.18653],[-0.60395,51.18663],[-0.60366,51.18673],[-0.60303,51.18695],[-0.60284,51.18673],[-0.60265,51.18681],[-0.6024,51.18694],[-0.60189,51.18719],[-0.60222,51.18743],[-0.60239,51.18736],[-0.6027,51.18745],[-0.60282,51.18746],[-0.60291,51.18747],[-0.60314,51.18756],[-0.60327,51.18756],[-0.6037,51.18749],[-0.60374,51.18756],[-0.60399,51.18747],[-0.60416,51.18741],[-0.60464,51.18725],[-0.60489,51.18715],[-0.60486,51.18713]]]]}},
{ "type":"Feature","properties":{"osm_way_id":"157533656","amenity":"parking","other":{"capacity":"34","parking":"surface"}}, "geometry":{"type":"MultiPolygon","coordinates":[[[[-0.60532,51.18681],[-0.60508,51.18654],[-0.6048,51.18662],[-0.60494,51.18678],[-0.60506,51.1869],[-0.60532,51.18681]]]]}},
{ "type":"Feature","properties":{"osm_way_id":"158717573","name":"Godalming Leisure Centre Car Park","amenity":"parking","other":{"fee":"no","parking":"surface"}}, "geometry":{"type":"MultiPolygon","coordinates":[[[[-0.5964,51.19906],[-0.59608,51.19925],[-0.59615,51.19929],[-0.59618,51.19936],[-0.59618,51.1994],[-0.59653,51.19942],[-0.5967,51.19946],[-0.59679,51.19938],[-0.59658,51.19917],[-0.5964,51.19906]]]]}},
{ "type":"Feature","properties":{"osm_way_id":"163605573","amenity":"parking","other":{"access":"private","parking":"surface","ref":"Hospital Staff"}}, "geometry":{"type":"MultiPolygon","coordinates":[[[[-0.78506,51.2199],[-0.78478,51.21971],[-0.7849,51.21963],[-0.78503,51.21957],[-0.78511,51.21965],[-0.78532,51.21956],[-0.78554,51.21978],[-0.78543,51.21983],[-0.78533,51.21978],[-0.78526,51.21982],[-0.78539,51.21989],[-0.78521,51.22001],[-0.78506,51.2199]]]]}},
{ "type":"Feature","properties":{"osm_way_id":"163605878","amenity":"parking","other":{"access":"private","ref":"Nursery"}}, "geometry":{"type":"MultiPolygon","coordinates":[[[[-0.785,51.21945],[-0.78484,51.2195],[-0.78489,51.21956],[-0.78494,51.21961],[-0.78503,51.21957],[-0.78509,51.21955],[-0.785,51.21945]]]]}},
{ "type":"Feature","properties":{"osm_way_id":"163686895","amenity":"parking","other":{"access":"customers"}}, "geometry":{"type":"MultiPolygon","coordinates":[[[[-0.78418,51.22152],[-0.78459,51.22112],[-0.7845,51.22111],[-0.78435,51.22106],[-0.78437,51.22104],[-0.78417,51.22094],[-0.78402,51.22081],[-0.78395,51.22074],[-0.7839,51.22076],[-0.78382,51.22066],[-0.78384,51.22055],[-0.78391,51.22032],[-0.78354,51.22009],[-0.78307,51.2203],[-0.78308,51.22065],[-0.7833,51.22089],[-0.78341,51.22099],[-0.7837,51.22123],[-0.78366,51.22127],[-0.78377,51.22139],[-0.7838,51.22137],[-0.78418,51.22152]]]]}},
{ "type":"Feature","properties":{"osm_way_id":"163687016","amenity":"parking"},"geometry":{"type":"MultiPolygon","coordinates":[[[[-0.78371,51.22003],[-0.78368,51.22008],[-0.78387,51.2202],[-0.78396,51.22014],[-0.784,51.22017],[-0.78478,51.21971],[-0.78465,51.21962],[-0.78424,51.21975],[-0.7838,51.21993],[-0.78371,51.21998],[-0.78376,51.22001],[-0.78371,51.22003]]]]}},
{ "type":"Feature","properties":{"osm_way_id":"164361632","amenity":"parking","other":{"fee":"no"}}, "geometry":{"type":"MultiPolygon","coordinates":[[[[-0.59047,51.19835],[-0.59053,51.19845],[-0.59085,51.19845],[-0.59091,51.1984],[-0.5909,51.19838],[-0.59081,51.19831],[-0.5907,51.19827],[-0.59047,51.19835]]]]}},
{ "type":"Feature","properties":{"osm_way_id":"166896738","amenity":"parking","other":{"parking":"surface"}}, "geometry":{"type":"MultiPolygon","coordinates":[[[[-0.66951,51.79179],[-0.66956,51.79177],[-0.66921,51.79148],[-0.66916,51.79151],[-0.66951,51.79179]]]]}},
{ "type":"Feature","properties":{"osm_way_id":"169539809","name":"Georgian House Hotel","amenity":"parking","other":{"access":"customers"}}, "geometry":{"type":"MultiPolygon","coordinates":[[[[-0.70918,51.08945],[-0.70902,51.08952],[-0.70926,51.08973],[-0.709,51.08982],[-0.7087,51.08958],[-0.70872,51.08951],[-0.70884,51.08943],[-0.70872,51.08933],[-0.7088,51.08928],[-0.70887,51.08924],[-0.70918,51.08945]]]]}},
{ "type":"Feature","properties":{"osm_way_id":"172336476","amenity":"parking","other":{"access":"customers","parking":"surface"}}, "geometry":{"type":"MultiPolygon","coordinates":[[[[-0.80809,51.2118],[-0.80793,51.21189],[-0.8079,51.21187],[-0.80776,51.21196],[-0.80807,51.21217],[-0.8082,51.21211],[-0.80804,51.21198],[-0.8082,51.21189],[-0.80809,51.2118]]]]}},
{ "type":"Feature","properties":{"osm_way_id":"179148374","name":"Season Ticket holders","amenity":"parking","other":{"addr:city":"Farnham","parking":"private","wheelchair":"limited","wheelchair:description":"Two dedicated Blue Badge spaces for Season Ticket holders only. Accessible route to both platforms needs checking."}}, "geometry":{"type":"MultiPolygon","coordinates":[[[[-0.7921,51.21151],[-0.79237,51.21168],[-0.79209,51.21186],[-0.79185,51.21168],[-0.7919,51.21166],[-0.79187,51.21164],[-0.79204,51.21154],[-0.7921,51.21151]]]]}},
{ "type":"Feature","properties":{"osm_way_id":"179320876","amenity":"parking","other":{"access":"customers","fee":"no","parking":"surface"}}, "geometry":{"type":"MultiPolygon","coordinates":[[[[-0.79143,51.19868],[-0.79109,51.1988],[-0.79093,51.19859],[-0.79132,51.19849],[-0.79143,51.19868]]]]}},
{ "type":"Feature","properties":{"osm_way_id":"182976501","amenity":"parking"},"geometry":{"type":"MultiPolygon","coordinates":[[[[-0.63698,51.16334],[-0.63643,51.16432],[-0.63657,51.16435],[-0.63682,51.16398],[-0.63688,51.16393],[-0.63698,51.16393],[-0.63705,51.16399],[-0.63706,51.16403],[-0.63685,51.16421],[-0.63695,51.16427],[-0.63747,51.16397],[-0.63743,51.16393],[-0.63748,51.16387],[-0.63744,51.16379],[-0.63733,51.16384],[-0.63731,51.16382],[-0.63736,51.16374],[-0.63731,51.1637],[-0.6373,51.16359],[-0.63698,51.16334]]]]}},
{ "type":"Feature","properties":{"osm_way_id":"188397885","name":"Lower Hart","amenity":"parking","other":{"access":"yes","fee":"yes","operator":"Waverley Borough Council","parking":"surface"}}, "geometry":{"type":"MultiPolygon","coordinates":[[[[-0.80266,51.21573],[-0.80352,51.21549],[-0.80365,51.21547],[-0.80387,51.2154],[-0.8039,51.21535],[-0.8036,51.21494],[-0.80353,51.21489],[-0.8034,51.21491],[-0.80232,51.21524],[-0.80266,51.21573]]]]}},
{ "type":"Feature","properties":{"osm_way_id":"188640552","amenity":"parking"},"geometry":{"type":"MultiPolygon","coordinates":[[[[-0.56819,51.19872],[-0.56792,51.19853],[-0.56805,51.19848],[-0.56821,51.1986],[-0.56828,51.19858],[-0.56836,51.19861],[-0.56819,51.19872]]]]}},
{ "type":"Feature","properties":{"osm_way_id":"188640561","amenity":"parking"},"geometry":{"type":"MultiPolygon","coordinates":[[[[-0.56867,51.19857],[-0.56871,51.19845],[-0.56862,51.1977],[-0.56856,51.19757],[-0.56834,51.19749],[-0.56814,51.1976],[-0.56837,51.19805],[-0.56819,51.19813],[-0.56853,51.19857],[-0.56863,51.19857],[-0.56867,51.19857]]]]}},
{ "type":"Feature","properties":{"osm_way_id":"189966662","amenity":"parking","other":{"parking":"surface"}}, "geometry":{"type":"MultiPolygon","coordinates":[[[[-0.80294,51.21877],[-0.8029,51.21853],[-0.80278,51.21854],[-0.80277,51.2185],[-0.80254,51.21852],[-0.80257,51.21873],[-0.8028,51.21872],[-0.80281,51.21877],[-0.80294,51.21877]]]]}},
{ "type":"Feature","properties":{"osm_way_id":"190045918","amenity":"parking","other":{"access":"customers"}}, "geometry":{"type":"MultiPolygon","coordinates":[[[[-0.64566,51.0881],[-0.64517,51.08799],[-0.6452,51.08789],[-0.64543,51.08794],[-0.64562,51.08797],[-0.64569,51.08783],[-0.64573,51.08776],[-0.646,51.08771],[-0.64566,51.0881]]]]}},
{ "type":"Feature","properties":{"osm_way_id":"190049112","amenity":"parking","other":{"access":"customers"}}, "geometry":{"type":"MultiPolygon","coordinates":[[[[-0.62949,51.10907],[-0.62924,51.10913],[-0.62911,51.10899],[-0.62911,51.10888],[-0.62943,51.10884],[-0.62949,51.10907]]]]}},
{ "type":"Feature","properties":{"osm_way_id":"190049121","amenity":"parking","other":{"access":"customers","fee":"no","parking":"surface"}}, "geometry":{"type":"MultiPolygon","coordinates":[[[[-0.62914,51.10996],[-0.62908,51.1099],[-0.62897,51.10996],[-0.62894,51.10994],[-0.62891,51.10991],[-0.62917,51.10978],[-0.6296,51.10954],[-0.6296,51.10959],[-0.6296,51.10964],[-0.62954,51.10964],[-0.62948,51.10966],[-0.62943,51.1097],[-0.62938,51.10975],[-0.62938,51.10977],[-0.62938,51.10978],[-0.62939,51.1098],[-0.62942,51.10981],[-0.62937,51.10985],[-0.62914,51.10996]]]]}},
{ "type":"Feature","properties":{"osm_way_id":"190492695","amenity":"parking","other":{"fee":"no","parking":"surface"}}, "geometry":{"type":"MultiPolygon","coordinates":[[[[-0.51714,51.09616],[-0.51698,51.09626],[-0.51689,51.09621],[-0.51705,51.0961],[-0.51714,51.09616]]]]}},
{ "type":"Feature","properties":{"osm_way_id":"191194989","amenity":"parking","other":{"access":"customers"}}, "geometry":{"type":"MultiPolygon","coordinates":[[[[-0.75984,51.22011],[-0.75938,51.22016],[-0.75935,51.22008],[-0.75912,51.22003],[-0.75907,51.22008],[-0.75833,51.21976],[-0.75855,51.21958],[-0.75919,51.21972],[-0.75953,51.21981],[-0.75962,51.21987],[-0.75975,51.21996],[-0.75983,51.22],[-0.75984,51.22011]]]]}},
{ "type":"Feature","properties":{"osm_way_id":"191195009","amenity":"parking","other":{"access":"customers"}}, "geometry":{"type":"MultiPolygon","coordinates":[[[[-0.76485,51.22059],[-0.76475,51.22062],[-0.76487,51.22077],[-0.76488,51.22081],[-0.76482,51.22081],[-0.76494,51.22146],[-0.7652,51.22144],[-0.7654,51.22137],[-0.76537,51.22133],[-0.76533,51.22128],[-0.76517,51.22128],[-0.76511,51.22099],[-0.76494,51.22099],[-0.76493,51.22093],[-0.76499,51.22083],[-0.76504,51.22072],[-0.76493,51.2207],[-0.76485,51.22059]]]]}},
{ "type":"Feature","properties":{"osm_way_id":"191722367","amenity":"parking"},"geometry":{"type":"MultiPolygon","coordinates":[[[[-0.75427,51.12281],[-0.75432,51.12288],[-0.75447,51.12307],[-0.75453,51.12316],[-0.75417,51.12331],[-0.75416,51.12329],[-0.75389,51.12299],[-0.75391,51.12298],[-0.75427,51.12281]]]]}},
{ "type":"Feature","properties":{"osm_way_id":"192437055","amenity":"parking","other":{"access":"customers","fee":"no","parking":"surface"}}, "geometry":{"type":"MultiPolygon","coordinates":[[[[-0.79729,51.21531],[-0.79745,51.21523],[-0.79728,51.21509],[-0.79712,51.21517],[-0.79729,51.21531]]]]}},
{ "type":"Feature","properties":{"osm_way_id":"192437057","amenity":"parking","other":{"access":"customers","parking":"surface"}}, "geometry":{"type":"MultiPolygon","coordinates":[[[[-0.79699,51.214],[-0.79666,51.21415],[-0.79697,51.2144],[-0.79728,51.21425],[-0.79699,51.214]]]]}},
{ "type":"Feature","properties":{"osm_way_id":"192440245","amenity":"parking","other":{"access":"private"}}, "geometry":{"type":"MultiPolygon","coordinates":[[[[-0.79887,51.21374],[-0.7988,51.21364],[-0.79854,51.21371],[-0.7986,51.21378],[-0.79887,51.21374]]]]}},
{ "type":"Feature","properties":{"osm_way_id":"192440247","amenity":"parking","other":{"access":"private","capacity":"30","fee":"yes","operator":"Farnham Conservative Club","surface":"asphalt"}}, "geometry":{"type":"MultiPolygon","coordinates":[[[[-0.79916,51.2143],[-0.79898,51.21435],[-0.79885,51.21424],[-0.79871,51.2143],[-0.79858,51.21416],[-0.79854,51.21402],[-0.79883,51.21396],[-0.79891,51.21413],[-0.79905,51.21411],[-0.79907,51.21416],[-0.79908,51.21418],[-0.79916,51.2143]]]]}},
{ "type":"Feature","properties":{"osm_way_id":"192440250","amenity":"parking","other":{"access":"private"}}, "geometry":{"type":"MultiPolygon","coordinates":[[[[-0.78565,51.20905],[-0.78556,51.209],[-0.78533,51.20916],[-0.78527,51.20913],[-0.78516,51.2092],[-0.78497,51.20909],[-0.78481,51.20925],[-0.78515,51.20949],[-0.78545,51.20968],[-0.78553,51.20961],[-0.78506,51.20933],[-0.78519,51.20923],[-0.78522,51.20925],[-0.78533,51.2093],[-0.78565,51.20905]]]]}},
{ "type":"Feature","properties":{"osm_way_id":"199787391","building":"yes"},"geometry":{"type":"MultiPolygon","coordinates":[[[[-0.56693,51.18711],[-0.56693,51.18704],[-0.56671,51.18705],[-0.56671,51.18712],[-0.56693,51.18711]]]]}},
{ "type":"Feature","properties":{"osm_way_id":"200281484","amenity":"parking"},"geometry":{"type":"MultiPolygon","coordinates":[[[[-0.64533,51.13287],[-0.64572,51.13305],[-0.64595,51.1329],[-0.64623,51.13272],[-0.64596,51.13257],[-0.64533,51.13287]]]]}},
{ "type":"Feature","properties":{"osm_way_id":"200281485","amenity":"parking"},"geometry":{"type":"MultiPolygon","coordinates":[[[[-0.6448,51.13352],[-0.64487,51.13386],[-0.64502,51.13379],[-0.64558,51.1333],[-0.64543,51.1333],[-0.6448,51.13352]]]]}},
{ "type":"Feature","properties":{"osm_way_id":"203271371","amenity":"parking","other":{"parking":"surface"}}, "geometry":{"type":"MultiPolygon","coordinates":[[[[-0.77646,51.2278],[-0.77639,51.22784],[-0.77652,51.22792],[-0.77649,51.22793],[-0.77655,51.22797],[-0.77629,51.22811],[-0.77625,51.22812],[-0.77507,51.22808],[-0.77508,51.22803],[-0.775,51.22803],[-0.77504,51.2277],[-0.77511,51.2277],[-0.77512,51.22765],[-0.77533,51.22765],[-0.77533,51.2277],[-0.77536,51.2277],[-0.77538,51.22769],[-0.77539,51.22768],[-0.77551,51.22762],[-0.77537,51.22753],[-0.77542,51.22749],[-0.77537,51.22746],[-0.77548,51.22739],[-0.77544,51.22736],[-0.7756,51.22726],[-0.77556,51.22723],[-0.77573,51.22713],[-0.776,51.22731],[-0.77583,51.22741],[-0.77592,51.22746],[-0.77646,51.2278]]]]}},
{ "type":"Feature","properties":{"osm_way_id":"203540571","amenity":"parking","other":{"parking":"surface"}}, "geometry":{"type":"MultiPolygon","coordinates":[[[[-0.80534,51.2122],[-0.80533,51.21226],[-0.806,51.21212],[-0.80591,51.21192],[-0.80564,51.21197],[-0.80552,51.21209],[-0.80546,51.21209],[-0.80534,51.21205],[-0.80534,51.2122]]]]}},
{ "type":"Feature","properties":{"osm_way_id":"208466309","amenity":"parking","other":{"access":"private","parking":"surface","surface":"asphalt"}}, "geometry":{"type":"MultiPolygon","coordinates":[[[[-0.53197,51.12064],[-0.53184,51.12044],[-0.53159,51.12049],[-0.53154,51.12042],[-0.53123,51.12049],[-0.53125,51.12053],[-0.53122,51.12056],[-0.53126,51.12068],[-0.53133,51.12073],[-0.53138,51.12075],[-0.53145,51.12074],[-0.53197,51.12064]]]]}},
{ "type":"Feature","properties":{"osm_way_id":"222172602","name":"Coach Park","amenity":"parking","other":{"access":"no","addr:city":"Farnham","addr:street":"The Hart","bus":"designated","designation":"Coach Parking","parking":"surface","wheelchair":"no","wheelchair:description":"Coach parking only, not for setting down passengers."}}, "geometry":{"type":"MultiPolygon","coordinates":[[[[-0.80328,51.21471],[-0.80332,51.21477],[-0.80346,51.21473],[-0.80342,51.21467],[-0.80328,51.21471]]]]}},
{ "type":"Feature","properties":{"osm_way_id":"222172604","amenity":"parking","other":{"parking":"street_side"}}, "geometry":{"type":"MultiPolygon","coordinates":[[[[-0.80328,51.21471],[-0.80342,51.21467],[-0.80327,51.21448],[-0.80313,51.21452],[-0.80328,51.21471]]]]}},
{ "type":"Feature","properties":{"osm_way_id":"222973440","amenity":"parking"},"geometry":{"type":"MultiPolygon","coordinates":[[[[-0.63086,51.15716],[-0.63053,51.15709],[-0.63079,51.15673],[-0.63099,51.15678],[-0.63088,51.15696],[-0.63098,51.15699],[-0.63086,51.15716]]]]}},
{ "type":"Feature","properties":{"osm_way_id":"228437211","building":"residential"},"geometry":{"type":"MultiPolygon","coordinates":[[[[-0.69239,51.18379],[-0.69236,51.18372],[-0.69252,51.1837],[-0.69255,51.18377],[-0.69239,51.18379]]]]}},
{ "type":"Feature","properties":{"osm_way_id":"228437212","building":"residential"},"geometry":{"type":"MultiPolygon","coordinates":[[[[-0.69177,51.18144],[-0.69172,51.18136],[-0.69188,51.18132],[-0.69194,51.1814],[-0.69177,51.18144]]]]}},
{ "type":"Feature","properties":{"osm_way_id":"228437214","building":"residential"},"geometry":{"type":"MultiPolygon","coordinates":[[[[-0.69269,51.18193],[-0.69261,51.18201],[-0.69276,51.18207],[-0.69283,51.182],[-0.69269,51.18193]]]]}},
{ "type":"Feature","properties":{"osm_way_id":"228437216","building":"residential"},"geometry":{"type":"MultiPolygon","coordinates":[[[[-0.69374,51.18236],[-0.69398,51.18244],[-0.69392,51.18251],[-0.69368,51.18243],[-0.69374,51.18236]]]]}},
{ "type":"Feature","properties":{"osm_way_id":"228448945","amenity":"parking","other":{"parking":"surface"}}, "geometry":{"type":"MultiPolygon","coordinates":[[[[-0.69303,51.18418],[-0.69296,51.18432],[-0.69361,51.18444],[-0.69367,51.1843],[-0.69303,51.18418]]]]}},
{ "type":"Feature","properties":{"osm_way_id":"232269231","amenity":"parking"},"geometry":{"type":"MultiPolygon","coordinates":[[[[-0.71592,51.1328],[-0.71606,51.13255],[-0.7161,51.13235],[-0.71606,51.13228],[-0.71598,51.13235],[-0.71585,51.13263],[-0.71583,51.13279],[-0.71592,51.1328]]]]}},
{ "type":"Feature","properties":{"osm_way_id":"234353570","amenity":"parking"},"geometry":{"type":"MultiPolygon","coordinates":[[[[-0.75203,51.18295],[-0.75184,51.18288],[-0.75179,51.18292],[-0.75164,51.18324],[-0.75183,51.18325],[-0.7519,51.18324],[-0.75191,51.18321],[-0.75203,51.18295]]]]}},
{ "type":"Feature","properties":{"osm_way_id":"236124899","name":"Frensham Great Pond Car Park","amenity":"parking","other":{"fee":"yes","operator":"National Trust","operator:wikidata":"Q333515","operator:wikipedia":"en:National Trust","parking":"surface"}}, "geometry":{"type":"MultiPolygon","coordinates":[[[[-0.79436,51.15698],[-0.79449,51.15701],[-0.79609,51.1575],[-0.79509,51.15895],[-0.79458,51.15866],[-0.79424,51.15846],[-0.79339,51.15789],[-0.79318,51.15777],[-0.79436,51.15698]]]]}},
{ "type":"Feature","properties":{"osm_way_id":"236406784","amenity":"parking","other":{"fee":"no","parking":"surface"}}, "geometry":{"type":"MultiPolygon","coordinates":[[[[-0.55374,51.1665],[-0.55359,51.16649],[-0.55354,51.16648],[-0.55348,51.16656],[-0.55348,51.16657],[-0.55342,51.16664],[-0.55335,51.16674],[-0.55332,51.1668],[-0.55344,51.16683],[-0.55351,51.16684],[-0.55353,51.16684],[-0.55356,51.1668],[-0.55376,51.1665],[-0.55374,51.1665]]]]}},
{ "type":"Feature","properties":{"osm_way_id":"236407448","amenity":"parking"},"geometry":{"type":"MultiPolygon","coordinates":[[[[-0.55418,51.16663],[-0.5544,51.1665],[-0.55431,51.16635],[-0.55462,51.16625],[-0.55419,51.16598],[-0.55382,51.16645],[-0.55396,51.16652],[-0.55418,51.16663]]]]}},
{ "type":"Feature","properties":{"osm_way_id":"236531404","amenity":"parking","other":{"access":"customers"}}, "geometry":{"type":"MultiPolygon","coordinates":[[[[-0.56821,51.14557],[-0.56828,51.14545],[-0.56887,51.14559],[-0.56894,51.1455],[-0.56908,51.14553],[-0.56903,51.14559],[-0.56911,51.14562],[-0.56903,51.14573],[-0.56821,51.14557]]]]}},
{ "type":"Feature","properties":{"osm_way_id":"236582502","amenity":"parking","other":{"access":"yes","fee":"no","parking":"surface"}}, "geometry":{"type":"MultiPolygon","coordinates":[[[[-0.56971,51.14578],[-0.56961,51.14565],[-0.56956,51.14558],[-0.56948,51.14544],[-0.56947,51.1454],[-0.5695,51.14531],[-0.56971,51.14525],[-0.56987,51.14522],[-0.56977,51.14533],[-0.56974,51.14543],[-0.56974,51.14552],[-0.56975,51.14561],[-0.56977,51.14569],[-0.56978,51.14573],[-0.56979,51.14577],[-0.56971,51.14578]]]]}},
{ "type":"Feature","properties":{"osm_way_id":"236583717","amenity":"parking","other":{"access":"customers","fee":"no","parking":"street_side"}}, "geometry":{"type":"MultiPolygon","coordinates":[[[[-0.5695,51.14531],[-0.56947,51.1454],[-0.56948,51.14544],[-0.56937,51.14545],[-0.56926,51.14547],[-0.5694,51.14529],[-0.5695,51.14531]]]]}},
{ "type":"Feature","properties":{"osm_way_id":"236790171","amenity":"parking","other":{"access":"private"}}, "geometry":{"type":"MultiPolygon","coordinates":[[[[-0.53093,51.12046],[-0.53091,51.12042],[-0.53105,51.12039],[-0.53107,51.12043],[-0.53093,51.12046]]]]}},
{ "type":"Feature","properties":{"osm_way_id":"236790172","amenity":"parking","other":{"access":"private"}}, "geometry":{"type":"MultiPolygon","coordinates":[[[[-0.5306,51.12043],[-0.53062,51.12043],[-0.53068,51.12053],[-0.53066,51.12054],[-0.5306,51.12043]]]]}},
{ "type":"Feature","properties":{"osm_way_id":"236794102","amenity":"parking","other":{"access":"private"}}, "geometry":{"type":"MultiPolygon","coordinates":[[[[-0.53056,51.12146],[-0.53058,51.1215],[-0.53059,51.12153],[-0.53047,51.12155],[-0.53046,51.12149],[-0.53028,51.12151],[-0.53022,51.12139],[-0.53029,51.12133],[-0.53031,51.12135],[-0.53037,51.12132],[-0.53042,51.12134],[-0.53045,51.12136],[-0.53048,51.12138],[-0.53053,51.12143],[-0.53056,51.12146]]]]}},
{ "type":"Feature","properties":{"osm_way_id":"239367294","amenity":"parking","other":{"access":"private"}}, "geometry":{"type":"MultiPolygon","coordinates":[[[[-0.50918,51.10765],[-0.50915,51.10768],[-0.50911,51.1077],[-0.50903,51.10772],[-0.50875,51.10777],[-0.50863,51.1078],[-0.50855,51.10781],[-0.5085,51.1078],[-0.50846,51.10779],[-0.5084,51.10777],[-0.50835,51.10774],[-0.50831,51.1077],[-0.50827,51.10765],[-0.50824,51.10759],[-0.50821,51.10753],[-0.5082,51.10747],[-0.50821,51.10742],[-0.50823,51.10738],[-0.50826,51.10735],[-0.5083,51.10732],[-0.50834,51.1073],[-0.50843,51.10728],[-0.50904,51.10717],[-0.5092,51.10754],[-0.5092,51.10758],[-0.5092,51.10762],[-0.50918,51.10765]]]]}},
{ "type":"Feature","properties":{"osm_way_id":"239367296","amenity":"parking","other":{"access":"private"}}, "geometry":{"type":"MultiPolygon","coordinates":[[[[-0.50824,51.10806],[-0.50803,51.10811],[-0.50784,51.10783],[-0.50773,51.10765],[-0.50794,51.10759],[-0.50824,51.10806]]]]}},
{ "type":"Feature","properties":{"osm_way_id":"239595526","name":"Riverside 2 Car Park","amenity":"parking","other":{"fee":"yes"}}, "geometry":{"type":"MultiPolygon","coordinates":[[[[-0.79114,51.21689],[-0.79118,51.21692],[-0.79048,51.2174],[-0.79055,51.21769],[-0.78979,51.21781],[-0.78974,51.21746],[-0.78974,51.21745],[-0.78966,51.21719],[-0.79057,51.21661],[-0.79061,51.21663],[-0.79075,51.21656],[-0.79078,51.21655],[-0.79084,51.2166],[-0.79086,51.21666],[-0.7909,51.21663],[-0.79109,51.21674],[-0.79103,51.21677],[-0.79114,51.21689]]]]}},
{ "type":"Feature","properties":{"osm_way_id":"249243511","name":"Hurtwood Car Park 3: Mil Plain, Pitch Hill aka The Quarry","amenity":"parking","other":{"access":"yes","fee":"no","park_ride":"no","parking":"surface","supervised":"no","surface":"ground"}}, "geometry":{"type":"MultiPolygon","coordinates":[[[[-0.45713,51.17349],[-0.45733,51.17333],[-0.45731,51.17322],[-0.45745,51.17306],[-0.45752,51.17292],[-0.45754,51.17285],[-0.4575,51.17282],[-0.45735,51.17282],[-0.4573,51.17289],[-0.45708,51.17308],[-0.45677,51.17331],[-0.45676,51.17334],[-0.45683,51.17338],[-0.45707,51.1735],[-0.45713,51.17349]]]]}},
{ "type":"Feature","properties":{"osm_way_id":"249347490","amenity":"parking"},"geometry":{"type":"MultiPolygon","coordinates":[[[[-0.56972,51.14235],[-0.56971,51.14225],[-0.5697,51.14219],[-0.56968,51.14216],[-0.56963,51.14216],[-0.56959,51.14219],[-0.5696,51.14234],[-0.56963,51.14239],[-0.56965,51.14241],[-0.56971,51.1424],[-0.56972,51.14235]]]]}},
{ "type":"Feature","properties":{"osm_way_id":"254604428","amenity":"parking","other":{"access":"public","parking":"surface"}}, "geometry":{"type":"MultiPolygon","coordinates":[[[[-0.62507,51.13662],[-0.62495,51.13672],[-0.62475,51.13662],[-0.62486,51.13652],[-0.62507,51.13662]]]]}},
{ "type":"Feature","properties":{"osm_way_id":"254605662","amenity":"parking"},"geometry":{"type":"MultiPolygon","coordinates":[[[[-0.61799,51.14322],[-0.61796,51.14305],[-0.61744,51.1431],[-0.61747,51.14326],[-0.61799,51.14322]]]]}},
{ "type":"Feature","properties":{"osm_way_id":"283566894","amenity":"parking","other":{"access":"permissive","fee":"no"}}, "geometry":{"type":"MultiPolygon","coordinates":[[[[-0.4412,51.15162],[-0.44127,51.15168],[-0.44146,51.15188],[-0.44125,51.15194],[-0.44099,51.15167],[-0.44116,51.15162],[-0.4412,51.15162]]]]}},
{ "type":"Feature","properties":{"osm_way_id":"292003458","name":"St James Carpark","amenity":"parking","other":{"access":"yes","fee":"yes","parking":"surface"}}, "geometry":{"type":"MultiPolygon","coordinates":[[[[-0.79274,51.21753],[-0.7924,51.21767],[-0.7925,51.21779],[-0.79216,51.21789],[-0.79212,51.2179],[-0.79208,51.21791],[-0.79171,51.21756],[-0.79216,51.21747],[-0.7926,51.21744],[-0.79267,51.21747],[-0.79274,51.21753]]]]}},
{ "type":"Feature","properties":{"osm_way_id":"292003494","amenity":"parking"},"geometry":{"type":"MultiPolygon","coordinates":[[[[-0.7923,51.21739],[-0.79208,51.21741],[-0.79157,51.2168],[-0.79155,51.21678],[-0.79173,51.21671],[-0.7923,51.21739]]]]}},
{ "type":"Feature","properties":{"osm_way_id":"299867394","name":"Hurtwood Car Park 6: Winterfold (\"Radar Site\")","amenity":"parking","other":{"access":"yes","fee":"no","park_ride":"no","parking":"surface","supervised":"no","surface":"ground"}}, "geometry":{"type":"MultiPolygon","coordinates":[[[[-0.48714,51.17376],[-0.48723,51.17372],[-0.4873,51.17364],[-0.48739,51.17354],[-0.48735,51.1734],[-0.48715,51.17339],[-0.48706,51.17349],[-0.48712,51.17374],[-0.48714,51.17376]]]]}},
{ "type":"Feature","properties":{"osm_way_id":"303093569","amenity":"parking","other":{"access":"private","capacity":"5","fee":"no","park_ride":"no","supervised":"no"}}, "geometry":{"type":"MultiPolygon","coordinates":[[[[-0.77099,51.22401],[-0.77083,51.22401],[-0.77083,51.22399],[-0.77079,51.22399],[-0.77079,51.22391],[-0.77099,51.22391],[-0.77099,51.22401]]]]}},
{ "type":"Feature","properties":{"osm_way_id":"303096970","amenity":"parking","other":{"access":"private","fee":"no","park_ride":"no","supervised":"no"}}, "geometry":{"type":"MultiPolygon","coordinates":[[[[-0.77099,51.22386],[-0.77086,51.22386],[-0.77086,51.22381],[-0.77091,51.22381],[-0.77091,51.22377],[-0.77099,51.22377],[-0.77099,51.22386]]]]}},
{ "type":"Feature","properties":{"osm_way_id":"304818029","name":"Croft Road","amenity":"parking","other":{"capacity":"60","description":"pay and display","fee":"yes","operator":"Waverley Borough Council"}}, "geometry":{"type":"MultiPolygon","coordinates":[[[[-0.61068,51.18421],[-0.61025,51.18424],[-0.61033,51.18476],[-0.61073,51.18463],[-0.61068,51.18421]]]]}},
{ "type":"Feature","properties":{"osm_way_id":"304820066","name":"Queen's Street","amenity":"parking","other":{"access":"yes","capacity":"55","fee":"yes","parking":"surface","wheelchair":"yes"}}, "geometry":{"type":"MultiPolygon","coordinates":[[[[-0.61061,51.18536],[-0.61036,51.18537],[-0.61036,51.18529],[-0.61014,51.18529],[-0.61013,51.18522],[-0.61019,51.18522],[-0.61018,51.18515],[-0.6102,51.18512],[-0.61034,51.18511],[-0.61034,51.18503],[-0.61041,51.18502],[-0.61042,51.18497],[-0.61075,51.1848],[-0.61081,51.18512],[-0.61058,51.18514],[-0.61061,51.18536]]]]}},
{ "type":"Feature","properties":{"osm_way_id":"305159589","name":"Miss James","amenity":"parking","other":{"addr:city":"Hindhead","addr:street":"Portsmouth Road","capacity":"4","operator":"The National Trust","parking":"surface","toilets:wheelchair":"no","wheelchair":"limited","wheelchair:description":"NT members free. Gravel surface. Miss James walk has 'some uneven surfaces and moderate gradients' (3km)"}}, "geometry":{"type":"MultiPolygon","coordinates":[[[[-0.73871,51.11025],[-0.73856,51.11014],[-0.73844,51.11021],[-0.7386,51.11033],[-0.73871,51.11025]]]]}},
{ "type":"Feature","properties":{"osm_way_id":"305535702","amenity":"parking","other":{"access":"private","fee":"no"}}, "geometry":{"type":"MultiPolygon","coordinates":[[[[-0.77081,51.22409],[-0.77099,51.22409],[-0.77099,51.22413],[-0.77081,51.22413],[-0.77081,51.22409]]]]}},
{ "type":"Feature","properties":{"osm_way_id":"305535768","amenity":"parking","other":{"access":"private","fee":"no"}}, "geometry":{"type":"MultiPolygon","coordinates":[[[[-0.77104,51.22414],[-0.77105,51.22423],[-0.77081,51.22423],[-0.77081,51.22414],[-0.77104,51.22414]]]]}},
{ "type":"Feature","properties":{"osm_way_id":"312124644","amenity":"parking"},"geometry":{"type":"MultiPolygon","coordinates":[[[[-0.63134,51.15618],[-0.63127,51.15587],[-0.63185,51.15585],[-0.63191,51.15612],[-0.63148,51.15629],[-0.63134,51.15618]]]]}},
{ "type":"Feature","properties":{"osm_way_id":"312679608","amenity":"parking","other":{"access":"customers"}}, "geometry":{"type":"MultiPolygon","coordinates":[[[[-0.81021,51.18839],[-0.81012,51.1883],[-0.80982,51.18842],[-0.80989,51.18851],[-0.81021,51.18839]]]]}},
{ "type":"Feature","properties":{"osm_way_id":"313435343","amenity":"parking"},"geometry":{"type":"MultiPolygon","coordinates":[[[[-0.49989,51.14758],[-0.49973,51.14761],[-0.49959,51.14735],[-0.49961,51.14733],[-0.49963,51.14735],[-0.49977,51.14732],[-0.49978,51.14738],[-0.49978,51.14747],[-0.49986,51.14747],[-0.49989,51.14758]]]]}},
{ "type":"Feature","properties":{"osm_way_id":"313436162","amenity":"parking"},"geometry":{"type":"MultiPolygon","coordinates":[[[[-0.49649,51.15111],[-0.49667,51.15082],[-0.49661,51.15076],[-0.49654,51.15079],[-0.49631,51.15101],[-0.49641,51.15109],[-0.49649,51.15111]]]]}},
{ "type":"Feature","properties":{"osm_way_id":"313436191","amenity":"parking"},"geometry":{"type":"MultiPolygon","coordinates":[[[[-0.49685,51.1504],[-0.49671,51.15031],[-0.49663,51.1504],[-0.49649,51.15035],[-0.49645,51.15041],[-0.49621,51.15032],[-0.49616,51.15038],[-0.49615,51.15044],[-0.49621,51.15048],[-0.49631,51.15052],[-0.49644,51.15059],[-0.49685,51.1504]]]]}},
{ "type":"Feature","properties":{"osm_way_id":"313436478","amenity":"parking"},"geometry":{"type":"MultiPolygon","coordinates":[[[[-0.49461,51.15005],[-0.49477,51.15001],[-0.49474,51.14997],[-0.49492,51.14991],[-0.49493,51.14994],[-0.49498,51.14993],[-0.49517,51.14987],[-0.4951,51.14979],[-0.49502,51.14966],[-0.495,51.14962],[-0.49474,51.1497],[-0.49471,51.14968],[-0.49467,51.14967],[-0.49463,51.14967],[-0.49459,51.14968],[-0.49455,51.1497],[-0.49452,51.14974],[-0.49451,51.14977],[-0.49433,51.14983],[-0.4944,51.14989],[-0.49444,51.14994],[-0.49446,51.14996],[-0.49447,51.14997],[-0.49452,51.14996],[-0.49461,51.15005]]]]}},
{ "type":"Feature","properties":{"osm_way_id":"313436479","amenity":"parking"},"geometry":{"type":"MultiPolygon","coordinates":[[[[-0.49386,51.15168],[-0.49388,51.15171],[-0.49405,51.15167],[-0.49402,51.15163],[-0.49416,51.15159],[-0.49423,51.1516],[-0.49427,51.15164],[-0.49433,51.15162],[-0.49426,51.15156],[-0.49424,51.15151],[-0.49424,51.15147],[-0.4942,51.15147],[-0.49413,51.15147],[-0.49411,51.15152],[-0.49388,51.15157],[-0.49359,51.15165],[-0.49298,51.1518],[-0.49302,51.15187],[-0.49321,51.15182],[-0.49326,51.15188],[-0.49337,51.15185],[-0.49335,51.15181],[-0.49386,51.15168]]]]}},
{ "type":"Feature","properties":{"osm_way_id":"313436566","amenity":"parking"},"geometry":{"type":"MultiPolygon","coordinates":[[[[-0.4938,51.15123],[-0.49376,51.15118],[-0.49352,51.15125],[-0.49356,51.1513],[-0.4938,51.15123]]]]}},
{ "type":"Feature","properties":{"osm_way_id":"313742196","amenity":"parking"},"geometry":{"type":"MultiPolygon","coordinates":[[[[-0.49744,51.14906],[-0.49741,51.14898],[-0.49732,51.14896],[-0.49691,51.1491],[-0.49638,51.14924],[-0.49638,51.14929],[-0.49643,51.14936],[-0.49647,51.14941],[-0.49746,51.14908],[-0.49744,51.14906]]]]}},
{ "type":"Feature","properties":{"osm_way_id":"313743660","amenity":"parking"},"geometry":{"type":"MultiPolygon","coordinates":[[[[-0.49103,51.1488],[-0.49108,51.14873],[-0.49103,51.14863],[-0.49098,51.14865],[-0.49088,51.14865],[-0.4908,51.14867],[-0.49076,51.14875],[-0.49103,51.1488]]]]}},
{ "type":"Feature","properties":{"osm_way_id":"313745204","amenity":"parking"},"geometry":{"type":"MultiPolygon","coordinates":[[[[-0.49061,51.14803],[-0.49068,51.14783],[-0.49059,51.14782],[-0.49053,51.14802],[-0.49061,51.14803]]]]}},
{ "type":"Feature","properties":{"osm_way_id":"313745205","amenity":"parking"},"geometry":{"type":"MultiPolygon","coordinates":[[[[-0.49141,51.14767],[-0.49142,51.14762],[-0.49084,51.14756],[-0.49083,51.14761],[-0.49141,51.14767]]]]}},
{ "type":"Feature","properties":{"osm_way_id":"314918762","amenity":"parking"},"geometry":{"type":"MultiPolygon","coordinates":[[[[-0.49698,51.15242],[-0.49676,51.15247],[-0.49666,51.15233],[-0.49672,51.1523],[-0.4968,51.15225],[-0.49687,51.1522],[-0.4969,51.15223],[-0.49704,51.15237],[-0.49696,51.15239],[-0.49698,51.15242]]]]}},
{ "type":"Feature","properties":{"osm_way_id":"314918763","amenity":"parking"},"geometry":{"type":"MultiPolygon","coordinates":[[[[-0.49592,51.14933],[-0.4961,51.14928],[-0.49615,51.14925],[-0.49608,51.14923],[-0.49606,51.14922],[-0.49604,51.14913],[-0.49606,51.14906],[-0.49608,51.149],[-0.49615,51.14899],[-0.49613,51.14892],[-0.49604,51.14897],[-0.49583,51.1491],[-0.49602,51.1492],[-0.49596,51.14924],[-0.49592,51.14933]]]]}},
{ "type":"Feature","properties":{"osm_way_id":"314918764","amenity":"parking"},"geometry":{"type":"MultiPolygon","coordinates":[[[[-0.50005,51.14811],[-0.50029,51.14802],[-0.50014,51.14787],[-0.50034,51.14779],[-0.50009,51.14753],[-0.49993,51.14757],[-0.49998,51.14765],[-0.49998,51.14774],[-0.49994,51.14787],[-0.49983,51.14795],[-0.49962,51.14802],[-0.49955,51.14804],[-0.4996,51.14809],[-0.49966,51.14819],[-0.50002,51.14807],[-0.50005,51.14811]]]]}},
{ "type":"Feature","properties":{"osm_way_id":"314919634","name":"Mann's Customer Carpartk","amenity":"parking"},"geometry":{"type":"MultiPolygon","coordinates":[[[[-0.48942,51.14254],[-0.48958,51.14255],[-0.48957,51.14225],[-0.48955,51.14222],[-0.48945,51.14221],[-0.48953,51.142],[-0.48941,51.14198],[-0.48933,51.14227],[-0.48912,51.14225],[-0.48909,51.14224],[-0.48907,51.14234],[-0.48907,51.14244],[-0.48943,51.14245],[-0.48942,51.14254]]]]}},
{ "type":"Feature","properties":{"osm_way_id":"318361870","name":"Old Swimming Pool Carpark","amenity":"parking"},"geometry":{"type":"MultiPolygon","coordinates":[[[[-0.49513,51.15164],[-0.49485,51.15171],[-0.49463,51.15133],[-0.49486,51.15128],[-0.49489,51.15127],[-0.49513,51.15164]]]]}},
{ "type":"Feature","properties":{"osm_way_id":"319945515","amenity":"parking"},"geometry":{"type":"MultiPolygon","coordinates":[[[[-0.43092,51.1411],[-0.43077,51.14099],[-0.43153,51.14059],[-0.43168,51.14071],[-0.43092,51.1411]]]]}},
{ "type":"Feature","properties":{"osm_way_id":"323452578","amenity":"parking","other":{"access":"permissive"}}, "geometry":{"type":"MultiPolygon","coordinates":[[[[-0.61793,51.1425],[-0.61769,51.14251],[-0.61768,51.14232],[-0.61792,51.14231],[-0.61793,51.1425]]]]}},
{ "type":"Feature","properties":{"osm_way_id":"330834034","amenity":"parking","other":{"access":"private","parking":"surface"}}, "geometry":{"type":"MultiPolygon","coordinates":[[[[-0.77267,51.22375],[-0.77224,51.224],[-0.77207,51.2239],[-0.77207,51.22368],[-0.77254,51.22366],[-0.77267,51.22375]]]]}},
{ "type":"Feature","properties":{"osm_way_id":"330834035","amenity":"parking","other":{"access":"private","parking":"surface"}}, "geometry":{"type":"MultiPolygon","coordinates":[[[[-0.77299,51.22358],[-0.77287,51.22348],[-0.77281,51.22303],[-0.77318,51.22281],[-0.77369,51.22319],[-0.77299,51.22358]]]]}},
{ "type":"Feature","properties":{"osm_way_id":"332235318","amenity":"parking","other":{"surface":"paved"}}, "geometry":{"type":"MultiPolygon","coordinates":[[[[-0.8015,51.21362],[-0.80171,51.21359],[-0.80166,51.21335],[-0.80165,51.21306],[-0.80164,51.21265],[-0.8015,51.21266],[-0.80143,51.21343],[-0.80148,51.21342],[-0.8015,51.21362]]]]}},
{ "type":"Feature","properties":{"osm_way_id":"334216909","amenity":"parking"},"geometry":{"type":"MultiPolygon","coordinates":[[[[-0.53541,51.10585],[-0.5355,51.10585],[-0.53574,51.10575],[-0.53595,51.10565],[-0.53605,51.10554],[-0.53599,51.10538],[-0.53583,51.10537],[-0.53568,51.10537],[-0.53541,51.10537],[-0.53522,51.10541],[-0.53515,51.10557],[-0.53519,51.10569],[-0.53533,51.1058],[-0.53541,51.10585]]]]}},
{ "type":"Feature","properties":{"osm_way_id":"335087720","amenity":"parking","other":{"access":"private","fee":"no"}}, "geometry":{"type":"MultiPolygon","coordinates":[[[[-0.7711,51.22409],[-0.77124,51.22409],[-0.77124,51.22413],[-0.7711,51.22413],[-0.7711,51.22409]]]]}},
{ "type":"Feature","properties":{"osm_way_id":"335087721","amenity":"parking","other":{"access":"private","fee":"no"}}, "geometry":{"type":"MultiPolygon","coordinates":[[[[-0.77124,51.22391],[-0.77139,51.22391],[-0.77139,51.22395],[-0.77124,51.22395],[-0.77124,51.22393],[-0.77124,51.22391]]]]}},
{ "type":"Feature","properties":{"osm_way_id":"335087722","amenity":"parking","other":{"access":"private","fee":"no"}}, "geometry":{"type":"MultiPolygon","coordinates":[[[[-0.77139,51.22387],[-0.77146,51.22387],[-0.77146,51.22391],[-0.77139,51.22391],[-0.77139,51.22387]]]]}},
{ "type":"Feature","properties":{"osm_way_id":"335087723","amenity":"parking","other":{"access":"private","fee":"no"}}, "geometry":{"type":"MultiPolygon","coordinates":[[[[-0.77139,51.22381],[-0.77146,51.22381],[-0.77146,51.22385],[-0.77139,51.22385],[-0.77139,51.22381]]]]}},
{ "type":"Feature","properties":{"osm_way_id":"335087724","amenity":"parking","other":{"access":"private","fee":"no"}}, "geometry":{"type":"MultiPolygon","coordinates":[[[[-0.7706,51.22387],[-0.77067,51.22387],[-0.77067,51.22391],[-0.7706,51.22391],[-0.7706,51.22387]]]]}},
{ "type":"Feature","properties":{"osm_way_id":"335087725","amenity":"parking","other":{"access":"private","fee":"no"}}, "geometry":{"type":"MultiPolygon","coordinates":[[[[-0.7706,51.22382],[-0.77067,51.22382],[-0.77067,51.22386],[-0.7706,51.22386],[-0.7706,51.22382]]]]}},
{ "type":"Feature","properties":{"osm_way_id":"335087726","amenity":"parking","other":{"access":"private","fee":"no"}}, "geometry":{"type":"MultiPolygon","coordinates":[[[[-0.77109,51.22377],[-0.77116,51.22377],[-0.77116,51.22382],[-0.7712,51.22382],[-0.7712,51.22386],[-0.77109,51.22386],[-0.77109,51.22377]]]]}},
{ "type":"Feature","properties":{"osm_way_id":"335087727","amenity":"parking","other":{"access":"private","fee":"no"}}, "geometry":{"type":"MultiPolygon","coordinates":[[[[-0.7711,51.22393],[-0.77124,51.22393],[-0.77124,51.22395],[-0.77124,51.224],[-0.77108,51.224],[-0.77108,51.22397],[-0.7711,51.22397],[-0.7711,51.22393]]]]}},
{ "type":"Feature","properties":{"osm_way_id":"335365025","name":"Disabled Parking Places","amenity":"parking","other":{"parking":"surface"}}, "geometry":{"type":"MultiPolygon","coordinates":[[[[-0.77639,51.22784],[-0.77586,51.2275],[-0.77592,51.22746],[-0.77646,51.2278],[-0.77639,51.22784]]]]}},
{ "type":"Feature","properties":{"osm_way_id":"335365026","name":"Disabled Parking Places","amenity":"parking","other":{"parking":"surface"}}, "geometry":{"type":"MultiPolygon","coordinates":[[[[-0.77583,51.22741],[-0.7756,51.22726],[-0.77556,51.22723],[-0.77573,51.22713],[-0.776,51.22731],[-0.77583,51.22741]]]]}},
{ "type":"Feature","properties":{"osm_way_id":"335365038","name":"Coach Parking","amenity":"parking","other":{"parking":"surface"}}, "geometry":{"type":"MultiPolygon","coordinates":[[[[-0.77559,51.22705],[-0.77554,51.22702],[-0.77511,51.2274],[-0.77516,51.22742],[-0.77559,51.22705]]]]}},
{ "type":"Feature","properties":{"osm_way_id":"335365040","amenity":"parking","other":{"parking":"surface"}}, "geometry":{"type":"MultiPolygon","coordinates":[[[[-0.7756,51.2264],[-0.77566,51.22643],[-0.77546,51.22658],[-0.77544,51.22663],[-0.77538,51.22667],[-0.77513,51.22655],[-0.77513,51.22647],[-0.77513,51.22637],[-0.77493,51.22628],[-0.77484,51.22624],[-0.77491,51.22619],[-0.77515,51.226],[-0.77549,51.22618],[-0.77541,51.22624],[-0.77565,51.22637],[-0.7756,51.2264]]]]}},
{ "type":"Feature","properties":{"osm_way_id":"335365041","amenity":"parking","other":{"parking":"surface"}}, "geometry":{"type":"MultiPolygon","coordinates":[[[[-0.77553,51.22689],[-0.77547,51.22687],[-0.77558,51.22678],[-0.77564,51.22681],[-0.77553,51.22689]]]]}},
{ "type":"Feature","properties":{"osm_way_id":"335365042","amenity":"parking","other":{"parking":"surface"}}, "geometry":{"type":"MultiPolygon","coordinates":[[[[-0.77505,51.22736],[-0.77499,51.22733],[-0.7754,51.22697],[-0.77546,51.227],[-0.77505,51.22736]]]]}},
{ "type":"Feature","properties":{"osm_way_id":"335557725","name":"Disabled Parking Places","amenity":"parking","other":{"capacity":"2"}}, "geometry":{"type":"MultiPolygon","coordinates":[[[[-0.77493,51.22628],[-0.77499,51.22623],[-0.77491,51.22619],[-0.77484,51.22624],[-0.77493,51.22628]]]]}},
{ "type":"Feature","properties":{"osm_way_id":"335641729","amenity":"parking","other":{"access":"yes","fee":"no","operator":"site contractor","parking":"surface"}}, "geometry":{"type":"MultiPolygon","coordinates":[[[[-0.77953,51.22052],[-0.77937,51.22071],[-0.77945,51.22073],[-0.77961,51.22054],[-0.77953,51.22052]]]]}},
{ "type":"Feature","properties":{"osm_way_id":"336929391","name":"Bourne Mill","amenity":"parking","other":{"parking":"surface"}}, "geometry":{"type":"MultiPolygon","coordinates":[[[[-0.78139,51.22007],[-0.78111,51.22007],[-0.78095,51.22003],[-0.78104,51.21985],[-0.78113,51.21974],[-0.78123,51.21972],[-0.78125,51.21977],[-0.78132,51.21985],[-0.78136,51.21995],[-0.78138,51.22001],[-0.78139,51.22007]]]]}},
{ "type":"Feature","properties":{"osm_way_id":"337746115","amenity":"parking","other":{"parking":"surface"}}, "geometry":{"type":"MultiPolygon","coordinates":[[[[-0.77422,51.22291],[-0.77405,51.22301],[-0.774,51.22298],[-0.77418,51.22288],[-0.77422,51.22291]]]]}},
{ "type":"Feature","properties":{"osm_way_id":"337746116","amenity":"parking","other":{"parking":"surface"}}, "geometry":{"type":"MultiPolygon","coordinates":[[[[-0.774,51.22303],[-0.77383,51.22313],[-0.77378,51.2231],[-0.77396,51.223],[-0.774,51.22303]]]]}},
{ "type":"Feature","properties":{"osm_way_id":"337746117","amenity":"parking","other":{"parking":"surface"}}, "geometry":{"type":"MultiPolygon","coordinates":[[[[-0.77457,51.22272],[-0.77435,51.22284],[-0.77431,51.22281],[-0.77452,51.22269],[-0.77457,51.22272]]]]}},
{ "type":"Feature","properties":{"osm_way_id":"337746119","amenity":"parking","other":{"parking":"surface"}}, "geometry":{"type":"MultiPolygon","coordinates":[[[[-0.77481,51.22259],[-0.7746,51.22271],[-0.77455,51.22267],[-0.77476,51.22256],[-0.77481,51.22259]]]]}},
{ "type":"Feature","properties":{"osm_way_id":"337746120","amenity":"parking","other":{"parking":"surface"}}, "geometry":{"type":"MultiPolygon","coordinates":[[[[-0.77488,51.22252],[-0.77443,51.22237],[-0.77446,51.22234],[-0.77492,51.22248],[-0.77488,51.22252]]]]}},
{ "type":"Feature","properties":{"osm_way_id":"337746121","amenity":"parking","other":{"parking":"surface"}}, "geometry":{"type":"MultiPolygon","coordinates":[[[[-0.77513,51.22208],[-0.77476,51.22196],[-0.7748,51.22192],[-0.77516,51.22204],[-0.77513,51.22208]]]]}},
{ "type":"Feature","properties":{"osm_way_id":"337746122","amenity":"parking","other":{"parking":"surface"}}, "geometry":{"type":"MultiPolygon","coordinates":[[[[-0.77526,51.22222],[-0.77525,51.22224],[-0.77514,51.22238],[-0.77508,51.22236],[-0.77521,51.2222],[-0.77526,51.22222]]]]}},
{ "type":"Feature","properties":{"osm_way_id":"337746123","amenity":"parking","other":{"parking":"surface"}}, "geometry":{"type":"MultiPolygon","coordinates":[[[[-0.77522,51.22209],[-0.77524,51.22213],[-0.77518,51.22215],[-0.77515,51.22211],[-0.77522,51.22209]]]]}},
{ "type":"Feature","properties":{"osm_way_id":"337746124","amenity":"parking","other":{"parking":"surface"}}, "geometry":{"type":"MultiPolygon","coordinates":[[[[-0.77516,51.22217],[-0.77506,51.22229],[-0.77499,51.22227],[-0.77509,51.22215],[-0.77516,51.22217]]]]}},
{ "type":"Feature","properties":{"osm_way_id":"337746125","name":"Disabled Parking Places","amenity":"parking","other":{"capacity":"22","fee":"no","operator":"Sainsburys","parking":"surface","surface":"asphalt"}}, "geometry":{"type":"MultiPolygon","coordinates":[[[[-0.77636,51.22222],[-0.77595,51.22244],[-0.77585,51.22238],[-0.77627,51.22215],[-0.77636,51.22222]]]]}},
{ "type":"Feature","properties":{"osm_way_id":"337746126","name":"Disabled Parking Places","amenity":"parking","other":{"capacity":"12","parking":"surface"}}, "geometry":{"type":"MultiPolygon","coordinates":[[[[-0.77572,51.22237],[-0.77566,51.22233],[-0.77609,51.22209],[-0.77615,51.22213],[-0.77572,51.22237]]]]}},
{ "type":"Feature","properties":{"osm_way_id":"337746127","name":"Disabled Parking Places","amenity":"parking","other":{"capacity":"6","fee":"no","operator":"Sainsburys","parking":"surface","surface":"asphalt"}}, "geometry":{"type":"MultiPolygon","coordinates":[[[[-0.77648,51.22234],[-0.77639,51.22227],[-0.77626,51.22234],[-0.77635,51.22241],[-0.77648,51.22234]]]]}},
{ "type":"Feature","properties":{"osm_way_id":"337746128","name":"Disabled Parking Places","amenity":"parking","other":{"capacity":"4","fee":"no","operator":"Sainsburys","parking":"surface","surface":"asphalt"}}, "geometry":{"type":"MultiPolygon","coordinates":[[[[-0.77666,51.22243],[-0.77658,51.22247],[-0.77649,51.22241],[-0.77657,51.22236],[-0.77666,51.22243]]]]}},
{ "type":"Feature","properties":{"osm_way_id":"337746474","amenity":"parking","other":{"parking":"surface"}}, "geometry":{"type":"MultiPolygon","coordinates":[[[[-0.77502,51.22664],[-0.77507,51.22659],[-0.77521,51.22666],[-0.77542,51.22676],[-0.77538,51.22679],[-0.77517,51.22669],[-0.77516,51.2267],[-0.77502,51.22664]]]]}},
{ "type":"Feature","properties":{"osm_way_id":"337746475","name":"Disabled Parking Places","amenity":"parking","other":{"capacity":"4","parking":"surface"}}, "geometry":{"type":"MultiPolygon","coordinates":[[[[-0.77516,51.2267],[-0.77517,51.22669],[-0.77521,51.22666],[-0.77507,51.22659],[-0.77502,51.22664],[-0.77516,51.2267]]]]}},
{ "type":"Feature","properties":{"osm_way_id":"338276017","amenity":"parking","other":{"parking":"surface"}}, "geometry":{"type":"MultiPolygon","coordinates":[[[[-0.77409,51.22287],[-0.77364,51.22311],[-0.7736,51.22308],[-0.77362,51.22307],[-0.77404,51.22283],[-0.77409,51.22287]]]]}},
{ "type":"Feature","properties":{"osm_way_id":"338276018","amenity":"parking","other":{"parking":"surface"}}, "geometry":{"type":"MultiPolygon","coordinates":[[[[-0.77404,51.22283],[-0.77362,51.22253],[-0.77367,51.2225],[-0.7741,51.2228],[-0.77404,51.22283]]]]}},
{ "type":"Feature","properties":{"osm_way_id":"338276019","amenity":"parking","other":{"parking":"surface"}}, "geometry":{"type":"MultiPolygon","coordinates":[[[[-0.77465,51.22255],[-0.77461,51.22257],[-0.77425,51.22277],[-0.7742,51.22274],[-0.77436,51.22265],[-0.77453,51.22255],[-0.77456,51.22254],[-0.77458,51.22253],[-0.7746,51.22252],[-0.77465,51.22255]]]]}},
{ "type":"Feature","properties":{"osm_way_id":"338276020","name":"Disabled Parking Place","amenity":"parking"},"geometry":{"type":"MultiPolygon","coordinates":[[[[-0.77456,51.22254],[-0.77458,51.22253],[-0.7746,51.22252],[-0.77465,51.22255],[-0.77461,51.22257],[-0.77456,51.22254]]]]}},
{ "type":"Feature","properties":{"osm_way_id":"338276021","amenity":"parking","other":{"parking":"surface"}}, "geometry":{"type":"MultiPolygon","coordinates":[[[[-0.77453,51.22255],[-0.77448,51.22251],[-0.77452,51.22249],[-0.77458,51.22253],[-0.77456,51.22254],[-0.77453,51.22255]]]]}},
{ "type":"Feature","properties":{"osm_way_id":"338276023","amenity":"parking","other":{"parking":"surface"}}, "geometry":{"type":"MultiPolygon","coordinates":[[[[-0.77448,51.22187],[-0.77433,51.22182],[-0.77436,51.22178],[-0.77451,51.22183],[-0.77448,51.22187]]]]}},
{ "type":"Feature","properties":{"osm_way_id":"338276024","amenity":"parking","other":{"parking":"surface"}}, "geometry":{"type":"MultiPolygon","coordinates":[[[[-0.77426,51.2218],[-0.77401,51.22172],[-0.77404,51.22168],[-0.77429,51.22176],[-0.77426,51.2218]]]]}},
{ "type":"Feature","properties":{"osm_way_id":"338752443","amenity":"parking","other":{"parking":"lane"}}, "geometry":{"type":"MultiPolygon","coordinates":[[[[-0.77847,51.22063],[-0.77846,51.22062],[-0.77841,51.22063],[-0.77833,51.22064],[-0.77823,51.22064],[-0.77823,51.22066],[-0.77834,51.22066],[-0.77842,51.22065],[-0.77847,51.22063]]]]}},
{ "type":"Feature","properties":{"osm_way_id":"338752444","amenity":"parking","other":{"maxstay":"4 hr","parking":"lane","surface":"asphalt"}}, "geometry":{"type":"MultiPolygon","coordinates":[[[[-0.77885,51.22048],[-0.77919,51.22029],[-0.77937,51.22017],[-0.77943,51.22012],[-0.77949,51.22007],[-0.77955,51.21999],[-0.77957,51.21994],[-0.7796,51.21964],[-0.77957,51.21963],[-0.77954,51.21993],[-0.77952,51.21999],[-0.77946,51.22006],[-0.77941,51.22011],[-0.77935,51.22016],[-0.77917,51.22027],[-0.77883,51.22047],[-0.77885,51.22048]]]]}},
{ "type":"Feature","properties":{"osm_way_id":"338763642","amenity":"parking","other":{"motorcar":"yes","parking":"surface"}}, "geometry":{"type":"MultiPolygon","coordinates":[[[[-0.78525,51.23495],[-0.78511,51.235],[-0.78506,51.23495],[-0.78505,51.23483],[-0.78508,51.23473],[-0.78515,51.23472],[-0.78513,51.23471],[-0.78511,51.2347],[-0.78502,51.2347],[-0.78504,51.23454],[-0.78513,51.23446],[-0.78522,51.23447],[-0.78527,51.23452],[-0.78524,51.23467],[-0.78522,51.23472],[-0.78521,51.23486],[-0.78525,51.23495]]]]}},
{ "type":"Feature","properties":{"osm_way_id":"338852180","amenity":"parking","other":{"access":"customers","parking":"surface","surface":"asphalt"}}, "geometry":{"type":"MultiPolygon","coordinates":[[[[-0.77949,51.21979],[-0.77935,51.21981],[-0.77934,51.21977],[-0.77942,51.21975],[-0.77945,51.21975],[-0.77947,51.21975],[-0.77949,51.21979]]]]}},
{ "type":"Feature","properties":{"osm_way_id":"338852181","amenity":"parking","other":{"access":"customers","parking":"surface","surface":"asphalt"}}, "geometry":{"type":"MultiPolygon","coordinates":[[[[-0.77933,51.21975],[-0.77918,51.21978],[-0.77917,51.21974],[-0.77931,51.21971],[-0.77933,51.21975]]]]}},
{ "type":"Feature","properties":{"osm_way_id":"338852182","amenity":"parking","other":{"access":"customers","parking":"surface","surface":"asphalt"}}, "geometry":{"type":"MultiPolygon","coordinates":[[[[-0.77935,51.21993],[-0.77932,51.21991],[-0.77917,51.21984],[-0.77921,51.21981],[-0.7794,51.21989],[-0.77935,51.21993]]]]}},
{ "type":"Feature","properties":{"osm_way_id":"338855887","amenity":"parking","other":{"access":"private"}}, "geometry":{"type":"MultiPolygon","coordinates":[[[[-0.78222,51.21948],[-0.78134,51.21961],[-0.78131,51.21957],[-0.78219,51.21943],[-0.78222,51.21948]]]]}},
{ "type":"Feature","properties":{"osm_way_id":"339190927","amenity":"parking"},"geometry":{"type":"MultiPolygon","coordinates":[[[[-0.76558,51.22108],[-0.7655,51.22111],[-0.76566,51.2213],[-0.76601,51.2212],[-0.76589,51.22106],[-0.76563,51.22114],[-0.76558,51.22108]]]]}},
{ "type":"Feature","properties":{"osm_way_id":"342973479","amenity":"parking","other":{"capacity":"6","parking":"surface"}}, "geometry":{"type":"MultiPolygon","coordinates":[[[[-0.5573,51.1932],[-0.55729,51.19316],[-0.55708,51.19317],[-0.55708,51.19322],[-0.5573,51.1932]]]]}},
{ "type":"Feature","properties":{"osm_way_id":"344360265","amenity":"parking"},"geometry":{"type":"MultiPolygon","coordinates":[[[[-0.78754,51.17134],[-0.78753,51.17126],[-0.78717,51.17128],[-0.78725,51.17164],[-0.78739,51.1716],[-0.78729,51.17144],[-0.78731,51.1714],[-0.78736,51.17137],[-0.78743,51.17135],[-0.78754,51.17134]]]]}},
{ "type":"Feature","properties":{"osm_way_id":"344495056","amenity":"parking","other":{"parking":"surface","wheelchair":"yes"}}, "geometry":{"type":"MultiPolygon","coordinates":[[[[-0.76744,51.22669],[-0.76701,51.2263],[-0.76749,51.2261],[-0.76752,51.22612],[-0.76793,51.22649],[-0.76808,51.22651],[-0.76825,51.22667],[-0.76652,51.22739],[-0.76595,51.22726],[-0.76549,51.22685],[-0.76547,51.22678],[-0.76569,51.2267],[-0.76574,51.22674],[-0.76614,51.22709],[-0.76627,51.2272],[-0.76744,51.22672],[-0.76744,51.22669]]]]}},
{ "type":"Feature","properties":{"osm_way_id":"344495571","name":"Over Flow","amenity":"parking","other":{"parking":"surface","wheelchair":"yes"}}, "geometry":{"type":"MultiPolygon","coordinates":[[[[-0.76808,51.22651],[-0.76838,51.22638],[-0.76841,51.22626],[-0.76878,51.22611],[-0.7685,51.22586],[-0.76817,51.226],[-0.76795,51.22593],[-0.76752,51.22612],[-0.76793,51.22649],[-0.76808,51.22651]]]]}},
{ "type":"Feature","properties":{"osm_way_id":"358401873","amenity":"parking","other":{"parking":"surface"}}, "geometry":{"type":"MultiPolygon","coordinates":[[[[-0.79359,51.17289],[-0.79344,51.17288],[-0.79335,51.17296],[-0.7932,51.173],[-0.79303,51.17304],[-0.79292,51.17306],[-0.79268,51.17307],[-0.79254,51.17304],[-0.79234,51.17297],[-0.79228,51.17297],[-0.79225,51.17303],[-0.79227,51.17311],[-0.79292,51.17311],[-0.79356,51.17311],[-0.79364,51.17311],[-0.79363,51.17307],[-0.79363,51.17294],[-0.79359,51.17289]]]]}},
{ "type":"Feature","properties":{"osm_way_id":"363623044","name":"Upper Hart Car Park","amenity":"parking","other":{"access":"yes","fee":"yes","parking":"surface"}}, "geometry":{"type":"MultiPolygon","coordinates":[[[[-0.80392,51.21608],[-0.80314,51.2163],[-0.80332,51.21658],[-0.80248,51.21683],[-0.80225,51.21652],[-0.80236,51.21649],[-0.80246,51.21646],[-0.80215,51.21602],[-0.80222,51.216],[-0.80235,51.21601],[-0.80254,51.21597],[-0.80368,51.21571],[-0.80392,51.21608]]]]}},
{ "type":"Feature","properties":{"osm_way_id":"372088808","amenity":"parking"},"geometry":{"type":"MultiPolygon","coordinates":[[[[-0.69103,51.10488],[-0.69045,51.10487],[-0.69043,51.10502],[-0.69068,51.10504],[-0.69094,51.10505],[-0.69101,51.10492],[-0.69103,51.10488]]]]}},
{ "type":"Feature","properties":{"osm_way_id":"372527851","name":"Crooksbury Hill car park","amenity":"parking"},"geometry":{"type":"MultiPolygon","coordinates":[[[[-0.74424,51.20439],[-0.74411,51.2042],[-0.74449,51.20409],[-0.74454,51.20417],[-0.74462,51.20428],[-0.7444,51.20434],[-0.74424,51.20439]]]]}},
{ "type":"Feature","properties":{"osm_way_id":"372587245","amenity":"parking"},"geometry":{"type":"MultiPolygon","coordinates":[[[[-0.72407,51.19145],[-0.72407,51.19162],[-0.72403,51.19162],[-0.72393,51.19163],[-0.72368,51.19163],[-0.72367,51.19147],[-0.72407,51.19145]]]]}},
{ "type":"Feature","properties":{"osm_way_id":"375059174","name":"Hurtwood Car Park 5: Winterfold (\"Donkins\") aka Edge of the World","amenity":"parking","other":{"access":"yes","fee":"no","park_ride":"no","parking":"surface","supervised":"no","surface":"ground"}}, "geometry":{"type":"MultiPolygon","coordinates":[[[[-0.48052,51.17407],[-0.48029,51.17403],[-0.48012,51.174],[-0.48003,51.17398],[-0.48003,51.17409],[-0.48019,51.17415],[-0.48049,51.17418],[-0.48052,51.17407]]]]}},
{ "type":"Feature","properties":{"osm_way_id":"377795253","amenity":"parking","other":{"fee":"yes","parking":"surface"}}, "geometry":{"type":"MultiPolygon","coordinates":[[[[-0.72902,51.08772],[-0.72902,51.08769],[-0.7292,51.08766],[-0.72919,51.08744],[-0.72896,51.08745],[-0.72902,51.0876],[-0.72859,51.08766],[-0.72871,51.08774],[-0.72876,51.08773],[-0.72902,51.08772]]]]}},
{ "type":"Feature","properties":{"osm_way_id":"377796120","amenity":"parking","other":{"capacity":"2","fee":"yes","supervised":"no"}}, "geometry":{"type":"MultiPolygon","coordinates":[[[[-0.7291,51.08788],[-0.7291,51.08785],[-0.72913,51.08785],[-0.7292,51.08785],[-0.72928,51.08785],[-0.72928,51.08788],[-0.7291,51.08788]]]]}},
{ "type":"Feature","properties":{"osm_way_id":"377797435","amenity":"parking","other":{"capacity":"3","fee":"yes"}}, "geometry":{"type":"MultiPolygon","coordinates":[[[[-0.73442,51.08804],[-0.7344,51.08798],[-0.73439,51.08796],[-0.73425,51.08799],[-0.7343,51.08806],[-0.73442,51.08804]]]]}},
{ "type":"Feature","properties":{"osm_way_id":"377797646","amenity":"parking","other":{"fee":"yes"}}, "geometry":{"type":"MultiPolygon","coordinates":[[[[-0.73546,51.08765],[-0.7354,51.08746],[-0.73509,51.08751],[-0.73513,51.0876],[-0.73501,51.08762],[-0.73502,51.08764],[-0.73546,51.08765]]]]}},
{ "type":"Feature","properties":{"osm_way_id":"377797888","amenity":"parking","other":{"access":"customers","capacity":"3"}}, "geometry":{"type":"MultiPolygon","coordinates":[[[[-0.73392,51.08755],[-0.73395,51.08759],[-0.73407,51.08756],[-0.73403,51.08752],[-0.73392,51.08755]]]]}},
{ "type":"Feature","properties":{"osm_way_id":"377797891","amenity":"parking","other":{"access":"private","fee":"no","parking":"surface"}}, "geometry":{"type":"MultiPolygon","coordinates":[[[[-0.73401,51.0881],[-0.73396,51.08805],[-0.73383,51.08804],[-0.7338,51.0882],[-0.73401,51.0881]]]]}},
{ "type":"Feature","properties":{"osm_way_id":"377797997","amenity":"parking","other":{"access":"no"}}, "geometry":{"type":"MultiPolygon","coordinates":[[[[-0.73091,51.08772],[-0.73089,51.08758],[-0.73076,51.08759],[-0.73078,51.08772],[-0.73091,51.08772]]]]}},
{ "type":"Feature","properties":{"osm_way_id":"385030715","amenity":"parking"},"geometry":{"type":"MultiPolygon","coordinates":[[[[-0.60587,51.19616],[-0.60522,51.19686],[-0.60507,51.19701],[-0.60479,51.19722],[-0.60445,51.19745],[-0.60443,51.19734],[-0.60488,51.197],[-0.60482,51.19695],[-0.60488,51.19691],[-0.60582,51.19614],[-0.60587,51.19616]]]]}},
{ "type":"Feature","properties":{"osm_way_id":"385030716","name":"North Street Car Park","amenity":"parking"},"geometry":{"type":"MultiPolygon","coordinates":[[[[-0.60605,51.19666],[-0.60607,51.19665],[-0.60607,51.19662],[-0.60602,51.1966],[-0.60595,51.1966],[-0.60595,51.19655],[-0.60606,51.19655],[-0.60608,51.19654],[-0.6061,51.1964],[-0.60605,51.19635],[-0.60602,51.19634],[-0.60598,51.19638],[-0.60591,51.19636],[-0.60556,51.19673],[-0.60562,51.19675],[-0.60605,51.19666]]]]}},
{ "type":"Feature","properties":{"osm_way_id":"388714667","name":"The Six Bells Car Park","amenity":"parking","other":{"access":"customers","fee":"no","parking":"surface"}}, "geometry":{"type":"MultiPolygon","coordinates":[[[[-0.78422,51.22345],[-0.78429,51.22348],[-0.78473,51.22334],[-0.78461,51.22323],[-0.78416,51.22337],[-0.78422,51.22345]]]]}},
{ "type":"Feature","properties":{"osm_way_id":"390427845","amenity":"parking"},"geometry":{"type":"MultiPolygon","coordinates":[[[[-0.63499,51.15985],[-0.63542,51.15997],[-0.63527,51.16021],[-0.63441,51.15981],[-0.6345,51.15973],[-0.63453,51.15971],[-0.63499,51.15985]]]]}},
{ "type":"Feature","properties":{"osm_way_id":"401296602","amenity":"parking"},"geometry":{"type":"MultiPolygon","coordinates":[[[[-0.60028,51.17725],[-0.59986,51.17709],[-0.60004,51.1769],[-0.60046,51.17707],[-0.60028,51.17725]]]]}},
{ "type":"Feature","properties":{"osm_way_id":"401466723","amenity":"parking"},"geometry":{"type":"MultiPolygon","coordinates":[[[[-0.61922,51.17281],[-0.6186,51.17279],[-0.61863,51.17251],[-0.61901,51.17252],[-0.61923,51.17267],[-0.61922,51.17281]]]]}},
{ "type":"Feature","properties":{"osm_way_id":"402531533","amenity":"parking"},"geometry":{"type":"MultiPolygon","coordinates":[[[[-0.61927,51.18824],[-0.61955,51.18855],[-0.6194,51.18863],[-0.61912,51.18863],[-0.61886,51.1884],[-0.61927,51.18824]]]]}},
{ "type":"Feature","properties":{"osm_way_id":"402531534","amenity":"parking"},"geometry":{"type":"MultiPolygon","coordinates":[[[[-0.62072,51.1884],[-0.62069,51.18826],[-0.62038,51.18828],[-0.62042,51.18847],[-0.6206,51.18843],[-0.62072,51.1884]]]]}},
{ "type":"Feature","properties":{"osm_way_id":"403382416","name":"Mint Streer Car Park","amenity":"parking","other":{"access":"yes","fee":"yes","parking":"surface","wheelchair":"limited"}}, "geometry":{"type":"MultiPolygon","coordinates":[[[[-0.61671,51.18564],[-0.61628,51.18573],[-0.61613,51.18548],[-0.61614,51.18547],[-0.61615,51.18546],[-0.61647,51.18546],[-0.61646,51.18549],[-0.61655,51.18555],[-0.61664,51.18553],[-0.61671,51.18564]]]]}},
{ "type":"Feature","properties":{"osm_way_id":"403909727","amenity":"parking","other":{"access":"private"}}, "geometry":{"type":"MultiPolygon","coordinates":[[[[-0.60757,51.18637],[-0.60722,51.18594],[-0.60686,51.18603],[-0.60726,51.18648],[-0.60757,51.18637]]]]}},
{ "type":"Feature","properties":{"osm_way_id":"403943790","amenity":"parking"},"geometry":{"type":"MultiPolygon","coordinates":[[[[-0.59674,51.19072],[-0.59645,51.19045],[-0.59638,51.19048],[-0.59629,51.19039],[-0.59649,51.19029],[-0.59656,51.19035],[-0.59663,51.19041],[-0.59669,51.19048],[-0.59675,51.19055],[-0.59678,51.19064],[-0.5968,51.19071],[-0.59674,51.19072]]]]}},
{ "type":"Feature","properties":{"osm_way_id":"403943791","amenity":"parking"},"geometry":{"type":"MultiPolygon","coordinates":[[[[-0.59577,51.19075],[-0.59591,51.19069],[-0.59602,51.19065],[-0.59632,51.19092],[-0.59655,51.1909],[-0.59678,51.19088],[-0.59683,51.19086],[-0.59683,51.19093],[-0.59663,51.19098],[-0.5966,51.19095],[-0.5965,51.191],[-0.59646,51.19097],[-0.59637,51.19102],[-0.59633,51.19099],[-0.59615,51.19107],[-0.59577,51.19075]]]]}},
{ "type":"Feature","properties":{"osm_way_id":"404424982","amenity":"parking"},"geometry":{"type":"MultiPolygon","coordinates":[[[[-0.62355,51.18124],[-0.62307,51.18176],[-0.62284,51.18168],[-0.62309,51.18142],[-0.62275,51.1813],[-0.62283,51.18122],[-0.62322,51.18135],[-0.62337,51.18118],[-0.62355,51.18124]]]]}},
{ "type":"Feature","properties":{"osm_way_id":"406484207","amenity":"parking","other":{"parking":"street_side"}}, "geometry":{"type":"MultiPolygon","coordinates":[[[[-0.61291,51.18102],[-0.61303,51.18099],[-0.61319,51.1812],[-0.61307,51.18123],[-0.61291,51.18102]]]]}},
{ "type":"Feature","properties":{"osm_way_id":"407267503","amenity":"parking"},"geometry":{"type":"MultiPolygon","coordinates":[[[[-0.73141,51.08728],[-0.73127,51.08738],[-0.73119,51.08739],[-0.73112,51.0874],[-0.73111,51.08742],[-0.73112,51.08748],[-0.73101,51.08757],[-0.73098,51.08757],[-0.73094,51.08738],[-0.73105,51.08735],[-0.73105,51.0873],[-0.73136,51.08727],[-0.73141,51.08728]]]]}},
{ "type":"Feature","properties":{"osm_way_id":"408590193","amenity":"parking","other":{"parking":"surface"}}, "geometry":{"type":"MultiPolygon","coordinates":[[[[-0.78291,51.2336],[-0.78285,51.23377],[-0.78261,51.23373],[-0.78267,51.23357],[-0.78291,51.2336]]]]}},
{ "type":"Feature","properties":{"osm_way_id":"411939063","amenity":"parking"},"geometry":{"type":"MultiPolygon","coordinates":[[[[-0.73283,51.08569],[-0.73283,51.08579],[-0.73238,51.0858],[-0.73237,51.0857],[-0.73283,51.08569]]]]}},
{ "type":"Feature","properties":{"osm_way_id":"434362569","amenity":"parking"},"geometry":{"type":"MultiPolygon","coordinates":[[[[-0.80172,51.22069],[-0.80169,51.22072],[-0.80159,51.22081],[-0.80139,51.221],[-0.80128,51.22072],[-0.80125,51.22073],[-0.80122,51.22066],[-0.80125,51.22064],[-0.80123,51.22054],[-0.801,51.22058],[-0.80092,51.22044],[-0.80099,51.22044],[-0.80115,51.22044],[-0.80172,51.22069]]]]}},
{ "type":"Feature","properties":{"osm_way_id":"434362570","amenity":"parking"},"geometry":{"type":"MultiPolygon","coordinates":[[[[-0.80109,51.22012],[-0.801,51.22012],[-0.80098,51.22025],[-0.80111,51.22025],[-0.80109,51.22012]]]]}},
{ "type":"Feature","properties":{"osm_way_id":"434362571","amenity":"parking"},"geometry":{"type":"MultiPolygon","coordinates":[[[[-0.80111,51.22],[-0.80098,51.22],[-0.80099,51.21988],[-0.80113,51.21988],[-0.80111,51.22]]]]}},
{ "type":"Feature","properties":{"osm_way_id":"442490123","amenity":"parking","other":{"lit":"yes","parking":"surface","surface":"asphalt"}}, "geometry":{"type":"MultiPolygon","coordinates":[[[[-0.7796,51.13878],[-0.7797,51.1388],[-0.77971,51.13884],[-0.77987,51.13882],[-0.77993,51.13881],[-0.77984,51.13857],[-0.77982,51.13854],[-0.77982,51.13844],[-0.77972,51.13853],[-0.77965,51.1387],[-0.7796,51.13878]]]]}},
{ "type":"Feature","properties":{"osm_way_id":"445560873","amenity":"parking","other":{"access":"private"}}, "geometry":{"type":"MultiPolygon","coordinates":[[[[-0.72466,51.0872],[-0.72426,51.08727],[-0.72424,51.08723],[-0.72423,51.0872],[-0.7242,51.08713],[-0.7246,51.08706],[-0.72466,51.0872]]]]}},
{ "type":"Feature","properties":{"osm_way_id":"447593185","amenity":"parking","other":{"access":"customers"}}, "geometry":{"type":"MultiPolygon","coordinates":[[[[-0.70905,51.08751],[-0.70883,51.08744],[-0.70885,51.08742],[-0.70876,51.08739],[-0.7087,51.08747],[-0.70861,51.08744],[-0.70858,51.08747],[-0.70868,51.0875],[-0.70886,51.08754],[-0.709,51.08758],[-0.70905,51.08751]]]]}},
{ "type":"Feature","properties":{"osm_way_id":"447593186","amenity":"parking","other":{"access":"private"}}, "geometry":{"type":"MultiPolygon","coordinates":[[[[-0.70853,51.08728],[-0.70827,51.08716],[-0.70834,51.0871],[-0.70859,51.08722],[-0.70853,51.08728]]]]}},
{ "type":"Feature","properties":{"osm_way_id":"448869253","amenity":"parking","other":{"access":"private","parking":"surface"}}, "geometry":{"type":"MultiPolygon","coordinates":[[[[-0.79313,51.21639],[-0.79293,51.21634],[-0.79285,51.21632],[-0.79314,51.21572],[-0.79324,51.21574],[-0.79335,51.21576],[-0.79311,51.21622],[-0.79319,51.21624],[-0.79314,51.21636],[-0.79313,51.21639]]]]}},
{ "type":"Feature","properties":{"osm_way_id":"449051774","amenity":"parking"},"geometry":{"type":"MultiPolygon","coordinates":[[[[-0.75878,51.22846],[-0.75853,51.22847],[-0.7585,51.22824],[-0.75875,51.22823],[-0.75878,51.22846]]]]}},
{ "type":"Feature","properties":{"osm_way_id":"449651210","amenity":"parking"},"geometry":{"type":"MultiPolygon","coordinates":[[[[-0.50538,51.16908],[-0.50528,51.16908],[-0.50519,51.16907],[-0.5052,51.16882],[-0.50511,51.16854],[-0.50532,51.16853],[-0.50533,51.16874],[-0.5055,51.16874],[-0.50553,51.16884],[-0.50542,51.16883],[-0.50538,51.16908]]]]}},
{ "type":"Feature","properties":{"osm_way_id":"452779047","amenity":"parking"},"geometry":{"type":"MultiPolygon","coordinates":[[[[-0.7108,51.10045],[-0.71073,51.10046],[-0.7107,51.10037],[-0.71069,51.10031],[-0.7107,51.10024],[-0.71074,51.10019],[-0.71079,51.10015],[-0.71084,51.10018],[-0.71081,51.10023],[-0.71079,51.10029],[-0.71078,51.10037],[-0.7108,51.10045]]]]}},
{ "type":"Feature","properties":{"osm_way_id":"452779054","amenity":"parking"},"geometry":{"type":"MultiPolygon","coordinates":[[[[-0.71084,51.09998],[-0.71074,51.10006],[-0.71065,51.10011],[-0.71056,51.10013],[-0.71058,51.10017],[-0.71069,51.10015],[-0.71079,51.10009],[-0.7109,51.10001],[-0.71084,51.09998]]]]}},
{ "type":"Feature","properties":{"osm_way_id":"455398271","amenity":"parking","other":{"access":"private"}}, "geometry":{"type":"MultiPolygon","coordinates":[[[[-0.73792,51.09544],[-0.73692,51.09543],[-0.73691,51.09501],[-0.73794,51.095],[-0.73792,51.09544]]]]}},
{ "type":"Feature","properties":{"osm_way_id":"483097842","name":"Lea Coach Road Car Park","amenity":"parking","other":{"parking":"surface"}}, "geometry":{"type":"MultiPolygon","coordinates":[[[[-0.67537,51.15012],[-0.67535,51.15017],[-0.67546,51.15021],[-0.67558,51.15018],[-0.67562,51.1501],[-0.67544,51.15014],[-0.67537,51.15012]]]]}},
{ "type":"Feature","properties":{"osm_way_id":"486220322","amenity":"parking","other":{"access":"customers","fee":"no","parking":"surface"}}, "geometry":{"type":"MultiPolygon","coordinates":[[[[-0.76042,51.23278],[-0.76035,51.23273],[-0.76027,51.23279],[-0.76011,51.23288],[-0.75988,51.23298],[-0.75976,51.23303],[-0.75963,51.23306],[-0.75992,51.23304],[-0.76028,51.23302],[-0.76041,51.23302],[-0.76042,51.23297],[-0.76038,51.23295],[-0.76035,51.23298],[-0.76024,51.23292],[-0.76042,51.23278]]]]}},
{ "type":"Feature","properties":{"osm_way_id":"487130039","amenity":"parking"},"geometry":{"type":"MultiPolygon","coordinates":[[[[-0.47433,51.1729],[-0.47433,51.17284],[-0.4747,51.1728],[-0.4748,51.17286],[-0.47433,51.1729]]]]}},
{ "type":"Feature","properties":{"osm_way_id":"487392153","amenity":"parking"},"geometry":{"type":"MultiPolygon","coordinates":[[[[-0.74403,51.10473],[-0.74419,51.10439],[-0.74364,51.10428],[-0.74353,51.10446],[-0.7436,51.1047],[-0.74403,51.10473]]]]}},
{ "type":"Feature","properties":{"osm_way_id":"487400837","amenity":"parking","other":{"access":"private","park_ride":"no","parking":"surface","supervised":"no","surface":"asphalt"}}, "geometry":{"type":"MultiPolygon","coordinates":[[[[-0.783,51.23123],[-0.78284,51.23117],[-0.78281,51.2312],[-0.78263,51.23112],[-0.78237,51.23138],[-0.78245,51.23147],[-0.78247,51.23153],[-0.78255,51.23156],[-0.78265,51.23161],[-0.78273,51.23151],[-0.783,51.23123]]]]}},
{ "type":"Feature","properties":{"osm_way_id":"489606185","amenity":"parking","other":{"access":"private","addr:city":"Farnham","addr:housenumber":"37-53","addr:street":"Whitmore Green","park_ride":"no","parking":"surface","supervised":"no"}}, "geometry":{"type":"MultiPolygon","coordinates":[[[[-0.7825,51.23],[-0.78247,51.22999],[-0.78241,51.22996],[-0.7824,51.22995],[-0.78249,51.22984],[-0.78265,51.2297],[-0.7828,51.22979],[-0.7825,51.23]]]]}},
{ "type":"Feature","properties":{"osm_way_id":"490185559","amenity":"parking","other":{"parking":"surface"}}, "geometry":{"type":"MultiPolygon","coordinates":[[[[-0.78463,51.23129],[-0.7844,51.23129],[-0.7844,51.23125],[-0.78429,51.23125],[-0.78428,51.23121],[-0.78464,51.23121],[-0.78463,51.23129]]]]}},
{ "type":"Feature","properties":{"osm_way_id":"526572906","amenity":"parking","other":{"access":"private","parking":"surface"}}, "geometry":{"type":"MultiPolygon","coordinates":[[[[-0.7778,51.23365],[-0.77768,51.23358],[-0.77785,51.23347],[-0.77797,51.23354],[-0.77788,51.2336],[-0.7778,51.23365]]]]}},
{ "type":"Feature","properties":{"osm_way_id":"528763999","amenity":"parking","other":{"fee":"no"}}, "geometry":{"type":"MultiPolygon","coordinates":[[[[-0.61198,51.20022],[-0.61206,51.20022],[-0.61205,51.20011],[-0.61258,51.20011],[-0.61257,51.20027],[-0.61267,51.20023],[-0.61275,51.2002],[-0.61266,51.20014],[-0.61247,51.19997],[-0.61244,51.19996],[-0.6124,51.19996],[-0.61235,51.19997],[-0.61191,51.20015],[-0.61198,51.20022]]]]}},
{ "type":"Feature","properties":{"osm_way_id":"579843474","amenity":"parking"},"geometry":{"type":"MultiPolygon","coordinates":[[[[-0.78281,51.17142],[-0.78275,51.17108],[-0.78242,51.1711],[-0.78246,51.17135],[-0.78261,51.17147],[-0.78267,51.17145],[-0.78274,51.17143],[-0.78281,51.17142]]]]}},
{ "type":"Feature","properties":{"osm_way_id":"601348671","amenity":"parking","other":{"access":"customers"}}, "geometry":{"type":"MultiPolygon","coordinates":[[[[-0.52246,51.11378],[-0.5224,51.11379],[-0.52234,51.11373],[-0.52229,51.11353],[-0.52218,51.11354],[-0.52218,51.11351],[-0.52212,51.1134],[-0.52205,51.11333],[-0.52202,51.11329],[-0.52229,51.11317],[-0.5224,51.11341],[-0.52235,51.11343],[-0.52246,51.11378]]]]}},
{ "type":"Feature","properties":{"osm_way_id":"613979013","amenity":"parking"},"geometry":{"type":"MultiPolygon","coordinates":[[[[-0.7749,51.22773],[-0.77452,51.22771],[-0.77453,51.22766],[-0.77447,51.22765],[-0.77448,51.22753],[-0.77491,51.22754],[-0.7749,51.22773]]]]}},
{ "type":"Feature","properties":{"osm_way_id":"616158824","amenity":"parking","other":{"fee":"no","operator":"National Trust","parking":"surface","surface":"unpaved"}}, "geometry":{"type":"MultiPolygon","coordinates":[[[[-0.78131,51.16783],[-0.78123,51.16781],[-0.78105,51.16782],[-0.78105,51.16769],[-0.78117,51.16768],[-0.78121,51.16767],[-0.78131,51.16783]]]]}},
{ "type":"Feature","properties":{"osm_way_id":"616174198","amenity":"parking","other":{"access":"yes","fee":"no","parking":"surface","supervised":"no","surface":"dirt"}}, "geometry":{"type":"MultiPolygon","coordinates":[[[[-0.53422,51.21276],[-0.53415,51.21277],[-0.53397,51.21239],[-0.5341,51.21236],[-0.53422,51.21276]]]]}},
{ "type":"Feature","properties":{"osm_way_id":"636073065","name":"Wonersh Cricket Club","amenity":"parking","other":{"access":"private","parking":"surface"}}, "geometry":{"type":"MultiPolygon","coordinates":[[[[-0.54384,51.20016],[-0.5439,51.20009],[-0.5436,51.19999],[-0.54354,51.20006],[-0.54384,51.20016]]]]}},
{ "type":"Feature","properties":{"osm_way_id":"653801770","amenity":"parking","other":{"access":"customers","parking":"surface"}}, "geometry":{"type":"MultiPolygon","coordinates":[[[[-0.52332,51.18029],[-0.52348,51.18015],[-0.52333,51.18008],[-0.52331,51.18002],[-0.52319,51.18009],[-0.52324,51.18023],[-0.52326,51.18029],[-0.52332,51.18029]]]]}},
{ "type":"Feature","properties":{"osm_way_id":"654727932","amenity":"parking","other":{"operator":"Bethel Baptist Church","parking":"surface"}}, "geometry":{"type":"MultiPolygon","coordinates":[[[[-0.79062,51.23452],[-0.79042,51.23442],[-0.79053,51.23433],[-0.79074,51.23442],[-0.79062,51.23452]]]]}},
{ "type":"Feature","properties":{"osm_way_id":"654727991","amenity":"parking"},"geometry":{"type":"MultiPolygon","coordinates":[[[[-0.79105,51.23426],[-0.79088,51.23435],[-0.79079,51.23428],[-0.79094,51.23417],[-0.79105,51.23426]]]]}},
{ "type":"Feature","properties":{"osm_way_id":"654744614","amenity":"parking","other":{"access":"customers","fee":"no","parking":"surface"}}, "geometry":{"type":"MultiPolygon","coordinates":[[[[-0.78009,51.22844],[-0.78,51.22861],[-0.77994,51.2286],[-0.77979,51.22857],[-0.77979,51.22856],[-0.77985,51.22844],[-0.77981,51.22843],[-0.77986,51.22833],[-0.77987,51.22831],[-0.77995,51.22832],[-0.77995,51.22831],[-0.77983,51.22829],[-0.77987,51.22822],[-0.7799,51.22816],[-0.78004,51.22818],[-0.78005,51.22816],[-0.77997,51.22815],[-0.78002,51.22806],[-0.78009,51.22807],[-0.78027,51.22811],[-0.78009,51.22844]]]]}},
{ "type":"Feature","properties":{"osm_way_id":"658854027","amenity":"parking"},"geometry":{"type":"MultiPolygon","coordinates":[[[[-0.43066,51.10878],[-0.43045,51.10882],[-0.43048,51.10886],[-0.43042,51.10887],[-0.43035,51.10878],[-0.43042,51.10873],[-0.43027,51.10869],[-0.4304,51.10857],[-0.43057,51.10862],[-0.43066,51.10861],[-0.43073,51.10871],[-0.43063,51.10874],[-0.43066,51.10878]]]]}},
{ "type":"Feature","properties":{"osm_way_id":"660166339","amenity":"parking","other":{"access":"private"}}, "geometry":{"type":"MultiPolygon","coordinates":[[[[-0.4279,51.1081],[-0.42775,51.10809],[-0.42779,51.10793],[-0.42794,51.10794],[-0.4279,51.1081]]]]}},
{ "type":"Feature","properties":{"osm_way_id":"664679458","amenity":"parking","other":{"access":"customers","park_ride":"no","parking":"surface"}}, "geometry":{"type":"MultiPolygon","coordinates":[[[[-0.7868,51.22741],[-0.78676,51.22744],[-0.7867,51.22741],[-0.78667,51.22742],[-0.7866,51.22746],[-0.78654,51.22743],[-0.78659,51.2274],[-0.78661,51.22737],[-0.78655,51.22737],[-0.78655,51.22735],[-0.7865,51.22734],[-0.7865,51.22732],[-0.78646,51.22732],[-0.78646,51.2273],[-0.78643,51.2273],[-0.78643,51.22727],[-0.78639,51.22727],[-0.78639,51.22725],[-0.78624,51.22725],[-0.78624,51.22723],[-0.7861,51.22723],[-0.7861,51.22722],[-0.78605,51.22722],[-0.78604,51.22721],[-0.786,51.22721],[-0.78599,51.22719],[-0.78595,51.22719],[-0.78594,51.22717],[-0.78582,51.22714],[-0.78581,51.22708],[-0.78584,51.22695],[-0.78583,51.2269],[-0.78587,51.22688],[-0.78592,51.22687],[-0.78595,51.22693],[-0.78636,51.22686],[-0.78641,51.22693],[-0.78645,51.22692],[-0.78652,51.22702],[-0.78637,51.22706],[-0.7864,51.22714],[-0.78657,51.22724],[-0.78677,51.22738],[-0.7868,51.22741]]]]}},
{ "type":"Feature","properties":{"osm_way_id":"685687427","amenity":"parking","other":{"access":"customers"}}, "geometry":{"type":"MultiPolygon","coordinates":[[[[-0.676,51.1175],[-0.676,51.11765],[-0.6753,51.11765],[-0.6753,51.11761],[-0.6753,51.11751],[-0.676,51.1175]]]]}},
{ "type":"Feature","properties":{"osm_way_id":"699182882","amenity":"parking"},"geometry":{"type":"MultiPolygon","coordinates":[[[[-0.81941,51.19685],[-0.81933,51.19689],[-0.81915,51.19677],[-0.81933,51.19668],[-0.81948,51.19681],[-0.81941,51.19685]]]]}},
{ "type":"Feature","properties":{"osm_way_id":"713478653","amenity":"parking","other":{"access":"permissive","operator":"The Spotted Cow","operator:type":"private"}}, "geometry":{"type":"MultiPolygon","coordinates":[[[[-0.7819,51.20133],[-0.7818,51.20137],[-0.78172,51.20139],[-0.78115,51.20137],[-0.78103,51.20133],[-0.78107,51.20126],[-0.78123,51.20124],[-0.78134,51.20125],[-0.78141,51.20129],[-0.78155,51.20128],[-0.78159,51.20123],[-0.78181,51.20123],[-0.7819,51.20133]]]]}},
{ "type":"Feature","properties":{"osm_way_id":"714750710","amenity":"parking"},"geometry":{"type":"MultiPolygon","coordinates":[[[[-0.7348,51.11898],[-0.73469,51.11883],[-0.73374,51.11912],[-0.73386,51.11926],[-0.7348,51.11898]]]]}},
{ "type":"Feature","properties":{"osm_way_id":"723904003","amenity":"parking","other":{"access":"customers","fee":"no","operator":"Royal Arms","operator:type":"private","parking":"surface"}}, "geometry":{"type":"MultiPolygon","coordinates":[[[[-0.78628,51.23963],[-0.78626,51.23958],[-0.78623,51.23951],[-0.78617,51.23942],[-0.78612,51.23934],[-0.78593,51.23937],[-0.78583,51.23937],[-0.78578,51.23939],[-0.78574,51.23945],[-0.78574,51.23951],[-0.78574,51.2396],[-0.78599,51.23962],[-0.78608,51.23961],[-0.78619,51.23962],[-0.78628,51.23963]]]]}},
{ "type":"Feature","properties":{"osm_way_id":"731014125","name":"Rodborough Common","amenity":"parking"},"geometry":{"type":"MultiPolygon","coordinates":[[[[-0.66033,51.16822],[-0.66116,51.16838],[-0.66113,51.16843],[-0.66101,51.16844],[-0.66032,51.16839],[-0.66021,51.16831],[-0.66022,51.16827],[-0.66026,51.16824],[-0.66033,51.16822]]]]}},
{ "type":"Feature","properties":{"osm_way_id":"744687046","amenity":"parking","other":{"parking":"surface"}}, "geometry":{"type":"MultiPolygon","coordinates":[[[[-0.80644,51.21332],[-0.8062,51.2134],[-0.8064,51.21361],[-0.80629,51.21364],[-0.80619,51.21368],[-0.80595,51.21344],[-0.80593,51.21341],[-0.80603,51.21338],[-0.80598,51.21333],[-0.80634,51.21322],[-0.80644,51.21332]]]]}},
{ "type":"Feature","properties":{"osm_way_id":"758940410","amenity":"parking"},"geometry":{"type":"MultiPolygon","coordinates":[[[[-0.81167,51.23192],[-0.81158,51.2319],[-0.81185,51.2314],[-0.8119,51.23141],[-0.81193,51.23142],[-0.81167,51.23192]]]]}},
{ "type":"Feature","properties":{"osm_way_id":"758940412","amenity":"parking"},"geometry":{"type":"MultiPolygon","coordinates":[[[[-0.81145,51.23198],[-0.81128,51.23142],[-0.81119,51.23143],[-0.81137,51.232],[-0.81145,51.23198]]]]}},
{ "type":"Feature","properties":{"osm_way_id":"761192530","amenity":"parking","other":{"access":"customers"}}, "geometry":{"type":"MultiPolygon","coordinates":[[[[-0.52527,51.20896],[-0.52511,51.20902],[-0.52496,51.20885],[-0.52512,51.2088],[-0.52527,51.20896]]]]}},
{ "type":"Feature","properties":{"osm_way_id":"767806601","amenity":"parking"},"geometry":{"type":"MultiPolygon","coordinates":[[[[-0.46612,51.17195],[-0.46614,51.17209],[-0.46609,51.17216],[-0.46598,51.17214],[-0.4658,51.17215],[-0.46575,51.17209],[-0.46577,51.17195],[-0.46594,51.17192],[-0.46595,51.17188],[-0.46608,51.17187],[-0.46612,51.17195]]]]}},
{ "type":"Feature","properties":{"osm_way_id":"769091943","amenity":"parking","other":{"access":"private","operator":"Church","parking":"surface","surface":"asphalt"}}, "geometry":{"type":"MultiPolygon","coordinates":[[[[-0.79181,51.2381],[-0.79178,51.23807],[-0.79173,51.23802],[-0.79197,51.23792],[-0.79199,51.23794],[-0.79203,51.23792],[-0.7921,51.23798],[-0.79207,51.23801],[-0.79181,51.2381]]]]}},
{ "type":"Feature","properties":{"osm_way_id":"769091949","amenity":"parking","other":{"access":"customers","fee":"no","parking":"surface","surface":"asphalt"}}, "geometry":{"type":"MultiPolygon","coordinates":[[[[-0.79155,51.23747],[-0.79147,51.23738],[-0.79169,51.23732],[-0.79188,51.2375],[-0.79185,51.23751],[-0.79181,51.23753],[-0.79177,51.23748],[-0.79174,51.23749],[-0.79169,51.23743],[-0.79155,51.23747]]]]}},
{ "type":"Feature","properties":{"osm_way_id":"770774027","amenity":"parking","other":{"access":"private","fee":"no","parking":"surface"}}, "geometry":{"type":"MultiPolygon","coordinates":[[[[-0.80293,51.22024],[-0.80278,51.2202],[-0.80286,51.22009],[-0.80288,51.22001],[-0.80278,51.21989],[-0.80279,51.21987],[-0.80302,51.21992],[-0.80301,51.22007],[-0.803,51.22019],[-0.80293,51.22024]]]]}},
{ "type":"Feature","properties":{"osm_way_id":"778649279","amenity":"parking"},"geometry":{"type":"MultiPolygon","coordinates":[[[[-0.4216,51.17252],[-0.42151,51.17239],[-0.42178,51.17231],[-0.42188,51.17245],[-0.4216,51.17252]]]]}},
{ "type":"Feature","properties":{"osm_way_id":"779355579","amenity":"parking","other":{"access":"customers"}}, "geometry":{"type":"MultiPolygon","coordinates":[[[[-0.44516,51.14982],[-0.44515,51.14988],[-0.44493,51.14992],[-0.4446,51.15007],[-0.44444,51.15003],[-0.44446,51.14987],[-0.44489,51.1497],[-0.445,51.14978],[-0.44506,51.14973],[-0.44515,51.14978],[-0.44516,51.14982]]]]}},
{ "type":"Feature","properties":{"osm_way_id":"785408778","amenity":"parking","other":{"access":"customers"}}, "geometry":{"type":"MultiPolygon","coordinates":[[[[-0.47116,51.15641],[-0.47122,51.15634],[-0.47115,51.15629],[-0.4712,51.15618],[-0.47112,51.15612],[-0.47101,51.1561],[-0.47091,51.15609],[-0.47091,51.15601],[-0.47089,51.15591],[-0.47019,51.15588],[-0.47017,51.15603],[-0.4701,51.15602],[-0.47003,51.15634],[-0.47107,51.15639],[-0.47116,51.15641]]]]}},
{ "type":"Feature","properties":{"osm_way_id":"785825061","building":"yes"},"geometry":{"type":"MultiPolygon","coordinates":[[[[-0.47496,51.15653],[-0.47468,51.15653],[-0.47468,51.15649],[-0.47496,51.15649],[-0.47496,51.15653]]]]}},
{ "type":"Feature","properties":{"osm_way_id":"786324168","amenity":"parking"},"geometry":{"type":"MultiPolygon","coordinates":[[[[-0.64914,51.15418],[-0.64897,51.15422],[-0.64883,51.15402],[-0.64895,51.15403],[-0.64905,51.15404],[-0.64914,51.15418]]]]}},
{ "type":"Feature","properties":{"osm_way_id":"786460798","amenity":"parking","other":{"access":"customers"}}, "geometry":{"type":"MultiPolygon","coordinates":[[[[-0.45652,51.17066],[-0.45647,51.17068],[-0.45624,51.17046],[-0.45604,51.17028],[-0.45594,51.17018],[-0.4559,51.17011],[-0.45599,51.17009],[-0.45616,51.17029],[-0.45629,51.17044],[-0.45633,51.17049],[-0.45639,51.17055],[-0.45652,51.17066]]]]}},
{ "type":"Feature","properties":{"osm_way_id":"788171516","amenity":"parking"},"geometry":{"type":"MultiPolygon","coordinates":[[[[-0.49165,51.14848],[-0.49163,51.14849],[-0.49158,51.14852],[-0.49162,51.14854],[-0.49166,51.14861],[-0.49165,51.1487],[-0.49159,51.14862],[-0.49152,51.14856],[-0.49138,51.14849],[-0.49118,51.14839],[-0.49104,51.14833],[-0.49089,51.14827],[-0.49076,51.14824],[-0.49068,51.14822],[-0.49065,51.1482],[-0.49065,51.14816],[-0.49068,51.14809],[-0.49074,51.14807],[-0.49079,51.14808],[-0.49083,51.14812],[-0.49098,51.14817],[-0.49112,51.14822],[-0.49132,51.14831],[-0.49159,51.14843],[-0.49165,51.14848]]]]}},
{ "type":"Feature","properties":{"osm_way_id":"788198028","amenity":"parking"},"geometry":{"type":"MultiPolygon","coordinates":[[[[-0.49561,51.14693],[-0.49556,51.14699],[-0.49515,51.14684],[-0.49561,51.14654],[-0.49581,51.14638],[-0.49593,51.14643],[-0.49579,51.14655],[-0.4957,51.14662],[-0.49564,51.14666],[-0.49546,51.14681],[-0.49542,51.14682],[-0.49539,51.14685],[-0.49561,51.14693]]]]}},
{ "type":"Feature","properties":{"osm_way_id":"788198029","amenity":"parking"},"geometry":{"type":"MultiPolygon","coordinates":[[[[-0.4964,51.14649],[-0.49644,51.14641],[-0.49627,51.14638],[-0.49623,51.14644],[-0.4964,51.14649]]]]}},
{ "type":"Feature","properties":{"osm_way_id":"788406790","amenity":"parking"},"geometry":{"type":"MultiPolygon","coordinates":[[[[-0.48247,51.1425],[-0.4821,51.14254],[-0.48207,51.14249],[-0.48205,51.14242],[-0.48212,51.14241],[-0.48211,51.14236],[-0.48242,51.14233],[-0.48247,51.1425]]]]}},
{ "type":"Feature","properties":{"osm_way_id":"788782412","amenity":"parking","other":{"access":"private"}}, "geometry":{"type":"MultiPolygon","coordinates":[[[[-0.47728,51.14769],[-0.47714,51.14754],[-0.47686,51.14765],[-0.477,51.14779],[-0.47728,51.14769]]]]}},
{ "type":"Feature","properties":{"osm_way_id":"788782440","amenity":"parking","other":{"access":"private"}}, "geometry":{"type":"MultiPolygon","coordinates":[[[[-0.47678,51.14639],[-0.47663,51.14623],[-0.47641,51.14632],[-0.47651,51.14642],[-0.47657,51.14648],[-0.47678,51.14639]]]]}},
{ "type":"Feature","properties":{"osm_way_id":"788782441","amenity":"parking","other":{"access":"private"}}, "geometry":{"type":"MultiPolygon","coordinates":[[[[-0.47585,51.14675],[-0.47608,51.14666],[-0.47606,51.14663],[-0.47598,51.14656],[-0.47622,51.14646],[-0.47616,51.14639],[-0.47568,51.14657],[-0.47585,51.14675]]]]}},
{ "type":"Feature","properties":{"osm_way_id":"789206889","amenity":"parking","other":{"access":"private"}}, "geometry":{"type":"MultiPolygon","coordinates":[[[[-0.47146,51.14373],[-0.4712,51.14387],[-0.47109,51.14393],[-0.47097,51.14383],[-0.47101,51.14382],[-0.4712,51.14372],[-0.47144,51.14368],[-0.47146,51.14373]]]]}},
{ "type":"Feature","properties":{"osm_way_id":"789206890","amenity":"parking","other":{"access":"private"}}, "geometry":{"type":"MultiPolygon","coordinates":[[[[-0.47091,51.14431],[-0.47058,51.14441],[-0.4705,51.1443],[-0.47069,51.14425],[-0.47061,51.14413],[-0.47076,51.14409],[-0.47091,51.14431]]]]}},
{ "type":"Feature","properties":{"osm_way_id":"789247234","amenity":"parking"},"geometry":{"type":"MultiPolygon","coordinates":[[[[-0.47428,51.14502],[-0.47434,51.14508],[-0.47406,51.14515],[-0.47378,51.1452],[-0.47368,51.14517],[-0.47363,51.14507],[-0.47361,51.14505],[-0.47409,51.14484],[-0.47428,51.14502]]]]}},
{ "type":"Feature","properties":{"osm_way_id":"789247235","amenity":"parking","other":{"access":"private"}}, "geometry":{"type":"MultiPolygon","coordinates":[[[[-0.47516,51.14478],[-0.4746,51.14504],[-0.47469,51.1451],[-0.47497,51.14497],[-0.47516,51.14478]]]]}},
{ "type":"Feature","properties":{"osm_way_id":"789355709","amenity":"parking","other":{"access":"private"}}, "geometry":{"type":"MultiPolygon","coordinates":[[[[-0.4749,51.14372],[-0.4747,51.1438],[-0.47464,51.14375],[-0.47467,51.14368],[-0.47481,51.14363],[-0.4749,51.14372]]]]}},
{ "type":"Feature","properties":{"osm_way_id":"789355719","amenity":"parking","other":{"access":"private"}}, "geometry":{"type":"MultiPolygon","coordinates":[[[[-0.47389,51.14461],[-0.47369,51.1447],[-0.47367,51.14469],[-0.47362,51.14463],[-0.47381,51.14454],[-0.47389,51.14461]]]]}},
{ "type":"Feature","properties":{"osm_way_id":"789355720","amenity":"parking","other":{"access":"private"}}, "geometry":{"type":"MultiPolygon","coordinates":[[[[-0.47325,51.14405],[-0.47319,51.14379],[-0.47322,51.14377],[-0.47351,51.14375],[-0.47355,51.14375],[-0.47361,51.14399],[-0.47358,51.14402],[-0.47325,51.14405]]]]}},
{ "type":"Feature","properties":{"osm_way_id":"790555870","amenity":"parking","other":{"access":"customers","fee":"no","parking":"surface","surface":"asphalt"}}, "geometry":{"type":"MultiPolygon","coordinates":[[[[-0.77801,51.23064],[-0.77791,51.23059],[-0.7778,51.23055],[-0.77829,51.23028],[-0.77867,51.23013],[-0.77873,51.23017],[-0.77835,51.23033],[-0.77801,51.23064]]]]}},
{ "type":"Feature","properties":{"osm_way_id":"791047529","amenity":"parking","other":{"access":"private"}}, "geometry":{"type":"MultiPolygon","coordinates":[[[[-0.49696,51.14399],[-0.49686,51.14385],[-0.49685,51.14383],[-0.49662,51.14389],[-0.49666,51.14406],[-0.49696,51.14399]]]]}},
{ "type":"Feature","properties":{"osm_way_id":"791479970","amenity":"parking"},"geometry":{"type":"MultiPolygon","coordinates":[[[[-0.50566,51.14739],[-0.50527,51.14743],[-0.50522,51.14737],[-0.50521,51.1473],[-0.50558,51.14728],[-0.50572,51.14732],[-0.50582,51.14733],[-0.50583,51.14738],[-0.50566,51.14739]]]]}},
{ "type":"Feature","properties":{"osm_way_id":"793407111","amenity":"parking","other":{"access":"customers"}}, "geometry":{"type":"MultiPolygon","coordinates":[[[[-0.48315,51.14026],[-0.48342,51.14024],[-0.48344,51.14013],[-0.48338,51.13998],[-0.48314,51.14003],[-0.48301,51.14006],[-0.48302,51.14021],[-0.48314,51.1402],[-0.48315,51.14026]]]]}},
{ "type":"Feature","properties":{"osm_way_id":"798268002","amenity":"parking"},"geometry":{"type":"MultiPolygon","coordinates":[[[[-0.48194,51.13117],[-0.48185,51.13123],[-0.48191,51.13127],[-0.48173,51.13138],[-0.48168,51.13136],[-0.48162,51.13139],[-0.48148,51.13131],[-0.48184,51.13107],[-0.48191,51.13111],[-0.48198,51.13115],[-0.48194,51.13117]]]]}},
{ "type":"Feature","properties":{"osm_way_id":"802417312","amenity":"parking","other":{"access":"private"}}, "geometry":{"type":"MultiPolygon","coordinates":[[[[-0.5108,51.16926],[-0.51077,51.16909],[-0.51011,51.16916],[-0.51013,51.16925],[-0.51015,51.16934],[-0.5108,51.16926]]]]}},
{ "type":"Feature","properties":{"osm_way_id":"803742037","amenity":"parking","other":{"access":"customers"}}, "geometry":{"type":"MultiPolygon","coordinates":[[[[-0.52324,51.18263],[-0.52322,51.18273],[-0.52297,51.18269],[-0.52303,51.18253],[-0.5231,51.18251],[-0.52349,51.18258],[-0.52349,51.18265],[-0.52331,51.18263],[-0.52333,51.18257],[-0.52326,51.18257],[-0.52324,51.18263]]]]}},
{ "type":"Feature","properties":{"osm_way_id":"805305218","amenity":"parking","other":{"access":"customers"}}, "geometry":{"type":"MultiPolygon","coordinates":[[[[-0.52482,51.1847],[-0.52483,51.18469],[-0.52447,51.18458],[-0.52436,51.18465],[-0.52432,51.1847],[-0.52438,51.18471],[-0.52435,51.18475],[-0.52438,51.18476],[-0.5245,51.18481],[-0.52466,51.18485],[-0.52469,51.1848],[-0.52479,51.18474],[-0.52482,51.1847]]]]}},
{ "type":"Feature","properties":{"osm_way_id":"805823802","amenity":"parking","other":{"access":"customers","capacity":"10","parking":"surface","surface":"asphalt"}}, "geometry":{"type":"MultiPolygon","coordinates":[[[[-0.80108,51.21012],[-0.80092,51.21003],[-0.80097,51.21],[-0.80104,51.20995],[-0.8012,51.21005],[-0.80108,51.21012]]]]}},
{ "type":"Feature","properties":{"osm_way_id":"806783263","leisure":"garden"},"geometry":{"type":"MultiPolygon","coordinates":[[[[-0.5264,51.19639],[-0.52609,51.19646],[-0.5259,51.19651],[-0.52566,51.19655],[-0.52544,51.19659],[-0.52529,51.1966],[-0.52519,51.19658],[-0.5252,51.19666],[-0.5252,51.19671],[-0.52416,51.19702],[-0.52411,51.19695],[-0.52422,51.19691],[-0.52416,51.19677],[-0.52404,51.19674],[-0.52401,51.19669],[-0.52419,51.19666],[-0.52415,51.19658],[-0.52398,51.19615],[-0.52395,51.19609],[-0.52452,51.19604],[-0.5248,51.19602],[-0.52514,51.19608],[-0.52519,51.19641],[-0.52532,51.1964],[-0.52558,51.19636],[-0.52638,51.19623],[-0.5264,51.19639]]]]}},
{ "type":"Feature","properties":{"osm_way_id":"807212170","amenity":"parking","other":{"access":"customers","parking":"surface","surface":"asphalt"}}, "geometry":{"type":"MultiPolygon","coordinates":[[[[-0.80908,51.19303],[-0.80926,51.19289],[-0.80894,51.19266],[-0.80874,51.1928],[-0.8088,51.19286],[-0.80892,51.19292],[-0.80901,51.19296],[-0.80906,51.193],[-0.80908,51.19303]]]]}},
{ "type":"Feature","properties":{"osm_way_id":"807673086","amenity":"parking"},"geometry":{"type":"MultiPolygon","coordinates":[[[[-0.80977,51.19841],[-0.80982,51.19839],[-0.80964,51.1982],[-0.80957,51.19823],[-0.80977,51.19841]]]]}},
{ "type":"Feature","properties":{"osm_way_id":"807673087","amenity":"parking"},"geometry":{"type":"MultiPolygon","coordinates":[[[[-0.81003,51.19819],[-0.81001,51.19814],[-0.80999,51.19808],[-0.80998,51.19802],[-0.80998,51.19793],[-0.80991,51.19791],[-0.80989,51.19797],[-0.8099,51.19807],[-0.80992,51.19815],[-0.80995,51.19818],[-0.81003,51.19819]]]]}},
{ "type":"Feature","properties":{"osm_way_id":"807673088","amenity":"parking"},"geometry":{"type":"MultiPolygon","coordinates":[[[[-0.80958,51.19793],[-0.80954,51.1979],[-0.80973,51.19779],[-0.80977,51.19783],[-0.80958,51.19793]]]]}},
{ "type":"Feature","properties":{"osm_way_id":"808365126","amenity":"parking","other":{"access":"customers"}}, "geometry":{"type":"MultiPolygon","coordinates":[[[[-0.53445,51.19902],[-0.53414,51.19903],[-0.53412,51.19882],[-0.53444,51.19881],[-0.53445,51.19886],[-0.53445,51.19902]]]]}},
{ "type":"Feature","properties":{"osm_way_id":"808365127","amenity":"parking","other":{"access":"customers"}}, "geometry":{"type":"MultiPolygon","coordinates":[[[[-0.53388,51.19917],[-0.53371,51.19917],[-0.53372,51.19908],[-0.5337,51.19908],[-0.53371,51.19899],[-0.53391,51.19899],[-0.53391,51.19908],[-0.53388,51.19908],[-0.53388,51.19917]]]]}},
{ "type":"Feature","properties":{"osm_way_id":"808365134","amenity":"parking"},"geometry":{"type":"MultiPolygon","coordinates":[[[[-0.5314,51.20089],[-0.53144,51.20087],[-0.53135,51.20082],[-0.53084,51.20055],[-0.53077,51.20061],[-0.53071,51.20066],[-0.53126,51.20093],[-0.5314,51.20089]]]]}},
{ "type":"Feature","properties":{"osm_way_id":"810352426","amenity":"parking","other":{"access":"customers","surface":"gravel"}}, "geometry":{"type":"MultiPolygon","coordinates":[[[[-0.80026,51.20511],[-0.8002,51.20502],[-0.8001,51.20505],[-0.79999,51.2049],[-0.79987,51.20494],[-0.80003,51.20517],[-0.80026,51.20511]]]]}},
{ "type":"Feature","properties":{"osm_way_id":"814535555","amenity":"parking","other":{"access":"customers"}}, "geometry":{"type":"MultiPolygon","coordinates":[[[[-0.51163,51.16745],[-0.51137,51.16744],[-0.51133,51.1671],[-0.51168,51.16712],[-0.51163,51.16745]]]]}},
{ "type":"Feature","properties":{"osm_way_id":"819261023","amenity":"parking"},"geometry":{"type":"MultiPolygon","coordinates":[[[[-0.77247,51.2373],[-0.77244,51.23726],[-0.77248,51.23725],[-0.77268,51.23719],[-0.77272,51.23724],[-0.77247,51.2373]]]]}},
{ "type":"Feature","properties":{"osm_way_id":"819261025","amenity":"parking"},"geometry":{"type":"MultiPolygon","coordinates":[[[[-0.77208,51.23739],[-0.77199,51.23725],[-0.77185,51.23728],[-0.77194,51.23743],[-0.77208,51.23739]]]]}},
{ "type":"Feature","properties":{"osm_way_id":"834194966","amenity":"parking"},"geometry":{"type":"MultiPolygon","coordinates":[[[[-0.48593,51.14115],[-0.48593,51.14103],[-0.48581,51.14103],[-0.48581,51.14111],[-0.48553,51.14111],[-0.48553,51.14109],[-0.4855,51.14109],[-0.48551,51.14104],[-0.4854,51.14104],[-0.48536,51.14112],[-0.48581,51.14122],[-0.48593,51.14115]]]]}},
{ "type":"Feature","properties":{"osm_way_id":"834194971","amenity":"parking"},"geometry":{"type":"MultiPolygon","coordinates":[[[[-0.48404,51.14108],[-0.48407,51.14076],[-0.48423,51.14076],[-0.48423,51.14082],[-0.48418,51.14082],[-0.48416,51.14106],[-0.48404,51.14108]]]]}},
{ "type":"Feature","properties":{"osm_way_id":"834194972","amenity":"parking"},"geometry":{"type":"MultiPolygon","coordinates":[[[[-0.48502,51.14081],[-0.48492,51.14062],[-0.48485,51.14061],[-0.48475,51.14069],[-0.4849,51.14086],[-0.48502,51.14081]]]]}},
{ "type":"Feature","properties":{"osm_way_id":"837447296","name":"Abbeywood Community School Car Park","amenity":"parking","other":{"access":"customers","fee":"no","parking":"surface","surface":"asphalt"}}, "geometry":{"type":"MultiPolygon","coordinates":[[[[-2.55234,51.51126],[-2.55224,51.51115],[-2.55224,51.51114],[-2.55227,51.51112],[-2.55297,51.51069],[-2.5532,51.51077],[-2.55234,51.51126]]]]}},
{ "type":"Feature","properties":{"osm_way_id":"838012359","amenity":"parking","other":{"access":"private","parking":"surface"}}, "geometry":{"type":"MultiPolygon","coordinates":[[[[-1.49279,52.91741],[-1.49277,52.91736],[-1.49246,52.91743],[-1.49247,52.91748],[-1.49279,52.91741]]]]}},
{ "type":"Feature","properties":{"osm_way_id":"847214319","amenity":"parking","other":{"access":"customers","fee":"no","surface":"asphalt"}}, "geometry":{"type":"MultiPolygon","coordinates":[[[[-0.77595,51.20045],[-0.77568,51.20048],[-0.77566,51.20042],[-0.77571,51.2004],[-0.77576,51.20039],[-0.77576,51.20033],[-0.7759,51.20032],[-0.77599,51.20039],[-0.77595,51.20045]]]]}},
{ "type":"Feature","properties":{"osm_way_id":"868417185","amenity":"parking","other":{"parking":"surface"}}, "geometry":{"type":"MultiPolygon","coordinates":[[[[-0.82856,51.16965],[-0.82859,51.16958],[-0.82805,51.16954],[-0.82804,51.16958],[-0.82804,51.16962],[-0.82856,51.16965]]]]}},
{ "type":"Feature","properties":{"osm_way_id":"889515497","amenity":"parking"},"geometry":{"type":"MultiPolygon","coordinates":[[[[-0.83492,51.20385],[-0.8352,51.20381],[-0.8353,51.20379],[-0.8352,51.20353],[-0.83488,51.20358],[-0.83492,51.20385]]]]}},
{ "type":"Feature","properties":{"osm_way_id":"909410661","amenity":"parking","other":{"parking":"surface"}}, "geometry":{"type":"MultiPolygon","coordinates":[[[[-0.76227,51.23046],[-0.76217,51.23056],[-0.76181,51.23044],[-0.76213,51.23013],[-0.76223,51.23017],[-0.7621,51.2303],[-0.76221,51.23035],[-0.76218,51.23039],[-0.76226,51.23042],[-0.76227,51.23046]]]]}},
{ "type":"Feature","properties":{"osm_way_id":"916670626","amenity":"parking"},"geometry":{"type":"MultiPolygon","coordinates":[[[[-0.65373,51.17632],[-0.65348,51.17632],[-0.65348,51.17609],[-0.65372,51.17609],[-0.65373,51.17632]]]]}},
{ "type":"Feature","properties":{"osm_way_id":"916681290","amenity":"parking"},"geometry":{"type":"MultiPolygon","coordinates":[[[[-0.62978,51.17892],[-0.6298,51.17886],[-0.62963,51.17883],[-0.62946,51.17883],[-0.6293,51.17886],[-0.62933,51.17896],[-0.62939,51.17896],[-0.62976,51.17896],[-0.62983,51.17899],[-0.62984,51.17896],[-0.62986,51.17894],[-0.62978,51.17892]]]]}},
{ "type":"Feature","properties":{"osm_way_id":"916797912","amenity":"parking"},"geometry":{"type":"MultiPolygon","coordinates":[[[[-0.64755,51.16292],[-0.64775,51.16278],[-0.64717,51.16243],[-0.64695,51.16257],[-0.64755,51.16292]]]]}},
{ "type":"Feature","properties":{"osm_way_id":"916797917","amenity":"parking"},"geometry":{"type":"MultiPolygon","coordinates":[[[[-0.64903,51.16328],[-0.64896,51.16324],[-0.64943,51.16293],[-0.64949,51.16297],[-0.64903,51.16328]]]]}},
{ "type":"Feature","properties":{"osm_way_id":"916797918","amenity":"parking"},"geometry":{"type":"MultiPolygon","coordinates":[[[[-0.64937,51.16285],[-0.64927,51.16279],[-0.64932,51.16276],[-0.64923,51.16271],[-0.64944,51.16254],[-0.64972,51.16266],[-0.64957,51.1628],[-0.64943,51.16289],[-0.64937,51.16285]]]]}},
{ "type":"Feature","properties":{"osm_way_id":"934007855","amenity":"parking","other":{"access":"customers","fee":"no","parking":"surface"}}, "geometry":{"type":"MultiPolygon","coordinates":[[[[-0.79407,51.21673],[-0.79444,51.21657],[-0.79451,51.21664],[-0.79458,51.21671],[-0.79451,51.21674],[-0.79474,51.21696],[-0.79503,51.21685],[-0.79507,51.21689],[-0.79513,51.21686],[-0.79509,51.21683],[-0.79516,51.2168],[-0.79483,51.21648],[-0.79475,51.21644],[-0.79468,51.21642],[-0.7946,51.2164],[-0.79452,51.21639],[-0.79445,51.21639],[-0.79438,51.21639],[-0.79431,51.2164],[-0.79424,51.21641],[-0.79418,51.21643],[-0.79412,51.21644],[-0.79407,51.21646],[-0.79402,51.21649],[-0.79396,51.21653],[-0.79407,51.21673]]]]}},
{ "type":"Feature","properties":{"osm_way_id":"942302867","amenity":"parking"},"geometry":{"type":"MultiPolygon","coordinates":[[[[-0.78229,51.23425],[-0.78219,51.23423],[-0.78232,51.234],[-0.78243,51.23402],[-0.78229,51.23425]]]]}},
{ "type":"Feature","properties":{"osm_way_id":"952956058","amenity":"parking"},"geometry":{"type":"MultiPolygon","coordinates":[[[[-0.61398,51.18596],[-0.61402,51.18608],[-0.61391,51.18609],[-0.61392,51.18614],[-0.61368,51.18619],[-0.61365,51.18599],[-0.61397,51.18594],[-0.61398,51.18596]]]]}},
{ "type":"Feature","properties":{"osm_way_id":"957957064","amenity":"parking","other":{"access":"customers","fee":"no","parking":"surface","surface":"asphalt"}}, "geometry":{"type":"MultiPolygon","coordinates":[[[[-0.76222,51.23084],[-0.76191,51.23073],[-0.76183,51.23081],[-0.76193,51.23085],[-0.76189,51.23089],[-0.76202,51.23092],[-0.76209,51.2309],[-0.76214,51.23091],[-0.76222,51.23084]]]]}},
{ "type":"Feature","properties":{"osm_way_id":"961089101","amenity":"parking"},"geometry":{"type":"MultiPolygon","coordinates":[[[[-0.50366,51.13925],[-0.50349,51.13935],[-0.50345,51.13932],[-0.50344,51.13932],[-0.50335,51.13925],[-0.5034,51.13922],[-0.50335,51.13917],[-0.50334,51.13914],[-0.50343,51.13912],[-0.50345,51.13916],[-0.50351,51.13912],[-0.50366,51.13925]]]]}},
{ "type":"Feature","properties":{"osm_way_id":"961089102","amenity":"parking"},"geometry":{"type":"MultiPolygon","coordinates":[[[[-0.50331,51.13906],[-0.50326,51.13888],[-0.5034,51.13885],[-0.50347,51.13902],[-0.50331,51.13906]]]]}},
{ "type":"Feature","properties":{"osm_way_id":"961089103","amenity":"parking"},"geometry":{"type":"MultiPolygon","coordinates":[[[[-0.50186,51.13924],[-0.5018,51.13918],[-0.50177,51.13913],[-0.5017,51.13913],[-0.50166,51.13904],[-0.50188,51.13901],[-0.50192,51.1391],[-0.50184,51.13912],[-0.50186,51.13917],[-0.50194,51.13923],[-0.50186,51.13924]]]]}},
{ "type":"Feature","properties":{"osm_way_id":"961637926","amenity":"parking"},"geometry":{"type":"MultiPolygon","coordinates":[[[[-0.50508,51.14004],[-0.50537,51.14001],[-0.50534,51.13989],[-0.50505,51.13991],[-0.50508,51.14004]]]]}},
{ "type":"Feature","properties":{"osm_way_id":"961662216","amenity":"parking","other":{"access":"yes","fee":"no","parking":"surface","surface":"asphalt"}}, "geometry":{"type":"MultiPolygon","coordinates":[[[[-0.76365,51.22866],[-0.76342,51.22867],[-0.76347,51.22886],[-0.76366,51.22882],[-0.76365,51.22866]]]]}},
{ "type":"Feature","properties":{"osm_way_id":"962412208","amenity":"parking"},"geometry":{"type":"MultiPolygon","coordinates":[[[[-0.53438,51.14266],[-0.53394,51.14268],[-0.53397,51.14212],[-0.53434,51.1421],[-0.53438,51.14266]]]]}},
{ "type":"Feature","properties":{"osm_way_id":"962412209","amenity":"parking"},"geometry":{"type":"MultiPolygon","coordinates":[[[[-0.53316,51.14263],[-0.53292,51.14264],[-0.53287,51.14219],[-0.53312,51.14217],[-0.53312,51.14213],[-0.53372,51.14212],[-0.5337,51.14229],[-0.53314,51.14233],[-0.53316,51.14263]]]]}},
{ "type":"Feature","properties":{"osm_way_id":"964983126","amenity":"parking","other":{"access":"private","parking":"surface"}}, "geometry":{"type":"MultiPolygon","coordinates":[[[[-0.7806,51.23325],[-0.78062,51.2332],[-0.78105,51.23334],[-0.78103,51.23338],[-0.7806,51.23325]]]]}},
{ "type":"Feature","properties":{"osm_way_id":"965364683","amenity":"parking","other":{"access":"private","fee":"no","parking":"surface"}}, "geometry":{"type":"MultiPolygon","coordinates":[[[[-0.79383,51.21847],[-0.79362,51.21854],[-0.79354,51.21843],[-0.79375,51.21837],[-0.79383,51.21847]]]]}},
{ "type":"Feature","properties":{"osm_way_id":"966304752","amenity":"parking","other":{"access":"private"}}, "geometry":{"type":"MultiPolygon","coordinates":[[[[-0.43356,51.10401],[-0.43364,51.104],[-0.43361,51.10394],[-0.43357,51.10394],[-0.4335,51.10394],[-0.43341,51.10394],[-0.43319,51.10397],[-0.43316,51.10397],[-0.43314,51.10397],[-0.43313,51.10397],[-0.43311,51.10396],[-0.4331,51.10396],[-0.43309,51.10395],[-0.43307,51.10393],[-0.43305,51.10389],[-0.4329,51.10392],[-0.43285,51.10392],[-0.43287,51.10395],[-0.43288,51.10398],[-0.4329,51.104],[-0.43291,51.10403],[-0.43293,51.10405],[-0.43305,51.10404],[-0.43308,51.10403],[-0.43309,51.10404],[-0.4331,51.10404],[-0.43312,51.10405],[-0.43313,51.10405],[-0.43315,51.10405],[-0.43318,51.10405],[-0.43319,51.10405],[-0.43322,51.10404],[-0.43356,51.104],[-0.43356,51.10401]]]]}},
{ "type":"Feature","properties":{"osm_way_id":"968222316","amenity":"parking"},"geometry":{"type":"MultiPolygon","coordinates":[[[[-0.75449,51.22321],[-0.75431,51.22336],[-0.75397,51.22334],[-0.75397,51.22328],[-0.75358,51.22327],[-0.75356,51.22317],[-0.75368,51.22318],[-0.75372,51.22306],[-0.75451,51.22317],[-0.75449,51.22321]]]]}},
{ "type":"Feature","properties":{"osm_way_id":"968222317","amenity":"parking"},"geometry":{"type":"MultiPolygon","coordinates":[[[[-0.75468,51.22322],[-0.75539,51.22363],[-0.75515,51.2237],[-0.7549,51.22377],[-0.75468,51.22379],[-0.75446,51.22379],[-0.75444,51.22377],[-0.75483,51.22343],[-0.75466,51.22332],[-0.75459,51.22329],[-0.75468,51.22322]]]]}},
{ "type":"Feature","properties":{"osm_way_id":"970742731","amenity":"parking"},"geometry":{"type":"MultiPolygon","coordinates":[[[[-0.50659,51.14221],[-0.50678,51.14221],[-0.50678,51.14211],[-0.50663,51.1421],[-0.50659,51.14221]]]]}},
{ "type":"Feature","properties":{"osm_way_id":"971430299","amenity":"parking","other":{"parking":"surface"}}, "geometry":{"type":"MultiPolygon","coordinates":[[[[-0.7711,51.19267],[-0.771,51.19256],[-0.77052,51.19271],[-0.77057,51.19277],[-0.77061,51.19283],[-0.7711,51.19267]]]]}},
{ "type":"Feature","properties":{"osm_way_id":"971436858","amenity":"parking","other":{"parking":"surface"}}, "geometry":{"type":"MultiPolygon","coordinates":[[[[-0.75048,51.18436],[-0.75034,51.18424],[-0.75045,51.18418],[-0.75045,51.18415],[-0.75045,51.18412],[-0.75066,51.18412],[-0.75069,51.18434],[-0.75048,51.18436]]]]}},
{ "type":"Feature","properties":{"osm_way_id":"996725652","amenity":"parking","other":{"access":"private","parking":"surface","surface":"paved"}}, "geometry":{"type":"MultiPolygon","coordinates":[[[[-0.64927,51.17426],[-0.64925,51.17427],[-0.64928,51.17429],[-0.64921,51.17435],[-0.64914,51.17441],[-0.64896,51.17432],[-0.64912,51.17419],[-0.6492,51.17424],[-0.64923,51.17422],[-0.64925,51.17424],[-0.64927,51.17426]]]]}},
{ "type":"Feature","properties":{"osm_way_id":"998007199","amenity":"parking","other":{"access":"customers","fee":"no","parking":"surface","surface":"asphalt"}}, "geometry":{"type":"MultiPolygon","coordinates":[[[[-0.5939,51.19582],[-0.59383,51.19575],[-0.59373,51.19568],[-0.59366,51.19566],[-0.59356,51.19564],[-0.59348,51.19565],[-0.59336,51.19569],[-0.59325,51.19573],[-0.59319,51.19576],[-0.59309,51.19583],[-0.59307,51.19585],[-0.59303,51.1959],[-0.59293,51.19596],[-0.59294,51.1961],[-0.59313,51.19624],[-0.59378,51.19588],[-0.5939,51.19582]]]]}},
{ "type":"Feature","properties":{"osm_way_id":"999049770","amenity":"parking","other":{"access":"private"}}, "geometry":{"type":"MultiPolygon","coordinates":[[[[-0.50588,51.11466],[-0.50636,51.11472],[-0.50651,51.11476],[-0.50662,51.11457],[-0.50642,51.11455],[-0.50635,51.11454],[-0.5063,51.11454],[-0.50622,51.11453],[-0.50592,51.11452],[-0.50588,51.11466]]]]}},
{ "type":"Feature","properties":{"osm_way_id":"999049772","amenity":"parking","other":{"access":"private"}}, "geometry":{"type":"MultiPolygon","coordinates":[[[[-0.50824,51.11497],[-0.50754,51.11468],[-0.5075,51.11468],[-0.5075,51.11465],[-0.50781,51.11464],[-0.50795,51.11465],[-0.50804,51.11465],[-0.50809,51.11466],[-0.50815,51.11468],[-0.5082,51.11471],[-0.50825,51.11475],[-0.50832,51.11484],[-0.50836,51.11488],[-0.50824,51.11497]]]]}},
{ "type":"Feature","properties":{"osm_way_id":"1016562627","amenity":"parking","other":{"access":"permit","parking":"surface","surface":"asphalt"}}, "geometry":{"type":"MultiPolygon","coordinates":[[[[-0.80246,51.21646],[-0.80225,51.21652],[-0.80192,51.21604],[-0.80201,51.21601],[-0.80213,51.21598],[-0.80246,51.21646]]]]}},
{ "type":"Feature","properties":{"osm_way_id":"1016874738","amenity":"parking"},"geometry":{"type":"MultiPolygon","coordinates":[[[[-0.62472,51.16766],[-0.62492,51.16732],[-0.62485,51.16731],[-0.62493,51.16718],[-0.62457,51.16709],[-0.62432,51.16748],[-0.62462,51.16756],[-0.62458,51.16763],[-0.62472,51.16766]]]]}},
{ "type":"Feature","properties":{"osm_way_id":"1017146117","amenity":"parking"},"geometry":{"type":"MultiPolygon","coordinates":[[[[-0.64464,51.1735],[-0.64494,51.17337],[-0.64472,51.17316],[-0.64473,51.17311],[-0.64476,51.17307],[-0.64487,51.17304],[-0.64464,51.17282],[-0.64413,51.17305],[-0.64464,51.1735]]]]}},
{ "type":"Feature","properties":{"osm_way_id":"1017398564","amenity":"parking"},"geometry":{"type":"MultiPolygon","coordinates":[[[[-0.59811,51.19434],[-0.59797,51.19416],[-0.59818,51.19399],[-0.59843,51.19424],[-0.59811,51.19434]]]]}},
{ "type":"Feature","properties":{"osm_way_id":"1018255290","amenity":"parking","other":{"access":"private"}}, "geometry":{"type":"MultiPolygon","coordinates":[[[[-0.60684,51.19038],[-0.60692,51.19038],[-0.6069,51.19056],[-0.60668,51.19056],[-0.60671,51.19048],[-0.60683,51.19049],[-0.60684,51.19038]]]]}},
{ "type":"Feature","properties":{"osm_way_id":"1019577149","amenity":"parking","other":{"access":"private","parking":"surface"}}, "geometry":{"type":"MultiPolygon","coordinates":[[[[-0.78425,51.23898],[-0.78443,51.23886],[-0.78449,51.23889],[-0.78457,51.23884],[-0.7848,51.23897],[-0.78471,51.23903],[-0.78475,51.23905],[-0.78458,51.23917],[-0.78425,51.23898]]]]}},
{ "type":"Feature","properties":{"osm_way_id":"1020119774","amenity":"parking","other":{"parking":"surface"}}, "geometry":{"type":"MultiPolygon","coordinates":[[[[-0.76629,51.22823],[-0.7662,51.22824],[-0.76617,51.22826],[-0.76617,51.22839],[-0.76628,51.22839],[-0.7663,51.22836],[-0.76629,51.22823]]]]}},
{ "type":"Feature","properties":{"osm_way_id":"1029580428","amenity":"parking","other":{"access":"customers","parking":"surface"}}, "geometry":{"type":"MultiPolygon","coordinates":[[[[-0.62409,51.17977],[-0.62397,51.17989],[-0.62434,51.18003],[-0.62446,51.17991],[-0.62409,51.17977]]]]}},
{ "type":"Feature","properties":{"osm_way_id":"1029580430","amenity":"parking"},"geometry":{"type":"MultiPolygon","coordinates":[[[[-0.62363,51.18082],[-0.62365,51.18083],[-0.62402,51.18098],[-0.62407,51.18099],[-0.62392,51.18111],[-0.6235,51.18093],[-0.62363,51.18082]]]]}},
{ "type":"Feature","properties":{"osm_way_id":"1031608879","building":"house"},"geometry":{"type":"MultiPolygon","coordinates":[[[[-0.62772,51.18431],[-0.62779,51.18428],[-0.62786,51.18435],[-0.62778,51.18438],[-0.62772,51.18431]]]]}},
{ "type":"Feature","properties":{"osm_way_id":"1032501243","amenity":"parking"},"geometry":{"type":"MultiPolygon","coordinates":[[[[-0.60941,51.18739],[-0.60979,51.18751],[-0.60974,51.18773],[-0.60958,51.18779],[-0.60934,51.18789],[-0.60933,51.18787],[-0.60924,51.18777],[-0.60949,51.18768],[-0.6094,51.18757],[-0.60928,51.18754],[-0.60929,51.18752],[-0.60933,51.18748],[-0.60937,51.18742],[-0.60941,51.18739]]]]}},
{ "type":"Feature","properties":{"osm_way_id":"1036993301","amenity":"parking","other":{"access":"customers","parking":"surface"}}, "geometry":{"type":"MultiPolygon","coordinates":[[[[-0.61495,51.20303],[-0.61472,51.20316],[-0.61448,51.20299],[-0.61473,51.20285],[-0.61485,51.20294],[-0.61484,51.20295],[-0.61495,51.20303]]]]}},
{ "type":"Feature","properties":{"osm_way_id":"1038737438","building":"garage","other":{"building:levels":"1","roof:shape":"gabled"}}, "geometry":{"type":"MultiPolygon","coordinates":[[[[-0.77593,51.23729],[-0.77593,51.23728],[-0.77596,51.23725],[-0.77597,51.23723],[-0.77592,51.23721],[-0.77588,51.23728],[-0.77593,51.23729]]]]}},
{ "type":"Feature","properties":{"osm_way_id":"1044590584","amenity":"parking","other":{"access":"private","fee":"yes","operator":"Frensam Pond Hotel","operator:type":"private","parking":"surface"}}, "geometry":{"type":"MultiPolygon","coordinates":[[[[-0.79873,51.15322],[-0.7985,51.15292],[-0.79843,51.15274],[-0.79865,51.15283],[-0.79871,51.15303],[-0.79862,51.15302],[-0.79876,51.15321],[-0.79873,51.15322]]]]}}
]
}
