{
"type": "FeatureCollection",
"features": [
{ "type":"Feature","properties":{"osm_way_id":"49798373","name":"Compact Storage & Workspace","building":"warehouse","other":{"addr:city":"Maldon","addr:postcode":"CM9 4NX","addr:street":"Mill Lane","email":"info@compactstorage.co.uk","operator":"Compact Storage Ltd","phone":"+44 1621 841840","website":"https:\/\/www.compactstorage.co.uk\/"}}, "geometry":{"type":"MultiPolygon","coordinates":[[[[0.67809,51.73561],[0.67847,51.73543],[0.67829,51.73529],[0.67791,51.73547],[0.67809,51.73561]]]]}},
{ "type":"Feature","properties":{"osm_way_id":"49798399","name":"The PSL Group","building":"warehouse","other":{"addr:city":"Maldon","addr:postcode":"CM9 5FA","addr:street":"Bates Road","email":"sales@pslgroup.net","fax":"+44 1621 854452","phone":"+44 1621 854451","website":"https:\/\/www.pslgroup.net\/"}}, "geometry":{"type":"MultiPolygon","coordinates":[[[[0.68614,51.73803],[0.68574,51.73773],[0.68573,51.73772],[0.68695,51.7371],[0.6873,51.73737],[0.68728,51.73738],[0.68637,51.73784],[0.68643,51.73788],[0.68614,51.73803]]]]}},
{ "type":"Feature","properties":{"osm_way_id":"49798434","name":"Rockwell Automation","building":"warehouse","other":{"addr:city":"Maldon","addr:postcode":"CM9 4LA","addr:street":"Hall Road","phone":"+44 1621 879500","website":"https:\/\/www.rockwellautomation.com\/en-gb.html"}}, "geometry":{"type":"MultiPolygon","coordinates":[[[[0.68836,51.73977],[0.68824,51.73971],[0.68814,51.73967],[0.68806,51.73973],[0.68802,51.73971],[0.68786,51.73963],[0.68781,51.73961],[0.6883,51.73922],[0.68833,51.73923],[0.68877,51.73945],[0.68852,51.73965],[0.68854,51.73966],[0.68848,51.73971],[0.68849,51.73971],[0.68848,51.73972],[0.68847,51.73972],[0.68842,51.73976],[0.6884,51.73977],[0.68836,51.73977]]]]}}
]
}
