{
"type": "FeatureCollection",
"features": [
{ "type":"Feature","properties":{"osm_way_id":"49011593","name":"Tesco Extra","building":"commercial","shop":"supermarket","other":{"addr:city":"Maldon","addr:country":"GB","addr:housename":"Tesco","addr:postcode":"CM9 4LE","addr:street":"Fulbridge","alt_name":"Tesco Maldon Extra","brand":"Tesco Extra","brand:wikidata":"Q25172225","brand:wikipedia":"en:Tesco Extra","contact:website":"https:\/\/www.tesco.com\/store-locator\/maldon\/fulbridge","internet_access":"wlan","internet_access:fee":"customers","opening_hours":"Mo-Sa 06:00-23:59; Su 10:00-16:00","opening_hours:covid19":"same","operator":"Tesco Stores Ltd","phone":"+44 845 677 9459"}}, "geometry":{"type":"MultiPolygon","coordinates":[[[[0.6785,51.73585],[0.67887,51.73592],[0.67878,51.73611],[0.67875,51.7361],[0.67869,51.7362],[0.67868,51.73619],[0.67855,51.73643],[0.67858,51.73644],[0.6785,51.7366],[0.6784,51.73677],[0.67717,51.73651],[0.67679,51.73644],[0.67687,51.73629],[0.67711,51.73584],[0.67713,51.73581],[0.67733,51.73585],[0.67741,51.73571],[0.67759,51.73575],[0.67762,51.7357],[0.67791,51.73576],[0.67783,51.7359],[0.67782,51.73592],[0.67786,51.73593],[0.67813,51.73599],[0.67815,51.73596],[0.67827,51.73598],[0.67824,51.73602],[0.67829,51.73603],[0.67832,51.73599],[0.67841,51.73601],[0.6785,51.73585]]]]}},
{ "type":"Feature","properties":{"osm_way_id":"55946165","name":"Fruit & Veg","building":"yes","shop":"supermarket","other":{"organic":"only"}}, "geometry":{"type":"MultiPolygon","coordinates":[[[[0.68297,51.72521],[0.68294,51.72528],[0.68302,51.72529],[0.68305,51.72522],[0.68297,51.72521]]]]}},
{ "type":"Feature","properties":{"osm_way_id":"55953717","name":"Sainsbury's","building":"yes","shop":"supermarket","other":{"addr:postcode":"BL3 6DG","addr:street":"Trinity Street","brand":"Sainsbury's","brand:wikidata":"Q152096","brand:wikipedia":"en:Sainsbury's","fhrs:id":"52205","source:addr":"FHRS Open Data","toilets:wheelchair":"yes","website":"https:\/\/stores.sainsburys.co.uk\/2835\/bolton","wheelchair":"yes"}}, "geometry":{"type":"MultiPolygon","coordinates":[[[[-2.43024,53.57231],[-2.43022,53.57243],[-2.43046,53.57244],[-2.43045,53.57251],[-2.4302,53.57249],[-2.43011,53.57296],[-2.42962,53.57293],[-2.42959,53.57308],[-2.42858,53.573],[-2.42861,53.57284],[-2.42866,53.57284],[-2.42877,53.57233],[-2.42903,53.57223],[-2.43024,53.57231]]]]}},
{ "type":"Feature","properties":{"osm_way_id":"91006011","name":"Tesco Express","building":"yes","shop":"supermarket","other":{"addr:housenumber":"150","addr:postcode":"CM0 8HQ","addr:street":"Station Road","brand":"Tesco Express","brand:wikidata":"Q98456772","brand:wikipedia":"en:Tesco","contact:phone":"+44 845 0269105","fhrs:authority":"Maldon","fhrs:confidence_management":"0","fhrs:hygiene":"0","fhrs:id":"13874","fhrs:rating":"5","fhrs:structural":"0","opening_hours":"Mo-Su 07:00-23:00","operator":"Tesco Stores Ltd"}}, "geometry":{"type":"MultiPolygon","coordinates":[[[[0.81532,51.62757],[0.81524,51.62757],[0.81492,51.6276],[0.81487,51.62764],[0.81488,51.62772],[0.81488,51.62774],[0.81496,51.62774],[0.81495,51.62773],[0.81534,51.6277],[0.81534,51.62766],[0.81541,51.62766],[0.8154,51.62758],[0.81532,51.62759],[0.81532,51.62757]]]]}},
{ "type":"Feature","properties":{"osm_way_id":"92935479","name":"Morrisons","building":"commercial","shop":"supermarket","other":{"addr:city":"Maldon","addr:country":"GB","addr:postcode":"CM9 6GG","addr:street":"Limebrook Way","brand":"Morrisons","brand:wikidata":"Q922344","brand:wikipedia":"en:Morrisons","opening_hours":"Mo-Sa 08:00-20:00; Th,Fr 08:00-21:00; Su 10:00-16:00","phone":"+44 1621 843817","wheelchair":"yes"}}, "geometry":{"type":"MultiPolygon","coordinates":[[[[0.66407,51.71997],[0.66471,51.71984],[0.66475,51.71993],[0.6647,51.71994],[0.66488,51.72028],[0.66489,51.72041],[0.6648,51.72043],[0.66484,51.72051],[0.66482,51.72055],[0.66425,51.72067],[0.66429,51.72075],[0.66418,51.72077],[0.66411,51.72078],[0.66396,51.72046],[0.66393,51.72038],[0.66386,51.72037],[0.66385,51.72034],[0.66367,51.72004],[0.66385,51.72],[0.66385,51.71999],[0.66406,51.71995],[0.66407,51.71997]]]]}},
{ "type":"Feature","properties":{"osm_way_id":"96367562","name":"East of England CO-OP","building":"yes","shop":"supermarket","other":{"addr:city":"Maldon","addr:postcode":"CM9 5ED","addr:street":"Cross Road","branch":"Food Store","brand":"East of England CO-OP","brand:wikidata":"Q5329759","brand:wikipedia":"en:East of England Co-operative Society","opening_hours":"Mo-Sa 06:00-23:00; Su 07:00-22:00","operator":"East of England Co-operative Society","operator:wikidata":"Q5329759","operator:wikipedia":"en:East of England Co-operative Society"}}, "geometry":{"type":"MultiPolygon","coordinates":[[[[0.68297,51.72491],[0.68304,51.72493],[0.68303,51.72494],[0.68326,51.72499],[0.6833,51.72498],[0.68338,51.72485],[0.68327,51.72483],[0.68326,51.72485],[0.68321,51.72484],[0.68321,51.72483],[0.68314,51.72481],[0.68311,51.72482],[0.68303,51.7248],[0.68297,51.72491]]]]}},
{ "type":"Feature","properties":{"osm_way_id":"97704663","name":"Costcutter","building":"yes","shop":"supermarket","other":{"addr:city":"Maldon","addr:country":"GB","addr:housename":"King George's Place","addr:housenumber":"9-10","addr:street":"High Street","brand":"Costcutter","brand:wikidata":"Q5175072","brand:wikipedia":"en:Costcutter"}}, "geometry":{"type":"MultiPolygon","coordinates":[[[[0.68253,51.73024],[0.68271,51.73018],[0.68269,51.73016],[0.68264,51.73009],[0.68245,51.73015],[0.68253,51.73024]]]]}},
{ "type":"Feature","properties":{"osm_way_id":"158225803","building":"yes","other":{"addr:city":"Maldon","addr:country":"GB","addr:housenumber":"58","addr:street":"Tennyson Road"}}, "geometry":{"type":"MultiPolygon","coordinates":[[[[0.68427,51.72131],[0.68424,51.7213],[0.68426,51.72127],[0.68431,51.72128],[0.68432,51.72126],[0.6844,51.72128],[0.68439,51.7213],[0.68444,51.72131],[0.68441,51.72134],[0.68427,51.72131]]]]}},
{ "type":"Feature","properties":{"osm_way_id":"160433274","name":"Freshways","building":"yes","shop":"supermarket","other":{"addr:city":"Chelmsford","addr:country":"GB","addr:housenumber":"78","addr:place":"Mayland","addr:postcode":"CM3 6AH","addr:street":"Imperial Avenue"}}, "geometry":{"type":"MultiPolygon","coordinates":[[[[0.75392,51.68697],[0.75413,51.68699],[0.75421,51.68674],[0.75401,51.68672],[0.75396,51.68686],[0.75395,51.68686],[0.75392,51.68697]]]]}},
{ "type":"Feature","properties":{"osm_way_id":"161426927","name":"Chapmans","building":"yes","shop":"supermarket","other":{"addr:postcode":"CM0 7BA","addr:street":"Pantile Hill","fhrs:authority":"Maldon","fhrs:confidence_management":"5","fhrs:hygiene":"5","fhrs:id":"41845","fhrs:rating":"5","fhrs:structural":"5","opening_hours":"Mo-Th 07:00-22:00; Fr 07:00-24:00; Sa 08:00-24:00; Su 10:00-21:00"}}, "geometry":{"type":"MultiPolygon","coordinates":[[[[0.82505,51.66316],[0.82527,51.66313],[0.82531,51.66324],[0.82517,51.66326],[0.82518,51.6633],[0.8251,51.66331],[0.82505,51.66316]]]]}},
{ "type":"Feature","properties":{"osm_way_id":"161762866","name":"East of England Co-op","building":"yes","shop":"supermarket","other":{"addr:housenumber":"1-3","addr:postcode":"CM0 8BL","addr:street":"Foundry Lane","alt_name":"East of England Co-operative Food Store","fhrs:authority":"Maldon","fhrs:confidence_management":"0","fhrs:hygiene":"0","fhrs:id":"9238","fhrs:rating":"5","fhrs:structural":"0","opening_hours":"Mo-Sa 07:00-22:00; Su 10:00-16:00","operator":"East of England Co-Op"}}, "geometry":{"type":"MultiPolygon","coordinates":[[[[0.81429,51.6326],[0.81431,51.63266],[0.81436,51.63287],[0.81431,51.6329],[0.81433,51.63298],[0.8144,51.633],[0.81441,51.63303],[0.81464,51.63315],[0.81478,51.63306],[0.81483,51.63283],[0.81489,51.63272],[0.81488,51.63272],[0.81494,51.63261],[0.81496,51.63261],[0.815,51.63255],[0.81492,51.6325],[0.81481,51.6325],[0.81481,51.63251],[0.81432,51.63257],[0.81429,51.6326]]]]}},
{ "type":"Feature","properties":{"osm_way_id":"227820519","name":"Asda","shop":"supermarket","other":{"addr:city":"Maldon","addr:country":"GB","addr:postcode":"CM9 4GD","addr:street":"Colchester Road","brand":"Asda","brand:wikidata":"Q297410","brand:wikipedia":"en:Asda","building:part":"yes","contact:facebook":"https:\/\/www.facebook.com\/asda\/","contact:twitter":"@asda","fhrs:id":"46951","opening_hours":"Mo-Sa 07:00-22:00; Su 10:00-16:00","opening_hours:covid19":"same","operator":"Asda Stores Ltd","phone":"+44 1621 722400","website":"https:\/\/www.asda.com\/"}}, "geometry":{"type":"MultiPolygon","coordinates":[[[[0.68956,51.74076],[0.68961,51.7407],[0.68963,51.74068],[0.68971,51.7407],[0.68974,51.74067],[0.68998,51.74074],[0.68972,51.74104],[0.68952,51.74098],[0.68956,51.74093],[0.68944,51.7409],[0.68955,51.74078],[0.68956,51.74076]]]]}},
{ "type":"Feature","properties":{"osm_way_id":"851920391","name":"ALDI","building":"yes","shop":"supermarket","other":{"addr:city":"Maldon","addr:postcode":"CM9 4DY","addr:street":"The Causeway","addr:unit":"1","brand":"ALDI","brand:wikidata":"Q41171672","brand:wikipedia":"en:Aldi","contact:website":"https:\/\/www.aldi.co.uk\/store\/s-uk-E1172","opening_hours":"Mo-Sa 08:00-22:00; Su 10:00-16:00","opening_hours:covid19":"same"}}, "geometry":{"type":"MultiPolygon","coordinates":[[[[0.68311,51.73563],[0.68308,51.73566],[0.68341,51.73584],[0.68403,51.73541],[0.68391,51.73534],[0.68386,51.73538],[0.68365,51.73526],[0.68355,51.73533],[0.68311,51.73563]]]]}},
{ "type":"Feature","properties":{"osm_way_id":"923015467","name":"Lidl","building":"yes","shop":"supermarket","other":{"addr:city":"Maldon","addr:country":"GB","addr:housenumber":"2","addr:postcode":"CM9 4LQ","addr:street":"Station Road","brand":"Lidl","brand:wikidata":"Q151954","brand:wikipedia":"en:Lidl","fhrs:id":"932619","opening_hours":"Mo-Sa 08:00-20:00; Su 10:00-16:00; PH 08:00-20:00","opening_hours:covid19":"same","website":"https:\/\/www.lidl.co.uk\/"}}, "geometry":{"type":"MultiPolygon","coordinates":[[[[0.67988,51.73537],[0.68001,51.73533],[0.68,51.73532],[0.68063,51.73515],[0.68047,51.73493],[0.68056,51.73491],[0.68042,51.73474],[0.67998,51.73487],[0.68006,51.73498],[0.67969,51.73509],[0.6797,51.73511],[0.6797,51.73511],[0.67984,51.7353],[0.67983,51.7353],[0.67988,51.73537]]]]}},
{ "type":"Feature","properties":{"osm_way_id":"952384078","name":"Asda","building":"supermarket","shop":"supermarket","other":{"addr:city":"York","addr:country":"GB","addr:housename":"Monks Cross Shopping Park","addr:postcode":"YO32 9LF","addr:street":"Jockey Lane","alt_name":"ASDA York Superstore","brand":"Asda","brand:wikidata":"Q297410","brand:wikipedia":"en:Asda","cafe":"yes","contact:phone":"+44 1904 628107","contact:website":"https:\/\/storelocator.asda.com\/yorkshire-&-humber\/york\/jockey-lane-monks-cross","fhrs:id":"246426","opening_hours":"Mo 07:00-24:00; Tu-Fr 00:00-24:00; Sa 00:00-22:00; Su 10:00-16:00","opening_hours:pharmacy":"Mo-Sa 09:00-21:00; Su 10:00-16:00","opening_hours:url":"http:\/\/storelocator.asda.com\/store\/york","operator":"Asda Stores Ltd","pharmacy":"yes","toilets":"yes"}}, "geometry":{"type":"MultiPolygon","coordinates":[[[[-1.04328,53.98579],[-1.04312,53.98577],[-1.04298,53.98616],[-1.04282,53.98614],[-1.0427,53.98652],[-1.0429,53.98654],[-1.04287,53.98665],[-1.04277,53.98663],[-1.04274,53.98669],[-1.04271,53.98669],[-1.04269,53.98675],[-1.04282,53.98676],[-1.04278,53.9869],[-1.04299,53.98693],[-1.04299,53.98695],[-1.04387,53.98705],[-1.04393,53.98687],[-1.0441,53.98689],[-1.04422,53.98654],[-1.04423,53.98649],[-1.0443,53.98627],[-1.04432,53.98622],[-1.04435,53.98614],[-1.04419,53.98612],[-1.04422,53.98601],[-1.04352,53.98593],[-1.04328,53.98591],[-1.04327,53.98593],[-1.04324,53.98593],[-1.04328,53.98579]]]]}}
]
}
