{
"type": "FeatureCollection",
"features": [
{ "type":"Feature","properties":{"osm_id":"255112995","name":"Costcutter","other":{"brand":"Costcutter","brand:wikidata":"Q5175072","brand:wikipedia":"en:Costcutter","shop":"supermarket"}}, "geometry":{"type":"Point","coordinates":[-1.4772,53.36934 ]}},
{ "type":"Feature","properties":{"osm_id":"266962569","name":"Lidl","other":{"addr:city":"Sheffield","addr:country":"GB","addr:housenumber":"30","addr:postcode":"S2 1AS","addr:street":"Alison Crescent","brand":"Lidl","brand:wikidata":"Q151954","brand:wikipedia":"en:Lidl","fhrs:id":"1097632","shop":"supermarket"}}, "geometry":{"type":"Point","coordinates":[-1.41731,53.37194 ]}},
{ "type":"Feature","properties":{"osm_id":"266962598","name":"Co-op","other":{"operator":"The Co-operative Group","shop":"supermarket"}}, "geometry":{"type":"Point","coordinates":[-1.42939,53.37526 ]}},
{ "type":"Feature","properties":{"osm_id":"276302061","name":"Co-operative","other":{"shop":"supermarket"}}, "geometry":{"type":"Point","coordinates":[-1.47975,53.41861 ]}},
{ "type":"Feature","properties":{"osm_id":"278603375","name":"Co-operative","other":{"shop":"supermarket"}}, "geometry":{"type":"Point","coordinates":[-1.47927,53.43166 ]}},
{ "type":"Feature","properties":{"osm_id":"285978526","name":"Co-op Food","other":{"brand":"Co-op Food","brand:wikidata":"Q3277439","brand:wikipedia":"en:Co-op Food","operator":"The Co-operative Group","operator:wikidata":"Q117202","operator:wikipedia":"en:The Co-operative Group","shop":"supermarket"}}, "geometry":{"type":"Point","coordinates":[-1.07549,53.5084 ]}},
{ "type":"Feature","properties":{"osm_id":"286279047","name":"The Co-operative","other":{"shop":"supermarket","wheelchair":"yes"}}, "geometry":{"type":"Point","coordinates":[-1.08792,53.50001 ]}},
{ "type":"Feature","properties":{"osm_id":"312646836","name":"Asda","other":{"addr:city":"Chapeltown","addr:country":"GB","addr:postcode":"S35 2UW","addr:street":"Market Street","brand":"Asda","brand:wikidata":"Q297410","brand:wikipedia":"en:Asda","contact:website":"https:\/\/storelocator.asda.com\/yorkshire-&-humber\/sheffield\/1-market-street-chapeltown","fhrs:id":"435822","operator":"Asda Stores Ltd","shop":"supermarket"}}, "geometry":{"type":"Point","coordinates":[-1.46596,53.46277 ]}},
{ "type":"Feature","properties":{"osm_id":"317633119","name":"Continental Food Store","other":{"addr:city":"Sheffield","addr:country":"GB","addr:housenumber":"66-68","addr:postcode":"S6 3EB","addr:street":"Upperthorpe Road","fhrs:id":"436495","shop":"supermarket"}}, "geometry":{"type":"Point","coordinates":[-1.4866,53.39014 ]}},
{ "type":"Feature","properties":{"osm_id":"360001829","name":"CO-OPERATIVE","other":{"addr:city":"Sheffield","addr:country":"GB","addr:housenumber":"155","addr:postcode":"S12 2AJ","addr:street":"Mansfield Road","fhrs:id":"1021549","operator":"Co-Operative","shop":"supermarket"}}, "geometry":{"type":"Point","coordinates":[-1.41149,53.3559 ]}},
{ "type":"Feature","properties":{"osm_id":"361249214","name":"The Co-operative Food","other":{"addr:city":"Sheffield","addr:country":"GB","addr:housenumber":"3-9","addr:postcode":"S8 9JE","addr:street":"Lees Hall Avenue","fhrs:id":"437200","opening_hours":"Mo-Su,PH 07:00-22:00","operator":"The Co-operative Group","payment:cash":"yes","payment:debit_cards":"yes","shop":"supermarket","wheelchair":"yes"}}, "geometry":{"type":"Point","coordinates":[-1.46677,53.35194 ]}},
{ "type":"Feature","properties":{"osm_id":"361687238","name":"The Co-operative Food","other":{"operator":"The Co-operative Group","shop":"supermarket"}}, "geometry":{"type":"Point","coordinates":[-1.46454,53.32279 ]}},
{ "type":"Feature","properties":{"osm_id":"364836104","name":"The Co-operative Food","other":{"shop":"supermarket"}}, "geometry":{"type":"Point","coordinates":[-1.40007,53.43955 ]}},
{ "type":"Feature","properties":{"osm_id":"367046207","name":"Co-op Food","other":{"brand":"Co-op Food","brand:wikidata":"Q3277439","brand:wikipedia":"en:Co-op Food","operator":"The Co-operative Group","shop":"supermarket"}}, "geometry":{"type":"Point","coordinates":[-1.44945,53.34032 ]}},
{ "type":"Feature","properties":{"osm_id":"387012196","name":"Late Shop","other":{"shop":"supermarket"}}, "geometry":{"type":"Point","coordinates":[-1.37137,53.35929 ]}},
{ "type":"Feature","properties":{"osm_id":"387012227","name":"Costcutter","other":{"shop":"supermarket"}}, "geometry":{"type":"Point","coordinates":[-1.37032,53.35885 ]}},
{ "type":"Feature","properties":{"osm_id":"455919268","name":"Heron Foods","other":{"addr:city":"Rotherham","addr:country":"GB","addr:housenumber":"72","addr:postcode":"S66 7BN","addr:street":"High Street","brand":"Heron Foods","brand:wikidata":"Q5743472","brand:wikipedia":"en:Heron Foods","contact:website":"https:\/\/heronfoods.com\/storelocator\/store-details\/maltby","fhrs:id":"582721","shop":"supermarket"}}, "geometry":{"type":"Point","coordinates":[-1.19934,53.42359 ]}},
{ "type":"Feature","properties":{"osm_id":"469172002","name":"Asda","other":{"addr:city":"Parkgate","addr:country":"GB","addr:postcode":"S62 6EE","addr:street":"Taylors Lane","brand":"Asda","brand:wikidata":"Q297410","brand:wikipedia":"en:Asda","contact:website":"https:\/\/storelocator.asda.com\/yorkshire-&-humber\/rotherham\/taylors-lane-parkgate","fhrs:id":"460785","operator":"Asda Stores Ltd","shop":"supermarket"}}, "geometry":{"type":"Point","coordinates":[-1.3454,53.4506 ]}},
{ "type":"Feature","properties":{"osm_id":"469776557","name":"McColl's","other":{"shop":"supermarket"}}, "geometry":{"type":"Point","coordinates":[-1.40334,53.44776 ]}},
{ "type":"Feature","properties":{"osm_id":"655307382","name":"Spar","other":{"brand":"Spar","brand:wikidata":"Q610492","brand:wikipedia":"en:Spar (retailer)","shop":"supermarket"}}, "geometry":{"type":"Point","coordinates":[-1.4248,53.35147 ]}},
{ "type":"Feature","properties":{"osm_id":"666137995","name":"The Co-operative Food","other":{"addr:city":"Sheffield","addr:country":"GB","addr:postcode":"S12 4WG","addr:street":"Birley Moor Road","brand":"The Co-operative Food","brand:wikidata":"Q3277439","brand:wikipedia":"en:Co-op Food","opening_hours":"Mo-Su 07:00-22:00","operator":"The Co-operative Group","payment:card":"yes","payment:cash":"yes","payment:contactless":"yes","shop":"supermarket"}}, "geometry":{"type":"Point","coordinates":[-1.40088,53.34851 ]}},
{ "type":"Feature","properties":{"osm_id":"1265232400","name":"Budgens","other":{"addr:city":"Sheffield","addr:country":"GB","addr:housenumber":"110","addr:postcode":"S3 7NQ","addr:street":"Weston Street","brand":"Budgens","brand:wikidata":"Q4985016","brand:wikipedia":"en:Budgens","fhrs:id":"436572","shop":"supermarket"}}, "geometry":{"type":"Point","coordinates":[-1.48765,53.38359 ]}},
{ "type":"Feature","properties":{"osm_id":"1422949712","name":"Asda","other":{"addr:city":"Sheffield","addr:country":"GB","addr:housenumber":"98","addr:postcode":"S6 1TA","addr:street":"Catch Bar Lane","brand":"Asda","brand:wikidata":"Q297410","brand:wikipedia":"en:Asda","contact:website":"https:\/\/storelocator.asda.com\/yorkshire-&-humber\/sheffield\/98-catchbar-lane","fhrs:id":"437500","operator":"Asda Stores Ltd","shop":"supermarket"}}, "geometry":{"type":"Point","coordinates":[-1.50431,53.41185 ]}},
{ "type":"Feature","properties":{"osm_id":"1426815179","name":"The Co-operative Food","other":{"shop":"supermarket"}}, "geometry":{"type":"Point","coordinates":[-1.02104,53.42894 ]}},
{ "type":"Feature","properties":{"osm_id":"1705929109","name":"Co-op","other":{"shop":"supermarket"}}, "geometry":{"type":"Point","coordinates":[-1.37373,53.45332 ]}},
{ "type":"Feature","properties":{"osm_id":"1936891006","name":"Iceland","other":{"brand":"Iceland","brand:wikidata":"Q721810","operator":"Iceland","shop":"supermarket"}}, "geometry":{"type":"Point","coordinates":[-1.45834,53.5618 ]}},
{ "type":"Feature","properties":{"osm_id":"1937679642","name":"Beeches of Walkley","other":{"shop":"supermarket"}}, "geometry":{"type":"Point","coordinates":[-1.50065,53.39313 ]}},
{ "type":"Feature","properties":{"osm_id":"2081226276","name":"ALDI","other":{"addr:city":"Sheffield","addr:country":"GB","addr:housename":"ALDI","addr:postcode":"S25 2AF","addr:street":"Littlefield Road","addr:town":"Dinnington","brand":"ALDI","brand:wikidata":"Q41171672","brand:wikipedia":"en:Aldi","contact:website":"https:\/\/www.aldi.co.uk\/store\/s-uk-E0786","fhrs:id":"461278","shop":"supermarket"}}, "geometry":{"type":"Point","coordinates":[-1.21192,53.36818 ]}},
{ "type":"Feature","properties":{"osm_id":"2343239869","name":"Ozmen","other":{"addr:city":"Sheffield","addr:country":"GB","addr:housenumber":"178-184","addr:postcode":"S2 4LT","addr:street":"London Road","fhrs:id":"522144","level":"0","shop":"supermarket"}}, "geometry":{"type":"Point","coordinates":[-1.47697,53.36903 ]}},
{ "type":"Feature","properties":{"osm_id":"2425972421","name":"Empire News","other":{"addr:city":"Sheffield","addr:country":"GB","addr:housenumber":"77-83","addr:postcode":"S7 1GJ","addr:street":"Empire Road","fhrs:id":"988948","shop":"supermarket"}}, "geometry":{"type":"Point","coordinates":[-1.48147,53.36024 ]}},
{ "type":"Feature","properties":{"osm_id":"2624389267","name":"Global Market","other":{"shop":"supermarket"}}, "geometry":{"type":"Point","coordinates":[-1.47715,53.37695 ]}},
{ "type":"Feature","properties":{"osm_id":"2689546521","other":{"shop":"supermarket"}}, "geometry":{"type":"Point","coordinates":[-1.31507,53.51961 ]}},
{ "type":"Feature","properties":{"osm_id":"3256968947","name":"Heron Foods","other":{"addr:city":"Doncaster","addr:country":"GB","addr:housenumber":"268","addr:postcode":"DN6 7HN","addr:street":"Great North Road","brand":"Heron Foods","brand:wikidata":"Q5743472","brand:wikipedia":"en:Heron Foods","contact:website":"https:\/\/heronfoods.com\/index.php\/storelocator\/store-details\/woodlands","fhrs:id":"692401","shop":"supermarket"}}, "geometry":{"type":"Point","coordinates":[-1.19503,53.56375 ]}},
{ "type":"Feature","properties":{"osm_id":"3257106796","name":"The Co-operative Food","other":{"addr:city":"Darfield","addr:country":"GB","addr:postcode":"S73 9DJ","addr:street":"Barnsley Road","fhrs:id":"397277","operator":"The Co-operative Group","shop":"supermarket"}}, "geometry":{"type":"Point","coordinates":[-1.38641,53.53758 ]}},
{ "type":"Feature","properties":{"osm_id":"3392793599","name":"The Co-operative Food","other":{"shop":"supermarket"}}, "geometry":{"type":"Point","coordinates":[-1.27594,53.34081 ]}},
{ "type":"Feature","properties":{"osm_id":"3632893045","name":"Heron Foods","other":{"addr:city":"Sheffield","addr:country":"GB","addr:postcode":"S8 8DQ","addr:street":"Dyche Road","addr:unit":"2","brand":"Heron Foods","brand:wikidata":"Q5743472","brand:wikipedia":"en:Heron Foods","contact:website":"https:\/\/heronfoods.com\/storelocator\/store-details\/jordanthorpe","fhrs:id":"743869","shop":"supermarket"}}, "geometry":{"type":"Point","coordinates":[-1.46535,53.32276 ]}},
{ "type":"Feature","properties":{"osm_id":"3632894034","name":"Adams Express","other":{"shop":"supermarket"}}, "geometry":{"type":"Point","coordinates":[-1.46496,53.32288 ]}},
{ "type":"Feature","properties":{"osm_id":"3634316307","name":"The Co-operative Food","other":{"operator":"The Co-operative Group","shop":"supermarket"}}, "geometry":{"type":"Point","coordinates":[-1.41795,53.34767 ]}},
{ "type":"Feature","properties":{"osm_id":"3635375798","name":"The Co-operative Food","other":{"operator":"The Co-operative Group","shop":"supermarket"}}, "geometry":{"type":"Point","coordinates":[-1.23164,53.37842 ]}},
{ "type":"Feature","properties":{"osm_id":"3639395548","name":"The Co-operative Food","other":{"addr:city":"Hoyland","addr:postcode":"S74 9AB","addr:street":"High Street","operator":"The Co-operative Group","shop":"supermarket"}}, "geometry":{"type":"Point","coordinates":[-1.43792,53.50052 ]}},
{ "type":"Feature","properties":{"osm_id":"3645952214","name":"Martins Good To Go","other":{"addr:city":"Sheffield","addr:country":"GB","addr:housenumber":"34,36,38","addr:postcode":"S3 8JB","addr:street":"Wicker","fhrs:id":"436616","operator":"Martins Goods to Go Ltd","shop":"supermarket"}}, "geometry":{"type":"Point","coordinates":[-1.46295,53.38652 ]}},
{ "type":"Feature","properties":{"osm_id":"3646348460","name":"Emin Supermarket","other":{"addr:city":"Sheffield","addr:country":"GB","addr:housenumber":"74,76,78","addr:postcode":"S4 7LG","addr:street":"Spital Hill","fhrs:id":"437635","shop":"supermarket","source:addr":"FHRS Open Data"}}, "geometry":{"type":"Point","coordinates":[-1.45809,53.39177 ]}},
{ "type":"Feature","properties":{"osm_id":"3825000961","name":"Fultons Foods","other":{"brand":"Fultons Foods","brand:wikidata":"Q6112633","shop":"supermarket"}}, "geometry":{"type":"Point","coordinates":[-1.4788,53.57923 ]}},
{ "type":"Feature","properties":{"osm_id":"4067606493","name":"Aldi","other":{"brand":"ALDI","brand:wikidata":"Q41171672","brand:wikipedia":"en:Aldi","operator":"Aldi","shop":"supermarket"}}, "geometry":{"type":"Point","coordinates":[-1.345,53.4374 ]}},
{ "type":"Feature","properties":{"osm_id":"4081274554","name":"The Co-operative Food","other":{"addr:street":"Hayfield Lane","operator":"The Co-operative Group","shop":"supermarket"}}, "geometry":{"type":"Point","coordinates":[-1.02257,53.49033 ]}},
{ "type":"Feature","properties":{"osm_id":"4190969224","name":"Heron Foods","other":{"addr:city":"Doncaster","addr:country":"GB","addr:housenumber":"1,3","addr:postcode":"DN8 5AP","addr:street":"The Green","brand":"Heron Foods","brand:wikidata":"Q5743472","brand:wikipedia":"en:Heron Foods","contact:website":"https:\/\/heronfoods.com\/storelocator\/store-details\/thorne","fhrs:id":"1110161","shop":"supermarket"}}, "geometry":{"type":"Point","coordinates":[-0.96251,53.61178 ]}},
{ "type":"Feature","properties":{"osm_id":"4190969279","name":"Fultons Foods","other":{"addr:city":"Doncaster","addr:country":"GB","addr:housenumber":"9","addr:postcode":"DN8 5DE","addr:street":"Finkle Street","addr:town":"Thorne","brand":"Fultons Foods","brand:wikidata":"Q6112633","fhrs:id":"368255","old_name":"Jack Fultons","shop":"supermarket"}}, "geometry":{"type":"Point","coordinates":[-0.96254,53.61112 ]}},
{ "type":"Feature","properties":{"osm_id":"4192610796","name":"Iceland","other":{"brand":"Iceland","brand:wikidata":"Q721810","shop":"supermarket"}}, "geometry":{"type":"Point","coordinates":[-1.1847,53.58267 ]}},
{ "type":"Feature","properties":{"osm_id":"4192610807","name":"Asda","other":{"addr:city":"Carcroft","addr:country":"GB","addr:postcode":"DN6 8DN","addr:street":"High Street","brand":"Asda","brand:wikidata":"Q297410","brand:wikipedia":"en:Asda","contact:website":"https:\/\/storelocator.asda.com\/yorkshire-&-humber\/doncaster\/high-street-carcroft","fhrs:id":"366955","operator":"Asda Stores Ltd","shop":"supermarket"}}, "geometry":{"type":"Point","coordinates":[-1.18252,53.58229 ]}},
{ "type":"Feature","properties":{"osm_id":"4192662957","name":"Co-op","other":{"opening_hours":"Mo-Su 07:00-22:00","operator":"The Co-operative Group","shop":"supermarket"}}, "geometry":{"type":"Point","coordinates":[-1.01236,53.58186 ]}},
{ "type":"Feature","properties":{"osm_id":"4348958342","name":"Bargain Booze","other":{"addr:city":"Sheffield","addr:country":"GB","addr:housenumber":"7-9","addr:postcode":"S12 3AS","addr:street":"Birley Moor Crescent","fhrs:id":"1016515","shop":"supermarket"}}, "geometry":{"type":"Point","coordinates":[-1.39656,53.34251 ]}},
{ "type":"Feature","properties":{"osm_id":"4801814169","name":"Hua Mei Oriental Supermarket","other":{"addr:city":"Sheffield","addr:postcode":"S3 7GE","addr:street":"Edward Street","cuisine":"chinese","opening_hours":"Mo-Su 11:00-19:00","phone":"+44 742 703 9396","shop":"supermarket","website":"https:\/\/www.huamei.co.uk\/"}}, "geometry":{"type":"Point","coordinates":[-1.47719,53.38554 ]}},
{ "type":"Feature","properties":{"osm_id":"5101224363","name":"Heron Foods","other":{"addr:city":"Doncaster","addr:country":"GB","addr:housenumber":"45,46","addr:postcode":"DN1 1NJ","addr:street":"Market Place","brand":"Heron Foods","brand:wikidata":"Q5743472","brand:wikipedia":"en:Heron Foods","contact:website":"https:\/\/heronfoods.com\/storelocator\/store-details\/doncaster-market","fhrs:id":"698549","shop":"supermarket"}}, "geometry":{"type":"Point","coordinates":[-1.13324,53.52419 ]}},
{ "type":"Feature","properties":{"osm_id":"5454782365","name":"Co-Op","other":{"addr:city":"Sheffield","addr:country":"GB","addr:housenumber":"449","addr:postcode":"S13 8LU","addr:street":"Richmond Road","fhrs:id":"977515","shop":"supermarket"}}, "geometry":{"type":"Point","coordinates":[-1.40602,53.36174 ]}},
{ "type":"Feature","properties":{"osm_id":"5856734826","name":"Aldi","other":{"brand":"ALDI","brand:wikidata":"Q41171672","brand:wikipedia":"en:Aldi","shop":"supermarket"}}, "geometry":{"type":"Point","coordinates":[-1.58599,53.48266 ]}},
{ "type":"Feature","properties":{"osm_id":"5981468780","name":"Spar","other":{"brand":"Spar","brand:wikidata":"Q610492","brand:wikipedia":"en:SPAR (retailer)","opening_hours":"24\/7","shop":"supermarket"}}, "geometry":{"type":"Point","coordinates":[-1.46455,53.37686 ]}},
{ "type":"Feature","properties":{"osm_id":"6606544206","other":{"amenity":"post_box","operator":"Royal Mail"}}, "geometry":{"type":"Point","coordinates":[-1.13756,53.49098 ]}},
{ "type":"Feature","properties":{"osm_id":"6763838349","name":"Heron Foods","other":{"addr:city":"Rotherham","addr:country":"GB","addr:housenumber":"2,4","addr:postcode":"S60 1QU","addr:street":"Howard Street","brand":"Heron Foods","brand:wikidata":"Q5743472","brand:wikipedia":"en:Heron Foods","contact:website":"https:\/\/heronfoods.com\/storelocator\/store-details\/rotherham","fhrs:id":"462272","shop":"supermarket"}}, "geometry":{"type":"Point","coordinates":[-1.35625,53.43271 ]}},
{ "type":"Feature","properties":{"osm_id":"6809861486","other":{"shop":"supermarket"}}, "geometry":{"type":"Point","coordinates":[-1.48728,53.38121 ]}},
{ "type":"Feature","properties":{"osm_id":"7001435252","name":"Yi-Mart Oriental Supermarket","other":{"addr:city":"Sheffield","addr:country":"GB","addr:housenumber":"8","addr:postcode":"S1 4QD","addr:street":"Matilda Street","cuisine":"asian","fhrs:id":"696836","level":"0","phone":"+44 114 275 2786","shop":"supermarket"}}, "geometry":{"type":"Point","coordinates":[-1.47201,53.37677 ]}},
{ "type":"Feature","properties":{"osm_id":"7092980192","highway":"elevator"},"geometry":{"type":"Point","coordinates":[-1.49673,53.402 ]}},
{ "type":"Feature","properties":{"osm_id":"7123466686","name":"Heron Foods","other":{"addr:city":"Rotherham","addr:country":"GB","addr:housenumber":"53","addr:postcode":"S25 2PN","addr:street":"Laughton Road","brand":"Heron Foods","brand:wikidata":"Q5743472","brand:wikipedia":"en:Heron Foods","contact:website":"https:\/\/heronfoods.com\/storelocator\/store-details\/dinnington","fhrs:id":"460898","shop":"supermarket"}}, "geometry":{"type":"Point","coordinates":[-1.2104,53.36876 ]}},
{ "type":"Feature","properties":{"osm_id":"7238991561","name":"H H J Convenience Store","other":{"addr:city":"Sheffield","addr:housenumber":"185","addr:postcode":"S7 1FG","addr:street":"Abbeydale Road","phone":"+441142584445","shop":"supermarket"}}, "geometry":{"type":"Point","coordinates":[-1.47733,53.36315 ]}},
{ "type":"Feature","properties":{"osm_id":"7446738710","name":"Asda","other":{"addr:city":"Rotherham","addr:postcode":"S63 0JZ","addr:street":"Welfare Road","addr:town":"Thurnscoe","brand":"Asda","brand:wikidata":"Q297410","brand:wikipedia":"en:Asda","contact:website":"https:\/\/storelocator.asda.com\/yorkshire-&-humber\/barnsley\/welfare-road-thurnscoe","fhrs:id":"398419","operator":"Asda Stores Ltd","shop":"supermarket"}}, "geometry":{"type":"Point","coordinates":[-1.31505,53.54589 ]}},
{ "type":"Feature","properties":{"osm_id":"7446823487","name":"Asda","other":{"addr:city":"Balby","addr:country":"GB","addr:postcode":"DN4 9DL","addr:street":"Springwell Lane","brand":"Asda","brand:wikidata":"Q297410","brand:wikipedia":"en:Asda","contact:website":"https:\/\/storelocator.asda.com\/yorkshire-&-humber\/doncaster\/springwell-lane-balby","fhrs:id":"707084","operator":"Asda Stores Ltd","shop":"supermarket"}}, "geometry":{"type":"Point","coordinates":[-1.15568,53.49481 ]}},
{ "type":"Feature","properties":{"osm_id":"7446838809","name":"Asda","other":{"addr:city":"Edlington","addr:country":"GB","addr:postcode":"DN12 1DL","addr:street":"Bungalow Road","brand":"Asda","brand:wikidata":"Q297410","brand:wikipedia":"en:Asda","contact:website":"https:\/\/storelocator.asda.com\/yorkshire-&-humber\/edlington\/bungalow-road","fhrs:id":"368927","operator":"Asda Stores Ltd","shop":"supermarket"}}, "geometry":{"type":"Point","coordinates":[-1.19126,53.4814 ]}},
{ "type":"Feature","properties":{"osm_id":"7447273463","name":"Asda","other":{"addr:city":"Rotherham","addr:country":"GB","addr:housenumber":"107-111","addr:postcode":"S63 7PX","addr:street":"High Street","brand":"Asda","brand:wikidata":"Q297410","brand:wikipedia":"en:Asda","contact:website":"https:\/\/storelocator.asda.com\/yorkshire-&-humber\/wath-upon-dearne\/107-111-high-street","fhrs:id":"462066","operator":"Asda Stores Ltd","shop":"supermarket"}}, "geometry":{"type":"Point","coordinates":[-1.34137,53.50305 ]}},
{ "type":"Feature","properties":{"osm_id":"7598923498","other":{"defibrillator:location":"On outside wall. Available 24\/7.","emergency":"defibrillator"}}, "geometry":{"type":"Point","coordinates":[-1.52548,53.54311 ]}},
{ "type":"Feature","properties":{"osm_id":"7653583953","name":"ALDI","other":{"addr:city":"Maltby","addr:postcode":"S66 7JU","addr:street":"Muglet Lane","brand":"ALDI","brand:wikidata":"Q41171672","brand:wikipedia":"en:Aldi","opening_hours":"Mo-Sa 08:00-20:00; Su 10:00-16:00","phone":"+44 20 3137 8268","shop":"supermarket","website":"https:\/\/www.aldi.co.uk\/store\/s-uk-E0981"}}, "geometry":{"type":"Point","coordinates":[-1.19329,53.41992 ]}},
{ "type":"Feature","properties":{"osm_id":"7826581201","other":{"defibrillator:location":"On exterior wall of Cooperative Food","emergency":"defibrillator"}}, "geometry":{"type":"Point","coordinates":[1.0005,52.3406 ]}},
{ "type":"Feature","properties":{"osm_id":"7904504569","name":"Jack's","other":{"brand":"Jack's","brand:wikidata":"Q60741213","brand:wikipedia":"en:Jack's (store)","shop":"supermarket"}}, "geometry":{"type":"Point","coordinates":[-1.43566,53.54245 ]}},
{ "type":"Feature","properties":{"osm_id":"7965552544","name":"M&S Foodhall","other":{"brand":"M&S Foodhall","brand:wikidata":"Q714491","brand:wikipedia":"en:Marks & Spencer","shop":"supermarket"}}, "geometry":{"type":"Point","coordinates":[-1.10003,53.54334 ]}},
{ "type":"Feature","properties":{"osm_id":"8042278792","name":"The Food Warehouse","other":{"brand":"The Food Warehouse","brand:wikidata":"Q87263899","shop":"supermarket"}}, "geometry":{"type":"Point","coordinates":[-1.14606,53.53118 ]}},
{ "type":"Feature","properties":{"osm_id":"8308628083","name":"Heron Foods","other":{"brand":"Heron Foods","brand:wikidata":"Q5743472","brand:wikipedia":"en:Heron Foods","shop":"supermarket"}}, "geometry":{"type":"Point","coordinates":[-1.33014,53.43784 ]}},
{ "type":"Feature","properties":{"osm_id":"8505004068","highway":"elevator"},"geometry":{"type":"Point","coordinates":[-1.50209,53.37735 ]}},
{ "type":"Feature","properties":{"osm_id":"8528630247","other":{"defibrillator:location":"On outside wall.","emergency":"defibrillator","opening_hours":"24\/7"}}, "geometry":{"type":"Point","coordinates":[-1.39834,53.34688 ]}},
{ "type":"Feature","properties":{"osm_id":"8635160495","name":"Co-op","other":{"shop":"supermarket"}}, "geometry":{"type":"Point","coordinates":[-1.27882,53.43555 ]}},
{ "type":"Feature","properties":{"osm_id":"8818300703","other":{"emergency":"defibrillator","indoor":"no"}}, "geometry":{"type":"Point","coordinates":[-1.0719,53.57723 ]}},
{ "type":"Feature","properties":{"osm_id":"9097435145","other":{"defibrillator:location":"On outside wall.","emergency":"defibrillator","opening_hours":"24\/7"}}, "geometry":{"type":"Point","coordinates":[-1.47888,53.37262 ]}},
{ "type":"Feature","properties":{"osm_id":"9190967435","other":{"defibrillator:location":"outside Co-op, Main Street, Countesthorpe - to right of entrance","emergency":"defibrillator","indoor":"no"}}, "geometry":{"type":"Point","coordinates":[-1.13765,52.55338 ]}},
{ "type":"Feature","properties":{"osm_id":"9576092120","name":"Daad Dheere","other":{"addr:city":"Sheffield","addr:country":"GB","addr:housenumber":"20,22","addr:postcode":"S4 7JB","addr:street":"Ellesmere Road","fhrs:id":"437894","shop":"supermarket"}}, "geometry":{"type":"Point","coordinates":[-1.45744,53.39266 ]}},
{ "type":"Feature","properties":{"osm_way_id":"16160782","name":"Tesco","building":"yes","shop":"supermarket","other":{"branch":"Infirmary Road","brand":"Tesco","brand:wikidata":"Q487494","brand:wikipedia":"en:Tesco","wheelchair":"yes"}}, "geometry":{"type":"MultiPolygon","coordinates":[[[[-1.48263,53.3898],[-1.48314,53.38931],[-1.48318,53.38933],[-1.48326,53.38925],[-1.48352,53.38935],[-1.48364,53.38923],[-1.48324,53.38908],[-1.48315,53.38917],[-1.48304,53.38913],[-1.48301,53.38915],[-1.48249,53.38895],[-1.4819,53.38951],[-1.48243,53.38971],[-1.48242,53.38972],[-1.48246,53.38973],[-1.48243,53.38975],[-1.48241,53.38977],[-1.48254,53.38982],[-1.48256,53.3898],[-1.48258,53.38978],[-1.48263,53.3898]]]]}},
{ "type":"Feature","properties":{"osm_way_id":"30910751","name":"Tesco","building":"retail","shop":"supermarket","other":{"addr:city":"Rotherham","addr:country":"GB","addr:postcode":"S66 8LG","addr:street":"High Street","brand":"Tesco","brand:wikidata":"Q487494","brand:wikipedia":"en:Tesco","opening_hours":"Mo-Fr 08:00-22:00; Sa 08:00-20:00; Su 10:00-16:00","operator":"Tesco","payment:cards":"yes","payment:cash":"yes","payment:contactless":"yes"}}, "geometry":{"type":"MultiPolygon","coordinates":[[[[-1.20232,53.42244],[-1.20207,53.42268],[-1.20184,53.42259],[-1.20168,53.42273],[-1.20145,53.42265],[-1.20182,53.42227],[-1.20232,53.42244]]]]}},
{ "type":"Feature","properties":{"osm_way_id":"32786138","name":"Asda","building":"supermarket","shop":"supermarket","other":{"addr:city":"Doncaster","addr:country":"GB","addr:postcode":"DN4 5NW","addr:street":"Gliwice Way","brand":"Asda","brand:wikidata":"Q297410","brand:wikipedia":"en:Asda","contact:website":"https:\/\/storelocator.asda.com\/yorkshire-&-humber\/doncaster\/gliwice-way-bawtry-road","fhrs:id":"366354","operator":"Asda Stores Ltd","toilets":"yes","toilets:access":"customers","toilets:wheelchair":"yes","wheelchair":"yes"}}, "geometry":{"type":"MultiPolygon","coordinates":[[[[-1.1033,53.51623],[-1.10291,53.51615],[-1.10299,53.516],[-1.1029,53.51599],[-1.10234,53.51587],[-1.10223,53.51585],[-1.10217,53.51597],[-1.10148,53.51583],[-1.10121,53.51633],[-1.10175,53.51644],[-1.10166,53.51662],[-1.10244,53.51677],[-1.10238,53.51689],[-1.10293,53.51701],[-1.1032,53.51653],[-1.10328,53.51654],[-1.10344,53.51626],[-1.1033,53.51623]]]]}},
{ "type":"Feature","properties":{"osm_way_id":"39356300","name":"Co-operative Food","building":"yes","shop":"supermarket"},"geometry":{"type":"MultiPolygon","coordinates":[[[[-3.0344,53.48708],[-3.03425,53.48695],[-3.03395,53.48709],[-3.03378,53.48692],[-3.03366,53.48699],[-3.03389,53.48716],[-3.03395,53.48718],[-3.03404,53.4872],[-3.03413,53.48719],[-3.0344,53.48708]]]]}},
{ "type":"Feature","properties":{"osm_way_id":"41820579","name":"Morrisons","building":"yes","shop":"supermarket","other":{"addr:city":"Sheffield","addr:country":"GB","addr:street":"Poplar Way","addr:town":"Rotherham","addr:village":"Catcliffe","brand":"Morrisons","brand:wikidata":"Q922344","brand:wikipedia":"en:Morrisons","fhrs:id":"460802","opening_hours":"Mo-Sa 06:00-23:00; Su 10:00-16:00"}}, "geometry":{"type":"MultiPolygon","coordinates":[[[[-1.37473,53.3908],[-1.37461,53.3908],[-1.37452,53.39075],[-1.37436,53.39083],[-1.3731,53.39079],[-1.37307,53.39124],[-1.37314,53.39124],[-1.37313,53.39141],[-1.37473,53.39144],[-1.37472,53.39103],[-1.37473,53.3908]]]]}},
{ "type":"Feature","properties":{"osm_way_id":"51370902","name":"The Co-operative Food","building":"yes","shop":"supermarket","other":{"operator":"The Co-operative Group"}}, "geometry":{"type":"MultiPolygon","coordinates":[[[[-1.42145,53.34315],[-1.42164,53.34289],[-1.42173,53.34278],[-1.42154,53.34272],[-1.42147,53.34282],[-1.4214,53.3428],[-1.42124,53.34301],[-1.42119,53.34299],[-1.42113,53.34307],[-1.42145,53.34315]]]]}},
{ "type":"Feature","properties":{"osm_way_id":"52445136","name":"Morrisons","building":"retail","shop":"supermarket","other":{"addr:city":"Sheffield","addr:country":"GB","addr:housenumber":"84-130","addr:postcode":"S8 7UE","addr:street":"Meadowhead","atm":"yes","brand":"Morrisons","brand:wikidata":"Q922344","brand:wikipedia":"en:Morrisons","building:levels":"2","fee":"no","fhrs:id":"435980","opening_hours":"Mo-Sa 07:00-22:00; Su 10:00-16:00","roof:levels":"0","wheelchair":"yes"}}, "geometry":{"type":"MultiPolygon","coordinates":[[[[-1.48272,53.33512],[-1.48224,53.33525],[-1.48222,53.33523],[-1.48213,53.33525],[-1.4821,53.33523],[-1.48186,53.33528],[-1.4819,53.33532],[-1.48182,53.33535],[-1.48218,53.33582],[-1.48253,53.33602],[-1.48303,53.33587],[-1.48301,53.33584],[-1.48322,53.33578],[-1.48272,53.33512]]]]}},
{ "type":"Feature","properties":{"osm_way_id":"53050612","name":"Waitrose","building":"yes","shop":"supermarket","other":{"addr:housenumber":"1-3","addr:postcode":"S11 8HY","addr:street":"Ecclesall Road","brand":"Waitrose","brand:wikidata":"Q771734","brand:wikipedia":"en:Waitrose","contact:website":"https:\/\/www.waitrose.com\/bf_home\/bf\/695.html","fhrs:id":"437891","official_name":"Waitrose & Partners","opening_hours":"Mo-Fr 08:30-21:00; Sa 08:00-20:00; Su 10:00-16:00","operator":"Waitrose & Partners","toilets:wheelchair":"no","wheelchair":"yes"}}, "geometry":{"type":"MultiPolygon","coordinates":[[[[-1.47883,53.37309],[-1.47888,53.37262],[-1.47889,53.37254],[-1.47881,53.37254],[-1.47882,53.37245],[-1.47869,53.37235],[-1.47855,53.37241],[-1.47836,53.3724],[-1.47836,53.37236],[-1.47825,53.37236],[-1.47805,53.37245],[-1.47805,53.37255],[-1.47779,53.37254],[-1.47754,53.37265],[-1.47756,53.37267],[-1.47758,53.37269],[-1.47756,53.37303],[-1.47773,53.37303],[-1.47773,53.37307],[-1.47841,53.37309],[-1.47841,53.37314],[-1.47873,53.37314],[-1.47883,53.37309]]]]}},
{ "type":"Feature","properties":{"osm_way_id":"55037864","name":"Asda","building":"retail","shop":"supermarket","other":{"addr:city":"Sheffield","addr:country":"GB","addr:postcode":"S13 9LR","addr:street":"Handsworth Road","brand":"Asda","brand:wikidata":"Q297410","brand:wikipedia":"en:Asda","contact:website":"https:\/\/storelocator.asda.com\/yorkshire-&-humber\/sheffield\/handsworth-road","fhrs:id":"436054","opening_hours":"Tu-Fr 00:00-24:00; Sa 00:00-22:00; Su 10:00-16:00; Mo 07:00-24:00","operator":"Asda Stores Ltd","source:postcode":"website","wheelchair":"yes"}}, "geometry":{"type":"MultiPolygon","coordinates":[[[[-1.39628,53.37633],[-1.39628,53.37628],[-1.39631,53.37627],[-1.39627,53.37624],[-1.39625,53.37625],[-1.39608,53.37612],[-1.39611,53.37611],[-1.39607,53.37608],[-1.39605,53.37609],[-1.39589,53.37597],[-1.39588,53.37598],[-1.39598,53.37606],[-1.39556,53.37626],[-1.39548,53.3762],[-1.39576,53.37607],[-1.39571,53.37603],[-1.39574,53.37602],[-1.39564,53.37594],[-1.39567,53.37593],[-1.39562,53.37589],[-1.39576,53.37583],[-1.39571,53.37579],[-1.39586,53.37572],[-1.39576,53.37565],[-1.39591,53.37556],[-1.3959,53.37556],[-1.39623,53.37537],[-1.39675,53.37515],[-1.39689,53.37526],[-1.39691,53.37525],[-1.39703,53.37534],[-1.39704,53.37533],[-1.39757,53.37573],[-1.39727,53.37587],[-1.39738,53.37596],[-1.39696,53.37615],[-1.39659,53.37633],[-1.39644,53.3764],[-1.39636,53.37639],[-1.39628,53.37633]]]]}},
{ "type":"Feature","properties":{"osm_way_id":"59409230","name":"The Co-operative Food","building":"yes","shop":"supermarket","other":{"addr:city":"Sheffield","addr:country":"GB","addr:postcode":"S26 6QU","addr:street":"Chapel Way","addr:village":"Kiveton Park","fhrs:id":"461524"}}, "geometry":{"type":"MultiPolygon","coordinates":[[[[-1.27065,53.34026],[-1.27028,53.34029],[-1.27018,53.33986],[-1.27055,53.33982],[-1.27065,53.34026]]]]}},
{ "type":"Feature","properties":{"osm_way_id":"61652387","name":"ALDI","building":"yes","shop":"supermarket","other":{"addr:city":"Sheffield","addr:country":"GB","addr:housenumber":"183","addr:postcode":"S8 0JX","addr:street":"Archer Road","brand":"ALDI","brand:wikidata":"Q41171672","brand:wikipedia":"en:Aldi","fhrs:id":"1104151"}}, "geometry":{"type":"MultiPolygon","coordinates":[[[[-1.49228,53.34468],[-1.49182,53.34482],[-1.49178,53.34477],[-1.49171,53.34479],[-1.49158,53.34483],[-1.49178,53.34507],[-1.49255,53.34484],[-1.49244,53.34471],[-1.49233,53.34474],[-1.49228,53.34468]]]]}},
{ "type":"Feature","properties":{"osm_way_id":"67762465","name":"Lidl","building":"retail","shop":"supermarket","other":{"addr:postcode":"S8 0YH","addr:street":"Chesterfield Road","brand":"Lidl","brand:wikidata":"Q151954","brand:wikipedia":"en:Lidl","building:levels":"1","nohousenumber":"yes","opening_hours":"Mo-Sa 08:00-22:00; Su 10:00-16:00; PH 08:00-20:00","roof:levels":"0","roof:shape":"flat","wheelchair":"yes"}}, "geometry":{"type":"MultiPolygon","coordinates":[[[[-1.47693,53.35769],[-1.47679,53.35778],[-1.47649,53.35798],[-1.47645,53.35795],[-1.47627,53.35807],[-1.47644,53.35816],[-1.47661,53.35826],[-1.47732,53.3578],[-1.47736,53.35768],[-1.47715,53.35766],[-1.47714,53.35769],[-1.47713,53.35772],[-1.47693,53.35769]]]]}},
{ "type":"Feature","properties":{"osm_way_id":"70058893","name":"Morrisons","building":"retail","shop":"supermarket","other":{"addr:city":"Rotherham","addr:country":"GB","addr:housename":"Retail World","addr:postcode":"S60 1TG","addr:street":"Stadium Way","addr:suburb":"Parkgate","addr:unit":"19","brand":"Morrisons","brand:wikidata":"Q922344","brand:wikipedia":"en:Morrisons"}}, "geometry":{"type":"MultiPolygon","coordinates":[[[[-1.34354,53.44529],[-1.34308,53.44549],[-1.34305,53.44547],[-1.34269,53.44563],[-1.34327,53.44609],[-1.34331,53.44607],[-1.34387,53.44653],[-1.34429,53.44634],[-1.34432,53.44636],[-1.34457,53.44626],[-1.34439,53.44611],[-1.3445,53.44606],[-1.34354,53.44529]]]]}},
{ "type":"Feature","properties":{"osm_way_id":"71213950","name":"Morrisons","building":"supermarket","shop":"supermarket","other":{"addr:postcode":"S20 8GN","brand":"Morrisons","brand:wikidata":"Q922344","brand:wikipedia":"en:Morrisons","website":"https:\/\/my.morrisons.com\/storefinder\/101"}}, "geometry":{"type":"MultiPolygon","coordinates":[[[[-1.34379,53.32466],[-1.34379,53.32488],[-1.34356,53.32488],[-1.34341,53.32531],[-1.34341,53.32542],[-1.34327,53.32542],[-1.34327,53.32554],[-1.34311,53.32554],[-1.34311,53.32557],[-1.34301,53.32557],[-1.34301,53.32568],[-1.34287,53.32568],[-1.34275,53.32569],[-1.34275,53.32562],[-1.34254,53.32562],[-1.34254,53.32548],[-1.3425,53.32548],[-1.34249,53.32474],[-1.34339,53.32474],[-1.34339,53.32466],[-1.34379,53.32466]]]]}},
{ "type":"Feature","properties":{"osm_way_id":"72639164","name":"Morrisons","building":"yes","shop":"supermarket","other":{"brand":"Morrisons","brand:wikidata":"Q922344","brand:wikipedia":"en:Morrisons","opening_hours":"Mo-Sa 07:00-22:00; Su 10:00-16:00","wheelchair":"yes"}}, "geometry":{"type":"MultiPolygon","coordinates":[[[[-1.45924,53.44362],[-1.45899,53.44373],[-1.45906,53.44378],[-1.45838,53.44408],[-1.45903,53.4446],[-1.45912,53.44456],[-1.45923,53.44465],[-1.45941,53.44457],[-1.4595,53.44463],[-1.4597,53.44455],[-1.45963,53.44449],[-1.45965,53.44448],[-1.45988,53.44438],[-1.45968,53.44421],[-1.45978,53.44416],[-1.45937,53.44383],[-1.45945,53.44379],[-1.45924,53.44362]]]]}},
{ "type":"Feature","properties":{"osm_way_id":"84508981","name":"Asda","building":"yes","shop":"supermarket","other":{"addr:city":"Rotherham","addr:country":"GB","addr:postcode":"S65 3SW","addr:street":"Aldwarke Lane","brand":"Asda","brand:wikidata":"Q297410","brand:wikipedia":"en:Asda","contact:website":"https:\/\/storelocator.asda.com\/yorkshire-&-humber\/rotherham\/alwdarke-lane-off-doncaster-road","fhrs:id":"460552","operator":"Asda Stores Ltd"}}, "geometry":{"type":"MultiPolygon","coordinates":[[[[-1.31916,53.44294],[-1.31832,53.44336],[-1.31847,53.44347],[-1.31833,53.44355],[-1.31851,53.44367],[-1.31848,53.44369],[-1.31869,53.44382],[-1.31867,53.44392],[-1.31889,53.44407],[-1.319,53.44401],[-1.31921,53.44416],[-1.32001,53.44374],[-1.3198,53.44359],[-1.31996,53.44351],[-1.31978,53.44338],[-1.31983,53.44336],[-1.31967,53.44325],[-1.31963,53.44327],[-1.31916,53.44294]]]]}},
{ "type":"Feature","properties":{"osm_way_id":"97425709","name":"The Co-operative Food","building":"yes","shop":"supermarket","other":{"addr:housenumber":"137-139","addr:postcode":"S2 2EJ","addr:street":"Northern Avenue","brand":"The Co-operative Food","brand:wikidata":"Q107617274","operator":"The Co-operative Group"}}, "geometry":{"type":"MultiPolygon","coordinates":[[[[-1.43745,53.35976],[-1.43761,53.35963],[-1.43744,53.35955],[-1.43737,53.35956],[-1.43727,53.35963],[-1.43738,53.35968],[-1.43734,53.35972],[-1.43745,53.35976]]]]}},
{ "type":"Feature","properties":{"osm_way_id":"99959432","name":"Heron Foods","building":"retail","shop":"supermarket","other":{"addr:city":"Sheffield","addr:housenumber":"549-553","addr:postcode":"S2 2BS","addr:street":"Gleadless Road","brand":"Heron Foods","brand:wikidata":"Q5743472","brand:wikipedia":"en:Heron Foods","building:levels":"1","opening_hours":"Mo-Sa 08:00-20:00; Su 10:00-16:00","roof:levels":"0","roof:shape":"flat","wheelchair":"yes"}}, "geometry":{"type":"MultiPolygon","coordinates":[[[[-1.4484,53.35542],[-1.44837,53.35543],[-1.4482,53.35554],[-1.44818,53.35555],[-1.44852,53.35575],[-1.4487,53.35563],[-1.44873,53.35561],[-1.44871,53.3556],[-1.4484,53.35542]]]]}},
{ "type":"Feature","properties":{"osm_way_id":"100345016","name":"Co-op Food","building":"yes","shop":"supermarket","other":{"addr:city":"Sheffield","addr:country":"GB","addr:housenumber":"2","addr:postcode":"S6 6DT","addr:street":"Oldfield Road","brand":"Co-op Food","brand:wikidata":"Q3277439","brand:wikipedia":"en:Co-op Food","fhrs:id":"1021533","operator":"The Co-operative Group","operator:wikidata":"Q117202","operator:wikipedia":"en:The Co-operative Group","wikidata":"Q117202","wikipedia":"en:The Co-operative Group"}}, "geometry":{"type":"MultiPolygon","coordinates":[[[[-1.53319,53.39225],[-1.5331,53.39239],[-1.53307,53.39238],[-1.53302,53.39245],[-1.53288,53.39242],[-1.5329,53.39239],[-1.53284,53.39238],[-1.53292,53.39226],[-1.53298,53.39227],[-1.53301,53.39222],[-1.53305,53.39223],[-1.53306,53.39222],[-1.53319,53.39225]]]]}},
{ "type":"Feature","properties":{"osm_way_id":"101015063","name":"Golocal","building":"yes","shop":"supermarket"},"geometry":{"type":"MultiPolygon","coordinates":[[[[-1.54065,53.39389],[-1.54043,53.39401],[-1.54039,53.39399],[-1.54044,53.39396],[-1.54037,53.39392],[-1.54055,53.39383],[-1.54065,53.39389]]]]}},
{ "type":"Feature","properties":{"osm_way_id":"101015082","name":"The Co-operative Food","building":"yes","shop":"supermarket","other":{"operator":"The Co-operative Group"}}, "geometry":{"type":"MultiPolygon","coordinates":[[[[-1.54041,53.39376],[-1.54019,53.39388],[-1.54002,53.39376],[-1.54024,53.39366],[-1.54041,53.39376]]]]}},
{ "type":"Feature","properties":{"osm_way_id":"102868656","name":"The Co-operative Food","building":"yes","shop":"supermarket","other":{"operator":"The Co-operative Group"}}, "geometry":{"type":"MultiPolygon","coordinates":[[[[-1.54012,53.32735],[-1.54025,53.32719],[-1.54022,53.32718],[-1.54025,53.32715],[-1.54009,53.3271],[-1.53994,53.3273],[-1.54012,53.32735]]]]}},
{ "type":"Feature","properties":{"osm_way_id":"102881378","name":"Co-op Derbyshire Lane","building":"retail","shop":"supermarket","other":{"addr:city":"Sheffield","addr:housenumber":"229","addr:street":"Derbyshire Lane","building:levels":"1","opening_hours":"07:00-23:00","roof:levels":"0","wheelchair":"yes"}}, "geometry":{"type":"MultiPolygon","coordinates":[[[[-1.47151,53.34538],[-1.47137,53.3454],[-1.47121,53.34543],[-1.47111,53.34522],[-1.47141,53.34517],[-1.47151,53.34538]]]]}},
{ "type":"Feature","properties":{"osm_way_id":"103970038","name":"Sainsbury's","building":"yes","shop":"supermarket","other":{"addr:city":"Sheffield","addr:housenumber":"76","addr:postcode":"S1 4PA","addr:street":"The Moor","brand":"Sainsbury's","brand:wikidata":"Q152096","brand:wikipedia":"en:Sainsbury's","contact:phone":"+44 114 278 0334","fhrs:id":"436194","operator":"Sainsburys Supermarkets Ltd"}}, "geometry":{"type":"MultiPolygon","coordinates":[[[[-1.47421,53.37641],[-1.47424,53.37638],[-1.47412,53.37634],[-1.47394,53.37628],[-1.47398,53.37623],[-1.47374,53.37615],[-1.47384,53.37604],[-1.47394,53.37602],[-1.47418,53.3761],[-1.47492,53.37635],[-1.47494,53.3764],[-1.47492,53.37642],[-1.47475,53.37636],[-1.4746,53.37653],[-1.47454,53.37653],[-1.47443,53.3765],[-1.4744,53.37653],[-1.47427,53.37649],[-1.47431,53.37645],[-1.47421,53.37641]]]]}},
{ "type":"Feature","properties":{"osm_way_id":"103989341","name":"Tai Sun Oriental Supermarket","building":"yes","shop":"supermarket","other":{"contact:postcode":"S1 4QB","cuisine":"chinese"}}, "geometry":{"type":"MultiPolygon","coordinates":[[[[-1.47139,53.37669],[-1.47124,53.37682],[-1.47145,53.3769],[-1.47156,53.3768],[-1.47155,53.37675],[-1.47139,53.37669]]]]}},
{ "type":"Feature","properties":{"osm_way_id":"104698778","name":"Heron Foods","building":"yes","shop":"supermarket","other":{"addr:city":"Sheffield","addr:country":"GB","addr:housenumber":"19,21","addr:postcode":"S1 2AW","addr:street":"Haymarket","brand":"Heron Foods","brand:wikidata":"Q5743472","brand:wikipedia":"en:Heron Foods","contact:website":"https:\/\/heronfoods.com\/storelocator\/store-details\/haymarket","fhrs:id":"894935","source:addr":"FHRS Open Data"}}, "geometry":{"type":"MultiPolygon","coordinates":[[[[-1.46434,53.38396],[-1.46436,53.38385],[-1.46462,53.38387],[-1.46466,53.38388],[-1.46467,53.38383],[-1.46474,53.38384],[-1.4647,53.384],[-1.46434,53.38396]]]]}},
{ "type":"Feature","properties":{"osm_way_id":"106651405","name":"Co-op Food","building":"yes","shop":"supermarket","other":{"brand":"Co-op Food","brand:wikidata":"Q3277439","brand:wikipedia":"en:Co-op Food","opening_hours:covid19":"open","operator":"The Co-operative Group"}}, "geometry":{"type":"MultiPolygon","coordinates":[[[[-1.53258,53.31568],[-1.53235,53.31573],[-1.5323,53.31566],[-1.53226,53.3156],[-1.53237,53.31557],[-1.53234,53.31553],[-1.53249,53.31549],[-1.53252,53.31555],[-1.53249,53.31555],[-1.53258,53.31568]]]]}},
{ "type":"Feature","properties":{"osm_way_id":"109278070","name":"Spar","building":"yes","shop":"supermarket","other":{"addr:city":"Sheffield","addr:country":"GB","addr:housenumber":"26-28","addr:postcode":"S10 5NH","addr:street":"Sandygate Road","brand":"Spar","brand:wikidata":"Q610492","brand:wikipedia":"en:SPAR (retailer)","fhrs:id":"435654","operator":"Blakemore Retail"}}, "geometry":{"type":"MultiPolygon","coordinates":[[[[-1.52016,53.37951],[-1.52031,53.37945],[-1.52061,53.37957],[-1.52052,53.37966],[-1.52035,53.3796],[-1.52036,53.37959],[-1.52016,53.37951]]]]}},
{ "type":"Feature","properties":{"osm_way_id":"113064324","name":"Lidl","building":"yes","shop":"supermarket","other":{"addr:city":"Sheffield","addr:country":"GB","addr:housenumber":"445-451","addr:postcode":"S36 1DJ","addr:street":"Manchester Road","addr:town":"Stocksbridge","brand":"Lidl","brand:wikidata":"Q151954","fhrs:id":"1076789"}}, "geometry":{"type":"MultiPolygon","coordinates":[[[[-1.59124,53.48158],[-1.59129,53.48147],[-1.59138,53.48149],[-1.59142,53.4814],[-1.59043,53.48124],[-1.59042,53.48128],[-1.59032,53.48147],[-1.59095,53.48157],[-1.59096,53.48154],[-1.59124,53.48158]]]]}},
{ "type":"Feature","properties":{"osm_way_id":"113159787","name":"Morrisons","building":"retail","shop":"supermarket","other":{"addr:city":"Rotherham","addr:housename":"Morrisons","addr:postcode":"S66 1YZ","addr:street":"Bawtry Road","brand":"Morrisons","brand:wikidata":"Q922344","brand:wikipedia":"en:Morrisons","building:levels":"1","opening_hours":"Mo-Sa 07:00-23:00","operator":"Morrisons","payment:cards":"yes","payment:cash":"yes","payment:contactless":"yes","phone":"+44 1709 540681","roof:levels":"0","website":"https:\/\/my.morrisons.com\/storefinder\/39"}}, "geometry":{"type":"MultiPolygon","coordinates":[[[[-1.2575,53.42362],[-1.2578,53.42364],[-1.25784,53.4235],[-1.25755,53.42348],[-1.2576,53.42324],[-1.25756,53.42324],[-1.2576,53.42309],[-1.2574,53.42307],[-1.25744,53.42294],[-1.25701,53.4229],[-1.25702,53.42286],[-1.25691,53.42285],[-1.25686,53.4228],[-1.25671,53.42278],[-1.25646,53.42289],[-1.2564,53.42323],[-1.25654,53.42334],[-1.25665,53.42335],[-1.25656,53.42377],[-1.25661,53.42377],[-1.25664,53.42377],[-1.25662,53.42385],[-1.25728,53.4239],[-1.25732,53.42373],[-1.25747,53.42374],[-1.2575,53.42362]]]]}},
{ "type":"Feature","properties":{"osm_way_id":"113448337","name":"The Cooperative Food","building":"yes","shop":"supermarket","other":{"addr:city":"Sheffield","addr:country":"GB","addr:housenumber":"198","addr:postcode":"S10 1TG","addr:street":"Crookes","fhrs:id":"435629","website":"http:\/\/www.co-operativefood.co.uk\/"}}, "geometry":{"type":"MultiPolygon","coordinates":[[[[-1.50803,53.38544],[-1.50808,53.38528],[-1.50755,53.38529],[-1.50762,53.3855],[-1.50778,53.38551],[-1.5078,53.38542],[-1.50803,53.38544]]]]}},
{ "type":"Feature","properties":{"osm_way_id":"115304069","name":"Amigo's 2","building":"yes","shop":"supermarket","other":{"addr:city":"Sheffield","addr:country":"GB","addr:housenumber":"34","addr:postcode":"S6 3FU","addr:street":"Addy Street","fhrs:id":"578706"}}, "geometry":{"type":"MultiPolygon","coordinates":[[[[-1.48794,53.38927],[-1.48802,53.38917],[-1.48792,53.38909],[-1.48782,53.38917],[-1.48773,53.38925],[-1.48782,53.38932],[-1.48794,53.38927]]]]}},
{ "type":"Feature","properties":{"osm_way_id":"116105474","name":"Co-op Food","building":"commercial","shop":"supermarket","other":{"addr:city":"Sheffield","addr:housenumber":"2","addr:postcode":"S10 4GA","addr:street":"Brooklands Avenue","brand":"Co-op Food","brand:wikidata":"Q3277439","brand:wikipedia":"en:Co-op Food","operator":"The Co-operative Group","operator:wikidata":"Q117202","operator:wikipedia":"en:The Co-operative Group"}}, "geometry":{"type":"MultiPolygon","coordinates":[[[[-1.54556,53.36406],[-1.54555,53.36405],[-1.54588,53.36398],[-1.54593,53.36406],[-1.54577,53.36409],[-1.54578,53.3641],[-1.54564,53.36416],[-1.54562,53.36415],[-1.5456,53.36413],[-1.5456,53.36412],[-1.54559,53.36412],[-1.54558,53.36411],[-1.54554,53.36412],[-1.54551,53.36407],[-1.54556,53.36406]]]]}},
{ "type":"Feature","properties":{"osm_way_id":"116508516","name":"Asda","building":"yes","shop":"supermarket","other":{"addr:city":"Sheffield","addr:country":"GB","addr:housenumber":"330","addr:postcode":"S6 3TD","addr:street":"South Road","brand":"Asda","brand:wikidata":"Q297410","brand:wikipedia":"en:Asda","contact:website":"https:\/\/storelocator.asda.com\/yorkshire-&-humber\/walkley\/330-south-road-walkley","fhrs:id":"437654","old_name":"Netto","operator":"Asda Stores Ltd","wheelchair":"yes"}}, "geometry":{"type":"MultiPolygon","coordinates":[[[[-1.50185,53.39389],[-1.50193,53.39387],[-1.50241,53.39364],[-1.50226,53.39353],[-1.5017,53.39378],[-1.50185,53.39389]]]]}},
{ "type":"Feature","properties":{"osm_way_id":"117174511","name":"Budgens","shop":"supermarket","other":{"addr:city":"Sheffield","addr:country":"GB","addr:housenumber":"29","addr:postcode":"S2 4LA","addr:street":"London Road","brand":"Budgens","brand:wikidata":"Q4985016","brand:wikipedia":"en:Budgens","building:part":"yes","fhrs:id":"436512","listed_status":"Grade II"}}, "geometry":{"type":"MultiPolygon","coordinates":[[[[-1.47672,53.37174],[-1.47671,53.37171],[-1.47664,53.37153],[-1.47674,53.37151],[-1.47672,53.37157],[-1.47692,53.37159],[-1.47695,53.3716],[-1.47692,53.37168],[-1.47693,53.37169],[-1.47694,53.3717],[-1.47694,53.3717],[-1.47693,53.37171],[-1.47692,53.37172],[-1.47691,53.37173],[-1.47689,53.37173],[-1.47687,53.37173],[-1.47685,53.37172],[-1.47672,53.37174]]]]}},
{ "type":"Feature","properties":{"osm_way_id":"117175714","name":"ALDI","building":"yes","shop":"supermarket","other":{"addr:postcode":"S2 4QA","addr:street":"Saint Mary's Gate","brand":"ALDI","brand:wikidata":"Q41171672","brand:wikipedia":"en:Aldi","fhrs:id":"436988","opening_hours":"Mo-Sa 08:00-22:00; Su 10:00-16:00","wheelchair":"yes"}}, "geometry":{"type":"MultiPolygon","coordinates":[[[[-1.47537,53.37259],[-1.47541,53.37252],[-1.47545,53.3725],[-1.4753,53.37205],[-1.47473,53.37212],[-1.47492,53.37261],[-1.47537,53.37259]]]]}},
{ "type":"Feature","properties":{"osm_way_id":"131969190","name":"Sainsbury's","building":"yes","shop":"supermarket","other":{"addr:postcode":"S8 0TD","addr:street":"Archer Road","brand":"Sainsbury's","brand:wikidata":"Q152096","brand:wikipedia":"en:Sainsbury's"}}, "geometry":{"type":"MultiPolygon","coordinates":[[[[-1.49257,53.34585],[-1.49248,53.34576],[-1.49221,53.34547],[-1.49236,53.34542],[-1.49245,53.3454],[-1.4926,53.34535],[-1.49241,53.34515],[-1.49257,53.34509],[-1.49321,53.34486],[-1.49341,53.34483],[-1.49344,53.34486],[-1.4936,53.34481],[-1.49363,53.34484],[-1.49384,53.34476],[-1.4942,53.34511],[-1.49411,53.34516],[-1.49401,53.3452],[-1.49405,53.34524],[-1.49375,53.34534],[-1.4938,53.34538],[-1.49365,53.34549],[-1.49328,53.34562],[-1.49336,53.34569],[-1.49324,53.34573],[-1.49322,53.34572],[-1.49294,53.34583],[-1.49282,53.34587],[-1.49272,53.34579],[-1.49267,53.34581],[-1.49257,53.34585]]]]}},
{ "type":"Feature","properties":{"osm_way_id":"131969237","name":"Tesco","building":"yes","shop":"supermarket","other":{"addr:city":"Sheffield","addr:country":"GB","addr:postcode":"S7 2QB","addr:street":"Abbeydale Road","brand":"Tesco","brand:wikidata":"Q487494","brand:wikipedia":"en:Tesco","fhrs:id":"435963"}}, "geometry":{"type":"MultiPolygon","coordinates":[[[[-1.49315,53.34723],[-1.49283,53.34705],[-1.49227,53.34673],[-1.49331,53.34607],[-1.49335,53.34609],[-1.49344,53.34604],[-1.49401,53.34636],[-1.49393,53.34641],[-1.49399,53.34644],[-1.4941,53.34638],[-1.49424,53.34645],[-1.49412,53.34652],[-1.49419,53.34657],[-1.49386,53.34677],[-1.4937,53.34688],[-1.49356,53.34697],[-1.49363,53.34701],[-1.49326,53.34724],[-1.49319,53.3472],[-1.49315,53.34723]]]]}},
{ "type":"Feature","properties":{"osm_way_id":"131993149","name":"Asda","building":"retail","shop":"supermarket","other":{"addr:city":"Sheffield","addr:country":"GB","addr:housenumber":"801","addr:postcode":"S8 0SQ","addr:street":"Chesterfield Road","brand":"Asda","brand:wikidata":"Q297410","brand:wikipedia":"en:Asda","contact:website":"https:\/\/storelocator.asda.com\/yorkshire-&-humber\/woodseats\/801-chesterfield-road","fhrs:id":"505588","opening_hours":"Mo-Sa 07:00-22:00; Su 10:00-16:00","operator":"Asda Stores Ltd","payment:cash":"yes","payment:credit_cards":"yes","payment:debit_cards":"yes","wheelchair":"yes"}}, "geometry":{"type":"MultiPolygon","coordinates":[[[[-1.47805,53.34122],[-1.47826,53.34122],[-1.47826,53.34138],[-1.4777,53.34138],[-1.47771,53.34132],[-1.47771,53.34129],[-1.47741,53.34129],[-1.47739,53.34119],[-1.47805,53.34122]]]]}},
{ "type":"Feature","properties":{"osm_way_id":"134387731","name":"Sheffield Super Store","building":"yes","shop":"supermarket","other":{"addr:city":"Sheffield","addr:country":"GB","addr:housenumber":"369-373","addr:postcode":"S7 1FS","addr:street":"Abbeydale Road","fhrs:id":"914930"}}, "geometry":{"type":"MultiPolygon","coordinates":[[[[-1.47956,53.3599],[-1.47947,53.36003],[-1.47927,53.35999],[-1.47919,53.35997],[-1.47908,53.35994],[-1.47905,53.35993],[-1.47919,53.35988],[-1.47926,53.35982],[-1.47939,53.35985],[-1.47956,53.3599]]]]}},
{ "type":"Feature","properties":{"osm_way_id":"136926108","name":"Lidl","building":"yes","shop":"supermarket","other":{"addr:city":"Sheffield","addr:country":"GB","addr:housenumber":"170","addr:postcode":"S6 1LH","addr:street":"Halifax Road","addr:suburb":"Wadsley Bridge","brand":"Lidl","brand:wikidata":"Q151954","fhrs:id":"972492"}}, "geometry":{"type":"MultiPolygon","coordinates":[[[[-1.4921,53.42266],[-1.49208,53.42248],[-1.49197,53.42248],[-1.49197,53.42246],[-1.49193,53.42246],[-1.49193,53.42241],[-1.49187,53.42241],[-1.49186,53.42237],[-1.49151,53.42238],[-1.49155,53.42285],[-1.49195,53.42284],[-1.49194,53.4228],[-1.49203,53.42279],[-1.49202,53.42266],[-1.4921,53.42266]]]]}},
{ "type":"Feature","properties":{"osm_way_id":"137204145","name":"Tesco Extra","building":"supermarket","shop":"supermarket","other":{"addr:city":"Sheffield","addr:country":"GB","addr:housenumber":"1","addr:postcode":"S4 7UD","addr:street":"Savile Street","brand":"Tesco Extra","brand:wikidata":"Q25172225","brand:wikipedia":"en:Tesco Extra","contact:phone":"+44 3456 719 419","contact:website":"https:\/\/www.tesco.com\/store-locator\/uk\/?bid=6401","fhrs:id":"557967","opening_hours":"Mo-Sa 00:00-24:00; Su 11:00-17:00","wheelchair":"yes"}}, "geometry":{"type":"MultiPolygon","coordinates":[[[[-1.45652,53.38978],[-1.45683,53.39017],[-1.45667,53.39022],[-1.45676,53.39035],[-1.4566,53.39039],[-1.45673,53.39054],[-1.45836,53.39006],[-1.45843,53.39015],[-1.4585,53.39024],[-1.45869,53.39016],[-1.45866,53.39014],[-1.45856,53.39003],[-1.45835,53.38981],[-1.45832,53.38981],[-1.45792,53.38933],[-1.45779,53.38937],[-1.45781,53.38939],[-1.45652,53.38978]]]]}},
{ "type":"Feature","properties":{"osm_way_id":"137971319","name":"Bradway Post Office","building":"yes","shop":"supermarket","other":{"brand":"Spar","brand:wikidata":"Q610492","operator":"Spar"}}, "geometry":{"type":"MultiPolygon","coordinates":[[[[-1.50473,53.31836],[-1.50495,53.31827],[-1.50488,53.31821],[-1.50466,53.3183],[-1.50473,53.31836]]]]}},
{ "type":"Feature","properties":{"osm_way_id":"138097319","name":"Lidl","building":"yes","shop":"supermarket","other":{"addr:city":"Sheffield","addr:country":"GB","addr:housenumber":"6","addr:postcode":"S9 5JA","addr:street":"Catley Road","brand":"Lidl","brand:wikidata":"Q151954","brand:wikipedia":"en:Lidl","fhrs:id":"436356"}}, "geometry":{"type":"MultiPolygon","coordinates":[[[[-1.41047,53.38731],[-1.41054,53.38699],[-1.40976,53.38693],[-1.40977,53.38688],[-1.40963,53.38686],[-1.40961,53.38698],[-1.4097,53.38699],[-1.40965,53.3872],[-1.40991,53.38722],[-1.4099,53.38726],[-1.41047,53.38731]]]]}},
{ "type":"Feature","properties":{"osm_way_id":"138098748","name":"Hitchens","building":"yes","shop":"supermarket","other":{"addr:city":"Sheffield","addr:housenumber":"602-608","addr:postcode":"S9 3QS","addr:street":"Attercliffe Road","contact:phone":"+44 114 244 1611"}}, "geometry":{"type":"MultiPolygon","coordinates":[[[[-1.4332,53.39248],[-1.43328,53.39253],[-1.43351,53.39264],[-1.4336,53.3926],[-1.43371,53.39256],[-1.43349,53.39241],[-1.43325,53.39228],[-1.43315,53.3924],[-1.43324,53.39245],[-1.4332,53.39248]]]]}},
{ "type":"Feature","properties":{"osm_way_id":"142843492","name":"Asda","building":"yes","shop":"supermarket","other":{"addr:city":"Sheffield","addr:country":"GB","addr:postcode":"S5 8NH","addr:street":"Chaucer Road","brand":"Asda","brand:wikidata":"Q297410","brand:wikipedia":"en:Asda","contact:website":"https:\/\/storelocator.asda.com\/yorkshire-&-humber\/sheffield\/chaucer-road-parson-cross","fhrs:id":"437472","opening_hours":"Mo-Fr 06:00-24:00; Sa 06:00-22:00; Su 11:00-17:00","operator":"Asda Stores Ltd"}}, "geometry":{"type":"MultiPolygon","coordinates":[[[[-1.4878,53.42827],[-1.4878,53.4283],[-1.48798,53.42831],[-1.48824,53.42819],[-1.48825,53.42812],[-1.48836,53.42812],[-1.48838,53.42807],[-1.48847,53.42807],[-1.48853,53.42804],[-1.48855,53.42799],[-1.48851,53.42797],[-1.48854,53.42782],[-1.48843,53.42767],[-1.48684,53.42756],[-1.48683,53.42759],[-1.48663,53.42757],[-1.48654,53.42811],[-1.48656,53.42817],[-1.4867,53.42827],[-1.48681,53.42829],[-1.48714,53.42833],[-1.48738,53.42833],[-1.48754,53.42832],[-1.48756,53.42826],[-1.4878,53.42827]]]]}},
{ "type":"Feature","properties":{"osm_way_id":"148389682","name":"The Co-operative Food","building":"yes","shop":"supermarket","other":{"operator":"The Co-operative Group"}}, "geometry":{"type":"MultiPolygon","coordinates":[[[[-1.37441,53.35942],[-1.37479,53.35926],[-1.37434,53.35887],[-1.37396,53.35903],[-1.37441,53.35942]]]]}},
{ "type":"Feature","properties":{"osm_way_id":"151251603","name":"Morrisons","building":"yes","shop":"supermarket","other":{"addr:postcode":"S73 0SX","brand":"Morrisons","brand:wikidata":"Q922344","brand:wikipedia":"en:Morrisons"}}, "geometry":{"type":"MultiPolygon","coordinates":[[[[-1.39137,53.5073],[-1.39126,53.50723],[-1.39144,53.50712],[-1.39138,53.50709],[-1.39149,53.50702],[-1.39127,53.50688],[-1.39115,53.50694],[-1.39097,53.50683],[-1.39089,53.50688],[-1.39083,53.50685],[-1.39071,53.50692],[-1.39068,53.5069],[-1.3898,53.50741],[-1.39041,53.50777],[-1.3903,53.50783],[-1.39059,53.50801],[-1.39089,53.50784],[-1.39079,53.50778],[-1.39126,53.50751],[-1.39114,53.50743],[-1.39137,53.5073]]]]}},
{ "type":"Feature","properties":{"osm_way_id":"152836105","name":"Tesco Superstore","building":"yes","shop":"supermarket","other":{"brand":"Tesco","brand:wikidata":"Q487494","brand:wikipedia":"en:Tesco"}}, "geometry":{"type":"MultiPolygon","coordinates":[[[[-1.21156,53.37049],[-1.21134,53.37042],[-1.21139,53.37036],[-1.21119,53.37031],[-1.21115,53.37036],[-1.2108,53.37026],[-1.21045,53.3707],[-1.21119,53.37092],[-1.21156,53.37049]]]]}},
{ "type":"Feature","properties":{"osm_way_id":"153562168","name":"Lidl","building":"shop","shop":"supermarket","other":{"addr:country":"GB","addr:housenumber":"17","addr:postcode":"S60 1EX","addr:street":"Masbrough Street","brand":"Lidl","brand:wikidata":"Q151954","brand:wikipedia":"en:Lidl","fhrs:id":"460809"}}, "geometry":{"type":"MultiPolygon","coordinates":[[[[-1.36334,53.43197],[-1.36327,53.43178],[-1.36318,53.43179],[-1.36317,53.43175],[-1.36308,53.43177],[-1.36306,53.43172],[-1.36292,53.43173],[-1.36294,53.43179],[-1.36238,53.43186],[-1.36247,53.43209],[-1.36334,53.43197]]]]}},
{ "type":"Feature","properties":{"osm_way_id":"161115474","name":"Asda","building":"yes","shop":"supermarket","other":{"addr:city":"Sheffield","addr:country":"GB","addr:housenumber":"978","addr:postcode":"S12 2AB","addr:street":"City Road","brand":"Asda","brand:wikidata":"Q297410","brand:wikipedia":"en:Asda","contact:website":"https:\/\/storelocator.asda.com\/yorkshire-&-humber\/sheffield\/manor-top-shopping-centre-978-city-road","fhrs:id":"505596","operator":"Asda Stores Ltd"}}, "geometry":{"type":"MultiPolygon","coordinates":[[[[-1.42801,53.36008],[-1.42741,53.35986],[-1.42743,53.35984],[-1.42736,53.35981],[-1.42736,53.35981],[-1.42749,53.35968],[-1.42754,53.35972],[-1.42762,53.35971],[-1.4281,53.35987],[-1.42812,53.35993],[-1.42804,53.36001],[-1.42807,53.36002],[-1.42801,53.36008]]]]}},
{ "type":"Feature","properties":{"osm_way_id":"161211079","name":"Tesco","building":"retail","landuse":"retail","shop":"supermarket","other":{"addr:city":"Sheffield","addr:postcode":"S36 6TS","addr:street":"Market Lane","addr:suburb":"Penistone","brand":"Tesco","brand:wikidata":"Q487494","brand:wikipedia":"en:Tesco","opening_hours":"Mo-Sa 06:00-24:00; Su 10:00-16:00","toilets:wheelchair":"yes","wheelchair":"yes"}}, "geometry":{"type":"MultiPolygon","coordinates":[[[[-1.6332,53.52549],[-1.63327,53.5255],[-1.63329,53.52546],[-1.63391,53.52558],[-1.63386,53.52567],[-1.63396,53.52568],[-1.634,53.5256],[-1.63437,53.52567],[-1.63431,53.52579],[-1.63418,53.52577],[-1.63415,53.52583],[-1.63405,53.52581],[-1.634,53.52589],[-1.63377,53.52585],[-1.63368,53.52603],[-1.63309,53.52591],[-1.63305,53.5259],[-1.63321,53.52559],[-1.63315,53.52558],[-1.6332,53.52549]]]]}},
{ "type":"Feature","properties":{"osm_way_id":"167861516","name":"Morrisons","building":"yes","shop":"supermarket","other":{"addr:postcode":"S70 1LQ","addr:street":"Lower Thomas Street","brand":"Morrisons","brand:wikidata":"Q922344","brand:wikipedia":"en:Morrisons","opening_hours":"Mo- Sa 06:00-22:00; Su 10:00-16:00"}}, "geometry":{"type":"MultiPolygon","coordinates":[[[[-1.484,53.55007],[-1.48335,53.54949],[-1.48263,53.54978],[-1.48258,53.54974],[-1.4823,53.54985],[-1.4825,53.55003],[-1.48255,53.55001],[-1.48294,53.55036],[-1.4831,53.5503],[-1.48321,53.55039],[-1.48327,53.55037],[-1.48344,53.55052],[-1.48335,53.55062],[-1.48354,53.55069],[-1.48366,53.55055],[-1.48363,53.55054],[-1.48386,53.55044],[-1.48363,53.55022],[-1.484,53.55007]]]]}},
{ "type":"Feature","properties":{"osm_way_id":"167997225","name":"The Co-operative Food","building":"yes","shop":"supermarket","other":{"addr:city":"Dodworth","addr:street":"Barnsley Road","brand":"The Co-operative Food","brand:wikidata":"Q107617274","not:brand:wikidata":"Q3277439","old_name":"Budgens","opening_hours":"Mo-Sa 07:00-22:00; Su,PH 10:00-16:00","operator":"Central England Co-operative","operator:wikidata":"Q16986583"}}, "geometry":{"type":"MultiPolygon","coordinates":[[[[-1.52545,53.54318],[-1.52548,53.54311],[-1.52561,53.54284],[-1.5252,53.54276],[-1.52501,53.54317],[-1.52514,53.54319],[-1.52517,53.54314],[-1.52545,53.54318]]]]}},
{ "type":"Feature","properties":{"osm_way_id":"168966404","name":"The Food Warehouse","building":"retail","shop":"supermarket","other":{"addr:city":"Sheffield","addr:country":"GB","addr:housename":"Heeley Retail Park","addr:postcode":"S8 0RG","addr:street":"Chesterfield Road","addr:unit":"4","brand":"The Food Warehouse","brand:wikidata":"Q87263899","building:levels":"1","fhrs:id":"1097635","opening_hours":"Mo-Sa 08:00-20:00; Su 10:00-16:00","roof:levels":"0","roof:shape":"gabled","wheelchair":"yes"}}, "geometry":{"type":"MultiPolygon","coordinates":[[[[-1.47891,53.35669],[-1.47877,53.35661],[-1.47845,53.35641],[-1.47853,53.35636],[-1.4785,53.35634],[-1.47853,53.35633],[-1.47859,53.3563],[-1.47861,53.35631],[-1.47868,53.35627],[-1.47915,53.35656],[-1.47891,53.35669]]]]}},
{ "type":"Feature","properties":{"osm_way_id":"170359259","name":"Lowfield Mini Market","building":"yes","shop":"supermarket","other":{"addr:city":"Sheffield","addr:country":"GB","addr:housenumber":"414","addr:postcode":"S2 4ND","addr:street":"London Road","fhrs:id":"1104150"}}, "geometry":{"type":"MultiPolygon","coordinates":[[[[-1.47278,53.36462],[-1.47278,53.36465],[-1.47274,53.36465],[-1.47274,53.36468],[-1.4726,53.36469],[-1.47259,53.36465],[-1.47278,53.36462]]]]}},
{ "type":"Feature","properties":{"osm_way_id":"173066725","name":"Asda","shop":"supermarket","other":{"addr:city":"Sheffield","addr:country":"GB","addr:housenumber":"405","addr:postcode":"S2 4DR","addr:street":"Queens Road","brand":"Asda","brand:wikidata":"Q297410","brand:wikipedia":"en:Asda","building:part":"yes","contact:website":"https:\/\/storelocator.asda.com\/yorkshire-&-humber\/sheffield\/405-queens-road","fhrs:id":"437539","operator":"Asda Stores Ltd"}}, "geometry":{"type":"MultiPolygon","coordinates":[[[[-1.46402,53.36827],[-1.46418,53.36836],[-1.46454,53.36854],[-1.46433,53.36868],[-1.46395,53.36849],[-1.46381,53.36842],[-1.46402,53.36827]]]]}},
{ "type":"Feature","properties":{"osm_way_id":"173301640","name":"Arman Food Store","building":"yes","shop":"supermarket","other":{"addr:housenumber":"569","addr:street":"Abbeydale Road","phone":"+44 114 2580097"}}, "geometry":{"type":"MultiPolygon","coordinates":[[[[-1.48299,53.35732],[-1.48301,53.35729],[-1.4829,53.35726],[-1.48288,53.35729],[-1.48299,53.35732]]]]}},
{ "type":"Feature","properties":{"osm_way_id":"175116301","name":"Tesco Metro","building":"commercial","shop":"supermarket","other":{"brand":"Tesco Metro","brand:wikidata":"Q57551648"}}, "geometry":{"type":"MultiPolygon","coordinates":[[[[-1.47823,53.38026],[-1.47813,53.38011],[-1.47788,53.38017],[-1.47785,53.38018],[-1.47784,53.38016],[-1.47752,53.38024],[-1.4773,53.38029],[-1.47731,53.38031],[-1.47729,53.38031],[-1.47721,53.38033],[-1.47731,53.38048],[-1.47764,53.3804],[-1.47786,53.38035],[-1.47823,53.38026]]]]}},
{ "type":"Feature","properties":{"osm_way_id":"175479468","name":"Co-op Food","building":"yes","shop":"supermarket","other":{"addr:city":"Sheffield","addr:housename":"Castle House","addr:postcode":"S3 8LS","addr:street":"Castle Street","brand":"Co-op Food","brand:wikidata":"Q3277439","brand:wikipedia":"en:Co-op Food","fhrs:id":"436561","opening_hours":"Mo-Sa 07:00-22:00; Su 11:00-17:00","operator":"The Co-operative Group"}}, "geometry":{"type":"MultiPolygon","coordinates":[[[[-1.46519,53.38421],[-1.46519,53.38407],[-1.46478,53.38407],[-1.46477,53.38412],[-1.46476,53.3842],[-1.46519,53.38421]]]]}},
{ "type":"Feature","properties":{"osm_way_id":"176381210","name":"The Co-operative Food","building":"yes","shop":"supermarket","other":{"operator":"The Co-operative Group"}}, "geometry":{"type":"MultiPolygon","coordinates":[[[[-1.49329,53.33691],[-1.49344,53.33689],[-1.49339,53.33679],[-1.49337,53.33679],[-1.49335,53.33679],[-1.49335,53.33679],[-1.49316,53.33682],[-1.49319,53.33689],[-1.49327,53.33687],[-1.49329,53.33691]]]]}},
{ "type":"Feature","properties":{"osm_way_id":"194910606","name":"M&S Foodhall","building":"yes","shop":"supermarket","other":{"addr:housenumber":"250-266","addr:postcode":"S11 8JD","addr:street":"Eccleshall Road","brand":"M&S Foodhall","brand:wikidata":"Q714491","brand:wikipedia":"en:Marks & Spencer"}}, "geometry":{"type":"MultiPolygon","coordinates":[[[[-1.48882,53.37191],[-1.48868,53.37176],[-1.48874,53.37173],[-1.48869,53.37168],[-1.48863,53.37162],[-1.48855,53.37157],[-1.48852,53.37158],[-1.48851,53.37157],[-1.48812,53.37168],[-1.4882,53.37177],[-1.48817,53.37178],[-1.48809,53.3718],[-1.48818,53.3719],[-1.48829,53.37187],[-1.48843,53.37203],[-1.4887,53.37195],[-1.48882,53.37191]]]]}},
{ "type":"Feature","properties":{"osm_way_id":"199548736","name":"Tesco","building":"yes","shop":"supermarket","other":{"addr:city":"Sheffield","addr:country":"GB","addr:housenumber":"8","addr:postcode":"S11 8PN","addr:street":"Berkeley Precinct","addr:unit":"8","brand":"Tesco","brand:wikidata":"Q487494","brand:wikipedia":"en:Tesco","fhrs:id":"435718"}}, "geometry":{"type":"MultiPolygon","coordinates":[[[[-1.49384,53.3689],[-1.49356,53.36899],[-1.49353,53.36894],[-1.49294,53.36912],[-1.49297,53.36916],[-1.49291,53.36918],[-1.49304,53.36933],[-1.49327,53.36926],[-1.49397,53.36904],[-1.49384,53.3689]]]]}},
{ "type":"Feature","properties":{"osm_way_id":"199552521","name":"Co-op Food","building":"supermarket","shop":"supermarket","other":{"addr:city":"Sheffield","addr:country":"GB","addr:housenumber":"849","addr:postcode":"S11 8SD","addr:street":"Ecclesall Road","brand":"Co-op Food","brand:wikidata":"Q3277439","brand:wikipedia":"en:Co-op Food","fhrs:id":"435717","operator":"The Co-operative Group","operator:wikidata":"Q117202","operator:wikipedia":"en:The Co-operative Group"}}, "geometry":{"type":"MultiPolygon","coordinates":[[[[-1.50722,53.36496],[-1.50692,53.36493],[-1.50695,53.36482],[-1.50685,53.36481],[-1.50689,53.36471],[-1.50678,53.36469],[-1.50683,53.36448],[-1.50698,53.3645],[-1.50738,53.36454],[-1.50733,53.3647],[-1.50729,53.36485],[-1.50725,53.36485],[-1.50724,53.3649],[-1.50722,53.36496]]]]}},
{ "type":"Feature","properties":{"osm_way_id":"205938730","name":"Sainsbury's Local","building":"retail","shop":"supermarket","other":{"addr:city":"Sheffield","addr:country":"GB","addr:housenumber":"960","addr:postcode":"S12 2LL","addr:street":"Gleadless Road","brand:wikidata":"Q13218434","building:levels":"2","fhrs:id":"436573","opening_hours":"Mo-Su,PH 06:00-23:00","roof:levels":"0"}}, "geometry":{"type":"MultiPolygon","coordinates":[[[[-1.42577,53.34515],[-1.426,53.34505],[-1.42611,53.34514],[-1.42589,53.34524],[-1.42577,53.34515]]]]}},
{ "type":"Feature","properties":{"osm_way_id":"208029285","name":"Co-op Food","building":"yes","shop":"supermarket","other":{"addr:city":"Diss","addr:postcode":"IP22 1DY","addr:street":"The Street","addr:village":"Rickinghall Superior","brand":"Co-op Food","brand:wikidata":"Q3277439","brand:wikipedia":"en:Co-op Food","fhrs:id":"527723","operator":"Central England Co-operative","source:addr":"FHRS Open Data"}}, "geometry":{"type":"MultiPolygon","coordinates":[[[[1.0002,52.3407],[1.00044,52.34056],[1.0005,52.3406],[1.00059,52.34067],[1.00063,52.34064],[1.00075,52.34072],[1.00042,52.3409],[1.00034,52.34085],[1.00038,52.34082],[1.0002,52.3407]]]]}},
{ "type":"Feature","properties":{"osm_way_id":"211485185","name":"Tesco Extra","building":"yes","shop":"supermarket","other":{"addr:postcode":"S70 3NS","addr:street":"Wombwell Lane","brand":"Tesco Extra","brand:wikidata":"Q25172225","brand:wikipedia":"en:Tesco Extra"}}, "geometry":{"type":"MultiPolygon","coordinates":[[[[-1.43643,53.54063],[-1.43583,53.54032],[-1.43568,53.54042],[-1.43562,53.54038],[-1.4354,53.54042],[-1.43489,53.54078],[-1.43505,53.54086],[-1.43509,53.54088],[-1.43506,53.5409],[-1.43523,53.54098],[-1.43525,53.54097],[-1.43539,53.54104],[-1.43543,53.54101],[-1.43627,53.54143],[-1.4365,53.54127],[-1.43677,53.54141],[-1.43674,53.54143],[-1.43676,53.54144],[-1.4366,53.54155],[-1.43668,53.54158],[-1.43685,53.54146],[-1.43677,53.54143],[-1.43686,53.54137],[-1.43673,53.54131],[-1.43692,53.54117],[-1.43694,53.54102],[-1.43689,53.54099],[-1.43693,53.54095],[-1.43692,53.54088],[-1.43682,53.54084],[-1.43694,53.54074],[-1.43682,53.54054],[-1.43668,53.54047],[-1.43643,53.54063]]]]}},
{ "type":"Feature","properties":{"osm_way_id":"211486022","name":"Asda","building":"yes","shop":"supermarket","other":{"addr:city":"Barnsley","addr:country":"GB","addr:postcode":"S71 1LN","addr:street":"Old Mill Lane","brand":"Asda","brand:wikidata":"Q297410","brand:wikipedia":"en:Asda","contact:website":"https:\/\/storelocator.asda.com\/yorkshire-&-humber\/barnsley\/old-mill-lane","fhrs:id":"397672"}}, "geometry":{"type":"MultiPolygon","coordinates":[[[[-1.47625,53.56103],[-1.47602,53.56091],[-1.47639,53.56066],[-1.47577,53.56034],[-1.47563,53.56043],[-1.47542,53.56031],[-1.47477,53.56074],[-1.47469,53.5607],[-1.47448,53.56084],[-1.47456,53.56088],[-1.47443,53.56097],[-1.47525,53.56141],[-1.47558,53.56118],[-1.47582,53.56131],[-1.47625,53.56103]]]]}},
{ "type":"Feature","properties":{"osm_way_id":"211486214","name":"Asda","building":"yes","shop":"supermarket","other":{"addr:city":"Worsbrough","addr:country":"GB","addr:postcode":"S70 5AU","addr:street":"Thomas Street","brand":"Asda","brand:wikidata":"Q297410","brand:wikipedia":"en:Asda","contact:website":"https:\/\/storelocator.asda.com\/yorkshire-&-humber\/worsbrough\/thomas-street","fhrs:id":"398308","operator":"Asda Stores Ltd"}}, "geometry":{"type":"MultiPolygon","coordinates":[[[[-1.46951,53.53125],[-1.4689,53.53109],[-1.46875,53.5313],[-1.46879,53.53131],[-1.46877,53.53133],[-1.46895,53.53138],[-1.46897,53.53135],[-1.46936,53.53145],[-1.46951,53.53125]]]]}},
{ "type":"Feature","properties":{"osm_way_id":"211487276","name":"Aldi","building":"yes","shop":"supermarket","other":{"addr:postcode":"S70 3PE","addr:street":"Doncaster Road","brand":"ALDI","brand:wikidata":"Q41171672","brand:wikipedia":"en:Aldi"}}, "geometry":{"type":"MultiPolygon","coordinates":[[[[-1.44037,53.54519],[-1.43973,53.54492],[-1.44,53.54469],[-1.44059,53.54495],[-1.44044,53.54507],[-1.4405,53.54509],[-1.44037,53.54519]]]]}},
{ "type":"Feature","properties":{"osm_way_id":"215414095","name":"Sainsbury's","building":"yes","shop":"supermarket","other":{"addr:housename":"Frenchgate Centre","addr:housenumber":"15 South Mall","addr:postcode":"DN1 1TT","brand":"Sainsbury's","brand:wikidata":"Q152096","brand:wikipedia":"en:Sainsbury's"}}, "geometry":{"type":"MultiPolygon","coordinates":[[[[-1.13816,53.52266],[-1.13821,53.52254],[-1.13813,53.52244],[-1.13816,53.52239],[-1.13806,53.52228],[-1.13767,53.52222],[-1.13762,53.52234],[-1.13766,53.52239],[-1.1378,53.52241],[-1.13778,53.52245],[-1.13774,53.52245],[-1.1377,53.52253],[-1.13757,53.52251],[-1.13756,53.52252],[-1.13754,53.52257],[-1.13773,53.5226],[-1.13789,53.52262],[-1.13816,53.52266]]]]}},
{ "type":"Feature","properties":{"osm_way_id":"220245704","name":"Co-op Food","building":"supermarket","shop":"supermarket","other":{"addr:city":"Mapplewell","addr:country":"GB","addr:postcode":"S75 6BP","addr:street":"Mapplewell Drive","brand":"Co-op Food","brand:wikidata":"Q3277439","brand:wikipedia":"en:Co-op Food","fhrs:id":"397825","opening_hours":"Mo-Sa 07:00-22:00; Su 10:00-16:00","opening_hours:covid19":"same","operator":"The Co-operative Group","operator:wikidata":"Q117202","operator:wikipedia":"en:The Co-operative Group","payment:cards":"yes","payment:contactless":"yes","payment:debit_cards":"yes","payment:mastercard":"yes","payment:visa_debit":"yes","phone":"+44 1226380492","website":"https:\/\/www.coop.co.uk\/"}}, "geometry":{"type":"MultiPolygon","coordinates":[[[[-1.49957,53.58483],[-1.4998,53.58458],[-1.50048,53.58479],[-1.5003,53.58498],[-1.4998,53.58482],[-1.49974,53.58488],[-1.49957,53.58483]]]]}},
{ "type":"Feature","properties":{"osm_way_id":"221499548","name":"Sainsbury's","building":"yes","shop":"supermarket","other":{"brand":"Sainsbury's","brand:wikidata":"Q152096","brand:wikipedia":"en:Sainsbury's"}}, "geometry":{"type":"MultiPolygon","coordinates":[[[[-1.07691,53.54465],[-1.07708,53.54491],[-1.07741,53.54542],[-1.07688,53.54554],[-1.07694,53.54563],[-1.07678,53.54566],[-1.07679,53.54569],[-1.07657,53.54574],[-1.07652,53.54567],[-1.07637,53.5457],[-1.0764,53.54578],[-1.07621,53.54582],[-1.0762,53.5458],[-1.07594,53.54585],[-1.0758,53.54567],[-1.07594,53.54564],[-1.07587,53.54552],[-1.07619,53.54527],[-1.07617,53.54523],[-1.0761,53.54525],[-1.07598,53.5451],[-1.07607,53.54507],[-1.07604,53.54503],[-1.07618,53.545],[-1.07621,53.54504],[-1.07651,53.54497],[-1.07649,53.54495],[-1.07646,53.54496],[-1.07641,53.54489],[-1.07649,53.54487],[-1.07641,53.54475],[-1.07691,53.54465]]]]}},
{ "type":"Feature","properties":{"osm_way_id":"225660749","name":"Tesco Extra","building":"yes","shop":"supermarket","other":{"addr:city":"Doncaster","addr:country":"GB","addr:housename":"Woodfield Plantation","addr:postcode":"DN4 8SN","addr:street":"Woodfield Way","addr:suburb":"Balby","brand":"Tesco Extra","brand:wikidata":"Q25172225","brand:wikipedia":"en:Tesco Extra","fhrs:id":"368005"}}, "geometry":{"type":"MultiPolygon","coordinates":[[[[-1.13881,53.49126],[-1.13804,53.49129],[-1.13771,53.49131],[-1.1376,53.49131],[-1.13756,53.49098],[-1.13746,53.49021],[-1.13902,53.49014],[-1.13904,53.49033],[-1.13869,53.49035],[-1.13881,53.49126]]]]}},
{ "type":"Feature","properties":{"osm_way_id":"226960722","name":"Aldi","building":"commercial","shop":"supermarket","other":{"brand":"ALDI","brand:wikidata":"Q41171672","brand:wikipedia":"en:Aldi"}}, "geometry":{"type":"MultiPolygon","coordinates":[[[[-1.37362,53.43349],[-1.37363,53.43341],[-1.37376,53.43342],[-1.37378,53.43325],[-1.37292,53.4332],[-1.37289,53.43332],[-1.37279,53.43331],[-1.37277,53.43344],[-1.37362,53.43349]]]]}},
{ "type":"Feature","properties":{"osm_way_id":"228865000","name":"Abbeydale Supermarket","building":"yes","shop":"supermarket","other":{"addr:city":"Sheffield","addr:country":"GB","addr:housenumber":"755","addr:postcode":"S7 2BG","addr:street":"Abbeydale Road","fhrs:id":"437523"}}, "geometry":{"type":"MultiPolygon","coordinates":[[[[-1.48577,53.35357],[-1.48575,53.35356],[-1.48575,53.35354],[-1.48579,53.35354],[-1.4858,53.35349],[-1.48594,53.35351],[-1.48592,53.35358],[-1.48577,53.35357]]]]}},
{ "type":"Feature","properties":{"osm_way_id":"230903798","name":"Asda","building":"supermarket","shop":"supermarket","other":{"addr:city":"Grimethorpe","addr:country":"GB","addr:postcode":"S72 7LT","addr:street":"High Street","brand":"Asda","brand:wikidata":"Q297410","brand:wikipedia":"en:Asda","contact:website":"https:\/\/storelocator.asda.com\/yorkshire-&-humber\/barnsley\/high-street-grimethorpe","fhrs:id":"398307","operator":"Asda Stores Ltd"}}, "geometry":{"type":"MultiPolygon","coordinates":[[[[-1.37873,53.57517],[-1.37839,53.57519],[-1.3783,53.57476],[-1.37861,53.57474],[-1.37868,53.57504],[-1.37874,53.57503],[-1.37876,53.57516],[-1.37873,53.57517]]]]}},
{ "type":"Feature","properties":{"osm_way_id":"230904156","name":"Co-Op","building":"yes","shop":"supermarket","other":{"source:building":"Bing"}}, "geometry":{"type":"MultiPolygon","coordinates":[[[[-1.3751,53.57466],[-1.37475,53.57477],[-1.37466,53.57468],[-1.37503,53.57457],[-1.3751,53.57466]]]]}},
{ "type":"Feature","properties":{"osm_way_id":"231497942","name":"Co-op Food","building":"supermarket","shop":"supermarket","other":{"addr:city":"Cudworth","addr:country":"GB","addr:postcode":"S72 8BU","addr:street":"Barnsley Road","brand":"Co-op Food","brand:wikidata":"Q3277439","brand:wikipedia":"en:Co-op Food","fhrs:id":"397680","operator":"The Co-operative Group","operator:wikidata":"Q117202","operator:wikipedia":"en:The Co-operative Group"}}, "geometry":{"type":"MultiPolygon","coordinates":[[[[-1.4177,53.57708],[-1.41741,53.57697],[-1.41746,53.57692],[-1.41712,53.57679],[-1.41721,53.57671],[-1.41735,53.57676],[-1.41779,53.57672],[-1.41799,53.5768],[-1.41796,53.57682],[-1.41799,53.57684],[-1.4177,53.57708]]]]}},
{ "type":"Feature","properties":{"osm_way_id":"242719720","name":"Durga Stores","building":"yes","shop":"supermarket","other":{"addr:city":"Sheffield","addr:country":"GB","addr:housenumber":"158-160","addr:postcode":"S7 1FH","addr:street":"Abbeydale Road","fhrs:id":"696816"}}, "geometry":{"type":"MultiPolygon","coordinates":[[[[-1.47765,53.36317],[-1.4776,53.36324],[-1.47774,53.36328],[-1.47779,53.36321],[-1.47765,53.36317]]]]}},
{ "type":"Feature","properties":{"osm_way_id":"242719794","name":"Madina Store","building":"yes","shop":"supermarket","other":{"addr:city":"Sheffield","addr:country":"GB","addr:housenumber":"142A","addr:postcode":"S7 1FF","addr:street":"Abbeydale Road","fhrs:id":"948578"}}, "geometry":{"type":"MultiPolygon","coordinates":[[[[-1.47721,53.36374],[-1.47731,53.36369],[-1.4772,53.36362],[-1.47711,53.36368],[-1.47721,53.36374]]]]}},
{ "type":"Feature","properties":{"osm_way_id":"246184186","name":"Lidl","building":"yes","shop":"supermarket","other":{"addr:country":"GB","addr:postcode":"DN4 8DD","addr:street":"Sandford Road","brand":"Lidl","brand:wikidata":"Q151954","fhrs:id":"367532"}}, "geometry":{"type":"MultiPolygon","coordinates":[[[[-1.14746,53.50683],[-1.14671,53.50655],[-1.14672,53.50654],[-1.1467,53.50645],[-1.14674,53.50641],[-1.14689,53.50628],[-1.14698,53.50631],[-1.14702,53.50631],[-1.14708,53.50633],[-1.14717,53.50638],[-1.14713,53.50641],[-1.1473,53.50651],[-1.14766,53.50665],[-1.14746,53.50683]]]]}},
{ "type":"Feature","properties":{"osm_way_id":"249257541","name":"Tesco","building":"yes","shop":"supermarket","other":{"addr:city":"Edenthorpe","addr:postcode":"DN3 2JE","addr:street":"Thorne Road","branch":"Doncaster Edenthorpe Superstore","brand":"Tesco","brand:wikidata":"Q487494","brand:wikipedia":"en:Tesco","opening_hours":"Mo-Sa 06:00-23:00; Su 10:00-16:00"}}, "geometry":{"type":"MultiPolygon","coordinates":[[[[-1.06367,53.55529],[-1.06325,53.55536],[-1.06322,53.55529],[-1.06271,53.55537],[-1.06275,53.55546],[-1.06236,53.55553],[-1.06243,53.55568],[-1.06239,53.55569],[-1.06248,53.55588],[-1.06295,53.5558],[-1.06296,53.55584],[-1.06309,53.5561],[-1.06335,53.55606],[-1.06366,53.55601],[-1.06389,53.55597],[-1.06375,53.55571],[-1.06387,53.55569],[-1.06367,53.55529]]]]}},
{ "type":"Feature","properties":{"osm_way_id":"251614625","name":"Morrisons","building":"supermarket","shop":"supermarket","other":{"brand":"Morrisons","brand:wikidata":"Q922344","brand:wikipedia":"en:Morrisons"}}, "geometry":{"type":"MultiPolygon","coordinates":[[[[-1.14933,53.53212],[-1.149,53.53231],[-1.14905,53.53234],[-1.149,53.53239],[-1.14923,53.53253],[-1.14916,53.53257],[-1.14944,53.53275],[-1.14941,53.53278],[-1.14949,53.53283],[-1.1495,53.53282],[-1.14963,53.53289],[-1.1496,53.53291],[-1.14971,53.53297],[-1.14974,53.53295],[-1.15002,53.53311],[-1.15067,53.53272],[-1.15073,53.53275],[-1.15084,53.53269],[-1.15081,53.53267],[-1.15094,53.5326],[-1.15081,53.53252],[-1.15083,53.53251],[-1.15073,53.53244],[-1.15066,53.53248],[-1.1504,53.53232],[-1.15043,53.5323],[-1.15032,53.53224],[-1.15028,53.53226],[-1.15015,53.53218],[-1.15003,53.53226],[-1.14984,53.53216],[-1.14972,53.53222],[-1.14953,53.53212],[-1.14944,53.53218],[-1.14933,53.53212]]]]}},
{ "type":"Feature","properties":{"osm_way_id":"258988922","name":"The Co-operative Food","building":"yes","shop":"supermarket","other":{"addr:postcode":"S75 5HF","addr:street":"Church Street","operator":"The Co-operative Group","wheelchair":"limited"}}, "geometry":{"type":"MultiPolygon","coordinates":[[[[-1.52958,53.58616],[-1.52958,53.58605],[-1.52931,53.58606],[-1.52931,53.58616],[-1.52958,53.58616]]]]}},
{ "type":"Feature","properties":{"osm_way_id":"258990317","name":"Aldi","building":"yes","shop":"supermarket","other":{"addr:city":"Barugh","addr:country":"GB","addr:postcode":"S75 1AP","addr:street":"Claycliffe Road","brand":"ALDI","brand:wikidata":"Q41171672","brand:wikipedia":"en:Aldi","fhrs:id":"398987"}}, "geometry":{"type":"MultiPolygon","coordinates":[[[[-1.51981,53.56802],[-1.5202,53.56788],[-1.51974,53.56744],[-1.51934,53.56759],[-1.51981,53.56802]]]]}},
{ "type":"Feature","properties":{"osm_way_id":"274330981","name":"Co-op Food","building":"yes","shop":"supermarket","other":{"addr:country":"GB","addr:postcode":"S75 4LX","addr:street":"The Cross","brand":"Co-op Food","brand:wikidata":"Q3277439","brand:wikipedia":"en:Co-op Food","fhrs:id":"397668"}}, "geometry":{"type":"MultiPolygon","coordinates":[[[[-1.56505,53.54365],[-1.56504,53.54359],[-1.56499,53.54359],[-1.56497,53.54345],[-1.56513,53.54344],[-1.5652,53.54356],[-1.56517,53.54356],[-1.56522,53.54368],[-1.56541,53.54364],[-1.56534,53.54351],[-1.5655,53.54348],[-1.56545,53.54338],[-1.56476,53.54341],[-1.56477,53.54345],[-1.56484,53.54345],[-1.56487,53.5436],[-1.56482,53.5436],[-1.56483,53.54366],[-1.56505,53.54365]]]]}},
{ "type":"Feature","properties":{"osm_way_id":"275353327","name":"Co-op Food","building":"yes","shop":"supermarket","other":{"addr:city":"Sheffield","addr:postcode":"S36 6BZ","addr:street":"Market Street","addr:suburb":"Penistone","brand":"Co-op Food","brand:wikidata":"Q3277439","brand:wikipedia":"en:Co-op Food","operator":"The Co-operative Group","operator:wikidata":"Q117202","operator:wikipedia":"en:The Co-operative Group","phone":"+44 1226 762225"}}, "geometry":{"type":"MultiPolygon","coordinates":[[[[-1.63122,53.52531],[-1.63125,53.5253],[-1.63126,53.52532],[-1.63154,53.52529],[-1.63151,53.52515],[-1.63106,53.5252],[-1.63109,53.52531],[-1.63122,53.52531]]]]}},
{ "type":"Feature","properties":{"osm_way_id":"275434964","name":"Spar","building":"yes","shop":"supermarket","other":{"addr:city":"Sheffield","addr:postcode":"S36 6BS","addr:street":"High Street","addr:suburb":"Penistone","brand":"Spar","brand:wikidata":"Q610492","brand:wikipedia":"en:Spar (retailer)"}}, "geometry":{"type":"MultiPolygon","coordinates":[[[[-1.63141,53.52497],[-1.6311,53.525],[-1.63105,53.52485],[-1.63136,53.52482],[-1.63141,53.52497]]]]}},
{ "type":"Feature","properties":{"osm_way_id":"282675729","name":"The Co-operative Food","building":"yes","shop":"supermarket","other":{"addr:city":"Countesthorpe","addr:country":"GB","addr:housenumber":"8","addr:postcode":"LE8 5QX","addr:street":"Main Street","fhrs:authority":"Blaby","fhrs:id":"1201611","fhrs:local_authority_id":"2152","operator":"Central England Co-operative Society"}}, "geometry":{"type":"MultiPolygon","coordinates":[[[[-1.13766,52.55337],[-1.13765,52.55338],[-1.13757,52.55352],[-1.13728,52.55346],[-1.13737,52.55331],[-1.13766,52.55337]]]]}},
{ "type":"Feature","properties":{"osm_way_id":"283495462","name":"Cooperative Food","building":"yes","shop":"supermarket","other":{"addr:city":"Sheffield","addr:country":"GB","addr:postcode":"S36 1BX","addr:street":"Johnson Street","addr:village":"Stocksbridge"}}, "geometry":{"type":"MultiPolygon","coordinates":[[[[-1.59651,53.48313],[-1.59609,53.48301],[-1.59641,53.4826],[-1.59683,53.48272],[-1.59651,53.48313]]]]}},
{ "type":"Feature","properties":{"osm_way_id":"305491003","name":"Booker Cash & Carry","building":"yes","shop":"supermarket","other":{"addr:city":"Barnsley","addr:postcode":"S71 1DN","addr:street":"Twibell Street","fax":"+44 1226 202227","opening_hours":"Mo,Th 06:30-19:00; Tu-We,Fr-Sa 06:30-16:30; Su 09:00-13:00","operator":"Booker","phone":"+44 1226 243556","website":"https:\/\/www.booker.co.uk\/"}}, "geometry":{"type":"MultiPolygon","coordinates":[[[[-1.46774,53.55931],[-1.46843,53.55936],[-1.46844,53.55931],[-1.46892,53.55934],[-1.46888,53.55956],[-1.46907,53.55957],[-1.46897,53.56013],[-1.46876,53.56012],[-1.46877,53.56009],[-1.4679,53.56003],[-1.46763,53.55986],[-1.46774,53.55931]]]]}},
{ "type":"Feature","properties":{"osm_way_id":"307866308","name":"Costcutter","building":"yes","shop":"supermarket","other":{"brand":"Costcutter","brand:wikidata":"Q5175072","brand:wikipedia":"en:Costcutter"}}, "geometry":{"type":"MultiPolygon","coordinates":[[[[-1.49233,53.55203],[-1.49233,53.55184],[-1.4922,53.55184],[-1.49221,53.55203],[-1.49233,53.55203]]]]}},
{ "type":"Feature","properties":{"osm_way_id":"312446820","name":"Sainsbury's Local","building":"yes","shop":"supermarket","other":{"brand:wikidata":"Q13218434"}}, "geometry":{"type":"MultiPolygon","coordinates":[[[[-1.50798,53.56072],[-1.50821,53.56077],[-1.5083,53.56075],[-1.50841,53.56056],[-1.50812,53.5605],[-1.50798,53.56072]]]]}},
{ "type":"Feature","properties":{"osm_way_id":"316645253","name":"Tesco Extra","building":"yes","shop":"supermarket","other":{"addr:city":"Rotherham","addr:postcode":"S65 1HY","addr:street":"Drummond Street","alt_name":"Tesco Rotherham Extra","brand":"Tesco Extra","brand:wikidata":"Q25172225","brand:wikipedia":"en:Tesco Extra","operator":"Tesco Stores Ltd"}}, "geometry":{"type":"MultiPolygon","coordinates":[[[[-1.35441,53.43393],[-1.35359,53.43452],[-1.35323,53.43458],[-1.3521,53.43402],[-1.35302,53.43332],[-1.35354,53.43356],[-1.35358,53.43353],[-1.35441,53.43393]]]]}},
{ "type":"Feature","properties":{"osm_way_id":"317691101","name":"The Food Warehouse","building":"yes","shop":"supermarket","other":{"addr:city":"Sheffield","addr:country":"GB","addr:postcode":"S9 2YZ","addr:street":"Attercliffe Common","brand":"The Food Warehouse","brand:wikidata":"Q87263899"}}, "geometry":{"type":"MultiPolygon","coordinates":[[[[-1.41279,53.40496],[-1.41289,53.40479],[-1.41228,53.40467],[-1.41218,53.40485],[-1.41279,53.40496]]]]}},
{ "type":"Feature","properties":{"osm_way_id":"319284242","name":"The Co-operative Food","building":"yes","shop":"supermarket"},"geometry":{"type":"MultiPolygon","coordinates":[[[[-1.19643,53.56401],[-1.1965,53.56412],[-1.19642,53.56413],[-1.19654,53.56432],[-1.19632,53.56437],[-1.19622,53.56421],[-1.19605,53.56425],[-1.19596,53.56412],[-1.19643,53.56401]]]]}},
{ "type":"Feature","properties":{"osm_way_id":"319285629","name":"Co-op Food","building":"yes","shop":"supermarket","other":{"brand":"Co-op Food","brand:wikidata":"Q3277439","brand:wikipedia":"en:Co-op Food","operator":"The Co-operative Group"}}, "geometry":{"type":"MultiPolygon","coordinates":[[[[-1.11404,53.53557],[-1.11388,53.53561],[-1.11391,53.53566],[-1.11381,53.53568],[-1.11365,53.53545],[-1.11371,53.53544],[-1.11363,53.53532],[-1.11384,53.53527],[-1.11404,53.53557]]]]}},
{ "type":"Feature","properties":{"osm_way_id":"319287802","name":"Morrisons","building":"yes","shop":"supermarket","other":{"brand":"Morrisons","brand:wikidata":"Q922344","brand:wikipedia":"en:Morrisons"}}, "geometry":{"type":"MultiPolygon","coordinates":[[[[-1.05626,53.53543],[-1.05586,53.53537],[-1.05603,53.53499],[-1.05636,53.53505],[-1.05622,53.53535],[-1.05629,53.53536],[-1.05626,53.53543]]]]}},
{ "type":"Feature","properties":{"osm_way_id":"319288332","name":"The Co-operative Food","building":"retail","shop":"supermarket","other":{"operator":"The Co-operative Group"}}, "geometry":{"type":"MultiPolygon","coordinates":[[[[-1.0688,53.5621],[-1.06889,53.56229],[-1.06896,53.56228],[-1.06898,53.56234],[-1.06874,53.56238],[-1.06862,53.56213],[-1.0688,53.5621]]]]}},
{ "type":"Feature","properties":{"osm_way_id":"320274946","name":"ALDI","building":"yes","shop":"supermarket","other":{"brand":"ALDI","brand:wikidata":"Q41171672","brand:wikipedia":"en:Aldi"}}, "geometry":{"type":"MultiPolygon","coordinates":[[[[-1.47759,53.50074],[-1.47768,53.5007],[-1.47771,53.50072],[-1.478,53.50059],[-1.47748,53.50018],[-1.47707,53.50034],[-1.47714,53.50041],[-1.47717,53.50039],[-1.4773,53.5005],[-1.47735,53.50054],[-1.47728,53.50057],[-1.47735,53.50062],[-1.47741,53.50059],[-1.47759,53.50074]]]]}},
{ "type":"Feature","properties":{"osm_way_id":"320371535","name":"Spar","building":"yes","shop":"supermarket","other":{"addr:city":"Sheffield","addr:country":"GB","addr:housenumber":"93","addr:postcode":"S36 1ET","addr:street":"Pot House Lane","addr:town":"Stocksbridge","brand":"Spar","brand:wikidata":"Q610492","brand:wikipedia":"en:SPAR (retailer)","fhrs:id":"435749"}}, "geometry":{"type":"MultiPolygon","coordinates":[[[[-1.59901,53.47659],[-1.59905,53.47649],[-1.59908,53.47643],[-1.59875,53.47638],[-1.59869,53.47653],[-1.59882,53.47655],[-1.59881,53.47656],[-1.59901,53.47659]]]]}},
{ "type":"Feature","properties":{"osm_way_id":"320419206","name":"The Co-operative Food","building":"yes","shop":"supermarket","other":{"brand":"The Co-operative Food","brand:wikidata":"Q107617274","not:brand:wikidata":"Q3277439","opening_hours":"Mo-Su 07:00-22:00","operator":"Central England Co-operative","operator:wikidata":"Q16986583","operator:wikipedia":"en:Central England Co-operative"}}, "geometry":{"type":"MultiPolygon","coordinates":[[[[-1.49414,53.54368],[-1.49414,53.54369],[-1.49417,53.54369],[-1.49418,53.54382],[-1.49416,53.54382],[-1.49384,53.54382],[-1.49383,53.54381],[-1.49382,53.54374],[-1.49385,53.54374],[-1.49385,53.54369],[-1.49383,53.54369],[-1.49383,53.54364],[-1.49384,53.54364],[-1.49384,53.54361],[-1.49404,53.54361],[-1.49404,53.54361],[-1.49404,53.54362],[-1.49404,53.54368],[-1.49414,53.54368]]]]}},
{ "type":"Feature","properties":{"osm_way_id":"320662348","name":"Lidl","building":"yes","shop":"supermarket","other":{"addr:country":"GB","addr:postcode":"S70 2RE","addr:street":"Peel Street","brand":"Lidl","brand:wikidata":"Q151954","brand:wikipedia":"en:Lidl","fhrs:id":"439786"}}, "geometry":{"type":"MultiPolygon","coordinates":[[[[-1.48504,53.55149],[-1.48477,53.55151],[-1.48475,53.55146],[-1.48462,53.55147],[-1.48463,53.55153],[-1.48422,53.55157],[-1.48429,53.55183],[-1.48437,53.55183],[-1.48439,53.55194],[-1.48487,53.5519],[-1.48485,53.55183],[-1.48512,53.5518],[-1.48504,53.55149]]]]}},
{ "type":"Feature","properties":{"osm_way_id":"322916340","name":"Sainsbury's","building":"retail","shop":"supermarket","other":{"brand":"Sainsbury's","brand:wikidata":"Q152096","brand:wikipedia":"en:Sainsbury's","opening_hours":"Mo-Sa 07:00-11:00; Su 10:00-16:00"}}, "geometry":{"type":"MultiPolygon","coordinates":[[[[-1.50254,53.41732],[-1.50183,53.41795],[-1.50082,53.41752],[-1.50057,53.41725],[-1.50107,53.41673],[-1.50254,53.41732]]]]}},
{ "type":"Feature","properties":{"osm_way_id":"325202522","name":"The Co-operative Food","building":"yes","shop":"supermarket","other":{"operator":"The Co-operative Group"}}, "geometry":{"type":"MultiPolygon","coordinates":[[[[-1.31325,53.4865],[-1.31293,53.48679],[-1.31271,53.48671],[-1.31267,53.48674],[-1.31229,53.4866],[-1.31243,53.48647],[-1.31246,53.48649],[-1.31269,53.48628],[-1.31325,53.4865]]]]}},
{ "type":"Feature","properties":{"osm_way_id":"338703074","name":"Asda","building":"yes","shop":"supermarket","other":{"addr:city":"Doncaster","addr:country":"GB","addr:postcode":"DN12 4TJ","addr:street":"Hill Top Road","brand":"Asda","brand:wikidata":"Q297410","brand:wikipedia":"en:Asda","contact:website":"https:\/\/storelocator.asda.com\/yorkshire-&-humber\/conisbrough\/hill-top-road","fhrs:id":"368825","operator":"Asda Stores Ltd"}}, "geometry":{"type":"MultiPolygon","coordinates":[[[[-1.25528,53.49136],[-1.25555,53.49135],[-1.25554,53.49128],[-1.25557,53.49127],[-1.25551,53.49091],[-1.25496,53.49094],[-1.25502,53.49131],[-1.25527,53.4913],[-1.25528,53.49136]]]]}},
{ "type":"Feature","properties":{"osm_way_id":"339923482","name":"Ozmen Local","building":"yes","shop":"supermarket"},"geometry":{"type":"MultiPolygon","coordinates":[[[[-1.49569,53.38619],[-1.49545,53.38629],[-1.49526,53.38613],[-1.49543,53.38605],[-1.49549,53.38602],[-1.49569,53.38619]]]]}},
{ "type":"Feature","properties":{"osm_way_id":"339930102","name":"Co-op Food","building":"yes","shop":"supermarket","other":{"brand":"Co-op Food","brand:wikidata":"Q3277439","brand:wikipedia":"en:Co-op Food","operator":"The Co-operative Group","operator:wikidata":"Q117202","operator:wikipedia":"en:The Co-operative Group"}}, "geometry":{"type":"MultiPolygon","coordinates":[[[[-1.49569,53.38667],[-1.49564,53.38665],[-1.49567,53.38661],[-1.49566,53.3866],[-1.49568,53.38658],[-1.49565,53.38657],[-1.49573,53.38648],[-1.49587,53.38652],[-1.4958,53.38661],[-1.49576,53.3866],[-1.49574,53.38663],[-1.49573,53.38662],[-1.49569,53.38667]]]]}},
{ "type":"Feature","properties":{"osm_way_id":"355279439","name":"Fultons Foods","building":"yes","shop":"supermarket","other":{"brand":"Fultons Foods","brand:wikidata":"Q6112633"}}, "geometry":{"type":"MultiPolygon","coordinates":[[[[-1.48124,53.5517],[-1.48123,53.55165],[-1.48104,53.55169],[-1.48106,53.55172],[-1.48124,53.5517]]]]}},
{ "type":"Feature","properties":{"osm_way_id":"357278392","name":"Sainsbury's","building":"yes","shop":"supermarket","other":{"addr:city":"London","addr:housenumber":"1","addr:postcode":"SW19 1DD","addr:street":"Merton High Street","alt_name":"Sainsbury's Merton Superstore","brand":"Sainsbury's","brand:wikidata":"Q152096","brand:wikipedia":"en:Sainsbury's","fhrs:id":"455446","layer":"1","opening_hours":"Mo-Sa 07:00-23:00; Su 11:00-17:00","website":"https:\/\/stores.sainsburys.co.uk\/0566\/merton","wheelchair":"yes"}}, "geometry":{"type":"MultiPolygon","coordinates":[[[[-0.18252,51.4147],[-0.18246,51.41471],[-0.18243,51.41472],[-0.18222,51.41475],[-0.18219,51.41475],[-0.18204,51.41443],[-0.18187,51.41446],[-0.18165,51.4145],[-0.18163,51.4145],[-0.18142,51.41454],[-0.18119,51.41458],[-0.18097,51.41461],[-0.18074,51.41466],[-0.18052,51.41469],[-0.18034,51.41472],[-0.18045,51.41496],[-0.18074,51.41565],[-0.18086,51.41591],[-0.18102,51.41588],[-0.18127,51.41584],[-0.18147,51.41581],[-0.1817,51.41577],[-0.18172,51.41582],[-0.18174,51.41582],[-0.18189,51.41579],[-0.182,51.41577],[-0.18203,51.41585],[-0.18216,51.41583],[-0.18228,51.41581],[-0.18225,51.41573],[-0.18241,51.4157],[-0.18255,51.41551],[-0.18261,51.41543],[-0.18261,51.41539],[-0.18259,51.41534],[-0.18278,51.41531],[-0.18252,51.4147]]]]}},
{ "type":"Feature","properties":{"osm_way_id":"358521079","name":"The Co-operative Food","building":"yes","shop":"supermarket","other":{"operator":"Central England Co-operative"}}, "geometry":{"type":"MultiPolygon","coordinates":[[[[-1.39847,53.34681],[-1.39852,53.34679],[-1.39865,53.34689],[-1.39846,53.34698],[-1.39833,53.34688],[-1.39834,53.34688],[-1.39838,53.34686],[-1.39847,53.34681]]]]}},
{ "type":"Feature","properties":{"osm_way_id":"358625674","name":"The Co-operative Food","building":"yes","shop":"supermarket","other":{"opening_hours":"Mo-Sa 07:00-22:00; Su 10:00-16:00","operator":"The Co-operative Group"}}, "geometry":{"type":"MultiPolygon","coordinates":[[[[-1.32192,53.36313],[-1.32236,53.36335],[-1.32222,53.36345],[-1.32232,53.3635],[-1.32222,53.36357],[-1.32168,53.3633],[-1.32192,53.36313]]]]}},
{ "type":"Feature","properties":{"osm_way_id":"358626994","name":"The Co-operative Food","building":"yes","shop":"supermarket","other":{"opening_hours":"Mo-Su 07:00-22:00","operator":"The Co-operative Group"}}, "geometry":{"type":"MultiPolygon","coordinates":[[[[-1.30563,53.36346],[-1.30565,53.36354],[-1.30562,53.36355],[-1.30538,53.36357],[-1.30528,53.36359],[-1.30523,53.36344],[-1.30541,53.36342],[-1.30563,53.36346]]]]}},
{ "type":"Feature","properties":{"osm_way_id":"358636899","name":"The Co-operative Food","building":"yes","shop":"supermarket","other":{"operator":"The Co-operative Group"}}, "geometry":{"type":"MultiPolygon","coordinates":[[[[-1.25821,53.39694],[-1.25814,53.39706],[-1.25783,53.39699],[-1.2579,53.39687],[-1.25821,53.39694]]]]}},
{ "type":"Feature","properties":{"osm_way_id":"358637686","name":"Morrisons Daily","building":"yes","shop":"supermarket"},"geometry":{"type":"MultiPolygon","coordinates":[[[[-1.28511,53.42824],[-1.28502,53.42831],[-1.28465,53.42813],[-1.28474,53.42806],[-1.28492,53.42815],[-1.28511,53.42824]]]]}},
{ "type":"Feature","properties":{"osm_way_id":"359080733","name":"The Co-operative Food","building":"yes","shop":"supermarket","other":{"brand":"The Co-operative Food","brand:wikidata":"Q107617274","operator":"Central England Co-operative Society"}}, "geometry":{"type":"MultiPolygon","coordinates":[[[[-1.45295,53.58299],[-1.45322,53.58315],[-1.45308,53.58323],[-1.45307,53.58322],[-1.45294,53.58314],[-1.45283,53.58307],[-1.45288,53.58304],[-1.45282,53.58301],[-1.45287,53.58298],[-1.45292,53.58301],[-1.45295,53.58299]]]]}},
{ "type":"Feature","properties":{"osm_way_id":"359178900","name":"Co-op Food","building":"yes","shop":"supermarket","other":{"addr:city":"Rotherham","addr:housenumber":"10-12","addr:postcode":"S63 8BA","addr:street":"St Andrew's Square","addr:town":"Bolton upon Dearne","brand":"Co-op Food","brand:wikidata":"Q3277439","brand:wikipedia":"en:Co-op Food","fhrs:id":"397681","operator":"The Co-operative Group"}}, "geometry":{"type":"MultiPolygon","coordinates":[[[[-1.3228,53.52078],[-1.32293,53.52081],[-1.32288,53.5209],[-1.32234,53.52109],[-1.32217,53.52106],[-1.32221,53.52099],[-1.32229,53.521],[-1.32236,53.52098],[-1.32232,53.52095],[-1.32269,53.52082],[-1.32272,53.52086],[-1.32276,53.52084],[-1.3228,53.52078]]]]}},
{ "type":"Feature","properties":{"osm_way_id":"359179722","name":"The Co-operative Food","building":"yes","shop":"supermarket","other":{"addr:city":"Darfield","addr:country":"GB","addr:postcode":"S73 9JG","addr:street":"Doncaster Road","fhrs:id":"399062","operator":"The Co-operative Group"}}, "geometry":{"type":"MultiPolygon","coordinates":[[[[-1.35508,53.5334],[-1.35512,53.53351],[-1.3549,53.53354],[-1.35484,53.53355],[-1.35482,53.53349],[-1.35487,53.53348],[-1.35485,53.53344],[-1.35508,53.5334]]]]}},
{ "type":"Feature","properties":{"osm_way_id":"359180349","name":"The Co-operative Food","building":"yes","shop":"supermarket","other":{"addr:city":"Barnsley","addr:country":"GB","addr:housenumber":"6A","addr:postcode":"S72 0DB","addr:street":"Rotherham Road","addr:village":"Great Houghton","operator":"The Co-operative Group"}}, "geometry":{"type":"MultiPolygon","coordinates":[[[[-1.34873,53.55248],[-1.34888,53.55254],[-1.34873,53.55267],[-1.34858,53.55262],[-1.34873,53.55248]]]]}},
{ "type":"Feature","properties":{"osm_way_id":"359180939","name":"Co-op Food","building":"yes","shop":"supermarket","other":{"addr:city":"Royston","addr:country":"GB","addr:postcode":"S71 4RF","addr:street":"High Street","brand":"Co-op Food","brand:wikidata":"Q3277439","brand:wikipedia":"en:Co-op Food","fhrs:id":"398466","operator":"The Co-operative Group","operator:wikidata":"Q117202","operator:wikipedia":"en:The Co-operative Group"}}, "geometry":{"type":"MultiPolygon","coordinates":[[[[-1.45561,53.598],[-1.45571,53.59815],[-1.45565,53.59816],[-1.45582,53.59841],[-1.45551,53.59848],[-1.45527,53.59813],[-1.45549,53.59808],[-1.45546,53.59804],[-1.45561,53.598]]]]}},
{ "type":"Feature","properties":{"osm_way_id":"359181397","name":"The Co-operative Food","building":"yes","shop":"supermarket","other":{"addr:city":"Athersley South","addr:country":"GB","addr:postcode":"S71 3TY","addr:street":"Laithes Lane","fhrs:id":"397674","operator":"The Co-operative Group"}}, "geometry":{"type":"MultiPolygon","coordinates":[[[[-1.47936,53.57875],[-1.47959,53.57898],[-1.4793,53.57909],[-1.47898,53.57877],[-1.47912,53.57872],[-1.47921,53.5788],[-1.47936,53.57875]]]]}},
{ "type":"Feature","properties":{"osm_way_id":"359182319","name":"The Co-operative Food","building":"yes","shop":"supermarket","other":{"addr:city":"Hoyland","addr:country":"GB","addr:housenumber":"16-22","addr:postcode":"S74 0NE","addr:street":"Hoyland Road","fhrs:id":"397835","operator":"The Co-operative Group"}}, "geometry":{"type":"MultiPolygon","coordinates":[[[[-1.46437,53.49726],[-1.46458,53.49744],[-1.46443,53.4975],[-1.4643,53.49739],[-1.46421,53.49742],[-1.46414,53.49736],[-1.46437,53.49726]]]]}},
{ "type":"Feature","properties":{"osm_way_id":"361121881","name":"Asda","building":"yes","shop":"supermarket","other":{"addr:city":"Sheffield","addr:country":"GB","addr:postcode":"S20 7JZ","addr:street":"Beighton Road East","brand":"Asda","brand:wikidata":"Q297410","brand:wikipedia":"en:Asda","contact:phone":"+44 114 229 1001","contact:website":"https:\/\/storelocator.asda.com\/yorkshire-&-humber\/sheffield\/beighton-road-east","fhrs:id":"914936","opening_hours":"Mo 08:00-24:00; Tu-Fr 00:00-24:00; Sa 00:00-22:00; Su 10:00-16:00","operator":"Asda Stores Ltd","wheelchair":"yes"}}, "geometry":{"type":"MultiPolygon","coordinates":[[[[-1.36091,53.34461],[-1.36102,53.34383],[-1.36102,53.34381],[-1.36082,53.3438],[-1.36081,53.34383],[-1.35976,53.34378],[-1.35969,53.34425],[-1.35949,53.34424],[-1.35945,53.34454],[-1.35996,53.34456],[-1.36091,53.34461]]]]}},
{ "type":"Feature","properties":{"osm_way_id":"365081642","name":"Co-operative Food","building":"yes","shop":"supermarket"},"geometry":{"type":"MultiPolygon","coordinates":[[[[-1.34171,53.34919],[-1.34165,53.349],[-1.34146,53.34903],[-1.34153,53.34922],[-1.34171,53.34919]]]]}},
{ "type":"Feature","properties":{"osm_way_id":"377478279","name":"Sainsbury's Local","building":"yes","shop":"supermarket","other":{"addr:city":"Sheffield","addr:country":"GB","addr:housenumber":"2","addr:postcode":"S35 4LU","addr:street":"Wortley Road","addr:suburb":"High Green","brand":"Sainsbury's Local","brand:wikidata":"Q13218434","brand:wikipedia":"en:Sainsbury's Local","fhrs:id":"903299","wheelchair":"yes"}}, "geometry":{"type":"MultiPolygon","coordinates":[[[[-1.48657,53.47416],[-1.48666,53.47405],[-1.48619,53.47392],[-1.48615,53.47397],[-1.4861,53.47396],[-1.48605,53.47402],[-1.48657,53.47416]]]]}},
{ "type":"Feature","properties":{"osm_way_id":"379329033","name":"Poundstretcher","building":"yes","shop":"supermarket"},"geometry":{"type":"MultiPolygon","coordinates":[[[[-1.47815,53.58016],[-1.47798,53.58045],[-1.47747,53.58034],[-1.47769,53.57999],[-1.47775,53.58],[-1.47773,53.58003],[-1.47784,53.58005],[-1.47782,53.58009],[-1.47815,53.58016]]]]}},
{ "type":"Feature","properties":{"osm_way_id":"379329040","name":"Nisa","building":"yes","shop":"supermarket"},"geometry":{"type":"MultiPolygon","coordinates":[[[[-1.47869,53.5836],[-1.4787,53.58354],[-1.47852,53.58353],[-1.47853,53.5835],[-1.47826,53.58348],[-1.47825,53.58356],[-1.47835,53.58356],[-1.47833,53.58369],[-1.47861,53.58371],[-1.47864,53.5836],[-1.47869,53.5836]]]]}},
{ "type":"Feature","properties":{"osm_way_id":"381727679","name":"Co-op Food","building":"yes","shop":"supermarket","other":{"addr:city":"Doncaster","addr:country":"GB","addr:postcode":"DN6 0EP","addr:street":"Selby Road","addr:town":"Askern","brand":"Co-op Food","brand:wikidata":"Q3277439","brand:wikipedia":"en:Co-op Food","fhrs:id":"628060","operator":"The Co-operative Group"}}, "geometry":{"type":"MultiPolygon","coordinates":[[[[-1.15337,53.61691],[-1.15354,53.61727],[-1.15316,53.61733],[-1.15298,53.61698],[-1.15337,53.61691]]]]}},
{ "type":"Feature","properties":{"osm_way_id":"385906128","name":"Pak Supermarket","building":"yes","shop":"supermarket"},"geometry":{"type":"MultiPolygon","coordinates":[[[[-1.35035,53.42718],[-1.35073,53.42693],[-1.35068,53.4269],[-1.35065,53.42692],[-1.35044,53.42681],[-1.35039,53.42685],[-1.35027,53.42679],[-1.34998,53.42698],[-1.35035,53.42718]]]]}},
{ "type":"Feature","properties":{"osm_way_id":"389952288","name":"Tesco Express","building":"yes","shop":"supermarket","other":{"addr:city":"Rotherham","addr:postcode":"S60 2AY","addr:street":"Moorgate Road","alt_name":"tesco Rotherham Moorgate Road Express","brand":"Tesco Express","brand:wikidata":"Q98456772","opening_hours":"Mo-Su 07:00-23:00"}}, "geometry":{"type":"MultiPolygon","coordinates":[[[[-1.34992,53.42079],[-1.34999,53.4208],[-1.35003,53.42084],[-1.35017,53.42079],[-1.34999,53.42065],[-1.34995,53.42066],[-1.34991,53.42063],[-1.3496,53.42075],[-1.3497,53.42084],[-1.34972,53.42083],[-1.34975,53.42086],[-1.34992,53.42079]]]]}},
{ "type":"Feature","properties":{"osm_way_id":"462069567","name":"Asda","building":"yes","shop":"supermarket","other":{"addr:city":"Rotherham","addr:housenumber":"3-5","addr:postcode":"S63 9NQ","addr:street":"High Street","addr:town":"Goldthorpe","alt_name":"ASDA Goldthorpe Supermarket","brand":"Asda","brand:wikidata":"Q297410","brand:wikipedia":"en:Asda","contact:website":"https:\/\/storelocator.asda.com\/yorkshire-&-humber\/rotherham\/high-street-goldthorpe","fhrs:id":"397679","opening_hours":"Mo-Sa 07:00-23:00; Su 10:00-16:00","operator":"Asda Stores Ltd"}}, "geometry":{"type":"MultiPolygon","coordinates":[[[[-1.30395,53.53271],[-1.30409,53.53298],[-1.30347,53.53309],[-1.30338,53.53291],[-1.30351,53.53289],[-1.30349,53.53285],[-1.30374,53.5328],[-1.30372,53.53275],[-1.30395,53.53271]]]]}},
{ "type":"Feature","properties":{"osm_way_id":"462070425","name":"ALDI","building":"yes","shop":"supermarket","other":{"addr:city":"Rotherham","addr:postcode":"S63 9PJ","addr:street":"Barnsley Road","addr:town":"Goldthorpe","brand":"ALDI","brand:wikidata":"Q41171672","brand:wikipedia":"en:Aldi","opening_hours":"Mo-Sa 08:00-22:00; Su 10:00-16:00"}}, "geometry":{"type":"MultiPolygon","coordinates":[[[[-1.32277,53.53319],[-1.32276,53.53297],[-1.3219,53.53298],[-1.32191,53.53321],[-1.32277,53.53319]]]]}},
{ "type":"Feature","properties":{"osm_way_id":"478460565","name":"Asda","building":"yes","shop":"supermarket","other":{"addr:city":"Doncaster","addr:country":"GB","addr:postcode":"DN11 0LP","addr:street":"Grange Lane","brand":"Asda","brand:wikidata":"Q297410","brand:wikipedia":"en:Asda","contact:website":"https:\/\/storelocator.asda.com\/yorkshire-&-humber\/rossington\/grange-lane-new-rossington","fhrs:id":"368877","operator":"Asda Stores Ltd"}}, "geometry":{"type":"MultiPolygon","coordinates":[[[[-1.07639,53.47593],[-1.07637,53.4758],[-1.07635,53.4758],[-1.07634,53.47569],[-1.07578,53.47571],[-1.07578,53.4757],[-1.07557,53.47571],[-1.0756,53.47596],[-1.07639,53.47593]]]]}},
{ "type":"Feature","properties":{"osm_way_id":"478993012","name":"The Food Warehouse","building":"yes","shop":"supermarket","other":{"brand":"The Food Warehouse","brand:wikidata":"Q87263899"}}, "geometry":{"type":"MultiPolygon","coordinates":[[[[-1.46896,53.55754],[-1.46928,53.55757],[-1.46938,53.55717],[-1.46905,53.55714],[-1.46896,53.55754]]]]}},
{ "type":"Feature","properties":{"osm_way_id":"478996647","name":"Morrisons","building":"yes","shop":"supermarket","other":{"brand":"Morrisons","brand:wikidata":"Q922344","brand:wikipedia":"en:Morrisons","postal_code":"DN4 5JP"}}, "geometry":{"type":"MultiPolygon","coordinates":[[[[-1.12847,53.4987],[-1.12795,53.49931],[-1.12802,53.49933],[-1.12787,53.49951],[-1.12768,53.49946],[-1.12756,53.49959],[-1.12733,53.49952],[-1.1274,53.49944],[-1.12686,53.49927],[-1.12759,53.49843],[-1.12847,53.4987]]]]}},
{ "type":"Feature","properties":{"osm_way_id":"480350941","name":"ALDI","building":"yes","shop":"supermarket","other":{"addr:city":"Sheffield","addr:housenumber":"2","addr:postcode":"S6 2BF","addr:street":"Flora Street","addr:unit":"1","brand":"ALDI","brand:wikidata":"Q41171672","brand:wikipedia":"en:Aldi","fhrs:id":"619408","operator":"Aldi Stores Limited"}}, "geometry":{"type":"MultiPolygon","coordinates":[[[[-1.48768,53.39482],[-1.48767,53.39481],[-1.48781,53.39475],[-1.48773,53.39468],[-1.48778,53.39466],[-1.4876,53.39451],[-1.48747,53.39457],[-1.48687,53.39483],[-1.48715,53.39506],[-1.48768,53.39482]]]]}},
{ "type":"Feature","properties":{"osm_way_id":"485023236","name":"Asda","building":"yes","shop":"supermarket","other":{"addr:city":"Stainforth","addr:country":"GB","addr:postcode":"DN7 5DX","addr:street":"Station Road","branch":"Stainforth Supermarket","brand":"Asda","brand:wikidata":"Q297410","brand:wikipedia":"en:Asda","contact:website":"https:\/\/storelocator.asda.com\/yorkshire-&-humber\/stainforth\/station-road","fhrs:id":"698544","opening_hours":"Mo-Sa 07:00-23:00; Su 10:00-16:00","operator":"Asda Stores Ltd"}}, "geometry":{"type":"MultiPolygon","coordinates":[[[[-1.02764,53.59028],[-1.02729,53.59006],[-1.02686,53.59031],[-1.02717,53.5905],[-1.02745,53.59034],[-1.02749,53.59036],[-1.02764,53.59028]]]]}},
{ "type":"Feature","properties":{"osm_way_id":"485023390","name":"Sainsbury's","building":"yes","shop":"supermarket","other":{"addr:city":"Doncaster","addr:country":"GB","addr:housenumber":"90","addr:postcode":"DN8 5BA","addr:street":"King Street","addr:town":"Thorne","branch":"Thorne Superstore","brand":"Sainsbury's","brand:wikidata":"Q152096","brand:wikipedia":"en:Sainsbury's","fhrs:id":"368519","opening_hours":"Mo-Sa 08:00-20:00; Su 10:00-16:00"}}, "geometry":{"type":"MultiPolygon","coordinates":[[[[-0.96383,53.61321],[-0.96419,53.61294],[-0.96353,53.61263],[-0.96317,53.61291],[-0.96383,53.61321]]]]}},
{ "type":"Feature","properties":{"osm_way_id":"544842000","name":"Morrisons","building":"yes","shop":"supermarket","other":{"addr:city":"Sheffield","addr:country":"GB","addr:housenumber":"228-232","addr:postcode":"S10 3BB","addr:street":"Fulwood Road","brand":"Morrisons","brand:wikidata":"Q922344","brand:wikipedia":"en:Morrisons","fhrs:id":"436925"}}, "geometry":{"type":"MultiPolygon","coordinates":[[[[-1.50233,53.37761],[-1.50214,53.37767],[-1.50188,53.37736],[-1.50205,53.37731],[-1.50209,53.37735],[-1.50233,53.37761]]]]}},
{ "type":"Feature","properties":{"osm_way_id":"545575763","name":"Sainsbury's Local","building":"yes","shop":"supermarket","other":{"brand:wikidata":"Q13218434"}}, "geometry":{"type":"MultiPolygon","coordinates":[[[[-1.15953,53.52363],[-1.1591,53.52338],[-1.15882,53.52355],[-1.15922,53.52379],[-1.15931,53.52373],[-1.15934,53.52374],[-1.15953,53.52363]]]]}},
{ "type":"Feature","properties":{"osm_way_id":"569921568","name":"Co-op","building":"yes","shop":"supermarket"},"geometry":{"type":"MultiPolygon","coordinates":[[[[-1.28552,53.42056],[-1.28534,53.42038],[-1.28528,53.4204],[-1.28525,53.42037],[-1.28519,53.42039],[-1.28541,53.4206],[-1.28552,53.42056]]]]}},
{ "type":"Feature","properties":{"osm_way_id":"627994276","name":"Aldi","building":"retail","shop":"supermarket","other":{"brand":"ALDI","brand:wikidata":"Q41171672","brand:wikipedia":"en:Aldi"}}, "geometry":{"type":"MultiPolygon","coordinates":[[[[-0.97822,53.61716],[-0.97773,53.61684],[-0.97828,53.61652],[-0.97869,53.61677],[-0.97852,53.61688],[-0.97862,53.61694],[-0.97822,53.61716]]]]}},
{ "type":"Feature","properties":{"osm_way_id":"632849224","name":"ALDI","building":"yes","shop":"supermarket","other":{"addr:city":"Sheffield","addr:country":"GB","addr:housenumber":"232","addr:postcode":"S13 9BS","addr:street":"Handsworth Road","brand":"ALDI","brand:wikidata":"Q41171672","brand:wikipedia":"en:Aldi","fhrs:id":"451888","opening_hours":"Mo-Sa 08:00-22:00; Su 10:00-16:00","phone":"+44 800 042 0800"}}, "geometry":{"type":"MultiPolygon","coordinates":[[[[-1.39407,53.37516],[-1.39366,53.3754],[-1.39363,53.37539],[-1.39344,53.37551],[-1.39375,53.37569],[-1.39442,53.37529],[-1.39429,53.37521],[-1.39422,53.37525],[-1.39407,53.37516]]]]}},
{ "type":"Feature","properties":{"osm_way_id":"637867878","name":"Co-op Food","building":"yes","shop":"supermarket","other":{"addr:housename":"The Co-operative Food","addr:postcode":"S64 9LU","alt_name":"Co-op","brand":"Co-op Food","brand:wikidata":"Q3277439","brand:wikipedia":"en:Co-op Food","old_name":"Somerfields","website":"https:\/\/www.co-operative.coop\/find-us\/?q=mexborough&lat=53.493099&long=-1.2804519999999684&filters=Food,Bank,Travel,Pharmacy,Funerals,Motor,Britannia,Misc,Nonfood,Post,Homestore,Petrol&options="}}, "geometry":{"type":"MultiPolygon","coordinates":[[[[-1.29365,53.49356],[-1.29317,53.49373],[-1.29325,53.49381],[-1.29334,53.4939],[-1.29349,53.49405],[-1.29396,53.49388],[-1.29365,53.49356]]]]}},
{ "type":"Feature","properties":{"osm_way_id":"648292615","name":"Asda","building":"yes","shop":"supermarket","other":{"addr:city":"Royston","addr:country":"GB","addr:postcode":"S71 4BP","addr:street":"The Lane","brand":"Asda","brand:wikidata":"Q297410","brand:wikipedia":"en:Asda","contact:website":"https:\/\/storelocator.asda.com\/yorkshire-&-humber\/royston\/midland-road","fhrs:id":"398263","operator":"Asda Stores Ltd"}}, "geometry":{"type":"MultiPolygon","coordinates":[[[[-1.45165,53.60081],[-1.45127,53.60091],[-1.45103,53.60057],[-1.45106,53.60056],[-1.45103,53.60051],[-1.45122,53.60046],[-1.45125,53.6005],[-1.45128,53.60048],[-1.4514,53.60047],[-1.45165,53.60081]]]]}},
{ "type":"Feature","properties":{"osm_way_id":"656606075","name":"Morrisons","building":"supermarket","shop":"supermarket","other":{"addr:city":"Sheffield","addr:country":"GB","addr:housenumber":"699","addr:postcode":"S6 2GY","addr:street":"Penistone Road","brand":"Morrisons","brand:wikidata":"Q922344","brand:wikipedia":"en:Morrisons","fhrs:id":"437910","opening_hours":"Mo-Sa 06:00-23:00; Su 10:00-16:00","source:addr":"FHRS Open Data","wheelchair":"yes"}}, "geometry":{"type":"MultiPolygon","coordinates":[[[[-1.49683,53.40205],[-1.49661,53.40221],[-1.49622,53.40251],[-1.49602,53.4024],[-1.49587,53.40251],[-1.49573,53.40246],[-1.49569,53.40249],[-1.49558,53.40244],[-1.4955,53.40251],[-1.49479,53.40217],[-1.49421,53.40189],[-1.49493,53.40134],[-1.49618,53.40193],[-1.49632,53.40181],[-1.49645,53.40187],[-1.49673,53.402],[-1.49683,53.40205]]]]}},
{ "type":"Feature","properties":{"osm_way_id":"657213910","name":"Tesco Express","building":"yes","shop":"supermarket","other":{"brand":"Tesco Express","brand:wikidata":"Q98456772","brand:wikipedia":"en:Tesco"}}, "geometry":{"type":"MultiPolygon","coordinates":[[[[-1.3438,53.45984],[-1.34378,53.46008],[-1.34407,53.4601],[-1.34409,53.45986],[-1.3438,53.45984]]]]}},
{ "type":"Feature","properties":{"osm_way_id":"670901424","name":"Aldi","building":"yes","shop":"supermarket","other":{"addr:city":"Sheffield","addr:country":"GB","addr:housenumber":"82","addr:postcode":"S35 9WN","addr:street":"The Common","brand":"ALDI","brand:wikidata":"Q41171672","brand:wikipedia":"en:Aldi","fhrs:id":"650952"}}, "geometry":{"type":"MultiPolygon","coordinates":[[[[-1.4637,53.44553],[-1.46345,53.44568],[-1.46401,53.44603],[-1.46427,53.44588],[-1.4637,53.44553]]]]}},
{ "type":"Feature","properties":{"osm_way_id":"684425561","name":"Ozmen","building":"yes","shop":"supermarket","other":{"addr:city":"Sheffield","addr:country":"GB","addr:housenumber":"55,57","addr:postcode":"S2 4QT","addr:street":"John Street","fhrs:id":"1016554","source:addr":"FHRS Open Data"}}, "geometry":{"type":"MultiPolygon","coordinates":[[[[-1.47534,53.3704],[-1.4755,53.37036],[-1.47558,53.37046],[-1.47579,53.37047],[-1.47598,53.37028],[-1.4762,53.37035],[-1.47622,53.37042],[-1.47581,53.37084],[-1.47562,53.37078],[-1.47534,53.3704]]]]}},
{ "type":"Feature","properties":{"osm_way_id":"684674535","name":"Del's","building":"yes","shop":"supermarket","other":{"addr:city":"Sheffield","addr:country":"GB","addr:housenumber":"37","addr:postcode":"S26 4TT","addr:street":"High Street","addr:village":"Swallownest","fhrs:id":"461964"}}, "geometry":{"type":"MultiPolygon","coordinates":[[[[-1.32141,53.3637],[-1.32165,53.36352],[-1.32159,53.3635],[-1.32162,53.36348],[-1.3215,53.36342],[-1.3212,53.36365],[-1.32129,53.36369],[-1.32133,53.36366],[-1.32141,53.3637]]]]}},
{ "type":"Feature","properties":{"osm_way_id":"686430752","name":"Aldi","building":"yes","shop":"supermarket","other":{"addr:postcode":"DN1 2DG","brand":"ALDI","brand:wikidata":"Q41171672","brand:wikipedia":"en:Aldi"}}, "geometry":{"type":"MultiPolygon","coordinates":[[[[-1.1259,53.5285],[-1.12627,53.52828],[-1.1256,53.52788],[-1.12523,53.5281],[-1.1259,53.5285]]]]}},
{ "type":"Feature","properties":{"osm_way_id":"694021929","name":"Aldi","building":"yes","shop":"supermarket","other":{"brand":"ALDI","brand:wikidata":"Q41171672","brand:wikipedia":"en:Aldi"}}, "geometry":{"type":"MultiPolygon","coordinates":[[[[-1.05528,53.5349],[-1.05501,53.53483],[-1.05523,53.53455],[-1.05551,53.53463],[-1.05528,53.5349]]]]}},
{ "type":"Feature","properties":{"osm_way_id":"700664480","name":"Lidl","building":"yes","shop":"supermarket","other":{"brand":"Lidl","brand:wikidata":"Q151954","brand:wikipedia":"en:Lidl"}}, "geometry":{"type":"MultiPolygon","coordinates":[[[[-1.0936,53.48303],[-1.09329,53.48347],[-1.09335,53.48349],[-1.09327,53.48359],[-1.09322,53.48365],[-1.09269,53.48351],[-1.09318,53.48286],[-1.09333,53.4829],[-1.09329,53.48295],[-1.0936,53.48303]]]]}},
{ "type":"Feature","properties":{"osm_way_id":"701353667","name":"Heron Foods","building":"yes","shop":"supermarket","other":{"addr:city":"Rawmarsh","addr:country":"GB","addr:housename":"Rawmarsh Shopping Centre","addr:postcode":"S62 6NG","addr:street":"Bellows Road","addr:unit":"B","brand":"Heron Foods","brand:wikidata":"Q5743472","brand:wikipedia":"en:Heron Foods","contact:website":"https:\/\/heronfoods.com\/storelocator\/store-details\/rawmarsh","fhrs:id":"699406"}}, "geometry":{"type":"MultiPolygon","coordinates":[[[[-1.34374,53.46009],[-1.34375,53.45999],[-1.34344,53.45998],[-1.34343,53.46008],[-1.34374,53.46009]]]]}},
{ "type":"Feature","properties":{"osm_way_id":"712311311","name":"Co-Op","building":"yes","shop":"supermarket"},"geometry":{"type":"MultiPolygon","coordinates":[[[[-1.32077,53.41272],[-1.3209,53.41283],[-1.32116,53.41273],[-1.32118,53.41266],[-1.32107,53.41258],[-1.32077,53.41272]]]]}},
{ "type":"Feature","properties":{"osm_way_id":"713889380","name":"ALDI","building":"retail","shop":"supermarket","other":{"brand":"ALDI","brand:wikidata":"Q41171672","brand:wikipedia":"en:Aldi"}}, "geometry":{"type":"MultiPolygon","coordinates":[[[[-1.35412,53.34661],[-1.3538,53.34636],[-1.35404,53.34625],[-1.35416,53.34619],[-1.35418,53.34621],[-1.3545,53.34606],[-1.3548,53.34629],[-1.35469,53.34634],[-1.35474,53.34638],[-1.35462,53.34644],[-1.35456,53.3464],[-1.35412,53.34661]]]]}},
{ "type":"Feature","properties":{"osm_way_id":"731865921","name":"Lidl","building":"yes","shop":"supermarket","other":{"brand":"Lidl","brand:wikidata":"Q151954","brand:wikipedia":"en:Lidl","operator":"Lidl"}}, "geometry":{"type":"MultiPolygon","coordinates":[[[[-0.36856,52.75482],[-0.36842,52.75428],[-0.36839,52.75419],[-0.36788,52.75424],[-0.36788,52.75427],[-0.36789,52.75431],[-0.36791,52.75431],[-0.36793,52.75435],[-0.36793,52.75438],[-0.36794,52.7544],[-0.36795,52.75442],[-0.36795,52.75445],[-0.36796,52.75447],[-0.36796,52.75449],[-0.36797,52.75451],[-0.36798,52.75454],[-0.36798,52.75456],[-0.36799,52.75458],[-0.36799,52.75459],[-0.368,52.75462],[-0.36801,52.75464],[-0.36801,52.75466],[-0.36802,52.75469],[-0.36803,52.75471],[-0.36803,52.75473],[-0.36804,52.75476],[-0.36805,52.75478],[-0.36807,52.75487],[-0.36839,52.75483],[-0.36856,52.75482]]]]}},
{ "type":"Feature","properties":{"osm_way_id":"733681193","name":"Costcutter","building":"yes","shop":"supermarket","other":{"brand":"Costcutter","brand:wikidata":"Q5175072","brand:wikipedia":"en:Costcutter"}}, "geometry":{"type":"MultiPolygon","coordinates":[[[[-1.07323,53.56347],[-1.07294,53.56347],[-1.07295,53.56332],[-1.07319,53.56333],[-1.07323,53.56347]]]]}},
{ "type":"Feature","properties":{"osm_way_id":"744099795","name":"Lidl","building":"yes","shop":"supermarket","other":{"brand":"Lidl","brand:wikidata":"Q151954","brand:wikipedia":"en:Lidl"}}, "geometry":{"type":"MultiPolygon","coordinates":[[[[-0.9626,53.61389],[-0.96187,53.61354],[-0.96199,53.61345],[-0.96206,53.61348],[-0.96226,53.61334],[-0.9625,53.61346],[-0.96254,53.61343],[-0.96295,53.61363],[-0.9626,53.61389]]]]}},
{ "type":"Feature","properties":{"osm_way_id":"747277006","name":"Aldi","building":"yes","shop":"supermarket","other":{"addr:city":"Rotherham","addr:housename":"Aldi","addr:housenumber":"97","addr:postcode":"S66 2TW","addr:street":"Bawtry Road","brand":"ALDI","brand:wikidata":"Q41171672","brand:wikipedia":"en:Aldi","opening_hours":"Mo-Su 08:00-22:00","operator":"ALDI","payment:card":"yes","payment:cash":"yes","payment:contactless":"yes"}}, "geometry":{"type":"MultiPolygon","coordinates":[[[[-1.26361,53.42467],[-1.26343,53.42415],[-1.26293,53.42422],[-1.26312,53.42479],[-1.26331,53.42476],[-1.26329,53.42472],[-1.26361,53.42467]]]]}},
{ "type":"Feature","properties":{"osm_way_id":"751537929","name":"Aldi","building":"yes","shop":"supermarket","other":{"addr:city":"Rotherham","addr:housename":"Aldi","addr:postcode":"S62 6FT","addr:street":"Great Eastern Way","brand":"ALDI","brand:wikidata":"Q41171672","brand:wikipedia":"en:Aldi","opening_hours":"Mo-Sa 08:00-21:00","operator":"Aldi","payment:cards":"yes","payment:cash":"yes","payment:contactless":"yes","website":"https:\/\/www.aldi.co.uk\/store\/s-uk-E0944"}}, "geometry":{"type":"MultiPolygon","coordinates":[[[[-1.34418,53.45112],[-1.34406,53.45111],[-1.34408,53.45105],[-1.34375,53.451],[-1.34378,53.45092],[-1.34393,53.45057],[-1.34438,53.45064],[-1.34418,53.45112]]]]}},
{ "type":"Feature","properties":{"osm_way_id":"763345522","name":"Tesco","building":"yes","shop":"supermarket","other":{"brand":"Tesco","brand:wikidata":"Q487494","brand:wikipedia":"en:Tesco"}}, "geometry":{"type":"MultiPolygon","coordinates":[[[[-1.44278,53.50593],[-1.44207,53.5063],[-1.4416,53.50598],[-1.44232,53.5056],[-1.44278,53.50593]]]]}},
{ "type":"Feature","properties":{"osm_way_id":"767834015","name":"Heron Foods","building":"retail","shop":"supermarket","other":{"addr:city":"Doncaster","addr:country":"GB","addr:housename":"Rossington Market","addr:postcode":"DN11 0PD","addr:street":"Norman Crescent","brand":"Heron Foods","brand:wikidata":"Q5743472","brand:wikipedia":"en:Heron Foods","contact:website":"https:\/\/heronfoods.com\/storelocator\/store-details\/rossington","fhrs:id":"704750"}}, "geometry":{"type":"MultiPolygon","coordinates":[[[[-1.07851,53.47806],[-1.07825,53.47808],[-1.07823,53.47794],[-1.07849,53.47792],[-1.07851,53.47806]]]]}},
{ "type":"Feature","properties":{"osm_way_id":"777288903","name":"Heron Foods","building":"yes","shop":"supermarket","other":{"addr:city":"Wombwell","addr:country":"GB","addr:housenumber":"60","addr:postcode":"S73 8DA","addr:street":"High Street","brand":"Heron Foods","brand:wikidata":"Q5743472","brand:wikipedia":"en:Heron Foods","contact:website":"https:\/\/heronfoods.com\/storelocator\/store-details\/wombwell","fhrs:id":"398794"}}, "geometry":{"type":"MultiPolygon","coordinates":[[[[-1.40031,53.5238],[-1.39999,53.52397],[-1.39985,53.52388],[-1.40017,53.52371],[-1.40031,53.5238]]]]}},
{ "type":"Feature","properties":{"osm_way_id":"802273073","name":"M&S Foodhall","building":"yes","shop":"supermarket","other":{"brand":"M&S Foodhall","brand:wikidata":"Q714491","brand:wikipedia":"en:Marks & Spencer"}}, "geometry":{"type":"MultiPolygon","coordinates":[[[[-1.38569,53.50898],[-1.38539,53.5088],[-1.38505,53.509],[-1.38499,53.50903],[-1.38529,53.50921],[-1.38569,53.50898]]]]}},
{ "type":"Feature","properties":{"osm_way_id":"852001398","name":"ALDI","building":"retail","shop":"supermarket","other":{"brand":"ALDI","brand:wikidata":"Q41171672","brand:wikipedia":"en:Aldi"}}, "geometry":{"type":"MultiPolygon","coordinates":[[[[-1.41591,53.57838],[-1.41595,53.57865],[-1.41602,53.57864],[-1.41611,53.57864],[-1.41611,53.5786],[-1.41621,53.57859],[-1.41622,53.57864],[-1.41631,53.57864],[-1.4163,53.57858],[-1.41685,53.57855],[-1.41681,53.57833],[-1.41601,53.57837],[-1.41591,53.57838]]]]}},
{ "type":"Feature","properties":{"osm_way_id":"852012316","name":"Aldi","building":"yes","shop":"supermarket","other":{"brand":"ALDI","brand:wikidata":"Q41171672","brand:wikipedia":"en:Aldi"}}, "geometry":{"type":"MultiPolygon","coordinates":[[[[-1.16968,53.53797],[-1.16996,53.53807],[-1.16993,53.53811],[-1.17011,53.53817],[-1.17052,53.53778],[-1.17001,53.53759],[-1.16981,53.53778],[-1.16985,53.5378],[-1.16968,53.53797]]]]}},
{ "type":"Feature","properties":{"osm_way_id":"852636148","name":"Lidl","building":"yes","shop":"supermarket","other":{"addr:city":"Barnsley","addr:country":"GB","addr:postcode":"S73 8DS","addr:street":"Bradbury Balk Lane","addr:town":"Wombwell","brand":"Lidl","brand:wikidata":"Q151954","brand:wikipedia":"en:Lidl","fhrs:id":"928285","not:addr:postcode":"S73 8JN"}}, "geometry":{"type":"MultiPolygon","coordinates":[[[[-1.40836,53.52984],[-1.40797,53.53004],[-1.40723,53.5295],[-1.40739,53.52942],[-1.40741,53.52944],[-1.40744,53.52946],[-1.40768,53.52934],[-1.40836,53.52984]]]]}},
{ "type":"Feature","properties":{"osm_way_id":"853020647","name":"Lidl","building":"retail","shop":"supermarket","other":{"addr:country":"GB","addr:postcode":"S65 3ET","addr:street":"Doncaster Road","brand":"Lidl","brand:wikidata":"Q151954","fhrs:id":"1170657"}}, "geometry":{"type":"MultiPolygon","coordinates":[[[[-1.31515,53.44386],[-1.31525,53.44382],[-1.31525,53.44381],[-1.31555,53.44371],[-1.3156,53.44369],[-1.31576,53.44384],[-1.31571,53.44386],[-1.31613,53.44427],[-1.31583,53.44437],[-1.31588,53.44442],[-1.31577,53.44446],[-1.31515,53.44386]]]]}},
{ "type":"Feature","properties":{"osm_way_id":"853030585","name":"Lidl","building":"retail","shop":"supermarket","other":{"addr:country":"GB","addr:housenumber":"128","addr:postcode":"DN5 0EW","addr:street":"Askern Road","brand":"Lidl","brand:wikidata":"Q151954","brand:wikipedia":"en:Lidl","fhrs:id":"953976","opening_hours":"Mo-Sa 08:00-22:00; Su 11:00-17:00"}}, "geometry":{"type":"MultiPolygon","coordinates":[[[[-1.14685,53.55062],[-1.14685,53.55062],[-1.14791,53.55055],[-1.14796,53.55085],[-1.14691,53.55092],[-1.14687,53.55074],[-1.14679,53.55074],[-1.14677,53.55063],[-1.14685,53.55062]]]]}},
{ "type":"Feature","properties":{"osm_way_id":"853035592","name":"Lidl","building":"retail","shop":"supermarket","other":{"addr:city":"Doncaster","addr:country":"GB","addr:postcode":"S64 9HU","addr:street":"Cliff Street","addr:town":"Mexborough","brand":"Lidl","brand:wikidata":"Q151954","brand:wikipedia":"en:Lidl","building:levels":"1","fhrs:id":"486359"}}, "geometry":{"type":"MultiPolygon","coordinates":[[[[-1.29312,53.49227],[-1.29316,53.49218],[-1.29407,53.4923],[-1.29404,53.49239],[-1.29396,53.49259],[-1.29336,53.49251],[-1.29338,53.49246],[-1.29316,53.49243],[-1.29322,53.49228],[-1.29312,53.49227]]]]}},
{ "type":"Feature","properties":{"osm_way_id":"854982232","name":"Tesco Extra","building":"yes","shop":"supermarket","other":{"addr:city":"Rotherham","addr:housename":"Tesco Stores","addr:postcode":"S63 7DA","addr:street":"Biscay Way","addr:town":"Wath-Upon-Dearne","brand":"Tesco Extra","brand:wikidata":"Q25172225","brand:wikipedia":"en:Tesco Extra","contact:website":"https:\/\/www.tesco.com\/store-locator\/rotherham\/biscay-way","fhrs:id":"988974","source:addr":"FHRS Open Data","toilets":"yes","toilets:wheelchair":"yes","wheelchair":"yes"}}, "geometry":{"type":"MultiPolygon","coordinates":[[[[-1.345,53.50457],[-1.34491,53.50393],[-1.34488,53.50393],[-1.34486,53.50375],[-1.34493,53.50375],[-1.34497,53.50367],[-1.34608,53.50361],[-1.3462,53.50383],[-1.34624,53.50413],[-1.34601,53.50414],[-1.34607,53.50458],[-1.34573,53.5046],[-1.34572,53.50451],[-1.34513,53.50453],[-1.34514,53.50457],[-1.345,53.50457]]]]}},
{ "type":"Feature","properties":{"osm_way_id":"871566602","name":"Lidl","building":"supermarket","shop":"supermarket","other":{"addr:country":"GB","addr:housename":"Leger Retail Centre","addr:postcode":"DN2 5DX","addr:street":"Thorne Road","brand":"Lidl","brand:wikidata":"Q151954","brand:wikipedia":"en:Lidl","fhrs:id":"577462"}}, "geometry":{"type":"MultiPolygon","coordinates":[[[[-1.0849,53.54342],[-1.08517,53.54306],[-1.08598,53.54328],[-1.08587,53.54343],[-1.0859,53.54343],[-1.0858,53.54356],[-1.08553,53.54348],[-1.08551,53.5435],[-1.08523,53.54343],[-1.08518,53.5435],[-1.0849,53.54342]]]]}},
{ "type":"Feature","properties":{"osm_way_id":"906997712","name":"Co-op Food","building":"retail","shop":"supermarket","other":{"addr:city":"Sheffield","addr:country":"GB","addr:county":"South Yorkshire","addr:postcode":"S8 9JE","addr:street":"Lees Hall Avenue","brand":"Co-op Food","brand:wikidata":"Q3277439","brand:wikipedia":"en:Co-op Food"}}, "geometry":{"type":"MultiPolygon","coordinates":[[[[-1.46692,53.35195],[-1.46694,53.35203],[-1.46675,53.35204],[-1.46675,53.35197],[-1.46664,53.35197],[-1.46661,53.35189],[-1.4669,53.35187],[-1.46692,53.35195]]]]}},
{ "type":"Feature","properties":{"osm_way_id":"924984791","name":"ALDI","building":"yes","shop":"supermarket","other":{"addr:postcode":"S71 4RF","addr:street":"High Street","addr:town":"Royston","brand":"ALDI","brand:wikidata":"Q41171672","brand:wikipedia":"en:Aldi","fhrs:id":"1337028","source:addr":"FHRS Open Data"}}, "geometry":{"type":"MultiPolygon","coordinates":[[[[-1.45922,53.59733],[-1.45891,53.59733],[-1.45891,53.59728],[-1.4587,53.59728],[-1.4587,53.59788],[-1.45882,53.59788],[-1.45882,53.59786],[-1.45921,53.59786],[-1.45922,53.59733]]]]}},
{ "type":"Feature","properties":{"osm_way_id":"941436241","name":"Spar","building":"yes","shop":"supermarket","other":{"brand":"Spar","brand:wikidata":"Q610492","brand:wikipedia":"en:Spar (retailer)"}}, "geometry":{"type":"MultiPolygon","coordinates":[[[[-1.01905,53.50186],[-1.01887,53.50191],[-1.0188,53.50181],[-1.01872,53.5017],[-1.01883,53.50168],[-1.01886,53.50172],[-1.01892,53.5017],[-1.01905,53.50186]]]]}},
{ "type":"Feature","properties":{"osm_way_id":"941443832","name":"Co-op Food","building":"yes","shop":"supermarket","other":{"brand":"Co-op Food","brand:wikidata":"Q3277439","brand:wikipedia":"en:Co-op Food"}}, "geometry":{"type":"MultiPolygon","coordinates":[[[[-1.0229,53.49036],[-1.02272,53.49036],[-1.02267,53.49041],[-1.02247,53.49033],[-1.0226,53.49022],[-1.0229,53.49022],[-1.0229,53.49036]]]]}},
{ "type":"Feature","properties":{"osm_way_id":"952719995","name":"The Co-operative Food","building":"yes","shop":"supermarket","other":{"addr:city":"Barnby Dun","addr:street":"High Street","opening_hours":"Mo-Su 07:00-22:00","operator":"Central England Co-operative","toilets":"yes","toilets:access":"permissive","toilets:wheelchair":"yes"}}, "geometry":{"type":"MultiPolygon","coordinates":[[[[-1.07211,53.57731],[-1.07194,53.57721],[-1.0719,53.57723],[-1.07174,53.57732],[-1.07186,53.5774],[-1.07192,53.57736],[-1.07197,53.57739],[-1.07211,53.57731]]]]}},
{ "type":"Feature","properties":{"osm_way_id":"955869796","name":"Lidl","building":"yes","shop":"supermarket","other":{"addr:city":"Sheffield","addr:country":"GB","addr:postcode":"S6 5FL","addr:street":"Stannington Road","brand":"Lidl","brand:wikidata":"Q151954","brand:wikipedia":"en:Lidl","fhrs:id":"1379687"}}, "geometry":{"type":"MultiPolygon","coordinates":[[[[-1.51411,53.40021],[-1.51305,53.39996],[-1.51307,53.39993],[-1.51309,53.39994],[-1.51311,53.39994],[-1.51324,53.39974],[-1.51325,53.39972],[-1.51419,53.39994],[-1.51407,53.40013],[-1.51415,53.40014],[-1.51411,53.40021]]]]}},
{ "type":"Feature","properties":{"osm_way_id":"979860465","name":"ALDI","building":"yes","shop":"supermarket","other":{"brand":"ALDI","brand:wikidata":"Q41171672","brand:wikipedia":"en:Aldi","building:levels":"1"}}, "geometry":{"type":"MultiPolygon","coordinates":[[[[-1.07351,53.56008],[-1.07388,53.55985],[-1.07434,53.55999],[-1.07378,53.56028],[-1.07351,53.56008]]]]}},
{ "type":"Feature","properties":{"osm_way_id":"987147119","building":"yes","shop":"supermarket"},"geometry":{"type":"MultiPolygon","coordinates":[[[[-1.07489,53.50816],[-1.07516,53.50829],[-1.07528,53.5082],[-1.07532,53.50821],[-1.07534,53.50821],[-1.07538,53.50819],[-1.07537,53.50816],[-1.0753,53.50812],[-1.07526,53.50813],[-1.0751,53.50805],[-1.07504,53.50809],[-1.07498,53.50807],[-1.07489,53.50816]]]]}},
{ "type":"Feature","properties":{"osm_way_id":"998259841","name":"Lidl","building":"supermarket","shop":"supermarket","other":{"addr:country":"GB","addr:postcode":"S75 6DJ","addr:street":"Wakefield Road","brand":"Lidl","brand:wikidata":"Q151954","brand:wikipedia":"en:Lidl","fhrs:id":"1212991"}}, "geometry":{"type":"MultiPolygon","coordinates":[[[[-1.4877,53.58424],[-1.48659,53.58449],[-1.48655,53.58442],[-1.48662,53.5844],[-1.48649,53.5842],[-1.48663,53.58417],[-1.48723,53.58404],[-1.48721,53.58401],[-1.48752,53.58394],[-1.4877,53.58424]]]]}},
{ "type":"Feature","properties":{"osm_way_id":"1032380223","name":"KH Oriental","shop":"supermarket","other":{"level":"1"}}, "geometry":{"type":"MultiPolygon","coordinates":[[[[-1.47461,53.37231],[-1.47453,53.37232],[-1.47452,53.3723],[-1.47412,53.37235],[-1.47407,53.37222],[-1.47452,53.37216],[-1.47455,53.37216],[-1.47461,53.37231]]]]}},
{ "type":"Feature","properties":{"osm_way_id":"1038038873","name":"Heron Foods","building":"yes","shop":"supermarket","other":{"brand":"Heron Foods","brand:wikidata":"Q5743472","brand:wikipedia":"en:Heron Foods"}}, "geometry":{"type":"MultiPolygon","coordinates":[[[[-1.50192,53.40303],[-1.50183,53.40302],[-1.50166,53.40307],[-1.50148,53.40319],[-1.50166,53.40328],[-1.50199,53.40306],[-1.50192,53.40303]]]]}},
{ "type":"Feature","properties":{"osm_way_id":"1039453251","name":"Sainsbury's","building":"yes","shop":"supermarket","other":{"brand":"Sainsbury's","brand:wikidata":"Q152096","brand:wikipedia":"en:Sainsbury's"}}, "geometry":{"type":"MultiPolygon","coordinates":[[[[-1.35054,53.34142],[-1.35053,53.34138],[-1.3505,53.34136],[-1.35046,53.34135],[-1.35024,53.34136],[-1.35023,53.34133],[-1.34978,53.34135],[-1.34978,53.34139],[-1.34959,53.3414],[-1.3496,53.34147],[-1.34905,53.34151],[-1.34913,53.34199],[-1.34955,53.34196],[-1.34971,53.34195],[-1.34973,53.34207],[-1.35007,53.34205],[-1.35065,53.34201],[-1.3506,53.34172],[-1.35073,53.34171],[-1.35072,53.34164],[-1.35069,53.34149],[-1.35068,53.34141],[-1.35054,53.34142]]]]}},
{ "type":"Feature","properties":{"osm_way_id":"1040200352","name":"M&S Foodhall","building":"yes","shop":"supermarket","other":{"brand":"M&S Foodhall","brand:wikidata":"Q714491","brand:wikipedia":"en:Marks & Spencer"}}, "geometry":{"type":"MultiPolygon","coordinates":[[[[-1.46809,53.32688],[-1.46814,53.32685],[-1.46815,53.32686],[-1.46831,53.32678],[-1.4683,53.32677],[-1.46838,53.32673],[-1.46836,53.32672],[-1.46825,53.32665],[-1.468,53.32646],[-1.4677,53.32661],[-1.46809,53.32688]]]]}},
{ "type":"Feature","properties":{"osm_way_id":"1040200355","name":"ALDI","building":"yes","shop":"supermarket","other":{"brand":"ALDI","brand:wikidata":"Q41171672","brand:wikipedia":"en:Aldi"}}, "geometry":{"type":"MultiPolygon","coordinates":[[[[-1.46856,53.32677],[-1.46894,53.3266],[-1.46897,53.32663],[-1.46903,53.32661],[-1.46917,53.32673],[-1.46911,53.32675],[-1.46943,53.32707],[-1.46935,53.3271],[-1.46932,53.32708],[-1.46899,53.32724],[-1.46875,53.32697],[-1.46878,53.32696],[-1.46856,53.32677]]]]}},
{ "type":"Feature","properties":{"osm_way_id":"1044043905","name":"Tesco","shop":"supermarket","other":{"addr:city":"Sheffield","addr:housenumber":"407","addr:postcode":"S5 7HF","addr:street":"Herries Road","brand":"Tesco","brand:wikidata":"Q487494","brand:wikipedia":"en:Tesco"}}, "geometry":{"type":"MultiPolygon","coordinates":[[[[-1.47169,53.41288],[-1.47176,53.4127],[-1.47177,53.41267],[-1.47156,53.41264],[-1.47157,53.41261],[-1.47144,53.41261],[-1.47136,53.41281],[-1.47128,53.41279],[-1.47125,53.41286],[-1.47134,53.41288],[-1.47129,53.41298],[-1.47129,53.413],[-1.47163,53.41305],[-1.47169,53.41288]]]]}}
]
}
