{
"type": "FeatureCollection",
"features": [
{ "type":"Feature","properties":{"osm_id":"4172457589","name":"Wolstenholme Machine Knives ","other":{"addr:street":"Downgate Drive","building":"warehouse"}}, "geometry":{"type":"Point","coordinates":[-1.43245,53.40511 ]}},
{ "type":"Feature","properties":{"osm_id":"7609275142","other":{"amenity":"loading_dock"}}, "geometry":{"type":"Point","coordinates":[-1.43688,53.38498 ]}},
{ "type":"Feature","properties":{"osm_way_id":"71868183","name":"Makro","building":"warehouse","shop":"wholesale","other":{"brand":"Makro","brand:wikidata":"Q704606","brand:wikipedia":"en:Makro"}}, "geometry":{"type":"MultiPolygon","coordinates":[[[[-1.43013,53.38349],[-1.42881,53.38418],[-1.42983,53.3849],[-1.43115,53.38419],[-1.43013,53.38349]]]]}},
{ "type":"Feature","properties":{"osm_way_id":"85437105","name":"Amazon UK (LBA1)","building":"warehouse","other":{"addr:postcode":"DN4 5JS","operator":"Amazon UK Services Ltd. Doncaster"}}, "geometry":{"type":"MultiPolygon","coordinates":[[[[-1.12191,53.49888],[-1.1214,53.4995],[-1.12124,53.49944],[-1.12093,53.49982],[-1.12101,53.49984],[-1.1209,53.49998],[-1.12455,53.50106],[-1.12548,53.49994],[-1.12191,53.49888]]]]}},
{ "type":"Feature","properties":{"osm_way_id":"85437107","name":"VictoriaPlum","building":"warehouse"},"geometry":{"type":"MultiPolygon","coordinates":[[[[-1.12853,53.49944],[-1.1278,53.50024],[-1.13093,53.50123],[-1.13162,53.50039],[-1.12853,53.49944]]]]}},
{ "type":"Feature","properties":{"osm_way_id":"85437109","name":"Amazon UK (LBA3)","building":"warehouse","other":{"operator":"Amazon UK Services Ltd. Doncaster","postal_code":"DN4 5JP","ref":"Amazon LBA3"}}, "geometry":{"type":"MultiPolygon","coordinates":[[[[-1.13143,53.50136],[-1.13216,53.50048],[-1.13478,53.50129],[-1.134,53.50219],[-1.13143,53.50136]]]]}},
{ "type":"Feature","properties":{"osm_way_id":"93368007","name":"Armadillo Self Storage","building":"warehouse","shop":"storage_rental","other":{"addr:city":"Sheffield","addr:housenumber":"8","addr:postcode":"S9 4WA","addr:street":"Parkway Avenue","alt_name":"Armadillo Sheffield Parkway"}}, "geometry":{"type":"MultiPolygon","coordinates":[[[[-1.43694,53.385],[-1.43688,53.38498],[-1.43643,53.38481],[-1.43584,53.38537],[-1.43634,53.38556],[-1.43694,53.385]]]]}},
{ "type":"Feature","properties":{"osm_way_id":"93916543","name":"Peter Ward Engineering","building":"warehouse","other":{"addr:city":"Sheffield","addr:postcode":"S2 3DA","addr:street":"Sheaf Bank"}}, "geometry":{"type":"MultiPolygon","coordinates":[[[[-1.47154,53.36205],[-1.47133,53.36207],[-1.47136,53.36227],[-1.47158,53.36226],[-1.47154,53.36205]]]]}},
{ "type":"Feature","properties":{"osm_way_id":"93916545","building":"warehouse","other":{"addr:city":"Sheffield","addr:housenumber":"21","addr:postcode":"S2 3AA","addr:street":"Gleadless Road"}}, "geometry":{"type":"MultiPolygon","coordinates":[[[[-1.47175,53.36204],[-1.47159,53.36205],[-1.47161,53.36218],[-1.47177,53.36217],[-1.47175,53.36204]]]]}},
{ "type":"Feature","properties":{"osm_way_id":"95688902","building":"warehouse","other":{"addr:city":"Sheffield","addr:country":"GB","addr:county":"South Yorkshire"}}, "geometry":{"type":"MultiPolygon","coordinates":[[[[-1.45968,53.35548],[-1.45976,53.3554],[-1.45955,53.35533],[-1.45947,53.3554],[-1.45968,53.35548]]]]}},
{ "type":"Feature","properties":{"osm_way_id":"96740537","building":"warehouse","other":{"addr:housename":"The Don Cinema","wikidata":"Q39419980"}}, "geometry":{"type":"MultiPolygon","coordinates":[[[[-1.46993,53.38488],[-1.46991,53.38519],[-1.46988,53.38521],[-1.46969,53.38521],[-1.46969,53.38516],[-1.46964,53.38516],[-1.46968,53.38492],[-1.46968,53.38488],[-1.46993,53.38488]]]]}},
{ "type":"Feature","properties":{"osm_way_id":"97856593","building":"warehouse"},"geometry":{"type":"MultiPolygon","coordinates":[[[[-1.48446,53.35162],[-1.48459,53.35159],[-1.48453,53.3515],[-1.48441,53.35153],[-1.48445,53.3516],[-1.48446,53.35162]]]]}},
{ "type":"Feature","properties":{"osm_way_id":"97856607","building":"warehouse"},"geometry":{"type":"MultiPolygon","coordinates":[[[[-1.48427,53.35147],[-1.48412,53.35152],[-1.48412,53.35153],[-1.48406,53.35155],[-1.484,53.35154],[-1.48397,53.35152],[-1.48407,53.35148],[-1.48407,53.35147],[-1.48423,53.35142],[-1.48427,53.35147]]]]}},
{ "type":"Feature","properties":{"osm_way_id":"106899152","building":"warehouse"},"geometry":{"type":"MultiPolygon","coordinates":[[[[-1.47646,53.38828],[-1.47617,53.38806],[-1.47625,53.38803],[-1.4762,53.38799],[-1.47628,53.38794],[-1.47661,53.38818],[-1.47646,53.38828]]]]}},
{ "type":"Feature","properties":{"osm_way_id":"115888969","name":"South Yorkshre Police OPERATIONS COMPLEX","amenity":"polling_station","building":"warehouse","other":{"operator":"South Yorkshre Police"}}, "geometry":{"type":"MultiPolygon","coordinates":[[[[-1.3984,53.39603],[-1.39844,53.39568],[-1.3974,53.39563],[-1.39736,53.39598],[-1.3984,53.39603]]]]}},
{ "type":"Feature","properties":{"osm_way_id":"137519117","building":"warehouse","other":{"addr:city":"Sheffield","addr:housenumber":"15","addr:postcode":"S2 4HG","addr:street":"Guernsey Road","old_name":"Comet","website":"https:\/\/www.furniture-barn.co.uk\/Home\/Sheffield_Store"}}, "geometry":{"type":"MultiPolygon","coordinates":[[[[-1.47036,53.36422],[-1.47005,53.36443],[-1.4697,53.36424],[-1.47001,53.36403],[-1.47036,53.36422]]]]}},
{ "type":"Feature","properties":{"osm_way_id":"164335424","name":"Symphony","building":"warehouse"},"geometry":{"type":"MultiPolygon","coordinates":[[[[-1.39253,53.57027],[-1.39074,53.57117],[-1.38784,53.56912],[-1.38959,53.56826],[-1.39253,53.57027]]]]}},
{ "type":"Feature","properties":{"osm_way_id":"171957976","building":"warehouse"},"geometry":{"type":"MultiPolygon","coordinates":[[[[-1.47629,53.3616],[-1.47638,53.36149],[-1.47648,53.36151],[-1.47667,53.36126],[-1.47679,53.3613],[-1.47682,53.36126],[-1.477,53.36131],[-1.477,53.36132],[-1.47699,53.36133],[-1.47695,53.36133],[-1.47693,53.36135],[-1.47685,53.36143],[-1.47675,53.36141],[-1.47673,53.36143],[-1.4768,53.36145],[-1.4767,53.36158],[-1.47655,53.36154],[-1.47648,53.36152],[-1.4764,53.36163],[-1.47629,53.3616]]]]}},
{ "type":"Feature","properties":{"osm_way_id":"171958002","building":"warehouse"},"geometry":{"type":"MultiPolygon","coordinates":[[[[-1.47655,53.36154],[-1.47665,53.36141],[-1.47673,53.36143],[-1.4768,53.36145],[-1.4767,53.36158],[-1.47655,53.36154]]]]}},
{ "type":"Feature","properties":{"osm_way_id":"188170330","name":"Next Distribution","building":"warehouse","other":{"addr:city":"Doncaster","addr:housename":"Redhouse Interchange","addr:postcode":"DN6 7FB","addr:street":"Rockingham Way","building:levels":"2","description":"RSC"}}, "geometry":{"type":"MultiPolygon","coordinates":[[[[-1.2127,53.56774],[-1.21238,53.56666],[-1.20997,53.56692],[-1.21029,53.56799],[-1.2127,53.56774]]]]}},
{ "type":"Feature","properties":{"osm_way_id":"188170331","name":"ASDA Distribution","building":"warehouse","other":{"addr:postcode":"DN6 7FB"}}, "geometry":{"type":"MultiPolygon","coordinates":[[[[-1.21169,53.57223],[-1.21126,53.57093],[-1.21146,53.57091],[-1.211,53.5695],[-1.21081,53.56952],[-1.21055,53.56873],[-1.2082,53.569],[-1.20935,53.5725],[-1.21169,53.57223]]]]}},
{ "type":"Feature","properties":{"osm_way_id":"188170332","name":"DFS Group Support Center","building":"warehouse","other":{"addr:postcode":"DN6 7NA"}}, "geometry":{"type":"MultiPolygon","coordinates":[[[[-1.21186,53.57444],[-1.21164,53.57377],[-1.20916,53.57406],[-1.20938,53.57473],[-1.21186,53.57444]]]]}},
{ "type":"Feature","properties":{"osm_way_id":"188170333","building":"warehouse"},"geometry":{"type":"MultiPolygon","coordinates":[[[[-1.21688,53.57095],[-1.217,53.5703],[-1.2172,53.57031],[-1.2177,53.56768],[-1.21748,53.56767],[-1.21753,53.56742],[-1.21693,53.56738],[-1.21695,53.56726],[-1.21504,53.56714],[-1.21501,53.56726],[-1.21483,53.56724],[-1.21479,53.56749],[-1.21454,53.56748],[-1.21404,53.57011],[-1.21427,53.57012],[-1.21412,53.57088],[-1.21637,53.57103],[-1.21639,53.57092],[-1.21688,53.57095]]]]}},
{ "type":"Feature","properties":{"osm_way_id":"189217346","building":"warehouse"},"geometry":{"type":"MultiPolygon","coordinates":[[[[0.05734,53.68385],[0.05731,53.68376],[0.05705,53.6838],[0.05708,53.68388],[0.05734,53.68385]]]]}},
{ "type":"Feature","properties":{"osm_way_id":"189217350","building":"warehouse"},"geometry":{"type":"MultiPolygon","coordinates":[[[[0.05798,53.68372],[0.05794,53.68359],[0.05779,53.68361],[0.05774,53.68349],[0.05755,53.68351],[0.05764,53.68376],[0.05798,53.68372]]]]}},
{ "type":"Feature","properties":{"osm_way_id":"230458507","building":"warehouse"},"geometry":{"type":"MultiPolygon","coordinates":[[[[-1.46539,53.38831],[-1.46518,53.38839],[-1.46505,53.38824],[-1.46527,53.38817],[-1.46539,53.38831]]]]}},
{ "type":"Feature","properties":{"osm_way_id":"248366135","name":"Doncaster Delivery Office","amenity":"post_depot","building":"warehouse","other":{"addr:city":"Doncaster","addr:postcode":"DN4 5NE","addr:street":"Middle Bank","old_name":"Doncaster Sorting Office","operator":"Royal Mail"}}, "geometry":{"type":"MultiPolygon","coordinates":[[[[-1.12656,53.5131],[-1.12557,53.51238],[-1.12482,53.51274],[-1.12495,53.51283],[-1.1249,53.51285],[-1.12513,53.51302],[-1.12518,53.513],[-1.12552,53.51325],[-1.12548,53.51327],[-1.12576,53.51348],[-1.12581,53.51347],[-1.12594,53.5134],[-1.126,53.51344],[-1.12617,53.51335],[-1.12611,53.51332],[-1.12656,53.5131]]]]}},
{ "type":"Feature","properties":{"osm_way_id":"258191164","name":"IKEA Distribution Centre","building":"warehouse"},"geometry":{"type":"MultiPolygon","coordinates":[[[[-1.03263,53.542],[-1.03251,53.54196],[-1.03256,53.5419],[-1.02913,53.54083],[-1.02907,53.54089],[-1.02876,53.54079],[-1.0288,53.54074],[-1.02406,53.53925],[-1.02567,53.53744],[-1.02999,53.53881],[-1.02973,53.53909],[-1.03145,53.53963],[-1.03149,53.53959],[-1.0314,53.53956],[-1.03145,53.5395],[-1.03237,53.53978],[-1.03224,53.53993],[-1.03398,53.54048],[-1.03263,53.542]]]]}},
{ "type":"Feature","properties":{"osm_way_id":"266463258","name":"Remar UK","building":"warehouse"},"geometry":{"type":"MultiPolygon","coordinates":[[[[-1.46697,53.37435],[-1.46665,53.37422],[-1.46643,53.37442],[-1.46635,53.37438],[-1.46631,53.37442],[-1.46623,53.37439],[-1.46619,53.37442],[-1.46627,53.37445],[-1.46626,53.37446],[-1.46672,53.37465],[-1.4668,53.37457],[-1.46673,53.37455],[-1.46682,53.37448],[-1.46697,53.37435]]]]}},
{ "type":"Feature","properties":{"osm_way_id":"276995672","building":"warehouse"},"geometry":{"type":"MultiPolygon","coordinates":[[[[-1.67153,53.55396],[-1.67151,53.55375],[-1.67139,53.55375],[-1.67142,53.55397],[-1.67153,53.55396]]]]}},
{ "type":"Feature","properties":{"osm_way_id":"276995673","building":"warehouse"},"geometry":{"type":"MultiPolygon","coordinates":[[[[-1.67106,53.55389],[-1.67032,53.55392],[-1.67029,53.55392],[-1.67028,53.55387],[-1.6706,53.55386],[-1.67059,53.55381],[-1.67105,53.5538],[-1.67106,53.55389]]]]}},
{ "type":"Feature","properties":{"osm_way_id":"276995676","building":"warehouse"},"geometry":{"type":"MultiPolygon","coordinates":[[[[-1.67134,53.55367],[-1.67133,53.55359],[-1.67122,53.55359],[-1.67123,53.55367],[-1.67134,53.55367]]]]}},
{ "type":"Feature","properties":{"osm_way_id":"283434750","name":"Barnsley Hospice","building":"warehouse","other":{"opening_hours":"Mo-Fr 10:00-14:00"}}, "geometry":{"type":"MultiPolygon","coordinates":[[[[-1.53562,53.54541],[-1.53545,53.54517],[-1.53537,53.54506],[-1.5358,53.54495],[-1.53605,53.54531],[-1.53562,53.54541]]]]}},
{ "type":"Feature","properties":{"osm_way_id":"283435565","name":"Perrigo","building":"warehouse"},"geometry":{"type":"MultiPolygon","coordinates":[[[[-1.54099,53.54756],[-1.54084,53.54632],[-1.53924,53.54639],[-1.5394,53.54763],[-1.54099,53.54756]]]]}},
{ "type":"Feature","properties":{"osm_way_id":"362117957","building":"warehouse"},"geometry":{"type":"MultiPolygon","coordinates":[[[[-1.03079,53.53466],[-1.03367,53.53549],[-1.03318,53.53608],[-1.03264,53.53592],[-1.03107,53.53784],[-1.02815,53.537],[-1.02984,53.53494],[-1.03042,53.53511],[-1.03079,53.53466]]]]}},
{ "type":"Feature","properties":{"osm_way_id":"362117958","building":"warehouse","other":{"addr:postcode":"DN3 3FF"}}, "geometry":{"type":"MultiPolygon","coordinates":[[[[-1.03446,53.53756],[-1.03359,53.53861],[-1.03236,53.53826],[-1.03323,53.53719],[-1.03446,53.53756]]]]}},
{ "type":"Feature","properties":{"osm_way_id":"362117959","building":"warehouse"},"geometry":{"type":"MultiPolygon","coordinates":[[[[-1.03561,53.53602],[-1.0347,53.53716],[-1.03356,53.53684],[-1.03448,53.5357],[-1.03561,53.53602]]]]}},
{ "type":"Feature","properties":{"osm_way_id":"362117960","building":"warehouse","other":{"addr:postcode":"DN3 3FG"}}, "geometry":{"type":"MultiPolygon","coordinates":[[[[-1.03868,53.53695],[-1.03779,53.53805],[-1.03619,53.5376],[-1.03707,53.53649],[-1.03868,53.53695]]]]}},
{ "type":"Feature","properties":{"osm_way_id":"362117961","building":"warehouse"},"geometry":{"type":"MultiPolygon","coordinates":[[[[-1.03748,53.53818],[-1.03644,53.53946],[-1.03503,53.53905],[-1.03607,53.53777],[-1.03748,53.53818]]]]}},
{ "type":"Feature","properties":{"osm_way_id":"510088608","name":"NEXT","building":"warehouse"},"geometry":{"type":"MultiPolygon","coordinates":[[[[-1.32487,53.50813],[-1.32297,53.50958],[-1.32063,53.5085],[-1.32068,53.50846],[-1.32076,53.5085],[-1.32162,53.50785],[-1.32151,53.5078],[-1.32161,53.50772],[-1.32171,53.50777],[-1.32186,53.50766],[-1.32178,53.50762],[-1.32181,53.5076],[-1.32189,53.50763],[-1.32228,53.50734],[-1.3222,53.5073],[-1.32223,53.50728],[-1.3223,53.50731],[-1.32261,53.50708],[-1.32487,53.50813]]]]}},
{ "type":"Feature","properties":{"osm_way_id":"535587747","name":"Amazon UK (DDN1)","building":"warehouse","other":{"operator":"Amazon UK Services Ltd. Doncaster"}}, "geometry":{"type":"MultiPolygon","coordinates":[[[[-1.10787,53.48212],[-1.1063,53.48184],[-1.10556,53.48328],[-1.10501,53.48318],[-1.10494,53.48331],[-1.10707,53.48369],[-1.10787,53.48212]]]]}},
{ "type":"Feature","properties":{"osm_way_id":"626905887","name":"Amazon UK (LBA2)","building":"warehouse","other":{"addr:postcode":"DN11 0BQ","operator":"Amazon UK Services Ltd. Doncaster"}}, "geometry":{"type":"MultiPolygon","coordinates":[[[[-1.10613,53.4863],[-1.10412,53.48593],[-1.10402,53.48612],[-1.10068,53.4855],[-1.10078,53.48531],[-1.09877,53.48494],[-1.09961,53.48334],[-1.10307,53.48398],[-1.10316,53.48382],[-1.10375,53.48393],[-1.10367,53.4841],[-1.10696,53.48471],[-1.10613,53.4863]]]]}},
{ "type":"Feature","properties":{"osm_way_id":"626905890","building":"warehouse","other":{"addr:postcode":"DN11 0BQ","operator":"Ceva Logistics"}}, "geometry":{"type":"MultiPolygon","coordinates":[[[[-1.10203,53.4827],[-1.10074,53.48246],[-1.10068,53.48258],[-1.10014,53.48248],[-1.10021,53.48236],[-1.10047,53.48241],[-1.10126,53.48089],[-1.10282,53.48118],[-1.10203,53.4827]]]]}},
{ "type":"Feature","properties":{"osm_way_id":"628338779","building":"warehouse","other":{"addr:postcode":"DN11 0BF"}}, "geometry":{"type":"MultiPolygon","coordinates":[[[[-1.10386,53.48173],[-1.10282,53.48153],[-1.10316,53.48091],[-1.10419,53.48111],[-1.10386,53.48173]]]]}},
{ "type":"Feature","properties":{"osm_way_id":"691046073","name":"Lidl Distribution Centre","building":"warehouse","other":{"brand":"Lidl","brand:wikidata":"Q151954","brand:wikipedia":"en:Lidl","operator":"Lidl"}}, "geometry":{"type":"MultiPolygon","coordinates":[[[[-1.10832,53.47997],[-1.10233,53.47887],[-1.10293,53.4777],[-1.10847,53.47871],[-1.10856,53.47856],[-1.10888,53.47863],[-1.10896,53.47874],[-1.10832,53.47997]]]]}},
{ "type":"Feature","properties":{"osm_way_id":"691046074","building":"warehouse"},"geometry":{"type":"MultiPolygon","coordinates":[[[[-1.10453,53.48106],[-1.10326,53.48081],[-1.10382,53.47979],[-1.10509,53.48004],[-1.10453,53.48106]]]]}},
{ "type":"Feature","properties":{"osm_way_id":"863645615","name":"Amazon UK (LBA4)","building":"warehouse","other":{"operator":"Amazon UK Services Ltd. Doncaster","smoking":"outside"}}, "geometry":{"type":"MultiPolygon","coordinates":[[[[-1.11108,53.47478],[-1.10846,53.4743],[-1.10958,53.47215],[-1.11219,53.47263],[-1.11108,53.47478]]]]}},
{ "type":"Feature","properties":{"osm_way_id":"875309451","name":"Wheeler's Workshops Ltd","building":"warehouse","shop":"car_repair","other":{"addr:housenumber":"106","addr:street":"Reginald Road","building:levels":"2","contact:phone":"+44 1424 220527","height":"9","opening_hours":"Mo-Fr 08:00-17:00; Sa 08:30-12:00","service:vehicle:car_repair":"yes","service:vehicle:diagnostics":"yes","service:vehicle:inspection":"yes"}}, "geometry":{"type":"MultiPolygon","coordinates":[[[[0.46699,50.84333],[0.46719,50.84336],[0.46722,50.84326],[0.46716,50.84325],[0.46703,50.84323],[0.46699,50.84333]]]]}},
{ "type":"Feature","properties":{"osm_way_id":"875328147","building":"warehouse","other":{"disused":"building"}}, "geometry":{"type":"MultiPolygon","coordinates":[[[[-1.62214,53.52574],[-1.62202,53.5258],[-1.62176,53.52561],[-1.62188,53.52556],[-1.62214,53.52574]]]]}},
{ "type":"Feature","properties":{"osm_way_id":"883169440","building":"warehouse"},"geometry":{"type":"MultiPolygon","coordinates":[[[[-1.62017,53.52307],[-1.61999,53.52316],[-1.61966,53.52293],[-1.61984,53.52284],[-1.62017,53.52307]]]]}},
{ "type":"Feature","properties":{"osm_way_id":"883836601","name":"DBL Logistics","building":"warehouse"},"geometry":{"type":"MultiPolygon","coordinates":[[[[-1.4125,53.39862],[-1.41327,53.39852],[-1.4134,53.39885],[-1.41364,53.39882],[-1.41376,53.39918],[-1.41297,53.39928],[-1.41291,53.39911],[-1.41269,53.39914],[-1.4125,53.39862]]]]}},
{ "type":"Feature","properties":{"osm_way_id":"1011909713","building":"warehouse"},"geometry":{"type":"MultiPolygon","coordinates":[[[[-1.03949,53.52663],[-1.03809,53.52635],[-1.03686,53.52849],[-1.03827,53.52878],[-1.03949,53.52663]]]]}}
]
}
