{
"type": "FeatureCollection",
"features": [
{ "type":"Feature","properties":{"osm_way_id":"274850920","name":"Screwfix","building":"warehouse","shop":"doityourself","other":{"addr:city":"Uckfield","addr:housename":"Unit 1 Plot 22","addr:place":"Bellbrook Business Park","addr:postcode":"TN22 1QL","addr:street":"Bell Lane","brand":"Screwfix","brand:wikidata":"Q7439115","brand:wikipedia":"en:Screwfix","opening_hours":"Mo-Fr 07:00-20:00, Sa 08:00-18:00, Su 10:00-16:00"}}, "geometry":{"type":"MultiPolygon","coordinates":[[[[0.08649,50.96934],[0.08672,50.96935],[0.08676,50.96905],[0.08653,50.96903],[0.08649,50.96934]]]]}},
{ "type":"Feature","properties":{"osm_way_id":"348790433","name":"Kennedy","building":"warehouse","other":{"addr:city":"Uckfield","addr:place":"Bellbrook Industrial Estate","addr:postcode":"TN22 1YA","addr:street":"Brookside"}}, "geometry":{"type":"MultiPolygon","coordinates":[[[[0.08405,50.96753],[0.08424,50.96722],[0.08433,50.96724],[0.08442,50.96709],[0.08478,50.96718],[0.08468,50.96734],[0.08475,50.96736],[0.08458,50.96765],[0.08447,50.96763],[0.08438,50.96778],[0.08405,50.96771],[0.08414,50.96755],[0.08405,50.96753]]]]}},
{ "type":"Feature","properties":{"osm_way_id":"348790435","name":"Westminster","building":"warehouse"},"geometry":{"type":"MultiPolygon","coordinates":[[[[0.08437,50.96684],[0.08465,50.96694],[0.08473,50.96684],[0.08494,50.96692],[0.08515,50.96668],[0.08466,50.96651],[0.08437,50.96684]]]]}},
{ "type":"Feature","properties":{"osm_way_id":"348790436","name":"Kier","building":"warehouse"},"geometry":{"type":"MultiPolygon","coordinates":[[[[0.08298,50.96617],[0.08314,50.96599],[0.08327,50.96603],[0.08322,50.96609],[0.08342,50.96616],[0.08331,50.96628],[0.08298,50.96617]]]]}},
{ "type":"Feature","properties":{"osm_way_id":"348790437","name":"Perception Kayaks","building":"warehouse"},"geometry":{"type":"MultiPolygon","coordinates":[[[[0.08272,50.96669],[0.08285,50.96653],[0.08293,50.96656],[0.08297,50.96652],[0.08346,50.96668],[0.08325,50.96694],[0.08274,50.96676],[0.08279,50.96671],[0.08272,50.96669]]]]}},
{ "type":"Feature","properties":{"osm_way_id":"348790443","building":"warehouse"},"geometry":{"type":"MultiPolygon","coordinates":[[[[0.08315,50.96598],[0.08331,50.96579],[0.08353,50.96587],[0.08336,50.96606],[0.08315,50.96598]]]]}},
{ "type":"Feature","properties":{"osm_way_id":"348790444","name":"Mobiform","building":"warehouse"},"geometry":{"type":"MultiPolygon","coordinates":[[[[0.08294,50.96739],[0.08331,50.96752],[0.08388,50.96686],[0.08352,50.96674],[0.08294,50.96739]]]]}},
{ "type":"Feature","properties":{"osm_way_id":"448203081","name":"John Lewis Distribution Centre","building":"warehouse","other":{"addr:city":"Maresfield","addr:postcode":"TN22 2DU"}}, "geometry":{"type":"MultiPolygon","coordinates":[[[[0.07876,50.99347],[0.07933,50.99367],[0.08003,50.99284],[0.07946,50.99265],[0.07876,50.99347]]]]}},
{ "type":"Feature","properties":{"osm_way_id":"454490338","name":"Frills All Round - Warehouse","building":"warehouse"},"geometry":{"type":"MultiPolygon","coordinates":[[[[0.09599,50.96786],[0.09585,50.96784],[0.09579,50.96798],[0.09593,50.968],[0.09599,50.96786]]]]}},
{ "type":"Feature","properties":{"osm_way_id":"492854637","building":"warehouse"},"geometry":{"type":"MultiPolygon","coordinates":[[[[0.09598,50.99295],[0.09586,50.99292],[0.09579,50.99285],[0.09581,50.99276],[0.09592,50.99271],[0.09605,50.99271],[0.09615,50.99276],[0.09618,50.99285],[0.09611,50.99292],[0.09598,50.99295]]]]}},
{ "type":"Feature","properties":{"osm_way_id":"782194354","building":"house","other":{"addr:housename":"The Retreat","building:levels":"2","height":"8","roof:shape":"gabled"}}, "geometry":{"type":"MultiPolygon","coordinates":[[[[0.15319,50.87692],[0.15329,50.87686],[0.15313,50.87675],[0.15303,50.87681],[0.15319,50.87692]]]]}},
{ "type":"Feature","properties":{"osm_way_id":"891304613","building":"warehouse"},"geometry":{"type":"MultiPolygon","coordinates":[[[[0.43815,50.87265],[0.43796,50.87275],[0.43787,50.87269],[0.43778,50.87274],[0.4377,50.87269],[0.43754,50.87278],[0.43768,50.87288],[0.43764,50.8729],[0.43798,50.87314],[0.43824,50.873],[0.43817,50.87296],[0.43841,50.87283],[0.43815,50.87265]]]]}},
{ "type":"Feature","properties":{"osm_way_id":"891304614","building":"warehouse"},"geometry":{"type":"MultiPolygon","coordinates":[[[[0.43852,50.87314],[0.43877,50.87301],[0.43859,50.87287],[0.43834,50.873],[0.43852,50.87314]]]]}},
{ "type":"Feature","properties":{"osm_way_id":"891304615","building":"warehouse"},"geometry":{"type":"MultiPolygon","coordinates":[[[[0.43849,50.87342],[0.43869,50.8733],[0.43851,50.87318],[0.43831,50.8733],[0.43849,50.87342]]]]}},
{ "type":"Feature","properties":{"osm_way_id":"891304616","building":"warehouse"},"geometry":{"type":"MultiPolygon","coordinates":[[[[0.44003,50.87351],[0.43933,50.87329],[0.43943,50.87317],[0.44013,50.87339],[0.44003,50.87351]]]]}},
{ "type":"Feature","properties":{"osm_way_id":"891304617","building":"warehouse"},"geometry":{"type":"MultiPolygon","coordinates":[[[[0.43997,50.87371],[0.44005,50.8736],[0.4397,50.87349],[0.43971,50.87347],[0.4393,50.87334],[0.4392,50.87345],[0.43997,50.87371]]]]}}
]
}
