{
"type": "FeatureCollection",
"features": [
{ "type":"Feature","properties":{"osm_id":"24963353","other":{"amenity":"parking"}}, "geometry":{"type":"Point","coordinates":[0.16925,50.84659 ]}},
{ "type":"Feature","properties":{"osm_id":"125214389","other":{"amenity":"parking"}}, "geometry":{"type":"Point","coordinates":[0.19098,51.04969 ]}},
{ "type":"Feature","properties":{"osm_id":"191797119","other":{"amenity":"parking"}}, "geometry":{"type":"Point","coordinates":[0.29713,50.81925 ]}},
{ "type":"Feature","properties":{"osm_id":"191797121","other":{"amenity":"parking"}}, "geometry":{"type":"Point","coordinates":[0.32011,50.82372 ]}},
{ "type":"Feature","properties":{"osm_id":"282413516","other":{"amenity":"parking"}}, "geometry":{"type":"Point","coordinates":[0.20876,50.761 ]}},
{ "type":"Feature","properties":{"osm_id":"282413527","other":{"amenity":"parking"}}, "geometry":{"type":"Point","coordinates":[0.20845,50.76085 ]}},
{ "type":"Feature","properties":{"osm_id":"288207789","other":{"amenity":"parking"}}, "geometry":{"type":"Point","coordinates":[0.16049,51.05826 ]}},
{ "type":"Feature","properties":{"osm_id":"289200112","other":{"amenity":"telephone","booth":"K6","colour":"green","covered":"booth"}}, "geometry":{"type":"Point","coordinates":[0.15306,50.77499 ]}},
{ "type":"Feature","properties":{"osm_id":"401878636","name":"Butchershole","other":{"amenity":"parking","fee":"yes","operator":"Forestry Comission"}}, "geometry":{"type":"Point","coordinates":[0.20456,50.77339 ]}},
{ "type":"Feature","properties":{"osm_id":"403359816","other":{"amenity":"parking","parking":"layby"}}, "geometry":{"type":"Point","coordinates":[0.13312,50.8435 ]}},
{ "type":"Feature","properties":{"osm_id":"452011235","other":{"amenity":"parking"}}, "geometry":{"type":"Point","coordinates":[0.25028,50.88648 ]}},
{ "type":"Feature","properties":{"osm_id":"586456700","name":"Forest Way","other":{"amenity":"parking"}}, "geometry":{"type":"Point","coordinates":[0.11264,51.10596 ]}},
{ "type":"Feature","properties":{"osm_id":"619311947","name":"Lower Carpark","other":{"amenity":"parking","fee":"no","parking":"surface"}}, "geometry":{"type":"Point","coordinates":[0.05336,51.09895 ]}},
{ "type":"Feature","properties":{"osm_id":"619311954","other":{"amenity":"parking","fee":"no","parking":"surface"}}, "geometry":{"type":"Point","coordinates":[0.05225,51.10065 ]}},
{ "type":"Feature","properties":{"osm_id":"619331260","other":{"amenity":"parking","parking":"surface"}}, "geometry":{"type":"Point","coordinates":[0.06159,51.10175 ]}},
{ "type":"Feature","properties":{"osm_id":"837306484","other":{"amenity":"telephone","operator":"British Telecom","phone":"+44 1323 870273"}}, "geometry":{"type":"Point","coordinates":[0.15604,50.80907 ]}},
{ "type":"Feature","properties":{"osm_id":"860691423","name":"Centre","other":{"amenity":"parking","capacity":"15","capacity:disabled":"no","capacity:parent":"no","capacity:women":"no","fee":"no","parking":"surface"}}, "geometry":{"type":"Point","coordinates":[0.04371,51.07269 ]}},
{ "type":"Feature","properties":{"osm_id":"1117771136","name":"Eridge Rocks","other":{"amenity":"parking","fee":"no","parking":"surface"}}, "geometry":{"type":"Point","coordinates":[0.21942,51.0982 ]}},
{ "type":"Feature","properties":{"osm_id":"1304581721","other":{"amenity":"parking"}}, "geometry":{"type":"Point","coordinates":[0.33768,50.86973 ]}},
{ "type":"Feature","properties":{"osm_id":"1313043726","other":{"amenity":"parking","operator":"spheremania & ultimatelaser"}}, "geometry":{"type":"Point","coordinates":[0.02206,51.10433 ]}},
{ "type":"Feature","properties":{"osm_id":"1349939741","other":{"amenity":"parking"}}, "geometry":{"type":"Point","coordinates":[0.24405,50.86794 ]}},
{ "type":"Feature","properties":{"osm_id":"1428067431","name":"Friston Forest","other":{"access":"yes","amenity":"parking","capacity":"50","capacity:disabled":"yes","capacity:parent":"no","capacity:women":"no","fee":"yes","leisure":"nature_reserve","park_ride":"no","parking":"surface"}}, "geometry":{"type":"Point","coordinates":[0.1522,50.78197 ]}},
{ "type":"Feature","properties":{"osm_id":"1515059833","other":{"amenity":"parking","fee":"no"}}, "geometry":{"type":"Point","coordinates":[0.19833,51.08549 ]}},
{ "type":"Feature","properties":{"osm_id":"1704953437","other":{"amenity":"parking","parking":"surface"}}, "geometry":{"type":"Point","coordinates":[0.19313,51.04629 ]}},
{ "type":"Feature","properties":{"osm_id":"1704974121","other":{"amenity":"parking"}}, "geometry":{"type":"Point","coordinates":[0.16256,51.0604 ]}},
{ "type":"Feature","properties":{"osm_id":"1717524026","other":{"amenity":"parking"}}, "geometry":{"type":"Point","coordinates":[0.08394,51.039 ]}},
{ "type":"Feature","properties":{"osm_id":"1717524037","other":{"amenity":"parking"}}, "geometry":{"type":"Point","coordinates":[0.08355,51.03847 ]}},
{ "type":"Feature","properties":{"osm_id":"1717524109","other":{"amenity":"parking"}}, "geometry":{"type":"Point","coordinates":[0.08124,51.04016 ]}},
{ "type":"Feature","properties":{"osm_id":"2014174436","other":{"amenity":"parking","parking":"surface"}}, "geometry":{"type":"Point","coordinates":[0.21871,51.04789 ]}},
{ "type":"Feature","properties":{"osm_id":"2650306966","other":{"access":"private","amenity":"parking"}}, "geometry":{"type":"Point","coordinates":[0.22871,50.80488 ]}},
{ "type":"Feature","properties":{"osm_id":"2835556817","other":{"amenity":"parking"}}, "geometry":{"type":"Point","coordinates":[0.00855,51.10088 ]}},
{ "type":"Feature","properties":{"osm_id":"2948601077","other":{"amenity":"parking"}}, "geometry":{"type":"Point","coordinates":[0.26627,50.82556 ]}},
{ "type":"Feature","properties":{"osm_id":"2948602291","other":{"amenity":"parking"}}, "geometry":{"type":"Point","coordinates":[0.2544,50.82725 ]}},
{ "type":"Feature","properties":{"osm_id":"3081368152","other":{"amenity":"parking"}}, "geometry":{"type":"Point","coordinates":[0.10026,51.04399 ]}},
{ "type":"Feature","properties":{"osm_id":"3088374658","other":{"amenity":"parking"}}, "geometry":{"type":"Point","coordinates":[0.17817,51.05049 ]}},
{ "type":"Feature","properties":{"osm_id":"3088374664","other":{"amenity":"parking"}}, "geometry":{"type":"Point","coordinates":[0.17754,51.0507 ]}},
{ "type":"Feature","properties":{"osm_id":"3240359801","other":{"amenity":"parking"}}, "geometry":{"type":"Point","coordinates":[0.16295,50.8191 ]}},
{ "type":"Feature","properties":{"osm_id":"3765631019","other":{"access":"private","amenity":"parking"}}, "geometry":{"type":"Point","coordinates":[0.09362,50.94419 ]}},
{ "type":"Feature","properties":{"osm_id":"4528857439","other":{"amenity":"parking","parking":"layby"}}, "geometry":{"type":"Point","coordinates":[0.05112,50.98213 ]}},
{ "type":"Feature","properties":{"osm_id":"4634631062","other":{"amenity":"parking","parking":"layby"}}, "geometry":{"type":"Point","coordinates":[0.07425,51.01245 ]}},
{ "type":"Feature","properties":{"osm_id":"4634631068","other":{"amenity":"parking","parking":"layby"}}, "geometry":{"type":"Point","coordinates":[0.0713,51.01432 ]}},
{ "type":"Feature","properties":{"osm_id":"4796193675","other":{"amenity":"parking","parking":"surface"}}, "geometry":{"type":"Point","coordinates":[0.11813,51.03565 ]}},
{ "type":"Feature","properties":{"osm_id":"4796193683","other":{"amenity":"parking"}}, "geometry":{"type":"Point","coordinates":[0.12717,51.03973 ]}},
{ "type":"Feature","properties":{"osm_id":"4796425604","other":{"amenity":"parking","parking":"lane"}}, "geometry":{"type":"Point","coordinates":[0.11007,51.00386 ]}},
{ "type":"Feature","properties":{"osm_id":"4854106718","name":"Newnham Way","other":{"amenity":"parking","capacity:disabled":"2","fee":"no"}}, "geometry":{"type":"Point","coordinates":[0.25206,50.96856 ]}},
{ "type":"Feature","properties":{"osm_id":"4879811866","other":{"access":"customers","amenity":"parking"}}, "geometry":{"type":"Point","coordinates":[0.28986,50.94062 ]}},
{ "type":"Feature","properties":{"osm_id":"4908569078","name":"White Horse Inn","other":{"amenity":"parking"}}, "geometry":{"type":"Point","coordinates":[0.34617,50.90624 ]}},
{ "type":"Feature","properties":{"osm_id":"4908569082","name":"Village Hall","other":{"amenity":"parking"}}, "geometry":{"type":"Point","coordinates":[0.34614,50.90596 ]}},
{ "type":"Feature","properties":{"osm_id":"5076635758","other":{"amenity":"parking","capacity":"4","parking":"surface"}}, "geometry":{"type":"Point","coordinates":[0.16917,51.03816 ]}},
{ "type":"Feature","properties":{"osm_id":"5086253599","name":"Chidingly Car Parking","other":{"access":"yes","amenity":"parking","capacity":"6","park_ride":"no","parking":"surface","supervised":"no","wheelchair":"yes"}}, "geometry":{"type":"Point","coordinates":[0.19871,50.89958 ]}},
{ "type":"Feature","properties":{"osm_id":"5086305009","name":"Antiques Parking","other":{"amenity":"parking","capacity":"4"}}, "geometry":{"type":"Point","coordinates":[0.18399,50.89124 ]}},
{ "type":"Feature","properties":{"osm_id":"5086310539","name":"Service station Car Parking","other":{"amenity":"parking","capacity":"6"}}, "geometry":{"type":"Point","coordinates":[0.18379,50.89147 ]}},
{ "type":"Feature","properties":{"osm_id":"5087019465","other":{"amenity":"parking","fee":"no"}}, "geometry":{"type":"Point","coordinates":[0.19568,50.90672 ]}},
{ "type":"Feature","properties":{"osm_id":"5238011941","other":{"amenity":"parking","parking":"surface"}}, "geometry":{"type":"Point","coordinates":[0.21259,51.09386 ]}},
{ "type":"Feature","properties":{"osm_id":"5312244869","other":{"amenity":"parking","parking":"lane"}}, "geometry":{"type":"Point","coordinates":[0.1169,50.94131 ]}},
{ "type":"Feature","properties":{"osm_id":"5503491384","other":{"amenity":"parking","capacity":"3","parking":"lane"}}, "geometry":{"type":"Point","coordinates":[0.17554,50.89794 ]}},
{ "type":"Feature","properties":{"osm_id":"5545792674","other":{"access":"permissive","amenity":"parking","fee":"no","park_ride":"no","parking":"surface","supervised":"no","surface":"asphalt"}}, "geometry":{"type":"Point","coordinates":[0.12508,51.13262 ]}},
{ "type":"Feature","properties":{"osm_id":"6515052330","other":{"amenity":"parking","wheelchair":"yes"}}, "geometry":{"type":"Point","coordinates":[0.01285,50.99781 ]}},
{ "type":"Feature","properties":{"osm_id":"7617347601","other":{"amenity":"parking","fee":"no","parking":"layby"}}, "geometry":{"type":"Point","coordinates":[0.17715,50.82427 ]}},
{ "type":"Feature","properties":{"osm_id":"8903954846","other":{"power":"pole"}}, "geometry":{"type":"Point","coordinates":[0.00808,51.02877 ]}},
{ "type":"Feature","properties":{"osm_id":"9026358965","other":{"access":"yes","amenity":"parking","fee":"no","parking":"lane","surface":"asphalt"}}, "geometry":{"type":"Point","coordinates":[0.10695,51.0372 ]}},
{ "type":"Feature","properties":{"osm_way_id":"19586674","amenity":"parking"},"geometry":{"type":"MultiPolygon","coordinates":[[[[0.35225,50.81213],[0.35263,50.81232],[0.35279,50.81222],[0.35261,50.81214],[0.35308,50.81177],[0.35266,50.81157],[0.35227,50.81194],[0.3524,50.812],[0.35225,50.81213]]]]}},
{ "type":"Feature","properties":{"osm_way_id":"25975620","name":"Bo Peep Car Park","amenity":"parking","other":{"access":"yes","capacity":"24","capacity:disabled":"no","capacity:parent":"no","capacity:women":"no","fee":"no","park_ride":"no","parking":"surface","surface":"compacted"}}, "geometry":{"type":"MultiPolygon","coordinates":[[[[0.11975,50.82568],[0.11987,50.82579],[0.12017,50.82566],[0.12022,50.82562],[0.12012,50.82551],[0.12007,50.82551],[0.11973,50.82565],[0.11975,50.82568]]]]}},
{ "type":"Feature","properties":{"osm_way_id":"26334928","amenity":"parking"},"geometry":{"type":"MultiPolygon","coordinates":[[[[0.24565,50.82135],[0.24677,50.82132],[0.24679,50.82155],[0.24657,50.82155],[0.24611,50.82156],[0.24612,50.82171],[0.24604,50.82171],[0.24604,50.82173],[0.24568,50.82172],[0.24567,50.82153],[0.24565,50.82147],[0.24565,50.82136],[0.24565,50.82135]]]]}},
{ "type":"Feature","properties":{"osm_way_id":"26371630","name":"The Dene","amenity":"parking","other":{"fee":"no","parking":"surface","surface":"asphalt"}}, "geometry":{"type":"MultiPolygon","coordinates":[[[[0.15608,50.80905],[0.15662,50.80909],[0.15663,50.80903],[0.15679,50.80904],[0.15676,50.80917],[0.1569,50.80918],[0.15688,50.80928],[0.15688,50.8094],[0.15673,50.80937],[0.1567,50.80943],[0.1562,50.80934],[0.15612,50.80919],[0.15602,50.80916],[0.15604,50.80907],[0.15608,50.80905]]]]}},
{ "type":"Feature","properties":{"osm_way_id":"26398435","amenity":"parking","other":{"fee":"yes","payment:notes":"Can pay via Ringo App (Site ID: 40750)"}}, "geometry":{"type":"MultiPolygon","coordinates":[[[[0.15202,50.7765],[0.15192,50.77645],[0.15209,50.776],[0.15247,50.7757],[0.15264,50.77561],[0.15278,50.77567],[0.1528,50.77568],[0.15282,50.77569],[0.15292,50.77573],[0.15294,50.77574],[0.15296,50.77575],[0.15326,50.77588],[0.15329,50.77598],[0.15304,50.77641],[0.15291,50.77644],[0.15202,50.7765]]]]}},
{ "type":"Feature","properties":{"osm_way_id":"26398560","amenity":"parking","other":{"access":"yes","fee":"yes","parking":"surface","surface":"unpaved"}}, "geometry":{"type":"MultiPolygon","coordinates":[[[[0.15152,50.77429],[0.15203,50.7743],[0.15232,50.77439],[0.15244,50.7745],[0.15306,50.77499],[0.15293,50.77497],[0.15283,50.77503],[0.15217,50.77466],[0.15179,50.77452],[0.15148,50.77445],[0.15152,50.77429]]]]}},
{ "type":"Feature","properties":{"osm_way_id":"26819387","amenity":"parking","other":{"access":"customers"}}, "geometry":{"type":"MultiPolygon","coordinates":[[[[0.25773,50.86318],[0.25795,50.86268],[0.25784,50.86266],[0.2579,50.86251],[0.25819,50.86255],[0.25826,50.86241],[0.25863,50.86248],[0.25835,50.8631],[0.2583,50.86309],[0.25825,50.86321],[0.2581,50.86318],[0.25807,50.86326],[0.25773,50.86318]]]]}},
{ "type":"Feature","properties":{"osm_way_id":"26819482","name":"Vicarage Field East","amenity":"parking","other":{"capacity:disabled":"yes","maxstay":"2 hours","parking":"surface"}}, "geometry":{"type":"MultiPolygon","coordinates":[[[[0.26067,50.8641],[0.26114,50.86389],[0.26074,50.86351],[0.26023,50.86373],[0.26041,50.86391],[0.26046,50.86389],[0.26067,50.8641]]]]}},
{ "type":"Feature","properties":{"osm_way_id":"26819488","name":"Vicarage Field West","amenity":"parking","other":{"capacity:disabled":"yes","parking":"surface"}}, "geometry":{"type":"MultiPolygon","coordinates":[[[[0.2591,50.86417],[0.2586,50.8645],[0.25829,50.86481],[0.25847,50.86494],[0.25945,50.86458],[0.2591,50.86417]]]]}},
{ "type":"Feature","properties":{"osm_way_id":"27101899","amenity":"parking","other":{"access":"customers","wheelchair":"yes"}}, "geometry":{"type":"MultiPolygon","coordinates":[[[[0.09388,50.97042],[0.09408,50.97041],[0.09408,50.97045],[0.09448,50.97044],[0.09448,50.97038],[0.09492,50.97037],[0.09502,50.97037],[0.09501,50.97],[0.09491,50.96967],[0.09445,50.96967],[0.09401,50.96978],[0.09386,50.96998],[0.09388,50.97042]]]]}},
{ "type":"Feature","properties":{"osm_way_id":"28810282","amenity":"parking"},"geometry":{"type":"MultiPolygon","coordinates":[[[[0.03851,51.09407],[0.03872,51.09439],[0.0384,51.09444],[0.03837,51.09435],[0.03828,51.09412],[0.03827,51.0941],[0.03851,51.09407]]]]}},
{ "type":"Feature","properties":{"osm_way_id":"28916587","amenity":"parking","other":{"access":"private"}}, "geometry":{"type":"MultiPolygon","coordinates":[[[[0.08952,51.08184],[0.08971,51.08174],[0.08965,51.08167],[0.08943,51.08178],[0.08952,51.08184]]]]}},
{ "type":"Feature","properties":{"osm_way_id":"30160077","amenity":"parking","other":{"capacity:disabled":"2","fee":"no","maxstay":"180","parking":"surface"}}, "geometry":{"type":"MultiPolygon","coordinates":[[[[0.18872,51.04735],[0.18865,51.04742],[0.18914,51.04765],[0.18908,51.04771],[0.18933,51.04784],[0.18956,51.04795],[0.18967,51.0479],[0.18973,51.0479],[0.18977,51.04785],[0.18969,51.04781],[0.18942,51.04768],[0.18918,51.04756],[0.1891,51.04753],[0.18904,51.0475],[0.18872,51.04735]]]]}},
{ "type":"Feature","properties":{"osm_way_id":"30272755","name":"Victoria Road","amenity":"parking","other":{"addr:postcode":"BN27 2AY","capacity:disabled":"4","fee":"no","maxstay":"23 hours","operator":"Wealden District Council","operator:type":"council","parking":"surface"}}, "geometry":{"type":"MultiPolygon","coordinates":[[[[0.25883,50.86163],[0.25948,50.86156],[0.25961,50.86154],[0.25945,50.86092],[0.25924,50.86097],[0.25932,50.86127],[0.25876,50.86137],[0.25883,50.86163]]]]}},
{ "type":"Feature","properties":{"osm_way_id":"30321100","amenity":"parking"},"geometry":{"type":"MultiPolygon","coordinates":[[[[0.10057,50.97314],[0.10085,50.97305],[0.10122,50.97293],[0.10154,50.97323],[0.10126,50.97351],[0.10178,50.97371],[0.1017,50.9738],[0.10149,50.97382],[0.10135,50.97369],[0.1013,50.97364],[0.10104,50.97371],[0.10057,50.97314]]]]}},
{ "type":"Feature","properties":{"osm_way_id":"34178888","amenity":"parking"},"geometry":{"type":"MultiPolygon","coordinates":[[[[0.22987,51.08294],[0.22989,51.08303],[0.23028,51.083],[0.23036,51.08339],[0.23036,51.08344],[0.23012,51.08346],[0.22984,51.08344],[0.22973,51.08295],[0.22987,51.08294]]]]}},
{ "type":"Feature","properties":{"osm_way_id":"38499298","name":"Vicarage Lane","amenity":"parking"},"geometry":{"type":"MultiPolygon","coordinates":[[[[0.26075,50.86515],[0.26132,50.86546],[0.26221,50.86454],[0.26203,50.86444],[0.2612,50.86478],[0.26075,50.86427],[0.25979,50.8646],[0.25999,50.86481],[0.26055,50.8646],[0.26086,50.86496],[0.26075,50.86515]]]]}},
{ "type":"Feature","properties":{"osm_way_id":"41056070","name":"Goat","amenity":"parking","other":{"access":"yes","fee":"no","smoothness":"bad","surface":"compacted"}}, "geometry":{"type":"MultiPolygon","coordinates":[[[[-0.00041,51.07595],[-0.00017,51.07601],[0.00007,51.07596],[0.00007,51.07583],[-0.00014,51.07578],[-0.00041,51.0758],[-0.00051,51.07581],[-0.00053,51.0759],[-0.00041,51.07595]]]]}},
{ "type":"Feature","properties":{"osm_way_id":"44718712","amenity":"parking"},"geometry":{"type":"MultiPolygon","coordinates":[[[[0.33521,50.81945],[0.33525,50.81883],[0.33536,50.81883],[0.33553,50.81883],[0.33548,50.81945],[0.3353,50.81945],[0.33521,50.81945]]]]}},
{ "type":"Feature","properties":{"osm_way_id":"48829615","name":"Lower Road RH18 5HE","amenity":"parking","other":{"capacity:disabled":"2","maxstay":"3 hours; 6 hours; 23 hours"}}, "geometry":{"type":"MultiPolygon","coordinates":[[[[0.03532,51.09761],[0.0352,51.09753],[0.03511,51.0975],[0.03503,51.09751],[0.03486,51.09747],[0.03491,51.09743],[0.03511,51.09728],[0.03531,51.09716],[0.03539,51.0971],[0.03563,51.09727],[0.03572,51.09732],[0.03532,51.09761]]]]}},
{ "type":"Feature","properties":{"osm_way_id":"58926532","name":"Pit Lane Car Park","amenity":"parking","other":{"opening_hours":"Nov 01 - Mar 31: 07:00-18:00; Apr 01 - Oct 31: 07:00-20:00","parking":"surface","surface":"asphalt"}}, "geometry":{"type":"MultiPolygon","coordinates":[[[[-1.2696,52.94695],[-1.26929,52.94706],[-1.26933,52.9471],[-1.26926,52.94713],[-1.26939,52.94726],[-1.26945,52.94724],[-1.26948,52.94727],[-1.2698,52.94715],[-1.26974,52.94709],[-1.26965,52.947],[-1.26963,52.94698],[-1.2696,52.94695]]]]}},
{ "type":"Feature","properties":{"osm_way_id":"70025175","name":"The Willows","amenity":"parking","other":{"fee":"yes","parking":"surface"}}, "geometry":{"type":"MultiPolygon","coordinates":[[[[0.15725,50.80913],[0.15724,50.80923],[0.15734,50.80928],[0.15796,50.80949],[0.15799,50.80948],[0.1581,50.80937],[0.15823,50.80924],[0.15834,50.80911],[0.15842,50.80909],[0.15843,50.80905],[0.15833,50.80894],[0.1581,50.80886],[0.15786,50.80911],[0.15771,50.80911],[0.15725,50.80913]]]]}},
{ "type":"Feature","properties":{"osm_way_id":"75059478","name":"Milland Road Car Park","amenity":"parking","other":{"fee":"£1","maxstay":"12 hours","name:cy":"Maes Parcio Heol Milland","name:en":"Milland Road Car Park","operator":"CBSCNPT","payment:cash":"yes","payment:credit_cards":"yes","payment:debit_cards":"yes","surface":"asphalt"}}, "geometry":{"type":"MultiPolygon","coordinates":[[[[-3.80819,51.66078],[-3.80841,51.66042],[-3.80859,51.66012],[-3.80929,51.65922],[-3.80966,51.65877],[-3.8101,51.65888],[-3.80925,51.66019],[-3.80873,51.66099],[-3.80828,51.66184],[-3.80818,51.66195],[-3.80814,51.66202],[-3.80807,51.66208],[-3.80769,51.662],[-3.80774,51.66193],[-3.80781,51.66195],[-3.80785,51.66187],[-3.80769,51.66184],[-3.80787,51.66153],[-3.80819,51.66078]]]]}},
{ "type":"Feature","properties":{"osm_way_id":"95164692","amenity":"parking"},"geometry":{"type":"MultiPolygon","coordinates":[[[[0.38914,51.07906],[0.38983,51.07843],[0.39078,51.07895],[0.39144,51.07975],[0.3903,51.08051],[0.38914,51.07906]]]]}},
{ "type":"Feature","properties":{"osm_way_id":"95641764","amenity":"parking","other":{"access":"yes","fee":"no","parking":"surface"}}, "geometry":{"type":"MultiPolygon","coordinates":[[[[0.18306,51.10703],[0.18317,51.10706],[0.18321,51.10707],[0.18329,51.10686],[0.18315,51.10683],[0.18306,51.10703]]]]}},
{ "type":"Feature","properties":{"osm_way_id":"98532519","amenity":"parking","other":{"parking":"surface"}}, "geometry":{"type":"MultiPolygon","coordinates":[[[[0.31181,51.07442],[0.31191,51.0745],[0.31243,51.07448],[0.31257,51.07447],[0.31278,51.07433],[0.31283,51.0743],[0.31295,51.0742],[0.31356,51.07368],[0.31399,51.07316],[0.31419,51.07284],[0.31434,51.07251],[0.3143,51.07247],[0.31387,51.07284],[0.31328,51.07331],[0.31335,51.07334],[0.3132,51.07347],[0.31309,51.07348],[0.31302,51.07352],[0.31289,51.07364],[0.31285,51.07371],[0.31275,51.07389],[0.31237,51.07416],[0.31181,51.07442]]]]}},
{ "type":"Feature","properties":{"osm_way_id":"98747694","amenity":"parking"},"geometry":{"type":"MultiPolygon","coordinates":[[[[0.2613,51.01975],[0.26152,51.01954],[0.26219,51.01955],[0.26216,51.01979],[0.2613,51.01975]]]]}},
{ "type":"Feature","properties":{"osm_way_id":"98747698","amenity":"parking","other":{"capacity":"32","parking":"surface"}}, "geometry":{"type":"MultiPolygon","coordinates":[[[[0.26312,51.02173],[0.26301,51.02147],[0.263,51.02146],[0.26319,51.02145],[0.26325,51.02146],[0.26355,51.0215],[0.26356,51.0215],[0.26356,51.02169],[0.26351,51.02169],[0.26337,51.02169],[0.26332,51.02169],[0.26332,51.02171],[0.26332,51.02173],[0.26329,51.02173],[0.26313,51.02173],[0.26312,51.02173]]]]}},
{ "type":"Feature","properties":{"osm_way_id":"99034869","name":"Station Road Car Park","amenity":"parking","other":{"addr:postcode":"TN6 3HT","capacity":"22","capacity:disabled":"2","fee":"no","surface":"asphalt"}}, "geometry":{"type":"MultiPolygon","coordinates":[[[[0.22083,51.04627],[0.22114,51.04644],[0.22139,51.04627],[0.22108,51.0461],[0.22083,51.04627]]]]}},
{ "type":"Feature","properties":{"osm_way_id":"99239128","amenity":"parking","other":{"access":"customers","parking":"surface"}}, "geometry":{"type":"MultiPolygon","coordinates":[[[[0.13142,50.99002],[0.13183,50.98994],[0.13175,50.99061],[0.13154,50.99059],[0.13142,50.99002]]]]}},
{ "type":"Feature","properties":{"osm_way_id":"99244114","amenity":"parking"},"geometry":{"type":"MultiPolygon","coordinates":[[[[0.1675,51.06164],[0.16761,51.06159],[0.16801,51.06167],[0.16808,51.06178],[0.168,51.06198],[0.16803,51.06232],[0.16804,51.06236],[0.16791,51.0624],[0.16791,51.06252],[0.16772,51.06253],[0.16769,51.06242],[0.16758,51.0624],[0.1675,51.06164]]]]}},
{ "type":"Feature","properties":{"osm_way_id":"99244131","name":"Morrisons Car Park","amenity":"parking"},"geometry":{"type":"MultiPolygon","coordinates":[[[[0.16069,51.05902],[0.16025,51.05957],[0.16127,51.05993],[0.16161,51.05997],[0.16168,51.05972],[0.16145,51.05966],[0.16148,51.05953],[0.16177,51.05956],[0.16181,51.0594],[0.16131,51.05932],[0.16134,51.05919],[0.16069,51.05902]]]]}},
{ "type":"Feature","properties":{"osm_way_id":"100714534","amenity":"parking"},"geometry":{"type":"MultiPolygon","coordinates":[[[[0.00999,51.09889],[0.01045,51.09876],[0.01038,51.09868],[0.01023,51.0985],[0.0095,51.09832],[0.00939,51.09852],[0.00999,51.09889]]]]}},
{ "type":"Feature","properties":{"osm_way_id":"101937862","name":"Framfield Fishery","amenity":"parking"},"geometry":{"type":"MultiPolygon","coordinates":[[[[0.12049,50.95645],[0.12074,50.95646],[0.12076,50.95589],[0.12052,50.95589],[0.12049,50.95645]]]]}},
{ "type":"Feature","properties":{"osm_way_id":"102704657","name":"Community Hall","amenity":"parking","other":{"access":"yes","capacity:disabled":"2","description":"Car park in Forest Row with parking spaces for three, six, and twelve hours.","fee":"no","operator":"Forest Row Parish Council","operator:type":"public","parking":"surface","surface":"asphalt"}}, "geometry":{"type":"MultiPolygon","coordinates":[[[[0.03578,51.09641],[0.03572,51.09636],[0.03551,51.09618],[0.03579,51.09604],[0.03605,51.09588],[0.03644,51.0956],[0.03657,51.09574],[0.03654,51.09577],[0.03645,51.0958],[0.03652,51.09588],[0.03612,51.09603],[0.03611,51.09603],[0.03603,51.09606],[0.03608,51.09612],[0.03601,51.09615],[0.03603,51.09617],[0.03599,51.09619],[0.03602,51.09623],[0.03588,51.0963],[0.03592,51.09634],[0.03578,51.09641]]]]}},
{ "type":"Feature","properties":{"osm_way_id":"103024731","name":"Pylons","amenity":"parking","other":{"capacity":"30","parking":"surface","surface":"ground"}}, "geometry":{"type":"MultiPolygon","coordinates":[[[[0.10068,51.04807],[0.10084,51.04818],[0.10093,51.04813],[0.10101,51.04799],[0.10103,51.04789],[0.10082,51.04779],[0.10068,51.04807]]]]}},
{ "type":"Feature","properties":{"osm_way_id":"103024733","name":"Smugglers","amenity":"parking"},"geometry":{"type":"MultiPolygon","coordinates":[[[[0.10011,51.04696],[0.10025,51.04671],[0.10045,51.04677],[0.10033,51.04704],[0.10013,51.04697],[0.10011,51.04696]]]]}},
{ "type":"Feature","properties":{"osm_way_id":"103024746","name":"Kings Standing","amenity":"parking"},"geometry":{"type":"MultiPolygon","coordinates":[[[[0.10051,51.05191],[0.10034,51.05188],[0.1003,51.05162],[0.10033,51.05148],[0.10034,51.05145],[0.10087,51.05139],[0.10107,51.05151],[0.10107,51.05157],[0.10075,51.05165],[0.10051,51.05191]]]]}},
{ "type":"Feature","properties":{"osm_way_id":"103056294","name":"MillBrook West","amenity":"parking"},"geometry":{"type":"MultiPolygon","coordinates":[[[[0.0505,51.0497],[0.05076,51.04988],[0.05106,51.04918],[0.05098,51.04918],[0.05056,51.0492],[0.0505,51.04946],[0.0505,51.0497]]]]}},
{ "type":"Feature","properties":{"osm_way_id":"103124008","amenity":"parking"},"geometry":{"type":"MultiPolygon","coordinates":[[[[0.04085,51.0733],[0.04064,51.07306],[0.04126,51.07301],[0.04178,51.07286],[0.04181,51.07308],[0.04085,51.0733]]]]}},
{ "type":"Feature","properties":{"osm_way_id":"103880228","amenity":"parking","other":{"access":"customers","operator":"McDonald's","parking":"surface"}}, "geometry":{"type":"MultiPolygon","coordinates":[[[[0.09,50.98923],[0.08999,50.98916],[0.09016,50.98915],[0.09015,50.98904],[0.0907,50.98902],[0.0907,50.98906],[0.09078,50.98906],[0.09079,50.9892],[0.09,50.98923]]]]}},
{ "type":"Feature","properties":{"osm_way_id":"106291959","amenity":"parking","other":{"fee":"yes","parking":"surface","surface":"gravel"}}, "geometry":{"type":"MultiPolygon","coordinates":[[[[0.20186,50.7432],[0.2017,50.7433],[0.20119,50.74295],[0.20126,50.74289],[0.20129,50.74286],[0.20142,50.74275],[0.20176,50.74281],[0.20194,50.74289],[0.20194,50.74294],[0.20186,50.74302],[0.20185,50.74305],[0.20198,50.74311],[0.20186,50.7432]]]]}},
{ "type":"Feature","properties":{"osm_way_id":"106291960","amenity":"parking","other":{"fee":"yes","park_ride":"no","parking":"surface","supervised":"no","surface":"unpaved"}}, "geometry":{"type":"MultiPolygon","coordinates":[[[[0.20231,50.74254],[0.2022,50.74278],[0.20245,50.7428],[0.20323,50.74287],[0.20341,50.74288],[0.2034,50.74286],[0.2035,50.74283],[0.20356,50.7427],[0.2035,50.74268],[0.20231,50.74254]]]]}},
{ "type":"Feature","properties":{"osm_way_id":"111740093","name":"Bell Walk","amenity":"parking","other":{"fee":"yes","maxstay":"120","parking":"surface"}}, "geometry":{"type":"MultiPolygon","coordinates":[[[[0.09476,50.9695],[0.09486,50.96869],[0.09438,50.96864],[0.09428,50.96903],[0.09458,50.96904],[0.09456,50.96914],[0.0945,50.96949],[0.09476,50.9695]]]]}},
{ "type":"Feature","properties":{"osm_way_id":"113754964","name":"RSPB Middleton Lakes","amenity":"parking","other":{"capacity":"40","charge":"£3\/car;free to RSPB members","fee":"yes","operator":"RSPB","parking":"surface"}}, "geometry":{"type":"MultiPolygon","coordinates":[[[[-1.71475,52.58185],[-1.71482,52.5819],[-1.71406,52.58234],[-1.71401,52.58231],[-1.7139,52.58238],[-1.71374,52.58246],[-1.71365,52.58239],[-1.71423,52.58204],[-1.71466,52.5818],[-1.71475,52.58185]]]]}},
{ "type":"Feature","properties":{"osm_way_id":"115548882","amenity":"parking","other":{"access":"permissive","parking":"surface"}}, "geometry":{"type":"MultiPolygon","coordinates":[[[[-0.08963,51.65812],[-0.08917,51.65814],[-0.08912,51.6579],[-0.08912,51.65789],[-0.08957,51.65787],[-0.08963,51.65812]]]]}},
{ "type":"Feature","properties":{"osm_way_id":"119388397","amenity":"parking","other":{"access":"yes","capacity":"8","capacity:disabled":"no","capacity:parent":"no","capacity:women":"no","fee":"no","park_ride":"no","parking":"surface","surface":"unpaved"}}, "geometry":{"type":"MultiPolygon","coordinates":[[[[0.26424,50.89251],[0.2642,50.89247],[0.26425,50.89244],[0.26447,50.8922],[0.26479,50.89238],[0.26462,50.89245],[0.26451,50.89248],[0.26438,50.89243],[0.26424,50.89251]]]]}},
{ "type":"Feature","properties":{"osm_way_id":"122997676","name":"Beaulieu Heath","amenity":"parking"},"geometry":{"type":"MultiPolygon","coordinates":[[[[-1.49289,50.80546],[-1.49234,50.80516],[-1.49244,50.80509],[-1.49217,50.80494],[-1.49203,50.80494],[-1.49203,50.80466],[-1.49211,50.80465],[-1.49263,50.80449],[-1.4928,50.80447],[-1.49307,50.8046],[-1.49305,50.80419],[-1.49333,50.80419],[-1.49338,50.80503],[-1.49329,50.80507],[-1.49318,50.80514],[-1.4931,50.80511],[-1.49307,50.80472],[-1.49305,50.80467],[-1.49274,50.80455],[-1.49264,50.80455],[-1.4923,50.80465],[-1.49223,50.80471],[-1.4922,50.80481],[-1.49225,50.80492],[-1.49248,50.80506],[-1.49304,50.80535],[-1.49289,50.80546]]]]}},
{ "type":"Feature","properties":{"osm_way_id":"126257655","amenity":"parking","other":{"access":"customers","parking":"surface","surface":"asphalt"}}, "geometry":{"type":"MultiPolygon","coordinates":[[[[-2.2882,52.3782],[-2.28797,52.37895],[-2.2879,52.37897],[-2.28775,52.37896],[-2.28798,52.37818],[-2.2882,52.3782]]]]}},
{ "type":"Feature","properties":{"osm_way_id":"138156886","amenity":"parking"},"geometry":{"type":"MultiPolygon","coordinates":[[[[0.18589,51.06678],[0.18632,51.06669],[0.18655,51.06664],[0.18647,51.06653],[0.18642,51.06641],[0.18605,51.06649],[0.18568,51.06657],[0.18564,51.0667],[0.18573,51.06676],[0.18575,51.06677],[0.18589,51.06678]]]]}},
{ "type":"Feature","properties":{"osm_way_id":"138222214","amenity":"parking"},"geometry":{"type":"MultiPolygon","coordinates":[[[[0.18852,51.07192],[0.18859,51.07173],[0.18861,51.07168],[0.18861,51.07163],[0.18845,51.07164],[0.18841,51.0717],[0.18841,51.07177],[0.18845,51.07186],[0.18849,51.07191],[0.18852,51.07192]]]]}},
{ "type":"Feature","properties":{"osm_way_id":"138223342","amenity":"parking"},"geometry":{"type":"MultiPolygon","coordinates":[[[[0.16819,51.06247],[0.16865,51.06254],[0.16864,51.06244],[0.16832,51.06239],[0.16844,51.06208],[0.16834,51.06206],[0.16831,51.06212],[0.16826,51.06217],[0.16819,51.06222],[0.16819,51.06229],[0.1682,51.06239],[0.16819,51.06247]]]]}},
{ "type":"Feature","properties":{"osm_way_id":"138291044","amenity":"parking"},"geometry":{"type":"MultiPolygon","coordinates":[[[[0.22333,51.09998],[0.22376,51.10028],[0.2238,51.10037],[0.22403,51.10036],[0.22418,51.10027],[0.224,51.10016],[0.22402,51.10014],[0.22411,51.10007],[0.22403,51.10002],[0.22401,51.1],[0.22397,51.10002],[0.22395,51.10001],[0.22392,51.10002],[0.22387,51.09998],[0.22372,51.10006],[0.22349,51.09988],[0.22333,51.09998]]]]}},
{ "type":"Feature","properties":{"osm_way_id":"138343016","amenity":"parking"},"geometry":{"type":"MultiPolygon","coordinates":[[[[0.15353,51.07203],[0.1534,51.07193],[0.15332,51.0717],[0.15315,51.07169],[0.15295,51.07174],[0.15317,51.0722],[0.15353,51.07203]]]]}},
{ "type":"Feature","properties":{"osm_way_id":"138349075","amenity":"parking"},"geometry":{"type":"MultiPolygon","coordinates":[[[[0.15627,51.08307],[0.15669,51.08309],[0.15674,51.08268],[0.15632,51.08266],[0.15629,51.0829],[0.15627,51.08307]]]]}},
{ "type":"Feature","properties":{"osm_way_id":"138350616","amenity":"parking"},"geometry":{"type":"MultiPolygon","coordinates":[[[[0.16659,51.06283],[0.16684,51.06284],[0.16686,51.06265],[0.16676,51.06264],[0.16661,51.06264],[0.16659,51.06283]]]]}},
{ "type":"Feature","properties":{"osm_way_id":"138403029","amenity":"parking","other":{"access":"private","operator":"High Rocks Inn"}}, "geometry":{"type":"MultiPolygon","coordinates":[[[[0.22507,51.12214],[0.22515,51.1218],[0.22551,51.12144],[0.22584,51.12121],[0.22597,51.12112],[0.22629,51.12099],[0.22686,51.12086],[0.22734,51.1208],[0.22754,51.12071],[0.22732,51.12055],[0.22704,51.12049],[0.22663,51.12052],[0.22593,51.12081],[0.22508,51.12143],[0.22478,51.12175],[0.22491,51.12196],[0.22502,51.12209],[0.22507,51.12214]]]]}},
{ "type":"Feature","properties":{"osm_way_id":"138533466","amenity":"parking"},"geometry":{"type":"MultiPolygon","coordinates":[[[[0.15987,51.06015],[0.16024,51.05969],[0.16008,51.05964],[0.16004,51.05968],[0.15993,51.05964],[0.15985,51.05973],[0.15999,51.05978],[0.15979,51.06002],[0.15966,51.05998],[0.15959,51.06006],[0.15987,51.06015]]]]}},
{ "type":"Feature","properties":{"osm_way_id":"138990128","amenity":"parking"},"geometry":{"type":"MultiPolygon","coordinates":[[[[0.14417,51.06573],[0.14414,51.06567],[0.14409,51.06564],[0.14439,51.06549],[0.14446,51.06573],[0.14432,51.06573],[0.14417,51.06573]]]]}},
{ "type":"Feature","properties":{"osm_way_id":"140042572","amenity":"parking","other":{"access":"customers","capacity":"50","capacity:disabled":"yes","capacity:parent":"no","capacity:women":"no","fee":"no","park_ride":"no","parking":"surface"}}, "geometry":{"type":"MultiPolygon","coordinates":[[[[0.1105,51.03483],[0.11034,51.03494],[0.11019,51.03496],[0.11016,51.03501],[0.11,51.03513],[0.10989,51.03509],[0.10993,51.03505],[0.1095,51.03495],[0.11024,51.03453],[0.11032,51.03457],[0.11013,51.03469],[0.1104,51.03485],[0.11046,51.03481],[0.1105,51.03483]]]]}},
{ "type":"Feature","properties":{"osm_way_id":"141972868","amenity":"parking","other":{"access":"permissive"}}, "geometry":{"type":"MultiPolygon","coordinates":[[[[0.19197,51.04524],[0.19217,51.04533],[0.19249,51.04515],[0.19271,51.04505],[0.19284,51.04503],[0.19291,51.04496],[0.19298,51.04499],[0.19304,51.04492],[0.19342,51.04508],[0.19345,51.04505],[0.19357,51.0451],[0.19366,51.04512],[0.19397,51.04503],[0.19298,51.04464],[0.19273,51.04479],[0.19251,51.04495],[0.19232,51.04503],[0.19213,51.04514],[0.19197,51.04524]]]]}},
{ "type":"Feature","properties":{"osm_way_id":"141973068","name":"Crowborough Station Car Park","amenity":"parking","other":{"capacity":"140"}}, "geometry":{"type":"MultiPolygon","coordinates":[[[[0.18654,51.04582],[0.18666,51.04574],[0.18672,51.04579],[0.18676,51.04576],[0.18772,51.04621],[0.18767,51.04625],[0.18777,51.0463],[0.18774,51.04634],[0.18819,51.04655],[0.18834,51.04663],[0.18842,51.04677],[0.18841,51.04685],[0.18836,51.04689],[0.18834,51.04685],[0.18825,51.0468],[0.18793,51.04666],[0.1875,51.04648],[0.18727,51.04635],[0.18711,51.0462],[0.1869,51.04604],[0.18654,51.04582]]]]}},
{ "type":"Feature","properties":{"osm_way_id":"141990282","amenity":"parking","other":{"access":"permissive"}}, "geometry":{"type":"MultiPolygon","coordinates":[[[[0.16822,51.05511],[0.16836,51.05506],[0.16841,51.0551],[0.16863,51.0552],[0.16854,51.0553],[0.16848,51.05529],[0.1684,51.0554],[0.16848,51.05542],[0.16847,51.05544],[0.1683,51.05551],[0.16829,51.05548],[0.16826,51.05548],[0.16825,51.05546],[0.16821,51.05547],[0.16819,51.05543],[0.16826,51.05541],[0.16824,51.05527],[0.16822,51.05511]]]]}},
{ "type":"Feature","properties":{"osm_way_id":"141998756","amenity":"parking"},"geometry":{"type":"MultiPolygon","coordinates":[[[[0.15967,51.0546],[0.15971,51.0544],[0.16001,51.05444],[0.15998,51.05454],[0.16018,51.05457],[0.16024,51.05458],[0.16021,51.05467],[0.15966,51.05461],[0.15967,51.0546]]]]}},
{ "type":"Feature","properties":{"osm_way_id":"142028253","amenity":"parking","other":{"access":"private"}}, "geometry":{"type":"MultiPolygon","coordinates":[[[[0.16552,51.06053],[0.1656,51.06034],[0.1658,51.06037],[0.16573,51.06053],[0.16572,51.06056],[0.16552,51.06053]]]]}},
{ "type":"Feature","properties":{"osm_way_id":"143014159","amenity":"parking","other":{"access":"private"}}, "geometry":{"type":"MultiPolygon","coordinates":[[[[0.18375,51.06509],[0.18374,51.06506],[0.18372,51.06503],[0.18382,51.0649],[0.18421,51.06475],[0.1844,51.06469],[0.18458,51.06467],[0.18458,51.0647],[0.18511,51.06469],[0.18516,51.06477],[0.18375,51.06509]]]]}},
{ "type":"Feature","properties":{"osm_way_id":"146224726","name":"Hindleap","amenity":"parking","other":{"access":"yes","fee":"no","parking":"surface","surface":"unpaved"}}, "geometry":{"type":"MultiPolygon","coordinates":[[[[0.00274,51.07308],[0.0028,51.07307],[0.0029,51.07309],[0.00297,51.07313],[0.00302,51.07321],[0.00303,51.07325],[0.00306,51.07337],[0.00307,51.07341],[0.00302,51.0734],[0.00297,51.0734],[0.00297,51.07335],[0.00293,51.07328],[0.00286,51.07325],[0.00271,51.0732],[0.00268,51.07317],[0.00267,51.07312],[0.00274,51.07308]]]]}},
{ "type":"Feature","properties":{"osm_way_id":"152223045","name":"Luxford Field Car Park","amenity":"parking","other":{"capacity":"254","fee":"no","lit":"yes","maxstay":"600","operator":"Wealden District Council"}}, "geometry":{"type":"MultiPolygon","coordinates":[[[[0.09534,50.97206],[0.094,50.97223],[0.09402,50.97225],[0.09415,50.97249],[0.09417,50.97252],[0.09424,50.97251],[0.09426,50.97258],[0.09433,50.97261],[0.09438,50.97265],[0.09518,50.97255],[0.09516,50.97248],[0.09538,50.97244],[0.09531,50.97217],[0.09532,50.97213],[0.09536,50.97211],[0.09534,50.97206]]]]}},
{ "type":"Feature","properties":{"osm_way_id":"153525875","amenity":"parking"},"geometry":{"type":"MultiPolygon","coordinates":[[[[-1.84318,53.65667],[-1.84343,53.65667],[-1.84347,53.65671],[-1.8437,53.65671],[-1.84375,53.65671],[-1.84399,53.65674],[-1.84389,53.6569],[-1.84376,53.65687],[-1.84372,53.65686],[-1.84352,53.657],[-1.84348,53.65698],[-1.84334,53.65707],[-1.84369,53.65729],[-1.84332,53.65747],[-1.84316,53.65733],[-1.84337,53.65722],[-1.84311,53.65706],[-1.84304,53.65696],[-1.84298,53.65694],[-1.84309,53.6567],[-1.84315,53.65671],[-1.84318,53.65667]]]]}},
{ "type":"Feature","properties":{"osm_way_id":"153853811","amenity":"parking","other":{"access":"permissive"}}, "geometry":{"type":"MultiPolygon","coordinates":[[[[0.23692,51.10728],[0.23736,51.10714],[0.23738,51.10712],[0.23732,51.10703],[0.23746,51.10698],[0.23735,51.10688],[0.23727,51.1069],[0.23722,51.10691],[0.23714,51.10689],[0.2371,51.10687],[0.23699,51.10691],[0.237,51.10694],[0.23713,51.10709],[0.23684,51.10719],[0.23685,51.1072],[0.23692,51.10728]]]]}},
{ "type":"Feature","properties":{"osm_way_id":"156925829","name":"Box","amenity":"parking"},"geometry":{"type":"MultiPolygon","coordinates":[[[[0.08135,51.03995],[0.08148,51.03997],[0.0816,51.03997],[0.08168,51.04003],[0.0817,51.0401],[0.08161,51.04022],[0.08148,51.0403],[0.08134,51.04034],[0.08121,51.04036],[0.08105,51.04036],[0.08089,51.04036],[0.08081,51.0403],[0.0808,51.04022],[0.08082,51.04013],[0.08081,51.04003],[0.08098,51.04002],[0.0812,51.04],[0.08135,51.03995]]]]}},
{ "type":"Feature","properties":{"osm_way_id":"156927234","name":"Ellison's Pond","amenity":"parking"},"geometry":{"type":"MultiPolygon","coordinates":[[[[0.08414,51.03899],[0.08405,51.03903],[0.08397,51.03911],[0.08391,51.03915],[0.08378,51.03917],[0.08368,51.03915],[0.08365,51.03911],[0.08363,51.03905],[0.08367,51.03897],[0.08374,51.03892],[0.08384,51.03887],[0.08398,51.03885],[0.08407,51.03882],[0.08416,51.0388],[0.08423,51.03882],[0.08428,51.03886],[0.08428,51.03891],[0.08423,51.03896],[0.08419,51.03897],[0.08414,51.03899]]]]}},
{ "type":"Feature","properties":{"osm_way_id":"156948661","name":"Friends","amenity":"parking","other":{"access":"yes","fee":"no","lit":"no","parking":"surface","supervised":"no","surface":"compacted"}}, "geometry":{"type":"MultiPolygon","coordinates":[[[[0.0752,51.04073],[0.0758,51.04072],[0.07577,51.04057],[0.07559,51.04057],[0.07533,51.04058],[0.07524,51.04058],[0.0752,51.04073]]]]}},
{ "type":"Feature","properties":{"osm_way_id":"156948662","name":"Hollies","amenity":"parking","other":{"capacity":"20","fee":"no","parking":"surface"}}, "geometry":{"type":"MultiPolygon","coordinates":[[[[0.08302,51.03879],[0.08312,51.03872],[0.08334,51.03866],[0.08359,51.03867],[0.08373,51.03864],[0.08384,51.03857],[0.08393,51.03847],[0.08403,51.03845],[0.08411,51.0384],[0.08403,51.03834],[0.08363,51.03838],[0.08328,51.03841],[0.08309,51.03847],[0.08299,51.03851],[0.08289,51.03859],[0.08294,51.0387],[0.08302,51.03879]]]]}},
{ "type":"Feature","properties":{"osm_way_id":"156948991","name":"Stonehill","amenity":"parking","other":{"fee":"no","parking":"surface"}}, "geometry":{"type":"MultiPolygon","coordinates":[[[[0.07514,51.0402],[0.07553,51.04006],[0.07564,51.04001],[0.07561,51.03991],[0.07548,51.03985],[0.07539,51.0398],[0.07527,51.03968],[0.07512,51.03954],[0.07488,51.03955],[0.07482,51.03971],[0.07504,51.04003],[0.07514,51.0402]]]]}},
{ "type":"Feature","properties":{"osm_way_id":"156949907","name":"Duddleswell","amenity":"parking"},"geometry":{"type":"MultiPolygon","coordinates":[[[[0.09118,51.03206],[0.09135,51.03203],[0.09128,51.03185],[0.09122,51.03174],[0.09112,51.03169],[0.09099,51.03172],[0.09104,51.03183],[0.09118,51.03206]]]]}},
{ "type":"Feature","properties":{"osm_way_id":"158210423","amenity":"parking","other":{"parking":"surface","wheelchair":"yes"}}, "geometry":{"type":"MultiPolygon","coordinates":[[[[0.33937,51.0611],[0.34001,51.06091],[0.34044,51.06124],[0.3397,51.06148],[0.33937,51.0611]]]]}},
{ "type":"Feature","properties":{"osm_way_id":"159979314","name":"St John's","amenity":"parking","other":{"access":"yes","fee":"no","parking":"surface","surface":"unpaved"}}, "geometry":{"type":"MultiPolygon","coordinates":[[[[0.14596,51.06388],[0.14584,51.06383],[0.14584,51.0637],[0.14602,51.06362],[0.14625,51.06364],[0.14635,51.06373],[0.1463,51.06382],[0.14618,51.06388],[0.14596,51.06388]]]]}},
{ "type":"Feature","properties":{"osm_way_id":"159981106","name":"Church Hill","amenity":"parking","other":{"parking":"surface"}}, "geometry":{"type":"MultiPolygon","coordinates":[[[[0.13141,51.07351],[0.13153,51.07354],[0.1316,51.07355],[0.13167,51.07354],[0.13172,51.07346],[0.13169,51.07343],[0.13161,51.07341],[0.13157,51.0734],[0.13153,51.07338],[0.13146,51.07343],[0.13141,51.07351]]]]}},
{ "type":"Feature","properties":{"osm_way_id":"159981158","name":"Black Hill","amenity":"parking","other":{"parking":"surface"}}, "geometry":{"type":"MultiPolygon","coordinates":[[[[0.10156,51.05718],[0.10145,51.05708],[0.10143,51.05697],[0.10147,51.05691],[0.10154,51.05692],[0.1017,51.05703],[0.10193,51.0572],[0.10209,51.05731],[0.10212,51.05734],[0.10215,51.05738],[0.10198,51.05735],[0.10182,51.0573],[0.10166,51.05726],[0.10156,51.05718]]]]}},
{ "type":"Feature","properties":{"osm_way_id":"161150982","amenity":"parking"},"geometry":{"type":"MultiPolygon","coordinates":[[[[0.20151,51.09432],[0.20157,51.0943],[0.20166,51.09427],[0.20172,51.09434],[0.20181,51.09431],[0.20172,51.0942],[0.20165,51.0942],[0.20161,51.0942],[0.20145,51.09425],[0.20151,51.09432]]]]}},
{ "type":"Feature","properties":{"osm_way_id":"161162508","amenity":"parking","other":{"access":"permissive"}}, "geometry":{"type":"MultiPolygon","coordinates":[[[[0.22298,51.10069],[0.22366,51.10044],[0.22364,51.10034],[0.22358,51.10033],[0.22354,51.10033],[0.2229,51.10056],[0.22298,51.10069]]]]}},
{ "type":"Feature","properties":{"osm_way_id":"161272192","name":"Eridge Station","amenity":"parking","other":{"access":"yes","capacity":"60","fee":"yes","parking":"surface"}}, "geometry":{"type":"MultiPolygon","coordinates":[[[[0.19881,51.09024],[0.19911,51.09028],[0.19964,51.0901],[0.20001,51.08997],[0.2003,51.08987],[0.20048,51.08981],[0.20077,51.08971],[0.20109,51.0896],[0.20115,51.08957],[0.20127,51.0895],[0.20113,51.08935],[0.20111,51.08934],[0.20093,51.08943],[0.20068,51.08954],[0.20044,51.08963],[0.20035,51.08966],[0.20007,51.08975],[0.19977,51.08985],[0.1996,51.08992],[0.19881,51.09024]]]]}},
{ "type":"Feature","properties":{"osm_way_id":"161272657","amenity":"parking","other":{"access":"permissive","parking":"street_side"}}, "geometry":{"type":"MultiPolygon","coordinates":[[[[0.20165,51.08986],[0.20191,51.08983],[0.20201,51.08981],[0.20205,51.08986],[0.20195,51.08988],[0.20184,51.08989],[0.20165,51.0899],[0.20165,51.08986]]]]}},
{ "type":"Feature","properties":{"osm_way_id":"161812558","amenity":"parking","other":{"access":"private"}}, "geometry":{"type":"MultiPolygon","coordinates":[[[[0.25926,51.11406],[0.25948,51.11407],[0.2594,51.11453],[0.25917,51.11452],[0.2592,51.11432],[0.25923,51.11419],[0.25926,51.11406]]]]}},
{ "type":"Feature","properties":{"osm_way_id":"164654729","amenity":"parking","other":{"access":"yes","capacity":"10","capacity:disabled":"no","capacity:parent":"no","capacity:women":"no","fee":"no","park_ride":"no","parking":"surface","supervised":"no","surface":"ground"}}, "geometry":{"type":"MultiPolygon","coordinates":[[[[0.173,50.80863],[0.17284,50.8085],[0.17278,50.80843],[0.17266,50.80839],[0.17253,50.80839],[0.17242,50.8084],[0.17237,50.80838],[0.17244,50.80834],[0.17223,50.80815],[0.17204,50.80797],[0.17176,50.80818],[0.17211,50.80845],[0.17224,50.80851],[0.17264,50.80857],[0.173,50.80863]]]]}},
{ "type":"Feature","properties":{"osm_way_id":"165936522","amenity":"parking","other":{"capacity":"20","parking":"surface"}}, "geometry":{"type":"MultiPolygon","coordinates":[[[[0.33859,51.06209],[0.33886,51.06196],[0.33901,51.06207],[0.33872,51.0622],[0.33859,51.06209]]]]}},
{ "type":"Feature","properties":{"osm_way_id":"165936523","amenity":"parking","other":{"parking":"surface"}}, "geometry":{"type":"MultiPolygon","coordinates":[[[[0.33938,51.06199],[0.33942,51.06203],[0.33946,51.06207],[0.33968,51.06199],[0.3396,51.06191],[0.33942,51.06197],[0.33938,51.06199]]]]}},
{ "type":"Feature","properties":{"osm_way_id":"165937209","amenity":"parking","other":{"parking":"surface"}}, "geometry":{"type":"MultiPolygon","coordinates":[[[[0.33304,51.06606],[0.33277,51.06621],[0.33279,51.06624],[0.33305,51.06617],[0.33304,51.06606]]]]}},
{ "type":"Feature","properties":{"osm_way_id":"165993345","amenity":"parking","other":{"access":"private","parking":"surface"}}, "geometry":{"type":"MultiPolygon","coordinates":[[[[0.26135,51.02288],[0.26213,51.02304],[0.26197,51.02335],[0.26116,51.02319],[0.26135,51.02288]]]]}},
{ "type":"Feature","properties":{"osm_way_id":"172711871","amenity":"parking"},"geometry":{"type":"MultiPolygon","coordinates":[[[[-6.23892,56.07471],[-6.23897,56.07472],[-6.23902,56.07472],[-6.23907,56.07471],[-6.23947,56.07462],[-6.23954,56.07459],[-6.23958,56.07456],[-6.23892,56.07471]]]]}},
{ "type":"Feature","properties":{"osm_way_id":"173302963","amenity":"parking"},"geometry":{"type":"MultiPolygon","coordinates":[[[[0.35483,51.08318],[0.35465,51.08321],[0.35462,51.08313],[0.35479,51.0831],[0.35483,51.08318]]]]}},
{ "type":"Feature","properties":{"osm_way_id":"176396520","amenity":"parking"},"geometry":{"type":"MultiPolygon","coordinates":[[[[0.14832,51.13013],[0.14864,51.13003],[0.1491,51.12999],[0.14901,51.12989],[0.14877,51.12991],[0.14869,51.12992],[0.14843,51.12995],[0.14826,51.13005],[0.14832,51.13013]]]]}},
{ "type":"Feature","properties":{"osm_way_id":"180645359","amenity":"parking","other":{"parking":"surface"}}, "geometry":{"type":"MultiPolygon","coordinates":[[[[0.28957,50.81606],[0.2897,50.81612],[0.2897,50.81614],[0.28966,50.81617],[0.2897,50.81619],[0.2897,50.81623],[0.28964,50.8163],[0.28971,50.81633],[0.28967,50.81637],[0.28973,50.81641],[0.28966,50.81653],[0.2896,50.81652],[0.2895,50.8165],[0.28948,50.81646],[0.28946,50.8165],[0.28936,50.81648],[0.28938,50.81644],[0.28933,50.81642],[0.28945,50.81622],[0.28957,50.81606]]]]}},
{ "type":"Feature","properties":{"osm_way_id":"180645549","amenity":"parking"},"geometry":{"type":"MultiPolygon","coordinates":[[[[0.28927,50.81697],[0.28924,50.81675],[0.28947,50.81674],[0.28948,50.81683],[0.28955,50.81683],[0.28954,50.81669],[0.28962,50.81669],[0.28968,50.81669],[0.28979,50.81669],[0.2898,50.81685],[0.2898,50.81685],[0.2898,50.81691],[0.28981,50.81698],[0.28981,50.817],[0.28959,50.81702],[0.28957,50.81689],[0.28963,50.81688],[0.28963,50.81687],[0.28943,50.81688],[0.28943,50.8169],[0.28948,50.81689],[0.28949,50.81696],[0.28927,50.81697]]]]}},
{ "type":"Feature","properties":{"osm_way_id":"180645659","amenity":"parking","other":{"parking":"surface"}}, "geometry":{"type":"MultiPolygon","coordinates":[[[[0.28983,50.81668],[0.29007,50.81667],[0.29011,50.81662],[0.2898,50.81664],[0.28983,50.81668]]]]}},
{ "type":"Feature","properties":{"osm_way_id":"185601229","amenity":"parking"},"geometry":{"type":"MultiPolygon","coordinates":[[[[0.25605,50.86423],[0.25607,50.86414],[0.25661,50.86293],[0.25704,50.86298],[0.25722,50.8631],[0.25732,50.86327],[0.25723,50.8639],[0.25734,50.8644],[0.25635,50.86425],[0.25605,50.86423]]]]}},
{ "type":"Feature","properties":{"osm_way_id":"188982304","amenity":"parking","other":{"parking":"surface"}}, "geometry":{"type":"MultiPolygon","coordinates":[[[[0.26132,51.01997],[0.26163,51.02001],[0.26159,51.02016],[0.26168,51.02017],[0.26171,51.02018],[0.26179,51.01991],[0.26135,51.01985],[0.26132,51.01997]]]]}},
{ "type":"Feature","properties":{"osm_way_id":"190095507","name":"Pooh Bridge Parking","amenity":"parking","other":{"parking":"surface"}}, "geometry":{"type":"MultiPolygon","coordinates":[[[[0.10005,51.07914],[0.10012,51.0791],[0.10017,51.07908],[0.10034,51.07934],[0.10021,51.07938],[0.10013,51.0794],[0.10001,51.07931],[0.09995,51.07923],[0.10005,51.07914]]]]}},
{ "type":"Feature","properties":{"osm_way_id":"190238244","name":"Gill's Lap","amenity":"parking"},"geometry":{"type":"MultiPolygon","coordinates":[[[[0.0933,51.06461],[0.09328,51.06463],[0.09306,51.06463],[0.09301,51.06468],[0.09268,51.06463],[0.09264,51.06456],[0.09269,51.06445],[0.09278,51.06429],[0.09295,51.06416],[0.09309,51.06416],[0.09322,51.06422],[0.09327,51.06428],[0.09332,51.06445],[0.0933,51.06457],[0.0933,51.06461]]]]}},
{ "type":"Feature","properties":{"osm_way_id":"200420143","amenity":"parking","other":{"access":"private","parking":"surface"}}, "geometry":{"type":"MultiPolygon","coordinates":[[[[0.17249,51.05552],[0.17272,51.05549],[0.17266,51.05529],[0.17242,51.05532],[0.17249,51.05552]]]]}},
{ "type":"Feature","properties":{"osm_way_id":"200420144","amenity":"parking","other":{"access":"private","parking":"surface"}}, "geometry":{"type":"MultiPolygon","coordinates":[[[[0.17287,51.05509],[0.17282,51.05496],[0.17327,51.05489],[0.17332,51.05503],[0.17287,51.05509]]]]}},
{ "type":"Feature","properties":{"osm_way_id":"200430969","name":"Pilmer Road Car Park","amenity":"parking","other":{"access":"yes","fee":"no","operator":"Wealden District Council","operator:type":"public","parking":"surface","surface":"paved"}}, "geometry":{"type":"MultiPolygon","coordinates":[[[[0.16252,51.06243],[0.16282,51.0623],[0.16276,51.06226],[0.16272,51.06222],[0.16253,51.06226],[0.16236,51.06228],[0.16224,51.06229],[0.16238,51.06234],[0.16246,51.0624],[0.16252,51.06243]]]]}},
{ "type":"Feature","properties":{"osm_way_id":"200454210","amenity":"parking","other":{"access":"private"}}, "geometry":{"type":"MultiPolygon","coordinates":[[[[0.15722,51.05172],[0.15721,51.05174],[0.15776,51.05183],[0.15784,51.05164],[0.15728,51.05155],[0.15722,51.05172]]]]}},
{ "type":"Feature","properties":{"osm_way_id":"200454250","amenity":"parking","other":{"access":"private"}}, "geometry":{"type":"MultiPolygon","coordinates":[[[[0.15789,51.05143],[0.15793,51.05134],[0.15798,51.05124],[0.15824,51.05137],[0.15829,51.05142],[0.15829,51.05147],[0.15818,51.05171],[0.158,51.05167],[0.15802,51.05162],[0.15804,51.05152],[0.15807,51.05146],[0.15789,51.05143]]]]}},
{ "type":"Feature","properties":{"osm_way_id":"200454311","amenity":"parking","other":{"access":"private"}}, "geometry":{"type":"MultiPolygon","coordinates":[[[[0.15721,51.05124],[0.15742,51.05131],[0.15755,51.05113],[0.15734,51.05107],[0.15721,51.05124]]]]}},
{ "type":"Feature","properties":{"osm_way_id":"200455105","amenity":"parking","other":{"access":"private"}}, "geometry":{"type":"MultiPolygon","coordinates":[[[[0.15757,51.05222],[0.15753,51.05229],[0.15695,51.05217],[0.15699,51.0521],[0.15757,51.05222]]]]}},
{ "type":"Feature","properties":{"osm_way_id":"200455109","amenity":"parking","other":{"access":"private"}}, "geometry":{"type":"MultiPolygon","coordinates":[[[[0.15689,51.05193],[0.15695,51.0518],[0.15741,51.05188],[0.15737,51.05199],[0.15738,51.05202],[0.15768,51.05207],[0.15764,51.05215],[0.15758,51.05216],[0.15719,51.05209],[0.15723,51.052],[0.15689,51.05193]]]]}},
{ "type":"Feature","properties":{"osm_way_id":"203134643","amenity":"parking","other":{"parking":"surface"}}, "geometry":{"type":"MultiPolygon","coordinates":[[[[0.23456,50.97177],[0.23437,50.97164],[0.23429,50.97167],[0.23412,50.97184],[0.23411,50.97185],[0.23445,50.97191],[0.23456,50.97177]]]]}},
{ "type":"Feature","properties":{"osm_way_id":"203136722","amenity":"parking","other":{"parking":"surface"}}, "geometry":{"type":"MultiPolygon","coordinates":[[[[0.24623,50.97094],[0.24635,50.97097],[0.24647,50.97101],[0.2465,50.97095],[0.24653,50.97096],[0.24705,50.9711],[0.24723,50.97087],[0.24725,50.97088],[0.24729,50.97082],[0.24762,50.97092],[0.2476,50.97097],[0.24779,50.97103],[0.24795,50.97119],[0.24802,50.97124],[0.24804,50.97134],[0.24793,50.97146],[0.24782,50.97146],[0.24777,50.97141],[0.24768,50.97134],[0.24772,50.97126],[0.24767,50.97119],[0.24763,50.97115],[0.24757,50.97116],[0.24731,50.9715],[0.24727,50.97149],[0.24726,50.97151],[0.24723,50.97151],[0.24722,50.97157],[0.24688,50.97154],[0.24607,50.97129],[0.24603,50.9712],[0.24623,50.97094]]]]}},
{ "type":"Feature","properties":{"osm_way_id":"203136723","amenity":"parking","other":{"capacity":"105","capacity:disabled":"2","fee":"no","parking":"surface"}}, "geometry":{"type":"MultiPolygon","coordinates":[[[[0.24652,50.9697],[0.24639,50.96993],[0.24578,50.96986],[0.24558,50.96987],[0.24584,50.96939],[0.24652,50.9697]]]]}},
{ "type":"Feature","properties":{"osm_way_id":"203187294","amenity":"parking","other":{"access":"yes","fee":"no","parking":"surface"}}, "geometry":{"type":"MultiPolygon","coordinates":[[[[0.25186,50.97235],[0.25139,50.97221],[0.25161,50.97192],[0.2519,50.972],[0.25178,50.97215],[0.25191,50.97219],[0.25198,50.97222],[0.25186,50.97235]]]]}},
{ "type":"Feature","properties":{"osm_way_id":"203187295","amenity":"parking","other":{"parking":"surface"}}, "geometry":{"type":"MultiPolygon","coordinates":[[[[0.25109,50.97037],[0.25098,50.97044],[0.25107,50.9706],[0.25122,50.97057],[0.25129,50.97078],[0.25134,50.97096],[0.25165,50.97093],[0.25163,50.97087],[0.25206,50.97082],[0.25218,50.97089],[0.2525,50.97082],[0.25231,50.97043],[0.2521,50.97044],[0.25186,50.97031],[0.2517,50.97023],[0.25157,50.97025],[0.2515,50.97026],[0.25139,50.9702],[0.2512,50.97033],[0.25109,50.97037]]]]}},
{ "type":"Feature","properties":{"osm_way_id":"203187296","name":"Station Road West Car Park TN21 8DR","amenity":"parking","other":{"fee":"no","maxstay":"3 hr","parking":"surface"}}, "geometry":{"type":"MultiPolygon","coordinates":[[[[0.24985,50.97041],[0.2498,50.97046],[0.24978,50.9705],[0.24942,50.97041],[0.24923,50.97025],[0.24923,50.97017],[0.24944,50.97009],[0.24956,50.97008],[0.24983,50.9703],[0.24985,50.97041]]]]}},
{ "type":"Feature","properties":{"osm_way_id":"204384358","amenity":"parking","other":{"parking":"surface"}}, "geometry":{"type":"MultiPolygon","coordinates":[[[[0.16774,50.96451],[0.16755,50.9649],[0.16805,50.96498],[0.16816,50.9646],[0.16787,50.96457],[0.16788,50.96453],[0.16774,50.96451]]]]}},
{ "type":"Feature","properties":{"osm_way_id":"215389155","name":"Michelham Priory","amenity":"parking","other":{"capacity":"50","parking":"surface"}}, "geometry":{"type":"MultiPolygon","coordinates":[[[[0.21232,50.86304],[0.21241,50.86301],[0.21211,50.86268],[0.21191,50.86254],[0.21179,50.86244],[0.21159,50.86257],[0.21025,50.86193],[0.21001,50.86208],[0.21007,50.86225],[0.21064,50.86233],[0.21127,50.8625],[0.21183,50.86277],[0.21232,50.86304]]]]}},
{ "type":"Feature","properties":{"osm_way_id":"215824486","amenity":"parking","other":{"parking":"surface"}}, "geometry":{"type":"MultiPolygon","coordinates":[[[[0.33317,51.0463],[0.33304,51.04646],[0.33305,51.04653],[0.33312,51.04663],[0.33317,51.0463]]]]}},
{ "type":"Feature","properties":{"osm_way_id":"220384900","name":"Sheffield Park Station Overflow Car Park","amenity":"parking","other":{"access":"customers","fee":"no","parking":"surface","surface":"ground"}}, "geometry":{"type":"MultiPolygon","coordinates":[[[[0.0029,50.9952],[0.00335,50.99474],[0.00347,50.99461],[0.00349,50.99434],[0.00329,50.99415],[0.00271,50.99405],[0.00219,50.9942],[0.00208,50.99447],[0.00218,50.99485],[0.00223,50.99497],[0.0029,50.9952]]]]}},
{ "type":"Feature","properties":{"osm_way_id":"221253015","amenity":"parking","other":{"parking":"surface"}}, "geometry":{"type":"MultiPolygon","coordinates":[[[[0.28015,50.97559],[0.28076,50.97579],[0.28089,50.97562],[0.28082,50.9756],[0.28052,50.97551],[0.28027,50.97543],[0.28015,50.97559]]]]}},
{ "type":"Feature","properties":{"osm_way_id":"233211447","amenity":"parking","other":{"parking":"surface"}}, "geometry":{"type":"MultiPolygon","coordinates":[[[[0.21863,51.00018],[0.21874,51.00016],[0.21886,51.00044],[0.21897,51.00042],[0.21912,51.00078],[0.21889,51.00082],[0.21863,51.00018]]]]}},
{ "type":"Feature","properties":{"osm_way_id":"236125185","amenity":"parking","other":{"access":"private","parking":"surface","surface":"unpaved"}}, "geometry":{"type":"MultiPolygon","coordinates":[[[[0.34896,50.86831],[0.34924,50.8678],[0.34875,50.86771],[0.34848,50.86823],[0.34896,50.86831]]]]}},
{ "type":"Feature","properties":{"osm_way_id":"236134551","amenity":"parking"},"geometry":{"type":"MultiPolygon","coordinates":[[[[0.28461,50.82285],[0.28449,50.82312],[0.2836,50.82243],[0.28387,50.82228],[0.28461,50.82285]]]]}},
{ "type":"Feature","properties":{"osm_way_id":"236134552","amenity":"parking"},"geometry":{"type":"MultiPolygon","coordinates":[[[[0.28582,50.82244],[0.28585,50.82242],[0.28647,50.82211],[0.28622,50.82191],[0.28556,50.82223],[0.28582,50.82244]]]]}},
{ "type":"Feature","properties":{"osm_way_id":"239050390","name":"Drusillas Main Car Park","amenity":"parking","other":{"parking":"surface"}}, "geometry":{"type":"MultiPolygon","coordinates":[[[[0.16372,50.82482],[0.16467,50.82466],[0.16461,50.82449],[0.1646,50.82428],[0.1645,50.82417],[0.16446,50.82408],[0.16435,50.82405],[0.16368,50.824],[0.16356,50.82396],[0.16274,50.82404],[0.16277,50.82427],[0.16283,50.82461],[0.16335,50.82451],[0.16348,50.82449],[0.16358,50.82452],[0.16363,50.82461],[0.16372,50.82482]]]]}},
{ "type":"Feature","properties":{"osm_way_id":"239050395","name":"Overflow car park","amenity":"parking","other":{"parking":"surface"}}, "geometry":{"type":"MultiPolygon","coordinates":[[[[0.16424,50.82562],[0.16444,50.82614],[0.16519,50.82602],[0.16608,50.82588],[0.16585,50.82535],[0.16578,50.82519],[0.16535,50.82526],[0.16524,50.82492],[0.16521,50.82484],[0.1652,50.82482],[0.1651,50.82463],[0.16491,50.82462],[0.16467,50.82466],[0.16372,50.82482],[0.16403,50.82544],[0.16413,50.82555],[0.16424,50.82562]]]]}},
{ "type":"Feature","properties":{"osm_way_id":"239061394","name":"Sheffield Park Gardens Car Park","amenity":"parking","other":{"access":"customers","parking":"surface"}}, "geometry":{"type":"MultiPolygon","coordinates":[[[[0.0144,50.99624],[0.01454,50.99666],[0.0133,50.99726],[0.01322,50.99735],[0.01334,50.99742],[0.01293,50.99754],[0.01262,50.99753],[0.01254,50.99733],[0.01255,50.99726],[0.01319,50.99695],[0.0144,50.99624]]]]}},
{ "type":"Feature","properties":{"osm_way_id":"244038659","amenity":"parking","other":{"access":"customers","parking":"surface"}}, "geometry":{"type":"MultiPolygon","coordinates":[[[[0.25524,51.06022],[0.25551,51.06053],[0.25604,51.06038],[0.25612,51.06045],[0.25661,51.06027],[0.25648,51.06012],[0.25639,51.06004],[0.25634,51.06006],[0.25622,51.0599],[0.25581,51.06004],[0.25583,51.06008],[0.25563,51.06015],[0.25561,51.06013],[0.25536,51.06021],[0.25531,51.0602],[0.25524,51.06022]]]]}},
{ "type":"Feature","properties":{"osm_way_id":"248854474","amenity":"parking"},"geometry":{"type":"MultiPolygon","coordinates":[[[[0.24796,50.8213],[0.24838,50.82125],[0.24976,50.82124],[0.24976,50.8211],[0.24797,50.82114],[0.24797,50.82115],[0.24565,50.82121],[0.24565,50.82135],[0.24677,50.82132],[0.24796,50.8213]]]]}},
{ "type":"Feature","properties":{"osm_way_id":"253215380","amenity":"parking","other":{"access":"yes","fee":"yes","park_ride":"no","parking":"surface","supervised":"no","surface":"grass"}}, "geometry":{"type":"MultiPolygon","coordinates":[[[[0.20293,50.74357],[0.20409,50.74313],[0.20353,50.74305],[0.20302,50.74297],[0.20275,50.74294],[0.20266,50.74295],[0.20252,50.74296],[0.20241,50.743],[0.20232,50.74306],[0.20227,50.74312],[0.20225,50.7432],[0.20228,50.74328],[0.20234,50.74335],[0.20247,50.74342],[0.2027,50.7435],[0.20293,50.74357]]]]}},
{ "type":"Feature","properties":{"osm_way_id":"254333952","amenity":"parking","other":{"access":"private","parking":"surface"}}, "geometry":{"type":"MultiPolygon","coordinates":[[[[0.16348,51.05887],[0.16393,51.05871],[0.16388,51.05866],[0.16372,51.05859],[0.16335,51.05875],[0.16348,51.05887]]]]}},
{ "type":"Feature","properties":{"osm_way_id":"254334941","name":"Croft Road Car Park","amenity":"parking","other":{"fee":"no","level":"1","parking":"surface"}}, "geometry":{"type":"MultiPolygon","coordinates":[[[[0.16025,51.05779],[0.16034,51.05824],[0.1604,51.05871],[0.16058,51.0588],[0.16092,51.05878],[0.16109,51.05865],[0.16105,51.0584],[0.16098,51.05841],[0.16091,51.05838],[0.16078,51.0584],[0.16076,51.05833],[0.16129,51.0583],[0.16158,51.05826],[0.16161,51.05816],[0.16145,51.05789],[0.16067,51.05795],[0.16063,51.05778],[0.16167,51.0577],[0.16161,51.05749],[0.16117,51.05753],[0.16115,51.05737],[0.16089,51.05739],[0.16019,51.05745],[0.16025,51.05779]]]]}},
{ "type":"Feature","properties":{"osm_way_id":"254841718","amenity":"parking","other":{"access":"permissive","parking":"surface"}}, "geometry":{"type":"MultiPolygon","coordinates":[[[[0.16522,51.04286],[0.16583,51.04282],[0.16597,51.04276],[0.16598,51.04264],[0.16635,51.04258],[0.16643,51.04256],[0.16643,51.04249],[0.16613,51.04249],[0.16612,51.04256],[0.16597,51.04257],[0.16518,51.04258],[0.16522,51.04286]]]]}},
{ "type":"Feature","properties":{"osm_way_id":"260042034","amenity":"parking","other":{"access":"customers","parking":"surface"}}, "geometry":{"type":"MultiPolygon","coordinates":[[[[0.1433,51.06268],[0.14331,51.06247],[0.14335,51.06245],[0.14358,51.06244],[0.14411,51.06244],[0.14419,51.06253],[0.14421,51.06259],[0.14421,51.0628],[0.14384,51.06281],[0.14383,51.06286],[0.14374,51.06293],[0.14389,51.06322],[0.14377,51.06324],[0.14361,51.06291],[0.14361,51.06281],[0.14348,51.06281],[0.14349,51.06268],[0.1433,51.06268]]]]}},
{ "type":"Feature","properties":{"osm_way_id":"272680047","amenity":"parking","other":{"access":"customers","parking":"surface"}}, "geometry":{"type":"MultiPolygon","coordinates":[[[[0.08387,51.13361],[0.08402,51.13362],[0.08417,51.13363],[0.08417,51.13366],[0.08439,51.13366],[0.0844,51.13358],[0.08441,51.13339],[0.08381,51.13339],[0.08381,51.13353],[0.08389,51.13353],[0.0839,51.13358],[0.08387,51.13361]]]]}},
{ "type":"Feature","properties":{"osm_way_id":"272910563","amenity":"parking","other":{"access":"customers","capacity":"50","parking":"surface"}}, "geometry":{"type":"MultiPolygon","coordinates":[[[[0.15476,50.80416],[0.15504,50.80414],[0.15506,50.80427],[0.15523,50.80427],[0.15548,50.80462],[0.15539,50.8048],[0.15524,50.80479],[0.1552,50.80482],[0.15497,50.80477],[0.15474,50.80432],[0.15476,50.80416]]]]}},
{ "type":"Feature","properties":{"osm_way_id":"274789604","amenity":"parking","other":{"access":"customers","capacity:disabled":"2","maxstay":"90","parking":"surface"}}, "geometry":{"type":"MultiPolygon","coordinates":[[[[0.09311,50.96966],[0.09339,50.96962],[0.09353,50.96959],[0.09366,50.96952],[0.0937,50.96945],[0.09373,50.96935],[0.09371,50.9693],[0.09368,50.96925],[0.09364,50.96921],[0.09356,50.96915],[0.0934,50.96909],[0.09332,50.96909],[0.09331,50.96925],[0.09338,50.96925],[0.09338,50.96937],[0.09333,50.96939],[0.09299,50.96939],[0.09298,50.96946],[0.09307,50.96946],[0.09311,50.96966]]]]}},
{ "type":"Feature","properties":{"osm_way_id":"274789624","amenity":"parking","other":{"access":"customers"}}, "geometry":{"type":"MultiPolygon","coordinates":[[[[0.0904,50.96929],[0.09044,50.96906],[0.09059,50.96907],[0.09058,50.96911],[0.09066,50.96912],[0.09063,50.9693],[0.0904,50.96929]]]]}},
{ "type":"Feature","properties":{"osm_way_id":"274789625","amenity":"parking","other":{"access":"customers"}}, "geometry":{"type":"MultiPolygon","coordinates":[[[[0.09072,50.96964],[0.09104,50.96965],[0.09107,50.96948],[0.09074,50.96946],[0.09072,50.96964]]]]}},
{ "type":"Feature","properties":{"osm_way_id":"274789626","amenity":"parking","other":{"access":"customers"}}, "geometry":{"type":"MultiPolygon","coordinates":[[[[0.09033,50.96966],[0.09036,50.96943],[0.08993,50.96941],[0.0899,50.96963],[0.09033,50.96966]]]]}},
{ "type":"Feature","properties":{"osm_way_id":"274850891","amenity":"parking","other":{"access":"private"}}, "geometry":{"type":"MultiPolygon","coordinates":[[[[0.09345,50.9701],[0.09247,50.97015],[0.09244,50.96994],[0.09308,50.96989],[0.09303,50.96997],[0.09344,50.97006],[0.09345,50.9701]]]]}},
{ "type":"Feature","properties":{"osm_way_id":"274850893","amenity":"parking","other":{"access":"customers"}}, "geometry":{"type":"MultiPolygon","coordinates":[[[[0.09219,50.96946],[0.09166,50.96948],[0.09171,50.96902],[0.09194,50.96895],[0.09201,50.96895],[0.092,50.96909],[0.0918,50.96908],[0.09177,50.96933],[0.0922,50.96935],[0.09219,50.96946]]]]}},
{ "type":"Feature","properties":{"osm_way_id":"274850895","amenity":"parking","other":{"access":"customers"}}, "geometry":{"type":"MultiPolygon","coordinates":[[[[0.09144,50.96893],[0.09154,50.96893],[0.09164,50.96892],[0.09177,50.96889],[0.0919,50.96885],[0.09204,50.96882],[0.09225,50.96883],[0.09229,50.96883],[0.09252,50.96883],[0.09258,50.96884],[0.09285,50.96885],[0.09313,50.96887],[0.09328,50.96887],[0.0934,50.9689],[0.09352,50.96894],[0.09354,50.96884],[0.09357,50.96867],[0.09339,50.96866],[0.09338,50.96879],[0.09305,50.96877],[0.09304,50.96882],[0.09283,50.96881],[0.09284,50.96874],[0.09259,50.96872],[0.09233,50.96871],[0.09207,50.9687],[0.09207,50.96872],[0.09181,50.96871],[0.09154,50.9687],[0.09148,50.96869],[0.09144,50.96893]]]]}},
{ "type":"Feature","properties":{"osm_way_id":"274850903","amenity":"parking","other":{"access":"customers"}}, "geometry":{"type":"MultiPolygon","coordinates":[[[[0.09073,50.96907],[0.09088,50.9693],[0.09093,50.9693],[0.09093,50.96933],[0.09106,50.96933],[0.09107,50.96926],[0.09107,50.96919],[0.09102,50.96919],[0.09102,50.96912],[0.09095,50.96911],[0.09095,50.96908],[0.09073,50.96907]]]]}},
{ "type":"Feature","properties":{"osm_way_id":"274850910","amenity":"parking","other":{"access":"customers"}}, "geometry":{"type":"MultiPolygon","coordinates":[[[[0.08967,50.96956],[0.08965,50.9697],[0.08916,50.96968],[0.08919,50.96948],[0.08885,50.96947],[0.0889,50.96895],[0.08947,50.96898],[0.08946,50.96907],[0.08945,50.96915],[0.08899,50.96912],[0.08897,50.96929],[0.0892,50.9693],[0.08943,50.96931],[0.08946,50.96931],[0.08946,50.96934],[0.08945,50.96944],[0.08938,50.96944],[0.08936,50.96955],[0.08967,50.96956]]]]}},
{ "type":"Feature","properties":{"osm_way_id":"274850914","amenity":"parking","other":{"access":"customers"}}, "geometry":{"type":"MultiPolygon","coordinates":[[[[0.08828,50.96898],[0.08828,50.96901],[0.08808,50.96901],[0.088,50.9696],[0.08851,50.96962],[0.08859,50.96898],[0.0884,50.96898],[0.08828,50.96898]]]]}},
{ "type":"Feature","properties":{"osm_way_id":"274850918","amenity":"parking","other":{"access":"customers"}}, "geometry":{"type":"MultiPolygon","coordinates":[[[[0.08748,50.96958],[0.08728,50.96957],[0.08734,50.96902],[0.08749,50.96901],[0.08757,50.969],[0.08748,50.96958]]]]}},
{ "type":"Feature","properties":{"osm_way_id":"274850921","amenity":"parking","other":{"access":"customers"}}, "geometry":{"type":"MultiPolygon","coordinates":[[[[0.08648,50.96944],[0.08649,50.96934],[0.08672,50.96935],[0.08676,50.96905],[0.08686,50.96904],[0.087,50.96902],[0.08708,50.96902],[0.08705,50.9693],[0.08705,50.96936],[0.08725,50.96936],[0.08724,50.96948],[0.08693,50.96946],[0.08648,50.96944]]]]}},
{ "type":"Feature","properties":{"osm_way_id":"274850930","amenity":"parking","other":{"access":"customers"}}, "geometry":{"type":"MultiPolygon","coordinates":[[[[0.08507,50.96925],[0.08504,50.96913],[0.08514,50.9691],[0.08524,50.96909],[0.08538,50.96908],[0.0855,50.96908],[0.08551,50.96912],[0.08561,50.96916],[0.08562,50.96922],[0.08571,50.96923],[0.08566,50.9695],[0.08564,50.96959],[0.0851,50.96956],[0.08509,50.96953],[0.08552,50.96952],[0.0855,50.96924],[0.08507,50.96925]]]]}},
{ "type":"Feature","properties":{"osm_way_id":"274850936","amenity":"parking","other":{"access":"private","parking":"surface"}}, "geometry":{"type":"MultiPolygon","coordinates":[[[[0.08954,50.96883],[0.08991,50.96884],[0.08997,50.96823],[0.08959,50.96822],[0.08954,50.96883]]]]}},
{ "type":"Feature","properties":{"osm_way_id":"274850948","amenity":"parking","other":{"access":"customers"}}, "geometry":{"type":"MultiPolygon","coordinates":[[[[0.08485,50.9692],[0.08487,50.96952],[0.08504,50.96952],[0.08503,50.96904],[0.08456,50.96904],[0.0845,50.96906],[0.08445,50.96909],[0.08443,50.96923],[0.0844,50.96941],[0.08447,50.96946],[0.08452,50.96942],[0.0846,50.96942],[0.08459,50.96921],[0.08485,50.9692]]]]}},
{ "type":"Feature","properties":{"osm_way_id":"281536878","amenity":"parking","other":{"parking":"surface"}}, "geometry":{"type":"MultiPolygon","coordinates":[[[[0.294,51.10467],[0.29408,51.10471],[0.29418,51.1046],[0.29486,51.10421],[0.29507,51.10409],[0.29491,51.10401],[0.29505,51.10382],[0.29481,51.1037],[0.29464,51.10388],[0.29473,51.10394],[0.29463,51.10407],[0.29432,51.10432],[0.29413,51.10449],[0.294,51.10467]]]]}},
{ "type":"Feature","properties":{"osm_way_id":"294011786","name":"South Road","amenity":"parking","other":{"addr:city":"Hailsham","addr:postcode":"BN27 2AU","addr:street":"South Road","capacity:disabled":"7","fee":"no","maxstay":"23 hours","operator":"Wealden District Council","parking":"surface"}}, "geometry":{"type":"MultiPolygon","coordinates":[[[[0.25658,50.86111],[0.25726,50.86112],[0.25726,50.86116],[0.25736,50.86116],[0.25736,50.8615],[0.25729,50.8615],[0.25729,50.86155],[0.25675,50.86154],[0.25675,50.86149],[0.25669,50.86149],[0.25661,50.86143],[0.25643,50.86119],[0.25648,50.86118],[0.25646,50.86114],[0.25658,50.86111]]]]}},
{ "type":"Feature","properties":{"osm_way_id":"294066938","amenity":"parking","other":{"parking":"surface"}}, "geometry":{"type":"MultiPolygon","coordinates":[[[[0.33844,50.81887],[0.33853,50.81879],[0.33899,50.81863],[0.33924,50.81867],[0.33931,50.81875],[0.3393,50.81878],[0.33913,50.81879],[0.33848,50.81896],[0.33844,50.81887]]]]}},
{ "type":"Feature","properties":{"osm_way_id":"294236230","amenity":"parking"},"geometry":{"type":"MultiPolygon","coordinates":[[[[0.23312,50.86437],[0.23206,50.86375],[0.23245,50.8635],[0.23374,50.86421],[0.23312,50.86437]]]]}},
{ "type":"Feature","properties":{"osm_way_id":"299441923","amenity":"parking","other":{"parking":"surface"}}, "geometry":{"type":"MultiPolygon","coordinates":[[[[0.20209,51.07649],[0.20231,51.0763],[0.20174,51.07604],[0.20153,51.07624],[0.20209,51.07649]]]]}},
{ "type":"Feature","properties":{"osm_way_id":"303249462","name":"Harrison's Rocks Car Park","amenity":"parking","other":{"capacity":"50","fee":"yes","operator":"Forestry Commission","park_ride":"no","parking":"surface","supervised":"no","surface":"compacted"}}, "geometry":{"type":"MultiPolygon","coordinates":[[[[0.18928,51.10657],[0.18936,51.10649],[0.18945,51.10623],[0.18947,51.10619],[0.18938,51.10609],[0.18917,51.106],[0.18903,51.10596],[0.18862,51.10589],[0.18857,51.10602],[0.18853,51.10614],[0.1885,51.10628],[0.18848,51.10643],[0.18853,51.10657],[0.18881,51.10667],[0.18905,51.10665],[0.18928,51.10657]]]]}},
{ "type":"Feature","properties":{"osm_way_id":"303270409","amenity":"parking","other":{"access":"customers","fee":"no","park_ride":"no","parking":"surface","surface":"asphalt"}}, "geometry":{"type":"MultiPolygon","coordinates":[[[[0.26704,51.09703],[0.26714,51.09705],[0.26734,51.09708],[0.26765,51.09689],[0.26773,51.09679],[0.26761,51.09676],[0.26727,51.09667],[0.26709,51.09696],[0.26704,51.09703]]]]}},
{ "type":"Feature","properties":{"osm_way_id":"304236788","name":"Bricklayer's Arms","amenity":"parking","other":{"access":"customers","fee":"no","parking":"surface"}}, "geometry":{"type":"MultiPolygon","coordinates":[[[[0.16166,51.04848],[0.16184,51.04851],[0.16185,51.04847],[0.16189,51.04836],[0.16191,51.04829],[0.16172,51.04826],[0.16166,51.04848]]]]}},
{ "type":"Feature","properties":{"osm_way_id":"304236789","name":"Scout Hut","amenity":"parking","other":{"access":"private","fee":"no","park_ride":"no","parking":"surface","supervised":"no"}}, "geometry":{"type":"MultiPolygon","coordinates":[[[[0.16092,51.05139],[0.16094,51.05125],[0.16139,51.05113],[0.16145,51.05126],[0.16092,51.05139]]]]}},
{ "type":"Feature","properties":{"osm_way_id":"304288684","amenity":"parking","other":{"access":"private","fee":"no"}}, "geometry":{"type":"MultiPolygon","coordinates":[[[[0.17615,51.04986],[0.176,51.04998],[0.17615,51.05006],[0.1763,51.04995],[0.17615,51.04986]]]]}},
{ "type":"Feature","properties":{"osm_way_id":"304288685","amenity":"parking","other":{"access":"private"}}, "geometry":{"type":"MultiPolygon","coordinates":[[[[0.17819,51.04932],[0.1783,51.04924],[0.17806,51.04913],[0.17797,51.04927],[0.17806,51.04926],[0.17819,51.04932]]]]}},
{ "type":"Feature","properties":{"osm_way_id":"304289942","name":"Wolfe Recreation Ground","amenity":"parking","other":{"fee":"no","parking":"surface"}}, "geometry":{"type":"MultiPolygon","coordinates":[[[[0.17196,51.04821],[0.17193,51.04817],[0.17163,51.04818],[0.17163,51.04803],[0.17192,51.04796],[0.17198,51.04796],[0.17202,51.04802],[0.17262,51.04786],[0.17272,51.04802],[0.17196,51.04821]]]]}},
{ "type":"Feature","properties":{"osm_way_id":"304290721","amenity":"parking","other":{"access":"private"}}, "geometry":{"type":"MultiPolygon","coordinates":[[[[0.1714,51.04644],[0.17142,51.04642],[0.17143,51.0464],[0.17112,51.0462],[0.17101,51.04621],[0.17097,51.04626],[0.17096,51.04629],[0.17096,51.04632],[0.1714,51.04644]]]]}},
{ "type":"Feature","properties":{"osm_way_id":"304305045","amenity":"parking","other":{"parking":"surface"}}, "geometry":{"type":"MultiPolygon","coordinates":[[[[0.19199,51.04943],[0.19237,51.04947],[0.19241,51.04932],[0.19207,51.04929],[0.19192,51.04921],[0.19183,51.04921],[0.19182,51.04942],[0.19199,51.04943]]]]}},
{ "type":"Feature","properties":{"osm_way_id":"304305049","amenity":"parking"},"geometry":{"type":"MultiPolygon","coordinates":[[[[0.19306,51.04948],[0.19298,51.04944],[0.19292,51.04946],[0.1928,51.04956],[0.19325,51.04978],[0.19341,51.04964],[0.19315,51.04953],[0.19306,51.04948]]]]}},
{ "type":"Feature","properties":{"osm_way_id":"304308955","amenity":"parking","other":{"parking":"surface"}}, "geometry":{"type":"MultiPolygon","coordinates":[[[[0.18237,51.04752],[0.18239,51.04756],[0.18248,51.04755],[0.18257,51.04747],[0.18251,51.0474],[0.18245,51.04739],[0.18239,51.04737],[0.18237,51.04752]]]]}},
{ "type":"Feature","properties":{"osm_way_id":"304308957","amenity":"parking","other":{"parking":"lane"}}, "geometry":{"type":"MultiPolygon","coordinates":[[[[0.17705,51.05104],[0.17695,51.05101],[0.17669,51.05113],[0.17653,51.05127],[0.17705,51.05104]]]]}},
{ "type":"Feature","properties":{"osm_way_id":"304310838","amenity":"parking"},"geometry":{"type":"MultiPolygon","coordinates":[[[[0.16902,51.05529],[0.16895,51.05537],[0.16914,51.05545],[0.1693,51.05548],[0.16944,51.0555],[0.16954,51.05539],[0.16935,51.05532],[0.16932,51.05534],[0.16905,51.05526],[0.16902,51.05529]]]]}},
{ "type":"Feature","properties":{"osm_way_id":"304313105","amenity":"parking"},"geometry":{"type":"MultiPolygon","coordinates":[[[[0.16311,51.05836],[0.16302,51.05838],[0.16293,51.05836],[0.16285,51.05832],[0.16283,51.05826],[0.1629,51.05816],[0.16295,51.05816],[0.16302,51.05816],[0.16303,51.05818],[0.163,51.05819],[0.163,51.0582],[0.16297,51.05823],[0.16296,51.05827],[0.16301,51.0583],[0.16308,51.05831],[0.16313,51.05833],[0.16311,51.05836]]]]}},
{ "type":"Feature","properties":{"osm_way_id":"304313107","amenity":"parking","other":{"capacity":"4","disabled":"only","parking":"lane","taxi":"yes"}}, "geometry":{"type":"MultiPolygon","coordinates":[[[[0.16203,51.05829],[0.16197,51.05831],[0.16209,51.05848],[0.16214,51.05847],[0.1621,51.05839],[0.16203,51.05829]]]]}},
{ "type":"Feature","properties":{"osm_way_id":"304400206","name":"Lidl Car Park","amenity":"parking"},"geometry":{"type":"MultiPolygon","coordinates":[[[[0.15922,51.0604],[0.1595,51.06021],[0.15889,51.05986],[0.15802,51.06053],[0.15823,51.06064],[0.15838,51.06058],[0.15877,51.06034],[0.15872,51.06031],[0.1589,51.06019],[0.15922,51.0604]]]]}},
{ "type":"Feature","properties":{"osm_way_id":"304401748","amenity":"parking","other":{"access":"private"}}, "geometry":{"type":"MultiPolygon","coordinates":[[[[0.17298,51.05607],[0.17267,51.05604],[0.17262,51.05618],[0.17296,51.05623],[0.17296,51.05615],[0.17298,51.05607]]]]}},
{ "type":"Feature","properties":{"osm_way_id":"306031637","amenity":"parking","other":{"access":"private"}}, "geometry":{"type":"MultiPolygon","coordinates":[[[[0.16387,51.0463],[0.16387,51.04624],[0.16384,51.04622],[0.16383,51.04616],[0.16392,51.04615],[0.164,51.04613],[0.16404,51.04613],[0.16409,51.04611],[0.16416,51.04611],[0.16417,51.04613],[0.16419,51.04614],[0.16423,51.04614],[0.1644,51.04615],[0.16441,51.04616],[0.16442,51.04618],[0.16444,51.04622],[0.16387,51.0463]]]]}},
{ "type":"Feature","properties":{"osm_way_id":"306031639","amenity":"parking","other":{"access":"private"}}, "geometry":{"type":"MultiPolygon","coordinates":[[[[0.16481,51.04596],[0.16484,51.04596],[0.16491,51.0461],[0.16489,51.0461],[0.16474,51.04613],[0.16472,51.0461],[0.16471,51.04606],[0.16468,51.04606],[0.16465,51.04599],[0.16481,51.04596]]]]}},
{ "type":"Feature","properties":{"osm_way_id":"307408174","name":"Top Car Park","amenity":"parking","other":{"access":"private"}}, "geometry":{"type":"MultiPolygon","coordinates":[[[[0.24102,50.86017],[0.24093,50.86017],[0.24078,50.86009],[0.24081,50.86004],[0.24087,50.85999],[0.24066,50.85977],[0.24086,50.85964],[0.24121,50.86005],[0.24154,50.8604],[0.24136,50.86047],[0.24102,50.86017]]]]}},
{ "type":"Feature","properties":{"osm_way_id":"307408180","amenity":"parking","other":{"access":"private"}}, "geometry":{"type":"MultiPolygon","coordinates":[[[[0.24123,50.86059],[0.2413,50.86066],[0.23928,50.86163],[0.23915,50.86126],[0.23908,50.86121],[0.23951,50.86105],[0.2396,50.86112],[0.2397,50.86118],[0.24119,50.8606],[0.24123,50.86059]]]]}},
{ "type":"Feature","properties":{"osm_way_id":"310394021","name":"Church Carpark","amenity":"parking","other":{"parking":"surface","surface":"gravel"}}, "geometry":{"type":"MultiPolygon","coordinates":[[[[0.345,50.81054],[0.34468,50.81043],[0.34485,50.81019],[0.34521,50.81031],[0.345,50.81054]]]]}},
{ "type":"Feature","properties":{"osm_way_id":"310394041","amenity":"parking"},"geometry":{"type":"MultiPolygon","coordinates":[[[[0.34907,50.81176],[0.34924,50.81156],[0.3493,50.81158],[0.34936,50.81161],[0.34946,50.81167],[0.34949,50.8117],[0.34952,50.81173],[0.3496,50.81184],[0.34954,50.81186],[0.34949,50.81188],[0.34944,50.81192],[0.34907,50.81176]]]]}},
{ "type":"Feature","properties":{"osm_way_id":"310394081","amenity":"parking"},"geometry":{"type":"MultiPolygon","coordinates":[[[[0.34844,50.81172],[0.34871,50.81184],[0.34906,50.81161],[0.34915,50.8115],[0.34905,50.81147],[0.34897,50.81145],[0.34898,50.81147],[0.34897,50.81148],[0.34883,50.81161],[0.34844,50.81172]]]]}},
{ "type":"Feature","properties":{"osm_way_id":"317223424","amenity":"parking"},"geometry":{"type":"MultiPolygon","coordinates":[[[[0.21916,51.11331],[0.21913,51.11336],[0.21894,51.11333],[0.21883,51.11327],[0.21876,51.11319],[0.2188,51.11313],[0.21896,51.11311],[0.2191,51.11313],[0.21935,51.11321],[0.21931,51.11326],[0.21925,51.11326],[0.21916,51.11331]]]]}},
{ "type":"Feature","properties":{"osm_way_id":"317705170","amenity":"parking","other":{"access":"customers","capacity":"50","parking":"surface"}}, "geometry":{"type":"MultiPolygon","coordinates":[[[[0.15516,50.8052],[0.15483,50.80513],[0.15487,50.805],[0.15523,50.80507],[0.15516,50.8052]]]]}},
{ "type":"Feature","properties":{"osm_way_id":"317736821","amenity":"parking"},"geometry":{"type":"MultiPolygon","coordinates":[[[[0.1563,50.80616],[0.15618,50.80601],[0.15619,50.80597],[0.15635,50.80598],[0.15639,50.80614],[0.1563,50.80616]]]]}},
{ "type":"Feature","properties":{"osm_way_id":"317738043","amenity":"parking"},"geometry":{"type":"MultiPolygon","coordinates":[[[[0.1373,50.83979],[0.13778,50.84018],[0.13754,50.84039],[0.13758,50.84046],[0.13796,50.8403],[0.13815,50.84022],[0.13811,50.84018],[0.13808,50.84016],[0.13755,50.83966],[0.1373,50.83979]]]]}},
{ "type":"Feature","properties":{"osm_way_id":"318359674","amenity":"parking","other":{"access":"customers"}}, "geometry":{"type":"MultiPolygon","coordinates":[[[[0.29676,51.10228],[0.29672,51.10233],[0.29662,51.1025],[0.2964,51.10238],[0.29646,51.10234],[0.29643,51.10232],[0.29648,51.10229],[0.29651,51.10226],[0.29659,51.1023],[0.29672,51.10221],[0.29676,51.10228]]]]}},
{ "type":"Feature","properties":{"osm_way_id":"363644054","name":"Townsends","amenity":"parking"},"geometry":{"type":"MultiPolygon","coordinates":[[[[0.05927,51.07627],[0.0592,51.07631],[0.05913,51.07635],[0.05889,51.07619],[0.05904,51.07609],[0.05915,51.07618],[0.05927,51.07627]]]]}},
{ "type":"Feature","properties":{"osm_way_id":"373025976","amenity":"parking","other":{"capacity":"300"}}, "geometry":{"type":"MultiPolygon","coordinates":[[[[0.10233,50.94231],[0.10271,50.94239],[0.10276,50.94238],[0.1028,50.94242],[0.10353,50.94203],[0.10273,50.94136],[0.10173,50.94125],[0.10093,50.9415],[0.10118,50.94158],[0.10132,50.94173],[0.10129,50.94177],[0.10159,50.94166],[0.10182,50.94192],[0.10196,50.94209],[0.10233,50.94231]]]]}},
{ "type":"Feature","properties":{"osm_way_id":"382335099","name":"Broadstone Car Park","amenity":"parking","other":{"parking":"surface"}}, "geometry":{"type":"MultiPolygon","coordinates":[[[[0.04673,51.07274],[0.04675,51.07264],[0.04674,51.07253],[0.04682,51.07254],[0.04688,51.07254],[0.04699,51.07255],[0.04783,51.07262],[0.04871,51.07269],[0.04878,51.0727],[0.04868,51.0728],[0.04859,51.0728],[0.04837,51.0728],[0.04812,51.0728],[0.04805,51.0728],[0.04713,51.07275],[0.0471,51.07275],[0.04699,51.07275],[0.0468,51.07274],[0.04673,51.07274]]]]}},
{ "type":"Feature","properties":{"osm_way_id":"382335100","name":"Roman Road Car Park","amenity":"parking"},"geometry":{"type":"MultiPolygon","coordinates":[[[[0.10022,51.04407],[0.10031,51.04406],[0.10037,51.04405],[0.10031,51.04396],[0.10026,51.04394],[0.10016,51.04397],[0.10017,51.044],[0.10018,51.04403],[0.10022,51.04407]]]]}},
{ "type":"Feature","properties":{"osm_way_id":"389730889","amenity":"parking"},"geometry":{"type":"MultiPolygon","coordinates":[[[[0.16575,50.84079],[0.16624,50.84054],[0.16616,50.8404],[0.16604,50.84046],[0.16596,50.84051],[0.16592,50.84048],[0.1659,50.84049],[0.16558,50.84066],[0.16575,50.84079]]]]}},
{ "type":"Feature","properties":{"osm_way_id":"389730891","amenity":"parking"},"geometry":{"type":"MultiPolygon","coordinates":[[[[0.16497,50.84082],[0.16485,50.84073],[0.16516,50.84054],[0.16551,50.84037],[0.16561,50.84035],[0.1658,50.8403],[0.16595,50.84019],[0.16603,50.84025],[0.16593,50.84029],[0.16591,50.84028],[0.16576,50.84038],[0.16565,50.84044],[0.16497,50.84082]]]]}},
{ "type":"Feature","properties":{"osm_way_id":"389730895","amenity":"parking"},"geometry":{"type":"MultiPolygon","coordinates":[[[[0.16714,50.8395],[0.16688,50.83965],[0.16678,50.83956],[0.16655,50.83968],[0.16627,50.83982],[0.16619,50.83976],[0.16618,50.83972],[0.16625,50.83969],[0.16622,50.83965],[0.16641,50.83954],[0.16662,50.8394],[0.16691,50.83931],[0.16714,50.8395]]]]}},
{ "type":"Feature","properties":{"osm_way_id":"394659857","amenity":"parking"},"geometry":{"type":"MultiPolygon","coordinates":[[[[0.22721,50.85829],[0.22612,50.85793],[0.22624,50.85738],[0.22758,50.8565],[0.22783,50.85682],[0.22717,50.85708],[0.22707,50.85729],[0.22706,50.85745],[0.22726,50.85819],[0.22721,50.85829]]]]}},
{ "type":"Feature","properties":{"osm_way_id":"396093333","amenity":"parking"},"geometry":{"type":"MultiPolygon","coordinates":[[[[0.10801,50.88281],[0.10806,50.88283],[0.10813,50.88287],[0.10822,50.88281],[0.10815,50.88272],[0.10805,50.88278],[0.10801,50.88281]]]]}},
{ "type":"Feature","properties":{"osm_way_id":"401838357","amenity":"parking","other":{"parking":"surface","surface":"gravel"}}, "geometry":{"type":"MultiPolygon","coordinates":[[[[0.18995,50.81659],[0.18988,50.81649],[0.18908,50.81672],[0.18915,50.81681],[0.18995,50.81659]]]]}},
{ "type":"Feature","properties":{"osm_way_id":"403865120","name":"Waitrose","amenity":"parking","other":{"fee":"no","maxstay":"2 hours"}}, "geometry":{"type":"MultiPolygon","coordinates":[[[[0.09692,50.9691],[0.09687,50.96937],[0.09689,50.96944],[0.09701,50.96951],[0.09724,50.96956],[0.09735,50.96956],[0.09743,50.96956],[0.09741,50.96965],[0.09751,50.96966],[0.09761,50.96967],[0.09766,50.96948],[0.09774,50.96911],[0.09693,50.96904],[0.09692,50.96908],[0.09692,50.9691]]]]}},
{ "type":"Feature","properties":{"osm_way_id":"408043422","name":"Uckfield Station Car Park","amenity":"parking","other":{"fee":"yes","surface":"asphalt"}}, "geometry":{"type":"MultiPolygon","coordinates":[[[[0.09558,50.9685],[0.09501,50.96842],[0.09445,50.96834],[0.09397,50.96828],[0.09364,50.96823],[0.09355,50.96821],[0.09351,50.96819],[0.09364,50.96799],[0.09482,50.96814],[0.0949,50.96815],[0.09567,50.96825],[0.0956,50.96851],[0.09558,50.9685]]]]}},
{ "type":"Feature","properties":{"osm_way_id":"408919004","amenity":"parking"},"geometry":{"type":"MultiPolygon","coordinates":[[[[0.08134,50.99504],[0.0806,50.9948],[0.08051,50.99492],[0.08008,50.99479],[0.0803,50.99452],[0.08119,50.99482],[0.08145,50.99454],[0.08166,50.99461],[0.08139,50.99491],[0.08145,50.99493],[0.08141,50.99498],[0.08134,50.99504]]]]}},
{ "type":"Feature","properties":{"osm_way_id":"409122972","name":"Victoria Pleasure Ground Car Park","amenity":"parking"},"geometry":{"type":"MultiPolygon","coordinates":[[[[0.09518,50.96557],[0.09465,50.96561],[0.09416,50.96574],[0.09414,50.96572],[0.0941,50.96566],[0.09462,50.9655],[0.09503,50.96545],[0.09492,50.96503],[0.0951,50.96499],[0.09514,50.96497],[0.0953,50.96555],[0.09518,50.96557]]]]}},
{ "type":"Feature","properties":{"osm_way_id":"409870029","amenity":"parking","other":{"access":"customers"}}, "geometry":{"type":"MultiPolygon","coordinates":[[[[0.0853,50.97041],[0.08478,50.97038],[0.08483,50.97011],[0.08531,50.97013],[0.0853,50.97016],[0.0853,50.97041]]]]}},
{ "type":"Feature","properties":{"osm_way_id":"415884412","amenity":"parking","other":{"access":"customers","capacity":"4","parking":"surface"}}, "geometry":{"type":"MultiPolygon","coordinates":[[[[0.09626,50.96749],[0.09624,50.96755],[0.0961,50.96753],[0.09612,50.96747],[0.09626,50.96749]]]]}},
{ "type":"Feature","properties":{"osm_way_id":"416219410","amenity":"parking","other":{"access":"customers","parking":"surface"}}, "geometry":{"type":"MultiPolygon","coordinates":[[[[0.09617,50.96637],[0.09633,50.96638],[0.09635,50.96629],[0.09635,50.96627],[0.09619,50.96626],[0.09617,50.96637]]]]}},
{ "type":"Feature","properties":{"osm_way_id":"416461234","name":"Highlands Car Park","amenity":"parking","other":{"access":"customers"}}, "geometry":{"type":"MultiPolygon","coordinates":[[[[0.09942,50.9615],[0.09956,50.961],[0.09978,50.96101],[0.09969,50.96141],[0.09967,50.96149],[0.09942,50.9615]]]]}},
{ "type":"Feature","properties":{"osm_way_id":"417032276","name":"NT Crowlink","amenity":"parking","other":{"fee":"yes","operator":"National Trust","operator:wikidata":"Q333515","operator:wikipedia":"en:National Trust","parking":"surface"}}, "geometry":{"type":"MultiPolygon","coordinates":[[[[0.19625,50.76021],[0.19601,50.75978],[0.19592,50.7596],[0.19587,50.75941],[0.19597,50.75939],[0.19607,50.75967],[0.19616,50.75984],[0.19624,50.75998],[0.19638,50.76018],[0.19625,50.76021]]]]}},
{ "type":"Feature","properties":{"osm_way_id":"418295004","amenity":"parking"},"geometry":{"type":"MultiPolygon","coordinates":[[[[0.20164,50.95407],[0.2017,50.95404],[0.20148,50.95387],[0.20176,50.95371],[0.20195,50.9536],[0.20183,50.95351],[0.20181,50.95353],[0.20162,50.95357],[0.2012,50.9538],[0.20164,50.95407]]]]}},
{ "type":"Feature","properties":{"osm_way_id":"421363929","amenity":"parking","other":{"capacity":"14","fee":"no","maxstay":"10 hours","parking":"surface"}}, "geometry":{"type":"MultiPolygon","coordinates":[[[[0.09683,50.97387],[0.09683,50.97391],[0.0967,50.97395],[0.09657,50.97398],[0.09652,50.97398],[0.09648,50.97397],[0.09642,50.97386],[0.09675,50.97376],[0.09683,50.97387]]]]}},
{ "type":"Feature","properties":{"osm_way_id":"421363937","amenity":"parking","other":{"capacity:disabled":"1","fee":"no","maxstay":"180","parking":"surface"}}, "geometry":{"type":"MultiPolygon","coordinates":[[[[0.09641,50.97371],[0.09673,50.97363],[0.09657,50.97341],[0.09628,50.97352],[0.09634,50.97361],[0.09641,50.97371]]]]}},
{ "type":"Feature","properties":{"osm_way_id":"429192747","amenity":"parking","other":{"fee":"no","parking":"surface","surface":"asphalt"}}, "geometry":{"type":"MultiPolygon","coordinates":[[[[0.08521,50.98241],[0.08489,50.98205],[0.08495,50.98203],[0.08527,50.98239],[0.08521,50.98241]]]]}},
{ "type":"Feature","properties":{"osm_way_id":"429192749","amenity":"parking","other":{"fee":"no","parking":"surface","surface":"asphalt"}}, "geometry":{"type":"MultiPolygon","coordinates":[[[[0.0846,50.96198],[0.08505,50.96143],[0.08514,50.96146],[0.08469,50.96201],[0.0846,50.96198]]]]}},
{ "type":"Feature","properties":{"osm_way_id":"436274932","amenity":"parking","other":{"access":"customers"}}, "geometry":{"type":"MultiPolygon","coordinates":[[[[0.33433,50.82053],[0.33455,50.82057],[0.3346,50.82044],[0.33454,50.82043],[0.33453,50.82039],[0.33442,50.82042],[0.3344,50.82039],[0.33427,50.82043],[0.33433,50.82053]]]]}},
{ "type":"Feature","properties":{"osm_way_id":"439209710","name":"Vachery","amenity":"parking","other":{"access":"yes","fee":"no","smoothness":"bad","surface":"compacted"}}, "geometry":{"type":"MultiPolygon","coordinates":[[[[0.04724,51.05477],[0.04726,51.05468],[0.04738,51.05459],[0.04755,51.05457],[0.04724,51.05477]]]]}},
{ "type":"Feature","properties":{"osm_way_id":"439209711","name":"Pippingford","amenity":"parking","other":{"surface":"asphalt"}}, "geometry":{"type":"MultiPolygon","coordinates":[[[[0.04918,51.05361],[0.04945,51.05337],[0.04966,51.05303],[0.04958,51.05301],[0.04935,51.05334],[0.04921,51.05351],[0.04912,51.05358],[0.04918,51.05361]]]]}},
{ "type":"Feature","properties":{"osm_way_id":"439209712","name":"MillBrook East","amenity":"parking"},"geometry":{"type":"MultiPolygon","coordinates":[[[[0.05089,51.0499],[0.05112,51.0499],[0.0513,51.04952],[0.05137,51.04937],[0.05154,51.04901],[0.05135,51.04895],[0.05099,51.04968],[0.05089,51.0499]]]]}},
{ "type":"Feature","properties":{"osm_way_id":"442648807","name":"Long U","amenity":"parking","other":{"access":"yes","fee":"no","smoothness":"bad","surface":"compacted"}}, "geometry":{"type":"MultiPolygon","coordinates":[[[[0.03644,51.0605],[0.03632,51.06056],[0.03624,51.06061],[0.03446,51.06151],[0.03425,51.06175],[0.0341,51.06164],[0.03432,51.06133],[0.03614,51.0604],[0.03635,51.06044],[0.03644,51.0605]]]]}},
{ "type":"Feature","properties":{"osm_way_id":"442648808","name":"Warren","amenity":"parking","other":{"access":"yes","fee":"no","smoothness":"bad","surface":"compacted"}}, "geometry":{"type":"MultiPolygon","coordinates":[[[[0.0192,51.06993],[0.01888,51.06995],[0.01889,51.07004],[0.01918,51.07001],[0.01926,51.0701],[0.01936,51.07008],[0.0192,51.06993]]]]}},
{ "type":"Feature","properties":{"osm_way_id":"442648810","name":"Trees","amenity":"parking","other":{"access":"yes","fee":"no","smoothness":"bad","surface":"compacted"}}, "geometry":{"type":"MultiPolygon","coordinates":[[[[0.04329,51.05701],[0.04302,51.05717],[0.04285,51.05714],[0.04285,51.05701],[0.04305,51.05687],[0.04325,51.05692],[0.04329,51.05701]]]]}},
{ "type":"Feature","properties":{"osm_way_id":"443827190","name":"Twyford","amenity":"parking","other":{"access":"yes","fee":"no","parking":"surface","smoothness":"bad","surface":"compacted"}}, "geometry":{"type":"MultiPolygon","coordinates":[[[[0.00845,51.07089],[0.00864,51.07093],[0.00869,51.07087],[0.00855,51.07066],[0.00835,51.07072],[0.00845,51.07089]]]]}},
{ "type":"Feature","properties":{"osm_way_id":"445244815","amenity":"parking","other":{"fee":"no","parking":"surface","surface":"asphalt"}}, "geometry":{"type":"MultiPolygon","coordinates":[[[[0.0834,50.98068],[0.08282,50.98002],[0.08285,50.98001],[0.08288,50.98],[0.08346,50.98066],[0.08344,50.98067],[0.0834,50.98068]]]]}},
{ "type":"Feature","properties":{"osm_way_id":"447832446","amenity":"parking","other":{"parking":"lane"}}, "geometry":{"type":"MultiPolygon","coordinates":[[[[0.07948,51.00578],[0.07955,51.00575],[0.07981,51.00602],[0.07973,51.00605],[0.07948,51.00578]]]]}},
{ "type":"Feature","properties":{"osm_way_id":"448203078","amenity":"parking","other":{"access":"customers","parking":"surface","surface":"asphalt"}}, "geometry":{"type":"MultiPolygon","coordinates":[[[[0.07534,50.99415],[0.07554,50.99396],[0.07539,50.99389],[0.07519,50.99409],[0.07534,50.99415]]]]}},
{ "type":"Feature","properties":{"osm_way_id":"449808374","amenity":"parking"},"geometry":{"type":"MultiPolygon","coordinates":[[[[0.22551,50.90933],[0.2255,50.90928],[0.22554,50.90923],[0.22562,50.90922],[0.22573,50.90931],[0.22574,50.90931],[0.22581,50.90929],[0.2262,50.90959],[0.22607,50.9097],[0.22582,50.90952],[0.22577,50.90955],[0.22551,50.90938],[0.2255,50.90937],[0.22549,50.90935],[0.22551,50.90933]]]]}},
{ "type":"Feature","properties":{"osm_way_id":"451557837","amenity":"parking"},"geometry":{"type":"MultiPolygon","coordinates":[[[[0.21856,51.04557],[0.21846,51.04549],[0.21864,51.0454],[0.21867,51.04538],[0.2189,51.04556],[0.21856,51.04557]]]]}},
{ "type":"Feature","properties":{"osm_way_id":"451557838","name":"Kings Arms Parking","amenity":"parking","other":{"access":"customers","parking":"surface"}}, "geometry":{"type":"MultiPolygon","coordinates":[[[[0.22022,51.04594],[0.22079,51.04622],[0.22095,51.04609],[0.22034,51.04584],[0.22022,51.04594]]]]}},
{ "type":"Feature","properties":{"osm_way_id":"451557839","name":"Rotherfield Hall Parking","amenity":"parking","other":{"access":"customers","capacity:disabled":"2"}}, "geometry":{"type":"MultiPolygon","coordinates":[[[[0.21945,51.04787],[0.21943,51.04774],[0.21963,51.04772],[0.21966,51.04786],[0.21945,51.04787]]]]}},
{ "type":"Feature","properties":{"osm_way_id":"451711654","amenity":"parking","other":{"access":"customers"}}, "geometry":{"type":"MultiPolygon","coordinates":[[[[0.24791,50.97016],[0.24814,50.97025],[0.24824,50.9701],[0.2481,50.97004],[0.24805,50.97009],[0.24791,50.97016]]]]}},
{ "type":"Feature","properties":{"osm_way_id":"453118786","amenity":"parking","other":{"access":"customers","parking":"surface"}}, "geometry":{"type":"MultiPolygon","coordinates":[[[[0.08857,50.99709],[0.08899,50.99701],[0.08893,50.99689],[0.08851,50.99697],[0.08855,50.99706],[0.08857,50.99709]]]]}},
{ "type":"Feature","properties":{"osm_way_id":"453568425","amenity":"parking","other":{"access":"customers","parking":"surface","surface":"asphalt"}}, "geometry":{"type":"MultiPolygon","coordinates":[[[[0.11587,50.95359],[0.11645,50.95327],[0.1166,50.95338],[0.11603,50.9537],[0.11587,50.95359]]]]}},
{ "type":"Feature","properties":{"osm_way_id":"454535087","name":"The Rose and Crown Car Park","amenity":"parking","other":{"access":"customers"}}, "geometry":{"type":"MultiPolygon","coordinates":[[[[0.03478,50.99426],[0.03463,50.99429],[0.03456,50.99416],[0.03472,50.99413],[0.03478,50.99426]]]]}},
{ "type":"Feature","properties":{"osm_way_id":"454535089","name":"The Griffin Car Park","amenity":"parking","other":{"access":"customers"}}, "geometry":{"type":"MultiPolygon","coordinates":[[[[0.03452,50.99386],[0.03425,50.99391],[0.03416,50.99378],[0.03443,50.99371],[0.03452,50.99386]]]]}},
{ "type":"Feature","properties":{"osm_way_id":"454535091","name":"Fletching Car Park","amenity":"parking","other":{"addr:postcode":"TN22 3SY","capacity:disabled":"1","fee":"no"}}, "geometry":{"type":"MultiPolygon","coordinates":[[[[0.03501,50.99379],[0.03542,50.99373],[0.03534,50.99359],[0.03494,50.99365],[0.03501,50.99379]]]]}},
{ "type":"Feature","properties":{"osm_way_id":"460210765","name":"The Alma Car Park","amenity":"parking","other":{"access":"customers","parking":"surface"}}, "geometry":{"type":"MultiPolygon","coordinates":[[[[0.10158,50.96678],[0.10156,50.96693],[0.10127,50.96693],[0.10128,50.96678],[0.10158,50.96678]]]]}},
{ "type":"Feature","properties":{"osm_way_id":"463042405","name":"Crockstead Equestrian Centre","amenity":"parking","other":{"access":"customers","parking":"surface","surface":"compacted"}}, "geometry":{"type":"MultiPolygon","coordinates":[[[[0.12328,50.9392],[0.12216,50.93949],[0.12193,50.93955],[0.12183,50.9394],[0.12174,50.93927],[0.1231,50.93892],[0.12328,50.9392]]]]}},
{ "type":"Feature","properties":{"osm_way_id":"463042406","name":"Crockstead Hotel","amenity":"parking","other":{"access":"customers","parking":"surface"}}, "geometry":{"type":"MultiPolygon","coordinates":[[[[0.12361,50.94076],[0.12365,50.94075],[0.12382,50.94072],[0.12393,50.94094],[0.12372,50.94098],[0.12361,50.94076]]]]}},
{ "type":"Feature","properties":{"osm_way_id":"463047538","amenity":"parking","other":{"access":"customers","parking":"surface"}}, "geometry":{"type":"MultiPolygon","coordinates":[[[[0.16168,50.91035],[0.16104,50.9105],[0.1613,50.9108],[0.16032,50.91111],[0.16005,50.91065],[0.16013,50.91052],[0.16102,50.91027],[0.16163,50.91014],[0.16168,50.91035]]]]}},
{ "type":"Feature","properties":{"osm_way_id":"463102038","amenity":"parking","other":{"access":"customers","parking":"surface"}}, "geometry":{"type":"MultiPolygon","coordinates":[[[[0.12282,50.91503],[0.12307,50.91524],[0.12287,50.91533],[0.12262,50.91513],[0.12282,50.91503]]]]}},
{ "type":"Feature","properties":{"osm_way_id":"463296956","name":"Staverton Nursery Car Park","amenity":"parking","other":{"access":"customers","parking":"surface"}}, "geometry":{"type":"MultiPolygon","coordinates":[[[[0.12949,50.9337],[0.12917,50.9334],[0.12886,50.93355],[0.1292,50.93384],[0.12949,50.9337]]]]}},
{ "type":"Feature","properties":{"osm_way_id":"465519863","amenity":"parking","other":{"access":"customers"}}, "geometry":{"type":"MultiPolygon","coordinates":[[[[0.13775,50.92925],[0.13713,50.9296],[0.1369,50.92946],[0.13725,50.92924],[0.13727,50.92923],[0.13775,50.92925]]]]}},
{ "type":"Feature","properties":{"osm_way_id":"465936576","amenity":"parking"},"geometry":{"type":"MultiPolygon","coordinates":[[[[0.06062,50.94109],[0.06038,50.94082],[0.06087,50.94079],[0.06099,50.94097],[0.06062,50.94109]]]]}},
{ "type":"Feature","properties":{"osm_way_id":"466485913","amenity":"parking","other":{"access":"customers"}}, "geometry":{"type":"MultiPolygon","coordinates":[[[[0.27481,50.95957],[0.2751,50.95955],[0.27511,50.9593],[0.2749,50.9593],[0.27489,50.95943],[0.27481,50.95957]]]]}},
{ "type":"Feature","properties":{"osm_way_id":"467823998","amenity":"parking","other":{"access":"customers"}}, "geometry":{"type":"MultiPolygon","coordinates":[[[[0.1983,50.8871],[0.19819,50.8873],[0.19825,50.88741],[0.19785,50.88752],[0.19767,50.88728],[0.1983,50.8871]]]]}},
{ "type":"Feature","properties":{"osm_way_id":"467824002","amenity":"parking","other":{"access":"customers"}}, "geometry":{"type":"MultiPolygon","coordinates":[[[[0.21391,50.88179],[0.2137,50.88139],[0.21363,50.8814],[0.21356,50.88128],[0.21367,50.88126],[0.21347,50.88087],[0.21415,50.88073],[0.21442,50.88124],[0.21394,50.88134],[0.21415,50.88174],[0.21391,50.88179]]]]}},
{ "type":"Feature","properties":{"osm_way_id":"467824005","amenity":"parking","other":{"capacity:disabled":"yes"}}, "geometry":{"type":"MultiPolygon","coordinates":[[[[0.23073,50.8795],[0.23033,50.87944],[0.23014,50.87928],[0.23024,50.87901],[0.2309,50.8791],[0.23073,50.8795]]]]}},
{ "type":"Feature","properties":{"osm_way_id":"469756754","amenity":"parking","other":{"access":"customers","parking":"surface"}}, "geometry":{"type":"MultiPolygon","coordinates":[[[[0.17608,50.89594],[0.17622,50.89572],[0.17604,50.89567],[0.17579,50.89568],[0.17562,50.89585],[0.17586,50.89594],[0.1759,50.89589],[0.17608,50.89594]]]]}},
{ "type":"Feature","properties":{"osm_way_id":"469773611","amenity":"parking","other":{"access":"customers","parking":"surface"}}, "geometry":{"type":"MultiPolygon","coordinates":[[[[0.2441,50.86201],[0.24481,50.86176],[0.24462,50.86142],[0.24371,50.86174],[0.2441,50.86201]]]]}},
{ "type":"Feature","properties":{"osm_way_id":"474808244","name":"Tompsets Banks Car Park","amenity":"parking"},"geometry":{"type":"MultiPolygon","coordinates":[[[[0.03819,51.09058],[0.03834,51.09066],[0.03855,51.09037],[0.03837,51.09032],[0.03819,51.09058]]]]}},
{ "type":"Feature","properties":{"osm_way_id":"477345271","amenity":"parking","other":{"access":"customers","parking":"surface"}}, "geometry":{"type":"MultiPolygon","coordinates":[[[[0.0445,50.98026],[0.04462,50.98004],[0.04509,50.98014],[0.04496,50.98036],[0.0445,50.98026]]]]}},
{ "type":"Feature","properties":{"osm_way_id":"480844723","amenity":"parking","other":{"access":"customers","operator":"The Lamb Inn","parking":"surface","surface":"gravel"}}, "geometry":{"type":"MultiPolygon","coordinates":[[[[0.3788,50.84871],[0.37917,50.8491],[0.37926,50.8492],[0.3797,50.84903],[0.37927,50.84858],[0.37916,50.84862],[0.37915,50.8486],[0.37899,50.84866],[0.37897,50.84864],[0.37883,50.84849],[0.37878,50.84851],[0.37876,50.8485],[0.37864,50.84854],[0.3788,50.84871]]]]}},
{ "type":"Feature","properties":{"osm_way_id":"481400202","name":"CXC","amenity":"parking","other":{"access":"customers","parking":"surface"}}, "geometry":{"type":"MultiPolygon","coordinates":[[[[0.34808,50.88196],[0.34689,50.88188],[0.34694,50.88162],[0.34814,50.88168],[0.34808,50.88196]]]]}},
{ "type":"Feature","properties":{"osm_way_id":"481437076","amenity":"parking","other":{"access":"private","parking":"surface"}}, "geometry":{"type":"MultiPolygon","coordinates":[[[[0.09667,50.97352],[0.09687,50.97345],[0.09678,50.97331],[0.09657,50.97339],[0.09666,50.9735],[0.09667,50.97352]]]]}},
{ "type":"Feature","properties":{"osm_way_id":"483647341","amenity":"parking","other":{"maxstay":"23 hours","parking":"surface"}}, "geometry":{"type":"MultiPolygon","coordinates":[[[[0.16029,51.05835],[0.16029,51.05863],[0.15988,51.05859],[0.15958,51.05857],[0.15916,51.05836],[0.15951,51.05831],[0.15971,51.0584],[0.1601,51.05841],[0.1601,51.05835],[0.16029,51.05835]]]]}},
{ "type":"Feature","properties":{"osm_way_id":"483647342","name":"Crowborough Cross","amenity":"parking","other":{"access":"customers","parking":"surface"}}, "geometry":{"type":"MultiPolygon","coordinates":[[[[0.16137,51.06049],[0.16111,51.06047],[0.16113,51.06038],[0.16134,51.0604],[0.16137,51.06049]]]]}},
{ "type":"Feature","properties":{"osm_way_id":"483703575","amenity":"parking","other":{"access":"private","parking":"surface"}}, "geometry":{"type":"MultiPolygon","coordinates":[[[[0.10478,50.96701],[0.10501,50.96643],[0.10479,50.96639],[0.10454,50.96696],[0.10478,50.96701]]]]}},
{ "type":"Feature","properties":{"osm_way_id":"484327441","amenity":"parking","other":{"access":"private","parking":"surface"}}, "geometry":{"type":"MultiPolygon","coordinates":[[[[0.0963,50.97815],[0.09599,50.97803],[0.09589,50.97813],[0.0962,50.97825],[0.0963,50.97815]]]]}},
{ "type":"Feature","properties":{"osm_way_id":"486090235","amenity":"parking"},"geometry":{"type":"MultiPolygon","coordinates":[[[[0.11053,51.10103],[0.11073,51.10126],[0.11027,51.10142],[0.11007,51.10119],[0.11053,51.10103]]]]}},
{ "type":"Feature","properties":{"osm_way_id":"486090641","amenity":"parking"},"geometry":{"type":"MultiPolygon","coordinates":[[[[0.11039,51.10226],[0.11029,51.10204],[0.11017,51.10198],[0.11013,51.10198],[0.10999,51.10201],[0.11019,51.10229],[0.11039,51.10226]]]]}},
{ "type":"Feature","properties":{"osm_way_id":"486966913","amenity":"parking","other":{"parking":"surface"}}, "geometry":{"type":"MultiPolygon","coordinates":[[[[0.24124,50.81813],[0.24062,50.81775],[0.24038,50.81787],[0.24103,50.81834],[0.24124,50.81813]]]]}},
{ "type":"Feature","properties":{"osm_way_id":"487028111","amenity":"parking","other":{"access":"customers","capacity:disabled":"5","parking":"surface"}}, "geometry":{"type":"MultiPolygon","coordinates":[[[[0.23652,50.82966],[0.23668,50.82994],[0.23643,50.82999],[0.23666,50.83021],[0.23681,50.83027],[0.23734,50.83018],[0.23724,50.83],[0.23702,50.83005],[0.23699,50.82998],[0.23741,50.82988],[0.2374,50.82984],[0.23758,50.8298],[0.23751,50.82966],[0.23734,50.82969],[0.23738,50.82977],[0.23691,50.82987],[0.23678,50.82965],[0.23663,50.82968],[0.2366,50.82964],[0.23652,50.82966]]]]}},
{ "type":"Feature","properties":{"osm_way_id":"487028112","amenity":"parking","other":{"access":"customers","parking":"surface"}}, "geometry":{"type":"MultiPolygon","coordinates":[[[[0.23713,50.82951],[0.23747,50.82944],[0.23738,50.82929],[0.23672,50.82944],[0.23678,50.82954],[0.2371,50.82946],[0.23713,50.82951]]]]}},
{ "type":"Feature","properties":{"osm_way_id":"487028118","amenity":"parking","other":{"access":"customers","capacity":"11","capacity:disabled":"10","parking":"surface","surface":"asphalt"}}, "geometry":{"type":"MultiPolygon","coordinates":[[[[0.23525,50.82996],[0.23552,50.8299],[0.23546,50.82978],[0.23521,50.82984],[0.23525,50.82996]]]]}},
{ "type":"Feature","properties":{"osm_way_id":"487028121","amenity":"parking","other":{"access":"customers","capacity:disabled":"3","parking":"surface"}}, "geometry":{"type":"MultiPolygon","coordinates":[[[[0.23634,50.82936],[0.23609,50.82891],[0.23639,50.82884],[0.23664,50.82929],[0.23634,50.82936]]]]}},
{ "type":"Feature","properties":{"osm_way_id":"487057954","amenity":"parking","other":{"access":"customers","parking":"surface"}}, "geometry":{"type":"MultiPolygon","coordinates":[[[[0.21165,50.84865],[0.2118,50.84882],[0.21161,50.84888],[0.21177,50.84907],[0.21207,50.84899],[0.21177,50.84861],[0.21165,50.84865]]]]}},
{ "type":"Feature","properties":{"osm_way_id":"487106167","amenity":"parking","other":{"access":"customers","capacity:disabled":"2"}}, "geometry":{"type":"MultiPolygon","coordinates":[[[[0.12739,51.04015],[0.12766,51.04012],[0.12805,51.04009],[0.128,51.03995],[0.12826,51.04007],[0.12833,51.04001],[0.12798,51.03984],[0.12729,51.03992],[0.12739,51.04015]]]]}},
{ "type":"Feature","properties":{"osm_way_id":"490169427","name":"Shadows","amenity":"parking","other":{"surface":"unpaved"}}, "geometry":{"type":"MultiPolygon","coordinates":[[[[0.09489,51.05845],[0.09421,51.05818],[0.09523,51.05746],[0.09546,51.05751],[0.09519,51.05804],[0.09489,51.05845]]]]}},
{ "type":"Feature","properties":{"osm_way_id":"490169432","name":"Four Counties","amenity":"parking"},"geometry":{"type":"MultiPolygon","coordinates":[[[[0.09399,51.06084],[0.09391,51.06086],[0.09378,51.06088],[0.09372,51.06089],[0.09366,51.06087],[0.09363,51.06085],[0.09363,51.0608],[0.09365,51.06075],[0.09373,51.06061],[0.09382,51.0605],[0.09389,51.06043],[0.09396,51.06038],[0.09401,51.06036],[0.09408,51.06036],[0.09421,51.06037],[0.09423,51.06039],[0.09423,51.06042],[0.09419,51.06053],[0.09416,51.06058],[0.09409,51.06069],[0.09403,51.0608],[0.09399,51.06084]]]]}},
{ "type":"Feature","properties":{"osm_way_id":"490169435","natural":"wood"},"geometry":{"type":"MultiPolygon","coordinates":[[[[0.09283,51.06447],[0.09298,51.06455],[0.09318,51.06451],[0.09316,51.06436],[0.0931,51.06429],[0.09295,51.06432],[0.09283,51.06447]]]]}},
{ "type":"Feature","properties":{"osm_way_id":"490315143","amenity":"parking","other":{"access":"customers"}}, "geometry":{"type":"MultiPolygon","coordinates":[[[[0.11519,50.98654],[0.11494,50.98629],[0.1148,50.98635],[0.11493,50.98649],[0.11468,50.98659],[0.11479,50.9867],[0.11519,50.98654]]]]}},
{ "type":"Feature","properties":{"osm_way_id":"490326521","amenity":"parking","other":{"capacity:disabled":"3","surface":"asphalt"}}, "geometry":{"type":"MultiPolygon","coordinates":[[[[0.11836,50.99195],[0.11821,50.99154],[0.11807,50.99156],[0.11822,50.99196],[0.11836,50.99195]]]]}},
{ "type":"Feature","properties":{"osm_way_id":"490512053","amenity":"parking","other":{"access":"private","surface":"gravel"}}, "geometry":{"type":"MultiPolygon","coordinates":[[[[0.13212,50.98916],[0.13182,50.98906],[0.13189,50.98897],[0.13218,50.98907],[0.13215,50.98911],[0.13212,50.98916]]]]}},
{ "type":"Feature","properties":{"osm_way_id":"490512055","name":"Buxted Medical Centre","amenity":"parking","other":{"surface":"asphalt"}}, "geometry":{"type":"MultiPolygon","coordinates":[[[[0.13169,50.98937],[0.13154,50.98933],[0.13163,50.98923],[0.13152,50.98915],[0.13164,50.98901],[0.1317,50.98903],[0.13172,50.98899],[0.13181,50.98902],[0.13179,50.98906],[0.13213,50.98917],[0.13202,50.9893],[0.13179,50.98925],[0.13169,50.98937]]]]}},
{ "type":"Feature","properties":{"osm_way_id":"490512057","amenity":"parking","other":{"access":"customers","capacity":"4","capacity:disabled":"2","surface":"asphalt"}}, "geometry":{"type":"MultiPolygon","coordinates":[[[[0.13265,50.98931],[0.13264,50.98936],[0.13238,50.98935],[0.13239,50.98929],[0.13265,50.98931]]]]}},
{ "type":"Feature","properties":{"osm_way_id":"492854643","amenity":"parking","other":{"access":"customers","parking":"surface"}}, "geometry":{"type":"MultiPolygon","coordinates":[[[[0.09905,50.9885],[0.09948,50.98863],[0.09932,50.98882],[0.09844,50.98859],[0.09861,50.98838],[0.09871,50.9884],[0.09857,50.98857],[0.09891,50.98867],[0.09905,50.9885]]]]}},
{ "type":"Feature","properties":{"osm_way_id":"492854644","amenity":"parking","other":{"access":"customers","parking":"surface"}}, "geometry":{"type":"MultiPolygon","coordinates":[[[[0.09905,50.9885],[0.09948,50.98863],[0.09971,50.98869],[0.09993,50.98833],[0.09883,50.98808],[0.09861,50.98838],[0.09871,50.9884],[0.09877,50.9883],[0.09911,50.98839],[0.09905,50.9885]]]]}},
{ "type":"Feature","properties":{"osm_way_id":"492854650","amenity":"parking","other":{"access":"customers","parking":"surface"}}, "geometry":{"type":"MultiPolygon","coordinates":[[[[0.09726,50.98943],[0.09703,50.98935],[0.09719,50.98918],[0.09742,50.98926],[0.0973,50.98938],[0.09726,50.98943]]]]}},
{ "type":"Feature","properties":{"osm_way_id":"493498527","amenity":"parking"},"geometry":{"type":"MultiPolygon","coordinates":[[[[0.25844,50.97025],[0.25827,50.97035],[0.2584,50.97051],[0.25867,50.97062],[0.25881,50.97051],[0.25844,50.97025]]]]}},
{ "type":"Feature","properties":{"osm_way_id":"493513350","amenity":"parking","other":{"access":"customers","parking":"surface"}}, "geometry":{"type":"MultiPolygon","coordinates":[[[[0.24439,50.93531],[0.24448,50.93519],[0.24459,50.93526],[0.24453,50.93536],[0.24439,50.93531]]]]}},
{ "type":"Feature","properties":{"osm_way_id":"493513354","name":"Hillside","amenity":"parking","other":{"addr:postcode":"TN21 0HL","capacity":"42","capacity:disabled":"2","fee":"no","maxstay":"23 hours","supervised":"no","wheelchair":"yes"}}, "geometry":{"type":"MultiPolygon","coordinates":[[[[0.24442,50.93474],[0.245,50.93441],[0.24485,50.93431],[0.24425,50.93465],[0.2443,50.93468],[0.24423,50.93471],[0.24429,50.93476],[0.24438,50.93471],[0.24442,50.93474]]]]}},
{ "type":"Feature","properties":{"osm_way_id":"494873897","amenity":"parking"},"geometry":{"type":"MultiPolygon","coordinates":[[[[0.22749,50.97324],[0.22787,50.97321],[0.22781,50.97296],[0.22743,50.97299],[0.22749,50.97324]]]]}},
{ "type":"Feature","properties":{"osm_way_id":"494873898","amenity":"parking"},"geometry":{"type":"MultiPolygon","coordinates":[[[[0.23006,50.97363],[0.22789,50.97349],[0.2279,50.97333],[0.23009,50.97349],[0.23006,50.97363]]]]}},
{ "type":"Feature","properties":{"osm_way_id":"494873899","amenity":"parking"},"geometry":{"type":"MultiPolygon","coordinates":[[[[0.22471,50.97342],[0.22473,50.97308],[0.22495,50.97302],[0.22503,50.97313],[0.22497,50.97343],[0.22471,50.97342]]]]}},
{ "type":"Feature","properties":{"osm_way_id":"494878725","name":"Football Club and Scout Hut","amenity":"parking","other":{"access":"customers"}}, "geometry":{"type":"MultiPolygon","coordinates":[[[[0.24015,50.93161],[0.23996,50.93146],[0.23948,50.93163],[0.23986,50.9317],[0.24015,50.93161]]]]}},
{ "type":"Feature","properties":{"osm_way_id":"494878726","amenity":"parking"},"geometry":{"type":"MultiPolygon","coordinates":[[[[0.24059,50.93019],[0.2403,50.92974],[0.2404,50.92972],[0.24069,50.93016],[0.24059,50.93019]]]]}},
{ "type":"Feature","properties":{"osm_way_id":"494878730","amenity":"parking"},"geometry":{"type":"MultiPolygon","coordinates":[[[[0.24082,50.93129],[0.24126,50.93117],[0.24116,50.93103],[0.24073,50.93115],[0.24082,50.93129]]]]}},
{ "type":"Feature","properties":{"osm_way_id":"495272188","amenity":"parking","other":{"access":"customers"}}, "geometry":{"type":"MultiPolygon","coordinates":[[[[0.11237,51.02518],[0.11253,51.02501],[0.11302,51.02519],[0.11288,51.02535],[0.11237,51.02518]]]]}},
{ "type":"Feature","properties":{"osm_way_id":"496303289","name":"The Halfway House","amenity":"parking","other":{"access":"customers"}}, "geometry":{"type":"MultiPolygon","coordinates":[[[[0.07287,50.92755],[0.0725,50.9278],[0.0721,50.92756],[0.07247,50.92731],[0.07287,50.92755]]]]}},
{ "type":"Feature","properties":{"osm_way_id":"497897046","amenity":"parking"},"geometry":{"type":"MultiPolygon","coordinates":[[[[0.02646,51.09276],[0.0261,51.09265],[0.02599,51.09256],[0.02618,51.09228],[0.02631,51.09233],[0.02672,51.09253],[0.02646,51.09276]]]]}},
{ "type":"Feature","properties":{"osm_way_id":"499433092","name":"Bede's Visitor Parking","amenity":"parking","other":{"capacity:disabled":"1"}}, "geometry":{"type":"MultiPolygon","coordinates":[[[[0.20429,50.86541],[0.20471,50.86528],[0.20461,50.86516],[0.20453,50.86519],[0.20455,50.86522],[0.20451,50.86523],[0.20449,50.8652],[0.20438,50.86524],[0.20441,50.86528],[0.20423,50.86533],[0.20427,50.86539],[0.20429,50.86541]]]]}},
{ "type":"Feature","properties":{"osm_way_id":"499454751","amenity":"parking","other":{"access":"private","parking":"surface"}}, "geometry":{"type":"MultiPolygon","coordinates":[[[[0.18369,50.89108],[0.18412,50.89095],[0.18402,50.89082],[0.18359,50.89095],[0.18369,50.89108]]]]}},
{ "type":"Feature","properties":{"osm_way_id":"499630541","amenity":"parking","other":{"access":"customers"}}, "geometry":{"type":"MultiPolygon","coordinates":[[[[0.30144,50.90764],[0.30161,50.90762],[0.30156,50.90744],[0.30138,50.90746],[0.30144,50.90764]]]]}},
{ "type":"Feature","properties":{"osm_way_id":"499962552","amenity":"parking","other":{"capacity:disabled":"1"}}, "geometry":{"type":"MultiPolygon","coordinates":[[[[0.17431,50.89557],[0.17449,50.89536],[0.17439,50.89532],[0.1742,50.89553],[0.17431,50.89557]]]]}},
{ "type":"Feature","properties":{"osm_way_id":"499962553","amenity":"parking","other":{"capacity":"2","capacity:disabled":"2","parking":"surface"}}, "geometry":{"type":"MultiPolygon","coordinates":[[[[0.17535,50.89567],[0.17537,50.89569],[0.17554,50.89563],[0.17552,50.89561],[0.17535,50.89567]]]]}},
{ "type":"Feature","properties":{"osm_way_id":"499962555","amenity":"parking"},"geometry":{"type":"MultiPolygon","coordinates":[[[[0.17527,50.89583],[0.17486,50.89569],[0.17479,50.89576],[0.1752,50.89591],[0.17527,50.89583]]]]}},
{ "type":"Feature","properties":{"osm_way_id":"500244432","name":"The Lamb","amenity":"parking","other":{"access":"customers","parking":"surface"}}, "geometry":{"type":"MultiPolygon","coordinates":[[[[0.0496,50.98108],[0.04997,50.98079],[0.04976,50.98064],[0.04958,50.98073],[0.04947,50.98079],[0.04963,50.98089],[0.04948,50.98101],[0.0496,50.98108]]]]}},
{ "type":"Feature","properties":{"osm_way_id":"501393965","amenity":"parking"},"geometry":{"type":"MultiPolygon","coordinates":[[[[0.16294,50.81987],[0.16331,50.81985],[0.16329,50.81968],[0.1629,50.81975],[0.16294,50.81987]]]]}},
{ "type":"Feature","properties":{"osm_way_id":"501393966","amenity":"parking"},"geometry":{"type":"MultiPolygon","coordinates":[[[[0.16363,50.8205],[0.16311,50.82055],[0.16315,50.8207],[0.16366,50.82065],[0.16363,50.8205]]]]}},
{ "type":"Feature","properties":{"osm_way_id":"502492893","amenity":"parking"},"geometry":{"type":"MultiPolygon","coordinates":[[[[0.25273,50.80666],[0.25313,50.80672],[0.2532,50.80653],[0.25321,50.8065],[0.25317,50.80649],[0.2531,50.80648],[0.25313,50.80641],[0.25285,50.80636],[0.25273,50.80666]]]]}},
{ "type":"Feature","properties":{"osm_way_id":"505659713","amenity":"parking","other":{"access":"customers","parking":"surface"}}, "geometry":{"type":"MultiPolygon","coordinates":[[[[0.06025,51.02633],[0.06071,51.02589],[0.06094,51.026],[0.0607,51.02624],[0.06058,51.02619],[0.06038,51.02639],[0.06025,51.02633]]]]}},
{ "type":"Feature","properties":{"osm_way_id":"505659720","amenity":"parking","other":{"access":"customers","parking":"surface"}}, "geometry":{"type":"MultiPolygon","coordinates":[[[[0.0548,51.03433],[0.05487,51.03418],[0.05506,51.03422],[0.05503,51.03435],[0.05493,51.03434],[0.0548,51.03433]]]]}},
{ "type":"Feature","properties":{"osm_way_id":"505659721","amenity":"parking","other":{"access":"customers","parking":"surface"}}, "geometry":{"type":"MultiPolygon","coordinates":[[[[0.055,51.03449],[0.05474,51.03447],[0.0548,51.03433],[0.05493,51.03434],[0.05503,51.03435],[0.055,51.03449]]]]}},
{ "type":"Feature","properties":{"osm_way_id":"506550575","amenity":"parking","other":{"access":"private"}}, "geometry":{"type":"MultiPolygon","coordinates":[[[[0.0532,51.0339],[0.05333,51.03389],[0.05331,51.0337],[0.05318,51.03371],[0.0532,51.0339]]]]}},
{ "type":"Feature","properties":{"osm_way_id":"506550584","name":"Nutley War Memorial Hall","amenity":"parking","other":{"access":"private","parking":"surface"}}, "geometry":{"type":"MultiPolygon","coordinates":[[[[0.05512,51.03315],[0.05433,51.03308],[0.05435,51.03294],[0.05513,51.03304],[0.05512,51.03315]]]]}},
{ "type":"Feature","properties":{"osm_way_id":"507090647","amenity":"parking","other":{"access":"customers","parking":"surface"}}, "geometry":{"type":"MultiPolygon","coordinates":[[[[0.10403,50.95603],[0.10388,50.95622],[0.10377,50.95618],[0.10381,50.95612],[0.10378,50.95611],[0.10388,50.95598],[0.10403,50.95603]]]]}},
{ "type":"Feature","properties":{"osm_way_id":"511256297","amenity":"parking","other":{"access":"customers","fee":"no","parking":"surface"}}, "geometry":{"type":"MultiPolygon","coordinates":[[[[0.03766,51.09967],[0.0379,51.09953],[0.03777,51.09944],[0.03753,51.09959],[0.03766,51.09967]]]]}},
{ "type":"Feature","properties":{"osm_way_id":"511256316","amenity":"parking","other":{"access":"private"}}, "geometry":{"type":"MultiPolygon","coordinates":[[[[0.03683,51.0987],[0.03701,51.09857],[0.0367,51.09842],[0.03653,51.09855],[0.03683,51.0987]]]]}},
{ "type":"Feature","properties":{"osm_way_id":"511256438","amenity":"parking","other":{"access":"customers"}}, "geometry":{"type":"MultiPolygon","coordinates":[[[[0.03313,51.09852],[0.0328,51.09821],[0.03267,51.09827],[0.03272,51.09842],[0.03289,51.09841],[0.03304,51.09856],[0.03313,51.09852]]]]}},
{ "type":"Feature","properties":{"osm_way_id":"511287480","amenity":"parking","other":{"access":"customers","parking":"surface"}}, "geometry":{"type":"MultiPolygon","coordinates":[[[[0.03293,51.09714],[0.03311,51.09716],[0.03315,51.09695],[0.03297,51.09694],[0.03293,51.09714]]]]}},
{ "type":"Feature","properties":{"osm_way_id":"511298851","amenity":"parking","other":{"access":"customers"}}, "geometry":{"type":"MultiPolygon","coordinates":[[[[0.03269,51.09891],[0.03255,51.09894],[0.03246,51.09876],[0.03259,51.09873],[0.03269,51.09891]]]]}},
{ "type":"Feature","properties":{"osm_way_id":"511298856","amenity":"parking","other":{"access":"customers"}}, "geometry":{"type":"MultiPolygon","coordinates":[[[[0.0339,51.10063],[0.03423,51.10044],[0.034,51.10021],[0.03384,51.1003],[0.03396,51.10041],[0.03373,51.1005],[0.0339,51.10063]]]]}},
{ "type":"Feature","properties":{"osm_way_id":"513275497","name":"Weir Wood Reservoir Local Nature Reserve","amenity":"parking","other":{"surface":"gravel"}}, "geometry":{"type":"MultiPolygon","coordinates":[[[[-0.02653,51.08984],[-0.02623,51.08981],[-0.02581,51.08968],[-0.02596,51.08956],[-0.02638,51.08963],[-0.02662,51.08969],[-0.02653,51.08984]]]]}},
{ "type":"Feature","properties":{"osm_way_id":"513963905","amenity":"parking"},"geometry":{"type":"MultiPolygon","coordinates":[[[[0.2539,50.87449],[0.25438,50.87441],[0.25449,50.87469],[0.25436,50.87472],[0.2543,50.87473],[0.25424,50.87458],[0.25395,50.87462],[0.2539,50.87449]]]]}},
{ "type":"Feature","properties":{"osm_way_id":"514303528","amenity":"parking","other":{"fee":"no","park_ride":"no","parking":"surface","supervised":"no","surface":"grass"}}, "geometry":{"type":"MultiPolygon","coordinates":[[[[0.33771,50.86863],[0.33767,50.86845],[0.33823,50.86806],[0.33833,50.86834],[0.33945,50.86818],[0.33977,50.86845],[0.33771,50.86863]]]]}},
{ "type":"Feature","properties":{"osm_way_id":"514316764","amenity":"parking","other":{"access":"private"}}, "geometry":{"type":"MultiPolygon","coordinates":[[[[0.10088,50.96646],[0.10088,50.96635],[0.10043,50.96636],[0.10044,50.96647],[0.10088,50.96646]]]]}},
{ "type":"Feature","properties":{"osm_way_id":"515082594","name":"Millington Court","amenity":"parking","other":{"access":"private","parking":"surface"}}, "geometry":{"type":"MultiPolygon","coordinates":[[[[0.09908,50.96835],[0.09884,50.96833],[0.09885,50.96823],[0.09909,50.96822],[0.09908,50.96835]]]]}},
{ "type":"Feature","properties":{"osm_way_id":"522167613","amenity":"parking","other":{"access":"private","capacity":"13","fee":"no","park_ride":"no","parking":"surface","supervised":"no"}}, "geometry":{"type":"MultiPolygon","coordinates":[[[[0.24448,50.93481],[0.24473,50.93487],[0.24456,50.93504],[0.24434,50.93494],[0.24448,50.93481]]]]}},
{ "type":"Feature","properties":{"osm_way_id":"524851454","amenity":"parking","other":{"access":"customers","capacity":"6","fee":"no","operator":"Hidden Spring Vineyard","parking":"surface"}}, "geometry":{"type":"MultiPolygon","coordinates":[[[[0.25374,50.93624],[0.25395,50.93621],[0.2539,50.93604],[0.25389,50.93603],[0.25368,50.93605],[0.25374,50.93624]]]]}},
{ "type":"Feature","properties":{"osm_way_id":"532549864","name":"Isenhurst Health Club","amenity":"parking","other":{"access":"customers","parking":"surface"}}, "geometry":{"type":"MultiPolygon","coordinates":[[[[0.09089,50.96889],[0.09093,50.96836],[0.09123,50.96838],[0.09122,50.96847],[0.09113,50.96847],[0.0911,50.9687],[0.09115,50.9687],[0.09114,50.96887],[0.09113,50.9689],[0.09089,50.96889]]]]}},
{ "type":"Feature","properties":{"osm_way_id":"532763620","amenity":"parking","other":{"access":"private","capacity":"9","capacity:disabled":"5"}}, "geometry":{"type":"MultiPolygon","coordinates":[[[[0.09662,50.97958],[0.09675,50.97939],[0.09695,50.97944],[0.09691,50.9795],[0.09686,50.97948],[0.09681,50.97956],[0.09687,50.97957],[0.09678,50.9797],[0.09665,50.97966],[0.09669,50.9796],[0.09662,50.97958]]]]}},
{ "type":"Feature","properties":{"osm_way_id":"536747404","amenity":"parking","other":{"access":"customers"}}, "geometry":{"type":"MultiPolygon","coordinates":[[[[0.12797,50.96388],[0.1275,50.96371],[0.12757,50.96355],[0.12776,50.96359],[0.1277,50.96369],[0.12803,50.9638],[0.12797,50.96388]]]]}},
{ "type":"Feature","properties":{"osm_way_id":"536747448","amenity":"parking","other":{"access":"customers"}}, "geometry":{"type":"MultiPolygon","coordinates":[[[[0.12464,50.96812],[0.12442,50.96813],[0.12442,50.96806],[0.12463,50.96806],[0.12464,50.96812]]]]}},
{ "type":"Feature","properties":{"osm_way_id":"539987596","amenity":"parking","other":{"access":"customers","parking":"surface"}}, "geometry":{"type":"MultiPolygon","coordinates":[[[[0.10102,50.98356],[0.10072,50.98354],[0.10073,50.98335],[0.10104,50.98337],[0.10102,50.98356]]]]}},
{ "type":"Feature","properties":{"osm_way_id":"540027754","amenity":"parking"},"geometry":{"type":"MultiPolygon","coordinates":[[[[0.10172,50.95561],[0.10149,50.95563],[0.10141,50.95551],[0.10138,50.95544],[0.10153,50.95532],[0.1017,50.95558],[0.10172,50.95561]]]]}},
{ "type":"Feature","properties":{"osm_way_id":"541740194","name":"Luxford Field Car Park","amenity":"parking","other":{"capacity":"254","fee":"no","lit":"yes","maxstay":"180","operator":"Wealden District Council"}}, "geometry":{"type":"MultiPolygon","coordinates":[[[[0.09534,50.97206],[0.09536,50.97211],[0.09563,50.97208],[0.09572,50.97235],[0.09594,50.9723],[0.09583,50.97191],[0.09577,50.9717],[0.09567,50.97139],[0.09564,50.97126],[0.09513,50.97129],[0.09513,50.97135],[0.09524,50.9717],[0.09534,50.97206]]]]}},
{ "type":"Feature","properties":{"osm_way_id":"541742942","name":"Osborn Hall Car Park","amenity":"parking"},"geometry":{"type":"MultiPolygon","coordinates":[[[[0.10462,50.97297],[0.10473,50.97283],[0.10489,50.97289],[0.10476,50.97302],[0.10462,50.97297]]]]}},
{ "type":"Feature","properties":{"osm_way_id":"542613615","amenity":"parking","other":{"parking":"surface"}}, "geometry":{"type":"MultiPolygon","coordinates":[[[[0.034,51.0942],[0.03382,51.09405],[0.03374,51.09402],[0.03367,51.09386],[0.03368,51.09385],[0.03386,51.09382],[0.0341,51.09377],[0.03418,51.09392],[0.03395,51.09396],[0.03418,51.09415],[0.034,51.0942]]]]}},
{ "type":"Feature","properties":{"osm_way_id":"542765335","amenity":"parking"},"geometry":{"type":"MultiPolygon","coordinates":[[[[0.04566,51.09612],[0.04554,51.0959],[0.04564,51.09588],[0.04569,51.09587],[0.04582,51.09608],[0.04566,51.09612]]]]}},
{ "type":"Feature","properties":{"osm_way_id":"542769533","amenity":"parking","other":{"parking":"surface","surface":"gravel"}}, "geometry":{"type":"MultiPolygon","coordinates":[[[[0.04595,51.09861],[0.04592,51.09852],[0.04591,51.09848],[0.046,51.09846],[0.04613,51.0984],[0.04613,51.09837],[0.04643,51.09835],[0.04645,51.09843],[0.04648,51.09853],[0.04638,51.09855],[0.0463,51.09853],[0.04628,51.09853],[0.04627,51.09858],[0.04611,51.09861],[0.04595,51.09861]]]]}},
{ "type":"Feature","properties":{"osm_way_id":"542981424","amenity":"parking"},"geometry":{"type":"MultiPolygon","coordinates":[[[[0.04088,51.09567],[0.04085,51.09561],[0.04082,51.09556],[0.04051,51.09561],[0.04054,51.09566],[0.04056,51.09573],[0.04088,51.09567]]]]}},
{ "type":"Feature","properties":{"osm_way_id":"542986223","amenity":"parking"},"geometry":{"type":"MultiPolygon","coordinates":[[[[0.05278,51.10093],[0.05255,51.10091],[0.05218,51.1007],[0.05239,51.10058],[0.05257,51.10058],[0.05295,51.10076],[0.05278,51.10093]]]]}},
{ "type":"Feature","properties":{"osm_way_id":"542986224","amenity":"parking"},"geometry":{"type":"MultiPolygon","coordinates":[[[[0.05323,51.09897],[0.05349,51.09905],[0.05366,51.09869],[0.05359,51.09868],[0.05332,51.09884],[0.05323,51.09897]]]]}},
{ "type":"Feature","properties":{"osm_way_id":"542986299","amenity":"parking"},"geometry":{"type":"MultiPolygon","coordinates":[[[[0.03943,51.09021],[0.03955,51.09024],[0.03966,51.09026],[0.03984,51.08998],[0.03961,51.08992],[0.03943,51.09021]]]]}},
{ "type":"Feature","properties":{"osm_way_id":"542986300","amenity":"parking"},"geometry":{"type":"MultiPolygon","coordinates":[[[[0.04188,51.08923],[0.04162,51.08908],[0.04152,51.08903],[0.0416,51.08891],[0.04166,51.08881],[0.04173,51.08874],[0.04182,51.08867],[0.04188,51.0887],[0.04199,51.08861],[0.04202,51.08863],[0.04233,51.08889],[0.04194,51.08911],[0.042,51.08916],[0.04188,51.08923]]]]}},
{ "type":"Feature","properties":{"osm_way_id":"542986301","amenity":"parking"},"geometry":{"type":"MultiPolygon","coordinates":[[[[0.04172,51.08825],[0.042,51.0883],[0.04216,51.08795],[0.04176,51.08788],[0.04159,51.08815],[0.04172,51.08825]]]]}},
{ "type":"Feature","properties":{"osm_way_id":"544350670","name":"Groombridge Car Park","amenity":"parking","other":{"capacity":"16","capacity:disabled":"1","fee":"no"}}, "geometry":{"type":"MultiPolygon","coordinates":[[[[0.18666,51.11465],[0.18644,51.11475],[0.18617,51.11453],[0.18639,51.11442],[0.18666,51.11465]]]]}},
{ "type":"Feature","properties":{"osm_way_id":"546426165","amenity":"parking","other":{"access":"customers"}}, "geometry":{"type":"MultiPolygon","coordinates":[[[[0.06401,50.98427],[0.06444,50.98428],[0.06444,50.98431],[0.06474,50.98434],[0.06509,50.98437],[0.06491,50.98466],[0.0646,50.98467],[0.0646,50.98459],[0.06428,50.98456],[0.06429,50.98465],[0.06391,50.98466],[0.06389,50.98459],[0.06401,50.98427]]]]}},
{ "type":"Feature","properties":{"osm_way_id":"546426214","name":"The Peacock Inn Car Park","amenity":"parking","other":{"access":"customers"}}, "geometry":{"type":"MultiPolygon","coordinates":[[[[0.06433,50.9746],[0.06443,50.97468],[0.0645,50.9745],[0.06434,50.97455],[0.06433,50.9746]]]]}},
{ "type":"Feature","properties":{"osm_way_id":"546426215","name":"The Peacock Inn Car Park","amenity":"parking","other":{"access":"customers"}}, "geometry":{"type":"MultiPolygon","coordinates":[[[[0.06483,50.97472],[0.06497,50.97443],[0.0649,50.97432],[0.06477,50.97428],[0.06458,50.97466],[0.06483,50.97472]]]]}},
{ "type":"Feature","properties":{"osm_way_id":"547449425","amenity":"parking","other":{"access":"private"}}, "geometry":{"type":"MultiPolygon","coordinates":[[[[0.21045,50.88422],[0.20975,50.88441],[0.20938,50.8839],[0.20973,50.8838],[0.20982,50.88392],[0.21017,50.88382],[0.21045,50.88422]]]]}},
{ "type":"Feature","properties":{"osm_way_id":"547992345","amenity":"parking","other":{"access":"private"}}, "geometry":{"type":"MultiPolygon","coordinates":[[[[0.09763,50.97174],[0.0974,50.97177],[0.09736,50.97167],[0.0973,50.97168],[0.09732,50.97174],[0.09708,50.97177],[0.09702,50.97161],[0.09729,50.97157],[0.09731,50.97162],[0.09757,50.97159],[0.09763,50.97174]]]]}},
{ "type":"Feature","properties":{"osm_way_id":"547992346","amenity":"parking","other":{"access":"private"}}, "geometry":{"type":"MultiPolygon","coordinates":[[[[0.09674,50.97046],[0.09701,50.97046],[0.09701,50.97024],[0.09673,50.97035],[0.09674,50.97046]]]]}},
{ "type":"Feature","properties":{"osm_way_id":"548750573","name":"Blue Anchor","amenity":"parking","other":{"access":"customers"}}, "geometry":{"type":"MultiPolygon","coordinates":[[[[0.15206,51.05204],[0.15224,51.05226],[0.15209,51.05231],[0.15202,51.05223],[0.15171,51.05233],[0.1516,51.0522],[0.15206,51.05204]]]]}},
{ "type":"Feature","properties":{"osm_way_id":"548750606","amenity":"parking","other":{"access":"private"}}, "geometry":{"type":"MultiPolygon","coordinates":[[[[0.09706,50.97029],[0.09729,50.97029],[0.09728,50.97017],[0.09705,50.97018],[0.09706,50.97029]]]]}},
{ "type":"Feature","properties":{"osm_way_id":"548750608","amenity":"parking","other":{"access":"private"}}, "geometry":{"type":"MultiPolygon","coordinates":[[[[0.09686,50.96998],[0.09694,50.97018],[0.09714,50.97015],[0.09711,50.96994],[0.09686,50.96998]]]]}},
{ "type":"Feature","properties":{"osm_way_id":"548907412","name":"Wych Cross Garden Centre","amenity":"parking","other":{"access":"customers"}}, "geometry":{"type":"MultiPolygon","coordinates":[[[[0.02615,51.0706],[0.02635,51.07029],[0.02604,51.07021],[0.02601,51.07025],[0.02586,51.07021],[0.02589,51.07017],[0.0256,51.0701],[0.02569,51.06996],[0.02547,51.0699],[0.02533,51.07004],[0.02525,51.07014],[0.02601,51.07053],[0.02607,51.07053],[0.0261,51.07054],[0.02612,51.07056],[0.02613,51.07059],[0.02615,51.0706]]]]}},
{ "type":"Feature","properties":{"osm_way_id":"548907415","name":"Roebuck Hotel","amenity":"parking","other":{"access":"customers"}}, "geometry":{"type":"MultiPolygon","coordinates":[[[[0.02489,51.06934],[0.02524,51.0693],[0.02526,51.06924],[0.02529,51.06914],[0.02507,51.06909],[0.02511,51.06902],[0.02515,51.06893],[0.02492,51.06888],[0.02489,51.06934]]]]}},
{ "type":"Feature","properties":{"osm_way_id":"548907418","amenity":"parking","other":{"access":"customers"}}, "geometry":{"type":"MultiPolygon","coordinates":[[[[0.02526,51.0698],[0.02525,51.06961],[0.02519,51.06961],[0.02519,51.0695],[0.02549,51.06949],[0.02547,51.06982],[0.02531,51.06999],[0.02516,51.06991],[0.02516,51.06985],[0.02513,51.06985],[0.02514,51.06997],[0.02505,51.07006],[0.02495,51.07],[0.02493,51.0699],[0.02495,51.06949],[0.02516,51.0695],[0.02516,51.06961],[0.02506,51.06961],[0.02505,51.06979],[0.02526,51.0698]]]]}},
{ "type":"Feature","properties":{"osm_way_id":"549801304","amenity":"parking","other":{"access":"customers"}}, "geometry":{"type":"MultiPolygon","coordinates":[[[[0.14847,51.04806],[0.14872,51.04801],[0.1487,51.04796],[0.14848,51.04792],[0.14836,51.04795],[0.14847,51.04806]]]]}},
{ "type":"Feature","properties":{"osm_way_id":"549801306","name":"Crowborough Beacon Golf Club","amenity":"parking","other":{"access":"customers"}}, "geometry":{"type":"MultiPolygon","coordinates":[[[[0.14792,51.04805],[0.1483,51.04789],[0.14824,51.0478],[0.14811,51.04779],[0.14793,51.04786],[0.14786,51.04802],[0.14792,51.04805]]]]}},
{ "type":"Feature","properties":{"osm_way_id":"549801308","name":"Crowborough Beacon Golf Club","amenity":"parking","other":{"access":"customers"}}, "geometry":{"type":"MultiPolygon","coordinates":[[[[0.14853,51.04842],[0.14946,51.0484],[0.14968,51.04813],[0.14913,51.04807],[0.14848,51.04821],[0.14853,51.04842]]]]}},
{ "type":"Feature","properties":{"osm_way_id":"550715232","amenity":"parking","other":{"access":"customers","parking":"surface"}}, "geometry":{"type":"MultiPolygon","coordinates":[[[[0.32219,50.88977],[0.32225,50.88974],[0.32217,50.88966],[0.32222,50.88939],[0.322,50.88932],[0.32186,50.88946],[0.32196,50.8895],[0.32192,50.88955],[0.32196,50.88956],[0.32192,50.8896],[0.32193,50.88963],[0.32219,50.88977]]]]}},
{ "type":"Feature","properties":{"osm_way_id":"550715233","name":"Woolpack Parking","amenity":"parking","other":{"access":"customers","parking":"surface"}}, "geometry":{"type":"MultiPolygon","coordinates":[[[[0.32264,50.88974],[0.32239,50.88986],[0.32225,50.88974],[0.32262,50.88965],[0.32263,50.88968],[0.32285,50.88964],[0.32264,50.88974]]]]}},
{ "type":"Feature","properties":{"osm_way_id":"550719902","amenity":"parking"},"geometry":{"type":"MultiPolygon","coordinates":[[[[0.11036,51.1025],[0.11066,51.10243],[0.11062,51.10235],[0.1103,51.10242],[0.11036,51.1025]]]]}},
{ "type":"Feature","properties":{"osm_way_id":"550895503","amenity":"parking","other":{"surface":"asphalt"}}, "geometry":{"type":"MultiPolygon","coordinates":[[[[0.31873,50.88785],[0.31892,50.88795],[0.31918,50.88775],[0.31913,50.88772],[0.31917,50.8877],[0.31936,50.88781],[0.31931,50.88784],[0.3196,50.88801],[0.31979,50.88791],[0.31913,50.88757],[0.31905,50.88768],[0.31899,50.88766],[0.31873,50.88785]]]]}},
{ "type":"Feature","properties":{"osm_way_id":"550955193","name":"Blacksmiths Arms","amenity":"parking","other":{"access":"customers"}}, "geometry":{"type":"MultiPolygon","coordinates":[[[[0.13565,50.92968],[0.13548,50.92955],[0.13533,50.92963],[0.13546,50.92973],[0.13552,50.9297],[0.13555,50.92968],[0.13559,50.92971],[0.13565,50.92968]]]]}},
{ "type":"Feature","properties":{"osm_way_id":"551273227","amenity":"parking","other":{"access":"private"}}, "geometry":{"type":"MultiPolygon","coordinates":[[[[0.10884,51.00176],[0.10937,51.00166],[0.10934,51.00159],[0.10915,51.00163],[0.1091,51.0015],[0.10876,51.00156],[0.10884,51.00176]]]]}},
{ "type":"Feature","properties":{"osm_way_id":"551487438","amenity":"parking","other":{"access":"customers"}}, "geometry":{"type":"MultiPolygon","coordinates":[[[[0.21686,50.88198],[0.21709,50.88187],[0.21705,50.88184],[0.21725,50.88175],[0.21718,50.8817],[0.21696,50.88175],[0.2169,50.88167],[0.21661,50.88177],[0.21686,50.88198]]]]}},
{ "type":"Feature","properties":{"osm_way_id":"553622546","amenity":"parking","other":{"access":"customers"}}, "geometry":{"type":"MultiPolygon","coordinates":[[[[0.16596,50.96725],[0.16604,50.96701],[0.16599,50.96701],[0.16589,50.967],[0.1657,50.96722],[0.16596,50.96725]]]]}},
{ "type":"Feature","properties":{"osm_way_id":"553622547","amenity":"parking","other":{"access":"customers"}}, "geometry":{"type":"MultiPolygon","coordinates":[[[[0.16634,50.96711],[0.16627,50.96689],[0.16623,50.96689],[0.16618,50.96689],[0.16611,50.96708],[0.16634,50.96711]]]]}},
{ "type":"Feature","properties":{"osm_way_id":"554329256","name":"Quarry","amenity":"parking"},"geometry":{"type":"MultiPolygon","coordinates":[[[[0.09615,51.06817],[0.096,51.06824],[0.09597,51.06836],[0.0961,51.06843],[0.0963,51.06851],[0.09645,51.06854],[0.09684,51.06827],[0.09676,51.06826],[0.09664,51.06829],[0.09647,51.06827],[0.09615,51.06817]]]]}},
{ "type":"Feature","properties":{"osm_way_id":"560840082","amenity":"parking","other":{"capacity":"6"}}, "geometry":{"type":"MultiPolygon","coordinates":[[[[0.08159,50.97026],[0.08154,50.97028],[0.08145,50.97025],[0.08146,50.97019],[0.08148,50.97017],[0.08151,50.97012],[0.08164,50.97016],[0.08162,50.9702],[0.08161,50.97023],[0.08159,50.97026]]]]}},
{ "type":"Feature","properties":{"osm_way_id":"570729208","amenity":"parking"},"geometry":{"type":"MultiPolygon","coordinates":[[[[0.2701,50.81832],[0.2704,50.81825],[0.2703,50.81806],[0.27024,50.81818],[0.2701,50.81832]]]]}},
{ "type":"Feature","properties":{"osm_way_id":"570729209","amenity":"parking"},"geometry":{"type":"MultiPolygon","coordinates":[[[[0.27035,50.81955],[0.27043,50.81972],[0.27061,50.81969],[0.27058,50.8195],[0.27035,50.81955]]]]}},
{ "type":"Feature","properties":{"osm_way_id":"571462165","amenity":"parking"},"geometry":{"type":"MultiPolygon","coordinates":[[[[0.05542,50.98107],[0.05554,50.98121],[0.0557,50.98116],[0.05575,50.98115],[0.05564,50.98098],[0.05553,50.98102],[0.05542,50.98107]]]]}},
{ "type":"Feature","properties":{"osm_way_id":"571462167","amenity":"parking"},"geometry":{"type":"MultiPolygon","coordinates":[[[[0.06107,50.97884],[0.06103,50.97869],[0.06117,50.97868],[0.06157,50.97872],[0.06157,50.97875],[0.06155,50.97876],[0.06129,50.97892],[0.06117,50.97889],[0.06107,50.97884]]]]}},
{ "type":"Feature","properties":{"osm_way_id":"575686635","amenity":"parking"},"geometry":{"type":"MultiPolygon","coordinates":[[[[0.18931,51.05357],[0.18983,51.0538],[0.18943,51.05413],[0.18917,51.05406],[0.1893,51.05389],[0.18901,51.05381],[0.18931,51.05357]]]]}},
{ "type":"Feature","properties":{"osm_way_id":"578192442","amenity":"parking","other":{"access":"yes"}}, "geometry":{"type":"MultiPolygon","coordinates":[[[[0.21459,50.79028],[0.21484,50.79025],[0.21484,50.79012],[0.21453,50.79004],[0.21455,50.7901],[0.21462,50.7901],[0.21467,50.79011],[0.21467,50.79015],[0.21463,50.79015],[0.21458,50.79016],[0.21456,50.79016],[0.21459,50.79028]]]]}},
{ "type":"Feature","properties":{"osm_way_id":"580597477","amenity":"parking"},"geometry":{"type":"MultiPolygon","coordinates":[[[[0.0886,50.99633],[0.08877,50.99625],[0.08896,50.99623],[0.08901,50.99626],[0.08884,50.99635],[0.08876,50.99634],[0.08865,50.99638],[0.08863,50.99636],[0.0886,50.99633]]]]}},
{ "type":"Feature","properties":{"osm_way_id":"580597479","amenity":"parking"},"geometry":{"type":"MultiPolygon","coordinates":[[[[0.08841,50.99621],[0.08844,50.99617],[0.08812,50.99596],[0.08766,50.99572],[0.08764,50.99578],[0.08791,50.99592],[0.08827,50.99614],[0.08841,50.99621]]]]}},
{ "type":"Feature","properties":{"osm_way_id":"581345909","amenity":"parking"},"geometry":{"type":"MultiPolygon","coordinates":[[[[0.11607,50.98873],[0.11619,50.9887],[0.1157,50.98787],[0.11557,50.98789],[0.11607,50.98873]]]]}},
{ "type":"Feature","properties":{"osm_way_id":"581635462","amenity":"parking","other":{"access":"private"}}, "geometry":{"type":"MultiPolygon","coordinates":[[[[0.10151,50.98405],[0.10144,50.98428],[0.10178,50.98428],[0.1018,50.98418],[0.10162,50.98417],[0.10163,50.98406],[0.10151,50.98405]]]]}},
{ "type":"Feature","properties":{"osm_way_id":"585121285","amenity":"parking"},"geometry":{"type":"MultiPolygon","coordinates":[[[[0.16004,50.7951],[0.16021,50.79551],[0.16026,50.79557],[0.16051,50.79549],[0.16019,50.79504],[0.16004,50.7951]]]]}},
{ "type":"Feature","properties":{"osm_way_id":"587842012","amenity":"parking","other":{"access":"private"}}, "geometry":{"type":"MultiPolygon","coordinates":[[[[0.24835,50.97109],[0.24852,50.97114],[0.24864,50.97098],[0.24847,50.97093],[0.24835,50.97109]]]]}},
{ "type":"Feature","properties":{"osm_way_id":"587842013","amenity":"parking","other":{"access":"customers"}}, "geometry":{"type":"MultiPolygon","coordinates":[[[[0.24819,50.97124],[0.24805,50.9712],[0.24816,50.97107],[0.24807,50.97105],[0.24821,50.97086],[0.24837,50.97091],[0.24834,50.97094],[0.24826,50.97104],[0.24833,50.97106],[0.24819,50.97124]]]]}},
{ "type":"Feature","properties":{"osm_way_id":"587863886","amenity":"parking","other":{"access":"customers"}}, "geometry":{"type":"MultiPolygon","coordinates":[[[[0.12315,50.94102],[0.12331,50.94134],[0.12363,50.94128],[0.12346,50.94096],[0.12315,50.94102]]]]}},
{ "type":"Feature","properties":{"osm_way_id":"587863887","amenity":"parking","other":{"access":"customers"}}, "geometry":{"type":"MultiPolygon","coordinates":[[[[0.1242,50.94107],[0.1243,50.94125],[0.12388,50.94133],[0.12379,50.94116],[0.1242,50.94107]]]]}},
{ "type":"Feature","properties":{"osm_way_id":"593325466","amenity":"parking","other":{"access":"private"}}, "geometry":{"type":"MultiPolygon","coordinates":[[[[0.11951,50.95188],[0.11977,50.95183],[0.11984,50.95198],[0.11958,50.95203],[0.11951,50.95188]]]]}},
{ "type":"Feature","properties":{"osm_way_id":"593344413","amenity":"parking","other":{"access":"private"}}, "geometry":{"type":"MultiPolygon","coordinates":[[[[0.13546,50.92973],[0.13552,50.9297],[0.13557,50.92974],[0.13552,50.92977],[0.13546,50.92973]]]]}},
{ "type":"Feature","properties":{"osm_way_id":"598611567","amenity":"parking","other":{"access":"customers","capacity":"50","parking":"surface"}}, "geometry":{"type":"MultiPolygon","coordinates":[[[[0.00345,51.01975],[0.00363,51.01958],[0.00383,51.01969],[0.0041,51.01972],[0.00414,51.01966],[0.00414,51.01966],[0.00398,51.01961],[0.00386,51.01958],[0.00378,51.01955],[0.0037,51.0195],[0.00357,51.01955],[0.00351,51.01948],[0.00349,51.01944],[0.00347,51.01945],[0.00336,51.01948],[0.00328,51.01951],[0.00318,51.01955],[0.00345,51.01975]]]]}},
{ "type":"Feature","properties":{"osm_way_id":"601648217","amenity":"parking"},"geometry":{"type":"MultiPolygon","coordinates":[[[[0.27083,50.81934],[0.27089,50.81944],[0.27126,50.81938],[0.2712,50.81926],[0.27083,50.81934]]]]}},
{ "type":"Feature","properties":{"osm_way_id":"601648218","amenity":"parking"},"geometry":{"type":"MultiPolygon","coordinates":[[[[0.27128,50.81923],[0.27134,50.81934],[0.27171,50.81927],[0.27165,50.81915],[0.27128,50.81923]]]]}},
{ "type":"Feature","properties":{"osm_way_id":"605246417","amenity":"parking"},"geometry":{"type":"MultiPolygon","coordinates":[[[[0.17676,51.05008],[0.17664,51.05001],[0.17675,51.04993],[0.17686,51.04991],[0.17684,51.04998],[0.17676,51.05008]]]]}},
{ "type":"Feature","properties":{"osm_way_id":"613986608","amenity":"parking"},"geometry":{"type":"MultiPolygon","coordinates":[[[[0.06104,50.93852],[0.06124,50.93846],[0.0611,50.93822],[0.06091,50.93827],[0.06104,50.93852]]]]}},
{ "type":"Feature","properties":{"osm_way_id":"613999707","amenity":"parking","other":{"access":"private"}}, "geometry":{"type":"MultiPolygon","coordinates":[[[[0.06138,50.94392],[0.06056,50.944],[0.06067,50.94432],[0.06088,50.94429],[0.06082,50.94407],[0.0614,50.94401],[0.06138,50.94392]]]]}},
{ "type":"Feature","properties":{"osm_way_id":"615618421","name":"St Bartholomew’s Church","amenity":"parking"},"geometry":{"type":"MultiPolygon","coordinates":[[[[0.08695,50.99724],[0.087,50.99744],[0.0871,50.99742],[0.08727,50.99739],[0.08728,50.99721],[0.08703,50.99723],[0.08695,50.99724]]]]}},
{ "type":"Feature","properties":{"osm_way_id":"618050642","name":"Staff Only","amenity":"parking"},"geometry":{"type":"MultiPolygon","coordinates":[[[[0.10572,50.96618],[0.10566,50.96628],[0.1051,50.96617],[0.10512,50.96613],[0.1048,50.96606],[0.10485,50.96598],[0.10572,50.96618]]]]}},
{ "type":"Feature","properties":{"osm_way_id":"618050643","amenity":"parking"},"geometry":{"type":"MultiPolygon","coordinates":[[[[0.10614,50.96628],[0.10674,50.96642],[0.10689,50.96617],[0.10681,50.96615],[0.10691,50.96598],[0.10672,50.96593],[0.10665,50.96603],[0.10632,50.96595],[0.10614,50.96628]]]]}},
{ "type":"Feature","properties":{"osm_way_id":"618050647","amenity":"parking"},"geometry":{"type":"MultiPolygon","coordinates":[[[[0.10577,50.96569],[0.10559,50.96565],[0.10555,50.96572],[0.1052,50.96564],[0.1053,50.96547],[0.10583,50.96559],[0.10577,50.96569]]]]}},
{ "type":"Feature","properties":{"osm_way_id":"618050650","name":"Staff Only","amenity":"parking"},"geometry":{"type":"MultiPolygon","coordinates":[[[[0.10683,50.96657],[0.10688,50.9666],[0.10742,50.96622],[0.10736,50.9662],[0.10683,50.96657]]]]}},
{ "type":"Feature","properties":{"osm_way_id":"620125599","name":"Lidl","amenity":"parking","other":{"access":"customers"}}, "geometry":{"type":"MultiPolygon","coordinates":[[[[0.27317,50.8203],[0.27404,50.82029],[0.27403,50.81985],[0.27304,50.81987],[0.27308,50.82022],[0.27317,50.8203]]]]}},
{ "type":"Feature","properties":{"osm_way_id":"620679589","amenity":"parking"},"geometry":{"type":"MultiPolygon","coordinates":[[[[0.0016,51.03294],[0.00138,51.03285],[0.00137,51.03287],[0.00122,51.033],[0.00171,51.03317],[0.00186,51.03302],[0.0016,51.03294]]]]}},
{ "type":"Feature","properties":{"osm_way_id":"626219259","amenity":"parking","other":{"access":"customers"}}, "geometry":{"type":"MultiPolygon","coordinates":[[[[0.02137,51.05556],[0.02163,51.05563],[0.02185,51.05565],[0.02208,51.05563],[0.02232,51.05557],[0.02238,51.05552],[0.0223,51.05543],[0.0224,51.05537],[0.02224,51.05529],[0.02216,51.05525],[0.02208,51.05522],[0.02204,51.05524],[0.02198,51.05527],[0.02191,51.05528],[0.02187,51.05528],[0.02174,51.05526],[0.02171,51.0553],[0.02157,51.05526],[0.02154,51.05531],[0.02153,51.05533],[0.0215,51.05538],[0.02143,51.05536],[0.02135,51.05548],[0.02141,51.0555],[0.02137,51.05556]]]]}},
{ "type":"Feature","properties":{"osm_way_id":"626219263","amenity":"parking","other":{"access":"customers"}}, "geometry":{"type":"MultiPolygon","coordinates":[[[[0.02258,51.05531],[0.02281,51.05525],[0.02258,51.05491],[0.02236,51.05497],[0.02258,51.05531]]]]}},
{ "type":"Feature","properties":{"osm_way_id":"626360536","amenity":"parking","other":{"access":"customers"}}, "geometry":{"type":"MultiPolygon","coordinates":[[[[0.02116,51.05566],[0.02129,51.05563],[0.02125,51.05558],[0.02107,51.05553],[0.02116,51.05566]]]]}},
{ "type":"Feature","properties":{"osm_way_id":"626363614","amenity":"parking"},"geometry":{"type":"MultiPolygon","coordinates":[[[[0.02273,51.05486],[0.02267,51.05478],[0.02263,51.05473],[0.02295,51.05464],[0.02304,51.05477],[0.02273,51.05486]]]]}},
{ "type":"Feature","properties":{"osm_way_id":"626363620","amenity":"parking","other":{"access":"private"}}, "geometry":{"type":"MultiPolygon","coordinates":[[[[0.0207,51.05531],[0.02072,51.05528],[0.02077,51.05522],[0.02088,51.05525],[0.02082,51.05534],[0.02074,51.05535],[0.0207,51.05531]]]]}},
{ "type":"Feature","properties":{"osm_way_id":"626363621","amenity":"parking","other":{"access":"private"}}, "geometry":{"type":"MultiPolygon","coordinates":[[[[0.02094,51.05534],[0.02103,51.05537],[0.02108,51.05529],[0.02099,51.05527],[0.02094,51.05534]]]]}},
{ "type":"Feature","properties":{"osm_way_id":"633494856","amenity":"parking","other":{"access":"private","parking":"surface","surface":"asphalt"}}, "geometry":{"type":"MultiPolygon","coordinates":[[[[-0.0058,51.06799],[-0.00547,51.06795],[-0.00552,51.06781],[-0.00585,51.06785],[-0.0058,51.06799]]]]}},
{ "type":"Feature","properties":{"osm_way_id":"633704530","amenity":"parking"},"geometry":{"type":"MultiPolygon","coordinates":[[[[0.07499,51.06034],[0.07528,51.06038],[0.07543,51.06007],[0.0751,51.06002],[0.07499,51.06034]]]]}},
{ "type":"Feature","properties":{"osm_way_id":"633704536","amenity":"parking","other":{"access":"private"}}, "geometry":{"type":"MultiPolygon","coordinates":[[[[0.07189,51.06781],[0.07199,51.06777],[0.07214,51.06778],[0.07222,51.06778],[0.07229,51.06783],[0.07208,51.06794],[0.07189,51.06781]]]]}},
{ "type":"Feature","properties":{"osm_way_id":"633738756","amenity":"parking"},"geometry":{"type":"MultiPolygon","coordinates":[[[[0.06593,51.06846],[0.0661,51.06839],[0.06594,51.06825],[0.06578,51.06832],[0.06593,51.06846]]]]}},
{ "type":"Feature","properties":{"osm_way_id":"634141887","amenity":"parking","other":{"parking":"surface","surface":"ground"}}, "geometry":{"type":"MultiPolygon","coordinates":[[[[0.05325,51.05167],[0.05332,51.05154],[0.05366,51.05165],[0.05356,51.05176],[0.05325,51.05167]]]]}},
{ "type":"Feature","properties":{"osm_way_id":"634141895","amenity":"parking","other":{"capacity":"30","parking":"surface","surface":"ground"}}, "geometry":{"type":"MultiPolygon","coordinates":[[[[0.03003,51.06492],[0.03023,51.06481],[0.02994,51.06457],[0.02971,51.0647],[0.03003,51.06492]]]]}},
{ "type":"Feature","properties":{"osm_way_id":"634141896","amenity":"parking","other":{"access":"customers","capacity":"30","parking":"surface"}}, "geometry":{"type":"MultiPolygon","coordinates":[[[[0.03075,51.06534],[0.0308,51.0652],[0.03036,51.0651],[0.03024,51.06524],[0.03075,51.06534]]]]}},
{ "type":"Feature","properties":{"osm_way_id":"637617049","amenity":"parking","other":{"parking":"surface","surface":"asphalt"}}, "geometry":{"type":"MultiPolygon","coordinates":[[[[0.17459,50.81556],[0.17497,50.81551],[0.17489,50.8153],[0.17488,50.81526],[0.17485,50.81519],[0.17447,50.81524],[0.17453,50.8154],[0.17459,50.81556]]]]}},
{ "type":"Feature","properties":{"osm_way_id":"638499246","name":"Abbots Wood","amenity":"parking","other":{"access":"yes","capacity":"30","parking":"surface","surface":"ground"}}, "geometry":{"type":"MultiPolygon","coordinates":[[[[0.21073,50.8441],[0.21177,50.84386],[0.21189,50.84354],[0.21176,50.84315],[0.21035,50.8436],[0.21073,50.8441]]]]}},
{ "type":"Feature","properties":{"osm_way_id":"639473014","amenity":"parking"},"geometry":{"type":"MultiPolygon","coordinates":[[[[0.16252,50.92635],[0.16268,50.92658],[0.16262,50.92663],[0.16258,50.92663],[0.16248,50.92665],[0.1623,50.92639],[0.16252,50.92635]]]]}},
{ "type":"Feature","properties":{"osm_way_id":"639742276","amenity":"parking","other":{"capacity":"50","parking":"surface"}}, "geometry":{"type":"MultiPolygon","coordinates":[[[[0.14958,50.89403],[0.15024,50.89406],[0.15025,50.89398],[0.1502,50.89398],[0.15023,50.89372],[0.14978,50.8937],[0.14976,50.89389],[0.1496,50.89389],[0.14958,50.89403]]]]}},
{ "type":"Feature","properties":{"osm_way_id":"648775885","name":"Linton's","amenity":"parking"},"geometry":{"type":"MultiPolygon","coordinates":[[[[0.05491,51.074],[0.05494,51.07384],[0.05501,51.07386],[0.05502,51.07399],[0.05539,51.07408],[0.05557,51.07399],[0.05565,51.07401],[0.05545,51.07415],[0.05518,51.07415],[0.05491,51.074]]]]}},
{ "type":"Feature","properties":{"osm_way_id":"648809513","name":"Ridge","amenity":"parking"},"geometry":{"type":"MultiPolygon","coordinates":[[[[0.05609,51.07404],[0.05637,51.07399],[0.05653,51.07389],[0.0565,51.07386],[0.05634,51.07375],[0.05618,51.07374],[0.05612,51.07388],[0.05609,51.07404]]]]}},
{ "type":"Feature","properties":{"osm_way_id":"648817858","name":"Reservoir","amenity":"parking"},"geometry":{"type":"MultiPolygon","coordinates":[[[[0.02409,51.06569],[0.02419,51.06576],[0.02433,51.06576],[0.02439,51.0657],[0.02446,51.06568],[0.0245,51.06574],[0.02463,51.06573],[0.02465,51.06566],[0.02465,51.06558],[0.02454,51.06559],[0.02444,51.06565],[0.02419,51.06567],[0.02413,51.06568],[0.02409,51.06569]]]]}},
{ "type":"Feature","properties":{"osm_way_id":"648817859","name":"Churlwood","amenity":"parking"},"geometry":{"type":"MultiPolygon","coordinates":[[[[0.02048,51.06129],[0.02058,51.06137],[0.02073,51.06149],[0.02064,51.06151],[0.02058,51.06144],[0.02049,51.06147],[0.02055,51.06159],[0.02081,51.06152],[0.02079,51.06148],[0.02069,51.06142],[0.02062,51.06136],[0.02054,51.06128],[0.02055,51.06123],[0.02044,51.0611],[0.02047,51.06103],[0.02045,51.06102],[0.02037,51.06098],[0.02033,51.061],[0.02038,51.06108],[0.02032,51.06115],[0.02038,51.06126],[0.02048,51.06129]]]]}},
{ "type":"Feature","properties":{"osm_way_id":"648836642","name":"Shepherds","amenity":"parking"},"geometry":{"type":"MultiPolygon","coordinates":[[[[0.08942,51.02553],[0.08941,51.02538],[0.0896,51.02524],[0.08962,51.02536],[0.08962,51.02545],[0.08942,51.02553]]]]}},
{ "type":"Feature","properties":{"osm_way_id":"648836644","name":"Waterholes","amenity":"parking"},"geometry":{"type":"MultiPolygon","coordinates":[[[[0.10001,51.04973],[0.10003,51.04937],[0.09994,51.04925],[0.09988,51.04905],[0.09982,51.04895],[0.10025,51.04901],[0.10024,51.04939],[0.10024,51.04943],[0.10024,51.04971],[0.10001,51.04973]]]]}},
{ "type":"Feature","properties":{"osm_way_id":"648841090","name":"Wood Reeves","amenity":"parking"},"geometry":{"type":"MultiPolygon","coordinates":[[[[0.10366,51.05871],[0.10369,51.05859],[0.10378,51.05852],[0.10393,51.05847],[0.10405,51.05851],[0.10413,51.0586],[0.10413,51.05869],[0.10405,51.05873],[0.10384,51.05875],[0.10366,51.05871]]]]}},
{ "type":"Feature","properties":{"osm_way_id":"648846269","name":"Bushy Willows","amenity":"parking"},"geometry":{"type":"MultiPolygon","coordinates":[[[[0.09852,51.05302],[0.09853,51.05309],[0.09843,51.05319],[0.09822,51.05312],[0.09822,51.05306],[0.09822,51.05301],[0.09841,51.05287],[0.09843,51.05286],[0.09855,51.05276],[0.09862,51.05277],[0.09874,51.05284],[0.09875,51.05287],[0.09864,51.05296],[0.09859,51.05297],[0.09858,51.05298],[0.09852,51.05302]]]]}},
{ "type":"Feature","properties":{"osm_way_id":"648846271","name":"Pines","amenity":"parking"},"geometry":{"type":"MultiPolygon","coordinates":[[[[0.09865,51.05319],[0.09874,51.05319],[0.09879,51.05319],[0.09887,51.05319],[0.09891,51.05319],[0.09901,51.05309],[0.09893,51.05305],[0.09888,51.05301],[0.09892,51.05292],[0.09865,51.05319]]]]}},
{ "type":"Feature","properties":{"osm_way_id":"648846272","name":"Lodge","amenity":"parking"},"geometry":{"type":"MultiPolygon","coordinates":[[[[0.09645,51.05534],[0.09653,51.0554],[0.09648,51.05549],[0.09642,51.05556],[0.09638,51.05555],[0.09634,51.05554],[0.09627,51.0554],[0.09638,51.05535],[0.09645,51.05534]]]]}},
{ "type":"Feature","properties":{"osm_way_id":"648846275","amenity":"parking"},"geometry":{"type":"MultiPolygon","coordinates":[[[[0.09605,51.05631],[0.09571,51.05625],[0.09579,51.05608],[0.09613,51.05614],[0.09605,51.05631]]]]}},
{ "type":"Feature","properties":{"osm_way_id":"648849835","name":"Piglets","amenity":"parking"},"geometry":{"type":"MultiPolygon","coordinates":[[[[0.09787,51.07002],[0.09776,51.06989],[0.0979,51.06979],[0.09803,51.06985],[0.09811,51.06984],[0.09811,51.06989],[0.09812,51.06994],[0.09799,51.06998],[0.09787,51.07002]]]]}},
{ "type":"Feature","properties":{"osm_way_id":"648849840","name":"Wrens Warren","amenity":"parking"},"geometry":{"type":"MultiPolygon","coordinates":[[[[0.0978,51.07414],[0.09783,51.07403],[0.09792,51.07394],[0.09797,51.07394],[0.09796,51.07406],[0.09793,51.07417],[0.0978,51.07414]]]]}},
{ "type":"Feature","properties":{"osm_way_id":"648850983","name":"Gills Lap North","amenity":"parking"},"geometry":{"type":"MultiPolygon","coordinates":[[[[0.09081,51.06576],[0.09059,51.06565],[0.09102,51.06555],[0.09125,51.06548],[0.09127,51.06531],[0.0913,51.06528],[0.09136,51.06527],[0.09147,51.06541],[0.09166,51.06538],[0.09191,51.06537],[0.09198,51.06544],[0.092,51.06547],[0.09089,51.0658],[0.09081,51.06576]]]]}},
{ "type":"Feature","properties":{"osm_way_id":"648851785","amenity":"parking"},"geometry":{"type":"MultiPolygon","coordinates":[[[[0.05926,51.0759],[0.05959,51.07583],[0.05974,51.07572],[0.05955,51.07554],[0.05947,51.07548],[0.05935,51.07547],[0.05918,51.07568],[0.05918,51.07583],[0.05917,51.07587],[0.05921,51.07588],[0.05926,51.0759]]]]}},
{ "type":"Feature","properties":{"osm_way_id":"651736054","amenity":"parking","other":{"access":"customers","parking":"surface","surface":"asphalt"}}, "geometry":{"type":"MultiPolygon","coordinates":[[[[0.25145,50.85923],[0.25195,50.85898],[0.25201,50.85901],[0.25244,50.85887],[0.25225,50.85873],[0.25135,50.85915],[0.25145,50.85923]]]]}},
{ "type":"Feature","properties":{"osm_way_id":"663143141","amenity":"parking"},"geometry":{"type":"MultiPolygon","coordinates":[[[[0.02554,51.06881],[0.02562,51.06863],[0.02579,51.06868],[0.02589,51.06869],[0.02587,51.06879],[0.02598,51.06879],[0.02602,51.06905],[0.02601,51.06921],[0.02595,51.06941],[0.02584,51.06941],[0.0258,51.06939],[0.02557,51.06929],[0.02563,51.06901],[0.02561,51.06883],[0.02554,51.06881]]]]}},
{ "type":"Feature","properties":{"osm_way_id":"669413844","amenity":"parking"},"geometry":{"type":"MultiPolygon","coordinates":[[[[0.24719,50.9089],[0.24674,50.90869],[0.24729,50.90823],[0.24775,50.90846],[0.24719,50.9089]]]]}},
{ "type":"Feature","properties":{"osm_way_id":"671612704","amenity":"parking"},"geometry":{"type":"MultiPolygon","coordinates":[[[[0.16091,50.92412],[0.16077,50.92419],[0.16061,50.92405],[0.16076,50.92399],[0.16091,50.92412]]]]}},
{ "type":"Feature","properties":{"osm_way_id":"671612706","name":"Church Marks Lane East Hoathly BN8 6EQ","amenity":"parking"},"geometry":{"type":"MultiPolygon","coordinates":[[[[0.16148,50.92448],[0.16106,50.92469],[0.16091,50.92456],[0.16131,50.92437],[0.16148,50.92448]]]]}},
{ "type":"Feature","properties":{"osm_way_id":"672363707","amenity":"parking","other":{"access":"customers"}}, "geometry":{"type":"MultiPolygon","coordinates":[[[[0.16196,50.92354],[0.16173,50.92343],[0.16157,50.92355],[0.16166,50.92359],[0.16171,50.92354],[0.16187,50.92362],[0.16196,50.92354]]]]}},
{ "type":"Feature","properties":{"osm_way_id":"675208033","amenity":"parking"},"geometry":{"type":"MultiPolygon","coordinates":[[[[0.02353,51.04867],[0.02343,51.04872],[0.02338,51.04874],[0.02353,51.04888],[0.02357,51.04892],[0.02373,51.04886],[0.02353,51.04867]]]]}},
{ "type":"Feature","properties":{"osm_way_id":"679071010","name":"Hellingly Parish Council","amenity":"parking"},"geometry":{"type":"MultiPolygon","coordinates":[[[[0.26813,50.88839],[0.26847,50.88836],[0.26843,50.88818],[0.26809,50.88821],[0.26813,50.88839]]]]}},
{ "type":"Feature","properties":{"osm_way_id":"679501541","amenity":"parking","other":{"access":"private"}}, "geometry":{"type":"MultiPolygon","coordinates":[[[[0.07642,50.99311],[0.07613,50.99297],[0.07648,50.99269],[0.07677,50.99283],[0.07642,50.99311]]]]}},
{ "type":"Feature","properties":{"osm_way_id":"682198603","amenity":"parking","other":{"access":"private"}}, "geometry":{"type":"MultiPolygon","coordinates":[[[[0.25037,51.01853],[0.25055,51.01857],[0.25061,51.01845],[0.25052,51.01843],[0.25056,51.01833],[0.25035,51.01828],[0.25031,51.01837],[0.25042,51.01839],[0.25037,51.01853]]]]}},
{ "type":"Feature","properties":{"osm_way_id":"686563283","amenity":"parking"},"geometry":{"type":"MultiPolygon","coordinates":[[[[0.12051,50.90373],[0.12078,50.90382],[0.12096,50.90381],[0.1213,50.90371],[0.12144,50.90366],[0.12145,50.90356],[0.12136,50.90345],[0.12051,50.90373]]]]}},
{ "type":"Feature","properties":{"osm_way_id":"689305817","name":"Sales","amenity":"parking"},"geometry":{"type":"MultiPolygon","coordinates":[[[[0.09793,50.95497],[0.09773,50.95501],[0.09775,50.95506],[0.09796,50.95501],[0.09793,50.95497]]]]}},
{ "type":"Feature","properties":{"osm_way_id":"689580614","amenity":"parking","other":{"access":"customers"}}, "geometry":{"type":"MultiPolygon","coordinates":[[[[0.25634,50.84444],[0.2561,50.84449],[0.25598,50.84405],[0.25624,50.84403],[0.25634,50.84444]]]]}},
{ "type":"Feature","properties":{"osm_way_id":"692062281","name":"Cinque Ports","amenity":"parking","other":{"access":"customers"}}, "geometry":{"type":"MultiPolygon","coordinates":[[[[0.09759,50.97257],[0.09752,50.97243],[0.09769,50.97239],[0.09777,50.97254],[0.0976,50.97258],[0.09759,50.97257]]]]}},
{ "type":"Feature","properties":{"osm_way_id":"692812396","amenity":"parking"},"geometry":{"type":"MultiPolygon","coordinates":[[[[0.09178,51.01992],[0.09173,51.02009],[0.09205,51.02014],[0.09206,51.01995],[0.09178,51.01992]]]]}},
{ "type":"Feature","properties":{"osm_way_id":"696709641","amenity":"parking","other":{"access":"yes","fee":"no","surface":"asphalt"}}, "geometry":{"type":"MultiPolygon","coordinates":[[[[0.34089,51.06171],[0.34083,51.06161],[0.34103,51.06154],[0.34109,51.06158],[0.34089,51.06171]]]]}},
{ "type":"Feature","properties":{"osm_way_id":"696987978","name":"Horsted Green Park","amenity":"parking","other":{"access":"yes","fee":"no","parking":"surface","surface":"gravel"}}, "geometry":{"type":"MultiPolygon","coordinates":[[[[0.08819,50.95178],[0.0881,50.9515],[0.08823,50.95148],[0.08825,50.95148],[0.08829,50.95148],[0.08842,50.95146],[0.08851,50.95174],[0.08819,50.95178]]]]}},
{ "type":"Feature","properties":{"osm_way_id":"697189678","amenity":"parking"},"geometry":{"type":"MultiPolygon","coordinates":[[[[0.1312,50.96464],[0.13158,50.96472],[0.13163,50.96464],[0.13124,50.96455],[0.1312,50.96464]]]]}},
{ "type":"Feature","properties":{"osm_way_id":"697189680","amenity":"parking"},"geometry":{"type":"MultiPolygon","coordinates":[[[[0.1305,50.96448],[0.13046,50.96449],[0.1303,50.96445],[0.13035,50.96435],[0.13055,50.9644],[0.1305,50.96448]]]]}},
{ "type":"Feature","properties":{"osm_way_id":"697318071","amenity":"parking","other":{"capacity":"3","capacity:disabled":"3"}}, "geometry":{"type":"MultiPolygon","coordinates":[[[[0.23635,50.92189],[0.23652,50.92185],[0.23648,50.92179],[0.23632,50.92183],[0.23635,50.92189]]]]}},
{ "type":"Feature","properties":{"osm_way_id":"697318075","amenity":"parking","other":{"capacity":"3","capacity:disabled":"3"}}, "geometry":{"type":"MultiPolygon","coordinates":[[[[0.23621,50.92236],[0.23629,50.92245],[0.23621,50.92248],[0.23614,50.92239],[0.23621,50.92236]]]]}},
{ "type":"Feature","properties":{"osm_way_id":"697318085","amenity":"parking"},"geometry":{"type":"MultiPolygon","coordinates":[[[[0.23659,50.92259],[0.23716,50.92231],[0.23724,50.92205],[0.23714,50.92174],[0.2365,50.92194],[0.23664,50.92219],[0.23634,50.9223],[0.23659,50.92259]]]]}},
{ "type":"Feature","properties":{"osm_way_id":"701371456","amenity":"parking"},"geometry":{"type":"MultiPolygon","coordinates":[[[[0.17646,50.99979],[0.17633,50.99975],[0.17639,50.99967],[0.17652,50.9997],[0.17646,50.99979]]]]}},
{ "type":"Feature","properties":{"osm_way_id":"701528778","name":"Wilderness Wood","amenity":"parking","other":{"access":"customers","parking":"surface"}}, "geometry":{"type":"MultiPolygon","coordinates":[[[[0.18579,50.9957],[0.18678,50.99578],[0.18681,50.99564],[0.18582,50.99556],[0.18579,50.9957]]]]}},
{ "type":"Feature","properties":{"osm_way_id":"701561077","name":"Bede's Staff Parking","amenity":"parking"},"geometry":{"type":"MultiPolygon","coordinates":[[[[0.2043,50.86542],[0.20432,50.86545],[0.20436,50.8655],[0.20442,50.86558],[0.20447,50.86564],[0.20449,50.86567],[0.2045,50.86567],[0.20454,50.86575],[0.20457,50.86579],[0.20462,50.86577],[0.20503,50.86562],[0.20503,50.86558],[0.20499,50.8655],[0.20512,50.86546],[0.20508,50.86541],[0.20506,50.86537],[0.20503,50.86534],[0.20484,50.86539],[0.2048,50.86536],[0.20477,50.86536],[0.20471,50.86528],[0.2043,50.86542]]]]}},
{ "type":"Feature","properties":{"osm_way_id":"701561078","name":"Bede's Parking Overflow","amenity":"parking"},"geometry":{"type":"MultiPolygon","coordinates":[[[[0.20559,50.86492],[0.20555,50.86493],[0.20506,50.86508],[0.20469,50.86519],[0.20481,50.86534],[0.20504,50.86527],[0.20514,50.86539],[0.20525,50.86555],[0.20533,50.86553],[0.20535,50.86552],[0.20538,50.86551],[0.20592,50.86535],[0.20594,50.86532],[0.20601,50.8653],[0.20606,50.8652],[0.20592,50.865],[0.20579,50.86504],[0.2057,50.86507],[0.20559,50.86492]]]]}},
{ "type":"Feature","properties":{"osm_way_id":"702308133","amenity":"parking"},"geometry":{"type":"MultiPolygon","coordinates":[[[[0.20066,50.86635],[0.20054,50.86614],[0.20065,50.86604],[0.20082,50.86613],[0.20095,50.86605],[0.20101,50.86599],[0.2011,50.86604],[0.20114,50.86601],[0.2012,50.86604],[0.20131,50.86596],[0.20128,50.86595],[0.20124,50.86598],[0.20111,50.86592],[0.20107,50.86595],[0.20097,50.8659],[0.20103,50.86587],[0.20108,50.86577],[0.20143,50.86592],[0.20098,50.86628],[0.20066,50.86635]]]]}},
{ "type":"Feature","properties":{"osm_way_id":"703091585","amenity":"parking"},"geometry":{"type":"MultiPolygon","coordinates":[[[[0.09346,51.03643],[0.09369,51.03629],[0.09335,51.03608],[0.09312,51.03625],[0.09346,51.03643]]]]}},
{ "type":"Feature","properties":{"osm_way_id":"704168568","amenity":"parking"},"geometry":{"type":"MultiPolygon","coordinates":[[[[0.12955,51.0123],[0.12888,51.01211],[0.12896,51.01199],[0.12963,51.01218],[0.12955,51.0123]]]]}},
{ "type":"Feature","properties":{"osm_way_id":"704185959","amenity":"parking","other":{"capacity:disabled":"1"}}, "geometry":{"type":"MultiPolygon","coordinates":[[[[0.12868,51.01782],[0.12876,51.01788],[0.12874,51.01814],[0.12865,51.01816],[0.12857,51.01812],[0.12857,51.01787],[0.12868,51.01782]]]]}},
{ "type":"Feature","properties":{"osm_way_id":"705582375","amenity":"parking","other":{"access":"private","parking":"surface"}}, "geometry":{"type":"MultiPolygon","coordinates":[[[[0.25124,50.97206],[0.2515,50.97196],[0.25142,50.97188],[0.25116,50.97198],[0.25124,50.97206]]]]}},
{ "type":"Feature","properties":{"osm_way_id":"706609227","amenity":"parking","other":{"access":"customers","parking":"surface"}}, "geometry":{"type":"MultiPolygon","coordinates":[[[[0.40431,50.86952],[0.40406,50.86937],[0.40413,50.8693],[0.40434,50.8694],[0.40437,50.86946],[0.40431,50.86952]]]]}},
{ "type":"Feature","properties":{"osm_way_id":"706615180","amenity":"parking","other":{"access":"customers"}}, "geometry":{"type":"MultiPolygon","coordinates":[[[[0.42081,50.88774],[0.42059,50.8878],[0.42055,50.88774],[0.42077,50.88768],[0.42081,50.88774]]]]}},
{ "type":"Feature","properties":{"osm_way_id":"710889287","amenity":"parking","other":{"access":"private","parking":"surface"}}, "geometry":{"type":"MultiPolygon","coordinates":[[[[0.25044,50.96856],[0.25017,50.96844],[0.25006,50.96854],[0.25029,50.96869],[0.25044,50.96856]]]]}},
{ "type":"Feature","properties":{"osm_way_id":"710889288","amenity":"parking","other":{"access":"private","parking":"surface"}}, "geometry":{"type":"MultiPolygon","coordinates":[[[[0.25087,50.96868],[0.25072,50.96863],[0.25063,50.96863],[0.25059,50.96867],[0.25075,50.96873],[0.25087,50.96868]]]]}},
{ "type":"Feature","properties":{"osm_way_id":"711071687","name":"Heathfield Tavern","amenity":"parking","other":{"access":"customers"}}, "geometry":{"type":"MultiPolygon","coordinates":[[[[0.25635,50.96707],[0.25612,50.96714],[0.25607,50.96705],[0.25578,50.96714],[0.25574,50.9671],[0.25604,50.967],[0.25614,50.96695],[0.25625,50.96703],[0.25631,50.96702],[0.25635,50.96707]]]]}},
{ "type":"Feature","properties":{"osm_way_id":"711071691","name":"St Richards Church","amenity":"parking"},"geometry":{"type":"MultiPolygon","coordinates":[[[[0.2576,50.96645],[0.25773,50.96672],[0.25804,50.96651],[0.25804,50.96645],[0.2576,50.96645]]]]}},
{ "type":"Feature","properties":{"osm_way_id":"711071694","amenity":"parking","other":{"access":"customers"}}, "geometry":{"type":"MultiPolygon","coordinates":[[[[0.25661,50.96623],[0.2566,50.9662],[0.25655,50.96609],[0.25665,50.96607],[0.25672,50.96621],[0.25661,50.96623]]]]}},
{ "type":"Feature","properties":{"osm_way_id":"718514021","amenity":"parking","other":{"parking":"surface"}}, "geometry":{"type":"MultiPolygon","coordinates":[[[[0.34388,50.82273],[0.34441,50.82273],[0.34441,50.82266],[0.34409,50.82266],[0.34409,50.82235],[0.34387,50.82235],[0.34388,50.82273]]]]}},
{ "type":"Feature","properties":{"osm_way_id":"723326807","amenity":"parking","other":{"access":"private"}}, "geometry":{"type":"MultiPolygon","coordinates":[[[[0.10403,50.9596],[0.10396,50.95962],[0.10385,50.95947],[0.10427,50.95935],[0.10437,50.9595],[0.10403,50.9596]]]]}},
{ "type":"Feature","properties":{"osm_way_id":"723461757","amenity":"parking","other":{"access":"private","parking":"surface"}}, "geometry":{"type":"MultiPolygon","coordinates":[[[[0.2511,50.97172],[0.25094,50.97181],[0.25064,50.97172],[0.25073,50.9716],[0.2511,50.97172]]]]}},
{ "type":"Feature","properties":{"osm_way_id":"723517608","amenity":"parking","other":{"access":"private"}}, "geometry":{"type":"MultiPolygon","coordinates":[[[[0.24074,50.96822],[0.24085,50.96837],[0.24041,50.9685],[0.23999,50.96856],[0.23991,50.96843],[0.24074,50.96822]]]]}},
{ "type":"Feature","properties":{"osm_way_id":"723534623","amenity":"parking","other":{"access":"customers","maxstay":"30 minutes","operator":"Tesco Express"}}, "geometry":{"type":"MultiPolygon","coordinates":[[[[0.2504,50.97056],[0.25008,50.97059],[0.25006,50.97054],[0.25039,50.97051],[0.2504,50.97056]]]]}},
{ "type":"Feature","properties":{"osm_way_id":"724575449","amenity":"parking"},"geometry":{"type":"MultiPolygon","coordinates":[[[[0.28324,50.977],[0.28367,50.97716],[0.28376,50.97705],[0.28333,50.9769],[0.28324,50.977]]]]}},
{ "type":"Feature","properties":{"osm_way_id":"724575576","amenity":"parking"},"geometry":{"type":"MultiPolygon","coordinates":[[[[0.27388,50.97505],[0.27439,50.97513],[0.27449,50.97486],[0.27396,50.97476],[0.27388,50.97505]]]]}},
{ "type":"Feature","properties":{"osm_way_id":"724880966","amenity":"parking","other":{"access":"private"}}, "geometry":{"type":"MultiPolygon","coordinates":[[[[0.07872,50.99379],[0.07805,50.99356],[0.07818,50.99342],[0.07809,50.9934],[0.07821,50.99326],[0.07873,50.99345],[0.0787,50.99348],[0.07893,50.99356],[0.07872,50.99379]]]]}},
{ "type":"Feature","properties":{"osm_way_id":"726859185","amenity":"parking"},"geometry":{"type":"MultiPolygon","coordinates":[[[[0.09784,51.09564],[0.09805,51.09575],[0.09817,51.09565],[0.09806,51.09559],[0.09796,51.09554],[0.09784,51.09564]]]]}},
{ "type":"Feature","properties":{"osm_way_id":"738604179","amenity":"parking","other":{"access":"customers","parking":"surface","surface":"paved"}}, "geometry":{"type":"MultiPolygon","coordinates":[[[[0.15574,50.80748],[0.15568,50.80771],[0.15549,50.80769],[0.15549,50.80781],[0.156,50.80784],[0.156,50.80777],[0.15591,50.80775],[0.156,50.80752],[0.15574,50.80748]]]]}},
{ "type":"Feature","properties":{"osm_way_id":"740407371","amenity":"parking","other":{"access":"customers"}}, "geometry":{"type":"MultiPolygon","coordinates":[[[[0.18667,51.04848],[0.18656,51.04856],[0.18651,51.04853],[0.18662,51.04845],[0.18667,51.04848]]]]}},
{ "type":"Feature","properties":{"osm_way_id":"752713310","amenity":"parking","other":{"access":"customers"}}, "geometry":{"type":"MultiPolygon","coordinates":[[[[0.24341,50.93436],[0.24334,50.9345],[0.24358,50.93469],[0.24369,50.93463],[0.24341,50.93436]]]]}},
{ "type":"Feature","properties":{"osm_way_id":"752957809","amenity":"parking","other":{"access":"private"}}, "geometry":{"type":"MultiPolygon","coordinates":[[[[0.24784,50.93489],[0.24783,50.93483],[0.24792,50.93483],[0.24793,50.93469],[0.24784,50.93469],[0.24775,50.93469],[0.24773,50.93488],[0.24784,50.93489]]]]}},
{ "type":"Feature","properties":{"osm_way_id":"755240237","amenity":"parking","other":{"access":"customers"}}, "geometry":{"type":"MultiPolygon","coordinates":[[[[0.2334,50.92542],[0.23408,50.92504],[0.2339,50.92489],[0.23378,50.92495],[0.23352,50.92498],[0.23347,50.92494],[0.23314,50.92514],[0.23319,50.92529],[0.2334,50.92542]]]]}},
{ "type":"Feature","properties":{"osm_way_id":"757893268","amenity":"parking"},"geometry":{"type":"MultiPolygon","coordinates":[[[[0.25762,50.88173],[0.2579,50.88172],[0.25789,50.88128],[0.2576,50.88129],[0.25762,50.88173]]]]}},
{ "type":"Feature","properties":{"osm_way_id":"760503010","amenity":"parking"},"geometry":{"type":"MultiPolygon","coordinates":[[[[0.11447,51.10401],[0.11433,51.1039],[0.11413,51.10401],[0.11427,51.10411],[0.11447,51.10401]]]]}},
{ "type":"Feature","properties":{"osm_way_id":"760503193","amenity":"parking"},"geometry":{"type":"MultiPolygon","coordinates":[[[[0.11116,51.10439],[0.11143,51.10431],[0.11135,51.1042],[0.11107,51.10428],[0.11116,51.10439]]]]}},
{ "type":"Feature","properties":{"osm_way_id":"760918756","amenity":"parking","other":{"access":"customers","capacity:disabled":"3"}}, "geometry":{"type":"MultiPolygon","coordinates":[[[[0.07681,50.99419],[0.07705,50.99425],[0.07684,50.99457],[0.07651,50.99448],[0.07656,50.9944],[0.07665,50.99442],[0.07681,50.99419]]]]}},
{ "type":"Feature","properties":{"osm_way_id":"767686830","amenity":"parking","other":{"access":"private"}}, "geometry":{"type":"MultiPolygon","coordinates":[[[[-1.5329,53.37911],[-1.53285,53.37881],[-1.53268,53.37882],[-1.53262,53.37896],[-1.53263,53.37899],[-1.5326,53.37899],[-1.53263,53.37912],[-1.5329,53.37911]]]]}},
{ "type":"Feature","properties":{"osm_way_id":"792937909","amenity":"parking","other":{"access":"destination"}}, "geometry":{"type":"MultiPolygon","coordinates":[[[[0.26082,50.87606],[0.2609,50.87586],[0.26113,50.8759],[0.26107,50.87613],[0.26082,50.87606]]]]}},
{ "type":"Feature","properties":{"osm_way_id":"793515480","amenity":"parking","other":{"access":"destination"}}, "geometry":{"type":"MultiPolygon","coordinates":[[[[0.28234,50.97642],[0.28259,50.9765],[0.28274,50.97637],[0.28245,50.97627],[0.28234,50.97642]]]]}},
{ "type":"Feature","properties":{"osm_way_id":"794679067","amenity":"parking","other":{"access":"customers","capacity":"30","fee":"no","operator":"All Saints","operator:type":"religious","parking":"surface","surface":"concrete"}}, "geometry":{"type":"MultiPolygon","coordinates":[[[[0.164,51.05566],[0.16423,51.05551],[0.16454,51.05562],[0.16444,51.0558],[0.164,51.05566]]]]}},
{ "type":"Feature","properties":{"osm_way_id":"806118046","amenity":"parking"},"geometry":{"type":"MultiPolygon","coordinates":[[[[0.2213,51.09735],[0.22141,51.0973],[0.2215,51.09733],[0.22155,51.09739],[0.2215,51.09746],[0.22129,51.09737],[0.2213,51.09735]]]]}},
{ "type":"Feature","properties":{"osm_way_id":"810051582","amenity":"parking","other":{"access":"private"}}, "geometry":{"type":"MultiPolygon","coordinates":[[[[0.00335,51.03994],[0.00322,51.03971],[0.00407,51.03951],[0.00399,51.0394],[0.00459,51.03928],[0.00475,51.03958],[0.00475,51.03962],[0.00469,51.03966],[0.00335,51.03994]]]]}},
{ "type":"Feature","properties":{"osm_way_id":"821196027","amenity":"parking","other":{"access":"private","capacity":"6","fee":"no","surface":"paved"}}, "geometry":{"type":"MultiPolygon","coordinates":[[[[0.16109,51.04872],[0.16113,51.04858],[0.16129,51.04859],[0.16124,51.04873],[0.16109,51.04872]]]]}},
{ "type":"Feature","properties":{"osm_way_id":"826319567","amenity":"parking","other":{"fee":"no","parking":"surface","surface":"compacted"}}, "geometry":{"type":"MultiPolygon","coordinates":[[[[0.20649,50.75928],[0.20611,50.75892],[0.2065,50.75881],[0.20669,50.75877],[0.20688,50.75877],[0.20714,50.75878],[0.20728,50.7589],[0.20649,50.75928]]]]}},
{ "type":"Feature","properties":{"osm_way_id":"833208978","amenity":"parking","other":{"access":"private"}}, "geometry":{"type":"MultiPolygon","coordinates":[[[[0.18062,50.99635],[0.18032,50.99631],[0.18037,50.99621],[0.18066,50.99626],[0.18062,50.99635]]]]}},
{ "type":"Feature","properties":{"osm_way_id":"840938237","amenity":"parking"},"geometry":{"type":"MultiPolygon","coordinates":[[[[0.42179,50.88772],[0.42174,50.88767],[0.42171,50.88768],[0.42168,50.88762],[0.42169,50.88762],[0.42163,50.88751],[0.42188,50.88749],[0.42195,50.88748],[0.42198,50.88748],[0.42203,50.88758],[0.42199,50.8876],[0.42201,50.88761],[0.42194,50.88766],[0.42193,50.88764],[0.42179,50.88772]]]]}},
{ "type":"Feature","properties":{"osm_way_id":"840938243","amenity":"parking"},"geometry":{"type":"MultiPolygon","coordinates":[[[[0.42644,50.88581],[0.426,50.88544],[0.42657,50.88518],[0.42673,50.88527],[0.42655,50.88538],[0.42643,50.88543],[0.42637,50.88538],[0.42627,50.88544],[0.42667,50.88567],[0.4266,50.88573],[0.42654,50.88576],[0.42644,50.88581]]]]}},
{ "type":"Feature","properties":{"osm_way_id":"844650974","amenity":"parking"},"geometry":{"type":"MultiPolygon","coordinates":[[[[0.25754,51.05871],[0.25743,51.05853],[0.25739,51.05853],[0.25736,51.05848],[0.25711,51.05841],[0.25696,51.05835],[0.25694,51.05827],[0.25704,51.0583],[0.25708,51.05831],[0.25708,51.05832],[0.25725,51.05835],[0.25726,51.05837],[0.25758,51.05835],[0.25792,51.0584],[0.25788,51.05852],[0.25766,51.05871],[0.25754,51.05871]]]]}},
{ "type":"Feature","properties":{"osm_way_id":"849101860","amenity":"parking"},"geometry":{"type":"MultiPolygon","coordinates":[[[[0.08523,50.97249],[0.08522,50.97255],[0.08564,50.97253],[0.08564,50.97249],[0.08561,50.97237],[0.08529,50.9724],[0.08527,50.97225],[0.08519,50.97226],[0.0851,50.97226],[0.08509,50.9723],[0.08503,50.97231],[0.08503,50.97236],[0.08513,50.97236],[0.08522,50.97247],[0.08523,50.97249]]]]}},
{ "type":"Feature","properties":{"osm_way_id":"852356159","amenity":"parking","other":{"access":"private"}}, "geometry":{"type":"MultiPolygon","coordinates":[[[[0.24351,50.82167],[0.24343,50.82152],[0.24382,50.82144],[0.24395,50.8215],[0.24399,50.82157],[0.2439,50.82159],[0.24386,50.82151],[0.24364,50.82156],[0.24369,50.82164],[0.24351,50.82167]]]]}},
{ "type":"Feature","properties":{"osm_way_id":"852356162","amenity":"parking","other":{"access":"private"}}, "geometry":{"type":"MultiPolygon","coordinates":[[[[0.24418,50.8211],[0.24447,50.82109],[0.24444,50.82099],[0.2441,50.82099],[0.2441,50.82105],[0.24417,50.82106],[0.24418,50.8211]]]]}},
{ "type":"Feature","properties":{"osm_way_id":"852356172","amenity":"parking","other":{"access":"private"}}, "geometry":{"type":"MultiPolygon","coordinates":[[[[0.24358,50.82106],[0.24337,50.82108],[0.24315,50.82067],[0.24335,50.82063],[0.24358,50.82106]]]]}},
{ "type":"Feature","properties":{"osm_way_id":"852356173","amenity":"parking","other":{"access":"private"}}, "geometry":{"type":"MultiPolygon","coordinates":[[[[0.24328,50.82062],[0.24319,50.82064],[0.24307,50.8205],[0.24319,50.82047],[0.24328,50.82062]]]]}},
{ "type":"Feature","properties":{"osm_way_id":"852356174","amenity":"parking"},"geometry":{"type":"MultiPolygon","coordinates":[[[[0.24181,50.81995],[0.24165,50.81981],[0.2417,50.81978],[0.24164,50.81974],[0.24172,50.8197],[0.24178,50.81974],[0.24192,50.81966],[0.24207,50.81955],[0.24211,50.81948],[0.24173,50.81941],[0.24174,50.81938],[0.24192,50.81939],[0.24196,50.81939],[0.24217,50.81944],[0.24239,50.81957],[0.24222,50.81968],[0.24225,50.81972],[0.2421,50.8198],[0.24181,50.81995]]]]}},
{ "type":"Feature","properties":{"osm_way_id":"852458623","amenity":"parking"},"geometry":{"type":"MultiPolygon","coordinates":[[[[0.24262,50.8194],[0.24271,50.81943],[0.24278,50.81936],[0.24271,50.81933],[0.24285,50.81919],[0.24269,50.81914],[0.24254,50.81929],[0.24245,50.81925],[0.24239,50.8193],[0.24251,50.81937],[0.24262,50.8194]]]]}},
{ "type":"Feature","properties":{"osm_way_id":"852458625","amenity":"parking"},"geometry":{"type":"MultiPolygon","coordinates":[[[[0.24294,50.81909],[0.24315,50.81888],[0.24343,50.81859],[0.24326,50.81852],[0.24316,50.81862],[0.24308,50.81859],[0.24304,50.81864],[0.24307,50.81865],[0.24304,50.81867],[0.24322,50.81875],[0.24313,50.81883],[0.2429,50.81873],[0.24289,50.81874],[0.24267,50.81894],[0.24264,50.81897],[0.24294,50.81909]]]]}},
{ "type":"Feature","properties":{"osm_way_id":"853828838","amenity":"parking"},"geometry":{"type":"MultiPolygon","coordinates":[[[[0.2035,50.86588],[0.20355,50.86584],[0.20353,50.86583],[0.20368,50.86574],[0.20372,50.86572],[0.20396,50.86591],[0.20392,50.86594],[0.20389,50.86593],[0.20387,50.86593],[0.20384,50.86596],[0.2038,50.86594],[0.20374,50.86597],[0.20373,50.866],[0.20372,50.86602],[0.2035,50.86588]]]]}},
{ "type":"Feature","properties":{"osm_way_id":"853828877","name":"Bede's Transport Minibus Carpark","amenity":"parking","other":{"access":"private"}}, "geometry":{"type":"MultiPolygon","coordinates":[[[[0.20491,50.86599],[0.20473,50.86606],[0.20466,50.86609],[0.20454,50.8661],[0.2045,50.86611],[0.20456,50.86614],[0.20463,50.86619],[0.20462,50.86619],[0.20436,50.86635],[0.20446,50.8664],[0.20448,50.86643],[0.20476,50.86633],[0.20469,50.86627],[0.20483,50.86622],[0.20486,50.86624],[0.20495,50.86622],[0.20502,50.8663],[0.20514,50.86625],[0.20511,50.86621],[0.20491,50.86599]]]]}},
{ "type":"Feature","properties":{"osm_way_id":"856946974","amenity":"parking","other":{"access":"private"}}, "geometry":{"type":"MultiPolygon","coordinates":[[[[0.15556,51.05368],[0.15488,51.0536],[0.15481,51.05384],[0.15473,51.05383],[0.15467,51.05383],[0.15455,51.05381],[0.15466,51.05345],[0.15469,51.05334],[0.15563,51.05345],[0.15556,51.05368]]]]}},
{ "type":"Feature","properties":{"osm_way_id":"858583043","amenity":"parking"},"geometry":{"type":"MultiPolygon","coordinates":[[[[1.31449,52.09248],[1.31442,52.09237],[1.31451,52.09235],[1.31455,52.09235],[1.31461,52.09245],[1.31449,52.09248]]]]}},
{ "type":"Feature","properties":{"osm_way_id":"858583067","amenity":"parking","other":{"access":"private"}}, "geometry":{"type":"MultiPolygon","coordinates":[[[[1.31579,52.09375],[1.31563,52.09375],[1.3156,52.09364],[1.31578,52.0936],[1.31579,52.09375]]]]}},
{ "type":"Feature","properties":{"osm_way_id":"876138343","amenity":"parking"},"geometry":{"type":"MultiPolygon","coordinates":[[[[0.26472,50.87574],[0.26487,50.87576],[0.26515,50.87572],[0.2651,50.87564],[0.26492,50.87566],[0.26475,50.87564],[0.26472,50.87574]]]]}},
{ "type":"Feature","properties":{"osm_way_id":"876139590","amenity":"parking"},"geometry":{"type":"MultiPolygon","coordinates":[[[[0.24264,50.81589],[0.24259,50.81606],[0.24235,50.81602],[0.24241,50.81586],[0.24264,50.81589]]]]}},
{ "type":"Feature","properties":{"osm_way_id":"876311093","amenity":"parking"},"geometry":{"type":"MultiPolygon","coordinates":[[[[0.03064,51.04527],[0.03062,51.0452],[0.03084,51.04517],[0.03084,51.04525],[0.03064,51.04527]]]]}},
{ "type":"Feature","properties":{"osm_way_id":"880925496","amenity":"parking","other":{"parking":"surface","surface":"gravel"}}, "geometry":{"type":"MultiPolygon","coordinates":[[[[0.36116,50.89058],[0.3611,50.89049],[0.36147,50.89028],[0.36138,50.89014],[0.36098,50.89024],[0.36103,50.89038],[0.36098,50.89053],[0.36105,50.89062],[0.36116,50.89058]]]]}},
{ "type":"Feature","properties":{"osm_way_id":"887993423","name":"Brambletye Hotel","amenity":"parking","other":{"access":"customers"}}, "geometry":{"type":"MultiPolygon","coordinates":[[[[0.03249,51.09958],[0.03253,51.09973],[0.03228,51.09971],[0.03208,51.09966],[0.03214,51.09951],[0.03222,51.09941],[0.03237,51.09941],[0.03249,51.09958]]]]}},
{ "type":"Feature","properties":{"osm_way_id":"891304601","building":"farm_auxiliary"},"geometry":{"type":"MultiPolygon","coordinates":[[[[0.44242,50.87089],[0.44237,50.87079],[0.44231,50.8708],[0.44236,50.8709],[0.44242,50.87089]]]]}},
{ "type":"Feature","properties":{"osm_way_id":"913664312","amenity":"parking"},"geometry":{"type":"MultiPolygon","coordinates":[[[[0.13677,50.98987],[0.13656,50.98981],[0.13659,50.9897],[0.13683,50.98977],[0.13677,50.98987]]]]}},
{ "type":"Feature","properties":{"osm_way_id":"916264335","amenity":"parking"},"geometry":{"type":"MultiPolygon","coordinates":[[[[0.09098,50.98895],[0.09099,50.9888],[0.09087,50.9888],[0.09086,50.98895],[0.09098,50.98895]]]]}},
{ "type":"Feature","properties":{"osm_way_id":"923909035","amenity":"parking","other":{"access":"customers"}}, "geometry":{"type":"MultiPolygon","coordinates":[[[[-0.00246,51.01186],[-0.00218,51.01174],[-0.00251,51.01145],[-0.00279,51.01158],[-0.00246,51.01186]]]]}},
{ "type":"Feature","properties":{"osm_way_id":"923947655","name":"Sheffield Park Overflow Car Park","amenity":"parking","other":{"access":"private","operator":"NT"}}, "geometry":{"type":"MultiPolygon","coordinates":[[[[0.01119,50.99409],[0.01123,50.99406],[0.01206,50.99365],[0.01239,50.99324],[0.01247,50.99313],[0.01253,50.99305],[0.0134,50.99324],[0.01356,50.99352],[0.01461,50.99412],[0.01459,50.99414],[0.01459,50.99417],[0.01285,50.99511],[0.01251,50.99525],[0.01229,50.9952],[0.01119,50.99409]]]]}},
{ "type":"Feature","properties":{"osm_way_id":"926836476","amenity":"parking"},"geometry":{"type":"MultiPolygon","coordinates":[[[[0.0897,51.01773],[0.08963,51.01784],[0.08984,51.01794],[0.08996,51.01786],[0.08985,51.01776],[0.08979,51.01775],[0.0897,51.01773]]]]}},
{ "type":"Feature","properties":{"osm_way_id":"931175801","amenity":"parking"},"geometry":{"type":"MultiPolygon","coordinates":[[[[0.10856,50.99372],[0.1087,50.99377],[0.10888,50.99387],[0.10871,50.99402],[0.10848,50.99394],[0.1084,50.99391],[0.10847,50.99372],[0.10856,50.99372]]]]}},
{ "type":"Feature","properties":{"osm_way_id":"933758561","amenity":"parking","other":{"access":"customers","parking":"surface"}}, "geometry":{"type":"MultiPolygon","coordinates":[[[[0.16645,51.06541],[0.16663,51.06536],[0.16659,51.06526],[0.16658,51.06524],[0.16648,51.06524],[0.16624,51.06531],[0.16645,51.06541]]]]}},
{ "type":"Feature","properties":{"osm_way_id":"935271231","amenity":"parking","other":{"access":"private","parking":"surface"}}, "geometry":{"type":"MultiPolygon","coordinates":[[[[0.159,51.05945],[0.15912,51.05952],[0.15946,51.05931],[0.15914,51.05914],[0.15905,51.0592],[0.15921,51.0593],[0.159,51.05945]]]]}},
{ "type":"Feature","properties":{"osm_way_id":"935271232","amenity":"parking","other":{"access":"customers","description":"Community Centre Car Park","parking":"surface"}}, "geometry":{"type":"MultiPolygon","coordinates":[[[[0.15833,51.05849],[0.15863,51.05835],[0.15845,51.05821],[0.15816,51.05835],[0.15833,51.05849]]]]}},
{ "type":"Feature","properties":{"osm_way_id":"935469139","amenity":"parking","other":{"access":"customers","operator":"JBFC Overflow Car Park","parking":"surface"}}, "geometry":{"type":"MultiPolygon","coordinates":[[[[0.18843,51.05458],[0.18869,51.05432],[0.18898,51.05442],[0.1887,51.05468],[0.18843,51.05458]]]]}},
{ "type":"Feature","properties":{"osm_way_id":"936620415","amenity":"parking","other":{"access":"customers"}}, "geometry":{"type":"MultiPolygon","coordinates":[[[[0.1817,51.06192],[0.18169,51.06198],[0.18161,51.06205],[0.18148,51.06199],[0.18155,51.06192],[0.18163,51.0619],[0.1817,51.06192]]]]}},
{ "type":"Feature","properties":{"osm_way_id":"940954979","amenity":"parking","other":{"fee":"no","parking":"surface","surface":"asphalt"}}, "geometry":{"type":"MultiPolygon","coordinates":[[[[0.09085,50.95477],[0.09138,50.95425],[0.09144,50.95428],[0.09092,50.95479],[0.09085,50.95477]]]]}},
{ "type":"Feature","properties":{"osm_way_id":"943348464","amenity":"parking","other":{"access":"private"}}, "geometry":{"type":"MultiPolygon","coordinates":[[[[0.58109,50.85896],[0.58128,50.85915],[0.58127,50.85918],[0.5813,50.85918],[0.58135,50.85903],[0.58139,50.85892],[0.58138,50.85892],[0.58133,50.85886],[0.58116,50.85893],[0.58115,50.85894],[0.58109,50.85896]]]]}},
{ "type":"Feature","properties":{"osm_way_id":"943562611","amenity":"parking"},"geometry":{"type":"MultiPolygon","coordinates":[[[[0.17195,51.03834],[0.17193,51.03844],[0.17161,51.03845],[0.17152,51.03846],[0.17154,51.03849],[0.17138,51.03851],[0.17133,51.03836],[0.17147,51.03831],[0.17195,51.03834]]]]}},
{ "type":"Feature","properties":{"osm_way_id":"949601857","name":"New Road Car Park","amenity":"parking","other":{"fee":"no","operator":"Wealden District Council","operator:type":"public","parking":"surface","surface":"asphalt"}}, "geometry":{"type":"MultiPolygon","coordinates":[[[[0.16236,51.05999],[0.16263,51.06004],[0.16271,51.05982],[0.16308,51.05988],[0.1631,51.05982],[0.16309,51.05977],[0.16305,51.05973],[0.16299,51.0597],[0.16292,51.05967],[0.16282,51.05963],[0.16274,51.05962],[0.16257,51.0596],[0.16254,51.05967],[0.1625,51.05977],[0.16248,51.05984],[0.16242,51.05983],[0.16236,51.05999]]]]}},
{ "type":"Feature","properties":{"osm_way_id":"954248695","amenity":"parking"},"geometry":{"type":"MultiPolygon","coordinates":[[[[0.21387,50.79192],[0.21388,50.79193],[0.21383,50.79195],[0.2137,50.792],[0.21366,50.79196],[0.21377,50.79188],[0.2138,50.79187],[0.21387,50.79192]]]]}},
{ "type":"Feature","properties":{"osm_way_id":"954876557","amenity":"parking","other":{"access":"customers","operator":"UR Church Car Park","operator:type":"religious","parking":"surface"}}, "geometry":{"type":"MultiPolygon","coordinates":[[[[0.15762,50.80725],[0.15777,50.80725],[0.15777,50.80729],[0.15777,50.80736],[0.15777,50.80738],[0.15776,50.80739],[0.15774,50.8074],[0.15754,50.80735],[0.15754,50.80731],[0.15762,50.8073],[0.15762,50.80725]]]]}},
{ "type":"Feature","properties":{"osm_way_id":"955001293","amenity":"parking","other":{"access":"private","parking":"surface"}}, "geometry":{"type":"MultiPolygon","coordinates":[[[[0.16311,51.04918],[0.16289,51.04916],[0.16293,51.04901],[0.16316,51.04903],[0.16311,51.04918]]]]}},
{ "type":"Feature","properties":{"osm_way_id":"955013688","amenity":"parking","other":{"access":"private"}}, "geometry":{"type":"MultiPolygon","coordinates":[[[[0.16541,51.05211],[0.16585,51.05191],[0.16581,51.05187],[0.16535,51.05204],[0.16541,51.05211]]]]}},
{ "type":"Feature","properties":{"osm_way_id":"955013689","amenity":"parking","other":{"access":"private"}}, "geometry":{"type":"MultiPolygon","coordinates":[[[[0.16494,51.05224],[0.16509,51.0522],[0.16505,51.05215],[0.1649,51.0522],[0.16494,51.05224]]]]}},
{ "type":"Feature","properties":{"osm_way_id":"955013690","amenity":"parking","other":{"access":"private"}}, "geometry":{"type":"MultiPolygon","coordinates":[[[[0.16472,51.05203],[0.16476,51.05193],[0.16487,51.0519],[0.165,51.05205],[0.16479,51.05212],[0.16472,51.05203]]]]}},
{ "type":"Feature","properties":{"osm_way_id":"955114986","amenity":"parking","other":{"access":"private"}}, "geometry":{"type":"MultiPolygon","coordinates":[[[[0.16511,51.04988],[0.16494,51.04972],[0.16483,51.04976],[0.16499,51.04992],[0.16511,51.04988]]]]}},
{ "type":"Feature","properties":{"osm_way_id":"956326608","building":"house","other":{"addr:city":"Crowborough","addr:housename":"Rosehill Gardens","addr:postcode":"TN6 2ED","addr:street":"Crowborough Hill"}}, "geometry":{"type":"MultiPolygon","coordinates":[[[[0.18649,51.04897],[0.18642,51.04899],[0.18648,51.04907],[0.18656,51.04905],[0.18649,51.04897]]]]}},
{ "type":"Feature","properties":{"osm_way_id":"956326628","building":"house","other":{"addr:city":"Crowborough","addr:housenumber":"22","addr:postcode":"TN6 2EJ","addr:street":"Bracken Close"}}, "geometry":{"type":"MultiPolygon","coordinates":[[[[0.18676,51.04999],[0.18684,51.04996],[0.18679,51.0499],[0.1867,51.04993],[0.18676,51.04999]]]]}},
{ "type":"Feature","properties":{"osm_way_id":"956326630","building":"house","other":{"addr:city":"Crowborough","addr:housenumber":"14","addr:postcode":"TN6 2EJ","addr:street":"Bracken Close"}}, "geometry":{"type":"MultiPolygon","coordinates":[[[[0.18714,51.04981],[0.18723,51.04977],[0.18718,51.04972],[0.18709,51.04976],[0.18714,51.04981]]]]}},
{ "type":"Feature","properties":{"osm_way_id":"956887002","amenity":"parking","other":{"access":"private"}}, "geometry":{"type":"MultiPolygon","coordinates":[[[[0.16392,51.05861],[0.16419,51.05849],[0.16409,51.05845],[0.16385,51.05855],[0.16392,51.05861]]]]}},
{ "type":"Feature","properties":{"osm_way_id":"962563050","amenity":"parking","other":{"access":"private"}}, "geometry":{"type":"MultiPolygon","coordinates":[[[[-0.00113,51.03175],[-0.00103,51.03155],[-0.00106,51.0315],[-0.00115,51.03152],[-0.0012,51.03154],[-0.00118,51.03157],[-0.00133,51.03161],[-0.00128,51.03168],[-0.00122,51.03173],[-0.00113,51.03175]]]]}},
{ "type":"Feature","properties":{"osm_way_id":"962588114","amenity":"parking","other":{"access":"private"}}, "geometry":{"type":"MultiPolygon","coordinates":[[[[0.00103,51.0317],[0.00095,51.0317],[0.00096,51.03168],[0.0009,51.03168],[0.0009,51.03165],[0.00087,51.03161],[0.00099,51.03153],[0.00102,51.03155],[0.00112,51.03156],[0.00109,51.03165],[0.00103,51.0317]]]]}},
{ "type":"Feature","properties":{"osm_way_id":"962588118","amenity":"parking","other":{"access":"private"}}, "geometry":{"type":"MultiPolygon","coordinates":[[[[0.00135,51.03255],[0.00134,51.03253],[0.0013,51.03252],[0.00124,51.03252],[0.00125,51.03245],[0.00136,51.03246],[0.00141,51.03248],[0.00147,51.03252],[0.0014,51.03253],[0.00135,51.03255]]]]}},
{ "type":"Feature","properties":{"osm_way_id":"962588119","amenity":"parking","other":{"access":"private"}}, "geometry":{"type":"MultiPolygon","coordinates":[[[[0.0017,51.03246],[0.0017,51.03242],[0.00163,51.0324],[0.00173,51.03228],[0.0019,51.03235],[0.00195,51.03236],[0.00184,51.03241],[0.0017,51.03246]]]]}},
{ "type":"Feature","properties":{"osm_way_id":"963407374","amenity":"parking"},"geometry":{"type":"MultiPolygon","coordinates":[[[[0.21645,51.04235],[0.21685,51.04224],[0.21677,51.04213],[0.21637,51.04224],[0.21645,51.04235]]]]}},
{ "type":"Feature","properties":{"osm_way_id":"969469837","name":"Friends","amenity":"parking","other":{"access":"yes","fee":"no","lit":"no","parking":"surface","supervised":"no","surface":"grass"}}, "geometry":{"type":"MultiPolygon","coordinates":[[[[0.07583,51.04133],[0.07597,51.04117],[0.07602,51.04101],[0.07595,51.04084],[0.0758,51.04072],[0.0752,51.04073],[0.0751,51.041],[0.07512,51.04137],[0.07513,51.04144],[0.07552,51.04139],[0.07583,51.04133]]]]}},
{ "type":"Feature","properties":{"osm_way_id":"970962959","amenity":"parking","other":{"access":"yes","capacity":"10","capacity:disabled":"4","fee":"no","operator":"St Andrew's Church","operator:type":"private_non_profit","parking":"surface"}}, "geometry":{"type":"MultiPolygon","coordinates":[[[[-1.98478,53.9091],[-1.98489,53.90909],[-1.98486,53.90893],[-1.98473,53.90893],[-1.98469,53.90897],[-1.98467,53.90897],[-1.98466,53.909],[-1.98468,53.90907],[-1.9847,53.9091],[-1.98478,53.9091]]]]}},
{ "type":"Feature","properties":{"osm_way_id":"975401488","name":"Poundgate","amenity":"parking","other":{"access":"yes","fee":"no","parking":"surface","surface":"unpaved"}}, "geometry":{"type":"MultiPolygon","coordinates":[[[[0.11168,51.03675],[0.11177,51.03676],[0.11186,51.03674],[0.11193,51.03672],[0.11198,51.0367],[0.11199,51.03666],[0.11197,51.03662],[0.11192,51.03659],[0.11186,51.03659],[0.11178,51.0366],[0.11175,51.03661],[0.11168,51.03671],[0.11168,51.03675]]]]}},
{ "type":"Feature","properties":{"osm_way_id":"982807020","amenity":"parking","other":{"capacity":"3","surface":"asphalt"}}, "geometry":{"type":"MultiPolygon","coordinates":[[[[0.33605,50.8675],[0.33605,50.86753],[0.33605,50.86757],[0.33596,50.86757],[0.33596,50.8675],[0.33597,50.8675],[0.33603,50.8675],[0.33605,50.8675]]]]}},
{ "type":"Feature","properties":{"osm_way_id":"987370804","amenity":"parking","other":{"parking":"surface"}}, "geometry":{"type":"MultiPolygon","coordinates":[[[[0.18804,51.04975],[0.18819,51.04982],[0.18845,51.04958],[0.18829,51.04951],[0.18804,51.04975]]]]}},
{ "type":"Feature","properties":{"osm_way_id":"1001569462","amenity":"parking","other":{"access":"customers"}}, "geometry":{"type":"MultiPolygon","coordinates":[[[[-0.03095,51.08977],[-0.03087,51.08976],[-0.03087,51.08977],[-0.03078,51.08976],[-0.0308,51.08972],[-0.03073,51.08971],[-0.03081,51.08953],[-0.03093,51.08955],[-0.03104,51.08957],[-0.03095,51.08977]]]]}},
{ "type":"Feature","properties":{"osm_way_id":"1009387059","amenity":"parking","other":{"access":"private","capacity:disabled":"3","fee":"yes","operator":"DUnkeld and Birnam Golf Club"}}, "geometry":{"type":"MultiPolygon","coordinates":[[[[-3.57626,56.57058],[-3.57638,56.57063],[-3.57634,56.57066],[-3.5764,56.5707],[-3.57648,56.57065],[-3.57656,56.57063],[-3.57663,56.57055],[-3.57656,56.57052],[-3.57636,56.57047],[-3.57635,56.57048],[-3.57626,56.57058]]]]}},
{ "type":"Feature","properties":{"osm_way_id":"1017389878","amenity":"parking","other":{"access":"private"}}, "geometry":{"type":"MultiPolygon","coordinates":[[[[0.15359,50.77548],[0.15377,50.77557],[0.15379,50.77556],[0.15381,50.77555],[0.15401,50.77538],[0.15382,50.77529],[0.15359,50.77548]]]]}},
{ "type":"Feature","properties":{"osm_way_id":"1017389897","name":"Staff Car Park","amenity":"parking","other":{"access":"private"}}, "geometry":{"type":"MultiPolygon","coordinates":[[[[0.15306,50.77577],[0.15309,50.77576],[0.15311,50.77574],[0.15323,50.77568],[0.15352,50.77583],[0.15344,50.77587],[0.15335,50.77591],[0.15306,50.77577]]]]}},
{ "type":"Feature","properties":{"osm_way_id":"1019508260","amenity":"parking","other":{"capacity:disabled":"3"}}, "geometry":{"type":"MultiPolygon","coordinates":[[[[0.19522,51.01355],[0.19526,51.01342],[0.19533,51.01343],[0.19541,51.01344],[0.19544,51.01352],[0.19542,51.01358],[0.19522,51.01355]]]]}},
{ "type":"Feature","properties":{"osm_way_id":"1026859382","amenity":"parking","other":{"fee":"no","parking":"surface","surface":"asphalt"}}, "geometry":{"type":"MultiPolygon","coordinates":[[[[0.3264,50.81823],[0.32661,50.81832],[0.32682,50.81804],[0.32657,50.81798],[0.3264,50.81823]]]]}},
{ "type":"Feature","properties":{"osm_way_id":"1040245410","amenity":"parking"},"geometry":{"type":"MultiPolygon","coordinates":[[[[0.10946,50.92363],[0.10975,50.92384],[0.10996,50.92369],[0.10987,50.92362],[0.10946,50.92363]]]]}},
{ "type":"Feature","properties":{"osm_way_id":"1040245411","amenity":"parking"},"geometry":{"type":"MultiPolygon","coordinates":[[[[0.10872,50.92383],[0.1094,50.92383],[0.10928,50.92361],[0.10859,50.92362],[0.10872,50.92383]]]]}}
]
}
