{
"type": "FeatureCollection",
"features": [
{ "type":"Feature","properties":{"osm_way_id":"81071369","name":"Sainsbury's","building":"retail","shop":"supermarket","other":{"addr:housename":"The Sainsbury Centre","addr:housenumber":"1","addr:postcode":"KT16 9AG","addr:street":"Guildford Street","alt_name":"Sainsbury's Chertsey Superstore","brand":"Sainsbury's","brand:wikidata":"Q152096","brand:wikipedia":"en:Sainsbury's","opening_hours":"Mo-Sa 07:00-21:00; Su 10:00-16:00"}}, "geometry":{"type":"MultiPolygon","coordinates":[[[[-0.5037,51.39116],[-0.50375,51.39126],[-0.50382,51.39137],[-0.50306,51.39155],[-0.50289,51.39126],[-0.50295,51.39124],[-0.50294,51.39123],[-0.50293,51.39122],[-0.50296,51.39121],[-0.50351,51.39108],[-0.50353,51.39112],[-0.50357,51.39119],[-0.5037,51.39116]]]]}},
{ "type":"Feature","properties":{"osm_way_id":"100913753","name":"Tesco Extra","building":"yes","shop":"supermarket","other":{"brand":"Tesco Extra","brand:wikidata":"Q25172225","brand:wikipedia":"en:Tesco Extra"}}, "geometry":{"type":"MultiPolygon","coordinates":[[[[-3.40409,56.0612],[-3.40407,56.06028],[-3.40224,56.06029],[-3.40225,56.06056],[-3.40225,56.06066],[-3.40251,56.06066],[-3.40251,56.06062],[-3.40261,56.06062],[-3.40261,56.06068],[-3.40267,56.06068],[-3.40268,56.06121],[-3.40409,56.0612]]]]}},
{ "type":"Feature","properties":{"osm_way_id":"149730119","name":"Tesco","building":"retail","shop":"supermarket","other":{"addr:city":"Egham","addr:housenumber":"60-63","addr:postcode":"TW20 9EX","addr:street":"High Street","alt_name":"Tesco Egham Superstore","brand":"Tesco","brand:wikidata":"Q487494","brand:wikipedia":"en:Tesco","building:levels":"2","fhrs:id":"315365","opening_hours":"Mo-Sa 07:30-22:00; Su 11:00-17:00","opening_hours:covid19":"open","roof:levels":"1","roof:shape":"flat","source:addr":"FHRS Open Data"}}, "geometry":{"type":"MultiPolygon","coordinates":[[[[-0.54616,51.43236],[-0.54649,51.43225],[-0.54675,51.43217],[-0.54685,51.4323],[-0.54721,51.43275],[-0.54714,51.43277],[-0.54704,51.43266],[-0.54701,51.43267],[-0.54708,51.43277],[-0.54661,51.43291],[-0.54642,51.43268],[-0.54634,51.43257],[-0.54626,51.43248],[-0.54616,51.43236]]]]}},
{ "type":"Feature","properties":{"osm_way_id":"161955465","name":"Tesco Extra","building":"yes","shop":"supermarket","other":{"addr:city":"Addlestone","addr:street":"Station Road","brand":"Tesco Extra","brand:wikidata":"Q25172225","brand:wikipedia":"en:Tesco Extra","opening_hours":"Mo-Sa 00:00-24:00; Su 11:00-17:00","toilets:wheelchair":"yes","website":"https:\/\/www.tesco.com\/store-locator\/addlestone\/117-station-road","wheelchair":"yes"}}, "geometry":{"type":"MultiPolygon","coordinates":[[[[-0.48773,51.37181],[-0.48763,51.37177],[-0.48713,51.37185],[-0.48712,51.37183],[-0.48665,51.3719],[-0.48679,51.37228],[-0.48666,51.3723],[-0.48665,51.37235],[-0.48679,51.37237],[-0.48677,51.37239],[-0.48691,51.37275],[-0.48696,51.37277],[-0.48769,51.37266],[-0.4877,51.37267],[-0.4877,51.3727],[-0.48797,51.37266],[-0.48803,51.3726],[-0.48792,51.37231],[-0.48777,51.37193],[-0.48773,51.37181]]]]}},
{ "type":"Feature","properties":{"osm_way_id":"162542843","name":"Sainsbury's","building":"supermarket","shop":"supermarket","other":{"addr:postcode":"TW18 3AP","addr:street":"The Causeway","alt_name":"Sainsbury's Staines Superstore","brand":"Sainsbury's","brand:wikidata":"Q152096","opening_hours":"Mo-Sa 08:00-20:00; Su 10:00-16:00"}}, "geometry":{"type":"MultiPolygon","coordinates":[[[[-0.52006,51.43215],[-0.52037,51.43224],[-0.52034,51.43228],[-0.52029,51.43236],[-0.52028,51.43236],[-0.52026,51.43236],[-0.52023,51.43236],[-0.52023,51.43237],[-0.52024,51.43237],[-0.52025,51.43238],[-0.52025,51.4324],[-0.52023,51.43241],[-0.52022,51.43241],[-0.5202,51.43241],[-0.52019,51.43241],[-0.52021,51.43242],[-0.52022,51.43244],[-0.52021,51.43245],[-0.52019,51.43246],[-0.52016,51.43246],[-0.52016,51.43246],[-0.52019,51.43247],[-0.5202,51.43248],[-0.5202,51.43249],[-0.52007,51.43268],[-0.52001,51.43266],[-0.51997,51.43273],[-0.51992,51.43272],[-0.51989,51.43276],[-0.51994,51.43277],[-0.51992,51.43281],[-0.51986,51.43279],[-0.5198,51.43289],[-0.51984,51.4329],[-0.51982,51.43293],[-0.5198,51.43292],[-0.51978,51.43292],[-0.51975,51.43297],[-0.51914,51.43281],[-0.51914,51.43281],[-0.51907,51.4328],[-0.51908,51.43279],[-0.51892,51.43275],[-0.5189,51.43275],[-0.51885,51.43268],[-0.51887,51.43267],[-0.51902,51.43246],[-0.519,51.43245],[-0.51903,51.43242],[-0.51904,51.43242],[-0.51906,51.43239],[-0.51922,51.43216],[-0.51926,51.4321],[-0.51926,51.43209],[-0.51927,51.43209],[-0.51932,51.43203],[-0.51933,51.432],[-0.51938,51.43193],[-0.51941,51.43194],[-0.51955,51.43198],[-0.51943,51.43215],[-0.51963,51.4322],[-0.51997,51.43229],[-0.52006,51.43215]]]]}},
{ "type":"Feature","properties":{"osm_way_id":"310717026","name":"Pound Deals","building":"yes","shop":"supermarket","other":{"opening_hours":"Mo-Sa 09:00-18:00; Su 10:00-16:00"}}, "geometry":{"type":"MultiPolygon","coordinates":[[[[-0.50451,51.39105],[-0.50458,51.39096],[-0.50449,51.39094],[-0.50442,51.39092],[-0.5042,51.39086],[-0.50397,51.39079],[-0.5039,51.39088],[-0.50438,51.39102],[-0.50451,51.39105]]]]}},
{ "type":"Feature","properties":{"osm_way_id":"313382311","name":"Tesco Extra","building":"yes","shop":"supermarket","other":{"addr:city":"Addlestone","addr:street":"Station Road","brand":"Tesco Extra","brand:wikidata":"Q25172225","brand:wikipedia":"en:Tesco Extra","toilets:wheelchair":"no","website":"https:\/\/www.tesco.com\/store-locator\/addlestone\/117-station-road","wheelchair":"yes","wheelchair:description":"Also pay point for Filling station, drop kerb to door. Nearest accessible toilet in main Tesco store 150m."}}, "geometry":{"type":"MultiPolygon","coordinates":[[[[-0.48891,51.37201],[-0.48889,51.37192],[-0.48899,51.37191],[-0.48901,51.372],[-0.48891,51.37201]]]]}},
{ "type":"Feature","properties":{"osm_way_id":"421341001","name":"Waitrose","building":"retail","shop":"supermarket","other":{"addr:city":"Egham","addr:postcode":"TW20 9HZ","addr:street":"Church Road","brand":"Waitrose","brand:wikidata":"Q771734","brand:wikipedia":"en:Waitrose & Partners","fhrs:id":"770924","level":"0","official_name":"Waitrose & Partners","opening_hours":"Mo-Sa 07:30-21:00; Su 11:00-17:00","operator":"Waitrose & Partners","phone":"+44 1784479833","source:addr":"FHRS Open Data","website":"https:\/\/www.waitrose.com\/"}}, "geometry":{"type":"MultiPolygon","coordinates":[[[[-0.54634,51.4317],[-0.54551,51.43199],[-0.54532,51.43175],[-0.54542,51.43169],[-0.54577,51.43153],[-0.546,51.43146],[-0.54614,51.4316],[-0.54623,51.43158],[-0.54634,51.4317]]]]}},
{ "type":"Feature","properties":{"osm_way_id":"500225527","name":"ALDI","building":"supermarket","shop":"supermarket","other":{"brand":"ALDI","brand:wikidata":"Q41171672","brand:wikipedia":"en:Aldi","opening_hours":"Mo-Sa 08:00-22:00; Su 10:00-16:00"}}, "geometry":{"type":"MultiPolygon","coordinates":[[[[-0.50617,51.39086],[-0.50634,51.39071],[-0.50639,51.39074],[-0.50649,51.39066],[-0.50582,51.39035],[-0.50555,51.39057],[-0.50617,51.39086]]]]}},
{ "type":"Feature","properties":{"osm_way_id":"563131776","name":"Co-op Food","building":"yes","shop":"supermarket","other":{"addr:postcode":"KT15 3HA","addr:street":"The Broadway","brand":"Co-op Food","brand:wikidata":"Q3277439","brand:wikipedia":"en:Co-op Food"}}, "geometry":{"type":"MultiPolygon","coordinates":[[[[-0.50358,51.34879],[-0.50347,51.34882],[-0.50334,51.34869],[-0.50325,51.34872],[-0.50319,51.34865],[-0.50333,51.3486],[-0.50345,51.34864],[-0.50358,51.34879]]]]}}
]
}
