{
"type": "FeatureCollection",
"features": [
{ "type":"Feature","properties":{"osm_id":"18085957","other":{"amenity":"parking"}}, "geometry":{"type":"Point","coordinates":[-1.91585,53.32333 ]}},
{ "type":"Feature","properties":{"osm_id":"18085961","name":"Chapel DIY Centre","other":{"amenity":"parking"}}, "geometry":{"type":"Point","coordinates":[-1.9188,53.32412 ]}},
{ "type":"Feature","properties":{"osm_id":"18086084","name":"Chapel-en-le-Frith Railway Station","other":{"amenity":"parking","parking":"surface"}}, "geometry":{"type":"Point","coordinates":[-1.9182,53.31225 ]}},
{ "type":"Feature","properties":{"osm_id":"18086183","other":{"amenity":"parking"}}, "geometry":{"type":"Point","coordinates":[-1.92227,53.31914 ]}},
{ "type":"Feature","properties":{"osm_id":"26420197","other":{"amenity":"parking","capacity":"4","operator":"National Trust","operator:wikidata":"Q333515","operator:wikipedia":"en:National Trust","parking":"street_side"}}, "geometry":{"type":"Point","coordinates":[-1.84658,53.43169 ]}},
{ "type":"Feature","properties":{"osm_id":"133007830","other":{"amenity":"parking"}}, "geometry":{"type":"Point","coordinates":[-1.94841,53.44279 ]}},
{ "type":"Feature","properties":{"osm_id":"233197679","name":"B&M","other":{"access":"customers","amenity":"parking","fee":"yes","parking":"surface","surface":"asphalt"}}, "geometry":{"type":"Point","coordinates":[-1.95033,53.44455 ]}},
{ "type":"Feature","properties":{"osm_id":"248957568","other":{"access":"yes","amenity":"parking","fee":"no","parking":"surface"}}, "geometry":{"type":"Point","coordinates":[-1.83698,53.41976 ]}},
{ "type":"Feature","properties":{"osm_id":"279851763","other":{"access":"yes","amenity":"parking","fee":"no","parking":"layby"}}, "geometry":{"type":"Point","coordinates":[-1.67565,53.3832 ]}},
{ "type":"Feature","properties":{"osm_id":"290518971","other":{"access":"yes","amenity":"parking","fee":"no","parking":"layby"}}, "geometry":{"type":"Point","coordinates":[-1.85681,53.43269 ]}},
{ "type":"Feature","properties":{"osm_id":"320771846","other":{"amenity":"parking"}}, "geometry":{"type":"Point","coordinates":[-1.95216,53.47255 ]}},
{ "type":"Feature","properties":{"osm_id":"324670837","other":{"amenity":"parking","fee":"no"}}, "geometry":{"type":"Point","coordinates":[-1.98841,53.31548 ]}},
{ "type":"Feature","properties":{"osm_id":"374427916","other":{"access":"customers","amenity":"parking","fee":"no","parking":"surface"}}, "geometry":{"type":"Point","coordinates":[-1.91842,53.21933 ]}},
{ "type":"Feature","properties":{"osm_id":"660830439","other":{"amenity":"parking","description":"Layby"}}, "geometry":{"type":"Point","coordinates":[-1.8102,53.34196 ]}},
{ "type":"Feature","properties":{"osm_id":"660830440","other":{"amenity":"parking","description":"Layby"}}, "geometry":{"type":"Point","coordinates":[-1.80971,53.34296 ]}},
{ "type":"Feature","properties":{"osm_id":"660864937","other":{"amenity":"parking","description":"More a place for horseboxes to unload than for long-term parking"}}, "geometry":{"type":"Point","coordinates":[-1.85036,53.32842 ]}},
{ "type":"Feature","properties":{"osm_id":"702033774","other":{"amenity":"parking","parking":"surface"}}, "geometry":{"type":"Point","coordinates":[-1.90855,53.24806 ]}},
{ "type":"Feature","properties":{"osm_id":"905471972","other":{"access":"customers","amenity":"parking","capacity:disabled":"0","parking":"surface","surface":"unpaved"}}, "geometry":{"type":"Point","coordinates":[-1.77664,53.35224 ]}},
{ "type":"Feature","properties":{"osm_id":"1036529162","other":{"amenity":"parking","description":"Muddy grass verge; usable when dry only"}}, "geometry":{"type":"Point","coordinates":[-1.86299,53.24135 ]}},
{ "type":"Feature","properties":{"osm_id":"1127138287","other":{"amenity":"parking"}}, "geometry":{"type":"Point","coordinates":[-1.86011,53.32112 ]}},
{ "type":"Feature","properties":{"osm_id":"1128734771","other":{"access":"yes","amenity":"parking","capacity":"12","fee":"no","lit":"no","maxstay":"no","parking":"layby","supervised":"no","surface":"gravel"}}, "geometry":{"type":"Point","coordinates":[-1.9661,53.41569 ]}},
{ "type":"Feature","properties":{"osm_id":"1128921665","other":{"amenity":"parking","surface":"gravel"}}, "geometry":{"type":"Point","coordinates":[-1.96253,53.41391 ]}},
{ "type":"Feature","properties":{"osm_id":"1128925774","other":{"access":"unknown","amenity":"parking"}}, "geometry":{"type":"Point","coordinates":[-2.00561,53.42643 ]}},
{ "type":"Feature","properties":{"osm_id":"1128958287","other":{"amenity":"parking"}}, "geometry":{"type":"Point","coordinates":[-2.00226,53.39 ]}},
{ "type":"Feature","properties":{"osm_id":"1258716454","other":{"amenity":"parking"}}, "geometry":{"type":"Point","coordinates":[-1.77443,53.34569 ]}},
{ "type":"Feature","properties":{"osm_id":"1379933402","other":{"amenity":"parking"}}, "geometry":{"type":"Point","coordinates":[-1.81534,53.36725 ]}},
{ "type":"Feature","properties":{"osm_id":"1533380962","other":{"access":"customers","amenity":"parking","operator":"Buxworth War Memorial Club","parking":"surface"}}, "geometry":{"type":"Point","coordinates":[-1.96584,53.33641 ]}},
{ "type":"Feature","properties":{"osm_id":"1562934224","other":{"amenity":"parking"}}, "geometry":{"type":"Point","coordinates":[-1.81319,53.49375 ]}},
{ "type":"Feature","properties":{"osm_id":"1562934306","other":{"amenity":"parking"}}, "geometry":{"type":"Point","coordinates":[-1.82353,53.49311 ]}},
{ "type":"Feature","properties":{"osm_id":"1568917118","other":{"amenity":"parking"}}, "geometry":{"type":"Point","coordinates":[-1.95068,53.33409 ]}},
{ "type":"Feature","properties":{"osm_id":"1568918368","other":{"amenity":"parking"}}, "geometry":{"type":"Point","coordinates":[-1.93468,53.33315 ]}},
{ "type":"Feature","properties":{"osm_id":"1568918372","other":{"amenity":"parking"}}, "geometry":{"type":"Point","coordinates":[-1.93175,53.33291 ]}},
{ "type":"Feature","properties":{"osm_id":"1570751033","other":{"amenity":"parking"}}, "geometry":{"type":"Point","coordinates":[-1.8876,53.25101 ]}},
{ "type":"Feature","properties":{"osm_id":"1570751069","other":{"amenity":"parking"}}, "geometry":{"type":"Point","coordinates":[-1.85662,53.24944 ]}},
{ "type":"Feature","properties":{"osm_id":"1572640155","other":{"access":"yes","amenity":"parking"}}, "geometry":{"type":"Point","coordinates":[-1.80596,53.40217 ]}},
{ "type":"Feature","properties":{"osm_id":"1574846813","other":{"amenity":"parking"}}, "geometry":{"type":"Point","coordinates":[-1.8521,53.51622 ]}},
{ "type":"Feature","properties":{"osm_id":"1574846888","other":{"amenity":"parking"}}, "geometry":{"type":"Point","coordinates":[-1.8518,53.52048 ]}},
{ "type":"Feature","properties":{"osm_id":"1588707004","other":{"amenity":"parking","description":"Layby"}}, "geometry":{"type":"Point","coordinates":[-1.84539,53.3153 ]}},
{ "type":"Feature","properties":{"osm_id":"1616701576","other":{"amenity":"parking"}}, "geometry":{"type":"Point","coordinates":[-1.97338,53.29222 ]}},
{ "type":"Feature","properties":{"osm_id":"1754813360","other":{"amenity":"parking","fee":"yes","parking":"surface"}}, "geometry":{"type":"Point","coordinates":[-1.78355,53.34238 ]}},
{ "type":"Feature","properties":{"osm_id":"1820937222","other":{"access":"private","amenity":"parking"}}, "geometry":{"type":"Point","coordinates":[-1.75222,53.3471 ]}},
{ "type":"Feature","properties":{"osm_id":"1977754731","other":{"amenity":"parking"}}, "geometry":{"type":"Point","coordinates":[-1.74184,53.3482 ]}},
{ "type":"Feature","properties":{"osm_id":"2064576834","other":{"amenity":"parking"}}, "geometry":{"type":"Point","coordinates":[-1.79588,53.49779 ]}},
{ "type":"Feature","properties":{"osm_id":"2106953835","other":{"access":"yes","amenity":"parking","fee":"no","parking":"surface"}}, "geometry":{"type":"Point","coordinates":[-1.67821,53.35204 ]}},
{ "type":"Feature","properties":{"osm_id":"2383101786","other":{"amenity":"parking"}}, "geometry":{"type":"Point","coordinates":[-1.97244,53.42835 ]}},
{ "type":"Feature","properties":{"osm_id":"2609816557","other":{"amenity":"parking","description":"Layby"}}, "geometry":{"type":"Point","coordinates":[-1.68669,53.33622 ]}},
{ "type":"Feature","properties":{"osm_id":"2609861381","other":{"access":"private","amenity":"parking"}}, "geometry":{"type":"Point","coordinates":[-1.69893,53.34337 ]}},
{ "type":"Feature","properties":{"osm_id":"3682903923","other":{"amenity":"parking","capacity":"4","parking":"surface"}}, "geometry":{"type":"Point","coordinates":[-1.92371,53.30451 ]}},
{ "type":"Feature","properties":{"osm_id":"3764237167","other":{"access":"private","amenity":"parking","parking":"surface"}}, "geometry":{"type":"Point","coordinates":[-1.76003,53.39632 ]}},
{ "type":"Feature","properties":{"osm_id":"4719154486","other":{"access":"yes","amenity":"parking","fee":"yes","parking":"surface"}}, "geometry":{"type":"Point","coordinates":[-2.00673,53.36425 ]}},
{ "type":"Feature","properties":{"osm_id":"5814741772","other":{"amenity":"parking"}}, "geometry":{"type":"Point","coordinates":[-1.66192,53.39152 ]}},
{ "type":"Feature","properties":{"osm_id":"6086177802","other":{"amenity":"parking"}}, "geometry":{"type":"Point","coordinates":[-1.95237,53.23902 ]}},
{ "type":"Feature","properties":{"osm_id":"6518186304","other":{"amenity":"parking"}}, "geometry":{"type":"Point","coordinates":[-1.80767,53.34549 ]}},
{ "type":"Feature","properties":{"osm_id":"6518186305","other":{"amenity":"parking"}}, "geometry":{"type":"Point","coordinates":[-1.80705,53.34551 ]}},
{ "type":"Feature","properties":{"osm_id":"6778223336","other":{"amenity":"parking","capacity":"20"}}, "geometry":{"type":"Point","coordinates":[-1.91836,53.23269 ]}},
{ "type":"Feature","properties":{"osm_id":"6988171948","name":"NoteMachine","other":{"amenity":"atm","brand":"NoteMachine","brand:wikidata":"Q104368525","fee":"no","opening_hours":"24\/7","operator":"NoteMachine","operator:wikidata":"Q104368525","short_name":"NMATM"}}, "geometry":{"type":"Point","coordinates":[-1.90345,53.25341 ]}},
{ "type":"Feature","properties":{"osm_id":"6988171949","name":"NoteMachine","other":{"amenity":"atm","brand":"NoteMachine","brand:wikidata":"Q104368525","fee":"no","opening_hours":"24\/7","operator":"NoteMachine","operator:wikidata":"Q104368525","short_name":"NMATM"}}, "geometry":{"type":"Point","coordinates":[-1.90346,53.25342 ]}},
{ "type":"Feature","properties":{"osm_id":"7110672603","other":{"amenity":"parking","parking":"surface"}}, "geometry":{"type":"Point","coordinates":[-1.97242,53.33588 ]}},
{ "type":"Feature","properties":{"osm_id":"7435152501","other":{"amenity":"parking","capacity":"10","parking":"lane"}}, "geometry":{"type":"Point","coordinates":[-1.66631,53.38501 ]}},
{ "type":"Feature","properties":{"osm_id":"7460615360","other":{"amenity":"parking","capacity":"8","fee":"no"}}, "geometry":{"type":"Point","coordinates":[-1.74773,53.38157 ]}},
{ "type":"Feature","properties":{"osm_id":"7816690626","other":{"natural":"tree"}}, "geometry":{"type":"Point","coordinates":[-3.12373,54.54535 ]}},
{ "type":"Feature","properties":{"osm_id":"7816690627","other":{"natural":"tree"}}, "geometry":{"type":"Point","coordinates":[-3.12346,54.54554 ]}},
{ "type":"Feature","properties":{"osm_id":"7816690628","other":{"natural":"tree"}}, "geometry":{"type":"Point","coordinates":[-3.12333,54.54555 ]}},
{ "type":"Feature","properties":{"osm_id":"7816690629","other":{"natural":"tree"}}, "geometry":{"type":"Point","coordinates":[-3.12346,54.5457 ]}},
{ "type":"Feature","properties":{"osm_id":"7859186531","other":{"access":"yes","amenity":"parking","capacity":"5","fee":"no","parking":"surface"}}, "geometry":{"type":"Point","coordinates":[-1.87801,53.49061 ]}},
{ "type":"Feature","properties":{"osm_id":"8253136616","other":{"amenity":"parking","parking":"surface"}}, "geometry":{"type":"Point","coordinates":[-1.94495,53.4439 ]}},
{ "type":"Feature","properties":{"osm_id":"8253136619","other":{"access":"private","amenity":"parking","parking":"surface"}}, "geometry":{"type":"Point","coordinates":[-1.94727,53.44445 ]}},
{ "type":"Feature","properties":{"osm_id":"8258344959","other":{"access":"yes","amenity":"parking","fee":"no","parking":"layby"}}, "geometry":{"type":"Point","coordinates":[-1.85907,53.43259 ]}},
{ "type":"Feature","properties":{"osm_id":"8258344992","other":{"access":"yes","amenity":"parking","fee":"no","parking":"layby","surface":"unpaved"}}, "geometry":{"type":"Point","coordinates":[-1.85037,53.43288 ]}},
{ "type":"Feature","properties":{"osm_id":"8271164837","other":{"access":"customers","amenity":"parking","capacity":"4","capacity:disabled":"0","parking":"surface","surface":"unpaved"}}, "geometry":{"type":"Point","coordinates":[-1.73471,53.35845 ]}},
{ "type":"Feature","properties":{"osm_id":"8271886989","other":{"amenity":"parking","capacity:disabled":"yes","parking":"surface"}}, "geometry":{"type":"Point","coordinates":[-1.74807,53.34957 ]}},
{ "type":"Feature","properties":{"osm_id":"8404166146","other":{"amenity":"parking","parking":"surface"}}, "geometry":{"type":"Point","coordinates":[-1.81511,53.36418 ]}},
{ "type":"Feature","properties":{"osm_id":"8489223641","other":{"amenity":"parking"}}, "geometry":{"type":"Point","coordinates":[-1.94504,53.44258 ]}},
{ "type":"Feature","properties":{"osm_id":"8591201552","other":{"amenity":"parking","parking":"surface"}}, "geometry":{"type":"Point","coordinates":[-1.95317,53.2851 ]}},
{ "type":"Feature","properties":{"osm_id":"8591201735","other":{"amenity":"parking","parking":"surface"}}, "geometry":{"type":"Point","coordinates":[-1.90682,53.23712 ]}},
{ "type":"Feature","properties":{"osm_id":"8591201773","other":{"amenity":"parking","parking":"surface"}}, "geometry":{"type":"Point","coordinates":[-1.90989,53.25031 ]}},
{ "type":"Feature","properties":{"osm_id":"8591201774","other":{"amenity":"parking","parking":"surface"}}, "geometry":{"type":"Point","coordinates":[-1.91083,53.2503 ]}},
{ "type":"Feature","properties":{"osm_id":"8615402142","other":{"natural":"shake_hole"}}, "geometry":{"type":"Point","coordinates":[-2.20756,54.66873 ]}},
{ "type":"Feature","properties":{"osm_id":"8615402145","other":{"natural":"shake_hole"}}, "geometry":{"type":"Point","coordinates":[-2.26331,54.70135 ]}},
{ "type":"Feature","properties":{"osm_id":"8615402153","man_made":"cairn"},"geometry":{"type":"Point","coordinates":[-2.30095,54.71946 ]}},
{ "type":"Feature","properties":{"osm_id":"8615402157","other":{"natural":"shake_hole"}}, "geometry":{"type":"Point","coordinates":[-2.2158,54.68394 ]}},
{ "type":"Feature","properties":{"osm_id":"8615402167","other":{"natural":"shake_hole"}}, "geometry":{"type":"Point","coordinates":[-2.28045,54.70537 ]}},
{ "type":"Feature","properties":{"osm_id":"8615402180","other":{"natural":"shake_hole"}}, "geometry":{"type":"Point","coordinates":[-2.20801,54.67003 ]}},
{ "type":"Feature","properties":{"osm_id":"8615402207","man_made":"cairn"},"geometry":{"type":"Point","coordinates":[-2.30277,54.72172 ]}},
{ "type":"Feature","properties":{"osm_id":"8671587024","other":{"amenity":"parking","capacity":"3"}}, "geometry":{"type":"Point","coordinates":[-1.94788,53.33893 ]}},
{ "type":"Feature","properties":{"osm_id":"8672628778","other":{"amenity":"parking","capacity":"8","fee":"no"}}, "geometry":{"type":"Point","coordinates":[-1.92891,53.36195 ]}},
{ "type":"Feature","properties":{"osm_id":"8907302041","other":{"access":"yes","amenity":"parking","capacity":"8","fee":"no","parking":"lane"}}, "geometry":{"type":"Point","coordinates":[-1.70257,53.36102 ]}},
{ "type":"Feature","properties":{"osm_id":"9104939102","other":{"amenity":"parking","capacity":"10"}}, "geometry":{"type":"Point","coordinates":[-1.69307,53.33911 ]}},
{ "type":"Feature","properties":{"osm_id":"9108074513","other":{"access":"yes","amenity":"bicycle_parking","bicycle_parking":"stands","capacity":"4","covered":"no","description":"Sheffield type cycle stands in public car park","fee":"no","operator":"High Peak Borough Council","operator:type":"public"}}, "geometry":{"type":"Point","coordinates":[-1.91403,53.25729 ]}},
{ "type":"Feature","properties":{"osm_id":"9129611925","other":{"amenity":"parking","capacity":"4"}}, "geometry":{"type":"Point","coordinates":[-1.75049,53.35942 ]}},
{ "type":"Feature","properties":{"osm_id":"9360547721","other":{"leaf_cycle":"deciduous","leaf_type":"broadleaved","natural":"tree"}}, "geometry":{"type":"Point","coordinates":[-1.95794,53.41083 ]}},
{ "type":"Feature","properties":{"osm_id":"9360547722","other":{"leaf_cycle":"deciduous","leaf_type":"broadleaved","natural":"tree"}}, "geometry":{"type":"Point","coordinates":[-1.958,53.41087 ]}},
{ "type":"Feature","properties":{"osm_id":"9556468388","other":{"amenity":"parking"}}, "geometry":{"type":"Point","coordinates":[-1.80484,53.49389 ]}},
{ "type":"Feature","properties":{"osm_way_id":"4340110","name":"Chinley Station","amenity":"parking"},"geometry":{"type":"MultiPolygon","coordinates":[[[[-1.94264,53.34059],[-1.942,53.34072],[-1.94192,53.34052],[-1.94251,53.34043],[-1.94264,53.34059]]]]}},
{ "type":"Feature","properties":{"osm_way_id":"4340169","amenity":"parking"},"geometry":{"type":"MultiPolygon","coordinates":[[[[-1.91732,53.33509],[-1.91728,53.3351],[-1.91724,53.33511],[-1.91703,53.33511],[-1.91705,53.33487],[-1.91721,53.33481],[-1.91728,53.33481],[-1.91759,53.33482],[-1.91759,53.33484],[-1.91755,53.3351],[-1.91743,53.33509],[-1.91736,53.33509],[-1.91732,53.33509]]]]}},
{ "type":"Feature","properties":{"osm_way_id":"4340192","name":"Whaley Bridge Station","amenity":"parking","other":{"parking":"surface"}}, "geometry":{"type":"MultiPolygon","coordinates":[[[[-1.98417,53.32999],[-1.98416,53.33022],[-1.9844,53.33021],[-1.98455,53.33017],[-1.98442,53.32994],[-1.98417,53.32999]]]]}},
{ "type":"Feature","properties":{"osm_way_id":"4340261","amenity":"parking"},"geometry":{"type":"MultiPolygon","coordinates":[[[[-1.98912,53.32392],[-1.98928,53.32417],[-1.98894,53.32423],[-1.9887,53.324],[-1.98912,53.32392]]]]}},
{ "type":"Feature","properties":{"osm_way_id":"4340334","amenity":"parking"},"geometry":{"type":"MultiPolygon","coordinates":[[[[-1.98549,53.32718],[-1.9855,53.32717],[-1.98553,53.32704],[-1.98589,53.32708],[-1.98597,53.32708],[-1.98593,53.32722],[-1.98549,53.32718]]]]}},
{ "type":"Feature","properties":{"osm_way_id":"4392806","amenity":"parking","other":{"access":"yes","fee":"yes","operator":"SIP","parking":"surface"}}, "geometry":{"type":"MultiPolygon","coordinates":[[[[-1.69415,53.37484],[-1.69406,53.37486],[-1.69399,53.37488],[-1.69394,53.37489],[-1.69359,53.37498],[-1.69351,53.37485],[-1.69351,53.37469],[-1.69361,53.37461],[-1.69377,53.37457],[-1.69398,53.3746],[-1.69415,53.37484]]]]}},
{ "type":"Feature","properties":{"osm_way_id":"4392815","amenity":"parking","other":{"capacity":"25","fee":"no","parking":"street_side","supervised":"no"}}, "geometry":{"type":"MultiPolygon","coordinates":[[[[-1.74161,53.3982],[-1.74172,53.39817],[-1.74117,53.3975],[-1.74106,53.39753],[-1.74161,53.3982]]]]}},
{ "type":"Feature","properties":{"osm_way_id":"4392816","name":"Derwent Overlook Car Park","amenity":"parking","other":{"access":"yes","fee":"no","parking":"surface","supervised":"no"}}, "geometry":{"type":"MultiPolygon","coordinates":[[[[-1.74086,53.3974],[-1.74102,53.39733],[-1.74079,53.39714],[-1.74018,53.39667],[-1.74002,53.39674],[-1.74086,53.3974]]]]}},
{ "type":"Feature","properties":{"osm_way_id":"4392817","amenity":"parking"},"geometry":{"type":"MultiPolygon","coordinates":[[[[-1.73562,53.39406],[-1.73559,53.39411],[-1.73405,53.39378],[-1.73407,53.39374],[-1.73562,53.39406]]]]}},
{ "type":"Feature","properties":{"osm_way_id":"4392818","amenity":"parking"},"geometry":{"type":"MultiPolygon","coordinates":[[[[-1.73002,53.39284],[-1.73021,53.39273],[-1.73096,53.39288],[-1.73087,53.39302],[-1.73002,53.39284]]]]}},
{ "type":"Feature","properties":{"osm_way_id":"4392819","amenity":"parking"},"geometry":{"type":"MultiPolygon","coordinates":[[[[-1.72016,53.38485],[-1.72027,53.38482],[-1.72028,53.38542],[-1.72018,53.38542],[-1.72016,53.38538],[-1.72016,53.38485]]]]}},
{ "type":"Feature","properties":{"osm_way_id":"4393094","amenity":"parking"},"geometry":{"type":"MultiPolygon","coordinates":[[[[-1.68897,53.34949],[-1.68883,53.34954],[-1.68901,53.34999],[-1.68892,53.35007],[-1.68834,53.34973],[-1.6885,53.34965],[-1.6887,53.34976],[-1.68887,53.34992],[-1.68891,53.34994],[-1.68875,53.34961],[-1.68848,53.34949],[-1.68868,53.34933],[-1.68882,53.34938],[-1.68897,53.34949]]]]}},
{ "type":"Feature","properties":{"osm_way_id":"5211203","amenity":"parking","other":{"access":"yes","capacity:disabled":"yes","fee":"yes","parking":"surface"}}, "geometry":{"type":"MultiPolygon","coordinates":[[[[-1.77706,53.34424],[-1.77663,53.34424],[-1.77678,53.34409],[-1.7771,53.34386],[-1.77732,53.34356],[-1.7775,53.34354],[-1.77761,53.34367],[-1.77771,53.34371],[-1.77779,53.34369],[-1.7778,53.34369],[-1.77796,53.34365],[-1.77815,53.34388],[-1.77824,53.34403],[-1.77796,53.34417],[-1.7776,53.34424],[-1.77706,53.34424]]]]}},
{ "type":"Feature","properties":{"osm_way_id":"8035109","name":"Canal Wharf Car Park","amenity":"parking"},"geometry":{"type":"MultiPolygon","coordinates":[[[[-1.98304,53.33108],[-1.98256,53.33111],[-1.98264,53.33087],[-1.98291,53.33072],[-1.98304,53.33108]]]]}},
{ "type":"Feature","properties":{"osm_way_id":"8035111","amenity":"parking"},"geometry":{"type":"MultiPolygon","coordinates":[[[[-1.98251,53.33623],[-1.98238,53.33646],[-1.9821,53.33679],[-1.98187,53.337],[-1.98173,53.33708],[-1.98153,53.33704],[-1.98079,53.3369],[-1.98088,53.33682],[-1.98094,53.33678],[-1.98136,53.33641],[-1.98133,53.33626],[-1.98142,53.33614],[-1.98144,53.33603],[-1.98199,53.33606],[-1.98252,53.33609],[-1.98251,53.33623]]]]}},
{ "type":"Feature","properties":{"osm_way_id":"8597697","amenity":"parking","other":{"parking":"surface"}}, "geometry":{"type":"MultiPolygon","coordinates":[[[[-0.49292,50.93767],[-0.49327,50.9377],[-0.49347,50.93764],[-0.49354,50.9376],[-0.49359,50.93757],[-0.49369,50.9375],[-0.4936,50.93746],[-0.49354,50.93743],[-0.49352,50.93739],[-0.49348,50.93726],[-0.49325,50.93731],[-0.49315,50.9372],[-0.49304,50.9372],[-0.49299,50.93727],[-0.49301,50.93737],[-0.49309,50.93749],[-0.49306,50.9376],[-0.49296,50.93759],[-0.49284,50.93756],[-0.49285,50.93745],[-0.4928,50.93734],[-0.49267,50.93733],[-0.49255,50.93721],[-0.49237,50.93724],[-0.49233,50.93712],[-0.49225,50.93707],[-0.49201,50.93704],[-0.49196,50.93709],[-0.49193,50.93716],[-0.49189,50.93729],[-0.49192,50.93738],[-0.49196,50.93745],[-0.49202,50.93754],[-0.49217,50.93751],[-0.49247,50.93751],[-0.49281,50.93763],[-0.49292,50.93767]]]]}},
{ "type":"Feature","properties":{"osm_way_id":"23096809","amenity":"parking","other":{"access":"permissive","capacity":"15","fee":"no","park_ride":"no","parking":"surface","supervised":"no","surface":"asphalt"}}, "geometry":{"type":"MultiPolygon","coordinates":[[[[-1.96384,53.46199],[-1.96384,53.46199],[-1.96363,53.46216],[-1.96343,53.46237],[-1.96347,53.46239],[-1.96352,53.4624],[-1.96398,53.46206],[-1.96394,53.46204],[-1.96388,53.46201],[-1.96384,53.46199]]]]}},
{ "type":"Feature","properties":{"osm_way_id":"23096983","amenity":"parking"},"geometry":{"type":"MultiPolygon","coordinates":[[[[-1.9872,53.45136],[-1.98728,53.45144],[-1.98701,53.45154],[-1.98692,53.45145],[-1.9872,53.45136]]]]}},
{ "type":"Feature","properties":{"osm_way_id":"23472478","amenity":"parking","other":{"access":"customers","fee":"no","park_ride":"no","parking":"surface","supervised":"no","surface":"asphalt"}}, "geometry":{"type":"MultiPolygon","coordinates":[[[[-2.87466,54.07033],[-2.8749,54.07007],[-2.87477,54.06978],[-2.87459,54.0697],[-2.87457,54.06965],[-2.8741,54.06968],[-2.87412,54.06977],[-2.87333,54.06984],[-2.87322,54.06935],[-2.87345,54.06933],[-2.87332,54.06889],[-2.87316,54.06885],[-2.87315,54.06878],[-2.87141,54.06895],[-2.87154,54.06937],[-2.87163,54.06937],[-2.8717,54.06943],[-2.87193,54.06945],[-2.87261,54.06938],[-2.87274,54.06995],[-2.87264,54.07],[-2.87261,54.07002],[-2.87192,54.07009],[-2.87194,54.07019],[-2.87227,54.0703],[-2.87292,54.07027],[-2.87336,54.07024],[-2.87389,54.07027],[-2.87466,54.07033]]]]}},
{ "type":"Feature","properties":{"osm_way_id":"24230826","name":"Edale Car Park","amenity":"parking","other":{"access":"yes","capacity:disabled":"8","coach":"yes","fee":"Â£5.00 per day","parking":"surface","tourist_bus":"yes"}}, "geometry":{"type":"MultiPolygon","coordinates":[[[[-1.81479,53.36447],[-1.81443,53.36452],[-1.81483,53.36508],[-1.81487,53.36514],[-1.81499,53.36511],[-1.81569,53.36496],[-1.81548,53.3646],[-1.81544,53.36452],[-1.81535,53.36444],[-1.81524,53.36439],[-1.81479,53.36447]]]]}},
{ "type":"Feature","properties":{"osm_way_id":"24551343","name":"Crowden","amenity":"parking","other":{"access":"yes","fee":"no","lit":"no","operator":"Peak District National Park","operator:wikidata":"Q24641019","parking":"surface","smoothness":"intermediate","supervised":"no","surface":"compacted"}}, "geometry":{"type":"MultiPolygon","coordinates":[[[[-1.89235,53.48984],[-1.89252,53.48995],[-1.89248,53.48998],[-1.89223,53.4901],[-1.8922,53.49013],[-1.89214,53.49012],[-1.8921,53.4901],[-1.89201,53.49004],[-1.89235,53.48984]]]]}},
{ "type":"Feature","properties":{"osm_way_id":"28826674","amenity":"parking","other":{"access":"yes","fee":"no","parking":"layby"}}, "geometry":{"type":"MultiPolygon","coordinates":[[[[-1.72326,53.37381],[-1.72332,53.3737],[-1.72204,53.37415],[-1.7222,53.37416],[-1.72229,53.37414],[-1.72275,53.374],[-1.72326,53.37381]]]]}},
{ "type":"Feature","properties":{"osm_way_id":"30700889","name":"Errwood Hall","amenity":"parking","other":{"access":"yes","fee":"no"}}, "geometry":{"type":"MultiPolygon","coordinates":[[[[-1.98299,53.27012],[-1.98313,53.27029],[-1.98324,53.27045],[-1.98337,53.2706],[-1.98355,53.27085],[-1.98344,53.27089],[-1.98331,53.27092],[-1.98274,53.27018],[-1.98293,53.27013],[-1.98299,53.27012]]]]}},
{ "type":"Feature","properties":{"osm_way_id":"30703324","amenity":"parking"},"geometry":{"type":"MultiPolygon","coordinates":[[[[-1.96548,53.27364],[-1.96548,53.27372],[-1.96519,53.27395],[-1.96499,53.274],[-1.96499,53.27394],[-1.96504,53.27377],[-1.96534,53.27357],[-1.96548,53.27364]]]]}},
{ "type":"Feature","properties":{"osm_way_id":"32857323","name":"Fairholmes Car Park","amenity":"parking","other":{"access":"yes","fee":"yes","parking":"surface"}}, "geometry":{"type":"MultiPolygon","coordinates":[[[[-1.74144,53.40086],[-1.74152,53.4008],[-1.74166,53.40083],[-1.74178,53.40073],[-1.74176,53.40053],[-1.74171,53.40035],[-1.74147,53.40021],[-1.74132,53.40017],[-1.74097,53.40023],[-1.74067,53.40048],[-1.74071,53.40057],[-1.74082,53.40065],[-1.74101,53.4007],[-1.74144,53.40086]]]]}},
{ "type":"Feature","properties":{"osm_way_id":"32857324","amenity":"parking"},"geometry":{"type":"MultiPolygon","coordinates":[[[[-1.74217,53.40063],[-1.74211,53.40059],[-1.7423,53.40049],[-1.74236,53.40052],[-1.74217,53.40063]]]]}},
{ "type":"Feature","properties":{"osm_way_id":"32857325","amenity":"parking","other":{"access":"yes","fee":"yes","parking":"surface"}}, "geometry":{"type":"MultiPolygon","coordinates":[[[[-1.74215,53.40041],[-1.74195,53.39993],[-1.74207,53.39982],[-1.74223,53.39981],[-1.74233,53.39993],[-1.74232,53.40013],[-1.74238,53.40026],[-1.74215,53.40041]]]]}},
{ "type":"Feature","properties":{"osm_way_id":"51751496","name":"Morrisons Car Park","amenity":"parking","other":{"access":"customers","fee":"no","maxstay":"120","operator":"Morrisons","surface":"paved"}}, "geometry":{"type":"MultiPolygon","coordinates":[[[[-1.90349,53.25342],[-1.90346,53.25342],[-1.90345,53.25341],[-1.90313,53.25333],[-1.90321,53.25322],[-1.90353,53.25332],[-1.90352,53.25334],[-1.90363,53.25339],[-1.90379,53.25348],[-1.90381,53.2535],[-1.90383,53.25364],[-1.90384,53.25368],[-1.90386,53.25368],[-1.90387,53.25378],[-1.90387,53.25383],[-1.90394,53.25383],[-1.90394,53.25389],[-1.90391,53.25391],[-1.90389,53.25392],[-1.90388,53.25393],[-1.90387,53.25395],[-1.90388,53.25398],[-1.90389,53.25403],[-1.90389,53.25406],[-1.90387,53.2541],[-1.90386,53.25413],[-1.90392,53.25415],[-1.90385,53.25427],[-1.90377,53.25425],[-1.90363,53.25447],[-1.90364,53.25454],[-1.9037,53.25454],[-1.90372,53.25461],[-1.90379,53.25484],[-1.90334,53.25489],[-1.90328,53.25471],[-1.9032,53.25447],[-1.90325,53.25439],[-1.90304,53.25433],[-1.90307,53.25429],[-1.90299,53.25427],[-1.90295,53.25425],[-1.90294,53.25424],[-1.90294,53.25422],[-1.90296,53.25418],[-1.90288,53.25416],[-1.90305,53.25389],[-1.90316,53.25391],[-1.90349,53.25342]]]]}},
{ "type":"Feature","properties":{"osm_way_id":"52075953","amenity":"parking"},"geometry":{"type":"MultiPolygon","coordinates":[[[[-1.89845,53.25734],[-1.89845,53.25739],[-1.89778,53.25739],[-1.89778,53.25733],[-1.89787,53.25733],[-1.89816,53.25733],[-1.89845,53.25734]]]]}},
{ "type":"Feature","properties":{"osm_way_id":"53126599","name":"Market Street Car Park","amenity":"parking","other":{"capacity":"150","parking":"surface"}}, "geometry":{"type":"MultiPolygon","coordinates":[[[[-1.91341,53.25506],[-1.91344,53.25512],[-1.91354,53.25524],[-1.91357,53.25524],[-1.9136,53.25525],[-1.91474,53.25484],[-1.91471,53.25481],[-1.9147,53.25481],[-1.91469,53.2548],[-1.91466,53.25477],[-1.91463,53.25478],[-1.91456,53.25472],[-1.9146,53.25471],[-1.91454,53.25465],[-1.91451,53.25454],[-1.91433,53.25437],[-1.91422,53.2544],[-1.91426,53.25445],[-1.91431,53.2545],[-1.91435,53.25455],[-1.91436,53.25455],[-1.91447,53.25467],[-1.91413,53.25478],[-1.91411,53.25479],[-1.91412,53.2548],[-1.91341,53.25506]]]]}},
{ "type":"Feature","properties":{"osm_way_id":"53374802","amenity":"parking","other":{"access":"customers","parking":"surface"}}, "geometry":{"type":"MultiPolygon","coordinates":[[[[-1.69561,53.34076],[-1.69572,53.3406],[-1.69529,53.34049],[-1.69517,53.34065],[-1.69561,53.34076]]]]}},
{ "type":"Feature","properties":{"osm_way_id":"53764811","name":"Slopes Car Park","amenity":"parking"},"geometry":{"type":"MultiPolygon","coordinates":[[[[-1.91467,53.25722],[-1.9147,53.25727],[-1.91469,53.25728],[-1.91469,53.25728],[-1.91469,53.25731],[-1.91468,53.25733],[-1.91466,53.25735],[-1.91464,53.25737],[-1.91462,53.25738],[-1.91457,53.2574],[-1.91455,53.25741],[-1.9145,53.25742],[-1.91444,53.25744],[-1.91437,53.25745],[-1.91424,53.25746],[-1.91419,53.25746],[-1.91415,53.25747],[-1.9141,53.25747],[-1.91403,53.25749],[-1.91393,53.25751],[-1.9139,53.25751],[-1.91386,53.25752],[-1.91382,53.25752],[-1.91377,53.25752],[-1.91374,53.25752],[-1.9137,53.25752],[-1.91365,53.25752],[-1.9136,53.25751],[-1.91357,53.25751],[-1.91353,53.2575],[-1.91349,53.25748],[-1.91345,53.25747],[-1.91343,53.25745],[-1.9134,53.25742],[-1.91336,53.25737],[-1.9133,53.25728],[-1.91328,53.25723],[-1.91327,53.25721],[-1.91326,53.2572],[-1.91325,53.25719],[-1.91323,53.25719],[-1.91321,53.25718],[-1.91328,53.25711],[-1.91333,53.25718],[-1.9134,53.25724],[-1.91353,53.25717],[-1.91403,53.25729],[-1.91418,53.25732],[-1.91425,53.25721],[-1.91446,53.25724],[-1.91463,53.25726],[-1.91465,53.25724],[-1.91467,53.25722]]]]}},
{ "type":"Feature","properties":{"osm_way_id":"55218739","name":"Pavilion Gardens Car Park","amenity":"parking","other":{"parking":"surface"}}, "geometry":{"type":"MultiPolygon","coordinates":[[[[-1.92089,53.257],[-1.92085,53.25701],[-1.92076,53.25703],[-1.92067,53.25703],[-1.92059,53.25704],[-1.92053,53.25708],[-1.92048,53.2571],[-1.92042,53.25706],[-1.92035,53.25709],[-1.92022,53.25714],[-1.91998,53.25716],[-1.91975,53.25719],[-1.91971,53.2572],[-1.91982,53.25748],[-1.91983,53.25752],[-1.91985,53.25752],[-1.9199,53.25751],[-1.91995,53.25765],[-1.92007,53.2578],[-1.92012,53.2578],[-1.92103,53.25767],[-1.92094,53.25737],[-1.92087,53.25738],[-1.92079,53.25714],[-1.92086,53.25711],[-1.92094,53.25711],[-1.92089,53.257]]]]}},
{ "type":"Feature","properties":{"osm_way_id":"60204224","amenity":"parking"},"geometry":{"type":"MultiPolygon","coordinates":[[[[-1.92122,53.26188],[-1.92066,53.26186],[-1.92065,53.26212],[-1.92102,53.26214],[-1.92107,53.26217],[-1.92118,53.26212],[-1.92112,53.26207],[-1.92121,53.262],[-1.92122,53.26188]]]]}},
{ "type":"Feature","properties":{"osm_way_id":"61097242","amenity":"parking","other":{"access":"customers"}}, "geometry":{"type":"MultiPolygon","coordinates":[[[[-1.84598,53.36564],[-1.8461,53.36567],[-1.84621,53.36541],[-1.84608,53.3654],[-1.84598,53.36564]]]]}},
{ "type":"Feature","properties":{"osm_way_id":"66820525","name":"B&Q Car Park","amenity":"parking"},"geometry":{"type":"MultiPolygon","coordinates":[[[[-1.89726,53.24248],[-1.89757,53.24233],[-1.89753,53.2423],[-1.8976,53.24226],[-1.8969,53.24178],[-1.89685,53.24181],[-1.8968,53.24177],[-1.89647,53.24195],[-1.89653,53.24199],[-1.89646,53.24202],[-1.89664,53.24215],[-1.89671,53.24211],[-1.89693,53.24226],[-1.89687,53.2423],[-1.89692,53.24234],[-1.89699,53.2423],[-1.89726,53.24248]]]]}},
{ "type":"Feature","properties":{"osm_way_id":"67593982","amenity":"parking"},"geometry":{"type":"MultiPolygon","coordinates":[[[[-1.8895,53.30015],[-1.88963,53.29999],[-1.88944,53.29991],[-1.88923,53.29978],[-1.88911,53.29982],[-1.88924,53.29995],[-1.88931,53.30001],[-1.8894,53.30008],[-1.8895,53.30015]]]]}},
{ "type":"Feature","properties":{"osm_way_id":"67712167","amenity":"parking"},"geometry":{"type":"MultiPolygon","coordinates":[[[[-1.9139,53.26043],[-1.91379,53.26047],[-1.91392,53.26058],[-1.91401,53.26055],[-1.91397,53.2605],[-1.9139,53.26043]]]]}},
{ "type":"Feature","properties":{"osm_way_id":"68066603","name":"Grin Low & Buxton Country Park","amenity":"parking","other":{"fee":"honesty_box"}}, "geometry":{"type":"MultiPolygon","coordinates":[[[[-1.92891,53.24474],[-1.92889,53.24478],[-1.92896,53.24484],[-1.92852,53.24504],[-1.92851,53.24506],[-1.92843,53.24506],[-1.9284,53.24496],[-1.92784,53.2445],[-1.9278,53.24446],[-1.92823,53.2443],[-1.92844,53.24432],[-1.92891,53.24474]]]]}},
{ "type":"Feature","properties":{"osm_way_id":"68793274","name":"Poole's Cavern Car Park","amenity":"parking","other":{"access":"yes","capacity:disabled":"3","fee":"yes","parking":"surface","wheelchair":"yes"}}, "geometry":{"type":"MultiPolygon","coordinates":[[[[-1.92562,53.25017],[-1.92538,53.2497],[-1.92532,53.24968],[-1.92539,53.24957],[-1.92554,53.24953],[-1.92568,53.24951],[-1.92582,53.24952],[-1.92591,53.24955],[-1.92597,53.2496],[-1.92607,53.24984],[-1.92598,53.24984],[-1.92598,53.24988],[-1.92597,53.24993],[-1.92594,53.24999],[-1.9259,53.25003],[-1.92569,53.25016],[-1.92567,53.25018],[-1.92562,53.25017]]]]}},
{ "type":"Feature","properties":{"osm_way_id":"76864236","amenity":"parking"},"geometry":{"type":"MultiPolygon","coordinates":[[[[-1.73032,53.34592],[-1.73024,53.34588],[-1.73004,53.34577],[-1.72977,53.34594],[-1.73006,53.34608],[-1.73032,53.34592]]]]}},
{ "type":"Feature","properties":{"osm_way_id":"91694238","amenity":"parking"},"geometry":{"type":"MultiPolygon","coordinates":[[[[-3.17617,51.44439],[-3.17618,51.44432],[-3.17602,51.44431],[-3.17602,51.44439],[-3.17617,51.44439]]]]}},
{ "type":"Feature","properties":{"osm_way_id":"91694251","amenity":"parking"},"geometry":{"type":"MultiPolygon","coordinates":[[[[-3.17921,51.44447],[-3.17919,51.44455],[-3.17908,51.44454],[-3.17906,51.44464],[-3.1791,51.44465],[-3.17909,51.44469],[-3.17953,51.44473],[-3.17956,51.44459],[-3.17942,51.44457],[-3.17944,51.44449],[-3.17921,51.44447]]]]}},
{ "type":"Feature","properties":{"osm_way_id":"91694258","amenity":"parking"},"geometry":{"type":"MultiPolygon","coordinates":[[[[-3.17572,51.44422],[-3.17591,51.44422],[-3.17591,51.44424],[-3.17585,51.44424],[-3.17585,51.44428],[-3.17571,51.44428],[-3.17571,51.44427],[-3.17572,51.44423],[-3.17572,51.44422]]]]}},
{ "type":"Feature","properties":{"osm_way_id":"91694268","amenity":"parking"},"geometry":{"type":"MultiPolygon","coordinates":[[[[-3.17716,51.44427],[-3.17694,51.44426],[-3.17694,51.44425],[-3.17686,51.44424],[-3.17686,51.44423],[-3.17677,51.44422],[-3.17677,51.44423],[-3.17671,51.44423],[-3.17671,51.44424],[-3.17671,51.44429],[-3.17671,51.4443],[-3.17678,51.4443],[-3.17692,51.44433],[-3.17692,51.44436],[-3.17696,51.44436],[-3.17704,51.44436],[-3.17715,51.44437],[-3.17717,51.44437],[-3.17716,51.44427]]]]}},
{ "type":"Feature","properties":{"osm_way_id":"91694274","amenity":"parking"},"geometry":{"type":"MultiPolygon","coordinates":[[[[-3.18007,51.44482],[-3.1801,51.44472],[-3.17998,51.4447],[-3.18,51.44466],[-3.17994,51.44465],[-3.17999,51.44452],[-3.17977,51.44449],[-3.17972,51.44462],[-3.17963,51.44461],[-3.17958,51.44474],[-3.18007,51.44482]]]]}},
{ "type":"Feature","properties":{"osm_way_id":"91694304","amenity":"parking"},"geometry":{"type":"MultiPolygon","coordinates":[[[[-3.17519,51.44421],[-3.17539,51.44421],[-3.17551,51.44421],[-3.17551,51.44422],[-3.1755,51.44426],[-3.17553,51.44426],[-3.17553,51.44428],[-3.17533,51.44427],[-3.17519,51.44427],[-3.17519,51.44421]]]]}},
{ "type":"Feature","properties":{"osm_way_id":"91694319","amenity":"parking"},"geometry":{"type":"MultiPolygon","coordinates":[[[[-3.18452,51.44579],[-3.18443,51.44599],[-3.1845,51.44601],[-3.18434,51.44632],[-3.18455,51.44636],[-3.18461,51.44627],[-3.18512,51.44637],[-3.18526,51.44608],[-3.18471,51.44592],[-3.18473,51.44587],[-3.18452,51.44579]]]]}},
{ "type":"Feature","properties":{"osm_way_id":"91694323","amenity":"parking"},"geometry":{"type":"MultiPolygon","coordinates":[[[[-3.17871,51.44451],[-3.1787,51.44456],[-3.17873,51.44456],[-3.1787,51.44466],[-3.17822,51.44462],[-3.17823,51.44458],[-3.17815,51.44457],[-3.17816,51.44453],[-3.17824,51.44453],[-3.17824,51.44452],[-3.17829,51.44452],[-3.1783,51.44448],[-3.17871,51.44451]]]]}},
{ "type":"Feature","properties":{"osm_way_id":"91694360","amenity":"parking"},"geometry":{"type":"MultiPolygon","coordinates":[[[[-3.18076,51.44464],[-3.18099,51.44467],[-3.18094,51.4448],[-3.18114,51.44484],[-3.18112,51.44489],[-3.18119,51.4449],[-3.18117,51.44494],[-3.1811,51.44493],[-3.18108,51.44497],[-3.1805,51.44488],[-3.18054,51.44479],[-3.18056,51.44479],[-3.18057,51.44475],[-3.1807,51.44477],[-3.18076,51.44464]]]]}},
{ "type":"Feature","properties":{"osm_way_id":"91694364","amenity":"parking"},"geometry":{"type":"MultiPolygon","coordinates":[[[[-3.1765,51.44422],[-3.17635,51.44421],[-3.17635,51.44429],[-3.1765,51.44429],[-3.1765,51.44427],[-3.1765,51.44423],[-3.1765,51.44422]]]]}},
{ "type":"Feature","properties":{"osm_way_id":"95127698","name":"Sylvan Car Park","amenity":"parking","other":{"wheelchair":"yes"}}, "geometry":{"type":"MultiPolygon","coordinates":[[[[-1.90716,53.25916],[-1.90712,53.25889],[-1.90747,53.25894],[-1.90775,53.25898],[-1.90814,53.25904],[-1.90808,53.25925],[-1.90792,53.25923],[-1.90792,53.2592],[-1.90792,53.2592],[-1.90791,53.25919],[-1.9079,53.25919],[-1.90789,53.25919],[-1.90787,53.25919],[-1.90784,53.25918],[-1.90782,53.25917],[-1.9078,53.25918],[-1.90777,53.25919],[-1.90776,53.25918],[-1.90775,53.25918],[-1.90773,53.25918],[-1.90771,53.25919],[-1.90771,53.25923],[-1.9075,53.25922],[-1.9075,53.25917],[-1.90725,53.25914],[-1.90725,53.25917],[-1.90716,53.25916]]]]}},
{ "type":"Feature","properties":{"osm_way_id":"95127706","name":"Sylvan Coach Park","amenity":"parking"},"geometry":{"type":"MultiPolygon","coordinates":[[[[-1.90638,53.25881],[-1.90704,53.2589],[-1.90709,53.25918],[-1.90703,53.25917],[-1.90695,53.25916],[-1.9069,53.25914],[-1.90684,53.25913],[-1.90679,53.25912],[-1.90673,53.25909],[-1.90668,53.25907],[-1.90655,53.259],[-1.90649,53.25897],[-1.90645,53.25894],[-1.90638,53.2589],[-1.90638,53.25881]]]]}},
{ "type":"Feature","properties":{"osm_way_id":"96865302","amenity":"parking"},"geometry":{"type":"MultiPolygon","coordinates":[[[[-1.91614,53.2583],[-1.91606,53.25834],[-1.91574,53.25811],[-1.91562,53.25804],[-1.91552,53.258],[-1.91544,53.25798],[-1.91536,53.25796],[-1.9154,53.25791],[-1.91547,53.25792],[-1.91557,53.25795],[-1.91564,53.25797],[-1.9157,53.258],[-1.91582,53.25806],[-1.91614,53.2583]]]]}},
{ "type":"Feature","properties":{"osm_way_id":"96865309","amenity":"parking"},"geometry":{"type":"MultiPolygon","coordinates":[[[[-1.91529,53.25788],[-1.91541,53.25772],[-1.91549,53.25774],[-1.91537,53.2579],[-1.91529,53.25788]]]]}},
{ "type":"Feature","properties":{"osm_way_id":"97120940","amenity":"parking"},"geometry":{"type":"MultiPolygon","coordinates":[[[[-1.86432,53.33889],[-1.86403,53.33898],[-1.86396,53.33898],[-1.86485,53.33869],[-1.86481,53.33874],[-1.86432,53.33889]]]]}},
{ "type":"Feature","properties":{"osm_way_id":"97565351","amenity":"parking"},"geometry":{"type":"MultiPolygon","coordinates":[[[[-1.92203,53.25756],[-1.92195,53.25758],[-1.92185,53.25733],[-1.92192,53.25732],[-1.92203,53.25756]]]]}},
{ "type":"Feature","properties":{"osm_way_id":"110134283","amenity":"parking","other":{"parking":"surface"}}, "geometry":{"type":"MultiPolygon","coordinates":[[[[-1.77896,53.34255],[-1.77841,53.34262],[-1.77857,53.34301],[-1.77963,53.34284],[-1.7789,53.34213],[-1.77884,53.3422],[-1.77887,53.34234],[-1.77896,53.34255]]]]}},
{ "type":"Feature","properties":{"osm_way_id":"110234103","name":"Peaks Inn Car Park","amenity":"parking","other":{"access":"destination","parking":"surface","source:name":"survey"}}, "geometry":{"type":"MultiPolygon","coordinates":[[[[-1.77333,53.34445],[-1.77373,53.34444],[-1.77375,53.344],[-1.77349,53.344],[-1.77349,53.3442],[-1.77335,53.34421],[-1.77333,53.34445]]]]}},
{ "type":"Feature","properties":{"osm_way_id":"110371264","name":"Ye Olde Cheshire Cheese Private Car Park","amenity":"parking","other":{"access":"destination"}}, "geometry":{"type":"MultiPolygon","coordinates":[[[[-1.77288,53.34425],[-1.7731,53.3442],[-1.77308,53.34416],[-1.77312,53.34415],[-1.77315,53.34414],[-1.77335,53.34414],[-1.77335,53.34421],[-1.77333,53.34445],[-1.77332,53.34453],[-1.77303,53.34449],[-1.77298,53.34445],[-1.77288,53.34425]]]]}},
{ "type":"Feature","properties":{"osm_way_id":"113060714","amenity":"parking"},"geometry":{"type":"MultiPolygon","coordinates":[[[[-1.96661,53.27343],[-1.96654,53.27337],[-1.96632,53.27345],[-1.96634,53.2735],[-1.96623,53.27353],[-1.96629,53.27356],[-1.96641,53.27353],[-1.96661,53.27343]]]]}},
{ "type":"Feature","properties":{"osm_way_id":"117818756","name":"Market Place Car Park","amenity":"parking","other":{"fee":"yes"}}, "geometry":{"type":"MultiPolygon","coordinates":[[[[-1.9154,53.25539],[-1.91521,53.25534],[-1.91498,53.25568],[-1.91504,53.25569],[-1.91501,53.25573],[-1.91495,53.25572],[-1.91487,53.25582],[-1.915,53.25585],[-1.9151,53.25587],[-1.91516,53.25577],[-1.91511,53.25575],[-1.91514,53.25571],[-1.91518,53.25572],[-1.9152,53.25572],[-1.91531,53.25555],[-1.9152,53.25553],[-1.91522,53.25549],[-1.91533,53.25551],[-1.91537,53.25544],[-1.9154,53.25539]]]]}},
{ "type":"Feature","properties":{"osm_way_id":"117822191","name":"Spring Gardens Centre car park","amenity":"parking","other":{"access":"yes","capacity":"422","capacity:disabled":"26","fee":"yes","parking":"surface"}}, "geometry":{"type":"MultiPolygon","coordinates":[[[[-1.90908,53.26021],[-1.90921,53.26028],[-1.90948,53.26036],[-1.90974,53.26041],[-1.91004,53.26044],[-1.91044,53.26044],[-1.91085,53.26042],[-1.91152,53.26039],[-1.9116,53.26038],[-1.91155,53.26029],[-1.91143,53.26031],[-1.9114,53.26027],[-1.91085,53.26029],[-1.91054,53.26036],[-1.91051,53.26036],[-1.91047,53.26027],[-1.91037,53.26029],[-1.91012,53.26002],[-1.91021,53.25998],[-1.91069,53.25987],[-1.91066,53.25981],[-1.91001,53.25994],[-1.9099,53.25982],[-1.90981,53.25984],[-1.90974,53.25978],[-1.9096,53.25982],[-1.90955,53.2598],[-1.90934,53.25993],[-1.90922,53.26002],[-1.90914,53.26011],[-1.90908,53.26018],[-1.90908,53.26021]]]]}},
{ "type":"Feature","properties":{"osm_way_id":"117848647","name":"Buxton station car park","amenity":"parking"},"geometry":{"type":"MultiPolygon","coordinates":[[[[-1.91344,53.26042],[-1.91344,53.26048],[-1.91331,53.26054],[-1.91327,53.2605],[-1.9127,53.26075],[-1.91261,53.26077],[-1.91254,53.26077],[-1.91247,53.26078],[-1.91241,53.2608],[-1.91237,53.26082],[-1.91236,53.26073],[-1.9124,53.26074],[-1.91243,53.26074],[-1.91245,53.26073],[-1.91246,53.26072],[-1.91246,53.26071],[-1.91245,53.2607],[-1.91244,53.2607],[-1.91242,53.2607],[-1.91237,53.26071],[-1.91229,53.26055],[-1.9123,53.26053],[-1.9123,53.26052],[-1.91232,53.2605],[-1.91234,53.2605],[-1.91236,53.26049],[-1.91273,53.26046],[-1.913,53.26044],[-1.91329,53.26042],[-1.91344,53.26042]]]]}},
{ "type":"Feature","properties":{"osm_way_id":"117849696","name":"Aldi car park","amenity":"parking"},"geometry":{"type":"MultiPolygon","coordinates":[[[[-1.9106,53.26076],[-1.91062,53.2608],[-1.91028,53.26084],[-1.90998,53.26088],[-1.90967,53.26086],[-1.90951,53.26088],[-1.90947,53.26088],[-1.90948,53.2608],[-1.90949,53.26078],[-1.90951,53.26079],[-1.90954,53.26078],[-1.90955,53.26077],[-1.90957,53.26076],[-1.90949,53.26075],[-1.90952,53.26064],[-1.90958,53.26064],[-1.9096,53.26056],[-1.90964,53.26056],[-1.9099,53.26059],[-1.91011,53.2606],[-1.91024,53.26061],[-1.91024,53.26061],[-1.91034,53.26061],[-1.91042,53.2606],[-1.91044,53.26064],[-1.91044,53.26065],[-1.9105,53.26062],[-1.91051,53.26064],[-1.91045,53.26067],[-1.91047,53.2607],[-1.91054,53.26073],[-1.9106,53.26076]]]]}},
{ "type":"Feature","properties":{"osm_way_id":"117882928","amenity":"parking","other":{"access":"customers","parking":"surface"}}, "geometry":{"type":"MultiPolygon","coordinates":[[[[-1.91591,53.26058],[-1.91599,53.26056],[-1.91616,53.26068],[-1.91634,53.26083],[-1.91647,53.26096],[-1.91636,53.26099],[-1.91579,53.26098],[-1.91582,53.26079],[-1.91575,53.26078],[-1.91576,53.26076],[-1.91559,53.26076],[-1.91559,53.26074],[-1.91524,53.26073],[-1.91514,53.26073],[-1.91513,53.26075],[-1.91492,53.26074],[-1.91474,53.26072],[-1.91466,53.2607],[-1.91466,53.26092],[-1.91466,53.26099],[-1.91469,53.26102],[-1.91468,53.26122],[-1.91455,53.26122],[-1.91448,53.26127],[-1.91445,53.26126],[-1.91442,53.26129],[-1.91421,53.2612],[-1.91438,53.26103],[-1.9144,53.26101],[-1.91435,53.26097],[-1.91437,53.26094],[-1.91446,53.26097],[-1.9145,53.26091],[-1.91451,53.26082],[-1.91448,53.26074],[-1.91435,53.26061],[-1.91429,53.26057],[-1.91423,53.26056],[-1.9142,53.26048],[-1.91431,53.26051],[-1.91441,53.26052],[-1.91454,53.26051],[-1.91476,53.26054],[-1.91497,53.26057],[-1.9152,53.26059],[-1.91541,53.26059],[-1.91558,53.26059],[-1.91573,53.26059],[-1.91585,53.26058],[-1.91591,53.26058]]]]}},
{ "type":"Feature","properties":{"osm_way_id":"117990929","amenity":"parking","other":{"capacity":"7","fee":"no","maxstay":"2 hours","parking":"surface"}}, "geometry":{"type":"MultiPolygon","coordinates":[[[[-1.91658,53.2554],[-1.91587,53.25532],[-1.91588,53.2553],[-1.91659,53.25538],[-1.91658,53.2554]]]]}},
{ "type":"Feature","properties":{"osm_way_id":"118043120","amenity":"parking"},"geometry":{"type":"MultiPolygon","coordinates":[[[[-1.91479,53.25862],[-1.91486,53.25867],[-1.91488,53.25873],[-1.91487,53.25879],[-1.91484,53.25886],[-1.91478,53.25891],[-1.91468,53.25895],[-1.91461,53.25898],[-1.9145,53.25899],[-1.91439,53.25899],[-1.91431,53.25898],[-1.91423,53.25896],[-1.91415,53.25893],[-1.91411,53.2589],[-1.91414,53.25889],[-1.91423,53.25893],[-1.91433,53.25897],[-1.91443,53.25898],[-1.91455,53.25897],[-1.91464,53.25895],[-1.91472,53.2589],[-1.91479,53.25886],[-1.91481,53.25879],[-1.91481,53.25875],[-1.91479,53.25871],[-1.91474,53.25865],[-1.91479,53.25862]]]]}},
{ "type":"Feature","properties":{"osm_way_id":"118043123","amenity":"parking"},"geometry":{"type":"MultiPolygon","coordinates":[[[[-1.91507,53.25812],[-1.91502,53.25811],[-1.91491,53.25828],[-1.91474,53.25847],[-1.91459,53.25865],[-1.91453,53.2587],[-1.91446,53.25874],[-1.91432,53.2588],[-1.91423,53.25881],[-1.91418,53.25881],[-1.91419,53.25885],[-1.91426,53.25884],[-1.91434,53.25882],[-1.91447,53.25878],[-1.91458,53.25871],[-1.91469,53.2586],[-1.91479,53.25847],[-1.91492,53.25831],[-1.91502,53.25819],[-1.91507,53.25812]]]]}},
{ "type":"Feature","properties":{"osm_way_id":"118043899","name":"Spring Gardens Centre car park","amenity":"parking","other":{"access":"yes","parking":"surface","toilets:wheelchair":"no","wheelchair":"yes"}}, "geometry":{"type":"MultiPolygon","coordinates":[[[[-1.91246,53.25999],[-1.91264,53.25996],[-1.91281,53.25994],[-1.91293,53.25992],[-1.913,53.25999],[-1.91308,53.26],[-1.91313,53.26],[-1.91319,53.26007],[-1.91322,53.26016],[-1.91316,53.26021],[-1.91307,53.26023],[-1.91281,53.26024],[-1.91271,53.26025],[-1.91257,53.26025],[-1.91218,53.2603],[-1.91173,53.26036],[-1.9117,53.26031],[-1.91163,53.26032],[-1.91161,53.26028],[-1.91159,53.26018],[-1.91159,53.26016],[-1.91161,53.26013],[-1.91171,53.2601],[-1.91184,53.26011],[-1.91204,53.26008],[-1.91206,53.26007],[-1.91218,53.26005],[-1.91216,53.26001],[-1.91246,53.25999]]]]}},
{ "type":"Feature","properties":{"osm_way_id":"118046637","name":"Market Place car park","amenity":"parking","other":{"fee":"yes"}}, "geometry":{"type":"MultiPolygon","coordinates":[[[[-1.91442,53.25675],[-1.91447,53.25666],[-1.91449,53.25665],[-1.91452,53.25665],[-1.91452,53.25656],[-1.91453,53.25654],[-1.91453,53.25649],[-1.91454,53.25644],[-1.91455,53.25642],[-1.91456,53.25638],[-1.91442,53.25632],[-1.91438,53.25635],[-1.91431,53.25631],[-1.91422,53.25638],[-1.91399,53.25654],[-1.91391,53.25661],[-1.91395,53.25664],[-1.91425,53.25672],[-1.91442,53.25675]]]]}},
{ "type":"Feature","properties":{"osm_way_id":"118097854","amenity":"parking","other":{"capacity":"7","fee":"no","maxstay":"24hrs","parking":"surface"}}, "geometry":{"type":"MultiPolygon","coordinates":[[[[-1.91425,53.25399],[-1.91419,53.25399],[-1.9142,53.25415],[-1.91427,53.25414],[-1.91425,53.25399]]]]}},
{ "type":"Feature","properties":{"osm_way_id":"118097859","amenity":"parking","other":{"capacity":"8","fee":"no","maxstay":"45 minutes","parking":"surface"}}, "geometry":{"type":"MultiPolygon","coordinates":[[[[-1.91553,53.25424],[-1.9155,53.25424],[-1.91542,53.25466],[-1.91546,53.25467],[-1.91553,53.25424]]]]}},
{ "type":"Feature","properties":{"osm_way_id":"118097861","amenity":"parking","other":{"capacity":"10","fee":"no","maxstay":"2 hours","parking":"surface","wheelchair":"yes"}}, "geometry":{"type":"MultiPolygon","coordinates":[[[[-1.91484,53.25375],[-1.91421,53.2539],[-1.91422,53.25392],[-1.91485,53.25377],[-1.91484,53.25375]]]]}},
{ "type":"Feature","properties":{"osm_way_id":"118150223","amenity":"parking"},"geometry":{"type":"MultiPolygon","coordinates":[[[[-1.91658,53.25579],[-1.9166,53.25576],[-1.91551,53.25555],[-1.91549,53.25557],[-1.91658,53.25579]]]]}},
{ "type":"Feature","properties":{"osm_way_id":"118173585","name":"Wyedale Car Park","amenity":"parking","other":{"access":"yes","fee":"yes","operator":"Peak District National Park Authority","parking":"surface","payment:cards":"only","supervised":"no","surface":"gravel"}}, "geometry":{"type":"MultiPolygon","coordinates":[[[[-1.84717,53.249],[-1.8471,53.249],[-1.84705,53.24899],[-1.84699,53.24904],[-1.84606,53.24927],[-1.84614,53.24938],[-1.84704,53.24915],[-1.84713,53.2491],[-1.84717,53.249]]]]}},
{ "type":"Feature","properties":{"osm_way_id":"118836477","name":"Hayfield Picnic Site Pay and Display Car Park","amenity":"parking","other":{"fee":"yes","parking":"surface"}}, "geometry":{"type":"MultiPolygon","coordinates":[[[[-1.94702,53.37879],[-1.94692,53.379],[-1.94819,53.3792],[-1.9483,53.37921],[-1.9485,53.3792],[-1.94851,53.3791],[-1.94835,53.379],[-1.94702,53.37879]]]]}},
{ "type":"Feature","properties":{"osm_way_id":"126494952","name":"The Street Car Park","amenity":"parking","other":{"access":"yes","fee":"no","parking":"surface"}}, "geometry":{"type":"MultiPolygon","coordinates":[[[[-1.98111,53.27743],[-1.98114,53.27751],[-1.98124,53.27765],[-1.98151,53.27794],[-1.98166,53.27809],[-1.98209,53.27849],[-1.98254,53.27886],[-1.98303,53.27921],[-1.98351,53.27956],[-1.98335,53.27963],[-1.98221,53.27879],[-1.98149,53.27815],[-1.98117,53.2778],[-1.98099,53.27757],[-1.98094,53.27744],[-1.98087,53.27735],[-1.98089,53.2772],[-1.98096,53.2772],[-1.98108,53.27722],[-1.98108,53.27734],[-1.98111,53.27743]]]]}},
{ "type":"Feature","properties":{"osm_way_id":"126495849","name":"Goytsclough Quarry Car Park","amenity":"parking","other":{"access":"yes","fee":"no","parking":"surface","wheelchair":"yes"}}, "geometry":{"type":"MultiPolygon","coordinates":[[[[-1.98454,53.25819],[-1.98464,53.25818],[-1.98483,53.25818],[-1.98486,53.25812],[-1.98481,53.25806],[-1.98457,53.25801],[-1.98459,53.25796],[-1.98458,53.25786],[-1.98452,53.25782],[-1.98446,53.25778],[-1.98448,53.25775],[-1.98454,53.25772],[-1.9846,53.2577],[-1.98462,53.25767],[-1.98463,53.25765],[-1.98457,53.25763],[-1.98441,53.25756],[-1.98423,53.2574],[-1.98408,53.25745],[-1.98401,53.25747],[-1.98398,53.25748],[-1.9843,53.25772],[-1.98438,53.2578],[-1.98446,53.25793],[-1.9845,53.25805],[-1.98454,53.25819]]]]}},
{ "type":"Feature","properties":{"osm_way_id":"136365117","amenity":"parking","other":{"parking":"surface"}}, "geometry":{"type":"MultiPolygon","coordinates":[[[[-1.99167,53.36658],[-1.99158,53.36655],[-1.99137,53.36632],[-1.99173,53.36621],[-1.99197,53.36636],[-1.99167,53.36658]]]]}},
{ "type":"Feature","properties":{"osm_way_id":"144482377","amenity":"parking","other":{"operator":"Swindon Borough Council","park_ride":"no","parking":"surface"}}, "geometry":{"type":"MultiPolygon","coordinates":[[[[-1.79022,51.56804],[-1.79017,51.56808],[-1.7901,51.5681],[-1.79004,51.56808],[-1.78999,51.56812],[-1.78984,51.56805],[-1.78975,51.56801],[-1.7897,51.56799],[-1.78963,51.56795],[-1.78958,51.56792],[-1.78952,51.56788],[-1.78948,51.56785],[-1.78944,51.56781],[-1.7894,51.56776],[-1.78937,51.56771],[-1.78935,51.56766],[-1.78934,51.56761],[-1.78932,51.56757],[-1.78932,51.56752],[-1.78932,51.56748],[-1.78932,51.56744],[-1.78934,51.56739],[-1.78937,51.56734],[-1.78938,51.56733],[-1.7896,51.56738],[-1.78958,51.56742],[-1.78956,51.56746],[-1.78956,51.56751],[-1.78956,51.56755],[-1.78956,51.56759],[-1.78958,51.56763],[-1.78959,51.56765],[-1.78961,51.5677],[-1.78964,51.56774],[-1.78967,51.56776],[-1.78971,51.5678],[-1.78975,51.56783],[-1.78981,51.56786],[-1.78984,51.56787],[-1.78991,51.56791],[-1.79022,51.56804]]]]}},
{ "type":"Feature","properties":{"osm_way_id":"145482060","amenity":"parking","other":{"access":"customers"}}, "geometry":{"type":"MultiPolygon","coordinates":[[[[-1.98597,53.43783],[-1.9862,53.4376],[-1.98623,53.43758],[-1.9866,53.43773],[-1.98673,53.43776],[-1.98658,53.43782],[-1.9865,53.43791],[-1.98632,53.43786],[-1.98609,53.43814],[-1.98594,53.43812],[-1.98597,53.43783]]]]}},
{ "type":"Feature","properties":{"osm_way_id":"145510740","amenity":"parking"},"geometry":{"type":"MultiPolygon","coordinates":[[[[-1.9746,53.28004],[-1.97446,53.28002],[-1.97429,53.27999],[-1.97422,53.27997],[-1.97418,53.27996],[-1.97414,53.27994],[-1.97416,53.2799],[-1.97435,53.27994],[-1.97453,53.27998],[-1.97465,53.27999],[-1.97481,53.27998],[-1.97481,53.28],[-1.97481,53.28003],[-1.97477,53.28003],[-1.97468,53.28004],[-1.9746,53.28004]]]]}},
{ "type":"Feature","properties":{"osm_way_id":"147076095","name":"Cavendish Golf Club Car Park","amenity":"parking"},"geometry":{"type":"MultiPolygon","coordinates":[[[[-1.92936,53.26036],[-1.92852,53.26019],[-1.92825,53.26053],[-1.92847,53.26058],[-1.9285,53.26052],[-1.92868,53.26056],[-1.92865,53.26062],[-1.92888,53.26067],[-1.92894,53.26056],[-1.92922,53.26062],[-1.92924,53.2606],[-1.9293,53.26049],[-1.92936,53.26036]]]]}},
{ "type":"Feature","properties":{"osm_way_id":"147356829","name":"Buxton and High Peak Golf Club Car Park","amenity":"parking"},"geometry":{"type":"MultiPolygon","coordinates":[[[[-1.89394,53.26425],[-1.89382,53.26404],[-1.89387,53.264],[-1.89384,53.26391],[-1.89418,53.26386],[-1.8942,53.26391],[-1.89446,53.26388],[-1.89441,53.26373],[-1.89458,53.2637],[-1.89474,53.26395],[-1.89441,53.26398],[-1.89445,53.26422],[-1.89438,53.26421],[-1.89394,53.26425]]]]}},
{ "type":"Feature","properties":{"osm_way_id":"147475645","amenity":"parking"},"geometry":{"type":"MultiPolygon","coordinates":[[[[-1.89369,53.27015],[-1.89316,53.27015],[-1.89317,53.27002],[-1.89317,53.27],[-1.89316,53.26998],[-1.89316,53.26997],[-1.89314,53.26996],[-1.89313,53.26995],[-1.89284,53.2698],[-1.89286,53.26978],[-1.89267,53.26968],[-1.89275,53.26962],[-1.89284,53.26964],[-1.89289,53.26971],[-1.89343,53.26989],[-1.89368,53.26989],[-1.89369,53.27015]]]]}},
{ "type":"Feature","properties":{"osm_way_id":"147547657","amenity":"parking"},"geometry":{"type":"MultiPolygon","coordinates":[[[[-1.89892,53.25774],[-1.89904,53.25772],[-1.89896,53.25758],[-1.89893,53.25757],[-1.89884,53.25759],[-1.89892,53.25774]]]]}},
{ "type":"Feature","properties":{"osm_way_id":"147549032","amenity":"parking"},"geometry":{"type":"MultiPolygon","coordinates":[[[[-1.89614,53.25757],[-1.896,53.25757],[-1.896,53.25753],[-1.89597,53.25753],[-1.89596,53.25753],[-1.89594,53.25754],[-1.89593,53.25755],[-1.89592,53.25756],[-1.89592,53.25757],[-1.89574,53.25757],[-1.89574,53.25754],[-1.89569,53.25754],[-1.89569,53.25749],[-1.89574,53.25749],[-1.89574,53.25745],[-1.8959,53.25745],[-1.8959,53.25749],[-1.89607,53.25749],[-1.89607,53.25744],[-1.89613,53.25744],[-1.89614,53.25757]]]]}},
{ "type":"Feature","properties":{"osm_way_id":"147549033","amenity":"parking"},"geometry":{"type":"MultiPolygon","coordinates":[[[[-1.89713,53.25749],[-1.89713,53.25746],[-1.897,53.25747],[-1.897,53.25749],[-1.89694,53.25749],[-1.89694,53.25754],[-1.89691,53.25754],[-1.89691,53.25754],[-1.89689,53.25754],[-1.8969,53.25762],[-1.89682,53.25762],[-1.89682,53.25761],[-1.89657,53.25761],[-1.89657,53.25757],[-1.89662,53.25757],[-1.89661,53.25744],[-1.89648,53.25744],[-1.89648,53.25738],[-1.89717,53.25737],[-1.8972,53.25746],[-1.89719,53.25749],[-1.89713,53.25749]]]]}},
{ "type":"Feature","properties":{"osm_way_id":"147549034","amenity":"parking"},"geometry":{"type":"MultiPolygon","coordinates":[[[[-1.89727,53.2576],[-1.89771,53.25754],[-1.89763,53.25736],[-1.89718,53.25737],[-1.89727,53.2576]]]]}},
{ "type":"Feature","properties":{"osm_way_id":"147596580","amenity":"parking","other":{"wheelchair":"yes"}}, "geometry":{"type":"MultiPolygon","coordinates":[[[[-1.90518,53.25926],[-1.90508,53.2593],[-1.90505,53.25927],[-1.90514,53.25923],[-1.90518,53.25926]]]]}},
{ "type":"Feature","properties":{"osm_way_id":"147596591","amenity":"parking","other":{"wheelchair":"yes"}}, "geometry":{"type":"MultiPolygon","coordinates":[[[[-1.90542,53.25927],[-1.90557,53.25945],[-1.90561,53.25943],[-1.90565,53.2594],[-1.90569,53.25938],[-1.90556,53.25925],[-1.90542,53.25927]]]]}},
{ "type":"Feature","properties":{"osm_way_id":"148073688","amenity":"parking","other":{"access":"customers","capacity":"10","operator":"St John's Church","operator:type":"religious","parking":"surface","surface":"compacted"}}, "geometry":{"type":"MultiPolygon","coordinates":[[[[-1.91697,53.2593],[-1.9171,53.25929],[-1.91706,53.25908],[-1.91698,53.2591],[-1.91692,53.25904],[-1.91682,53.25906],[-1.91689,53.25917],[-1.9169,53.25919],[-1.91697,53.2593]]]]}},
{ "type":"Feature","properties":{"osm_way_id":"148478560","name":"Robin Hood Car Park","amenity":"parking","other":{"parking":"surface"}}, "geometry":{"type":"MultiPolygon","coordinates":[[[[-1.91058,53.25004],[-1.91056,53.24997],[-1.91039,53.2499],[-1.90999,53.24996],[-1.9101,53.25019],[-1.91049,53.25014],[-1.91058,53.25004]]]]}},
{ "type":"Feature","properties":{"osm_way_id":"150175096","amenity":"parking"},"geometry":{"type":"MultiPolygon","coordinates":[[[[-1.85643,53.52985],[-1.8563,53.52988],[-1.85603,53.52988],[-1.85596,53.52987],[-1.85589,53.52987],[-1.8564,53.52956],[-1.85639,53.52959],[-1.85643,53.52975],[-1.85643,53.52985]]]]}},
{ "type":"Feature","properties":{"osm_way_id":"154756484","amenity":"parking","other":{"operator":"Waverley Borough Council","wheelchair":"yes"}}, "geometry":{"type":"MultiPolygon","coordinates":[[[[-0.61704,51.185],[-0.61697,51.18497],[-0.61687,51.18491],[-0.61682,51.18496],[-0.61683,51.18503],[-0.61693,51.18507],[-0.61706,51.18509],[-0.61704,51.185]]]]}},
{ "type":"Feature","properties":{"osm_way_id":"155262627","amenity":"parking"},"geometry":{"type":"MultiPolygon","coordinates":[[[[-1.80444,53.34653],[-1.8045,53.34655],[-1.80477,53.34636],[-1.80483,53.34631],[-1.80511,53.34609],[-1.80526,53.34599],[-1.80523,53.34596],[-1.80521,53.34594],[-1.8051,53.34601],[-1.80497,53.34611],[-1.80491,53.34615],[-1.80485,53.34613],[-1.8046,53.3463],[-1.80426,53.34654],[-1.80434,53.34658],[-1.80441,53.34652],[-1.80444,53.34653]]]]}},
{ "type":"Feature","properties":{"osm_way_id":"155263284","amenity":"parking"},"geometry":{"type":"MultiPolygon","coordinates":[[[[-1.80372,53.3475],[-1.80369,53.3475],[-1.80381,53.34719],[-1.80388,53.34703],[-1.80392,53.34697],[-1.80396,53.3469],[-1.80398,53.34691],[-1.80403,53.34693],[-1.8038,53.34748],[-1.80372,53.3475]]]]}},
{ "type":"Feature","properties":{"osm_way_id":"158960730","amenity":"parking","other":{"capacity":"1","fee":"no","maxstay":"2 hours","parking":"surface"}}, "geometry":{"type":"MultiPolygon","coordinates":[[[[-1.91613,53.25413],[-1.91605,53.25412],[-1.91606,53.25411],[-1.91613,53.25411],[-1.91613,53.25413]]]]}},
{ "type":"Feature","properties":{"osm_way_id":"158960977","amenity":"parking","other":{"capacity":"2","fee":"no","maxstay":"2 hours","parking":"surface"}}, "geometry":{"type":"MultiPolygon","coordinates":[[[[-1.91595,53.25412],[-1.91579,53.25411],[-1.9158,53.2541],[-1.91595,53.2541],[-1.91595,53.25412]]]]}},
{ "type":"Feature","properties":{"osm_way_id":"158967047","amenity":"parking","other":{"parking":"surface"}}, "geometry":{"type":"MultiPolygon","coordinates":[[[[-1.93856,53.27003],[-1.9382,53.26993],[-1.93819,53.26994],[-1.93855,53.27005],[-1.93856,53.27003]]]]}},
{ "type":"Feature","properties":{"osm_way_id":"158967048","amenity":"parking","other":{"parking":"surface"}}, "geometry":{"type":"MultiPolygon","coordinates":[[[[-1.93857,53.27004],[-1.93821,53.26993],[-1.9382,53.26995],[-1.93856,53.27006],[-1.93857,53.27004]]]]}},
{ "type":"Feature","properties":{"osm_way_id":"159049754","amenity":"parking","other":{"capacity":"9","parking":"surface"}}, "geometry":{"type":"MultiPolygon","coordinates":[[[[-1.91468,53.25878],[-1.91439,53.2589],[-1.91434,53.25886],[-1.91445,53.25883],[-1.91458,53.25877],[-1.91461,53.25875],[-1.91468,53.25878]]]]}},
{ "type":"Feature","properties":{"osm_way_id":"159051531","amenity":"parking","other":{"parking":"surface","wheelchair":"yes"}}, "geometry":{"type":"MultiPolygon","coordinates":[[[[-1.91604,53.26031],[-1.9163,53.26019],[-1.91612,53.26005],[-1.91608,53.26003],[-1.91609,53.25997],[-1.91592,53.25981],[-1.91608,53.25973],[-1.91598,53.25965],[-1.91553,53.25981],[-1.91569,53.25992],[-1.91585,53.25984],[-1.91588,53.25986],[-1.91565,53.25997],[-1.91581,53.26008],[-1.91587,53.26012],[-1.91581,53.26014],[-1.91604,53.26031]]]]}},
{ "type":"Feature","properties":{"osm_way_id":"160432421","amenity":"parking","other":{"capacity":"5","maxstay":"5 Minutes - Collection Only","parking":"surface"}}, "geometry":{"type":"MultiPolygon","coordinates":[[[[-1.9127,53.26258],[-1.91257,53.26251],[-1.91252,53.26254],[-1.91265,53.26261],[-1.9127,53.26258]]]]}},
{ "type":"Feature","properties":{"osm_way_id":"160432422","amenity":"parking","other":{"capacity":"5","maxstay":"5 Minutes","parking":"surface"}}, "geometry":{"type":"MultiPolygon","coordinates":[[[[-1.91281,53.2625],[-1.91287,53.26247],[-1.91274,53.26239],[-1.91269,53.26242],[-1.91281,53.2625]]]]}},
{ "type":"Feature","properties":{"osm_way_id":"163805115","amenity":"parking","other":{"access":"customers","operator":"Speedwell Cavern","parking":"surface"}}, "geometry":{"type":"MultiPolygon","coordinates":[[[[-1.79244,53.34173],[-1.79242,53.34165],[-1.79284,53.3416],[-1.79287,53.34158],[-1.79289,53.34157],[-1.79289,53.34155],[-1.79286,53.34154],[-1.79283,53.34153],[-1.79213,53.34163],[-1.79214,53.34165],[-1.79208,53.34166],[-1.79205,53.34165],[-1.79201,53.34163],[-1.79199,53.3416],[-1.79181,53.34162],[-1.79172,53.34158],[-1.7917,53.34155],[-1.79208,53.34151],[-1.79289,53.3414],[-1.79296,53.34141],[-1.793,53.34142],[-1.79305,53.34144],[-1.79308,53.34148],[-1.79308,53.34151],[-1.79307,53.34156],[-1.79302,53.3416],[-1.79296,53.34165],[-1.79288,53.34168],[-1.79275,53.3417],[-1.79244,53.34173]]]]}},
{ "type":"Feature","properties":{"osm_way_id":"165187508","amenity":"parking","other":{"fee":"yes","parking":"surface"}}, "geometry":{"type":"MultiPolygon","coordinates":[[[[-1.81847,53.36427],[-1.81845,53.36434],[-1.81848,53.36441],[-1.81909,53.36423],[-1.81937,53.36415],[-1.81986,53.36401],[-1.82043,53.36386],[-1.82039,53.36378],[-1.81989,53.36382],[-1.81981,53.36385],[-1.8197,53.36383],[-1.819,53.36402],[-1.81873,53.36411],[-1.8187,53.36415],[-1.81843,53.36421],[-1.81847,53.36427]]]]}},
{ "type":"Feature","properties":{"osm_way_id":"166416602","name":"Mam Nick","amenity":"parking","other":{"description":"National Trust","fee":"yes"}}, "geometry":{"type":"MultiPolygon","coordinates":[[[[-1.81536,53.34613],[-1.8154,53.34599],[-1.81495,53.34597],[-1.81496,53.34578],[-1.81546,53.34581],[-1.8155,53.34568],[-1.81481,53.34566],[-1.81481,53.3455],[-1.81503,53.34551],[-1.81503,53.34546],[-1.81517,53.34546],[-1.81516,53.34552],[-1.81554,53.34554],[-1.81564,53.34555],[-1.81565,53.3455],[-1.81583,53.34551],[-1.81581,53.34558],[-1.81576,53.34569],[-1.81586,53.34571],[-1.81578,53.34587],[-1.81568,53.34585],[-1.81563,53.34596],[-1.81573,53.34597],[-1.81568,53.34609],[-1.81557,53.34607],[-1.81551,53.34618],[-1.81536,53.34629],[-1.81501,53.3463],[-1.81498,53.34612],[-1.81536,53.34613]]]]}},
{ "type":"Feature","properties":{"osm_way_id":"167168457","amenity":"parking","other":{"access":"permissive","capacity":"22","fee":"no","parking":"surface","surface":"asphalt"}}, "geometry":{"type":"MultiPolygon","coordinates":[[[[-1.96994,53.43515],[-1.96998,53.43532],[-1.97008,53.43533],[-1.97014,53.43533],[-1.97043,53.43523],[-1.97038,53.43513],[-1.97023,53.43508],[-1.96994,53.43515]]]]}},
{ "type":"Feature","properties":{"osm_way_id":"169350658","amenity":"parking","other":{"access":"no","parking":"surface"}}, "geometry":{"type":"MultiPolygon","coordinates":[[[[-1.56103,52.38538],[-1.56158,52.38539],[-1.56161,52.38538],[-1.56161,52.38549],[-1.56156,52.38549],[-1.56104,52.38548],[-1.56103,52.38548],[-1.56103,52.38538]]]]}},
{ "type":"Feature","properties":{"osm_way_id":"169922694","amenity":"parking","other":{"parking":"surface"}}, "geometry":{"type":"MultiPolygon","coordinates":[[[[-1.0167,52.07767],[-1.01669,52.07769],[-1.01667,52.0777],[-1.01666,52.07771],[-1.01663,52.07772],[-1.01659,52.07772],[-1.01638,52.07773],[-1.01635,52.07773],[-1.01633,52.07773],[-1.01631,52.07773],[-1.01629,52.07772],[-1.01625,52.07772],[-1.01545,52.07779],[-1.01544,52.07776],[-1.01525,52.07777],[-1.01523,52.07778],[-1.01521,52.07778],[-1.01518,52.07781],[-1.01516,52.07782],[-1.01515,52.07782],[-1.01468,52.07784],[-1.01462,52.07745],[-1.01461,52.07733],[-1.01461,52.07731],[-1.01461,52.0773],[-1.01462,52.07729],[-1.01464,52.07728],[-1.01466,52.07727],[-1.01468,52.07727],[-1.0147,52.07727],[-1.01477,52.07727],[-1.01497,52.07726],[-1.01561,52.07722],[-1.0158,52.07721],[-1.01627,52.07719],[-1.01643,52.07718],[-1.01649,52.07719],[-1.01653,52.0772],[-1.01658,52.07722],[-1.01661,52.07725],[-1.01663,52.07727],[-1.01664,52.0773],[-1.0167,52.07766],[-1.0167,52.07767]]]]}},
{ "type":"Feature","properties":{"osm_way_id":"172402673","amenity":"parking"},"geometry":{"type":"MultiPolygon","coordinates":[[[[-1.77237,53.34315],[-1.77245,53.34331],[-1.77226,53.34334],[-1.77219,53.34318],[-1.77237,53.34315]]]]}},
{ "type":"Feature","properties":{"osm_way_id":"172413152","amenity":"parking"},"geometry":{"type":"MultiPolygon","coordinates":[[[[-1.77561,53.34389],[-1.77569,53.34388],[-1.77573,53.34399],[-1.77584,53.34396],[-1.77577,53.34383],[-1.7756,53.34384],[-1.77561,53.34389]]]]}},
{ "type":"Feature","properties":{"osm_way_id":"172413157","amenity":"parking"},"geometry":{"type":"MultiPolygon","coordinates":[[[[-1.77576,53.3436],[-1.7756,53.3436],[-1.77563,53.3438],[-1.7758,53.34378],[-1.77576,53.3436]]]]}},
{ "type":"Feature","properties":{"osm_way_id":"172413158","amenity":"parking","other":{"parking":"surface"}}, "geometry":{"type":"MultiPolygon","coordinates":[[[[-1.77662,53.34369],[-1.77664,53.34354],[-1.77664,53.34344],[-1.77623,53.34344],[-1.77623,53.34349],[-1.77611,53.3435],[-1.77616,53.34368],[-1.77662,53.34369]]]]}},
{ "type":"Feature","properties":{"osm_way_id":"172422269","amenity":"parking"},"geometry":{"type":"MultiPolygon","coordinates":[[[[-1.69856,53.36346],[-1.6985,53.36346],[-1.69842,53.36352],[-1.69834,53.36353],[-1.69827,53.36316],[-1.69829,53.3629],[-1.69853,53.36292],[-1.69848,53.36312],[-1.69851,53.36323],[-1.69856,53.36346]]]]}},
{ "type":"Feature","properties":{"osm_way_id":"184560878","name":"Spring Gardens car park","amenity":"parking","other":{"access":"yes","fee":"yes","parking":"surface"}}, "geometry":{"type":"MultiPolygon","coordinates":[[[[-1.9091,53.25994],[-1.90902,53.25999],[-1.90896,53.26003],[-1.90891,53.26006],[-1.90877,53.26006],[-1.90855,53.25995],[-1.90859,53.25987],[-1.90876,53.25984],[-1.9088,53.25984],[-1.90882,53.25984],[-1.90885,53.25984],[-1.90887,53.25985],[-1.90902,53.2599],[-1.90908,53.25993],[-1.9091,53.25994]]]]}},
{ "type":"Feature","properties":{"osm_way_id":"184560881","amenity":"parking","other":{"access":"yes","fee":"yes","parking":"surface"}}, "geometry":{"type":"MultiPolygon","coordinates":[[[[-1.91011,53.25981],[-1.91008,53.25976],[-1.91005,53.25971],[-1.91009,53.2597],[-1.91007,53.25968],[-1.91015,53.25967],[-1.91037,53.25962],[-1.9104,53.25966],[-1.91043,53.25965],[-1.91044,53.25964],[-1.91044,53.25963],[-1.91055,53.25961],[-1.91056,53.25959],[-1.91057,53.25958],[-1.91059,53.25957],[-1.91065,53.25955],[-1.91065,53.25956],[-1.91068,53.25961],[-1.91063,53.25962],[-1.91068,53.25971],[-1.91023,53.2598],[-1.91011,53.25981]]]]}},
{ "type":"Feature","properties":{"osm_way_id":"184747389","amenity":"parking","other":{"wheelchair":"yes"}}, "geometry":{"type":"MultiPolygon","coordinates":[[[[-1.91203,53.2584],[-1.91195,53.25842],[-1.91186,53.25845],[-1.91174,53.25849],[-1.91166,53.25852],[-1.9116,53.25855],[-1.91155,53.25858],[-1.91151,53.2586],[-1.91148,53.25863],[-1.91145,53.25866],[-1.91141,53.25865],[-1.91141,53.25863],[-1.91143,53.2586],[-1.91147,53.25857],[-1.91154,53.25853],[-1.91163,53.25849],[-1.91173,53.25845],[-1.91184,53.25841],[-1.91192,53.25838],[-1.91198,53.25837],[-1.91203,53.2584]]]]}},
{ "type":"Feature","properties":{"osm_way_id":"184931924","amenity":"parking"},"geometry":{"type":"MultiPolygon","coordinates":[[[[-1.91116,53.25712],[-1.91117,53.25716],[-1.91118,53.2572],[-1.91096,53.25722],[-1.91095,53.25719],[-1.91096,53.25719],[-1.91091,53.257],[-1.91095,53.257],[-1.91096,53.25703],[-1.91105,53.25702],[-1.91105,53.257],[-1.91113,53.25699],[-1.91116,53.25712]]]]}},
{ "type":"Feature","properties":{"osm_way_id":"185123855","amenity":"parking"},"geometry":{"type":"MultiPolygon","coordinates":[[[[-1.92154,53.25767],[-1.9215,53.2577],[-1.92148,53.2577],[-1.92145,53.2577],[-1.92144,53.2577],[-1.92142,53.2577],[-1.92139,53.25769],[-1.92137,53.25768],[-1.92138,53.25767],[-1.92137,53.25766],[-1.92127,53.25743],[-1.92126,53.25741],[-1.92125,53.2574],[-1.92124,53.2574],[-1.92123,53.25738],[-1.92122,53.25736],[-1.92121,53.25734],[-1.92144,53.2573],[-1.92146,53.25736],[-1.92149,53.25743],[-1.92146,53.25743],[-1.92147,53.25746],[-1.9215,53.25745],[-1.92154,53.25754],[-1.92151,53.25754],[-1.92152,53.25757],[-1.92155,53.25757],[-1.92156,53.2576],[-1.92156,53.25764],[-1.92155,53.25765],[-1.92154,53.25767]]]]}},
{ "type":"Feature","properties":{"osm_way_id":"186737666","name":"Buxton station staff car park","amenity":"parking"},"geometry":{"type":"MultiPolygon","coordinates":[[[[-1.91213,53.26111],[-1.91183,53.26126],[-1.91172,53.26131],[-1.9116,53.26125],[-1.91169,53.26118],[-1.91176,53.26112],[-1.91191,53.26104],[-1.91194,53.26102],[-1.91198,53.261],[-1.91202,53.26104],[-1.91209,53.26101],[-1.91216,53.26107],[-1.91216,53.26107],[-1.91215,53.26109],[-1.91212,53.26111],[-1.91213,53.26111]]]]}},
{ "type":"Feature","properties":{"osm_way_id":"187418805","name":"Iceland Car Park","amenity":"parking","other":{"toilets:wheelchair":"no","wheelchair":"yes"}}, "geometry":{"type":"MultiPolygon","coordinates":[[[[-1.90839,53.2593],[-1.90839,53.25922],[-1.90845,53.25922],[-1.90845,53.25911],[-1.90862,53.25911],[-1.90862,53.25897],[-1.90847,53.25897],[-1.90842,53.25899],[-1.90835,53.25906],[-1.90834,53.25908],[-1.90834,53.25909],[-1.90833,53.25909],[-1.90828,53.25909],[-1.90823,53.25912],[-1.90818,53.25928],[-1.90826,53.25928],[-1.90826,53.2593],[-1.90833,53.2593],[-1.90839,53.2593]]]]}},
{ "type":"Feature","properties":{"osm_way_id":"187523939","amenity":"parking"},"geometry":{"type":"MultiPolygon","coordinates":[[[[-1.90841,53.26025],[-1.90838,53.26018],[-1.90836,53.26016],[-1.90835,53.26014],[-1.90835,53.26013],[-1.90833,53.26011],[-1.90831,53.2601],[-1.90829,53.26008],[-1.90826,53.26006],[-1.90823,53.26005],[-1.90826,53.26002],[-1.90829,53.26003],[-1.90832,53.26005],[-1.90835,53.26006],[-1.90836,53.26007],[-1.90838,53.26009],[-1.9084,53.2601],[-1.90841,53.26012],[-1.90843,53.26014],[-1.90844,53.26016],[-1.90847,53.26023],[-1.90841,53.26025]]]]}},
{ "type":"Feature","properties":{"osm_way_id":"187523944","name":"Bridge Street Car Park","amenity":"parking"},"geometry":{"type":"MultiPolygon","coordinates":[[[[-1.90806,53.26013],[-1.90767,53.26024],[-1.90757,53.26011],[-1.9079,53.26001],[-1.90792,53.26004],[-1.90794,53.26005],[-1.90795,53.26006],[-1.90797,53.26007],[-1.90798,53.26007],[-1.90799,53.26008],[-1.908,53.26008],[-1.90802,53.26009],[-1.90804,53.2601],[-1.90806,53.26013]]]]}},
{ "type":"Feature","properties":{"osm_way_id":"199263943","name":"Miller's Dale","amenity":"parking","other":{"capacity:disabled":"5","fee":"yes","operator":"Peak District National Park","operator:wikidata":"Q24641019","parking":"surface"}}, "geometry":{"type":"MultiPolygon","coordinates":[[[[-1.79412,53.2561],[-1.79387,53.25609],[-1.79388,53.25602],[-1.79378,53.25602],[-1.79376,53.25602],[-1.79374,53.25602],[-1.79369,53.25601],[-1.79366,53.25601],[-1.79333,53.25623],[-1.79342,53.25628],[-1.79344,53.2563],[-1.79363,53.25622],[-1.79367,53.25621],[-1.79372,53.2562],[-1.79378,53.2562],[-1.79394,53.25623],[-1.79407,53.25626],[-1.79412,53.25633],[-1.7942,53.25632],[-1.79481,53.25637],[-1.79484,53.25631],[-1.79499,53.25629],[-1.79511,53.25631],[-1.79512,53.25636],[-1.79552,53.25637],[-1.79557,53.25621],[-1.79535,53.25619],[-1.79534,53.25621],[-1.79513,53.25619],[-1.79513,53.25617],[-1.79489,53.25614],[-1.79486,53.25624],[-1.79442,53.25619],[-1.79441,53.25622],[-1.79423,53.2562],[-1.79416,53.25616],[-1.79411,53.25615],[-1.79412,53.2561]]]]}},
{ "type":"Feature","properties":{"osm_way_id":"200186422","amenity":"parking","other":{"access":"permissive","fee":"no","parking":"surface","supervised":"no","surface":"asphalt"}}, "geometry":{"type":"MultiPolygon","coordinates":[[[[-1.96697,53.46254],[-1.96684,53.46241],[-1.96654,53.46252],[-1.96666,53.46265],[-1.96697,53.46254]]]]}},
{ "type":"Feature","properties":{"osm_way_id":"200186730","name":"Albert Street Car Park","amenity":"parking","other":{"access":"yes","fee":"no","parking":"surface"}}, "geometry":{"type":"MultiPolygon","coordinates":[[[[-1.96973,53.464],[-1.96947,53.46389],[-1.96964,53.46374],[-1.96956,53.46371],[-1.96966,53.46363],[-1.96988,53.46366],[-1.96985,53.46371],[-1.96993,53.46373],[-1.96973,53.464]]]]}},
{ "type":"Feature","properties":{"osm_way_id":"200915145","amenity":"parking","other":{"parking":"surface"}}, "geometry":{"type":"MultiPolygon","coordinates":[[[[-1.95273,53.44396],[-1.95277,53.44376],[-1.95189,53.4437],[-1.95188,53.44377],[-1.95189,53.44381],[-1.95193,53.44384],[-1.95199,53.44386],[-1.95223,53.44387],[-1.95224,53.44381],[-1.95231,53.44383],[-1.95236,53.44387],[-1.95236,53.4439],[-1.95233,53.44394],[-1.95273,53.44396]]]]}},
{ "type":"Feature","properties":{"osm_way_id":"200915766","amenity":"parking","other":{"parking":"surface"}}, "geometry":{"type":"MultiPolygon","coordinates":[[[[-1.95315,53.44449],[-1.9533,53.44432],[-1.9531,53.44409],[-1.95218,53.44402],[-1.95206,53.44399],[-1.95167,53.44397],[-1.95162,53.44408],[-1.95315,53.44449]]]]}},
{ "type":"Feature","properties":{"osm_way_id":"201003315","name":"Glossop Station car park","amenity":"parking","other":{"parking":"surface"}}, "geometry":{"type":"MultiPolygon","coordinates":[[[[-1.94861,53.44444],[-1.94847,53.4444],[-1.94867,53.44399],[-1.94883,53.44402],[-1.9489,53.44404],[-1.9488,53.44416],[-1.94886,53.44418],[-1.94861,53.44444]]]]}},
{ "type":"Feature","properties":{"osm_way_id":"201003324","name":"B&M Car Park","amenity":"parking","other":{"access":"customers","disused:amenity":"parking","disused:parking":"surface","parking":"surface"}}, "geometry":{"type":"MultiPolygon","coordinates":[[[[-1.94956,53.44408],[-1.94947,53.44418],[-1.94987,53.44432],[-1.94984,53.44435],[-1.95019,53.44448],[-1.95003,53.44464],[-1.95012,53.44468],[-1.95005,53.44476],[-1.95066,53.44498],[-1.95115,53.44514],[-1.95173,53.44529],[-1.95187,53.44517],[-1.95169,53.44511],[-1.95166,53.44514],[-1.95074,53.4448],[-1.9505,53.44471],[-1.95057,53.44469],[-1.95063,53.44465],[-1.95067,53.4446],[-1.95068,53.44455],[-1.95066,53.44451],[-1.95062,53.44447],[-1.94968,53.44412],[-1.94956,53.44408]]]]}},
{ "type":"Feature","properties":{"osm_way_id":"201007788","name":"Tesco car park","amenity":"parking","other":{"parking":"surface"}}, "geometry":{"type":"MultiPolygon","coordinates":[[[[-1.96102,53.44489],[-1.9602,53.4447],[-1.96018,53.44474],[-1.95994,53.44468],[-1.95972,53.44423],[-1.95972,53.44418],[-1.96005,53.4439],[-1.96007,53.44384],[-1.96014,53.44385],[-1.96015,53.44381],[-1.96038,53.44383],[-1.96037,53.44388],[-1.96043,53.44388],[-1.96039,53.44403],[-1.96124,53.44422],[-1.96134,53.44425],[-1.9615,53.44429],[-1.96133,53.44454],[-1.96127,53.44452],[-1.96102,53.44489]]]]}},
{ "type":"Feature","properties":{"osm_way_id":"201103912","name":"Aldi car park","amenity":"parking","other":{"access":"customers","fee":"no","parking":"surface"}}, "geometry":{"type":"MultiPolygon","coordinates":[[[[-1.95453,53.44464],[-1.95422,53.44468],[-1.95388,53.4446],[-1.95406,53.44435],[-1.95375,53.44426],[-1.95384,53.44406],[-1.95404,53.44406],[-1.9541,53.44429],[-1.95478,53.44424],[-1.95481,53.44437],[-1.95479,53.44441],[-1.95475,53.44446],[-1.9547,53.44449],[-1.95463,53.4445],[-1.95455,53.44451],[-1.9545,53.44451],[-1.95453,53.44464]]]]}},
{ "type":"Feature","properties":{"osm_way_id":"201104930","name":"Wren Nest Retail car park","amenity":"parking","other":{"parking":"surface"}}, "geometry":{"type":"MultiPolygon","coordinates":[[[[-1.95947,53.44444],[-1.9594,53.44414],[-1.95932,53.44415],[-1.95917,53.44405],[-1.95916,53.44394],[-1.95792,53.44401],[-1.95788,53.44385],[-1.95775,53.44386],[-1.95773,53.44379],[-1.95705,53.44384],[-1.95696,53.44393],[-1.95802,53.44414],[-1.95796,53.44425],[-1.958,53.44428],[-1.95806,53.44426],[-1.95807,53.44435],[-1.95868,53.44431],[-1.95927,53.44446],[-1.95947,53.44444]]]]}},
{ "type":"Feature","properties":{"osm_way_id":"201105399","name":"Wren Nest Retail car park","amenity":"parking","other":{"parking":"surface"}}, "geometry":{"type":"MultiPolygon","coordinates":[[[[-1.95868,53.44364],[-1.95866,53.44354],[-1.95832,53.44357],[-1.95826,53.44354],[-1.9568,53.44359],[-1.95683,53.44368],[-1.9569,53.44375],[-1.95703,53.44375],[-1.95868,53.44364]]]]}},
{ "type":"Feature","properties":{"osm_way_id":"201108377","name":"Wickes car park","amenity":"parking","other":{"parking":"surface"}}, "geometry":{"type":"MultiPolygon","coordinates":[[[[-1.95686,53.44449],[-1.95684,53.44454],[-1.95669,53.44451],[-1.95657,53.44479],[-1.9576,53.44499],[-1.95775,53.44463],[-1.95686,53.44449]]]]}},
{ "type":"Feature","properties":{"osm_way_id":"201117812","amenity":"parking","other":{"parking":"surface"}}, "geometry":{"type":"MultiPolygon","coordinates":[[[[-1.94951,53.44272],[-1.94953,53.44254],[-1.95065,53.44255],[-1.95066,53.44228],[-1.94965,53.44228],[-1.9493,53.44271],[-1.94951,53.44272]]]]}},
{ "type":"Feature","properties":{"osm_way_id":"201246094","amenity":"parking","other":{"parking":"surface"}}, "geometry":{"type":"MultiPolygon","coordinates":[[[[-1.97202,53.45048],[-1.97158,53.4496],[-1.97146,53.44958],[-1.97135,53.44973],[-1.97128,53.44976],[-1.97117,53.44979],[-1.97086,53.45026],[-1.97142,53.45033],[-1.97172,53.45039],[-1.97202,53.45048]]]]}},
{ "type":"Feature","properties":{"osm_way_id":"201303319","name":"Wrens Nest car park","amenity":"parking","other":{"parking":"surface"}}, "geometry":{"type":"MultiPolygon","coordinates":[[[[-1.95966,53.44465],[-1.95941,53.4447],[-1.95949,53.44486],[-1.95944,53.44498],[-1.95903,53.44498],[-1.95903,53.44503],[-1.95897,53.44507],[-1.95908,53.44514],[-1.95958,53.44518],[-1.9596,53.44514],[-1.95966,53.44515],[-1.95977,53.44484],[-1.95966,53.44465]]]]}},
{ "type":"Feature","properties":{"osm_way_id":"201413527","amenity":"parking","other":{"access":"permissive","parking":"surface"}}, "geometry":{"type":"MultiPolygon","coordinates":[[[[-1.95578,53.45035],[-1.95594,53.45057],[-1.95574,53.45062],[-1.9556,53.45065],[-1.95567,53.45076],[-1.95576,53.45081],[-1.95588,53.45084],[-1.95614,53.45078],[-1.95604,53.45069],[-1.95609,53.45058],[-1.95614,53.45056],[-1.95594,53.4503],[-1.95578,53.45035]]]]}},
{ "type":"Feature","properties":{"osm_way_id":"201500245","amenity":"parking","other":{"access":"yes","fee":"no","park_ride":"no","parking":"surface","supervised":"no","surface":"compacted"}}, "geometry":{"type":"MultiPolygon","coordinates":[[[[-1.94189,53.44551],[-1.94183,53.44589],[-1.94193,53.44588],[-1.94193,53.44601],[-1.94195,53.44615],[-1.94196,53.44629],[-1.94205,53.44639],[-1.94215,53.44641],[-1.94226,53.44638],[-1.94231,53.44648],[-1.94225,53.44661],[-1.94215,53.44667],[-1.9419,53.44668],[-1.94184,53.44665],[-1.94177,53.44661],[-1.94176,53.44653],[-1.94183,53.44646],[-1.9417,53.44632],[-1.94164,53.44619],[-1.94164,53.44607],[-1.94167,53.44577],[-1.9417,53.44551],[-1.94189,53.44551]]]]}},
{ "type":"Feature","properties":{"osm_way_id":"202682235","amenity":"parking"},"geometry":{"type":"MultiPolygon","coordinates":[[[[-1.95955,53.44529],[-1.95957,53.44537],[-1.95947,53.44555],[-1.95898,53.44549],[-1.95894,53.44562],[-1.95899,53.44525],[-1.95955,53.44529]]]]}},
{ "type":"Feature","properties":{"osm_way_id":"202689837","name":"Torside","amenity":"parking","other":{"access":"yes","capacity:disabled":"3","fee":"yes","operator":"Peak District National Park","operator:wikidata":"Q24641019","parking":"surface","payment:coins":"yes","surface":"compacted"}}, "geometry":{"type":"MultiPolygon","coordinates":[[[[-1.89897,53.48208],[-1.89864,53.48209],[-1.89791,53.48195],[-1.89766,53.4819],[-1.89817,53.48159],[-1.89839,53.48166],[-1.89878,53.48142],[-1.89938,53.48175],[-1.8992,53.48189],[-1.89913,53.48195],[-1.89897,53.48208]]]]}},
{ "type":"Feature","properties":{"osm_way_id":"203341355","amenity":"parking","other":{"capacity":"14","fee":"no","supervised":"no","surface":"asphalt"}}, "geometry":{"type":"MultiPolygon","coordinates":[[[[-1.96581,53.46077],[-1.96543,53.46102],[-1.96534,53.46097],[-1.96524,53.46102],[-1.96547,53.46115],[-1.96559,53.46133],[-1.9656,53.46133],[-1.96574,53.46132],[-1.96582,53.46131],[-1.96588,53.46133],[-1.96597,53.46137],[-1.96605,53.46133],[-1.96571,53.46113],[-1.9657,53.4611],[-1.96569,53.46106],[-1.96571,53.461],[-1.96575,53.46093],[-1.96582,53.46085],[-1.96588,53.4608],[-1.96581,53.46077]]]]}},
{ "type":"Feature","properties":{"osm_way_id":"203344228","amenity":"parking"},"geometry":{"type":"MultiPolygon","coordinates":[[[[-1.97849,53.46687],[-1.97855,53.46664],[-1.97774,53.46656],[-1.97772,53.46668],[-1.97776,53.46674],[-1.97791,53.46676],[-1.97821,53.46679],[-1.9782,53.46683],[-1.97849,53.46687]]]]}},
{ "type":"Feature","properties":{"osm_way_id":"203361421","amenity":"parking"},"geometry":{"type":"MultiPolygon","coordinates":[[[[-1.93838,53.45408],[-1.9385,53.45396],[-1.93773,53.45384],[-1.93767,53.45398],[-1.93838,53.45408]]]]}},
{ "type":"Feature","properties":{"osm_way_id":"203374543","amenity":"parking"},"geometry":{"type":"MultiPolygon","coordinates":[[[[-1.95607,53.46326],[-1.95594,53.46328],[-1.95591,53.46319],[-1.95594,53.46312],[-1.9561,53.46312],[-1.95617,53.46309],[-1.95626,53.46314],[-1.95623,53.46319],[-1.95618,53.46319],[-1.95607,53.46326]]]]}},
{ "type":"Feature","properties":{"osm_way_id":"203976286","amenity":"parking","other":{"parking":"surface"}}, "geometry":{"type":"MultiPolygon","coordinates":[[[[-1.69714,53.37097],[-1.69692,53.37118],[-1.69687,53.37118],[-1.69688,53.37114],[-1.69687,53.37107],[-1.69687,53.37103],[-1.69682,53.37103],[-1.69682,53.371],[-1.6968,53.37093],[-1.69672,53.37091],[-1.69673,53.37087],[-1.69682,53.37086],[-1.69683,53.37082],[-1.69694,53.37084],[-1.69697,53.37086],[-1.69713,53.37091],[-1.69711,53.37095],[-1.69714,53.37097]]]]}},
{ "type":"Feature","properties":{"osm_way_id":"211913582","amenity":"parking"},"geometry":{"type":"MultiPolygon","coordinates":[[[[-1.88449,53.23039],[-1.88395,53.23011],[-1.88408,53.22991],[-1.88426,53.22996],[-1.88546,53.23031],[-1.88535,53.23043],[-1.88481,53.23018],[-1.88449,53.23039]]]]}},
{ "type":"Feature","properties":{"osm_way_id":"222385791","name":"Barber Booth","amenity":"parking","other":{"capacity":"30","fee":"no","parking":"surface"}}, "geometry":{"type":"MultiPolygon","coordinates":[[[[-1.84009,53.35933],[-1.84006,53.35931],[-1.84001,53.35926],[-1.83988,53.35925],[-1.83981,53.35925],[-1.83969,53.35926],[-1.8393,53.35932],[-1.83921,53.35935],[-1.83922,53.35937],[-1.83959,53.35934],[-1.83992,53.35933],[-1.84009,53.35933]]]]}},
{ "type":"Feature","properties":{"osm_way_id":"222923093","amenity":"parking","other":{"parking":"surface"}}, "geometry":{"type":"MultiPolygon","coordinates":[[[[-1.81793,53.36457],[-1.81789,53.36449],[-1.81761,53.36449],[-1.81751,53.36451],[-1.81741,53.36453],[-1.8174,53.36451],[-1.81702,53.36461],[-1.8171,53.36472],[-1.81714,53.36478],[-1.81793,53.36457]]]]}},
{ "type":"Feature","properties":{"osm_way_id":"222923163","amenity":"parking","other":{"access":"customers","fee":"no","parking":"surface"}}, "geometry":{"type":"MultiPolygon","coordinates":[[[[-1.81697,53.36565],[-1.8166,53.36571],[-1.81657,53.36563],[-1.81653,53.36557],[-1.81667,53.36547],[-1.81669,53.36547],[-1.81673,53.36555],[-1.81691,53.36552],[-1.81697,53.36565]]]]}},
{ "type":"Feature","properties":{"osm_way_id":"223261211","amenity":"parking","other":{"parking":"street_side"}}, "geometry":{"type":"MultiPolygon","coordinates":[[[[-1.97909,53.29639],[-1.97906,53.29652],[-1.97892,53.29651],[-1.97895,53.29638],[-1.97909,53.29639]]]]}},
{ "type":"Feature","properties":{"osm_way_id":"223274104","amenity":"parking","other":{"parking":"surface"}}, "geometry":{"type":"MultiPolygon","coordinates":[[[[-1.78823,53.37165],[-1.78829,53.37159],[-1.78835,53.37148],[-1.78844,53.37123],[-1.78839,53.37121],[-1.7882,53.37142],[-1.78806,53.37155],[-1.78793,53.3716],[-1.78798,53.37165],[-1.78811,53.3716],[-1.78823,53.37165]]]]}},
{ "type":"Feature","properties":{"osm_way_id":"223285186","amenity":"parking"},"geometry":{"type":"MultiPolygon","coordinates":[[[[-1.9986,53.28231],[-1.99864,53.28225],[-1.99888,53.2823],[-1.99899,53.28234],[-1.99894,53.28241],[-1.99878,53.28237],[-1.9986,53.28231]]]]}},
{ "type":"Feature","properties":{"osm_way_id":"223285187","amenity":"parking"},"geometry":{"type":"MultiPolygon","coordinates":[[[[-1.98157,53.27584],[-1.98202,53.27502],[-1.98205,53.27503],[-1.98188,53.27535],[-1.9816,53.27585],[-1.98157,53.27584]]]]}},
{ "type":"Feature","properties":{"osm_way_id":"228952495","amenity":"parking","other":{"access":"customers","parking":"surface"}}, "geometry":{"type":"MultiPolygon","coordinates":[[[[-1.86509,53.32325],[-1.86514,53.32319],[-1.86523,53.32311],[-1.86489,53.32298],[-1.86475,53.32313],[-1.86509,53.32325]]]]}},
{ "type":"Feature","properties":{"osm_way_id":"230020600","amenity":"parking"},"geometry":{"type":"MultiPolygon","coordinates":[[[[-1.72283,53.39487],[-1.7227,53.39492],[-1.7226,53.39497],[-1.72252,53.39491],[-1.7225,53.39487],[-1.72257,53.39485],[-1.72281,53.39484],[-1.72283,53.39487]]]]}},
{ "type":"Feature","properties":{"osm_way_id":"230907952","amenity":"parking"},"geometry":{"type":"MultiPolygon","coordinates":[[[[-1.74379,53.34989],[-1.74378,53.34984],[-1.74376,53.3497],[-1.74355,53.34972],[-1.74358,53.34985],[-1.74366,53.3499],[-1.74379,53.34989]]]]}},
{ "type":"Feature","properties":{"osm_way_id":"231691865","amenity":"parking"},"geometry":{"type":"MultiPolygon","coordinates":[[[[-1.94346,53.33893],[-1.94371,53.33884],[-1.9437,53.33877],[-1.94314,53.33879],[-1.94314,53.33886],[-1.94282,53.33887],[-1.94283,53.33892],[-1.94296,53.33895],[-1.94346,53.33893]]]]}},
{ "type":"Feature","properties":{"osm_way_id":"231748855","amenity":"parking","other":{"parking":"surface"}}, "geometry":{"type":"MultiPolygon","coordinates":[[[[-1.95132,53.31486],[-1.95119,53.31478],[-1.95061,53.31513],[-1.95067,53.31516],[-1.95084,53.31516],[-1.95132,53.31486]]]]}},
{ "type":"Feature","properties":{"osm_way_id":"238309794","name":"Bamford Railway Station","amenity":"parking"},"geometry":{"type":"MultiPolygon","coordinates":[[[[-1.68914,53.3394],[-1.68861,53.33922],[-1.68876,53.33904],[-1.68897,53.33911],[-1.68891,53.33915],[-1.68905,53.33926],[-1.68919,53.33936],[-1.68918,53.33938],[-1.68914,53.3394]]]]}},
{ "type":"Feature","properties":{"osm_way_id":"240179664","amenity":"parking","other":{"access":"customers","parking":"surface"}}, "geometry":{"type":"MultiPolygon","coordinates":[[[[-1.74358,53.34822],[-1.74369,53.34822],[-1.74373,53.34822],[-1.74379,53.34822],[-1.74379,53.34795],[-1.74348,53.34795],[-1.74347,53.34807],[-1.74355,53.34808],[-1.7436,53.34809],[-1.74363,53.34813],[-1.74358,53.34822]]]]}},
{ "type":"Feature","properties":{"osm_way_id":"240179673","amenity":"parking","other":{"parking":"surface"}}, "geometry":{"type":"MultiPolygon","coordinates":[[[[-1.7445,53.34816],[-1.74445,53.34817],[-1.74413,53.34818],[-1.74413,53.34813],[-1.74411,53.34795],[-1.74412,53.34795],[-1.74428,53.34794],[-1.74428,53.34788],[-1.74469,53.34786],[-1.74471,53.34807],[-1.74464,53.34807],[-1.74465,53.3482],[-1.74459,53.3482],[-1.7445,53.3482],[-1.7445,53.34816]]]]}},
{ "type":"Feature","properties":{"osm_way_id":"240608680","amenity":"parking"},"geometry":{"type":"MultiPolygon","coordinates":[[[[-1.81745,53.35131],[-1.81771,53.3514],[-1.81788,53.35143],[-1.81796,53.35144],[-1.81796,53.35146],[-1.8178,53.35146],[-1.8176,53.35142],[-1.81752,53.35139],[-1.81744,53.35132],[-1.81745,53.35131]]]]}},
{ "type":"Feature","properties":{"osm_way_id":"241856256","amenity":"parking","other":{"access":"customers"}}, "geometry":{"type":"MultiPolygon","coordinates":[[[[-1.96623,53.47322],[-1.96617,53.47303],[-1.96645,53.473],[-1.96656,53.47314],[-1.96623,53.47322]]]]}},
{ "type":"Feature","properties":{"osm_way_id":"241856259","amenity":"parking","other":{"access":"customers","parking":"horse"}}, "geometry":{"type":"MultiPolygon","coordinates":[[[[-1.96641,53.47325],[-1.96658,53.4732],[-1.96663,53.47327],[-1.96649,53.47331],[-1.96641,53.47325]]]]}},
{ "type":"Feature","properties":{"osm_way_id":"241915280","amenity":"parking","other":{"access":"customers"}}, "geometry":{"type":"MultiPolygon","coordinates":[[[[-1.97884,53.46846],[-1.97859,53.46854],[-1.97856,53.46851],[-1.97843,53.46837],[-1.97868,53.46829],[-1.97881,53.46842],[-1.97884,53.46846]]]]}},
{ "type":"Feature","properties":{"osm_way_id":"242242628","name":"Cheshire Cheese Car Park","amenity":"parking","other":{"toilets:wheelchair":"yes","wheelchair":"yes"}}, "geometry":{"type":"MultiPolygon","coordinates":[[[[-1.9149,53.2543],[-1.91475,53.25434],[-1.91464,53.25438],[-1.91452,53.25426],[-1.91472,53.25418],[-1.91479,53.25417],[-1.9149,53.2543]]]]}},
{ "type":"Feature","properties":{"osm_way_id":"255285679","amenity":"parking","other":{"capacity":"30","fee":"no","operator":"Peak district National Park"}}, "geometry":{"type":"MultiPolygon","coordinates":[[[[-1.7046,53.35167],[-1.70451,53.35175],[-1.70454,53.35187],[-1.7046,53.35198],[-1.70479,53.35206],[-1.70481,53.35205],[-1.70481,53.35203],[-1.70475,53.35186],[-1.70471,53.35179],[-1.70468,53.35174],[-1.70464,53.3517],[-1.7046,53.35167]]]]}},
{ "type":"Feature","properties":{"osm_way_id":"276774588","name":"Jack Oldham Textiles","amenity":"parking","other":{"access":"customers"}}, "geometry":{"type":"MultiPolygon","coordinates":[[[[-1.98493,53.33092],[-1.98495,53.33086],[-1.98496,53.33072],[-1.98487,53.33072],[-1.98486,53.33092],[-1.98493,53.33092]]]]}},
{ "type":"Feature","properties":{"osm_way_id":"281817990","amenity":"parking"},"geometry":{"type":"MultiPolygon","coordinates":[[[[-1.91178,53.32533],[-1.91163,53.32509],[-1.91169,53.32507],[-1.91164,53.32499],[-1.91161,53.32492],[-1.91163,53.32482],[-1.91168,53.32477],[-1.91169,53.32472],[-1.91235,53.3245],[-1.9124,53.32442],[-1.9125,53.32439],[-1.91267,53.32452],[-1.91272,53.32459],[-1.91273,53.32467],[-1.9127,53.32474],[-1.91257,53.32491],[-1.91243,53.32504],[-1.91228,53.32516],[-1.91192,53.3253],[-1.91178,53.32533]]]]}},
{ "type":"Feature","properties":{"osm_way_id":"281818011","amenity":"parking"},"geometry":{"type":"MultiPolygon","coordinates":[[[[-1.9112,53.32437],[-1.91077,53.32446],[-1.9106,53.3242],[-1.91089,53.32413],[-1.91096,53.32424],[-1.9111,53.32421],[-1.9112,53.32437]]]]}},
{ "type":"Feature","properties":{"osm_way_id":"284682582","amenity":"parking","other":{"access":"customers"}}, "geometry":{"type":"MultiPolygon","coordinates":[[[[-1.79127,53.3755],[-1.79125,53.37537],[-1.79119,53.37528],[-1.79121,53.37518],[-1.79114,53.37516],[-1.79112,53.37518],[-1.79106,53.37516],[-1.79098,53.37524],[-1.79087,53.37539],[-1.79088,53.37548],[-1.79127,53.3755]]]]}},
{ "type":"Feature","properties":{"osm_way_id":"289211222","name":"Co-op Car Park","amenity":"parking"},"geometry":{"type":"MultiPolygon","coordinates":[[[[-1.91742,53.32374],[-1.91686,53.32358],[-1.917,53.32337],[-1.91722,53.32343],[-1.91733,53.32341],[-1.91745,53.32346],[-1.91759,53.32353],[-1.91742,53.32374]]]]}},
{ "type":"Feature","properties":{"osm_way_id":"289213292","amenity":"parking","other":{"access":"yes"}}, "geometry":{"type":"MultiPolygon","coordinates":[[[[-1.91764,53.3238],[-1.91785,53.32398],[-1.91775,53.32401],[-1.9178,53.32405],[-1.91767,53.32411],[-1.9175,53.324],[-1.91731,53.32413],[-1.91712,53.32403],[-1.91732,53.32387],[-1.91744,53.32381],[-1.91764,53.3238]]]]}},
{ "type":"Feature","properties":{"osm_way_id":"289218229","amenity":"parking"},"geometry":{"type":"MultiPolygon","coordinates":[[[[-1.90275,53.32637],[-1.90284,53.32638],[-1.90334,53.32682],[-1.90326,53.32685],[-1.90339,53.32696],[-1.90322,53.32703],[-1.90317,53.32699],[-1.90295,53.32696],[-1.903,53.32685],[-1.90306,53.32685],[-1.9031,53.32676],[-1.90302,53.3267],[-1.90294,53.32669],[-1.90284,53.32674],[-1.90281,53.32683],[-1.90288,53.32684],[-1.90284,53.32695],[-1.90261,53.32692],[-1.90255,53.32695],[-1.90223,53.32668],[-1.90233,53.32665],[-1.90213,53.32647],[-1.9022,53.32645],[-1.90232,53.32648],[-1.90243,53.32645],[-1.90275,53.32637]]]]}},
{ "type":"Feature","properties":{"osm_way_id":"289218230","amenity":"parking"},"geometry":{"type":"MultiPolygon","coordinates":[[[[-1.90234,53.32612],[-1.90218,53.32618],[-1.90209,53.3261],[-1.90192,53.32617],[-1.90177,53.32603],[-1.90198,53.32594],[-1.90213,53.32606],[-1.90225,53.32605],[-1.90234,53.32612]]]]}},
{ "type":"Feature","properties":{"osm_way_id":"289220072","amenity":"parking"},"geometry":{"type":"MultiPolygon","coordinates":[[[[-1.90311,53.32561],[-1.90275,53.32577],[-1.90268,53.32575],[-1.90265,53.32575],[-1.90258,53.32575],[-1.90253,53.32576],[-1.90243,53.32582],[-1.90234,53.32578],[-1.90229,53.32575],[-1.90224,53.32577],[-1.90195,53.32559],[-1.90227,53.32545],[-1.90265,53.32536],[-1.90276,53.32543],[-1.90291,53.32548],[-1.90298,53.32551],[-1.90303,53.32554],[-1.90311,53.32561]]]]}},
{ "type":"Feature","properties":{"osm_way_id":"300705750","name":"Chapel-en-le-Frith Golf Club","amenity":"parking"},"geometry":{"type":"MultiPolygon","coordinates":[[[[-1.94156,53.31792],[-1.94158,53.3177],[-1.94159,53.31745],[-1.94071,53.31743],[-1.94065,53.3183],[-1.94096,53.31831],[-1.94097,53.31822],[-1.94097,53.31812],[-1.94098,53.31791],[-1.94156,53.31792]]]]}},
{ "type":"Feature","properties":{"osm_way_id":"305268710","amenity":"parking"},"geometry":{"type":"MultiPolygon","coordinates":[[[[-1.9466,53.37939],[-1.94638,53.37934],[-1.94646,53.37921],[-1.9465,53.3792],[-1.9466,53.37939]]]]}},
{ "type":"Feature","properties":{"osm_way_id":"305268736","amenity":"parking"},"geometry":{"type":"MultiPolygon","coordinates":[[[[-1.9463,53.37891],[-1.94598,53.37887],[-1.94601,53.37881],[-1.94598,53.37873],[-1.94595,53.37869],[-1.94592,53.37863],[-1.94605,53.37857],[-1.9463,53.37891]]]]}},
{ "type":"Feature","properties":{"osm_way_id":"305268740","amenity":"parking","other":{"access":"customers","fee":"no","operator":"Royal Hotel","park_ride":"no","parking":"surface","supervised":"no","surface":"asphalt"}}, "geometry":{"type":"MultiPolygon","coordinates":[[[[-1.94499,53.37903],[-1.94452,53.37919],[-1.9446,53.37928],[-1.94457,53.3793],[-1.94468,53.3794],[-1.94483,53.37935],[-1.94495,53.37936],[-1.94504,53.37939],[-1.9451,53.37949],[-1.94517,53.37948],[-1.94524,53.37946],[-1.9453,53.3794],[-1.94499,53.37903]]]]}},
{ "type":"Feature","properties":{"osm_way_id":"305269817","amenity":"parking"},"geometry":{"type":"MultiPolygon","coordinates":[[[[-1.95334,53.39108],[-1.95335,53.39072],[-1.95285,53.39076],[-1.95279,53.39053],[-1.95272,53.39052],[-1.95257,53.39057],[-1.95221,53.39066],[-1.95219,53.3907],[-1.95215,53.39077],[-1.9522,53.39077],[-1.95269,53.39065],[-1.95271,53.39075],[-1.95273,53.3908],[-1.95277,53.39087],[-1.95298,53.39089],[-1.95303,53.39114],[-1.95331,53.39114],[-1.95334,53.39108]]]]}},
{ "type":"Feature","properties":{"osm_way_id":"305269828","amenity":"parking"},"geometry":{"type":"MultiPolygon","coordinates":[[[[-1.95404,53.38273],[-1.95408,53.38262],[-1.95412,53.38256],[-1.95414,53.38249],[-1.95414,53.38245],[-1.95406,53.38239],[-1.95391,53.38235],[-1.95376,53.38232],[-1.9537,53.38234],[-1.95377,53.3824],[-1.95382,53.38252],[-1.95374,53.38255],[-1.95384,53.38265],[-1.95392,53.38266],[-1.95393,53.38272],[-1.95404,53.38273]]]]}},
{ "type":"Feature","properties":{"osm_way_id":"306530991","amenity":"parking","other":{"access":"private","parking":"surface"}}, "geometry":{"type":"MultiPolygon","coordinates":[[[[-1.91807,53.23145],[-1.91799,53.23122],[-1.91824,53.23118],[-1.91815,53.231],[-1.9179,53.23104],[-1.91787,53.23094],[-1.91736,53.23101],[-1.9175,53.23135],[-1.91769,53.23145],[-1.91785,53.23147],[-1.91807,53.23145]]]]}},
{ "type":"Feature","properties":{"osm_way_id":"306530992","amenity":"parking","other":{"access":"private"}}, "geometry":{"type":"MultiPolygon","coordinates":[[[[-1.91934,53.22976],[-1.91899,53.22981],[-1.91875,53.22919],[-1.91898,53.22915],[-1.91901,53.22922],[-1.91908,53.22921],[-1.91921,53.22953],[-1.91925,53.22952],[-1.91934,53.22976]]]]}},
{ "type":"Feature","properties":{"osm_way_id":"306530993","amenity":"parking","other":{"access":"private"}}, "geometry":{"type":"MultiPolygon","coordinates":[[[[-1.9187,53.22929],[-1.91793,53.22939],[-1.91797,53.22952],[-1.91748,53.22959],[-1.91738,53.22933],[-1.91858,53.22916],[-1.91865,53.22918],[-1.9187,53.22929]]]]}},
{ "type":"Feature","properties":{"osm_way_id":"306843935","amenity":"parking"},"geometry":{"type":"MultiPolygon","coordinates":[[[[-1.79088,53.34226],[-1.78999,53.34275],[-1.79009,53.34288],[-1.79139,53.34265],[-1.79128,53.34257],[-1.79121,53.34252],[-1.79117,53.34249],[-1.79102,53.34238],[-1.79095,53.34232],[-1.79088,53.34226]]]]}},
{ "type":"Feature","properties":{"osm_way_id":"308469158","amenity":"parking","other":{"access":"customers","fee":"no","operator":"Pack Horse Inn","park_ride":"no","supervised":"no","surface":"asphalt"}}, "geometry":{"type":"MultiPolygon","coordinates":[[[[-1.94619,53.38056],[-1.94605,53.38062],[-1.94596,53.38061],[-1.94582,53.38066],[-1.94575,53.38062],[-1.9458,53.3806],[-1.94587,53.38056],[-1.94601,53.3805],[-1.94609,53.38046],[-1.94619,53.38056]]]]}},
{ "type":"Feature","properties":{"osm_way_id":"308469194","amenity":"parking"},"geometry":{"type":"MultiPolygon","coordinates":[[[[-1.94789,53.38164],[-1.94785,53.3818],[-1.94795,53.38181],[-1.94797,53.38176],[-1.94807,53.38177],[-1.94809,53.38168],[-1.948,53.38167],[-1.948,53.38165],[-1.94789,53.38164]]]]}},
{ "type":"Feature","properties":{"osm_way_id":"310225426","amenity":"parking"},"geometry":{"type":"MultiPolygon","coordinates":[[[[-1.84704,53.2486],[-1.84662,53.24876],[-1.84669,53.2488],[-1.84692,53.24873],[-1.84698,53.24872],[-1.847,53.24872],[-1.84703,53.24866],[-1.84704,53.2486]]]]}},
{ "type":"Feature","properties":{"osm_way_id":"310714781","amenity":"parking","other":{"parking":"surface"}}, "geometry":{"type":"MultiPolygon","coordinates":[[[[-1.98304,53.32942],[-1.98321,53.32943],[-1.98327,53.32909],[-1.98327,53.32901],[-1.98315,53.32899],[-1.98316,53.32892],[-1.98305,53.32895],[-1.98306,53.32908],[-1.98309,53.32924],[-1.983,53.32925],[-1.98304,53.32942]]]]}},
{ "type":"Feature","properties":{"osm_way_id":"311107827","amenity":"parking","other":{"addr:city":"Chapel En Le Frith","addr:postcode":"SK23 0RH","addr:street":"Thornbrook Road","capacity":"37","operator":"High Peak Borough Council","parking":"surface","wheelchair":"yes"}}, "geometry":{"type":"MultiPolygon","coordinates":[[[[-1.91136,53.32357],[-1.91088,53.3236],[-1.91089,53.3234],[-1.91136,53.32338],[-1.91136,53.32357]]]]}},
{ "type":"Feature","properties":{"osm_way_id":"313965793","amenity":"parking","other":{"parking":"surface"}}, "geometry":{"type":"MultiPolygon","coordinates":[[[[-1.94153,53.24213],[-1.94139,53.24216],[-1.94106,53.24228],[-1.94101,53.24235],[-1.9412,53.24227],[-1.94153,53.24213]]]]}},
{ "type":"Feature","properties":{"osm_way_id":"314899697","amenity":"parking"},"geometry":{"type":"MultiPolygon","coordinates":[[[[-1.98681,53.32661],[-1.98612,53.32678],[-1.98608,53.32672],[-1.98606,53.3267],[-1.98582,53.32655],[-1.98589,53.32651],[-1.98586,53.32648],[-1.98658,53.32628],[-1.98681,53.32661]]]]}},
{ "type":"Feature","properties":{"osm_way_id":"314899705","amenity":"parking"},"geometry":{"type":"MultiPolygon","coordinates":[[[[-1.98546,53.32309],[-1.98554,53.32281],[-1.98524,53.32281],[-1.98518,53.32288],[-1.98512,53.32288],[-1.98514,53.32304],[-1.98546,53.32309]]]]}},
{ "type":"Feature","properties":{"osm_way_id":"314899714","amenity":"parking"},"geometry":{"type":"MultiPolygon","coordinates":[[[[-1.98448,53.32637],[-1.98452,53.32608],[-1.98467,53.32611],[-1.98456,53.32636],[-1.98448,53.32637]]]]}},
{ "type":"Feature","properties":{"osm_way_id":"319803837","amenity":"parking"},"geometry":{"type":"MultiPolygon","coordinates":[[[[-3.1847,51.44565],[-3.18445,51.44556],[-3.18462,51.44538],[-3.18488,51.44547],[-3.1847,51.44565]]]]}},
{ "type":"Feature","properties":{"osm_way_id":"321786348","amenity":"parking"},"geometry":{"type":"MultiPolygon","coordinates":[[[[-1.81683,53.37056],[-1.81673,53.37062],[-1.81666,53.37057],[-1.81679,53.37051],[-1.81683,53.37056]]]]}},
{ "type":"Feature","properties":{"osm_way_id":"321786349","amenity":"parking"},"geometry":{"type":"MultiPolygon","coordinates":[[[[-1.81678,53.37046],[-1.8167,53.37048],[-1.81657,53.37029],[-1.81659,53.37028],[-1.81668,53.37035],[-1.81678,53.37046]]]]}},
{ "type":"Feature","properties":{"osm_way_id":"321788374","amenity":"parking","other":{"access":"yes","fee":"no","parking":"layby","surface":"unpaved"}}, "geometry":{"type":"MultiPolygon","coordinates":[[[[-1.86964,53.43288],[-1.86906,53.43284],[-1.86904,53.43283],[-1.86894,53.43282],[-1.8689,53.43282],[-1.86883,53.43288],[-1.86891,53.43288],[-1.86964,53.43288]]]]}},
{ "type":"Feature","properties":{"osm_way_id":"321788375","amenity":"parking","other":{"access":"yes","description":"Muddy Layby","fee":"no","parking":"layby","surface":"unpaved"}}, "geometry":{"type":"MultiPolygon","coordinates":[[[[-1.86834,53.43292],[-1.86889,53.43293],[-1.87186,53.43295],[-1.87171,53.43297],[-1.87082,53.43297],[-1.87012,53.43297],[-1.86926,53.43296],[-1.86899,53.43299],[-1.86888,53.43297],[-1.86882,53.43297],[-1.86841,53.43295],[-1.86834,53.43292]]]]}},
{ "type":"Feature","properties":{"osm_way_id":"321789121","amenity":"parking"},"geometry":{"type":"MultiPolygon","coordinates":[[[[-1.91553,53.47909],[-1.91521,53.47907],[-1.91505,53.47906],[-1.91506,53.479],[-1.91506,53.47899],[-1.91544,53.47907],[-1.91553,53.47908],[-1.91553,53.47909]]]]}},
{ "type":"Feature","properties":{"osm_way_id":"324852486","amenity":"parking","other":{"parking":"surface"}}, "geometry":{"type":"MultiPolygon","coordinates":[[[[-1.84986,53.2155],[-1.84972,53.21558],[-1.84924,53.21534],[-1.84952,53.21516],[-1.84968,53.21524],[-1.84977,53.21518],[-1.84996,53.21528],[-1.85008,53.21538],[-1.84986,53.2155]]]]}},
{ "type":"Feature","properties":{"osm_way_id":"330890354","amenity":"parking","other":{"access":"yes","fee":"yes","park_ride":"no","parking":"surface","supervised":"no","surface":"asphalt"}}, "geometry":{"type":"MultiPolygon","coordinates":[[[[-2.00095,53.36617],[-2.00054,53.36625],[-2.00033,53.36607],[-2.00026,53.36588],[-2.00028,53.36563],[-2.00078,53.36568],[-2.0008,53.36599],[-2.00095,53.36617]]]]}},
{ "type":"Feature","properties":{"osm_way_id":"335367005","amenity":"parking","other":{"access":"private"}}, "geometry":{"type":"MultiPolygon","coordinates":[[[[-1.95141,53.45718],[-1.95168,53.45697],[-1.95154,53.4569],[-1.95126,53.45712],[-1.95141,53.45718]]]]}},
{ "type":"Feature","properties":{"osm_way_id":"335426770","amenity":"parking"},"geometry":{"type":"MultiPolygon","coordinates":[[[[-1.89849,53.48322],[-1.89755,53.48322],[-1.89752,53.48318],[-1.89754,53.48311],[-1.89794,53.48296],[-1.89812,53.48296],[-1.89825,53.48298],[-1.89849,53.48315],[-1.89849,53.48322]]]]}},
{ "type":"Feature","properties":{"osm_way_id":"335533005","amenity":"parking"},"geometry":{"type":"MultiPolygon","coordinates":[[[[-1.97138,53.47187],[-1.97096,53.47179],[-1.97098,53.47174],[-1.97141,53.47181],[-1.97138,53.47187]]]]}},
{ "type":"Feature","properties":{"osm_way_id":"335542528","amenity":"parking"},"geometry":{"type":"MultiPolygon","coordinates":[[[[-1.97754,53.47331],[-1.9771,53.47303],[-1.97742,53.47266],[-1.97722,53.4726],[-1.97683,53.47309],[-1.97736,53.4734],[-1.97754,53.47331]]]]}},
{ "type":"Feature","properties":{"osm_way_id":"338686530","amenity":"parking","other":{"access":"customers"}}, "geometry":{"type":"MultiPolygon","coordinates":[[[[-1.74532,53.35339],[-1.74519,53.35328],[-1.74512,53.35331],[-1.74525,53.35342],[-1.74532,53.35339]]]]}},
{ "type":"Feature","properties":{"osm_way_id":"343537584","amenity":"parking","other":{"access":"customers","parking":"surface"}}, "geometry":{"type":"MultiPolygon","coordinates":[[[[-1.88778,53.3344],[-1.88811,53.33449],[-1.8882,53.33451],[-1.88819,53.33456],[-1.88813,53.33472],[-1.88787,53.33467],[-1.88784,53.3347],[-1.88811,53.33479],[-1.88802,53.33487],[-1.88758,53.33469],[-1.88786,53.33461],[-1.88784,53.33459],[-1.88773,53.33445],[-1.88778,53.3344]]]]}},
{ "type":"Feature","properties":{"osm_way_id":"345749775","amenity":"parking","other":{"access":"customers","parking":"surface"}}, "geometry":{"type":"MultiPolygon","coordinates":[[[[-1.87161,53.22474],[-1.87174,53.22459],[-1.8717,53.22458],[-1.87188,53.22435],[-1.87216,53.22438],[-1.87215,53.22441],[-1.87192,53.22477],[-1.87161,53.22474]]]]}},
{ "type":"Feature","properties":{"osm_way_id":"345780266","amenity":"parking","other":{"access":"private","parking":"surface"}}, "geometry":{"type":"MultiPolygon","coordinates":[[[[-1.90826,53.33565],[-1.90778,53.33567],[-1.90782,53.33562],[-1.90793,53.33558],[-1.90802,53.33556],[-1.90816,53.33557],[-1.90821,53.33558],[-1.90823,53.33559],[-1.90826,53.33565]]]]}},
{ "type":"Feature","properties":{"osm_way_id":"346622618","amenity":"parking","other":{"access":"yes","capacity":"10","fee":"no","parking":"layby","surface":"asphalt"}}, "geometry":{"type":"MultiPolygon","coordinates":[[[[-1.92739,53.35929],[-1.92738,53.35949],[-1.9274,53.35956],[-1.92743,53.35956],[-1.92747,53.35956],[-1.92751,53.35911],[-1.92752,53.35899],[-1.92748,53.35899],[-1.92745,53.35899],[-1.92742,53.35913],[-1.92739,53.35929]]]]}},
{ "type":"Feature","properties":{"osm_way_id":"349146199","amenity":"parking","other":{"access":"private","parking":"surface"}}, "geometry":{"type":"MultiPolygon","coordinates":[[[[-1.91683,53.33393],[-1.9165,53.33369],[-1.91666,53.33357],[-1.91697,53.33387],[-1.91683,53.33393]]]]}},
{ "type":"Feature","properties":{"osm_way_id":"349827583","amenity":"parking"},"geometry":{"type":"MultiPolygon","coordinates":[[[[-1.99247,53.36822],[-1.99268,53.36827],[-1.99267,53.36829],[-1.99259,53.3684],[-1.99238,53.36835],[-1.99243,53.36821],[-1.99247,53.36822]]]]}},
{ "type":"Feature","properties":{"osm_way_id":"349837631","amenity":"parking","other":{"access":"customers","fee":"no","operator":"Sainsbury's","park_ride":"no","supervised":"no"}}, "geometry":{"type":"MultiPolygon","coordinates":[[[[-2.00165,53.36694],[-2.00149,53.36679],[-2.00143,53.36681],[-2.00152,53.36698],[-2.00165,53.36694]]]]}},
{ "type":"Feature","properties":{"osm_way_id":"349837634","amenity":"parking"},"geometry":{"type":"MultiPolygon","coordinates":[[[[-2.00136,53.36648],[-2.00124,53.36632],[-2.00149,53.36631],[-2.00152,53.36656],[-2.00137,53.36657],[-2.00133,53.36652],[-2.00139,53.36649],[-2.00136,53.36648]]]]}},
{ "type":"Feature","properties":{"osm_way_id":"349837892","amenity":"parking","other":{"access":"customers","fee":"no","park_ride":"no","supervised":"no","surface":"asphalt"}}, "geometry":{"type":"MultiPolygon","coordinates":[[[[-1.99781,53.36386],[-1.99761,53.36367],[-1.99797,53.36355],[-1.99767,53.36326],[-1.99773,53.36323],[-1.99787,53.36328],[-1.99792,53.36329],[-1.99822,53.36334],[-1.99836,53.3634],[-1.99847,53.36352],[-1.9985,53.36355],[-1.99849,53.36358],[-1.99848,53.36361],[-1.99845,53.36364],[-1.99833,53.36369],[-1.99799,53.3638],[-1.99781,53.36386]]]]}},
{ "type":"Feature","properties":{"osm_way_id":"353001823","amenity":"parking","other":{"parking":"surface"}}, "geometry":{"type":"MultiPolygon","coordinates":[[[[-1.83216,53.41155],[-1.83201,53.41178],[-1.83151,53.4116],[-1.83123,53.41151],[-1.83125,53.41139],[-1.83163,53.41144],[-1.83216,53.41155]]]]}},
{ "type":"Feature","properties":{"osm_way_id":"353370789","amenity":"parking","other":{"parking":"surface"}}, "geometry":{"type":"MultiPolygon","coordinates":[[[[-1.97317,53.24118],[-1.97323,53.24116],[-1.97331,53.24112],[-1.97274,53.24072],[-1.97261,53.24079],[-1.97317,53.24118]]]]}},
{ "type":"Feature","properties":{"osm_way_id":"353370791","name":"Derbyshire Bridge car park","amenity":"parking","other":{"parking":"surface"}}, "geometry":{"type":"MultiPolygon","coordinates":[[[[-1.97421,53.24117],[-1.97381,53.24118],[-1.97383,53.24133],[-1.97414,53.24133],[-1.97414,53.24128],[-1.97421,53.24128],[-1.97421,53.24117]]]]}},
{ "type":"Feature","properties":{"osm_way_id":"360159282","amenity":"parking"},"geometry":{"type":"MultiPolygon","coordinates":[[[[-1.79948,53.34789],[-1.79811,53.34714],[-1.79816,53.34712],[-1.79942,53.34781],[-1.79952,53.34787],[-1.79948,53.34789]]]]}},
{ "type":"Feature","properties":{"osm_way_id":"363301477","amenity":"parking","other":{"fee":"no"}}, "geometry":{"type":"MultiPolygon","coordinates":[[[[-1.94775,53.32724],[-1.94779,53.32729],[-1.94764,53.32733],[-1.9476,53.32729],[-1.94775,53.32724]]]]}},
{ "type":"Feature","properties":{"osm_way_id":"365969074","amenity":"parking"},"geometry":{"type":"MultiPolygon","coordinates":[[[[-1.92471,53.44268],[-1.92477,53.44242],[-1.92437,53.44235],[-1.92428,53.44254],[-1.92471,53.44268]]]]}},
{ "type":"Feature","properties":{"osm_way_id":"365969075","amenity":"parking"},"geometry":{"type":"MultiPolygon","coordinates":[[[[-1.92496,53.44271],[-1.92508,53.44266],[-1.92515,53.44258],[-1.92517,53.44243],[-1.92503,53.44244],[-1.92496,53.44271]]]]}},
{ "type":"Feature","properties":{"osm_way_id":"366575714","amenity":"parking"},"geometry":{"type":"MultiPolygon","coordinates":[[[[-1.95135,53.41194],[-1.95129,53.41193],[-1.95135,53.4115],[-1.95142,53.41167],[-1.95135,53.41194]]]]}},
{ "type":"Feature","properties":{"osm_way_id":"367490460","name":"Rowarth Car Park","amenity":"parking"},"geometry":{"type":"MultiPolygon","coordinates":[[[[-1.98449,53.3996],[-1.98414,53.39969],[-1.9841,53.39963],[-1.98399,53.39966],[-1.98388,53.39968],[-1.98392,53.39974],[-1.98375,53.39978],[-1.98368,53.39969],[-1.98387,53.39964],[-1.98384,53.3996],[-1.98439,53.39946],[-1.98449,53.3996]]]]}},
{ "type":"Feature","properties":{"osm_way_id":"371810791","amenity":"parking"},"geometry":{"type":"MultiPolygon","coordinates":[[[[-1.80367,53.34778],[-1.80356,53.34778],[-1.80357,53.34765],[-1.80359,53.34762],[-1.80367,53.34762],[-1.80367,53.34778]]]]}},
{ "type":"Feature","properties":{"osm_way_id":"379102390","amenity":"parking"},"geometry":{"type":"MultiPolygon","coordinates":[[[[-1.82697,53.33957],[-1.82698,53.33958],[-1.82699,53.33963],[-1.82699,53.33966],[-1.82697,53.33969],[-1.82668,53.33986],[-1.82663,53.33983],[-1.82675,53.33977],[-1.82681,53.33972],[-1.82683,53.33965],[-1.82685,53.33955],[-1.82686,53.33954],[-1.82697,53.33957]]]]}},
{ "type":"Feature","properties":{"osm_way_id":"379224931","amenity":"parking","other":{"capacity:disabled":"2"}}, "geometry":{"type":"MultiPolygon","coordinates":[[[[-1.8838,53.27618],[-1.88387,53.27618],[-1.88386,53.27613],[-1.88384,53.27608],[-1.88382,53.27604],[-1.88377,53.27599],[-1.88375,53.27596],[-1.88376,53.27595],[-1.88369,53.27591],[-1.88363,53.27594],[-1.88369,53.27598],[-1.88372,53.27601],[-1.88376,53.27605],[-1.88377,53.27609],[-1.88379,53.27614],[-1.8838,53.27618]]]]}},
{ "type":"Feature","properties":{"osm_way_id":"379224934","amenity":"parking","other":{"capacity:disabled":"5"}}, "geometry":{"type":"MultiPolygon","coordinates":[[[[-1.88386,53.27651],[-1.88375,53.27637],[-1.88325,53.2765],[-1.88316,53.27638],[-1.88284,53.27647],[-1.88246,53.27657],[-1.88258,53.27674],[-1.883,53.27663],[-1.88304,53.27668],[-1.88307,53.27672],[-1.88386,53.27651]]]]}},
{ "type":"Feature","properties":{"osm_way_id":"382574578","amenity":"parking","other":{"parking":"surface"}}, "geometry":{"type":"MultiPolygon","coordinates":[[[[-1.77233,53.3513],[-1.77163,53.35153],[-1.77155,53.35157],[-1.77146,53.35141],[-1.77126,53.35144],[-1.77122,53.35139],[-1.7716,53.35127],[-1.77214,53.35106],[-1.77233,53.3513]]]]}},
{ "type":"Feature","properties":{"osm_way_id":"391051996","amenity":"parking","other":{"operator":"Cypriot Community Centre","operator:type":"private","parking":"surface"}}, "geometry":{"type":"MultiPolygon","coordinates":[[[[-0.11144,51.60302],[-0.11142,51.60288],[-0.11139,51.60265],[-0.11126,51.60265],[-0.11127,51.60271],[-0.11101,51.60272],[-0.11101,51.60275],[-0.11106,51.60303],[-0.11144,51.60302]]]]}},
{ "type":"Feature","properties":{"osm_way_id":"397280497","amenity":"parking","other":{"parking":"surface"}}, "geometry":{"type":"MultiPolygon","coordinates":[[[[-1.69893,53.36302],[-1.69905,53.36292],[-1.69911,53.3629],[-1.69918,53.36276],[-1.69913,53.36274],[-1.69925,53.36257],[-1.69921,53.36248],[-1.699,53.36252],[-1.69907,53.36265],[-1.69891,53.36268],[-1.69884,53.3627],[-1.69889,53.36277],[-1.69892,53.36276],[-1.69898,53.36279],[-1.69899,53.36285],[-1.69895,53.36285],[-1.69891,53.36296],[-1.69888,53.36301],[-1.69893,53.36302]]]]}},
{ "type":"Feature","properties":{"osm_way_id":"397280498","amenity":"parking","other":{"parking":"surface"}}, "geometry":{"type":"MultiPolygon","coordinates":[[[[-1.69867,53.36243],[-1.69863,53.36235],[-1.6986,53.36214],[-1.69891,53.36209],[-1.69903,53.3623],[-1.6989,53.36231],[-1.69877,53.36234],[-1.69881,53.3624],[-1.69867,53.36243]]]]}},
{ "type":"Feature","properties":{"osm_way_id":"422229692","amenity":"parking","other":{"access":"private","operator":"Saint John's Methodist Church","park_ride":"no","supervised":"no"}}, "geometry":{"type":"MultiPolygon","coordinates":[[[[-1.94777,53.3785],[-1.94755,53.37847],[-1.94764,53.37825],[-1.94786,53.37828],[-1.94777,53.3785]]]]}},
{ "type":"Feature","properties":{"osm_way_id":"429928594","amenity":"parking","other":{"access":"customers","parking":"surface"}}, "geometry":{"type":"MultiPolygon","coordinates":[[[[-1.72412,53.34193],[-1.7239,53.34185],[-1.72374,53.34179],[-1.72334,53.34163],[-1.72345,53.34147],[-1.72354,53.34139],[-1.7236,53.34139],[-1.72397,53.34153],[-1.72404,53.34156],[-1.72409,53.34158],[-1.72413,53.34161],[-1.72408,53.34166],[-1.72398,53.34162],[-1.72393,53.34167],[-1.72418,53.34177],[-1.72415,53.3418],[-1.72422,53.34185],[-1.72412,53.34193]]]]}},
{ "type":"Feature","properties":{"osm_way_id":"435841787","name":"Old Nags Head Car Park","amenity":"parking","other":{"access":"customers","source:geometry":"Bing"}}, "geometry":{"type":"MultiPolygon","coordinates":[[[[-1.77463,53.34301],[-1.77462,53.34292],[-1.77525,53.3429],[-1.77525,53.34299],[-1.77463,53.34301]]]]}},
{ "type":"Feature","properties":{"osm_way_id":"441204145","amenity":"parking","other":{"access":"customers","surface":"unpaved"}}, "geometry":{"type":"MultiPolygon","coordinates":[[[[-1.94671,53.45474],[-1.94671,53.45473],[-1.94687,53.45469],[-1.94706,53.45467],[-1.94729,53.45467],[-1.94746,53.45467],[-1.9475,53.45484],[-1.94724,53.45495],[-1.94712,53.45496],[-1.94671,53.45474]]]]}},
{ "type":"Feature","properties":{"osm_way_id":"441400862","amenity":"parking","other":{"access":"customers","parking":"surface","surface":"asphalt"}}, "geometry":{"type":"MultiPolygon","coordinates":[[[[-1.96623,53.46183],[-1.96578,53.46178],[-1.96582,53.46163],[-1.96593,53.46164],[-1.96591,53.46168],[-1.96621,53.46171],[-1.96626,53.46172],[-1.96623,53.46183]]]]}},
{ "type":"Feature","properties":{"osm_way_id":"442126641","amenity":"parking","other":{"access":"customers","fee":"no","park_ride":"no","parking":"surface","supervised":"no"}}, "geometry":{"type":"MultiPolygon","coordinates":[[[[-2.00792,53.36],[-2.0078,53.35995],[-2.00795,53.35987],[-2.00798,53.35984],[-2.008,53.35981],[-2.00797,53.35975],[-2.00789,53.35969],[-2.00798,53.35952],[-2.00829,53.35957],[-2.00835,53.35958],[-2.00844,53.35959],[-2.00844,53.35961],[-2.00849,53.35961],[-2.00858,53.35961],[-2.00858,53.35966],[-2.00866,53.35967],[-2.00864,53.3597],[-2.00857,53.35974],[-2.00848,53.35979],[-2.00824,53.35989],[-2.00808,53.35995],[-2.00792,53.36]]]]}},
{ "type":"Feature","properties":{"osm_way_id":"456237552","amenity":"parking","other":{"access":"customers","parking":"surface"}}, "geometry":{"type":"MultiPolygon","coordinates":[[[[-1.83015,53.30994],[-1.82987,53.30982],[-1.82979,53.3099],[-1.82975,53.30989],[-1.82968,53.30995],[-1.82958,53.30992],[-1.82955,53.31003],[-1.82981,53.31012],[-1.82991,53.31016],[-1.83015,53.30994]]]]}},
{ "type":"Feature","properties":{"osm_way_id":"456581569","amenity":"parking","other":{"access":"permissive","parking":"surface"}}, "geometry":{"type":"MultiPolygon","coordinates":[[[[-1.87048,53.28647],[-1.87026,53.28628],[-1.87067,53.28613],[-1.87065,53.28612],[-1.87086,53.28604],[-1.8709,53.28607],[-1.8709,53.2861],[-1.87107,53.28624],[-1.87048,53.28647]]]]}},
{ "type":"Feature","properties":{"osm_way_id":"464567205","amenity":"parking","other":{"access":"customers","operator":"Navigation Inn","operator:type":"private","parking":"surface"}}, "geometry":{"type":"MultiPolygon","coordinates":[[[[-1.96779,53.33538],[-1.96792,53.33529],[-1.9674,53.33525],[-1.96696,53.3353],[-1.96664,53.33534],[-1.96655,53.33536],[-1.96636,53.33537],[-1.96637,53.33544],[-1.96661,53.33551],[-1.96694,53.33539],[-1.96766,53.33537],[-1.96779,53.33538]]]]}},
{ "type":"Feature","properties":{"osm_way_id":"482717676","type":"multipolygon","amenity":"parking","other":{"access":"private","addr:city":"Rhoose","addr:postcode":"CF62 3BD","addr:street":"Cardiff Airport Access Road","covered":"no","email":"info@cwl.aero","fee":"no","opening_hours":"Mo-Su 24\/7","opening_hours:covid19":"Mo-Su 24\/7","operator":"Cardiff International Airport","operator:type":"private","parking":"surface","phone":"+44 1446 711 111","supervised":"yes","surface":"asphalt","website":"https:\/\/www.cardiff-airport.com\/","wheelchair":"yes"}}, "geometry":{"type":"MultiPolygon","coordinates":[[[[-3.34414,51.40395],[-3.34389,51.40351],[-3.34324,51.40332],[-3.34314,51.40338],[-3.34305,51.40342],[-3.34275,51.40359],[-3.34274,51.40361],[-3.34303,51.40407],[-3.34321,51.40429],[-3.34359,51.4043],[-3.3438,51.40423],[-3.34403,51.40407],[-3.34414,51.40395]]]]}},
{ "type":"Feature","properties":{"osm_way_id":"485961038","amenity":"parking","other":{"access":"customers"}}, "geometry":{"type":"MultiPolygon","coordinates":[[[[-1.68963,53.34939],[-1.68984,53.34948],[-1.68972,53.34957],[-1.68952,53.34949],[-1.68963,53.34939]]]]}},
{ "type":"Feature","properties":{"osm_way_id":"488243010","name":"Bowden Bridge","amenity":"parking","other":{"access":"yes","charge":"3.50 GBP\/day","fee":"yes","operator":"Peak District National Park","parking":"surface","surface":"asphalt"}}, "geometry":{"type":"MultiPolygon","coordinates":[[[[-1.92816,53.37964],[-1.92799,53.37958],[-1.92841,53.37916],[-1.9286,53.37924],[-1.9283,53.37954],[-1.92816,53.37964]]]]}},
{ "type":"Feature","properties":{"osm_way_id":"518589810","amenity":"parking","other":{"parking":"surface"}}, "geometry":{"type":"MultiPolygon","coordinates":[[[[-1.74408,53.40421],[-1.74424,53.40465],[-1.74432,53.40464],[-1.74415,53.40421],[-1.74408,53.40421]]]]}},
{ "type":"Feature","properties":{"osm_way_id":"526317226","amenity":"parking","other":{"operator":"Lambgates Surgery","parking":"surface"}}, "geometry":{"type":"MultiPolygon","coordinates":[[[[-1.9703,53.46327],[-1.97025,53.46312],[-1.96995,53.46316],[-1.96974,53.46325],[-1.96987,53.46334],[-1.97006,53.46331],[-1.97008,53.46331],[-1.97019,53.46329],[-1.9703,53.46327]]]]}},
{ "type":"Feature","properties":{"osm_way_id":"527522091","amenity":"parking","other":{"access":"private","parking":"surface"}}, "geometry":{"type":"MultiPolygon","coordinates":[[[[-1.94973,53.44923],[-1.94981,53.44903],[-1.94928,53.44895],[-1.94919,53.44915],[-1.94973,53.44923]]]]}},
{ "type":"Feature","properties":{"osm_way_id":"527525359","amenity":"parking"},"geometry":{"type":"MultiPolygon","coordinates":[[[[-1.9525,53.44242],[-1.9519,53.44239],[-1.95191,53.44235],[-1.95222,53.44229],[-1.95225,53.44232],[-1.95236,53.44229],[-1.9525,53.4423],[-1.9525,53.44242]]]]}},
{ "type":"Feature","properties":{"osm_way_id":"529803113","amenity":"parking"},"geometry":{"type":"MultiPolygon","coordinates":[[[[-1.97332,53.46491],[-1.97282,53.46513],[-1.97263,53.46492],[-1.97274,53.46485],[-1.97301,53.46477],[-1.97312,53.46474],[-1.97332,53.46491]]]]}},
{ "type":"Feature","properties":{"osm_way_id":"538593367","amenity":"parking","other":{"access":"customers","fee":"no","operator":"M&S","parking":"surface"}}, "geometry":{"type":"MultiPolygon","coordinates":[[[[-1.9481,53.44271],[-1.9481,53.44262],[-1.94757,53.44259],[-1.94734,53.44259],[-1.94735,53.44271],[-1.94744,53.44271],[-1.9481,53.44271]]]]}},
{ "type":"Feature","properties":{"osm_way_id":"538593378","amenity":"parking","other":{"access":"customers","fee":"no","parking":"surface"}}, "geometry":{"type":"MultiPolygon","coordinates":[[[[-1.94813,53.44257],[-1.94777,53.44256],[-1.94774,53.44256],[-1.94738,53.44253],[-1.9468,53.44246],[-1.94679,53.44231],[-1.94814,53.4423],[-1.94813,53.44257]]]]}},
{ "type":"Feature","properties":{"osm_way_id":"538859303","amenity":"parking","other":{"access":"yes","capacity":"30","fee":"no","parking":"surface"}}, "geometry":{"type":"MultiPolygon","coordinates":[[[[-1.93398,53.44616],[-1.93352,53.44609],[-1.93364,53.44583],[-1.9341,53.4459],[-1.93398,53.44616]]]]}},
{ "type":"Feature","properties":{"osm_way_id":"538859307","amenity":"parking","other":{"access":"private","parking":"surface"}}, "geometry":{"type":"MultiPolygon","coordinates":[[[[-1.9348,53.44966],[-1.93427,53.44972],[-1.93409,53.44972],[-1.93385,53.44911],[-1.93465,53.44901],[-1.9348,53.44966]]]]}},
{ "type":"Feature","properties":{"osm_way_id":"544729746","amenity":"parking","other":{"parking":"surface"}}, "geometry":{"type":"MultiPolygon","coordinates":[[[[-1.94479,53.44408],[-1.94521,53.44415],[-1.94519,53.44425],[-1.94498,53.44439],[-1.9448,53.4444],[-1.94472,53.44417],[-1.94479,53.44408]]]]}},
{ "type":"Feature","properties":{"osm_way_id":"544729776","amenity":"parking","other":{"operator":"Glossop Leisure Centre"}}, "geometry":{"type":"MultiPolygon","coordinates":[[[[-1.94679,53.44314],[-1.94678,53.44293],[-1.94652,53.44293],[-1.94652,53.44306],[-1.94644,53.44315],[-1.94679,53.44314]]]]}},
{ "type":"Feature","properties":{"osm_way_id":"544730968","amenity":"parking","other":{"access":"customers"}}, "geometry":{"type":"MultiPolygon","coordinates":[[[[-1.94982,53.44526],[-1.94967,53.44521],[-1.94971,53.44516],[-1.94969,53.44515],[-1.94983,53.445],[-1.95001,53.44505],[-1.94982,53.44526]]]]}},
{ "type":"Feature","properties":{"osm_way_id":"547104228","amenity":"parking","other":{"access":"private"}}, "geometry":{"type":"MultiPolygon","coordinates":[[[[-1.85689,53.27741],[-1.85708,53.27764],[-1.85751,53.27812],[-1.85759,53.27815],[-1.85779,53.27809],[-1.85776,53.27806],[-1.85803,53.27797],[-1.85767,53.27754],[-1.8574,53.27761],[-1.85719,53.27737],[-1.85689,53.27741]]]]}},
{ "type":"Feature","properties":{"osm_way_id":"549108633","amenity":"parking","other":{"parking":"surface"}}, "geometry":{"type":"MultiPolygon","coordinates":[[[[-1.99219,53.35268],[-1.99162,53.35249],[-1.99179,53.35231],[-1.99236,53.3525],[-1.99219,53.35268]]]]}},
{ "type":"Feature","properties":{"osm_way_id":"555242520","amenity":"parking","other":{"access":"private"}}, "geometry":{"type":"MultiPolygon","coordinates":[[[[-1.74347,53.3462],[-1.74342,53.34617],[-1.74334,53.34617],[-1.74317,53.34617],[-1.74312,53.34617],[-1.74312,53.34621],[-1.74316,53.34625],[-1.74323,53.34627],[-1.74329,53.34626],[-1.74344,53.34623],[-1.74347,53.3462]]]]}},
{ "type":"Feature","properties":{"osm_way_id":"572616225","amenity":"parking"},"geometry":{"type":"MultiPolygon","coordinates":[[[[-1.98311,53.45223],[-1.98322,53.45213],[-1.98211,53.45157],[-1.98199,53.45166],[-1.98242,53.45189],[-1.98254,53.45197],[-1.98298,53.4522],[-1.98311,53.45223]]]]}},
{ "type":"Feature","properties":{"osm_way_id":"586633532","amenity":"parking","other":{"access":"yes","capacity":"5","fee":"no","parking":"surface"}}, "geometry":{"type":"MultiPolygon","coordinates":[[[[-1.6805,53.38274],[-1.68019,53.38286],[-1.68018,53.38278],[-1.6803,53.38271],[-1.68037,53.38271],[-1.6804,53.3827],[-1.6805,53.38274]]]]}},
{ "type":"Feature","properties":{"osm_way_id":"586801770","amenity":"parking","other":{"access":"permissive","fee":"yes","parking":"surface"}}, "geometry":{"type":"MultiPolygon","coordinates":[[[[-1.69764,53.36916],[-1.69767,53.36879],[-1.69758,53.36879],[-1.69756,53.36915],[-1.69764,53.36916]]]]}},
{ "type":"Feature","properties":{"osm_way_id":"586801772","amenity":"parking","other":{"access":"permissive","fee":"yes","parking":"surface"}}, "geometry":{"type":"MultiPolygon","coordinates":[[[[-1.69697,53.36981],[-1.69699,53.36967],[-1.69709,53.36947],[-1.69713,53.36939],[-1.69699,53.36936],[-1.69684,53.36969],[-1.69682,53.3698],[-1.69697,53.36981]]]]}},
{ "type":"Feature","properties":{"osm_way_id":"586801773","amenity":"parking","other":{"access":"permissive","fee":"yes","parking":"surface"}}, "geometry":{"type":"MultiPolygon","coordinates":[[[[-1.69718,53.36975],[-1.69736,53.36942],[-1.69737,53.36937],[-1.69731,53.36937],[-1.69711,53.36974],[-1.69718,53.36975]]]]}},
{ "type":"Feature","properties":{"osm_way_id":"586801774","amenity":"parking","other":{"access":"permissive","fee":"yes","parking":"surface"}}, "geometry":{"type":"MultiPolygon","coordinates":[[[[-1.69723,53.36978],[-1.69734,53.36957],[-1.69746,53.36936],[-1.69754,53.36938],[-1.69732,53.36976],[-1.69723,53.36978]]]]}},
{ "type":"Feature","properties":{"osm_way_id":"660617028","amenity":"parking"},"geometry":{"type":"MultiPolygon","coordinates":[[[[-1.92094,53.26221],[-1.92087,53.26215],[-1.92053,53.26231],[-1.92061,53.26237],[-1.92094,53.26221]]]]}},
{ "type":"Feature","properties":{"osm_way_id":"661684781","amenity":"parking"},"geometry":{"type":"MultiPolygon","coordinates":[[[[-1.99292,53.43314],[-1.99312,53.43324],[-1.99317,53.4332],[-1.99343,53.43331],[-1.99366,53.43314],[-1.9935,53.43307],[-1.99344,53.43311],[-1.99315,53.433],[-1.99303,53.43306],[-1.99292,53.43314]]]]}},
{ "type":"Feature","properties":{"osm_way_id":"664873964","amenity":"parking","other":{"access":"customers","fee":"no","park_ride":"no","supervised":"no"}}, "geometry":{"type":"MultiPolygon","coordinates":[[[[-1.95978,53.37984],[-1.95982,53.37991],[-1.96019,53.37978],[-1.96001,53.37954],[-1.95968,53.37968],[-1.95978,53.37984]]]]}},
{ "type":"Feature","properties":{"osm_way_id":"664875027","amenity":"parking","other":{"access":"customers","fee":"no","operator":"Grouse Hotel","park_ride":"no","supervised":"no"}}, "geometry":{"type":"MultiPolygon","coordinates":[[[[-1.96574,53.37819],[-1.96554,53.37831],[-1.96537,53.37821],[-1.96529,53.37826],[-1.96521,53.37822],[-1.96529,53.37817],[-1.96515,53.37809],[-1.96535,53.37797],[-1.96574,53.37819]]]]}},
{ "type":"Feature","properties":{"osm_way_id":"666148536","amenity":"parking","other":{"access":"private","capacity":"11","parking":"surface","surface":"asphalt"}}, "geometry":{"type":"MultiPolygon","coordinates":[[[[-1.98938,53.37446],[-1.98958,53.37453],[-1.98971,53.3744],[-1.98966,53.37433],[-1.98953,53.37428],[-1.98947,53.37433],[-1.98948,53.37434],[-1.98938,53.37445],[-1.98938,53.37446]]]]}},
{ "type":"Feature","properties":{"osm_way_id":"666182060","amenity":"parking","other":{"access":"private"}}, "geometry":{"type":"MultiPolygon","coordinates":[[[[-1.98749,53.36751],[-1.98742,53.36777],[-1.9873,53.36775],[-1.98729,53.36777],[-1.98696,53.36773],[-1.98698,53.3677],[-1.98694,53.36745],[-1.98749,53.36751]]]]}},
{ "type":"Feature","properties":{"osm_way_id":"667173733","amenity":"parking","other":{"access":"customers","fee":"no","operator":"Kingdom Hall","supervised":"no","surface":"asphalt"}}, "geometry":{"type":"MultiPolygon","coordinates":[[[[-1.99896,53.3654],[-1.99884,53.36538],[-1.99881,53.36539],[-1.99871,53.3653],[-1.99884,53.36518],[-1.9989,53.3652],[-1.99898,53.36521],[-1.99896,53.36525],[-1.99902,53.36526],[-1.99896,53.3654]]]]}},
{ "type":"Feature","properties":{"osm_way_id":"667642684","amenity":"parking","other":{"access":"customers","supervised":"no","surface":"asphalt"}}, "geometry":{"type":"MultiPolygon","coordinates":[[[[-1.99949,53.36683],[-1.99977,53.36697],[-1.99964,53.36706],[-1.99936,53.36691],[-1.99942,53.36687],[-1.99949,53.36683]]]]}},
{ "type":"Feature","properties":{"osm_way_id":"667642686","amenity":"parking","other":{"access":"customers","supervised":"no","surface":"asphalt"}}, "geometry":{"type":"MultiPolygon","coordinates":[[[[-1.99926,53.36689],[-1.9992,53.36693],[-1.99903,53.36704],[-1.99885,53.36717],[-1.99868,53.36728],[-1.99858,53.36735],[-1.9984,53.36726],[-1.99909,53.3668],[-1.99926,53.36689]]]]}},
{ "type":"Feature","properties":{"osm_way_id":"667642687","amenity":"parking","other":{"access":"customers","supervised":"no","surface":"asphalt"}}, "geometry":{"type":"MultiPolygon","coordinates":[[[[-1.99853,53.3675],[-1.99846,53.36755],[-1.99838,53.3676],[-1.99852,53.36767],[-1.99857,53.36764],[-1.99867,53.36757],[-1.99853,53.3675]]]]}},
{ "type":"Feature","properties":{"osm_way_id":"667642688","amenity":"parking","other":{"access":"customers","supervised":"no","surface":"asphalt"}}, "geometry":{"type":"MultiPolygon","coordinates":[[[[-1.99826,53.36765],[-1.9982,53.36772],[-1.99808,53.36791],[-1.9977,53.36785],[-1.9978,53.36771],[-1.99799,53.36762],[-1.99812,53.36768],[-1.99819,53.36762],[-1.99823,53.36764],[-1.99826,53.36765]]]]}},
{ "type":"Feature","properties":{"osm_way_id":"667713930","amenity":"parking"},"geometry":{"type":"MultiPolygon","coordinates":[[[[-2.0042,53.43939],[-2.00416,53.43951],[-2.00465,53.43958],[-2.00477,53.4396],[-2.00481,53.43948],[-2.0042,53.43939]]]]}},
{ "type":"Feature","properties":{"osm_way_id":"668665241","amenity":"parking","other":{"access":"customers","fee":"no","operator":"Masons Arms","surface":"asphalt"}}, "geometry":{"type":"MultiPolygon","coordinates":[[[[-2.00027,53.36888],[-2.0003,53.36888],[-2.00019,53.36905],[-1.99994,53.36897],[-2.00009,53.36883],[-2.00016,53.36885],[-2.00027,53.36888]]]]}},
{ "type":"Feature","properties":{"osm_way_id":"670306551","amenity":"parking","other":{"access":"customers","fee":"no","parking":"surface"}}, "geometry":{"type":"MultiPolygon","coordinates":[[[[-1.98485,53.3978],[-1.98498,53.3977],[-1.98475,53.39761],[-1.98474,53.3976],[-1.98441,53.39765],[-1.98429,53.39777],[-1.98431,53.39782],[-1.98451,53.39783],[-1.98459,53.39781],[-1.98461,53.39784],[-1.98485,53.3978]]]]}},
{ "type":"Feature","properties":{"osm_way_id":"694266451","amenity":"parking"},"geometry":{"type":"MultiPolygon","coordinates":[[[[-1.79597,53.34464],[-1.79597,53.34454],[-1.79577,53.34423],[-1.79568,53.34426],[-1.79597,53.34464]]]]}},
{ "type":"Feature","properties":{"osm_way_id":"713297593","amenity":"parking"},"geometry":{"type":"MultiPolygon","coordinates":[[[[-1.98899,53.32735],[-1.98908,53.32724],[-1.9895,53.32755],[-1.98942,53.3276],[-1.98899,53.32735]]]]}},
{ "type":"Feature","properties":{"osm_way_id":"756084586","amenity":"parking","other":{"access":"yes","fee":"no","lit":"no","parking":"layby","surface":"asphalt"}}, "geometry":{"type":"MultiPolygon","coordinates":[[[[-1.951,53.41507],[-1.95098,53.41539],[-1.95107,53.41543],[-1.95122,53.41388],[-1.9511,53.41394],[-1.95101,53.41498],[-1.951,53.41507]]]]}},
{ "type":"Feature","properties":{"osm_way_id":"768586253","amenity":"parking","other":{"fee":"yes"}}, "geometry":{"type":"MultiPolygon","coordinates":[[[[-2.00244,53.36686],[-2.00244,53.3669],[-2.0031,53.36689],[-2.00304,53.36672],[-2.00295,53.36674],[-2.00256,53.36675],[-2.00255,53.36659],[-2.00241,53.36659],[-2.00242,53.36675],[-2.00242,53.36679],[-2.00243,53.36681],[-2.00244,53.36686]]]]}},
{ "type":"Feature","properties":{"osm_way_id":"778225361","amenity":"parking"},"geometry":{"type":"MultiPolygon","coordinates":[[[[-1.98565,53.44783],[-1.98515,53.44814],[-1.98474,53.44791],[-1.98526,53.4476],[-1.98565,53.44783]]]]}},
{ "type":"Feature","properties":{"osm_way_id":"829733121","amenity":"parking"},"geometry":{"type":"MultiPolygon","coordinates":[[[[-1.75247,53.34686],[-1.75252,53.34634],[-1.75214,53.34634],[-1.75212,53.34655],[-1.75201,53.34662],[-1.752,53.34685],[-1.75193,53.34685],[-1.75202,53.34716],[-1.7518,53.34718],[-1.752,53.3474],[-1.7521,53.34741],[-1.75215,53.34728],[-1.75251,53.34731],[-1.75253,53.34686],[-1.75247,53.34686]]]]}},
{ "type":"Feature","properties":{"osm_way_id":"829733764","amenity":"parking","other":{"access":"private","capacity":"60","capacity:disabled":"3","fee":"no","operator":"Carbolite-Gero","operator:type":"business","parking":"surface","surface":"asphalt"}}, "geometry":{"type":"MultiPolygon","coordinates":[[[[-1.72786,53.34516],[-1.72811,53.34492],[-1.72738,53.34468],[-1.72717,53.3449],[-1.72786,53.34516]]]]}},
{ "type":"Feature","properties":{"osm_way_id":"833630763","amenity":"parking","other":{"access":"private","parking":"surface"}}, "geometry":{"type":"MultiPolygon","coordinates":[[[[-1.93594,53.45026],[-1.93553,53.45034],[-1.9355,53.45028],[-1.93528,53.45033],[-1.93513,53.45005],[-1.93577,53.44992],[-1.93594,53.45026]]]]}},
{ "type":"Feature","properties":{"osm_way_id":"833651338","amenity":"parking"},"geometry":{"type":"MultiPolygon","coordinates":[[[[-1.98059,53.33702],[-1.98065,53.33674],[-1.98074,53.33629],[-1.9805,53.33629],[-1.98047,53.33643],[-1.98036,53.337],[-1.98059,53.33702]]]]}},
{ "type":"Feature","properties":{"osm_way_id":"833651343","amenity":"parking"},"geometry":{"type":"MultiPolygon","coordinates":[[[[-1.98096,53.3357],[-1.98098,53.33562],[-1.98083,53.33561],[-1.98075,53.33613],[-1.9809,53.33613],[-1.98096,53.3357]]]]}},
{ "type":"Feature","properties":{"osm_way_id":"840971905","amenity":"parking","other":{"access":"private","parking":"surface","surface":"asphalt"}}, "geometry":{"type":"MultiPolygon","coordinates":[[[[-0.11178,51.60294],[-0.11174,51.60301],[-0.1116,51.60301],[-0.11144,51.60302],[-0.11142,51.60288],[-0.11178,51.60294]]]]}},
{ "type":"Feature","properties":{"osm_way_id":"858603332","amenity":"parking","other":{"parking":"surface"}}, "geometry":{"type":"MultiPolygon","coordinates":[[[[-2.00111,53.36969],[-2.00131,53.3694],[-2.00139,53.36941],[-2.00151,53.36923],[-2.00113,53.36915],[-2.00104,53.36929],[-2.00105,53.36931],[-2.00107,53.36934],[-2.00114,53.36936],[-2.00113,53.36938],[-2.00107,53.36948],[-2.00104,53.36953],[-2.00101,53.36952],[-2.00095,53.36961],[-2.00092,53.36965],[-2.00111,53.36969]]]]}},
{ "type":"Feature","properties":{"osm_way_id":"866018783","amenity":"parking","other":{"parking":"surface"}}, "geometry":{"type":"MultiPolygon","coordinates":[[[[-1.91181,53.24896],[-1.91178,53.24902],[-1.91157,53.24908],[-1.91152,53.24904],[-1.91165,53.24888],[-1.91181,53.24896]]]]}},
{ "type":"Feature","properties":{"osm_way_id":"870821356","amenity":"parking","other":{"access":"customers","capacity":"60","parking":"surface","surface":"asphalt"}}, "geometry":{"type":"MultiPolygon","coordinates":[[[[-1.98406,53.45366],[-1.98407,53.45368],[-1.98394,53.45378],[-1.9843,53.45412],[-1.98438,53.45418],[-1.98438,53.45419],[-1.98443,53.45421],[-1.9852,53.45397],[-1.98497,53.45372],[-1.98483,53.45376],[-1.98435,53.45393],[-1.98406,53.45366]]]]}},
{ "type":"Feature","properties":{"osm_way_id":"875335163","name":"Woodhead Tunnels","amenity":"parking","other":{"access":"yes","parking":"surface"}}, "geometry":{"type":"MultiPolygon","coordinates":[[[[-1.82847,53.4948],[-1.82884,53.49482],[-1.829,53.49488],[-1.82921,53.49503],[-1.82915,53.4951],[-1.82847,53.4948]]]]}},
{ "type":"Feature","properties":{"osm_way_id":"887679515","amenity":"parking","other":{"parking":"surface"}}, "geometry":{"type":"MultiPolygon","coordinates":[[[[-1.94719,53.38148],[-1.94721,53.38128],[-1.94698,53.38128],[-1.94697,53.38147],[-1.94719,53.38148]]]]}},
{ "type":"Feature","properties":{"osm_way_id":"887679547","amenity":"parking","other":{"parking":"surface"}}, "geometry":{"type":"MultiPolygon","coordinates":[[[[-1.93672,53.44985],[-1.9367,53.4498],[-1.93585,53.44995],[-1.93588,53.45],[-1.93672,53.44985]]]]}},
{ "type":"Feature","properties":{"osm_way_id":"887679550","amenity":"parking","other":{"access":"private","parking":"surface"}}, "geometry":{"type":"MultiPolygon","coordinates":[[[[-1.9472,53.4443],[-1.94718,53.44412],[-1.94743,53.44411],[-1.94744,53.44418],[-1.94746,53.44428],[-1.9472,53.4443]]]]}},
{ "type":"Feature","properties":{"osm_way_id":"889716704","amenity":"parking","other":{"access":"yes","capacity:disabled":"0","parking":"surface","surface":"unpaved"}}, "geometry":{"type":"MultiPolygon","coordinates":[[[[-1.77901,53.34775],[-1.77834,53.34743],[-1.77849,53.34731],[-1.77916,53.34763],[-1.77901,53.34775]]]]}},
{ "type":"Feature","properties":{"osm_way_id":"889716710","amenity":"parking","other":{"parking":"surface"}}, "geometry":{"type":"MultiPolygon","coordinates":[[[[-1.77991,53.34915],[-1.77981,53.34907],[-1.77978,53.34908],[-1.7797,53.34901],[-1.77959,53.34902],[-1.77954,53.34904],[-1.77973,53.34922],[-1.77991,53.34915]]]]}},
{ "type":"Feature","properties":{"osm_way_id":"889716736","amenity":"parking","other":{"parking":"surface","surface":"unpaved"}}, "geometry":{"type":"MultiPolygon","coordinates":[[[[-1.693,53.34284],[-1.69303,53.3426],[-1.69344,53.34262],[-1.69337,53.34275],[-1.69329,53.3429],[-1.693,53.34284]]]]}},
{ "type":"Feature","properties":{"osm_way_id":"889716740","amenity":"parking","other":{"parking":"surface"}}, "geometry":{"type":"MultiPolygon","coordinates":[[[[-1.68885,53.33957],[-1.68902,53.33945],[-1.68818,53.3391],[-1.68804,53.33918],[-1.68885,53.33957]]]]}},
{ "type":"Feature","properties":{"osm_way_id":"891023019","building":"yes"},"geometry":{"type":"MultiPolygon","coordinates":[[[[-1.80789,53.36981],[-1.8079,53.36984],[-1.80784,53.36985],[-1.80782,53.36982],[-1.80781,53.36982],[-1.80778,53.36979],[-1.80788,53.36977],[-1.8079,53.36981],[-1.80789,53.36981]]]]}},
{ "type":"Feature","properties":{"osm_way_id":"895581578","amenity":"parking","other":{"access":"customers","fee":"no","operator":"Wickwar Playing Fields Association","operator:type":"public","parking":"surface","surface":"asphalt"}}, "geometry":{"type":"MultiPolygon","coordinates":[[[[-2.40465,51.5942],[-2.40468,51.59408],[-2.40405,51.59395],[-2.40401,51.59394],[-2.40396,51.59407],[-2.40465,51.5942]]]]}},
{ "type":"Feature","properties":{"osm_way_id":"905600240","amenity":"parking","other":{"parking":"surface"}}, "geometry":{"type":"MultiPolygon","coordinates":[[[[-1.93828,53.30382],[-1.93855,53.30403],[-1.93869,53.30394],[-1.93843,53.30374],[-1.93828,53.30382]]]]}},
{ "type":"Feature","properties":{"osm_way_id":"913872291","amenity":"parking"},"geometry":{"type":"MultiPolygon","coordinates":[[[[-1.94668,53.44259],[-1.9467,53.44231],[-1.94504,53.44233],[-1.94504,53.44258],[-1.94668,53.44259]]]]}},
{ "type":"Feature","properties":{"osm_way_id":"925729657","amenity":"parking","other":{"parking":"surface"}}, "geometry":{"type":"MultiPolygon","coordinates":[[[[-1.90758,53.24361],[-1.90754,53.24354],[-1.90763,53.2435],[-1.90762,53.24346],[-1.90778,53.24344],[-1.90788,53.24345],[-1.90807,53.24349],[-1.90805,53.24354],[-1.90796,53.24358],[-1.90791,53.2436],[-1.90777,53.24359],[-1.90758,53.24361]]]]}},
{ "type":"Feature","properties":{"osm_way_id":"925913410","amenity":"parking","other":{"parking":"surface"}}, "geometry":{"type":"MultiPolygon","coordinates":[[[[-1.81764,53.36549],[-1.81769,53.36543],[-1.81767,53.36537],[-1.81762,53.36534],[-1.81757,53.36533],[-1.81731,53.36538],[-1.81737,53.36553],[-1.81764,53.36549]]]]}},
{ "type":"Feature","properties":{"osm_way_id":"925913412","amenity":"parking","other":{"access":"private","parking":"surface","surface":"asphalt"}}, "geometry":{"type":"MultiPolygon","coordinates":[[[[-1.81658,53.36617],[-1.8166,53.36615],[-1.81659,53.36608],[-1.81654,53.36593],[-1.81651,53.36593],[-1.81658,53.36617]]]]}},
{ "type":"Feature","properties":{"osm_way_id":"963375092","amenity":"parking"},"geometry":{"type":"MultiPolygon","coordinates":[[[[-2.27545,51.44923],[-2.2752,51.44916],[-2.27535,51.44892],[-2.27548,51.44896],[-2.27561,51.44899],[-2.27545,51.44923]]]]}},
{ "type":"Feature","properties":{"osm_way_id":"970690656","amenity":"parking"},"geometry":{"type":"MultiPolygon","coordinates":[[[[-2.00957,53.375],[-2.00895,53.37502],[-2.0088,53.37494],[-2.00888,53.37455],[-2.00951,53.37442],[-2.00957,53.375]]]]}},
{ "type":"Feature","properties":{"osm_way_id":"983230724","amenity":"parking","other":{"access":"unknown"}}, "geometry":{"type":"MultiPolygon","coordinates":[[[[-1.91829,53.22037],[-1.91824,53.22101],[-1.91784,53.221],[-1.91788,53.22085],[-1.91774,53.22085],[-1.91778,53.22043],[-1.91829,53.22037]]]]}},
{ "type":"Feature","properties":{"osm_way_id":"983230748","amenity":"parking","other":{"access":"unknown"}}, "geometry":{"type":"MultiPolygon","coordinates":[[[[-1.91174,53.22291],[-1.91168,53.22289],[-1.91154,53.22295],[-1.91147,53.22295],[-1.91154,53.22276],[-1.91191,53.22279],[-1.91186,53.22287],[-1.91174,53.22291]]]]}},
{ "type":"Feature","properties":{"osm_way_id":"987167411","amenity":"parking"},"geometry":{"type":"MultiPolygon","coordinates":[[[[-2.02157,53.36729],[-2.02145,53.36726],[-2.02152,53.36711],[-2.02188,53.36714],[-2.02196,53.36717],[-2.02221,53.36726],[-2.02217,53.36729],[-2.02231,53.36734],[-2.02219,53.3675],[-2.02215,53.36746],[-2.02207,53.36745],[-2.02202,53.36743],[-2.02195,53.36736],[-2.02194,53.3673],[-2.02192,53.36728],[-2.02157,53.36729]]]]}},
{ "type":"Feature","properties":{"osm_way_id":"987168623","amenity":"parking"},"geometry":{"type":"MultiPolygon","coordinates":[[[[-2.00731,53.36447],[-2.0073,53.36419],[-2.00748,53.36411],[-2.00724,53.36409],[-2.00649,53.36437],[-2.00669,53.36444],[-2.00706,53.36442],[-2.00707,53.36449],[-2.00731,53.36447]]]]}},
{ "type":"Feature","properties":{"osm_way_id":"997548697","amenity":"parking","other":{"access":"permissive","parking":"surface"}}, "geometry":{"type":"MultiPolygon","coordinates":[[[[-1.85125,53.21411],[-1.85066,53.21372],[-1.85073,53.21367],[-1.85028,53.21339],[-1.85008,53.21351],[-1.85034,53.21371],[-1.85043,53.2138],[-1.85054,53.21386],[-1.85065,53.21395],[-1.85069,53.21394],[-1.8509,53.21412],[-1.8511,53.21418],[-1.85125,53.21411]]]]}},
{ "type":"Feature","properties":{"osm_way_id":"1003287760","amenity":"parking","other":{"parking":"surface"}}, "geometry":{"type":"MultiPolygon","coordinates":[[[[-1.94824,53.44889],[-1.94828,53.4488],[-1.94786,53.44868],[-1.94784,53.44872],[-1.94749,53.44866],[-1.94746,53.44874],[-1.94801,53.44882],[-1.948,53.44884],[-1.94809,53.44885],[-1.94808,53.44886],[-1.94824,53.44889]]]]}},
{ "type":"Feature","properties":{"osm_way_id":"1003287761","amenity":"parking","other":{"parking":"surface"}}, "geometry":{"type":"MultiPolygon","coordinates":[[[[-1.94907,53.44911],[-1.94909,53.44907],[-1.94862,53.44901],[-1.94868,53.44905],[-1.94907,53.44911]]]]}},
{ "type":"Feature","properties":{"osm_way_id":"1009700576","amenity":"parking","other":{"access":"private","parking":"surface"}}, "geometry":{"type":"MultiPolygon","coordinates":[[[[-1.91918,53.23055],[-1.91902,53.23017],[-1.91928,53.23013],[-1.91923,53.23],[-1.91905,53.22995],[-1.91847,53.23004],[-1.91875,53.23073],[-1.9189,53.23071],[-1.91902,53.23069],[-1.91918,53.23055]]]]}},
{ "type":"Feature","properties":{"osm_way_id":"1009700579","amenity":"parking"},"geometry":{"type":"MultiPolygon","coordinates":[[[[-1.91861,53.22881],[-1.91816,53.22887],[-1.91817,53.22891],[-1.91811,53.22892],[-1.91817,53.22907],[-1.91873,53.22899],[-1.91867,53.22884],[-1.91861,53.22881]]]]}},
{ "type":"Feature","properties":{"osm_way_id":"1009700582","amenity":"parking"},"geometry":{"type":"MultiPolygon","coordinates":[[[[-1.91806,53.22909],[-1.91753,53.22916],[-1.91747,53.22902],[-1.91754,53.22901],[-1.91753,53.22897],[-1.91791,53.22891],[-1.91792,53.22895],[-1.918,53.22894],[-1.91806,53.22909]]]]}},
{ "type":"Feature","properties":{"osm_way_id":"1029007399","amenity":"parking","other":{"access":"private","capacity":"40","capacity:disabled":"2","operator":"Carbolite-Gero","operator:type":"private","parking":"surface","surface":"asphalt"}}, "geometry":{"type":"MultiPolygon","coordinates":[[[[-1.72521,53.34422],[-1.72502,53.34416],[-1.72511,53.34405],[-1.72517,53.34406],[-1.7253,53.3441],[-1.72534,53.34402],[-1.72464,53.34387],[-1.72463,53.34389],[-1.72459,53.34389],[-1.72446,53.34407],[-1.72444,53.34406],[-1.72454,53.34392],[-1.72437,53.34388],[-1.72425,53.34405],[-1.72465,53.34415],[-1.72479,53.34394],[-1.72484,53.34395],[-1.72489,53.34396],[-1.72477,53.34414],[-1.72519,53.34425],[-1.72521,53.34422]]]]}},
{ "type":"Feature","properties":{"osm_way_id":"1039277527","amenity":"parking"},"geometry":{"type":"MultiPolygon","coordinates":[[[[-1.92781,53.4447],[-1.92796,53.4447],[-1.92797,53.44464],[-1.92795,53.4446],[-1.92795,53.44458],[-1.92786,53.44458],[-1.92778,53.44457],[-1.92778,53.44465],[-1.92781,53.44465],[-1.92781,53.4447]]]]}},
{ "type":"Feature","properties":{"osm_way_id":"1040628209","amenity":"parking","other":{"access":"unknown"}}, "geometry":{"type":"MultiPolygon","coordinates":[[[[-1.90787,53.25403],[-1.90759,53.25421],[-1.90697,53.25396],[-1.90709,53.25382],[-1.90736,53.25394],[-1.90756,53.25402],[-1.90759,53.25404],[-1.90774,53.25395],[-1.90787,53.25403]]]]}}
]
}
