{
"type": "FeatureCollection",
"features": [
{ "type":"Feature","properties":{"osm_way_id":"26242471","name":"Amazon UK Services","building":"warehouse"},"geometry":{"type":"MultiPolygon","coordinates":[[[[-1.48885,50.90171],[-1.48695,50.90138],[-1.48697,50.90133],[-1.4868,50.9013],[-1.48702,50.90082],[-1.4872,50.90085],[-1.48726,50.90072],[-1.48915,50.90105],[-1.48885,50.90171]]]]}},
{ "type":"Feature","properties":{"osm_way_id":"213563555","building":"warehouse"},"geometry":{"type":"MultiPolygon","coordinates":[[[[-1.51036,50.93763],[-1.50951,50.93639],[-1.50994,50.93627],[-1.51,50.93635],[-1.51029,50.93627],[-1.51046,50.93652],[-1.51072,50.93645],[-1.51134,50.93736],[-1.51036,50.93763]]]]}},
{ "type":"Feature","properties":{"osm_way_id":"304390691","name":"Eldapoint Ltd","building":"warehouse"},"geometry":{"type":"MultiPolygon","coordinates":[[[[-1.4791,50.91375],[-1.47909,50.91371],[-1.47895,50.91374],[-1.47896,50.91377],[-1.4791,50.91375]]]]}},
{ "type":"Feature","properties":{"osm_way_id":"304390710","name":"Shield Ltd.","building":"warehouse"},"geometry":{"type":"MultiPolygon","coordinates":[[[[-1.48175,50.91653],[-1.48166,50.91649],[-1.48127,50.91682],[-1.48137,50.91686],[-1.48175,50.91653]]]]}},
{ "type":"Feature","properties":{"osm_way_id":"304390711","name":"South West Trucks Ltd","building":"warehouse"},"geometry":{"type":"MultiPolygon","coordinates":[[[[-1.48259,50.91495],[-1.48264,50.91493],[-1.48256,50.91484],[-1.48252,50.91486],[-1.48259,50.91495]]]]}},
{ "type":"Feature","properties":{"osm_way_id":"304390712","building":"warehouse"},"geometry":{"type":"MultiPolygon","coordinates":[[[[-1.48349,50.9151],[-1.48365,50.91504],[-1.48362,50.91501],[-1.48346,50.91506],[-1.48349,50.9151]]]]}},
{ "type":"Feature","properties":{"osm_way_id":"304390714","name":"Youngs Container Transport Ltd","building":"warehouse"},"geometry":{"type":"MultiPolygon","coordinates":[[[[-1.48287,50.91492],[-1.48323,50.91536],[-1.483,50.91544],[-1.48263,50.915],[-1.48287,50.91492]]]]}},
{ "type":"Feature","properties":{"osm_way_id":"304390715","building":"warehouse"},"geometry":{"type":"MultiPolygon","coordinates":[[[[-1.48275,50.91478],[-1.48256,50.91484],[-1.48252,50.91486],[-1.48215,50.91442],[-1.48239,50.91434],[-1.48275,50.91478]]]]}},
{ "type":"Feature","properties":{"osm_way_id":"304390716","building":"warehouse"},"geometry":{"type":"MultiPolygon","coordinates":[[[[-1.48204,50.916],[-1.48156,50.91616],[-1.48045,50.91486],[-1.48069,50.91478],[-1.48143,50.91565],[-1.48167,50.91556],[-1.48204,50.916]]]]}},
{ "type":"Feature","properties":{"osm_way_id":"358424031","building":"warehouse"},"geometry":{"type":"MultiPolygon","coordinates":[[[[-1.51115,50.93782],[-1.51111,50.93783],[-1.51112,50.93783],[-1.51098,50.93786],[-1.51095,50.93779],[-1.51108,50.93776],[-1.51109,50.93778],[-1.51113,50.93778],[-1.51115,50.93782]]]]}},
{ "type":"Feature","properties":{"osm_way_id":"358424032","building":"warehouse"},"geometry":{"type":"MultiPolygon","coordinates":[[[[-1.51136,50.9378],[-1.5113,50.93782],[-1.51129,50.9378],[-1.51135,50.93778],[-1.51136,50.9378]]]]}},
{ "type":"Feature","properties":{"osm_way_id":"358424033","building":"warehouse"},"geometry":{"type":"MultiPolygon","coordinates":[[[[-1.51183,50.93741],[-1.51153,50.93752],[-1.51149,50.93748],[-1.5118,50.93737],[-1.51183,50.93741]]]]}},
{ "type":"Feature","properties":{"osm_way_id":"358424034","building":"warehouse"},"geometry":{"type":"MultiPolygon","coordinates":[[[[-1.51184,50.93753],[-1.51168,50.9376],[-1.51162,50.93754],[-1.51167,50.93752],[-1.51165,50.9375],[-1.51177,50.93746],[-1.51184,50.93753]]]]}},
{ "type":"Feature","properties":{"osm_way_id":"358424037","building":"warehouse"},"geometry":{"type":"MultiPolygon","coordinates":[[[[-1.51122,50.9377],[-1.51117,50.93771],[-1.51114,50.93766],[-1.51119,50.93765],[-1.51122,50.9377]]]]}},
{ "type":"Feature","properties":{"osm_way_id":"358424038","building":"warehouse"},"geometry":{"type":"MultiPolygon","coordinates":[[[[-1.51117,50.93774],[-1.51109,50.93776],[-1.51106,50.93772],[-1.51114,50.9377],[-1.51117,50.93774]]]]}},
{ "type":"Feature","properties":{"osm_way_id":"358424039","building":"warehouse"},"geometry":{"type":"MultiPolygon","coordinates":[[[[-1.51152,50.93763],[-1.51147,50.93764],[-1.51145,50.93762],[-1.5115,50.9376],[-1.51152,50.93763]]]]}},
{ "type":"Feature","properties":{"osm_way_id":"358424040","building":"warehouse"},"geometry":{"type":"MultiPolygon","coordinates":[[[[-1.51127,50.93782],[-1.51124,50.93784],[-1.51122,50.93781],[-1.51126,50.9378],[-1.51127,50.93782]]]]}},
{ "type":"Feature","properties":{"osm_way_id":"358424041","building":"warehouse"},"geometry":{"type":"MultiPolygon","coordinates":[[[[-1.51162,50.93774],[-1.51158,50.93775],[-1.51155,50.93772],[-1.51159,50.93771],[-1.51162,50.93774]]]]}},
{ "type":"Feature","properties":{"osm_way_id":"366402356","building":"warehouse"},"geometry":{"type":"MultiPolygon","coordinates":[[[[-1.48293,50.91423],[-1.48284,50.91426],[-1.48276,50.91416],[-1.48285,50.91413],[-1.48293,50.91423]]]]}},
{ "type":"Feature","properties":{"osm_way_id":"366402360","building":"warehouse"},"geometry":{"type":"MultiPolygon","coordinates":[[[[-1.48245,50.91404],[-1.48232,50.91408],[-1.48228,50.91403],[-1.48241,50.91399],[-1.48245,50.91404]]]]}},
{ "type":"Feature","properties":{"osm_way_id":"366402361","building":"warehouse"},"geometry":{"type":"MultiPolygon","coordinates":[[[[-1.48098,50.91453],[-1.48086,50.91459],[-1.48078,50.91452],[-1.4809,50.91446],[-1.48098,50.91453]]]]}},
{ "type":"Feature","properties":{"osm_way_id":"366402370","building":"warehouse"},"geometry":{"type":"MultiPolygon","coordinates":[[[[-1.48181,50.91441],[-1.48172,50.91444],[-1.48166,50.91437],[-1.48142,50.91445],[-1.48132,50.91433],[-1.48165,50.91422],[-1.48181,50.91441]]]]}},
{ "type":"Feature","properties":{"osm_way_id":"366402371","building":"warehouse"},"geometry":{"type":"MultiPolygon","coordinates":[[[[-1.48255,50.91423],[-1.48252,50.9142],[-1.48245,50.91422],[-1.4824,50.91417],[-1.48262,50.91409],[-1.4827,50.91417],[-1.48255,50.91423]]]]}},
{ "type":"Feature","properties":{"osm_way_id":"366402372","building":"warehouse"},"geometry":{"type":"MultiPolygon","coordinates":[[[[-1.48284,50.91411],[-1.48268,50.91416],[-1.48264,50.9141],[-1.4828,50.91406],[-1.48284,50.91411]]]]}},
{ "type":"Feature","properties":{"osm_way_id":"366402373","building":"warehouse"},"geometry":{"type":"MultiPolygon","coordinates":[[[[-1.48269,50.91406],[-1.4826,50.91409],[-1.48251,50.91397],[-1.4826,50.91394],[-1.48269,50.91406]]]]}},
{ "type":"Feature","properties":{"osm_way_id":"366402374","building":"warehouse"},"geometry":{"type":"MultiPolygon","coordinates":[[[[-1.48299,50.9147],[-1.48288,50.91473],[-1.48282,50.91466],[-1.4829,50.91463],[-1.48292,50.91466],[-1.48296,50.91465],[-1.48299,50.9147]]]]}},
{ "type":"Feature","properties":{"osm_way_id":"393269885","building":"warehouse","other":{"addr:city":"Southampton","addr:country":"GB","addr:housename":"South Hampshire Industrial Park","addr:postcode":"SO40 3SA","addr:street":"Brunel Road","addr:town":"Totton","addr:unit":"39","disused:shop":"yes"}}, "geometry":{"type":"MultiPolygon","coordinates":[[[[-1.5049,50.93413],[-1.505,50.93392],[-1.50518,50.93395],[-1.50507,50.93416],[-1.5049,50.93413]]]]}},
{ "type":"Feature","properties":{"osm_way_id":"393269886","name":"DX Delivery Services","amenity":"post_office","building":"warehouse","other":{"addr:city":"Southampton","addr:country":"GB","addr:housename":"South Hampshire Industrial Park","addr:postcode":"SO40 3SA","addr:street":"Brunel Road","addr:town":"Totton","addr:unit":"34","brand":"DX","brand:wikipedia":"en:DX Group","operator":"DX (Group) plc","website":"https:\/\/www.dxdelivery.com\/"}}, "geometry":{"type":"MultiPolygon","coordinates":[[[[-1.50511,50.9336],[-1.50522,50.93338],[-1.50525,50.93333],[-1.50501,50.93328],[-1.50488,50.93355],[-1.50511,50.9336]]]]}},
{ "type":"Feature","properties":{"osm_way_id":"691522138","name":"Graham Plumbers Merchant","building":"warehouse","craft":"plumber","other":{"addr:city":"Southampton","addr:country":"GB","addr:housename":"South Hampshire Industrial Park","addr:postcode":"SO40 3SA","addr:street":"Brunel Road","addr:town":"Totton","addr:unit":"1"}}, "geometry":{"type":"MultiPolygon","coordinates":[[[[-1.50918,50.9336],[-1.50895,50.93377],[-1.50855,50.93356],[-1.50877,50.93339],[-1.50918,50.9336]]]]}},
{ "type":"Feature","properties":{"osm_way_id":"691522139","building":"warehouse","other":{"addr:city":"Southampton","addr:country":"GB","addr:housename":"South Hampshire Industrial Park","addr:postcode":"SO40 3SA","addr:street":"Brunel Road","addr:town":"Totton","addr:unit":"2","disused:shop":"yes"}}, "geometry":{"type":"MultiPolygon","coordinates":[[[[-1.50895,50.93377],[-1.50873,50.93394],[-1.50833,50.93372],[-1.50855,50.93356],[-1.50895,50.93377]]]]}},
{ "type":"Feature","properties":{"osm_way_id":"691522140","name":"Howdens Joinery","building":"warehouse","craft":"joiner","other":{"addr:city":"Southampton","addr:country":"GB","addr:housename":"South Hampshire Industrial Park","addr:postcode":"SO40 3SA","addr:street":"Brunel Road","addr:town":"Totton","addr:unit":"3","contact:website":"https:\/\/www.howdens.com\/"}}, "geometry":{"type":"MultiPolygon","coordinates":[[[[-1.50873,50.93394],[-1.50851,50.9341],[-1.5081,50.93389],[-1.50833,50.93372],[-1.50873,50.93394]]]]}},
{ "type":"Feature","properties":{"osm_way_id":"691522141","name":"J van VLIET","building":"warehouse","shop":"florist","other":{"addr:city":"Southampton","addr:country":"GB","addr:housename":"South Hampshire Industrial Park","addr:postcode":"SO40 3SA","addr:street":"Brunel Road","addr:town":"Totton","addr:unit":"4","contact:website":"https:\/\/www.jvanvliet.com\/cc\/van-vliet-southampton\/"}}, "geometry":{"type":"MultiPolygon","coordinates":[[[[-1.50851,50.9341],[-1.50829,50.93427],[-1.50788,50.93406],[-1.5081,50.93389],[-1.50851,50.9341]]]]}},
{ "type":"Feature","properties":{"osm_way_id":"691522142","name":"Royal Mail Totton Delivery Office","amenity":"post_depot","building":"warehouse","other":{"addr:city":"Southampton","addr:country":"GB","addr:housename":"South Hampshire Industrial Park","addr:postcode":"SO40 3SA","addr:street":"Brunel Road","addr:town":"Totton","addr:unit":"5"}}, "geometry":{"type":"MultiPolygon","coordinates":[[[[-1.50829,50.93427],[-1.50807,50.93444],[-1.50765,50.93422],[-1.50788,50.93406],[-1.50829,50.93427]]]]}},
{ "type":"Feature","properties":{"osm_way_id":"691523403","building":"warehouse"},"geometry":{"type":"MultiPolygon","coordinates":[[[[-1.50409,50.93206],[-1.5042,50.93198],[-1.50452,50.93212],[-1.50456,50.93208],[-1.5046,50.9321],[-1.50445,50.93223],[-1.50409,50.93206]]]]}},
{ "type":"Feature","properties":{"osm_way_id":"691524645","name":"BEST Autocentre","building":"warehouse","shop":"car_parts","other":{"addr:city":"Southampton","addr:country":"GB","addr:housename":"South Hampshire Industrial Park","addr:postcode":"SO40 3SA","addr:street":"Eddystone Road","addr:town":"Totton","addr:unit":"10","website":"https:\/\/www.totton-tyres.co.uk\/"}}, "geometry":{"type":"MultiPolygon","coordinates":[[[[-1.50703,50.93338],[-1.50681,50.93328],[-1.50652,50.93355],[-1.50674,50.93365],[-1.50703,50.93338]]]]}},
{ "type":"Feature","properties":{"osm_way_id":"691524646","name":"Red-D-Arc Welderentals","building":"warehouse","shop":"hardware","other":{"addr:city":"Southampton","addr:country":"GB","addr:housename":"South Hampshire Industrial Park","addr:postcode":"SO40 3SA","addr:street":"Eddystone Road","addr:town":"Totton","addr:unit":"11","website":"https:\/\/www.red-d-arc.uk\/"}}, "geometry":{"type":"MultiPolygon","coordinates":[[[[-1.50681,50.93328],[-1.50659,50.93319],[-1.5063,50.93346],[-1.50652,50.93355],[-1.50681,50.93328]]]]}},
{ "type":"Feature","properties":{"osm_way_id":"691524649","building":"warehouse","other":{"addr:city":"Southampton","addr:country":"GB","addr:housename":"South Hampshire Industrial Park","addr:postcode":"SO40 3SA","addr:street":"Eddystone Road","addr:town":"Totton","addr:unit":"14"}}, "geometry":{"type":"MultiPolygon","coordinates":[[[[-1.50617,50.93301],[-1.50597,50.93292],[-1.50578,50.93309],[-1.50567,50.93319],[-1.50587,50.93328],[-1.50617,50.93301]]]]}},
{ "type":"Feature","properties":{"osm_way_id":"691524650","building":"warehouse","other":{"addr:city":"Southampton","addr:country":"GB","addr:housename":"South Hampshire Industrial Park","addr:postcode":"SO40 3SA","addr:street":"Eddystone Road","addr:town":"Totton","addr:unit":"16"}}, "geometry":{"type":"MultiPolygon","coordinates":[[[[-1.50597,50.93292],[-1.50575,50.93282],[-1.50556,50.933],[-1.50578,50.93309],[-1.50597,50.93292]]]]}},
{ "type":"Feature","properties":{"osm_way_id":"691524651","building":"warehouse","other":{"addr:city":"Southampton","addr:country":"GB","addr:housename":"South Hampshire Industrial Park","addr:postcode":"SO40 3SA","addr:street":"Eddystone Road","addr:town":"Totton","addr:unit":"17"}}, "geometry":{"type":"MultiPolygon","coordinates":[[[[-1.50575,50.93282],[-1.50553,50.93273],[-1.50534,50.93291],[-1.50556,50.933],[-1.50575,50.93282]]]]}},
{ "type":"Feature","properties":{"osm_way_id":"691524652","building":"warehouse","other":{"addr:city":"Southampton","addr:country":"GB","addr:housename":"South Hampshire Industrial Park","addr:postcode":"SO40 3SA","addr:street":"Stephenson Road","addr:town":"Totton","addr:unit":"15"}}, "geometry":{"type":"MultiPolygon","coordinates":[[[[-1.50567,50.93319],[-1.50524,50.933],[-1.50529,50.93296],[-1.50534,50.93291],[-1.50556,50.933],[-1.50578,50.93309],[-1.50567,50.93319]]]]}},
{ "type":"Feature","properties":{"osm_way_id":"691524653","building":"warehouse","other":{"addr:city":"Southampton","addr:country":"GB","addr:housename":"South Hampshire Industrial Park","addr:postcode":"SO40 3SA","addr:street":"Eddystone Road","addr:town":"Totton","addr:unit":"18"}}, "geometry":{"type":"MultiPolygon","coordinates":[[[[-1.50553,50.93273],[-1.50532,50.93264],[-1.50508,50.93287],[-1.50529,50.93296],[-1.50534,50.93291],[-1.50553,50.93273]]]]}},
{ "type":"Feature","properties":{"osm_way_id":"691637969","building":"warehouse","other":{"addr:city":"Southampton","addr:country":"GB","addr:housename":"South Hampshire Industrial Park","addr:postcode":"SO40 3SA","addr:street":"Brunel Road","addr:town":"Totton","addr:unit":"33","disused:shop":"yes"}}, "geometry":{"type":"MultiPolygon","coordinates":[[[[-1.50488,50.93355],[-1.50501,50.93328],[-1.5048,50.93324],[-1.50466,50.93351],[-1.50488,50.93355]]]]}},
{ "type":"Feature","properties":{"osm_way_id":"691637970","building":"warehouse","other":{"addr:city":"Southampton","addr:country":"GB","addr:housename":"South Hampshire Industrial Park","addr:postcode":"SO40 3SA","addr:street":"Brunel Road","addr:town":"Totton","addr:unit":"32","disused:shop":"yes"}}, "geometry":{"type":"MultiPolygon","coordinates":[[[[-1.50466,50.93351],[-1.5048,50.93324],[-1.50458,50.9332],[-1.50445,50.93347],[-1.50466,50.93351]]]]}},
{ "type":"Feature","properties":{"osm_way_id":"691637971","building":"warehouse","other":{"addr:city":"Southampton","addr:country":"GB","addr:housename":"South Hampshire Industrial Park","addr:postcode":"SO40 3SA","addr:street":"Brunel Road","addr:town":"Totton","addr:unit":"31","disused:shop":"yes"}}, "geometry":{"type":"MultiPolygon","coordinates":[[[[-1.50445,50.93347],[-1.50458,50.9332],[-1.50436,50.93316],[-1.50423,50.93342],[-1.50445,50.93347]]]]}},
{ "type":"Feature","properties":{"osm_way_id":"691637974","building":"warehouse","other":{"addr:city":"Southampton","addr:country":"GB","addr:housename":"South Hampshire Industrial Park","addr:postcode":"SO40 3SA","addr:street":"Brunel Road","addr:town":"Totton","addr:unit":"30","disused:shop":"yes"}}, "geometry":{"type":"MultiPolygon","coordinates":[[[[-1.50423,50.93342],[-1.50395,50.93337],[-1.50409,50.9331],[-1.50436,50.93316],[-1.50423,50.93342]]]]}},
{ "type":"Feature","properties":{"osm_way_id":"691637977","building":"warehouse","other":{"addr:city":"Southampton","addr:country":"GB","addr:housename":"South Hampshire Industrial Park","addr:postcode":"SO40 3SA","addr:street":"Brunel Road","addr:town":"Totton","addr:unit":"35","disused:shop":"yes"}}, "geometry":{"type":"MultiPolygon","coordinates":[[[[-1.50511,50.9336],[-1.50532,50.93364],[-1.50542,50.93345],[-1.50543,50.93342],[-1.50522,50.93338],[-1.50511,50.9336]]]]}},
{ "type":"Feature","properties":{"osm_way_id":"691637980","name":"Winterbothams - Independent Marine Surveyors","building":"warehouse","office":"surveyor","other":{"addr:city":"Southampton","addr:country":"GB","addr:housename":"South Hampshire Industrial Park","addr:postcode":"SO40 3SA","addr:street":"Brunel Road","addr:town":"Totton","addr:unit":"36","website":"https:\/\/www.winterbothams.co.uk\/"}}, "geometry":{"type":"MultiPolygon","coordinates":[[[[-1.50528,50.93373],[-1.50585,50.93384],[-1.50596,50.93363],[-1.50564,50.93356],[-1.50567,50.9335],[-1.50542,50.93345],[-1.50532,50.93364],[-1.50528,50.93373]]]]}},
{ "type":"Feature","properties":{"osm_way_id":"691637982","building":"warehouse","other":{"addr:city":"Southampton","addr:country":"GB","addr:housename":"South Hampshire Industrial Park","addr:postcode":"SO40 3SA","addr:street":"Brunel Road","addr:town":"Totton","addr:unit":"37","disused:shop":"yes"}}, "geometry":{"type":"MultiPolygon","coordinates":[[[[-1.50528,50.93373],[-1.50518,50.93395],[-1.50575,50.93406],[-1.50585,50.93384],[-1.50528,50.93373]]]]}},
{ "type":"Feature","properties":{"osm_way_id":"691637983","name":"Fox Removals and Storage","building":"warehouse","other":{"addr:city":"Southampton","addr:country":"GB","addr:housename":"South Hampshire Industrial Park","addr:housenumber":"38","addr:postcode":"SO40 3SA","addr:street":"Brunel Road","addr:town":"Totton","addr:unit":"38","disused:shop":"yes"}}, "geometry":{"type":"MultiPolygon","coordinates":[[[[-1.50518,50.93395],[-1.50507,50.93416],[-1.50564,50.93427],[-1.50575,50.93406],[-1.50518,50.93395]]]]}},
{ "type":"Feature","properties":{"osm_way_id":"691637984","building":"warehouse","other":{"addr:city":"Southampton","addr:country":"GB","addr:housename":"South Hampshire Industrial Park","addr:postcode":"SO40 3SA","addr:street":"Brunel Road","addr:town":"Totton","addr:unit":"40","disused:shop":"yes"}}, "geometry":{"type":"MultiPolygon","coordinates":[[[[-1.50473,50.9341],[-1.50483,50.93388],[-1.505,50.93392],[-1.5049,50.93413],[-1.50473,50.9341]]]]}},
{ "type":"Feature","properties":{"osm_way_id":"691637985","building":"warehouse","other":{"addr:city":"Southampton","addr:country":"GB","addr:housename":"South Hampshire Industrial Park","addr:postcode":"SO40 3SA","addr:street":"Brunel Road","addr:town":"Totton","addr:unit":"41","disused:shop":"yes"}}, "geometry":{"type":"MultiPolygon","coordinates":[[[[-1.50456,50.93407],[-1.50466,50.93386],[-1.50466,50.93385],[-1.50483,50.93388],[-1.50473,50.9341],[-1.50456,50.93407]]]]}},
{ "type":"Feature","properties":{"osm_way_id":"691637986","name":"DYNO Plumbing","building":"warehouse","craft":"plumber","other":{"addr:city":"Southampton","addr:country":"GB","addr:housename":"South Hampshire Industrial Park","addr:postcode":"SO40 3SA","addr:street":"Brunel Road","addr:town":"Totton","addr:unit":"42"}}, "geometry":{"type":"MultiPolygon","coordinates":[[[[-1.50439,50.93404],[-1.50449,50.93382],[-1.50466,50.93386],[-1.50456,50.93407],[-1.50439,50.93404]]]]}},
{ "type":"Feature","properties":{"osm_way_id":"691637987","building":"warehouse","other":{"addr:city":"Southampton","addr:country":"GB","addr:housename":"South Hampshire Industrial Park","addr:postcode":"SO40 3SA","addr:street":"Brunel Road","addr:town":"Totton","addr:unit":"43","disused:shop":"yes"}}, "geometry":{"type":"MultiPolygon","coordinates":[[[[-1.50422,50.93401],[-1.50432,50.93379],[-1.50449,50.93382],[-1.50439,50.93404],[-1.50422,50.93401]]]]}},
{ "type":"Feature","properties":{"osm_way_id":"691684307","building":"warehouse","other":{"addr:city":"Southampton","addr:country":"GB","addr:housename":"South Hampshire Industrial Park","addr:postcode":"SO40 3SA","addr:street":"Eddystone Road","addr:town":"Totton","addr:unit":"19","disused:shop":"yes"}}, "geometry":{"type":"MultiPolygon","coordinates":[[[[-1.5047,50.93282],[-1.50455,50.93296],[-1.50422,50.93282],[-1.50437,50.93268],[-1.5047,50.93282]]]]}},
{ "type":"Feature","properties":{"osm_way_id":"691684309","building":"warehouse","other":{"addr:city":"Southampton","addr:country":"GB","addr:housename":"South Hampshire Industrial Park","addr:postcode":"SO40 3SA","addr:street":"Eddystone Road","addr:town":"Totton","addr:unit":"23","disused:shop":"yes"}}, "geometry":{"type":"MultiPolygon","coordinates":[[[[-1.50517,50.93224],[-1.50503,50.93238],[-1.50474,50.93225],[-1.50488,50.93212],[-1.50517,50.93224]]]]}},
{ "type":"Feature","properties":{"osm_way_id":"691684311","building":"warehouse","other":{"addr:city":"Southampton","addr:country":"GB","addr:housename":"South Hampshire Industrial Park","addr:postcode":"SO40 3SA","addr:street":"Eddystone Road","addr:town":"Totton","addr:unit":"24","disused:shop":"yes"}}, "geometry":{"type":"MultiPolygon","coordinates":[[[[-1.50531,50.93212],[-1.50517,50.93224],[-1.50488,50.93212],[-1.50502,50.93199],[-1.50531,50.93212]]]]}},
{ "type":"Feature","properties":{"osm_way_id":"691684313","building":"warehouse","other":{"addr:city":"Southampton","addr:country":"GB","addr:housename":"South Hampshire Industrial Park","addr:postcode":"SO40 3SA","addr:street":"Eddystone Road","addr:town":"Totton","addr:unit":"25","disused:shop":"yes"}}, "geometry":{"type":"MultiPolygon","coordinates":[[[[-1.50545,50.93199],[-1.50531,50.93212],[-1.50502,50.93199],[-1.50516,50.93187],[-1.50545,50.93199]]]]}},
{ "type":"Feature","properties":{"osm_way_id":"691684315","building":"warehouse","other":{"addr:city":"Southampton","addr:country":"GB","addr:housename":"South Hampshire Industrial Park","addr:postcode":"SO40 3SA","addr:street":"Eddystone Road","addr:town":"Totton","addr:unit":"26","disused:shop":"yes"}}, "geometry":{"type":"MultiPolygon","coordinates":[[[[-1.50558,50.93187],[-1.50545,50.93199],[-1.50516,50.93187],[-1.50529,50.93174],[-1.50558,50.93187]]]]}},
{ "type":"Feature","properties":{"osm_way_id":"691684317","building":"warehouse","other":{"addr:city":"Southampton","addr:country":"GB","addr:housename":"South Hampshire Industrial Park","addr:postcode":"SO40 3SA","addr:street":"Eddystone Road","addr:town":"Totton","addr:unit":"27","disused:shop":"yes"}}, "geometry":{"type":"MultiPolygon","coordinates":[[[[-1.50572,50.93174],[-1.50558,50.93187],[-1.50529,50.93174],[-1.50543,50.93162],[-1.50572,50.93174]]]]}},
{ "type":"Feature","properties":{"osm_way_id":"691684319","building":"warehouse","other":{"addr:city":"Southampton","addr:country":"GB","addr:housename":"South Hampshire Industrial Park","addr:postcode":"SO40 3SA","addr:street":"Eddystone Road","addr:town":"Totton","addr:unit":"29","disused:shop":"yes"}}, "geometry":{"type":"MultiPolygon","coordinates":[[[[-1.50651,50.9321],[-1.50638,50.93222],[-1.50601,50.93206],[-1.50614,50.93194],[-1.50651,50.9321]]]]}},
{ "type":"Feature","properties":{"osm_way_id":"691684321","building":"warehouse","other":{"addr:city":"Southampton","addr:country":"GB","addr:housename":"South Hampshire Industrial Park","addr:postcode":"SO40 3SA","addr:street":"Eddystone Road","addr:town":"Totton","addr:unit":"28","disused:shop":"yes"}}, "geometry":{"type":"MultiPolygon","coordinates":[[[[-1.50638,50.93222],[-1.50625,50.93234],[-1.50587,50.93218],[-1.50601,50.93206],[-1.50638,50.93222]]]]}},
{ "type":"Feature","properties":{"osm_way_id":"759657986","name":"Harvest Fine Foods","building":"warehouse","craft":"caterer","other":{"addr:city":"Southampton","addr:country":"GB","addr:housename":"South Hampshire Industrial Park","addr:postcode":"SO40 3SA","addr:street":"Brunel Road","addr:town":"Totton","addr:unit":"6,7,8,9","contact:website":"https:\/\/harvestfinefoods.co.uk\/"}}, "geometry":{"type":"MultiPolygon","coordinates":[[[[-1.50718,50.93511],[-1.50665,50.93483],[-1.50687,50.93467],[-1.50709,50.9345],[-1.50731,50.93433],[-1.50753,50.93416],[-1.50765,50.93422],[-1.50807,50.93444],[-1.50785,50.93461],[-1.50763,50.93477],[-1.5074,50.93494],[-1.50718,50.93511]]]]}},
{ "type":"Feature","properties":{"osm_way_id":"760540029","name":"Knowlton and Newman - Electrical and mechanical engineers","building":"warehouse","craft":"electrician","other":{"addr:city":"Southampton","addr:country":"GB","addr:housename":"South Hampshire Industrial Park","addr:postcode":"SO40 3SA","addr:street":"Eddystone Road","addr:town":"Totton","addr:unit":"20,21,22","website":"http:\/\/www.knowlton-newman.co.uk\/"}}, "geometry":{"type":"MultiPolygon","coordinates":[[[[-1.5047,50.93282],[-1.50437,50.93268],[-1.50433,50.93267],[-1.50448,50.93253],[-1.50445,50.93252],[-1.50459,50.93239],[-1.50474,50.93225],[-1.50503,50.93238],[-1.50513,50.93242],[-1.50499,50.93256],[-1.50484,50.93269],[-1.5047,50.93282]]]]}},
{ "type":"Feature","properties":{"osm_way_id":"760540030","name":"Red Box Tools","building":"warehouse","shop":"hardware","other":{"addr:city":"Southampton","addr:country":"GB","addr:housename":"South Hampshire Industrial Park","addr:postcode":"SO40 3SA","addr:street":"Eddystone Road","addr:town":"Totton","addr:unit":"12,13","website":"https:\/\/www.redboxtools.com\/"}}, "geometry":{"type":"MultiPolygon","coordinates":[[[[-1.50587,50.93328],[-1.50608,50.93337],[-1.5063,50.93346],[-1.50659,50.93319],[-1.50637,50.9331],[-1.50617,50.93301],[-1.50587,50.93328]]]]}},
{ "type":"Feature","properties":{"osm_way_id":"832996870","building":"warehouse"},"geometry":{"type":"MultiPolygon","coordinates":[[[[-1.49536,50.90824],[-1.49512,50.90816],[-1.49518,50.90808],[-1.49542,50.90815],[-1.49536,50.90824]]]]}},
{ "type":"Feature","properties":{"osm_way_id":"832996871","building":"warehouse"},"geometry":{"type":"MultiPolygon","coordinates":[[[[-1.49519,50.90849],[-1.49483,50.90838],[-1.49491,50.90827],[-1.49527,50.90837],[-1.49519,50.90849]]]]}},
{ "type":"Feature","properties":{"osm_way_id":"833170185","building":"warehouse"},"geometry":{"type":"MultiPolygon","coordinates":[[[[-1.49154,50.91253],[-1.49139,50.91244],[-1.49166,50.91227],[-1.49176,50.91233],[-1.49159,50.91244],[-1.49164,50.91247],[-1.49154,50.91253]]]]}},
{ "type":"Feature","properties":{"osm_way_id":"942997860","building":"warehouse"},"geometry":{"type":"MultiPolygon","coordinates":[[[[-1.39902,50.86887],[-1.39915,50.86875],[-1.39906,50.86871],[-1.39893,50.86883],[-1.39902,50.86887]]]]}},
{ "type":"Feature","properties":{"osm_way_id":"945849997","building":"warehouse"},"geometry":{"type":"MultiPolygon","coordinates":[[[[-1.39628,50.84907],[-1.39661,50.84897],[-1.39648,50.84879],[-1.3964,50.84881],[-1.39646,50.84889],[-1.39627,50.84895],[-1.39626,50.84893],[-1.39619,50.84895],[-1.39628,50.84907]]]]}},
{ "type":"Feature","properties":{"osm_way_id":"969916296","building":"warehouse"},"geometry":{"type":"MultiPolygon","coordinates":[[[[-3.06292,54.98899],[-3.0628,54.98886],[-3.06248,54.98897],[-3.06268,54.98917],[-3.06285,54.98911],[-3.06299,54.98925],[-3.0637,54.989],[-3.06349,54.98879],[-3.0634,54.98882],[-3.06327,54.98887],[-3.06292,54.98899]]]]}},
{ "type":"Feature","properties":{"osm_way_id":"970455739","building":"warehouse"},"geometry":{"type":"MultiPolygon","coordinates":[[[[-3.0634,54.98882],[-3.06328,54.9887],[-3.06315,54.98875],[-3.06327,54.98887],[-3.0634,54.98882]]]]}}
]
}
