{
"type": "FeatureCollection",
"features": [
{ "type":"Feature","properties":{"osm_id":"672551402","name":"Co-op","other":{"addr:city":"Llanfairfechan","addr:country":"GB","addr:postcode":"LL33 0NH","addr:street":"Village Road","fhrs:authority":"Conwy","fhrs:id":"839657","fhrs:local_authority_id":"108361","operator":"The Co-operative Group","shop":"supermarket"}}, "geometry":{"type":"Point","coordinates":[-3.97753,53.25354 ]}},
{ "type":"Feature","properties":{"osm_id":"2377231574","name":"Heron Foods","other":{"addr:city":"Colwyn Bay","addr:country":"GB","addr:housename":"Bay View Shopping Centre","addr:postcode":"LL29 8DG","addr:street":"Bay View Road","addr:unit":"2","brand":"Heron Foods","brand:wikidata":"Q5743472","brand:wikipedia":"en:Heron Foods","fhrs:id":"852414","shop":"supermarket","website":"https:\/\/heronfoods.com\/store\/colwyn-bay\/"}}, "geometry":{"type":"Point","coordinates":[-3.72402,53.29503 ]}},
{ "type":"Feature","properties":{"osm_id":"4061758975","name":"The Co-operative Food","other":{"addr:city":"Colwyn Bay","addr:country":"GB","addr:postcode":"LL29 9YG","addr:street":"Abergele Road","fhrs:authority":"Conwy","fhrs:id":"449779","fhrs:local_authority_id":"2997","name:cy":"Gorsaf Betrol Colwyn Service Station","name:en":"Co Op (Texaco)","shop":"supermarket"}}, "geometry":{"type":"Point","coordinates":[-3.70364,53.2899 ]}},
{ "type":"Feature","properties":{"osm_id":"4234210358","other":{"amenity":"photo_booth;atm","fee":"no","operator":"Barclays"}}, "geometry":{"type":"Point","coordinates":[-3.72482,53.29542 ]}},
{ "type":"Feature","properties":{"osm_id":"4306653586","name":"Subway;Spar","other":{"addr:city":"Colwyn Bay","addr:country":"GB","addr:housenumber":"12-14","addr:postcode":"LL29 7NN","addr:street":"Abergele Road","amenity":"fast_food","cuisine":"sandwich","fhrs:authority":"Conwy","fhrs:id":"654364","fhrs:local_authority_id":"103532","name:en":"Subway","shop":"supermarket"}}, "geometry":{"type":"Point","coordinates":[-3.72707,53.29475 ]}},
{ "type":"Feature","properties":{"osm_id":"4596587315","name":"Spar","other":{"addr:city":"Llanrwst","addr:country":"GB","addr:postcode":"LL26 0LH","addr:street":"Ancaster Square","brand":"Spar","brand:wikidata":"Q610492","brand:wikipedia":"en:Spar (retailer)","fhrs:authority":"Conwy","fhrs:id":"60777","fhrs:local_authority_id":"13286","name:en":"Spar","shop":"supermarket"}}, "geometry":{"type":"Point","coordinates":[-3.79778,53.13824 ]}},
{ "type":"Feature","properties":{"osm_id":"5266359752","ref":"LL29 89","other":{"amenity":"post_box","indoor":"yes","post_box:mounting":"brick_pillar","post_box:type":"wall","royal_cypher":"EIIR"}}, "geometry":{"type":"Point","coordinates":[-3.72406,53.29523 ]}},
{ "type":"Feature","properties":{"osm_id":"5583259928","name":"Co-op Food","other":{"addr:city":"Abergele","addr:country":"GB","addr:place":"Pensarn","addr:postcode":"LL22 7PR","addr:street":"Marine Road","brand":"Co-op Food","brand:wikidata":"Q3277439","brand:wikipedia":"en:Co-op Food","fhrs:authority":"Conwy","fhrs:id":"862847","fhrs:local_authority_id":"108047","name:en":"Co Op","shop":"supermarket","wheelchair":"yes"}}, "geometry":{"type":"Point","coordinates":[-3.5819,53.29384 ]}},
{ "type":"Feature","properties":{"osm_id":"5897067721","name":"Co-op","other":{"addr:city":"Llandudno","addr:country":"GB","addr:housenumber":"31-33","addr:postcode":"LL30 1YS","addr:street":"Mostyn Avenue","fhrs:authority":"Conwy","fhrs:id":"778648","fhrs:local_authority_id":"1353","name:en":"Co-op","operator":"The Co-operative Group","shop":"supermarket"}}, "geometry":{"type":"Point","coordinates":[-3.81118,53.32063 ]}},
{ "type":"Feature","properties":{"osm_id":"5945051533","name":"Co-op","other":{"addr:city":"Llandudno Junction","addr:country":"GB","addr:postcode":"LL31 9TH","addr:street":"Pentywyn Road","fhrs:authority":"Conwy","fhrs:id":"770991","fhrs:local_authority_id":"107892","name:en":"Co-op","operator":"The Co-operative Group","shop":"supermarket"}}, "geometry":{"type":"Point","coordinates":[-3.8219,53.29109 ]}},
{ "type":"Feature","properties":{"osm_id":"9032659389","name":"Lidl","other":{"addr:country":"GB","addr:postcode":"LL31 9RU","addr:street":"Vale Road","brand":"Lidl","brand:wikidata":"Q151954","brand:wikipedia":"en:Lidl","fhrs:id":"1368746","shop":"supermarket"}}, "geometry":{"type":"Point","coordinates":[-3.8147,53.28499 ]}},
{ "type":"Feature","properties":{"osm_way_id":"56203166","name":"Asda","building":"yes","shop":"supermarket","other":{"addr:city":"Llandudno Junction","addr:country":"GB","addr:postcode":"LL31 9LU","addr:street":"Conway Road","alt_name":"ASDA Llandudno Junction Supermarket","brand":"Asda","brand:wikidata":"Q297410","brand:wikipedia":"en:Asda","contact:facebook":"https:\/\/www.facebook.com\/asda\/","contact:twitter":"@asda","contact:website":"https:\/\/storelocator.asda.com\/wales\/llandudno\/conway-road-llandudno-junction","fhrs:id":"194387","opening_hours":"Mo-Sa 07:00-23:00; Su 10:00-16:00","operator":"Asda Stores Ltd","source:addr:postcode":"FSA Food Hygiene Ratings Database"}}, "geometry":{"type":"MultiPolygon","coordinates":[[[[-3.81157,53.28465],[-3.81104,53.28468],[-3.81102,53.28457],[-3.81099,53.28457],[-3.81097,53.28446],[-3.811,53.28446],[-3.811,53.28444],[-3.81146,53.28441],[-3.81153,53.28441],[-3.81157,53.28465]]]]}},
{ "type":"Feature","properties":{"osm_way_id":"117425960","name":"Tesco","building":"yes","shop":"supermarket","other":{"addr:city":"Abergele","addr:country":"GB","addr:postcode":"LL22 7AA","addr:street":"Market Street","brand":"Tesco","brand:wikidata":"Q487494","brand:wikipedia":"en:Tesco","designation":"Abergele Superstore","fhrs:authority":"Conwy","fhrs:id":"536234","fhrs:local_authority_id":"54140","name:en":"Tesco"}}, "geometry":{"type":"MultiPolygon","coordinates":[[[[-3.58484,53.28634],[-3.58544,53.28618],[-3.58553,53.28616],[-3.58519,53.28568],[-3.58514,53.28561],[-3.58508,53.28562],[-3.58495,53.28544],[-3.58478,53.28548],[-3.58432,53.2856],[-3.58484,53.28634]]]]}},
{ "type":"Feature","properties":{"osm_way_id":"125686515","name":"Co-op Food","building":"yes","shop":"supermarket","other":{"addr:city":"Llandudno","addr:country":"GB","addr:place":"Penrhyn Bay","addr:postcode":"LL30 3NL","addr:street":"Glan-Y-Mor Road","alt_name":"The Co-operative Food","atm":"yes","brand":"Co-op Food","brand:wikidata":"Q3277439","brand:wikipedia":"en:Co-op Food","fhrs:authority":"Conwy","fhrs:id":"54758","fhrs:local_authority_id":"12345","name:en":"Co Op","opening_hours":"Mo-Sa 07:00-22:00; Su 10:00-16:00"}}, "geometry":{"type":"MultiPolygon","coordinates":[[[[-3.77549,53.318],[-3.77563,53.31777],[-3.77531,53.3177],[-3.77523,53.31785],[-3.77532,53.31787],[-3.77526,53.31796],[-3.77549,53.318]]]]}},
{ "type":"Feature","properties":{"osm_way_id":"125693634","name":"Asda","building":"supermarket","shop":"supermarket","other":{"addr:city":"Llandudno","addr:country":"GB","addr:postcode":"LL30 1PJ","addr:street":"Ffordd Conwy","alt_name":"ASDA Llandudno Superstore","atm":"yes","brand":"Asda","brand:wikidata":"Q297410","brand:wikipedia":"en:Asda","contact:facebook":"https:\/\/www.facebook.com\/asda\/","contact:phone":"+44 1492 864300","contact:twitter":"@asda","contact:website":"https:\/\/storelocator.asda.com\/wales\/llandudno\/conway-road","fhrs:authority":"Conwy","fhrs:id":"126600","fhrs:local_authority_id":"55690","name:cy":"Asda Stores","name:en":"Asda","opening_hours":"Mo-Sa 08:00-10:00; Su 10:30-16:30","operator":"Asda Stores Ltd"}}, "geometry":{"type":"MultiPolygon","coordinates":[[[[-3.82404,53.31787],[-3.82312,53.31828],[-3.82328,53.31843],[-3.82316,53.31849],[-3.82352,53.31878],[-3.82341,53.31883],[-3.82357,53.31896],[-3.82369,53.31891],[-3.82387,53.31907],[-3.82493,53.3186],[-3.82467,53.31839],[-3.82482,53.31833],[-3.82483,53.31828],[-3.82468,53.31816],[-3.82481,53.3181],[-3.82447,53.31782],[-3.82415,53.31796],[-3.82404,53.31787]]]]}},
{ "type":"Feature","properties":{"osm_way_id":"140007792","name":"Lidl","building":"supermarket","shop":"supermarket","other":{"addr:city":"Colwyn Bay","addr:country":"GB","addr:postcode":"LL29 7LP","addr:street":"Conway Road","alt_name":"LIDL Colwyn Bay","brand":"Lidl","brand:wikidata":"Q151954","brand:wikipedia":"en:Lidl","fhrs:authority":"Conwy","fhrs:id":"847305","fhrs:local_authority_id":"54083","name:en":"LIDL","opening_hours":"Mo-Sa 08:00-21:00; Su 10:00-16:00"}}, "geometry":{"type":"MultiPolygon","coordinates":[[[[-3.73828,53.29937],[-3.73806,53.29954],[-3.73861,53.29979],[-3.73855,53.29984],[-3.73862,53.29987],[-3.73879,53.29974],[-3.73873,53.29972],[-3.73885,53.29962],[-3.73828,53.29937]]]]}},
{ "type":"Feature","properties":{"osm_way_id":"140119627","name":"ALDI","building":"yes","shop":"supermarket","other":{"addr:city":"Colwyn Bay","addr:country":"GB","addr:housenumber":"394","addr:postcode":"LL29 9LU","addr:street":"Abergele Road","brand":"ALDI","brand:wikidata":"Q41171672","brand:wikipedia":"en:Aldi","fhrs:authority":"Conwy","fhrs:id":"492290","fhrs:local_authority_id":"99281","name:en":"ALDI"}}, "geometry":{"type":"MultiPolygon","coordinates":[[[[-3.69563,53.28843],[-3.69558,53.28842],[-3.69558,53.2884],[-3.69553,53.28839],[-3.69556,53.28834],[-3.69516,53.28827],[-3.69518,53.28822],[-3.69497,53.28818],[-3.69483,53.2885],[-3.69541,53.28858],[-3.69541,53.2886],[-3.69555,53.28862],[-3.69563,53.28843]]]]}},
{ "type":"Feature","properties":{"osm_way_id":"140120162","name":"Asda","building":"yes","shop":"supermarket","other":{"addr:city":"Rhyl","addr:country":"GB","addr:postcode":"LL18 5EQ","addr:street":"St Asaph Avenue","brand":"Asda","brand:wikidata":"Q297410","brand:wikipedia":"en:Asda","contact:facebook":"https:\/\/www.facebook.com\/asda\/","contact:twitter":"@asda","contact:website":"https:\/\/storelocator.asda.com\/wales\/rhyl\/st-asaph-avenue-north-kinmel-bay","fhrs:authority":"Conwy","fhrs:id":"89950","fhrs:local_authority_id":"2428","name:cy":"Archfarchnad Asda Stores","name:en":"ASDA","operator":"Asda Stores Ltd","wheelchair":"yes"}}, "geometry":{"type":"MultiPolygon","coordinates":[[[[-3.52173,53.31085],[-3.52115,53.31108],[-3.52111,53.31105],[-3.52088,53.31115],[-3.52173,53.31189],[-3.52195,53.3118],[-3.52191,53.31177],[-3.52222,53.31164],[-3.52224,53.31166],[-3.52247,53.31157],[-3.52245,53.31154],[-3.52268,53.31145],[-3.52313,53.31126],[-3.52306,53.31119],[-3.52275,53.31132],[-3.52269,53.31127],[-3.52256,53.31133],[-3.52229,53.3111],[-3.5221,53.31117],[-3.52182,53.31093],[-3.52173,53.31085]]]]}},
{ "type":"Feature","properties":{"osm_way_id":"140332997","name":"Tesco","building":"yes","shop":"supermarket","other":{"addr:city":"Llandudno Junction","addr:country":"GB","addr:postcode":"LL31 9XY","addr:street":"6G Road","alt_name":"Tesco Llandudno Junction Superstore","brand":"Tesco","brand:wikidata":"Q487494","brand:wikipedia":"en:Tesco","fhrs:authority":"Conwy","fhrs:id":"58808","fhrs:local_authority_id":"13023","name:en":"Tesco","opening_hours":"Mo 06:00-24:00; Tu-Fr 00:00-24:00; Sa 00:00-22:00; Su 10:00-16:00"}}, "geometry":{"type":"MultiPolygon","coordinates":[[[[-3.81325,53.28286],[-3.81319,53.2829],[-3.8131,53.28285],[-3.81271,53.2831],[-3.81269,53.28309],[-3.81258,53.28317],[-3.8126,53.28318],[-3.81255,53.28321],[-3.81278,53.28334],[-3.81281,53.28332],[-3.81331,53.28359],[-3.81329,53.2836],[-3.81336,53.28364],[-3.81358,53.2835],[-3.81365,53.28354],[-3.81371,53.2835],[-3.81374,53.28352],[-3.81394,53.28339],[-3.81398,53.28341],[-3.81426,53.28322],[-3.81398,53.28306],[-3.81387,53.28313],[-3.81355,53.28296],[-3.81349,53.28299],[-3.81325,53.28286]]]]}},
{ "type":"Feature","properties":{"osm_way_id":"170422347","name":"Asda","building":"yes","shop":"supermarket","other":{"addr:city":"Oldbury","addr:country":"GB","addr:postcode":"B68 0PH","addr:street":"Hagley Road West","brand":"Asda","brand:wikidata":"Q297410","brand:wikipedia":"en:Asda","contact:facebook":"https:\/\/www.facebook.com\/asda\/","contact:twitter":"@asda","contact:website":"https:\/\/storelocator.asda.com\/west-midlands\/birmingham\/hagley-road-west-quinton","fhrs:id":"189935","operator":"Asda Stores Ltd"}}, "geometry":{"type":"MultiPolygon","coordinates":[[[[-2.01266,52.4626],[-2.01209,52.4627],[-2.01232,52.46315],[-2.01264,52.46308],[-2.01256,52.46289],[-2.0128,52.46283],[-2.01266,52.4626]]]]}},
{ "type":"Feature","properties":{"osm_way_id":"230387538","name":"Co-op Food","building":"yes","shop":"supermarket","other":{"addr:city":"Llanrwst","addr:country":"GB","addr:postcode":"LL26 0AG","addr:street":"Plough Street","brand":"Co-op Food","brand:wikidata":"Q3277439","brand:wikipedia":"en:Co-op Food","fhrs:authority":"Conwy","fhrs:id":"40552","fhrs:local_authority_id":"101393","name:en":"Co op","opening_hours":"Mo-Sa 06:00-23:00; Su 10:00-16:00"}}, "geometry":{"type":"MultiPolygon","coordinates":[[[[-3.79808,53.13968],[-3.79778,53.1393],[-3.79794,53.13925],[-3.79796,53.13928],[-3.7982,53.13922],[-3.79827,53.1393],[-3.79836,53.13928],[-3.79855,53.1395],[-3.79847,53.13953],[-3.7985,53.13956],[-3.79808,53.13968]]]]}},
{ "type":"Feature","properties":{"osm_way_id":"304024770","name":"ALDI","building":"retail","shop":"supermarket","other":{"addr:city":"Llandudno","addr:country":"GB","addr:postcode":"LL30 1RY","addr:street":"Charlotte Road","alt_name":"ALDI Llandudno","brand":"ALDI","brand:wikidata":"Q41171672","brand:wikipedia":"en:Aldi","fhrs:authority":"Conwy","fhrs:id":"516976","fhrs:local_authority_id":"12344","name:cy":"Archfarchnad Aldi","name:en":"Aldi"}}, "geometry":{"type":"MultiPolygon","coordinates":[[[[-3.81852,53.31805],[-3.81873,53.31786],[-3.81868,53.31784],[-3.81874,53.31779],[-3.81885,53.31783],[-3.81879,53.31788],[-3.81929,53.31808],[-3.81908,53.31827],[-3.81901,53.31824],[-3.81852,53.31805]]]]}},
{ "type":"Feature","properties":{"osm_way_id":"400016727","name":"Co-op Food","building":"yes","shop":"supermarket","other":{"addr:city":"Colwyn Bay","addr:country":"GB","addr:housenumber":"19","addr:postcode":"LL29 9PN","addr:street":"Cefn Road","brand":"Co-op Food","brand:wikidata":"Q3277439","brand:wikipedia":"en:Co-op Food","fhrs:authority":"Conwy","fhrs:id":"492281","fhrs:local_authority_id":"3098","name:en":"Co Op"}}, "geometry":{"type":"MultiPolygon","coordinates":[[[[-3.6991,53.28967],[-3.69884,53.28962],[-3.69883,53.28961],[-3.69873,53.28959],[-3.69864,53.28976],[-3.69876,53.28977],[-3.69877,53.28976],[-3.69903,53.28981],[-3.69909,53.28974],[-3.6991,53.28967]]]]}},
{ "type":"Feature","properties":{"osm_way_id":"426012437","name":"Spar","building":"yes","shop":"supermarket","other":{"addr:city":"Penmaenmawr","addr:country":"GB","addr:postcode":"LL34 6DA","addr:street":"Bangor Road","brand":"Spar","brand:wikidata":"Q610492","fhrs:authority":"Conwy","fhrs:id":"61171","fhrs:local_authority_id":"13401","name:en":"Spar"}}, "geometry":{"type":"MultiPolygon","coordinates":[[[[-3.92253,53.26815],[-3.92232,53.26816],[-3.92232,53.26799],[-3.92244,53.26799],[-3.92244,53.26804],[-3.92253,53.26808],[-3.92253,53.26815]]]]}},
{ "type":"Feature","properties":{"osm_way_id":"440460948","name":"The Co-operative Food","building":"yes","shop":"supermarket","other":{"addr:city":"Colwyn Bay","addr:country":"GB","addr:housenumber":"10","addr:place":"Rhos On Sea","addr:postcode":"LL28 4RD","addr:street":"Penrhyn Avenue","fhrs:authority":"Conwy","fhrs:local_authority_id":"3267","name:en":"Co Op","old_fhrs:id":"194393","opening_hours":"Mo-Su 06:00-22:00"}}, "geometry":{"type":"MultiPolygon","coordinates":[[[[-3.74008,53.3104],[-3.74035,53.31011],[-3.74022,53.31007],[-3.74013,53.31017],[-3.73995,53.31036],[-3.74008,53.3104]]]]}},
{ "type":"Feature","properties":{"osm_way_id":"440460949","name":"Spar","building":"yes","shop":"supermarket","other":{"addr:city":"Colwyn Bay","addr:country":"GB","addr:housenumber":"37","addr:place":"Rhos On Sea","addr:postcode":"LL28 4RB","addr:street":"Colwyn Avenue","atm":"yes","brand":"Spar","brand:wikidata":"Q610492","brand:wikipedia":"en:Spar (retailer)","old_fhrs:id":"442753","opening_hours":"Mo-Su 06:30-23:00"}}, "geometry":{"type":"MultiPolygon","coordinates":[[[[-3.7413,53.30974],[-3.74126,53.3097],[-3.741,53.3098],[-3.74112,53.30991],[-3.7412,53.30988],[-3.74122,53.30989],[-3.7415,53.30979],[-3.74141,53.3097],[-3.7413,53.30974]]]]}},
{ "type":"Feature","properties":{"osm_way_id":"522985856","name":"Co-op Food","building":"yes","shop":"supermarket","other":{"addr:city":"Colwyn Bay","addr:country":"GB","addr:housenumber":"35","addr:place":"Rhos On Sea","addr:postcode":"LL28 4EX","addr:street":"Llandudno Road","brand":"Co-op Food","brand:wikidata":"Q3277439","brand:wikipedia":"en:Co-op Food","fhrs:authority":"Conwy","fhrs:id":"934191","fhrs:local_authority_id":"109611","name:en":"CoOp"}}, "geometry":{"type":"MultiPolygon","coordinates":[[[[-3.75588,53.30835],[-3.75601,53.3084],[-3.7561,53.30831],[-3.75608,53.3083],[-3.75619,53.30818],[-3.75607,53.30814],[-3.75588,53.30835]]]]}},
{ "type":"Feature","properties":{"osm_way_id":"544842876","name":"Morrisons","building":"supermarket","shop":"supermarket","other":{"addr:city":"Colwyn Bay","addr:country":"GB","addr:postcode":"LL29 8DG","addr:street":"Sea View Road","alt_name":"Morrisons Colwyn Bay","brand":"Morrisons","brand:wikidata":"Q922344","brand:wikipedia":"en:Morrisons","fhrs:authority":"Conwy","fhrs:id":"121420","fhrs:local_authority_id":"5014","name:en":"Morrisons","opening_hours":"Mo-Fr 08:00-19:00; Sa 07:00-19:00; Su 10:00-16:00"}}, "geometry":{"type":"MultiPolygon","coordinates":[[[[-3.72512,53.29501],[-3.72482,53.29542],[-3.72406,53.29523],[-3.72436,53.29482],[-3.72512,53.29501]]]]}}
]
}
