{
"type": "FeatureCollection",
"features": [
{ "type":"Feature","properties":{"osm_id":"459635531","name":"Londis","other":{"shop":"supermarket"}}, "geometry":{"type":"Point","coordinates":[0.23746,51.5586 ]}},
{ "type":"Feature","properties":{"osm_id":"1229980097","name":"Co-op Food","other":{"addr:city":"Southwold","addr:housenumber":"2","addr:postcode":"IP18 6EE","addr:street":"Market Place","brand":"Co-op Food","brand:wikidata":"Q3277439","brand:wikipedia":"en:Co-op Food","fhrs:id":"1074443","shop":"supermarket","source:addr":"FHRS Open Data"}}, "geometry":{"type":"Point","coordinates":[1.67914,52.32629 ]}},
{ "type":"Feature","properties":{"osm_id":"1729269516","name":"Costcutter","other":{"addr:city":"Woodbridge","addr:postcode":"IP12 2GG","addr:street":"Walnut Tree Avenue","addr:village":"Rendlesham","amenity":"post_office","fhrs:id":"659158","opening_hours:post_office":"Mo,We-Fr 09:00-17:30; Tu 09:00-19:00; Sa 09:00-12:30","ref:pol_id":"5191","shop":"supermarket","source:addr":"FSA Food Hygiene Ratings Database","source:opening_hours:post_office":"pol_branch_list_2018-01"}}, "geometry":{"type":"Point","coordinates":[1.41478,52.13011 ]}},
{ "type":"Feature","properties":{"osm_id":"1957170020","name":"Co-op","other":{"addr:city":"Felixstowe","addr:housenumber":"221","addr:place":"Walton","addr:postcode":"IP11 9BQ","addr:street":"High Street","fhrs:id":"659444","shop":"supermarket","source:addr":"FHRS Open Data"}}, "geometry":{"type":"Point","coordinates":[1.34086,51.97124 ]}},
{ "type":"Feature","properties":{"osm_id":"3652263772","name":"Family Camping Tuck Shop","other":{"shop":"supermarket"}}, "geometry":{"type":"Point","coordinates":[1.59114,52.33706 ]}},
{ "type":"Feature","properties":{"osm_id":"4796403309","other":{"emergency":"defibrillator"}}, "geometry":{"type":"Point","coordinates":[1.59203,52.15704 ]}},
{ "type":"Feature","properties":{"osm_id":"5523666245","name":"Lidl","other":{"addr:city":"Felixstowe","addr:postcode":"IP11 2QE","addr:street":"Haven Exchange South","brand":"Lidl","brand:wikidata":"Q151954","brand:wikipedia":"en:Lidl","currency:GBP":"yes","fhrs:id":"1025343","opening_hours":"Mo-Sa 08:00-21:00; Su 10:00-16:00","operator":"Lidl","shop":"supermarket","source:addr":"FHRS Open Data","website":"https:\/\/lidl.co.uk"}}, "geometry":{"type":"Point","coordinates":[1.32876,51.95581 ]}},
{ "type":"Feature","properties":{"osm_id":"7101060430","man_made":"surveillance","other":{"surveillance:type":"camera"}}, "geometry":{"type":"Point","coordinates":[1.20634,52.03633 ]}},
{ "type":"Feature","properties":{"osm_id":"7995375625","name":"Co-op Food","other":{"addr:city":"Woodbridge","addr:housenumber":"3","addr:parentstreet":"Thoroughfare","addr:postcode":"IP12 1AA","addr:street":"The Turban","alt_name":"Co-op Woodbridge","brand":"Co-op Food","brand:wikidata":"Q3277439","brand:wikipedia":"en:Co-op Food","fhrs:id":"659425","opening_hours":"Mo-Sa 07:00-21:00, Su 10:00-16:00","operator":"The Co-operative Group","operator:wikidata":"Q117202","operator:wikipedia":"en:The Co-operative Group","shop":"supermarket"}}, "geometry":{"type":"Point","coordinates":[1.32019,52.09322 ]}},
{ "type":"Feature","properties":{"osm_id":"8361740725","man_made":"mast"},"geometry":{"type":"Point","coordinates":[-2.95967,58.95296 ]}},
{ "type":"Feature","properties":{"osm_id":"8599976687","other":{"defibrillator:location":"On exterior wall of Coop store, just to the right of the main entrance.","emergency":"defibrillator"}}, "geometry":{"type":"Point","coordinates":[1.56987,52.44922 ]}},
{ "type":"Feature","properties":{"osm_way_id":"23135920","name":"Sainsbury's","building":"retail","shop":"supermarket","other":{"addr:city":"Ipswich","addr:postcode":"IP3 8TQ","addr:street":"Felixstowe Road","alt_name":"Sainsbury's Warren Heath Superstore","brand":"Sainsbury's","brand:wikidata":"Q152096","brand:wikipedia":"en:Sainsbury's","contact:website":"https:\/\/stores.sainsburys.co.uk\/0408\/warren-heath","fhrs:id":"659570","nohousenumber":"yes","opening_hours":"Mo-Sa 07:00-22:00; Su 10:00-16:00","opening_hours:url":"https:\/\/stores.sainsburys.co.uk\/0408\/warren-heath"}}, "geometry":{"type":"MultiPolygon","coordinates":[[[[1.20494,52.03651],[1.20526,52.037],[1.20544,52.03705],[1.2055,52.03703],[1.20553,52.03708],[1.20578,52.03702],[1.20603,52.0374],[1.2069,52.03718],[1.20668,52.03684],[1.2068,52.03682],[1.20674,52.03673],[1.20668,52.03675],[1.20662,52.03676],[1.20634,52.03633],[1.20624,52.03619],[1.20613,52.03621],[1.20611,52.03618],[1.20596,52.03622],[1.20598,52.03625],[1.20558,52.03635],[1.20556,52.03632],[1.20534,52.03638],[1.20535,52.03641],[1.20494,52.03651]]]]}},
{ "type":"Feature","properties":{"osm_way_id":"26505418","name":"Asda","shop":"supermarket","other":{"addr:city":"Feltham","addr:country":"GB","addr:housenumber":"4","addr:postcode":"TW13 4BB","addr:street":"Tilley Road","brand":"Asda","brand:wikidata":"Q297410","brand:wikipedia":"en:Asda","building:part":"retail","contact:facebook":"https:\/\/www.facebook.com\/asda\/","contact:twitter":"@asda","contact:website":"https:\/\/storelocator.asda.com\/london\/feltham\/tilley-road","fhrs:id":"490345","fhrs:local_authority_id":"22883","level":"0","operator":"Asda Stores Ltd","wheelchair":"yes"}}, "geometry":{"type":"MultiPolygon","coordinates":[[[[-0.41291,51.44693],[-0.41282,51.44677],[-0.41277,51.4467],[-0.41269,51.44656],[-0.41262,51.44644],[-0.41253,51.4463],[-0.41252,51.44627],[-0.41172,51.44646],[-0.41167,51.44638],[-0.41143,51.44644],[-0.4114,51.44649],[-0.41142,51.44654],[-0.41133,51.44657],[-0.41147,51.44674],[-0.41151,51.44679],[-0.41153,51.44683],[-0.41152,51.44683],[-0.41172,51.44713],[-0.41186,51.44709],[-0.4119,51.44717],[-0.41205,51.44714],[-0.41286,51.44695],[-0.41291,51.44693]]]]}},
{ "type":"Feature","properties":{"osm_way_id":"26706502","name":"Asda","building":"yes","shop":"supermarket","other":{"addr:city":"Coatbridge","addr:postcode":"ML5 3BU","addr:street":"Main Street","brand":"Asda","brand:wikidata":"Q297410","brand:wikipedia":"en:Asda","building:cladding":"brick","building:roof":"metal","building:use":"retail","contact:facebook":"https:\/\/www.facebook.com\/asda\/","contact:twitter":"@asda","contact:website":"https:\/\/storelocator.asda.com\/scotland\/coatbridge\/main-street","fhrs:id":"614991","height":"16 m","opening_hours":"24\/7","operator":"Asda Stores Ltd","roof:shape":"flat","wheelchair":"yes"}}, "geometry":{"type":"MultiPolygon","coordinates":[[[[-4.02542,55.8612],[-4.0264,55.86139],[-4.0263,55.86153],[-4.02639,55.86155],[-4.02607,55.86212],[-4.02499,55.86192],[-4.02522,55.86151],[-4.02521,55.86148],[-4.02427,55.8613],[-4.02441,55.86106],[-4.02506,55.86116],[-4.02502,55.86121],[-4.02537,55.86128],[-4.02542,55.8612]]]]}},
{ "type":"Feature","properties":{"osm_way_id":"28282990","name":"Waitrose","building":"yes","shop":"supermarket","other":{"addr:city":"Saxmundham","addr:postcode":"IP17 1EP","addr:street":"Church Street","branch":"Saxmundham","brand":"Waitrose","brand:wikidata":"Q771734","brand:wikipedia":"en:Waitrose & Partners","fhrs:id":"659679","fixme:addr3":"Saxmundham","official_name":"Waitrose & Partners","opening_hours":"Mo-Fr 08:00-21:00; Sa 08:00-20:00; Su 10:00-16:00","operator":"Waitrose & Partners"}}, "geometry":{"type":"MultiPolygon","coordinates":[[[[1.49297,52.21394],[1.49299,52.21407],[1.49301,52.21415],[1.49305,52.21427],[1.49308,52.21436],[1.4931,52.21436],[1.49312,52.2144],[1.49315,52.21439],[1.49316,52.21441],[1.49378,52.21431],[1.49375,52.21425],[1.49372,52.21425],[1.49369,52.21417],[1.49376,52.21416],[1.49373,52.21408],[1.49367,52.2139],[1.49326,52.21396],[1.49324,52.2139],[1.49297,52.21394]]]]}},
{ "type":"Feature","properties":{"osm_way_id":"28511741","name":"Morrisons","building":"yes","shop":"supermarket","other":{"addr:city":"Norwich","addr:country":"GB","addr:housenumber":"18","addr:postcode":"NR33 7NG","addr:street":"Tower Road","brand":"Morrisons","brand:wikidata":"Q922344","brand:wikipedia":"en:Morrisons"}}, "geometry":{"type":"MultiPolygon","coordinates":[[[[1.72194,52.4425],[1.72163,52.44293],[1.72142,52.44299],[1.72134,52.44311],[1.72064,52.44294],[1.72071,52.44283],[1.7205,52.44278],[1.72078,52.44235],[1.72125,52.44246],[1.72139,52.44238],[1.72194,52.4425]]]]}},
{ "type":"Feature","properties":{"osm_way_id":"67240658","name":"Morrisons","building":"retail","shop":"supermarket","other":{"addr:city":"Felixstowe","addr:country":"GB","addr:postcode":"IP11 2XD","addr:street":"Grange Farm Avenue","alt_name":"Morrions Felixstowe","brand":"Morrisons","brand:wikidata":"Q922344","brand:wikipedia":"en:Morrisons","delivery":"yes","fhrs:id":"659506","opening_hours":"Mo-Sa 06:00-21:00; Su 10:00-16:00","takeaway":"yes","website":"https:\/\/my.morrisons.com\/storefinder\/283"}}, "geometry":{"type":"MultiPolygon","coordinates":[[[[1.32804,51.96498],[1.32799,51.96501],[1.32768,51.96486],[1.32754,51.9648],[1.32749,51.9648],[1.3274,51.96486],[1.3271,51.96512],[1.32707,51.9651],[1.32699,51.96516],[1.32694,51.96521],[1.32705,51.96526],[1.32685,51.96543],[1.32685,51.96547],[1.32698,51.96552],[1.32714,51.96536],[1.32714,51.96533],[1.32759,51.96551],[1.32766,51.96545],[1.32776,51.9655],[1.32782,51.96545],[1.32811,51.96517],[1.32814,51.96519],[1.3282,51.96514],[1.32822,51.96512],[1.32824,51.9651],[1.32824,51.96509],[1.32823,51.96506],[1.3282,51.96505],[1.32816,51.96503],[1.3281,51.965],[1.32804,51.96498]]]]}},
{ "type":"Feature","properties":{"osm_way_id":"93184262","name":"Darsham Hamper (Co-op)","building":"yes","shop":"supermarket"},"geometry":{"type":"MultiPolygon","coordinates":[[[[1.54209,52.29015],[1.54222,52.29009],[1.54215,52.29003],[1.54218,52.29002],[1.54215,52.28998],[1.5421,52.28993],[1.54207,52.28995],[1.54204,52.28992],[1.5419,52.28999],[1.54209,52.29015]]]]}},
{ "type":"Feature","properties":{"osm_way_id":"107185000","name":"Co-op Food","building":"yes","shop":"supermarket","other":{"addr:postcode":"IP19 8LU","addr:street":"Saxons Way","brand":"Co-op Food","brand:wikidata":"Q3277439","brand:wikipedia":"en:Co-op Food","fhrs:id":"1074396","operator":"Central England Co-operative Society"}}, "geometry":{"type":"MultiPolygon","coordinates":[[[[1.50237,52.34073],[1.50243,52.34069],[1.50239,52.34065],[1.50252,52.34058],[1.50257,52.34061],[1.50263,52.34058],[1.5026,52.34056],[1.50275,52.34049],[1.50295,52.34062],[1.50291,52.34063],[1.50321,52.34084],[1.50301,52.34096],[1.50303,52.34097],[1.50299,52.34099],[1.50304,52.34103],[1.50292,52.34109],[1.50287,52.34105],[1.50283,52.34107],[1.5028,52.34105],[1.50277,52.34106],[1.50267,52.341],[1.5027,52.34098],[1.50266,52.34096],[1.50268,52.34095],[1.50237,52.34073]]]]}},
{ "type":"Feature","properties":{"osm_way_id":"136981187","name":"East of England CO-OP","building":"supermarket","shop":"supermarket","other":{"addr:city":"Leiston","addr:housenumber":"25,27,29","addr:street":"Sizewell Road","brand":"East of England CO-OP","brand:wikidata":"Q5329759","brand:wikipedia":"en:East of England Co-operative Society","building:use":"retail","fhrs:id":"659555","not:addr:postcode":"IP16 4AE","operator":"East of England Co-operative Society","operator:wikidata":"Q5329759","operator:wikipedia":"en:East of England Co-operative Society","source:addr:postcode":"FSA Food Hygiene Ratings Database","website":"https:\/\/www.eastofengland.coop\/supermarket\/leiston"}}, "geometry":{"type":"MultiPolygon","coordinates":[[[[1.57851,52.20645],[1.5785,52.20657],[1.57886,52.20659],[1.57885,52.20662],[1.57909,52.20663],[1.57925,52.20654],[1.57926,52.20648],[1.57931,52.20649],[1.57932,52.20643],[1.57928,52.20643],[1.57929,52.20634],[1.57923,52.20626],[1.57861,52.20622],[1.57861,52.20624],[1.57809,52.20622],[1.57807,52.20638],[1.57826,52.20638],[1.57825,52.20641],[1.57835,52.20641],[1.57835,52.20644],[1.57851,52.20645]]]]}},
{ "type":"Feature","properties":{"osm_way_id":"141048577","name":"Tesco","building":"yes","shop":"supermarket","other":{"addr:city":"Beccles","addr:country":"GB","addr:postcode":"NR34 9EJ","addr:street":"George Westwood Way","alt_name":"Tesco Beccles Superstore","brand":"Tesco","brand:website":"https:\/\/www.tesco.com\/","brand:wikidata":"Q487494","brand:wikipedia":"en:Tesco","fhrs:id":"1074297","opening_hours":"Mo-Sa 06:00-24:00; Su 10:00-16:00","operator":"Tesco Stores Ltd","phone":"+44","source:addr:postcode":"FSA Food Hygiene Ratings Database","toilets:wheelchair":"yes","website":"https:\/\/www.tesco.com\/store-locator\/beccles\/george-westwood-way","wheelchair":"yes"}}, "geometry":{"type":"MultiPolygon","coordinates":[[[[1.56611,52.45916],[1.56608,52.45937],[1.56618,52.45937],[1.56617,52.45943],[1.56633,52.45943],[1.56632,52.45951],[1.5663,52.45951],[1.56629,52.45956],[1.56623,52.45955],[1.56622,52.45966],[1.56574,52.45964],[1.56573,52.45966],[1.56555,52.45965],[1.56555,52.45963],[1.56473,52.45959],[1.56472,52.45962],[1.56454,52.45961],[1.5646,52.45914],[1.56461,52.45911],[1.56463,52.45909],[1.56465,52.4591],[1.56469,52.45907],[1.56472,52.45906],[1.56477,52.45905],[1.56483,52.45906],[1.56488,52.45908],[1.56491,52.4591],[1.56611,52.45916]]]]}},
{ "type":"Feature","properties":{"osm_way_id":"142781295","name":"Morrisons","building":"yes","shop":"supermarket","other":{"addr:city":"Beccles","addr:country":"GB","addr:postcode":"NR34 9EJ","addr:street":"George Westwood Way","alt_name":"Morrisons Beccles","brand":"Morrisons","brand:wikidata":"Q922344","brand:wikipedia":"en:Morrisons","fhrs:id":"1074559","opening_hours":"Mo-Sa 07:00-21:00; Su 10:00-16:00","phone":"+44 1502 717667","website":"https:\/\/my.morrisons.com\/storefinder\/275"}}, "geometry":{"type":"MultiPolygon","coordinates":[[[[1.57229,52.46394],[1.57229,52.46396],[1.57245,52.46396],[1.57246,52.46384],[1.57244,52.46384],[1.57247,52.46337],[1.57166,52.46335],[1.57166,52.46345],[1.57158,52.46345],[1.57156,52.46373],[1.57143,52.46373],[1.57142,52.46391],[1.57151,52.46397],[1.57187,52.46398],[1.57188,52.46393],[1.57229,52.46394]]]]}},
{ "type":"Feature","properties":{"osm_way_id":"143389781","name":"Asda","building":"yes","shop":"supermarket","other":{"addr:city":"Lowestoft","addr:country":"GB","addr:postcode":"NR33 0PX","addr:street":"Belvedere Road","alt_name":"ASDA Lowestoft Superstore","brand":"Asda","brand:wikidata":"Q297410","brand:wikipedia":"en:Asda","contact:facebook":"https:\/\/www.facebook.com\/asda\/","contact:phone":"+44 1502 534200","contact:twitter":"@asda","contact:website":"https:\/\/storelocator.asda.com\/east-of-england\/lowestoft\/belvedere-road-off-horn-hill","opening_hours":"Mo-Sa 07:00-22:00; Su 10:00-16:00","opening_hours:covid19":"Mo-Sa 08:00-22:00; Su 10:00-16:00","operator":"Asda Stores Ltd"}}, "geometry":{"type":"MultiPolygon","coordinates":[[[[1.74123,52.47136],[1.74125,52.47156],[1.74136,52.47155],[1.74138,52.47176],[1.74128,52.47176],[1.74131,52.47209],[1.74117,52.47209],[1.74118,52.47215],[1.7401,52.47219],[1.74009,52.47204],[1.73984,52.47204],[1.73983,52.47161],[1.74005,52.47161],[1.74003,52.47139],[1.74083,52.47136],[1.74083,52.47134],[1.74112,52.47133],[1.74112,52.47136],[1.74123,52.47136]]]]}},
{ "type":"Feature","properties":{"osm_way_id":"154489762","name":"Co-op Food","building":"shop","shop":"supermarket","other":{"addr:city":"Beccles","addr:postcode":"NR34 9JD","addr:street":"Swine's Green","brand":"Co-op Daily","brand:wikidata":"Q3277439","brand:wikipedia":"en:Co-op Food","fhrs:id":"1074345","source:addr":"FHRS Open Data"}}, "geometry":{"type":"MultiPolygon","coordinates":[[[[1.56982,52.44939],[1.56983,52.44924],[1.56987,52.44922],[1.56987,52.44922],[1.56998,52.44922],[1.56998,52.44925],[1.57004,52.44925],[1.57003,52.4494],[1.56982,52.44939]]]]}},
{ "type":"Feature","properties":{"osm_way_id":"154509104","name":"Co-op Food","building":"yes","shop":"supermarket","other":{"addr:city":"Suffolk","addr:postcode":"NR35 1RX","addr:street":"Hillside Road East","brand":"Co-op Food","brand:wikidata":"Q3277439","brand:wikipedia":"en:Co-op Food","fhrs:id":"1074365","operator":"Central England Co-operative Society","wheelchair":"yes"}}, "geometry":{"type":"MultiPolygon","coordinates":[[[[1.44919,52.45081],[1.44973,52.45041],[1.45015,52.45062],[1.44961,52.45102],[1.44919,52.45081]]]]}},
{ "type":"Feature","properties":{"osm_way_id":"163494068","name":"Tesco","building":"yes","shop":"supermarket","other":{"addr:city":"Saxmundham","addr:housenumber":"1","addr:postcode":"IP17 1EP","addr:street":"Church Street","branch":"Saxmundham Superstore","brand":"Tesco","brand:wikidata":"Q487494","brand:wikipedia":"en:Tesco","fhrs:id":"660168","opening_hours":"Mo-Sa 08:00-22:00; Su 11:00-17:00","operator":"Tesco Stores Ltd","start_date":"2012-05-23"}}, "geometry":{"type":"MultiPolygon","coordinates":[[[[1.49213,52.21353],[1.49269,52.21345],[1.49249,52.2129],[1.49223,52.21295],[1.492,52.21321],[1.49213,52.21353]]]]}},
{ "type":"Feature","properties":{"osm_way_id":"173428418","name":"The Co-operative Food","building":"supermarket","shop":"supermarket","other":{"addr:city":"Woodbridge","addr:postcode":"IP13 9AN","addr:street":"Market Hill","addr:town":"Framlingham","fhrs:id":"660243","opening_hours":"Mo-Sa 07:00-21:00; Su 10:00-16:00","operator":"East of England Co-operative Society"}}, "geometry":{"type":"MultiPolygon","coordinates":[[[[1.34229,52.22193],[1.34229,52.22186],[1.34234,52.22183],[1.3424,52.22183],[1.3424,52.22182],[1.34258,52.22182],[1.34258,52.22184],[1.34282,52.22185],[1.34294,52.22185],[1.34293,52.22201],[1.3429,52.222],[1.3429,52.22204],[1.3429,52.2221],[1.34274,52.2221],[1.34274,52.22215],[1.34253,52.22215],[1.34253,52.2221],[1.34238,52.2221],[1.34238,52.22193],[1.34229,52.22193]]]]}},
{ "type":"Feature","properties":{"osm_way_id":"191633614","name":"Morrisons","building":"yes","shop":"supermarket","other":{"addr:city":"Pinchbeck","addr:country":"GB","addr:postcode":"PE11 3UG","addr:street":"Wardentree Lane","brand":"Morrisons","brand:wikidata":"Q922344","brand:wikipedia":"en:Morrisons","designation":"Spalding-Pinchbeck","fhrs:id":"243177"}}, "geometry":{"type":"MultiPolygon","coordinates":[[[[-0.14267,52.80731],[-0.14296,52.80776],[-0.14282,52.80797],[-0.14243,52.80788],[-0.14153,52.80809],[-0.14135,52.80781],[-0.1415,52.80777],[-0.1414,52.80762],[-0.14149,52.8076],[-0.14145,52.80754],[-0.14246,52.80728],[-0.14251,52.80735],[-0.14267,52.80731]]]]}},
{ "type":"Feature","properties":{"osm_way_id":"201157695","name":"Tesco Extra","building":"yes","shop":"supermarket","other":{"addr:city":"Ipswich","addr:housenumber":"126","addr:locality":"Martlesham Heath","addr:postcode":"IP5 3RU","addr:street":"Anson Road","addr:town":"Martlesham","brand":"Tesco Extra","brand:wikidata":"Q25172225","brand:wikipedia":"en:Tesco Extra","fhrs:id":"659459","operator":"Tesco Stores Ltd","pharmacy":"yes","source:addr":"FHRS Open Data"}}, "geometry":{"type":"MultiPolygon","coordinates":[[[[1.27693,52.06648],[1.27714,52.06639],[1.27719,52.06643],[1.27737,52.06636],[1.27743,52.06643],[1.27798,52.06621],[1.27802,52.06625],[1.27816,52.06619],[1.27842,52.06644],[1.27858,52.06659],[1.27857,52.0666],[1.27862,52.06665],[1.2787,52.06672],[1.27881,52.06683],[1.27882,52.06682],[1.27889,52.06689],[1.27893,52.06688],[1.27893,52.06689],[1.27896,52.06691],[1.27834,52.06716],[1.27828,52.06719],[1.27825,52.06717],[1.27819,52.06719],[1.27816,52.06716],[1.2778,52.0673],[1.27768,52.06719],[1.27763,52.06721],[1.27735,52.06694],[1.27732,52.06696],[1.27728,52.06692],[1.2772,52.06684],[1.27716,52.06681],[1.2772,52.06679],[1.27708,52.06669],[1.27713,52.06667],[1.27693,52.06648]]]]}},
{ "type":"Feature","properties":{"osm_way_id":"201162297","name":"Co-op Food","building":"yes","shop":"supermarket","other":{"addr:housenumber":"1","addr:postcode":"IP12 4JT","addr:street":"Hasketon Road","branch":"Daily","brand":"Co-op Food","brand:wikidata":"Q3277439","brand:wikipedia":"en:Co-op Food","fhrs:id":"659912","operator":"The Co-operative Group","operator:wikidata":"Q117202","operator:wikipedia":"en:The Co-operative Group","wheelchair":"yes"}}, "geometry":{"type":"MultiPolygon","coordinates":[[[[1.30272,52.09692],[1.30294,52.09704],[1.30297,52.09701],[1.30307,52.09694],[1.30299,52.09689],[1.30288,52.09689],[1.30283,52.09693],[1.30281,52.09691],[1.30278,52.09692],[1.30275,52.09691],[1.30272,52.09692]]]]}},
{ "type":"Feature","properties":{"osm_way_id":"206145280","name":"Tesco Metro","building":"retail","shop":"supermarket","other":{"addr:city":"Felixstowe","addr:housenumber":"88","addr:postcode":"IP11 7AD","addr:street":"Hamilton Road","alt_name":"Tesco Felixstowe Metro","brand":"Tesco Metro","brand:wikidata":"Q57551648","brand:wikipedia":"en:Tesco","building:levels":"3","fhrs:id":"659140","operator":"Tesco Stores Ltd","roof:levels":"0","website":"https:\/\/www.tesco.com\/store-locator\/felixstowe\/88-hamilton-rd"}}, "geometry":{"type":"MultiPolygon","coordinates":[[[[1.35197,51.96395],[1.3519,51.96373],[1.35229,51.96366],[1.35239,51.96389],[1.35227,51.96391],[1.35197,51.96395]]]]}},
{ "type":"Feature","properties":{"osm_way_id":"206146132","name":"Lidl","building":"yes","shop":"supermarket","other":{"addr:city":"Felixstowe","addr:housenumber":"2-4","addr:postcode":"IP11 2BU","addr:street":"Langer Road","alt_name":"LIDL Felixstowe","brand":"Lidl","brand:website":"https:\/\/www.lidl.co.uk\/","brand:wikidata":"Q151954","brand:wikipedia":"en:Lidl","currency:GBP":"yes","fhrs:id":"660021","internet_access":"no","opening_hours":"Mo-Sa 08:00-21:00; Su 10:00-16:00","opening_hours:covid19":"same"}}, "geometry":{"type":"MultiPolygon","coordinates":[[[[1.33877,51.95803],[1.33917,51.95788],[1.33932,51.95803],[1.33926,51.95805],[1.33952,51.95833],[1.33932,51.9584],[1.33938,51.95846],[1.33923,51.95851],[1.33877,51.95803]]]]}},
{ "type":"Feature","properties":{"osm_way_id":"206317977","name":"East of England Co-operative Food","building":"retail","shop":"supermarket","other":{"addr:city":"Felixstowe","addr:housenumber":"189","addr:postcode":"IP11 7DT","addr:street":"Hamilton Road","fhrs:id":"659589","pharmacy":"yes"}}, "geometry":{"type":"MultiPolygon","coordinates":[[[[1.35131,51.96678],[1.35132,51.96661],[1.35104,51.96658],[1.35106,51.96652],[1.3515,51.96651],[1.3515,51.96653],[1.35191,51.96653],[1.35216,51.9665],[1.35214,51.96647],[1.35238,51.96645],[1.35236,51.96641],[1.35249,51.96639],[1.35249,51.96642],[1.35258,51.9664],[1.35273,51.96678],[1.35249,51.96681],[1.35249,51.96679],[1.35201,51.96679],[1.35186,51.96679],[1.35131,51.96678]]]]}},
{ "type":"Feature","properties":{"osm_way_id":"222566555","name":"Morrisons","building":"retail","shop":"supermarket","other":{"addr:city":"Lowestoft","addr:country":"GB","addr:housename":"Unit 12","addr:parentstreet":"Peto Way","addr:place":"North Quay Retail Park","addr:postcode":"NR32 2ED","alt_name":"Morrisons Lowestoft","brand":"Morrisons","brand:wikidata":"Q922344","brand:wikipedia":"en:Morrisons","opening_hours":"Mo-Sa 07:00-22:00; Su 10:00-16:00","phone":"+44 1502 587877","website":"https:\/\/www.morrisons.com\/"}}, "geometry":{"type":"MultiPolygon","coordinates":[[[[1.73463,52.47856],[1.7345,52.47807],[1.73491,52.47803],[1.73528,52.478],[1.7354,52.47799],[1.73552,52.47848],[1.73463,52.47856]]]]}},
{ "type":"Feature","properties":{"osm_way_id":"222567401","name":"Tesco","building":"yes","shop":"supermarket","other":{"addr:city":"Lowestoft","addr:country":"GB","addr:postcode":"NR32 4TZ","addr:street":"Leisure Way","alt_name":"Tesco Lowestoft Leisure Way Superstore","brand":"Tesco","brand:wikidata":"Q487494","brand:wikipedia":"en:Tesco","changing_table":"yes","contact:website":"https:\/\/www.tesco.com\/store-locator\/lowestoft\/leisure-way","opening_hours":"Mo 06:00-00:00; Tu-Sa 00:00-00:00; Su 10:00-16:00","operator":"Tesco Stores Ltd","toilets":"yes","toilets:access":"permissive","toilets:female":"yes","toilets:male":"yes","toilets:wheelchair":"yes"}}, "geometry":{"type":"MultiPolygon","coordinates":[[[[1.73416,52.50369],[1.73435,52.503],[1.73475,52.50304],[1.73476,52.503],[1.73505,52.50303],[1.73504,52.50307],[1.73517,52.50308],[1.73516,52.5031],[1.73578,52.50317],[1.73576,52.50326],[1.73566,52.50325],[1.73563,52.50337],[1.73573,52.50338],[1.73567,52.50357],[1.7364,52.50364],[1.73632,52.50394],[1.73505,52.50381],[1.73506,52.50378],[1.73416,52.50369]]]]}},
{ "type":"Feature","properties":{"osm_way_id":"222567934","name":"ALDI","building":"yes","shop":"supermarket","other":{"addr:city":"Lowestoft","addr:country":"GB","addr:postcode":"NR32 4GG","addr:street":"Millenium Way","alt_name":"ALDI Lowestoft","brand":"ALDI","brand:wikidata":"Q41171672","brand:wikipedia":"en:Aldi","contact:website":"https:\/\/www.aldi.co.uk\/store\/s-uk-E0651","opening_hours":"Mo-Sa 08:00-22:00; Su 10:00-16:00","opening_hours:covid19":"same","website":"https:\/\/www.aldi.co.uk\/"}}, "geometry":{"type":"MultiPolygon","coordinates":[[[[1.72711,52.49421],[1.72729,52.49377],[1.72773,52.49384],[1.72758,52.49419],[1.72767,52.4942],[1.72763,52.49429],[1.72711,52.49421]]]]}},
{ "type":"Feature","properties":{"osm_way_id":"222568089","name":"Lidl","building":"retail","shop":"supermarket","other":{"addr:city":"Lowestoft","addr:country":"GB","addr:housename":"North Quay Retail Park","addr:postcode":"NR32 2ED","addr:street":"Peto Way","alt_name":"LIDL Lowestoft","brand":"Lidl","brand:wikidata":"Q151954","brand:wikipedia":"en:Lidl","fhrs:id":"1074590","opening_hours":"Mo-Sa 08:00-22:00; Su 10:00-16:00","website":"https:\/\/www.lidl.co.uk\/"}}, "geometry":{"type":"MultiPolygon","coordinates":[[[[1.73019,52.47697],[1.73046,52.47689],[1.73043,52.47686],[1.73058,52.47681],[1.73062,52.47686],[1.73107,52.47674],[1.73126,52.477],[1.73103,52.47706],[1.73098,52.47701],[1.73036,52.47718],[1.73019,52.47697]]]]}},
{ "type":"Feature","properties":{"osm_way_id":"222568247","name":"Spar","building":"yes","shop":"supermarket","other":{"addr:city":"Norwich","addr:country":"GB","addr:housenumber":"123","addr:postcode":"NR33 9JU","addr:street":"Bridge Road","brand":"Spar","brand:wikidata":"Q610492","brand:wikipedia":"en:SPAR (retailer)"}}, "geometry":{"type":"MultiPolygon","coordinates":[[[[1.70909,52.47265],[1.70945,52.47262],[1.70943,52.4725],[1.70915,52.47252],[1.70914,52.47249],[1.70906,52.4725],[1.70909,52.47265]]]]}},
{ "type":"Feature","properties":{"osm_way_id":"316707280","name":"The Co-operative Food","building":"yes","shop":"supermarket","other":{"addr:city":"Norwich","addr:country":"GB","addr:housenumber":"17-19","addr:interpolation":"odd","addr:postcode":"NR33 9EJ","addr:street":"Ashburnham Way","brand":"The Co-operative Food","brand:wikidata":"Q107617274","old_name":"Rainbow","opening_hours":"Mo-Fr 08:00-21:00; Sa 08:00-20:00; Su 10:00-16:00","operator":"Central England Co-operative Society","phone":"+44 1502 566535","website":"https:\/\/www.co-operative.coop\/store\/food\/NR33-9EJ\/ashburnham-way\/"}}, "geometry":{"type":"MultiPolygon","coordinates":[[[[1.70401,52.45704],[1.70403,52.45707],[1.70381,52.45713],[1.70378,52.4571],[1.7035,52.45717],[1.70353,52.45721],[1.70342,52.45724],[1.7036,52.45747],[1.7039,52.45739],[1.70393,52.45744],[1.70461,52.45726],[1.70456,52.45719],[1.70453,52.4572],[1.70442,52.45705],[1.70445,52.45705],[1.70439,52.45697],[1.70433,52.45698],[1.70431,52.45696],[1.70401,52.45704]]]]}},
{ "type":"Feature","properties":{"osm_way_id":"367206170","name":"The Co-operative Food","building":"yes","shop":"supermarket","other":{"addr:postcode":"NR33 7AF","brand":"The Co-operative Food","brand:wikidata":"Q107617274","operator":"Central England Co-operative Society"}}, "geometry":{"type":"MultiPolygon","coordinates":[[[[1.72994,52.45373],[1.72986,52.45382],[1.73005,52.45387],[1.73003,52.4539],[1.73007,52.45391],[1.73006,52.45393],[1.73017,52.45394],[1.73026,52.45393],[1.73032,52.4539],[1.73035,52.45386],[1.73037,52.45383],[1.73035,52.45379],[1.73029,52.45373],[1.73023,52.45373],[1.73017,52.45379],[1.72994,52.45373]]]]}},
{ "type":"Feature","properties":{"osm_way_id":"367206219","name":"The Co-operative Food","building":"yes","shop":"supermarket","other":{"brand":"The Co-operative Food","brand:wikidata":"Q107617274","operator":"Central England Co-operative Society"}}, "geometry":{"type":"MultiPolygon","coordinates":[[[[1.74367,52.46662],[1.74346,52.46669],[1.7435,52.46674],[1.74337,52.46678],[1.74343,52.46685],[1.7438,52.46674],[1.74367,52.46662]]]]}},
{ "type":"Feature","properties":{"osm_way_id":"375899759","name":"East of England Co-op Foodstore","building":"retail","shop":"supermarket","other":{"addr:city":"Aldeburgh","addr:housenumber":"8","addr:postcode":"IP15 5JD","addr:street":"Saxmundham Road","opening_hours":"Mo-Sa 07:00-21:00; Su 10:00-16:00"}}, "geometry":{"type":"MultiPolygon","coordinates":[[[[1.59174,52.15679],[1.59188,52.15707],[1.59195,52.15706],[1.59203,52.15704],[1.59222,52.15701],[1.59208,52.15673],[1.59174,52.15679]]]]}},
{ "type":"Feature","properties":{"osm_way_id":"375899761","name":"East of England Co-op Foodstore","building":"retail","shop":"supermarket","other":{"addr:city":"Aldeburgh","addr:housenumber":"117","addr:postcode":"IP15 5AR","addr:street":"High Street","fhrs:id":"659176","opening_hours":"Mo-Sa 08:00-20:00; Su 09:00-20:00","operator":"East of England Co-operative Society"}}, "geometry":{"type":"MultiPolygon","coordinates":[[[[1.60126,52.15211],[1.60115,52.15212],[1.60114,52.15211],[1.60093,52.15213],[1.60092,52.15207],[1.60091,52.15201],[1.60109,52.15199],[1.60109,52.15198],[1.60123,52.15197],[1.60126,52.15211]]]]}},
{ "type":"Feature","properties":{"osm_way_id":"464624610","name":"Co-op Food","building":"yes","shop":"supermarket","other":{"addr:city":"Woodbridge","addr:housenumber":"14-18","addr:postcode":"IP13 0HE","addr:street":"High Street","addr:village":"Wickham Market","air_conditioning":"yes","brand":"Co-op Food","brand:wikidata":"Q3277439","brand:wikipedia":"en:Co-op Food","fhrs:id":"660306","opening_hours":"Mo-Sa 07:00-21:00; Su 10:00-16:00","operator":"East of England Co-operative Society"}}, "geometry":{"type":"MultiPolygon","coordinates":[[[[1.36292,52.1511],[1.36316,52.15111],[1.36325,52.15111],[1.36328,52.15072],[1.36277,52.1507],[1.36275,52.1509],[1.36287,52.15091],[1.36287,52.15098],[1.36293,52.15098],[1.36292,52.1511]]]]}},
{ "type":"Feature","properties":{"osm_way_id":"685219540","name":"ALDI","building":"yes","shop":"supermarket","other":{"addr:city":"Ipswich","addr:housenumber":"1","addr:postcode":"IP5 3RJ","addr:street":"Gloster Road","addr:village":"Martlesham Heath","brand":"ALDI","brand:wikidata":"Q41171672","brand:wikipedia":"en:Aldi","fhrs:id":"1125521","source:addr":"FHRS Open Data"}}, "geometry":{"type":"MultiPolygon","coordinates":[[[[1.27717,52.06046],[1.27805,52.06043],[1.27807,52.06064],[1.27808,52.06072],[1.27753,52.06074],[1.27719,52.06075],[1.27717,52.06046]]]]}},
{ "type":"Feature","properties":{"osm_way_id":"793215064","name":"ALDI","building":"retail","shop":"supermarket","other":{"addr:city":"Lowestoft","addr:country":"GB","addr:housename":"Unit 1","addr:place":"Gateway Retail Park","addr:postcode":"NR33 7NR","brand":"ALDI","brand:wikidata":"Q41171672","brand:wikipedia":"en:Aldi","contact:website":"https:\/\/www.aldi.co.uk\/store\/s-uk-E1252","opening_hours":"Mo-Sa 08:00-22:00; Su 10:00-16:00"}}, "geometry":{"type":"MultiPolygon","coordinates":[[[[1.72265,52.44574],[1.72262,52.44523],[1.7231,52.44522],[1.72311,52.44539],[1.72313,52.44568],[1.72313,52.44573],[1.72265,52.44574]]]]}},
{ "type":"Feature","properties":{"osm_way_id":"835085815","name":"Lidl","building":"yes","shop":"supermarket","other":{"addr:city":"Beccles","addr:housename":"Lidl UK","addr:postcode":"NR34 9BN","addr:street":"Common Lane North","brand":"Lidl","brand:wikidata":"Q151954","brand:wikipedia":"en:Lidl","fhrs:id":"1341338","source:addr":"FHRS Open Data"}}, "geometry":{"type":"MultiPolygon","coordinates":[[[[1.56704,52.46283],[1.56693,52.46262],[1.56794,52.46244],[1.56803,52.46263],[1.56804,52.46265],[1.56704,52.46283]]]]}},
{ "type":"Feature","properties":{"osm_way_id":"927253967","building":"yes","other":{"source:outline":"Bing"}}, "geometry":{"type":"MultiPolygon","coordinates":[[[[1.56824,52.45474],[1.56829,52.45448],[1.56839,52.45448],[1.56834,52.45474],[1.56824,52.45474]]]]}},
{ "type":"Feature","properties":{"osm_way_id":"957167822","name":"The Food Warehouse","building":"retail","shop":"supermarket","other":{"addr:city":"Lowestoft","addr:parentstreet":"Peto Way","addr:place":"North Quay Retail Park","addr:postcode":"NR32 2ED","brand":"The Food Warehouse","brand:wikidata":"Q87263899","opening_hours":"Mo-Sa 08:00-21:00; Su 10:00-16:00","phone":"+44 1502 521814"}}, "geometry":{"type":"MultiPolygon","coordinates":[[[[1.73479,52.47751],[1.73473,52.47729],[1.73541,52.47723],[1.73546,52.47745],[1.73479,52.47751]]]]}},
{ "type":"Feature","properties":{"osm_way_id":"971054778","name":"Tesco Metro","building":"retail","shop":"supermarket","other":{"brand":"Tesco Metro","brand:wikidata":"Q57551648"}}, "geometry":{"type":"MultiPolygon","coordinates":[[[[1.23756,52.06256],[1.23733,52.0625],[1.23736,52.06246],[1.23719,52.06241],[1.23716,52.06245],[1.23694,52.06239],[1.23693,52.0624],[1.23684,52.06237],[1.23674,52.06251],[1.2368,52.06252],[1.2367,52.06264],[1.23674,52.06265],[1.23673,52.06267],[1.23707,52.06276],[1.23699,52.06287],[1.2372,52.06294],[1.23723,52.0629],[1.23728,52.06292],[1.23756,52.06256]]]]}}
]
}
