{
"type": "FeatureCollection",
"features": [
{ "type":"Feature","properties":{"osm_id":"288026537","name":"Sala. International Records Management","other":{"building":"warehouse"}}, "geometry":{"type":"Point","coordinates":[-0.06336,51.49484 ]}},
{ "type":"Feature","properties":{"osm_id":"3644225999","name":"Garr Tool - UK Ltd","other":{"addr:city":"High Wycombe","addr:housename":"Garr Tool","addr:housenumber":"4","addr:postcode":"HP11 1NY","addr:street":"Genoa Way","building":"warehouse","phone":"+44 1494418160","website":"https:\/\/garrtool.com\/"}}, "geometry":{"type":"Point","coordinates":[-0.72235,51.61848 ]}},
{ "type":"Feature","properties":{"osm_way_id":"4860007","building":"warehouse"},"geometry":{"type":"MultiPolygon","coordinates":[[[[-1.03806,52.06183],[-1.03834,52.06177],[-1.0382,52.06153],[-1.03792,52.06159],[-1.03806,52.06183]]]]}},
{ "type":"Feature","properties":{"osm_way_id":"165518395","name":"Madison Commercial Ltd.","building":"warehouse","other":{"addr:housenumber":"Unit A2","addr:postcode":"HP10 9QY","addr:street":"Knaves Beech Way","alt_name":"World of Envelopes, Simply Envelopes, Enveloppes France"}}, "geometry":{"type":"MultiPolygon","coordinates":[[[[-0.69606,51.60554],[-0.69584,51.60579],[-0.69535,51.6056],[-0.69557,51.60535],[-0.69606,51.60554]]]]}},
{ "type":"Feature","properties":{"osm_way_id":"203679044","name":"High Security Locking","building":"warehouse","other":{"addr:housename":"Unit 1B","addr:housenumber":"50","addr:postcode":"HP22 5AH","addr:street":"Aylesbury Road"}}, "geometry":{"type":"MultiPolygon","coordinates":[[[[-0.73656,51.80215],[-0.73643,51.80203],[-0.73627,51.80209],[-0.7364,51.80221],[-0.73656,51.80215]]]]}},
{ "type":"Feature","properties":{"osm_way_id":"203679045","name":"Entertec \/ JT EventTruck","building":"warehouse","other":{"addr:housename":"Unit 1","addr:housenumber":"50","addr:postcode":"HP22 5AH","addr:street":"Aylesbury Road"}}, "geometry":{"type":"MultiPolygon","coordinates":[[[[-0.73627,51.80209],[-0.73604,51.80219],[-0.73617,51.80231],[-0.7364,51.80221],[-0.73627,51.80209]]]]}},
{ "type":"Feature","properties":{"osm_way_id":"203820225","name":"Dayla","building":"warehouse","other":{"addr:housename":"Unit 2","addr:housenumber":"50","addr:postcode":"HP22 5AH","addr:street":"Aylesbury Road"}}, "geometry":{"type":"MultiPolygon","coordinates":[[[[-0.73849,51.80206],[-0.738,51.80156],[-0.73707,51.80191],[-0.73735,51.8022],[-0.7381,51.80192],[-0.73831,51.80213],[-0.73849,51.80206]]]]}},
{ "type":"Feature","properties":{"osm_way_id":"203820226","name":"Univite \/ Accelerated Learning","building":"warehouse","other":{"addr:housename":"Unit 1A","addr:housenumber":"50","addr:postcode":"HP22 5AH","addr:street":"Aylesbury Road"}}, "geometry":{"type":"MultiPolygon","coordinates":[[[[-0.73692,51.802],[-0.73656,51.80215],[-0.73643,51.80203],[-0.73679,51.80188],[-0.73692,51.802]]]]}},
{ "type":"Feature","properties":{"osm_way_id":"247202056","name":"Geodis","building":"warehouse"},"geometry":{"type":"MultiPolygon","coordinates":[[[[-0.77864,51.61935],[-0.77846,51.61935],[-0.77847,51.61904],[-0.77916,51.61905],[-0.77918,51.61855],[-0.78026,51.61857],[-0.78022,51.61945],[-0.77967,51.61944],[-0.77966,51.61951],[-0.77932,51.6195],[-0.77932,51.61943],[-0.77914,51.61943],[-0.77914,51.61943],[-0.77863,51.61942],[-0.77864,51.61935]]]]}},
{ "type":"Feature","properties":{"osm_way_id":"247202058","building":"warehouse"},"geometry":{"type":"MultiPolygon","coordinates":[[[[-0.78216,51.61811],[-0.78233,51.61854],[-0.78234,51.6186],[-0.78233,51.6187],[-0.78232,51.6187],[-0.78231,51.61898],[-0.78119,51.61896],[-0.7812,51.61864],[-0.78143,51.61865],[-0.78143,51.61859],[-0.78184,51.6186],[-0.78184,51.61852],[-0.7817,51.61852],[-0.78171,51.61826],[-0.78177,51.61826],[-0.78178,51.61811],[-0.78216,51.61811]]]]}},
{ "type":"Feature","properties":{"osm_way_id":"247202063","building":"warehouse"},"geometry":{"type":"MultiPolygon","coordinates":[[[[-0.78106,51.61792],[-0.78005,51.6179],[-0.78007,51.61741],[-0.78109,51.61743],[-0.78106,51.61792]]]]}},
{ "type":"Feature","properties":{"osm_way_id":"247202068","building":"warehouse"},"geometry":{"type":"MultiPolygon","coordinates":[[[[-0.78102,51.61851],[-0.78001,51.61849],[-0.78003,51.61799],[-0.78105,51.61801],[-0.78102,51.61851]]]]}},
{ "type":"Feature","properties":{"osm_way_id":"247202070","building":"warehouse"},"geometry":{"type":"MultiPolygon","coordinates":[[[[-0.78174,51.61774],[-0.78208,51.61775],[-0.78207,51.61805],[-0.78173,51.61805],[-0.78174,51.61774]]]]}},
{ "type":"Feature","properties":{"osm_way_id":"373884130","building":"warehouse","other":{"building:levels":"2"}}, "geometry":{"type":"MultiPolygon","coordinates":[[[[-0.76683,51.57146],[-0.7669,51.57122],[-0.76611,51.57113],[-0.766,51.57147],[-0.76657,51.57153],[-0.7666,51.57143],[-0.76683,51.57146]]]]}},
{ "type":"Feature","properties":{"osm_way_id":"630645293","building":"warehouse"},"geometry":{"type":"MultiPolygon","coordinates":[[[[-0.64441,51.82633],[-0.64389,51.8263],[-0.64408,51.8253],[-0.64459,51.82534],[-0.64441,51.82633]]]]}},
{ "type":"Feature","properties":{"osm_way_id":"630645294","building":"warehouse"},"geometry":{"type":"MultiPolygon","coordinates":[[[[-0.64391,51.82615],[-0.64401,51.82559],[-0.64212,51.82546],[-0.64202,51.82602],[-0.64391,51.82615]]]]}},
{ "type":"Feature","properties":{"osm_way_id":"630645295","building":"warehouse"},"geometry":{"type":"MultiPolygon","coordinates":[[[[-0.64158,51.82535],[-0.64128,51.82546],[-0.64086,51.82503],[-0.64116,51.82492],[-0.64158,51.82535]]]]}},
{ "type":"Feature","properties":{"osm_way_id":"630645296","building":"warehouse"},"geometry":{"type":"MultiPolygon","coordinates":[[[[-0.64161,51.82467],[-0.64039,51.82462],[-0.64039,51.82458],[-0.6402,51.82457],[-0.64022,51.82434],[-0.64078,51.82437],[-0.64078,51.8244],[-0.64112,51.82441],[-0.64111,51.82444],[-0.64163,51.82446],[-0.64161,51.82467]]]]}},
{ "type":"Feature","properties":{"osm_way_id":"630645297","building":"warehouse"},"geometry":{"type":"MultiPolygon","coordinates":[[[[-0.64244,51.82481],[-0.64216,51.8248],[-0.64217,51.82474],[-0.64163,51.82472],[-0.64165,51.82447],[-0.64247,51.8245],[-0.64244,51.82481]]]]}},
{ "type":"Feature","properties":{"osm_way_id":"630645298","building":"warehouse"},"geometry":{"type":"MultiPolygon","coordinates":[[[[-0.64301,51.82495],[-0.64245,51.82493],[-0.64249,51.8245],[-0.64306,51.82453],[-0.64301,51.82495]]]]}},
{ "type":"Feature","properties":{"osm_way_id":"630645299","building":"warehouse"},"geometry":{"type":"MultiPolygon","coordinates":[[[[-0.64367,51.82513],[-0.64339,51.82512],[-0.64345,51.82453],[-0.64373,51.82454],[-0.64367,51.82513]]]]}},
{ "type":"Feature","properties":{"osm_way_id":"630645300","building":"warehouse"},"geometry":{"type":"MultiPolygon","coordinates":[[[[-0.64462,51.82518],[-0.64435,51.82517],[-0.64441,51.82456],[-0.64468,51.82458],[-0.64462,51.82518]]]]}},
{ "type":"Feature","properties":{"osm_way_id":"630645301","building":"warehouse"},"geometry":{"type":"MultiPolygon","coordinates":[[[[-0.64503,51.82485],[-0.64471,51.82484],[-0.64474,51.82456],[-0.64506,51.82454],[-0.64503,51.82485]]]]}},
{ "type":"Feature","properties":{"osm_way_id":"630645303","building":"warehouse"},"geometry":{"type":"MultiPolygon","coordinates":[[[[-0.64495,51.82521],[-0.64467,51.8252],[-0.6447,51.8249],[-0.64498,51.82491],[-0.64495,51.82521]]]]}},
{ "type":"Feature","properties":{"osm_way_id":"630645304","building":"warehouse"},"geometry":{"type":"MultiPolygon","coordinates":[[[[-0.64598,51.82449],[-0.64557,51.82451],[-0.64559,51.82462],[-0.64543,51.82493],[-0.64546,51.82493],[-0.64536,51.82511],[-0.64563,51.82517],[-0.64598,51.82449]]]]}},
{ "type":"Feature","properties":{"osm_way_id":"655743798","name":"NFTS Stores","building":"warehouse"},"geometry":{"type":"MultiPolygon","coordinates":[[[[-0.6362,51.60568],[-0.63635,51.60555],[-0.63653,51.60563],[-0.63638,51.60576],[-0.6362,51.60568]]]]}},
{ "type":"Feature","properties":{"osm_way_id":"655743802","name":"Scenery Stores","building":"warehouse"},"geometry":{"type":"MultiPolygon","coordinates":[[[[-0.63789,51.60494],[-0.63767,51.60499],[-0.63762,51.6049],[-0.63784,51.60485],[-0.63789,51.60494]]]]}},
{ "type":"Feature","properties":{"osm_way_id":"1011321055","building":"warehouse"},"geometry":{"type":"MultiPolygon","coordinates":[[[[-0.49254,51.56004],[-0.49284,51.55994],[-0.49281,51.55991],[-0.49287,51.5599],[-0.49272,51.55973],[-0.49267,51.55974],[-0.49265,51.55972],[-0.49235,51.55982],[-0.49254,51.56004]]]]}},
{ "type":"Feature","properties":{"osm_way_id":"1011321056","building":"warehouse"},"geometry":{"type":"MultiPolygon","coordinates":[[[[-0.49224,51.55999],[-0.4921,51.56021],[-0.49167,51.56011],[-0.49181,51.55988],[-0.49224,51.55999]]]]}},
{ "type":"Feature","properties":{"osm_way_id":"1011321057","building":"warehouse"},"geometry":{"type":"MultiPolygon","coordinates":[[[[-0.49203,51.55993],[-0.49186,51.55989],[-0.49189,51.55983],[-0.49206,51.55987],[-0.49203,51.55993]]]]}}
]
}
