{
"type": "FeatureCollection",
"features": [
{ "type":"Feature","properties":{"osm_id":"36312259","name":"Co-operative","other":{"shop":"supermarket"}}, "geometry":{"type":"Point","coordinates":[-0.16108,51.3652 ]}},
{ "type":"Feature","properties":{"osm_id":"248042435","name":"Co-op","other":{"addr:city":"Wallington","addr:housenumber":"1","addr:postcode":"SM6 9DA","addr:street":"Mollison Square","fhrs:id":"898898","operator":"The Co-operative Group","shop":"supermarket"}}, "geometry":{"type":"Point","coordinates":[-0.13454,51.35344 ]}},
{ "type":"Feature","properties":{"osm_id":"835785497","name":"Little Waitrose","other":{"brand":"Waitrose","brand:wikidata":"Q771734","brand:wikipedia":"en:Waitrose & Partners","official_name":"Waitrose & Partners","operator":"Waitrose & Partners","shop":"supermarket"}}, "geometry":{"type":"Point","coordinates":[-0.21636,51.35866 ]}},
{ "type":"Feature","properties":{"osm_id":"1132689647","name":"Sainsbury's","other":{"brand":"Sainsbury's","brand:wikidata":"Q152096","brand:wikipedia":"en:Sainsbury's","shop":"supermarket"}}, "geometry":{"type":"Point","coordinates":[-0.14818,51.35833 ]}},
{ "type":"Feature","properties":{"osm_id":"3481449311","name":"Sainsbury's Local","other":{"addr:city":"Wallington","addr:housenumber":"168","addr:postcode":"SM6 7AN","addr:street":"London Road","brand":"Sainsbury's Local","brand:wikidata":"Q13218434","fhrs:authority":"Sutton","fhrs:id":"899134","shop":"supermarket","survey:date":"2018-11-22"}}, "geometry":{"type":"Point","coordinates":[-0.1558,51.37926 ]}},
{ "type":"Feature","properties":{"osm_id":"4611955984","name":"Shilpa's News","other":{"addr:city":"Carshalton","addr:housenumber":"1","addr:postcode":"SM5 2FH","addr:street":"Otter Drive","shop":"supermarket"}}, "geometry":{"type":"Point","coordinates":[-0.16487,51.37893 ]}},
{ "type":"Feature","properties":{"osm_id":"5094723052","name":"St. Helier Food & Wine","other":{"addr:city":"Carshalton","addr:housenumber":"131","addr:postcode":"SM5 2RU","addr:street":"Wrythe Lane","shop":"supermarket","survey:date":"2018-11-20"}}, "geometry":{"type":"Point","coordinates":[-0.17754,51.37573 ]}},
{ "type":"Feature","properties":{"osm_id":"5124026525","name":"Costcutter","other":{"addr:city":"Sutton","addr:housenumber":"45","addr:postcode":"SM1 3AT","addr:street":"Erskine Road","brand":"Costcutter","brand:wikidata":"Q5175072","brand:wikipedia":"en:Costcutter","shop":"supermarket"}}, "geometry":{"type":"Point","coordinates":[-0.18053,51.36987 ]}},
{ "type":"Feature","properties":{"osm_id":"5941322050","name":"The Co-operative Food","other":{"addr:city":"Carshalton","addr:housenumber":"89-91","addr:postcode":"SM5 3NP","addr:street":"Banstead Road","fhrs:authority":"Sutton","fhrs:id":"877449","shop":"supermarket","survey:date":"2018-09-29"}}, "geometry":{"type":"Point","coordinates":[-0.17357,51.35678 ]}},
{ "type":"Feature","properties":{"osm_id":"8325026717","other":{"shop":"supermarket"}}, "geometry":{"type":"Point","coordinates":[-0.2142,51.38362 ]}},
{ "type":"Feature","properties":{"osm_id":"8387554218","name":"Costcutter ( and Post Office)","other":{"addr:housename":"13","addr:street":"Damson Way","brand":"Costcutter","brand:wikidata":"Q5175072","brand:wikipedia":"en:Costcutter","shop":"supermarket"}}, "geometry":{"type":"Point","coordinates":[-0.16671,51.34861 ]}},
{ "type":"Feature","properties":{"osm_id":"9005347089","name":"Lidl","other":{"addr:country":"GB","addr:housenumber":"1","addr:postcode":"SM6 7DS","addr:street":"Spinning Wheel Way","brand":"Lidl","brand:wikidata":"Q151954","brand:wikipedia":"en:Lidl","fhrs:id":"1320539","shop":"supermarket"}}, "geometry":{"type":"Point","coordinates":[-0.15544,51.378 ]}},
{ "type":"Feature","properties":{"osm_id":"9330485105","name":"Little Waitrose","other":{"shop":"supermarket"}}, "geometry":{"type":"Point","coordinates":[-0.20016,51.36147 ]}},
{ "type":"Feature","properties":{"osm_id":"9330504924","name":"Fone And Vape","other":{"shop":"supermarket"}}, "geometry":{"type":"Point","coordinates":[-0.19181,51.36083 ]}},
{ "type":"Feature","properties":{"osm_id":"9330506150","name":"Tesco Express","other":{"shop":"supermarket"}}, "geometry":{"type":"Point","coordinates":[-0.21757,51.36113 ]}},
{ "type":"Feature","properties":{"osm_id":"9330509123","name":"Dynamic Local","other":{"shop":"supermarket"}}, "geometry":{"type":"Point","coordinates":[-0.19152,51.36114 ]}},
{ "type":"Feature","properties":{"osm_id":"9402067471","name":"Argos","other":{"shop":"supermarket"}}, "geometry":{"type":"Point","coordinates":[-0.19751,51.36828 ]}},
{ "type":"Feature","properties":{"osm_id":"9458157054","name":"sMart Oriental","other":{"addr:city":"Sutton","addr:housenumber":"52","addr:postcode":"SM1 1HY","addr:street":"High Street","description":"Asian supermarket","email":"simplymart@outlook.com","opening_hours":"Mo-Sa 09:00-19:00; Su 12:00-18:00","payment:cash":"yes","payment:credit_cards":"yes","payment:debit_cards":"yes","shop":"supermarket","website":"https:\/\/www.simplymart.uk\/"}}, "geometry":{"type":"Point","coordinates":[-0.19197,51.36147 ]}},
{ "type":"Feature","properties":{"osm_id":"9458171155","name":"Dynamic Local | Mini Super Store","other":{"opening_hours":"Mo-Sa 08:00-21:00,08:00-20:00","phone":"+44 7711833395","shop":"supermarket"}}, "geometry":{"type":"Point","coordinates":[-0.19142,51.36119 ]}},
{ "type":"Feature","properties":{"osm_way_id":"23115218","name":"Asda","building":"yes","shop":"supermarket","other":{"addr:city":"Sutton","addr:country":"GB","addr:housenumber":"229","addr:postcode":"SM1 1LD","addr:street":"High Street","brand":"Asda","brand:wikidata":"Q297410","brand:wikipedia":"en:Asda","contact:facebook":"https:\/\/www.facebook.com\/asda\/","contact:twitter":"@asda","contact:website":"https:\/\/storelocator.asda.com\/london\/sutton\/st-nicholas-way","fhrs:id":"570869","operator":"Asda Stores Ltd","wheelchair":"yes"}}, "geometry":{"type":"MultiPolygon","coordinates":[[[[-0.19603,51.36738],[-0.19544,51.36751],[-0.1954,51.36743],[-0.19495,51.3675],[-0.19459,51.36672],[-0.19531,51.3666],[-0.19524,51.36644],[-0.19553,51.36639],[-0.19559,51.36655],[-0.19562,51.36656],[-0.19566,51.36656],[-0.19572,51.36671],[-0.19603,51.36738]]]]}},
{ "type":"Feature","properties":{"osm_way_id":"24491747","name":"Waitrose","building":"yes","shop":"supermarket","other":{"brand":"Waitrose & Partners","brand:wikidata":"Q771734","brand:wikipedia":"en:Waitrose & Partners","operator":"Waitrose & Partners"}}, "geometry":{"type":"MultiPolygon","coordinates":[[[[-0.2428,51.3782],[-0.24312,51.37835],[-0.24315,51.37832],[-0.24341,51.37845],[-0.24375,51.37818],[-0.24379,51.37803],[-0.24332,51.3778],[-0.2432,51.37789],[-0.24319,51.3779],[-0.24322,51.37792],[-0.24299,51.3781],[-0.24294,51.37808],[-0.2428,51.3782]]]]}},
{ "type":"Feature","properties":{"osm_way_id":"24526305","name":"Sainsbury's","building":"yes","shop":"supermarket","other":{"brand":"Sainsbury's","brand:wikidata":"Q152096"}}, "geometry":{"type":"MultiPolygon","coordinates":[[[[-0.22491,51.37252],[-0.22433,51.372],[-0.22389,51.37156],[-0.22489,51.37112],[-0.22497,51.37119],[-0.22515,51.37135],[-0.2257,51.3719],[-0.22541,51.37203],[-0.2255,51.37217],[-0.22497,51.3724],[-0.2251,51.37255],[-0.22491,51.37252]]]]}},
{ "type":"Feature","properties":{"osm_way_id":"24532872","name":"Morrisons","building":"retail","shop":"supermarket","other":{"addr:city":"Sutton","addr:housenumber":"31","addr:postcode":"SM1 1DD","addr:street":"High Street","brand":"Morrisons","brand:wikidata":"Q922344","brand:wikipedia":"en:Morrisons","building:levels":"2","fhrs:id":"571139","opening_hours":"Mo-Sa 06:00-23:00; Su 10:00-16:00","roof:shape":"flat","website":"https:\/\/my.morrisons.com\/storefinder\/318","wheelchair":"yes"}}, "geometry":{"type":"MultiPolygon","coordinates":[[[[-0.19379,51.36125],[-0.19301,51.36117],[-0.19268,51.36076],[-0.19208,51.36084],[-0.19205,51.36079],[-0.19253,51.36072],[-0.19246,51.36058],[-0.1926,51.36056],[-0.19255,51.36041],[-0.19246,51.36043],[-0.19245,51.3604],[-0.19238,51.36041],[-0.19236,51.36038],[-0.19342,51.36021],[-0.19354,51.36046],[-0.19382,51.36042],[-0.19399,51.36039],[-0.19427,51.36034],[-0.19445,51.36079],[-0.19388,51.36089],[-0.19379,51.36125]]]]}},
{ "type":"Feature","properties":{"osm_way_id":"24533080","name":"Tesco Extra","building":"yes","shop":"supermarket","other":{"addr:housenumber":"55","addr:postcode":"SM1 2NB","addr:street":"Oldfields Road","brand":"Tesco Extra","brand:wikidata":"Q25172225","brand:wikipedia":"en:Tesco Extra","name:fa":"تسکو","source:addr":"FHRS Open Data","website":"https:\/\/www.tesco.com\/store-locator\/sutton\/55-oldfields-road"}}, "geometry":{"type":"MultiPolygon","coordinates":[[[[-0.20755,51.37555],[-0.20723,51.37466],[-0.20628,51.37481],[-0.20624,51.37476],[-0.20592,51.37481],[-0.20609,51.37519],[-0.20621,51.37517],[-0.20644,51.37572],[-0.2069,51.37565],[-0.20698,51.37582],[-0.20717,51.37572],[-0.20732,51.37585],[-0.20709,51.37596],[-0.20718,51.37603],[-0.20745,51.37589],[-0.20725,51.3757],[-0.20755,51.37555]]]]}},
{ "type":"Feature","properties":{"osm_way_id":"24862496","name":"Lidl","building":"yes","shop":"supermarket","other":{"addr:city":"Sutton","addr:country":"GB","addr:housenumber":"262-270","addr:postcode":"SM1 1PG","addr:street":"High Street","brand":"Lidl","brand:wikidata":"Q151954","brand:wikipedia":"en:Lidl","fhrs:id":"1389518"}}, "geometry":{"type":"MultiPolygon","coordinates":[[[[-0.19501,51.36816],[-0.19487,51.36782],[-0.19446,51.36789],[-0.19432,51.36791],[-0.19427,51.36779],[-0.19402,51.36783],[-0.19421,51.36829],[-0.19429,51.36828],[-0.19501,51.36816]]]]}},
{ "type":"Feature","properties":{"osm_way_id":"28315793","name":"Lidl","building":"yes","shop":"supermarket","other":{"addr:country":"GB","addr:housenumber":"328","addr:postcode":"SM5 1AD","addr:street":"Wrythe Lane","brand":"Lidl","brand:wikidata":"Q151954","brand:wikipedia":"en:Lidl","fhrs:id":"1041496"}}, "geometry":{"type":"MultiPolygon","coordinates":[[[[-0.18984,51.38411],[-0.18967,51.38431],[-0.18905,51.38402],[-0.18907,51.384],[-0.18896,51.38394],[-0.18907,51.38383],[-0.1891,51.38384],[-0.18918,51.38377],[-0.18923,51.38379],[-0.18924,51.38377],[-0.18984,51.38404],[-0.18984,51.38411]]]]}},
{ "type":"Feature","properties":{"osm_way_id":"94690339","name":"Asda","building":"retail","shop":"supermarket","other":{"addr:city":"Croydon","addr:country":"GB","addr:postcode":"CR0 4XS","addr:street":"Marlowe Way","brand":"Asda","brand:wikidata":"Q297410","brand:wikipedia":"en:Asda","contact:facebook":"https:\/\/www.facebook.com\/asda\/","contact:twitter":"@asda","contact:website":"https:\/\/storelocator.asda.com\/london\/croydon\/marlow-way","fhrs:id":"570872","operator":"Asda Stores Ltd","survey:date":"2018-10-29"}}, "geometry":{"type":"MultiPolygon","coordinates":[[[[-0.13073,51.3764],[-0.13073,51.37721],[-0.13056,51.37721],[-0.13056,51.3773],[-0.12935,51.3773],[-0.12934,51.3767],[-0.12971,51.37652],[-0.1297,51.37633],[-0.13062,51.37632],[-0.13061,51.37628],[-0.13082,51.37628],[-0.13082,51.37639],[-0.13073,51.3764]]]]}},
{ "type":"Feature","properties":{"osm_way_id":"97421683","name":"M&S Foodhall","building":"retail","shop":"supermarket","other":{"addr:city":"Carshalton","addr:housenumber":"4","addr:postcode":"SM5 2DW","addr:street":"Green Wrythe Lane","brand":"M&S Foodhall","brand:wikidata":"Q714491","brand:wikipedia":"en:Marks & Spencer","operator":"BP","survey:date":"2018-11-22"}}, "geometry":{"type":"MultiPolygon","coordinates":[[[[-0.16664,51.37242],[-0.16678,51.37235],[-0.16656,51.37218],[-0.16642,51.37225],[-0.16664,51.37242]]]]}},
{ "type":"Feature","properties":{"osm_way_id":"146132355","name":"Bestway Cash & Carry","building":"retail","shop":"supermarket"},"geometry":{"type":"MultiPolygon","coordinates":[[[[-0.12896,51.3784],[-0.12764,51.37857],[-0.12731,51.37763],[-0.1281,51.37753],[-0.12814,51.37762],[-0.12859,51.37756],[-0.1286,51.3776],[-0.12867,51.37779],[-0.12879,51.37815],[-0.12887,51.37815],[-0.12896,51.3784]]]]}},
{ "type":"Feature","properties":{"osm_way_id":"235365912","name":"Tesco Express","building":"retail","shop":"supermarket","other":{"addr:city":"Sutton","addr:housenumber":"10","addr:postcode":"SM1 4QW","addr:street":"Lower Road","brand":"Tesco Express","brand:wikidata":"Q98456772","brand:wikipedia":"en:Tesco","name:fa":"تسکو اکسپرس","opening_hours":"Mo-Su 06:00-23:00"}}, "geometry":{"type":"MultiPolygon","coordinates":[[[[-0.18524,51.36555],[-0.18546,51.36554],[-0.18541,51.36544],[-0.18522,51.36546],[-0.18524,51.36555]]]]}},
{ "type":"Feature","properties":{"osm_way_id":"527096586","name":"Sainsbury's","building":"commercial","shop":"supermarket","other":{"addr:city":"Sutton","addr:housenumber":"287a","addr:postcode":"SM1 1LD","addr:street":"High Street","brand":"Sainsbury's","brand:wikidata":"Q152096","brand:wikipedia":"en:Sainsbury's","fhrs:authority":"Sutton","fhrs:id":"928736"}}, "geometry":{"type":"MultiPolygon","coordinates":[[[[-0.19785,51.36864],[-0.1964,51.36906],[-0.19602,51.36857],[-0.19595,51.36848],[-0.19582,51.3683],[-0.19738,51.36784],[-0.19766,51.36824],[-0.19785,51.36864]]]]}},
{ "type":"Feature","properties":{"osm_way_id":"795362838","name":"Asda","building":"retail","shop":"supermarket","other":{"addr:city":"Sutton","addr:country":"GB","addr:housenumber":"1","addr:postcode":"SM3 9HB","addr:street":"Stonecot Hill","brand":"Asda","brand:wikidata":"Q297410","brand:wikipedia":"en:Asda","contact:facebook":"https:\/\/www.facebook.com\/asda\/","contact:phone":"+44 20 3409 3823","contact:twitter":"@asda","contact:website":"https:\/\/storelocator.asda.com\/london\/sutton\/stonecot-hill","fhrs:id":"864152","old_name":"The Woodstock","opening_hours:covid19":"Mo-Sa 08:00-22:00, Su 11:00-17:00","operator":"Asda Stores Ltd"}}, "geometry":{"type":"MultiPolygon","coordinates":[[[[-0.21139,51.38565],[-0.21162,51.38543],[-0.21115,51.38523],[-0.21101,51.38535],[-0.21089,51.3853],[-0.21077,51.38541],[-0.21088,51.38545],[-0.21139,51.38565]]]]}},
{ "type":"Feature","properties":{"osm_way_id":"907775901","name":"Sainsbury's Local","building":"yes","shop":"supermarket","other":{"addr:city":"Worcester Park","addr:housenumber":"1-15","addr:postcode":"KT4 8EG","addr:street":"Central Road","brand":"Sainsbury's Local","brand:wikidata":"Q13218434","brand:wikipedia":"en:Sainsbury's Local","fhrs:id":"898641","website":"https:\/\/stores.sainsburys.co.uk\/4138\/worcester-park-local"}}, "geometry":{"type":"MultiPolygon","coordinates":[[[[-0.23845,51.37677],[-0.23879,51.37702],[-0.23883,51.37699],[-0.23886,51.37701],[-0.23896,51.37696],[-0.23887,51.3769],[-0.23862,51.37672],[-0.23859,51.3767],[-0.23845,51.37677]]]]}}
]
}
