{
"type": "FeatureCollection",
"features": [
{ "type":"Feature","properties":{"osm_way_id":"4079950","name":"John Lewis distribution centre","building":"warehouse","other":{"addr:postcode":"CB2 9FT"}}, "geometry":{"type":"MultiPolygon","coordinates":[[[[0.107,52.16934],[0.10797,52.16915],[0.1084,52.16996],[0.10744,52.17015],[0.107,52.16934]]]]}},
{ "type":"Feature","properties":{"osm_way_id":"133375965","name":"Asphaltic Roofing Supplies","building":"warehouse","other":{"addr:city":"Cambridge","addr:housename":"Units 8-9, Brickyard Estate","addr:postcode":"CB1 3EW","addr:street":"Coldhams Road"}}, "geometry":{"type":"MultiPolygon","coordinates":[[[[0.15034,52.21084],[0.15051,52.21104],[0.15071,52.21098],[0.15055,52.21078],[0.15034,52.21084]]]]}},
{ "type":"Feature","properties":{"osm_way_id":"133378415","name":"Hedley & Ellis Electrical","building":"warehouse","other":{"addr:city":"Cambridge","addr:housenumber":"30","addr:postcode":"CB1 3EW","addr:street":"Coldhams Road"}}, "geometry":{"type":"MultiPolygon","coordinates":[[[[0.1497,52.20982],[0.14958,52.20972],[0.14994,52.20957],[0.15,52.20969],[0.1497,52.20982]]]]}},
{ "type":"Feature","properties":{"osm_way_id":"133390998","name":"Cambridge Electrical Wholesale","building":"warehouse","other":{"addr:city":"Cambridge","addr:housename":"Unit 5-6, Brickyard Estate","addr:postcode":"CB1 3EW","addr:street":"Coldhams Road"}}, "geometry":{"type":"MultiPolygon","coordinates":[[[[0.15036,52.21078],[0.15069,52.21068],[0.15059,52.21056],[0.15026,52.21066],[0.15036,52.21078]]]]}},
{ "type":"Feature","properties":{"osm_way_id":"133504441","building":"warehouse"},"geometry":{"type":"MultiPolygon","coordinates":[[[[0.14536,52.19969],[0.1451,52.19974],[0.14508,52.19969],[0.14533,52.19964],[0.14536,52.19969]]]]}},
{ "type":"Feature","properties":{"osm_way_id":"134015973","building":"warehouse"},"geometry":{"type":"MultiPolygon","coordinates":[[[[0.15085,52.19787],[0.15101,52.19784],[0.15084,52.19748],[0.15069,52.19751],[0.15085,52.19787]]]]}},
{ "type":"Feature","properties":{"osm_way_id":"134415809","name":"Arjuna Warehouse","building":"warehouse","other":{"addr:city":"Cambridge","addr:housename":"Dales Brewery","addr:postcode":"CB1 2LJ","addr:street":"Gwydir Street"}}, "geometry":{"type":"MultiPolygon","coordinates":[[[[0.13808,52.20037],[0.13812,52.20037],[0.13813,52.20039],[0.13821,52.20038],[0.13815,52.20023],[0.13807,52.20024],[0.13808,52.20027],[0.13804,52.20028],[0.13808,52.20037]]]]}},
{ "type":"Feature","properties":{"osm_way_id":"134636570","name":"Mackays Metals Warehouse","building":"warehouse","shop":"Metals Retailer and Engineering Service","other":{"opening_hours":"Mo-Fr 08:00-17:15; Sa 09:00-13:00","website":"https:\/\/www.mackay.co.uk\/"}}, "geometry":{"type":"MultiPolygon","coordinates":[[[[0.13808,52.20721],[0.13786,52.2076],[0.13798,52.20762],[0.13814,52.20734],[0.13821,52.20735],[0.13826,52.20724],[0.13808,52.20721]]]]}},
{ "type":"Feature","properties":{"osm_way_id":"135915834","building":"warehouse"},"geometry":{"type":"MultiPolygon","coordinates":[[[[0.14385,52.22041],[0.14373,52.2205],[0.14391,52.22058],[0.14403,52.2205],[0.14385,52.22041]]]]}},
{ "type":"Feature","properties":{"osm_way_id":"168984044","name":"BSS (UK)","building":"warehouse"},"geometry":{"type":"MultiPolygon","coordinates":[[[[0.17171,52.19557],[0.17129,52.19573],[0.17154,52.19596],[0.17195,52.19579],[0.17171,52.19557]]]]}},
{ "type":"Feature","properties":{"osm_way_id":"224494314","name":"Kings Court","building":"warehouse","other":{"addr:city":"Cambridge","addr:postcode":"CB4 2PF","addr:street":"Kirkwood Road"}}, "geometry":{"type":"MultiPolygon","coordinates":[[[[0.13669,52.23303],[0.13693,52.23294],[0.13623,52.23224],[0.13614,52.23227],[0.13605,52.23219],[0.13596,52.23222],[0.13589,52.23215],[0.13563,52.23224],[0.13581,52.23242],[0.13584,52.23241],[0.13596,52.23252],[0.13599,52.23251],[0.1361,52.23263],[0.13614,52.23261],[0.13625,52.23272],[0.13628,52.23271],[0.1364,52.23283],[0.13643,52.23281],[0.13655,52.23293],[0.13658,52.23292],[0.13669,52.23303]]]]}},
{ "type":"Feature","properties":{"osm_way_id":"226419704","building":"warehouse"},"geometry":{"type":"MultiPolygon","coordinates":[[[[0.16035,52.2137],[0.16025,52.21343],[0.16061,52.21338],[0.1606,52.21337],[0.16076,52.21334],[0.16079,52.21343],[0.16063,52.21345],[0.16067,52.21357],[0.16081,52.21355],[0.16086,52.21371],[0.16072,52.21373],[0.1607,52.21365],[0.16035,52.2137]]]]}},
{ "type":"Feature","properties":{"osm_way_id":"334867245","name":"Storage King","building":"warehouse"},"geometry":{"type":"MultiPolygon","coordinates":[[[[0.17214,52.19596],[0.17254,52.19579],[0.17279,52.19602],[0.17239,52.19619],[0.17214,52.19596]]]]}},
{ "type":"Feature","properties":{"osm_way_id":"334867247","name":"Storage King","building":"warehouse","other":{"addr:city":"Cambridge","addr:country":"GB","addr:housenumber":"505","addr:postcode":"CB1 3JS","addr:street":"Coldhams Lane"}}, "geometry":{"type":"MultiPolygon","coordinates":[[[[0.17171,52.19557],[0.17195,52.19579],[0.17211,52.19594],[0.17252,52.19577],[0.17211,52.1954],[0.1719,52.19548],[0.17185,52.19543],[0.17165,52.19552],[0.17171,52.19557]]]]}},
{ "type":"Feature","properties":{"osm_way_id":"374950048","building":"warehouse"},"geometry":{"type":"MultiPolygon","coordinates":[[[[0.13943,52.19773],[0.13911,52.1974],[0.13939,52.1973],[0.13971,52.19763],[0.13943,52.19773]]]]}}
]
}
