{
"type": "FeatureCollection",
"features": [
{ "type":"Feature","properties":{"osm_id":"290392145","other":{"amenity":"parking"}}, "geometry":{"type":"Point","coordinates":[-0.81272,53.06656 ]}},
{ "type":"Feature","properties":{"osm_id":"310197654","other":{"amenity":"parking"}}, "geometry":{"type":"Point","coordinates":[-0.8016,53.06387 ]}},
{ "type":"Feature","properties":{"osm_id":"340432516","other":{"amenity":"parking"}}, "geometry":{"type":"Point","coordinates":[-0.80469,53.15738 ]}},
{ "type":"Feature","properties":{"osm_id":"340432556","other":{"amenity":"parking"}}, "geometry":{"type":"Point","coordinates":[-0.80682,53.16061 ]}},
{ "type":"Feature","properties":{"osm_id":"344394095","other":{"amenity":"parking","parking":"surface"}}, "geometry":{"type":"Point","coordinates":[-0.81326,53.07944 ]}},
{ "type":"Feature","properties":{"osm_id":"406849597","other":{"amenity":"parking","parking":"layby"}}, "geometry":{"type":"Point","coordinates":[-1.05904,53.04407 ]}},
{ "type":"Feature","properties":{"osm_id":"414154600","other":{"amenity":"parking"}}, "geometry":{"type":"Point","coordinates":[-0.96182,53.0044 ]}},
{ "type":"Feature","properties":{"osm_id":"414154601","other":{"amenity":"parking"}}, "geometry":{"type":"Point","coordinates":[-0.95542,53.00849 ]}},
{ "type":"Feature","properties":{"osm_id":"414176260","other":{"amenity":"parking"}}, "geometry":{"type":"Point","coordinates":[-0.97814,53.01569 ]}},
{ "type":"Feature","properties":{"osm_id":"426956846","other":{"access":"yes","amenity":"parking","fee":"no"}}, "geometry":{"type":"Point","coordinates":[-1.04634,53.16123 ]}},
{ "type":"Feature","properties":{"osm_id":"429378835","other":{"access":"private","amenity":"parking"}}, "geometry":{"type":"Point","coordinates":[-1.01278,53.01415 ]}},
{ "type":"Feature","properties":{"osm_id":"448323537","other":{"access":"yes","amenity":"parking","description":"Layby","fee":"no"}}, "geometry":{"type":"Point","coordinates":[-1.06413,53.10382 ]}},
{ "type":"Feature","properties":{"osm_id":"602680418","other":{"access":"customers","amenity":"parking","parking":"surface"}}, "geometry":{"type":"Point","coordinates":[-0.81287,53.08244 ]}},
{ "type":"Feature","properties":{"osm_id":"632336955","other":{"amenity":"parking"}}, "geometry":{"type":"Point","coordinates":[-0.8071,53.07482 ]}},
{ "type":"Feature","properties":{"osm_id":"632507510","other":{"amenity":"parking","fee":"yes","parking":"surface","supervised":"no"}}, "geometry":{"type":"Point","coordinates":[-0.80857,53.07392 ]}},
{ "type":"Feature","properties":{"osm_id":"632507665","other":{"amenity":"parking"}}, "geometry":{"type":"Point","coordinates":[-0.80816,53.0742 ]}},
{ "type":"Feature","properties":{"osm_id":"632507875","other":{"amenity":"parking"}}, "geometry":{"type":"Point","coordinates":[-0.80644,53.07508 ]}},
{ "type":"Feature","properties":{"osm_id":"662621680","other":{"access":"yes","amenity":"parking","fee":"no","parking":"layby"}}, "geometry":{"type":"Point","coordinates":[-0.73448,53.08218 ]}},
{ "type":"Feature","properties":{"osm_id":"662711446","other":{"amenity":"parking"}}, "geometry":{"type":"Point","coordinates":[-0.86669,53.08529 ]}},
{ "type":"Feature","properties":{"osm_id":"662711447","other":{"access":"yes","amenity":"parking","fee":"no","parking":"layby"}}, "geometry":{"type":"Point","coordinates":[-0.8119,53.08354 ]}},
{ "type":"Feature","properties":{"osm_id":"665685849","other":{"amenity":"parking","description":"Layby"}}, "geometry":{"type":"Point","coordinates":[-0.89777,53.13466 ]}},
{ "type":"Feature","properties":{"osm_id":"666474093","other":{"amenity":"parking","description":"Layby"}}, "geometry":{"type":"Point","coordinates":[-0.75994,53.08935 ]}},
{ "type":"Feature","properties":{"osm_id":"666476860","other":{"amenity":"parking","description":"Layby"}}, "geometry":{"type":"Point","coordinates":[-1.04855,53.19673 ]}},
{ "type":"Feature","properties":{"osm_id":"666476861","other":{"amenity":"parking","description":"Layby"}}, "geometry":{"type":"Point","coordinates":[-1.0378,53.19852 ]}},
{ "type":"Feature","properties":{"osm_id":"666476862","other":{"amenity":"parking","description":"Layby"}}, "geometry":{"type":"Point","coordinates":[-0.93315,53.16538 ]}},
{ "type":"Feature","properties":{"osm_id":"666476863","other":{"amenity":"parking","description":"Layby"}}, "geometry":{"type":"Point","coordinates":[-0.91832,53.15044 ]}},
{ "type":"Feature","properties":{"osm_id":"690987024","other":{"amenity":"parking","description":"Layby"}}, "geometry":{"type":"Point","coordinates":[-0.86645,53.11821 ]}},
{ "type":"Feature","properties":{"osm_id":"690987025","other":{"amenity":"parking","description":"Layby"}}, "geometry":{"type":"Point","coordinates":[-0.89312,53.13161 ]}},
{ "type":"Feature","properties":{"osm_id":"690987027","other":{"amenity":"parking","description":"Layby"}}, "geometry":{"type":"Point","coordinates":[-1.04344,53.15175 ]}},
{ "type":"Feature","properties":{"osm_id":"690987028","other":{"access":"yes","amenity":"parking","description":"Layby","fee":"no"}}, "geometry":{"type":"Point","coordinates":[-1.04602,53.16192 ]}},
{ "type":"Feature","properties":{"osm_id":"690987031","other":{"amenity":"parking","parking":"layby"}}, "geometry":{"type":"Point","coordinates":[-0.74586,53.08465 ]}},
{ "type":"Feature","properties":{"osm_id":"704044932","other":{"amenity":"parking","description":"Patch of dirt at side of road"}}, "geometry":{"type":"Point","coordinates":[-1.05421,53.08061 ]}},
{ "type":"Feature","properties":{"osm_id":"704083502","other":{"amenity":"parking","description":"Patch of dirt at side of road"}}, "geometry":{"type":"Point","coordinates":[-1.01318,53.08407 ]}},
{ "type":"Feature","properties":{"osm_id":"821885347","other":{"amenity":"parking"}}, "geometry":{"type":"Point","coordinates":[-0.89349,53.05548 ]}},
{ "type":"Feature","properties":{"osm_id":"876369400","other":{"amenity":"parking","fee":"no","parking":"surface"}}, "geometry":{"type":"Point","coordinates":[-0.85786,53.05234 ]}},
{ "type":"Feature","properties":{"osm_id":"924449622","other":{"amenity":"parking"}}, "geometry":{"type":"Point","coordinates":[-0.753,53.2039 ]}},
{ "type":"Feature","properties":{"osm_id":"924449624","other":{"amenity":"parking"}}, "geometry":{"type":"Point","coordinates":[-0.76015,53.20083 ]}},
{ "type":"Feature","properties":{"osm_id":"945149325","name":"Brackenhurst NTU","other":{"access":"private","amenity":"parking"}}, "geometry":{"type":"Point","coordinates":[-0.9631,53.06408 ]}},
{ "type":"Feature","properties":{"osm_id":"945152389","name":"Brackenhurst NTU","other":{"amenity":"parking"}}, "geometry":{"type":"Point","coordinates":[-0.96458,53.06352 ]}},
{ "type":"Feature","properties":{"osm_id":"985600210","name":"St Mary's Close Residents Parking","other":{"access":"private","amenity":"parking"}}, "geometry":{"type":"Point","coordinates":[-1.0049,53.01385 ]}},
{ "type":"Feature","properties":{"osm_id":"989090665","name":"004","other":{"wpt_description":"14-NOV-10 12:37:37","wpt_symbol":"School"}}, "geometry":{"type":"Point","coordinates":[-0.94106,53.21137 ]}},
{ "type":"Feature","properties":{"osm_id":"989286106","other":{"amenity":"parking","parking":"layby"}}, "geometry":{"type":"Point","coordinates":[-0.91708,53.14956 ]}},
{ "type":"Feature","properties":{"osm_id":"1151601088","other":{"amenity":"parking","description":"Patch of dirt at side of road"}}, "geometry":{"type":"Point","coordinates":[-1.1032,53.09861 ]}},
{ "type":"Feature","properties":{"osm_id":"1202530589","other":{"access":"yes","amenity":"parking","fee":"no","parking":"layby"}}, "geometry":{"type":"Point","coordinates":[-0.77513,53.03684 ]}},
{ "type":"Feature","properties":{"osm_id":"1328033070","other":{"amenity":"parking","parking":"layby"}}, "geometry":{"type":"Point","coordinates":[-0.9155,53.11074 ]}},
{ "type":"Feature","properties":{"osm_id":"1430609633","other":{"access":"unknown","amenity":"parking"}}, "geometry":{"type":"Point","coordinates":[-1.13789,53.17113 ]}},
{ "type":"Feature","properties":{"osm_id":"1435897395","other":{"access":"yes","amenity":"parking","fee":"no","parking":"layby"}}, "geometry":{"type":"Point","coordinates":[-0.82847,53.18663 ]}},
{ "type":"Feature","properties":{"osm_id":"1435897397","other":{"access":"yes","amenity":"parking","check_date:fee":"2021-08-13","fee":"no","parking":"layby"}}, "geometry":{"type":"Point","coordinates":[-0.82811,53.18674 ]}},
{ "type":"Feature","properties":{"osm_id":"1435897400","other":{"access":"yes","amenity":"parking","fee":"no","parking":"layby"}}, "geometry":{"type":"Point","coordinates":[-0.84566,53.19555 ]}},
{ "type":"Feature","properties":{"osm_id":"1435897402","other":{"access":"yes","amenity":"parking","fee":"no","parking":"layby"}}, "geometry":{"type":"Point","coordinates":[-0.8454,53.19574 ]}},
{ "type":"Feature","properties":{"osm_id":"1435897405","other":{"access":"yes","amenity":"parking","fee":"no","parking":"layby"}}, "geometry":{"type":"Point","coordinates":[-0.86097,53.20323 ]}},
{ "type":"Feature","properties":{"osm_id":"1435897406","other":{"access":"yes","amenity":"parking","fee":"no","parking":"layby"}}, "geometry":{"type":"Point","coordinates":[-0.86065,53.20338 ]}},
{ "type":"Feature","properties":{"osm_id":"1435897413","other":{"access":"yes","amenity":"parking","fee":"no","parking":"layby"}}, "geometry":{"type":"Point","coordinates":[-0.8836,53.21953 ]}},
{ "type":"Feature","properties":{"osm_id":"1435897415","other":{"access":"yes","amenity":"parking","fee":"no","parking":"layby"}}, "geometry":{"type":"Point","coordinates":[-0.88321,53.21963 ]}},
{ "type":"Feature","properties":{"osm_id":"1436472249","other":{"access":"yes","amenity":"parking","fee":"no","parking":"layby"}}, "geometry":{"type":"Point","coordinates":[-0.80438,53.10438 ]}},
{ "type":"Feature","properties":{"osm_id":"1436472263","other":{"access":"yes","amenity":"parking","fee":"no","parking":"layby"}}, "geometry":{"type":"Point","coordinates":[-0.81417,53.11131 ]}},
{ "type":"Feature","properties":{"osm_id":"1436472268","other":{"access":"yes","amenity":"parking","fee":"no","parking":"layby"}}, "geometry":{"type":"Point","coordinates":[-0.81384,53.11139 ]}},
{ "type":"Feature","properties":{"osm_id":"1436472302","other":{"access":"yes","amenity":"parking","fee":"no","parking":"layby"}}, "geometry":{"type":"Point","coordinates":[-0.81001,53.13188 ]}},
{ "type":"Feature","properties":{"osm_id":"1483961300","other":{"amenity":"parking"}}, "geometry":{"type":"Point","coordinates":[-0.94541,53.1343 ]}},
{ "type":"Feature","properties":{"osm_id":"1494226055","other":{"amenity":"parking","fee":"no","parking":"surface"}}, "geometry":{"type":"Point","coordinates":[-0.88598,53.0307 ]}},
{ "type":"Feature","properties":{"osm_id":"1494226056","other":{"amenity":"parking","fee":"no","parking":"surface"}}, "geometry":{"type":"Point","coordinates":[-0.88499,53.03183 ]}},
{ "type":"Feature","properties":{"osm_id":"1535364331","other":{"amenity":"parking","description":"Patch of gravel at side of road"}}, "geometry":{"type":"Point","coordinates":[-0.92629,53.15751 ]}},
{ "type":"Feature","properties":{"osm_id":"1535364334","other":{"amenity":"parking","description":"Layby"}}, "geometry":{"type":"Point","coordinates":[-0.9384,53.16727 ]}},
{ "type":"Feature","properties":{"osm_id":"1535364342","other":{"amenity":"parking","description":"Layby"}}, "geometry":{"type":"Point","coordinates":[-0.96424,53.17652 ]}},
{ "type":"Feature","properties":{"osm_id":"1572159795","other":{"access":"yes","amenity":"parking","fee":"no","parking":"layby"}}, "geometry":{"type":"Point","coordinates":[-0.80675,53.10525 ]}},
{ "type":"Feature","properties":{"osm_id":"1572159873","other":{"access":"yes","amenity":"parking","fee":"no","parking":"layby"}}, "geometry":{"type":"Point","coordinates":[-0.80811,53.13622 ]}},
{ "type":"Feature","properties":{"osm_id":"1596898627","other":{"amenity":"parking","surface":"dirt"}}, "geometry":{"type":"Point","coordinates":[-0.99764,53.16234 ]}},
{ "type":"Feature","properties":{"osm_id":"1596962642","other":{"amenity":"parking","surface":"dirt"}}, "geometry":{"type":"Point","coordinates":[-1.0064,53.15267 ]}},
{ "type":"Feature","properties":{"osm_id":"1602838037","other":{"amenity":"parking"}}, "geometry":{"type":"Point","coordinates":[-1.07362,53.1487 ]}},
{ "type":"Feature","properties":{"osm_id":"1602902459","other":{"amenity":"parking"}}, "geometry":{"type":"Point","coordinates":[-1.10222,53.17406 ]}},
{ "type":"Feature","properties":{"osm_id":"1611229180","other":{"amenity":"parking","description":"Layby"}}, "geometry":{"type":"Point","coordinates":[-1.00224,53.15338 ]}},
{ "type":"Feature","properties":{"osm_id":"1618201574","other":{"access":"yes","amenity":"parking","fee":"no","parking":"layby"}}, "geometry":{"type":"Point","coordinates":[-0.76866,53.0726 ]}},
{ "type":"Feature","properties":{"osm_id":"1618805730","other":{"amenity":"parking","parking":"street_side"}}, "geometry":{"type":"Point","coordinates":[-0.8076,53.16024 ]}},
{ "type":"Feature","properties":{"osm_id":"1658813685","other":{"amenity":"parking"}}, "geometry":{"type":"Point","coordinates":[-0.80415,53.00692 ]}},
{ "type":"Feature","properties":{"osm_id":"1675580901","other":{"addr:housenumber":"38-50"}}, "geometry":{"type":"Point","coordinates":[-0.19546,51.3603 ]}},
{ "type":"Feature","properties":{"osm_id":"1741824616","other":{"amenity":"parking"}}, "geometry":{"type":"Point","coordinates":[-1.12596,53.10791 ]}},
{ "type":"Feature","properties":{"osm_id":"1808170269","other":{"amenity":"parking","description":"Patch of gravel at side of road"}}, "geometry":{"type":"Point","coordinates":[-1.1226,53.08396 ]}},
{ "type":"Feature","properties":{"osm_id":"1808170307","other":{"amenity":"parking","description":"Patch of gravel at side of road"}}, "geometry":{"type":"Point","coordinates":[-1.12418,53.08168 ]}},
{ "type":"Feature","properties":{"osm_id":"1808170312","other":{"amenity":"parking","description":"Patch of gravel at side of road"}}, "geometry":{"type":"Point","coordinates":[-1.12296,53.0834 ]}},
{ "type":"Feature","properties":{"osm_id":"1811949420","other":{"amenity":"parking"}}, "geometry":{"type":"Point","coordinates":[-1.10539,53.12077 ]}},
{ "type":"Feature","properties":{"osm_id":"1811949436","other":{"amenity":"parking"}}, "geometry":{"type":"Point","coordinates":[-1.10541,53.12051 ]}},
{ "type":"Feature","properties":{"osm_id":"1811949468","other":{"amenity":"parking","description":"Layby"}}, "geometry":{"type":"Point","coordinates":[-1.12117,53.11097 ]}},
{ "type":"Feature","properties":{"osm_id":"1851591792","other":{"amenity":"parking","description":"Layby"}}, "geometry":{"type":"Point","coordinates":[-0.87252,53.08849 ]}},
{ "type":"Feature","properties":{"osm_id":"2171110530","other":{"building":"yes"}}, "geometry":{"type":"Point","coordinates":[-0.95865,53.07198 ]}},
{ "type":"Feature","properties":{"osm_id":"2186312685","other":{"amenity":"parking"}}, "geometry":{"type":"Point","coordinates":[-0.72833,53.13063 ]}},
{ "type":"Feature","properties":{"osm_id":"2363825635","other":{"amenity":"parking","description":"Layby"}}, "geometry":{"type":"Point","coordinates":[-0.93052,53.19378 ]}},
{ "type":"Feature","properties":{"osm_id":"2502035982","other":{"amenity":"parking"}}, "geometry":{"type":"Point","coordinates":[-0.97042,53.20525 ]}},
{ "type":"Feature","properties":{"osm_id":"2579410651","other":{"access":"yes","amenity":"parking","fee":"no","parking":"layby"}}, "geometry":{"type":"Point","coordinates":[-0.89679,53.02043 ]}},
{ "type":"Feature","properties":{"osm_id":"2579410657","other":{"access":"yes","amenity":"parking","fee":"no","parking":"layby"}}, "geometry":{"type":"Point","coordinates":[-0.8577,53.0482 ]}},
{ "type":"Feature","properties":{"osm_id":"2714976665","other":{"amenity":"parking","description":"Layby"}}, "geometry":{"type":"Point","coordinates":[-1.09574,53.23471 ]}},
{ "type":"Feature","properties":{"osm_id":"2714976671","other":{"amenity":"parking","description":"Layby"}}, "geometry":{"type":"Point","coordinates":[-1.08591,53.23157 ]}},
{ "type":"Feature","properties":{"osm_id":"2722056548","other":{"amenity":"parking","description":"Layby","parking":"layby"}}, "geometry":{"type":"Point","coordinates":[-1.07997,53.22937 ]}},
{ "type":"Feature","properties":{"osm_id":"2904174481","other":{"access":"yes","amenity":"parking","fee":"no","parking":"layby"}}, "geometry":{"type":"Point","coordinates":[-1.06424,53.10268 ]}},
{ "type":"Feature","properties":{"osm_id":"2904174482","other":{"access":"yes","amenity":"parking","fee":"no","parking":"layby"}}, "geometry":{"type":"Point","coordinates":[-1.06347,53.11884 ]}},
{ "type":"Feature","properties":{"osm_id":"2942763897","other":{"amenity":"parking","parking":"layby"}}, "geometry":{"type":"Point","coordinates":[-1.02752,53.25945 ]}},
{ "type":"Feature","properties":{"osm_id":"2942763899","other":{"amenity":"parking","parking":"layby"}}, "geometry":{"type":"Point","coordinates":[-1.02344,53.23085 ]}},
{ "type":"Feature","properties":{"osm_id":"2942764102","other":{"amenity":"parking","parking":"layby"}}, "geometry":{"type":"Point","coordinates":[-1.02455,53.20814 ]}},
{ "type":"Feature","properties":{"osm_id":"2942764107","other":{"amenity":"parking","parking":"layby"}}, "geometry":{"type":"Point","coordinates":[-1.0238,53.21167 ]}},
{ "type":"Feature","properties":{"osm_id":"2949423239","other":{"amenity":"parking","parking":"layby"}}, "geometry":{"type":"Point","coordinates":[-1.01868,53.24468 ]}},
{ "type":"Feature","properties":{"osm_id":"2950825230","other":{"amenity":"parking","parking":"layby"}}, "geometry":{"type":"Point","coordinates":[-1.02337,53.24364 ]}},
{ "type":"Feature","properties":{"osm_id":"2965297224","other":{"amenity":"parking","description":"layby"}}, "geometry":{"type":"Point","coordinates":[-1.01068,53.22495 ]}},
{ "type":"Feature","properties":{"osm_id":"2965371359","other":{"amenity":"parking","description":"layby"}}, "geometry":{"type":"Point","coordinates":[-0.99336,53.22293 ]}},
{ "type":"Feature","properties":{"osm_id":"2965874799","other":{"amenity":"parking","description":"Layby"}}, "geometry":{"type":"Point","coordinates":[-1.00424,53.22427 ]}},
{ "type":"Feature","properties":{"osm_id":"2966392277","other":{"amenity":"parking","description":"Layby"}}, "geometry":{"type":"Point","coordinates":[-1.00453,53.22493 ]}},
{ "type":"Feature","properties":{"osm_id":"2966425835","other":{"amenity":"parking","description":"Layby","surface":"gravel"}}, "geometry":{"type":"Point","coordinates":[-0.94999,53.22153 ]}},
{ "type":"Feature","properties":{"osm_id":"2989445691","other":{"amenity":"parking","parking":"layby"}}, "geometry":{"type":"Point","coordinates":[-1.12642,53.18961 ]}},
{ "type":"Feature","properties":{"osm_id":"3425583559","other":{"access":"yes","amenity":"parking","fee":"no","parking":"layby"}}, "geometry":{"type":"Point","coordinates":[-0.8215,53.08176 ]}},
{ "type":"Feature","properties":{"osm_id":"3425583561","other":{"access":"yes","amenity":"parking","fee":"no","parking":"layby"}}, "geometry":{"type":"Point","coordinates":[-0.83175,53.07494 ]}},
{ "type":"Feature","properties":{"osm_id":"3425596005","other":{"access":"yes","amenity":"parking","fee":"no","parking":"layby"}}, "geometry":{"type":"Point","coordinates":[-0.86769,53.03928 ]}},
{ "type":"Feature","properties":{"osm_id":"3427699565","other":{"amenity":"parking","parking":"layby","surface":"dirt"}}, "geometry":{"type":"Point","coordinates":[-1.09409,53.19066 ]}},
{ "type":"Feature","properties":{"osm_id":"3429373215","other":{"amenity":"parking","parking":"layby"}}, "geometry":{"type":"Point","coordinates":[-1.06209,53.20896 ]}},
{ "type":"Feature","properties":{"osm_id":"3584547979","other":{"amenity":"parking","parking":"layby"}}, "geometry":{"type":"Point","coordinates":[-1.05886,53.04372 ]}},
{ "type":"Feature","properties":{"osm_id":"3632916824","name":"Duke's Wood Parking","other":{"amenity":"parking","capacity":"5"}}, "geometry":{"type":"Point","coordinates":[-0.99219,53.13543 ]}},
{ "type":"Feature","properties":{"osm_id":"3730036076","other":{"amenity":"parking","description":"patch of gravel at side of road"}}, "geometry":{"type":"Point","coordinates":[-1.10718,53.18175 ]}},
{ "type":"Feature","properties":{"osm_id":"3732251673","other":{"access":"unknown","amenity":"parking"}}, "geometry":{"type":"Point","coordinates":[-1.11125,53.15903 ]}},
{ "type":"Feature","properties":{"osm_id":"3746510333","other":{"amenity":"parking","parking":"layby"}}, "geometry":{"type":"Point","coordinates":[-0.76042,53.24344 ]}},
{ "type":"Feature","properties":{"osm_id":"3746547239","other":{"amenity":"parking","parking":"layby"}}, "geometry":{"type":"Point","coordinates":[-0.7563,53.21662 ]}},
{ "type":"Feature","properties":{"osm_id":"3746567070","other":{"amenity":"parking","parking":"layby"}}, "geometry":{"type":"Point","coordinates":[-0.77031,53.12127 ]}},
{ "type":"Feature","properties":{"osm_id":"3837085898","other":{"amenity":"parking"}}, "geometry":{"type":"Point","coordinates":[-0.91236,53.06053 ]}},
{ "type":"Feature","properties":{"osm_id":"3837287357","other":{"amenity":"parking"}}, "geometry":{"type":"Point","coordinates":[-0.95799,53.07932 ]}},
{ "type":"Feature","properties":{"osm_id":"3912849381","other":{"amenity":"parking","parking":"layby"}}, "geometry":{"type":"Point","coordinates":[-0.76225,53.18995 ]}},
{ "type":"Feature","properties":{"osm_id":"3913175545","other":{"amenity":"parking","description":"Patch of gravel"}}, "geometry":{"type":"Point","coordinates":[-0.75125,53.20715 ]}},
{ "type":"Feature","properties":{"osm_id":"3918853832","other":{"amenity":"parking"}}, "geometry":{"type":"Point","coordinates":[-0.96297,53.04055 ]}},
{ "type":"Feature","properties":{"osm_id":"4003485006","other":{"amenity":"parking"}}, "geometry":{"type":"Point","coordinates":[-0.9204,53.06415 ]}},
{ "type":"Feature","properties":{"osm_id":"4115221113","other":{"access":"yes","amenity":"parking","fee":"no","parking":"layby"}}, "geometry":{"type":"Point","coordinates":[-0.78225,53.08976 ]}},
{ "type":"Feature","properties":{"osm_id":"4388465728","other":{"amenity":"parking","parking":"layby"}}, "geometry":{"type":"Point","coordinates":[-0.96319,53.08725 ]}},
{ "type":"Feature","properties":{"osm_id":"5032900339","other":{"amenity":"parking","parking":"layby"}}, "geometry":{"type":"Point","coordinates":[-1.05195,53.12103 ]}},
{ "type":"Feature","properties":{"osm_id":"5349150859","other":{"amenity":"parking"}}, "geometry":{"type":"Point","coordinates":[-1.01555,53.00069 ]}},
{ "type":"Feature","properties":{"osm_id":"5570912971","other":{"amenity":"parking"}}, "geometry":{"type":"Point","coordinates":[-1.05399,53.05737 ]}},
{ "type":"Feature","properties":{"osm_id":"5647855248","other":{"emergency":"defibrillator"}}, "geometry":{"type":"Point","coordinates":[-0.80847,53.07874 ]}},
{ "type":"Feature","properties":{"osm_id":"6588713339","other":{"amenity":"parking"}}, "geometry":{"type":"Point","coordinates":[-0.80014,53.08201 ]}},
{ "type":"Feature","properties":{"osm_id":"8152273937","highway":"street_lamp","ref":"10","other":{"lamp_mount":"bent_mast","lamp_type":"led"}}, "geometry":{"type":"Point","coordinates":[-1.53149,52.28929 ]}},
{ "type":"Feature","properties":{"osm_id":"8152273938","highway":"street_lamp","ref":"11","other":{"lamp_mount":"bent_mast","lamp_type":"led"}}, "geometry":{"type":"Point","coordinates":[-1.5319,52.28923 ]}},
{ "type":"Feature","properties":{"osm_id":"8152273939","highway":"street_lamp","ref":"12","other":{"lamp_mount":"bent_mast","lamp_type":"led"}}, "geometry":{"type":"Point","coordinates":[-1.53221,52.28912 ]}},
{ "type":"Feature","properties":{"osm_id":"8152273940","highway":"street_lamp","ref":"13","other":{"lamp_mount":"bent_mast","lamp_type":"led"}}, "geometry":{"type":"Point","coordinates":[-1.53259,52.28897 ]}},
{ "type":"Feature","properties":{"osm_id":"8152273941","highway":"street_lamp","ref":"14","other":{"lamp_mount":"bent_mast","lamp_type":"led"}}, "geometry":{"type":"Point","coordinates":[-1.53288,52.28887 ]}},
{ "type":"Feature","properties":{"osm_id":"8152273942","highway":"street_lamp","ref":"15","other":{"lamp_mount":"bent_mast","lamp_type":"led"}}, "geometry":{"type":"Point","coordinates":[-1.5332,52.28874 ]}},
{ "type":"Feature","properties":{"osm_id":"8152273943","highway":"street_lamp","ref":"9","other":{"lamp_mount":"bent_mast","lamp_type":"led"}}, "geometry":{"type":"Point","coordinates":[-1.53122,52.28947 ]}},
{ "type":"Feature","properties":{"osm_id":"8152273944","highway":"street_lamp","ref":"8","other":{"lamp_mount":"bent_mast","lamp_type":"led"}}, "geometry":{"type":"Point","coordinates":[-1.53095,52.28959 ]}},
{ "type":"Feature","properties":{"osm_id":"8152273945","highway":"street_lamp","ref":"7","other":{"lamp_mount":"bent_mast","lamp_type":"led"}}, "geometry":{"type":"Point","coordinates":[-1.53056,52.28965 ]}},
{ "type":"Feature","properties":{"osm_id":"8152273946","highway":"street_lamp","ref":"6","other":{"lamp_mount":"straight_mast","lamp_type":"led"}}, "geometry":{"type":"Point","coordinates":[-1.53016,52.28989 ]}},
{ "type":"Feature","properties":{"osm_id":"8152273947","highway":"street_lamp","ref":"5","other":{"lamp_mount":"straight_mast","lamp_type":"led"}}, "geometry":{"type":"Point","coordinates":[-1.52968,52.29007 ]}},
{ "type":"Feature","properties":{"osm_id":"8152273948","highway":"street_lamp","ref":"4","other":{"lamp_mount":"straight_mast","lamp_type":"led"}}, "geometry":{"type":"Point","coordinates":[-1.52926,52.29022 ]}},
{ "type":"Feature","properties":{"osm_id":"8152273949","highway":"street_lamp","ref":"3","other":{"lamp_mount":"straight_mast","lamp_type":"led"}}, "geometry":{"type":"Point","coordinates":[-1.52884,52.29031 ]}},
{ "type":"Feature","properties":{"osm_id":"8152273950","highway":"street_lamp","ref":"2","other":{"lamp_mount":"straight_mast","lamp_type":"led"}}, "geometry":{"type":"Point","coordinates":[-1.52845,52.29044 ]}},
{ "type":"Feature","properties":{"osm_way_id":"18935622","amenity":"parking"},"geometry":{"type":"MultiPolygon","coordinates":[[[[-0.79564,53.07671],[-0.79578,53.07679],[-0.79577,53.07693],[-0.79471,53.07664],[-0.79488,53.07638],[-0.79566,53.0766],[-0.79564,53.07671]]]]}},
{ "type":"Feature","properties":{"osm_way_id":"18935978","amenity":"parking"},"geometry":{"type":"MultiPolygon","coordinates":[[[[-0.81156,53.08016],[-0.81229,53.08034],[-0.81234,53.08042],[-0.81209,53.08075],[-0.81237,53.08083],[-0.81191,53.08135],[-0.81108,53.08112],[-0.81142,53.08063],[-0.81126,53.08059],[-0.81156,53.08016]]]]}},
{ "type":"Feature","properties":{"osm_way_id":"25645491","amenity":"parking"},"geometry":{"type":"MultiPolygon","coordinates":[[[[-0.95465,53.00926],[-0.95479,53.00936],[-0.95484,53.0094],[-0.95439,53.0096],[-0.95339,53.01004],[-0.95333,53.00998],[-0.95306,53.00977],[-0.95446,53.00913],[-0.95465,53.00926]]]]}},
{ "type":"Feature","properties":{"osm_way_id":"26160943","amenity":"parking"},"geometry":{"type":"MultiPolygon","coordinates":[[[[-1.08349,53.23823],[-1.08344,53.23814],[-1.08349,53.23802],[-1.08354,53.23791],[-1.08368,53.23824],[-1.08369,53.23826],[-1.08355,53.23828],[-1.08352,53.23827],[-1.08349,53.23823]]]]}},
{ "type":"Feature","properties":{"osm_way_id":"26327051","amenity":"parking","other":{"capacity:disabled":"yes","fee":"no"}}, "geometry":{"type":"MultiPolygon","coordinates":[[[[-0.8166,53.07031],[-0.81655,53.0702],[-0.81657,53.07017],[-0.81673,53.07023],[-0.81676,53.07018],[-0.81699,53.07025],[-0.81676,53.07053],[-0.81647,53.07046],[-0.8166,53.07031]]]]}},
{ "type":"Feature","properties":{"osm_way_id":"26327054","amenity":"parking","other":{"capacity:disabled":"2","fee":"no","park_ride":"no","parking":"surface"}}, "geometry":{"type":"MultiPolygon","coordinates":[[[[-0.81857,53.07069],[-0.81837,53.07061],[-0.81862,53.07043],[-0.81842,53.07034],[-0.81801,53.07066],[-0.8184,53.07083],[-0.81857,53.07069]]]]}},
{ "type":"Feature","properties":{"osm_way_id":"26401842","amenity":"parking","other":{"capacity:disabled":"yes","fee":"yes"}}, "geometry":{"type":"MultiPolygon","coordinates":[[[[-0.8078,53.07803],[-0.80811,53.07771],[-0.80757,53.07752],[-0.80726,53.07783],[-0.8078,53.07803]]]]}},
{ "type":"Feature","properties":{"osm_way_id":"26429289","amenity":"parking","other":{"fee":"yes","parking":"surface"}}, "geometry":{"type":"MultiPolygon","coordinates":[[[[-0.80126,53.08411],[-0.80166,53.08387],[-0.80069,53.08211],[-0.80063,53.08208],[-0.8005,53.08207],[-0.80021,53.08214],[-0.80023,53.08218],[-0.80016,53.0822],[-0.80106,53.08385],[-0.80126,53.08411]]]]}},
{ "type":"Feature","properties":{"osm_way_id":"26451746","amenity":"parking","other":{"fee":"yes"}}, "geometry":{"type":"MultiPolygon","coordinates":[[[[-0.80627,53.07795],[-0.80655,53.07765],[-0.80603,53.07748],[-0.80595,53.07756],[-0.80573,53.07777],[-0.80578,53.07778],[-0.80627,53.07795]]]]}},
{ "type":"Feature","properties":{"osm_way_id":"28165180","amenity":"parking","other":{"capacity:disabled":"yes","fee":"no"}}, "geometry":{"type":"MultiPolygon","coordinates":[[[[-0.80355,53.08401],[-0.80294,53.08372],[-0.80247,53.08394],[-0.80286,53.08414],[-0.8029,53.08424],[-0.80303,53.08431],[-0.80355,53.08401]]]]}},
{ "type":"Feature","properties":{"osm_way_id":"30970403","amenity":"parking","other":{"fee":"yes","parking":"surface"}}, "geometry":{"type":"MultiPolygon","coordinates":[[[[-0.81349,53.07951],[-0.81372,53.07959],[-0.81282,53.0803],[-0.81276,53.08034],[-0.81262,53.08035],[-0.81249,53.08032],[-0.81243,53.08025],[-0.81246,53.08018],[-0.81254,53.08014],[-0.81266,53.08013],[-0.81276,53.08014],[-0.81279,53.08012],[-0.8126,53.08006],[-0.81265,53.07999],[-0.81307,53.07977],[-0.81349,53.07951]]]]}},
{ "type":"Feature","properties":{"osm_way_id":"31329520","amenity":"parking"},"geometry":{"type":"MultiPolygon","coordinates":[[[[-1.03974,53.10828],[-1.03989,53.10828],[-1.04016,53.10828],[-1.04026,53.10831],[-1.04025,53.10833],[-1.04023,53.10834],[-1.04016,53.10843],[-1.03993,53.10846],[-1.03977,53.10841],[-1.03975,53.10832],[-1.03974,53.10828]]]]}},
{ "type":"Feature","properties":{"osm_way_id":"31363056","amenity":"parking"},"geometry":{"type":"MultiPolygon","coordinates":[[[[-1.03056,53.13457],[-1.03048,53.13456],[-1.03044,53.13456],[-1.03036,53.13458],[-1.03032,53.1346],[-1.03026,53.13465],[-1.03024,53.13471],[-1.03026,53.13476],[-1.03029,53.13479],[-1.03034,53.13482],[-1.03039,53.13478],[-1.03044,53.13485],[-1.03049,53.13485],[-1.03052,53.13484],[-1.03051,53.13477],[-1.03054,53.13476],[-1.03062,53.13482],[-1.03068,53.13477],[-1.03071,53.13473],[-1.03071,53.1347],[-1.0307,53.13465],[-1.03066,53.13461],[-1.0306,53.13459],[-1.03056,53.13457]]]]}},
{ "type":"Feature","properties":{"osm_way_id":"31700463","amenity":"parking","other":{"access":"permissive","fee":"no","park_ride":"no","supervised":"no","surface":"gravel"}}, "geometry":{"type":"MultiPolygon","coordinates":[[[[-0.99295,53.10247],[-0.99295,53.10254],[-0.99258,53.10254],[-0.99258,53.10247],[-0.9929,53.10246],[-0.99295,53.10247]]]]}},
{ "type":"Feature","properties":{"osm_way_id":"34780535","name":"Dukeries Complex Car Park","amenity":"parking","other":{"parking":"surface"}}, "geometry":{"type":"MultiPolygon","coordinates":[[[[-0.99889,53.20975],[-0.99851,53.20976],[-0.99848,53.20925],[-0.99885,53.20924],[-0.99885,53.20929],[-0.99889,53.20975]]]]}},
{ "type":"Feature","properties":{"osm_way_id":"37090198","amenity":"parking","other":{"access":"permissive"}}, "geometry":{"type":"MultiPolygon","coordinates":[[[[-1.00461,53.01105],[-1.00479,53.01119],[-1.00495,53.01133],[-1.00448,53.01148],[-1.00464,53.01163],[-1.00494,53.01154],[-1.00502,53.01152],[-1.00491,53.0114],[-1.00499,53.01137],[-1.00522,53.0113],[-1.00484,53.01098],[-1.00484,53.01095],[-1.00461,53.01105]]]]}},
{ "type":"Feature","properties":{"osm_way_id":"44373895","name":"Sherwood Pines Forest Park","amenity":"parking","other":{"fee":"yes","parking":"surface"}}, "geometry":{"type":"MultiPolygon","coordinates":[[[[-1.08692,53.16816],[-1.08756,53.16801],[-1.08817,53.16783],[-1.08849,53.1676],[-1.08866,53.16731],[-1.08856,53.1669],[-1.08791,53.16693],[-1.08667,53.16758],[-1.08628,53.16758],[-1.08619,53.16774],[-1.08633,53.16788],[-1.08673,53.16813],[-1.08692,53.16816]]]]}},
{ "type":"Feature","properties":{"osm_way_id":"44986715","name":"Haywood Oaks","amenity":"parking"},"geometry":{"type":"MultiPolygon","coordinates":[[[[-1.09021,53.09623],[-1.08986,53.09623],[-1.08895,53.09627],[-1.08883,53.09623],[-1.08873,53.09604],[-1.08875,53.09588],[-1.08905,53.09579],[-1.08988,53.09615],[-1.09017,53.09614],[-1.09021,53.09623]]]]}},
{ "type":"Feature","properties":{"osm_way_id":"47290567","amenity":"parking"},"geometry":{"type":"MultiPolygon","coordinates":[[[[-1.06821,53.16223],[-1.06821,53.16218],[-1.06796,53.16218],[-1.06796,53.16223],[-1.06821,53.16223]]]]}},
{ "type":"Feature","properties":{"osm_way_id":"47290571","amenity":"parking"},"geometry":{"type":"MultiPolygon","coordinates":[[[[-1.0672,53.16253],[-1.0673,53.16246],[-1.06741,53.16252],[-1.06732,53.16259],[-1.06717,53.16265],[-1.067,53.16271],[-1.06684,53.16275],[-1.06679,53.16267],[-1.06694,53.16263],[-1.06709,53.16258],[-1.0672,53.16253]]]]}},
{ "type":"Feature","properties":{"osm_way_id":"47308354","amenity":"parking"},"geometry":{"type":"MultiPolygon","coordinates":[[[[-1.05078,53.16963],[-1.05071,53.16971],[-1.05058,53.16965],[-1.05054,53.1697],[-1.05024,53.16958],[-1.05032,53.1695],[-1.0504,53.16943],[-1.05071,53.16954],[-1.05066,53.16959],[-1.05078,53.16963]]]]}},
{ "type":"Feature","properties":{"osm_way_id":"47308356","amenity":"parking"},"geometry":{"type":"MultiPolygon","coordinates":[[[[-1.05005,53.16964],[-1.05013,53.16967],[-1.05022,53.1696],[-1.05052,53.16971],[-1.05043,53.16979],[-1.05056,53.16983],[-1.05028,53.17008],[-1.05015,53.17003],[-1.0501,53.17007],[-1.05005,53.17012],[-1.05017,53.17017],[-1.05005,53.17028],[-1.04992,53.17023],[-1.04982,53.17031],[-1.04908,53.17001],[-1.04872,53.16969],[-1.0488,53.16961],[-1.04886,53.16956],[-1.04923,53.16974],[-1.0491,53.16987],[-1.04917,53.16993],[-1.04934,53.16977],[-1.04949,53.16963],[-1.04935,53.16963],[-1.04926,53.16972],[-1.04879,53.1695],[-1.04896,53.16935],[-1.04903,53.16931],[-1.0491,53.16928],[-1.04921,53.16927],[-1.04929,53.16927],[-1.04934,53.16928],[-1.04929,53.16937],[-1.04938,53.16938],[-1.04948,53.16942],[-1.04957,53.16933],[-1.05004,53.16953],[-1.04996,53.1696],[-1.05005,53.16964]]]]}},
{ "type":"Feature","properties":{"osm_way_id":"47308358","amenity":"parking"},"geometry":{"type":"MultiPolygon","coordinates":[[[[-1.05015,53.16943],[-1.05006,53.16952],[-1.04995,53.16947],[-1.05,53.16943],[-1.04988,53.16938],[-1.04996,53.16931],[-1.05007,53.16935],[-1.05012,53.1693],[-1.05024,53.16935],[-1.05015,53.16943]]]]}},
{ "type":"Feature","properties":{"osm_way_id":"47308359","amenity":"parking"},"geometry":{"type":"MultiPolygon","coordinates":[[[[-1.05154,53.16932],[-1.05156,53.16937],[-1.05156,53.16941],[-1.05152,53.16944],[-1.05166,53.16947],[-1.05173,53.16936],[-1.05154,53.16932]]]]}},
{ "type":"Feature","properties":{"osm_way_id":"47308360","amenity":"parking"},"geometry":{"type":"MultiPolygon","coordinates":[[[[-1.05101,53.16938],[-1.05087,53.16934],[-1.05082,53.16931],[-1.05074,53.1694],[-1.05096,53.16945],[-1.05101,53.16938]]]]}},
{ "type":"Feature","properties":{"osm_way_id":"47308361","amenity":"parking"},"geometry":{"type":"MultiPolygon","coordinates":[[[[-1.05065,53.16928],[-1.05082,53.16931],[-1.05081,53.16927],[-1.05081,53.16923],[-1.05085,53.1692],[-1.05073,53.16917],[-1.05065,53.16928]]]]}},
{ "type":"Feature","properties":{"osm_way_id":"47308364","amenity":"parking"},"geometry":{"type":"MultiPolygon","coordinates":[[[[-1.05066,53.17042],[-1.05075,53.1704],[-1.05066,53.17026],[-1.05055,53.17029],[-1.0506,53.17032],[-1.05066,53.17042]]]]}},
{ "type":"Feature","properties":{"osm_way_id":"47308365","amenity":"parking"},"geometry":{"type":"MultiPolygon","coordinates":[[[[-1.05033,53.17049],[-1.05027,53.1704],[-1.05027,53.17034],[-1.05016,53.17037],[-1.05027,53.17055],[-1.05036,53.17052],[-1.05033,53.17049]]]]}},
{ "type":"Feature","properties":{"osm_way_id":"47312799","amenity":"parking"},"geometry":{"type":"MultiPolygon","coordinates":[[[[-0.8168,53.07798],[-0.81684,53.0779],[-0.81682,53.07779],[-0.81672,53.07771],[-0.81654,53.07765],[-0.81638,53.07768],[-0.81419,53.07849],[-0.81402,53.0786],[-0.8133,53.07871],[-0.81327,53.07874],[-0.81343,53.07881],[-0.81359,53.07899],[-0.8138,53.07931],[-0.81398,53.07934],[-0.81406,53.07931],[-0.81413,53.07929],[-0.81406,53.07918],[-0.81426,53.07912],[-0.8144,53.07902],[-0.81445,53.0789],[-0.81439,53.07876],[-0.81455,53.07872],[-0.81457,53.07861],[-0.81466,53.07854],[-0.81477,53.07851],[-0.8149,53.07851],[-0.81503,53.07854],[-0.81512,53.0786],[-0.81516,53.07869],[-0.81541,53.07869],[-0.81563,53.07858],[-0.81584,53.07846],[-0.81605,53.0783],[-0.81625,53.07819],[-0.81648,53.0781],[-0.81669,53.07804],[-0.8168,53.07798]]]]}},
{ "type":"Feature","properties":{"osm_way_id":"47313742","amenity":"parking","other":{"fee":"yes"}}, "geometry":{"type":"MultiPolygon","coordinates":[[[[-0.81219,53.07843],[-0.81193,53.07835],[-0.8117,53.07856],[-0.81123,53.07877],[-0.8111,53.07879],[-0.81099,53.07889],[-0.8113,53.07901],[-0.81169,53.07872],[-0.81169,53.07869],[-0.81184,53.07865],[-0.81192,53.07861],[-0.81219,53.07843]]]]}},
{ "type":"Feature","properties":{"osm_way_id":"47315256","amenity":"parking"},"geometry":{"type":"MultiPolygon","coordinates":[[[[-0.8145,53.08079],[-0.8144,53.08082],[-0.81451,53.08098],[-0.8143,53.08103],[-0.8142,53.08113],[-0.81377,53.081],[-0.81303,53.08144],[-0.81233,53.08119],[-0.81262,53.0809],[-0.81281,53.08068],[-0.81346,53.08091],[-0.81387,53.08058],[-0.81409,53.08053],[-0.81416,53.08051],[-0.81435,53.08062],[-0.8145,53.08079]]]]}},
{ "type":"Feature","properties":{"osm_way_id":"51544069","amenity":"parking"},"geometry":{"type":"MultiPolygon","coordinates":[[[[-1.07026,53.06057],[-1.07026,53.06055],[-1.07048,53.06053],[-1.07053,53.06032],[-1.07067,53.06032],[-1.0707,53.06059],[-1.07071,53.06063],[-1.07046,53.06062],[-1.07044,53.06059],[-1.07026,53.06057]]]]}},
{ "type":"Feature","properties":{"osm_way_id":"53744448","amenity":"parking","other":{"operator":"The Co-operative Food"}}, "geometry":{"type":"MultiPolygon","coordinates":[[[[-1.11862,53.11872],[-1.11853,53.1186],[-1.11854,53.11856],[-1.11856,53.11852],[-1.11861,53.11849],[-1.11871,53.11845],[-1.11883,53.11856],[-1.11876,53.11859],[-1.1188,53.11866],[-1.11862,53.11872]]]]}},
{ "type":"Feature","properties":{"osm_way_id":"54233894","amenity":"parking"},"geometry":{"type":"MultiPolygon","coordinates":[[[[-1.11934,53.10049],[-1.1192,53.10052],[-1.11919,53.10047],[-1.11911,53.10039],[-1.11951,53.10028],[-1.11968,53.10049],[-1.1194,53.10056],[-1.11934,53.10049]]]]}},
{ "type":"Feature","properties":{"osm_way_id":"54233912","amenity":"parking","other":{"access":"customers"}}, "geometry":{"type":"MultiPolygon","coordinates":[[[[-1.119,53.09953],[-1.11902,53.0996],[-1.11911,53.09961],[-1.11918,53.09957],[-1.11916,53.09954],[-1.11911,53.09946],[-1.11898,53.09947],[-1.119,53.09953]]]]}},
{ "type":"Feature","properties":{"osm_way_id":"58887672","amenity":"parking","military":"airfield","other":{"access":"private"}}, "geometry":{"type":"MultiPolygon","coordinates":[[[[-3.56556,57.639],[-3.56491,57.63923],[-3.56524,57.6395],[-3.56588,57.63927],[-3.56556,57.639]]]]}},
{ "type":"Feature","properties":{"osm_way_id":"58887684","amenity":"parking","other":{"parking":"surface"}}, "geometry":{"type":"MultiPolygon","coordinates":[[[[-3.56993,57.63489],[-3.56966,57.63487],[-3.56962,57.63502],[-3.56989,57.63504],[-3.56993,57.63489]]]]}},
{ "type":"Feature","properties":{"osm_way_id":"68248504","amenity":"parking"},"geometry":{"type":"MultiPolygon","coordinates":[[[[-0.89721,53.05452],[-0.89709,53.05457],[-0.89706,53.05454],[-0.89712,53.05449],[-0.89732,53.05441],[-0.89737,53.05446],[-0.89721,53.05452]]]]}},
{ "type":"Feature","properties":{"osm_way_id":"90132550","name":"Hilton Treetops Car Park","amenity":"parking"},"geometry":{"type":"MultiPolygon","coordinates":[[[[-2.15155,57.1351],[-2.15216,57.13503],[-2.15255,57.13488],[-2.1529,57.13472],[-2.15274,57.13453],[-2.15264,57.13455],[-2.15257,57.13445],[-2.15253,57.1344],[-2.15246,57.13432],[-2.15259,57.13429],[-2.15254,57.13423],[-2.15242,57.13426],[-2.15234,57.13417],[-2.15185,57.13419],[-2.15139,57.13427],[-2.15109,57.13436],[-2.15133,57.1347],[-2.15145,57.13486],[-2.15158,57.13498],[-2.15146,57.13502],[-2.15155,57.1351]]]]}},
{ "type":"Feature","properties":{"osm_way_id":"90264020","amenity":"parking","other":{"access":"no","parking":"surface"}}, "geometry":{"type":"MultiPolygon","coordinates":[[[[-1.55949,52.38709],[-1.55971,52.38709],[-1.55971,52.38693],[-1.55971,52.38683],[-1.55959,52.38683],[-1.55949,52.38683],[-1.55949,52.38709]]]]}},
{ "type":"Feature","properties":{"osm_way_id":"90264022","amenity":"parking","other":{"access":"no","parking":"surface"}}, "geometry":{"type":"MultiPolygon","coordinates":[[[[-1.55966,52.38755],[-1.56006,52.38756],[-1.56006,52.38743],[-1.55996,52.38743],[-1.55996,52.38713],[-1.55968,52.38713],[-1.55968,52.38744],[-1.55957,52.38744],[-1.55957,52.38749],[-1.55957,52.38752],[-1.55966,52.38752],[-1.55966,52.38755]]]]}},
{ "type":"Feature","properties":{"osm_way_id":"92431519","amenity":"parking"},"geometry":{"type":"MultiPolygon","coordinates":[[[[-0.9845,52.98651],[-0.98439,52.98674],[-0.98534,52.98688],[-0.98556,52.98683],[-0.98558,52.98678],[-0.98513,52.98672],[-0.98518,52.98661],[-0.9845,52.98651]]]]}},
{ "type":"Feature","properties":{"osm_way_id":"92431525","amenity":"parking"},"geometry":{"type":"MultiPolygon","coordinates":[[[[-0.97872,52.98658],[-0.9786,52.98657],[-0.97838,52.9866],[-0.97818,52.98664],[-0.97812,52.9867],[-0.97811,52.98673],[-0.97814,52.98679],[-0.97823,52.98688],[-0.97839,52.98694],[-0.97871,52.98666],[-0.97878,52.9866],[-0.97872,52.98658]]]]}},
{ "type":"Feature","properties":{"osm_way_id":"95149250","amenity":"parking"},"geometry":{"type":"MultiPolygon","coordinates":[[[[-0.00996,52.05422],[-0.01008,52.05436],[-0.01038,52.05427],[-0.01022,52.05407],[-0.01068,52.05392],[-0.0108,52.05395],[-0.0109,52.05406],[-0.01098,52.05414],[-0.01038,52.05433],[-0.01008,52.0544],[-0.00975,52.05441],[-0.00969,52.05441],[-0.00935,52.0545],[-0.00927,52.05438],[-0.00966,52.05426],[-0.00972,52.05436],[-0.00987,52.05437],[-0.00979,52.05427],[-0.00996,52.05422]]]]}},
{ "type":"Feature","properties":{"osm_way_id":"114105085","name":"Forest Corner car park","amenity":"parking"},"geometry":{"type":"MultiPolygon","coordinates":[[[[-1.06919,53.19914],[-1.06919,53.19878],[-1.06919,53.19867],[-1.06928,53.19833],[-1.06798,53.19805],[-1.06783,53.19821],[-1.06767,53.19838],[-1.06807,53.19851],[-1.06811,53.19877],[-1.06824,53.19885],[-1.06875,53.19901],[-1.06919,53.19914]]]]}},
{ "type":"Feature","properties":{"osm_way_id":"115136476","amenity":"parking"},"geometry":{"type":"MultiPolygon","coordinates":[[[[-0.86952,53.02357],[-0.86983,53.02366],[-0.86971,53.02389],[-0.86969,53.02394],[-0.86955,53.0239],[-0.86955,53.02388],[-0.86942,53.02386],[-0.86945,53.02381],[-0.86952,53.02357]]]]}},
{ "type":"Feature","properties":{"osm_way_id":"119441423","name":"NCP Newark Northgate","amenity":"parking","other":{"fee":"yes","operator":"NCP","park_ride":"no","parking":"surface"}}, "geometry":{"type":"MultiPolygon","coordinates":[[[[-0.79957,53.081],[-0.79911,53.08038],[-0.79871,53.07969],[-0.79835,53.07909],[-0.79874,53.07895],[-0.79902,53.07921],[-0.79923,53.07961],[-0.79894,53.07967],[-0.7993,53.08035],[-0.79959,53.08029],[-0.79994,53.08094],[-0.80038,53.08086],[-0.80074,53.08149],[-0.80072,53.08152],[-0.80067,53.08158],[-0.80047,53.08162],[-0.80022,53.08156],[-0.80015,53.08157],[-0.80004,53.08159],[-0.79995,53.08141],[-0.79982,53.08144],[-0.79979,53.08139],[-0.79957,53.081]]]]}},
{ "type":"Feature","properties":{"osm_way_id":"119745122","name":"St Marks Place","amenity":"parking","building":"yes","shop":"mall","other":{"layer":"1","parking":"multi-storey"}}, "geometry":{"type":"MultiPolygon","coordinates":[[[[-0.81131,53.07511],[-0.81136,53.07513],[-0.81136,53.07514],[-0.81134,53.07518],[-0.81136,53.07519],[-0.81128,53.0753],[-0.81107,53.07535],[-0.81088,53.07559],[-0.81018,53.07543],[-0.8101,53.07555],[-0.80999,53.07558],[-0.80992,53.07556],[-0.80988,53.07552],[-0.80965,53.07547],[-0.80962,53.0755],[-0.80958,53.07549],[-0.80959,53.07547],[-0.80933,53.0754],[-0.80931,53.07543],[-0.80927,53.07545],[-0.80906,53.0754],[-0.80902,53.0753],[-0.80933,53.07508],[-0.80934,53.07509],[-0.80939,53.07504],[-0.80951,53.07501],[-0.80958,53.07503],[-0.80961,53.07499],[-0.81089,53.07527],[-0.81092,53.07522],[-0.81101,53.07523],[-0.81112,53.0752],[-0.81115,53.07516],[-0.81062,53.07505],[-0.8105,53.07502],[-0.81052,53.07498],[-0.81054,53.07494],[-0.81066,53.07497],[-0.81131,53.07511]]]]}},
{ "type":"Feature","properties":{"osm_way_id":"129446616","amenity":"parking"},"geometry":{"type":"MultiPolygon","coordinates":[[[[-1.0627,53.20303],[-1.06281,53.20292],[-1.06289,53.20282],[-1.06273,53.20278],[-1.06263,53.20282],[-1.06257,53.20293],[-1.0627,53.20303]]]]}},
{ "type":"Feature","properties":{"osm_way_id":"135097634","amenity":"parking"},"geometry":{"type":"MultiPolygon","coordinates":[[[[-0.94628,53.08288],[-0.94664,53.08311],[-0.94661,53.08314],[-0.94659,53.08315],[-0.94648,53.0832],[-0.94623,53.08308],[-0.94586,53.08283],[-0.94594,53.08277],[-0.94605,53.08271],[-0.94617,53.0828],[-0.94612,53.08283],[-0.94618,53.08287],[-0.94624,53.0829],[-0.94628,53.08288]]]]}},
{ "type":"Feature","properties":{"osm_way_id":"135102708","amenity":"parking"},"geometry":{"type":"MultiPolygon","coordinates":[[[[-0.94676,53.08205],[-0.94692,53.08214],[-0.94716,53.08226],[-0.94728,53.08224],[-0.94732,53.08221],[-0.94688,53.08196],[-0.94684,53.08199],[-0.94676,53.08205]]]]}},
{ "type":"Feature","properties":{"osm_way_id":"136281178","amenity":"parking","other":{"access":"customers","parking":"surface"}}, "geometry":{"type":"MultiPolygon","coordinates":[[[[-0.78325,53.09593],[-0.78307,53.09602],[-0.78329,53.09617],[-0.78348,53.0963],[-0.78389,53.09608],[-0.78374,53.09598],[-0.78358,53.09606],[-0.78351,53.09601],[-0.78343,53.09605],[-0.78326,53.09594],[-0.78325,53.09593]]]]}},
{ "type":"Feature","properties":{"osm_way_id":"140169865","amenity":"parking"},"geometry":{"type":"MultiPolygon","coordinates":[[[[-1.11962,53.10521],[-1.11964,53.10519],[-1.11989,53.105],[-1.11994,53.10502],[-1.12003,53.10506],[-1.12001,53.10507],[-1.11992,53.10513],[-1.11981,53.10522],[-1.11974,53.10527],[-1.11972,53.10526],[-1.11962,53.10521]]]]}},
{ "type":"Feature","properties":{"osm_way_id":"161546745","amenity":"parking","other":{"access":"customers"}}, "geometry":{"type":"MultiPolygon","coordinates":[[[[-0.88754,53.13164],[-0.88766,53.13142],[-0.88741,53.13132],[-0.88732,53.13128],[-0.88714,53.1316],[-0.88751,53.13164],[-0.88754,53.13164]]]]}},
{ "type":"Feature","properties":{"osm_way_id":"176564237","amenity":"parking"},"geometry":{"type":"MultiPolygon","coordinates":[[[[-0.72919,53.07798],[-0.72844,53.07789],[-0.72853,53.07773],[-0.72871,53.07763],[-0.72889,53.07767],[-0.72883,53.07781],[-0.72926,53.07787],[-0.72919,53.07798]]]]}},
{ "type":"Feature","properties":{"osm_way_id":"176564239","amenity":"parking"},"geometry":{"type":"MultiPolygon","coordinates":[[[[-0.72837,53.07881],[-0.72851,53.07835],[-0.72855,53.07808],[-0.72857,53.07804],[-0.72911,53.0781],[-0.72894,53.07833],[-0.72879,53.07885],[-0.72869,53.07893],[-0.72842,53.07888],[-0.72837,53.07881]]]]}},
{ "type":"Feature","properties":{"osm_way_id":"177661441","amenity":"parking","other":{"access":"customers"}}, "geometry":{"type":"MultiPolygon","coordinates":[[[[-0.99877,53.18919],[-0.99865,53.18944],[-0.99837,53.18941],[-0.99846,53.18921],[-0.99841,53.18921],[-0.99848,53.189],[-0.99856,53.18902],[-0.99859,53.18895],[-0.99876,53.18897],[-0.9987,53.1891],[-0.99864,53.18909],[-0.99861,53.18917],[-0.99877,53.18919]]]]}},
{ "type":"Feature","properties":{"osm_way_id":"177661442","amenity":"parking","other":{"access":"customers"}}, "geometry":{"type":"MultiPolygon","coordinates":[[[[-0.99797,53.18819],[-0.998,53.18815],[-0.99804,53.18808],[-0.99878,53.18828],[-0.99874,53.18834],[-0.99871,53.18837],[-0.99863,53.18835],[-0.99856,53.18833],[-0.99834,53.18828],[-0.99797,53.18819]]]]}},
{ "type":"Feature","properties":{"osm_way_id":"178901467","name":"Dukeries Complex Car Park","amenity":"parking","other":{"parking":"surface"}}, "geometry":{"type":"MultiPolygon","coordinates":[[[[-0.99925,53.20892],[-0.99926,53.20912],[-0.99899,53.20913],[-0.99899,53.20915],[-0.99872,53.20916],[-0.99869,53.20888],[-0.99886,53.20887],[-0.99889,53.20887],[-0.99889,53.20884],[-0.99892,53.20883],[-0.99897,53.20883],[-0.99896,53.20889],[-0.99897,53.20893],[-0.99925,53.20892]]]]}},
{ "type":"Feature","properties":{"osm_way_id":"184216697","amenity":"parking","other":{"access":"customers","capacity":"50","fee":"no","parking":"surface"}}, "geometry":{"type":"MultiPolygon","coordinates":[[[[-0.7844,53.05377],[-0.78437,53.05345],[-0.7837,53.0535],[-0.7837,53.05356],[-0.78369,53.05363],[-0.78374,53.05382],[-0.78382,53.05382],[-0.78386,53.05382],[-0.78399,53.05381],[-0.7844,53.05377]]]]}},
{ "type":"Feature","properties":{"osm_way_id":"200959820","amenity":"parking"},"geometry":{"type":"MultiPolygon","coordinates":[[[[-0.77753,53.09795],[-0.77677,53.09838],[-0.77662,53.09828],[-0.77739,53.09786],[-0.77753,53.09795]]]]}},
{ "type":"Feature","properties":{"osm_way_id":"201802046","amenity":"parking","other":{"access":"customers"}}, "geometry":{"type":"MultiPolygon","coordinates":[[[[-1.0613,53.18966],[-1.0615,53.18997],[-1.06169,53.18993],[-1.06188,53.19017],[-1.06203,53.18994],[-1.06196,53.18983],[-1.06203,53.18982],[-1.06218,53.18978],[-1.06206,53.18957],[-1.0613,53.18966]]]]}},
{ "type":"Feature","properties":{"osm_way_id":"206996490","amenity":"parking","other":{"access":"customers"}}, "geometry":{"type":"MultiPolygon","coordinates":[[[[-0.95851,53.07233],[-0.95872,53.07232],[-0.95876,53.07229],[-0.95879,53.07227],[-0.95882,53.07221],[-0.95888,53.07222],[-0.95899,53.07191],[-0.95922,53.07194],[-0.95924,53.07191],[-0.95926,53.07191],[-0.96014,53.072],[-0.96031,53.0715],[-0.95984,53.07143],[-0.95957,53.07145],[-0.95946,53.07175],[-0.95944,53.07175],[-0.95932,53.07174],[-0.95932,53.07174],[-0.95924,53.07173],[-0.95925,53.07173],[-0.95911,53.07171],[-0.95909,53.07174],[-0.95874,53.0717],[-0.95869,53.07182],[-0.95865,53.07198],[-0.95816,53.07192],[-0.95816,53.07182],[-0.95805,53.07183],[-0.9581,53.07197],[-0.95812,53.07205],[-0.95824,53.07205],[-0.95841,53.07205],[-0.95835,53.07231],[-0.95839,53.07232],[-0.95834,53.07245],[-0.95819,53.07245],[-0.95821,53.07265],[-0.95834,53.07264],[-0.95829,53.07286],[-0.95837,53.07284],[-0.95838,53.07279],[-0.95847,53.0728],[-0.9585,53.07263],[-0.95852,53.07262],[-0.95855,53.07276],[-0.95869,53.07276],[-0.9587,53.07266],[-0.95861,53.07255],[-0.95858,53.07244],[-0.95854,53.07245],[-0.95848,53.07243],[-0.95851,53.07233]]]]}},
{ "type":"Feature","properties":{"osm_way_id":"206996497","amenity":"parking","other":{"access":"customers"}}, "geometry":{"type":"MultiPolygon","coordinates":[[[[-0.95761,53.07097],[-0.95773,53.07068],[-0.95756,53.07065],[-0.9568,53.07085],[-0.95761,53.07097]]]]}},
{ "type":"Feature","properties":{"osm_way_id":"206997306","amenity":"parking","other":{"access":"private"}}, "geometry":{"type":"MultiPolygon","coordinates":[[[[-0.96444,53.06394],[-0.96365,53.06396],[-0.96372,53.06447],[-0.9637,53.06456],[-0.96415,53.06456],[-0.96444,53.06455],[-0.96444,53.06394]]]]}},
{ "type":"Feature","properties":{"osm_way_id":"214743268","amenity":"parking"},"geometry":{"type":"MultiPolygon","coordinates":[[[[-0.78397,53.09234],[-0.78345,53.09186],[-0.78053,53.09302],[-0.78058,53.09306],[-0.7805,53.09309],[-0.7809,53.09343],[-0.78095,53.0934],[-0.78102,53.09343],[-0.7811,53.09344],[-0.78118,53.09341],[-0.78123,53.09345],[-0.78397,53.09234]]]]}},
{ "type":"Feature","properties":{"osm_way_id":"214744429","amenity":"parking"},"geometry":{"type":"MultiPolygon","coordinates":[[[[-0.77728,53.09371],[-0.77735,53.0937],[-0.77717,53.09303],[-0.77619,53.09313],[-0.77617,53.09305],[-0.77397,53.09327],[-0.77447,53.09341],[-0.77563,53.09363],[-0.77703,53.0938],[-0.77708,53.09376],[-0.77722,53.09378],[-0.77728,53.09371]]]]}},
{ "type":"Feature","properties":{"osm_way_id":"216977090","amenity":"parking","other":{"parking":"surface"}}, "geometry":{"type":"MultiPolygon","coordinates":[[[[-0.80993,53.15086],[-0.80984,53.15085],[-0.80968,53.15084],[-0.80941,53.15068],[-0.80961,53.15046],[-0.80976,53.15051],[-0.8098,53.15052],[-0.80987,53.15074],[-0.80995,53.15078],[-0.80993,53.15086]]]]}},
{ "type":"Feature","properties":{"osm_way_id":"224669431","amenity":"parking","other":{"parking":"surface"}}, "geometry":{"type":"MultiPolygon","coordinates":[[[[-0.85529,53.06035],[-0.85544,53.06041],[-0.85533,53.06048],[-0.8553,53.06051],[-0.85539,53.06055],[-0.85512,53.06074],[-0.8549,53.06063],[-0.85495,53.0605],[-0.85515,53.06037],[-0.85522,53.06037],[-0.85529,53.06035]]]]}},
{ "type":"Feature","properties":{"osm_way_id":"224669499","amenity":"parking","other":{"parking":"surface"}}, "geometry":{"type":"MultiPolygon","coordinates":[[[[-0.85506,53.06103],[-0.8548,53.06115],[-0.85456,53.06098],[-0.85475,53.06083],[-0.85461,53.06071],[-0.85469,53.06058],[-0.85503,53.0608],[-0.85486,53.06089],[-0.85506,53.06103]]]]}},
{ "type":"Feature","properties":{"osm_way_id":"224675168","amenity":"parking","other":{"parking":"surface"}}, "geometry":{"type":"MultiPolygon","coordinates":[[[[-0.85286,53.06245],[-0.85238,53.0622],[-0.85279,53.06193],[-0.85307,53.06208],[-0.85283,53.06221],[-0.85303,53.06235],[-0.85286,53.06245]]]]}},
{ "type":"Feature","properties":{"osm_way_id":"224769209","amenity":"parking","other":{"access":"private","parking":"surface"}}, "geometry":{"type":"MultiPolygon","coordinates":[[[[-0.83302,53.06556],[-0.8334,53.06536],[-0.83342,53.06537],[-0.83348,53.06541],[-0.83354,53.06546],[-0.83339,53.06554],[-0.83334,53.0655],[-0.8331,53.06562],[-0.83302,53.06556]]]]}},
{ "type":"Feature","properties":{"osm_way_id":"224769394","amenity":"parking","other":{"parking":"surface"}}, "geometry":{"type":"MultiPolygon","coordinates":[[[[-0.83475,53.0667],[-0.83391,53.06613],[-0.83413,53.06601],[-0.83486,53.06651],[-0.83515,53.06636],[-0.83526,53.06643],[-0.83475,53.0667]]]]}},
{ "type":"Feature","properties":{"osm_way_id":"224769556","amenity":"parking","other":{"access":"customers","parking":"surface"}}, "geometry":{"type":"MultiPolygon","coordinates":[[[[-0.83445,53.06581],[-0.83535,53.06536],[-0.83484,53.06509],[-0.8345,53.06527],[-0.83462,53.06535],[-0.83412,53.0656],[-0.83445,53.06581]]]]}},
{ "type":"Feature","properties":{"osm_way_id":"224772268","amenity":"parking","other":{"parking":"surface"}}, "geometry":{"type":"MultiPolygon","coordinates":[[[[-0.81396,53.07269],[-0.81375,53.07276],[-0.81361,53.07262],[-0.81352,53.07261],[-0.81345,53.07262],[-0.81328,53.07269],[-0.8133,53.07273],[-0.81305,53.07282],[-0.81302,53.0728],[-0.81288,53.07285],[-0.8124,53.07252],[-0.81275,53.07228],[-0.81302,53.07242],[-0.81321,53.0723],[-0.81358,53.07247],[-0.81363,53.07246],[-0.81385,53.07259],[-0.81396,53.07269]]]]}},
{ "type":"Feature","properties":{"osm_way_id":"224772872","amenity":"parking","other":{"parking":"surface"}}, "geometry":{"type":"MultiPolygon","coordinates":[[[[-0.81024,53.07245],[-0.80993,53.07306],[-0.80981,53.07315],[-0.80975,53.07312],[-0.80964,53.07318],[-0.80952,53.07318],[-0.80924,53.07316],[-0.80898,53.07312],[-0.80916,53.07277],[-0.80959,53.07284],[-0.80982,53.07236],[-0.81024,53.07245]]]]}},
{ "type":"Feature","properties":{"osm_way_id":"224833591","amenity":"parking","other":{"parking":"surface"}}, "geometry":{"type":"MultiPolygon","coordinates":[[[[-0.81388,53.12051],[-0.81257,53.12039],[-0.8126,53.12025],[-0.81392,53.12036],[-0.81388,53.12051]]]]}},
{ "type":"Feature","properties":{"osm_way_id":"224834583","amenity":"parking","other":{"parking":"surface"}}, "geometry":{"type":"MultiPolygon","coordinates":[[[[-0.81121,53.13006],[-0.81146,53.12973],[-0.81129,53.12958],[-0.81099,53.1295],[-0.81063,53.1294],[-0.81054,53.12953],[-0.81098,53.12965],[-0.81086,53.12981],[-0.81114,53.12989],[-0.81104,53.13002],[-0.81121,53.13006]]]]}},
{ "type":"Feature","properties":{"osm_way_id":"227778421","amenity":"parking","other":{"access":"customers"}}, "geometry":{"type":"MultiPolygon","coordinates":[[[[-1.00106,53.00951],[-1.00161,53.00967],[-1.00161,53.00972],[-1.0016,53.00975],[-1.00167,53.00977],[-1.00138,53.01005],[-1.00074,53.00983],[-1.00106,53.00951]]]]}},
{ "type":"Feature","properties":{"osm_way_id":"229446115","amenity":"parking","other":{"access":"private"}}, "geometry":{"type":"MultiPolygon","coordinates":[[[[-0.86442,53.0739],[-0.86315,53.07322],[-0.86283,53.07343],[-0.86381,53.07396],[-0.86413,53.07414],[-0.86419,53.07411],[-0.86415,53.07409],[-0.86442,53.0739]]]]}},
{ "type":"Feature","properties":{"osm_way_id":"234899402","amenity":"parking","other":{"access":"unknown","parking":"surface"}}, "geometry":{"type":"MultiPolygon","coordinates":[[[[-0.79886,53.05365],[-0.79885,53.05367],[-0.79851,53.05436],[-0.79801,53.0543],[-0.79804,53.05383],[-0.79824,53.05376],[-0.79831,53.05361],[-0.79832,53.05359],[-0.79886,53.05365]]]]}},
{ "type":"Feature","properties":{"osm_way_id":"243966796","amenity":"parking"},"geometry":{"type":"MultiPolygon","coordinates":[[[[-0.80618,53.14174],[-0.80611,53.14157],[-0.80599,53.14177],[-0.80618,53.14174]]]]}},
{ "type":"Feature","properties":{"osm_way_id":"243966802","amenity":"parking"},"geometry":{"type":"MultiPolygon","coordinates":[[[[-0.80594,53.14097],[-0.80594,53.14104],[-0.80592,53.14104],[-0.80575,53.14126],[-0.80568,53.14135],[-0.80613,53.14142],[-0.80613,53.14097],[-0.80594,53.14097]]]]}},
{ "type":"Feature","properties":{"osm_way_id":"245934135","amenity":"parking","other":{"capacity":"50","parking":"surface"}}, "geometry":{"type":"MultiPolygon","coordinates":[[[[-0.95792,53.07894],[-0.95832,53.07903],[-0.95847,53.07882],[-0.95812,53.07874],[-0.95802,53.07868],[-0.95789,53.07866],[-0.95781,53.07865],[-0.95777,53.0787],[-0.95774,53.07875],[-0.95791,53.07878],[-0.95786,53.07889],[-0.95795,53.0789],[-0.95792,53.07894]]]]}},
{ "type":"Feature","properties":{"osm_way_id":"248899753","amenity":"parking"},"geometry":{"type":"MultiPolygon","coordinates":[[[[-0.99885,53.0069],[-0.99906,53.0073],[-0.99879,53.00742],[-0.99845,53.00716],[-0.99855,53.0071],[-0.99867,53.00719],[-0.99882,53.00711],[-0.99877,53.00707],[-0.99883,53.00703],[-0.99875,53.00698],[-0.99881,53.00695],[-0.99879,53.00693],[-0.99885,53.0069]]]]}},
{ "type":"Feature","properties":{"osm_way_id":"256149394","amenity":"parking"},"geometry":{"type":"MultiPolygon","coordinates":[[[[-0.84809,53.06084],[-0.84759,53.06057],[-0.84791,53.06042],[-0.84841,53.0607],[-0.84809,53.06084]]]]}},
{ "type":"Feature","properties":{"osm_way_id":"263739580","amenity":"parking","other":{"access":"customers"}}, "geometry":{"type":"MultiPolygon","coordinates":[[[[-1.0557,53.1832],[-1.05596,53.18348],[-1.05661,53.18325],[-1.0571,53.18309],[-1.05682,53.18281],[-1.0557,53.1832]]]]}},
{ "type":"Feature","properties":{"osm_way_id":"263739582","amenity":"parking","other":{"access":"customers"}}, "geometry":{"type":"MultiPolygon","coordinates":[[[[-1.0577,53.18381],[-1.0572,53.18393],[-1.05702,53.18384],[-1.0576,53.18363],[-1.0577,53.18381]]]]}},
{ "type":"Feature","properties":{"osm_way_id":"264923305","amenity":"parking"},"geometry":{"type":"MultiPolygon","coordinates":[[[[-1.07426,53.19463],[-1.07491,53.19451],[-1.07486,53.19441],[-1.07457,53.19446],[-1.07456,53.19444],[-1.07442,53.19447],[-1.0744,53.19442],[-1.07417,53.19446],[-1.07426,53.19463]]]]}},
{ "type":"Feature","properties":{"osm_way_id":"264923895","amenity":"parking"},"geometry":{"type":"MultiPolygon","coordinates":[[[[-1.0677,53.19787],[-1.06742,53.19781],[-1.06746,53.19774],[-1.06742,53.19773],[-1.06744,53.19769],[-1.06748,53.1977],[-1.0675,53.19766],[-1.06755,53.19767],[-1.06757,53.19764],[-1.0678,53.19768],[-1.0677,53.19787]]]]}},
{ "type":"Feature","properties":{"osm_way_id":"264923896","amenity":"parking"},"geometry":{"type":"MultiPolygon","coordinates":[[[[-1.06588,53.19773],[-1.06553,53.19766],[-1.06561,53.1975],[-1.06597,53.19758],[-1.06588,53.19773]]]]}},
{ "type":"Feature","properties":{"osm_way_id":"265524968","amenity":"parking"},"geometry":{"type":"MultiPolygon","coordinates":[[[[-1.06574,53.19542],[-1.06572,53.19562],[-1.066,53.19562],[-1.06652,53.19564],[-1.06654,53.1953],[-1.06619,53.19531],[-1.06615,53.19547],[-1.06589,53.19546],[-1.06589,53.19542],[-1.06574,53.19542]]]]}},
{ "type":"Feature","properties":{"osm_way_id":"265788309","amenity":"parking"},"geometry":{"type":"MultiPolygon","coordinates":[[[[-1.065,53.19352],[-1.06509,53.19384],[-1.06484,53.19385],[-1.06486,53.19395],[-1.0646,53.19397],[-1.06456,53.19385],[-1.06461,53.19384],[-1.06454,53.19359],[-1.06472,53.19356],[-1.065,53.19352]]]]}},
{ "type":"Feature","properties":{"osm_way_id":"271815925","amenity":"parking","other":{"parking":"surface"}}, "geometry":{"type":"MultiPolygon","coordinates":[[[[-1.08631,53.23227],[-1.08621,53.23235],[-1.086,53.23227],[-1.08595,53.23231],[-1.08551,53.23211],[-1.0857,53.23183],[-1.08579,53.2318],[-1.08586,53.23186],[-1.08597,53.23195],[-1.08628,53.23215],[-1.08638,53.2322],[-1.08631,53.23227]]]]}},
{ "type":"Feature","properties":{"osm_way_id":"274233325","name":"Brough Rest Area","amenity":"parking","other":{"highway":"rest_area"}}, "geometry":{"type":"MultiPolygon","coordinates":[[[[-0.75102,53.11915],[-0.75164,53.11874],[-0.75181,53.11874],[-0.75191,53.11876],[-0.75186,53.11884],[-0.75139,53.11913],[-0.75115,53.11925],[-0.75104,53.11923],[-0.75102,53.11915]]]]}},
{ "type":"Feature","properties":{"osm_way_id":"274233326","name":"Brough Rest Area","amenity":"parking","other":{"highway":"rest_area"}}, "geometry":{"type":"MultiPolygon","coordinates":[[[[-0.75597,53.11644],[-0.75547,53.11697],[-0.75547,53.11703],[-0.75556,53.11705],[-0.7557,53.11703],[-0.75616,53.11657],[-0.75615,53.11645],[-0.75605,53.11642],[-0.75597,53.11644]]]]}},
{ "type":"Feature","properties":{"osm_way_id":"275474818","amenity":"parking","other":{"access":"customers"}}, "geometry":{"type":"MultiPolygon","coordinates":[[[[-0.75985,53.14521],[-0.75996,53.14491],[-0.76044,53.14495],[-0.76042,53.14505],[-0.76027,53.14505],[-0.76027,53.14502],[-0.76017,53.14501],[-0.76013,53.14524],[-0.75985,53.14521]]]]}},
{ "type":"Feature","properties":{"osm_way_id":"275479288","amenity":"parking","other":{"access":"customers"}}, "geometry":{"type":"MultiPolygon","coordinates":[[[[-0.76063,53.14323],[-0.76055,53.14344],[-0.76083,53.14346],[-0.76088,53.14334],[-0.76085,53.14334],[-0.76088,53.14325],[-0.76076,53.14324],[-0.76063,53.14323]]]]}},
{ "type":"Feature","properties":{"osm_way_id":"275480412","amenity":"parking","other":{"parking":"surface","surface":"paving_stones"}}, "geometry":{"type":"MultiPolygon","coordinates":[[[[-0.74901,53.14384],[-0.74906,53.14384],[-0.74962,53.14388],[-0.74978,53.14393],[-0.74993,53.14407],[-0.74939,53.14433],[-0.74911,53.14414],[-0.74901,53.14384]]]]}},
{ "type":"Feature","properties":{"osm_way_id":"277053356","amenity":"parking"},"geometry":{"type":"MultiPolygon","coordinates":[[[[-1.06386,53.19618],[-1.06438,53.19617],[-1.06438,53.19614],[-1.06438,53.19607],[-1.06418,53.19607],[-1.06418,53.19604],[-1.06385,53.19605],[-1.06386,53.19618]]]]}},
{ "type":"Feature","properties":{"osm_way_id":"277053358","amenity":"parking"},"geometry":{"type":"MultiPolygon","coordinates":[[[[-1.0647,53.19577],[-1.06406,53.19578],[-1.06405,53.19556],[-1.06435,53.19556],[-1.06436,53.19567],[-1.06469,53.19566],[-1.0647,53.19577]]]]}},
{ "type":"Feature","properties":{"osm_way_id":"277783423","amenity":"parking"},"geometry":{"type":"MultiPolygon","coordinates":[[[[-1.07488,53.19157],[-1.07485,53.19151],[-1.0749,53.1915],[-1.07487,53.19145],[-1.07401,53.1916],[-1.07401,53.19172],[-1.07488,53.19157]]]]}},
{ "type":"Feature","properties":{"osm_way_id":"284413000","amenity":"parking","other":{"access":"private","capacity":"50","fee":"no","operator":"NTU Brackenhurst","parking":"surface"}}, "geometry":{"type":"MultiPolygon","coordinates":[[[[-0.9589,53.0648],[-0.95881,53.06433],[-0.95878,53.0643],[-0.95875,53.06427],[-0.95805,53.06429],[-0.95817,53.06483],[-0.9589,53.0648]]]]}},
{ "type":"Feature","properties":{"osm_way_id":"284413076","amenity":"parking","other":{"access":"private","parking":"surface"}}, "geometry":{"type":"MultiPolygon","coordinates":[[[[-0.95959,53.06576],[-0.95956,53.0656],[-0.9592,53.06561],[-0.9592,53.06577],[-0.95955,53.06576],[-0.95959,53.06576]]]]}},
{ "type":"Feature","properties":{"osm_way_id":"291483928","amenity":"parking","other":{"access":"unknown"}}, "geometry":{"type":"MultiPolygon","coordinates":[[[[-0.97739,53.2298],[-0.97714,53.22978],[-0.97711,53.22998],[-0.97723,53.22999],[-0.97733,53.23],[-0.97739,53.2298]]]]}},
{ "type":"Feature","properties":{"osm_way_id":"292978928","amenity":"parking","other":{"access":"customers"}}, "geometry":{"type":"MultiPolygon","coordinates":[[[[-1.0076,53.20351],[-1.00764,53.20347],[-1.00789,53.20354],[-1.00778,53.20367],[-1.00754,53.20359],[-1.0076,53.20351]]]]}},
{ "type":"Feature","properties":{"osm_way_id":"292978930","amenity":"parking","other":{"access":"customers","parking":"surface"}}, "geometry":{"type":"MultiPolygon","coordinates":[[[[-1.01054,53.20307],[-1.01086,53.20257],[-1.01063,53.20251],[-1.01068,53.20245],[-1.00907,53.20203],[-1.00895,53.20221],[-1.00902,53.20222],[-1.00853,53.20288],[-1.0089,53.20298],[-1.00911,53.20268],[-1.01054,53.20307]]]]}},
{ "type":"Feature","properties":{"osm_way_id":"293092044","amenity":"parking","other":{"access":"customers"}}, "geometry":{"type":"MultiPolygon","coordinates":[[[[-0.96721,53.21602],[-0.9674,53.21607],[-0.96737,53.21611],[-0.96722,53.21631],[-0.96745,53.21637],[-0.96748,53.21638],[-0.96735,53.21655],[-0.96712,53.21648],[-0.96716,53.21643],[-0.96701,53.21639],[-0.96694,53.21647],[-0.96678,53.21643],[-0.96696,53.21619],[-0.96705,53.21622],[-0.96721,53.21602]]]]}},
{ "type":"Feature","properties":{"osm_way_id":"293293503","name":"Rufford Mill","amenity":"parking"},"geometry":{"type":"MultiPolygon","coordinates":[[[[-1.03519,53.18343],[-1.03508,53.18338],[-1.03515,53.1833],[-1.03508,53.18326],[-1.03493,53.18318],[-1.03477,53.18306],[-1.03468,53.18301],[-1.03425,53.18313],[-1.03447,53.18319],[-1.0347,53.18327],[-1.03468,53.18333],[-1.03429,53.18327],[-1.03426,53.18337],[-1.03455,53.18343],[-1.03478,53.18346],[-1.03509,53.18351],[-1.03523,53.18345],[-1.03519,53.18343]]]]}},
{ "type":"Feature","properties":{"osm_way_id":"293403490","amenity":"parking"},"geometry":{"type":"MultiPolygon","coordinates":[[[[-1.00229,53.19946],[-1.0023,53.19939],[-1.0023,53.19914],[-1.00224,53.19913],[-1.00219,53.19913],[-1.00214,53.19922],[-1.00213,53.19932],[-1.00212,53.19942],[-1.00213,53.19946],[-1.00217,53.19947],[-1.00229,53.19946]]]]}},
{ "type":"Feature","properties":{"osm_way_id":"297239846","amenity":"parking","other":{"parking":"surface"}}, "geometry":{"type":"MultiPolygon","coordinates":[[[[-0.79191,53.05902],[-0.79189,53.059],[-0.79187,53.059],[-0.79183,53.05898],[-0.7919,53.05892],[-0.79197,53.05889],[-0.79214,53.05888],[-0.79221,53.0589],[-0.79227,53.05894],[-0.79226,53.05899],[-0.79216,53.05903],[-0.79207,53.05906],[-0.79191,53.05902]]]]}},
{ "type":"Feature","properties":{"osm_way_id":"297241262","amenity":"parking"},"geometry":{"type":"MultiPolygon","coordinates":[[[[-0.78907,53.06124],[-0.78926,53.06085],[-0.78806,53.06061],[-0.78793,53.06087],[-0.78788,53.06099],[-0.78771,53.06097],[-0.78777,53.06117],[-0.78792,53.0612],[-0.788,53.06104],[-0.78907,53.06124]]]]}},
{ "type":"Feature","properties":{"osm_way_id":"300959984","amenity":"parking","other":{"access":"private"}}, "geometry":{"type":"MultiPolygon","coordinates":[[[[-0.93912,53.08129],[-0.93907,53.08133],[-0.93904,53.08138],[-0.93896,53.08141],[-0.93889,53.0814],[-0.93883,53.08146],[-0.93888,53.08151],[-0.93885,53.08158],[-0.93882,53.0817],[-0.93884,53.08175],[-0.93893,53.08177],[-0.93899,53.08177],[-0.9391,53.08173],[-0.93927,53.08157],[-0.93934,53.08159],[-0.93936,53.0816],[-0.93952,53.08143],[-0.93912,53.08129]]]]}},
{ "type":"Feature","properties":{"osm_way_id":"300960920","amenity":"parking"},"geometry":{"type":"MultiPolygon","coordinates":[[[[-0.90426,53.08051],[-0.90362,53.08022],[-0.90368,53.08009],[-0.90371,53.08009],[-0.90372,53.08003],[-0.90374,53.08003],[-0.90395,53.08016],[-0.90413,53.08027],[-0.90402,53.08031],[-0.90425,53.08044],[-0.90433,53.08049],[-0.90426,53.08051]]]]}},
{ "type":"Feature","properties":{"osm_way_id":"304157738","amenity":"parking","other":{"access":"customers"}}, "geometry":{"type":"MultiPolygon","coordinates":[[[[-1.09473,53.17829],[-1.09478,53.17795],[-1.09466,53.17795],[-1.09448,53.17791],[-1.09442,53.17806],[-1.09446,53.17812],[-1.09447,53.17816],[-1.09446,53.17824],[-1.09453,53.17825],[-1.09455,53.17827],[-1.09463,53.17828],[-1.09473,53.17829]]]]}},
{ "type":"Feature","properties":{"osm_way_id":"310716472","amenity":"parking","other":{"access":"customers","parking":"surface"}}, "geometry":{"type":"MultiPolygon","coordinates":[[[[-1.01215,53.20356],[-1.01262,53.20363],[-1.01261,53.20368],[-1.01268,53.2037],[-1.01263,53.20381],[-1.01273,53.20382],[-1.01278,53.20383],[-1.01317,53.20402],[-1.01282,53.20429],[-1.01201,53.20396],[-1.0121,53.20386],[-1.01192,53.20379],[-1.01198,53.20376],[-1.01186,53.2037],[-1.01188,53.20369],[-1.0119,53.20368],[-1.01186,53.20365],[-1.01215,53.20356]]]]}},
{ "type":"Feature","properties":{"osm_way_id":"310722524","amenity":"parking","other":{"access":"private"}}, "geometry":{"type":"MultiPolygon","coordinates":[[[[-1.01291,53.20174],[-1.01321,53.20151],[-1.01338,53.20132],[-1.01316,53.20121],[-1.01299,53.20113],[-1.01293,53.20113],[-1.01271,53.20135],[-1.01248,53.20156],[-1.01244,53.20158],[-1.01241,53.20161],[-1.01274,53.20178],[-1.01285,53.20171],[-1.01291,53.20174]]]]}},
{ "type":"Feature","properties":{"osm_way_id":"315250264","amenity":"parking","other":{"access":"customers"}}, "geometry":{"type":"MultiPolygon","coordinates":[[[[-0.95376,53.19617],[-0.95381,53.19617],[-0.95396,53.19623],[-0.95445,53.19629],[-0.95451,53.19606],[-0.95458,53.19595],[-0.95388,53.1959],[-0.95376,53.19617]]]]}},
{ "type":"Feature","properties":{"osm_way_id":"315252036","amenity":"parking","other":{"access":"customers"}}, "geometry":{"type":"MultiPolygon","coordinates":[[[[-0.91745,53.196],[-0.9174,53.19576],[-0.91769,53.19575],[-0.91769,53.19586],[-0.91789,53.19584],[-0.91811,53.19584],[-0.91811,53.19592],[-0.91812,53.19596],[-0.91772,53.19599],[-0.91745,53.196]]]]}},
{ "type":"Feature","properties":{"osm_way_id":"317012225","name":"Thoresby Colliery","amenity":"parking","other":{"access":"private"}}, "geometry":{"type":"MultiPolygon","coordinates":[[[[-1.05432,53.20218],[-1.0538,53.20137],[-1.05376,53.20134],[-1.05295,53.20119],[-1.05276,53.20152],[-1.05273,53.20161],[-1.05272,53.20168],[-1.05274,53.20179],[-1.05273,53.20186],[-1.05272,53.20189],[-1.05269,53.20191],[-1.05248,53.20199],[-1.05216,53.20216],[-1.05187,53.20225],[-1.05213,53.20266],[-1.05432,53.20218]]]]}},
{ "type":"Feature","properties":{"osm_way_id":"317706474","amenity":"parking","other":{"fee":"no","hgv":"no"}}, "geometry":{"type":"MultiPolygon","coordinates":[[[[-0.94748,53.17073],[-0.9473,53.17077],[-0.9471,53.17077],[-0.94685,53.17077],[-0.94685,53.17062],[-0.94729,53.17061],[-0.94752,53.17057],[-0.94751,53.17063],[-0.94751,53.17065],[-0.94748,53.17073]]]]}},
{ "type":"Feature","properties":{"osm_way_id":"317706482","amenity":"parking","other":{"access":"customers"}}, "geometry":{"type":"MultiPolygon","coordinates":[[[[-0.94683,53.16926],[-0.94702,53.16926],[-0.94701,53.16938],[-0.94734,53.16936],[-0.94733,53.16942],[-0.94758,53.16942],[-0.9476,53.16948],[-0.94758,53.16957],[-0.94748,53.16957],[-0.94746,53.16963],[-0.94721,53.16959],[-0.94717,53.16947],[-0.94689,53.16947],[-0.94683,53.16926]]]]}},
{ "type":"Feature","properties":{"osm_way_id":"318975907","amenity":"parking","other":{"access":"unknown"}}, "geometry":{"type":"MultiPolygon","coordinates":[[[[-0.94636,53.17184],[-0.94652,53.17166],[-0.94626,53.17163],[-0.94622,53.17179],[-0.94628,53.17183],[-0.94636,53.17184]]]]}},
{ "type":"Feature","properties":{"osm_way_id":"330710027","amenity":"parking","other":{"fee":"no"}}, "geometry":{"type":"MultiPolygon","coordinates":[[[[-1.06318,53.19369],[-1.06321,53.1938],[-1.06347,53.19377],[-1.06344,53.19369],[-1.06342,53.19364],[-1.06342,53.19363],[-1.06338,53.19356],[-1.06328,53.19357],[-1.06324,53.19349],[-1.06284,53.19354],[-1.06286,53.1936],[-1.06279,53.19361],[-1.06282,53.19364],[-1.06286,53.19367],[-1.06291,53.19373],[-1.06318,53.19369]]]]}},
{ "type":"Feature","properties":{"osm_way_id":"330710033","amenity":"parking","other":{"access":"customers"}}, "geometry":{"type":"MultiPolygon","coordinates":[[[[-1.06322,53.19475],[-1.06365,53.19474],[-1.06367,53.19483],[-1.06377,53.19486],[-1.06378,53.19493],[-1.06398,53.19492],[-1.06399,53.195],[-1.06399,53.19507],[-1.06399,53.1951],[-1.06369,53.1951],[-1.06369,53.195],[-1.06363,53.19501],[-1.06362,53.19496],[-1.06351,53.19496],[-1.06351,53.19494],[-1.06325,53.19495],[-1.06322,53.19475]]]]}},
{ "type":"Feature","properties":{"osm_way_id":"333264524","amenity":"parking"},"geometry":{"type":"MultiPolygon","coordinates":[[[[-1.06364,53.1081],[-1.0635,53.10812],[-1.06328,53.10805],[-1.06327,53.10785],[-1.06327,53.10768],[-1.06358,53.10768],[-1.06364,53.1081]]]]}},
{ "type":"Feature","properties":{"osm_way_id":"333264532","amenity":"parking"},"geometry":{"type":"MultiPolygon","coordinates":[[[[-1.06374,53.10869],[-1.06307,53.10872],[-1.0631,53.10898],[-1.06317,53.10941],[-1.06382,53.10939],[-1.0638,53.10912],[-1.06376,53.10878],[-1.06374,53.10872],[-1.06374,53.10869]]]]}},
{ "type":"Feature","properties":{"osm_way_id":"333264535","amenity":"parking"},"geometry":{"type":"MultiPolygon","coordinates":[[[[-1.06053,53.108],[-1.06036,53.10753],[-1.06123,53.10741],[-1.06125,53.10747],[-1.06133,53.10779],[-1.06107,53.10782],[-1.0611,53.10796],[-1.06059,53.10799],[-1.06053,53.108]]]]}},
{ "type":"Feature","properties":{"osm_way_id":"333264541","amenity":"parking"},"geometry":{"type":"MultiPolygon","coordinates":[[[[-1.06253,53.10686],[-1.06234,53.10688],[-1.0618,53.10694],[-1.06182,53.10721],[-1.06251,53.10714],[-1.06277,53.1071],[-1.06254,53.10695],[-1.06253,53.10686]]]]}},
{ "type":"Feature","properties":{"osm_way_id":"333264543","amenity":"parking"},"geometry":{"type":"MultiPolygon","coordinates":[[[[-1.06695,53.10787],[-1.06676,53.10817],[-1.06609,53.10823],[-1.0655,53.10827],[-1.06538,53.10824],[-1.06537,53.10816],[-1.06537,53.10815],[-1.06537,53.10814],[-1.06534,53.10791],[-1.06541,53.10788],[-1.06541,53.10786],[-1.06596,53.10781],[-1.06593,53.10763],[-1.066,53.10758],[-1.06596,53.10734],[-1.06617,53.10736],[-1.06632,53.10728],[-1.06667,53.10728],[-1.06673,53.10732],[-1.06677,53.10739],[-1.06689,53.10738],[-1.06695,53.10787]]]]}},
{ "type":"Feature","properties":{"osm_way_id":"337072363","amenity":"parking","other":{"access":"customers"}}, "geometry":{"type":"MultiPolygon","coordinates":[[[[-0.93212,53.10129],[-0.9323,53.10139],[-0.93227,53.10141],[-0.93239,53.10146],[-0.93258,53.10132],[-0.93248,53.10125],[-0.93241,53.10122],[-0.93229,53.10117],[-0.93212,53.10129]]]]}},
{ "type":"Feature","properties":{"osm_way_id":"339424912","amenity":"parking","other":{"surface":"grass"}}, "geometry":{"type":"MultiPolygon","coordinates":[[[[-1.08533,53.08689],[-1.08531,53.08663],[-1.08424,53.08673],[-1.08424,53.08682],[-1.08427,53.08695],[-1.08533,53.08689]]]]}},
{ "type":"Feature","properties":{"osm_way_id":"339424915","amenity":"parking"},"geometry":{"type":"MultiPolygon","coordinates":[[[[-1.08427,53.08695],[-1.08364,53.08698],[-1.08335,53.08695],[-1.08337,53.08686],[-1.0835,53.08687],[-1.08424,53.08682],[-1.08427,53.08695]]]]}},
{ "type":"Feature","properties":{"osm_way_id":"342993325","amenity":"parking"},"geometry":{"type":"MultiPolygon","coordinates":[[[[-0.80743,53.06753],[-0.808,53.06777],[-0.80763,53.0681],[-0.80739,53.06804],[-0.80731,53.06765],[-0.80743,53.06753]]]]}},
{ "type":"Feature","properties":{"osm_way_id":"343001704","amenity":"parking"},"geometry":{"type":"MultiPolygon","coordinates":[[[[-0.80814,53.06903],[-0.80784,53.06902],[-0.80784,53.06898],[-0.80765,53.06898],[-0.80768,53.06856],[-0.80772,53.06856],[-0.80822,53.06857],[-0.80822,53.06861],[-0.80827,53.06862],[-0.80827,53.0687],[-0.80822,53.06869],[-0.80822,53.06874],[-0.80815,53.06873],[-0.80814,53.06903]]]]}},
{ "type":"Feature","properties":{"osm_way_id":"345687221","amenity":"parking","other":{"access":"private"}}, "geometry":{"type":"MultiPolygon","coordinates":[[[[-1.01706,53.12704],[-1.01652,53.12693],[-1.0166,53.12676],[-1.01661,53.12668],[-1.01685,53.12671],[-1.01687,53.12673],[-1.01716,53.12679],[-1.01706,53.12704]]]]}},
{ "type":"Feature","properties":{"osm_way_id":"346317733","amenity":"parking"},"geometry":{"type":"MultiPolygon","coordinates":[[[[-0.80539,53.0689],[-0.80525,53.06889],[-0.80529,53.06852],[-0.80542,53.06853],[-0.80539,53.0689]]]]}},
{ "type":"Feature","properties":{"osm_way_id":"346527515","amenity":"parking","other":{"park_ride":"no","parking":"surface","supervised":"no"}}, "geometry":{"type":"MultiPolygon","coordinates":[[[[-0.79331,53.07582],[-0.79331,53.0759],[-0.79404,53.0759],[-0.79404,53.07582],[-0.79331,53.07582]]]]}},
{ "type":"Feature","properties":{"osm_way_id":"347382340","amenity":"parking","other":{"fee":"no","park_ride":"no","parking":"surface","supervised":"no"}}, "geometry":{"type":"MultiPolygon","coordinates":[[[[-1.0948,53.16865],[-1.09447,53.16851],[-1.09416,53.16875],[-1.09397,53.16866],[-1.09365,53.16898],[-1.09415,53.16922],[-1.0948,53.16865]]]]}},
{ "type":"Feature","properties":{"osm_way_id":"349211242","amenity":"parking"},"geometry":{"type":"MultiPolygon","coordinates":[[[[-0.81192,53.07414],[-0.81102,53.07413],[-0.81101,53.07427],[-0.81075,53.07427],[-0.81074,53.0744],[-0.81121,53.07441],[-0.8112,53.07446],[-0.81186,53.07447],[-0.81186,53.07442],[-0.81203,53.07442],[-0.81204,53.07428],[-0.81192,53.07428],[-0.81192,53.07414]]]]}},
{ "type":"Feature","properties":{"osm_way_id":"352963633","amenity":"parking"},"geometry":{"type":"MultiPolygon","coordinates":[[[[-0.81297,53.06267],[-0.81283,53.06272],[-0.81259,53.0627],[-0.8126,53.06248],[-0.81283,53.06247],[-0.81297,53.06267]]]]}},
{ "type":"Feature","properties":{"osm_way_id":"353631414","amenity":"parking","other":{"access":"customers"}}, "geometry":{"type":"MultiPolygon","coordinates":[[[[-1.06588,53.05314],[-1.06566,53.05311],[-1.06566,53.05298],[-1.06553,53.05297],[-1.06549,53.05282],[-1.06571,53.05279],[-1.06578,53.05278],[-1.06587,53.05283],[-1.06597,53.05286],[-1.06595,53.05292],[-1.06588,53.05314]]]]}},
{ "type":"Feature","properties":{"osm_way_id":"354202006","amenity":"parking","other":{"access":"private"}}, "geometry":{"type":"MultiPolygon","coordinates":[[[[-1.05618,53.16665],[-1.05605,53.16679],[-1.05594,53.16675],[-1.05589,53.16681],[-1.05588,53.16681],[-1.05585,53.16683],[-1.05579,53.16681],[-1.0557,53.16655],[-1.05574,53.16647],[-1.05583,53.16636],[-1.05603,53.16633],[-1.05624,53.16655],[-1.05635,53.16659],[-1.05638,53.16655],[-1.05642,53.16657],[-1.05644,53.16655],[-1.05642,53.16654],[-1.05646,53.16651],[-1.05653,53.16653],[-1.0566,53.16645],[-1.05664,53.16647],[-1.05648,53.16664],[-1.05647,53.16663],[-1.05638,53.16672],[-1.05618,53.16665]]]]}},
{ "type":"Feature","properties":{"osm_way_id":"357238201","amenity":"parking"},"geometry":{"type":"MultiPolygon","coordinates":[[[[-1.03838,53.17604],[-1.0383,53.17631],[-1.03747,53.17626],[-1.03726,53.17616],[-1.03721,53.17608],[-1.0372,53.176],[-1.03723,53.17594],[-1.03738,53.1759],[-1.03757,53.17587],[-1.03823,53.17589],[-1.03838,53.17604]]]]}},
{ "type":"Feature","properties":{"osm_way_id":"357238202","amenity":"parking","other":{"access":"private","surface":"gravel"}}, "geometry":{"type":"MultiPolygon","coordinates":[[[[-1.03717,53.176],[-1.03691,53.17599],[-1.03666,53.17591],[-1.03666,53.17583],[-1.03717,53.17583],[-1.03717,53.176]]]]}},
{ "type":"Feature","properties":{"osm_way_id":"357238203","amenity":"parking"},"geometry":{"type":"MultiPolygon","coordinates":[[[[-1.03906,53.1761],[-1.03896,53.17624],[-1.03867,53.17616],[-1.03855,53.17611],[-1.03849,53.17606],[-1.03847,53.17597],[-1.03906,53.1761]]]]}},
{ "type":"Feature","properties":{"osm_way_id":"357734654","amenity":"parking"},"geometry":{"type":"MultiPolygon","coordinates":[[[[-0.95673,53.0798],[-0.95679,53.07982],[-0.95682,53.07983],[-0.95687,53.07979],[-0.95688,53.07978],[-0.95714,53.07992],[-0.95713,53.07993],[-0.95696,53.08018],[-0.95691,53.08017],[-0.95685,53.08025],[-0.95678,53.08034],[-0.95679,53.08036],[-0.95683,53.08038],[-0.95692,53.08046],[-0.9568,53.08063],[-0.95666,53.08061],[-0.9566,53.08057],[-0.95661,53.08053],[-0.95668,53.08043],[-0.95654,53.08039],[-0.95646,53.0805],[-0.95641,53.08052],[-0.95634,53.08051],[-0.95623,53.08048],[-0.95621,53.08042],[-0.95626,53.08037],[-0.95673,53.0798]]]]}},
{ "type":"Feature","properties":{"osm_way_id":"357742341","amenity":"parking"},"geometry":{"type":"MultiPolygon","coordinates":[[[[-0.79625,53.08717],[-0.79592,53.08737],[-0.79568,53.0873],[-0.79604,53.08708],[-0.79613,53.08712],[-0.79625,53.08717]]]]}},
{ "type":"Feature","properties":{"osm_way_id":"360688268","amenity":"parking","other":{"access":"private","parking":"surface"}}, "geometry":{"type":"MultiPolygon","coordinates":[[[[-0.80894,53.07279],[-0.8084,53.07267],[-0.80854,53.07244],[-0.80907,53.07256],[-0.80894,53.07279]]]]}},
{ "type":"Feature","properties":{"osm_way_id":"362049833","amenity":"parking","other":{"fee":"yes","parking":"surface"}}, "geometry":{"type":"MultiPolygon","coordinates":[[[[-0.95534,53.07928],[-0.95525,53.07931],[-0.95517,53.07931],[-0.9548,53.07919],[-0.95485,53.07914],[-0.95485,53.07913],[-0.95486,53.07912],[-0.955,53.079],[-0.95509,53.07903],[-0.95535,53.07912],[-0.95539,53.07918],[-0.9554,53.07924],[-0.95534,53.07928]]]]}},
{ "type":"Feature","properties":{"osm_way_id":"362049834","amenity":"parking","other":{"access":"permissive"}}, "geometry":{"type":"MultiPolygon","coordinates":[[[[-0.95554,53.07893],[-0.95536,53.07887],[-0.95524,53.07883],[-0.9551,53.07879],[-0.95508,53.07878],[-0.95509,53.07877],[-0.9551,53.07876],[-0.95521,53.07866],[-0.95525,53.07863],[-0.9554,53.07869],[-0.95555,53.07874],[-0.95565,53.07877],[-0.95565,53.07881],[-0.95557,53.07889],[-0.95554,53.07893]]]]}},
{ "type":"Feature","properties":{"osm_way_id":"362049876","amenity":"parking","other":{"access":"customers"}}, "geometry":{"type":"MultiPolygon","coordinates":[[[[-0.95617,53.07839],[-0.95623,53.07833],[-0.95613,53.0783],[-0.95612,53.07831],[-0.95597,53.07826],[-0.95589,53.07824],[-0.95591,53.0782],[-0.95592,53.07818],[-0.95596,53.07813],[-0.95608,53.07817],[-0.9562,53.07821],[-0.95638,53.07804],[-0.95645,53.07809],[-0.95653,53.07815],[-0.95658,53.07819],[-0.95667,53.07825],[-0.95676,53.07834],[-0.95685,53.07839],[-0.95681,53.07841],[-0.95681,53.07841],[-0.95675,53.07854],[-0.9565,53.07849],[-0.95644,53.07847],[-0.95623,53.07841],[-0.95617,53.07839]]]]}},
{ "type":"Feature","properties":{"osm_way_id":"362049897","name":"Church Street Car Park","amenity":"parking"},"geometry":{"type":"MultiPolygon","coordinates":[[[[-0.95325,53.07881],[-0.95312,53.07876],[-0.95305,53.07863],[-0.95317,53.07847],[-0.95332,53.07826],[-0.95333,53.07824],[-0.95351,53.07799],[-0.95356,53.07794],[-0.95376,53.07772],[-0.95381,53.07778],[-0.95385,53.07781],[-0.95373,53.07799],[-0.95386,53.07812],[-0.95383,53.07818],[-0.95365,53.07847],[-0.95352,53.07861],[-0.95341,53.07872],[-0.95334,53.0788],[-0.95325,53.07881]]]]}},
{ "type":"Feature","properties":{"osm_way_id":"362049929","amenity":"parking"},"geometry":{"type":"MultiPolygon","coordinates":[[[[-0.95319,53.07971],[-0.9527,53.07962],[-0.95274,53.07956],[-0.95274,53.07953],[-0.95267,53.07951],[-0.95268,53.07949],[-0.95269,53.07946],[-0.95274,53.07938],[-0.95276,53.07938],[-0.95289,53.0794],[-0.95293,53.07941],[-0.95302,53.07937],[-0.9531,53.07935],[-0.95317,53.07936],[-0.95318,53.07934],[-0.95334,53.07938],[-0.95332,53.07943],[-0.95346,53.07946],[-0.95332,53.07959],[-0.95319,53.07971]]]]}},
{ "type":"Feature","properties":{"osm_way_id":"363953912","amenity":"parking"},"geometry":{"type":"MultiPolygon","coordinates":[[[[-0.82286,53.06631],[-0.82243,53.0661],[-0.82283,53.06581],[-0.82326,53.06602],[-0.82286,53.06631]]]]}},
{ "type":"Feature","properties":{"osm_way_id":"366013052","amenity":"parking","other":{"access":"destination","description":"'For HALL and FIELD users only'"}}, "geometry":{"type":"MultiPolygon","coordinates":[[[[-0.98425,52.9907],[-0.98439,52.99077],[-0.98447,52.99083],[-0.98452,52.99088],[-0.98459,52.99091],[-0.98468,52.99093],[-0.9848,52.99085],[-0.98459,52.99073],[-0.98435,52.99064],[-0.98428,52.99066],[-0.98425,52.99068],[-0.98425,52.9907]]]]}},
{ "type":"Feature","properties":{"osm_way_id":"366013057","amenity":"parking","other":{"access":"customers"}}, "geometry":{"type":"MultiPolygon","coordinates":[[[[-0.98469,52.98737],[-0.98387,52.98795],[-0.98356,52.9878],[-0.98419,52.98726],[-0.98447,52.98735],[-0.98451,52.98731],[-0.98469,52.98737]]]]}},
{ "type":"Feature","properties":{"osm_way_id":"366013058","amenity":"parking","other":{"access":"customers"}}, "geometry":{"type":"MultiPolygon","coordinates":[[[[-0.98481,52.98738],[-0.98495,52.98727],[-0.98514,52.98735],[-0.98533,52.9872],[-0.98544,52.98725],[-0.98509,52.98751],[-0.98481,52.98738]]]]}},
{ "type":"Feature","properties":{"osm_way_id":"366013059","amenity":"parking","other":{"access":"customers"}}, "geometry":{"type":"MultiPolygon","coordinates":[[[[-0.98522,52.98742],[-0.98549,52.98721],[-0.98551,52.98723],[-0.98565,52.9875],[-0.98565,52.98751],[-0.98565,52.98753],[-0.98542,52.9876],[-0.98539,52.98754],[-0.98532,52.98756],[-0.98522,52.98742]]]]}},
{ "type":"Feature","properties":{"osm_way_id":"366088919","amenity":"parking"},"geometry":{"type":"MultiPolygon","coordinates":[[[[-0.81556,53.06204],[-0.81578,53.06195],[-0.81561,53.06179],[-0.81539,53.06188],[-0.81556,53.06204]]]]}},
{ "type":"Feature","properties":{"osm_way_id":"366837149","amenity":"parking"},"geometry":{"type":"MultiPolygon","coordinates":[[[[-0.79148,53.10649],[-0.79155,53.1063],[-0.79145,53.10626],[-0.79148,53.10649]]]]}},
{ "type":"Feature","properties":{"osm_way_id":"366856820","amenity":"parking","other":{"access":"customers","fee":"no","operator":"Co-operative","park_ride":"no","parking":"surface","supervised":"no"}}, "geometry":{"type":"MultiPolygon","coordinates":[[[[-1.03405,53.10159],[-1.03408,53.10159],[-1.0344,53.10165],[-1.0343,53.10178],[-1.03428,53.10181],[-1.03426,53.10184],[-1.03415,53.102],[-1.03414,53.10202],[-1.03412,53.10205],[-1.034,53.10203],[-1.03402,53.10197],[-1.03402,53.10197],[-1.03404,53.1019],[-1.03406,53.10187],[-1.03392,53.10185],[-1.03405,53.10159]]]]}},
{ "type":"Feature","properties":{"osm_way_id":"369437275","amenity":"parking"},"geometry":{"type":"MultiPolygon","coordinates":[[[[-1.11039,53.16031],[-1.11036,53.16026],[-1.11035,53.16019],[-1.1104,53.16013],[-1.11054,53.16004],[-1.11081,53.15985],[-1.11097,53.16015],[-1.111,53.16021],[-1.11098,53.16026],[-1.11087,53.16021],[-1.11039,53.16031]]]]}},
{ "type":"Feature","properties":{"osm_way_id":"370371205","amenity":"parking","other":{"access":"customers"}}, "geometry":{"type":"MultiPolygon","coordinates":[[[[-0.80388,53.18107],[-0.80388,53.18095],[-0.80397,53.18095],[-0.80449,53.18093],[-0.80448,53.18095],[-0.80446,53.18107],[-0.80388,53.18107]]]]}},
{ "type":"Feature","properties":{"osm_way_id":"370409093","amenity":"parking","other":{"access":"customers"}}, "geometry":{"type":"MultiPolygon","coordinates":[[[[-0.81538,53.16926],[-0.81556,53.16927],[-0.81553,53.16968],[-0.8155,53.17],[-0.81544,53.17],[-0.81527,53.16999],[-0.81531,53.16946],[-0.81535,53.16946],[-0.81537,53.16935],[-0.81538,53.16926]]]]}},
{ "type":"Feature","properties":{"osm_way_id":"370502281","amenity":"parking","other":{"access":"customers"}}, "geometry":{"type":"MultiPolygon","coordinates":[[[[-0.80709,53.1845],[-0.80709,53.18428],[-0.80676,53.18427],[-0.8067,53.18426],[-0.80667,53.1845],[-0.80674,53.18449],[-0.80709,53.1845]]]]}},
{ "type":"Feature","properties":{"osm_way_id":"373726858","name":"Staythorpe Power Station Car Park","amenity":"parking","other":{"access":"private"}}, "geometry":{"type":"MultiPolygon","coordinates":[[[[-0.85624,53.07543],[-0.85373,53.07549],[-0.85322,53.07324],[-0.85573,53.07273],[-0.85631,53.07388],[-0.85609,53.07454],[-0.85679,53.07528],[-0.85683,53.07539],[-0.85624,53.07543]]]]}},
{ "type":"Feature","properties":{"osm_way_id":"373726867","name":"Staythorpe Power Station Car Park","amenity":"parking","other":{"access":"private"}}, "geometry":{"type":"MultiPolygon","coordinates":[[[[-0.86802,53.07834],[-0.86737,53.07856],[-0.86721,53.07839],[-0.86709,53.07843],[-0.86694,53.07827],[-0.86655,53.07839],[-0.86631,53.07813],[-0.86603,53.07822],[-0.86552,53.07767],[-0.86587,53.07744],[-0.86647,53.07723],[-0.86671,53.07719],[-0.86694,53.07741],[-0.86726,53.07742],[-0.86802,53.07834]]]]}},
{ "type":"Feature","properties":{"osm_way_id":"373912198","amenity":"parking"},"geometry":{"type":"MultiPolygon","coordinates":[[[[-0.81356,53.07395],[-0.81414,53.07408],[-0.8139,53.07448],[-0.81349,53.07445],[-0.81354,53.07417],[-0.81305,53.07405],[-0.81316,53.07389],[-0.81343,53.07395],[-0.81356,53.07395]]]]}},
{ "type":"Feature","properties":{"osm_way_id":"375092810","amenity":"parking","other":{"access":"private","capacity":"20","parking":"surface"}}, "geometry":{"type":"MultiPolygon","coordinates":[[[[-0.80528,53.07758],[-0.80518,53.07767],[-0.80492,53.07764],[-0.80498,53.07742],[-0.80515,53.07745],[-0.80517,53.07746],[-0.80539,53.0775],[-0.80534,53.07754],[-0.80528,53.07758]]]]}},
{ "type":"Feature","properties":{"osm_way_id":"378281425","amenity":"parking"},"geometry":{"type":"MultiPolygon","coordinates":[[[[-0.97562,53.20532],[-0.97555,53.2052],[-0.97568,53.20517],[-0.97575,53.20529],[-0.97562,53.20532]]]]}},
{ "type":"Feature","properties":{"osm_way_id":"385051003","amenity":"parking","other":{"access":"unknown"}}, "geometry":{"type":"MultiPolygon","coordinates":[[[[-1.02273,53.11836],[-1.02258,53.11831],[-1.02245,53.11826],[-1.02224,53.11818],[-1.02206,53.1181],[-1.02192,53.11809],[-1.02188,53.11812],[-1.02178,53.11819],[-1.02167,53.11831],[-1.02211,53.11848],[-1.02249,53.11862],[-1.02263,53.11858],[-1.02263,53.11852],[-1.02273,53.11836]]]]}},
{ "type":"Feature","properties":{"osm_way_id":"385174966","amenity":"parking","other":{"access":"customers","operator":"The Plough Pub"}}, "geometry":{"type":"MultiPolygon","coordinates":[[[[-1.03065,53.10204],[-1.03069,53.10195],[-1.03067,53.10195],[-1.03069,53.10191],[-1.03078,53.10193],[-1.03084,53.10195],[-1.03083,53.10199],[-1.0309,53.102],[-1.03085,53.10216],[-1.03088,53.10216],[-1.03088,53.10217],[-1.03094,53.10218],[-1.03093,53.1022],[-1.03103,53.10221],[-1.03102,53.10226],[-1.031,53.10229],[-1.0311,53.10231],[-1.03111,53.10233],[-1.0311,53.10238],[-1.03105,53.10245],[-1.03099,53.10247],[-1.03094,53.10244],[-1.03083,53.10237],[-1.03063,53.10226],[-1.03062,53.10225],[-1.0306,53.10224],[-1.03055,53.10221],[-1.03065,53.10204]]]]}},
{ "type":"Feature","properties":{"osm_way_id":"388754872","amenity":"parking"},"geometry":{"type":"MultiPolygon","coordinates":[[[[-0.90164,53.06601],[-0.90091,53.06586],[-0.90119,53.06547],[-0.90208,53.06541],[-0.90164,53.06601]]]]}},
{ "type":"Feature","properties":{"osm_way_id":"388754874","amenity":"parking"},"geometry":{"type":"MultiPolygon","coordinates":[[[[-0.90218,53.06653],[-0.90199,53.06677],[-0.90166,53.06668],[-0.90093,53.06677],[-0.9009,53.06683],[-0.90047,53.06677],[-0.90077,53.06591],[-0.9016,53.06608],[-0.90209,53.06618],[-0.90189,53.06647],[-0.90218,53.06653]]]]}},
{ "type":"Feature","properties":{"osm_way_id":"388754875","amenity":"parking"},"geometry":{"type":"MultiPolygon","coordinates":[[[[-0.9053,53.06602],[-0.90659,53.06645],[-0.90638,53.06656],[-0.90597,53.06664],[-0.9055,53.06676],[-0.90526,53.06684],[-0.90508,53.0667],[-0.90495,53.06657],[-0.90486,53.06645],[-0.90483,53.06629],[-0.90475,53.06607],[-0.9053,53.06602]]]]}},
{ "type":"Feature","properties":{"osm_way_id":"389074670","amenity":"parking"},"geometry":{"type":"MultiPolygon","coordinates":[[[[-0.94606,53.07125],[-0.94615,53.07125],[-0.94635,53.07119],[-0.94637,53.07106],[-0.94627,53.07106],[-0.94628,53.071],[-0.94612,53.071],[-0.94606,53.07125]]]]}},
{ "type":"Feature","properties":{"osm_way_id":"389266096","amenity":"parking"},"geometry":{"type":"MultiPolygon","coordinates":[[[[-1.02349,53.02695],[-1.02373,53.02683],[-1.02398,53.02653],[-1.02391,53.02647],[-1.02377,53.02653],[-1.02357,53.02636],[-1.02294,53.02662],[-1.02349,53.02695]]]]}},
{ "type":"Feature","properties":{"osm_way_id":"391021127","amenity":"parking"},"geometry":{"type":"MultiPolygon","coordinates":[[[[-0.20072,51.47944],[-0.19999,51.47968],[-0.20023,51.47996],[-0.20099,51.47971],[-0.20072,51.47944]]]]}},
{ "type":"Feature","properties":{"osm_way_id":"395117254","amenity":"parking","other":{"access":"customers"}}, "geometry":{"type":"MultiPolygon","coordinates":[[[[-0.68368,53.22614],[-0.68369,53.22609],[-0.68372,53.22608],[-0.68381,53.22587],[-0.68361,53.22583],[-0.6835,53.22608],[-0.68349,53.22613],[-0.68368,53.22614]]]]}},
{ "type":"Feature","properties":{"osm_way_id":"395118212","amenity":"parking","other":{"access":"customers"}}, "geometry":{"type":"MultiPolygon","coordinates":[[[[-0.68238,53.22707],[-0.68238,53.22697],[-0.68246,53.22697],[-0.68263,53.22696],[-0.68264,53.22698],[-0.6829,53.22698],[-0.68306,53.22699],[-0.68307,53.22709],[-0.68265,53.22709],[-0.68262,53.22707],[-0.68238,53.22707]]]]}},
{ "type":"Feature","properties":{"osm_way_id":"397696576","amenity":"parking","other":{"access":"private"}}, "geometry":{"type":"MultiPolygon","coordinates":[[[[-0.94586,53.07979],[-0.94601,53.07967],[-0.94615,53.07956],[-0.94585,53.07942],[-0.94551,53.07963],[-0.9453,53.0798],[-0.94555,53.07996],[-0.94564,53.07991],[-0.94586,53.07979]]]]}},
{ "type":"Feature","properties":{"osm_way_id":"404558577","amenity":"parking"},"geometry":{"type":"MultiPolygon","coordinates":[[[[-0.99763,53.15397],[-0.99731,53.15393],[-0.99735,53.15385],[-0.99742,53.15386],[-0.99744,53.15382],[-0.99768,53.15386],[-0.99763,53.15397]]]]}},
{ "type":"Feature","properties":{"osm_way_id":"411029549","amenity":"parking","other":{"access":"customers","fee":"no","parking":"surface","source:geometry":"Bing"}}, "geometry":{"type":"MultiPolygon","coordinates":[[[[-1.00595,53.20403],[-1.00592,53.20403],[-1.00588,53.20409],[-1.00558,53.2041],[-1.00558,53.20403],[-1.00554,53.204],[-1.00531,53.20401],[-1.00521,53.20403],[-1.00515,53.20415],[-1.00489,53.20399],[-1.00505,53.2039],[-1.00519,53.20387],[-1.0053,53.20395],[-1.00608,53.20357],[-1.00621,53.20352],[-1.00625,53.20356],[-1.00634,53.20365],[-1.00622,53.2037],[-1.00619,53.20371],[-1.00595,53.20403]]]]}},
{ "type":"Feature","properties":{"osm_way_id":"411034490","amenity":"parking","other":{"access":"customers"}}, "geometry":{"type":"MultiPolygon","coordinates":[[[[-0.98838,53.20627],[-0.98823,53.20608],[-0.98818,53.20604],[-0.98816,53.20605],[-0.98811,53.20602],[-0.98783,53.20612],[-0.98765,53.20632],[-0.9877,53.20634],[-0.98768,53.20637],[-0.98773,53.20639],[-0.98771,53.20643],[-0.98775,53.20648],[-0.98838,53.20627]]]]}},
{ "type":"Feature","properties":{"osm_way_id":"429129559","amenity":"parking"},"geometry":{"type":"MultiPolygon","coordinates":[[[[-0.80119,53.06241],[-0.80098,53.06306],[-0.80018,53.06318],[-0.80042,53.06233],[-0.80119,53.06241]]]]}},
{ "type":"Feature","properties":{"osm_way_id":"437580039","amenity":"parking"},"geometry":{"type":"MultiPolygon","coordinates":[[[[-0.79301,53.08495],[-0.79254,53.08596],[-0.79281,53.086],[-0.79309,53.08533],[-0.79302,53.08532],[-0.79317,53.08498],[-0.79301,53.08495]]]]}},
{ "type":"Feature","properties":{"osm_way_id":"438443089","amenity":"parking"},"geometry":{"type":"MultiPolygon","coordinates":[[[[-0.80894,53.08037],[-0.80904,53.08025],[-0.80854,53.0801],[-0.80823,53.08034],[-0.80772,53.0801],[-0.80749,53.08022],[-0.80744,53.08027],[-0.80746,53.08032],[-0.80752,53.08038],[-0.80809,53.08061],[-0.80826,53.08047],[-0.80835,53.0805],[-0.80862,53.08025],[-0.80894,53.08037]]]]}},
{ "type":"Feature","properties":{"osm_way_id":"441708133","amenity":"parking","other":{"access":"customers"}}, "geometry":{"type":"MultiPolygon","coordinates":[[[[-0.98935,53.08424],[-0.9894,53.0844],[-0.98951,53.0844],[-0.98981,53.08431],[-0.98987,53.08429],[-0.9899,53.08428],[-0.98974,53.08413],[-0.98976,53.08413],[-0.98962,53.08402],[-0.98959,53.084],[-0.98956,53.08401],[-0.98952,53.08403],[-0.98939,53.08406],[-0.98931,53.08408],[-0.98935,53.08424]]]]}},
{ "type":"Feature","properties":{"osm_way_id":"446320105","amenity":"parking","other":{"access":"customers"}}, "geometry":{"type":"MultiPolygon","coordinates":[[[[-0.79932,53.07022],[-0.79939,53.07011],[-0.7991,53.07005],[-0.79903,53.07017],[-0.79932,53.07022]]]]}},
{ "type":"Feature","properties":{"osm_way_id":"464508240","amenity":"parking","other":{"access":"customers"}}, "geometry":{"type":"MultiPolygon","coordinates":[[[[-1.10774,53.11878],[-1.10777,53.11876],[-1.10777,53.11867],[-1.10739,53.11868],[-1.10727,53.11872],[-1.10686,53.11874],[-1.10689,53.11885],[-1.10751,53.11883],[-1.10751,53.1188],[-1.10768,53.1188],[-1.10774,53.11878]]]]}},
{ "type":"Feature","properties":{"osm_way_id":"464537304","amenity":"parking"},"geometry":{"type":"MultiPolygon","coordinates":[[[[-1.02821,53.14618],[-1.02734,53.14618],[-1.02731,53.14644],[-1.02747,53.14672],[-1.02762,53.1467],[-1.02777,53.14658],[-1.02821,53.14618]]]]}},
{ "type":"Feature","properties":{"osm_way_id":"464537316","amenity":"parking"},"geometry":{"type":"MultiPolygon","coordinates":[[[[-1.02637,53.14646],[-1.02716,53.14648],[-1.0273,53.14671],[-1.02724,53.14673],[-1.02724,53.14678],[-1.02633,53.14677],[-1.02631,53.14648],[-1.02637,53.14646]]]]}},
{ "type":"Feature","properties":{"osm_way_id":"464537322","amenity":"parking"},"geometry":{"type":"MultiPolygon","coordinates":[[[[-1.02831,53.14496],[-1.0283,53.14455],[-1.02805,53.14454],[-1.02801,53.14432],[-1.0272,53.14434],[-1.02722,53.14451],[-1.02756,53.14455],[-1.0275,53.14495],[-1.02831,53.14496]]]]}},
{ "type":"Feature","properties":{"osm_way_id":"464927325","amenity":"parking"},"geometry":{"type":"MultiPolygon","coordinates":[[[[-0.98228,53.11451],[-0.98239,53.11455],[-0.98247,53.11454],[-0.98256,53.11447],[-0.9826,53.11437],[-0.98253,53.11434],[-0.98258,53.11429],[-0.98229,53.11419],[-0.98221,53.11416],[-0.98211,53.11423],[-0.98195,53.1144],[-0.98228,53.11451]]]]}},
{ "type":"Feature","properties":{"osm_way_id":"473664150","amenity":"parking"},"geometry":{"type":"MultiPolygon","coordinates":[[[[-0.95335,53.0744],[-0.95336,53.07444],[-0.95347,53.07487],[-0.95348,53.07491],[-0.95351,53.07485],[-0.95374,53.07464],[-0.95391,53.07446],[-0.95384,53.07439],[-0.95335,53.0744]]]]}},
{ "type":"Feature","properties":{"osm_way_id":"478335775","amenity":"parking"},"geometry":{"type":"MultiPolygon","coordinates":[[[[-0.88625,53.02795],[-0.88632,53.02787],[-0.88633,53.02784],[-0.88634,53.02781],[-0.88647,53.02771],[-0.8866,53.02775],[-0.88662,53.02777],[-0.88662,53.0278],[-0.88661,53.02782],[-0.88659,53.02784],[-0.88656,53.02786],[-0.88651,53.02789],[-0.88645,53.02791],[-0.88637,53.02793],[-0.88625,53.02795]]]]}},
{ "type":"Feature","properties":{"osm_way_id":"478335779","amenity":"parking"},"geometry":{"type":"MultiPolygon","coordinates":[[[[-0.88694,53.02839],[-0.8873,53.02801],[-0.88676,53.02783],[-0.8867,53.02788],[-0.88662,53.02793],[-0.88654,53.02797],[-0.88645,53.028],[-0.88637,53.02802],[-0.88629,53.02803],[-0.88624,53.02803],[-0.88614,53.0281],[-0.88694,53.02839]]]]}},
{ "type":"Feature","properties":{"osm_way_id":"478338420","amenity":"parking"},"geometry":{"type":"MultiPolygon","coordinates":[[[[-0.86155,53.07447],[-0.8614,53.07431],[-0.86146,53.07428],[-0.86161,53.07444],[-0.86155,53.07447]]]]}},
{ "type":"Feature","properties":{"osm_way_id":"478338421","amenity":"parking"},"geometry":{"type":"MultiPolygon","coordinates":[[[[-0.86001,53.0747],[-0.85999,53.07465],[-0.86062,53.07459],[-0.86063,53.07464],[-0.86001,53.0747]]]]}},
{ "type":"Feature","properties":{"osm_way_id":"489421482","amenity":"parking"},"geometry":{"type":"MultiPolygon","coordinates":[[[[-1.03361,53.23136],[-1.03413,53.23142],[-1.0343,53.23144],[-1.03425,53.23145],[-1.03394,53.23151],[-1.03372,53.23156],[-1.03361,53.23136]]]]}},
{ "type":"Feature","properties":{"osm_way_id":"489647232","amenity":"parking","other":{"access":"private"}}, "geometry":{"type":"MultiPolygon","coordinates":[[[[-1.0282,53.23251],[-1.02832,53.23248],[-1.02822,53.23237],[-1.0281,53.23242],[-1.0282,53.2325],[-1.0282,53.23251]]]]}},
{ "type":"Feature","properties":{"osm_way_id":"489654015","amenity":"parking","other":{"access":"private"}}, "geometry":{"type":"MultiPolygon","coordinates":[[[[-1.02713,53.23338],[-1.02702,53.23343],[-1.02666,53.23315],[-1.02679,53.23309],[-1.02713,53.23338]]]]}},
{ "type":"Feature","properties":{"osm_way_id":"489668333","amenity":"parking"},"geometry":{"type":"MultiPolygon","coordinates":[[[[-1.04664,53.23489],[-1.04676,53.23541],[-1.04656,53.23542],[-1.04675,53.23624],[-1.04664,53.23625],[-1.04648,53.23627],[-1.04643,53.23607],[-1.04588,53.23612],[-1.0457,53.23538],[-1.04619,53.23534],[-1.04607,53.23486],[-1.04621,53.23485],[-1.04644,53.23483],[-1.04643,53.23476],[-1.0467,53.23473],[-1.04672,53.23483],[-1.04673,53.23488],[-1.04664,53.23489]]]]}},
{ "type":"Feature","properties":{"osm_way_id":"489941461","amenity":"parking"},"geometry":{"type":"MultiPolygon","coordinates":[[[[-1.04456,53.23479],[-1.04412,53.23485],[-1.04419,53.23505],[-1.04426,53.23526],[-1.04435,53.2353],[-1.04455,53.23528],[-1.04472,53.23526],[-1.04469,53.2352],[-1.04463,53.235],[-1.04456,53.23479]]]]}},
{ "type":"Feature","properties":{"osm_way_id":"491204153","name":"Goshawk Car Park","amenity":"parking","other":{"fee":"yes","parking":"surface","surface":"grass"}}, "geometry":{"type":"MultiPolygon","coordinates":[[[[-1.08856,53.16826],[-1.08845,53.16842],[-1.08609,53.16982],[-1.08593,53.16984],[-1.08572,53.16979],[-1.08554,53.16969],[-1.08546,53.16952],[-1.0854,53.1694],[-1.08519,53.16935],[-1.08518,53.16927],[-1.08654,53.16847],[-1.08673,53.16843],[-1.08708,53.16838],[-1.08727,53.16832],[-1.08752,53.16824],[-1.08789,53.16809],[-1.08834,53.16809],[-1.08856,53.16826]]]]}},
{ "type":"Feature","properties":{"osm_way_id":"491204154","name":"Crossbill Car Park","amenity":"parking","other":{"fee":"yes","parking":"surface","surface":"grass"}}, "geometry":{"type":"MultiPolygon","coordinates":[[[[-1.09103,53.1668],[-1.09103,53.16687],[-1.09062,53.16729],[-1.09019,53.1676],[-1.08987,53.16772],[-1.08961,53.16785],[-1.08943,53.16773],[-1.08924,53.16785],[-1.08912,53.16781],[-1.08939,53.16746],[-1.08937,53.1673],[-1.08933,53.16723],[-1.08926,53.16718],[-1.08936,53.16698],[-1.0893,53.16682],[-1.08925,53.16677],[-1.08912,53.16661],[-1.08912,53.16647],[-1.08914,53.16634],[-1.0894,53.16634],[-1.08967,53.16633],[-1.08983,53.16631],[-1.09019,53.16626],[-1.09048,53.16626],[-1.09056,53.16629],[-1.09073,53.16646],[-1.09102,53.16673],[-1.09103,53.1668]]]]}},
{ "type":"Feature","properties":{"osm_way_id":"491206619","amenity":"parking","other":{"access":"private"}}, "geometry":{"type":"MultiPolygon","coordinates":[[[[-1.09417,53.16388],[-1.09424,53.16391],[-1.09393,53.16421],[-1.09386,53.16417],[-1.0937,53.16409],[-1.09378,53.16397],[-1.09388,53.164],[-1.09393,53.16402],[-1.09392,53.16403],[-1.09395,53.16404],[-1.09393,53.16407],[-1.09399,53.16408],[-1.09417,53.16388]]]]}},
{ "type":"Feature","properties":{"osm_way_id":"496284718","amenity":"parking","other":{"access":"private"}}, "geometry":{"type":"MultiPolygon","coordinates":[[[[-1.08103,53.17198],[-1.08083,53.17199],[-1.08082,53.17176],[-1.08101,53.17175],[-1.08103,53.17198]]]]}},
{ "type":"Feature","properties":{"osm_way_id":"496291329","name":"Sparrowhawk Car Park","amenity":"parking","other":{"fee":"yes","parking":"surface","surface":"grass"}}, "geometry":{"type":"MultiPolygon","coordinates":[[[[-1.0847,53.17066],[-1.08442,53.17076],[-1.0844,53.17081],[-1.08437,53.1709],[-1.08425,53.17095],[-1.08414,53.17098],[-1.08408,53.17103],[-1.08397,53.17108],[-1.08385,53.17109],[-1.08376,53.17107],[-1.08368,53.17096],[-1.08357,53.17091],[-1.08348,53.17086],[-1.0834,53.17082],[-1.08328,53.17075],[-1.08325,53.17067],[-1.08321,53.17062],[-1.08314,53.17056],[-1.08305,53.17053],[-1.08299,53.17052],[-1.08291,53.17047],[-1.08283,53.17041],[-1.0828,53.17036],[-1.0828,53.1703],[-1.08287,53.17026],[-1.08293,53.17022],[-1.08295,53.17018],[-1.0829,53.17015],[-1.08288,53.1701],[-1.08293,53.17006],[-1.08299,53.17002],[-1.08311,53.17],[-1.08319,53.16998],[-1.08325,53.16994],[-1.0834,53.1699],[-1.08348,53.16989],[-1.08356,53.16993],[-1.08362,53.16996],[-1.08368,53.17004],[-1.0838,53.16998],[-1.08432,53.1703],[-1.08478,53.17061],[-1.0847,53.17066]]]]}},
{ "type":"Feature","properties":{"osm_way_id":"496410327","amenity":"parking","other":{"access":"customers","capacity":"30","fee":"no","park_ride":"no","supervised":"no"}}, "geometry":{"type":"MultiPolygon","coordinates":[[[[-1.12441,53.16007],[-1.12447,53.16006],[-1.12462,53.16002],[-1.12466,53.16001],[-1.125,53.15993],[-1.12517,53.1599],[-1.1252,53.1599],[-1.12533,53.15987],[-1.12538,53.15996],[-1.12458,53.16014],[-1.12445,53.16014],[-1.12441,53.16007]]]]}},
{ "type":"Feature","properties":{"osm_way_id":"496655847","amenity":"parking"},"geometry":{"type":"MultiPolygon","coordinates":[[[[-1.04884,53.16895],[-1.0486,53.16916],[-1.0484,53.16907],[-1.04859,53.16885],[-1.04866,53.16881],[-1.04874,53.1688],[-1.0488,53.16881],[-1.04889,53.16881],[-1.04896,53.16884],[-1.04884,53.16895]]]]}},
{ "type":"Feature","properties":{"osm_way_id":"496655853","amenity":"parking","other":{"access":"private"}}, "geometry":{"type":"MultiPolygon","coordinates":[[[[-1.04854,53.17028],[-1.04854,53.17032],[-1.04835,53.17019],[-1.04843,53.1702],[-1.04854,53.17028]]]]}},
{ "type":"Feature","properties":{"osm_way_id":"498958796","amenity":"parking"},"geometry":{"type":"MultiPolygon","coordinates":[[[[-1.02621,53.20036],[-1.02608,53.20038],[-1.02602,53.20038],[-1.02599,53.20037],[-1.02598,53.20033],[-1.02579,53.20033],[-1.02554,53.20038],[-1.02557,53.20048],[-1.02584,53.20059],[-1.02619,53.20071],[-1.02636,53.20065],[-1.02631,53.20038],[-1.02621,53.20036]]]]}},
{ "type":"Feature","properties":{"osm_way_id":"498958798","amenity":"parking"},"geometry":{"type":"MultiPolygon","coordinates":[[[[-1.02659,53.20024],[-1.02631,53.20017],[-1.02603,53.20023],[-1.02606,53.20034],[-1.02659,53.20024]]]]}},
{ "type":"Feature","properties":{"osm_way_id":"498958806","amenity":"parking"},"geometry":{"type":"MultiPolygon","coordinates":[[[[-1.02805,53.20041],[-1.02746,53.20062],[-1.02744,53.20061],[-1.02741,53.20045],[-1.02706,53.20048],[-1.02701,53.20048],[-1.02698,53.20036],[-1.02754,53.20033],[-1.02787,53.20022],[-1.02805,53.20041]]]]}},
{ "type":"Feature","properties":{"osm_way_id":"508691236","amenity":"parking","other":{"access":"private"}}, "geometry":{"type":"MultiPolygon","coordinates":[[[[-0.96104,53.07548],[-0.96106,53.07534],[-0.96078,53.07534],[-0.96078,53.07547],[-0.96104,53.07548]]]]}},
{ "type":"Feature","properties":{"osm_way_id":"508691239","amenity":"parking","other":{"access":"private","parking":"surface"}}, "geometry":{"type":"MultiPolygon","coordinates":[[[[-0.95674,53.07712],[-0.95675,53.0771],[-0.95688,53.07689],[-0.95669,53.07684],[-0.95662,53.07683],[-0.95647,53.07706],[-0.95674,53.07712]]]]}},
{ "type":"Feature","properties":{"osm_way_id":"508691241","amenity":"parking","other":{"access":"private","parking":"surface"}}, "geometry":{"type":"MultiPolygon","coordinates":[[[[-0.95729,53.07691],[-0.95732,53.07687],[-0.95742,53.07674],[-0.95745,53.0767],[-0.95689,53.07652],[-0.95674,53.07667],[-0.95672,53.07669],[-0.95671,53.0767],[-0.95668,53.07674],[-0.95729,53.07691]]]]}},
{ "type":"Feature","properties":{"osm_way_id":"508691249","amenity":"parking","other":{"access":"private"}}, "geometry":{"type":"MultiPolygon","coordinates":[[[[-0.95761,53.07863],[-0.95765,53.07858],[-0.9575,53.07848],[-0.95739,53.07841],[-0.95722,53.07831],[-0.95717,53.07834],[-0.95705,53.07845],[-0.95748,53.0786],[-0.9575,53.07861],[-0.95761,53.07863]]]]}},
{ "type":"Feature","properties":{"osm_way_id":"508691250","amenity":"parking"},"geometry":{"type":"MultiPolygon","coordinates":[[[[-0.95416,53.07932],[-0.95421,53.07927],[-0.95411,53.07924],[-0.95403,53.07921],[-0.95398,53.07926],[-0.95416,53.07932]]]]}},
{ "type":"Feature","properties":{"osm_way_id":"508691279","amenity":"parking"},"geometry":{"type":"MultiPolygon","coordinates":[[[[-0.95346,53.07946],[-0.95332,53.07943],[-0.95334,53.07938],[-0.95339,53.07929],[-0.95343,53.07931],[-0.95351,53.07934],[-0.95353,53.07933],[-0.95357,53.07935],[-0.9536,53.07936],[-0.95346,53.07946]]]]}},
{ "type":"Feature","properties":{"osm_way_id":"508691280","amenity":"parking"},"geometry":{"type":"MultiPolygon","coordinates":[[[[-0.95477,53.07965],[-0.95494,53.07952],[-0.95486,53.07947],[-0.95474,53.07954],[-0.95472,53.07953],[-0.95467,53.07951],[-0.95457,53.07947],[-0.95447,53.07956],[-0.95477,53.07965]]]]}},
{ "type":"Feature","properties":{"osm_way_id":"508691285","amenity":"parking"},"geometry":{"type":"MultiPolygon","coordinates":[[[[-0.95724,53.08104],[-0.95729,53.08097],[-0.95731,53.08089],[-0.95703,53.08083],[-0.95692,53.08086],[-0.95687,53.08084],[-0.95686,53.0808],[-0.95679,53.08078],[-0.95676,53.08082],[-0.95672,53.0808],[-0.95673,53.08075],[-0.95665,53.08074],[-0.95642,53.08068],[-0.95633,53.08083],[-0.9565,53.08087],[-0.95674,53.08092],[-0.95724,53.08104]]]]}},
{ "type":"Feature","properties":{"osm_way_id":"508691299","amenity":"parking","other":{"wheelchair":"yes"}}, "geometry":{"type":"MultiPolygon","coordinates":[[[[-0.95153,53.08208],[-0.95167,53.08198],[-0.95161,53.08195],[-0.95155,53.08191],[-0.95149,53.08188],[-0.95135,53.08199],[-0.95139,53.08201],[-0.95144,53.08203],[-0.95149,53.08206],[-0.95153,53.08208]]]]}},
{ "type":"Feature","properties":{"osm_way_id":"508986721","amenity":"parking","other":{"access":"private"}}, "geometry":{"type":"MultiPolygon","coordinates":[[[[-0.96011,53.07847],[-0.96017,53.07823],[-0.95972,53.07819],[-0.95968,53.07843],[-0.96011,53.07847]]]]}},
{ "type":"Feature","properties":{"osm_way_id":"508986723","amenity":"parking","other":{"access":"private"}}, "geometry":{"type":"MultiPolygon","coordinates":[[[[-0.96003,53.07887],[-0.96008,53.0787],[-0.95996,53.07869],[-0.95983,53.07868],[-0.95976,53.07868],[-0.95971,53.07885],[-0.96003,53.07887]]]]}},
{ "type":"Feature","properties":{"osm_way_id":"508986733","amenity":"parking"},"geometry":{"type":"MultiPolygon","coordinates":[[[[-0.96009,53.07928],[-0.96011,53.07925],[-0.96016,53.07909],[-0.96008,53.07909],[-0.96002,53.07908],[-0.96,53.07914],[-0.95998,53.07922],[-0.96003,53.07924],[-0.96002,53.07928],[-0.96009,53.07928]]]]}},
{ "type":"Feature","properties":{"osm_way_id":"508986829","amenity":"parking","other":{"access":"private"}}, "geometry":{"type":"MultiPolygon","coordinates":[[[[-0.96084,53.07458],[-0.96084,53.07452],[-0.96058,53.07451],[-0.96058,53.07458],[-0.96061,53.07458],[-0.96075,53.07458],[-0.96079,53.07458],[-0.96084,53.07458]]]]}},
{ "type":"Feature","properties":{"osm_way_id":"518130119","amenity":"parking","building":"yes","other":{"capacity:disabled":"yes","fee":"yes","opening_hours":"Mo-Sa 06:00-22:00; Su 10:00-16:00","operator":"Morrisons","parking":"multi-storey"}}, "geometry":{"type":"MultiPolygon","coordinates":[[[[-0.80785,53.07879],[-0.80725,53.07932],[-0.80724,53.07936],[-0.80758,53.07945],[-0.80773,53.07932],[-0.80779,53.07935],[-0.80815,53.07903],[-0.80808,53.079],[-0.80813,53.07895],[-0.80839,53.07906],[-0.80846,53.07899],[-0.80864,53.07884],[-0.80866,53.07882],[-0.80847,53.07874],[-0.80774,53.07844],[-0.80767,53.0785],[-0.80757,53.07846],[-0.80754,53.07851],[-0.80753,53.07855],[-0.80756,53.0786],[-0.80761,53.07863],[-0.80765,53.07865],[-0.80769,53.07861],[-0.80776,53.07863],[-0.80768,53.07872],[-0.80785,53.07879]]]]}},
{ "type":"Feature","properties":{"osm_way_id":"528131202","amenity":"parking","other":{"access":"permissive","fee":"no","park_ride":"no","parking":"surface","supervised":"no","surface":"asphalt"}}, "geometry":{"type":"MultiPolygon","coordinates":[[[[-1.02858,53.10078],[-1.02854,53.10081],[-1.02849,53.1008],[-1.02845,53.10085],[-1.02837,53.10083],[-1.0284,53.10079],[-1.02836,53.10078],[-1.0283,53.10081],[-1.02823,53.10077],[-1.02828,53.10074],[-1.02826,53.10072],[-1.02818,53.10074],[-1.02813,53.10072],[-1.02818,53.10066],[-1.02823,53.10067],[-1.02831,53.10062],[-1.02831,53.10058],[-1.02841,53.10058],[-1.0284,53.10063],[-1.02847,53.10059],[-1.02854,53.10064],[-1.0285,53.10067],[-1.02852,53.10068],[-1.02855,53.1007],[-1.02862,53.10068],[-1.02865,53.10071],[-1.02859,53.10074],[-1.02861,53.10076],[-1.02858,53.10078]]]]}},
{ "type":"Feature","properties":{"osm_way_id":"528131206","amenity":"parking","other":{"access":"customers","fee":"no","park_ride":"no","parking":"surface","supervised":"no","surface":"gravel"}}, "geometry":{"type":"MultiPolygon","coordinates":[[[[-1.02974,53.10157],[-1.02988,53.10162],[-1.03002,53.1014],[-1.02988,53.10137],[-1.02986,53.1014],[-1.02974,53.10157]]]]}},
{ "type":"Feature","properties":{"osm_way_id":"528131208","amenity":"parking","other":{"access":"customers","fee":"no","operator":"The Lion pub","park_ride":"no","parking":"surface","supervised":"no","surface":"asphalt"}}, "geometry":{"type":"MultiPolygon","coordinates":[[[[-1.03725,53.10353],[-1.03671,53.10336],[-1.03677,53.10329],[-1.03678,53.1033],[-1.03696,53.10335],[-1.03704,53.10325],[-1.03711,53.10328],[-1.03717,53.10321],[-1.03711,53.10319],[-1.03711,53.10316],[-1.037,53.10307],[-1.03689,53.10304],[-1.03683,53.10302],[-1.03693,53.10293],[-1.03696,53.1029],[-1.03699,53.10287],[-1.03703,53.10283],[-1.03708,53.10287],[-1.03711,53.10294],[-1.03714,53.103],[-1.03717,53.10308],[-1.03719,53.10313],[-1.03722,53.1032],[-1.03724,53.10323],[-1.03727,53.10327],[-1.03733,53.10334],[-1.03737,53.1034],[-1.03731,53.10346],[-1.03725,53.10353]]]]}},
{ "type":"Feature","properties":{"osm_way_id":"538866559","amenity":"parking","other":{"access":"customers"}}, "geometry":{"type":"MultiPolygon","coordinates":[[[[-1.12582,53.0949],[-1.12586,53.09496],[-1.12621,53.0949],[-1.12628,53.09489],[-1.12621,53.09473],[-1.12621,53.09452],[-1.12624,53.09444],[-1.126,53.09442],[-1.12597,53.09451],[-1.12599,53.09461],[-1.12595,53.09462],[-1.12596,53.09465],[-1.12603,53.09464],[-1.12606,53.09475],[-1.12602,53.09475],[-1.12603,53.09479],[-1.126,53.09479],[-1.12601,53.09482],[-1.12597,53.09483],[-1.12588,53.09485],[-1.12589,53.09489],[-1.12582,53.0949]]]]}},
{ "type":"Feature","properties":{"osm_way_id":"541972385","amenity":"parking","other":{"access":"private","fee":"no","operator":"NHS","park_ride":"no","parking":"surface","supervised":"no","surface":"asphalt"}}, "geometry":{"type":"MultiPolygon","coordinates":[[[[-1.11625,53.16456],[-1.11674,53.16446],[-1.11696,53.1648],[-1.1169,53.16484],[-1.11678,53.16464],[-1.11681,53.16464],[-1.11673,53.16452],[-1.11654,53.16456],[-1.11656,53.1646],[-1.11643,53.16463],[-1.11656,53.16485],[-1.11672,53.16482],[-1.11675,53.16488],[-1.1165,53.16493],[-1.11625,53.16456]]]]}},
{ "type":"Feature","properties":{"osm_way_id":"541972390","amenity":"parking","other":{"access":"private","capacity":"30","fee":"no","operator":"Nottinghamshire County Council (Samuel Barlow Primary Academy)","park_ride":"no","parking":"surface","supervised":"no","surface":"asphalt"}}, "geometry":{"type":"MultiPolygon","coordinates":[[[[-1.11735,53.16384],[-1.11705,53.16391],[-1.11688,53.16361],[-1.11719,53.16355],[-1.11735,53.16384]]]]}},
{ "type":"Feature","properties":{"osm_way_id":"542680987","amenity":"parking"},"geometry":{"type":"MultiPolygon","coordinates":[[[[-1.10846,53.16775],[-1.10944,53.16795],[-1.10949,53.16798],[-1.10949,53.16801],[-1.10954,53.16803],[-1.10953,53.16806],[-1.10842,53.16783],[-1.10846,53.16775]]]]}},
{ "type":"Feature","properties":{"osm_way_id":"542680988","amenity":"parking"},"geometry":{"type":"MultiPolygon","coordinates":[[[[-1.10963,53.168],[-1.10958,53.16796],[-1.10971,53.1679],[-1.10944,53.16769],[-1.10939,53.16772],[-1.10934,53.16768],[-1.10938,53.16767],[-1.10939,53.16765],[-1.10935,53.16761],[-1.10953,53.16753],[-1.10959,53.16758],[-1.10967,53.16755],[-1.11004,53.16783],[-1.10994,53.16787],[-1.10999,53.16791],[-1.10975,53.16802],[-1.10969,53.16797],[-1.10963,53.168]]]]}},
{ "type":"Feature","properties":{"osm_way_id":"542680989","amenity":"parking"},"geometry":{"type":"MultiPolygon","coordinates":[[[[-1.10855,53.16759],[-1.10852,53.16767],[-1.10888,53.16774],[-1.10891,53.16767],[-1.10855,53.16759]]]]}},
{ "type":"Feature","properties":{"osm_way_id":"542681021","amenity":"parking","other":{"access":"private","capacity":"4"}}, "geometry":{"type":"MultiPolygon","coordinates":[[[[-1.11154,53.16473],[-1.11141,53.16467],[-1.11154,53.16458],[-1.11167,53.16465],[-1.11154,53.16473]]]]}},
{ "type":"Feature","properties":{"osm_way_id":"542681023","amenity":"parking","other":{"access":"private","capacity":"12","fee":"no"}}, "geometry":{"type":"MultiPolygon","coordinates":[[[[-1.11244,53.16431],[-1.11222,53.16442],[-1.11205,53.16431],[-1.11225,53.16419],[-1.11244,53.16431]]]]}},
{ "type":"Feature","properties":{"osm_way_id":"542681029","amenity":"parking","other":{"access":"private","capacity":"7","fee":"no"}}, "geometry":{"type":"MultiPolygon","coordinates":[[[[-1.11293,53.16454],[-1.11275,53.1644],[-1.11282,53.16437],[-1.113,53.1645],[-1.11293,53.16454]]]]}},
{ "type":"Feature","properties":{"osm_way_id":"542681030","amenity":"parking","other":{"access":"private","capacity":"3","fee":"no"}}, "geometry":{"type":"MultiPolygon","coordinates":[[[[-1.11275,53.16433],[-1.1127,53.16429],[-1.1128,53.16425],[-1.11284,53.16429],[-1.11275,53.16433]]]]}},
{ "type":"Feature","properties":{"osm_way_id":"542681031","amenity":"parking","other":{"access":"private","capacity":"15","fee":"no"}}, "geometry":{"type":"MultiPolygon","coordinates":[[[[-1.11251,53.16377],[-1.11232,53.16386],[-1.11253,53.16402],[-1.11263,53.16397],[-1.11264,53.16398],[-1.11272,53.16394],[-1.11251,53.16377]]]]}},
{ "type":"Feature","properties":{"osm_way_id":"542681032","amenity":"parking","other":{"access":"private","capacity":"8","fee":"no"}}, "geometry":{"type":"MultiPolygon","coordinates":[[[[-1.1128,53.1642],[-1.11257,53.16402],[-1.11264,53.16398],[-1.11269,53.16402],[-1.11275,53.164],[-1.11294,53.16412],[-1.11295,53.16413],[-1.1128,53.1642]]]]}},
{ "type":"Feature","properties":{"osm_way_id":"542681251","amenity":"parking","other":{"access":"customers","capacity":"12","fee":"no","park_ride":"no","supervised":"no"}}, "geometry":{"type":"MultiPolygon","coordinates":[[[[-1.11726,53.16587],[-1.11742,53.16576],[-1.1172,53.16563],[-1.11711,53.16557],[-1.11693,53.16568],[-1.11726,53.16587]]]]}},
{ "type":"Feature","properties":{"osm_way_id":"542681254","amenity":"parking","other":{"access":"residents"}}, "geometry":{"type":"MultiPolygon","coordinates":[[[[-1.12033,53.16417],[-1.12027,53.16429],[-1.12024,53.16432],[-1.1202,53.16433],[-1.11993,53.16439],[-1.11989,53.1644],[-1.11986,53.16439],[-1.11965,53.16432],[-1.12033,53.16417]]]]}},
{ "type":"Feature","properties":{"osm_way_id":"542682687","amenity":"parking","other":{"access":"customers","capacity":"60","fee":"no","park_ride":"no","supervised":"no","surface":"asphalt"}}, "geometry":{"type":"MultiPolygon","coordinates":[[[[-1.12361,53.16102],[-1.12312,53.16113],[-1.123,53.16092],[-1.12293,53.16081],[-1.12289,53.16074],[-1.12337,53.16064],[-1.12361,53.16102]]]]}},
{ "type":"Feature","properties":{"osm_way_id":"542723118","amenity":"parking","other":{"access":"yes","capacity":"10","fee":"no","park_ride":"no","supervised":"no"}}, "geometry":{"type":"MultiPolygon","coordinates":[[[[-1.10801,53.16531],[-1.10796,53.16524],[-1.10792,53.16518],[-1.10782,53.16513],[-1.10775,53.16512],[-1.10768,53.16514],[-1.10763,53.16516],[-1.10761,53.1652],[-1.10762,53.16522],[-1.10765,53.16525],[-1.10801,53.16531]]]]}},
{ "type":"Feature","properties":{"osm_way_id":"542831586","amenity":"parking","other":{"access":"customers"}}, "geometry":{"type":"MultiPolygon","coordinates":[[[[-1.1165,53.09828],[-1.11656,53.09827],[-1.11642,53.09808],[-1.11609,53.09813],[-1.11602,53.09815],[-1.11595,53.09816],[-1.11604,53.09831],[-1.11611,53.0983],[-1.11616,53.09837],[-1.1165,53.09828]]]]}},
{ "type":"Feature","properties":{"osm_way_id":"542896777","amenity":"parking"},"geometry":{"type":"MultiPolygon","coordinates":[[[[-1.11583,53.16425],[-1.11576,53.16414],[-1.11563,53.16417],[-1.11568,53.16425],[-1.11569,53.16428],[-1.11583,53.16425]]]]}},
{ "type":"Feature","properties":{"osm_way_id":"542896783","amenity":"parking","other":{"access":"private","capacity":"12","fee":"no","park_ride":"no","supervised":"no"}}, "geometry":{"type":"MultiPolygon","coordinates":[[[[-1.11531,53.16357],[-1.11561,53.16349],[-1.11557,53.16341],[-1.1154,53.16332],[-1.11536,53.16325],[-1.11518,53.16329],[-1.11514,53.16332],[-1.11515,53.16335],[-1.1153,53.16357],[-1.11531,53.16357]]]]}},
{ "type":"Feature","properties":{"osm_way_id":"542896784","amenity":"parking"},"geometry":{"type":"MultiPolygon","coordinates":[[[[-1.11556,53.16381],[-1.11544,53.16378],[-1.11542,53.16375],[-1.11564,53.1637],[-1.1157,53.16378],[-1.11556,53.16381]]]]}},
{ "type":"Feature","properties":{"osm_way_id":"542896785","amenity":"parking"},"geometry":{"type":"MultiPolygon","coordinates":[[[[-1.1153,53.16378],[-1.11506,53.16382],[-1.1151,53.16389],[-1.11525,53.16387],[-1.11531,53.1638],[-1.1153,53.16378]]]]}},
{ "type":"Feature","properties":{"osm_way_id":"542896786","amenity":"parking"},"geometry":{"type":"MultiPolygon","coordinates":[[[[-1.11601,53.16371],[-1.11598,53.16366],[-1.11596,53.16362],[-1.11612,53.16358],[-1.11619,53.16357],[-1.11621,53.16359],[-1.11613,53.16368],[-1.11601,53.16371]]]]}},
{ "type":"Feature","properties":{"osm_way_id":"542896788","amenity":"parking"},"geometry":{"type":"MultiPolygon","coordinates":[[[[-1.116,53.16322],[-1.11591,53.16324],[-1.11576,53.16327],[-1.11573,53.16323],[-1.1157,53.16318],[-1.11581,53.16315],[-1.11586,53.16316],[-1.11596,53.16319],[-1.116,53.16322]]]]}},
{ "type":"Feature","properties":{"osm_way_id":"542896790","amenity":"parking","other":{"access":"private","fee":"no","park_ride":"no","supervised":"no"}}, "geometry":{"type":"MultiPolygon","coordinates":[[[[-1.11508,53.16343],[-1.11506,53.16339],[-1.11488,53.16338],[-1.11473,53.16342],[-1.11478,53.1635],[-1.11508,53.16343]]]]}},
{ "type":"Feature","properties":{"osm_way_id":"542896791","amenity":"parking","other":{"access":"permissive","fee":"no","park_ride":"no","supervised":"no"}}, "geometry":{"type":"MultiPolygon","coordinates":[[[[-1.11408,53.16429],[-1.11406,53.16426],[-1.11388,53.16424],[-1.11379,53.16422],[-1.11373,53.16421],[-1.1137,53.16423],[-1.11368,53.16426],[-1.11354,53.1644],[-1.11356,53.16443],[-1.11408,53.16429]]]]}},
{ "type":"Feature","properties":{"osm_way_id":"542896793","amenity":"parking"},"geometry":{"type":"MultiPolygon","coordinates":[[[[-1.11532,53.16393],[-1.11523,53.16395],[-1.11518,53.164],[-1.11517,53.16402],[-1.1153,53.16424],[-1.11532,53.16426],[-1.11535,53.16427],[-1.11538,53.16428],[-1.11542,53.16428],[-1.11544,53.16427],[-1.11547,53.16425],[-1.11549,53.16423],[-1.11547,53.1642],[-1.11532,53.16393]]]]}},
{ "type":"Feature","properties":{"osm_way_id":"542896799","amenity":"parking"},"geometry":{"type":"MultiPolygon","coordinates":[[[[-1.11628,53.16385],[-1.11638,53.16383],[-1.11634,53.16378],[-1.11619,53.16374],[-1.11613,53.16376],[-1.11617,53.16382],[-1.11625,53.1638],[-1.11628,53.16385]]]]}},
{ "type":"Feature","properties":{"osm_way_id":"542896800","amenity":"parking","other":{"access":"private","fee":"no","operator":"NHS","park_ride":"no","supervised":"no"}}, "geometry":{"type":"MultiPolygon","coordinates":[[[[-1.11657,53.16415],[-1.11652,53.16416],[-1.11599,53.16428],[-1.11606,53.16438],[-1.11663,53.16425],[-1.11657,53.16415]]]]}},
{ "type":"Feature","properties":{"osm_way_id":"542898057","amenity":"parking"},"geometry":{"type":"MultiPolygon","coordinates":[[[[-1.12191,53.16298],[-1.12186,53.1629],[-1.12171,53.16293],[-1.12164,53.16281],[-1.12148,53.16285],[-1.12159,53.16304],[-1.12191,53.16298]]]]}},
{ "type":"Feature","properties":{"osm_way_id":"542898058","amenity":"parking"},"geometry":{"type":"MultiPolygon","coordinates":[[[[-1.12096,53.16299],[-1.12108,53.16318],[-1.12051,53.1633],[-1.1204,53.1631],[-1.12096,53.16299]]]]}},
{ "type":"Feature","properties":{"osm_way_id":"543007357","amenity":"parking","other":{"access":"customers","capacity":"8","fee":"no","park_ride":"no","parking":"surface","supervised":"no","surface":"asphalt"}}, "geometry":{"type":"MultiPolygon","coordinates":[[[[-1.11527,53.16269],[-1.11522,53.16262],[-1.11551,53.16251],[-1.11558,53.16255],[-1.1156,53.16258],[-1.11549,53.1626],[-1.11537,53.16263],[-1.11529,53.16266],[-1.1153,53.16268],[-1.11527,53.16269]]]]}},
{ "type":"Feature","properties":{"osm_way_id":"543007358","amenity":"parking","other":{"access":"customers","capacity":"30","fee":"no","park_ride":"no","parking":"surface","supervised":"no","surface":"asphalt"}}, "geometry":{"type":"MultiPolygon","coordinates":[[[[-1.12633,53.15978],[-1.12629,53.15971],[-1.12623,53.15972],[-1.1262,53.15967],[-1.12615,53.15967],[-1.12577,53.15976],[-1.12544,53.15983],[-1.12551,53.15995],[-1.12633,53.15978]]]]}},
{ "type":"Feature","properties":{"osm_way_id":"543007359","amenity":"parking","other":{"access":"customers","capacity":"20","fee":"no","park_ride":"no","supervised":"no","surface":"asphalt"}}, "geometry":{"type":"MultiPolygon","coordinates":[[[[-1.12417,53.16012],[-1.12423,53.16022],[-1.12414,53.16026],[-1.12359,53.16038],[-1.12353,53.16028],[-1.12368,53.16024],[-1.1237,53.16023],[-1.12384,53.1602],[-1.12389,53.16018],[-1.12402,53.16015],[-1.12407,53.16015],[-1.12417,53.16012]]]]}},
{ "type":"Feature","properties":{"osm_way_id":"543007360","amenity":"parking","other":{"access":"customers","capacity":"20","fee":"no","park_ride":"no","parking":"surface","supervised":"no","surface":"asphalt"}}, "geometry":{"type":"MultiPolygon","coordinates":[[[[-1.12264,53.16059],[-1.12261,53.16055],[-1.12255,53.16057],[-1.12252,53.1605],[-1.12265,53.16048],[-1.12268,53.16047],[-1.12291,53.16042],[-1.1229,53.1604],[-1.12311,53.16036],[-1.12311,53.16037],[-1.12323,53.16034],[-1.1233,53.16045],[-1.12264,53.16059]]]]}},
{ "type":"Feature","properties":{"osm_way_id":"543007362","name":"Vicar Water Car Park","amenity":"parking","other":{"access":"yes","capacity":"64","capacity:disabled":"5","charge":"1 GBP","fee":"donation","operator":"Newar & Sherwood District Council","park_ride":"no","parking":"surface","supervised":"no","surface":"asphalt"}}, "geometry":{"type":"MultiPolygon","coordinates":[[[[-1.12295,53.15791],[-1.1225,53.15806],[-1.12247,53.15804],[-1.12245,53.15804],[-1.12229,53.15808],[-1.12252,53.15821],[-1.12249,53.15824],[-1.1226,53.15831],[-1.1226,53.15828],[-1.1226,53.15826],[-1.12263,53.15824],[-1.12266,53.15823],[-1.1227,53.15823],[-1.12272,53.15825],[-1.12274,53.15827],[-1.12274,53.1583],[-1.12272,53.15833],[-1.12278,53.15836],[-1.12282,53.15832],[-1.12285,53.15828],[-1.1229,53.15825],[-1.12297,53.15822],[-1.12302,53.1582],[-1.12307,53.15817],[-1.1231,53.15813],[-1.12312,53.1581],[-1.12315,53.15806],[-1.12316,53.15804],[-1.12311,53.15799],[-1.12312,53.15798],[-1.12318,53.15804],[-1.12329,53.15805],[-1.12338,53.15805],[-1.12345,53.15803],[-1.12349,53.15801],[-1.12353,53.15798],[-1.12355,53.15794],[-1.12356,53.15793],[-1.12361,53.15791],[-1.12336,53.15775],[-1.12335,53.15776],[-1.12333,53.15776],[-1.12335,53.15778],[-1.12307,53.15786],[-1.12305,53.15787],[-1.12304,53.15789],[-1.12306,53.15792],[-1.12309,53.15796],[-1.12306,53.15796],[-1.12302,53.15791],[-1.12298,53.1579],[-1.12295,53.15791]]]]}},
{ "type":"Feature","properties":{"osm_way_id":"567400875","amenity":"parking"},"geometry":{"type":"MultiPolygon","coordinates":[[[[-1.03733,53.10494],[-1.03735,53.1049],[-1.0372,53.10487],[-1.03706,53.10515],[-1.03717,53.10525],[-1.03723,53.1053],[-1.03733,53.1054],[-1.03738,53.10544],[-1.03741,53.10538],[-1.03751,53.10521],[-1.03745,53.1052],[-1.03722,53.10516],[-1.03733,53.10494]]]]}},
{ "type":"Feature","properties":{"osm_way_id":"567586336","amenity":"parking","other":{"surface":"grass"}}, "geometry":{"type":"MultiPolygon","coordinates":[[[[-1.06047,53.10859],[-1.05899,53.10869],[-1.05892,53.10803],[-1.05889,53.10785],[-1.05966,53.10763],[-1.06027,53.10754],[-1.06038,53.10779],[-1.06042,53.10791],[-1.06043,53.10817],[-1.06043,53.1082],[-1.06047,53.10859]]]]}},
{ "type":"Feature","properties":{"osm_way_id":"569000564","amenity":"parking","other":{"operator":"St Michael's School"}}, "geometry":{"type":"MultiPolygon","coordinates":[[[[-1.03247,53.10529],[-1.03241,53.10529],[-1.03242,53.10525],[-1.03234,53.10524],[-1.03232,53.10529],[-1.03231,53.1053],[-1.03218,53.10529],[-1.03216,53.10534],[-1.03215,53.10536],[-1.03214,53.10539],[-1.03208,53.10553],[-1.03202,53.10568],[-1.03229,53.10572],[-1.03244,53.10536],[-1.03246,53.10531],[-1.03247,53.10529]]]]}},
{ "type":"Feature","properties":{"osm_way_id":"575657778","amenity":"parking","other":{"access":"customers","capacity:disabled":"1"}}, "geometry":{"type":"MultiPolygon","coordinates":[[[[-0.77576,53.0454],[-0.77573,53.04476],[-0.77564,53.04475],[-0.77564,53.04468],[-0.77523,53.04464],[-0.77518,53.04479],[-0.77508,53.04482],[-0.77506,53.0449],[-0.77521,53.04491],[-0.77527,53.04492],[-0.77554,53.04495],[-0.77554,53.04516],[-0.77546,53.04517],[-0.77534,53.04522],[-0.7753,53.0452],[-0.7753,53.04532],[-0.77545,53.04533],[-0.77546,53.04529],[-0.77551,53.0453],[-0.77553,53.04532],[-0.77547,53.04534],[-0.7755,53.04538],[-0.77557,53.04536],[-0.7756,53.04541],[-0.77576,53.0454]]]]}},
{ "type":"Feature","properties":{"osm_way_id":"582519791","amenity":"parking","other":{"access":"customers"}}, "geometry":{"type":"MultiPolygon","coordinates":[[[[-1.06139,53.05931],[-1.06118,53.05916],[-1.06115,53.05912],[-1.06147,53.0587],[-1.06157,53.05871],[-1.06153,53.05883],[-1.06148,53.05891],[-1.0616,53.05895],[-1.06153,53.05905],[-1.06162,53.05908],[-1.06139,53.05931]]]]}},
{ "type":"Feature","properties":{"osm_way_id":"584261348","amenity":"parking"},"geometry":{"type":"MultiPolygon","coordinates":[[[[-1.03245,53.21681],[-1.03174,53.21639],[-1.03239,53.21603],[-1.03318,53.21658],[-1.03245,53.21681]]]]}},
{ "type":"Feature","properties":{"osm_way_id":"608315959","amenity":"parking","other":{"access":"customers","operator":"Co-op"}}, "geometry":{"type":"MultiPolygon","coordinates":[[[[-1.00377,53.01103],[-1.00358,53.0111],[-1.00373,53.01123],[-1.00392,53.01115],[-1.00377,53.01103]]]]}},
{ "type":"Feature","properties":{"osm_way_id":"608315962","amenity":"parking","other":{"access":"customers","operator":"Old Volunteer"}}, "geometry":{"type":"MultiPolygon","coordinates":[[[[-0.98972,53.00897],[-0.98953,53.00912],[-0.98928,53.00901],[-0.98948,53.00885],[-0.98972,53.00897]]]]}},
{ "type":"Feature","properties":{"osm_way_id":"608315996","amenity":"parking","other":{"access":"customers","operator":"The Black Horse"}}, "geometry":{"type":"MultiPolygon","coordinates":[[[[-0.97481,53.00282],[-0.97462,53.003],[-0.9744,53.00293],[-0.97465,53.00261],[-0.97484,53.00269],[-0.97477,53.00273],[-0.97472,53.00279],[-0.97481,53.00282]]]]}},
{ "type":"Feature","properties":{"osm_way_id":"608316000","amenity":"parking","other":{"access":"destination"}}, "geometry":{"type":"MultiPolygon","coordinates":[[[[-0.97882,53.00413],[-0.97892,53.00405],[-0.97889,53.00404],[-0.97897,53.00397],[-0.9788,53.00387],[-0.97858,53.00401],[-0.97878,53.00411],[-0.97882,53.00413]]]]}},
{ "type":"Feature","properties":{"osm_way_id":"616449004","amenity":"parking","other":{"access":"customers"}}, "geometry":{"type":"MultiPolygon","coordinates":[[[[-0.79131,53.09242],[-0.79112,53.09231],[-0.79059,53.09267],[-0.7907,53.09273],[-0.79018,53.09303],[-0.79035,53.09312],[-0.79088,53.09277],[-0.79084,53.09273],[-0.79131,53.09242]]]]}},
{ "type":"Feature","properties":{"osm_way_id":"616449005","amenity":"parking","other":{"access":"customers"}}, "geometry":{"type":"MultiPolygon","coordinates":[[[[-0.78703,53.09282],[-0.78712,53.09287],[-0.78711,53.0929],[-0.78661,53.09324],[-0.78654,53.0932],[-0.78636,53.09329],[-0.78613,53.09309],[-0.78563,53.09265],[-0.78601,53.09244],[-0.78642,53.0929],[-0.78683,53.09265],[-0.78698,53.09275],[-0.78701,53.09279],[-0.78703,53.09282]]]]}},
{ "type":"Feature","properties":{"osm_way_id":"616449006","amenity":"parking","other":{"access":"customers"}}, "geometry":{"type":"MultiPolygon","coordinates":[[[[-0.79046,53.09183],[-0.79022,53.09171],[-0.79031,53.09165],[-0.79031,53.0916],[-0.79033,53.09155],[-0.79038,53.0915],[-0.79048,53.09142],[-0.79056,53.09137],[-0.7906,53.09136],[-0.7907,53.09142],[-0.79043,53.09164],[-0.79059,53.09173],[-0.79046,53.09183]]]]}},
{ "type":"Feature","properties":{"osm_way_id":"616449007","amenity":"parking","other":{"access":"customers"}}, "geometry":{"type":"MultiPolygon","coordinates":[[[[-0.79036,53.09217],[-0.79044,53.09211],[-0.7904,53.09208],[-0.79047,53.09204],[-0.79014,53.09187],[-0.79009,53.0919],[-0.79003,53.09188],[-0.7896,53.09218],[-0.78966,53.09221],[-0.78975,53.09218],[-0.78988,53.09208],[-0.79004,53.09197],[-0.79011,53.09195],[-0.79015,53.09196],[-0.79033,53.09206],[-0.79032,53.09209],[-0.79028,53.09213],[-0.79031,53.09214],[-0.79036,53.09217]]]]}},
{ "type":"Feature","properties":{"osm_way_id":"616449008","amenity":"parking","other":{"access":"customers"}}, "geometry":{"type":"MultiPolygon","coordinates":[[[[-0.79021,53.09227],[-0.79016,53.09224],[-0.79014,53.09223],[-0.79002,53.09231],[-0.78998,53.09232],[-0.78991,53.09231],[-0.79004,53.09238],[-0.79021,53.09227]]]]}},
{ "type":"Feature","properties":{"osm_way_id":"616449009","amenity":"parking","other":{"access":"private"}}, "geometry":{"type":"MultiPolygon","coordinates":[[[[-0.78751,53.08602],[-0.78698,53.08587],[-0.78667,53.08624],[-0.78665,53.08624],[-0.78658,53.08634],[-0.78678,53.08669],[-0.78705,53.08664],[-0.78706,53.08658],[-0.78738,53.08659],[-0.7874,53.08643],[-0.78751,53.08643],[-0.78751,53.08602]]]]}},
{ "type":"Feature","properties":{"osm_way_id":"616449012","amenity":"parking","other":{"access":"customers"}}, "geometry":{"type":"MultiPolygon","coordinates":[[[[-0.79045,53.09251],[-0.79006,53.09277],[-0.78986,53.09265],[-0.78979,53.0927],[-0.78947,53.09253],[-0.78959,53.09245],[-0.78978,53.09254],[-0.78995,53.09242],[-0.79002,53.09246],[-0.79017,53.09236],[-0.79019,53.09237],[-0.79045,53.09251]]]]}},
{ "type":"Feature","properties":{"osm_way_id":"616449016","amenity":"parking","other":{"access":"customers"}}, "geometry":{"type":"MultiPolygon","coordinates":[[[[-0.78204,53.09594],[-0.78232,53.09584],[-0.78233,53.09579],[-0.78215,53.09559],[-0.78221,53.09556],[-0.78227,53.09551],[-0.78236,53.09547],[-0.78242,53.09548],[-0.78248,53.09536],[-0.78226,53.09509],[-0.78181,53.09508],[-0.7818,53.09516],[-0.78144,53.09528],[-0.78204,53.09594]]]]}},
{ "type":"Feature","properties":{"osm_way_id":"616449021","amenity":"parking","other":{"access":"customers"}}, "geometry":{"type":"MultiPolygon","coordinates":[[[[-0.78306,53.09494],[-0.78298,53.09494],[-0.78313,53.09514],[-0.78321,53.09514],[-0.78306,53.09494]]]]}},
{ "type":"Feature","properties":{"osm_way_id":"618244895","name":"British Horological Institue Car Park","amenity":"parking"},"geometry":{"type":"MultiPolygon","coordinates":[[[[-0.90402,53.08272],[-0.90413,53.08276],[-0.90425,53.08273],[-0.90426,53.08266],[-0.90411,53.08265],[-0.90399,53.0826],[-0.90397,53.08255],[-0.90404,53.08254],[-0.90398,53.08232],[-0.9039,53.08226],[-0.90378,53.08221],[-0.90374,53.08225],[-0.90353,53.08216],[-0.90342,53.08225],[-0.90366,53.08234],[-0.90374,53.08246],[-0.90378,53.08259],[-0.90386,53.08258],[-0.9038,53.08263],[-0.90374,53.08265],[-0.9038,53.08269],[-0.90402,53.08272]]]]}},
{ "type":"Feature","properties":{"osm_way_id":"660529198","name":"Newark Air Museum Car Park","amenity":"parking","other":{"operator":"Newark Air Museum","park_ride":"no","parking":"surface","surface":"asphalt"}}, "geometry":{"type":"MultiPolygon","coordinates":[[[[-0.76049,53.09486],[-0.76026,53.09488],[-0.76061,53.09606],[-0.76083,53.09604],[-0.76049,53.09486]]]]}},
{ "type":"Feature","properties":{"osm_way_id":"663791615","amenity":"parking","other":{"access":"customers","parking":"surface"}}, "geometry":{"type":"MultiPolygon","coordinates":[[[[-1.12065,53.08707],[-1.12064,53.08707],[-1.12057,53.0872],[-1.12023,53.08714],[-1.12017,53.0871],[-1.12019,53.08673],[-1.12043,53.08676],[-1.12039,53.08694],[-1.12043,53.08694],[-1.12041,53.08701],[-1.12027,53.08702],[-1.12024,53.08704],[-1.12026,53.08708],[-1.12029,53.08708],[-1.12052,53.08707],[-1.12065,53.08707]]]]}},
{ "type":"Feature","properties":{"osm_way_id":"670515499","amenity":"parking","other":{"parking":"surface","surface":"asphalt"}}, "geometry":{"type":"MultiPolygon","coordinates":[[[[-0.75931,53.14628],[-0.75782,53.14615],[-0.75784,53.14606],[-0.75772,53.14605],[-0.75778,53.14582],[-0.75766,53.14581],[-0.75769,53.14571],[-0.75873,53.1458],[-0.75869,53.14594],[-0.75875,53.14595],[-0.75872,53.14606],[-0.75892,53.14608],[-0.7589,53.14613],[-0.75918,53.14615],[-0.75923,53.14596],[-0.75986,53.14602],[-0.75985,53.14609],[-0.75982,53.14619],[-0.75934,53.14615],[-0.75931,53.14628]]]]}},
{ "type":"Feature","properties":{"osm_way_id":"671135104","amenity":"parking"},"geometry":{"type":"MultiPolygon","coordinates":[[[[-0.99895,53.22492],[-0.9991,53.2244],[-0.99915,53.22422],[-0.99873,53.22416],[-0.99853,53.22485],[-0.99895,53.22492]]]]}},
{ "type":"Feature","properties":{"osm_way_id":"681158740","amenity":"parking","other":{"access":"private"}}, "geometry":{"type":"MultiPolygon","coordinates":[[[[-0.81067,53.11946],[-0.81072,53.11954],[-0.81095,53.11954],[-0.81096,53.11959],[-0.81079,53.11959],[-0.8108,53.11976],[-0.81093,53.11983],[-0.81104,53.1198],[-0.81111,53.1198],[-0.8111,53.11955],[-0.81127,53.11955],[-0.81127,53.11944],[-0.81067,53.11946]]]]}},
{ "type":"Feature","properties":{"osm_way_id":"685005556","amenity":"parking","other":{"disabled":"designated`","parking":"surface"}}, "geometry":{"type":"MultiPolygon","coordinates":[[[[-0.81393,53.08042],[-0.81385,53.08044],[-0.81377,53.08034],[-0.81372,53.08028],[-0.8138,53.08026],[-0.81393,53.08042]]]]}},
{ "type":"Feature","properties":{"osm_way_id":"685132550","amenity":"parking"},"geometry":{"type":"MultiPolygon","coordinates":[[[[-0.97704,53.22901],[-0.97709,53.22882],[-0.9774,53.22882],[-0.97738,53.22902],[-0.97721,53.22902],[-0.97704,53.22901]]]]}},
{ "type":"Feature","properties":{"osm_way_id":"685132557","amenity":"parking"},"geometry":{"type":"MultiPolygon","coordinates":[[[[-0.9833,53.2272],[-0.98326,53.22703],[-0.98302,53.22704],[-0.98297,53.2268],[-0.98316,53.22679],[-0.98316,53.22683],[-0.98323,53.22683],[-0.98326,53.22692],[-0.98351,53.22704],[-0.9833,53.2272]]]]}},
{ "type":"Feature","properties":{"osm_way_id":"685134281","amenity":"parking"},"geometry":{"type":"MultiPolygon","coordinates":[[[[-1.01447,53.19551],[-1.0141,53.19546],[-1.01412,53.19541],[-1.01439,53.19545],[-1.0145,53.19519],[-1.01461,53.19514],[-1.01447,53.19551]]]]}},
{ "type":"Feature","properties":{"osm_way_id":"685134282","amenity":"parking"},"geometry":{"type":"MultiPolygon","coordinates":[[[[-1.0149,53.19603],[-1.0144,53.19596],[-1.01453,53.19561],[-1.01501,53.1957],[-1.0149,53.19603]]]]}},
{ "type":"Feature","properties":{"osm_way_id":"685135624","amenity":"parking"},"geometry":{"type":"MultiPolygon","coordinates":[[[[-1.02316,53.20011],[-1.02277,53.2],[-1.02329,53.19981],[-1.02316,53.20011]]]]}},
{ "type":"Feature","properties":{"osm_way_id":"685137527","amenity":"parking"},"geometry":{"type":"MultiPolygon","coordinates":[[[[-1.00798,53.20124],[-1.00771,53.20119],[-1.00804,53.20073],[-1.00807,53.2008],[-1.00796,53.20096],[-1.00812,53.201],[-1.00798,53.20124]]]]}},
{ "type":"Feature","properties":{"osm_way_id":"701579498","name":"Car Park 1","amenity":"parking","other":{"fee":"yes","operator":"Robin Hood Parking"}}, "geometry":{"type":"MultiPolygon","coordinates":[[[[-0.80098,53.08151],[-0.80089,53.08169],[-0.80113,53.08174],[-0.80228,53.08187],[-0.80234,53.08172],[-0.80142,53.08156],[-0.80099,53.08148],[-0.80098,53.08151]]]]}},
{ "type":"Feature","properties":{"osm_way_id":"701579507","name":"Car Park 2","amenity":"parking","other":{"fee":"yes","operator":"Robin Hood Parking"}}, "geometry":{"type":"MultiPolygon","coordinates":[[[[-0.80094,53.0809],[-0.80081,53.08066],[-0.8007,53.08043],[-0.80087,53.0804],[-0.80063,53.07992],[-0.80005,53.08002],[-0.80008,53.08009],[-0.80038,53.08068],[-0.80045,53.08067],[-0.80064,53.08104],[-0.80071,53.08103],[-0.80068,53.08097],[-0.80089,53.08093],[-0.80094,53.08092],[-0.80094,53.0809]]]]}},
{ "type":"Feature","properties":{"osm_way_id":"703049015","amenity":"parking","other":{"access":"unknown"}}, "geometry":{"type":"MultiPolygon","coordinates":[[[[-0.80846,53.08101],[-0.80835,53.08093],[-0.80831,53.08092],[-0.80824,53.08101],[-0.80813,53.08111],[-0.80819,53.0812],[-0.8083,53.08118],[-0.80846,53.08101]]]]}},
{ "type":"Feature","properties":{"osm_way_id":"703510266","amenity":"parking"},"geometry":{"type":"MultiPolygon","coordinates":[[[[-0.80828,53.08086],[-0.80825,53.08081],[-0.80794,53.08069],[-0.80778,53.08063],[-0.80749,53.08092],[-0.80732,53.08085],[-0.80755,53.08065],[-0.80722,53.08053],[-0.80729,53.08046],[-0.80716,53.08042],[-0.80684,53.08073],[-0.8071,53.08088],[-0.80696,53.08102],[-0.80782,53.08133],[-0.80828,53.08086]]]]}},
{ "type":"Feature","properties":{"osm_way_id":"705223159","amenity":"parking","other":{"access":"private"}}, "geometry":{"type":"MultiPolygon","coordinates":[[[[-0.95098,53.08088],[-0.95101,53.08087],[-0.95097,53.08083],[-0.95093,53.08084],[-0.95094,53.08085],[-0.95091,53.08086],[-0.95095,53.0809],[-0.95098,53.08089],[-0.95098,53.08088]]]]}},
{ "type":"Feature","properties":{"osm_way_id":"705223160","amenity":"parking","other":{"access":"private"}}, "geometry":{"type":"MultiPolygon","coordinates":[[[[-0.95099,53.08077],[-0.95098,53.08075],[-0.95097,53.08075],[-0.95096,53.08073],[-0.95088,53.08074],[-0.95089,53.08076],[-0.9509,53.08076],[-0.95091,53.08078],[-0.95099,53.08077]]]]}},
{ "type":"Feature","properties":{"osm_way_id":"705223161","amenity":"parking","other":{"access":"private"}}, "geometry":{"type":"MultiPolygon","coordinates":[[[[-0.95065,53.08064],[-0.95062,53.08066],[-0.95063,53.08066],[-0.9506,53.08067],[-0.95064,53.08071],[-0.95067,53.0807],[-0.95066,53.08069],[-0.95069,53.08068],[-0.95065,53.08064]]]]}},
{ "type":"Feature","properties":{"osm_way_id":"705223166","amenity":"parking","other":{"access":"private"}}, "geometry":{"type":"MultiPolygon","coordinates":[[[[-0.95056,53.08086],[-0.95053,53.08088],[-0.95052,53.08087],[-0.9505,53.08089],[-0.95056,53.08092],[-0.95058,53.0809],[-0.95059,53.08091],[-0.95061,53.08089],[-0.95056,53.08086]]]]}},
{ "type":"Feature","properties":{"osm_way_id":"705223167","amenity":"parking","other":{"access":"private"}}, "geometry":{"type":"MultiPolygon","coordinates":[[[[-0.95056,53.08094],[-0.95059,53.08096],[-0.9506,53.08098],[-0.95067,53.08095],[-0.95064,53.08092],[-0.95056,53.08094]]]]}},
{ "type":"Feature","properties":{"osm_way_id":"705223174","amenity":"parking","other":{"access":"private"}}, "geometry":{"type":"MultiPolygon","coordinates":[[[[-0.95034,53.08121],[-0.95027,53.08119],[-0.9503,53.08115],[-0.95037,53.08116],[-0.95034,53.08121]]]]}},
{ "type":"Feature","properties":{"osm_way_id":"705223176","amenity":"parking","other":{"access":"private"}}, "geometry":{"type":"MultiPolygon","coordinates":[[[[-0.94972,53.08098],[-0.9498,53.08091],[-0.94974,53.08088],[-0.94965,53.08094],[-0.94972,53.08098]]]]}},
{ "type":"Feature","properties":{"osm_way_id":"705223177","amenity":"parking","other":{"access":"private"}}, "geometry":{"type":"MultiPolygon","coordinates":[[[[-0.9497,53.08103],[-0.94975,53.08099],[-0.94964,53.08094],[-0.94959,53.08097],[-0.9497,53.08103]]]]}},
{ "type":"Feature","properties":{"osm_way_id":"705223181","amenity":"parking","other":{"access":"private"}}, "geometry":{"type":"MultiPolygon","coordinates":[[[[-0.94943,53.08109],[-0.94953,53.08101],[-0.9495,53.081],[-0.9494,53.08107],[-0.94943,53.08109]]]]}},
{ "type":"Feature","properties":{"osm_way_id":"705223183","amenity":"parking","other":{"access":"private","covered":"no"}}, "geometry":{"type":"MultiPolygon","coordinates":[[[[-0.95011,53.08117],[-0.95009,53.08116],[-0.95003,53.0812],[-0.95006,53.08121],[-0.95011,53.08117]]]]}},
{ "type":"Feature","properties":{"osm_way_id":"705223184","amenity":"parking","other":{"access":"private"}}, "geometry":{"type":"MultiPolygon","coordinates":[[[[-0.95007,53.08125],[-0.95,53.0813],[-0.94994,53.08127],[-0.95001,53.08122],[-0.95007,53.08125]]]]}},
{ "type":"Feature","properties":{"osm_way_id":"705223187","amenity":"parking","other":{"access":"private"}}, "geometry":{"type":"MultiPolygon","coordinates":[[[[-0.94996,53.08117],[-0.94991,53.0812],[-0.94985,53.08117],[-0.94989,53.08114],[-0.94996,53.08117]]]]}},
{ "type":"Feature","properties":{"osm_way_id":"705546884","amenity":"parking","other":{"access":"private","operator":"The Minster School","park_ride":"no","parking":"surface"}}, "geometry":{"type":"MultiPolygon","coordinates":[[[[-0.95803,53.07228],[-0.958,53.07225],[-0.95799,53.07217],[-0.95807,53.07216],[-0.95806,53.07196],[-0.95805,53.07183],[-0.95804,53.07173],[-0.95812,53.0717],[-0.95816,53.07161],[-0.95815,53.07146],[-0.95822,53.07145],[-0.95822,53.07139],[-0.95806,53.07139],[-0.95788,53.07141],[-0.95776,53.07112],[-0.95769,53.07113],[-0.95769,53.0711],[-0.95763,53.07108],[-0.95765,53.07104],[-0.95724,53.07097],[-0.95722,53.07098],[-0.95735,53.07129],[-0.95748,53.07159],[-0.95677,53.0717],[-0.95684,53.07191],[-0.95698,53.07189],[-0.95701,53.07196],[-0.95712,53.07194],[-0.95715,53.07193],[-0.95743,53.07189],[-0.95743,53.07185],[-0.95741,53.07179],[-0.95741,53.07172],[-0.95748,53.0717],[-0.95752,53.0717],[-0.95752,53.07186],[-0.95758,53.07211],[-0.9576,53.07216],[-0.9576,53.07219],[-0.95778,53.07229],[-0.95787,53.07233],[-0.95791,53.07234],[-0.95803,53.07228]]]]}},
{ "type":"Feature","properties":{"osm_way_id":"709024352","amenity":"parking","other":{"operator":"Tesco Express"}}, "geometry":{"type":"MultiPolygon","coordinates":[[[[-1.11775,53.11906],[-1.11796,53.11906],[-1.11795,53.11901],[-1.118,53.11902],[-1.11806,53.11902],[-1.11806,53.11899],[-1.11816,53.11899],[-1.11827,53.11885],[-1.11836,53.1188],[-1.11816,53.11862],[-1.11777,53.11877],[-1.11775,53.11877],[-1.11775,53.11906]]]]}},
{ "type":"Feature","properties":{"osm_way_id":"709024357","amenity":"parking"},"geometry":{"type":"MultiPolygon","coordinates":[[[[-1.11613,53.11899],[-1.11612,53.11887],[-1.1162,53.11887],[-1.1162,53.11871],[-1.11627,53.11871],[-1.11627,53.1186],[-1.11616,53.1186],[-1.11616,53.11866],[-1.11586,53.11866],[-1.11586,53.11883],[-1.11593,53.11883],[-1.11593,53.11899],[-1.11613,53.11899]]]]}},
{ "type":"Feature","properties":{"osm_way_id":"713001441","amenity":"parking"},"geometry":{"type":"MultiPolygon","coordinates":[[[[-1.03848,53.10615],[-1.03848,53.10619],[-1.03844,53.10626],[-1.03836,53.10624],[-1.03834,53.10629],[-1.03842,53.10631],[-1.03838,53.10638],[-1.03829,53.10636],[-1.0381,53.10614],[-1.03807,53.10611],[-1.03803,53.10607],[-1.03797,53.106],[-1.03848,53.10615]]]]}},
{ "type":"Feature","properties":{"osm_way_id":"713001443","amenity":"parking"},"geometry":{"type":"MultiPolygon","coordinates":[[[[-1.03546,53.10427],[-1.03546,53.10422],[-1.03516,53.10412],[-1.03507,53.10414],[-1.0352,53.10418],[-1.03546,53.10427]]]]}},
{ "type":"Feature","properties":{"osm_way_id":"713304768","amenity":"parking"},"geometry":{"type":"MultiPolygon","coordinates":[[[[-1.08326,53.0695],[-1.08289,53.06967],[-1.0829,53.06971],[-1.08276,53.06977],[-1.08258,53.06964],[-1.08214,53.06984],[-1.08234,53.06999],[-1.08209,53.07011],[-1.08177,53.06989],[-1.0817,53.06989],[-1.08158,53.06982],[-1.08152,53.06984],[-1.0813,53.06968],[-1.08269,53.06906],[-1.08326,53.0695]]]]}},
{ "type":"Feature","properties":{"osm_way_id":"725890292","amenity":"parking","other":{"parking":"surface","smoothness":"excellent","surface":"asphalt"}}, "geometry":{"type":"MultiPolygon","coordinates":[[[[-0.77359,53.04299],[-0.77332,53.04229],[-0.77316,53.04229],[-0.77309,53.04234],[-0.77329,53.04235],[-0.77324,53.04275],[-0.77327,53.04288],[-0.77339,53.04294],[-0.77342,53.04301],[-0.77359,53.04299]]]]}},
{ "type":"Feature","properties":{"osm_way_id":"731755489","amenity":"parking"},"geometry":{"type":"MultiPolygon","coordinates":[[[[-0.78453,53.06146],[-0.7846,53.06124],[-0.7844,53.06109],[-0.78472,53.06096],[-0.78471,53.06091],[-0.78489,53.06094],[-0.78468,53.06148],[-0.78453,53.06146]]]]}},
{ "type":"Feature","properties":{"osm_way_id":"734236595","amenity":"parking"},"geometry":{"type":"MultiPolygon","coordinates":[[[[-0.78522,53.06365],[-0.78498,53.06361],[-0.78515,53.06322],[-0.78539,53.06326],[-0.78522,53.06365]]]]}},
{ "type":"Feature","properties":{"osm_way_id":"738492876","amenity":"parking","other":{"parking":"surface"}}, "geometry":{"type":"MultiPolygon","coordinates":[[[[-0.76945,53.04614],[-0.76926,53.04585],[-0.76967,53.04575],[-0.76986,53.04604],[-0.76945,53.04614]]]]}},
{ "type":"Feature","properties":{"osm_way_id":"741091013","amenity":"parking"},"geometry":{"type":"MultiPolygon","coordinates":[[[[-0.78702,53.06222],[-0.78678,53.06225],[-0.78694,53.06261],[-0.78709,53.06259],[-0.78712,53.06266],[-0.78721,53.06264],[-0.78702,53.06222]]]]}},
{ "type":"Feature","properties":{"osm_way_id":"749269866","amenity":"parking"},"geometry":{"type":"MultiPolygon","coordinates":[[[[-1.03727,53.01653],[-1.03673,53.01638],[-1.03656,53.0163],[-1.0366,53.01627],[-1.03671,53.01623],[-1.03668,53.0162],[-1.03719,53.01601],[-1.03728,53.0161],[-1.03731,53.01612],[-1.03742,53.01616],[-1.03728,53.01632],[-1.03719,53.01636],[-1.0373,53.01639],[-1.03727,53.01643],[-1.03734,53.01644],[-1.03727,53.01653]]]]}},
{ "type":"Feature","properties":{"osm_way_id":"749269867","amenity":"parking"},"geometry":{"type":"MultiPolygon","coordinates":[[[[-1.03698,53.01519],[-1.03689,53.01516],[-1.03691,53.01514],[-1.03634,53.01499],[-1.03632,53.01502],[-1.03624,53.015],[-1.03595,53.01539],[-1.03604,53.01541],[-1.03604,53.01543],[-1.03604,53.01544],[-1.03606,53.01544],[-1.03669,53.01542],[-1.03679,53.01544],[-1.03698,53.01519]]]]}},
{ "type":"Feature","properties":{"osm_way_id":"749269869","amenity":"parking"},"geometry":{"type":"MultiPolygon","coordinates":[[[[-1.03699,53.01556],[-1.0372,53.01584],[-1.03712,53.01586],[-1.03714,53.01588],[-1.03692,53.01594],[-1.03694,53.01597],[-1.03678,53.01601],[-1.03679,53.01603],[-1.03656,53.01609],[-1.03658,53.01611],[-1.0364,53.01616],[-1.03636,53.0161],[-1.03628,53.01612],[-1.03588,53.01556],[-1.036,53.01553],[-1.03608,53.0155],[-1.03612,53.0155],[-1.03614,53.01553],[-1.03637,53.01547],[-1.03642,53.01554],[-1.03664,53.01548],[-1.03668,53.01554],[-1.03685,53.0155],[-1.03689,53.01556],[-1.0369,53.01558],[-1.03699,53.01556]]]]}},
{ "type":"Feature","properties":{"osm_way_id":"749269876","amenity":"parking"},"geometry":{"type":"MultiPolygon","coordinates":[[[[-1.03705,53.01692],[-1.03697,53.0169],[-1.03646,53.01695],[-1.0364,53.01687],[-1.03648,53.01655],[-1.03655,53.01656],[-1.03663,53.01653],[-1.03667,53.01654],[-1.03723,53.01669],[-1.03705,53.01692]]]]}},
{ "type":"Feature","properties":{"osm_way_id":"818523441","amenity":"parking"},"geometry":{"type":"MultiPolygon","coordinates":[[[[-1.00454,53.01176],[-1.00412,53.01185],[-1.00408,53.0118],[-1.00401,53.01182],[-1.00403,53.01187],[-1.00384,53.01191],[-1.00376,53.01176],[-1.00395,53.01172],[-1.00397,53.01174],[-1.00425,53.01167],[-1.00431,53.01172],[-1.00444,53.01168],[-1.00454,53.01176]]]]}},
{ "type":"Feature","properties":{"osm_way_id":"818996830","amenity":"parking"},"geometry":{"type":"MultiPolygon","coordinates":[[[[-0.77171,53.04837],[-0.7715,53.04842],[-0.77144,53.04833],[-0.77165,53.04828],[-0.77167,53.0483],[-0.77171,53.04837]]]]}},
{ "type":"Feature","properties":{"osm_way_id":"818996876","amenity":"parking"},"geometry":{"type":"MultiPolygon","coordinates":[[[[-0.77109,53.04852],[-0.77078,53.04859],[-0.77073,53.04852],[-0.77072,53.04849],[-0.77103,53.04842],[-0.77109,53.04852]]]]}},
{ "type":"Feature","properties":{"osm_way_id":"818996878","amenity":"parking"},"geometry":{"type":"MultiPolygon","coordinates":[[[[-0.77244,53.04824],[-0.77208,53.04832],[-0.77206,53.04829],[-0.77187,53.04833],[-0.77182,53.04826],[-0.77181,53.04824],[-0.77235,53.04811],[-0.77244,53.04824]]]]}},
{ "type":"Feature","properties":{"osm_way_id":"819339595","amenity":"parking","other":{"parking":"surface","smoothness":"excellent","surface":"asphalt"}}, "geometry":{"type":"MultiPolygon","coordinates":[[[[-0.77714,53.04294],[-0.77726,53.04292],[-0.77725,53.04291],[-0.77739,53.04289],[-0.77728,53.04301],[-0.77717,53.04302],[-0.77714,53.04294]]]]}},
{ "type":"Feature","properties":{"osm_way_id":"819339596","amenity":"parking","other":{"parking":"surface","smoothness":"excellent","surface":"asphalt"}}, "geometry":{"type":"MultiPolygon","coordinates":[[[[-0.77747,53.04288],[-0.77739,53.04289],[-0.77725,53.04291],[-0.77719,53.04273],[-0.77741,53.0427],[-0.77747,53.04288]]]]}},
{ "type":"Feature","properties":{"osm_way_id":"819339597","amenity":"parking","other":{"parking":"surface","smoothness":"excellent","surface":"asphalt"}}, "geometry":{"type":"MultiPolygon","coordinates":[[[[-0.77725,53.04323],[-0.77701,53.04326],[-0.7769,53.04297],[-0.77714,53.04294],[-0.77717,53.04302],[-0.77725,53.04323]]]]}},
{ "type":"Feature","properties":{"osm_way_id":"819339598","amenity":"parking","other":{"parking":"surface","smoothness":"excellent","surface":"asphalt"}}, "geometry":{"type":"MultiPolygon","coordinates":[[[[-0.77646,53.04316],[-0.77622,53.04308],[-0.776,53.04334],[-0.77577,53.04327],[-0.77586,53.04315],[-0.77591,53.04317],[-0.77603,53.04303],[-0.776,53.04302],[-0.7761,53.0429],[-0.77655,53.04305],[-0.77646,53.04316]]]]}},
{ "type":"Feature","properties":{"osm_way_id":"819339599","amenity":"parking","other":{"parking":"surface","smoothness":"excellent","surface":"asphalt"}}, "geometry":{"type":"MultiPolygon","coordinates":[[[[-0.77672,53.04332],[-0.77652,53.04355],[-0.77632,53.04349],[-0.77638,53.04342],[-0.77606,53.04332],[-0.77617,53.0432],[-0.77634,53.04325],[-0.77642,53.04316],[-0.77663,53.04323],[-0.77659,53.04328],[-0.77672,53.04332]]]]}},
{ "type":"Feature","properties":{"osm_way_id":"825497014","amenity":"parking"},"geometry":{"type":"MultiPolygon","coordinates":[[[[-1.11441,53.11951],[-1.11427,53.1195],[-1.1143,53.11929],[-1.11492,53.11929],[-1.11492,53.11939],[-1.11446,53.11951],[-1.11441,53.11951]]]]}},
{ "type":"Feature","properties":{"osm_way_id":"825497034","amenity":"parking"},"geometry":{"type":"MultiPolygon","coordinates":[[[[-1.10027,53.11881],[-1.10027,53.11895],[-1.09997,53.11896],[-1.09996,53.11881],[-1.10027,53.11881]]]]}},
{ "type":"Feature","properties":{"osm_way_id":"825497050","amenity":"parking"},"geometry":{"type":"MultiPolygon","coordinates":[[[[-1.10362,53.11611],[-1.10337,53.11607],[-1.1032,53.11651],[-1.10337,53.11653],[-1.10336,53.11656],[-1.10345,53.11658],[-1.10362,53.11611]]]]}},
{ "type":"Feature","properties":{"osm_way_id":"834180476","amenity":"parking","other":{"access":"private"}}, "geometry":{"type":"MultiPolygon","coordinates":[[[[-0.90065,53.0242],[-0.90082,53.0243],[-0.90106,53.02415],[-0.90088,53.02405],[-0.90065,53.0242]]]]}},
{ "type":"Feature","properties":{"osm_way_id":"837446700","amenity":"parking","other":{"parking":"surface"}}, "geometry":{"type":"MultiPolygon","coordinates":[[[[-0.9037,53.13424],[-0.90345,53.13425],[-0.90349,53.13409],[-0.90346,53.13405],[-0.90343,53.13404],[-0.90343,53.13399],[-0.90344,53.13398],[-0.90359,53.13397],[-0.90378,53.13385],[-0.90381,53.13378],[-0.90393,53.13381],[-0.90446,53.13379],[-0.90447,53.13397],[-0.90367,53.13403],[-0.9037,53.13424]]]]}},
{ "type":"Feature","properties":{"osm_way_id":"837522020","amenity":"parking","other":{"access":"customers"}}, "geometry":{"type":"MultiPolygon","coordinates":[[[[-1.1382,53.09355],[-1.13814,53.09348],[-1.13806,53.09351],[-1.13786,53.09357],[-1.13792,53.09364],[-1.1382,53.09355]]]]}},
{ "type":"Feature","properties":{"osm_way_id":"838936724","amenity":"parking"},"geometry":{"type":"MultiPolygon","coordinates":[[[[-1.11727,53.0859],[-1.11723,53.08588],[-1.11753,53.08563],[-1.11762,53.08567],[-1.11741,53.08594],[-1.11727,53.0859]]]]}},
{ "type":"Feature","properties":{"osm_way_id":"839140832","amenity":"parking","other":{"access":"customers"}}, "geometry":{"type":"MultiPolygon","coordinates":[[[[-1.1219,53.09544],[-1.12182,53.09532],[-1.12197,53.09529],[-1.12193,53.0952],[-1.12248,53.0951],[-1.12248,53.09512],[-1.12249,53.09514],[-1.12225,53.09533],[-1.1219,53.09544]]]]}},
{ "type":"Feature","properties":{"osm_way_id":"839259232","amenity":"parking"},"geometry":{"type":"MultiPolygon","coordinates":[[[[-0.12971,52.55483],[-0.13005,52.55483],[-0.13004,52.55467],[-0.12969,52.55467],[-0.12971,52.55471],[-0.12971,52.55478],[-0.12971,52.55483]]]]}},
{ "type":"Feature","properties":{"osm_way_id":"846212446","amenity":"parking"},"geometry":{"type":"MultiPolygon","coordinates":[[[[-1.1169,53.10045],[-1.11682,53.10046],[-1.11696,53.1007],[-1.11704,53.10069],[-1.1169,53.10045]]]]}},
{ "type":"Feature","properties":{"osm_way_id":"846212447","amenity":"parking","other":{"access":"private"}}, "geometry":{"type":"MultiPolygon","coordinates":[[[[-1.11811,53.10104],[-1.11789,53.10111],[-1.11795,53.10124],[-1.11785,53.10135],[-1.11829,53.10127],[-1.11811,53.10104]]]]}},
{ "type":"Feature","properties":{"osm_way_id":"846485738","amenity":"parking"},"geometry":{"type":"MultiPolygon","coordinates":[[[[-1.11715,53.09913],[-1.11714,53.09922],[-1.11658,53.09933],[-1.11659,53.09927],[-1.11715,53.09913]]]]}},
{ "type":"Feature","properties":{"osm_way_id":"846485891","amenity":"parking","other":{"access":"customers"}}, "geometry":{"type":"MultiPolygon","coordinates":[[[[-1.1189,53.10206],[-1.11843,53.10215],[-1.11828,53.10187],[-1.11876,53.10178],[-1.1189,53.10206]]]]}},
{ "type":"Feature","properties":{"osm_way_id":"846770784","amenity":"parking"},"geometry":{"type":"MultiPolygon","coordinates":[[[[-1.11956,53.10293],[-1.11936,53.10264],[-1.11991,53.10251],[-1.12008,53.10275],[-1.11996,53.10277],[-1.12,53.10282],[-1.11956,53.10293]]]]}},
{ "type":"Feature","properties":{"osm_way_id":"846770795","amenity":"parking"},"geometry":{"type":"MultiPolygon","coordinates":[[[[-1.12065,53.10363],[-1.1202,53.10373],[-1.12039,53.10404],[-1.12075,53.10395],[-1.12085,53.10393],[-1.12065,53.10363]]]]}},
{ "type":"Feature","properties":{"osm_way_id":"859462582","amenity":"parking","other":{"access":"customers"}}, "geometry":{"type":"MultiPolygon","coordinates":[[[[-1.11863,53.11811],[-1.11894,53.11797],[-1.11908,53.11781],[-1.11892,53.11772],[-1.11832,53.11767],[-1.11837,53.11744],[-1.11828,53.11743],[-1.11826,53.11753],[-1.11815,53.11752],[-1.11811,53.11769],[-1.11826,53.11787],[-1.11833,53.11784],[-1.11863,53.11811]]]]}},
{ "type":"Feature","properties":{"osm_way_id":"863760664","amenity":"parking"},"geometry":{"type":"MultiPolygon","coordinates":[[[[-1.11965,51.25779],[-1.1195,51.25777],[-1.11953,51.2577],[-1.11967,51.25773],[-1.11965,51.25779]]]]}},
{ "type":"Feature","properties":{"osm_way_id":"881638199","amenity":"parking","other":{"access":"private"}}, "geometry":{"type":"MultiPolygon","coordinates":[[[[1.14126,52.02058],[1.1415,52.02086],[1.14163,52.02081],[1.14141,52.02053],[1.14126,52.02058]]]]}},
{ "type":"Feature","properties":{"osm_way_id":"897659962","amenity":"parking","other":{"access":"customers","covered":"no","parking":"surface","surface":"asphalt","wheelchair":"yes"}}, "geometry":{"type":"MultiPolygon","coordinates":[[[[-0.78951,53.05295],[-0.78927,53.05299],[-0.78925,53.05296],[-0.78922,53.05292],[-0.78917,53.05281],[-0.78922,53.05281],[-0.78915,53.05267],[-0.78912,53.05267],[-0.78905,53.05257],[-0.7889,53.05259],[-0.78887,53.05254],[-0.78887,53.05252],[-0.78894,53.05251],[-0.78893,53.05248],[-0.78899,53.05246],[-0.78909,53.05245],[-0.78914,53.05246],[-0.78925,53.05252],[-0.78933,53.05262],[-0.78927,53.05264],[-0.78928,53.05266],[-0.78936,53.05264],[-0.78943,53.05273],[-0.78943,53.05274],[-0.78936,53.05276],[-0.78938,53.05276],[-0.78942,53.05275],[-0.78945,53.0528],[-0.78937,53.05282],[-0.78938,53.05283],[-0.78945,53.05282],[-0.78951,53.05295]]]]}},
{ "type":"Feature","properties":{"osm_way_id":"899316216","amenity":"parking"},"geometry":{"type":"MultiPolygon","coordinates":[[[[-0.80272,53.07973],[-0.80282,53.07954],[-0.80278,53.07953],[-0.80252,53.07978],[-0.80254,53.07982],[-0.80262,53.07984],[-0.80272,53.07973]]]]}},
{ "type":"Feature","properties":{"osm_way_id":"905196549","amenity":"parking","other":{"parking":"surface"}}, "geometry":{"type":"MultiPolygon","coordinates":[[[[-1.06314,53.05727],[-1.06314,53.05737],[-1.06185,53.05739],[-1.06181,53.05728],[-1.06212,53.05722],[-1.0623,53.05713],[-1.06269,53.05712],[-1.06269,53.05722],[-1.06277,53.05722],[-1.06277,53.05724],[-1.06296,53.05724],[-1.06296,53.05727],[-1.06314,53.05727]]]]}},
{ "type":"Feature","properties":{"osm_way_id":"916577161","amenity":"parking","other":{"access":"private"}}, "geometry":{"type":"MultiPolygon","coordinates":[[[[-0.95684,53.07808],[-0.95668,53.07823],[-0.95676,53.07829],[-0.95694,53.07826],[-0.95703,53.07826],[-0.95709,53.07823],[-0.95695,53.07815],[-0.95684,53.07808]]]]}},
{ "type":"Feature","properties":{"osm_way_id":"916821570","amenity":"parking","other":{"access":"private"}}, "geometry":{"type":"MultiPolygon","coordinates":[[[[-0.9548,53.07796],[-0.95475,53.07796],[-0.95465,53.07809],[-0.9546,53.07808],[-0.95459,53.07809],[-0.95444,53.07826],[-0.95442,53.07829],[-0.95446,53.07831],[-0.95448,53.07829],[-0.9546,53.07835],[-0.95465,53.07832],[-0.95459,53.07829],[-0.95465,53.07824],[-0.95474,53.07816],[-0.95471,53.07815],[-0.95475,53.07811],[-0.95481,53.07813],[-0.95485,53.0781],[-0.95483,53.07808],[-0.95485,53.07806],[-0.95481,53.07804],[-0.95483,53.07801],[-0.9548,53.078],[-0.95483,53.07797],[-0.9548,53.07796]]]]}},
{ "type":"Feature","properties":{"osm_way_id":"916821571","amenity":"parking","other":{"access":"private"}}, "geometry":{"type":"MultiPolygon","coordinates":[[[[-0.95444,53.07826],[-0.95423,53.07819],[-0.95433,53.07805],[-0.95436,53.07805],[-0.95438,53.07803],[-0.95453,53.07808],[-0.95455,53.07808],[-0.95459,53.07809],[-0.95444,53.07826]]]]}},
{ "type":"Feature","properties":{"osm_way_id":"916821586","amenity":"parking","other":{"access":"private"}}, "geometry":{"type":"MultiPolygon","coordinates":[[[[-0.95464,53.0777],[-0.95459,53.07768],[-0.95465,53.07764],[-0.95462,53.07762],[-0.95465,53.07759],[-0.95457,53.07756],[-0.95469,53.07745],[-0.95488,53.07752],[-0.95471,53.07769],[-0.95467,53.07768],[-0.95464,53.0777]]]]}},
{ "type":"Feature","properties":{"osm_way_id":"917200494","amenity":"parking","other":{"access":"private"}}, "geometry":{"type":"MultiPolygon","coordinates":[[[[-0.95981,53.07889],[-0.9598,53.07894],[-0.95977,53.07905],[-0.9597,53.07905],[-0.95973,53.07889],[-0.95981,53.07889]]]]}},
{ "type":"Feature","properties":{"osm_way_id":"917200527","amenity":"parking","other":{"access":"private"}}, "geometry":{"type":"MultiPolygon","coordinates":[[[[-0.9556,53.07666],[-0.95552,53.07664],[-0.95545,53.07662],[-0.95538,53.07674],[-0.9555,53.07677],[-0.95552,53.07675],[-0.95558,53.07668],[-0.9556,53.07666]]]]}},
{ "type":"Feature","properties":{"osm_way_id":"917562985","amenity":"parking"},"geometry":{"type":"MultiPolygon","coordinates":[[[[-0.95362,53.07407],[-0.95376,53.07401],[-0.95383,53.07399],[-0.95377,53.07394],[-0.95372,53.07387],[-0.95349,53.07395],[-0.95362,53.07407]]]]}},
{ "type":"Feature","properties":{"osm_way_id":"920545624","amenity":"parking"},"geometry":{"type":"MultiPolygon","coordinates":[[[[-0.96825,53.0757],[-0.96817,53.07569],[-0.96818,53.07566],[-0.96809,53.07564],[-0.96811,53.0756],[-0.96813,53.0756],[-0.96815,53.07557],[-0.96811,53.07556],[-0.96811,53.07555],[-0.96809,53.07554],[-0.9681,53.0755],[-0.96811,53.07541],[-0.9683,53.07542],[-0.96825,53.0757]]]]}},
{ "type":"Feature","properties":{"osm_way_id":"923202104","amenity":"parking"},"geometry":{"type":"MultiPolygon","coordinates":[[[[-0.95577,53.08366],[-0.95571,53.08364],[-0.95561,53.08375],[-0.95567,53.08377],[-0.95577,53.08366]]]]}},
{ "type":"Feature","properties":{"osm_way_id":"923552168","amenity":"parking"},"geometry":{"type":"MultiPolygon","coordinates":[[[[-0.95539,53.08389],[-0.95521,53.08402],[-0.95511,53.08397],[-0.95506,53.08401],[-0.95497,53.08397],[-0.9552,53.0838],[-0.95539,53.08389]]]]}},
{ "type":"Feature","properties":{"osm_way_id":"923559453","amenity":"parking"},"geometry":{"type":"MultiPolygon","coordinates":[[[[-0.95213,53.08001],[-0.95203,53.07991],[-0.9521,53.07988],[-0.9522,53.07983],[-0.95219,53.07983],[-0.95225,53.0798],[-0.95232,53.07977],[-0.95242,53.07972],[-0.95246,53.07969],[-0.95251,53.07971],[-0.95253,53.07972],[-0.95251,53.07974],[-0.95251,53.07976],[-0.95251,53.07978],[-0.95252,53.07979],[-0.95254,53.07981],[-0.95213,53.08001]]]]}},
{ "type":"Feature","properties":{"osm_way_id":"924942654","amenity":"parking"},"geometry":{"type":"MultiPolygon","coordinates":[[[[-0.94455,53.07853],[-0.94452,53.07857],[-0.94448,53.0786],[-0.94442,53.07862],[-0.94436,53.07862],[-0.9443,53.07862],[-0.94425,53.07861],[-0.94421,53.07857],[-0.94424,53.07854],[-0.94417,53.0785],[-0.9442,53.07846],[-0.9442,53.07843],[-0.94419,53.07842],[-0.94409,53.0784],[-0.94415,53.07832],[-0.94418,53.07833],[-0.94418,53.07833],[-0.9443,53.07836],[-0.94432,53.0784],[-0.94446,53.07843],[-0.94454,53.07849],[-0.94455,53.07853]]]]}},
{ "type":"Feature","properties":{"osm_way_id":"924942664","amenity":"parking"},"geometry":{"type":"MultiPolygon","coordinates":[[[[-0.94146,53.07779],[-0.9413,53.07794],[-0.94123,53.07791],[-0.94139,53.07776],[-0.94146,53.07779]]]]}},
{ "type":"Feature","properties":{"osm_way_id":"924942667","amenity":"parking"},"geometry":{"type":"MultiPolygon","coordinates":[[[[-0.93986,53.07845],[-0.9395,53.07834],[-0.93916,53.07822],[-0.9391,53.07823],[-0.93902,53.07831],[-0.93963,53.07854],[-0.93976,53.07854],[-0.93983,53.0785],[-0.93986,53.07845]]]]}},
{ "type":"Feature","properties":{"osm_way_id":"926336282","amenity":"parking","other":{"access":"customers"}}, "geometry":{"type":"MultiPolygon","coordinates":[[[[-0.94791,53.07662],[-0.94772,53.0766],[-0.94766,53.07659],[-0.94771,53.07636],[-0.94773,53.07636],[-0.94789,53.07637],[-0.94796,53.07638],[-0.94793,53.07654],[-0.94792,53.07659],[-0.94791,53.07662]]]]}},
{ "type":"Feature","properties":{"osm_way_id":"926342163","amenity":"parking","other":{"access":"yes"}}, "geometry":{"type":"MultiPolygon","coordinates":[[[[-0.96036,53.07457],[-0.96036,53.07448],[-0.96045,53.07448],[-0.96044,53.07458],[-0.9604,53.07457],[-0.96036,53.07457]]]]}},
{ "type":"Feature","properties":{"osm_way_id":"933292653","amenity":"parking"},"geometry":{"type":"MultiPolygon","coordinates":[[[[-1.02865,53.20088],[-1.02865,53.20087],[-1.02875,53.20091],[-1.02874,53.20091],[-1.0288,53.20094],[-1.02856,53.20114],[-1.02856,53.20115],[-1.02856,53.20117],[-1.02856,53.20118],[-1.02857,53.20119],[-1.02851,53.20121],[-1.02852,53.20123],[-1.02853,53.20123],[-1.02856,53.20124],[-1.02861,53.20121],[-1.02878,53.20128],[-1.02872,53.20131],[-1.02864,53.20136],[-1.02859,53.20133],[-1.02855,53.20131],[-1.02851,53.2013],[-1.02848,53.20133],[-1.02818,53.20124],[-1.02814,53.20123],[-1.02756,53.20098],[-1.0276,53.20094],[-1.02755,53.20092],[-1.02761,53.20088],[-1.02763,53.20088],[-1.02767,53.20084],[-1.02786,53.20091],[-1.02785,53.20092],[-1.02813,53.20104],[-1.02831,53.20111],[-1.02835,53.2011],[-1.02839,53.20108],[-1.02842,53.20105],[-1.02844,53.20105],[-1.02848,53.20103],[-1.02842,53.201],[-1.02847,53.20096],[-1.02859,53.20085],[-1.02865,53.20088]]]]}},
{ "type":"Feature","properties":{"osm_way_id":"933647930","amenity":"parking","other":{"access":"private"}}, "geometry":{"type":"MultiPolygon","coordinates":[[[[-0.92743,53.08832],[-0.92733,53.0885],[-0.92727,53.08866],[-0.92734,53.08867],[-0.9275,53.08867],[-0.92769,53.08867],[-0.92775,53.08833],[-0.92745,53.0883],[-0.92743,53.08832]]]]}},
{ "type":"Feature","properties":{"osm_way_id":"933738068","amenity":"parking"},"geometry":{"type":"MultiPolygon","coordinates":[[[[-1.01814,53.20527],[-1.01827,53.20536],[-1.01837,53.2053],[-1.01851,53.20521],[-1.01856,53.20518],[-1.01869,53.20509],[-1.01878,53.20503],[-1.01882,53.20499],[-1.01918,53.20475],[-1.019,53.20467],[-1.01897,53.2047],[-1.01891,53.20467],[-1.01885,53.20473],[-1.01874,53.20482],[-1.01867,53.20488],[-1.01826,53.20513],[-1.01832,53.20517],[-1.01814,53.20527]]]]}},
{ "type":"Feature","properties":{"osm_way_id":"940174249","amenity":"parking","other":{"access":"private"}}, "geometry":{"type":"MultiPolygon","coordinates":[[[[-0.95696,53.08603],[-0.95692,53.08607],[-0.95682,53.08603],[-0.95672,53.08599],[-0.95676,53.08595],[-0.95696,53.08603]]]]}},
{ "type":"Feature","properties":{"osm_way_id":"940174250","amenity":"parking","other":{"access":"private"}}, "geometry":{"type":"MultiPolygon","coordinates":[[[[-0.95706,53.08575],[-0.95701,53.0858],[-0.95693,53.08577],[-0.95696,53.08575],[-0.95698,53.08572],[-0.95706,53.08575]]]]}},
{ "type":"Feature","properties":{"osm_way_id":"940174251","amenity":"parking","other":{"access":"private"}}, "geometry":{"type":"MultiPolygon","coordinates":[[[[-0.95712,53.08569],[-0.95707,53.08574],[-0.95699,53.08571],[-0.95702,53.08569],[-0.95704,53.08566],[-0.95712,53.08569]]]]}},
{ "type":"Feature","properties":{"osm_way_id":"940174252","amenity":"parking","other":{"access":"private"}}, "geometry":{"type":"MultiPolygon","coordinates":[[[[-0.95725,53.08576],[-0.95721,53.08581],[-0.95716,53.08585],[-0.95708,53.08582],[-0.95717,53.08573],[-0.95725,53.08576]]]]}},
{ "type":"Feature","properties":{"osm_way_id":"940181430","amenity":"parking"},"geometry":{"type":"MultiPolygon","coordinates":[[[[-0.95862,53.08601],[-0.95873,53.08591],[-0.95877,53.08592],[-0.95894,53.08598],[-0.95886,53.08608],[-0.95878,53.08615],[-0.95864,53.0861],[-0.95868,53.08605],[-0.95861,53.08603],[-0.95862,53.08601]]]]}},
{ "type":"Feature","properties":{"osm_way_id":"941967569","amenity":"parking","other":{"access":"private"}}, "geometry":{"type":"MultiPolygon","coordinates":[[[[-0.97024,53.07737],[-0.97031,53.0775],[-0.96985,53.07754],[-0.96984,53.07751],[-0.96981,53.07741],[-0.97024,53.07737]]]]}},
{ "type":"Feature","properties":{"osm_way_id":"942369061","amenity":"parking","other":{"access":"private"}}, "geometry":{"type":"MultiPolygon","coordinates":[[[[-0.96438,53.0808],[-0.96446,53.08088],[-0.96422,53.08097],[-0.96413,53.08089],[-0.96438,53.0808]]]]}},
{ "type":"Feature","properties":{"osm_way_id":"944451457","amenity":"parking"},"geometry":{"type":"MultiPolygon","coordinates":[[[[-1.03413,53.18334],[-1.03407,53.18312],[-1.03355,53.18322],[-1.03358,53.18337],[-1.03413,53.18334]]]]}},
{ "type":"Feature","properties":{"osm_way_id":"949212189","amenity":"parking","other":{"access":"private"}}, "geometry":{"type":"MultiPolygon","coordinates":[[[[-0.94469,53.07722],[-0.94463,53.07722],[-0.94452,53.0772],[-0.94457,53.07708],[-0.94468,53.0771],[-0.94469,53.07707],[-0.94472,53.07705],[-0.94477,53.07703],[-0.94484,53.07703],[-0.94488,53.07705],[-0.94494,53.07718],[-0.94469,53.07722]]]]}},
{ "type":"Feature","properties":{"osm_way_id":"949212194","amenity":"parking","other":{"access":"private"}}, "geometry":{"type":"MultiPolygon","coordinates":[[[[-0.94477,53.07631],[-0.94475,53.07632],[-0.94469,53.07637],[-0.94489,53.07643],[-0.94494,53.07635],[-0.9448,53.07629],[-0.94477,53.07631]]]]}},
{ "type":"Feature","properties":{"osm_way_id":"949217277","amenity":"parking","other":{"access":"private"}}, "geometry":{"type":"MultiPolygon","coordinates":[[[[-0.95515,53.0859],[-0.95512,53.08584],[-0.95512,53.08581],[-0.95503,53.08581],[-0.95503,53.08574],[-0.95495,53.08573],[-0.95492,53.08576],[-0.95487,53.08579],[-0.9548,53.08577],[-0.95472,53.08584],[-0.95479,53.08587],[-0.95478,53.08588],[-0.95487,53.08592],[-0.9549,53.08596],[-0.95515,53.0859]]]]}},
{ "type":"Feature","properties":{"osm_way_id":"949518928","amenity":"parking"},"geometry":{"type":"MultiPolygon","coordinates":[[[[-0.88411,53.08765],[-0.88384,53.08785],[-0.88357,53.08803],[-0.88326,53.08823],[-0.88335,53.0882],[-0.88356,53.08809],[-0.88371,53.088],[-0.88388,53.08787],[-0.88402,53.08775],[-0.88411,53.08765]]]]}},
{ "type":"Feature","properties":{"osm_way_id":"952719997","amenity":"parking","other":{"parking":"surface"}}, "geometry":{"type":"MultiPolygon","coordinates":[[[[-1.07243,53.57729],[-1.07229,53.57726],[-1.07205,53.57743],[-1.07212,53.5775],[-1.07243,53.57729]]]]}},
{ "type":"Feature","properties":{"osm_way_id":"954246058","amenity":"parking","other":{"access":"private"}}, "geometry":{"type":"MultiPolygon","coordinates":[[[[-1.03334,53.1017],[-1.03332,53.10174],[-1.0332,53.10171],[-1.03322,53.10167],[-1.03334,53.1017]]]]}},
{ "type":"Feature","properties":{"osm_way_id":"954246059","amenity":"parking","other":{"access":"private"}}, "geometry":{"type":"MultiPolygon","coordinates":[[[[-1.03313,53.10176],[-1.03308,53.10187],[-1.03299,53.10186],[-1.03305,53.10175],[-1.03313,53.10176]]]]}},
{ "type":"Feature","properties":{"osm_way_id":"954246060","amenity":"parking","other":{"access":"private"}}, "geometry":{"type":"MultiPolygon","coordinates":[[[[-1.03327,53.10194],[-1.0332,53.10206],[-1.03313,53.10205],[-1.0332,53.10192],[-1.03327,53.10194]]]]}},
{ "type":"Feature","properties":{"osm_way_id":"954246107","amenity":"parking","other":{"access":"customers"}}, "geometry":{"type":"MultiPolygon","coordinates":[[[[-1.03544,53.10349],[-1.03554,53.10337],[-1.03534,53.10334],[-1.03533,53.10337],[-1.03535,53.10339],[-1.0353,53.10345],[-1.03544,53.10349]]]]}},
{ "type":"Feature","properties":{"osm_way_id":"954419290","amenity":"parking","other":{"access":"private"}}, "geometry":{"type":"MultiPolygon","coordinates":[[[[-1.04459,53.10909],[-1.04458,53.10914],[-1.04481,53.10916],[-1.04482,53.10911],[-1.04466,53.1091],[-1.04459,53.10909]]]]}},
{ "type":"Feature","properties":{"osm_way_id":"954419302","amenity":"parking","other":{"access":"private"}}, "geometry":{"type":"MultiPolygon","coordinates":[[[[-1.04484,53.1088],[-1.04483,53.10885],[-1.0446,53.10883],[-1.04462,53.10878],[-1.04465,53.10878],[-1.04484,53.1088]]]]}},
{ "type":"Feature","properties":{"osm_way_id":"954419323","amenity":"parking","other":{"access":"private"}}, "geometry":{"type":"MultiPolygon","coordinates":[[[[-1.04381,53.10875],[-1.04377,53.10893],[-1.0437,53.10892],[-1.04374,53.10874],[-1.04381,53.10875]]]]}},
{ "type":"Feature","properties":{"osm_way_id":"954419324","amenity":"parking","other":{"access":"private"}}, "geometry":{"type":"MultiPolygon","coordinates":[[[[-1.04377,53.1086],[-1.0437,53.10855],[-1.04365,53.10858],[-1.04371,53.10863],[-1.04377,53.1086]]]]}},
{ "type":"Feature","properties":{"osm_way_id":"954419326","amenity":"parking","other":{"access":"private"}}, "geometry":{"type":"MultiPolygon","coordinates":[[[[-1.04404,53.109],[-1.04402,53.10906],[-1.04384,53.10905],[-1.04385,53.10902],[-1.04386,53.10899],[-1.04404,53.109]]]]}},
{ "type":"Feature","properties":{"osm_way_id":"961006034","amenity":"parking","other":{"access":"permit","parking":"surface"}}, "geometry":{"type":"MultiPolygon","coordinates":[[[[-1.31415,52.02533],[-1.31409,52.02509],[-1.31341,52.02517],[-1.31345,52.02536],[-1.31357,52.02535],[-1.31358,52.0254],[-1.31415,52.02533]]]]}},
{ "type":"Feature","properties":{"osm_way_id":"972119366","amenity":"parking","other":{"access":"customers","parking":"surface"}}, "geometry":{"type":"MultiPolygon","coordinates":[[[[-1.02814,53.02242],[-1.028,53.02276],[-1.02798,53.0228],[-1.02794,53.02282],[-1.02785,53.02285],[-1.02748,53.02296],[-1.02734,53.02302],[-1.02725,53.02295],[-1.02727,53.02293],[-1.02737,53.02288],[-1.02746,53.02284],[-1.0278,53.02275],[-1.02782,53.02274],[-1.02783,53.02271],[-1.02733,53.02264],[-1.02743,53.02244],[-1.02737,53.02236],[-1.0274,53.02228],[-1.02814,53.02242]]]]}},
{ "type":"Feature","properties":{"osm_way_id":"975671003","amenity":"parking","other":{"access":"customers","operator":"Bromley Arms"}}, "geometry":{"type":"MultiPolygon","coordinates":[[[[-0.90271,53.05214],[-0.9028,53.05206],[-0.90261,53.052],[-0.90254,53.05194],[-0.90249,53.05196],[-0.90231,53.05179],[-0.90209,53.05167],[-0.90204,53.05171],[-0.90223,53.05181],[-0.9023,53.05188],[-0.90221,53.05194],[-0.90271,53.05214]]]]}},
{ "type":"Feature","properties":{"osm_way_id":"975671004","amenity":"parking","other":{"access":"customers","fee":"yes"}}, "geometry":{"type":"MultiPolygon","coordinates":[[[[-0.90254,53.05194],[-0.90256,53.0519],[-0.90242,53.05176],[-0.90231,53.05179],[-0.90249,53.05196],[-0.90254,53.05194]]]]}},
{ "type":"Feature","properties":{"osm_way_id":"984856740","amenity":"parking"},"geometry":{"type":"MultiPolygon","coordinates":[[[[-0.96152,53.02739],[-0.96165,53.0272],[-0.96135,53.02713],[-0.96134,53.02716],[-0.96125,53.02732],[-0.96152,53.02739]]]]}},
{ "type":"Feature","properties":{"osm_way_id":"996957947","amenity":"parking"},"geometry":{"type":"MultiPolygon","coordinates":[[[[-1.06869,53.16264],[-1.06845,53.16228],[-1.06741,53.16254],[-1.0677,53.1629],[-1.06869,53.16264]]]]}},
{ "type":"Feature","properties":{"osm_way_id":"999269483","amenity":"parking"},"geometry":{"type":"MultiPolygon","coordinates":[[[[-1.07923,53.19279],[-1.07917,53.19264],[-1.07896,53.19268],[-1.07876,53.19275],[-1.07884,53.19288],[-1.07898,53.19283],[-1.07912,53.19281],[-1.07923,53.19279]]]]}},
{ "type":"Feature","properties":{"osm_way_id":"1009287734","amenity":"parking","other":{"access":"yes","capacity":"16","fee":"no","parking":"surface","surface":"asphalt"}}, "geometry":{"type":"MultiPolygon","coordinates":[[[[-1.02751,53.18596],[-1.02713,53.18596],[-1.02713,53.1858],[-1.02751,53.1858],[-1.02751,53.18596]]]]}},
{ "type":"Feature","properties":{"osm_way_id":"1009947156","amenity":"parking","other":{"access":"private"}}, "geometry":{"type":"MultiPolygon","coordinates":[[[[-0.13886,51.21618],[-0.13882,51.21622],[-0.13804,51.21626],[-0.13805,51.21629],[-0.13781,51.21631],[-0.13778,51.21615],[-0.13794,51.21614],[-0.13807,51.21613],[-0.13807,51.21615],[-0.13818,51.21614],[-0.13817,51.21611],[-0.13849,51.21609],[-0.13849,51.21608],[-0.13885,51.21606],[-0.13886,51.21618]]]]}},
{ "type":"Feature","properties":{"osm_way_id":"1013849696","amenity":"parking"},"geometry":{"type":"MultiPolygon","coordinates":[[[[-0.80545,53.08016],[-0.80564,53.07999],[-0.80583,53.07982],[-0.80577,53.07979],[-0.8054,53.07973],[-0.80515,53.07968],[-0.80496,53.07964],[-0.80475,53.08002],[-0.80545,53.08016]]]]}},
{ "type":"Feature","properties":{"osm_way_id":"1013857924","name":"Sherwood Avenue Park Private Car Park","amenity":"parking","other":{"access":"private"}}, "geometry":{"type":"MultiPolygon","coordinates":[[[[-0.80361,53.07496],[-0.80364,53.07485],[-0.80336,53.07481],[-0.80338,53.07478],[-0.80313,53.07473],[-0.80305,53.07485],[-0.80304,53.07489],[-0.80361,53.07496]]]]}},
{ "type":"Feature","properties":{"osm_way_id":"1022712793","amenity":"parking"},"geometry":{"type":"MultiPolygon","coordinates":[[[[-4.84887,55.24671],[-4.84897,55.24668],[-4.84893,55.24664],[-4.84877,55.2465],[-4.84873,55.24645],[-4.84856,55.24631],[-4.84838,55.24635],[-4.84837,55.24635],[-4.84855,55.24657],[-4.84861,55.24661],[-4.84887,55.24671]]]]}}
]
}
