{
"type": "FeatureCollection",
"features": [
{ "type":"Feature","properties":{"osm_id":"320706545","name":"Daylesford Organic Farmshop","other":{"cafe":"cafeteria","shop":"supermarket","organic":"only"}}, "geometry":{"type":"Point","coordinates":[-1.64237,51.92897 ]}},
{ "type":"Feature","properties":{"osm_id":"598204858","name":"M&S","other":{"addr:city":"Cirencester","addr:housenumber":"42","addr:postcode":"GL7 2PF","addr:street":"Dyer Street","branch":"Cirencester Simply Food","brand":"Marks & Spencer","brand:wikidata":"Q714491","opening_hours":"Mo-Sa 08:00-20:00; Su 10:00-16:00; PH 9:00-17:00","shop":"supermarket"}}, "geometry":{"type":"Point","coordinates":[-1.96462,51.71608 ]}},
{ "type":"Feature","properties":{"osm_id":"1068232261","name":"Londis","other":{"brand":"Londis","brand:wikidata":"Q21008564","brand:wikipedia":"en:Londis (United Kingdom)","shop":"supermarket"}}, "geometry":{"type":"Point","coordinates":[-1.9324,51.67074 ]}},
{ "type":"Feature","properties":{"osm_id":"1851258547","name":"Co-op","other":{"shop":"supermarket"}}, "geometry":{"type":"Point","coordinates":[-1.78108,51.70771 ]}},
{ "type":"Feature","properties":{"osm_id":"4928252622","name":"Londis","other":{"shop":"supermarket","name:en":"Londis"}}, "geometry":{"type":"Point","coordinates":[-1.75705,51.88416 ]}},
{ "type":"Feature","properties":{"osm_id":"5511617856","name":"Co-op","other":{"shop":"supermarket"}}, "geometry":{"type":"Point","coordinates":[-1.68795,51.70124 ]}},
{ "type":"Feature","properties":{"osm_id":"6294837606","name":"Co-op","other":{"shop":"supermarket"}}, "geometry":{"type":"Point","coordinates":[-1.9319,51.67143 ]}},
{ "type":"Feature","properties":{"osm_id":"6316634021","other":{"defibrillator:location":"on outside wall","emergency":"defibrillator"}}, "geometry":{"type":"Point","coordinates":[-1.70141,51.99313 ]}},
{ "type":"Feature","properties":{"osm_way_id":"71445230","name":"Coop Food Market","building":"shop","shop":"supermarket","other":{"addr:postcode":"GL56 0AF","addr:street":"High Street","operator":"Coop Midcounties"}}, "geometry":{"type":"MultiPolygon","coordinates":[[[[-1.70088,51.993],[-1.70109,51.99344],[-1.70144,51.99338],[-1.70145,51.99342],[-1.7016,51.99339],[-1.70156,51.9933],[-1.7015,51.99331],[-1.70141,51.99313],[-1.70131,51.99292],[-1.70088,51.993]]]]}},
{ "type":"Feature","properties":{"osm_way_id":"109736796","name":"Lidl","building":"yes","shop":"supermarket","other":{"addr:city":"Cirencester","addr:country":"GB","addr:postcode":"GL7 1YG","addr:street":"Love Lane","branch":"Cirencester","brand":"Lidl","brand:wikidata":"Q151954","brand:wikipedia":"en:Lidl","fhrs:id":"84215","opening_hours":"Mo-Sa 08:00-20:00; Su 10:00-16:00"}}, "geometry":{"type":"MultiPolygon","coordinates":[[[[-1.95936,51.70586],[-1.95968,51.70565],[-1.95912,51.70531],[-1.95892,51.70544],[-1.95887,51.70541],[-1.95881,51.70544],[-1.95874,51.7054],[-1.95867,51.70545],[-1.95936,51.70586]]]]}},
{ "type":"Feature","properties":{"osm_way_id":"118374141","name":"Tesco","building":"yes","shop":"supermarket","other":{"addr:postcode":"GL54 1BX","addr:street":"Fosse Way","alt_name":"Tesco Cheltenham Stow-On-The-Wold Superstore","brand":"Tesco","brand:wikidata":"Q487494","brand:wikipedia":"en:Tesco"}}, "geometry":{"type":"MultiPolygon","coordinates":[[[[-1.72212,51.93408],[-1.72171,51.93406],[-1.7216,51.93406],[-1.72164,51.93372],[-1.72133,51.93371],[-1.72134,51.93359],[-1.72143,51.9336],[-1.72143,51.93355],[-1.72159,51.93356],[-1.7216,51.93352],[-1.72166,51.93352],[-1.72166,51.93349],[-1.72219,51.93352],[-1.72218,51.93361],[-1.72216,51.93373],[-1.72224,51.93373],[-1.72223,51.93383],[-1.72219,51.93383],[-1.72218,51.93391],[-1.72214,51.93391],[-1.72212,51.93408]]]]}},
{ "type":"Feature","properties":{"osm_way_id":"153913245","name":"Waitrose","building":"yes","shop":"supermarket","other":{"addr:city":"Cirencester","addr:postcode":"GL7 1SZ","addr:street":"Sheep Street","branch":"Cirencester","brand":"Waitrose","brand:wikidata":"Q771734","brand:wikipedia":"en:Waitrose","fhrs:id":"13747","official_name":"Waitrose & Partners","opening_hours":"Mo-Sa 08:00-21:00 Su 10:00-16:00","operator":"Waitrose & Partners","wheelchair":"yes"}}, "geometry":{"type":"MultiPolygon","coordinates":[[[[-1.97133,51.71306],[-1.97119,51.71314],[-1.97116,51.71312],[-1.9711,51.71316],[-1.97113,51.71318],[-1.9708,51.71338],[-1.97091,51.71345],[-1.97085,51.71349],[-1.971,51.71358],[-1.97094,51.71362],[-1.97109,51.71372],[-1.97106,51.71374],[-1.97112,51.71377],[-1.97117,51.71378],[-1.97122,51.71378],[-1.97128,51.71378],[-1.97134,51.71377],[-1.9714,51.71375],[-1.97178,51.71351],[-1.97182,51.71349],[-1.97184,51.71346],[-1.97186,51.71342],[-1.97185,51.71339],[-1.97184,51.71336],[-1.97182,51.71334],[-1.97177,51.71331],[-1.97174,51.71333],[-1.97133,51.71306]]]]}},
{ "type":"Feature","properties":{"osm_way_id":"153913370","name":"Tesco Metro","building":"yes","shop":"supermarket","other":{"brand":"Tesco Metro","branch":"Cirencester Farrell Close Metro","addr:city":"Cirencester","wheelchair":"yes","addr:street":"Farrell Close","addr:postcode":"GL7 1HW","opening_hours":"Mo-Sa 07:00-22:00 Su 10:00-16:00","brand:wikidata":"Q57551648","addr:housenumber":"4"}}, "geometry":{"type":"MultiPolygon","coordinates":[[[[-1.97027,51.71577],[-1.96981,51.71588],[-1.96951,51.71542],[-1.9701,51.71527],[-1.97019,51.71541],[-1.97006,51.71544],[-1.97027,51.71577]]]]}},
{ "type":"Feature","properties":{"osm_way_id":"174378897","name":"Tesco Extra","building":"yes","shop":"supermarket","other":{"addr:city":"Cirencester","addr:housename":"Kings Meadow","addr:postcode":"GL7 1NP","addr:street":"Cricklade Road","branch":"Cirencester Extra","brand":"Tesco Extra","brand:wikidata":"Q25172225","brand:wikipedia":"en:Tesco Extra","opening_hours":"Mo-Sa 06:00-24:00 Su 10:00-16:00","toilets:wheelchair":"yes","wheelchair":"yes"}}, "geometry":{"type":"MultiPolygon","coordinates":[[[[-1.95363,51.70592],[-1.95329,51.70578],[-1.95335,51.70573],[-1.95253,51.70539],[-1.95227,51.70563],[-1.95207,51.70553],[-1.95198,51.70561],[-1.9514,51.70537],[-1.95142,51.70535],[-1.95134,51.70531],[-1.95131,51.70534],[-1.95124,51.70531],[-1.95121,51.70534],[-1.95128,51.70537],[-1.95126,51.7054],[-1.95134,51.70543],[-1.95137,51.70541],[-1.95193,51.70565],[-1.95179,51.70578],[-1.95188,51.70581],[-1.95159,51.70608],[-1.95273,51.70655],[-1.95299,51.70631],[-1.95314,51.70637],[-1.95363,51.70592]]]]}},
{ "type":"Feature","properties":{"osm_way_id":"233038411","name":"Co-op Food","building":"yes","shop":"supermarket","other":{"addr:city":"Bourton-On-The-Water","addr:housename":"Salmonsbury House","addr:postcode":"GL54 2EP","addr:street":"Station Road","alt_name":"The Midcounties Co-operative","brand":"Co-op Food","brand:wikidata":"Q3277439","brand:wikipedia":"en:Co-op Food","fhrs:id":"1005732","operator":"The Midcounties Co-operative"}}, "geometry":{"type":"MultiPolygon","coordinates":[[[[-1.75446,51.8885],[-1.7546,51.88834],[-1.7541,51.88818],[-1.75403,51.88826],[-1.75421,51.88832],[-1.75414,51.8884],[-1.75438,51.88848],[-1.75446,51.8885]]]]}},
{ "type":"Feature","properties":{"osm_way_id":"322347259","name":"The Co-operative Food","building":"retail","shop":"supermarket","other":{"operator":"The Co-operative Group"}}, "geometry":{"type":"MultiPolygon","coordinates":[[[[-1.94775,51.72494],[-1.9478,51.72505],[-1.94748,51.72512],[-1.94742,51.725],[-1.94763,51.72496],[-1.94771,51.72494],[-1.94775,51.72494]]]]}},
{ "type":"Feature","properties":{"osm_way_id":"326110831","name":"ALDI","building":"yes","shop":"supermarket","other":{"addr:city":"Cirencester","addr:postcode":"GL7 1NP","addr:street":"Cricklade Road","branch":"Cirencester","brand":"ALDI","brand:wikidata":"Q41171672","brand:wikipedia":"en:Aldi","opening_hours":"Mo-Sa 08:00-22:00 SU 10:00-16:00"}}, "geometry":{"type":"MultiPolygon","coordinates":[[[[-1.95389,51.70692],[-1.95407,51.70675],[-1.95358,51.70655],[-1.9534,51.70672],[-1.95389,51.70692]]]]}},
{ "type":"Feature","properties":{"osm_way_id":"344731658","name":"Tesco","building":"yes","shop":"supermarket","other":{"addr:city":"Tetbury","addr:postcode":"GL8 8HZ","addr:street":"London Road","alt_name":"Tesco Tetbury Superstore","brand":"Tesco","brand:wikidata":"Q487494","brand:wikipedia":"en:Tesco","fhrs:id":"85627","opening_hours":"Mo-Sa 06:00-24:00; Su 10:00-16:00"}}, "geometry":{"type":"MultiPolygon","coordinates":[[[[-2.15555,51.64248],[-2.15603,51.64214],[-2.15674,51.64256],[-2.15677,51.6426],[-2.15677,51.64265],[-2.15672,51.64269],[-2.15664,51.64271],[-2.15638,51.64288],[-2.15581,51.64254],[-2.15575,51.64258],[-2.15555,51.64248]]]]}},
{ "type":"Feature","properties":{"osm_way_id":"367890307","name":"The Co-operative Food","building":"yes","shop":"supermarket","other":{"addr:city":"Tetbury","addr:street":"Long Street","addr:postcode":"GL8 8AA","opening_hours":"Mo-Su 07:00-22:00","addr:housenumber":"17"}}, "geometry":{"type":"MultiPolygon","coordinates":[[[[-2.15987,51.63744],[-2.16001,51.6373],[-2.16011,51.63737],[-2.1601,51.63738],[-2.15994,51.63754],[-2.15981,51.63757],[-2.15978,51.63756],[-2.15976,51.63755],[-2.15987,51.63744]]]]}},
{ "type":"Feature","properties":{"osm_way_id":"448656951","name":"Co-op Food","building":"yes","shop":"supermarket","other":{"brand":"Co-op Food","brand:wikidata":"Q3277439","brand:wikipedia":"en:Co-op Food"}}, "geometry":{"type":"MultiPolygon","coordinates":[[[[-1.75525,51.88713],[-1.7555,51.88689],[-1.75494,51.88667],[-1.75459,51.887],[-1.75504,51.88718],[-1.75509,51.88713],[-1.75515,51.88716],[-1.7552,51.88711],[-1.75525,51.88713]]]]}},
{ "type":"Feature","properties":{"osm_way_id":"586961268","name":"Aldi","building":"yes","shop":"supermarket","other":{"brand":"ALDI","brand:wikidata":"Q41171672","brand:wikipedia":"en:Aldi","contact:website":"https:\/\/www.aldi.co.uk\/store\/s-uk-E1179","generator:solar:modules":"30","power":"generator"}}, "geometry":{"type":"MultiPolygon","coordinates":[[[[-1.70714,51.98452],[-1.70669,51.98447],[-1.70671,51.98442],[-1.70632,51.98438],[-1.70639,51.98411],[-1.70639,51.98409],[-1.70684,51.98413],[-1.70684,51.98416],[-1.70722,51.9842],[-1.70714,51.98452]]]]}},
{ "type":"Feature","properties":{"osm_way_id":"779414250","name":"Daylesford Organic","building":"yes","shop":"supermarket","other":{"organic":"only"}}, "geometry":{"type":"MultiPolygon","coordinates":[[[[-1.64278,51.9289],[-1.64269,51.92896],[-1.64265,51.92893],[-1.64257,51.92899],[-1.64249,51.92894],[-1.64236,51.92901],[-1.64228,51.92897],[-1.64236,51.92892],[-1.64224,51.92885],[-1.64216,51.9289],[-1.64205,51.92884],[-1.64229,51.92868],[-1.64251,51.92881],[-1.64254,51.9288],[-1.64231,51.92867],[-1.64238,51.92862],[-1.64261,51.92848],[-1.64267,51.92852],[-1.64244,51.92866],[-1.64261,51.92875],[-1.64284,51.92861],[-1.64293,51.92866],[-1.6427,51.9288],[-1.64289,51.92891],[-1.64311,51.92877],[-1.64319,51.92882],[-1.64298,51.92896],[-1.64307,51.92901],[-1.64307,51.92901],[-1.64313,51.92905],[-1.643,51.92913],[-1.64302,51.92914],[-1.64302,51.92914],[-1.64304,51.92915],[-1.64301,51.92917],[-1.64299,51.92916],[-1.64299,51.92916],[-1.64295,51.92919],[-1.64293,51.92918],[-1.6429,51.92919],[-1.64288,51.92918],[-1.6428,51.92922],[-1.64259,51.92909],[-1.64267,51.92905],[-1.64284,51.92916],[-1.64302,51.92904],[-1.64278,51.9289]]]]}}
]
}
