{
"type": "FeatureCollection",
"features": [
{ "type":"Feature","properties":{"osm_id":"57750078","name":"M&S Simply Food","other":{"addr:city":"Peterborough","addr:postcode":"PE3 8DE","addr:street":"Rightwell West","brand":"M&S Simply Food","brand:wikidata":"Q714491","brand:wikipedia":"en:Marks & Spencer","fhrs:id":"338209","shop":"supermarket"}}, "geometry":{"type":"Point","coordinates":[-0.28495,52.5887 ]}},
{ "type":"Feature","properties":{"osm_id":"57750115","name":"Sainsbury's","other":{"addr:city":"Peterborough","addr:housenumber":"3","addr:postcode":"PE3 8DA","addr:street":"Bretton Centre","brand":"Sainsbury's","brand:wikidata":"Q152096","brand:wikipedia":"en:Sainsbury's","fhrs:id":"247030","operator":"Sainsbury's","shop":"supermarket"}}, "geometry":{"type":"Point","coordinates":[-0.28422,52.59118 ]}},
{ "type":"Feature","properties":{"osm_id":"760472273","name":"Tesco","other":{"addr:city":"Peterborough","addr:housename":"The Werrington Centre","addr:postcode":"PE4 6NA","addr:street":"Staniland Way","branch":"Peterborough Werrington Superstore","brand":"Tesco","brand:wikidata":"Q487494","brand:wikipedia":"en:Tesco","check_date:opening_hours":"2021-11-13","contact:website":"https:\/\/www.tesco.com\/store-locator\/peterborough\/the-werrington-centre","fhrs:id":"247147","opening_hours":"Mo-Sa 07:00-23:00; Su 10:00-16:00","operator":"Tesco Stores Ltd","shop":"supermarket"}}, "geometry":{"type":"Point","coordinates":[-0.27274,52.62144 ]}},
{ "type":"Feature","properties":{"osm_id":"1611241343","name":"Cash & Carry","other":{"addr:city":"Peterborough","addr:postcode":"PE3 7PN","addr:street":"Ivatt Way Business Park","fhrs:id":"433927","not:addr:postcode":"PE3 7PH","shop":"supermarket"}}, "geometry":{"type":"Point","coordinates":[-0.26666,52.5965 ]}},
{ "type":"Feature","properties":{"osm_id":"2781822144","name":"ALDI","other":{"addr:city":"Peterborough","addr:postcode":"PE3 8DF","addr:street":"Flaxland","brand":"ALDI","brand:wikidata":"Q41171672","brand:wikipedia":"en:Aldi","fhrs:id":"247103","operator":"Aldi","shop":"supermarket"}}, "geometry":{"type":"Point","coordinates":[-0.28261,52.59099 ]}},
{ "type":"Feature","properties":{"osm_id":"6188209208","name":"Siret","other":{"addr:city":"Peterborough","addr:postcode":"PE1 1RS","addr:street":"Broadway","description":"sells romanian groceries","level":"0","shop":"supermarket"}}, "geometry":{"type":"Point","coordinates":[-0.24179,52.57496 ]}},
{ "type":"Feature","properties":{"osm_id":"6274305678","name":"Spar","other":{"addr:city":"Peterborough","addr:postcode":"PE1 5DD","addr:street":"St. John's Street","alt_name":"Bals Food & Wine","brand":"Spar","brand:wikidata":"Q610492","brand:wikipedia":"en:SPAR (retailer)","fhrs:id":"446531","shop":"supermarket"}}, "geometry":{"type":"Point","coordinates":[-0.23584,52.57428 ]}},
{ "type":"Feature","properties":{"osm_id":"6401596087","name":"Poli Maxx","other":{"addr:city":"Peterborough","addr:housenumber":"46B","addr:postcode":"PE3 7PN","addr:street":"Ivatt Way","fhrs:id":"719546","shop":"supermarket"}}, "geometry":{"type":"Point","coordinates":[-0.26575,52.59607 ]}},
{ "type":"Feature","properties":{"osm_id":"6760607661","name":"Stop & Shop","other":{"addr:city":"Peterborough","addr:housename":"Unit 1, Sugar Square (West)","addr:housenumber":"85","addr:postcode":"PE3 6EY","addr:street":"Mayors Walk","brand":"Stop & Shop","brand:wikidata":"Q3658429","brand:wikipedia":"en:Stop & Shop","origin":"European","shop":"supermarket"}}, "geometry":{"type":"Point","coordinates":[-0.25908,52.57839 ]}},
{ "type":"Feature","properties":{"osm_id":"7869932775","name":"Islamic International Stores","other":{"addr:city":"Peterborough","addr:housenumber":"235","addr:postcode":"PE1 2BP","addr:street":"Gladstone Street","diet:halal":"only","fhrs:id":"247106","shop":"supermarket"}}, "geometry":{"type":"Point","coordinates":[-0.24985,52.58185 ]}},
{ "type":"Feature","properties":{"osm_id":"8121330363","other":{"defibrillator:location":"To left of main entrance to Co-op: under porch on wall.","emergency":"defibrillator","indoor":"no"}}, "geometry":{"type":"Point","coordinates":[-0.2592,52.57842 ]}},
{ "type":"Feature","properties":{"osm_id":"9049415506","name":"Lidl","other":{"addr:city":"Peterborough","addr:country":"GB","addr:postcode":"PE2 9AY","addr:street":"Sugar Way","brand":"Lidl","brand:wikidata":"Q151954","brand:wikipedia":"en:Lidl","fhrs:id":"1271170","shop":"supermarket"}}, "geometry":{"type":"Point","coordinates":[-0.26007,52.56296 ]}},
{ "type":"Feature","properties":{"osm_id":"9061998588","name":"Pak Foods","other":{"addr:city":"Peterborough","addr:housenumber":"232-248","addr:postcode":"PE1 2NE","addr:street":"Lincoln Road","addr:unit":"B","fhrs:id":"994465","shop":"supermarket"}}, "geometry":{"type":"Point","coordinates":[-0.24693,52.58702 ]}},
{ "type":"Feature","properties":{"osm_id":"9575584038","name":"Budgens","other":{"addr:city":"Peterborough","addr:postcode":"PE2 9QJ","addr:street":"Sugar Way","brand":"Budgens","brand:wikidata":"Q4985016","brand:wikipedia":"en:Budgens","shop":"supermarket"}}, "geometry":{"type":"Point","coordinates":[-0.26153,52.56263 ]}},
{ "type":"Feature","properties":{"osm_way_id":"28698295","name":"Asda","building":"yes","shop":"supermarket","other":{"addr:city":"Peterborough","addr:country":"GB","addr:housename":"West Rivergate Shopping Centre","addr:postcode":"PE1 1ET","addr:street":"Viersen Platz","alt_name":"Asda Peterborough Superstore","brand":"Asda","brand:wikidata":"Q297410","brand:wikipedia":"en:Asda","contact:facebook":"https:\/\/www.facebook.com\/asda\/","contact:phone":"+44 1733 566224","contact:twitter":"@asda","contact:website":"https:\/\/storelocator.asda.com\/east-of-england\/peterborough\/west-rivergate-shopping-centre","fhrs:id":"246826;656408","opening_hours:covid19":"Mo-Sa 08:00-22:00; Su 10:00-16:00","operator":"Asda Stores Ltd","payment:american_express":"yes","payment:cash":"yes","payment:contactless":"yes","payment:mastercard":"yes","payment:visa":"yes","payment:visa_debit":"yes"}}, "geometry":{"type":"MultiPolygon","coordinates":[[[[-0.24355,52.56932],[-0.24387,52.56931],[-0.24386,52.56927],[-0.24473,52.56923],[-0.24471,52.56899],[-0.24513,52.56897],[-0.24514,52.56898],[-0.24522,52.56898],[-0.2452,52.56883],[-0.2451,52.56883],[-0.24508,52.56871],[-0.24501,52.56867],[-0.24481,52.56868],[-0.24481,52.56865],[-0.2438,52.5687],[-0.2438,52.56873],[-0.24369,52.56874],[-0.24369,52.56871],[-0.24348,52.56872],[-0.24349,52.56882],[-0.24344,52.56882],[-0.2435,52.56929],[-0.24355,52.56932]]]]}},
{ "type":"Feature","properties":{"osm_way_id":"87651609","name":"Morrisons","building":"yes","shop":"supermarket","other":{"addr:city":"Peterborough","addr:postcode":"PE4 6WS","addr:street":"Lincoln Road","alt_name":"Morrisons Peterborough","brand":"Morrisons","brand:wikidata":"Q922344","brand:wikipedia":"en:Morrisons","fhrs:id":"247349"}}, "geometry":{"type":"MultiPolygon","coordinates":[[[[-0.2666,52.60016],[-0.26617,52.59984],[-0.26687,52.59949],[-0.26708,52.59939],[-0.26733,52.59957],[-0.26721,52.59963],[-0.26734,52.59973],[-0.26753,52.59964],[-0.26778,52.59982],[-0.26771,52.59986],[-0.26782,52.59994],[-0.26762,52.60004],[-0.26719,52.60025],[-0.26732,52.60035],[-0.26696,52.60053],[-0.26686,52.60046],[-0.26681,52.60048],[-0.26662,52.60035],[-0.26667,52.60032],[-0.26651,52.6002],[-0.2666,52.60016]]]]}},
{ "type":"Feature","properties":{"osm_way_id":"87850642","name":"Booker","building":"retail","shop":"supermarket","other":{"addr:postcode":"PE2 7BP"}}, "geometry":{"type":"MultiPolygon","coordinates":[[[[-0.26067,52.55484],[-0.26234,52.55385],[-0.26259,52.554],[-0.26242,52.55411],[-0.26246,52.55413],[-0.26238,52.55418],[-0.26234,52.55415],[-0.26215,52.55427],[-0.2622,52.5543],[-0.26181,52.55453],[-0.26236,52.55487],[-0.26172,52.55525],[-0.26156,52.55515],[-0.26136,52.55527],[-0.26067,52.55484]]]]}},
{ "type":"Feature","properties":{"osm_way_id":"90385041","name":"Sainsbury's","building":"yes","shop":"supermarket","other":{"addr:city":"Peterborough","addr:housenumber":"112","addr:postcode":"PE1 5NG","addr:street":"Oxney Road","branch":"Peterborough Superstore","brand":"Sainsbury's","brand:wikidata":"Q152096","brand:wikipedia":"en:Sainsbury's","fhrs:id":"446521","internet_access":"wlan","opening_hours":"Mo-Fr 08:00-22:00; Sa 07:30-22:00; Su 10:00-16:00"}}, "geometry":{"type":"MultiPolygon","coordinates":[[[[-0.21301,52.58785],[-0.213,52.58793],[-0.21247,52.58789],[-0.21248,52.58787],[-0.21205,52.58783],[-0.21205,52.58781],[-0.2118,52.58785],[-0.21178,52.5878],[-0.21176,52.5878],[-0.2117,52.5877],[-0.21183,52.58712],[-0.21212,52.58714],[-0.21211,52.58716],[-0.21262,52.5872],[-0.21293,52.58723],[-0.21293,52.58726],[-0.21303,52.58727],[-0.21303,52.58729],[-0.21306,52.58729],[-0.21302,52.58747],[-0.21311,52.58747],[-0.21306,52.58772],[-0.21312,52.58772],[-0.21309,52.58786],[-0.21301,52.58785]]]]}},
{ "type":"Feature","properties":{"osm_way_id":"135476446","name":"Morrisons","building":"supermarket","shop":"supermarket","other":{"addr:city":"Peterborough","addr:postcode":"PE2 8GP","addr:street":"Bellona Drive","brand":"Morrisons","brand:wikidata":"Q922344","brand:wikipedia":"en:Morrisons","fhrs:id":"247092","operator":"Morrisons"}}, "geometry":{"type":"MultiPolygon","coordinates":[[[[-0.21371,52.54607],[-0.21355,52.54566],[-0.21359,52.54566],[-0.21355,52.54555],[-0.21331,52.54558],[-0.21332,52.54562],[-0.21282,52.5457],[-0.21277,52.54559],[-0.21284,52.54558],[-0.21277,52.5454],[-0.21247,52.54538],[-0.21245,52.54548],[-0.2123,52.54547],[-0.2126,52.54621],[-0.21354,52.54607],[-0.21355,52.5461],[-0.21371,52.54607]]]]}},
{ "type":"Feature","properties":{"osm_way_id":"236058467","name":"The Food Warehouse","building":"yes","shop":"supermarket","other":{"addr:city":"Peterborough","addr:postcode":"PE1 2AF","addr:street":"Bourges Boulevard","brand":"The Food Warehouse","brand:wikidata":"Q87263899","website":"https:\/\/www.thefoodwarehouse.com\/store-locator\/peterborough"}}, "geometry":{"type":"MultiPolygon","coordinates":[[[[-0.25354,52.58284],[-0.25315,52.5829],[-0.25291,52.5823],[-0.25332,52.58224],[-0.25334,52.58228],[-0.25354,52.58284]]]]}},
{ "type":"Feature","properties":{"osm_way_id":"285778826","name":"The Co-operative Food","amenity":"post_office","building":"yes","shop":"supermarket","other":{"addr:city":"Peterborough","addr:housenumber":"5","addr:postcode":"PE2 5TD","addr:street":"Ortongate Centre","fhrs:id":"247107","operator":"East Of England Co-op","payment:american_express":"yes","payment:cash":"yes","payment:contactless":"yes","payment:mastercard":"yes","payment:visa":"yes","payment:visa_debit":"yes"}}, "geometry":{"type":"MultiPolygon","coordinates":[[[[-0.30256,52.54341],[-0.30251,52.54331],[-0.30246,52.54321],[-0.30242,52.54315],[-0.3024,52.54311],[-0.3024,52.54309],[-0.30275,52.54303],[-0.30279,52.54303],[-0.30283,52.54303],[-0.30285,52.54304],[-0.30301,52.54332],[-0.30256,52.54341]]]]}},
{ "type":"Feature","properties":{"osm_way_id":"296051058","name":"Lidl","building":"yes","shop":"supermarket","other":{"addr:city":"Peterborough","addr:postcode":"PE3 9TA","addr:street":"Lime Kiln Close","brand":"Lidl","brand:wikidata":"Q151954","brand:wikipedia":"en:Lidl","contact:website":"www.lidl.co.uk.\/contact","fhrs:id":"247320","opening_hours":"08:00-21:00","wheelchair":"yes"}}, "geometry":{"type":"MultiPolygon","coordinates":[[[[-0.2576,52.58205],[-0.25681,52.58203],[-0.25683,52.58167],[-0.25693,52.58167],[-0.25693,52.58171],[-0.2571,52.58172],[-0.25762,52.58173],[-0.2576,52.58205]]]]}},
{ "type":"Feature","properties":{"osm_way_id":"305049541","name":"Tesco","shop":"supermarket","other":{"addr:housenumber":"1","addr:postcode":"PE1 1TA","addr:street":"Hereward Cross","alt_name":"Tesco Peterborough Metro","brand":"Tesco","brand:wikidata":"Q487494","brand:wikipedia":"en:Tesco","building:part":"yes","fhrs:id":"246490;1057248","operator":"Tesco Stores Ltd"}}, "geometry":{"type":"MultiPolygon","coordinates":[[[[-0.24144,52.57477],[-0.24093,52.57468],[-0.24067,52.57473],[-0.24077,52.57499],[-0.24084,52.575],[-0.24082,52.57505],[-0.24118,52.57509],[-0.24143,52.57514],[-0.24146,52.57504],[-0.24156,52.57478],[-0.24144,52.57477]]]]}},
{ "type":"Feature","properties":{"osm_way_id":"305050096","name":"Aldi","building":"yes","shop":"supermarket","other":{"addr:city":"Peterborough","addr:postcode":"PE2 8SQ","addr:street":"Whittlesey Road","alt_name":"ALDI Peterborough","brand":"ALDI","brand:wikidata":"Q41171672","brand:wikipedia":"en:Aldi","fhrs:id":"433874"}}, "geometry":{"type":"MultiPolygon","coordinates":[[[[-0.2288,52.556],[-0.22862,52.55573],[-0.22826,52.55582],[-0.22859,52.55631],[-0.22894,52.55623],[-0.22886,52.5561],[-0.22898,52.55607],[-0.22891,52.55598],[-0.2288,52.556]]]]}},
{ "type":"Feature","properties":{"osm_way_id":"323493821","name":"Waitrose","building":"retail","shop":"supermarket","other":{"addr:city":"Peterborough","addr:country":"GB","addr:postcode":"PE1 2BF","addr:street":"Mayors Walk","brand":"Waitrose","brand:wikidata":"Q771734","brand:wikipedia":"en:Waitrose","official_name":"Waitrose & Partners","payment:american_express":"yes","payment:cash":"yes","payment:contactless":"yes","payment:mastercard":"yes","payment:visa":"yes","payment:visa_debit":"yes","phone":"+44 1733 554945","website":"https:\/\/www.waitrose.com\/peterborough"}}, "geometry":{"type":"MultiPolygon","coordinates":[[[[-0.24947,52.57531],[-0.25012,52.57515],[-0.25053,52.57576],[-0.25027,52.57582],[-0.25021,52.57572],[-0.25012,52.57574],[-0.2498,52.57582],[-0.24949,52.57535],[-0.24947,52.57531]]]]}},
{ "type":"Feature","properties":{"osm_way_id":"362088524","name":"The Co-operative Food","building":"yes","shop":"supermarket","other":{"addr:city":"Peterborough","addr:housenumber":"5","addr:postcode":"PE4 5BW","addr:street":"Loxley","addr:suburb":"Werrington","fhrs:id":"247148","operator":"The Co-operative Group"}}, "geometry":{"type":"MultiPolygon","coordinates":[[[[-0.28596,52.61915],[-0.28591,52.61939],[-0.2855,52.61935],[-0.28553,52.61923],[-0.2857,52.61924],[-0.28573,52.61913],[-0.28596,52.61915]]]]}},
{ "type":"Feature","properties":{"osm_way_id":"362088791","building":"yes","shop":"supermarket","other":{"addr:city":"Peterborough","addr:postcode":"PE1 2LY","addr:street":"Lincoln Road"}}, "geometry":{"type":"MultiPolygon","coordinates":[[[[-0.24717,52.58686],[-0.24722,52.58708],[-0.24715,52.58709],[-0.24716,52.58714],[-0.24673,52.58718],[-0.24667,52.5869],[-0.24672,52.58689],[-0.24717,52.58686]]]]}},
{ "type":"Feature","properties":{"osm_way_id":"362090307","name":"Co-op Food","building":"yes","shop":"supermarket","other":{"addr:city":"Peterborough","addr:housenumber":"97-101","addr:postcode":"PE3 6EY","addr:street":"Mayors Walk","brand":"Co-op Food","brand:wikidata":"Q3277439","brand:wikipedia":"en:Co-op Food","fhrs:id":"502362","operator":"The Co-operative Group"}}, "geometry":{"type":"MultiPolygon","coordinates":[[[[-0.25942,52.57808],[-0.2594,52.57843],[-0.2592,52.57842],[-0.25914,52.57842],[-0.25915,52.57827],[-0.25917,52.57813],[-0.25942,52.57808]]]]}},
{ "type":"Feature","properties":{"osm_way_id":"438205113","name":"ALDI","building":"yes","shop":"supermarket","other":{"addr:city":"Peterborough","addr:postcode":"PE7 8NZ","addr:street":"Brickburn Close","brand":"ALDI","brand:wikidata":"Q41171672","brand:wikipedia":"en:Aldi","fhrs:id":"933411"}}, "geometry":{"type":"MultiPolygon","coordinates":[[[[-0.2582,52.53725],[-0.25846,52.53702],[-0.25774,52.53671],[-0.25747,52.53694],[-0.2582,52.53725]]]]}},
{ "type":"Feature","properties":{"osm_way_id":"514346317","name":"Coop Supermarket","building":"yes","shop":"supermarket","other":{"addr:city":"Peterborough","addr:postcode":"PE2 9FP"}}, "geometry":{"type":"MultiPolygon","coordinates":[[[[-0.24925,52.55084],[-0.24975,52.55084],[-0.24975,52.55095],[-0.24942,52.55095],[-0.24925,52.55095],[-0.24925,52.55084]]]]}},
{ "type":"Feature","properties":{"osm_way_id":"551952891","name":"Co-Op","building":"yes","shop":"supermarket","other":{"addr:city":"Peterborough","addr:housename":"Winchester Place","addr:housenumber":"80","addr:postcode":"PE3 6AP","addr:street":"Thorpe Road","fhrs:id":"1018975"}}, "geometry":{"type":"MultiPolygon","coordinates":[[[[-0.25864,52.57335],[-0.25833,52.57341],[-0.25828,52.57331],[-0.25834,52.5733],[-0.25831,52.57325],[-0.25824,52.57326],[-0.25816,52.57311],[-0.25848,52.57305],[-0.25856,52.57319],[-0.25849,52.5732],[-0.25851,52.57325],[-0.25859,52.57324],[-0.25864,52.57335]]]]}},
{ "type":"Feature","properties":{"osm_way_id":"624116556","name":"The Food Warehouse","building":"yes","shop":"supermarket","other":{"addr:city":"Peterborough","addr:housenumber":"2","addr:postcode":"PE2 5TD","addr:street":"Ortongate Centre","brand":"The Food Warehouse","brand:wikidata":"Q87263899","old_name":"Wilkinsons"}}, "geometry":{"type":"MultiPolygon","coordinates":[[[[-0.30315,52.54358],[-0.30272,52.54366],[-0.3028,52.54383],[-0.30282,52.54388],[-0.30285,52.54394],[-0.30329,52.54387],[-0.30315,52.54358]]]]}},
{ "type":"Feature","properties":{"osm_way_id":"651737763","name":"Ghousia Foods","building":"yes","shop":"supermarket","other":{"addr:city":"Peterborough","addr:housenumber":"281","addr:postcode":"PE1 2PL","addr:street":"Lincoln Road","fhrs:id":"421523"}}, "geometry":{"type":"MultiPolygon","coordinates":[[[[-0.24637,52.58646],[-0.24639,52.58652],[-0.24639,52.58661],[-0.24624,52.58662],[-0.24604,52.58657],[-0.24606,52.58653],[-0.24622,52.58657],[-0.24621,52.58653],[-0.2462,52.58648],[-0.24637,52.58646]]]]}},
{ "type":"Feature","properties":{"osm_way_id":"651760262","name":"Azadi","building":"yes","shop":"supermarket","other":{"addr:city":"Peterborough","addr:housenumber":"163","addr:postcode":"PE1 2PN","addr:street":"Lincoln Road","fhrs:id":"1400932"}}, "geometry":{"type":"MultiPolygon","coordinates":[[[[-0.24453,52.58304],[-0.24444,52.58302],[-0.24445,52.58301],[-0.24435,52.58298],[-0.24425,52.58313],[-0.24435,52.58316],[-0.24438,52.58311],[-0.24447,52.58314],[-0.24453,52.58304]]]]}},
{ "type":"Feature","properties":{"osm_way_id":"656715264","name":"M&S Simply Food","building":"no","shop":"supermarket","other":{"addr:city":"Peterborough","addr:housename":"Unit 20 The Serpentine Green Shopping Centre","addr:postcode":"PE7 8BE","addr:street":"The Serpentine","brand":"M&S Simply Food","brand:wikidata":"Q714491","brand:wikipedia":"en:Marks & Spencer","building:part":"commercial"}}, "geometry":{"type":"MultiPolygon","coordinates":[[[[-0.26247,52.54136],[-0.26236,52.54141],[-0.26224,52.54146],[-0.26217,52.54149],[-0.26214,52.54158],[-0.26227,52.54159],[-0.26231,52.54158],[-0.26266,52.54191],[-0.26277,52.54186],[-0.26272,52.54182],[-0.2629,52.54175],[-0.26247,52.54136]]]]}},
{ "type":"Feature","properties":{"osm_way_id":"656715267","name":"Tesco Extra","shop":"supermarket","other":{"addr:city":"Peterborough","addr:housename":"Unit 1","addr:postcode":"PE7 8BD","addr:street":"The Serpentine","branch_ref":"3009","brand":"Tesco Extra","brand:wikidata":"Q25172225","brand:wikipedia":"en:Tesco Extra","building:part":"commercial","contact:website":"https:\/\/www.tesco.com\/store-locator\/peterborough\/serpentine-green-shopping-centre","fhrs:id":"247292","indoor":"shop","opening_hours":"Mo 06:00-24:00; Tu-Sa 00:00-24:00; Su 10:00-16:00","operator":"Tesco Stores Ltd","payment:american_express":"yes","payment:cash":"yes","payment:contactless":"yes","payment:mastercard":"yes","payment:visa":"yes","payment:visa_debit":"yes"}}, "geometry":{"type":"MultiPolygon","coordinates":[[[[-0.26315,52.54002],[-0.26408,52.54011],[-0.26434,52.54014],[-0.26393,52.54143],[-0.26341,52.54137],[-0.26345,52.54126],[-0.26278,52.54118],[-0.26274,52.54115],[-0.26315,52.54002]]]]}},
{ "type":"Feature","properties":{"osm_way_id":"657053185","name":"The Co-operative Food","building":"yes","shop":"supermarket","other":{"addr:city":"Eye","addr:housenumber":"49","addr:postcode":"PE6 7UX","addr:street":"High Street","fhrs:id":"870134","operator":"Central England Co-operative"}}, "geometry":{"type":"MultiPolygon","coordinates":[[[[-0.18994,52.60894],[-0.18972,52.60898],[-0.1896,52.60876],[-0.18977,52.60873],[-0.1898,52.6088],[-0.18987,52.60879],[-0.18994,52.60894]]]]}},
{ "type":"Feature","properties":{"osm_way_id":"669964558","name":"Spar","shop":"supermarket","other":{"addr:city":"Peterborough","addr:housenumber":"27-28","addr:postcode":"PE2 5PW","addr:street":"Herlington","brand":"Spar","brand:wikidata":"Q610492","brand:wikipedia":"en:Spar (retailer)","building:part":"yes","fhrs:id":"247012"}}, "geometry":{"type":"MultiPolygon","coordinates":[[[[-0.27759,52.54785],[-0.27774,52.54789],[-0.2777,52.54794],[-0.27736,52.54784],[-0.27741,52.54779],[-0.27747,52.54781],[-0.27751,52.54776],[-0.27753,52.54777],[-0.27749,52.54782],[-0.27759,52.54785]]]]}},
{ "type":"Feature","properties":{"osm_way_id":"727545967","name":"Maxum Foods","building":"yes","shop":"supermarket","other":{"addr:city":"Peterborough","addr:housenumber":"43-49","addr:postcode":"PE1 2TH","addr:street":"Park Road","fhrs:id":"615679"}}, "geometry":{"type":"MultiPolygon","coordinates":[[[[-0.24211,52.57681],[-0.24227,52.57666],[-0.24254,52.57677],[-0.24238,52.57692],[-0.24211,52.57681]]]]}},
{ "type":"Feature","properties":{"osm_way_id":"737419467","name":"Aldi","shop":"supermarket","other":{"addr:city":"Peterborough","addr:housename":"Unit 1a","addr:postcode":"PE1 2BT","addr:street":"Maskew Retail Park","brand":"ALDI","brand:wikidata":"Q41171672","brand:wikipedia":"en:Aldi","building:part":"retail","fhrs:id":"1158549","opening_hours":"Mo-Sa 08:00-22:00; Su 10:00-16:00"}}, "geometry":{"type":"MultiPolygon","coordinates":[[[[-0.2619,52.59535],[-0.26132,52.5949],[-0.26231,52.59448],[-0.26284,52.59494],[-0.2619,52.59535]]]]}},
{ "type":"Feature","properties":{"osm_way_id":"850505318","name":"Lidl","building":"yes","shop":"supermarket","other":{"addr:city":"Peterborough","addr:country":"GB","addr:postcode":"PE4 6LA","addr:street":"Lincoln Road","brand":"Lidl","brand:wikidata":"Q151954","brand:wikipedia":"en:Lidl","fhrs:id":"1100714","operator":"Lidl Great Britain Ltd","survey:date":"2018-12-18"}}, "geometry":{"type":"MultiPolygon","coordinates":[[[[-0.27773,52.60798],[-0.2773,52.60773],[-0.27715,52.60782],[-0.27722,52.60786],[-0.27687,52.60809],[-0.27664,52.60823],[-0.27671,52.60826],[-0.277,52.60844],[-0.27773,52.60798]]]]}},
{ "type":"Feature","properties":{"osm_way_id":"903601712","name":"Aldi","building":"yes","shop":"supermarket","other":{"addr:city":"Peterborough","addr:place":"Peterborough One Retail Park","addr:postcode":"PE1 4YZ","brand":"ALDI","brand:wikidata":"Q41171672","brand:wikipedia":"en:Aldi","fhrs:id":"1377116","source:addr":"FHRS Open Data","website":"https:\/\/www.aldi.co.uk\/store\/s-uk-E1303"}}, "geometry":{"type":"MultiPolygon","coordinates":[[[[-0.21212,52.59954],[-0.2117,52.59965],[-0.21149,52.59939],[-0.21142,52.59941],[-0.21137,52.59934],[-0.21144,52.59932],[-0.21135,52.59919],[-0.21146,52.59916],[-0.21148,52.59918],[-0.2118,52.5991],[-0.21212,52.59954]]]]}},
{ "type":"Feature","properties":{"osm_way_id":"1039930537","name":"Tesco","building":"yes","shop":"supermarket","other":{"brand":"Tesco","brand:wikidata":"Q487494","brand:wikipedia":"en:Tesco"}}, "geometry":{"type":"MultiPolygon","coordinates":[[[[-0.27324,52.62131],[-0.27318,52.62123],[-0.27267,52.62111],[-0.27254,52.62113],[-0.27248,52.62124],[-0.27254,52.62135],[-0.2724,52.62139],[-0.27228,52.62158],[-0.27233,52.62166],[-0.27259,52.62171],[-0.27258,52.62172],[-0.27251,52.62171],[-0.27248,52.62176],[-0.27255,52.62177],[-0.27252,52.62181],[-0.2727,52.62185],[-0.27275,52.62175],[-0.27283,52.62177],[-0.27295,52.62173],[-0.2731,52.62151],[-0.27324,52.62131]]]]}}
]
}
