{
"type": "FeatureCollection",
"features": [
{ "type":"Feature","properties":{"osm_id":"8607302396","name":"Harbour Mini Market And Off License","other":{"shop":"supermarket"}}, "geometry":{"type":"Point","coordinates":[1.18417,51.07914 ]}},
{ "type":"Feature","properties":{"osm_id":"8787264545","name":"AYA supermarket","other":{"shop":"supermarket"}}, "geometry":{"type":"Point","coordinates":[1.17989,51.08024 ]}},
{ "type":"Feature","properties":{"osm_way_id":"92285754","name":"Morrisons","building":"retail","shop":"supermarket","other":{"addr:country":"GB","addr:housenumber":"148","addr:postcode":"CT19 5JU","addr:street":"Cheriton Road","alt_name":"Morrisons Folkestone","brand":"Morrisons","brand:wikidata":"Q922344","brand:wikipedia":"en:Morrisons","opening_hours":"Mo-Sa 07:00-22:00; Su 10:00-16:00","operator":"Wm Morrison Supermarkets plc","payment:cash":"yes","source:shape":"Bing"}}, "geometry":{"type":"MultiPolygon","coordinates":[[[[1.16026,51.08513],[1.16041,51.08536],[1.16051,51.08534],[1.16065,51.08557],[1.16143,51.08538],[1.16146,51.08543],[1.16173,51.08536],[1.16161,51.08515],[1.16155,51.08516],[1.16137,51.08486],[1.16026,51.08513]]]]}},
{ "type":"Feature","properties":{"osm_way_id":"131238144","name":"Sainsbury's","building":"yes","shop":"supermarket","other":{"addr:city":"Folkestone","addr:country":"GB","addr:street":"Park Farm Road","brand":"Sainsbury's","brand:wikidata":"Q152096","brand:wikipedia":"en:Sainsbury's","contact:website":"https:\/\/stores.sainsburys.co.uk\/0057\/west-park-farm","opening_hours":"Mo-Sa 06:00-22:00;Su 10:00-16:00","phone":"+441303850810"}}, "geometry":{"type":"MultiPolygon","coordinates":[[[[1.16506,51.09463],[1.16507,51.09463],[1.16512,51.09464],[1.16506,51.09487],[1.16566,51.09492],[1.1657,51.09479],[1.16581,51.09475],[1.16608,51.09478],[1.16606,51.09487],[1.16634,51.0949],[1.16655,51.09407],[1.16537,51.09394],[1.16534,51.09408],[1.16529,51.09407],[1.16528,51.09413],[1.1652,51.09412],[1.16512,51.09446],[1.1651,51.09446],[1.16506,51.09463]]]]}},
{ "type":"Feature","properties":{"osm_way_id":"133895869","name":"Tesco","building":"yes","shop":"supermarket","other":{"addr:postcode":"CT19 4QJ","addr:street":"Cheriton High Street","alt_name":"Tesco Folkestone Superstore","brand":"Tesco","brand:wikidata":"Q487494","brand:wikipedia":"en:Tesco","opening_hours":"Mo-Su 06:00-24:00"}}, "geometry":{"type":"MultiPolygon","coordinates":[[[[1.12876,51.09039],[1.12904,51.09033],[1.12904,51.09032],[1.12967,51.09018],[1.12967,51.09018],[1.13028,51.09006],[1.13052,51.09049],[1.13056,51.09048],[1.13057,51.09048],[1.1306,51.09048],[1.13062,51.09048],[1.13065,51.09053],[1.13067,51.09056],[1.13066,51.09057],[1.13059,51.09059],[1.13064,51.09067],[1.13029,51.09074],[1.13023,51.09063],[1.12975,51.09074],[1.12971,51.09068],[1.12956,51.09071],[1.12954,51.09068],[1.12939,51.09072],[1.12936,51.09067],[1.12924,51.09069],[1.12922,51.09066],[1.12908,51.09069],[1.12906,51.09066],[1.12894,51.09068],[1.1289,51.09061],[1.12916,51.09055],[1.1291,51.09043],[1.12894,51.09047],[1.12892,51.09043],[1.12883,51.09044],[1.12879,51.09045],[1.12876,51.09039]]]]}},
{ "type":"Feature","properties":{"osm_way_id":"277000589","name":"Lidl","building":"yes","shop":"supermarket","other":{"addr:country":"GB","addr:postcode":"CT20 1BP","addr:street":"Shellons Street","alt_name":"LIDL Folkestone","brand":"Lidl","brand:wikidata":"Q151954","brand:wikipedia":"en:Lidl","fhrs:id":"289543","toilets:wheelchair":"no","wheelchair":"yes"}}, "geometry":{"type":"MultiPolygon","coordinates":[[[[1.18019,51.08154],[1.18043,51.08139],[1.17988,51.08105],[1.17978,51.08111],[1.17983,51.08115],[1.17978,51.08118],[1.17973,51.08115],[1.17966,51.0812],[1.18019,51.08154]]]]}},
{ "type":"Feature","properties":{"osm_way_id":"277000590","name":"Sainsbury's","building":"yes","shop":"supermarket","other":{"addr:housenumber":"5","addr:postcode":"CT20 2SB","addr:street":"Bouverie Road West","alt_name":"Sainsbury's Folkestone Superstore","brand":"Sainsbury's","brand:wikidata":"Q152096","brand:wikipedia":"en:Sainsbury's","opening_hours":"Mo-Sa 07:30-22:00; Su 10:00-16:00; PH open 'opening hours can be shorter'"}}, "geometry":{"type":"MultiPolygon","coordinates":[[[[1.17551,51.07823],[1.17534,51.0782],[1.17529,51.07828],[1.17501,51.07822],[1.17492,51.07824],[1.1749,51.07827],[1.17454,51.07819],[1.17444,51.07817],[1.17428,51.07828],[1.17412,51.07857],[1.1752,51.07881],[1.17543,51.07838],[1.17551,51.07823]]]]}},
{ "type":"Feature","properties":{"osm_way_id":"277006543","name":"Waitrose","building":"yes","shop":"supermarket","other":{"addr:city":"Hythe","addr:postcode":"CT21 5NH","addr:street":"Prospect Road","alt_name":"Waitrose Hythe","brand":"Waitrose","brand:wikidata":"Q771734","brand:wikipedia":"en:Waitrose & Partners","fhrs:id":"577161","official_name":"Waitrose & Partners","operator":"Waitrose & Partners","source:addr":"FHRS Open Data"}}, "geometry":{"type":"MultiPolygon","coordinates":[[[[1.08778,51.07087],[1.08782,51.07068],[1.08864,51.07074],[1.08854,51.07128],[1.08822,51.07126],[1.08823,51.07117],[1.08798,51.07115],[1.08803,51.07089],[1.08778,51.07087]]]]}},
{ "type":"Feature","properties":{"osm_way_id":"330492056","name":"Sainsbury's","building":"supermarket","shop":"supermarket","other":{"brand":"Sainsbury's","fhrs:id":"448580","alt_name":"Sainsbury's Hythe Superstore","addr:city":"Hythe","addr:street":"Military Road","source:addr":"FHRS Open Data","payment:cash":"yes","addr:postcode":"CT21 5AS","brand:wikidata":"Q152096","brand:wikipedia":"en:Sainsbury's","addr:housenumber":"19"}}, "geometry":{"type":"MultiPolygon","coordinates":[[[[1.07615,51.07238],[1.07602,51.0721],[1.07596,51.07211],[1.0758,51.07175],[1.0764,51.07164],[1.07642,51.07168],[1.07706,51.07157],[1.07718,51.07182],[1.0773,51.0718],[1.07739,51.072],[1.07705,51.07206],[1.0771,51.07216],[1.0764,51.07229],[1.07642,51.07234],[1.07615,51.07238]]]]}},
{ "type":"Feature","properties":{"osm_way_id":"420600629","name":"Spar","building":"yes","shop":"supermarket","other":{"addr:city":"Lydd","addr:housenumber":"34","addr:postcode":"TN29 9AJ","addr:street":"High Street","brand":"Spar","brand:wikidata":"Q610492","brand:wikipedia":"en:SPAR (retailer)","designation":"Lydd","opening_hours":"Mo-Su 07:00-22:00"}}, "geometry":{"type":"MultiPolygon","coordinates":[[[[0.9049,50.95127],[0.90503,50.95119],[0.90514,50.95126],[0.905,50.95134],[0.9049,50.95127]]]]}},
{ "type":"Feature","properties":{"osm_way_id":"420601623","name":"Sainsbury's","building":"yes","shop":"supermarket","other":{"addr:city":"New Romney","addr:postcode":"TN28 8GU","addr:street":"Dymchurch Road","brand":"Sainsbury's","brand:wikidata":"Q152096","brand:wikipedia":"en:Sainsbury's","designation":"New Romney Superstore","opening_hours":"Mo-Sa 08:00-20:00; Su 10:00-16:00"}}, "geometry":{"type":"MultiPolygon","coordinates":[[[[0.94356,50.9879],[0.94371,50.98778],[0.94366,50.98776],[0.94371,50.98757],[0.94382,50.98755],[0.94394,50.98758],[0.94394,50.98765],[0.94445,50.98791],[0.9441,50.98818],[0.94356,50.9879]]]]}},
{ "type":"Feature","properties":{"osm_way_id":"699010320","name":"Lidl","building":"yes","shop":"supermarket","other":{"addr:city":"Folkestone","addr:country":"GB","addr:postcode":"CT18 7RH","addr:street":"Haven Drive","addr:village":"Hawkinge","brand":"Lidl","brand:wikidata":"Q151954","brand:wikipedia":"en:Lidl","fhrs:authority":"Folkestone and Hythe","fhrs:id":"552974","fhrs:local_authority_id":"PI\/000058007","source:addr":"FHRS Open Data"}}, "geometry":{"type":"MultiPolygon","coordinates":[[[[1.16052,51.11217],[1.16088,51.11216],[1.16083,51.11147],[1.16055,51.11148],[1.16055,51.11143],[1.16035,51.11144],[1.16036,51.11149],[1.1604,51.11207],[1.16052,51.11217]]]]}},
{ "type":"Feature","properties":{"osm_way_id":"841731205","name":"Aldi","building":"yes","shop":"supermarket","other":{"addr:city":"Hythe","addr:housenumber":"142","addr:postcode":"CT21 6LU","addr:street":"Dymchurch Road","brand":"ALDI","brand:wikidata":"Q41171672","brand:wikipedia":"en:Aldi","contact:website":"https:\/\/www.aldi.co.uk\/store\/s-uk-E1262","opening_hours":"Mo-Sa 08:00-22:00; Su 10:00-16:00","payment:cash":"yes"}}, "geometry":{"type":"MultiPolygon","coordinates":[[[[1.06641,51.06844],[1.06598,51.06865],[1.06583,51.06852],[1.06623,51.06831],[1.06641,51.06844]]]]}},
{ "type":"Feature","properties":{"osm_way_id":"900510134","name":"Asda","shop":"supermarket","other":{"addr:country":"GB","addr:postcode":"CT20 1AU","addr:street":"Bouverie Place","alt_name":"ASDA Folkestone Supercentre","brand":"Asda","brand:wikidata":"Q297410","brand:wikipedia":"en:Asda","contact:facebook":"https:\/\/www.facebook.com\/asda\/","contact:twitter":"@asda","contact:website":"https:\/\/storelocator.asda.com\/south-east\/folkestone\/bouverie-place","level":"2","operator":"Asda Stores Ltd"}}, "geometry":{"type":"MultiPolygon","coordinates":[[[[1.17865,51.08048],[1.17839,51.08038],[1.17767,51.07995],[1.17813,51.07961],[1.17837,51.07975],[1.17855,51.07967],[1.17866,51.07973],[1.1789,51.07987],[1.17885,51.0799],[1.179,51.07999],[1.17907,51.08003],[1.17903,51.08008],[1.17865,51.08048]]]]}}
]
}
