{
"type": "FeatureCollection",
"features": [
{ "type":"Feature","properties":{"osm_id":"269058862","name":"Tesco","other":{"addr:city":"Bradford","addr:housename":"The Peel Centre","addr:postcode":"BD1 4RB","addr:street":"Valley Road","brand":"Tesco","brand:wikidata":"Q487494","brand:wikipedia":"en:Tesco","contact:website":"https:\/\/www.tesco.com\/store-locator\/bradford\/peel-centre","fhrs:id":"997906","operator":"Tesco","shop":"supermarket","source:addr":"FHRS Open Data"}}, "geometry":{"type":"Point","coordinates":[-1.75436,53.80363 ]}},
{ "type":"Feature","properties":{"osm_id":"269059708","name":"Pakeezah","other":{"addr:city":"Bradford","addr:housenumber":"91","addr:postcode":"BD3 9UD","addr:street":"Edderthorpe Street","fhrs:id":"328521","phone":"+44 1274 739500","shop":"supermarket","website":"http:\/\/www.pakeezah.com\/"}}, "geometry":{"type":"Point","coordinates":[-1.73816,53.79292 ]}},
{ "type":"Feature","properties":{"osm_id":"300375945","name":"Lidl","other":{"addr:city":"Bradford","addr:housenumber":"230","addr:postcode":"BD3 9BN","addr:street":"Barkerend Road","brand":"Lidl","brand:wikidata":"Q151954","brand:wikipedia":"en:Lidl","fhrs:id":"325759","shop":"supermarket","source:addr":"FHRS Open Data"}}, "geometry":{"type":"Point","coordinates":[-1.73687,53.7966 ]}},
{ "type":"Feature","properties":{"osm_id":"302447664","name":"Makkah Market","other":{"shop":"supermarket"}}, "geometry":{"type":"Point","coordinates":[-1.75623,53.77658 ]}},
{ "type":"Feature","properties":{"osm_id":"362254373","name":"The Co-operative Food","other":{"addr:city":"Shipley","addr:country":"GB","addr:housenumber":"48-54","addr:postcode":"BD18 4SD","addr:street":"Bingley Road","addr:suburb":"Saltaire","addr:village":"Saltaire","brand":"The Co-operative Food","brand:wikidata":"Q107617274","fhrs:id":"327360","operator":"The Co-operative Group","shop":"supermarket"}}, "geometry":{"type":"Point","coordinates":[-1.79303,53.83502 ]}},
{ "type":"Feature","properties":{"osm_id":"362625431","name":"Freshco","other":{"addr:city":"Bradford","addr:housenumber":"43","addr:postcode":"BD9 4QB","addr:street":"Oak Lane","fhrs:id":"325725","shop":"supermarket","source:addr":"FHRS Open Data"}}, "geometry":{"type":"Point","coordinates":[-1.7711,53.80884 ]}},
{ "type":"Feature","properties":{"osm_id":"445078682","name":"The Co-operative Food","other":{"operator":"The Co-operative Group","shop":"supermarket"}}, "geometry":{"type":"Point","coordinates":[-1.85411,53.79073 ]}},
{ "type":"Feature","properties":{"osm_id":"452643850","name":"Sainsbury's","other":{"addr:city":"Bradford","addr:housenumber":"760","addr:postcode":"BD10 0QF","addr:street":"Harrogate Road","brand":"Sainsbury's","brand:wikidata":"Q152096","description:covid19":"NHS ID Holders have access Mon to Sat 07:30 to 08:00","fhrs:id":"325348","opening_hours:covid19":"Mo-Sa 08:00-20:00; Su 10:00-16:00","organic":"yes","shop":"supermarket","source:addr":"FHRS Open Data","wheelchair":"yes"}}, "geometry":{"type":"Point","coordinates":[-1.71188,53.82932 ]}},
{ "type":"Feature","properties":{"osm_id":"529090406","name":"Pound Stretcher","other":{"addr:city":"Bradford","addr:housenumber":"Unit E","addr:postcode":"BD4 9RQ","addr:street":"Weaverthorpe Road","fhrs:id":"326427","shop":"supermarket","source:addr":"FHRS Open Data"}}, "geometry":{"type":"Point","coordinates":[-1.70782,53.76638 ]}},
{ "type":"Feature","properties":{"osm_id":"529090409","name":"Iceland","other":{"addr:city":"Bradford","addr:housenumber":"Unit B","addr:postcode":"BD4 9RQ","addr:street":"Weaverthorpe Road","brand":"Iceland","brand:wikidata":"Q721810","fhrs:id":"326429","shop":"supermarket","source:addr":"FHRS Open Data"}}, "geometry":{"type":"Point","coordinates":[-1.70841,53.76593 ]}},
{ "type":"Feature","properties":{"osm_id":"656736559","name":"Bierley Mini Market","other":{"addr:city":"Bradford","addr:housenumber":"28","addr:postcode":"BD4 6HN","addr:street":"Dawson Lane","addr:village":"Bierley","fhrs:id":"328115","shop":"supermarket","source:addr":"FHRS Open Data"}}, "geometry":{"type":"Point","coordinates":[-1.72201,53.7695 ]}},
{ "type":"Feature","properties":{"osm_id":"662441228","name":"Southfield Minimarket","other":{"addr:city":"Bradford","addr:housenumber":"110","addr:postcode":"BD4 6HD","addr:street":"Tong Street","fhrs:id":"326402","shop":"supermarket","source:addr":"FHRS Open Data"}}, "geometry":{"type":"Point","coordinates":[-1.72164,53.7713 ]}},
{ "type":"Feature","properties":{"osm_id":"676622252","name":"The Co-operative Food","other":{"operator":"The Co-operative Group","shop":"supermarket"}}, "geometry":{"type":"Point","coordinates":[-1.70958,53.77026 ]}},
{ "type":"Feature","properties":{"osm_id":"685938446","name":"Kash's","other":{"shop":"supermarket"}}, "geometry":{"type":"Point","coordinates":[-1.71147,53.77845 ]}},
{ "type":"Feature","properties":{"osm_id":"747719381","name":"Co-op Food","other":{"brand":"Co-op Food","brand:wikidata":"Q3277439","brand:wikipedia":"en:Co-op Food","shop":"supermarket"}}, "geometry":{"type":"Point","coordinates":[-1.74095,53.88935 ]}},
{ "type":"Feature","properties":{"osm_id":"2195805648","other":{"shop":"supermarket"}}, "geometry":{"type":"Point","coordinates":[-1.75483,53.79487 ]}},
{ "type":"Feature","properties":{"osm_id":"2196359301","name":"Tesco Express","other":{"addr:city":"Bradford","addr:housenumber":"204-206","addr:postcode":"BD9 6NJ","addr:street":"Haworth Road","brand":"Tesco Express","brand:wikidata":"Q98456772","contact:website":"https:\/\/www.tesco.com\/store-locator\/bradford\/204-206-haworth-rd","fhrs:id":"328228","shop":"supermarket","source:addr":"FHRS Open Data"}}, "geometry":{"type":"Point","coordinates":[-1.81571,53.81611 ]}},
{ "type":"Feature","properties":{"osm_id":"2971255728","name":"The Co-operative","other":{"addr:city":"Keighley","addr:postcode":"BD20 6PE","addr:street":"Skipton Road","addr:village":"Steeton With Eastburn","alt_name":"Morrisons Steeton Local","fhrs:id":"817997","opening_hours":"Mo-Su 07:00-23:00","shop":"supermarket","wheelchair":"yes"}}, "geometry":{"type":"Point","coordinates":[-1.95883,53.89583 ]}},
{ "type":"Feature","properties":{"osm_id":"3882641642","name":"The Co-operative Food","other":{"shop":"supermarket"}}, "geometry":{"type":"Point","coordinates":[-1.74405,53.91288 ]}},
{ "type":"Feature","properties":{"osm_id":"5254939887","name":"AFG","other":{"shop":"supermarket"}}, "geometry":{"type":"Point","coordinates":[-1.75908,53.78693 ]}},
{ "type":"Feature","properties":{"osm_id":"5688658720","other":{"emergency":"defibrillator"}}, "geometry":{"type":"Point","coordinates":[-1.81844,53.92767 ]}},
{ "type":"Feature","properties":{"osm_id":"5966004618","name":"M&S Foodhall","other":{"brand":"M&S Foodhall","brand:wikidata":"Q714491","brand:wikipedia":"en:Marks & Spencer","shop":"supermarket","website":"https:\/\/www.marksandspencer.com\/stores\/bradford-broadway-1860"}}, "geometry":{"type":"Point","coordinates":[-1.74988,53.79557 ]}},
{ "type":"Feature","properties":{"osm_id":"6068127674","name":"M&S Foodhall","other":{"brand":"M&S Foodhall","brand:wikidata":"Q714491","brand:wikipedia":"en:Marks & Spencer","shop":"supermarket"}}, "geometry":{"type":"Point","coordinates":[-1.79593,53.80654 ]}},
{ "type":"Feature","properties":{"osm_id":"7473117527","name":"Asda","other":{"addr:city":"Bradford","addr:country":"GB","addr:postcode":"BD7 2QX","addr:street":"Cemetery Road","brand":"Asda","brand:wikidata":"Q297410","brand:wikipedia":"en:Asda","contact:website":"https:\/\/storelocator.asda.com\/yorkshire-&-humber\/bradford\/cemetery-road-lidget-green","fhrs:id":"736256","shop":"supermarket"}}, "geometry":{"type":"Point","coordinates":[-1.78964,53.79433 ]}},
{ "type":"Feature","properties":{"osm_id":"7473180229","name":"Asda","other":{"addr:city":"Bradford","addr:country":"GB","addr:postcode":"BD4 7SR","addr:street":"Rooley Lane","alt_name":"Asda Bradford","brand":"Asda","brand:wikidata":"Q297410","brand:wikipedia":"en:Asda","contact:website":"https:\/\/storelocator.asda.com\/yorkshire-&-humber\/bradford\/rooley-lane","fhrs:id":"325035","shop":"supermarket"}}, "geometry":{"type":"Point","coordinates":[-1.73228,53.7724 ]}},
{ "type":"Feature","properties":{"osm_id":"9217221052","name":"Lidl","other":{"addr:country":"GB","addr:postcode":"BD2 3SP","addr:street":"Harrogate Road","brand":"Lidl","brand:wikidata":"Q151954","brand:wikipedia":"en:Lidl","fhrs:id":"1377025","shop":"supermarket"}}, "geometry":{"type":"Point","coordinates":[-1.71756,53.81648 ]}},
{ "type":"Feature","properties":{"osm_way_id":"27421815","name":"Morrisons","building":"supermarket","shop":"supermarket","other":{"addr:city":"Bradford","addr:country":"GB","addr:housename":"Victoria Shopping Centre","addr:postcode":"BD8 9BN","addr:street":"Thornton Road","addr:unit":"5","brand":"Morrisons","brand:wikidata":"Q922344","brand:wikipedia":"en:Morrisons","contact:website":"https:\/\/my.morrisons.com\/storefinder\/4","fhrs:id":"325050","source:addr":"FHRS Open Data"}}, "geometry":{"type":"MultiPolygon","coordinates":[[[[-1.78848,53.79724],[-1.78707,53.79728],[-1.78711,53.79774],[-1.787,53.79774],[-1.78701,53.79787],[-1.78711,53.79792],[-1.78711,53.79793],[-1.78706,53.79797],[-1.78707,53.79803],[-1.78715,53.79807],[-1.78725,53.79807],[-1.78731,53.79803],[-1.78736,53.79806],[-1.78744,53.79806],[-1.78778,53.79805],[-1.78778,53.79798],[-1.78856,53.79796],[-1.78854,53.79776],[-1.78879,53.79775],[-1.78875,53.79743],[-1.78902,53.79742],[-1.78902,53.7973],[-1.78849,53.79731],[-1.78848,53.79724]]]]}},
{ "type":"Feature","properties":{"osm_way_id":"35907775","name":"Morrisons","building":"supermarket","shop":"supermarket","other":{"addr:city":"Bradford","addr:country":"GB","addr:housenumber":"275","addr:postcode":"BD10 8EG","addr:street":"Bradford Road","addr:village":"Idle","brand":"Morrisons","brand:wikidata":"Q922344","brand:wikipedia":"en:Morrisons","contact:website":"https:\/\/my.morrisons.com\/storefinder\/3","fhrs:id":"325575","source:addr":"FHRS Open Data","toilets:wheelchair":"no","wheelchair":"yes"}}, "geometry":{"type":"MultiPolygon","coordinates":[[[[-1.73194,53.82402],[-1.73197,53.82396],[-1.7319,53.82394],[-1.73182,53.82397],[-1.73176,53.82413],[-1.73098,53.82401],[-1.73077,53.82398],[-1.73042,53.82487],[-1.73093,53.82495],[-1.73132,53.825],[-1.73162,53.82505],[-1.73166,53.82495],[-1.73173,53.82496],[-1.73196,53.82443],[-1.73202,53.82444],[-1.73221,53.82426],[-1.73228,53.82408],[-1.73219,53.82398],[-1.73206,53.82396],[-1.73203,53.82403],[-1.73194,53.82402]]]]}},
{ "type":"Feature","properties":{"osm_way_id":"42619337","name":"Asda","building":"yes","shop":"supermarket","other":{"addr:city":"Shipley","addr:country":"GB","addr:postcode":"BD18 3RY","addr:street":"Manor Lane","brand":"Asda","brand:wikidata":"Q297410","brand:wikipedia":"en:Asda","contact:website":"https:\/\/storelocator.asda.com\/yorkshire-&-humber\/shipley\/manor-lane","fhrs:id":"327684","operator":"Asda Stores Ltd"}}, "geometry":{"type":"MultiPolygon","coordinates":[[[[-1.78058,53.83209],[-1.78002,53.83209],[-1.78001,53.83205],[-1.77992,53.83206],[-1.77923,53.83207],[-1.77926,53.83275],[-1.77947,53.8329],[-1.78021,53.8329],[-1.78021,53.83267],[-1.7806,53.83267],[-1.78058,53.83209]]]]}},
{ "type":"Feature","properties":{"osm_way_id":"66848091","name":"Tesco","building":"retail","shop":"supermarket","other":{"addr:city":"Ilkley","addr:housenumber":"19","addr:postcode":"LS29 8UA","addr:street":"Springs Lane","brand":"Tesco","brand:wikidata":"Q487494","brand:wikipedia":"en:Tesco","designation":"Ilkley Superstore","fhrs:id":"325571"}}, "geometry":{"type":"MultiPolygon","coordinates":[[[[-1.81692,53.92407],[-1.81691,53.92415],[-1.81611,53.92411],[-1.81566,53.92413],[-1.81528,53.92416],[-1.81528,53.92422],[-1.81564,53.92424],[-1.81562,53.92437],[-1.81709,53.92446],[-1.81711,53.9243],[-1.8172,53.92431],[-1.81725,53.92409],[-1.81692,53.92407]]]]}},
{ "type":"Feature","properties":{"osm_way_id":"91098724","name":"Booths","building":"retail","shop":"supermarket","other":{"addr:postcode":"LS29 8EE","addr:street":"Leeds Road","brand:wikidata":"Q4943949","brand:wikipedia":"en:Booths","contact:website":"https:\/\/www.booths.co.uk\/store\/ilkley\/","designation":"Ilkley","opening_hours":"Mo-Sa 08:00-21:00; Su 09:30-16:00"}}, "geometry":{"type":"MultiPolygon","coordinates":[[[[-1.8183,53.92778],[-1.81822,53.92778],[-1.81817,53.92776],[-1.81812,53.92773],[-1.8181,53.9277],[-1.81781,53.92771],[-1.81782,53.92775],[-1.81763,53.92775],[-1.81756,53.92717],[-1.81778,53.92717],[-1.8178,53.92731],[-1.81787,53.92729],[-1.81796,53.92732],[-1.8182,53.9273],[-1.81823,53.92737],[-1.81831,53.92736],[-1.81833,53.92741],[-1.8184,53.9274],[-1.8184,53.92746],[-1.81844,53.92767],[-1.81844,53.9277],[-1.8184,53.92775],[-1.81836,53.92777],[-1.8183,53.92778]]]]}},
{ "type":"Feature","properties":{"osm_way_id":"104736019","name":"Co-op Food","building":"yes","shop":"supermarket","other":{"addr:city":"Bradford","addr:postcode":"BD13 4BJ","addr:street":"School Street","addr:village":"Denholme","brand":"Co-op Food","brand:wikidata":"Q3277439","brand:wikipedia":"en:Co-op Food","fhrs:id":"327813","lottery":"yes","operator":"The Co-operative Group","operator:wikidata":"Q117202","operator:wikipedia":"en:The Co-operative Group"}}, "geometry":{"type":"MultiPolygon","coordinates":[[[[-1.89481,53.80181],[-1.89463,53.80165],[-1.89437,53.80175],[-1.89455,53.80191],[-1.89481,53.80181]]]]}},
{ "type":"Feature","properties":{"osm_way_id":"106424782","name":"Lidl","building":"retail","shop":"supermarket","other":{"addr:city":"Bradford","addr:postcode":"BD8 9AN","addr:street":"Duncombe Road","brand":"Lidl","brand:wikidata":"Q151954","brand:wikipedia":"en:Lidl","fhrs:id":"328280","source:addr":"FHRS Open Data"}}, "geometry":{"type":"MultiPolygon","coordinates":[[[[-1.78576,53.79676],[-1.78501,53.79682],[-1.78496,53.79659],[-1.78522,53.79658],[-1.78571,53.79656],[-1.78576,53.79676]]]]}},
{ "type":"Feature","properties":{"osm_way_id":"112467348","name":"ALDI","building":"retail","shop":"supermarket","other":{"addr:city":"Shipley","addr:housenumber":"4","addr:postcode":"BD17 7TS","addr:street":"Tony Miller Approach, Briggate","brand":"ALDI","brand:wikidata":"Q41171672","brand:wikipedia":"en:Aldi","fhrs:id":"324994","source:addr":"FHRS Open Data"}}, "geometry":{"type":"MultiPolygon","coordinates":[[[[-1.77146,53.83555],[-1.77066,53.83569],[-1.7706,53.83558],[-1.77069,53.83556],[-1.77063,53.83545],[-1.77156,53.83529],[-1.77164,53.83545],[-1.77154,53.83546],[-1.77142,53.83549],[-1.77146,53.83555]]]]}},
{ "type":"Feature","properties":{"osm_way_id":"113071579","name":"Sainsbury's","building":"supermarket","shop":"supermarket","other":{"addr:city":"Keighley","addr:housename":"Sainsbury's Centre","addr:housenumber":"1","addr:postcode":"BD21 3RU","addr:street":"Cavendish Street","alt_name":"Sainsbury's Keighley Superstore","brand":"Sainsbury's","brand:wikidata":"Q152096","fhrs:id":"325569","pharmacy":"yes","wheelchair":"yes"}}, "geometry":{"type":"MultiPolygon","coordinates":[[[[-1.90466,53.86941],[-1.90547,53.86898],[-1.90532,53.86885],[-1.9056,53.8687],[-1.90507,53.86838],[-1.90517,53.86832],[-1.90498,53.86821],[-1.90408,53.8687],[-1.90425,53.86879],[-1.90395,53.86895],[-1.90466,53.86941]]]]}},
{ "type":"Feature","properties":{"osm_way_id":"113071588","name":"Morrisons","building":"retail","shop":"supermarket","other":{"addr:city":"Keighley","addr:country":"GB","addr:postcode":"BD21 5AE","addr:street":"Worth Way","alt_name":"Morrisons Keighley","brand":"Morrisons","brand:wikidata":"Q922344","brand:wikipedia":"en:Morrisons","contact:website":"https:\/\/my.morrisons.com\/storefinder\/5","fhrs:id":"325568","operator":"Morrisons","source:addr":"FHRS Open Data","wheelchair":"yes"}}, "geometry":{"type":"MultiPolygon","coordinates":[[[[-1.90787,53.86476],[-1.9075,53.86475],[-1.90749,53.86466],[-1.90674,53.86465],[-1.90667,53.8646],[-1.9067,53.86418],[-1.90673,53.86417],[-1.90673,53.86405],[-1.9068,53.86401],[-1.907,53.86401],[-1.90701,53.86393],[-1.90772,53.86395],[-1.90772,53.8639],[-1.90784,53.8639],[-1.90784,53.86402],[-1.90791,53.86403],[-1.90792,53.86409],[-1.90789,53.86445],[-1.90787,53.86476]]]]}},
{ "type":"Feature","properties":{"osm_way_id":"113071602","name":"Shan's","building":"retail","shop":"supermarket","other":{"addr:city":"Keighley","addr:country":"GB","addr:housename":"Shan Building","addr:postcode":"BD21 3JD","addr:street":"Alice Street","fhrs:id":"325523","source:addr":"FHRS Open Data"}}, "geometry":{"type":"MultiPolygon","coordinates":[[[[-1.90827,53.86986],[-1.90829,53.86938],[-1.90795,53.86938],[-1.90795,53.86939],[-1.90793,53.86986],[-1.90827,53.86986]]]]}},
{ "type":"Feature","properties":{"osm_way_id":"120860454","name":"Morrisons","building":"retail","shop":"supermarket","other":{"addr:city":"Bradford","addr:postcode":"BD5 8HP","addr:street":"Mayo Avenue","brand":"Morrisons","brand:wikidata":"Q922344","brand:wikipedia":"en:Morrisons","building:levels":"1","contact:website":"https:\/\/my.morrisons.com\/storefinder\/2","fhrs:id":"325566","source:addr":"FHRS Open Data"}}, "geometry":{"type":"MultiPolygon","coordinates":[[[[-1.75888,53.77036],[-1.75833,53.77023],[-1.75835,53.77018],[-1.75801,53.7701],[-1.75845,53.76944],[-1.75873,53.76951],[-1.75875,53.76949],[-1.75903,53.76951],[-1.7592,53.76955],[-1.75916,53.76963],[-1.75964,53.76976],[-1.75943,53.77005],[-1.75956,53.77009],[-1.75939,53.77034],[-1.75948,53.77036],[-1.75935,53.77055],[-1.75883,53.77042],[-1.75888,53.77036]]]]}},
{ "type":"Feature","properties":{"osm_way_id":"126301372","name":"Londis","building":"yes","shop":"supermarket","other":{"brand":"Londis","brand:wikidata":"Q21008564","brand:wikipedia":"en:Londis (United Kingdom)","wheelchair":"yes"}}, "geometry":{"type":"MultiPolygon","coordinates":[[[[-1.90473,53.87483],[-1.90462,53.87481],[-1.90466,53.8747],[-1.90468,53.87467],[-1.90478,53.87468],[-1.90473,53.87483]]]]}},
{ "type":"Feature","properties":{"osm_way_id":"131542490","name":"Asda","building":"retail","shop":"supermarket","other":{"addr:city":"Keighley","addr:country":"GB","addr:postcode":"BD21 3ER","addr:street":"Bradford Street","alt_name":"ASDA Keighley Superstore","brand":"Asda","brand:wikidata":"Q297410","brand:wikipedia":"en:Asda","contact:website":"https:\/\/storelocator.asda.com\/yorkshire-&-humber\/keighley\/bingley-street","fhrs:id":"325749;325760","operator":"Asda Stores Ltd","pharmacy":"yes","wheelchair":"yes"}}, "geometry":{"type":"MultiPolygon","coordinates":[[[[-1.90196,53.86856],[-1.90229,53.86855],[-1.90326,53.86906],[-1.90308,53.86918],[-1.90281,53.8692],[-1.90223,53.86957],[-1.90117,53.86903],[-1.90175,53.86862],[-1.9017,53.8686],[-1.90184,53.8685],[-1.90196,53.86856]]]]}},
{ "type":"Feature","properties":{"osm_way_id":"150570357","name":"Robertshaws Farm Shop","shop":"supermarket"},"geometry":{"type":"MultiPolygon","coordinates":[[[[-1.87973,53.78407],[-1.87932,53.78421],[-1.87896,53.78432],[-1.87842,53.78395],[-1.87805,53.78372],[-1.87794,53.7837],[-1.87784,53.78374],[-1.87762,53.78355],[-1.87755,53.78358],[-1.87745,53.7835],[-1.87738,53.78337],[-1.8776,53.7833],[-1.87767,53.78328],[-1.87778,53.78325],[-1.87804,53.78316],[-1.87831,53.78307],[-1.87893,53.78366],[-1.87949,53.78399],[-1.87955,53.78396],[-1.87973,53.78407]]]]}},
{ "type":"Feature","properties":{"osm_way_id":"150570360","name":"Tesco","building":"retail","shop":"supermarket","other":{"addr:city":"Bradford","addr:housenumber":"3","addr:postcode":"BD13 1QD","addr:street":"Brighouse Road","addr:village":"Queensbury","branch":"Queensbury Superstore","brand":"Tesco","brand:wikidata":"Q487494","brand:wikipedia":"en:Tesco","building:levels":"2","dispensing":"yes","fhrs:id":"997903","opening_hours":"Mo-Sa 07:00-23:00; Su 10:00-16:00","payment:cash":"yes","payment:contactless":"yes","payment:credit_cards":"yes","payment:debit_cards":"yes"}}, "geometry":{"type":"MultiPolygon","coordinates":[[[[-1.84107,53.76792],[-1.8411,53.7679],[-1.84121,53.76796],[-1.84124,53.76793],[-1.84144,53.76802],[-1.84148,53.76799],[-1.8419,53.76819],[-1.84183,53.76824],[-1.84182,53.76824],[-1.84146,53.76851],[-1.84085,53.76824],[-1.84073,53.76818],[-1.84066,53.76808],[-1.84064,53.76804],[-1.84071,53.76802],[-1.84074,53.76806],[-1.84079,53.76806],[-1.84078,53.76803],[-1.84084,53.76798],[-1.84082,53.76796],[-1.84085,53.76794],[-1.84083,53.76792],[-1.84091,53.76786],[-1.84095,53.76788],[-1.84096,53.76787],[-1.84107,53.76792]]]]}},
{ "type":"Feature","properties":{"osm_way_id":"154566745","name":"The Co-operative Food","building":"retail","shop":"supermarket","other":{"addr:city":"Keighley","addr:postcode":"BD22 7HT","addr:street":"Victoria Road","addr:village":"Oakworth","operator":"The Co-operative Group","website":"https:\/\/www.co-operative.coop\/","wheelchair":"yes"}}, "geometry":{"type":"MultiPolygon","coordinates":[[[[-1.94761,53.84555],[-1.94725,53.84566],[-1.94736,53.8458],[-1.94777,53.84565],[-1.94761,53.84555]]]]}},
{ "type":"Feature","properties":{"osm_way_id":"157456774","name":"Aldi","building":"retail","shop":"supermarket","other":{"addr:city":"Keighley","addr:postcode":"BD21 5JG","addr:street":"Gresley Road","alt_name":"Aldi Keighley","brand":"ALDI","brand:wikidata":"Q41171672","brand:wikipedia":"en:Aldi","fhrs:id":"326829","wheelchair":"yes"}}, "geometry":{"type":"MultiPolygon","coordinates":[[[[-1.9027,53.86732],[-1.90235,53.86753],[-1.9022,53.86744],[-1.90226,53.8674],[-1.90191,53.8672],[-1.90223,53.86701],[-1.90239,53.8671],[-1.90236,53.86712],[-1.9027,53.86732]]]]}},
{ "type":"Feature","properties":{"osm_way_id":"157456776","name":"Iceland","building":"retail","shop":"supermarket","other":{"addr:city":"Keighley","addr:postcode":"BD21 5JG","addr:street":"Gresley Road","alt_name":"Iceland Keighley","brand":"Iceland","brand:wikidata":"Q721810","fhrs:id":"326830","wheelchair":"yes"}}, "geometry":{"type":"MultiPolygon","coordinates":[[[[-1.90292,53.86744],[-1.90273,53.86733],[-1.90236,53.86753],[-1.90255,53.86765],[-1.90292,53.86744]]]]}},
{ "type":"Feature","properties":{"osm_way_id":"174008410","name":"Co-op Food","building":"yes","shop":"supermarket","other":{"addr:city":"Ilkley","addr:postcode":"LS29 9AA","addr:street":"Bolton Bridge Road","brand":"Co-op Food","brand:wikidata":"Q3277439","brand:wikipedia":"en:Co-op Food","designation":"Ilkley My Local","fhrs:id":"894836","name:-2015":"M Local","name:2015-2016":"My Local"}}, "geometry":{"type":"MultiPolygon","coordinates":[[[[-1.82888,53.92601],[-1.82889,53.92593],[-1.82841,53.92581],[-1.82838,53.92596],[-1.82888,53.92601]]]]}},
{ "type":"Feature","properties":{"osm_way_id":"201039822","name":"Tesco Extra","building":"yes","shop":"supermarket","other":{"addr:city":"Bradford","addr:housenumber":"700","addr:postcode":"BD7 4EY","addr:street":"Great Horton Road","brand":"Tesco Extra","brand:wikidata":"Q25172225","brand:wikipedia":"en:Tesco Extra","contact:website":"https:\/\/www.tesco.com\/store-locator\/bradford\/great-horton-road","fhrs:id":"325572","operator":"Tesco","source:addr":"FHRS Open Data"}}, "geometry":{"type":"MultiPolygon","coordinates":[[[[-1.78859,53.78159],[-1.78807,53.7811],[-1.78799,53.78113],[-1.78742,53.7806],[-1.78748,53.78055],[-1.78843,53.78021],[-1.78857,53.78034],[-1.78877,53.78026],[-1.78948,53.78096],[-1.78961,53.78091],[-1.79002,53.78128],[-1.78954,53.78144],[-1.78939,53.78144],[-1.78928,53.78135],[-1.78859,53.78159]]]]}},
{ "type":"Feature","properties":{"osm_way_id":"201084526","name":"Tesco Express","building":"yes","shop":"supermarket","other":{"addr:city":"Bradford","addr:housenumber":"159","addr:postcode":"BD12 0TQ","addr:street":"Huddersfield Road","brand":"Tesco Express","brand:wikidata":"Q98456772","fhrs:id":"325133"}}, "geometry":{"type":"MultiPolygon","coordinates":[[[[-1.76424,53.75773],[-1.76409,53.75762],[-1.76441,53.75747],[-1.76456,53.75758],[-1.76424,53.75773]]]]}},
{ "type":"Feature","properties":{"osm_way_id":"201276379","name":"Asda","building":"yes","shop":"supermarket","other":{"addr:city":"Bradford","addr:housenumber":"76","addr:postcode":"BD5 0PX","addr:street":"Canterbury Avenue","brand":"Asda","brand:wikidata":"Q297410","brand:wikipedia":"en:Asda","contact:website":"https:\/\/storelocator.asda.com\/yorkshire-&-humber\/bradford\/canterbury-avenue-little-horton","fhrs:id":"328024","source:addr":"FHRS Open Data"}}, "geometry":{"type":"MultiPolygon","coordinates":[[[[-1.77067,53.78184],[-1.77032,53.78177],[-1.77037,53.78168],[-1.77033,53.78167],[-1.77039,53.78156],[-1.77044,53.78157],[-1.7705,53.78147],[-1.77118,53.78161],[-1.77106,53.78181],[-1.77083,53.78177],[-1.7708,53.78181],[-1.7707,53.78179],[-1.77067,53.78184]]]]}},
{ "type":"Feature","properties":{"osm_way_id":"219022889","name":"The Co-operative Food","building":"yes","shop":"supermarket","other":{"addr:city":"Bradford","addr:postcode":"BD12 9JF","addr:street":"Towngate","addr:village":"Wyke","operator":"The Co-operative Group"}}, "geometry":{"type":"MultiPolygon","coordinates":[[[[-1.7685,53.7388],[-1.76854,53.73861],[-1.76823,53.73859],[-1.76824,53.73853],[-1.768,53.73851],[-1.76798,53.73862],[-1.76807,53.73863],[-1.76804,53.73877],[-1.7685,53.7388]]]]}},
{ "type":"Feature","properties":{"osm_way_id":"219022890","name":"Asda","building":"yes","shop":"supermarket","other":{"addr:city":"Bradford","addr:country":"GB","addr:postcode":"BD12 9JF","addr:street":"Towngate","addr:village":"Wyke","brand":"Asda","brand:wikidata":"Q297410","brand:wikipedia":"en:Asda","contact:website":"https:\/\/storelocator.asda.com\/yorkshire-&-humber\/wyke\/towngate","fhrs:id":"326451","operator":"Asda Stores Ltd"}}, "geometry":{"type":"MultiPolygon","coordinates":[[[[-1.76824,53.73805],[-1.7683,53.73789],[-1.76694,53.73774],[-1.76688,53.73793],[-1.76724,53.73797],[-1.76723,53.73802],[-1.76768,53.73807],[-1.76771,53.73798],[-1.76824,53.73805]]]]}},
{ "type":"Feature","properties":{"osm_way_id":"219023214","name":"Tesco","building":"supermarket","shop":"supermarket","other":{"addr:city":"Bradford","addr:postcode":"BD6 2DW","addr:street":"Halifax Road","addr:village":"Buttershaw","brand":"Tesco","brand:wikidata":"Q487494","fhrs:id":"997904"}}, "geometry":{"type":"MultiPolygon","coordinates":[[[[-1.79454,53.75911],[-1.79446,53.75889],[-1.79353,53.75901],[-1.7936,53.75923],[-1.7933,53.75927],[-1.79335,53.7594],[-1.79367,53.75936],[-1.79374,53.75955],[-1.79454,53.75945],[-1.79443,53.75912],[-1.79454,53.75911]]]]}},
{ "type":"Feature","properties":{"osm_way_id":"219994751","name":"Co-op Food","building":"retail","shop":"supermarket","other":{"addr:housenumber":"22","addr:postcode":"LS29 8DE","addr:street":"Brook Street","brand":"Co-op Food","brand:wikidata":"Q3277439","brand:wikipedia":"en:Co-op Food","designation":"The Co-operative Food","operator":"The Co-operative Group"}}, "geometry":{"type":"MultiPolygon","coordinates":[[[[-1.82312,53.92545],[-1.82282,53.92546],[-1.82283,53.92553],[-1.8229,53.92552],[-1.82305,53.92552],[-1.82312,53.92552],[-1.82326,53.92551],[-1.82326,53.92545],[-1.82312,53.92545]]]]}},
{ "type":"Feature","properties":{"osm_way_id":"219995788","name":"Co-op Food","building":"yes","shop":"supermarket","other":{"addr:housenumber":"162","addr:postcode":"LS29 0LY","addr:street":"Main Street","brand":"Co-op Food","brand:wikidata":"Q3277439","brand:wikipedia":"en:Co-op Food","fhrs:id":"733765","operator":"The Co-operative Group"}}, "geometry":{"type":"MultiPolygon","coordinates":[[[[-1.87881,53.94364],[-1.87849,53.9435],[-1.87835,53.9436],[-1.87867,53.94374],[-1.87881,53.94364]]]]}},
{ "type":"Feature","properties":{"osm_way_id":"224883202","name":"Spar","building":"yes","shop":"supermarket","other":{"brand":"Spar","brand:wikidata":"Q610492"}}, "geometry":{"type":"MultiPolygon","coordinates":[[[[-1.68417,53.76136],[-1.68412,53.76153],[-1.68402,53.76152],[-1.68402,53.7615],[-1.68405,53.76142],[-1.68406,53.76138],[-1.68417,53.76136]]]]}},
{ "type":"Feature","properties":{"osm_way_id":"230770235","name":"Southams","shop":"supermarket","other":{"addr:city":"Keighley","addr:housenumber":"202","addr:postcode":"BD21 4TT","addr:street":"Long Lee Lane","addr:village":"Long Lee","fhrs:id":"326967","source:addr":"FHRS Open Data"}}, "geometry":{"type":"MultiPolygon","coordinates":[[[[-1.8879,53.85933],[-1.88768,53.85938],[-1.88763,53.85931],[-1.88784,53.85926],[-1.8879,53.85933]]]]}},
{ "type":"Feature","properties":{"osm_way_id":"261734978","name":"The Co-operative Food","building":"supermarket","shop":"supermarket","other":{"addr:city":"Derby","addr:postcode":"DE22 3AS","addr:street":"Ashbourne Road","brand":"The Co-operative Food","brand:wikidata":"Q3277439","brand:wikipedia":"en:Co-op Food","fhrs:id":"687891","operator":"Central England Co-operative Society","wheelchair":"yes"}}, "geometry":{"type":"MultiPolygon","coordinates":[[[[-1.49615,52.9267],[-1.49606,52.92683],[-1.49562,52.92672],[-1.49572,52.92658],[-1.49615,52.9267]]]]}},
{ "type":"Feature","properties":{"osm_way_id":"293910215","name":"Asda","building":"yes","shop":"supermarket","other":{"addr:city":"Bradford","addr:country":"GB","addr:housenumber":"147","addr:postcode":"BD10 9AP","addr:street":"New Line","brand":"Asda","brand:wikidata":"Q297410","brand:wikipedia":"en:Asda","contact:website":"https:\/\/storelocator.asda.com\/yorkshire-&-humber\/bradford\/147-new-line-greengates","fhrs:id":"326140"}}, "geometry":{"type":"MultiPolygon","coordinates":[[[[-1.71056,53.83141],[-1.71027,53.83135],[-1.71046,53.83103],[-1.71074,53.83113],[-1.71056,53.83141]]]]}},
{ "type":"Feature","properties":{"osm_way_id":"298337643","name":"Aldi","building":"retail","shop":"supermarket","other":{"addr:city":"Bradford","addr:housenumber":"50","addr:postcode":"BD1 4RX","addr:street":"Valley Road","brand":"ALDI","brand:wikidata":"Q41171672","brand:wikipedia":"en:Aldi","building:levels":"1","fhrs:id":"324959","source:addr":"FHRS Open Data"}}, "geometry":{"type":"MultiPolygon","coordinates":[[[[-1.75253,53.80187],[-1.75235,53.80167],[-1.75173,53.80186],[-1.75191,53.80206],[-1.75218,53.80198],[-1.75253,53.80187]]]]}},
{ "type":"Feature","properties":{"osm_way_id":"298475048","name":"The Co-operative Food","building":"yes","shop":"supermarket","other":{"brand":"The Co-operative Food","brand:wikidata":"Q107617274","operator":"The Co-operative Group"}}, "geometry":{"type":"MultiPolygon","coordinates":[[[[-1.76763,53.84918],[-1.76777,53.84913],[-1.7678,53.84916],[-1.76788,53.84913],[-1.76797,53.84922],[-1.76775,53.8493],[-1.76763,53.84918]]]]}},
{ "type":"Feature","properties":{"osm_way_id":"315690389","name":"Co-op Food","building":"retail","shop":"supermarket","other":{"addr:city":"Bradford","addr:housenumber":"90","addr:postcode":"BD13 2PD","addr:street":"High Street","addr:village":"Queensbury","atm":"yes","brand":"Co-op Food","brand:wikidata":"Q3277439","brand:wikipedia":"en:Co-op Food","building:levels":"1","fhrs:id":"325499","opening_hours":"Mo-Su 07:00-22:00","operator":"The Co-operative Group","source:addr":"FSA Food Hygiene Ratings Database"}}, "geometry":{"type":"MultiPolygon","coordinates":[[[[-1.84794,53.76808],[-1.84779,53.76799],[-1.84744,53.7682],[-1.84771,53.76836],[-1.84806,53.76815],[-1.84801,53.76812],[-1.8479,53.76819],[-1.84783,53.76815],[-1.84794,53.76808]]]]}},
{ "type":"Feature","properties":{"osm_way_id":"343772846","name":"Morrisons","building":"supermarket","shop":"supermarket","other":{"addr:city":"Bradford","addr:postcode":"BD3 7HZ","addr:street":"Rushton Avenue","brand":"Morrisons","brand:wikidata":"Q922344","brand:wikipedia":"en:Morrisons","fhrs:id":"325728","opening_hours":"24\/7","source:addr":"FHRS Open Data"}}, "geometry":{"type":"MultiPolygon","coordinates":[[[[-1.71146,53.80296],[-1.71117,53.80246],[-1.7113,53.80244],[-1.71126,53.80237],[-1.71124,53.80237],[-1.71117,53.80226],[-1.71085,53.80231],[-1.71088,53.80237],[-1.71022,53.80249],[-1.71025,53.80253],[-1.71009,53.80256],[-1.71015,53.80264],[-1.71004,53.80266],[-1.71007,53.80269],[-1.7098,53.80274],[-1.70984,53.80282],[-1.70973,53.80296],[-1.70983,53.80314],[-1.71,53.80311],[-1.71004,53.80316],[-1.7103,53.80311],[-1.71035,53.80318],[-1.71146,53.80296]]]]}},
{ "type":"Feature","properties":{"osm_way_id":"359282801","name":"Costcutter","building":"retail","shop":"supermarket","other":{"addr:city":"Bradford","addr:housenumber":"495-497","addr:postcode":"BD2 4QL","addr:street":"Otley Road","brand":"Costcutter","brand:wikidata":"Q5175072","brand:wikipedia":"en:Costcutter","fhrs:id":"326196","source:addr":"FHRS Open Data"}}, "geometry":{"type":"MultiPolygon","coordinates":[[[[-1.73083,53.80855],[-1.73061,53.80866],[-1.73046,53.80856],[-1.73068,53.80845],[-1.73083,53.80855]]]]}},
{ "type":"Feature","properties":{"osm_way_id":"359283432","name":"Co-op Food","building":"yes","shop":"supermarket","other":{"addr:city":"Bradford","addr:housename":"Unit 4","addr:housenumber":"1107","addr:postcode":"BD2 4ST","addr:street":"Bolton Road","brand":"Co-op Food","brand:wikidata":"Q3277439","brand:wikipedia":"en:Co-op Food","operator":"The Co-operative Group"}}, "geometry":{"type":"MultiPolygon","coordinates":[[[[-1.73478,53.81671],[-1.73477,53.81683],[-1.73477,53.81694],[-1.73457,53.81694],[-1.73458,53.81671],[-1.73478,53.81671]]]]}},
{ "type":"Feature","properties":{"osm_way_id":"359283525","name":"Co-op Food","building":"yes","shop":"supermarket","other":{"addr:city":"Bradford","addr:housenumber":"191","addr:postcode":"BD3 0HY","addr:street":"Otley Road","addr:village":"Undercliffe","brand":"Co-op Food","brand:wikidata":"Q3277439","brand:wikipedia":"en:Co-op Food","operator":"The Co-operative Group"}}, "geometry":{"type":"MultiPolygon","coordinates":[[[[-1.74275,53.80383],[-1.74303,53.80385],[-1.743,53.80396],[-1.74272,53.80393],[-1.74275,53.80383]]]]}},
{ "type":"Feature","properties":{"osm_way_id":"359283677","name":"The Co-operative Food","building":"yes","shop":"supermarket","other":{"addr:city":"Shipley","addr:housenumber":"71-77","addr:postcode":"BD18 1HX","addr:street":"Wrose Road","addr:village":"Wrose","brand":"The Co-operative Food","brand:wikidata":"Q107617274","fhrs:id":"327919","operator":"The Co-operative Group"}}, "geometry":{"type":"MultiPolygon","coordinates":[[[[-1.75663,53.82889],[-1.7566,53.82903],[-1.75657,53.82917],[-1.7564,53.82916],[-1.7564,53.82918],[-1.75623,53.82917],[-1.75631,53.82908],[-1.75638,53.82907],[-1.75642,53.82887],[-1.75663,53.82889]]]]}},
{ "type":"Feature","properties":{"osm_way_id":"359397898","name":"The Co-operative Food","building":"yes","shop":"supermarket","other":{"addr:city":"Keighley","addr:postcode":"BD21 4ET","addr:street":"Bradford Road","addr:village":"Riddlesden","fhrs:id":"325306","operator":"The Co-operative Group","wheelchair":"yes"}}, "geometry":{"type":"MultiPolygon","coordinates":[[[[-1.88715,53.87624],[-1.88721,53.87635],[-1.88682,53.87643],[-1.88676,53.87631],[-1.88715,53.87624]]]]}},
{ "type":"Feature","properties":{"osm_way_id":"359398204","name":"The Co-operative Food","building":"yes","shop":"supermarket","other":{"addr:city":"Keighley","addr:housenumber":"125","addr:postcode":"BD21 1LW","addr:street":"Broomhill Avenue","addr:village":"Ingrow","fhrs:id":"326673","operator":"The Co-operative Group"}}, "geometry":{"type":"MultiPolygon","coordinates":[[[[-1.92337,53.85939],[-1.92361,53.85951],[-1.92345,53.85962],[-1.92321,53.8595],[-1.92337,53.85939]]]]}},
{ "type":"Feature","properties":{"osm_way_id":"359398450","name":"Co-op","building":"yes","shop":"supermarket","other":{"addr:city":"Keighley","addr:housenumber":"24","addr:postcode":"BD22 9JJ","addr:street":"Station Road","addr:village":"Oxenhope","fhrs:id":"327212","operator":"The Co-operative Group","source:addr":"FHRS Open Data"}}, "geometry":{"type":"MultiPolygon","coordinates":[[[[-1.95103,53.81092],[-1.95109,53.81105],[-1.95076,53.8111],[-1.9507,53.811],[-1.95103,53.81092]]]]}},
{ "type":"Feature","properties":{"osm_way_id":"359398899","name":"The Co-operative Food","building":"yes","shop":"supermarket","other":{"addr:city":"Bradford","addr:housenumber":"1","addr:postcode":"BD15 0HS","addr:street":"Royd Street","addr:village":"Wilsden","fhrs:id":"327795","operator":"The Co-operative Group"}}, "geometry":{"type":"MultiPolygon","coordinates":[[[[-1.86019,53.82114],[-1.86031,53.82132],[-1.86001,53.82139],[-1.85994,53.8213],[-1.86006,53.82127],[-1.86,53.82118],[-1.86019,53.82114]]]]}},
{ "type":"Feature","properties":{"osm_way_id":"359399682","name":"The Co-operative Food","building":"yes","shop":"supermarket","other":{"operator":"The Co-operative Group"}}, "geometry":{"type":"MultiPolygon","coordinates":[[[[-1.80442,53.81351],[-1.80445,53.81361],[-1.80414,53.81365],[-1.80411,53.81355],[-1.80442,53.81351]]]]}},
{ "type":"Feature","properties":{"osm_way_id":"359399863","name":"Co-op Food","building":"yes","shop":"supermarket","other":{"addr:city":"Bradford","addr:postcode":"BD9 5EP","addr:street":"Duckworth Lane","brand":"Co-op Food","brand:wikidata":"Q3277439","brand:wikipedia":"en:Co-op Food","changing_table":"no","operator":"The Co-operative Group"}}, "geometry":{"type":"MultiPolygon","coordinates":[[[[-1.78889,53.8061],[-1.78895,53.8062],[-1.7891,53.80643],[-1.78902,53.80645],[-1.78901,53.80642],[-1.7888,53.80647],[-1.78861,53.80617],[-1.78889,53.8061]]]]}},
{ "type":"Feature","properties":{"osm_way_id":"359400182","name":"The Co-operative Food","building":"retail","shop":"supermarket","other":{"addr:city":"Bradford","addr:housenumber":"141-145","addr:postcode":"BD15 7AB","addr:street":"Allerton Road","operator":"The Co-operative Group","wheelchair":"yes"}}, "geometry":{"type":"MultiPolygon","coordinates":[[[[-1.80963,53.80409],[-1.80931,53.80421],[-1.8092,53.8041],[-1.80952,53.80398],[-1.80963,53.80409]]]]}},
{ "type":"Feature","properties":{"osm_way_id":"359400756","name":"Heron Foods","building":"retail","shop":"supermarket","other":{"addr:city":"Bradford","addr:housenumber":"354","addr:postcode":"BD15 7BN","addr:street":"Allerton Road","addr:village":"Allerton","brand":"Heron Foods","brand:wikidata":"Q5743472","brand:wikipedia":"en:Heron Foods","fhrs:id":"327956","opening_hours":"Mo-Sa 08:00-20:00; Su 10:00-16:00","operator":"Heron Foods","wheelchair":"yes"}}, "geometry":{"type":"MultiPolygon","coordinates":[[[[-1.82172,53.80559],[-1.82153,53.80584],[-1.82161,53.80586],[-1.82151,53.80599],[-1.8211,53.80587],[-1.82121,53.80573],[-1.82133,53.80576],[-1.82138,53.80569],[-1.82151,53.80553],[-1.82172,53.80559]]]]}},
{ "type":"Feature","properties":{"osm_way_id":"359402150","name":"The Co-operative Food","building":"supermarket","shop":"supermarket","other":{"operator":"The Co-operative Group"}}, "geometry":{"type":"MultiPolygon","coordinates":[[[[-1.93805,53.91583],[-1.9382,53.91605],[-1.93805,53.91623],[-1.93793,53.91626],[-1.93774,53.91621],[-1.93772,53.91617],[-1.93762,53.91619],[-1.93748,53.91599],[-1.93754,53.91597],[-1.93755,53.91594],[-1.93763,53.91593],[-1.93788,53.91587],[-1.93789,53.91586],[-1.93787,53.91583],[-1.93799,53.91581],[-1.93801,53.91584],[-1.93805,53.91583]]]]}},
{ "type":"Feature","properties":{"osm_way_id":"435318962","name":"ALDI","building":"retail","shop":"supermarket","other":{"addr:city":"Bradford","addr:postcode":"BD10 8AF","addr:street":"Idlecroft Road","brand":"ALDI","brand:wikidata":"Q41171672","brand:wikipedia":"en:Aldi","fhrs:id":"894385"}}, "geometry":{"type":"MultiPolygon","coordinates":[[[[-1.73376,53.83609],[-1.73353,53.83616],[-1.73357,53.83621],[-1.73333,53.83628],[-1.73329,53.83624],[-1.73317,53.83627],[-1.7329,53.83595],[-1.73285,53.83597],[-1.73268,53.83576],[-1.73272,53.83575],[-1.7327,53.83572],[-1.73317,53.83559],[-1.73319,53.83561],[-1.73342,53.83554],[-1.73347,53.8356],[-1.73373,53.83552],[-1.7337,53.83548],[-1.73379,53.83546],[-1.73389,53.83557],[-1.73391,53.83557],[-1.73395,53.83562],[-1.73392,53.83563],[-1.73397,53.83569],[-1.73388,53.83571],[-1.73397,53.83582],[-1.73362,53.83592],[-1.73376,53.83609]]]]}},
{ "type":"Feature","properties":{"osm_way_id":"544250755","name":"Lidl","building":"supermarket","shop":"supermarket","other":{"addr:city":"Bradford","addr:housenumber":"2","addr:postcode":"BD5 7QA","addr:street":"Newall Street","brand":"Lidl","brand:wikidata":"Q151954","brand:wikipedia":"en:Lidl","fhrs:id":"325484","source:addr":"FHRS Open Data"}}, "geometry":{"type":"MultiPolygon","coordinates":[[[[-1.75998,53.78191],[-1.75957,53.7824],[-1.75907,53.78225],[-1.75919,53.78211],[-1.75926,53.78213],[-1.75952,53.78183],[-1.7598,53.78191],[-1.75984,53.78187],[-1.75998,53.78191]]]]}},
{ "type":"Feature","properties":{"osm_way_id":"583731478","name":"The Food Warehouse","building":"retail","shop":"supermarket","other":{"addr:city":"Bradford","addr:country":"GB","addr:postcode":"BD1 3AH","addr:street":"Manningham Lane","brand":"The Food Warehouse","brand:wikidata":"Q87263899","building:levels":"1","contact:website":"https:\/\/www.thefoodwarehouse.com\/store-locator\/bradford","old_name":"Toys'r Us","opening_hours":"Mo-Sa 08:00-21:00; Su 10:00-16:00","operator":"Iceland","phone":"+441274 304139"}}, "geometry":{"type":"MultiPolygon","coordinates":[[[[-1.75914,53.79863],[-1.75883,53.7983],[-1.75876,53.79833],[-1.75862,53.79818],[-1.75821,53.79831],[-1.75865,53.79879],[-1.75893,53.7987],[-1.75914,53.79863]]]]}},
{ "type":"Feature","properties":{"osm_way_id":"828270442","name":"Lidl","building":"yes","shop":"supermarket","other":{"addr:city":"Bingley","addr:postcode":"BD16 2BA","addr:street":"Thrift Way","brand":"Lidl","brand:wikidata":"Q151954","brand:wikipedia":"en:Lidl","fhrs:id":"1100122"}}, "geometry":{"type":"MultiPolygon","coordinates":[[[[-1.83797,53.84694],[-1.83722,53.84649],[-1.83687,53.84669],[-1.83762,53.84714],[-1.83797,53.84694]]]]}},
{ "type":"Feature","properties":{"osm_way_id":"851918907","name":"Aldi","building":"yes","shop":"supermarket","other":{"addr:city":"Bradford","addr:housenumber":"247","addr:postcode":"BD15 7QU","addr:street":"Allerton Road","brand":"ALDI","brand:wikidata":"Q41171672","brand:wikipedia":"en:Aldi","building:levels":"1","fhrs:id":"913549","roof:levels":"0"}}, "geometry":{"type":"MultiPolygon","coordinates":[[[[-1.81848,53.80285],[-1.81822,53.80308],[-1.81826,53.80309],[-1.81815,53.80319],[-1.81807,53.80326],[-1.81773,53.80313],[-1.81776,53.80311],[-1.81767,53.80307],[-1.81804,53.80274],[-1.81801,53.80272],[-1.81809,53.80265],[-1.81812,53.80266],[-1.81814,53.80265],[-1.81828,53.8027],[-1.81822,53.80275],[-1.81848,53.80285]]]]}},
{ "type":"Feature","properties":{"osm_way_id":"884934731","name":"Co-op Food","building":"yes","shop":"supermarket","other":{"addr:city":"Bradford","addr:housename":"Wibsey Co-op","addr:housenumber":"5-7","addr:postcode":"BD6 1TP","addr:street":"Fair Road","brand":"Co-op Food","brand:wikidata":"Q3277439","brand:wikipedia":"en:Co-op Food","opening_hours":"Mo-Sa 07:00-22:00; Su 10:00-16:00","operator":"Co-op","phone":"+441274676032","website":"https:\/\/www.coop.co.uk\/store-finder\/BD6-1TP\/5-7-fair-road"}}, "geometry":{"type":"MultiPolygon","coordinates":[[[[-1.77627,53.76653],[-1.77579,53.76651],[-1.77567,53.76636],[-1.77582,53.76623],[-1.77607,53.76635],[-1.77613,53.76635],[-1.77628,53.76632],[-1.77627,53.76653]]]]}},
{ "type":"Feature","properties":{"osm_way_id":"886567623","name":"Aldi","building":"yes","shop":"supermarket","other":{"addr:postcode":"BD20 0EA","addr:street":"Keighley Road","addr:town":"Silsden","brand":"ALDI","brand:wikidata":"Q41171672","brand:wikipedia":"en:Aldi","fhrs:id":"801538","source:addr":"FHRS Open Data"}}, "geometry":{"type":"MultiPolygon","coordinates":[[[[-1.93821,53.90891],[-1.93853,53.90869],[-1.93872,53.90855],[-1.93832,53.90835],[-1.93775,53.90875],[-1.93785,53.9088],[-1.93791,53.90876],[-1.93821,53.90891]]]]}},
{ "type":"Feature","properties":{"osm_way_id":"890917229","name":"Aldi","building":"retail","shop":"supermarket","other":{"addr:city":"Bingley","addr:postcode":"BD16 2AZ","addr:street":"Dubb Lane","brand":"ALDI","brand:wikidata":"Q41171672","brand:wikipedia":"en:Aldi","fhrs:id":"801503"}}, "geometry":{"type":"MultiPolygon","coordinates":[[[[-1.83526,53.84811],[-1.83527,53.84809],[-1.83534,53.84781],[-1.83455,53.84774],[-1.83454,53.84776],[-1.83449,53.84795],[-1.83444,53.84795],[-1.83439,53.84794],[-1.83437,53.84802],[-1.83458,53.84804],[-1.83457,53.84805],[-1.83463,53.84805],[-1.83463,53.84807],[-1.83498,53.8481],[-1.83498,53.84808],[-1.83526,53.84811]]]]}},
{ "type":"Feature","properties":{"osm_way_id":"924866716","name":"Aldi","building":"retail","shop":"supermarket","other":{"addr:city":"Bradford","addr:street":"Leeds Old Road","brand":"ALDI","brand:wikidata":"Q41171672","brand:wikipedia":"en:Aldi"}}, "geometry":{"type":"MultiPolygon","coordinates":[[[[-1.71187,53.79939],[-1.71229,53.79987],[-1.71273,53.79973],[-1.71254,53.79951],[-1.71263,53.79948],[-1.71254,53.79938],[-1.71246,53.7994],[-1.71233,53.79925],[-1.71187,53.79939]]]]}},
{ "type":"Feature","properties":{"osm_way_id":"946052483","name":"Fresh E-cigarettes","building":"yes","shop":"supermarket","other":{"brand":"Fresh","brand:wikidata":"Q50737403","brand:wikipedia":"sk:Fresh"}}, "geometry":{"type":"MultiPolygon","coordinates":[[[[-1.77133,53.76724],[-1.77125,53.76719],[-1.77124,53.76719],[-1.77127,53.76725],[-1.77133,53.76724]]]]}}
]
}
