{
"type": "FeatureCollection",
"features": [
{ "type":"Feature","properties":{"osm_way_id":"23438805","building":"warehouse"},"geometry":{"type":"MultiPolygon","coordinates":[[[[-0.47864,51.48223],[-0.47794,51.48218],[-0.47792,51.48226],[-0.47712,51.48219],[-0.47702,51.48223],[-0.47695,51.48252],[-0.47682,51.48256],[-0.47675,51.4829],[-0.47686,51.48295],[-0.47676,51.48337],[-0.47761,51.48344],[-0.47769,51.4834],[-0.47774,51.48316],[-0.47752,51.48314],[-0.47764,51.4826],[-0.47828,51.48265],[-0.47825,51.48278],[-0.4785,51.48281],[-0.47864,51.48223]]]]}},
{ "type":"Feature","properties":{"osm_way_id":"23438806","name":"Saints Transport","building":"warehouse","other":{"addr:housename":"Templar House","addr:postcode":"UB7 0LJ"}}, "geometry":{"type":"MultiPolygon","coordinates":[[[[-0.47855,51.48359],[-0.47871,51.48289],[-0.47824,51.48286],[-0.47815,51.48326],[-0.47793,51.48325],[-0.47788,51.48349],[-0.47796,51.48355],[-0.47855,51.48359]]]]}},
{ "type":"Feature","properties":{"osm_way_id":"23438811","name":"Silva Timber Products","building":"warehouse"},"geometry":{"type":"MultiPolygon","coordinates":[[[[-0.48027,51.48297],[-0.48034,51.48261],[-0.48002,51.48258],[-0.47995,51.48294],[-0.48027,51.48297]]]]}},
{ "type":"Feature","properties":{"osm_way_id":"23438812","building":"warehouse"},"geometry":{"type":"MultiPolygon","coordinates":[[[[-0.47993,51.48293],[-0.48,51.48257],[-0.47967,51.48254],[-0.4796,51.48289],[-0.47993,51.48293]]]]}},
{ "type":"Feature","properties":{"osm_way_id":"23438813","name":"Europcar","amenity":"car_rental","building":"warehouse","other":{"addr:street":"Skyport Drive","addr:unit":"Unit 4"}}, "geometry":{"type":"MultiPolygon","coordinates":[[[[-0.4796,51.48286],[-0.47967,51.4825],[-0.47935,51.48247],[-0.47928,51.48282],[-0.4796,51.48286]]]]}},
{ "type":"Feature","properties":{"osm_way_id":"23438814","name":"Europcar","building":"warehouse","other":{"addr:housenumber":"Unit 5","addr:street":"Skyport Drive"}}, "geometry":{"type":"MultiPolygon","coordinates":[[[[-0.47926,51.48282],[-0.47933,51.48246],[-0.479,51.48243],[-0.47894,51.48278],[-0.47926,51.48282]]]]}},
{ "type":"Feature","properties":{"osm_way_id":"46558574","name":"Ocado","building":"warehouse","other":{"addr:city":"Ruislip","addr:postcode":"HA4 0JU","addr:street":"Stonefield Way","industrial":"depot","operator":"Ocado"}}, "geometry":{"type":"MultiPolygon","coordinates":[[[[-0.38536,51.55721],[-0.38523,51.55724],[-0.38484,51.55736],[-0.38424,51.55656],[-0.38476,51.5564],[-0.38477,51.55642],[-0.38496,51.55666],[-0.38497,51.55669],[-0.38507,51.55681],[-0.3853,51.55712],[-0.38534,51.55718],[-0.38536,51.55721]]]]}},
{ "type":"Feature","properties":{"osm_way_id":"162964041","building":"warehouse"},"geometry":{"type":"MultiPolygon","coordinates":[[[[-0.45904,51.4576],[-0.45896,51.45791],[-0.45804,51.45782],[-0.45805,51.45779],[-0.45807,51.45773],[-0.4581,51.45759],[-0.45812,51.45753],[-0.45813,51.45751],[-0.45904,51.4576]]]]}},
{ "type":"Feature","properties":{"osm_way_id":"163096441","name":"BA Uniform Stores","building":"warehouse"},"geometry":{"type":"MultiPolygon","coordinates":[[[[-0.42599,51.46839],[-0.42536,51.46854],[-0.42523,51.46834],[-0.42587,51.46819],[-0.42599,51.46839]]]]}},
{ "type":"Feature","properties":{"osm_way_id":"190449005","building":"warehouse","other":{"addr:housenumber":"8,9,10","addr:street":"Skyport Drive"}}, "geometry":{"type":"MultiPolygon","coordinates":[[[[-0.48007,51.48398],[-0.47963,51.48394],[-0.47978,51.48331],[-0.48022,51.48335],[-0.48007,51.48398]]]]}},
{ "type":"Feature","properties":{"osm_way_id":"190449019","building":"warehouse"},"geometry":{"type":"MultiPolygon","coordinates":[[[[-0.479,51.48386],[-0.47872,51.48384],[-0.47887,51.48319],[-0.47915,51.48322],[-0.479,51.48386]]]]}},
{ "type":"Feature","properties":{"osm_way_id":"658909717","name":"Ocado","building":"warehouse","other":{"addr:city":"West Drayton","addr:housenumber":"367-368","addr:postcode":"UB7 9BL","addr:street":"Stockley Close","building:levels":"2"}}, "geometry":{"type":"MultiPolygon","coordinates":[[[[-0.44884,51.5063],[-0.44833,51.5062],[-0.44783,51.50611],[-0.44787,51.50603],[-0.44756,51.50597],[-0.44753,51.50597],[-0.4475,51.50603],[-0.44729,51.50646],[-0.44864,51.50672],[-0.44884,51.5063]]]]}},
{ "type":"Feature","properties":{"osm_way_id":"854167188","building":"warehouse"},"geometry":{"type":"MultiPolygon","coordinates":[[[[-0.41547,51.47124],[-0.41543,51.47118],[-0.41518,51.47125],[-0.41523,51.47131],[-0.41547,51.47124]]]]}},
{ "type":"Feature","properties":{"osm_way_id":"881720565","building":"warehouse"},"geometry":{"type":"MultiPolygon","coordinates":[[[[-0.42239,51.46899],[-0.4224,51.46888],[-0.42221,51.46887],[-0.4222,51.46898],[-0.42239,51.46899]]]]}},
{ "type":"Feature","properties":{"osm_way_id":"1008123325","building":"warehouse"},"geometry":{"type":"MultiPolygon","coordinates":[[[[-0.4927,51.46935],[-0.49252,51.46935],[-0.49252,51.46918],[-0.4927,51.46918],[-0.4927,51.46935]]]]}},
{ "type":"Feature","properties":{"osm_way_id":"1008123330","building":"warehouse","other":{"abandoned:building":"yes"}}, "geometry":{"type":"MultiPolygon","coordinates":[[[[-0.49318,51.47101],[-0.49306,51.47099],[-0.49316,51.47082],[-0.49328,51.47085],[-0.49318,51.47101]]]]}},
{ "type":"Feature","properties":{"osm_way_id":"1008123331","building":"warehouse","other":{"abandoned:building":"yes"}}, "geometry":{"type":"MultiPolygon","coordinates":[[[[-0.49286,51.47093],[-0.49274,51.47091],[-0.49283,51.47075],[-0.49295,51.47078],[-0.49286,51.47093]]]]}}
]
}
