{
"type": "FeatureCollection",
"features": [
{ "type":"Feature","properties":{"osm_id":"8340502087","other":{"amenity":"post_box","post_box:type":"wall"}}, "geometry":{"type":"Point","coordinates":[-0.65452,53.58609 ]}},
{ "type":"Feature","properties":{"osm_way_id":"593172495","name":"Scunthorpe Delivery Office","amenity":"post_depot","building":"warehouse","other":{"addr:city":"Scunthorpe","addr:postcode":"DN15 7AA","addr:street":"Church Lane","old_name":"Scunthorpe Post Office","operator":"Royal Mail"}}, "geometry":{"type":"MultiPolygon","coordinates":[[[[-0.65503,53.58608],[-0.65454,53.5861],[-0.65453,53.58609],[-0.65452,53.58609],[-0.65446,53.58609],[-0.65442,53.58609],[-0.65439,53.58608],[-0.65436,53.58607],[-0.65433,53.58605],[-0.65431,53.58603],[-0.6543,53.58601],[-0.65429,53.58593],[-0.65424,53.58593],[-0.65419,53.5857],[-0.65438,53.58569],[-0.65443,53.58593],[-0.65449,53.58593],[-0.65448,53.58583],[-0.65447,53.58573],[-0.65496,53.58571],[-0.65496,53.58574],[-0.6553,53.58573],[-0.6553,53.58566],[-0.65524,53.58566],[-0.65523,53.5856],[-0.65534,53.58559],[-0.65535,53.58561],[-0.65537,53.58572],[-0.6554,53.58587],[-0.65542,53.58587],[-0.65545,53.58602],[-0.6554,53.58602],[-0.6554,53.5861],[-0.65524,53.5861],[-0.65524,53.58602],[-0.65516,53.58602],[-0.65514,53.58588],[-0.65498,53.58588],[-0.655,53.58602],[-0.65502,53.58602],[-0.65503,53.58608]]]]}}
]
}
