{
"type": "FeatureCollection",
"features": [
{ "type":"Feature","properties":{"osm_id":"300149741","name":"Co-op Food","other":{"addr:city":"Southampton","addr:country":"GB","addr:housenumber":"117","addr:postcode":"SO14 2EA","addr:street":"High Street","brand":"Co-op Food","brand:wikidata":"Q3277439","brand:wikipedia":"en:Co-op Food","fhrs:id":"220335","operator":"The Co-operative Group","operator:wikidata":"Q117202","operator:wikipedia":"en:The Co-operative Group","shop":"supermarket"}}, "geometry":{"type":"Point","coordinates":[-1.40416,50.89806 ]}},
{ "type":"Feature","properties":{"osm_id":"6562440941","name":"Heron Foods","other":{"addr:city":"Bolton","addr:country":"GB","addr:housenumber":"150","addr:postcode":"BL2 2HR","addr:street":"Tonge Moor Road","brand":"Heron Foods","brand:wikidata":"Q5743472","brand:wikipedia":"en:Heron Foods","contact:website":"https:\/\/heronfoods.com\/storelocator\/store-details\/tonge-moor","fhrs:id":"1216674","shop":"supermarket"}}, "geometry":{"type":"Point","coordinates":[-2.41197,53.58801 ]}},
{ "type":"Feature","properties":{"osm_id":"7682910413","name":"Aldi","other":{"addr:city":"Bolton","addr:country":"GB","addr:postcode":"BL3 2NB","addr:street":"Vincent Way","brand":"ALDI","brand:wikidata":"Q41171672","brand:wikipedia":"en:Aldi","contact:website":"https:\/\/www.aldi.co.uk\/store\/s-uk-E1183","fhrs:id":"1269890","shop":"supermarket"}}, "geometry":{"type":"Point","coordinates":[-2.41427,53.5661 ]}},
{ "type":"Feature","properties":{"osm_id":"8450150894","name":"Lidl","other":{"addr:country":"GB","addr:postcode":"BL2 1HE","addr:street":"Manchester Road","brand":"Lidl","brand:wikidata":"Q151954","brand:wikipedia":"en:Lidl","fhrs:id":"1349165","shop":"supermarket","survey:date":"2021-10-09"}}, "geometry":{"type":"Point","coordinates":[-2.41146,53.56165 ]}},
{ "type":"Feature","properties":{"osm_id":"9938877","name":"Asda","type":"multipolygon","building":"yes","shop":"supermarket","other":{"addr:city":"Bolton","addr:country":"GB","addr:postcode":"BL1 8NN","addr:street":"Blackburn Road","brand":"Asda","brand:wikidata":"Q297410","brand:wikipedia":"en:Asda","contact:website":"https:\/\/storelocator.asda.com\/north-west\/bolton\/moss-bank-way","fhrs:id":"88951","operator":"Asda Stores Ltd"}}, "geometry":{"type":"MultiPolygon","coordinates":[[[[-2.43332,53.60056],[-2.43448,53.60059],[-2.4345,53.60019],[-2.43417,53.60019],[-2.43417,53.6001],[-2.43427,53.6001],[-2.43428,53.59992],[-2.43434,53.59989],[-2.4343,53.59986],[-2.43437,53.59982],[-2.43428,53.59977],[-2.43422,53.59981],[-2.43418,53.59978],[-2.43412,53.59982],[-2.43388,53.59981],[-2.43388,53.59985],[-2.43337,53.59984],[-2.43332,53.60056]]]]}},
{ "type":"Feature","properties":{"osm_way_id":"10804706","name":"Asda","building":"retail","shop":"supermarket","other":{"addr:city":"London","addr:country":"GB","addr:housenumber":"1","addr:parentstreet":"Marshall Road","addr:postcode":"E10 5NH","addr:street":"Leyton Mills","branch":"Leyton Mills","brand":"Asda","brand:wikidata":"Q297410","brand:wikipedia":"en:Asda","building:levels":"1","contact:facebook":"https:\/\/www.facebook.com\/asda\/","contact:twitter":"@asda","contact:website":"https:\/\/storelocator.asda.com\/london\/leyton\/marshall-road","fhrs:id":"514237","operator":"Asda Stores Ltd","source:addr":"FHRS Open Data","wheelchair":"yes"}}, "geometry":{"type":"MultiPolygon","coordinates":[[[[-0.01014,51.55655],[-0.00888,51.55707],[-0.00809,51.55629],[-0.00813,51.55627],[-0.00805,51.5562],[-0.00819,51.55615],[-0.00826,51.55622],[-0.00867,51.55605],[-0.00861,51.556],[-0.00929,51.55572],[-0.00931,51.55574],[-0.00958,51.55564],[-0.00976,51.55582],[-0.0095,51.55592],[-0.01014,51.55655]]]]}},
{ "type":"Feature","properties":{"osm_way_id":"33079389","name":"Aldi","building":"yes","shop":"supermarket","other":{"addr:postcode":"BL6 5QH","addr:street":"Mason Street","brand":"ALDI","brand:wikidata":"Q41171672","brand:wikipedia":"en:Aldi","fhrs:id":"136362","opening_hours":"Mo-Sa 08:00-22:00; Su 10:00-16:00","source:addr":"FHRS Open Data"}}, "geometry":{"type":"MultiPolygon","coordinates":[[[[-2.54991,53.59722],[-2.55016,53.59744],[-2.55081,53.59719],[-2.55056,53.59696],[-2.54991,53.59722]]]]}},
{ "type":"Feature","properties":{"osm_way_id":"55136516","name":"Asda","building":"yes","shop":"supermarket","other":{"addr:city":"Farnworth","addr:country":"GB","addr:postcode":"BL4 9DT","addr:street":"Brackley Street","brand":"Asda","brand:wikidata":"Q297410","brand:wikipedia":"en:Asda","contact:phone":"+44 1204 709809","contact:website":"https:\/\/storelocator.asda.com\/north-west\/bolton\/brackley-street-farnworth","fhrs:id":"89295","operator":"Asda Stores Ltd","wheelchair":"yes"}}, "geometry":{"type":"MultiPolygon","coordinates":[[[[-2.39715,53.54753],[-2.39707,53.54733],[-2.39639,53.54743],[-2.39638,53.54739],[-2.39623,53.54741],[-2.39583,53.54747],[-2.39592,53.54768],[-2.39596,53.54768],[-2.39598,53.54772],[-2.39603,53.54771],[-2.39615,53.54799],[-2.39628,53.54797],[-2.39634,53.54812],[-2.39668,53.54808],[-2.39666,53.54804],[-2.39702,53.54799],[-2.39701,53.54796],[-2.39719,53.54794],[-2.39717,53.54789],[-2.39728,53.54787],[-2.39721,53.54771],[-2.39747,53.54767],[-2.39743,53.54756],[-2.39754,53.54755],[-2.39751,53.54746],[-2.39739,53.54748],[-2.39739,53.5475],[-2.39715,53.54753]]]]}},
{ "type":"Feature","properties":{"osm_way_id":"55952848","name":"Aldi","building":"yes","shop":"supermarket","other":{"addr:postcode":"BL3 6DH","addr:street":"Trinity Street","brand":"ALDI","brand:wikidata":"Q41171672","brand:wikipedia":"en:Aldi","fhrs:id":"70905","source:addr":"FHRS Open Data","wheelchair":"yes"}}, "geometry":{"type":"MultiPolygon","coordinates":[[[[-2.43332,53.57324],[-2.43281,53.57323],[-2.43278,53.5737],[-2.43329,53.57371],[-2.43332,53.57324]]]]}},
{ "type":"Feature","properties":{"osm_way_id":"55953717","name":"Sainsbury's","building":"yes","shop":"supermarket","other":{"addr:postcode":"BL3 6DG","addr:street":"Trinity Street","brand":"Sainsbury's","brand:wikidata":"Q152096","brand:wikipedia":"en:Sainsbury's","fhrs:id":"52205","source:addr":"FHRS Open Data","toilets:wheelchair":"yes","website":"https:\/\/stores.sainsburys.co.uk\/2835\/bolton","wheelchair":"yes"}}, "geometry":{"type":"MultiPolygon","coordinates":[[[[-2.43024,53.57231],[-2.43022,53.57243],[-2.43046,53.57244],[-2.43045,53.57251],[-2.4302,53.57249],[-2.43011,53.57296],[-2.42962,53.57293],[-2.42959,53.57308],[-2.42858,53.573],[-2.42861,53.57284],[-2.42866,53.57284],[-2.42877,53.57233],[-2.42903,53.57223],[-2.43024,53.57231]]]]}},
{ "type":"Feature","properties":{"osm_way_id":"56249607","name":"Morrisons","building":"yes","shop":"supermarket","other":{"addr:city":"Bolton","addr:postcode":"BL2 6QT","addr:street":"Bury Road","brand":"Morrisons","brand:wikidata":"Q922344","brand:wikipedia":"en:Morrisons","fhrs:id":"66562"}}, "geometry":{"type":"MultiPolygon","coordinates":[[[[-2.38492,53.58099],[-2.38421,53.58087],[-2.38414,53.5809],[-2.38406,53.58106],[-2.38488,53.58119],[-2.38491,53.58114],[-2.38486,53.58113],[-2.38492,53.58099]]]]}},
{ "type":"Feature","properties":{"osm_way_id":"84171991","name":"Tesco","building":"retail","shop":"supermarket","other":{"addr:city":"Bolton","addr:housename":"Tesco","addr:postcode":"BL3 1AA","addr:street":"Crossley Street","brand":"Tesco","brand:wikidata":"Q487494","brand:wikipedia":"en:Tesco","contact:website":"https:\/\/www.tesco.com\/store-locator\/bolton\/crossley-st","opening_hours":"07:00-23:00","operator":"tesco"}}, "geometry":{"type":"MultiPolygon","coordinates":[[[[-2.37349,53.56443],[-2.37344,53.5644],[-2.37327,53.56428],[-2.37331,53.56426],[-2.37328,53.56424],[-2.37325,53.56425],[-2.37317,53.5642],[-2.3731,53.56416],[-2.37301,53.56409],[-2.37228,53.56447],[-2.37277,53.56481],[-2.37349,53.56443]]]]}},
{ "type":"Feature","properties":{"osm_way_id":"127541191","name":"Gee Tees","building":"retail","shop":"supermarket","other":{"wheelchair":"yes"}}, "geometry":{"type":"MultiPolygon","coordinates":[[[[-2.52228,53.54809],[-2.52233,53.54789],[-2.52282,53.54793],[-2.52277,53.54813],[-2.52228,53.54809]]]]}},
{ "type":"Feature","properties":{"osm_way_id":"169687681","name":"Tesco Extra","building":"yes","shop":"supermarket","other":{"addr:postcode":"BL6 6JS","addr:street":"Mansell Way","alt_name":"Tesco Bolton Horwich Extra","brand":"Tesco Extra","brand:wikidata":"Q25172225","brand:wikipedia":"en:Tesco Extra","fhrs:id":"51243","website":"https:\/\/www.tesco.com\/store-locator\/bolton\/mansell-way"}}, "geometry":{"type":"MultiPolygon","coordinates":[[[[-2.53292,53.58052],[-2.53233,53.58087],[-2.53291,53.58122],[-2.53307,53.58112],[-2.53281,53.58096],[-2.53293,53.58089],[-2.53329,53.58111],[-2.53301,53.58128],[-2.53312,53.58135],[-2.53191,53.58205],[-2.53149,53.58229],[-2.53138,53.58222],[-2.53059,53.58172],[-2.53083,53.58158],[-2.53075,53.58153],[-2.53157,53.58106],[-2.53165,53.58111],[-2.53195,53.58094],[-2.53199,53.58097],[-2.53226,53.58081],[-2.53219,53.58077],[-2.53241,53.58064],[-2.53222,53.58053],[-2.53232,53.58047],[-2.53231,53.58046],[-2.53239,53.58041],[-2.53263,53.58056],[-2.53281,53.58045],[-2.53292,53.58052]]]]}},
{ "type":"Feature","properties":{"osm_way_id":"170004169","name":"Morrisons","building":"yes","shop":"supermarket","other":{"addr:postcode":"BL1 1PQ","addr:street":"Black Horse Street","brand":"Morrisons","brand:wikidata":"Q922344","brand:wikipedia":"en:Morrisons","fhrs:id":"89162","wheelchair":"yes"}}, "geometry":{"type":"MultiPolygon","coordinates":[[[[-2.42979,53.57492],[-2.42981,53.57497],[-2.42981,53.57502],[-2.42981,53.57508],[-2.42982,53.5751],[-2.42976,53.57512],[-2.42971,53.57515],[-2.42967,53.57519],[-2.42965,53.57518],[-2.42963,53.57521],[-2.42961,53.57527],[-2.42966,53.57535],[-2.4295,53.57538],[-2.42946,53.57533],[-2.42932,53.57537],[-2.4293,53.57534],[-2.42925,53.57534],[-2.42916,53.57535],[-2.42915,53.57534],[-2.42884,53.57533],[-2.42883,53.57531],[-2.42879,53.57532],[-2.4284,53.57471],[-2.42863,53.57465],[-2.42861,53.57461],[-2.42865,53.5746],[-2.42939,53.57443],[-2.42955,53.57468],[-2.42961,53.57471],[-2.42968,53.57476],[-2.42973,53.5748],[-2.42976,53.57479],[-2.42983,53.57491],[-2.42979,53.57492]]]]}},
{ "type":"Feature","properties":{"osm_way_id":"170261971","name":"Morrisons","building":"yes","shop":"supermarket","other":{"addr:postcode":"BL1 4EU","addr:street":"Mornington Road","brand":"Morrisons","brand:wikidata":"Q922344","brand:wikipedia":"en:Morrisons","fhrs:id":"144814","source:addr":"FHRS Open Data"}}, "geometry":{"type":"MultiPolygon","coordinates":[[[[-2.45289,53.58567],[-2.45316,53.58577],[-2.45312,53.58581],[-2.45339,53.58591],[-2.45329,53.58601],[-2.45361,53.58613],[-2.45357,53.58617],[-2.45378,53.58625],[-2.45338,53.58664],[-2.45331,53.58662],[-2.45314,53.58678],[-2.45259,53.58658],[-2.45255,53.58661],[-2.45209,53.58645],[-2.45244,53.5861],[-2.45225,53.58603],[-2.45228,53.586],[-2.45245,53.58584],[-2.45258,53.58572],[-2.45264,53.58574],[-2.45272,53.58566],[-2.45285,53.58571],[-2.45289,53.58567]]]]}},
{ "type":"Feature","properties":{"osm_way_id":"172855659","name":"Tesco","building":"yes","shop":"supermarket","other":{"addr:postcode":"BL4 9LS","addr:street":"Longcauseway","brand":"Tesco","brand:wikidata":"Q487494","brand:wikipedia":"en:Tesco","fhrs:id":"66511","source:addr":"FHRS Open Data","wheelchair":"yes"}}, "geometry":{"type":"MultiPolygon","coordinates":[[[[-2.39798,53.54347],[-2.39777,53.54267],[-2.39655,53.54278],[-2.39685,53.5439],[-2.39708,53.54388],[-2.39699,53.54357],[-2.39798,53.54347]]]]}},
{ "type":"Feature","properties":{"osm_way_id":"187161282","name":"Sainsbury's","building":"yes","shop":"supermarket","other":{"addr:postcode":"BL5 3RD","addr:street":"Cricketers Way","brand":"Sainsbury's","brand:wikidata":"Q152096","brand:wikipedia":"en:Sainsbury's","description":"This Sainsbury's also has a Argos shop","fhrs:id":"76306","payment:cash":"yes","payment:contactless":"yes","payment:credit_cards":"yes","source:addr":"FHRS Open Data","toilets:wheelchair":"yes","website":"https:\/\/stores.sainsburys.co.uk\/2097\/westhoughton","wheelchair":"yes"}}, "geometry":{"type":"MultiPolygon","coordinates":[[[[-2.52544,53.54651],[-2.52544,53.546],[-2.52417,53.54601],[-2.52417,53.54618],[-2.52417,53.54652],[-2.52544,53.54651]]]]}},
{ "type":"Feature","properties":{"osm_way_id":"189827237","name":"Tesco Extra","building":"yes","shop":"supermarket","other":{"brand":"Tesco Extra","brand:wikidata":"Q25172225","brand:wikipedia":"en:Tesco Extra","website":"https:\/\/www.tesco.com\/store-locator\/bolton\/mansell-way"}}, "geometry":{"type":"MultiPolygon","coordinates":[[[[-2.52884,53.58155],[-2.52891,53.58159],[-2.52875,53.58168],[-2.52868,53.58164],[-2.52884,53.58155]]]]}},
{ "type":"Feature","properties":{"osm_way_id":"320749629","name":"Asda","building":"yes","shop":"supermarket","other":{"addr:city":"Horwich","addr:country":"GB","addr:housename":"Middlebrook Retail Park","addr:housenumber":"43-53","addr:postcode":"BL6 6JA","addr:street":"The Linkway","alt_name":"ASDA Horwich Supercentre","brand":"Asda","brand:wikidata":"Q297410","brand:wikipedia":"en:Asda","contact:website":"https:\/\/storelocator.asda.com\/north-west\/horwich\/43-53-the-linkway","fhrs:id":"40321","operator":"Asda Stores Ltd","toilets:wheelchair":"yes","wheelchair":"yes"}}, "geometry":{"type":"MultiPolygon","coordinates":[[[[-2.53499,53.58491],[-2.53477,53.58506],[-2.53476,53.58506],[-2.5346,53.58515],[-2.53447,53.58508],[-2.53443,53.58511],[-2.5342,53.58497],[-2.53416,53.58499],[-2.53412,53.58497],[-2.534,53.58505],[-2.53366,53.58482],[-2.53382,53.58472],[-2.5336,53.5846],[-2.53353,53.58464],[-2.53346,53.5846],[-2.53356,53.58455],[-2.53342,53.58447],[-2.53419,53.58397],[-2.53445,53.58413],[-2.53457,53.58404],[-2.53541,53.5845],[-2.53528,53.58459],[-2.53539,53.58466],[-2.53499,53.58491]]]]}},
{ "type":"Feature","properties":{"osm_way_id":"362358594","name":"Spar","building":"yes","shop":"supermarket","other":{"brand":"Spar","brand:wikidata":"Q610492"}}, "geometry":{"type":"MultiPolygon","coordinates":[[[[-2.43188,53.60982],[-2.43176,53.60984],[-2.43172,53.60974],[-2.43183,53.60972],[-2.43188,53.60982]]]]}},
{ "type":"Feature","properties":{"osm_way_id":"421947695","name":"Asda","building":"yes","shop":"supermarket","other":{"addr:city":"Bolton","addr:country":"GB","addr:postcode":"BL3 2QS","addr:street":"Manchester Road","brand":"Asda","brand:wikidata":"Q297410","brand:wikipedia":"en:Asda","contact:website":"https:\/\/storelocator.asda.com\/north-west\/greater-manchester\/manchester-road-bolton","fhrs:id":"59584","operator":"Asda Stores Ltd"}}, "geometry":{"type":"MultiPolygon","coordinates":[[[[-2.41838,53.56925],[-2.41802,53.5694],[-2.41832,53.56965],[-2.41765,53.56993],[-2.41755,53.56984],[-2.41733,53.56993],[-2.41714,53.56977],[-2.41698,53.56983],[-2.41652,53.56944],[-2.41791,53.56886],[-2.41838,53.56925]]]]}},
{ "type":"Feature","properties":{"osm_way_id":"480941362","name":"Morrisons","building":"yes","shop":"supermarket","other":{"addr:postcode":"BL2 3HN","addr:street":"Lea Gate","brand":"Morrisons","brand:wikidata":"Q922344","brand:wikipedia":"en:Morrisons","fhrs:id":"145663","source:addr":"FHRS Open Data"}}, "geometry":{"type":"MultiPolygon","coordinates":[[[[-2.39801,53.60431],[-2.39711,53.60387],[-2.39673,53.60415],[-2.39667,53.60412],[-2.39652,53.60424],[-2.39645,53.60424],[-2.39646,53.60436],[-2.39654,53.60435],[-2.39655,53.60438],[-2.39678,53.6045],[-2.39682,53.60451],[-2.39687,53.60448],[-2.39738,53.60472],[-2.39749,53.60471],[-2.39765,53.60461],[-2.39749,53.60453],[-2.39768,53.60439],[-2.39782,53.60445],[-2.39801,53.60431]]]]}},
{ "type":"Feature","properties":{"osm_way_id":"506486421","name":"Lidl","building":"yes","shop":"supermarket","other":{"addr:city":"Bolton","addr:country":"GB","addr:postcode":"BL3 6JR","addr:street":"Derby Street","brand":"Lidl","brand:wikidata":"Q151954","brand:wikipedia":"en:Lidl","fhrs:id":"66059","opening_hours":"Mo-Fr 08:00-20:00; Sa 08:00-20:00; Su 10:00-16:00"}}, "geometry":{"type":"MultiPolygon","coordinates":[[[[-2.43982,53.5709],[-2.4398,53.57089],[-2.43908,53.57055],[-2.43912,53.57052],[-2.43888,53.57041],[-2.43863,53.57059],[-2.43968,53.57109],[-2.43978,53.57101],[-2.43971,53.57098],[-2.43982,53.5709]]]]}},
{ "type":"Feature","properties":{"osm_way_id":"506569524","name":"Aldi","building":"yes","shop":"supermarket","other":{"addr:postcode":"BL1 2HJ","addr:street":"Higher Bridge Street","brand":"ALDI","brand:wikidata":"Q41171672","brand:wikipedia":"en:Aldi","fhrs:id":"145093","source:addr":"FHRS Open Data"}}, "geometry":{"type":"MultiPolygon","coordinates":[[[[-2.43086,53.58508],[-2.43102,53.58564],[-2.43082,53.58566],[-2.43081,53.58561],[-2.43062,53.58563],[-2.43061,53.58557],[-2.43052,53.58526],[-2.43051,53.58524],[-2.43046,53.58524],[-2.43043,53.58512],[-2.43086,53.58508]]]]}},
{ "type":"Feature","properties":{"osm_way_id":"506609568","name":"Co-op Food","building":"yes","shop":"supermarket","other":{"addr:city":"Bolton","addr:housenumber":"687","addr:postcode":"BL2 6HP","addr:street":"Bury Road","brand":"Co-op Food","brand:wikidata":"Q3277439","brand:wikipedia":"en:Co-op Food","fhrs:id":"88989","phone":"+44 1204 529676"}}, "geometry":{"type":"MultiPolygon","coordinates":[[[[-2.38937,53.58148],[-2.38935,53.58137],[-2.38887,53.5814],[-2.38889,53.5815],[-2.38937,53.58148]]]]}},
{ "type":"Feature","properties":{"osm_way_id":"507011568","name":"Asda","building":"yes","shop":"supermarket","other":{"addr:city":"Bolton","addr:country":"GB","addr:housenumber":"226","addr:postcode":"BL3 4EB","addr:street":"St Helens Road","brand":"Asda","brand:wikidata":"Q297410","brand:wikipedia":"en:Asda","contact:website":"https:\/\/storelocator.asda.com\/north-west\/bolton\/st-helens-road-daubhill","fhrs:id":"66707","operator":"Asda Stores Ltd"}}, "geometry":{"type":"MultiPolygon","coordinates":[[[[-2.45441,53.56248],[-2.45434,53.56222],[-2.4537,53.56227],[-2.45375,53.56248],[-2.45405,53.56245],[-2.45406,53.56251],[-2.45441,53.56248]]]]}},
{ "type":"Feature","properties":{"osm_way_id":"507011578","name":"Spar","building":"yes","shop":"supermarket","other":{"addr:housenumber":"244","addr:postcode":"BL3 5HP","addr:street":"Deane Road","brand":"Spar","brand:wikidata":"Q610492","brand:wikipedia":"en:Spar (retailer)","fhrs:id":"66413","source:addr":"FHRS Open Data"}}, "geometry":{"type":"MultiPolygon","coordinates":[[[[-2.44592,53.57285],[-2.44588,53.57276],[-2.44565,53.57279],[-2.4457,53.57296],[-2.4458,53.57294],[-2.44577,53.57287],[-2.44592,53.57285]]]]}},
{ "type":"Feature","properties":{"osm_way_id":"507151340","name":"Lidl","building":"yes","shop":"supermarket","other":{"addr:postcode":"BL4 9HF","addr:street":"Albert Road","brand":"Lidl","brand:wikidata":"Q151954","brand:wikipedia":"en:Lidl","fhrs:id":"50263","source:addr":"FHRS Open Data"}}, "geometry":{"type":"MultiPolygon","coordinates":[[[[-2.39885,53.54615],[-2.39887,53.54598],[-2.39883,53.54598],[-2.39886,53.54571],[-2.3986,53.5457],[-2.3986,53.54564],[-2.39849,53.54564],[-2.39844,53.54614],[-2.39885,53.54615]]]]}},
{ "type":"Feature","properties":{"osm_way_id":"507151400","name":"Heron Foods","building":"yes","shop":"supermarket","other":{"addr:city":"Bolton","addr:country":"GB","addr:housenumber":"52B","addr:postcode":"BL4 9DR","addr:street":"Brackley Street","brand":"Heron Foods","brand:wikidata":"Q5743472","brand:wikipedia":"en:Heron Foods","contact:website":"https:\/\/heronfoods.com\/index.php\/storelocator\/store-details\/farnworth","fhrs:id":"50327"}}, "geometry":{"type":"MultiPolygon","coordinates":[[[[-2.39553,53.54767],[-2.39553,53.54766],[-2.39572,53.54763],[-2.39577,53.54765],[-2.39585,53.54784],[-2.39582,53.54786],[-2.39572,53.54788],[-2.39571,53.54787],[-2.39564,53.54788],[-2.39562,53.54787],[-2.39561,53.54785],[-2.39553,53.54767]]]]}},
{ "type":"Feature","properties":{"osm_way_id":"541395035","name":"PK Foods","building":"yes","shop":"supermarket","other":{"addr:housenumber":"240","addr:postcode":"BL1 8DT","addr:street":"Blackburn Road","fhrs:id":"66699","source:addr":"FHRS Open Data"}}, "geometry":{"type":"MultiPolygon","coordinates":[[[[-2.43049,53.59283],[-2.43046,53.59268],[-2.43091,53.59264],[-2.43093,53.5928],[-2.43049,53.59283]]]]}},
{ "type":"Feature","properties":{"osm_way_id":"541477709","name":"The Food Warehouse","building":"yes","shop":"supermarket","other":{"addr:city":"Bolton","addr:postcode":"BL2 6QR","addr:street":"Bury Road","addr:unit":"B1","brand:wikidata":"Q87263899","operator":"Iceland"}}, "geometry":{"type":"MultiPolygon","coordinates":[[[[-2.38372,53.58106],[-2.38362,53.5813],[-2.3831,53.58122],[-2.38321,53.58098],[-2.38372,53.58106]]]]}},
{ "type":"Feature","properties":{"osm_way_id":"541477711","name":"Aldi","building":"yes","shop":"supermarket","other":{"addr:city":"Bolton","addr:postcode":"BL2 6PP","addr:street":"Breightmet Fold Lane","brand":"ALDI","brand:wikidata":"Q41171672","brand:wikipedia":"en:Aldi","fhrs:id":"909788"}}, "geometry":{"type":"MultiPolygon","coordinates":[[[[-2.38209,53.58057],[-2.38197,53.58084],[-2.38192,53.58083],[-2.38181,53.58108],[-2.38179,53.58107],[-2.38176,53.58113],[-2.38132,53.58105],[-2.38158,53.58049],[-2.38209,53.58057]]]]}},
{ "type":"Feature","properties":{"osm_way_id":"541755879","name":"Spar","building":"yes","shop":"supermarket","other":{"addr:city":"Bolton","addr:housenumber":"63","addr:postcode":"BL2 5BP","addr:street":"New Lane","brand":"Spar","brand:wikidata":"Q610492","brand:wikipedia":"en:Spar (retailer)","fhrs:id":"1088443"}}, "geometry":{"type":"MultiPolygon","coordinates":[[[[-2.3953,53.59194],[-2.39522,53.59214],[-2.39491,53.59209],[-2.39499,53.5919],[-2.3953,53.59194]]]]}},
{ "type":"Feature","properties":{"osm_way_id":"542014124","name":"Spar","building":"yes","shop":"supermarket","other":{"brand":"Spar","brand:wikidata":"Q610492","brand:wikipedia":"en:SPAR (retailer)"}}, "geometry":{"type":"MultiPolygon","coordinates":[[[[-2.39557,53.54398],[-2.39554,53.54401],[-2.39542,53.54402],[-2.39541,53.54398],[-2.39537,53.54387],[-2.39537,53.54385],[-2.39539,53.54385],[-2.39538,53.54383],[-2.39546,53.54382],[-2.39548,53.54387],[-2.39553,53.54386],[-2.39557,53.54398]]]]}},
{ "type":"Feature","properties":{"osm_way_id":"549221806","name":"Lidl","building":"yes","shop":"supermarket","other":{"addr:city":"Bolton","addr:postcode":"BL1 8TH","addr:street":"Crompton Way","brand":"Lidl","brand:wikidata":"Q151954","brand:wikipedia":"en:Lidl","fhrs:id":"73180","website":"https:\/\/www.lidl.co.uk\/en\/index.htm?ar=7&changestore=1"}}, "geometry":{"type":"MultiPolygon","coordinates":[[[[-2.43146,53.60122],[-2.43145,53.60137],[-2.43154,53.60138],[-2.43151,53.60183],[-2.43137,53.60183],[-2.43137,53.60179],[-2.43109,53.60178],[-2.43111,53.60139],[-2.43104,53.60138],[-2.43105,53.6012],[-2.43123,53.60121],[-2.43123,53.60122],[-2.43146,53.60122]]]]}},
{ "type":"Feature","properties":{"osm_way_id":"549904140","name":"The Co-operative Food","building":"yes","shop":"supermarket","other":{"addr:housenumber":"196","addr:postcode":"BL7 9JJ","addr:street":"Darwen Road","brand":"The Co-operative Food","brand:wikidata":"Q3277439","brand:wikipedia":"en:Co-op Food","fhrs:id":"89015","source:addr":"FHRS Open Data"}}, "geometry":{"type":"MultiPolygon","coordinates":[[[[-2.41916,53.61526],[-2.41896,53.61545],[-2.41838,53.61523],[-2.41848,53.61514],[-2.41853,53.61517],[-2.41855,53.61517],[-2.41865,53.61509],[-2.41898,53.61521],[-2.41899,53.6152],[-2.41916,53.61526]]]]}},
{ "type":"Feature","properties":{"osm_way_id":"558216351","name":"Spar","building":"yes","shop":"supermarket","other":{"brand":"Spar","brand:wikidata":"Q610492","brand:wikipedia":"en:SPAR (retailer)"}}, "geometry":{"type":"MultiPolygon","coordinates":[[[[-2.38367,53.54218],[-2.38359,53.54215],[-2.38356,53.54218],[-2.38348,53.54227],[-2.38355,53.5423],[-2.38367,53.54218]]]]}},
{ "type":"Feature","properties":{"osm_way_id":"558244055","name":"The Co-operative Food","building":"yes","shop":"supermarket","other":{"addr:housenumber":"383","addr:postcode":"BL3 4QJ","addr:street":"Wigan Road","brand":"The Co-operative Food","brand:wikidata":"Q3277439","brand:wikipedia":"en:Co-op Food","fhrs:id":"89218","source:addr":"FHRS Open Data"}}, "geometry":{"type":"MultiPolygon","coordinates":[[[[-2.46561,53.56681],[-2.46538,53.56656],[-2.46531,53.56659],[-2.46534,53.56662],[-2.4653,53.56663],[-2.46534,53.56668],[-2.46529,53.5667],[-2.46536,53.56678],[-2.46524,53.56681],[-2.46524,53.56687],[-2.46528,53.56692],[-2.46561,53.56681]]]]}},
{ "type":"Feature","properties":{"osm_way_id":"562792691","name":"Co-op","building":"yes","shop":"supermarket","other":{"addr:housenumber":"245","addr:postcode":"BL4 0NX","addr:street":"Highfield Road","fhrs:id":"89356","source:addr":"FHRS Open Data"}}, "geometry":{"type":"MultiPolygon","coordinates":[[[[-2.42871,53.54687],[-2.42876,53.54673],[-2.4285,53.5467],[-2.42848,53.54675],[-2.4285,53.54675],[-2.42846,53.54684],[-2.42871,53.54687]]]]}},
{ "type":"Feature","properties":{"osm_way_id":"564007113","name":"Sainsbury's","building":"yes","shop":"supermarket","other":{"brand":"Sainsbury's","brand:wikidata":"Q152096","brand:wikipedia":"en:Sainsbury's","website":"https:\/\/stores.sainsburys.co.uk\/2835\/bolton"}}, "geometry":{"type":"MultiPolygon","coordinates":[[[[-2.42967,53.57345],[-2.42952,53.57343],[-2.42948,53.57363],[-2.42958,53.57364],[-2.42957,53.57365],[-2.42962,53.57366],[-2.42967,53.57345]]]]}},
{ "type":"Feature","properties":{"osm_way_id":"565026257","name":"Food Plus","building":"yes","shop":"supermarket","other":{"addr:postcode":"BL3 6HU","addr:street":"Shaw Street"}}, "geometry":{"type":"MultiPolygon","coordinates":[[[[-2.43658,53.57173],[-2.43668,53.57166],[-2.43655,53.5716],[-2.43629,53.57148],[-2.4362,53.57155],[-2.43629,53.57159],[-2.43658,53.57173]]]]}},
{ "type":"Feature","properties":{"osm_way_id":"576594490","name":"The Co-operative Food","building":"yes","shop":"supermarket"},"geometry":{"type":"MultiPolygon","coordinates":[[[[-2.40809,53.58647],[-2.40802,53.58638],[-2.40789,53.58642],[-2.40784,53.58643],[-2.4078,53.58639],[-2.40772,53.58642],[-2.40778,53.5865],[-2.40782,53.58649],[-2.40786,53.58654],[-2.40809,53.58647]]]]}},
{ "type":"Feature","properties":{"osm_way_id":"579147169","name":"Co-op Food","building":"yes","shop":"supermarket","other":{"addr:housenumber":"190","addr:postcode":"BL2 2HN","addr:street":"Tonge Moor Road","brand":"Co-op Food","brand:wikidata":"Q3277439","brand:wikipedia":"en:Co-op Food","fhrs:id":"1030360","source:addr":"FHRS Open Data"}}, "geometry":{"type":"MultiPolygon","coordinates":[[[[-2.41226,53.59054],[-2.41226,53.59064],[-2.41199,53.59064],[-2.41199,53.59054],[-2.41211,53.59054],[-2.41226,53.59054]]]]}},
{ "type":"Feature","properties":{"osm_way_id":"589890861","name":"Spar","building":"yes","shop":"supermarket","other":{"addr:housenumber":"6","addr:postcode":"BL6 5EW","addr:street":"Blackhorse Street","brand":"Spar","brand:wikidata":"Q610492","brand:wikipedia":"en:Spar (retailer)","fhrs:id":"85477","source:addr":"FHRS Open Data"}}, "geometry":{"type":"MultiPolygon","coordinates":[[[[-2.58738,53.59476],[-2.58715,53.59492],[-2.58725,53.59497],[-2.58744,53.59484],[-2.58747,53.5948],[-2.58738,53.59476]]]]}},
{ "type":"Feature","properties":{"osm_way_id":"593692649","name":"Lidl","building":"yes","shop":"supermarket","other":{"addr:postcode":"BL5 3YY","addr:street":"The Fairways","brand":"Lidl","brand:wikidata":"Q151954","brand:wikipedia":"en:Lidl","fhrs:id":"66005","source:addr":"FHRS Open Data"}}, "geometry":{"type":"MultiPolygon","coordinates":[[[[-2.5284,53.5471],[-2.52839,53.5472],[-2.52835,53.54727],[-2.52826,53.54725],[-2.52819,53.54737],[-2.52783,53.5473],[-2.52781,53.54734],[-2.52756,53.54729],[-2.5277,53.54704],[-2.52791,53.54708],[-2.52794,53.54703],[-2.52809,53.54706],[-2.5281,53.54705],[-2.5284,53.5471]]]]}},
{ "type":"Feature","properties":{"osm_way_id":"593692656","name":"Sainsbury's","building":"yes","shop":"supermarket","other":{"brand":"Sainsbury's","brand:wikidata":"Q152096","brand:wikipedia":"en:Sainsbury's","website":"https:\/\/stores.sainsburys.co.uk\/2097\/westhoughton"}}, "geometry":{"type":"MultiPolygon","coordinates":[[[[-2.52296,53.54704],[-2.52296,53.54713],[-2.52295,53.54713],[-2.52279,53.54713],[-2.52274,53.54713],[-2.52274,53.54707],[-2.52274,53.54704],[-2.52296,53.54704]]]]}},
{ "type":"Feature","properties":{"osm_way_id":"663130421","name":"Co-op Food","building":"yes","shop":"supermarket","other":{"addr:housenumber":"567","addr:postcode":"BL6 6JZ","addr:street":"Chorley New Road","brand":"Co-op Food","brand:wikidata":"Q3277439","brand:wikipedia":"en:Co-op Food","fhrs:id":"809595","source:addr":"FHRS Open Data"}}, "geometry":{"type":"MultiPolygon","coordinates":[[[[-2.5333,53.58937],[-2.53327,53.58939],[-2.53313,53.58952],[-2.5334,53.58962],[-2.53357,53.58947],[-2.5333,53.58937]]]]}},
{ "type":"Feature","properties":{"osm_way_id":"665247183","name":"Co-op Food","building":"yes","shop":"supermarket","other":{"addr:housenumber":"75-81","addr:postcode":"BL6 7PA","addr:street":"Winter Hey Lane","brand":"Co-op Food","brand:wikidata":"Q3277439","brand:wikipedia":"en:Co-op Food","fhrs:id":"89406","source:addr":"FHRS Open Data"}}, "geometry":{"type":"MultiPolygon","coordinates":[[[[-2.54878,53.59856],[-2.54875,53.59853],[-2.54865,53.59843],[-2.54846,53.59857],[-2.5486,53.59869],[-2.54878,53.59856]]]]}},
{ "type":"Feature","properties":{"osm_way_id":"671141147","name":"Bolton Superstore","building":"yes","shop":"supermarket"},"geometry":{"type":"MultiPolygon","coordinates":[[[[-2.4019,53.55461],[-2.40188,53.55464],[-2.40193,53.55465],[-2.40192,53.55467],[-2.40201,53.55468],[-2.40195,53.5548],[-2.40186,53.55478],[-2.40168,53.55475],[-2.40177,53.55458],[-2.4019,53.55461]]]]}},
{ "type":"Feature","properties":{"osm_way_id":"671503824","name":"Costcutter","building":"yes","shop":"supermarket","other":{"addr:city":"Farnworth","addr:housenumber":"166-168","addr:street":"Campbell Street","brand":"Costcutter","brand:wikidata":"Q5175072","brand:wikipedia":"en:Costcutter"}}, "geometry":{"type":"MultiPolygon","coordinates":[[[[-2.41506,53.55463],[-2.41504,53.55469],[-2.415,53.55468],[-2.41499,53.55482],[-2.41478,53.55481],[-2.41479,53.55462],[-2.41506,53.55463]]]]}},
{ "type":"Feature","properties":{"osm_way_id":"671767368","name":"Costcutter","building":"yes","shop":"supermarket","other":{"addr:housenumber":"159-161","addr:postcode":"BL4 0BT","addr:street":"Plodder Lane","brand":"Costcutter","brand:wikidata":"Q5175072","brand:wikipedia":"en:Costcutter","fhrs:id":"87423","source:addr":"FHRS Open Data"}}, "geometry":{"type":"MultiPolygon","coordinates":[[[[-2.41661,53.54896],[-2.41656,53.54883],[-2.41655,53.5488],[-2.41643,53.54881],[-2.41645,53.54887],[-2.41649,53.54897],[-2.41661,53.54896]]]]}},
{ "type":"Feature","properties":{"osm_way_id":"693881531","name":"Aldi","building":"yes","shop":"supermarket","other":{"brand":"ALDI","brand:wikidata":"Q41171672","brand:wikipedia":"en:Aldi"}}, "geometry":{"type":"MultiPolygon","coordinates":[[[[-2.45291,53.54219],[-2.45322,53.54238],[-2.45295,53.54253],[-2.45301,53.54257],[-2.45289,53.54263],[-2.45284,53.5426],[-2.45258,53.54274],[-2.45223,53.54252],[-2.4525,53.54237],[-2.45253,53.54239],[-2.45291,53.54219]]]]}},
{ "type":"Feature","properties":{"osm_way_id":"697080061","name":"Costcutter","building":"yes","shop":"supermarket","other":{"brand":"Costcutter","brand:wikidata":"Q5175072","brand:wikipedia":"en:Costcutter"}}, "geometry":{"type":"MultiPolygon","coordinates":[[[[-2.52348,53.55503],[-2.52353,53.55517],[-2.52338,53.55519],[-2.52336,53.55515],[-2.52327,53.55516],[-2.52325,53.55512],[-2.52328,53.55512],[-2.52326,53.55508],[-2.52335,53.55507],[-2.52334,53.55504],[-2.52348,53.55503]]]]}},
{ "type":"Feature","properties":{"osm_way_id":"698963759","name":"Co-op Food","building":"yes","shop":"supermarket","other":{"addr:housenumber":"34-40","addr:postcode":"BL5 3AN","addr:street":"Market Street","brand":"Co-op Food","brand:wikidata":"Q3277439","brand:wikipedia":"en:Co-op Food","fhrs:id":"89623","operator":"The Co-operative Group","operator:wikidata":"Q117202","operator:wikipedia":"en:The Co-operative Group","source:addr":"FHRS Open Data"}}, "geometry":{"type":"MultiPolygon","coordinates":[[[[-2.52177,53.54893],[-2.52175,53.54901],[-2.52173,53.54906],[-2.52153,53.54904],[-2.52152,53.54907],[-2.52136,53.54905],[-2.52142,53.54889],[-2.52177,53.54893]]]]}},
{ "type":"Feature","properties":{"osm_way_id":"707209068","name":"Halal Meat & Grocery","building":"yes","shop":"supermarket","other":{"addr:housenumber":"255","addr:postcode":"BL3 6LA","addr:street":"Derby Street","fhrs:id":"929379","source:addr":"FHRS Open Data"}}, "geometry":{"type":"MultiPolygon","coordinates":[[[[-2.44093,53.56857],[-2.44076,53.56849],[-2.44069,53.56846],[-2.4406,53.56852],[-2.44084,53.56864],[-2.44093,53.56857]]]]}},
{ "type":"Feature","properties":{"osm_way_id":"707209071","name":"Faisal Food Store","building":"yes","shop":"supermarket","other":{"addr:housenumber":"263-267","addr:postcode":"BL3 6LA","addr:street":"Derby Street","fhrs:id":"92493","source:addr":"FHRS Open Data"}}, "geometry":{"type":"MultiPolygon","coordinates":[[[[-2.44113,53.56822],[-2.44119,53.56825],[-2.4413,53.5683],[-2.44117,53.5684],[-2.44099,53.56831],[-2.44113,53.56822]]]]}},
{ "type":"Feature","properties":{"osm_way_id":"707209075","name":"Barkat","building":"yes","shop":"supermarket","other":{"addr:housenumber":"275","addr:postcode":"BL3 6LA","addr:street":"Derby Street","fhrs:id":"114592","source:addr":"FHRS Open Data"}}, "geometry":{"type":"MultiPolygon","coordinates":[[[[-2.44142,53.56821],[-2.44157,53.56811],[-2.44134,53.56803],[-2.44122,53.56812],[-2.44127,53.56814],[-2.44142,53.56821]]]]}},
{ "type":"Feature","properties":{"osm_way_id":"707209095","name":"Nasza BiedronkaPearl Gardens","building":"yes","shop":"supermarket","other":{"addr:housenumber":"313","addr:postcode":"BL3 6LH","addr:street":"Derby Street","fhrs:id":"1080040","source:addr":"FHRS Open Data"}}, "geometry":{"type":"MultiPolygon","coordinates":[[[[-2.44233,53.56742],[-2.44245,53.56748],[-2.44232,53.56757],[-2.44221,53.5675],[-2.44233,53.56742]]]]}},
{ "type":"Feature","properties":{"osm_way_id":"707227944","name":"Freeze 'N' Spice","building":"yes","shop":"supermarket"},"geometry":{"type":"MultiPolygon","coordinates":[[[[-2.44289,53.56701],[-2.44306,53.56711],[-2.44301,53.56714],[-2.44284,53.56704],[-2.44289,53.56701]]]]}},
{ "type":"Feature","properties":{"osm_way_id":"708784164","name":"Europa Taste","building":"yes","shop":"supermarket"},"geometry":{"type":"MultiPolygon","coordinates":[[[[-2.45242,53.56249],[-2.45253,53.56243],[-2.45243,53.56236],[-2.45241,53.56237],[-2.45234,53.56233],[-2.45228,53.56236],[-2.45236,53.56241],[-2.45232,53.56243],[-2.45242,53.56249]]]]}},
{ "type":"Feature","properties":{"osm_way_id":"733578192","name":"Heron Foods","building":"yes","shop":"supermarket","other":{"addr:city":"Bolton","addr:country":"GB","addr:housenumber":"18,20","addr:postcode":"BL1 1NB","addr:street":"Newport Street","brand":"Heron Foods","brand:wikidata":"Q5743472","brand:wikipedia":"en:Heron Foods","contact:website":"https:\/\/heronfoods.com\/storelocator\/store-details\/bolton","fhrs:id":"727938"}}, "geometry":{"type":"MultiPolygon","coordinates":[[[[-2.42999,53.5772],[-2.43003,53.57729],[-2.42961,53.57736],[-2.42957,53.57728],[-2.42959,53.57726],[-2.42999,53.5772]]]]}},
{ "type":"Feature","properties":{"osm_way_id":"737813601","name":"Al Noor Super Store","building":"yes","shop":"supermarket"},"geometry":{"type":"MultiPolygon","coordinates":[[[[-2.43691,53.5922],[-2.43681,53.59231],[-2.43677,53.5923],[-2.43679,53.59228],[-2.43676,53.59226],[-2.43674,53.59229],[-2.43668,53.59227],[-2.43672,53.59222],[-2.43679,53.59215],[-2.43691,53.5922]]]]}},
{ "type":"Feature","properties":{"osm_way_id":"746947333","name":"ALDI","building":"supermarket","shop":"supermarket","other":{"brand":"ALDI","brand:wikidata":"Q41171672","brand:wikipedia":"en:Aldi","building:levels":"1"}}, "geometry":{"type":"MultiPolygon","coordinates":[[[[-2.5208,53.5493],[-2.52056,53.54967],[-2.52001,53.54955],[-2.52007,53.54945],[-2.51983,53.5494],[-2.51998,53.54912],[-2.5208,53.5493]]]]}},
{ "type":"Feature","properties":{"osm_way_id":"842576736","name":"Spar","building":"yes","shop":"supermarket","other":{"addr:housenumber":"117-121","addr:postcode":"BL1 3BD","addr:street":"Chorley Old Road","brand":"Spar","brand:wikidata":"Q610492","brand:wikipedia":"en:Spar (retailer)","fhrs:id":"65686","source:addr":"FHRS Open Data","wheelchair":"yes"}}, "geometry":{"type":"MultiPolygon","coordinates":[[[[-2.44797,53.58455],[-2.44811,53.58462],[-2.44809,53.58464],[-2.44812,53.58465],[-2.44806,53.58469],[-2.44795,53.58478],[-2.44778,53.5847],[-2.44797,53.58455]]]]}}
]
}
