{
"type": "FeatureCollection",
"features": [
{ "type":"Feature","properties":{"osm_id":"252956809","name":"Spar","other":{"addr:country":"GB","addr:housenumber":"137-139","addr:postcode":"OX28 5LP","addr:street":"Burwell Drive","brand":"Spar","brand:wikidata":"Q610492","brand:wikipedia":"en:SPAR (retailer)","fhrs:id":"871211","shop":"supermarket"}}, "geometry":{"type":"Point","coordinates":[-1.49687,51.77957 ]}},
{ "type":"Feature","properties":{"osm_id":"822252580","name":"Co-op","other":{"shop":"supermarket"}}, "geometry":{"type":"Point","coordinates":[-1.58735,51.76908 ]}},
{ "type":"Feature","properties":{"osm_id":"1273021199","name":"The Co-operative Food","other":{"addr:city":"Witney","addr:postcode":"OX28 1UD","addr:street":"Northfield Farm Lane","fhrs:id":"871228","operator":"The Midcounties Co-operative","shop":"supermarket"}}, "geometry":{"type":"Point","coordinates":[-1.4655,51.79268 ]}},
{ "type":"Feature","properties":{"osm_id":"1705151449","name":"Co-op","other":{"shop":"supermarket"}}, "geometry":{"type":"Point","coordinates":[-1.61559,51.86231 ]}},
{ "type":"Feature","properties":{"osm_id":"2169263265","name":"The Co-operative Food","other":{"addr:postcode":"OX18 2JH","opening_hours":"Mo-Su 07:00-22:00","operator":"The Midcounties Co-operative","shop":"supermarket"}}, "geometry":{"type":"Point","coordinates":[-1.54546,51.72633 ]}},
{ "type":"Feature","properties":{"osm_id":"5000579634","name":"The Co-operative Food","other":{"shop":"supermarket"}}, "geometry":{"type":"Point","coordinates":[-1.63653,51.80825 ]}},
{ "type":"Feature","properties":{"osm_id":"8148607464","name":"Lidl","other":{"addr:country":"GB","addr:postcode":"OX29 7GX","addr:street":"New Close Lane","brand":"Lidl","brand:wikidata":"Q151954","brand:wikipedia":"en:Lidl","fhrs:id":"1291158","shop":"supermarket"}}, "geometry":{"type":"Point","coordinates":[-1.49328,51.77317 ]}},
{ "type":"Feature","properties":{"osm_way_id":"98576081","name":"Co-op","amenity":"post_office","building":"yes","shop":"supermarket","other":{"addr:postcode":"OX7 3PQ","addr:street":"Browns Lane","opening_hours":"Mo-Sa 07:00-22:00; Su 08:00-21:00","operator":"Midcounties Co-operative"}}, "geometry":{"type":"MultiPolygon","coordinates":[[[[-1.48149,51.87363],[-1.48145,51.87366],[-1.48139,51.87363],[-1.48129,51.8737],[-1.48129,51.87377],[-1.48147,51.87387],[-1.48158,51.8738],[-1.48165,51.87383],[-1.48174,51.87377],[-1.48149,51.87363]]]]}},
{ "type":"Feature","properties":{"osm_way_id":"99412894","name":"ALDI","building":"retail","shop":"supermarket","other":{"addr:postcode":"OX18 3JH","addr:street":"Alvescott Road","brand":"ALDI","brand:wikidata":"Q41171672","brand:wikipedia":"en:Aldi"}}, "geometry":{"type":"MultiPolygon","coordinates":[[[[-1.59737,51.75832],[-1.59754,51.7585],[-1.59765,51.75863],[-1.59763,51.75869],[-1.59755,51.75873],[-1.5975,51.75867],[-1.59728,51.75875],[-1.59714,51.7586],[-1.59708,51.75862],[-1.59702,51.75856],[-1.59689,51.75842],[-1.59696,51.7584],[-1.59715,51.75833],[-1.5972,51.75838],[-1.59732,51.75834],[-1.59737,51.75832]]]]}},
{ "type":"Feature","properties":{"osm_way_id":"157595863","name":"Sainsbury's","building":"yes","shop":"supermarket","other":{"addr:postcode":"OX28 4FF","addr:street":"Witan Way","brand":"Sainsbury's","brand:wikidata":"Q152096","brand:wikipedia":"en:Sainsbury's","pharmacy":"yes","wheelchair":"yes"}}, "geometry":{"type":"MultiPolygon","coordinates":[[[[-1.48294,51.7803],[-1.48274,51.78007],[-1.48269,51.78009],[-1.48252,51.77988],[-1.48258,51.77986],[-1.48252,51.7798],[-1.48243,51.77983],[-1.48239,51.77979],[-1.48234,51.77972],[-1.4824,51.7797],[-1.48214,51.77941],[-1.48223,51.77938],[-1.48219,51.77933],[-1.48315,51.779],[-1.48365,51.77957],[-1.48346,51.77963],[-1.48359,51.77978],[-1.48346,51.77982],[-1.48361,51.78],[-1.48346,51.78005],[-1.48348,51.78007],[-1.48306,51.78021],[-1.48309,51.78024],[-1.48294,51.7803]]]]}},
{ "type":"Feature","properties":{"osm_way_id":"158290619","name":"coop Chipping Norton","building":"retail","shop":"supermarket","other":{"addr:city":"Chipping Norton","addr:housenumber":"4-5","addr:postcode":"OX7 5AB","addr:street":"High Street","fhrs:id":"871206","level":"1","opening_hours":"Mo-Sa 07:00-22:00; Su 10:00-16:00","operator":"Mid Counties Co-operative Society","source:addr":"FHRS Open Data","wikidata":"Q26304436"}}, "geometry":{"type":"MultiPolygon","coordinates":[[[[-1.54495,51.94111],[-1.54501,51.941],[-1.54502,51.94097],[-1.54504,51.94094],[-1.54494,51.94092],[-1.54501,51.94078],[-1.54486,51.94075],[-1.54479,51.94089],[-1.54455,51.94084],[-1.54453,51.94089],[-1.54443,51.94087],[-1.54436,51.941],[-1.54472,51.94106],[-1.54469,51.94112],[-1.54476,51.94114],[-1.54479,51.94108],[-1.54495,51.94111]]]]}},
{ "type":"Feature","properties":{"osm_way_id":"158290621","name":"Sainsbury's","building":"yes","shop":"supermarket","other":{"addr:city":"Chipping Norton","addr:housenumber":"12-14","addr:postcode":"OX7 5NA","addr:street":"Market Street","alt_name":"Sainsbury's Chipping Norton Superstore","brand":"Sainsbury's","brand:wikidata":"Q152096","brand:wikipedia":"en:Sainsbury's","fhrs:id":"871216","opening_hours":"Mo-Sa 07:00-21:00; Su 10:30-16:30"}}, "geometry":{"type":"MultiPolygon","coordinates":[[[[-1.54641,51.94144],[-1.54638,51.94143],[-1.5463,51.94142],[-1.54629,51.94142],[-1.54621,51.94142],[-1.5462,51.94142],[-1.54611,51.94141],[-1.54611,51.9414],[-1.54601,51.94139],[-1.54599,51.9414],[-1.54599,51.94142],[-1.54592,51.94141],[-1.5459,51.94151],[-1.54586,51.9415],[-1.54583,51.94162],[-1.54602,51.94163],[-1.54632,51.94166],[-1.54633,51.94161],[-1.54638,51.94161],[-1.54639,51.94156],[-1.54636,51.94156],[-1.54638,51.9415],[-1.5465,51.94151],[-1.54651,51.94147],[-1.5464,51.94145],[-1.54641,51.94144]]]]}},
{ "type":"Feature","properties":{"osm_way_id":"165176249","name":"The Co-operative Local Store","building":"supermarket","shop":"supermarket","other":{"opening_hours":"Mo-Su 07:00-23:00","source:geometry":"Bing"}}, "geometry":{"type":"MultiPolygon","coordinates":[[[[-1.39369,51.82505],[-1.39361,51.82516],[-1.39351,51.82531],[-1.39352,51.82532],[-1.39341,51.82548],[-1.39356,51.82552],[-1.39367,51.82536],[-1.39368,51.82536],[-1.39386,51.8251],[-1.39369,51.82505]]]]}},
{ "type":"Feature","properties":{"osm_way_id":"382679013","name":"Morrisons","building":"supermarket","shop":"supermarket","other":{"addr:city":"Carterton","addr:postcode":"OX18 3HA","addr:street":"Black Bourton Road","brand":"Morrisons","brand:wikidata":"Q922344","brand:wikipedia":"en:Morrisons","phone":"+44 1993 627728"}}, "geometry":{"type":"MultiPolygon","coordinates":[[[[-1.59401,51.75768],[-1.59398,51.75762],[-1.59393,51.75763],[-1.59369,51.75729],[-1.59358,51.75732],[-1.59354,51.75724],[-1.59421,51.75706],[-1.59423,51.75709],[-1.59443,51.75704],[-1.59468,51.75746],[-1.59475,51.75745],[-1.5948,51.75753],[-1.59468,51.75756],[-1.59465,51.75753],[-1.59401,51.75768]]]]}},
{ "type":"Feature","properties":{"osm_way_id":"415074779","name":"Aldi","building":"yes","shop":"supermarket","other":{"addr:city":"Chipping Norton","addr:postcode":"OX7 5SY","addr:street":"Banbury Road","brand":"ALDI","brand:wikidata":"Q41171672","brand:wikipedia":"en:Aldi","fhrs:id":"871214","not:addr:postcode":"OX7 5ET","source:addr":"FHRS Open Data"}}, "geometry":{"type":"MultiPolygon","coordinates":[[[[-1.53822,51.94559],[-1.5373,51.94562],[-1.53732,51.94586],[-1.5374,51.94586],[-1.53741,51.94588],[-1.53764,51.94588],[-1.53764,51.94585],[-1.53813,51.94583],[-1.53812,51.94567],[-1.53822,51.94566],[-1.53822,51.94559]]]]}},
{ "type":"Feature","properties":{"osm_way_id":"433077167","name":"The Co-operative Food","building":"yes","shop":"supermarket","other":{"addr:city":"Woodstock","addr:housenumber":"38-40","addr:postcode":"OX20 1TG","addr:street":"High Street","opening_hours":"Mo-Su 08:00-22:00","operator":"The Midcounties Co-operative Society"}}, "geometry":{"type":"MultiPolygon","coordinates":[[[[-1.35367,51.84683],[-1.35347,51.84681],[-1.35349,51.84674],[-1.35346,51.84661],[-1.35353,51.84661],[-1.35356,51.84672],[-1.35364,51.84672],[-1.35362,51.84669],[-1.35369,51.84669],[-1.35369,51.84677],[-1.35367,51.84683]]]]}},
{ "type":"Feature","properties":{"osm_way_id":"603158079","name":"The co-operative food","building":"yes","shop":"supermarket","other":{"addr:city":"Burford","addr:county":"Oxfordshire","addr:housenumber":"74","addr:postcode":"OX18 4QF","addr:street":"High Street","fhrs:id":"871223","source:addr":"FHRS Open Data"}}, "geometry":{"type":"MultiPolygon","coordinates":[[[[-1.6368,51.80838],[-1.63682,51.80834],[-1.63695,51.80836],[-1.63724,51.80843],[-1.6375,51.80847],[-1.63751,51.80843],[-1.63734,51.80839],[-1.637,51.80831],[-1.63698,51.80831],[-1.63667,51.80824],[-1.63661,51.80833],[-1.6368,51.80838]]]]}},
{ "type":"Feature","properties":{"osm_way_id":"667737009","name":"M&S Foodhall","building":"retail","shop":"supermarket","other":{"addr:city":"Chipping Norton","addr:housenumber":"Unit 1","addr:parentstreet":"London Road","addr:postcode":"OX7 5EJ","addr:street":"Windmill Square","brand":"M&S Foodhall","brand:wikidata":"Q714491","brand:wikipedia":"en:Marks & Spencer","fhrs:id":"1089719"}}, "geometry":{"type":"MultiPolygon","coordinates":[[[[-1.53706,51.94366],[-1.53703,51.94347],[-1.5364,51.94349],[-1.53642,51.94364],[-1.53643,51.94369],[-1.53671,51.94368],[-1.53706,51.94366]]]]}},
{ "type":"Feature","properties":{"osm_way_id":"706381870","name":"Co-op Food","building":"yes","shop":"supermarket","other":{"brand":"Co-op Food","brand:wikidata":"Q3277439","brand:wikipedia":"en:Co-op Food"}}, "geometry":{"type":"MultiPolygon","coordinates":[[[[-1.48597,51.7861],[-1.48549,51.786],[-1.48538,51.78598],[-1.48515,51.78592],[-1.48526,51.78566],[-1.48549,51.78571],[-1.48583,51.78578],[-1.48583,51.78579],[-1.48582,51.78581],[-1.48576,51.78592],[-1.48575,51.78594],[-1.48602,51.78601],[-1.48597,51.7861]]]]}},
{ "type":"Feature","properties":{"osm_way_id":"719981088","name":"Waitrose","building":"retail","shop":"supermarket","other":{"brand":"Waitrose","brand:wikidata":"Q771734","brand:wikipedia":"en:Waitrose","building:levels":"1","official_name":"Waitrose & Partners","opening_hours":"Mo-Th 07:30-20:00; Fr 07:30-21:00; Sa 07:30-20:00; Su 10:00-16:00","roof:levels":"1","roof:shape":"many"}}, "geometry":{"type":"MultiPolygon","coordinates":[[[[-1.48365,51.78464],[-1.48366,51.78458],[-1.48348,51.78456],[-1.48348,51.78451],[-1.48335,51.7845],[-1.48332,51.7846],[-1.48308,51.78458],[-1.48302,51.7846],[-1.48293,51.78496],[-1.48298,51.78499],[-1.48358,51.78504],[-1.48367,51.785],[-1.48371,51.78488],[-1.48375,51.7847],[-1.48376,51.78465],[-1.48365,51.78464]]]]}}
]
}
