{
"type": "FeatureCollection",
"features": [
{ "type":"Feature","properties":{"osm_way_id":"173937047","building":"warehouse","other":{"old_name":"Travis Perkins"}}, "geometry":{"type":"MultiPolygon","coordinates":[[[[-0.90682,51.30367],[-0.90668,51.30369],[-0.90665,51.30358],[-0.90671,51.30358],[-0.90665,51.30333],[-0.90673,51.30333],[-0.90682,51.30367]]]]}},
{ "type":"Feature","properties":{"osm_way_id":"173937049","building":"warehouse"},"geometry":{"type":"MultiPolygon","coordinates":[[[[-0.90648,51.30339],[-0.90633,51.30338],[-0.90635,51.30327],[-0.9065,51.30328],[-0.90648,51.30339]]]]}},
{ "type":"Feature","properties":{"osm_way_id":"173937050","building":"warehouse"},"geometry":{"type":"MultiPolygon","coordinates":[[[[-0.90662,51.30308],[-0.90654,51.30305],[-0.90671,51.30289],[-0.90678,51.30292],[-0.90662,51.30308]]]]}},
{ "type":"Feature","properties":{"osm_way_id":"190624451","building":"warehouse"},"geometry":{"type":"MultiPolygon","coordinates":[[[[-0.87679,51.321],[-0.87669,51.32071],[-0.87624,51.32077],[-0.87634,51.32106],[-0.87679,51.321]]]]}},
{ "type":"Feature","properties":{"osm_way_id":"190624452","building":"warehouse"},"geometry":{"type":"MultiPolygon","coordinates":[[[[-0.87736,51.3209],[-0.87691,51.32097],[-0.8768,51.32068],[-0.87725,51.32061],[-0.87736,51.3209]]]]}},
{ "type":"Feature","properties":{"osm_way_id":"190624454","building":"warehouse"},"geometry":{"type":"MultiPolygon","coordinates":[[[[-0.8764,51.32125],[-0.87624,51.32083],[-0.87551,51.32094],[-0.8756,51.32119],[-0.87578,51.32116],[-0.87585,51.32133],[-0.8764,51.32125]]]]}},
{ "type":"Feature","properties":{"osm_way_id":"193890754","building":"warehouse"},"geometry":{"type":"MultiPolygon","coordinates":[[[[-0.96432,51.22298],[-0.96456,51.22268],[-0.96445,51.22265],[-0.96422,51.22295],[-0.96432,51.22298]]]]}},
{ "type":"Feature","properties":{"osm_way_id":"193890755","building":"warehouse"},"geometry":{"type":"MultiPolygon","coordinates":[[[[-0.96397,51.22344],[-0.96415,51.22321],[-0.9639,51.22313],[-0.96373,51.22337],[-0.96397,51.22344]]]]}},
{ "type":"Feature","properties":{"osm_way_id":"193890756","building":"warehouse"},"geometry":{"type":"MultiPolygon","coordinates":[[[[-0.96409,51.22303],[-0.96432,51.22275],[-0.96397,51.22264],[-0.96376,51.22294],[-0.96409,51.22303]]]]}},
{ "type":"Feature","properties":{"osm_way_id":"203763322","building":"warehouse"},"geometry":{"type":"MultiPolygon","coordinates":[[[[-0.92439,51.29231],[-0.92403,51.2923],[-0.92404,51.29219],[-0.92405,51.29203],[-0.9244,51.29203],[-0.92439,51.29231]]]]}},
{ "type":"Feature","properties":{"osm_way_id":"203763328","building":"warehouse"},"geometry":{"type":"MultiPolygon","coordinates":[[[[-0.92376,51.29219],[-0.92376,51.2923],[-0.92403,51.2923],[-0.92404,51.29219],[-0.92376,51.29219]]]]}},
{ "type":"Feature","properties":{"osm_way_id":"311888667","name":"High Pressure Hire","building":"warehouse","other":{"addr:housenumber":"8","addr:postcode":"RG27 9AY","addr:street":"Optrex Business Centre","phone":"+44 1256 763 440","website":"http:\/\/highpressurehire.co.uk"}}, "geometry":{"type":"MultiPolygon","coordinates":[[[[-0.9881,51.29667],[-0.98809,51.29653],[-0.9879,51.29653],[-0.98791,51.29667],[-0.9881,51.29667]]]]}},
{ "type":"Feature","properties":{"osm_way_id":"311888672","name":"Carbonis","building":"warehouse","other":{"addr:housenumber":"9 & 10","addr:street":"Optrex Business Centre","email":"info@carbonis.co.uk","phone":"+44 20 7289 8695","website":"http:\/\/www.carbonis.co.uk\/"}}, "geometry":{"type":"MultiPolygon","coordinates":[[[[-0.98846,51.29659],[-0.98825,51.29658],[-0.98824,51.2967],[-0.98846,51.2967],[-0.98846,51.29659]]]]}},
{ "type":"Feature","properties":{"osm_way_id":"311888705","name":"Auto Curators","building":"warehouse","shop":"car_repair","other":{"addr:housenumber":"1 & 2","addr:postcode":"RG27 9AY","addr:street":"Optrex Business Centre","phone":"+44 1256 769611","website":"https:\/\/autocurators.com"}}, "geometry":{"type":"MultiPolygon","coordinates":[[[[-0.98765,51.29664],[-0.98765,51.29652],[-0.98733,51.29652],[-0.98733,51.29663],[-0.98765,51.29664]]]]}},
{ "type":"Feature","properties":{"osm_way_id":"328759164","building":"warehouse"},"geometry":{"type":"MultiPolygon","coordinates":[[[[-0.83892,51.28327],[-0.839,51.28321],[-0.83877,51.2831],[-0.8387,51.28316],[-0.83892,51.28327]]]]}},
{ "type":"Feature","properties":{"osm_way_id":"328759167","building":"warehouse"},"geometry":{"type":"MultiPolygon","coordinates":[[[[-0.83939,51.28316],[-0.83933,51.28313],[-0.83931,51.28314],[-0.83926,51.28311],[-0.83932,51.28306],[-0.83921,51.28301],[-0.83908,51.28311],[-0.83878,51.28296],[-0.83902,51.28277],[-0.83949,51.283],[-0.83955,51.28303],[-0.83939,51.28316]]]]}},
{ "type":"Feature","properties":{"osm_way_id":"497375376","building":"warehouse","other":{"addr:housenumber":"7","addr:street":"Optrex Business Centre"}}, "geometry":{"type":"MultiPolygon","coordinates":[[[[-0.9881,51.29646],[-0.98792,51.29646],[-0.98792,51.29642],[-0.9881,51.29642],[-0.9881,51.29646]]]]}},
{ "type":"Feature","properties":{"osm_way_id":"497375378","building":"warehouse","other":{"addr:housenumber":"4","addr:street":"Optrex Business Centre"}}, "geometry":{"type":"MultiPolygon","coordinates":[[[[-0.98777,51.29664],[-0.98786,51.29664],[-0.98786,51.29657],[-0.98777,51.29656],[-0.98777,51.29664]]]]}},
{ "type":"Feature","properties":{"osm_way_id":"497375381","name":"ES Lighting Hire","building":"warehouse","other":{"addr:housenumber":"3","addr:postcode":"RG27 9AY","addr:street":"Optrex Business Centre","email":"Sales@eslightinghire.co.uk","phone":"+44 1256 765609","website":"http:\/\/eslightinghire.co.uk\/"}}, "geometry":{"type":"MultiPolygon","coordinates":[[[[-0.98765,51.29652],[-0.98777,51.29653],[-0.98777,51.29656],[-0.98777,51.29664],[-0.98765,51.29664],[-0.98765,51.29652]]]]}},
{ "type":"Feature","properties":{"osm_way_id":"497375417","name":"Healthcare at Home","building":"warehouse","other":{"addr:housenumber":"Unit 5","addr:postcode":"RG27 9AY","addr:street":"Optrex Business Centre"}}, "geometry":{"type":"MultiPolygon","coordinates":[[[[-0.98733,51.29663],[-0.98718,51.29663],[-0.98719,51.29652],[-0.98733,51.29652],[-0.98733,51.29663]]]]}},
{ "type":"Feature","properties":{"osm_way_id":"563724593","name":"Mid Hants Storage","building":"warehouse","other":{"addr:postcode":"RG29 1SD","building:levels":"2"}}, "geometry":{"type":"MultiPolygon","coordinates":[[[[-0.95933,51.20839],[-0.95859,51.20856],[-0.95839,51.2082],[-0.95913,51.20804],[-0.95933,51.20839]]]]}},
{ "type":"Feature","properties":{"osm_way_id":"563724595","building":"warehouse","other":{"building:levels":"2"}}, "geometry":{"type":"MultiPolygon","coordinates":[[[[-0.95841,51.20808],[-0.95781,51.20823],[-0.9576,51.20789],[-0.9582,51.20774],[-0.95841,51.20808]]]]}},
{ "type":"Feature","properties":{"osm_way_id":"563883116","building":"warehouse","other":{"building:levels":"2"}}, "geometry":{"type":"MultiPolygon","coordinates":[[[[-0.95903,51.20793],[-0.95842,51.20808],[-0.95821,51.20774],[-0.95882,51.20759],[-0.95903,51.20793]]]]}},
{ "type":"Feature","properties":{"osm_way_id":"970740742","building":"warehouse"},"geometry":{"type":"MultiPolygon","coordinates":[[[[-0.77784,51.33226],[-0.77753,51.33205],[-0.77761,51.33201],[-0.77791,51.33222],[-0.77784,51.33226]]]]}},
{ "type":"Feature","properties":{"osm_way_id":"970740743","building":"warehouse"},"geometry":{"type":"MultiPolygon","coordinates":[[[[-0.77829,51.33255],[-0.77798,51.33234],[-0.77805,51.3323],[-0.77837,51.33251],[-0.77829,51.33255]]]]}},
{ "type":"Feature","properties":{"osm_way_id":"970740744","building":"warehouse"},"geometry":{"type":"MultiPolygon","coordinates":[[[[-0.77876,51.33284],[-0.77844,51.33264],[-0.77851,51.3326],[-0.77883,51.3328],[-0.77876,51.33284]]]]}},
{ "type":"Feature","properties":{"osm_way_id":"970740745","building":"warehouse"},"geometry":{"type":"MultiPolygon","coordinates":[[[[-0.77907,51.33303],[-0.7789,51.33293],[-0.77898,51.33288],[-0.77914,51.33299],[-0.77907,51.33303]]]]}},
{ "type":"Feature","properties":{"osm_way_id":"970740746","building":"warehouse"},"geometry":{"type":"MultiPolygon","coordinates":[[[[-0.77927,51.33315],[-0.77911,51.33305],[-0.77918,51.33301],[-0.77935,51.33311],[-0.77927,51.33315]]]]}}
]
}
