{
"type": "FeatureCollection",
"features": [
{ "type":"Feature","properties":{"osm_id":"649319440","name":"Tesco Metro","other":{"addr:postcode":"BL0 9AS","addr:street":"Irwell Street","brand":"Tesco Metro","brand:wikidata":"Q57551648","fhrs:id":"936726","shop":"supermarket","source:addr":"FHRS Open Data"}}, "geometry":{"type":"Point","coordinates":[-2.31593,53.64712 ]}},
{ "type":"Feature","properties":{"osm_id":"789880433","name":"Co-op Food","other":{"addr:housenumber":"2","addr:postcode":"BL8 4DD","addr:street":"Vernon Road","brand":"Co-op Food","brand:wikidata":"Q3277439","brand:wikipedia":"en:Co-op Food","fhrs:id":"936690","operator":"The Co-operative Group","shop":"supermarket","source:addr":"FHRS Open Data"}}, "geometry":{"type":"Point","coordinates":[-2.32944,53.62538 ]}},
{ "type":"Feature","properties":{"osm_id":"1139529296","name":"The Co-operative Food","other":{"operator":"The Co-operative Group","shop":"supermarket"}}, "geometry":{"type":"Point","coordinates":[-2.29806,53.5832 ]}},
{ "type":"Feature","properties":{"osm_id":"4963367457","name":"Spar","other":{"brand":"Spar","brand:wikidata":"Q610492","brand:wikipedia":"en:Spar (retailer)","shop":"supermarket"}}, "geometry":{"type":"Point","coordinates":[-2.27605,53.55146 ]}},
{ "type":"Feature","properties":{"osm_id":"6582037585","name":"The Food Warehouse","other":{"brand:wikidata":"Q87263899","shop":"supermarket"}}, "geometry":{"type":"Point","coordinates":[-2.27618,53.57608 ]}},
{ "type":"Feature","properties":{"osm_way_id":"40314155","name":"Asda","building":"yes","shop":"supermarket","other":{"addr:city":"Manchester","addr:country":"GB","addr:postcode":"M26 3DA","addr:street":"Pilkington Way","brand":"Asda","brand:wikidata":"Q297410","brand:wikipedia":"en:Asda","contact:website":"https:\/\/storelocator.asda.com\/north-west\/manchester\/riverside-retail-park","fhrs:id":"936711","operator":"Asda Stores Ltd","wheelchair":"yes"}}, "geometry":{"type":"MultiPolygon","coordinates":[[[[-2.32798,53.55692],[-2.3276,53.5573],[-2.32783,53.55738],[-2.32779,53.55742],[-2.32821,53.55757],[-2.32824,53.55753],[-2.32883,53.55774],[-2.32884,53.55773],[-2.32898,53.55778],[-2.32916,53.5576],[-2.32925,53.55763],[-2.32935,53.55754],[-2.32926,53.5575],[-2.3293,53.55746],[-2.32917,53.55741],[-2.32939,53.55719],[-2.32918,53.55712],[-2.32921,53.55709],[-2.32916,53.55708],[-2.32922,53.55702],[-2.32906,53.55696],[-2.3291,53.55692],[-2.32867,53.55677],[-2.32848,53.55695],[-2.32826,53.55687],[-2.32824,53.55689],[-2.32814,53.55686],[-2.32805,53.55695],[-2.32798,53.55692]]]]}},
{ "type":"Feature","properties":{"osm_way_id":"55212486","name":"Asda","building":"retail","shop":"supermarket","other":{"addr:city":"Bury","addr:country":"GB","addr:postcode":"BL9 0RN","addr:street":"Spring Street","brand":"Asda","brand:wikidata":"Q297410","brand:wikipedia":"en:Asda","contact:website":"https:\/\/storelocator.asda.com\/north-west\/bury\/spring-street","fhrs:id":"893989","opening_hours":"Mo-Sa 07:00-22:00; Su 11:00-17:00","operator":"Asda Stores Ltd"}}, "geometry":{"type":"MultiPolygon","coordinates":[[[[-2.29217,53.59159],[-2.29163,53.59131],[-2.29076,53.59188],[-2.29131,53.59217],[-2.29217,53.59159]]]]}},
{ "type":"Feature","properties":{"osm_way_id":"143905308","name":"M&S Foodhall","building":"yes","shop":"supermarket","other":{"addr:housenumber":"462","addr:postcode":"M25 3AN","addr:street":"Bury New Road","branch":"Prestwich Simply Food","brand":"M&S Foodhall","brand:wikidata":"Q714491","brand:wikipedia":"en:Marks & Spencer","operator":"Marks & Spencer"}}, "geometry":{"type":"MultiPolygon","coordinates":[[[[-2.28599,53.53409],[-2.28546,53.53422],[-2.28524,53.53388],[-2.28577,53.53376],[-2.28599,53.53409]]]]}},
{ "type":"Feature","properties":{"osm_way_id":"153087684","name":"Tesco Metro","building":"yes","shop":"supermarket","other":{"brand":"Tesco Metro","brand:wikidata":"Q57551648"}}, "geometry":{"type":"MultiPolygon","coordinates":[[[[-2.31622,53.64693],[-2.31598,53.64692],[-2.31598,53.64699],[-2.31595,53.64699],[-2.31595,53.64701],[-2.31565,53.647],[-2.31564,53.64728],[-2.3159,53.64729],[-2.3159,53.6473],[-2.31621,53.6473],[-2.31622,53.64693]]]]}},
{ "type":"Feature","properties":{"osm_way_id":"153088169","name":"Morrisons","building":"supermarket","shop":"supermarket","other":{"addr:postcode":"BL0 9AS","addr:street":"King Street","brand":"Morrisons","brand:wikidata":"Q922344","brand:wikipedia":"en:Morrisons","fhrs:id":"936692","source:addr":"FHRS Open Data"}}, "geometry":{"type":"MultiPolygon","coordinates":[[[[-2.31685,53.64702],[-2.31633,53.647],[-2.3163,53.64754],[-2.31648,53.64755],[-2.31648,53.64758],[-2.31673,53.64759],[-2.31673,53.64761],[-2.31695,53.64761],[-2.31695,53.64748],[-2.31682,53.64748],[-2.31685,53.64702]]]]}},
{ "type":"Feature","properties":{"osm_way_id":"153088518","name":"Aldi","building":"yes","shop":"supermarket","other":{"addr:housenumber":"4","addr:postcode":"BL0 9AL","addr:street":"Railway Street","brand":"ALDI","brand:wikidata":"Q41171672","brand:wikipedia":"en:Aldi","fhrs:id":"936693","source:addr":"FHRS Open Data"}}, "geometry":{"type":"MultiPolygon","coordinates":[[[[-2.31596,53.64616],[-2.31548,53.64615],[-2.31518,53.64614],[-2.31517,53.64644],[-2.31602,53.64646],[-2.31602,53.64632],[-2.31595,53.64632],[-2.31596,53.64616]]]]}},
{ "type":"Feature","properties":{"osm_way_id":"172530295","name":"Aldi","building":"yes","shop":"supermarket","other":{"addr:postcode":"BL8 1GU","addr:street":"Wood Street","brand":"ALDI","brand:wikidata":"Q41171672","brand:wikipedia":"en:Aldi","fhrs:id":"936698","source:addr":"FHRS Open Data"}}, "geometry":{"type":"MultiPolygon","coordinates":[[[[-2.3118,53.59567],[-2.31186,53.59546],[-2.31128,53.5954],[-2.31122,53.59561],[-2.3118,53.59567]]]]}},
{ "type":"Feature","properties":{"osm_way_id":"172530296","name":"B&M Home Store","building":"yes","shop":"supermarket","other":{"addr:city":"Bury","addr:postcode":"BL8 1LB","addr:street":"Wood Street","fhrs:id":"964828","phone":"+44 330 838 9575","website":"https:\/\/bmstores.co.uk\/"}}, "geometry":{"type":"MultiPolygon","coordinates":[[[[-2.31121,53.59568],[-2.30998,53.59556],[-2.30996,53.59556],[-2.30986,53.59595],[-2.31111,53.59607],[-2.31116,53.59586],[-2.31121,53.59568]]]]}},
{ "type":"Feature","properties":{"osm_way_id":"173823088","name":"Morrisons","building":"retail","shop":"supermarket","other":{"addr:housenumber":"5","addr:postcode":"M45 8QH","addr:street":"Stanley Road","brand":"Morrisons","brand:wikidata":"Q922344","brand:wikipedia":"en:Morrisons","fhrs:id":"84298","source:addr":"FHRS Open Data","toilets:wheelchair":"yes","wheelchair":"yes"}}, "geometry":{"type":"MultiPolygon","coordinates":[[[[-2.29636,53.55241],[-2.2952,53.55272],[-2.29462,53.55189],[-2.29572,53.55159],[-2.29636,53.55241]]]]}},
{ "type":"Feature","properties":{"osm_way_id":"207169476","name":"Asda","building":"yes","shop":"supermarket","other":{"addr:city":"Bury","addr:country":"GB","addr:postcode":"BL9 8RS","addr:street":"Pilsworth Road","brand":"Asda","brand:wikidata":"Q297410","brand:wikipedia":"en:Asda","contact:website":"https:\/\/storelocator.asda.com\/north-west\/bury\/pilsworth-road","fhrs:id":"936710","operator":"Asda Stores Ltd","wheelchair":"yes"}}, "geometry":{"type":"MultiPolygon","coordinates":[[[[-2.27434,53.5781],[-2.27415,53.57744],[-2.2739,53.57746],[-2.27389,53.57744],[-2.27382,53.57745],[-2.2738,53.57738],[-2.27372,53.57739],[-2.27373,53.57743],[-2.27363,53.57744],[-2.27363,53.57741],[-2.27356,53.57741],[-2.27357,53.57747],[-2.27316,53.57751],[-2.27317,53.57754],[-2.27265,53.5776],[-2.27268,53.57772],[-2.27248,53.57774],[-2.27264,53.57829],[-2.27282,53.57828],[-2.27289,53.57853],[-2.27323,53.57849],[-2.27323,53.57847],[-2.27366,53.57843],[-2.27365,53.57838],[-2.27406,53.57834],[-2.274,53.57813],[-2.27434,53.5781]]]]}},
{ "type":"Feature","properties":{"osm_way_id":"209200960","name":"Tesco","building":"yes","shop":"supermarket","other":{"addr:postcode":"M25 3TG","addr:street":"Valley Park Road","brand":"Tesco","brand:wikidata":"Q487494","brand:wikipedia":"en:Tesco","designation":"Prestwich Superstore","fhrs:id":"936707"}}, "geometry":{"type":"MultiPolygon","coordinates":[[[[-2.29092,53.53538],[-2.29086,53.5354],[-2.29093,53.53551],[-2.29073,53.53556],[-2.29069,53.53551],[-2.29039,53.53558],[-2.29036,53.53553],[-2.29007,53.5356],[-2.29016,53.53575],[-2.29006,53.53577],[-2.28991,53.53555],[-2.28975,53.53559],[-2.28961,53.53539],[-2.28949,53.53542],[-2.28937,53.53523],[-2.28933,53.53524],[-2.28912,53.53493],[-2.28951,53.53484],[-2.28956,53.53491],[-2.29049,53.53469],[-2.29092,53.53538]]]]}},
{ "type":"Feature","properties":{"osm_way_id":"225472694","name":"ALDI","building":"retail","shop":"supermarket","other":{"addr:postcode":"M45 7EA","addr:street":"Higher Lane","brand":"ALDI","brand:wikidata":"Q41171672","brand:wikipedia":"en:Aldi","fhrs:id":"936708","source:addr":"FHRS Open Data"}}, "geometry":{"type":"MultiPolygon","coordinates":[[[[-2.29151,53.54326],[-2.29156,53.54324],[-2.29151,53.5432],[-2.29171,53.5431],[-2.29204,53.54296],[-2.29231,53.54319],[-2.29214,53.54326],[-2.29172,53.54344],[-2.29151,53.54326]]]]}},
{ "type":"Feature","properties":{"osm_way_id":"240442221","name":"Lidl","building":"yes","shop":"supermarket","other":{"addr:postcode":"M25 0LD","addr:street":"Bury New Road","brand":"Lidl","brand:wikidata":"Q151954","brand:wikipedia":"en:Lidl","designation":"Prestwich","fhrs:id":"936719"}}, "geometry":{"type":"MultiPolygon","coordinates":[[[[-2.27039,53.51794],[-2.27022,53.51752],[-2.27071,53.51744],[-2.27078,53.51763],[-2.27071,53.51763],[-2.27082,53.51789],[-2.27057,53.51793],[-2.2706,53.51799],[-2.27034,53.51802],[-2.27031,53.51795],[-2.27039,53.51794]]]]}},
{ "type":"Feature","properties":{"osm_way_id":"255441562","name":"Co-op Food","building":"yes","shop":"supermarket","other":{"addr:housenumber":"376","addr:postcode":"BL9 8LU","addr:street":"Parr Lane","brand":"Co-op Food","brand:wikidata":"Q3277439","brand:wikipedia":"en:Co-op Food","fhrs:id":"958407","operator":"The Co-operative Group","source:addr":"FHRS Open Data"}}, "geometry":{"type":"MultiPolygon","coordinates":[[[[-2.28199,53.55612],[-2.28184,53.55603],[-2.28212,53.55588],[-2.28227,53.55597],[-2.28199,53.55612]]]]}},
{ "type":"Feature","properties":{"osm_way_id":"258323424","name":"Spar","building":"yes","shop":"supermarket","other":{"brand":"Spar","brand:wikidata":"Q610492","brand:wikipedia":"en:Spar (retailer)"}}, "geometry":{"type":"MultiPolygon","coordinates":[[[[-2.27577,53.59232],[-2.27553,53.5923],[-2.27558,53.59211],[-2.27578,53.59214],[-2.27581,53.59217],[-2.27577,53.59232]]]]}},
{ "type":"Feature","properties":{"osm_way_id":"260607143","name":"Aldi","building":"commercial","shop":"supermarket","other":{"addr:city":"Prestwich","addr:postcode":"M25 1AR","addr:street":"Bury New Road","brand":"ALDI","brand:wikidata":"Q41171672","brand:wikipedia":"en:Aldi","operator":"Aldi"}}, "geometry":{"type":"MultiPolygon","coordinates":[[[[-2.28249,53.53011],[-2.28169,53.53039],[-2.28164,53.53041],[-2.28167,53.53044],[-2.28171,53.53048],[-2.28181,53.53058],[-2.2819,53.53055],[-2.28268,53.53029],[-2.28249,53.53011]]]]}},
{ "type":"Feature","properties":{"osm_way_id":"359736420","name":"The Co-operative Food","building":"yes","shop":"supermarket","other":{"operator":"The Co-operative Group"}}, "geometry":{"type":"MultiPolygon","coordinates":[[[[-2.29229,53.60855],[-2.29251,53.60855],[-2.29252,53.6086],[-2.2923,53.60861],[-2.29229,53.60855]]]]}},
{ "type":"Feature","properties":{"osm_way_id":"359736653","name":"Co-op Food","building":"yes","shop":"supermarket","other":{"addr:housenumber":"78","addr:postcode":"BL8 2JR","addr:street":"Mile Lane","brand":"Co-op Food","brand:wikidata":"Q3277439","brand:wikipedia":"en:Co-op Food","fhrs:id":"936712","operator":"The Co-operative Group","source:addr":"FHRS Open Data"}}, "geometry":{"type":"MultiPolygon","coordinates":[[[[-2.33583,53.588],[-2.3356,53.58807],[-2.33571,53.58819],[-2.33575,53.58825],[-2.33599,53.58818],[-2.33583,53.588]]]]}},
{ "type":"Feature","properties":{"osm_way_id":"507317556","name":"Tesco","building":"yes","shop":"supermarket","other":{"addr:postcode":"BL9 5BY","addr:street":"Peel Way","brand":"Tesco","brand:wikidata":"Q487494","brand:wikipedia":"en:Tesco","fhrs:id":"893987","source:addr":"FHRS Open Data","website":"https:\/\/www.tesco.com\/store-locator\/bury\/woodfield-retail-park"}}, "geometry":{"type":"MultiPolygon","coordinates":[[[[-2.29597,53.59704],[-2.29596,53.5971],[-2.29588,53.59709],[-2.29577,53.59749],[-2.29591,53.5975],[-2.2959,53.59755],[-2.29595,53.59756],[-2.29609,53.59764],[-2.29607,53.59768],[-2.29587,53.59769],[-2.29586,53.59772],[-2.29589,53.59771],[-2.2959,53.59776],[-2.29638,53.59775],[-2.29639,53.59781],[-2.29586,53.59782],[-2.29586,53.59781],[-2.29564,53.59781],[-2.29495,53.59774],[-2.29495,53.59773],[-2.29454,53.5977],[-2.29455,53.59768],[-2.29439,53.59766],[-2.29459,53.59691],[-2.29597,53.59704]]]]}},
{ "type":"Feature","properties":{"osm_way_id":"551706189","name":"Lidl","building":"yes","shop":"supermarket","other":{"brand":"Lidl","brand:wikidata":"Q151954"}}, "geometry":{"type":"MultiPolygon","coordinates":[[[[-2.31218,53.59378],[-2.31205,53.59402],[-2.31188,53.59399],[-2.31186,53.59404],[-2.3117,53.59402],[-2.31173,53.59397],[-2.31127,53.59388],[-2.31142,53.59359],[-2.3121,53.59372],[-2.31208,53.59376],[-2.31218,53.59378]]]]}},
{ "type":"Feature","properties":{"osm_way_id":"558219774","name":"Spar","building":"yes","shop":"supermarket","other":{"brand":"Spar","brand:wikidata":"Q610492","brand:wikipedia":"en:SPAR (retailer)"}}, "geometry":{"type":"MultiPolygon","coordinates":[[[[-2.30934,53.60071],[-2.30912,53.60059],[-2.30894,53.60071],[-2.30908,53.60078],[-2.30915,53.60074],[-2.30923,53.60078],[-2.30934,53.60071]]]]}},
{ "type":"Feature","properties":{"osm_way_id":"763246404","name":"North Manchester Joinery","building":"retail","landuse":"retail","shop":"supermarket","other":{"addr:city":"Manchester","addr:housenumber":"31","addr:postcode":"M25 3BX","addr:street":"Poppythorn Lane","building:levels":"1","contact:email":"dan@northmanchesterjoinery.co.uk","contact:phone":"+44 7950 185 770","opening_hours":"24\/7","operator":"Kitchens, Summer houses, door and windows","payment:bitcoin":"yes","payment:cash":"yes","payment:electronic_purses":"yes","payment:ethereum":"yes","website":"www.northmanchesterjoinery.co.uk","website:map":"www.northmanchesterjoinery.co.uk"}}, "geometry":{"type":"MultiPolygon","coordinates":[[[[-2.28331,53.53475],[-2.28323,53.53475],[-2.28324,53.53482],[-2.28332,53.53482],[-2.28331,53.53475]]]]}},
{ "type":"Feature","properties":{"osm_way_id":"792561652","name":"Co-op Food","building":"yes","shop":"supermarket","other":{"addr:postcode":"BL0 9SH","addr:street":"Longsight Road","brand":"Co-op Food","brand:wikidata":"Q3277439","brand:wikipedia":"en:Co-op Food","fhrs:id":"936723","source:addr":"FHRS Open Data"}}, "geometry":{"type":"MultiPolygon","coordinates":[[[[-2.33437,53.63272],[-2.33477,53.63274],[-2.3348,53.63261],[-2.33466,53.6326],[-2.33451,53.63259],[-2.3345,53.6326],[-2.33439,53.6326],[-2.33437,53.63272]]]]}},
{ "type":"Feature","properties":{"osm_way_id":"853037363","name":"Lidl","building":"yes","shop":"supermarket","other":{"addr:city":"Manchester","addr:postcode":"M26 1AB","addr:street":"Dale Street","brand":"Lidl","brand:wikidata":"Q151954","brand:wikipedia":"en:Lidl","fhrs:id":"1029115","opening_hours":"Mo-Sa 08:00-22:00; Su 10:00-16:00"}}, "geometry":{"type":"MultiPolygon","coordinates":[[[[-2.32601,53.5579],[-2.32594,53.55787],[-2.32604,53.55777],[-2.32611,53.55779],[-2.32615,53.55775],[-2.32705,53.55806],[-2.32681,53.55832],[-2.3259,53.55801],[-2.32601,53.5579]]]]}},
{ "type":"Feature","properties":{"osm_way_id":"954702989","name":"Co-op Food","building":"yes","shop":"supermarket","other":{"brand":"Co-op Food","brand:wikidata":"Q3277439","brand:wikipedia":"en:Co-op Food"}}, "geometry":{"type":"MultiPolygon","coordinates":[[[[-2.34108,53.61473],[-2.34087,53.61479],[-2.34089,53.61481],[-2.34091,53.61482],[-2.34089,53.61483],[-2.34113,53.61504],[-2.3411,53.61505],[-2.34114,53.61509],[-2.3412,53.61507],[-2.3412,53.61507],[-2.34131,53.61503],[-2.34134,53.61505],[-2.34143,53.61502],[-2.3413,53.6149],[-2.34127,53.61491],[-2.34108,53.61473]]]]}}
]
}
