{
"type": "FeatureCollection",
"features": [
{ "type":"Feature","properties":{"osm_way_id":"89884344","name":"Portmeiron Group","building":"warehouse"},"geometry":{"type":"MultiPolygon","coordinates":[[[[-2.17651,52.98403],[-2.17542,52.98404],[-2.17541,52.98352],[-2.17528,52.98352],[-2.17528,52.9833],[-2.17649,52.98329],[-2.17651,52.98403]]]]}},
{ "type":"Feature","properties":{"osm_way_id":"89884410","name":"Pets At Home","building":"warehouse"},"geometry":{"type":"MultiPolygon","coordinates":[[[[-2.17365,52.98313],[-2.17211,52.98319],[-2.17203,52.98232],[-2.17192,52.98233],[-2.17189,52.98209],[-2.17212,52.98208],[-2.17205,52.98127],[-2.17163,52.98129],[-2.17161,52.98107],[-2.17202,52.98105],[-2.172,52.98086],[-2.17251,52.98085],[-2.1725,52.98078],[-2.17338,52.98075],[-2.1734,52.98094],[-2.17329,52.98094],[-2.17337,52.98184],[-2.17359,52.98183],[-2.17361,52.98213],[-2.17356,52.98213],[-2.17357,52.98227],[-2.17353,52.98227],[-2.17354,52.98233],[-2.17377,52.98233],[-2.17381,52.98278],[-2.1736,52.98279],[-2.17365,52.98313]]]]}},
{ "type":"Feature","properties":{"osm_way_id":"154732020","name":"First Potteries Ltd","building":"warehouse","other":{"addr:housename":"Adderley Green Garage","addr:postcode":"ST3 5YY","addr:street":"Dividy Road"}}, "geometry":{"type":"MultiPolygon","coordinates":[[[[-2.12056,53.00233],[-2.12085,53.00226],[-2.12106,53.0022],[-2.12129,53.00214],[-2.12122,53.00203],[-2.12141,53.00197],[-2.12113,53.00159],[-2.12094,53.00165],[-2.12092,53.00163],[-2.12064,53.00171],[-2.12054,53.00158],[-2.12006,53.00169],[-2.12029,53.002],[-2.12036,53.00198],[-2.12047,53.00213],[-2.12039,53.00214],[-2.12056,53.00233]]]]}},
{ "type":"Feature","properties":{"osm_way_id":"174967161","building":"warehouse"},"geometry":{"type":"MultiPolygon","coordinates":[[[[-2.19332,53.01964],[-2.19319,53.01956],[-2.19329,53.01949],[-2.19343,53.01956],[-2.19332,53.01964]]]]}},
{ "type":"Feature","properties":{"osm_way_id":"221466616","name":"Screwfix","building":"warehouse"},"geometry":{"type":"MultiPolygon","coordinates":[[[[-2.16886,52.97471],[-2.16897,52.9749],[-2.1688,52.97494],[-2.16885,52.97503],[-2.16902,52.97499],[-2.16919,52.97527],[-2.16903,52.9753],[-2.16941,52.97595],[-2.16958,52.97592],[-2.16996,52.97656],[-2.17171,52.97616],[-2.17141,52.97567],[-2.17166,52.97561],[-2.17158,52.97547],[-2.17133,52.97553],[-2.17107,52.97509],[-2.17131,52.97504],[-2.1712,52.97485],[-2.17112,52.97486],[-2.17107,52.97477],[-2.17089,52.97481],[-2.17063,52.97437],[-2.17061,52.97434],[-2.1706,52.97433],[-2.17019,52.97367],[-2.16996,52.97371],[-2.16962,52.97321],[-2.16989,52.97315],[-2.16958,52.97263],[-2.16929,52.97269],[-2.16915,52.97237],[-2.16864,52.97247],[-2.1686,52.97241],[-2.16756,52.97264],[-2.16886,52.97471]]]]}},
{ "type":"Feature","properties":{"osm_way_id":"221466626","name":"Amazon Logistics DST1","building":"warehouse","other":{"addr:housename":"Big Stan","addr:postcode":"ST4 8ZT","building:levels":"2","old_name":"Trentham Logistics Limited"}}, "geometry":{"type":"MultiPolygon","coordinates":[[[[-2.1711,52.97874],[-2.17058,52.97752],[-2.17267,52.97719],[-2.17309,52.97818],[-2.17327,52.97815],[-2.17337,52.97838],[-2.1711,52.97874]]]]}},
{ "type":"Feature","properties":{"osm_way_id":"233844566","building":"warehouse","other":{"addr:housenumber":"B3"}}, "geometry":{"type":"MultiPolygon","coordinates":[[[[-2.16793,52.97017],[-2.16784,52.97012],[-2.16772,52.97005],[-2.16763,52.97],[-2.16779,52.9699],[-2.16788,52.96995],[-2.16789,52.96994],[-2.16801,52.97001],[-2.16799,52.97002],[-2.16808,52.97007],[-2.16793,52.97017]]]]}},
{ "type":"Feature","properties":{"osm_way_id":"243279666","name":"Grindleys Solicitors","building":"warehouse","other":{"addr:street":"ST4 1LE","building:levels":"2","building:material":"brick","old_name":"Telephone Exchange","roof:colour":"grey","roof:levels":"1","was:telecom":"exchange"}}, "geometry":{"type":"MultiPolygon","coordinates":[[[[-2.18002,53.00538],[-2.18001,53.00526],[-2.17954,53.00528],[-2.17955,53.00538],[-2.17957,53.0054],[-2.18002,53.00538]]]]}},
{ "type":"Feature","properties":{"osm_way_id":"303783790","name":"Awesome Walls Stoke","building":"warehouse","leisure":"sports_centre","sport":"climbing","other":{"addr:postcode":"ST3 5LW","addr:street":"Sefton Road","brand":"Awesome Walls","indoor":"yes","website":"https:\/\/awesomewalls.co.uk\/stoke\/"}}, "geometry":{"type":"MultiPolygon","coordinates":[[[[-2.11524,52.98183],[-2.11474,52.98166],[-2.11461,52.9818],[-2.11511,52.98197],[-2.11524,52.98183]]]]}},
{ "type":"Feature","properties":{"osm_way_id":"303811850","building":"warehouse"},"geometry":{"type":"MultiPolygon","coordinates":[[[[-2.16232,53.01056],[-2.16195,53.01055],[-2.16196,53.01039],[-2.16233,53.01041],[-2.16286,53.01042],[-2.16284,53.01058],[-2.16365,53.01061],[-2.16372,53.0099],[-2.16307,53.00988],[-2.16309,53.00961],[-2.16268,53.00959],[-2.16265,53.00993],[-2.16203,53.00991],[-2.16204,53.00977],[-2.16142,53.00974],[-2.16141,53.0099],[-2.16149,53.0099],[-2.16142,53.01054],[-2.16156,53.01054],[-2.16156,53.01061],[-2.16193,53.01062],[-2.16192,53.01068],[-2.16212,53.01069],[-2.16212,53.01072],[-2.1623,53.01072],[-2.16232,53.01056]]]]}},
{ "type":"Feature","properties":{"osm_way_id":"303811857","name":"Napalm Crossfit","building":"warehouse","leisure":"sports_centre"},"geometry":{"type":"MultiPolygon","coordinates":[[[[-2.16233,53.01041],[-2.16196,53.01039],[-2.16195,53.01055],[-2.16232,53.01056],[-2.16233,53.01041]]]]}},
{ "type":"Feature","properties":{"osm_way_id":"303951431","name":"Coleman Moducel","building":"warehouse"},"geometry":{"type":"MultiPolygon","coordinates":[[[[-2.15201,52.99259],[-2.15183,52.99338],[-2.15037,52.99326],[-2.15038,52.99323],[-2.15015,52.99321],[-2.15018,52.99309],[-2.15041,52.9931],[-2.15055,52.99247],[-2.15201,52.99259]]]]}},
{ "type":"Feature","properties":{"osm_way_id":"334106280","name":"Appliance World","building":"warehouse","shop":"electrical","other":{"addr:city":"Stoke-on-Trent","addr:housenumber":"551","addr:postcode":"ST4 6HH","addr:street":"Etruria Road","alt_name":"Howards Electrical"}}, "geometry":{"type":"MultiPolygon","coordinates":[[[[-2.21229,53.01605],[-2.21185,53.01612],[-2.21182,53.01605],[-2.21174,53.01586],[-2.21198,53.01582],[-2.21196,53.01579],[-2.21217,53.01575],[-2.21229,53.01605]]]]}},
{ "type":"Feature","properties":{"osm_way_id":"489364116","name":"DPD","building":"warehouse","other":{"addr:city":"Stoke-on-Trent","addr:postcode":"ST1 5GP","addr:street":"Shelton Boulevard"}}, "geometry":{"type":"MultiPolygon","coordinates":[[[[-2.20281,53.02499],[-2.20304,53.02599],[-2.20301,53.02599],[-2.20306,53.02622],[-2.20326,53.0262],[-2.20323,53.02605],[-2.20358,53.02603],[-2.20361,53.02619],[-2.20375,53.02618],[-2.20369,53.02593],[-2.20343,53.0249],[-2.20297,53.02494],[-2.20297,53.02497],[-2.20281,53.02499]]]]}},
{ "type":"Feature","properties":{"osm_way_id":"553699175","name":"Dunelm","building":"warehouse","other":{"addr:housenumber":"DC1"}}, "geometry":{"type":"MultiPolygon","coordinates":[[[[-2.18166,52.98503],[-2.18042,52.98382],[-2.18023,52.98389],[-2.1801,52.98376],[-2.18029,52.98369],[-2.17903,52.98245],[-2.18084,52.98178],[-2.18347,52.98436],[-2.18166,52.98503]]]]}},
{ "type":"Feature","properties":{"osm_way_id":"556690746","building":"warehouse"},"geometry":{"type":"MultiPolygon","coordinates":[[[[-2.1707,53.01331],[-2.17062,53.0134],[-2.17092,53.01349],[-2.17084,53.01358],[-2.17061,53.01351],[-2.17048,53.01366],[-2.1707,53.01372],[-2.17059,53.01386],[-2.17031,53.01377],[-2.17028,53.01381],[-2.17039,53.01384],[-2.17034,53.0139],[-2.16983,53.01374],[-2.17007,53.01345],[-2.17001,53.01343],[-2.17006,53.01337],[-2.17004,53.01336],[-2.17021,53.01316],[-2.1707,53.01331]]]]}},
{ "type":"Feature","properties":{"osm_way_id":"696517430","building":"warehouse","other":{"addr:housenumber":"A2"}}, "geometry":{"type":"MultiPolygon","coordinates":[[[[-2.16713,52.96998],[-2.16713,52.96984],[-2.16727,52.96984],[-2.16727,52.96998],[-2.16713,52.96998]]]]}},
{ "type":"Feature","properties":{"osm_way_id":"696517431","building":"warehouse","other":{"addr:housenumber":"A4"}}, "geometry":{"type":"MultiPolygon","coordinates":[[[[-2.1674,52.96998],[-2.1674,52.96984],[-2.16754,52.96984],[-2.16754,52.96998],[-2.1674,52.96998]]]]}},
{ "type":"Feature","properties":{"osm_way_id":"696517432","building":"warehouse","other":{"addr:housenumber":"B1"}}, "geometry":{"type":"MultiPolygon","coordinates":[[[[-2.16772,52.97005],[-2.16788,52.96995],[-2.16779,52.9699],[-2.16763,52.97],[-2.16772,52.97005]]]]}},
{ "type":"Feature","properties":{"osm_way_id":"696517433","building":"warehouse","other":{"addr:housenumber":"A1"}}, "geometry":{"type":"MultiPolygon","coordinates":[[[[-2.16713,52.96998],[-2.16713,52.96984],[-2.16699,52.96985],[-2.167,52.96998],[-2.16713,52.96998]]]]}},
{ "type":"Feature","properties":{"osm_way_id":"696517434","building":"warehouse","other":{"addr:housenumber":"A3"}}, "geometry":{"type":"MultiPolygon","coordinates":[[[[-2.16727,52.96984],[-2.1674,52.96984],[-2.1674,52.96998],[-2.16727,52.96998],[-2.16727,52.96984]]]]}},
{ "type":"Feature","properties":{"osm_way_id":"696517435","building":"warehouse","other":{"addr:housenumber":"B2"}}, "geometry":{"type":"MultiPolygon","coordinates":[[[[-2.16784,52.97012],[-2.16799,52.97002],[-2.16801,52.97001],[-2.16789,52.96994],[-2.16788,52.96995],[-2.16772,52.97005],[-2.16784,52.97012]]]]}},
{ "type":"Feature","properties":{"osm_way_id":"696517436","building":"warehouse","other":{"addr:housenumber":"A4"}}, "geometry":{"type":"MultiPolygon","coordinates":[[[[-2.16784,52.97012],[-2.16799,52.97002],[-2.16808,52.97007],[-2.16793,52.97017],[-2.16784,52.97012]]]]}},
{ "type":"Feature","properties":{"osm_way_id":"814606556","building":"warehouse","other":{"addr:postcode":"ST4 2QR","addr:street":"Victoria Road"}}, "geometry":{"type":"MultiPolygon","coordinates":[[[[-2.16514,53.01014],[-2.165,53.01094],[-2.16454,53.01091],[-2.16467,53.01011],[-2.16514,53.01014]]]]}}
]
}
