{
"type": "FeatureCollection",
"features": [
{ "type":"Feature","properties":{"osm_id":"4258769562","name":"Cook","other":{"addr:city":"East Grinstead","addr:housename":"Constitutional Buildings","addr:housenumber":"2","addr:postcode":"RH19 3AW","addr:street":"High Street","fhrs:id":"737153","opening_hours":"Mo-Sa 09:30-17:30, Su 10:00-16:00","phone":"+44 1342 821772","shop":"supermarket","website":"https:\/\/www.cookfood.net\/shops\/east-grinstead"}}, "geometry":{"type":"Point","coordinates":[-0.0082,51.12395 ]}},
{ "type":"Feature","properties":{"osm_id":"4258769699","name":"London Road Food & Wine","other":{"addr:city":"East Grinstead","addr:housenumber":"65","addr:postcode":"RH19 1EQ","addr:street":"London Road","fhrs:id":"1226213","shop":"supermarket"}}, "geometry":{"type":"Point","coordinates":[-0.00967,51.12627 ]}},
{ "type":"Feature","properties":{"osm_id":"6178088234","name":"M&S Foodhall","other":{"shop":"supermarket","brand":"M&S Foodhall","operator":"Marks and Spencers","brand:wikidata":"Q714491","brand:wikipedia":"en:Marks & Spencer"}}, "geometry":{"type":"Point","coordinates":[-0.19978,51.08323 ]}},
{ "type":"Feature","properties":{"osm_id":"6222592145","name":"Co-op","other":{"addr:city":"Haywards Heath","addr:housenumber":"22-28","addr:postcode":"RH16 4GH","addr:street":"Middle Village","addr:suburb":"Bolnore Village","fhrs:id":"46457","operator":"The Co-operative Group","shop":"supermarket"}}, "geometry":{"type":"Point","coordinates":[-0.11668,50.99023 ]}},
{ "type":"Feature","properties":{"osm_way_id":"130636637","name":"Sainsbury's","building":"yes","shop":"supermarket","other":{"addr:city":"East Grinstead","addr:postcode":"RH19 1DD","addr:street":"Brooklands Way","branch":"East Grinstead Superstore","brand":"Sainsbury's","brand:wikidata":"Q152096","brand:wikipedia":"en:Sainsbury's","building:levels":"1","contact:website":"https:\/\/stores.sainsburys.co.uk\/0015\/east-grinstead","fhrs:id":"493289","opening_hours":"Mo-Th 07:00-22:00; Su 10:00-16:00; Fr-Sa 06:00-22:00","operator":"Sainsbury's Supermarkets Ltd","phone":"+44 1342 303167","toilets":"yes","toilets:wheelchair":"yes","website":"https:\/\/www.sainsburys.co.uk\/","wheelchair":"yes"}}, "geometry":{"type":"MultiPolygon","coordinates":[[[[-0.01816,51.12567],[-0.01814,51.12566],[-0.0182,51.12563],[-0.01777,51.12539],[-0.01774,51.12541],[-0.01744,51.12525],[-0.01654,51.12589],[-0.01654,51.126],[-0.01668,51.12607],[-0.01674,51.12607],[-0.0168,51.12607],[-0.0168,51.12607],[-0.01681,51.12607],[-0.01681,51.12599],[-0.0168,51.12599],[-0.01695,51.12589],[-0.01735,51.12612],[-0.01767,51.12601],[-0.01816,51.12567]]]]}},
{ "type":"Feature","properties":{"osm_way_id":"177529438","name":"Waitrose","building":"retail","shop":"supermarket","other":{"addr:city":"East Grinstead","addr:postcode":"RH19 4YZ","addr:street":"West Street","branch":"East Grinstead","brand":"Waitrose","brand:wikidata":"Q771734","brand:wikipedia":"en:Waitrose","email":"customerserviceteam@waitrose.co.uk","fhrs:id":"17625","official_name":"Waitrose & Partners","opening_hours":"Mo-Sa 08:00-21:00; Su 10:00-16:00","operator":"Waitrose & Partners","phone":"+44 1342 323724","website":"https:\/\/www.waitrose.com\/content\/waitrose\/en\/bf_home\/bf\/741.html"}}, "geometry":{"type":"MultiPolygon","coordinates":[[[[-0.01041,51.12339],[-0.01055,51.12336],[-0.01056,51.12338],[-0.01087,51.12331],[-0.011,51.12328],[-0.01113,51.12353],[-0.0112,51.12351],[-0.01136,51.12379],[-0.01072,51.12393],[-0.01041,51.12339]]]]}},
{ "type":"Feature","properties":{"osm_way_id":"177530445","name":"ALDI","building":"yes","shop":"supermarket","other":{"addr:city":"East Grinstead","addr:housenumber":"207","addr:postcode":"RH19 1HA","addr:street":"London Road","alt_name":"ALDI East Grinstead","brand":"ALDI","brand:wikidata":"Q41171672","brand:wikipedia":"en:Aldi","fhrs:id":"34412","opening_hours":"Mo-Sa 08:00-22:00, Su 10:00-16:00","website":"https:\/\/www.aldi.co.uk\/store\/s-uk-E0525"}}, "geometry":{"type":"MultiPolygon","coordinates":[[[[-0.01551,51.12967],[-0.01516,51.1296],[-0.01489,51.13013],[-0.01524,51.1302],[-0.01551,51.12967]]]]}},
{ "type":"Feature","properties":{"osm_way_id":"220383455","name":"Budgens","building":"yes","shop":"supermarket","other":{"addr:housenumber":"1-3","addr:postcode":"BN6 8QA","addr:street":"Orion Parade, Keymer Road","alt_name":"Budgens Hassock","brand":"Budgens","brand:wikidata":"Q4985016","brand:wikipedia":"en:Budgens","operator":"Budgens"}}, "geometry":{"type":"MultiPolygon","coordinates":[[[[-0.13909,50.92346],[-0.13905,50.92353],[-0.13936,50.9236],[-0.1394,50.92353],[-0.13909,50.92346]]]]}},
{ "type":"Feature","properties":{"osm_way_id":"237302449","name":"Sainsbury's","building":"retail","shop":"supermarket","other":{"brand":"Sainsbury's","layer":"1","addr:city":"Haywards Heath","wheelchair":"limited","addr:street":"Bannister Way","addr:postcode":"RH16 1DG","opening_hours":"Mo-Sa 07:00-22:00; Su 10:00-16:00","addr:housename":"J Sainsbury Plc","brand:wikidata":"Q152096","brand:wikipedia":"en:Sainsbury's","building:levels":"2"}}, "geometry":{"type":"MultiPolygon","coordinates":[[[[-0.10697,51.00695],[-0.10702,51.00696],[-0.10704,51.00691],[-0.10712,51.00692],[-0.10715,51.00685],[-0.1072,51.00686],[-0.10722,51.00682],[-0.10725,51.00682],[-0.10732,51.00665],[-0.10739,51.00666],[-0.10747,51.00646],[-0.10724,51.00642],[-0.10736,51.00614],[-0.10642,51.00599],[-0.10639,51.00606],[-0.10627,51.00604],[-0.10624,51.00604],[-0.10609,51.00642],[-0.10604,51.00641],[-0.10591,51.00674],[-0.10608,51.00677],[-0.10608,51.00679],[-0.10644,51.00684],[-0.10643,51.00687],[-0.10678,51.00692],[-0.10672,51.00706],[-0.10691,51.00709],[-0.10697,51.00695]]]]}},
{ "type":"Feature","properties":{"osm_way_id":"332511164","name":"Waitrose","building":"yes","shop":"supermarket","other":{"addr:city":"Burgess Hill","addr:housenumber":"1","addr:postcode":"RH15 9NP","addr:street":"Market Place, The Martletts","alt_name":"Waitrose Burgess Hill","brand":"Waitrose","brand:wikidata":"Q771734","brand:wikipedia":"en:Waitrose","fhrs:id":"507747","official_name":"Waitrose & Partners","operator":"Waitrose & Partners","source:addr":"ratings.food.gov.uk"}}, "geometry":{"type":"MultiPolygon","coordinates":[[[[-0.1311,50.95425],[-0.13114,50.95422],[-0.13112,50.95421],[-0.13118,50.95417],[-0.13124,50.9542],[-0.13135,50.95413],[-0.13194,50.95446],[-0.13146,50.95477],[-0.13126,50.95465],[-0.13094,50.95448],[-0.13088,50.95443],[-0.13105,50.9543],[-0.13103,50.9543],[-0.1311,50.95425]]]]}},
{ "type":"Feature","properties":{"osm_way_id":"332511166","name":"Tesco","building":"yes","shop":"supermarket","other":{"addr:city":"Burgess Hill","addr:housename":"Hammonds Farm","addr:postcode":"RH15 9QT","addr:street":"Jane Murray Way","alt_name":"Tesco Burgess Hill Superstore","brand":"Tesco","brand:wikidata":"Q487494","brand:wikipedia":"en:Tesco"}}, "geometry":{"type":"MultiPolygon","coordinates":[[[[-0.14977,50.95073],[-0.14977,50.95052],[-0.14977,50.95041],[-0.14977,50.95035],[-0.14969,50.95035],[-0.14965,50.95035],[-0.14965,50.95028],[-0.14921,50.95028],[-0.14913,50.95028],[-0.14912,50.95015],[-0.14897,50.95015],[-0.1483,50.95016],[-0.1483,50.95026],[-0.14833,50.95099],[-0.14867,50.95099],[-0.14867,50.95091],[-0.14965,50.9509],[-0.14965,50.95084],[-0.14993,50.95084],[-0.14993,50.95074],[-0.14977,50.95073]]]]}},
{ "type":"Feature","properties":{"osm_way_id":"450667741","name":"Spar","building":"yes","shop":"supermarket","other":{"addr:city":"Haywards Heath","addr:housenumber":"54-56","addr:postcode":"RH16 3DT","addr:street":"Perrymount Road","brand":"Spar","brand:wikidata":"Q610492","brand:wikipedia":"en:SPAR (retailer)","opening_hours":"07:00-23:00"}}, "geometry":{"type":"MultiPolygon","coordinates":[[[[-0.10329,51.00531],[-0.10308,51.0053],[-0.10309,51.00518],[-0.1033,51.00519],[-0.10329,51.00531]]]]}},
{ "type":"Feature","properties":{"osm_way_id":"490557204","name":"Waitrose","building":"commercial","shop":"supermarket","other":{"addr:city":"Haywards Heath","addr:housename":"Waitrose","addr:housenumber":"6","addr:postcode":"RH16 3DP","addr:street":"Clair Road","brand":"Waitrose","brand:wikidata":"Q771734","brand:wikipedia":"en:Waitrose","building:levels":"2","layer":"1","official_name":"Waitrose & Partners","opening_hours":"Mo-Sa 07:00-21:00; Su 10:00-16:00","operator":"Waitrose & Partners","phone":"+44 1444 441251","website":"https:\/\/www.waitrose.com\/bf_home\/bf\/873.html","wheelchair":"yes"}}, "geometry":{"type":"MultiPolygon","coordinates":[[[[-0.1044,51.00548],[-0.10439,51.00552],[-0.10438,51.00554],[-0.10433,51.00567],[-0.1039,51.00561],[-0.10381,51.0057],[-0.10359,51.00564],[-0.10355,51.00562],[-0.10353,51.0056],[-0.10353,51.00557],[-0.10363,51.00532],[-0.10358,51.00531],[-0.1036,51.00515],[-0.10387,51.0052],[-0.10391,51.0051],[-0.10391,51.00508],[-0.10393,51.00506],[-0.104,51.00507],[-0.10399,51.00511],[-0.10436,51.00517],[-0.10435,51.0052],[-0.10442,51.00521],[-0.10438,51.00529],[-0.1044,51.0053],[-0.10448,51.00531],[-0.1044,51.00548]]]]}},
{ "type":"Feature","properties":{"osm_way_id":"709678032","name":"Lidl","building":"yes","shop":"supermarket","other":{"addr:city":"Burgess Hill","addr:country":"GB","addr:housenumber":"130","addr:postcode":"RH15 8AB","addr:street":"Leylands Road","brand":"Lidl","brand:wikidata":"Q151954","brand:wikipedia":"en:Lidl","fhrs:id":"1158358","operator":"Lidl"}}, "geometry":{"type":"MultiPolygon","coordinates":[[[[-0.12857,50.96458],[-0.12804,50.96396],[-0.12848,50.96381],[-0.12862,50.96397],[-0.12857,50.96398],[-0.12892,50.9644],[-0.12865,50.96449],[-0.12869,50.96454],[-0.12857,50.96458]]]]}},
{ "type":"Feature","properties":{"osm_way_id":"775217947","name":"Co-op Food","building":"yes","shop":"supermarket","other":{"addr:city":"Haywards Heath","addr:housenumber":"35 - 37","addr:postcode":"RH16 2HJ","addr:street":"High Street","addr:village":"Lindfield","brand":"Co-op Food","brand:wikidata":"Q3277439","brand:wikipedia":"en:Co-op Food"}}, "geometry":{"type":"MultiPolygon","coordinates":[[[[-0.08162,51.01213],[-0.08158,51.01225],[-0.08179,51.01228],[-0.08193,51.01229],[-0.08197,51.01216],[-0.08185,51.01215],[-0.08162,51.01213]]]]}},
{ "type":"Feature","properties":{"osm_way_id":"915950015","name":"Co-op Food","building":"yes","shop":"supermarket","other":{"addr:city":"Burgess Hill","addr:housenumber":"200","addr:postcode":"RH15 9RD","addr:street":"London Road","brand":"Co-op Food","brand:wikidata":"Q3277439","brand:wikipedia":"en:Co-op Food"}}, "geometry":{"type":"MultiPolygon","coordinates":[[[[-0.13833,50.95633],[-0.13802,50.95636],[-0.13797,50.95616],[-0.13823,50.95614],[-0.13827,50.95628],[-0.13827,50.95629],[-0.13832,50.95629],[-0.13833,50.95633]]]]}}
]
}
