{
"type": "FeatureCollection",
"features": [
{ "type":"Feature","properties":{"osm_id":"1360955049","name":"Tesco Express","other":{"addr:city":"Bristol","addr:housenumber":"2","addr:place":"Stoke Gifford","addr:postcode":"BS34 8UE","addr:street":"Ratcliffe Drive","brand":"Tesco Express","brand:wikidata":"Q98456772","contact:website":"https:\/\/www.tesco.com\/store-locator\/bristol\/hatchet-rd","fhrs:id":"951850","opening_hours":"Mo-Su 07:00-23:00","shop":"supermarket","wheelchair":"yes"}}, "geometry":{"type":"Point","coordinates":[-2.54673,51.51754 ]}},
{ "type":"Feature","properties":{"osm_id":"3053838419","other":{"addr:city":"Edinburgh","addr:country":"GB","addr:housenumber":"76","addr:postcode":"EH6 8HL","addr:street":"Duke Street"}}, "geometry":{"type":"Point","coordinates":[-3.17022,55.97004 ]}},
{ "type":"Feature","properties":{"osm_id":"5175242161","name":"The Co-operative","other":{"shop":"supermarket"}}, "geometry":{"type":"Point","coordinates":[-2.5596,51.49714 ]}},
{ "type":"Feature","properties":{"osm_id":"6989545242","other":{"amenity":"waste_basket"}}, "geometry":{"type":"Point","coordinates":[-2.50858,51.5226 ]}},
{ "type":"Feature","properties":{"osm_id":"7024412366","name":"M&S Food","other":{"brand":"M&S Foodhall","brand:wikidata":"Q714491","level":"0","shop":"supermarket","website":"https:\/\/www.marksandspencer.com\/stores\/cribbs-causeway-6473"}}, "geometry":{"type":"Point","coordinates":[-2.59389,51.5236 ]}},
{ "type":"Feature","properties":{"osm_id":"7283355916","name":"Filton Town Council","other":{"information":"board","tourism":"information"}}, "geometry":{"type":"Point","coordinates":[-2.56994,51.50204 ]}},
{ "type":"Feature","properties":{"osm_way_id":"4225415","name":"Tesco","building":"shop","shop":"supermarket","other":{"addr:city":"Bristol","addr:postcode":"BS35 2BS","addr:street":"Midland Way","brand":"Tesco","brand:wikidata":"Q487494","brand:wikipedia":"en:Tesco","fhrs:id":"148469","source:outline":"Bing"}}, "geometry":{"type":"MultiPolygon","coordinates":[[[[-2.52488,51.60428],[-2.52465,51.60423],[-2.52455,51.60439],[-2.52429,51.60433],[-2.52426,51.60437],[-2.52401,51.60432],[-2.52438,51.60367],[-2.52496,51.6038],[-2.5252,51.60386],[-2.52506,51.60407],[-2.52496,51.60423],[-2.52492,51.60422],[-2.52488,51.60428]]]]}},
{ "type":"Feature","properties":{"osm_way_id":"4229379","name":"Tesco Extra","building":"retail","shop":"supermarket","other":{"addr:city":"Yate","addr:housenumber":"12","addr:postcode":"BS37 4AS","addr:street":"East Walk","brand":"Tesco Extra","brand:wikidata":"Q25172225","brand:wikipedia":"en:Tesco Extra","fhrs:id":"58296","layer":"1","level":"1","source:outline":"Bing;estimated from photos","start_date":"2011"}}, "geometry":{"type":"MultiPolygon","coordinates":[[[[-2.41202,51.54004],[-2.41197,51.54014],[-2.41179,51.54011],[-2.41161,51.54008],[-2.41143,51.54004],[-2.41088,51.53994],[-2.41029,51.53983],[-2.41081,51.53873],[-2.41199,51.53894],[-2.41185,51.53923],[-2.41215,51.53928],[-2.4121,51.53937],[-2.41232,51.53941],[-2.41202,51.54004]]]]}},
{ "type":"Feature","properties":{"osm_way_id":"4899408","name":"Morrisons","building":"supermarket","shop":"supermarket","other":{"addr:city":"Bristol","addr:postcode":"BS10 7UD","brand":"Morrisons","brand:wikidata":"Q922344","brand:wikipedia":"en:Morrisons","fhrs:id":"149662","wheelchair":"yes"}}, "geometry":{"type":"MultiPolygon","coordinates":[[[[-2.60676,51.52651],[-2.60627,51.52712],[-2.60624,51.52711],[-2.60623,51.52713],[-2.60604,51.52707],[-2.60604,51.52708],[-2.60586,51.52702],[-2.60588,51.527],[-2.60534,51.52683],[-2.6053,51.52688],[-2.60522,51.52685],[-2.60523,51.52684],[-2.60502,51.52677],[-2.60516,51.5266],[-2.60523,51.52662],[-2.60554,51.52623],[-2.60569,51.52628],[-2.60576,51.52619],[-2.60676,51.52651]]]]}},
{ "type":"Feature","properties":{"osm_way_id":"4917110","name":"Sainsbury's","building":"retail","shop":"supermarket","other":{"addr:city":"Bristol","addr:housenumber":"The Village","addr:postcode":"BS16 7AE","addr:street":"Emerson Way","alt_name":"Sainsbury's Emersons Green Superstore","brand":"Sainsbury's","brand:wikidata":"Q152096","brand:wikipedia":"en:Sainsbury's","building:levels":"1","check_date:opening_hours":"2021-08-11","fhrs:id":"51982","opening_hours":"Mo-Fr 07:00-23:00; Sa 07:00-22:00; Su 10:30-16:30","source:outline":"Bing"}}, "geometry":{"type":"MultiPolygon","coordinates":[[[[-2.47445,51.49215],[-2.4745,51.49216],[-2.47443,51.49233],[-2.47326,51.49277],[-2.47248,51.49197],[-2.47304,51.49176],[-2.4731,51.49183],[-2.47357,51.49165],[-2.47355,51.49162],[-2.47383,51.49151],[-2.47445,51.49215]]]]}},
{ "type":"Feature","properties":{"osm_way_id":"6946182","name":"Sainsbury's","building":"store","shop":"supermarket","other":{"addr:city":"Bristol","addr:postcode":"BS34 8SS","addr:street":"Fox Den Road","brand":"Sainsbury's","brand:wikidata":"Q152096","brand:wikipedia":"en:Sainsbury's","fhrs:id":"100124","toilets:wheelchair":"yes","website":"https:\/\/stores.sainsburys.co.uk\/0797\/east-filton","wheelchair":"yes","wheelchair:description":"Very accessible, sometimes have locked disabled toilets without suitable signs"}}, "geometry":{"type":"MultiPolygon","coordinates":[[[[-2.55269,51.50729],[-2.5527,51.5073],[-2.55272,51.50728],[-2.55336,51.50757],[-2.55327,51.50766],[-2.55376,51.50788],[-2.55307,51.50847],[-2.55222,51.50809],[-2.55235,51.50798],[-2.55241,51.50801],[-2.5525,51.50793],[-2.55213,51.50777],[-2.55269,51.50729]]]]}},
{ "type":"Feature","properties":{"osm_way_id":"10523297","name":"Aldi","building":"store","shop":"supermarket","other":{"addr:city":"Bristol","addr:postcode":"BS32 9DF","brand":"ALDI","brand:wikidata":"Q41171672","brand:wikipedia":"en:Aldi","fhrs:id":"45114"}}, "geometry":{"type":"MultiPolygon","coordinates":[[[[-2.55836,51.54141],[-2.55824,51.54138],[-2.55827,51.54134],[-2.55829,51.54129],[-2.55831,51.54125],[-2.55776,51.54113],[-2.5577,51.54112],[-2.55762,51.54118],[-2.55769,51.54122],[-2.55771,51.54122],[-2.55758,51.54146],[-2.55825,51.5416],[-2.55836,51.54141]]]]}},
{ "type":"Feature","properties":{"osm_way_id":"18756305","name":"Lidl","building":"yes","shop":"supermarket","other":{"addr:city":"Bristol","addr:housenumber":"Unit A3","addr:postcode":"BS16 7AE","addr:street":"Emerson Way","brand":"Lidl","brand:wikidata":"Q151954","brand:wikipedia":"en:Lidl","fhrs:id":"143341","opening_hours":"Mo-Sa 08:00-20:00; Su 10:00-16:00; PH 08:00-20:00","source:outline":"Bing"}}, "geometry":{"type":"MultiPolygon","coordinates":[[[[-2.47531,51.49376],[-2.475,51.49388],[-2.47469,51.49356],[-2.475,51.49345],[-2.47531,51.49376]]]]}},
{ "type":"Feature","properties":{"osm_way_id":"23166980","name":"Tesco","building":"yes","shop":"supermarket","other":{"addr:city":"Edinburgh","addr:housenumber":"76","addr:postcode":"EH6 8HL","addr:street":"Duke Street","alt_name":"Tesco Edinburgh Leith Superstore","brand":"Tesco","brand:wikidata":"Q487494","brand:wikipedia":"en:Tesco","operator":"Tesco"}}, "geometry":{"type":"MultiPolygon","coordinates":[[[[-3.16987,55.96993],[-3.17005,55.96973],[-3.16973,55.96964],[-3.16994,55.9694],[-3.17097,55.96972],[-3.17092,55.96977],[-3.17097,55.96981],[-3.17071,55.97009],[-3.17062,55.97009],[-3.17057,55.97015],[-3.17022,55.97004],[-3.16987,55.96993]]]]}},
{ "type":"Feature","properties":{"osm_way_id":"31240507","name":"Sainsbury's","building":"shop","shop":"supermarket","other":{"addr:city":"Bristol","addr:postcode":"BS15 8LP","brand":"Sainsbury's","brand:wikidata":"Q152096","fhrs:id":"41912","source:outline":"Bing"}}, "geometry":{"type":"MultiPolygon","coordinates":[[[[-2.50817,51.46399],[-2.50792,51.46358],[-2.50824,51.4635],[-2.50846,51.46345],[-2.50871,51.46386],[-2.50851,51.46391],[-2.50817,51.46399]]]]}},
{ "type":"Feature","properties":{"osm_way_id":"32846078","name":"Asda","building":"supermarket","shop":"supermarket","other":{"addr:city":"Bristol","addr:postcode":"BS30 7DY","brand":"Asda","brand:wikidata":"Q297410","brand:wikipedia":"en:Asda","contact:facebook":"https:\/\/www.facebook.com\/asda\/","contact:twitter":"@asda","contact:website":"https:\/\/storelocator.asda.com\/south-west\/bristol\/craven-way","fhrs:id":"41709","opening_hours":"Mo 08:00-24:00; Tu-Fr 00:00-24:00; Sa 00:00-22:00; Su 10:00-16:00","operator":"Asda Stores Ltd"}}, "geometry":{"type":"MultiPolygon","coordinates":[[[[-2.49748,51.4488],[-2.49808,51.4483],[-2.49788,51.4482],[-2.49784,51.44824],[-2.49772,51.44818],[-2.49786,51.44808],[-2.49771,51.448],[-2.49796,51.44781],[-2.49787,51.44766],[-2.49709,51.44727],[-2.49659,51.44767],[-2.49648,51.44762],[-2.49625,51.44781],[-2.49588,51.44812],[-2.49708,51.44872],[-2.49717,51.44867],[-2.49748,51.4488]]]]}},
{ "type":"Feature","properties":{"osm_way_id":"58216568","name":"Tesco Metro","building":"yes","shop":"supermarket","other":{"addr:city":"Bristol","addr:housenumber":"58","addr:place":"Staple Hill","addr:postcode":"BS16 5NP","addr:street":"Broad Street","brand":"Tesco Metro","brand:wikidata":"Q57551648","fhrs:id":"52878"}}, "geometry":{"type":"MultiPolygon","coordinates":[[[[-2.50354,51.48092],[-2.50355,51.48075],[-2.50339,51.48075],[-2.5034,51.48069],[-2.5033,51.48069],[-2.50331,51.48063],[-2.50335,51.48063],[-2.50335,51.48051],[-2.50354,51.48051],[-2.50354,51.48046],[-2.5036,51.48046],[-2.5036,51.48043],[-2.50384,51.48043],[-2.50384,51.48046],[-2.50386,51.48046],[-2.50386,51.4805],[-2.5039,51.4805],[-2.50391,51.48061],[-2.50395,51.48063],[-2.50394,51.48068],[-2.50398,51.48071],[-2.50397,51.48081],[-2.504,51.48083],[-2.504,51.48089],[-2.50392,51.48094],[-2.50354,51.48093],[-2.50354,51.48092]]]]}},
{ "type":"Feature","properties":{"osm_way_id":"60872151","name":"Waitrose","building":"retail","shop":"supermarket","other":{"addr:city":"Birmingham","addr:postcode":"B28 9EF","addr:street":"Stratford Road","brand":"Waitrose","brand:wikidata":"Q771734","brand:wikipedia":"en:Waitrose","official_name":"Waitrose & Partners","operator":"Waitrose & Partners"}}, "geometry":{"type":"MultiPolygon","coordinates":[[[[-1.84167,52.42816],[-1.84128,52.42823],[-1.84126,52.42819],[-1.84116,52.42821],[-1.84108,52.42805],[-1.84119,52.42803],[-1.84112,52.4279],[-1.84146,52.42784],[-1.84146,52.42782],[-1.84155,52.42781],[-1.84154,52.42778],[-1.84167,52.42776],[-1.84185,52.42812],[-1.84181,52.42813],[-1.84167,52.42816]]]]}},
{ "type":"Feature","properties":{"osm_way_id":"89042375","name":"Morrisons","building":"retail","shop":"supermarket","other":{"addr:city":"Bristol","addr:postcode":"BS37 5PW","brand":"Morrisons","brand:wikidata":"Q922344","brand:wikipedia":"en:Morrisons","fhrs:id":"100280","source:outline":"Bing"}}, "geometry":{"type":"MultiPolygon","coordinates":[[[[-2.41781,51.54165],[-2.41796,51.54181],[-2.41789,51.54183],[-2.41797,51.54192],[-2.41799,51.54191],[-2.41825,51.54221],[-2.41807,51.54227],[-2.41808,51.54228],[-2.41784,51.54236],[-2.41776,51.54228],[-2.41766,51.54231],[-2.41764,51.54228],[-2.4173,51.54239],[-2.41715,51.54239],[-2.41684,51.54203],[-2.41692,51.542],[-2.41685,51.54193],[-2.41679,51.54185],[-2.41702,51.54178],[-2.41704,51.54179],[-2.41706,51.54181],[-2.41744,51.54168],[-2.41748,51.54172],[-2.41755,51.5417],[-2.41751,51.54166],[-2.41762,51.54162],[-2.41761,51.5416],[-2.4175,51.54149],[-2.41757,51.54146],[-2.41768,51.5416],[-2.41775,51.54157],[-2.41776,51.54158],[-2.41779,51.54162],[-2.41783,51.54161],[-2.41779,51.54157],[-2.4179,51.54154],[-2.41792,51.54156],[-2.41803,51.54152],[-2.41807,51.54156],[-2.41783,51.54164],[-2.41781,51.54165]]]]}},
{ "type":"Feature","properties":{"osm_way_id":"102327291","name":"Tesco Extra","building":"retail","shop":"supermarket","other":{"addr:city":"Bristol","addr:county":"South Gloucestershire","addr:housename":"Bradley Stoke District Centre","addr:postcode":"BS32 8EF","addr:suburb":"Bradley Stoke","brand":"Tesco Extra","brand:wikidata":"Q25172225","brand:wikipedia":"en:Tesco Extra","fhrs:id":"52383","source:outline":"Bing"}}, "geometry":{"type":"MultiPolygon","coordinates":[[[[-2.54842,51.53482],[-2.54846,51.53481],[-2.54841,51.53471],[-2.5485,51.53469],[-2.5486,51.5349],[-2.54882,51.53529],[-2.54893,51.5355],[-2.5472,51.53586],[-2.54687,51.53526],[-2.54689,51.53526],[-2.54684,51.53511],[-2.54682,51.53498],[-2.54691,51.53496],[-2.54693,51.53498],[-2.547,51.53496],[-2.54712,51.53516],[-2.54704,51.53518],[-2.54707,51.53522],[-2.54739,51.53516],[-2.54728,51.53495],[-2.54735,51.53494],[-2.54737,51.53497],[-2.54741,51.53496],[-2.54747,51.53506],[-2.54788,51.53497],[-2.54792,51.53504],[-2.54796,51.53503],[-2.54795,51.53502],[-2.54805,51.535],[-2.54804,51.53498],[-2.54819,51.53495],[-2.54819,51.53497],[-2.54834,51.53493],[-2.54835,51.53495],[-2.54847,51.53492],[-2.54842,51.53482]]]]}},
{ "type":"Feature","properties":{"osm_way_id":"103915339","name":"Tesco Express","building":"retail","shop":"supermarket","other":{"addr:city":"Yate","addr:postcode":"BS37 7PJ","addr:street":"Lark Rise","brand":"Tesco Express","brand:wikidata":"Q98456772"}}, "geometry":{"type":"MultiPolygon","coordinates":[[[[-2.41135,51.55184],[-2.4115,51.55183],[-2.41152,51.55194],[-2.41116,51.55197],[-2.41114,51.55186],[-2.41135,51.55184]]]]}},
{ "type":"Feature","properties":{"osm_way_id":"119261690","name":"Co-op Food","building":"retail","shop":"supermarket","other":{"addr:city":"Thornbury","addr:county":"South Gloucestershire","addr:housenumber":"9","addr:postcode":"BS35 2AE","addr:street":"High Street","brand":"Co-op Food","brand:wikidata":"Q3277439","brand:wikipedia":"en:Co-op Food","fhrs:id":"99916","opening_hours:post_office":"Mo-Fr 09:00-17:30; Sa 09:00-13:00","ref:pol_id":"12607","source:addr":"FHRS Open Data","source:outline":"Bing"}}, "geometry":{"type":"MultiPolygon","coordinates":[[[[-2.52587,51.6087],[-2.52587,51.60878],[-2.52569,51.60878],[-2.52552,51.60878],[-2.5254,51.60879],[-2.5254,51.6087],[-2.52587,51.6087]]]]}},
{ "type":"Feature","properties":{"osm_way_id":"119311378","name":"Aldi","building":"retail","shop":"supermarket","other":{"addr:city":"Thornbury","addr:housenumber":"3-5","addr:postcode":"BS35 2AZ","addr:street":"Horseshoe Lane","brand":"ALDI","brand:wikidata":"Q41171672","brand:wikipedia":"en:Aldi","fhrs:id":"51452","source:outline":"Bing"}}, "geometry":{"type":"MultiPolygon","coordinates":[[[[-2.52404,51.60768],[-2.5245,51.60768],[-2.5245,51.60774],[-2.5245,51.60797],[-2.52452,51.60797],[-2.52452,51.60801],[-2.52452,51.60817],[-2.52405,51.60817],[-2.52404,51.60817],[-2.52404,51.60775],[-2.52404,51.60768]]]]}},
{ "type":"Feature","properties":{"osm_way_id":"224414421","name":"Waitrose","building":"retail","shop":"supermarket","other":{"addr:city":"Chipping Sodbury","addr:postcode":"BS37 6AU","addr:street":"Wickwar Road","brand":"Waitrose & Partners","brand:wikidata":"Q771734","brand:wikipedia":"en:Waitrose & Partners","fhrs:id":"1002831","operator":"Waitrose & Partners","phone":"+44 1454326512","start_date":"2013-10-10","website":"https:\/\/www.waitrose.com\/content\/waitrose\/en\/bf_home\/bf\/751.html"}}, "geometry":{"type":"MultiPolygon","coordinates":[[[[-2.39668,51.54055],[-2.39671,51.54068],[-2.39599,51.54072],[-2.39597,51.54059],[-2.396,51.54058],[-2.39593,51.54014],[-2.396,51.54013],[-2.39665,51.54009],[-2.39666,51.54018],[-2.39668,51.54017],[-2.39669,51.54027],[-2.39661,51.54028],[-2.39663,51.54043],[-2.39665,51.54055],[-2.39668,51.54055]]]]}},
{ "type":"Feature","properties":{"osm_way_id":"233915799","name":"Londis","building":"retail","shop":"supermarket","other":{"addr:city":"Bristol","addr:postcode":"BS32 4HW","brand":"Londis","brand:wikidata":"Q21008564","brand:wikipedia":"en:Londis (United Kingdom)","fhrs:id":"106172"}}, "geometry":{"type":"MultiPolygon","coordinates":[[[[-2.55324,51.5656],[-2.55332,51.56551],[-2.55321,51.56547],[-2.5532,51.56549],[-2.55315,51.56548],[-2.55309,51.56555],[-2.5531,51.56555],[-2.55324,51.5656]]]]}},
{ "type":"Feature","properties":{"osm_way_id":"256115361","name":"Asda","building":"retail","shop":"supermarket","other":{"addr:city":"Bristol","addr:postcode":"BS34 7JL","addr:street":"Abbey Wood Retail Park","brand":"Asda","brand:wikidata":"Q297410","brand:wikipedia":"en:Asda","contact:facebook":"https:\/\/www.facebook.com\/asda\/","contact:twitter":"@asda","contact:website":"https:\/\/storelocator.asda.com\/south-west\/filton\/abbeywood-retail-park","fhrs:id":"624216","operator":"Asda Stores Ltd","toilets":"yes","toilets:access":"customers","toilets:wheelchair":"yes","wheelchair":"limited","wheelchair:description":"Have a casual attitude towards it. Majority of tills too small for the wheelchair trolleys that they provide and sometimes they put out displays that block the more accessible tills. Toilet is good but has a grate in the door that you can see through"}}, "geometry":{"type":"MultiPolygon","coordinates":[[[[-2.5607,51.50553],[-2.5606,51.50586],[-2.56045,51.50584],[-2.56044,51.50588],[-2.56027,51.50586],[-2.56028,51.50582],[-2.56011,51.5058],[-2.5601,51.50585],[-2.55976,51.50581],[-2.55977,51.50576],[-2.55993,51.50521],[-2.55987,51.50521],[-2.5599,51.50511],[-2.56061,51.50518],[-2.5606,51.50523],[-2.56076,51.50524],[-2.56076,51.50528],[-2.56114,51.50532],[-2.56111,51.50542],[-2.56101,51.50541],[-2.56101,51.50539],[-2.56075,51.50536],[-2.5607,51.50553]]]]}},
{ "type":"Feature","properties":{"osm_way_id":"281701942","name":"Spar","building":"yes","shop":"supermarket","other":{"addr:city":"Bristol","addr:housenumber":"538-540","addr:postcode":"BS7 0QG","addr:street":"Filton Avenue","brand":"Spar","brand:wikidata":"Q610492","fhrs:id":"100052","opening_hours":"Mo-Su 08:00-22:00","operator":"Blakemore Retail Filton"}}, "geometry":{"type":"MultiPolygon","coordinates":[[[[-2.56969,51.50208],[-2.56977,51.50212],[-2.5698,51.50209],[-2.56984,51.5021],[-2.56986,51.50209],[-2.5699,51.5021],[-2.56999,51.50206],[-2.56994,51.50204],[-2.56951,51.50189],[-2.56944,51.50196],[-2.56969,51.50208]]]]}},
{ "type":"Feature","properties":{"osm_way_id":"297341887","name":"Lidl","building":"yes","shop":"supermarket","other":{"addr:city":"Bristol","addr:housenumber":"135","addr:place":"Hanham","addr:postcode":"BS15 3QY","addr:street":"High Street","brand":"Lidl","brand:wikidata":"Q151954","brand:wikipedia":"en:Lidl","fhrs:id":"137665","operator":"Lidl"}}, "geometry":{"type":"MultiPolygon","coordinates":[[[[-2.51199,51.44833],[-2.5117,51.44823],[-2.51202,51.44786],[-2.5123,51.44796],[-2.51231,51.44796],[-2.51239,51.44798],[-2.51227,51.44812],[-2.5122,51.4481],[-2.51199,51.44833]]]]}},
{ "type":"Feature","properties":{"osm_way_id":"297351494","name":"Co-op Food","building":"yes","shop":"supermarket","other":{"addr:city":"Bristol","addr:housenumber":"33-37","addr:place":"Hanham","addr:postcode":"BS15 3DJ","addr:street":"High Street","brand":"Co-op Food","brand:wikidata":"Q3277439","brand:wikipedia":"en:Co-op Food","fhrs:id":"40809","operator":"Coop"}}, "geometry":{"type":"MultiPolygon","coordinates":[[[[-2.51786,51.4499],[-2.51802,51.45],[-2.51789,51.45002],[-2.51785,51.45004],[-2.5179,51.4501],[-2.51806,51.45002],[-2.51813,51.45],[-2.51817,51.44999],[-2.51819,51.45],[-2.5183,51.44993],[-2.51818,51.44985],[-2.51817,51.44986],[-2.51805,51.44978],[-2.51786,51.4499]]]]}},
{ "type":"Feature","properties":{"osm_way_id":"303152177","name":"Winterbourne Co-op","building":"retail","shop":"supermarket","other":{"addr:city":"Bristol","addr:housenumber":"6","addr:postcode":"BS36 1BQ","addr:street":"Dragon Road","fhrs:id":"100201"}}, "geometry":{"type":"MultiPolygon","coordinates":[[[[-2.50859,51.52267],[-2.50822,51.52268],[-2.50822,51.52267],[-2.5082,51.52267],[-2.50821,51.52256],[-2.50814,51.52256],[-2.50815,51.52249],[-2.50857,51.52248],[-2.50858,51.5226],[-2.50859,51.52267]]]]}},
{ "type":"Feature","properties":{"osm_way_id":"305129288","name":"ALDI","building":"supermarket","shop":"supermarket","other":{"addr:city":"Bristol","addr:housenumber":"106","addr:place":"Longwell Green","addr:postcode":"BS30 9DE","addr:street":"Bath Road","brand":"ALDI","brand:wikidata":"Q41171672","brand:wikipedia":"en:Aldi","fhrs:id":"692213"}}, "geometry":{"type":"MultiPolygon","coordinates":[[[[-2.49579,51.43791],[-2.49535,51.43807],[-2.49536,51.43808],[-2.49507,51.43819],[-2.49489,51.438],[-2.49492,51.43798],[-2.49487,51.43793],[-2.49521,51.4378],[-2.49517,51.43776],[-2.49543,51.43766],[-2.49544,51.43767],[-2.49553,51.43764],[-2.49579,51.43791]]]]}},
{ "type":"Feature","properties":{"osm_way_id":"305131863","name":"Tesco Express","building":"shop","shop":"supermarket","other":{"addr:city":"Bristol","addr:housenumber":"89A","addr:place":"Longwell Green","addr:postcode":"BS30 9DF","addr:street":"Bath Road","brand":"Tesco Express","brand:wikidata":"Q98456772","fhrs:id":"150489"}}, "geometry":{"type":"MultiPolygon","coordinates":[[[[-2.49343,51.43789],[-2.49346,51.43788],[-2.49351,51.43791],[-2.4935,51.43792],[-2.49351,51.43793],[-2.49353,51.43792],[-2.49357,51.43796],[-2.49329,51.43807],[-2.49322,51.438],[-2.49308,51.43805],[-2.49307,51.43796],[-2.4934,51.43784],[-2.49344,51.43787],[-2.49343,51.43788],[-2.49343,51.43789]]]]}},
{ "type":"Feature","properties":{"osm_way_id":"311927586","name":"ALDI","building":"retail","shop":"supermarket","other":{"brand":"ALDI","brand:wikidata":"Q41171672","brand:wikipedia":"en:Aldi"}}, "geometry":{"type":"MultiPolygon","coordinates":[[[[-1.84108,52.42707],[-1.8403,52.42729],[-1.84018,52.42714],[-1.84043,52.42707],[-1.84038,52.427],[-1.8405,52.42696],[-1.84047,52.42692],[-1.84067,52.42686],[-1.84071,52.42691],[-1.84092,52.42685],[-1.84108,52.42707]]]]}},
{ "type":"Feature","properties":{"osm_way_id":"353721543","name":"The Food Warehouse","building":"retail","shop":"supermarket","other":{"addr:city":"Bristol","addr:postcode":"BS32 8BS","brand":"The Food Warehouse","brand:wikidata":"Q87263899","fhrs:id":"742136","operator":"Iceland","source:outline":"Bing"}}, "geometry":{"type":"MultiPolygon","coordinates":[[[[-2.54975,51.53617],[-2.55029,51.53586],[-2.55009,51.53573],[-2.55001,51.53577],[-2.54985,51.53586],[-2.54955,51.53603],[-2.54975,51.53617]]]]}},
{ "type":"Feature","properties":{"osm_way_id":"400335396","name":"Co-op Food","building":"yes","shop":"supermarket","other":{"addr:city":"Bristol","addr:postcode":"BS16 5UJ","brand":"Co-op Food","brand:wikidata":"Q3277439","brand:wikipedia":"en:Co-op Food","fhrs:id":"53866"}}, "geometry":{"type":"MultiPolygon","coordinates":[[[[-2.50451,51.48806],[-2.50431,51.48814],[-2.50455,51.48836],[-2.50457,51.48836],[-2.50475,51.48828],[-2.50451,51.48806]]]]}},
{ "type":"Feature","properties":{"osm_way_id":"442595170","name":"M&S Foodhall","building":"retail","shop":"supermarket","other":{"addr:city":"Yate","addr:housenumber":"39-41","addr:postcode":"BS37 4AS","addr:street":"East Walk","brand":"M&S Foodhall","brand:wikidata":"Q714491","brand:wikipedia":"en:Marks & Spencer","fhrs:id":"543234","opening_hours":"Mo-Sa 08:00-20:00; Su 10:00-16:00"}}, "geometry":{"type":"MultiPolygon","coordinates":[[[[-2.41155,51.54014],[-2.4114,51.54047],[-2.41137,51.54053],[-2.41101,51.54046],[-2.41119,51.54008],[-2.41155,51.54014]]]]}},
{ "type":"Feature","properties":{"osm_way_id":"445190991","name":"Asda","building":"retail","shop":"supermarket","other":{"addr:city":"Bristol","addr:postcode":"BS34 5TL","addr:street":"Highwood Lane","addr:suburb":"Patchway","brand":"Asda","brand:wikidata":"Q297410","brand:wikipedia":"en:Asda","contact:facebook":"https:\/\/www.facebook.com\/asda\/","contact:twitter":"@asda","contact:website":"https:\/\/storelocator.asda.com\/south-west\/bristol\/highwood-lane","fhrs:id":"100038","operator":"Asda Stores Ltd"}}, "geometry":{"type":"MultiPolygon","coordinates":[[[[-2.59592,51.53026],[-2.59591,51.53021],[-2.59605,51.53021],[-2.59605,51.53027],[-2.5979,51.53025],[-2.59789,51.53019],[-2.59804,51.53019],[-2.59804,51.53021],[-2.59804,51.53022],[-2.59804,51.53025],[-2.59822,51.53024],[-2.59857,51.53024],[-2.59858,51.53055],[-2.59858,51.5307],[-2.59849,51.5307],[-2.59849,51.53081],[-2.59841,51.53082],[-2.59841,51.53086],[-2.5983,51.53086],[-2.59737,51.53087],[-2.59738,51.53106],[-2.59677,51.53106],[-2.59677,51.53104],[-2.59616,51.53105],[-2.59616,51.53113],[-2.59594,51.53113],[-2.59592,51.53026]]]]}},
{ "type":"Feature","properties":{"osm_way_id":"497777169","name":"The co-operative food","building":"yes","shop":"supermarket","other":{"addr:city":"Bristol","addr:postcode":"BS15 3LH","addr:street":"Memorial Road"}}, "geometry":{"type":"MultiPolygon","coordinates":[[[[-2.51965,51.4401],[-2.5196,51.44005],[-2.51951,51.43996],[-2.51939,51.44001],[-2.5194,51.44003],[-2.51935,51.44005],[-2.51938,51.44008],[-2.51934,51.4401],[-2.51927,51.44013],[-2.51931,51.44017],[-2.51938,51.44014],[-2.51942,51.44019],[-2.51965,51.4401]]]]}},
{ "type":"Feature","properties":{"osm_way_id":"532096842","name":"≈Åowiczanka","building":"yes","shop":"supermarket","other":{"addr:city":"Yate","addr:housenumber":"28","addr:postcode":"BS37 4PW","addr:street":"Station Road","alt_name":"Lowiczanka","building:levels":"2","cuisine":"polish","fhrs:id":"934337"}}, "geometry":{"type":"MultiPolygon","coordinates":[[[[-2.42862,51.54065],[-2.42857,51.54065],[-2.42858,51.54058],[-2.42862,51.54058],[-2.42862,51.54065]]]]}},
{ "type":"Feature","properties":{"osm_way_id":"546310903","name":"Co-op Food","building":"yes","shop":"supermarket","other":{"brand":"Co-op Food","brand:wikidata":"Q3277439","brand:wikipedia":"en:Co-op Food","operator":"The Co-operative Group","operator:wikidata":"Q117202","operator:wikipedia":"en:The Co-operative Group"}}, "geometry":{"type":"MultiPolygon","coordinates":[[[[-2.39956,51.62862],[-2.3998,51.62885],[-2.39952,51.62896],[-2.39938,51.62881],[-2.39954,51.62875],[-2.39945,51.62866],[-2.39956,51.62862]]]]}},
{ "type":"Feature","properties":{"osm_way_id":"546927862","name":"Lidl","building":"yes","shop":"supermarket","other":{"addr:city":"Bristol","addr:postcode":"BS34 8SP","addr:street":"Fox Den Road","addr:suburb":"Stoke Gifford","addr:unit":"2a","brand":"Lidl","brand:wikidata":"Q151954","brand:wikipedia":"en:Lidl","fhrs:id":"1127486","source:addr":"FHRS Open Data"}}, "geometry":{"type":"MultiPolygon","coordinates":[[[[-2.54987,51.50729],[-2.54982,51.50727],[-2.55004,51.50707],[-2.55009,51.50709],[-2.55019,51.50701],[-2.55055,51.50716],[-2.55104,51.50737],[-2.55072,51.50766],[-2.54987,51.50729]]]]}},
{ "type":"Feature","properties":{"osm_way_id":"629126623","name":"Lidl","building":"retail","shop":"supermarket","other":{"addr:city":"Yate","addr:postcode":"BS37 4BA","addr:street":"Kennedy Way","brand":"Lidl","brand:wikidata":"Q151954","fhrs:id":"145477","opening_hours":"Mo-Sa 08:00-20:00; Su 10:00-16:00"}}, "geometry":{"type":"MultiPolygon","coordinates":[[[[-2.41411,51.53875],[-2.41403,51.53878],[-2.41396,51.53869],[-2.41404,51.53867],[-2.4141,51.53853],[-2.41492,51.53867],[-2.41487,51.53878],[-2.41474,51.53876],[-2.4147,51.53886],[-2.41411,51.53875]]]]}},
{ "type":"Feature","properties":{"osm_way_id":"700157424","name":"Lidl","building":"yes","shop":"supermarket","other":{"addr:city":"Bristol","addr:postcode":"BS15 8JD","addr:street":"Halls Road","brand":"Lidl","brand:wikidata":"Q151954","brand:wikipedia":"en:Lidl","fhrs:id":"1040561"}}, "geometry":{"type":"MultiPolygon","coordinates":[[[[-2.51075,51.46105],[-2.50968,51.46116],[-2.50977,51.4615],[-2.51077,51.46139],[-2.51072,51.46123],[-2.51071,51.46118],[-2.51078,51.46117],[-2.51075,51.46105]]]]}},
{ "type":"Feature","properties":{"osm_way_id":"726980893","name":"Lidl","building":"yes","shop":"supermarket","other":{"addr:city":"Bristol","addr:postcode":"BS34 5WG","addr:street":"Ring Mead","brand":"Lidl","brand:wikidata":"Q151954","brand:wikipedia":"en:Lidl","fhrs:id":"1289103"}}, "geometry":{"type":"MultiPolygon","coordinates":[[[[-2.57619,51.52499],[-2.57524,51.52497],[-2.57517,51.52497],[-2.57518,51.52479],[-2.57509,51.52479],[-2.5751,51.52467],[-2.57625,51.5247],[-2.57625,51.52476],[-2.5762,51.52475],[-2.57619,51.52499]]]]}},
{ "type":"Feature","properties":{"osm_way_id":"753332580","name":"Frampton Cotterell Services","building":"retail","shop":"supermarket","other":{"operator":"Costcutter"}}, "geometry":{"type":"MultiPolygon","coordinates":[[[[-2.49105,51.53706],[-2.49098,51.53709],[-2.49108,51.53717],[-2.49127,51.53706],[-2.49117,51.53699],[-2.49105,51.53706]]]]}},
{ "type":"Feature","properties":{"osm_way_id":"767399077","name":"The Deal Depot","building":"retail","shop":"supermarket","other":{"addr:city":"Bristol","addr:postcode":"BS34 5TL","addr:street":"Highwood Lane","addr:suburb":"Patchway"}}, "geometry":{"type":"MultiPolygon","coordinates":[[[[-2.59594,51.53113],[-2.59572,51.53113],[-2.5957,51.53027],[-2.59592,51.53026],[-2.59594,51.53113]]]]}},
{ "type":"Feature","properties":{"osm_way_id":"986915289","name":"Lidl","building":"yes","shop":"supermarket","other":{"addr:city":"Bristol","addr:postcode":"BS30 7TX","addr:street":"Aldermoor Way","brand":"Lidl","brand:wikidata":"Q151954","brand:wikipedia":"en:Lidl","fhrs:id":"1296514"}}, "geometry":{"type":"MultiPolygon","coordinates":[[[[-2.50036,51.4424],[-2.50007,51.44272],[-2.50059,51.44291],[-2.50088,51.44259],[-2.50036,51.4424]]]]}}
]
}
