{
"type": "FeatureCollection",
"features": [
{ "type":"Feature","properties":{"osm_id":"552981628","name":"The Co-operative Food","other":{"addr:city":"Billericay","addr:postcode":"CM12 0SP","addr:street":"Queens Park Avenue","brand":"Co-op Food","brand:wikidata":"Q3277439","brand:wikipedia":"en:Co-op Food","fhrs:id":"145674","fhrs:local_authority_id":"87","shop":"supermarket"}}, "geometry":{"type":"Point","coordinates":[0.41437,51.63737 ]}},
{ "type":"Feature","properties":{"osm_id":"1867871160","name":"Co-op","other":{"shop":"supermarket"}}, "geometry":{"type":"Point","coordinates":[0.51357,51.61127 ]}},
{ "type":"Feature","properties":{"osm_id":"4725870701","name":"Sandon Food & Wine","other":{"shop":"supermarket"}}, "geometry":{"type":"Point","coordinates":[0.49365,51.56461 ]}},
{ "type":"Feature","properties":{"osm_id":"6594427575","name":"Trinity Food and Wine","other":{"addr:housenumber":"16A","addr:street":"Woolmer Green","air_conditioning":"yes","opening_hours":"Mo-Sa 06:00-18:00","payment:cards":"yes","payment:cash":"yes","payment:coins":"yes","payment:credit_cards":"yes","payment:debit_cards":"yes","payment:mastercard":"yes","payment:notes":"yes","payment:visa":"yes","payment:visa_debit":"yes","shop":"supermarket"}}, "geometry":{"type":"Point","coordinates":[0.43809,51.57544 ]}},
{ "type":"Feature","properties":{"osm_id":"9216940090","name":"Lidl","other":{"addr:country":"GB","addr:housename":"Mayflower Retail Park","addr:postcode":"SS14 3HZ","addr:street":"Gardiners Link","addr:unit":"1C","brand":"Lidl","brand:wikidata":"Q151954","brand:wikipedia":"en:Lidl","fhrs:id":"1226111","shop":"supermarket","survey:date":"2021-05-28"}}, "geometry":{"type":"Point","coordinates":[0.48215,51.59075 ]}},
{ "type":"Feature","properties":{"osm_way_id":"91215811","name":"Tesco Extra","building":"yes","shop":"supermarket","other":{"addr:city":"Basildon","addr:country":"GB","addr:housename":"Mayflower Retail Park","addr:postcode":"SS14 3HZ","addr:street":"Gardiners Link","brand":"Tesco Extra","brand:wikidata":"Q25172225","brand:wikipedia":"en:Tesco Extra","fhrs:id":"109482","operator":"Tesco Stores Ltd","source:addr":"FHRS Open Data","website":"https:\/\/www.tesco.com\/store-locator\/basildon\/mayflower-retail-park"}}, "geometry":{"type":"MultiPolygon","coordinates":[[[[0.47704,51.59082],[0.4763,51.59072],[0.47626,51.59082],[0.47618,51.59084],[0.47561,51.59076],[0.47569,51.59054],[0.47572,51.59047],[0.47586,51.59009],[0.47604,51.59012],[0.47608,51.59001],[0.47627,51.59004],[0.47627,51.59005],[0.47665,51.59011],[0.47666,51.59007],[0.47684,51.5901],[0.47683,51.59014],[0.47755,51.59024],[0.47754,51.59027],[0.47759,51.59028],[0.47756,51.59038],[0.4775,51.59037],[0.47749,51.59041],[0.47722,51.59037],[0.47716,51.59053],[0.47707,51.59052],[0.47706,51.59054],[0.47717,51.59056],[0.47712,51.59073],[0.47715,51.59073],[0.47706,51.59098],[0.47699,51.59097],[0.47704,51.59082]]]]}},
{ "type":"Feature","properties":{"osm_way_id":"122542421","name":"Sainsbury's","building":"yes","shop":"supermarket","other":{"addr:postcode":"SS13 1SA","addr:street":"Cricketers Way","brand":"Sainsbury's","brand:wikidata":"Q152096","brand:wikipedia":"en:Sainsbury's"}}, "geometry":{"type":"MultiPolygon","coordinates":[[[[0.49956,51.59024],[0.49998,51.59022],[0.49998,51.59024],[0.50113,51.59017],[0.50113,51.59021],[0.50121,51.5902],[0.50124,51.59038],[0.50119,51.59038],[0.50122,51.59055],[0.50103,51.59056],[0.50106,51.59074],[0.50109,51.59074],[0.50114,51.59106],[0.50085,51.59108],[0.50085,51.59109],[0.5006,51.5911],[0.5006,51.59109],[0.50035,51.59111],[0.50036,51.59112],[0.49999,51.59115],[0.49997,51.59106],[0.4994,51.5911],[0.49939,51.59106],[0.49973,51.59104],[0.49963,51.59048],[0.49961,51.59048],[0.4996,51.59045],[0.49959,51.59045],[0.49956,51.59024]]]]}},
{ "type":"Feature","properties":{"osm_way_id":"122667226","name":"Tesco Extra","building":"yes","shop":"supermarket","other":{"addr:city":"Pitsea","addr:postcode":"SS13 3JU","alt_name":"Tesco Basildon Pitsea Extra","brand":"Tesco Extra","brand:wikidata":"Q25172225","brand:wikipedia":"en:Tesco Extra","operator":"Tesco Stores Ltd"}}, "geometry":{"type":"MultiPolygon","coordinates":[[[[0.5007,51.56258],[0.5009,51.56255],[0.50085,51.56251],[0.50103,51.56244],[0.50111,51.56252],[0.50169,51.56244],[0.50165,51.56233],[0.50189,51.5623],[0.50188,51.56226],[0.50219,51.56222],[0.50224,51.56236],[0.50238,51.56235],[0.50239,51.56238],[0.50287,51.56231],[0.50321,51.56245],[0.50326,51.56258],[0.50335,51.56257],[0.5035,51.563],[0.50308,51.56306],[0.50307,51.56304],[0.50271,51.56309],[0.50267,51.56312],[0.50243,51.56302],[0.5021,51.56307],[0.5021,51.56304],[0.50101,51.56319],[0.50098,51.56311],[0.501,51.56311],[0.50098,51.56304],[0.50073,51.56307],[0.50066,51.56288],[0.50066,51.56283],[0.50089,51.5628],[0.50088,51.56278],[0.50078,51.5628],[0.5007,51.56258]]]]}},
{ "type":"Feature","properties":{"osm_way_id":"122670239","name":"Lidl","building":"yes","shop":"supermarket","other":{"addr:city":"Pitsea","addr:country":"GB","addr:housename":"Old Market Retail Park","addr:postcode":"SS13 3BB","addr:street":"High Road","alt_name":"LIDL Pitsea","brand":"Lidl","brand:wikidata":"Q151954","brand:wikipedia":"en:Lidl","fhrs:id":"133525"}}, "geometry":{"type":"MultiPolygon","coordinates":[[[[0.50702,51.56445],[0.50726,51.56427],[0.50754,51.56443],[0.50759,51.5644],[0.50789,51.56455],[0.50792,51.56465],[0.5077,51.56481],[0.50702,51.56445]]]]}},
{ "type":"Feature","properties":{"osm_way_id":"139254615","name":"Tesco","building":"yes","shop":"supermarket","other":{"addr:postcode":"SS15 6TJ","addr:street":"Mandeville Way","alt_name":"Tesco Basildon Langdon Hills Superstore","brand":"Tesco","brand:wikidata":"Q487494","brand:wikipedia":"en:Tesco","operator":"Tesco Stores Ltd"}}, "geometry":{"type":"MultiPolygon","coordinates":[[[[0.39868,51.56737],[0.39876,51.56737],[0.39908,51.5674],[0.39908,51.56744],[0.3997,51.56749],[0.39984,51.56749],[0.39983,51.56755],[0.39977,51.56788],[0.39962,51.56787],[0.39958,51.56807],[0.39927,51.56804],[0.39927,51.56807],[0.39913,51.56806],[0.39914,51.56803],[0.3991,51.56803],[0.39909,51.56811],[0.39902,51.56811],[0.39901,51.56816],[0.39887,51.56815],[0.39888,51.56804],[0.39885,51.56804],[0.39885,51.56801],[0.39858,51.56799],[0.39868,51.56737]]]]}},
{ "type":"Feature","properties":{"osm_way_id":"139290032","name":"Asda","building":"retail","shop":"supermarket","other":{"addr:city":"Basildon","addr:country":"GB","addr:housename":"Heron Retail Park","addr:postcode":"SS14 3AS","addr:street":"Miles Gray Road","brand":"Asda","brand:wikidata":"Q297410","brand:wikipedia":"en:Asda","contact:facebook":"https:\/\/www.facebook.com\/asda\/","contact:phone":"+44 1268 885500","contact:twitter":"@asda","contact:website":"https:\/\/storelocator.asda.com\/east-of-england\/basildon\/heron-retail-park-miles-grey-road","fhrs:id":"140103","opening_hours":"Mo-Sa 07:00-22:00; Su 10:00-16:00","operator":"Asda Stores Ltd","phone":"+44 1268 885500","website":"https:\/\/www.asda.com\/"}}, "geometry":{"type":"MultiPolygon","coordinates":[[[[0.44271,51.58277],[0.44341,51.58319],[0.44344,51.58317],[0.44385,51.58341],[0.44372,51.58349],[0.44369,51.58347],[0.4433,51.58372],[0.44243,51.5832],[0.44259,51.5831],[0.44249,51.58304],[0.44237,51.58311],[0.44235,51.5831],[0.4423,51.58296],[0.44233,51.58295],[0.44229,51.58292],[0.44234,51.5829],[0.44228,51.58286],[0.4424,51.58279],[0.44245,51.58281],[0.44246,51.5828],[0.44262,51.5829],[0.44272,51.58283],[0.44267,51.5828],[0.44271,51.58277]]]]}},
{ "type":"Feature","properties":{"osm_way_id":"158240687","name":"Waitrose","building":"yes","shop":"supermarket","other":{"addr:city":"Billericay","addr:housenumber":"112-118","addr:postcode":"CM12 9BY","addr:street":"High Street","brand":"Waitrose & Partners","brand:wikidata":"Q771734","brand:wikipedia":"en:Waitrose & Partners","fhrs:id":"62736","fhrs:local_authority_id":"13878","operator":"Waitrose & Partners"}}, "geometry":{"type":"MultiPolygon","coordinates":[[[[0.4163,51.62374],[0.41631,51.62337],[0.4167,51.62336],[0.4167,51.6234],[0.41702,51.6234],[0.41702,51.62339],[0.41732,51.62339],[0.41732,51.62357],[0.41724,51.62357],[0.41725,51.62399],[0.41702,51.624],[0.41701,51.62398],[0.41684,51.62398],[0.41684,51.62395],[0.41684,51.62376],[0.4167,51.62375],[0.41651,51.62375],[0.41632,51.62374],[0.4163,51.62374]]]]}},
{ "type":"Feature","properties":{"osm_way_id":"176241344","name":"Aldi","building":"yes","shop":"supermarket","other":{"brand":"ALDI","brand:wikidata":"Q41171672","brand:wikipedia":"en:Aldi","wheelchair":"yes"}}, "geometry":{"type":"MultiPolygon","coordinates":[[[[0.52273,51.61409],[0.5231,51.61356],[0.52292,51.61351],[0.52288,51.61356],[0.52272,51.61351],[0.52247,51.61388],[0.52242,51.61387],[0.52234,51.61399],[0.52273,51.61409]]]]}},
{ "type":"Feature","properties":{"osm_way_id":"188422942","name":"Asda","building":"yes","shop":"supermarket","other":{"addr:city":"Basildon","addr:country":"GB","addr:postcode":"SS14 1AE","addr:unit":"13","alt_name":"ASDA Eastgate Supercentre","brand":"Asda","brand:wikidata":"Q297410","brand:wikipedia":"en:Asda","contact:facebook":"https:\/\/www.facebook.com\/asda\/","contact:phone":"+44 1268 884000","contact:twitter":"@asda","contact:website":"https:\/\/storelocator.asda.com\/east-of-england\/basildon\/eastgate-shopping-centre","fhrs:id":"94396","opening_hours":"Mo-Fr 07:00-22:00; Sa 07:00-20:00; Su 10:00-16:00","operator":"Asda Stores Ltd","phone":"+44 1268 884000","website":"https:\/\/www.asda.com\/","wheelchair":"yes"}}, "geometry":{"type":"MultiPolygon","coordinates":[[[[0.46283,51.57036],[0.46285,51.57008],[0.46282,51.57007],[0.46286,51.56949],[0.46288,51.56914],[0.46297,51.56915],[0.46299,51.5689],[0.46407,51.56893],[0.46399,51.57008],[0.46411,51.57008],[0.4641,51.57027],[0.46369,51.57026],[0.46368,51.57039],[0.46339,51.57038],[0.46283,51.57036]]]]}},
{ "type":"Feature","properties":{"osm_way_id":"210314368","name":"Marks & Spencer Simply Food","building":"yes","shop":"supermarket","other":{"brand":"M&S Simply Food","brand:wikidata":"Q714491"}}, "geometry":{"type":"MultiPolygon","coordinates":[[[[0.51934,51.6003],[0.51935,51.60032],[0.5196,51.60031],[0.51958,51.60009],[0.51933,51.60009],[0.51934,51.6003]]]]}},
{ "type":"Feature","properties":{"osm_way_id":"217926678","name":"Co-op","building":"yes","shop":"supermarket","other":{"toilets:wheelchair":"yes","wheelchair":"yes"}}, "geometry":{"type":"MultiPolygon","coordinates":[[[[0.52221,51.61138],[0.52224,51.61137],[0.5229,51.61161],[0.52295,51.61172],[0.52278,51.61175],[0.52278,51.61177],[0.52261,51.6118],[0.5226,51.61179],[0.52225,51.61184],[0.52226,51.61186],[0.5219,51.61192],[0.5219,51.61191],[0.52172,51.61193],[0.52163,51.61171],[0.52189,51.61167],[0.5218,51.61145],[0.52209,51.6114],[0.52208,51.61136],[0.5222,51.61135],[0.52221,51.61138]]]]}},
{ "type":"Feature","properties":{"osm_way_id":"298296042","name":"Lidl","building":"yes","shop":"supermarket","other":{"addr:country":"GB","addr:postcode":"SS15 6PA","addr:street":"Manor Road","brand":"Lidl","brand:wikidata":"Q151954","brand:wikipedia":"en:Lidl","fhrs:id":"75825","operator":"Lidl"}}, "geometry":{"type":"MultiPolygon","coordinates":[[[[0.42043,51.57552],[0.42062,51.57522],[0.42086,51.57528],[0.42082,51.57532],[0.42132,51.57546],[0.42118,51.57568],[0.42117,51.57571],[0.42043,51.57552]]]]}},
{ "type":"Feature","properties":{"osm_way_id":"620161225","name":"Aldi","building":"retail","shop":"supermarket","other":{"brand":"ALDI","brand:wikidata":"Q41171672","brand:wikipedia":"en:Aldi"}}, "geometry":{"type":"MultiPolygon","coordinates":[[[[0.50381,51.56585],[0.50435,51.56585],[0.50435,51.56548],[0.50381,51.56548],[0.50381,51.56585]]]]}}
]
}
