{
"type": "FeatureCollection",
"features": [
{ "type":"Feature","properties":{"osm_id":"29382251","name":"Budgens","other":{"addr:city":"Waddington","addr:country":"GB","addr:postcode":"LN5 9SA","addr:street":"Bar Lane","brand":"Budgens","brand:wikidata":"Q4985016","brand:wikipedia":"en:Budgens","fhrs:id":"295645","shop":"supermarket"}}, "geometry":{"type":"Point","coordinates":[-0.53929,53.16641 ]}},
{ "type":"Feature","properties":{"osm_id":"4175069840","name":"Heron Foods","other":{"brand":"Heron Foods","brand:wikidata":"Q5743472","brand:wikipedia":"en:Heron Foods","contact:website":"https:\/\/heronfoods.com\/storelocator\/store-details\/malton","shop":"supermarket"}}, "geometry":{"type":"Point","coordinates":[-0.79755,54.13607 ]}},
{ "type":"Feature","properties":{"osm_id":"4814374979","name":"Costcutter","other":{"shop":"supermarket"}}, "geometry":{"type":"Point","coordinates":[-0.8085,54.21285 ]}},
{ "type":"Feature","properties":{"osm_id":"6186498796","name":"Co-op Food","other":{"addr:city":"Helmsley","addr:housenumber":"3-4","addr:postcode":"YO62 5BH","addr:street":"Market Place","brand":"Co-op Food","brand:wikidata":"Q3277439","brand:wikipedia":"en:Co-op Food","designation":"The Co-opertaive Food","opening_hours":"Mo-Su 07:00-22:00","operator":"The Co-operative Group","shop":"supermarket"}}, "geometry":{"type":"Point","coordinates":[-1.06087,54.24637 ]}},
{ "type":"Feature","properties":{"osm_id":"6331110396","other":{"amenity":"loading_dock"}}, "geometry":{"type":"Point","coordinates":[-2.71279,53.44148 ]}},
{ "type":"Feature","properties":{"osm_id":"7512683870","other":{"defibrillator:location":"outside Morrisons Supermarket, Castlegate, Malton, YO17 7DT - to left of entrance  near access ramp down to car park","emergency":"defibrillator","indoor":"no"}}, "geometry":{"type":"Point","coordinates":[-0.79487,54.13338 ]}},
{ "type":"Feature","properties":{"osm_way_id":"31540400","name":"Morrisons","building":"yes","shop":"supermarket","other":{"addr:housename":"Baxsters Lane","brand":"Morrisons","brand:wikidata":"Q922344","brand:wikipedia":"en:Morrisons"}}, "geometry":{"type":"MultiPolygon","coordinates":[[[[-2.7142,53.44183],[-2.71304,53.44135],[-2.71299,53.44139],[-2.71287,53.44134],[-2.71273,53.44146],[-2.71279,53.44148],[-2.71288,53.44151],[-2.71271,53.44165],[-2.71291,53.44174],[-2.71274,53.44187],[-2.71284,53.44192],[-2.71294,53.44196],[-2.71283,53.44205],[-2.71338,53.44227],[-2.71334,53.44231],[-2.71357,53.44241],[-2.71372,53.4423],[-2.71366,53.44227],[-2.71376,53.44219],[-2.7142,53.44183]]]]}},
{ "type":"Feature","properties":{"osm_way_id":"154804013","name":"Asda","building":"retail","shop":"supermarket","other":{"addr:city":"Chelmsford","addr:country":"GB","addr:housenumber":"1-11","addr:postcode":"CM2 6RE","addr:street":"CM2 6RE","brand":"Asda","brand:wikidata":"Q297410","brand:wikipedia":"en:Asda","contact:facebook":"https:\/\/www.facebook.com\/asda\/","contact:twitter":"@asda","contact:website":"https:\/\/storelocator.asda.com\/east-of-england\/chelmsford\/chelmer-village-centre","fhrs:id":"83732","opening_hours":"Mo-Sa 07:00-22:00; Su 10:00-16:00","opening_hours:covid19":"same","operator":"Asda Stores Ltd","phone":"+44 1245 466566","website":"https:\/\/www.asda.com\/","wheelchair":"yes"}}, "geometry":{"type":"MultiPolygon","coordinates":[[[[0.50546,51.73607],[0.50598,51.73643],[0.50602,51.73641],[0.50611,51.73647],[0.50653,51.73624],[0.50645,51.73618],[0.50685,51.73596],[0.50677,51.7359],[0.50657,51.73576],[0.50665,51.73571],[0.50647,51.73558],[0.50645,51.73557],[0.50637,51.73561],[0.50634,51.73559],[0.50618,51.73548],[0.50615,51.73549],[0.5061,51.73552],[0.50626,51.73563],[0.50596,51.7358],[0.50573,51.73564],[0.50538,51.73583],[0.50561,51.73599],[0.50546,51.73607]]]]}},
{ "type":"Feature","properties":{"osm_way_id":"170057418","name":"Morrisons","building":"yes","shop":"supermarket","other":{"addr:city":"Malton","addr:postcode":"YO17 7DT","addr:street":"Castlegate","branch":"Malton","brand":"Morrisons","brand:wikidata":"Q922344","brand:wikipedia":"en:Morrisons","opening_hours":"Mo-Sa 07:00-22:00; Su 10:00-16:00"}}, "geometry":{"type":"MultiPolygon","coordinates":[[[[-0.79608,54.13391],[-0.79612,54.13375],[-0.79593,54.13373],[-0.79601,54.13341],[-0.79573,54.13338],[-0.79522,54.13334],[-0.79488,54.13331],[-0.79487,54.13338],[-0.79484,54.13348],[-0.79479,54.13348],[-0.79473,54.13373],[-0.79468,54.13372],[-0.79465,54.13382],[-0.7947,54.13383],[-0.79469,54.13389],[-0.7949,54.13391],[-0.79492,54.13385],[-0.79575,54.13392],[-0.79576,54.13388],[-0.79608,54.13391]]]]}},
{ "type":"Feature","properties":{"osm_way_id":"170057419","name":"Asda","building":"retail","shop":"supermarket","other":{"addr:city":"Malton","addr:country":"GB","addr:postcode":"YO17 9RD","addr:street":"Norton Road","branch":"Malton Supermarket","brand":"Asda","brand:wikidata":"Q297410","brand:wikipedia":"en:Asda","contact:website":"https:\/\/storelocator.asda.com\/yorkshire-&-humber\/malton\/norton-road","fhrs:id":"285237","opening_hours":"Mo-Sa 07:00-23:00; Su 10:00-16:00","operator":"Asda Stores Ltd","wheelchair":"yes"}}, "geometry":{"type":"MultiPolygon","coordinates":[[[[-0.79681,54.13239],[-0.79683,54.13226],[-0.79686,54.13211],[-0.7962,54.13207],[-0.79615,54.13235],[-0.79681,54.13239]]]]}},
{ "type":"Feature","properties":{"osm_way_id":"204802690","name":"Lidl","building":"yes","shop":"supermarket","other":{"addr:city":"Malton","addr:country":"GB","addr:housenumber":"4A","addr:postcode":"YO17 9DP","addr:street":"Welham Road","branch":"Norton","brand":"Lidl","brand:wikidata":"Q151954","brand:wikipedia":"en:Lidl","fhrs:id":"285465","opening_hours":"Mo-Sa 08:00-21:00; Su 10:00-16:00"}}, "geometry":{"type":"MultiPolygon","coordinates":[[[[-0.7915,54.13158],[-0.79146,54.13166],[-0.79138,54.13184],[-0.79166,54.13188],[-0.79167,54.13184],[-0.7922,54.13193],[-0.79226,54.13181],[-0.79236,54.13183],[-0.79241,54.13172],[-0.7915,54.13158]]]]}},
{ "type":"Feature","properties":{"osm_way_id":"205693527","name":"Co-op Food","building":"retail","shop":"supermarket","other":{"addr:city":"Pickering","addr:housenumber":"59","addr:postcode":"YO18 7AE","addr:street":"Champley Mews","brand":"Co-op Food","brand:wikidata":"Q3277439","brand:wikipedia":"en:Co-op Food","opening_hours":"Mo-Sa 06:00-22:00; Su 11:00-17:00","operator":"The Co-operative Group"}}, "geometry":{"type":"MultiPolygon","coordinates":[[[[-0.77856,54.24562],[-0.77857,54.2456],[-0.77869,54.24535],[-0.77855,54.24532],[-0.77853,54.24538],[-0.7782,54.24532],[-0.77799,54.24528],[-0.77795,54.24537],[-0.77789,54.24552],[-0.77836,54.24559],[-0.77856,54.24562]]]]}},
{ "type":"Feature","properties":{"osm_way_id":"225705089","name":"One Stop","building":"retail","shop":"supermarket","other":{"addr:city":"Pickering","addr:housenumber":"5","addr:postcode":"YO18 7DU","addr:street":"Eastgate","layer":"1","opening_hours:covid19":"open"}}, "geometry":{"type":"MultiPolygon","coordinates":[[[[-0.77401,54.2438],[-0.7741,54.24372],[-0.77413,54.24373],[-0.77419,54.24368],[-0.77404,54.2436],[-0.77398,54.24364],[-0.77388,54.24376],[-0.7739,54.24377],[-0.77401,54.2438]]]]}},
{ "type":"Feature","properties":{"osm_way_id":"225705094","name":"Co-op","building":"retail","shop":"supermarket","other":{"addr:city":"Pickering","addr:housenumber":"99B","addr:postcode":"YO18 7DW","addr:street":"Eastgate","atm":"yes","opening_hours":"Mo-Su 07:00-22:00","operator":"The Co-operative Group"}}, "geometry":{"type":"MultiPolygon","coordinates":[[[[-0.77125,54.24214],[-0.7713,54.24207],[-0.77136,54.24197],[-0.77141,54.24189],[-0.77133,54.24187],[-0.77116,54.24205],[-0.77114,54.24204],[-0.77109,54.2421],[-0.77125,54.24214]]]]}},
{ "type":"Feature","properties":{"osm_way_id":"277457695","name":"Boyes","building":"yes","shop":"supermarket"},"geometry":{"type":"MultiPolygon","coordinates":[[[[-0.79829,54.13639],[-0.7986,54.13653],[-0.7984,54.13668],[-0.79808,54.13654],[-0.79829,54.13639]]]]}},
{ "type":"Feature","properties":{"osm_way_id":"277458299","name":"Lidl","building":"supermarket","shop":"supermarket","other":{"addr:city":"Pickering","addr:postcode":"YO18 8TB","addr:street":"Vivis Lane","brand":"Lidl","brand:wikidata":"Q151954","brand:wikipedia":"en:Lidl","fhrs:id":"638127","opening_hours":"Mo-Sa 08:00-20:00; Su 10:00-16:00","source:addr:postcode":"FSA Food Hygiene Ratings Database"}}, "geometry":{"type":"MultiPolygon","coordinates":[[[[-0.78003,54.24496],[-0.77945,54.24496],[-0.77946,54.24453],[-0.77963,54.24439],[-0.77975,54.24439],[-0.77975,54.24448],[-0.77965,54.24448],[-0.77965,54.24454],[-0.77997,54.24454],[-0.77996,54.24479],[-0.78004,54.24479],[-0.78003,54.24496]]]]}},
{ "type":"Feature","properties":{"osm_way_id":"977135178","name":"Co-op Food","building":"yes","shop":"supermarket","other":{"brand":"Co-op Food","brand:wikidata":"Q3277439","brand:wikipedia":"en:Co-op Food"}}, "geometry":{"type":"MultiPolygon","coordinates":[[[[-0.92987,54.26671],[-0.92957,54.26671],[-0.92956,54.26642],[-0.92985,54.26641],[-0.92987,54.26671]]]]}}
]
}
