{
"type": "FeatureCollection",
"features": [
{ "type":"Feature","properties":{"osm_way_id":"129464998","name":"Joe Brown's","building":"warehouse","other":{"addr:housename":"Clyde Works","addr:postcode":"LS11 9RQ","addr:street":"Ingram Road"}}, "geometry":{"type":"MultiPolygon","coordinates":[[[[-1.56546,53.78267],[-1.56464,53.78267],[-1.56464,53.78194],[-1.56547,53.78194],[-1.56546,53.78267]]]]}},
{ "type":"Feature","properties":{"osm_way_id":"140684055","building":"warehouse"},"geometry":{"type":"MultiPolygon","coordinates":[[[[-1.71906,53.87988],[-1.7187,53.87999],[-1.71857,53.87985],[-1.71865,53.87982],[-1.71893,53.87973],[-1.71906,53.87988]]]]}},
{ "type":"Feature","properties":{"osm_way_id":"144659639","name":"Cassellie Bathrooms","building":"warehouse","other":{"building:levels":"0"}}, "geometry":{"type":"MultiPolygon","coordinates":[[[[-1.62559,53.74326],[-1.62522,53.74301],[-1.62497,53.74314],[-1.62534,53.74339],[-1.62559,53.74326]]]]}},
{ "type":"Feature","properties":{"osm_way_id":"151470651","name":"Leeds Mail Centre","amenity":"post_depot","building":"warehouse","other":{"addr:city":"Leeds","addr:housename":"Leodis House","addr:postcode":"LS10 1AZ","addr:street":"Leodis Way","addr:suburb":"Stourton","fhrs:id":"320984","operator":"Royal Mail","operator:wikidata":"Q638098","operator:wikipedia":"en:Royal Mail"}}, "geometry":{"type":"MultiPolygon","coordinates":[[[[-1.49914,53.76444],[-1.50203,53.76549],[-1.50127,53.76621],[-1.49839,53.76516],[-1.49914,53.76444]]]]}},
{ "type":"Feature","properties":{"osm_way_id":"152125226","name":"Bosch","building":"warehouse","other":{"addr:postcode":"IP14 1EY"}}, "geometry":{"type":"MultiPolygon","coordinates":[[[[1.00192,52.18525],[1.0021,52.18507],[1.00198,52.18502],[1.00249,52.18448],[1.00266,52.18455],[1.00333,52.18384],[1.0034,52.18387],[1.00353,52.18372],[1.00359,52.18374],[1.00372,52.18361],[1.00381,52.18349],[1.00476,52.18281],[1.00494,52.18292],[1.00423,52.18341],[1.00439,52.18349],[1.00415,52.18367],[1.00443,52.18376],[1.00422,52.18398],[1.00428,52.184],[1.00329,52.18506],[1.00335,52.18508],[1.00304,52.1854],[1.00316,52.18544],[1.0031,52.1855],[1.00316,52.18552],[1.00308,52.18559],[1.00318,52.18563],[1.00313,52.18568],[1.00192,52.18525]]]]}},
{ "type":"Feature","properties":{"osm_way_id":"155717616","name":"Longs of Leeds","building":"warehouse"},"geometry":{"type":"MultiPolygon","coordinates":[[[[-1.42768,53.80864],[-1.42757,53.80864],[-1.42673,53.8086],[-1.42679,53.80816],[-1.4268,53.8081],[-1.42774,53.80815],[-1.42775,53.80815],[-1.42768,53.80864]]]]}},
{ "type":"Feature","properties":{"osm_way_id":"155717617","building":"warehouse"},"geometry":{"type":"MultiPolygon","coordinates":[[[[-1.4295,53.80891],[-1.429,53.80889],[-1.42905,53.80854],[-1.42955,53.80856],[-1.4295,53.80891]]]]}},
{ "type":"Feature","properties":{"osm_way_id":"155717618","building":"warehouse"},"geometry":{"type":"MultiPolygon","coordinates":[[[[-1.42874,53.80849],[-1.42818,53.80847],[-1.42814,53.80879],[-1.4287,53.80882],[-1.42874,53.80849]]]]}},
{ "type":"Feature","properties":{"osm_way_id":"199123494","building":"warehouse"},"geometry":{"type":"MultiPolygon","coordinates":[[[[-1.40672,53.78649],[-1.40718,53.78654],[-1.40727,53.78628],[-1.40691,53.78624],[-1.40685,53.78645],[-1.40673,53.78643],[-1.40672,53.78649]]]]}},
{ "type":"Feature","properties":{"osm_way_id":"201078285","name":"Dowsing & Reynolds","building":"warehouse","other":{"addr:city":"Leeds","addr:place":"Hunslet Trading Estate","addr:postcode":"LS10 1BL","addr:street":"Severn Road","addr:suburb":"Hunslet","addr:unit":"7"}}, "geometry":{"type":"MultiPolygon","coordinates":[[[[-1.51923,53.7782],[-1.51902,53.77839],[-1.51811,53.77803],[-1.51832,53.77784],[-1.51923,53.7782]]]]}},
{ "type":"Feature","properties":{"osm_way_id":"216670883","name":"Low Use Store","building":"warehouse"},"geometry":{"type":"MultiPolygon","coordinates":[[[[-1.3239,53.91809],[-1.32336,53.91831],[-1.32424,53.91907],[-1.32477,53.91884],[-1.3239,53.91809]]]]}},
{ "type":"Feature","properties":{"osm_way_id":"311439080","building":"warehouse","other":{"operator":"McCarthy's Storage World"}}, "geometry":{"type":"MultiPolygon","coordinates":[[[[-1.54239,53.81175],[-1.54194,53.81187],[-1.5417,53.81156],[-1.54207,53.81147],[-1.54211,53.81146],[-1.54216,53.81153],[-1.54221,53.81152],[-1.54239,53.81175]]]]}},
{ "type":"Feature","properties":{"osm_way_id":"311439097","building":"warehouse"},"geometry":{"type":"MultiPolygon","coordinates":[[[[-1.5403,53.81199],[-1.54017,53.81182],[-1.54025,53.8118],[-1.54036,53.81177],[-1.54014,53.81149],[-1.54065,53.81135],[-1.54089,53.81136],[-1.54119,53.81175],[-1.54039,53.81197],[-1.5403,53.81199]]]]}},
{ "type":"Feature","properties":{"osm_way_id":"406155463","building":"warehouse","shop":"doityourself","other":{"brand":"Screwfix","building:use":"retail"}}, "geometry":{"type":"MultiPolygon","coordinates":[[[[-1.70542,53.86816],[-1.70508,53.86815],[-1.70506,53.86845],[-1.7054,53.86846],[-1.70542,53.86816]]]]}},
{ "type":"Feature","properties":{"osm_way_id":"406986168","name":"Manku Brothers Ltd","building":"warehouse","shop":"trade","other":{"addr:city":"Leeds","addr:postcode":"LS7 1AQ","addr:street":"Nortech Close","trade":"building_supplies;plumbing"}}, "geometry":{"type":"MultiPolygon","coordinates":[[[[-1.53427,53.80735],[-1.53428,53.80751],[-1.53361,53.80753],[-1.5336,53.80738],[-1.53427,53.80735]]]]}},
{ "type":"Feature","properties":{"osm_way_id":"406986178","name":"Howdens Joinery","building":"warehouse","shop":"trade","other":{"addr:city":"Leeds","addr:postcode":"LS7 1AQ","addr:street":"Nortech Close","addr:unit":"C1"}}, "geometry":{"type":"MultiPolygon","coordinates":[[[[-1.53363,53.8069],[-1.53405,53.80688],[-1.53406,53.807],[-1.53409,53.807],[-1.5341,53.80709],[-1.53396,53.80709],[-1.53395,53.80707],[-1.53365,53.80708],[-1.53363,53.8069]]]]}},
{ "type":"Feature","properties":{"osm_way_id":"409067777","building":"warehouse","other":{"addr:city":"Morley","addr:postcode":"LS27 0NQ","addr:street":"Scott Lane"}}, "geometry":{"type":"MultiPolygon","coordinates":[[[[-1.62275,53.74032],[-1.62271,53.74028],[-1.62266,53.74029],[-1.62223,53.7398],[-1.62231,53.73977],[-1.62227,53.73973],[-1.6226,53.73962],[-1.62265,53.73967],[-1.62275,53.73964],[-1.62322,53.74018],[-1.62275,53.74032]]]]}},
{ "type":"Feature","properties":{"osm_way_id":"433828112","name":"The Garage Door Company","building":"warehouse","other":{"addr:city":"Leeds","addr:housenumber":"87","addr:postcode":"LS8 5DT","addr:street":"Roseville Road","website":"https:\/\/www.thegaragedoorcompany.ltd.uk\/"}}, "geometry":{"type":"MultiPolygon","coordinates":[[[[-1.52869,53.80632],[-1.52916,53.80652],[-1.52897,53.80668],[-1.5285,53.80647],[-1.52869,53.80632]]]]}},
{ "type":"Feature","properties":{"osm_way_id":"435459066","name":"Screwfix","building":"warehouse","shop":"doityourself","other":{"brand":"Screwfix","brand:wikidata":"Q7439115","brand:wikipedia":"en:Screwfix"}}, "geometry":{"type":"MultiPolygon","coordinates":[[[[-1.51633,53.77609],[-1.51671,53.77576],[-1.51689,53.77584],[-1.51687,53.77586],[-1.51694,53.77589],[-1.51653,53.77624],[-1.51645,53.7762],[-1.5165,53.77616],[-1.51633,53.77609]]]]}},
{ "type":"Feature","properties":{"osm_way_id":"436877693","name":"Adams Fast Food Supplies","building":"warehouse","shop":"wholesale","other":{"addr:city":"Leeds","addr:housenumber":"40","addr:postcode":"LS8 5DR","addr:street":"Roseville Road","addr:suburb":"Sheepscar","wholesale":"food"}}, "geometry":{"type":"MultiPolygon","coordinates":[[[[-1.52618,53.80949],[-1.52668,53.80933],[-1.52687,53.80956],[-1.52638,53.80971],[-1.52618,53.80949]]]]}},
{ "type":"Feature","properties":{"osm_way_id":"448141518","name":"Howden's Joinery","building":"warehouse","shop":"trade"},"geometry":{"type":"MultiPolygon","coordinates":[[[[-1.51633,53.77609],[-1.5165,53.77616],[-1.51645,53.7762],[-1.5164,53.77624],[-1.51625,53.77618],[-1.51621,53.77622],[-1.51588,53.77608],[-1.51602,53.77596],[-1.51633,53.77609]]]]}},
{ "type":"Feature","properties":{"osm_way_id":"500241896","name":"Amazon Fulfillment and warehousing","building":"warehouse","other":{"wikidata":"Q27676059"}}, "geometry":{"type":"MultiPolygon","coordinates":[[[[-1.48298,53.78179],[-1.48128,53.7819],[-1.48118,53.78132],[-1.48286,53.78122],[-1.48298,53.78179]]]]}},
{ "type":"Feature","properties":{"osm_way_id":"500248063","name":"John Lewis","building":"warehouse","other":{"brand:wikidata":"Q1918981","brand:wikipedia":"ak:John Lewis & Partners"}}, "geometry":{"type":"MultiPolygon","coordinates":[[[[-1.48054,53.7838],[-1.48036,53.78283],[-1.47974,53.78287],[-1.47993,53.78384],[-1.48054,53.7838]]]]}},
{ "type":"Feature","properties":{"osm_way_id":"509385000","name":"Bramley Delivery Office","amenity":"post_depot","building":"warehouse","other":{"addr:city":"Leeds","addr:postcode":"LS13 2UB","addr:street":"Waterloo Way","operator":"Royal Mail"}}, "geometry":{"type":"MultiPolygon","coordinates":[[[[-1.62509,53.8134],[-1.6252,53.81347],[-1.62504,53.81356],[-1.62478,53.81341],[-1.62495,53.8133],[-1.62511,53.81339],[-1.62509,53.8134]]]]}},
{ "type":"Feature","properties":{"osm_way_id":"563078586","name":"Screwfix","building":"warehouse","shop":"doityourself","other":{"addr:city":"Leeds","addr:housename":"College Trade Park","addr:housenumber":"5","addr:postcode":"LS7 3AJ","addr:street":"Roundhay Road","addr:unit":"3","brand":"Screwfix","brand:wikidata":"Q7439115","brand:wikipedia":"en:Screwfix"}}, "geometry":{"type":"MultiPolygon","coordinates":[[[[-1.52991,53.80969],[-1.53024,53.8096],[-1.53037,53.80976],[-1.53005,53.80985],[-1.52991,53.80969]]]]}},
{ "type":"Feature","properties":{"osm_way_id":"563078587","name":"Toolstation","building":"warehouse","shop":"doityourself","other":{"addr:city":"Leeds","addr:housename":"College Trade Park","addr:housenumber":"5","addr:postcode":"LS7 3AJ","addr:street":"Roundhay Road","addr:unit":"4","brand":"Toolstation","brand:wikidata":"Q7824103","brand:wikipedia":"en:Toolstation"}}, "geometry":{"type":"MultiPolygon","coordinates":[[[[-1.52967,53.80976],[-1.52991,53.80969],[-1.53005,53.80985],[-1.52981,53.80992],[-1.52967,53.80976]]]]}},
{ "type":"Feature","properties":{"osm_way_id":"563078590","building":"warehouse","other":{"addr:city":"Leeds","addr:housename":"College Trade Park","addr:housenumber":"5","addr:postcode":"LS7 3AJ","addr:street":"Roundhay Road","addr:unit":"5"}}, "geometry":{"type":"MultiPolygon","coordinates":[[[[-1.52934,53.80985],[-1.52967,53.80976],[-1.52981,53.80992],[-1.52947,53.81002],[-1.52934,53.80985]]]]}},
{ "type":"Feature","properties":{"osm_way_id":"563078591","building":"warehouse","other":{"addr:city":"Leeds","addr:housename":"College Trade Park","addr:housenumber":"5","addr:postcode":"LS7 3AJ","addr:street":"Roundhay Road","addr:unit":"2"}}, "geometry":{"type":"MultiPolygon","coordinates":[[[[-1.53141,53.80922],[-1.53184,53.80974],[-1.53116,53.80994],[-1.53073,53.80941],[-1.53141,53.80922]]]]}},
{ "type":"Feature","properties":{"osm_way_id":"563078592","name":"Tobbell Electrical","building":"warehouse","shop":"trade","other":{"addr:city":"Leeds","addr:housename":"College Trade Park","addr:housenumber":"5","addr:postcode":"LS7 3AJ","addr:street":"Roundhay Road","addr:unit":"1","trade":"electrical"}}, "geometry":{"type":"MultiPolygon","coordinates":[[[[-1.53291,53.80879],[-1.53334,53.80928],[-1.53283,53.80943],[-1.5324,53.80894],[-1.53291,53.80879]]]]}},
{ "type":"Feature","properties":{"osm_way_id":"590570515","name":"Hunslet Mill","building":"warehouse","other":{"building:levels":"3","listed_status":"Grade II"}}, "geometry":{"type":"MultiPolygon","coordinates":[[[[-1.52488,53.78462],[-1.52408,53.78472],[-1.5241,53.78475],[-1.52408,53.78477],[-1.52404,53.78478],[-1.524,53.78477],[-1.52399,53.78473],[-1.52377,53.78476],[-1.5237,53.78468],[-1.52484,53.78452],[-1.52488,53.78462]]]]}},
{ "type":"Feature","properties":{"osm_way_id":"590570516","name":"Hunslet Mill","building":"warehouse","other":{"building:levels":"7","listed_status":"Grade II"}}, "geometry":{"type":"MultiPolygon","coordinates":[[[[-1.52377,53.78476],[-1.52387,53.7849],[-1.52393,53.78488],[-1.52396,53.78489],[-1.52398,53.78492],[-1.52397,53.78495],[-1.52391,53.78496],[-1.52409,53.78523],[-1.52391,53.78527],[-1.5235,53.78471],[-1.5237,53.78468],[-1.52377,53.78476]]]]}},
{ "type":"Feature","properties":{"osm_way_id":"690465444","building":"warehouse","shop":"yes"},"geometry":{"type":"MultiPolygon","coordinates":[[[[-1.44315,53.81776],[-1.44318,53.81764],[-1.44297,53.81759],[-1.44292,53.81766],[-1.44309,53.8177],[-1.44306,53.81774],[-1.44315,53.81776]]]]}},
{ "type":"Feature","properties":{"osm_way_id":"704131851","building":"warehouse"},"geometry":{"type":"MultiPolygon","coordinates":[[[[-1.47972,53.78528],[-1.48081,53.78521],[-1.48074,53.78482],[-1.47965,53.78489],[-1.47972,53.78528]]]]}},
{ "type":"Feature","properties":{"osm_way_id":"704131852","building":"warehouse"},"geometry":{"type":"MultiPolygon","coordinates":[[[[-1.47994,53.78609],[-1.48094,53.78603],[-1.48086,53.78554],[-1.47985,53.7856],[-1.47994,53.78609]]]]}},
{ "type":"Feature","properties":{"osm_way_id":"704131853","building":"warehouse"},"geometry":{"type":"MultiPolygon","coordinates":[[[[-1.48015,53.78683],[-1.48107,53.78678],[-1.481,53.78635],[-1.48008,53.7864],[-1.48015,53.78683]]]]}},
{ "type":"Feature","properties":{"osm_way_id":"704131864","building":"warehouse"},"geometry":{"type":"MultiPolygon","coordinates":[[[[-1.45184,53.76918],[-1.45182,53.7689],[-1.45116,53.76892],[-1.45119,53.7692],[-1.45184,53.76918]]]]}},
{ "type":"Feature","properties":{"osm_way_id":"755618336","name":"Harrison Bathrooms","building":"warehouse","shop":"trade"},"geometry":{"type":"MultiPolygon","coordinates":[[[[-1.57287,53.78746],[-1.57193,53.78814],[-1.57126,53.78785],[-1.5716,53.7876],[-1.57173,53.78765],[-1.57233,53.78721],[-1.57255,53.78731],[-1.57287,53.78746]]]]}},
{ "type":"Feature","properties":{"osm_way_id":"759460977","building":"warehouse"},"geometry":{"type":"MultiPolygon","coordinates":[[[[-1.48365,53.78849],[-1.48333,53.78737],[-1.48727,53.78698],[-1.48758,53.78809],[-1.48365,53.78849]]]]}},
{ "type":"Feature","properties":{"osm_way_id":"759460984","name":"Amazon","building":"warehouse","other":{"construction":"warehouse"}}, "geometry":{"type":"MultiPolygon","coordinates":[[[[-1.4854,53.78463],[-1.48359,53.78523],[-1.48192,53.78347],[-1.48373,53.78287],[-1.4854,53.78463]]]]}},
{ "type":"Feature","properties":{"osm_way_id":"759714365","building":"warehouse"},"geometry":{"type":"MultiPolygon","coordinates":[[[[-1.43068,53.80842],[-1.43025,53.8084],[-1.43029,53.80813],[-1.43073,53.80816],[-1.43071,53.80825],[-1.43076,53.80825],[-1.43073,53.80839],[-1.43068,53.80839],[-1.43068,53.80842]]]]}},
{ "type":"Feature","properties":{"osm_way_id":"759714367","building":"warehouse"},"geometry":{"type":"MultiPolygon","coordinates":[[[[-1.42956,53.80833],[-1.42935,53.80832],[-1.42934,53.80837],[-1.42911,53.80836],[-1.42914,53.80809],[-1.42959,53.80811],[-1.42956,53.80833]]]]}},
{ "type":"Feature","properties":{"osm_way_id":"759714368","building":"warehouse"},"geometry":{"type":"MultiPolygon","coordinates":[[[[-1.43073,53.80911],[-1.43034,53.80909],[-1.43039,53.80878],[-1.43077,53.8088],[-1.43073,53.80911]]]]}},
{ "type":"Feature","properties":{"osm_way_id":"783947696","building":"house"},"geometry":{"type":"MultiPolygon","coordinates":[[[[-1.43666,53.80842],[-1.43674,53.80842],[-1.43671,53.80853],[-1.43663,53.80852],[-1.43666,53.80842]]]]}},
{ "type":"Feature","properties":{"osm_way_id":"783947697","building":"house"},"geometry":{"type":"MultiPolygon","coordinates":[[[[-1.4369,53.80848],[-1.43691,53.80845],[-1.43699,53.80846],[-1.43696,53.80856],[-1.43682,53.80855],[-1.43684,53.80847],[-1.4369,53.80848]]]]}},
{ "type":"Feature","properties":{"osm_way_id":"783947704","building":"garage"},"geometry":{"type":"MultiPolygon","coordinates":[[[[-1.43785,53.80832],[-1.43796,53.80833],[-1.43795,53.80837],[-1.43784,53.80836],[-1.43785,53.80832]]]]}},
{ "type":"Feature","properties":{"osm_way_id":"897357045","name":"Harehills Delivery Office","amenity":"post_depot","building":"warehouse","other":{"addr:city":"Leeds","addr:postcode":"LS8 5RA","addr:street":"Gledhow Road","operator":"Royal Mail","operator:type":"private","operator:wikidata":"Q638098","operator:wikipedia":"en:Royal Mail"}}, "geometry":{"type":"MultiPolygon","coordinates":[[[[-1.5251,53.80736],[-1.52472,53.80721],[-1.52453,53.80739],[-1.52491,53.80754],[-1.5251,53.80736]]]]}},
{ "type":"Feature","properties":{"osm_way_id":"954658830","building":"warehouse"},"geometry":{"type":"MultiPolygon","coordinates":[[[[-1.48144,53.7883],[-1.48214,53.78825],[-1.48224,53.78871],[-1.48154,53.78876],[-1.48144,53.7883]]]]}},
{ "type":"Feature","properties":{"osm_way_id":"954658831","building":"warehouse"},"geometry":{"type":"MultiPolygon","coordinates":[[[[-1.48125,53.78846],[-1.48033,53.78853],[-1.48042,53.78896],[-1.48134,53.78889],[-1.48125,53.78846]]]]}},
{ "type":"Feature","properties":{"osm_way_id":"977547059","building":"warehouse"},"geometry":{"type":"MultiPolygon","coordinates":[[[[-1.49717,53.78481],[-1.49783,53.78501],[-1.49773,53.78512],[-1.49831,53.7853],[-1.49897,53.78456],[-1.49912,53.78461],[-1.4992,53.78451],[-1.49854,53.78431],[-1.49846,53.7844],[-1.49838,53.78437],[-1.49828,53.7845],[-1.49769,53.78431],[-1.49766,53.78435],[-1.49825,53.78453],[-1.49806,53.78473],[-1.49742,53.78453],[-1.4974,53.78455],[-1.49805,53.78475],[-1.49785,53.78498],[-1.4972,53.78477],[-1.49717,53.78481]]]]}},
{ "type":"Feature","properties":{"osm_way_id":"977547060","building":"warehouse"},"geometry":{"type":"MultiPolygon","coordinates":[[[[-1.49738,53.78435],[-1.49698,53.78481],[-1.49574,53.78444],[-1.49614,53.78397],[-1.49738,53.78435]]]]}},
{ "type":"Feature","properties":{"osm_way_id":"977547061","building":"warehouse"},"geometry":{"type":"MultiPolygon","coordinates":[[[[-1.4961,53.78396],[-1.49576,53.78435],[-1.49486,53.78407],[-1.49521,53.78368],[-1.4961,53.78396]]]]}},
{ "type":"Feature","properties":{"osm_way_id":"977547062","building":"warehouse"},"geometry":{"type":"MultiPolygon","coordinates":[[[[-1.49339,53.78354],[-1.4944,53.78386],[-1.49413,53.78416],[-1.49428,53.78421],[-1.49414,53.78436],[-1.49399,53.78431],[-1.49401,53.78429],[-1.493,53.78397],[-1.49339,53.78354]]]]}},
{ "type":"Feature","properties":{"osm_way_id":"977547063","building":"warehouse"},"geometry":{"type":"MultiPolygon","coordinates":[[[[-1.49256,53.78339],[-1.49305,53.78353],[-1.4929,53.78371],[-1.49241,53.78356],[-1.49256,53.78339]]]]}},
{ "type":"Feature","properties":{"osm_way_id":"977547064","building":"warehouse"},"geometry":{"type":"MultiPolygon","coordinates":[[[[-1.49336,53.78327],[-1.49379,53.78305],[-1.49353,53.78287],[-1.4931,53.78309],[-1.49336,53.78327]]]]}},
{ "type":"Feature","properties":{"osm_way_id":"1002110285","building":"warehouse"},"geometry":{"type":"MultiPolygon","coordinates":[[[[-1.48476,53.7756],[-1.48766,53.77753],[-1.4855,53.77867],[-1.48422,53.77782],[-1.4848,53.77752],[-1.48317,53.77644],[-1.48476,53.7756]]]]}}
]
}
