{
"type": "FeatureCollection",
"features": [
{ "type":"Feature","properties":{"osm_id":"245070053","name":"Sainsbury's","other":{"addr:city":"Leeds","addr:housename":"Arndale Centre","addr:postcode":"LS6 2UE","addr:street":"Otley Road","addr:unit":"11-16","brand":"Sainsbury's","brand:wikidata":"Q152096","brand:wikipedia":"en:Sainsbury's","fhrs:id":"322606","opening_hours":"Mo-Sa 07:00-23:00; Su 11:00-17:00","shop":"supermarket","wheelchair":"limited"}}, "geometry":{"type":"Point","coordinates":[-1.57808,53.82196 ]}},
{ "type":"Feature","properties":{"osm_id":"250250966","name":"Polish Shop","other":{"addr:city":"Leeds","addr:housenumber":"3","addr:postcode":"LS12 3AQ","addr:street":"Branch Road","shop":"supermarket"}}, "geometry":{"type":"Point","coordinates":[-1.58735,53.79786 ]}},
{ "type":"Feature","properties":{"osm_id":"289817194","name":"Tesco","other":{"addr:housename":"Bramley Shopping Centre","addr:postcode":"LS13 2ET","addr:street":"Town Street","addr:town":"Bramley","addr:unit":"22","brand":"Tesco","brand:wikidata":"Q487494","brand:wikipedia":"en:Tesco","contact:website":"https:\/\/www.tesco.com\/store-locator\/leeds\/22-bramley-centre","fhrs:id":"322126","shop":"supermarket"}}, "geometry":{"type":"Point","coordinates":[-1.62611,53.81141 ]}},
{ "type":"Feature","properties":{"osm_id":"298186533","name":"Aldi","other":{"addr:city":"Leeds","addr:housename":"Northside Retail Park","addr:postcode":"LS7 2TT","addr:street":"Stonegate Road","addr:unit":"1","brand":"ALDI","brand:wikidata":"Q41171672","brand:wikipedia":"en:Aldi","fhrs:id":"467101","shop":"supermarket"}}, "geometry":{"type":"Point","coordinates":[-1.56461,53.82837 ]}},
{ "type":"Feature","properties":{"osm_id":"299171007","name":"Morrisons","other":{"addr:city":"Leeds","addr:housenumber":"43","addr:postcode":"LS2 8PL","addr:street":"Merrion Centre","branch":"Leeds - Merrion Centre","brand":"Morrisons","brand:wikidata":"Q922344","brand:wikipedia":"en:Morrisons","fhrs:id":"320381","not:addr:postcode":"LS2 8NG","opening_hours":"Mo-Sa 07:00-21:00; Su 11:00-17:00","shop":"supermarket","website":"https:\/\/my.morrisons.com\/storefinder\/10"}}, "geometry":{"type":"Point","coordinates":[-1.54496,53.80219 ]}},
{ "type":"Feature","properties":{"osm_id":"299171017","name":"Continental Supermarket","other":{"addr:city":"Leeds","addr:housenumber":"35-45","addr:postcode":"LS6 1HR","addr:street":"Brudenell Grove","addr:suburb":"Hyde Park","fhrs:id":"953891","shop":"supermarket"}}, "geometry":{"type":"Point","coordinates":[-1.56791,53.81146 ]}},
{ "type":"Feature","properties":{"osm_id":"301022545","name":"Asda","other":{"addr:city":"Leeds","addr:country":"GB","addr:housenumber":"385","addr:postcode":"LS4 2EZ","addr:street":"Kirkstall Road","addr:suburb":"Burley","brand":"Asda","brand:wikidata":"Q297410","brand:wikipedia":"en:Asda","contact:website":"https:\/\/storelocator.asda.com\/yorkshire-&-humber\/leeds\/385-kirkstall-road-kirkstall","fhrs:id":"537083","operator":"Asda Stores Ltd","shop":"supermarket"}}, "geometry":{"type":"Point","coordinates":[-1.5871,53.80725 ]}},
{ "type":"Feature","properties":{"osm_id":"319425599","name":"Abu Bakar","other":{"addr:city":"Leeds","addr:housenumber":"37","addr:postcode":"LS6 1NY","addr:street":"Queens Road","fhrs:id":"320079","shop":"supermarket"}}, "geometry":{"type":"Point","coordinates":[-1.57008,53.81 ]}},
{ "type":"Feature","properties":{"osm_id":"330089330","name":"Armley Food Centre","other":{"addr:city":"Leeds","addr:housenumber":"30","addr:postcode":"LS12 3AB","addr:street":"Town Street","addr:suburb":"Armley","shop":"supermarket"}}, "geometry":{"type":"Point","coordinates":[-1.58964,53.79736 ]}},
{ "type":"Feature","properties":{"osm_id":"339325822","name":"Sainsbury's","other":{"addr:city":"Leeds","addr:housenumber":"22-26","addr:postcode":"LS1 8EQ","addr:street":"The Headrow","branch":"Leeds Headrow Superstore","brand":"Sainsbury's","brand:wikidata":"Q152096","brand:wikipedia":"en:Sainsbury's","fhrs:id":"322330","opening_hours":"Mo-Sa 07:00-23:00; Su 11:00-17:00","shop":"supermarket"}}, "geometry":{"type":"Point","coordinates":[-1.5436,53.79962 ]}},
{ "type":"Feature","properties":{"osm_id":"389950723","name":"Westwood Mini Market","other":{"addr:city":"Leeds","addr:housenumber":"6","addr:postcode":"LS10 4NH","addr:street":"Bodmin Crescent","addr:suburb":"Middleton","fhrs:id":"801124","shop":"supermarket"}}, "geometry":{"type":"Point","coordinates":[-1.55748,53.74754 ]}},
{ "type":"Feature","properties":{"osm_id":"389950754","name":"Sissons Stores","other":{"addr:city":"Leeds","addr:housenumber":"24-26","addr:postcode":"LS10 4LA","addr:street":"Sissons Avenue","fhrs:id":"801125","shop":"supermarket"}}, "geometry":{"type":"Point","coordinates":[-1.55062,53.74457 ]}},
{ "type":"Feature","properties":{"osm_id":"888708138","name":"Lidl","other":{"addr:city":"Leeds","addr:postcode":"LS7 3NB","addr:street":"Harrogate Road","brand":"Lidl","brand:wikidata":"Q151954","brand:wikipedia":"en:Lidl","fhrs:id":"322626","opening_hours":"Mo-Sa 08:00-21:00; Su 10:00-16:00","shop":"supermarket","source:addr":"FHRS Open Data"}}, "geometry":{"type":"Point","coordinates":[-1.53551,53.82559 ]}},
{ "type":"Feature","properties":{"osm_id":"1303879426","name":"CC Continental Supermarket","other":{"addr:city":"Leeds","addr:housenumber":"121 - 129","addr:postcode":"LS7 3DU","addr:street":"Chapeltown Road","fhrs:id":"319640","shop":"supermarket","source:addr":"FHRS Open Data"}}, "geometry":{"type":"Point","coordinates":[-1.53387,53.81358 ]}},
{ "type":"Feature","properties":{"osm_id":"1674063403","name":"Tesco Metro","other":{"addr:city":"Leeds","addr:postcode":"LS1 5BQ","addr:street":"Bond Street","branch":"Leeds Bond Street Metro","brand":"Tesco Metro","brand:wikidata":"Q57551648","fhrs:id":"322021","opening_hours":"Mo-Fr 06:00-00:00; Sa 06:00-22:00; Su 11:00-17:00","shop":"supermarket"}}, "geometry":{"type":"Point","coordinates":[-1.54624,53.79773 ]}},
{ "type":"Feature","properties":{"osm_id":"1703549121","name":"Co-op Food","other":{"brand":"Co-op Food","brand:wikidata":"Q3277439","brand:wikipedia":"en:Co-op Food","operator":"The Co-operative Group","shop":"supermarket"}}, "geometry":{"type":"Point","coordinates":[-1.5929,54.28881 ]}},
{ "type":"Feature","properties":{"osm_id":"2125610528","name":"Out Of This World","other":{"addr:city":"Leeds","addr:housenumber":"20","addr:postcode":"LS1 6DG","addr:street":"New Market Street","fhrs:id":"321995","organic":"only","shop":"supermarket"}}, "geometry":{"type":"Point","coordinates":[-1.54104,53.79629 ]}},
{ "type":"Feature","properties":{"osm_id":"2138696607","name":"Regency Smart Supermarket","other":{"addr:city":"Leeds","addr:housenumber":"105","addr:postcode":"LS1 6PJ","addr:street":"Vicar Lane","fhrs:id":"1229349","shop":"supermarket"}}, "geometry":{"type":"Point","coordinates":[-1.53998,53.79947 ]}},
{ "type":"Feature","properties":{"osm_id":"2138696610","name":"Hang Sing Hong","other":{"addr:city":"Leeds","addr:housenumber":"117-119","addr:postcode":"LS1 6PJ","addr:street":"Vicar Lane","fhrs:id":"323087","shop":"supermarket"}}, "geometry":{"type":"Point","coordinates":[-1.53992,53.79998 ]}},
{ "type":"Feature","properties":{"osm_id":"2593274961","name":"Heron Foods","other":{"addr:city":"Leeds","addr:housename":"Unit 3","addr:postcode":"LS13 4JF","addr:street":"Butt Lane","brand":"Heron Foods","brand:wikidata":"Q5743472","brand:wikipedia":"en:Heron Foods","contact:website":"https:\/\/heronfoods.com\/storelocator\/store-details\/pudsey-road","opening_hours":"Mo-Sa 08:00-20:00; Su 09:00-17:00","shop":"supermarket"}}, "geometry":{"type":"Point","coordinates":[-1.62067,53.79566 ]}},
{ "type":"Feature","properties":{"osm_id":"3001019967","name":"Co-op Food","other":{"addr:city":"Leeds","addr:housenumber":"206","addr:postcode":"LS16 5BG","addr:street":"Butcher Hill","brand":"Co-op Food","brand:wikidata":"Q3277439","brand:wikipedia":"en:Co-op Food","fhrs:id":"481478","opening_hours":"Mo-Su 07:00-23:00","operator":"The Co-operative Group","shop":"supermarket"}}, "geometry":{"type":"Point","coordinates":[-1.60389,53.83284 ]}},
{ "type":"Feature","properties":{"osm_id":"3191896335","name":"M&S Simply Food","other":{"addr:city":"Leeds","addr:housename":"Guiseley Retail Park","addr:postcode":"LS20 8EG","addr:street":"Park Road","addr:suburb":"Guiseley","addr:unit":"5","brand":"M&S Simply Food","brand:wikidata":"Q714491","fhrs:id":"321097","shop":"supermarket"}}, "geometry":{"type":"Point","coordinates":[-1.70927,53.87123 ]}},
{ "type":"Feature","properties":{"osm_id":"3257031704","name":"Co-op Food","other":{"addr:city":"Leeds","addr:housenumber":"20","addr:postcode":"LS25 1AA","addr:street":"Main Street","brand":"Co-op Food","brand:wikidata":"Q3277439","brand:wikipedia":"en:Co-op Food","fhrs:id":"321691","operator":"The Co-operative Group","shop":"supermarket"}}, "geometry":{"type":"Point","coordinates":[-1.38812,53.79416 ]}},
{ "type":"Feature","properties":{"osm_id":"3257033805","name":"Co-op Food","other":{"addr:city":"Leeds","addr:housenumber":"103-107","addr:postcode":"LS26 8LQ","addr:street":"Aberford Road","brand":"Co-op Food","brand:wikidata":"Q3277439","brand:wikipedia":"en:Co-op Food","fhrs:id":"321690","operator":"The Co-operative Group","operator:wikidata":"Q117202","operator:wikipedia":"en:The Co-operative Group","shop":"supermarket"}}, "geometry":{"type":"Point","coordinates":[-1.44583,53.75346 ]}},
{ "type":"Feature","properties":{"osm_id":"3618061605","name":"Roundhay Supermarket","other":{"addr:city":"Leeds","addr:housenumber":"264","addr:postcode":"LS8 5RL","addr:street":"Roundhay Road","fhrs:id":"547297","shop":"supermarket","source:addr":"FHRS Open Data"}}, "geometry":{"type":"Point","coordinates":[-1.51614,53.81734 ]}},
{ "type":"Feature","properties":{"osm_id":"5237215032","other":{"emergency":"defibrillator","indoor":"no","location":"outside Co-op on Otley Road, Lawnswood"}}, "geometry":{"type":"Point","coordinates":[-1.59264,53.85172 ]}},
{ "type":"Feature","properties":{"osm_id":"5354588857","name":"Nong Fern Thai Supermarket","other":{"addr:city":"Leeds","addr:housenumber":"97-99","addr:postcode":"LS1 6PJ","addr:street":"Vicar Lane","fhrs:id":"666666","shop":"supermarket"}}, "geometry":{"type":"Point","coordinates":[-1.53998,53.79927 ]}},
{ "type":"Feature","properties":{"osm_id":"5422663146","name":"Heron Foods","other":{"addr:city":"Leeds","addr:housename":"Merrion Centre","addr:postcode":"LS2 8NG","addr:street":"Merrion Way","addr:unit":"72-76","brand":"Heron Foods","brand:wikidata":"Q5743472","brand:wikipedia":"en:Heron Foods","contact:website":"https:\/\/heronfoods.com\/storelocator\/store-details\/merrion-centre","fhrs:id":"1018136","shop":"supermarket"}}, "geometry":{"type":"Point","coordinates":[-1.54414,53.8021 ]}},
{ "type":"Feature","properties":{"osm_id":"5462715990","name":"Noor Foods","other":{"addr:city":"Leeds","addr:housenumber":"26","addr:postcode":"LS8 5PB","addr:street":"Harehills Road","addr:suburb":"Harehills","fhrs:id":"1091956","shop":"supermarket"}}, "geometry":{"type":"Point","coordinates":[-1.51747,53.81356 ]}},
{ "type":"Feature","properties":{"osm_id":"5499251415","name":"Sainsbury's","other":{"addr:city":"Leeds","addr:housenumber":"296","addr:postcode":"LS17 6LY","addr:street":"Harrogate Road","addr:suburb":"Moortown","brand":"Sainsbury's","brand:wikidata":"Q152096","brand:wikipedia":"en:Sainsbury's","fhrs:id":"580052","shop":"supermarket","website":"https:\/\/stores.sainsburys.co.uk\/4239\/chapel-allerton-harrogate-road-local"}}, "geometry":{"type":"Point","coordinates":[-1.53648,53.83856 ]}},
{ "type":"Feature","properties":{"osm_id":"5573895441","name":"Sing Kee Supermarket","other":{"addr:city":"Leeds","addr:housenumber":"26-28","addr:postcode":"LS2 8LX","addr:street":"Woodhouse Lane","fhrs:id":"877767","shop":"supermarket"}}, "geometry":{"type":"Point","coordinates":[-1.54483,53.80128 ]}},
{ "type":"Feature","properties":{"osm_id":"5573895469","name":"Faizan Khan International Supermarket","other":{"addr:city":"Leeds","addr:housenumber":"68","addr:postcode":"LS8 4JB","addr:street":"Markham Avenue","addr:suburb":"Chapeltown","shop":"supermarket"}}, "geometry":{"type":"Point","coordinates":[-1.52009,53.81674 ]}},
{ "type":"Feature","properties":{"osm_id":"5632863858","name":"Amigo","other":{"addr:city":"Leeds","addr:housename":"Bexley Wing, St James Hospital","addr:postcode":"LS9 7TF","addr:street":"Beckett Street","addr:suburb":"Burmantofts","alt_name":"Supermercados Amigo","brand":"Amigo","brand:wikidata":"Q4746234","brand:wikipedia":"en:Amigo Supermarkets","fhrs:id":"322104","shop":"supermarket"}}, "geometry":{"type":"Point","coordinates":[-1.52239,53.80557 ]}},
{ "type":"Feature","properties":{"osm_id":"5632863860","name":"Amigo","other":{"addr:city":"Leeds","addr:housename":"Chancellor Wing, St James Hospital","addr:postcode":"LS9 7TF","addr:street":"Beckett Street","addr:suburb":"Burmantofts","addr:unit":"2","alt_name":"Supermercados Amigo","brand":"Amigo","brand:wikidata":"Q4746234","brand:wikipedia":"en:Amigo Supermarkets","fhrs:id":"322003","shop":"supermarket"}}, "geometry":{"type":"Point","coordinates":[-1.52149,53.80606 ]}},
{ "type":"Feature","properties":{"osm_id":"5632863861","name":"Amigo","other":{"addr:city":"Leeds","addr:housename":"Gledhow Wing, St James Hospital","addr:postcode":"LS9 7TF","addr:street":"Beckett Street","addr:suburb":"Burmantofts","addr:unit":"12","alt_name":"Supermercados Amigo","brand":"Amigo","brand:wikidata":"Q4746234","brand:wikipedia":"en:Amigo Supermarkets","fhrs:id":"322552","shop":"supermarket"}}, "geometry":{"type":"Point","coordinates":[-1.52112,53.80797 ]}},
{ "type":"Feature","properties":{"osm_id":"6515446378","name":"M&S Foodhall","other":{"addr:city":"Leeds","addr:housename":"The Springs","addr:housenumber":"Unit 4","addr:postcode":"LS15 8GG","addr:street":"Thorpe Park View","addr:suburb":"Austhorpe","brand":"M&S Foodhall","brand:wikidata":"Q714491","brand:wikipedia":"en:Marks & Spencer","fhrs:id":"1078601","operator":"Marks & Spencer","shop":"supermarket"}}, "geometry":{"type":"Point","coordinates":[-1.42395,53.80071 ]}},
{ "type":"Feature","properties":{"osm_id":"6585222786","name":"Asda","other":{"addr:city":"Leeds","addr:country":"GB","addr:postcode":"LS16 7RY","addr:street":"Holt Road","brand":"Asda","brand:wikidata":"Q297410","brand:wikipedia":"en:Asda","contact:website":"https:\/\/storelocator.asda.com\/yorkshire-&-humber\/leeds\/holt-road-holt-park","fhrs:id":"320848","name:en":"ASDA Supermarket","operator":"Asda Stores Ltd","shop":"supermarket"}}, "geometry":{"type":"Point","coordinates":[-1.60628,53.85589 ]}},
{ "type":"Feature","properties":{"osm_id":"6689501761","name":"Co-op Food","other":{"addr:city":"Leeds","addr:housename":"Unit 3, Sovereign Square","addr:postcode":"LS1 4ER","addr:street":"Sovereign Street","brand":"Co-op Food","brand:wikidata":"Q3277439","brand:wikipedia":"en:Co-op Food","fhrs:id":"1018168","opening_hours":"Mo-Su 06:00-23:00","operator":"The Co-operative Group","operator:wikidata":"Q117202","operator:wikipedia":"en:The Co-operative Group","shop":"supermarket"}}, "geometry":{"type":"Point","coordinates":[-1.544,53.79414 ]}},
{ "type":"Feature","properties":{"osm_id":"6844696876","name":"Karpaty Food Centre","other":{"addr:city":"Leeds","addr:housenumber":"385","addr:postcode":"LS9 6TA","addr:street":"York Road","fhrs:id":"1181885","shop":"supermarket"}}, "geometry":{"type":"Point","coordinates":[-1.50747,53.79961 ]}},
{ "type":"Feature","properties":{"osm_id":"8544933536","name":"Co-op Food","other":{"addr:city":"Leeds","addr:housenumber":"11","addr:postcode":"LS2 8BT","addr:street":"Merrion Way","brand":"Co-op Food","brand:wikidata":"Q3277439","brand:wikipedia":"en:Co-op Food","opening_hours:covid19":"closed","operator":"The Co-operative Group","operator:wikidata":"Q117202","operator:wikipedia":"en:The Co-operative Group","phone":"+44 113 247 1683","shop":"supermarket","website":"https:\/\/www.coop.co.uk\/store-finder\/LS2-8BT\/11-merrion-way"}}, "geometry":{"type":"Point","coordinates":[-1.54347,53.80232 ]}},
{ "type":"Feature","properties":{"osm_id":"9178942753","other":{"generator:method":"photovoltaic","generator:output:electricity":"yes","generator:source":"solar","generator:type":"solar_photovoltaic_panel","power":"generator"}}, "geometry":{"type":"Point","coordinates":[-3.91127,56.00628 ]}},
{ "type":"Feature","properties":{"osm_way_id":"4049582","name":"Asda","building":"retail","shop":"supermarket","other":{"addr:city":"Leeds","addr:country":"GB","addr:postcode":"LS12 4BR","addr:street":"Oldfield Lane","brand":"Asda","brand:wikidata":"Q297410","brand:wikipedia":"en:Asda","contact:website":"https:\/\/storelocator.asda.com\/yorkshire-&-humber\/leeds\/oldfield-lanewortley","fhrs:id":"517544","official_name":"Asda Wortley Oldfield Lane Supermarket","opening_hours":"Mo-Sa 08:00-22:00; Su 10:00-16:00","operator":"Asda Stores Ltd"}}, "geometry":{"type":"MultiPolygon","coordinates":[[[[-1.58588,53.78919],[-1.58569,53.78921],[-1.58567,53.78914],[-1.58523,53.78919],[-1.58523,53.78922],[-1.58494,53.78925],[-1.58488,53.78902],[-1.58502,53.78901],[-1.58501,53.78898],[-1.5858,53.7889],[-1.58588,53.78919]]]]}},
{ "type":"Feature","properties":{"osm_way_id":"24674904","name":"The Food Warehouse","building":"yes","shop":"supermarket","other":{"addr:city":"Leeds","addr:housenumber":"2","addr:postcode":"LS11 0BD","addr:street":"Junction 1 Retail Park","brand":"The Food Warehouse","brand:wikidata":"Q87263899"}}, "geometry":{"type":"MultiPolygon","coordinates":[[[[-1.58215,53.77305],[-1.58195,53.77265],[-1.58193,53.77262],[-1.58177,53.77265],[-1.58175,53.77261],[-1.58156,53.77265],[-1.58159,53.77271],[-1.5818,53.77311],[-1.58215,53.77305]]]]}},
{ "type":"Feature","properties":{"osm_way_id":"27196308","name":"Morrisons","building":"yes","shop":"supermarket","other":{"addr:city":"Leeds","addr:postcode":"LS13 4UJ","addr:street":"Swinnow Road","addr:suburb":"Swinnow","brand":"Morrisons","brand:wikidata":"Q922344","brand:wikipedia":"en:Morrisons","fhrs:id":"321114","not:addr:postcode":"LS13 1NR","website":"https:\/\/my.morrisons.com\/storefinder\/137"}}, "geometry":{"type":"MultiPolygon","coordinates":[[[[-1.63685,53.80352],[-1.63682,53.80357],[-1.63654,53.80406],[-1.63561,53.80389],[-1.63609,53.80298],[-1.63636,53.80303],[-1.63631,53.80309],[-1.63621,53.80326],[-1.6368,53.80337],[-1.63672,53.8035],[-1.63685,53.80352]]]]}},
{ "type":"Feature","properties":{"osm_way_id":"27815114","name":"Morrisons","building":"retail","shop":"supermarket","other":{"addr:city":"Leeds","addr:postcode":"LS27 9BG","addr:street":"Windsor Court","brand":"Morrisons","brand:wikidata":"Q922344","brand:wikipedia":"en:Morrisons","fhrs:id":"320859"}}, "geometry":{"type":"MultiPolygon","coordinates":[[[[-1.60368,53.74593],[-1.60335,53.74555],[-1.60349,53.74551],[-1.60317,53.74517],[-1.6031,53.74512],[-1.60293,53.74518],[-1.60257,53.7453],[-1.60235,53.74537],[-1.60232,53.74538],[-1.60303,53.74614],[-1.60368,53.74593]]]]}},
{ "type":"Feature","properties":{"osm_way_id":"37825079","name":"Waitrose","building":"retail","shop":"supermarket","other":{"addr:city":"Otley","addr:country":"GB","addr:housenumber":"60","addr:postcode":"LS21 3AS","addr:street":"Westgate","alt_name":"Waitrose Otley","brand":"Waitrose","brand:wikidata":"Q771734","brand:wikipedia":"en:Waitrose & Partners","building:levels":"1","fhrs:id":"321136","official_name":"Waitrose & Partners","operator":"Waitrose & Partners","website":"www.waitrose.co.uk"}}, "geometry":{"type":"MultiPolygon","coordinates":[[[[-1.69818,53.90394],[-1.6979,53.90396],[-1.6979,53.90397],[-1.69784,53.90397],[-1.69769,53.90398],[-1.69768,53.90396],[-1.69757,53.90397],[-1.69744,53.9033],[-1.69758,53.90329],[-1.69757,53.90324],[-1.69801,53.90321],[-1.69801,53.90324],[-1.69806,53.90324],[-1.69806,53.90326],[-1.69818,53.90394]]]]}},
{ "type":"Feature","properties":{"osm_way_id":"42729032","name":"Sainsbury's","building":"retail","shop":"supermarket","other":{"addr:housenumber":"11","addr:postcode":"LS21 3AB","addr:street":"Bondgate","alt_name":"Sainsbury's Otley Superstore","brand":"Sainsbury's","brand:wikidata":"Q152096","brand:wikipedia":"en:Sainsbury's","contact:website":"https:\/\/stores.sainsburys.co.uk\/2189\/otley","fhrs:id":"322245"}}, "geometry":{"type":"MultiPolygon","coordinates":[[[[-1.69307,53.90304],[-1.69303,53.9029],[-1.6932,53.90288],[-1.69317,53.90278],[-1.69313,53.90265],[-1.69327,53.90263],[-1.69325,53.90256],[-1.69325,53.90256],[-1.69311,53.90258],[-1.69203,53.90268],[-1.69209,53.90289],[-1.69211,53.90295],[-1.69217,53.90318],[-1.69234,53.90316],[-1.69233,53.90313],[-1.69232,53.90311],[-1.69307,53.90304]]]]}},
{ "type":"Feature","properties":{"osm_way_id":"80509388","name":"Asda","building":"supermarket","shop":"supermarket","other":{"addr:city":"Leeds","addr:country":"GB","addr:postcode":"LS14 6UF","addr:street":"Killingbeck Drive","brand":"Asda","brand:wikidata":"Q297410","brand:wikipedia":"en:Asda","contact:website":"https:\/\/storelocator.asda.com\/yorkshire-&-humber\/leeds\/killingbeck-drive","fhrs:id":"320375","opening_hours":"Mo 07:00-24:00; Tu-Fr 00:00-24:00; Sa 00:00-22:00; Su 10:00-16:00","operator":"Asda Stores Ltd"}}, "geometry":{"type":"MultiPolygon","coordinates":[[[[-1.47776,53.80667],[-1.47759,53.80654],[-1.47747,53.80659],[-1.47738,53.80652],[-1.47745,53.80649],[-1.47746,53.80649],[-1.47747,53.80648],[-1.47757,53.80644],[-1.47759,53.80643],[-1.47754,53.80639],[-1.47699,53.80598],[-1.47697,53.80599],[-1.47694,53.806],[-1.47688,53.80603],[-1.47683,53.80599],[-1.47667,53.80606],[-1.47665,53.80607],[-1.47565,53.80654],[-1.47577,53.80663],[-1.47572,53.80666],[-1.47634,53.80713],[-1.4769,53.80687],[-1.47701,53.80696],[-1.47734,53.8068],[-1.47737,53.80682],[-1.47739,53.80684],[-1.47776,53.80667]]]]}},
{ "type":"Feature","properties":{"osm_way_id":"80509439","name":"Sainsbury's","building":"retail","shop":"supermarket","other":{"addr:city":"Leeds","addr:housenumber":"1","addr:postcode":"LS15 9JA","addr:street":"Stile Hill Way","brand":"Sainsbury's","brand:wikidata":"Q152096","brand:wikipedia":"en:Sainsbury's","designation":"0867","fhrs:id":"319773","phone":"+44 113 232 8151"}}, "geometry":{"type":"MultiPolygon","coordinates":[[[[-1.43608,53.79469],[-1.43556,53.79515],[-1.43444,53.79474],[-1.43469,53.79452],[-1.43473,53.79454],[-1.43488,53.7944],[-1.43484,53.79439],[-1.43499,53.79424],[-1.43505,53.79426],[-1.43519,53.79413],[-1.43581,53.79435],[-1.43585,53.79437],[-1.43597,53.79441],[-1.4358,53.79457],[-1.43608,53.79469]]]]}},
{ "type":"Feature","properties":{"osm_way_id":"83600880","name":"Lidl","building":"supermarket","shop":"supermarket","other":{"addr:city":"Leeds","addr:housenumber":"174","addr:postcode":"LS15 0DL","addr:street":"Selby Road","brand":"Lidl","brand:wikidata":"Q151954","brand:wikipedia":"en:Lidl","fhrs:id":"322236","wheelchair":"limited"}}, "geometry":{"type":"MultiPolygon","coordinates":[[[[-1.47108,53.79558],[-1.47121,53.7953],[-1.47125,53.79531],[-1.4713,53.79524],[-1.47145,53.79528],[-1.47142,53.79533],[-1.47204,53.79545],[-1.47186,53.79576],[-1.47128,53.79566],[-1.4713,53.79562],[-1.47108,53.79558]]]]}},
{ "type":"Feature","properties":{"osm_way_id":"85311799","name":"Waitrose","building":"supermarket","shop":"supermarket","other":{"addr:city":"Leeds","addr:postcode":"LS6 4RJ","addr:street":"Green Road","addr:suburb":"Meanwood","brand":"Waitrose & Partners","brand:wikidata":"Q771734","brand:wikipedia":"en:Waitrose & Partners","fhrs:id":"322969","layer":"1","level":"1","operator":"Waitrose & Partners"}}, "geometry":{"type":"MultiPolygon","coordinates":[[[[-1.5684,53.82852],[-1.56835,53.82854],[-1.56816,53.82863],[-1.56797,53.82872],[-1.56779,53.8288],[-1.5676,53.82888],[-1.56754,53.82883],[-1.56713,53.82852],[-1.5671,53.82849],[-1.56701,53.82842],[-1.56716,53.82836],[-1.56719,53.82834],[-1.5674,53.82825],[-1.56757,53.82818],[-1.56777,53.82809],[-1.56783,53.82807],[-1.5684,53.82852]]]]}},
{ "type":"Feature","properties":{"osm_way_id":"90189699","name":"Asda","building":"retail","shop":"supermarket","other":{"addr:country":"GB","addr:housename":"Unit 4 Asda Supermarket","addr:postcode":"LS28 6AR","addr:street":"Stanningley Bypass","addr:town":"Stanningley","brand":"Asda","brand:wikidata":"Q297410","brand:wikipedia":"en:Asda","contact:website":"https:\/\/storelocator.asda.com\/yorkshire-&-humber\/leeds\/owlcotes-shopping-centre","fhrs:id":"320461","layer":"2","opening_hours:covid19":"open","operator":"Asda Stores Ltd","website":"https:\/\/www.asda.com\/"}}, "geometry":{"type":"MultiPolygon","coordinates":[[[[-1.67047,53.80351],[-1.67095,53.80423],[-1.67116,53.80418],[-1.67127,53.80434],[-1.67206,53.80415],[-1.67196,53.804],[-1.67194,53.80398],[-1.67217,53.80392],[-1.67183,53.80342],[-1.6716,53.80347],[-1.67147,53.80328],[-1.67057,53.80349],[-1.67047,53.80351]]]]}},
{ "type":"Feature","properties":{"osm_way_id":"96399953","name":"Sainsbury's","shop":"supermarket","other":{"addr:housename":"White Rose Shopping Centre","addr:postcode":"LS11 8LS","addr:street":"Dewsbury Road","addr:suburb":"Morley","addr:unit":"H1","brand":"Sainsbury's","brand:wikidata":"Q152096","brand:wikipedia":"en:Sainsbury's","fhrs:id":"320880"}}, "geometry":{"type":"MultiPolygon","coordinates":[[[[-1.57463,53.75625],[-1.57395,53.75644],[-1.57376,53.75649],[-1.57321,53.75665],[-1.57313,53.75656],[-1.57304,53.75659],[-1.57293,53.75646],[-1.57302,53.75644],[-1.5726,53.75594],[-1.57295,53.75584],[-1.57345,53.75569],[-1.57401,53.75553],[-1.57455,53.75614],[-1.57463,53.75625]]]]}},
{ "type":"Feature","properties":{"osm_way_id":"123755593","name":"The Co-operative Food","building":"yes","shop":"supermarket","other":{"addr:housenumber":"425","addr:postcode":"LS16 6AJ","addr:street":"Otley Road","brand":"The Co-operative Food","brand:wikidata":"Q107617274","building:levels":"1","fhrs:id":"467447","operator":"The Co-operative Group","phone":"+44 113 267 3060"}}, "geometry":{"type":"MultiPolygon","coordinates":[[[[-1.59282,53.85187],[-1.59253,53.85184],[-1.59257,53.85171],[-1.59264,53.85172],[-1.59286,53.85174],[-1.59282,53.85187]]]]}},
{ "type":"Feature","properties":{"osm_way_id":"131187219","name":"Venus Supermarket","building":"yes","shop":"supermarket","other":{"addr:city":"Leeds","addr:housenumber":"67","addr:postcode":"LS11 9NS","addr:street":"Domestic Street"}}, "geometry":{"type":"MultiPolygon","coordinates":[[[[-1.56077,53.78648],[-1.56078,53.78661],[-1.56081,53.78661],[-1.56081,53.7867],[-1.56068,53.7867],[-1.56068,53.78668],[-1.56014,53.78669],[-1.56012,53.78649],[-1.56077,53.78648]]]]}},
{ "type":"Feature","properties":{"osm_way_id":"140691964","name":"Asda","building":"retail","shop":"supermarket","other":{"addr:country":"GB","addr:postcode":"LS21 1HE","addr:street":"Pool Road, Cross Green","alt_name":"ASDA Otley Supermarket","brand":"Asda","brand:wikidata":"Q297410","brand:wikipedia":"en:Asda","building:levels":"1","contact:website":"https:\/\/storelocator.asda.com\/yorkshire-&-humber\/otley\/pool-road-cross-green","fhrs:id":"650620","operator":"Asda Stores Ltd"}}, "geometry":{"type":"MultiPolygon","coordinates":[[[[-1.68788,53.90691],[-1.68747,53.907],[-1.68719,53.90653],[-1.68765,53.90643],[-1.68774,53.90657],[-1.68758,53.9066],[-1.68756,53.90661],[-1.6877,53.90686],[-1.68783,53.90683],[-1.68788,53.90691]]]]}},
{ "type":"Feature","properties":{"osm_way_id":"140960381","name":"Morrisons","building":"retail","shop":"supermarket","other":{"addr:city":"Yeadon","addr:postcode":"LS19 7PP","addr:street":"High Street","brand":"Morrisons","brand:wikidata":"Q922344","brand:wikipedia":"en:Morrisons","fhrs:id":"320501","opening_hours":"Mo-Sa 07:00-22:00; Su 10:00-16:00","phone":"+44 113 250 4721"}}, "geometry":{"type":"MultiPolygon","coordinates":[[[[-1.68338,53.86552],[-1.68335,53.8654],[-1.68315,53.86541],[-1.68315,53.86539],[-1.68228,53.86539],[-1.68217,53.8654],[-1.68218,53.86542],[-1.68218,53.86546],[-1.68209,53.86547],[-1.68194,53.86569],[-1.682,53.86571],[-1.68206,53.86594],[-1.68193,53.86596],[-1.68191,53.86606],[-1.68228,53.86603],[-1.68229,53.86606],[-1.6824,53.86605],[-1.6824,53.86602],[-1.68297,53.86599],[-1.68299,53.86608],[-1.68326,53.86605],[-1.6832,53.8658],[-1.68316,53.86559],[-1.68331,53.86558],[-1.68338,53.86552]]]]}},
{ "type":"Feature","properties":{"osm_way_id":"145773716","name":"Morrisons","building":"yes","shop":"supermarket","other":{"addr:city":"Leeds","addr:housename":"The Penny Hill Centre","addr:postcode":"LS10 2AR","addr:street":"Church Street","addr:unit":"1","brand":"Morrisons","brand:wikidata":"Q922344","brand:wikipedia":"en:Morrisons","fhrs:id":"319649"}}, "geometry":{"type":"MultiPolygon","coordinates":[[[[-1.52974,53.77987],[-1.52966,53.77981],[-1.53003,53.77962],[-1.53009,53.77961],[-1.53014,53.77958],[-1.53017,53.77955],[-1.53016,53.7795],[-1.53013,53.77948],[-1.53006,53.77945],[-1.5298,53.77927],[-1.52973,53.77927],[-1.52962,53.77921],[-1.52955,53.77925],[-1.52929,53.77906],[-1.5293,53.77898],[-1.52957,53.77884],[-1.52948,53.77878],[-1.52935,53.77884],[-1.52929,53.7788],[-1.52924,53.77883],[-1.52919,53.77879],[-1.52901,53.77888],[-1.52896,53.77891],[-1.52874,53.77902],[-1.52838,53.77921],[-1.52907,53.77969],[-1.5289,53.77976],[-1.52939,53.78004],[-1.52974,53.77987]]]]}},
{ "type":"Feature","properties":{"osm_way_id":"146905028","name":"Continental Supermarket","building":"yes","shop":"supermarket","other":{"addr:city":"Leeds","addr:housename":"DIN Buildings, Fforde Grene","addr:postcode":"LS8 5RL","addr:street":"Roundhay Road","brand":"Continental Supermarket","fhrs:id":"322313","not:addr:postcode":"LS8 3AR","opening_hours":"09:00-21:00","website":"https:\/\/cccontinental.com\/"}}, "geometry":{"type":"MultiPolygon","coordinates":[[[[-1.51539,53.81742],[-1.51544,53.81747],[-1.51555,53.8176],[-1.51548,53.81763],[-1.51555,53.8177],[-1.5153,53.81778],[-1.51524,53.8177],[-1.5151,53.81775],[-1.51502,53.81766],[-1.51508,53.81764],[-1.51505,53.8176],[-1.5152,53.81755],[-1.51515,53.8175],[-1.51539,53.81742]]]]}},
{ "type":"Feature","properties":{"osm_way_id":"146968877","name":"Tesco","building":"retail","shop":"supermarket","other":{"addr:city":"Leeds","addr:housenumber":"361","addr:postcode":"LS8 4BU","addr:street":"Roundhay Road","brand":"Tesco","brand:wikidata":"Q487494","brand:wikipedia":"en:Tesco","building:levels":"1","dispensing":"yes","fhrs:id":"320120","opening_hours":"Mo 06:00-24:00; Tu-Sa 00:00-24:00; Su 10:00-16:00","phone":"+44 345 377 9414","source:addr":"FHRS Open Data","wheelchair":"yes"}}, "geometry":{"type":"MultiPolygon","coordinates":[[[[-1.51157,53.82264],[-1.51145,53.8227],[-1.51162,53.82281],[-1.51157,53.82284],[-1.51088,53.82322],[-1.51041,53.82294],[-1.51045,53.82291],[-1.51013,53.82271],[-1.51066,53.82242],[-1.51074,53.82246],[-1.5111,53.82225],[-1.51143,53.82246],[-1.51135,53.8225],[-1.51157,53.82264]]]]}},
{ "type":"Feature","properties":{"osm_way_id":"149148317","name":"Aldi","building":"retail","shop":"supermarket","other":{"addr:city":"Leeds","addr:parentstreet":"Kirk Lane","addr:place":"Westfield Mills","addr:postcode":"LS19 7LX","addr:suburb":"Yeadon","addr:unit":"4","brand":"ALDI","brand:wikidata":"Q41171672","brand:wikipedia":"en:Aldi","fhrs:id":"1130070"}}, "geometry":{"type":"MultiPolygon","coordinates":[[[[-1.69021,53.86534],[-1.69005,53.86547],[-1.68999,53.86545],[-1.68982,53.86561],[-1.68942,53.86546],[-1.68988,53.865],[-1.6902,53.86513],[-1.69014,53.86519],[-1.69018,53.86521],[-1.6902,53.86529],[-1.69016,53.86532],[-1.69021,53.86534]]]]}},
{ "type":"Feature","properties":{"osm_way_id":"149981405","name":"The Co-operative Food","building":"retail","shop":"supermarket","other":{"addr:city":"Leeds","addr:housenumber":"260","addr:postcode":"LS8 3LE","addr:street":"Oakwood Lane","brand":"The Co-operative Food","brand:wikidata":"Q107617274","brand:wikipedia":"en:Co-op Food","fhrs:id":"321695","operator":"The Co-operative Group","operator:wikidata":"Q117202","operator:wikipedia":"en:The Co-operative Group"}}, "geometry":{"type":"MultiPolygon","coordinates":[[[[-1.49492,53.82082],[-1.49502,53.82076],[-1.49497,53.82073],[-1.49505,53.82067],[-1.49473,53.8205],[-1.49464,53.82056],[-1.49476,53.82062],[-1.49466,53.82068],[-1.49466,53.82068],[-1.49466,53.82068],[-1.49492,53.82082]]]]}},
{ "type":"Feature","properties":{"osm_way_id":"150156348","name":"The Co-operative Food","building":"yes","shop":"supermarket","other":{"addr:city":"Leeds","addr:housenumber":"52","addr:postcode":"LS8 2ET","addr:street":"Street Lane","addr:suburb":"Roundhay","brand":"The Co-operative Food","brand:wikidata":"Q107617274","brand:wikipedia":"en:Co-op Food","fhrs:id":"321694","operator":"The Co-operative Group","operator:wikidata":"Q117202","operator:wikipedia":"en:The Co-operative Group","source:building":"bing"}}, "geometry":{"type":"MultiPolygon","coordinates":[[[[-1.50647,53.84369],[-1.5067,53.84377],[-1.50669,53.84378],[-1.5066,53.84387],[-1.50659,53.84389],[-1.50636,53.84381],[-1.50641,53.84376],[-1.50647,53.84369]]]]}},
{ "type":"Feature","properties":{"osm_way_id":"151866044","name":"Co-op Food","building":"retail","shop":"supermarket","other":{"addr:city":"Leeds","addr:housenumber":"132","addr:postcode":"LS6 1LU","addr:street":"Cardigan Road","addr:suburb":"Headingley","brand":"Co-op Food","brand:wikidata":"Q3277439","brand:wikipedia":"en:Co-op Food","fhrs:id":"322026","operator":"The Co-operative Group","operator:wikidata":"Q117202","operator:wikipedia":"en:The Co-operative Group"}}, "geometry":{"type":"MultiPolygon","coordinates":[[[[-1.57685,53.81218],[-1.57686,53.81219],[-1.57742,53.81205],[-1.57749,53.81214],[-1.57693,53.81229],[-1.57695,53.81231],[-1.57681,53.81237],[-1.57669,53.81222],[-1.57685,53.81218]]]]}},
{ "type":"Feature","properties":{"osm_way_id":"153839797","name":"Waitrose","building":"yes","shop":"supermarket","other":{"addr:city":"Stroud","addr:postcode":"GL5 2AP","addr:street":"London Road","alt_name":"Waitrose Stroud","brand":"Waitrose & Partners","brand:wikidata":"Q771734","brand:wikipedia":"en:Waitrose & Partners","fhrs:id":"154830","operator":"Waitrose & Partners"}}, "geometry":{"type":"MultiPolygon","coordinates":[[[[-2.2128,51.74174],[-2.21224,51.74149],[-2.21229,51.74145],[-2.2121,51.74136],[-2.2123,51.7412],[-2.21226,51.74117],[-2.21225,51.74112],[-2.2123,51.74107],[-2.21238,51.74107],[-2.21262,51.74117],[-2.21271,51.74113],[-2.21309,51.74129],[-2.21313,51.74126],[-2.21329,51.74133],[-2.21293,51.74164],[-2.213,51.74168],[-2.21291,51.74175],[-2.21284,51.7417],[-2.2128,51.74174]]]]}},
{ "type":"Feature","properties":{"osm_way_id":"159588464","name":"Morrisons","building":"retail","shop":"supermarket","other":{"addr:city":"Leeds","addr:housenumber":"1","addr:postcode":"LS26 0AF","addr:street":"Jail Yard Parade","brand":"Morrisons","brand:wikidata":"Q922344","brand:wikipedia":"en:Morrisons","designation":"Leeds - Rothwell","fhrs:id":"322353","operator":"Morrisons"}}, "geometry":{"type":"MultiPolygon","coordinates":[[[[-1.47865,53.74926],[-1.47922,53.74928],[-1.47979,53.7493],[-1.47983,53.74904],[-1.48003,53.74905],[-1.48004,53.74901],[-1.4801,53.74901],[-1.4801,53.74896],[-1.48029,53.74896],[-1.4803,53.74863],[-1.479,53.74858],[-1.479,53.74857],[-1.47865,53.74855],[-1.47862,53.74872],[-1.4786,53.74898],[-1.47868,53.74899],[-1.47865,53.74926]]]]}},
{ "type":"Feature","properties":{"osm_way_id":"161932207","name":"Morrisons","building":"supermarket","shop":"supermarket","other":{"addr:city":"Leeds","addr:housenumber":"89","addr:postcode":"LS20 8AR","addr:street":"Otley Road","addr:suburb":"Guiseley","brand":"Morrisons","brand:wikidata":"Q922344","brand:wikipedia":"en:Morrisons","fhrs:id":"320484","source:addr":"FHRS Open Data"}}, "geometry":{"type":"MultiPolygon","coordinates":[[[[-1.71204,53.8731],[-1.71198,53.87314],[-1.71112,53.87279],[-1.7111,53.87275],[-1.71109,53.87271],[-1.71132,53.87253],[-1.7114,53.87255],[-1.71171,53.87228],[-1.71181,53.87231],[-1.7119,53.87223],[-1.71246,53.87247],[-1.71238,53.87255],[-1.71259,53.87264],[-1.71255,53.87269],[-1.71263,53.87273],[-1.71244,53.87297],[-1.71232,53.87307],[-1.71214,53.873],[-1.71204,53.8731]]]]}},
{ "type":"Feature","properties":{"osm_way_id":"164959877","name":"Asda","building":"yes","shop":"supermarket","other":{"addr:city":"Leeds","addr:country":"GB","addr:postcode":"LS27 0BP","addr:street":"Howley Park Road","addr:suburb":"Morley","brand":"Asda","brand:wikidata":"Q297410","brand:wikipedia":"en:Asda","contact:website":"https:\/\/storelocator.asda.com\/yorkshire-&-humber\/morley\/howley-park-road","fhrs:id":"320846","not:addr:postcode":"LS27 0BN","operator":"Asda Stores Ltd","phone":"+44 113 253 7518"}}, "geometry":{"type":"MultiPolygon","coordinates":[[[[-1.61094,53.73578],[-1.61003,53.73564],[-1.61005,53.73559],[-1.60955,53.73552],[-1.60961,53.7354],[-1.60941,53.73537],[-1.60966,53.73481],[-1.60975,53.73483],[-1.60985,53.73468],[-1.61031,53.73473],[-1.61132,53.73488],[-1.61101,53.7356],[-1.61094,53.73578]]]]}},
{ "type":"Feature","properties":{"osm_way_id":"172860102","name":"Syrenka","building":"industrial","shop":"supermarket","other":{"addr:city":"Leeds","addr:housenumber":"305","addr:postcode":"LS11 5LQ","addr:street":"Dewsbury Road","addr:suburb":"Hunslet","fhrs:id":"729627"}}, "geometry":{"type":"MultiPolygon","coordinates":[[[[-1.54884,53.77124],[-1.54876,53.7712],[-1.54874,53.77122],[-1.54849,53.77111],[-1.54864,53.77099],[-1.54897,53.77114],[-1.54884,53.77124]]]]}},
{ "type":"Feature","properties":{"osm_way_id":"178357011","name":"Morrisons","building":"retail","shop":"supermarket","other":{"addr:city":"Leeds","addr:postcode":"LS8 3RG","addr:street":"Harehills Lane","brand":"Morrisons","brand:wikidata":"Q922344","brand:wikipedia":"en:Morrisons","fhrs:id":"322926"}}, "geometry":{"type":"MultiPolygon","coordinates":[[[[-1.5103,53.81258],[-1.51023,53.8125],[-1.51047,53.81243],[-1.51044,53.8124],[-1.51051,53.81238],[-1.51054,53.81241],[-1.51065,53.81238],[-1.51067,53.81242],[-1.51102,53.81232],[-1.51118,53.81252],[-1.51112,53.81254],[-1.5113,53.81275],[-1.51127,53.81276],[-1.51131,53.81282],[-1.51058,53.81303],[-1.51033,53.81273],[-1.51011,53.81279],[-1.51,53.81267],[-1.5103,53.81258]]]]}},
{ "type":"Feature","properties":{"osm_way_id":"178412938","name":"Co-op Food","building":"retail","shop":"supermarket","other":{"addr:city":"Leeds","addr:housenumber":"1-9","addr:postcode":"LS11 8PN","addr:street":"Town Street","atm":"yes","brand":"Co-op Food","brand:wikidata":"Q3277439","brand:wikipedia":"en:Co-op Food","fhrs:id":"321693","operator":"The Co-operative Group","operator:wikidata":"Q117202","operator:wikipedia":"en:The Co-operative Group"}}, "geometry":{"type":"MultiPolygon","coordinates":[[[[-1.56596,53.77281],[-1.56583,53.77271],[-1.56586,53.7727],[-1.56552,53.77246],[-1.56571,53.77236],[-1.56597,53.7723],[-1.56601,53.77236],[-1.56619,53.77263],[-1.56622,53.77267],[-1.56596,53.77281]]]]}},
{ "type":"Feature","properties":{"osm_way_id":"196971295","name":"Asda","building":"yes","shop":"supermarket","other":{"addr:city":"Leeds","addr:country":"GB","addr:postcode":"LS11 8AG","addr:street":"Old Lane","brand":"Asda","brand:wikidata":"Q297410","brand:wikipedia":"en:Asda","contact:website":"https:\/\/storelocator.asda.com\/yorkshire-&-humber\/beeston-leeds\/old-lane","fhrs:id":"553165","opening_hours":"Mo-Sa 07:00-23:00, Su 10:00-16:00","operator":"Asda Stores Ltd"}}, "geometry":{"type":"MultiPolygon","coordinates":[[[[-1.56575,53.76783],[-1.56531,53.76787],[-1.56533,53.76795],[-1.56514,53.76797],[-1.56512,53.76788],[-1.5651,53.76788],[-1.56497,53.76738],[-1.56562,53.76732],[-1.56564,53.76742],[-1.56583,53.76741],[-1.56589,53.76767],[-1.56571,53.76769],[-1.56575,53.76783]]]]}},
{ "type":"Feature","properties":{"osm_way_id":"198224469","name":"The Co-operative Food","building":"yes","shop":"supermarket","other":{"addr:city":"Bradford","addr:housenumber":"164","addr:postcode":"BD11 1AU","addr:street":"Whitehall Road","addr:suburb":"Drighlington","fhrs:id":"323128","lottery":"yes","operator":"The Co-operative Group"}}, "geometry":{"type":"MultiPolygon","coordinates":[[[[-1.6631,53.75641],[-1.66318,53.75651],[-1.66288,53.7566],[-1.6628,53.7565],[-1.6631,53.75641]]]]}},
{ "type":"Feature","properties":{"osm_way_id":"199050392","name":"Co-op Food","building":"yes","shop":"supermarket","other":{"addr:city":"Leeds","addr:housenumber":"44","addr:postcode":"LS2 7DY","addr:street":"New York Street","brand":"Co-op Food","brand:wikidata":"Q3277439","brand:wikipedia":"en:Co-op Food","building:levels":"9","fhrs:id":"322295","opening_hours":"Mo-Su 06:00-24:00","operator":"The Co-operative Group","operator:wikidata":"Q117202","operator:wikipedia":"en:The Co-operative Group"}}, "geometry":{"type":"MultiPolygon","coordinates":[[[[-1.53649,53.79632],[-1.53649,53.79639],[-1.53692,53.79638],[-1.53698,53.79626],[-1.53649,53.79627],[-1.53649,53.79632]]]]}},
{ "type":"Feature","properties":{"osm_way_id":"199552521","name":"Co-op Food","building":"supermarket","shop":"supermarket","other":{"addr:city":"Sheffield","addr:country":"GB","addr:housenumber":"849","addr:postcode":"S11 8SD","addr:street":"Ecclesall Road","brand":"Co-op Food","brand:wikidata":"Q3277439","brand:wikipedia":"en:Co-op Food","fhrs:id":"435717","operator":"The Co-operative Group"}}, "geometry":{"type":"MultiPolygon","coordinates":[[[[-1.50725,53.36497],[-1.50692,53.36493],[-1.50695,53.36482],[-1.50685,53.36481],[-1.50689,53.36471],[-1.50678,53.36469],[-1.50683,53.36448],[-1.50698,53.3645],[-1.50738,53.36454],[-1.5073,53.36482],[-1.50727,53.3649],[-1.50725,53.36497]]]]}},
{ "type":"Feature","properties":{"osm_way_id":"203009426","name":"M&S Foodhall","building":"yes","shop":"supermarket","other":{"addr:housename":"Crown Point Retail Park","addr:postcode":"LS10 1ET","addr:street":"Junction Street","addr:suburb":"Hunslet","addr:unit":"2b","brand":"M&S Foodhall","brand:wikidata":"Q714491","brand:wikipedia":"en:Marks & Spencer","fhrs:id":"1021208"}}, "geometry":{"type":"MultiPolygon","coordinates":[[[[-1.53931,53.78897],[-1.53931,53.78878],[-1.5394,53.78878],[-1.53991,53.78878],[-1.53991,53.78897],[-1.53931,53.78897]]]]}},
{ "type":"Feature","properties":{"osm_way_id":"204902822","name":"Aldi","building":"retail","shop":"supermarket","other":{"addr:city":"Leeds","addr:postcode":"LS4 2HR","addr:street":"Evanston Avenue","brand":"ALDI","brand:wikidata":"Q41171672","brand:wikipedia":"en:Aldi","fhrs:id":"699354","opening_hours":"Mo-Sa 08:00-22:00; Su 10:00-16:00"}}, "geometry":{"type":"MultiPolygon","coordinates":[[[[-1.58401,53.80591],[-1.58441,53.80541],[-1.58432,53.80539],[-1.58428,53.80544],[-1.58402,53.80537],[-1.58366,53.80581],[-1.58401,53.80591]]]]}},
{ "type":"Feature","properties":{"osm_way_id":"217820293","name":"Sainsbury's Moortown","building":"retail","shop":"supermarket","other":{"addr:city":"Leeds","addr:housename":"Moor Allerton Centre","addr:postcode":"LS17 5NY","addr:street":"King Lane","addr:unit":"9-11","brand":"Sainsbury's","brand:wikidata":"Q152096","brand:wikipedia":"en:Sainsbury's","building:levels":"2","fhrs:id":"319876","opening_hours":"Mo-Fr 07:00-23:00; Sa 07:00-19:00; Su 10:00-15:30","operator":"Sainsbury's","phone":"+44 113 2666734","source:building":"bing","wheelchair":"yes"}}, "geometry":{"type":"MultiPolygon","coordinates":[[[[-1.55457,53.84429],[-1.55349,53.84464],[-1.55308,53.84419],[-1.55302,53.84421],[-1.55283,53.844],[-1.55292,53.84397],[-1.55295,53.844],[-1.554,53.84367],[-1.55401,53.84368],[-1.55415,53.84364],[-1.55418,53.84367],[-1.55426,53.84364],[-1.55427,53.84366],[-1.55419,53.84368],[-1.55421,53.8437],[-1.55407,53.84374],[-1.55457,53.84429]]]]}},
{ "type":"Feature","properties":{"osm_way_id":"219203381","name":"Morrisons","shop":"supermarket","other":{"addr:housename":"The Horsefair Centre","addr:postcode":"LS22 6FL","addr:street":"Horsefair","addr:unit":"7-10","brand":"Morrisons","brand:wikidata":"Q922344","brand:wikipedia":"en:Morrisons","fhrs:id":"320628"}}, "geometry":{"type":"MultiPolygon","coordinates":[[[[-1.38417,53.92841],[-1.3842,53.92828],[-1.38435,53.9283],[-1.38435,53.92831],[-1.38444,53.92832],[-1.3844,53.92849],[-1.38465,53.92852],[-1.38465,53.92854],[-1.38461,53.92871],[-1.38486,53.92873],[-1.38483,53.92885],[-1.38471,53.92884],[-1.38463,53.92913],[-1.38462,53.92917],[-1.38453,53.92916],[-1.38453,53.92915],[-1.38442,53.92914],[-1.38408,53.92911],[-1.38407,53.92915],[-1.38364,53.92911],[-1.38365,53.92909],[-1.38347,53.92907],[-1.3835,53.92897],[-1.38345,53.92897],[-1.38346,53.92893],[-1.38351,53.92893],[-1.38351,53.92892],[-1.38354,53.92892],[-1.38354,53.92891],[-1.38359,53.92873],[-1.38365,53.92849],[-1.38362,53.92849],[-1.38363,53.92848],[-1.38363,53.92847],[-1.38363,53.92846],[-1.38364,53.92846],[-1.38366,53.92837],[-1.38417,53.92841]]]]}},
{ "type":"Feature","properties":{"osm_way_id":"219204434","name":"Costcutter","building":"yes","shop":"supermarket","other":{"addr:housenumber":"182","addr:postcode":"LS23 6BT","addr:street":"High Street","brand":"Costcutter","brand:wikidata":"Q5175072","brand:wikipedia":"en:Costcutter","fhrs:id":"321280","source:addr":"FHRS Open Data"}}, "geometry":{"type":"MultiPolygon","coordinates":[[[[-1.34678,53.90477],[-1.34645,53.90463],[-1.34635,53.90471],[-1.34668,53.90485],[-1.34678,53.90477]]]]}},
{ "type":"Feature","properties":{"osm_way_id":"246129414","name":"Co-op Food","building":"yes","shop":"supermarket","other":{"addr:city":"Leeds","addr:housenumber":"1","addr:postcode":"LS7 3PJ","addr:street":"Stainbeck Lane","brand":"Co-op Food","brand:wikidata":"Q3277439","brand:wikipedia":"en:Co-op Food","fhrs:id":"322968","lottery":"yes","operator":"The Co-operative Group"}}, "geometry":{"type":"MultiPolygon","coordinates":[[[[-1.53877,53.82872],[-1.53872,53.8286],[-1.53871,53.8286],[-1.53867,53.82849],[-1.53879,53.82847],[-1.53881,53.82852],[-1.53926,53.82845],[-1.53941,53.82879],[-1.53888,53.82887],[-1.53886,53.82882],[-1.5388,53.82883],[-1.53875,53.82873],[-1.53877,53.82872]]]]}},
{ "type":"Feature","properties":{"osm_way_id":"262069577","name":"M&S Simply Food","building":"retail","shop":"supermarket","other":{"addr:housenumber":"2","addr:postcode":"LS22 6JB","addr:street":"Victoria Court","addr:town":"Wetherby","brand":"M&S Simply Food","brand:wikidata":"Q714491","brand:wikipedia":"en:Marks & Spencer","fhrs:id":"321678"}}, "geometry":{"type":"MultiPolygon","coordinates":[[[[-1.38423,53.92807],[-1.38435,53.92785],[-1.38472,53.92792],[-1.38464,53.92807],[-1.38463,53.92809],[-1.38488,53.92817],[-1.38476,53.9283],[-1.38427,53.92814],[-1.38423,53.92807]]]]}},
{ "type":"Feature","properties":{"osm_way_id":"263362185","name":"ALDI","building":"supermarket","shop":"supermarket","other":{"addr:city":"Leeds","addr:postcode":"LS14 6HP","addr:street":"York Road","brand":"ALDI","brand:wikidata":"Q41171672","brand:wikipedia":"en:Aldi","fhrs:id":"322900","opening_hours":"Mo-Sa 08:00-22:00; Su 10:00-16:00; PH 08:00-20:00","wheelchair":"yes"}}, "geometry":{"type":"MultiPolygon","coordinates":[[[[-1.45688,53.81482],[-1.45688,53.81469],[-1.45679,53.81469],[-1.45679,53.81431],[-1.45641,53.81431],[-1.45641,53.81476],[-1.45653,53.81476],[-1.45653,53.81478],[-1.45649,53.81478],[-1.45647,53.81482],[-1.45688,53.81482]]]]}},
{ "type":"Feature","properties":{"osm_way_id":"279627950","name":"Asda","building":"yes","shop":"supermarket","other":{"addr:city":"Leeds","addr:country":"GB","addr:postcode":"LS10 4TQ","addr:street":"Holme Well Road","brand":"Asda","brand:wikidata":"Q297410","brand:wikipedia":"en:Asda","contact:website":"https:\/\/storelocator.asda.com\/yorkshire-&-humber\/leeds\/holme-well-road","fhrs:id":"699342","operator":"Asda Stores Ltd","phone":"+44 113 819 8650"}}, "geometry":{"type":"MultiPolygon","coordinates":[[[[-1.53095,53.74877],[-1.53058,53.74873],[-1.5306,53.74867],[-1.52969,53.74856],[-1.52967,53.74863],[-1.52954,53.74861],[-1.52942,53.74896],[-1.52922,53.74893],[-1.52915,53.74914],[-1.53054,53.74931],[-1.53057,53.74922],[-1.53079,53.74925],[-1.53095,53.74877]]]]}},
{ "type":"Feature","properties":{"osm_way_id":"279883483","name":"ALDI","building":"supermarket","shop":"supermarket","other":{"addr:city":"Leeds","addr:postcode":"LS10 3SA","addr:street":"Middleton Park Road","brand":"ALDI","brand:wikidata":"Q41171672","brand:wikipedia":"en:Aldi","fhrs:id":"699346","operator":"Aldi"}}, "geometry":{"type":"MultiPolygon","coordinates":[[[[-1.54675,53.74866],[-1.5459,53.74866],[-1.5459,53.74893],[-1.54675,53.74893],[-1.54675,53.74866]]]]}},
{ "type":"Feature","properties":{"osm_way_id":"283134968","name":"The Co-operative Food","building":"supermarket","shop":"supermarket","other":{"addr:city":"Leeds","addr:housenumber":"94-96","addr:postcode":"LS27 7EL","addr:street":"Finkle Lane","addr:suburb":"Morley","alt_name":"Co-op","fhrs:id":"320725"}}, "geometry":{"type":"MultiPolygon","coordinates":[[[[-1.62827,53.75727],[-1.62847,53.75721],[-1.62826,53.75698],[-1.62806,53.75704],[-1.62827,53.75727]]]]}},
{ "type":"Feature","properties":{"osm_way_id":"288719272","name":"Freshways","building":"retail","shop":"supermarket","other":{"addr:city":"Leeds","addr:housenumber":"75","addr:postcode":"LS9 7SR","addr:street":"Lincoln Green Road","fhrs:id":"550341","source:addr":"FHRS Open Data"}}, "geometry":{"type":"MultiPolygon","coordinates":[[[[-1.52627,53.80286],[-1.52638,53.80268],[-1.52617,53.80263],[-1.52606,53.80266],[-1.526,53.80277],[-1.52622,53.80281],[-1.5262,53.80285],[-1.52627,53.80286]]]]}},
{ "type":"Feature","properties":{"osm_way_id":"319289516","name":"Co-op Food","building":"yes","shop":"supermarket","other":{"addr:housenumber":"49-55","addr:postcode":"LS22 7QS","addr:street":"Ainsty Road","addr:town":"Wetherby","brand":"Co-op Food","brand:wikidata":"Q3277439","brand:wikipedia":"en:Co-op Food","fhrs:id":"321715","operator":"The Co-operative Group","operator:wikidata":"Q117202","operator:wikipedia":"en:The Co-operative Group"}}, "geometry":{"type":"MultiPolygon","coordinates":[[[[-1.39168,53.93788],[-1.39168,53.9379],[-1.39163,53.9379],[-1.39164,53.93797],[-1.39162,53.93797],[-1.3916,53.93808],[-1.39121,53.93805],[-1.39123,53.93797],[-1.39125,53.93797],[-1.39125,53.93794],[-1.39137,53.93795],[-1.39138,53.93792],[-1.39155,53.93793],[-1.39154,53.93784],[-1.39163,53.93784],[-1.39163,53.93785],[-1.39168,53.93785],[-1.39168,53.93786],[-1.39171,53.93786],[-1.39171,53.93788],[-1.39168,53.93788]]]]}},
{ "type":"Feature","properties":{"osm_way_id":"319289943","name":"Co-op Food","building":"supermarket","shop":"supermarket","other":{"addr:city":"Leeds","addr:housenumber":"60","addr:postcode":"LS25 7AB","addr:street":"High Street","addr:suburb":"Kippax","brand":"Co-op Food","brand:wikidata":"Q3277439","brand:wikipedia":"en:Co-op Food","fhrs:id":"320587","operator":"The Co-operative Group","wheelchair":"yes"}}, "geometry":{"type":"MultiPolygon","coordinates":[[[[-1.36739,53.76602],[-1.36739,53.76602],[-1.36734,53.76601],[-1.36736,53.76595],[-1.36741,53.76596],[-1.36741,53.76595],[-1.36742,53.76595],[-1.36745,53.76595],[-1.36768,53.76598],[-1.3677,53.76598],[-1.36774,53.76599],[-1.36776,53.76599],[-1.3678,53.76599],[-1.36782,53.76599],[-1.36785,53.766],[-1.36787,53.766],[-1.36791,53.766],[-1.36793,53.76601],[-1.36801,53.76602],[-1.36794,53.76621],[-1.36793,53.76627],[-1.36811,53.76629],[-1.36805,53.76649],[-1.36726,53.7664],[-1.36733,53.76619],[-1.36729,53.76618],[-1.36735,53.76602],[-1.36739,53.76602]]]]}},
{ "type":"Feature","properties":{"osm_way_id":"359280560","name":"Co-op Food","building":"retail","shop":"supermarket","other":{"addr:city":"Leeds","addr:housenumber":"399","addr:postcode":"LS17 6DJ","addr:street":"Harrogate Road","addr:suburb":"Moortown","brand":"Co-op Food","brand:wikidata":"Q3277439","brand:wikipedia":"en:Co-op Food","fhrs:id":"321697","operator":"The Co-operative Group"}}, "geometry":{"type":"MultiPolygon","coordinates":[[[[-1.53511,53.84754],[-1.53495,53.84754],[-1.53495,53.84738],[-1.5354,53.84738],[-1.5354,53.84754],[-1.53511,53.84754]]]]}},
{ "type":"Feature","properties":{"osm_way_id":"359281710","name":"Co-op Food","building":"yes","shop":"supermarket","other":{"addr:housenumber":"433","addr:postcode":"LS16 6JE","addr:street":"Spen Lane","brand":"Co-op Food","brand:wikidata":"Q3277439","brand:wikipedia":"en:Co-op Food","fhrs:id":"321706","operator":"The Co-operative Group","operator:wikidata":"Q117202","operator:wikipedia":"en:The Co-operative Group"}}, "geometry":{"type":"MultiPolygon","coordinates":[[[[-1.60168,53.84133],[-1.60186,53.84134],[-1.60181,53.84158],[-1.60163,53.84157],[-1.60168,53.84133]]]]}},
{ "type":"Feature","properties":{"osm_way_id":"359282269","name":"The Co-operative Food","building":"retail","shop":"supermarket","other":{"addr:city":"Farsley","addr:housenumber":"17-21","addr:postcode":"LS28 5EN","addr:street":"Town Street","addr:suburb":"Farsley","fhrs:id":"321708","opening_hours":"Mo-Su 07:00-23:00","operator":"The Co-operative Group"}}, "geometry":{"type":"MultiPolygon","coordinates":[[[[-1.67199,53.81155],[-1.67229,53.81161],[-1.67218,53.8118],[-1.67188,53.81174],[-1.67199,53.81155]]]]}},
{ "type":"Feature","properties":{"osm_way_id":"359282472","name":"Co-op Food","building":"yes","shop":"supermarket","other":{"addr:city":"Leeds","addr:housename":"Swinnow Shopping Centre","addr:postcode":"LS13 4RJ","addr:street":"Swinnow Lane","addr:suburb":"Swinnow","brand":"Co-op Food","brand:wikidata":"Q3277439","brand:wikipedia":"en:Co-op Food","fhrs:id":"320209","operator":"The Co-operative Group"}}, "geometry":{"type":"MultiPolygon","coordinates":[[[[-1.64582,53.80115],[-1.64611,53.80139],[-1.64586,53.8015],[-1.64574,53.8014],[-1.64556,53.80126],[-1.64582,53.80115]]]]}},
{ "type":"Feature","properties":{"osm_way_id":"359645686","name":"The Co-operative Food","building":"yes","shop":"supermarket","other":{"addr:city":"Wakefield","addr:housenumber":"180","addr:postcode":"WF3 1SB","addr:street":"Bradford Road","addr:suburb":"Tingley","fhrs:id":"320776","operator":"The Co-operative Group"}}, "geometry":{"type":"MultiPolygon","coordinates":[[[[-1.55246,53.72742],[-1.55243,53.72741],[-1.55248,53.72735],[-1.55273,53.72742],[-1.55267,53.72749],[-1.5526,53.72747],[-1.55258,53.72749],[-1.55255,53.72748],[-1.55252,53.72752],[-1.5524,53.72748],[-1.55246,53.72742]]]]}},
{ "type":"Feature","properties":{"osm_way_id":"406986170","name":"Mydonose International Food Store","building":"yes","shop":"supermarket","other":{"addr:city":"Leeds","addr:housename":"Shaweld House","addr:postcode":"LS7 1BL","addr:street":"Benson Street","addr:suburb":"Sheepscar","fhrs:id":"1024515"}}, "geometry":{"type":"MultiPolygon","coordinates":[[[[-1.53229,53.80557],[-1.53225,53.80583],[-1.53203,53.80582],[-1.53207,53.80556],[-1.53229,53.80557]]]]}},
{ "type":"Feature","properties":{"osm_way_id":"429477152","name":"Tesco","building":"yes","shop":"supermarket","other":{"brand":"Tesco","brand:wikidata":"Q487494","brand:wikipedia":"en:Tesco"}}, "geometry":{"type":"MultiPolygon","coordinates":[[[[-3.46498,56.07347],[-3.46434,56.07357],[-3.46357,56.07368],[-3.46352,56.07369],[-3.46344,56.07371],[-3.46327,56.07373],[-3.46313,56.07375],[-3.46304,56.07356],[-3.46318,56.07354],[-3.46303,56.07326],[-3.46297,56.07315],[-3.46292,56.07304],[-3.4641,56.07286],[-3.46412,56.07291],[-3.4644,56.07286],[-3.46448,56.07285],[-3.46455,56.07285],[-3.46462,56.07286],[-3.46466,56.07288],[-3.46471,56.07291],[-3.46474,56.07297],[-3.46479,56.07308],[-3.46471,56.07309],[-3.46473,56.07313],[-3.4648,56.07327],[-3.46487,56.0734],[-3.46489,56.07343],[-3.46496,56.07342],[-3.46498,56.07347]]]]}},
{ "type":"Feature","properties":{"osm_way_id":"436877683","name":"Tian Tian Oriental Food","building":"yes","shop":"supermarket","other":{"addr:city":"Leeds","addr:housenumber":"77","addr:postcode":"LS8 5DT","addr:street":"Roseville Road","addr:suburb":"Sheepscar","fhrs:id":"851910"}}, "geometry":{"type":"MultiPolygon","coordinates":[[[[-1.52693,53.80781],[-1.52744,53.80808],[-1.52735,53.80814],[-1.52684,53.80787],[-1.52693,53.80781]]]]}},
{ "type":"Feature","properties":{"osm_way_id":"516698486","name":"Heron Foods","building":"retail","shop":"supermarket","other":{"addr:city":"Leeds","addr:housenumber":"25","addr:postcode":"LS12 1UX","addr:street":"Town Street","addr:suburb":"Armley","brand":"Heron Foods","brand:wikidata":"Q5743472","brand:wikipedia":"en:Heron Foods","contact:website":"https:\/\/heronfoods.com\/storelocator\/store-details\/armley","fhrs:id":"639109"}}, "geometry":{"type":"MultiPolygon","coordinates":[[[[-1.58963,53.79681],[-1.5898,53.7971],[-1.58965,53.79713],[-1.58958,53.79702],[-1.58948,53.79685],[-1.58963,53.79681]]]]}},
{ "type":"Feature","properties":{"osm_way_id":"532357914","name":"Co-op","amenity":"post_office","building":"retail","shop":"supermarket","other":{"addr:city":"Leeds","addr:postcode":"LS12 5EA","addr:street":"Low Moor Side","addr:suburb":"New Farnley","fhrs:id":"321159"}}, "geometry":{"type":"MultiPolygon","coordinates":[[[[-1.62416,53.77606],[-1.62428,53.77607],[-1.6244,53.77607],[-1.62439,53.77618],[-1.62426,53.77617],[-1.62425,53.77627],[-1.62413,53.77626],[-1.62416,53.77606]]]]}},
{ "type":"Feature","properties":{"osm_way_id":"538575138","name":"Aldi","building":"supermarket","shop":"supermarket","other":{"addr:city":"Leeds","addr:postcode":"LS13 3AD","addr:street":"Stanningley Road","brand":"ALDI","brand:wikidata":"Q41171672","brand:wikipedia":"en:Aldi","fhrs:id":"732824"}}, "geometry":{"type":"MultiPolygon","coordinates":[[[[-1.62548,53.80597],[-1.62547,53.80573],[-1.62461,53.80574],[-1.62462,53.80597],[-1.62548,53.80597]]]]}},
{ "type":"Feature","properties":{"osm_way_id":"538812170","name":"ALDI","building":"supermarket","shop":"supermarket","other":{"addr:city":"Leeds","addr:postcode":"LS11 5JF","addr:street":"Tunstall Road Retail Park","addr:unit":"1","brand":"ALDI","brand:wikidata":"Q41171672","brand:wikipedia":"en:Aldi","fhrs:id":"877770"}}, "geometry":{"type":"MultiPolygon","coordinates":[[[[-1.54347,53.77653],[-1.54316,53.77678],[-1.54312,53.77681],[-1.54377,53.7771],[-1.54386,53.77714],[-1.54419,53.77689],[-1.54392,53.77677],[-1.54395,53.77675],[-1.54347,53.77653]]]]}},
{ "type":"Feature","properties":{"osm_way_id":"552992622","name":"ALDI","building":"retail","shop":"supermarket","other":{"addr:housenumber":"2","addr:postcode":"LS22 7TW","addr:street":"Sandbeck Lane","addr:town":"Wetherby","brand":"ALDI","brand:wikidata":"Q41171672","brand:wikipedia":"en:Aldi","fhrs:id":"1018315"}}, "geometry":{"type":"MultiPolygon","coordinates":[[[[-1.38509,53.93753],[-1.38505,53.93751],[-1.38508,53.93749],[-1.38485,53.93736],[-1.38423,53.93774],[-1.38424,53.93775],[-1.38439,53.93783],[-1.38433,53.93787],[-1.38444,53.93793],[-1.38497,53.93761],[-1.38497,53.93762],[-1.38503,53.93758],[-1.38502,53.93758],[-1.38509,53.93753]]]]}},
{ "type":"Feature","properties":{"osm_way_id":"561712859","name":"Morrisons","building":"supermarket","shop":"supermarket","other":{"addr:city":"Leeds","addr:housenumber":"61-69","addr:postcode":"LS18 5BP","addr:street":"Town Street","addr:suburb":"Horsforth","brand":"Morrisons","brand:wikidata":"Q922344","brand:wikipedia":"en:Morrisons","fhrs:id":"320548","opening_hours":"Mo-Sa 08:00-21:00; Su 10:00-16:00","phone":"+44 113 258 1996","smoking":"no"}}, "geometry":{"type":"MultiPolygon","coordinates":[[[[-1.64109,53.83817],[-1.64126,53.83828],[-1.64119,53.83831],[-1.64125,53.83835],[-1.64116,53.83839],[-1.6411,53.83835],[-1.64067,53.83858],[-1.64051,53.83866],[-1.64011,53.8384],[-1.63998,53.83832],[-1.64009,53.83824],[-1.64035,53.83805],[-1.64067,53.83787],[-1.6411,53.83816],[-1.64109,53.83817]]]]}},
{ "type":"Feature","properties":{"osm_way_id":"563675440","name":"Lidl","building":"yes","shop":"supermarket","other":{"addr:city":"Leeds","addr:housename":"Hunslet Green Retail Centre","addr:postcode":"LS10 2AG","addr:street":"The Oval","addr:unit":"2","brand":"Lidl","brand:wikidata":"Q151954","brand:wikipedia":"en:Lidl","fhrs:id":"1106860"}}, "geometry":{"type":"MultiPolygon","coordinates":[[[[-1.53153,53.77824],[-1.53159,53.77797],[-1.53152,53.77797],[-1.53155,53.77784],[-1.53198,53.77787],[-1.53189,53.77827],[-1.53169,53.77825],[-1.53153,53.77824]]]]}},
{ "type":"Feature","properties":{"osm_way_id":"602667100","name":"Aldi","building":"supermarket","shop":"supermarket","other":{"addr:postcode":"LS20 8FA","brand":"ALDI","brand:wikidata":"Q41171672","brand:wikipedia":"en:Aldi"}}, "geometry":{"type":"MultiPolygon","coordinates":[[[[-1.72517,53.87917],[-1.72516,53.87919],[-1.72453,53.8792],[-1.72453,53.87948],[-1.72495,53.87947],[-1.72496,53.87951],[-1.72507,53.87951],[-1.72508,53.87946],[-1.72538,53.87946],[-1.72538,53.87941],[-1.72538,53.8794],[-1.72541,53.8794],[-1.72542,53.87927],[-1.72542,53.87917],[-1.72517,53.87917]]]]}},
{ "type":"Feature","properties":{"osm_way_id":"615602840","name":"Aldi","building":"yes","shop":"supermarket","other":{"addr:city":"Leeds","addr:housenumber":"55","addr:postcode":"LS7 3PD","addr:street":"Harrogate Road","addr:suburb":"Moortown","brand":"ALDI","brand:wikidata":"Q41171672","brand:wikipedia":"en:Aldi","fhrs:id":"1069740"}}, "geometry":{"type":"MultiPolygon","coordinates":[[[[-1.53973,53.82941],[-1.5399,53.82972],[-1.53917,53.82986],[-1.53903,53.82959],[-1.53936,53.82952],[-1.53934,53.82948],[-1.53973,53.82941]]]]}},
{ "type":"Feature","properties":{"osm_way_id":"622117402","name":"Heron Foods","building":"yes","shop":"supermarket","other":{"addr:city":"Leeds","addr:housename":"Heron Foods","addr:housenumber":"318","addr:postcode":"LS9 7BG","addr:street":"Harehills Lane","brand":"Heron Foods","brand:wikidata":"Q5743472","brand:wikipedia":"en:Heron Foods","contact:website":"https:\/\/heronfoods.com\/storelocator\/store-details\/harehills","fhrs:id":"1018113","smoking":"no"}}, "geometry":{"type":"MultiPolygon","coordinates":[[[[-1.51005,53.80912],[-1.51004,53.80913],[-1.50968,53.80927],[-1.50944,53.80908],[-1.50954,53.80904],[-1.50966,53.80912],[-1.5098,53.80914],[-1.50997,53.80906],[-1.51005,53.80912]]]]}},
{ "type":"Feature","properties":{"osm_way_id":"629000893","name":"Kashmir Supermarket","building":"yes","shop":"supermarket","other":{"addr:city":"Leeds","addr:housenumber":"257","addr:postcode":"LS11 5HZ","addr:street":"Dewsbury Road","fhrs:id":"730909"}}, "geometry":{"type":"MultiPolygon","coordinates":[[[[-1.54494,53.7753],[-1.54498,53.77509],[-1.54462,53.77507],[-1.54458,53.77528],[-1.54494,53.7753]]]]}},
{ "type":"Feature","properties":{"osm_way_id":"636017020","name":"Co-op Food","building":"yes","shop":"supermarket","other":{"addr:city":"Leeds","addr:postcode":"LS17 7HW","addr:street":"Nursery Lane","addr:suburb":"Moortown","brand":"Co-op Food","brand:wikidata":"Q3277439","brand:wikipedia":"en:Co-op Food","fhrs:id":"1012353"}}, "geometry":{"type":"MultiPolygon","coordinates":[[[[-1.5445,53.85238],[-1.54454,53.8523],[-1.54459,53.85224],[-1.54457,53.85223],[-1.54462,53.85216],[-1.54481,53.8522],[-1.54476,53.85228],[-1.54478,53.85229],[-1.54477,53.85233],[-1.54475,53.85237],[-1.54471,53.8524],[-1.54468,53.85239],[-1.54467,53.85242],[-1.54465,53.85242],[-1.54463,53.85244],[-1.54449,53.85241],[-1.5445,53.85238]]]]}},
{ "type":"Feature","properties":{"osm_way_id":"639444696","name":"Tesco Extra","building":"yes","shop":"supermarket","other":{"addr:city":"Leeds","addr:housename":"Seacroft Green Shopping Centre","addr:postcode":"LS14 6JD","addr:suburb":"Seacroft","addr:unit":"1","brand":"Tesco Extra","brand:wikidata":"Q25172225","brand:wikipedia":"en:Tesco Extra","fhrs:id":"321016","website":"https:\/\/www.tesco.com\/store-locator\/leeds\/5-seacroft-avenue"}}, "geometry":{"type":"MultiPolygon","coordinates":[[[[-1.46087,53.82214],[-1.4605,53.82223],[-1.46043,53.82215],[-1.46037,53.82217],[-1.46025,53.82202],[-1.46027,53.82201],[-1.46031,53.822],[-1.45995,53.82156],[-1.45976,53.82133],[-1.45974,53.8213],[-1.46077,53.821],[-1.46094,53.8212],[-1.46097,53.8212],[-1.46099,53.82124],[-1.46097,53.82124],[-1.46159,53.82199],[-1.46155,53.82205],[-1.46133,53.822],[-1.46087,53.82214]]]]}},
{ "type":"Feature","properties":{"osm_way_id":"649604847","name":"Abaseen Superstore","building":"yes","shop":"supermarket","other":{"addr:city":"Leeds","addr:housenumber":"171","addr:postcode":"LS8 3QE","addr:street":"Harehills Lane","addr:suburb":"Harehills","fhrs:id":"829591"}}, "geometry":{"type":"MultiPolygon","coordinates":[[[[-1.51349,53.81644],[-1.51436,53.81639],[-1.51444,53.81649],[-1.51382,53.81669],[-1.51364,53.81648],[-1.51357,53.8165],[-1.51353,53.81651],[-1.51349,53.81644]]]]}},
{ "type":"Feature","properties":{"osm_way_id":"674995188","name":"Asda","building":"yes","shop":"supermarket","other":{"addr:city":"Leeds","addr:country":"GB","addr:postcode":"LS9 6DT","addr:street":"Harehills Lane","brand":"Asda","brand:wikidata":"Q297410","brand:wikipedia":"en:Asda","contact:website":"https:\/\/storelocator.asda.com\/yorkshire-&-humber\/leeds\/harehills-lane","fhrs:id":"542444","operator":"Asda Stores Ltd"}}, "geometry":{"type":"MultiPolygon","coordinates":[[[[-1.50561,53.80695],[-1.50545,53.80683],[-1.50555,53.80678],[-1.50534,53.80663],[-1.50562,53.8065],[-1.50594,53.80672],[-1.50595,53.80672],[-1.50606,53.80679],[-1.50591,53.80687],[-1.50585,53.80683],[-1.50561,53.80695]]]]}},
{ "type":"Feature","properties":{"osm_way_id":"679786042","name":"Lidl","building":"yes","shop":"supermarket","other":{"addr:city":"Leeds","addr:housenumber":"144","addr:postcode":"LS9 6SP","addr:street":"Amberton Road","brand":"Lidl","brand:wikidata":"Q151954","brand:wikipedia":"en:Lidl","fhrs:id":"319519","payment:cards":"yes","payment:cash":"yes","payment:contactless":"yes"}}, "geometry":{"type":"MultiPolygon","coordinates":[[[[-1.49503,53.81316],[-1.4951,53.81313],[-1.49495,53.81303],[-1.49408,53.81349],[-1.49443,53.81371],[-1.49523,53.81329],[-1.49503,53.81316]]]]}},
{ "type":"Feature","properties":{"osm_way_id":"695919324","name":"Lidl","building":"retail","shop":"supermarket","other":{"addr:city":"Leeds","addr:place":"East Side Retail Park","addr:postcode":"LS25 2EB","addr:street":"Aberford Road","addr:suburb":"Garforth","addr:unit":"1","brand":"Lidl","brand:wikidata":"Q151954","brand:wikipedia":"en:Lidl","fhrs:id":"1069742"}}, "geometry":{"type":"MultiPolygon","coordinates":[[[[-1.37858,53.79752],[-1.37958,53.79725],[-1.37979,53.79753],[-1.37901,53.79774],[-1.37905,53.79778],[-1.37883,53.79784],[-1.37858,53.79752]]]]}},
{ "type":"Feature","properties":{"osm_way_id":"701110482","name":"Heron Foods","building":"yes","shop":"supermarket","other":{"addr:city":"Leeds","addr:housenumber":"101","addr:postcode":"LS9 7SR","addr:street":"Lincoln Green Road","addr:suburb":"Burmantofts","brand":"Heron Foods","brand:wikidata":"Q5743472","brand:wikipedia":"en:Heron Foods","contact:website":"https:\/\/heronfoods.com\/storelocator\/store-details\/burmantofts","fhrs:id":"1021259"}}, "geometry":{"type":"MultiPolygon","coordinates":[[[[-1.52459,53.80262],[-1.52473,53.80238],[-1.52451,53.80233],[-1.52436,53.80257],[-1.52443,53.80259],[-1.52459,53.80262]]]]}},
{ "type":"Feature","properties":{"osm_way_id":"755618337","name":"ALDI","building":"yes","shop":"supermarket","other":{"addr:city":"Leeds","addr:postcode":"LS26 0DJ","addr:street":"11","addr:suburb":"Rothwell","brand":"ALDI","brand:wikidata":"Q41171672","brand:wikipedia":"en:Aldi","fhrs:id":"1155483"}}, "geometry":{"type":"MultiPolygon","coordinates":[[[[-1.47841,53.74629],[-1.47853,53.74624],[-1.47859,53.7463],[-1.47883,53.74621],[-1.47912,53.74648],[-1.47916,53.74646],[-1.47931,53.7466],[-1.47898,53.74672],[-1.47902,53.74676],[-1.47893,53.74679],[-1.47841,53.74629]]]]}},
{ "type":"Feature","properties":{"osm_way_id":"773123991","name":"Lidl","building":"yes","shop":"supermarket","other":{"addr:city":"Leeds","addr:postcode":"LS26 8HP","addr:street":"Aberford Road","brand":"Lidl","brand:wikidata":"Q151954","brand:wikipedia":"en:Lidl","fhrs:id":"321748"}}, "geometry":{"type":"MultiPolygon","coordinates":[[[[-1.44851,53.75089],[-1.44846,53.75115],[-1.44819,53.75114],[-1.4482,53.7511],[-1.44766,53.75106],[-1.44769,53.75091],[-1.4476,53.75091],[-1.44761,53.75083],[-1.44851,53.75089]]]]}},
{ "type":"Feature","properties":{"osm_way_id":"778076083","name":"Lidl","building":"yes","shop":"supermarket","other":{"addr:city":"Leeds","addr:housenumber":"49-59","addr:postcode":"LS12 2JL","addr:street":"Armley Road","addr:suburb":"Armley","brand":"Lidl","brand:wikidata":"Q151954","brand:wikipedia":"en:Lidl","fhrs:id":"1017953"}}, "geometry":{"type":"MultiPolygon","coordinates":[[[[-1.57844,53.79767],[-1.5784,53.79766],[-1.57835,53.79765],[-1.57824,53.79781],[-1.57779,53.7977],[-1.57776,53.79774],[-1.57741,53.79765],[-1.57748,53.79755],[-1.57749,53.79756],[-1.57764,53.79735],[-1.57851,53.79756],[-1.57844,53.79767]]]]}},
{ "type":"Feature","properties":{"osm_way_id":"799330329","name":"ALDI","building":"retail","shop":"supermarket","other":{"addr:city":"Leeds","addr:housename":"Mabgate Junction","addr:postcode":"LS7 1AX","addr:street":"Skinner Lane","addr:unit":"1","brand":"ALDI","brand:wikidata":"Q41171672","brand:wikipedia":"en:Aldi","fhrs:id":"1018273"}}, "geometry":{"type":"MultiPolygon","coordinates":[[[[-1.53129,53.80405],[-1.53151,53.80381],[-1.53209,53.80399],[-1.53211,53.80397],[-1.5322,53.804],[-1.53202,53.80419],[-1.53207,53.80421],[-1.53198,53.8043],[-1.53151,53.80415],[-1.53149,53.80417],[-1.5314,53.80414],[-1.53143,53.8041],[-1.53129,53.80405]]]]}},
{ "type":"Feature","properties":{"osm_way_id":"842792076","building":"garage"},"geometry":{"type":"MultiPolygon","coordinates":[[[[-1.40435,53.93561],[-1.40425,53.9356],[-1.40426,53.93557],[-1.40436,53.93558],[-1.40435,53.93561]]]]}},
{ "type":"Feature","properties":{"osm_way_id":"853553164","name":"Lidl","building":"yes","shop":"supermarket","other":{"addr:city":"Leeds","addr:place":"Belgrave Retail Park","addr:postcode":"LS28 6HQ","addr:street":"Town Street","addr:suburb":"Stanningley","addr:unit":"1","brand":"Lidl","brand:wikidata":"Q151954","brand:wikipedia":"en:Lidl","fhrs:id":"1028717"}}, "geometry":{"type":"MultiPolygon","coordinates":[[[[-1.6611,53.8059],[-1.6608,53.80593],[-1.66079,53.80588],[-1.66059,53.8059],[-1.6608,53.80658],[-1.6611,53.8059]]]]}},
{ "type":"Feature","properties":{"osm_way_id":"903122944","name":"Heron Foods","shop":"supermarket","other":{"addr:city":"Leeds","addr:housename":"Crossgates Shopping Centre","addr:housenumber":"36-37","addr:postcode":"LS15 8EU","addr:street":"Station Road","addr:unit":"36-37","brand":"Heron Foods","brand:wikidata":"Q5743472","brand:wikipedia":"en:Heron Foods","contact:website":"https:\/\/heronfoods.com\/storelocator\/store-details\/crossgates","fhrs:id":"578274","indoor":"room","level":"0","room":"retail"}}, "geometry":{"type":"MultiPolygon","coordinates":[[[[-1.45017,53.80675],[-1.44989,53.80675],[-1.44979,53.80675],[-1.4498,53.80684],[-1.45008,53.80685],[-1.45017,53.80685],[-1.45017,53.80675]]]]}},
{ "type":"Feature","properties":{"osm_way_id":"927245409","name":"Tesco","shop":"supermarket","other":{"addr:city":"Leeds","addr:housename":"Tesco Superstore","addr:postcode":"LS25 2DX","addr:street":"Aberford Road","brand":"Tesco","brand:wikidata":"Q487494","brand:wikipedia":"en:Tesco","contact:website":"https:\/\/www.tesco.com\/store-locator\/leeds\/aberford-rd","fhrs:id":"320554"}}, "geometry":{"type":"MultiPolygon","coordinates":[[[[-1.38313,53.79779],[-1.38342,53.79786],[-1.38355,53.79789],[-1.38361,53.79771],[-1.38359,53.79771],[-1.38375,53.79732],[-1.38376,53.79729],[-1.3835,53.79725],[-1.38352,53.79721],[-1.38353,53.79718],[-1.38333,53.79712],[-1.38257,53.79701],[-1.38243,53.79703],[-1.38242,53.79705],[-1.38239,53.79705],[-1.38225,53.79703],[-1.38187,53.79699],[-1.38139,53.79693],[-1.38109,53.79691],[-1.381,53.79691],[-1.38093,53.79691],[-1.38087,53.79693],[-1.38083,53.79695],[-1.3808,53.79697],[-1.38077,53.79703],[-1.3807,53.79722],[-1.38071,53.79726],[-1.38073,53.7973],[-1.38078,53.79733],[-1.38088,53.79734],[-1.38106,53.79736],[-1.38168,53.79744],[-1.38183,53.79746],[-1.38253,53.79755],[-1.38259,53.79756],[-1.38264,53.79759],[-1.38271,53.79761],[-1.38278,53.79764],[-1.38299,53.79774],[-1.38313,53.79779]]]]}},
{ "type":"Feature","properties":{"osm_way_id":"937052829","name":"The Food Warehouse","building":"yes","shop":"supermarket","other":{"addr:city":"Leeds","addr:housename":"Kirkstall Bridge Shopping Park","addr:postcode":"LS5 3BL","addr:street":"Bridge Road","addr:suburb":"Kirkstall","addr:unit":"6","brand":"The Food Warehouse","brand:wikidata":"Q87263899","fhrs:id":"1018103"}}, "geometry":{"type":"MultiPolygon","coordinates":[[[[-1.60549,53.81713],[-1.60566,53.81703],[-1.60499,53.81694],[-1.60493,53.81706],[-1.60549,53.81713]]]]}},
{ "type":"Feature","properties":{"osm_way_id":"937052848","name":"Morrisons","building":"yes","landuse":"retail","shop":"supermarket","other":{"addr:city":"Leeds","addr:housenumber":"1","addr:postcode":"LS5 3RP","addr:street":"Savins Mill Way","brand":"Morrisons","brand:wikidata":"Q922344","brand:wikipedia":"en:Morrisons","fhrs:id":"321003","opening_hours":"Mo-Sa 07:00-22:00 Su 10:00-16:00","website":"https:\/\/my.morrisons.com\/storefinder\/89"}}, "geometry":{"type":"MultiPolygon","coordinates":[[[[-1.60236,53.81262],[-1.60287,53.81315],[-1.60289,53.81317],[-1.60277,53.81321],[-1.60202,53.81354],[-1.60198,53.81349],[-1.60192,53.81342],[-1.60176,53.81348],[-1.60173,53.81345],[-1.60153,53.81352],[-1.60148,53.81347],[-1.60134,53.81351],[-1.60122,53.81339],[-1.60135,53.81334],[-1.6013,53.81328],[-1.60135,53.81327],[-1.60121,53.81312],[-1.60141,53.81305],[-1.60133,53.81296],[-1.60236,53.81262]]]]}},
{ "type":"Feature","properties":{"osm_way_id":"946039945","name":"Aldi","building":"yes","shop":"supermarket","other":{"addr:city":"Leeds","addr:housenumber":"332","addr:postcode":"LS12 3TN","addr:street":"Tong Road","addr:suburb":"Farnley","brand":"ALDI","brand:wikidata":"Q41171672","brand:wikipedia":"en:Aldi","fhrs:id":"1065669"}}, "geometry":{"type":"MultiPolygon","coordinates":[[[[-1.60164,53.79358],[-1.60209,53.79356],[-1.60214,53.79402],[-1.60179,53.79403],[-1.6018,53.79408],[-1.60169,53.79409],[-1.60164,53.79358]]]]}}
]
}
