{
"type": "FeatureCollection",
"features": [
{ "type":"Feature","properties":{"osm_id":"1200246825","other":{"amenity":"clock","display":"analog","support":"wall_mounted","visibility":"area"}}, "geometry":{"type":"Point","coordinates":[-2.23956,53.02219 ]}},
{ "type":"Feature","properties":{"osm_id":"1469268867","name":"Lodeys Supermarket","other":{"shop":"supermarket","fhrs:id":"94042","addr:street":"Paris Avenue","source:addr":"FHRS Open Data","addr:postcode":"ST5 2QX","addr:housenumber":"72-76"}}, "geometry":{"type":"Point","coordinates":[-2.24848,53.00177 ]}},
{ "type":"Feature","properties":{"osm_id":"1710080142","name":"Cost Cutter","other":{"shop":"supermarket","operator":"Select & Save"}}, "geometry":{"type":"Point","coordinates":[-2.27119,53.00188 ]}},
{ "type":"Feature","properties":{"osm_id":"5557419679","name":"Poundland","other":{"shop":"supermarket"}}, "geometry":{"type":"Point","coordinates":[-2.22638,53.01014 ]}},
{ "type":"Feature","properties":{"osm_id":"6433268671","name":"Tesco Express","other":{"brand":"Tesco Express","brand:wikidata":"Q98456772","contact:website":"https:\/\/www.tesco.com\/store-locator\/stoke-on-trent\/57-church-st","shop":"supermarket"}}, "geometry":{"type":"Point","coordinates":[-2.30179,53.05287 ]}},
{ "type":"Feature","properties":{"osm_id":"9220858841","name":"Lidl","other":{"addr:country":"GB","addr:postcode":"ST7 1EF","addr:street":"Hardingswood Road","brand":"Lidl","brand:wikidata":"Q151954","brand:wikipedia":"en:Lidl","fhrs:id":"1340854","shop":"supermarket","survey:date":"2021-03-16"}}, "geometry":{"type":"Point","coordinates":[-2.24678,53.08887 ]}},
{ "type":"Feature","properties":{"osm_way_id":"4931279","name":"Asda","building":"retail","shop":"supermarket","other":{"addr:country":"GB","addr:postcode":"ST5 0AY","brand":"Asda","brand:wikidata":"Q297410","brand:wikipedia":"en:Asda","contact:facebook":"https:\/\/www.facebook.com\/asda\/","contact:twitter":"@asda","contact:website":"https:\/\/storelocator.asda.com\/west-midlands\/newcastle-under-lyme\/wolstanton-retail-park","fhrs:id":"94118","nohousenumber":"yes","opening_hours":"Tu-Fr 00:00-24:00; Sa 00:00-22:00; Su 10:00-16:00; Mo 08:00-24:00","operator":"Asda Stores Ltd","source:addr:postcode":"FHRS Open Data"}}, "geometry":{"type":"MultiPolygon","coordinates":[[[[-2.20942,53.02824],[-2.20937,53.02791],[-2.20917,53.02792],[-2.20916,53.02786],[-2.20915,53.0278],[-2.20913,53.0277],[-2.20909,53.0277],[-2.20908,53.02768],[-2.20899,53.02769],[-2.20897,53.02759],[-2.20895,53.02748],[-2.20902,53.02747],[-2.20907,53.02747],[-2.20907,53.02743],[-2.20913,53.02743],[-2.20919,53.02742],[-2.20931,53.02742],[-2.21011,53.02737],[-2.21011,53.02739],[-2.21039,53.02737],[-2.2104,53.02741],[-2.21033,53.02742],[-2.21034,53.02748],[-2.21056,53.02747],[-2.21059,53.02766],[-2.21052,53.02767],[-2.21055,53.02786],[-2.21043,53.02787],[-2.21047,53.02811],[-2.21054,53.02811],[-2.21055,53.02816],[-2.2106,53.02815],[-2.2106,53.02819],[-2.21063,53.02819],[-2.21064,53.02825],[-2.20965,53.02831],[-2.20964,53.02822],[-2.20942,53.02824]]]]}},
{ "type":"Feature","properties":{"osm_way_id":"61909682","name":"Morrisons","building":"retail","shop":"supermarket","other":{"addr:city":"Newcastle Under-Lyme","addr:country":"GB","addr:postcode":"ST5 3HY","addr:street":"Goose Street","brand":"Morrisons","brand:wikidata":"Q922344","brand:wikipedia":"en:Morrisons","fhrs:id":"81733","phone":"+441782710968","website":"https:\/\/www.morrisons.co.uk\/","wheelchair":"yes"}}, "geometry":{"type":"MultiPolygon","coordinates":[[[[-2.22777,53.00785],[-2.22775,53.00787],[-2.2277,53.0079],[-2.22774,53.00792],[-2.22747,53.00809],[-2.2274,53.00805],[-2.22705,53.00827],[-2.22703,53.00826],[-2.22691,53.00834],[-2.22697,53.00838],[-2.2269,53.00842],[-2.22726,53.00863],[-2.22733,53.00859],[-2.22786,53.0089],[-2.22803,53.00879],[-2.22817,53.00871],[-2.22805,53.00864],[-2.22827,53.0085],[-2.22838,53.00856],[-2.22868,53.00838],[-2.22777,53.00785]]]]}},
{ "type":"Feature","properties":{"osm_way_id":"88757310","name":"Sainsbury's","building":"yes","shop":"supermarket","other":{"addr:postcode":"ST5 2AF","addr:street":"Liverpool Road","brand":"Sainsbury's","brand:wikidata":"Q152096"}}, "geometry":{"type":"MultiPolygon","coordinates":[[[[-2.23104,53.01534],[-2.23121,53.01487],[-2.2314,53.0149],[-2.23149,53.01473],[-2.23151,53.01468],[-2.23285,53.01493],[-2.23248,53.01563],[-2.23114,53.01537],[-2.23115,53.01536],[-2.23104,53.01534]]]]}},
{ "type":"Feature","properties":{"osm_way_id":"100187649","name":"Morrisons","building":"yes","shop":"supermarket","other":{"addr:postcode":"ST5 9AL","addr:street":"Lower Milehouse Lane","air_conditioning":"yes","brand":"Morrisons","brand:wikidata":"Q922344","brand:wikipedia":"en:Morrisons","fhrs:id":"93978","payment:american_express":"yes","payment:apple_pay":"yes","payment:cash":"yes","payment:contactless":"yes","payment:credit_cards":"yes","payment:mastercard":"yes","payment:visa":"yes","source:addr":"FHRS Open Data"}}, "geometry":{"type":"MultiPolygon","coordinates":[[[[-2.24023,53.02173],[-2.24021,53.02174],[-2.23965,53.02205],[-2.23973,53.0221],[-2.23956,53.02219],[-2.23939,53.02228],[-2.23909,53.02208],[-2.23917,53.02203],[-2.23876,53.02175],[-2.23891,53.02168],[-2.23882,53.02162],[-2.23893,53.02155],[-2.23874,53.02144],[-2.23887,53.02137],[-2.23878,53.02131],[-2.2389,53.02124],[-2.23894,53.02123],[-2.23905,53.0213],[-2.23935,53.02114],[-2.24023,53.02173]]]]}},
{ "type":"Feature","properties":{"osm_way_id":"102336730","name":"Lidl","building":"yes","shop":"supermarket","other":{"brand":"Lidl","fhrs:id":"131876","addr:street":"Lower Street","source:addr":"FHRS Open Data","addr:postcode":"ST5 2RS","brand:wikidata":"Q151954","brand:wikipedia":"en:Lidl"}}, "geometry":{"type":"MultiPolygon","coordinates":[[[[-2.23223,53.01202],[-2.23187,53.01224],[-2.23154,53.01205],[-2.23164,53.01199],[-2.23159,53.01196],[-2.2318,53.01183],[-2.23187,53.01187],[-2.23192,53.01184],[-2.23223,53.01202]]]]}},
{ "type":"Feature","properties":{"osm_way_id":"123745151","name":"The Co-operative Food","building":"yes","shop":"supermarket","other":{"addr:postcode":"TF9 4NX","addr:street":"Eccleshall Road","fhrs:id":"71449"}}, "geometry":{"type":"MultiPolygon","coordinates":[[[[-2.38955,52.91938],[-2.38954,52.91938],[-2.38923,52.91959],[-2.38916,52.91956],[-2.38907,52.91951],[-2.38935,52.91933],[-2.38939,52.9193],[-2.38955,52.91938]]]]}},
{ "type":"Feature","properties":{"osm_way_id":"166367718","name":"Co-op","building":"yes","shop":"supermarket","other":{"fhrs:id":"78118","addr:street":"The Parade","source:addr":"FHRS Open Data","addr:postcode":"ST5 6LQ","addr:housenumber":"1"}}, "geometry":{"type":"MultiPolygon","coordinates":[[[[-2.26835,53.01521],[-2.26833,53.01543],[-2.26811,53.01542],[-2.26813,53.01521],[-2.26835,53.01521]]]]}},
{ "type":"Feature","properties":{"osm_way_id":"206427246","name":"Tesco","building":"shop","shop":"supermarket","other":{"addr:postcode":"ST7 1DX","addr:street":"Liverpool Road","brand":"Tesco","brand:wikidata":"Q487494","brand:wikipedia":"en:Tesco","fhrs:id":"94014"}}, "geometry":{"type":"MultiPolygon","coordinates":[[[[-2.24527,53.08995],[-2.24426,53.08952],[-2.24444,53.08937],[-2.24408,53.08922],[-2.24428,53.08904],[-2.24565,53.08962],[-2.24527,53.08995]]]]}},
{ "type":"Feature","properties":{"osm_way_id":"220709155","name":"Makro","building":"yes","shop":"supermarket","other":{"brand:wikidata":"Q704606"}}, "geometry":{"type":"MultiPolygon","coordinates":[[[[-2.24487,53.05147],[-2.24463,53.05075],[-2.24297,53.05096],[-2.24321,53.05168],[-2.24487,53.05147]]]]}},
{ "type":"Feature","properties":{"osm_way_id":"222403800","name":"Asda","building":"yes","shop":"supermarket","other":{"brand":"Asda","fhrs:id":"447157","operator":"Asda Stores Ltd","addr:city":"Newcastle-under-Lyme","wheelchair":"yes","addr:street":"Morris Sqaure","addr:country":"GB","addr:postcode":"ST5 0EN","contact:phone":"+441782293920","opening_hours":"Mo-Sa 07:00-23:00; Su 10:00-16:00","brand:wikidata":"Q297410","brand:wikipedia":"en:Asda","contact:twitter":"@asda","contact:website":"https:\/\/storelocator.asda.com\/west-midlands\/wolstanton\/morris-square-newcastle-under-lyme","contact:facebook":"https:\/\/www.facebook.com\/asda\/"}}, "geometry":{"type":"MultiPolygon","coordinates":[[[[-2.21697,53.03159],[-2.2168,53.03139],[-2.21649,53.03149],[-2.21641,53.0314],[-2.21617,53.03148],[-2.2162,53.03152],[-2.21614,53.03154],[-2.21625,53.03166],[-2.21631,53.03164],[-2.21652,53.03188],[-2.2167,53.03183],[-2.21668,53.0318],[-2.2166,53.03171],[-2.21697,53.03159]]]]}},
{ "type":"Feature","properties":{"osm_way_id":"322024519","name":"The Co-operative Food","building":"yes","shop":"supermarket","other":{"fhrs:id":"74660","operator":"The Co-operative Group","addr:street":"Whitehill Road","source:addr":"FHRS Open Data","addr:postcode":"ST7 4DR","addr:housenumber":"127"}}, "geometry":{"type":"MultiPolygon","coordinates":[[[[-2.22739,53.09219],[-2.22728,53.09197],[-2.22705,53.09201],[-2.22714,53.09218],[-2.22725,53.09221],[-2.22739,53.09219]]]]}},
{ "type":"Feature","properties":{"osm_way_id":"360695023","name":"ALDI","building":"yes","shop":"supermarket","other":{"addr:city":"Newcastle-Under-Lyme","addr:country":"GB","addr:housename":"Aldi","addr:postcode":"ST5 3HY","addr:street":"Blackfriars Road","brand":"ALDI","brand:wikidata":"Q41171672","brand:wikipedia":"en:Aldi","contact:website":"https:\/\/www.aldi.co.uk\/store\/s-uk-E0859","fhrs:id":"785238","source:addr:postcode":"FHRS Open Data"}}, "geometry":{"type":"MultiPolygon","coordinates":[[[[-2.22811,53.00942],[-2.2282,53.00934],[-2.22846,53.00914],[-2.22874,53.00927],[-2.22868,53.00931],[-2.22904,53.00948],[-2.22899,53.00952],[-2.22906,53.00954],[-2.22881,53.00974],[-2.22811,53.00942]]]]}},
{ "type":"Feature","properties":{"osm_way_id":"367873324","name":"The Co-operative Food","building":"yes","shop":"supermarket","other":{"fhrs:id":"131626","operator":"The Co-operative Group","addr:street":"Cedar Avenue","source:addr":"FHRS Open Data","addr:postcode":"ST7 1JZ"}}, "geometry":{"type":"MultiPolygon","coordinates":[[[[-2.25905,53.08527],[-2.25898,53.08541],[-2.25857,53.08533],[-2.25864,53.0852],[-2.25905,53.08527]]]]}},
{ "type":"Feature","properties":{"osm_way_id":"367873719","name":"The Co-operative Food","building":"retail","shop":"supermarket","other":{"addr:postcode":"ST5 7SB","addr:street":"Barbridge Road","building:levels":"1","fhrs:id":"131539","opening_hours":"Mo-Su 06:00-11:00","operator":"The Co-operative Group","roof:levels":"0","source:addr":"FHRS Open Data"}}, "geometry":{"type":"MultiPolygon","coordinates":[[[[-2.25705,53.05098],[-2.25695,53.05087],[-2.25676,53.05093],[-2.25675,53.05092],[-2.25654,53.05099],[-2.25665,53.05111],[-2.25705,53.05098]]]]}},
{ "type":"Feature","properties":{"osm_way_id":"367873833","name":"The Co-operative Food","building":"yes","shop":"supermarket","other":{"fhrs:id":"60232","operator":"The Co-operative Group","addr:street":"London Road","source:addr":"FHRS Open Data","addr:postcode":"ST5 7DY","addr:housenumber":"25"}}, "geometry":{"type":"MultiPolygon","coordinates":[[[[-2.25161,53.04269],[-2.2514,53.04277],[-2.25111,53.04252],[-2.25133,53.04243],[-2.25161,53.04269]]]]}},
{ "type":"Feature","properties":{"osm_way_id":"551836229","name":"Aldi","landuse":"retail","shop":"supermarket","other":{"addr:postcode":"ST7 4EH","addr:street":"Liverpool Road","brand":"ALDI","brand:wikidata":"Q41171672","brand:wikipedia":"en:Aldi","fhrs:id":"145499"}}, "geometry":{"type":"MultiPolygon","coordinates":[[[[-2.23493,53.08488],[-2.23582,53.08507],[-2.23631,53.08518],[-2.23651,53.08532],[-2.23649,53.0854],[-2.23617,53.08558],[-2.23597,53.0856],[-2.23592,53.08562],[-2.23506,53.08535],[-2.23495,53.08532],[-2.23472,53.08527],[-2.23479,53.08515],[-2.23486,53.08501],[-2.23493,53.08488]]]]}},
{ "type":"Feature","properties":{"osm_way_id":"665311917","name":"Heron Foods","building":"yes","shop":"supermarket","other":{"brand":"Heron Foods","fhrs:id":"661422","addr:street":"Hanbridge Avenue","source:addr":"FHRS Open Data","addr:postcode":"ST5 8HX","brand:wikidata":"Q5743472","brand:wikipedia":"en:Heron Foods","contact:website":"https:\/\/heronfoods.com\/storelocator\/store-details\/hanbridge-avenue","addr:housenumber":"85"}}, "geometry":{"type":"MultiPolygon","coordinates":[[[[-2.23492,53.04027],[-2.23503,53.04032],[-2.23517,53.0402],[-2.23506,53.04015],[-2.23492,53.04027]]]]}},
{ "type":"Feature","properties":{"osm_way_id":"665311931","name":"The Co-operative Food","building":"yes","shop":"supermarket","other":{"brand":"The Co-operative Food","fhrs:id":"555232","addr:street":"Hanbridge Avenue","source:addr":"FHRS Open Data","addr:postcode":"ST5 8HX","brand:wikidata":"Q3277439","brand:wikipedia":"en:Co-op Food","addr:housenumber":"125"}}, "geometry":{"type":"MultiPolygon","coordinates":[[[[-2.23414,53.04094],[-2.23393,53.04112],[-2.23411,53.04119],[-2.23432,53.04101],[-2.23414,53.04094]]]]}},
{ "type":"Feature","properties":{"osm_way_id":"1016244960","name":"Costcutter","building":"yes","shop":"supermarket"},"geometry":{"type":"MultiPolygon","coordinates":[[[[-2.30198,53.05329],[-2.30171,53.05323],[-2.30169,53.05326],[-2.30163,53.05335],[-2.30153,53.05332],[-2.30167,53.05311],[-2.30204,53.0532],[-2.30198,53.05329]]]]}}
]
}
