{
"type": "FeatureCollection",
"features": [
{ "type":"Feature","properties":{"osm_id":"332174834","name":"The Co-operative Food","other":{"addr:housenumber":"52-56","addr:postcode":"ST16 1JB","addr:street":"Holmcroft Road","fhrs:id":"1196047","opening_hours":"Mo-Su 07:00-22:00","shop":"supermarket","source:addr":"FHRS Open Data"}}, "geometry":{"type":"Point","coordinates":[-2.13261,52.82125 ]}},
{ "type":"Feature","properties":{"osm_id":"1195456903","name":"The Co-operative Food","other":{"addr:housenumber":"50","addr:postcode":"ST15 0HN","addr:street":"Eccleshall Road","fhrs:id":"1195621","opening_hours":"Mo-Su 07:00-22:00","shop":"supermarket","source:addr":"FHRS Open Data"}}, "geometry":{"type":"Point","coordinates":[-2.1511,52.89501 ]}},
{ "type":"Feature","properties":{"osm_id":"3409198038","name":"Co-op Food","other":{"addr:city":"Stafford","addr:country":"GB","addr:postcode":"ST17 9LT","addr:street":"Burton Square","brand":"Co-op Food","brand:wikidata":"Q3277439","brand:wikipedia":"en:Co-op Food","fhrs:id":"1195560","operator":"Central England Co-operative Society","shop":"supermarket","source:addr":"FHRS Open Data"}}, "geometry":{"type":"Point","coordinates":[-2.11821,52.78732 ]}},
{ "type":"Feature","properties":{"osm_id":"3409213045","name":"The Co-operative Food","other":{"addr:city":"Stafford","addr:country":"GB","addr:housename":"Wildwood Shopping Centre","addr:postcode":"ST17 4RA","addr:street":"Wildwood Drive","fhrs:id":"1195597","shop":"supermarket","source:addr":"FHRS Open Data"}}, "geometry":{"type":"Point","coordinates":[-2.08224,52.78462 ]}},
{ "type":"Feature","properties":{"osm_id":"8707629167","name":"ALDI","other":{"brand":"ALDI","brand:wikidata":"Q41171672","brand:wikipedia":"en:Aldi","shop":"supermarket"}}, "geometry":{"type":"Point","coordinates":[-2.11554,52.8091 ]}},
{ "type":"Feature","properties":{"osm_way_id":"39959125","name":"Asda","building":"yes","shop":"supermarket","other":{"addr:country":"GB","addr:postcode":"ST16 3TA","addr:street":"Queensway","alt_name":"Asda Stafford Superstore","brand":"Asda","brand:wikidata":"Q297410","brand:wikipedia":"en:Asda","contact:facebook":"https:\/\/www.facebook.com\/asda\/","contact:twitter":"@asda","contact:website":"https:\/\/storelocator.asda.com\/west-midlands\/stafford\/queensway","fhrs:id":"1196191","opening_hours":"Mo 08:00-24:00; Tu-Fr 00:00-24:00; Sa 00:00-22:00; Su 10:00-16:00","operator":"Asda Stores Ltd"}}, "geometry":{"type":"MultiPolygon","coordinates":[[[[-2.11006,52.80478],[-2.11001,52.80487],[-2.11016,52.80491],[-2.10972,52.80561],[-2.10899,52.80544],[-2.10879,52.80539],[-2.10861,52.80526],[-2.10865,52.8052],[-2.10846,52.80514],[-2.10872,52.80475],[-2.10891,52.8048],[-2.10907,52.80456],[-2.11006,52.80478]]]]}},
{ "type":"Feature","properties":{"osm_way_id":"59692574","name":"Sainsbury's","building":"yes","shop":"supermarket","other":{"addr:postcode":"ST16 2TF","addr:street":"Chell Road","alt_name":"Sainsbury's Stafford Superstore","brand":"Sainsbury's","brand:wikidata":"Q152096","brand:wikipedia":"en:Sainsbury's","operator":"Sainsburys"}}, "geometry":{"type":"MultiPolygon","coordinates":[[[[-2.12212,52.80833],[-2.12193,52.80836],[-2.12191,52.80826],[-2.12116,52.80831],[-2.12102,52.80829],[-2.12077,52.80853],[-2.12084,52.80887],[-2.12125,52.80884],[-2.12125,52.80894],[-2.12118,52.80894],[-2.12113,52.80908],[-2.12127,52.80908],[-2.1213,52.80906],[-2.12154,52.80904],[-2.12154,52.80909],[-2.12163,52.80908],[-2.12163,52.80904],[-2.1218,52.80903],[-2.1218,52.80907],[-2.12189,52.80907],[-2.12188,52.80904],[-2.12225,52.80901],[-2.12212,52.80833]]]]}},
{ "type":"Feature","properties":{"osm_way_id":"59918311","name":"Tesco Extra","building":"yes","shop":"supermarket","other":{"addr:postcode":"ST16 2HE","addr:street":"Newport Road","alt_name":"Tesco Stafford Extra","brand":"Tesco Extra","brand:wikidata":"Q25172225","brand:wikipedia":"en:Tesco Extra","fhrs:id":"1196016"}}, "geometry":{"type":"MultiPolygon","coordinates":[[[[-2.11998,52.80207],[-2.11923,52.80244],[-2.11911,52.8025],[-2.11843,52.80199],[-2.11838,52.80202],[-2.11816,52.80186],[-2.11821,52.80183],[-2.11819,52.80181],[-2.11816,52.80182],[-2.11813,52.8018],[-2.11815,52.80179],[-2.11814,52.80178],[-2.11827,52.80172],[-2.11868,52.80151],[-2.11834,52.80126],[-2.11849,52.80119],[-2.11878,52.8014],[-2.11886,52.80136],[-2.11858,52.80115],[-2.11863,52.80107],[-2.11998,52.80207]]]]}},
{ "type":"Feature","properties":{"osm_way_id":"72925426","name":"Lidl","building":"yes","shop":"supermarket","other":{"addr:housename":"Madford Retail Park","addr:postcode":"ST16 2QY","addr:street":"Foregate Street","alt_name":"LIDL Stafford","brand":"Lidl","brand:wikidata":"Q151954","brand:wikipedia":"en:Lidl","fhrs:id":"1194984"}}, "geometry":{"type":"MultiPolygon","coordinates":[[[[-2.12232,52.81103],[-2.12215,52.8108],[-2.12254,52.81069],[-2.12251,52.81064],[-2.12262,52.81061],[-2.12266,52.81066],[-2.12286,52.8106],[-2.12303,52.81084],[-2.12232,52.81103]]]]}},
{ "type":"Feature","properties":{"osm_way_id":"89327868","name":"Morrisons","building":"retail","shop":"supermarket","other":{"addr:city":"Stone","addr:postcode":"ST15 8BA","addr:street":"Mill Street\/ Church Street","brand":"Morrisons","brand:wikidata":"Q922344","brand:wikipedia":"en:Morrisons","fhrs:id":"1195699"}}, "geometry":{"type":"MultiPolygon","coordinates":[[[[-2.14468,52.90291],[-2.14394,52.90312],[-2.14382,52.9031],[-2.1438,52.90308],[-2.14376,52.90309],[-2.14368,52.90299],[-2.14354,52.90303],[-2.14332,52.90274],[-2.14421,52.90249],[-2.14417,52.90244],[-2.14431,52.90241],[-2.14466,52.90284],[-2.14463,52.90285],[-2.14468,52.90291]]]]}},
{ "type":"Feature","properties":{"osm_way_id":"138759028","name":"The Co-operative Food","building":"yes","shop":"supermarket","other":{"addr:postcode":"ST16 1LA","addr:street":"Stone Road","fhrs:id":"1195546","operator":"Central England Co-operative Society"}}, "geometry":{"type":"MultiPolygon","coordinates":[[[[-2.12675,52.82159],[-2.12711,52.82149],[-2.12703,52.82138],[-2.12666,52.82147],[-2.12675,52.82159]]]]}},
{ "type":"Feature","properties":{"osm_way_id":"149356430","name":"Aldi","building":"shop","shop":"supermarket","other":{"brand":"ALDI","brand:wikidata":"Q41171672","brand:wikipedia":"en:Aldi"}}, "geometry":{"type":"MultiPolygon","coordinates":[[[[-2.14553,52.89209],[-2.14514,52.89222],[-2.14476,52.8918],[-2.14515,52.89167],[-2.14553,52.89209]]]]}},
{ "type":"Feature","properties":{"osm_way_id":"307185908","name":"Spar","building":"retail","shop":"supermarket","other":{"addr:housenumber":"146","addr:postcode":"ST17 9YF","addr:street":"Westway","alt_name":"Blakemore Retail, Westway","brand":"Spar","brand:wikidata":"Q610492","brand:wikipedia":"en:SPAR (retailer)","fhrs:id":"1195683"}}, "geometry":{"type":"MultiPolygon","coordinates":[[[[-2.13207,52.79484],[-2.13185,52.79469],[-2.13201,52.7946],[-2.13223,52.79476],[-2.13207,52.79484]]]]}},
{ "type":"Feature","properties":{"osm_way_id":"333877932","name":"Co-op Food","building":"yes","shop":"supermarket","other":{"addr:city":"Eccleshall","addr:country":"GB","addr:postcode":"ST21 6BH","addr:street":"Stafford Street","brand":"Co-op Food","brand:wikidata":"Q3277439","brand:wikipedia":"en:Co-op Food","fhrs:id":"1195839","not_name":"The Co-op","opening_hours":"Mo-Sa 07:00-21:00; Su 10:00-16:00","operator":"Central England Co-operative Society"}}, "geometry":{"type":"MultiPolygon","coordinates":[[[[-2.25137,52.85944],[-2.25122,52.85945],[-2.2504,52.85954],[-2.25011,52.85957],[-2.25008,52.85945],[-2.24995,52.85946],[-2.24993,52.85938],[-2.25104,52.85926],[-2.25115,52.85929],[-2.25136,52.85926],[-2.25141,52.85943],[-2.25137,52.85944]]]]}},
{ "type":"Feature","properties":{"osm_way_id":"333878328","name":"The Co-operative Food","building":"yes","shop":"supermarket","other":{"addr:city":"Stafford","addr:country":"GB","addr:housenumber":"55-57","addr:postcode":"ST16 3RL","addr:street":"Weston Road","fhrs:id":"1195504","operator":"Central England Co-operative Society"}}, "geometry":{"type":"MultiPolygon","coordinates":[[[[-2.10325,52.80726],[-2.10333,52.80736],[-2.10327,52.80738],[-2.10332,52.80744],[-2.10314,52.8075],[-2.10299,52.80734],[-2.10325,52.80726]]]]}},
{ "type":"Feature","properties":{"osm_way_id":"333879192","name":"The Co-operative Food","building":"yes","shop":"supermarket","other":{"addr:city":"Stafford","addr:country":"GB","addr:postcode":"ST17 4JD","addr:street":"Silkmore Lane","fhrs:id":"1195947","operator":"Central England Co-operative Society"}}, "geometry":{"type":"MultiPolygon","coordinates":[[[[-2.10685,52.78865],[-2.10659,52.78914],[-2.10617,52.78906],[-2.10635,52.78872],[-2.1064,52.78873],[-2.10648,52.78858],[-2.10685,52.78865]]]]}},
{ "type":"Feature","properties":{"osm_way_id":"372674837","name":"ALDI","landuse":"retail","shop":"supermarket","other":{"addr:city":"Stafford","addr:place":"Queensville","addr:postcode":"ST17 4NX","brand":"ALDI","brand:wikidata":"Q41171672","brand:wikipedia":"en:Aldi","opening_hours":"Mo-Sa 08:00-22:00; Su 10:00-16:00"}}, "geometry":{"type":"MultiPolygon","coordinates":[[[[-2.09502,52.79317],[-2.09499,52.79317],[-2.09491,52.79317],[-2.09422,52.79302],[-2.0942,52.79304],[-2.09366,52.79293],[-2.09411,52.79231],[-2.09465,52.79253],[-2.09461,52.7926],[-2.09528,52.79274],[-2.09504,52.79315],[-2.09502,52.79317]]]]}},
{ "type":"Feature","properties":{"osm_way_id":"390922773","name":"One Stop","building":"yes","shop":"supermarket","other":{"addr:postcode":"ST12 9DH","addr:street":"Station Road"}}, "geometry":{"type":"MultiPolygon","coordinates":[[[[-2.16887,52.94229],[-2.16891,52.9424],[-2.16895,52.94249],[-2.16867,52.94253],[-2.16861,52.94238],[-2.16859,52.94232],[-2.16886,52.94228],[-2.16887,52.94229]]]]}},
{ "type":"Feature","properties":{"osm_way_id":"522807534","name":"The Co-operative Food","building":"retail","shop":"supermarket","other":{"addr:city":"Stafford","addr:country":"GB","addr:postcode":"ST17 0EA","addr:street":"Lynton Avenue","fhrs:id":"1195125","source:addr":"FHRS Open Data"}}, "geometry":{"type":"MultiPolygon","coordinates":[[[[-2.07914,52.7918],[-2.07864,52.79169],[-2.07873,52.79155],[-2.07878,52.79156],[-2.07877,52.79159],[-2.07903,52.79165],[-2.07906,52.7916],[-2.07924,52.79164],[-2.07914,52.7918]]]]}},
{ "type":"Feature","properties":{"osm_way_id":"524310743","name":"Poundstretcher","building":"retail","shop":"supermarket"},"geometry":{"type":"MultiPolygon","coordinates":[[[[-2.11478,52.80242],[-2.11471,52.8024],[-2.1147,52.80243],[-2.11446,52.80238],[-2.11448,52.80235],[-2.11441,52.80233],[-2.11472,52.80181],[-2.1151,52.8019],[-2.11507,52.80195],[-2.11478,52.80242]]]]}},
{ "type":"Feature","properties":{"osm_way_id":"631381468","name":"M&S Foodhall","building":"retail","shop":"supermarket","other":{"addr:place":"Westbridge Park","addr:postcode":"ST15 8QW","addr:unit":"A","brand":"M&S Foodhall","brand:wikidata":"Q714491","brand:wikipedia":"en:Marks & Spencer","fhrs:id":"1195299","source:addr":"FHRS Open Data","website":"https:\/\/www.marksandspencer.com\/stores\/westbridge-park-stone-simply-food-2120"}}, "geometry":{"type":"MultiPolygon","coordinates":[[[[-2.14583,52.8999],[-2.14522,52.89969],[-2.14526,52.89964],[-2.14533,52.89967],[-2.14539,52.89961],[-2.14549,52.89965],[-2.14562,52.89951],[-2.14607,52.89966],[-2.14583,52.8999]]]]}}
]
}
