{
"type": "FeatureCollection",
"features": [
{ "type":"Feature","properties":{"osm_id":"1964989875","name":"The Co-operative Food","other":{"operator":"The Co-operative Group","shop":"supermarket"}}, "geometry":{"type":"Point","coordinates":[-1.73616,50.78122 ]}},
{ "type":"Feature","properties":{"osm_id":"1968745441","name":"Tesco Express","other":{"brand":"Tesco Express","brand:wikidata":"Q98456772","contact:website":"https:\/\/www.tesco.com\/store-locator\/ringwood\/1-butlers-ln","shop":"supermarket"}}, "geometry":{"type":"Point","coordinates":[-1.76937,50.8554 ]}},
{ "type":"Feature","properties":{"osm_id":"8726287494","name":"Waitrose","other":{"brand":"Waitrose","brand:wikidata":"Q771734","brand:wikipedia":"en:Waitrose","official_name":"Waitrose & Partners","shop":"supermarket"}}, "geometry":{"type":"Point","coordinates":[-1.39824,50.86961 ]}},
{ "type":"Feature","properties":{"osm_way_id":"23134411","name":"Asda","building":"yes","shop":"supermarket","other":{"addr:city":"Southampton","addr:country":"GB","addr:postcode":"SO40 3ZA","addr:street":"Maynard Road","brand":"Asda","brand:wikidata":"Q297410","brand:wikipedia":"en:Asda","contact:facebook":"https:\/\/www.facebook.com\/asda\/","contact:twitter":"@asda","contact:website":"https:\/\/storelocator.asda.com\/south-east\/totton\/maynard-road","fhrs:id":"547700","operator":"Asda Stores Ltd","source:addr":"FHRS Open Data"}}, "geometry":{"type":"MultiPolygon","coordinates":[[[[-1.48858,50.9184],[-1.4886,50.91842],[-1.48849,50.91845],[-1.4884,50.91835],[-1.48803,50.91849],[-1.48776,50.9182],[-1.48752,50.91828],[-1.48744,50.9182],[-1.48755,50.91816],[-1.48748,50.91809],[-1.48803,50.91789],[-1.48784,50.91768],[-1.48829,50.91751],[-1.48844,50.91768],[-1.48869,50.91759],[-1.4887,50.9176],[-1.48881,50.91771],[-1.48873,50.91774],[-1.48903,50.91807],[-1.48908,50.91805],[-1.48913,50.9181],[-1.48916,50.91809],[-1.48922,50.91816],[-1.48899,50.91824],[-1.48904,50.9183],[-1.48887,50.91836],[-1.48882,50.91838],[-1.48876,50.9184],[-1.48872,50.91835],[-1.48863,50.91838],[-1.48858,50.9184]]]]}},
{ "type":"Feature","properties":{"osm_way_id":"46656252","name":"Tesco Hythe","building":"yes","shop":"supermarket","other":{"brand":"Tesco","brand:wikidata":"Q487494","brand:wikipedia":"en:Tesco","phone":"+443456779368"}}, "geometry":{"type":"MultiPolygon","coordinates":[[[[-1.43313,50.86372],[-1.43293,50.8636],[-1.4329,50.86362],[-1.4328,50.86355],[-1.43258,50.86341],[-1.43248,50.86333],[-1.43258,50.86328],[-1.43268,50.86323],[-1.43264,50.8632],[-1.43299,50.86302],[-1.43303,50.86305],[-1.43324,50.86294],[-1.43398,50.86349],[-1.4338,50.86358],[-1.43392,50.86367],[-1.43369,50.86379],[-1.43358,50.86371],[-1.43362,50.86368],[-1.43354,50.86362],[-1.43377,50.8635],[-1.4337,50.86345],[-1.43363,50.86349],[-1.4336,50.86347],[-1.43313,50.86372]]]]}},
{ "type":"Feature","properties":{"osm_way_id":"46916196","name":"King's Hat Inclosure","landuse":"forest","other":{"access":"designated","camping":"no","designation":"access_land","leaf_cycle":"mixed","leaf_type":"mixed","operator":"Forestry England","produce":"timber"}}, "geometry":{"type":"MultiPolygon","coordinates":[[[[-1.44463,50.85086],[-1.4439,50.85036],[-1.44368,50.85025],[-1.44348,50.85015],[-1.4432,50.8498],[-1.44288,50.84947],[-1.44263,50.84914],[-1.44263,50.84914],[-1.44244,50.84899],[-1.44172,50.84846],[-1.44169,50.84842],[-1.44166,50.84827],[-1.44163,50.84816],[-1.44163,50.8481],[-1.44165,50.84807],[-1.4417,50.84804],[-1.44182,50.848],[-1.44206,50.84795],[-1.44274,50.8478],[-1.44374,50.84757],[-1.44455,50.84739],[-1.44478,50.84735],[-1.44574,50.8471],[-1.44662,50.8469],[-1.44896,50.84637],[-1.45015,50.84611],[-1.45087,50.84594],[-1.45132,50.84587],[-1.45131,50.84623],[-1.45136,50.84672],[-1.4514,50.84712],[-1.45146,50.84775],[-1.45152,50.84839],[-1.44993,50.84848],[-1.44893,50.84854],[-1.449,50.84884],[-1.44973,50.84883],[-1.44985,50.8488],[-1.45046,50.84879],[-1.45143,50.84877],[-1.45149,50.84928],[-1.4515,50.84934],[-1.45156,50.84976],[-1.45151,50.85013],[-1.4496,50.85063],[-1.44866,50.85086],[-1.44701,50.85084],[-1.44463,50.85086]]]]}},
{ "type":"Feature","properties":{"osm_way_id":"56453250","name":"Lidl","building":"store","shop":"supermarket","other":{"addr:city":"Southampton","addr:country":"GB","addr:housename":"Totton Retail Park","addr:housenumber":"62-96","addr:postcode":"SO40 3AG","addr:street":"Commercial Road","addr:unit":"1","brand":"Lidl","brand:wikidata":"Q151954","brand:wikipedia":"en:Lidl","fhrs:id":"1092570"}}, "geometry":{"type":"MultiPolygon","coordinates":[[[[-1.48564,50.91797],[-1.48552,50.9178],[-1.48613,50.9176],[-1.48626,50.91776],[-1.48564,50.91797]]]]}},
{ "type":"Feature","properties":{"osm_way_id":"65236941","name":"Co-op Food","building":"retail","shop":"supermarket","other":{"addr:city":"Southampton","addr:country":"GB","addr:housenumber":"163","addr:postcode":"SO45 2NZ","addr:street":"Long Lane","addr:village":"Holbury","brand":"Co-op Food","brand:wikidata":"Q3277439","brand:wikipedia":"en:Co-op Food","building:levels":"2","fhrs:id":"656666","opening_hours":"Mo-Sa 06:00-22:00; Su 10:00-16:00","phone":"+442380 891696","website":"https:\/\/www.coop.co.uk\/store-finder\/SO45-2NZ\/163-long-lane"}}, "geometry":{"type":"MultiPolygon","coordinates":[[[[-1.38414,50.83405],[-1.38371,50.83423],[-1.38347,50.834],[-1.3835,50.83399],[-1.38348,50.83398],[-1.38363,50.83391],[-1.38365,50.83393],[-1.3839,50.83383],[-1.38414,50.83405]]]]}},
{ "type":"Feature","properties":{"osm_way_id":"102658771","name":"Waitrose","building":"retail","shop":"supermarket","other":{"addr:postcode":"BH24 1AT","brand":"Waitrose","brand:wikidata":"Q771734","brand:wikipedia":"en:Waitrose","building:levels":"2","nohousenumber":"yes","official_name":"Waitrose & Partners","opening_hours":"Mo-Th 07:30-20:00; Fr 07:30-21:00; Sa 07:30-20:00; Su 10:00-16:00","operator":"Waitrose & Partners","roof:levels":"1","roof:shape":"hipped"}}, "geometry":{"type":"MultiPolygon","coordinates":[[[[-1.79388,50.84808],[-1.79387,50.84807],[-1.79322,50.84808],[-1.79321,50.84785],[-1.79322,50.84782],[-1.79324,50.84767],[-1.79348,50.84767],[-1.79353,50.84765],[-1.7941,50.84766],[-1.79411,50.84766],[-1.79411,50.84785],[-1.79398,50.84785],[-1.79399,50.84798],[-1.79403,50.84798],[-1.79403,50.84808],[-1.79388,50.84808]]]]}},
{ "type":"Feature","properties":{"osm_way_id":"102658775","name":"Sainsbury's","building":"retail","shop":"supermarket","other":{"addr:housenumber":"24","addr:street":"Meeting House Lane","brand":"Sainsbury's","brand:wikidata":"Q152096","brand:wikipedia":"en:Sainsbury's","building:levels":"1","opening_hours":"Mo-Sa 08:00-20:00; Su 10:00-16:00","roof:levels":"1","roof:shape":"pyramidal"}}, "geometry":{"type":"MultiPolygon","coordinates":[[[[-1.79216,50.84657],[-1.79194,50.84658],[-1.79199,50.84685],[-1.792,50.84685],[-1.79203,50.84699],[-1.79184,50.84701],[-1.79184,50.84702],[-1.79166,50.84703],[-1.79157,50.84704],[-1.79149,50.847],[-1.79148,50.8469],[-1.79147,50.8469],[-1.79145,50.84679],[-1.79146,50.8468],[-1.79145,50.84676],[-1.79155,50.84676],[-1.7915,50.84652],[-1.79192,50.84648],[-1.79192,50.84647],[-1.79214,50.84645],[-1.79216,50.84657]]]]}},
{ "type":"Feature","properties":{"osm_way_id":"152074601","name":"Waitrose","building":"retail","shop":"supermarket","other":{"addr:city":"Lymington","addr:country":"GB","addr:postcode":"SO41 9GF","addr:street":"Stanford Road","alt_name":"Waitrose Lymington","brand":"Waitrose","brand:wikidata":"Q771734","brand:wikipedia":"en:Waitrose & Partners","building:levels":"1","official_name":"Waitrose & Partners","opening_hours":"Mo-Sa 07:30-20:00; Fr 07:30-21:00; Su 10:00-16:00","operator":"Waitrose & Partners"}}, "geometry":{"type":"MultiPolygon","coordinates":[[[[-1.55059,50.75741],[-1.54966,50.75751],[-1.54969,50.7576],[-1.54958,50.75761],[-1.54959,50.75766],[-1.54955,50.75767],[-1.54957,50.75774],[-1.54965,50.75773],[-1.54968,50.75783],[-1.54954,50.75784],[-1.54958,50.75797],[-1.55041,50.75789],[-1.55055,50.75816],[-1.55104,50.75808],[-1.55091,50.75781],[-1.55068,50.75785],[-1.55067,50.75783],[-1.55058,50.75784],[-1.55056,50.75776],[-1.55068,50.75775],[-1.55059,50.75741]]]]}},
{ "type":"Feature","properties":{"osm_way_id":"152991571","name":"Co-op Food","building":"yes","shop":"supermarket","other":{"addr:postcode":"IV31 6ED","addr:street":"Coulardbank Road","alt_name":"Co-op","brand":"Co-op Food","brand:wikidata":"Q3277439","brand:wikipedia":"en:Co-op Food","fhrs:id":"20042","operator":"The Coop"}}, "geometry":{"type":"MultiPolygon","coordinates":[[[[-3.29934,57.71311],[-3.29936,57.71305],[-3.29866,57.71299],[-3.29863,57.7131],[-3.29855,57.71309],[-3.2985,57.71326],[-3.29873,57.71328],[-3.29874,57.71324],[-3.2992,57.71328],[-3.29924,57.71314],[-3.29933,57.71315],[-3.29934,57.71311]]]]}},
{ "type":"Feature","properties":{"osm_way_id":"157939445","name":"Tesco","building":"yes","shop":"supermarket","other":{"addr:city":"New Milton","addr:postcode":"BH25 6BP","addr:street":"Caird Avenue","alt_name":"Tesco New Milton Superstore","brand":"Tesco","brand:wikidata":"Q487494","brand:wikipedia":"en:Tesco","hearing_impaired:induction_loop":"yes","opening_hours":"Mo-Sa 06:00-00:00, Su 10:00-16:00","organic":"yes","phone":"+44 345 677 9489"}}, "geometry":{"type":"MultiPolygon","coordinates":[[[[-1.64614,50.75028],[-1.64596,50.75016],[-1.646,50.75011],[-1.64537,50.7499],[-1.64523,50.75006],[-1.6452,50.75005],[-1.64493,50.75037],[-1.64502,50.75041],[-1.64489,50.75058],[-1.64505,50.75063],[-1.64481,50.75091],[-1.64522,50.75106],[-1.64507,50.75123],[-1.64544,50.75135],[-1.64546,50.75133],[-1.64587,50.75083],[-1.6458,50.7508],[-1.64613,50.75044],[-1.64603,50.75041],[-1.64614,50.75028]]]]}},
{ "type":"Feature","properties":{"osm_way_id":"161871497","name":"M&S Simply Food","building":"yes","shop":"supermarket","other":{"addr:city":"Lymington","addr:country":"GB","addr:housenumber":"2-5","addr:postcode":"SO41 9NA","addr:street":"St Thomas Street","alt_name":"M&S Lymington Simply Food","brand":"M&S Simply Food","brand:wikidata":"Q714491","brand:wikipedia":"en:Marks & Spencer","opening_hours":"Mo-Sa 08:00-20:00; Su 10:00-16:00"}}, "geometry":{"type":"MultiPolygon","coordinates":[[[[-1.54661,50.75714],[-1.54635,50.75719],[-1.54618,50.75679],[-1.54613,50.7568],[-1.54609,50.75672],[-1.54623,50.75669],[-1.54626,50.75676],[-1.54643,50.75673],[-1.54657,50.75705],[-1.54661,50.75714]]]]}},
{ "type":"Feature","properties":{"osm_way_id":"161871498","name":"Tesco Metro","building":"yes","shop":"supermarket","other":{"addr:city":"Lymington","addr:country":"GB","addr:housenumber":"110-111","addr:postcode":"SO41 9AP","addr:street":"High Street","alt_name":"Tesco Lymington Metro","brand":"Tesco Metro","brand:wikidata":"Q57551648","opening_hours":"Mo-Sa 07:00-22:00 Su 10:00-16:00"}}, "geometry":{"type":"MultiPolygon","coordinates":[[[[-1.54038,50.75871],[-1.54021,50.75876],[-1.54024,50.7588],[-1.54021,50.75881],[-1.54024,50.75886],[-1.54036,50.75905],[-1.54056,50.75935],[-1.54075,50.7593],[-1.54047,50.75886],[-1.54042,50.75887],[-1.5404,50.75883],[-1.54044,50.75881],[-1.54038,50.75871]]]]}},
{ "type":"Feature","properties":{"osm_way_id":"169074420","name":"simplyfresh","building":"retail","shop":"supermarket","other":{"addr:city":"Cheltenham","addr:housenumber":"116","addr:postcode":"GL52 2DP","addr:street":"Prestbury Road","contact:phone":"+441242 851088","fhrs:id":"1004326","old_fhrs:id":"818022","opening_hours":"Mo-Sa 07:00-21:00; Su 08:00-21:00"}}, "geometry":{"type":"MultiPolygon","coordinates":[[[[-2.06135,51.90798],[-2.06119,51.90809],[-2.06116,51.90807],[-2.06111,51.9081],[-2.06113,51.90811],[-2.06108,51.90814],[-2.06099,51.90808],[-2.06103,51.90805],[-2.06099,51.90803],[-2.06116,51.90791],[-2.06128,51.90797],[-2.0613,51.90795],[-2.06135,51.90798]]]]}},
{ "type":"Feature","properties":{"osm_way_id":"172312983","name":"The Co-operative Food","building":"yes","shop":"supermarket","other":{"addr:city":"Lymington","addr:country":"GB","addr:housename":"Ampress Park","addr:postcode":"SO41 8XN","addr:street":"Southampton Road","alt_name":"The Co-operative Food","atm":"yes","opening_hours":"24\/7"}}, "geometry":{"type":"MultiPolygon","coordinates":[[[[-1.55159,50.77185],[-1.55151,50.77168],[-1.55129,50.77172],[-1.5512,50.77174],[-1.55128,50.77191],[-1.55159,50.77185]]]]}},
{ "type":"Feature","properties":{"osm_way_id":"186988876","name":"The Co-operative Food","building":"yes","shop":"supermarket","other":{"addr:housenumber":"38","addr:postcode":"SP6 1AX","addr:street":"High Street","brand":"The Co-operative Food","brand:wikidata":"Q107617274"}}, "geometry":{"type":"MultiPolygon","coordinates":[[[[-1.79161,50.92691],[-1.79145,50.92698],[-1.79143,50.92696],[-1.79133,50.92701],[-1.79144,50.92711],[-1.79154,50.92719],[-1.79169,50.92726],[-1.79203,50.92738],[-1.79217,50.92723],[-1.79213,50.92721],[-1.79216,50.92717],[-1.79188,50.92707],[-1.79172,50.927],[-1.7917,50.92698],[-1.79161,50.92691]]]]}},
{ "type":"Feature","properties":{"osm_way_id":"187024091","name":"Lidl","building":"yes","shop":"supermarket","other":{"addr:city":"New Milton","addr:housenumber":"49","addr:postcode":"BH25 6PR","addr:street":"Lymington Road","brand":"Lidl","brand:wikidata":"Q151954","fhrs:authority":"New Forest","fhrs:id":"619306","fhrs:local_authority_id":"138","opening_hours":"Mo-Sa 08:00-21:00, Su 10:00-16:00"}}, "geometry":{"type":"MultiPolygon","coordinates":[[[[-1.65965,50.74618],[-1.65935,50.74614],[-1.65934,50.74619],[-1.65922,50.74618],[-1.65911,50.74649],[-1.65906,50.74664],[-1.6594,50.74669],[-1.65939,50.74673],[-1.65953,50.74675],[-1.65957,50.74664],[-1.6595,50.74663],[-1.65965,50.74618]]]]}},
{ "type":"Feature","properties":{"osm_way_id":"188193236","name":"The Co-operative Food","building":"yes","shop":"supermarket","other":{"brand":"Southern Co-operative","brand:wikidata":"Q7569773","brand:wikipedia":"en:Southern_Co-operative","phone":"+4423 8089 3471","website":"https:\/\/stores.thesouthernco-operative.co.uk\/hampshire\/southampton\/63-long-lane.html"}}, "geometry":{"type":"MultiPolygon","coordinates":[[[[-1.38072,50.83166],[-1.38054,50.83176],[-1.38049,50.83172],[-1.38047,50.83173],[-1.38031,50.83161],[-1.38034,50.83159],[-1.38032,50.83157],[-1.38038,50.83154],[-1.3804,50.83156],[-1.38051,50.8315],[-1.38072,50.83166]]]]}},
{ "type":"Feature","properties":{"osm_way_id":"325742009","name":"Morrisons","building":"yes","shop":"supermarket","other":{"addr:city":"New Milton","addr:postcode":"BH25 6HY","addr:street":"Station Road","alt_name":"Morrisons New Milton","brand":"Morrisons","brand:wikidata":"Q922344","brand:wikipedia":"en:Morrisons","opening_hours":"Mo-Sa 07:00-22:00, Su 10:00-16:00","phone":"+44 1425 639075"}}, "geometry":{"type":"MultiPolygon","coordinates":[[[[-1.6554,50.75407],[-1.65527,50.75381],[-1.65525,50.75381],[-1.6551,50.75384],[-1.65471,50.75391],[-1.65483,50.75418],[-1.6552,50.75411],[-1.6554,50.75407]]]]}},
{ "type":"Feature","properties":{"osm_way_id":"335134053","name":"Morrisons","building":"yes","shop":"supermarket","other":{"brand":"Morrisons","brand:wikidata":"Q922344","brand:wikipedia":"en:Morrisons"}}, "geometry":{"type":"MultiPolygon","coordinates":[[[[-1.52292,50.92263],[-1.52279,50.92264],[-1.52278,50.92256],[-1.52276,50.92241],[-1.52274,50.92222],[-1.52278,50.92222],[-1.52277,50.92215],[-1.52268,50.92216],[-1.52268,50.9222],[-1.52224,50.92222],[-1.52225,50.92232],[-1.52207,50.92233],[-1.52206,50.92224],[-1.52175,50.92225],[-1.52185,50.92306],[-1.52235,50.92303],[-1.52235,50.92306],[-1.52278,50.92304],[-1.52295,50.92289],[-1.52292,50.92263]]]]}},
{ "type":"Feature","properties":{"osm_way_id":"442894023","name":"Co-op Food","building":"yes","shop":"supermarket","other":{"addr:city":"Milford on Sea","addr:housenumber":"45","addr:postcode":"SO41 0QG","addr:street":"High Street","brand":"Co-op Food","brand:wikidata":"Q3277439","brand:wikipedia":"en:Co-op Food","opening_hours":"Mo-Su 07:00-22:00","operator":"The Southern Co-operative Society"}}, "geometry":{"type":"MultiPolygon","coordinates":[[[[-1.58854,50.72552],[-1.58847,50.72545],[-1.58829,50.72553],[-1.58829,50.72558],[-1.58828,50.72559],[-1.58816,50.72562],[-1.5882,50.72569],[-1.58833,50.72566],[-1.5883,50.72562],[-1.58836,50.7256],[-1.58837,50.72559],[-1.58843,50.72556],[-1.58851,50.72553],[-1.58854,50.72552]]]]}},
{ "type":"Feature","properties":{"osm_way_id":"750236196","name":"Co-op Food","building":"yes","shop":"supermarket","other":{"addr:city":"Southampton","addr:housenumber":"23","addr:postcode":"SO40 9DQ","addr:street":"Rumbridge Street","addr:town":"Totton","brand":"Co-op Food","brand:wikidata":"Q3277439","brand:wikipedia":"en:Co-op Food"}}, "geometry":{"type":"MultiPolygon","coordinates":[[[[-1.48617,50.91544],[-1.48604,50.9155],[-1.48591,50.91538],[-1.48589,50.91539],[-1.48583,50.91535],[-1.48586,50.91533],[-1.48574,50.91523],[-1.48582,50.91519],[-1.486,50.91535],[-1.48602,50.91534],[-1.48606,50.91537],[-1.48609,50.91536],[-1.48617,50.91544]]]]}},
{ "type":"Feature","properties":{"osm_way_id":"853037776","name":"Lidl","building":"yes","shop":"supermarket","other":{"addr:country":"GB","addr:postcode":"BH24 3FE","addr:street":"Wellworth Way","brand":"Lidl","brand:wikidata":"Q151954","brand:wikipedia":"en:Lidl","fhrs:id":"989134"}}, "geometry":{"type":"MultiPolygon","coordinates":[[[[-1.78314,50.84018],[-1.78305,50.84008],[-1.78312,50.84005],[-1.78298,50.83989],[-1.78366,50.83965],[-1.78363,50.83962],[-1.78371,50.83959],[-1.78374,50.83962],[-1.78385,50.83959],[-1.78397,50.83971],[-1.78408,50.83985],[-1.78314,50.84018]]]]}},
{ "type":"Feature","properties":{"osm_way_id":"865707405","name":"Lidl","building":"yes","shop":"supermarket","other":{"addr:country":"GB","addr:postcode":"SO45 6EB","addr:street":"New Road","brand":"Lidl","brand:wikidata":"Q151954","brand:wikipedia":"en:Lidl","fhrs:id":"1157970"}}, "geometry":{"type":"MultiPolygon","coordinates":[[[[-1.39829,50.86834],[-1.39766,50.86792],[-1.39749,50.86802],[-1.39724,50.86816],[-1.39787,50.86858],[-1.39829,50.86834]]]]}}
]
}
