{
"type": "FeatureCollection",
"features": [
{ "type":"Feature","properties":{"osm_way_id":"260999949","name":"Putney Town Rowing Club","building":"warehouse","other":{"addr:city":"Richmond","addr:postcode":"TW9 4EN","addr:street":"Kew Meadow Path","fhrs:id":"354554","source:addr":"FHRS Open Data","website":"http:\/\/putneytownrc.co.uk\/","wikidata":"Q7262375"}}, "geometry":{"type":"MultiPolygon","coordinates":[[[[-0.27375,51.47436],[-0.2734,51.47451],[-0.2733,51.47442],[-0.27365,51.47428],[-0.27375,51.47436]]]]}},
{ "type":"Feature","properties":{"osm_way_id":"347634163","building":"warehouse"},"geometry":{"type":"MultiPolygon","coordinates":[[[[-0.34427,51.44519],[-0.34389,51.44532],[-0.34342,51.4448],[-0.34381,51.44467],[-0.34399,51.44487],[-0.34415,51.44505],[-0.34427,51.44519]]]]}},
{ "type":"Feature","properties":{"osm_way_id":"570653840","building":"warehouse","other":{"addr:city":"Richmond","addr:postcode":"TW9 4LZ","addr:street":"Market Road"}}, "geometry":{"type":"MultiPolygon","coordinates":[[[[-0.28412,51.4666],[-0.28408,51.46639],[-0.28465,51.46636],[-0.28469,51.46657],[-0.28412,51.4666]]]]}},
{ "type":"Feature","properties":{"osm_way_id":"570653842","building":"warehouse"},"geometry":{"type":"MultiPolygon","coordinates":[[[[-0.28339,51.46696],[-0.28333,51.46659],[-0.28368,51.46657],[-0.28374,51.46694],[-0.28339,51.46696]]]]}},
{ "type":"Feature","properties":{"osm_way_id":"570653844","name":"Currie Easy Self Storage","building":"warehouse","other":{"addr:city":"Richmond","addr:postcode":"TW9 4LZ","addr:street":"Market Road"}}, "geometry":{"type":"MultiPolygon","coordinates":[[[[-0.2841,51.46745],[-0.28404,51.46706],[-0.2843,51.46705],[-0.28437,51.46743],[-0.2841,51.46745]]]]}},
{ "type":"Feature","properties":{"osm_way_id":"821315512","name":"Majestic","building":"warehouse","shop":"alcohol","other":{"addr:city":"Richmond","addr:housenumber":"22-28","addr:postcode":"TW9 1YB","addr:street":"Manor Road","brand":"Majestic","brand:wikidata":"Q6737725","brand:wikipedia":"en:Majestic Wine","fhrs:id":"353433","fhrs:local_authority_id":"28246","not:addr:postcode":"TW9 4QA","opening_hours":"Mo-We 10:00-19:00; Th,Fr 10:00-20:00; Sa 09:00-19:00; PH,Su 10:00-17:00","source:addr":"FHRS Open Data"}}, "geometry":{"type":"MultiPolygon","coordinates":[[[[-0.2887,51.46272],[-0.2887,51.46292],[-0.28844,51.46292],[-0.28844,51.46272],[-0.2887,51.46272]]]]}},
{ "type":"Feature","properties":{"osm_way_id":"861185170","building":"warehouse"},"geometry":{"type":"MultiPolygon","coordinates":[[[[-0.34392,51.44851],[-0.34391,51.44845],[-0.344,51.44844],[-0.34399,51.4484],[-0.34418,51.44839],[-0.34418,51.44841],[-0.34438,51.4484],[-0.34439,51.44849],[-0.34443,51.44849],[-0.34445,51.4486],[-0.34443,51.44861],[-0.34444,51.44864],[-0.34437,51.44864],[-0.34438,51.4487],[-0.34431,51.4487],[-0.3443,51.44868],[-0.34421,51.44869],[-0.3442,51.44865],[-0.34412,51.44865],[-0.34412,51.44872],[-0.34405,51.44872],[-0.34404,51.44866],[-0.34408,51.44865],[-0.34407,51.44863],[-0.34405,51.4485],[-0.34392,51.44851]]]]}},
{ "type":"Feature","properties":{"osm_way_id":"861185171","building":"warehouse"},"geometry":{"type":"MultiPolygon","coordinates":[[[[-0.3439,51.44907],[-0.34387,51.44893],[-0.34449,51.44888],[-0.34451,51.44903],[-0.3439,51.44907]]]]}},
{ "type":"Feature","properties":{"osm_way_id":"861185172","building":"warehouse"},"geometry":{"type":"MultiPolygon","coordinates":[[[[-0.34319,51.44917],[-0.34332,51.44915],[-0.34329,51.44899],[-0.34317,51.449],[-0.34319,51.44917]]]]}},
{ "type":"Feature","properties":{"osm_way_id":"936110755","building":"warehouse","other":{"addr:city":"London","addr:housenumber":"76","addr:postcode":"SW13 9JJ","addr:street":"Glentham Road","building:levels":"1","roof:orientation":"across","roof:shape":"sawtooth"}}, "geometry":{"type":"MultiPolygon","coordinates":[[[[-0.23734,51.48678],[-0.23737,51.48652],[-0.23753,51.48653],[-0.23752,51.48659],[-0.23767,51.4866],[-0.23766,51.48667],[-0.23765,51.48679],[-0.23734,51.48678]]]]}},
{ "type":"Feature","properties":{"osm_way_id":"949676448","building":"warehouse"},"geometry":{"type":"MultiPolygon","coordinates":[[[[-0.38163,51.41621],[-0.38149,51.41577],[-0.38057,51.41589],[-0.38071,51.41633],[-0.38163,51.41621]]]]}},
{ "type":"Feature","properties":{"osm_way_id":"949676449","building":"warehouse"},"geometry":{"type":"MultiPolygon","coordinates":[[[[-0.38159,51.41667],[-0.38155,51.41648],[-0.38091,51.41654],[-0.38096,51.41673],[-0.38159,51.41667]]]]}},
{ "type":"Feature","properties":{"osm_way_id":"949676450","building":"warehouse"},"geometry":{"type":"MultiPolygon","coordinates":[[[[-0.38183,51.41706],[-0.38174,51.41668],[-0.38112,51.41674],[-0.38118,51.41701],[-0.38137,51.41699],[-0.38139,51.41709],[-0.38183,51.41706]]]]}},
{ "type":"Feature","properties":{"osm_way_id":"949676452","building":"warehouse"},"geometry":{"type":"MultiPolygon","coordinates":[[[[-0.38207,51.41744],[-0.38196,51.41739],[-0.38211,51.41726],[-0.38222,51.41731],[-0.38207,51.41744]]]]}},
{ "type":"Feature","properties":{"osm_way_id":"949676454","building":"warehouse"},"geometry":{"type":"MultiPolygon","coordinates":[[[[-0.38036,51.41642],[-0.38026,51.41644],[-0.38032,51.41662],[-0.38018,51.41664],[-0.37971,51.41647],[-0.37939,51.41552],[-0.38004,51.41544],[-0.38036,51.41642]]]]}},
{ "type":"Feature","properties":{"osm_way_id":"949676456","building":"warehouse"},"geometry":{"type":"MultiPolygon","coordinates":[[[[-0.38128,51.41555],[-0.38049,51.41565],[-0.38042,51.41542],[-0.38062,51.41539],[-0.38064,51.41542],[-0.38083,51.4154],[-0.38084,51.41543],[-0.38104,51.41541],[-0.38106,51.41547],[-0.38125,51.41544],[-0.38128,51.41555]]]]}},
{ "type":"Feature","properties":{"osm_way_id":"952955323","name":"Jawbone Brewery","building":"warehouse","other":{"addr:housenumber":"1","addr:street":"Strawberry Vale","building:colour":"white","building:material":"metal","height":"7","roof:colour":"white","roof:height":"3","roof:material":"metal","roof:orientation":"along","roof:shape":"gabled"}}, "geometry":{"type":"MultiPolygon","coordinates":[[[[-0.33175,51.43938],[-0.33201,51.43937],[-0.33202,51.43948],[-0.33176,51.43949],[-0.33175,51.43938]]]]}},
{ "type":"Feature","properties":{"osm_way_id":"952955326","building":"warehouse","other":{"addr:housenumber":"1b","addr:street":"Strawberry Vale"}}, "geometry":{"type":"MultiPolygon","coordinates":[[[[-0.33196,51.43934],[-0.33166,51.43935],[-0.33165,51.4392],[-0.33187,51.43919],[-0.33188,51.43918],[-0.33192,51.43918],[-0.33195,51.4392],[-0.33196,51.43934]]]]}},
{ "type":"Feature","properties":{"osm_way_id":"952955328","building":"warehouse"},"geometry":{"type":"MultiPolygon","coordinates":[[[[-0.33215,51.43924],[-0.33209,51.43926],[-0.33205,51.43917],[-0.33201,51.43918],[-0.33198,51.43912],[-0.33194,51.43912],[-0.33194,51.43911],[-0.3319,51.43912],[-0.33188,51.43906],[-0.33192,51.43905],[-0.3319,51.43904],[-0.33202,51.43901],[-0.33207,51.43909],[-0.33211,51.43917],[-0.33215,51.43924]]]]}}
]
}
