{
"type": "FeatureCollection",
"features": [
{ "type":"Feature","properties":{"osm_id":"273432273","name":"Michael's NISA","other":{"shop":"supermarket"}}, "geometry":{"type":"Point","coordinates":[-1.87162,52.425 ]}},
{ "type":"Feature","properties":{"osm_id":"277242218","name":"Costcutter","other":{"brand":"Costcutter","brand:wikidata":"Q5175072","brand:wikipedia":"en:Costcutter","shop":"supermarket"}}, "geometry":{"type":"Point","coordinates":[-1.85405,52.4121 ]}},
{ "type":"Feature","properties":{"osm_id":"303348431","ref":"B18 27","other":{"amenity":"post_box","postal_code":"B18"}}, "geometry":{"type":"Point","coordinates":[-1.92055,52.48528 ]}},
{ "type":"Feature","properties":{"osm_id":"310645965","name":"The Co-operative Food","other":{"brand":"The Co-operative Food","brand:wikidata":"Q107617274","operator":"Central England Co-operative Society","shop":"supermarket"}}, "geometry":{"type":"Point","coordinates":[-1.98919,52.45306 ]}},
{ "type":"Feature","properties":{"osm_id":"313616764","name":"University Super Store","other":{"addr:city":"Birmingham","addr:housenumber":"580","addr:postcode":"B29 6BE","addr:street":"Bristol Road","fhrs:id":"1150605","shop":"supermarket"}}, "geometry":{"type":"Point","coordinates":[-1.93392,52.44528 ]}},
{ "type":"Feature","properties":{"osm_id":"319268761","name":"Day In Supermarket","other":{"addr:city":"Birmingham","addr:postcode":"B5 4TD","addr:street":"Cathay Street","opening_hours":"Mo-Sa 09:00-18:00, Su 10:00-18:00","operator":"Day In","phone":"+44 121 622 6182","shop":"supermarket","website":"https:\/\/www.dayin.co.uk\/"}}, "geometry":{"type":"Point","coordinates":[-1.89588,52.47524 ]}},
{ "type":"Feature","properties":{"osm_id":"319562884","name":"Spar","other":{"addr:city":"Birmingham","addr:postcode":"B5 4SG","addr:street":"Upper Dean Street","brand":"Spar","brand:wikidata":"Q610492","brand:wikipedia":"en:SPAR (retailer)","shop":"supermarket"}}, "geometry":{"type":"Point","coordinates":[-1.89406,52.47553 ]}},
{ "type":"Feature","properties":{"osm_id":"319778648","name":"Select & Save","other":{"addr:city":"Birmingham","addr:postcode":"B15 1LA","addr:street":"Islington Row Middleway","amenity":"post_office","shop":"supermarket"}}, "geometry":{"type":"Point","coordinates":[-1.91681,52.47262 ]}},
{ "type":"Feature","properties":{"osm_id":"367442202","name":"Costcutter","other":{"addr:city":"Birmingham","addr:housenumber":"85","addr:postcode":"B4 6AB","addr:street":"Bull Street","brand":"Costcutter","brand:wikidata":"Q5175072","brand:wikipedia":"en:Costcutter","fhrs:id":"1170429","shop":"supermarket"}}, "geometry":{"type":"Point","coordinates":[-1.89585,52.48124 ]}},
{ "type":"Feature","properties":{"osm_id":"410720444","name":"Spar","other":{"brand":"Spar","brand:wikidata":"Q610492","brand:wikipedia":"en:SPAR (retailer)","shop":"supermarket"}}, "geometry":{"type":"Point","coordinates":[-1.91092,52.41052 ]}},
{ "type":"Feature","properties":{"osm_id":"574748207","name":"Safebury's","other":{"shop":"supermarket"}}, "geometry":{"type":"Point","coordinates":[-1.93186,52.47208 ]}},
{ "type":"Feature","properties":{"osm_id":"673406929","name":"Costcutter","other":{"brand":"Costcutter","brand:wikidata":"Q5175072","brand:wikipedia":"en:Costcutter","shop":"supermarket"}}, "geometry":{"type":"Point","coordinates":[-1.89252,52.43795 ]}},
{ "type":"Feature","properties":{"osm_id":"833722622","name":"O.A.K Superstore","other":{"shop":"supermarket"}}, "geometry":{"type":"Point","coordinates":[-1.87868,52.45176 ]}},
{ "type":"Feature","properties":{"osm_id":"835065368","name":"East & West","other":{"shop":"supermarket"}}, "geometry":{"type":"Point","coordinates":[-1.87655,52.45895 ]}},
{ "type":"Feature","properties":{"osm_id":"840635405","name":"Nagyal Supermarket","other":{"shop":"supermarket"}}, "geometry":{"type":"Point","coordinates":[-1.87304,52.45259 ]}},
{ "type":"Feature","properties":{"osm_id":"848887303","name":"Select Supermarket","other":{"shop":"supermarket"}}, "geometry":{"type":"Point","coordinates":[-1.86951,52.41395 ]}},
{ "type":"Feature","properties":{"osm_id":"850483491","name":"Select & Save","other":{"shop":"supermarket"}}, "geometry":{"type":"Point","coordinates":[-1.87758,52.42192 ]}},
{ "type":"Feature","properties":{"osm_id":"856895390","name":"Express Supersaver","other":{"shop":"supermarket"}}, "geometry":{"type":"Point","coordinates":[-1.81335,52.48008 ]}},
{ "type":"Feature","properties":{"osm_id":"856943428","name":"Stechford Supermarket","other":{"shop":"supermarket"}}, "geometry":{"type":"Point","coordinates":[-1.81322,52.47783 ]}},
{ "type":"Feature","properties":{"osm_id":"882438042","name":"Hamza","other":{"shop":"supermarket"}}, "geometry":{"type":"Point","coordinates":[-1.86633,52.45922 ]}},
{ "type":"Feature","properties":{"osm_id":"882438414","name":"Al-Wari","other":{"shop":"supermarket"}}, "geometry":{"type":"Point","coordinates":[-1.86645,52.45951 ]}},
{ "type":"Feature","properties":{"osm_id":"904100447","name":"McColls","other":{"shop":"supermarket"}}, "geometry":{"type":"Point","coordinates":[-1.89916,52.4053 ]}},
{ "type":"Feature","properties":{"osm_id":"914053367","name":"Co-op Food","other":{"addr:city":"Birmingham","addr:housenumber":"606\/608","addr:postcode":"B42 1EZ","addr:street":"Walsall Road","brand":"Co-op Food","brand:wikidata":"Q3277439","brand:wikipedia":"en:Co-op Food","operator":"Central England Co-Op","shop":"supermarket"}}, "geometry":{"type":"Point","coordinates":[-1.91942,52.53483 ]}},
{ "type":"Feature","properties":{"osm_id":"916882619","name":"Haidry","other":{"shop":"supermarket"}}, "geometry":{"type":"Point","coordinates":[-1.86205,52.42294 ]}},
{ "type":"Feature","properties":{"osm_id":"916895151","name":"ZEB's","other":{"shop":"supermarket"}}, "geometry":{"type":"Point","coordinates":[-1.86935,52.42946 ]}},
{ "type":"Feature","properties":{"osm_id":"931751065","name":"Sonali Supermarket","other":{"shop":"supermarket"}}, "geometry":{"type":"Point","coordinates":[-1.85502,52.4682 ]}},
{ "type":"Feature","properties":{"osm_id":"959728212","other":{"PMSA_ref":"WMbiBIxx047","artist_name":"William James Boyce","artwork:erected":"1927","artwork:title":"Fox and Hollybush","artwork_type":"sculpted panel","tourism":"artwork","url":"http:\/\/pmsa.cch.kcl.ac.uk\/BM\/WMbiBIxx047.htm"}}, "geometry":{"type":"Point","coordinates":[-1.83416,52.44408 ]}},
{ "type":"Feature","properties":{"osm_id":"963113074","name":"Heron Foods","other":{"addr:city":"Birmingham","addr:country":"GB","addr:housenumber":"232-234","addr:postcode":"B44 8PP","addr:street":"Hawthorn Road","brand":"Heron Foods","brand:wikidata":"Q5743472","brand:wikipedia":"en:Heron Foods","contact:website":"https:\/\/heronfoods.com\/storelocator\/store-details\/kingstanding","fhrs:id":"603782","shop":"supermarket"}}, "geometry":{"type":"Point","coordinates":[-1.88473,52.54092 ]}},
{ "type":"Feature","properties":{"osm_id":"963196354","name":"The Co-operative Food","other":{"operator":"Central England Co-operative","shop":"supermarket"}}, "geometry":{"type":"Point","coordinates":[-1.88021,52.53853 ]}},
{ "type":"Feature","properties":{"osm_id":"982661956","name":"Mohammedi","other":{"shop":"supermarket"}}, "geometry":{"type":"Point","coordinates":[-1.85163,52.47408 ]}},
{ "type":"Feature","properties":{"osm_id":"982757756","name":"M & J","other":{"shop":"supermarket"}}, "geometry":{"type":"Point","coordinates":[-1.84325,52.47569 ]}},
{ "type":"Feature","properties":{"osm_id":"2152012830","other":{"tourism":"artwork"}}, "geometry":{"type":"Point","coordinates":[-1.89938,52.47935 ]}},
{ "type":"Feature","properties":{"osm_id":"2452696660","name":"Seoul Plaza 6","other":{"addr:city":"Birmingham","addr:country":"GB","addr:housename":"The Brook","addr:housenumber":"536","addr:postcode":"B29 6BD","addr:street":"Bristol Road","cuisine":"korean","opening_hours":"Mo-Su 08:30-21:00","shop":"supermarket","website":"http:\/\/www.koreafoods.co.uk\/en\/retail_07.php","wheelchair":"yes"}}, "geometry":{"type":"Point","coordinates":[-1.93233,52.4459 ]}},
{ "type":"Feature","properties":{"osm_id":"2525940974","name":"Costcutter","other":{"brand":"Costcutter","brand:wikidata":"Q5175072","brand:wikipedia":"en:Costcutter","shop":"supermarket"}}, "geometry":{"type":"Point","coordinates":[-1.97047,52.43816 ]}},
{ "type":"Feature","properties":{"osm_id":"2525940981","name":"Unused","other":{"shop":"supermarket"}}, "geometry":{"type":"Point","coordinates":[-1.96917,52.43712 ]}},
{ "type":"Feature","properties":{"osm_id":"2525940982","name":"Holton's","other":{"shop":"supermarket"}}, "geometry":{"type":"Point","coordinates":[-1.96932,52.43854 ]}},
{ "type":"Feature","properties":{"osm_id":"2525941009","name":"Londis","other":{"brand":"Londis","brand:wikidata":"Q21008564","brand:wikipedia":"en:Londis (United Kingdom)","shop":"supermarket"}}, "geometry":{"type":"Point","coordinates":[-1.97011,52.43685 ]}},
{ "type":"Feature","properties":{"osm_id":"2542462527","name":"Spar","other":{"brand":"Spar","brand:wikidata":"Q610492","brand:wikipedia":"en:SPAR (retailer)","shop":"supermarket"}}, "geometry":{"type":"Point","coordinates":[-1.93233,52.45116 ]}},
{ "type":"Feature","properties":{"osm_id":"2556578503","name":"Day In Supermarket","other":{"addr:city":"Birmingham","addr:housename":"Unit 1","addr:postcode":"B5 4RT","addr:street":"Wrottesley Street","opening_hours":"Mo-Sa 09:00-18:00, Su 10:00-18:00","operator":"Day In","phone":"+44121 622 6055","shop":"supermarket","website":"https:\/\/www.dayin.co.uk\/"}}, "geometry":{"type":"Point","coordinates":[-1.89738,52.47543 ]}},
{ "type":"Feature","properties":{"osm_id":"2556578570","name":"Vanguard","other":{"shop":"supermarket","wheelchair":"limited"}}, "geometry":{"type":"Point","coordinates":[-1.89668,52.47387 ]}},
{ "type":"Feature","properties":{"osm_id":"2625234824","name":"Longbridge Supermarket","other":{"shop":"supermarket"}}, "geometry":{"type":"Point","coordinates":[-1.99796,52.39561 ]}},
{ "type":"Feature","properties":{"osm_id":"2642605222","name":"Costcutter","other":{"addr:city":"Birmingham","addr:housenumber":"26","addr:postcode":"B16 8FW","addr:street":"Ryland Street","brand":"Costcutter","brand:wikidata":"Q5175072","brand:wikipedia":"en:Costcutter","fhrs:id":"604302","shop":"supermarket"}}, "geometry":{"type":"Point","coordinates":[-1.91787,52.47549 ]}},
{ "type":"Feature","properties":{"osm_id":"2751586824","name":"Royal Oak","other":{"tourism":"artwork"}}, "geometry":{"type":"Point","coordinates":[-1.9005,52.50268 ]}},
{ "type":"Feature","properties":{"osm_id":"3108516125","name":"Heron Foods","other":{"addr:city":"Birmingham","addr:country":"GB","addr:housenumber":"727A","addr:postcode":"B31 2NG","addr:street":"Bristol Road South","brand":"Heron Foods","brand:wikidata":"Q5743472","brand:wikipedia":"en:Heron Foods","fhrs:id":"603421","opening_hours":"Mo-Sa 08:00-19:00; Su 09:00-17:00","shop":"supermarket","website":"https:\/\/heronfoods.com\/store\/northfield\/"}}, "geometry":{"type":"Point","coordinates":[-1.9703,52.41634 ]}},
{ "type":"Feature","properties":{"osm_id":"3108527353","name":"Options","other":{"addr:city":"Birmingham","addr:housenumber":"821","addr:postcode":"B31 2NQ","addr:street":"Bristol Road South","shop":"supermarket"}}, "geometry":{"type":"Point","coordinates":[-1.97217,52.41444 ]}},
{ "type":"Feature","properties":{"osm_id":"3177657685","name":"Sheik Bros Ltd","other":{"shop":"supermarket"}}, "geometry":{"type":"Point","coordinates":[-1.85568,52.46839 ]}},
{ "type":"Feature","properties":{"osm_id":"3177898086","name":"Costcutter","other":{"addr:city":"Birmingham","addr:postcode":"B19 3JN","addr:street":"Great Hampton Row","brand":"Costcutter","brand:wikidata":"Q5175072","brand:wikipedia":"en:Costcutter","fhrs:id":"598528","shop":"supermarket"}}, "geometry":{"type":"Point","coordinates":[-1.90559,52.4918 ]}},
{ "type":"Feature","properties":{"osm_id":"3461048624","name":"Moneysaver Food Store Halal Meat Centre","other":{"shop":"supermarket"}}, "geometry":{"type":"Point","coordinates":[-1.87771,52.45354 ]}},
{ "type":"Feature","properties":{"osm_id":"3470524769","name":"Tahmoor Superstore","other":{"shop":"supermarket"}}, "geometry":{"type":"Point","coordinates":[-1.85228,52.46767 ]}},
{ "type":"Feature","properties":{"osm_id":"3470524782","name":"Watan","other":{"shop":"supermarket"}}, "geometry":{"type":"Point","coordinates":[-1.86432,52.47217 ]}},
{ "type":"Feature","properties":{"osm_id":"3470525043","name":"Gulf of Aden Supermarket","other":{"shop":"supermarket"}}, "geometry":{"type":"Point","coordinates":[-1.85851,52.46983 ]}},
{ "type":"Feature","properties":{"osm_id":"3470525466","name":"A.K. Superstore","other":{"shop":"supermarket"}}, "geometry":{"type":"Point","coordinates":[-1.85131,52.46742 ]}},
{ "type":"Feature","properties":{"osm_id":"3470525534","name":"Continental Bazar","other":{"shop":"supermarket"}}, "geometry":{"type":"Point","coordinates":[-1.85495,52.46851 ]}},
{ "type":"Feature","properties":{"osm_id":"3470525535","name":"Cooltrader","other":{"brand:wikidata":"Q99642268","shop":"supermarket"}}, "geometry":{"type":"Point","coordinates":[-1.86493,52.47205 ]}},
{ "type":"Feature","properties":{"osm_id":"3556688757","name":"Aman Supermarket","other":{"shop":"supermarket"}}, "geometry":{"type":"Point","coordinates":[-1.85535,52.4768 ]}},
{ "type":"Feature","properties":{"osm_id":"3556691536","name":"Pak Supermarket","other":{"shop":"supermarket"}}, "geometry":{"type":"Point","coordinates":[-1.85657,52.49083 ]}},
{ "type":"Feature","properties":{"osm_id":"3562350107","name":"Iqbal & Sons","other":{"shop":"supermarket"}}, "geometry":{"type":"Point","coordinates":[-1.85357,52.48978 ]}},
{ "type":"Feature","properties":{"osm_id":"3574870501","name":"Ashways","other":{"shop":"supermarket"}}, "geometry":{"type":"Point","coordinates":[-1.8865,52.51223 ]}},
{ "type":"Feature","properties":{"osm_id":"3606014450","name":"Al Furqan","other":{"addr:city":"Birmingham","addr:housenumber":"758-760","addr:street":"Washwood Heath Road","shop":"supermarket"}}, "geometry":{"type":"Point","coordinates":[-1.8284,52.49305 ]}},
{ "type":"Feature","properties":{"osm_id":"3631964975","name":"The Co-operative Food","other":{"operator":"The Co-operative Group","shop":"supermarket"}}, "geometry":{"type":"Point","coordinates":[-1.98651,52.46514 ]}},
{ "type":"Feature","properties":{"osm_id":"4021701294","name":"Jack's","other":{"addr:postcode":"B34 7EH","brand":"Jack's","brand:wikidata":"Q60741213","brand:wikipedia":"en:Jack's (store)","contact:website":"https:\/\/www.jacks-uk.com\/","shop":"supermarket"}}, "geometry":{"type":"Point","coordinates":[-1.77085,52.50162 ]}},
{ "type":"Feature","properties":{"osm_id":"4580110559","other":{"access":"yes","defibrillator:location":"to right of entrance","emergency":"defibrillator","indoor":"no","opening_hours":"24\/7","operator":"Central England Co-operative","wheelchair":"yes"}}, "geometry":{"type":"Point","coordinates":[-1.88361,52.55418 ]}},
{ "type":"Feature","properties":{"osm_id":"4589821858","name":"Nisa Local Westwood Stores","other":{"addr:city":"Sutton Coldfield","addr:housenumber":"63-65","addr:postcode":"B73 6UP","addr:street":"Westwood Road","fhrs:id":"599199","fhrs:local_authority_id":"PI\/000237050","shop":"supermarket"}}, "geometry":{"type":"Point","coordinates":[-1.87478,52.5592 ]}},
{ "type":"Feature","properties":{"osm_id":"5315129262","name":"Cotterhill Hitchman Solicitors","other":{"addr:city":"Sutton Coldfield","addr:housename":"Atlas House","addr:street":"Belwell Lane"}}, "geometry":{"type":"Point","coordinates":[-1.83146,52.58755 ]}},
{ "type":"Feature","properties":{"osm_id":"5472503196","name":"Michaels","other":{"shop":"supermarket"}}, "geometry":{"type":"Point","coordinates":[-1.92625,52.40205 ]}},
{ "type":"Feature","properties":{"osm_id":"5591809053","name":"The Food Warehouse","other":{"addr:city":"Birmingham","addr:housename":"Unit 1 Battery Retail Park","addr:postcode":"B29 6SJ","addr:street":"Chapel Lane","brand":"The Food Warehouse","brand:wikidata":"Q87263899","fhrs:id":"1126938","shop":"supermarket"}}, "geometry":{"type":"Point","coordinates":[-1.94037,52.44218 ]}},
{ "type":"Feature","properties":{"osm_id":"6055073419","name":"M&S Foodhall","other":{"addr:city":"Birmingham","addr:housenumber":"2-3","addr:postcode":"B29 6SQ","addr:street":"Aston Webb Boulevard","brand":"M&S Foodhall","brand:wikidata":"Q714491","brand:wikipedia":"en:Marks & Spencer","fhrs:id":"1150613","shop":"supermarket"}}, "geometry":{"type":"Point","coordinates":[-1.94089,52.4445 ]}},
{ "type":"Feature","properties":{"osm_id":"6135353166","other":{"emergency":"defibrillator","indoor":"no"}}, "geometry":{"type":"Point","coordinates":[-1.92883,52.41614 ]}},
{ "type":"Feature","properties":{"osm_id":"6135694512","name":"Heron Foods","other":{"addr:city":"Birmingham","addr:country":"GB","addr:housenumber":"26,28","addr:postcode":"B30 1JA","addr:street":"Watford Road","brand":"Heron Foods","brand:wikidata":"Q5743472","brand:wikipedia":"en:Heron Foods","contact:website":"https:\/\/heronfoods.com\/storelocator\/store-details\/cotteridge","fhrs:id":"604069","shop":"supermarket"}}, "geometry":{"type":"Point","coordinates":[-1.93037,52.41676 ]}},
{ "type":"Feature","properties":{"osm_id":"6816007325","name":"M&S Foodhall","other":{"brand":"M&S Foodhall","brand:wikidata":"Q714491","brand:wikipedia":"en:Marks & Spencer","shop":"supermarket"}}, "geometry":{"type":"Point","coordinates":[-1.78067,52.45128 ]}},
{ "type":"Feature","properties":{"osm_id":"7128143546","other":{"amenity":"clock","display":"analog","faces":"1","support":"wall_mounted","visibility":"area"}}, "geometry":{"type":"Point","coordinates":[-1.86506,52.47338 ]}},
{ "type":"Feature","properties":{"osm_id":"7226633365","name":"Chefline Ltd","other":{"addr:city":"Birmingham","addr:housename":"Chefline Ltd","addr:housenumber":"115","addr:postcode":"B21 9SD","addr:street":"Soho Road","opening_hours":"Mo-Fr 9:30-17:30","payment:american_express":"yes","payment:cash":"yes","payment:credit_cards":"yes","payment:debit_cards":"yes","payment:discover_card":"yes","payment:maestro":"yes","payment:mastercard":"yes","payment:visa":"yes","payment:visa_debit":"yes","shop":"supermarket"}}, "geometry":{"type":"Point","coordinates":[-1.92964,52.50222 ]}},
{ "type":"Feature","properties":{"osm_id":"7921575879","other":{"amenity":"parking_entrance","parking":"underground"}}, "geometry":{"type":"Point","coordinates":[-1.93952,52.44372 ]}},
{ "type":"Feature","properties":{"osm_id":"7921575882","other":{"amenity":"bicycle_parking","bicycle_parking":"stands","capacity":"28","covered":"yes"}}, "geometry":{"type":"Point","coordinates":[-1.93952,52.44313 ]}},
{ "type":"Feature","properties":{"osm_id":"7977105141","other":{"amenity":"parking_entrance","parking":"underground"}}, "geometry":{"type":"Point","coordinates":[-1.93929,52.44267 ]}},
{ "type":"Feature","properties":{"osm_id":"9034439513","name":"Bristol Street's Co-op","other":{"shop":"supermarket"}}, "geometry":{"type":"Point","coordinates":[-1.90163,52.46845 ]}},
{ "type":"Feature","properties":{"osm_id":"9127014492","name":"Nisa","other":{"addr:city":"Birmingham","addr:housenumber":"284-286","addr:postcode":"B23 7RT","addr:street":"Brookvale Road","operator":"Nisa Retail Limited","payment:cash":"yes","payment:credit_cards":"yes","payment:debit_cards":"yes","phone":"+44 121 356 8823","shop":"supermarket","website":"https:\/\/www.nisalocally.co.uk\/"}}, "geometry":{"type":"Point","coordinates":[-1.8733,52.52274 ]}},
{ "type":"Feature","properties":{"osm_id":"9127025184","name":"Spar","other":{"brand":"Spar","brand:wikidata":"Q610492","brand:wikipedia":"en:SPAR (retailer)","shop":"supermarket","website":"https:\/\/www.spar.co.uk\/"}}, "geometry":{"type":"Point","coordinates":[-1.86227,52.52501 ]}},
{ "type":"Feature","properties":{"osm_id":"9366242589","name":"Heron Foods","other":{"brand":"Heron Foods","brand:wikidata":"Q5743472","brand:wikipedia":"en:Heron Foods","opening_hours":"Mo-Sa 08:00-19:00; Su 10:00-17:00","shop":"supermarket"}}, "geometry":{"type":"Point","coordinates":[-1.9032,52.51786 ]}},
{ "type":"Feature","properties":{"osm_id":"9580812389","other":{"shop":"supermarket"}}, "geometry":{"type":"Point","coordinates":[-1.90138,52.5144 ]}},
{ "type":"Feature","properties":{"osm_id":"2912290","name":"Sainsbury's","type":"multipolygon","building":"retail","shop":"supermarket","other":{"brand":"Sainsbury's","brand:wikidata":"Q152096","brand:wikipedia":"en:Sainsbury's"}}, "geometry":{"type":"MultiPolygon","coordinates":[[[[-1.89358,52.43096],[-1.89359,52.43096],[-1.89362,52.43129],[-1.89393,52.43136],[-1.89402,52.43144],[-1.89381,52.43175],[-1.89361,52.43168],[-1.89342,52.43168],[-1.89318,52.43169],[-1.89311,52.43097],[-1.89325,52.43097],[-1.89358,52.43096 ]],[[ -1.89356,52.4315],[-1.89355,52.43135],[-1.8936,52.43135],[-1.89359,52.43126],[-1.89359,52.43123],[-1.89357,52.43098],[-1.89312,52.43099],[-1.89316,52.43141],[-1.89323,52.43141],[-1.89324,52.43152],[-1.89356,52.4315]]]]}},
{ "type":"Feature","properties":{"osm_way_id":"27158662","name":"Morrisons","building":"retail","shop":"supermarket","other":{"addr:city":"Birmingham","addr:housenumber":"4","addr:postcode":"B30 2YY","addr:street":"Hazelwell Street","brand":"Morrisons","brand:wikidata":"Q922344","brand:wikipedia":"en:Morrisons","building:levels":"1","fhrs:id":"598195","opening_hours":"Mo-Sa 07:00-22:00 Su 10:00-16:00","operator":"Wm Morrison Supermarkets plc","payment:cash":"yes","payment:credit_cards":"yes","payment:debit_cards":"yes","website":"https:\/\/my.morrisons.com\/storefinder\/658"}}, "geometry":{"type":"MultiPolygon","coordinates":[[[[-1.92207,52.43061],[-1.92158,52.43025],[-1.92239,52.42982],[-1.92274,52.43007],[-1.923,52.43026],[-1.92301,52.43027],[-1.92281,52.43038],[-1.92288,52.43042],[-1.92316,52.43039],[-1.92321,52.43055],[-1.92308,52.43057],[-1.92309,52.43059],[-1.92294,52.43061],[-1.92291,52.43051],[-1.92283,52.43045],[-1.92275,52.43041],[-1.92259,52.43049],[-1.92247,52.4304],[-1.92207,52.43061]]]]}},
{ "type":"Feature","properties":{"osm_way_id":"29998253","name":"Co-op Food","building":"yes","shop":"supermarket","other":{"addr:city":"Birmingham","addr:housenumber":"1","addr:postcode":"B3 2BJ","addr:street":"Colmore Row","brand":"Co-op Food","brand:wikidata":"Q3277439","brand:wikipedia":"en:Co-op Food","building:levels":"10","fhrs:id":"1126869","height":"32","operator":"The Co-operative Group","operator:wikidata":"Q117202","operator:wikipedia":"en:The Co-operative Group"}}, "geometry":{"type":"MultiPolygon","coordinates":[[[[-1.89777,52.48277],[-1.89763,52.48265],[-1.89748,52.48272],[-1.89762,52.48284],[-1.89777,52.48277]]]]}},
{ "type":"Feature","properties":{"osm_way_id":"31260897","name":"Morrisons","building":"supermarket","shop":"supermarket","other":{"addr:city":"Birmingham","addr:country":"GB","addr:housenumber":"1149","addr:postcode":"B27 6RA","addr:street":"Warwick Road","brand":"Morrisons","brand:wikidata":"Q922344","brand:wikipedia":"en:Morrisons","contact:facebook":"http:\/\/www.facebook.com\/morrisons","contact:phone":"+44 1212 062 734","contact:twitter":"@Morrisons","contact:website":"https:\/\/my.morrisons.com\/storefinder\/585","opening_hours":"Mo-Sa 07:00-22:00; Su 10:00-16:00","ref":"585"}}, "geometry":{"type":"MultiPolygon","coordinates":[[[[-1.82049,52.44608],[-1.82056,52.44602],[-1.82052,52.446],[-1.82089,52.44571],[-1.82034,52.44545],[-1.81984,52.44584],[-1.82003,52.44593],[-1.82005,52.44591],[-1.82011,52.44594],[-1.82014,52.44591],[-1.82049,52.44608]]]]}},
{ "type":"Feature","properties":{"osm_way_id":"31545364","name":"Lidl","building":"retail","shop":"supermarket","other":{"addr:city":"Birmingham","addr:country":"GB","addr:housename":"Lidl","addr:postcode":"B27 7RR","addr:street":"Olton Boulevard East","brand":"Lidl","brand:wikidata":"Q151954","brand:wikipedia":"en:Lidl","fhrs:id":"1387025","survey:date":"2021-06-23"}}, "geometry":{"type":"MultiPolygon","coordinates":[[[[-1.83421,52.4441],[-1.83416,52.44408],[-1.83386,52.44392],[-1.83367,52.44405],[-1.83373,52.44408],[-1.83337,52.44432],[-1.83355,52.44441],[-1.83351,52.44445],[-1.83362,52.44451],[-1.83421,52.4441]]]]}},
{ "type":"Feature","properties":{"osm_way_id":"38378223","name":"ALDI","building":"yes","shop":"supermarket","other":{"addr:city":"Birmingham","addr:housenumber":"637","addr:postcode":"B29 6AE","addr:street":"Bristol Road","brand":"ALDI","brand:wikidata":"Q41171672","brand:wikipedia":"en:Aldi","building:material":"brick","fhrs:id":"601114","wheelchair":"yes"}}, "geometry":{"type":"MultiPolygon","coordinates":[[[[-1.93537,52.44467],[-1.93522,52.4446],[-1.93573,52.44417],[-1.93606,52.44431],[-1.93589,52.44445],[-1.93595,52.44448],[-1.93582,52.44459],[-1.93575,52.44456],[-1.93562,52.44468],[-1.93554,52.44464],[-1.93546,52.44471],[-1.93537,52.44467]]]]}},
{ "type":"Feature","properties":{"osm_way_id":"54611079","name":"The Co-operative Food","building":"retail","shop":"supermarket","other":{"addr:housenumber":"679","addr:postcode":"B44 9RH","addr:street":"Kingstanding Road","brand":"The Co-operative Food","brand:wikidata":"Q107617274","operator":"Central England Co-operative"}}, "geometry":{"type":"MultiPolygon","coordinates":[[[[-1.88354,52.55434],[-1.88361,52.55418],[-1.88361,52.55417],[-1.88328,52.55413],[-1.88325,52.55416],[-1.88297,52.55413],[-1.88293,52.55426],[-1.88354,52.55434]]]]}},
{ "type":"Feature","properties":{"osm_way_id":"57935971","name":"Asda","building":"retail","shop":"supermarket","other":{"addr:city":"Birmingham","addr:country":"GB","addr:housenumber":"859","addr:postcode":"B10 0HH","addr:street":"Coventry Road","branch":"Small Heath","brand":"Asda","brand:wikidata":"Q297410","brand:wikipedia":"en:Asda","contact:facebook":"https:\/\/www.facebook.com\/asda\/","contact:phone":"+44 121 766 7374","contact:twitter":"@asda","contact:website":"http:\/\/storelocator.asda.com\/store\/small-heath","fhrs:id":"600879","opening_hours":"Mo 07:00-24:00; Tu-Fr 00:00-24:00; Sa 00:00-23:00; Su 09:30-16:00","operator":"Asda Stores Ltd","source:addr:postcode":"https:\/\/storelocator.asda.com\/west-midlands\/small-heath\/859-coventry-road"}}, "geometry":{"type":"MultiPolygon","coordinates":[[[[-1.84322,52.46408],[-1.84245,52.46445],[-1.84231,52.46435],[-1.84225,52.46438],[-1.8421,52.46427],[-1.84217,52.46424],[-1.84186,52.46401],[-1.84199,52.46394],[-1.8415,52.46357],[-1.84229,52.46318],[-1.84253,52.46336],[-1.84272,52.46327],[-1.84339,52.46377],[-1.84304,52.46394],[-1.84322,52.46408]]]]}},
{ "type":"Feature","properties":{"osm_way_id":"58069687","name":"Tesco","building":"retail","shop":"supermarket","other":{"brand":"Tesco","brand:wikidata":"Q487494","brand:wikipedia":"en:Tesco"}}, "geometry":{"type":"MultiPolygon","coordinates":[[[[-1.79043,52.45362],[-1.78977,52.45347],[-1.79005,52.45303],[-1.79041,52.45311],[-1.79059,52.45283],[-1.79105,52.45294],[-1.79083,52.45327],[-1.79068,52.45323],[-1.79043,52.45362]]]]}},
{ "type":"Feature","properties":{"osm_way_id":"58559939","name":"ALDI","building":"retail","shop":"supermarket","other":{"addr:city":"Sutton Coldfield","addr:housenumber":"101","addr:postcode":"B72 1PL","addr:street":"Parade","brand":"ALDI","brand:wikidata":"Q41171672","brand:wikipedia":"en:Aldi","fhrs:id":"602483","fhrs:local_authority_id":"PI\/000483196","opening_hours":"Mo-Sa 08:00-22:00; Su 11:00-17:00"}}, "geometry":{"type":"MultiPolygon","coordinates":[[[[-1.8241,52.56098],[-1.82415,52.56099],[-1.82422,52.56087],[-1.82459,52.56095],[-1.8246,52.56092],[-1.82473,52.56095],[-1.82482,52.56079],[-1.8243,52.56068],[-1.82429,52.5607],[-1.82404,52.56065],[-1.82394,52.56081],[-1.82398,52.56082],[-1.82397,52.56084],[-1.82398,52.56084],[-1.82396,52.56088],[-1.82407,52.5609],[-1.82403,52.56096],[-1.8241,52.56098]]]]}},
{ "type":"Feature","properties":{"osm_way_id":"58734767","name":"ALDI","building":"retail","shop":"supermarket","other":{"addr:city":"Birmingham","addr:postcode":"B26 3HP","addr:street":"New Coventry Road","brand":"ALDI","brand:wikidata":"Q41171672","brand:wikipedia":"en:Aldi"}}, "geometry":{"type":"MultiPolygon","coordinates":[[[[-1.79336,52.45501],[-1.79262,52.45527],[-1.79251,52.45515],[-1.79258,52.45513],[-1.79244,52.45499],[-1.79312,52.45475],[-1.79336,52.45501]]]]}},
{ "type":"Feature","properties":{"osm_way_id":"58780079","name":"Maini Discount Store","building":"retail","shop":"supermarket"},"geometry":{"type":"MultiPolygon","coordinates":[[[[-1.84131,52.44652],[-1.84123,52.44664],[-1.84114,52.44662],[-1.8411,52.44666],[-1.84095,52.44658],[-1.84098,52.44655],[-1.84085,52.44651],[-1.84091,52.44643],[-1.84131,52.44652]]]]}},
{ "type":"Feature","properties":{"osm_way_id":"59124184","name":"Asda","building":"retail","shop":"supermarket","other":{"addr:city":"Birmingham","addr:housenumber":"99-105","addr:postcode":"B14 7BW","addr:street":"High Street","brand":"Asda","brand:wikidata":"Q297410","brand:wikipedia":"en:Asda","contact:facebook":"https:\/\/www.facebook.com\/asda\/","contact:twitter":"@asda","contact:website":"https:\/\/storelocator.asda.com\/west-midlands\/birmingham\/99-high-street-kings-heath","fhrs:id":"947523","operator":"Asda Stores Ltd"}}, "geometry":{"type":"MultiPolygon","coordinates":[[[[-1.8926,52.43558],[-1.89245,52.43557],[-1.8923,52.43557],[-1.8923,52.43561],[-1.89176,52.4356],[-1.89176,52.43563],[-1.89163,52.43562],[-1.89167,52.43519],[-1.89204,52.4352],[-1.89214,52.43526],[-1.89255,52.43527],[-1.89262,52.4353],[-1.8926,52.43558]]]]}},
{ "type":"Feature","properties":{"osm_way_id":"60753170","name":"Aldi","building":"retail","shop":"supermarket","other":{"addr:city":"Birmingham","addr:postcode":"B11 1QS","addr:street":"Stratford Road","brand":"ALDI","brand:wikidata":"Q41171672","brand:wikipedia":"en:Aldi"}}, "geometry":{"type":"MultiPolygon","coordinates":[[[[-1.87275,52.4598],[-1.87243,52.45992],[-1.87206,52.45957],[-1.87238,52.45944],[-1.87275,52.4598]]]]}},
{ "type":"Feature","properties":{"osm_way_id":"60872151","name":"Waitrose","building":"retail","shop":"supermarket","other":{"addr:city":"Birmingham","addr:postcode":"B28 9EF","addr:street":"Stratford Road","brand":"Waitrose","brand:wikidata":"Q771734","brand:wikipedia":"en:Waitrose","official_name":"Waitrose & Partners","operator":"Waitrose & Partners"}}, "geometry":{"type":"MultiPolygon","coordinates":[[[[-1.84167,52.42816],[-1.84128,52.42823],[-1.84126,52.42819],[-1.84116,52.42821],[-1.84108,52.42805],[-1.84119,52.42803],[-1.84112,52.4279],[-1.84146,52.42784],[-1.84146,52.42782],[-1.84155,52.42781],[-1.84154,52.42778],[-1.84167,52.42776],[-1.84185,52.42812],[-1.84181,52.42813],[-1.84167,52.42816]]]]}},
{ "type":"Feature","properties":{"osm_way_id":"60872179","name":"Londis","building":"retail","shop":"supermarket","other":{"addr:city":"Birmingham","addr:housenumber":"366-368","addr:postcode":"B27 7NS","addr:street":"Shirley Road"}}, "geometry":{"type":"MultiPolygon","coordinates":[[[[-1.82998,52.4371],[-1.83014,52.437],[-1.83028,52.43709],[-1.83025,52.43711],[-1.83028,52.43714],[-1.83016,52.43721],[-1.83007,52.43715],[-1.82998,52.4371]]]]}},
{ "type":"Feature","properties":{"osm_way_id":"61586283","name":"The Food Warehouse by Iceland","building":"retail","shop":"supermarket","other":{"addr:city":"Birmingham","addr:postcode":"B33 9AN","addr:street":"Flaxley Parkway","brand":"The Food Warehouse","brand:wikidata":"Q87263899"}}, "geometry":{"type":"MultiPolygon","coordinates":[[[[-1.80718,52.4866],[-1.80767,52.4864],[-1.80749,52.48624],[-1.807,52.48644],[-1.80688,52.48649],[-1.80705,52.48665],[-1.80718,52.4866]]]]}},
{ "type":"Feature","properties":{"osm_way_id":"62267496","name":"Lidl","building":"yes","shop":"supermarket","other":{"addr:country":"GB","addr:postcode":"B9 5NA","addr:street":"Bordesley Green","brand":"Lidl","brand:wikidata":"Q151954","brand:wikipedia":"en:Lidl","fhrs:id":"601951"}}, "geometry":{"type":"MultiPolygon","coordinates":[[[[-1.84949,52.47849],[-1.84921,52.47854],[-1.8489,52.47788],[-1.84935,52.4778],[-1.84942,52.47795],[-1.84933,52.47797],[-1.84952,52.47836],[-1.84944,52.47838],[-1.84949,52.47849]]]]}},
{ "type":"Feature","properties":{"osm_way_id":"62267503","name":"Asda","building":"retail","shop":"supermarket","other":{"addr:city":"Birmingham","addr:country":"GB","addr:housenumber":"271","addr:postcode":"B9 5EY","addr:street":"Bordesley Green","brand":"Asda","brand:wikidata":"Q297410","brand:wikipedia":"en:Asda","contact:facebook":"https:\/\/www.facebook.com\/asda\/","contact:twitter":"@asda","contact:website":"https:\/\/storelocator.asda.com\/west-midlands\/birmingham\/271-bordesley-green","fhrs:id":"865321","operator":"Asda Stores Ltd"}}, "geometry":{"type":"MultiPolygon","coordinates":[[[[-1.84977,52.47731],[-1.8494,52.47738],[-1.84919,52.47699],[-1.84957,52.47692],[-1.84977,52.47731]]]]}},
{ "type":"Feature","properties":{"osm_way_id":"63108156","name":"Rai","building":"retail","shop":"supermarket","other":{"addr:city":"Birmingham","addr:postcode":"B11 4BP","addr:street":"Stratford Road"}}, "geometry":{"type":"MultiPolygon","coordinates":[[[[-1.8598,52.44733],[-1.85975,52.44734],[-1.85984,52.44754],[-1.85972,52.44756],[-1.85961,52.44733],[-1.8597,52.44731],[-1.85973,52.44731],[-1.85968,52.4472],[-1.85976,52.44719],[-1.86018,52.44712],[-1.86025,52.44725],[-1.8598,52.44733]]]]}},
{ "type":"Feature","properties":{"osm_way_id":"63108818","name":"Goldens","building":"yes","shop":"supermarket","other":{"addr:city":"Birmingham","addr:housenumber":"870","addr:postcode":"B11 4BS","addr:street":"Stratford Road"}}, "geometry":{"type":"MultiPolygon","coordinates":[[[[-1.85846,52.44445],[-1.85795,52.44455],[-1.85777,52.44419],[-1.85784,52.44417],[-1.85787,52.44414],[-1.85849,52.44443],[-1.85846,52.44445]]]]}},
{ "type":"Feature","properties":{"osm_way_id":"63621035","name":"Co-op Food","building":"retail","shop":"supermarket","other":{"brand":"Co-op Food","brand:wikidata":"Q3277439","brand:wikipedia":"en:Co-op Food","operator":"Central England Co-operative Society","previous_name":"The Gospel Oak","previous_use":"pub"}}, "geometry":{"type":"MultiPolygon","coordinates":[[[[-1.82523,52.42983],[-1.8252,52.42986],[-1.82528,52.4299],[-1.8252,52.42997],[-1.82486,52.42982],[-1.82482,52.42985],[-1.82475,52.42982],[-1.82479,52.42979],[-1.8246,52.42971],[-1.82469,52.42963],[-1.82477,52.42967],[-1.8248,52.42964],[-1.82523,52.42983]]]]}},
{ "type":"Feature","properties":{"osm_way_id":"67548859","name":"Sainsbury's","building":"retail","shop":"supermarket","other":{"addr:city":"Birmingham","addr:housenumber":"1059-1061","addr:postcode":"B14 5TN","addr:street":"Alcester Road South","brand":"Sainsbury's","brand:wikidata":"Q152096","brand:wikipedia":"en:Sainsbury's","fhrs:id":"598614","opening_hours":"Mo-Sa 08:00-20:00; Su 10:00-16:00","phone":"+44 121 474 3102","website":"https:\/\/stores.sainsburys.co.uk\/0545\/maypole","wheelchair":"yes"}}, "geometry":{"type":"MultiPolygon","coordinates":[[[[-1.88546,52.4046],[-1.88457,52.40461],[-1.88456,52.40464],[-1.8845,52.40463],[-1.88446,52.40461],[-1.88434,52.4046],[-1.8844,52.4044],[-1.88437,52.40433],[-1.8844,52.40416],[-1.88437,52.40415],[-1.88435,52.40414],[-1.88438,52.40413],[-1.88441,52.40413],[-1.88446,52.40399],[-1.88447,52.40395],[-1.88443,52.40392],[-1.88475,52.40379],[-1.88479,52.40383],[-1.88487,52.40378],[-1.88514,52.40378],[-1.88565,52.40391],[-1.88587,52.40397],[-1.88598,52.40403],[-1.88605,52.40409],[-1.88608,52.40416],[-1.88605,52.40424],[-1.88618,52.40434],[-1.88611,52.40437],[-1.88613,52.40442],[-1.8861,52.40447],[-1.88604,52.4045],[-1.88597,52.40451],[-1.88591,52.40451],[-1.88587,52.40452],[-1.88587,52.40454],[-1.88587,52.40455],[-1.88584,52.40455],[-1.88581,52.40454],[-1.88565,52.40458],[-1.88552,52.40464],[-1.88546,52.4046]]]]}},
{ "type":"Feature","properties":{"osm_way_id":"68634228","name":"East & West","building":"retail","shop":"supermarket"},"geometry":{"type":"MultiPolygon","coordinates":[[[[-1.86025,52.44609],[-1.86015,52.44588],[-1.86022,52.44587],[-1.86018,52.44579],[-1.86035,52.44577],[-1.86048,52.44605],[-1.8603,52.44608],[-1.86025,52.44609]]]]}},
{ "type":"Feature","properties":{"osm_way_id":"68634273","name":"Halal Supermarket","building":"retail","shop":"supermarket","other":{"addr:city":"Birmingham","addr:housenumber":"753-770","addr:postcode":"B11 4DG","addr:street":"Stratford Road"}}, "geometry":{"type":"MultiPolygon","coordinates":[[[[-1.86014,52.44521],[-1.85993,52.44525],[-1.85991,52.44521],[-1.85974,52.44524],[-1.85964,52.44502],[-1.86002,52.44496],[-1.86014,52.44521]]]]}},
{ "type":"Feature","properties":{"osm_way_id":"69853342","name":"Kashmir Supermarket","building":"retail","shop":"supermarket","other":{"addr:city":"Birmingham","addr:housenumber":"132;134","addr:postcode":"B12 8AQ","addr:street":"Stoney Lane"}}, "geometry":{"type":"MultiPolygon","coordinates":[[[[-1.87353,52.45486],[-1.87354,52.45494],[-1.87328,52.45495],[-1.87326,52.45488],[-1.87353,52.45486]]]]}},
{ "type":"Feature","properties":{"osm_way_id":"70135561","name":"Halal Supermarket","building":"yes","shop":"supermarket","other":{"addr:city":"Birmingham","addr:housenumber":"243-245","addr:postcode":"B11 1QT","addr:street":"Stratford Road"}}, "geometry":{"type":"MultiPolygon","coordinates":[[[[-1.87391,52.46071],[-1.87341,52.46091],[-1.87327,52.46077],[-1.87377,52.46058],[-1.87391,52.46071]]]]}},
{ "type":"Feature","properties":{"osm_way_id":"71336724","name":"The Co-operative Food","building":"yes","shop":"supermarket"},"geometry":{"type":"MultiPolygon","coordinates":[[[[-1.86976,52.41488],[-1.86928,52.41486],[-1.86931,52.41462],[-1.86979,52.41464],[-1.86976,52.41488]]]]}},
{ "type":"Feature","properties":{"osm_way_id":"72175792","name":"ALDI","building":"retail","shop":"supermarket","other":{"brand":"ALDI","brand:wikidata":"Q41171672","brand:wikipedia":"en:Aldi","generator:method":"photovoltaic","generator:output:electricity":"yes","generator:source":"solar","generator:type":"solar_photovoltaic_panel","location":"roof","power":"generator"}}, "geometry":{"type":"MultiPolygon","coordinates":[[[[-1.82353,52.47954],[-1.8232,52.47945],[-1.82344,52.47912],[-1.82321,52.47906],[-1.82325,52.479],[-1.8238,52.47913],[-1.82353,52.47954]]]]}},
{ "type":"Feature","properties":{"osm_way_id":"72357002","name":"Asda","building":"retail","shop":"supermarket","other":{"addr:city":"Birmingham","addr:country":"GB","addr:housenumber":"6","addr:postcode":"B43 7HA","addr:street":"Old Horns Crescent","brand":"Asda","brand:wikidata":"Q297410","brand:wikipedia":"en:Asda","building:levels":"2","contact:facebook":"https:\/\/www.facebook.com\/asda\/","contact:twitter":"@asda","contact:website":"https:\/\/storelocator.asda.com\/west-midlands\/birmingham\/6-old-horns-crescent","fhrs:id":"601234;603070","opening_hours":"24\/7","operator":"Asda Stores Ltd","roof:shape":"flat","wheelchair":"yes"}}, "geometry":{"type":"MultiPolygon","coordinates":[[[[-1.91085,52.55133],[-1.91028,52.55178],[-1.91022,52.55174],[-1.90997,52.55161],[-1.90983,52.55169],[-1.90947,52.55151],[-1.90933,52.55145],[-1.90923,52.5514],[-1.90896,52.55126],[-1.90942,52.55092],[-1.90974,52.55072],[-1.90992,52.55072],[-1.91037,52.55095],[-1.91043,52.55092],[-1.91048,52.55093],[-1.91051,52.55091],[-1.91033,52.55082],[-1.91036,52.5508],[-1.91053,52.55089],[-1.91061,52.55083],[-1.91077,52.55091],[-1.91078,52.55096],[-1.9108,52.55106],[-1.91073,52.55113],[-1.91083,52.55117],[-1.91085,52.55133]]]]}},
{ "type":"Feature","properties":{"osm_way_id":"73030550","name":"Morrisons","building":"retail","shop":"supermarket","other":{"addr:city":"Birmingham","addr:postcode":"B10 0XA","addr:street":"Coventry Road","brand":"Morrisons","brand:wikidata":"Q922344","brand:wikipedia":"en:Morrisons"}}, "geometry":{"type":"MultiPolygon","coordinates":[[[[-1.86543,52.47404],[-1.86434,52.47432],[-1.86432,52.47428],[-1.8642,52.47431],[-1.86417,52.47427],[-1.86405,52.4743],[-1.86402,52.47426],[-1.86386,52.4743],[-1.86374,52.47414],[-1.86389,52.4741],[-1.86379,52.47395],[-1.86401,52.47389],[-1.86396,52.47381],[-1.86404,52.47379],[-1.8642,52.47375],[-1.86411,52.47362],[-1.86475,52.47346],[-1.86472,52.47342],[-1.86503,52.47334],[-1.86506,52.47338],[-1.86507,52.4734],[-1.86515,52.47352],[-1.86509,52.47354],[-1.86543,52.47404]]]]}},
{ "type":"Feature","properties":{"osm_way_id":"76243997","name":"ALDI","building":"retail","shop":"supermarket","other":{"addr:city":"Birmingham","addr:postcode":"B14 5JE","addr:street":"Alcester Road South","brand":"ALDI","brand:wikidata":"Q41171672","brand:wikipedia":"en:Aldi","fhrs:id":"601776","opening_hours":"Mo 08:00-20:00; Tu-Sa 08:00-22:00; Su 10:00-16:00","website":"https:\/\/www.aldi.co.uk\/store\/s-uk-E0512","wheelchair":"yes"}}, "geometry":{"type":"MultiPolygon","coordinates":[[[[-1.88681,52.40544],[-1.88669,52.40546],[-1.88598,52.40565],[-1.88584,52.40548],[-1.886,52.40544],[-1.88597,52.4054],[-1.88663,52.40521],[-1.88681,52.40544]]]]}},
{ "type":"Feature","properties":{"osm_way_id":"76914376","name":"Lidl","building":"yes","shop":"supermarket","other":{"addr:city":"Birmingham","addr:housenumber":"167-193","addr:postcode":"B18 7QY","addr:street":"Dudley Road","brand":"Lidl","brand:wikidata":"Q151954","brand:wikipedia":"en:Lidl","fhrs:id":"601950","source:addr":"FHRS Open Data"}}, "geometry":{"type":"MultiPolygon","coordinates":[[[[-1.93655,52.48733],[-1.93615,52.48733],[-1.93615,52.48705],[-1.93607,52.48705],[-1.93607,52.48675],[-1.93663,52.48675],[-1.93663,52.48678],[-1.93663,52.4871],[-1.93655,52.4871],[-1.93655,52.48733]]]]}},
{ "type":"Feature","properties":{"osm_way_id":"77069756","name":"FB Supermarket","building":"yes","shop":"supermarket","other":{"addr:city":"Birmingham","addr:postcode":"B19 2TN","addr:street":"Lozells Road","heritage":"6","heritage:operator":"Birmingham City Council","listed_status":"local_grade_A"}}, "geometry":{"type":"MultiPolygon","coordinates":[[[[-1.90061,52.50289],[-1.90061,52.50268],[-1.9005,52.50268],[-1.9004,52.50267],[-1.90039,52.50289],[-1.90061,52.50289]]]]}},
{ "type":"Feature","properties":{"osm_way_id":"77893122","name":"Green Halal Supermarket","building":"yes","shop":"supermarket"},"geometry":{"type":"MultiPolygon","coordinates":[[[[-1.84657,52.49595],[-1.84636,52.49596],[-1.84619,52.49597],[-1.84609,52.49602],[-1.846,52.49603],[-1.8459,52.49602],[-1.84582,52.49595],[-1.84578,52.49582],[-1.84584,52.4958],[-1.84577,52.49566],[-1.84562,52.49571],[-1.84559,52.49567],[-1.84551,52.49569],[-1.84533,52.49554],[-1.84537,52.49552],[-1.84536,52.4955],[-1.84568,52.49538],[-1.84599,52.49503],[-1.84628,52.4952],[-1.84639,52.49551],[-1.84652,52.49583],[-1.84657,52.49595]]]]}},
{ "type":"Feature","properties":{"osm_way_id":"79636938","name":"Al-Halal Supermarket","building":"retail","shop":"supermarket","other":{"addr:city":"Birmingham","addr:housenumber":"360","addr:postcode":"B10 0XE","addr:street":"Coventry Road"}}, "geometry":{"type":"MultiPolygon","coordinates":[[[[-1.86334,52.47178],[-1.86357,52.47186],[-1.86307,52.47232],[-1.86298,52.47229],[-1.86294,52.47233],[-1.86283,52.47229],[-1.86287,52.47224],[-1.86273,52.47218],[-1.86277,52.47213],[-1.86295,52.47197],[-1.86296,52.47195],[-1.86302,52.47198],[-1.86309,52.47201],[-1.86328,52.47184],[-1.86334,52.47178]]]]}},
{ "type":"Feature","properties":{"osm_way_id":"80261941","name":"Co-operative","building":"retail","shop":"supermarket","other":{"addr:city":"Birmingham","addr:housenumber":"218A","addr:postcode":"B13 0AW","addr:street":"Swanshurst Lane"}}, "geometry":{"type":"MultiPolygon","coordinates":[[[[-1.85788,52.4338],[-1.8581,52.43391],[-1.85804,52.43396],[-1.85787,52.43394],[-1.85772,52.43391],[-1.85788,52.4338]]]]}},
{ "type":"Feature","properties":{"osm_way_id":"81170222","name":"Aziz Supermarket","building":"yes","shop":"supermarket","other":{"addr:city":"Birmingham","addr:postcode":"B12 9PS","addr:street":"Hallam Street"}}, "geometry":{"type":"MultiPolygon","coordinates":[[[[-1.89459,52.45694],[-1.89422,52.4569],[-1.89427,52.45672],[-1.89448,52.45679],[-1.89461,52.45684],[-1.89476,52.4569],[-1.89483,52.45693],[-1.89483,52.45696],[-1.89464,52.45694],[-1.89459,52.45694]]]]}},
{ "type":"Feature","properties":{"osm_way_id":"81580616","name":"Tesco Extra","amenity":"pharmacy","building":"supermarket","shop":"supermarket","other":{"addr:city":"Sutton Coldfield","addr:housenumber":"11","addr:postcode":"B73 6RB","addr:street":"Princess Alice Drive","brand":"Tesco Extra","brand:wikidata":"Q25172225","brand:wikipedia":"en:Tesco Extra","contact:website":"https:\/\/www.tesco.com\/store-locator\/sutton-coldfield\/11-princess-alice-dr","dispensing":"yes","fhrs:authority":"Birmingham","fhrs:id":"602243","fhrs:local_authority_id":"PI\/000478726","opening_hours":"Mo-Sa 00:00-24:00; Su 10:00-16:00","opening_hours:url":"https:\/\/www.tesco.com\/store-locator\/sutton-coldfield\/11-princess-alice-dr","wheelchair":"yes"}}, "geometry":{"type":"MultiPolygon","coordinates":[[[[-1.85882,52.54968],[-1.85896,52.54966],[-1.85906,52.54957],[-1.85889,52.54908],[-1.8586,52.54912],[-1.85856,52.54912],[-1.85855,52.54908],[-1.85823,52.54912],[-1.85824,52.54916],[-1.85813,52.54917],[-1.85815,52.54922],[-1.858,52.54924],[-1.8574,52.54931],[-1.85736,52.54932],[-1.85768,52.55023],[-1.85831,52.55015],[-1.8583,52.55011],[-1.85821,52.55012],[-1.8582,52.5501],[-1.85799,52.55012],[-1.85794,52.54997],[-1.85847,52.5499],[-1.85846,52.54985],[-1.85851,52.54984],[-1.85852,52.54987],[-1.85865,52.54986],[-1.85862,52.54977],[-1.85884,52.54975],[-1.85882,52.54968]]]]}},
{ "type":"Feature","properties":{"osm_way_id":"81631003","name":"Lidl","building":"yes","shop":"supermarket","other":{"addr:city":"Sutton Coldfield","addr:country":"GB","addr:housenumber":"33","addr:postcode":"B73 5AB","addr:street":"Kings Road","brand":"Lidl","brand:wikidata":"Q151954","brand:wikipedia":"en:Lidl","fhrs:id":"1007316","operator":"Lidl Uk Gmbh","start_date":"2007-10","survey:date":"2020-03-01"}}, "geometry":{"type":"MultiPolygon","coordinates":[[[[-1.86068,52.54837],[-1.86077,52.5482],[-1.86086,52.54822],[-1.86106,52.54783],[-1.86149,52.54792],[-1.86119,52.54847],[-1.86068,52.54837]]]]}},
{ "type":"Feature","properties":{"osm_way_id":"82106187","name":"Tesco","building":"retail","shop":"supermarket","other":{"addr:city":"Birmingham","addr:housenumber":"278-299","addr:postcode":"B6 6QR","addr:street":"Aston Road","brand":"Tesco","brand:wikidata":"Q487494","brand:wikipedia":"en:Tesco","building:levels":"1","opening_hours":"Mo-Sa 06:00-24:00, Su 11:00-17:00","roof:shape":"flat"}}, "geometry":{"type":"MultiPolygon","coordinates":[[[[-1.88821,52.51271],[-1.8869,52.51226],[-1.88682,52.51236],[-1.88651,52.51249],[-1.8864,52.51256],[-1.88626,52.51274],[-1.88615,52.51272],[-1.88606,52.51282],[-1.88669,52.51304],[-1.88679,52.51293],[-1.88757,52.51322],[-1.88798,52.51279],[-1.88821,52.51271]]]]}},
{ "type":"Feature","properties":{"osm_way_id":"82450375","name":"The Co-operative Food","building":"yes","shop":"supermarket","other":{"addr:housenumber":"1-3","addr:postcode":"B15 2LJ","addr:street":"Templefield Square","brand":"The Co-operative Food","brand:wikidata":"Q107617274","brand:wikipedia":"en:Co-op Food","fhrs:id":"734427","operator":"The Co-operative Group","operator:wikidata":"Q117202","operator:wikipedia":"en:The Co-operative Group"}}, "geometry":{"type":"MultiPolygon","coordinates":[[[[-1.91422,52.4656],[-1.91414,52.46559],[-1.91414,52.46554],[-1.91385,52.46552],[-1.91386,52.46542],[-1.91424,52.46544],[-1.91422,52.4656]]]]}},
{ "type":"Feature","properties":{"osm_way_id":"83076057","name":"Al Halal Supermarket","building":"retail","shop":"supermarket","other":{"addr:city":"Birmingham","addr:housenumber":"7-13","addr:postcode":"B8 1LL","addr:street":"Alum Rock Road"}}, "geometry":{"type":"MultiPolygon","coordinates":[[[[-1.85898,52.49144],[-1.8586,52.49131],[-1.85882,52.49107],[-1.8592,52.4912],[-1.85898,52.49144]]]]}},
{ "type":"Feature","properties":{"osm_way_id":"84544546","name":"Wayco Supermarket","building":"supermarket","shop":"supermarket","other":{"addr:city":"Birmingham","addr:postcode":"B21 9BH","addr:street":"Soho Road","fhrs:id":"604878"}}, "geometry":{"type":"MultiPolygon","coordinates":[[[[-1.92624,52.50202],[-1.92602,52.50197],[-1.92613,52.50178],[-1.92616,52.50177],[-1.92636,52.50182],[-1.92624,52.50202]]]]}},
{ "type":"Feature","properties":{"osm_way_id":"85255912","name":"Waitrose","building":"retail","shop":"supermarket","other":{"brand":"Waitrose","brand:wikidata":"Q771734","brand:wikipedia":"en:Waitrose","official_name":"Waitrose & Partners","operator":"Waitrose & Partners","wheelchair":"yes"}}, "geometry":{"type":"MultiPolygon","coordinates":[[[[-1.95021,52.45823],[-1.94993,52.45833],[-1.94966,52.45843],[-1.94962,52.45838],[-1.94955,52.4583],[-1.9495,52.45832],[-1.94918,52.45802],[-1.9494,52.45797],[-1.94943,52.45799],[-1.94988,52.45785],[-1.94991,52.45785],[-1.94995,52.45788],[-1.94989,52.45791],[-1.95021,52.45823]]]]}},
{ "type":"Feature","properties":{"osm_way_id":"85403892","name":"Co-op Food","building":"retail","shop":"supermarket","other":{"addr:city":"Birmingham","addr:postcode":"B26 3YH","addr:street":"Church Road","brand":"Co-op Food","brand:wikidata":"Q3277439","brand:wikipedia":"en:Co-op Food"}}, "geometry":{"type":"MultiPolygon","coordinates":[[[[-1.77667,52.46348],[-1.7769,52.46347],[-1.77691,52.46361],[-1.77677,52.46365],[-1.77677,52.46369],[-1.77666,52.46373],[-1.77663,52.46374],[-1.77663,52.46371],[-1.77654,52.46371],[-1.77649,52.46371],[-1.77647,52.46349],[-1.77667,52.46348]]]]}},
{ "type":"Feature","properties":{"osm_way_id":"92723658","name":"Morrisons","building":"supermarket","shop":"supermarket","other":{"addr:city":"Darlington","addr:postcode":"DL1 4PJ","addr:street":"Morton Park","brand":"Morrisons","brand:wikidata":"Q922344","brand:wikipedia":"en:Morrisons","building:levels":"1","building:roof:shape":"flat","building:use":"shop","fhrs:id":"318579","operator":"Morrisons"}}, "geometry":{"type":"MultiPolygon","coordinates":[[[[-1.50148,54.52011],[-1.50213,54.52055],[-1.50207,54.52092],[-1.50134,54.52088],[-1.50132,54.521],[-1.49999,54.52093],[-1.50001,54.52084],[-1.49973,54.52083],[-1.49976,54.52065],[-1.49953,54.52064],[-1.49957,54.52041],[-1.50007,54.52044],[-1.50009,54.52034],[-1.50031,54.52035],[-1.50033,54.52023],[-1.50113,54.52028],[-1.50148,54.52011]]]]}},
{ "type":"Feature","properties":{"osm_way_id":"93886391","name":"Lidl","building":"retail","shop":"supermarket","other":{"addr:city":"Birmingham","addr:country":"GB","addr:housenumber":"640-644","addr:postcode":"B24 9PJ","addr:street":"Kingsbury Road","addr:suburb":"Tyburn","brand":"Lidl","brand:wikidata":"Q151954","brand:wikipedia":"en:Lidl","fhrs:id":"1358812"}}, "geometry":{"type":"MultiPolygon","coordinates":[[[[-1.82044,52.51766],[-1.82028,52.51768],[-1.82026,52.51763],[-1.81996,52.51767],[-1.81995,52.51764],[-1.81985,52.51732],[-1.81967,52.51734],[-1.81963,52.51719],[-1.82027,52.51711],[-1.82044,52.51766]]]]}},
{ "type":"Feature","properties":{"osm_way_id":"95535461","name":"The Co-operative Food","building":"yes","shop":"supermarket","other":{"old_name":"Somerfield","operator":"The Co-operative Group"}}, "geometry":{"type":"MultiPolygon","coordinates":[[[[-1.93323,52.51353],[-1.93282,52.51355],[-1.9328,52.51343],[-1.93322,52.51341],[-1.93323,52.51353]]]]}},
{ "type":"Feature","properties":{"osm_way_id":"95611904","name":"Sainsbury's","building":"yes","shop":"supermarket","other":{"addr:city":"Birmingham","addr:postcode":"B31 5AA","addr:street":"Frankley Beeches Road","addr:suburb":"Northfield","brand":"Sainsbury's","brand:wikidata":"Q152096","brand:wikipedia":"en:Sainsbury's","opening_hours":"Mo-Fr 08:00-22:00; Sa 07:30-22:00; Su 10:00-16:00","phone":"+44 121 476 9133"}}, "geometry":{"type":"MultiPolygon","coordinates":[[[[-1.97512,52.41284],[-1.97481,52.41295],[-1.97472,52.41297],[-1.97471,52.41301],[-1.97466,52.41305],[-1.97462,52.41308],[-1.97454,52.4131],[-1.97457,52.41312],[-1.9744,52.41315],[-1.97437,52.41314],[-1.97436,52.41311],[-1.97438,52.41309],[-1.97437,52.41307],[-1.97411,52.41281],[-1.97403,52.4128],[-1.97396,52.41278],[-1.97385,52.41274],[-1.97376,52.4127],[-1.97371,52.41265],[-1.97368,52.41261],[-1.97367,52.41257],[-1.97373,52.41258],[-1.97373,52.41251],[-1.97379,52.41245],[-1.97385,52.41243],[-1.97399,52.41238],[-1.97396,52.41235],[-1.9742,52.41227],[-1.97434,52.41225],[-1.9745,52.41224],[-1.97474,52.41224],[-1.97477,52.41227],[-1.97464,52.41232],[-1.97491,52.41261],[-1.97513,52.41254],[-1.9752,52.41271],[-1.97511,52.41272],[-1.97508,52.41268],[-1.97505,52.41269],[-1.97508,52.41272],[-1.97503,52.41273],[-1.97511,52.41282],[-1.97512,52.41284]]]]}},
{ "type":"Feature","properties":{"osm_way_id":"97366713","name":"ALDI","building":"retail","shop":"supermarket","other":{"addr:city":"Birmingham","addr:housename":"Aldi","addr:postcode":"B27 6RH","addr:street":"Warwick Road","brand":"ALDI","brand:wikidata":"Q41171672","brand:wikipedia":"en:Aldi"}}, "geometry":{"type":"MultiPolygon","coordinates":[[[[-1.817,52.44474],[-1.81676,52.44489],[-1.81648,52.44473],[-1.81683,52.4445],[-1.81676,52.44447],[-1.81687,52.44439],[-1.81693,52.44443],[-1.81722,52.44459],[-1.817,52.44474]]]]}},
{ "type":"Feature","properties":{"osm_way_id":"97595108","name":"The Co-operative Food","building":"retail","shop":"supermarket","other":{"addr:housenumber":"441-447","addr:postcode":"B72 1AX","addr:street":"Birmingham Road","operator":"Central England Co-operative"}}, "geometry":{"type":"MultiPolygon","coordinates":[[[[-1.82719,52.53508],[-1.82714,52.53522],[-1.82694,52.5352],[-1.82671,52.53517],[-1.82675,52.53503],[-1.82681,52.53504],[-1.82719,52.53508]]]]}},
{ "type":"Feature","properties":{"osm_way_id":"98290974","name":"Bal's","building":"retail","shop":"supermarket","other":{"addr:city":"Birmingham","addr:housenumber":"18-22","addr:postcode":"B27 7RS","addr:street":"Shaftmoor Lane"}}, "geometry":{"type":"MultiPolygon","coordinates":[[[[-1.8355,52.44408],[-1.83563,52.44419],[-1.83543,52.44428],[-1.83528,52.44416],[-1.83515,52.44405],[-1.83536,52.44396],[-1.8355,52.44408]]]]}},
{ "type":"Feature","properties":{"osm_way_id":"98603762","name":"Sheldon Supermarket Londis","building":"retail","shop":"supermarket","other":{"addr:city":"Birmingham","addr:housenumber":"236","addr:postcode":"B26 2RL","addr:street":"Barrows Lane"}}, "geometry":{"type":"MultiPolygon","coordinates":[[[[-1.79598,52.46528],[-1.79582,52.46541],[-1.79565,52.46534],[-1.79581,52.46521],[-1.79598,52.46528]]]]}},
{ "type":"Feature","properties":{"osm_way_id":"99808206","name":"Lidl","building":"retail","shop":"supermarket","other":{"addr:postcode":"B21 9SF","addr:street":"Soho Road","brand":"Lidl","brand:wikidata":"Q151954","brand:wikipedia":"en:Lidl","fhrs:id":"602366"}}, "geometry":{"type":"MultiPolygon","coordinates":[[[[-1.94204,52.50424],[-1.94146,52.5042],[-1.94153,52.50377],[-1.94177,52.50378],[-1.94179,52.50369],[-1.94213,52.50371],[-1.94204,52.50424]]]]}},
{ "type":"Feature","properties":{"osm_way_id":"100620805","name":"Tesco Metro","building":"retail","shop":"supermarket","other":{"addr:city":"Birmingham","addr:housenumber":"43-49","addr:postcode":"B2 5BG","addr:street":"New Street","brand":"Tesco Metro","brand:wikidata":"Q57551648","building:levels":"8","height":"38","level":"0;1","opening_hours":"Mo-Sa 06:00-22:00; Su 12:00-18:00","payment:cash":"yes","payment:mastercard":"yes","payment:visa":"yes","phone":"+44 345 6779850","source:height":"emuanalytics","website":"https:\/\/www.tesco.com\/store-locator\/birmingham\/caxton-gate","wheelchair":"yes"}}, "geometry":{"type":"MultiPolygon","coordinates":[[[[-1.89891,52.47952],[-1.89899,52.47925],[-1.89939,52.47929],[-1.89938,52.47935],[-1.89931,52.47956],[-1.89907,52.47953],[-1.89891,52.47952]]]]}},
{ "type":"Feature","properties":{"osm_way_id":"101211748","name":"Morrisons","building":"yes","shop":"supermarket","other":{"brand":"Morrisons","brand:wikidata":"Q922344","brand:wikipedia":"en:Morrisons"}}, "geometry":{"type":"MultiPolygon","coordinates":[[[[-1.76345,52.50059],[-1.76253,52.50049],[-1.76232,52.50047],[-1.76236,52.50036],[-1.76248,52.49991],[-1.76252,52.49977],[-1.7635,52.49987],[-1.76347,52.49997],[-1.76344,52.50008],[-1.76355,52.50009],[-1.76344,52.50047],[-1.76348,52.50048],[-1.76345,52.50059]]]]}},
{ "type":"Feature","properties":{"osm_way_id":"101216515","name":"Asda","building":"retail","shop":"supermarket","other":{"addr:city":"Birmingham","addr:country":"GB","addr:housenumber":"105","addr:postcode":"B33 8LF","addr:street":"Kelynmead Road","brand":"Asda","brand:wikidata":"Q297410","brand:wikipedia":"en:Asda","contact:facebook":"https:\/\/www.facebook.com\/asda\/","contact:twitter":"@asda","contact:website":"https:\/\/storelocator.asda.com\/west-midlands\/birmingham\/105-kelynmead-road-sheldon","old_name":"Netto","operator":"Asda Stores Ltd"}}, "geometry":{"type":"MultiPolygon","coordinates":[[[[-1.79091,52.47782],[-1.79055,52.47784],[-1.7905,52.47746],[-1.79093,52.47743],[-1.79095,52.47757],[-1.79088,52.47758],[-1.79091,52.47782]]]]}},
{ "type":"Feature","properties":{"osm_way_id":"101959833","name":"Baldwins Supermarket","building":"retail","shop":"supermarket","other":{"addr:city":"Birmingham","addr:country":"GB","addr:housenumber":"247-251","addr:postcode":"B28 0XA","addr:street":"Baldwins Lane","fhrs:id":"997259"}}, "geometry":{"type":"MultiPolygon","coordinates":[[[[-1.84501,52.41481],[-1.84477,52.41481],[-1.84476,52.41469],[-1.84473,52.41444],[-1.84506,52.41444],[-1.84501,52.41481]]]]}},
{ "type":"Feature","properties":{"osm_way_id":"102868821","name":"The Co-operative Food","building":"yes","shop":"supermarket","other":{"operator":"Central England Co-operative"}}, "geometry":{"type":"MultiPolygon","coordinates":[[[[-1.83711,52.52553],[-1.83708,52.52558],[-1.83695,52.52554],[-1.83678,52.52547],[-1.83671,52.52544],[-1.8368,52.52534],[-1.83644,52.52507],[-1.83619,52.52501],[-1.83639,52.52491],[-1.83654,52.525],[-1.83663,52.52496],[-1.837,52.52479],[-1.83707,52.52482],[-1.83711,52.5248],[-1.83718,52.52486],[-1.83727,52.52481],[-1.83734,52.52484],[-1.83758,52.52495],[-1.8374,52.5251],[-1.83745,52.52513],[-1.83711,52.52553]]]]}},
{ "type":"Feature","properties":{"osm_way_id":"103554464","name":"The Co-operative Food","building":"retail","shop":"supermarket","other":{"addr:city":"Sutton Coldfield","addr:housenumber":"4","addr:postcode":"B76 1NQ","addr:street":"Walmley Close","fhrs:id":"602611","operator":"Central England Co-operative"}}, "geometry":{"type":"MultiPolygon","coordinates":[[[[-1.8007,52.54],[-1.80069,52.54008],[-1.80092,52.54008],[-1.80115,52.54009],[-1.80116,52.54001],[-1.80098,52.54001],[-1.80087,52.54001],[-1.8007,52.54]]]]}},
{ "type":"Feature","properties":{"osm_way_id":"104286813","name":"Lidl","landuse":"retail","shop":"supermarket","other":{"addr:country":"GB","addr:housenumber":"317","addr:postcode":"B33 0NG","addr:street":"Mackadown Lane","brand":"Lidl","brand:wikidata":"Q151954","brand:wikipedia":"en:Lidl","fhrs:id":"601171"}}, "geometry":{"type":"MultiPolygon","coordinates":[[[[-1.7731,52.4804],[-1.77159,52.48073],[-1.77134,52.48023],[-1.7714,52.48018],[-1.77183,52.47983],[-1.77308,52.48033],[-1.7731,52.4804]]]]}},
{ "type":"Feature","properties":{"osm_way_id":"106570568","name":"The Co-operative Food","building":"retail","shop":"supermarket","other":{"operator":"Central England Co-operative Society"}}, "geometry":{"type":"MultiPolygon","coordinates":[[[[-1.92912,52.41609],[-1.92883,52.41614],[-1.92878,52.41615],[-1.92862,52.41582],[-1.92895,52.41576],[-1.92912,52.41609]]]]}},
{ "type":"Feature","properties":{"osm_way_id":"106737284","name":"Co-op Food","building":"yes","shop":"supermarket","other":{"addr:city":"Birmingham","addr:housenumber":"52;54","addr:postcode":"B13 8PQ","addr:street":"Dad's Lane","brand":"Co-op Food","brand:wikidata":"Q3277439","brand:wikipedia":"en:Co-op Food","operator":"Central England Co-operative Society"}}, "geometry":{"type":"MultiPolygon","coordinates":[[[[-1.9084,52.43709],[-1.9083,52.43721],[-1.90813,52.43716],[-1.90823,52.43704],[-1.90829,52.43697],[-1.90846,52.43703],[-1.9084,52.43709]]]]}},
{ "type":"Feature","properties":{"osm_way_id":"106808229","name":"ALDI","building":"retail","shop":"supermarket","other":{"addr:city":"Birmingham","addr:postcode":"B5 7QS","addr:street":"Edgbaston Road","brand":"ALDI","brand:wikidata":"Q41171672","brand:wikipedia":"en:Aldi"}}, "geometry":{"type":"MultiPolygon","coordinates":[[[[-1.90587,52.45495],[-1.90503,52.45485],[-1.90509,52.45462],[-1.90586,52.45471],[-1.90594,52.45472],[-1.90587,52.45495]]]]}},
{ "type":"Feature","properties":{"osm_way_id":"114939177","name":"Tesco Extra","building":"retail","shop":"supermarket","other":{"addr:city":"Exeter","addr:housename":"Exeter Vale Shopping Centre","addr:postcode":"EX2 7EZ","addr:street":"Russell Way","alt_name":"Tesco Exeter Vale Extra","brand":"Tesco Extra","brand:wikidata":"Q25172225","brand:wikipedia":"en:Tesco Extra","fhrs:id":"167716","opening_hours":"Mo-Sa 06:00- 24:00; Su 10:00-16:00"}}, "geometry":{"type":"MultiPolygon","coordinates":[[[[-3.48256,50.70904],[-3.48158,50.70858],[-3.48203,50.70821],[-3.48167,50.70807],[-3.48175,50.708],[-3.48252,50.70796],[-3.48254,50.70807],[-3.48295,50.70828],[-3.48314,50.70813],[-3.48333,50.70822],[-3.48326,50.70827],[-3.48336,50.70832],[-3.48323,50.70842],[-3.48334,50.70847],[-3.48349,50.70835],[-3.48355,50.70835],[-3.48359,50.70837],[-3.48343,50.70851],[-3.48348,50.70854],[-3.48336,50.70866],[-3.48351,50.70873],[-3.48322,50.70897],[-3.48308,50.70889],[-3.48314,50.70884],[-3.48301,50.70878],[-3.48293,50.70885],[-3.48284,50.70881],[-3.48256,50.70904]]]]}},
{ "type":"Feature","properties":{"osm_way_id":"117628443","name":"Tesco","building":"retail","shop":"supermarket","other":{"addr:city":"Birmingham","addr:postcode":"B18 7BH","addr:street":"Camden Street","brand":"Tesco","brand:wikidata":"Q487494","brand:wikipedia":"en:Tesco","designation":"Birmingham Springhill Superstore in Hockley","level":"1"}}, "geometry":{"type":"MultiPolygon","coordinates":[[[[-1.92055,52.48528],[-1.92043,52.48546],[-1.92051,52.48549],[-1.92059,52.48539],[-1.92095,52.48548],[-1.92087,52.4856],[-1.92048,52.48588],[-1.92043,52.48587],[-1.92019,52.48605],[-1.92014,52.48603],[-1.91922,52.4858],[-1.91918,52.48586],[-1.91894,52.4858],[-1.91903,52.48565],[-1.91898,52.48564],[-1.91928,52.48511],[-1.91948,52.48519],[-1.91965,52.48503],[-1.92055,52.48528]]]]}},
{ "type":"Feature","properties":{"osm_way_id":"120780832","name":"The Co-operative Food","building":"yes","shop":"supermarket","other":{"brand":"The Co-operative Food","brand:wikidata":"Q107617274","operator":"The Co-operative Group"}}, "geometry":{"type":"MultiPolygon","coordinates":[[[[-1.95281,52.45858],[-1.95254,52.45861],[-1.95247,52.45838],[-1.95269,52.45835],[-1.95276,52.45838],[-1.95281,52.45858]]]]}},
{ "type":"Feature","properties":{"osm_way_id":"120914839","name":"ALDI","building":"retail","shop":"supermarket","other":{"addr:city":"Birmingham","addr:housenumber":"1159","addr:postcode":"B24 0QY","addr:street":"Chester Road","brand":"ALDI","brand:wikidata":"Q41171672","brand:wikipedia":"en:Aldi"}}, "geometry":{"type":"MultiPolygon","coordinates":[[[[-1.80259,52.52081],[-1.80177,52.52135],[-1.80161,52.52126],[-1.8024,52.52072],[-1.80252,52.52079],[-1.80254,52.52078],[-1.80259,52.52081]]]]}},
{ "type":"Feature","properties":{"osm_way_id":"123713112","name":"Sedana","building":"retail","shop":"supermarket"},"geometry":{"type":"MultiPolygon","coordinates":[[[[-1.94653,52.4873],[-1.94666,52.48733],[-1.94671,52.48726],[-1.9467,52.48723],[-1.94673,52.48723],[-1.94672,52.48716],[-1.94672,52.48706],[-1.94666,52.48704],[-1.94665,52.48706],[-1.94653,52.4873]]]]}},
{ "type":"Feature","properties":{"osm_way_id":"124840583","name":"Thu Cuc Supermarket","building":"yes","shop":"supermarket","other":{"addr:city":"Birmingham","addr:housenumber":"97","addr:postcode":"B21 0SX","addr:street":"Nineveh Road"}}, "geometry":{"type":"MultiPolygon","coordinates":[[[[-1.93227,52.50053],[-1.93226,52.50051],[-1.9323,52.50051],[-1.9323,52.50049],[-1.93226,52.50049],[-1.93226,52.50047],[-1.93243,52.50046],[-1.93244,52.50053],[-1.93227,52.50053]]]]}},
{ "type":"Feature","properties":{"osm_way_id":"125717862","name":"Umar's","building":"yes","shop":"supermarket"},"geometry":{"type":"MultiPolygon","coordinates":[[[[-1.83994,52.48815],[-1.83994,52.48817],[-1.83984,52.48816],[-1.83986,52.48807],[-1.83978,52.48807],[-1.83976,52.48803],[-1.83978,52.48795],[-1.83986,52.48793],[-1.83999,52.48795],[-1.83994,52.48815]]]]}},
{ "type":"Feature","properties":{"osm_way_id":"126418909","name":"Azad","building":"yes","shop":"supermarket","other":{"addr:city":"Birmingham","addr:country":"GB","addr:housenumber":"733","addr:postcode":"B8 2NY","addr:street":"Alum Rock Road","fhrs:id":"1179725","old_name":"Lidl"}}, "geometry":{"type":"MultiPolygon","coordinates":[[[[-1.83106,52.48796],[-1.83062,52.48803],[-1.83064,52.48808],[-1.83029,52.48813],[-1.83022,52.48795],[-1.83012,52.48796],[-1.83009,52.4879],[-1.83108,52.48773],[-1.83106,52.48796]]]]}},
{ "type":"Feature","properties":{"osm_way_id":"132348250","name":"Tesco","building":"yes","shop":"supermarket","other":{"brand":"Tesco","brand:wikidata":"Q487494","brand:wikipedia":"en:Tesco"}}, "geometry":{"type":"MultiPolygon","coordinates":[[[[-1.99892,52.45924],[-1.99878,52.45935],[-1.99872,52.45932],[-1.99798,52.45937],[-1.99798,52.45938],[-1.99783,52.45939],[-1.99775,52.45937],[-1.99771,52.45934],[-1.99768,52.4593],[-1.99769,52.45926],[-1.99772,52.45923],[-1.99789,52.45922],[-1.99829,52.45869],[-1.99836,52.4587],[-1.99839,52.45877],[-1.99833,52.45886],[-1.99843,52.45889],[-1.99876,52.45887],[-1.99882,52.45919],[-1.99892,52.45924]]]]}},
{ "type":"Feature","properties":{"osm_way_id":"132356311","name":"The Co-operative Food","building":"yes","shop":"supermarket","other":{"addr:housenumber":"435","addr:postcode":"B32 2DX","addr:street":"Court Oak Road","operator":"Central England Co-operative Society"}}, "geometry":{"type":"MultiPolygon","coordinates":[[[[-1.98291,52.46095],[-1.98266,52.46086],[-1.98246,52.46085],[-1.98246,52.46095],[-1.98248,52.46096],[-1.9825,52.46095],[-1.98253,52.46096],[-1.98249,52.46099],[-1.98257,52.46102],[-1.98253,52.46106],[-1.98257,52.46107],[-1.98258,52.46106],[-1.98265,52.46108],[-1.98282,52.46103],[-1.98285,52.46102],[-1.98291,52.46095]]]]}},
{ "type":"Feature","properties":{"osm_way_id":"132713578","name":"Jack's","building":"yes","shop":"supermarket","other":{"brand":"Jack's","brand:wikidata":"Q60741213","brand:wikipedia":"en:Jack's (store)"}}, "geometry":{"type":"MultiPolygon","coordinates":[[[[-2.01484,52.39439],[-2.01426,52.39463],[-2.01403,52.39442],[-2.01462,52.39419],[-2.01484,52.39439]]]]}},
{ "type":"Feature","properties":{"osm_way_id":"132714171","name":"Morrisons","building":"retail","shop":"supermarket","other":{"addr:city":"Birmingham","addr:postcode":"B45 9AH","brand":"Morrisons","brand:wikidata":"Q922344","brand:wikipedia":"en:Morrisons","opening_hours":"Mo-Sa 06:00-23:00; Su 10:00-16:00","payment:cash":"yes","payment:debit_cards":"yes"}}, "geometry":{"type":"MultiPolygon","coordinates":[[[[-2.00582,52.3964],[-2.00586,52.39641],[-2.00588,52.39643],[-2.00593,52.39645],[-2.00595,52.39648],[-2.00627,52.39646],[-2.00633,52.39695],[-2.0059,52.39697],[-2.00592,52.39712],[-2.00565,52.39714],[-2.00566,52.3972],[-2.00555,52.3972],[-2.00553,52.39702],[-2.00515,52.39704],[-2.00519,52.39735],[-2.00479,52.39737],[-2.00467,52.3965],[-2.00547,52.39646],[-2.00546,52.39642],[-2.00582,52.3964]]]]}},
{ "type":"Feature","properties":{"osm_way_id":"133051068","name":"ALDI","building":"yes","shop":"supermarket","other":{"addr:city":"Sutton Coldfield","addr:housenumber":"30-34","addr:postcode":"B73 5DA","addr:street":"Chester Road","brand":"ALDI","brand:wikidata":"Q41171672","brand:wikipedia":"en:Aldi","fhrs:id":"812728","fhrs:local_authority_id":"PI\/000611232"}}, "geometry":{"type":"MultiPolygon","coordinates":[[[[-1.85815,52.54722],[-1.85783,52.54703],[-1.8578,52.54705],[-1.85756,52.5469],[-1.85771,52.5468],[-1.85777,52.54684],[-1.85795,52.54673],[-1.85846,52.54703],[-1.85815,52.54722]]]]}},
{ "type":"Feature","properties":{"osm_way_id":"133304448","name":"Bangla Station","building":"yes","shop":"supermarket"},"geometry":{"type":"MultiPolygon","coordinates":[[[[-1.91331,52.50357],[-1.91316,52.5036],[-1.91313,52.50356],[-1.91297,52.50361],[-1.91282,52.50344],[-1.91292,52.50341],[-1.91279,52.50323],[-1.91314,52.50319],[-1.9132,52.50336],[-1.91327,52.5035],[-1.91331,52.50357]]]]}},
{ "type":"Feature","properties":{"osm_way_id":"137475930","name":"ALDI","building":"supermarket","shop":"supermarket","other":{"brand":"ALDI","brand:wikidata":"Q41171672","brand:wikipedia":"en:Aldi"}}, "geometry":{"type":"MultiPolygon","coordinates":[[[[-1.87484,52.5375],[-1.87471,52.5376],[-1.87468,52.53762],[-1.8745,52.53775],[-1.87395,52.53747],[-1.87413,52.53734],[-1.87421,52.53728],[-1.87425,52.53726],[-1.87463,52.53746],[-1.87468,52.53742],[-1.87484,52.5375]]]]}},
{ "type":"Feature","properties":{"osm_way_id":"140654934","name":"Alasha Polski Skelp","building":"retail","shop":"supermarket","other":{"addr:city":"Birmingham","addr:housenumber":"5-9","addr:postcode":"B23 6UB","addr:street":"Station Road"}}, "geometry":{"type":"MultiPolygon","coordinates":[[[[-1.83777,52.52753],[-1.8378,52.52748],[-1.83806,52.52753],[-1.83801,52.52761],[-1.83795,52.52759],[-1.83796,52.52757],[-1.83777,52.52753]]]]}},
{ "type":"Feature","properties":{"osm_way_id":"141755746","name":"Asda","building":"retail","shop":"supermarket","other":{"addr:city":"Sutton Coldfield","addr:country":"GB","addr:postcode":"B76 1XL","addr:street":"Walmley Ash Road","alt_name":"Asda Minworth","brand":"Asda","brand:wikidata":"Q297410","brand:wikipedia":"en:Asda","contact:facebook":"https:\/\/www.facebook.com\/asda\/","contact:twitter":"@asda","contact:website":"https:\/\/storelocator.asda.com\/west-midlands\/sutton-coldfield\/walmley-ash-road","fhrs:id":"601283","operator":"Asda Stores Ltd"}}, "geometry":{"type":"MultiPolygon","coordinates":[[[[-1.78167,52.53319],[-1.78172,52.53309],[-1.78185,52.53311],[-1.78196,52.53292],[-1.78196,52.53291],[-1.78176,52.53286],[-1.78184,52.53271],[-1.7815,52.53264],[-1.78153,52.53258],[-1.78133,52.53254],[-1.78129,52.53259],[-1.78033,52.53239],[-1.78038,52.5323],[-1.78002,52.53223],[-1.77997,52.53232],[-1.77965,52.53225],[-1.77969,52.53219],[-1.77949,52.53215],[-1.77945,52.53221],[-1.77915,52.53215],[-1.77881,52.53275],[-1.77945,52.53289],[-1.77941,52.53295],[-1.77968,52.53301],[-1.77972,52.53294],[-1.78107,52.53322],[-1.78106,52.53324],[-1.78124,52.53327],[-1.78125,52.53325],[-1.78128,52.53326],[-1.78133,52.53318],[-1.78139,52.5332],[-1.78134,52.5333],[-1.78148,52.53333],[-1.78157,52.53317],[-1.78167,52.53319]]]]}},
{ "type":"Feature","properties":{"osm_way_id":"143486515","name":"Sainsbury's","building":"retail","shop":"supermarket","other":{"addr:city":"Sutton Coldfield","addr:housenumber":"30","addr:postcode":"B75 5BT","addr:street":"Mere Green Road","brand":"Sainsbury's","brand:wikidata":"Q152096","brand:wikipedia":"en:Sainsbury's","checkfirst:suggested:name":"Sainsburys","fhrs:id":"601460","fhrs:local_authority_id":"PI\/000456602","source:addr":"FHRS Open Data"}}, "geometry":{"type":"MultiPolygon","coordinates":[[[[-1.82645,52.58704],[-1.82553,52.58742],[-1.82501,52.58696],[-1.82468,52.58712],[-1.82458,52.58694],[-1.82447,52.58686],[-1.82492,52.58668],[-1.82502,52.58675],[-1.82511,52.58671],[-1.82509,52.5867],[-1.82563,52.58647],[-1.82606,52.58682],[-1.82614,52.5868],[-1.82627,52.5869],[-1.82632,52.58688],[-1.82643,52.58696],[-1.82638,52.58698],[-1.82645,52.58704]]]]}},
{ "type":"Feature","properties":{"osm_way_id":"143918667","name":"Hayers Food Store","building":"retail","shop":"supermarket","other":{"addr:city":"Birmingham","addr:housenumber":"339-341","addr:postcode":"B23 7JX","addr:street":"Slade Road"}}, "geometry":{"type":"MultiPolygon","coordinates":[[[[-1.85661,52.51884],[-1.85659,52.51885],[-1.85647,52.51886],[-1.85647,52.51885],[-1.8564,52.51886],[-1.85639,52.5188],[-1.85645,52.51879],[-1.85644,52.51875],[-1.85637,52.51876],[-1.85636,52.51873],[-1.85656,52.5187],[-1.85661,52.51884]]]]}},
{ "type":"Feature","properties":{"osm_way_id":"144209833","name":"Co-op Food","building":"retail","shop":"supermarket","other":{"addr:city":"Birmingham","addr:postcode":"B13 8HS","addr:street":"Stratford Road","addr:suburb":"Moseley","brand":"Co-op Food","brand:wikidata":"Q3277439","brand:wikipedia":"en:Co-op Food"}}, "geometry":{"type":"MultiPolygon","coordinates":[[[[-1.88753,52.44762],[-1.88791,52.4476],[-1.88789,52.44788],[-1.88771,52.44787],[-1.88759,52.44787],[-1.88718,52.44786],[-1.8872,52.44766],[-1.88753,52.44762]]]]}},
{ "type":"Feature","properties":{"osm_way_id":"145172474","name":"Sainsbury's","building":"yes","shop":"supermarket","other":{"brand":"Sainsbury's","brand:wikidata":"Q152096","brand:wikipedia":"en:Sainsbury's","opening_hours":"Mo-Fr 07:00-23:00; Sa 07:00-22:00; Su 10:00-16:00"}}, "geometry":{"type":"MultiPolygon","coordinates":[[[[-1.41872,53.2544],[-1.41762,53.25434],[-1.41765,53.25416],[-1.41747,53.25415],[-1.4175,53.25396],[-1.41758,53.2535],[-1.41785,53.25351],[-1.41786,53.25347],[-1.41811,53.25349],[-1.4181,53.25352],[-1.41849,53.25355],[-1.41849,53.25351],[-1.41886,53.25353],[-1.41872,53.2544]]]]}},
{ "type":"Feature","properties":{"osm_way_id":"147546384","name":"Co-op Food","building":"retail","shop":"supermarket","other":{"brand":"Co-op Food","brand:wikidata":"Q3277439","brand:wikipedia":"en:Co-op Food","operator":"The Co-operative Group","operator:wikidata":"Q117202","operator:wikipedia":"en:The Co-operative Group","wheelchair":"yes"}}, "geometry":{"type":"MultiPolygon","coordinates":[[[[-1.81044,52.46716],[-1.81088,52.467],[-1.8111,52.46722],[-1.81076,52.46735],[-1.81054,52.46743],[-1.81048,52.46737],[-1.81051,52.46736],[-1.81035,52.46719],[-1.81044,52.46716]]]]}},
{ "type":"Feature","properties":{"osm_way_id":"150375448","name":"M&S Foodhall","building":"retail","shop":"supermarket","other":{"addr:city":"Sutton Coldfield","addr:housenumber":"Unit C","addr:postcode":"B73 6RB","addr:street":"Princess Alice Drive","brand":"M&S Foodhall","brand:wikidata":"Q714491","brand:wikipedia":"en:Marks & Spencer","fhrs:id":"600696","fhrs:local_authority_id":"PI\/000432488","source:addr:housenumber":"FHRS Open Data","url":"http:\/\/www.marksandspencer.com\/gp\/store-locator\/store-locator.html\/276-8371613-7632501?ie=UTF8&viewID=details&postcode=B73 6RB&storeID=3780&prevView=listing&client=mands_01&f_id=273&lon=-1.859120&lat=52.550480&db=GB"}}, "geometry":{"type":"MultiPolygon","coordinates":[[[[-1.86095,52.55115],[-1.86061,52.55085],[-1.86051,52.55077],[-1.8608,52.55065],[-1.86123,52.55103],[-1.86095,52.55115]]]]}},
{ "type":"Feature","properties":{"osm_way_id":"152634314","name":"Co-operative","building":"retail","shop":"supermarket","other":{"addr:city":"Sutton Coldfield","addr:housenumber":"21-25","addr:postcode":"B76 1NY","addr:street":"Hollyfield Road South","fhrs:id":"602279","fhrs:local_authority_id":"PI\/000479613","source:addr:postcode":"FHRS Open Data"}}, "geometry":{"type":"MultiPolygon","coordinates":[[[[-1.80243,52.55998],[-1.80283,52.55989],[-1.80286,52.5599],[-1.8029,52.55997],[-1.80294,52.55996],[-1.80298,52.56001],[-1.80302,52.56009],[-1.80294,52.5601],[-1.80293,52.56014],[-1.80263,52.5602],[-1.80257,52.56018],[-1.80254,52.56019],[-1.80251,52.56013],[-1.80257,52.56012],[-1.80254,52.56006],[-1.80248,52.56008],[-1.80243,52.55998]]]]}},
{ "type":"Feature","properties":{"osm_way_id":"154260403","name":"Tesco Extra","building":"retail","shop":"supermarket","other":{"addr:city":"Birmingham","addr:postcode":"B26 1AD","addr:street":"Coventry Road","brand":"Tesco Extra","brand:wikidata":"Q25172225","brand:wikipedia":"en:Tesco Extra","website":"https:\/\/www.tesco.com\/store-locator\/birmingham\/swan-shopping-centre"}}, "geometry":{"type":"MultiPolygon","coordinates":[[[[-1.81273,52.46207],[-1.81268,52.46277],[-1.81258,52.46276],[-1.81242,52.46302],[-1.81258,52.46305],[-1.81268,52.46288],[-1.81295,52.46294],[-1.81331,52.46295],[-1.8137,52.46296],[-1.81376,52.46201],[-1.81274,52.462],[-1.81273,52.46207]]]]}},
{ "type":"Feature","properties":{"osm_way_id":"159975582","name":"Tesco","building":"yes","shop":"supermarket","other":{"brand":"Tesco","brand:wikidata":"Q487494","brand:wikipedia":"en:Tesco","opening_hours":"24\/7"}}, "geometry":{"type":"MultiPolygon","coordinates":[[[[-1.81848,52.49481],[-1.81886,52.49464],[-1.81854,52.4943],[-1.81827,52.49438],[-1.81802,52.4942],[-1.81795,52.49423],[-1.81724,52.49457],[-1.81772,52.49494],[-1.81777,52.49493],[-1.81826,52.49508],[-1.81839,52.49512],[-1.81855,52.49505],[-1.81847,52.49499],[-1.81831,52.49505],[-1.81818,52.49495],[-1.81848,52.49481]]]]}},
{ "type":"Feature","properties":{"osm_way_id":"162580339","building":"retail","shop":"supermarket","other":{"addr:city":"Birmingham","addr:country":"GB","addr:housenumber":"17","addr:postcode":"B2 4SJ","addr:street":"Union Street"}}, "geometry":{"type":"MultiPolygon","coordinates":[[[[-1.89571,52.48009],[-1.89596,52.47987],[-1.89608,52.47992],[-1.89583,52.48014],[-1.89571,52.48009]]]]}},
{ "type":"Feature","properties":{"osm_way_id":"164178146","name":"Nisa Extra","building":"yes","shop":"supermarket","other":{"brand":"Nisa Extra","brand:wikidata":"Q16999069","brand:wikipedia":"en:Nisa (retailer)"}}, "geometry":{"type":"MultiPolygon","coordinates":[[[[-1.78406,52.52114],[-1.7838,52.52121],[-1.78362,52.52125],[-1.78369,52.52135],[-1.78413,52.52124],[-1.78412,52.52122],[-1.78411,52.52121],[-1.78407,52.52116],[-1.78406,52.52114]]]]}},
{ "type":"Feature","properties":{"osm_way_id":"173925521","name":"Medina Supermarket","building":"retail","shop":"supermarket","other":{"addr:city":"Birmingham","addr:housenumber":"800-804","addr:postcode":"B11 4BS","addr:street":"Stratford Road"}}, "geometry":{"type":"MultiPolygon","coordinates":[[[[-1.85924,52.4458],[-1.85911,52.44582],[-1.85907,52.44572],[-1.85947,52.44565],[-1.85952,52.44576],[-1.85924,52.4458]]]]}},
{ "type":"Feature","properties":{"osm_way_id":"173928747","name":"Chaudhry","building":"retail","shop":"supermarket","other":{"addr:city":"Birmingham","addr:postcode":"B11 4BP","addr:street":"Stratford Road"}}, "geometry":{"type":"MultiPolygon","coordinates":[[[[-1.85976,52.44719],[-1.8597,52.44705],[-1.86012,52.44698],[-1.86018,52.44712],[-1.85976,52.44719]]]]}},
{ "type":"Feature","properties":{"osm_way_id":"174630054","name":"Co-op Food","building":"retail","shop":"supermarket","other":{"brand":"Co-op Food","brand:wikidata":"Q3277439","brand:wikipedia":"en:Co-op Food"}}, "geometry":{"type":"MultiPolygon","coordinates":[[[[-1.81963,52.49403],[-1.81958,52.49398],[-1.81983,52.49389],[-1.82,52.49383],[-1.82003,52.49382],[-1.82024,52.49403],[-1.81995,52.49413],[-1.82002,52.4942],[-1.81986,52.49426],[-1.81973,52.49413],[-1.81963,52.49403]]]]}},
{ "type":"Feature","properties":{"osm_way_id":"174631421","name":"ALDI","building":"retail","shop":"supermarket","other":{"addr:city":"Birmingham","addr:country":"GB","addr:housename":"Beaufort Park","addr:postcode":"B8 2AN","addr:street":"Stechford Lane","brand":"ALDI","brand:wikidata":"Q41171672","brand:wikipedia":"en:Aldi","fhrs:id":"600163","opening_hours":"Mo-Sa 08:00-22:00; Su 10:00-16:00"}}, "geometry":{"type":"MultiPolygon","coordinates":[[[[-1.81718,52.4934],[-1.81685,52.49316],[-1.81732,52.49294],[-1.81764,52.49318],[-1.81742,52.49328],[-1.81718,52.4934]]]]}},
{ "type":"Feature","properties":{"osm_way_id":"183962541","name":"Costcutter","building":"retail","shop":"supermarket","other":{"addr:city":"Sutton Coldfield","addr:housenumber":"17-21","addr:postcode":"B75 7LD","addr:street":"Churchill Parade","brand":"Costcutter","brand:wikidata":"Q5175072","brand:wikipedia":"en:Costcutter","fhrs:id":"602759","fhrs:local_authority_id":"PI\/000487205","source:addr":"FHRS Open Data"}}, "geometry":{"type":"MultiPolygon","coordinates":[[[[-1.79022,52.56323],[-1.78997,52.56322],[-1.78998,52.56308],[-1.79003,52.56308],[-1.79002,52.56311],[-1.79006,52.56311],[-1.79006,52.56313],[-1.79007,52.56313],[-1.79007,52.56311],[-1.79011,52.56311],[-1.79011,52.56308],[-1.7902,52.56309],[-1.79019,52.56312],[-1.79023,52.56312],[-1.79023,52.56317],[-1.79022,52.56323]]]]}},
{ "type":"Feature","properties":{"osm_way_id":"185522276","name":"Mukhtar's","building":"retail","shop":"supermarket","other":{"addr:city":"Birmingham","addr:housenumber":"528- 532","addr:postcode":"B11 4AJ","addr:street":"Stratford Road"}}, "geometry":{"type":"MultiPolygon","coordinates":[[[[-1.86545,52.45287],[-1.8656,52.45283],[-1.86551,52.45271],[-1.865,52.45284],[-1.86493,52.45286],[-1.86499,52.45295],[-1.86533,52.45287],[-1.86535,52.4529],[-1.86545,52.45287]]]]}},
{ "type":"Feature","properties":{"osm_way_id":"188125026","name":"Morrisons","building":"supermarket","shop":"supermarket","other":{"addr:city":"Birmingham","addr:country":"GB","addr:postcode":"B15 1TR","addr:street":"Hagley Road","alt_name":"Morrisons Edgbaston","brand":"Morrisons","brand:wikidata":"Q922344","brand:wikipedia":"en:Morrisons"}}, "geometry":{"type":"MultiPolygon","coordinates":[[[[-1.92174,52.47185],[-1.92171,52.4718],[-1.92165,52.4717],[-1.92142,52.47134],[-1.92211,52.47118],[-1.92219,52.4713],[-1.92258,52.47194],[-1.9226,52.47196],[-1.92263,52.47201],[-1.92255,52.47202],[-1.92243,52.47197],[-1.92225,52.47193],[-1.92209,52.47191],[-1.92192,52.4719],[-1.92178,52.47191],[-1.92174,52.47185]]]]}},
{ "type":"Feature","properties":{"osm_way_id":"188608789","name":"The Co-operative Food","building":"supermarket","shop":"supermarket","other":{"addr:city":"Birmingham","addr:street":"West Heath Road","check_date:opening_hours":"2021-07-16","opening_hours":"Mo-Sa 07:00-22:00; Su 10:00-16:00; PH 10:00-16:00","operator":"Central England Co-operative"}}, "geometry":{"type":"MultiPolygon","coordinates":[[[[-1.96403,52.40748],[-1.96392,52.40725],[-1.96449,52.40715],[-1.9646,52.40738],[-1.96403,52.40748]]]]}},
{ "type":"Feature","properties":{"osm_way_id":"194116015","name":"Murad Superstore","building":"retail","shop":"supermarket"},"geometry":{"type":"MultiPolygon","coordinates":[[[[-1.87838,52.45283],[-1.87845,52.45273],[-1.87873,52.4528],[-1.87866,52.4529],[-1.87854,52.45287],[-1.87838,52.45283]]]]}},
{ "type":"Feature","properties":{"osm_way_id":"196296718","name":"ALDI","building":"retail","shop":"supermarket","other":{"addr:city":"Sutton Coldfield","addr:housename":"6-7 The Highgate Centre","addr:postcode":"B74 4AB","addr:street":"Belwell Lane","branch":"(Proposed)","brand":"ALDI","brand:wikidata":"Q41171672","brand:wikipedia":"en:Aldi","fhrs:authority":"Birmingham"}}, "geometry":{"type":"MultiPolygon","coordinates":[[[[-1.83209,52.58774],[-1.83179,52.58786],[-1.83177,52.58784],[-1.83165,52.58788],[-1.83153,52.58776],[-1.83166,52.58773],[-1.83157,52.58764],[-1.83152,52.58766],[-1.83144,52.58755],[-1.83146,52.58755],[-1.83149,52.58754],[-1.83148,52.58753],[-1.83177,52.58742],[-1.83209,52.58774]]]]}},
{ "type":"Feature","properties":{"osm_way_id":"204950551","name":"Sainsbury's","building":"retail","shop":"supermarket","other":{"addr:postcode":"B35 6HB","brand":"Sainsbury's","brand:wikidata":"Q152096","brand:wikipedia":"en:Sainsbury's"}}, "geometry":{"type":"MultiPolygon","coordinates":[[[[-1.79678,52.51712],[-1.79627,52.51729],[-1.79595,52.51749],[-1.79601,52.51753],[-1.79563,52.51769],[-1.79611,52.51814],[-1.79673,52.5179],[-1.79676,52.51793],[-1.79683,52.5179],[-1.79687,52.51794],[-1.79707,52.51785],[-1.79699,52.5178],[-1.79715,52.51772],[-1.79702,52.51758],[-1.79678,52.51712]]]]}},
{ "type":"Feature","properties":{"osm_way_id":"214768807","name":"SMS","building":"retail","shop":"supermarket","other":{"addr:city":"Birmingham","addr:housenumber":"226","addr:postcode":"B12 9LY","addr:street":"Edward Road"}}, "geometry":{"type":"MultiPolygon","coordinates":[[[[-1.89705,52.45808],[-1.89716,52.45795],[-1.89737,52.45802],[-1.89712,52.45829],[-1.89708,52.45832],[-1.8969,52.45828],[-1.89692,52.4582],[-1.89705,52.45808]]]]}},
{ "type":"Feature","properties":{"osm_way_id":"215117419","name":"Morrisons","building":"retail","shop":"supermarket","other":{"addr:city":"Birmingham","addr:postcode":"B26 3PD","addr:street":"Coventry Road","brand":"Morrisons","brand:wikidata":"Q922344","brand:wikipedia":"en:Morrisons"}}, "geometry":{"type":"MultiPolygon","coordinates":[[[[-1.779,52.45121],[-1.77887,52.4512],[-1.77884,52.45126],[-1.77874,52.45125],[-1.77873,52.45129],[-1.77738,52.45121],[-1.77732,52.45118],[-1.7773,52.45115],[-1.77732,52.45103],[-1.77756,52.45105],[-1.77763,52.45064],[-1.77786,52.45053],[-1.77783,52.4505],[-1.77792,52.45047],[-1.77797,52.45049],[-1.77813,52.45041],[-1.77892,52.45047],[-1.77891,52.45053],[-1.77895,52.45053],[-1.77894,52.45063],[-1.77889,52.45063],[-1.77888,52.45067],[-1.77908,52.45069],[-1.779,52.45121]]]]}},
{ "type":"Feature","properties":{"osm_way_id":"219544976","name":"Durrani Supermarket","building":"retail","shop":"supermarket"},"geometry":{"type":"MultiPolygon","coordinates":[[[[-1.8573,52.51452],[-1.85731,52.51457],[-1.85732,52.51462],[-1.85739,52.51461],[-1.85773,52.51467],[-1.85777,52.51461],[-1.85763,52.51458],[-1.85755,52.51456],[-1.85736,52.51452],[-1.8573,52.51452]]]]}},
{ "type":"Feature","properties":{"osm_way_id":"220224839","amenity":"parking","building":"parking","other":{"parking":"multi-storey"}}, "geometry":{"type":"MultiPolygon","coordinates":[[[[-1.89356,52.4315],[-1.89355,52.43135],[-1.8936,52.43135],[-1.89359,52.43126],[-1.89359,52.43123],[-1.89357,52.43098],[-1.89312,52.43099],[-1.89316,52.43141],[-1.89323,52.43141],[-1.89324,52.43152],[-1.89356,52.4315]]]]}},
{ "type":"Feature","properties":{"osm_way_id":"232177878","name":"Sainsbury's","building":"retail","shop":"supermarket","other":{"addr:postcode":"B31 2TW","addr:street":"Longbridge Lane","brand":"Sainsbury's","brand:wikidata":"Q152096","brand:wikipedia":"en:Sainsbury's","height":"7","opening_hours":"Mo-Sa 07:00-22:00; Su 11:00-17:00","source:height":"emuanalytics"}}, "geometry":{"type":"MultiPolygon","coordinates":[[[[-1.98257,52.39628],[-1.98261,52.39616],[-1.98273,52.39568],[-1.9826,52.39562],[-1.98285,52.39543],[-1.98396,52.39554],[-1.98417,52.39557],[-1.98392,52.39638],[-1.98389,52.3964],[-1.98381,52.39641],[-1.98257,52.39628]]]]}},
{ "type":"Feature","properties":{"osm_way_id":"238933158","name":"Al Faruk","building":"retail","shop":"supermarket","other":{"addr:city":"Birmingham","addr:housenumber":"147-149","addr:postcode":"B11 1ND","addr:street":"Anderton Road"}}, "geometry":{"type":"MultiPolygon","coordinates":[[[[-1.8643,52.46282],[-1.86418,52.46285],[-1.8641,52.46269],[-1.86421,52.46267],[-1.8643,52.46282]]]]}},
{ "type":"Feature","properties":{"osm_way_id":"238933211","building":"retail","shop":"supermarket","other":{"addr:city":"Birmingham","addr:housenumber":"155;159","addr:postcode":"B11 1ND","addr:street":"Anderton Road"}}, "geometry":{"type":"MultiPolygon","coordinates":[[[[-1.86404,52.46288],[-1.86393,52.4629],[-1.86384,52.46275],[-1.86396,52.46272],[-1.86404,52.46288]]]]}},
{ "type":"Feature","properties":{"osm_way_id":"245385125","name":"Heron Foods","building":"retail","shop":"supermarket","other":{"addr:city":"Birmingham","addr:country":"GB","addr:housenumber":"146-150","addr:postcode":"B29 5QL","addr:street":"Weoley Castle Road","brand":"Heron Foods","brand:wikidata":"Q5743472","brand:wikipedia":"en:Heron Foods","contact:website":"https:\/\/heronfoods.com\/storelocator\/store-details\/weoley-castle","fhrs:id":"976209"}}, "geometry":{"type":"MultiPolygon","coordinates":[[[[-1.97184,52.43724],[-1.97163,52.4373],[-1.97113,52.43743],[-1.97104,52.4373],[-1.97129,52.43723],[-1.97175,52.43711],[-1.97184,52.43724]]]]}},
{ "type":"Feature","properties":{"osm_way_id":"254257103","name":"Asda","shop":"supermarket","other":{"addr:city":"Birmingham","addr:country":"GB","addr:postcode":"B42 1AB","addr:street":"Walsall Road","brand":"Asda","brand:wikidata":"Q297410","brand:wikipedia":"en:Asda","contact:facebook":"https:\/\/www.facebook.com\/asda\/","contact:twitter":"@asda","contact:website":"https:\/\/storelocator.asda.com\/west-midlands\/birmingham\/walsall-road","fhrs:id":"600704","operator":"Asda Stores Ltd"}}, "geometry":{"type":"MultiPolygon","coordinates":[[[[-1.90283,52.51868],[-1.90281,52.51879],[-1.90273,52.51878],[-1.9027,52.51889],[-1.9027,52.5189],[-1.90182,52.51882],[-1.90185,52.51869],[-1.90149,52.51866],[-1.90148,52.51872],[-1.90138,52.51871],[-1.90139,52.51867],[-1.90124,52.51866],[-1.90139,52.51804],[-1.90181,52.51808],[-1.90295,52.51818],[-1.90283,52.51868]]]]}},
{ "type":"Feature","properties":{"osm_way_id":"254257104","name":"The Food Warehouse","building":"yes","shop":"supermarket","other":{"brand":"The Food Warehouse","brand:wikidata":"Q87263899","opening_hours":"Mo-Sa 08:00-21:00; Su 11:00-17:00","phone":"+44 0121 356 1264","website":"https:\/\/www.thefoodwarehouse.com\/"}}, "geometry":{"type":"MultiPolygon","coordinates":[[[[-1.90586,52.51827],[-1.90591,52.51803],[-1.90593,52.51803],[-1.90659,52.51809],[-1.90653,52.51834],[-1.90586,52.51827]]]]}},
{ "type":"Feature","properties":{"osm_way_id":"257367134","name":"Oriental Supermarket","building":"yes","shop":"supermarket","other":{"addr:city":"Birmingham","addr:postcode":"B1 1NB","addr:street":"Holloway Head","building:levels":"3"}}, "geometry":{"type":"MultiPolygon","coordinates":[[[[-1.90427,52.4732],[-1.90377,52.47326],[-1.90379,52.47333],[-1.90383,52.47346],[-1.90421,52.47331],[-1.90428,52.47322],[-1.90427,52.4732]]]]}},
{ "type":"Feature","properties":{"osm_way_id":"258519638","name":"Azad","building":"retail","shop":"supermarket","other":{"addr:city":"Birmingham","addr:housenumber":"479;481;483","addr:postcode":"B11 4LE","addr:street":"Stratford Road"}}, "geometry":{"type":"MultiPolygon","coordinates":[[[[-1.86747,52.45438],[-1.86763,52.45433],[-1.86772,52.45443],[-1.86785,52.45459],[-1.86769,52.45464],[-1.86755,52.45446],[-1.86731,52.45454],[-1.86711,52.4546],[-1.867,52.45447],[-1.8673,52.45438],[-1.86743,52.45434],[-1.86747,52.45438]]]]}},
{ "type":"Feature","properties":{"osm_way_id":"260280951","name":"Co-op Food","building":"retail","shop":"supermarket","other":{"addr:postcode":"B34 7AQ","brand":"Co-op Food","brand:wikidata":"Q3277439","brand:wikipedia":"en:Co-op Food"}}, "geometry":{"type":"MultiPolygon","coordinates":[[[[-1.77734,52.49501],[-1.7773,52.49499],[-1.7773,52.49498],[-1.77699,52.49488],[-1.7771,52.49476],[-1.7777,52.49498],[-1.77764,52.49504],[-1.77755,52.4951],[-1.77734,52.49501]]]]}},
{ "type":"Feature","properties":{"osm_way_id":"285157637","name":"Sun Yip Ltd Chinese Supermarket","building":"yes","shop":"supermarket"},"geometry":{"type":"MultiPolygon","coordinates":[[[[-1.89433,52.47083],[-1.89431,52.47081],[-1.89435,52.4708],[-1.89431,52.47073],[-1.89423,52.47071],[-1.8941,52.47086],[-1.89353,52.47067],[-1.89342,52.4708],[-1.89374,52.4709],[-1.89403,52.47099],[-1.89401,52.47102],[-1.89414,52.47106],[-1.89433,52.47083]]]]}},
{ "type":"Feature","properties":{"osm_way_id":"286801083","name":"Aldi","building":"retail","shop":"supermarket","other":{"addr:city":"Birmingham","addr:housenumber":"860","addr:postcode":"B31 2NS","addr:street":"Bristol Road South","addr:suburb":"Northfield","brand":"ALDI","brand:wikidata":"Q41171672","brand:wikipedia":"en:Aldi","opening_hours":"Mo-Sa 08:00-22:00; Su 10:00-16:00"}}, "geometry":{"type":"MultiPolygon","coordinates":[[[[-1.97166,52.41306],[-1.9721,52.41315],[-1.97209,52.41318],[-1.97234,52.41323],[-1.97218,52.41351],[-1.97189,52.41346],[-1.97159,52.41339],[-1.97149,52.41338],[-1.97166,52.41306]]]]}},
{ "type":"Feature","properties":{"osm_way_id":"300425969","name":"Sohail Supermarket","building":"retail","shop":"supermarket","other":{"addr:city":"Birmingham","addr:postcode":"B11 1AA","addr:street":"Stratford Road"}}, "geometry":{"type":"MultiPolygon","coordinates":[[[[-1.87154,52.45975],[-1.87151,52.45972],[-1.87132,52.45978],[-1.87136,52.45982],[-1.87154,52.45975]]]]}},
{ "type":"Feature","properties":{"osm_way_id":"311927586","name":"ALDI","building":"retail","shop":"supermarket","other":{"brand":"ALDI","brand:wikidata":"Q41171672","brand:wikipedia":"en:Aldi"}}, "geometry":{"type":"MultiPolygon","coordinates":[[[[-1.84108,52.42707],[-1.8403,52.42729],[-1.84018,52.42714],[-1.84043,52.42707],[-1.84038,52.427],[-1.8405,52.42696],[-1.84047,52.42692],[-1.84067,52.42686],[-1.84071,52.42691],[-1.84092,52.42685],[-1.84108,52.42707]]]]}},
{ "type":"Feature","properties":{"osm_way_id":"317697235","name":"Home Bargains","building":"retail","shop":"supermarket"},"geometry":{"type":"MultiPolygon","coordinates":[[[[-1.94569,52.45993],[-1.94598,52.45982],[-1.94582,52.45967],[-1.94559,52.45946],[-1.94538,52.45954],[-1.94527,52.45958],[-1.9453,52.45961],[-1.94544,52.45974],[-1.94546,52.45972],[-1.94557,52.45982],[-1.94569,52.45993]]]]}},
{ "type":"Feature","properties":{"osm_way_id":"317697255","name":"M&S Simply Food","building":"retail","shop":"supermarket","other":{"brand":"M&S Simply Food","brand:wikidata":"Q714491","brand:wikipedia":"en:Marks & Spencer","wheelchair":"yes"}}, "geometry":{"type":"MultiPolygon","coordinates":[[[[-1.94396,52.46065],[-1.94397,52.46053],[-1.94359,52.46025],[-1.9433,52.46042],[-1.9434,52.46048],[-1.94356,52.46041],[-1.94381,52.46057],[-1.9438,52.46061],[-1.94366,52.46068],[-1.94367,52.4607],[-1.94361,52.46072],[-1.9437,52.46078],[-1.94396,52.46065]]]]}},
{ "type":"Feature","properties":{"osm_way_id":"336402070","name":"International Supermarket","building":"retail","shop":"supermarket","other":{"addr:city":"Birmingham","addr:postcode":"B21 9LN","addr:street":"Soho Road","fhrs:id":"604060"}}, "geometry":{"type":"MultiPolygon","coordinates":[[[[-1.93201,52.50311],[-1.93196,52.5031],[-1.93191,52.50322],[-1.93181,52.5032],[-1.93188,52.50303],[-1.93192,52.50293],[-1.93208,52.50296],[-1.93201,52.50311]]]]}},
{ "type":"Feature","properties":{"osm_way_id":"336776445","name":"S&D supermarket","building":"retail","shop":"supermarket","other":{"addr:city":"Birmingham","addr:postcode":"B21 9SU","addr:street":"Soho Road","addr:suburb":"Handsworth","fhrs:id":"598059"}}, "geometry":{"type":"MultiPolygon","coordinates":[[[[-1.93179,52.50257],[-1.93159,52.50255],[-1.93169,52.50227],[-1.93179,52.50228],[-1.93189,52.5023],[-1.93185,52.50241],[-1.93179,52.50257]]]]}},
{ "type":"Feature","properties":{"osm_way_id":"338650790","name":"Raja Brothers","building":"retail","shop":"supermarket"},"geometry":{"type":"MultiPolygon","coordinates":[[[[-1.87631,52.45773],[-1.87653,52.45773],[-1.87656,52.45795],[-1.87638,52.45796],[-1.87639,52.45799],[-1.87621,52.45801],[-1.87618,52.45785],[-1.8763,52.45784],[-1.87629,52.45773],[-1.87631,52.45773]]]]}},
{ "type":"Feature","properties":{"osm_way_id":"351674945","name":"ALDI","building":"retail","shop":"supermarket","other":{"addr:city":"Birmingham","addr:postcode":"B19 2SS","addr:street":"Alma Street","brand":"ALDI","brand:wikidata":"Q41171672","brand:wikipedia":"en:Aldi","fhrs:id":"598881"}}, "geometry":{"type":"MultiPolygon","coordinates":[[[[-1.89669,52.49692],[-1.89678,52.49664],[-1.89681,52.49652],[-1.89718,52.49656],[-1.89706,52.49697],[-1.89693,52.49696],[-1.89669,52.49692]]]]}},
{ "type":"Feature","properties":{"osm_way_id":"358250943","name":"The Co-operative Food","building":"yes","shop":"supermarket","other":{"addr:city":"Birmingham","addr:street":"Vicarage Road","operator":"Central England Co-operative Society"}}, "geometry":{"type":"MultiPolygon","coordinates":[[[[-1.9061,52.42778],[-1.90583,52.42788],[-1.90606,52.4281],[-1.90633,52.428],[-1.90621,52.42789],[-1.9061,52.42778]]]]}},
{ "type":"Feature","properties":{"osm_way_id":"365086284","name":"Lidl","building":"retail","shop":"supermarket","other":{"addr:country":"GB","addr:housenumber":"579","addr:postcode":"B12 9BS","addr:street":"Moseley Road","brand":"Lidl","brand:wikidata":"Q151954","brand:wikipedia":"en:Lidl","fhrs:id":"600913","wheelchair":"yes"}}, "geometry":{"type":"MultiPolygon","coordinates":[[[[-1.88745,52.45573],[-1.8865,52.4556],[-1.88661,52.45526],[-1.88758,52.4554],[-1.88745,52.45573]]]]}},
{ "type":"Feature","properties":{"osm_way_id":"380035311","name":"M&S Foodhall","building":"retail","shop":"supermarket","other":{"brand":"M&S Foodhall","brand:wikidata":"Q714491","brand:wikipedia":"en:Marks & Spencer"}}, "geometry":{"type":"MultiPolygon","coordinates":[[[[-1.9837,52.39383],[-1.98396,52.39345],[-1.9851,52.39375],[-1.98483,52.39413],[-1.9837,52.39383]]]]}},
{ "type":"Feature","properties":{"osm_way_id":"428881045","name":"Asda","building":"yes","shop":"supermarket","other":{"addr:city":"Birmingham","addr:country":"GB","addr:housenumber":"51","addr:postcode":"B29 5UP","addr:street":"Barnes Hill","brand":"Asda","brand:wikidata":"Q297410","brand:wikipedia":"en:Asda","contact:facebook":"https:\/\/www.facebook.com\/asda\/","contact:twitter":"@asda","contact:website":"https:\/\/storelocator.asda.com\/west-midlands\/birmingham\/51-barnes-hill","fhrs:id":"670146","operator":"Asda Stores Ltd"}}, "geometry":{"type":"MultiPolygon","coordinates":[[[[-1.97937,52.44217],[-1.97892,52.44275],[-1.97865,52.44294],[-1.97878,52.44301],[-1.97882,52.44298],[-1.97933,52.44313],[-1.97942,52.44302],[-1.97956,52.44306],[-1.97977,52.44282],[-1.97998,52.44288],[-1.98032,52.44243],[-1.97937,52.44217]]]]}},
{ "type":"Feature","properties":{"osm_way_id":"430177366","name":"Lidl","building":"yes","shop":"supermarket","other":{"brand":"Lidl","brand:wikidata":"Q151954","brand:wikipedia":"en:Lidl"}}, "geometry":{"type":"MultiPolygon","coordinates":[[[[-1.82295,52.46219],[-1.82243,52.46215],[-1.82256,52.46152],[-1.82308,52.46156],[-1.82295,52.46219]]]]}},
{ "type":"Feature","properties":{"osm_way_id":"512747549","name":"Heritage Superstore","building":"yes","shop":"supermarket"},"geometry":{"type":"MultiPolygon","coordinates":[[[[-2.0167,52.40311],[-2.01675,52.40304],[-2.01701,52.40312],[-2.01702,52.4031],[-2.01711,52.40313],[-2.01694,52.40336],[-2.01665,52.40328],[-2.01669,52.40324],[-2.01661,52.40321],[-2.0167,52.40311]]]]}},
{ "type":"Feature","properties":{"osm_way_id":"526559870","name":"M&S Foodhall","building":"retail","shop":"supermarket","other":{"brand":"M&S Foodhall","brand:wikidata":"Q714491","brand:wikipedia":"en:Marks & Spencer","diet:vegetarian":"yes"}}, "geometry":{"type":"MultiPolygon","coordinates":[[[[-1.82913,52.58684],[-1.82931,52.58682],[-1.82942,52.58681],[-1.82939,52.58672],[-1.8296,52.5867],[-1.82952,52.58639],[-1.8294,52.58641],[-1.82928,52.58642],[-1.82916,52.58643],[-1.82904,52.58649],[-1.82913,52.58684]]]]}},
{ "type":"Feature","properties":{"osm_way_id":"528186396","name":"M&S Foodhall","building":"retail","shop":"supermarket","other":{"addr:city":"Birmingham","addr:postcode":"B13 9EF","addr:street":"St Mary's Row","brand":"M&S Foodhall","brand:wikidata":"Q714491","brand:wikipedia":"en:Marks & Spencer"}}, "geometry":{"type":"MultiPolygon","coordinates":[[[[-1.88471,52.44589],[-1.88492,52.4459],[-1.88513,52.4459],[-1.8856,52.44582],[-1.88567,52.44576],[-1.8857,52.44565],[-1.88557,52.44541],[-1.88535,52.44544],[-1.8854,52.44554],[-1.8851,52.44559],[-1.88467,52.44566],[-1.88469,52.44575],[-1.88471,52.44589]]]]}},
{ "type":"Feature","properties":{"osm_way_id":"543918533","name":"Lidl","building":"yes","shop":"supermarket","other":{"addr:country":"GB","addr:housenumber":"20","addr:postcode":"B14 7QU","addr:street":"Silver Street","brand":"Lidl","brand:wikidata":"Q151954","brand:wikipedia":"en:Lidl","fhrs:id":"598663"}}, "geometry":{"type":"MultiPolygon","coordinates":[[[[-1.89514,52.43409],[-1.89489,52.43371],[-1.89566,52.43352],[-1.89581,52.43374],[-1.89562,52.43379],[-1.89573,52.43394],[-1.89514,52.43409]]]]}},
{ "type":"Feature","properties":{"osm_way_id":"584962561","name":"Sainsbury's","building":"retail","shop":"supermarket","other":{"addr:city":"Birmingham","addr:housename":"19 Selly Oak Business Park","addr:postcode":"B29 6SQ","addr:street":"Aston Webb Boulevard","brand":"Sainsbury's","brand:wikidata":"Q152096","brand:wikipedia":"en:Sainsbury's","fhrs:id":"1354175"}}, "geometry":{"type":"MultiPolygon","coordinates":[[[[-1.93952,52.44383],[-1.93952,52.44372],[-1.93952,52.44313],[-1.93952,52.44282],[-1.93928,52.44282],[-1.93929,52.44267],[-1.93929,52.44263],[-1.93913,52.44263],[-1.93914,52.44253],[-1.93862,52.44246],[-1.93862,52.44258],[-1.93832,52.44258],[-1.93832,52.44224],[-1.93831,52.44224],[-1.93832,52.4422],[-1.93819,52.44218],[-1.93821,52.44215],[-1.93793,52.4421],[-1.93791,52.44213],[-1.93789,52.44217],[-1.93777,52.44235],[-1.93777,52.44237],[-1.9378,52.4424],[-1.93794,52.44247],[-1.93813,52.44258],[-1.93814,52.44284],[-1.93814,52.4432],[-1.93813,52.44382],[-1.93849,52.44383],[-1.939,52.44383],[-1.93952,52.44383]]]]}},
{ "type":"Feature","properties":{"osm_way_id":"774675843","name":"Food World","building":"yes","shop":"supermarket"},"geometry":{"type":"MultiPolygon","coordinates":[[[[-1.83219,52.49286],[-1.83239,52.49292],[-1.83237,52.49295],[-1.83225,52.4931],[-1.83205,52.49304],[-1.83219,52.49286]]]]}},
{ "type":"Feature","properties":{"osm_way_id":"855377764","name":"Lidl","building":"retail","shop":"supermarket","other":{"addr:city":"Birmingham","addr:housenumber":"39","addr:postcode":"B14 4ST","addr:street":"Warstock Road","brand":"Lidl","brand:wikidata":"Q151954","brand:wikipedia":"en:Lidl","opening_hours":"Mo-Sa 08:00-22:00; Su 10:00-16:00"}}, "geometry":{"type":"MultiPolygon","coordinates":[[[[-1.88369,52.41451],[-1.88337,52.41447],[-1.88335,52.41451],[-1.88322,52.41449],[-1.8835,52.4138],[-1.88394,52.41387],[-1.88369,52.41451]]]]}},
{ "type":"Feature","properties":{"osm_way_id":"906167619","name":"ALDI","building":"retail","shop":"supermarket","other":{"brand":"ALDI","brand:wikidata":"Q41171672","brand:wikipedia":"en:Aldi","opening_hours":"Mo-Sa 08:00-22:00; Su 10:00-16:00"}}, "geometry":{"type":"MultiPolygon","coordinates":[[[[-1.93779,52.39988],[-1.93741,52.3997],[-1.93794,52.39929],[-1.93817,52.3994],[-1.93824,52.39935],[-1.93838,52.39942],[-1.93831,52.39947],[-1.93779,52.39988]]]]}},
{ "type":"Feature","properties":{"osm_way_id":"955830961","name":"Lidl","building":"retail","shop":"supermarket","other":{"addr:country":"GB","addr:housenumber":"55","addr:postcode":"B75 5BW","addr:street":"Mere Green Road","brand":"Lidl","brand:wikidata":"Q151954","brand:wikipedia":"en:Lidl","fhrs:id":"1293714"}}, "geometry":{"type":"MultiPolygon","coordinates":[[[[-1.82547,52.5883],[-1.82613,52.58847],[-1.82605,52.58775],[-1.82541,52.58779],[-1.82547,52.5883]]]]}},
{ "type":"Feature","properties":{"osm_way_id":"956297149","name":"Aldi  (Proposed)","building":"retail","shop":"supermarket","other":{"brand:wikipedia":"en:Aldi"}}, "geometry":{"type":"MultiPolygon","coordinates":[[[[-1.82628,52.56188],[-1.82673,52.56195],[-1.82689,52.5616],[-1.82643,52.56153],[-1.82628,52.56188]]]]}}
]
}
