{
"type": "FeatureCollection",
"features": [
{ "type":"Feature","properties":{"osm_id":"8887969903","name":"Co-op Food","other":{"brand":"Co-op Food","brand:wikidata":"Q3277439","brand:wikipedia":"en:Co-op Food","opening_hours":"Mo-Su 07:00-22:00","shop":"supermarket"}}, "geometry":{"type":"Point","coordinates":[-2.05594,51.95355 ]}},
{ "type":"Feature","properties":{"osm_way_id":"39789356","name":"Tesco Extra","building":"yes","shop":"supermarket","other":{"addr:city":"Gloucester","addr:postcode":"GL3 4AA","addr:street":"Delta Way","brand":"Tesco Extra","brand:wikidata":"Q25172225","brand:wikipedia":"en:Tesco Extra","operator":"Tesco"}}, "geometry":{"type":"MultiPolygon","coordinates":[[[[-2.17246,51.84932],[-2.17203,51.8491],[-2.17261,51.84866],[-2.17264,51.84863],[-2.17258,51.8486],[-2.17219,51.84841],[-2.17218,51.8484],[-2.17174,51.84819],[-2.17162,51.84812],[-2.1716,51.84814],[-2.17132,51.84805],[-2.17129,51.84807],[-2.17115,51.84803],[-2.17063,51.84843],[-2.17067,51.84845],[-2.17063,51.84849],[-2.17112,51.84872],[-2.17113,51.84871],[-2.17184,51.84907],[-2.17171,51.84916],[-2.17223,51.84941],[-2.17238,51.84939],[-2.17246,51.84932]]]]}},
{ "type":"Feature","properties":{"osm_way_id":"47128617","name":"Morrisons","building":"retail","shop":"supermarket","other":{"brand":"Morrisons","brand:wikidata":"Q922344","brand:wikipedia":"en:Morrisons","nohousenumber":"yes","website":"https:\/\/my.morrisons.com\/storefinder\/337"}}, "geometry":{"type":"MultiPolygon","coordinates":[[[[-2.14733,51.99406],[-2.14744,51.99402],[-2.14734,51.99392],[-2.14723,51.99396],[-2.14733,51.99406]]]]}},
{ "type":"Feature","properties":{"osm_way_id":"115527112","name":"The Co-operative Food","building":"retail","shop":"supermarket","other":{"addr:city":"Winchcombe","addr:housenumber":"22-24","addr:postcode":"GL54 5PS","addr:street":"North Street","alt_name":"The Midcounties Co-operative","fhrs:id":"114928","opening_hours":"Mo-Su 07:00-22:00","operator":"The Midcounties Co-operative Society","source:addr:postcode":"FHRS Open Data","source:geometry":"Bing"}}, "geometry":{"type":"MultiPolygon","coordinates":[[[[-1.96492,51.9542],[-1.96511,51.9541],[-1.96522,51.95405],[-1.96534,51.95413],[-1.96504,51.95429],[-1.96492,51.9542]]]]}},
{ "type":"Feature","properties":{"osm_way_id":"141993271","name":"Morrisons","building":"retail","shop":"supermarket","other":{"addr:city":"Tewkesbury","addr:postcode":"GL20 8AB","addr:street":"Ashchurch Road","branch":"Tewkesbury","brand":"Morrisons","brand:wikidata":"Q922344","brand:wikipedia":"en:Morrisons","building:levels":"2","fhrs:id":"105077","nohousenumber":"yes","opening_hours":"Mo-Sa 07:00-22:00; Su 10:00-16:00","roof:shape":"quadruple_saltbox","source:addr":"FSA Food Hygiene Ratings Database","website":"https:\/\/my.morrisons.com\/storefinder\/337"}}, "geometry":{"type":"MultiPolygon","coordinates":[[[[-2.14782,51.99488],[-2.14772,51.9947],[-2.14699,51.99486],[-2.1467,51.99492],[-2.1466,51.99489],[-2.14654,51.99497],[-2.14664,51.995],[-2.14672,51.99515],[-2.14687,51.99542],[-2.14697,51.99539],[-2.14699,51.99544],[-2.14782,51.99527],[-2.14781,51.99524],[-2.14788,51.99522],[-2.14791,51.99519],[-2.14787,51.99511],[-2.14782,51.9951],[-2.14779,51.99505],[-2.14768,51.99507],[-2.1476,51.99493],[-2.14782,51.99488]]]]}},
{ "type":"Feature","properties":{"osm_way_id":"172273330","name":"ALDI","building":"retail","shop":"supermarket","other":{"addr:city":"Cheltenham","addr:housename":"Aldi","addr:postcode":"GL51 0SN","addr:street":"Hayden Road","brand":"ALDI","brand:wikidata":"Q41171672","brand:wikipedia":"en:Aldi","building:levels":"1","opening_hours":"Mo-Sa 08:00-22:00; Su 10:00-16:00","roof:levels":"1"}}, "geometry":{"type":"MultiPolygon","coordinates":[[[[-2.10956,51.91829],[-2.10922,51.91813],[-2.10936,51.91802],[-2.1094,51.91804],[-2.1098,51.91773],[-2.10994,51.9178],[-2.10998,51.91777],[-2.11009,51.91783],[-2.11004,51.91787],[-2.11009,51.91789],[-2.10956,51.91829]]]]}},
{ "type":"Feature","properties":{"osm_way_id":"183100556","name":"Aldi","building":"yes","shop":"supermarket","other":{"addr:city":"Tewkesbury","addr:country":"GB","addr:housename":"Aldi Tewkesbury","addr:postcode":"GL20 5SY","addr:street":"Gloucester Road","branch":"Tewkesbury","brand":"ALDI","brand:wikidata":"Q41171672","brand:wikipedia":"en:Aldi","contact:website":"https:\/\/www.aldi.co.uk\/store\/s-uk-E0559","fhrs:id":"441808","opening_hours":"Mo-Sa 08:00-21:00; Su 10:00-16:00"}}, "geometry":{"type":"MultiPolygon","coordinates":[[[[-2.16226,51.98529],[-2.16196,51.98549],[-2.16137,51.98513],[-2.16163,51.98497],[-2.1618,51.98507],[-2.16185,51.98504],[-2.16226,51.98529]]]]}},
{ "type":"Feature","properties":{"osm_way_id":"211511974","name":"Tesco","building":"yes","shop":"supermarket","other":{"addr:city":"Cheltenham","addr:postcode":"GL52 8LR","addr:street":"Church Road","addr:village":"Bishop's Cleeve","alt_name":"Tesco Bishop's Cleeve Superstore","brand":"Tesco","brand:wikidata":"Q487494","brand:wikipedia":"en:Tesco","fhrs:id":"27403","not:addr:postcode":"GL52 4LR"}}, "geometry":{"type":"MultiPolygon","coordinates":[[[[-2.06157,51.94672],[-2.06192,51.94673],[-2.06192,51.94669],[-2.06228,51.94669],[-2.06228,51.94652],[-2.06268,51.94652],[-2.06268,51.94634],[-2.06086,51.94633],[-2.06086,51.94666],[-2.06122,51.94667],[-2.06122,51.9467],[-2.06157,51.9467],[-2.06157,51.94672]]]]}},
{ "type":"Feature","properties":{"osm_way_id":"245292088","name":"Tesco","building":"yes","shop":"supermarket","other":{"brand":"Tesco","brand:wikidata":"Q487494","brand:wikipedia":"en:Tesco","opening_hours":"Mo-Sa 08:00-22:00; Su 10:00-16:00","operator":"Tesco"}}, "geometry":{"type":"MultiPolygon","coordinates":[[[[-2.18822,51.8867],[-2.18772,51.88705],[-2.18719,51.88676],[-2.18768,51.88641],[-2.18822,51.8867]]]]}},
{ "type":"Feature","properties":{"osm_way_id":"391998044","name":"Co-op Food","building":"retail","shop":"supermarket","other":{"addr:city":"Tewkesbury","addr:housename":"Northway Centre","addr:postcode":"GL20 8TW","addr:street":"Northway Lane","brand":"Co-op Food","brand:wikidata":"Q3277439","brand:wikipedia":"en:Co-op Food","fhrs:id":"8525","operator":"The Midcounties Co-operative"}}, "geometry":{"type":"MultiPolygon","coordinates":[[[[-2.11102,52.00478],[-2.11151,52.00469],[-2.11152,52.00471],[-2.11172,52.00467],[-2.11164,52.00451],[-2.11162,52.00447],[-2.1116,52.00447],[-2.11158,52.00445],[-2.11096,52.00444],[-2.11097,52.00446],[-2.11087,52.00448],[-2.11096,52.00467],[-2.111,52.00475],[-2.11102,52.00478]]]]}},
{ "type":"Feature","properties":{"osm_way_id":"432950443","name":"Coop","building":"yes","shop":"supermarket","other":{"addr:city":"Winchcombe","addr:postcode":"GL54 5PU","addr:street":"Greet Road","fhrs:id":"859877","opening_hours":"Mo-Sa 07:00-21:00; Su 10:00-16:00","operator":"Coop Midcounties"}}, "geometry":{"type":"MultiPolygon","coordinates":[[[[-1.96652,51.95663],[-1.96615,51.95641],[-1.966,51.95651],[-1.96637,51.95673],[-1.96652,51.95663]]]]}},
{ "type":"Feature","properties":{"osm_way_id":"712322080","name":"Lidl","building":"yes","shop":"supermarket","other":{"addr:city":"Bishops Cleeve","addr:postcode":"GL52 8SA","addr:street":"Evesham Road","brand":"Lidl","brand:wikidata":"Q151954","brand:wikipedia":"en:Lidl","fhrs:id":"1138705","operator":"Lidl GB Limited","survey:date":"2019-07-04"}}, "geometry":{"type":"MultiPolygon","coordinates":[[[[-2.06363,51.94849],[-2.06346,51.94854],[-2.06342,51.9485],[-2.06313,51.94859],[-2.06279,51.94817],[-2.06275,51.94818],[-2.06262,51.94803],[-2.06289,51.94794],[-2.06312,51.94787],[-2.06363,51.94849]]]]}}
]
}
