{
"type": "FeatureCollection",
"features": [
{ "type":"Feature","properties":{"osm_id":"604010451","name":"Spar","other":{"brand":"Spar","brand:wikidata":"Q610492","brand:wikipedia":"en:SPAR (retailer)","shop":"supermarket"}}, "geometry":{"type":"Point","coordinates":[-1.44603,53.2559 ]}},
{ "type":"Feature","properties":{"osm_id":"1143263531","name":"Spar","other":{"addr:city":"Chesterfield","addr:country":"GB","addr:housenumber":"359B","addr:postcode":"S41 8LQ","addr:street":"Sheffield Road","addr:village":"Whittington Moor","brand":"Spar","brand:wikidata":"Q610492","brand:wikipedia":"en:SPAR (retailer)","shop":"supermarket"}}, "geometry":{"type":"Point","coordinates":[-1.42738,53.25621 ]}},
{ "type":"Feature","properties":{"osm_id":"1194761201","name":"Asda","other":{"addr:city":"Chesterfield","addr:country":"GB","addr:housenumber":"358","addr:postcode":"S41 8JZ","addr:street":"Sheffield Road","brand":"Asda","brand:wikidata":"Q297410","brand:wikipedia":"en:Asda","contact:facebook":"https:\/\/www.facebook.com\/asda\/","contact:twitter":"@asda","contact:website":"https:\/\/storelocator.asda.com\/east-midlands\/chesterfield\/358-sheffield-road","fhrs:id":"357062","opening_hours":"Mo-Sa 07:00-23:00; Su 10:00-16:00","operator":"Asda Stores Ltd","shop":"supermarket"}}, "geometry":{"type":"Point","coordinates":[-1.42919,53.25122 ]}},
{ "type":"Feature","properties":{"osm_id":"4908024617","name":"Tesco Metro","other":{"addr:city":"Chesterfield","addr:housenumber":"12","addr:postcode":"S40 1PA","addr:street":"Middle Pavement","brand":"Tesco Metro","brand:wikidata":"Q57551648","brand:wikipedia":"en:Tesco","contact:website":"https:\/\/www.tesco.com\/store-locator\/chesterfield\/12-middle-pavement","fhrs:id":"215437","indoor":"yes","level":"1","shop":"supermarket","source:addr":"FHRS Open Data"}}, "geometry":{"type":"Point","coordinates":[-1.4299,53.23487 ]}},
{ "type":"Feature","properties":{"osm_id":"7817428226","other":{"defibrillator:location":"On outside wall.","emergency":"defibrillator","opening_hours":"24\/7"}}, "geometry":{"type":"Point","coordinates":[-1.46966,53.24536 ]}},
{ "type":"Feature","properties":{"osm_way_id":"23713596","name":"Sainsbury's","building":"yes","shop":"supermarket","other":{"brand":"Sainsbury's","brand:wikidata":"Q152096","brand:wikipedia":"en:Sainsbury's","toilets:wheelchair":"yes","wheelchair":"yes"}}, "geometry":{"type":"MultiPolygon","coordinates":[[[[0.33303,51.42944],[0.33178,51.4304],[0.33281,51.4309],[0.33327,51.43053],[0.33354,51.43066],[0.3337,51.43052],[0.33342,51.4304],[0.33364,51.43023],[0.33363,51.42992],[0.33324,51.42972],[0.33338,51.42962],[0.33303,51.42944]]]]}},
{ "type":"Feature","properties":{"osm_way_id":"145172474","name":"Sainsbury's","building":"yes","shop":"supermarket","other":{"brand":"Sainsbury's","brand:wikidata":"Q152096","brand:wikipedia":"en:Sainsbury's","opening_hours":"Mo-Fr 07:00-23:00; Sa 07:00-22:00; Su 10:00-16:00"}}, "geometry":{"type":"MultiPolygon","coordinates":[[[[-1.41872,53.2544],[-1.41762,53.25434],[-1.41765,53.25416],[-1.41747,53.25415],[-1.4175,53.25396],[-1.41758,53.2535],[-1.41785,53.25351],[-1.41786,53.25347],[-1.41811,53.25349],[-1.4181,53.25352],[-1.41849,53.25355],[-1.41849,53.25351],[-1.41886,53.25353],[-1.41872,53.2544]]]]}},
{ "type":"Feature","properties":{"osm_way_id":"145173928","name":"Tesco Extra","building":"yes","shop":"supermarket","other":{"addr:city":"Chesterfield","addr:postcode":"S41 7EW","addr:street":"Lockoford Lane","brand":"Tesco Extra","brand:wikidata":"Q25172225","brand:wikipedia":"en:Tesco Extra","fhrs:id":"215291","layer":"1","opening_hours":"Mo-Fr 08:00-22:30; Sa 08:00-22:00; Su 10:00-16:00","source:addr":"FHRS Open Data","website":"https:\/\/www.tesco.com\/store-locator\/chesterfield\/lockoford-lane"}}, "geometry":{"type":"MultiPolygon","coordinates":[[[[-1.42394,53.25185],[-1.42411,53.25191],[-1.42509,53.25224],[-1.42504,53.25231],[-1.42502,53.25238],[-1.425,53.25245],[-1.42499,53.2525],[-1.42499,53.25253],[-1.42499,53.25258],[-1.42484,53.25253],[-1.42443,53.25296],[-1.42426,53.2529],[-1.42391,53.25326],[-1.42307,53.25298],[-1.42302,53.25296],[-1.4229,53.25292],[-1.42294,53.25274],[-1.42296,53.2526],[-1.423,53.25246],[-1.42306,53.25235],[-1.42315,53.25225],[-1.42327,53.25216],[-1.4234,53.25208],[-1.42357,53.25201],[-1.42375,53.25193],[-1.42394,53.25185]]]]}},
{ "type":"Feature","properties":{"osm_way_id":"145313218","name":"Morrisons","building":"retail","shop":"supermarket","other":{"brand":"Morrisons","brand:wikidata":"Q922344","brand:wikipedia":"en:Morrisons","opening_hours":"Mo-Sa 07:00-21:00; Su 10:00-16:00","operator":"Morrisons"}}, "geometry":{"type":"MultiPolygon","coordinates":[[[[-1.35468,53.26757],[-1.35471,53.26761],[-1.35453,53.26792],[-1.35446,53.26791],[-1.35417,53.26843],[-1.35399,53.2685],[-1.35396,53.26847],[-1.35363,53.26841],[-1.35374,53.2682],[-1.35363,53.26817],[-1.35365,53.26814],[-1.35325,53.26806],[-1.3533,53.26795],[-1.35325,53.26794],[-1.35326,53.26785],[-1.3533,53.2675],[-1.35307,53.26749],[-1.35308,53.26743],[-1.35309,53.2674],[-1.35344,53.26742],[-1.35354,53.26742],[-1.35358,53.26737],[-1.35468,53.26757]]]]}},
{ "type":"Feature","properties":{"osm_way_id":"145481129","name":"Morrisons","building":"yes","shop":"supermarket","other":{"brand":"Morrisons","brand:wikidata":"Q922344","brand:wikipedia":"en:Morrisons","opening_hours":"Mo-Sa 07:00-22:00; Su 10:00-16:00"}}, "geometry":{"type":"MultiPolygon","coordinates":[[[[-1.45185,53.23099],[-1.45264,53.23111],[-1.45235,53.23176],[-1.45203,53.23171],[-1.45206,53.23163],[-1.45161,53.23156],[-1.45163,53.23152],[-1.45133,53.23147],[-1.45145,53.2312],[-1.45132,53.23115],[-1.45114,53.23117],[-1.4511,53.23106],[-1.45145,53.23102],[-1.45169,53.23106],[-1.45172,53.23102],[-1.45185,53.23099]]]]}},
{ "type":"Feature","properties":{"osm_way_id":"199560532","name":"Job Lot","building":"yes","shop":"supermarket"},"geometry":{"type":"MultiPolygon","coordinates":[[[[-1.35084,53.26605],[-1.35062,53.26599],[-1.35085,53.2657],[-1.35107,53.26576],[-1.35084,53.26605]]]]}},
{ "type":"Feature","properties":{"osm_way_id":"251764630","name":"The Co-operative Food","building":"retail","shop":"supermarket","other":{"addr:city":"Chesterfield","addr:housenumber":"5a","addr:postcode":"S41 0JB","addr:street":"Mansfield Road","fhrs:id":"215005","operator":"Central England Co-operative"}}, "geometry":{"type":"MultiPolygon","coordinates":[[[[-1.40687,53.22062],[-1.40691,53.22064],[-1.40701,53.22053],[-1.40685,53.22045],[-1.40677,53.22052],[-1.40666,53.2206],[-1.40653,53.22053],[-1.40646,53.22058],[-1.40649,53.2206],[-1.40647,53.22061],[-1.40658,53.22067],[-1.40661,53.22065],[-1.40675,53.22071],[-1.40687,53.22062]]]]}},
{ "type":"Feature","properties":{"osm_way_id":"252047678","name":"Lidl","building":"supermarket","shop":"supermarket","other":{"addr:country":"GB","addr:postcode":"S41 8LX","addr:street":"Sheffield Road","brand":"Lidl","brand:wikidata":"Q151954","brand:wikipedia":"en:Lidl","fhrs:id":"214916","opening_hours":"Mo-Sa 08:00-20:00; Su 10:00-16:00"}}, "geometry":{"type":"MultiPolygon","coordinates":[[[[-1.42968,53.2592],[-1.42902,53.25946],[-1.42884,53.25929],[-1.4288,53.2593],[-1.42868,53.25917],[-1.429,53.25905],[-1.42903,53.25909],[-1.42934,53.25897],[-1.42952,53.25914],[-1.42959,53.25911],[-1.42968,53.2592]]]]}},
{ "type":"Feature","properties":{"osm_way_id":"278437079","name":"Co-op","building":"yes","shop":"supermarket","other":{"addr:city":"Chesterfield","addr:postcode":"S41 0HL","addr:street":"Spital Lane","opening_hours":"07:00-23:00","operator":"The Co-operative Group","wheelchair":"yes"}}, "geometry":{"type":"MultiPolygon","coordinates":[[[[-1.4163,53.22937],[-1.41619,53.22922],[-1.41608,53.22928],[-1.41596,53.22935],[-1.41606,53.22943],[-1.4161,53.22941],[-1.41616,53.22945],[-1.4163,53.22937]]]]}},
{ "type":"Feature","properties":{"osm_way_id":"286214049","name":"ALDI","building":"yes","shop":"supermarket","other":{"brand":"ALDI","brand:wikidata":"Q41171672","brand:wikipedia":"en:Aldi","opening_hours":"Mo-Sa 08:00-21:00; Su 10:00-14:00"}}, "geometry":{"type":"MultiPolygon","coordinates":[[[[-1.42637,53.25216],[-1.42637,53.25222],[-1.42632,53.25222],[-1.42633,53.25239],[-1.42719,53.25239],[-1.42718,53.25219],[-1.42714,53.25219],[-1.42714,53.25212],[-1.42653,53.25212],[-1.42653,53.25216],[-1.42637,53.25216]]]]}},
{ "type":"Feature","properties":{"osm_way_id":"303471722","name":"Lemongrass Oriental Supermarket","shop":"supermarket"},"geometry":{"type":"MultiPolygon","coordinates":[[[[-1.42745,53.23383],[-1.4273,53.23382],[-1.42712,53.2338],[-1.42715,53.23359],[-1.42735,53.23361],[-1.42752,53.23364],[-1.42745,53.23383]]]]}},
{ "type":"Feature","properties":{"osm_way_id":"303497182","name":"Spar","shop":"supermarket","other":{"brand":"Spar","brand:wikidata":"Q610492","brand:wikipedia":"en:SPAR (retailer)"}}, "geometry":{"type":"MultiPolygon","coordinates":[[[[-1.44582,53.23906],[-1.4458,53.23906],[-1.4457,53.23906],[-1.44563,53.23907],[-1.44563,53.23904],[-1.4456,53.23905],[-1.44533,53.23905],[-1.44527,53.23908],[-1.44521,53.23908],[-1.44518,53.23908],[-1.44521,53.23902],[-1.4453,53.23894],[-1.44536,53.23896],[-1.44539,53.23899],[-1.44553,53.23898],[-1.44556,53.2389],[-1.44558,53.23886],[-1.44584,53.2389],[-1.44582,53.23894],[-1.44581,53.23898],[-1.44582,53.23906]]]]}},
{ "type":"Feature","properties":{"osm_way_id":"321274742","name":"The Co-operative Food","building":"yes","shop":"supermarket","other":{"operator":"Central England Co-operative Society"}}, "geometry":{"type":"MultiPolygon","coordinates":[[[[-1.46993,53.24541],[-1.46959,53.24554],[-1.46947,53.24544],[-1.46966,53.24536],[-1.46981,53.2453],[-1.46993,53.24541]]]]}},
{ "type":"Feature","properties":{"osm_way_id":"827817167","name":"Lidl","building":"yes","shop":"supermarket","other":{"addr:country":"GB","addr:housenumber":"240","addr:postcode":"S40 2BJ","addr:street":"Chatsworth Road","brand":"Lidl","brand:wikidata":"Q151954","brand:wikipedia":"en:Lidl","building:levels":"1","fhrs:id":"1136346"}}, "geometry":{"type":"MultiPolygon","coordinates":[[[[-1.44695,53.23335],[-1.44647,53.23345],[-1.44612,53.23281],[-1.44631,53.23277],[-1.44633,53.23281],[-1.44657,53.23276],[-1.44662,53.23275],[-1.44695,53.23335]]]]}},
{ "type":"Feature","properties":{"osm_way_id":"875703434","name":"Ashgate Road Co-op","building":"yes","shop":"supermarket","other":{"addr:housenumber":"240","addr:street":"Ashgate Road","operator":"Co-operative Group Ltd"}}, "geometry":{"type":"MultiPolygon","coordinates":[[[[-1.45379,53.23959],[-1.4538,53.23938],[-1.45355,53.23938],[-1.45353,53.23958],[-1.45361,53.23959],[-1.45379,53.23959]]]]}}
]
}
