{
"type": "FeatureCollection",
"features": [
{ "type":"Feature","properties":{"osm_id":"1705493007","name":"Waitrose","other":{"addr:city":"Woking","addr:housename":"Goldsworth Park Centre","addr:housenumber":"1","addr:postcode":"GU21 3LG","addr:street":"Denton Way","brand":"Waitrose","brand:wikidata":"Q771734","brand:wikipedia":"en:Waitrose & Partners","cafe":"no","last_check":"2018-10-17","official_name":"Waitrose & Partners","opening_hours":"Mo-Sa 08:00-20:00; Su 10:00-16:00","operator":"Waitrose & Partners","phone":"+44 1483 725754","shop":"supermarket","website":"waitrose.com\/goldsworthpark"}}, "geometry":{"type":"Point","coordinates":[-0.58975,51.31839 ]}},
{ "type":"Feature","properties":{"osm_id":"1872755657","name":"Sainsbury's","other":{"addr:city":"Woking","addr:housenumber":"15","addr:postcode":"GU21 6XU","addr:street":"Wolsey Walk","brand":"Sainsbury's","brand:wikidata":"Q152096","contact:website":"https:\/\/stores.sainsburys.co.uk\/0802\/woking","fhrs:id":"15923","opening_hours":"Mo-Sa 07:00-20:00; Su 11:00-17:00","phone":"+441483 769677","shop":"supermarket","source:addr":"FHRS Open Data","wheelchair":"yes"}}, "geometry":{"type":"Point","coordinates":[-0.55987,51.31913 ]}},
{ "type":"Feature","properties":{"osm_id":"4942262400","name":"Pyrford's Co-op","other":{"opening_hours":"Mo-Su 06:00-22:00","shop":"supermarket"}}, "geometry":{"type":"Point","coordinates":[-0.51158,51.32679 ]}},
{ "type":"Feature","properties":{"osm_way_id":"34214538","name":"Sainsbury's","building":"yes","shop":"supermarket","other":{"addr:city":"Woking","addr:postcode":"GU21 2QT","addr:street":"Redding Way","brand":"Sainsbury's","brand:wikidata":"Q152096","brand:wikipedia":"en:Sainsbury's","check_date":"2017-06-21","contact:phone":"+44 1483 799601","contact:website":"https:\/\/stores.sainsburys.co.uk\/0686\/brookwood","opening_hours":"Mo-Sa 07:00-22:00; Su 10:00-16:00","operator":"Sainsbury's Supermarkets Ltd","toilets":"yes","toilets:wheelchair":"yes","wheelchair":"yes"}}, "geometry":{"type":"MultiPolygon","coordinates":[[[[-0.62632,51.31218],[-0.62604,51.31199],[-0.62619,51.3119],[-0.6262,51.31175],[-0.62613,51.31126],[-0.62587,51.31112],[-0.6255,51.31136],[-0.62545,51.31133],[-0.62507,51.31157],[-0.62509,51.31159],[-0.62455,51.31193],[-0.62562,51.31261],[-0.62632,51.31218]]]]}},
{ "type":"Feature","properties":{"osm_way_id":"37530413","name":"Waitrose","building":"yes","shop":"supermarket","other":{"brand":"Waitrose & Partners","brand:wikidata":"Q771734","brand:wikipedia":"en:Waitrose & Partners","opening_hours":"Mo-Fr 07:30-21:00; Sa 07:30-20:00; Su 10:00-16:00","operator":"Waitrose & Partners"}}, "geometry":{"type":"MultiPolygon","coordinates":[[[[-0.50612,51.33723],[-0.50573,51.33738],[-0.50553,51.33745],[-0.50522,51.33714],[-0.5058,51.33691],[-0.50612,51.33723]]]]}},
{ "type":"Feature","properties":{"osm_way_id":"158324954","name":"Morrisons","building":"yes","shop":"supermarket","other":{"addr:city":"Woking","addr:housenumber":"82","addr:postcode":"GU21 6ND","addr:street":"Goldsworth Road","brand":"Morrisons","brand:wikidata":"Q922344","brand:wikipedia":"en:Morrisons","last_check":"2018-07-21","opening_hours":"Mo-Sa 06:00-23:00; Su 10:00-16:00","operator":"Morrisons Supermarkets plc","phone":"+44 1483 755552","website":"https:\/\/www.morrisons.com\/"}}, "geometry":{"type":"MultiPolygon","coordinates":[[[[-0.56817,51.31564],[-0.56806,51.31547],[-0.56805,51.31545],[-0.56802,51.3154],[-0.56798,51.31535],[-0.56797,51.31532],[-0.56786,51.31534],[-0.56767,51.31505],[-0.56653,51.31535],[-0.56657,51.31543],[-0.56652,51.31544],[-0.56651,51.31549],[-0.56661,51.31551],[-0.56678,51.31582],[-0.56664,51.31585],[-0.56667,51.31591],[-0.56663,51.31592],[-0.56668,51.31599],[-0.56689,51.31599],[-0.56689,51.31598],[-0.56817,51.31564]]]]}},
{ "type":"Feature","properties":{"osm_way_id":"176790942","name":"Co-op","building":"yes","shop":"supermarket","other":{"addr:postcode":"GU21 7SE","addr:street":"St John's Road","opening_hours":"Mo-Su 07:00-23:00","wheelchair":"no"}}, "geometry":{"type":"MultiPolygon","coordinates":[[[[-0.59536,51.31236],[-0.59531,51.31235],[-0.59533,51.31233],[-0.59524,51.31231],[-0.59523,51.31233],[-0.59508,51.31229],[-0.59509,51.31226],[-0.595,51.31224],[-0.59499,51.31226],[-0.59495,51.31225],[-0.59489,51.31235],[-0.59499,51.31238],[-0.59494,51.31246],[-0.5949,51.31252],[-0.595,51.31255],[-0.59504,51.31249],[-0.59509,51.31241],[-0.59517,51.31243],[-0.59516,51.31244],[-0.59523,51.31246],[-0.59524,51.31243],[-0.5953,51.31245],[-0.59535,51.31238],[-0.59536,51.31236]]]]}},
{ "type":"Feature","properties":{"osm_way_id":"176792154","name":"The Co-operative Food","building":"yes","shop":"supermarket","other":{"addr:housename":"Inkerman Parade","addr:housenumber":"1-2","addr:postcode":"GU21 2AW","addr:street":"Victoria Road","opening_hours":"Mo-Sa 06:00-22:00; Su 07:00-22:00"}}, "geometry":{"type":"MultiPolygon","coordinates":[[[[-0.60766,51.31626],[-0.60742,51.31615],[-0.60751,51.31608],[-0.60775,51.31619],[-0.60766,51.31626]]]]}},
{ "type":"Feature","properties":{"osm_way_id":"190343190","name":"The Hook Hath CO-OP","building":"yes","shop":"supermarket","other":{"opening_hours":"Mo-Su 07:00-22:00"}}, "geometry":{"type":"MultiPolygon","coordinates":[[[[-0.57656,51.30903],[-0.57658,51.30904],[-0.57646,51.30918],[-0.5763,51.30913],[-0.57635,51.30908],[-0.57632,51.30909],[-0.57629,51.30903],[-0.57642,51.309],[-0.57643,51.30898],[-0.57647,51.309],[-0.57648,51.30899],[-0.57657,51.30902],[-0.57656,51.30903]]]]}},
{ "type":"Feature","properties":{"osm_way_id":"274167057","name":"The Co-operative Food","building":"yes","shop":"supermarket","other":{"addr:city":"Horsell","addr:country":"GB","addr:housenumber":"90-92","addr:postcode":"GU21 4SZ","addr:street":"High Street","check_date":"2018-04-24","opening_hours":"Mo-Su 07:00-23:00","phone":"+441483 764071","website":"http:\/\/www.co-operativefood.co.uk\/"}}, "geometry":{"type":"MultiPolygon","coordinates":[[[[-0.57478,51.32386],[-0.57488,51.32373],[-0.57487,51.32373],[-0.57488,51.3237],[-0.5746,51.32362],[-0.5745,51.32375],[-0.57449,51.32377],[-0.57478,51.32386]]]]}},
{ "type":"Feature","properties":{"osm_way_id":"287967409","name":"Radhika Convenience Store","building":"house","shop":"supermarket","other":{"addr:housenumber":"175-177","addr:street":"Walton Road","contact:phone":"+44 1483 772 256"}}, "geometry":{"type":"MultiPolygon","coordinates":[[[[-0.54716,51.3239],[-0.54713,51.32388],[-0.54705,51.32391],[-0.54714,51.32399],[-0.54711,51.324],[-0.54716,51.32405],[-0.54722,51.32411],[-0.54724,51.32413],[-0.54735,51.32408],[-0.54733,51.32407],[-0.54716,51.3239]]]]}},
{ "type":"Feature","properties":{"osm_way_id":"357823175","name":"The Co-operative Food","building":"yes","shop":"supermarket","other":{"addr:city":"West Byfleet","addr:housenumber":"2","addr:postcode":"KT14 7DU","addr:street":"Oyster Lane","contact:website":"http:\/\/www.coop.co.uk\/store\/food\/KT14-7DU\/2-oyster-lane","opening_hours":"Mo-Su 06:00-23:00","operator":"The Co-operative Group"}}, "geometry":{"type":"MultiPolygon","coordinates":[[[[-0.47385,51.33934],[-0.47362,51.33936],[-0.47358,51.33917],[-0.4736,51.33917],[-0.47378,51.33915],[-0.4738,51.33915],[-0.47385,51.33934]]]]}},
{ "type":"Feature","properties":{"osm_way_id":"439796287","name":"Budgens","building":"yes","shop":"supermarket","other":{"addr:city":"Woking","addr:housename":"Rydens Parade","addr:housenumber":"3\/5","addr:street":"Rydens Way","brand":"Budgens","brand:wikidata":"Q4985016","brand:wikipedia":"en:Budgens","opening_hours":"Mo-Fr 07:00-21:00; Sa-Su 08:00-21:00","payment:cash":"yes","payment:credit_cards":"yes","payment:debit_cards":"yes"}}, "geometry":{"type":"MultiPolygon","coordinates":[[[[-0.5416,51.30556],[-0.54114,51.30556],[-0.54114,51.30546],[-0.5416,51.30546],[-0.5416,51.30556]]]]}},
{ "type":"Feature","properties":{"osm_way_id":"446154981","name":"Byfleet Village's Co-op","building":"retail","shop":"supermarket","other":{"addr:city":"West Byfleet","addr:postcode":"KT14 7RA","addr:street":"High Road","opening_hours":"Mo-Su 07:00-22:00","operator":"The Co-operative Group"}}, "geometry":{"type":"MultiPolygon","coordinates":[[[[-0.47318,51.33779],[-0.47315,51.33784],[-0.47309,51.33785],[-0.47287,51.33785],[-0.47287,51.33775],[-0.47315,51.33776],[-0.47318,51.33779]]]]}},
{ "type":"Feature","properties":{"osm_way_id":"476184909","name":"Holland & Barrett","shop":"supermarket","other":{"addr:city":"Woking","addr:housenumber":"27","addr:postcode":"GU21 6XX","addr:street":"Wolsey Walk","brand:wikidata":"Q5880870","opening_hours":"Mo-Fr 08:30-20:00; Sa 08:30-19:00; Su 10:30-17:00","organic":"yes","phone":"+441483 772978","website":"https:\/\/www.hollandandbarrett.com\/","wheelchair":"yes"}}, "geometry":{"type":"MultiPolygon","coordinates":[[[[-0.55904,51.31921],[-0.5591,51.31918],[-0.55923,51.31929],[-0.55916,51.31932],[-0.55904,51.31921]]]]}},
{ "type":"Feature","properties":{"osm_way_id":"620056444","name":"Co-Op","building":"yes","shop":"supermarket"},"geometry":{"type":"MultiPolygon","coordinates":[[[[-0.51169,51.32683],[-0.5117,51.32683],[-0.5116,51.32691],[-0.51159,51.3269],[-0.51149,51.32697],[-0.51143,51.32693],[-0.5115,51.32688],[-0.51141,51.32683],[-0.51153,51.32674],[-0.51169,51.32683]]]]}},
{ "type":"Feature","properties":{"osm_way_id":"793190689","name":"Asda","building":"supermarket","shop":"supermarket","other":{"addr:city":"Woking","addr:country":"GB","addr:postcode":"GU21 5SB","addr:street":"Forsyth Road","addr:suburb":"Sheerwater","brand":"Asda","brand:wikidata":"Q297410","brand:wikipedia":"en:Asda","contact:facebook":"https:\/\/www.facebook.com\/asda\/","contact:twitter":"@asda","contact:website":"https:\/\/storelocator.asda.com\/south-east\/woking\/forsyth-road-sheerwater","fhrs:id":"730253","opening_hours":"Mo-Sa 07:00-23:00; Su 10:00-16:00","operator":"Asda Stores Ltd"}}, "geometry":{"type":"MultiPolygon","coordinates":[[[[-0.53081,51.33204],[-0.53101,51.33196],[-0.53108,51.33202],[-0.5311,51.33201],[-0.53115,51.33199],[-0.53134,51.33191],[-0.53154,51.33184],[-0.53164,51.33179],[-0.53194,51.33167],[-0.53145,51.3312],[-0.53115,51.33133],[-0.53096,51.33114],[-0.53094,51.33114],[-0.53086,51.33118],[-0.53066,51.33126],[-0.53047,51.33133],[-0.53042,51.33136],[-0.53039,51.33137],[-0.5302,51.33145],[-0.53081,51.33204]]]]}}
]
}
