{
"type": "FeatureCollection",
"features": [
{ "type":"Feature","properties":{"osm_id":"932243529","name":"Connect National Parts Distribution centre","man_made":"works","other":{"addr:city":"Birmingham","addr:postcode":"B9 4UA","addr:street":"Bordesley Green Road"}}, "geometry":{"type":"Point","coordinates":[-1.85791,52.48038 ]}},
{ "type":"Feature","properties":{"osm_id":"3502063787","name":"Washing Machine Distribution","other":{"shop":"electronics"}}, "geometry":{"type":"Point","coordinates":[-1.91237,52.49229 ]}},
{ "type":"Feature","properties":{"osm_id":"3574870526","name":"Enterprise Security Distribution","other":{"office":"company"}}, "geometry":{"type":"Point","coordinates":[-1.87422,52.5024 ]}},
{ "type":"Feature","properties":{"osm_way_id":"57935970","name":"Connect Distribution Services","building":"yes","other":{"addr:city":"Birmingham","addr:housename":"Unit 3","addr:postcode":"B10 0HJ","addr:street":"Talbot Way","url":"http:\/\/www.connect-distribution.co.uk\/"}}, "geometry":{"type":"MultiPolygon","coordinates":[[[[-1.84659,52.46201],[-1.84627,52.46204],[-1.8461,52.46137],[-1.84693,52.46129],[-1.84698,52.46149],[-1.84646,52.46153],[-1.84659,52.46201]]]]}},
{ "type":"Feature","properties":{"osm_way_id":"75108483","name":"CPD Distribution","building":"yes"},"geometry":{"type":"MultiPolygon","coordinates":[[[[-1.88502,52.49348],[-1.88443,52.49323],[-1.88473,52.49297],[-1.88532,52.49321],[-1.88502,52.49348]]]]}},
{ "type":"Feature","properties":{"osm_way_id":"76128741","name":"W H Smith Ltd Birmingham Distribution Centre","building":"warehouse"},"geometry":{"type":"MultiPolygon","coordinates":[[[[-1.87092,52.5142],[-1.87037,52.51462],[-1.87007,52.51448],[-1.86977,52.51471],[-1.86896,52.51431],[-1.86861,52.51415],[-1.86842,52.51405],[-1.86868,52.51386],[-1.86766,52.51336],[-1.86825,52.51291],[-1.87092,52.5142]]]]}},
{ "type":"Feature","properties":{"osm_way_id":"82005328","name":"Centresoft \/ PDQ Distribution Limited","building":"industrial"},"geometry":{"type":"MultiPolygon","coordinates":[[[[-1.88882,52.51904],[-1.88858,52.51909],[-1.88862,52.5192],[-1.88849,52.51922],[-1.88847,52.51919],[-1.8878,52.5193],[-1.88712,52.51941],[-1.88708,52.51932],[-1.88735,52.51928],[-1.8871,52.51869],[-1.88855,52.51845],[-1.88882,52.51904]]]]}},
{ "type":"Feature","properties":{"osm_way_id":"82225214","name":"NCF Distribution","building":"warehouse"},"geometry":{"type":"MultiPolygon","coordinates":[[[[-1.89953,52.52182],[-1.89824,52.52206],[-1.89801,52.52151],[-1.89929,52.52129],[-1.89953,52.52182]]]]}},
{ "type":"Feature","properties":{"osm_way_id":"82928398","name":"T. Quality Birmingham Distribution Centre","building":"industrial"},"geometry":{"type":"MultiPolygon","coordinates":[[[[-1.87336,52.49829],[-1.87307,52.49831],[-1.87295,52.49765],[-1.87322,52.49764],[-1.87326,52.49783],[-1.87337,52.49783],[-1.87344,52.49819],[-1.87334,52.4982],[-1.87336,52.49829]]]]}},
{ "type":"Feature","properties":{"osm_way_id":"108557413","name":"Benchmark Distribution Ltd","building":"industrial"},"geometry":{"type":"MultiPolygon","coordinates":[[[[-1.89145,52.49113],[-1.8916,52.49065],[-1.89169,52.49037],[-1.892,52.4904],[-1.89187,52.49084],[-1.89184,52.49092],[-1.89176,52.49117],[-1.89145,52.49113]]]]}},
{ "type":"Feature","properties":{"osm_way_id":"116073276","name":"Western Power Distribution","landuse":"industrial"},"geometry":{"type":"MultiPolygon","coordinates":[[[[-1.87043,52.50245],[-1.86925,52.50029],[-1.86881,52.50078],[-1.86799,52.50171],[-1.86896,52.50195],[-1.86921,52.50201],[-1.86968,52.50224],[-1.87026,52.50249],[-1.87043,52.50245]]]]}},
{ "type":"Feature","properties":{"osm_way_id":"150507421","name":"Nippon Distribution","building":"industrial","other":{"addr:city":"Sutton Coldfield","addr:housenumber":"Unit 8C","addr:postcode":"B75 7BU","addr:street":"Reddicap Trading Estate"}}, "geometry":{"type":"MultiPolygon","coordinates":[[[[-1.80839,52.56062],[-1.80782,52.5606],[-1.80783,52.56048],[-1.80825,52.56049],[-1.80825,52.56047],[-1.8084,52.56048],[-1.80839,52.56062]]]]}},
{ "type":"Feature","properties":{"osm_way_id":"292794583","name":"CCFL Distribution","building":"yes"},"geometry":{"type":"MultiPolygon","coordinates":[[[[-1.88133,52.47634],[-1.88174,52.47654],[-1.88167,52.47661],[-1.88126,52.47643],[-1.88133,52.47634]]]]}}
]
}
