{
"type": "FeatureCollection",
"features": [
{ "type":"Feature","properties":{"osm_way_id":"19375924","name":"SCC Building 7","building":"warehouse"},"geometry":{"type":"MultiPolygon","coordinates":[[[[-1.85363,52.45465],[-1.85373,52.45458],[-1.85397,52.45441],[-1.85395,52.4544],[-1.85417,52.45424],[-1.85435,52.45433],[-1.85442,52.45437],[-1.85518,52.45383],[-1.85508,52.45378],[-1.85519,52.4537],[-1.85475,52.45346],[-1.85458,52.45358],[-1.85451,52.45355],[-1.85382,52.45403],[-1.85372,52.45398],[-1.85295,52.45452],[-1.85319,52.45464],[-1.85326,52.4546],[-1.85351,52.45474],[-1.85363,52.45465]]]]}},
{ "type":"Feature","properties":{"osm_way_id":"19376092","name":"SCC Cole Valley 1","building":"warehouse","other":{"addr:city":"Birmingham","addr:postcode":"B11 3RZ","addr:street":"Westwood Avenue"}}, "geometry":{"type":"MultiPolygon","coordinates":[[[[-1.85334,52.45203],[-1.8539,52.45179],[-1.85358,52.45147],[-1.85308,52.45094],[-1.85249,52.45116],[-1.85334,52.45203]]]]}},
{ "type":"Feature","properties":{"osm_way_id":"23620336","building":"warehouse"},"geometry":{"type":"MultiPolygon","coordinates":[[[[-1.87475,52.48304],[-1.87454,52.48263],[-1.87442,52.48265],[-1.87431,52.48242],[-1.87453,52.48238],[-1.87455,52.48241],[-1.87681,52.48199],[-1.87676,52.4819],[-1.8771,52.48184],[-1.87745,52.48254],[-1.87475,52.48304]]]]}},
{ "type":"Feature","properties":{"osm_way_id":"57832033","name":"Redfern Park Delivery Office","building":"warehouse","other":{"addr:city":"Birmingham","addr:postcode":"B11 2DY","addr:street":"Redfern Road","operator":"Royal Mail"}}, "geometry":{"type":"MultiPolygon","coordinates":[[[[-1.8343,52.45488],[-1.83386,52.45516],[-1.83379,52.45512],[-1.83375,52.45514],[-1.83358,52.45504],[-1.83362,52.45501],[-1.83351,52.45495],[-1.83395,52.45467],[-1.8343,52.45488]]]]}},
{ "type":"Feature","properties":{"osm_way_id":"58251468","name":"Tiling Logistics Ltd","building":"warehouse","other":{"addr:city":"Birmingham","addr:housenumber":"16","addr:postcode":"B11 2LA","addr:street":"Seeleys Road"}}, "geometry":{"type":"MultiPolygon","coordinates":[[[[-1.8521,52.45734],[-1.85183,52.45729],[-1.85215,52.45667],[-1.85233,52.4567],[-1.85231,52.45675],[-1.8524,52.45676],[-1.8521,52.45734]]]]}},
{ "type":"Feature","properties":{"osm_way_id":"74559024","building":"warehouse","other":{"addr:city":"Birmingham","addr:street":"Clement Street"}}, "geometry":{"type":"MultiPolygon","coordinates":[[[[-1.91507,52.48131],[-1.91487,52.48141],[-1.9147,52.48128],[-1.9149,52.48118],[-1.91507,52.48131]]]]}},
{ "type":"Feature","properties":{"osm_way_id":"75108489","name":"JJ Food Service","building":"warehouse","other":{"addr:city":"Birmingham","addr:housename":"Unit4, Ringway Business Park","addr:housenumber":"101","addr:postcode":"B7 4NA","addr:street":"Avenue Road","website":"https:\/\/www.jjfoodservice.com"}}, "geometry":{"type":"MultiPolygon","coordinates":[[[[-1.88175,52.49494],[-1.88106,52.49462],[-1.88147,52.49428],[-1.88218,52.49461],[-1.88175,52.49494]]]]}},
{ "type":"Feature","properties":{"osm_way_id":"76124850","name":"Wild","building":"warehouse"},"geometry":{"type":"MultiPolygon","coordinates":[[[[-1.87473,52.50938],[-1.87364,52.50933],[-1.87379,52.50847],[-1.87404,52.50823],[-1.87489,52.50829],[-1.87473,52.50938]]]]}},
{ "type":"Feature","properties":{"osm_way_id":"76124852","building":"warehouse","other":{"addr:city":"Birmingham","addr:postcode":"B6 7EB","addr:street":"Electric Avenue"}}, "geometry":{"type":"MultiPolygon","coordinates":[[[[-1.8747,52.51121],[-1.87373,52.51117],[-1.87393,52.50952],[-1.87489,52.50956],[-1.8747,52.51121]]]]}},
{ "type":"Feature","properties":{"osm_way_id":"76125788","name":"Freedom Paper Converters Ltd","building":"warehouse","office":"company"},"geometry":{"type":"MultiPolygon","coordinates":[[[[-1.87321,52.51113],[-1.87214,52.51107],[-1.87228,52.51],[-1.87247,52.51001],[-1.87252,52.50966],[-1.87284,52.50968],[-1.87286,52.50954],[-1.87341,52.50957],[-1.87321,52.51113]]]]}},
{ "type":"Feature","properties":{"osm_way_id":"76128741","name":"W H Smith Ltd Birmingham Distribution Centre","building":"warehouse"},"geometry":{"type":"MultiPolygon","coordinates":[[[[-1.87092,52.5142],[-1.87037,52.51462],[-1.87007,52.51448],[-1.86977,52.51471],[-1.86896,52.51431],[-1.86861,52.51415],[-1.86842,52.51405],[-1.86868,52.51386],[-1.86766,52.51336],[-1.86825,52.51291],[-1.87092,52.5142]]]]}},
{ "type":"Feature","properties":{"osm_way_id":"82225214","name":"NCF Distribution","building":"warehouse"},"geometry":{"type":"MultiPolygon","coordinates":[[[[-1.89953,52.52182],[-1.89824,52.52206],[-1.89801,52.52151],[-1.89929,52.52129],[-1.89953,52.52182]]]]}},
{ "type":"Feature","properties":{"osm_way_id":"82226291","name":"BMTR","building":"warehouse","shop":"tyres","other":{"addr:city":"Birmingham","addr:housenumber":"103-115","addr:postcode":"B42 1TU","addr:street":"Walsall Road","operator":"Birmingham Motor Tyres Ltd","phone":"+44 1213311122","website":"http:\/\/www.birminghammotortyre.co.uk\/"}}, "geometry":{"type":"MultiPolygon","coordinates":[[[[-1.90003,52.5224],[-1.89995,52.5222],[-1.89988,52.52215],[-1.89988,52.52207],[-1.89992,52.52192],[-1.89992,52.52184],[-1.89989,52.52182],[-1.89987,52.52179],[-1.89987,52.52176],[-1.89989,52.52172],[-1.89974,52.52119],[-1.90038,52.52109],[-1.90085,52.5221],[-1.9009,52.52222],[-1.90003,52.5224]]]]}},
{ "type":"Feature","properties":{"osm_way_id":"85502683","name":"Carpet and Flooring","building":"warehouse","other":{"addr:city":"Birmingham","addr:postcode":"B32 3BZ","addr:street":"Bell Heath Way"}}, "geometry":{"type":"MultiPolygon","coordinates":[[[[-2.00732,52.4428],[-2.00646,52.44269],[-2.00669,52.44202],[-2.00755,52.44213],[-2.00732,52.4428]]]]}},
{ "type":"Feature","properties":{"osm_way_id":"90723132","name":"25th Birmingham 1st Beeches Scout Group","building":"warehouse","other":{"addr:city":"Birmingham","addr:postcode":"B42 2PZ","addr:street":"Desford Avenue","club":"scout","wheelchair":"yes"}}, "geometry":{"type":"MultiPolygon","coordinates":[[[[-1.90792,52.53868],[-1.908,52.53859],[-1.90777,52.53851],[-1.90769,52.5386],[-1.90792,52.53868]]]]}},
{ "type":"Feature","properties":{"osm_way_id":"104242284","name":"Cadbury's Storage Facility","building":"warehouse"},"geometry":{"type":"MultiPolygon","coordinates":[[[[-1.77764,52.52808],[-1.77616,52.52814],[-1.77617,52.52822],[-1.77556,52.52825],[-1.77555,52.52816],[-1.77401,52.52823],[-1.77386,52.52693],[-1.77507,52.52688],[-1.77505,52.5268],[-1.77626,52.52674],[-1.77626,52.52683],[-1.77747,52.52677],[-1.77764,52.52808]]]]}},
{ "type":"Feature","properties":{"osm_way_id":"114685419","building":"warehouse"},"geometry":{"type":"MultiPolygon","coordinates":[[[[-1.84583,52.50884],[-1.84539,52.5088],[-1.84484,52.50872],[-1.84486,52.50866],[-1.8448,52.50865],[-1.84478,52.5087],[-1.84392,52.50856],[-1.84399,52.50839],[-1.84389,52.50838],[-1.84391,52.50833],[-1.84332,52.50824],[-1.84329,52.50823],[-1.84332,52.50815],[-1.84342,52.50816],[-1.84343,52.50814],[-1.84346,52.50807],[-1.84349,52.50799],[-1.8435,52.50799],[-1.84351,52.50799],[-1.84355,52.50799],[-1.84356,52.508],[-1.8436,52.508],[-1.84361,52.508],[-1.84365,52.50801],[-1.84367,52.50801],[-1.84371,52.50802],[-1.84372,52.50802],[-1.84376,52.50803],[-1.84377,52.50803],[-1.84381,52.50804],[-1.84382,52.50804],[-1.84386,52.50804],[-1.84388,52.50805],[-1.84392,52.50805],[-1.84393,52.50805],[-1.84397,52.50806],[-1.84398,52.50806],[-1.84402,52.50807],[-1.84403,52.50807],[-1.84407,52.50808],[-1.84409,52.50808],[-1.84412,52.50809],[-1.84414,52.50809],[-1.84418,52.50809],[-1.84419,52.5081],[-1.84423,52.5081],[-1.84424,52.50811],[-1.84428,52.50811],[-1.84429,52.50811],[-1.84433,52.50812],[-1.84435,52.50812],[-1.84439,52.50813],[-1.8444,52.50813],[-1.84444,52.50814],[-1.84445,52.50814],[-1.84449,52.50815],[-1.8445,52.50815],[-1.84454,52.50815],[-1.84456,52.50816],[-1.8446,52.50816],[-1.84461,52.50816],[-1.84465,52.50817],[-1.84466,52.50817],[-1.8447,52.50818],[-1.84471,52.50818],[-1.84475,52.50819],[-1.84477,52.50819],[-1.8448,52.5082],[-1.84482,52.5082],[-1.84486,52.5082],[-1.84487,52.50821],[-1.84491,52.50821],[-1.84492,52.50821],[-1.84496,52.50822],[-1.84497,52.50822],[-1.84501,52.50823],[-1.84503,52.50823],[-1.84507,52.50824],[-1.84508,52.50824],[-1.84512,52.50825],[-1.84513,52.50825],[-1.84517,52.50825],[-1.84518,52.50826],[-1.84522,52.50826],[-1.84524,52.50827],[-1.84528,52.50827],[-1.84529,52.50827],[-1.84533,52.50828],[-1.84534,52.50828],[-1.84538,52.50829],[-1.84539,52.50829],[-1.84543,52.5083],[-1.84545,52.5083],[-1.84548,52.50831],[-1.8455,52.50831],[-1.84554,52.50831],[-1.84555,52.50832],[-1.84559,52.50832],[-1.8456,52.50832],[-1.84564,52.50833],[-1.84565,52.50833],[-1.84569,52.50834],[-1.84571,52.50834],[-1.84575,52.50835],[-1.84576,52.50835],[-1.8458,52.50836],[-1.84581,52.50836],[-1.84585,52.50836],[-1.84586,52.50837],[-1.8459,52.50837],[-1.84592,52.50838],[-1.84596,52.50838],[-1.84597,52.50838],[-1.84601,52.50839],[-1.84602,52.50839],[-1.84606,52.5084],[-1.84607,52.5084],[-1.84611,52.50841],[-1.84613,52.50841],[-1.84616,52.50842],[-1.84618,52.50842],[-1.84622,52.50842],[-1.84623,52.50843],[-1.84623,52.50843],[-1.84616,52.50857],[-1.84614,52.50862],[-1.84656,52.50869],[-1.8465,52.50881],[-1.84588,52.5087],[-1.84583,52.50884]]]]}},
{ "type":"Feature","properties":{"osm_way_id":"982265954","building":"warehouse"},"geometry":{"type":"MultiPolygon","coordinates":[[[[-1.76209,52.46938],[-1.76203,52.4694],[-1.76199,52.46931],[-1.76205,52.4693],[-1.76209,52.46938]]]]}},
{ "type":"Feature","properties":{"osm_way_id":"1010633345","building":"warehouse"},"geometry":{"type":"MultiPolygon","coordinates":[[[[-1.85351,52.45474],[-1.8533,52.45507],[-1.85378,52.45516],[-1.85388,52.45495],[-1.85378,52.45493],[-1.85384,52.45483],[-1.85368,52.45474],[-1.85373,52.45471],[-1.85363,52.45465],[-1.85351,52.45474]]]]}}
]
}
