{
"type": "FeatureCollection",
"features": [
{ "type":"Feature","properties":{"osm_id":"3953365180","ref":"LA1 83","other":{"amenity":"post_box","drive_through":"no","post_box:type":"wall"}}, "geometry":{"type":"Point","coordinates":[-2.80532,54.0537 ]}},
{ "type":"Feature","properties":{"osm_way_id":"92405437","name":"Kuehne And Nagel","building":"warehouse","other":{"addr:city":"Wellingborough","addr:country":"GB","addr:housenumber":"15-23","addr:postcode":"NN8 2DH","addr:street":"Claudius Way","addr:village":"Irchester","fhrs:authority":"North Northamptonshire","fhrs:id":"849086","fhrs:local_authority_id":"16\/00008\/COM"}}, "geometry":{"type":"MultiPolygon","coordinates":[[[[-0.66915,52.28959],[-0.66912,52.29082],[-0.67407,52.29087],[-0.67411,52.28965],[-0.66915,52.28959]]]]}},
{ "type":"Feature","properties":{"osm_way_id":"92405440","name":"Homebase DHL","building":"warehouse","other":{"addr:city":"Wellingborough","addr:country":"GB","addr:housenumber":"1-5","addr:postcode":"NN8 2DH","addr:street":"Claudius Way","addr:village":"Irchester"}}, "geometry":{"type":"MultiPolygon","coordinates":[[[[-0.66591,52.2891],[-0.66259,52.28869],[-0.66219,52.28991],[-0.66551,52.29032],[-0.66591,52.2891]]]]}},
{ "type":"Feature","properties":{"osm_way_id":"92405441","name":"Monsoon Accessorize","building":"warehouse","other":{"addr:city":"Wellingborough","addr:country":"GB","addr:housenumber":"7-11","addr:postcode":"NN8 2DH","addr:street":"Claudius Way","addr:village":"Irchester","fhrs:authority":"North Northamptonshire","fhrs:id":"173419","fhrs:local_authority_id":"PI\/000025679"}}, "geometry":{"type":"MultiPolygon","coordinates":[[[[-0.66699,52.28925],[-0.66694,52.2909],[-0.6689,52.29092],[-0.66894,52.28927],[-0.66699,52.28925]]]]}},
{ "type":"Feature","properties":{"osm_way_id":"154979933","building":"warehouse","other":{"HE_ref":"1194939","addr:city":"Lancaster","addr:housenumber":"29","addr:postcode":"LA1 1YN","addr:street":"Castle Hill","building:levels":"3","building:use":"commercial","heritage":"2","heritage:operator":"Historic England","listed_status":"Grade II","roof:levels":"0","roof:shape":"gabled"}}, "geometry":{"type":"MultiPolygon","coordinates":[[[[-2.80403,54.04888],[-2.80406,54.04901],[-2.80382,54.04902],[-2.80379,54.04903],[-2.80378,54.049],[-2.8037,54.04901],[-2.80368,54.04893],[-2.80378,54.04892],[-2.80378,54.0489],[-2.80403,54.04888]]]]}},
{ "type":"Feature","properties":{"osm_way_id":"179668401","building":"warehouse"},"geometry":{"type":"MultiPolygon","coordinates":[[[[-2.84874,53.9999],[-2.8486,53.99993],[-2.84855,53.99988],[-2.84835,53.9999],[-2.84816,53.99949],[-2.84807,53.9995],[-2.84779,53.99899],[-2.84786,53.99893],[-2.84811,53.99887],[-2.84829,53.99921],[-2.84842,53.9992],[-2.84874,53.9999]]]]}},
{ "type":"Feature","properties":{"osm_way_id":"374411259","name":"Brunton's Warehouse","building":"warehouse","other":{"HE_ref":"1213894","building:levels":"4","heritage":"2","heritage:operator":"Historic England","listed_status":"Grade II","roof:levels":"0","roof:shape":"gabled_row"}}, "geometry":{"type":"MultiPolygon","coordinates":[[[[-2.80516,54.0533],[-2.80499,54.05316],[-2.80476,54.05327],[-2.80493,54.0534],[-2.80516,54.0533]]]]}},
{ "type":"Feature","properties":{"osm_way_id":"374411266","building":"warehouse","other":{"HE_ref":"1298309","addr:city":"Lancaster","addr:housename":"Victoria Wharf","addr:postcode":"LA1 1GA","addr:street":"St George's Quay","building:flats":"18","building:levels":"3","building:use":"apartments","heritage":"2","heritage:operator":"Historic England","listed_status":"Grade II","roof:levels":"1","roof:shape":"gabled_row"}}, "geometry":{"type":"MultiPolygon","coordinates":[[[[-2.80477,54.05299],[-2.80459,54.05286],[-2.80445,54.05292],[-2.80436,54.05296],[-2.80454,54.05309],[-2.80477,54.05299]]]]}},
{ "type":"Feature","properties":{"osm_way_id":"374411272","building":"warehouse","other":{"addr:city":"Lancaster","addr:housenumber":"26","addr:postcode":"LA1 1RD","addr:street":"St George's Quay","building:levels":"5","building:use":"commercial","disused:amenity":"studio","heritage":"2","heritage:operator":"Historic England","listed_status":"Grade II","roof:levels":"0","roof:shape":"gabled_row"}}, "geometry":{"type":"MultiPolygon","coordinates":[[[[-2.80566,54.05387],[-2.80569,54.05386],[-2.80575,54.05381],[-2.80574,54.0538],[-2.80582,54.05375],[-2.8058,54.05374],[-2.80583,54.05373],[-2.80586,54.05374],[-2.8059,54.05372],[-2.80611,54.05381],[-2.80587,54.05398],[-2.80566,54.05387]]]]}},
{ "type":"Feature","properties":{"osm_way_id":"374411284","building":"warehouse","other":{"HE_ref":"1288858","addr:city":"Lancaster","addr:housenumber":"35","addr:postcode":"LA1 1RD","addr:street":"St George's Quay","building:levels":"5","heritage":"2","heritage:operator":"Historic England","listed_status":"Grade II","roof:levels":"0","roof:shape":"gabled"}}, "geometry":{"type":"MultiPolygon","coordinates":[[[[-2.80654,54.05425],[-2.80664,54.05429],[-2.8068,54.05413],[-2.80681,54.05412],[-2.80671,54.05408],[-2.80661,54.05418],[-2.80654,54.05425]]]]}},
{ "type":"Feature","properties":{"osm_way_id":"385260495","building":"warehouse"},"geometry":{"type":"MultiPolygon","coordinates":[[[[-2.83171,54.05751],[-2.83211,54.05766],[-2.83298,54.05684],[-2.83258,54.05669],[-2.83171,54.05751]]]]}},
{ "type":"Feature","properties":{"osm_way_id":"566999351","name":"George Speight and Sons Ltd","building":"warehouse","other":{"addr:city":"Lancaster","addr:postcode":"LA1 1RX","addr:street":"Queen Street","description":"Suppliers of fresh fruit, vegetables and potatoes and par-fry chips ","phone":"+44 1524 64245","website":"http:\/\/www.georgespeights.co.uk\/"}}, "geometry":{"type":"MultiPolygon","coordinates":[[[[-2.80247,54.04449],[-2.80244,54.04437],[-2.8018,54.04443],[-2.80167,54.04444],[-2.8017,54.04456],[-2.80247,54.04449]]]]}},
{ "type":"Feature","properties":{"osm_way_id":"569680335","name":"YMCA","building":"warehouse","leisure":"sports_centre","other":{"HE_ref":"1194977","addr:city":"Lancaster","addr:parentstreet":"New Road","addr:postcode":"LA1 1EZ","addr:street":"Fleet Square","brand":"YMCA","brand:wikidata":"Q157169","brand:wikipedia":"en:YMCA","building:levels":"5","building:use":"commercial","heritage":"2","heritage:operator":"Historic England","listed_status":"Grade II","roof:levels":"0","roof:shape":"gabled_row"}}, "geometry":{"type":"MultiPolygon","coordinates":[[[[-2.80202,54.05053],[-2.80198,54.05059],[-2.80195,54.05064],[-2.80191,54.05066],[-2.80176,54.05059],[-2.80182,54.05054],[-2.80188,54.0505],[-2.80202,54.05053]]]]}},
{ "type":"Feature","properties":{"osm_way_id":"629593307","building":"warehouse","other":{"description":"Haweswater aqueduct explosives store"}}, "geometry":{"type":"MultiPolygon","coordinates":[[[[-2.5267,54.05163],[-2.52667,54.0517],[-2.52661,54.05169],[-2.52665,54.05162],[-2.5267,54.05163]]]]}},
{ "type":"Feature","properties":{"osm_way_id":"629593315","building":"warehouse","other":{"description":"Haweswater aqueduct explosives store"}}, "geometry":{"type":"MultiPolygon","coordinates":[[[[-2.54289,54.06249],[-2.54293,54.06251],[-2.54287,54.06256],[-2.54283,54.06254],[-2.54289,54.06249]]]]}},
{ "type":"Feature","properties":{"osm_way_id":"687601158","building":"warehouse","other":{"HE_ref":"1298306","addr:city":"Lancaster","addr:housename":"Peel House","addr:postcode":"LA1 1HW","addr:street":"Pine Street","building:flats":"8","building:levels":"4","building:use":"apartments","heritage":"2","heritage:operator":"Historic England","listed_status":"Grade II","roof:levels":"0","roof:shape":"gabled"}}, "geometry":{"type":"MultiPolygon","coordinates":[[[[-2.80465,54.05318],[-2.80459,54.05314],[-2.80482,54.05304],[-2.80488,54.05308],[-2.80465,54.05318]]]]}},
{ "type":"Feature","properties":{"osm_way_id":"687601159","name":"Tonnage Warehouse","building":"warehouse","other":{"HE_ref":"1195081","building:levels":"4","heritage":"2","heritage:operator":"Historic England","listed_status":"Grade II","roof:levels":"0","roof:shape":"gabled"}}, "geometry":{"type":"MultiPolygon","coordinates":[[[[-2.80499,54.05316],[-2.80476,54.05327],[-2.8047,54.05322],[-2.80493,54.05312],[-2.80499,54.05316]]]]}},
{ "type":"Feature","properties":{"osm_way_id":"687601160","name":"Warehouse Number 3","building":"warehouse","other":{"HE_ref":"1289129","building:levels":"4","heritage":"2","heritage:operator":"Historic England","listed_status":"Grade II","roof:levels":"0","roof:shape":"gabled"}}, "geometry":{"type":"MultiPolygon","coordinates":[[[[-2.80493,54.05312],[-2.8047,54.05322],[-2.80465,54.05318],[-2.80488,54.05308],[-2.80493,54.05312]]]]}},
{ "type":"Feature","properties":{"osm_way_id":"688426308","building":"warehouse","other":{"HE_ref":"1288769","addr:city":"Lancaster","addr:housename":"The Smokehouse","addr:postcode":"LA1 1RB","addr:street":"St George's Quay","building:flats":"4","building:levels":"4","building:use":"apartments","heritage":"2","heritage:operator":"Historic England","listed_status":"Grade II","roof:levels":"0","roof:shape":"gabled"}}, "geometry":{"type":"MultiPolygon","coordinates":[[[[-2.80522,54.05334],[-2.80528,54.05339],[-2.80516,54.05344],[-2.80505,54.05349],[-2.80499,54.05344],[-2.80522,54.05334]]]]}},
{ "type":"Feature","properties":{"osm_way_id":"688426313","building":"warehouse","other":{"HE_ref":"1195045","addr:city":"Lancaster","addr:housename":"Carlton Wharf","addr:postcode":"LA1 1RB","addr:street":"St George's Quay","building:flats":"6","building:levels":"3","building:use":"apartments","heritage":"2","heritage:operator":"Historic England","listed_status":"Grade II","roof:levels":"0","roof:shape":"gabled"}}, "geometry":{"type":"MultiPolygon","coordinates":[[[[-2.80538,54.05361],[-2.8055,54.05355],[-2.80556,54.0536],[-2.80533,54.05371],[-2.80532,54.0537],[-2.80526,54.05366],[-2.80538,54.05361]]]]}},
{ "type":"Feature","properties":{"osm_way_id":"688668191","name":"Quite Simply French","amenity":"restaurant","building":"warehouse","other":{"addr:city":"Lancaster","addr:housenumber":"27a","addr:postcode":"LA1 1RD","addr:street":"St George's Quay","building:levels":"3","building:use":"shop","cuisine":"french","fhrs:id":"63873","phone":"+44 1524 843199","roof:levels":"0","roof:shape":"gabled","source:addr":"FHRS Open Data","website":"https:\/\/www.quitesimplyfrench.co.uk"}}, "geometry":{"type":"MultiPolygon","coordinates":[[[[-2.80606,54.05396],[-2.80596,54.05403],[-2.80587,54.05398],[-2.80611,54.05381],[-2.8062,54.05386],[-2.80606,54.05396]]]]}},
{ "type":"Feature","properties":{"osm_way_id":"688936450","building":"warehouse","other":{"HE_ref":"1195084","addr:city":"Lancaster","addr:housenumber":"36-37","addr:postcode":"LA1 1RD","addr:street":"St George's Quay","building:levels":"4","heritage":"2","heritage:operator":"Historic England","listed_status":"Grade II","roof:levels":"0","roof:shape":"gabled_row"}}, "geometry":{"type":"MultiPolygon","coordinates":[[[[-2.8068,54.05413],[-2.80694,54.05418],[-2.8069,54.05422],[-2.80678,54.05434],[-2.80664,54.05429],[-2.8068,54.05413]]]]}},
{ "type":"Feature","properties":{"osm_way_id":"691642461","building":"warehouse","other":{"HE_ref":"1290590","addr:city":"Lancaster","addr:housenumber":"11","addr:postcode":"LA1 1NZ","addr:street":"Chapel Street","building:levels":"3","building:use":"commercial","heritage":"2","heritage:operator":"Historic England","listed_status":"Grade II","roof:levels":"0","roof:shape":"gabled"}}, "geometry":{"type":"MultiPolygon","coordinates":[[[[-2.79986,54.05034],[-2.79991,54.05044],[-2.79981,54.05046],[-2.79979,54.05042],[-2.79975,54.05044],[-2.79977,54.05047],[-2.79964,54.05051],[-2.79956,54.05044],[-2.79986,54.05034]]]]}}
]
}
