{
"type": "FeatureCollection",
"features": [
{ "type":"Feature","properties":{"osm_id":"3739164993","name":"Spar","other":{"addr:city":"Lancaster","addr:housenumber":"146-148","addr:postcode":"LA1 4UW","addr:street":"Greaves Road","brand":"Spar","brand:wikidata":"Q610492","brand:wikipedia":"en:Spar (retailer)","check_date:opening_hours":"2021-11-19","fhrs:id":"144923","opening_hours":"Mo-Sa 06:30-23:00; Su 06:30-22:30","operator":"Spar","shop":"supermarket","wheelchair":"yes"}}, "geometry":{"type":"Point","coordinates":[-2.79571,54.03709 ]}},
{ "type":"Feature","properties":{"osm_id":"3886228385","name":"Spar","other":{"addr:city":"Lancaster","addr:housenumber":"81-83","addr:postcode":"LA1 2RP","addr:street":"Scale Hall Lane","brand":"Spar","brand:wikidata":"Q610492","brand:wikipedia":"en:SPAR (retailer)","fhrs:id":"112418","shop":"supermarket","source:addr":"FHRS Open Data"}}, "geometry":{"type":"Point","coordinates":[-2.8177,54.05989 ]}},
{ "type":"Feature","properties":{"osm_id":"3895243840","name":"Spar","other":{"addr:city":"Lancaster","addr:housenumber":"168","addr:postcode":"LA1 4NP","addr:street":"Scotforth Road","brand":"Spar","brand:wikidata":"Q610492","brand:wikipedia":"en:Spar (retailer)","fhrs:id":"647223","opening_hours":"Mo-Sa 06:00-23:00; Su 06:00-22:00","shop":"supermarket","wheelchair":"yes"}}, "geometry":{"type":"Point","coordinates":[-2.79557,54.02554 ]}},
{ "type":"Feature","properties":{"osm_id":"6913053651","other":{"amenity":"loading_dock"}}, "geometry":{"type":"Point","coordinates":[-1.02392,51.44353 ]}},
{ "type":"Feature","properties":{"osm_id":"8512097502","other":{"defibrillator:location":"On end wall of Westgate Co-op, facing shopping parade","emergency":"defibrillator","indoor":"no"}}, "geometry":{"type":"Point","coordinates":[-2.85293,54.06156 ]}},
{ "type":"Feature","properties":{"osm_way_id":"23472470","name":"Morrisons","building":"retail","shop":"supermarket","other":{"addr:city":"Morecambe","addr:postcode":"LA4 4DD","addr:street":"Hilmore Way","brand":"Morrisons","brand:wikidata":"Q922344","brand:wikipedia":"en:Morrisons","fhrs:id":"56184","opening_hours":"Mo-Sa 07:00-21:00","source:addr":"FHRS Open Data","wheelchair":"yes"}}, "geometry":{"type":"MultiPolygon","coordinates":[[[[-2.87332,54.06942],[-2.87342,54.06978],[-2.87404,54.06972],[-2.87403,54.06966],[-2.87419,54.06965],[-2.87417,54.06958],[-2.87457,54.06954],[-2.87453,54.06939],[-2.87478,54.06937],[-2.87477,54.06931],[-2.87474,54.06931],[-2.87459,54.06877],[-2.87339,54.06889],[-2.87354,54.06939],[-2.87332,54.06942]]]]}},
{ "type":"Feature","properties":{"osm_way_id":"23473155","name":"Sainsbury's","building":"commercial","shop":"supermarket","other":{"addr:city":"Lancaster","addr:postcode":"LA1 1HH","addr:street":"Cable Street","alt_name":"Sainsbury's Lancaster Superstore","brand":"Sainsbury's","brand:wikidata":"Q152096","brand:wikipedia":"en:Sainsbury's","building:levels":"2","fhrs:id":"130221","opening_hours":"Mo-Fr 08:00-22:00; Sa 07:30-22:00; Su 11:00-17:00","phone":"+44 1524 388488","wheelchair":"yes"}}, "geometry":{"type":"MultiPolygon","coordinates":[[[[-2.79992,54.05111],[-2.79996,54.05119],[-2.8,54.05118],[-2.80002,54.05123],[-2.79997,54.05124],[-2.80001,54.05132],[-2.80014,54.0513],[-2.80018,54.05138],[-2.79986,54.05143],[-2.79999,54.05169],[-2.80006,54.05168],[-2.80013,54.05184],[-2.79896,54.05203],[-2.79876,54.05156],[-2.7987,54.05157],[-2.79867,54.05147],[-2.79872,54.05147],[-2.79867,54.05134],[-2.79992,54.05111]]]]}},
{ "type":"Feature","properties":{"osm_way_id":"23701150","name":"Lidl","building":"yes","shop":"supermarket","other":{"addr:country":"GB","addr:postcode":"LA3 3PL","addr:street":"Westgate","brand":"Lidl","brand:wikidata":"Q151954","fhrs:id":"111450","survey:date":"2018-10-29"}}, "geometry":{"type":"MultiPolygon","coordinates":[[[[-2.85368,54.06055],[-2.85357,54.06031],[-2.85253,54.06047],[-2.85256,54.06054],[-2.85281,54.0605],[-2.85291,54.06068],[-2.85368,54.06055]]]]}},
{ "type":"Feature","properties":{"osm_way_id":"23713662","name":"Sainsbury's","building":"retail","shop":"supermarket","other":{"addr:city":"Morecambe","addr:postcode":"LA4 5TJ","addr:street":"Lancaster Road","brand":"Sainsbury's","brand:wikidata":"Q152096","brand:wikipedia":"en:Sainsbury's","fhrs:id":"117695","int_name":"Sainsburys","roof:levels":"0","roof:shape":"flat"}}, "geometry":{"type":"MultiPolygon","coordinates":[[[[-2.84743,54.0686],[-2.84764,54.06835],[-2.84798,54.06826],[-2.84795,54.0682],[-2.84799,54.06819],[-2.84805,54.0681],[-2.84803,54.06807],[-2.84816,54.06805],[-2.8481,54.06797],[-2.84826,54.06793],[-2.84794,54.06753],[-2.84721,54.06771],[-2.84718,54.06767],[-2.84693,54.06774],[-2.84696,54.06778],[-2.8467,54.06785],[-2.84704,54.06835],[-2.84719,54.06848],[-2.84743,54.0686]]]]}},
{ "type":"Feature","properties":{"osm_way_id":"24536844","name":"Asda","building":"retail","shop":"supermarket","other":{"addr:city":"Lancaster","addr:country":"GB","addr:postcode":"LA1 5JR","addr:street":"Ovangle Road","brand":"Asda","brand:wikidata":"Q297410","brand:wikipedia":"en:Asda","contact:website":"https:\/\/storelocator.asda.com\/north-west\/lancaster\/ovangle-road","fhrs:id":"130283","opening_hours":"Mo 07:00-24:00; Tu-Fr 00:00-24:00; Sa 00:00-22:00; Su 10:00-16:00","operator":"Asda Stores Ltd","wheelchair":"yes"}}, "geometry":{"type":"MultiPolygon","coordinates":[[[[-2.82797,54.05686],[-2.82767,54.05664],[-2.82753,54.0567],[-2.82714,54.05642],[-2.82704,54.05646],[-2.8268,54.05628],[-2.82715,54.05612],[-2.82701,54.05602],[-2.82746,54.05581],[-2.8278,54.05582],[-2.82794,54.05576],[-2.82817,54.05593],[-2.82847,54.05578],[-2.82883,54.05605],[-2.82854,54.05618],[-2.82888,54.05644],[-2.82797,54.05686]]]]}},
{ "type":"Feature","properties":{"osm_way_id":"55093338","name":"Sainsbury's","building":"retail","shop":"supermarket","other":{"addr:city":"Solihull","addr:housenumber":"545","addr:postcode":"B90 4AJ","addr:street":"Stratford Road","alt_name":"Sainsbury's Marshall Lake Superstore","brand":"Sainsbury's","brand:wikidata":"Q152096","brand:wikipedia":"en:Sainsbury's","fhrs:id":"524459","toilets:wheelchair":"yes","wheelchair":"yes"}}, "geometry":{"type":"MultiPolygon","coordinates":[[[[-1.81857,52.4023],[-1.81839,52.40221],[-1.81866,52.40201],[-1.81827,52.40181],[-1.81917,52.40115],[-1.81983,52.40148],[-1.81986,52.40146],[-1.82011,52.40159],[-1.82008,52.4016],[-1.8204,52.40177],[-1.82029,52.40185],[-1.82026,52.40184],[-1.82012,52.40194],[-1.82001,52.40189],[-1.81989,52.40198],[-1.81976,52.40191],[-1.81954,52.40207],[-1.81938,52.40219],[-1.81932,52.40216],[-1.81916,52.40227],[-1.81906,52.40221],[-1.8188,52.4024],[-1.81862,52.40231],[-1.81889,52.40212],[-1.81883,52.4021],[-1.81857,52.4023]]]]}},
{ "type":"Feature","properties":{"osm_way_id":"64302112","name":"Aldi","building":"retail","shop":"supermarket","other":{"addr:city":"Lancaster","addr:postcode":"LA1 5JB","addr:street":"Morecambe Road","brand":"ALDI","brand:wikidata":"Q41171672","brand:wikipedia":"en:Aldi","building:levels":"1","fhrs:id":"81153","roof:levels":"0","roof:shape":"hipped"}}, "geometry":{"type":"MultiPolygon","coordinates":[[[[-2.81935,54.05693],[-2.81946,54.05685],[-2.8194,54.05682],[-2.81947,54.05677],[-2.81935,54.05671],[-2.81943,54.05665],[-2.81916,54.05652],[-2.81922,54.05648],[-2.81908,54.05642],[-2.81902,54.05646],[-2.81897,54.05644],[-2.81872,54.05662],[-2.81935,54.05693]]]]}},
{ "type":"Feature","properties":{"osm_way_id":"68649170","name":"Aldi","building":"retail","shop":"supermarket","other":{"addr:city":"Reading","air_conditioning":"yes","brand":"ALDI","brand:wikidata":"Q41171672","brand:wikipedia":"en:Aldi","source:building":"OS_OpenData_StreetView"}}, "geometry":{"type":"MultiPolygon","coordinates":[[[[-1.02421,51.444],[-1.02384,51.44405],[-1.02369,51.4436],[-1.02393,51.44357],[-1.02392,51.44353],[-1.02406,51.44352],[-1.02421,51.444]]]]}},
{ "type":"Feature","properties":{"osm_way_id":"100532982","name":"Asda","building":"retail","shop":"supermarket","other":{"addr:city":"Morecambe","addr:country":"GB","addr:postcode":"LA4 5QW","addr:street":"Lancaster Road","brand":"Asda","brand:wikidata":"Q297410","brand:wikipedia":"en:Asda","contact:website":"https:\/\/storelocator.asda.com\/north-west\/morecambe\/lancaster-road","fhrs:id":"118533","operator":"Asda Stores Ltd"}}, "geometry":{"type":"MultiPolygon","coordinates":[[[[-2.85253,54.0698],[-2.85238,54.06965],[-2.85178,54.06986],[-2.85192,54.07001],[-2.85253,54.0698]]]]}},
{ "type":"Feature","properties":{"osm_way_id":"100661744","name":"Tesco Express","building":"yes","shop":"supermarket","other":{"addr:city":"Morecambe","addr:housenumber":"47","addr:postcode":"LA3 1DA","addr:street":"Heysham Road","brand":"Tesco Express","brand:wikidata":"Q98456772","fhrs:id":"104625","source:addr":"FHRS Open Data"}}, "geometry":{"type":"MultiPolygon","coordinates":[[[[-2.88709,54.0632],[-2.88688,54.06344],[-2.88664,54.06336],[-2.88686,54.06313],[-2.88709,54.0632]]]]}},
{ "type":"Feature","properties":{"osm_way_id":"104448635","name":"Lidl","building":"retail","shop":"supermarket","other":{"addr:city":"Lancaster","addr:postcode":"LA1 1BS","addr:street":"Kingsway Retail Park","addr:unit":"1","brand":"Lidl","brand:wikidata":"Q151954","brand:wikipedia":"en:Lidl","building:levels":"1","fhrs:id":"1155770","old_name":"PC World","phone":"+44 1524 842796","roof:levels":"0","roof:shape":"flat"}}, "geometry":{"type":"MultiPolygon","coordinates":[[[[-2.79429,54.0543],[-2.79416,54.05423],[-2.79419,54.05421],[-2.79406,54.05413],[-2.79403,54.05415],[-2.79389,54.05407],[-2.79388,54.05407],[-2.79362,54.05423],[-2.79347,54.05432],[-2.79354,54.05436],[-2.79378,54.05449],[-2.79388,54.05455],[-2.79429,54.0543]]]]}},
{ "type":"Feature","properties":{"osm_way_id":"128882947","name":"Co-op Food","building":"yes","shop":"supermarket","other":{"addr:city":"Morecambe","addr:housenumber":"22","addr:postcode":"LA4 4SZ","addr:street":"Glentworth Road West","brand":"Co-op Food","brand:wikidata":"Q3277439","brand:wikipedia":"en:Co-op Food","fhrs:id":"103578","operator":"The Co-operative Group","source:addr":"FHRS Open Data"}}, "geometry":{"type":"MultiPolygon","coordinates":[[[[-2.85353,54.06152],[-2.85297,54.06163],[-2.85293,54.06156],[-2.85288,54.06148],[-2.85345,54.06137],[-2.85353,54.06152]]]]}},
{ "type":"Feature","properties":{"osm_way_id":"165239870","name":"Booths","building":"retail","shop":"supermarket","other":{"addr:city":"Carnforth","addr:postcode":"LA5 9JZ","addr:street":"Scotland Road","brand":"Booths","brand:wikidata":"Q4943949","brand:wikipedia":"en:Booths","contact:website":"https:\/\/www.booths.co.uk\/store\/carnforth\/","fhrs:id":"103514","source:addr":"FHRS Open Data"}}, "geometry":{"type":"MultiPolygon","coordinates":[[[[-2.7679,54.13003],[-2.76809,54.12986],[-2.76799,54.12982],[-2.76802,54.1298],[-2.76801,54.12979],[-2.76799,54.12978],[-2.76797,54.12978],[-2.76795,54.1298],[-2.76793,54.1298],[-2.76797,54.12976],[-2.76781,54.1297],[-2.76785,54.12967],[-2.76768,54.1296],[-2.76761,54.12966],[-2.76756,54.12965],[-2.7675,54.1297],[-2.76747,54.12968],[-2.76727,54.12985],[-2.7676,54.12999],[-2.76766,54.12993],[-2.7679,54.13003]]]]}},
{ "type":"Feature","properties":{"osm_way_id":"165248726","name":"Tesco","building":"supermarket","shop":"supermarket","other":{"addr:city":"Carnforth","addr:postcode":"LA5 9LD","addr:street":"Lancaster Road","brand":"Tesco","brand:wikidata":"Q487494","brand:wikipedia":"en:Tesco","phone":"+44 845 677 9837"}}, "geometry":{"type":"MultiPolygon","coordinates":[[[[-2.77403,54.12598],[-2.77374,54.12643],[-2.77368,54.12644],[-2.77295,54.12629],[-2.7731,54.12605],[-2.77303,54.12604],[-2.7731,54.12594],[-2.77316,54.12595],[-2.77325,54.12581],[-2.77403,54.12598]]]]}},
{ "type":"Feature","properties":{"osm_way_id":"319617543","name":"The Co-operative Food","building":"yes","shop":"supermarket","other":{"addr:city":"Lancaster","addr:street":"Barley Cop Lane","operator":"The Co-operative Group"}}, "geometry":{"type":"MultiPolygon","coordinates":[[[[-2.80812,54.06335],[-2.80801,54.06347],[-2.80781,54.06341],[-2.80792,54.06329],[-2.80812,54.06335]]]]}},
{ "type":"Feature","properties":{"osm_way_id":"319618283","name":"The Co-operative Food","building":"yes","shop":"supermarket","other":{"operator":"The Co-operative Group"}}, "geometry":{"type":"MultiPolygon","coordinates":[[[[-2.87911,54.06501],[-2.87893,54.06512],[-2.87872,54.065],[-2.87886,54.06491],[-2.87896,54.06497],[-2.87899,54.06495],[-2.87911,54.06501]]]]}},
{ "type":"Feature","properties":{"osm_way_id":"366507353","name":"Aldi","building":"retail","shop":"supermarket","other":{"addr:city":"Carnforth","addr:postcode":"LA5 9JZ","addr:street":"Scotland Road","brand":"ALDI","brand:wikidata":"Q41171672","brand:wikipedia":"en:Aldi","fhrs:id":"711639","opening_hours":"Mo-Sa 08:00-22:00; Su 10:00-16:00","website":"https:\/\/www.aldi.co.uk\/store\/s-uk-E0818"}}, "geometry":{"type":"MultiPolygon","coordinates":[[[[-2.76664,54.13058],[-2.76653,54.13057],[-2.76651,54.13062],[-2.76689,54.13077],[-2.76739,54.13033],[-2.7673,54.1303],[-2.76706,54.1302],[-2.76689,54.13036],[-2.76664,54.13058]]]]}},
{ "type":"Feature","properties":{"osm_way_id":"385392964","name":"Spar","building":"retail","shop":"supermarket","other":{"addr:city":"Lancaster","addr:housenumber":"79","addr:postcode":"LA1 2HL","addr:street":"Slyne Road","brand":"Spar","brand:wikidata":"Q610492","brand:wikipedia":"en:SPAR (retailer)","building:levels":"1","fhrs:id":"113463","roof:levels":"0","source:addr":"FHRS Open Data","wheelchair":"yes"}}, "geometry":{"type":"MultiPolygon","coordinates":[[[[-2.80168,54.06601],[-2.80213,54.066],[-2.80213,54.06588],[-2.80181,54.06589],[-2.8018,54.06581],[-2.80171,54.06581],[-2.80171,54.06593],[-2.80168,54.06593],[-2.80168,54.06601]]]]}},
{ "type":"Feature","properties":{"osm_way_id":"545611502","name":"Co-op Food","building":"retail","shop":"supermarket","other":{"addr:city":"Heysham","addr:housenumber":"2","addr:postcode":"LA3 2RT","addr:street":"Middleton Way","brand":"Co-op Food","brand:wikidata":"Q3277439","brand:wikipedia":"en:Co-op Food","fhrs:id":"895466","opening_hours":"Mo-Sa 07:00-22:00; Su 10:00-16:00","operator":"Co-Op"}}, "geometry":{"type":"MultiPolygon","coordinates":[[[[-2.89499,54.04191],[-2.89466,54.04189],[-2.89472,54.0416],[-2.89504,54.04162],[-2.89499,54.04191]]]]}},
{ "type":"Feature","properties":{"osm_way_id":"567842269","building":"retail","other":{"addr:city":"Lancaster","addr:housenumber":"21","addr:postcode":"LA1 1XD","addr:street":"Common Garden Street","building:levels":"2","roof:levels":"0","roof:shape":"flat"}}, "geometry":{"type":"MultiPolygon","coordinates":[[[[-2.80095,54.04744],[-2.80082,54.04744],[-2.80082,54.04724],[-2.80095,54.04723],[-2.80095,54.04744]]]]}},
{ "type":"Feature","properties":{"osm_way_id":"567842270","building":"retail","other":{"addr:city":"Lancaster","addr:housenumber":"19","addr:postcode":"LA1 1XD","addr:street":"Common Garden Street","building:levels":"2","roof:levels":"0","roof:shape":"flat"}}, "geometry":{"type":"MultiPolygon","coordinates":[[[[-2.80082,54.04744],[-2.80069,54.04744],[-2.80069,54.04729],[-2.80069,54.04724],[-2.80082,54.04724],[-2.80082,54.04744]]]]}},
{ "type":"Feature","properties":{"osm_way_id":"681579416","name":"Aldi","building":"retail","shop":"supermarket","other":{"addr:city":"Morecambe","addr:postcode":"LA4 4BU","addr:street":"Marine Road West","brand":"ALDI","brand:wikidata":"Q41171672","brand:wikipedia":"en:Aldi","fhrs:id":"102988","opening_hours":"Mo-Sa 08:00-22:00; Su 10:00-16:00"}}, "geometry":{"type":"MultiPolygon","coordinates":[[[[-2.87575,54.07066],[-2.87578,54.07065],[-2.87605,54.07013],[-2.87555,54.07004],[-2.87535,54.07041],[-2.87522,54.07045],[-2.87518,54.07051],[-2.8752,54.07052],[-2.87547,54.0706],[-2.87545,54.07062],[-2.87562,54.07067],[-2.87568,54.07068],[-2.87572,54.07068],[-2.87575,54.07066]]]]}},
{ "type":"Feature","properties":{"osm_way_id":"692796043","name":"Booths","shop":"supermarket","other":{"addr:city":"Lancaster","addr:postcode":"LA1 4SG","addr:street":"Hala Road","alt_name":"Booths Scotforth","brand":"Booths","brand:wikidata":"Q4943949","brand:wikipedia":"en:Booths","bulk_purchase":"yes","check_date:opening_hours":"2021-08-17","contact:website":"https:\/\/www.booths.co.uk\/store\/lancaster\/","fhrs:id":"112135","noaddress":"yes","note:bulk_purchase":"Ecover bathroom\/laundry product refills","opening_hours":"Mo-Sa 08:00-21:00; Su 09:30-16:00","wheelchair":"yes"}}, "geometry":{"type":"MultiPolygon","coordinates":[[[[-2.795,54.02787],[-2.79507,54.02788],[-2.79516,54.02794],[-2.79497,54.02813],[-2.79476,54.02813],[-2.79476,54.02822],[-2.79431,54.0282],[-2.79428,54.02818],[-2.79416,54.02818],[-2.79331,54.02813],[-2.79337,54.02782],[-2.7934,54.02768],[-2.79351,54.02769],[-2.79352,54.02763],[-2.7935,54.02763],[-2.79351,54.02761],[-2.79356,54.02762],[-2.79376,54.02764],[-2.79393,54.02767],[-2.79417,54.02773],[-2.79427,54.02777],[-2.79446,54.0278],[-2.79459,54.02784],[-2.79485,54.02784],[-2.795,54.02787]]]]}},
{ "type":"Feature","properties":{"osm_way_id":"761451362","name":"Aldi","landuse":"retail","shop":"supermarket","other":{"addr:city":"Lancaster","addr:housenumber":"48","addr:postcode":"LA1 1UJ","addr:street":"Aldcliffe Road","brand":"ALDI","brand:wikidata":"Q41171672","brand:wikipedia":"en:Aldi","fhrs:id":"1280755","opening_hours":"Mo-Sa 08:00-22:00; Su 10:00-16:00","payment:apple_pay":"yes","payment:cash":"yes","payment:credit_cards":"yes","payment:google_pay":"yes","website":"https:\/\/www.aldi.co.uk\/store\/s-uk-E1263","wheelchair":"yes"}}, "geometry":{"type":"MultiPolygon","coordinates":[[[[-2.80224,54.04354],[-2.80245,54.04343],[-2.80247,54.04345],[-2.80251,54.04344],[-2.80253,54.04346],[-2.80263,54.04363],[-2.80277,54.04362],[-2.80283,54.04373],[-2.80287,54.04375],[-2.80286,54.04404],[-2.80284,54.04429],[-2.8028,54.04439],[-2.80249,54.04439],[-2.80244,54.04437],[-2.80196,54.04437],[-2.80163,54.04437],[-2.80161,54.04437],[-2.80157,54.04422],[-2.8016,54.04412],[-2.80167,54.04409],[-2.80176,54.04401],[-2.8018,54.04398],[-2.80194,54.04383],[-2.80218,54.0436],[-2.80224,54.04354]]]]}},
{ "type":"Feature","properties":{"osm_way_id":"853038219","name":"Lidl","building":"retail","shop":"supermarket","other":{"addr:country":"GB","addr:postcode":"HX3 7RJ","addr:street":"Carr House Road","brand":"Lidl","brand:wikidata":"Q151954","fhrs:id":"348912"}}, "geometry":{"type":"MultiPolygon","coordinates":[[[[-1.80349,53.75778],[-1.80351,53.75783],[-1.80336,53.75785],[-1.80334,53.7578],[-1.80301,53.75784],[-1.80292,53.75758],[-1.80389,53.75746],[-1.80398,53.75772],[-1.80349,53.75778]]]]}}
]
}
