{
"type": "FeatureCollection",
"features": [
{ "type":"Feature","properties":{"osm_id":"3632485497","name":"Co-op Food","other":{"addr:housenumber":"216","addr:postcode":"CV21 2HS","addr:street":"Lawford Road","brand":"Co-op Food","brand:wikidata":"Q3277439","brand:wikipedia":"en:Co-op Food","operator":"The Co-operative Group","operator:wikidata":"Q117202","operator:wikipedia":"en:The Co-operative Group","shop":"supermarket"}}, "geometry":{"type":"Point","coordinates":[-1.27667,52.37358 ]}},
{ "type":"Feature","properties":{"osm_id":"5422562236","name":"B&M Home Bargains","other":{"shop":"supermarket","operator":"B&M Home Bargains"}}, "geometry":{"type":"Point","coordinates":[-1.25698,52.38607 ]}},
{ "type":"Feature","properties":{"osm_id":"5422562237","name":"The Food Warehouse by Iceland","other":{"brand":"The Food Warehouse","brand:wikidata":"Q87263899","operator":"Iceland","shop":"supermarket"}}, "geometry":{"type":"Point","coordinates":[-1.25771,52.38618 ]}},
{ "type":"Feature","properties":{"osm_id":"5423566075","name":"Alma Supermarket","other":{"shop":"supermarket","addr:city":"Rugby","addr:street":"Clifton Road","addr:postcode":"CV21 3PY"}}, "geometry":{"type":"Point","coordinates":[-1.25678,52.37212 ]}},
{ "type":"Feature","properties":{"osm_id":"5955616863","name":"Costcutter","other":{"addr:city":"Rugby","addr:housenumber":"145A","addr:postcode":"CV22 7AS","addr:street":"Bilton Road","brand":"Costcutter","brand:wikidata":"Q5175072","brand:wikipedia":"en:Costcutter","payment:cash":"yes","payment:credit_cards":"yes","payment:debit_cards":"yes","shop":"supermarket"}}, "geometry":{"type":"Point","coordinates":[-1.27742,52.36645 ]}},
{ "type":"Feature","properties":{"osm_way_id":"76191568","name":"Aldi","building":"retail","shop":"supermarket","other":{"addr:city":"Rugby","addr:country":"GB","addr:housenumber":"12","addr:postcode":"CV22 5AU","addr:street":"Paddox Close","brand":"ALDI","brand:wikidata":"Q41171672","brand:wikipedia":"en:Aldi","fhrs:id":"210387","source:shape":"os_opendata_streetview"}}, "geometry":{"type":"MultiPolygon","coordinates":[[[[-1.22808,52.35976],[-1.22785,52.35966],[-1.22781,52.3597],[-1.22772,52.35966],[-1.22729,52.36006],[-1.22746,52.36013],[-1.2275,52.36009],[-1.22766,52.36015],[-1.22808,52.35976]]]]}},
{ "type":"Feature","properties":{"osm_way_id":"111704462","name":"Tesco","building":"retail","shop":"supermarket","other":{"addr:city":"Rugby","addr:housenumber":"1","addr:postcode":"CV21 1RG","addr:street":"Leicester Road","brand":"Tesco","brand:wikidata":"Q487494","brand:wikipedia":"en:Tesco","building:levels":"2","fhrs:id":"210746","source:addr":"FHRS Open Data","source:geometry":"Bing","wheelchair":"yes"}}, "geometry":{"type":"MultiPolygon","coordinates":[[[[-1.25687,52.38731],[-1.25684,52.38731],[-1.25674,52.38729],[-1.25648,52.38726],[-1.25643,52.38738],[-1.25574,52.38728],[-1.25546,52.38805],[-1.25549,52.38805],[-1.25542,52.38826],[-1.25586,52.38832],[-1.25589,52.38823],[-1.25598,52.38824],[-1.25602,52.38813],[-1.25625,52.38816],[-1.25648,52.38807],[-1.25651,52.38799],[-1.25661,52.388],[-1.25687,52.38731]]]]}},
{ "type":"Feature","properties":{"osm_way_id":"123454361","name":"Co-op Food","building":"retail","shop":"supermarket","other":{"addr:city":"Rugby","addr:housenumber":"19","addr:postcode":"CV22 7LZ","addr:street":"The Green","addr:suburb":"Bilton","brand":"Co-op Food","brand:wikidata":"Q3277439","brand:wikipedia":"en:Co-op Food","building:levels":"1","fhrs:authority":"Rugby","fhrs:id":"894350","opening_hours":"Mo-Sa 07:00-22:00; Su 10:00-16:00","operator":"Heart of England Co-operative Society","roof:levels":"0","source:addr":"FHRS Open Data","source:geometry":"Warwickshire CC Aerial Imagery 2013","toilets:wheelchair":"no","wheelchair":"yes"}}, "geometry":{"type":"MultiPolygon","coordinates":[[[[-1.29084,52.35921],[-1.29085,52.35911],[-1.29089,52.3589],[-1.29086,52.35887],[-1.2907,52.35884],[-1.29061,52.3591],[-1.29058,52.35917],[-1.29084,52.35921]]]]}},
{ "type":"Feature","properties":{"osm_way_id":"146568510","name":"Sainsbury's","building":"retail","shop":"supermarket","other":{"addr:city":"Rugby","addr:country":"GB","addr:housenumber":"385","addr:postcode":"CV22 6HU","addr:street":"Dunchurch Road","brand":"Sainsbury's","brand:wikidata":"Q152096","brand:wikipedia":"en:Sainsbury's","fhrs:id":"210092","opening_hours":"Mo-Fr 07:00-23:00; Sa 07:00-22:00; Su 10:00-16:00","source:addr":"FHRS Open Data","toilets:wheelchair":"yes","wheelchair":"yes"}}, "geometry":{"type":"MultiPolygon","coordinates":[[[[-1.27285,52.35073],[-1.27371,52.35134],[-1.27403,52.35117],[-1.27413,52.35123],[-1.27459,52.35099],[-1.27511,52.35072],[-1.27509,52.35071],[-1.27445,52.35025],[-1.27451,52.35022],[-1.27422,52.35003],[-1.27285,52.35073]]]]}},
{ "type":"Feature","properties":{"osm_way_id":"196849894","name":"Co-op Food","building":"yes","shop":"supermarket","other":{"brand":"Co-op Food","fhrs:id":"210328","operator":"The Co-operative Group","addr:city":"Newbold","addr:street":"Main Street","addr:postcode":"CV21 1HH","brand:wikidata":"Q3277439","brand:wikipedia":"en:Co-op Food","addr:housenumber":"19"}}, "geometry":{"type":"MultiPolygon","coordinates":[[[[-1.28168,52.39021],[-1.28171,52.39016],[-1.28182,52.39004],[-1.28173,52.39002],[-1.28176,52.38998],[-1.28154,52.38994],[-1.28146,52.39002],[-1.28145,52.39013],[-1.28147,52.39015],[-1.28168,52.39021]]]]}},
{ "type":"Feature","properties":{"osm_way_id":"259020385","name":"Asda","building":"retail","shop":"supermarket","other":{"addr:city":"Rugby","addr:country":"GB","addr:postcode":"CV21 2DN","addr:street":"Corporation Street","brand":"Asda","brand:wikidata":"Q297410","brand:wikipedia":"en:Asda","building:levels":"2","building:levels:underground":"1","contact:facebook":"https:\/\/www.facebook.com\/asda\/","contact:twitter":"@asda","contact:website":"https:\/\/storelocator.asda.com\/west-midlands\/rugby\/12-chapel-street","fhrs:id":"210421","operator":"Asda Stores Ltd","source:addr":"FHRS Open Data","wheelchair":"yes"}}, "geometry":{"type":"MultiPolygon","coordinates":[[[[-1.26496,52.3723],[-1.26443,52.3723],[-1.26443,52.37229],[-1.26407,52.37229],[-1.26406,52.37227],[-1.26404,52.37226],[-1.26401,52.37226],[-1.26399,52.37227],[-1.26398,52.37229],[-1.26384,52.37243],[-1.26379,52.37247],[-1.26364,52.37263],[-1.26366,52.37266],[-1.26371,52.37266],[-1.26384,52.37279],[-1.26391,52.3728],[-1.26391,52.37297],[-1.26395,52.37298],[-1.26396,52.37313],[-1.26441,52.37313],[-1.26441,52.373],[-1.26456,52.373],[-1.26456,52.37297],[-1.26488,52.37297],[-1.26504,52.37292],[-1.26514,52.37283],[-1.26515,52.37233],[-1.26518,52.37231],[-1.26516,52.37227],[-1.26509,52.37227],[-1.26506,52.37227],[-1.26496,52.3723]]]]}},
{ "type":"Feature","properties":{"osm_way_id":"300236684","name":"Lidl","building":"retail","shop":"supermarket","other":{"addr:place":"Bilton","addr:postcode":"CV22 7DT","addr:street":"Bilton Road","brand":"Lidl","brand:wikidata":"Q151954","brand:wikipedia":"en:Lidl","fhrs:id":"210042","operator":"Lidl","payment:cash":"yes","payment:credit_cards":"yes","payment:visa_debit":"yes","source:addr":"FHRS Open Data","source:geometry":"Warwickshire CC Aerial Imagery 2013"}}, "geometry":{"type":"MultiPolygon","coordinates":[[[[-1.28264,52.36583],[-1.28276,52.36607],[-1.2825,52.36612],[-1.28252,52.36617],[-1.28238,52.3662],[-1.28235,52.36615],[-1.28209,52.3662],[-1.28197,52.36595],[-1.28206,52.36594],[-1.28205,52.36592],[-1.28225,52.36588],[-1.28225,52.3659],[-1.28264,52.36583]]]]}},
{ "type":"Feature","properties":{"osm_way_id":"356529897","name":"Euro Supermarket","building":"yes","shop":"supermarket","other":{"fhrs:id":"210335","addr:city":"Rugby","addr:street":"Murray Road","addr:postcode":"CV21 3JR","addr:housenumber":"152b"}}, "geometry":{"type":"MultiPolygon","coordinates":[[[[-1.25171,52.37645],[-1.25177,52.37631],[-1.25192,52.37633],[-1.25185,52.37646],[-1.25182,52.37647],[-1.25171,52.37645]]]]}},
{ "type":"Feature","properties":{"osm_way_id":"356529909","name":"Rugby Euromarket","building":"yes","shop":"supermarket","other":{"fhrs:id":"210394","addr:city":"Rugby","addr:street":"Murray Road","addr:postcode":"CV21 3JR","addr:housenumber":"161-163"}}, "geometry":{"type":"MultiPolygon","coordinates":[[[[-1.25217,52.37636],[-1.25223,52.37626],[-1.25232,52.37628],[-1.25227,52.37637],[-1.25217,52.37636]]]]}},
{ "type":"Feature","properties":{"osm_way_id":"358305867","name":"Co-op Food","building":"yes","shop":"supermarket","other":{"addr:city":"Ryton on Dunsmore","addr:housenumber":"64","addr:postcode":"CV8 3FH","addr:street":"High Street","brand":"Co-op Food","brand:wikidata":"Q3277439","brand:wikipedia":"en:Co-op Food","fhrs:id":"210412","operator":"Heart of England Co-operative Society"}}, "geometry":{"type":"MultiPolygon","coordinates":[[[[-1.43695,52.36364],[-1.43709,52.36375],[-1.4369,52.36384],[-1.43684,52.36383],[-1.43677,52.36378],[-1.43674,52.36379],[-1.43671,52.36377],[-1.43695,52.36364]]]]}},
{ "type":"Feature","properties":{"osm_way_id":"358306064","name":"Co-op Food","building":"yes","shop":"supermarket","other":{"addr:city":"Wolston","addr:housenumber":"4-6","addr:postcode":"CV8 3HF","addr:street":"School Street","brand":"Co-op Food","brand:wikidata":"Q3277439","brand:wikipedia":"en:Co-op Food","operator":"Midcounties Co-operative Society"}}, "geometry":{"type":"MultiPolygon","coordinates":[[[[-1.39445,52.37559],[-1.39463,52.37571],[-1.39459,52.37575],[-1.3945,52.37582],[-1.3944,52.3758],[-1.39446,52.37576],[-1.3944,52.37573],[-1.39444,52.3757],[-1.3944,52.37566],[-1.39438,52.37565],[-1.39445,52.37559]]]]}},
{ "type":"Feature","properties":{"osm_way_id":"358308705","name":"Co-op Food","building":"yes","shop":"supermarket","other":{"addr:city":"Long Lawford","addr:housenumber":"205","addr:postcode":"CV23 9DE","addr:street":"Townsend Lane","brand":"Co-op Food","brand:wikidata":"Q3277439","brand:wikipedia":"en:Co-op Food","operator":"Heart of England Co-operative Society"}}, "geometry":{"type":"MultiPolygon","coordinates":[[[[-1.30551,52.37991],[-1.30556,52.37978],[-1.30581,52.37982],[-1.3057,52.3801],[-1.30545,52.38006],[-1.30551,52.37991]]]]}},
{ "type":"Feature","properties":{"osm_way_id":"358309967","name":"Co-op Food","building":"yes","shop":"supermarket","other":{"addr:postcode":"CV22 6DY","brand":"Co-op Food","brand:wikidata":"Q3277439","brand:wikipedia":"en:Co-op Food","operator":"Central England Co-operative"}}, "geometry":{"type":"MultiPolygon","coordinates":[[[[-1.27859,52.35929],[-1.27883,52.35949],[-1.2784,52.35968],[-1.27817,52.3595],[-1.27825,52.35946],[-1.27832,52.35945],[-1.27837,52.35943],[-1.27836,52.3594],[-1.27859,52.35929]]]]}},
{ "type":"Feature","properties":{"osm_way_id":"358310099","name":"Co-op Food","building":"yes","shop":"supermarket","other":{"addr:city":"Rugby","addr:housenumber":"55-57","addr:place":"Hillmorton","addr:postcode":"CV21 4EG","addr:street":"High Street","brand":"Co-op Food","brand:wikidata":"Q3277439","brand:wikipedia":"en:Co-op Food","operator":"Heart of England Co-operative Society"}}, "geometry":{"type":"MultiPolygon","coordinates":[[[[-1.21895,52.35847],[-1.21886,52.3587],[-1.2186,52.35866],[-1.2187,52.35843],[-1.21895,52.35847]]]]}},
{ "type":"Feature","properties":{"osm_way_id":"363469250","name":"Simplylocal","building":"yes","shop":"supermarket"},"geometry":{"type":"MultiPolygon","coordinates":[[[[-1.25688,52.37222],[-1.25703,52.37225],[-1.25704,52.37224],[-1.25709,52.37214],[-1.25693,52.37211],[-1.25688,52.37222]]]]}},
{ "type":"Feature","properties":{"osm_way_id":"363617484","name":"Krakus Supermarket","building":"yes","shop":"supermarket","other":{"addr:city":"Rugby","addr:street":"Clifton Road","addr:postcode":"CV21 3PY"}}, "geometry":{"type":"MultiPolygon","coordinates":[[[[-1.25656,52.37213],[-1.25653,52.37212],[-1.2565,52.37219],[-1.25637,52.37217],[-1.25641,52.3721],[-1.25644,52.37202],[-1.2566,52.37205],[-1.25656,52.37213]]]]}},
{ "type":"Feature","properties":{"osm_way_id":"421376595","name":"Aldi","building":"supermarket","shop":"supermarket","other":{"addr:city":"Rugby","addr:postcode":"CV23 0UX","addr:street":"Central Park Drive","brand":"ALDI","brand:wikidata":"Q41171672","brand:wikipedia":"en:Aldi","fhrs:id":"210730","website":"https:\/\/www.aldi.co.uk\/store\/s-uk-E0496"}}, "geometry":{"type":"MultiPolygon","coordinates":[[[[-1.2445,52.40175],[-1.24512,52.40211],[-1.24492,52.40224],[-1.2448,52.40217],[-1.24473,52.40222],[-1.24431,52.40197],[-1.2443,52.40198],[-1.24416,52.4019],[-1.24432,52.40179],[-1.24437,52.40183],[-1.2445,52.40175]]]]}},
{ "type":"Feature","properties":{"osm_way_id":"431178812","name":"Co-op Food","building":"retail","shop":"supermarket","other":{"addr:city":"Cawstone","addr:housenumber":"Unit 1","addr:postcode":"CV22 7GU","addr:street":"Gerard Road","brand":"Co-op Food","brand:wikidata":"Q3277439","brand:wikipedia":"en:Co-op Food","fhrs:id":"370973","operator":"The Co-operative Group","source:geometry":"Warwickshire CC Aerial Imagery 2013"}}, "geometry":{"type":"MultiPolygon","coordinates":[[[[-1.30318,52.36032],[-1.30316,52.36052],[-1.30383,52.36055],[-1.30384,52.36052],[-1.30384,52.36045],[-1.3034,52.36043],[-1.30341,52.36033],[-1.30318,52.36032]]]]}}
]
}
