{
"type": "FeatureCollection",
"features": [
{ "type":"Feature","properties":{"osm_id":"1972860564","name":"Heron Foods","other":{"addr:city":"Egremont","addr:country":"GB","addr:housenumber":"35","addr:postcode":"CA22 2DR","addr:street":"Main Street","addr:unit":"1","brand":"Heron Foods","brand:wikidata":"Q5743472","brand:wikipedia":"en:Heron Foods","contact:website":"https:\/\/heronfoods.com\/storelocator\/store-details\/egremont","fhrs:id":"704155","shop":"supermarket"}}, "geometry":{"type":"Point","coordinates":[-3.52809,54.48252 ]}},
{ "type":"Feature","properties":{"osm_id":"2913157186","name":"McColl's","other":{"shop":"supermarket"}}, "geometry":{"type":"Point","coordinates":[-3.48451,54.39488 ]}},
{ "type":"Feature","properties":{"osm_id":"4189453189","name":"Spar","other":{"addr:city":"Bigrigg","addr:street":"Springfield Road","brand":"Spar","brand:wikidata":"Q610492","shop":"supermarket"}}, "geometry":{"type":"Point","coordinates":[-3.5461,54.50458 ]}},
{ "type":"Feature","properties":{"osm_id":"4541519736","name":"Heron Foods","other":{"addr:city":"Whitehaven","addr:country":"GB","addr:housenumber":"20,21","addr:postcode":"CA28 7LA","addr:street":"King Street","brand":"Heron Foods","brand:wikidata":"Q5743472","brand:wikipedia":"en:Heron Foods","contact:website":"https:\/\/heronfoods.com\/storelocator\/store-details\/whitehaven","fhrs:id":"229991","shop":"supermarket"}}, "geometry":{"type":"Point","coordinates":[-3.58904,54.54866 ]}},
{ "type":"Feature","properties":{"osm_id":"7692304764","name":"Seascale Coop","other":{"operator":"Coop","shop":"supermarket"}}, "geometry":{"type":"Point","coordinates":[-3.48072,54.39632 ]}},
{ "type":"Feature","properties":{"osm_way_id":"34997921","name":"Sainsbury's","building":"supermarket","shop":"supermarket","other":{"addr:city":"Milton Keynes","addr:country":"GB","addr:housenumber":"799","addr:postcode":"MK9 2FW","addr:street":"Witan Gate","addr:suburb":"Central Milton Keynes","brand":"Sainsbury's","brand:wikidata":"Q152096","brand:wikipedia":"en:Sainsbury's","fhrs:authority":"Milton Keynes","fhrs:id":"199356","fhrs:local_authority_id":"74120","phone":"+44 1908 674154","wheelchair":"limited","wheelchair:description":"Items unreacheable without assistance, cafe tables placed v close together, blocks egress. Wheelchair trolleys held at customer service desk, takes up to 20 minutes to sign for them."}}, "geometry":{"type":"MultiPolygon","coordinates":[[[[-0.76258,52.0366],[-0.76183,52.03596],[-0.76176,52.0359],[-0.76153,52.0357],[-0.76142,52.03562],[-0.76082,52.03589],[-0.76177,52.03677],[-0.76193,52.03688],[-0.76235,52.0367],[-0.76258,52.0366]]]]}},
{ "type":"Feature","properties":{"osm_way_id":"44192514","name":"Tesco Extra","building":"retail","shop":"supermarket","other":{"addr:city":"Inverness","addr:housename":"Inshes Retail Park","addr:postcode":"IV2 3TW","addr:street":"Milton of Inshes","alt_name":"Tesco Inverness Inshes Extra","brand":"Tesco Extra","brand:wikidata":"Q25172225","brand:wikipedia":"en:Tesco Extra","opening_hours":"Mo 08:00-24:00; Tu-Fr 06:00-24:00; Sa 06:00-22:00; Su 09:00-20:00","operator":"Tesco","wheelchair":"yes"}}, "geometry":{"type":"MultiPolygon","coordinates":[[[[-4.18927,57.47009],[-4.19013,57.47029],[-4.19021,57.4703],[-4.1898,57.47079],[-4.19005,57.47085],[-4.18995,57.47097],[-4.19008,57.471],[-4.18977,57.47138],[-4.18942,57.4713],[-4.18914,57.47124],[-4.18891,57.47118],[-4.18862,57.47112],[-4.18881,57.47088],[-4.18866,57.47085],[-4.18892,57.47052],[-4.1889,57.47052],[-4.18901,57.47038],[-4.18903,57.47039],[-4.18927,57.47009]]]]}},
{ "type":"Feature","properties":{"osm_way_id":"231739997","name":"Co-op Food","building":"yes","shop":"supermarket","other":{"addr:housenumber":"33-35","addr:postcode":"LA18 4BT","addr:street":"Lapstone Road","bag:charge":"5","brand":"Co-op Food","brand:wikidata":"Q3277439","brand:wikipedia":"en:Co-op Food","operator":"The Co-operative Group","website":"http:\/\/www.co-operative.coop\/find-us\/?q=millom&lat=54.212073&long=-3.272846999999956&filters=Food&options=#"}}, "geometry":{"type":"MultiPolygon","coordinates":[[[[-3.26854,54.20966],[-3.26872,54.20952],[-3.26875,54.2095],[-3.26891,54.2096],[-3.26868,54.20972],[-3.26854,54.20966]]]]}},
{ "type":"Feature","properties":{"osm_way_id":"231739998","name":"Tesco","building":"yes","shop":"supermarket","other":{"addr:postcode":"LA18 4BX","addr:street":"Lancashire Road","bag:charge":"5","brand":"Tesco","brand:wikidata":"Q487494","brand:wikipedia":"en:Tesco","contact:website":"https:\/\/www.tesco.com\/store-locator\/millom\/lancashire-rd","operator":"Tesco"}}, "geometry":{"type":"MultiPolygon","coordinates":[[[[-3.27084,54.21063],[-3.27077,54.21058],[-3.27075,54.2106],[-3.27044,54.21039],[-3.27011,54.21056],[-3.27022,54.21063],[-3.26999,54.21075],[-3.27025,54.21093],[-3.27084,54.21063]]]]}},
{ "type":"Feature","properties":{"osm_way_id":"242192224","name":"Asda","building":"supermarket","shop":"supermarket","other":{"addr:city":"Arbroath","addr:country":"GB","addr:housename":"Westway Retail Park","addr:postcode":"DD11 2NQ","addr:street":"Dundee Road","addr:unit":"6","alt_name":"Asda Arbroath","brand":"Asda","brand:wikidata":"Q297410","brand:wikipedia":"en:Asda","contact:facebook":"https:\/\/www.facebook.com\/asda\/","contact:phone":"+44 1241 442 500","contact:twitter":"@asda","contact:website":"https:\/\/storelocator.asda.com\/scotland\/arbroath\/westway-retail-park-dundee-road","fhrs:id":"439851","opening_hours":"Mo-Sa 07:00-23:00; Su 08:00-22:00","operator":"Asda Stores Ltd","wheelchair":"yes"}}, "geometry":{"type":"MultiPolygon","coordinates":[[[[-2.61355,56.5497],[-2.61429,56.54939],[-2.61476,56.54975],[-2.61402,56.55005],[-2.61372,56.54982],[-2.61355,56.5497]]]]}},
{ "type":"Feature","properties":{"osm_way_id":"294800597","name":"Asda","building":"yes","shop":"supermarket","other":{"addr:city":"Whitehaven","addr:country":"GB","addr:postcode":"CA28 9DL","addr:street":"Preston Street","alt_name":"ASDA Whitehaven Supermarket","brand":"Asda","brand:wikidata":"Q297410","brand:wikipedia":"en:Asda","contact:website":"https:\/\/storelocator.asda.com\/north-west\/whitehaven\/preston-street","fhrs:id":"230267","old_name":"Netto","operator":"Asda Stores Ltd"}}, "geometry":{"type":"MultiPolygon","coordinates":[[[[-3.59026,54.54299],[-3.59083,54.54286],[-3.59059,54.54251],[-3.59003,54.54263],[-3.59026,54.54299]]]]}},
{ "type":"Feature","properties":{"osm_way_id":"294800606","name":"Aldi","building":"yes","shop":"supermarket","other":{"addr:postcode":"CA28 9DL","addr:street":"Preston Street","alt_name":"ALDI Whitehaven","brand":"ALDI","brand:wikidata":"Q41171672","brand:wikipedia":"en:Aldi"}}, "geometry":{"type":"MultiPolygon","coordinates":[[[[-3.58959,54.54444],[-3.59046,54.54423],[-3.59056,54.54437],[-3.59045,54.5444],[-3.5905,54.54447],[-3.58974,54.54465],[-3.58959,54.54444]]]]}},
{ "type":"Feature","properties":{"osm_way_id":"294808475","name":"The Co-operative Food","building":"yes","shop":"supermarket","other":{"addr:city":"Distington","addr:housenumber":"53-55","addr:postcode":"CA14 5SZ","addr:street":"Main Street","operator":"The Co-operative Group","phone":"+44 1946 830700","website":"https:\/\/www.co-operative.coop\/store\/food\/CA14-5SZ\/53-55-main-street"}}, "geometry":{"type":"MultiPolygon","coordinates":[[[[-3.53883,54.59749],[-3.53896,54.59733],[-3.53879,54.59729],[-3.53873,54.59728],[-3.53861,54.59743],[-3.53883,54.59749]]]]}},
{ "type":"Feature","properties":{"osm_way_id":"306108692","name":"The Co-operative Food","building":"yes","shop":"supermarket","other":{"operator":"The Co-operative Group"}}, "geometry":{"type":"MultiPolygon","coordinates":[[[[-3.52441,54.52318],[-3.52463,54.52326],[-3.52466,54.52323],[-3.52503,54.52338],[-3.52525,54.52319],[-3.52517,54.52317],[-3.52525,54.5231],[-3.52503,54.52302],[-3.52512,54.52294],[-3.52501,54.52289],[-3.52505,54.52286],[-3.5249,54.5228],[-3.52466,54.523],[-3.52461,54.52297],[-3.52446,54.52309],[-3.52449,54.52311],[-3.52441,54.52318]]]]}},
{ "type":"Feature","properties":{"osm_way_id":"312148840","name":"Morrisons","building":"yes","shop":"supermarket","other":{"addr:city":"Whitehaven","addr:postcode":"CA28 7RW","addr:street":"Flatt Walks","alt_name":"Morrisons Whitehaven","brand":"Morrisons","brand:wikidata":"Q922344","brand:wikipedia":"en:Morrisons"}}, "geometry":{"type":"MultiPolygon","coordinates":[[[[-3.58546,54.54621],[-3.58461,54.54624],[-3.58456,54.5458],[-3.58435,54.54581],[-3.58434,54.54568],[-3.58562,54.54563],[-3.58567,54.54606],[-3.58561,54.54608],[-3.58546,54.54621]]]]}},
{ "type":"Feature","properties":{"osm_way_id":"312194646","name":"Tesco","building":"yes","shop":"supermarket","other":{"addr:postcode":"CA28 7XY","addr:street":"Bransty Row","alt_name":"Tesco Whitehaven Superstore","brand":"Tesco","brand:wikidata":"Q487494","brand:wikipedia":"en:Tesco"}}, "geometry":{"type":"MultiPolygon","coordinates":[[[[-3.58829,54.55327],[-3.58825,54.55257],[-3.58766,54.55258],[-3.58774,54.55252],[-3.58754,54.55243],[-3.58733,54.55256],[-3.58734,54.55267],[-3.58741,54.55267],[-3.58741,54.55286],[-3.58751,54.55312],[-3.58757,54.55312],[-3.58763,54.55329],[-3.58829,54.55327]]]]}},
{ "type":"Feature","properties":{"osm_way_id":"319606878","name":"The Co-operative Food","building":"yes","shop":"supermarket","other":{"addr:city":"Egremont","addr:street":"Main Street","operator":"The Co-operative Group"}}, "geometry":{"type":"MultiPolygon","coordinates":[[[[-3.52799,54.48219],[-3.528,54.48202],[-3.52779,54.48202],[-3.52779,54.48188],[-3.52824,54.48188],[-3.52844,54.4819],[-3.52838,54.48203],[-3.52829,54.48203],[-3.52799,54.48219]]]]}},
{ "type":"Feature","properties":{"osm_way_id":"331385071","name":"Crossfield Nisa","building":"yes","shop":"supermarket"},"geometry":{"type":"MultiPolygon","coordinates":[[[[-3.52483,54.52425],[-3.52504,54.52432],[-3.52526,54.5241],[-3.52538,54.52398],[-3.52539,54.52396],[-3.52519,54.52389],[-3.52483,54.52425]]]]}}
]
}
