{
"type": "FeatureCollection",
"features": [
{ "type":"Feature","properties":{"osm_id":"253961020","other":{"amenity":"parking"}}, "geometry":{"type":"Point","coordinates":[-3.53515,54.49153 ]}},
{ "type":"Feature","properties":{"osm_id":"281518253","other":{"amenity":"parking"}}, "geometry":{"type":"Point","coordinates":[-1.90415,52.49738 ]}},
{ "type":"Feature","properties":{"osm_id":"377017751","other":{"amenity":"parking"}}, "geometry":{"type":"Point","coordinates":[-3.43136,54.40786 ]}},
{ "type":"Feature","properties":{"osm_id":"418340527","other":{"access":"yes","amenity":"parking","description":"Layby","fee":"no","parking":"street_side"}}, "geometry":{"type":"Point","coordinates":[-1.63318,53.32148 ]}},
{ "type":"Feature","properties":{"osm_id":"702621697","other":{"amenity":"parking"}}, "geometry":{"type":"Point","coordinates":[-3.35081,54.24115 ]}},
{ "type":"Feature","properties":{"osm_id":"702621698","other":{"amenity":"parking","fee":"no","park_ride":"no","parking":"lane","supervised":"no","surface":"asphalt"}}, "geometry":{"type":"Point","coordinates":[-3.3529,54.24333 ]}},
{ "type":"Feature","properties":{"osm_id":"1282084580","other":{"amenity":"parking"}}, "geometry":{"type":"Point","coordinates":[-3.59185,54.48174 ]}},
{ "type":"Feature","properties":{"osm_id":"1282099658","other":{"amenity":"parking"}}, "geometry":{"type":"Point","coordinates":[-3.60245,54.51767 ]}},
{ "type":"Feature","properties":{"osm_id":"1282101279","other":{"amenity":"parking"}}, "geometry":{"type":"Point","coordinates":[-3.62635,54.51571 ]}},
{ "type":"Feature","properties":{"osm_id":"1331396615","other":{"amenity":"parking"}}, "geometry":{"type":"Point","coordinates":[-3.56096,54.54801 ]}},
{ "type":"Feature","properties":{"osm_id":"1364823988","other":{"amenity":"parking"}}, "geometry":{"type":"Point","coordinates":[-3.4122,54.43459 ]}},
{ "type":"Feature","properties":{"osm_id":"1408803893","other":{"amenity":"parking"}}, "geometry":{"type":"Point","coordinates":[-3.42938,54.57388 ]}},
{ "type":"Feature","properties":{"osm_id":"1752751082","other":{"amenity":"charging_station","source:amenity":"survey"}}, "geometry":{"type":"Point","coordinates":[-3.275,54.39542 ]}},
{ "type":"Feature","properties":{"osm_id":"1933651522","other":{"amenity":"parking","parking":"surface"}}, "geometry":{"type":"Point","coordinates":[-3.28296,54.19738 ]}},
{ "type":"Feature","properties":{"osm_id":"1933651585","other":{"amenity":"parking","parking":"surface"}}, "geometry":{"type":"Point","coordinates":[-3.26532,54.19986 ]}},
{ "type":"Feature","properties":{"osm_id":"2245106464","other":{"amenity":"parking","capacity":"8","fee":"no","operator":"National Trust","parking":"surface"}}, "geometry":{"type":"Point","coordinates":[-3.34569,54.42213 ]}},
{ "type":"Feature","properties":{"osm_id":"2290512576","other":{"amenity":"parking"}}, "geometry":{"type":"Point","coordinates":[-3.33434,54.22888 ]}},
{ "type":"Feature","properties":{"osm_id":"2930136419","other":{"amenity":"parking","fee":"no","park_ride":"no","parking":"lane","supervised":"no","surface":"asphalt"}}, "geometry":{"type":"Point","coordinates":[-3.34764,54.23853 ]}},
{ "type":"Feature","properties":{"osm_id":"2930136432","other":{"amenity":"parking"}}, "geometry":{"type":"Point","coordinates":[-3.37873,54.29299 ]}},
{ "type":"Feature","properties":{"osm_id":"2930136435","other":{"amenity":"parking"}}, "geometry":{"type":"Point","coordinates":[-3.3789,54.29413 ]}},
{ "type":"Feature","properties":{"osm_id":"2930136438","other":{"amenity":"parking"}}, "geometry":{"type":"Point","coordinates":[-3.38425,54.31296 ]}},
{ "type":"Feature","properties":{"osm_id":"2930204331","other":{"amenity":"parking"}}, "geometry":{"type":"Point","coordinates":[-3.43083,54.38069 ]}},
{ "type":"Feature","properties":{"osm_id":"2930204333","other":{"amenity":"parking"}}, "geometry":{"type":"Point","coordinates":[-3.42495,54.38172 ]}},
{ "type":"Feature","properties":{"osm_id":"2930246414","other":{"amenity":"parking","fee":"no","park_ride":"no","parking":"lane","supervised":"no","surface":"asphalt"}}, "geometry":{"type":"Point","coordinates":[-3.46735,54.4333 ]}},
{ "type":"Feature","properties":{"osm_id":"2931458719","other":{"amenity":"parking"}}, "geometry":{"type":"Point","coordinates":[-3.55476,54.51708 ]}},
{ "type":"Feature","properties":{"osm_id":"3208335662","name":"Recreation Centre","other":{"amenity":"parking","capacity":"50","fee":"no","park_ride":"no","parking":"surface","supervised":"no"}}, "geometry":{"type":"Point","coordinates":[-3.26901,54.21111 ]}},
{ "type":"Feature","properties":{"osm_id":"3208518926","other":{"amenity":"parking","capacity":"15","fee":"no","park_ride":"no","supervised":"no"}}, "geometry":{"type":"Point","coordinates":[-3.28973,54.19792 ]}},
{ "type":"Feature","properties":{"osm_id":"3208857353","other":{"amenity":"parking"}}, "geometry":{"type":"Point","coordinates":[-3.25429,54.20818 ]}},
{ "type":"Feature","properties":{"osm_id":"3208912048","other":{"amenity":"parking"}}, "geometry":{"type":"Point","coordinates":[-3.26525,54.20548 ]}},
{ "type":"Feature","properties":{"osm_id":"3208912049","other":{"amenity":"parking"}}, "geometry":{"type":"Point","coordinates":[-3.26544,54.20504 ]}},
{ "type":"Feature","properties":{"osm_id":"3208912050","other":{"amenity":"parking"}}, "geometry":{"type":"Point","coordinates":[-3.26694,54.20525 ]}},
{ "type":"Feature","properties":{"osm_id":"3209131081","other":{"amenity":"parking"}}, "geometry":{"type":"Point","coordinates":[-3.27297,54.22142 ]}},
{ "type":"Feature","properties":{"osm_id":"3211791275","other":{"amenity":"parking"}}, "geometry":{"type":"Point","coordinates":[-3.32198,54.21529 ]}},
{ "type":"Feature","properties":{"osm_id":"3211791276","other":{"amenity":"parking"}}, "geometry":{"type":"Point","coordinates":[-3.3212,54.21527 ]}},
{ "type":"Feature","properties":{"osm_id":"3301616220","other":{"amenity":"parking"}}, "geometry":{"type":"Point","coordinates":[-3.27387,54.21394 ]}},
{ "type":"Feature","properties":{"osm_id":"3301714961","other":{"amenity":"parking"}}, "geometry":{"type":"Point","coordinates":[-3.2748,54.21185 ]}},
{ "type":"Feature","properties":{"osm_id":"3301714962","other":{"amenity":"parking"}}, "geometry":{"type":"Point","coordinates":[-3.27515,54.21182 ]}},
{ "type":"Feature","properties":{"osm_id":"3310938921","other":{"amenity":"parking"}}, "geometry":{"type":"Point","coordinates":[-3.27993,54.20815 ]}},
{ "type":"Feature","properties":{"osm_id":"3311017485","other":{"amenity":"parking"}}, "geometry":{"type":"Point","coordinates":[-3.23683,54.27837 ]}},
{ "type":"Feature","properties":{"osm_id":"3311124421","other":{"amenity":"parking"}}, "geometry":{"type":"Point","coordinates":[-3.28396,54.2108 ]}},
{ "type":"Feature","properties":{"osm_id":"3312130879","other":{"amenity":"parking","fee":"no","park_ride":"no","parking":"lane","supervised":"no","surface":"asphalt"}}, "geometry":{"type":"Point","coordinates":[-3.35691,54.2469 ]}},
{ "type":"Feature","properties":{"osm_id":"3394673110","other":{"amenity":"parking"}}, "geometry":{"type":"Point","coordinates":[-3.27316,54.2299 ]}},
{ "type":"Feature","properties":{"osm_id":"3415177534","other":{"amenity":"parking"}}, "geometry":{"type":"Point","coordinates":[-3.27458,54.21354 ]}},
{ "type":"Feature","properties":{"osm_id":"3422867880","other":{"amenity":"parking"}}, "geometry":{"type":"Point","coordinates":[-3.50076,54.44847 ]}},
{ "type":"Feature","properties":{"osm_id":"3461563009","other":{"amenity":"parking","parking":"lane"}}, "geometry":{"type":"Point","coordinates":[-3.54502,54.58704 ]}},
{ "type":"Feature","properties":{"osm_id":"3481626864","other":{"access":"yes","amenity":"parking","capacity":"8","fee":"no","parking":"lane","surface":"asphalt"}}, "geometry":{"type":"Point","coordinates":[-3.49842,54.51583 ]}},
{ "type":"Feature","properties":{"osm_id":"3504668157","other":{"amenity":"parking","parking":"lane"}}, "geometry":{"type":"Point","coordinates":[-3.51288,54.45536 ]}},
{ "type":"Feature","properties":{"osm_id":"3504686210","other":{"amenity":"parking","parking":"lane"}}, "geometry":{"type":"Point","coordinates":[-3.52459,54.45905 ]}},
{ "type":"Feature","properties":{"osm_id":"3504742516","other":{"amenity":"parking","parking":"lane"}}, "geometry":{"type":"Point","coordinates":[-3.48318,54.44005 ]}},
{ "type":"Feature","properties":{"osm_id":"5695259551","other":{"access":"customers","amenity":"parking","operator":"Stonehouse Farm","parking":"surface"}}, "geometry":{"type":"Point","coordinates":[-3.59073,54.49216 ]}},
{ "type":"Feature","properties":{"osm_id":"7031030369","other":{"amenity":"parking","parking":"layby"}}, "geometry":{"type":"Point","coordinates":[-3.32875,54.23194 ]}},
{ "type":"Feature","properties":{"osm_id":"7857948131","other":{"amenity":"parking","parking":"layby"}}, "geometry":{"type":"Point","coordinates":[-3.2622,54.25841 ]}},
{ "type":"Feature","properties":{"osm_way_id":"5711924","amenity":"parking","other":{"access":"customers","parking":"surface","surface":"asphalt"}}, "geometry":{"type":"MultiPolygon","coordinates":[[[[-3.40849,54.35611],[-3.40856,54.35625],[-3.40868,54.35625],[-3.40865,54.35629],[-3.40898,54.35628],[-3.40902,54.35623],[-3.40924,54.35619],[-3.4092,54.35616],[-3.40914,54.35611],[-3.40909,54.35613],[-3.40899,54.35604],[-3.40898,54.35604],[-3.40879,54.3559],[-3.4085,54.35562],[-3.40843,54.35554],[-3.40835,54.3554],[-3.40821,54.35541],[-3.40822,54.35549],[-3.40825,54.35549],[-3.40826,54.35556],[-3.40834,54.35556],[-3.4084,54.35568],[-3.40838,54.35569],[-3.40827,54.35571],[-3.40825,54.35571],[-3.40823,54.35571],[-3.4084,54.3561],[-3.40842,54.35609],[-3.40843,54.35612],[-3.40849,54.35611]]]]}},
{ "type":"Feature","properties":{"osm_way_id":"6459037","name":"Pay & Display","amenity":"parking","other":{"addr:city":"Ravenglass","addr:street":"Croftlands Drive","fee":"yes","parking":"surface"}}, "geometry":{"type":"MultiPolygon","coordinates":[[[[-3.40958,54.35523],[-3.40961,54.35526],[-3.40962,54.35527],[-3.40969,54.35534],[-3.40975,54.3554],[-3.40978,54.35558],[-3.40956,54.35558],[-3.40939,54.35564],[-3.40923,54.35549],[-3.40898,54.35524],[-3.40872,54.35527],[-3.40846,54.35501],[-3.40867,54.35496],[-3.40887,54.35492],[-3.40904,54.35489],[-3.4091,54.35489],[-3.40916,54.35491],[-3.40939,54.35504],[-3.40949,54.35511],[-3.40954,54.3552],[-3.40958,54.35523]]]]}},
{ "type":"Feature","properties":{"osm_way_id":"23369761","name":"Morrisons","amenity":"parking"},"geometry":{"type":"MultiPolygon","coordinates":[[[[-3.58504,54.54504],[-3.584,54.5451],[-3.58405,54.5457],[-3.58424,54.54569],[-3.58565,54.5456],[-3.58567,54.54583],[-3.58572,54.54594],[-3.58578,54.54596],[-3.58591,54.54595],[-3.58606,54.54583],[-3.58644,54.54553],[-3.58696,54.54545],[-3.58692,54.5452],[-3.58505,54.54526],[-3.58504,54.54504]]]]}},
{ "type":"Feature","properties":{"osm_way_id":"23369765","amenity":"parking","other":{"access":"customers","fee":"no","operator":"Tesco","park_ride":"no","parking":"surface","surface":"asphalt"}}, "geometry":{"type":"MultiPolygon","coordinates":[[[[-3.58823,54.55202],[-3.58793,54.55181],[-3.58773,54.55172],[-3.5875,54.55151],[-3.58741,54.55146],[-3.58727,54.55144],[-3.58713,54.55146],[-3.58699,54.55155],[-3.58689,54.55165],[-3.58687,54.5517],[-3.58696,54.55187],[-3.58696,54.55198],[-3.58684,54.55213],[-3.58675,54.55221],[-3.5867,54.55233],[-3.58673,54.55244],[-3.58708,54.55242],[-3.58713,54.55249],[-3.58754,54.55243],[-3.58774,54.55252],[-3.58766,54.55258],[-3.58825,54.55257],[-3.58829,54.5525],[-3.58836,54.55218],[-3.58823,54.55202]]]]}},
{ "type":"Feature","properties":{"osm_way_id":"23372794","amenity":"parking","other":{"fee":"yes","parking":"surface","surface":"asphalt"}}, "geometry":{"type":"MultiPolygon","coordinates":[[[[-3.5944,54.54828],[-3.59457,54.54841],[-3.59451,54.54842],[-3.59456,54.54849],[-3.59451,54.54854],[-3.59443,54.54857],[-3.59433,54.54858],[-3.59424,54.54856],[-3.59382,54.54828],[-3.5939,54.54824],[-3.59399,54.5482],[-3.5942,54.54836],[-3.59424,54.54834],[-3.5944,54.54828]]]]}},
{ "type":"Feature","properties":{"osm_way_id":"25810062","amenity":"parking"},"geometry":{"type":"MultiPolygon","coordinates":[[[[-1.907,52.50271],[-1.9075,52.5027],[-1.90748,52.50291],[-1.90706,52.5029],[-1.907,52.50271]]]]}},
{ "type":"Feature","properties":{"osm_way_id":"29260539","name":"Bridge Inn car park","amenity":"parking"},"geometry":{"type":"MultiPolygon","coordinates":[[[[-3.3728,54.40206],[-3.37254,54.40189],[-3.37245,54.40183],[-3.37227,54.40177],[-3.37209,54.40184],[-3.37232,54.40214],[-3.3728,54.40206]]]]}},
{ "type":"Feature","properties":{"osm_way_id":"29380565","amenity":"parking","other":{"parking":"surface"}}, "geometry":{"type":"MultiPolygon","coordinates":[[[[-3.5606,54.45088],[-3.55971,54.45054],[-3.55962,54.45058],[-3.56047,54.45096],[-3.5606,54.45088]]]]}},
{ "type":"Feature","properties":{"osm_way_id":"29381633","amenity":"parking","other":{"access":"yes","capacity":"25","fee":"no","parking":"surface","surface":"unpaved"}}, "geometry":{"type":"MultiPolygon","coordinates":[[[[-3.4156,54.52613],[-3.41533,54.52575],[-3.4153,54.52568],[-3.41504,54.52572],[-3.41529,54.52613],[-3.4156,54.52613]]]]}},
{ "type":"Feature","properties":{"osm_way_id":"33076353","amenity":"parking","other":{"parking":"surface"}}, "geometry":{"type":"MultiPolygon","coordinates":[[[[-3.55831,54.46004],[-3.55795,54.46017],[-3.55771,54.45998],[-3.55801,54.45985],[-3.55813,54.45985],[-3.55831,54.46004]]]]}},
{ "type":"Feature","properties":{"osm_way_id":"50828184","amenity":"parking","other":{"fee":"yes","park_ride":"no","parking":"surface","supervised":"no","surface":"asphalt"}}, "geometry":{"type":"MultiPolygon","coordinates":[[[[-3.58714,54.54953],[-3.58695,54.54946],[-3.587,54.5494],[-3.58674,54.54931],[-3.58652,54.54949],[-3.58701,54.54966],[-3.58714,54.54953]]]]}},
{ "type":"Feature","properties":{"osm_way_id":"50828185","amenity":"parking","other":{"fee":"yes","park_ride":"no","parking":"surface","supervised":"yes","surface":"asphalt"}}, "geometry":{"type":"MultiPolygon","coordinates":[[[[-3.58713,54.54977],[-3.58748,54.54988],[-3.58718,54.55019],[-3.58685,54.55008],[-3.58713,54.54977]]]]}},
{ "type":"Feature","properties":{"osm_way_id":"54266236","name":"Bleach Green Car Park","amenity":"parking","other":{"access":"yes","capacity":"25","capacity:disabled":"no","capacity:parent":"no","capacity:women":"no","fee":"no","park_ride":"no","parking":"surface","supervised":"no","surface":"unpaved"}}, "geometry":{"type":"MultiPolygon","coordinates":[[[[-3.41489,54.52496],[-3.41485,54.5249],[-3.41475,54.52479],[-3.41473,54.52474],[-3.41412,54.5247],[-3.41413,54.52488],[-3.41413,54.52493],[-3.41489,54.52496]]]]}},
{ "type":"Feature","properties":{"osm_way_id":"54267626","amenity":"parking","other":{"fee":"yes","parking":"surface","surface":"cobblestone"}}, "geometry":{"type":"MultiPolygon","coordinates":[[[[-3.5965,54.54965],[-3.59669,54.5494],[-3.59646,54.54935],[-3.59609,54.54934],[-3.59601,54.54947],[-3.59608,54.5495],[-3.59606,54.54953],[-3.59612,54.54955],[-3.5965,54.54965]]]]}},
{ "type":"Feature","properties":{"osm_way_id":"60793551","amenity":"parking","other":{"fee":"no","park_ride":"no","parking":"surface","supervised":"no","surface":"unpaved"}}, "geometry":{"type":"MultiPolygon","coordinates":[[[[-3.25649,54.46598],[-3.25622,54.46594],[-3.25592,54.46592],[-3.2559,54.4659],[-3.25579,54.46582],[-3.25569,54.46575],[-3.25564,54.46573],[-3.25561,54.46571],[-3.25559,54.46568],[-3.25576,54.46555],[-3.25584,54.46541],[-3.25583,54.46528],[-3.25589,54.46525],[-3.25595,54.46522],[-3.25604,54.46516],[-3.25617,54.46511],[-3.25622,54.46502],[-3.25628,54.46492],[-3.2563,54.46476],[-3.25633,54.46467],[-3.25639,54.46454],[-3.25651,54.4646],[-3.25647,54.46495],[-3.25646,54.46497],[-3.25645,54.46511],[-3.25643,54.46518],[-3.25641,54.46531],[-3.25645,54.46544],[-3.25646,54.46551],[-3.25652,54.4656],[-3.25656,54.46569],[-3.25656,54.46578],[-3.25655,54.46587],[-3.25653,54.46591],[-3.25651,54.46594],[-3.25649,54.46598]]]]}},
{ "type":"Feature","properties":{"osm_way_id":"94421986","amenity":"parking","other":{"fee":"no","parking":"surface"}}, "geometry":{"type":"MultiPolygon","coordinates":[[[[-3.39157,54.35772],[-3.3899,54.35788],[-3.38985,54.35747],[-3.38985,54.35749],[-3.39002,54.35744],[-3.39069,54.35737],[-3.39151,54.35732],[-3.39157,54.35772]]]]}},
{ "type":"Feature","properties":{"osm_way_id":"103890332","amenity":"parking","other":{"fee":"yes","wheelchair":"yes"}}, "geometry":{"type":"MultiPolygon","coordinates":[[[[0.56283,51.71414],[0.5628,51.71404],[0.56275,51.7139],[0.56279,51.71391],[0.56303,51.71388],[0.56321,51.71393],[0.56354,51.71382],[0.56368,51.71381],[0.56371,51.71385],[0.56378,51.71386],[0.56362,51.71419],[0.56343,51.71417],[0.56332,51.71418],[0.56328,51.71419],[0.56292,51.71415],[0.56283,51.71414]]]]}},
{ "type":"Feature","properties":{"osm_way_id":"103890344","name":"Lakes Car Park","amenity":"parking","other":{"fee":"yes","wheelchair":"yes","wheelchair:description":"need help in certain areas"}}, "geometry":{"type":"MultiPolygon","coordinates":[[[[0.55865,51.7137],[0.5589,51.71382],[0.55895,51.71373],[0.55899,51.71372],[0.55902,51.71372],[0.55907,51.71373],[0.55914,51.71374],[0.55922,51.71376],[0.55929,51.71381],[0.55937,51.71382],[0.55948,51.7138],[0.55954,51.71377],[0.55959,51.71371],[0.55961,51.71358],[0.55954,51.71357],[0.55944,51.71358],[0.55934,51.71356],[0.55923,51.71354],[0.55908,51.71352],[0.55892,51.71349],[0.55874,51.71346],[0.55878,51.71341],[0.55866,51.71337],[0.55856,51.71349],[0.55855,51.71353],[0.55859,51.71357],[0.55863,51.71361],[0.55867,51.71366],[0.55865,51.7137]]]]}},
{ "type":"Feature","properties":{"osm_way_id":"107007596","amenity":"parking","other":{"surface":"paved"}}, "geometry":{"type":"MultiPolygon","coordinates":[[[[-3.50227,54.43534],[-3.50337,54.43584],[-3.50264,54.43639],[-3.50154,54.43589],[-3.50227,54.43534]]]]}},
{ "type":"Feature","properties":{"osm_way_id":"107007597","amenity":"parking","other":{"surface":"paved"}}, "geometry":{"type":"MultiPolygon","coordinates":[[[[-3.49935,54.43654],[-3.498,54.43605],[-3.49805,54.436],[-3.49795,54.43598],[-3.49805,54.43588],[-3.49813,54.43591],[-3.49824,54.43578],[-3.49816,54.43576],[-3.49828,54.43566],[-3.49986,54.43623],[-3.49969,54.43644],[-3.4996,54.43641],[-3.49947,54.4365],[-3.49935,54.43654]]]]}},
{ "type":"Feature","properties":{"osm_way_id":"107007601","name":"Car Park B","amenity":"parking","other":{"surface":"paved"}}, "geometry":{"type":"MultiPolygon","coordinates":[[[[-3.49659,54.43492],[-3.49618,54.4348],[-3.49621,54.43476],[-3.49602,54.43471],[-3.4961,54.43461],[-3.49594,54.43457],[-3.49591,54.43449],[-3.4958,54.43446],[-3.49604,54.43409],[-3.49713,54.43439],[-3.49659,54.43492]]]]}},
{ "type":"Feature","properties":{"osm_way_id":"107007615","amenity":"parking","other":{"surface":"paved"}}, "geometry":{"type":"MultiPolygon","coordinates":[[[[-3.50247,54.43651],[-3.50172,54.43706],[-3.50063,54.43656],[-3.50138,54.43601],[-3.50247,54.43651]]]]}},
{ "type":"Feature","properties":{"osm_way_id":"107007617","amenity":"parking","other":{"surface":"paved"}}, "geometry":{"type":"MultiPolygon","coordinates":[[[[-3.49794,54.43564],[-3.49712,54.43533],[-3.49716,54.4353],[-3.49709,54.43528],[-3.49758,54.43477],[-3.49765,54.43479],[-3.4977,54.43475],[-3.49849,54.43503],[-3.49845,54.43507],[-3.49852,54.43509],[-3.49794,54.43564]]]]}},
{ "type":"Feature","properties":{"osm_way_id":"107007618","amenity":"parking","other":{"surface":"paved"}}, "geometry":{"type":"MultiPolygon","coordinates":[[[[-3.50001,54.43611],[-3.49849,54.43557],[-3.49854,54.43552],[-3.49845,54.43549],[-3.49853,54.43542],[-3.49861,54.43545],[-3.49875,54.43531],[-3.49867,54.43528],[-3.49875,54.4352],[-3.49885,54.43524],[-3.49891,54.43518],[-3.50034,54.43568],[-3.50029,54.43573],[-3.50037,54.43576],[-3.50001,54.43611]]]]}},
{ "type":"Feature","properties":{"osm_way_id":"107007620","amenity":"parking","other":{"surface":"paved"}}, "geometry":{"type":"MultiPolygon","coordinates":[[[[-3.50151,54.4372],[-3.50144,54.43727],[-3.50137,54.43731],[-3.50126,54.43734],[-3.50116,54.43734],[-3.50105,54.43733],[-3.50093,54.43725],[-3.50069,54.43711],[-3.5001,54.43679],[-3.50005,54.43676],[-3.50001,54.43664],[-3.50006,54.43654],[-3.50015,54.43662],[-3.50026,54.43664],[-3.50043,54.43664],[-3.50052,54.43665],[-3.50146,54.43712],[-3.50151,54.4372]]]]}},
{ "type":"Feature","properties":{"osm_way_id":"107011558","amenity":"parking","other":{"access":"private","surface":"paved"}}, "geometry":{"type":"MultiPolygon","coordinates":[[[[-3.50406,54.42257],[-3.50436,54.42265],[-3.5046,54.42237],[-3.5043,54.42229],[-3.50406,54.42257]]]]}},
{ "type":"Feature","properties":{"osm_way_id":"107011559","amenity":"parking","other":{"access":"private","surface":"paved"}}, "geometry":{"type":"MultiPolygon","coordinates":[[[[-3.5023,54.42508],[-3.50212,54.42508],[-3.50158,54.42536],[-3.5018,54.42545],[-3.50189,54.42542],[-3.5023,54.42508]]]]}},
{ "type":"Feature","properties":{"osm_way_id":"107011561","amenity":"parking","other":{"access":"private","surface":"paved"}}, "geometry":{"type":"MultiPolygon","coordinates":[[[[-3.49096,54.42981],[-3.49085,54.42983],[-3.49063,54.42983],[-3.49054,54.4298],[-3.49044,54.42975],[-3.49043,54.42969],[-3.49045,54.42961],[-3.49054,54.42956],[-3.49084,54.42951],[-3.49096,54.42981]]]]}},
{ "type":"Feature","properties":{"osm_way_id":"107011562","amenity":"parking","other":{"access":"private","surface":"paved"}}, "geometry":{"type":"MultiPolygon","coordinates":[[[[-3.50278,54.42482],[-3.50299,54.4247],[-3.50308,54.42466],[-3.50313,54.42462],[-3.50315,54.42458],[-3.50312,54.42453],[-3.50306,54.42447],[-3.50292,54.42444],[-3.50279,54.42445],[-3.50264,54.4245],[-3.50245,54.4246],[-3.50264,54.4248],[-3.50275,54.42477],[-3.50278,54.42482]]]]}},
{ "type":"Feature","properties":{"osm_way_id":"107011564","amenity":"parking","other":{"access":"private","surface":"paved"}}, "geometry":{"type":"MultiPolygon","coordinates":[[[[-3.50067,54.41784],[-3.49929,54.41744],[-3.49939,54.41732],[-3.50073,54.41772],[-3.50067,54.41784]]]]}},
{ "type":"Feature","properties":{"osm_way_id":"107011567","amenity":"parking","other":{"access":"private","surface":"paved"}}, "geometry":{"type":"MultiPolygon","coordinates":[[[[-3.49361,54.43018],[-3.49383,54.43014],[-3.49363,54.42957],[-3.4934,54.4296],[-3.49358,54.43014],[-3.49361,54.43018]]]]}},
{ "type":"Feature","properties":{"osm_way_id":"107011568","name":"Car Park A","amenity":"parking","other":{"parking":"surface","surface":"paved"}}, "geometry":{"type":"MultiPolygon","coordinates":[[[[-3.49421,54.43304],[-3.49417,54.4331],[-3.49444,54.43315],[-3.49477,54.43259],[-3.49426,54.43249],[-3.49405,54.43287],[-3.49415,54.43289],[-3.49407,54.43301],[-3.49421,54.43304]]]]}},
{ "type":"Feature","properties":{"osm_way_id":"107011571","amenity":"parking","other":{"surface":"paved"}}, "geometry":{"type":"MultiPolygon","coordinates":[[[[-3.49446,54.43177],[-3.49421,54.43196],[-3.49392,54.43202],[-3.49391,54.43178],[-3.49414,54.43162],[-3.49446,54.43177]]]]}},
{ "type":"Feature","properties":{"osm_way_id":"107011573","amenity":"parking","other":{"surface":"paved"}}, "geometry":{"type":"MultiPolygon","coordinates":[[[[-3.50129,54.41365],[-3.50061,54.41349],[-3.50096,54.41265],[-3.50112,54.41275],[-3.50132,54.41297],[-3.50146,54.41313],[-3.5015,54.41321],[-3.50144,54.4134],[-3.50129,54.41365]]]]}},
{ "type":"Feature","properties":{"osm_way_id":"107011574","amenity":"parking","other":{"surface":"paved"}}, "geometry":{"type":"MultiPolygon","coordinates":[[[[-3.50136,54.41079],[-3.50094,54.41073],[-3.50105,54.41051],[-3.50143,54.41058],[-3.50136,54.41079]]]]}},
{ "type":"Feature","properties":{"osm_way_id":"107011577","amenity":"parking","other":{"access":"private","surface":"paved"}}, "geometry":{"type":"MultiPolygon","coordinates":[[[[-3.50543,54.41469],[-3.50428,54.41604],[-3.50344,54.41579],[-3.50336,54.41592],[-3.50468,54.41627],[-3.5058,54.41501],[-3.50729,54.41548],[-3.50739,54.41537],[-3.50644,54.41505],[-3.50626,54.41472],[-3.50605,54.41464],[-3.5063,54.41429],[-3.50539,54.41341],[-3.50492,54.41298],[-3.50474,54.41293],[-3.50462,54.41296],[-3.50447,54.41301],[-3.50428,54.41299],[-3.50376,54.41279],[-3.50356,54.41299],[-3.50431,54.41323],[-3.50384,54.41377],[-3.50574,54.41431],[-3.50543,54.41469]]]]}},
{ "type":"Feature","properties":{"osm_way_id":"107011578","amenity":"parking","other":{"access":"private","surface":"paved"}}, "geometry":{"type":"MultiPolygon","coordinates":[[[[-3.50219,54.41922],[-3.50109,54.4189],[-3.50124,54.41876],[-3.50152,54.41882],[-3.50163,54.41859],[-3.50097,54.41842],[-3.50061,54.41859],[-3.4995,54.41823],[-3.4996,54.41812],[-3.50037,54.41834],[-3.50059,54.41807],[-3.49979,54.41786],[-3.49987,54.41775],[-3.50276,54.41861],[-3.50229,54.41919],[-3.50219,54.41922]]]]}},
{ "type":"Feature","properties":{"osm_way_id":"107011581","amenity":"parking","other":{"access":"private","surface":"paved"}}, "geometry":{"type":"MultiPolygon","coordinates":[[[[-3.49084,54.4267],[-3.49115,54.42666],[-3.49152,54.42756],[-3.49108,54.42763],[-3.49077,54.42676],[-3.49084,54.4267]]]]}},
{ "type":"Feature","properties":{"osm_way_id":"107011582","amenity":"parking","other":{"access":"private","surface":"paved"}}, "geometry":{"type":"MultiPolygon","coordinates":[[[[-3.50325,54.42439],[-3.50325,54.42444],[-3.50336,54.42447],[-3.50347,54.4245],[-3.50365,54.42449],[-3.50384,54.42431],[-3.50339,54.42417],[-3.50325,54.42439]]]]}},
{ "type":"Feature","properties":{"osm_way_id":"107011585","amenity":"parking","other":{"access":"private","surface":"paved"}}, "geometry":{"type":"MultiPolygon","coordinates":[[[[-3.49795,54.41771],[-3.49744,54.41756],[-3.49757,54.41741],[-3.49807,54.41756],[-3.49795,54.41771]]]]}},
{ "type":"Feature","properties":{"osm_way_id":"107011586","amenity":"parking","other":{"access":"private","surface":"paved"}}, "geometry":{"type":"MultiPolygon","coordinates":[[[[-3.50648,54.41803],[-3.50629,54.41833],[-3.50666,54.41847],[-3.50636,54.41876],[-3.5061,54.41871],[-3.50615,54.41863],[-3.50571,54.41851],[-3.50555,54.41848],[-3.50594,54.41799],[-3.50607,54.41801],[-3.50615,54.41795],[-3.50638,54.41801],[-3.50649,54.418],[-3.50648,54.41803]]]]}},
{ "type":"Feature","properties":{"osm_way_id":"107011587","amenity":"parking","other":{"access":"private","surface":"paved"}}, "geometry":{"type":"MultiPolygon","coordinates":[[[[-3.50451,54.42406],[-3.50497,54.42351],[-3.50516,54.42357],[-3.5047,54.42411],[-3.50451,54.42406]]]]}},
{ "type":"Feature","properties":{"osm_way_id":"107011589","amenity":"parking","other":{"surface":"paved"}}, "geometry":{"type":"MultiPolygon","coordinates":[[[[-3.50337,54.41358],[-3.50294,54.41345],[-3.50306,54.41331],[-3.5035,54.41345],[-3.50337,54.41358]]]]}},
{ "type":"Feature","properties":{"osm_way_id":"107011590","amenity":"parking","other":{"access":"private","surface":"paved"}}, "geometry":{"type":"MultiPolygon","coordinates":[[[[-3.49673,54.42481],[-3.49702,54.42516],[-3.49731,54.42508],[-3.49691,54.42464],[-3.49662,54.42457],[-3.49655,54.42465],[-3.49669,54.42469],[-3.49673,54.42481]]]]}},
{ "type":"Feature","properties":{"osm_way_id":"107011594","amenity":"parking","other":{"surface":"paved"}}, "geometry":{"type":"MultiPolygon","coordinates":[[[[-3.49245,54.43224],[-3.49244,54.4321],[-3.49258,54.43197],[-3.49284,54.43208],[-3.49278,54.43214],[-3.49278,54.43218],[-3.49278,54.43223],[-3.49245,54.43224]]]]}},
{ "type":"Feature","properties":{"osm_way_id":"107011596","amenity":"parking","other":{"access":"private","surface":"paved"}}, "geometry":{"type":"MultiPolygon","coordinates":[[[[-3.49772,54.41489],[-3.49756,54.41487],[-3.49748,54.41503],[-3.49772,54.41508],[-3.49801,54.41514],[-3.49795,54.41523],[-3.49745,54.41509],[-3.49703,54.4149],[-3.49724,54.41447],[-3.49835,54.41467],[-3.49829,54.41477],[-3.49784,54.41468],[-3.49772,54.41489]]]]}},
{ "type":"Feature","properties":{"osm_way_id":"107011599","amenity":"parking","other":{"access":"private","surface":"paved"}}, "geometry":{"type":"MultiPolygon","coordinates":[[[[-3.50312,54.41592],[-3.50241,54.41572],[-3.50204,54.41616],[-3.50274,54.41636],[-3.50312,54.41592]]]]}},
{ "type":"Feature","properties":{"osm_way_id":"107011603","amenity":"parking","other":{"access":"private","surface":"paved"}}, "geometry":{"type":"MultiPolygon","coordinates":[[[[-3.50346,54.42529],[-3.50392,54.42516],[-3.50354,54.42469],[-3.50308,54.42482],[-3.50346,54.42529]]]]}},
{ "type":"Feature","properties":{"osm_way_id":"107011605","amenity":"parking","other":{"access":"private","surface":"paved"}}, "geometry":{"type":"MultiPolygon","coordinates":[[[[-3.4982,54.41777],[-3.49852,54.41786],[-3.49884,54.41747],[-3.49852,54.41738],[-3.4982,54.41777]]]]}},
{ "type":"Feature","properties":{"osm_way_id":"107011609","amenity":"parking","other":{"access":"private","surface":"paved"}}, "geometry":{"type":"MultiPolygon","coordinates":[[[[-3.49065,54.42933],[-3.49001,54.42938],[-3.49001,54.42935],[-3.48987,54.42936],[-3.48981,54.42917],[-3.4899,54.42916],[-3.48989,54.42907],[-3.49047,54.42899],[-3.49057,54.429],[-3.49064,54.42903],[-3.4907,54.42929],[-3.49069,54.42932],[-3.49065,54.42933]]]]}},
{ "type":"Feature","properties":{"osm_way_id":"107011612","amenity":"parking","other":{"access":"private","surface":"paved"}}, "geometry":{"type":"MultiPolygon","coordinates":[[[[-3.49075,54.42728],[-3.49087,54.42768],[-3.48991,54.42777],[-3.48973,54.42735],[-3.49075,54.42728]]]]}},
{ "type":"Feature","properties":{"osm_way_id":"107011615","amenity":"parking","other":{"surface":"paved"}}, "geometry":{"type":"MultiPolygon","coordinates":[[[[-3.49475,54.43348],[-3.49446,54.43342],[-3.49457,54.43329],[-3.49483,54.43335],[-3.49475,54.43348]]]]}},
{ "type":"Feature","properties":{"osm_way_id":"107011616","amenity":"parking","other":{"access":"private","surface":"paved"}}, "geometry":{"type":"MultiPolygon","coordinates":[[[[-3.49331,54.43026],[-3.49322,54.43028],[-3.4931,54.43024],[-3.49303,54.43025],[-3.49284,54.42976],[-3.49312,54.42973],[-3.49331,54.43026]]]]}},
{ "type":"Feature","properties":{"osm_way_id":"107011618","amenity":"parking","other":{"surface":"paved"}}, "geometry":{"type":"MultiPolygon","coordinates":[[[[-3.49137,54.41678],[-3.49117,54.41677],[-3.49114,54.41662],[-3.49075,54.4166],[-3.49079,54.41629],[-3.4911,54.41633],[-3.49121,54.41606],[-3.49158,54.4163],[-3.49137,54.41678]]]]}},
{ "type":"Feature","properties":{"osm_way_id":"107011620","amenity":"parking","other":{"access":"private","surface":"paved"}}, "geometry":{"type":"MultiPolygon","coordinates":[[[[-3.49907,54.42616],[-3.4986,54.42607],[-3.49862,54.42596],[-3.49808,54.4259],[-3.49748,54.4262],[-3.49728,54.42609],[-3.49806,54.42569],[-3.49787,54.4257],[-3.49772,54.42567],[-3.49762,54.42562],[-3.49756,54.42555],[-3.49797,54.42554],[-3.49824,54.42555],[-3.49876,54.42558],[-3.49876,54.42569],[-3.49942,54.42583],[-3.49907,54.42616]]]]}},
{ "type":"Feature","properties":{"osm_way_id":"107011623","amenity":"parking","other":{"access":"private","surface":"paved"}}, "geometry":{"type":"MultiPolygon","coordinates":[[[[-3.50193,54.42485],[-3.50174,54.42496],[-3.50144,54.42466],[-3.50095,54.42527],[-3.50133,54.4252],[-3.50148,54.42527],[-3.50205,54.42495],[-3.50205,54.42486],[-3.50202,54.4248],[-3.50193,54.42485]]]]}},
{ "type":"Feature","properties":{"osm_way_id":"107011627","amenity":"parking","other":{"parking":"surface","surface":"paved"}}, "geometry":{"type":"MultiPolygon","coordinates":[[[[-3.50595,54.41964],[-3.50612,54.41946],[-3.50613,54.41919],[-3.50539,54.41919],[-3.50529,54.41944],[-3.50595,54.41964]]]]}},
{ "type":"Feature","properties":{"osm_way_id":"107011628","amenity":"parking","other":{"surface":"paved"}}, "geometry":{"type":"MultiPolygon","coordinates":[[[[-3.50686,54.42112],[-3.50699,54.42095],[-3.5071,54.42078],[-3.50713,54.42067],[-3.50715,54.42048],[-3.50712,54.42034],[-3.50707,54.42027],[-3.50697,54.42025],[-3.50676,54.42028],[-3.50656,54.42033],[-3.50645,54.42034],[-3.50616,54.4203],[-3.50682,54.42104],[-3.50686,54.42112]]]]}},
{ "type":"Feature","properties":{"osm_way_id":"107011630","amenity":"parking","other":{"access":"private","surface":"paved"}}, "geometry":{"type":"MultiPolygon","coordinates":[[[[-3.49742,54.41598],[-3.49699,54.4159],[-3.49723,54.4154],[-3.49757,54.41544],[-3.49775,54.41548],[-3.49767,54.41566],[-3.49758,54.41586],[-3.4975,54.41592],[-3.49742,54.41598]]]]}},
{ "type":"Feature","properties":{"osm_way_id":"107011633","amenity":"parking","other":{"access":"private","surface":"paved"}}, "geometry":{"type":"MultiPolygon","coordinates":[[[[-3.50512,54.42319],[-3.50484,54.4231],[-3.50479,54.42316],[-3.50434,54.423],[-3.50457,54.42278],[-3.50487,54.42289],[-3.50495,54.42288],[-3.50541,54.42241],[-3.5058,54.42255],[-3.50565,54.42268],[-3.50572,54.42271],[-3.50512,54.42319]]]]}},
{ "type":"Feature","properties":{"osm_way_id":"107011636","amenity":"parking","other":{"access":"private","surface":"paved"}}, "geometry":{"type":"MultiPolygon","coordinates":[[[[-3.49228,54.43014],[-3.49176,54.4302],[-3.49158,54.42962],[-3.49209,54.42956],[-3.49228,54.43014]]]]}},
{ "type":"Feature","properties":{"osm_way_id":"107011637","amenity":"parking","other":{"surface":"paved"}}, "geometry":{"type":"MultiPolygon","coordinates":[[[[-3.50112,54.41444],[-3.50164,54.41383],[-3.50193,54.41352],[-3.50205,54.41339],[-3.50218,54.4134],[-3.50259,54.41352],[-3.50278,54.41351],[-3.50201,54.4144],[-3.50169,54.41431],[-3.50157,54.41427],[-3.50125,54.41448],[-3.50114,54.41448],[-3.50112,54.41444]]]]}},
{ "type":"Feature","properties":{"osm_way_id":"107011639","amenity":"parking","other":{"surface":"paved"}}, "geometry":{"type":"MultiPolygon","coordinates":[[[[-3.48879,54.41667],[-3.48902,54.417],[-3.48938,54.41692],[-3.48915,54.41659],[-3.48879,54.41667]]]]}},
{ "type":"Feature","properties":{"osm_way_id":"107011642","amenity":"parking","other":{"access":"private","surface":"paved"}}, "geometry":{"type":"MultiPolygon","coordinates":[[[[-3.50519,54.41711],[-3.50475,54.41699],[-3.50497,54.41672],[-3.5054,54.41683],[-3.50519,54.41711]]]]}},
{ "type":"Feature","properties":{"osm_way_id":"107011644","amenity":"parking","other":{"parking":"surface","surface":"paved"}}, "geometry":{"type":"MultiPolygon","coordinates":[[[[-3.50617,54.41914],[-3.50541,54.41913],[-3.50549,54.41891],[-3.50563,54.41877],[-3.50573,54.41874],[-3.50587,54.41873],[-3.50609,54.41878],[-3.50627,54.41882],[-3.50624,54.41915],[-3.50617,54.41914]]]]}},
{ "type":"Feature","properties":{"osm_way_id":"107011646","amenity":"parking","other":{"surface":"paved"}}, "geometry":{"type":"MultiPolygon","coordinates":[[[[-3.5004,54.41053],[-3.50024,54.41057],[-3.50007,54.41069],[-3.50017,54.41079],[-3.49978,54.41072],[-3.50003,54.41026],[-3.50047,54.41034],[-3.5004,54.41053]]]]}},
{ "type":"Feature","properties":{"osm_way_id":"107011648","amenity":"parking","other":{"surface":"paved"}}, "geometry":{"type":"MultiPolygon","coordinates":[[[[-3.49348,54.41066],[-3.49492,54.41082],[-3.49474,54.41131],[-3.4933,54.41108],[-3.49348,54.41066]]]]}},
{ "type":"Feature","properties":{"osm_way_id":"107011652","amenity":"parking","other":{"access":"private","surface":"paved"}}, "geometry":{"type":"MultiPolygon","coordinates":[[[[-3.49144,54.42963],[-3.49112,54.42967],[-3.49094,54.42925],[-3.49128,54.42921],[-3.49144,54.42963]]]]}},
{ "type":"Feature","properties":{"osm_way_id":"107011653","amenity":"parking","other":{"surface":"paved"}}, "geometry":{"type":"MultiPolygon","coordinates":[[[[-3.50697,54.4189],[-3.50667,54.41872],[-3.50666,54.41865],[-3.507,54.41842],[-3.50716,54.41837],[-3.50722,54.41844],[-3.50695,54.41859],[-3.50686,54.41866],[-3.50685,54.41876],[-3.50699,54.41884],[-3.50697,54.4189]]]]}},
{ "type":"Feature","properties":{"osm_way_id":"107011655","amenity":"parking","other":{"access":"private","surface":"paved"}}, "geometry":{"type":"MultiPolygon","coordinates":[[[[-3.50484,54.42422],[-3.505,54.42424],[-3.5052,54.42416],[-3.50539,54.42413],[-3.50527,54.42396],[-3.5051,54.42388],[-3.50484,54.42422]]]]}},
{ "type":"Feature","properties":{"osm_way_id":"107011658","amenity":"parking","other":{"access":"private","surface":"paved"}}, "geometry":{"type":"MultiPolygon","coordinates":[[[[-3.4998,54.41474],[-3.49913,54.4156],[-3.49901,54.41556],[-3.49878,54.41584],[-3.49883,54.41585],[-3.49912,54.41593],[-3.49939,54.41558],[-3.49938,54.41555],[-3.5001,54.41499],[-3.50026,54.41482],[-3.49983,54.4147],[-3.4998,54.41474]]]]}},
{ "type":"Feature","properties":{"osm_way_id":"107011659","amenity":"parking","other":{"access":"private","surface":"paved"}}, "geometry":{"type":"MultiPolygon","coordinates":[[[[-3.4929,54.4302],[-3.49294,54.43019],[-3.4928,54.42978],[-3.49257,54.42981],[-3.4927,54.43016],[-3.49277,54.43015],[-3.49278,54.43018],[-3.4929,54.4302]]]]}},
{ "type":"Feature","properties":{"osm_way_id":"107011661","amenity":"parking","other":{"access":"private","surface":"paved"}}, "geometry":{"type":"MultiPolygon","coordinates":[[[[-3.50531,54.41675],[-3.50501,54.41668],[-3.50514,54.41654],[-3.50536,54.4166],[-3.50539,54.41666],[-3.50531,54.41675]]]]}},
{ "type":"Feature","properties":{"osm_way_id":"107011662","amenity":"parking","other":{"access":"private","parking":"surface","surface":"paved"}}, "geometry":{"type":"MultiPolygon","coordinates":[[[[-3.50751,54.41714],[-3.50649,54.41686],[-3.50659,54.41673],[-3.50762,54.41702],[-3.50751,54.41714]]]]}},
{ "type":"Feature","properties":{"osm_way_id":"107011664","amenity":"parking","other":{"parking":"surface","surface":"paved"}}, "geometry":{"type":"MultiPolygon","coordinates":[[[[-3.50777,54.41904],[-3.50749,54.41898],[-3.50784,54.41837],[-3.50812,54.41842],[-3.50777,54.41904]]]]}},
{ "type":"Feature","properties":{"osm_way_id":"107011666","amenity":"parking","other":{"access":"private","surface":"paved"}}, "geometry":{"type":"MultiPolygon","coordinates":[[[[-3.50057,54.42737],[-3.5003,54.42771],[-3.50046,54.42775],[-3.50074,54.42742],[-3.50057,54.42737]]]]}},
{ "type":"Feature","properties":{"osm_way_id":"107011668","amenity":"parking","other":{"access":"private","surface":"paved"}}, "geometry":{"type":"MultiPolygon","coordinates":[[[[-3.50598,54.42457],[-3.50583,54.42437],[-3.50625,54.42425],[-3.50641,54.42446],[-3.50598,54.42457]]]]}},
{ "type":"Feature","properties":{"osm_way_id":"107011669","amenity":"parking","other":{"surface":"paved"}}, "geometry":{"type":"MultiPolygon","coordinates":[[[[-3.4924,54.41058],[-3.49263,54.41093],[-3.49319,54.41099],[-3.49342,54.4104],[-3.49329,54.41035],[-3.49242,54.41053],[-3.4924,54.41058]]]]}},
{ "type":"Feature","properties":{"osm_way_id":"107011673","amenity":"parking","other":{"access":"private","surface":"paved"}}, "geometry":{"type":"MultiPolygon","coordinates":[[[[-3.4994,54.426],[-3.49967,54.42609],[-3.49992,54.42598],[-3.50025,54.42618],[-3.50005,54.4262],[-3.49983,54.42622],[-3.49964,54.42629],[-3.49948,54.42635],[-3.49918,54.42624],[-3.4994,54.426]]]]}},
{ "type":"Feature","properties":{"osm_way_id":"107011675","amenity":"parking","other":{"access":"private","surface":"paved"}}, "geometry":{"type":"MultiPolygon","coordinates":[[[[-3.49901,54.415],[-3.49953,54.4141],[-3.49989,54.41367],[-3.50013,54.41378],[-3.49981,54.41414],[-3.49954,54.4146],[-3.49946,54.41458],[-3.49916,54.41503],[-3.49901,54.415]]]]}},
{ "type":"Feature","properties":{"osm_way_id":"107014601","amenity":"parking","other":{"access":"private","surface":"paved"}}, "geometry":{"type":"MultiPolygon","coordinates":[[[[-3.49471,54.42624],[-3.49388,54.42633],[-3.49369,54.42621],[-3.49446,54.42612],[-3.49457,54.42614],[-3.49467,54.42619],[-3.49471,54.42624]]]]}},
{ "type":"Feature","properties":{"osm_way_id":"107014705","amenity":"parking","other":{"access":"private","surface":"paved"}}, "geometry":{"type":"MultiPolygon","coordinates":[[[[-3.49491,54.42881],[-3.4945,54.42886],[-3.49437,54.42846],[-3.49481,54.42841],[-3.49491,54.42881]]]]}},
{ "type":"Feature","properties":{"osm_way_id":"107014709","amenity":"parking","other":{"access":"private","surface":"paved"}}, "geometry":{"type":"MultiPolygon","coordinates":[[[[-3.49448,54.42772],[-3.49407,54.42774],[-3.49394,54.42735],[-3.49419,54.42728],[-3.49432,54.42728],[-3.49448,54.42772]]]]}},
{ "type":"Feature","properties":{"osm_way_id":"116638675","name":"St Bees Beach Car Park","amenity":"parking","other":{"operator":"Copeland Borough Council","parking":"surface"}}, "geometry":{"type":"MultiPolygon","coordinates":[[[[-3.60531,54.4919],[-3.60576,54.49171],[-3.60624,54.49153],[-3.60606,54.49143],[-3.60614,54.49142],[-3.6053,54.49094],[-3.60515,54.49103],[-3.60493,54.49094],[-3.60483,54.49088],[-3.60476,54.49093],[-3.60435,54.49118],[-3.60498,54.4917],[-3.60531,54.4919]]]]}},
{ "type":"Feature","properties":{"osm_way_id":"116638791","amenity":"parking"},"geometry":{"type":"MultiPolygon","coordinates":[[[[-3.52686,54.48354],[-3.52667,54.48356],[-3.52595,54.48275],[-3.52606,54.48266],[-3.52627,54.48261],[-3.52651,54.48255],[-3.5266,54.48266],[-3.52669,54.48263],[-3.52675,54.48271],[-3.52686,54.48354]]]]}},
{ "type":"Feature","properties":{"osm_way_id":"116638806","name":"Beach Car Park","amenity":"parking","other":{"fee":"yes","park_ride":"no","parking":"surface"}}, "geometry":{"type":"MultiPolygon","coordinates":[[[[-3.60463,54.49064],[-3.60399,54.49006],[-3.60377,54.49001],[-3.60361,54.49007],[-3.60343,54.49014],[-3.60358,54.49061],[-3.60384,54.49065],[-3.60392,54.49066],[-3.60397,54.49059],[-3.60401,54.49069],[-3.60447,54.49068],[-3.60463,54.49064]]]]}},
{ "type":"Feature","properties":{"osm_way_id":"117402417","amenity":"parking"},"geometry":{"type":"MultiPolygon","coordinates":[[[[-3.43856,54.41926],[-3.43813,54.41929],[-3.43784,54.41891],[-3.4382,54.41887],[-3.4383,54.41905],[-3.43844,54.41904],[-3.43856,54.41926]]]]}},
{ "type":"Feature","properties":{"osm_way_id":"117403761","amenity":"parking"},"geometry":{"type":"MultiPolygon","coordinates":[[[[-3.48505,54.39564],[-3.48532,54.39552],[-3.48525,54.39525],[-3.48484,54.39492],[-3.48408,54.39531],[-3.48456,54.39535],[-3.48505,54.39564]]]]}},
{ "type":"Feature","properties":{"osm_way_id":"117704931","amenity":"parking","other":{"parking":"surface"}}, "geometry":{"type":"MultiPolygon","coordinates":[[[[-3.37295,54.40272],[-3.37287,54.40259],[-3.37276,54.4026],[-3.37273,54.40251],[-3.37237,54.40254],[-3.37239,54.40259],[-3.37236,54.40266],[-3.37257,54.4027],[-3.37295,54.40272]]]]}},
{ "type":"Feature","properties":{"osm_way_id":"125075152","amenity":"parking","other":{"operator":"Brandon Marsh Nature Centre","parking":"surface"}}, "geometry":{"type":"MultiPolygon","coordinates":[[[[-1.43451,52.37931],[-1.43403,52.3794],[-1.43418,52.37965],[-1.43413,52.37967],[-1.43399,52.37971],[-1.43392,52.37976],[-1.43391,52.37982],[-1.43389,52.37987],[-1.43387,52.3799],[-1.43392,52.37994],[-1.43402,52.37988],[-1.4343,52.37975],[-1.43461,52.37962],[-1.43474,52.37958],[-1.43477,52.37955],[-1.43465,52.37949],[-1.43451,52.37931]]]]}},
{ "type":"Feature","properties":{"osm_way_id":"143856275","amenity":"parking"},"geometry":{"type":"MultiPolygon","coordinates":[[[[-3.20183,54.40242],[-3.20169,54.40248],[-3.20154,54.40248],[-3.20141,54.40244],[-3.20159,54.40239],[-3.20176,54.40232],[-3.20183,54.40242]]]]}},
{ "type":"Feature","properties":{"osm_way_id":"143856292","amenity":"parking","other":{"fee":"no","park_ride":"no","parking":"lane","supervised":"no","surface":"unpaved"}}, "geometry":{"type":"MultiPolygon","coordinates":[[[[-3.20585,54.40126],[-3.20581,54.40128],[-3.20576,54.40128],[-3.20572,54.40128],[-3.20569,54.40127],[-3.20567,54.40122],[-3.20586,54.40119],[-3.20587,54.40123],[-3.20585,54.40126]]]]}},
{ "type":"Feature","properties":{"osm_way_id":"150513491","name":"Irton Road Station","amenity":"parking","other":{"capacity":"5","fee":"no"}}, "geometry":{"type":"MultiPolygon","coordinates":[[[[-3.32997,54.38804],[-3.32964,54.38798],[-3.32969,54.38791],[-3.33002,54.388],[-3.33011,54.38801],[-3.33012,54.38806],[-3.32997,54.38804]]]]}},
{ "type":"Feature","properties":{"osm_way_id":"162782858","amenity":"parking","other":{"access":"yes","fee":"no","parking":"surface","surface":"ground"}}, "geometry":{"type":"MultiPolygon","coordinates":[[[[-3.28533,54.4501],[-3.28529,54.45013],[-3.28525,54.45013],[-3.2852,54.45013],[-3.28508,54.45008],[-3.28492,54.45],[-3.28502,54.44993],[-3.28525,54.45002],[-3.28533,54.4501]]]]}},
{ "type":"Feature","properties":{"osm_way_id":"163607833","amenity":"parking"},"geometry":{"type":"MultiPolygon","coordinates":[[[[-3.2757,54.39482],[-3.2756,54.39477],[-3.27543,54.39486],[-3.27526,54.39497],[-3.27516,54.39505],[-3.27509,54.39509],[-3.27484,54.39514],[-3.27478,54.39516],[-3.27479,54.3952],[-3.27477,54.39521],[-3.27473,54.39519],[-3.27469,54.3952],[-3.27466,54.39522],[-3.275,54.39542],[-3.27529,54.39556],[-3.2754,54.39543],[-3.27536,54.39538],[-3.27526,54.39533],[-3.27523,54.39528],[-3.27527,54.39524],[-3.27558,54.39503],[-3.27564,54.39498],[-3.27568,54.39489],[-3.27573,54.39485],[-3.2757,54.39482]]]]}},
{ "type":"Feature","properties":{"osm_way_id":"163631809","amenity":"parking"},"geometry":{"type":"MultiPolygon","coordinates":[[[[-3.24813,54.39798],[-3.24813,54.39795],[-3.24817,54.39782],[-3.24823,54.39777],[-3.24821,54.3977],[-3.24788,54.39773],[-3.24794,54.39791],[-3.24804,54.39795],[-3.24805,54.39798],[-3.24808,54.39798],[-3.24813,54.39798]]]]}},
{ "type":"Feature","properties":{"osm_way_id":"240508663","name":"Multi-storey Car Park","amenity":"parking","building":"parking","other":{"access":"yes","fee":"yes","park_ride":"no","parking":"multi-storey"}}, "geometry":{"type":"MultiPolygon","coordinates":[[[[-3.5919,54.54649],[-3.59232,54.54646],[-3.59248,54.54702],[-3.59162,54.5471],[-3.59144,54.54656],[-3.5919,54.54649]]]]}},
{ "type":"Feature","properties":{"osm_way_id":"240508665","amenity":"parking"},"geometry":{"type":"MultiPolygon","coordinates":[[[[-3.59336,54.54791],[-3.59295,54.54747],[-3.59273,54.54746],[-3.5924,54.54759],[-3.59244,54.54767],[-3.59268,54.54778],[-3.59286,54.54804],[-3.59289,54.54807],[-3.59322,54.54807],[-3.59341,54.54806],[-3.59336,54.54791]]]]}},
{ "type":"Feature","properties":{"osm_way_id":"240508667","amenity":"parking"},"geometry":{"type":"MultiPolygon","coordinates":[[[[-3.59177,54.54753],[-3.59157,54.54771],[-3.59188,54.54786],[-3.59205,54.54784],[-3.59213,54.5479],[-3.59245,54.5479],[-3.59256,54.54782],[-3.59193,54.54753],[-3.59177,54.54753]]]]}},
{ "type":"Feature","properties":{"osm_way_id":"262556892","name":"Co-op Car Park","amenity":"parking","other":{"parking":"surface"}}, "geometry":{"type":"MultiPolygon","coordinates":[[[[-3.52444,54.5239],[-3.52407,54.52376],[-3.52385,54.52368],[-3.52438,54.52321],[-3.52503,54.52346],[-3.52472,54.52375],[-3.52464,54.52372],[-3.52444,54.5239]]]]}},
{ "type":"Feature","properties":{"osm_way_id":"262558495","name":"Healthcare Centre Parking","amenity":"parking","other":{"parking":"surface"}}, "geometry":{"type":"MultiPolygon","coordinates":[[[[-3.51667,54.5231],[-3.51639,54.52296],[-3.51674,54.52272],[-3.51704,54.52287],[-3.51667,54.5231]]]]}},
{ "type":"Feature","properties":{"osm_way_id":"291299061","amenity":"parking","other":{"access":"yes","capacity":"20","fee":"no","park_ride":"no","parking":"surface","supervised":"no"}}, "geometry":{"type":"MultiPolygon","coordinates":[[[[-3.51971,54.52288],[-3.51976,54.52307],[-3.5201,54.523],[-3.51999,54.52281],[-3.51971,54.52288]]]]}},
{ "type":"Feature","properties":{"osm_way_id":"291320133","amenity":"parking","other":{"access":"customers","park_ride":"no","parking":"surface"}}, "geometry":{"type":"MultiPolygon","coordinates":[[[[-3.58353,54.54389],[-3.58368,54.54407],[-3.58356,54.54413],[-3.58359,54.5442],[-3.58372,54.5443],[-3.58417,54.54461],[-3.58462,54.54454],[-3.5845,54.54379],[-3.58353,54.54389]]]]}},
{ "type":"Feature","properties":{"osm_way_id":"294799568","amenity":"parking","other":{"access":"customers","parking":"surface"}}, "geometry":{"type":"MultiPolygon","coordinates":[[[[-3.60348,54.4906],[-3.60347,54.49055],[-3.60355,54.49054],[-3.60347,54.49027],[-3.6031,54.49032],[-3.60318,54.49062],[-3.60348,54.4906]]]]}},
{ "type":"Feature","properties":{"osm_way_id":"294800603","amenity":"parking","other":{"access":"customers","parking":"surface"}}, "geometry":{"type":"MultiPolygon","coordinates":[[[[-3.5894,54.54392],[-3.59024,54.54367],[-3.59031,54.5435],[-3.5902,54.54326],[-3.58998,54.54322],[-3.5898,54.54324],[-3.58946,54.54315],[-3.58919,54.54315],[-3.58935,54.54334],[-3.58948,54.54329],[-3.58962,54.54345],[-3.58948,54.54349],[-3.58959,54.54363],[-3.58924,54.54374],[-3.5894,54.54392]]]]}},
{ "type":"Feature","properties":{"osm_way_id":"294800609","amenity":"parking"},"geometry":{"type":"MultiPolygon","coordinates":[[[[-3.59062,54.54445],[-3.59093,54.5444],[-3.59091,54.54435],[-3.59098,54.54432],[-3.5906,54.54386],[-3.59055,54.54388],[-3.59049,54.54382],[-3.59039,54.54383],[-3.59036,54.54381],[-3.59027,54.54382],[-3.58946,54.54404],[-3.58959,54.54422],[-3.59022,54.54406],[-3.59035,54.54423],[-3.59058,54.54418],[-3.59075,54.54438],[-3.59059,54.54441],[-3.59062,54.54445]]]]}},
{ "type":"Feature","properties":{"osm_way_id":"294805410","amenity":"parking","other":{"access":"customers","operator":"Asda","parking":"surface"}}, "geometry":{"type":"MultiPolygon","coordinates":[[[[-3.59094,54.54322],[-3.59147,54.54312],[-3.59099,54.54217],[-3.59025,54.54235],[-3.5901,54.54245],[-3.5902,54.54258],[-3.59061,54.54248],[-3.59088,54.54288],[-3.59072,54.54291],[-3.59094,54.54322]]]]}},
{ "type":"Feature","properties":{"osm_way_id":"301461806","amenity":"parking","other":{"access":"customers","fee":"no"}}, "geometry":{"type":"MultiPolygon","coordinates":[[[[-3.24168,54.39865],[-3.24161,54.39865],[-3.24155,54.39878],[-3.24151,54.39877],[-3.2415,54.39878],[-3.24162,54.39881],[-3.24168,54.39865]]]]}},
{ "type":"Feature","properties":{"osm_way_id":"301461807","amenity":"parking","other":{"access":"customers"}}, "geometry":{"type":"MultiPolygon","coordinates":[[[[-3.24142,54.39908],[-3.24133,54.39906],[-3.24131,54.39903],[-3.2413,54.399],[-3.24137,54.39901],[-3.24141,54.39892],[-3.24153,54.39893],[-3.24142,54.39908]]]]}},
{ "type":"Feature","properties":{"osm_way_id":"301463696","name":"Wha House Car Park","amenity":"parking","other":{"access":"yes","capacity":"10","fee":"no","operator":"National Trust","operator:type":"private_non_profit","parking":"surface","surface":"ground"}}, "geometry":{"type":"MultiPolygon","coordinates":[[[[-3.23388,54.39755],[-3.23388,54.3975],[-3.23356,54.39747],[-3.23343,54.39746],[-3.23345,54.39752],[-3.23388,54.39755]]]]}},
{ "type":"Feature","properties":{"osm_way_id":"301465548","amenity":"parking","other":{"parking":"surface"}}, "geometry":{"type":"MultiPolygon","coordinates":[[[[-3.40937,54.35568],[-3.40928,54.35571],[-3.40917,54.35574],[-3.4093,54.35587],[-3.40938,54.35591],[-3.40959,54.35601],[-3.40988,54.35618],[-3.40995,54.35615],[-3.40977,54.35602],[-3.40963,54.35594],[-3.40937,54.35568]]]]}},
{ "type":"Feature","properties":{"osm_way_id":"302561624","amenity":"parking"},"geometry":{"type":"MultiPolygon","coordinates":[[[[-3.47168,54.55453],[-3.47207,54.55456],[-3.47208,54.55447],[-3.47221,54.55447],[-3.47223,54.55433],[-3.47212,54.55432],[-3.47168,54.55451],[-3.47168,54.55453]]]]}},
{ "type":"Feature","properties":{"osm_way_id":"303017939","amenity":"parking","other":{"access":"customers","capacity":"25","fee":"no","park_ride":"no","parking":"surface"}}, "geometry":{"type":"MultiPolygon","coordinates":[[[[-3.4953,54.53874],[-3.49536,54.53883],[-3.49614,54.5387],[-3.4961,54.53861],[-3.4953,54.53874]]]]}},
{ "type":"Feature","properties":{"osm_way_id":"303018603","amenity":"parking","other":{"parking":"surface"}}, "geometry":{"type":"MultiPolygon","coordinates":[[[[-3.47172,54.55596],[-3.47202,54.55582],[-3.47187,54.55571],[-3.47169,54.55578],[-3.47172,54.55596]]]]}},
{ "type":"Feature","properties":{"osm_way_id":"303471930","amenity":"parking","other":{"access":"permissive","capacity":"8","fee":"no","park_ride":"no","parking":"surface","supervised":"no"}}, "geometry":{"type":"MultiPolygon","coordinates":[[[[-3.48213,54.51153],[-3.48232,54.51161],[-3.4824,54.51151],[-3.48223,54.51141],[-3.48213,54.51153]]]]}},
{ "type":"Feature","properties":{"osm_way_id":"303471996","amenity":"parking","other":{"access":"permissive","capacity":"10","fee":"no","park_ride":"no","parking":"surface","supervised":"no"}}, "geometry":{"type":"MultiPolygon","coordinates":[[[[-3.45903,54.47748],[-3.45922,54.47731],[-3.45892,54.47719],[-3.4588,54.47733],[-3.45903,54.47748]]]]}},
{ "type":"Feature","properties":{"osm_way_id":"303473496","name":"Haile Church Car Park","amenity":"parking","other":{"access":"permissive","fee":"no","park_ride":"no","parking":"surface","supervised":"no"}}, "geometry":{"type":"MultiPolygon","coordinates":[[[[-3.49777,54.46584],[-3.49791,54.46576],[-3.49792,54.46569],[-3.49788,54.46563],[-3.49778,54.46559],[-3.49764,54.4656],[-3.49749,54.46564],[-3.49769,54.46576],[-3.49777,54.46584]]]]}},
{ "type":"Feature","properties":{"osm_way_id":"303482069","amenity":"parking","other":{"access":"permissive","capacity":"80","fee":"no","park_ride":"no","parking":"surface","supervised":"no"}}, "geometry":{"type":"MultiPolygon","coordinates":[[[[-3.54203,54.53319],[-3.5423,54.5331],[-3.54161,54.53247],[-3.54133,54.53257],[-3.54203,54.53319]]]]}},
{ "type":"Feature","properties":{"osm_way_id":"303483491","amenity":"parking","other":{"capacity":"50","parking":"surface"}}, "geometry":{"type":"MultiPolygon","coordinates":[[[[-3.55291,54.53705],[-3.55375,54.53703],[-3.55374,54.53689],[-3.55408,54.53688],[-3.55408,54.5367],[-3.55374,54.53671],[-3.55374,54.53688],[-3.55291,54.53689],[-3.55291,54.53705]]]]}},
{ "type":"Feature","properties":{"osm_way_id":"303484920","amenity":"parking","other":{"access":"permissive","description":"Visitor Parking","fee":"yes","park_ride":"no","parking":"surface"}}, "geometry":{"type":"MultiPolygon","coordinates":[[[[-3.56577,54.52949],[-3.56615,54.52937],[-3.5657,54.52891],[-3.5653,54.52905],[-3.56577,54.52949]]]]}},
{ "type":"Feature","properties":{"osm_way_id":"303484921","amenity":"parking","other":{"access":"permissive","description":"Visitor Parking","fee":"yes","park_ride":"no","parking":"surface"}}, "geometry":{"type":"MultiPolygon","coordinates":[[[[-3.56539,54.52962],[-3.56557,54.52956],[-3.56506,54.5291],[-3.56485,54.52917],[-3.56539,54.52962]]]]}},
{ "type":"Feature","properties":{"osm_way_id":"303484922","amenity":"parking","other":{"access":"permissive","description":"Visitor Parking","fee":"yes","park_ride":"no","parking":"surface"}}, "geometry":{"type":"MultiPolygon","coordinates":[[[[-3.56507,54.52973],[-3.56525,54.52965],[-3.56477,54.52919],[-3.56456,54.52927],[-3.56507,54.52973]]]]}},
{ "type":"Feature","properties":{"osm_way_id":"303484925","amenity":"parking","other":{"access":"permissive","description":"Visitor Parking","fee":"yes","park_ride":"no","parking":"surface"}}, "geometry":{"type":"MultiPolygon","coordinates":[[[[-3.56401,54.53019],[-3.56421,54.53006],[-3.56362,54.52967],[-3.56353,54.52972],[-3.56365,54.52979],[-3.56351,54.52986],[-3.56401,54.53019]]]]}},
{ "type":"Feature","properties":{"osm_way_id":"303485474","name":"Lowther Arms Car Park","amenity":"parking","other":{"fee":"no","park_ride":"no","parking":"surface"}}, "geometry":{"type":"MultiPolygon","coordinates":[[[[-3.5701,54.5374],[-3.57018,54.53751],[-3.5707,54.5374],[-3.57062,54.53728],[-3.5701,54.5374]]]]}},
{ "type":"Feature","properties":{"osm_way_id":"303486453","amenity":"parking","other":{"access":"customers","fee":"no","park_ride":"no","parking":"surface","supervised":"no"}}, "geometry":{"type":"MultiPolygon","coordinates":[[[[-3.57897,54.55463],[-3.57891,54.55466],[-3.57886,54.55472],[-3.57886,54.55476],[-3.57888,54.55479],[-3.57893,54.55483],[-3.57902,54.55484],[-3.57908,54.55484],[-3.57918,54.55482],[-3.57921,54.55477],[-3.57927,54.55469],[-3.57902,54.55459],[-3.57897,54.55463]]]]}},
{ "type":"Feature","properties":{"osm_way_id":"303544700","amenity":"parking","other":{"access":"customers"}}, "geometry":{"type":"MultiPolygon","coordinates":[[[[-3.2567,54.46766],[-3.25669,54.4677],[-3.25676,54.46771],[-3.25675,54.46775],[-3.25667,54.46775],[-3.25658,54.46776],[-3.2563,54.46771],[-3.25624,54.46771],[-3.25616,54.46772],[-3.25616,54.46767],[-3.25614,54.46752],[-3.25616,54.46745],[-3.25621,54.46742],[-3.25627,54.46739],[-3.25638,54.46735],[-3.25654,54.46742],[-3.25661,54.46742],[-3.25674,54.46743],[-3.2567,54.46766]]]]}},
{ "type":"Feature","properties":{"osm_way_id":"304530892","amenity":"parking"},"geometry":{"type":"MultiPolygon","coordinates":[[[[-3.43389,54.56325],[-3.43384,54.56321],[-3.43355,54.56336],[-3.43353,54.56339],[-3.43389,54.56325]]]]}},
{ "type":"Feature","properties":{"osm_way_id":"306117429","amenity":"parking"},"geometry":{"type":"MultiPolygon","coordinates":[[[[-3.56283,54.56727],[-3.56364,54.5667],[-3.56329,54.56644],[-3.56318,54.56645],[-3.56285,54.56666],[-3.56273,54.56676],[-3.56273,54.56705],[-3.56274,54.56713],[-3.56283,54.56727]]]]}},
{ "type":"Feature","properties":{"osm_way_id":"306119500","name":"Premier Inn Car Park","amenity":"parking"},"geometry":{"type":"MultiPolygon","coordinates":[[[[-3.56424,54.57598],[-3.56412,54.57592],[-3.5637,54.57617],[-3.56345,54.57632],[-3.56314,54.57615],[-3.56321,54.57607],[-3.56273,54.57577],[-3.56253,54.57583],[-3.56257,54.57593],[-3.56331,54.57639],[-3.56346,54.57641],[-3.56397,54.57619],[-3.56394,54.57616],[-3.56424,54.57598]]]]}},
{ "type":"Feature","properties":{"osm_way_id":"309903521","name":"St Bees railway station public car park","amenity":"parking","other":{"capacity":"24","fee":"no","operator":"St Bees Parish Council","parking":"surface"}}, "geometry":{"type":"MultiPolygon","coordinates":[[[[-3.59114,54.49233],[-3.59088,54.49227],[-3.59115,54.49188],[-3.59133,54.49192],[-3.59114,54.49233]]]]}},
{ "type":"Feature","properties":{"osm_way_id":"309905490","name":"Barony Car park","amenity":"parking","other":{"access":"visitors","operator":"St Bees School","park_ride":"no","supervised":"no","surface":"gravel"}}, "geometry":{"type":"MultiPolygon","coordinates":[[[[-3.59302,54.49396],[-3.59282,54.49402],[-3.59261,54.49387],[-3.59289,54.49377],[-3.59302,54.49396]]]]}},
{ "type":"Feature","properties":{"osm_way_id":"314801816","name":"Millom Public Car Park","amenity":"parking","other":{"addr:street":"Lancashire Road","capacity":"50","fee":"no","operator":"Town Council","park_ride":"no","parking":"surface","supervised":"no"}}, "geometry":{"type":"MultiPolygon","coordinates":[[[[-3.2708,54.21059],[-3.27084,54.21057],[-3.27124,54.21036],[-3.27085,54.2101],[-3.27072,54.21011],[-3.27059,54.21016],[-3.27068,54.21021],[-3.27066,54.21022],[-3.27055,54.21028],[-3.27053,54.21029],[-3.27044,54.21034],[-3.2708,54.21059]]]]}},
{ "type":"Feature","properties":{"osm_way_id":"314832868","name":"Free Car Park","amenity":"parking","other":{"fee":"no","park_ride":"no","supervised":"no"}}, "geometry":{"type":"MultiPolygon","coordinates":[[[[-3.28844,54.19731],[-3.28873,54.19731],[-3.28875,54.19714],[-3.28846,54.19714],[-3.28844,54.19731]]]]}},
{ "type":"Feature","properties":{"osm_way_id":"315095129","name":"Silecroft Beach Car Park","amenity":"parking","other":{"fee":"no","park_ride":"no","supervised":"no"}}, "geometry":{"type":"MultiPolygon","coordinates":[[[[-3.35056,54.21938],[-3.35064,54.21936],[-3.3507,54.21934],[-3.35079,54.21942],[-3.35103,54.21933],[-3.35063,54.21893],[-3.35061,54.21893],[-3.35048,54.21897],[-3.35021,54.2187],[-3.3499,54.21838],[-3.34964,54.21811],[-3.3494,54.21786],[-3.34948,54.21783],[-3.34928,54.21764],[-3.34909,54.21778],[-3.34914,54.21785],[-3.3492,54.21786],[-3.34925,54.21788],[-3.34931,54.21793],[-3.34934,54.21798],[-3.34935,54.21803],[-3.34931,54.2181],[-3.3493,54.21814],[-3.34931,54.21819],[-3.34961,54.21851],[-3.3498,54.21854],[-3.34984,54.21855],[-3.34986,54.21857],[-3.34986,54.21858],[-3.34984,54.2186],[-3.34979,54.21862],[-3.34977,54.21864],[-3.34977,54.21866],[-3.35009,54.21898],[-3.3503,54.219],[-3.35033,54.21901],[-3.35034,54.21902],[-3.35034,54.21903],[-3.35032,54.21904],[-3.35019,54.21909],[-3.3505,54.21936],[-3.35056,54.21938]]]]}},
{ "type":"Feature","properties":{"osm_way_id":"315143436","amenity":"parking"},"geometry":{"type":"MultiPolygon","coordinates":[[[[-3.27138,54.21096],[-3.27117,54.21111],[-3.2711,54.21107],[-3.27127,54.21091],[-3.27138,54.21096]]]]}},
{ "type":"Feature","properties":{"osm_way_id":"315172007","name":"Disabled","amenity":"parking"},"geometry":{"type":"MultiPolygon","coordinates":[[[[-3.27002,54.21051],[-3.27006,54.21054],[-3.2702,54.21063],[-3.27012,54.21067],[-3.26994,54.21054],[-3.26982,54.2106],[-3.26975,54.21055],[-3.26988,54.21048],[-3.26996,54.21054],[-3.27002,54.21051]]]]}},
{ "type":"Feature","properties":{"osm_way_id":"315993854","amenity":"parking"},"geometry":{"type":"MultiPolygon","coordinates":[[[[-3.39484,54.29047],[-3.39509,54.29044],[-3.39511,54.29075],[-3.39534,54.29072],[-3.39531,54.29085],[-3.39523,54.29082],[-3.39514,54.29082],[-3.39507,54.29085],[-3.39504,54.29088],[-3.39479,54.29086],[-3.39484,54.29047]]]]}},
{ "type":"Feature","properties":{"osm_way_id":"316122055","amenity":"parking","other":{"operator":"Thwaites Village Hall","parking":"surface"}}, "geometry":{"type":"MultiPolygon","coordinates":[[[[-3.26171,54.25033],[-3.26173,54.25037],[-3.26177,54.25043],[-3.26155,54.25048],[-3.26158,54.25053],[-3.2617,54.25051],[-3.26178,54.25048],[-3.26189,54.25046],[-3.26199,54.25041],[-3.26208,54.25036],[-3.26213,54.25031],[-3.2622,54.2502],[-3.26169,54.2503],[-3.26171,54.25033]]]]}},
{ "type":"Feature","properties":{"osm_way_id":"316471474","amenity":"parking"},"geometry":{"type":"MultiPolygon","coordinates":[[[[-3.27068,54.21211],[-3.27066,54.21211],[-3.27066,54.2122],[-3.27094,54.2122],[-3.27094,54.21211],[-3.27068,54.21211]]]]}},
{ "type":"Feature","properties":{"osm_way_id":"316473105","amenity":"parking"},"geometry":{"type":"MultiPolygon","coordinates":[[[[-3.27293,54.2121],[-3.27293,54.21226],[-3.27256,54.21226],[-3.27255,54.21216],[-3.27255,54.21211],[-3.27269,54.2121],[-3.27293,54.2121]]]]}},
{ "type":"Feature","properties":{"osm_way_id":"316474465","amenity":"parking"},"geometry":{"type":"MultiPolygon","coordinates":[[[[-3.26508,54.20992],[-3.26481,54.20989],[-3.26485,54.20978],[-3.26495,54.20979],[-3.26511,54.20981],[-3.26508,54.20992]]]]}},
{ "type":"Feature","properties":{"osm_way_id":"316745796","amenity":"parking"},"geometry":{"type":"MultiPolygon","coordinates":[[[[-3.36746,54.31374],[-3.36715,54.31374],[-3.36706,54.31357],[-3.36723,54.31355],[-3.36719,54.31341],[-3.36708,54.31342],[-3.36711,54.31353],[-3.36705,54.31353],[-3.36696,54.31335],[-3.36743,54.31334],[-3.36746,54.31374]]]]}},
{ "type":"Feature","properties":{"osm_way_id":"316746069","amenity":"parking"},"geometry":{"type":"MultiPolygon","coordinates":[[[[-3.37562,54.32614],[-3.37543,54.32593],[-3.37543,54.32606],[-3.37493,54.32621],[-3.37518,54.32652],[-3.37535,54.32645],[-3.37532,54.32636],[-3.37521,54.32624],[-3.37527,54.3262],[-3.37536,54.32627],[-3.37542,54.32625],[-3.37551,54.32622],[-3.37548,54.32618],[-3.37562,54.32614]]]]}},
{ "type":"Feature","properties":{"osm_way_id":"316989062","amenity":"parking"},"geometry":{"type":"MultiPolygon","coordinates":[[[[-3.29123,54.19844],[-3.291,54.19835],[-3.29115,54.19821],[-3.29129,54.19827],[-3.29139,54.19831],[-3.29123,54.19844]]]]}},
{ "type":"Feature","properties":{"osm_way_id":"316989064","amenity":"parking"},"geometry":{"type":"MultiPolygon","coordinates":[[[[-3.29203,54.19856],[-3.29187,54.1987],[-3.29201,54.19876],[-3.29212,54.1988],[-3.29227,54.19866],[-3.29203,54.19856]]]]}},
{ "type":"Feature","properties":{"osm_way_id":"316989067","amenity":"parking"},"geometry":{"type":"MultiPolygon","coordinates":[[[[-3.30793,54.19958],[-3.30803,54.19969],[-3.3082,54.19964],[-3.30805,54.1995],[-3.30793,54.19958]]]]}},
{ "type":"Feature","properties":{"osm_way_id":"316991612","amenity":"parking"},"geometry":{"type":"MultiPolygon","coordinates":[[[[-3.30859,54.20022],[-3.30795,54.20008],[-3.30798,54.20001],[-3.30864,54.20016],[-3.30859,54.20022]]]]}},
{ "type":"Feature","properties":{"osm_way_id":"316992426","amenity":"parking"},"geometry":{"type":"MultiPolygon","coordinates":[[[[-3.28837,54.19564],[-3.28845,54.19559],[-3.28837,54.19554],[-3.28828,54.19559],[-3.28837,54.19564]]]]}},
{ "type":"Feature","properties":{"osm_way_id":"316992442","amenity":"parking"},"geometry":{"type":"MultiPolygon","coordinates":[[[[-3.28814,54.1956],[-3.28788,54.19553],[-3.28822,54.19521],[-3.28853,54.1954],[-3.28814,54.1956]]]]}},
{ "type":"Feature","properties":{"osm_way_id":"316992910","amenity":"parking"},"geometry":{"type":"MultiPolygon","coordinates":[[[[-3.28855,54.19538],[-3.28849,54.19534],[-3.28882,54.19516],[-3.28884,54.19517],[-3.28887,54.19518],[-3.28891,54.19518],[-3.28855,54.19538]]]]}},
{ "type":"Feature","properties":{"osm_way_id":"317378293","name":"Station Car Park","amenity":"parking","other":{"access":"customers","capacity":"25","capacity:disabled":"2","fee":"yes","parking":"surface","surface":"paved"}}, "geometry":{"type":"MultiPolygon","coordinates":[[[[-3.58663,54.55276],[-3.58695,54.55301],[-3.5871,54.55298],[-3.58701,54.55278],[-3.587,54.55246],[-3.58674,54.55247],[-3.58662,54.55248],[-3.58668,54.55264],[-3.58655,54.55266],[-3.58663,54.55276]]]]}},
{ "type":"Feature","properties":{"osm_way_id":"317380038","amenity":"parking","other":{"access":"customers","capacity":"50","fee":"no","park_ride":"no","parking":"surface"}}, "geometry":{"type":"MultiPolygon","coordinates":[[[[-3.59871,54.54395],[-3.59907,54.54395],[-3.59908,54.54348],[-3.59862,54.54346],[-3.59862,54.54368],[-3.59872,54.54368],[-3.59871,54.54395]]]]}},
{ "type":"Feature","properties":{"osm_way_id":"317380699","amenity":"parking"},"geometry":{"type":"MultiPolygon","coordinates":[[[[-3.56391,54.53059],[-3.564,54.53062],[-3.56425,54.5304],[-3.56416,54.53037],[-3.56391,54.53059]]]]}},
{ "type":"Feature","properties":{"osm_way_id":"317380700","amenity":"parking"},"geometry":{"type":"MultiPolygon","coordinates":[[[[-3.56312,54.53083],[-3.56341,54.53092],[-3.56349,54.53083],[-3.5633,54.5307],[-3.56312,54.53083]]]]}},
{ "type":"Feature","properties":{"osm_way_id":"317668590","amenity":"parking","other":{"access":"customers","fee":"no","park_ride":"no","supervised":"no"}}, "geometry":{"type":"MultiPolygon","coordinates":[[[[-3.56317,54.5382],[-3.56334,54.53815],[-3.56307,54.53787],[-3.5629,54.53793],[-3.56317,54.5382]]]]}},
{ "type":"Feature","properties":{"osm_way_id":"317670875","amenity":"parking","other":{"access":"customers","capacity":"75","fee":"no","park_ride":"no","parking":"surface","supervised":"no"}}, "geometry":{"type":"MultiPolygon","coordinates":[[[[-3.54953,54.52738],[-3.55,54.5272],[-3.55,54.52715],[-3.5494,54.52673],[-3.54918,54.52681],[-3.54922,54.52686],[-3.54916,54.5269],[-3.54911,54.52687],[-3.54907,54.52687],[-3.54902,54.52704],[-3.54953,54.52738]]]]}},
{ "type":"Feature","properties":{"osm_way_id":"319231082","amenity":"parking"},"geometry":{"type":"MultiPolygon","coordinates":[[[[-3.26201,54.25102],[-3.26207,54.2511],[-3.26227,54.25109],[-3.26227,54.25101],[-3.26216,54.25101],[-3.26201,54.25102]]]]}},
{ "type":"Feature","properties":{"osm_way_id":"319231084","amenity":"parking"},"geometry":{"type":"MultiPolygon","coordinates":[[[[-3.26204,54.25063],[-3.26195,54.25063],[-3.26195,54.25058],[-3.26199,54.25053],[-3.26209,54.25051],[-3.26208,54.25049],[-3.26222,54.25047],[-3.26222,54.2505],[-3.26229,54.25049],[-3.26236,54.25071],[-3.26229,54.25072],[-3.26228,54.25067],[-3.26205,54.25068],[-3.26204,54.25063]]]]}},
{ "type":"Feature","properties":{"osm_way_id":"319302537","amenity":"parking"},"geometry":{"type":"MultiPolygon","coordinates":[[[[-3.37303,54.28155],[-3.37301,54.28149],[-3.37305,54.28147],[-3.3731,54.28148],[-3.37311,54.28154],[-3.37324,54.28154],[-3.37324,54.28139],[-3.37305,54.28141],[-3.37304,54.28138],[-3.37301,54.28138],[-3.37284,54.28139],[-3.37287,54.28155],[-3.37303,54.28155]]]]}},
{ "type":"Feature","properties":{"osm_way_id":"319327471","amenity":"parking"},"geometry":{"type":"MultiPolygon","coordinates":[[[[-3.38771,54.28496],[-3.38798,54.28497],[-3.38798,54.28487],[-3.38771,54.28484],[-3.38771,54.28496]]]]}},
{ "type":"Feature","properties":{"osm_way_id":"319341888","amenity":"parking"},"geometry":{"type":"MultiPolygon","coordinates":[[[[-3.27246,54.21117],[-3.27256,54.21121],[-3.27257,54.21117],[-3.27264,54.21111],[-3.27258,54.21109],[-3.27248,54.21106],[-3.27244,54.21104],[-3.27235,54.21108],[-3.27237,54.21122],[-3.27246,54.21117]]]]}},
{ "type":"Feature","properties":{"osm_way_id":"319342673","amenity":"parking"},"geometry":{"type":"MultiPolygon","coordinates":[[[[-3.27615,54.21138],[-3.27626,54.21123],[-3.27618,54.21121],[-3.27612,54.21129],[-3.27607,54.21128],[-3.27602,54.21136],[-3.27615,54.21138]]]]}},
{ "type":"Feature","properties":{"osm_way_id":"319401186","amenity":"parking"},"geometry":{"type":"MultiPolygon","coordinates":[[[[-3.27047,54.20981],[-3.27048,54.2098],[-3.27048,54.20981],[-3.27048,54.20981],[-3.27052,54.20984],[-3.27031,54.20994],[-3.27002,54.20976],[-3.27004,54.20974],[-3.26994,54.20969],[-3.27,54.20965],[-3.27035,54.20986],[-3.27047,54.20981]]]]}},
{ "type":"Feature","properties":{"osm_way_id":"319401188","name":"Disabled","amenity":"parking","other":{"capacity":"2","wheelchair":"yes"}}, "geometry":{"type":"MultiPolygon","coordinates":[[[[-3.27016,54.20959],[-3.27009,54.20963],[-3.27002,54.20958],[-3.27008,54.20954],[-3.27016,54.20959]]]]}},
{ "type":"Feature","properties":{"osm_way_id":"319401189","amenity":"parking"},"geometry":{"type":"MultiPolygon","coordinates":[[[[-3.27009,54.20963],[-3.27016,54.20959],[-3.27019,54.20962],[-3.27013,54.20965],[-3.27009,54.20963]]]]}},
{ "type":"Feature","properties":{"osm_way_id":"319401190","amenity":"parking","other":{"capacity":"3"}}, "geometry":{"type":"MultiPolygon","coordinates":[[[[-3.2703,54.20969],[-3.27024,54.20972],[-3.27017,54.20967],[-3.27023,54.20964],[-3.2703,54.20969]]]]}},
{ "type":"Feature","properties":{"osm_way_id":"319415302","name":"The Castle","amenity":"parking"},"geometry":{"type":"MultiPolygon","coordinates":[[[[-3.27533,54.21163],[-3.27517,54.21162],[-3.2752,54.21148],[-3.27537,54.21149],[-3.27533,54.21163]]]]}},
{ "type":"Feature","properties":{"osm_way_id":"319606826","amenity":"parking"},"geometry":{"type":"MultiPolygon","coordinates":[[[[-3.26994,54.21219],[-3.2697,54.21221],[-3.2697,54.21222],[-3.26963,54.21222],[-3.26965,54.21231],[-3.26982,54.21229],[-3.2699,54.21229],[-3.26997,54.21228],[-3.26994,54.21219]]]]}},
{ "type":"Feature","properties":{"osm_way_id":"319606879","amenity":"parking","other":{"access":"customers","fee":"no","park_ride":"no","parking":"surface","supervised":"no","surface":"asphalt"}}, "geometry":{"type":"MultiPolygon","coordinates":[[[[-3.52799,54.48227],[-3.52798,54.48202],[-3.52756,54.48203],[-3.52743,54.48215],[-3.52743,54.48227],[-3.52757,54.48227],[-3.52784,54.48227],[-3.52799,54.48227]]]]}},
{ "type":"Feature","properties":{"osm_way_id":"319611761","name":"Tesco","amenity":"parking","other":{"addr:street":"Lancashire Road","capacity":"100","fee":"no","park_ride":"no","parking":"surface","supervised":"no"}}, "geometry":{"type":"MultiPolygon","coordinates":[[[[-3.26983,54.21085],[-3.27,54.21077],[-3.26997,54.21075],[-3.27012,54.21067],[-3.26994,54.21054],[-3.26982,54.2106],[-3.26975,54.21055],[-3.26926,54.21078],[-3.26929,54.21081],[-3.26926,54.21084],[-3.26926,54.21087],[-3.26939,54.21096],[-3.26934,54.21099],[-3.26952,54.21111],[-3.26957,54.21108],[-3.26959,54.21109],[-3.2696,54.2111],[-3.26959,54.21111],[-3.26958,54.21112],[-3.26964,54.21115],[-3.26999,54.21097],[-3.26983,54.21085]]]]}},
{ "type":"Feature","properties":{"osm_way_id":"319632190","amenity":"parking"},"geometry":{"type":"MultiPolygon","coordinates":[[[[-3.26932,54.21356],[-3.26929,54.21348],[-3.26907,54.21349],[-3.26908,54.21358],[-3.26932,54.21356]]]]}},
{ "type":"Feature","properties":{"osm_way_id":"319646966","amenity":"parking"},"geometry":{"type":"MultiPolygon","coordinates":[[[[-3.26785,54.208],[-3.26774,54.20788],[-3.26801,54.20779],[-3.26811,54.20786],[-3.26816,54.20791],[-3.26793,54.20798],[-3.26785,54.208]]]]}},
{ "type":"Feature","properties":{"osm_way_id":"319789531","amenity":"parking"},"geometry":{"type":"MultiPolygon","coordinates":[[[[-3.26504,54.20783],[-3.26503,54.2077],[-3.26502,54.20763],[-3.26497,54.20763],[-3.26488,54.20764],[-3.26471,54.20764],[-3.26472,54.20784],[-3.26504,54.20783]]]]}},
{ "type":"Feature","properties":{"osm_way_id":"319804030","amenity":"parking"},"geometry":{"type":"MultiPolygon","coordinates":[[[[-3.27689,54.21216],[-3.27678,54.21219],[-3.27668,54.21216],[-3.27673,54.2121],[-3.27678,54.21211],[-3.27684,54.2121],[-3.27689,54.21216]]]]}},
{ "type":"Feature","properties":{"osm_way_id":"319852513","amenity":"parking"},"geometry":{"type":"MultiPolygon","coordinates":[[[[-3.26247,54.21154],[-3.26248,54.2115],[-3.26225,54.21147],[-3.26224,54.21151],[-3.26247,54.21154]]]]}},
{ "type":"Feature","properties":{"osm_way_id":"320247513","amenity":"parking"},"geometry":{"type":"MultiPolygon","coordinates":[[[[-3.2743,54.211],[-3.27426,54.21097],[-3.27418,54.21095],[-3.27412,54.211],[-3.27422,54.21104],[-3.2743,54.211]]]]}},
{ "type":"Feature","properties":{"osm_way_id":"320247530","amenity":"parking"},"geometry":{"type":"MultiPolygon","coordinates":[[[[-3.27564,54.21055],[-3.27556,54.21054],[-3.27549,54.21053],[-3.27547,54.21049],[-3.27548,54.21042],[-3.27567,54.21045],[-3.27564,54.21055]]]]}},
{ "type":"Feature","properties":{"osm_way_id":"320247531","amenity":"parking"},"geometry":{"type":"MultiPolygon","coordinates":[[[[-3.27592,54.21067],[-3.27598,54.21068],[-3.27603,54.21063],[-3.27608,54.21055],[-3.27597,54.21054],[-3.27592,54.21067]]]]}},
{ "type":"Feature","properties":{"osm_way_id":"320426895","amenity":"parking","other":{"parking":"surface"}}, "geometry":{"type":"MultiPolygon","coordinates":[[[[-3.31186,54.20285],[-3.3116,54.20311],[-3.31115,54.20299],[-3.31114,54.203],[-3.31106,54.20297],[-3.31101,54.20291],[-3.31104,54.20288],[-3.311,54.20286],[-3.31133,54.20249],[-3.31158,54.20257],[-3.31156,54.20259],[-3.31162,54.20261],[-3.31163,54.20261],[-3.31169,54.20262],[-3.31172,54.20258],[-3.312,54.20265],[-3.31198,54.20269],[-3.312,54.20269],[-3.31197,54.20273],[-3.31193,54.20278],[-3.31196,54.20279],[-3.31186,54.20285]]]]}},
{ "type":"Feature","properties":{"osm_way_id":"320487043","amenity":"parking"},"geometry":{"type":"MultiPolygon","coordinates":[[[[-3.35158,54.42451],[-3.35202,54.42457],[-3.35208,54.42444],[-3.35197,54.42442],[-3.35189,54.42439],[-3.35191,54.42433],[-3.35196,54.42424],[-3.35189,54.42423],[-3.35187,54.42424],[-3.35181,54.42426],[-3.35177,54.42426],[-3.35168,54.42428],[-3.3516,54.42431],[-3.35158,54.42437],[-3.35158,54.42451]]]]}},
{ "type":"Feature","properties":{"osm_way_id":"320487044","amenity":"parking"},"geometry":{"type":"MultiPolygon","coordinates":[[[[-3.35149,54.42403],[-3.35159,54.42403],[-3.35157,54.42396],[-3.35163,54.42396],[-3.35162,54.42395],[-3.35166,54.42394],[-3.35165,54.4239],[-3.35168,54.4239],[-3.35167,54.42388],[-3.35176,54.42387],[-3.35179,54.42387],[-3.35177,54.42381],[-3.35158,54.42382],[-3.35158,54.4238],[-3.3515,54.4238],[-3.35146,54.4239],[-3.35148,54.424],[-3.35149,54.42403]]]]}},
{ "type":"Feature","properties":{"osm_way_id":"320488380","amenity":"parking"},"geometry":{"type":"MultiPolygon","coordinates":[[[[-3.33976,54.3904],[-3.33993,54.39045],[-3.33997,54.3904],[-3.33982,54.39036],[-3.34003,54.39012],[-3.33958,54.38999],[-3.33944,54.3902],[-3.33967,54.39025],[-3.3396,54.39036],[-3.33976,54.3904]]]]}},
{ "type":"Feature","properties":{"osm_way_id":"320489199","amenity":"parking"},"geometry":{"type":"MultiPolygon","coordinates":[[[[-3.31234,54.38678],[-3.31253,54.38688],[-3.31256,54.38686],[-3.31256,54.38679],[-3.3126,54.38675],[-3.31251,54.3867],[-3.31257,54.38665],[-3.31248,54.38661],[-3.31234,54.38678]]]]}},
{ "type":"Feature","properties":{"osm_way_id":"320489973","amenity":"parking"},"geometry":{"type":"MultiPolygon","coordinates":[[[[-3.2711,54.39653],[-3.27129,54.39664],[-3.27164,54.39647],[-3.2716,54.39643],[-3.27143,54.39648],[-3.27136,54.39642],[-3.27115,54.39649],[-3.2711,54.39653]]]]}},
{ "type":"Feature","properties":{"osm_way_id":"320490851","amenity":"parking","other":{"access":"customers","fee":"no","park_ride":"no","parking":"surface","supervised":"no"}}, "geometry":{"type":"MultiPolygon","coordinates":[[[[-3.27026,54.39822],[-3.27021,54.39797],[-3.27035,54.39797],[-3.27035,54.3979],[-3.27071,54.39792],[-3.27066,54.39813],[-3.27061,54.3983],[-3.27058,54.39838],[-3.27046,54.39839],[-3.2704,54.39832],[-3.27039,54.39821],[-3.27026,54.39822]]]]}},
{ "type":"Feature","properties":{"osm_way_id":"320491673","amenity":"parking","other":{"fee":"no","parking":"lane","surface":"unpaved"}}, "geometry":{"type":"MultiPolygon","coordinates":[[[[-3.21857,54.39924],[-3.21844,54.39923],[-3.2181,54.39939],[-3.21778,54.39946],[-3.2174,54.39949],[-3.2173,54.39956],[-3.21763,54.39952],[-3.21796,54.39951],[-3.2182,54.39947],[-3.21841,54.39938],[-3.21857,54.39924]]]]}},
{ "type":"Feature","properties":{"osm_way_id":"320491674","amenity":"parking"},"geometry":{"type":"MultiPolygon","coordinates":[[[[-3.18204,54.40285],[-3.18238,54.40281],[-3.18234,54.40276],[-3.18222,54.40275],[-3.18208,54.40279],[-3.18204,54.40285]]]]}},
{ "type":"Feature","properties":{"osm_way_id":"320491702","amenity":"parking"},"geometry":{"type":"MultiPolygon","coordinates":[[[[-3.16997,54.40534],[-3.1697,54.40539],[-3.16981,54.40542],[-3.16996,54.40542],[-3.16998,54.40537],[-3.16997,54.40534]]]]}},
{ "type":"Feature","properties":{"osm_way_id":"320513532","name":"School Car Park","amenity":"parking"},"geometry":{"type":"MultiPolygon","coordinates":[[[[-3.37736,54.32798],[-3.37754,54.32795],[-3.37764,54.32786],[-3.37754,54.32771],[-3.3772,54.32776],[-3.37736,54.32798]]]]}},
{ "type":"Feature","properties":{"osm_way_id":"320515047","amenity":"parking","other":{"access":"customers","operator":"The Byre","parking":"surface"}}, "geometry":{"type":"MultiPolygon","coordinates":[[[[-3.37298,54.28497],[-3.37308,54.28495],[-3.37319,54.28488],[-3.3733,54.28457],[-3.37342,54.28446],[-3.37338,54.28438],[-3.37319,54.28441],[-3.3732,54.28446],[-3.37318,54.28455],[-3.37308,54.28456],[-3.37298,54.28497]]]]}},
{ "type":"Feature","properties":{"osm_way_id":"320516593","name":"Miners Arms Car Park","amenity":"parking","other":{"access":"customers","capacity":"40","fee":"no","park_ride":"no","parking":"surface","supervised":"no"}}, "geometry":{"type":"MultiPolygon","coordinates":[[[[-3.33395,54.22604],[-3.33402,54.22602],[-3.33416,54.22592],[-3.33386,54.22573],[-3.3336,54.22589],[-3.33395,54.22604]]]]}},
{ "type":"Feature","properties":{"osm_way_id":"320517268","amenity":"parking"},"geometry":{"type":"MultiPolygon","coordinates":[[[[-3.28636,54.19775],[-3.28667,54.19774],[-3.28665,54.19764],[-3.28666,54.19742],[-3.28673,54.19738],[-3.28632,54.19734],[-3.28634,54.19738],[-3.28642,54.19749],[-3.28625,54.19755],[-3.28633,54.19766],[-3.28636,54.19775]]]]}},
{ "type":"Feature","properties":{"osm_way_id":"320518216","amenity":"parking"},"geometry":{"type":"MultiPolygon","coordinates":[[[[-3.29316,54.19731],[-3.29329,54.19735],[-3.29345,54.19714],[-3.29327,54.1971],[-3.29316,54.19731]]]]}},
{ "type":"Feature","properties":{"osm_way_id":"320679556","name":"Old Captains House Parking","amenity":"parking"},"geometry":{"type":"MultiPolygon","coordinates":[[[[-3.54522,54.50579],[-3.54531,54.50591],[-3.54566,54.50583],[-3.54556,54.5057],[-3.54522,54.50579]]]]}},
{ "type":"Feature","properties":{"osm_way_id":"320680137","amenity":"parking"},"geometry":{"type":"MultiPolygon","coordinates":[[[[-3.54195,54.50207],[-3.54209,54.50227],[-3.54238,54.50216],[-3.5423,54.50213],[-3.54195,54.50207]]]]}},
{ "type":"Feature","properties":{"osm_way_id":"320681668","amenity":"parking"},"geometry":{"type":"MultiPolygon","coordinates":[[[[-3.53152,54.48884],[-3.53156,54.48888],[-3.5319,54.48895],[-3.532,54.48892],[-3.53152,54.4888],[-3.53152,54.48884]]]]}},
{ "type":"Feature","properties":{"osm_way_id":"320684048","amenity":"parking"},"geometry":{"type":"MultiPolygon","coordinates":[[[[-3.53529,54.48487],[-3.53539,54.48505],[-3.53634,54.48487],[-3.53632,54.48478],[-3.53529,54.48487]]]]}},
{ "type":"Feature","properties":{"osm_way_id":"320685917","amenity":"parking"},"geometry":{"type":"MultiPolygon","coordinates":[[[[-3.53318,54.48266],[-3.53339,54.48271],[-3.53354,54.48261],[-3.53328,54.48255],[-3.53318,54.48266]]]]}},
{ "type":"Feature","properties":{"osm_way_id":"320685921","amenity":"parking"},"geometry":{"type":"MultiPolygon","coordinates":[[[[-3.53033,54.48218],[-3.53045,54.48221],[-3.53062,54.48204],[-3.53056,54.48203],[-3.53071,54.48187],[-3.53077,54.48189],[-3.53085,54.48181],[-3.53102,54.48186],[-3.5311,54.48177],[-3.53069,54.48164],[-3.53045,54.48195],[-3.53033,54.48218]]]]}},
{ "type":"Feature","properties":{"osm_way_id":"320687964","amenity":"parking"},"geometry":{"type":"MultiPolygon","coordinates":[[[[-3.52857,54.47889],[-3.52863,54.47896],[-3.52977,54.47861],[-3.52998,54.47844],[-3.53005,54.47816],[-3.52947,54.47832],[-3.52964,54.47852],[-3.5296,54.47855],[-3.5295,54.47861],[-3.52857,54.47889]]]]}},
{ "type":"Feature","properties":{"osm_way_id":"320998146","amenity":"parking","other":{"access":"permissive","capacity":"20","fee":"no","park_ride":"no","parking":"surface","supervised":"no"}}, "geometry":{"type":"MultiPolygon","coordinates":[[[[-3.51349,54.44758],[-3.5137,54.44773],[-3.51382,54.44766],[-3.51375,54.44759],[-3.51371,54.4476],[-3.51359,54.44753],[-3.51349,54.44758]]]]}},
{ "type":"Feature","properties":{"osm_way_id":"320998747","name":"Royal Oak Car Park","amenity":"parking","other":{"access":"customers","capacity":"20","park_ride":"no","parking":"surface","supervised":"no"}}, "geometry":{"type":"MultiPolygon","coordinates":[[[[-3.51246,54.44631],[-3.51273,54.44626],[-3.5127,54.4462],[-3.51261,54.44621],[-3.51258,54.44615],[-3.5125,54.44616],[-3.51252,54.44614],[-3.51238,54.44616],[-3.51246,54.44631]]]]}},
{ "type":"Feature","properties":{"osm_way_id":"320999330","amenity":"parking","other":{"access":"customers","capacity":"40","fee":"no","park_ride":"no","parking":"surface","supervised":"no"}}, "geometry":{"type":"MultiPolygon","coordinates":[[[[-3.51309,54.44629],[-3.51311,54.44632],[-3.51339,54.4463],[-3.51339,54.44629],[-3.51369,54.44627],[-3.51367,54.44616],[-3.51326,54.44621],[-3.51322,54.44625],[-3.51309,54.44629]]]]}},
{ "type":"Feature","properties":{"osm_way_id":"320999483","amenity":"parking","other":{"capacity":"10","park_ride":"no","parking":"surface","supervised":"no"}}, "geometry":{"type":"MultiPolygon","coordinates":[[[[-3.51356,54.44591],[-3.51392,54.44587],[-3.51391,54.44576],[-3.51359,54.4458],[-3.51356,54.44591]]]]}},
{ "type":"Feature","properties":{"osm_way_id":"321000982","name":"Stanley Arms Parking","amenity":"parking","other":{"access":"customers","capacity":"30","fee":"no","park_ride":"no","parking":"surface","supervised":"no"}}, "geometry":{"type":"MultiPolygon","coordinates":[[[[-3.47751,54.44034],[-3.47761,54.44025],[-3.47752,54.44018],[-3.47764,54.44007],[-3.47772,54.44003],[-3.47759,54.43994],[-3.47742,54.44003],[-3.47749,54.44008],[-3.47727,54.4402],[-3.47751,54.44034]]]]}},
{ "type":"Feature","properties":{"osm_way_id":"321090374","amenity":"parking","other":{"access":"customers","operator":"Boonwood Garden Centre","parking":"surface"}}, "geometry":{"type":"MultiPolygon","coordinates":[[[[-3.45287,54.42542],[-3.45315,54.42536],[-3.45268,54.4251],[-3.45243,54.42514],[-3.45249,54.42521],[-3.45267,54.42517],[-3.45287,54.42542]]]]}},
{ "type":"Feature","properties":{"osm_way_id":"321090380","amenity":"parking"},"geometry":{"type":"MultiPolygon","coordinates":[[[[-3.45128,54.42468],[-3.45154,54.42492],[-3.45195,54.42475],[-3.45158,54.42455],[-3.45128,54.42468]]]]}},
{ "type":"Feature","properties":{"osm_way_id":"321090668","amenity":"parking"},"geometry":{"type":"MultiPolygon","coordinates":[[[[-3.44064,54.41696],[-3.44102,54.41712],[-3.44115,54.41703],[-3.44103,54.41693],[-3.4409,54.41701],[-3.4407,54.41692],[-3.44064,54.41696]]]]}},
{ "type":"Feature","properties":{"osm_way_id":"321094347","amenity":"parking"},"geometry":{"type":"MultiPolygon","coordinates":[[[[-3.43851,54.41832],[-3.4387,54.41828],[-3.43848,54.41815],[-3.43847,54.41821],[-3.43845,54.41824],[-3.43851,54.41832]]]]}},
{ "type":"Feature","properties":{"osm_way_id":"321095388","amenity":"parking"},"geometry":{"type":"MultiPolygon","coordinates":[[[[-3.43196,54.41986],[-3.43209,54.42009],[-3.43239,54.42005],[-3.43222,54.41973],[-3.43206,54.41976],[-3.4321,54.41984],[-3.43196,54.41986]]]]}},
{ "type":"Feature","properties":{"osm_way_id":"321095389","amenity":"parking"},"geometry":{"type":"MultiPolygon","coordinates":[[[[-3.43148,54.41967],[-3.43152,54.41974],[-3.43206,54.41962],[-3.43199,54.41954],[-3.43148,54.41967]]]]}},
{ "type":"Feature","properties":{"osm_way_id":"321095390","amenity":"parking"},"geometry":{"type":"MultiPolygon","coordinates":[[[[-3.43178,54.41895],[-3.43169,54.41896],[-3.43185,54.41917],[-3.43194,54.41914],[-3.43178,54.41895]]]]}},
{ "type":"Feature","properties":{"osm_way_id":"321095637","amenity":"parking"},"geometry":{"type":"MultiPolygon","coordinates":[[[[-3.42988,54.41754],[-3.43002,54.41753],[-3.43009,54.41763],[-3.43066,54.41748],[-3.43054,54.41728],[-3.43086,54.41721],[-3.43077,54.41712],[-3.43004,54.41727],[-3.43005,54.4173],[-3.43003,54.41732],[-3.42999,54.41737],[-3.42998,54.4174],[-3.42984,54.41743],[-3.42988,54.41754]]]]}},
{ "type":"Feature","properties":{"osm_way_id":"321127077","amenity":"parking"},"geometry":{"type":"MultiPolygon","coordinates":[[[[-3.32294,54.39013],[-3.32298,54.39017],[-3.32332,54.39008],[-3.32327,54.39003],[-3.32294,54.39013]]]]}},
{ "type":"Feature","properties":{"osm_way_id":"321127251","amenity":"parking","other":{"access":"customers","operator":"National Trust","parking":"surface"}}, "geometry":{"type":"MultiPolygon","coordinates":[[[[-3.3219,54.39022],[-3.32242,54.39028],[-3.32251,54.39013],[-3.32199,54.39001],[-3.3219,54.39022]]]]}},
{ "type":"Feature","properties":{"osm_way_id":"321326746","amenity":"parking"},"geometry":{"type":"MultiPolygon","coordinates":[[[[-3.27823,54.20905],[-3.27797,54.20915],[-3.27783,54.20902],[-3.27808,54.20894],[-3.27814,54.20896],[-3.27823,54.20905]]]]}},
{ "type":"Feature","properties":{"osm_way_id":"321391573","amenity":"parking"},"geometry":{"type":"MultiPolygon","coordinates":[[[[-3.29405,54.20005],[-3.29411,54.20006],[-3.29417,54.19994],[-3.29417,54.19994],[-3.29416,54.19993],[-3.29414,54.19991],[-3.29412,54.19989],[-3.29405,54.20005]]]]}},
{ "type":"Feature","properties":{"osm_way_id":"321496223","amenity":"parking"},"geometry":{"type":"MultiPolygon","coordinates":[[[[-3.26872,54.20927],[-3.26864,54.20923],[-3.26877,54.20914],[-3.26885,54.2092],[-3.26872,54.20927]]]]}},
{ "type":"Feature","properties":{"osm_way_id":"321498189","amenity":"parking"},"geometry":{"type":"MultiPolygon","coordinates":[[[[-3.26883,54.20899],[-3.26904,54.20912],[-3.26892,54.20919],[-3.26874,54.20908],[-3.26879,54.20905],[-3.26876,54.20903],[-3.26883,54.20899]]]]}},
{ "type":"Feature","properties":{"osm_way_id":"321499639","amenity":"parking"},"geometry":{"type":"MultiPolygon","coordinates":[[[[-3.26895,54.20957],[-3.26874,54.20943],[-3.26902,54.20927],[-3.26907,54.20924],[-3.26918,54.20931],[-3.26919,54.20932],[-3.26927,54.20929],[-3.26924,54.20941],[-3.2692,54.20943],[-3.26906,54.20951],[-3.26899,54.20955],[-3.26895,54.20957]]]]}},
{ "type":"Feature","properties":{"osm_way_id":"321657566","amenity":"parking"},"geometry":{"type":"MultiPolygon","coordinates":[[[[-3.2678,54.20862],[-3.26793,54.20856],[-3.26795,54.20857],[-3.26799,54.20857],[-3.26802,54.20858],[-3.26806,54.20858],[-3.26809,54.20857],[-3.26805,54.20853],[-3.268,54.20847],[-3.26795,54.20849],[-3.26793,54.20847],[-3.26799,54.20845],[-3.26789,54.20834],[-3.26777,54.20838],[-3.26782,54.20845],[-3.26789,54.20852],[-3.26774,54.20858],[-3.2678,54.20862]]]]}},
{ "type":"Feature","properties":{"osm_way_id":"321659666","amenity":"parking"},"geometry":{"type":"MultiPolygon","coordinates":[[[[-3.2678,54.20912],[-3.26767,54.20902],[-3.26771,54.209],[-3.2678,54.20896],[-3.26793,54.20906],[-3.2679,54.20908],[-3.2678,54.20912]]]]}},
{ "type":"Feature","properties":{"osm_way_id":"321681391","name":"Red Lion Court","amenity":"parking"},"geometry":{"type":"MultiPolygon","coordinates":[[[[-3.27865,54.21193],[-3.27877,54.21193],[-3.2789,54.21176],[-3.27891,54.21174],[-3.27874,54.2117],[-3.27873,54.21171],[-3.27864,54.21184],[-3.27869,54.21186],[-3.27865,54.21193]]]]}},
{ "type":"Feature","properties":{"osm_way_id":"322301460","amenity":"parking"},"geometry":{"type":"MultiPolygon","coordinates":[[[[-3.27022,54.21344],[-3.27021,54.21348],[-3.26992,54.21346],[-3.26993,54.21341],[-3.27022,54.21344]]]]}},
{ "type":"Feature","properties":{"osm_way_id":"322303155","amenity":"parking"},"geometry":{"type":"MultiPolygon","coordinates":[[[[-3.26956,54.21278],[-3.26934,54.2128],[-3.26931,54.21268],[-3.26953,54.21267],[-3.26956,54.21278]]]]}},
{ "type":"Feature","properties":{"osm_way_id":"322303156","amenity":"parking"},"geometry":{"type":"MultiPolygon","coordinates":[[[[-3.26971,54.21258],[-3.26969,54.21249],[-3.26967,54.21239],[-3.26954,54.21239],[-3.26949,54.21239],[-3.2695,54.21244],[-3.26927,54.21245],[-3.26928,54.21258],[-3.26929,54.2126],[-3.26971,54.21258]]]]}},
{ "type":"Feature","properties":{"osm_way_id":"322303157","amenity":"parking"},"geometry":{"type":"MultiPolygon","coordinates":[[[[-3.26875,54.21259],[-3.26875,54.21259],[-3.26882,54.21259],[-3.26894,54.21258],[-3.26905,54.21257],[-3.26904,54.21252],[-3.26876,54.21255],[-3.26875,54.21259]]]]}},
{ "type":"Feature","properties":{"osm_way_id":"322303158","amenity":"parking"},"geometry":{"type":"MultiPolygon","coordinates":[[[[-3.26926,54.2123],[-3.26872,54.21251],[-3.26876,54.21254],[-3.26929,54.21233],[-3.26926,54.2123]]]]}},
{ "type":"Feature","properties":{"osm_way_id":"322304082","amenity":"parking"},"geometry":{"type":"MultiPolygon","coordinates":[[[[-3.26882,54.21278],[-3.26869,54.21279],[-3.26868,54.21276],[-3.26855,54.21277],[-3.26856,54.21281],[-3.2685,54.21282],[-3.2685,54.2128],[-3.26835,54.21281],[-3.26834,54.21278],[-3.26854,54.21276],[-3.26853,54.21272],[-3.2687,54.21271],[-3.2687,54.21275],[-3.26881,54.21274],[-3.26882,54.21278]]]]}},
{ "type":"Feature","properties":{"osm_way_id":"322304083","amenity":"parking"},"geometry":{"type":"MultiPolygon","coordinates":[[[[-3.26802,54.21272],[-3.26871,54.21267],[-3.2687,54.21263],[-3.26801,54.21268],[-3.26802,54.21272]]]]}},
{ "type":"Feature","properties":{"osm_way_id":"322306501","amenity":"parking"},"geometry":{"type":"MultiPolygon","coordinates":[[[[-3.26859,54.21392],[-3.26821,54.21391],[-3.26825,54.2138],[-3.2679,54.21375],[-3.26793,54.21367],[-3.26841,54.21375],[-3.26836,54.21384],[-3.26859,54.21385],[-3.26859,54.21392]]]]}},
{ "type":"Feature","properties":{"osm_way_id":"322306504","amenity":"parking"},"geometry":{"type":"MultiPolygon","coordinates":[[[[-3.2687,54.21378],[-3.26868,54.21368],[-3.26865,54.21355],[-3.26855,54.21355],[-3.26859,54.21378],[-3.2687,54.21378]]]]}},
{ "type":"Feature","properties":{"osm_way_id":"322306507","amenity":"parking"},"geometry":{"type":"MultiPolygon","coordinates":[[[[-3.26809,54.21358],[-3.26817,54.21361],[-3.26834,54.21345],[-3.26826,54.21342],[-3.26809,54.21358]]]]}},
{ "type":"Feature","properties":{"osm_way_id":"322767831","amenity":"parking"},"geometry":{"type":"MultiPolygon","coordinates":[[[[-3.26805,54.21287],[-3.26805,54.21291],[-3.26805,54.21291],[-3.26823,54.2129],[-3.26822,54.21286],[-3.26805,54.21287]]]]}},
{ "type":"Feature","properties":{"osm_way_id":"322767832","amenity":"parking"},"geometry":{"type":"MultiPolygon","coordinates":[[[[-3.27029,54.21351],[-3.27026,54.21362],[-3.27018,54.21378],[-3.2701,54.21389],[-3.27002,54.21387],[-3.27018,54.2136],[-3.27021,54.21351],[-3.27029,54.21351]]]]}},
{ "type":"Feature","properties":{"osm_way_id":"322767833","amenity":"parking"},"geometry":{"type":"MultiPolygon","coordinates":[[[[-3.26885,54.21278],[-3.26883,54.21266],[-3.2689,54.21265],[-3.2689,54.2127],[-3.26887,54.2127],[-3.26888,54.21275],[-3.26891,54.21275],[-3.26892,54.21277],[-3.26885,54.21278]]]]}},
{ "type":"Feature","properties":{"osm_way_id":"323272171","amenity":"parking"},"geometry":{"type":"MultiPolygon","coordinates":[[[[-3.54944,54.51933],[-3.54946,54.51922],[-3.55021,54.51929],[-3.55094,54.51901],[-3.55097,54.51888],[-3.55085,54.51877],[-3.55077,54.5188],[-3.55074,54.51877],[-3.55017,54.51898],[-3.55004,54.519],[-3.54944,54.51895],[-3.54942,54.519],[-3.54934,54.519],[-3.54926,54.51929],[-3.54944,54.51933]]]]}},
{ "type":"Feature","properties":{"osm_way_id":"323272177","amenity":"parking"},"geometry":{"type":"MultiPolygon","coordinates":[[[[-3.55115,54.5179],[-3.55181,54.51806],[-3.5523,54.51732],[-3.55164,54.51716],[-3.55156,54.5173],[-3.5515,54.51735],[-3.55115,54.5179]]]]}},
{ "type":"Feature","properties":{"osm_way_id":"323273386","amenity":"parking"},"geometry":{"type":"MultiPolygon","coordinates":[[[[-3.54716,54.51988],[-3.54613,54.52034],[-3.54604,54.52036],[-3.54591,54.52037],[-3.54582,54.52035],[-3.54573,54.5203],[-3.54568,54.52024],[-3.54569,54.52016],[-3.54573,54.52011],[-3.54579,54.52006],[-3.54695,54.51956],[-3.54713,54.51972],[-3.54709,54.51982],[-3.54716,54.51988]]]]}},
{ "type":"Feature","properties":{"osm_way_id":"323274229","amenity":"parking"},"geometry":{"type":"MultiPolygon","coordinates":[[[[-3.5501,54.52125],[-3.55066,54.52113],[-3.55028,54.52053],[-3.54974,54.52065],[-3.5501,54.52125]]]]}},
{ "type":"Feature","properties":{"osm_way_id":"323274230","amenity":"parking"},"geometry":{"type":"MultiPolygon","coordinates":[[[[-3.55072,54.52122],[-3.55087,54.52144],[-3.55168,54.52128],[-3.55146,54.52093],[-3.55129,54.52098],[-3.55134,54.52103],[-3.55122,54.52105],[-3.55124,54.5211],[-3.55072,54.52122]]]]}},
{ "type":"Feature","properties":{"osm_way_id":"323274236","amenity":"parking"},"geometry":{"type":"MultiPolygon","coordinates":[[[[-3.55065,54.5218],[-3.55065,54.52173],[-3.55074,54.52173],[-3.55074,54.52163],[-3.55052,54.52126],[-3.55008,54.52133],[-3.55028,54.52171],[-3.5503,54.52175],[-3.55038,54.52177],[-3.55048,54.52179],[-3.55065,54.5218]]]]}},
{ "type":"Feature","properties":{"osm_way_id":"323274737","amenity":"parking"},"geometry":{"type":"MultiPolygon","coordinates":[[[[-3.55089,54.52324],[-3.551,54.52317],[-3.55076,54.52302],[-3.55082,54.52298],[-3.55067,54.52289],[-3.55063,54.52285],[-3.55063,54.5228],[-3.55066,54.52274],[-3.55073,54.5227],[-3.55101,54.52255],[-3.55112,54.52252],[-3.55122,54.52251],[-3.55134,54.52251],[-3.55136,54.52237],[-3.55115,54.52237],[-3.55104,54.52237],[-3.55096,54.52239],[-3.55083,54.52245],[-3.55071,54.52251],[-3.55054,54.5226],[-3.55045,54.52268],[-3.55039,54.52274],[-3.55039,54.52284],[-3.55041,54.52292],[-3.55055,54.52303],[-3.55089,54.52324]]]]}},
{ "type":"Feature","properties":{"osm_way_id":"323275055","amenity":"parking"},"geometry":{"type":"MultiPolygon","coordinates":[[[[-3.55641,54.51917],[-3.55633,54.51909],[-3.55629,54.51904],[-3.55577,54.51922],[-3.55578,54.51925],[-3.55567,54.51927],[-3.55558,54.51922],[-3.55539,54.5191],[-3.55524,54.51908],[-3.5551,54.519],[-3.55489,54.51892],[-3.5547,54.51885],[-3.55445,54.51879],[-3.55443,54.51876],[-3.55491,54.51875],[-3.55486,54.51855],[-3.55445,54.51844],[-3.55423,54.51855],[-3.5542,54.51877],[-3.5543,54.5189],[-3.5546,54.51898],[-3.55484,54.51907],[-3.55495,54.51912],[-3.55488,54.51919],[-3.55486,54.51917],[-3.55489,54.51915],[-3.5548,54.51912],[-3.55465,54.51921],[-3.55474,54.51925],[-3.55478,54.51923],[-3.5548,54.51924],[-3.55485,54.51926],[-3.55477,54.51932],[-3.55492,54.51937],[-3.5551,54.5194],[-3.55529,54.5194],[-3.55555,54.51936],[-3.5558,54.51931],[-3.55586,54.51936],[-3.55641,54.51917]]]]}},
{ "type":"Feature","properties":{"osm_way_id":"323604636","amenity":"parking"},"geometry":{"type":"MultiPolygon","coordinates":[[[[-3.55319,54.51877],[-3.5535,54.51895],[-3.5538,54.51878],[-3.55373,54.51863],[-3.55347,54.51858],[-3.55319,54.51877]]]]}},
{ "type":"Feature","properties":{"osm_way_id":"323604639","amenity":"parking"},"geometry":{"type":"MultiPolygon","coordinates":[[[[-3.55254,54.52012],[-3.55276,54.52015],[-3.55285,54.51995],[-3.5529,54.51979],[-3.55254,54.51976],[-3.5525,54.5199],[-3.55254,54.52012]]]]}},
{ "type":"Feature","properties":{"osm_way_id":"323604640","amenity":"parking"},"geometry":{"type":"MultiPolygon","coordinates":[[[[-3.55219,54.51985],[-3.55226,54.51976],[-3.55185,54.51967],[-3.55211,54.51922],[-3.55167,54.51918],[-3.55156,54.51915],[-3.55173,54.51895],[-3.55177,54.51892],[-3.55173,54.51886],[-3.55156,54.51898],[-3.55128,54.51942],[-3.55125,54.5195],[-3.55125,54.51956],[-3.55129,54.51963],[-3.55144,54.51967],[-3.55219,54.51985]]]]}},
{ "type":"Feature","properties":{"osm_way_id":"323607690","amenity":"parking"},"geometry":{"type":"MultiPolygon","coordinates":[[[[-3.55467,54.52092],[-3.55491,54.52068],[-3.5551,54.52075],[-3.55513,54.5207],[-3.55564,54.5209],[-3.55555,54.52099],[-3.55539,54.52107],[-3.55526,54.52105],[-3.55521,54.5211],[-3.55467,54.52092]]]]}},
{ "type":"Feature","properties":{"osm_way_id":"323608057","amenity":"parking","other":{"access":"private","capacity":"100","park_ride":"no","parking":"surface"}}, "geometry":{"type":"MultiPolygon","coordinates":[[[[-3.56437,54.53051],[-3.56467,54.53064],[-3.5652,54.53021],[-3.56487,54.53008],[-3.56437,54.53051]]]]}},
{ "type":"Feature","properties":{"osm_way_id":"323609628","amenity":"parking"},"geometry":{"type":"MultiPolygon","coordinates":[[[[-3.56048,54.54839],[-3.56103,54.54851],[-3.56135,54.54823],[-3.56081,54.54805],[-3.56063,54.54813],[-3.56065,54.54783],[-3.56035,54.54784],[-3.56034,54.54792],[-3.56034,54.54797],[-3.56032,54.54799],[-3.56032,54.54806],[-3.56045,54.54807],[-3.56056,54.54815],[-3.56048,54.54839]]]]}},
{ "type":"Feature","properties":{"osm_way_id":"323614070","amenity":"parking"},"geometry":{"type":"MultiPolygon","coordinates":[[[[-3.54954,54.55548],[-3.5499,54.55542],[-3.54976,54.55518],[-3.54943,54.55519],[-3.54943,54.55528],[-3.54954,54.55548]]]]}},
{ "type":"Feature","properties":{"osm_way_id":"323614072","amenity":"parking"},"geometry":{"type":"MultiPolygon","coordinates":[[[[-3.55035,54.55529],[-3.55042,54.55527],[-3.55044,54.55532],[-3.55072,54.55527],[-3.55057,54.55501],[-3.5503,54.55506],[-3.55026,54.55512],[-3.55035,54.55529]]]]}},
{ "type":"Feature","properties":{"osm_way_id":"323614075","amenity":"parking"},"geometry":{"type":"MultiPolygon","coordinates":[[[[-3.55052,54.55477],[-3.55058,54.55487],[-3.55098,54.5548],[-3.55094,54.55474],[-3.55088,54.55475],[-3.55085,54.5547],[-3.55052,54.55477]]]]}},
{ "type":"Feature","properties":{"osm_way_id":"323614567","amenity":"parking"},"geometry":{"type":"MultiPolygon","coordinates":[[[[-3.54789,54.55969],[-3.54794,54.55992],[-3.54867,54.55984],[-3.54862,54.55959],[-3.54789,54.55969]]]]}},
{ "type":"Feature","properties":{"osm_way_id":"323614874","amenity":"parking"},"geometry":{"type":"MultiPolygon","coordinates":[[[[-3.53809,54.55351],[-3.53814,54.55366],[-3.53832,54.55364],[-3.53829,54.55346],[-3.53813,54.55347],[-3.53809,54.55351]]]]}},
{ "type":"Feature","properties":{"osm_way_id":"323615850","amenity":"parking"},"geometry":{"type":"MultiPolygon","coordinates":[[[[-3.55433,54.56236],[-3.55451,54.56234],[-3.55444,54.56203],[-3.55427,54.56204],[-3.55433,54.56236]]]]}},
{ "type":"Feature","properties":{"osm_way_id":"323617407","amenity":"parking"},"geometry":{"type":"MultiPolygon","coordinates":[[[[-3.551,54.55229],[-3.55127,54.55229],[-3.55127,54.55085],[-3.55097,54.55085],[-3.551,54.55229]]]]}},
{ "type":"Feature","properties":{"osm_way_id":"323646722","amenity":"parking","other":{"access":"customers","fee":"no","park_ride":"no","parking":"surface","supervised":"no"}}, "geometry":{"type":"MultiPolygon","coordinates":[[[[-3.52156,54.5999],[-3.52191,54.6001],[-3.52216,54.59996],[-3.52193,54.59983],[-3.52184,54.59986],[-3.52179,54.59983],[-3.52156,54.5999]]]]}},
{ "type":"Feature","properties":{"osm_way_id":"323646724","amenity":"parking"},"geometry":{"type":"MultiPolygon","coordinates":[[[[-3.52168,54.59964],[-3.52215,54.59973],[-3.52235,54.59944],[-3.52206,54.59932],[-3.52192,54.59936],[-3.52164,54.59956],[-3.52171,54.59958],[-3.52168,54.59964]]]]}},
{ "type":"Feature","properties":{"osm_way_id":"323653465","name":"Spectators","amenity":"parking"},"geometry":{"type":"MultiPolygon","coordinates":[[[[-3.4442,54.55124],[-3.44484,54.55113],[-3.44461,54.55092],[-3.44438,54.55071],[-3.44462,54.55028],[-3.44419,54.5502],[-3.44417,54.55061],[-3.44404,54.55082],[-3.44405,54.55092],[-3.4442,54.55124]]]]}},
{ "type":"Feature","properties":{"osm_way_id":"323653466","name":"Competitors","amenity":"parking"},"geometry":{"type":"MultiPolygon","coordinates":[[[[-3.44362,54.55066],[-3.44347,54.55061],[-3.44326,54.55054],[-3.44308,54.55047],[-3.44249,54.55023],[-3.44311,54.54964],[-3.44351,54.54977],[-3.44398,54.54979],[-3.4441,54.54986],[-3.4439,54.55006],[-3.44397,54.55032],[-3.44399,54.55067],[-3.44388,54.55069],[-3.44378,54.5507],[-3.44362,54.55066]]]]}},
{ "type":"Feature","properties":{"osm_way_id":"323656643","name":"Competitors Pits","amenity":"parking"},"geometry":{"type":"MultiPolygon","coordinates":[[[[-3.44382,54.55132],[-3.44356,54.5512],[-3.44341,54.55108],[-3.4433,54.55094],[-3.44313,54.55083],[-3.44245,54.55061],[-3.44262,54.55048],[-3.44259,54.55047],[-3.44246,54.55041],[-3.44228,54.55034],[-3.44243,54.55023],[-3.44361,54.5507],[-3.44362,54.55093],[-3.44382,54.55132]]]]}},
{ "type":"Feature","properties":{"osm_way_id":"323657630","amenity":"parking"},"geometry":{"type":"MultiPolygon","coordinates":[[[[-3.44346,54.55153],[-3.44397,54.55146],[-3.44364,54.5513],[-3.4432,54.55095],[-3.44319,54.551],[-3.44326,54.55116],[-3.44337,54.55125],[-3.4434,54.55146],[-3.44346,54.55153]]]]}},
{ "type":"Feature","properties":{"osm_way_id":"325949726","amenity":"parking"},"geometry":{"type":"MultiPolygon","coordinates":[[[[-3.27107,54.21119],[-3.27104,54.21121],[-3.27085,54.21111],[-3.27092,54.21107],[-3.27107,54.21115],[-3.27107,54.21119]]]]}},
{ "type":"Feature","properties":{"osm_way_id":"326096183","amenity":"parking","other":{"parking":"surface"}}, "geometry":{"type":"MultiPolygon","coordinates":[[[[-3.51641,54.52132],[-3.51669,54.52141],[-3.51675,54.52135],[-3.51685,54.52124],[-3.5169,54.52119],[-3.51666,54.52111],[-3.51649,54.52128],[-3.51645,54.52127],[-3.51641,54.52132]]]]}},
{ "type":"Feature","properties":{"osm_way_id":"326096184","amenity":"parking","other":{"parking":"surface"}}, "geometry":{"type":"MultiPolygon","coordinates":[[[[-3.51585,54.52135],[-3.51596,54.5212],[-3.51572,54.52113],[-3.51559,54.52128],[-3.51585,54.52135]]]]}},
{ "type":"Feature","properties":{"osm_way_id":"326096186","amenity":"parking","other":{"parking":"surface"}}, "geometry":{"type":"MultiPolygon","coordinates":[[[[-3.51607,54.52079],[-3.51642,54.52089],[-3.51656,54.52074],[-3.5167,54.52079],[-3.51678,54.5207],[-3.51628,54.52055],[-3.51607,54.52079]]]]}},
{ "type":"Feature","properties":{"osm_way_id":"326096187","amenity":"parking","other":{"parking":"surface"}}, "geometry":{"type":"MultiPolygon","coordinates":[[[[-3.51676,54.52113],[-3.51693,54.52118],[-3.51704,54.52106],[-3.51688,54.52101],[-3.51676,54.52113]]]]}},
{ "type":"Feature","properties":{"osm_way_id":"326097148","amenity":"parking","other":{"parking":"surface"}}, "geometry":{"type":"MultiPolygon","coordinates":[[[[-3.51773,54.52077],[-3.51802,54.52086],[-3.51833,54.52057],[-3.51802,54.52047],[-3.51773,54.52077]]]]}},
{ "type":"Feature","properties":{"osm_way_id":"326774609","name":"Hospital \/ Surgery Car Park","amenity":"parking","other":{"old_name":"St. George's Hall"}}, "geometry":{"type":"MultiPolygon","coordinates":[[[[-3.2675,54.20852],[-3.26742,54.20854],[-3.26739,54.20855],[-3.26723,54.20859],[-3.26723,54.2086],[-3.26722,54.20861],[-3.26721,54.20862],[-3.26722,54.20863],[-3.26741,54.20879],[-3.26744,54.20881],[-3.26769,54.2087],[-3.2677,54.20869],[-3.26771,54.20868],[-3.26771,54.20868],[-3.2675,54.20852]]]]}},
{ "type":"Feature","properties":{"osm_way_id":"327382472","name":"Spectators","amenity":"parking"},"geometry":{"type":"MultiPolygon","coordinates":[[[[-3.4443,54.55193],[-3.44414,54.55208],[-3.44411,54.55215],[-3.44396,54.55226],[-3.44372,54.55226],[-3.44352,54.55249],[-3.44337,54.55261],[-3.44351,54.55274],[-3.44369,54.55281],[-3.44378,54.55271],[-3.444,54.55261],[-3.44419,54.55238],[-3.44438,54.55209],[-3.44447,54.55193],[-3.4443,54.55193]]]]}},
{ "type":"Feature","properties":{"osm_way_id":"329894114","amenity":"parking","other":{"capacity":"150","parking":"surface"}}, "geometry":{"type":"MultiPolygon","coordinates":[[[[-3.58707,54.54544],[-3.58781,54.54537],[-3.58749,54.54454],[-3.58696,54.54458],[-3.58707,54.54544]]]]}},
{ "type":"Feature","properties":{"osm_way_id":"329894118","amenity":"parking","other":{"parking":"surface"}}, "geometry":{"type":"MultiPolygon","coordinates":[[[[-3.58775,54.54598],[-3.58813,54.54594],[-3.5881,54.54586],[-3.58818,54.54585],[-3.58805,54.5455],[-3.58797,54.54545],[-3.58756,54.54549],[-3.58775,54.54598]]]]}},
{ "type":"Feature","properties":{"osm_way_id":"329894121","amenity":"parking","other":{"parking":"surface"}}, "geometry":{"type":"MultiPolygon","coordinates":[[[[-3.58815,54.54543],[-3.5882,54.54559],[-3.58922,54.54548],[-3.58917,54.54532],[-3.58815,54.54543]]]]}},
{ "type":"Feature","properties":{"osm_way_id":"329894128","amenity":"parking"},"geometry":{"type":"MultiPolygon","coordinates":[[[[-3.58806,54.54452],[-3.5881,54.5446],[-3.58921,54.54439],[-3.58919,54.54434],[-3.58806,54.54452]]]]}},
{ "type":"Feature","properties":{"osm_way_id":"329895883","amenity":"parking","other":{"parking":"surface"}}, "geometry":{"type":"MultiPolygon","coordinates":[[[[-3.58865,54.54603],[-3.58857,54.54574],[-3.58843,54.54575],[-3.58853,54.54604],[-3.58865,54.54603]]]]}},
{ "type":"Feature","properties":{"osm_way_id":"330019911","amenity":"parking","other":{"access":"customers","fee":"no","park_ride":"no","parking":"surface","supervised":"no"}}, "geometry":{"type":"MultiPolygon","coordinates":[[[[-3.59378,54.53351],[-3.59389,54.5333],[-3.59412,54.53334],[-3.594,54.53355],[-3.59378,54.53351]]]]}},
{ "type":"Feature","properties":{"osm_way_id":"330027784","amenity":"parking","other":{"parking":"surface"}}, "geometry":{"type":"MultiPolygon","coordinates":[[[[-3.5786,54.52895],[-3.57874,54.52928],[-3.57899,54.52924],[-3.579,54.52912],[-3.57908,54.52902],[-3.57927,54.5289],[-3.57919,54.52885],[-3.5786,54.52895]]]]}},
{ "type":"Feature","properties":{"osm_way_id":"330048464","amenity":"parking","other":{"parking":"surface"}}, "geometry":{"type":"MultiPolygon","coordinates":[[[[-3.57941,54.53658],[-3.57957,54.53689],[-3.58,54.53684],[-3.57983,54.53651],[-3.57941,54.53658]]]]}},
{ "type":"Feature","properties":{"osm_way_id":"330048476","amenity":"parking","other":{"access":"customers","fee":"no","park_ride":"no","parking":"surface","supervised":"no"}}, "geometry":{"type":"MultiPolygon","coordinates":[[[[-3.57885,54.54195],[-3.57886,54.54206],[-3.579,54.54214],[-3.57915,54.54213],[-3.5797,54.54178],[-3.57953,54.54167],[-3.57885,54.54195]]]]}},
{ "type":"Feature","properties":{"osm_way_id":"330048479","amenity":"parking","other":{"parking":"surface"}}, "geometry":{"type":"MultiPolygon","coordinates":[[[[-3.58233,54.54189],[-3.58258,54.54184],[-3.58257,54.54162],[-3.58231,54.54162],[-3.58233,54.54189]]]]}},
{ "type":"Feature","properties":{"osm_way_id":"330335122","amenity":"parking","other":{"fee":"yes","park_ride":"yes","parking":"surface","surface":"asphalt"}}, "geometry":{"type":"MultiPolygon","coordinates":[[[[-3.58774,54.55049],[-3.58797,54.55021],[-3.58831,54.55031],[-3.58808,54.55058],[-3.58774,54.55049]]]]}},
{ "type":"Feature","properties":{"osm_way_id":"330928518","amenity":"parking","other":{"fee":"no","park_ride":"no","parking":"surface","supervised":"no"}}, "geometry":{"type":"MultiPolygon","coordinates":[[[[-3.51825,54.58369],[-3.51871,54.58373],[-3.51875,54.58355],[-3.51832,54.58352],[-3.51825,54.58369]]]]}},
{ "type":"Feature","properties":{"osm_way_id":"330931129","amenity":"parking","other":{"fee":"no","park_ride":"no","parking":"surface","supervised":"no"}}, "geometry":{"type":"MultiPolygon","coordinates":[[[[-3.41072,54.57434],[-3.41066,54.57433],[-3.41069,54.57409],[-3.41078,54.57409],[-3.41072,54.57434]]]]}},
{ "type":"Feature","properties":{"osm_way_id":"331076711","amenity":"parking","other":{"fee":"no","park_ride":"no","parking":"surface","supervised":"no"}}, "geometry":{"type":"MultiPolygon","coordinates":[[[[-3.49467,54.53947],[-3.49486,54.53946],[-3.49498,54.53997],[-3.49479,54.53999],[-3.49467,54.53947]]]]}},
{ "type":"Feature","properties":{"osm_way_id":"331076723","amenity":"parking","other":{"parking":"surface"}}, "geometry":{"type":"MultiPolygon","coordinates":[[[[-3.49442,54.54183],[-3.49453,54.54188],[-3.49482,54.54156],[-3.49465,54.5415],[-3.49448,54.54165],[-3.49439,54.54161],[-3.49432,54.54169],[-3.4945,54.54175],[-3.49442,54.54183]]]]}},
{ "type":"Feature","properties":{"osm_way_id":"331088629","amenity":"parking","other":{"fee":"no","park_ride":"no","parking":"surface","supervised":"no"}}, "geometry":{"type":"MultiPolygon","coordinates":[[[[-3.53992,54.44044],[-3.54024,54.44032],[-3.53995,54.44009],[-3.53976,54.44003],[-3.53952,54.44012],[-3.53992,54.44044]]]]}},
{ "type":"Feature","properties":{"osm_way_id":"331093227","amenity":"parking"},"geometry":{"type":"MultiPolygon","coordinates":[[[[-3.47591,54.39794],[-3.47626,54.39814],[-3.47633,54.39811],[-3.47653,54.39793],[-3.47633,54.39785],[-3.47616,54.39777],[-3.47597,54.3979],[-3.47591,54.39794]]]]}},
{ "type":"Feature","properties":{"osm_way_id":"331344695","amenity":"parking","other":{"parking":"surface"}}, "geometry":{"type":"MultiPolygon","coordinates":[[[[-3.4843,54.3991],[-3.48441,54.39941],[-3.48474,54.39944],[-3.48506,54.39939],[-3.48505,54.39932],[-3.48504,54.39925],[-3.48491,54.39927],[-3.48484,54.39923],[-3.48482,54.39919],[-3.48484,54.39913],[-3.48486,54.3991],[-3.48473,54.3991],[-3.48473,54.39908],[-3.4843,54.3991]]]]}},
{ "type":"Feature","properties":{"osm_way_id":"331344700","amenity":"parking","other":{"parking":"surface"}}, "geometry":{"type":"MultiPolygon","coordinates":[[[[-3.48641,54.39903],[-3.48661,54.39892],[-3.48612,54.39867],[-3.48587,54.39863],[-3.48574,54.39875],[-3.48604,54.39882],[-3.48633,54.39897],[-3.48641,54.39903]]]]}},
{ "type":"Feature","properties":{"osm_way_id":"331345950","amenity":"parking","other":{"parking":"surface"}}, "geometry":{"type":"MultiPolygon","coordinates":[[[[-3.48273,54.3954],[-3.48321,54.39534],[-3.4835,54.39552],[-3.48325,54.39564],[-3.48288,54.39566],[-3.48273,54.3954]]]]}},
{ "type":"Feature","properties":{"osm_way_id":"331351992","amenity":"parking","other":{"access":"customers"}}, "geometry":{"type":"MultiPolygon","coordinates":[[[[-3.41921,54.3866],[-3.4193,54.38662],[-3.41942,54.38654],[-3.41948,54.38637],[-3.41981,54.38642],[-3.41987,54.38628],[-3.41941,54.3862],[-3.41921,54.3866]]]]}},
{ "type":"Feature","properties":{"osm_way_id":"331353110","amenity":"parking","other":{"access":"customers","parking":"surface"}}, "geometry":{"type":"MultiPolygon","coordinates":[[[[-3.44376,54.37728],[-3.44385,54.37749],[-3.44437,54.37732],[-3.44405,54.37717],[-3.44376,54.37728]]]]}},
{ "type":"Feature","properties":{"osm_way_id":"331355472","amenity":"parking","other":{"parking":"surface"}}, "geometry":{"type":"MultiPolygon","coordinates":[[[[-3.41002,54.35523],[-3.41004,54.35534],[-3.41024,54.35535],[-3.41026,54.35526],[-3.4102,54.35526],[-3.41018,54.35521],[-3.41002,54.35523]]]]}},
{ "type":"Feature","properties":{"osm_way_id":"331355473","amenity":"parking","other":{"parking":"surface"}}, "geometry":{"type":"MultiPolygon","coordinates":[[[[-3.40987,54.35509],[-3.40998,54.35507],[-3.40996,54.35501],[-3.41009,54.35499],[-3.41,54.35474],[-3.40977,54.35478],[-3.40987,54.35509]]]]}},
{ "type":"Feature","properties":{"osm_way_id":"331366464","name":"Station Parking","amenity":"parking","other":{"parking":"surface"}}, "geometry":{"type":"MultiPolygon","coordinates":[[[[-3.39354,54.29152],[-3.39352,54.29145],[-3.39374,54.29144],[-3.39376,54.29151],[-3.39354,54.29152]]]]}},
{ "type":"Feature","properties":{"osm_way_id":"331371598","amenity":"parking","other":{"access":"customers","parking":"surface"}}, "geometry":{"type":"MultiPolygon","coordinates":[[[[-3.51333,54.51637],[-3.5135,54.51609],[-3.51308,54.51613],[-3.51293,54.51627],[-3.51333,54.51637]]]]}},
{ "type":"Feature","properties":{"osm_way_id":"331371608","amenity":"parking","other":{"access":"customers","parking":"surface"}}, "geometry":{"type":"MultiPolygon","coordinates":[[[[-3.50366,54.51604],[-3.50393,54.51613],[-3.50416,54.51598],[-3.50393,54.5158],[-3.50366,54.51604]]]]}},
{ "type":"Feature","properties":{"osm_way_id":"331385059","amenity":"parking","other":{"parking":"surface"}}, "geometry":{"type":"MultiPolygon","coordinates":[[[[-3.51301,54.52172],[-3.51318,54.5218],[-3.51338,54.52167],[-3.51383,54.52186],[-3.51413,54.52162],[-3.51359,54.5215],[-3.51345,54.52142],[-3.51301,54.52172]]]]}},
{ "type":"Feature","properties":{"osm_way_id":"331925439","name":"Free Car Park","amenity":"parking","other":{"capacity":"50","fee":"no","park_ride":"no","parking":"surface","supervised":"no"}}, "geometry":{"type":"MultiPolygon","coordinates":[[[[-3.26423,54.20981],[-3.26333,54.2097],[-3.26337,54.20961],[-3.26426,54.2097],[-3.26423,54.20981]]]]}},
{ "type":"Feature","properties":{"osm_way_id":"333044383","amenity":"parking","other":{"fee":"no","park_ride":"no","parking":"surface","supervised":"no"}}, "geometry":{"type":"MultiPolygon","coordinates":[[[[-3.58251,54.56847],[-3.5826,54.56858],[-3.58277,54.56859],[-3.58283,54.56845],[-3.58265,54.56842],[-3.58251,54.56847]]]]}},
{ "type":"Feature","properties":{"osm_way_id":"333045631","amenity":"parking","other":{"access":"customers","fee":"no","park_ride":"no","parking":"surface","supervised":"no"}}, "geometry":{"type":"MultiPolygon","coordinates":[[[[-3.57124,54.57112],[-3.57147,54.5712],[-3.57132,54.57137],[-3.5715,54.57142],[-3.57176,54.57114],[-3.57135,54.57101],[-3.57124,54.57112]]]]}},
{ "type":"Feature","properties":{"osm_way_id":"333324633","name":"Fairladies car park","amenity":"parking","other":{"operator":"St Bees Parish Council","parking":"surface","supervised":"no","surface":"asphalt"}}, "geometry":{"type":"MultiPolygon","coordinates":[[[[-3.58913,54.48859],[-3.58871,54.48861],[-3.58871,54.48845],[-3.58872,54.48843],[-3.58875,54.4884],[-3.58886,54.4884],[-3.5889,54.48843],[-3.58914,54.48844],[-3.58913,54.48854],[-3.58913,54.48859]]]]}},
{ "type":"Feature","properties":{"osm_way_id":"334219454","amenity":"parking"},"geometry":{"type":"MultiPolygon","coordinates":[[[[-3.2639,54.20877],[-3.26391,54.20871],[-3.26368,54.20867],[-3.26365,54.20874],[-3.26373,54.20875],[-3.26383,54.20876],[-3.2639,54.20877]]]]}},
{ "type":"Feature","properties":{"osm_way_id":"334463207","amenity":"parking","other":{"parking":"surface"}}, "geometry":{"type":"MultiPolygon","coordinates":[[[[-3.57177,54.5794],[-3.57195,54.57954],[-3.57207,54.57943],[-3.57209,54.57941],[-3.5721,54.57928],[-3.57177,54.5794]]]]}},
{ "type":"Feature","properties":{"osm_way_id":"334463214","amenity":"parking","other":{"parking":"surface"}}, "geometry":{"type":"MultiPolygon","coordinates":[[[[-3.57609,54.57983],[-3.57654,54.57983],[-3.57647,54.57955],[-3.57602,54.57959],[-3.57609,54.57983]]]]}},
{ "type":"Feature","properties":{"osm_way_id":"334466680","amenity":"parking","other":{"parking":"surface"}}, "geometry":{"type":"MultiPolygon","coordinates":[[[[-3.54556,54.50454],[-3.54573,54.5045],[-3.54554,54.50425],[-3.5458,54.50417],[-3.54571,54.50408],[-3.5453,54.50418],[-3.54556,54.50454]]]]}},
{ "type":"Feature","properties":{"osm_way_id":"334872704","amenity":"parking","other":{"capacity":"8"}}, "geometry":{"type":"MultiPolygon","coordinates":[[[[-3.57989,54.56999],[-3.58011,54.56986],[-3.57999,54.5698],[-3.57978,54.56993],[-3.57989,54.56999]]]]}},
{ "type":"Feature","properties":{"osm_way_id":"334879369","amenity":"parking"},"geometry":{"type":"MultiPolygon","coordinates":[[[[-3.54048,54.59592],[-3.54044,54.59583],[-3.54048,54.59577],[-3.54072,54.59574],[-3.54079,54.59587],[-3.54068,54.59589],[-3.54048,54.59592]]]]}},
{ "type":"Feature","properties":{"osm_way_id":"335050330","amenity":"parking"},"geometry":{"type":"MultiPolygon","coordinates":[[[[-3.51898,54.45773],[-3.519,54.45754],[-3.51935,54.45762],[-3.51894,54.45792],[-3.51887,54.4579],[-3.51894,54.4578],[-3.51898,54.45773]]]]}},
{ "type":"Feature","properties":{"osm_way_id":"335150772","amenity":"parking","other":{"access":"customers","fee":"no","park_ride":"no","parking":"surface","supervised":"no"}}, "geometry":{"type":"MultiPolygon","coordinates":[[[[-3.50168,54.44909],[-3.50149,54.44922],[-3.50131,54.44918],[-3.50106,54.44904],[-3.50117,54.44897],[-3.50121,54.44899],[-3.50138,54.44891],[-3.50168,54.44909]]]]}},
{ "type":"Feature","properties":{"osm_way_id":"335162924","amenity":"parking"},"geometry":{"type":"MultiPolygon","coordinates":[[[[-3.37347,54.28292],[-3.37338,54.28293],[-3.37332,54.28283],[-3.37343,54.2828],[-3.37336,54.28273],[-3.37352,54.28269],[-3.37363,54.28286],[-3.37356,54.2829],[-3.37347,54.28292]]]]}},
{ "type":"Feature","properties":{"osm_way_id":"335975306","amenity":"parking"},"geometry":{"type":"MultiPolygon","coordinates":[[[[-3.55698,54.46028],[-3.55667,54.46042],[-3.55658,54.46037],[-3.55693,54.46023],[-3.55698,54.46028]]]]}},
{ "type":"Feature","properties":{"osm_way_id":"336887949","amenity":"parking"},"geometry":{"type":"MultiPolygon","coordinates":[[[[-3.27262,54.23302],[-3.27289,54.233],[-3.27297,54.23285],[-3.27301,54.23279],[-3.27275,54.23274],[-3.27263,54.23295],[-3.27262,54.23302]]]]}},
{ "type":"Feature","properties":{"osm_way_id":"337474005","amenity":"parking","other":{"parking":"surface"}}, "geometry":{"type":"MultiPolygon","coordinates":[[[[-1.43519,52.37973],[-1.43495,52.37983],[-1.43484,52.37985],[-1.43486,52.37981],[-1.43491,52.37978],[-1.43515,52.37968],[-1.43519,52.37973]]]]}},
{ "type":"Feature","properties":{"osm_way_id":"337959146","name":"Mini Bus","amenity":"parking","other":{"capacity":"1"}}, "geometry":{"type":"MultiPolygon","coordinates":[[[[-3.26905,54.21261],[-3.26912,54.2126],[-3.26911,54.21251],[-3.26904,54.21252],[-3.26905,54.21257],[-3.26905,54.21261]]]]}},
{ "type":"Feature","properties":{"osm_way_id":"338972196","amenity":"parking","other":{"access":"yes","capacity":"10","fee":"no","operator":"Lake District National Park","operator:type":"public","park_ride":"no","parking":"surface","supervised":"no","surface":"compacted"}}, "geometry":{"type":"MultiPolygon","coordinates":[[[[-3.4162,54.56591],[-3.41626,54.56596],[-3.4163,54.56599],[-3.41648,54.56593],[-3.41653,54.56578],[-3.41637,54.56575],[-3.41624,54.56583],[-3.4162,54.56591]]]]}},
{ "type":"Feature","properties":{"osm_way_id":"338974099","amenity":"parking","other":{"access":"customers","fee":"no","park_ride":"no","parking":"surface","supervised":"no"}}, "geometry":{"type":"MultiPolygon","coordinates":[[[[-3.53968,54.59656],[-3.53995,54.59659],[-3.53997,54.59652],[-3.53971,54.59648],[-3.53968,54.59656]]]]}},
{ "type":"Feature","properties":{"osm_way_id":"338975105","amenity":"parking","other":{"access":"customers","capacity":"4","fee":"no","operator":"Co-op","park_ride":"no","parking":"surface","supervised":"no"}}, "geometry":{"type":"MultiPolygon","coordinates":[[[[-3.53896,54.59733],[-3.53903,54.59724],[-3.53886,54.5972],[-3.53879,54.59729],[-3.53896,54.59733]]]]}},
{ "type":"Feature","properties":{"osm_way_id":"340953310","amenity":"parking","other":{"parking":"surface"}}, "geometry":{"type":"MultiPolygon","coordinates":[[[[-3.52627,54.50278],[-3.52656,54.50291],[-3.5273,54.50242],[-3.52726,54.5024],[-3.52699,54.50226],[-3.52677,54.50242],[-3.52627,54.50278]]]]}},
{ "type":"Feature","properties":{"osm_way_id":"341853745","amenity":"parking","other":{"covered":"no","fee":"no","park_ride":"yes","parking":"surface","surface":"gravel"}}, "geometry":{"type":"MultiPolygon","coordinates":[[[[-3.24558,54.24471],[-3.24557,54.24463],[-3.24562,54.24451],[-3.24571,54.24436],[-3.2458,54.24435],[-3.24585,54.24446],[-3.24587,54.24453],[-3.2458,54.24463],[-3.24568,54.24473],[-3.24558,54.24471]]]]}},
{ "type":"Feature","properties":{"osm_way_id":"343668598","amenity":"parking","other":{"fee":"no","park_ride":"no","parking":"surface","supervised":"no"}}, "geometry":{"type":"MultiPolygon","coordinates":[[[[-3.47899,54.44133],[-3.47944,54.44157],[-3.47944,54.44134],[-3.47935,54.44118],[-3.47932,54.44108],[-3.47919,54.44112],[-3.47899,54.44133]]]]}},
{ "type":"Feature","properties":{"osm_way_id":"343669471","amenity":"parking","other":{"access":"customers","fee":"no","park_ride":"no","parking":"surface","supervised":"no"}}, "geometry":{"type":"MultiPolygon","coordinates":[[[[-3.4911,54.43512],[-3.49114,54.43504],[-3.49157,54.43505],[-3.49159,54.43528],[-3.49117,54.43528],[-3.49115,54.43525],[-3.4911,54.43524],[-3.4911,54.43512]]]]}},
{ "type":"Feature","properties":{"osm_way_id":"343672545","amenity":"parking","other":{"access":"private","parking":"surface"}}, "geometry":{"type":"MultiPolygon","coordinates":[[[[-3.41742,54.39217],[-3.41759,54.39216],[-3.41755,54.39196],[-3.41798,54.39192],[-3.41793,54.39148],[-3.41741,54.39151],[-3.41736,54.39158],[-3.41731,54.3918],[-3.41742,54.39217]]]]}},
{ "type":"Feature","properties":{"osm_way_id":"344898100","amenity":"parking"},"geometry":{"type":"MultiPolygon","coordinates":[[[[-3.56227,54.54053],[-3.56247,54.54062],[-3.5626,54.54052],[-3.56278,54.54042],[-3.56246,54.54026],[-3.56218,54.54047],[-3.5623,54.54052],[-3.56227,54.54053]]]]}},
{ "type":"Feature","properties":{"osm_way_id":"345011314","amenity":"parking"},"geometry":{"type":"MultiPolygon","coordinates":[[[[-3.56262,54.54186],[-3.56254,54.54186],[-3.56257,54.54161],[-3.56277,54.54162],[-3.56274,54.54183],[-3.56262,54.54183],[-3.56262,54.54186]]]]}},
{ "type":"Feature","properties":{"osm_way_id":"345011329","amenity":"parking"},"geometry":{"type":"MultiPolygon","coordinates":[[[[-3.56328,54.54216],[-3.56348,54.54217],[-3.56344,54.54241],[-3.56325,54.5424],[-3.56328,54.54216]]]]}},
{ "type":"Feature","properties":{"osm_way_id":"345013351","amenity":"parking"},"geometry":{"type":"MultiPolygon","coordinates":[[[[-3.56196,54.54252],[-3.56197,54.54242],[-3.56213,54.54243],[-3.56212,54.54252],[-3.56196,54.54252]]]]}},
{ "type":"Feature","properties":{"osm_way_id":"345015975","amenity":"parking"},"geometry":{"type":"MultiPolygon","coordinates":[[[[-3.56387,54.54426],[-3.56369,54.54425],[-3.56377,54.54383],[-3.56393,54.54384],[-3.56392,54.54387],[-3.56409,54.54388],[-3.56406,54.54404],[-3.5639,54.54403],[-3.56387,54.54426]]]]}},
{ "type":"Feature","properties":{"osm_way_id":"345017067","amenity":"parking"},"geometry":{"type":"MultiPolygon","coordinates":[[[[-3.56269,54.54366],[-3.56256,54.54366],[-3.56253,54.54378],[-3.56268,54.54377],[-3.56269,54.54366]]]]}},
{ "type":"Feature","properties":{"osm_way_id":"345017068","amenity":"parking"},"geometry":{"type":"MultiPolygon","coordinates":[[[[-3.56251,54.54397],[-3.56226,54.54396],[-3.56226,54.54388],[-3.56252,54.54387],[-3.56251,54.54397]]]]}},
{ "type":"Feature","properties":{"osm_way_id":"345017069","amenity":"parking"},"geometry":{"type":"MultiPolygon","coordinates":[[[[-3.56259,54.54387],[-3.56258,54.54397],[-3.56268,54.54398],[-3.5627,54.54381],[-3.56268,54.54381],[-3.56259,54.54387]]]]}},
{ "type":"Feature","properties":{"osm_way_id":"357146132","amenity":"parking","other":{"access":"permissive","fee":"yes","operator":"Whitehaven AFC","parking":"surface","surface":"asphalt"}}, "geometry":{"type":"MultiPolygon","coordinates":[[[[-3.58407,54.53888],[-3.5838,54.53865],[-3.58395,54.53859],[-3.58382,54.53849],[-3.58402,54.53841],[-3.58442,54.53873],[-3.58407,54.53888]]]]}},
{ "type":"Feature","properties":{"osm_way_id":"361422335","amenity":"parking"},"geometry":{"type":"MultiPolygon","coordinates":[[[[-3.44198,54.52899],[-3.4421,54.52875],[-3.44189,54.52873],[-3.44188,54.52898],[-3.44198,54.52899]]]]}},
{ "type":"Feature","properties":{"osm_way_id":"370708788","amenity":"parking"},"geometry":{"type":"MultiPolygon","coordinates":[[[[-3.58865,54.48958],[-3.58841,54.48954],[-3.58831,54.48976],[-3.5884,54.48977],[-3.58856,54.48979],[-3.58864,54.4898],[-3.58864,54.48975],[-3.58871,54.48959],[-3.58865,54.48958]]]]}},
{ "type":"Feature","properties":{"osm_way_id":"372137675","amenity":"parking"},"geometry":{"type":"MultiPolygon","coordinates":[[[[-3.56496,54.52834],[-3.56519,54.52882],[-3.56524,54.52881],[-3.56528,54.52881],[-3.5653,54.52884],[-3.56543,54.52883],[-3.5654,54.52875],[-3.56565,54.52873],[-3.56547,54.52827],[-3.56496,54.52834]]]]}},
{ "type":"Feature","properties":{"osm_way_id":"372137679","amenity":"parking"},"geometry":{"type":"MultiPolygon","coordinates":[[[[-3.56254,54.52807],[-3.56228,54.52798],[-3.56239,54.52785],[-3.56279,54.528],[-3.56273,54.52806],[-3.56259,54.52801],[-3.56254,54.52807]]]]}},
{ "type":"Feature","properties":{"osm_way_id":"374831983","amenity":"parking","other":{"parking":"surface"}}, "geometry":{"type":"MultiPolygon","coordinates":[[[[-3.31267,54.20228],[-3.3132,54.2024],[-3.31294,54.20279],[-3.31297,54.2028],[-3.31323,54.2024],[-3.3136,54.20249],[-3.31331,54.20293],[-3.31238,54.20272],[-3.31267,54.20228]]]]}},
{ "type":"Feature","properties":{"osm_way_id":"375502830","amenity":"parking","other":{"capacity":"10","fee":"no","parking":"surface","surface":"unpaved"}}, "geometry":{"type":"MultiPolygon","coordinates":[[[[-3.39445,54.36649],[-3.3948,54.36636],[-3.39485,54.36632],[-3.39475,54.36629],[-3.39439,54.36644],[-3.39445,54.36649]]]]}},
{ "type":"Feature","properties":{"osm_way_id":"375504256","amenity":"parking","other":{"access":"customers","parking":"surface"}}, "geometry":{"type":"MultiPolygon","coordinates":[[[[-3.3578,54.36923],[-3.35787,54.36928],[-3.35815,54.3692],[-3.3581,54.36914],[-3.3578,54.36923]]]]}},
{ "type":"Feature","properties":{"osm_way_id":"375504257","amenity":"parking","other":{"access":"customers","parking":"surface"}}, "geometry":{"type":"MultiPolygon","coordinates":[[[[-3.35636,54.36944],[-3.3564,54.36951],[-3.35729,54.36931],[-3.35722,54.36923],[-3.3569,54.36932],[-3.35636,54.36944]]]]}},
{ "type":"Feature","properties":{"osm_way_id":"375527443","amenity":"parking","other":{"access":"yes","fee":"no","parking":"surface","surface":"asphalt"}}, "geometry":{"type":"MultiPolygon","coordinates":[[[[-3.37746,54.52579],[-3.37736,54.52591],[-3.3772,54.52593],[-3.37706,54.5259],[-3.37683,54.52584],[-3.3765,54.52544],[-3.37658,54.52535],[-3.377,54.52517],[-3.37719,54.52526],[-3.37727,54.52536],[-3.3775,54.52571],[-3.37746,54.52579]]]]}},
{ "type":"Feature","properties":{"osm_way_id":"375737923","amenity":"parking"},"geometry":{"type":"MultiPolygon","coordinates":[[[[-3.26076,54.20652],[-3.26077,54.20649],[-3.26078,54.20641],[-3.26106,54.20642],[-3.26112,54.20647],[-3.26121,54.20653],[-3.26124,54.20671],[-3.26126,54.20702],[-3.26134,54.20703],[-3.26135,54.20711],[-3.26132,54.20726],[-3.26127,54.20732],[-3.2612,54.20732],[-3.26116,54.2073],[-3.26097,54.20706],[-3.26083,54.20678],[-3.26073,54.20673],[-3.26074,54.20667],[-3.26076,54.20652]]]]}},
{ "type":"Feature","properties":{"osm_way_id":"375945319","amenity":"parking","other":{"access":"customers","fee":"no","park_ride":"no","parking":"surface","supervised":"no","surface":"asphalt"}}, "geometry":{"type":"MultiPolygon","coordinates":[[[[-3.52946,54.48305],[-3.52948,54.48282],[-3.52947,54.48277],[-3.52886,54.48275],[-3.52887,54.48288],[-3.52905,54.48298],[-3.52946,54.48305]]]]}},
{ "type":"Feature","properties":{"osm_way_id":"382774005","amenity":"parking"},"geometry":{"type":"MultiPolygon","coordinates":[[[[-3.28966,54.19478],[-3.28962,54.19475],[-3.28972,54.19471],[-3.28956,54.19455],[-3.28961,54.19447],[-3.28972,54.19444],[-3.28986,54.19463],[-3.28966,54.19478]]]]}},
{ "type":"Feature","properties":{"osm_way_id":"382774852","amenity":"parking"},"geometry":{"type":"MultiPolygon","coordinates":[[[[-3.29387,54.19418],[-3.29394,54.19432],[-3.29471,54.1942],[-3.29463,54.19402],[-3.29392,54.19414],[-3.29393,54.19416],[-3.29387,54.19418]]]]}},
{ "type":"Feature","properties":{"osm_way_id":"383732420","amenity":"parking"},"geometry":{"type":"MultiPolygon","coordinates":[[[[-3.51438,54.52132],[-3.51455,54.52137],[-3.51445,54.5215],[-3.51428,54.52145],[-3.51438,54.52132]]]]}},
{ "type":"Feature","properties":{"osm_way_id":"409880506","name":"Ricky's Travel","amenity":"parking"},"geometry":{"type":"MultiPolygon","coordinates":[[[[-3.27156,54.21165],[-3.27166,54.21164],[-3.27168,54.21182],[-3.2716,54.21182],[-3.2716,54.21176],[-3.27156,54.21176],[-3.27156,54.21165]]]]}},
{ "type":"Feature","properties":{"osm_way_id":"418533863","amenity":"parking","other":{"access":"customers","fee":"no","park_ride":"no","parking":"surface","supervised":"no","surface":"asphalt"}}, "geometry":{"type":"MultiPolygon","coordinates":[[[[-3.51762,54.47863],[-3.51778,54.47878],[-3.51807,54.4787],[-3.5179,54.47853],[-3.51762,54.47863]]]]}},
{ "type":"Feature","properties":{"osm_way_id":"418545927","amenity":"parking","other":{"fee":"no","park_ride":"no","parking":"surface","supervised":"no","surface":"unpaved"}}, "geometry":{"type":"MultiPolygon","coordinates":[[[[-3.45692,54.44767],[-3.45711,54.44769],[-3.45724,54.44761],[-3.45717,54.44754],[-3.45702,54.44759],[-3.45692,54.44767]]]]}},
{ "type":"Feature","properties":{"osm_way_id":"420216221","amenity":"parking","other":{"park_ride":"no","parking":"surface","supervised":"no","surface":"unpaved"}}, "geometry":{"type":"MultiPolygon","coordinates":[[[[-3.27768,54.39143],[-3.27773,54.39147],[-3.27783,54.39148],[-3.27791,54.39138],[-3.27782,54.39135],[-3.27772,54.39134],[-3.27765,54.39138],[-3.27768,54.39143]]]]}},
{ "type":"Feature","properties":{"osm_way_id":"429089244","amenity":"parking","other":{"access":"customers","fee":"no","park_ride":"no","parking":"surface","supervised":"no"}}, "geometry":{"type":"MultiPolygon","coordinates":[[[[-3.53225,54.48861],[-3.53242,54.48876],[-3.53276,54.48867],[-3.53263,54.48855],[-3.53239,54.48861],[-3.53236,54.48858],[-3.53225,54.48861]]]]}},
{ "type":"Feature","properties":{"osm_way_id":"429091348","amenity":"parking","other":{"access":"customers","fee":"no","park_ride":"no","parking":"surface","supervised":"no","surface":"asphalt"}}, "geometry":{"type":"MultiPolygon","coordinates":[[[[-3.52667,54.48249],[-3.5268,54.48265],[-3.52689,54.48267],[-3.52704,54.48265],[-3.52701,54.48243],[-3.52684,54.48244],[-3.52667,54.48249]]]]}},
{ "type":"Feature","properties":{"osm_way_id":"429252712","amenity":"parking","other":{"fee":"yes","park_ride":"no","parking":"surface","supervised":"no","surface":"asphalt"}}, "geometry":{"type":"MultiPolygon","coordinates":[[[[-3.52724,54.48155],[-3.52763,54.48152],[-3.52755,54.48122],[-3.52715,54.48126],[-3.52724,54.48155]]]]}},
{ "type":"Feature","properties":{"osm_way_id":"432063546","amenity":"parking"},"geometry":{"type":"MultiPolygon","coordinates":[[[[-3.5991,54.51911],[-3.59913,54.51908],[-3.59923,54.51906],[-3.5992,54.51899],[-3.59851,54.51912],[-3.59853,54.5192],[-3.5991,54.51911]]]]}},
{ "type":"Feature","properties":{"osm_way_id":"436354001","amenity":"parking","other":{"fee":"no","park_ride":"no","parking":"lane","supervised":"no","surface":"unpaved"}}, "geometry":{"type":"MultiPolygon","coordinates":[[[[-3.23534,54.32888],[-3.23524,54.32883],[-3.23516,54.32873],[-3.23512,54.32865],[-3.2351,54.32859],[-3.23512,54.32851],[-3.23534,54.32888]]]]}},
{ "type":"Feature","properties":{"osm_way_id":"450348040","name":"Bunkhouse Parking","amenity":"parking","other":{"access":"private","capacity":"4","surface":"asphalt"}}, "geometry":{"type":"MultiPolygon","coordinates":[[[[-3.27761,54.39402],[-3.27767,54.394],[-3.27768,54.39402],[-3.27777,54.39411],[-3.27775,54.39412],[-3.27767,54.39415],[-3.27754,54.39404],[-3.27761,54.39402]]]]}},
{ "type":"Feature","properties":{"osm_way_id":"456398932","amenity":"parking","other":{"park_ride":"no","parking":"lane","supervised":"no","surface":"cobblestone"}}, "geometry":{"type":"MultiPolygon","coordinates":[[[[-3.59158,54.54849],[-3.59166,54.54846],[-3.5914,54.54822],[-3.59132,54.54824],[-3.59158,54.54849]]]]}},
{ "type":"Feature","properties":{"osm_way_id":"456398941","amenity":"parking","other":{"access":"private","parking":"surface","surface":"asphalt"}}, "geometry":{"type":"MultiPolygon","coordinates":[[[[-3.59011,54.54856],[-3.59021,54.54848],[-3.59033,54.54846],[-3.59052,54.54855],[-3.59049,54.54857],[-3.59036,54.54868],[-3.59011,54.54856]]]]}},
{ "type":"Feature","properties":{"osm_way_id":"456554982","amenity":"parking","other":{"access":"private","parking":"surface","surface":"cobblestone"}}, "geometry":{"type":"MultiPolygon","coordinates":[[[[-3.58817,54.55087],[-3.58833,54.55068],[-3.5881,54.55061],[-3.58802,54.5507],[-3.58815,54.55074],[-3.58807,54.55083],[-3.58817,54.55087]]]]}},
{ "type":"Feature","properties":{"osm_way_id":"456555511","amenity":"parking","other":{"fee":"yes","park_ride":"no","parking":"surface","supervised":"no","surface":"asphalt"}}, "geometry":{"type":"MultiPolygon","coordinates":[[[[-3.588,54.55168],[-3.58867,54.55187],[-3.58862,54.55193],[-3.58879,54.55197],[-3.58885,54.55188],[-3.58894,54.55191],[-3.58901,54.55182],[-3.58809,54.55154],[-3.588,54.55168]]]]}},
{ "type":"Feature","properties":{"osm_way_id":"456555515","name":"North Shore Car Park","amenity":"parking","other":{"fee":"yes","park_ride":"no","parking":"surface","supervised":"no","surface":"asphalt"}}, "geometry":{"type":"MultiPolygon","coordinates":[[[[-3.58993,54.55329],[-3.59004,54.55331],[-3.59041,54.55266],[-3.59028,54.55265],[-3.58993,54.55329]]]]}},
{ "type":"Feature","properties":{"osm_way_id":"456556547","amenity":"parking","other":{"access":"private","park_ride":"no","parking":"surface","supervised":"no","surface":"asphalt"}}, "geometry":{"type":"MultiPolygon","coordinates":[[[[-3.58834,54.5549],[-3.58842,54.55529],[-3.58907,54.55523],[-3.58915,54.55523],[-3.58919,54.55504],[-3.58918,54.55493],[-3.58915,54.55493],[-3.58911,54.5548],[-3.58928,54.55481],[-3.58955,54.5541],[-3.58962,54.55411],[-3.58966,54.55401],[-3.58936,54.55398],[-3.58935,54.554],[-3.58914,54.55454],[-3.58853,54.55448],[-3.58849,54.5546],[-3.58879,54.55464],[-3.58877,54.55473],[-3.58846,54.55475],[-3.58849,54.5549],[-3.58834,54.5549]]]]}},
{ "type":"Feature","properties":{"osm_way_id":"456567812","amenity":"parking","other":{"parking":"surface","surface":"asphalt"}}, "geometry":{"type":"MultiPolygon","coordinates":[[[[-3.58592,54.54798],[-3.58624,54.54811],[-3.58654,54.54787],[-3.58622,54.54773],[-3.58592,54.54798]]]]}},
{ "type":"Feature","properties":{"osm_way_id":"458106038","name":"Carter Lane Car Park","amenity":"parking","other":{"fee":"yes","park_ride":"no","parking":"surface","supervised":"no","surface":"asphalt"}}, "geometry":{"type":"MultiPolygon","coordinates":[[[[-3.58721,54.54688],[-3.58768,54.54708],[-3.58788,54.54692],[-3.5874,54.54672],[-3.58721,54.54688]]]]}},
{ "type":"Feature","properties":{"osm_way_id":"462708990","name":"Lake Head Car Park","amenity":"parking","other":{"access":"yes","fee":"yes","operator":"National Trust","parking":"surface","surface":"compacted"}}, "geometry":{"type":"MultiPolygon","coordinates":[[[[-3.26358,54.45629],[-3.2637,54.45626],[-3.26363,54.4562],[-3.26352,54.45609],[-3.26328,54.45592],[-3.263,54.45584],[-3.26277,54.45578],[-3.26219,54.45566],[-3.26177,54.45557],[-3.26164,54.45556],[-3.26157,54.45558],[-3.26153,54.45563],[-3.26143,54.45574],[-3.26148,54.45578],[-3.26192,54.45591],[-3.2624,54.45603],[-3.26293,54.45619],[-3.26292,54.45625],[-3.26313,54.4563],[-3.26346,54.45644],[-3.26356,54.45637],[-3.26358,54.45629]]]]}},
{ "type":"Feature","properties":{"osm_way_id":"478407901","amenity":"parking"},"geometry":{"type":"MultiPolygon","coordinates":[[[[-3.54904,54.50955],[-3.54885,54.5093],[-3.5491,54.50923],[-3.54934,54.50945],[-3.54904,54.50955]]]]}},
{ "type":"Feature","properties":{"osm_way_id":"484738458","amenity":"parking","other":{"fee":"yes","park_ride":"yes","parking":"lane","supervised":"no","surface":"unpaved"}}, "geometry":{"type":"MultiPolygon","coordinates":[[[[-3.21263,54.3994],[-3.21271,54.39937],[-3.21279,54.39936],[-3.21302,54.39933],[-3.21306,54.39937],[-3.21284,54.39941],[-3.21276,54.39942],[-3.21264,54.39943],[-3.21263,54.3994]]]]}},
{ "type":"Feature","properties":{"osm_way_id":"496727310","amenity":"parking","other":{"access":"private","fee":"no","operator":"Wallabarrow Farm","park_ride":"no","parking":"surface","supervised":"no"}}, "geometry":{"type":"MultiPolygon","coordinates":[[[[-3.2014,54.3564],[-3.2016,54.3565],[-3.20114,54.35666],[-3.20102,54.35655],[-3.20099,54.35653],[-3.20118,54.35649],[-3.20129,54.35645],[-3.2014,54.3564]]]]}},
{ "type":"Feature","properties":{"osm_way_id":"497648310","amenity":"parking","other":{"park_ride":"no","parking":"surface","supervised":"no","surface":"unpaved"}}, "geometry":{"type":"MultiPolygon","coordinates":[[[[-3.40033,54.53236],[-3.4003,54.53243],[-3.40037,54.53252],[-3.40051,54.53254],[-3.40065,54.53253],[-3.40115,54.53238],[-3.40126,54.53231],[-3.40129,54.53224],[-3.40122,54.53212],[-3.40116,54.53211],[-3.40033,54.53236]]]]}},
{ "type":"Feature","properties":{"osm_way_id":"498216988","amenity":"parking","other":{"fee":"no","park_ride":"no","parking":"lane","supervised":"no","surface":"unpaved"}}, "geometry":{"type":"MultiPolygon","coordinates":[[[[-3.30949,54.43774],[-3.30956,54.43778],[-3.30965,54.43778],[-3.30973,54.43773],[-3.30976,54.43768],[-3.30975,54.43761],[-3.30972,54.43756],[-3.30968,54.43752],[-3.30963,54.4375],[-3.30957,54.43749],[-3.30951,54.43763],[-3.30949,54.43774]]]]}},
{ "type":"Feature","properties":{"osm_way_id":"498216994","amenity":"parking","other":{"fee":"no","park_ride":"no","parking":"lane","supervised":"no","surface":"unpaved"}}, "geometry":{"type":"MultiPolygon","coordinates":[[[[-3.31006,54.43703],[-3.31001,54.43699],[-3.31002,54.43693],[-3.31009,54.43687],[-3.3102,54.43687],[-3.31025,54.43691],[-3.31029,54.43694],[-3.31006,54.43703]]]]}},
{ "type":"Feature","properties":{"osm_way_id":"498217003","amenity":"parking","other":{"fee":"no","park_ride":"no","parking":"lane","supervised":"no","surface":"unpaved"}}, "geometry":{"type":"MultiPolygon","coordinates":[[[[-3.31137,54.43621],[-3.31126,54.43619],[-3.31124,54.43612],[-3.31133,54.43611],[-3.31148,54.43613],[-3.31137,54.43621]]]]}},
{ "type":"Feature","properties":{"osm_way_id":"498217007","amenity":"parking","other":{"fee":"no","park_ride":"no","parking":"lane","supervised":"no","surface":"unpaved"}}, "geometry":{"type":"MultiPolygon","coordinates":[[[[-3.31162,54.43572],[-3.31151,54.43572],[-3.31145,54.43569],[-3.31144,54.43564],[-3.31151,54.4356],[-3.31162,54.4356],[-3.31162,54.43572]]]]}},
{ "type":"Feature","properties":{"osm_way_id":"498217011","amenity":"parking","other":{"fee":"no","park_ride":"no","parking":"lane","supervised":"no","surface":"unpaved"}}, "geometry":{"type":"MultiPolygon","coordinates":[[[[-3.31181,54.43534],[-3.31188,54.43535],[-3.31193,54.43533],[-3.31194,54.43529],[-3.3119,54.43527],[-3.31184,54.43526],[-3.31181,54.43534]]]]}},
{ "type":"Feature","properties":{"osm_way_id":"498217013","amenity":"parking","other":{"fee":"yes","park_ride":"no","parking":"lane","supervised":"no","surface":"asphalt"}}, "geometry":{"type":"MultiPolygon","coordinates":[[[[-3.31234,54.43435],[-3.31222,54.43441],[-3.31215,54.43448],[-3.31224,54.43451],[-3.31238,54.43436],[-3.31234,54.43435]]]]}},
{ "type":"Feature","properties":{"osm_way_id":"498217014","amenity":"parking","other":{"fee":"no","park_ride":"no","parking":"lane","supervised":"no","surface":"unpaved"}}, "geometry":{"type":"MultiPolygon","coordinates":[[[[-3.30667,54.43935],[-3.30658,54.43935],[-3.30656,54.4393],[-3.30665,54.43926],[-3.3068,54.43924],[-3.30667,54.43935]]]]}},
{ "type":"Feature","properties":{"osm_way_id":"498217015","amenity":"parking","other":{"park_ride":"no","parking":"lane","supervised":"no","surface":"unpaved"}}, "geometry":{"type":"MultiPolygon","coordinates":[[[[-3.30746,54.43862],[-3.30763,54.43847],[-3.30753,54.43848],[-3.30743,54.43856],[-3.30746,54.43862]]]]}},
{ "type":"Feature","properties":{"osm_way_id":"498236007","amenity":"parking","other":{"fee":"no","park_ride":"no","parking":"lane","supervised":"no","surface":"unpaved"}}, "geometry":{"type":"MultiPolygon","coordinates":[[[[-3.32034,54.43861],[-3.32086,54.43855],[-3.3209,54.43862],[-3.32075,54.43869],[-3.32046,54.43869],[-3.32034,54.43861]]]]}},
{ "type":"Feature","properties":{"osm_way_id":"498593150","amenity":"parking","other":{"fee":"no","park_ride":"no","parking":"surface","supervised":"no","surface":"unpaved"}}, "geometry":{"type":"MultiPolygon","coordinates":[[[[-3.3541,54.39905],[-3.35421,54.39919],[-3.35453,54.39911],[-3.35442,54.39897],[-3.3541,54.39905]]]]}},
{ "type":"Feature","properties":{"osm_way_id":"499848257","amenity":"parking","other":{"fee":"no","park_ride":"no","parking":"lane","supervised":"no","surface":"unpaved"}}, "geometry":{"type":"MultiPolygon","coordinates":[[[[-3.27769,54.36797],[-3.2775,54.368],[-3.27743,54.36808],[-3.27741,54.36816],[-3.27748,54.3682],[-3.2776,54.36809],[-3.27767,54.36805],[-3.27773,54.36799],[-3.27769,54.36797]]]]}},
{ "type":"Feature","properties":{"osm_way_id":"499854561","amenity":"parking","other":{"capacity":"2","fee":"no","park_ride":"yes","parking":"lane","supervised":"no","surface":"unpaved"}}, "geometry":{"type":"MultiPolygon","coordinates":[[[[-3.27899,54.37009],[-3.27911,54.37015],[-3.27914,54.37011],[-3.2791,54.37005],[-3.27903,54.37005],[-3.27899,54.37009]]]]}},
{ "type":"Feature","properties":{"osm_way_id":"500993153","amenity":"parking","other":{"fee":"no","park_ride":"no","parking":"lane","supervised":"no","surface":"unpaved"}}, "geometry":{"type":"MultiPolygon","coordinates":[[[[-3.45113,54.49438],[-3.45149,54.49416],[-3.45147,54.49427],[-3.45156,54.49431],[-3.45152,54.49438],[-3.45136,54.49443],[-3.45113,54.49438]]]]}},
{ "type":"Feature","properties":{"osm_way_id":"503562769","amenity":"parking","other":{"access":"yes","parking":"lane","surface":"grass"}}, "geometry":{"type":"MultiPolygon","coordinates":[[[[-3.31622,54.3986],[-3.31596,54.39895],[-3.31603,54.39899],[-3.31611,54.39897],[-3.31635,54.39863],[-3.31622,54.3986]]]]}},
{ "type":"Feature","properties":{"osm_way_id":"504210606","amenity":"parking","other":{"fee":"no","park_ride":"no","supervised":"no"}}, "geometry":{"type":"MultiPolygon","coordinates":[[[[-3.32809,54.23268],[-3.32824,54.23271],[-3.32832,54.23248],[-3.32813,54.23254],[-3.32809,54.23268]]]]}},
{ "type":"Feature","properties":{"osm_way_id":"505031335","amenity":"parking","other":{"park_ride":"no","parking":"lane","supervised":"no","surface":"unpaved"}}, "geometry":{"type":"MultiPolygon","coordinates":[[[[-3.18482,54.40284],[-3.1848,54.40288],[-3.1848,54.40292],[-3.18485,54.40294],[-3.1849,54.40293],[-3.18495,54.40289],[-3.185,54.40283],[-3.18492,54.40285],[-3.18487,54.40285],[-3.18482,54.40284]]]]}},
{ "type":"Feature","properties":{"osm_way_id":"514697559","amenity":"parking","other":{"access":"customers","fee":"no","park_ride":"no","parking":"surface","supervised":"no","surface":"unpaved"}}, "geometry":{"type":"MultiPolygon","coordinates":[[[[-3.45646,54.55391],[-3.45655,54.55401],[-3.45722,54.55381],[-3.45712,54.55371],[-3.45646,54.55391]]]]}},
{ "type":"Feature","properties":{"osm_way_id":"514697563","amenity":"parking","other":{"access":"customers","fee":"no","park_ride":"no","parking":"surface","supervised":"no","surface":"asphalt"}}, "geometry":{"type":"MultiPolygon","coordinates":[[[[-3.45581,54.55391],[-3.45605,54.55417],[-3.456,54.55418],[-3.45576,54.55423],[-3.45566,54.55422],[-3.45556,54.5541],[-3.4556,54.55406],[-3.45558,54.55402],[-3.45575,54.55396],[-3.45573,54.55393],[-3.45581,54.55391]]]]}},
{ "type":"Feature","properties":{"osm_way_id":"514697567","amenity":"parking","other":{"access":"customers","fee":"no","park_ride":"no","parking":"surface","supervised":"no","surface":"asphalt"}}, "geometry":{"type":"MultiPolygon","coordinates":[[[[-3.45613,54.55348],[-3.45621,54.55358],[-3.45611,54.55361],[-3.45625,54.55376],[-3.45629,54.55375],[-3.45641,54.55389],[-3.45706,54.55371],[-3.45679,54.55345],[-3.45692,54.55342],[-3.45685,54.55335],[-3.45613,54.55348]]]]}},
{ "type":"Feature","properties":{"osm_way_id":"514697570","amenity":"parking","other":{"access":"customers","fee":"no","park_ride":"no","parking":"surface","supervised":"no","surface":"asphalt"}}, "geometry":{"type":"MultiPolygon","coordinates":[[[[-3.45453,54.55426],[-3.45473,54.55449],[-3.45528,54.55435],[-3.45484,54.55418],[-3.45453,54.55426]]]]}},
{ "type":"Feature","properties":{"osm_way_id":"534471678","amenity":"parking","other":{"access":"customers","park_ride":"no","parking":"surface","supervised":"no","surface":"asphalt"}}, "geometry":{"type":"MultiPolygon","coordinates":[[[[-3.54295,54.51448],[-3.54378,54.51456],[-3.54386,54.51425],[-3.54362,54.51423],[-3.54356,54.51445],[-3.54297,54.5144],[-3.54295,54.51448]]]]}},
{ "type":"Feature","properties":{"osm_way_id":"534471680","amenity":"parking","other":{"parking":"surface","surface":"asphalt"}}, "geometry":{"type":"MultiPolygon","coordinates":[[[[-3.54202,54.51407],[-3.54197,54.51427],[-3.54232,54.51431],[-3.54237,54.5141],[-3.54202,54.51407]]]]}},
{ "type":"Feature","properties":{"osm_way_id":"534485170","amenity":"parking","other":{"parking":"surface","surface":"asphalt"}}, "geometry":{"type":"MultiPolygon","coordinates":[[[[-3.53721,54.52686],[-3.53726,54.52703],[-3.53698,54.52706],[-3.53697,54.52701],[-3.53705,54.527],[-3.53702,54.52688],[-3.53721,54.52686]]]]}},
{ "type":"Feature","properties":{"osm_way_id":"536095211","amenity":"parking","other":{"fee":"no","park_ride":"no","parking":"lane","supervised":"no","surface":"unpaved"}}, "geometry":{"type":"MultiPolygon","coordinates":[[[[-3.4587,54.52828],[-3.45914,54.52824],[-3.45908,54.52828],[-3.45899,54.5283],[-3.45885,54.5283],[-3.45878,54.52829],[-3.4587,54.52828]]]]}},
{ "type":"Feature","properties":{"osm_way_id":"547615971","amenity":"parking","other":{"parking":"lane","surface":"unpaved"}}, "geometry":{"type":"MultiPolygon","coordinates":[[[[-3.53191,54.43962],[-3.53193,54.43959],[-3.53163,54.43953],[-3.53162,54.43957],[-3.53191,54.43962]]]]}},
{ "type":"Feature","properties":{"osm_way_id":"552473617","amenity":"parking"},"geometry":{"type":"MultiPolygon","coordinates":[[[[-3.52738,54.48019],[-3.52716,54.48022],[-3.52713,54.48011],[-3.52711,54.48005],[-3.52733,54.48003],[-3.52738,54.48019]]]]}},
{ "type":"Feature","properties":{"osm_way_id":"580885832","amenity":"parking","other":{"fee":"no","park_ride":"no","parking":"lane","supervised":"no","surface":"unpaved"}}, "geometry":{"type":"MultiPolygon","coordinates":[[[[-3.29528,54.44713],[-3.29537,54.44719],[-3.29542,54.44721],[-3.29548,54.44721],[-3.29552,54.4472],[-3.29553,54.44716],[-3.29553,54.44714],[-3.2955,54.44709],[-3.29537,54.44711],[-3.29528,54.44713]]]]}},
{ "type":"Feature","properties":{"osm_way_id":"601214960","amenity":"parking","other":{"fee":"no","parking":"lane","surface":"unpaved"}}, "geometry":{"type":"MultiPolygon","coordinates":[[[[-3.22003,54.39862],[-3.22079,54.39832],[-3.22059,54.39832],[-3.2205,54.39835],[-3.22012,54.3985],[-3.21994,54.39858],[-3.22003,54.39862]]]]}},
{ "type":"Feature","properties":{"osm_way_id":"603463668","amenity":"parking","other":{"access":"private"}}, "geometry":{"type":"MultiPolygon","coordinates":[[[[-3.50539,54.42616],[-3.50553,54.42612],[-3.50561,54.42622],[-3.5048,54.42644],[-3.50482,54.42647],[-3.50445,54.42657],[-3.50426,54.42655],[-3.5042,54.42648],[-3.5038,54.42659],[-3.50369,54.42645],[-3.50396,54.42638],[-3.50391,54.42631],[-3.50389,54.42629],[-3.50397,54.42627],[-3.50393,54.42621],[-3.50431,54.42611],[-3.50451,54.42636],[-3.50525,54.42616],[-3.50527,54.42619],[-3.50539,54.42616]]]]}},
{ "type":"Feature","properties":{"osm_way_id":"603463694","amenity":"parking","other":{"access":"private"}}, "geometry":{"type":"MultiPolygon","coordinates":[[[[-3.50442,54.42563],[-3.5045,54.42561],[-3.50481,54.42552],[-3.50461,54.42527],[-3.50422,54.42537],[-3.50425,54.42541],[-3.50442,54.42563]]]]}},
{ "type":"Feature","properties":{"osm_way_id":"603463698","amenity":"parking","other":{"access":"private"}}, "geometry":{"type":"MultiPolygon","coordinates":[[[[-3.50127,54.42467],[-3.50101,54.42459],[-3.50034,54.42534],[-3.5006,54.42542],[-3.50127,54.42467]]]]}},
{ "type":"Feature","properties":{"osm_way_id":"661199020","amenity":"parking"},"geometry":{"type":"MultiPolygon","coordinates":[[[[-3.49245,54.43284],[-3.49244,54.43244],[-3.49168,54.43242],[-3.49167,54.43257],[-3.49156,54.43257],[-3.49156,54.43282],[-3.49245,54.43284]]]]}},
{ "type":"Feature","properties":{"osm_way_id":"669797126","amenity":"parking","other":{"fee":"no","parking":"surface","surface":"gravel"}}, "geometry":{"type":"MultiPolygon","coordinates":[[[[-3.58945,54.54956],[-3.5891,54.54941],[-3.58961,54.549],[-3.58998,54.54916],[-3.58945,54.54956]]]]}},
{ "type":"Feature","properties":{"osm_way_id":"692421102","amenity":"parking","other":{"access":"yes","capacity":"3","fee":"no","parking":"surface","surface":"unpaved"}}, "geometry":{"type":"MultiPolygon","coordinates":[[[[-3.44951,54.50786],[-3.44952,54.50788],[-3.44943,54.50792],[-3.44948,54.50796],[-3.44953,54.50798],[-3.44956,54.50795],[-3.44955,54.50793],[-3.44957,54.50791],[-3.44958,54.50791],[-3.44957,54.50789],[-3.44951,54.50786]]]]}},
{ "type":"Feature","properties":{"osm_way_id":"696905756","amenity":"parking"},"geometry":{"type":"MultiPolygon","coordinates":[[[[-3.4942,54.43216],[-3.49414,54.43208],[-3.49403,54.4321],[-3.49408,54.43218],[-3.4942,54.43216]]]]}},
{ "type":"Feature","properties":{"osm_way_id":"699717348","amenity":"parking","other":{"access":"permissive","parking":"surface"}}, "geometry":{"type":"MultiPolygon","coordinates":[[[[-3.43513,54.54896],[-3.43489,54.54896],[-3.4348,54.54895],[-3.43486,54.54881],[-3.43498,54.54887],[-3.43513,54.54896]]]]}},
{ "type":"Feature","properties":{"osm_way_id":"727250963","amenity":"parking","other":{"access":"customers","operator":"Lamberlea Garden Centre","parking":"surface"}}, "geometry":{"type":"MultiPolygon","coordinates":[[[[-3.55524,54.45844],[-3.55531,54.45837],[-3.55546,54.45832],[-3.55564,54.45832],[-3.5557,54.45833],[-3.55574,54.45839],[-3.55569,54.45846],[-3.55557,54.45851],[-3.55562,54.45856],[-3.55549,54.45865],[-3.55524,54.45844]]]]}},
{ "type":"Feature","properties":{"osm_way_id":"768772144","amenity":"parking","other":{"access":"yes","capacity":"6","fee":"no","parking":"lane","surface":"unpaved"}}, "geometry":{"type":"MultiPolygon","coordinates":[[[[-3.41367,54.55197],[-3.41363,54.55198],[-3.41378,54.55218],[-3.41383,54.55217],[-3.41367,54.55197]]]]}},
{ "type":"Feature","properties":{"osm_way_id":"769239120","amenity":"parking","other":{"access":"yes","capacity":"2","fee":"no","parking":"lane","surface":"unpaved"}}, "geometry":{"type":"MultiPolygon","coordinates":[[[[-3.31499,54.43168],[-3.31507,54.43167],[-3.3151,54.43163],[-3.31499,54.43162],[-3.31499,54.43168]]]]}},
{ "type":"Feature","properties":{"osm_way_id":"825987852","amenity":"parking","other":{"access":"yes","capacity":"5","fee":"no","parking":"surface","surface":"ground"}}, "geometry":{"type":"MultiPolygon","coordinates":[[[[-3.2348,54.28426],[-3.23514,54.28414],[-3.23502,54.28404],[-3.2347,54.28417],[-3.2348,54.28426]]]]}},
{ "type":"Feature","properties":{"osm_way_id":"841006312","amenity":"parking"},"geometry":{"type":"MultiPolygon","coordinates":[[[[-3.53025,54.48365],[-3.52973,54.48366],[-3.52972,54.4832],[-3.53023,54.48319],[-3.53025,54.48365]]]]}},
{ "type":"Feature","properties":{"osm_way_id":"842799461","amenity":"parking"},"geometry":{"type":"MultiPolygon","coordinates":[[[[-0.83582,51.81758],[-0.8358,51.81759],[-0.83568,51.81737],[-0.83562,51.8174],[-0.83561,51.81742],[-0.8356,51.81758],[-0.83561,51.8176],[-0.83566,51.81762],[-0.83574,51.81766],[-0.83588,51.81767],[-0.83599,51.81763],[-0.83612,51.81765],[-0.83617,51.81772],[-0.83621,51.81769],[-0.83625,51.8177],[-0.83633,51.81772],[-0.83641,51.81767],[-0.83652,51.81768],[-0.83668,51.81767],[-0.83674,51.81762],[-0.83689,51.81762],[-0.83692,51.81757],[-0.83705,51.81753],[-0.83717,51.81749],[-0.83726,51.81744],[-0.83741,51.81743],[-0.83755,51.81746],[-0.83764,51.81745],[-0.83763,51.81721],[-0.83763,51.81719],[-0.83737,51.81718],[-0.83725,51.81718],[-0.83724,51.81718],[-0.83698,51.81716],[-0.83695,51.81718],[-0.83688,51.8176],[-0.83664,51.81758],[-0.83664,51.81756],[-0.83652,51.81756],[-0.8365,51.81762],[-0.83626,51.81761],[-0.83634,51.81713],[-0.83633,51.81711],[-0.83624,51.8171],[-0.83618,51.8171],[-0.83613,51.8171],[-0.83579,51.8172],[-0.83586,51.81728],[-0.8359,51.81728],[-0.83594,51.81733],[-0.83598,51.81737],[-0.83602,51.81742],[-0.83609,51.81751],[-0.83597,51.81755],[-0.83596,51.81753],[-0.83589,51.81756],[-0.83584,51.81757],[-0.83582,51.81758]]]]}},
{ "type":"Feature","properties":{"osm_way_id":"858050224","amenity":"parking","other":{"access":"customers"}}, "geometry":{"type":"MultiPolygon","coordinates":[[[[-3.35357,54.42501],[-3.35369,54.42514],[-3.35343,54.42527],[-3.35325,54.42517],[-3.35336,54.42512],[-3.3535,54.42495],[-3.35357,54.42501]]]]}},
{ "type":"Feature","properties":{"osm_way_id":"858246330","amenity":"parking","other":{"access":"customers"}}, "geometry":{"type":"MultiPolygon","coordinates":[[[[-3.3445,54.42198],[-3.34438,54.42187],[-3.34416,54.42195],[-3.3439,54.42195],[-3.34383,54.4219],[-3.34369,54.42196],[-3.34372,54.42198],[-3.34364,54.42201],[-3.34368,54.42208],[-3.34386,54.42224],[-3.34388,54.42223],[-3.34393,54.42221],[-3.3445,54.42198]]]]}},
{ "type":"Feature","properties":{"osm_way_id":"859299301","amenity":"parking","other":{"access":"private","fee":"no","parking":"surface"}}, "geometry":{"type":"MultiPolygon","coordinates":[[[[-3.32105,54.43848],[-3.3208,54.4385],[-3.3207,54.43841],[-3.32068,54.43832],[-3.32164,54.43824],[-3.32164,54.43843],[-3.32141,54.43844],[-3.32118,54.43846],[-3.32105,54.43848]]]]}},
{ "type":"Feature","properties":{"osm_way_id":"877520563","amenity":"parking"},"geometry":{"type":"MultiPolygon","coordinates":[[[[-3.591,54.54576],[-3.59116,54.5456],[-3.59114,54.54545],[-3.59113,54.54542],[-3.5911,54.54525],[-3.59097,54.54526],[-3.59102,54.54544],[-3.59083,54.54546],[-3.59088,54.54568],[-3.59093,54.5457],[-3.59095,54.54577],[-3.591,54.54576]]]]}},
{ "type":"Feature","properties":{"osm_way_id":"877528784","amenity":"parking"},"geometry":{"type":"MultiPolygon","coordinates":[[[[-3.58688,54.54494],[-3.58687,54.54489],[-3.58686,54.54484],[-3.58661,54.54485],[-3.58661,54.54488],[-3.58645,54.54488],[-3.58642,54.54466],[-3.58609,54.54466],[-3.58614,54.54497],[-3.58688,54.54494]]]]}},
{ "type":"Feature","properties":{"osm_way_id":"909182310","amenity":"parking"},"geometry":{"type":"MultiPolygon","coordinates":[[[[-3.48604,54.43717],[-3.48613,54.43691],[-3.48534,54.43682],[-3.48525,54.43708],[-3.48604,54.43717]]]]}},
{ "type":"Feature","properties":{"osm_way_id":"912684393","amenity":"parking","other":{"operator":"Harbour Lights Caravan Site","operator:type":"public","parking":"surface"}}, "geometry":{"type":"MultiPolygon","coordinates":[[[[-3.28238,54.19834],[-3.28227,54.19806],[-3.28218,54.19802],[-3.28204,54.19839],[-3.2821,54.19839],[-3.28228,54.19836],[-3.28238,54.19834]]]]}},
{ "type":"Feature","properties":{"osm_way_id":"912685795","amenity":"parking","other":{"capacity":"4","operator":"Butterflowers"}}, "geometry":{"type":"MultiPolygon","coordinates":[[[[-3.29078,54.19538],[-3.29064,54.19534],[-3.29068,54.19529],[-3.29082,54.19533],[-3.29078,54.19538]]]]}},
{ "type":"Feature","properties":{"osm_way_id":"931927588","natural":"bare_rock"},"geometry":{"type":"MultiPolygon","coordinates":[[[[-3.24463,54.38998],[-3.24452,54.38999],[-3.24453,54.39002],[-3.2446,54.39002],[-3.24464,54.38999],[-3.24463,54.38998]]]]}},
{ "type":"Feature","properties":{"osm_way_id":"949444682","amenity":"parking","other":{"access":"customers","operator":"Silecroft Golf Club"}}, "geometry":{"type":"MultiPolygon","coordinates":[[[[-3.34668,54.21501],[-3.34645,54.21509],[-3.34632,54.21514],[-3.34602,54.21498],[-3.34632,54.21479],[-3.34637,54.21482],[-3.34645,54.21477],[-3.34668,54.21501]]]]}},
{ "type":"Feature","properties":{"osm_way_id":"949444727","amenity":"parking","other":{"access":"private"}}, "geometry":{"type":"MultiPolygon","coordinates":[[[[-3.34705,54.21833],[-3.34723,54.21848],[-3.34707,54.21863],[-3.34675,54.21853],[-3.34672,54.21852],[-3.34683,54.21845],[-3.34705,54.21833]]]]}},
{ "type":"Feature","properties":{"osm_way_id":"956914518","amenity":"parking","other":{"access":"yes","fee":"no","parking":"street_side"}}, "geometry":{"type":"MultiPolygon","coordinates":[[[[-3.46521,54.37315],[-3.46526,54.37319],[-3.46588,54.37309],[-3.46583,54.37301],[-3.46521,54.37315]]]]}},
{ "type":"Feature","properties":{"osm_way_id":"958001811","amenity":"parking"},"geometry":{"type":"MultiPolygon","coordinates":[[[[-2.29057,53.48247],[-2.29061,53.48246],[-2.29062,53.4824],[-2.29063,53.48235],[-2.29064,53.4823],[-2.29065,53.48224],[-2.29066,53.48219],[-2.29067,53.48214],[-2.29064,53.48211],[-2.29064,53.48213],[-2.29063,53.48219],[-2.29062,53.48224],[-2.29061,53.4823],[-2.2906,53.48235],[-2.29059,53.4824],[-2.29058,53.48246],[-2.29057,53.48247]]]]}},
{ "type":"Feature","properties":{"osm_way_id":"958003201","amenity":"parking"},"geometry":{"type":"MultiPolygon","coordinates":[[[[-2.29051,53.48213],[-2.29055,53.4821],[-2.29054,53.48213],[-2.29054,53.48218],[-2.29053,53.48223],[-2.29052,53.48229],[-2.29051,53.48234],[-2.2905,53.48239],[-2.29049,53.48241],[-2.29046,53.48239],[-2.29047,53.48234],[-2.29048,53.48228],[-2.29049,53.48223],[-2.2905,53.48218],[-2.29051,53.48213]]]]}},
{ "type":"Feature","properties":{"osm_way_id":"962544846","amenity":"parking"},"geometry":{"type":"MultiPolygon","coordinates":[[[[-3.31194,54.2022],[-3.31229,54.20225],[-3.31203,54.20263],[-3.3117,54.20256],[-3.31194,54.2022]]]]}},
{ "type":"Feature","properties":{"osm_way_id":"970105533","amenity":"parking","other":{"access":"private","parking":"surface"}}, "geometry":{"type":"MultiPolygon","coordinates":[[[[-3.58987,54.52328],[-3.59003,54.52335],[-3.58974,54.52357],[-3.58959,54.5235],[-3.58987,54.52328]]]]}},
{ "type":"Feature","properties":{"osm_way_id":"970105536","amenity":"parking","other":{"access":"private","parking":"surface"}}, "geometry":{"type":"MultiPolygon","coordinates":[[[[-3.58886,54.52321],[-3.58869,54.52319],[-3.58872,54.52313],[-3.58873,54.52301],[-3.58878,54.52287],[-3.58883,54.52287],[-3.58899,54.52289],[-3.58886,54.52321]]]]}},
{ "type":"Feature","properties":{"osm_way_id":"970105537","amenity":"parking","other":{"access":"private","parking":"surface"}}, "geometry":{"type":"MultiPolygon","coordinates":[[[[-3.5885,54.52351],[-3.58842,54.52347],[-3.58874,54.52324],[-3.58881,54.52327],[-3.5885,54.52351]]]]}},
{ "type":"Feature","properties":{"osm_way_id":"970105561","amenity":"parking","other":{"access":"private","parking":"surface"}}, "geometry":{"type":"MultiPolygon","coordinates":[[[[-3.58927,54.5241],[-3.58926,54.52414],[-3.58923,54.52415],[-3.58922,54.5242],[-3.58904,54.52418],[-3.58906,54.52413],[-3.58905,54.52411],[-3.58874,54.52407],[-3.58875,54.52402],[-3.58879,54.52401],[-3.5888,54.52398],[-3.58905,54.52401],[-3.58903,54.52407],[-3.58927,54.5241]]]]}},
{ "type":"Feature","properties":{"osm_way_id":"970105569","amenity":"parking","other":{"access":"private","parking":"surface"}}, "geometry":{"type":"MultiPolygon","coordinates":[[[[-3.58832,54.52391],[-3.58829,54.52399],[-3.5882,54.52398],[-3.58821,54.52395],[-3.58815,54.52395],[-3.58812,54.52394],[-3.58814,54.52388],[-3.58814,54.52385],[-3.58819,54.52385],[-3.58822,54.52375],[-3.58831,54.52376],[-3.58828,54.52386],[-3.58833,54.52387],[-3.58832,54.52391]]]]}},
{ "type":"Feature","properties":{"osm_way_id":"970105587","amenity":"parking","other":{"access":"private","parking":"surface"}}, "geometry":{"type":"MultiPolygon","coordinates":[[[[-3.58829,54.5246],[-3.58808,54.52458],[-3.58814,54.52442],[-3.58819,54.52441],[-3.58838,54.52443],[-3.58834,54.52456],[-3.58829,54.5246]]]]}},
{ "type":"Feature","properties":{"osm_way_id":"970666869","amenity":"parking"},"geometry":{"type":"MultiPolygon","coordinates":[[[[-3.26302,54.21179],[-3.26257,54.21173],[-3.26263,54.21156],[-3.26309,54.21161],[-3.26302,54.21179]]]]}},
{ "type":"Feature","properties":{"osm_way_id":"970696647","amenity":"parking"},"geometry":{"type":"MultiPolygon","coordinates":[[[[-3.27144,54.21159],[-3.27143,54.2114],[-3.27118,54.21159],[-3.27144,54.21159]]]]}},
{ "type":"Feature","properties":{"osm_way_id":"970696648","amenity":"parking"},"geometry":{"type":"MultiPolygon","coordinates":[[[[-3.27118,54.21159],[-3.27105,54.21153],[-3.27097,54.2116],[-3.27118,54.21159]]]]}},
{ "type":"Feature","properties":{"osm_way_id":"970696649","amenity":"parking"},"geometry":{"type":"MultiPolygon","coordinates":[[[[-3.27096,54.21159],[-3.271,54.21156],[-3.27087,54.2115],[-3.27075,54.21159],[-3.27096,54.21159]]]]}},
{ "type":"Feature","properties":{"osm_way_id":"977974045","amenity":"parking"},"geometry":{"type":"MultiPolygon","coordinates":[[[[-1.48544,53.66476],[-1.48532,53.66472],[-1.48522,53.66481],[-1.48558,53.66494],[-1.48567,53.66498],[-1.48555,53.66471],[-1.48555,53.66471],[-1.48554,53.66472],[-1.48553,53.66471],[-1.48549,53.66475],[-1.48544,53.66476]]]]}},
{ "type":"Feature","properties":{"osm_way_id":"991958470","amenity":"parking"},"geometry":{"type":"MultiPolygon","coordinates":[[[[-3.38086,54.35556],[-3.38067,54.35569],[-3.38099,54.35588],[-3.38121,54.35573],[-3.38086,54.35556]]]]}},
{ "type":"Feature","properties":{"osm_way_id":"1014322330","amenity":"parking"},"geometry":{"type":"MultiPolygon","coordinates":[[[[-3.53274,54.48537],[-3.53245,54.48537],[-3.53245,54.48532],[-3.53274,54.48532],[-3.53274,54.48537]]]]}},
{ "type":"Feature","properties":{"osm_way_id":"1025017948","amenity":"parking"},"geometry":{"type":"MultiPolygon","coordinates":[[[[-3.58675,54.54133],[-3.58698,54.54128],[-3.58686,54.54107],[-3.58654,54.54057],[-3.58647,54.54045],[-3.58665,54.54041],[-3.58672,54.54037],[-3.58668,54.54035],[-3.58633,54.54011],[-3.58627,54.54013],[-3.58625,54.5401],[-3.58584,54.53975],[-3.58555,54.53987],[-3.58586,54.53997],[-3.58592,54.53995],[-3.586,54.54],[-3.58619,54.54018],[-3.58632,54.54036],[-3.58636,54.54042],[-3.58625,54.54044],[-3.58657,54.54098],[-3.58656,54.54102],[-3.58675,54.54133]]]]}},
{ "type":"Feature","properties":{"osm_way_id":"1028891274","amenity":"parking","other":{"access":"yes","fee":"no","parking":"lane","surface":"ground"}}, "geometry":{"type":"MultiPolygon","coordinates":[[[[-3.30788,54.2952],[-3.30808,54.29527],[-3.30811,54.29524],[-3.30811,54.29522],[-3.30811,54.29521],[-3.30808,54.29518],[-3.30803,54.29517],[-3.30799,54.29516],[-3.30796,54.29516],[-3.30793,54.29517],[-3.30788,54.2952]]]]}},
{ "type":"Feature","properties":{"osm_way_id":"1031693527","amenity":"parking","other":{"access":"yes","fee":"no","parking":"surface","surface":"asphalt"}}, "geometry":{"type":"MultiPolygon","coordinates":[[[[-3.41683,54.38289],[-3.41687,54.38284],[-3.41694,54.38287],[-3.41744,54.38302],[-3.41743,54.38304],[-3.41741,54.38307],[-3.41738,54.38309],[-3.41732,54.3831],[-3.41727,54.38309],[-3.41719,54.38306],[-3.41717,54.38304],[-3.41717,54.38302],[-3.41683,54.38289]]]]}}
]
}
