{
"type": "FeatureCollection",
"features": [
{ "type":"Feature","properties":{"osm_id":"1431146697","name":"The Co-operative Food","other":{"addr:city":"Dronfield","addr:housenumber":"43","addr:postcode":"S18 8ZQ","addr:street":"Pentland Road","addr:village":"Dronfield Woodhouse","brand":"The Co-operative Food","brand:wikidata":"Q107617274","fhrs:id":"351380","operator":"Central England Co-operative Society","shop":"supermarket"}}, "geometry":{"type":"Point","coordinates":[-1.49462,53.30047 ]}},
{ "type":"Feature","properties":{"osm_id":"7020802470","other":{"defibrillator:location":"On outside wall.","emergency":"defibrillator","opening_hours":"24\/7"}}, "geometry":{"type":"Point","coordinates":[-1.32589,53.2954 ]}},
{ "type":"Feature","properties":{"osm_id":"8528322127","other":{"defibrillator:location":"On outside wall.","emergency":"defibrillator","opening_hours":"24\/7"}}, "geometry":{"type":"Point","coordinates":[-1.35781,53.30962 ]}},
{ "type":"Feature","properties":{"osm_way_id":"97165999","name":"Tesco Extra","building":"yes","shop":"supermarket","other":{"brand":"Tesco Extra","brand:wikidata":"Q25172225","brand:wikipedia":"en:Tesco Extra","opening_hours":"Mo-Sa 06:00-24:00; Su 10:00-16:00","wheelchair":"yes"}}, "geometry":{"type":"MultiPolygon","coordinates":[[[[-1.41069,53.16888],[-1.41039,53.16881],[-1.41023,53.16878],[-1.41025,53.16875],[-1.41005,53.16871],[-1.41003,53.16873],[-1.40921,53.16855],[-1.40915,53.16854],[-1.40912,53.16858],[-1.409,53.16856],[-1.40893,53.16864],[-1.40868,53.16908],[-1.41028,53.16945],[-1.41034,53.16938],[-1.41051,53.16912],[-1.41069,53.16888]]]]}},
{ "type":"Feature","properties":{"osm_way_id":"98670425","name":"The Co-operative Food","building":"yes","shop":"supermarket","other":{"operator":"Central England Co-operative Society"}}, "geometry":{"type":"MultiPolygon","coordinates":[[[[-1.3846,53.1828],[-1.38534,53.18289],[-1.38541,53.18269],[-1.38466,53.1826],[-1.3846,53.1828]]]]}},
{ "type":"Feature","properties":{"osm_way_id":"286520387","name":"Sainsbury's","building":"yes","shop":"supermarket","other":{"addr:city":"Dronfield","addr:postcode":"S18 1NW","addr:street":"Wreakes Lane","brand":"Sainsbury's","brand:wikidata":"Q152096","brand:wikipedia":"en:Sainsbury's","opening_hours":"Mo-Sa 08:00-22:00","operator":"Sainsbury's","phone":"+441246290329"}}, "geometry":{"type":"MultiPolygon","coordinates":[[[[-1.47665,53.30401],[-1.47657,53.30391],[-1.47627,53.30349],[-1.47559,53.30366],[-1.47552,53.30368],[-1.47579,53.30405],[-1.47637,53.30391],[-1.47648,53.30406],[-1.47665,53.30401]]]]}},
{ "type":"Feature","properties":{"osm_way_id":"332164412","name":"The Co-operative Food","building":"yes","shop":"supermarket","other":{"addr:city":"Eckington","addr:postcode":"S21 4EX","addr:street":"Pinfold Street","fhrs:id":"351387","operator":"Central England Co-operative"}}, "geometry":{"type":"MultiPolygon","coordinates":[[[[-1.3579,53.30927],[-1.35815,53.30945],[-1.35781,53.30962],[-1.35766,53.3097],[-1.35741,53.30951],[-1.3579,53.30927]]]]}},
{ "type":"Feature","properties":{"osm_way_id":"358627571","name":"The Co-operative Food","building":"yes","shop":"supermarket","other":{"addr:city":"Killamarsh","addr:housenumber":"53","addr:postcode":"S21 1AL","addr:street":"Bridge Street","fhrs:id":"351251","operator":"The Co-operative Group"}}, "geometry":{"type":"MultiPolygon","coordinates":[[[[-1.31667,53.32384],[-1.31689,53.32402],[-1.31648,53.32421],[-1.3164,53.32414],[-1.31634,53.32417],[-1.3162,53.32406],[-1.31667,53.32384]]]]}},
{ "type":"Feature","properties":{"osm_way_id":"396235629","name":"Job Lot","building":"yes","shop":"supermarket"},"geometry":{"type":"MultiPolygon","coordinates":[[[[-1.35976,53.30816],[-1.36002,53.30803],[-1.35981,53.30786],[-1.35954,53.30801],[-1.35976,53.30816]]]]}},
{ "type":"Feature","properties":{"osm_way_id":"412027691","name":"The Co-operative Food","building":"yes","shop":"supermarket","other":{"addr:city":"Dronfield","addr:housenumber":"84","addr:postcode":"S18 2LF","addr:street":"Hartington Road","fhrs:id":"351598","operator":"The Co-operative Group"}}, "geometry":{"type":"MultiPolygon","coordinates":[[[[-1.46859,53.30527],[-1.46865,53.30523],[-1.46865,53.30513],[-1.46825,53.30512],[-1.46824,53.30527],[-1.46859,53.30527]]]]}},
{ "type":"Feature","properties":{"osm_way_id":"508491368","name":"Aldi","building":"yes","shop":"supermarket","other":{"brand":"ALDI","brand:wikidata":"Q41171672","brand:wikipedia":"en:Aldi","opening_hours":"Mo-Sa 08:00-22:00; Su 10:00-16:00"}}, "geometry":{"type":"MultiPolygon","coordinates":[[[[-1.41578,53.16792],[-1.41541,53.16791],[-1.41541,53.16788],[-1.41522,53.16787],[-1.41522,53.16791],[-1.41519,53.16791],[-1.41519,53.16819],[-1.41528,53.16819],[-1.41527,53.16844],[-1.41568,53.16844],[-1.41578,53.16844],[-1.41578,53.16823],[-1.41577,53.16823],[-1.41578,53.16792]]]]}},
{ "type":"Feature","properties":{"osm_way_id":"680537039","name":"ALDI","building":"yes","shop":"supermarket","other":{"addr:city":"Dronfield","addr:postcode":"S18 2GG","addr:street":"Sheffield Road","brand":"ALDI","brand:wikidata":"Q41171672","brand:wikipedia":"en:Aldi","fhrs:id":"664193"}}, "geometry":{"type":"MultiPolygon","coordinates":[[[[-1.47552,53.30561],[-1.47521,53.30572],[-1.47476,53.30531],[-1.47506,53.30519],[-1.47533,53.30545],[-1.47544,53.30541],[-1.47552,53.30549],[-1.47543,53.30552],[-1.47552,53.30561]]]]}},
{ "type":"Feature","properties":{"osm_way_id":"680548259","name":"Aldi","building":"yes","shop":"supermarket","other":{"addr:city":"Killamarsh","addr:housenumber":"7","addr:postcode":"S21 1FY","addr:street":"Parkside Shopping Centre","brand":"ALDI","brand:wikidata":"Q41171672","brand:wikipedia":"en:Aldi","fhrs:id":"510490"}}, "geometry":{"type":"MultiPolygon","coordinates":[[[[-1.31675,53.32468],[-1.31637,53.32486],[-1.31633,53.32483],[-1.31637,53.32481],[-1.31599,53.32451],[-1.31626,53.32438],[-1.31646,53.32453],[-1.31652,53.3245],[-1.31653,53.32451],[-1.31671,53.32465],[-1.31675,53.32468]]]]}},
{ "type":"Feature","properties":{"osm_way_id":"750949354","name":"Co-operative","building":"yes","shop":"supermarket"},"geometry":{"type":"MultiPolygon","coordinates":[[[[-1.32589,53.29541],[-1.32602,53.29542],[-1.32602,53.29541],[-1.32629,53.29543],[-1.32633,53.29528],[-1.32631,53.29528],[-1.32634,53.2952],[-1.32609,53.29518],[-1.32607,53.29526],[-1.32604,53.29526],[-1.32604,53.29529],[-1.32593,53.29527],[-1.32589,53.2954],[-1.32589,53.29541]]]]}}
]
}
