{
"type": "FeatureCollection",
"features": [
{ "type":"Feature","properties":{"osm_way_id":"4904342","building":"warehouse","other":{"addr:city":"Bristol","addr:postcode":"BS10 7TR","addr:street":"Lysander Road","old_addr:postcode":"BS10 7DD","old_name":"The Range Distribution Centre"}}, "geometry":{"type":"MultiPolygon","coordinates":[[[[-2.61306,51.52475],[-2.61313,51.52472],[-2.61319,51.52478],[-2.61325,51.52476],[-2.61351,51.52503],[-2.61338,51.52508],[-2.6138,51.5255],[-2.60953,51.52714],[-2.60949,51.5271],[-2.60905,51.52726],[-2.60857,51.52677],[-2.609,51.5266],[-2.60878,51.52638],[-2.61116,51.52547],[-2.61225,51.52506],[-2.61211,51.52491],[-2.61224,51.52486],[-2.61238,51.525],[-2.61306,51.52475]]]]}},
{ "type":"Feature","properties":{"osm_way_id":"111184964","name":"Jollyes Petfood Superstore","building":"warehouse","shop":"pet","other":{"wheelchair":"yes"}}, "geometry":{"type":"MultiPolygon","coordinates":[[[[-2.50145,51.44395],[-2.501,51.44376],[-2.50129,51.44348],[-2.50175,51.44367],[-2.50145,51.44395]]]]}},
{ "type":"Feature","properties":{"osm_way_id":"164241672","name":"Tesco Distribution Warehouse","building":"warehouse","other":{"addr:city":"Bristol","addr:postcode":"BS35 4BR","source:name":"survey"}}, "geometry":{"type":"MultiPolygon","coordinates":[[[[-2.6419,51.55526],[-2.64044,51.55593],[-2.63809,51.55397],[-2.63838,51.55383],[-2.63749,51.55308],[-2.63865,51.55254],[-2.6419,51.55526]]]]}},
{ "type":"Feature","properties":{"osm_way_id":"198478907","name":"Wickes","building":"warehouse","shop":"doityourself","other":{"addr:city":"Bristol","addr:postcode":"BS30 7DA","brand":"Wickes","brand:wikidata":"Q7998350","brand:wikipedia":"en:Wickes","fhrs:id":"742123"}}, "geometry":{"type":"MultiPolygon","coordinates":[[[[-2.5017,51.44309],[-2.50129,51.44348],[-2.50175,51.44367],[-2.50216,51.44328],[-2.5017,51.44309]]]]}},
{ "type":"Feature","properties":{"osm_way_id":"201795579","name":"South West Distribution Centre","amenity":"post_depot","building":"warehouse","other":{"addr:city":"Bristol","addr:country":"GB","addr:place":"Western Approach Business Park","addr:postcode":"BS35 4GG","operator":"Royal Mail"}}, "geometry":{"type":"MultiPolygon","coordinates":[[[[-2.65181,51.55024],[-2.65041,51.54987],[-2.65116,51.54876],[-2.65256,51.54913],[-2.65181,51.55024]]]]}},
{ "type":"Feature","properties":{"osm_way_id":"205094182","name":"Tuffnells Parcel Express","building":"warehouse","other":{"addr:city":"Bristol","addr:housename":"Unit V","addr:postcode":"BS37 5NZ","addr:street":"Wellington Drive"}}, "geometry":{"type":"MultiPolygon","coordinates":[[[[-2.43427,51.54166],[-2.43344,51.54184],[-2.43342,51.54179],[-2.43333,51.54181],[-2.4333,51.54177],[-2.43321,51.54179],[-2.43298,51.54137],[-2.43307,51.54135],[-2.43305,51.54132],[-2.43398,51.54112],[-2.43427,51.54166]]]]}},
{ "type":"Feature","properties":{"osm_way_id":"208566635","building":"warehouse"},"geometry":{"type":"MultiPolygon","coordinates":[[[[-2.32679,51.4559],[-2.32629,51.45621],[-2.32606,51.45606],[-2.32656,51.45575],[-2.32679,51.4559]]]]}},
{ "type":"Feature","properties":{"osm_way_id":"295570642","name":"Farmfoods","building":"warehouse","other":{"addr:city":"Bristol","addr:postcode":"BS35 4GH","long_name":"Farmfoods Distribution Centre"}}, "geometry":{"type":"MultiPolygon","coordinates":[[[[-2.64465,51.54392],[-2.64335,51.54357],[-2.6443,51.54223],[-2.64558,51.54258],[-2.64465,51.54392]]]]}},
{ "type":"Feature","properties":{"osm_way_id":"369150651","building":"warehouse"},"geometry":{"type":"MultiPolygon","coordinates":[[[[-2.46431,51.44868],[-2.4642,51.44878],[-2.46418,51.44877],[-2.46414,51.44881],[-2.46407,51.44878],[-2.46412,51.44874],[-2.46365,51.44854],[-2.46375,51.44844],[-2.46431,51.44868]]]]}},
{ "type":"Feature","properties":{"osm_way_id":"437585564","building":"warehouse"},"geometry":{"type":"MultiPolygon","coordinates":[[[[-2.50741,51.4876],[-2.50758,51.48777],[-2.50773,51.48771],[-2.50756,51.48755],[-2.50741,51.4876]]]]}},
{ "type":"Feature","properties":{"osm_way_id":"622497157","name":"The Range","building":"warehouse","other":{"addr:housename":"Challenger 1","long_name":"The Range Distribution Centre"}}, "geometry":{"type":"MultiPolygon","coordinates":[[[[-2.65561,51.53797],[-2.65577,51.53804],[-2.65531,51.53845],[-2.65516,51.53838],[-2.65174,51.54145],[-2.64912,51.54034],[-2.65025,51.53932],[-2.65008,51.53926],[-2.65054,51.53884],[-2.65072,51.5389],[-2.65307,51.53679],[-2.65569,51.5379],[-2.65561,51.53797]]]]}},
{ "type":"Feature","properties":{"osm_way_id":"625064470","name":"DHL","building":"warehouse"},"geometry":{"type":"MultiPolygon","coordinates":[[[[-2.65028,51.53659],[-2.64765,51.53589],[-2.64805,51.53531],[-2.65068,51.53601],[-2.65028,51.53659]]]]}},
{ "type":"Feature","properties":{"osm_way_id":"625064472","name":"Lidl Distribution Centre","building":"warehouse","other":{"addr:city":"Bristol","addr:postcode":"BS35 4DF","brand":"Lidl","brand:wikidata":"Q151954","brand:wikipedia":"en:Lidl"}}, "geometry":{"type":"MultiPolygon","coordinates":[[[[-2.64827,51.54168],[-2.6503,51.54225],[-2.64951,51.54336],[-2.64973,51.54343],[-2.64967,51.54351],[-2.64945,51.54345],[-2.64849,51.5448],[-2.64816,51.54484],[-2.64632,51.54433],[-2.64827,51.54168]]]]}},
{ "type":"Feature","properties":{"osm_way_id":"625064477","building":"warehouse","other":{"addr:city":"Bristol","addr:postcode":"BS35 4GH"}}, "geometry":{"type":"MultiPolygon","coordinates":[[[[-2.6434,51.54587],[-2.64347,51.54577],[-2.64337,51.54575],[-2.64342,51.54567],[-2.64334,51.54565],[-2.64365,51.54519],[-2.6427,51.54494],[-2.64235,51.54545],[-2.64228,51.54543],[-2.64224,51.54547],[-2.64232,51.54549],[-2.64232,51.5455],[-2.64291,51.54566],[-2.64286,51.54573],[-2.6434,51.54587]]]]}},
{ "type":"Feature","properties":{"osm_way_id":"625064479","name":"Amazon","building":"warehouse","other":{"addr:city":"Bristol","addr:place":"Central Park","addr:postcode":"BS35 4DJ","addr:unit":"BRS1"}}, "geometry":{"type":"MultiPolygon","coordinates":[[[[-2.64334,51.5407],[-2.64132,51.54015],[-2.64101,51.54059],[-2.64062,51.54049],[-2.63949,51.54212],[-2.63962,51.54215],[-2.63951,51.5423],[-2.64064,51.54261],[-2.64061,51.54264],[-2.64073,51.54267],[-2.64075,51.54264],[-2.64171,51.5429],[-2.64161,51.54305],[-2.64185,51.54311],[-2.64195,51.54296],[-2.64179,51.54292],[-2.64251,51.54188],[-2.64255,51.54189],[-2.6426,51.54182],[-2.64255,51.5418],[-2.64305,51.54109],[-2.64318,51.54112],[-2.64326,51.54101],[-2.64314,51.54098],[-2.64334,51.5407]]]]}},
{ "type":"Feature","properties":{"osm_way_id":"886230264","building":"warehouse"},"geometry":{"type":"MultiPolygon","coordinates":[[[[-2.56651,51.51768],[-2.56684,51.5175],[-2.56653,51.51735],[-2.56625,51.51756],[-2.56642,51.51764],[-2.56651,51.51768]]]]}},
{ "type":"Feature","properties":{"osm_way_id":"886230268","building":"warehouse"},"geometry":{"type":"MultiPolygon","coordinates":[[[[-2.56712,51.52133],[-2.56712,51.52127],[-2.56687,51.52127],[-2.56687,51.52133],[-2.56712,51.52133]]]]}},
{ "type":"Feature","properties":{"osm_way_id":"978396723","building":"garage","other":{"building:levels":"1","capacity":"1"}}, "geometry":{"type":"MultiPolygon","coordinates":[[[[-2.40095,51.53292],[-2.40099,51.53292],[-2.40097,51.53297],[-2.40094,51.53297],[-2.40095,51.53292]]]]}},
{ "type":"Feature","properties":{"osm_way_id":"1026378562","building":"warehouse"},"geometry":{"type":"MultiPolygon","coordinates":[[[[-2.65908,51.5511],[-2.65693,51.5511],[-2.6569,51.55053],[-2.65907,51.55054],[-2.65908,51.5511]]]]}}
]
}
