{
"type": "FeatureCollection",
"features": [
{ "type":"Feature","properties":{"osm_id":"31472695","name":"Siragro Food & Wine","other":{"addr:housenumber":"12","addr:street":"Odeon Parade, Allendale Road","shop":"supermarket"}}, "geometry":{"type":"Point","coordinates":[-0.31972,51.5515 ]}},
{ "type":"Feature","properties":{"osm_id":"249793692","name":"Tesco Express","other":{"brand":"Tesco Express","brand:wikidata":"Q98456772","contact:website":"https:\/\/www.tesco.com\/store-locator\/london\/140-144-uxbridge-rd","shop":"supermarket"}}, "geometry":{"type":"Point","coordinates":[-0.31828,51.51121 ]}},
{ "type":"Feature","properties":{"osm_id":"265255750","name":"Costcutter","other":{"shop":"supermarket"}}, "geometry":{"type":"Point","coordinates":[-0.28719,51.51018 ]}},
{ "type":"Feature","properties":{"osm_id":"552439102","name":"Sainsbury's Local","other":{"addr:city":"London Borough of Ealing","addr:housenumber":"35-38","addr:postcode":"W5 4QT","addr:street":"South Ealing Road","brand:wikidata":"Q13218434","fhrs:id":"1033173","shop":"supermarket"}}, "geometry":{"type":"Point","coordinates":[-0.30662,51.5023 ]}},
{ "type":"Feature","properties":{"osm_id":"552439299","name":"Co-op","other":{"addr:city":"London Borough of Ealing","addr:housenumber":"89","addr:postcode":"W5 4QS","addr:street":"South Ealing Road","fhrs:id":"1033034","operator":"The Co-operative Group","shop":"supermarket"}}, "geometry":{"type":"Point","coordinates":[-0.30615,51.50002 ]}},
{ "type":"Feature","properties":{"osm_id":"629031385","name":"Tesco Metro","other":{"brand":"Tesco Metro","brand:wikidata":"Q57551648","level":"0","shop":"supermarket","wheelchair":"yes"}}, "geometry":{"type":"Point","coordinates":[-0.30252,51.51229 ]}},
{ "type":"Feature","properties":{"osm_id":"940335848","name":"Planet Organic","other":{"addr:housenumber":"17-21","addr:street":"High Street","brand:wikidata":"Q24298870","opening_hours":"Mo-Fr 08:00-20:00; Sa 09:00-20:00; Su 10:30-18:00","operator":"As Nature Intended","shop":"supermarket","website":"https:\/\/www.planetorganic.com\/pages\/ealing"}}, "geometry":{"type":"Point","coordinates":[-0.30473,51.51185 ]}},
{ "type":"Feature","properties":{"osm_id":"1000463949","name":"Empire","other":{"shop":"supermarket"}}, "geometry":{"type":"Point","coordinates":[-0.28652,51.50998 ]}},
{ "type":"Feature","properties":{"osm_id":"2046466209","other":{"amenity":"job_centre"}}, "geometry":{"type":"Point","coordinates":[-0.37903,51.51179 ]}},
{ "type":"Feature","properties":{"osm_id":"2301522009","name":"Lidl","other":{"addr:country":"GB","addr:housename":"Macmillan Court","addr:housenumber":"309","addr:postcode":"UB6 9FH","addr:street":"Ruislip Road East","brand":"Lidl","brand:wikidata":"Q151954","brand:wikipedia":"en:Lidl","fhrs:id":"1108946","shop":"supermarket"}}, "geometry":{"type":"Point","coordinates":[-0.35047,51.52724 ]}},
{ "type":"Feature","properties":{"osm_id":"2319693669","name":"Co-op Food","other":{"brand":"Co-op Food","brand:wikidata":"Q3277439","brand:wikipedia":"en:Co-op Food","operator":"The Co-operative Group","operator:wikidata":"Q117202","operator:wikipedia":"en:The Co-operative Group","shop":"supermarket"}}, "geometry":{"type":"Point","coordinates":[-0.37398,51.54448 ]}},
{ "type":"Feature","properties":{"osm_id":"2323026541","name":"Co-operative Food","other":{"shop":"supermarket"}}, "geometry":{"type":"Point","coordinates":[-0.39443,51.53519 ]}},
{ "type":"Feature","properties":{"osm_id":"3179049020","name":"Lidl","other":{"addr:city":"Greenford","addr:housename":"Westway Cross Retail Park","addr:housenumber":"1000","addr:postcode":"UB6 0UW","addr:street":"Greenford Road","addr:unit":"4","brand":"Lidl","brand:wikidata":"Q151954","brand:wikipedia":"en:Lidl","fhrs:id":"1108947","shop":"supermarket","source:addr":"FHRS Open Data"}}, "geometry":{"type":"Point","coordinates":[-0.34025,51.54209 ]}},
{ "type":"Feature","properties":{"osm_id":"3216125760","name":"Lidl","other":{"addr:city":"London","addr:housenumber":"90-94","addr:postcode":"W7 3SU","addr:street":"Uxbridge Road","addr:unit":"1","brand":"Lidl","brand:wikidata":"Q151954","brand:wikipedia":"en:Lidl","fhrs:id":"1108941","shop":"supermarket"}}, "geometry":{"type":"Point","coordinates":[-0.33625,51.50812 ]}},
{ "type":"Feature","properties":{"osm_id":"3340248584","name":"Mor Foods","other":{"shop":"supermarket"}}, "geometry":{"type":"Point","coordinates":[-0.37839,51.50766 ]}},
{ "type":"Feature","properties":{"osm_id":"3895330965","name":"Tesco Express","other":{"addr:city":"Greenford","addr:county":"Middlesex","addr:housenumber":"249-251","addr:postcode":"UB6 8PX","addr:street":"Oldfield Lane North","brand":"Tesco Express","brand:wikidata":"Q98456772","contact:website":"https:\/\/www.tesco.com\/store-locator\/greenford\/249-251-oldfield-ln","fhrs:id":"1033599","shop":"supermarket","source:addr":"FHRS Open Data"}}, "geometry":{"type":"Point","coordinates":[-0.34664,51.54186 ]}},
{ "type":"Feature","properties":{"osm_id":"4303522368","name":"Morrisons","other":{"brand":"Morrisons","brand:wikidata":"Q922344","brand:wikipedia":"en:Morrisons","shop":"supermarket"}}, "geometry":{"type":"Point","coordinates":[-0.30404,51.51351 ]}},
{ "type":"Feature","properties":{"osm_id":"5007757613","name":"Tesco Metro","other":{"addr:housenumber":"31","addr:street":"Cowley road","brand":"Tesco Metro","brand:wikidata":"Q57551648","contact:website":"https:\/\/www.tesco.com\/store-locator\/london\/31-the-vale","description":"Tesco supermarket with groceries, home supplies, drinks, cigarettes, greeting cards etc.","name:fa":"تسکو مترو","opening_hours":"Mo-Sa 07:00-22:00; Su 11:00-17:00","phone":"+44 345 671 9376","shop":"supermarket"}}, "geometry":{"type":"Point","coordinates":[-0.24911,51.50648 ]}},
{ "type":"Feature","properties":{"osm_id":"5135771797","name":"M&S Foodhall","other":{"brand":"M&S Foodhall","brand:wikidata":"Q714491","brand:wikipedia":"en:Marks & Spencer","shop":"supermarket"}}, "geometry":{"type":"Point","coordinates":[-0.33908,51.54204 ]}},
{ "type":"Feature","properties":{"osm_id":"5576016360","name":"Little Waitrose","other":{"brand":"Waitrose & Partners","brand:wikidata":"Q771734","brand:wikipedia":"en:Waitrose & Partners","shop":"supermarket"}}, "geometry":{"type":"Point","coordinates":[-0.291,51.51634 ]}},
{ "type":"Feature","properties":{"osm_id":"6062179558","name":"Lidl","other":{"addr:city":"London","addr:housenumber":"63-65","addr:postcode":"W13 9BP","addr:street":"Broadway Road","brand":"Lidl","brand:wikidata":"Q151954","brand:wikipedia":"en:Lidl","fhrs:id":"1108944","level":"0","opening_hours":"Mo-Sa 07:00-23:00; Su 11:00-17:00; PH 07:00-23:00","shop":"supermarket","toilets":"no","wheelchair":"yes"}}, "geometry":{"type":"Point","coordinates":[-0.32441,51.51 ]}},
{ "type":"Feature","properties":{"osm_id":"6484540985","name":"Sainsbury's","other":{"brand":"Sainsbury's","brand:wikidata":"Q152096","brand:wikipedia":"en:Sainsbury's","opening_hours":"Mo-Sa 07:00-22:00; Su 11:00-17:00","shop":"supermarket"}}, "geometry":{"type":"Point","coordinates":[-0.32499,51.50934 ]}},
{ "type":"Feature","properties":{"osm_id":"6572865792","name":"The cooperative food","other":{"level":"0","shop":"supermarket"}}, "geometry":{"type":"Point","coordinates":[-0.31636,51.5115 ]}},
{ "type":"Feature","properties":{"osm_id":"7066450222","name":"Wholefood Organic","other":{"addr:housenumber":"29-30","addr:street":"High Street","level":"0","shop":"supermarket"}}, "geometry":{"type":"Point","coordinates":[-0.30499,51.51202 ]}},
{ "type":"Feature","properties":{"osm_id":"7098550394","name":"Real Future","other":{"level":"0","shop":"supermarket","wheelchair":"yes"}}, "geometry":{"type":"Point","coordinates":[-0.32319,51.51047 ]}},
{ "type":"Feature","properties":{"osm_id":"7178906836","name":"Waitrose & Partners","other":{"addr:city":"London","addr:housenumber":"2","addr:postcode":"W13 0NL","addr:street":"Alexandria Road","addr:suburb":"West Ealing","amenity":"cafe","brand":"Waitrose","cuisine":"coffee_shop","fhrs:id":"1032735","level":"0","outdoor_seating":"yes","shop":"supermarket","source:addr":"FHRS Open Data","takeaway":"yes","toilets":"yes"}}, "geometry":{"type":"Point","coordinates":[-0.32182,51.5128 ]}},
{ "type":"Feature","properties":{"osm_id":"7195085686","name":"Magaza Balkan food","other":{"addr:housenumber":"6","addr:street":"The Vale","shop":"supermarket"}}, "geometry":{"type":"Point","coordinates":[-0.2456,51.50678 ]}},
{ "type":"Feature","properties":{"osm_id":"7494329143","name":"Aya Market","other":{"shop":"supermarket"}}, "geometry":{"type":"Point","coordinates":[-0.33703,51.51356 ]}},
{ "type":"Feature","properties":{"osm_id":"8111715700","name":"Cudi Food Centre","other":{"addr:city":"London","addr:housenumber":"26-26A","addr:postcode":"W13 0SU","addr:street":"Broadway","addr:suburb":"West Ealing","fhrs:id":"1032675","shop":"supermarket","source:addr":"FHRS Open Data"}}, "geometry":{"type":"Point","coordinates":[-0.32121,51.51077 ]}},
{ "type":"Feature","properties":{"osm_id":"8426996702","name":"Hyper Marché","other":{"shop":"supermarket"}}, "geometry":{"type":"Point","coordinates":[-0.3188,51.51112 ]}},
{ "type":"Feature","properties":{"osm_id":"8477394820","name":"Amazon Fresh","other":{"addr:city":"London","addr:country":"GB","addr:housename":"Ealing Broadway Centre","addr:housenumber":"59","addr:postcode":"W5 5JN","addr:street":"The Broadway","addr:suburb":"Ealing","addr:unit":"57","brand":"Amazon Fresh","brand:wikidata":"Q4740834","brand:wikipedia":"en:Amazon Fresh","fhrs:id":"1349315","old_name":"Monsoon Accessorize","opening_hours":"Mo-Su 07:00-23:00","operator":"Amazon","shop":"supermarket","website":"https:\/\/www.amazon.co.uk\/b?ie=UTF8&node=21962024031"}}, "geometry":{"type":"Point","coordinates":[-0.30338,51.51347 ]}},
{ "type":"Feature","properties":{"osm_id":"8519176238","name":"Damas Food Centre","other":{"shop":"supermarket"}}, "geometry":{"type":"Point","coordinates":[-0.32218,51.51037 ]}},
{ "type":"Feature","properties":{"osm_id":"8702886351","name":"Tesco Express","other":{"brand":"Tesco Express","brand:wikidata":"Q98456772","contact:website":"https:\/\/www.tesco.com\/store-locator\/london\/101-103-northfield-avenue","opening_hours":"Mo-Su 06:00-24:00","shop":"supermarket"}}, "geometry":{"type":"Point","coordinates":[-0.31731,51.50358 ]}},
{ "type":"Feature","properties":{"osm_id":"8715844300","name":"Sainsbury's Local","other":{"brand:wikidata":"Q13218434","opening_hours":"Mo-Su 07:00-23:00","phone":"+44 20 8579 2390","shop":"supermarket","website":"https:\/\/stores.sainsburys.co.uk\/4411\/ealing-northfields-avenue-local"}}, "geometry":{"type":"Point","coordinates":[-0.31498,51.50005 ]}},
{ "type":"Feature","properties":{"osm_id":"8910731540","name":"Baghdad Market","other":{"addr:housenumber":"149","addr:street":"The Vale","description":"Eastern European corner store.","opening_hours":"Mo-Sa 07:00-21:30; Su 11:00-17:30","shop":"supermarket"}}, "geometry":{"type":"Point","coordinates":[-0.25506,51.50647 ]}},
{ "type":"Feature","properties":{"osm_id":"9223766101","name":"Lidl","other":{"addr:city":"London","addr:housename":"The Oaks Shopping Centre","addr:postcode":"W3 6RE","addr:street":"High Street","addr:unit":"4","brand":"Lidl","brand:wikidata":"Q151954","brand:wikipedia":"en:Lidl","fhrs:id":"1108943","shop":"supermarket","survey:date":"2020-07-23"}}, "geometry":{"type":"Point","coordinates":[-0.26958,51.50746 ]}},
{ "type":"Feature","properties":{"osm_id":"9376946885","name":"Darbari Fancy Textiles","other":{"addr:city":"London","addr:housename":"Darbari Facny Textiles","addr:housenumber":"59","addr:postcode":"UB1 1JY","addr:street":"The Broadway, Southall","description":"Fabric Store for your daily fashion accessorising, finding your own style. Wedding Fabrics designer fabrics. Make your own designs and wear your own style with us. Authentic Fabrics.","opening_hours":"Mo-Su 10:30-19:15","opening_hours:covid19":"open","operator":"Darbari Fancy Textiles","payment:american_express":"yes","payment:cards":"yes","payment:cash":"yes","payment:coins":"yes","payment:credit_cards":"yes","payment:debit_cards":"yes","payment:diners_club":"yes","payment:maestro":"yes","payment:mastercard":"yes","payment:notes":"yes","payment:visa":"yes","payment:visa_electron":"yes","phone":"+44 20 8571 9920","shop":"supermarket","website":"www.darbari.co.uk"}}, "geometry":{"type":"Point","coordinates":[-0.37864,51.51129 ]}},
{ "type":"Feature","properties":{"osm_id":"9482188552","name":"Jaz Food & Wine","other":{"addr:city":"London","addr:housenumber":"154","addr:postcode":"W3 6UL","addr:street":"Victoria Road","shop":"supermarket"}}, "geometry":{"type":"Point","coordinates":[-0.25907,51.52264 ]}},
{ "type":"Feature","properties":{"osm_way_id":"26295319","name":"Morrisons","building":"supermarket","shop":"supermarket","other":{"addr:city":"London","addr:country":"GB","addr:postcode":"W3 9LA","addr:street":"King Street","addr:suburb":"Acton","branch":"Acton","brand":"Morrisons","brand:wikidata":"Q922344","brand:wikipedia":"en:Morrisons","contact:facebook":"http:\/\/www.facebook.com\/morrisons","contact:phone":"+44 20 8993 6566","contact:twitter":"@Morrisons","contact:website":"https:\/\/my.morrisons.com\/storefinder\/302ref=302","fhrs:id":"1033068","fhrs:local_authority_id":"PI000139200","opening_hours":"Mo-Sa 07:00-22:00; Su 10:00-16:00","wheelchair":"yes"}}, "geometry":{"type":"MultiPolygon","coordinates":[[[[-0.2732,51.5086],[-0.27312,51.50841],[-0.27322,51.5084],[-0.2732,51.50834],[-0.2731,51.50835],[-0.27297,51.50807],[-0.27306,51.50806],[-0.27303,51.50799],[-0.27244,51.50809],[-0.2724,51.508],[-0.27207,51.50806],[-0.27233,51.50864],[-0.27244,51.50862],[-0.27249,51.50873],[-0.273,51.50864],[-0.2732,51.5086]]]]}},
{ "type":"Feature","properties":{"osm_way_id":"27718895","name":"Asda","building":"retail","shop":"supermarket","other":{"addr:city":"Ealing","addr:country":"GB","addr:housenumber":"2-20","addr:postcode":"NW10 7LW","addr:street":"Western Road","brand":"Asda","brand:wikidata":"Q297410","brand:wikipedia":"en:Asda","contact:facebook":"https:\/\/www.facebook.com\/asda\/","contact:phone":"+44 20 8951 9000","contact:twitter":"@asda","contact:website":"https:\/\/storelocator.asda.com\/london\/london\/2-20-western-road-park-royal","fhrs:id":"1033249","opening_hours":"Mo 07:30-24:00; Tu-Fr 00:00-24:00; Sa 00:00-22:00; Su 11:00-17:00","operator":"Asda Stores Ltd"}}, "geometry":{"type":"MultiPolygon","coordinates":[[[[-0.27087,51.529],[-0.27079,51.52885],[-0.27109,51.52879],[-0.27069,51.52803],[-0.26938,51.5283],[-0.26986,51.52921],[-0.27087,51.529]]]]}},
{ "type":"Feature","properties":{"osm_way_id":"36851410","name":"Lidl","building":"yes","shop":"supermarket","other":{"addr:country":"GB","addr:housenumber":"461","addr:postcode":"UB5 6ZD","addr:street":"Ruislip Road","brand":"Lidl","brand:wikidata":"Q151954","brand:wikipedia":"en:Lidl","fhrs:id":"1108942"}}, "geometry":{"type":"MultiPolygon","coordinates":[[[[-0.39002,51.53476],[-0.38985,51.53427],[-0.38952,51.53431],[-0.38954,51.53436],[-0.38956,51.53442],[-0.3894,51.53444],[-0.38927,51.53446],[-0.38929,51.53451],[-0.38934,51.53464],[-0.38939,51.53479],[-0.38941,51.53484],[-0.38943,51.53484],[-0.38983,51.53479],[-0.38991,51.53477],[-0.39002,51.53476]]]]}},
{ "type":"Feature","properties":{"osm_way_id":"150212783","name":"Tesco Metro","building":"cinema","shop":"supermarket","other":{"addr:city":"Greenford","addr:county":"Middlesex","addr:housename":"Tesco Superstore","addr:housenumber":"223-229","addr:postcode":"UB6 8QY","addr:street":"Greenford Road","brand":"Tesco Metro","brand:wikidata":"Q57551648","fhrs:id":"1032644","operator":"Tesco","source:addr":"FHRS Open Data"}}, "geometry":{"type":"MultiPolygon","coordinates":[[[[-0.35283,51.52885],[-0.35286,51.5286],[-0.35214,51.52855],[-0.35202,51.52879],[-0.35283,51.52885]]]]}},
{ "type":"Feature","properties":{"osm_way_id":"192890564","name":"Iceland","building":"retail","shop":"supermarket","other":{"brand":"Iceland","brand:wikidata":"Q721810"}}, "geometry":{"type":"MultiPolygon","coordinates":[[[[-0.37643,51.50873],[-0.37644,51.50871],[-0.37687,51.5088],[-0.3769,51.50884],[-0.37679,51.50898],[-0.37635,51.50888],[-0.37643,51.50873]]]]}},
{ "type":"Feature","properties":{"osm_way_id":"192890566","name":"Quality Foods","building":"retail","shop":"supermarket"},"geometry":{"type":"MultiPolygon","coordinates":[[[[-0.37679,51.50898],[-0.37685,51.50899],[-0.37695,51.50903],[-0.37666,51.50934],[-0.37657,51.50931],[-0.37603,51.5092],[-0.3763,51.5087],[-0.37643,51.50873],[-0.37635,51.50888],[-0.37679,51.50898]]]]}},
{ "type":"Feature","properties":{"osm_way_id":"194134612","name":"The Co-operative Food","building":"yes","shop":"supermarket"},"geometry":{"type":"MultiPolygon","coordinates":[[[[-0.37972,51.51179],[-0.37962,51.51179],[-0.37954,51.51181],[-0.37945,51.51181],[-0.37938,51.5118],[-0.37903,51.51181],[-0.37903,51.51179],[-0.37899,51.51151],[-0.37903,51.51148],[-0.37924,51.51148],[-0.37925,51.5116],[-0.37951,51.51162],[-0.37951,51.5116],[-0.37971,51.51162],[-0.37972,51.51179]]]]}},
{ "type":"Feature","properties":{"osm_way_id":"216445400","name":"Hoo Hing","building":"yes","shop":"supermarket"},"geometry":{"type":"MultiPolygon","coordinates":[[[[-0.28648,51.53647],[-0.28568,51.53686],[-0.28584,51.53699],[-0.28602,51.53693],[-0.28667,51.53661],[-0.28648,51.53647]]]]}},
{ "type":"Feature","properties":{"osm_way_id":"220269216","name":"Iceland","shop":"supermarket","other":{"addr:city":"Greenford","addr:county":"Middlesex","addr:housenumber":"1267-1269","addr:postcode":"UB6 0HY","addr:street":"Greenford Road","brand":"Iceland","brand:wikidata":"Q721810","fhrs:id":"1032571","source:addr":"FHRS Open Data"}}, "geometry":{"type":"MultiPolygon","coordinates":[[[[-0.33689,51.55621],[-0.33665,51.55615],[-0.33648,51.55611],[-0.33657,51.55595],[-0.33698,51.55605],[-0.33689,51.55621]]]]}},
{ "type":"Feature","properties":{"osm_way_id":"252183570","name":"Mieszko Food City","building":"yes","shop":"supermarket","other":{"addr:city":"Greenford","addr:county":"Middlesex","addr:floor":"Part Ground Floor","addr:housenumber":"1261\/1265","addr:postcode":"UB6 0HY","addr:street":"Greenford Road","building:levels":"2","cuisine":"Polish","fhrs:id":"1033180","source:addr":"FHRS Open Data"}}, "geometry":{"type":"MultiPolygon","coordinates":[[[[-0.33665,51.55582],[-0.33658,51.55593],[-0.33696,51.55602],[-0.33703,51.55591],[-0.33665,51.55582]]]]}},
{ "type":"Feature","properties":{"osm_way_id":"312265219","name":"Tesco","building":"retail","shop":"supermarket","other":{"alt_name":"Hoover Building","brand":"Tesco","brand:wikidata":"Q487494","brand:wikipedia":"en:Tesco","building:architecture":"art_deco","source:name":"local_knowledge","wikidata":"Q12060526","wikipedia":"en:Hoover Building"}}, "geometry":{"type":"MultiPolygon","coordinates":[[[[-0.31861,51.5342],[-0.31862,51.53418],[-0.31923,51.53428],[-0.31926,51.53419],[-0.31931,51.5342],[-0.3195,51.53402],[-0.31951,51.53399],[-0.3196,51.534],[-0.31972,51.5337],[-0.3198,51.53371],[-0.31984,51.5336],[-0.31976,51.53359],[-0.31978,51.53355],[-0.31872,51.53338],[-0.31871,51.53341],[-0.31864,51.53341],[-0.31862,51.53345],[-0.31866,51.53346],[-0.31864,51.53352],[-0.31857,51.53352],[-0.31853,51.53356],[-0.31829,51.53353],[-0.31827,51.53358],[-0.31814,51.53356],[-0.31792,51.53409],[-0.31853,51.53419],[-0.31861,51.5342]]]]}},
{ "type":"Feature","properties":{"osm_way_id":"314705735","name":"V.B. & Sons","building":"supermarket","shop":"supermarket"},"geometry":{"type":"MultiPolygon","coordinates":[[[[-0.35469,51.52934],[-0.35411,51.52926],[-0.35412,51.52923],[-0.35407,51.52922],[-0.35412,51.52905],[-0.3542,51.52906],[-0.35421,51.52904],[-0.35425,51.52905],[-0.35428,51.52897],[-0.3548,51.52912],[-0.35469,51.52934]]]]}},
{ "type":"Feature","properties":{"osm_way_id":"317357796","name":"Kopernik","building":"retail","shop":"supermarket","other":{"addr:city":"Greenford","addr:housenumber":"301-307","addr:postcode":"UB6 8RE","addr:street":"Greenford Road","fhrs:id":"1033693","source:addr":"FHRS Open Data"}}, "geometry":{"type":"MultiPolygon","coordinates":[[[[-0.35041,51.53138],[-0.35027,51.53133],[-0.35045,51.53112],[-0.35059,51.53116],[-0.35041,51.53138]]]]}},
{ "type":"Feature","properties":{"osm_way_id":"317397799","name":"Waitrose","building":"yes","shop":"supermarket","other":{"addr:city":"London","addr:housenumber":"2","addr:postcode":"W13 0NL","addr:street":"Alexandria Road","brand":"Waitrose","brand:wikidata":"Q771734","brand:wikipedia":"en:Waitrose & Partners","official_name":"Waitrose & Partners","opening_hours":"Mo-Sa 08:00-21:00; Th,Fr 08:00-22:00; Su 11:00-17:00","operator":"Waitrose & Partners","phone":"+44 20 8579 0991","wheelchair":"yes"}}, "geometry":{"type":"MultiPolygon","coordinates":[[[[-0.32201,51.51319],[-0.32081,51.51329],[-0.32072,51.51288],[-0.32154,51.5128],[-0.32153,51.51278],[-0.32195,51.51272],[-0.32207,51.51308],[-0.32199,51.51309],[-0.32201,51.51319]]]]}},
{ "type":"Feature","properties":{"osm_way_id":"326607002","name":"Lidl","building":"retail","shop":"supermarket","other":{"addr:country":"GB","addr:housenumber":"58-78","addr:postcode":"UB1 3DB","addr:street":"High Street","brand":"Lidl","brand:wikidata":"Q151954","fhrs:id":"1108945"}}, "geometry":{"type":"MultiPolygon","coordinates":[[[[-0.37322,51.51071],[-0.37258,51.51062],[-0.37266,51.51041],[-0.37329,51.5105],[-0.37322,51.51071]]]]}},
{ "type":"Feature","properties":{"osm_way_id":"571203155","name":"Tesco Express","building":"yes","shop":"supermarket","other":{"brand":"Tesco Express","brand:wikidata":"Q98456772"}}, "geometry":{"type":"MultiPolygon","coordinates":[[[[-0.28126,51.50824],[-0.28109,51.50823],[-0.28106,51.50844],[-0.28123,51.50845],[-0.28126,51.50824]]]]}},
{ "type":"Feature","properties":{"osm_way_id":"638319751","name":"Kujawiak","building":"retail","shop":"supermarket","other":{"addr:city":"London","addr:postcode":"W13 9BP","addr:street":"Broadway","level":"0","opening_hours":"Mo-Sa 09:00-21:00; Su 10:00-20:00"}}, "geometry":{"type":"MultiPolygon","coordinates":[[[[-0.32444,51.50974],[-0.32457,51.51001],[-0.32479,51.50997],[-0.32465,51.5097],[-0.32444,51.50974]]]]}},
{ "type":"Feature","properties":{"osm_way_id":"638319753","name":"Holland & Barrett","building":"retail","shop":"supermarket","other":{"brand:wikidata":"Q5880870","level":"0"}}, "geometry":{"type":"MultiPolygon","coordinates":[[[[-0.32408,51.50992],[-0.32416,51.51008],[-0.32422,51.51007],[-0.32415,51.5099],[-0.32408,51.50992]]]]}}
]
}
