{
"type": "FeatureCollection",
"features": [
{ "type":"Feature","properties":{"osm_id":"736396070","name":"Sainsbury's","other":{"brand":"Sainsbury's","brand:wikidata":"Q152096","brand:wikipedia":"en:Sainsbury's","shop":"supermarket"}}, "geometry":{"type":"Point","coordinates":[-2.60659,53.83559 ]}},
{ "type":"Feature","properties":{"osm_id":"736396115","name":"Booths","other":{"addr:city":"Longridge","addr:country":"GB","addr:postcode":"PR3 3NH","addr:street":"Berry Lane","brand":"Booths","brand:wikidata":"Q4943949","brand:wikipedia":"en:Booths","contact:website":"https:\/\/www.booths.co.uk\/store\/preston-longridge\/","fhrs:id":"105505","shop":"supermarket"}}, "geometry":{"type":"Point","coordinates":[-2.60484,53.83292 ]}},
{ "type":"Feature","properties":{"osm_id":"4596820230","name":"Bowland Food Hall","other":{"shop":"supermarket"}}, "geometry":{"type":"Point","coordinates":[-2.3941,53.86819 ]}},
{ "type":"Feature","properties":{"osm_id":"4596820232","name":"Aldi","other":{"brand":"ALDI","brand:wikidata":"Q41171672","brand:wikipedia":"en:Aldi","shop":"supermarket"}}, "geometry":{"type":"Point","coordinates":[-2.39518,53.86309 ]}},
{ "type":"Feature","properties":{"osm_id":"5036735744","name":"Mellor Spar Store","other":{"addr:city":"Mellor","addr:housenumber":"30","addr:postcode":"BB2 7ER","addr:street":"Carter Fold","brand":"Spar","brand:wikidata":"Q610492","operator":"Spar","shop":"supermarket"}}, "geometry":{"type":"Point","coordinates":[-2.52663,53.77117 ]}},
{ "type":"Feature","properties":{"osm_way_id":"53573261","name":"Sainsbury's","building":"yes","shop":"supermarket","other":{"brand":"Sainsbury's","alt_name":"Sainsbury's Clitheroe Superstore","addr:city":"Clitheroe","addr:street":"Moor Lane","addr:postcode":"BB7 1BE","opening_hours":"Mo-Sa 08:00-21:00; Su11:00-17:00","brand:wikidata":"Q152096","brand:wikipedia":"en:Sainsbury's"}}, "geometry":{"type":"MultiPolygon","coordinates":[[[[-2.39223,53.86912],[-2.39147,53.86962],[-2.39137,53.86956],[-2.39148,53.86949],[-2.39111,53.86929],[-2.39122,53.86922],[-2.39176,53.86887],[-2.39223,53.86912]]]]}},
{ "type":"Feature","properties":{"osm_way_id":"179545710","name":"Lidl","building":"yes","shop":"supermarket","other":{"addr:country":"GB","addr:postcode":"BB7 1LZ","addr:street":"Shawbridge Street","alt_name":"LIDL Clitheroe","brand":"Lidl","brand:wikidata":"Q151954","brand:wikipedia":"en:Lidl","fhrs:id":"107243"}}, "geometry":{"type":"MultiPolygon","coordinates":[[[[-2.38788,53.8707],[-2.38794,53.87074],[-2.38809,53.87065],[-2.38803,53.87062],[-2.38819,53.87052],[-2.38787,53.87034],[-2.38726,53.87071],[-2.38752,53.87086],[-2.38758,53.87083],[-2.38763,53.87085],[-2.38788,53.8707]]]]}},
{ "type":"Feature","properties":{"osm_way_id":"313480233","name":"Tesco","building":"yes","shop":"supermarket","other":{"brand":"Tesco","alt_name":"Tesco Clitheroe Superstore","addr:street":"Duck Street","addr:postcode":"BB7 1LP","brand:wikidata":"Q487494","brand:wikipedia":"en:Tesco"}}, "geometry":{"type":"MultiPolygon","coordinates":[[[[-2.38896,53.87286],[-2.38866,53.87278],[-2.38871,53.87271],[-2.38817,53.87256],[-2.38801,53.87277],[-2.38791,53.87275],[-2.38785,53.87282],[-2.38791,53.87283],[-2.38784,53.87291],[-2.38832,53.87305],[-2.38823,53.87318],[-2.38853,53.87325],[-2.38868,53.87306],[-2.38878,53.87309],[-2.38896,53.87286]]]]}},
{ "type":"Feature","properties":{"osm_way_id":"313480237","name":"Booths","building":"yes","shop":"supermarket","other":{"addr:postcode":"BB7 2JT","addr:street":"Station Road","alt_name":"Booths Clitheroe","brand":"Booths","brand:wikidata":"Q4943949","brand:wikipedia":"en:Booths","contact:phone":"+44 1200 427325","contact:website":"https:\/\/www.booths.co.uk\/store\/clitheroe\/","opening_hours":"Mo-Sa 08:00-21:00; Su 09:30-16:00","start_date":"1983-04-21"}}, "geometry":{"type":"MultiPolygon","coordinates":[[[[-2.39535,53.87208],[-2.39583,53.87134],[-2.39551,53.87127],[-2.39544,53.87137],[-2.39533,53.87134],[-2.39501,53.87183],[-2.39496,53.87182],[-2.39486,53.87197],[-2.39535,53.87208]]]]}},
{ "type":"Feature","properties":{"osm_way_id":"332637443","name":"Co-op Food","building":"yes","shop":"supermarket","other":{"brand":"Co-op Food","brand:wikidata":"Q3277439","brand:wikipedia":"en:Co-op Food","operator":"The Co-operative Group","operator:wikidata":"Q117202","operator:wikipedia":"en:The Co-operative Group"}}, "geometry":{"type":"MultiPolygon","coordinates":[[[[-2.39551,53.84054],[-2.39532,53.8405],[-2.39537,53.84046],[-2.39529,53.84043],[-2.3955,53.84029],[-2.39552,53.84027],[-2.39574,53.84037],[-2.39551,53.84054]]]]}},
{ "type":"Feature","properties":{"osm_way_id":"335197430","name":"Co-op Food","building":"yes","shop":"supermarket","other":{"addr:city":"Whalley","addr:housenumber":"60","addr:postcode":"BB7 9SL","addr:street":"King Street","brand":"Co-op Food","brand:wikidata":"Q3277439","brand:wikipedia":"en:Co-op Food","opening_hours":"07:00-23:00","operator":"The Co-operative Group","operator:wikidata":"Q117202","operator:wikipedia":"en:The Co-operative Group","payment:cash":"yes","payment:credit_cards":"yes","phone":"+44 1254 823280","wheelchair":"yes"}}, "geometry":{"type":"MultiPolygon","coordinates":[[[[-2.40645,53.82094],[-2.40623,53.82094],[-2.40585,53.82089],[-2.40588,53.82082],[-2.40625,53.82087],[-2.40625,53.82082],[-2.40646,53.82083],[-2.40645,53.82094]]]]}}
]
}
