{
"type": "FeatureCollection",
"features": [
{ "type":"Feature","properties":{"osm_id":"320988940","name":"Tesco Metro","other":{"addr:housenumber":"93","addr:place":"Victoria Centre","addr:postcode":"NG1 3QE","brand":"Tesco Metro","brand:wikidata":"Q57551648","fhrs:id":"217486","level":"0","shop":"supermarket","wheelchair":"yes"}}, "geometry":{"type":"Point","coordinates":[-1.1475,52.958 ]}},
{ "type":"Feature","properties":{"osm_id":"519843392","name":"M&S Foodhall","other":{"brand":"M&S Foodhall","brand:wikidata":"Q714491","brand:wikipedia":"en:Marks & Spencer","shop":"supermarket"}}, "geometry":{"type":"Point","coordinates":[-2.27904,57.15407 ]}},
{ "type":"Feature","properties":{"osm_id":"1417905320","name":"Co-op Food","other":{"brand":"Co-op Food","brand:wikidata":"Q3277439","brand:wikipedia":"en:Co-op Food","shop":"supermarket"}}, "geometry":{"type":"Point","coordinates":[-2.34775,57.23893 ]}},
{ "type":"Feature","properties":{"osm_id":"1743349314","name":"Co-op Food","other":{"brand":"Co-op Food","brand:wikidata":"Q3277439","brand:wikipedia":"en:Co-op Food","shop":"supermarket"}}, "geometry":{"type":"Point","coordinates":[-2.39567,57.42937 ]}},
{ "type":"Feature","properties":{"osm_id":"2374214341","name":"Co-op Food","other":{"addr:city":"Aberdeenshire","addr:housenumber":"1","addr:postcode":"AB23 8SJ","addr:street":"Balmedie","brand":"Co-op Food","brand:wikidata":"Q3277439","brand:wikipedia":"en:Co-op Food","fhrs:authority":"Aberdeenshire","fhrs:id":"113072","fhrs:local_authority_id":"42169","shop":"supermarket"}}, "geometry":{"type":"Point","coordinates":[-2.05752,57.2466 ]}},
{ "type":"Feature","properties":{"osm_id":"2417006476","name":"Co-op Food","other":{"addr:city":"Insch","addr:country":"GB","addr:housenumber":"38","addr:postcode":"AB52 6JB","addr:street":"Commerce Street","brand":"Co-op Food","brand:wikidata":"Q3277439","brand:wikipedia":"en:Co-op Food","opening_hours":"Mo-Fr 07:00-22:00; Sa,Su 08:00-22:00","operator":"The Co-operative Group","operator:wikidata":"Q117202","operator:wikipedia":"en:The Co-operative Group","shop":"supermarket"}}, "geometry":{"type":"Point","coordinates":[-2.61441,57.34245 ]}},
{ "type":"Feature","properties":{"osm_id":"2928070772","name":"Costcutter","other":{"brand":"Costcutter","brand:wikidata":"Q5175072","brand:wikipedia":"en:Costcutter","opening_hours":"Mo-Fr 07:00-21:00; Sa 07:00-20:00; Su 08:30-20:00","phone":"+44 1464 820 322","shop":"supermarket","website":"http:\/\/www.mycostcutter.com\/stores\/mycostcutter-insch-aberdeenshire\/"}}, "geometry":{"type":"Point","coordinates":[-2.61166,57.34337 ]}},
{ "type":"Feature","properties":{"osm_id":"3515696832","ref":"AB35 436","other":{"amenity":"post_box","collection_times":"Mo-Fr 14:45; Sa 12:30","operator":"Royal Mail","post_box:type":"wall","royal_cypher":"scottish_crown"}}, "geometry":{"type":"Point","coordinates":[-3.40072,57.00609 ]}},
{ "type":"Feature","properties":{"osm_id":"4623990626","other":{"defibrillator:location":"outside Tesco entrance","emergency":"defibrillator","opening_hours":"24\/7"}}, "geometry":{"type":"Point","coordinates":[-2.51972,57.66493 ]}},
{ "type":"Feature","properties":{"osm_id":"4724485502","name":"George Strachan Ltd","other":{"addr:city":"Ballater","addr:postcode":"AB35 5RE","addr:street":"Golf Road","opening_hours":"Mo-Sa 9:00-17:00; Su off","shop":"supermarket"}}, "geometry":{"type":"Point","coordinates":[-3.04059,57.04921 ]}},
{ "type":"Feature","properties":{"osm_id":"5729249196","name":"Co-op Food","other":{"brand":"Co-op Food","brand:wikidata":"Q3277439","brand:wikipedia":"en:Co-op Food","shop":"supermarket"}}, "geometry":{"type":"Point","coordinates":[-2.44513,57.23406 ]}},
{ "type":"Feature","properties":{"osm_id":"7567442711","name":"Spar","other":{"addr:city":"Peterhead","addr:housenumber":"7","addr:postcode":"AB42 1PL","addr:street":"Prince Street","brand":"Spar","brand:wikidata":"Q610492","brand:wikipedia":"en:Spar (retailer)","fhrs:authority":"Aberdeenshire","fhrs:id":"77376","fhrs:local_authority_id":"18168","shop":"supermarket"}}, "geometry":{"type":"Point","coordinates":[-1.78126,57.50582 ]}},
{ "type":"Feature","properties":{"osm_id":"8336104520","name":"Co-op Food","other":{"addr:housenumber":"12","addr:postcode":"AB39 2BE","addr:street":"Market Square","alt_name":"The Co-operative Food","brand":"Co-op Food","brand:wikidata":"Q3277439","brand:wikipedia":"en:Co-op Food","shop":"supermarket"}}, "geometry":{"type":"Point","coordinates":[-2.20945,56.96383 ]}},
{ "type":"Feature","properties":{"osm_id":"9011275952","other":{"access":"yes","defibrillator:location":"Mounted on Strachan's store extenal wall, right side of entrance in a green box next to post box","emergency":"defibrillator","indoor":"no","level":"0","opening_hours":"24\/7","wheelchair":"yes"}}, "geometry":{"type":"Point","coordinates":[-2.77927,57.07624 ]}},
{ "type":"Feature","properties":{"osm_id":"9011275953","ref":"AB34 246D","other":{"amenity":"post_box","collection_times":"Mo-Fr 09:00; Sa 07:00","operator":"Royal Mail","post_box:type":"wall","royal_cypher":"VR"}}, "geometry":{"type":"Point","coordinates":[-2.77927,57.07623 ]}},
{ "type":"Feature","properties":{"osm_id":"9240609359","other":{"power":"pole"}}, "geometry":{"type":"Point","coordinates":[-2.37176,57.55733 ]}},
{ "type":"Feature","properties":{"osm_id":"9240609419","other":{"power":"pole"}}, "geometry":{"type":"Point","coordinates":[-2.32347,57.55883 ]}},
{ "type":"Feature","properties":{"osm_id":"9240609422","other":{"power":"pole"}}, "geometry":{"type":"Point","coordinates":[-2.32292,57.55707 ]}},
{ "type":"Feature","properties":{"osm_way_id":"31916518","name":"Tesco","building":"yes","shop":"supermarket","other":{"brand":"Tesco","brand:wikidata":"Q487494","brand:wikipedia":"en:Tesco","layer":"1","operator":"Tesco"}}, "geometry":{"type":"MultiPolygon","coordinates":[[[[-2.04409,57.3675],[-2.04439,57.36751],[-2.04439,57.36756],[-2.04517,57.36759],[-2.0451,57.36818],[-2.04401,57.36814],[-2.04409,57.3675]]]]}},
{ "type":"Feature","properties":{"osm_way_id":"54827442","name":"Tesco","building":"retail","shop":"supermarket","other":{"addr:city":"Stoke-on-Trent","addr:housenumber":"291","addr:postcode":"ST4 6PL","addr:street":"Newcastle Road","brand":"Tesco","brand:wikidata":"Q487494","brand:wikipedia":"en:Tesco","designation":"Stoke-On-Trent Superstore","fhrs:id":"113317"}}, "geometry":{"type":"MultiPolygon","coordinates":[[[[-2.21031,52.99499],[-2.21,52.9946],[-2.20992,52.99449],[-2.2098,52.99435],[-2.2099,52.99432],[-2.20979,52.99419],[-2.21008,52.99405],[-2.21013,52.99409],[-2.21015,52.99409],[-2.21021,52.99418],[-2.21017,52.99419],[-2.21021,52.99424],[-2.21043,52.99418],[-2.21037,52.99409],[-2.21065,52.99401],[-2.21072,52.9941],[-2.21076,52.99409],[-2.21124,52.99471],[-2.21031,52.99499]]]]}},
{ "type":"Feature","properties":{"osm_way_id":"69855249","name":"Co-op Food","building":"yes","shop":"supermarket","other":{"addr:postcode":"AB34 5HS","addr:street":"Charlestown Road","brand":"Co-op Food","brand:wikidata":"Q3277439","brand:wikipedia":"en:Co-op Food","operator":"The Co-operative"}}, "geometry":{"type":"MultiPolygon","coordinates":[[[[-2.77793,57.07448],[-2.77765,57.07453],[-2.77761,57.07447],[-2.77746,57.0745],[-2.77776,57.07494],[-2.77818,57.07486],[-2.77793,57.07448]]]]}},
{ "type":"Feature","properties":{"osm_way_id":"72483493","name":"The Co-operative Food","building":"retail","shop":"supermarket","other":{"addr:city":"Castle Donington","addr:country":"GB","addr:postcode":"DE74 2NP","addr:street":"Trent Lane","brand":"The Co-operative Food","brand:wikidata":"Q107617274","contact:website":"https:\/\/stores.centralengland.coop\/the-co-operative-food-castle-donington-1bb170431dab","fhrs:id":"4266","operator":"Central England Co-operative","operator:wikidata":"Q16986583","source:addr":"FHRS open data","wheelchair":"yes"}}, "geometry":{"type":"MultiPolygon","coordinates":[[[[-1.33706,52.84824],[-1.33709,52.84792],[-1.33771,52.84794],[-1.33767,52.84834],[-1.33707,52.84832],[-1.33708,52.84824],[-1.33706,52.84824]]]]}},
{ "type":"Feature","properties":{"osm_way_id":"89572635","name":"The Co-operative Food","building":"yes","shop":"supermarket","other":{"brand":"The Co-operative Food","brand:wikidata":"Q107617274","operator":"The Co-operative Food"}}, "geometry":{"type":"MultiPolygon","coordinates":[[[[-3.40082,57.00613],[-3.40067,57.00625],[-3.40063,57.00624],[-3.40057,57.00629],[-3.40042,57.00623],[-3.40046,57.0062],[-3.40044,57.00619],[-3.40061,57.00605],[-3.40072,57.00609],[-3.40082,57.00613]]]]}},
{ "type":"Feature","properties":{"osm_way_id":"89757933","name":"Tesco","building":"yes","shop":"supermarket","other":{"addr:postcode":"AB32 6UF","addr:street":"Endeavour Drive","brand":"Tesco","brand:wikidata":"Q487494","brand:wikipedia":"en:Tesco","building:levels":"1","wheelchair":"yes"}}, "geometry":{"type":"MultiPolygon","coordinates":[[[[-2.27573,57.14896],[-2.27542,57.14899],[-2.27542,57.14901],[-2.27534,57.14902],[-2.27537,57.14912],[-2.27491,57.14916],[-2.27516,57.14999],[-2.27553,57.14996],[-2.27552,57.14992],[-2.27611,57.14987],[-2.27595,57.14931],[-2.27591,57.14919],[-2.2758,57.1492],[-2.27573,57.14896]]]]}},
{ "type":"Feature","properties":{"osm_way_id":"93142160","name":"Morrisons","building":"yes","shop":"supermarket","other":{"brand":"Morrisons","brand:wikidata":"Q922344","brand:wikipedia":"en:Morrisons"}}, "geometry":{"type":"MultiPolygon","coordinates":[[[[-2.48021,57.05358],[-2.4803,57.05364],[-2.48027,57.05366],[-2.48065,57.05389],[-2.48072,57.05385],[-2.48096,57.054],[-2.48116,57.0539],[-2.48099,57.0538],[-2.48082,57.05385],[-2.48079,57.05384],[-2.48099,57.05376],[-2.48115,57.05369],[-2.48113,57.05367],[-2.48118,57.05364],[-2.4806,57.05332],[-2.48051,57.05336],[-2.48058,57.05341],[-2.48021,57.05358]]]]}},
{ "type":"Feature","properties":{"osm_way_id":"104368286","name":"Tesco Extra","building":"yes","shop":"supermarket","other":{"addr:city":"Inverurie","addr:postcode":"AB51 4SR","addr:street":"Harlaw Road","alt_name":"tesco Inverurie Harlaw Rd Extra","brand":"Tesco Extra","brand:wikidata":"Q25172225","brand:wikipedia":"en:Tesco Extra"}}, "geometry":{"type":"MultiPolygon","coordinates":[[[[-2.3767,57.2872],[-2.37561,57.28742],[-2.37608,57.28811],[-2.37625,57.28808],[-2.37635,57.28822],[-2.37646,57.2882],[-2.37637,57.28806],[-2.37718,57.2879],[-2.37681,57.28736],[-2.3767,57.2872]]]]}},
{ "type":"Feature","properties":{"osm_way_id":"104387376","name":"Morrisons","building":"yes","shop":"supermarket","other":{"addr:city":"Inverurie","addr:postcode":"AB51 4JP","addr:street":"Blackhall Road","alt_name":"Morrisons Inverurie","brand":"Morrisons","brand:wikidata":"Q922344","brand:wikipedia":"en:Morrisons"}}, "geometry":{"type":"MultiPolygon","coordinates":[[[[-2.39682,57.28528],[-2.39629,57.28524],[-2.39626,57.28523],[-2.39625,57.28521],[-2.39626,57.2852],[-2.39626,57.28518],[-2.39627,57.28514],[-2.3963,57.28505],[-2.39631,57.28502],[-2.39633,57.285],[-2.39645,57.28501],[-2.39657,57.28466],[-2.39764,57.28476],[-2.39752,57.28512],[-2.3973,57.2851],[-2.39725,57.28522],[-2.39686,57.28519],[-2.39682,57.28528]]]]}},
{ "type":"Feature","properties":{"osm_way_id":"111849075","name":"Co-op Food","building":"yes","shop":"supermarket","other":{"addr:city":"Alford","addr:postcode":"AB33 8BZ","addr:street":"Mart Road","brand":"Co-op Food","brand:wikidata":"Q3277439","brand:wikipedia":"en:Co-op Food","operator":"The Co-operative Group"}}, "geometry":{"type":"MultiPolygon","coordinates":[[[[-2.70015,57.22983],[-2.69951,57.22972],[-2.69944,57.22984],[-2.69943,57.22985],[-2.69941,57.22985],[-2.69938,57.22989],[-2.69941,57.2299],[-2.69938,57.22995],[-2.69993,57.23005],[-2.69999,57.22994],[-2.70008,57.22996],[-2.70015,57.22983]]]]}},
{ "type":"Feature","properties":{"osm_way_id":"112679780","name":"Asda","building":"supermarket","shop":"supermarket","other":{"addr:city":"Portlethen","addr:country":"GB","addr:postcode":"AB12 4XP","addr:street":"Muirend Road","alt_name":"Asda Portlethen","brand":"Asda","brand:wikidata":"Q297410","brand:wikipedia":"en:Asda","contact:facebook":"https:\/\/www.facebook.com\/asda\/","contact:phone":"+44 1224 782 200","contact:twitter":"@asda","contact:website":"https:\/\/storelocator.asda.com\/store\/portlethen","opening_hours":"24\/7","operator":"Asda Stores Ltd","source:name":"survey","wheelchair":"yes"}}, "geometry":{"type":"MultiPolygon","coordinates":[[[[-2.14118,57.06325],[-2.14051,57.06346],[-2.14011,57.06359],[-2.13965,57.06374],[-2.13951,57.06361],[-2.13945,57.06355],[-2.13938,57.06348],[-2.1393,57.06341],[-2.13922,57.06334],[-2.13914,57.06327],[-2.13906,57.0632],[-2.13901,57.06314],[-2.13894,57.06317],[-2.13874,57.06299],[-2.13881,57.06297],[-2.13877,57.06293],[-2.13967,57.06264],[-2.1398,57.06277],[-2.14023,57.06263],[-2.14057,57.06294],[-2.14077,57.06288],[-2.14118,57.06325]]]]}},
{ "type":"Feature","properties":{"osm_way_id":"114341196","name":"Aldi","building":"retail","shop":"supermarket","other":{"brand":"ALDI","brand:wikidata":"Q41171672","brand:wikipedia":"en:Aldi"}}, "geometry":{"type":"MultiPolygon","coordinates":[[[[-2.2789,57.15483],[-2.27802,57.15503],[-2.27782,57.15477],[-2.27862,57.15459],[-2.27874,57.15474],[-2.27882,57.15472],[-2.2789,57.15483]]]]}},
{ "type":"Feature","properties":{"osm_way_id":"117809650","name":"Morrisons","building":"yes","shop":"supermarket","other":{"brand":"Morrisons","brand:wikidata":"Q922344","brand:wikipedia":"en:Morrisons"}}, "geometry":{"type":"MultiPolygon","coordinates":[[[[-1.78812,57.5118],[-1.78847,57.51153],[-1.78862,57.51159],[-1.78889,57.51138],[-1.78768,57.51092],[-1.78711,57.51136],[-1.78706,57.51139],[-1.78812,57.5118]]]]}},
{ "type":"Feature","properties":{"osm_way_id":"128320245","name":"Co-op","building":"yes","shop":"supermarket","other":{"addr:housenumber":"27","addr:postcode":"AB21 0PJ","addr:street":"Oldmeldrum Road","designation":"The Co-operative Food"}}, "geometry":{"type":"MultiPolygon","coordinates":[[[[-2.19148,57.26648],[-2.19152,57.26654],[-2.19142,57.26655],[-2.19144,57.26659],[-2.1913,57.26661],[-2.19125,57.26651],[-2.19148,57.26648]]]]}},
{ "type":"Feature","properties":{"osm_way_id":"148770915","name":"Lidl","building":"retail","shop":"supermarket","other":{"addr:country":"GB","addr:housename":"The Quadrant","addr:housenumber":"3","addr:postcode":"B97 4HL","addr:street":"Redditch Ringway","brand":"Lidl","brand:wikidata":"Q151954","brand:wikipedia":"en:Lidl","fhrs:id":"685204","wheelchair":"yes"}}, "geometry":{"type":"MultiPolygon","coordinates":[[[[-1.93595,52.30654],[-1.93528,52.3068],[-1.93521,52.30674],[-1.93519,52.30675],[-1.93512,52.30668],[-1.93514,52.30667],[-1.93509,52.30663],[-1.93575,52.30635],[-1.93582,52.30633],[-1.9359,52.3064],[-1.93583,52.30643],[-1.93595,52.30654]]]]}},
{ "type":"Feature","properties":{"osm_way_id":"149730119","name":"Tesco","building":"retail","shop":"supermarket","other":{"addr:city":"Egham","addr:housenumber":"60-63","addr:postcode":"TW20 9EX","addr:street":"High Street","alt_name":"Tesco Egham Superstore","brand":"Tesco","brand:wikidata":"Q487494","brand:wikipedia":"en:Tesco","building:levels":"2","fhrs:id":"315365","opening_hours":"Mo-Sa 07:30-22:00; Su 11:00-17:00","opening_hours:covid19":"open","roof:levels":"1","roof:shape":"flat","source:addr":"FHRS Open Data"}}, "geometry":{"type":"MultiPolygon","coordinates":[[[[-0.54616,51.43236],[-0.54649,51.43225],[-0.54675,51.43217],[-0.54685,51.4323],[-0.54721,51.43275],[-0.54714,51.43277],[-0.54704,51.43266],[-0.54701,51.43267],[-0.54708,51.43277],[-0.54661,51.43291],[-0.54642,51.43268],[-0.54634,51.43257],[-0.54626,51.43248],[-0.54616,51.43236]]]]}},
{ "type":"Feature","properties":{"osm_way_id":"156845667","name":"Churchstoke Shopping Centre (Harry Tuffins)","building":"yes","shop":"supermarket","other":{"addr:city":"Churchstoke","addr:postcode":"SY15 6AR","operator":"The Midcounties Co-operative Society","phone":"+44 1588 620226"}}, "geometry":{"type":"MultiPolygon","coordinates":[[[[-3.06439,52.53732],[-3.06424,52.53731],[-3.06333,52.53724],[-3.06324,52.53724],[-3.0632,52.53747],[-3.06324,52.53748],[-3.06321,52.53768],[-3.06373,52.53773],[-3.06372,52.5378],[-3.06405,52.53782],[-3.06407,52.53775],[-3.06425,52.53776],[-3.06427,52.53769],[-3.06434,52.53769],[-3.06439,52.53732]]]]}},
{ "type":"Feature","properties":{"osm_way_id":"165342012","name":"Co-op Food","building":"supermarket","shop":"supermarket","other":{"addr:postcode":"AB39 2AL","addr:street":"David Street","alt_name":"The Co-operative Food","brand":"Co-op Food","brand:wikidata":"Q3277439","brand:wikipedia":"en:Co-op Food"}}, "geometry":{"type":"MultiPolygon","coordinates":[[[[-2.20877,56.96655],[-2.20819,56.96669],[-2.20806,56.96654],[-2.20822,56.9665],[-2.20805,56.96629],[-2.20811,56.96628],[-2.20806,56.96622],[-2.20828,56.96616],[-2.2083,56.96619],[-2.20839,56.96617],[-2.20844,56.96623],[-2.20846,56.96622],[-2.20864,56.96643],[-2.20866,56.96643],[-2.20877,56.96655]]]]}},
{ "type":"Feature","properties":{"osm_way_id":"172391830","name":"Lincolnshire Co-op","building":"yes","shop":"supermarket"},"geometry":{"type":"MultiPolygon","coordinates":[[[[-0.66405,53.27065],[-0.66403,53.27052],[-0.66372,53.27054],[-0.66376,53.27086],[-0.66407,53.27085],[-0.66406,53.27073],[-0.66399,53.27074],[-0.66398,53.27065],[-0.66405,53.27065]]]]}},
{ "type":"Feature","properties":{"osm_way_id":"179887736","name":"Tesco","building":"supermarket","shop":"supermarket","other":{"addr:postcode":"AB31 5QA","addr:street":"Hill of Banchory","brand":"Tesco","brand:wikidata":"Q487494","brand:wikipedia":"en:Tesco","wheelchair":"yes"}}, "geometry":{"type":"MultiPolygon","coordinates":[[[[-2.46672,57.05989],[-2.46681,57.05995],[-2.46715,57.06047],[-2.46606,57.06068],[-2.46607,57.0607],[-2.46584,57.06075],[-2.46516,57.06081],[-2.46507,57.06067],[-2.46501,57.0606],[-2.46516,57.06056],[-2.46537,57.06046],[-2.46547,57.06039],[-2.46574,57.06034],[-2.4656,57.06016],[-2.46557,57.06012],[-2.46609,57.06002],[-2.46672,57.05989]]]]}},
{ "type":"Feature","properties":{"osm_way_id":"180553859","name":"Lidl","building":"supermarket","shop":"supermarket","other":{"addr:country":"GB","addr:postcode":"AB43 9TA","addr:street":"South Harbour Road","brand":"Lidl","brand:wikidata":"Q151954","brand:wikipedia":"en:Lidl","fhrs:id":"88578","wheelchair":"yes"}}, "geometry":{"type":"MultiPolygon","coordinates":[[[[-2.00314,57.68053],[-2.00343,57.68053],[-2.00343,57.68057],[-2.00424,57.68055],[-2.00425,57.68069],[-2.00433,57.68069],[-2.00434,57.68079],[-2.00316,57.68081],[-2.00314,57.68053]]]]}},
{ "type":"Feature","properties":{"osm_way_id":"204394381","name":"Lidl","building":"yes","shop":"supermarket","other":{"addr:city":"Inverurie","addr:country":"GB","addr:housename":"Inverurie Retail Park","addr:postcode":"AB51 0GZ","addr:street":"Oldmeldrum Road","addr:unit":"1","alt_name":"LIDL Inverurie","brand":"Lidl","brand:wikidata":"Q151954","brand:wikipedia":"en:Lidl","fhrs:id":"116171"}}, "geometry":{"type":"MultiPolygon","coordinates":[[[[-2.37068,57.28711],[-2.37066,57.28715],[-2.37096,57.28721],[-2.37101,57.28717],[-2.37162,57.2873],[-2.37181,57.28702],[-2.37162,57.28698],[-2.37159,57.28702],[-2.37086,57.28688],[-2.37068,57.28711]]]]}},
{ "type":"Feature","properties":{"osm_way_id":"209877850","name":"Scotmid","building":"yes","shop":"supermarket","other":{"addr:city":"Laurencekirk","addr:housenumber":"106-108","addr:postcode":"AB30 1BJ","addr:street":"High Street","atm":"yes","brand":"Scotmid","brand:wikidata":"Q7435719","brand:wikipedia":"en:Scotmid","opening_hours":"Mo-Su 07:00-22:00","operator":"Scotish Midland Co-operative Society"}}, "geometry":{"type":"MultiPolygon","coordinates":[[[[-2.46924,56.83227],[-2.46884,56.83209],[-2.46865,56.83222],[-2.4686,56.8322],[-2.46853,56.83225],[-2.46898,56.83245],[-2.46924,56.83227]]]]}},
{ "type":"Feature","properties":{"osm_way_id":"227495285","name":"McColl's","building":"retail","shop":"supermarket","other":{"addr:city":"Banff","addr:housenumber":"49-53","addr:postcode":"AB45 1AN","addr:street":"High Street"}}, "geometry":{"type":"MultiPolygon","coordinates":[[[[-2.52373,57.66426],[-2.52371,57.6641],[-2.52347,57.66411],[-2.52349,57.66427],[-2.52373,57.66426]]]]}},
{ "type":"Feature","properties":{"osm_way_id":"227495300","name":"Tesco Metro","building":"supermarket","shop":"supermarket","other":{"addr:city":"Banff","addr:housename":"Tesco Supermarket","addr:postcode":"AB45 1GF","addr:street":"Carmelite Street","alt_name":"Tesco Banff Metro","brand":"Tesco Metro","brand:wikidata":"Q57551648","fhrs:id":"679251","source:addr":"FHRS Open Data"}}, "geometry":{"type":"MultiPolygon","coordinates":[[[[-2.52004,57.66493],[-2.51975,57.66498],[-2.51972,57.66493],[-2.51954,57.66461],[-2.51981,57.66457],[-2.51984,57.66463],[-2.51994,57.66462],[-2.51998,57.66468],[-2.51999,57.66468],[-2.51997,57.66463],[-2.51997,57.66463],[-2.51997,57.66463],[-2.51983,57.66433],[-2.51998,57.66431],[-2.52011,57.6646],[-2.52031,57.66456],[-2.52035,57.66462],[-2.52014,57.66466],[-2.52014,57.66466],[-2.52012,57.66467],[-2.52023,57.66484],[-2.52024,57.66483],[-2.52031,57.66493],[-2.52016,57.66496],[-2.52012,57.66495],[-2.52014,57.66493],[-2.52012,57.66491],[-2.52012,57.66491],[-2.52004,57.66493],[-2.52004,57.66493]]]]}},
{ "type":"Feature","properties":{"osm_way_id":"227495303","name":"Co-op Food","building":"retail","shop":"supermarket","other":{"addr:city":"Banff","addr:postcode":"AB45 1HE","addr:street":"Bridge Street","alt_name":"The Co-operative Food","brand":"Co-op Food","brand:wikidata":"Q3277439","brand:wikipedia":"en:Co-op Food"}}, "geometry":{"type":"MultiPolygon","coordinates":[[[[-2.51562,57.6634],[-2.51546,57.66323],[-2.51502,57.66336],[-2.51499,57.66337],[-2.51524,57.66363],[-2.51532,57.66365],[-2.51563,57.66357],[-2.51565,57.66352],[-2.51556,57.66342],[-2.51562,57.6634]]]]}},
{ "type":"Feature","properties":{"osm_way_id":"281095389","name":"Asda","building":"yes","shop":"supermarket","other":{"addr:city":"Huntly","addr:country":"GB","addr:postcode":"AB54 8SX","addr:street":"Steven Road","alt_name":"ASDA Huntly Supermarket","brand":"Asda","brand:wikidata":"Q297410","brand:wikipedia":"en:Asda","contact:facebook":"https:\/\/www.facebook.com\/asda\/","contact:twitter":"@asda","contact:website":"https:\/\/storelocator.asda.com\/scotland\/huntly\/steven-road","fhrs:id":"112888","operator":"Asda Stores Ltd"}}, "geometry":{"type":"MultiPolygon","coordinates":[[[[-2.79559,57.44222],[-2.79612,57.44189],[-2.79617,57.4419],[-2.79616,57.44187],[-2.79618,57.44184],[-2.79623,57.44182],[-2.7963,57.44181],[-2.79636,57.44183],[-2.79639,57.44185],[-2.7964,57.44188],[-2.79689,57.4421],[-2.79599,57.44267],[-2.79568,57.44253],[-2.79558,57.4426],[-2.79547,57.44255],[-2.79569,57.44241],[-2.79554,57.44234],[-2.79567,57.44226],[-2.79559,57.44222]]]]}},
{ "type":"Feature","properties":{"osm_way_id":"293964301","name":"Strachan's of Royal Deeside","building":"yes","shop":"supermarket","other":{"addr:postcode":"AB34 5HT","addr:street":"Station Square"}}, "geometry":{"type":"MultiPolygon","coordinates":[[[[-2.77928,57.07621],[-2.77903,57.07616],[-2.77871,57.0761],[-2.77867,57.07616],[-2.77852,57.07613],[-2.77836,57.07619],[-2.77894,57.07631],[-2.77919,57.07636],[-2.77927,57.07624],[-2.77927,57.07623],[-2.77928,57.07621]]]]}},
{ "type":"Feature","properties":{"osm_way_id":"303214423","name":"Scotmid","building":"retail","shop":"supermarket","other":{"addr:city":"Montrose","addr:housenumber":"62","addr:postcode":"DD10 0RA","addr:street":"King Street","addr:suburb":"Inverbervie","alt_name":"Scottish Midland Co-operative Food Store","brand":"Scotmid","brand:wikidata":"Q7435719","brand:wikipedia":"en:Scotmid","opening_hours":"Mo-Su 07:00-22:00"}}, "geometry":{"type":"MultiPolygon","coordinates":[[[[-2.28023,56.8443],[-2.28002,56.84418],[-2.27985,56.84425],[-2.27982,56.84423],[-2.27971,56.84428],[-2.27997,56.84446],[-2.28023,56.8443]]]]}},
{ "type":"Feature","properties":{"osm_way_id":"313827773","name":"Co-op","building":"yes","shop":"supermarket","other":{"addr:postcode":"AB53 4DU","addr:street":"Balmellie Street","alt_name":"The Co-operative Food"}}, "geometry":{"type":"MultiPolygon","coordinates":[[[[-2.45877,57.53691],[-2.45881,57.53698],[-2.45886,57.53697],[-2.45888,57.53703],[-2.45865,57.53706],[-2.45868,57.53714],[-2.45854,57.53716],[-2.45846,57.53717],[-2.45836,57.53694],[-2.45873,57.53689],[-2.45877,57.53691]]]]}},
{ "type":"Feature","properties":{"osm_way_id":"313827774","name":"Costcutter","building":"yes","shop":"supermarket","other":{"addr:housenumber":"35","addr:postcode":"AB53 4EJ","addr:street":"High Street","wheelchair":"yes"}}, "geometry":{"type":"MultiPolygon","coordinates":[[[[-2.4626,57.53772],[-2.4626,57.53764],[-2.4626,57.53761],[-2.46233,57.53762],[-2.46233,57.53773],[-2.46244,57.53773],[-2.46245,57.53783],[-2.46249,57.53783],[-2.4625,57.53777],[-2.46255,57.53776],[-2.4626,57.53775],[-2.4626,57.53772]]]]}},
{ "type":"Feature","properties":{"osm_way_id":"313827775","name":"Tesco","building":"yes","shop":"supermarket","other":{"addr:housenumber":"32","addr:postcode":"AB53 4EN","addr:street":"High Street","alt_name":"Tesco Turriff Superstore","brand":"Tesco","brand:wikidata":"Q487494","brand:wikipedia":"en:Tesco","fhrs:id":"112918","opening_hours":"Mo-Sa 07:00-23:00; Su 08:00-20:00","operator":"Tesco","wheelchair":"yes"}}, "geometry":{"type":"MultiPolygon","coordinates":[[[[-2.46355,57.53721],[-2.46338,57.53708],[-2.46303,57.53717],[-2.46299,57.53713],[-2.46274,57.5372],[-2.46285,57.5373],[-2.46287,57.53745],[-2.46353,57.5374],[-2.46349,57.53724],[-2.46355,57.53721]]]]}},
{ "type":"Feature","properties":{"osm_way_id":"322718026","name":"Asda","building":"supermarket","shop":"supermarket","other":{"addr:city":"Peterhead","addr:country":"GB","addr:postcode":"AB42 3JY","addr:street":"Longside Road","brand":"Asda","brand:wikidata":"Q297410","brand:wikipedia":"en:Asda","contact:facebook":"https:\/\/www.facebook.com\/asda\/","contact:phone":"+44 1779 484 000","contact:twitter":"@asda","contact:website":"https:\/\/storelocator.asda.com\/scotland\/peterhead\/longside-road","fhrs:id":"117770","opening_hours":"Mo-Sa 07:00-23:00; Su 08:00-22:00","operator":"Asda Stores Ltd","source:addr:postcode":"FSA Food Hygiene Ratings Database","wheelchair":"yes"}}, "geometry":{"type":"MultiPolygon","coordinates":[[[[-1.81854,57.50837],[-1.81759,57.50828],[-1.81743,57.50876],[-1.81769,57.50878],[-1.81766,57.50887],[-1.81834,57.50894],[-1.81854,57.50837]]]]}},
{ "type":"Feature","properties":{"osm_way_id":"336994154","name":"Spar","building":"yes","shop":"supermarket","other":{"brand":"Spar","brand:wikidata":"Q610492","opening_hours":"Mo-Sa 07:00-19:00"}}, "geometry":{"type":"MultiPolygon","coordinates":[[[[-2.33356,57.67043],[-2.33371,57.67044],[-2.33373,57.67036],[-2.33358,57.67035],[-2.33356,57.67043]]]]}},
{ "type":"Feature","properties":{"osm_way_id":"390017113","name":"Lidl","building":"yes","shop":"supermarket","other":{"addr:city":"Peterhead","addr:country":"GB","addr:housename":"Balmoor Retail Park","addr:postcode":"AB42 1RG","addr:street":"Windmill Road","brand":"Lidl","brand:wikidata":"Q151954","brand:wikipedia":"en:Lidl","fhrs:id":"52717","opening_hours":"Mo-Sa 08:00-20:00; Su 09:00-19:00","operator":"Lidl","phone":"+44 370 444 1234","website":"https:\/\/www.lidl.co.uk","wheelchair":"yes"}}, "geometry":{"type":"MultiPolygon","coordinates":[[[[-1.80612,57.51138],[-1.80575,57.51156],[-1.80555,57.51145],[-1.80561,57.51142],[-1.80506,57.51111],[-1.80525,57.51102],[-1.80518,57.51098],[-1.80531,57.51091],[-1.80612,57.51138]]]]}},
{ "type":"Feature","properties":{"osm_way_id":"403674292","name":"Co-op Food","building":"yes","shop":"supermarket","other":{"brand":"Co-op Food","brand:wikidata":"Q3277439","brand:wikipedia":"en:Co-op Food"}}, "geometry":{"type":"MultiPolygon","coordinates":[[[[-2.44677,57.23466],[-2.44686,57.23451],[-2.4468,57.2345],[-2.44684,57.23443],[-2.44671,57.23441],[-2.44658,57.23463],[-2.44677,57.23466]]]]}},
{ "type":"Feature","properties":{"osm_way_id":"407543696","name":"Tesco","building":"yes","shop":"supermarket","other":{"brand":"Tesco","brand:wikidata":"Q487494","brand:wikipedia":"en:Tesco"}}, "geometry":{"type":"MultiPolygon","coordinates":[[[[-2.00472,57.67994],[-2.00449,57.67994],[-2.00449,57.67992],[-2.00414,57.67992],[-2.00413,57.67996],[-2.00403,57.67995],[-2.00403,57.67993],[-2.00397,57.67993],[-2.00397,57.67988],[-2.00352,57.67988],[-2.00352,57.6799],[-2.00343,57.67991],[-2.00343,57.67985],[-2.00273,57.67986],[-2.00273,57.67979],[-2.00301,57.67979],[-2.003,57.6794],[-2.004,57.6794],[-2.004,57.67936],[-2.00449,57.67936],[-2.0045,57.67939],[-2.00471,57.67939],[-2.00472,57.67994]]]]}},
{ "type":"Feature","properties":{"osm_way_id":"449707925","name":"Co-op Food","building":"yes","shop":"supermarket","other":{"addr:city":"Portlethen","addr:housenumber":"Unit 1","addr:postcode":"AB12 4TQ","addr:street":"Hillside Rd","brand":"Co-op Food","brand:wikidata":"Q3277439","brand:wikipedia":"en:Co-op Food","opening_hours":"Mo-Su 07:00-23:00","phone":"+44 1224 784514","website":"https:\/\/www.co-operative.coop\/store\/food\/AB12-4QS\/portlethen---leathan-fields","wheelchair":"yes"}}, "geometry":{"type":"MultiPolygon","coordinates":[[[[-2.13481,57.07313],[-2.13504,57.07318],[-2.13521,57.07297],[-2.13498,57.07291],[-2.13494,57.07296],[-2.13485,57.07308],[-2.13481,57.07313]]]]}},
{ "type":"Feature","properties":{"osm_way_id":"469679380","name":"Asda","building":"supermarket","shop":"supermarket","other":{"addr:city":"Fraserburgh","addr:country":"GB","addr:postcode":"AB43 7ED","addr:street":"Watermill Road","brand":"Asda","brand:wikidata":"Q297410","brand:wikipedia":"en:Asda","contact:facebook":"https:\/\/www.facebook.com\/asda\/","contact:twitter":"@asda","contact:website":"https:\/\/storelocator.asda.com\/scotland\/fraserburgh\/watermill-road","fhrs:id":"679311","opening_hours":"Mo-Su 07:00-23:00","operator":"Asda Stores Ltd","wheelchair":"yes"}}, "geometry":{"type":"MultiPolygon","coordinates":[[[[-2.03209,57.69142],[-2.03259,57.69191],[-2.03362,57.69161],[-2.03333,57.69129],[-2.03338,57.69128],[-2.03319,57.69109],[-2.03263,57.69123],[-2.03268,57.69129],[-2.03209,57.69142]]]]}},
{ "type":"Feature","properties":{"osm_way_id":"495916630","name":"Tesco Superstore","building":"yes","shop":"supermarket","other":{"alt_name":"Tesco Newtonhill","brand":"Tesco Superstore","brand:wikidata":"Q110416151","brand:wikipedia":"en:Tesco","opening_hours":"Mo-Sa 07:00-22:00","payment:cash":"yes","payment:contactless":"yes","payment:credit_cards":"yes","payment:mastercard":"yes","website":"https:\/\/www.tesco.com\/store-locator\/newtonhill\/newtonhill-rd"}}, "geometry":{"type":"MultiPolygon","coordinates":[[[[-2.15829,57.03145],[-2.15866,57.03127],[-2.15838,57.0311],[-2.15843,57.03107],[-2.15818,57.03092],[-2.15807,57.03097],[-2.15812,57.031],[-2.15781,57.03115],[-2.15829,57.03145]]]]}},
{ "type":"Feature","properties":{"osm_way_id":"503625245","name":"The Co-operative Food","building":"retail","shop":"supermarket","other":{"addr:city":"Blackburn","addr:postcode":"AB21 0SS","addr:street":"Main Road","brand":"The Co-operative Food","brand:wikidata":"Q107617274","fhrs:authority":"Aberdeenshire","fhrs:id":"130167","fhrs:local_authority_id":"6122"}}, "geometry":{"type":"MultiPolygon","coordinates":[[[[-2.28639,57.20335],[-2.28646,57.20334],[-2.28646,57.20336],[-2.28665,57.20342],[-2.28648,57.20356],[-2.28645,57.20355],[-2.2864,57.20359],[-2.28609,57.20354],[-2.28612,57.20349],[-2.28633,57.20353],[-2.28642,57.20344],[-2.28633,57.20341],[-2.28639,57.20335]]]]}},
{ "type":"Feature","properties":{"osm_way_id":"507660266","name":"ALDI","building":"yes","shop":"supermarket","other":{"brand":"ALDI","brand:wikidata":"Q41171672","brand:wikipedia":"en:Aldi"}}, "geometry":{"type":"MultiPolygon","coordinates":[[[[-2.07643,57.36294],[-2.07621,57.36272],[-2.07534,57.36299],[-2.07557,57.3632],[-2.07643,57.36294]]]]}},
{ "type":"Feature","properties":{"osm_way_id":"561888873","name":"Aldi","building":"yes","shop":"supermarket","other":{"addr:city":"Inverurie","addr:street":"Harlaw Road","brand":"ALDI","brand:wikidata":"Q41171672","brand:wikipedia":"en:Aldi","building:levels":"1"}}, "geometry":{"type":"MultiPolygon","coordinates":[[[[-2.38005,57.2885],[-2.37964,57.28866],[-2.38014,57.28903],[-2.38046,57.28891],[-2.38051,57.28896],[-2.38062,57.28891],[-2.38005,57.2885]]]]}},
{ "type":"Feature","properties":{"osm_way_id":"631914782","name":"ALDI","building":"retail","shop":"supermarket","other":{"addr:city":"Peterhead","addr:housename":"Kirkburn Mills","addr:postcode":"AB42 1RU","brand":"ALDI","brand:wikidata":"Q41171672","brand:wikipedia":"en:Aldi","contact:website":"https:\/\/www.aldi.co.uk\/store\/s-uk-E0569","opening_hours":"Mo-Sa 08:00-22:00; Su 09:00-20:00","operator":"ALDI","start_date":"2018-10-18"}}, "geometry":{"type":"MultiPolygon","coordinates":[[[[-1.79002,57.50535],[-1.79007,57.50526],[-1.78998,57.50524],[-1.79008,57.50506],[-1.78954,57.50498],[-1.78913,57.50492],[-1.78898,57.50519],[-1.79002,57.50535]]]]}},
{ "type":"Feature","properties":{"osm_way_id":"664488736","name":"Co-op Food","building":"retail","shop":"supermarket","other":{"addr:city":"Banchory","addr:housenumber":"37","addr:postcode":"AB31 5TJ","addr:street":"High Street","brand":"Co-op Food","brand:wikidata":"Q3277439","brand:wikipedia":"en:Co-op Food","fhrs:authority":"Aberdeenshire","fhrs:id":"139113","fhrs:local_authority_id":"7458","operator":"The Co-operative Group","operator:wikidata":"Q117202","operator:wikipedia":"en:The Co-operative Group"}}, "geometry":{"type":"MultiPolygon","coordinates":[[[[-2.50381,57.05145],[-2.50363,57.05144],[-2.50359,57.0517],[-2.50376,57.05171],[-2.50381,57.05145]]]]}},
{ "type":"Feature","properties":{"osm_way_id":"690014576","name":"Co-op Food","building":"house","shop":"supermarket","other":{"brand":"Co-op Food","brand:wikidata":"Q3277439","brand:wikipedia":"en:Co-op Food","operator":"The Co-operative Group","operator:wikidata":"Q117202","operator:wikipedia":"en:The Co-operative Group"}}, "geometry":{"type":"MultiPolygon","coordinates":[[[[-3.04102,57.04939],[-3.04084,57.04927],[-3.04067,57.04916],[-3.04098,57.04902],[-3.04106,57.04907],[-3.04113,57.04911],[-3.04134,57.04924],[-3.04102,57.04939]]]]}},
{ "type":"Feature","properties":{"osm_way_id":"732133931","name":"Tesco","building":"yes","shop":"supermarket","other":{"addr:postcode":"AB54 8TS","addr:street":"Deveron Road","alt_name":"Tesco Huntly Superstore","brand":"Tesco","brand:wikidata":"Q487494","brand:wikipedia":"en:Tesco","operator":"Tesco"}}, "geometry":{"type":"MultiPolygon","coordinates":[[[[-2.80298,57.4489],[-2.80296,57.44883],[-2.80302,57.44883],[-2.80295,57.44861],[-2.80262,57.44864],[-2.80258,57.44853],[-2.80291,57.4485],[-2.80288,57.44838],[-2.80302,57.44836],[-2.80324,57.44846],[-2.80402,57.44838],[-2.804,57.44833],[-2.80419,57.44831],[-2.80423,57.44845],[-2.80429,57.44844],[-2.80436,57.4487],[-2.80443,57.4487],[-2.80445,57.44878],[-2.80428,57.44879],[-2.80427,57.44878],[-2.8037,57.44883],[-2.8037,57.44885],[-2.8035,57.44886],[-2.8035,57.44885],[-2.80298,57.4489]]]]}},
{ "type":"Feature","properties":{"osm_way_id":"765273273","name":"The Co-operative Food","building":"yes","shop":"supermarket","other":{"brand":"The Co-operative Food","brand:wikidata":"Q107617274"}}, "geometry":{"type":"MultiPolygon","coordinates":[[[[-2.01271,57.69376],[-2.01267,57.69356],[-2.01219,57.69358],[-2.01223,57.69379],[-2.01271,57.69376]]]]}},
{ "type":"Feature","properties":{"osm_way_id":"812547316","name":"Greens of Ellon","building":"yes","shop":"supermarket","other":{"addr:city":"Ellon","addr:housenumber":"9","addr:postcode":"AB41 9JB","addr:street":"The Square","opening_hours":"Mo-Sa 06:00-22:00; Su 08:00-10:00","phone":"+441358720281","website":"https:\/\/www.erosretail.co.uk\/ellon"}}, "geometry":{"type":"MultiPolygon","coordinates":[[[[-2.07135,57.36542],[-2.07134,57.36536],[-2.07122,57.36533],[-2.07109,57.36534],[-2.07111,57.36544],[-2.07114,57.36544],[-2.07117,57.36562],[-2.07125,57.36581],[-2.07128,57.36581],[-2.07129,57.36584],[-2.0714,57.36583],[-2.07153,57.36602],[-2.07179,57.36597],[-2.07167,57.36581],[-2.07149,57.36584],[-2.07146,57.36581],[-2.07141,57.36567],[-2.07135,57.36542]]]]}},
{ "type":"Feature","properties":{"osm_way_id":"901631186","name":"Co-op Food","building":"yes","shop":"supermarket","other":{"addr:postcode":"AB31 5BQ","addr:street":"Hill of Banchory South","branch":"Hill of Banchory","brand":"Co-op Food","brand:wikidata":"Q3277439","brand:wikipedia":"en:Co-op Food","building:levels":"1","operator":"The Co-operative Group","operator:wikidata":"Q117202","operator:wikipedia":"en:The Co-operative Group"}}, "geometry":{"type":"MultiPolygon","coordinates":[[[[-2.47867,57.06015],[-2.47841,57.06015],[-2.4784,57.05993],[-2.47866,57.05993],[-2.47867,57.06015]]]]}},
{ "type":"Feature","properties":{"osm_way_id":"939376936","name":"Aldi","building":"yes","shop":"supermarket","other":{"brand":"ALDI","brand:wikidata":"Q41171672","brand:wikipedia":"en:Aldi"}}, "geometry":{"type":"MultiPolygon","coordinates":[[[[-2.13679,57.06501],[-2.13583,57.06531],[-2.13557,57.06507],[-2.13653,57.06477],[-2.13679,57.06501]]]]}}
]
}
