{
"type": "FeatureCollection",
"features": [
{ "type":"Feature","properties":{"osm_id":"486641347","name":"Co-op","other":{"addr:postcode":"SN3 4UA","addr:street":"Windbrook Meadow","fhrs:id":"253672","operator":"Co-operative","shop":"supermarket","source:addr":"FHRS Open Data"}}, "geometry":{"type":"Point","coordinates":[-1.75564,51.58852 ]}},
{ "type":"Feature","properties":{"osm_id":"870110102","name":"Co-Operative","other":{"opening_hours":"Mo-Sa 07:00-22:00; Su 08:00-22:00","shop":"supermarket"}}, "geometry":{"type":"Point","coordinates":[-1.80062,51.5829 ]}},
{ "type":"Feature","properties":{"osm_id":"1077507430","name":"Co-Operative","other":{"addr:postcode":"SN25 1UH","addr:street":"Aiken Road","fhrs:id":"252681","shop":"supermarket","source:addr":"FHRS Open Data"}}, "geometry":{"type":"Point","coordinates":[-1.82431,51.59449 ]}},
{ "type":"Feature","properties":{"osm_id":"1221378089","name":"Costcutter","other":{"shop":"supermarket"}}, "geometry":{"type":"Point","coordinates":[-1.79476,51.60465 ]}},
{ "type":"Feature","properties":{"osm_id":"1355726503","name":"Co-Operative","other":{"addr:housenumber":"204-206","addr:postcode":"SN2 7QQ","addr:street":"Beechcroft Road","fhrs:id":"252740","shop":"supermarket","source:addr":"FHRS Open Data"}}, "geometry":{"type":"Point","coordinates":[-1.76496,51.5898 ]}},
{ "type":"Feature","properties":{"osm_id":"1585749718","name":"Co-Operative","other":{"addr:housenumber":"533","addr:postcode":"SN2 1AH","addr:street":"Cricklade Road","fhrs:id":"253480","shop":"supermarket","source:addr":"FHRS Open Data"}}, "geometry":{"type":"Point","coordinates":[-1.77553,51.5845 ]}},
{ "type":"Feature","properties":{"osm_id":"1590987396","name":"Co-Operative","other":{"addr:housenumber":"112-118","addr:postcode":"SN2 8AG","addr:street":"Cricklade Road","fhrs:id":"254119","shop":"supermarket","source:addr":"FHRS Open Data"}}, "geometry":{"type":"Point","coordinates":[-1.77668,51.57227 ]}},
{ "type":"Feature","properties":{"osm_id":"1733578012","name":"Lidl","other":{"brand":"Lidl","brand:wikidata":"Q151954","brand:wikipedia":"en:Lidl","shop":"supermarket","wheelchair":"yes"}}, "geometry":{"type":"Point","coordinates":[-1.75406,51.57048 ]}},
{ "type":"Feature","properties":{"osm_id":"1797910802","name":"Aldi","other":{"addr:postcode":"SN25 4DL","addr:street":"Latham Road","brand":"ALDI","brand:wikidata":"Q41171672","brand:wikipedia":"en:Aldi","fhrs:id":"432583","shop":"supermarket"}}, "geometry":{"type":"Point","coordinates":[-1.78331,51.60166 ]}},
{ "type":"Feature","properties":{"osm_id":"1833905902","name":"Oriental Supermarket","other":{"shop":"supermarket"}}, "geometry":{"type":"Point","coordinates":[-1.74135,51.57205 ]}},
{ "type":"Feature","properties":{"osm_id":"1965323373","name":"Co-Operative","other":{"addr:housenumber":"7-8","addr:postcode":"SN3 5AQ","addr:street":"Covingham Square","fhrs:id":"254048","shop":"supermarket","source:addr":"FHRS Open Data"}}, "geometry":{"type":"Point","coordinates":[-1.73903,51.56735 ]}},
{ "type":"Feature","properties":{"osm_id":"2023953461","name":"Asda","other":{"addr:city":"Swindon","addr:country":"GB","addr:housename":"West Swindon Centre","addr:postcode":"SN5 7DL","addr:street":"Whitehill Way","alt_name":"Asda West Swindon","brand":"Asda","brand:wikidata":"Q297410","brand:wikipedia":"en:Asda","contact:facebook":"https:\/\/www.facebook.com\/asda\/","contact:twitter":"@asda","contact:website":"https:\/\/storelocator.asda.com\/south-west\/swindon\/west-swindon-shopping-centre","fhrs:id":"253049","operator":"Asda Stores Ltd","shop":"supermarket"}}, "geometry":{"type":"Point","coordinates":[-1.82785,51.55893 ]}},
{ "type":"Feature","properties":{"osm_id":"2321863697","name":"Co Operative","other":{"shop":"supermarket"}}, "geometry":{"type":"Point","coordinates":[-1.76268,51.56051 ]}},
{ "type":"Feature","properties":{"osm_id":"4574957859","name":"Aldi","other":{"addr:postcode":"SN3 4RN","addr:street":"Parsonage Road","brand":"ALDI","brand:wikidata":"Q41171672","brand:wikipedia":"en:Aldi","fhrs:id":"916833","shop":"supermarket","source:addr":"FHRS Open Data"}}, "geometry":{"type":"Point","coordinates":[-1.75205,51.58462 ]}},
{ "type":"Feature","properties":{"osm_id":"5014568476","name":"M&S Simply Food","other":{"brand":"M&S Simply Food","brand:wikidata":"Q714491","operator":"Marks & Spencer","shop":"supermarket"}}, "geometry":{"type":"Point","coordinates":[-1.81323,51.55431 ]}},
{ "type":"Feature","properties":{"osm_id":"7923824445","name":"Krakow Polski Sklep","other":{"shop":"supermarket"}}, "geometry":{"type":"Point","coordinates":[-1.78669,51.56266 ]}},
{ "type":"Feature","properties":{"osm_way_id":"4229379","name":"Tesco Extra","building":"retail","shop":"supermarket","other":{"addr:city":"Yate","addr:housenumber":"12","addr:postcode":"BS37 4AS","addr:street":"East Walk","brand":"Tesco Extra","brand:wikidata":"Q25172225","brand:wikipedia":"en:Tesco Extra","fhrs:id":"58296","layer":"1","level":"1","source:outline":"Bing;estimated from photos","start_date":"2011"}}, "geometry":{"type":"MultiPolygon","coordinates":[[[[-2.41202,51.54004],[-2.41197,51.54014],[-2.41179,51.54011],[-2.41161,51.54008],[-2.41143,51.54004],[-2.41088,51.53994],[-2.41029,51.53983],[-2.41081,51.53873],[-2.41199,51.53894],[-2.41185,51.53923],[-2.41215,51.53928],[-2.4121,51.53937],[-2.41232,51.53941],[-2.41202,51.54004]]]]}},
{ "type":"Feature","properties":{"osm_way_id":"32229733","name":"Tesco Extra","building":"yes","shop":"supermarket","other":{"addr:postcode":"SN1 2EH","addr:street":"Ocotal Way","brand":"Tesco Extra","brand:wikidata":"Q25172225","brand:wikipedia":"en:Tesco Extra","opening_hours":"Mo-Sa 00:00-24:00; Su 10:00-16:00","surface":"ground","surface_1":"concrete","surface_2":"wood","toilets:wheelchair":"yes","wheelchair":"yes"}}, "geometry":{"type":"MultiPolygon","coordinates":[[[[-1.77163,51.56797],[-1.77146,51.56802],[-1.77137,51.568],[-1.77122,51.56803],[-1.77104,51.56807],[-1.77104,51.56808],[-1.77085,51.56813],[-1.7698,51.56839],[-1.76975,51.5683],[-1.76978,51.56829],[-1.7696,51.568],[-1.76938,51.56806],[-1.76934,51.568],[-1.76932,51.56801],[-1.76908,51.56793],[-1.7692,51.5678],[-1.76896,51.56772],[-1.76911,51.56755],[-1.76935,51.56764],[-1.76942,51.56775],[-1.76976,51.56767],[-1.76977,51.56769],[-1.77028,51.56757],[-1.77027,51.56754],[-1.7704,51.5675],[-1.77042,51.56753],[-1.77075,51.56745],[-1.77073,51.56742],[-1.77092,51.56738],[-1.77093,51.56739],[-1.77143,51.56726],[-1.77165,51.56761],[-1.77173,51.56763],[-1.77179,51.56773],[-1.77172,51.56781],[-1.77173,51.56783],[-1.77163,51.56797]]]]}},
{ "type":"Feature","properties":{"osm_way_id":"75786208","name":"Co-Operative","building":"yes","shop":"supermarket","other":{"addr:housenumber":"366","addr:postcode":"SN2 2PF","addr:street":"Cheney Manor Road","fhrs:id":"253462","source:addr":"FHRS Open Data"}}, "geometry":{"type":"MultiPolygon","coordinates":[[[[-1.79889,51.58234],[-1.79836,51.5824],[-1.79839,51.5825],[-1.79816,51.58253],[-1.79814,51.58246],[-1.79807,51.58247],[-1.79812,51.58263],[-1.79851,51.58258],[-1.79852,51.58262],[-1.79895,51.58257],[-1.79889,51.58234]]]]}},
{ "type":"Feature","properties":{"osm_way_id":"92943549","name":"Morrisons","building":"yes","shop":"supermarket","other":{"addr:postcode":"SN25 1QQ","addr:street":"Thames Avenue","brand":"Morrisons","brand:wikidata":"Q922344","brand:wikipedia":"en:Morrisons","fhrs:id":"253532","operator":"Morrisons"}}, "geometry":{"type":"MultiPolygon","coordinates":[[[[-1.80896,51.5929],[-1.80899,51.59242],[-1.80924,51.59243],[-1.80925,51.59229],[-1.80983,51.59231],[-1.80978,51.59292],[-1.80896,51.5929]]]]}},
{ "type":"Feature","properties":{"osm_way_id":"133170115","name":"The Co-operative Food","building":"yes","shop":"supermarket"},"geometry":{"type":"MultiPolygon","coordinates":[[[[-1.79431,51.52271],[-1.79413,51.5224],[-1.79433,51.52235],[-1.79434,51.52237],[-1.79439,51.52247],[-1.7945,51.52267],[-1.79431,51.52271]]]]}},
{ "type":"Feature","properties":{"osm_way_id":"142896829","name":"Sainsbury's","building":"supermarket","shop":"supermarket","other":{"addr:postcode":"SN5 7AA","addr:street":"Paddington Drive","brand":"Sainsbury's","brand:wikidata":"Q152096","brand:wikipedia":"en:Sainsbury's","contact:website":"https:\/\/stores.sainsburys.co.uk\/0669\/bridgemead","fhrs:id":"253953","opening_hours":"Mo-Fr 08:00-23:00; Sa 07:00-22:00; Su 10:00-16:00","operator":"Sainsbury's","phone":"+44 1793420046","wheelchair":"yes"}}, "geometry":{"type":"MultiPolygon","coordinates":[[[[-1.81152,51.55794],[-1.81115,51.55816],[-1.81117,51.55818],[-1.81102,51.55827],[-1.81113,51.55834],[-1.81046,51.55875],[-1.81029,51.55864],[-1.81031,51.55863],[-1.81009,51.55848],[-1.81021,51.5584],[-1.80981,51.55815],[-1.80976,51.55818],[-1.80959,51.55807],[-1.81007,51.55778],[-1.81044,51.55755],[-1.8107,51.55771],[-1.81093,51.55756],[-1.81152,51.55794]]]]}},
{ "type":"Feature","properties":{"osm_way_id":"145502493","name":"Lidl","building":"yes","shop":"supermarket","other":{"addr:housenumber":"57","addr:postcode":"SN2 8BU","addr:street":"Bright Street","brand":"Lidl","brand:wikidata":"Q151954","brand:wikipedia":"en:Lidl","fhrs:id":"252858","source:addr":"FHRS Open Data"}}, "geometry":{"type":"MultiPolygon","coordinates":[[[[-1.77161,51.57124],[-1.77163,51.57158],[-1.77268,51.57157],[-1.77267,51.57119],[-1.77193,51.57119],[-1.77193,51.57123],[-1.77161,51.57124]]]]}},
{ "type":"Feature","properties":{"osm_way_id":"167254688","name":"Lidl","building":"yes","shop":"supermarket","other":{"addr:country":"GB","addr:postcode":"SN2 2DL","addr:street":"Barnfield Road","brand":"Lidl","brand:wikidata":"Q151954","brand:wikipedia":"en:Lidl","fhrs:id":"253539","survey:date":"2020-03-12"}}, "geometry":{"type":"MultiPolygon","coordinates":[[[[-1.80836,51.5677],[-1.80835,51.56767],[-1.80849,51.56765],[-1.8085,51.56768],[-1.80892,51.56763],[-1.8089,51.56759],[-1.80907,51.56758],[-1.80918,51.56756],[-1.80928,51.56786],[-1.80843,51.56797],[-1.80841,51.56788],[-1.80835,51.5677],[-1.80836,51.5677]]]]}},
{ "type":"Feature","properties":{"osm_way_id":"167351844","name":"Aldi","building":"yes","shop":"supermarket","other":{"brand":"ALDI","brand:wikidata":"Q41171672","brand:wikipedia":"en:Aldi","contact:website":"https:\/\/www.aldi.co.uk\/store\/s-uk-E0749","opening_hours":"Mo-Sa 08:00-20:00; Su 10:00-16:00"}}, "geometry":{"type":"MultiPolygon","coordinates":[[[[-1.77253,51.5618],[-1.77253,51.56193],[-1.77167,51.56198],[-1.77158,51.56199],[-1.77156,51.56188],[-1.77154,51.5617],[-1.77188,51.56168],[-1.77189,51.5617],[-1.77231,51.56167],[-1.77232,51.56174],[-1.77233,51.56181],[-1.77253,51.5618]]]]}},
{ "type":"Feature","properties":{"osm_way_id":"167862437","name":"Co-op Food","building":"yes","shop":"supermarket","other":{"addr:postcode":"SN1 3EG","addr:street":"High Street","brand":"Co-op Food","brand:wikidata":"Q3277439","brand:wikipedia":"en:Co-op Food","fhrs:id":"253751","toilets:wheelchair":"no","website":"https:\/\/www.storelocate.co.uk\/co-op-food\/old-town.html","wheelchair":"yes"}}, "geometry":{"type":"MultiPolygon","coordinates":[[[[-1.7746,51.5511],[-1.77443,51.55083],[-1.77371,51.55102],[-1.77362,51.55112],[-1.77382,51.55141],[-1.7743,51.55129],[-1.77423,51.55119],[-1.7746,51.5511]]]]}},
{ "type":"Feature","properties":{"osm_way_id":"174378723","name":"Asda","building":"yes","shop":"supermarket","other":{"addr:city":"Swindon","addr:country":"GB","addr:housename":"Orbital Park Shopping Centre","addr:postcode":"SN25 4BG","addr:street":"Thamesdown Drive","addr:unit":"A1","alt_name":"ASDA Orbital","brand":"Asda","brand:wikidata":"Q297410","brand:wikipedia":"en:Asda","contact:facebook":"https:\/\/www.facebook.com\/asda\/","contact:twitter":"@asda","contact:website":"https:\/\/storelocator.asda.com\/south-west\/swindon\/orbital-shopping-park-thamesdown-drive","fhrs:id":"254004","operator":"Asda Stores Ltd","toilets:wheelchair":"yes","wheelchair":"yes"}}, "geometry":{"type":"MultiPolygon","coordinates":[[[[-1.80634,51.59758],[-1.80594,51.59709],[-1.80567,51.59675],[-1.80551,51.5968],[-1.80537,51.59662],[-1.80483,51.59679],[-1.80479,51.59674],[-1.8044,51.59686],[-1.80447,51.59694],[-1.80413,51.59704],[-1.80425,51.59719],[-1.80378,51.59734],[-1.80445,51.59817],[-1.80634,51.59758]]]]}},
{ "type":"Feature","properties":{"osm_way_id":"180044325","name":"Spar","building":"yes","shop":"supermarket","other":{"brand":"Spar","brand:wikidata":"Q610492","brand:wikipedia":"en:Spar (retailer)","operator":"Spar","payment:cards":"yes","payment:cash":"yes"}}, "geometry":{"type":"MultiPolygon","coordinates":[[[[-1.73126,51.51649],[-1.73115,51.51656],[-1.73107,51.51651],[-1.73118,51.51644],[-1.73126,51.51649]]]]}},
{ "type":"Feature","properties":{"osm_way_id":"191744011","name":"Co-op","building":"commercial","shop":"supermarket","other":{"addr:postcode":"SN6 7AJ","addr:street":"Brewery Street","fhrs:id":"252852","source:addr":"FHRS Open Data","wheelchair":"yes"}}, "geometry":{"type":"MultiPolygon","coordinates":[[[[-1.70996,51.62941],[-1.71018,51.62986],[-1.71008,51.62988],[-1.71013,51.62998],[-1.70991,51.63002],[-1.70979,51.62977],[-1.70968,51.62978],[-1.70955,51.62948],[-1.70996,51.62941]]]]}},
{ "type":"Feature","properties":{"osm_way_id":"201484494","name":"Sainsbury's","building":"retail","shop":"supermarket","other":{"addr:postcode":"SN3 4EW","addr:street":"Oxford Road","brand":"Sainsbury's","brand:wikidata":"Q152096","brand:wikipedia":"en:Sainsbury's","fhrs:id":"253545","opening_hours":"Mo-Fr 07:00-23:00; Sa 06:00-22:00; Su 10:00-16:00","operator":"Sainsbury's","source:addr":"FHRS Open Data","wheelchair":"yes"}}, "geometry":{"type":"MultiPolygon","coordinates":[[[[-1.72935,51.57712],[-1.72926,51.57704],[-1.7294,51.57697],[-1.72891,51.57656],[-1.72876,51.57663],[-1.72878,51.57664],[-1.7287,51.57668],[-1.7286,51.5766],[-1.72867,51.57656],[-1.72861,51.57651],[-1.72864,51.5765],[-1.72872,51.57639],[-1.72861,51.57636],[-1.72854,51.57644],[-1.72769,51.57683],[-1.72771,51.57685],[-1.72825,51.57731],[-1.72818,51.57735],[-1.72821,51.57737],[-1.72815,51.5774],[-1.72827,51.5775],[-1.72828,51.57753],[-1.7283,51.57756],[-1.72833,51.57757],[-1.72838,51.57758],[-1.72843,51.57757],[-1.72847,51.57756],[-1.7285,51.57753],[-1.72851,51.5775],[-1.72935,51.57712]]]]}},
{ "type":"Feature","properties":{"osm_way_id":"228445335","name":"Lidl","building":"yes","shop":"supermarket","other":{"addr:country":"GB","addr:postcode":"SN25 4AN","addr:unit":"C1B","brand":"Lidl","brand:wikidata":"Q151954","brand:wikipedia":"en:Lidl","fhrs:id":"1244872"}}, "geometry":{"type":"MultiPolygon","coordinates":[[[[-1.80938,51.59736],[-1.80882,51.59803],[-1.80946,51.59823],[-1.80948,51.59821],[-1.80956,51.59824],[-1.81009,51.59759],[-1.80938,51.59736]]]]}},
{ "type":"Feature","properties":{"osm_way_id":"384553323","name":"Aldi","building":"yes","shop":"supermarket","other":{"addr:postcode":"SN5 7EZ","addr:street":"Shaw Road","brand":"ALDI","brand:wikidata":"Q41171672","brand:wikipedia":"en:Aldi","fhrs:id":"815754","source:addr":"FHRS Open Data"}}, "geometry":{"type":"MultiPolygon","coordinates":[[[[-1.8261,51.56592],[-1.82575,51.56608],[-1.82531,51.56572],[-1.82558,51.56559],[-1.82553,51.56555],[-1.82561,51.56551],[-1.8261,51.56592]]]]}},
{ "type":"Feature","properties":{"osm_way_id":"545346605","name":"Morrisons","building":"retail","shop":"supermarket","other":{"addr:postcode":"SN1 3DQ","opening_hours":"Mo-Sa 07:00-23:00; Su 11:00-17:00","operator":"Morrisons","wheelchair":"yes"}}, "geometry":{"type":"MultiPolygon","coordinates":[[[[-1.78182,51.5574],[-1.78163,51.55792],[-1.78067,51.55778],[-1.78083,51.55725],[-1.78182,51.5574]]]]}},
{ "type":"Feature","properties":{"osm_way_id":"545357835","name":"Morrisons","building":"supermarket","shop":"supermarket","other":{"addr:city":"Swindon","addr:housename":"Unit 1, Dorcan Way Centre","addr:postcode":"SN3 3TZ","addr:street":"Dorcan Way","brand":"Morrisons","brand:wikidata":"Q922344","brand:wikipedia":"en:Morrisons","operator":"Morrisons"}}, "geometry":{"type":"MultiPolygon","coordinates":[[[[-1.73359,51.55605],[-1.73291,51.55604],[-1.73291,51.55607],[-1.7327,51.55607],[-1.7327,51.55596],[-1.7328,51.55596],[-1.7328,51.55553],[-1.73281,51.55549],[-1.73366,51.55549],[-1.73366,51.55568],[-1.73382,51.55568],[-1.73381,51.55605],[-1.73359,51.55605]]]]}},
{ "type":"Feature","properties":{"osm_way_id":"590874360","name":"Waitrose","shop":"supermarket","other":{"brand":"Waitrose & Partners","brand:wikidata":"Q771734","brand:wikipedia":"en:Waitrose & Partners","operator":"Waitrose & Partners","toilets:wheelchair":"yes","wheelchair":"yes"}}, "geometry":{"type":"MultiPolygon","coordinates":[[[[-1.80727,51.54515],[-1.80757,51.54492],[-1.80769,51.54487],[-1.80775,51.54486],[-1.80808,51.54478],[-1.80826,51.54472],[-1.80857,51.54461],[-1.80893,51.54446],[-1.80922,51.54432],[-1.80947,51.54418],[-1.80899,51.54401],[-1.80883,51.54395],[-1.80878,51.544],[-1.80868,51.54404],[-1.8074,51.54361],[-1.80632,51.54487],[-1.80712,51.54512],[-1.80727,51.54515]]]]}},
{ "type":"Feature","properties":{"osm_way_id":"764201206","name":"Aldi","building":"yes","shop":"supermarket","other":{"brand":"ALDI","brand:wikidata":"Q41171672","brand:wikipedia":"en:Aldi"}}, "geometry":{"type":"MultiPolygon","coordinates":[[[[-1.80282,51.56718],[-1.80228,51.5667],[-1.80188,51.56688],[-1.80213,51.5671],[-1.80215,51.56709],[-1.80239,51.5673],[-1.80263,51.5672],[-1.80268,51.56724],[-1.80282,51.56718]]]]}}
]
}
