{
"type": "FeatureCollection",
"features": [
{ "type":"Feature","properties":{"osm_id":"269244423","name":"Sainsbury's","other":{"addr:city":"Hartlepool","addr:housename":"Middle Warren Centre","addr:postcode":"TS26 0BF","addr:street":"Mulberry Rise","addr:unit":"3","brand":"Sainsbury's","brand:wikidata":"Q152096","brand:wikipedia":"en:Sainsbury's","fhrs:id":"259682","shop":"supermarket","source:addr":"FHRS Open Data"}}, "geometry":{"type":"Point","coordinates":[-1.24892,54.70692 ]}},
{ "type":"Feature","properties":{"osm_id":"274333805","name":"Tesco Express","other":{"addr:city":"Hartlepool","addr:housenumber":"420-426","addr:postcode":"TS25 2LS","addr:street":"Catcote Road","brand":"Tesco Express","brand:wikidata":"Q98456772","contact:website":"https:\/\/www.tesco.com\/store-locator\/hartlepool\/420-426-catcote-rd","fhrs:id":"259343","opening_hours":"Mo-Su 06:00-23:00","operator":"Tesco","shop":"supermarket","source:addr":"FHRS Open Data"}}, "geometry":{"type":"Point","coordinates":[-1.23344,54.65498 ]}},
{ "type":"Feature","properties":{"osm_id":"528335723","man_made":"surveillance","other":{"camera:mount":"building","camera:type":"dome","surveillance:type":"camera"}}, "geometry":{"type":"Point","coordinates":[-1.20963,54.6901 ]}},
{ "type":"Feature","properties":{"osm_id":"528335729","man_made":"surveillance","other":{"camera:mount":"building","camera:type":"dome","surveillance:type":"camera"}}, "geometry":{"type":"Point","coordinates":[-1.21103,54.69004 ]}},
{ "type":"Feature","properties":{"osm_id":"528679097","name":"Co-Op","other":{"shop":"supermarket"}}, "geometry":{"type":"Point","coordinates":[-1.22303,54.67517 ]}},
{ "type":"Feature","properties":{"osm_id":"528997242","name":"Spar","other":{"addr:city":"Hartlepool","addr:housenumber":"50-52","addr:postcode":"TS25 2AX","addr:street":"Elizabeth Way","brand":"Spar","brand:wikidata":"Q610492","brand:wikipedia":"en:Spar (retailer)","fhrs:id":"259686","shop":"supermarket","source:addr":"FHRS Open Data"}}, "geometry":{"type":"Point","coordinates":[-1.19543,54.65632 ]}},
{ "type":"Feature","properties":{"osm_id":"684003948","name":"The Co-operative Food","other":{"addr:city":"Hartlepool","addr:housenumber":"58-60","addr:postcode":"TS24 0LP","addr:street":"Northgate","shop":"supermarket"}}, "geometry":{"type":"Point","coordinates":[-1.18737,54.69908 ]}},
{ "type":"Feature","properties":{"osm_id":"1793629351","name":"M&S Foodhall","other":{"brand":"M&S Foodhall","brand:wikidata":"Q714491","brand:wikipedia":"en:Marks & Spencer","shop":"supermarket"}}, "geometry":{"type":"Point","coordinates":[-1.21069,54.69071 ]}},
{ "type":"Feature","properties":{"osm_id":"8832030477","name":"Aldi","other":{"addr:city":"Hartlepool","addr:parentstreet":"Brenda Road","addr:street":"Teesbay Retail Park","brand":"ALDI","brand:wikidata":"Q41171672","brand:wikipedia":"en:Aldi","fhrs:id":"1303367","operator":"Aldi","payment:coins":"yes","payment:notes":"yes","payment:visa_debit":"yes","payment:visa_electron":"yes","shop":"supermarket","source:addr":"interpolation","wheelchair":"yes"}}, "geometry":{"type":"Point","coordinates":[-1.2129,54.6674 ]}},
{ "type":"Feature","properties":{"osm_way_id":"42327375","name":"Asda","building":"yes","shop":"supermarket","other":{"addr:city":"Hartlepool","addr:country":"GB","addr:postcode":"TS24 0XR","addr:street":"Marina Way","alt_name":"ASDA Hartlepool Superstore","brand":"Asda","brand:wikidata":"Q297410","brand:wikipedia":"en:Asda","contact:facebook":"https:\/\/www.facebook.com\/asda\/","contact:twitter":"@asda","contact:website":"https:\/\/storelocator.asda.com\/north-east\/hartlepool\/marina-way","fhrs:id":"259194","opening_hours":"Mo 08:00-24:00; Tu-Fr 00:00-24:00; Sa 00:00-22:00; Su 10:00-16:00","operator":"Asda Stores Ltd","wheelchair":"yes"}}, "geometry":{"type":"MultiPolygon","coordinates":[[[[-1.21092,54.68907],[-1.20981,54.68911],[-1.20967,54.68904],[-1.20947,54.68917],[-1.20958,54.68923],[-1.20962,54.68955],[-1.20957,54.68956],[-1.20963,54.6901],[-1.21103,54.69004],[-1.211,54.68981],[-1.21128,54.6898],[-1.21123,54.6894],[-1.21095,54.68941],[-1.21092,54.68907]]]]}},
{ "type":"Feature","properties":{"osm_way_id":"163357463","name":"ALDI","building":"yes","shop":"supermarket","other":{"addr:city":"Hartlepool","addr:postcode":"TS26 0EN","addr:street":"Dunston Road","alt_name":"ALDI Hartlepool","brand":"ALDI","brand:wikidata":"Q41171672","brand:wikipedia":"en:Aldi"}}, "geometry":{"type":"MultiPolygon","coordinates":[[[[-1.24244,54.69194],[-1.2425,54.69192],[-1.24258,54.692],[-1.24294,54.69184],[-1.24285,54.69177],[-1.24244,54.69143],[-1.24209,54.69158],[-1.24238,54.69181],[-1.24232,54.69184],[-1.24244,54.69194]]]]}},
{ "type":"Feature","properties":{"osm_way_id":"167809803","name":"Morrisons","building":"yes","shop":"supermarket","other":{"addr:city":"Hartlepool","addr:postcode":"TS24 8BZ","addr:street":"Clarence Road","alt_name":"Morrisons Hartlepool","brand":"Morrisons","brand:wikidata":"Q922344","brand:wikipedia":"en:Morrisons","building:levels":"1","fhrs:id":"259634","opening_hours":"Mo-Sa 07:00-22:00; Su 10:00-16:00","operator":"Morrisons","wheelchair":"yes"}}, "geometry":{"type":"MultiPolygon","coordinates":[[[[-1.21319,54.68764],[-1.21303,54.68764],[-1.21304,54.68768],[-1.21308,54.6882],[-1.21309,54.68834],[-1.21335,54.68834],[-1.21337,54.68843],[-1.2138,54.68843],[-1.21379,54.68847],[-1.21461,54.68848],[-1.21462,54.68831],[-1.21433,54.6883],[-1.21432,54.68778],[-1.21411,54.68777],[-1.21411,54.68764],[-1.21319,54.68764]]]]}},
{ "type":"Feature","properties":{"osm_way_id":"168773767","name":"Tesco Extra","building":"supermarket","shop":"supermarket","other":{"brand":"Tesco Extra","brand:wikidata":"Q25172225","brand:wikipedia":"en:Tesco Extra","internet_access":"wlan","operator":"Tesco","roof:shape":"flat","website":"https:\/\/www.tesco.com\/store-locator\/hartlepool\/belle-vue-way","wheelchair":"yes"}}, "geometry":{"type":"MultiPolygon","coordinates":[[[[-1.21084,54.67716],[-1.20996,54.67727],[-1.20998,54.67732],[-1.20925,54.67741],[-1.20922,54.67733],[-1.20891,54.67736],[-1.20889,54.6773],[-1.20853,54.67735],[-1.20825,54.67656],[-1.2087,54.67651],[-1.20873,54.67658],[-1.20917,54.67653],[-1.20925,54.67673],[-1.20936,54.67672],[-1.20934,54.67668],[-1.20992,54.67661],[-1.20989,54.67653],[-1.21021,54.67649],[-1.21016,54.67633],[-1.21048,54.67629],[-1.21057,54.67656],[-1.21063,54.67656],[-1.21084,54.67716]]]]}},
{ "type":"Feature","properties":{"osm_way_id":"171486732","name":"Lidl Hartlepool","building":"yes","shop":"supermarket","other":{"addr:city":"Hartlepool","addr:postcode":"TS24 8PJ","addr:street":"Jesmond Gardens","brand":"Lidl","brand:wikidata":"Q151954","brand:wikipedia":"en:Lidl","fhrs:id":"259256","source:addr":"FHRS Open Data"}}, "geometry":{"type":"MultiPolygon","coordinates":[[[[-1.22995,54.69959],[-1.2294,54.69958],[-1.22936,54.69895],[-1.2297,54.69895],[-1.22994,54.69895],[-1.22995,54.69959]]]]}},
{ "type":"Feature","properties":{"osm_way_id":"640290908","name":"Lidl","building":"retail","shop":"supermarket","other":{"addr:city":"Hartlepool","addr:housenumber":"11","addr:parentstreet":"Brenda Road","addr:postcode":"TS25 1XJ","addr:street":"Teesbay Retail Park","brand":"Lidl","brand:wikidata":"Q151954","brand:wikipedia":"en:Lidl","building:levels":"1","fhrs:id":"1089355","opening_hours":"Mo-Sa 08:00-22:00; Su 10:00-16:00","source:addr":"FHRS Open Data"}}, "geometry":{"type":"MultiPolygon","coordinates":[[[[-1.20819,54.66541],[-1.20707,54.66552],[-1.20715,54.66579],[-1.20795,54.66571],[-1.20796,54.66575],[-1.20828,54.66572],[-1.20819,54.66541]]]]}},
{ "type":"Feature","properties":{"osm_way_id":"1015039294","name":"Premier express","building":"retail","shop":"supermarket","other":{"addr:street":"York Road"}}, "geometry":{"type":"MultiPolygon","coordinates":[[[[-1.21674,54.67868],[-1.21675,54.67873],[-1.2166,54.67874],[-1.21659,54.67868],[-1.21674,54.67868]]]]}}
]
}
