{
"type": "FeatureCollection",
"features": [
{ "type":"Feature","properties":{"osm_id":"5739247237","man_made":"survey_point","other":{"description":"Garage Sw Side Ninfield Rd Se Face 1.6m E Ang","height":"0.3","survey_point:structure":"cut","survey_point:verified_date":"1971","wikimedia_commons":"File:Benchmark, Garage, All Saints Lane, Bexhill.jpg;File:Benchmark, Garage, All Saints Lane, Bexhill (2).jpg"}}, "geometry":{"type":"Point","coordinates":[0.46946,50.85667 ]}},
{ "type":"Feature","properties":{"osm_way_id":"28941211","name":"Brett Tyres","building":"warehouse","shop":"car_repair","other":{"addr:housenumber":"3","addr:street":"Brett Drive","addr:unit":"1","building:levels":"1","contact:facebook":"https:\/\/www.facebook.com\/BrettTyres","contact:phone":"+44 1424 734076","contact:website":"http:\/\/brett-tyres.co.uk\/","height":"6","opening_hours":"Mo-Fr 09:00-17:00; Sa 09:00-14:00","service:vehicle:air_conditioning":"yes","service:vehicle:car_repair":"yes","service:vehicle:diagnostics":"yes","service:vehicle:inspection":"yes","service:vehicle:tyres":"yes","wheelchair":"yes","wikimedia_commons":"File:Small industrial estate, Bexhill on Sea - geograph.org.uk - 907935.jpg"}}, "geometry":{"type":"MultiPolygon","coordinates":[[[[0.49812,50.84405],[0.49814,50.84393],[0.49828,50.84394],[0.49826,50.84406],[0.49812,50.84405]]]]}},
{ "type":"Feature","properties":{"osm_way_id":"28944589","name":"Angels MOT & Service Centre","building":"warehouse","shop":"car_repair","other":{"addr:housenumber":"8A","addr:street":"Brett Drive","building:levels":"2","contact:email":"info@angelsmotcentre.co.uk","contact:facebook":"https:\/\/www.facebook.com\/angelsmotbexhill","contact:phone":"+44 1424 212684","contact:twitter":"angelsmotservic","contact:website":"http:\/\/www.angelsmotcentre.co.uk","height":"7","opening_hours":"Mo-Fr 08:30-17:30; Sa 08:30-12:30","service:vehicle:car_repair":"yes","service:vehicle:diagnostics":"yes","service:vehicle:inspection":"yes","wheelchair":"yes"}}, "geometry":{"type":"MultiPolygon","coordinates":[[[[0.49699,50.84485],[0.49698,50.84499],[0.4975,50.84499],[0.4975,50.84486],[0.49699,50.84485]]]]}},
{ "type":"Feature","properties":{"osm_way_id":"28944594","name":"H2O Linen Services","building":"warehouse","office":"company","other":{"addr:housenumber":"7A","addr:street":"Brett Drive","building:levels":"2","contact:email":"info@h2olinenservices.com","contact:phone":"+44 1424 217001","contact:website":"http:\/\/www.h2olinenservices.com\/","height":"7","opening_hours":"Mo-Fr 09:00-17:00","start_date":"1967","wheelchair":"yes"}}, "geometry":{"type":"MultiPolygon","coordinates":[[[[0.4977,50.84406],[0.49705,50.84401],[0.49701,50.8442],[0.49708,50.84421],[0.49721,50.84422],[0.49718,50.84439],[0.49763,50.84443],[0.4977,50.84406]]]]}},
{ "type":"Feature","properties":{"osm_way_id":"28944595","name":"AAH Pharmaceuticals","building":"warehouse","office":"company","other":{"addr:housenumber":"6","addr:street":"Brett Drive","building:levels":"2","contact:website":"https:\/\/www.aah.co.uk\/","height":"9"}}, "geometry":{"type":"MultiPolygon","coordinates":[[[[0.497,50.84382],[0.49762,50.84386],[0.49767,50.84362],[0.49704,50.84357],[0.497,50.84382]]]]}},
{ "type":"Feature","properties":{"osm_way_id":"28944675","building":"warehouse","other":{"building:levels":"1","height":"11"}}, "geometry":{"type":"MultiPolygon","coordinates":[[[[0.46862,50.84285],[0.46864,50.84275],[0.46864,50.84259],[0.46907,50.84261],[0.46905,50.84279],[0.46921,50.8428],[0.4692,50.84288],[0.46893,50.84287],[0.46868,50.84285],[0.46862,50.84285]]]]}},
{ "type":"Feature","properties":{"osm_way_id":"28944681","name":"Skinners Sheds Ltd","building":"warehouse","office":"company","other":{"addr:city":"Bexhill-on-Sea","addr:housenumber":"11","addr:postcode":"TN39 3LJ","addr:street":"Beeching Road","building:levels":"2","contact:phone":"+44 1424 716716","contact:website":"https:\/\/www.skinners-sheds.com\/","height":"9"}}, "geometry":{"type":"MultiPolygon","coordinates":[[[[0.46486,50.84191],[0.46505,50.84189],[0.46506,50.84193],[0.46543,50.84189],[0.46532,50.84143],[0.46476,50.84149],[0.46486,50.84191]]]]}},
{ "type":"Feature","properties":{"osm_way_id":"28944684","name":"BJL Motor Services","building":"warehouse","shop":"car_repair","other":{"addr:city":"Bexhill-on-Sea","addr:housenumber":"3C","addr:postcode":"TN39 3LG","addr:street":"Beeching Road","building:levels":"1","contact:phone":"+44 1424 733337","height":"7","opening_hours":"Mo-Fr 08:00-18:00; Sa 09:00-12:00","service:vehicle:diagnostics":"yes","service:vehicle:inspection":"yes","wheelchair":"yes"}}, "geometry":{"type":"MultiPolygon","coordinates":[[[[0.46727,50.84376],[0.46742,50.84381],[0.46715,50.84414],[0.46699,50.84409],[0.46702,50.84406],[0.46727,50.84376]]]]}},
{ "type":"Feature","properties":{"osm_way_id":"29134014","name":"Ibstock Ashdown Factory","building":"warehouse","office":"company","other":{"addr:city":"Bexhill-on-Sea","addr:postcode":"TN39 5HY","addr:street":"Turkey Road","contact:phone":"+44 1424 847400","contact:website":"http:\/\/www.ibstock.com\/","fhrs:id":"776764","height":"12","source:addr":"FHRS Open Data","wikimedia_commons":"File:Turkey Road Brick Pit, Bexhill (aerial).jpg"}}, "geometry":{"type":"MultiPolygon","coordinates":[[[[0.44384,50.85869],[0.4436,50.85803],[0.44392,50.85798],[0.44386,50.85782],[0.44443,50.85773],[0.44449,50.8579],[0.44558,50.85775],[0.44566,50.85795],[0.44572,50.85794],[0.44573,50.85797],[0.44588,50.85795],[0.44603,50.85838],[0.44463,50.85858],[0.44465,50.85864],[0.44438,50.85868],[0.44436,50.85862],[0.44384,50.85869]]]]}},
{ "type":"Feature","properties":{"osm_way_id":"205219517","building":"warehouse","other":{"building:levels":"1","height":"7"}}, "geometry":{"type":"MultiPolygon","coordinates":[[[[0.50974,50.85693],[0.50956,50.85688],[0.50953,50.85693],[0.50949,50.85692],[0.50937,50.85711],[0.50954,50.85715],[0.50953,50.85716],[0.50958,50.85718],[0.50974,50.85693]]]]}},
{ "type":"Feature","properties":{"osm_way_id":"205219596","building":"warehouse","other":{"building:levels":"2","height":"17"}}, "geometry":{"type":"MultiPolygon","coordinates":[[[[0.5068,50.85704],[0.50776,50.85712],[0.50782,50.85685],[0.50803,50.85687],[0.50808,50.85662],[0.50754,50.85658],[0.5075,50.85679],[0.50686,50.85674],[0.5068,50.85704]]]]}},
{ "type":"Feature","properties":{"osm_way_id":"247455902","building":"warehouse","other":{"building:levels":"2"}}, "geometry":{"type":"MultiPolygon","coordinates":[[[[0.47442,50.84041],[0.47443,50.84032],[0.47464,50.84033],[0.47466,50.84042],[0.47442,50.84041]]]]}},
{ "type":"Feature","properties":{"osm_way_id":"388464785","name":"Motest","building":"warehouse","shop":"car_repair","other":{"addr:city":"Bexhill-on-Sea","addr:postcode":"TN40 1LP","addr:street":"Middlesex Road","addr:unit":"2","building:levels":"1","contact:email":"bexhill@motest.co.uk","contact:facebook":"https:\/\/www.facebook.com\/MOTESTBexhill\/","contact:phone":"+44 1424 218080","contact:website":"http:\/\/www.bexhill.justmots.eu\/","height":"11","opening_hours":"Mo-Fr 08:00-17:30; Sa 08:00-13:00","ref:GB:uprn":"10002649894;100062685755","service:vehicle:car_repair":"yes","service:vehicle:diagnostics":"yes","service:vehicle:inspection":"yes","wheelchair":"yes"}}, "geometry":{"type":"MultiPolygon","coordinates":[[[[0.48056,50.83952],[0.48054,50.83959],[0.48077,50.83962],[0.4809,50.83964],[0.48093,50.83957],[0.48056,50.83952]]]]}},
{ "type":"Feature","properties":{"osm_way_id":"388464787","name":"Sea View Hand Car Wash","amenity":"car_wash","building":"warehouse","other":{"addr:city":"Bexhill-on-Sea","addr:postcode":"TN40 1EN","addr:street":"Bolebrooke Road","addr:unit":"1","building:levels":"1","height":"11","opening_hours":"Mo-Sa 08:00-18:00; Su 09:00-13:00","ref:GB:uprn":"10090508162;10090508161;10090508160;200002905687"}}, "geometry":{"type":"MultiPolygon","coordinates":[[[[0.48072,50.83974],[0.48072,50.83975],[0.48122,50.83982],[0.48127,50.8397],[0.4809,50.83964],[0.48077,50.83962],[0.48072,50.83974]]]]}},
{ "type":"Feature","properties":{"osm_way_id":"388464789","name":"Stackz","building":"warehouse","leisure":"fitness_centre","other":{"addr:city":"Bexhill-on-Sea","addr:postcode":"TN40 1EN","addr:street":"Bolebrooke Road","addr:unit":"2","building:levels":"1","contact:email":"stackzgym@gmail.com","contact:facebook":"https:\/\/www.facebook.com\/StackzGym\/","contact:phone":"+44 1424 213212","contact:website":"https:\/\/www.stackzgym.co.uk\/","height":"11","opening_hours":"Mo-Fr 08:00-21:30; Sa 08:00-17:00; Su 10:00-16:00","ref:GB:uprn":"10002661597;10002661598;10002661599;200002905632"}}, "geometry":{"type":"MultiPolygon","coordinates":[[[[0.48093,50.83957],[0.4809,50.83964],[0.48127,50.8397],[0.48131,50.83958],[0.48095,50.83952],[0.48093,50.83957]]]]}},
{ "type":"Feature","properties":{"osm_way_id":"391391604","name":"Formula One Autocentre","building":"warehouse","shop":"car_repair","other":{"addr:city":"Bexhill-on-Sea","addr:housenumber":"21","addr:postcode":"TN40 1RE","addr:street":"Station Road","building:levels":"1","contact:email":"reception@f1autocentres.com","contact:phone":"+44 1424 211115","contact:website":"https:\/\/www.f1autocentres.co.uk\/branch\/car-tyres-service-mot-bexhill","height":"7","internet_access":"wlan","opening_hours":"Mo-Fr 08:30-17:30; Sa 08:30-17:00","ref:GB:uprn":"100062588605;100062589028","service:vehicle:car_repair":"yes","service:vehicle:diagnostics":"yes","service:vehicle:inspection":"yes","service:vehicle:tyres":"yes","wheelchair":"yes"}}, "geometry":{"type":"MultiPolygon","coordinates":[[[[0.4728,50.84131],[0.47292,50.84133],[0.47302,50.84116],[0.47311,50.84117],[0.47312,50.84111],[0.47297,50.84111],[0.47297,50.84109],[0.47271,50.84108],[0.47269,50.84105],[0.47267,50.84109],[0.4726,50.84112],[0.4727,50.84125],[0.47275,50.8413],[0.4728,50.84131]]]]}},
{ "type":"Feature","properties":{"osm_way_id":"391391619","building":"warehouse","other":{"addr:housenumber":"1","addr:street":"De La Warr Mews","building:levels":"2","ref:GB:uprn":"100062588130"}}, "geometry":{"type":"MultiPolygon","coordinates":[[[[0.47312,50.84111],[0.47311,50.84117],[0.47316,50.84117],[0.47316,50.84119],[0.47331,50.8412],[0.47332,50.84112],[0.47312,50.84111]]]]}},
{ "type":"Feature","properties":{"osm_way_id":"391391621","name":"Patrick Chambers Motor Services","building":"warehouse","shop":"car_repair","other":{"addr:housenumber":"3","addr:street":"De La Warr Mews","building:levels":"2","contact:phone":"+44 1424 224169","height":"7","ref:GB:uprn":"10002665240","service:vehicle:car_repair":"yes","service:vehicle:diagnostics":"yes","service:vehicle:inspection":"yes","wheelchair":"yes"}}, "geometry":{"type":"MultiPolygon","coordinates":[[[[0.47313,50.84131],[0.47316,50.84119],[0.47316,50.84117],[0.47311,50.84117],[0.47302,50.84116],[0.47292,50.84133],[0.47315,50.84139],[0.47319,50.84132],[0.47313,50.84131]]]]}},
{ "type":"Feature","properties":{"osm_way_id":"391391622","name":"Pit-Stop Drop-In Hub","amenity":"social_centre","building":"warehouse","other":{"addr:housenumber":"11","addr:street":"De La Warr Mews","building:levels":"1","club":"youth","contact:email":"bexhillyouthservice@gmail.com","contact:facebook":"https:\/\/www.facebook.com\/Pit-Stop-Youth-Workshop-Bexhill-Youth-Service-1398539580390421","contact:phone":"+44 1424 532180","contact:website":"https:\/\/pitstoptrust.com\/drop-in-hub\/","height":"7","ref:GB:uprn":"100062588131","ref:charity":"1179296"}}, "geometry":{"type":"MultiPolygon","coordinates":[[[[0.47368,50.84129],[0.47373,50.84129],[0.47375,50.84114],[0.4734,50.84112],[0.47337,50.84127],[0.4736,50.84128],[0.4736,50.84126],[0.47368,50.84126],[0.47368,50.84129]]]]}},
{ "type":"Feature","properties":{"osm_way_id":"391755889","name":"Bexhill Motors","building":"warehouse","shop":"car","other":{"addr:housenumber":"21-23","addr:street":"Dorset Road","building:levels":"1","contact:email":"bexhillmotors@live.co.uk","contact:facebook":"https:\/\/www.facebook.com\/Bexhill-Motors-Terminus-Road-918612431539529\/","contact:phone":"+44 1424 217888","contact:website":"http:\/\/www.bexhillmotors.co.uk\/","height":"6","opening_hours":"Mo-Fr 08:30-18:00; Sa 08:30-17:00; Su 10:00-16:00","second_hand":"only","wheelchair":"yes"}}, "geometry":{"type":"MultiPolygon","coordinates":[[[[0.48285,50.84177],[0.48268,50.84177],[0.48267,50.84193],[0.48277,50.84193],[0.48277,50.84192],[0.4829,50.84192],[0.48291,50.84178],[0.48285,50.84177]]]]}},
{ "type":"Feature","properties":{"osm_way_id":"391755891","name":"Bexhill Car Care","building":"warehouse","shop":"car_repair","other":{"addr:housenumber":"21-23","addr:street":"Dorset Road","building:levels":"2","contact:email":"bexhillcarecare@msn.com","contact:phone":"+44 1424 211000","height":"6","opening_hours":"Mo-We,Fr 09:00-18:00","payment:cash":"yes","payment:mastercard":"yes","payment:visa":"yes","service:vehicle:car_repair":"yes","service:vehicle:diagnostics":"yes","service:vehicle:inspection":"yes","wheelchair":"yes"}}, "geometry":{"type":"MultiPolygon","coordinates":[[[[0.48268,50.84177],[0.48285,50.84177],[0.48291,50.84178],[0.48292,50.84176],[0.48285,50.84176],[0.48286,50.84168],[0.48286,50.84166],[0.4827,50.84165],[0.48268,50.84177]]]]}},
{ "type":"Feature","properties":{"osm_way_id":"392131247","name":"Bexhill Motors","building":"warehouse","shop":"car","other":{"addr:housenumber":"14","addr:street":"Terminus Road","building:levels":"2","contact:email":"bexhillmotors@live.co.uk","contact:facebook":"https:\/\/www.facebook.com\/Bexhill-Motors-Terminus-Road-918612431539529\/","contact:phone":"+44 1424 222210","contact:website":"http:\/\/www.bexhillmotors.co.uk\/","height":"7","opening_hours":"Mo-Fr 08:30-18:00; Sa 08:30-17:00; Su 10:00-16:00","second_hand":"only","wheelchair":"yes"}}, "geometry":{"type":"MultiPolygon","coordinates":[[[[0.46351,50.84124],[0.46355,50.8413],[0.4643,50.84113],[0.46437,50.84088],[0.46402,50.84096],[0.46405,50.84101],[0.46359,50.84111],[0.46354,50.84112],[0.46357,50.84118],[0.46362,50.84117],[0.46365,50.84121],[0.46351,50.84124]]]]}},
{ "type":"Feature","properties":{"osm_way_id":"392131278","name":"Yeomans Hyundai","building":"warehouse","shop":"car","other":{"addr:city":"Bexhill-on-Sea","addr:housenumber":"5-7","addr:postcode":"TN39 3LG","addr:street":"Beeching Road","brand":"Hyundai","building:levels":"1","contact:phone":"+44 1424 237194","contact:website":"https:\/\/www.yeomans.co.uk\/hyundai\/contact-us\/bexhill\/","height":"8","opening_hours":"Mo-Fr 08:30-18:00; Sa 09:00-17:00; Su 10:00-16:00","wheelchair":"yes"}}, "geometry":{"type":"MultiPolygon","coordinates":[[[[0.46664,50.84371],[0.46645,50.84359],[0.46631,50.84368],[0.4665,50.8438],[0.46664,50.84371]]]]}},
{ "type":"Feature","properties":{"osm_way_id":"392131279","building":"warehouse","other":{"addr:city":"Bexhill-on-Sea","addr:postcode":"TN39 3UR","addr:street":"Wainwright Road","addr:unit":"8","architect":"Fitzroy Robinson Miller Bourne and Partners","building:levels":"2","height":"12","ref:historicplanningapp":"RR\/81\/1513","start_date":"1982"}}, "geometry":{"type":"MultiPolygon","coordinates":[[[[0.46581,50.84078],[0.46571,50.84078],[0.4657,50.84082],[0.46568,50.84092],[0.46578,50.84093],[0.46581,50.84078]]]]}},
{ "type":"Feature","properties":{"osm_way_id":"392131281","building":"warehouse","other":{"building:levels":"2","height":"7"}}, "geometry":{"type":"MultiPolygon","coordinates":[[[[0.46689,50.84477],[0.46679,50.84482],[0.46668,50.84474],[0.46636,50.84491],[0.46647,50.845],[0.46674,50.84485],[0.46674,50.84485],[0.4668,50.8449],[0.46695,50.84482],[0.46689,50.84477]]]]}},
{ "type":"Feature","properties":{"osm_way_id":"392131284","building":"warehouse","other":{"building:levels":"1","height":"4"}}, "geometry":{"type":"MultiPolygon","coordinates":[[[[0.46832,50.84372],[0.46851,50.84377],[0.46855,50.84371],[0.46836,50.84366],[0.46832,50.84372]]]]}},
{ "type":"Feature","properties":{"osm_way_id":"392131285","name":"Jewson","building":"warehouse","shop":"trade","other":{"addr:housenumber":"4","addr:street":"Beeching Road","building:levels":"2","contact:phone":"+44 1424 731414","contact:website":"http:\/\/www.jewson.co.uk\/","dog":"yes","height":"9","opening_hours":"Mo-Fr 07:30-17:00; Sa 08:30-12:00","trade":"building_supplies","wheelchair":"yes"}}, "geometry":{"type":"MultiPolygon","coordinates":[[[[0.46711,50.84482],[0.46744,50.84505],[0.4677,50.8449],[0.46737,50.84467],[0.46711,50.84482]]]]}},
{ "type":"Feature","properties":{"osm_way_id":"392131286","building":"warehouse","other":{"addr:city":"Bexhill-on-Sea","addr:postcode":"TN39 3YF","addr:street":"Beeching Close","addr:unit":"12","building:levels":"1","height":"5"}}, "geometry":{"type":"MultiPolygon","coordinates":[[[[0.46504,50.84369],[0.46509,50.84375],[0.46521,50.84372],[0.46517,50.84366],[0.46504,50.84369]]]]}},
{ "type":"Feature","properties":{"osm_way_id":"392131287","building":"warehouse","other":{"addr:housenumber":"18-28","addr:street":"Beeching Road","building:levels":"2","height":"7"}}, "geometry":{"type":"MultiPolygon","coordinates":[[[[0.46373,50.84262],[0.46463,50.84244],[0.46452,50.84223],[0.46362,50.8424],[0.46364,50.84244],[0.46373,50.84262]]]]}},
{ "type":"Feature","properties":{"osm_way_id":"392131288","building":"warehouse","other":{"addr:city":"Bexhill-on-Sea","addr:postcode":"TN39 3UR","addr:street":"Wainwright Road","addr:unit":"1","architect":"Fitzroy Robinson Miller Bourne and Partners","building:levels":"2","height":"6","ref:historicplanningapp":"RR\/81\/1513","start_date":"1982"}}, "geometry":{"type":"MultiPolygon","coordinates":[[[[0.46525,50.84117],[0.46545,50.84118],[0.46548,50.84105],[0.46527,50.84103],[0.46525,50.84117]]]]}},
{ "type":"Feature","properties":{"osm_way_id":"392131290","name":"Shirt Logos Ltd","building":"warehouse","office":"company","other":{"addr:city":"Bexhill-on-Sea","addr:postcode":"TN39 3UR","addr:street":"Wainwright Road","addr:unit":"20","architect":"Fitzroy Robinson Miller Bourne and Partners","building:levels":"2","contact:email":"shirtlogos@btconnect.com","contact:phone":"+44 1424 223916","contact:website":"https:\/\/www.sweatshirt-logos.com\/","height":"5","ref:historicplanningapp":"RR\/81\/1513","start_date":"1982"}}, "geometry":{"type":"MultiPolygon","coordinates":[[[[0.46672,50.84116],[0.46693,50.84117],[0.46696,50.84103],[0.46675,50.84101],[0.46672,50.84116]]]]}},
{ "type":"Feature","properties":{"osm_way_id":"392131292","name":"Wadesons","building":"warehouse","office":"company","other":{"addr:city":"Bexhill-on-Sea","addr:postcode":"TN39 3YF","addr:street":"Beeching Close","addr:unit":"1-3","building:levels":"1","contact:email":"info@wadesons.co.uk","contact:phone":"+44 1424 212308","contact:website":"https:\/\/www.wadesons.co.uk\/","height":"5"}}, "geometry":{"type":"MultiPolygon","coordinates":[[[[0.46522,50.84408],[0.46527,50.84406],[0.46532,50.84405],[0.46526,50.84397],[0.46521,50.84399],[0.46516,50.844],[0.46511,50.84402],[0.46517,50.84409],[0.46522,50.84408]]]]}},
{ "type":"Feature","properties":{"osm_way_id":"392131293","building":"warehouse","other":{"addr:housenumber":"12","addr:street":"Beeching Road","building:levels":"1","height":"5"}}, "geometry":{"type":"MultiPolygon","coordinates":[[[[0.46573,50.8437],[0.4654,50.8439],[0.46555,50.844],[0.4656,50.84398],[0.46589,50.8438],[0.46573,50.8437]]]]}},
{ "type":"Feature","properties":{"osm_way_id":"392131295","building":"warehouse","other":{"building:levels":"2","height":"9"}}, "geometry":{"type":"MultiPolygon","coordinates":[[[[0.46675,50.84502],[0.46641,50.84519],[0.46657,50.84532],[0.46691,50.84516],[0.46675,50.84502]]]]}},
{ "type":"Feature","properties":{"osm_way_id":"392131297","name":"Brewers","building":"warehouse","shop":"interior_decoration","other":{"addr:city":"Bexhill-on-Sea","addr:housename":"Albany House","addr:housenumber":"42","addr:postcode":"TN39 3LJ","addr:street":"Beeching Road","building:levels":"2","contact:phone":"+44 1424 213800","contact:website":"http:\/\/www.brewers.co.uk","height":"8","opening_hours":"Mo-Fr 07:30-17:00; Sa 08:30-12:30","wheelchair":"yes"}}, "geometry":{"type":"MultiPolygon","coordinates":[[[[0.4638,50.84131],[0.46384,50.84151],[0.46433,50.84146],[0.46431,50.84136],[0.46425,50.84137],[0.46422,50.84127],[0.46395,50.8413],[0.46395,50.84129],[0.46386,50.84129],[0.46386,50.84131],[0.4638,50.84131]]]]}},
{ "type":"Feature","properties":{"osm_way_id":"392131304","name":"Screwfix","building":"warehouse","shop":"doityourself","other":{"addr:city":"Bexhill-on-Sea","addr:housename":"Unit 1-2","addr:postcode":"TN39 3LJ","addr:street":"Beeching Road","brand":"Screwfix","brand:wikidata":"Q7439115","brand:wikipedia":"en:Screwfix","building:levels":"2","contact:phone:GB":"03330 112 112","contact:website":"http:\/\/www.screwfix.com","dog":"yes","height":"6","opening_hours":"Mo-Fr 07:00-20:00; Sa 08:00-18:00; Su 10:00-16:00","wheelchair":"yes"}}, "geometry":{"type":"MultiPolygon","coordinates":[[[[0.46426,50.84186],[0.4641,50.84189],[0.4642,50.84208],[0.46436,50.84205],[0.46452,50.84201],[0.46443,50.84182],[0.46426,50.84186]]]]}},
{ "type":"Feature","properties":{"osm_way_id":"392131305","building":"warehouse","other":{"building:levels":"1","height":"7"}}, "geometry":{"type":"MultiPolygon","coordinates":[[[[0.46816,50.84418],[0.46838,50.84423],[0.46845,50.84413],[0.46823,50.84407],[0.46816,50.84418]]]]}},
{ "type":"Feature","properties":{"osm_way_id":"392131307","name":"Trade Paints Ltd","building":"warehouse","shop":"trade","other":{"addr:housenumber":"9","addr:street":"Beeching Road","building:levels":"1","contact:facebook":"https:\/\/www.facebook.com\/TradePaints","contact:phone":"+44 1424 431733","contact:website":"http:\/\/www.tradepaints.eu\/","height":"6","opening_hours":"Mo-Fr 07:30-17:00; Sa 08:30-12:00","trade":"paint","wheelchair":"yes"}}, "geometry":{"type":"MultiPolygon","coordinates":[[[[0.46597,50.84343],[0.46613,50.84354],[0.46633,50.84342],[0.46617,50.84332],[0.46604,50.84339],[0.46597,50.84343]]]]}},
{ "type":"Feature","properties":{"osm_way_id":"392131309","name":"Colours Timber Supplies","building":"warehouse","shop":"trade","other":{"addr:city":"Bexhill-on-Sea","addr:housename":"West Station Goods Yard","addr:postcode":"TN39 3LR","addr:street":"Terminus Road","addr:unit":"1-2","building:levels":"2","contact:phone":"+44 1424 213666","height":"8","opening_hours":"Mo-Fr 07:00-17:00; Sa 08:00-12:30","trade":"timber"}}, "geometry":{"type":"MultiPolygon","coordinates":[[[[0.46271,50.84104],[0.4628,50.8412],[0.46293,50.84117],[0.46323,50.84109],[0.46314,50.84094],[0.46271,50.84104]]]]}},
{ "type":"Feature","properties":{"osm_way_id":"392131310","name":"Parker Building Supplies","building":"warehouse","shop":"trade","other":{"addr:housenumber":"6","addr:street":"Beeching Road","building:levels":"2","contact:email":"bexhill@parkerbs.com","contact:phone":"+44 1424 218888","contact:website":"http:\/\/www.parkerbs.com","height":"7","opening_hours":"Mo-Fr 07:30-17:00; Sa 08:30-12:00","trade":"building_supplies","wheelchair":"yes"}}, "geometry":{"type":"MultiPolygon","coordinates":[[[[0.46652,50.84436],[0.46668,50.84449],[0.46663,50.84451],[0.46671,50.84458],[0.46691,50.84448],[0.46666,50.84428],[0.46652,50.84436]]]]}},
{ "type":"Feature","properties":{"osm_way_id":"392131311","building":"warehouse","other":{"building:levels":"3","height":"10"}}, "geometry":{"type":"MultiPolygon","coordinates":[[[[0.46346,50.84179],[0.46337,50.84161],[0.4632,50.84165],[0.46337,50.84197],[0.46379,50.84188],[0.46372,50.84174],[0.46346,50.84179]]]]}},
{ "type":"Feature","properties":{"osm_way_id":"392131312","building":"warehouse","other":{"building:levels":"2","height":"6"}}, "geometry":{"type":"MultiPolygon","coordinates":[[[[0.46806,50.8437],[0.46805,50.84372],[0.46817,50.84376],[0.46826,50.84362],[0.46808,50.84357],[0.468,50.84368],[0.46806,50.8437]]]]}},
{ "type":"Feature","properties":{"osm_way_id":"392131313","name":"Phillimore Motor Engineers","building":"warehouse","shop":"car_repair","other":{"addr:housenumber":"1","addr:street":"Beeching Road","building:levels":"2","contact:phone":"+44 1424 218833","height":"7","service:vehicle:car_repair":"yes","service:vehicle:diagnostics":"yes","service:vehicle:inspection":"yes","wheelchair":"yes"}}, "geometry":{"type":"MultiPolygon","coordinates":[[[[0.46773,50.84425],[0.46767,50.84423],[0.46754,50.84438],[0.46761,50.8444],[0.46766,50.84434],[0.46801,50.84446],[0.46815,50.84429],[0.4678,50.84418],[0.46773,50.84425]]]]}},
{ "type":"Feature","properties":{"osm_way_id":"392331794","building":"warehouse","other":{"addr:city":"Bexhill-on-Sea","addr:housename":"Keymer Buildings","addr:postcode":"TN39 3PD","addr:street":"Victoria Road","building:levels":"2","height":"8","ref:GB:uprn":"100062685905;100062634171;100062634172;100062634173"}}, "geometry":{"type":"MultiPolygon","coordinates":[[[[0.46799,50.84161],[0.46788,50.84157],[0.46755,50.84191],[0.46761,50.84191],[0.4677,50.84182],[0.46775,50.84185],[0.46799,50.84161]]]]}},
{ "type":"Feature","properties":{"osm_way_id":"392331796","building":"warehouse","other":{"addr:housename":"Ibex Buildings","addr:street":"Terminus Road","builder":"Albert George Johnson","building:levels":"1","description":"Originally a joinery workshop until the end of the First World War.","height":"9","ref:GB:uprn":"10002649056;100062582636;100062583230;100062583250","start_date":"1901"}}, "geometry":{"type":"MultiPolygon","coordinates":[[[[0.46874,50.84087],[0.46881,50.8409],[0.46892,50.84079],[0.46885,50.84076],[0.46874,50.84087]]]]}},
{ "type":"Feature","properties":{"osm_way_id":"392331797","name":"IL Priddy & Sons","building":"warehouse","craft":"plumber","office":"company","other":{"addr:housenumber":"26A","addr:street":"Reginald Road","building:levels":"2","contact:phone":"+44 1424 219433","contact:website":"https:\/\/www.ilpriddy.com","ref:GB:uprn":"10002663900"}}, "geometry":{"type":"MultiPolygon","coordinates":[[[[0.46796,50.84151],[0.46805,50.84154],[0.46813,50.84145],[0.46804,50.84142],[0.46796,50.84151]]]]}},
{ "type":"Feature","properties":{"osm_way_id":"392459340","building":"warehouse","other":{"building:levels":"2","height":"10"}}, "geometry":{"type":"MultiPolygon","coordinates":[[[[0.46612,50.84278],[0.46625,50.8428],[0.46633,50.84254],[0.4662,50.84252],[0.46612,50.84278]]]]}},
{ "type":"Feature","properties":{"osm_way_id":"392459341","building":"warehouse","other":{"building:levels":"2","height":"6"}}, "geometry":{"type":"MultiPolygon","coordinates":[[[[0.46661,50.84337],[0.46676,50.8434],[0.46679,50.84331],[0.46664,50.84329],[0.46661,50.84337]]]]}},
{ "type":"Feature","properties":{"osm_way_id":"392528323","building":"warehouse","other":{"addr:housename":"Phoenix Works","addr:housenumber":"93","addr:street":"Windsor Road","addr:unit":"1-3","building:levels":"2"}}, "geometry":{"type":"MultiPolygon","coordinates":[[[[0.46733,50.84278],[0.46738,50.84262],[0.46752,50.84264],[0.46749,50.84274],[0.46753,50.84274],[0.46752,50.84279],[0.46741,50.84278],[0.4674,50.84279],[0.46733,50.84278]]]]}},
{ "type":"Feature","properties":{"osm_way_id":"392528324","name":"TSW Auto Repairs","building":"warehouse","shop":"car_repair","other":{"addr:street":"Victoria Road","building:levels":"2","contact:email":"enquiries@tswautorepairs.co.uk","contact:facebook":"https:\/\/www.facebook.com\/TSW-Auto-Repairs-LLP-248895621803654\/","contact:phone":"+44 1424 220099","contact:website":"http:\/\/www.tswautorepairs.com\/","height":"9","opening_hours":"Mo-Fr 08:30-18:00","service:vehicle:car_repair":"yes","service:vehicle:diagnostics":"yes","service:vehicle:inspection":"yes","service:vehicle:tyres":"yes"}}, "geometry":{"type":"MultiPolygon","coordinates":[[[[0.46748,50.84201],[0.46737,50.84234],[0.4675,50.84236],[0.4676,50.84202],[0.46748,50.84201]]]]}},
{ "type":"Feature","properties":{"osm_way_id":"392528326","building":"warehouse","other":{"building:levels":"2","height":"11"}}, "geometry":{"type":"MultiPolygon","coordinates":[[[[0.46856,50.84255],[0.46856,50.8426],[0.46847,50.84259],[0.46845,50.84263],[0.46842,50.84272],[0.46856,50.84274],[0.46864,50.84275],[0.46864,50.84259],[0.46864,50.84252],[0.46838,50.84248],[0.46837,50.84252],[0.46856,50.84255]]]]}},
{ "type":"Feature","properties":{"osm_way_id":"392770879","name":"JDI Autobody","building":"warehouse","shop":"car_repair","other":{"addr:city":"Bexhill-on-Sea","addr:housename":"Unit 4","addr:postcode":"TN39 3LE","addr:street":"Burnside Mews","building:levels":"1","contact:email":"jdiautobody@yahoo.co.uk","contact:facebook":"https:\/\/www.facebook.com\/jdiautobody","contact:phone":"+44 1424 213440","opening_hours":"Mo-Fr 08:00-17:30; Sa 08:30-12:30","service:vehicle:body_repair":"yes","wheelchair":"yes"}}, "geometry":{"type":"MultiPolygon","coordinates":[[[[0.47077,50.84474],[0.47051,50.84474],[0.47051,50.84485],[0.47077,50.84485],[0.47077,50.84483],[0.47077,50.84474]]]]}},
{ "type":"Feature","properties":{"osm_way_id":"392770916","name":"Scants Motor Services","building":"warehouse","shop":"car_repair","other":{"addr:city":"Bexhill-on-Sea","addr:housename":"Unit 5","addr:postcode":"TN39 3LE","addr:street":"Burnside Mews","building:levels":"1","contact:email":"info@scantsmotorservices.co.uk","contact:facebook":"https:\/\/www.facebook.com\/scantsgarage\/","contact:phone":"+44 1424 212171","contact:twitter":"ScantsBexhill","contact:website":"http:\/\/www.scantsmotcentre.co.uk\/","opening_hours":"Mo-Fr 08:30-17:30; Sa 08:30-12:30","service:vehicle:car_repair":"yes","service:vehicle:diagnostics":"yes","service:vehicle:inspection":"yes","service:vehicle:tyres":"yes","wheelchair":"yes"}}, "geometry":{"type":"MultiPolygon","coordinates":[[[[0.47077,50.84485],[0.47051,50.84485],[0.47051,50.84496],[0.47077,50.84496],[0.47077,50.84485]]]]}},
{ "type":"Feature","properties":{"osm_way_id":"392770927","name":"Thompson Signs","building":"warehouse","shop":"signs","other":{"addr:city":"Bexhill-on-Sea","addr:housename":"Unit 3","addr:postcode":"TN39 3LE","addr:street":"Burnside Mews","building:levels":"1","contact:email":"info@thompsonsigns.co.uk","contact:facebook":"https:\/\/www.facebook.com\/ThompsonAdvertisingSigns","contact:phone":"+44 1424 552365","contact:website":"http:\/\/www.thompsonsigns.co.uk\/","opening_hours":"Mo-Sa 09:00-18:00"}}, "geometry":{"type":"MultiPolygon","coordinates":[[[[0.47051,50.84474],[0.47077,50.84474],[0.47077,50.84468],[0.47051,50.84468],[0.47051,50.84474]]]]}},
{ "type":"Feature","properties":{"osm_way_id":"392770940","name":"Vehicle Body Repair Bexhill","building":"warehouse","shop":"car_repair","other":{"addr:city":"Bexhill-on-Sea","addr:housename":"Unit 2","addr:postcode":"TN39 3LE","addr:street":"Burnside Mews","building:levels":"1","contact:email":"info@vbrbexhill.uk","contact:facebook":"https:\/\/www.facebook.com\/VBRBexhill","contact:phone":"+44 1424 222097","contact:website":"http:\/\/www.vbrbexhill.uk\/","service:vehicle:car_parts":"yes"}}, "geometry":{"type":"MultiPolygon","coordinates":[[[[0.47004,50.84496],[0.47021,50.84501],[0.47036,50.8448],[0.47019,50.84476],[0.47015,50.84481],[0.47009,50.84491],[0.47004,50.84496]]]]}},
{ "type":"Feature","properties":{"osm_way_id":"395357690","name":"DP Auto Repairs","building":"warehouse","shop":"car_repair","other":{"addr:city":"Bexhill-on-Sea","addr:housenumber":"85","addr:postcode":"TN40 1SF","addr:street":"Ashdown Road","building:levels":"1","contact:phone":"+44 1424 732246","height":"4","opening_hours":"Mo-Fr 08:00-18:30; Sa 08:00-16:00"}}, "geometry":{"type":"MultiPolygon","coordinates":[[[[0.48895,50.84225],[0.48906,50.84226],[0.48906,50.84221],[0.48914,50.84221],[0.48915,50.8421],[0.48897,50.84209],[0.48895,50.84225]]]]}},
{ "type":"Feature","properties":{"osm_way_id":"395357892","building":"warehouse","other":{"building:levels":"1","height":"8"}}, "geometry":{"type":"MultiPolygon","coordinates":[[[[0.48349,50.8416],[0.48348,50.84166],[0.48354,50.84167],[0.48353,50.84172],[0.48369,50.84173],[0.48371,50.84161],[0.48349,50.8416]]]]}},
{ "type":"Feature","properties":{"osm_way_id":"395601129","name":"Enterprise","amenity":"car_rental","building":"warehouse","other":{"addr:housenumber":"7","addr:street":"Brett Drive","brand":"Enterprise","brand:wikidata":"Q17085454","brand:wikipedia":"en:Enterprise Rent-A-Car","building:levels":"2","contact:phone":"+44 1424 221234","contact:website":"https:\/\/www.enterprise.co.uk","height":"7","official_name":"Enterprise Rent-A-Car","opening_hours":"Mo-Fr 08:00-18:00; Sa 09:00-12:00","start_date":"1967"}}, "geometry":{"type":"MultiPolygon","coordinates":[[[[0.49708,50.84421],[0.49704,50.84438],[0.49718,50.84439],[0.49721,50.84422],[0.49708,50.84421]]]]}},
{ "type":"Feature","properties":{"osm_way_id":"395601132","name":"River Windows","building":"warehouse","shop":"glaziery","other":{"addr:housenumber":"8","addr:street":"Brett Drive","building:levels":"2","contact:email":"enquiries@riverwindows.co.uk","contact:phone":"+44 1424 222277","contact:website":"http:\/\/www.riverwindows.co.uk\/","height":"7","opening_hours":"Mo-Fr 07:30-17:00; Sa 08:30-12:00","wheelchair":"no"}}, "geometry":{"type":"MultiPolygon","coordinates":[[[[0.4975,50.84486],[0.49751,50.84472],[0.49712,50.84471],[0.49699,50.84471],[0.49699,50.84485],[0.4975,50.84486]]]]}},
{ "type":"Feature","properties":{"osm_way_id":"395601137","building":"warehouse","other":{"building:levels":"1","height":"4"}}, "geometry":{"type":"MultiPolygon","coordinates":[[[[0.49719,50.84397],[0.49773,50.844],[0.49774,50.84395],[0.4972,50.84391],[0.49719,50.84397]]]]}},
{ "type":"Feature","properties":{"osm_way_id":"395601139","building":"warehouse","other":{"building:levels":"1"}}, "geometry":{"type":"MultiPolygon","coordinates":[[[[0.49805,50.84329],[0.49818,50.8433],[0.4982,50.84323],[0.49807,50.84322],[0.49805,50.84329]]]]}},
{ "type":"Feature","properties":{"osm_way_id":"397895533","name":"Pit-Stop Youth Club","amenity":"social_centre","building":"warehouse","other":{"addr:housenumber":"7-9","addr:street":"De La Warr Mews","building:levels":"2","club":"youth","contact:email":"bexhillyouthservice@gmail.com","contact:facebook":"https:\/\/www.facebook.com\/Pit-Stop-Youth-Workshop-Bexhill-Youth-Service-1398539580390421","contact:phone":"+44 1424 532180","contact:website":"https:\/\/pitstoptrust.com\/","height":"7","ref:GB:uprn":"10093333608;100062588135;100062588134;10093333607","ref:charity":"1179296"}}, "geometry":{"type":"MultiPolygon","coordinates":[[[[0.47367,50.84141],[0.47367,50.84138],[0.47366,50.84138],[0.47367,50.84136],[0.47359,50.84135],[0.47358,50.84141],[0.47358,50.84145],[0.47357,50.84149],[0.47365,50.84149],[0.47365,50.84145],[0.47365,50.84144],[0.47367,50.84144],[0.47367,50.84141]]]]}},
{ "type":"Feature","properties":{"osm_way_id":"399953744","name":"Smith & Humphrey","amenity":"fuel","building":"warehouse","shop":"car_repair","other":{"addr:housenumber":"75","addr:street":"Ninfield Road","brand":"Pace","building:levels":"2","contact:phone":"+44 1424 210746","fuel:diesel":"yes","fuel:octane_95":"yes","opening_hours":"Sa 08:30-13:00; Fr 08:00-17:00;Mo-Th 08:00-18:00","operator":"Smith & Humphrey","service:vehicle:air_conditioning":"yes","service:vehicle:car_repair":"yes","service:vehicle:diagnostics":"yes","service:vehicle:inspection":"yes","service:vehicle:tyres":"yes","start_date":"1919","wheelchair":"yes"}}, "geometry":{"type":"MultiPolygon","coordinates":[[[[0.46926,50.85654],[0.46906,50.85659],[0.46913,50.85669],[0.4692,50.85672],[0.46926,50.85677],[0.46947,50.85668],[0.46946,50.85667],[0.46934,50.85655],[0.46928,50.85657],[0.46926,50.85654]]]]}},
{ "type":"Feature","properties":{"osm_way_id":"403929791","name":"Veolia Environmental Services","building":"warehouse","office":"company","other":{"building:levels":"2","height":"18"}}, "geometry":{"type":"MultiPolygon","coordinates":[[[[0.51157,50.85247],[0.51238,50.85261],[0.51251,50.85229],[0.51246,50.85228],[0.51246,50.85227],[0.51239,50.85225],[0.51255,50.85186],[0.51248,50.85179],[0.5119,50.85169],[0.51157,50.85247]]]]}},
{ "type":"Feature","properties":{"osm_way_id":"405467497","building":"warehouse","other":{"building:levels":"1","height":"3"}}, "geometry":{"type":"MultiPolygon","coordinates":[[[[0.51178,50.85318],[0.51193,50.8532],[0.51198,50.85306],[0.51183,50.85304],[0.51178,50.85318]]]]}},
{ "type":"Feature","properties":{"osm_way_id":"405467499","building":"warehouse","other":{"building:levels":"1","height":"7"}}, "geometry":{"type":"MultiPolygon","coordinates":[[[[0.51179,50.85297],[0.51194,50.85299],[0.51195,50.85297],[0.51207,50.85298],[0.51213,50.85284],[0.51185,50.8528],[0.51179,50.85297]]]]}},
{ "type":"Feature","properties":{"osm_way_id":"409120092","name":"R. D. Lingham Motors","building":"warehouse","shop":"car_repair","other":{"addr:housename":"The Garage","addr:street":"Crowmere Avenue","building:levels":"1","contact:phone":"+44 1424 214695","height":"4","service:vehicle:car_repair":"yes","service:vehicle:diagnostics":"yes","service:vehicle:inspection":"yes"}}, "geometry":{"type":"MultiPolygon","coordinates":[[[[0.47342,50.84804],[0.47347,50.84807],[0.47354,50.84802],[0.47349,50.84799],[0.47342,50.84804]]]]}},
{ "type":"Feature","properties":{"osm_way_id":"409864159","building":"warehouse","other":{"addr:housenumber":"47A","addr:street":"Springfield Road","building:levels":"1","height":"6"}}, "geometry":{"type":"MultiPolygon","coordinates":[[[[0.47278,50.84976],[0.47283,50.84985],[0.47315,50.84978],[0.4731,50.84968],[0.47278,50.84976]]]]}},
{ "type":"Feature","properties":{"osm_way_id":"411134250","name":"Bourne Joinery","building":"warehouse","craft":"joiner","other":{"addr:housename":"Rear of 194","addr:street":"London Road","building:levels":"1","contact:phone":"+44 1424 212066","height":"4"}}, "geometry":{"type":"MultiPolygon","coordinates":[[[[0.4716,50.85017],[0.47164,50.85023],[0.47166,50.85022],[0.47169,50.85026],[0.47176,50.85023],[0.47174,50.8502],[0.47171,50.85021],[0.47166,50.85015],[0.4716,50.85017]]]]}},
{ "type":"Feature","properties":{"osm_way_id":"411134372","building":"warehouse","other":{"building:levels":"1","height":"4"}}, "geometry":{"type":"MultiPolygon","coordinates":[[[[0.47148,50.85021],[0.47153,50.85027],[0.47159,50.85024],[0.47155,50.85019],[0.47148,50.85021]]]]}},
{ "type":"Feature","properties":{"osm_way_id":"411821440","building":"warehouse","other":{"addr:housename":"Holliers Hill Yard","addr:street":"Holliers Hill","building:levels":"1"}}, "geometry":{"type":"MultiPolygon","coordinates":[[[[0.47465,50.85291],[0.47467,50.85279],[0.47453,50.85278],[0.47451,50.8529],[0.47465,50.85291]]]]}},
{ "type":"Feature","properties":{"osm_way_id":"411821512","building":"warehouse","other":{"building:levels":"1"}}, "geometry":{"type":"MultiPolygon","coordinates":[[[[0.47472,50.85278],[0.47471,50.85283],[0.4749,50.85284],[0.4749,50.85278],[0.47472,50.85278]]]]}},
{ "type":"Feature","properties":{"osm_way_id":"411821515","building":"warehouse","other":{"building:levels":"1","height":"2"}}, "geometry":{"type":"MultiPolygon","coordinates":[[[[0.47427,50.85379],[0.47426,50.85381],[0.47439,50.85383],[0.47438,50.85386],[0.47452,50.85387],[0.47454,50.85382],[0.47427,50.85379]]]]}},
{ "type":"Feature","properties":{"osm_way_id":"421853849","name":"Torr Scientific Ltd","building":"warehouse","office":"company","other":{"addr:city":"Bexhill-on-Sea","addr:place":"Pebsham Rural Business Centre, Pebsham Lane","addr:postcode":"TN40 2RZ","addr:unit":"11-12","building:levels":"2","contact:email":"sales@torrscientific.co.uk","contact:phone":"+44 1424 225228","contact:website":"http:\/\/torrscientific.co.uk\/","height":"8","opening_hours":"Mo-Fr 09:00-17:00"}}, "geometry":{"type":"MultiPolygon","coordinates":[[[[0.50518,50.8529],[0.50519,50.85301],[0.50528,50.85301],[0.50529,50.85303],[0.50519,50.85303],[0.5052,50.85315],[0.50555,50.85313],[0.50554,50.85301],[0.50535,50.85302],[0.50535,50.853],[0.50564,50.85299],[0.50563,50.85288],[0.50518,50.8529]]]]}},
{ "type":"Feature","properties":{"osm_way_id":"421853852","building":"warehouse","other":{"addr:city":"Bexhill-on-Sea","addr:place":"Pebsham Rural Business Centre, Pebsham Lane","addr:postcode":"TN40 2RZ","addr:unit":"6","building:levels":"1","height":"7"}}, "geometry":{"type":"MultiPolygon","coordinates":[[[[0.50625,50.85287],[0.50631,50.85287],[0.5063,50.85276],[0.50623,50.85277],[0.50625,50.85287]]]]}},
{ "type":"Feature","properties":{"osm_way_id":"421853856","building":"warehouse","other":{"addr:city":"Bexhill-on-Sea","addr:place":"Pebsham Rural Business Centre, Pebsham Lane","addr:postcode":"TN40 2RZ","addr:unit":"10A","building:levels":"1"}}, "geometry":{"type":"MultiPolygon","coordinates":[[[[0.50615,50.85327],[0.50616,50.85337],[0.50629,50.85336],[0.50628,50.85327],[0.50615,50.85327]]]]}},
{ "type":"Feature","properties":{"osm_way_id":"421853858","building":"warehouse","other":{"addr:city":"Bexhill-on-Sea","addr:place":"Pebsham Rural Business Centre, Pebsham Lane","addr:postcode":"TN40 2RZ","addr:unit":"1","building:levels":"1","height":"4"}}, "geometry":{"type":"MultiPolygon","coordinates":[[[[0.50584,50.85365],[0.5059,50.85366],[0.50602,50.85344],[0.50595,50.85342],[0.50584,50.85365]]]]}},
{ "type":"Feature","properties":{"osm_way_id":"421853862","building":"warehouse","other":{"addr:city":"Bexhill-on-Sea","addr:place":"Pebsham Rural Business Centre, Pebsham Lane","addr:postcode":"TN40 2RZ","addr:unit":"2","building:levels":"1"}}, "geometry":{"type":"MultiPolygon","coordinates":[[[[0.50571,50.85328],[0.50572,50.85335],[0.50599,50.85334],[0.50599,50.85328],[0.50571,50.85328]]]]}},
{ "type":"Feature","properties":{"osm_way_id":"421853863","name":"Prime Catering Supplies","building":"warehouse","other":{"addr:city":"Bexhill-on-Sea","addr:place":"Pebsham Rural Business Centre, Pebsham Lane","addr:postcode":"TN40 2RZ","addr:unit":"7","building:levels":"1","height":"7"}}, "geometry":{"type":"MultiPolygon","coordinates":[[[[0.50618,50.85298],[0.50627,50.85298],[0.50626,50.85287],[0.50617,50.85288],[0.50618,50.85298]]]]}},
{ "type":"Feature","properties":{"osm_way_id":"421853864","building":"warehouse","other":{"addr:city":"Bexhill-on-Sea","addr:place":"Pebsham Rural Business Centre, Pebsham Lane","addr:postcode":"TN40 2RZ","addr:unit":"8","building:levels":"1","height":"7"}}, "geometry":{"type":"MultiPolygon","coordinates":[[[[0.50612,50.85309],[0.5062,50.85309],[0.50618,50.85298],[0.50611,50.85299],[0.50612,50.85309]]]]}},
{ "type":"Feature","properties":{"osm_way_id":"421853868","building":"warehouse","other":{"building:levels":"2"}}, "geometry":{"type":"MultiPolygon","coordinates":[[[[0.5062,50.8521],[0.50677,50.85213],[0.5068,50.85195],[0.50623,50.85192],[0.5062,50.8521]]]]}},
{ "type":"Feature","properties":{"osm_way_id":"444014348","name":"Bexhill Electrical Ltd","building":"warehouse","craft":"electrician","other":{"addr:city":"Bexhill-on-Sea","addr:postcode":"TN39 3UR","addr:street":"Wainwright Road","addr:unit":"12","architect":"Fitzroy Robinson Miller Bourne and Partners","building:levels":"2","contact:phone":"+44 1424 216287","contact:website":"http:\/\/bexhillelectrical.co.uk\/","height":"12","ref:historicplanningapp":"RR\/81\/1513","start_date":"1982"}}, "geometry":{"type":"MultiPolygon","coordinates":[[[[0.46624,50.84077],[0.46613,50.84076],[0.46613,50.84081],[0.46611,50.84091],[0.46621,50.84092],[0.46624,50.84077]]]]}},
{ "type":"Feature","properties":{"osm_way_id":"444014349","name":"Bexhill Exhaust & Service Centre","building":"warehouse","shop":"car_repair","other":{"addr:city":"Bexhill-on-Sea","addr:postcode":"TN39 3UR","addr:street":"Wainwright Road","addr:unit":"15","architect":"Fitzroy Robinson Miller Bourne and Partners","building:levels":"2","contact:email":"bexhillexhaustandservice@hotmail.co.uk","contact:facebook":"https:\/\/www.facebook.com\/pages\/Bexhill-Exhaust-Service-Centre\/148432682026522","contact:phone":"+44 1424 390119","contact:website":"http:\/\/www.bexhillexhaustsandgarage.co.uk\/","height":"12","opening_hours":"09:00-17:00","ref:historicplanningapp":"RR\/81\/1513","service:vehicle:car_repair":"yes","service:vehicle:diagnostics":"yes","service:vehicle:inspection":"yes","service:vehicle:tyres":"yes","start_date":"1982"}}, "geometry":{"type":"MultiPolygon","coordinates":[[[[0.46642,50.84093],[0.46652,50.84094],[0.46653,50.8409],[0.46655,50.8408],[0.46645,50.84079],[0.46642,50.84093]]]]}},
{ "type":"Feature","properties":{"osm_way_id":"444014350","name":"Daves Tyres","building":"warehouse","shop":"car_repair","other":{"addr:city":"Bexhill-on-Sea","addr:postcode":"TN39 3UR","addr:street":"Wainwright Road","addr:unit":"13","architect":"Fitzroy Robinson Miller Bourne and Partners","building:levels":"2","contact:email":"dave@davestyres.com","contact:phone":"+44 1424 218300","height":"12","opening_hours":"Mo-Fr 08:30-17:30; Sa 09:30-13:00","payment:cash":"yes","payment:mastercard":"yes","payment:visa":"yes","ref:historicplanningapp":"RR\/81\/1513","service:vehicle:tyres":"yes","start_date":"1982"}}, "geometry":{"type":"MultiPolygon","coordinates":[[[[0.46621,50.84092],[0.46631,50.84092],[0.46634,50.84078],[0.46624,50.84077],[0.46621,50.84092]]]]}},
{ "type":"Feature","properties":{"osm_way_id":"444014351","name":"Adam's MOT Centre","building":"warehouse","shop":"car_repair","other":{"addr:city":"Bexhill-on-Sea","addr:postcode":"TN39 3UR","addr:street":"Wainwright Road","addr:unit":"14","architect":"Fitzroy Robinson Miller Bourne and Partners","building:levels":"2","contact:facebook":"https:\/\/www.facebook.com\/adamsmotcentre","contact:phone":"+44 1424 217171","contact:website":"http:\/\/www.adamsmot.co.uk","height":"12","opening_hours":"Mo-Fr 08:30-17:30; Sa 08:00-12:00","ref:historicplanningapp":"RR\/81\/1513","service:vehicle:inspection":"yes","start_date":"1982"}}, "geometry":{"type":"MultiPolygon","coordinates":[[[[0.46645,50.84079],[0.46634,50.84078],[0.46631,50.84092],[0.46642,50.84093],[0.46645,50.84079]]]]}},
{ "type":"Feature","properties":{"osm_way_id":"444014352","name":"Car-Tec","building":"warehouse","shop":"car_repair","other":{"addr:city":"Bexhill-on-Sea","addr:postcode":"TN39 3UR","addr:street":"Wainwright Road","addr:unit":"16","architect":"Fitzroy Robinson Miller Bourne and Partners","building:levels":"2","contact:email":"adrian@car-tec.co.uk","contact:facebook":"https:\/\/www.facebook.com\/car.tec.bexhill","contact:phone":"+44 1424 732518","contact:website":"http:\/\/www.car-tec.co.uk","height":"12","opening_hours":"Mo-Fr 08:45-18:00","ref:historicplanningapp":"RR\/81\/1513","service:vehicle:car_repair":"yes","service:vehicle:diagnostics":"yes","service:vehicle:inspection":"yes","start_date":"1982"}}, "geometry":{"type":"MultiPolygon","coordinates":[[[[0.46676,50.84078],[0.46656,50.84076],[0.46655,50.8408],[0.46653,50.8409],[0.46674,50.84091],[0.46676,50.84078]]]]}},
{ "type":"Feature","properties":{"osm_way_id":"444014353","name":"ACB Blow Moulding Ltd","building":"warehouse","office":"company","other":{"addr:city":"Bexhill-on-Sea","addr:postcode":"TN39 3UR","addr:street":"Wainwright Road","addr:unit":"18","architect":"Fitzroy Robinson Miller Bourne and Partners","building:levels":"2","contact:phone":"+44 1424 732555","height":"12","ref:historicplanningapp":"RR\/81\/1513","start_date":"1982"}}, "geometry":{"type":"MultiPolygon","coordinates":[[[[0.46695,50.84093],[0.46715,50.84095],[0.46718,50.84081],[0.46697,50.84079],[0.46695,50.84093]]]]}},
{ "type":"Feature","properties":{"osm_way_id":"444014354","building":"warehouse","other":{"addr:city":"Bexhill-on-Sea","addr:postcode":"TN39 3UR","addr:street":"Wainwright Road","addr:unit":"19","architect":"Fitzroy Robinson Miller Bourne and Partners","building:levels":"2","height":"12","ref:historicplanningapp":"RR\/81\/1513","start_date":"1982"}}, "geometry":{"type":"MultiPolygon","coordinates":[[[[0.46715,50.84095],[0.46736,50.84096],[0.46739,50.84083],[0.46718,50.84081],[0.46715,50.84095]]]]}},
{ "type":"Feature","properties":{"osm_way_id":"444014355","building":"warehouse","other":{"addr:city":"Bexhill-on-Sea","addr:postcode":"TN39 3UR","addr:street":"Wainwright Road","addr:unit":"2","architect":"Fitzroy Robinson Miller Bourne and Partners","building:levels":"2","height":"6","ref:historicplanningapp":"RR\/81\/1513","start_date":"1982"}}, "geometry":{"type":"MultiPolygon","coordinates":[[[[0.46545,50.84118],[0.46566,50.8412],[0.46569,50.84106],[0.46548,50.84105],[0.46545,50.84118]]]]}},
{ "type":"Feature","properties":{"osm_way_id":"444014356","name":"Karaca Meat Ltd","building":"warehouse","office":"company","other":{"addr:city":"Bexhill-on-Sea","addr:postcode":"TN39 3UR","addr:street":"Wainwright Road","addr:unit":"3","architect":"Fitzroy Robinson Miller Bourne and Partners","building:levels":"2","contact:phone":"+44 1424 220202","fhrs:id":"1297193","height":"6","ref:historicplanningapp":"RR\/81\/1513","start_date":"1982"}}, "geometry":{"type":"MultiPolygon","coordinates":[[[[0.46566,50.8412],[0.46587,50.84122],[0.46589,50.84108],[0.46569,50.84106],[0.46566,50.8412]]]]}},
{ "type":"Feature","properties":{"osm_way_id":"444014359","name":"Gunne Butchers Ltd","building":"warehouse","office":"company","other":{"addr:city":"Bexhill-on-Sea","addr:postcode":"TN39 3UR","addr:street":"Wainwright Road","addr:unit":"4-7","architect":"Fitzroy Robinson Miller Bourne and Partners","building:levels":"2","contact:email":"sales@gunnebutchers.co.uk","contact:phone":"+44 1424 730730","contact:website":"http:\/\/www.gunnebutchers.co.uk","height":"12","ref:historicplanningapp":"RR\/81\/1513","source:addr":"FHRS Open Data","start_date":"1982"}}, "geometry":{"type":"MultiPolygon","coordinates":[[[[0.4656,50.84081],[0.46549,50.8408],[0.46539,50.84079],[0.46529,50.84078],[0.46526,50.84093],[0.46536,50.84093],[0.46547,50.84094],[0.46557,50.84095],[0.46568,50.84096],[0.46568,50.84092],[0.4657,50.84082],[0.4656,50.84081]]]]}},
{ "type":"Feature","properties":{"osm_way_id":"444014380","name":"MC Glass","building":"warehouse","office":"company","other":{"addr:city":"Bexhill-on-Sea","addr:postcode":"TN39 3UR","addr:street":"Wainwright Road","addr:unit":"17","architect":"Fitzroy Robinson Miller Bourne and Partners","building:levels":"2","contact:email":"sales@mcglass.co.uk","contact:facebook":"https:\/\/www.facebook.com\/MC-Glass-453535468091627","contact:phone":"+44 1424 220999","contact:website":"http:\/\/www.mcglass.co.uk","height":"12","opening_hours":"Mo-Th 08:00-16:30; Fr 08:00-16:00; Sa 08:30-12:30","ref:historicplanningapp":"RR\/81\/1513","start_date":"1982"}}, "geometry":{"type":"MultiPolygon","coordinates":[[[[0.46674,50.84091],[0.46695,50.84093],[0.46697,50.84079],[0.46676,50.84078],[0.46674,50.84091]]]]}},
{ "type":"Feature","properties":{"osm_way_id":"444014382","name":"Print Station","building":"warehouse","shop":"copyshop","other":{"addr:city":"Bexhill-on-Sea","addr:postcode":"TN39 3UR","addr:street":"Wainwright Road","addr:unit":"11","architect":"Fitzroy Robinson Miller Bourne and Partners","building:levels":"2","contact:email":"sales@printstation-bexhill.co.uk","contact:facebook":"https:\/\/www.facebook.com\/printstation77\/","contact:phone":"+44 1424 219496","contact:twitter":"printstationbex","contact:website":"http:\/\/printstation-bexhill.co.uk\/","height":"12","opening_hours":"Mo-Fr 08:00-17:00","ref:historicplanningapp":"RR\/81\/1513","start_date":"1982"}}, "geometry":{"type":"MultiPolygon","coordinates":[[[[0.46599,50.84094],[0.4661,50.84095],[0.46611,50.84091],[0.46613,50.84081],[0.46602,50.8408],[0.46599,50.84094]]]]}},
{ "type":"Feature","properties":{"osm_way_id":"444014383","name":"The Sara Lee Trust Donation Centre","building":"warehouse","shop":"charity","other":{"addr:city":"Bexhill-on-Sea","addr:postcode":"TN39 3UR","addr:street":"Wainwright Road","addr:unit":"10","architect":"Fitzroy Robinson Miller Bourne and Partners","building:levels":"2","contact:email":"donationcentre@saraleetrust.org","contact:facebook":"https:\/\/www.facebook.com\/SaraLeeTrust","contact:phone":"+44 1424 272358","contact:website":"http:\/\/www.saraleetrust.org\/charity-shops\/109\/225\/sara-lee-trust-donation-centre-\/","height":"12","opening_hours":"Mo-Fr 10:00-13:00","ref:charity":"1055048","ref:historicplanningapp":"RR\/81\/1513","start_date":"1982"}}, "geometry":{"type":"MultiPolygon","coordinates":[[[[0.46602,50.8408],[0.46592,50.84079],[0.46589,50.84094],[0.46599,50.84094],[0.46602,50.8408]]]]}},
{ "type":"Feature","properties":{"osm_way_id":"444014384","name":"Trimseal","building":"warehouse","office":"company","other":{"addr:city":"Bexhill-on-Sea","addr:postcode":"TN39 3UR","addr:street":"Wainwright Road","addr:unit":"9","architect":"Fitzroy Robinson Miller Bourne and Partners","building:levels":"2","contact:facebook":"https:\/\/www.facebook.com\/pages\/Trimseal-plastic-building-products\/156431857885817","contact:phone":"+44 1424 733633","contact:website":"http:\/\/www.trimseal.co.uk\/","height":"12","ref:historicplanningapp":"RR\/81\/1513","start_date":"1982"}}, "geometry":{"type":"MultiPolygon","coordinates":[[[[0.46578,50.84093],[0.46589,50.84094],[0.46592,50.84079],[0.46581,50.84078],[0.46578,50.84093]]]]}},
{ "type":"Feature","properties":{"osm_way_id":"445696164","building":"warehouse","other":{"building:levels":"1"}}, "geometry":{"type":"MultiPolygon","coordinates":[[[[0.47072,50.84223],[0.47072,50.8423],[0.47085,50.8423],[0.47085,50.84223],[0.47072,50.84223]]]]}},
{ "type":"Feature","properties":{"osm_way_id":"450380573","building":"warehouse","other":{"addr:city":"Bexhill-on-Sea","addr:housename":"Unit 4","addr:postcode":"TN39 3LJ","addr:street":"Beeching Road","building:levels":"2","height":"6"}}, "geometry":{"type":"MultiPolygon","coordinates":[[[[0.46394,50.84192],[0.46377,50.84195],[0.46387,50.84214],[0.46403,50.84211],[0.46394,50.84192]]]]}},
{ "type":"Feature","properties":{"osm_way_id":"450380575","building":"warehouse","other":{"addr:city":"Bexhill-on-Sea","addr:housename":"Unit 5","addr:postcode":"TN39 3LJ","addr:street":"Beeching Road","building:levels":"2","height":"6"}}, "geometry":{"type":"MultiPolygon","coordinates":[[[[0.46377,50.84195],[0.46361,50.84199],[0.46371,50.84218],[0.46387,50.84214],[0.46377,50.84195]]]]}},
{ "type":"Feature","properties":{"osm_way_id":"450380576","building":"warehouse","other":{"addr:city":"Bexhill-on-Sea","addr:housename":"Unit 6","addr:postcode":"TN39 3LJ","addr:street":"Beeching Road","building:levels":"2","height":"6"}}, "geometry":{"type":"MultiPolygon","coordinates":[[[[0.46361,50.84199],[0.46345,50.84202],[0.46354,50.84221],[0.46371,50.84218],[0.46361,50.84199]]]]}},
{ "type":"Feature","properties":{"osm_way_id":"450380578","building":"warehouse","other":{"addr:city":"Bexhill-on-Sea","addr:postcode":"TN39 3YF","addr:street":"Beeching Close","addr:unit":"10","building:levels":"1","height":"5"}}, "geometry":{"type":"MultiPolygon","coordinates":[[[[0.46514,50.84382],[0.46518,50.84388],[0.4653,50.84385],[0.46526,50.84378],[0.46514,50.84382]]]]}},
{ "type":"Feature","properties":{"osm_way_id":"450380579","building":"warehouse","other":{"addr:city":"Bexhill-on-Sea","addr:postcode":"TN39 3YF","addr:street":"Beeching Close","addr:unit":"11","building:levels":"1","height":"5"}}, "geometry":{"type":"MultiPolygon","coordinates":[[[[0.46509,50.84375],[0.46514,50.84382],[0.46526,50.84378],[0.46521,50.84372],[0.46509,50.84375]]]]}},
{ "type":"Feature","properties":{"osm_way_id":"450380584","building":"warehouse","other":{"addr:city":"Bexhill-on-Sea","addr:postcode":"TN39 3YF","addr:street":"Beeching Close","addr:unit":"4","building:levels":"1","height":"5"}}, "geometry":{"type":"MultiPolygon","coordinates":[[[[0.46511,50.84402],[0.46506,50.84403],[0.46512,50.84411],[0.46517,50.84409],[0.46511,50.84402]]]]}},
{ "type":"Feature","properties":{"osm_way_id":"450380585","name":"MarComms(UK) Ltd","building":"warehouse","office":"company","other":{"addr:city":"Bexhill-on-Sea","addr:postcode":"TN39 3YF","addr:street":"Beeching Close","addr:unit":"5","building:levels":"1","contact:phone":"+44 7969 945389","height":"5"}}, "geometry":{"type":"MultiPolygon","coordinates":[[[[0.46506,50.84403],[0.46501,50.84405],[0.46507,50.84412],[0.46512,50.84411],[0.46506,50.84403]]]]}},
{ "type":"Feature","properties":{"osm_way_id":"450380587","name":"Heatwize","building":"warehouse","office":"company","other":{"addr:city":"Bexhill-on-Sea","addr:postcode":"TN39 3YF","addr:street":"Beeching Close","addr:unit":"6","building:levels":"1","contact:email":"info@beheatwize.co.uk","contact:facebook":"https:\/\/www.facebook.com\/heatwize","contact:phone":"+44 1424 532980","contact:twitter":"heatwize","contact:website":"https:\/\/www.beheatwize.co.uk\/","height":"5"}}, "geometry":{"type":"MultiPolygon","coordinates":[[[[0.46501,50.84405],[0.46496,50.84406],[0.46502,50.84413],[0.46507,50.84412],[0.46501,50.84405]]]]}},
{ "type":"Feature","properties":{"osm_way_id":"450380588","building":"warehouse","other":{"addr:city":"Bexhill-on-Sea","addr:postcode":"TN39 3YF","addr:street":"Beeching Close","addr:unit":"7","building:levels":"1","height":"5"}}, "geometry":{"type":"MultiPolygon","coordinates":[[[[0.46496,50.84406],[0.46491,50.84407],[0.46497,50.84415],[0.46502,50.84413],[0.46496,50.84406]]]]}},
{ "type":"Feature","properties":{"osm_way_id":"450380590","building":"warehouse","other":{"addr:city":"Bexhill-on-Sea","addr:postcode":"TN39 3YF","addr:street":"Beeching Close","addr:unit":"8","building:levels":"1","height":"5"}}, "geometry":{"type":"MultiPolygon","coordinates":[[[[0.46491,50.84407],[0.46486,50.84409],[0.46492,50.84416],[0.46497,50.84415],[0.46491,50.84407]]]]}},
{ "type":"Feature","properties":{"osm_way_id":"450380591","name":"Jennery Associates","building":"warehouse","other":{"addr:city":"Bexhill-on-Sea","addr:postcode":"TN39 3YF","addr:street":"Beeching Close","addr:unit":"9","building:levels":"1","contact:email":"mac@jennery.associates","contact:phone":"+44 1424 219489","contact:website":"http:\/\/www.jennery.associates\/","height":"5"}}, "geometry":{"type":"MultiPolygon","coordinates":[[[[0.46486,50.84409],[0.46481,50.8441],[0.46487,50.84418],[0.46492,50.84416],[0.46486,50.84409]]]]}},
{ "type":"Feature","properties":{"osm_way_id":"450380592","name":"Phase Electrical Distributors Ltd","building":"warehouse","office":"company","other":{"addr:city":"Bexhill-on-Sea","addr:housename":"Unit 3","addr:postcode":"TN39 3LJ","addr:street":"Beeching Road","building:levels":"2","contact:email":"bexhill@phase-electrical.co.uk","contact:phone":"+44 1424 225990","contact:website":"http:\/\/phase-electrical.co.uk\/","height":"6","opening_hours":"Mo-Fr 07:30-17:30; Sa 08:30-12:00"}}, "geometry":{"type":"MultiPolygon","coordinates":[[[[0.4641,50.84189],[0.46394,50.84192],[0.46403,50.84211],[0.4642,50.84208],[0.4641,50.84189]]]]}},
{ "type":"Feature","properties":{"osm_way_id":"450380596","name":"Weruwise","building":"warehouse","craft":"window_construction","shop":"craft","other":{"addr:city":"Bexhill-on-Sea","addr:housename":"Albany House","addr:housenumber":"42A","addr:postcode":"TN39 3LJ","addr:street":"Beeching Road","building:levels":"2","contact:email":"steve@weruwise.co.uk","contact:facebook":"https:\/\/www.facebook.com\/Weruwise\/","contact:phone":"+44 1424 224744","contact:website":"http:\/\/weruwise.co.uk","height":"8","opening_hours":"Mo-Fr 09:00-17:00; Sa 09:00-13:00","wheelchair":"yes"}}, "geometry":{"type":"MultiPolygon","coordinates":[[[[0.46384,50.84151],[0.46389,50.8417],[0.46432,50.84166],[0.46431,50.84161],[0.46437,50.84161],[0.46436,50.84156],[0.46433,50.84146],[0.46384,50.84151]]]]}},
{ "type":"Feature","properties":{"osm_way_id":"451609522","name":"Protech","building":"warehouse","office":"company","other":{"addr:housenumber":"14A","addr:street":"Sidley Green","building:levels":"2","contact:phone":"+44 1424 215400"}}, "geometry":{"type":"MultiPolygon","coordinates":[[[[0.47347,50.85605],[0.47346,50.85615],[0.47362,50.85615],[0.47363,50.85606],[0.47347,50.85605]]]]}},
{ "type":"Feature","properties":{"osm_way_id":"454877199","name":"MT Drains Ltd","building":"warehouse","office":"company","other":{"addr:city":"Bexhill-on-Sea","addr:housenumber":"45","addr:postcode":"TN39 5HB","addr:street":"Turkey Road","building:levels":"2","contact:phone:GB":"0800 169 6993","contact:website":"http:\/\/www.mtdrains.com","opening_hours":"24\/7"}}, "geometry":{"type":"MultiPolygon","coordinates":[[[[0.46481,50.85622],[0.46486,50.85641],[0.4653,50.85641],[0.46529,50.85622],[0.46481,50.85622]]]]}},
{ "type":"Feature","properties":{"osm_way_id":"462589903","name":"1066 Removals","building":"warehouse","office":"moving_company","other":{"addr:city":"Bexhill-on-Sea","addr:housename":"Woodland Coppice","addr:postcode":"TN39 5DE","addr:street":"Ninfield Road","building:levels":"1","contact:facebook":"https:\/\/www.facebook.com\/1066removals\/","contact:phone":"+44 1424 317084","contact:twitter":"1066Removals"}}, "geometry":{"type":"MultiPolygon","coordinates":[[[[0.4542,50.86464],[0.45446,50.86474],[0.4547,50.86451],[0.45445,50.86441],[0.4542,50.86464]]]]}},
{ "type":"Feature","properties":{"osm_way_id":"465447634","building":"warehouse","other":{"building:levels":"1"}}, "geometry":{"type":"MultiPolygon","coordinates":[[[[0.40898,50.84867],[0.40884,50.84879],[0.40905,50.84889],[0.40935,50.84864],[0.40931,50.84862],[0.40913,50.84854],[0.40898,50.84867]]]]}},
{ "type":"Feature","properties":{"osm_way_id":"465447663","building":"warehouse","other":{"building:levels":"1"}}, "geometry":{"type":"MultiPolygon","coordinates":[[[[0.40915,50.84898],[0.40932,50.84906],[0.40954,50.84888],[0.40937,50.84879],[0.40915,50.84898]]]]}},
{ "type":"Feature","properties":{"osm_way_id":"489058535","name":"J Dryden Lawnmower Service & Repairs","building":"warehouse","craft":"electronics_repair","shop":"craft","other":{"addr:housenumber":"10","addr:street":"De La Warr Mews","building:levels":"2","contact:phone":"+44 1424 224820","electronics_repair":"lawnmower","height":"7","opening_hours":"'by appointment'","ref:GB:uprn":"100062588603","wheelchair":"yes"}}, "geometry":{"type":"MultiPolygon","coordinates":[[[[0.47367,50.84136],[0.47367,50.84131],[0.4736,50.84131],[0.47359,50.84135],[0.47367,50.84136]]]]}},
{ "type":"Feature","properties":{"osm_way_id":"489058537","name":"Umbrella International Ltd","building":"warehouse","office":"company","other":{"addr:housenumber":"2","addr:street":"De La Warr Mews","building:levels":"2","height":"7","ref:GB:uprn":"10002665235"}}, "geometry":{"type":"MultiPolygon","coordinates":[[[[0.47367,50.84131],[0.47368,50.84129],[0.47368,50.84126],[0.4736,50.84126],[0.4736,50.84128],[0.4736,50.84131],[0.47367,50.84131]]]]}},
{ "type":"Feature","properties":{"osm_way_id":"489058538","name":"Phil Dawes Landscape Gardener","building":"warehouse","craft":"gardener","other":{"addr:housenumber":"5B","addr:street":"De La Warr Mews","building:levels":"2","contact:email":"info@pdaweslandscapes.co.uk","contact:phone":"+44 1424 734767","contact:website":"http:\/\/pdaweslandscapes.com\/","height":"7","ref:GB:uprn":"10002665167"}}, "geometry":{"type":"MultiPolygon","coordinates":[[[[0.47342,50.84138],[0.47339,50.84137],[0.47335,50.84143],[0.47338,50.84144],[0.47342,50.84138]]]]}},
{ "type":"Feature","properties":{"osm_way_id":"489058539","name":"SBS Consumables","building":"warehouse","office":"company","other":{"addr:housenumber":"5A","addr:street":"De La Warr Mews","building:levels":"2","height":"7","ref:GB:uprn":"100062588133"}}, "geometry":{"type":"MultiPolygon","coordinates":[[[[0.47327,50.84142],[0.47335,50.84143],[0.47339,50.84137],[0.47331,50.84135],[0.47327,50.84142]]]]}},
{ "type":"Feature","properties":{"osm_way_id":"489058540","name":"Patrick Chambers Motor Services","building":"warehouse","office":"company","other":{"addr:housenumber":"4","addr:street":"De La Warr Mews","building:levels":"2","height":"7","ref:GB:uprn":"100062588132"}}, "geometry":{"type":"MultiPolygon","coordinates":[[[[0.47315,50.84139],[0.47327,50.84142],[0.47331,50.84135],[0.47319,50.84132],[0.47315,50.84139]]]]}},
{ "type":"Feature","properties":{"osm_way_id":"504614701","name":"MC Mechanics Ltd","building":"warehouse","shop":"car_repair","other":{"addr:city":"Bexhill-on-Sea","addr:housename":"West Station Goods Yard","addr:housenumber":"17","addr:postcode":"TN39 3LR","addr:street":"Terminus Road","addr:unit":"3","building:levels":"2","contact:phone":"+44 1424 216802","height":"8","opening_hours":"Mo-Fr 08:00-18:00","service:vehicle:car_repair":"yes","service:vehicle:diagnostics":"yes","service:vehicle:inspection":"yes"}}, "geometry":{"type":"MultiPolygon","coordinates":[[[[0.4628,50.8412],[0.46288,50.84134],[0.46302,50.8413],[0.46293,50.84117],[0.4628,50.8412]]]]}},
{ "type":"Feature","properties":{"osm_way_id":"504614703","name":"Witham Brothers","building":"warehouse","office":"moving_company","other":{"addr:city":"Bexhill-on-Sea","addr:housename":"West Station Goods Yard","addr:postcode":"TN39 3LR","addr:street":"Terminus Road","addr:unit":"4","building:levels":"2","contact:email":"removals@withambrothers.co.uk","contact:phone:GB":"0845 2232095","contact:website":"http:\/\/withambrothers.co.uk\/","height":"8","wheelchair":"yes"}}, "geometry":{"type":"MultiPolygon","coordinates":[[[[0.46314,50.84094],[0.46318,50.84093],[0.46308,50.84077],[0.46298,50.8408],[0.46296,50.84076],[0.46264,50.84084],[0.46266,50.84088],[0.46261,50.84089],[0.46271,50.84104],[0.46314,50.84094]]]]}},
{ "type":"Feature","properties":{"osm_way_id":"515536981","building":"warehouse","other":{"addr:city":"Bexhill-on-Sea","addr:housenumber":"Rear of 68","addr:postcode":"TN39 3LE","addr:street":"London Road","addr:unit":"1-2","building:levels":"1"}}, "geometry":{"type":"MultiPolygon","coordinates":[[[[0.47016,50.84456],[0.46991,50.8445],[0.46989,50.84454],[0.47008,50.84458],[0.47007,50.84459],[0.47013,50.84461],[0.47016,50.84456]]]]}},
{ "type":"Feature","properties":{"osm_way_id":"515536985","building":"warehouse","other":{"addr:city":"Bexhill-on-Sea","addr:housename":"Burnside Warehouse","addr:postcode":"TN39 3LE","addr:street":"Burnside Mews","addr:unit":"1-3","building:levels":"2"}}, "geometry":{"type":"MultiPolygon","coordinates":[[[[0.46971,50.84478],[0.46967,50.84482],[0.46992,50.84491],[0.46996,50.84487],[0.46971,50.84478]]]]}},
{ "type":"Feature","properties":{"osm_way_id":"515536992","building":"warehouse","other":{"addr:city":"Bexhill-on-Sea","addr:housenumber":"Rear of 68","addr:postcode":"TN39 3LE","addr:street":"London Road","addr:unit":"3-5","building:levels":"1"}}, "geometry":{"type":"MultiPolygon","coordinates":[[[[0.47008,50.84465],[0.4701,50.84462],[0.46988,50.84457],[0.46986,50.8446],[0.47008,50.84465]]]]}},
{ "type":"Feature","properties":{"osm_way_id":"519944790","building":"warehouse","other":{"addr:housename":"Parkhurst Warehouse","addr:street":"Parkhurst Road","building:levels":"2","ref:GB:uprn":"10002665363;10002656423;10002656424;10090509200;200002905688"}}, "geometry":{"type":"MultiPolygon","coordinates":[[[[0.47304,50.83994],[0.47304,50.83991],[0.47302,50.83989],[0.47303,50.83984],[0.47284,50.83982],[0.47282,50.83992],[0.47302,50.83994],[0.47304,50.83994]]]]}},
{ "type":"Feature","properties":{"osm_way_id":"520800784","name":"Peter Johnson Motor Body Repairs","building":"warehouse","shop":"car_repair","other":{"addr:city":"Bexhill-on-Sea","addr:housenumber":"3D","addr:postcode":"TN39 3LG","addr:street":"Beeching Road","building:levels":"1","contact:facebook":"https:\/\/www.facebook.com\/pjmbr","contact:phone":"+44 1424 220268","contact:twitter":"pjmbr","contact:website":"http:\/\/pjmbr.co.uk\/","height":"7","opening_hours":"Mo-Fr 08:00-17:00; Sa 09:00-12:00","service:vehicle:car_parts":"yes","wheelchair":"no"}}, "geometry":{"type":"MultiPolygon","coordinates":[[[[0.46702,50.84406],[0.46687,50.84401],[0.46712,50.84371],[0.46727,50.84376],[0.46702,50.84406]]]]}},
{ "type":"Feature","properties":{"osm_way_id":"520800785","name":"Independent Roofing Supplies","building":"warehouse","shop":"trade","other":{"addr:city":"Bexhill-on-Sea","addr:housenumber":"3B","addr:postcode":"TN39 3LG","addr:street":"Beeching Road","building:levels":"1","contact:email":"enquiries@irsl.co.uk","contact:phone":"+44 1424 736999","contact:website":"http:\/\/irsl.co.uk\/","height":"7","opening_hours":"Mo-Fr 07:30-17:00","trade":"roofing","wheelchair":"yes"}}, "geometry":{"type":"MultiPolygon","coordinates":[[[[0.46742,50.84381],[0.46757,50.84386],[0.46727,50.84423],[0.46712,50.84418],[0.46715,50.84414],[0.46742,50.84381]]]]}},
{ "type":"Feature","properties":{"osm_way_id":"520800786","name":"Sussex Plumbing Supplies","building":"warehouse","shop":"trade","other":{"addr:city":"Bexhill-on-Sea","addr:housenumber":"3A","addr:postcode":"TN39 3LG","addr:street":"Beeching Road","building:levels":"1","contact:phone":"+44 1424 739120","contact:website":"http:\/\/sussexplumbingsupplies.co.uk\/","height":"7","opening_hours":"Mo-Fr 07:30-17:00; Sa 08:00-12:00","trade":"plumbing","wheelchair":"yes"}}, "geometry":{"type":"MultiPolygon","coordinates":[[[[0.46757,50.84386],[0.46772,50.84391],[0.46739,50.84431],[0.46724,50.84426],[0.46727,50.84423],[0.46757,50.84386]]]]}},
{ "type":"Feature","properties":{"osm_way_id":"520800788","building":"warehouse","other":{"addr:city":"Bexhill-on-Sea","addr:postcode":"TN39 3UR","addr:street":"Wainwright Road","addr:unit":"20A","architect":"Fitzroy Robinson Miller Bourne and Partners","building:levels":"2","height":"5","ref:historicplanningapp":"RR\/81\/1513","start_date":"1982"}}, "geometry":{"type":"MultiPolygon","coordinates":[[[[0.46693,50.84117],[0.46714,50.84119],[0.46717,50.84105],[0.46696,50.84103],[0.46693,50.84117]]]]}},
{ "type":"Feature","properties":{"osm_way_id":"521316014","building":"warehouse","other":{"building:levels":"1"}}, "geometry":{"type":"MultiPolygon","coordinates":[[[[0.50969,50.85725],[0.51044,50.85744],[0.51066,50.8571],[0.50991,50.85691],[0.50969,50.85725]]]]}},
{ "type":"Feature","properties":{"osm_way_id":"534062014","building":"warehouse","other":{"building:levels":"1"}}, "geometry":{"type":"MultiPolygon","coordinates":[[[[0.47604,50.86351],[0.47626,50.86351],[0.47625,50.86344],[0.47603,50.86345],[0.47604,50.86351]]]]}},
{ "type":"Feature","properties":{"osm_way_id":"534062018","building":"warehouse","other":{"addr:housename":"Oaklands","addr:street":"Buckholt Lane","building:levels":"1"}}, "geometry":{"type":"MultiPolygon","coordinates":[[[[0.4761,50.86366],[0.4761,50.86374],[0.47628,50.86374],[0.47628,50.86355],[0.47622,50.86355],[0.47622,50.86366],[0.4761,50.86366]]]]}},
{ "type":"Feature","properties":{"osm_way_id":"546822755","name":"Rumsey Oils","amenity":"recycling","building":"warehouse","other":{"addr:street":"Sandhurst Lane","building:levels":"1","contact:phone":"+44 1424 843874","contact:website":"https:\/\/www.rumseyoils.com","opening_hours":"Mo-Fr 15:00-19:00","operator":"F & JM Rumsey","recycling:cooking_oil":"yes","recycling_type":"centre"}}, "geometry":{"type":"MultiPolygon","coordinates":[[[[0.4222,50.85271],[0.42192,50.8528],[0.42212,50.85305],[0.4224,50.85296],[0.4222,50.85271]]]]}},
{ "type":"Feature","properties":{"osm_way_id":"572869169","building":"warehouse","other":{"building:levels":"1"}}, "geometry":{"type":"MultiPolygon","coordinates":[[[[0.4489,50.86683],[0.44877,50.86686],[0.44883,50.86694],[0.44874,50.86696],[0.44882,50.86708],[0.44904,50.86703],[0.4489,50.86683]]]]}},
{ "type":"Feature","properties":{"osm_way_id":"572869170","building":"warehouse","other":{"building:levels":"1"}}, "geometry":{"type":"MultiPolygon","coordinates":[[[[0.44895,50.86678],[0.44904,50.86685],[0.44939,50.86669],[0.4493,50.86661],[0.44895,50.86678]]]]}},
{ "type":"Feature","properties":{"osm_way_id":"572869171","name":"Coussens Cranes Ltd","building":"warehouse","office":"company","other":{"addr:housename":"Plant Depot","addr:street":"Thorne Crescent","building:levels":"1","contact:facebook":"https:\/\/www.facebook.com\/coussenscranes\/","contact:phone":"+44 1424 892380","contact:website":"http:\/\/www.coussenscranes.co.uk\/","opening_hours":"Mo-Fr 07:00-19:00","wheelchair":"yes"}}, "geometry":{"type":"MultiPolygon","coordinates":[[[[0.44927,50.8668],[0.44934,50.86686],[0.44956,50.86677],[0.4495,50.86671],[0.44927,50.8668]]]]}},
{ "type":"Feature","properties":{"osm_way_id":"572869173","name":"Mount Pleasant MOT Centre","building":"warehouse","shop":"car_repair","other":{"addr:street":"Ninfield Road","building:levels":"2","contact:email":"mountpleasantmot@btconnect.com","contact:facebook":"https:\/\/www.facebook.com\/Mount-Pleasant-Mot-Centre-1434078776803703\/","contact:phone":"+44 1424 893344","contact:website":"http:\/\/mountpleasantmotcentre.co.uk\/","opening_hours":"Mo-Fr 08:00-17:30; Sa 08:00-13:00","service:vehicle:car_repair":"yes","service:vehicle:diagnostics":"yes","service:vehicle:inspection":"yes","service:vehicle:tyres":"yes","wheelchair":"limited"}}, "geometry":{"type":"MultiPolygon","coordinates":[[[[0.44925,50.867],[0.44938,50.86697],[0.44933,50.86689],[0.4493,50.86689],[0.44925,50.8668],[0.44914,50.86683],[0.44925,50.867]]]]}},
{ "type":"Feature","properties":{"osm_way_id":"657030739","amenity":"mortuary","building":"warehouse","other":{"building:levels":"2","operator":"Mummery Funeralcare","ref:GB:uprn":"10025144552"}}, "geometry":{"type":"MultiPolygon","coordinates":[[[[0.47427,50.83947],[0.47431,50.83931],[0.47427,50.83931],[0.4743,50.83919],[0.47436,50.8392],[0.47442,50.83948],[0.47427,50.83947]]]]}},
{ "type":"Feature","properties":{"osm_way_id":"699213443","building":"warehouse"},"geometry":{"type":"MultiPolygon","coordinates":[[[[0.56167,50.91334],[0.56149,50.91334],[0.56149,50.91343],[0.56167,50.91343],[0.56167,50.91334]]]]}},
{ "type":"Feature","properties":{"osm_way_id":"699213444","building":"warehouse"},"geometry":{"type":"MultiPolygon","coordinates":[[[[0.56178,50.91354],[0.56178,50.91343],[0.56167,50.91343],[0.56149,50.91343],[0.56149,50.91354],[0.56178,50.91354]]]]}},
{ "type":"Feature","properties":{"osm_way_id":"875309451","name":"Wheeler's Workshops Ltd","building":"warehouse","shop":"car_repair","other":{"addr:housenumber":"106","addr:street":"Reginald Road","building:levels":"2","contact:phone":"+44 1424 220527","height":"9","opening_hours":"Mo-Fr 08:00-17:00; Sa 08:30-12:00","service:vehicle:car_repair":"yes","service:vehicle:diagnostics":"yes","service:vehicle:inspection":"yes"}}, "geometry":{"type":"MultiPolygon","coordinates":[[[[0.46699,50.84333],[0.46719,50.84336],[0.46722,50.84326],[0.46716,50.84325],[0.46703,50.84323],[0.46699,50.84333]]]]}},
{ "type":"Feature","properties":{"osm_way_id":"914783601","name":"JM Waste Management","amenity":"waste_transfer_station","building":"warehouse","other":{"addr:city":"Bexhill-on-Sea","addr:housenumber":"5","addr:postcode":"TN40 2JP","addr:street":"Brett Drive","building:levels":"1","contact:phone":"+44 1424 732643","contact:website":"https:\/\/www.jmskiphire.co.uk","height":"13","opening_hours":"Mo-Fr 07:30-17:00"}}, "geometry":{"type":"MultiPolygon","coordinates":[[[[0.49773,50.84335],[0.49789,50.84336],[0.49793,50.84317],[0.498,50.84318],[0.49802,50.84307],[0.49779,50.84305],[0.49773,50.84335]]]]}},
{ "type":"Feature","properties":{"osm_way_id":"914783602","building":"warehouse","other":{"addr:housenumber":"3","addr:street":"Brett Drive","addr:unit":"2","building:levels":"1","height":"6","wheelchair":"yes"}}, "geometry":{"type":"MultiPolygon","coordinates":[[[[0.49826,50.84406],[0.49828,50.84394],[0.49842,50.84396],[0.49839,50.84407],[0.49826,50.84406]]]]}},
{ "type":"Feature","properties":{"osm_way_id":"914783603","name":"S Paine","building":"warehouse","shop":"car_repair","other":{"addr:housenumber":"3","addr:street":"Brett Drive","addr:unit":"3","building:levels":"1","contact:phone":"+44 1424 218218","height":"6","opening_hours":"Mo-Fr 08:00-17:00; Sa 08:00-12:30","wheelchair":"yes"}}, "geometry":{"type":"MultiPolygon","coordinates":[[[[0.49839,50.84407],[0.49842,50.84396],[0.49853,50.84397],[0.4985,50.84408],[0.49839,50.84407]]]]}},
{ "type":"Feature","properties":{"osm_way_id":"914783604","name":"Elite Body Shop","building":"warehouse","shop":"car_repair","other":{"addr:housenumber":"3","addr:street":"Brett Drive","addr:unit":"4","building:levels":"1","contact:phone":"+44 1424 214191","height":"6","wheelchair":"yes"}}, "geometry":{"type":"MultiPolygon","coordinates":[[[[0.4985,50.84408],[0.49853,50.84397],[0.49866,50.84398],[0.49864,50.84409],[0.4985,50.84408]]]]}},
{ "type":"Feature","properties":{"osm_way_id":"926173644","building":"warehouse","other":{"addr:housename":"Phoenix Works","addr:housenumber":"93","addr:street":"Windsor Road","addr:unit":"5-7","building:levels":"2"}}, "geometry":{"type":"MultiPolygon","coordinates":[[[[0.46723,50.84261],[0.4673,50.8424],[0.46737,50.84241],[0.46731,50.84261],[0.46723,50.84261]]]]}},
{ "type":"Feature","properties":{"osm_way_id":"928918935","name":"Marsh View Construction","building":"warehouse","craft":"roofer","other":{"addr:housename":"Constables Farm","addr:street":"Barnhorn Road","building:levels":"1","contact:phone":"+44 1424 844043"}}, "geometry":{"type":"MultiPolygon","coordinates":[[[[0.39939,50.84269],[0.39929,50.84259],[0.39899,50.84271],[0.39909,50.84281],[0.39939,50.84269]]]]}},
{ "type":"Feature","properties":{"osm_way_id":"944894126","name":"Tom Pettitt Motors","building":"warehouse","shop":"car_repair","other":{"addr:housenumber":"6","addr:street":"De La Warr Mews","building:levels":"2","contact:phone":"+44 1424 233688","height":"7","ref:GB:uprn":"100062588601","service:vehicle:car_repair":"yes","service:vehicle:diagnostics":"yes","service:vehicle:inspection":"yes","wheelchair":"yes"}}, "geometry":{"type":"MultiPolygon","coordinates":[[[[0.47338,50.84144],[0.47345,50.84146],[0.47349,50.84139],[0.47342,50.84138],[0.47338,50.84144]]]]}},
{ "type":"Feature","properties":{"osm_way_id":"999980877","name":"Yeomans Peugeot","building":"warehouse","shop":"car","other":{"addr:city":"Bexhill-on-Sea","addr:housenumber":"5-7","addr:postcode":"TN39 3LG","addr:street":"Beeching Road","brand":"Peugeot","building:levels":"1","contact:phone":"+44 1424 237126","contact:website":"https:\/\/www.yeomans.co.uk\/peugeot\/contact-us\/bexhill\/#","height":"8","opening_hours":"Mo-Fr 08:30-18:00; Sa 08:30-17:00; Su 10:00-16:00","wheelchair":"yes"}}, "geometry":{"type":"MultiPolygon","coordinates":[[[[0.4665,50.8438],[0.46648,50.84381],[0.46657,50.84387],[0.46659,50.84385],[0.46682,50.84393],[0.46705,50.84365],[0.46685,50.84359],[0.46671,50.84377],[0.46666,50.84376],[0.46664,50.84371],[0.4665,50.8438]]]]}}
]
}
