{
"type": "FeatureCollection",
"features": [
{ "type":"Feature","properties":{"osm_id":"1216008784","name":"ALDI","other":{"addr:city":"Thornton-Cleveleys","addr:housenumber":"15","addr:postcode":"FY5 1AD","addr:street":"Crescent West","brand":"ALDI","brand:wikidata":"Q41171672","brand:wikipedia":"en:Aldi","fhrs:id":"375068","shop":"supermarket"}}, "geometry":{"type":"Point","coordinates":[-3.04204,53.87626 ]}},
{ "type":"Feature","properties":{"osm_id":"1851613920","name":"Booths","other":{"addr:street":"Park Hill Road","brand:wikidata":"Q4943949","contact:website":"https:\/\/www.booths.co.uk\/store\/garstang\/","opening_hours":"Mo-Sa 08:00-21:00; Su 09:30-16:00","operator":"E H Booth & Co Ltd","shop":"supermarket","toilets":"yes","toilets:wheelchair":"yes","wheelchair":"yes"}}, "geometry":{"type":"Point","coordinates":[-2.77626,53.90124 ]}},
{ "type":"Feature","properties":{"osm_id":"4081187477","name":"Booths","other":{"addr:city":"Poulton-le-Fylde","addr:postcode":"FY6 7DF","addr:street":"Teanlow Centre","brand:wikidata":"Q4943949","contact:website":"https:\/\/www.booths.co.uk\/store\/new-poulton\/","fhrs:id":"840049","shop":"supermarket"}}, "geometry":{"type":"Point","coordinates":[-2.99357,53.84642 ]}},
{ "type":"Feature","properties":{"osm_id":"4580810781","name":"Normoss Road Co-op","other":{"addr:city":"Blackpool","addr:housenumber":"108","addr:postcode":"FY3 8QP","addr:street":"Normoss Road","fhrs:id":"873134","shop":"supermarket"}}, "geometry":{"type":"Point","coordinates":[-3.00523,53.82806 ]}},
{ "type":"Feature","properties":{"osm_id":"4585059115","name":"Heron Foods","other":{"addr:city":"Thornton Cleveleys","addr:country":"GB","addr:housenumber":"74","addr:postcode":"FY5 1AG","addr:street":"Victoria Road West","brand":"Heron Foods","brand:wikidata":"Q5743472","brand:wikipedia":"en:Heron Foods","fhrs:id":"741436","shop":"supermarket","website":"https:\/\/heronfoods.com\/store\/ct-cleveleys\/"}}, "geometry":{"type":"Point","coordinates":[-3.04204,53.87711 ]}},
{ "type":"Feature","properties":{"osm_id":"5005215527","name":"Lidl","other":{"addr:postcode":"FY6 8JW","brand":"Lidl","brand:wikidata":"Q151954","brand:wikipedia":"en:Lidl","fhrs:id":"957353","shop":"supermarket"}}, "geometry":{"type":"Point","coordinates":[-2.97561,53.84449 ]}},
{ "type":"Feature","properties":{"osm_id":"5013950792","name":"Heron Foods","other":{"addr:postcode":"FY7 6SR","brand":"Heron Foods","brand:wikidata":"Q5743472","brand:wikipedia":"en:Heron Foods","contact:website":"https:\/\/heronfoods.com\/storelocator\/store-details\/fleetwood","fhrs:id":"375031","shop":"supermarket","wheelchair":"yes"}}, "geometry":{"type":"Point","coordinates":[-3.01452,53.92105 ]}},
{ "type":"Feature","properties":{"osm_id":"5023011587","name":"Aldi","other":{"addr:postcode":"PR3 1HB","addr:street":"Moss Lane","brand":"ALDI","brand:wikidata":"Q41171672","brand:wikipedia":"en:Aldi","opening_hours":"Mo-Sa 08:00-22:00; Su 10:00-16:00","operator":"Aldi Stores Limited","shop":"supermarket","website":"https:\/\/www.aldi.co.uk\/store\/s-uk-E1001"}}, "geometry":{"type":"Point","coordinates":[-2.77781,53.90096 ]}},
{ "type":"Feature","properties":{"osm_id":"7248023853","name":"Iceland","other":{"addr:city":"Thornton-Cleveleys","addr:housenumber":"41-45","addr:postcode":"FY5 1BS","addr:street":"Victoria Road West","addr:suburb":"Cleveleys","brand":"Iceland","brand:wikidata":"Q721810","fhrs:id":"1159458","shop":"supermarket","wheelchair":"yes"}}, "geometry":{"type":"Point","coordinates":[-3.04305,53.87757 ]}},
{ "type":"Feature","properties":{"osm_way_id":"33475784","name":"Tesco Extra","building":"yes","shop":"supermarket","other":{"addr:postcode":"NG10 1HG","addr:street":"Waverley Street","brand":"Tesco Extra","brand:wikidata":"Q25172225","brand:wikipedia":"en:Tesco Extra","fhrs:id":"252242","layer":"1","operator":"Tesco","source:addr":"Food Hygiene Open Data"}}, "geometry":{"type":"MultiPolygon","coordinates":[[[[-1.26727,52.89847],[-1.26741,52.89844],[-1.26739,52.8984],[-1.26806,52.89823],[-1.26807,52.89825],[-1.26826,52.8982],[-1.26834,52.89832],[-1.26844,52.89829],[-1.26884,52.89886],[-1.26874,52.89888],[-1.26904,52.89931],[-1.2689,52.89934],[-1.26903,52.89953],[-1.26888,52.89957],[-1.26878,52.89943],[-1.26817,52.89959],[-1.26826,52.89971],[-1.26816,52.89974],[-1.26727,52.89847]]]]}},
{ "type":"Feature","properties":{"osm_way_id":"160308440","name":"ALDI","building":"commercial","shop":"supermarket","other":{"addr:city":"Fleetwood","addr:postcode":"FY7 7DA","addr:street":"Poulton Road","brand":"ALDI","brand:wikidata":"Q41171672","brand:wikipedia":"en:Aldi","fhrs:id":"374947","wheelchair":"yes"}}, "geometry":{"type":"MultiPolygon","coordinates":[[[[-3.02878,53.91884],[-3.02825,53.91846],[-3.02839,53.91838],[-3.02836,53.91836],[-3.02851,53.91828],[-3.02909,53.91869],[-3.02878,53.91884]]]]}},
{ "type":"Feature","properties":{"osm_way_id":"160488986","name":"Asda","building":"supermarket","shop":"supermarket","other":{"addr:city":"Fleetwood","addr:country":"GB","addr:postcode":"FY7 6NU","addr:street":"Dock Street","brand":"Asda","brand:wikidata":"Q297410","brand:wikipedia":"en:Asda","contact:website":"https:\/\/storelocator.asda.com\/north-west\/fleetwood\/cop-lane","fhrs:id":"375041","operator":"Asda Stores Ltd","toilets":"yes","toilets:access":"customers","toilets:wheelchair":"yes","wheelchair":"yes"}}, "geometry":{"type":"MultiPolygon","coordinates":[[[[-3.01456,53.91962],[-3.01367,53.91998],[-3.0144,53.92058],[-3.01509,53.9203],[-3.01501,53.92023],[-3.01516,53.92018],[-3.01533,53.92012],[-3.01513,53.91996],[-3.01546,53.91982],[-3.01478,53.9196],[-3.01462,53.91965],[-3.01456,53.91962]]]]}},
{ "type":"Feature","properties":{"osm_way_id":"168802693","name":"Morrisons","amenity":"pharmacy","building":"yes","shop":"supermarket","other":{"addr:city":"Thornton-Cleveleys","addr:country":"GB","addr:postcode":"FY5 3TS","addr:street":"Amounderness Way","brand":"Morrisons","brand:wikidata":"Q922344","brand:wikipedia":"en:Morrisons","fhrs:id":"374697","toilets:wheelchair":"yes","website":"https:\/\/my.morrisons.com\/storefinder\/218","wheelchair":"yes"}}, "geometry":{"type":"MultiPolygon","coordinates":[[[[-3.02584,53.87327],[-3.0259,53.87317],[-3.02598,53.87317],[-3.0261,53.87313],[-3.02633,53.87272],[-3.02613,53.87268],[-3.0262,53.87255],[-3.02487,53.87231],[-3.02481,53.87244],[-3.02507,53.87249],[-3.02476,53.87308],[-3.02584,53.87327]]]]}},
{ "type":"Feature","properties":{"osm_way_id":"174897346","name":"Sainsbury's","building":"yes","shop":"supermarket","other":{"brand":"Sainsbury's","brand:wikidata":"Q152096","brand:wikipedia":"en:Sainsbury's"}}, "geometry":{"type":"MultiPolygon","coordinates":[[[[-2.77533,53.89816],[-2.77521,53.89805],[-2.77502,53.89787],[-2.77591,53.89755],[-2.77603,53.89764],[-2.77618,53.89759],[-2.77627,53.89768],[-2.7758,53.89786],[-2.77586,53.89793],[-2.77547,53.89806],[-2.7755,53.89809],[-2.77533,53.89816]]]]}},
{ "type":"Feature","properties":{"osm_way_id":"276635744","name":"The Co-operative Food","building":"yes","shop":"supermarket","other":{"addr:city":"Thornton-Cleveleys","addr:postcode":"FY5 5DX","addr:street":"Victoria Road East","atm":"yes","atm:fee":"free","fhrs:id":"374853","operator":"The Co-operative Group","wheelchair":"yes"}}, "geometry":{"type":"MultiPolygon","coordinates":[[[[-3.0002,53.87094],[-3.00009,53.8705],[-3.00048,53.87046],[-3.0006,53.87091],[-3.0003,53.87093],[-3.0002,53.87094]]]]}},
{ "type":"Feature","properties":{"osm_way_id":"319618586","name":"Co-op Food","building":"yes","shop":"supermarket","other":{"addr:city":"Poulton-le-Fylde","addr:housenumber":"30-36","addr:postcode":"FY6 0AU","addr:street":"Lancaster Road","addr:village":"Knott End-On-Sea","brand":"Co-op Food","brand:wikidata":"Q3277439","brand:wikipedia":"en:Co-op Food","fhrs:id":"374675","operator":"The Co-operative Group"}}, "geometry":{"type":"MultiPolygon","coordinates":[[[[-2.98647,53.92801],[-2.9864,53.92823],[-2.98628,53.92822],[-2.98631,53.92815],[-2.98615,53.92813],[-2.9862,53.92797],[-2.98647,53.92801]]]]}},
{ "type":"Feature","properties":{"osm_way_id":"549721222","name":"ALDI","building":"yes","shop":"supermarket","other":{"addr:city":"Poulton-le-Fylde","addr:postcode":"FY6 7BX","addr:street":"Tithebarn Street","brand":"ALDI","brand:wikidata":"Q41171672","brand:wikipedia":"en:Aldi","fhrs:id":"917984"}}, "geometry":{"type":"MultiPolygon","coordinates":[[[[-2.99287,53.84829],[-2.99287,53.84808],[-2.9919,53.84808],[-2.9919,53.84821],[-2.99182,53.84821],[-2.99181,53.84829],[-2.99287,53.84829]]]]}},
{ "type":"Feature","properties":{"osm_way_id":"572449374","name":"Tesco","building":"supermarket","shop":"supermarket","other":{"addr:city":"Tavistick","addr:postcode":"PL19 9QN","addr:street":"Plymouth Road","brand":"Tesco","brand:wikidata":"Q487494","brand:wikipedia":"en:Tesco","operator":"Tesco","website":"https:\/\/www.tesco.com"}}, "geometry":{"type":"MultiPolygon","coordinates":[[[[-4.14491,50.53855],[-4.14453,50.53817],[-4.14514,50.53793],[-4.14522,50.53801],[-4.14529,50.53798],[-4.14559,50.53828],[-4.14512,50.53847],[-4.14491,50.53855]]]]}},
{ "type":"Feature","properties":{"osm_way_id":"808790711","name":"Co-op Food","building":"yes","shop":"supermarket","other":{"addr:city":"Poulton-le-Fylde","addr:postcode":"FY6 0EJ","addr:street":"Sandy Lane","brand":"Co-op Food","brand:wikidata":"Q3277439","brand:wikipedia":"en:Co-op Food"}}, "geometry":{"type":"MultiPolygon","coordinates":[[[[-2.97217,53.92544],[-2.97188,53.92544],[-2.97188,53.92537],[-2.97196,53.92537],[-2.97196,53.92519],[-2.97216,53.92519],[-2.97217,53.92544]]]]}},
{ "type":"Feature","properties":{"osm_way_id":"1030002937","name":"Sainsbury's Local","building":"yes","shop":"supermarket","other":{"addr:city":"Thornton-Cleveleys","addr:housenumber":"157","addr:postcode":"FY5 3LB","addr:street":"Victoria Road West","brand:wikidata":"Q13218434","brand:wikipedia":"en:Sainsbury's Local","fhrs:id":"247382","toilets:wheelchair":"no","wheelchair":"yes"}}, "geometry":{"type":"MultiPolygon","coordinates":[[[[-3.03508,53.8763],[-3.03497,53.87654],[-3.03507,53.87656],[-3.03506,53.87657],[-3.03515,53.87659],[-3.03519,53.87649],[-3.03522,53.87643],[-3.03514,53.87642],[-3.03518,53.87631],[-3.03508,53.8763]]]]}}
]
}
