{
"type": "FeatureCollection",
"features": [
{ "type":"Feature","properties":{"osm_id":"97973555","name":"Co-op Food","other":{"addr:city":"Stanford Le Hope","addr:postcode":"SS17 7DZ","addr:street":"The Sorrells","brand":"Co-op Food","brand:wikidata":"Q3277439","brand:wikipedia":"en:Co-op Food","operator":"Chelmsford Star Co-operative Society","shop":"supermarket"}}, "geometry":{"type":"Point","coordinates":[0.44358,51.51934 ]}},
{ "type":"Feature","properties":{"osm_id":"1623762700","name":"Co-op Food","other":{"brand":"Co-op Food","brand:wikidata":"Q3277439","brand:wikipedia":"en:Co-op Food","operator":"The Co-operative Group","operator:wikidata":"Q117202","operator:wikipedia":"en:The Co-operative Group","shop":"supermarket"}}, "geometry":{"type":"Point","coordinates":[0.3385,51.48895 ]}},
{ "type":"Feature","properties":{"osm_id":"5550111550","other":{"wheelchair":"yes"}}, "geometry":{"type":"Point","coordinates":[0.44659,51.52557 ]}},
{ "type":"Feature","properties":{"osm_id":"5826976554","name":"Co-op Food","other":{"brand":"Co-op Food","brand:wikidata":"Q3277439","brand:wikipedia":"en:Co-op Food","operator":"The Co-operative Group","operator:wikidata":"Q117202","operator:wikipedia":"en:The Co-operative Group","shop":"supermarket"}}, "geometry":{"type":"Point","coordinates":[0.29596,51.52253 ]}},
{ "type":"Feature","properties":{"osm_id":"6219395922","name":"Co-op Food","other":{"addr:city":"Corringham","addr:housenumber":"33-37","addr:postcode":"SS17 7SE","addr:street":"Gardner Avenue","brand":"Co-op Food","brand:wikidata":"Q3277439","brand:wikipedia":"en:Co-op Food","operator":"The Co-operative Group","shop":"supermarket"}}, "geometry":{"type":"Point","coordinates":[0.44533,51.53059 ]}},
{ "type":"Feature","properties":{"osm_way_id":"4712260","name":"Asda","building":"yes","shop":"supermarket","other":{"addr:city":"Tilbury","addr:country":"GB","addr:postcode":"RM18 7HJ","addr:street":"Thurrock Park Way","brand":"Asda","brand:wikidata":"Q297410","brand:wikipedia":"en:Asda","contact:facebook":"https:\/\/www.facebook.com\/asda\/","contact:phone":"+44 1375 855454","contact:twitter":"@asda","contact:website":"https:\/\/storelocator.asda.com\/east-of-england\/tilbury\/thurrock-park-way","fhrs:id":"391135","internet_access":"wlan","internet_access:fee":"customers","opening_hours":"Mo-Sa 07:00-22:00; Su 10:00-16:00","operator":"Asda Stores Ltd","phone":"+44 1375 855454","website":"https:\/\/www.asda.com\/"}}, "geometry":{"type":"MultiPolygon","coordinates":[[[[0.34473,51.47003],[0.34482,51.4701],[0.34477,51.47012],[0.34542,51.47059],[0.3455,51.47055],[0.34548,51.47053],[0.34552,51.4705],[0.3455,51.47049],[0.34554,51.47046],[0.34549,51.47042],[0.34576,51.47027],[0.34596,51.47043],[0.34655,51.4701],[0.34583,51.46957],[0.34574,51.4695],[0.34551,51.46962],[0.34473,51.47003]]]]}},
{ "type":"Feature","properties":{"osm_way_id":"5019338","name":"Morrisons","building":"yes","shop":"supermarket","other":{"addr:city":"Grays","addr:housenumber":"1","addr:postcode":"RM17 5XZ","addr:street":"London Road","brand":"Morrisons","brand:wikidata":"Q922344","brand:wikipedia":"en:Morrisons","internet_access":"wlan","internet_access:fee":"no","internet_access:ssid":"Customer_Wi-Fi","opening_hours":"Mo-Sa 07:00-22:00; Su 10:00-16:00","operator":"Wm Morrison Supermarkets plc","payment:cash":"yes","payment:coins":"yes","payment:credit_cards":"yes","payment:debit_cards":"yes","payment:mastercard":"yes","payment:notes":"yes","payment:visa":"yes","phone":"+44 1375 397770","toilets:wheelchair":"yes","website":"https:\/\/www.morrisons.co.uk\/","wheelchair":"yes"}}, "geometry":{"type":"MultiPolygon","coordinates":[[[[0.32028,51.47791],[0.3203,51.47791],[0.32029,51.47795],[0.32037,51.47796],[0.32038,51.47793],[0.32135,51.47805],[0.32133,51.47811],[0.3216,51.47815],[0.32164,51.47804],[0.3217,51.47805],[0.32176,51.47783],[0.32178,51.47777],[0.32148,51.47773],[0.32155,51.47751],[0.32143,51.47749],[0.32147,51.47736],[0.32147,51.47736],[0.32147,51.47734],[0.32141,51.47734],[0.3214,51.47735],[0.32139,51.47735],[0.32138,51.47736],[0.32074,51.47728],[0.32075,51.47724],[0.32072,51.47723],[0.32073,51.47722],[0.32066,51.47721],[0.32065,51.47722],[0.32041,51.47719],[0.3204,51.47723],[0.32039,51.47723],[0.32036,51.47733],[0.32034,51.47738],[0.32044,51.47739],[0.32029,51.47786],[0.32026,51.47785],[0.32024,51.47791],[0.32028,51.47791]]]]}},
{ "type":"Feature","properties":{"osm_way_id":"23463906","name":"Tesco Extra","building":"retail","shop":"supermarket","other":{"addr:city":"West Thurrock","addr:postcode":"RM20 1TX","addr:street":"Cygnet View","branch":"Lakeside Extra","brand":"Tesco Extra","brand:wikidata":"Q25172225","brand:wikipedia":"en:Tesco Extra","building:levels":"2","fhrs:id":"390770","nohousenumber":"yes","opening_hours":"Mo-Sa 06:00-24:00; Su 10:00-16:00","operator":"Tesco Stores Ltd","roof:levels":"0","website":"https:\/\/www.tesco.com\/"}}, "geometry":{"type":"MultiPolygon","coordinates":[[[[0.27433,51.48906],[0.27432,51.48908],[0.2745,51.48913],[0.27453,51.48908],[0.27485,51.48916],[0.27484,51.48918],[0.27508,51.48924],[0.27507,51.48926],[0.27531,51.48933],[0.27533,51.4893],[0.27582,51.48942],[0.27582,51.48943],[0.27587,51.48944],[0.27586,51.48946],[0.27595,51.48948],[0.27597,51.48945],[0.27643,51.48957],[0.27644,51.48956],[0.27655,51.48959],[0.27666,51.48942],[0.2767,51.48935],[0.27658,51.48932],[0.27661,51.48929],[0.27682,51.48895],[0.27675,51.48894],[0.27548,51.48861],[0.27551,51.48857],[0.27512,51.48848],[0.2751,51.48852],[0.27452,51.48837],[0.27445,51.48848],[0.27417,51.48891],[0.27433,51.48906]]]]}},
{ "type":"Feature","properties":{"osm_way_id":"102552187","name":"Sainsbury's","building":"retail","shop":"supermarket","other":{"addr:city":"Chafford Hundred","addr:postcode":"RM16 6YJ","addr:street":"Howard Road","branch":"Chafford Hundred Superstore","brand":"Sainsbury's","brand:wikidata":"Q152096","brand:wikipedia":"en:Sainsbury's","contact:website":"https:\/\/stores.sainsburys.co.uk\/2071\/chafford-hundred","internet_access":"wlan","internet_access:fee":"customers","opening_hours":"Mo-Th, Sa 07:00-22:00; Fr 07:00-23:00; Su 10:00-16:00","phone":"+44 1375 480424","website":"https:\/\/www.sainsburys.co.uk\/","wheelchair":"yes"}}, "geometry":{"type":"MultiPolygon","coordinates":[[[[0.29389,51.49142],[0.2948,51.49154],[0.29475,51.49167],[0.29473,51.49176],[0.29457,51.49225],[0.29319,51.49208],[0.29325,51.4919],[0.29347,51.49192],[0.29353,51.49171],[0.29331,51.49169],[0.29336,51.49154],[0.29337,51.49149],[0.29385,51.49155],[0.29389,51.49142]]]]}},
{ "type":"Feature","properties":{"osm_way_id":"159639463","name":"Co-op Food","building":"yes","shop":"supermarket","other":{"addr:city":"Stanford-Le-Hope","addr:housenumber":"9-15","addr:postcode":"SS17 0HD","addr:street":"High Street","brand":"Co-op Food","brand:wikidata":"Q3277439","brand:wikipedia":"en:Co-op Food","opening_hours":"Mo-Sa 07:00-22:00; Su 07:30-22:00","opening_hours:covid19":"same","operator":"The Co-operative Group","operator:wikidata":"Q117202","operator:wikipedia":"en:The Co-operative Group","phone":"+44 1375 672733","website":"https:\/\/www.coop.co.uk\/"}}, "geometry":{"type":"MultiPolygon","coordinates":[[[[0.4268,51.51512],[0.42677,51.51529],[0.42667,51.51527],[0.42667,51.51522],[0.4267,51.51522],[0.4267,51.51516],[0.42665,51.51515],[0.42668,51.5151],[0.42652,51.51507],[0.42655,51.51504],[0.42671,51.51509],[0.4267,51.51511],[0.4268,51.51512]]]]}},
{ "type":"Feature","properties":{"osm_way_id":"246716791","name":"Aldi","building":"commercial","shop":"supermarket","other":{"brand":"ALDI","brand:wikidata":"Q41171672","brand:wikipedia":"en:Aldi"}}, "geometry":{"type":"MultiPolygon","coordinates":[[[[0.31634,51.47697],[0.31638,51.47672],[0.31704,51.47676],[0.31727,51.47678],[0.31723,51.47703],[0.31634,51.47697]]]]}},
{ "type":"Feature","properties":{"osm_way_id":"366124306","name":"Lidl","building":"yes","shop":"supermarket","other":{"addr:city":"South Ockendon","addr:country":"GB","addr:housenumber":"149-153","addr:postcode":"RM15 5AE","addr:street":"Daiglen Drive","branch":"South Ockenden","brand":"Lidl","brand:wikidata":"Q151954","brand:wikipedia":"en:Lidl","fhrs:id":"1154898","opening_hours":"Mo-Sa 08:00-22:00; Su 10:00-16:00"}}, "geometry":{"type":"MultiPolygon","coordinates":[[[[0.28312,51.51079],[0.28277,51.5108],[0.28275,51.51036],[0.28315,51.51035],[0.28315,51.51053],[0.2831,51.51053],[0.28312,51.51079]]]]}},
{ "type":"Feature","properties":{"osm_way_id":"398998107","name":"Co-op Food","building":"yes","shop":"supermarket","other":{"brand":"Co-op Food","brand:wikidata":"Q3277439","brand:wikipedia":"en:Co-op Food","operator":"The Co-operative Group","operator:wikidata":"Q117202","operator:wikipedia":"en:The Co-operative Group"}}, "geometry":{"type":"MultiPolygon","coordinates":[[[[0.33552,51.48419],[0.33574,51.4842],[0.33575,51.48409],[0.33563,51.48408],[0.33562,51.48414],[0.33553,51.48413],[0.33552,51.48419]]]]}},
{ "type":"Feature","properties":{"osm_way_id":"482104346","name":"The Co-operative Food","building":"yes","shop":"supermarket","other":{"addr:city":"Aveley","addr:housenumber":"41","addr:postcode":"RM15 4BB","addr:street":"High Street","opening_hours":"Mo-Sa 07:00-22:00; Su 10:00-16:00"}}, "geometry":{"type":"MultiPolygon","coordinates":[[[[0.25576,51.49913],[0.25609,51.49908],[0.25602,51.49888],[0.25568,51.49893],[0.25576,51.49913]]]]}},
{ "type":"Feature","properties":{"osm_way_id":"565104530","name":"Dhillons Express","building":"yes","shop":"supermarket"},"geometry":{"type":"MultiPolygon","coordinates":[[[[0.32241,51.4762],[0.3224,51.47616],[0.32261,51.47616],[0.32261,51.47619],[0.32241,51.4762]]]]}},
{ "type":"Feature","properties":{"osm_way_id":"579547565","name":"Morrisons","building":"yes","shop":"supermarket","other":{"brand":"Morrisons","brand:wikidata":"Q922344","brand:wikipedia":"en:Morrisons","designation":"WM Morrisons"}}, "geometry":{"type":"MultiPolygon","coordinates":[[[[0.446,51.52533],[0.44659,51.52557],[0.44694,51.52525],[0.44639,51.52502],[0.44618,51.52521],[0.44615,51.5252],[0.446,51.52533]]]]}},
{ "type":"Feature","properties":{"osm_way_id":"654322631","name":"Nisa","building":"yes","shop":"supermarket"},"geometry":{"type":"MultiPolygon","coordinates":[[[[0.28248,51.5097],[0.28249,51.5098],[0.2825,51.51],[0.28256,51.51],[0.28271,51.51],[0.2827,51.5097],[0.28248,51.5097]]]]}},
{ "type":"Feature","properties":{"osm_way_id":"655206422","name":"The Food Warehouse","shop":"supermarket","other":{"addr:city":"West Thurrock","addr:postcode":"RM20 3LP","addr:street":"Weston Avenue","brand":"The Food Warehouse","brand:wikidata":"Q87263899","building:part":"yes","opening_hours":"Mo-Sa 08:00-21:00; Su 10:30-16:30","operator":"Iceland","phone":"+44 1708 866581","website":"https:\/\/www.thefoodwarehouse.com\/"}}, "geometry":{"type":"MultiPolygon","coordinates":[[[[0.27174,51.48832],[0.27209,51.48834],[0.27217,51.48775],[0.27213,51.48775],[0.27181,51.48773],[0.27174,51.48832]]]]}},
{ "type":"Feature","properties":{"osm_way_id":"950209348","name":"Lidl","shop":"supermarket","other":{"addr:city":"West Thurrock","addr:postcode":"RM20 1WN","addr:street":"Lakeside Retail Park","brand":"Lidl","brand:wikidata":"Q151954","brand:wikipedia":"en:Lidl","building:part":"yes","opening_hours":"Mo-Sa 08:00-22:00; Su 10:00-16:00; PH 08:00-20:00","opening_hours:covid19":"same","website":"https:\/\/www.lidl.co.uk\/"}}, "geometry":{"type":"MultiPolygon","coordinates":[[[[0.27862,51.48524],[0.27949,51.48528],[0.27951,51.48501],[0.27953,51.48494],[0.27865,51.48492],[0.27862,51.48524]]]]}}
]
}
