{
"type": "FeatureCollection",
"features": [
{ "type":"Feature","properties":{"osm_id":"1739480154","name":"Sainsbury's Local","other":{"addr:city":"Carlisle","addr:housename":"Northgate","addr:housenumber":"54","addr:postcode":"CA3 9DB","addr:street":"Scotland Road","alt_name":"Sainsbury's Carlisle Stanwix Local","atm":"yes","brand":"Sainsbury's Local","brand:wikidata":"Q13218434","opening_hours":"Mo-Sa 07:00-23:00; Su 07:00-22:00","opening_hours:signed":"no","shop":"supermarket"}}, "geometry":{"type":"Point","coordinates":[-2.93694,54.90656 ]}},
{ "type":"Feature","properties":{"osm_id":"3404109841","name":"Spar","other":{"addr:city":"Carlisle","addr:housenumber":"12-16","addr:postcode":"CA2 7TH","addr:street":"Hutton Way","brand":"Spar","brand:wikidata":"Q610492","phone":"+44 1228 522964","shop":"supermarket"}}, "geometry":{"type":"Point","coordinates":[-2.97926,54.88827 ]}},
{ "type":"Feature","properties":{"osm_id":"3408865259","name":"Spar","other":{"addr:city":"Carlisle","addr:housenumber":"10-12","addr:postcode":"CA1 3AH","addr:street":"Petteril Bank Road","brand":"Spar","brand:wikidata":"Q610492","shop":"supermarket"}}, "geometry":{"type":"Point","coordinates":[-2.9089,54.87551 ]}},
{ "type":"Feature","properties":{"osm_id":"3596396396","name":"Tesco Metro","other":{"addr:city":"Carlisle","addr:postcode":"CA3 8AJ","addr:street":"Victoria Viaduct","brand":"Tesco Metro","brand:wikidata":"Q57551648","contact:website":"https:\/\/www.tesco.com\/store-locator\/carlisle\/victoria-viaduct","phone":"+44 345 677 9135","shop":"supermarket"}}, "geometry":{"type":"Point","coordinates":[-2.93549,54.89251 ]}},
{ "type":"Feature","properties":{"osm_id":"6822108735","name":"Co-op","other":{"addr:city":"Warwick Bridge","addr:postcode":"CA4 8SA","phone":"+44 1228 562863","shop":"supermarket","website":"https:\/\/finder.coop.co.uk\/food\/store\/CA4-8SA\/king-george-court","wheelchair":"yes"}}, "geometry":{"type":"Point","coordinates":[-2.81778,54.9037 ]}},
{ "type":"Feature","properties":{"osm_way_id":"167136100","name":"Morrisons","building":"supermarket","shop":"supermarket","other":{"addr:city":"Carlisle","addr:postcode":"CA3 0QZ","addr:street":"Kingstown Road","alt_name":"Morrsions Carlisle","brand":"Morrisons","brand:wikidata":"Q922344","brand:wikipedia":"en:Morrisons","opening_hours":"Mo-Sa 07:00-22:00; Su 10:00-16:00"}}, "geometry":{"type":"MultiPolygon","coordinates":[[[[-2.9381,54.91406],[-2.9381,54.91399],[-2.93799,54.91399],[-2.9377,54.91373],[-2.93772,54.91343],[-2.93813,54.91343],[-2.93815,54.91328],[-2.93914,54.91328],[-2.93921,54.91332],[-2.93921,54.91401],[-2.9391,54.91409],[-2.93887,54.9141],[-2.93887,54.91407],[-2.9381,54.91406]]]]}},
{ "type":"Feature","properties":{"osm_way_id":"167136102","name":"ALDI","building":"yes","shop":"supermarket","other":{"addr:city":"Carlisle","addr:postcode":"CA3 0AJ","addr:street":"Kingstown Road","alt_name":"ALDI Carlisle","brand":"ALDI","brand:wikidata":"Q41171672","brand:wikipedia":"en:Aldi","opening_hours":"Mo-Sa 08:00-22:00; Su 10:00-16:00"}}, "geometry":{"type":"MultiPolygon","coordinates":[[[[-2.9428,54.91432],[-2.94274,54.91421],[-2.94191,54.91433],[-2.94204,54.91463],[-2.94228,54.91459],[-2.94226,54.91455],[-2.94273,54.91448],[-2.94267,54.91434],[-2.9428,54.91432]]]]}},
{ "type":"Feature","properties":{"osm_way_id":"167136105","name":"Asda","building":"yes","shop":"supermarket","other":{"addr:city":"Carlisle","addr:country":"GB","addr:postcode":"CA3 0JQ","addr:street":"Chandler Way","alt_name":"ASDA Carlisle Superstore","brand":"Asda","brand:wikidata":"Q297410","brand:wikipedia":"en:Asda","contact:website":"https:\/\/storelocator.asda.com\/north-west\/carlisle\/chandler-way","fhrs:id":"301476","opening_hours":"Mo 07:00-24:00; Tu-Th 00:00-24:00; Sa 00:00-22:00; Su 10:00-16:00","operator":"Asda Stores Ltd"}}, "geometry":{"type":"MultiPolygon","coordinates":[[[[-2.95477,54.92885],[-2.95459,54.92864],[-2.95454,54.92865],[-2.9545,54.92863],[-2.95449,54.9286],[-2.95455,54.92858],[-2.95409,54.92804],[-2.95468,54.92787],[-2.95462,54.92779],[-2.95553,54.92754],[-2.95624,54.92839],[-2.9554,54.92862],[-2.95544,54.92867],[-2.95477,54.92885]]]]}},
{ "type":"Feature","properties":{"osm_way_id":"176764530","name":"Tesco","building":"retail","shop":"supermarket","other":{"addr:city":"Carlisle","addr:postcode":"CA1 2SB","addr:street":"Warwick Road","branch":"Carlisle Warwick Road Superstore","brand":"Tesco","brand:wikidata":"Q487494","brand:wikipedia":"en:Tesco","building:levels":"1","opening_hours":"Mo 06:00-24:00; Tu-Sa 00:00-24:00; Su 10:00-16:00"}}, "geometry":{"type":"MultiPolygon","coordinates":[[[[-2.89411,54.89752],[-2.89397,54.89758],[-2.89415,54.89771],[-2.89396,54.89779],[-2.89379,54.89766],[-2.89348,54.8978],[-2.89268,54.89718],[-2.89275,54.89715],[-2.89265,54.89707],[-2.89265,54.897],[-2.89359,54.89657],[-2.89368,54.89666],[-2.89376,54.89663],[-2.89431,54.89707],[-2.89422,54.89711],[-2.89427,54.89716],[-2.89412,54.89722],[-2.89408,54.89722],[-2.89351,54.89748],[-2.89365,54.89758],[-2.89399,54.89744],[-2.89411,54.89752]]]]}},
{ "type":"Feature","properties":{"osm_way_id":"176765776","name":"The Co-operative Food","building":"yes","shop":"supermarket","other":{"addr:city":"Brampton","addr:housenumber":"1-7","addr:postcode":"CA8 1RS","addr:street":"Main Street","alt_name":"Co-op","atm":"yes","branch":"Brampton","opening_hours":"Mo-Su 07:00-22:00","website":"http:\/\/www.co-operative.co.uk\/"}}, "geometry":{"type":"MultiPolygon","coordinates":[[[[-2.73346,54.94305],[-2.7335,54.94291],[-2.73308,54.94287],[-2.73304,54.94302],[-2.73346,54.94305]]]]}},
{ "type":"Feature","properties":{"osm_way_id":"180750632","name":"M&S Foodhall","building":"yes","shop":"supermarket","other":{"brand":"M&S Foodhall","brand:wikidata":"Q714491","brand:wikipedia":"en:Marks & Spencer","website":"https:\/\/www.marksandspencer.com\/stores\/carlisle-0974"}}, "geometry":{"type":"MultiPolygon","coordinates":[[[[-2.93667,54.89301],[-2.93648,54.89296],[-2.93643,54.89302],[-2.93648,54.89303],[-2.93615,54.89322],[-2.93635,54.89333],[-2.93656,54.89345],[-2.93662,54.89348],[-2.9367,54.89343],[-2.93674,54.89338],[-2.93675,54.89337],[-2.93683,54.89338],[-2.93683,54.89337],[-2.93691,54.89324],[-2.93696,54.89318],[-2.93679,54.89313],[-2.93677,54.89312],[-2.93662,54.89308],[-2.93664,54.89304],[-2.93667,54.89301]]]]}},
{ "type":"Feature","properties":{"osm_way_id":"184987797","name":"M&S Foodhall","building":"yes","shop":"supermarket","other":{"brand":"M&S Foodhall","brand:wikidata":"Q714491","brand:wikipedia":"en:Marks & Spencer"}}, "geometry":{"type":"MultiPolygon","coordinates":[[[[-2.94758,54.92754],[-2.94753,54.92715],[-2.94714,54.92717],[-2.94719,54.92746],[-2.9472,54.92756],[-2.94758,54.92754]]]]}},
{ "type":"Feature","properties":{"osm_way_id":"189814602","name":"Lidl","building":"retail","shop":"supermarket","other":{"addr:city":"Carlisle","addr:postcode":"CA2 5BT","addr:street":"Charlotte Street","alt_name":"LIDL Carlisle","brand":"Lidl","brand:wikidata":"Q151954","brand:wikipedia":"en:Lidl","opening_hours":"Mo-Sa 08:00-21:00; Su 10:00-16:00","website":"https:\/\/www.lidl.co.uk\/"}}, "geometry":{"type":"MultiPolygon","coordinates":[[[[-2.93853,54.89071],[-2.93803,54.89019],[-2.93769,54.8903],[-2.93819,54.89082],[-2.93853,54.89071]]]]}},
{ "type":"Feature","properties":{"osm_way_id":"189815065","name":"ALDI","building":"yes","shop":"supermarket","other":{"addr:city":"Carlisle","addr:postcode":"CA1 3AG","addr:street":"Petteril Bank Road","alt_name":"ALDI Carlisle","brand":"ALDI","brand:wikidata":"Q41171672","brand:wikipedia":"en:Aldi","fhrs:id":"301776","source:addr":"FHRS Open Data"}}, "geometry":{"type":"MultiPolygon","coordinates":[[[[-2.90811,54.87681],[-2.90799,54.87673],[-2.9079,54.87677],[-2.90773,54.87666],[-2.90703,54.877],[-2.90732,54.87719],[-2.90811,54.87681]]]]}},
{ "type":"Feature","properties":{"osm_way_id":"211647382","name":"Co-op Food","building":"yes","shop":"supermarket","other":{"addr:city":"Carlisle","addr:postcode":"CA2 5EN","addr:street":"Denton Street","brand":"Co-op Food","brand:wikidata":"Q3277439","brand:wikipedia":"en:Co-op Food","old_name":"Carlisle South-End Co-operative Society","opening_hours":"Mo-Su 07:00-22:00"}}, "geometry":{"type":"MultiPolygon","coordinates":[[[[-2.94049,54.88709],[-2.9403,54.88706],[-2.94039,54.88691],[-2.94057,54.88694],[-2.94049,54.88709]]]]}},
{ "type":"Feature","properties":{"osm_way_id":"218950589","name":"Spar","building":"yes","shop":"supermarket","other":{"addr:postcode":"CA6 5SA","addr:street":"Netherby Street","brand":"Spar","brand:wikidata":"Q610492","brand:wikipedia":"en:SPAR (retailer)"}}, "geometry":{"type":"MultiPolygon","coordinates":[[[[-2.97227,55.00935],[-2.97222,55.00929],[-2.9718,55.00941],[-2.97186,55.00948],[-2.97227,55.00935]]]]}},
{ "type":"Feature","properties":{"osm_way_id":"222544435","name":"Co-op","building":"yes","shop":"supermarket","other":{"addr:postcode":"CA1 3QB","addr:street":"Central Avenue"}}, "geometry":{"type":"MultiPolygon","coordinates":[[[[-2.90129,54.88166],[-2.90111,54.88158],[-2.9009,54.88175],[-2.90101,54.8818],[-2.90115,54.88169],[-2.90122,54.88172],[-2.90129,54.88166]]]]}},
{ "type":"Feature","properties":{"osm_way_id":"256638084","name":"Sainsbury's","building":"yes","shop":"supermarket","other":{"addr:city":"Carlisle","addr:postcode":"CA2 5TF","addr:street":"Church Street","alt_name":"Sainsbury's Carlisle Superstore","brand":"Sainsbury's","brand:wikidata":"Q152096","opening_hours":"Mo-Sa 07:00-23:00; Su 10:30-16:30"}}, "geometry":{"type":"MultiPolygon","coordinates":[[[[-2.94872,54.89647],[-2.94799,54.89584],[-2.9472,54.89614],[-2.94724,54.89618],[-2.94674,54.89638],[-2.94746,54.89699],[-2.9482,54.8967],[-2.94832,54.8968],[-2.94852,54.89672],[-2.94838,54.8966],[-2.94872,54.89647]]]]}},
{ "type":"Feature","properties":{"osm_way_id":"313840636","name":"Asda","building":"yes","shop":"supermarket","other":{"addr:city":"Carlisle","addr:country":"GB","addr:housename":"St Nicholas Gate Retail Park","addr:postcode":"CA1 2EA","addr:street":"London Road","addr:unit":"5","alt_name":"ASDA Carlisle - St Nicholas Gate Supermarket","brand":"Asda","brand:wikidata":"Q297410","brand:wikipedia":"en:Asda","contact:website":"https:\/\/storelocator.asda.com\/north-west\/carlisle\/st-nicholas-gate-retail-park","fhrs:id":"301208","operator":"Asda Stores Ltd"}}, "geometry":{"type":"MultiPolygon","coordinates":[[[[-2.92498,54.88718],[-2.92466,54.88702],[-2.92462,54.88701],[-2.92431,54.88686],[-2.92432,54.88684],[-2.92424,54.88681],[-2.92461,54.88655],[-2.9247,54.88659],[-2.925,54.88638],[-2.92533,54.88654],[-2.9252,54.88663],[-2.92545,54.88675],[-2.92528,54.88687],[-2.92536,54.88691],[-2.92524,54.887],[-2.92498,54.88718]]]]}},
{ "type":"Feature","properties":{"osm_way_id":"317938143","name":"Co-op Food","building":"retail","shop":"supermarket","other":{"addr:city":"Dalston","addr:postcode":"CA5 7PJ","brand":"Co-op Food","brand:wikidata":"Q3277439","brand:wikipedia":"en:Co-op Food","fhrs:id":"301551"}}, "geometry":{"type":"MultiPolygon","coordinates":[[[[-2.98445,54.84093],[-2.98462,54.841],[-2.98474,54.8409],[-2.98466,54.84086],[-2.98465,54.84075],[-2.98486,54.84075],[-2.98487,54.84066],[-2.98454,54.84065],[-2.98454,54.84072],[-2.98445,54.84072],[-2.98445,54.84093]]]]}},
{ "type":"Feature","properties":{"osm_way_id":"333234099","name":"Bookers Cash & Carry","building":"yes","shop":"supermarket","other":{"addr:city":"Carlisle","addr:postcode":"CA2 7NA","addr:street":"Burgh Road","phone":"+44 1228 520171","website":"https:\/\/www.booker.co.uk\/"}}, "geometry":{"type":"MultiPolygon","coordinates":[[[[-2.97565,54.89904],[-2.97605,54.89866],[-2.97532,54.8984],[-2.97501,54.8987],[-2.97525,54.89878],[-2.97516,54.89887],[-2.97565,54.89904]]]]}},
{ "type":"Feature","properties":{"osm_way_id":"341216564","name":"SPAR","building":"yes","shop":"supermarket","other":{"addr:city":"Carlisle","addr:housenumber":"36","addr:postcode":"CA2 4NF","addr:street":"Lamb Street","brand":"Spar","brand:wikidata":"Q610492","fhrs:id":"301608","phone":"+44 1228 515523"}}, "geometry":{"type":"MultiPolygon","coordinates":[[[[-2.92185,54.87169],[-2.92199,54.87186],[-2.92213,54.87182],[-2.92199,54.87165],[-2.92185,54.87169]]]]}},
{ "type":"Feature","properties":{"osm_way_id":"453784148","name":"Aldi","building":"retail","shop":"supermarket","other":{"addr:city":"Carlisle","addr:postcode":"CA2 5NP","addr:street":"Dalston Road","brand":"ALDI","brand:wikidata":"Q41171672","brand:wikipedia":"en:Aldi","opening_hours":"Mo-Sa 08:00-22:00; Su 10:00-16:00"}}, "geometry":{"type":"MultiPolygon","coordinates":[[[[-2.94812,54.8905],[-2.94822,54.8903],[-2.94832,54.89031],[-2.94835,54.89024],[-2.94752,54.8901],[-2.94747,54.89016],[-2.94744,54.89016],[-2.94732,54.89038],[-2.94764,54.89044],[-2.94765,54.89042],[-2.94812,54.8905]]]]}},
{ "type":"Feature","properties":{"osm_way_id":"824948806","name":"Waitrose Kensington","shop":"supermarket","other":{"addr:housenumber":"243","addr:street":"Kensington High Street","brand":"Waitrose","brand:wikidata":"Q771734","brand:wikipedia":"en:Waitrose & Partners","official_name":"Waitrose & Partners","website":"https:\/\/www.waitrose.com\/content\/waitrose\/en\/bf_home\/bf\/678.html"}}, "geometry":{"type":"MultiPolygon","coordinates":[[[[-0.19818,51.49908],[-0.19809,51.49912],[-0.19797,51.49897],[-0.19784,51.49884],[-0.19768,51.49854],[-0.19815,51.49846],[-0.19826,51.49868],[-0.19794,51.49874],[-0.19798,51.49883],[-0.19818,51.49908]]]]}},
{ "type":"Feature","properties":{"osm_way_id":"1033240731","name":"Pioneer Foodstore","building":"retail","shop":"supermarket","other":{"addr:city":"Carlisle","addr:postcode":"CA1 2RW","website":"http:\/\/pioneerfoodstore.co.uk"}}, "geometry":{"type":"MultiPolygon","coordinates":[[[[-2.89542,54.89388],[-2.89496,54.89395],[-2.89471,54.89376],[-2.8953,54.89366],[-2.89542,54.89388]]]]}}
]
}
