{
"type": "FeatureCollection",
"features": [
{ "type":"Feature","properties":{"osm_id":"7680061278","name":"M&S Foodhall","other":{"brand":"M&S Foodhall","brand:wikidata":"Q714491","brand:wikipedia":"en:Marks & Spencer","shop":"supermarket","website":"https:\/\/www.marksandspencer.com\/stores\/wrexham-eagles-meadow-0196"}}, "geometry":{"type":"Point","coordinates":[-2.98714,53.04436 ]}},
{ "type":"Feature","properties":{"osm_id":"8430383695","name":"Ramen Superstore","other":{"description":"Ramen is the name of the superstore, it isn't specialised in Ramen noodles. Formerly Madine superstore.","name:cy":"Archfarchnad Ramen","name:en":"Ramen Superstore","shop":"supermarket"}}, "geometry":{"type":"Point","coordinates":[-2.99707,53.04776 ]}},
{ "type":"Feature","properties":{"osm_way_id":"32228085","name":"Asda","building":"yes","shop":"supermarket","other":{"addr:city":"Wrexham","addr:country":"GB","addr:postcode":"LL13 8HL","addr:street":"Holt Road","branch":"Wrexham Superstore","brand":"Asda","brand:wikidata":"Q297410","brand:wikipedia":"en:Asda","contact:facebook":"https:\/\/www.facebook.com\/asda\/","contact:phone":"+44 1978 367200","contact:twitter":"@asda","contact:website":"https:\/\/storelocator.asda.com\/wales\/wrexham\/holt-road","fhrs:id":"1040173","name:cy":"Archfarchnad Asda Wrecsam","name:en":"Asda Wrexham Superstore","opening_hours":"Mo 08:00-24:00; Tu-Th 00:00-24:00; Sa 00:00-22:00; Su 10:00-16:00","operator":"Asda Stores Ltd","toilets:wheelchair":"yes","wheelchair":"yes"}}, "geometry":{"type":"Polygon","coordinates":[[[ -2.98615,53.05043],[-2.98603,53.05036],[-2.98585,53.05047],[-2.98526,53.05013],[-2.98522,53.05016],[-2.98506,53.05007],[-2.98524,53.04995],[-2.98526,53.04994],[-2.98515,53.04988],[-2.98598,53.0494],[-2.98617,53.04951],[-2.98629,53.04943],[-2.98646,53.04954],[-2.98634,53.04961],[-2.98693,53.04995],[-2.98615,53.05043]] ]}},
{ "type":"Feature","properties":{"osm_way_id":"38913648","name":"Tesco Extra","building":"yes","shop":"supermarket","other":{"addr:city":"Wrexham","addr:postcode":"LL13 8HF","addr:street":"Crescent Road","branch":"Wrexham Extra","brand":"Tesco Extra","brand:wikidata":"Q25172225","brand:wikipedia":"en:Tesco Extra","name:cy":"Archfarchnad Tesco Extra","name:en":"Tesco Extra","opening_hours":"Mo-Sa 00:00-24:00; Su 10:00-16:00","wheelchair":"yes"}}, "geometry":{"type":"Polygon","coordinates":[[[ -2.98846,53.04613],[-2.98706,53.04666],[-2.98685,53.04646],[-2.98677,53.04649],[-2.98673,53.04644],[-2.9865,53.04653],[-2.98642,53.04645],[-2.9864,53.04643],[-2.98629,53.04633],[-2.98658,53.04623],[-2.98648,53.04612],[-2.98766,53.04568],[-2.9877,53.04572],[-2.98793,53.04563],[-2.98839,53.04606],[-2.98846,53.04613]] ]}},
{ "type":"Feature","properties":{"osm_way_id":"63619442","name":"ALDI","building":"yes","shop":"supermarket","other":{"addr:city":"Wrexham","addr:postcode":"LL11 2BA","addr:street":"Plas Coch Retail Park","brand":"ALDI","brand:wikidata":"Q41171672","brand:wikipedia":"en:Aldi","contact:website":"https:\/\/www.aldi.co.uk\/store\/s-uk-E0158","name:cy":"Aldi - Plas Coch","opening_hours":"Mo-Sa 09:00-22:00; Su 10:00-16:00"}}, "geometry":{"type":"Polygon","coordinates":[[[ -3.00729,53.056],[-3.0072,53.05624],[-3.00697,53.05621],[-3.00631,53.05612],[-3.00636,53.056],[-3.00628,53.05599],[-3.00633,53.05587],[-3.00729,53.056]] ]}},
{ "type":"Feature","properties":{"osm_way_id":"63619445","name":"Sainsbury's","building":"yes","shop":"supermarket","other":{"addr:city":"Wrexham","addr:postcode":"LL11 2BA","addr:street":"Plas Coch Retail Park","brand":"Sainsbury's","brand:wikidata":"Q152096","brand:wikipedia":"en:Sainsbury's","contact:website":"https:\/\/stores.sainsburys.co.uk\/0890\/wrexham","name:cy":"Sainsbury's","operator":"J Sainsbury plc","phone":"+44 1978 262853","wheelchair":"yes"}}, "geometry":{"type":"Polygon","coordinates":[[[ -3.009,53.05701],[-3.009,53.05703],[-3.00907,53.05704],[-3.00878,53.05779],[-3.00867,53.05778],[-3.00776,53.05765],[-3.00776,53.05764],[-3.00768,53.05762],[-3.00774,53.05747],[-3.00785,53.05749],[-3.00787,53.05744],[-3.00738,53.05737],[-3.00742,53.05728],[-3.00754,53.05697],[-3.00762,53.05675],[-3.00784,53.05678],[-3.00784,53.05677],[-3.00802,53.05679],[-3.00802,53.0568],[-3.00811,53.05682],[-3.00812,53.05681],[-3.00836,53.05684],[-3.00836,53.05685],[-3.00878,53.05691],[-3.00875,53.05699],[-3.00883,53.057],[-3.00884,53.05698],[-3.009,53.05701]] ]}},
{ "type":"Feature","properties":{"osm_way_id":"110025201","name":"Co-op","building":"yes","shop":"supermarket","other":{"brand":"Co-op","alt_name":"Johnstown's Co-op","old_name":"The Co-operative Food","addr:street":"Ruabon Road"}}, "geometry":{"type":"Polygon","coordinates":[[[ -3.04437,53.00455],[-3.04392,53.0046],[-3.04394,53.00467],[-3.04375,53.00469],[-3.04367,53.00447],[-3.04376,53.00446],[-3.04369,53.00426],[-3.04391,53.00423],[-3.04393,53.00428],[-3.04425,53.00423],[-3.04437,53.00455]] ]}},
{ "type":"Feature","properties":{"osm_way_id":"110035265","name":"Co-op Food","building":"yes","shop":"supermarket","other":{"addr:postcode":"LL14 3YD","addr:street":"Well Street","brand":"Co-op Food","brand:wikidata":"Q3277439","brand:wikipedia":"en:Co-op Food"}}, "geometry":{"type":"Polygon","coordinates":[[[ -3.06998,52.97401],[-3.07024,52.97413],[-3.06985,52.97444],[-3.06959,52.97433],[-3.06998,52.97401]] ]}},
{ "type":"Feature","properties":{"osm_way_id":"131655163","name":"The Food Warehouse","building":"yes","shop":"supermarket","other":{"addr:city":"Wrexham","addr:postcode":"LL13 7LW","addr:street":"Island Green Retail Park","brand":"The Food Warehouse","brand:wikidata":"Q87263899","name:cy":"Iceland - The Food Warehouse","name:en":"Iceland - The Food Warehouse","opening_hours":"Mo-Sa 08:00-20:00; Su 10:00-16:00","phone":"+44 1978 501361"}}, "geometry":{"type":"Polygon","coordinates":[[[ -2.9964,53.0455],[-2.99574,53.04533],[-2.99583,53.04521],[-2.99585,53.04517],[-2.99623,53.04527],[-2.99663,53.04537],[-2.99652,53.04553],[-2.9965,53.04553],[-2.9964,53.0455]] ]}},
{ "type":"Feature","properties":{"osm_way_id":"225778690","name":"Spar","building":"yes","shop":"supermarket","other":{"addr:housenumber":"16","addr:postcode":"LL14 5HA","addr:street":"Church Street","brand":"Spar","brand:wikidata":"Q610492","brand:wikipedia":"en:SPAR (retailer)"}}, "geometry":{"type":"Polygon","coordinates":[[[ -3.05677,52.93203],[-3.05663,52.9318],[-3.05686,52.93175],[-3.05692,52.93185],[-3.05699,52.93183],[-3.05707,52.93196],[-3.05677,52.93203]] ]}},
{ "type":"Feature","properties":{"osm_way_id":"225778691","name":"Co-op","building":"yes","shop":"supermarket","other":{"addr:street":"Holyhead Road","addr:postcode":"LL14 5NA"}}, "geometry":{"type":"Polygon","coordinates":[[[ -3.05865,52.94043],[-3.05836,52.94048],[-3.0583,52.94034],[-3.05835,52.94034],[-3.05834,52.94031],[-3.05858,52.94027],[-3.05865,52.94043]] ]}},
{ "type":"Feature","properties":{"osm_way_id":"313590982","name":"Lidl","building":"yes","shop":"supermarket","other":{"addr:city":"Wrexham","addr:country":"GB","addr:housenumber":"50,52","addr:postcode":"LL13 7AF","addr:street":"Salop Road","branch":"Wrexham","brand":"Lidl","brand:wikidata":"Q151954","brand:wikipedia":"en:Lidl","fhrs:id":"966011","opening_hours":"Mo-Sa 08:00-22:00; Su 10:00-16:00"}}, "geometry":{"type":"Polygon","coordinates":[[[ -2.9915,53.04187],[-2.99143,53.04187],[-2.99103,53.04188],[-2.99102,53.04188],[-2.99098,53.04154],[-2.99104,53.04154],[-2.99102,53.04129],[-2.99127,53.04128],[-2.99127,53.04125],[-2.99127,53.04122],[-2.99143,53.04122],[-2.9915,53.04187]] ]}},
{ "type":"Feature","properties":{"osm_way_id":"338154498","name":"Morrisons","building":"yes","shop":"supermarket","other":{"addr:city":"Wrexham","addr:postcode":"LL13 7TU","addr:street":"Ruthin Road","branch":"Wrexham","brand":"Morrisons","brand:wikidata":"Q922344","brand:wikipedia":"en:Morrisons","name:cy":"Archfarchnad Morrisons","name:en":"Morrisons","opening_hours":"Mo-Sa 07:00-22:00; Su 10:00-16:00","phone":"+44 1978 364181","website":"https:\/\/my.morrisons.com\/storefinder\/417"}}, "geometry":{"type":"Polygon","coordinates":[[[ -3.00542,53.04394],[-3.00661,53.04397],[-3.00662,53.04394],[-3.00663,53.04392],[-3.00703,53.04393],[-3.00701,53.04416],[-3.00701,53.04419],[-3.00691,53.04419],[-3.00688,53.04461],[-3.00575,53.04457],[-3.00577,53.04432],[-3.0057,53.04432],[-3.0057,53.04427],[-3.00563,53.04427],[-3.00563,53.0442],[-3.00541,53.04419],[-3.00541,53.04415],[-3.00542,53.04394]] ]}},
{ "type":"Feature","properties":{"osm_way_id":"400797511","name":"Spar","building":"yes","shop":"supermarket","other":{"addr:city":"wrexham","addr:housenumber":"59","addr:postcode":"LL11 2NW","addr:street":"Rhosddu Road","brand":"Spar","brand:wikidata":"Q610492","brand:wikipedia":"en:SPAR (retailer)","opening_hours":"24\/7","phone":"+49 1978 364117"}}, "geometry":{"type":"Polygon","coordinates":[[[ -2.99737,53.05264],[-2.99714,53.05276],[-2.99691,53.0526],[-2.99715,53.05248],[-2.99737,53.05264]] ]}},
{ "type":"Feature","properties":{"osm_way_id":"400833058","name":"Tesco","building":"retail","shop":"supermarket","other":{"addr:city":"Cefn Mawr","addr:postcode":"LL14 3AT","addr:street":"Plas Kynaston Lane","alt_name":"Tesco Cefn Mawr Superstore","brand":"Tesco","brand:wikidata":"Q487494","brand:wikipedia":"en:Tesco"}}, "geometry":{"type":"Polygon","coordinates":[[[ -3.07097,52.97298],[-3.07096,52.97299],[-3.07096,52.973],[-3.07071,52.97339],[-3.07039,52.97357],[-3.07007,52.97349],[-3.07004,52.97353],[-3.06997,52.97351],[-3.07004,52.9734],[-3.06986,52.97337],[-3.06991,52.9732],[-3.06987,52.97319],[-3.0701,52.97283],[-3.07013,52.97278],[-3.07047,52.97286],[-3.07097,52.97298]] ]}},
{ "type":"Feature","properties":{"osm_way_id":"411451769","name":"Lidl","building":"yes","shop":"supermarket","other":{"addr:country":"GB","addr:postcode":"LL11 4AP","addr:street":"Hope Street","brand":"Lidl","brand:wikidata":"Q151954","brand:wikipedia":"en:Lidl","fhrs:id":"1039742"}}, "geometry":{"type":"Polygon","coordinates":[[[ -3.01919,53.07347],[-3.01882,53.07359],[-3.0187,53.07345],[-3.01862,53.07348],[-3.01855,53.0734],[-3.01862,53.07337],[-3.01844,53.07318],[-3.01876,53.07307],[-3.01873,53.07303],[-3.01885,53.07299],[-3.01896,53.07313],[-3.01916,53.07335],[-3.0191,53.07337],[-3.01919,53.07347]] ]}},
{ "type":"Feature","properties":{"osm_way_id":"460426360","building":"yes","shop":"supermarket"},"geometry":{"type":"Polygon","coordinates":[[[ -2.99714,53.09125],[-2.99692,53.09128],[-2.99685,53.09109],[-2.99707,53.09106],[-2.99714,53.09125]] ]}},
{ "type":"Feature","properties":{"osm_way_id":"734826053","name":"Co-op","building":"yes","shop":"supermarket","other":{"fhrs:id":"910526","addr:street":"Marford Hill","addr:postcode":"LL12 8SL","source:postcode":"FHRS Open Data"}}, "geometry":{"type":"Polygon","coordinates":[[[ -2.95858,53.09073],[-2.9583,53.09082],[-2.95815,53.09065],[-2.95843,53.09056],[-2.95858,53.09073]] ]}},
{ "type":"Feature","properties":{"osm_way_id":"779101229","name":"Aldi","building":"yes","shop":"supermarket","other":{"alt_name:en":"ALDI","brand":"ALDI","brand:wikidata":"Q41171672","brand:wikipedia":"en:Aldi","name:cy":"Aldi","name:en":"Aldi"}}, "geometry":{"type":"Polygon","coordinates":[[[ -3.00958,53.04443],[-3.00955,53.04443],[-3.0094,53.04442],[-3.0094,53.04437],[-3.00922,53.04437],[-3.00913,53.04436],[-3.00909,53.04436],[-3.00912,53.0441],[-3.00911,53.0441],[-3.00909,53.0441],[-3.00912,53.04384],[-3.00949,53.04386],[-3.0095,53.04384],[-3.0095,53.04384],[-3.00955,53.04384],[-3.00957,53.04384],[-3.00965,53.04384],[-3.00959,53.04435],[-3.00958,53.04443]] ]}},
{ "type":"Feature","properties":{"osm_way_id":"900168127","name":"Lidl","building":"yes","shop":"supermarket","other":{"addr:city":"Wrexham","addr:postcode":"LL12 7BW","addr:street":"Powell Road","alt_name":"Lidl Bodhyfryd","brand":"Lidl","brand:wikidata":"Q151954","brand:wikipedia":"en:Lidl","name:cy":"Lidl","name:en":"Lidl","opening_hours":"Mo-Sa 08:00-22:00; Su 10:00-16:00","operator":"Lidl GB","phone":"+44 8009777766","start_date":"2021-07-29"}}, "geometry":{"type":"Polygon","coordinates":[[[ -2.98962,53.04905],[-2.99057,53.04931],[-2.99052,53.04937],[-2.99046,53.04935],[-2.99034,53.04952],[-2.98945,53.04929],[-2.98962,53.04905]] ]}},
{ "type":"Feature","properties":{"osm_way_id":"902670416","name":"Heron Foods","building":"yes","shop":"supermarket","other":{"addr:city":"Wrexham","addr:country":"GB","addr:place":"Island Green Retail Park","addr:postcode":"LL13 7LW","addr:unit":"8B","brand":"Heron Foods","brand:wikidata":"Q5743472","brand:wikipedia":"en:Heron Foods","contact:website":"https:\/\/heronfoods.com\/storelocator\/store-details\/wrexham","fhrs:id":"936133","name:cy":"Heron Foods","name:en":"Heron Foods","opening_hours":"Su 09:00-17:00; Mo-Sa 08:00-18:00"}}, "geometry":{"type":"Polygon","coordinates":[[[ -2.99716,53.04589],[-2.997,53.04611],[-2.9968,53.04606],[-2.99696,53.04583],[-2.99716,53.04589]] ]}},
{ "type":"Feature","properties":{"osm_way_id":"907914625","name":"Wrexham Mini Market - European and International","building":"yes","shop":"supermarket","other":{"name:cy":"Wrecsam Mini Market - Ewropeaidd a Rhyngwladol","name:en":"Wrexham Mini Market - European and International"}}, "geometry":{"type":"Polygon","coordinates":[[[ -2.99563,53.04362],[-2.99552,53.04359],[-2.99564,53.04344],[-2.99583,53.0435],[-2.99579,53.04356],[-2.99569,53.04353],[-2.99563,53.04362]] ]}},
{ "type":"Feature","properties":{"osm_way_id":"912198046","name":"Casper Stores - Polish Supermarket","building":"yes","shop":"supermarket","other":{"addr:city":"Wrexham","addr:postcode":"LL13 8BY","addr:street":"Market Street","name:cy":"Archfarchnad Pwylaidd Casper Stores","name:en":"Casper Stores - Polish Supermarket","opening_hours":"Mo-Sa 08:30-20:30; Su 10:00-19:00","operator":"Casper Stores Ltd Polish Food Specialist","phone":"+44 1978313470"}}, "geometry":{"type":"Polygon","coordinates":[[[ -2.99034,53.04647],[-2.99059,53.0464],[-2.99062,53.04643],[-2.99065,53.04647],[-2.99044,53.04653],[-2.9904,53.04654],[-2.99034,53.04647]] ]}},
{ "type":"Feature","properties":{"osm_way_id":"925264719","name":"Aldi","building":"yes","shop":"supermarket","other":{"addr:street":"Cil Y Coed","brand":"ALDI","brand:wikidata":"Q41171672","brand:wikipedia":"en:Aldi"}}, "geometry":{"type":"Polygon","coordinates":[[[ -3.04714,52.98363],[-3.04701,52.98363],[-3.04701,52.98361],[-3.04662,52.98361],[-3.04662,52.9831],[-3.04696,52.9831],[-3.04696,52.98305],[-3.04714,52.98305],[-3.04714,52.98363]] ]}}
]
}
