{
"type": "FeatureCollection",
"features": [
{ "type":"Feature","properties":{"osm_id":"2263255427","name":"East of England Co-op Supermarket","other":{"addr:housename":"Co-op Supermarket","addr:postcode":"IP14 2DA","addr:street":"Combs Lane","brand":"Co-op Food","brand:wikidata":"Q3277439","brand:wikipedia":"en:Co-op Food","fhrs:id":"527763","operator":"East of England Cooperative Society","shop":"supermarket","website":"https:\/\/www.eastofengland.coop\/supermarket\/combs-ford-stowmarket"}}, "geometry":{"type":"Point","coordinates":[0.99689,52.18017 ]}},
{ "type":"Feature","properties":{"osm_id":"3102861788","other":{"emergency":"defibrillator"}}, "geometry":{"type":"Point","coordinates":[1.18049,52.22546 ]}},
{ "type":"Feature","properties":{"osm_id":"4347702775","name":"Co-op Daily","other":{"addr:city":"Ipswich","addr:housenumber":"15","addr:postcode":"IP6 8AE","addr:street":"King William Street","addr:town":"Needham Market","fhrs:id":"1404549","opening_hours":"Mo-Sa 08:00-20:00; Su 09:00-18:00","operator":"East of England Coperative","shop":"supermarket"}}, "geometry":{"type":"Point","coordinates":[1.05072,52.15571 ]}},
{ "type":"Feature","properties":{"osm_id":"5706169224","other":{"emergency":"defibrillator","indoor":"no","location":"On exterior Wall of Co-Op facing New Road just to the right of the main entrance."}}, "geometry":{"type":"Point","coordinates":[0.91292,52.23676 ]}},
{ "type":"Feature","properties":{"osm_id":"6350253950","name":"COOP","other":{"addr:postcode":"IP31 3QU","addr:street":"Station Hill","addr:village":"Thurston","fhrs:id":"1091165","shop":"supermarket","source:addr":"FHRS Open Data"}}, "geometry":{"type":"Point","coordinates":[0.8101,52.25022 ]}},
{ "type":"Feature","properties":{"osm_id":"7826581201","other":{"defibrillator:location":"On exterior wall of Cooperative Food","emergency":"defibrillator"}}, "geometry":{"type":"Point","coordinates":[1.0005,52.3406 ]}},
{ "type":"Feature","properties":{"osm_id":"8715239744","other":{"defibrillator:location":"outside Co-op supermarket, The Street, Bramford","emergency":"defibrillator","indoor":"no"}}, "geometry":{"type":"Point","coordinates":[1.09725,52.07616 ]}},
{ "type":"Feature","properties":{"osm_way_id":"28975706","name":"East of England Co-op","building":"retail","shop":"supermarket","other":{"addr:housenumber":"53","addr:postcode":"IP6 0DH","addr:street":"Norwich Road","fhrs:id":"527362","source:addr":"FSA Food Hygiene Ratings Database"}}, "geometry":{"type":"MultiPolygon","coordinates":[[[[1.10912,52.10893],[1.10934,52.10897],[1.10937,52.1089],[1.1094,52.10891],[1.10944,52.10881],[1.10945,52.10879],[1.1094,52.10878],[1.10944,52.1087],[1.10925,52.10866],[1.10912,52.10893]]]]}},
{ "type":"Feature","properties":{"osm_way_id":"94979652","name":"Lidl","building":"yes","shop":"supermarket","other":{"addr:city":"Stowmarket","addr:country":"GB","addr:housenumber":"36","addr:postcode":"IP14 1JF","addr:street":"Bury Road","branch":"Stowmarket","brand":"Lidl","brand:wikidata":"Q151954","brand:wikipedia":"en:Lidl","fhrs:id":"1404659","opening_hours":"Mo-Sa 08:00-22:00; Su 10:00-16:00","survey:date":"2016-04-25"}}, "geometry":{"type":"MultiPolygon","coordinates":[[[[0.99352,52.19402],[0.99373,52.1941],[0.99369,52.19414],[0.99413,52.19432],[0.99401,52.19444],[0.99407,52.19446],[0.99398,52.19455],[0.99326,52.19426],[0.99352,52.19402]]]]}},
{ "type":"Feature","properties":{"osm_way_id":"98147332","name":"Morrisons","building":"yes","shop":"supermarket","other":{"addr:postcode":"DG1 2SH","addr:street":"Brooms Road","brand":"Morrisons","brand:wikidata":"Q922344","brand:wikipedia":"en:Morrisons","designation":"Dumfries","wheelchair":"yes"}}, "geometry":{"type":"MultiPolygon","coordinates":[[[[-3.60127,55.06927],[-3.60136,55.06883],[-3.60144,55.0685],[-3.60125,55.06849],[-3.60127,55.0684],[-3.601,55.06838],[-3.60098,55.06846],[-3.60005,55.06839],[-3.6,55.06864],[-3.60025,55.06865],[-3.60021,55.06885],[-3.59996,55.06884],[-3.59992,55.06905],[-3.60018,55.06907],[-3.60015,55.0692],[-3.60051,55.06922],[-3.60127,55.06927]]]]}},
{ "type":"Feature","properties":{"osm_way_id":"143256297","name":"Tesco","building":"yes","shop":"supermarket","other":{"addr:city":"Stowmarket","addr:postcode":"IP14 5BE","addr:street":"Cedars Link Road","branch":"Stowmarket Superstore","brand":"Tesco","brand:wikidata":"Q487494","brand:wikipedia":"en:Tesco","contact:website":"https:\/\/www.tesco.com\/store-locator\/stowmarket\/cedars-link-rd","fhrs:id":"1404544","opening_hours":"Mo-Sa 06:00-23:00; Su 10:00-16:00","operator":"Tesco Stores Ltd"}}, "geometry":{"type":"MultiPolygon","coordinates":[[[[1.01876,52.18423],[1.0187,52.18418],[1.01869,52.18419],[1.01868,52.18418],[1.01842,52.1843],[1.01839,52.18428],[1.0181,52.1844],[1.01814,52.18444],[1.01786,52.18456],[1.01806,52.18474],[1.01808,52.18473],[1.01848,52.18507],[1.01846,52.18508],[1.01852,52.18512],[1.01855,52.18511],[1.01856,52.18509],[1.01862,52.18507],[1.01863,52.18508],[1.01878,52.18501],[1.01873,52.18496],[1.0186,52.18502],[1.01852,52.18495],[1.01859,52.18492],[1.01857,52.1849],[1.01905,52.18469],[1.01889,52.18454],[1.01898,52.1845],[1.01871,52.18426],[1.01876,52.18423]]]]}},
{ "type":"Feature","properties":{"osm_way_id":"166893952","name":"East of England Co-op","building":"yes","shop":"supermarket","other":{"addr:postcode":"IP30 9BS","addr:street":"New Road","fhrs:id":"527485","not:addr:street":"Ashfield Road","opening_hours":"Mo-Sa 6:00-23:00; Su 10:00-16:00","operator":"East of England Co-op","payment:cash":"yes","payment:coins":"yes","payment:credit_cards":"yes","payment:debit_cards":"yes","payment:maestro":"yes","payment:mastercard":"yes","payment:notes":"yes","payment:visa":"yes","source:building":"bing","url":"https:\/\/www.eastofengland.coop\/foodstores\/elmswell"}}, "geometry":{"type":"MultiPolygon","coordinates":[[[[0.91348,52.23674],[0.91341,52.23661],[0.91289,52.23672],[0.91292,52.23676],[0.91297,52.23685],[0.91305,52.23684],[0.9131,52.23692],[0.91325,52.23689],[0.91333,52.23686],[0.91337,52.23685],[0.91332,52.23678],[0.91348,52.23674]]]]}},
{ "type":"Feature","properties":{"osm_way_id":"186929861","name":"Co-op","building":"yes","shop":"supermarket","other":{"addr:housenumber":"1","addr:postcode":"IP14 6RN","addr:street":"Chancery Lane","alt_name":"East of England Co-operative Food Store","fhrs:id":"527455","url":"https:\/\/www.eastofengland.coop\/foodstores\/debenham"}}, "geometry":{"type":"MultiPolygon","coordinates":[[[[1.18008,52.22559],[1.18012,52.22548],[1.18027,52.2255],[1.18031,52.22536],[1.18051,52.22538],[1.18049,52.22546],[1.18047,52.22551],[1.18062,52.22553],[1.18057,52.22569],[1.18012,52.22564],[1.18014,52.22559],[1.18008,52.22559]]]]}},
{ "type":"Feature","properties":{"osm_way_id":"190096249","name":"Asda","building":"retail","shop":"supermarket","other":{"addr:city":"Stowmarket","addr:country":"GB","addr:parentstreet":"Wilks Way","addr:postcode":"IP14 1DE","addr:street":"The Meadow Centre","branch":"Stowmarket Superstore","brand":"Asda","brand:wikidata":"Q297410","brand:wikipedia":"en:Asda","contact:facebook":"https:\/\/www.facebook.com\/asda\/","contact:phone":"+44 1449 675396","contact:twitter":"@asda","fhrs:id":"1404355","opening_hours":"Mo-We, Sa 07:30-21:00; Th-Fr 07:00-22:00; Su 10:00-16:00","opening_hours:covid19":"Mo-Sa 08:00-22:00; Su 10:00-16:00","operator":"Asda Stores Ltd","source:outline":"Bing","website":"https:\/\/storelocator.asda.com\/east-of-england\/stowmarket\/meadow-centre-wilks-way"}}, "geometry":{"type":"MultiPolygon","coordinates":[[[[0.99374,52.18735],[0.99377,52.18717],[0.99275,52.18713],[0.99275,52.18718],[0.99273,52.18736],[0.99265,52.18736],[0.99259,52.18735],[0.99256,52.18763],[0.99277,52.18764],[0.99276,52.1877],[0.99281,52.18771],[0.99281,52.18777],[0.99315,52.18779],[0.99316,52.18774],[0.9937,52.18775],[0.99372,52.18756],[0.99382,52.18756],[0.99383,52.18741],[0.99374,52.1874],[0.99374,52.18735]]]]}},
{ "type":"Feature","properties":{"osm_way_id":"197064649","name":"Co-op","building":"yes","shop":"supermarket","other":{"addr:city":"Eye","addr:housenumber":"6","addr:postcode":"IP23 7AF","addr:street":"Broad Street","fhrs:id":"1404432","wikidata":"Q26602814"}}, "geometry":{"type":"MultiPolygon","coordinates":[[[[1.14594,52.32064],[1.14612,52.3206],[1.14618,52.32074],[1.146,52.32077],[1.14594,52.32064]]]]}},
{ "type":"Feature","properties":{"osm_way_id":"208029285","name":"Co-op Food","building":"yes","shop":"supermarket","other":{"addr:city":"Diss","addr:postcode":"IP22 1DY","addr:street":"The Street","addr:village":"Rickinghall Superior","brand":"Co-op Food","brand:wikidata":"Q3277439","brand:wikipedia":"en:Co-op Food","fhrs:id":"527723","operator":"Central England Co-operative","source:addr":"FHRS Open Data"}}, "geometry":{"type":"MultiPolygon","coordinates":[[[[1.0002,52.3407],[1.00044,52.34056],[1.0005,52.3406],[1.00059,52.34067],[1.00063,52.34064],[1.00075,52.34072],[1.00042,52.3409],[1.00034,52.34085],[1.00038,52.34082],[1.0002,52.3407]]]]}},
{ "type":"Feature","properties":{"osm_way_id":"351184893","name":"Co-op Food","building":"yes","shop":"supermarket","other":{"addr:city":"Ipswich","addr:housenumber":"54-58","addr:postcode":"IP8 4EB","addr:street":"The Street","addr:village":"Bramford","brand":"Co-op Food","brand:wikidata":"Q3277439","brand:wikipedia":"en:Co-op Food","fhrs:id":"527398","source:addr":"FSA Food Hygiene Ratings Database","source:name":"FSA Food Hygiene Ratings Database;Naptan"}}, "geometry":{"type":"MultiPolygon","coordinates":[[[[1.09783,52.07635],[1.09728,52.07613],[1.09725,52.07616],[1.09723,52.07618],[1.09724,52.07619],[1.09718,52.07624],[1.09722,52.07626],[1.09716,52.07632],[1.0973,52.07638],[1.09736,52.07632],[1.09771,52.07646],[1.09783,52.07635]]]]}},
{ "type":"Feature","properties":{"osm_way_id":"490557204","name":"Waitrose","building":"commercial","shop":"supermarket","other":{"addr:city":"Haywards Heath","addr:housename":"Waitrose","addr:housenumber":"6","addr:postcode":"RH16 3DP","addr:street":"Clair Road","brand":"Waitrose","brand:wikidata":"Q771734","brand:wikipedia":"en:Waitrose","building:levels":"2","layer":"1","official_name":"Waitrose & Partners","opening_hours":"Mo-Sa 07:00-21:00; Su 10:00-16:00","operator":"Waitrose & Partners","phone":"+44 1444 441251","website":"https:\/\/www.waitrose.com\/bf_home\/bf\/873.html","wheelchair":"yes"}}, "geometry":{"type":"MultiPolygon","coordinates":[[[[-0.1044,51.00548],[-0.10439,51.00552],[-0.10438,51.00554],[-0.10433,51.00567],[-0.1039,51.00561],[-0.10381,51.0057],[-0.10359,51.00564],[-0.10355,51.00562],[-0.10353,51.0056],[-0.10353,51.00557],[-0.10363,51.00532],[-0.10358,51.00531],[-0.1036,51.00515],[-0.10387,51.0052],[-0.10391,51.0051],[-0.10391,51.00508],[-0.10393,51.00506],[-0.104,51.00507],[-0.10399,51.00511],[-0.10436,51.00517],[-0.10435,51.0052],[-0.10442,51.00521],[-0.10438,51.00529],[-0.1044,51.0053],[-0.10448,51.00531],[-0.1044,51.00548]]]]}},
{ "type":"Feature","properties":{"osm_way_id":"967251855","name":"ALDI","building":"yes","shop":"supermarket","other":{"addr:city":"Stowmarket","addr:postcode":"IP14 1HN","addr:street":"Gipping Way","brand":"ALDI","brand:wikidata":"Q41171672","brand:wikipedia":"en:Aldi","fhrs:id":"1434048","source:addr":"FHRS Open Data","website":"https:\/\/www.aldi.co.uk\/store\/s-uk-E1345"}}, "geometry":{"type":"MultiPolygon","coordinates":[[[[1.00028,52.18693],[1.00078,52.18647],[1.00125,52.18666],[1.00097,52.18692],[1.00075,52.18683],[1.00053,52.18704],[1.00028,52.18693]]]]}}
]
}
