{
"type": "FeatureCollection",
"features": [
{ "type":"Feature","properties":{"osm_id":"244007666","name":"Co-op Food","other":{"addr:city":"Shepshed","addr:housenumber":"65","addr:postcode":"LE12 9PT","addr:street":"Anson Road","brand":"Co-op Food","brand:wikidata":"Q3277439","brand:wikipedia":"en:Co-op Food","disused":"yes","old_name":"Ox Lea","shop":"supermarket","source:closed":"https:\/\/www.facebook.com\/SpottedShepshed\/posts\/239723466175064; OSM Note"}}, "geometry":{"type":"Point","coordinates":[-1.30182,52.76595 ]}},
{ "type":"Feature","properties":{"osm_id":"450123198","name":"Aldi","other":{"addr:city":"Loughborough","addr:country":"GB","addr:housenumber":"51","addr:postcode":"LE11 1JA","addr:street":"Belton Road","brand":"ALDI","brand:wikidata":"Q41171672","brand:wikipedia":"en:Aldi","opening_hours":"Mo-Sa 08:00-22:00, Su 10:00-16:00","shop":"supermarket","wheelchair":"yes"}}, "geometry":{"type":"Point","coordinates":[-1.21105,52.77985 ]}},
{ "type":"Feature","properties":{"osm_id":"664137735","name":"Tesco","other":{"addr:city":"Loughborough","addr:housename":"The Rushes Shopping Centre","addr:housenumber":"Unit 1","addr:postcode":"LE11 5BE","addr:street":"The Rushes","brand":"Tesco","brand:wikidata":"Q487494","brand:wikipedia":"en:Tesco","contact:website":"https:\/\/www.tesco.com\/store-locator\/loughborough\/1-the-rushes","old_name":"Big W","opening_hours":"Mo-Sa 06:00-24:00, Su 10:00-16:00","shop":"supermarket","wheelchair":"yes"}}, "geometry":{"type":"Point","coordinates":[-1.20841,52.77415 ]}},
{ "type":"Feature","properties":{"osm_id":"1465600940","name":"Sainsbury's","other":{"brand":"Sainsbury's","brand:wikidata":"Q152096","brand:wikipedia":"en:Sainsbury's","shop":"supermarket","wheelchair":"yes"}}, "geometry":{"type":"Point","coordinates":[-1.21094,52.77275 ]}},
{ "type":"Feature","properties":{"osm_id":"1660352318","name":"International Supermarket","other":{"addr:housenumber":"52","addr:postcode":"LE11 1DE","addr:street":"Sparrow Hill","phone":"+44 1509 269 479","shop":"supermarket","wheelchair":"no"}}, "geometry":{"type":"Point","coordinates":[-1.20218,52.77316 ]}},
{ "type":"Feature","properties":{"osm_id":"2693005289","name":"Asda","other":{"addr:housenumber":"25","addr:postcode":"LE12 9QE","addr:street":"Charnwood Road","brand":"Asda","brand:wikidata":"Q297410","brand:wikipedia":"en:Asda","contact:facebook":"https:\/\/www.facebook.com\/asda\/","contact:twitter":"@asda","contact:website":"https:\/\/storelocator.asda.com\/east-midlands\/shepshed\/25-charnwood-road","fhrs:id":"445949","operator":"Asda Stores Ltd","shop":"supermarket","source:addr":"FHRS Open Data"}}, "geometry":{"type":"Point","coordinates":[-1.29179,52.7707 ]}},
{ "type":"Feature","properties":{"osm_id":"3084222516","name":"My Local","other":{"addr:city":"Loughborough","addr:housenumber":"13","addr:postcode":"LE11 3DW","addr:street":"Devonshire Square","old_name":"Morrisons Local","shop":"supermarket"}}, "geometry":{"type":"Point","coordinates":[-1.20698,52.7699 ]}},
{ "type":"Feature","properties":{"osm_id":"3092922084","name":"Euro Asia","other":{"shop":"supermarket"}}, "geometry":{"type":"Point","coordinates":[-1.20169,52.77231 ]}},
{ "type":"Feature","properties":{"osm_id":"3149116391","name":"Spar","other":{"brand":"Spar","brand:wikidata":"Q610492","brand:wikipedia":"en:SPAR (retailer)","shop":"supermarket"}}, "geometry":{"type":"Point","coordinates":[-1.21556,52.72292 ]}},
{ "type":"Feature","properties":{"osm_id":"3946061166","name":"Wisla Supermarket","other":{"shop":"supermarket"}}, "geometry":{"type":"Point","coordinates":[-1.20403,52.77098 ]}},
{ "type":"Feature","properties":{"osm_id":"4954438270","name":"Co-op Food","other":{"brand":"Co-op Food","brand:wikidata":"Q3277439","brand:wikipedia":"en:Co-op Food","old_name":"Ox Lea","shop":"supermarket"}}, "geometry":{"type":"Point","coordinates":[-1.30187,52.76646 ]}},
{ "type":"Feature","properties":{"osm_id":"5686365866","name":"The Co-operative Food","other":{"operator":"Central England Co-Operative","shop":"supermarket"}}, "geometry":{"type":"Point","coordinates":[-1.1272,52.70856 ]}},
{ "type":"Feature","properties":{"osm_id":"7160279125","name":"Lidl","other":{"addr:city":"Loughborough","addr:country":"GB","addr:postcode":"LE11 5HL","addr:street":"Station Avenue","brand":"Lidl","brand:wikidata":"Q151954","brand:wikipedia":"en:Lidl","fhrs:id":"1156538","opening_hours":"Mo-Sa 08:00-22:00; Su 10:00-16:00","payment:cash":"yes","payment:coins":"yes","payment:credit_cards":"yes","payment:debit_cards":"yes","payment:mastercard":"yes","payment:visa":"yes","shop":"supermarket"}}, "geometry":{"type":"Point","coordinates":[-1.21741,52.77617 ]}},
{ "type":"Feature","properties":{"osm_id":"7214293203","name":"Fresh","other":{"brand":"Fresh","brand:wikidata":"Q50737403","brand:wikipedia":"sk:Fresh","shop":"supermarket"}}, "geometry":{"type":"Point","coordinates":[-1.20634,52.7724 ]}},
{ "type":"Feature","properties":{"osm_way_id":"34317508","name":"Asda","building":"yes","shop":"supermarket","other":{"addr:city":"Thurmaston","addr:country":"GB","addr:postcode":"LE4 8GQ","addr:street":"Barkby Thorpe Lane","alt_name":"Asda Thurmaston","brand":"Asda","brand:wikidata":"Q297410","brand:wikipedia":"en:Asda","contact:facebook":"https:\/\/www.facebook.com\/asda\/","contact:phone":"+44 116 264 5300","contact:twitter":"@asda","contact:website":"https:\/\/storelocator.asda.com\/east-midlands\/leicester\/barkby-thorpe-lane","fhrs:id":"98110","opening_hours":"Mo 07:00-24:00, Tu-Fr 00:00-24:00, Sa 00:00-22:00, Su 10:00-16:00","opening_hours:covid19":"Mo-Th,Sa 08:00-22:00; Fr 08:00-20:00; Su 10:00-16:00","operator":"Asda Stores Ltd"}}, "geometry":{"type":"MultiPolygon","coordinates":[[[[-1.08909,52.68488],[-1.09045,52.68489],[-1.09045,52.68495],[-1.09056,52.68502],[-1.09056,52.68545],[-1.09045,52.68545],[-1.09045,52.68548],[-1.09063,52.68548],[-1.09063,52.68568],[-1.09044,52.68568],[-1.09044,52.68581],[-1.08934,52.6858],[-1.08934,52.68575],[-1.08908,52.68574],[-1.08902,52.68571],[-1.08902,52.68492],[-1.08909,52.68488]]]]}},
{ "type":"Feature","properties":{"osm_way_id":"38493573","name":"Tesco Extra","building":"yes","shop":"supermarket","other":{"addr:city":"Loughborough","addr:postcode":"LE11 2EX","addr:street":"Park Road","brand":"Tesco Extra","brand:wikidata":"Q25172225","brand:wikipedia":"en:Tesco Extra","fhrs:id":"68939","opening_hours":"Mo-Sa 00:00-24:00, Su 10:00-16:00","operator":"Tesco","source:addr":"FHRS Open Data","website":"https:\/\/www.tesco.com\/store-locator\/loughborough\/park-road"}}, "geometry":{"type":"MultiPolygon","coordinates":[[[[-1.21012,52.75879],[-1.2093,52.7594],[-1.20884,52.75917],[-1.20868,52.75929],[-1.20776,52.75884],[-1.20786,52.75876],[-1.20814,52.75888],[-1.20849,52.75862],[-1.20883,52.75836],[-1.20878,52.75834],[-1.2089,52.75825],[-1.20908,52.75834],[-1.20914,52.75831],[-1.21012,52.75879]]]]}},
{ "type":"Feature","properties":{"osm_way_id":"55344244","name":"Tesco","building":"yes","shop":"supermarket","other":{"addr:city":"Burton-on-Trent","addr:postcode":"DE14 3RJ","addr:street":"Saint Peter's Bridge","brand":"Tesco","brand:wikidata":"Q487494","brand:wikipedia":"en:Tesco","fhrs:id":"1248577","old_fhrs:id":"388290","operator":"Tesco"}}, "geometry":{"type":"MultiPolygon","coordinates":[[[[-1.63481,52.79661],[-1.63431,52.79706],[-1.63419,52.79702],[-1.63411,52.79709],[-1.63335,52.79678],[-1.63391,52.79629],[-1.63403,52.79634],[-1.63411,52.79627],[-1.63465,52.79649],[-1.63461,52.79653],[-1.63481,52.79661]]]]}},
{ "type":"Feature","properties":{"osm_way_id":"58850793","name":"Morrisons","building":"yes","shop":"supermarket","other":{"brand":"Morrisons","brand:wikidata":"Q922344","brand:wikipedia":"en:Morrisons","wheelchair":"yes"}}, "geometry":{"type":"MultiPolygon","coordinates":[[[[-1.23929,52.77925],[-1.23897,52.77924],[-1.23896,52.77927],[-1.23891,52.77927],[-1.23891,52.77933],[-1.23859,52.77933],[-1.23858,52.77942],[-1.23809,52.77941],[-1.23809,52.77923],[-1.2381,52.77911],[-1.23803,52.77911],[-1.23804,52.77873],[-1.238,52.77873],[-1.23801,52.77863],[-1.23923,52.77864],[-1.23922,52.77888],[-1.2393,52.77888],[-1.2393,52.77896],[-1.23929,52.77925]]]]}},
{ "type":"Feature","properties":{"osm_way_id":"70417965","name":"Co-op Food","building":"yes","shop":"supermarket","other":{"brand":"Co-op Food","brand:wikidata":"Q3277439","brand:wikipedia":"en:Co-op Food","operator":"Central England Co-operative"}}, "geometry":{"type":"MultiPolygon","coordinates":[[[[-1.23178,52.77573],[-1.23183,52.77583],[-1.23181,52.77584],[-1.23186,52.77588],[-1.23147,52.77605],[-1.23138,52.77597],[-1.23154,52.7759],[-1.23149,52.77585],[-1.23178,52.77573]]]]}},
{ "type":"Feature","properties":{"osm_way_id":"103175552","name":"Co-op Food","building":"yes","shop":"supermarket","other":{"brand":"Co-op Food","brand:wikidata":"Q3277439","brand:wikipedia":"en:Co-op Food","operator":"Central England Co-operative Society","wheelchair":"yes"}}, "geometry":{"type":"MultiPolygon","coordinates":[[[[-1.18528,52.67319],[-1.18542,52.67309],[-1.18547,52.67312],[-1.18554,52.67307],[-1.18499,52.67279],[-1.18485,52.67289],[-1.18478,52.67286],[-1.18472,52.6729],[-1.18528,52.67319]]]]}},
{ "type":"Feature","properties":{"osm_way_id":"117106928","name":"Waitrose","building":"yes","shop":"supermarket","other":{"addr:city":"Mountsorrel","addr:postcode":"LE12 7TZ","addr:street":"Granite Way","brand":"Waitrose & Partners","brand:wikidata":"Q771734","brand:wikipedia":"en:Waitrose & Partners","contact:phone":"+44 1509 415304","contact:website":"http:\/\/www.waitrose.com\/content\/waitrose\/en\/bf_home\/bf\/403.html","old_name":"Budgens","operator":"Waitrose & Partners"}}, "geometry":{"type":"MultiPolygon","coordinates":[[[[-1.15038,52.73682],[-1.15035,52.73684],[-1.15011,52.737],[-1.14958,52.7367],[-1.14986,52.73652],[-1.15038,52.73682]]]]}},
{ "type":"Feature","properties":{"osm_way_id":"146827952","name":"Co-op Food","building":"yes","shop":"supermarket","other":{"addr:postcode":"LE12 9AN","addr:street":"Hallcroft","brand":"Co-op Food","brand:wikidata":"Q3277439","brand:wikipedia":"en:Co-op Food","operator":"Central England Co-operative Society","website":"http:\/\/www.midlands.coop\/index.php\/stores\/detail\/Food\/Shepshed-supermarket\/65","wheelchair":"yes"}}, "geometry":{"type":"MultiPolygon","coordinates":[[[[-1.29085,52.77295],[-1.29095,52.77259],[-1.29072,52.77257],[-1.29073,52.77254],[-1.29063,52.77253],[-1.29062,52.77256],[-1.29058,52.77255],[-1.29059,52.77253],[-1.29044,52.77252],[-1.29034,52.7729],[-1.29085,52.77295]]]]}},
{ "type":"Feature","properties":{"osm_way_id":"173168736","name":"Aldi Syston","building":"yes","shop":"supermarket","other":{"brand":"ALDI","brand:wikidata":"Q41171672","brand:wikipedia":"en:Aldi","opening_hours":"Mo-Sa,PH 08:00-22:00; Su 10:00-16:00"}}, "geometry":{"type":"MultiPolygon","coordinates":[[[[-1.07616,52.69666],[-1.07544,52.69644],[-1.07554,52.69635],[-1.07546,52.69632],[-1.07559,52.69618],[-1.07635,52.69644],[-1.07616,52.69666]]]]}},
{ "type":"Feature","properties":{"osm_way_id":"173168752","name":"Tesco Metro Syston","building":"yes","shop":"supermarket","other":{"brand":"Tesco Metro","brand:wikidata":"Q57551648","opening_hours":"Mo-Sa 07:00-22:00; Su 10:00-16:00","payment:cash":"yes","payment:coins":"yes","payment:credit_cards":"yes","payment:debit_cards":"yes","payment:mastercard":"yes","payment:notes":"yes","payment:visa":"yes"}}, "geometry":{"type":"MultiPolygon","coordinates":[[[[-1.07493,52.69691],[-1.07521,52.69664],[-1.07455,52.69639],[-1.07433,52.69661],[-1.07477,52.69677],[-1.0747,52.69683],[-1.07493,52.69691]]]]}},
{ "type":"Feature","properties":{"osm_way_id":"181672297","name":"The Co-operative Food","building":"yes","shop":"supermarket","other":{"atm":"yes","operator":"Central England Co-operative Society"}}, "geometry":{"type":"MultiPolygon","coordinates":[[[[-1.13821,52.7222],[-1.1382,52.72207],[-1.13767,52.72208],[-1.13768,52.72222],[-1.13821,52.7222]]]]}},
{ "type":"Feature","properties":{"osm_way_id":"181867041","name":"The Co-operative Food","building":"supermarket","shop":"supermarket","other":{"operator":"The Co-operative Group"}}, "geometry":{"type":"MultiPolygon","coordinates":[[[[-1.11917,52.67645],[-1.1192,52.67629],[-1.11848,52.67634],[-1.11851,52.67647],[-1.11846,52.67647],[-1.11847,52.6765],[-1.11917,52.67645]]]]}},
{ "type":"Feature","properties":{"osm_way_id":"318187458","name":"The Co-operative Food","building":"yes","shop":"supermarket","other":{"addr:housenumber":"19","addr:postcode":"LE12 8PY","addr:street":"High Street","fhrs:id":"78311","operator":"The Co-operative Group","source:addr":"FHRS Open Data"}}, "geometry":{"type":"MultiPolygon","coordinates":[[[[-1.15003,52.75162],[-1.14999,52.75174],[-1.14978,52.75171],[-1.14979,52.75168],[-1.14939,52.75162],[-1.14943,52.75153],[-1.15003,52.75162]]]]}},
{ "type":"Feature","properties":{"osm_way_id":"340421101","name":"The Co-operative Food","building":"yes","shop":"supermarket","other":{"opening_hours":"Mo - Su 07:00 - 22:00","operator":"Central England Co-operative Society"}}, "geometry":{"type":"MultiPolygon","coordinates":[[[[-1.17444,52.74531],[-1.1747,52.74539],[-1.17454,52.74558],[-1.17428,52.7455],[-1.17444,52.74531]]]]}},
{ "type":"Feature","properties":{"osm_way_id":"505528965","name":"Co-op Food","shop":"supermarket","other":{"brand":"Co-op Food","brand:wikidata":"Q3277439","brand:wikipedia":"en:Co-op Food","old_name":"Ox Lea"}}, "geometry":{"type":"MultiPolygon","coordinates":[[[[-1.30169,52.76646],[-1.30183,52.76636],[-1.30202,52.76646],[-1.30188,52.76656],[-1.30169,52.76646]]]]}},
{ "type":"Feature","properties":{"osm_way_id":"647509938","name":"ALDI","building":"yes","shop":"supermarket","other":{"brand":"ALDI","brand:wikidata":"Q41171672","brand:wikipedia":"en:Aldi"}}, "geometry":{"type":"MultiPolygon","coordinates":[[[[-1.19964,52.75463],[-1.19951,52.75457],[-1.19946,52.75461],[-1.19921,52.7545],[-1.19873,52.75492],[-1.19901,52.75504],[-1.19898,52.75506],[-1.19909,52.75511],[-1.19964,52.75463]]]]}}
]
}
