{
"type": "FeatureCollection",
"features": [
{ "type":"Feature","properties":{"osm_way_id":"27929448","building":"warehouse"},"geometry":{"type":"MultiPolygon","coordinates":[[[[-2.21728,53.47111],[-2.21654,53.47116],[-2.21654,53.4712],[-2.2166,53.4712],[-2.21664,53.47165],[-2.21602,53.47168],[-2.21588,53.47123],[-2.21586,53.47123],[-2.21587,53.47112],[-2.21632,53.47112],[-2.21629,53.47109],[-2.21629,53.47095],[-2.21622,53.47093],[-2.21728,53.47088],[-2.21728,53.47111]]]]}},
{ "type":"Feature","properties":{"osm_way_id":"28058021","building":"warehouse"},"geometry":{"type":"MultiPolygon","coordinates":[[[[-2.19911,53.49785],[-2.19916,53.49783],[-2.19993,53.49863],[-2.19988,53.49865],[-2.19996,53.49873],[-2.19998,53.49873],[-2.2001,53.49885],[-2.20012,53.49885],[-2.2002,53.49892],[-2.20017,53.49893],[-2.20018,53.49894],[-2.19943,53.49919],[-2.19945,53.49921],[-2.19931,53.49926],[-2.19914,53.49908],[-2.19916,53.49907],[-2.19822,53.49809],[-2.19863,53.49795],[-2.19858,53.4979],[-2.19902,53.49775],[-2.19911,53.49785]]]]}},
{ "type":"Feature","properties":{"osm_way_id":"28058121","building":"warehouse"},"geometry":{"type":"MultiPolygon","coordinates":[[[[-2.19262,53.49292],[-2.19344,53.493],[-2.19343,53.49303],[-2.19399,53.49308],[-2.19397,53.49316],[-2.19393,53.49327],[-2.1925,53.49314],[-2.19238,53.49361],[-2.19225,53.49367],[-2.1907,53.49352],[-2.19159,53.49427],[-2.19083,53.49458],[-2.18951,53.49349],[-2.18966,53.49343],[-2.18984,53.49267],[-2.19195,53.49285],[-2.19194,53.4929],[-2.19261,53.49296],[-2.19262,53.49292]]]]}},
{ "type":"Feature","properties":{"osm_way_id":"188112567","building":"warehouse"},"geometry":{"type":"MultiPolygon","coordinates":[[[[-2.21534,53.4411],[-2.2149,53.44111],[-2.21491,53.44119],[-2.21535,53.44117],[-2.21534,53.4411]]]]}},
{ "type":"Feature","properties":{"osm_way_id":"188112577","building":"warehouse"},"geometry":{"type":"MultiPolygon","coordinates":[[[[-2.21605,53.44111],[-2.21606,53.44102],[-2.21579,53.44101],[-2.21578,53.44111],[-2.21605,53.44111]]]]}},
{ "type":"Feature","properties":{"osm_way_id":"188112592","building":"warehouse"},"geometry":{"type":"MultiPolygon","coordinates":[[[[-2.21555,53.44107],[-2.21556,53.44099],[-2.21577,53.44099],[-2.21576,53.44108],[-2.21555,53.44107]]]]}},
{ "type":"Feature","properties":{"osm_way_id":"188112593","building":"warehouse"},"geometry":{"type":"MultiPolygon","coordinates":[[[[-2.21535,53.44107],[-2.21535,53.44097],[-2.21489,53.44096],[-2.21489,53.44106],[-2.21535,53.44107]]]]}},
{ "type":"Feature","properties":{"osm_way_id":"189642009","name":"Whitworth Locke, Civic Quarter","building":"warehouse","tourism":"hotel","other":{"addr:city":"Manchester","addr:housenumber":"74","addr:postcode":"M1 6JD","addr:street":"Princess Street","architect":"Grzywinski + Pons","brand":"Locke","building:use":"hotel","listed_status":"Grade II","website":"https:\/\/www.lockeliving.com\/en\/manchester\/whitworth-locke","wikidata":"Q26539708"}}, "geometry":{"type":"MultiPolygon","coordinates":[[[[-2.23888,53.4755],[-2.23883,53.47549],[-2.23822,53.47569],[-2.23821,53.47572],[-2.23827,53.47578],[-2.23831,53.47579],[-2.23837,53.47577],[-2.23843,53.47584],[-2.23835,53.47587],[-2.2385,53.47601],[-2.23868,53.47594],[-2.23915,53.47581],[-2.23888,53.4755]]]]}},
{ "type":"Feature","properties":{"osm_way_id":"240375805","building":"warehouse"},"geometry":{"type":"MultiPolygon","coordinates":[[[[-2.21587,53.47112],[-2.21586,53.47095],[-2.21595,53.47095],[-2.21595,53.47096],[-2.21613,53.47096],[-2.21613,53.47095],[-2.21629,53.47095],[-2.21629,53.47109],[-2.21632,53.47112],[-2.21587,53.47112]]]]}},
{ "type":"Feature","properties":{"osm_way_id":"304427345","name":"DHL","building":"warehouse","other":{"operator":"DHL"}}, "geometry":{"type":"MultiPolygon","coordinates":[[[[-2.29172,53.35737],[-2.29199,53.35753],[-2.29185,53.35762],[-2.29211,53.35777],[-2.29131,53.35825],[-2.29091,53.35802],[-2.29172,53.35753],[-2.29158,53.35746],[-2.29172,53.35737]]]]}},
{ "type":"Feature","properties":{"osm_way_id":"506217164","building":"warehouse","other":{"addr:city":"Manchester","addr:housenumber":"2","addr:postcode":"M19 2JU","addr:street":"Davenhill Road","building:levels":"1","source:addr:postcode":"companies house open data"}}, "geometry":{"type":"MultiPolygon","coordinates":[[[[-2.19143,53.43871],[-2.19155,53.43861],[-2.19152,53.43849],[-2.19126,53.43846],[-2.19143,53.43871]]]]}},
{ "type":"Feature","properties":{"osm_way_id":"547762739","building":"warehouse"},"geometry":{"type":"MultiPolygon","coordinates":[[[[-2.24757,53.3944],[-2.24764,53.39376],[-2.24706,53.39373],[-2.24702,53.39437],[-2.24757,53.3944]]]]}},
{ "type":"Feature","properties":{"osm_way_id":"547762740","building":"warehouse"},"geometry":{"type":"MultiPolygon","coordinates":[[[[-2.2492,53.39453],[-2.24925,53.39407],[-2.24856,53.39403],[-2.24849,53.3945],[-2.2492,53.39453]]]]}},
{ "type":"Feature","properties":{"osm_way_id":"547762741","building":"warehouse"},"geometry":{"type":"MultiPolygon","coordinates":[[[[-2.25022,53.39468],[-2.25028,53.39423],[-2.24968,53.39419],[-2.24961,53.39466],[-2.25022,53.39468]]]]}},
{ "type":"Feature","properties":{"osm_way_id":"547762742","building":"warehouse"},"geometry":{"type":"MultiPolygon","coordinates":[[[[-2.25119,53.39532],[-2.2513,53.39453],[-2.25049,53.3945],[-2.25043,53.39517],[-2.25103,53.3952],[-2.251,53.39531],[-2.25119,53.39532]]]]}},
{ "type":"Feature","properties":{"osm_way_id":"547762743","building":"warehouse"},"geometry":{"type":"MultiPolygon","coordinates":[[[[-2.24968,53.3955],[-2.24974,53.39509],[-2.24916,53.39507],[-2.24912,53.39549],[-2.24968,53.3955]]]]}},
{ "type":"Feature","properties":{"osm_way_id":"611803867","name":"Apex Self Storage","building":"warehouse","other":{"phone":"+44 161 258 4939","website":"https:\/\/www.apexselfstorage.co.uk\/"}}, "geometry":{"type":"MultiPolygon","coordinates":[[[[-2.2457,53.45902],[-2.24544,53.45902],[-2.24537,53.45899],[-2.24536,53.45894],[-2.24534,53.45838],[-2.24564,53.45837],[-2.24565,53.45854],[-2.24569,53.45854],[-2.2457,53.45865],[-2.24565,53.45866],[-2.24566,53.45893],[-2.2457,53.45893],[-2.2457,53.45902]]]]}},
{ "type":"Feature","properties":{"osm_way_id":"620359892","building":"warehouse","other":{"building:levels":"3"}}, "geometry":{"type":"MultiPolygon","coordinates":[[[[-2.19094,53.44402],[-2.19081,53.44406],[-2.19081,53.44388],[-2.191,53.44388],[-2.191,53.44397],[-2.191,53.444],[-2.19094,53.44402]]]]}},
{ "type":"Feature","properties":{"osm_way_id":"823976123","building":"warehouse","other":{"addr:city":"Manchester","addr:street":"Ladybarn Road","building:levels":"1","roof:shape":"gabled"}}, "geometry":{"type":"MultiPolygon","coordinates":[[[[-2.2167,53.44165],[-2.21651,53.44165],[-2.2165,53.44144],[-2.21669,53.44143],[-2.2167,53.44165]]]]}},
{ "type":"Feature","properties":{"osm_way_id":"885307385","building":"warehouse"},"geometry":{"type":"MultiPolygon","coordinates":[[[[-2.25048,53.36473],[-2.25049,53.36452],[-2.25066,53.36452],[-2.25065,53.36474],[-2.25048,53.36473]]]]}},
{ "type":"Feature","properties":{"osm_way_id":"885307389","building":"warehouse"},"geometry":{"type":"MultiPolygon","coordinates":[[[[-2.24973,53.36447],[-2.24974,53.36438],[-2.24955,53.36438],[-2.24955,53.36446],[-2.24973,53.36447]]]]}},
{ "type":"Feature","properties":{"osm_way_id":"885307396","building":"warehouse"},"geometry":{"type":"MultiPolygon","coordinates":[[[[-2.24858,53.36468],[-2.24875,53.36469],[-2.24876,53.36463],[-2.24872,53.36463],[-2.24872,53.36462],[-2.24859,53.36461],[-2.24859,53.36463],[-2.24858,53.36468]]]]}}
]
}
