{
"type": "FeatureCollection",
"features": [
{ "type":"Feature","properties":{"osm_id":"414727684","name":"Spar","other":{"addr:city":"Prestatyn","addr:country":"GB","addr:housenumber":"26","addr:postcode":"LL19 9BB","addr:street":"High Street","brand":"Spar","brand:wikidata":"Q610492","brand:wikipedia":"en:SPAR (retailer)","fhrs:authority":"Denbighshire","fhrs:id":"921101","fhrs:local_authority_id":"702699","name:en":"Spar","shop":"supermarket"}}, "geometry":{"type":"Point","coordinates":[-3.40558,53.33554 ]}},
{ "type":"Feature","properties":{"osm_id":"6792431553","other":{"amenity":"post_box","operator":"Royal Mail"}}, "geometry":{"type":"Point","coordinates":[-3.46579,53.29155 ]}},
{ "type":"Feature","properties":{"osm_id":"8471348123","name":"Aldi","other":{"brand":"ALDI","brand:wikidata":"Q41171672","brand:wikipedia":"en:Aldi","shop":"supermarket"}}, "geometry":{"type":"Point","coordinates":[-3.32529,53.11977 ]}},
{ "type":"Feature","properties":{"osm_id":"9272540364","name":"Co-op","other":{"addr:city":"Denbigh","addr:housename":"Britannia Building","addr:housenumber":"26","addr:postcode":"LL16 3RY","addr:street":"High Street","alt_name":"The Co-operative Food","fhrs:authority":"Denbighshire","fhrs:id":"921096","fhrs:local_authority_id":"702687","name:en":"Co-operative","shop":"supermarket","website":"https:\/\/www.coop.co.uk\/store-finder\/LL16-3RY\/26-high-street"}}, "geometry":{"type":"Point","coordinates":[-3.41921,53.18341 ]}},
{ "type":"Feature","properties":{"osm_way_id":"102715862","name":"Stans Superstore","building":"yes","shop":"supermarket","other":{"fhrs:id":"921286","name:en":"Stans Of Llangollen","addr:city":"Llangollen","addr:street":"Berwyn Street","addr:country":"GB","addr:postcode":"LL20 8NF","fhrs:authority":"Denbighshire","fhrs:local_authority_id":"703323"}}, "geometry":{"type":"Polygon","coordinates":[[[ -3.17129,52.9689],[-3.17088,52.96889],[-3.17089,52.96877],[-3.17138,52.96879],[-3.17138,52.9688],[-3.17138,52.96885],[-3.17129,52.96885],[-3.17129,52.9689]] ]}},
{ "type":"Feature","properties":{"osm_way_id":"125556107","name":"Sainsbury's","building":"retail","shop":"supermarket","other":{"addr:city":"Rhyl","addr:country":"GB","addr:place":"Rhuddlan","addr:postcode":"LL18 2TJ","addr:street":"Clwyd Retail Park","brand":"Sainsbury's","brand:wikidata":"Q152096","brand:wikipedia":"en:Sainsbury's","fhrs:authority":"Denbighshire","fhrs:id":"921614","fhrs:local_authority_id":"703913","name:en":"Sainsbury's","website":"https:\/\/stores.sainsburys.co.uk\/0633\/rhyl"}}, "geometry":{"type":"Polygon","coordinates":[[[ -3.46896,53.30224],[-3.46935,53.30267],[-3.4692,53.30271],[-3.46916,53.30267],[-3.46908,53.30269],[-3.46914,53.30276],[-3.46909,53.30277],[-3.46906,53.30278],[-3.4691,53.30283],[-3.46841,53.30306],[-3.46838,53.30306],[-3.46841,53.3031],[-3.46805,53.30322],[-3.46791,53.30306],[-3.46795,53.30305],[-3.46775,53.30282],[-3.46772,53.30283],[-3.46752,53.30261],[-3.46781,53.30252],[-3.46788,53.30259],[-3.46896,53.30224]] ]}},
{ "type":"Feature","properties":{"osm_way_id":"140176214","name":"Co-op Food","building":"yes","shop":"supermarket","other":{"addr:city":"St Asaph","addr:country":"GB","addr:postcode":"LL17 0ED","addr:street":"Lower Denbigh Road","brand":"Co-op Food","brand:wikidata":"Q3277439","brand:wikipedia":"en:Co-op Food","fhrs:authority":"Denbighshire","fhrs:id":"921780","fhrs:local_authority_id":"704260","internet_access":"wlan","name:cy":"Co-op Llanelwy","name:en":"St Asaph Co-op","operator":"The Co-operative Group","operator:wikidata":"Q117202","operator:wikipedia":"en:The Co-operative Group","website":"https:\/\/finder.coop.co.uk\/food\/store\/LL17-0ED\/lower-denbigh-road"}}, "geometry":{"type":"Polygon","coordinates":[[[ -3.44841,53.25587],[-3.44786,53.25588],[-3.44784,53.25572],[-3.4484,53.25571],[-3.44841,53.25586],[-3.44841,53.25587]] ]}},
{ "type":"Feature","properties":{"osm_way_id":"140183532","name":"Morrisons","building":"yes","shop":"supermarket","other":{"addr:city":"Rhyl","addr:country":"GB","addr:postcode":"LL18 2DF","addr:street":"Marsh Road","brand":"Morrisons","brand:wikidata":"Q922344","brand:wikipedia":"en:Morrisons","fhrs:id":"921347"}}, "geometry":{"type":"Polygon","coordinates":[[[ -3.48903,53.31686],[-3.48925,53.31702],[-3.48929,53.31705],[-3.48942,53.31699],[-3.48954,53.31707],[-3.48957,53.31706],[-3.48982,53.31693],[-3.48997,53.31703],[-3.49001,53.31701],[-3.49008,53.31706],[-3.49022,53.31715],[-3.49018,53.31717],[-3.49022,53.31721],[-3.4892,53.31773],[-3.48917,53.31771],[-3.48914,53.31769],[-3.48907,53.31772],[-3.48897,53.31766],[-3.48889,53.3177],[-3.4885,53.31743],[-3.48847,53.31745],[-3.48819,53.31725],[-3.48833,53.31718],[-3.4883,53.31716],[-3.48851,53.31705],[-3.48858,53.3171],[-3.48903,53.31686]] ]}},
{ "type":"Feature","properties":{"osm_way_id":"153411253","name":"ALDI","building":"yes","shop":"supermarket","other":{"addr:city":"Prestatyn","addr:country":"GB","addr:postcode":"LL19 9RT","addr:street":"Meliden Road","brand":"ALDI","brand:wikidata":"Q41171672","brand:wikipedia":"en:Aldi","fhrs:authority":"Denbighshire","fhrs:id":"921351","fhrs:local_authority_id":"703412","name:en":"Aldi"}}, "geometry":{"type":"Polygon","coordinates":[[[ -3.40303,53.33068],[-3.40333,53.33096],[-3.40325,53.33099],[-3.40321,53.33095],[-3.40313,53.33098],[-3.40309,53.33095],[-3.40299,53.33099],[-3.40267,53.33112],[-3.40244,53.33092],[-3.40249,53.3309],[-3.40303,53.33068]] ]}},
{ "type":"Feature","properties":{"osm_way_id":"157072955","name":"Tesco","building":"yes","shop":"supermarket","other":{"addr:city":"Ruthin","addr:country":"GB","addr:postcode":"LL15 1BB","addr:street":"Lon Parcwr","brand":"Tesco","brand:wikidata":"Q487494","brand:wikipedia":"en:Tesco","designation":"Ruthin Superstore","fhrs:authority":"Denbighshire","fhrs:id":"921007","fhrs:local_authority_id":"702157","name:en":"Tesco","opening_hours":"Mo-Sa 08:00-22:00; Su 10:00-16:00"}}, "geometry":{"type":"Polygon","coordinates":[[[ -3.30744,53.11783],[-3.30769,53.11779],[-3.30773,53.11789],[-3.3066,53.11806],[-3.30645,53.11769],[-3.30662,53.11767],[-3.30661,53.11763],[-3.30732,53.11754],[-3.30744,53.11783]] ]}},
{ "type":"Feature","properties":{"osm_way_id":"157073809","name":"Co-op Food","building":"yes","shop":"supermarket","other":{"addr:city":"Ruthin","addr:postcode":"LL15 1BP","addr:street":"Station Road","brand":"Co-op Food","brand:wikidata":"Q3277439","brand:wikipedia":"en:Co-op Food","opening_hours":"Mo-Sa 07:00-20:00; Su 10:00-16:00"}}, "geometry":{"type":"Polygon","coordinates":[[[ -3.3077,53.11464],[-3.30707,53.11488],[-3.30701,53.11482],[-3.30686,53.11468],[-3.30751,53.11445],[-3.3077,53.11464]] ]}},
{ "type":"Feature","properties":{"osm_way_id":"211905785","name":"Morrisons","building":"retail","shop":"supermarket","other":{"addr:city":"Denbigh","addr:country":"GB","addr:postcode":"LL16 3RQ","addr:street":"Smithfield Road","alt_name":"Morrisons Denbigh","brand":"Morrisons","brand:wikidata":"Q922344","brand:wikipedia":"en:Morrisons","fhrs:authority":"Denbighshire","fhrs:id":"921681","fhrs:local_authority_id":"704085","name:en":"Morrisons"}}, "geometry":{"type":"Polygon","coordinates":[[[ -3.42533,53.18159],[-3.42524,53.18167],[-3.4254,53.1818],[-3.42501,53.182],[-3.42499,53.182],[-3.42497,53.18202],[-3.42478,53.18195],[-3.42477,53.18197],[-3.42458,53.1819],[-3.42457,53.18191],[-3.42446,53.18188],[-3.42423,53.1818],[-3.42427,53.18176],[-3.42437,53.18166],[-3.42466,53.18135],[-3.42533,53.18159]] ]}},
{ "type":"Feature","properties":{"osm_way_id":"211905787","name":"Lidl","building":"yes","shop":"supermarket","other":{"addr:city":"Denbigh","addr:country":"GB","addr:housenumber":"89","addr:postcode":"LL16 3AU","addr:street":"Vale Street","alt_name":"LIDL Denbigh","brand":"Lidl","brand:wikidata":"Q151954","brand:wikipedia":"en:Lidl","fhrs:authority":"Denbighshire","fhrs:id":"921728","fhrs:local_authority_id":"704171","name:en":"Lidl"}}, "geometry":{"type":"Polygon","coordinates":[[[ -3.41474,53.18625],[-3.41432,53.18642],[-3.41404,53.18618],[-3.41392,53.18608],[-3.41411,53.186],[-3.41428,53.18593],[-3.41435,53.1859],[-3.41474,53.18625]] ]}},
{ "type":"Feature","properties":{"osm_way_id":"227776440","name":"Co-op","building":"yes","shop":"supermarket","other":{"fhrs:id":"921610","name:en":"Co-operative","addr:city":"Llangollen","addr:street":"Regent Street","designation":"The Co-operative Food","addr:country":"GB","addr:postcode":"LL20 8HN","fhrs:authority":"Denbighshire","fhrs:local_authority_id":"703889"}}, "geometry":{"type":"Polygon","coordinates":[[[ -3.16716,52.96897],[-3.16703,52.96896],[-3.16703,52.96893],[-3.16685,52.96893],[-3.16686,52.96869],[-3.16717,52.96872],[-3.16716,52.96878],[-3.16716,52.96897]] ]}},
{ "type":"Feature","properties":{"osm_way_id":"275382939","name":"McColl's","building":"yes","shop":"supermarket"},"geometry":{"type":"Polygon","coordinates":[[[ -3.40169,53.3315],[-3.4018,53.33143],[-3.40205,53.33158],[-3.40195,53.33165],[-3.40187,53.3316],[-3.40169,53.3315]] ]}},
{ "type":"Feature","properties":{"osm_way_id":"275675498","name":"Co-op","building":"yes","shop":"supermarket","other":{"fhrs:id":"921158","name:en":"Co-Op","operator":"The Co-operative Group","addr:city":"Rhyl","addr:place":"Rhuddlan","addr:street":"Rhyl Road","addr:country":"GB","addr:postcode":"LL18 2TS","addr:housename":"Texaco Service Station","fhrs:authority":"Denbighshire","fhrs:local_authority_id":"702788"}}, "geometry":{"type":"Polygon","coordinates":[[[ -3.46398,53.29297],[-3.46383,53.29288],[-3.46385,53.29287],[-3.46405,53.29277],[-3.46418,53.29285],[-3.46398,53.29297]] ]}},
{ "type":"Feature","properties":{"osm_way_id":"275678064","name":"Spar","building":"yes","shop":"supermarket","other":{"brand":"Spar","fhrs:id":"921111","name:en":"Spar And Post Office","addr:city":"Rhyl","addr:place":"Rhuddlan","ref:pol_id":"15565","addr:street":"High Street","addr:country":"GB","addr:postcode":"LL18 2UB","brand:wikidata":"Q610492","fhrs:authority":"Denbighshire","brand:wikipedia":"en:Spar (retailer)","addr:housenumber":"131-136","fhrs:local_authority_id":"702711"}}, "geometry":{"type":"Polygon","coordinates":[[[ -3.46591,53.2918],[-3.46573,53.29168],[-3.46566,53.29162],[-3.46579,53.29155],[-3.46581,53.29155],[-3.46583,53.29156],[-3.466,53.29168],[-3.46606,53.29172],[-3.46591,53.2918]] ]}},
{ "type":"Feature","properties":{"osm_way_id":"284392454","name":"Spar","building":"yes","shop":"supermarket","other":{"brand":"Spar","brand:wikidata":"Q610492"}}, "geometry":{"type":"Polygon","coordinates":[[[ -3.41326,53.30016],[-3.41344,53.30014],[-3.41346,53.3002],[-3.41347,53.30025],[-3.41343,53.30025],[-3.41343,53.30026],[-3.41347,53.30026],[-3.41349,53.30035],[-3.41332,53.30036],[-3.4133,53.30028],[-3.41329,53.30028],[-3.41326,53.30016]] ]}},
{ "type":"Feature","properties":{"osm_way_id":"322681504","name":"Heron Foods","building":"yes","shop":"supermarket","other":{"brand":"Heron Foods","fhrs:id":"921354","addr:city":"Rhyl","addr:street":"High Street","addr:country":"GB","addr:postcode":"LL18 1UB","brand:wikidata":"Q5743472","brand:wikipedia":"en:Heron Foods","contact:website":"https:\/\/heronfoods.com\/storelocator\/store-details\/rhyl","addr:housenumber":"84-88"}}, "geometry":{"type":"Polygon","coordinates":[[[ -3.48892,53.31974],[-3.48915,53.31964],[-3.48922,53.31961],[-3.48937,53.31974],[-3.48913,53.31984],[-3.48907,53.31986],[-3.48892,53.31974]] ]}},
{ "type":"Feature","properties":{"osm_way_id":"322759411","name":"Morrisons Local","building":"yes","shop":"supermarket"},"geometry":{"type":"Polygon","coordinates":[[[ -3.4713,53.3273],[-3.47097,53.32735],[-3.47091,53.3272],[-3.47124,53.32716],[-3.4713,53.3273]] ]}},
{ "type":"Feature","properties":{"osm_way_id":"507641925","name":"Aldi","building":"retail","shop":"supermarket","other":{"addr:city":"Llangollen","addr:postcode":"LL20 8AE","brand":"ALDI","brand:wikidata":"Q41171672","brand:wikipedia":"en:Aldi","building:levels":"1"}}, "geometry":{"type":"Polygon","coordinates":[[[ -3.17869,52.97164],[-3.17887,52.97194],[-3.17876,52.97216],[-3.17797,52.97234],[-3.17765,52.97191],[-3.17869,52.97164]] ]}},
{ "type":"Feature","properties":{"osm_way_id":"513092081","name":"Seagull Polski Sklep","building":"yes","shop":"supermarket","other":{"fhrs:id":"920861","name:en":"Seagull International Foods","addr:city":"Rhyl","addr:street":"Bedford Street","addr:country":"GB","addr:postcode":"LL18 1SY","fhrs:authority":"Denbighshire","addr:housenumber":"32-34","fhrs:local_authority_id":"701811"}}, "geometry":{"type":"Polygon","coordinates":[[[ -3.49331,53.31927],[-3.49342,53.3192],[-3.4936,53.31931],[-3.4935,53.31937],[-3.49334,53.31928],[-3.49331,53.31927]] ]}},
{ "type":"Feature","properties":{"osm_way_id":"542172989","name":"Tesco","building":"retail","shop":"supermarket","other":{"brand":"Tesco","brand:wikidata":"Q487494","brand:wikipedia":"en:Tesco","wheelchair":"yes"}}, "geometry":{"type":"Polygon","coordinates":[[[ -3.40322,53.337],[-3.40306,53.3368],[-3.40222,53.33704],[-3.40211,53.33708],[-3.4017,53.33658],[-3.40164,53.3365],[-3.40275,53.33618],[-3.40313,53.33665],[-3.40338,53.33695],[-3.40322,53.337]] ]}},
{ "type":"Feature","properties":{"osm_way_id":"549992013","name":"Aldi","building":"yes","shop":"supermarket","other":{"brand":"ALDI","brand:wikidata":"Q41171672","brand:wikipedia":"en:Aldi","operator":"Aldi"}}, "geometry":{"type":"Polygon","coordinates":[[[ -3.47209,53.28846],[-3.4722,53.28852],[-3.47231,53.28858],[-3.47229,53.28859],[-3.47226,53.28861],[-3.47277,53.2889],[-3.47248,53.28908],[-3.47176,53.28867],[-3.47209,53.28846]] ]}},
{ "type":"Feature","properties":{"osm_way_id":"550317483","name":"Iceland","building":"yes","shop":"supermarket","other":{"brand":"Iceland","brand:wikidata":"Q721810"}}, "geometry":{"type":"Polygon","coordinates":[[[ -3.46999,53.30384],[-3.47015,53.30402],[-3.47007,53.30404],[-3.46965,53.30417],[-3.4695,53.30399],[-3.46999,53.30384]] ]}},
{ "type":"Feature","properties":{"osm_way_id":"612410057","name":"Lidl","building":"yes","shop":"supermarket","other":{"addr:country":"GB","addr:housename":"Parc Dyffryn Industrial Estate","addr:postcode":"LL19 9DG","addr:street":"Ffordd Pendyffryn","addr:unit":"1-4","brand":"Lidl","brand:wikidata":"Q151954","brand:wikipedia":"en:Lidl","fhrs:id":"1125812","operator":"Lidl"}}, "geometry":{"type":"Polygon","coordinates":[[[ -3.40695,53.33455],[-3.40637,53.33483],[-3.40605,53.33459],[-3.40606,53.33454],[-3.40642,53.33437],[-3.40661,53.33428],[-3.40656,53.33424],[-3.40669,53.33418],[-3.40689,53.33433],[-3.40681,53.33436],[-3.40696,53.33448],[-3.4069,53.33451],[-3.40695,53.33455]] ]}},
{ "type":"Feature","properties":{"osm_way_id":"616181564","name":"Aldi","building":"yes","shop":"supermarket","other":{"brand":"ALDI","brand:wikidata":"Q41171672","brand:wikipedia":"en:Aldi"}}, "geometry":{"type":"Polygon","coordinates":[[[ -3.50588,53.31457],[-3.5057,53.31446],[-3.50525,53.31416],[-3.50567,53.31393],[-3.50602,53.31416],[-3.5061,53.31411],[-3.50621,53.31419],[-3.50612,53.31423],[-3.50629,53.31435],[-3.50588,53.31457]] ]}},
{ "type":"Feature","properties":{"osm_way_id":"629076761","name":"Aldi","building":"yes","shop":"supermarket","other":{"brand":"ALDI","brand:wikidata":"Q41171672","brand:wikipedia":"en:Aldi","wheelchair":"yes"}}, "geometry":{"type":"Polygon","coordinates":[[[ -3.41241,53.18721],[-3.41251,53.18743],[-3.41261,53.18766],[-3.41262,53.1877],[-3.41231,53.18775],[-3.41233,53.18779],[-3.41216,53.18782],[-3.41191,53.18729],[-3.41241,53.18721]] ]}},
{ "type":"Feature","properties":{"osm_way_id":"847977792","name":"Co-op Food - Bodelwyddan","building":"yes","shop":"supermarket","other":{"addr:city":"Bodelwyddan","addr:postcode":"LL18 5TE","addr:street":"TÅ· Fry Lane","brand":"Co-op Food","brand:wikidata":"Q3277439","brand:wikipedia":"en:Co-op Food","operator":"Co-op","website":"https:\/\/finder.coop.co.uk\/food\/store\/LL18-5TE\/ty-fry-lane"}}, "geometry":{"type":"Polygon","coordinates":[[[ -3.50652,53.2697],[-3.50637,53.2698],[-3.50611,53.26964],[-3.50625,53.26954],[-3.50652,53.2697]] ]}}
]
}
