{
"type": "FeatureCollection",
"features": [
{ "type":"Feature","properties":{"osm_id":"1801589902","name":"Handy Distribution","other":{"building":"warehouse","industrial":"distributor"}}, "geometry":{"type":"Point","coordinates":[-1.75041,51.58378 ]}},
{ "type":"Feature","properties":{"osm_way_id":"184884648","name":"Aldi Distribution Centre","building":"warehouse","other":{"addr:city":"Swindon","addr:postcode":"SN3 4AL","addr:street":"Scimitar Way"}}, "geometry":{"type":"MultiPolygon","coordinates":[[[[-1.74198,51.59625],[-1.74198,51.59532],[-1.74287,51.59532],[-1.74287,51.59517],[-1.74197,51.59517],[-1.74197,51.59494],[-1.74037,51.59494],[-1.74037,51.59497],[-1.73744,51.59497],[-1.73744,51.59479],[-1.73724,51.59479],[-1.73723,51.59624],[-1.74015,51.59625],[-1.74015,51.59621],[-1.74175,51.59621],[-1.74175,51.59625],[-1.74198,51.59625]]]]}},
{ "type":"Feature","properties":{"osm_way_id":"399912372","name":"Freedog Urban Activity Centres","building":"warehouse","leisure":"sports_centre","sport":"gymnastics","other":{"addr:city":"Swindon","addr:housenumber":"30 ","addr:street":"Bramble Road"}}, "geometry":{"type":"MultiPolygon","coordinates":[[[[-1.76429,51.57636],[-1.76423,51.57588],[-1.7633,51.57593],[-1.76336,51.57641],[-1.76429,51.57636]]]]}},
{ "type":"Feature","properties":{"osm_way_id":"508832714","building":"warehouse"},"geometry":{"type":"MultiPolygon","coordinates":[[[[-1.77159,51.59676],[-1.77167,51.59601],[-1.77182,51.59602],[-1.77185,51.59583],[-1.77012,51.59575],[-1.77012,51.59569],[-1.76965,51.59567],[-1.76952,51.59681],[-1.77065,51.59686],[-1.77067,51.59672],[-1.77159,51.59676]]]]}},
{ "type":"Feature","properties":{"osm_way_id":"538772780","building":"warehouse"},"geometry":{"type":"MultiPolygon","coordinates":[[[[-1.81605,51.56607],[-1.81589,51.56589],[-1.81542,51.56606],[-1.81559,51.56624],[-1.81605,51.56607]]]]}},
{ "type":"Feature","properties":{"osm_way_id":"569275825","name":"TS Tech","building":"warehouse","other":{"addr:city":"Highworth, Swindon","addr:housename":"Blackworth Industrial Estate","addr:postcode":"SN6 7NA","addr:street":"Blackworth","website":"http:\/\/www.tstech.co.jp\/english\/"}}, "geometry":{"type":"MultiPolygon","coordinates":[[[[-1.71361,51.64125],[-1.71305,51.64125],[-1.71305,51.64118],[-1.71257,51.64118],[-1.71257,51.64089],[-1.71246,51.64089],[-1.71245,51.64069],[-1.71192,51.64069],[-1.71192,51.64046],[-1.7116,51.64046],[-1.71159,51.63975],[-1.71285,51.63975],[-1.71285,51.64081],[-1.71361,51.64081],[-1.71361,51.64125]]]]}},
{ "type":"Feature","properties":{"osm_way_id":"571116770","building":"warehouse","other":{"building:levels":"1"}}, "geometry":{"type":"MultiPolygon","coordinates":[[[[-1.71138,51.64153],[-1.71139,51.64138],[-1.71116,51.64138],[-1.71115,51.64152],[-1.71138,51.64153]]]]}},
{ "type":"Feature","properties":{"osm_way_id":"571116771","building":"warehouse","other":{"building:levels":"2"}}, "geometry":{"type":"MultiPolygon","coordinates":[[[[-1.71141,51.64106],[-1.71122,51.64105],[-1.71123,51.64087],[-1.71142,51.64087],[-1.71141,51.64106]]]]}},
{ "type":"Feature","properties":{"osm_way_id":"1025558682","name":"Amazon BRS2","building":"warehouse","other":{"building:levels":"4"}}, "geometry":{"type":"MultiPolygon","coordinates":[[[[-1.71929,51.57684],[-1.71775,51.57553],[-1.71308,51.5776],[-1.71329,51.57777],[-1.71344,51.57774],[-1.71415,51.5783],[-1.71483,51.57885],[-1.71536,51.5786],[-1.71929,51.57684]]]]}}
]
}
