{
"type": "FeatureCollection",
"features": [
{ "type":"Feature","properties":{"osm_way_id":"121659932","name":"Adeilad Claddings","building":"warehouse","other":{"addr:city":"Llanwrda","addr:housename":"The Stores","addr:postcode":"SA19 8EH","addr:street":"Station Road","alt_name":"Ad-Clad"}}, "geometry":{"type":"MultiPolygon","coordinates":[[[[-3.87317,51.96397],[-3.87366,51.96374],[-3.87295,51.96316],[-3.87251,51.96336],[-3.8727,51.96352],[-3.87282,51.96363],[-3.87293,51.96378],[-3.87295,51.96397],[-3.87317,51.96397]]]]}},
{ "type":"Feature","properties":{"osm_way_id":"218696796","building":"warehouse"},"geometry":{"type":"MultiPolygon","coordinates":[[[[-4.6079,51.81827],[-4.60619,51.81819],[-4.6061,51.81889],[-4.60642,51.8189],[-4.60675,51.81891],[-4.60677,51.81875],[-4.60729,51.81877],[-4.60729,51.81885],[-4.60753,51.81886],[-4.60754,51.81878],[-4.60784,51.8188],[-4.6079,51.81827]]]]}},
{ "type":"Feature","properties":{"osm_way_id":"318858242","name":"CCF Emlyn","building":"warehouse","shop":"country_store","other":{"addr:city":"Castell Newydd Emlyn \/ Newcastle Emlyn","addr:postcode":"SA38 9DX","addr:street":"Heol y Bont \/ Bridge Street","facebook":"https:\/\/www.facebook.com\/ccfagri","old_name":"Emlyn Amaethyddol Cymdeithas Ltd;Emlyn Agricultural Society Ltd;Salutation Hotel;Salutation Inn","operator":"Clynderwen & Cardiganshire Farmers Ltd","phone":"+44 1239 710443","website":"http:\/\/www.ccfagri.co.uk\/"}}, "geometry":{"type":"MultiPolygon","coordinates":[[[[-4.46623,52.04006],[-4.4657,52.03996],[-4.46572,52.03992],[-4.46554,52.03988],[-4.4656,52.03976],[-4.46579,52.0398],[-4.46586,52.03966],[-4.4662,52.03973],[-4.46617,52.03979],[-4.46667,52.03989],[-4.46663,52.03997],[-4.46644,52.03993],[-4.46643,52.03995],[-4.4664,52.03994],[-4.46641,52.03992],[-4.46631,52.03991],[-4.4663,52.03992],[-4.46623,52.04006]]]]}},
{ "type":"Feature","properties":{"osm_way_id":"329735611","name":"The Beacon Workshops","building":"warehouse","other":{"old_name":"Technium Performance Engineering - workshops"}}, "geometry":{"type":"MultiPolygon","coordinates":[[[[-4.11891,51.69781],[-4.11896,51.69772],[-4.11908,51.69739],[-4.11866,51.69734],[-4.11862,51.69735],[-4.11846,51.69771],[-4.11864,51.69774],[-4.11891,51.69781]]]]}},
{ "type":"Feature","properties":{"osm_way_id":"399879196","building":"warehouse"},"geometry":{"type":"MultiPolygon","coordinates":[[[[-4.11974,51.69829],[-4.11937,51.69822],[-4.11925,51.69849],[-4.11961,51.69855],[-4.11974,51.69829]]]]}},
{ "type":"Feature","properties":{"osm_way_id":"635451528","building":"warehouse"},"geometry":{"type":"MultiPolygon","coordinates":[[[[-3.99514,51.87644],[-3.9946,51.87656],[-3.99445,51.87629],[-3.995,51.87618],[-3.99514,51.87644]]]]}},
{ "type":"Feature","properties":{"osm_way_id":"667337031","building":"warehouse"},"geometry":{"type":"MultiPolygon","coordinates":[[[[-4.05461,51.71309],[-4.05409,51.7124],[-4.05305,51.71269],[-4.05332,51.71305],[-4.05324,51.71307],[-4.05338,51.71326],[-4.05383,51.71313],[-4.05394,51.71328],[-4.05461,51.71309]]]]}}
]
}
