{
"type": "FeatureCollection",
"features": [
{ "type":"Feature","properties":{"osm_id":"527827719","name":"The Co-operative Food","other":{"addr:city":"Sandown","addr:country":"GB","addr:housenumber":"63,65,67","addr:postcode":"PO36 8AD","addr:street":"High Street","alt_name":"Coop","brand:wikipedia":"en:Co-op Food","contact:phone":"+44 1983 403159","contact:website":"https:\/\/finder.coop.co.uk\/food\/store\/PO36-8AD\/63-67-high-street","fhrs:id":"1026708","opening_hours":"Mo-Su 07:00-22:00","pay_point":"yes","shop":"supermarket","wheelchair":"yes"}}, "geometry":{"type":"Point","coordinates":[-1.153,50.65481 ]}},
{ "type":"Feature","properties":{"osm_id":"3926713732","other":{"access":"yes","defibrillator:location":"On outer wall of Morrisons, by South Street","emergency":"defibrillator","indoor":"no","opening_hours":"24\/7","wheelchair":"yes"}}, "geometry":{"type":"Point","coordinates":[-1.29244,50.69871 ]}},
{ "type":"Feature","properties":{"osm_id":"4570040553","name":"Sainsbury's","ref":"2245","other":{"addr:city":"Cowes","addr:country":"GB","addr:housenumber":"129,130","addr:postcode":"PO31 7AY","addr:street":"High Street","alt_name":"Sainsbury's West Cowes Superstore","brand":"Sainsbury's","brand:wikidata":"Q152096","brand:wikipedia":"en:Sainsbury's","contact:facebook":"https:\/\/www.facebook.com\/sainsburys","contact:phone":"+44 1983 327 200","contact:twitter":"@sainsburys","contact:website":"https:\/\/stores.sainsburys.co.uk\/2245\/west-cowes","fhrs:id":"540918","opening_hours":"Mo-Sa 07:00-22:00; Su 10:30-16:30","shop":"supermarket","wheelchair":"yes"}}, "geometry":{"type":"Point","coordinates":[-1.29727,50.76113 ]}},
{ "type":"Feature","properties":{"osm_id":"5488048964","name":"The Co-operative Food","other":{"addr:city":"Ventnor","addr:country":"GB","addr:housenumber":"1,3","addr:postcode":"PO38 1ST","addr:street":"Pier Street","alt_name":"Coop","atm":"yes","brand:wikipedia":"en:Co-op Food","contact:phone":"+44 1983 853 047","contact:website":"https:\/\/finder.coop.co.uk\/food\/store\/PO38-1ST\/1-pier-street","fhrs:id":"1026706","opening_hours":"Mo-Sa 07:00-22:00; Su 10:00-16:00","self_service":"yes","shop":"supermarket","wheelchair":"yes"}}, "geometry":{"type":"Point","coordinates":[-1.20558,50.59488 ]}},
{ "type":"Feature","properties":{"osm_id":"6203464013","name":"Norris Family Grocers","other":{"addr:city":"Niton","addr:country":"GB","addr:postcode":"PO38 2DB","addr:street":"Newport Road","atm":"yes","brand":"Nisa","fhrs:id":"540412","shop":"supermarket","source:addr":"FHRS Open Data","survey:date":"2020-02-07","website":"http:\/\/www.norrisfamilygrocers.co.uk"}}, "geometry":{"type":"Point","coordinates":[-1.2845,50.58849 ]}},
{ "type":"Feature","properties":{"osm_id":"8280874386","other":{"check_date":"2020-12-31","defibrillator:location":"On the outside wall of Morrisons, to the left of the main entrance","emergency":"defibrillator","indoor":"no","level":"0","opening_hours":"24\/7","wheelchair":"yes"}}, "geometry":{"type":"Point","coordinates":[-1.1817,50.64695 ]}},
{ "type":"Feature","properties":{"osm_way_id":"8926929","name":"Tesco Extra","building":"supermarket","shop":"supermarket","other":{"addr:city":"Ryde","addr:country":"GB","addr:housename":"Westridge Centre","addr:postcode":"PO33 1QS","addr:street":"Brading Road","alt_name":"Tesco Ryde","brand":"Tesco Extra","brand:wikidata":"Q25172225","brand:wikipedia":"en:Tesco Extra","contact:phone":"+44 3450 269 560","contact:website":"https:\/\/www.tesco.com\/store-locator\/uk\/?bid=5567","fhrs:id":"540993","opening_hours":"Mo-Sa 06:00-24:00; Su 10:00-16:00","operator":"Tesco plc","ref":"5567","self_checkout":"yes","sells:tobacco":"yes","wheelchair":"yes"}}, "geometry":{"type":"MultiPolygon","coordinates":[[[[-1.14439,50.71121],[-1.14362,50.71129],[-1.14365,50.71142],[-1.14339,50.71145],[-1.14334,50.71128],[-1.14273,50.71134],[-1.14276,50.71146],[-1.1425,50.71148],[-1.14249,50.71144],[-1.14239,50.71145],[-1.1423,50.71112],[-1.1424,50.71111],[-1.1423,50.71072],[-1.1423,50.7107],[-1.14236,50.71069],[-1.14278,50.71065],[-1.14371,50.71055],[-1.14418,50.7105],[-1.14418,50.71052],[-1.14432,50.71113],[-1.14437,50.71112],[-1.14439,50.71121]]]]}},
{ "type":"Feature","properties":{"osm_way_id":"8927821","name":"Morrisons","building":"supermarket","shop":"supermarket","other":{"addr:city":"Newport","addr:country":"GB","addr:housenumber":"30","addr:postcode":"PO30 1JQ","addr:street":"South Street","alt_name":"Morrisons Isle of Wight - Newport","brand":"Morrisons","brand:wikidata":"Q922344","brand:wikipedia":"en:Morrisons","contact:phone":"+44 1983 822419","contact:website":"https:\/\/morrisons.com\/","fhrs:id":"540957","opening_hours":"Mo-Sa 07:00-22:00; Su 10:00-16:00","operator":"Morrisons Supermarkets plc","self_checkout":"yes","sells:tobacco":"yes","source:addr":"https:\/\/my.morrisons.com\/storefinder\/355","survey:date":"2019-11-20","toilets":"yes","toilets:access":"customers","toilets:wheelchair":"yes","wheelchair":"yes"}}, "geometry":{"type":"MultiPolygon","coordinates":[[[[-1.29246,50.69867],[-1.29244,50.69871],[-1.29243,50.69872],[-1.29235,50.69873],[-1.29235,50.69874],[-1.29193,50.69877],[-1.29192,50.69867],[-1.29166,50.69869],[-1.29165,50.69859],[-1.29141,50.69861],[-1.29134,50.69812],[-1.29213,50.69807],[-1.29212,50.69802],[-1.29228,50.69802],[-1.29242,50.6981],[-1.29246,50.69867]]]]}},
{ "type":"Feature","properties":{"osm_way_id":"8928196","name":"Lidl","building":"supermarket","shop":"supermarket","other":{"addr:city":"Newport","addr:country":"GB","addr:postcode":"PO30 5GL","addr:street":"River Way","alt_name":"Lidl Newport","brand":"Lidl","brand:wikidata":"Q151954","brand:wikipedia":"en:Lidl","cash_withdrawal":"debit","cash_withdrawal:fee":"no","cash_withdrawal:foreign_cards":"no","cash_withdrawal:limit":"50","cash_withdrawal:purchase_minimum":"no","cash_withdrawal:purchase_required":"yes","cash_withdrawal:type":"checkout","fhrs:id":"541810","opening_hours":"Mo-Sa 07:00-22:00; Su 10:00-16:00; PH 08:00-20:00","ref":"1279","self_checkout":"no","sells:tobacco":"no","toilets":"yes","toilets:access":"customers","wheelchair":"yes"}}, "geometry":{"type":"MultiPolygon","coordinates":[[[[-1.29533,50.70255],[-1.29454,50.70284],[-1.29427,50.70256],[-1.29435,50.70253],[-1.29446,50.70249],[-1.2945,50.70253],[-1.29496,50.70235],[-1.29511,50.7025],[-1.29524,50.70245],[-1.29533,50.70255]]]]}},
{ "type":"Feature","properties":{"osm_way_id":"61046238","name":"The Co-operative Food","building":"supermarket","shop":"supermarket","other":{"addr:city":"Ryde","addr:country":"GB","addr:housenumber":"4","addr:postcode":"PO33 2SX","addr:street":"Anglesea Street","alt_name":"Coop","brand:wikipedia":"en:Co-op Food","check_date:opening_hours":"2021-08-29","contact:facebook":"https:\/\/www.facebook.com\/coopukfood","contact:phone":"+44 1983 618 900","contact:twitter":"@coopuk","contact:website":"https:\/\/finder.coop.co.uk\/food\/store\/PO33-2SX\/4-anglesea-street","fhrs:id":"540487","opening_hours":"Mo-Sa 06:00-22:00; Su 10:00-16:00","operator":"Co-operative Group Ltd","ref":"9725","self_checkout":"yes","wheelchair":"yes"}}, "geometry":{"type":"MultiPolygon","coordinates":[[[[-1.1626,50.72894],[-1.16246,50.72894],[-1.16247,50.72891],[-1.1624,50.72891],[-1.16217,50.72891],[-1.16209,50.72891],[-1.16209,50.72894],[-1.16201,50.72894],[-1.16177,50.72894],[-1.16172,50.72894],[-1.16169,50.7289],[-1.16169,50.72887],[-1.16173,50.72884],[-1.16177,50.72883],[-1.16177,50.72859],[-1.16174,50.72858],[-1.16174,50.72856],[-1.16176,50.72854],[-1.16178,50.72853],[-1.16178,50.7285],[-1.16207,50.72849],[-1.16207,50.72853],[-1.16241,50.72853],[-1.16241,50.7285],[-1.16254,50.7285],[-1.16254,50.72853],[-1.1626,50.72853],[-1.1626,50.72865],[-1.16261,50.7288],[-1.16265,50.72882],[-1.16266,50.72886],[-1.16265,50.7289],[-1.1626,50.72894]]]]}},
{ "type":"Feature","properties":{"osm_way_id":"141482615","name":"Waitrose","building":"supermarket","shop":"supermarket","other":{"addr:city":"East Cowes","addr:country":"GB","addr:postcode":"PO32 6SP","addr:street":"Well Road","brand":"Waitrose & Partners","brand:wikidata":"Q771734","brand:wikipedia":"en:Waitrose & Partners","contact:facebook":"https:\/\/www.facebook.com\/waitroseandpartners\/","contact:phone":"+44 1983 282413","contact:twitter":"@waitrose","contact:website":"https:\/\/www.waitrose.com\/bf_home\/bf\/313.html","fhrs:id":"542003","opening_hours":"Mo-Sa 08:00-20:00; Su 10:00-16:00","operator":"Waitrose & Partners","ref":"313","survey:date":"2019-11-09"}}, "geometry":{"type":"MultiPolygon","coordinates":[[[[-1.28873,50.75892],[-1.28843,50.75888],[-1.28839,50.75892],[-1.28788,50.75872],[-1.28783,50.75876],[-1.28768,50.75871],[-1.28772,50.75866],[-1.28777,50.7586],[-1.28782,50.75861],[-1.28806,50.75837],[-1.28875,50.75863],[-1.28879,50.75868],[-1.28879,50.75874],[-1.28873,50.75892]]]]}},
{ "type":"Feature","properties":{"osm_way_id":"161294968","name":"The Co-operative Food","building":"supermarket","shop":"supermarket","other":{"addr:city":"Cowes","addr:country":"GB","addr:housenumber":"155","addr:postcode":"PO31 7EL","addr:street":"Mill Hill Road","alt_name":"Coop","brand:wikipedia":"en:Co-op Food","check_date:opening_hours":"2021-07-22","contact:phone":"+44 1983 289868","contact:website":"https:\/\/finder.coop.co.uk\/food\/store\/PO31-7EL\/155-mill-hill-road","fhrs:id":"540622","level":"0","opening_hours":"Mo-Su 06:00-23:00","opening_hours:post_office":"Mo-Su 06:00-23:00","operator":"The Southern Co-operative","survey:date":"2019-12-16","wheelchair":"yes"}}, "geometry":{"type":"MultiPolygon","coordinates":[[[[-1.30199,50.75428],[-1.30201,50.7545],[-1.30243,50.75449],[-1.30242,50.75431],[-1.30238,50.75431],[-1.30238,50.75427],[-1.30199,50.75428]]]]}},
{ "type":"Feature","properties":{"osm_way_id":"173445381","name":"Morrisons","building":"supermarket","shop":"supermarket","other":{"addr:city":"Sandown","addr:country":"GB","addr:postcode":"PO36 9PA","addr:street":"Newport Road","addr:village":"Lake","alt_name":"Morrisons Lake","brand":"Morrisons","brand:wikidata":"Q922344","brand:wikipedia":"en:Morrisons","contact:phone":"+44 1983 401441","contact:website":"https:\/\/my.morrisons.com\/storefinder\/361","fhrs:id":"541343","level":"0","opening_hours":"Mo-Sa 07:00-22:00; Su 10:00-16:00","self_checkout":"yes","sells:tobacco":"yes","source:addr:postcode":"FSA Food Hygiene Ratings Database","survey:date":"2019-11-21","toilets":"yes","toilets:access":"customers","wheelchair":"yes"}}, "geometry":{"type":"MultiPolygon","coordinates":[[[[-1.18177,50.64668],[-1.18168,50.64667],[-1.18169,50.64661],[-1.1814,50.64658],[-1.18138,50.64664],[-1.18076,50.64658],[-1.18059,50.64725],[-1.1815,50.64734],[-1.18159,50.64699],[-1.18169,50.647],[-1.1817,50.64695],[-1.18177,50.64668]]]]}},
{ "type":"Feature","properties":{"osm_way_id":"208670607","name":"Sainsbury's","building":"supermarket","shop":"supermarket","other":{"addr:city":"Newport","addr:country":"GB","addr:postcode":"PO30 5ZB","addr:street":"Foxes Road","alt_name":"Sainsbury's Isle of Wight Superstore","brand":"Sainsbury's","brand:wikidata":"Q152096","brand:wikipedia":"en:Sainsbury's","contact:facebook":"https:\/\/www.facebook.com\/sainsburys","contact:phone":"+44 1983 527431","contact:twitter":"@sainsburys","contact:website":"https:\/\/stores.sainsburys.co.uk\/2105\/isle-of-wight","fhrs:id":"540493","opening_hours":"Mo-Sa 07:00-22:00; Sa 10:00-16:00","ref":"2105","self_checkout":"yes","sells:tobacco":"yes","source:addr":"FHRS Open Data","survey:date":"2019-11-09","wheelchair":"yes"}}, "geometry":{"type":"MultiPolygon","coordinates":[[[[-1.30074,50.70083],[-1.3005,50.70094],[-1.30026,50.70105],[-1.30029,50.70109],[-1.29986,50.7012],[-1.29943,50.70138],[-1.2996,50.70163],[-1.2999,50.70209],[-1.30095,50.7018],[-1.30068,50.70143],[-1.30055,50.7012],[-1.30059,50.70113],[-1.30081,50.70106],[-1.30085,50.70098],[-1.30074,50.70083]]]]}},
{ "type":"Feature","properties":{"osm_way_id":"249742598","name":"Aldi","building":"supermarket","shop":"supermarket","other":{"addr:city":"Cowes","addr:country":"GB","addr:postcode":"PO31 8BF","addr:street":"Airfield Way","alt_name":"Aldi Cowes","brand":"ALDI","brand:wikidata":"Q41171672","brand:wikipedia":"en:Aldi","contact:email":"customer.service@aldi.co.uk","contact:facebook":"https:\/\/www.facebook.com\/AldiUK","contact:phone":"+44 8000 420 800","contact:twitter":"@AldiUK","contact:website":"https:\/\/www.aldi.co.uk\/store\/s-uk-E0782","fhrs:id":"616041","opening_hours":"Mo-Sa 08:00-22:00, Su 10:00-16:00","operator":"Aldi Stores Limited","ref":"s-uk-E0782"}}, "geometry":{"type":"MultiPolygon","coordinates":[[[[-1.30583,50.74941],[-1.30561,50.74941],[-1.30531,50.74941],[-1.30531,50.74939],[-1.30531,50.74937],[-1.30526,50.74937],[-1.30528,50.74883],[-1.30548,50.74882],[-1.30548,50.7489],[-1.30579,50.74891],[-1.30578,50.74914],[-1.30581,50.74915],[-1.30583,50.74915],[-1.30583,50.74936],[-1.30583,50.74941]]]]}},
{ "type":"Feature","properties":{"osm_way_id":"281305750","name":"The Food Warehouse","building":"retail","shop":"supermarket","other":{"addr:city":"Newport","addr:country":"GB","addr:housename":"Wakes Retail Park","addr:postcode":"PO30 5UZ","addr:street":"River Way","addr:unit":"B","brand":"The Food Warehouse","brand:wikidata":"Q87263899","fhrs:id":"1320046","opening_hours":"Mo-Sa 08:00-20:00; Su 10:00-16:00","survey:date":"2020-09-25","website":"https:\/\/www.thefoodwarehouse.com\/store-locator\/newport-isle-of-wight"}}, "geometry":{"type":"MultiPolygon","coordinates":[[[[-1.29315,50.70379],[-1.29272,50.70388],[-1.29289,50.70422],[-1.29333,50.70412],[-1.29315,50.70379]]]]}},
{ "type":"Feature","properties":{"osm_way_id":"314740410","name":"The Co-operative Food","building":"supermarket","shop":"supermarket","other":{"addr:city":"East Cowes","addr:country":"GB","addr:housenumber":"16,18,20,22,24","addr:postcode":"PO32 6QY","addr:street":"York Avenue","alt_name":"Coop","brand:wikipedia":"en:Co-op Food","contact:phone":"+44 1983 293414","contact:website":"https:\/\/finder.coop.co.uk\/food\/store\/PO32-6QY\/york-avenue","fhrs:id":"540932","opening_hours":"Mo-Su 07:00-22:00","self_service":"no","wheelchair":"yes"}}, "geometry":{"type":"MultiPolygon","coordinates":[[[[-1.28839,50.75807],[-1.28821,50.75822],[-1.28799,50.75812],[-1.28817,50.75796],[-1.28814,50.75795],[-1.28823,50.75789],[-1.28827,50.75791],[-1.28847,50.75799],[-1.28841,50.75805],[-1.28839,50.75807]]]]}},
{ "type":"Feature","properties":{"osm_way_id":"426808139","name":"M&S Foodhall","building":"yes","shop":"supermarket","other":{"addr:city":"Cowes","addr:country":"GB","addr:postcode":"PO31 7XH","addr:street":"Terminus Road","alt_name":"M&S Cowes Simply Food","brand":"Marks & Spencer","brand:wikidata":"Q714491","brand:wikipedia":"en:Marks & Spencer","contact:facebook":"https:\/\/www.facebook.com\/MarksandSpencer","contact:instagram":"https:\/\/www.instagram.com\/marksandspencer","contact:phone":"+44 1983 329 296","contact:twitter":"@marksandspencer","contact:website":"https:\/\/www.marksandspencer.com\/","fhrs:id":"541690","not:addr:postcode":"PO31 7TF","opening_hours":"Mo-Sa 08:30-19:00; Su 10:30-16:30","toilets":"yes","toilets:access":"customers"}}, "geometry":{"type":"MultiPolygon","coordinates":[[[[-1.29925,50.762],[-1.29912,50.76181],[-1.29859,50.76196],[-1.29877,50.76222],[-1.29917,50.7621],[-1.29913,50.76203],[-1.29925,50.762]]]]}},
{ "type":"Feature","properties":{"osm_way_id":"438032043","name":"Aldi","building":"supermarket","shop":"supermarket","other":{"addr:city":"Sandown","addr:country":"GB","addr:housename":"Spithead Business Centre","addr:postcode":"PO36 9FT","addr:street":"Whitecross Lane","addr:village":"Lake","alt_name":"Aldi Lake","brand":"ALDI","brand:wikidata":"Q41171672","brand:wikipedia":"en:Aldi","building:levels":"1","contact:email":"customer.service@aldi.co.uk","contact:facebook":"https:\/\/www.facebook.com\/AldiUK","contact:phone":"+44 8000 420 800","contact:twitter":"@AldiUK","contact:website":"https:\/\/www.aldi.co.uk\/store\/s-uk-E1055","fhrs:id":"937276","opening_hours":"Mo-Sa 08:00-22:00, Su 10:00-16:00","ref":"s-uk-E1055","self_checkout":"no","toilets":"yes","toilets:access":"customers","wheelchair":"yes"}}, "geometry":{"type":"MultiPolygon","coordinates":[[[[-1.17953,50.64576],[-1.17912,50.64565],[-1.17943,50.64516],[-1.17961,50.6452],[-1.17957,50.64525],[-1.17981,50.64532],[-1.17966,50.64552],[-1.1797,50.64553],[-1.17953,50.64576]]]]}},
{ "type":"Feature","properties":{"osm_way_id":"454356957","name":"Co-op Food","building":"supermarket","shop":"supermarket","other":{"addr:city":"Freshwater","addr:country":"GB","addr:county":"Isle of Wight","addr:postcode":"PO40 9UH","addr:street":"Afton Road","alt_name":"Coop","brand":"Co-op Food","brand:wikidata":"Q3277439","brand:wikipedia":"en:Co-op Food","contact:phone":"+44 1983 758 710","contact:website":"https:\/\/finder.coop.co.uk\/food\/store\/PO40-9UH\/afton-road","fhrs:id":"810657","opening_hours":"Mo-Sa 07:00-22:00; Su 10:00-16:00","operator":"The Southern Co-operative"}}, "geometry":{"type":"MultiPolygon","coordinates":[[[[-1.5151,50.6802],[-1.51471,50.6805],[-1.51474,50.68051],[-1.51491,50.6806],[-1.51512,50.68071],[-1.51533,50.68056],[-1.51556,50.68068],[-1.51567,50.68059],[-1.51556,50.68053],[-1.51547,50.68048],[-1.51539,50.68044],[-1.51545,50.68039],[-1.5151,50.6802]]]]}},
{ "type":"Feature","properties":{"osm_way_id":"491627397","name":"Asda","building":"supermarket","shop":"supermarket","other":{"addr:city":"Newport","addr:country":"GB","addr:postcode":"PO30 2QH","addr:street":"St Georges Way","brand":"Asda","brand:wikidata":"Q297410","brand:wikipedia":"en:Asda","contact:facebook":"https:\/\/www.facebook.com\/asda\/","contact:twitter":"@asda","contact:website":"https:\/\/storelocator.asda.com\/south-east\/newport\/st-georges-way","fhrs:id":"989474","opening_hours":"Mo-Fr 06:00-24:00; Sa 06:00-22:00; Su 10:00-16:00","operator":"Asda Stores Ltd","self_checkout":"yes","source:addr":"FHRS Open Data","toilets":"yes","toilets:access":"customers","toilets:wheelchair":"yes","wheelchair":"yes"}}, "geometry":{"type":"MultiPolygon","coordinates":[[[[-1.28433,50.69317],[-1.28436,50.69339],[-1.28433,50.69339],[-1.28435,50.69356],[-1.28388,50.69359],[-1.2838,50.69308],[-1.28375,50.6927],[-1.28396,50.69269],[-1.28393,50.69247],[-1.28503,50.69241],[-1.28507,50.69273],[-1.28499,50.69274],[-1.28501,50.69284],[-1.28508,50.69284],[-1.2851,50.69295],[-1.28498,50.69295],[-1.28501,50.69313],[-1.28433,50.69317]]]]}},
{ "type":"Feature","properties":{"osm_way_id":"797610830","name":"Lidl","building":"supermarket","shop":"supermarket","other":{"addr:city":"Shanklin","addr:country":"GB","addr:postcode":"PO37 7HZ","addr:street":"Landguard Manor Road","alt_name":"Lidl Shanklin","brand":"Lidl","brand:wikidata":"Q151954","brand:wikipedia":"en:Lidl","building:levels":"1","cash_withdrawal":"debit","cash_withdrawal:fee":"no","cash_withdrawal:foreign_cards":"no","cash_withdrawal:limit":"50","cash_withdrawal:purchase_minimum":"no","cash_withdrawal:purchase_required":"yes","cash_withdrawal:type":"checkout","centralkey":"no","fhrs:id":"541768","handwashing:soap":"yes","not:addr:postcode":"PO37 7BE","opening_hours":"Mo-Sa 08:00-22:00; Su 10:00-16:00; PH 08:00-20:00","opening_hours:covid19":"same","ref":"951","self_checkout":"no","sells:tobacco":"no","toilets":"yes","toilets:access":"customers","toilets:changing_table":"no","toilets:disposal":"flush","toilets:hand_drying":"electric_hand_dryer","toilets:handwashing":"yes","toilets:hot_water":"yes","toilets:paper_supplied":"yes","toilets:position":"seated","toilets:wheelchair":"limited","wheelchair":"yes"}}, "geometry":{"type":"MultiPolygon","coordinates":[[[[-1.18178,50.63373],[-1.18178,50.63372],[-1.18177,50.63371],[-1.18154,50.63347],[-1.18244,50.63312],[-1.18252,50.63321],[-1.18242,50.63325],[-1.18255,50.63338],[-1.18232,50.63347],[-1.18235,50.6335],[-1.18202,50.63363],[-1.18178,50.63373]]]]}}
]
}
