{
"type": "FeatureCollection",
"features": [
{ "type":"Feature","properties":{"osm_id":"257464734","name":"Tesco Express","other":{"brand":"Tesco Express","brand:wikidata":"Q98456772","contact:website":"https:\/\/www.tesco.com\/store-locator\/london\/327-343-king-st","name:fa":"تسکو اکسپرس","opening_hours":"Mo-Su 07:00-23:00","shop":"supermarket"}}, "geometry":{"type":"Point","coordinates":[-0.24161,51.49336 ]}},
{ "type":"Feature","properties":{"osm_id":"313617786","name":"Thai Smile","other":{"addr:city":"London","addr:housenumber":"283-287","addr:postcode":"W6 9NH","addr:street":"King Street","fhrs:id":"346087","shop":"supermarket"}}, "geometry":{"type":"Point","coordinates":[-0.23956,51.49327 ]}},
{ "type":"Feature","properties":{"osm_id":"352644243","name":"Budgens","other":{"brand":"Budgens","brand:wikidata":"Q4985016","brand:wikipedia":"en:Budgens","shop":"supermarket"}}, "geometry":{"type":"Point","coordinates":[-0.21251,51.48032 ]}},
{ "type":"Feature","properties":{"osm_id":"453670078","name":"Waitrose","other":{"addr:city":"London","addr:housename":"Westfield Centre","addr:postcode":"W12 7GA","branch":"Westfiled, White City","brand":"Waitrose","brand:wikidata":"Q771734","brand:wikipedia":"en:Waitrose & Partners","fhrs:id":"346314","level":"-2","official_name":"Waitrose & Partners","opening_hours":"Mo-Sa 08:00-22:00; Su 12:00-18:00","operator":"Waitrose & Partners","shop":"supermarket","wheelchair":"yes"}}, "geometry":{"type":"Point","coordinates":[-0.21912,51.50641 ]}},
{ "type":"Feature","properties":{"osm_id":"550162481","name":"Tesco Metro","other":{"addr:city":"London","addr:housename":"Broadway Centre","addr:housenumber":"13-16","addr:postcode":"W6 9YD","alt_name":"Tesco Hammersmith Metro","brand":"Tesco Metro","brand:wikidata":"Q57551648","name:fa":"تسکو مترو","shop":"supermarket","wheelchair":"yes"}}, "geometry":{"type":"Point","coordinates":[-0.22378,51.49166 ]}},
{ "type":"Feature","properties":{"osm_id":"610453006","name":"Lidl","other":{"addr:city":"London","addr:country":"GB","addr:housename":"West 12 Shopping Centre","addr:housenumber":"114-125","addr:postcode":"W12 8PP","brand":"Lidl","brand:wikidata":"Q151954","brand:wikipedia":"en:Lidl","fhrs:id":"1055884","opening_hours":"Mo-Sa 08:00-22:00; Su 11:00-17:00","opening_hours:covid19":"open","shop":"supermarket","wheelchair":"yes"}}, "geometry":{"type":"Point","coordinates":[-0.21858,51.50322 ]}},
{ "type":"Feature","properties":{"osm_id":"1667374985","name":"Sainsbury's","other":{"addr:housename":"Fulham Broadway Retail Centre","addr:postcode":"SW6 1BW","alt_name":"Sainsbury's Fulham Broadway","brand":"Sainsbury's","brand:wikidata":"Q152096","brand:wikipedia":"en:Sainsbury's","shop":"supermarket","website":"https:\/\/stores.sainsburys.co.uk\/2055\/fulham-broadway"}}, "geometry":{"type":"Point","coordinates":[-0.19504,51.4808 ]}},
{ "type":"Feature","properties":{"osm_id":"1799402605","name":"Little Waitrose","other":{"brand":"Waitrose & Partners","brand:wikidata":"Q771734","brand:wikipedia":"en:Waitrose & Partners","shop":"supermarket"}}, "geometry":{"type":"Point","coordinates":[-0.21943,51.48393 ]}},
{ "type":"Feature","properties":{"osm_id":"3668994573","name":"Co-op Food","other":{"brand":"Co-op Food","brand:wikidata":"Q3277439","brand:wikipedia":"en:Co-op Food","opening_hours":"Mo-Sa 07:00-23:00; Su 08:00-23:00","shop":"supermarket"}}, "geometry":{"type":"Point","coordinates":[-0.20087,51.47492 ]}},
{ "type":"Feature","properties":{"osm_id":"3781060735","name":"Al-Dimashqi","other":{"addr:city":"London","addr:housenumber":"260-262","addr:postcode":"W12 7JA","addr:street":"Uxbridge Road","phone":"+44 20 8811 1470","shop":"supermarket","website":"https:\/\/aldimashqi.co.uk\/home"}}, "geometry":{"type":"Point","coordinates":[-0.22946,51.50615 ]}},
{ "type":"Feature","properties":{"osm_id":"3782253783","name":"Premier Food & Wine","other":{"addr:city":"London","addr:housenumber":"197","addr:postcode":"W12 9RA","addr:street":"Uxbridge Road","phone":"+44 20 8749 6193","shop":"supermarket","website":"https:\/\/www.premier-stores.co.uk\/our-stores\/premier-food-wine"}}, "geometry":{"type":"Point","coordinates":[-0.23933,51.50635 ]}},
{ "type":"Feature","properties":{"osm_id":"3911003155","name":"Kops Brewery","other":{"historic":"memorial","memorial":"blue_plaque"}}, "geometry":{"type":"Point","coordinates":[-0.18745,51.46749 ]}},
{ "type":"Feature","properties":{"osm_id":"5540412523","name":"Green Bay","other":{"addr:housenumber":"222","addr:street":"North End Road","opening_hours":"Mo-Su 10:00-20:00","shop":"supermarket","website":"https:\/\/www.greenbaysupermarket.co.uk"}}, "geometry":{"type":"Point","coordinates":[-0.20292,51.48587 ]}},
{ "type":"Feature","properties":{"osm_id":"5577331024","name":"GreenBay","other":{"addr:housenumber":"228","addr:street":"North End Road","opening_hours":"Mo-Sa 10:00-20:00; Su 10:00-18:00","shop":"supermarket","website":"https:\/\/www.greenbaysupermarket.co.uk\/"}}, "geometry":{"type":"Point","coordinates":[-0.2029,51.48587 ]}},
{ "type":"Feature","properties":{"osm_id":"7161193877","name":"Marks & Spencer","other":{"addr:city":"London","addr:postcode":"W12 7GA","addr:street":"Ariel Way","brand":"Marks & Spencer","brand:wikidata":"Q714491","brand:wikipedia":"en:Marks & Spencer","level":"-1","opening_hours":"Mo-Sa 10:00-21:00; Su 12:00-18:00","payment:cash":"yes","payment:mastercard":"yes","payment:visa":"yes","phone":"+44 20 8266 2200","shop":"supermarket","website":"https:\/\/www.marksandspencer.com\/stores\/white-city-4297","wheelchair":"yes"}}, "geometry":{"type":"Point","coordinates":[-0.22032,51.50864 ]}},
{ "type":"Feature","properties":{"osm_id":"7795006634","name":"Co-op Food","other":{"brand":"Co-op Food","brand:wikidata":"Q3277439","brand:wikipedia":"en:Co-op Food","shop":"supermarket","website":"https:\/\/finder.coop.co.uk\/food\/store\/SW6-4LX\/100-new-kings-road"}}, "geometry":{"type":"Point","coordinates":[-0.20341,51.47226 ]}},
{ "type":"Feature","properties":{"osm_id":"8613908641","name":"Londis","other":{"addr:housenumber":"98","addr:street":"Adelaide Grove","brand":"Londis","brand:wikidata":"Q21008564","brand:wikipedia":"en:Londis (United Kingdom)","shop":"supermarket"}}, "geometry":{"type":"Point","coordinates":[-0.23739,51.50961 ]}},
{ "type":"Feature","properties":{"osm_id":"8749595525","name":"Co-op Food","other":{"addr:housenumber":"260","addr:street":"Goldhawk Road","brand":"Co-op Food","brand:wikidata":"Q3277439","brand:wikipedia":"en:Co-op Food","opening_hours":"Mo-Sa 07:00-23:00; Su 08:00-22:00","shop":"supermarket"}}, "geometry":{"type":"Point","coordinates":[-0.23892,51.50005 ]}},
{ "type":"Feature","properties":{"osm_id":"9223797322","name":"Lidl","other":{"addr:city":"London","addr:housename":"Kings Mall Shopping Centre","addr:postcode":"W6 0PZ","addr:street":"King Street","addr:unit":"1","brand":"Lidl","brand:wikidata":"Q151954","brand:wikipedia":"en:Lidl","fhrs:id":"1334503","shop":"supermarket","survey:date":"2021-09-29"}}, "geometry":{"type":"Point","coordinates":[-0.22751,51.4932 ]}},
{ "type":"Feature","properties":{"osm_way_id":"146574555","name":"Waitrose","building":"yes","shop":"supermarket","other":{"addr:city":"London","addr:housename":"North End Road","addr:housenumber":"402","addr:postcode":"SW6 1LX","addr:street":"North End Road","alt_name":"Waitrose Fulham","brand":"Waitrose","brand:wikidata":"Q771734","brand:wikipedia":"en:Waitrose & Partners","fhrs:id":"345795","official_name":"Waitrose & Partners","opening_hours":"Mo-Sa 08:00-21:00; Su 11:00-17:00","operator":"Waitrose & Partners","source:addr":"FHRS Open Data"}}, "geometry":{"type":"MultiPolygon","coordinates":[[[[-0.19892,51.48006],[-0.19909,51.48003],[-0.1992,51.47999],[-0.19917,51.47991],[-0.1992,51.47988],[-0.19934,51.47985],[-0.19935,51.47988],[-0.19939,51.47987],[-0.19941,51.47993],[-0.19947,51.47992],[-0.19949,51.47995],[-0.19972,51.47991],[-0.19975,51.47997],[-0.19988,51.48025],[-0.19971,51.48029],[-0.19979,51.48045],[-0.19943,51.48051],[-0.19931,51.48053],[-0.19922,51.48055],[-0.1992,51.48052],[-0.19917,51.48045],[-0.19914,51.48038],[-0.19912,51.48039],[-0.19909,51.48032],[-0.19907,51.48033],[-0.19892,51.48006]]]]}},
{ "type":"Feature","properties":{"osm_way_id":"150568026","name":"Co-op Food","shop":"supermarket","other":{"addr:city":"London","addr:housename":"North End Road","addr:housenumber":"254 - 258","addr:postcode":"SW6 1NJ","addr:street":"North End Road","brand":"Co-op Food","brand:wikidata":"Q3277439","brand:wikipedia":"en:Co-op Food","fhrs:id":"345845","level":"0","opening_hours":"Mo-Sa 09:00-17:30","source:addr":"FHRS Open Data"}}, "geometry":{"type":"MultiPolygon","coordinates":[[[[-0.20179,51.48431],[-0.20225,51.48417],[-0.2022,51.48413],[-0.20216,51.48407],[-0.20212,51.48401],[-0.20232,51.48396],[-0.20255,51.48426],[-0.20235,51.48441],[-0.20236,51.48442],[-0.20229,51.48447],[-0.20218,51.48433],[-0.20206,51.48438],[-0.20187,51.48443],[-0.20179,51.48431]]]]}},
{ "type":"Feature","properties":{"osm_way_id":"151171736","name":"Whole Foods Market","building":"yes","shop":"supermarket","other":{"addr:city":"London","addr:housenumber":"2-6","addr:postcode":"SW6 1AA","addr:street":"Fulham Broadway","brand":"Whole Foods Market","brand:wikidata":"Q1809448","brand:wikipedia":"en:Whole Foods Market","fhrs:id":"666936","website":"https:\/\/www.wholefoodsmarket.co.uk\/stores\/fulham\/"}}, "geometry":{"type":"MultiPolygon","coordinates":[[[[-0.19643,51.48011],[-0.19614,51.48003],[-0.19623,51.4799],[-0.19653,51.47998],[-0.19649,51.48002],[-0.19643,51.48011]]]]}},
{ "type":"Feature","properties":{"osm_way_id":"353165195","name":"Sainsbury's","shop":"supermarket","other":{"addr:city":"London","addr:housenumber":"27","addr:postcode":"SW6 2GD","addr:street":"Townmead Road","alt_name":"Sainsbury's Fulham Wharf Superstore","brand":"Sainsbury's","brand:wikidata":"Q152096","building:levels":"3","building:part":"commercial","opening_hours":"Mo-Sa 07:00-22:00; Su 10:00-16:00","operator":"Sainsbury's","wheelchair":"yes"}}, "geometry":{"type":"MultiPolygon","coordinates":[[[[-0.18798,51.46726],[-0.1879,51.46719],[-0.18782,51.46723],[-0.1878,51.46721],[-0.18664,51.46772],[-0.1867,51.46777],[-0.18673,51.4678],[-0.18745,51.46749],[-0.18765,51.4674],[-0.18798,51.46726]]]]}},
{ "type":"Feature","properties":{"osm_way_id":"374508244","name":"Budgens","building":"yes","shop":"supermarket","other":{"brand":"Budgens","brand:wikidata":"Q4985016","brand:wikipedia":"en:Budgens","building:levels":"4"}}, "geometry":{"type":"MultiPolygon","coordinates":[[[[-0.20061,51.47472],[-0.20062,51.47485],[-0.2004,51.47486],[-0.20039,51.47479],[-0.20061,51.47472]]]]}},
{ "type":"Feature","properties":{"osm_way_id":"562744216","name":"Iceland","building":"yes","shop":"supermarket","other":{"addr:street":"King Street","brand":"Iceland","brand:wikidata":"Q721810"}}, "geometry":{"type":"MultiPolygon","coordinates":[[[[-0.22995,51.49251],[-0.22996,51.49234],[-0.22997,51.49227],[-0.22974,51.49226],[-0.22973,51.4924],[-0.22972,51.4925],[-0.22995,51.49251]]]]}},
{ "type":"Feature","properties":{"osm_way_id":"913200523","name":"Costcutter","building":"yes","shop":"supermarket","other":{"brand":"Costcutter","brand:wikidata":"Q5175072","brand:wikipedia":"en:Costcutter"}}, "geometry":{"type":"MultiPolygon","coordinates":[[[[-0.2339,51.51653],[-0.23393,51.51652],[-0.23391,51.51646],[-0.23376,51.51647],[-0.23377,51.51653],[-0.2339,51.51651],[-0.2339,51.51653]]]]}},
{ "type":"Feature","properties":{"osm_way_id":"931287124","name":"Sham Land","shop":"supermarket","other":{"addr:housenumber":"330-332","addr:street":"Uxbridge Road","phone":"+44 20 8248 9485","website":"https:\/\/shamland.co.uk\/"}}, "geometry":{"type":"MultiPolygon","coordinates":[[[[-0.23301,51.50658],[-0.23293,51.50657],[-0.23285,51.50657],[-0.23286,51.50652],[-0.23288,51.50651],[-0.23294,51.50652],[-0.23303,51.50653],[-0.23301,51.50658]]]]}},
{ "type":"Feature","properties":{"osm_way_id":"939300798","name":"Al-Madinah","shop":"supermarket","other":{"addr:city":"London","addr:housenumber":"75","addr:postcode":"W12 8NR","addr:street":"Uxbridge Road","description":"Fresh Fruits&Veg ,Bakery And Halal Meat.","phone":"+44 20 8740 9995"}}, "geometry":{"type":"MultiPolygon","coordinates":[[[[-0.23147,51.50617],[-0.23148,51.50614],[-0.23148,51.50611],[-0.23131,51.50609],[-0.23131,51.50612],[-0.23131,51.50614],[-0.23133,51.50615],[-0.23139,51.50616],[-0.23147,51.50617]]]]}},
{ "type":"Feature","properties":{"osm_way_id":"939300799","name":"Damas Gate","shop":"supermarket","other":{"addr:housenumber":"81","addr:street":"Uxbridge Road","phone":"+44 20 8743 5116","website":"https:\/\/damasgate.shop\/"}}, "geometry":{"type":"MultiPolygon","coordinates":[[[[-0.23147,51.50617],[-0.23148,51.50614],[-0.23148,51.50611],[-0.23172,51.50613],[-0.2317,51.50619],[-0.23163,51.50619],[-0.23147,51.50617]]]]}},
{ "type":"Feature","properties":{"osm_way_id":"957902160","name":"Co-op Food","shop":"supermarket","other":{"addr:housenumber":"98","addr:street":"Askew Road","brand":"Co-op Food","brand:wikidata":"Q3277439","brand:wikipedia":"en:Co-op Food","phone":"+44 20 8743 4078","website":"https:\/\/www.coop.co.uk\/store-finder\/W12-9BL\/98-askew-road"}}, "geometry":{"type":"MultiPolygon","coordinates":[[[[-0.24341,51.50321],[-0.24359,51.50317],[-0.24351,51.50303],[-0.24334,51.50306],[-0.24341,51.50321]]]]}},
{ "type":"Feature","properties":{"osm_way_id":"975048345","name":"Sainsbury's","shop":"supermarket","other":{"addr:city":"London","addr:country":"GB","addr:housenumber":"50","addr:street":"Shepherds Bush Road","brand":"Sainsbury's","brand:wikidata":"Q152096","brand:wikipedia":"en:Sainsbury's","fhrs:id":"674266","level":"0","website":"https:\/\/stores.sainsburys.co.uk\/4315\/hammersmith-and-fulham-shepherds-bush-road-local"}}, "geometry":{"type":"MultiPolygon","coordinates":[[[[-0.22221,51.50123],[-0.2222,51.50123],[-0.22217,51.50122],[-0.22216,51.50117],[-0.22215,51.50112],[-0.22219,51.50112],[-0.22238,51.50112],[-0.22243,51.50112],[-0.2225,51.50112],[-0.22249,51.50122],[-0.22221,51.50123]]]]}},
{ "type":"Feature","properties":{"osm_way_id":"975869245","name":"Tesco","shop":"supermarket","other":{"addr:city":"London","addr:housenumber":"180","addr:postcode":"W6 7NL","addr:street":"Shepherds Bush Road","branch":"Hammersmith","brand":"Tesco","brand:wikidata":"Q487494","brand:wikipedia":"en:Tesco","name:fa":"تسکو","toilets":"yes","website":"https:\/\/www.tesco.com\/store-locator\/london\/180-shepherds-bush-rd","wheelchair":"yes"}}, "geometry":{"type":"MultiPolygon","coordinates":[[[[-0.22391,51.49794],[-0.22393,51.49794],[-0.22407,51.49793],[-0.22401,51.49745],[-0.22386,51.49745],[-0.22391,51.49794]]]]}},
{ "type":"Feature","properties":{"osm_way_id":"990224303","name":"Olympia Foods","shop":"supermarket","other":{"addr:city":"London","addr:housenumber":"64-68","addr:street":"Blythe Road","level":"0","phone":"+44 20 7603 5220","wheelchair":"no"}}, "geometry":{"type":"MultiPolygon","coordinates":[[[[-0.21591,51.49738],[-0.21586,51.49744],[-0.2156,51.49737],[-0.21565,51.4973],[-0.21591,51.49738]]]]}},
{ "type":"Feature","properties":{"osm_way_id":"1002595180","name":"Sainsbury's","shop":"supermarket","other":{"addr:city":"London","addr:housename":"King's Mall","addr:housenumber":"2-3","addr:postcode":"W6 0PZ","brand":"Sainsbury's","brand:wikidata":"Q152096","brand:wikipedia":"en:Sainsbury's","opening_hours":"Mo-Sa 08:00-20:00, Su 11:00-17:00","wheelchair":"yes"}}, "geometry":{"type":"MultiPolygon","coordinates":[[[[-0.22864,51.49303],[-0.22865,51.49334],[-0.22941,51.49332],[-0.2294,51.49303],[-0.22864,51.49303]]]]}}
]
}
