{
"type": "FeatureCollection",
"features": [
{ "type":"Feature","properties":{"osm_id":"34852656","name":"Asda","other":{"addr:city":"Liverpool","addr:country":"GB","addr:housename":"Penny Lane Neighbourhood Centre","addr:postcode":"L15 9EB","addr:street":"Church Road","brand":"Asda","brand:wikidata":"Q297410","brand:wikipedia":"en:Asda","contact:website":"https:\/\/storelocator.asda.com\/north-west\/wavertree\/penny-lane-centre","fhrs:id":"498503","operator":"Asda Stores Ltd","shop":"supermarket"}}, "geometry":{"type":"Point","coordinates":[-2.91668,53.39035 ]}},
{ "type":"Feature","properties":{"osm_id":"121821244","name":"Spar","other":{"brand":"Spar","brand:wikidata":"Q610492","brand:wikipedia":"en:SPAR (retailer)","shop":"supermarket"}}, "geometry":{"type":"Point","coordinates":[-3.00391,53.341 ]}},
{ "type":"Feature","properties":{"osm_id":"262417792","name":"Tesco Metro","other":{"addr:city":"Rock Ferry","addr:housenumber":"212a","addr:postcode":"CH42 4QF","addr:street":"Bebington Road","brand":"Tesco Metro","brand:wikidata":"Q57551648","fhrs:id":"394111","shop":"supermarket","source:addr":"FHRS Open Data"}}, "geometry":{"type":"Point","coordinates":[-3.01693,53.36527 ]}},
{ "type":"Feature","properties":{"osm_id":"286670955","name":"Londis","other":{"operator":"Londis","shop":"supermarket"}}, "geometry":{"type":"Point","coordinates":[-2.97987,53.38774 ]}},
{ "type":"Feature","properties":{"osm_id":"296234623","name":"Spar","other":{"brand":"Spar","brand:wikidata":"Q610492","brand:wikipedia":"en:SPAR (retailer)","shop":"supermarket"}}, "geometry":{"type":"Point","coordinates":[-2.99679,53.4174 ]}},
{ "type":"Feature","properties":{"osm_id":"304349526","name":"Co-op Food","other":{"addr:city":"Ainsdale","addr:country":"GB","addr:housenumber":"1","addr:postcode":"PR8 3HR","addr:street":"Station Road","brand":"Co-op Food","brand:wikidata":"Q3277439","brand:wikipedia":"en:Co-op Food","fhrs:id":"129704","operator":"The Co-operative","shop":"supermarket","wheelchair":"yes"}}, "geometry":{"type":"Point","coordinates":[-3.03586,53.60212 ]}},
{ "type":"Feature","properties":{"osm_id":"335921383","name":"M&S Foodhall","other":{"brand":"M&S Foodhall","brand:wikidata":"Q714491","brand:wikipedia":"en:Marks & Spencer","shop":"supermarket"}}, "geometry":{"type":"Point","coordinates":[-2.87571,53.34949 ]}},
{ "type":"Feature","properties":{"osm_id":"419028093","name":"Co-op","other":{"shop":"supermarket"}}, "geometry":{"type":"Point","coordinates":[-2.89146,53.40079 ]}},
{ "type":"Feature","properties":{"osm_id":"444850799","name":"ALDI","other":{"brand":"ALDI","brand:wikidata":"Q41171672","brand:wikipedia":"en:Aldi","shop":"supermarket"}}, "geometry":{"type":"Point","coordinates":[-3.18442,53.37426 ]}},
{ "type":"Feature","properties":{"osm_id":"450636787","name":"ALDI","other":{"addr:housenumber":"8","addr:postcode":"CH60 5RA","addr:street":"May Road","brand":"ALDI","brand:wikidata":"Q41171672","brand:wikipedia":"en:Aldi","fhrs:id":"839610","shop":"supermarket","source:addr":"FHRS Open Data"}}, "geometry":{"type":"Point","coordinates":[-3.09675,53.3292 ]}},
{ "type":"Feature","properties":{"osm_id":"502214143","name":"ALDI","other":{"addr:city":"Thornton","addr:country":"GB","addr:housenumber":"251","addr:postcode":"L23 4TW","addr:street":"Moor Lane","brand":"ALDI","brand:wikidata":"Q41171672","brand:wikipedia":"en:Aldi","fhrs:id":"639438","shop":"supermarket","website":"https:\/\/www.aldi.co.uk\/store\/s-uk-E0571"}}, "geometry":{"type":"Point","coordinates":[-3.00667,53.49997 ]}},
{ "type":"Feature","properties":{"osm_id":"528813843","name":"ALDI","other":{"brand":"ALDI","brand:wikidata":"Q41171672","brand:wikipedia":"en:Aldi","operator":"Aldi","shop":"supermarket","source:name":"photograph"}}, "geometry":{"type":"Point","coordinates":[-3.04903,53.37392 ]}},
{ "type":"Feature","properties":{"osm_id":"681266131","name":"M&S Simply Food","other":{"brand":"M&S Simply Food","brand:wikidata":"Q714491","brand:wikipedia":"en:Marks & Spencer","shop":"supermarket","wheelchair":"yes"}}, "geometry":{"type":"Point","coordinates":[-2.97835,53.40789 ]}},
{ "type":"Feature","properties":{"osm_id":"695879172","name":"Lidl","other":{"addr:country":"GB","addr:housenumber":"2A","addr:postcode":"CH42 3UZ","addr:street":"St Pauls Road","brand":"Lidl","brand:wikidata":"Q151954","brand:wikipedia":"en:Lidl","fhrs:id":"394619","shop":"supermarket"}}, "geometry":{"type":"Point","coordinates":[-3.01461,53.37465 ]}},
{ "type":"Feature","properties":{"osm_id":"963856304","name":"COOP","other":{"shop":"supermarket"}}, "geometry":{"type":"Point","coordinates":[-3.11545,53.40012 ]}},
{ "type":"Feature","properties":{"osm_id":"998952015","name":"ALDI","other":{"brand":"ALDI","brand:wikidata":"Q41171672","brand:wikipedia":"en:Aldi","shop":"supermarket"}}, "geometry":{"type":"Point","coordinates":[-2.98037,53.40636 ]}},
{ "type":"Feature","properties":{"osm_id":"1126197372","name":"Asda","other":{"addr:city":"Birkenhead","addr:country":"GB","addr:housenumber":"222","addr:postcode":"CH41 6ED","addr:street":"Grange Road","brand":"Asda","brand:wikidata":"Q297410","brand:wikipedia":"en:Asda","contact:website":"https:\/\/storelocator.asda.com\/north-west\/birkenhead\/222-grange-road","fhrs:id":"395712","operator":"Asda Stores Ltd","shop":"supermarket"}}, "geometry":{"type":"Point","coordinates":[-3.02921,53.38992 ]}},
{ "type":"Feature","properties":{"osm_id":"1260661380","name":"Co-Op","other":{"addr:housenumber":"442","addr:postcode":"WA8 7XP","addr:street":"Liverpool Road","fhrs:id":"79368","shop":"supermarket","source:addr":"FHRS Open Data","wheelchair":"yes"}}, "geometry":{"type":"Point","coordinates":[-2.77286,53.3714 ]}},
{ "type":"Feature","properties":{"osm_id":"1283661181","name":"Co-op Food","other":{"brand":"Co-op Food","brand:wikidata":"Q3277439","brand:wikipedia":"en:Co-op Food","shop":"supermarket"}}, "geometry":{"type":"Point","coordinates":[-2.85576,53.35965 ]}},
{ "type":"Feature","properties":{"osm_id":"1423240231","name":"T.A.K Supermarket","other":{"addr:housenumber":"26","addr:street":"Smithdown Road","shop":"supermarket"}}, "geometry":{"type":"Point","coordinates":[-2.94829,53.39784 ]}},
{ "type":"Feature","properties":{"osm_id":"1563156893","name":"Asda","other":{"addr:city":"Liverpool","addr:country":"GB","addr:postcode":"L13 6RH","addr:street":"Green Lane","brand":"Asda","brand:wikidata":"Q297410","brand:wikipedia":"en:Asda","contact:website":"https:\/\/storelocator.asda.com\/north-west\/liverpool\/regent-house-green-lane-stoneycroft","fhrs:id":"498501","operator":"Asda Stores Ltd","shop":"supermarket","wheelchair":"yes"}}, "geometry":{"type":"Point","coordinates":[-2.91917,53.4157 ]}},
{ "type":"Feature","properties":{"osm_id":"2104965402","name":"W H Lung","other":{"building":"yes","cuisine":"chinese","shop":"supermarket"}}, "geometry":{"type":"Point","coordinates":[-2.99593,53.42492 ]}},
{ "type":"Feature","properties":{"osm_id":"2137467867","name":"Morrisons Daily","other":{"brand":"Morrisons Daily","brand:wikidata":"Q99752411","shop":"supermarket","website":"https:\/\/my.morrisons.com\/storefinder\/34787"}}, "geometry":{"type":"Point","coordinates":[-3.0284,53.36963 ]}},
{ "type":"Feature","properties":{"osm_id":"2384395939","name":"Asda","other":{"addr:city":"Southport","addr:country":"GB","addr:housename":"Central 12 Shopping Park","addr:postcode":"PR9 0TY","addr:street":"Derby Road","brand":"Asda","brand:wikidata":"Q297410","brand:wikipedia":"en:Asda","contact:website":"https:\/\/storelocator.asda.com\/north-west\/southport\/central-12-shopping-park-derby-road","fhrs:id":"899318","operator":"Asda Stores Ltd","shop":"supermarket"}}, "geometry":{"type":"Point","coordinates":[-2.99743,53.64516 ]}},
{ "type":"Feature","properties":{"osm_id":"2417665406","name":"L7 Village Market","other":{"addr:housename":"L7 Village Market","addr:housenumber":"110 Prescot Road","addr:postcode":"L7 0JB","addr:street":"Prescot Road","shop":"supermarket","website":"http:\/\/maps.google.co.uk\/local_url?dq=L7+Village+Market&q=http:\/\/thevillagemarket.co.uk\/&oi=miw&sa=X&ct=miw_link&cd=1&cad=homepage,cid:6712664168421692089&ei=gxsKUvn_IYaxiwab_oH4CQ&s=ANYYN7npb8_CuBOc8thevillagemarket.co.uk"}}, "geometry":{"type":"Point","coordinates":[-2.93671,53.41272 ]}},
{ "type":"Feature","properties":{"osm_id":"2439247635","name":"Morrisons","other":{"brand":"Morrisons","brand:wikidata":"Q922344","brand:wikipedia":"en:Morrisons","shop":"supermarket"}}, "geometry":{"type":"Point","coordinates":[-3.02098,53.41039 ]}},
{ "type":"Feature","properties":{"osm_id":"2447565196","name":"Sainsbury's","other":{"brand":"Sainsbury's","brand:wikidata":"Q152096","brand:wikipedia":"en:Sainsbury's","shop":"supermarket"}}, "geometry":{"type":"Point","coordinates":[-3.10337,53.38011 ]}},
{ "type":"Feature","properties":{"osm_id":"2472154668","name":"The Co-operative Food","other":{"addr:housenumber":"83-85","addr:postcode":"CH45 3LG","addr:street":"Wallasey Village","brand":"The Co-operative Food","brand:wikidata":"Q107617274","old_name":"Kwik-Save","shop":"supermarket","source:addr":"FHRS Open Data","source:old_name":"NaPTAN"}}, "geometry":{"type":"Point","coordinates":[-3.06467,53.42244 ]}},
{ "type":"Feature","properties":{"osm_id":"2478996404","name":"Lidl","other":{"addr:housenumber":"189","addr:postcode":"CH45 8LN","addr:street":"Leasowe Road","brand":"Lidl","brand:wikidata":"Q151954","brand:wikipedia":"en:Lidl","fhrs:id":"805248","shop":"supermarket","source:addr":"FHRS Open Data"}}, "geometry":{"type":"Point","coordinates":[-3.07628,53.42077 ]}},
{ "type":"Feature","properties":{"osm_id":"2488248480","name":"ALDI","other":{"brand":"ALDI","brand:wikidata":"Q41171672","brand:wikipedia":"en:Aldi","shop":"supermarket"}}, "geometry":{"type":"Point","coordinates":[-3.0995,53.40401 ]}},
{ "type":"Feature","properties":{"osm_id":"2591695483","name":"Co-op Food","other":{"brand":"Co-op Food","brand:wikidata":"Q3277439","brand:wikipedia":"en:Co-op Food","shop":"supermarket","wheelchair":"yes"}}, "geometry":{"type":"Point","coordinates":[-3.08365,53.38655 ]}},
{ "type":"Feature","properties":{"osm_id":"2620735538","name":"RaanThai","other":{"addr:housename":"Unit A2","addr:postcode":"CH43 3DU","shop":"supermarket","website":"https:\/\/www.raanthai.co.uk\/"}}, "geometry":{"type":"Point","coordinates":[-3.06797,53.36716 ]}},
{ "type":"Feature","properties":{"osm_id":"2631001651","name":"ALDI","other":{"brand":"ALDI","brand:wikidata":"Q41171672","brand:wikipedia":"en:Aldi","payment:cash":"yes","payment:credit_cards":"yes","payment:debit_cards":"yes","shop":"supermarket"}}, "geometry":{"type":"Point","coordinates":[-3.04868,53.39862 ]}},
{ "type":"Feature","properties":{"osm_id":"2648133765","name":"Aldi","other":{"brand":"ALDI","brand:wikidata":"Q41171672","brand:wikipedia":"en:Aldi","shop":"supermarket"}}, "geometry":{"type":"Point","coordinates":[-2.82994,53.36082 ]}},
{ "type":"Feature","properties":{"osm_id":"2704298370","name":"SIDA - Chinese Supermarket","other":{"addr:city":"Liverpool","addr:country":"GB","addr:housenumber":"188-192","addr:postcode":"L3 8JN","addr:street":"London Road","fhrs:id":"1099195","shop":"supermarket"}}, "geometry":{"type":"Point","coordinates":[-2.96953,53.40985 ]}},
{ "type":"Feature","properties":{"osm_id":"2895530805","name":"Waitrose","other":{"brand":"Waitrose","brand:wikidata":"Q771734","brand:wikipedia":"en:Waitrose & Partners","official_name":"Waitrose & Partners","operator":"Waitrose & Partners","shop":"supermarket"}}, "geometry":{"type":"Point","coordinates":[-3.05783,53.55677 ]}},
{ "type":"Feature","properties":{"osm_id":"3736043710","name":"Spar","other":{"brand":"Spar","brand:wikidata":"Q610492","brand:wikipedia":"en:Spar (retailer)","shop":"supermarket"}}, "geometry":{"type":"Point","coordinates":[-3.0155,53.61884 ]}},
{ "type":"Feature","properties":{"osm_id":"3737557173","name":"Spar","other":{"addr:city":"Southport","addr:street":"Ovington Drive","brand":"Spar","brand:wikidata":"Q610492","brand:wikipedia":"en:Spar (retailer)","payment:cash":"yes","payment:coins":"yes","payment:credit_cards":"yes","payment:debit_cards":"yes","payment:mastercard":"yes","payment:visa":"yes","shop":"supermarket"}}, "geometry":{"type":"Point","coordinates":[-2.97709,53.6293 ]}},
{ "type":"Feature","properties":{"osm_id":"3742494381","name":"Spar","other":{"addr:city":"Southport","addr:street":"Liverpool Road","brand":"Spar","brand:wikidata":"Q610492","brand:wikipedia":"en:Spar (retailer)","shop":"supermarket"}}, "geometry":{"type":"Point","coordinates":[-3.01273,53.63398 ]}},
{ "type":"Feature","properties":{"osm_id":"3742753823","name":"Co-op Food","other":{"addr:city":"Southport","addr:street":"Portland Street","brand":"Co-op Food","brand:wikidata":"Q3277439","brand:wikipedia":"en:Co-op Food","shop":"supermarket"}}, "geometry":{"type":"Point","coordinates":[-3.00217,53.64066 ]}},
{ "type":"Feature","properties":{"osm_id":"3748930576","name":"Baltic Supermarket","other":{"addr:city":"Southport","addr:housenumber":"45-47","addr:street":"Eastbank Street","shop":"supermarket"}}, "geometry":{"type":"Point","coordinates":[-3.00485,53.64552 ]}},
{ "type":"Feature","properties":{"osm_id":"3752763288","name":"B&M Express","other":{"addr:city":"Southport","addr:housenumber":"29-31","addr:postcode":"PR8 1AG","addr:street":"Tulketh Street","brand:wikidata":"Q99640578","fhrs:id":"71940","old_name":"Cool Trader","operator":"Heron Foods","shop":"supermarket","source:addr":"FHRS Open Data"}}, "geometry":{"type":"Point","coordinates":[-3.00395,53.64594 ]}},
{ "type":"Feature","properties":{"osm_id":"3797953633","name":"Spar","other":{"addr:city":"Southport","addr:street":"Bispham Road","brand":"Spar","brand:wikidata":"Q610492","brand:wikipedia":"en:Spar (retailer)","shop":"supermarket"}}, "geometry":{"type":"Point","coordinates":[-2.97022,53.64758 ]}},
{ "type":"Feature","properties":{"osm_id":"3798206031","name":"Spar","other":{"addr:city":"Southport","addr:street":"High Park Place","brand":"Spar","brand:wikidata":"Q610492","brand:wikipedia":"en:Spar (retailer)","shop":"supermarket"}}, "geometry":{"type":"Point","coordinates":[-2.96522,53.65399 ]}},
{ "type":"Feature","properties":{"osm_id":"3799324248","name":"Co-op Food","other":{"addr:city":"Southport","addr:street":"Fylde Road","brand":"Co-op Food","brand:wikidata":"Q3277439","brand:wikipedia":"en:Co-op Food","shop":"supermarket"}}, "geometry":{"type":"Point","coordinates":[-2.96452,53.67185 ]}},
{ "type":"Feature","properties":{"osm_id":"4313979964","name":"Sida Express","other":{"shop":"supermarket"}}, "geometry":{"type":"Point","coordinates":[-2.96669,53.40082 ]}},
{ "type":"Feature","properties":{"osm_id":"4484184993","name":"Spar","other":{"brand":"Spar","brand:wikidata":"Q610492","brand:wikipedia":"en:SPAR (retailer)","shop":"supermarket"}}, "geometry":{"type":"Point","coordinates":[-2.85594,53.3375 ]}},
{ "type":"Feature","properties":{"osm_id":"4501132271","name":"Tesco","other":{"branch":"Liverpool One","brand":"Tesco","brand:wikidata":"Q487494","brand:wikipedia":"en:Tesco","contact:website":"https:\/\/www.tesco.com\/store-locator\/liverpool\/msu-46-hanover-st","shop":"supermarket","wheelchair":"yes"}}, "geometry":{"type":"Point","coordinates":[-2.98333,53.40352 ]}},
{ "type":"Feature","properties":{"osm_id":"4558459642","name":"Spar","other":{"addr:city":"Formby","addr:housenumber":"1","addr:postcode":"L37 7DJ","addr:street":"Green Lane","brand":"Spar","brand:wikidata":"Q610492","brand:wikipedia":"en:Spar (retailer)","opening_hours":"07:00-22:00","shop":"supermarket"}}, "geometry":{"type":"Point","coordinates":[-3.0586,53.56474 ]}},
{ "type":"Feature","properties":{"osm_id":"4562060232","name":"Co-op Food","other":{"brand":"Co-op Food","brand:wikidata":"Q3277439","brand:wikipedia":"en:Co-op Food","shop":"supermarket"}}, "geometry":{"type":"Point","coordinates":[-2.94481,53.38204 ]}},
{ "type":"Feature","properties":{"osm_id":"4627480096","name":"Lidl","other":{"addr:country":"GB","addr:housenumber":"72","addr:postcode":"L31 5JA","addr:street":"Northway","brand":"Lidl","brand:wikidata":"Q151954","brand:wikipedia":"en:Lidl","fhrs:id":"352505","shop":"supermarket"}}, "geometry":{"type":"Point","coordinates":[-2.94492,53.50094 ]}},
{ "type":"Feature","properties":{"osm_id":"4795819559","name":"Home Bargains","other":{"shop":"supermarket"}}, "geometry":{"type":"Point","coordinates":[-2.8033,53.42875 ]}},
{ "type":"Feature","properties":{"osm_id":"5124271021","name":"Co-op Food","other":{"brand":"Co-op Food","brand:wikidata":"Q3277439","brand:wikipedia":"en:Co-op Food","shop":"supermarket"}}, "geometry":{"type":"Point","coordinates":[-3.02439,53.38091 ]}},
{ "type":"Feature","properties":{"osm_id":"5212577124","name":"Heron Foods","other":{"addr:city":"Bootle","addr:country":"GB","addr:housename":"Strand Shopping Centre","addr:postcode":"L20 4XX","addr:street":"Parkside","addr:unit":"16","brand":"Heron Foods","brand:wikidata":"Q5743472","brand:wikipedia":"en:Heron Foods","fhrs:id":"149158","shop":"supermarket","website":"https:\/\/heronfoods.com\/store\/bootle\/"}}, "geometry":{"type":"Point","coordinates":[-2.99309,53.45258 ]}},
{ "type":"Feature","properties":{"osm_id":"5212585422","name":"Home Bargain","other":{"shop":"supermarket"}}, "geometry":{"type":"Point","coordinates":[-2.99312,53.45266 ]}},
{ "type":"Feature","properties":{"osm_id":"5370142956","name":"Spar","other":{"addr:city":"Liverpool","addr:postcode":"L24 1XZ","addr:street":"Speke Boulevard","brand":"Spar","brand:wikidata":"Q610492","brand:wikipedia":"en:SPAR (retailer)","fhrs:id":"1243798","shop":"supermarket","source:addr":"FHRS Open Data"}}, "geometry":{"type":"Point","coordinates":[-2.8622,53.34919 ]}},
{ "type":"Feature","properties":{"osm_id":"5412272985","name":"Co-op","other":{"shop":"supermarket"}}, "geometry":{"type":"Point","coordinates":[-2.77163,53.35189 ]}},
{ "type":"Feature","properties":{"osm_id":"5415950921","name":"OLYMPIC OILS (WHOLESALE)","other":{"name:en":"OLYMPIC OILS (WHOLESALE)","shop":"supermarket"}}, "geometry":{"type":"Point","coordinates":[-2.80907,53.40375 ]}},
{ "type":"Feature","properties":{"osm_id":"5415950922","name":"ALFRED PRICES FRUIT IMPORTERS","other":{"name:en":"ALFRED PRICES FRUIT IMPORTERS","shop":"supermarket"}}, "geometry":{"type":"Point","coordinates":[-2.86261,53.46156 ]}},
{ "type":"Feature","properties":{"osm_id":"5617506225","name":"OneStop","other":{"shop":"supermarket"}}, "geometry":{"type":"Point","coordinates":[-2.96908,53.42257 ]}},
{ "type":"Feature","properties":{"osm_id":"5683169768","name":"Heron Foods","other":{"addr:city":"Liverpool","addr:country":"GB","addr:housenumber":"5","addr:postcode":"L7 7EL","addr:street":"Myrtle Parade","brand":"Heron Foods","brand:wikidata":"Q5743472","brand:wikipedia":"en:Heron Foods","contact:website":"https:\/\/heronfoods.com\/storelocator\/store-details\/myrtle","fhrs:id":"1026064","shop":"supermarket"}}, "geometry":{"type":"Point","coordinates":[-2.96522,53.40062 ]}},
{ "type":"Feature","properties":{"osm_id":"5806746606","name":"McColl's","other":{"shop":"supermarket"}}, "geometry":{"type":"Point","coordinates":[-2.88121,53.43378 ]}},
{ "type":"Feature","properties":{"osm_id":"5882572692","name":"LIV Organic & Natural Food Market","other":{"addr:city":"Liverpool","addr:street":"Bold Street","opening_hours":"Mo-Sa 08:00-20:00; Su 10:00-17:00","shop":"supermarket"}}, "geometry":{"type":"Point","coordinates":[-2.98075,53.40417 ]}},
{ "type":"Feature","properties":{"osm_id":"6067564723","name":"Asda","other":{"addr:country":"GB","addr:housenumber":"5","addr:postcode":"CH41 7BG","addr:street":"Stanley Road","brand":"Asda","brand:wikidata":"Q297410","brand:wikipedia":"en:Asda","contact:website":"https:\/\/storelocator.asda.com\/north-west\/birkenhead\/unit-1-stanley-road","fhrs:id":"569880","operator":"Asda Stores Ltd","shop":"supermarket","source:addr":"FHRS Open Data"}}, "geometry":{"type":"Point","coordinates":[-3.05996,53.40331 ]}},
{ "type":"Feature","properties":{"osm_id":"6331110396","other":{"amenity":"loading_dock"}}, "geometry":{"type":"Point","coordinates":[-2.71279,53.44148 ]}},
{ "type":"Feature","properties":{"osm_id":"6359213223","name":"Lidl","other":{"addr:country":"GB","addr:housenumber":"63-77","addr:postcode":"L1 1JQ","addr:street":"Lime Street","brand":"Lidl","brand:wikidata":"Q151954","brand:wikipedia":"en:Lidl","fhrs:id":"1137872","note:building":"large Lidl supermarket occupies the SE half of the ground floor","shop":"supermarket"}}, "geometry":{"type":"Point","coordinates":[-2.97858,53.40615 ]}},
{ "type":"Feature","properties":{"osm_id":"6397063121","name":"Heron Foods","other":{"addr:city":"Huyton","addr:country":"GB","addr:housenumber":"63,65","addr:postcode":"L36 9UQ","addr:street":"Derby Road","brand":"Heron Foods","brand:wikidata":"Q5743472","brand:wikipedia":"en:Heron Foods","contact:website":"https:\/\/heronfoods.com\/storelocator\/store-details\/huyton","fhrs:id":"220778","shop":"supermarket"}}, "geometry":{"type":"Point","coordinates":[-2.83907,53.41112 ]}},
{ "type":"Feature","properties":{"osm_id":"6415134286","name":"Wilko","other":{"brand:wikidata":"Q8002536","contact:website":"https:\/\/stores.wilko.com\/gb\/huyton\/unit-20","shop":"supermarket"}}, "geometry":{"type":"Point","coordinates":[-2.83855,53.41285 ]}},
{ "type":"Feature","properties":{"osm_id":"6938193486","name":"The Food Warehouse","other":{"brand":"The Food Warehouse","brand:wikidata":"Q87263899","shop":"supermarket"}}, "geometry":{"type":"Point","coordinates":[-2.8954,53.46384 ]}},
{ "type":"Feature","properties":{"osm_id":"7027297999","name":"ALDI","other":{"addr:city":"St Helens","addr:parentstreet":"Peasley Cross Lane","addr:place":"St Helens Retail Park","addr:postcode":"WA9 1JJ","brand":"ALDI","brand:wikidata":"Q41171672","brand:wikipedia":"en:Aldi","shop":"supermarket","source:addr:postcode":"code-point_open"}}, "geometry":{"type":"Point","coordinates":[-2.72771,53.44954 ]}},
{ "type":"Feature","properties":{"osm_id":"7448471443","name":"Asda","other":{"addr:city":"Bootle","addr:country":"GB","addr:postcode":"L20 6HX","addr:street":"Orrell Lane","brand":"Asda","brand:wikidata":"Q297410","brand:wikipedia":"en:Asda","contact:website":"https:\/\/storelocator.asda.com\/north-west\/bootle\/orrell-lane","fhrs:id":"502654","operator":"Asda Stores Ltd","shop":"supermarket"}}, "geometry":{"type":"Point","coordinates":[-2.97247,53.46801 ]}},
{ "type":"Feature","properties":{"osm_id":"7625403845","name":"The Food Warehouse","other":{"addr:city":"Liverpool","addr:housenumber":"27","addr:parentstreet":"Speke Boulevard","addr:postcode":"L24 9HZ","addr:street":"Boulevard Retail Park","brand":"The Food Warehouse","brand:wikidata":"Q87263899","fhrs:id":"1244079","shop":"supermarket","source:addr":"FHRS Open Data","website":"https:\/\/www.thefoodwarehouse.com\/store-locator\/speke"}}, "geometry":{"type":"Point","coordinates":[-2.85813,53.3503 ]}},
{ "type":"Feature","properties":{"osm_id":"8552738872","other":{"amenity":"loading_dock"}}, "geometry":{"type":"Point","coordinates":[-2.71953,53.42231 ]}},
{ "type":"Feature","properties":{"osm_id":"8721613878","name":"Sida Chinese Supermarket","other":{"addr:city":"Liverpool","addr:housenumber":"124","addr:postcode":"L1 4JA","addr:street":"Bold Street","cuisine":"chinese","fhrs:id":"1105632","fhrs:local_authority_id":"PI\/000013868","shop":"supermarket"}}, "geometry":{"type":"Point","coordinates":[-2.97629,53.402 ]}},
{ "type":"Feature","properties":{"osm_id":"8839433698","other":{"amenity":"loading_dock"}}, "geometry":{"type":"Point","coordinates":[-2.70998,53.45885 ]}},
{ "type":"Feature","properties":{"osm_id":"8856383345","highway":"crossing","other":{"crossing":"marked"}}, "geometry":{"type":"Point","coordinates":[-2.91568,53.41324 ]}},
{ "type":"Feature","properties":{"osm_id":"8901145871","other":{"amenity":"loading_dock"}}, "geometry":{"type":"Point","coordinates":[-2.72798,53.44771 ]}},
{ "type":"Feature","properties":{"osm_id":"8901145872","other":{"amenity":"loading_dock"}}, "geometry":{"type":"Point","coordinates":[-2.72806,53.4477 ]}},
{ "type":"Feature","properties":{"osm_id":"8901654567","name":"Delicje","other":{"addr:city":"St Helens","addr:housenumber":"34","addr:postcode":"WA9 1JZ","addr:street":"Parr St","operator":"Delicje","shop":"supermarket"}}, "geometry":{"type":"Point","coordinates":[-2.72576,53.45214 ]}},
{ "type":"Feature","properties":{"osm_id":"9212971328","name":"Heron Foods","other":{"addr:city":"Newton-le-Willows","addr:housenumber":"10","addr:postcode":"WA12 9AN","addr:street":"Market Street","brand":"Heron Foods","brand:wikidata":"Q5743472","brand:wikipedia":"en:Heron Foods","fhrs:id":"197102","shop":"supermarket","source:addr":"FHRS Open Data"}}, "geometry":{"type":"Point","coordinates":[-2.64061,53.45196 ]}},
{ "type":"Feature","properties":{"osm_id":"9399710517","name":"eJoy Asian Foods","other":{"addr:housenumber":"1","addr:street":"Myrtle Parade","name:en":"Ejoy supermarket","shop":"supermarket"}}, "geometry":{"type":"Point","coordinates":[-2.96574,53.40056 ]}},
{ "type":"Feature","properties":{"osm_id":"9510064842","name":"Jack's","other":{"brand":"Jack's","brand:wikidata":"Q60741213","brand:wikipedia":"en:Jack's (store)","shop":"supermarket"}}, "geometry":{"type":"Point","coordinates":[-2.72403,53.41958 ]}},
{ "type":"Feature","properties":{"osm_id":"9510064850","name":"McColls","other":{"shop":"supermarket"}}, "geometry":{"type":"Point","coordinates":[-2.72419,53.42004 ]}},
{ "type":"Feature","properties":{"osm_id":"9560119976","name":"Lidl","other":{"addr:city":"Liverpool","addr:country":"GB","addr:housenumber":"17","addr:postcode":"L19 2NJ","addr:street":"Saint Mary's Road","brand":"Lidl","brand:wikidata":"Q151954","brand:wikipedia":"en:Lidl","fhrs:id":"1439453","shop":"supermarket"}}, "geometry":{"type":"Point","coordinates":[-2.89802,53.35365 ]}},
{ "type":"Feature","properties":{"osm_way_id":"12158919","name":"Tesco","building":"yes","shop":"supermarket","other":{"addr:postcode":"L13 2BY","brand":"Tesco","brand:wikidata":"Q487494","brand:wikipedia":"en:Tesco","wheelchair":"yes"}}, "geometry":{"type":"MultiPolygon","coordinates":[[[[-2.91558,53.41336],[-2.91568,53.41324],[-2.91582,53.41307],[-2.91587,53.41308],[-2.91623,53.41265],[-2.91723,53.41293],[-2.91672,53.41357],[-2.91696,53.41365],[-2.91688,53.41374],[-2.91558,53.41336]]]]}},
{ "type":"Feature","properties":{"osm_way_id":"24960899","name":"Morrisons","building":"yes","shop":"supermarket","other":{"addr:postcode":"WA8 6UA","addr:street":"Green Oaks Way","brand":"Morrisons","brand:wikidata":"Q922344","brand:wikipedia":"en:Morrisons","fhrs:id":"113812","source:addr":"FHRS Open Data","wheelchair":"yes"}}, "geometry":{"type":"MultiPolygon","coordinates":[[[[-2.7241,53.36799],[-2.72437,53.36751],[-2.72448,53.3673],[-2.72384,53.36717],[-2.72376,53.36734],[-2.72336,53.36727],[-2.72304,53.36786],[-2.72335,53.36792],[-2.72335,53.36785],[-2.72366,53.36791],[-2.7241,53.36799]]]]}},
{ "type":"Feature","properties":{"osm_way_id":"25994582","name":"Tesco","building":"yes","shop":"supermarket","other":{"addr:postcode":"L25 7SF","addr:street":"Allerton Road","alt_name":"Tesco Liverpool Woolton Superstore","brand":"Tesco","brand:wikidata":"Q487494","brand:wikipedia":"en:Tesco"}}, "geometry":{"type":"MultiPolygon","coordinates":[[[[-2.87371,53.37344],[-2.87386,53.37384],[-2.87266,53.374],[-2.87251,53.3736],[-2.87284,53.37356],[-2.87282,53.37352],[-2.8733,53.37346],[-2.87341,53.37344],[-2.87343,53.37348],[-2.87371,53.37344]]]]}},
{ "type":"Feature","properties":{"osm_way_id":"26331898","name":"Co-Op","shop":"supermarket","other":{"addr:housenumber":"231","addr:postcode":"WA8 7HL","addr:street":"Liverpool Road","fhrs:id":"135158","source:addr":"FHRS Open Data"}}, "geometry":{"type":"MultiPolygon","coordinates":[[[[-2.75681,53.37076],[-2.75669,53.37048],[-2.75624,53.37041],[-2.756,53.37071],[-2.75603,53.37078],[-2.75605,53.3708],[-2.75613,53.37082],[-2.75624,53.37084],[-2.75681,53.37076]]]]}},
{ "type":"Feature","properties":{"osm_way_id":"26539943","name":"Asda","building":"yes","shop":"supermarket","other":{"addr:city":"Widnes","addr:country":"GB","addr:postcode":"WA8 6AH","addr:street":"Widnes Road","brand":"Asda","brand:wikidata":"Q297410","brand:wikipedia":"en:Asda","contact:website":"https:\/\/storelocator.asda.com\/north-west\/widnes\/widnes-road","fhrs:id":"130744","operator":"Asda Stores Ltd","wheelchair":"yes"}}, "geometry":{"type":"MultiPolygon","coordinates":[[[[-2.73127,53.36551],[-2.73098,53.36557],[-2.73082,53.36555],[-2.7308,53.36562],[-2.73043,53.36469],[-2.7315,53.36481],[-2.73163,53.36481],[-2.73158,53.36515],[-2.73142,53.36523],[-2.73135,53.36539],[-2.73129,53.36538],[-2.73127,53.36551]]]]}},
{ "type":"Feature","properties":{"osm_way_id":"27151093","name":"Asda","building":"yes","shop":"supermarket","other":{"addr:city":"Liverpool","addr:country":"GB","addr:postcode":"L36 7TX","addr:street":"Huyton Lane","brand":"Asda","brand:wikidata":"Q297410","brand:wikipedia":"en:Asda","contact:website":"https:\/\/storelocator.asda.com\/north-west\/liverpool\/huyton-lane","fhrs:id":"221183","operator":"Asda Stores Ltd"}}, "geometry":{"type":"MultiPolygon","coordinates":[[[[-2.83784,53.41325],[-2.83765,53.41233],[-2.83763,53.41227],[-2.83636,53.41237],[-2.83621,53.41253],[-2.83639,53.41336],[-2.83647,53.41335],[-2.83681,53.41333],[-2.83686,53.41332],[-2.83701,53.41331],[-2.83706,53.41331],[-2.83769,53.41326],[-2.83784,53.41325]]]]}},
{ "type":"Feature","properties":{"osm_way_id":"27998647","name":"ALDI","building":"yes","shop":"supermarket","other":{"addr:city":"Runcorn","addr:postcode":"WA7 2FQ","brand":"ALDI","brand:wikidata":"Q41171672","brand:wikipedia":"en:Aldi","fhrs:id":"119621","operator":"Aldi","source:addr":"FHRS Open Data","wheelchair":"yes"}}, "geometry":{"type":"MultiPolygon","coordinates":[[[[-2.70136,53.32688],[-2.70102,53.32677],[-2.70137,53.32638],[-2.70154,53.32644],[-2.70157,53.3264],[-2.70174,53.32646],[-2.70136,53.32688]]]]}},
{ "type":"Feature","properties":{"osm_way_id":"27998702","name":"Asda","building":"yes","shop":"supermarket","other":{"addr:city":"Runcorn","addr:country":"GB","addr:postcode":"WA7 2PY","addr:street":"West Lane","brand":"Asda","brand:wikidata":"Q297410","brand:wikipedia":"en:Asda","contact:website":"https:\/\/storelocator.asda.com\/north-west\/runcorn\/west-lane","fhrs:id":"93266","operator":"Asda Stores Ltd","source:addr":"FHRS Open Data","wheelchair":"yes"}}, "geometry":{"type":"MultiPolygon","coordinates":[[[[-2.70244,53.32903],[-2.70207,53.3289],[-2.7021,53.32887],[-2.70193,53.32881],[-2.70196,53.3287],[-2.70124,53.32847],[-2.70059,53.32916],[-2.7007,53.3292],[-2.70056,53.32934],[-2.70051,53.32933],[-2.7004,53.32944],[-2.70099,53.32963],[-2.701,53.32961],[-2.70117,53.32967],[-2.70118,53.32966],[-2.70136,53.32972],[-2.70174,53.32931],[-2.7018,53.32932],[-2.70183,53.3293],[-2.70186,53.32931],[-2.7019,53.32926],[-2.70206,53.32931],[-2.70216,53.3292],[-2.70225,53.32923],[-2.70244,53.32903]]]]}},
{ "type":"Feature","properties":{"osm_way_id":"28537190","name":"Co-op Food","building":"yes","shop":"supermarket","other":{"addr:city":"Runcorn","addr:postcode":"WA7 1NE","addr:street":"Granville Street","brand":"Co-op Food","brand:wikidata":"Q3277439","brand:wikipedia":"en:Co-op Food","fhrs:id":"129921"}}, "geometry":{"type":"MultiPolygon","coordinates":[[[[-2.7345,53.34242],[-2.73436,53.3424],[-2.73435,53.34241],[-2.73366,53.34229],[-2.73368,53.34225],[-2.73361,53.34224],[-2.73367,53.3421],[-2.73364,53.34206],[-2.73381,53.342],[-2.73385,53.34204],[-2.73395,53.34205],[-2.73412,53.34208],[-2.73448,53.34214],[-2.73442,53.34229],[-2.73455,53.34231],[-2.7345,53.34242]]]]}},
{ "type":"Feature","properties":{"osm_way_id":"28810893","name":"Jack's","building":"yes","shop":"supermarket","other":{"brand":"Jack's","brand:wikidata":"Q60741213","brand:wikipedia":"en:Jack's (store)","contact:website":"https:\/\/www.jacks-uk.com\/","operator":"Jack's"}}, "geometry":{"type":"MultiPolygon","coordinates":[[[[-2.95449,53.40503],[-2.95447,53.40456],[-2.95511,53.40455],[-2.95512,53.40502],[-2.95479,53.40503],[-2.95449,53.40503]]]]}},
{ "type":"Feature","properties":{"osm_way_id":"30141997","name":"Lidl","building":"yes","shop":"supermarket","other":{"addr:city":"Southport","addr:country":"GB","addr:housenumber":"21","addr:postcode":"PR8 6RZ","addr:street":"Virginia Street","brand":"Lidl","brand:wikidata":"Q151954","brand:wikipedia":"en:Lidl","fhrs:id":"352501"}}, "geometry":{"type":"MultiPolygon","coordinates":[[[[-3.00121,53.64276],[-3.00101,53.64284],[-3.00067,53.64254],[-3.00061,53.64256],[-3.00048,53.64245],[-3.00087,53.6423],[-3.00136,53.64275],[-3.00125,53.64279],[-3.00121,53.64276]]]]}},
{ "type":"Feature","properties":{"osm_way_id":"30142559","name":"Tesco Extra","building":"yes","shop":"supermarket","other":{"addr:city":"Southport","brand":"Tesco Extra","brand:wikidata":"Q25172225","brand:wikipedia":"en:Tesco Extra"}}, "geometry":{"type":"MultiPolygon","coordinates":[[[[-2.97236,53.63213],[-2.97247,53.63229],[-2.97229,53.63234],[-2.97221,53.63219],[-2.97207,53.63221],[-2.97196,53.63206],[-2.97142,53.63218],[-2.97067,53.63105],[-2.97126,53.63093],[-2.97174,53.63083],[-2.97244,53.63195],[-2.97252,53.63209],[-2.97236,53.63213]]]]}},
{ "type":"Feature","properties":{"osm_way_id":"30142581","name":"Aldi","building":"yes","shop":"supermarket","other":{"brand":"ALDI","brand:wikidata":"Q41171672","brand:wikipedia":"en:Aldi"}}, "geometry":{"type":"MultiPolygon","coordinates":[[[[-2.96964,53.63433],[-2.9688,53.63456],[-2.96864,53.63435],[-2.9688,53.6343],[-2.96877,53.63426],[-2.96879,53.6342],[-2.96886,53.63418],[-2.96889,53.63422],[-2.96898,53.6342],[-2.96902,53.63425],[-2.96949,53.63412],[-2.96964,53.63433]]]]}},
{ "type":"Feature","properties":{"osm_way_id":"30142868","name":"Morrisons","building":"yes","shop":"supermarket","other":{"addr:city":"Southport","brand":"Morrisons","brand:wikidata":"Q922344","brand:wikipedia":"en:Morrisons"}}, "geometry":{"type":"MultiPolygon","coordinates":[[[[-3.01431,53.64547],[-3.014,53.64565],[-3.0136,53.64589],[-3.01336,53.64588],[-3.01308,53.64567],[-3.01314,53.64563],[-3.01254,53.64521],[-3.01259,53.64518],[-3.01253,53.64513],[-3.01272,53.64503],[-3.01302,53.64523],[-3.01324,53.64512],[-3.01306,53.64498],[-3.01337,53.64479],[-3.01431,53.64547]]]]}},
{ "type":"Feature","properties":{"osm_way_id":"31540400","name":"Morrisons","building":"yes","shop":"supermarket","other":{"addr:housename":"Baxsters Lane","brand":"Morrisons","brand:wikidata":"Q922344","brand:wikipedia":"en:Morrisons"}}, "geometry":{"type":"MultiPolygon","coordinates":[[[[-2.7142,53.44183],[-2.71304,53.44135],[-2.71299,53.44139],[-2.71287,53.44134],[-2.71273,53.44146],[-2.71279,53.44148],[-2.71288,53.44151],[-2.71271,53.44165],[-2.71291,53.44174],[-2.71274,53.44187],[-2.71284,53.44192],[-2.71294,53.44196],[-2.71283,53.44205],[-2.71338,53.44227],[-2.71334,53.44231],[-2.71357,53.44241],[-2.71372,53.4423],[-2.71366,53.44227],[-2.71376,53.44219],[-2.7142,53.44183]]]]}},
{ "type":"Feature","properties":{"osm_way_id":"31820240","name":"Lidl","building":"yes","shop":"supermarket","other":{"addr:country":"GB","addr:postcode":"WA10 2JZ","addr:street":"King Street","brand":"Lidl","brand:wikidata":"Q151954","brand:wikipedia":"en:Lidl","fhrs:id":"1138616"}}, "geometry":{"type":"MultiPolygon","coordinates":[[[[-2.7424,53.45448],[-2.74213,53.45452],[-2.74211,53.45449],[-2.7419,53.45452],[-2.7419,53.45456],[-2.74163,53.4546],[-2.74182,53.45511],[-2.74221,53.45505],[-2.74224,53.45511],[-2.74242,53.45509],[-2.74234,53.45487],[-2.74263,53.45483],[-2.74258,53.4547],[-2.74249,53.45471],[-2.74242,53.45452],[-2.7424,53.45448]]]]}},
{ "type":"Feature","properties":{"osm_way_id":"31895993","name":"Morrisons","building":"supermarket","shop":"supermarket","other":{"brand":"Morrisons","brand:wikidata":"Q922344","brand:wikipedia":"en:Morrisons"}}, "geometry":{"type":"MultiPolygon","coordinates":[[[[-2.75309,53.45004],[-2.75189,53.45002],[-2.75191,53.45085],[-2.75226,53.45087],[-2.75227,53.45077],[-2.75234,53.45077],[-2.75234,53.4508],[-2.75305,53.45082],[-2.75309,53.45004]]]]}},
{ "type":"Feature","properties":{"osm_way_id":"34094486","name":"ALDI","building":"yes","shop":"supermarket","other":{"brand":"ALDI","brand:wikidata":"Q41171672","brand:wikipedia":"en:Aldi","toilets:wheelchair":"no","wheelchair":"yes"}}, "geometry":{"type":"MultiPolygon","coordinates":[[[[-2.66738,53.46637],[-2.66703,53.46648],[-2.66742,53.46691],[-2.66763,53.46685],[-2.66759,53.4668],[-2.66773,53.46675],[-2.66765,53.46667],[-2.66738,53.46637]]]]}},
{ "type":"Feature","properties":{"osm_way_id":"36947163","name":"Morrisons","building":"yes","shop":"supermarket","other":{"alt_name":"Morrisons Belle Vale","brand":"Morrisons","brand:wikidata":"Q922344","brand:wikipedia":"en:Morrisons","wheelchair":"yes"}}, "geometry":{"type":"MultiPolygon","coordinates":[[[[-2.85977,53.38928],[-2.85967,53.38936],[-2.85962,53.38934],[-2.85899,53.38979],[-2.85742,53.38907],[-2.85754,53.38896],[-2.8577,53.38886],[-2.8579,53.38885],[-2.85811,53.38896],[-2.85826,53.38886],[-2.8584,53.38892],[-2.85844,53.38889],[-2.85864,53.38898],[-2.85868,53.38895],[-2.85882,53.38903],[-2.85896,53.38892],[-2.85977,53.38928]]]]}},
{ "type":"Feature","properties":{"osm_way_id":"36975240","name":"Sainsbury's","building":"yes","shop":"supermarket","other":{"brand":"Sainsbury's","brand:wikidata":"Q152096","brand:wikipedia":"en:Sainsbury's"}}, "geometry":{"type":"MultiPolygon","coordinates":[[[[-2.96142,53.45063],[-2.96251,53.45092],[-2.96187,53.45186],[-2.96137,53.45173],[-2.9613,53.45172],[-2.96094,53.45136],[-2.96107,53.45118],[-2.96101,53.45116],[-2.96106,53.4511],[-2.96091,53.45106],[-2.96119,53.45069],[-2.96137,53.45072],[-2.96142,53.45063]]]]}},
{ "type":"Feature","properties":{"osm_way_id":"38615972","name":"ALDI","building":"yes","shop":"supermarket","other":{"brand":"ALDI","brand:wikidata":"Q41171672","brand:wikipedia":"en:Aldi"}}, "geometry":{"type":"MultiPolygon","coordinates":[[[[-2.96791,53.48225],[-2.96758,53.48239],[-2.96805,53.48278],[-2.96824,53.4827],[-2.9682,53.48267],[-2.96834,53.48261],[-2.96791,53.48225]]]]}},
{ "type":"Feature","properties":{"osm_way_id":"38680520","name":"Sainsbury's","building":"yes","shop":"supermarket","other":{"brand":"Sainsbury's","brand:wikidata":"Q152096","brand:wikipedia":"en:Sainsbury's"}}, "geometry":{"type":"MultiPolygon","coordinates":[[[[-3.02662,53.49313],[-3.02617,53.49283],[-3.02669,53.49256],[-3.02687,53.49261],[-3.02715,53.49279],[-3.02714,53.49287],[-3.02662,53.49313]]]]}},
{ "type":"Feature","properties":{"osm_way_id":"39356300","name":"Co-operative Food","building":"yes","shop":"supermarket"},"geometry":{"type":"MultiPolygon","coordinates":[[[[-3.0344,53.48708],[-3.03425,53.48695],[-3.03395,53.48709],[-3.03378,53.48692],[-3.03366,53.48699],[-3.03389,53.48716],[-3.03395,53.48718],[-3.03404,53.4872],[-3.03413,53.48719],[-3.0344,53.48708]]]]}},
{ "type":"Feature","properties":{"osm_way_id":"42258572","name":"ALDI","building":"yes","shop":"supermarket","other":{"addr:postcode":"WA8 6UF","addr:street":"Green Oaks Way","brand":"ALDI","brand:wikidata":"Q41171672","brand:wikipedia":"en:Aldi","fhrs:id":"118840","opening_hours":"Mo-Sa 08:00-22:00; Su 10:00-16:00","operator":"Aldi Stores"}}, "geometry":{"type":"MultiPolygon","coordinates":[[[[-2.72312,53.3656],[-2.72268,53.36549],[-2.72237,53.36592],[-2.72246,53.36594],[-2.7225,53.3659],[-2.72284,53.36598],[-2.72304,53.36571],[-2.72312,53.3656]]]]}},
{ "type":"Feature","properties":{"osm_way_id":"42422078","name":"Asda","building":"retail","shop":"supermarket","other":{"addr:city":"Woodchurch","addr:country":"GB","addr:postcode":"CH49 5PD","addr:street":"Woodchurch Road","brand":"Asda","brand:wikidata":"Q297410","brand:wikipedia":"en:Asda","contact:website":"https:\/\/storelocator.asda.com\/north-west\/birkenhead\/woodchurch-road","fhrs:id":"395165","layer":"1","operator":"Asda Stores Ltd"}}, "geometry":{"type":"MultiPolygon","coordinates":[[[[-3.07669,53.37024],[-3.07658,53.37058],[-3.07544,53.37044],[-3.07559,53.36998],[-3.07588,53.37002],[-3.07596,53.36979],[-3.07691,53.3699],[-3.07687,53.37],[-3.07708,53.37003],[-3.07703,53.37017],[-3.07683,53.37015],[-3.07679,53.37025],[-3.07669,53.37024]]]]}},
{ "type":"Feature","properties":{"osm_way_id":"51817262","name":"ALDI","building":"yes","shop":"supermarket","other":{"brand":"ALDI","brand:wikidata":"Q41171672","brand:wikipedia":"en:Aldi"}}, "geometry":{"type":"MultiPolygon","coordinates":[[[[-2.93534,53.39477],[-2.9349,53.39464],[-2.93525,53.39424],[-2.93551,53.39432],[-2.93547,53.39437],[-2.93556,53.39441],[-2.93554,53.39443],[-2.93536,53.39464],[-2.93544,53.39467],[-2.93534,53.39477]]]]}},
{ "type":"Feature","properties":{"osm_way_id":"81140540","name":"Asda","building":"yes","shop":"supermarket","other":{"addr:country":"GB","addr:postcode":"L10 3LN","brand":"Asda","brand:wikidata":"Q297410","brand:wikipedia":"en:Asda","contact:website":"https:\/\/storelocator.asda.com\/north-west\/liverpool\/ormskirk-road","operator":"Asda Stores Ltd"}}, "geometry":{"type":"MultiPolygon","coordinates":[[[[-2.95072,53.49214],[-2.95086,53.49208],[-2.95095,53.49195],[-2.95098,53.49196],[-2.95123,53.49163],[-2.95126,53.49163],[-2.95135,53.49152],[-2.95119,53.49138],[-2.95111,53.49135],[-2.95116,53.49126],[-2.95017,53.491],[-2.95017,53.49097],[-2.94998,53.49069],[-2.94966,53.49076],[-2.94987,53.49104],[-2.94958,53.49144],[-2.94965,53.49146],[-2.94947,53.49172],[-2.95003,53.49188],[-2.94998,53.49194],[-2.95072,53.49214]]]]}},
{ "type":"Feature","properties":{"osm_way_id":"114262705","name":"Tesco Extra","building":"yes","shop":"supermarket","other":{"addr:city":"Liverpool","addr:housenumber":"215","addr:postcode":"L8 4XF","addr:street":"Park Road","alt_name":"Tesco Park Road Extra","brand":"Tesco Extra","brand:wikidata":"Q25172225","brand:wikipedia":"en:Tesco Extra","fhrs:id":"498378","layer":"-1","source:opened":"twitter","wheelchair":"yes"}}, "geometry":{"type":"MultiPolygon","coordinates":[[[[-2.96529,53.38532],[-2.96519,53.38527],[-2.96524,53.38523],[-2.96468,53.38494],[-2.96416,53.38467],[-2.9641,53.38471],[-2.96397,53.38464],[-2.964,53.38462],[-2.96391,53.38457],[-2.96386,53.3846],[-2.9638,53.38457],[-2.96326,53.38493],[-2.9633,53.38495],[-2.96311,53.38508],[-2.96316,53.38511],[-2.96289,53.38529],[-2.96363,53.38568],[-2.96388,53.38551],[-2.96452,53.38584],[-2.96529,53.38532]]]]}},
{ "type":"Feature","properties":{"osm_way_id":"123721877","name":"Asda","building":"yes","shop":"supermarket","other":{"addr:city":"Liverpool","addr:country":"GB","addr:postcode":"L4 9XU","addr:street":"Utting Avenue","brand":"Asda","brand:wikidata":"Q297410","brand:wikipedia":"en:Asda","contact:website":"https:\/\/storelocator.asda.com\/north-west\/liverpool\/utting-avenue","fhrs:id":"497380","operator":"Asda Stores Ltd"}}, "geometry":{"type":"MultiPolygon","coordinates":[[[[-2.93977,53.44204],[-2.93999,53.44201],[-2.94017,53.44199],[-2.94016,53.44197],[-2.94034,53.44195],[-2.94053,53.44193],[-2.94086,53.44189],[-2.94104,53.44243],[-2.94091,53.44245],[-2.94095,53.44255],[-2.94089,53.44255],[-2.94095,53.44272],[-2.94056,53.44276],[-2.94057,53.44282],[-2.94021,53.44286],[-2.9402,53.44281],[-2.93957,53.44289],[-2.93952,53.44275],[-2.93942,53.44276],[-2.93943,53.4428],[-2.93939,53.44281],[-2.9393,53.44253],[-2.93924,53.44254],[-2.93913,53.44223],[-2.93929,53.44221],[-2.93928,53.44219],[-2.9398,53.44212],[-2.93977,53.44204]]]]}},
{ "type":"Feature","properties":{"osm_way_id":"124796201","name":"Jack's","building":"yes","shop":"supermarket","other":{"addr:city":"Liverpool","addr:country":"GB","addr:housenumber":"124","addr:postcode":"L4 3QW","addr:street":"County Road","brand":"Jack's","brand:wikidata":"Q60741213","brand:wikipedia":"en:Jack's (store)","fhrs:id":"498176"}}, "geometry":{"type":"MultiPolygon","coordinates":[[[[-2.96981,53.44227],[-2.96987,53.44209],[-2.96974,53.44207],[-2.96978,53.44192],[-2.96924,53.44186],[-2.96913,53.44219],[-2.96981,53.44227]]]]}},
{ "type":"Feature","properties":{"osm_way_id":"143276889","name":"Asda","building":"retail","shop":"supermarket","other":{"addr:city":"Bromborough","addr:country":"GB","addr:postcode":"CH62 3QP","addr:street":"Welton Road","brand":"Asda","brand:wikidata":"Q297410","brand:wikipedia":"en:Asda","fhrs:id":"394784","opening_hours":"24\/7","opening_hours:covid19":"open","operator":"Asda Stores Ltd","toilets":"yes","toilets:access":"customers","toilets:wheelchair":"yes","website":"https:\/\/storelocator.asda.com\/north-west\/bromborough\/welton-road-croft-business-park","wheelchair":"yes"}}, "geometry":{"type":"MultiPolygon","coordinates":[[[[-2.9765,53.3394],[-2.97579,53.33957],[-2.97565,53.33955],[-2.97549,53.33959],[-2.97557,53.3397],[-2.97548,53.33972],[-2.97544,53.33979],[-2.97555,53.33995],[-2.97564,53.33993],[-2.97577,53.34012],[-2.97591,53.34008],[-2.9762,53.34051],[-2.9766,53.34041],[-2.97662,53.34044],[-2.97689,53.34037],[-2.97691,53.3404],[-2.97705,53.34036],[-2.97701,53.34031],[-2.97712,53.34028],[-2.97695,53.34003],[-2.97701,53.34001],[-2.97684,53.33977],[-2.97683,53.33975],[-2.97681,53.33972],[-2.97691,53.3397],[-2.9768,53.33954],[-2.9767,53.33957],[-2.97668,53.33953],[-2.97661,53.33955],[-2.9765,53.3394]]]]}},
{ "type":"Feature","properties":{"osm_way_id":"147608799","name":"Co-op Food","amenity":"post_office","building":"yes","shop":"supermarket","other":{"addr:city":"Runcorn","addr:postcode":"WA7 6ER","addr:street":"The Ridgeway","brand":"Co-op Food","brand:wikidata":"Q3277439","brand:wikipedia":"en:Co-op Food","fhrs:id":"83494","operator":"The Co-operative Group","operator:wikidata":"Q117202","operator:wikipedia":"en:The Co-operative Group"}}, "geometry":{"type":"MultiPolygon","coordinates":[[[[-2.66486,53.32373],[-2.66459,53.32353],[-2.66479,53.32343],[-2.66506,53.32364],[-2.66486,53.32373]]]]}},
{ "type":"Feature","properties":{"osm_way_id":"154013803","name":"ALDI","building":"yes","shop":"supermarket","other":{"brand":"ALDI","brand:wikidata":"Q41171672","brand:wikipedia":"en:Aldi"}}, "geometry":{"type":"MultiPolygon","coordinates":[[[[-3.0023,53.35826],[-3.00218,53.35834],[-3.00225,53.35838],[-3.00219,53.35842],[-3.00215,53.35845],[-3.00194,53.35834],[-3.0019,53.35837],[-3.00137,53.3581],[-3.00166,53.3579],[-3.00181,53.35797],[-3.00178,53.35799],[-3.0023,53.35826]]]]}},
{ "type":"Feature","properties":{"osm_way_id":"154477177","name":"Asda","building":"yes","shop":"supermarket","other":{"addr:country":"GB","addr:postcode":"CH45 4NZ","addr:street":"Seaview Road","brand":"Asda","brand:wikidata":"Q297410","brand:wikipedia":"en:Asda","contact:website":"https:\/\/storelocator.asda.com\/north-west\/wallasey\/sea-view-road","fhrs:id":"394603","operator":"Asda Stores Ltd","source:postcode":"FHRS Open Data"}}, "geometry":{"type":"MultiPolygon","coordinates":[[[[-3.0505,53.42417],[-3.04971,53.42438],[-3.05001,53.42476],[-3.04987,53.42479],[-3.05016,53.42516],[-3.05032,53.42512],[-3.05036,53.42516],[-3.05101,53.42498],[-3.05084,53.42476],[-3.05095,53.42473],[-3.05082,53.42457],[-3.05104,53.42451],[-3.05093,53.42439],[-3.05107,53.42435],[-3.05096,53.4242],[-3.05093,53.42416],[-3.05118,53.42409],[-3.05076,53.42383],[-3.05069,53.42388],[-3.05082,53.42395],[-3.05062,53.42401],[-3.05068,53.42408],[-3.05054,53.42412],[-3.0506,53.42419],[-3.05053,53.42421],[-3.0505,53.42417]]]]}},
{ "type":"Feature","properties":{"osm_way_id":"165762195","name":"Tesco Extra","building":"yes","shop":"supermarket","other":{"addr:city":"St Helens","addr:postcode":"WA9 5DT","addr:street":"St Helens Linkway","brand":"Tesco Extra","brand:wikidata":"Q25172225","brand:wikipedia":"en:Tesco Extra","fhrs:id":"197042","source:addr":"FHRS Open Data","website":"https:\/\/www.tesco.com\/store-locator\/st-helens\/st-helens-linkway"}}, "geometry":{"type":"MultiPolygon","coordinates":[[[[-2.72969,53.44811],[-2.72887,53.44821],[-2.72844,53.44826],[-2.7284,53.44813],[-2.72831,53.44814],[-2.72816,53.44769],[-2.72806,53.4477],[-2.72798,53.44771],[-2.72793,53.44772],[-2.72783,53.4474],[-2.72795,53.44738],[-2.72785,53.44708],[-2.72766,53.4471],[-2.72761,53.44695],[-2.72777,53.44693],[-2.72892,53.4468],[-2.72891,53.44675],[-2.72908,53.44673],[-2.72919,53.44671],[-2.72922,53.44671],[-2.72969,53.44811]]]]}},
{ "type":"Feature","properties":{"osm_way_id":"166437581","name":"Tesco Metro","building":"yes","shop":"supermarket","other":{"addr:city":"Berkhamsted","addr:housenumber":"160","addr:postcode":"HP4 3AP","addr:street":"High Street","brand":"Tesco Metro","brand:wikidata":"Q57551648","brand:wikipedia":"en:Tesco","designation":"Generic Building","fhrs:id":"202312","operator":"Tesco Stores Ltd"}}, "geometry":{"type":"MultiPolygon","coordinates":[[[[-0.56319,51.76062],[-0.56307,51.76058],[-0.563,51.76055],[-0.56293,51.76053],[-0.56314,51.76029],[-0.5632,51.76031],[-0.56323,51.76027],[-0.56326,51.76024],[-0.56332,51.76017],[-0.56352,51.76023],[-0.56319,51.76062]]]]}},
{ "type":"Feature","properties":{"osm_way_id":"166680035","name":"Tesco Metro","building":"yes","shop":"supermarket","other":{"addr:city":"Liverpool","addr:housenumber":"184-198","addr:postcode":"L17 9PE","addr:street":"Aigburth Road","brand":"Tesco Metro","brand:wikidata":"Q57551648","operator":"Tesco","wheelchair":"yes"}}, "geometry":{"type":"MultiPolygon","coordinates":[[[[-2.9484,53.378],[-2.94833,53.37798],[-2.94835,53.37796],[-2.94825,53.37793],[-2.94824,53.37794],[-2.94816,53.37791],[-2.94776,53.37829],[-2.94793,53.37836],[-2.94813,53.37817],[-2.94815,53.37815],[-2.94822,53.37817],[-2.94823,53.37816],[-2.9483,53.3781],[-2.9484,53.378]]]]}},
{ "type":"Feature","properties":{"osm_way_id":"166680440","name":"Lidl","building":"yes","shop":"supermarket","other":{"addr:country":"GB","addr:housenumber":"10","addr:postcode":"L8 4TF","addr:street":"Park Hill Road","brand":"Lidl","brand:wikidata":"Q151954","brand:wikipedia":"en:Lidl","fhrs:id":"1297039"}}, "geometry":{"type":"MultiPolygon","coordinates":[[[[-2.96297,53.38292],[-2.96227,53.38256],[-2.9619,53.38281],[-2.96239,53.38307],[-2.96233,53.38311],[-2.96252,53.3832],[-2.96258,53.38316],[-2.96259,53.38317],[-2.96297,53.38292]]]]}},
{ "type":"Feature","properties":{"osm_way_id":"166680621","name":"Asda","building":"yes","shop":"supermarket","other":{"addr:city":"Liverpool","addr:country":"GB","addr:housenumber":"126","addr:postcode":"L15 3JR","addr:street":"Smithdown Road","brand":"Asda","brand:wikidata":"Q297410","brand:wikipedia":"en:Asda","contact:website":"https:\/\/storelocator.asda.com\/north-west\/liverpool\/126-smithdown-road","fhrs:id":"497866","operator":"Asda Stores Ltd","wheelchair":"yes"}}, "geometry":{"type":"MultiPolygon","coordinates":[[[[-2.93622,53.39396],[-2.9354,53.39343],[-2.93582,53.3932],[-2.93577,53.39317],[-2.93581,53.39315],[-2.9356,53.39302],[-2.93602,53.39279],[-2.93597,53.39276],[-2.93592,53.39279],[-2.9358,53.39271],[-2.93588,53.39267],[-2.9362,53.39287],[-2.93612,53.39291],[-2.93623,53.39298],[-2.93636,53.39291],[-2.93686,53.39323],[-2.93711,53.39339],[-2.93622,53.39396]]]]}},
{ "type":"Feature","properties":{"osm_way_id":"166680652","name":"Tesco","building":"yes","shop":"supermarket","other":{"addr:postcode":"L18 6HF","addr:street":"Mather Avenue","alt_name":"Tesco Liverpool Allerton Road Superstore","brand":"Tesco","brand:wikidata":"Q487494","brand:wikipedia":"en:Tesco"}}, "geometry":{"type":"MultiPolygon","coordinates":[[[[-2.90986,53.38157],[-2.90979,53.3815],[-2.90998,53.38142],[-2.90974,53.38119],[-2.90979,53.38117],[-2.90968,53.38107],[-2.90963,53.38109],[-2.90912,53.3806],[-2.9083,53.38091],[-2.90898,53.38155],[-2.90888,53.38159],[-2.90901,53.38171],[-2.90908,53.38169],[-2.90921,53.38181],[-2.90986,53.38157]]]]}},
{ "type":"Feature","properties":{"osm_way_id":"194464580","name":"Sainsbury's","building":"yes","shop":"supermarket","other":{"brand":"Sainsbury's","brand:wikidata":"Q152096","brand:wikipedia":"en:Sainsbury's","operator":"Sainsbury's","source:name":"photograph"}}, "geometry":{"type":"MultiPolygon","coordinates":[[[[-3.04735,53.37397],[-3.0469,53.37402],[-3.04694,53.37414],[-3.04677,53.37416],[-3.04673,53.37405],[-3.04653,53.37407],[-3.04641,53.3737],[-3.0464,53.37367],[-3.04722,53.37358],[-3.04735,53.37397]]]]}},
{ "type":"Feature","properties":{"osm_way_id":"196560957","name":"Lidl","building":"yes","shop":"supermarket","other":{"addr:country":"GB","addr:postcode":"L3 8JN","addr:street":"London Road","brand":"Lidl","brand:wikidata":"Q151954","brand:wikipedia":"en:Lidl","fhrs:id":"509418"}}, "geometry":{"type":"MultiPolygon","coordinates":[[[[-2.9707,53.40968],[-2.97044,53.40924],[-2.97034,53.40926],[-2.97036,53.40931],[-2.97005,53.40938],[-2.97021,53.40964],[-2.97015,53.40966],[-2.97023,53.40978],[-2.9707,53.40968]]]]}},
{ "type":"Feature","properties":{"osm_way_id":"210898352","name":"Lidl","building":"retail","shop":"supermarket","other":{"addr:city":"Liverpool","addr:postcode":"L7 2RN","addr:street":"Kensington","branch":"Kensington","brand":"Lidl","brand:wikidata":"Q151954","brand:wikipedia":"en:Lidl","building:colour":"white","building:levels":"1","building:material":"concrete","fhrs:id":"497785","organic":"yes","roof:colour":"grey","roof:material":"metal","roof:orientation":"along","roof:shape":"gabled","toilets":"no","wheelchair":"yes"}}, "geometry":{"type":"MultiPolygon","coordinates":[[[[-2.94521,53.41153],[-2.94498,53.4116],[-2.94476,53.41166],[-2.94436,53.41178],[-2.94418,53.41156],[-2.94529,53.41124],[-2.94547,53.41146],[-2.9455,53.4115],[-2.94524,53.41157],[-2.94521,53.41153]]]]}},
{ "type":"Feature","properties":{"osm_way_id":"217367775","name":"Asda","building":"yes","shop":"supermarket","other":{"addr:city":"St Helens","addr:country":"GB","addr:postcode":"WA10 2EF","addr:street":"Kirkland Street","brand":"Asda","brand:wikidata":"Q297410","brand:wikipedia":"en:Asda","contact:website":"https:\/\/storelocator.asda.com\/north-west\/st-helens\/kirkland-street","fhrs:id":"196654","operator":"Asda Stores Ltd"}}, "geometry":{"type":"MultiPolygon","coordinates":[[[[-2.74572,53.45474],[-2.745,53.45411],[-2.74457,53.45428],[-2.74454,53.45427],[-2.74436,53.45434],[-2.7444,53.45437],[-2.74402,53.45452],[-2.74473,53.45514],[-2.74572,53.45474]]]]}},
{ "type":"Feature","properties":{"osm_way_id":"218389319","name":"Morrisons","building":"commercial","shop":"supermarket","other":{"brand":"Morrisons","brand:wikidata":"Q922344","brand:wikipedia":"en:Morrisons"}}, "geometry":{"type":"MultiPolygon","coordinates":[[[[-2.83767,53.34501],[-2.83788,53.34502],[-2.83785,53.3452],[-2.8381,53.34522],[-2.83808,53.34532],[-2.83831,53.34533],[-2.83829,53.34544],[-2.83895,53.34548],[-2.83894,53.34555],[-2.83937,53.34557],[-2.83941,53.34536],[-2.83926,53.34535],[-2.83937,53.34483],[-2.83794,53.34473],[-2.83792,53.34484],[-2.83771,53.34483],[-2.83767,53.34501]]]]}},
{ "type":"Feature","properties":{"osm_way_id":"227223924","name":"Tesco","building":"yes","shop":"supermarket","other":{"addr:city":"Litherland","addr:housename":"Tesco Litherland","addr:postcode":"L21 8NZ","addr:street":"Hawthorne Road","brand":"Tesco","brand:wikidata":"Q487494","brand:wikipedia":"en:Tesco","building:levels":"1","opening_hours":"Mo 07:00-24:00; Tu-Sa 00:00-24:00; Su 10:00-16:00","operator":"Tesco"}}, "geometry":{"type":"MultiPolygon","coordinates":[[[[-2.99811,53.46831],[-2.99882,53.46887],[-2.9977,53.46937],[-2.997,53.4688],[-2.99803,53.46834],[-2.99811,53.46831]]]]}},
{ "type":"Feature","properties":{"osm_way_id":"236560561","name":"Tesco Extra","building":"yes","shop":"supermarket","other":{"addr:postcode":"CH43 7AA","addr:street":"Bidston Link Road","brand":"Tesco Extra","brand:wikidata":"Q25172225","brand:wikipedia":"en:Tesco Extra","fhrs:id":"394119","source:addr":"FHRS Open Data"}}, "geometry":{"type":"MultiPolygon","coordinates":[[[[-3.07136,53.40806],[-3.07145,53.40789],[-3.07078,53.40777],[-3.07077,53.4078],[-3.07039,53.40773],[-3.07041,53.40769],[-3.07031,53.40767],[-3.07029,53.40771],[-3.06951,53.40757],[-3.06946,53.40766],[-3.06932,53.40794],[-3.0691,53.4079],[-3.06898,53.40814],[-3.0698,53.40829],[-3.06981,53.40827],[-3.07011,53.40832],[-3.0701,53.40835],[-3.07027,53.40838],[-3.07028,53.40835],[-3.07074,53.40843],[-3.07079,53.40832],[-3.07083,53.40833],[-3.07081,53.40837],[-3.07084,53.40838],[-3.07082,53.40843],[-3.07101,53.40846],[-3.07104,53.4084],[-3.07122,53.40843],[-3.07124,53.40838],[-3.07106,53.40835],[-3.07109,53.40829],[-3.07113,53.4083],[-3.07118,53.40819],[-3.07126,53.40804],[-3.07136,53.40806]]]]}},
{ "type":"Feature","properties":{"osm_way_id":"247903220","name":"Heron Foods","building":"yes","shop":"supermarket","other":{"addr:city":"Wirral","addr:country":"GB","addr:housenumber":"220","addr:postcode":"CH46 6AD","addr:street":"Hoylake Road","addr:town":"Moreton","brand":"Heron Foods","brand:wikidata":"Q5743472","brand:wikipedia":"en:Heron Foods","contact:website":"https:\/\/heronfoods.com\/storelocator\/store-details\/moreton","fhrs:id":"796388"}}, "geometry":{"type":"MultiPolygon","coordinates":[[[[-3.11284,53.40126],[-3.11298,53.40168],[-3.11277,53.4017],[-3.11269,53.40145],[-3.11264,53.40128],[-3.11284,53.40126]]]]}},
{ "type":"Feature","properties":{"osm_way_id":"248477637","name":"Co-op Food","building":"yes","shop":"supermarket","other":{"brand":"Co-op Food","brand:wikidata":"Q3277439","brand:wikipedia":"en:Co-op Food","operator":"The Co-operative Group"}}, "geometry":{"type":"MultiPolygon","coordinates":[[[[-2.97868,53.33086],[-2.97817,53.33087],[-2.97818,53.33118],[-2.97857,53.33117],[-2.97857,53.3312],[-2.97869,53.3312],[-2.97869,53.33113],[-2.97868,53.33086]]]]}},
{ "type":"Feature","properties":{"osm_way_id":"257130388","name":"Morrisons","building":"yes","shop":"supermarket","other":{"addr:housenumber":"11","addr:postcode":"CH48 0QA","addr:street":"Dee Lane","brand":"Morrisons","brand:wikidata":"Q922344","brand:wikipedia":"en:Morrisons","fhrs:id":"394975","source:addr":"FHRS Open Data"}}, "geometry":{"type":"MultiPolygon","coordinates":[[[[-3.18658,53.37235],[-3.1865,53.37222],[-3.18643,53.37224],[-3.18616,53.37182],[-3.18604,53.37185],[-3.18603,53.37184],[-3.18505,53.37207],[-3.18518,53.37238],[-3.18539,53.37233],[-3.18549,53.37248],[-3.18577,53.37241],[-3.18582,53.37249],[-3.18634,53.37236],[-3.18637,53.3724],[-3.18658,53.37235]]]]}},
{ "type":"Feature","properties":{"osm_way_id":"265382913","name":"Lidl","building":"yes","shop":"supermarket","other":{"addr:city":"Runcorn","addr:postcode":"WA7 2PY","addr:street":"Edwards Road","brand":"Lidl","brand:wikidata":"Q151954","brand:wikipedia":"en:Lidl","fhrs:id":"621685","source:addr":"FHRS Open Data"}}, "geometry":{"type":"MultiPolygon","coordinates":[[[[-2.70044,53.32966],[-2.70037,53.32974],[-2.70029,53.32972],[-2.70016,53.32986],[-2.69993,53.32979],[-2.69989,53.32983],[-2.69963,53.32975],[-2.69967,53.3297],[-2.69949,53.32965],[-2.69948,53.32966],[-2.69941,53.32964],[-2.69962,53.3294],[-2.70044,53.32966]]]]}},
{ "type":"Feature","properties":{"osm_way_id":"279557904","name":"Asda","building":"yes","shop":"supermarket","other":{"addr:city":"Liverpool","addr:country":"GB","addr:housenumber":"14","addr:postcode":"L6 5DR","addr:street":"The Mall","brand":"Asda","brand:wikidata":"Q297410","brand:wikipedia":"en:Asda","contact:website":"https:\/\/storelocator.asda.com\/north-west\/liverpool\/breck-road","fhrs:id":"497533","operator":"Asda Stores Ltd"}}, "geometry":{"type":"MultiPolygon","coordinates":[[[[-2.95814,53.42226],[-2.95737,53.42255],[-2.95674,53.42194],[-2.95676,53.42179],[-2.95688,53.42169],[-2.95691,53.42168],[-2.95708,53.42184],[-2.95754,53.42167],[-2.95762,53.42174],[-2.95814,53.42226]]]]}},
{ "type":"Feature","properties":{"osm_way_id":"288478302","name":"The Co-operative Food","building":"yes","shop":"supermarket","other":{"addr:city":"Bromborough","addr:housenumber":"116","addr:postcode":"CH62 6AQ","addr:street":"Allport Road","brand":"The Co-operative Food","brand:wikidata":"Q107617274","fhrs:id":"394040","operator":"The Co-operative Group","source:addr:postcode":"FSA Food Hygiene Ratings Database"}}, "geometry":{"type":"MultiPolygon","coordinates":[[[[-2.98307,53.32263],[-2.9828,53.32269],[-2.98277,53.32272],[-2.98283,53.32282],[-2.98314,53.32275],[-2.98307,53.32263]]]]}},
{ "type":"Feature","properties":{"osm_way_id":"322347107","name":"Co-op Food","building":"yes","shop":"supermarket","other":{"addr:housenumber":"580","addr:postcode":"L35 4LP","addr:street":"Warrington Road","brand":"Co-op Food","brand:wikidata":"Q3277439","brand:wikipedia":"en:Co-op Food","opening_hours":"Mo-Sa 07:00-21:00;Su 10:00-16:00","operator":"The Co-operative Group","phone":"+44 151 426 6717"}}, "geometry":{"type":"MultiPolygon","coordinates":[[[[-2.7655,53.416],[-2.76533,53.41628],[-2.76499,53.41619],[-2.76514,53.41594],[-2.7655,53.416]]]]}},
{ "type":"Feature","properties":{"osm_way_id":"323240114","name":"Co-op","building":"yes","shop":"supermarket","other":{"addr:city":"Newton","addr:street":"Frankby Road"}}, "geometry":{"type":"MultiPolygon","coordinates":[[[[-3.15172,53.3725],[-3.1516,53.37259],[-3.15128,53.37244],[-3.15139,53.37235],[-3.15172,53.3725]]]]}},
{ "type":"Feature","properties":{"osm_way_id":"323540001","name":"The Co-operative Food Store","building":"retail","shop":"supermarket","other":{"addr:street":"Market Street","source:geometry":"Bing"}}, "geometry":{"type":"MultiPolygon","coordinates":[[[[-3.17408,53.3948],[-3.17395,53.39491],[-3.17375,53.39483],[-3.17366,53.39492],[-3.17364,53.39494],[-3.17376,53.39498],[-3.17371,53.39503],[-3.17388,53.39509],[-3.17416,53.39483],[-3.17408,53.3948]]]]}},
{ "type":"Feature","properties":{"osm_way_id":"324983154","name":"M&S Simply Food","building":"yes","shop":"supermarket","other":{"addr:housenumber":"126-128","addr:postcode":"CH60 0AH","addr:street":"Telegraph Road","brand":"M&S Simply Food","brand:wikidata":"Q714491","brand:wikipedia":"en:Marks & Spencer","fhrs:id":"395361","source:addr":"FHRS Open Data"}}, "geometry":{"type":"MultiPolygon","coordinates":[[[[-3.0946,53.32665],[-3.09432,53.32686],[-3.09403,53.32671],[-3.09431,53.32651],[-3.0946,53.32665]]]]}},
{ "type":"Feature","properties":{"osm_way_id":"324983157","name":"Tesco","building":"yes","shop":"supermarket","other":{"brand":"Tesco","brand:wikidata":"Q487494","brand:wikipedia":"en:Tesco"}}, "geometry":{"type":"MultiPolygon","coordinates":[[[[-3.10371,53.32862],[-3.10364,53.32855],[-3.10339,53.32841],[-3.10321,53.32831],[-3.10317,53.32834],[-3.10299,53.32824],[-3.10303,53.32821],[-3.10292,53.32816],[-3.1028,53.32824],[-3.10266,53.32816],[-3.10246,53.32821],[-3.10225,53.32834],[-3.10203,53.32848],[-3.10266,53.32883],[-3.10274,53.32877],[-3.10307,53.32893],[-3.1032,53.32884],[-3.1033,53.32889],[-3.1035,53.32876],[-3.10347,53.32867],[-3.10371,53.32862]]]]}},
{ "type":"Feature","properties":{"osm_way_id":"325413344","name":"Sainsbury's","building":"yes","shop":"supermarket","other":{"addr:housename":"Sainsbury's Centre","addr:housenumber":"1","addr:postcode":"L25 5QA","addr:street":"James Road","alt_name":"Sainsbury's Woolton Superstore","brand":"Sainsbury's","brand:wikidata":"Q152096","brand:wikipedia":"en:Sainsbury's"}}, "geometry":{"type":"MultiPolygon","coordinates":[[[[-2.86535,53.37537],[-2.86525,53.37529],[-2.86566,53.37513],[-2.86603,53.37548],[-2.86595,53.37552],[-2.86612,53.37568],[-2.86608,53.37577],[-2.86579,53.37588],[-2.86571,53.37587],[-2.86545,53.37597],[-2.86501,53.37555],[-2.86511,53.37551],[-2.86508,53.37548],[-2.86535,53.37537]]]]}},
{ "type":"Feature","properties":{"osm_way_id":"325413345","name":"Asda","building":"yes","shop":"supermarket","other":{"addr:city":"Liverpool","addr:country":"GB","addr:housename":"Hunts Cross Shopping Centre","addr:postcode":"L24 9WA","alt_name":"ASDA Hunts Cross Superstore","brand":"Asda","brand:wikidata":"Q297410","brand:wikipedia":"en:Asda","contact:website":"https:\/\/storelocator.asda.com\/north-west\/liverpool\/hunts-cross-shopping-centre","fhrs:id":"497621","operator":"Asda Stores Ltd"}}, "geometry":{"type":"MultiPolygon","coordinates":[[[[-2.86865,53.35693],[-2.86752,53.35709],[-2.86788,53.35798],[-2.86774,53.358],[-2.8678,53.35814],[-2.86793,53.35812],[-2.8679,53.35805],[-2.86903,53.35788],[-2.86865,53.35693]]]]}},
{ "type":"Feature","properties":{"osm_way_id":"327000706","name":"Tesco Extra","building":"yes","shop":"supermarket","other":{"addr:city":"Widnes","addr:housename":"Ashley Retail Park","addr:postcode":"WA8 7YT","addr:street":"Lugsdale Road","brand":"Tesco Extra","brand:wikidata":"Q25172225","brand:wikipedia":"en:Tesco Extra","operator":"Tesco"}}, "geometry":{"type":"MultiPolygon","coordinates":[[[[-2.72439,53.36473],[-2.72418,53.36466],[-2.72429,53.36454],[-2.72363,53.36432],[-2.72403,53.36383],[-2.72413,53.36361],[-2.72432,53.36338],[-2.72454,53.36324],[-2.7255,53.36358],[-2.72439,53.36473]]]]}},
{ "type":"Feature","properties":{"osm_way_id":"356035770","name":"Heron Foods","building":"yes","shop":"supermarket","other":{"addr:city":"Liverpool","addr:country":"GB","addr:housenumber":"180-182","addr:postcode":"L17 9PE","addr:street":"Aigburth Road","brand":"Heron Foods","brand:wikidata":"Q5743472","brand:wikipedia":"en:Heron Foods","contact:website":"https:\/\/heronfoods.com\/storelocator\/store-details\/aigburth-road","fhrs:id":"634313"}}, "geometry":{"type":"MultiPolygon","coordinates":[[[[-2.94813,53.37817],[-2.94826,53.37821],[-2.94821,53.37826],[-2.94806,53.37841],[-2.94793,53.37836],[-2.94813,53.37817]]]]}},
{ "type":"Feature","properties":{"osm_way_id":"356574318","name":"Asda","building":"retail","shop":"supermarket","other":{"addr:city":"Garston","addr:country":"GB","addr:postcode":"L19 1SJ","addr:street":"Saint Mary's Road","alt_name":"Asda Garston Supermarket","brand":"Asda","brand:wikidata":"Q297410","brand:wikipedia":"en:Asda","contact:phone":"+44 151 5521150","contact:website":"https:\/\/storelocator.asda.com\/north-west\/garston\/st-mary's-road","fhrs:id":"498502","opening_hours":"Mo-Sa 08:00-21:00; Su 10:00-16:00","operator":"Asda Stores Ltd"}}, "geometry":{"type":"MultiPolygon","coordinates":[[[[-2.90371,53.35578],[-2.90324,53.35558],[-2.90305,53.35574],[-2.90307,53.35575],[-2.90303,53.35578],[-2.90321,53.35586],[-2.90326,53.35583],[-2.90352,53.35594],[-2.90371,53.35578]]]]}},
{ "type":"Feature","properties":{"osm_way_id":"357124759","name":"ALDI","building":"retail","shop":"supermarket","other":{"brand":"ALDI","brand:wikidata":"Q41171672","brand:wikipedia":"en:Aldi"}}, "geometry":{"type":"MultiPolygon","coordinates":[[[[-2.9102,53.35837],[-2.91014,53.35841],[-2.90977,53.3582],[-2.90945,53.35841],[-2.90948,53.35842],[-2.90945,53.35844],[-2.90974,53.3586],[-2.90978,53.35857],[-2.91008,53.35874],[-2.9104,53.35854],[-2.91032,53.35843],[-2.9102,53.35837]]]]}},
{ "type":"Feature","properties":{"osm_way_id":"371203338","name":"Sainsbury's","building":"yes","shop":"supermarket","other":{"addr:city":"Southport","addr:street":"St Georges Place, Lord Street","brand":"Sainsbury's","brand:wikidata":"Q152096","brand:wikipedia":"en:Sainsbury's"}}, "geometry":{"type":"MultiPolygon","coordinates":[[[[-3.00194,53.64917],[-3.00249,53.64947],[-3.00294,53.6492],[-3.00283,53.64913],[-3.00239,53.64888],[-3.00194,53.64917]]]]}},
{ "type":"Feature","properties":{"osm_way_id":"376986727","name":"Co-op Food","building":"yes","shop":"supermarket","other":{"addr:city":"Southport","addr:street":"Marshside Road","brand":"Morrisons","brand:wikidata":"Q3277439","brand:wikipedia":"en:Co-op Food"}}, "geometry":{"type":"MultiPolygon","coordinates":[[[[-2.97103,53.66743],[-2.97109,53.66751],[-2.97127,53.66745],[-2.9713,53.66749],[-2.97144,53.66745],[-2.97135,53.66734],[-2.97103,53.66743]]]]}},
{ "type":"Feature","properties":{"osm_way_id":"438207540","name":"M.P. Food, News & Wine Store","building":"yes","shop":"supermarket"},"geometry":{"type":"MultiPolygon","coordinates":[[[[-2.78672,53.41317],[-2.78635,53.41319],[-2.78633,53.41305],[-2.78637,53.41305],[-2.78636,53.41303],[-2.78647,53.41303],[-2.78647,53.41301],[-2.78657,53.41301],[-2.78658,53.41307],[-2.78661,53.41307],[-2.78661,53.41311],[-2.78671,53.4131],[-2.78672,53.41317]]]]}},
{ "type":"Feature","properties":{"osm_way_id":"448324135","name":"Co-op","building":"yes","shop":"supermarket","other":{"operator":"The Co-operative Group"}}, "geometry":{"type":"MultiPolygon","coordinates":[[[[-3.0294,53.47684],[-3.02904,53.477],[-3.02851,53.47659],[-3.02866,53.47652],[-3.02861,53.47648],[-3.02881,53.47639],[-3.0294,53.47684]]]]}},
{ "type":"Feature","properties":{"osm_way_id":"454345520","name":"Tesco Extra","building":"yes","shop":"supermarket","other":{"brand":"Tesco Extra","brand:wikidata":"Q25172225","brand:wikipedia":"en:Tesco Extra"}}, "geometry":{"type":"MultiPolygon","coordinates":[[[[-2.80423,53.42683],[-2.80409,53.4269],[-2.80405,53.42686],[-2.80388,53.42689],[-2.80391,53.42694],[-2.8035,53.42701],[-2.80348,53.42696],[-2.80313,53.42702],[-2.8027,53.42708],[-2.80265,53.42696],[-2.80242,53.427],[-2.8024,53.42695],[-2.80237,53.42695],[-2.80227,53.42673],[-2.80252,53.42669],[-2.80295,53.42663],[-2.80283,53.42636],[-2.80279,53.42627],[-2.80354,53.42615],[-2.80404,53.42607],[-2.80454,53.42599],[-2.80482,53.42657],[-2.80477,53.42658],[-2.80483,53.42672],[-2.80423,53.42683]]]]}},
{ "type":"Feature","properties":{"osm_way_id":"456427113","name":"Heron Foods","building":"yes","shop":"supermarket","other":{"addr:city":"Prescot","addr:country":"GB","addr:housenumber":"43","addr:postcode":"L34 5QA","addr:street":"Eccleston Street","brand":"Heron Foods","brand:wikidata":"Q5743472","brand:wikipedia":"en:Heron Foods","contact:website":"https:\/\/heronfoods.com\/storelocator\/store-details\/prescot","fhrs:id":"858267"}}, "geometry":{"type":"MultiPolygon","coordinates":[[[[-2.80422,53.42936],[-2.80401,53.42942],[-2.80395,53.42935],[-2.80388,53.42926],[-2.80372,53.42931],[-2.8038,53.42942],[-2.80394,53.4296],[-2.80427,53.42952],[-2.80429,53.42949],[-2.80428,53.42944],[-2.80425,53.42942],[-2.8042,53.4294],[-2.80424,53.4294],[-2.80424,53.42938],[-2.80422,53.42936]]]]}},
{ "type":"Feature","properties":{"osm_way_id":"456761038","name":"Lidl","building":"yes","shop":"supermarket","other":{"addr:country":"GB","addr:postcode":"L21 6PD","addr:street":"Wellington Road","brand":"Lidl","brand:wikidata":"Q151954","brand:wikipedia":"en:Lidl","fhrs:id":"452270"}}, "geometry":{"type":"MultiPolygon","coordinates":[[[[-3.00454,53.46648],[-3.00492,53.46633],[-3.0044,53.46586],[-3.00423,53.46592],[-3.0043,53.46599],[-3.00409,53.46607],[-3.00454,53.46648]]]]}},
{ "type":"Feature","properties":{"osm_way_id":"456761040","name":"ALDI","building":"yes","shop":"supermarket","other":{"brand":"ALDI","brand:wikidata":"Q41171672","brand:wikipedia":"en:Aldi"}}, "geometry":{"type":"MultiPolygon","coordinates":[[[[-2.99481,53.45525],[-2.99442,53.45531],[-2.99418,53.45476],[-2.99457,53.4547],[-2.99481,53.45525]]]]}},
{ "type":"Feature","properties":{"osm_way_id":"456761042","name":"Lidl","building":"yes","shop":"supermarket","other":{"addr:country":"GB","addr:housenumber":"290","addr:postcode":"L20 5BQ","addr:street":"Marsh Lane","brand":"Lidl","brand:wikidata":"Q151954","brand:wikipedia":"en:Lidl","fhrs:id":"452269"}}, "geometry":{"type":"MultiPolygon","coordinates":[[[[-2.99016,53.45434],[-2.99085,53.45427],[-2.9908,53.45408],[-2.99074,53.45409],[-2.99066,53.45379],[-2.99024,53.45383],[-2.99034,53.45419],[-2.99035,53.45424],[-2.99014,53.45426],[-2.99016,53.45434]]]]}},
{ "type":"Feature","properties":{"osm_way_id":"458060380","name":"ALDI","building":"yes","shop":"supermarket","other":{"addr:postcode":"L13 5SG","addr:street":"Broad Green Road","brand":"ALDI","brand:wikidata":"Q41171672","brand:wikipedia":"en:Aldi"}}, "geometry":{"type":"MultiPolygon","coordinates":[[[[-2.91322,53.41262],[-2.91287,53.41281],[-2.91234,53.41247],[-2.91273,53.41226],[-2.91298,53.41242],[-2.91294,53.41244],[-2.91322,53.41262]]]]}},
{ "type":"Feature","properties":{"osm_way_id":"460179426","name":"Tesco","building":"yes","shop":"supermarket","other":{"brand":"Tesco","brand:wikidata":"Q487494","brand:wikipedia":"en:Tesco"}}, "geometry":{"type":"MultiPolygon","coordinates":[[[[-3.04344,53.55408],[-3.0419,53.55375],[-3.04236,53.55301],[-3.04361,53.55327],[-3.04379,53.55331],[-3.04344,53.55408]]]]}},
{ "type":"Feature","properties":{"osm_way_id":"460346596","name":"One Stop Community Store","building":"yes","shop":"supermarket","other":{"addr:city":"Formby","addr:housenumber":"2","addr:postcode":"L37 4BJ","addr:street":"Cross Green"}}, "geometry":{"type":"MultiPolygon","coordinates":[[[[-3.05814,53.55434],[-3.05809,53.55423],[-3.05834,53.55419],[-3.05839,53.5543],[-3.05814,53.55434]]]]}},
{ "type":"Feature","properties":{"osm_way_id":"472696048","name":"Tesco","building":"yes","shop":"supermarket","other":{"brand":"Tesco","brand:wikidata":"Q487494","brand:wikipedia":"en:Tesco","opening_hours":"Mo-Sa 08:00-22:00; Su 10:00-16:00"}}, "geometry":{"type":"MultiPolygon","coordinates":[[[[-2.88843,53.43518],[-2.888,53.43464],[-2.88852,53.43449],[-2.88848,53.43445],[-2.88842,53.43446],[-2.88836,53.43439],[-2.88873,53.43428],[-2.88864,53.43417],[-2.88879,53.43413],[-2.8889,53.43426],[-2.88884,53.43428],[-2.8889,53.43431],[-2.889,53.43444],[-2.88918,53.43452],[-2.88947,53.43489],[-2.88843,53.43518]]]]}},
{ "type":"Feature","properties":{"osm_way_id":"474845024","name":"Home Bargains","building":"yes","shop":"supermarket"},"geometry":{"type":"MultiPolygon","coordinates":[[[[-2.80404,53.42288],[-2.80304,53.42289],[-2.80302,53.42249],[-2.80357,53.42249],[-2.80404,53.42248],[-2.80404,53.42288]]]]}},
{ "type":"Feature","properties":{"osm_way_id":"479065672","name":"Tesco","building":"yes","shop":"supermarket","other":{"brand":"Tesco","brand:wikidata":"Q487494","brand:wikipedia":"en:Tesco","wheelchair":"yes"}}, "geometry":{"type":"MultiPolygon","coordinates":[[[[-2.66641,53.46527],[-2.66561,53.46533],[-2.66557,53.46527],[-2.66522,53.46537],[-2.66478,53.4648],[-2.6658,53.46451],[-2.66584,53.46456],[-2.666,53.46452],[-2.66604,53.46457],[-2.66611,53.46455],[-2.66621,53.46469],[-2.66617,53.46471],[-2.66618,53.46472],[-2.66628,53.46469],[-2.66636,53.46479],[-2.66628,53.46482],[-2.6663,53.46484],[-2.66625,53.46485],[-2.66623,53.46483],[-2.66615,53.46485],[-2.66618,53.46488],[-2.66613,53.46489],[-2.66611,53.46486],[-2.66608,53.46487],[-2.66641,53.46527]]]]}},
{ "type":"Feature","properties":{"osm_way_id":"479747647","name":"ALDI","building":"yes","shop":"supermarket","other":{"brand":"ALDI","brand:wikidata":"Q41171672","brand:wikipedia":"en:Aldi"}}, "geometry":{"type":"MultiPolygon","coordinates":[[[[-2.88596,53.41938],[-2.88601,53.41958],[-2.88614,53.42005],[-2.88618,53.42005],[-2.88617,53.42002],[-2.88636,53.42],[-2.88634,53.41995],[-2.8863,53.41978],[-2.88646,53.41976],[-2.88639,53.41948],[-2.88643,53.41947],[-2.88639,53.41934],[-2.88596,53.41938]]]]}},
{ "type":"Feature","properties":{"osm_way_id":"493479392","name":"Sainsbury's","building":"yes","shop":"supermarket","other":{"brand":"Sainsbury's","brand:wikidata":"Q152096","brand:wikipedia":"en:Sainsbury's"}}, "geometry":{"type":"MultiPolygon","coordinates":[[[[-2.89895,53.41521],[-2.89821,53.41473],[-2.89817,53.41475],[-2.89773,53.41446],[-2.8977,53.41448],[-2.89763,53.41443],[-2.89751,53.4145],[-2.8977,53.41463],[-2.89768,53.41464],[-2.8975,53.41474],[-2.89742,53.41468],[-2.89717,53.41482],[-2.89756,53.41506],[-2.89747,53.41511],[-2.8983,53.41565],[-2.89877,53.4154],[-2.8988,53.41541],[-2.89899,53.4153],[-2.8989,53.41524],[-2.89895,53.41521]]]]}},
{ "type":"Feature","properties":{"osm_way_id":"545331669","name":"Morrisons","building":"yes","shop":"supermarket","other":{"addr:city":"New Brighton","addr:housenumber":"22","addr:postcode":"CH45 2PB","addr:street":"Marine Point","brand":"Morrisons","brand:wikidata":"Q922344","brand:wikipedia":"en:Morrisons","fhrs:id":"395690","opening_hours":"Mo-Sa 07:00-22:00; Su 10:00-16:00","source:addr":"FHRS Open Data","wheelchair":"yes"}}, "geometry":{"type":"MultiPolygon","coordinates":[[[[-3.0458,53.44059],[-3.04698,53.44045],[-3.04698,53.44047],[-3.04733,53.44043],[-3.0473,53.44032],[-3.04717,53.44034],[-3.04707,53.44005],[-3.04701,53.44006],[-3.04695,53.43989],[-3.04562,53.44004],[-3.04563,53.4401],[-3.0458,53.44059]]]]}},
{ "type":"Feature","properties":{"osm_way_id":"545334017","name":"Morrisons","building":"supermarket","shop":"supermarket","other":{"addr:postcode":"L31 2PH","brand":"Morrisons","brand:wikidata":"Q922344","brand:wikipedia":"en:Morrisons"}}, "geometry":{"type":"MultiPolygon","coordinates":[[[[-2.94345,53.51496],[-2.94267,53.51473],[-2.94262,53.5148],[-2.94285,53.51487],[-2.94277,53.51497],[-2.9426,53.51493],[-2.94258,53.51495],[-2.94266,53.51497],[-2.9425,53.51518],[-2.94313,53.51536],[-2.94316,53.51532],[-2.94326,53.5152],[-2.94345,53.51496]]]]}},
{ "type":"Feature","properties":{"osm_way_id":"548846631","name":"Asda","building":"yes","shop":"supermarket","other":{"addr:city":"Bootle","addr:country":"GB","addr:housenumber":"81","addr:postcode":"L20 4BB","addr:street":"Strand Road","alt_name":"Asda Bootle","brand":"Asda","brand:wikidata":"Q297410","brand:wikipedia":"en:Asda","contact:website":"https:\/\/storelocator.asda.com\/north-west\/bootle\/81-strand-road","fhrs:id":"71543","operator":"Asda Stores Ltd"}}, "geometry":{"type":"MultiPolygon","coordinates":[[[[-2.99642,53.45171],[-2.99546,53.45188],[-2.99582,53.45261],[-2.99653,53.45249],[-2.9968,53.45244],[-2.99642,53.45171]]]]}},
{ "type":"Feature","properties":{"osm_way_id":"577572071","name":"ALDI","building":"yes","shop":"supermarket","other":{"brand":"ALDI","brand:wikidata":"Q41171672","brand:wikipedia":"en:Aldi","building:levels":"1"}}, "geometry":{"type":"MultiPolygon","coordinates":[[[[-2.96613,53.45177],[-2.96582,53.45199],[-2.96658,53.45234],[-2.96685,53.45213],[-2.96613,53.45177]]]]}},
{ "type":"Feature","properties":{"osm_way_id":"585886861","name":"ALDI","building":"yes","shop":"supermarket","other":{"brand":"ALDI","brand:wikidata":"Q41171672","brand:wikipedia":"en:Aldi"}}, "geometry":{"type":"MultiPolygon","coordinates":[[[[-2.98498,53.34728],[-2.98451,53.34739],[-2.98488,53.34793],[-2.98503,53.34789],[-2.985,53.34784],[-2.98532,53.34777],[-2.98498,53.34728]]]]}},
{ "type":"Feature","properties":{"osm_way_id":"596656658","name":"M&S Foodhall","building":"yes","shop":"supermarket","other":{"brand":"M&S Foodhall","brand:wikidata":"Q714491","brand:wikipedia":"en:Marks & Spencer"}}, "geometry":{"type":"MultiPolygon","coordinates":[[[[-2.92644,53.41009],[-2.92566,53.41013],[-2.92563,53.40995],[-2.9264,53.40991],[-2.92644,53.41009]]]]}},
{ "type":"Feature","properties":{"osm_way_id":"598589232","name":"Sainsbury's","building":"yes","shop":"supermarket","other":{"brand":"Sainsbury's","brand:wikidata":"Q152096","brand:wikipedia":"en:Sainsbury's"}}, "geometry":{"type":"MultiPolygon","coordinates":[[[[-2.97912,53.42338],[-2.98021,53.42332],[-2.98013,53.42277],[-2.98035,53.42276],[-2.98034,53.42266],[-2.97928,53.42272],[-2.97929,53.42279],[-2.97905,53.42288],[-2.97912,53.42338]]]]}},
{ "type":"Feature","properties":{"osm_way_id":"660441069","name":"ALDI","building":"yes","shop":"supermarket","other":{"brand":"ALDI","brand:wikidata":"Q41171672","brand:wikipedia":"en:Aldi"}}, "geometry":{"type":"MultiPolygon","coordinates":[[[[-2.67164,53.31527],[-2.67165,53.3158],[-2.67129,53.3158],[-2.67129,53.31581],[-2.67129,53.31581],[-2.67115,53.31581],[-2.67115,53.31581],[-2.67114,53.31556],[-2.67106,53.31556],[-2.67105,53.31527],[-2.67161,53.31526],[-2.67161,53.31527],[-2.67164,53.31527]]]]}},
{ "type":"Feature","properties":{"osm_way_id":"661393345","name":"Lidl","building":"supermarket","shop":"supermarket","other":{"addr:country":"GB","addr:postcode":"CH41 2TN","addr:street":"Oxton Road","brand":"Lidl","brand:wikidata":"Q151954","brand:wikipedia":"en:Lidl","fhrs:id":"1072887"}}, "geometry":{"type":"MultiPolygon","coordinates":[[[[-3.03537,53.38564],[-3.03431,53.38554],[-3.03436,53.38537],[-3.03429,53.38536],[-3.03432,53.38524],[-3.03544,53.38534],[-3.03537,53.38564]]]]}},
{ "type":"Feature","properties":{"osm_way_id":"723584064","name":"ALDI","building":"yes","shop":"supermarket","other":{"brand":"ALDI","brand:wikidata":"Q41171672","brand:wikipedia":"en:Aldi"}}, "geometry":{"type":"MultiPolygon","coordinates":[[[[-2.72019,53.42203],[-2.71986,53.42183],[-2.71932,53.42215],[-2.71957,53.4223],[-2.71953,53.42231],[-2.7195,53.42233],[-2.71962,53.42241],[-2.71976,53.42233],[-2.71971,53.4223],[-2.72019,53.42203]]]]}},
{ "type":"Feature","properties":{"osm_way_id":"728819132","name":"ALDI","building":"yes","shop":"supermarket","other":{"brand":"ALDI","brand:wikidata":"Q41171672","brand:wikipedia":"en:Aldi"}}, "geometry":{"type":"MultiPolygon","coordinates":[[[[-2.6279,53.44265],[-2.62754,53.44224],[-2.62713,53.44236],[-2.62727,53.44252],[-2.62722,53.44254],[-2.62728,53.44261],[-2.62735,53.44259],[-2.62751,53.44277],[-2.6279,53.44265]]]]}},
{ "type":"Feature","properties":{"osm_way_id":"729739681","name":"ALDI","building":"yes","shop":"supermarket","other":{"brand":"ALDI","brand:wikidata":"Q41171672","brand:wikipedia":"en:Aldi","operator":"ALDI"}}, "geometry":{"type":"MultiPolygon","coordinates":[[[[-2.87238,53.39149],[-2.87241,53.39105],[-2.87196,53.39104],[-2.87196,53.39116],[-2.87187,53.39116],[-2.87186,53.39125],[-2.87194,53.39125],[-2.87194,53.39149],[-2.87238,53.39149]]]]}},
{ "type":"Feature","properties":{"osm_way_id":"796445181","name":"Aldi","building":"yes","shop":"supermarket","other":{"brand":"ALDI","brand:wikidata":"Q41171672","brand:wikipedia":"en:Aldi","building:levels":"1"}}, "geometry":{"type":"MultiPolygon","coordinates":[[[[-2.71986,53.38432],[-2.71952,53.38386],[-2.71919,53.38394],[-2.71915,53.38389],[-2.71898,53.38393],[-2.71938,53.38447],[-2.71952,53.38443],[-2.7195,53.38441],[-2.71986,53.38432]]]]}},
{ "type":"Feature","properties":{"osm_way_id":"852006933","name":"ALDI","building":"yes","shop":"supermarket","other":{"brand":"ALDI","brand:wikidata":"Q41171672","brand:wikipedia":"en:Aldi"}}, "geometry":{"type":"MultiPolygon","coordinates":[[[[-2.97126,53.4358],[-2.97101,53.43579],[-2.97102,53.43573],[-2.9708,53.43573],[-2.97075,53.43619],[-2.97121,53.43621],[-2.97126,53.4358]]]]}},
{ "type":"Feature","properties":{"osm_way_id":"853027991","name":"Lidl","building":"supermarket","shop":"supermarket","other":{"addr:country":"GB","addr:housenumber":"273","addr:postcode":"L9 9BY","addr:street":"Longmoor Lane","brand":"Lidl","brand:wikidata":"Q151954","brand:wikipedia":"en:Lidl","fhrs:id":"1099191","survey:date":"2019-01-16"}}, "geometry":{"type":"MultiPolygon","coordinates":[[[[-2.93831,53.46928],[-2.93877,53.46925],[-2.93885,53.46979],[-2.93861,53.46981],[-2.93862,53.46986],[-2.9384,53.46987],[-2.93831,53.46928]]]]}},
{ "type":"Feature","properties":{"osm_way_id":"853034574","name":"Lidl","building":"yes","shop":"supermarket","other":{"addr:city":"St Helens","addr:country":"GB","addr:postcode":"WA11 9AZ","addr:street":"Park Road","brand":"Lidl","brand:wikidata":"Q151954","brand:wikipedia":"en:Lidl","fhrs:id":"1021469"}}, "geometry":{"type":"MultiPolygon","coordinates":[[[[-2.70997,53.45883],[-2.7097,53.45888],[-2.70947,53.45845],[-2.70937,53.45827],[-2.70984,53.45818],[-2.7102,53.45884],[-2.71,53.45888],[-2.70998,53.45885],[-2.70997,53.45883]]]]}},
{ "type":"Feature","properties":{"osm_way_id":"885338122","name":"Tesco","building":"yes","shop":"supermarket","other":{"addr:city":"Newton-le-Willows","addr:postcode":"WA12 9LN","addr:street":"Earle Street","addr:suburb":"Earlestown","brand":"Tesco","brand:wikidata":"Q487494","brand:wikipedia":"en:Tesco","website":"https:\/\/www.tesco.com\/store-locator\/newton-le-willows\/earle-st"}}, "geometry":{"type":"MultiPolygon","coordinates":[[[[-2.64209,53.45221],[-2.64199,53.45216],[-2.64181,53.45189],[-2.64178,53.4519],[-2.64174,53.45184],[-2.64178,53.45184],[-2.64174,53.45178],[-2.64199,53.45172],[-2.64198,53.45171],[-2.64252,53.45158],[-2.64289,53.45214],[-2.64281,53.45222],[-2.6427,53.45206],[-2.64209,53.45221]]]]}},
{ "type":"Feature","properties":{"osm_way_id":"916578808","name":"ALDI","building":"yes","shop":"supermarket","other":{"brand":"ALDI","brand:wikidata":"Q41171672","brand:wikipedia":"en:Aldi"}}, "geometry":{"type":"MultiPolygon","coordinates":[[[[-2.81451,53.39829],[-2.81436,53.39852],[-2.81438,53.39853],[-2.81422,53.39877],[-2.81387,53.39869],[-2.81386,53.39871],[-2.81373,53.39868],[-2.81388,53.39844],[-2.81381,53.39842],[-2.81387,53.39834],[-2.81394,53.39836],[-2.81406,53.39818],[-2.81451,53.39829]]]]}},
{ "type":"Feature","properties":{"osm_way_id":"919664160","name":"Aldi","building":"yes","shop":"supermarket","other":{"brand":"ALDI","brand:wikidata":"Q41171672","brand:wikipedia":"en:Aldi"}}, "geometry":{"type":"MultiPolygon","coordinates":[[[[-3.01475,53.62352],[-3.0148,53.62366],[-3.01455,53.62369],[-3.01455,53.6237],[-3.01445,53.62371],[-3.01444,53.6237],[-3.01426,53.62372],[-3.01424,53.62367],[-3.01416,53.62367],[-3.01406,53.6234],[-3.01401,53.62341],[-3.01394,53.62321],[-3.01439,53.62315],[-3.01441,53.62318],[-3.0145,53.62317],[-3.01464,53.62354],[-3.01475,53.62352]]]]}},
{ "type":"Feature","properties":{"osm_way_id":"983045150","name":"Lidl","building":"yes","shop":"supermarket","other":{"addr:city":"Knowsley","addr:postcode":"L36 3YB","addr:street":"Liverpool Road","brand":"Lidl","brand:wikidata":"Q151954","brand:wikipedia":"en:Lidl","fhrs:id":"220832","source:addr":"FHRS Open Data","website":"https:\/\/www.lidl.co.uk\/"}}, "geometry":{"type":"MultiPolygon","coordinates":[[[[-2.86224,53.42218],[-2.86293,53.42203],[-2.86299,53.42213],[-2.86297,53.42213],[-2.86308,53.42232],[-2.86207,53.42253],[-2.86203,53.42247],[-2.86212,53.42245],[-2.86202,53.42228],[-2.86227,53.42222],[-2.86224,53.42218]]]]}},
{ "type":"Feature","properties":{"osm_way_id":"1000926508","name":"Co-op Food","building":"yes","shop":"supermarket","other":{"brand":"Co-op Food","brand:wikidata":"Q3277439","brand:wikipedia":"en:Co-op Food","operator":"The Co-operative Group","operator:wikidata":"Q117202","operator:wikipedia":"en:The Co-operative Group"}}, "geometry":{"type":"MultiPolygon","coordinates":[[[[-2.93257,53.51593],[-2.93235,53.51594],[-2.93233,53.51576],[-2.93231,53.51563],[-2.93254,53.51562],[-2.93257,53.51593]]]]}},
{ "type":"Feature","properties":{"osm_way_id":"1044513011","name":"Co-op Food","building":"yes","shop":"supermarket","other":{"addr:city":"St Helens","addr:postcode":"WA9 5BT","addr:street":"Elton Head Road","addr:suburb":"Sutton Heath","brand":"Co-op Food","brand:wikidata":"Q3277439","brand:wikipedia":"en:Co-op Food","operator":"The Co-operative Group","operator:wikidata":"Q117202","operator:wikipedia":"en:The Co-operative Group","phone":"+44 1744 818530","website":"https:\/\/www.coop.co.uk\/store-finder\/WA9-5BT\/elton-head-road"}}, "geometry":{"type":"MultiPolygon","coordinates":[[[[-2.74725,53.42859],[-2.74728,53.42855],[-2.74746,53.42854],[-2.74749,53.42874],[-2.74727,53.42875],[-2.74725,53.42859]]]]}}
]
}
