{
"type": "FeatureCollection",
"features": [
{ "type":"Feature","properties":{"osm_way_id":"5132354","building":"warehouse"},"geometry":{"type":"MultiPolygon","coordinates":[[[[-2.90984,53.35289],[-2.90942,53.3525],[-2.90794,53.35306],[-2.90836,53.35346],[-2.90951,53.35303],[-2.90954,53.35306],[-2.90966,53.35302],[-2.90962,53.35298],[-2.90984,53.35289]]]]}},
{ "type":"Feature","properties":{"osm_way_id":"7724641","building":"warehouse","other":{"building:levels":"1"}}, "geometry":{"type":"MultiPolygon","coordinates":[[[[-2.8594,53.34101],[-2.85937,53.34145],[-2.85869,53.34143],[-2.85872,53.34099],[-2.8594,53.34101]]]]}},
{ "type":"Feature","properties":{"osm_way_id":"7724643","building":"warehouse","other":{"building:levels":"1"}}, "geometry":{"type":"MultiPolygon","coordinates":[[[[-2.86073,53.34105],[-2.8599,53.34103],[-2.85987,53.34147],[-2.86071,53.34149],[-2.86073,53.34105]]]]}},
{ "type":"Feature","properties":{"osm_way_id":"7724682","building":"warehouse","other":{"building:levels":"1"}}, "geometry":{"type":"MultiPolygon","coordinates":[[[[-2.86084,53.34078],[-2.86048,53.34078],[-2.8605,53.34017],[-2.86088,53.34017],[-2.86084,53.34078]]]]}},
{ "type":"Feature","properties":{"osm_way_id":"21148187","name":"B&M Distribution Centre","building":"warehouse","other":{"addr:city":"Runcorn","addr:county":"Cheshire","addr:housename":"B&M Distribution Centre","addr:postcode":"WA7 1SE","addr:street":"Blackheath lane","building:levels":"1","fhrs:id":"893608"}}, "geometry":{"type":"MultiPolygon","coordinates":[[[[-2.65353,53.35523],[-2.65165,53.35581],[-2.65164,53.3558],[-2.65161,53.35581],[-2.65084,53.35492],[-2.65066,53.35498],[-2.65058,53.35488],[-2.65076,53.35482],[-2.65064,53.35468],[-2.65045,53.35473],[-2.6502,53.35444],[-2.65041,53.35438],[-2.65016,53.35408],[-2.65204,53.3535],[-2.65205,53.35352],[-2.65225,53.35345],[-2.6525,53.35374],[-2.65229,53.35381],[-2.65353,53.35523]]]]}},
{ "type":"Feature","properties":{"osm_way_id":"28281099","name":"Lidl Distribution Centre","building":"warehouse","other":{"addr:city":"Runcorn","addr:county":"Cheshire","addr:housename":"Lidl UK GmbH","addr:postcode":"WA7 1SE","addr:street":"Blackheath lane","brand":"Lidl","brand:wikidata":"Q151954","brand:wikipedia":"en:Lidl","building:levels":"1"}}, "geometry":{"type":"MultiPolygon","coordinates":[[[[-2.65994,53.35351],[-2.6598,53.35336],[-2.65926,53.35353],[-2.65864,53.35286],[-2.65841,53.35264],[-2.65829,53.35268],[-2.65821,53.35261],[-2.65456,53.35387],[-2.65511,53.3544],[-2.65575,53.35501],[-2.65623,53.35485],[-2.65961,53.35363],[-2.65994,53.35351]]]]}},
{ "type":"Feature","properties":{"osm_way_id":"30986008","name":"NHS Logistics","building":"warehouse","other":{"addr:city":"Runcorn","addr:county":"Cheshire","addr:postcode":"WA7 1SW","addr:street":"Lister Road","addr:suburb":"Astmoor","building:levels":"1"}}, "geometry":{"type":"MultiPolygon","coordinates":[[[[-2.71986,53.34209],[-2.71969,53.34209],[-2.71968,53.3422],[-2.71857,53.34223],[-2.71857,53.34214],[-2.71804,53.34215],[-2.71799,53.34139],[-2.71981,53.34134],[-2.71986,53.34209]]]]}},
{ "type":"Feature","properties":{"osm_way_id":"31109731","building":"warehouse","other":{"addr:city":"Whitehouse, Runcorn","addr:housename":"DHL Supply Chain","addr:postcode":"WA7 3BN","addr:street":"Aston Lane North"}}, "geometry":{"type":"MultiPolygon","coordinates":[[[[-2.65301,53.31502],[-2.65291,53.31485],[-2.65297,53.31484],[-2.65199,53.3132],[-2.65223,53.31315],[-2.65215,53.31302],[-2.65185,53.31309],[-2.65169,53.31281],[-2.64885,53.31342],[-2.64895,53.31359],[-2.64863,53.31366],[-2.6496,53.31527],[-2.64928,53.31534],[-2.64944,53.3156],[-2.6501,53.31546],[-2.6502,53.31563],[-2.65301,53.31502]]]]}},
{ "type":"Feature","properties":{"osm_way_id":"31109733","building":"warehouse","other":{"addr:postcode":"WA7 3GA","addr:street":"Aston Lane North"}}, "geometry":{"type":"MultiPolygon","coordinates":[[[[-2.65466,53.31402],[-2.65264,53.31286],[-2.65328,53.31246],[-2.65394,53.31284],[-2.65423,53.31266],[-2.65477,53.31297],[-2.65487,53.31291],[-2.65548,53.31326],[-2.65538,53.31332],[-2.65559,53.31345],[-2.65466,53.31402]]]]}},
{ "type":"Feature","properties":{"osm_way_id":"31109750","building":"warehouse","other":{"addr:housename":"Diageo Packaging","addr:postcode":"WA7 3BE","addr:street":"Aston Lane North"}}, "geometry":{"type":"MultiPolygon","coordinates":[[[[-2.66077,53.31446],[-2.66042,53.31471],[-2.66053,53.31477],[-2.65993,53.31519],[-2.65947,53.31496],[-2.65923,53.31513],[-2.65888,53.31496],[-2.65875,53.31505],[-2.65855,53.31494],[-2.65862,53.31489],[-2.65805,53.31461],[-2.65799,53.31465],[-2.65778,53.31455],[-2.65796,53.31442],[-2.6578,53.31435],[-2.658,53.3142],[-2.65792,53.31416],[-2.65883,53.31352],[-2.66005,53.31415],[-2.66009,53.31412],[-2.66077,53.31446]]]]}},
{ "type":"Feature","properties":{"osm_way_id":"31109756","name":"Nova Biomedical","building":"warehouse","other":{"addr:housename":"1 Zip56","addr:postcode":"WA7 3FZ","addr:street":"Aston Fields Road"}}, "geometry":{"type":"MultiPolygon","coordinates":[[[[-2.66101,53.31135],[-2.65905,53.31102],[-2.65926,53.31058],[-2.65938,53.31032],[-2.66134,53.31065],[-2.66101,53.31135]]]]}},
{ "type":"Feature","properties":{"osm_way_id":"31109773","building":"warehouse","other":{"addr:housenumber":"15","addr:postcode":"WA7 3DL","addr:street":"Aston Fields Road"}}, "geometry":{"type":"MultiPolygon","coordinates":[[[[-2.66365,53.31311],[-2.66377,53.31285],[-2.66333,53.31277],[-2.66321,53.31304],[-2.66365,53.31311]]]]}},
{ "type":"Feature","properties":{"osm_way_id":"31109799","building":"warehouse","other":{"addr:postcode":"WA7 3DL","addr:street":"Aston Fields Road"}}, "geometry":{"type":"MultiPolygon","coordinates":[[[[-2.65939,53.31286],[-2.65966,53.31225],[-2.65987,53.31228],[-2.66147,53.31254],[-2.66155,53.31255],[-2.66128,53.31314],[-2.65939,53.31286]]]]}},
{ "type":"Feature","properties":{"osm_way_id":"31109803","building":"warehouse","other":{"addr:housename":"Aston Point","addr:postcode":"WA7 3GJ","addr:street":"Aston Lane South"}}, "geometry":{"type":"MultiPolygon","coordinates":[[[[-2.65917,53.31179],[-2.65843,53.31167],[-2.65811,53.31241],[-2.65885,53.31253],[-2.65917,53.31179]]]]}},
{ "type":"Feature","properties":{"osm_way_id":"31109806","name":"YKK","building":"warehouse","other":{"addr:postcode":"WA7 3BW","addr:street":"Aston Lane South"}}, "geometry":{"type":"MultiPolygon","coordinates":[[[[-2.657,53.31085],[-2.65448,53.31046],[-2.65484,53.30961],[-2.65515,53.30966],[-2.65518,53.30959],[-2.6554,53.30962],[-2.65536,53.30969],[-2.65735,53.31],[-2.657,53.31085]]]]}},
{ "type":"Feature","properties":{"osm_way_id":"31109844","name":"Exel Composites","building":"warehouse","other":{"addr:postcode":"WA7 3DU","addr:street":"Fairoak Lane"}}, "geometry":{"type":"MultiPolygon","coordinates":[[[[-2.64873,53.30954],[-2.64804,53.3091],[-2.64768,53.3093],[-2.64837,53.30974],[-2.64873,53.30954]]]]}},
{ "type":"Feature","properties":{"osm_way_id":"31109856","name":"Saint Gobain Isover UK Ltd","building":"warehouse","other":{"addr:city":"Whitehouse, Runcorn","addr:postcode":"WA7 3DP","addr:street":"Northwich Road"}}, "geometry":{"type":"MultiPolygon","coordinates":[[[[-2.65047,53.31173],[-2.64948,53.31243],[-2.64918,53.31228],[-2.64875,53.31258],[-2.64783,53.31211],[-2.64827,53.3118],[-2.647,53.31116],[-2.6473,53.31095],[-2.6476,53.3111],[-2.64778,53.31097],[-2.6482,53.31118],[-2.64801,53.31132],[-2.64886,53.31174],[-2.64953,53.31126],[-2.65047,53.31173]]]]}},
{ "type":"Feature","properties":{"osm_way_id":"31109861","building":"warehouse","other":{"addr:city":"Preston Brook, Runcorn","addr:housename":"Rotex","addr:postcode":"WA7 3GE","addr:street":"Aston Lane North"}}, "geometry":{"type":"MultiPolygon","coordinates":[[[[-2.65692,53.31559],[-2.65646,53.31537],[-2.65667,53.31522],[-2.65632,53.31505],[-2.65643,53.31498],[-2.65636,53.31494],[-2.65651,53.31483],[-2.65738,53.31525],[-2.65692,53.31559]]]]}},
{ "type":"Feature","properties":{"osm_way_id":"31109892","building":"warehouse","other":{"addr:postcode":"WA7 3FA","addr:street":"Aston Lane North"}}, "geometry":{"type":"MultiPolygon","coordinates":[[[[-2.6536,53.31776],[-2.65234,53.31695],[-2.65246,53.31688],[-2.65228,53.31676],[-2.65292,53.31641],[-2.65317,53.31658],[-2.65347,53.31642],[-2.65415,53.31687],[-2.65449,53.31709],[-2.6545,53.31725],[-2.65503,53.31759],[-2.65412,53.31809],[-2.6536,53.31776]]]]}},
{ "type":"Feature","properties":{"osm_way_id":"31109900","building":"warehouse"},"geometry":{"type":"MultiPolygon","coordinates":[[[[-2.65569,53.31613],[-2.65499,53.31657],[-2.65461,53.31636],[-2.65533,53.31592],[-2.65569,53.31613]]]]}},
{ "type":"Feature","properties":{"osm_way_id":"31109901","building":"warehouse"},"geometry":{"type":"MultiPolygon","coordinates":[[[[-2.65527,53.31488],[-2.65499,53.31508],[-2.65442,53.31479],[-2.6547,53.31459],[-2.65527,53.31488]]]]}},
{ "type":"Feature","properties":{"osm_way_id":"31109902","name":"Mammoet Ferry Transport (UK) BV","building":"warehouse","office":"logistics","other":{"addr:housename":"Mammoet","addr:postcode":"WA7 3GE","addr:street":"Aston Lane North"}}, "geometry":{"type":"MultiPolygon","coordinates":[[[[-2.65597,53.31465],[-2.6552,53.31436],[-2.65543,53.31415],[-2.65619,53.31443],[-2.65597,53.31465]]]]}},
{ "type":"Feature","properties":{"osm_way_id":"31542059","name":"Edmunsons Electrical","building":"warehouse"},"geometry":{"type":"MultiPolygon","coordinates":[[[[-2.72865,53.44304],[-2.72826,53.44322],[-2.72842,53.44335],[-2.72881,53.44317],[-2.72865,53.44304]]]]}},
{ "type":"Feature","properties":{"osm_way_id":"31980430","name":"Co-Op","building":"warehouse"},"geometry":{"type":"MultiPolygon","coordinates":[[[[-2.73914,53.42447],[-2.73882,53.42445],[-2.73884,53.42435],[-2.73701,53.42423],[-2.73678,53.4256],[-2.73628,53.42557],[-2.73622,53.42587],[-2.73585,53.42585],[-2.73571,53.42672],[-2.73658,53.42678],[-2.73641,53.42777],[-2.73798,53.42787],[-2.73823,53.42625],[-2.73856,53.42627],[-2.73866,53.42557],[-2.73894,53.42558],[-2.73914,53.42447]]]]}},
{ "type":"Feature","properties":{"osm_way_id":"32199581","name":"Sainsbury's Distribution Centre","building":"warehouse"},"geometry":{"type":"MultiPolygon","coordinates":[[[[-2.65616,53.47649],[-2.65533,53.47583],[-2.649,53.4786],[-2.6498,53.47927],[-2.65117,53.47867],[-2.65134,53.47882],[-2.65226,53.47843],[-2.65207,53.47828],[-2.65616,53.47649]]]]}},
{ "type":"Feature","properties":{"osm_way_id":"32199888","name":"Booker Distribution Centre","building":"warehouse"},"geometry":{"type":"MultiPolygon","coordinates":[[[[-2.65901,53.47857],[-2.65355,53.47869],[-2.65361,53.47954],[-2.65486,53.47951],[-2.65487,53.47968],[-2.65713,53.47963],[-2.65712,53.47947],[-2.65906,53.47943],[-2.65901,53.47857]]]]}},
{ "type":"Feature","properties":{"osm_way_id":"33100739","building":"warehouse"},"geometry":{"type":"MultiPolygon","coordinates":[[[[-2.76042,53.32563],[-2.76022,53.32532],[-2.75988,53.32539],[-2.76008,53.32571],[-2.76042,53.32563]]]]}},
{ "type":"Feature","properties":{"osm_way_id":"35356233","building":"warehouse"},"geometry":{"type":"MultiPolygon","coordinates":[[[[-2.71838,53.38768],[-2.71875,53.38752],[-2.7185,53.38733],[-2.71813,53.38749],[-2.71838,53.38768]]]]}},
{ "type":"Feature","properties":{"osm_way_id":"35765737","name":"UKMail","building":"warehouse","other":{"addr:city":"Runcorn","addr:county":"Cheshire","addr:postcode":"WA7 1SE","addr:street":"Blackheath lane","building:levels":"1"}}, "geometry":{"type":"MultiPolygon","coordinates":[[[[-2.65641,53.35212],[-2.65564,53.35239],[-2.65481,53.35155],[-2.65558,53.35129],[-2.65641,53.35212]]]]}},
{ "type":"Feature","properties":{"osm_way_id":"38283668","building":"warehouse"},"geometry":{"type":"MultiPolygon","coordinates":[[[[-2.74839,53.34158],[-2.74798,53.34183],[-2.74681,53.3412],[-2.74721,53.34095],[-2.74839,53.34158]]]]}},
{ "type":"Feature","properties":{"osm_way_id":"38283669","building":"warehouse"},"geometry":{"type":"MultiPolygon","coordinates":[[[[-2.74805,53.34107],[-2.7485,53.3413],[-2.74906,53.34096],[-2.74861,53.3407],[-2.74805,53.34107]]]]}},
{ "type":"Feature","properties":{"osm_way_id":"38283677","building":"warehouse"},"geometry":{"type":"MultiPolygon","coordinates":[[[[-2.74939,53.33991],[-2.74902,53.33969],[-2.74769,53.3406],[-2.74803,53.34078],[-2.74939,53.33991]]]]}},
{ "type":"Feature","properties":{"osm_way_id":"38283680","building":"warehouse"},"geometry":{"type":"MultiPolygon","coordinates":[[[[-2.74855,53.33939],[-2.74794,53.33981],[-2.74822,53.33996],[-2.74827,53.33999],[-2.74886,53.33957],[-2.74855,53.33939]]]]}},
{ "type":"Feature","properties":{"osm_way_id":"38283684","building":"warehouse"},"geometry":{"type":"MultiPolygon","coordinates":[[[[-2.74757,53.34038],[-2.74742,53.34029],[-2.74757,53.34019],[-2.74743,53.34013],[-2.74794,53.33981],[-2.74822,53.33996],[-2.74757,53.34038]]]]}},
{ "type":"Feature","properties":{"osm_way_id":"38283691","building":"warehouse"},"geometry":{"type":"MultiPolygon","coordinates":[[[[-2.74924,53.33924],[-2.7493,53.33906],[-2.75039,53.33836],[-2.75082,53.33861],[-2.74957,53.33944],[-2.74924,53.33924]]]]}},
{ "type":"Feature","properties":{"osm_way_id":"38283693","building":"warehouse"},"geometry":{"type":"MultiPolygon","coordinates":[[[[-2.75027,53.33818],[-2.74993,53.33797],[-2.7487,53.33878],[-2.74901,53.33898],[-2.75027,53.33818]]]]}},
{ "type":"Feature","properties":{"osm_way_id":"38283700","building":"warehouse"},"geometry":{"type":"MultiPolygon","coordinates":[[[[-2.7509,53.33834],[-2.75064,53.33818],[-2.75075,53.3381],[-2.75042,53.3379],[-2.75136,53.33726],[-2.7517,53.33745],[-2.75155,53.33755],[-2.75188,53.33774],[-2.75173,53.33785],[-2.75186,53.33793],[-2.75151,53.33816],[-2.7513,53.33807],[-2.7509,53.33834]]]]}},
{ "type":"Feature","properties":{"osm_way_id":"38283707","building":"warehouse"},"geometry":{"type":"MultiPolygon","coordinates":[[[[-2.75258,53.3373],[-2.75233,53.33717],[-2.75217,53.33728],[-2.75191,53.33744],[-2.75216,53.33757],[-2.75258,53.3373]]]]}},
{ "type":"Feature","properties":{"osm_way_id":"38283710","building":"warehouse"},"geometry":{"type":"MultiPolygon","coordinates":[[[[-2.75217,53.33728],[-2.7517,53.33702],[-2.75198,53.33684],[-2.75245,53.33708],[-2.75233,53.33717],[-2.75217,53.33728]]]]}},
{ "type":"Feature","properties":{"osm_way_id":"38283714","building":"warehouse"},"geometry":{"type":"MultiPolygon","coordinates":[[[[-2.75292,53.33722],[-2.75211,53.33675],[-2.75295,53.33626],[-2.75376,53.33667],[-2.75292,53.33722]]]]}},
{ "type":"Feature","properties":{"osm_way_id":"38283918","building":"warehouse"},"geometry":{"type":"MultiPolygon","coordinates":[[[[-2.75812,53.33393],[-2.75767,53.33379],[-2.75826,53.33303],[-2.75871,53.33317],[-2.75812,53.33393]]]]}},
{ "type":"Feature","properties":{"osm_way_id":"38295734","building":"warehouse"},"geometry":{"type":"MultiPolygon","coordinates":[[[[-2.76088,53.33144],[-2.76054,53.33137],[-2.76042,53.33157],[-2.75991,53.33144],[-2.75973,53.33175],[-2.76022,53.33188],[-2.76013,53.33204],[-2.76049,53.33211],[-2.76088,53.33144]]]]}},
{ "type":"Feature","properties":{"osm_way_id":"38295918","building":"warehouse"},"geometry":{"type":"MultiPolygon","coordinates":[[[[-2.75687,53.33046],[-2.75581,53.33045],[-2.75579,53.3302],[-2.75607,53.33019],[-2.75605,53.33005],[-2.75604,53.3299],[-2.75603,53.3298],[-2.75591,53.3298],[-2.75591,53.32968],[-2.75672,53.32968],[-2.75668,53.32982],[-2.7569,53.32981],[-2.75687,53.33046]]]]}},
{ "type":"Feature","properties":{"osm_way_id":"38297423","building":"warehouse"},"geometry":{"type":"MultiPolygon","coordinates":[[[[-2.75514,53.3281],[-2.75369,53.32817],[-2.75367,53.32799],[-2.75509,53.32792],[-2.75514,53.3281]]]]}},
{ "type":"Feature","properties":{"osm_way_id":"38297427","building":"warehouse"},"geometry":{"type":"MultiPolygon","coordinates":[[[[-2.75593,53.32812],[-2.75559,53.32814],[-2.75551,53.3276],[-2.75585,53.32758],[-2.75593,53.32812]]]]}},
{ "type":"Feature","properties":{"osm_way_id":"38297428","building":"warehouse"},"geometry":{"type":"MultiPolygon","coordinates":[[[[-2.75661,53.32507],[-2.75648,53.32485],[-2.75639,53.32487],[-2.7559,53.32408],[-2.75641,53.32396],[-2.75696,53.32501],[-2.75661,53.32507]]]]}},
{ "type":"Feature","properties":{"osm_way_id":"39389160","building":"warehouse"},"geometry":{"type":"MultiPolygon","coordinates":[[[[-2.71362,53.33848],[-2.71377,53.33798],[-2.7152,53.33817],[-2.71497,53.33867],[-2.71362,53.33848]]]]}},
{ "type":"Feature","properties":{"osm_way_id":"39389163","building":"warehouse"},"geometry":{"type":"MultiPolygon","coordinates":[[[[-2.71515,53.33956],[-2.71525,53.33929],[-2.71384,53.3391],[-2.71374,53.33936],[-2.71515,53.33956]]]]}},
{ "type":"Feature","properties":{"osm_way_id":"40014533","name":"Sigmatex Limited","building":"warehouse","other":{"addr:city":"Runcorn","addr:county":"Cheshire","addr:postcode":"WA7 1TE","addr:street":"Manor Farm Road","building:levels":"1","fhrs:id":"137430"}}, "geometry":{"type":"MultiPolygon","coordinates":[[[[-2.66676,53.34774],[-2.66637,53.347],[-2.66759,53.34674],[-2.66798,53.3475],[-2.66676,53.34774]]]]}},
{ "type":"Feature","properties":{"osm_way_id":"40432753","name":"HÃ©roux Devtek","building":"warehouse","other":{"addr:city":"Runcorn","addr:housenumber":"1","addr:postcode":"WA7 1RS","addr:street":"Rokeby Court","addr:suburb":"Manor Park","website":"http:\/\/www.herouxdevtek.com\/company\/operating-locations\/runcorn"}}, "geometry":{"type":"MultiPolygon","coordinates":[[[[-2.66276,53.35123],[-2.6621,53.35115],[-2.66196,53.35155],[-2.66262,53.35163],[-2.66276,53.35123]]]]}},
{ "type":"Feature","properties":{"osm_way_id":"40432764","name":"Matthew Clark Wholesale","building":"warehouse","other":{"addr:city":"Runcorn","addr:county":"Cheshire","addr:postcode":"WA7 1SE","addr:street":"Blackheath lane","building:levels":"1"}}, "geometry":{"type":"MultiPolygon","coordinates":[[[[-2.65483,53.35249],[-2.65374,53.35289],[-2.65333,53.35249],[-2.65442,53.35207],[-2.65483,53.35249]]]]}},
{ "type":"Feature","properties":{"osm_way_id":"40894009","name":"The Storage Team","building":"warehouse"},"geometry":{"type":"MultiPolygon","coordinates":[[[[-2.74434,53.41919],[-2.74397,53.41897],[-2.74396,53.41896],[-2.74353,53.41922],[-2.74348,53.41925],[-2.74303,53.41951],[-2.74308,53.41954],[-2.74311,53.41956],[-2.74342,53.41974],[-2.74427,53.41923],[-2.74434,53.41919]]]]}},
{ "type":"Feature","properties":{"osm_way_id":"51176628","building":"warehouse"},"geometry":{"type":"MultiPolygon","coordinates":[[[[-2.75622,53.32714],[-2.75606,53.32714],[-2.75606,53.32688],[-2.75622,53.32688],[-2.75622,53.32714]]]]}},
{ "type":"Feature","properties":{"osm_way_id":"145679032","building":"warehouse"},"geometry":{"type":"MultiPolygon","coordinates":[[[[-2.96813,53.33503],[-2.96706,53.33527],[-2.96701,53.3352],[-2.96602,53.33542],[-2.9659,53.33522],[-2.96576,53.33525],[-2.9655,53.33484],[-2.96563,53.33481],[-2.96536,53.33438],[-2.96522,53.33441],[-2.96503,53.33409],[-2.96613,53.33384],[-2.96623,53.334],[-2.96733,53.33375],[-2.96813,53.33503]]]]}},
{ "type":"Feature","properties":{"osm_way_id":"154380844","name":"Regal Disposables","building":"warehouse"},"geometry":{"type":"MultiPolygon","coordinates":[[[[-2.70352,53.37243],[-2.70371,53.372],[-2.7026,53.37182],[-2.7024,53.37225],[-2.70352,53.37243]]]]}},
{ "type":"Feature","properties":{"osm_way_id":"154380846","name":"Alchemy Logistics","building":"warehouse"},"geometry":{"type":"MultiPolygon","coordinates":[[[[-2.70364,53.37117],[-2.70377,53.37088],[-2.70312,53.37077],[-2.70299,53.37106],[-2.70364,53.37117]]]]}},
{ "type":"Feature","properties":{"osm_way_id":"154380860","building":"warehouse"},"geometry":{"type":"MultiPolygon","coordinates":[[[[-2.7036,53.37171],[-2.70374,53.37141],[-2.7029,53.37127],[-2.70276,53.37157],[-2.7036,53.37171]]]]}},
{ "type":"Feature","properties":{"osm_way_id":"196782622","building":"warehouse","other":{"addr:housename":"Camp & Furnace","addr:housenumber":"67","addr:postcode":"L1 0BY","addr:street":"Greenland Street"}}, "geometry":{"type":"MultiPolygon","coordinates":[[[[-2.98091,53.39418],[-2.9809,53.39413],[-2.97991,53.39422],[-2.9799,53.39425],[-2.9801,53.39458],[-2.98123,53.39435],[-2.98121,53.39417],[-2.98091,53.39418]]]]}},
{ "type":"Feature","properties":{"osm_way_id":"235492855","building":"warehouse"},"geometry":{"type":"MultiPolygon","coordinates":[[[[-3.03113,53.39846],[-3.03149,53.39801],[-3.03124,53.39794],[-3.03088,53.39839],[-3.03113,53.39846]]]]}},
{ "type":"Feature","properties":{"osm_way_id":"250928261","building":"warehouse"},"geometry":{"type":"MultiPolygon","coordinates":[[[[-3.12402,53.39738],[-3.12368,53.39743],[-3.12367,53.39742],[-3.12331,53.39746],[-3.12335,53.39756],[-3.12347,53.39761],[-3.12373,53.39759],[-3.12371,53.39751],[-3.12391,53.39748],[-3.12397,53.39766],[-3.12414,53.39764],[-3.12414,53.39762],[-3.1241,53.39763],[-3.12402,53.39738]]]]}},
{ "type":"Feature","properties":{"osm_way_id":"251836350","building":"warehouse"},"geometry":{"type":"MultiPolygon","coordinates":[[[[-2.98558,53.35477],[-2.98545,53.35478],[-2.98544,53.35476],[-2.9854,53.35476],[-2.98537,53.35468],[-2.98514,53.3547],[-2.9852,53.3549],[-2.98546,53.35487],[-2.98548,53.35494],[-2.98563,53.35493],[-2.98558,53.35477]]]]}},
{ "type":"Feature","properties":{"osm_way_id":"251836369","building":"warehouse"},"geometry":{"type":"MultiPolygon","coordinates":[[[[-2.98552,53.35535],[-2.98534,53.35537],[-2.98536,53.35544],[-2.98554,53.35542],[-2.98552,53.35535]]]]}},
{ "type":"Feature","properties":{"osm_way_id":"251836394","building":"warehouse"},"geometry":{"type":"MultiPolygon","coordinates":[[[[-2.98562,53.35504],[-2.98543,53.35507],[-2.98548,53.35526],[-2.98568,53.35524],[-2.98562,53.35504]]]]}},
{ "type":"Feature","properties":{"osm_way_id":"251836413","building":"warehouse"},"geometry":{"type":"MultiPolygon","coordinates":[[[[-2.98358,53.35535],[-2.98353,53.3553],[-2.98347,53.35532],[-2.98352,53.35537],[-2.98358,53.35535]]]]}},
{ "type":"Feature","properties":{"osm_way_id":"251836419","building":"warehouse"},"geometry":{"type":"MultiPolygon","coordinates":[[[[-2.98375,53.35569],[-2.98367,53.3556],[-2.98353,53.35565],[-2.9836,53.35573],[-2.98375,53.35569]]]]}},
{ "type":"Feature","properties":{"osm_way_id":"251836441","building":"warehouse"},"geometry":{"type":"MultiPolygon","coordinates":[[[[-2.98523,53.35602],[-2.9852,53.35614],[-2.985,53.35612],[-2.98504,53.356],[-2.98523,53.35602]]]]}},
{ "type":"Feature","properties":{"osm_way_id":"251836724","building":"warehouse"},"geometry":{"type":"MultiPolygon","coordinates":[[[[-2.98497,53.35467],[-2.98506,53.355],[-2.98432,53.35508],[-2.98421,53.35468],[-2.98462,53.35464],[-2.98489,53.35461],[-2.98489,53.35463],[-2.98499,53.35462],[-2.985,53.35467],[-2.98497,53.35467]]]]}},
{ "type":"Feature","properties":{"osm_way_id":"252796852","name":"Cereal Partners (Nestle)","building":"warehouse"},"geometry":{"type":"MultiPolygon","coordinates":[[[[-2.98183,53.3457],[-2.98123,53.34657],[-2.98035,53.3463],[-2.98026,53.34641],[-2.97949,53.34685],[-2.98001,53.34718],[-2.98006,53.34721],[-2.97986,53.34733],[-2.9798,53.34731],[-2.97923,53.34764],[-2.97736,53.34646],[-2.97748,53.34638],[-2.97718,53.3462],[-2.97739,53.34608],[-2.97768,53.34626],[-2.97792,53.34622],[-2.97799,53.34625],[-2.97811,53.34617],[-2.97819,53.3462],[-2.97829,53.34614],[-2.97846,53.34623],[-2.9788,53.34604],[-2.97892,53.34601],[-2.97899,53.34606],[-2.97914,53.34615],[-2.97908,53.34618],[-2.97928,53.34632],[-2.97923,53.34636],[-2.97952,53.34656],[-2.97935,53.34666],[-2.97905,53.34646],[-2.97895,53.34652],[-2.97941,53.34681],[-2.98016,53.34638],[-2.98023,53.34629],[-2.97991,53.3462],[-2.97994,53.34616],[-2.97891,53.34588],[-2.97911,53.34558],[-2.97861,53.34545],[-2.97857,53.34551],[-2.97784,53.34532],[-2.97786,53.34529],[-2.97778,53.34527],[-2.97781,53.34523],[-2.97772,53.3452],[-2.97779,53.34511],[-2.97769,53.34509],[-2.97773,53.34503],[-2.97767,53.34501],[-2.97784,53.34479],[-2.97801,53.34484],[-2.97804,53.34479],[-2.97814,53.34482],[-2.97817,53.34478],[-2.9793,53.34507],[-2.97928,53.3451],[-2.97949,53.34516],[-2.97952,53.34512],[-2.98183,53.3457]]]]}},
{ "type":"Feature","properties":{"osm_way_id":"252796889","building":"warehouse"},"geometry":{"type":"MultiPolygon","coordinates":[[[[-2.96864,53.34019],[-2.96847,53.33993],[-2.96768,53.34012],[-2.96786,53.34038],[-2.96864,53.34019]]]]}},
{ "type":"Feature","properties":{"osm_way_id":"252796899","building":"warehouse"},"geometry":{"type":"MultiPolygon","coordinates":[[[[-2.96559,53.33522],[-2.96536,53.33486],[-2.96521,53.33489],[-2.96544,53.33525],[-2.96559,53.33522]]]]}},
{ "type":"Feature","properties":{"osm_way_id":"252796914","building":"warehouse"},"geometry":{"type":"MultiPolygon","coordinates":[[[[-2.96919,53.34069],[-2.96897,53.34034],[-2.96845,53.34046],[-2.96867,53.3408],[-2.96919,53.34069]]]]}},
{ "type":"Feature","properties":{"osm_way_id":"252796969","building":"warehouse","other":{"addr:city":"Wirral","addr:housename":"Unit 1","addr:street":"Stadium Court"}}, "geometry":{"type":"MultiPolygon","coordinates":[[[[-2.96935,53.33583],[-2.96908,53.33541],[-2.96863,53.33551],[-2.9689,53.33593],[-2.96935,53.33583]]]]}},
{ "type":"Feature","properties":{"osm_way_id":"252796976","building":"warehouse"},"geometry":{"type":"MultiPolygon","coordinates":[[[[-2.96778,53.3404],[-2.96699,53.34059],[-2.96681,53.34033],[-2.9676,53.34014],[-2.96778,53.3404]]]]}},
{ "type":"Feature","properties":{"osm_way_id":"252797054","building":"warehouse"},"geometry":{"type":"MultiPolygon","coordinates":[[[[-2.96781,53.34102],[-2.96761,53.34067],[-2.9671,53.34078],[-2.96731,53.34112],[-2.96781,53.34102]]]]}},
{ "type":"Feature","properties":{"osm_way_id":"252797071","building":"warehouse"},"geometry":{"type":"MultiPolygon","coordinates":[[[[-2.96976,53.3404],[-2.96954,53.34037],[-2.96955,53.34033],[-2.9695,53.34033],[-2.96946,53.34042],[-2.96974,53.34046],[-2.96976,53.3404]]]]}},
{ "type":"Feature","properties":{"osm_way_id":"254815298","building":"warehouse"},"geometry":{"type":"MultiPolygon","coordinates":[[[[-3.01357,53.39028],[-3.01357,53.39013],[-3.01273,53.39014],[-3.01274,53.3903],[-3.0135,53.39028],[-3.01357,53.39028]]]]}},
{ "type":"Feature","properties":{"osm_way_id":"254815315","building":"warehouse"},"geometry":{"type":"MultiPolygon","coordinates":[[[[-3.01372,53.39034],[-3.01349,53.39034],[-3.01349,53.39033],[-3.01277,53.39033],[-3.01278,53.39063],[-3.01279,53.39072],[-3.01309,53.39071],[-3.01309,53.39069],[-3.01363,53.39068],[-3.01366,53.39068],[-3.01365,53.39051],[-3.01369,53.39051],[-3.01369,53.39047],[-3.01372,53.39047],[-3.01372,53.39034]]]]}},
{ "type":"Feature","properties":{"osm_way_id":"254815340","building":"warehouse"},"geometry":{"type":"MultiPolygon","coordinates":[[[[-3.01162,53.39069],[-3.01162,53.39052],[-3.01108,53.39053],[-3.01109,53.39069],[-3.01162,53.39069]]]]}},
{ "type":"Feature","properties":{"osm_way_id":"254815355","building":"warehouse"},"geometry":{"type":"MultiPolygon","coordinates":[[[[-3.01396,53.39028],[-3.01395,53.38977],[-3.01369,53.38977],[-3.01368,53.39028],[-3.01396,53.39028]]]]}},
{ "type":"Feature","properties":{"osm_way_id":"254881861","building":"warehouse"},"geometry":{"type":"MultiPolygon","coordinates":[[[[-3.03453,53.39924],[-3.03396,53.39908],[-3.03384,53.39922],[-3.03441,53.39938],[-3.03453,53.39924]]]]}},
{ "type":"Feature","properties":{"osm_way_id":"254881876","building":"warehouse"},"geometry":{"type":"MultiPolygon","coordinates":[[[[-3.02758,53.3984],[-3.02734,53.39833],[-3.02721,53.3985],[-3.02746,53.39856],[-3.02758,53.3984]]]]}},
{ "type":"Feature","properties":{"osm_way_id":"256056548","name":"Great Bear","building":"warehouse"},"geometry":{"type":"MultiPolygon","coordinates":[[[[-2.97554,53.3464],[-2.97451,53.34542],[-2.97429,53.34521],[-2.97291,53.34572],[-2.97417,53.34692],[-2.97554,53.3464]]]]}},
{ "type":"Feature","properties":{"osm_way_id":"264388948","name":"Tesco Warehouse","building":"warehouse"},"geometry":{"type":"MultiPolygon","coordinates":[[[[-2.74435,53.35247],[-2.74412,53.35327],[-2.74226,53.35308],[-2.74234,53.35278],[-2.74198,53.35275],[-2.74227,53.35175],[-2.74264,53.35179],[-2.74293,53.35079],[-2.74259,53.35076],[-2.74265,53.35056],[-2.74299,53.3506],[-2.74484,53.35079],[-2.7444,53.35233],[-2.74467,53.35236],[-2.74463,53.3525],[-2.74435,53.35247]]]]}},
{ "type":"Feature","properties":{"osm_way_id":"265294377","building":"warehouse","other":{"addr:city":"Runcorn","addr:postcode":"WA7 1DT","building:levels":"1"}}, "geometry":{"type":"MultiPolygon","coordinates":[[[[-2.65241,53.35132],[-2.6513,53.35109],[-2.65203,53.34978],[-2.65315,53.35001],[-2.65241,53.35132]]]]}},
{ "type":"Feature","properties":{"osm_way_id":"265295310","building":"warehouse","other":{"addr:city":"Runcorn","addr:county":"Cheshire","addr:housename":"Eddie Stobart Ltd","addr:postcode":"WA7 1NT","addr:street":"Eastgate Way","building:levels":"1"}}, "geometry":{"type":"MultiPolygon","coordinates":[[[[-2.66365,53.35483],[-2.65983,53.35575],[-2.65912,53.35476],[-2.66296,53.35384],[-2.66365,53.35483]]]]}},
{ "type":"Feature","properties":{"osm_way_id":"265295599","building":"warehouse","other":{"building:levels":"1"}}, "geometry":{"type":"MultiPolygon","coordinates":[[[[-2.65696,53.35651],[-2.65475,53.35705],[-2.65427,53.35636],[-2.6565,53.35582],[-2.65696,53.35651]]]]}},
{ "type":"Feature","properties":{"osm_way_id":"265295925","name":"Fresenius Kabi Ltd","building":"warehouse","other":{"addr:city":"Runcorn","addr:county":"Cheshire","addr:housename":"Fresenius Kabi Ltd","addr:postcode":"WA7 1NT","addr:street":"Eastgate Way","building:levels":"1","fhrs:id":"139953"}}, "geometry":{"type":"MultiPolygon","coordinates":[[[[-2.65698,53.35651],[-2.65652,53.35583],[-2.65424,53.35638],[-2.65475,53.35702],[-2.65698,53.35651]]]]}},
{ "type":"Feature","properties":{"osm_way_id":"269826382","building":"warehouse"},"geometry":{"type":"MultiPolygon","coordinates":[[[[-2.76139,53.32986],[-2.76093,53.32984],[-2.761,53.32897],[-2.76146,53.32898],[-2.76139,53.32986]]]]}},
{ "type":"Feature","properties":{"osm_way_id":"280275386","name":"TJ Hughes","building":"warehouse"},"geometry":{"type":"MultiPolygon","coordinates":[[[[-2.92692,53.40759],[-2.92696,53.40741],[-2.92705,53.40705],[-2.92709,53.40693],[-2.92711,53.40688],[-2.92733,53.40688],[-2.92819,53.40696],[-2.92876,53.40701],[-2.92871,53.40721],[-2.92857,53.40774],[-2.92692,53.40759]]]]}},
{ "type":"Feature","properties":{"osm_way_id":"280275407","building":"warehouse"},"geometry":{"type":"MultiPolygon","coordinates":[[[[-2.92635,53.40735],[-2.92645,53.40695],[-2.92691,53.40699],[-2.9269,53.40704],[-2.92705,53.40705],[-2.92696,53.40741],[-2.92635,53.40735]]]]}},
{ "type":"Feature","properties":{"osm_way_id":"280275409","building":"warehouse"},"geometry":{"type":"MultiPolygon","coordinates":[[[[-2.92857,53.40774],[-2.92865,53.40775],[-2.92893,53.40777],[-2.92994,53.40787],[-2.93007,53.40734],[-2.92882,53.40722],[-2.92871,53.40721],[-2.92857,53.40774]]]]}},
{ "type":"Feature","properties":{"osm_way_id":"288676433","building":"warehouse"},"geometry":{"type":"MultiPolygon","coordinates":[[[[-2.97141,53.32839],[-2.9712,53.32842],[-2.97096,53.32789],[-2.97023,53.328],[-2.97031,53.32818],[-2.97025,53.32819],[-2.97035,53.32841],[-2.9704,53.32841],[-2.97047,53.32857],[-2.9705,53.32857],[-2.97056,53.32869],[-2.9711,53.32861],[-2.97104,53.32848],[-2.97142,53.32842],[-2.97141,53.32839]]]]}},
{ "type":"Feature","properties":{"osm_way_id":"290196242","building":"warehouse","other":{"addr:housename":"2a Zip56","addr:postcode":"WA7 3FZ","addr:street":"Aston Fields Road"}}, "geometry":{"type":"MultiPolygon","coordinates":[[[[-2.66174,53.31113],[-2.66213,53.31119],[-2.66228,53.31086],[-2.66189,53.3108],[-2.66174,53.31113]]]]}},
{ "type":"Feature","properties":{"osm_way_id":"290196245","building":"warehouse","other":{"addr:housename":"2b Zip56","addr:postcode":"WA7 3FZ","addr:street":"Aston Fields Road"}}, "geometry":{"type":"MultiPolygon","coordinates":[[[[-2.66213,53.31119],[-2.66251,53.31125],[-2.66266,53.31092],[-2.66228,53.31086],[-2.66213,53.31119]]]]}},
{ "type":"Feature","properties":{"osm_way_id":"290196248","building":"warehouse","other":{"addr:housename":"2c Zip56","addr:postcode":"WA7 3FZ","addr:street":"Aston Fields Road"}}, "geometry":{"type":"MultiPolygon","coordinates":[[[[-2.66251,53.31125],[-2.6629,53.31131],[-2.66305,53.31098],[-2.66266,53.31092],[-2.66251,53.31125]]]]}},
{ "type":"Feature","properties":{"osm_way_id":"290196250","building":"warehouse","other":{"addr:housename":"2d Zip56","addr:postcode":"WA7 3FZ","addr:street":"Aston Fields Road"}}, "geometry":{"type":"MultiPolygon","coordinates":[[[[-2.6629,53.31131],[-2.66328,53.31138],[-2.66337,53.31117],[-2.66349,53.31119],[-2.66354,53.3111],[-2.66363,53.31111],[-2.66365,53.31108],[-2.66343,53.31104],[-2.66305,53.31098],[-2.6629,53.31131]]]]}},
{ "type":"Feature","properties":{"osm_way_id":"290196295","name":"Downton C M Runcorn","building":"warehouse","other":{"addr:housename":"Premier Point","addr:postcode":"WA7 3GG","addr:street":"Aston Lane South"}}, "geometry":{"type":"MultiPolygon","coordinates":[[[[-2.657,53.31268],[-2.65608,53.31254],[-2.65603,53.31265],[-2.65562,53.31259],[-2.6546,53.31224],[-2.65464,53.31214],[-2.65452,53.31212],[-2.65456,53.31202],[-2.65444,53.312],[-2.65455,53.3117],[-2.65503,53.31177],[-2.65501,53.31181],[-2.65528,53.31185],[-2.65536,53.31165],[-2.65633,53.3118],[-2.65638,53.31166],[-2.6571,53.31177],[-2.65702,53.31196],[-2.65728,53.31199],[-2.657,53.31268]]]]}},
{ "type":"Feature","properties":{"osm_way_id":"290196319","building":"warehouse","other":{"addr:housenumber":"1","addr:postcode":"WA7 3DT","addr:street":"Rivington Road"}}, "geometry":{"type":"MultiPolygon","coordinates":[[[[-2.65397,53.30996],[-2.65443,53.31003],[-2.65432,53.31029],[-2.65386,53.31022],[-2.65397,53.30996]]]]}},
{ "type":"Feature","properties":{"osm_way_id":"290196321","building":"warehouse","other":{"addr:housenumber":"10","addr:postcode":"WA7 3DL","addr:street":"Aston Fields Road"}}, "geometry":{"type":"MultiPolygon","coordinates":[[[[-2.66535,53.31198],[-2.66523,53.31224],[-2.66458,53.31214],[-2.66469,53.31188],[-2.66535,53.31198]]]]}},
{ "type":"Feature","properties":{"osm_way_id":"290196327","building":"warehouse","other":{"addr:housenumber":"10","addr:postcode":"WA7 3DT","addr:street":"Rivington Road"}}, "geometry":{"type":"MultiPolygon","coordinates":[[[[-2.65322,53.31012],[-2.65311,53.31038],[-2.65245,53.31028],[-2.65256,53.31002],[-2.65322,53.31012]]]]}},
{ "type":"Feature","properties":{"osm_way_id":"290196328","building":"warehouse","other":{"addr:housenumber":"11","addr:postcode":"WA7 3DL","addr:street":"Aston Fields Road"}}, "geometry":{"type":"MultiPolygon","coordinates":[[[[-2.66523,53.31224],[-2.66512,53.31251],[-2.66446,53.3124],[-2.66458,53.31214],[-2.66523,53.31224]]]]}},
{ "type":"Feature","properties":{"osm_way_id":"290196332","building":"warehouse","other":{"addr:housenumber":"12","addr:postcode":"WA7 3DL","addr:street":"Aston Fields Road"}}, "geometry":{"type":"MultiPolygon","coordinates":[[[[-2.66512,53.31251],[-2.66501,53.31277],[-2.66435,53.31267],[-2.66446,53.3124],[-2.66512,53.31251]]]]}},
{ "type":"Feature","properties":{"osm_way_id":"290196337","building":"warehouse","other":{"addr:housenumber":"14","addr:postcode":"WA7 3DL","addr:street":"Aston Fields Road"}}, "geometry":{"type":"MultiPolygon","coordinates":[[[[-2.66501,53.31277],[-2.66489,53.31303],[-2.66424,53.31293],[-2.66435,53.31267],[-2.66501,53.31277]]]]}},
{ "type":"Feature","properties":{"osm_way_id":"290196369","building":"warehouse","other":{"addr:housenumber":"2","addr:postcode":"WA7 3DT","addr:street":"Rivington Road"}}, "geometry":{"type":"MultiPolygon","coordinates":[[[[-2.65432,53.31029],[-2.65427,53.31042],[-2.6538,53.31035],[-2.65386,53.31022],[-2.65432,53.31029]]]]}},
{ "type":"Feature","properties":{"osm_way_id":"290196401","building":"warehouse","other":{"addr:housenumber":"3","addr:postcode":"WA7 3DT","addr:street":"Rivington Road"}}, "geometry":{"type":"MultiPolygon","coordinates":[[[[-2.65427,53.31042],[-2.65421,53.31055],[-2.65375,53.31048],[-2.6538,53.31035],[-2.65427,53.31042]]]]}},
{ "type":"Feature","properties":{"osm_way_id":"290196420","building":"warehouse","other":{"addr:housenumber":"4","addr:postcode":"WA7 3DT","addr:street":"Rivington Road"}}, "geometry":{"type":"MultiPolygon","coordinates":[[[[-2.65421,53.31055],[-2.65415,53.31068],[-2.65369,53.31061],[-2.65375,53.31048],[-2.65421,53.31055]]]]}},
{ "type":"Feature","properties":{"osm_way_id":"290196431","building":"warehouse","other":{"addr:housenumber":"5","addr:postcode":"WA7 3DL","addr:street":"Aston Fields Road"}}, "geometry":{"type":"MultiPolygon","coordinates":[[[[-2.663,53.31301],[-2.66312,53.31275],[-2.66269,53.31268],[-2.66257,53.31294],[-2.663,53.31301]]]]}},
{ "type":"Feature","properties":{"osm_way_id":"290196434","building":"warehouse","other":{"addr:housenumber":"5","addr:postcode":"WA7 3DT","addr:street":"Rivington Road"}}, "geometry":{"type":"MultiPolygon","coordinates":[[[[-2.65415,53.31068],[-2.6541,53.31081],[-2.65364,53.31074],[-2.65369,53.31061],[-2.65415,53.31068]]]]}},
{ "type":"Feature","properties":{"osm_way_id":"290196437","building":"warehouse","other":{"addr:housenumber":"6","addr:postcode":"WA7 3DL","addr:street":"Aston Fields Road"}}, "geometry":{"type":"MultiPolygon","coordinates":[[[[-2.66212,53.31287],[-2.66201,53.31313],[-2.66135,53.31303],[-2.66146,53.31277],[-2.66212,53.31287]]]]}},
{ "type":"Feature","properties":{"osm_way_id":"290196442","building":"warehouse","other":{"addr:housenumber":"6","addr:postcode":"WA7 3DT","addr:street":"Rivington Road"}}, "geometry":{"type":"MultiPolygon","coordinates":[[[[-2.65364,53.31074],[-2.6541,53.31081],[-2.65399,53.31107],[-2.65352,53.311],[-2.65364,53.31074]]]]}},
{ "type":"Feature","properties":{"osm_way_id":"290196443","building":"warehouse","other":{"addr:housenumber":"7","addr:postcode":"WA7 3DL","addr:street":"Aston Fields Road"}}, "geometry":{"type":"MultiPolygon","coordinates":[[[[-2.66223,53.3126],[-2.66212,53.31287],[-2.66146,53.31277],[-2.66158,53.3125],[-2.66223,53.3126]]]]}},
{ "type":"Feature","properties":{"osm_way_id":"290196447","building":"warehouse","other":{"addr:housenumber":"7","addr:postcode":"WA7 3DT","addr:street":"Rivington Road"}}, "geometry":{"type":"MultiPolygon","coordinates":[[[[-2.65288,53.3109],[-2.65276,53.31117],[-2.65215,53.31107],[-2.65225,53.31081],[-2.65288,53.3109]]]]}},
{ "type":"Feature","properties":{"osm_way_id":"290196448","building":"warehouse","other":{"addr:housenumber":"8","addr:postcode":"WA7 3DL","addr:street":"Aston Fields Road"}}, "geometry":{"type":"MultiPolygon","coordinates":[[[[-2.66235,53.31234],[-2.66223,53.3126],[-2.66158,53.3125],[-2.66169,53.31224],[-2.66235,53.31234]]]]}},
{ "type":"Feature","properties":{"osm_way_id":"290196454","building":"warehouse","other":{"addr:housenumber":"8","addr:postcode":"WA7 3DT","addr:street":"Rivington Road"}}, "geometry":{"type":"MultiPolygon","coordinates":[[[[-2.65299,53.31064],[-2.65288,53.3109],[-2.65225,53.31081],[-2.65235,53.31055],[-2.65299,53.31064]]]]}},
{ "type":"Feature","properties":{"osm_way_id":"290196455","building":"warehouse","other":{"addr:housenumber":"9","addr:postcode":"WA7 3DL","addr:street":"Aston Fields Road"}}, "geometry":{"type":"MultiPolygon","coordinates":[[[[-2.66246,53.31208],[-2.66235,53.31234],[-2.66169,53.31224],[-2.6618,53.31198],[-2.66246,53.31208]]]]}},
{ "type":"Feature","properties":{"osm_way_id":"290196460","building":"warehouse","other":{"addr:housenumber":"9","addr:postcode":"WA7 3DT","addr:street":"Rivington Road"}}, "geometry":{"type":"MultiPolygon","coordinates":[[[[-2.65311,53.31038],[-2.65299,53.31064],[-2.65235,53.31055],[-2.65245,53.31028],[-2.65311,53.31038]]]]}},
{ "type":"Feature","properties":{"osm_way_id":"290196499","name":"SWI","building":"warehouse","other":{"addr:city":"Whitehouse, Runcorn","addr:postcode":"WA7 3DU","addr:street":"Fairoak Lane"}}, "geometry":{"type":"MultiPolygon","coordinates":[[[[-2.64724,53.30832],[-2.6466,53.30845],[-2.64623,53.30782],[-2.64686,53.30769],[-2.64724,53.30832]]]]}},
{ "type":"Feature","properties":{"osm_way_id":"295867500","building":"warehouse"},"geometry":{"type":"MultiPolygon","coordinates":[[[[-2.91517,53.4103],[-2.9154,53.40989],[-2.9148,53.40976],[-2.91471,53.40975],[-2.91465,53.40977],[-2.91459,53.4098],[-2.91454,53.40991],[-2.91457,53.4101],[-2.91453,53.41017],[-2.91517,53.4103]]]]}},
{ "type":"Feature","properties":{"osm_way_id":"311996156","building":"warehouse","other":{"addr:housenumber":"9","addr:postcode":"L30 6UU","addr:street":"Dunnings Bridge Road"}}, "geometry":{"type":"MultiPolygon","coordinates":[[[[-2.9666,53.48259],[-2.96684,53.48278],[-2.96631,53.48301],[-2.96608,53.48282],[-2.9666,53.48259]]]]}},
{ "type":"Feature","properties":{"osm_way_id":"313075465","building":"warehouse"},"geometry":{"type":"MultiPolygon","coordinates":[[[[-2.96045,53.47252],[-2.96078,53.47271],[-2.96059,53.47282],[-2.9607,53.47289],[-2.96075,53.47286],[-2.96097,53.47299],[-2.96094,53.47301],[-2.96103,53.47306],[-2.96123,53.47293],[-2.96188,53.4733],[-2.96078,53.47399],[-2.96013,53.47363],[-2.9607,53.47327],[-2.96061,53.47322],[-2.96049,53.47329],[-2.96025,53.47316],[-2.96038,53.47308],[-2.9603,53.47303],[-2.95982,53.47334],[-2.95947,53.47314],[-2.96045,53.47252]]]]}},
{ "type":"Feature","properties":{"osm_way_id":"313278190","building":"warehouse"},"geometry":{"type":"MultiPolygon","coordinates":[[[[-2.86032,53.49084],[-2.86017,53.49134],[-2.86003,53.49132],[-2.86001,53.49139],[-2.85955,53.49134],[-2.85942,53.49174],[-2.85783,53.49157],[-2.85796,53.49117],[-2.8577,53.49114],[-2.85788,53.49054],[-2.85789,53.49051],[-2.85931,53.49067],[-2.85931,53.49069],[-2.8593,53.49069],[-2.85929,53.49073],[-2.86032,53.49084]]]]}},
{ "type":"Feature","properties":{"osm_way_id":"357124758","building":"warehouse"},"geometry":{"type":"MultiPolygon","coordinates":[[[[-2.90873,53.35807],[-2.90867,53.35803],[-2.90871,53.358],[-2.90849,53.35788],[-2.90845,53.35791],[-2.90839,53.35788],[-2.90824,53.35799],[-2.90791,53.35781],[-2.90786,53.35784],[-2.90775,53.35778],[-2.90764,53.35785],[-2.90764,53.35786],[-2.90842,53.35827],[-2.90873,53.35807]]]]}},
{ "type":"Feature","properties":{"osm_way_id":"444312344","name":"Invisible Wind Factory","building":"warehouse","other":{"addr:city":"Liverpool","addr:housenumber":"3","addr:postcode":"L3 7DS","addr:street":"Regent Road"}}, "geometry":{"type":"MultiPolygon","coordinates":[[[[-2.99985,53.41809],[-2.99991,53.41852],[-2.99966,53.4185],[-2.9996,53.41811],[-2.99985,53.41809]]]]}},
{ "type":"Feature","properties":{"osm_way_id":"454484264","name":"Domestic Rolls & Shutters Ltd","building":"warehouse","other":{"addr:city":"Runcorn","addr:housenumber":"1","addr:postcode":"WA7 1RS","addr:street":"Sycamore Court","addr:suburb":"Manor Park"}}, "geometry":{"type":"MultiPolygon","coordinates":[[[[-2.66504,53.3509],[-2.66512,53.35067],[-2.66462,53.35061],[-2.66454,53.35084],[-2.66504,53.3509]]]]}},
{ "type":"Feature","properties":{"osm_way_id":"454484265","name":"Aures Technology Ltd","building":"warehouse","other":{"addr:city":"Runcorn","addr:housenumber":"2","addr:postcode":"WA7 1RS","addr:street":"Sycamore Court","addr:suburb":"Manor Park","website":"https:\/\/www.aures.com\/en\/Contact\/aures-uk"}}, "geometry":{"type":"MultiPolygon","coordinates":[[[[-2.66525,53.35093],[-2.66563,53.35098],[-2.66571,53.35075],[-2.66533,53.3507],[-2.66525,53.35093]]]]}},
{ "type":"Feature","properties":{"osm_way_id":"454484266","name":"Pharos Generator Services","building":"warehouse","other":{"addr:city":"Runcorn","addr:housenumber":"3","addr:postcode":"WA7 1RS","addr:street":"Sycamore Court","addr:suburb":"Manor Park","phone":"+44 1928 571023","website":"http:\/\/www.pharosgroup.co.uk\/generator-services\/"}}, "geometry":{"type":"MultiPolygon","coordinates":[[[[-2.66552,53.35143],[-2.66528,53.3514],[-2.66533,53.3512],[-2.66558,53.35123],[-2.66552,53.35143]]]]}},
{ "type":"Feature","properties":{"osm_way_id":"454484267","name":"Domestic Rolls & Shutters Ltd","building":"warehouse","other":{"addr:city":"Runcorn","addr:housenumber":"4","addr:postcode":"WA7 1RS","addr:street":"Sycamore Court","addr:suburb":"Manor Park"}}, "geometry":{"type":"MultiPolygon","coordinates":[[[[-2.66546,53.35162],[-2.66552,53.35143],[-2.66528,53.3514],[-2.66522,53.3516],[-2.66546,53.35162]]]]}},
{ "type":"Feature","properties":{"osm_way_id":"454484268","name":"PJ Produce Ltd","building":"warehouse","other":{"addr:city":"Runcorn","addr:housenumber":"10","addr:postcode":"WA7 1RS","addr:street":"Sycamore Court","addr:suburb":"Manor Park","email":"sales@pjproduce.co.uk","phone":"+44 1928 599944"}}, "geometry":{"type":"MultiPolygon","coordinates":[[[[-2.66459,53.35157],[-2.66467,53.35134],[-2.66438,53.3513],[-2.6643,53.35153],[-2.66459,53.35157]]]]}},
{ "type":"Feature","properties":{"osm_way_id":"454484270","name":"Assist Environment","building":"warehouse","other":{"addr:city":"Runcorn","addr:housenumber":"5","addr:postcode":"WA7 1RS","addr:street":"Sycamore Court","addr:suburb":"Manor Park","website":"http:\/\/www.assistsupport.co.uk"}}, "geometry":{"type":"MultiPolygon","coordinates":[[[[-2.66539,53.35193],[-2.66541,53.3518],[-2.66517,53.35179],[-2.66515,53.35192],[-2.66539,53.35193]]]]}},
{ "type":"Feature","properties":{"osm_way_id":"454484272","building":"warehouse","other":{"addr:city":"Runcorn","addr:housenumber":"6","addr:postcode":"WA7 1RS","addr:street":"Sycamore Court","addr:suburb":"Manor Park"}}, "geometry":{"type":"MultiPolygon","coordinates":[[[[-2.66515,53.35192],[-2.66498,53.35191],[-2.665,53.35178],[-2.66517,53.35179],[-2.66515,53.35192]]]]}},
{ "type":"Feature","properties":{"osm_way_id":"454484273","building":"warehouse","other":{"addr:city":"Runcorn","addr:housenumber":"7","addr:postcode":"WA7 1RS","addr:street":"Sycamore Court","addr:suburb":"Manor Park"}}, "geometry":{"type":"MultiPolygon","coordinates":[[[[-2.66498,53.35191],[-2.66467,53.35189],[-2.6647,53.35176],[-2.665,53.35178],[-2.66498,53.35191]]]]}},
{ "type":"Feature","properties":{"osm_way_id":"454484274","name":"Healthcare at Home","building":"warehouse","other":{"addr:city":"Runcorn","addr:housenumber":"8","addr:postcode":"WA7 1RS","addr:street":"Sycamore Court","addr:suburb":"Manor Park"}}, "geometry":{"type":"MultiPolygon","coordinates":[[[[-2.66467,53.35189],[-2.66446,53.35188],[-2.66448,53.35175],[-2.6647,53.35176],[-2.66467,53.35189]]]]}},
{ "type":"Feature","properties":{"osm_way_id":"454484275","building":"warehouse","other":{"addr:city":"Runcorn","addr:housenumber":"9","addr:postcode":"WA7 1RS","addr:street":"Sycamore Court","addr:suburb":"Manor Park"}}, "geometry":{"type":"MultiPolygon","coordinates":[[[[-2.66446,53.35188],[-2.66422,53.35187],[-2.66424,53.35174],[-2.66448,53.35175],[-2.66446,53.35188]]]]}},
{ "type":"Feature","properties":{"osm_way_id":"454484276","name":"Exedy Clutch Europe Ltd","building":"warehouse","other":{"addr:city":"Runcorn","addr:housenumber":"2","addr:postcode":"WA7 1RW","addr:street":"Rokeby Court","addr:suburb":"Manor Park","email":"enquiries@exedy.co.uk","phone":"+44 1928 571850","website":"http:\/\/exedy.co.uk\/en\/home\/"}}, "geometry":{"type":"MultiPolygon","coordinates":[[[[-2.66431,53.35133],[-2.6645,53.35079],[-2.66383,53.3507],[-2.66364,53.35125],[-2.66431,53.35133]]]]}},
{ "type":"Feature","properties":{"osm_way_id":"511465858","building":"warehouse"},"geometry":{"type":"MultiPolygon","coordinates":[[[[-2.71835,53.38769],[-2.71813,53.38779],[-2.71797,53.38767],[-2.71792,53.38769],[-2.71779,53.38759],[-2.71807,53.38747],[-2.71835,53.38769]]]]}},
{ "type":"Feature","properties":{"osm_way_id":"511465859","building":"warehouse"},"geometry":{"type":"MultiPolygon","coordinates":[[[[-2.71801,53.38783],[-2.71775,53.38761],[-2.71708,53.38789],[-2.71714,53.38821],[-2.71801,53.38783]]]]}},
{ "type":"Feature","properties":{"osm_way_id":"566534248","building":"warehouse"},"geometry":{"type":"MultiPolygon","coordinates":[[[[-2.88486,53.34541],[-2.88815,53.34675],[-2.88666,53.34805],[-2.88338,53.3467],[-2.8839,53.34625],[-2.88381,53.34621],[-2.88425,53.34583],[-2.88433,53.34586],[-2.88486,53.34541]]]]}},
{ "type":"Feature","properties":{"osm_way_id":"566534257","building":"warehouse"},"geometry":{"type":"MultiPolygon","coordinates":[[[[-2.88786,53.34077],[-2.88524,53.33973],[-2.88462,53.34029],[-2.8871,53.34128],[-2.88723,53.34133],[-2.88786,53.34077]]]]}},
{ "type":"Feature","properties":{"osm_way_id":"598614096","building":"warehouse"},"geometry":{"type":"MultiPolygon","coordinates":[[[[-2.87897,53.34517],[-2.87915,53.3449],[-2.87841,53.34472],[-2.87822,53.34498],[-2.87897,53.34517]]]]}},
{ "type":"Feature","properties":{"osm_way_id":"598614105","building":"warehouse"},"geometry":{"type":"MultiPolygon","coordinates":[[[[-2.87772,53.34145],[-2.87846,53.3403],[-2.87725,53.34003],[-2.87652,53.34117],[-2.87772,53.34145]]]]}},
{ "type":"Feature","properties":{"osm_way_id":"598614106","building":"warehouse"},"geometry":{"type":"MultiPolygon","coordinates":[[[[-2.87799,53.34492],[-2.87819,53.34464],[-2.87727,53.34441],[-2.87707,53.34469],[-2.87799,53.34492]]]]}},
{ "type":"Feature","properties":{"osm_way_id":"681491568","name":"Ocado","building":"warehouse","other":{"addr:city":"Liverpool","addr:housenumber":"2","addr:postcode":"L33 7SA","addr:street":"Lees Road","building:levels":"2"}}, "geometry":{"type":"MultiPolygon","coordinates":[[[[-2.86568,53.47925],[-2.86573,53.47909],[-2.86549,53.47907],[-2.86463,53.47896],[-2.86438,53.47893],[-2.86445,53.47874],[-2.86433,53.47873],[-2.86433,53.47875],[-2.86428,53.47875],[-2.86417,53.47907],[-2.86568,53.47925]]]]}},
{ "type":"Feature","properties":{"osm_way_id":"697149901","building":"warehouse","other":{"old_name":"Commodore Cinema","was:amenity":"cinema","wikidata":"Q41414554"}}, "geometry":{"type":"MultiPolygon","coordinates":[[[[-2.98798,53.4385],[-2.98809,53.43874],[-2.98743,53.43885],[-2.98732,53.4386],[-2.98798,53.4385]]]]}},
{ "type":"Feature","properties":{"osm_way_id":"794803941","building":"warehouse"},"geometry":{"type":"MultiPolygon","coordinates":[[[[-2.67936,53.47504],[-2.67811,53.47417],[-2.6782,53.47412],[-2.67809,53.47403],[-2.67793,53.47409],[-2.67668,53.47317],[-2.67567,53.47368],[-2.67556,53.4736],[-2.67459,53.47409],[-2.67598,53.47506],[-2.67584,53.47513],[-2.67602,53.47525],[-2.6762,53.47516],[-2.67745,53.47603],[-2.67936,53.47504]]]]}},
{ "type":"Feature","properties":{"osm_way_id":"794817023","name":"Movianto","building":"warehouse"},"geometry":{"type":"MultiPolygon","coordinates":[[[[-2.64271,53.47844],[-2.63974,53.47615],[-2.64106,53.47553],[-2.64356,53.47748],[-2.64326,53.47824],[-2.64271,53.47844]]]]}},
{ "type":"Feature","properties":{"osm_way_id":"966490801","building":"warehouse"},"geometry":{"type":"MultiPolygon","coordinates":[[[[-3.00427,53.44786],[-3.00399,53.44793],[-3.00407,53.44805],[-3.00368,53.44814],[-3.00372,53.4482],[-3.00265,53.44844],[-3.00261,53.44838],[-3.0025,53.4484],[-3.00142,53.44666],[-3.00175,53.44659],[-3.00182,53.44671],[-3.00256,53.44654],[-3.00249,53.44642],[-3.0028,53.44635],[-3.00288,53.44648],[-3.00306,53.44644],[-3.00318,53.44664],[-3.00347,53.44657],[-3.00427,53.44786]]]]}},
{ "type":"Feature","properties":{"osm_way_id":"973285831","building":"warehouse"},"geometry":{"type":"MultiPolygon","coordinates":[[[[-2.86645,53.46622],[-2.86651,53.46667],[-2.86521,53.46673],[-2.86516,53.46628],[-2.86645,53.46622]]]]}},
{ "type":"Feature","properties":{"osm_way_id":"973285832","building":"warehouse"},"geometry":{"type":"MultiPolygon","coordinates":[[[[-2.86647,53.46541],[-2.86652,53.46573],[-2.86557,53.46577],[-2.86553,53.46546],[-2.86647,53.46541]]]]}},
{ "type":"Feature","properties":{"osm_way_id":"973285833","building":"warehouse"},"geometry":{"type":"MultiPolygon","coordinates":[[[[-2.86814,53.46545],[-2.86819,53.46585],[-2.86705,53.4659],[-2.867,53.4655],[-2.86814,53.46545]]]]}}
]
}
