{
"type": "FeatureCollection",
"features": [
{ "type":"Feature","properties":{"osm_way_id":"21148187","name":"B&M Distribution Centre","building":"warehouse","other":{"addr:city":"Runcorn","addr:county":"Cheshire","addr:housename":"B&M Distribution Centre","addr:postcode":"WA7 1SE","addr:street":"Blackheath lane","building:levels":"1","fhrs:id":"893608"}}, "geometry":{"type":"MultiPolygon","coordinates":[[[[-2.65353,53.35523],[-2.65165,53.35581],[-2.65164,53.3558],[-2.65161,53.35581],[-2.65084,53.35492],[-2.65066,53.35498],[-2.65058,53.35488],[-2.65076,53.35482],[-2.65064,53.35468],[-2.65045,53.35473],[-2.6502,53.35444],[-2.65041,53.35438],[-2.65016,53.35408],[-2.65204,53.3535],[-2.65205,53.35352],[-2.65225,53.35345],[-2.6525,53.35374],[-2.65229,53.35381],[-2.65353,53.35523]]]]}},
{ "type":"Feature","properties":{"osm_way_id":"28281099","name":"Lidl Distribution Centre","building":"warehouse","other":{"addr:city":"Runcorn","addr:county":"Cheshire","addr:housename":"Lidl UK GmbH","addr:postcode":"WA7 1SE","addr:street":"Blackheath lane","brand":"Lidl","brand:wikidata":"Q151954","brand:wikipedia":"en:Lidl","building:levels":"1"}}, "geometry":{"type":"MultiPolygon","coordinates":[[[[-2.65994,53.35351],[-2.6598,53.35336],[-2.65926,53.35353],[-2.65864,53.35286],[-2.65841,53.35264],[-2.65829,53.35268],[-2.65821,53.35261],[-2.65456,53.35387],[-2.65511,53.3544],[-2.65575,53.35501],[-2.65623,53.35485],[-2.65961,53.35363],[-2.65994,53.35351]]]]}},
{ "type":"Feature","properties":{"osm_way_id":"32199581","name":"Sainsbury's Distribution Centre","building":"warehouse"},"geometry":{"type":"MultiPolygon","coordinates":[[[[-2.65616,53.47649],[-2.65533,53.47583],[-2.649,53.4786],[-2.6498,53.47927],[-2.65117,53.47867],[-2.65134,53.47882],[-2.65226,53.47843],[-2.65207,53.47828],[-2.65616,53.47649]]]]}},
{ "type":"Feature","properties":{"osm_way_id":"32199888","name":"Booker Distribution Centre","building":"warehouse"},"geometry":{"type":"MultiPolygon","coordinates":[[[[-2.65901,53.47857],[-2.65355,53.47869],[-2.65361,53.47954],[-2.65486,53.47951],[-2.65487,53.47968],[-2.65713,53.47963],[-2.65712,53.47947],[-2.65906,53.47943],[-2.65901,53.47857]]]]}}
]
}
