{
"type": "FeatureCollection",
"features": [
{ "type":"Feature","properties":{"osm_id":"9583459454","other":{"amenity":"loading_dock"}}, "geometry":{"type":"Point","coordinates":[-3.38862,56.06415 ]}},
{ "type":"Feature","properties":{"osm_id":"9583459455","other":{"amenity":"loading_dock"}}, "geometry":{"type":"Point","coordinates":[-3.3912,56.06345 ]}},
{ "type":"Feature","properties":{"osm_id":"9583459456","other":{"amenity":"loading_dock"}}, "geometry":{"type":"Point","coordinates":[-3.3912,56.06348 ]}},
{ "type":"Feature","properties":{"osm_id":"9583459457","other":{"amenity":"loading_dock"}}, "geometry":{"type":"Point","coordinates":[-3.39121,56.06352 ]}},
{ "type":"Feature","properties":{"osm_id":"9583459458","other":{"amenity":"loading_dock"}}, "geometry":{"type":"Point","coordinates":[-3.39121,56.06355 ]}},
{ "type":"Feature","properties":{"osm_id":"9583459459","other":{"amenity":"loading_dock"}}, "geometry":{"type":"Point","coordinates":[-3.39121,56.06358 ]}},
{ "type":"Feature","properties":{"osm_id":"9583459460","other":{"amenity":"loading_dock"}}, "geometry":{"type":"Point","coordinates":[-3.39121,56.06362 ]}},
{ "type":"Feature","properties":{"osm_id":"9583459461","other":{"amenity":"loading_dock"}}, "geometry":{"type":"Point","coordinates":[-3.39121,56.06366 ]}},
{ "type":"Feature","properties":{"osm_id":"9583459462","other":{"amenity":"loading_dock"}}, "geometry":{"type":"Point","coordinates":[-3.39121,56.06369 ]}},
{ "type":"Feature","properties":{"osm_id":"9583459463","other":{"amenity":"loading_dock"}}, "geometry":{"type":"Point","coordinates":[-3.39121,56.06372 ]}},
{ "type":"Feature","properties":{"osm_id":"9583459464","other":{"amenity":"loading_dock"}}, "geometry":{"type":"Point","coordinates":[-3.39124,56.06424 ]}},
{ "type":"Feature","properties":{"osm_id":"9583459465","other":{"amenity":"loading_dock"}}, "geometry":{"type":"Point","coordinates":[-3.39123,56.0642 ]}},
{ "type":"Feature","properties":{"osm_id":"9583459466","other":{"amenity":"loading_dock"}}, "geometry":{"type":"Point","coordinates":[-3.39123,56.06416 ]}},
{ "type":"Feature","properties":{"osm_id":"9583459467","other":{"amenity":"loading_dock"}}, "geometry":{"type":"Point","coordinates":[-3.39123,56.06413 ]}},
{ "type":"Feature","properties":{"osm_id":"9583459468","other":{"amenity":"loading_dock"}}, "geometry":{"type":"Point","coordinates":[-3.39123,56.06409 ]}},
{ "type":"Feature","properties":{"osm_id":"9583459469","other":{"amenity":"loading_dock"}}, "geometry":{"type":"Point","coordinates":[-3.39123,56.06405 ]}},
{ "type":"Feature","properties":{"osm_id":"9583459470","other":{"amenity":"loading_dock"}}, "geometry":{"type":"Point","coordinates":[-3.39123,56.06401 ]}},
{ "type":"Feature","properties":{"osm_id":"9583459471","other":{"amenity":"loading_dock"}}, "geometry":{"type":"Point","coordinates":[-3.39123,56.06398 ]}},
{ "type":"Feature","properties":{"osm_id":"9583459472","other":{"amenity":"loading_dock"}}, "geometry":{"type":"Point","coordinates":[-3.39122,56.06395 ]}},
{ "type":"Feature","properties":{"osm_id":"9583459473","other":{"amenity":"loading_dock"}}, "geometry":{"type":"Point","coordinates":[-3.39122,56.06391 ]}},
{ "type":"Feature","properties":{"osm_id":"9583459474","other":{"amenity":"loading_dock"}}, "geometry":{"type":"Point","coordinates":[-3.39122,56.06388 ]}},
{ "type":"Feature","properties":{"osm_id":"9583459475","other":{"amenity":"loading_dock"}}, "geometry":{"type":"Point","coordinates":[-3.39122,56.06384 ]}},
{ "type":"Feature","properties":{"osm_id":"9583459476","other":{"amenity":"loading_dock"}}, "geometry":{"type":"Point","coordinates":[-3.39122,56.06381 ]}},
{ "type":"Feature","properties":{"osm_id":"9583459477","other":{"amenity":"loading_dock"}}, "geometry":{"type":"Point","coordinates":[-3.38862,56.06412 ]}},
{ "type":"Feature","properties":{"osm_id":"9583459478","other":{"amenity":"loading_dock"}}, "geometry":{"type":"Point","coordinates":[-3.38862,56.06408 ]}},
{ "type":"Feature","properties":{"osm_id":"9583459479","other":{"amenity":"loading_dock"}}, "geometry":{"type":"Point","coordinates":[-3.38862,56.06404 ]}},
{ "type":"Feature","properties":{"osm_id":"9583459480","other":{"amenity":"loading_dock"}}, "geometry":{"type":"Point","coordinates":[-3.38862,56.06401 ]}},
{ "type":"Feature","properties":{"osm_id":"9583459481","other":{"amenity":"loading_dock"}}, "geometry":{"type":"Point","coordinates":[-3.38861,56.06397 ]}},
{ "type":"Feature","properties":{"osm_id":"9583459482","other":{"amenity":"loading_dock"}}, "geometry":{"type":"Point","coordinates":[-3.38861,56.06394 ]}},
{ "type":"Feature","properties":{"osm_id":"9583459483","other":{"amenity":"loading_dock"}}, "geometry":{"type":"Point","coordinates":[-3.38861,56.0639 ]}},
{ "type":"Feature","properties":{"osm_id":"9583459484","other":{"amenity":"loading_dock"}}, "geometry":{"type":"Point","coordinates":[-3.38861,56.06387 ]}},
{ "type":"Feature","properties":{"osm_id":"9583459485","other":{"amenity":"loading_dock"}}, "geometry":{"type":"Point","coordinates":[-3.38861,56.06383 ]}},
{ "type":"Feature","properties":{"osm_id":"9583459486","other":{"amenity":"loading_dock"}}, "geometry":{"type":"Point","coordinates":[-3.38861,56.06379 ]}},
{ "type":"Feature","properties":{"osm_id":"9583459487","other":{"amenity":"loading_dock"}}, "geometry":{"type":"Point","coordinates":[-3.3886,56.06376 ]}},
{ "type":"Feature","properties":{"osm_id":"9583459488","other":{"amenity":"loading_dock"}}, "geometry":{"type":"Point","coordinates":[-3.3886,56.06372 ]}},
{ "type":"Feature","properties":{"osm_id":"9583459489","other":{"amenity":"loading_dock"}}, "geometry":{"type":"Point","coordinates":[-3.3886,56.06368 ]}},
{ "type":"Feature","properties":{"osm_id":"9583459490","other":{"amenity":"loading_dock"}}, "geometry":{"type":"Point","coordinates":[-3.3886,56.06365 ]}},
{ "type":"Feature","properties":{"osm_id":"9583459491","other":{"amenity":"loading_dock"}}, "geometry":{"type":"Point","coordinates":[-3.3886,56.06361 ]}},
{ "type":"Feature","properties":{"osm_id":"9583459492","other":{"amenity":"loading_dock"}}, "geometry":{"type":"Point","coordinates":[-3.3886,56.06358 ]}},
{ "type":"Feature","properties":{"osm_id":"9583459493","other":{"amenity":"loading_dock"}}, "geometry":{"type":"Point","coordinates":[-3.3886,56.06354 ]}},
{ "type":"Feature","properties":{"osm_id":"9583459494","other":{"amenity":"loading_dock"}}, "geometry":{"type":"Point","coordinates":[-3.38859,56.06351 ]}},
{ "type":"Feature","properties":{"osm_id":"9583459495","other":{"amenity":"loading_dock"}}, "geometry":{"type":"Point","coordinates":[-3.38859,56.06347 ]}},
{ "type":"Feature","properties":{"osm_id":"9583459496","other":{"amenity":"loading_dock"}}, "geometry":{"type":"Point","coordinates":[-3.39008,56.06213 ]}},
{ "type":"Feature","properties":{"osm_id":"9583459497","other":{"amenity":"loading_dock"}}, "geometry":{"type":"Point","coordinates":[-3.39008,56.06209 ]}},
{ "type":"Feature","properties":{"osm_id":"9583459498","other":{"amenity":"loading_dock"}}, "geometry":{"type":"Point","coordinates":[-3.39008,56.06205 ]}},
{ "type":"Feature","properties":{"osm_id":"9583459499","other":{"amenity":"loading_dock"}}, "geometry":{"type":"Point","coordinates":[-3.39008,56.06201 ]}},
{ "type":"Feature","properties":{"osm_id":"9583459500","highway":"services"},"geometry":{"type":"Point","coordinates":[-3.39134,56.06429 ]}},
{ "type":"Feature","properties":{"osm_id":"9583459501","highway":"services"},"geometry":{"type":"Point","coordinates":[-3.38853,56.06334 ]}},
{ "type":"Feature","properties":{"osm_id":"9583459502","highway":"services"},"geometry":{"type":"Point","coordinates":[-3.39008,56.06191 ]}},
{ "type":"Feature","properties":{"osm_way_id":"59696652","building":"warehouse"},"geometry":{"type":"MultiPolygon","coordinates":[[[[-3.21123,56.19909],[-3.21157,56.19889],[-3.21147,56.19884],[-3.21113,56.19904],[-3.21123,56.19909]]]]}},
{ "type":"Feature","properties":{"osm_way_id":"164978678","building":"warehouse"},"geometry":{"type":"MultiPolygon","coordinates":[[[[-2.17609,53.59441],[-2.17532,53.59516],[-2.17484,53.59499],[-2.17546,53.59439],[-2.17554,53.59442],[-2.1757,53.59427],[-2.17609,53.59441]]]]}},
{ "type":"Feature","properties":{"osm_way_id":"164978689","building":"warehouse"},"geometry":{"type":"MultiPolygon","coordinates":[[[[-2.22787,53.58713],[-2.22562,53.58735],[-2.22554,53.58707],[-2.22549,53.58688],[-2.22773,53.58665],[-2.22787,53.58713]]]]}},
{ "type":"Feature","properties":{"osm_way_id":"164978690","building":"warehouse"},"geometry":{"type":"MultiPolygon","coordinates":[[[[-2.23037,53.58671],[-2.22952,53.5868],[-2.22938,53.58635],[-2.22972,53.58631],[-2.23024,53.58626],[-2.23037,53.58671]]]]}},
{ "type":"Feature","properties":{"osm_way_id":"164978706","building":"warehouse"},"geometry":{"type":"MultiPolygon","coordinates":[[[[-2.22911,53.58684],[-2.22799,53.58695],[-2.22786,53.58651],[-2.22899,53.5864],[-2.22911,53.58684]]]]}},
{ "type":"Feature","properties":{"osm_way_id":"213569827","name":"Amazon - EDI4","building":"warehouse","other":{"addr:city":"Dunfermline","addr:housename":"Amazon Fullfillment Centre","addr:postcode":"KY11 8ST","addr:street":"Amazon Way"}}, "geometry":{"type":"MultiPolygon","coordinates":[[[[-3.3918,56.06543],[-3.38815,56.06547],[-3.3881,56.06431],[-3.38863,56.06431],[-3.38862,56.06415],[-3.38862,56.06412],[-3.38862,56.06408],[-3.38862,56.06404],[-3.38862,56.06401],[-3.38861,56.06397],[-3.38861,56.06394],[-3.38861,56.0639],[-3.38861,56.06387],[-3.38861,56.06383],[-3.38861,56.06379],[-3.3886,56.06376],[-3.3886,56.06372],[-3.3886,56.06368],[-3.3886,56.06365],[-3.3886,56.06361],[-3.3886,56.06358],[-3.3886,56.06354],[-3.38859,56.06351],[-3.38859,56.06347],[-3.38859,56.06334],[-3.38853,56.06334],[-3.38804,56.06334],[-3.38798,56.0619],[-3.39007,56.06188],[-3.39008,56.06191],[-3.39008,56.06201],[-3.39008,56.06205],[-3.39008,56.06209],[-3.39008,56.06213],[-3.39009,56.0623],[-3.39164,56.06228],[-3.39168,56.06326],[-3.3912,56.06327],[-3.3912,56.06345],[-3.3912,56.06348],[-3.39121,56.06352],[-3.39121,56.06355],[-3.39121,56.06358],[-3.39121,56.06362],[-3.39121,56.06366],[-3.39121,56.06369],[-3.39121,56.06372],[-3.39122,56.06377],[-3.39122,56.06381],[-3.39122,56.06384],[-3.39122,56.06388],[-3.39122,56.06391],[-3.39122,56.06395],[-3.39123,56.06398],[-3.39123,56.06401],[-3.39123,56.06405],[-3.39123,56.06409],[-3.39123,56.06413],[-3.39123,56.06416],[-3.39123,56.0642],[-3.39124,56.06424],[-3.39124,56.06429],[-3.39134,56.06429],[-3.39175,56.06429],[-3.3918,56.06543]]]]}},
{ "type":"Feature","properties":{"osm_way_id":"320300644","building":"warehouse"},"geometry":{"type":"MultiPolygon","coordinates":[[[[-3.38993,56.02615],[-3.38958,56.02615],[-3.38958,56.02593],[-3.38948,56.02593],[-3.38947,56.02572],[-3.38992,56.02571],[-3.38993,56.02615]]]]}},
{ "type":"Feature","properties":{"osm_way_id":"485503969","building":"warehouse"},"geometry":{"type":"MultiPolygon","coordinates":[[[[-3.50837,56.0591],[-3.50838,56.05902],[-3.50812,56.05902],[-3.50812,56.0591],[-3.50837,56.0591]]]]}},
{ "type":"Feature","properties":{"osm_way_id":"485503970","building":"warehouse"},"geometry":{"type":"MultiPolygon","coordinates":[[[[-3.50855,56.05927],[-3.50855,56.05913],[-3.50836,56.05913],[-3.50836,56.05926],[-3.50855,56.05927]]]]}},
{ "type":"Feature","properties":{"osm_way_id":"485531357","building":"warehouse"},"geometry":{"type":"MultiPolygon","coordinates":[[[[-3.5087,56.05928],[-3.50869,56.05929],[-3.50867,56.0593],[-3.50865,56.0593],[-3.50863,56.05931],[-3.50861,56.0593],[-3.5086,56.05929],[-3.50859,56.05929],[-3.50858,56.05928],[-3.50858,56.05926],[-3.50859,56.05925],[-3.5086,56.05925],[-3.50862,56.05924],[-3.50864,56.05924],[-3.50865,56.05924],[-3.50867,56.05924],[-3.50869,56.05925],[-3.5087,56.05926],[-3.5087,56.05927],[-3.5087,56.05928]]]]}},
{ "type":"Feature","properties":{"osm_way_id":"540082692","building":"warehouse"},"geometry":{"type":"MultiPolygon","coordinates":[[[[-3.30704,56.12635],[-3.30661,56.12642],[-3.30668,56.12658],[-3.30712,56.12651],[-3.30704,56.12635]]]]}},
{ "type":"Feature","properties":{"osm_way_id":"584711839","building":"warehouse"},"geometry":{"type":"MultiPolygon","coordinates":[[[[-3.19037,56.17895],[-3.1872,56.17888],[-3.18717,56.1793],[-3.18692,56.17929],[-3.18688,56.17983],[-3.18892,56.17988],[-3.18895,56.17936],[-3.19034,56.17939],[-3.19037,56.17895]]]]}},
{ "type":"Feature","properties":{"osm_way_id":"627277422","building":"warehouse"},"geometry":{"type":"MultiPolygon","coordinates":[[[[-3.37809,56.05447],[-3.37814,56.05434],[-3.37793,56.05431],[-3.37787,56.05445],[-3.37809,56.05447]]]]}},
{ "type":"Feature","properties":{"osm_way_id":"633525003","name":"Furniture Plus","building":"warehouse","shop":"furniture","other":{"addr:city":"Kirkcaldy","addr:housenumber":"7-21","addr:postcode":"KY1 2XX","addr:street":"Alexander Street","phone":"+44 1592 654546","second_hand":"only","website":"https:\/\/furnitureplus.org.uk\/"}}, "geometry":{"type":"MultiPolygon","coordinates":[[[[-3.12381,56.12957],[-3.12296,56.12927],[-3.12329,56.12898],[-3.12414,56.12929],[-3.12381,56.12957]]]]}},
{ "type":"Feature","properties":{"osm_way_id":"673728240","building":"warehouse"},"geometry":{"type":"MultiPolygon","coordinates":[[[[-3.01224,56.20054],[-3.01173,56.20077],[-3.01154,56.20064],[-3.01205,56.20041],[-3.01224,56.20054]]]]}},
{ "type":"Feature","properties":{"osm_way_id":"803839721","building":"warehouse"},"geometry":{"type":"MultiPolygon","coordinates":[[[[-3.15624,56.19722],[-3.15609,56.19763],[-3.15592,56.19761],[-3.15607,56.1972],[-3.15624,56.19722]]]]}},
{ "type":"Feature","properties":{"osm_way_id":"803839722","building":"warehouse"},"geometry":{"type":"MultiPolygon","coordinates":[[[[-3.15575,56.1972],[-3.15562,56.19758],[-3.15544,56.19756],[-3.15557,56.19718],[-3.15575,56.1972]]]]}},
{ "type":"Feature","properties":{"osm_way_id":"850253814","building":"warehouse","other":{"building:levels":"1","roof:shape":"gabled"}}, "geometry":{"type":"MultiPolygon","coordinates":[[[[-2.72858,56.21226],[-2.72824,56.21256],[-2.72806,56.2125],[-2.7284,56.2122],[-2.72844,56.21221],[-2.72858,56.21226]]]]}},
{ "type":"Feature","properties":{"osm_way_id":"915647889","building":"warehouse"},"geometry":{"type":"MultiPolygon","coordinates":[[[[-3.2219,56.15478],[-3.22175,56.15449],[-3.22094,56.15462],[-3.22106,56.15483],[-3.22111,56.15482],[-3.22116,56.1549],[-3.2219,56.15478]]]]}},
{ "type":"Feature","properties":{"osm_way_id":"958812943","building":"warehouse","other":{"addr:housenumber":"12-14"}}, "geometry":{"type":"MultiPolygon","coordinates":[[[[-3.16101,56.19868],[-3.16113,56.19824],[-3.16094,56.19822],[-3.16082,56.19867],[-3.16101,56.19868]]]]}},
{ "type":"Feature","properties":{"osm_way_id":"958812944","building":"warehouse","other":{"addr:housenumber":"18-20"}}, "geometry":{"type":"MultiPolygon","coordinates":[[[[-3.16048,56.19864],[-3.1606,56.1982],[-3.16041,56.19818],[-3.16029,56.19863],[-3.16048,56.19864]]]]}},
{ "type":"Feature","properties":{"osm_way_id":"958812945","building":"warehouse","other":{"addr:housenumber":"15-17"}}, "geometry":{"type":"MultiPolygon","coordinates":[[[[-3.16094,56.19892],[-3.16097,56.19882],[-3.16024,56.19876],[-3.16021,56.19887],[-3.16094,56.19892]]]]}},
{ "type":"Feature","properties":{"osm_way_id":"975715351","building":"warehouse"},"geometry":{"type":"MultiPolygon","coordinates":[[[[-3.21623,56.20382],[-3.21613,56.20368],[-3.2159,56.20374],[-3.216,56.20387],[-3.21623,56.20382]]]]}},
{ "type":"Feature","properties":{"osm_way_id":"975715352","building":"warehouse"},"geometry":{"type":"MultiPolygon","coordinates":[[[[-3.216,56.20387],[-3.21533,56.20403],[-3.21521,56.20387],[-3.21588,56.20371],[-3.2159,56.20374],[-3.216,56.20387]]]]}},
{ "type":"Feature","properties":{"osm_way_id":"975715353","building":"warehouse"},"geometry":{"type":"MultiPolygon","coordinates":[[[[-3.21533,56.20403],[-3.21497,56.20412],[-3.21476,56.20385],[-3.21512,56.20376],[-3.21521,56.20387],[-3.21533,56.20403]]]]}},
{ "type":"Feature","properties":{"osm_way_id":"987434241","building":"warehouse"},"geometry":{"type":"MultiPolygon","coordinates":[[[[-2.98577,56.32626],[-2.98534,56.32596],[-2.98419,56.32646],[-2.98441,56.32661],[-2.98448,56.32657],[-2.98464,56.32669],[-2.98498,56.32661],[-2.98577,56.32626]]]]}},
{ "type":"Feature","properties":{"osm_way_id":"1039919911","building":"warehouse"},"geometry":{"type":"MultiPolygon","coordinates":[[[[-3.067,56.30603],[-3.0665,56.30526],[-3.06697,56.30517],[-3.06748,56.30594],[-3.067,56.30603]]]]}},
{ "type":"Feature","properties":{"osm_way_id":"1039919912","building":"warehouse"},"geometry":{"type":"MultiPolygon","coordinates":[[[[-3.06632,56.30526],[-3.06619,56.30506],[-3.0651,56.30529],[-3.06524,56.30549],[-3.06502,56.30554],[-3.065,56.3055],[-3.06487,56.30553],[-3.06486,56.30552],[-3.06478,56.30553],[-3.06481,56.30558],[-3.0647,56.3056],[-3.06473,56.30565],[-3.06484,56.30562],[-3.06499,56.30585],[-3.06507,56.30584],[-3.06512,56.30592],[-3.0655,56.30584],[-3.06545,56.30575],[-3.06557,56.30573],[-3.0656,56.30578],[-3.06572,56.30575],[-3.06559,56.30555],[-3.06587,56.3055],[-3.06584,56.30545],[-3.06598,56.30542],[-3.06595,56.30538],[-3.06589,56.30539],[-3.06587,56.30536],[-3.06632,56.30526]]]]}}
]
}
