{
"type": "FeatureCollection",
"features": [
{ "type":"Feature","properties":{"osm_way_id":"95396426","name":"Vacant","building":"warehouse","other":{"addr:city":"Weston-Super-Mare","addr:country":"GB","addr:county":"Somerset","addr:parentstreet":"Marchfields Way","addr:postcode":"BS23 3YY","addr:street":"Gallegher Retail Park","addr:unit":"1C"}}, "geometry":{"type":"MultiPolygon","coordinates":[[[[-2.96079,51.33819],[-2.96082,51.33771],[-2.9612,51.33773],[-2.96115,51.33821],[-2.961,51.3382],[-2.961,51.33824],[-2.96081,51.33823],[-2.96082,51.33819],[-2.96079,51.33819]]]]}},
{ "type":"Feature","properties":{"osm_way_id":"95640393","name":"Booker Wholesale","building":"warehouse"},"geometry":{"type":"MultiPolygon","coordinates":[[[[-2.95873,51.34252],[-2.95812,51.34264],[-2.95789,51.34212],[-2.95849,51.34202],[-2.95873,51.34252]]]]}},
{ "type":"Feature","properties":{"osm_way_id":"95658710","name":"Vacant","building":"warehouse","other":{"addr:city":"Weston-Super-Mare","addr:country":"GB","addr:county":"Somerset","addr:parentstreet":"Marchfields Way","addr:postcode":"BS23 3YY","addr:street":"Gallegher Retail Park","addr:unit":"3C"}}, "geometry":{"type":"MultiPolygon","coordinates":[[[[-2.96305,51.33829],[-2.96284,51.33828],[-2.96286,51.33808],[-2.96287,51.33798],[-2.96309,51.33799],[-2.96307,51.33816],[-2.96305,51.33829]]]]}},
{ "type":"Feature","properties":{"osm_way_id":"95658721","name":"Vacant","building":"warehouse","other":{"addr:city":"Weston-Super-Mare","addr:country":"GB","addr:county":"Somerset","addr:parentstreet":"Marchfields Way","addr:postcode":"BS23 3YY","addr:street":"Gallegher Retail Park","addr:unit":"1B"}}, "geometry":{"type":"MultiPolygon","coordinates":[[[[-2.96045,51.33769],[-2.96082,51.33771],[-2.96079,51.33819],[-2.96062,51.33819],[-2.96062,51.33823],[-2.96043,51.33822],[-2.96043,51.33818],[-2.9604,51.33817],[-2.96045,51.33769]]]]}},
{ "type":"Feature","properties":{"osm_way_id":"185524603","building":"warehouse"},"geometry":{"type":"MultiPolygon","coordinates":[[[[-2.71204,51.49116],[-2.71153,51.49084],[-2.71109,51.4911],[-2.71104,51.49112],[-2.70963,51.49192],[-2.71012,51.49223],[-2.71082,51.49184],[-2.71086,51.49182],[-2.71204,51.49116]]]]}},
{ "type":"Feature","properties":{"osm_way_id":"212030917","name":"Coombe Garage Tyres","building":"warehouse","shop":"car_repair"},"geometry":{"type":"MultiPolygon","coordinates":[[[[-2.75316,51.43744],[-2.75244,51.43753],[-2.75238,51.43737],[-2.75311,51.43727],[-2.75316,51.43744]]]]}},
{ "type":"Feature","properties":{"osm_way_id":"212030919","name":"Mike Taylor","building":"warehouse","shop":"machinery","other":{"building:levels":"2"}}, "geometry":{"type":"MultiPolygon","coordinates":[[[[-2.75327,51.43774],[-2.75302,51.43777],[-2.75294,51.43754],[-2.7532,51.43751],[-2.75327,51.43774]]]]}},
{ "type":"Feature","properties":{"osm_way_id":"212030925","name":"Nailsea Motor Services","building":"warehouse","shop":"car_repair","other":{"addr:city":"Bristol","addr:postcode":"BS48 1JE","building:levels":"2"}}, "geometry":{"type":"MultiPolygon","coordinates":[[[[-2.75212,51.43823],[-2.75218,51.43839],[-2.75165,51.43846],[-2.7516,51.4383],[-2.75212,51.43823]]]]}},
{ "type":"Feature","properties":{"osm_way_id":"212030926","name":"Graham Tyson","building":"warehouse","man_made":"works","other":{"addr:city":"Bristol","addr:postcode":"BS48 1JJ","building:levels":"2","product":"packaging"}}, "geometry":{"type":"MultiPolygon","coordinates":[[[[-2.75343,51.4383],[-2.75322,51.43832],[-2.75301,51.43835],[-2.75293,51.43812],[-2.75314,51.43809],[-2.75336,51.43807],[-2.75343,51.4383]]]]}},
{ "type":"Feature","properties":{"osm_way_id":"311850047","building":"warehouse"},"geometry":{"type":"MultiPolygon","coordinates":[[[[-2.72777,51.49285],[-2.72309,51.49414],[-2.72246,51.49326],[-2.72396,51.49285],[-2.72401,51.49291],[-2.72496,51.49265],[-2.72507,51.49262],[-2.72569,51.49245],[-2.72565,51.49239],[-2.72715,51.49197],[-2.72777,51.49285]]]]}},
{ "type":"Feature","properties":{"osm_way_id":"311850186","building":"warehouse"},"geometry":{"type":"MultiPolygon","coordinates":[[[[-2.72907,51.4947],[-2.72845,51.49384],[-2.72542,51.49467],[-2.72378,51.49512],[-2.7244,51.49599],[-2.72451,51.49596],[-2.72524,51.497],[-2.72548,51.49694],[-2.72552,51.49699],[-2.72569,51.49695],[-2.72565,51.49689],[-2.72663,51.49662],[-2.72653,51.49647],[-2.72658,51.49646],[-2.72652,51.49637],[-2.72647,51.49639],[-2.7259,51.49558],[-2.72603,51.49554],[-2.72907,51.4947]]]]}},
{ "type":"Feature","properties":{"osm_way_id":"654819078","name":"Doorstrip","building":"warehouse","man_made":"works","other":{"addr:unit":"21"}}, "geometry":{"type":"MultiPolygon","coordinates":[[[[-2.75282,51.43863],[-2.75265,51.43865],[-2.75259,51.43845],[-2.75276,51.43843],[-2.75282,51.43863]]]]}},
{ "type":"Feature","properties":{"osm_way_id":"654819079","name":"psd Programmable Systems Design","building":"warehouse","other":{"addr:unit":"22"}}, "geometry":{"type":"MultiPolygon","coordinates":[[[[-2.75299,51.43861],[-2.75282,51.43863],[-2.75276,51.43843],[-2.75293,51.43841],[-2.75299,51.43861]]]]}},
{ "type":"Feature","properties":{"osm_way_id":"654819080","building":"warehouse","other":{"addr:unit":"23"}}, "geometry":{"type":"MultiPolygon","coordinates":[[[[-2.75316,51.43858],[-2.75299,51.43861],[-2.75293,51.43841],[-2.7531,51.43839],[-2.75316,51.43858]]]]}},
{ "type":"Feature","properties":{"osm_way_id":"654819081","building":"warehouse","other":{"addr:unit":"24"}}, "geometry":{"type":"MultiPolygon","coordinates":[[[[-2.75334,51.43856],[-2.75316,51.43858],[-2.7531,51.43839],[-2.75327,51.43836],[-2.75334,51.43856]]]]}},
{ "type":"Feature","properties":{"osm_way_id":"654819082","building":"warehouse","other":{"addr:unit":"25"}}, "geometry":{"type":"MultiPolygon","coordinates":[[[[-2.75351,51.43854],[-2.75334,51.43856],[-2.75327,51.43836],[-2.75344,51.43834],[-2.75351,51.43854]]]]}},
{ "type":"Feature","properties":{"osm_way_id":"654819096","name":"Travis Perkins","building":"warehouse","shop":"doityourself","other":{"addr:city":"Bristol","addr:postcode":"BS48 1JE","brand":"Travis Perkins","brand:wikidata":"Q2450664","brand:wikipedia":"en:Travis Perkins","building:levels":"2"}}, "geometry":{"type":"MultiPolygon","coordinates":[[[[-2.75218,51.43839],[-2.75223,51.43856],[-2.75171,51.43863],[-2.75165,51.43846],[-2.75218,51.43839]]]]}},
{ "type":"Feature","properties":{"osm_way_id":"654819097","name":"Lindee Lu","building":"warehouse","man_made":"works","other":{"building:levels":"2"}}, "geometry":{"type":"MultiPolygon","coordinates":[[[[-2.75276,51.4378],[-2.7525,51.43784],[-2.75243,51.43761],[-2.75268,51.43757],[-2.75276,51.4378]]]]}},
{ "type":"Feature","properties":{"osm_way_id":"654819098","name":"Scuffs","building":"warehouse","shop":"car_repair","other":{"building:levels":"2"}}, "geometry":{"type":"MultiPolygon","coordinates":[[[[-2.75302,51.43777],[-2.75276,51.4378],[-2.75268,51.43757],[-2.75294,51.43754],[-2.75302,51.43777]]]]}},
{ "type":"Feature","properties":{"osm_way_id":"654819099","name":"Marcol Fabrications","building":"warehouse","man_made":"works","other":{"addr:city":"Bristol","addr:postcode":"BS48 1JJ","building:levels":"2","product":"plastic"}}, "geometry":{"type":"MultiPolygon","coordinates":[[[[-2.75279,51.43838],[-2.75258,51.43841],[-2.7525,51.43818],[-2.75272,51.43815],[-2.75279,51.43838]]]]}},
{ "type":"Feature","properties":{"osm_way_id":"654819100","name":"H Sweet","building":"warehouse","craft":"builder","other":{"addr:city":"Bristol","addr:postcode":"BS48 1JJ","building:levels":"2"}}, "geometry":{"type":"MultiPolygon","coordinates":[[[[-2.75301,51.43835],[-2.75279,51.43838],[-2.75272,51.43815],[-2.75293,51.43812],[-2.75301,51.43835]]]]}},
{ "type":"Feature","properties":{"osm_way_id":"682752345","building":"warehouse"},"geometry":{"type":"MultiPolygon","coordinates":[[[[-2.67124,51.42416],[-2.67113,51.424],[-2.6711,51.42397],[-2.67089,51.42403],[-2.67103,51.42421],[-2.67124,51.42416]]]]}},
{ "type":"Feature","properties":{"osm_way_id":"835794680","building":"warehouse"},"geometry":{"type":"MultiPolygon","coordinates":[[[[-2.82591,51.4403],[-2.82606,51.4404],[-2.82646,51.44018],[-2.82632,51.44008],[-2.82591,51.4403]]]]}}
]
}
