{
"type": "FeatureCollection",
"features": [
{ "type":"Feature","properties":{"osm_id":"433030812","man_made":"surveillance"},"geometry":{"type":"Point","coordinates":[-1.74174,52.47884 ]}},
{ "type":"Feature","properties":{"osm_id":"848715905","name":"The Co-operative Food","other":{"addr:city":"Solihull","addr:housenumber":"122","addr:postcode":"B90 2EH","addr:street":"Haslucks Green Road","fhrs:id":"524671","shop":"supermarket"}}, "geometry":{"type":"Point","coordinates":[-1.83526,52.41133 ]}},
{ "type":"Feature","properties":{"osm_id":"904318796","name":"Co-op Food","other":{"addr:city":"Solihull","addr:housenumber":"14","addr:postcode":"B90 4EH","addr:street":"Farmhouse Way","brand":"Co-op Food","brand:wikidata":"Q3277439","brand:wikipedia":"en:Co-op Food","fhrs:id":"523284","shop":"supermarket"}}, "geometry":{"type":"Point","coordinates":[-1.78601,52.39152 ]}},
{ "type":"Feature","properties":{"osm_id":"1551727447","man_made":"surveillance"},"geometry":{"type":"Point","coordinates":[-1.77747,52.41419 ]}},
{ "type":"Feature","properties":{"osm_id":"2633746999","man_made":"surveillance"},"geometry":{"type":"Point","coordinates":[-1.82951,52.41374 ]}},
{ "type":"Feature","properties":{"osm_id":"3319937913","name":"M&S Simply Food","other":{"brand":"M&S Simply Food","brand:wikidata":"Q714491","brand:wikipedia":"en:Marks & Spencer","level":"0","shop":"supermarket"}}, "geometry":{"type":"Point","coordinates":[-1.73339,52.45193 ]}},
{ "type":"Feature","properties":{"osm_id":"3693972462","other":{"amenity":"clock","display":"analog","support":"wall_mounted","visibility":"area"}}, "geometry":{"type":"Point","coordinates":[-1.75287,52.37351 ]}},
{ "type":"Feature","properties":{"osm_id":"3812387247","name":"Michael's Food Market","other":{"shop":"supermarket"}}, "geometry":{"type":"Point","coordinates":[-1.78481,52.44483 ]}},
{ "type":"Feature","properties":{"osm_id":"4294669950","other":{"tourism":"artwork"}}, "geometry":{"type":"Point","coordinates":[-1.78216,52.41325 ]}},
{ "type":"Feature","properties":{"osm_id":"5539287574","name":"Co-op Food","other":{"brand":"Co-op Food","brand:wikidata":"Q3277439","brand:wikipedia":"en:Co-op Food","shop":"supermarket"}}, "geometry":{"type":"Point","coordinates":[-1.7501,52.49426 ]}},
{ "type":"Feature","properties":{"osm_id":"6345292505","other":{"emergency":"defibrillator"}}, "geometry":{"type":"Point","coordinates":[-1.78537,52.39159 ]}},
{ "type":"Feature","properties":{"osm_id":"6555773124","name":"Heron Foods","other":{"addr:city":"Birmingham","addr:country":"GB","addr:housenumber":"11","addr:postcode":"B37 5TS","addr:street":"Maple Walk","addr:suburb":"Chelmsley Wood","addr:unit":"58-60","brand":"Heron Foods","brand:wikidata":"Q5743472","brand:wikipedia":"en:Heron Foods","fhrs:id":"1065648","shop":"supermarket","website":"https:\/\/heronfoods.com\/store\/chelmsley-wood\/"}}, "geometry":{"type":"Point","coordinates":[-1.73932,52.48011 ]}},
{ "type":"Feature","properties":{"osm_id":"7321960140","name":"Lidl","other":{"addr:country":"GB","addr:housename":"Sears Retail Park","addr:postcode":"B90 4QY","addr:street":"Oakenshaw Road","addr:unit":"6B","brand":"Lidl","brand:wikidata":"Q151954","brand:wikipedia":"en:Lidl","fhrs:id":"1225279","shop":"supermarket"}}, "geometry":{"type":"Point","coordinates":[-1.81727,52.40164 ]}},
{ "type":"Feature","properties":{"osm_id":"8146455290","other":{"emergency":"defibrillator"}}, "geometry":{"type":"Point","coordinates":[-1.81036,52.40308 ]}},
{ "type":"Feature","properties":{"osm_way_id":"27694602","name":"Tesco Extra","building":"yes","shop":"supermarket","other":{"addr:city":"St Leonards-on-sea","addr:county":"East Sussex","addr:postcode":"TN38 9RB","addr:street":"Church Wood Drive","brand":"Tesco Extra","brand:wikidata":"Q25172225","brand:wikipedia":"en:Tesco Extra","fhrs:id":"176962","source:addr":"FHRS Open Data","wheelchair":"yes"}}, "geometry":{"type":"MultiPolygon","coordinates":[[[[0.53575,50.87694],[0.53687,50.87693],[0.53687,50.87704],[0.53717,50.87704],[0.5373,50.87704],[0.53729,50.8778],[0.53727,50.87797],[0.53717,50.87797],[0.53717,50.87789],[0.53682,50.87789],[0.53682,50.87781],[0.53663,50.87781],[0.53664,50.87799],[0.53615,50.87799],[0.53615,50.87792],[0.53601,50.87792],[0.53602,50.87781],[0.53559,50.87781],[0.53557,50.87704],[0.53574,50.87704],[0.53575,50.87694]]]]}},
{ "type":"Feature","properties":{"osm_way_id":"50070336","name":"Morrisons","building":"retail","shop":"supermarket","other":{"addr:city":"Solihull","addr:postcode":"B91 3BQ","addr:street":"George Road","brand":"Morrisons","brand:wikidata":"Q922344","brand:wikipedia":"en:Morrisons"}}, "geometry":{"type":"MultiPolygon","coordinates":[[[[-1.77392,52.41341],[-1.77389,52.41344],[-1.77376,52.41338],[-1.77379,52.41336],[-1.77332,52.41317],[-1.77335,52.41314],[-1.77321,52.41308],[-1.77373,52.41264],[-1.77385,52.41262],[-1.7745,52.4129],[-1.77447,52.41293],[-1.77462,52.41299],[-1.77452,52.41308],[-1.7744,52.41318],[-1.77432,52.41315],[-1.77428,52.41318],[-1.77432,52.4132],[-1.77416,52.41334],[-1.77402,52.41346],[-1.77392,52.41341]]]]}},
{ "type":"Feature","properties":{"osm_way_id":"55093338","name":"Sainsbury's","building":"retail","shop":"supermarket","other":{"addr:city":"Solihull","addr:housenumber":"545","addr:postcode":"B90 4AJ","addr:street":"Stratford Road","alt_name":"Sainsbury's Marshall Lake Superstore","brand":"Sainsbury's","brand:wikidata":"Q152096","brand:wikipedia":"en:Sainsbury's","fhrs:id":"524459","toilets:wheelchair":"yes","wheelchair":"yes"}}, "geometry":{"type":"MultiPolygon","coordinates":[[[[-1.81857,52.4023],[-1.81839,52.40221],[-1.81866,52.40201],[-1.81827,52.40181],[-1.81917,52.40115],[-1.81983,52.40148],[-1.81986,52.40146],[-1.82011,52.40159],[-1.82008,52.4016],[-1.8204,52.40177],[-1.82029,52.40185],[-1.82026,52.40184],[-1.82012,52.40194],[-1.82001,52.40189],[-1.81989,52.40198],[-1.81976,52.40191],[-1.81954,52.40207],[-1.81938,52.40219],[-1.81932,52.40216],[-1.81916,52.40227],[-1.81906,52.40221],[-1.8188,52.4024],[-1.81862,52.40231],[-1.81889,52.40212],[-1.81883,52.4021],[-1.81857,52.4023]]]]}},
{ "type":"Feature","properties":{"osm_way_id":"55351458","name":"Tesco Extra","building":"retail","shop":"supermarket","other":{"addr:city":"Solihull","addr:housename":"Tesco Extra","addr:housenumber":"1505","addr:postcode":"B90 4EN","addr:street":"Stratford Road","alt_name":"Tesco Solihull Extra","brand":"Tesco Extra","brand:wikidata":"Q25172225","brand:wikipedia":"en:Tesco Extra","fhrs:id":"524519"}}, "geometry":{"type":"MultiPolygon","coordinates":[[[[-1.78958,52.38497],[-1.78854,52.38495],[-1.78855,52.38487],[-1.7888,52.38487],[-1.78898,52.38475],[-1.78876,52.38463],[-1.78855,52.38476],[-1.7885,52.38474],[-1.78841,52.38474],[-1.78829,52.38469],[-1.78846,52.38457],[-1.78829,52.38448],[-1.78818,52.38448],[-1.78818,52.38441],[-1.78835,52.38441],[-1.78841,52.38444],[-1.78875,52.38421],[-1.78878,52.38423],[-1.78911,52.384],[-1.78919,52.38394],[-1.78958,52.38415],[-1.78952,52.38419],[-1.79011,52.38449],[-1.78991,52.38462],[-1.79003,52.38469],[-1.78958,52.38497]]]]}},
{ "type":"Feature","properties":{"osm_way_id":"58781835","name":"ALDI","building":"yes","shop":"supermarket","other":{"addr:city":"Shirley","addr:housenumber":"240","addr:postcode":"B90 3AE","addr:street":"Stratford Rd","alt_name":"ALDI Shirley","brand":"ALDI","brand:wikidata":"Q41171672","brand:wikipedia":"en:Aldi","operator":"Aldi SÃ¼d","wheelchair":"yes"}}, "geometry":{"type":"MultiPolygon","coordinates":[[[[-1.82743,52.4104],[-1.8275,52.41039],[-1.82754,52.41046],[-1.82749,52.41053],[-1.8267,52.41071],[-1.8265,52.41031],[-1.82684,52.41025],[-1.82689,52.41035],[-1.82711,52.41031],[-1.82714,52.4103],[-1.82716,52.4103],[-1.82735,52.41026],[-1.82743,52.4104]]]]}},
{ "type":"Feature","properties":{"osm_way_id":"64440274","name":"Tesco","building":"retail","shop":"supermarket","other":{"addr:city":"Solihull","addr:postcode":"B90 3LU","addr:street":"Stratford Road","brand":"Tesco","brand:wikidata":"Q487494","brand:wikipedia":"en:Tesco","opening_hours":"24\/7"}}, "geometry":{"type":"MultiPolygon","coordinates":[[[[-1.83154,52.41942],[-1.83167,52.41942],[-1.83168,52.4194],[-1.83177,52.4194],[-1.83177,52.41953],[-1.83177,52.41964],[-1.83145,52.41964],[-1.83144,52.41966],[-1.83107,52.41966],[-1.83051,52.41965],[-1.83052,52.41923],[-1.83085,52.41923],[-1.83085,52.41922],[-1.83122,52.41922],[-1.83122,52.41926],[-1.83147,52.41926],[-1.83147,52.41942],[-1.83154,52.41942]]]]}},
{ "type":"Feature","properties":{"osm_way_id":"76742199","name":"Select & Save","building":"yes","shop":"supermarket","other":{"addr:city":"Solihull","addr:housenumber":"96","addr:postcode":"B90 2RX","addr:street":"Stretton Road","fhrs:id":"965525"}}, "geometry":{"type":"MultiPolygon","coordinates":[[[[-1.83043,52.39788],[-1.8301,52.39779],[-1.83023,52.39761],[-1.83048,52.39768],[-1.83043,52.39776],[-1.8305,52.39778],[-1.83043,52.39788]]]]}},
{ "type":"Feature","properties":{"osm_way_id":"76760814","name":"Co-operative","shop":"supermarket","other":{"addr:city":"Solihull","addr:housenumber":"4","addr:postcode":"B90 4EH","addr:street":"Farmhouse Way","fhrs:id":"524611"}}, "geometry":{"type":"MultiPolygon","coordinates":[[[[-1.78535,52.39175],[-1.78564,52.39176],[-1.78566,52.39157],[-1.78537,52.39155],[-1.78537,52.39159],[-1.78535,52.39175]]]]}},
{ "type":"Feature","properties":{"osm_way_id":"101211748","name":"Morrisons","building":"yes","shop":"supermarket","other":{"brand":"Morrisons","brand:wikidata":"Q922344","brand:wikipedia":"en:Morrisons"}}, "geometry":{"type":"MultiPolygon","coordinates":[[[[-1.76345,52.50059],[-1.76253,52.50049],[-1.76232,52.50047],[-1.76236,52.50036],[-1.76248,52.49991],[-1.76252,52.49977],[-1.7635,52.49987],[-1.76347,52.49997],[-1.76344,52.50008],[-1.76355,52.50009],[-1.76344,52.50047],[-1.76348,52.50048],[-1.76345,52.50059]]]]}},
{ "type":"Feature","properties":{"osm_way_id":"101211753","name":"ALDI","building":"retail","shop":"supermarket","other":{"brand":"ALDI","brand:wikidata":"Q41171672","brand:wikipedia":"en:Aldi"}}, "geometry":{"type":"MultiPolygon","coordinates":[[[[-1.76188,52.50001],[-1.76225,52.50002],[-1.76224,52.50008],[-1.76216,52.50008],[-1.76213,52.50059],[-1.76184,52.50058],[-1.76188,52.50001]]]]}},
{ "type":"Feature","properties":{"osm_way_id":"117064123","name":"Sainsbury's Local","building":"retail","shop":"supermarket","other":{"addr:city":"Solihull","addr:postcode":"B90 2NG","addr:street":"Haslucks Green Road","brand":"Sainsbury's Local","brand:wikidata":"Q13218434","brand:wikipedia":"en:Sainsbury's Local"}}, "geometry":{"type":"MultiPolygon","coordinates":[[[[-1.84339,52.40458],[-1.84306,52.40449],[-1.84302,52.40454],[-1.84279,52.40448],[-1.84287,52.40435],[-1.84344,52.40449],[-1.84339,52.40458]]]]}},
{ "type":"Feature","properties":{"osm_way_id":"120908661","name":"Co-op Food","building":"yes","shop":"supermarket","other":{"brand":"Co-op Food","brand:wikidata":"Q3277439","brand:wikipedia":"en:Co-op Food","wheelchair":"yes"}}, "geometry":{"type":"MultiPolygon","coordinates":[[[[-1.81051,52.40312],[-1.81039,52.40314],[-1.81036,52.40308],[-1.81033,52.40299],[-1.8105,52.40291],[-1.8106,52.403],[-1.81055,52.40302],[-1.81048,52.40303],[-1.81051,52.40312]]]]}},
{ "type":"Feature","properties":{"osm_way_id":"125500039","name":"Tesco Metro","building":"retail","shop":"supermarket","other":{"brand":"Tesco Metro","brand:wikidata":"Q57551648","toilets:wheelchair":"no","wheelchair":"yes"}}, "geometry":{"type":"MultiPolygon","coordinates":[[[[-1.73624,52.38911],[-1.73636,52.38935],[-1.73653,52.38932],[-1.7368,52.38927],[-1.7368,52.38925],[-1.73689,52.38925],[-1.7369,52.38919],[-1.73682,52.38918],[-1.7368,52.38907],[-1.73669,52.38909],[-1.73647,52.38913],[-1.73645,52.38907],[-1.73624,52.38911]]]]}},
{ "type":"Feature","properties":{"osm_way_id":"141756878","name":"Sainsbury's","shop":"supermarket","other":{"addr:city":"Solihull","addr:postcode":"B91 3BX","addr:street":"Poplar Way","brand":"Sainsbury's","brand:wikidata":"Q152096","brand:wikipedia":"en:Sainsbury's"}}, "geometry":{"type":"MultiPolygon","coordinates":[[[[-1.77856,52.414],[-1.77829,52.41442],[-1.77747,52.41419],[-1.77762,52.41396],[-1.77779,52.41378],[-1.77786,52.41366],[-1.77856,52.414]]]]}},
{ "type":"Feature","properties":{"osm_way_id":"188594495","name":"Spar","building":"retail","shop":"supermarket","other":{"brand":"Spar","brand:wikidata":"Q610492","brand:wikipedia":"en:Spar (retailer)"}}, "geometry":{"type":"MultiPolygon","coordinates":[[[[-1.77782,52.50868],[-1.77753,52.50875],[-1.77746,52.50865],[-1.77769,52.50859],[-1.77775,52.50858],[-1.77782,52.50868]]]]}},
{ "type":"Feature","properties":{"osm_way_id":"193543996","name":"Malcolms","building":"pub","shop":"supermarket"},"geometry":{"type":"MultiPolygon","coordinates":[[[[-1.75364,52.47978],[-1.75335,52.47977],[-1.75335,52.47959],[-1.75359,52.47959],[-1.75359,52.47965],[-1.75364,52.47965],[-1.75364,52.47978]]]]}},
{ "type":"Feature","properties":{"osm_way_id":"223580882","name":"Co-op Food","building":"yes","shop":"supermarket","other":{"addr:city":"Meriden","addr:postcode":"CV7 7LN","addr:street":"The Green","brand":"Co-op Food","brand:wikidata":"Q3277439","brand:wikipedia":"en:Co-op Food","fhrs:id":"524331","operator":"Heart of England Co-operative Society"}}, "geometry":{"type":"MultiPolygon","coordinates":[[[[-1.64863,52.43765],[-1.64849,52.43774],[-1.64846,52.43776],[-1.64839,52.43772],[-1.64854,52.43762],[-1.64856,52.43761],[-1.64863,52.43765]]]]}},
{ "type":"Feature","properties":{"osm_way_id":"224450635","name":"Co-op Food","building":"yes","shop":"supermarket","other":{"addr:city":"Balsall Common","addr:housenumber":"343","addr:postcode":"CV7 7DL","addr:street":"Kenilworth Road","brand":"Co-op Food","brand:wikidata":"Q3277439","brand:wikipedia":"en:Co-op Food","fhrs:id":"524585","operator":"The Co-operative Group","operator:wikidata":"Q117202","operator:wikipedia":"en:The Co-operative Group"}}, "geometry":{"type":"MultiPolygon","coordinates":[[[[-1.64913,52.39126],[-1.64905,52.39115],[-1.64909,52.39113],[-1.64906,52.39108],[-1.6491,52.39104],[-1.64915,52.39103],[-1.64942,52.39096],[-1.64947,52.391],[-1.64951,52.39099],[-1.64965,52.39119],[-1.64921,52.3913],[-1.64917,52.39125],[-1.64913,52.39126]]]]}},
{ "type":"Feature","properties":{"osm_way_id":"257931195","name":"Asda","building":"retail","shop":"supermarket","other":{"addr:city":"Solihull","addr:country":"GB","addr:housename":"Parkgate","addr:postcode":"B90 3GG","addr:street":"Stratford Road","alt_name":"ASDA Shirley Superstore","brand":"Asda","brand:wikidata":"Q297410","brand:wikipedia":"en:Asda","contact:facebook":"https:\/\/www.facebook.com\/asda\/","contact:twitter":"@asda","contact:website":"https:\/\/storelocator.asda.com\/west-midlands\/solihull\/parkgate-stratford-road-shirley","fhrs:id":"668870","operator":"Asda Stores Ltd","wheelchair":"yes"}}, "geometry":{"type":"MultiPolygon","coordinates":[[[[-1.82969,52.41268],[-1.82912,52.41277],[-1.82951,52.41374],[-1.82959,52.41372],[-1.8297,52.4137],[-1.82966,52.41361],[-1.83008,52.41355],[-1.83011,52.41351],[-1.83016,52.41352],[-1.83024,52.41344],[-1.83021,52.41343],[-1.83038,52.41325],[-1.83027,52.41295],[-1.83005,52.41298],[-1.82999,52.41279],[-1.82974,52.41282],[-1.82969,52.41268]]]]}},
{ "type":"Feature","properties":{"osm_way_id":"327000706","name":"Tesco Extra","building":"yes","shop":"supermarket","other":{"addr:city":"Widnes","addr:housename":"Ashley Retail Park","addr:postcode":"WA8 7YT","addr:street":"Lugsdale Road","brand":"Tesco Extra","brand:wikidata":"Q25172225","brand:wikipedia":"en:Tesco Extra","operator":"Tesco"}}, "geometry":{"type":"MultiPolygon","coordinates":[[[[-2.72439,53.36473],[-2.72418,53.36466],[-2.72429,53.36454],[-2.72363,53.36432],[-2.72403,53.36383],[-2.72413,53.36361],[-2.72432,53.36338],[-2.72454,53.36324],[-2.7255,53.36358],[-2.72439,53.36473]]]]}},
{ "type":"Feature","properties":{"osm_way_id":"333272905","name":"Sainsbury's","building":"retail","shop":"supermarket","other":{"addr:city":"Solihull","addr:housenumber":"375","addr:postcode":"B93 8FG","addr:street":"Station Road","addr:suburb":"Dorridge","brand":"Sainsbury's","brand:wikidata":"Q152096","brand:wikipedia":"en:Sainsbury's"}}, "geometry":{"type":"MultiPolygon","coordinates":[[[[-1.75288,52.37353],[-1.7528,52.37355],[-1.75259,52.37359],[-1.75236,52.37365],[-1.75233,52.37365],[-1.75223,52.37368],[-1.75234,52.37375],[-1.75232,52.37376],[-1.7523,52.37377],[-1.75227,52.37379],[-1.75238,52.37385],[-1.75229,52.3739],[-1.75218,52.37395],[-1.75212,52.37394],[-1.75206,52.37393],[-1.75203,52.37391],[-1.75189,52.37347],[-1.75183,52.3731],[-1.75211,52.37305],[-1.7525,52.37295],[-1.75261,52.37293],[-1.75281,52.37324],[-1.7529,52.37339],[-1.75298,52.37338],[-1.753,52.37338],[-1.75302,52.37339],[-1.75303,52.37342],[-1.75301,52.37344],[-1.75299,52.37346],[-1.75287,52.37349],[-1.75287,52.37351],[-1.75288,52.37353]]]]}},
{ "type":"Feature","properties":{"osm_way_id":"376829252","name":"M&S Foodhall","building":"retail","shop":"supermarket","other":{"addr:city":"Solihull","addr:place":"Solihull Sears Retail Park","addr:postcode":"B90 4QY","addr:street":"Oakenshaw Road","brand":"M&S Foodhall","brand:wikidata":"Q714491","brand:wikipedia":"en:Marks & Spencer"}}, "geometry":{"type":"MultiPolygon","coordinates":[[[[-1.81642,52.40067],[-1.8162,52.40057],[-1.8157,52.40099],[-1.81593,52.40109],[-1.81642,52.40067]]]]}},
{ "type":"Feature","properties":{"osm_way_id":"426824551","name":"Waitrose","building":"retail","shop":"supermarket","other":{"addr:city":"Solihull","addr:housenumber":"29","addr:postcode":"B91 3QG","addr:street":"Homer Road","brand":"Waitrose","brand:wikidata":"Q771734","brand:wikipedia":"en:Waitrose","official_name":"Waitrose & Partners","operator":"Waitrose & Partners"}}, "geometry":{"type":"MultiPolygon","coordinates":[[[[-1.78274,52.41365],[-1.7824,52.41354],[-1.78244,52.4135],[-1.78204,52.41338],[-1.78216,52.41325],[-1.78233,52.41308],[-1.78254,52.41293],[-1.78262,52.41291],[-1.78268,52.41292],[-1.7833,52.41324],[-1.78287,52.41356],[-1.78274,52.41365]]]]}},
{ "type":"Feature","properties":{"osm_way_id":"587243694","name":"Asda","building":"retail","shop":"supermarket","other":{"addr:city":"Fordbridge","addr:country":"GB","addr:housenumber":"341","addr:postcode":"B37 5EX","addr:street":"Bosworth Drive","brand":"Asda","brand:wikidata":"Q297410","brand:wikipedia":"en:Asda","contact:facebook":"https:\/\/www.facebook.com\/asda\/","contact:twitter":"@asda","contact:website":"https:\/\/storelocator.asda.com\/west-midlands\/solihull\/341-bosworth-drive","fhrs:id":"523240","operator":"Asda Stores Ltd"}}, "geometry":{"type":"MultiPolygon","coordinates":[[[[-1.74043,52.47925],[-1.74052,52.4791],[-1.7406,52.47898],[-1.74048,52.47895],[-1.74072,52.47859],[-1.74174,52.47884],[-1.74131,52.47946],[-1.74043,52.47925]]]]}},
{ "type":"Feature","properties":{"osm_way_id":"761175992","name":"ALDI","building":"retail","shop":"supermarket","other":{"brand":"ALDI","brand:wikidata":"Q41171672","brand:wikipedia":"en:Aldi"}}, "geometry":{"type":"MultiPolygon","coordinates":[[[[-1.78122,52.41298],[-1.78081,52.41274],[-1.78127,52.41245],[-1.78168,52.4127],[-1.78122,52.41298]]]]}},
{ "type":"Feature","properties":{"osm_way_id":"997719261","name":"Costcutter","building":"retail","shop":"supermarket","other":{"addr:city":"Solihull","addr:postcode":"B90 2NG","addr:street":"Haslucks Green Road","brand":"Costcutter","brand:wikidata":"Q5175072","brand:wikipedia":"en:Costcutter"}}, "geometry":{"type":"MultiPolygon","coordinates":[[[[-1.84309,52.40421],[-1.84318,52.4041],[-1.84352,52.40419],[-1.84348,52.40425],[-1.84358,52.40428],[-1.84354,52.40434],[-1.84309,52.40421]]]]}}
]
}
