{
"type": "FeatureCollection",
"features": [
{ "type":"Feature","properties":{"osm_id":"243633748","name":"Co-op","other":{"addr:city":"Cottenham","addr:housenumber":"273","addr:postcode":"CB24 8QP","addr:street":"High Street","fhrs:id":"596535","operator":"The Co-operative Group","shop":"supermarket"}}, "geometry":{"type":"Point","coordinates":[0.12636,52.28623 ]}},
{ "type":"Feature","properties":{"osm_id":"1619056266","name":"The Co-operative Food","other":{"addr:city":"Sawston","addr:housenumber":"28-31","addr:postcode":"CB22 3BG","addr:street":"High Street","brand":"Co-op Food","brand:wikidata":"Q3277439","brand:wikipedia":"en:Co-op Food","fhrs:id":"596656","operator":"Central England Co-operative","shop":"supermarket"}}, "geometry":{"type":"Point","coordinates":[0.16981,52.12336 ]}},
{ "type":"Feature","properties":{"osm_id":"3402729431","name":"The Co-operative Food","other":{"addr:housenumber":"93","addr:postcode":"CB24 3BT","addr:street":"High Street","addr:village":"Longstanton","fhrs:id":"1101270","operator":"The Co-operative Group","shop":"supermarket","website":"https:\/\/finder.coop.co.uk\/food\/store\/CB24-3BT\/93-high-street"}}, "geometry":{"type":"Point","coordinates":[0.04383,52.28386 ]}},
{ "type":"Feature","properties":{"osm_id":"3669036480","name":"The Co-operative Food","other":{"operator":"Central England Co-operative Society","shop":"supermarket"}}, "geometry":{"type":"Point","coordinates":[-0.0831,52.2171 ]}},
{ "type":"Feature","properties":{"osm_id":"4749665441","name":"Mary's Greengrocers","other":{"shop":"supermarket"}}, "geometry":{"type":"Point","coordinates":[0.16931,52.12357 ]}},
{ "type":"Feature","properties":{"osm_way_id":"3753306","name":"Tesco","building":"yes","landuse":"retail","shop":"supermarket","other":{"addr:city":"Cambridge","addr:postcode":"CB1 9BF","brand":"Tesco","brand:wikidata":"Q487494","brand:wikipedia":"en:Tesco","operator":"Tesco Stores Ltd","wheelchair":"yes"}}, "geometry":{"type":"MultiPolygon","coordinates":[[[[0.18865,52.1864],[0.18873,52.18718],[0.18778,52.18721],[0.18778,52.18724],[0.18742,52.18725],[0.18741,52.18718],[0.18734,52.18718],[0.18732,52.18698],[0.1874,52.18697],[0.18737,52.18665],[0.18742,52.18665],[0.1874,52.18644],[0.18865,52.1864]]]]}},
{ "type":"Feature","properties":{"osm_way_id":"4372288","name":"Tesco Extra","building":"supermarket","landuse":"retail","shop":"supermarket","other":{"addr:city":"Cambridge","addr:housenumber":"15-18","addr:postcode":"CB23 8EL","addr:street":"Viking Way","addr:suburb":"Bar Hill","brand":"Tesco Extra","brand:wikidata":"Q25172225","brand:wikipedia":"en:Tesco Extra","fhrs:id":"596222","operator":"Tesco Stores Ltd","source:addr":"FSA Food Hygiene Ratings Database","wheelchair":"yes"}}, "geometry":{"type":"MultiPolygon","coordinates":[[[[0.01713,52.25429],[0.0179,52.25391],[0.01911,52.25485],[0.01833,52.25523],[0.01793,52.25492],[0.01713,52.25429]]]]}},
{ "type":"Feature","properties":{"osm_way_id":"4937676","name":"Morrisons","building":"supermarket","shop":"supermarket","other":{"addr:city":"Cambridge","addr:country":"GB","addr:locality":"Great Cambourne","addr:postcode":"CB23 6EY","addr:street":"Broad Street","brand":"Morrisons","brand:wikidata":"Q922344","brand:wikipedia":"en:Morrisons","opening_hours":"Mo-Sa 06:00-22:00; Su 10:00-16:00"}}, "geometry":{"type":"MultiPolygon","coordinates":[[[[-0.06862,52.21878],[-0.06885,52.21871],[-0.06883,52.21866],[-0.06884,52.21866],[-0.06884,52.21866],[-0.0689,52.21865],[-0.0689,52.21866],[-0.06915,52.21863],[-0.06915,52.21863],[-0.06922,52.21862],[-0.06922,52.21863],[-0.06924,52.21862],[-0.06929,52.21868],[-0.06943,52.21864],[-0.06939,52.21859],[-0.06954,52.21854],[-0.06962,52.21863],[-0.06955,52.21866],[-0.07002,52.21922],[-0.07004,52.21922],[-0.0701,52.21928],[-0.06998,52.21932],[-0.06997,52.21932],[-0.06935,52.21952],[-0.06935,52.21951],[-0.06921,52.21937],[-0.06913,52.21939],[-0.06909,52.21933],[-0.06873,52.21892],[-0.06866,52.21894],[-0.06859,52.21885],[-0.06866,52.21882],[-0.06862,52.21878]]]]}},
{ "type":"Feature","properties":{"osm_way_id":"49062462","name":"Tesco","building":"retail","shop":"supermarket","other":{"addr:housename":"Cambridge Road Industrial Estate","addr:postcode":"CB24 6AY","addr:street":"Cambridge Road","alt_name":"Tesco Cambridge Milton Superstore","brand":"Tesco","brand:wikidata":"Q487494","brand:wikipedia":"en:Tesco","building:levels":"1","opening_hours":"Mo 06:00-24:00; Tu-Sa 00:00-24:00; Su 10:00-16:00","operator":"Tesco Stores Ltd","roof:levels":"0","source:opening_hours":"website","website":"https:\/\/www.tesco.com\/store-locator\/cambridge\/cambridge-road"}}, "geometry":{"type":"MultiPolygon","coordinates":[[[[0.1536,52.23965],[0.15388,52.2395],[0.15394,52.23955],[0.15414,52.23946],[0.15367,52.23909],[0.15376,52.23904],[0.15369,52.23898],[0.15372,52.23883],[0.15406,52.23867],[0.15408,52.23866],[0.15403,52.23862],[0.15415,52.23856],[0.15424,52.23863],[0.15435,52.23858],[0.15442,52.23863],[0.15449,52.23859],[0.15458,52.23866],[0.15453,52.23868],[0.15481,52.2389],[0.15474,52.23894],[0.15508,52.23921],[0.15443,52.23952],[0.15446,52.23954],[0.15397,52.23976],[0.15393,52.23973],[0.1538,52.23979],[0.1536,52.23965]]]]}},
{ "type":"Feature","properties":{"osm_way_id":"145779804","name":"The Co-op Willingham","building":"yes","shop":"supermarket","other":{"addr:city":"Cambridge","addr:housenumber":"4","addr:place":"Willingham","addr:postcode":"CB24 5ES","addr:street":"High Street","fhrs:id":"596414","opening_hours":"Mo-Su 07:00-22:00","operator":"Co-op Food","payment:cash":"yes","payment:credit_cards":"yes","payment:debit_cards":"yes"}}, "geometry":{"type":"MultiPolygon","coordinates":[[[[0.05742,52.31414],[0.05775,52.31409],[0.05783,52.31425],[0.05755,52.31427],[0.05733,52.31429],[0.05721,52.3143],[0.05719,52.31424],[0.05744,52.3142],[0.05742,52.31414]]]]}},
{ "type":"Feature","properties":{"osm_way_id":"148844698","name":"Co-op Food","building":"yes","shop":"supermarket","other":{"addr:postcode":"SG8 6DU","brand":"Co-op Food","brand:wikidata":"Q3277439","brand:wikipedia":"en:Co-op Food","opening_hours":"Mo-Su,PH 07:00-22:00"}}, "geometry":{"type":"MultiPolygon","coordinates":[[[[0.01619,52.08365],[0.01632,52.08355],[0.0161,52.08344],[0.01598,52.08354],[0.01619,52.08365]]]]}},
{ "type":"Feature","properties":{"osm_way_id":"158900357","name":"The Co-operative Food","building":"supermarket","shop":"supermarket","other":{"addr:housenumber":"120","addr:postcode":"CB3 0LW","addr:street":"Girton Road","operator":"The Co-operative Group","wheelchair":"limited"}}, "geometry":{"type":"MultiPolygon","coordinates":[[[[0.08619,52.23324],[0.08609,52.2331],[0.0862,52.23308],[0.08623,52.23312],[0.08629,52.2331],[0.08632,52.23313],[0.0865,52.23307],[0.08653,52.23311],[0.08619,52.23324]]]]}},
{ "type":"Feature","properties":{"osm_way_id":"199514908","name":"Nisa Local","building":"retail","shop":"supermarket","other":{"addr:city":"Cambridge","addr:country":"GB","addr:housenumber":"1","addr:postcode":"CB1 9GP","addr:street":"Capuchin Court","fhrs:id":"596688"}}, "geometry":{"type":"MultiPolygon","coordinates":[[[[0.18198,52.19337],[0.18184,52.19327],[0.18203,52.19316],[0.18218,52.19326],[0.18211,52.1933],[0.18213,52.19331],[0.18207,52.19334],[0.18205,52.19332],[0.18198,52.19337]]]]}},
{ "type":"Feature","properties":{"osm_way_id":"237312170","name":"The Co-operative Food","building":"yes","shop":"supermarket","other":{"addr:city":"Cambridge","addr:housenumber":"106","addr:postcode":"CB21 4JT","addr:street":"High Street","addr:village":"Linton","alt_name":"The Co-operative Food","fhrs:id":"596814","opening_hours":"Mo-Su 07:00-22:00"}}, "geometry":{"type":"MultiPolygon","coordinates":[[[[0.28261,52.09739],[0.28262,52.09759],[0.28278,52.09758],[0.28278,52.0975],[0.28277,52.09739],[0.28261,52.09739]]]]}},
{ "type":"Feature","properties":{"osm_way_id":"326053787","name":"Tesco Metro","shop":"supermarket","other":{"addr:city":"London","addr:housenumber":"158-164","addr:postcode":"EC2M 4LX","addr:street":"Bishopsgate","brand":"Tesco Metro","brand:wikidata":"Q57551648","fhrs:id":"293655","name:fa":"تسکو مترو","opening_hours":"Mo-Sa 00:00-24:00, Su 12:00-18:00","wheelchair":"yes"}}, "geometry":{"type":"MultiPolygon","coordinates":[[[[-0.07965,51.51698],[-0.07971,51.51701],[-0.0798,51.51705],[-0.08,51.51712],[-0.08005,51.51714],[-0.08014,51.51717],[-0.08023,51.5172],[-0.08024,51.51719],[-0.08042,51.51725],[-0.08052,51.51715],[-0.08057,51.5171],[-0.08042,51.51705],[-0.07982,51.51684],[-0.07978,51.51689],[-0.07973,51.51687],[-0.07965,51.51698]]]]}},
{ "type":"Feature","properties":{"osm_way_id":"374676651","name":"The Co-operative Food","building":"yes","shop":"supermarket","other":{"addr:city":"Gamlingay","addr:postcode":"SG19 3JH","addr:street":"Church Street","opening_hours":"Mo-Su 07:00-22:00","operator":"The Co-operative Group"}}, "geometry":{"type":"MultiPolygon","coordinates":[[[[-0.19119,52.15543],[-0.1912,52.15533],[-0.19107,52.15532],[-0.19106,52.15542],[-0.19119,52.15543]]]]}},
{ "type":"Feature","properties":{"osm_way_id":"513973681","name":"Costcutter","building":"yes","shop":"supermarket","other":{"addr:postcode":"CB23 3PD","addr:street":"St Neots Road","fhrs:id":"943314","source:addr":"FSA Food Hygiene Ratings Database"}}, "geometry":{"type":"MultiPolygon","coordinates":[[[[-0.10558,52.22852],[-0.10555,52.22836],[-0.10529,52.22838],[-0.10532,52.22853],[-0.10558,52.22852]]]]}}
]
}
