{
"type": "FeatureCollection",
"features": [
{ "type":"Feature","properties":{"osm_way_id":"117239500","name":"Fish Market","building":"warehouse"},"geometry":{"type":"MultiPolygon","coordinates":[[[[-0.61483,54.48883],[-0.61472,54.48919],[-0.61462,54.48918],[-0.61469,54.48883],[-0.61466,54.48847],[-0.61481,54.48847],[-0.61483,54.48883]]]]}},
{ "type":"Feature","properties":{"osm_way_id":"227893414","name":"Coastline Engineered Solutions","building":"warehouse","other":{"addr:postcode":"YO14 0AA","addr:street":"Clarence Drive"}}, "geometry":{"type":"MultiPolygon","coordinates":[[[[-0.29462,54.20929],[-0.29397,54.20954],[-0.29387,54.20945],[-0.29452,54.2092],[-0.29462,54.20929]]]]}},
{ "type":"Feature","properties":{"osm_way_id":"501693709","name":"TEF","building":"warehouse"},"geometry":{"type":"MultiPolygon","coordinates":[[[[-0.40652,54.23398],[-0.40657,54.23394],[-0.4063,54.23392],[-0.40636,54.23371],[-0.40659,54.23373],[-0.40661,54.23365],[-0.40705,54.23369],[-0.4074,54.23371],[-0.40801,54.23377],[-0.40792,54.23411],[-0.40652,54.23398]]]]}},
{ "type":"Feature","properties":{"osm_way_id":"664889485","name":"JT Atkinson","building":"warehouse"},"geometry":{"type":"MultiPolygon","coordinates":[[[[-0.41326,54.26431],[-0.41328,54.26409],[-0.41317,54.26408],[-0.41317,54.2641],[-0.41243,54.26407],[-0.41241,54.26426],[-0.41315,54.26429],[-0.41315,54.26431],[-0.41326,54.26431]]]]}},
{ "type":"Feature","properties":{"osm_way_id":"664931773","name":"Tool Station","building":"warehouse"},"geometry":{"type":"MultiPolygon","coordinates":[[[[-0.41515,54.27016],[-0.41512,54.27015],[-0.41505,54.27043],[-0.41524,54.27045],[-0.41527,54.27034],[-0.41533,54.27034],[-0.41537,54.27017],[-0.41534,54.27017],[-0.41515,54.27016]]]]}},
{ "type":"Feature","properties":{"osm_way_id":"772204624","building":"warehouse"},"geometry":{"type":"MultiPolygon","coordinates":[[[[-0.43621,54.21456],[-0.43495,54.21477],[-0.4348,54.21444],[-0.43605,54.21424],[-0.43621,54.21456]]]]}},
{ "type":"Feature","properties":{"osm_way_id":"772204625","building":"warehouse"},"geometry":{"type":"MultiPolygon","coordinates":[[[[-0.4373,54.21518],[-0.4368,54.21526],[-0.43658,54.21478],[-0.43707,54.2147],[-0.4373,54.21518]]]]}},
{ "type":"Feature","properties":{"osm_way_id":"772204626","building":"warehouse"},"geometry":{"type":"MultiPolygon","coordinates":[[[[-0.43663,54.21561],[-0.43618,54.21551],[-0.43603,54.21574],[-0.43649,54.21584],[-0.43663,54.21561]]]]}},
{ "type":"Feature","properties":{"osm_way_id":"772204627","building":"warehouse"},"geometry":{"type":"MultiPolygon","coordinates":[[[[-0.43694,54.21557],[-0.43675,54.2156],[-0.43683,54.21575],[-0.43702,54.21572],[-0.43694,54.21557]]]]}},
{ "type":"Feature","properties":{"osm_way_id":"798159948","name":"West BS Building Supplies","building":"warehouse"},"geometry":{"type":"MultiPolygon","coordinates":[[[[-0.4087,54.23416],[-0.40823,54.23412],[-0.40833,54.23373],[-0.40871,54.23376],[-0.40865,54.23398],[-0.40874,54.23399],[-0.4087,54.23414],[-0.4087,54.23416]]]]}},
{ "type":"Feature","properties":{"osm_way_id":"804786233","name":"Eurocoin","building":"warehouse","other":{"addr:housename":"Unit 2","addr:postcode":"AL9 7JL","addr:street":"Travellers Close","building:levels":"2"}}, "geometry":{"type":"MultiPolygon","coordinates":[[[[-0.21575,51.73889],[-0.2158,51.73869],[-0.21609,51.73872],[-0.21605,51.73892],[-0.21575,51.73889]]]]}},
{ "type":"Feature","properties":{"osm_way_id":"898438670","name":"Filey Autocare Mot and repairs","building":"warehouse","shop":"car_repair","other":{"addr:city":"Filey","addr:housename":"Station Garage","addr:postcode":"YO14 9AH","addr:street":"Station Avenue"}}, "geometry":{"type":"MultiPolygon","coordinates":[[[[-0.29454,54.21142],[-0.29473,54.21121],[-0.29446,54.21115],[-0.29442,54.21121],[-0.29459,54.21125],[-0.29455,54.2113],[-0.29426,54.21125],[-0.29421,54.21136],[-0.29454,54.21142]]]]}},
{ "type":"Feature","properties":{"osm_way_id":"898438672","building":"warehouse"},"geometry":{"type":"MultiPolygon","coordinates":[[[[-0.2942,54.21136],[-0.29428,54.21121],[-0.2941,54.21118],[-0.29404,54.21127],[-0.294,54.21126],[-0.29396,54.21132],[-0.2942,54.21136]]]]}}
]
}
