{
"type": "FeatureCollection",
"features": [
{ "type":"Feature","properties":{"osm_id":"358369106","name":"Parking ANPR","man_made":"surveillance","other":{"surveillance":"outdoor"}}, "geometry":{"type":"Point","coordinates":[1.24126,52.63863 ]}},
{ "type":"Feature","properties":{"osm_id":"410937573","man_made":"surveillance","other":{"surveillance":"outdoor"}}, "geometry":{"type":"Point","coordinates":[1.25099,52.60756 ]}},
{ "type":"Feature","properties":{"osm_id":"410937574","man_made":"surveillance","other":{"surveillance":"outdoor"}}, "geometry":{"type":"Point","coordinates":[1.25097,52.60757 ]}},
{ "type":"Feature","properties":{"osm_id":"418648661","man_made":"surveillance","other":{"surveillance":"outdoor"}}, "geometry":{"type":"Point","coordinates":[1.25149,52.60763 ]}},
{ "type":"Feature","properties":{"osm_id":"5150157461","ref":"46075138","other":{"colour":"yellow","emergency":"defibrillator","indoor":"no","opening_hours":"24\/7","operator":"Andrew Deptford","phone":"+44 1529 421111","postal_code":"NR5 9HA","website":"https:\/\/www.aadefib.com\/"}}, "geometry":{"type":"Point","coordinates":[1.21757,52.63718 ]}},
{ "type":"Feature","properties":{"osm_id":"5470108621","name":"Norfolk Daily Fresh","other":{"addr:housenumber":"14-16","addr:postcode":"NR3 4AE","addr:street":"Magdalen Road","fhrs:id":"35417","opening_hours":"Mo-Su 09:00-21:00","phone":"+44 7894808088","shop":"supermarket"}}, "geometry":{"type":"Point","coordinates":[1.29644,52.6393 ]}},
{ "type":"Feature","properties":{"osm_id":"8829122717","name":"Asian Mart","other":{"addr:city":"Norwich","addr:country":"GB","addr:housenumber":"43","addr:postcode":"NR3 1LQ","addr:street":"Magdalen Street","fhrs:id":"1061030","opening_hours":"08:00-22:00","phone":"+44 1603 665917","shop":"supermarket"}}, "geometry":{"type":"Point","coordinates":[1.29666,52.63488 ]}},
{ "type":"Feature","properties":{"osm_way_id":"31767476","name":"Waitrose","building":"shop","shop":"supermarket","other":{"addr:city":"Norwich","addr:country":"GB","addr:housename":"Eaton Centre","addr:postcode":"NR4 6NU","addr:street":"Church Lane","brand":"Waitrose","brand:wikidata":"Q771734","brand:wikipedia":"en:Waitrose & Partners","fhrs:id":"81259","not:addr:postcode":"NR4 6NZ","official_name":"Waitrose & Partners","opening_hours":"Mo-Sa 07:00-20:00; Su 10:00-16:00","operator":"Waitrose & Partners","phone":"+44 1603 458114","ref":"222","website":"https:\/\/www.waitrose.com\/norwich"}}, "geometry":{"type":"MultiPolygon","coordinates":[[[[1.25187,52.60773],[1.25173,52.60768],[1.2517,52.60771],[1.25149,52.60763],[1.25146,52.60766],[1.25142,52.60765],[1.25139,52.60765],[1.25136,52.60765],[1.25133,52.60768],[1.25099,52.60756],[1.25098,52.60756],[1.25097,52.60757],[1.25088,52.60766],[1.2506,52.60794],[1.251,52.6081],[1.25103,52.60806],[1.25143,52.60821],[1.25158,52.60826],[1.25162,52.60821],[1.25159,52.6082],[1.25167,52.60813],[1.25155,52.60809],[1.25168,52.60797],[1.25165,52.60796],[1.2517,52.60792],[1.25164,52.60789],[1.25169,52.60783],[1.25175,52.60785],[1.25187,52.60773]]]]}},
{ "type":"Feature","properties":{"osm_way_id":"31979229","name":"Aldi","building":"retail","shop":"supermarket","other":{"addr:city":"Norwich","addr:country":"GB","addr:housenumber":"1","addr:postcode":"NR5 8TZ","addr:street":"Larkman Lane","brand":"ALDI","brand:wikidata":"Q41171672","brand:wikipedia":"en:Aldi","contact:website":"https:\/\/www.aldi.co.uk\/store\/s-uk-E0377","fhrs:id":"17494","opening_hours":"Mo-Sa 08:00-22:00; Su 10:00-16:00"}}, "geometry":{"type":"MultiPolygon","coordinates":[[[[1.24157,52.63916],[1.242,52.63906],[1.24168,52.63852],[1.24149,52.63857],[1.24146,52.63852],[1.24123,52.63858],[1.24126,52.63863],[1.2413,52.63869],[1.24134,52.63868],[1.24154,52.639],[1.24148,52.63901],[1.24157,52.63916]]]]}},
{ "type":"Feature","properties":{"osm_way_id":"32786845","name":"Morrisons","building":"retail","shop":"supermarket","other":{"addr:city":"Norwich","addr:country":"GB","addr:housename":"Unit 4","addr:housenumber":"4","addr:postcode":"NR1 1WR","addr:street":"Albion Way","brand":"Morrisons","brand:wikidata":"Q922344","brand:wikipedia":"en:Morrisons","fhrs:id":"717315","opening_hours":"Mo-Sa 07:00-22:00; Su 10:00-16:00","phone":"+44 1603 663999","website":"https:\/\/my.morrisons.com\/storefinder\/115","wheelchair":"yes"}}, "geometry":{"type":"MultiPolygon","coordinates":[[[[1.30882,52.62455],[1.30881,52.62454],[1.3082,52.62415],[1.30812,52.6242],[1.30785,52.62403],[1.30812,52.62388],[1.30817,52.62391],[1.30865,52.62363],[1.30872,52.62367],[1.30877,52.6237],[1.30898,52.62358],[1.30908,52.62365],[1.30925,52.62356],[1.30945,52.62368],[1.30959,52.6236],[1.30964,52.62362],[1.30978,52.62371],[1.30973,52.62373],[1.30987,52.62382],[1.30979,52.62386],[1.30985,52.6239],[1.30974,52.62396],[1.30979,52.62399],[1.30882,52.62455]]]]}},
{ "type":"Feature","properties":{"osm_way_id":"32903505","name":"Coop Foodstore","building":"retail","shop":"supermarket","other":{"addr:city":"Norwich","addr:country":"GB","addr:housename":"Neighbourhood Centre","addr:postcode":"NR6 6GB","addr:street":"Heyford Road","addr:unit":"3","brand:wikidata":"Q3277439","fhrs:id":"14514","wheelchair":"yes"}}, "geometry":{"type":"MultiPolygon","coordinates":[[[[1.28895,52.66467],[1.28912,52.66464],[1.2891,52.66461],[1.28948,52.66454],[1.28942,52.66442],[1.28913,52.66447],[1.28908,52.66438],[1.28875,52.66444],[1.28885,52.66465],[1.28893,52.66464],[1.28895,52.66467]]]]}},
{ "type":"Feature","properties":{"osm_way_id":"33617624","name":"Sainsbury's","building":"shop","shop":"supermarket","other":{"addr:city":"Norwich","addr:country":"GB","addr:housenumber":"1","addr:postcode":"NR1 3RX","addr:street":"Brazen Gate","brand":"Sainsbury's","brand:wikidata":"Q152096","brand:wikipedia":"en:Sainsbury's","fhrs:id":"97277","image":"https:\/\/archive.org\/details\/norwich-2019-09-22\/DSCN0737.JPG","not:addr:postcode":"NR1 3RB","opening_hours":"Mo-Sa 07:00-22:00; Su 10:00-16:00; PH 08:00-21:00","opening_hours:note":"Not sure where previous mapper has sourced the public holidays opening hours & if still correct - I couldn't see any times on the building or website","phone":"+44 1603 763600","website":"https:\/\/stores.sainsburys.co.uk\/0413\/queens-road"}}, "geometry":{"type":"MultiPolygon","coordinates":[[[[1.29344,52.62142],[1.2935,52.62143],[1.29359,52.62153],[1.29372,52.62168],[1.2938,52.62165],[1.29387,52.62174],[1.2938,52.62176],[1.29383,52.6218],[1.29418,52.6222],[1.29416,52.62224],[1.29402,52.62229],[1.29395,52.62228],[1.29392,52.62224],[1.29323,52.62246],[1.29319,52.62241],[1.29316,52.62242],[1.29287,52.62209],[1.29292,52.62208],[1.29286,52.62204],[1.29279,52.62176],[1.29306,52.62168],[1.29303,52.62165],[1.29307,52.62164],[1.29301,52.62157],[1.29309,52.62155],[1.29314,52.6216],[1.29337,52.62153],[1.2933,52.62146],[1.29337,52.62144],[1.29339,52.62143],[1.29343,52.62142],[1.29344,52.62142]]]]}},
{ "type":"Feature","properties":{"osm_way_id":"92245168","name":"The Co-operative Food","building":"yes","shop":"supermarket","other":{"addr:city":"Norwich","addr:country":"GB","addr:postcode":"NR2 3PD","addr:street":"Earlham Road","atm":"yes","brand":"coop","fhrs:id":"16950","opening_hours":"Mo-Sa 07:00-23:00; Su 10:00-16:00","operator":"Co-operative Group Ltd","phone":"+44 1603 453961"}}, "geometry":{"type":"MultiPolygon","coordinates":[[[[1.26952,52.62913],[1.26949,52.62899],[1.26941,52.629],[1.2694,52.62897],[1.26943,52.62897],[1.26942,52.62893],[1.26935,52.62893],[1.26934,52.62889],[1.26926,52.62889],[1.26926,52.62888],[1.26926,52.62887],[1.26894,52.62889],[1.269,52.62919],[1.26935,52.62916],[1.26935,52.62915],[1.26952,52.62913]]]]}},
{ "type":"Feature","properties":{"osm_way_id":"101843259","name":"Shah Jalal grocers","building":"yes","shop":"supermarket","other":{"addr:city":"Norwich","addr:country":"GB","addr:housenumber":"6","addr:parentstreet":"Guardian Road","addr:place":"Guardian Road Industrial Estate","addr:postcode":"NR5 8PF","fhrs:id":"18754","source:addr":"FHRS Open Data"}}, "geometry":{"type":"MultiPolygon","coordinates":[[[[1.25781,52.63399],[1.25758,52.63399],[1.25758,52.63416],[1.25781,52.63416],[1.25781,52.63399]]]]}},
{ "type":"Feature","properties":{"osm_way_id":"108434996","name":"Roys","building":"yes","shop":"supermarket","other":{"addr:city":"Norwich","addr:country":"GB","addr:postcode":"NR5 9HA","addr:street":"Bowthorpe Main Centre","brand:wikidata":"Q7375233","fhrs:id":"77210","opening_hours":"Mo-Fr 08:30-20:00; Sa 08:00-19:00; Su 10:00-16:00; PH 09:00-17:30","phone":"+44 1603 746622","website":"https:\/\/www.roys.co.uk\/storelocator\/bowthorpe"}}, "geometry":{"type":"MultiPolygon","coordinates":[[[[1.21755,52.63754],[1.21758,52.63754],[1.21758,52.63756],[1.2176,52.63756],[1.21801,52.63757],[1.21815,52.63757],[1.21814,52.63778],[1.21837,52.63778],[1.21837,52.63767],[1.21854,52.63768],[1.21856,52.63738],[1.21841,52.63738],[1.21843,52.63703],[1.21758,52.63701],[1.21757,52.63718],[1.21756,52.63735],[1.21755,52.63754]]]]}},
{ "type":"Feature","properties":{"osm_way_id":"117389489","name":"Tesco Express","building":"shop","shop":"supermarket","other":{"addr:city":"Norwich","addr:country":"GB","addr:housenumber":"277","addr:postcode":"NR3 2RE","addr:street":"Aylsham Road","brand":"Tesco Express","brand:wikidata":"Q98456772","brand:wikipedia":"en:Tesco","fhrs:id":"2403","opening_hours":"06:00-23:00","operator":"Tesco Stores Ltd","ref":"6041"}}, "geometry":{"type":"MultiPolygon","coordinates":[[[[1.28146,52.64919],[1.28175,52.64925],[1.2818,52.64914],[1.28152,52.64908],[1.28146,52.64919]]]]}},
{ "type":"Feature","properties":{"osm_way_id":"119387966","name":"Spar","building":"shop","shop":"supermarket","other":{"addr:city":"Norwich","addr:housenumber":"6","addr:parentstreet":"Waterloo Road","addr:postcode":"NR3 3BE","addr:street":"St Augustines Gate","brand":"Spar","brand:wikidata":"Q610492","brand:wikipedia":"en:Spar (retailer)","fhrs:id":"9679","source:addr":"FHRS Open Data"}}, "geometry":{"type":"MultiPolygon","coordinates":[[[[1.29131,52.63909],[1.29136,52.63905],[1.29139,52.63907],[1.29152,52.63901],[1.29142,52.63893],[1.2913,52.63888],[1.29127,52.63889],[1.29127,52.63887],[1.29121,52.63888],[1.29122,52.63889],[1.29118,52.63889],[1.29108,52.63898],[1.29131,52.63909]]]]}},
{ "type":"Feature","properties":{"osm_way_id":"119556661","name":"Co-op Foodstore","building":"shop","shop":"supermarket","other":{"addr:city":"Norwich","addr:country":"GB","addr:housenumber":"58-62","addr:postcode":"NR2 4BT","addr:street":"Dereham Road","brand":"Co-op","fhrs:id":"14535","opening_hours":"Mo-Sa 09:00-17:30; Su off","operator":"East of England Co-operative Society","phone":"+44 1603 620112","website":"https:\/\/www.eastofengland.coop\/post-office\/dereham-road-norwich","wheelchair":"yes"}}, "geometry":{"type":"MultiPolygon","coordinates":[[[[1.28147,52.63293],[1.28129,52.6327],[1.28109,52.63275],[1.28112,52.63279],[1.28094,52.63284],[1.28108,52.63304],[1.28147,52.63293]]]]}},
{ "type":"Feature","properties":{"osm_way_id":"132370996","name":"Lidl","building":"retail","shop":"supermarket","other":{"addr:city":"Norwich","addr:country":"GB","addr:housename":"Lidl","addr:postcode":"NR3 2DP","addr:street":"Drayton Road","brand":"Lidl","brand:wikidata":"Q151954","brand:wikipedia":"en:Lidl","building:levels":"1","diet:halal":"no","fhrs:id":"16742","opening_hours":"Mo-Sa 08:00-22:00; Su 10:00-16:00","roof:levels":"0","website":"https:\/\/www.lidl.co.uk\/","wheelchair":"yes"}}, "geometry":{"type":"MultiPolygon","coordinates":[[[[1.27696,52.64459],[1.27703,52.64458],[1.27701,52.64452],[1.27633,52.64461],[1.27641,52.64484],[1.27669,52.6448],[1.27668,52.64478],[1.27701,52.64473],[1.27696,52.64459]]]]}},
{ "type":"Feature","properties":{"osm_way_id":"160061893","name":"Aldi","building":"yes","shop":"supermarket","other":{"addr:city":"Norwich","addr:country":"GB","addr:housenumber":"174,176,178","addr:postcode":"NR1 4JZ","addr:street":"Plumstead Road","brand":"ALDI","brand:wikidata":"Q41171672","brand:wikipedia":"en:Aldi","contact:website":"https:\/\/www.aldi.co.uk\/store\/s-uk-E0566","fhrs:id":"30070","opening_hours":"Mo-Sa 08:00-21:00; Su 10:00-16:00; PH 08:00-18:00","wheelchair":"yes"}}, "geometry":{"type":"MultiPolygon","coordinates":[[[[1.32705,52.6362],[1.32701,52.63625],[1.32683,52.63619],[1.32662,52.63644],[1.32728,52.63665],[1.32749,52.6364],[1.32715,52.63629],[1.32719,52.63625],[1.32705,52.6362]]]]}},
{ "type":"Feature","properties":{"osm_way_id":"288716848","name":"The Co-operative Food","building":"yes","shop":"supermarket","other":{"addr:city":"Leominster","addr:postcode":"HR6 8PX","addr:street":"Dishley Street"}}, "geometry":{"type":"MultiPolygon","coordinates":[[[[-2.74131,52.22644],[-2.74105,52.22612],[-2.74066,52.22624],[-2.74075,52.22635],[-2.74076,52.22636],[-2.74093,52.22657],[-2.74099,52.22655],[-2.74103,52.2266],[-2.74129,52.22652],[-2.74124,52.22646],[-2.74131,52.22644]]]]}},
{ "type":"Feature","properties":{"osm_way_id":"292181038","name":"M&S Simply Food","building":"unit","shop":"supermarket","other":{"addr:city":"Norwich","addr:country":"GB","addr:housename":"Unit 1","addr:housenumber":"1","addr:postcode":"NR6 5DH","addr:street":"Blackberry Court","brand":"M&S Simply Food","brand:wikidata":"Q714491","brand:wikipedia":"en:Marks & Spencer","fhrs:id":"690197","opening_hours":"Mo-Sa 08:00-20:00; Su 10:30-16:30","operator":"Marks & Spencer","website":"https:\/\/www.marksandspencer.com\/stores\/norwich-sweet-briar-simply-food-1297"}}, "geometry":{"type":"MultiPolygon","coordinates":[[[[1.26068,52.65152],[1.26101,52.65146],[1.2608,52.65105],[1.26047,52.65111],[1.26068,52.65152]]]]}},
{ "type":"Feature","properties":{"osm_way_id":"366711876","name":"Asda","building":"retail","shop":"supermarket","other":{"addr:city":"Norwich","addr:country":"GB","addr:housenumber":"11","addr:parentstreet":"Sandy Lane","addr:postcode":"NR4 6EF","addr:street":"The Lastings","brand":"Asda","brand:wikidata":"Q297410","brand:wikipedia":"en:Asda","contact:facebook":"https:\/\/www.facebook.com\/asda\/","contact:phone":"+44 1603 964246","contact:twitter":"@asda","contact:website":"https:\/\/storelocator.asda.com\/east-of-england\/norwich\/hall-road","fhrs:id":"836845","opening_hours":"Mo-Sa 07:00-22:00; Su 10:00-16:00; PH 07:00-20:00","opening_hours:covid19":"Mo-Th,Sa 08:00-22:00; Fr 08:00-20:00; Su 10:00-16:00","operator":"Asda Stores Ltd","source:addr":"FHRS Open Data","toilets":"yes","toilets:description":"Located next to cafe on first floor, accessed via lift"}}, "geometry":{"type":"MultiPolygon","coordinates":[[[[1.28825,52.60602],[1.28814,52.6059],[1.28807,52.60592],[1.28804,52.60588],[1.28798,52.6059],[1.28793,52.60585],[1.28728,52.60605],[1.28726,52.60603],[1.28711,52.60608],[1.2876,52.60664],[1.28853,52.60634],[1.28825,52.60602]]]]}},
{ "type":"Feature","properties":{"osm_way_id":"443728173","name":"Aldi","building":"supermarket","shop":"supermarket","other":{"addr:city":"Norwich","addr:country":"GB","addr:postcode":"NR4 6DH","addr:street":"Hall Road","addr:unit":"5","brand":"ALDI","brand:wikidata":"Q41171672","brand:wikipedia":"en:Aldi","contact:website":"https:\/\/www.aldi.co.uk\/store\/s-uk-E1022","fhrs:id":"945161","opening_hours":"Mo-Sa 08:00-22:00; Su 10:00-16:00","start_date":"2017-05-11"}}, "geometry":{"type":"MultiPolygon","coordinates":[[[[1.29075,52.60986],[1.29073,52.60982],[1.29078,52.60981],[1.29066,52.6096],[1.29124,52.60949],[1.29123,52.60947],[1.2914,52.60944],[1.29141,52.60945],[1.29144,52.60945],[1.2916,52.60975],[1.29148,52.60977],[1.29146,52.60972],[1.29075,52.60986]]]]}},
{ "type":"Feature","properties":{"osm_way_id":"507663714","name":"Aldi","building":"yes","shop":"supermarket","other":{"addr:city":"Norwich","addr:housenumber":"36-50","addr:postcode":"NR3 2DW","addr:street":"Drayton Road","addr:unit":"Unit 1","brand":"ALDI","brand:wikidata":"Q41171672","brand:wikipedia":"en:Aldi","fhrs:id":"945160","source:addr":"FHRS Open Data"}}, "geometry":{"type":"MultiPolygon","coordinates":[[[[1.28164,52.64276],[1.28152,52.64243],[1.28225,52.64233],[1.28227,52.64236],[1.28237,52.64267],[1.28164,52.64276]]]]}},
{ "type":"Feature","properties":{"osm_way_id":"545698731","name":"ALDI","building":"yes","shop":"supermarket","other":{"addr:city":"Norwich","addr:country":"GB","addr:housenumber":"463","addr:postcode":"NR3 4EB","addr:street":"Sprowston Road","brand":"ALDI","brand:wikidata":"Q41171672","brand:wikipedia":"en:Aldi","contact:website":"https:\/\/www.aldi.co.uk\/store\/s-uk-E0487","fhrs:id":"623496","opening_hours":"Mo-Sa 08:00-22:00; Su 10:00-16:00"}}, "geometry":{"type":"MultiPolygon","coordinates":[[[[1.308,52.6497],[1.30824,52.64988],[1.30888,52.64957],[1.30865,52.64939],[1.308,52.6497]]]]}},
{ "type":"Feature","properties":{"osm_way_id":"560681031","name":"CO-OP Daily","building":"yes","shop":"supermarket","other":{"addr:city":"Norwich","addr:country":"GB","addr:housenumber":"3","addr:postcode":"NR3 3NS","addr:street":"Woodgrove Parade","brand":"Co-op","fhrs:id":"8708","opening_hours":"Mo-Su 07:00-22:00","operator":"East of England Co-operative Society","phone":"+44 1603 030974"}}, "geometry":{"type":"MultiPolygon","coordinates":[[[[1.2916,52.65132],[1.29171,52.6513],[1.29167,52.65121],[1.29145,52.65125],[1.29132,52.65127],[1.29136,52.65136],[1.2916,52.65132]]]]}},
{ "type":"Feature","properties":{"osm_way_id":"569746815","name":"Bom Sabor","amenity":"cafe","building":"yes","shop":"supermarket","other":{"addr:city":"Norwich","addr:housenumber":"215-217","addr:postcode":"NR1 3AE","addr:street":"Queens Road","fhrs:id":"1287900","source:addr":"FSA Food Hygiene Ratings Database"}}, "geometry":{"type":"MultiPolygon","coordinates":[[[[1.29992,52.62077],[1.29993,52.62084],[1.30015,52.62083],[1.30014,52.62075],[1.29992,52.62077]]]]}},
{ "type":"Feature","properties":{"osm_way_id":"607287065","name":"Lidl","building":"retail","shop":"supermarket","other":{"addr:city":"Norwich","addr:country":"GB","addr:housenumber":"293","addr:postcode":"NR3 2RY","addr:street":"Aylsham Road","brand":"Lidl","brand:wikidata":"Q151954","brand:wikipedia":"en:Lidl","fhrs:id":"1034999","opening_hours":"Mo-Sa 08:00-22:00; Su 10:00-16:00","operator":"Lidl","website":"https:\/\/www.lid.co.uk\/en\/"}}, "geometry":{"type":"MultiPolygon","coordinates":[[[[1.28234,52.65002],[1.28219,52.64982],[1.28226,52.6498],[1.28218,52.64968],[1.28115,52.64996],[1.28133,52.6502],[1.28139,52.65028],[1.28234,52.65002]]]]}},
{ "type":"Feature","properties":{"osm_way_id":"675989634","name":"Tesco Express","building":"yes","shop":"supermarket","other":{"addr:city":"Norwich","addr:country":"GB","addr:housename":"Chamberlain House","addr:housenumber":"5","addr:postcode":"NR2 1JH","addr:street":"Guildhall Hill","brand":"Tesco Express","brand:wikidata":"Q98456772","brand:wikipedia":"en:Tesco","end_date":"2022-05","fhrs:id":"24131;996114","old_name":"Chamberlin's Department Store","opening_hours":"Mo-Sa 07:00-22:00; Su 11:00-17:00","operator":"Tesco Stores Ltd","ref":"2948","wheelchair":"yes"}}, "geometry":{"type":"MultiPolygon","coordinates":[[[[1.29287,52.62925],[1.2929,52.62925],[1.29289,52.62915],[1.29286,52.62913],[1.29253,52.62917],[1.29254,52.62927],[1.29259,52.62927],[1.29259,52.62932],[1.29259,52.62938],[1.29259,52.62942],[1.29274,52.62942],[1.29274,52.62932],[1.29275,52.62925],[1.29287,52.62925]]]]}},
{ "type":"Feature","properties":{"osm_way_id":"857921153","name":"Pewex Food Plus","building":"yes","shop":"supermarket","other":{"addr:city":"Norwich","addr:housename":"NR6 6RQ","addr:housenumber":"125","addr:postcode":"NR6 6RQ","addr:street":"Mile Cross Lane","air_conditioning":"yes","fhrs:id":"1080664","payment:credit_cards":"yes"}}, "geometry":{"type":"MultiPolygon","coordinates":[[[[1.28463,52.6574],[1.28485,52.65735],[1.28475,52.65715],[1.28452,52.65719],[1.28463,52.6574]]]]}},
{ "type":"Feature","properties":{"osm_way_id":"875795732","name":"The Food Warehouse","building":"yes","shop":"supermarket","other":{"addr:city":"Norwich","addr:housenumber":"4C","addr:parentstreet":"Hall Road","addr:postcode":"NR4 6DH","addr:street":"Hall Road Retail Park","brand":"The Food Warehouse","brand:wikidata":"Q87263899","fhrs:id":"1282911"}}, "geometry":{"type":"MultiPolygon","coordinates":[[[[1.29044,52.6084],[1.29095,52.60822],[1.29041,52.60768],[1.29037,52.60769],[1.29033,52.60765],[1.29014,52.60772],[1.29019,52.60776],[1.2899,52.60787],[1.29044,52.6084]]]]}},
{ "type":"Feature","properties":{"osm_way_id":"973447107","name":"Co-op Food","building":"yes","shop":"supermarket","other":{"addr:city":"Norwich","addr:housenumber":"321D","addr:postcode":"NR3 2AB","addr:street":"Aylsham Road","brand":"Co-op Food","brand:wikidata":"Q3277439","brand:wikipedia":"en:Co-op Food","fhrs:id":"2406","operator":"The Co-operative Group","operator:wikidata":"Q117202","operator:wikipedia":"en:The Co-operative Group","source:addr":"FHRS Open Data"}}, "geometry":{"type":"MultiPolygon","coordinates":[[[[1.27941,52.65329],[1.27947,52.6533],[1.27957,52.65346],[1.27979,52.65341],[1.27982,52.65334],[1.27984,52.65328],[1.27944,52.65322],[1.27941,52.65329]]]]}}
]
}
