{
"type": "FeatureCollection",
"features": [
{ "type":"Feature","properties":{"osm_way_id":"31959510","building":"warehouse","other":{"addr:city":"Norwich","addr:country":"GB","addr:housename":"Unit 7","addr:housenumber":"7","addr:postcode":"NR5 9JA","addr:street":"Francis Way"}}, "geometry":{"type":"MultiPolygon","coordinates":[[[[1.2111,52.64371],[1.21137,52.64413],[1.21102,52.64421],[1.21075,52.64379],[1.2111,52.64371]]]]}},
{ "type":"Feature","properties":{"osm_way_id":"41761755","building":"warehouse","other":{"addr:city":"Norwich","addr:country":"GB","addr:postcode":"NR2 4LH","addr:street":"Swanton Road","end_date":"2021-09-08","owner":"Norfolk County Council","ownership":"municipal"}}, "geometry":{"type":"MultiPolygon","coordinates":[[[[1.27222,52.64212],[1.27221,52.64252],[1.27321,52.64253],[1.27322,52.64224],[1.27299,52.64223],[1.273,52.64213],[1.27281,52.64213],[1.27228,52.64212],[1.27222,52.64212]]]]}},
{ "type":"Feature","properties":{"osm_way_id":"53352826","building":"warehouse"},"geometry":{"type":"MultiPolygon","coordinates":[[[[1.27896,52.66938],[1.27894,52.66932],[1.27856,52.66938],[1.27845,52.66913],[1.2782,52.66916],[1.27834,52.66948],[1.27896,52.66938]]]]}},
{ "type":"Feature","properties":{"osm_way_id":"101270206","building":"warehouse","other":{"addr:country":"GB","addr:housenumber":"51","addr:postcode":"NR3 1DE","addr:street":"Pitt Street"}}, "geometry":{"type":"MultiPolygon","coordinates":[[[[1.29334,52.63565],[1.29306,52.63566],[1.29308,52.63581],[1.29316,52.6358],[1.29316,52.63579],[1.29335,52.63579],[1.29334,52.63565]]]]}},
{ "type":"Feature","properties":{"osm_way_id":"101843242","name":"Aktrion Logistics","building":"warehouse","other":{"addr:city":"Norwich","addr:country":"GB","addr:postcode":"NR5 8PF"}}, "geometry":{"type":"MultiPolygon","coordinates":[[[[1.25854,52.63348],[1.25846,52.63348],[1.25846,52.6334],[1.25814,52.6334],[1.25814,52.63348],[1.25754,52.63348],[1.25754,52.63341],[1.25727,52.63341],[1.25727,52.63348],[1.25721,52.63348],[1.25721,52.63377],[1.25712,52.63377],[1.25712,52.63389],[1.25742,52.63389],[1.25742,52.63378],[1.25747,52.63378],[1.25747,52.63376],[1.25766,52.63376],[1.25854,52.63376],[1.25854,52.63348]]]]}},
{ "type":"Feature","properties":{"osm_way_id":"112840134","name":"Parcel Force","building":"warehouse","other":{"addr:postcode":"NR2 4HJ"}}, "geometry":{"type":"MultiPolygon","coordinates":[[[[1.2848,52.63667],[1.2852,52.63681],[1.28561,52.63638],[1.28521,52.63624],[1.2848,52.63667]]]]}},
{ "type":"Feature","properties":{"osm_way_id":"115721781","name":"The Alchemists Cupboard Ltd","building":"warehouse","other":{"addr:city":"Norwich","addr:country":"GB","addr:housename":"Unit 12","addr:housenumber":"12","addr:postcode":"NR5 9JH","addr:street":"Charles Watling Way","email":"admin@thealchemistscupboard.co.uk","phone":"+44 1603 396906","website":"https:\/\/www.thealchemistscupboard.co.uk\/"}}, "geometry":{"type":"MultiPolygon","coordinates":[[[[1.21198,52.64223],[1.21212,52.64223],[1.2121,52.64199],[1.21197,52.64199],[1.21198,52.64223]]]]}},
{ "type":"Feature","properties":{"osm_way_id":"115721788","name":"Kettle Premier House","building":"warehouse","other":{"addr:city":"Norwich","addr:country":"GB","addr:housename":"Document House","addr:housenumber":"37","addr:postcode":"NR5 9PX","addr:street":"Barnard Road","operator":"Kettle Chips"}}, "geometry":{"type":"MultiPolygon","coordinates":[[[[1.20618,52.64246],[1.20627,52.64305],[1.20727,52.64299],[1.20718,52.6424],[1.20618,52.64246]]]]}},
{ "type":"Feature","properties":{"osm_way_id":"115721873","building":"warehouse"},"geometry":{"type":"MultiPolygon","coordinates":[[[[1.21529,52.64229],[1.21528,52.64216],[1.21495,52.64217],[1.21496,52.6423],[1.21529,52.64229]]]]}},
{ "type":"Feature","properties":{"osm_way_id":"115721881","name":"Lifeline24","building":"warehouse","office":"company","other":{"addr:city":"Norwich","addr:country":"GB","addr:housename":"Unit 11","addr:housenumber":"11","addr:postcode":"NR5 9JF","addr:street":"Robberds Way","email":"info@lifeline24.co.uk","fax":"+44 1603 343224","opening_hours":"24\/7","operator":"Lifeline24 Limited","phone":"+44 8009 990400","phone:alarm_monitoring":"+44 1603 734422","strapline":"Supporting you at home","website":"https:\/\/www.lifeline24.co.uk\/"}}, "geometry":{"type":"MultiPolygon","coordinates":[[[[1.21144,52.64194],[1.21147,52.64241],[1.21194,52.64239],[1.21191,52.64193],[1.21144,52.64194]]]]}},
{ "type":"Feature","properties":{"osm_way_id":"115722008","name":"Norfolk Solar","building":"warehouse","other":{"addr:city":"Norwich","addr:country":"GB","addr:housename":"Unit 2","addr:housenumber":"2","addr:postcode":"NR5 9JH","addr:street":"Charles Watling Way","email":"enquiries@norfolksolar.co.uk","phone":"+44 1603 734851","website":"https:\/\/www.norfolksolar.co.uk\/"}}, "geometry":{"type":"MultiPolygon","coordinates":[[[[1.21322,52.64258],[1.21308,52.64258],[1.21309,52.6427],[1.21322,52.6427],[1.21322,52.64258]]]]}},
{ "type":"Feature","properties":{"osm_way_id":"115722144","name":"Fox Joinery","building":"warehouse","other":{"addr:city":"Norwich","addr:country":"GB","addr:housename":"Unit 2","addr:housenumber":"2","addr:postcode":"NR5 9JD","addr:street":"Jarrold Way","phone":"+44 1603 742068"}}, "geometry":{"type":"MultiPolygon","coordinates":[[[[1.21512,52.64236],[1.21513,52.64256],[1.21554,52.64255],[1.21553,52.64235],[1.21512,52.64236]]]]}},
{ "type":"Feature","properties":{"osm_way_id":"116106273","name":"Amazon","building":"warehouse","other":{"addr:city":"Norwich","addr:country":"GB","addr:housenumber":"2","addr:locality":"Sweet Briar Road Industrial Estate","addr:postcode":"NR3 2BU","addr:street":"Caley Close","opening_hours":"24\/7"}}, "geometry":{"type":"MultiPolygon","coordinates":[[[[1.26202,52.64805],[1.26093,52.64823],[1.26152,52.64955],[1.26262,52.64937],[1.26202,52.64805]]]]}},
{ "type":"Feature","properties":{"osm_way_id":"116106274","name":"EV Technology Centre","building":"warehouse","other":{"addr:city":"Norwich","addr:country":"GB","addr:housenumber":"19","addr:postcode":"NR3 2BT","addr:street":"Frensham Road"}}, "geometry":{"type":"MultiPolygon","coordinates":[[[[1.26044,52.64557],[1.26109,52.64557],[1.2611,52.6453],[1.26045,52.6453],[1.26044,52.64557]]]]}},
{ "type":"Feature","properties":{"osm_way_id":"129052735","name":"John Lewis","building":"warehouse","other":{"addr:city":"Norwich","addr:country":"GB","addr:housename":"Units 53\/54","addr:housenumber":"53,54","addr:place":"White Lodge Business Park","addr:postcode":"NR4 6DG","addr:street":"Hall Road","brand":"John Lewis"}}, "geometry":{"type":"MultiPolygon","coordinates":[[[[1.28936,52.60447],[1.28963,52.60479],[1.28951,52.60483],[1.28958,52.60491],[1.29002,52.60477],[1.29014,52.60492],[1.29039,52.60484],[1.28982,52.60418],[1.28921,52.60437],[1.2893,52.60449],[1.28936,52.60447]]]]}},
{ "type":"Feature","properties":{"osm_way_id":"129052742","name":"Toolbank","building":"warehouse","other":{"addr:city":"Norwich","addr:country":"GB","addr:housename":"Harford House","addr:housenumber":"50","addr:place":"White Lodge Business Park","addr:postcode":"NR4 6DG","addr:street":"Hall Road","website":"https:\/\/www.toolbank.com\/"}}, "geometry":{"type":"MultiPolygon","coordinates":[[[[1.28958,52.60389],[1.28924,52.604],[1.28919,52.60395],[1.28874,52.60409],[1.28879,52.60415],[1.28873,52.60417],[1.28895,52.60441],[1.28979,52.60413],[1.28958,52.60389]]]]}},
{ "type":"Feature","properties":{"osm_way_id":"129052789","name":"SIG Technical Insulation","building":"warehouse"},"geometry":{"type":"MultiPolygon","coordinates":[[[[1.28735,52.60474],[1.28782,52.60459],[1.28765,52.6044],[1.28718,52.60455],[1.28735,52.60474]]]]}},
{ "type":"Feature","properties":{"osm_way_id":"129052796","name":"Savoir faire","amenity":"studio","building":"warehouse","other":{"addr:city":"Norwich","addr:country":"GB","addr:housenumber":"52","addr:postcode":"NR4 6DQ","addr:street":"Bessemer Road","email":"mail@savoirfairestudios.co.uk","phone":"+44 1603 765005","website":"http:\/\/www.savoirfairestudios.co.uk\/"}}, "geometry":{"type":"MultiPolygon","coordinates":[[[[1.28722,52.60439],[1.28697,52.60412],[1.28679,52.60418],[1.28703,52.60445],[1.28722,52.60439]]]]}},
{ "type":"Feature","properties":{"osm_way_id":"129052804","name":"Jarrolds Customer Collection","building":"warehouse"},"geometry":{"type":"MultiPolygon","coordinates":[[[[1.29044,52.60663],[1.29064,52.60682],[1.29168,52.60643],[1.29148,52.60623],[1.29044,52.60663]]]]}},
{ "type":"Feature","properties":{"osm_way_id":"129052808","name":"Norwich Calor Centre","building":"warehouse","shop":"gas","other":{"addr:city":"Norwich","addr:country":"GB","addr:parentstreet":"Hall Road","addr:place":"Norwich Livestock Market","addr:postcode":"NR4 6EQ","brand":"Calor","building:levels":"2","email":"ccnor@calor.co.uk","opening_hours":"Mo-Fr 08:30-17:00; Sa-Su closed","phone":"+44 1603 452692","website":"https:\/\/www.calor.co.uk\/help-and-advice\/calor-stockists-and-dealers\/calor-centres\/calor-stockists-central\/norwich-calor-centre"}}, "geometry":{"type":"MultiPolygon","coordinates":[[[[1.28796,52.60163],[1.28843,52.60164],[1.28844,52.60152],[1.28797,52.6015],[1.28796,52.60163]]]]}},
{ "type":"Feature","properties":{"osm_way_id":"129052830","name":"A-Plant","building":"warehouse","shop":"hardware_rental","other":{"addr:city":"Norwich","addr:country":"GB","addr:housename":"Unit A","addr:postcode":"NR4 6ES","addr:street":"Oldhall Road","opening_hours":"Mo-Fr 07:30-17:00; Sa-Su closed","operator":"Ashtead Plant Hire Company Limited","phone":"+44 1603 456636","website":"https:\/\/www.aplant.com\/depots\/norwich"}}, "geometry":{"type":"MultiPolygon","coordinates":[[[[1.28012,52.59994],[1.28042,52.60018],[1.28086,52.59998],[1.28056,52.59974],[1.28012,52.59994]]]]}},
{ "type":"Feature","properties":{"osm_way_id":"129052849","name":"NTS","building":"warehouse","other":{"addr:city":"Norwich","addr:country":"GB","addr:place":"Harford Centre","addr:postcode":"NR4 6DG","addr:street":"Hall Road","alt_name":"Norfolk Training Services","end_date":"2017-08-16","opening_hours":"24\/7 closed","phone":"+44 1603 259900"}}, "geometry":{"type":"MultiPolygon","coordinates":[[[[1.28222,52.59985],[1.28165,52.60004],[1.2818,52.60021],[1.2817,52.60024],[1.28178,52.60033],[1.28246,52.6001],[1.28222,52.59985]]]]}},
{ "type":"Feature","properties":{"osm_way_id":"129052852","building":"warehouse","other":{"addr:city":"Norwich","addr:country":"GB","addr:housename":"Unit B","addr:housenumber":"1","addr:place":"Harford Centre","addr:postcode":"NR4 6DG","addr:street":"Hall Road"}}, "geometry":{"type":"MultiPolygon","coordinates":[[[[1.28139,52.6007],[1.28142,52.60068],[1.28125,52.60055],[1.28132,52.60052],[1.28115,52.60038],[1.28118,52.60037],[1.28135,52.6005],[1.28148,52.60044],[1.28124,52.60025],[1.28086,52.60043],[1.28126,52.60075],[1.2813,52.60074],[1.28139,52.6007]]]]}},
{ "type":"Feature","properties":{"osm_way_id":"147937557","building":"warehouse","other":{"addr:postcode":"NR6 6XB","building:levels":"1"}}, "geometry":{"type":"MultiPolygon","coordinates":[[[[1.27921,52.66713],[1.28097,52.6668],[1.28083,52.66654],[1.28045,52.66661],[1.27997,52.66568],[1.27864,52.66594],[1.27879,52.66621],[1.27886,52.66619],[1.27926,52.66696],[1.27913,52.66699],[1.27921,52.66713]]]]}},
{ "type":"Feature","properties":{"osm_way_id":"147937633","building":"warehouse","other":{"building:levels":"1"}}, "geometry":{"type":"MultiPolygon","coordinates":[[[[1.28632,52.66858],[1.28735,52.66911],[1.28721,52.66921],[1.28783,52.66954],[1.28851,52.66906],[1.28801,52.6688],[1.28794,52.66885],[1.28775,52.66875],[1.28787,52.66866],[1.28794,52.6687],[1.28809,52.6686],[1.28802,52.66856],[1.28813,52.66848],[1.28716,52.66798],[1.28632,52.66858]]]]}},
{ "type":"Feature","properties":{"osm_way_id":"147937670","name":"FLUKE","building":"warehouse","office":"company","other":{"addr:city":"Norwich","addr:country":"GB","addr:housenumber":"52","addr:postcode":"NR6 6JB","addr:street":"Hurricane Way","company":"electronics;testing","email":"cs.uk@fluke.com","fax":"+44 1603 256652","operator":"Fluke UK Ltd","phone":"+44 1603 256620","website":"https:\/\/www.fluke.com\/en-gb"}}, "geometry":{"type":"MultiPolygon","coordinates":[[[[1.29322,52.67271],[1.29335,52.67272],[1.29333,52.67297],[1.29363,52.67298],[1.29362,52.67306],[1.29345,52.67306],[1.29343,52.67333],[1.29339,52.67333],[1.29338,52.67347],[1.29406,52.67349],[1.29409,52.67308],[1.29403,52.67307],[1.29403,52.67303],[1.29389,52.67303],[1.29389,52.67307],[1.29381,52.67307],[1.29382,52.67298],[1.29394,52.67298],[1.29398,52.67254],[1.29337,52.67252],[1.29335,52.67268],[1.29322,52.67268],[1.29322,52.67271]]]]}},
{ "type":"Feature","properties":{"osm_way_id":"147937727","building":"warehouse"},"geometry":{"type":"MultiPolygon","coordinates":[[[[1.28935,52.66727],[1.28904,52.66772],[1.28949,52.66783],[1.2898,52.66739],[1.28935,52.66727]]]]}},
{ "type":"Feature","properties":{"osm_way_id":"147937774","building":"warehouse"},"geometry":{"type":"MultiPolygon","coordinates":[[[[1.29048,52.67117],[1.29158,52.6711],[1.29155,52.67092],[1.29045,52.671],[1.29048,52.67117]]]]}},
{ "type":"Feature","properties":{"osm_way_id":"147937777","name":"UPS","building":"warehouse","other":{"addr:city":"Norwich","addr:country":"GB","addr:housenumber":"48","addr:postcode":"NR6 6JB","addr:street":"Hurricane Way"}}, "geometry":{"type":"MultiPolygon","coordinates":[[[[1.29229,52.67273],[1.29304,52.67242],[1.29278,52.67219],[1.29193,52.67254],[1.29213,52.67271],[1.29222,52.67267],[1.29229,52.67273]]]]}},
{ "type":"Feature","properties":{"osm_way_id":"147937825","building":"warehouse"},"geometry":{"type":"MultiPolygon","coordinates":[[[[1.29112,52.67042],[1.29157,52.67039],[1.2915,52.67004],[1.29105,52.67007],[1.29112,52.67042]]]]}},
{ "type":"Feature","properties":{"osm_way_id":"147937851","building":"warehouse","other":{"building:levels":"1"}}, "geometry":{"type":"MultiPolygon","coordinates":[[[[1.28803,52.66964],[1.28787,52.66976],[1.28847,52.67008],[1.28863,52.66996],[1.28803,52.66964]]]]}},
{ "type":"Feature","properties":{"osm_way_id":"147937860","name":"SLM St Leonards Group","building":"warehouse"},"geometry":{"type":"MultiPolygon","coordinates":[[[[1.29214,52.67088],[1.29216,52.67103],[1.29225,52.67102],[1.29226,52.67107],[1.29219,52.67107],[1.29223,52.67132],[1.29231,52.67132],[1.29232,52.67136],[1.29238,52.67135],[1.29238,52.67137],[1.29249,52.67136],[1.2924,52.67086],[1.29214,52.67088]]]]}},
{ "type":"Feature","properties":{"osm_way_id":"147937953","name":"dpd local","amenity":"post_office","building":"warehouse","other":{"addr:city":"Norwich","addr:country":"GB","addr:housename":"Unit 2","addr:housenumber":"2","addr:postcode":"NR6 6NG","addr:street":"Twickenham Road","brand":"DPD","delivery":"yes","phone":"+44 1603 483666","website":"https:\/\/www.dpdlocal.co.uk\/"}}, "geometry":{"type":"MultiPolygon","coordinates":[[[[1.27934,52.66397],[1.28052,52.66409],[1.28064,52.66368],[1.27946,52.66355],[1.27934,52.66397]]]]}},
{ "type":"Feature","properties":{"osm_way_id":"147938019","building":"warehouse","other":{"addr:city":"Norwich","addr:country":"GB","addr:housenumber":"47","addr:postcode":"NR6 6JB","addr:street":"Hurricane Way"}}, "geometry":{"type":"MultiPolygon","coordinates":[[[[1.29025,52.67189],[1.28961,52.67213],[1.29023,52.67275],[1.29087,52.67251],[1.29025,52.67189]]]]}},
{ "type":"Feature","properties":{"osm_way_id":"147938071","building":"warehouse","other":{"addr:postcode":"NR6 6HG"}}, "geometry":{"type":"MultiPolygon","coordinates":[[[[1.29025,52.67079],[1.29134,52.67071],[1.2913,52.67054],[1.29021,52.67062],[1.29025,52.67079]]]]}},
{ "type":"Feature","properties":{"osm_way_id":"147938086","name":"Total Conservatory Roof Systems","building":"warehouse"},"geometry":{"type":"MultiPolygon","coordinates":[[[[1.29258,52.67146],[1.29281,52.67144],[1.2927,52.67084],[1.29247,52.67086],[1.29258,52.67146]]]]}},
{ "type":"Feature","properties":{"osm_way_id":"147938201","name":"Mercedez-Benz + Mitsubishi","building":"warehouse","shop":"car","other":{"addr:postcode":"NR6 6HE","building:levels":"2","opening_hours":"Mo-Sa 08:30-18:00","roof:shape":"flat"}}, "geometry":{"type":"MultiPolygon","coordinates":[[[[1.2894,52.66977],[1.2888,52.66945],[1.2886,52.66959],[1.28907,52.66984],[1.289,52.66989],[1.28914,52.66996],[1.2894,52.66977]]]]}},
{ "type":"Feature","properties":{"osm_way_id":"147938212","name":"Anglian Home Improvements","building":"warehouse","other":{"addr:city":"Norwich","addr:country":"GB","addr:housename":"Unit 30","addr:housenumber":"59","addr:postcode":"NR6 6JB","addr:street":"Hurricane Way","email":"bidteam@angliangroup.com","fax":"+44 1603 420494","operator":"Anglian Windows Ltd","phone":"+44 1603 422043","website":"https:\/\/www.anglianhome.co.uk\/"}}, "geometry":{"type":"MultiPolygon","coordinates":[[[[1.29281,52.6735],[1.29271,52.67349],[1.29269,52.67371],[1.29317,52.67373],[1.2932,52.67328],[1.29283,52.67327],[1.29281,52.6735]]]]}},
{ "type":"Feature","properties":{"osm_way_id":"147938221","name":"TRO","building":"warehouse","other":{"addr:city":"Norwich","addr:country":"GB","addr:street":"Burton Road","website":"https:\/\/tro.com\/"}}, "geometry":{"type":"MultiPolygon","coordinates":[[[[1.28834,52.66219],[1.2878,52.66222],[1.28786,52.66281],[1.28826,52.66279],[1.28825,52.66272],[1.2884,52.66272],[1.28834,52.66219]]]]}},
{ "type":"Feature","properties":{"osm_way_id":"147938229","name":"ANOVO","building":"warehouse","other":{"addr:city":"Norwich","addr:country":"GB","addr:housename":"Communications House","addr:postcode":"NR6 6AQ","addr:street":"Vulcan Road North","phone":"+44 1603 269900","website":"https:\/\/www.anovo.com\/"}}, "geometry":{"type":"MultiPolygon","coordinates":[[[[1.2839,52.6611],[1.28409,52.66111],[1.28393,52.66169],[1.28449,52.66175],[1.28473,52.66088],[1.28417,52.66083],[1.28412,52.66101],[1.28393,52.66099],[1.2839,52.6611]]]]}},
{ "type":"Feature","properties":{"osm_way_id":"153374529","building":"warehouse","other":{"addr:city":"Norwich","addr:country":"GB","addr:housenumber":"75-95","addr:postcode":"NR2 4SZ","addr:street":"Westwick Street","disused:shop":"toys","end_date":"2018-04-24","opening_hours":"24\/7 closed"}}, "geometry":{"type":"MultiPolygon","coordinates":[[[[1.28671,52.63223],[1.28716,52.63268],[1.28707,52.63271],[1.28712,52.63276],[1.28672,52.6329],[1.28668,52.63286],[1.28654,52.63291],[1.2861,52.63245],[1.28671,52.63223]]]]}},
{ "type":"Feature","properties":{"osm_way_id":"322743672","name":"Danwebb Ltd","building":"warehouse","other":{"addr:city":"Norwich","addr:country":"GB","addr:housename":"Unit 8","addr:housenumber":"8","addr:postcode":"NR5 9JH","addr:street":"Charles Watling Way","email":"email@danwebb.ltd.uk","phone":"+44 1603 745705","start_date":"1984","website":"http:\/\/www.danwebb.ltd.uk\/"}}, "geometry":{"type":"MultiPolygon","coordinates":[[[[1.21252,52.64222],[1.21265,52.64222],[1.21264,52.64198],[1.2125,52.64198],[1.21252,52.64222]]]]}},
{ "type":"Feature","properties":{"osm_way_id":"322743673","name":"HarperWells Ltd","building":"warehouse","other":{"addr:city":"Norwich","addr:country":"GB","addr:housename":"Unit 7","addr:housenumber":"7","addr:postcode":"NR5 9JH","addr:street":"Charles Watling Way","website":"http:\/\/www.harperwells.com\/"}}, "geometry":{"type":"MultiPolygon","coordinates":[[[[1.21265,52.64222],[1.21279,52.64221],[1.21277,52.64197],[1.21264,52.64198],[1.21265,52.64222]]]]}},
{ "type":"Feature","properties":{"osm_way_id":"322743675","building":"warehouse","other":{"addr:city":"Norwich","addr:country":"GB","addr:housename":"Unit 11","addr:housenumber":"11","addr:postcode":"NR5 9JH","addr:street":"Charles Watling Way","disused":"yes"}}, "geometry":{"type":"MultiPolygon","coordinates":[[[[1.21212,52.64223],[1.21225,52.64223],[1.21223,52.64199],[1.2121,52.64199],[1.21212,52.64223]]]]}},
{ "type":"Feature","properties":{"osm_way_id":"322743725","name":"Solideal","building":"warehouse","other":{"addr:city":"Norwich","addr:country":"GB","addr:housename":"Unit 10","addr:housenumber":"10","addr:postcode":"NR5 9JH","addr:street":"Charles Watling Way","contact:mobile":"+44 7976 327062","contact:website":"http:\/\/www.solidealuk.com\/"}}, "geometry":{"type":"MultiPolygon","coordinates":[[[[1.21225,52.64223],[1.21239,52.64222],[1.21237,52.64198],[1.21223,52.64199],[1.21225,52.64223]]]]}},
{ "type":"Feature","properties":{"osm_way_id":"322743727","name":"T. T. Jones Electrical Ltd","building":"warehouse","other":{"addr:city":"Norwich","addr:country":"GB","addr:housename":"Unit 9","addr:housenumber":"9","addr:postcode":"NR5 9JH","addr:street":"Charles Watling Way","email":"info@ttjones-electrical.co.uk","fax":"+44 1603 745251","phone":"+44 1603 747270","start_date":"1986","website":"http:\/\/ttjones-electrical.co.uk\/"}}, "geometry":{"type":"MultiPolygon","coordinates":[[[[1.21239,52.64222],[1.21252,52.64222],[1.2125,52.64198],[1.21237,52.64198],[1.21239,52.64222]]]]}},
{ "type":"Feature","properties":{"osm_way_id":"539093944","name":"Funky's","building":"warehouse"},"geometry":{"type":"MultiPolygon","coordinates":[[[[1.28834,52.66219],[1.28827,52.66158],[1.28772,52.66161],[1.2878,52.66222],[1.28834,52.66219]]]]}},
{ "type":"Feature","properties":{"osm_way_id":"547315160","building":"warehouse","other":{"addr:city":"Norwich","addr:country":"GB","addr:housenumber":"38","addr:postcode":"NR1 2EN","addr:street":"Europa Way","operator":"Ben Burgess"}}, "geometry":{"type":"MultiPolygon","coordinates":[[[[1.31129,52.61451],[1.31155,52.61443],[1.3113,52.61415],[1.31105,52.61424],[1.31129,52.61451]]]]}},
{ "type":"Feature","properties":{"osm_way_id":"547315163","name":"Ben Burgess","building":"warehouse","shop":"agrarian","other":{"addr:city":"Norwich","addr:country":"GB","addr:postcode":"NR1 2EN","addr:street":"Europa Way","email":"enquiries@benburgess.co.uk","fax":"+44 1603 762194","opening_hours":"Mo-Fr 08:00-17:30; Sa 08:00-12:00; Su closed","phone":"+44 1603 628251","website":"https:\/\/www.benburgess.co.uk\/company\/aboutbenburgess\/norwich"}}, "geometry":{"type":"MultiPolygon","coordinates":[[[[1.31103,52.61513],[1.31148,52.61495],[1.31132,52.61479],[1.31111,52.61488],[1.31076,52.61456],[1.31051,52.61466],[1.31103,52.61513]]]]}},
{ "type":"Feature","properties":{"osm_way_id":"547437887","name":"Viking Self Storage","building":"warehouse","shop":"storage_rental","other":{"addr:city":"Norwich","addr:country":"GB","addr:housenumber":"5","addr:postcode":"NR6 5BD","addr:street":"Turnpike Close","opening_hours":"Mo-Tu 08:30-17:30; We 08:30-19:30; Th-Fr 08:30-17:30; Sa 09:00-17:00; Su off","phone":"+44 1603 974964","website":"https:\/\/www.vikingselfstoragenorwich.co.uk\/"}}, "geometry":{"type":"MultiPolygon","coordinates":[[[[1.25927,52.64948],[1.2594,52.64979],[1.26023,52.64965],[1.26009,52.64935],[1.25927,52.64948]]]]}},
{ "type":"Feature","properties":{"osm_way_id":"700114312","name":"BSH Distribution","building":"warehouse"},"geometry":{"type":"MultiPolygon","coordinates":[[[[-0.66305,52.48217],[-0.66491,52.48099],[-0.6671,52.48228],[-0.66723,52.4822],[-0.66751,52.48236],[-0.66738,52.48244],[-0.6693,52.48356],[-0.66948,52.48345],[-0.66965,52.48355],[-0.66947,52.48367],[-0.66976,52.48383],[-0.66923,52.48417],[-0.66936,52.48424],[-0.66832,52.48491],[-0.6682,52.48484],[-0.66792,52.48502],[-0.66576,52.48376],[-0.66556,52.48388],[-0.66536,52.48377],[-0.66557,52.48364],[-0.66551,52.48361],[-0.66535,52.48371],[-0.66507,52.48354],[-0.66522,52.48344],[-0.66514,52.4834],[-0.66495,52.48352],[-0.66476,52.48341],[-0.66496,52.48329],[-0.66305,52.48217]]]]}},
{ "type":"Feature","properties":{"osm_way_id":"700114313","name":"iForce","building":"warehouse"},"geometry":{"type":"MultiPolygon","coordinates":[[[[-0.67102,52.48123],[-0.67387,52.48111],[-0.67406,52.48282],[-0.67418,52.48282],[-0.6742,52.48297],[-0.67408,52.48298],[-0.67427,52.48464],[-0.67336,52.48468],[-0.67337,52.48481],[-0.67227,52.48486],[-0.67226,52.48471],[-0.67142,52.48475],[-0.67102,52.48123]]]]}},
{ "type":"Feature","properties":{"osm_way_id":"730972308","building":"warehouse"},"geometry":{"type":"MultiPolygon","coordinates":[[[[1.2836,52.64684],[1.28385,52.64709],[1.28369,52.64715],[1.28344,52.6469],[1.28355,52.64686],[1.2836,52.64684]]]]}},
{ "type":"Feature","properties":{"osm_way_id":"850551689","building":"warehouse","other":{"building:levels":"1"}}, "geometry":{"type":"MultiPolygon","coordinates":[[[[1.25678,52.64732],[1.25731,52.64731],[1.2573,52.64708],[1.25678,52.64709],[1.25678,52.64732]]]]}},
{ "type":"Feature","properties":{"osm_way_id":"943342144","name":"Europa Logistics","building":"warehouse"},"geometry":{"type":"MultiPolygon","coordinates":[[[[-0.66948,52.48087],[-0.66792,52.48185],[-0.66455,52.47988],[-0.66516,52.47949],[-0.66503,52.47941],[-0.66587,52.47888],[-0.66601,52.47896],[-0.66611,52.47889],[-0.66765,52.4798],[-0.66774,52.47974],[-0.66786,52.47981],[-0.66777,52.47986],[-0.66839,52.48023],[-0.66856,52.48011],[-0.6687,52.4802],[-0.66853,52.48031],[-0.66948,52.48087]]]]}},
{ "type":"Feature","properties":{"osm_way_id":"992703757","name":"Constitution Motors","building":"warehouse","other":{"brand":"Mitsubishi","end_date":"2021-10-01","operator":"Mitsubishi Motors","phone":"+44 1603 788800","was:shop":"car","website":"https:\/\/www.constitutionmotorsmitsubishi.co.uk\/"}}, "geometry":{"type":"MultiPolygon","coordinates":[[[[1.28688,52.65661],[1.28707,52.65661],[1.28707,52.65658],[1.28725,52.65658],[1.28723,52.65618],[1.28708,52.65618],[1.2871,52.65649],[1.28687,52.6565],[1.28688,52.65661]]]]}},
{ "type":"Feature","properties":{"osm_way_id":"1025477659","name":"Diamond Point","building":"warehouse"},"geometry":{"type":"MultiPolygon","coordinates":[[[[1.28207,52.66153],[1.28272,52.66153],[1.28269,52.66241],[1.28206,52.66241],[1.28207,52.66153]]]]}}
]
}
