{
"type": "FeatureCollection",
"features": [
{ "type":"Feature","properties":{"osm_id":"287570008","other":{"amenity":"parking","fee":"yes","parking":"surface"}}, "geometry":{"type":"Point","coordinates":[1.301,52.6333 ]}},
{ "type":"Feature","properties":{"osm_id":"301260664","name":"Chapelfield","other":{"access":"yes","addr:city":"Norwich","addr:country":"GB","addr:postcode":"NR2 1RU","amenity":"parking","capacity":"1000","capacity:disabled":"yes","fee":"yes","fee:amount:15:00-08:00":"£2.00 GBP","fee:amount:1_hour":"£1.20 GBP","fee:amount:24_hour":"£20.00 GBP","fee:amount:2_hour":"£2.40 GBP","fee:amount:3_hour":"£3.60 GBP","fee:amount:4_hour":"£4.80 GBP","fee:amount:6_hour":"£8.00 GBP","layer":"-1","maxheight":"2.2","maxspeed":"5 mph","opening_hours":"Mo-Sa 08:00-22:00; Su 08:00-20:00","operator":"intu Chapelfield","park_ride":"no","parking":"underground","toilets:wheelchair":"yes","wheelchair":"yes"}}, "geometry":{"type":"Point","coordinates":[1.28835,52.626 ]}},
{ "type":"Feature","properties":{"osm_id":"347320829","name":"Bignold School","other":{"amenity":"parking","capacity":"150","fee":"yes","opening_hours":"Sa 09:00-18:00","parking":"surface"}}, "geometry":{"type":"Point","coordinates":[1.28783,52.62484 ]}},
{ "type":"Feature","properties":{"osm_id":"418161292","highway":"crossing","other":{"crossing":"uncontrolled","crossing:island":"yes","tactile_paving":"yes"}}, "geometry":{"type":"Point","coordinates":[1.30743,52.62434 ]}},
{ "type":"Feature","properties":{"osm_id":"431144611","other":{"amenity":"parking_entrance"}}, "geometry":{"type":"Point","coordinates":[1.29328,52.63119 ]}},
{ "type":"Feature","properties":{"osm_id":"601106354","name":"St James' Hill Scenic Point","other":{"access":"yes","amenity":"parking"}}, "geometry":{"type":"Point","coordinates":[1.31434,52.63585 ]}},
{ "type":"Feature","properties":{"osm_id":"639645243","other":{"access":"yes","amenity":"parking","fee":"no","park_ride":"no","parking":"surface"}}, "geometry":{"type":"Point","coordinates":[1.31567,52.64169 ]}},
{ "type":"Feature","properties":{"osm_id":"674087325","other":{"amenity":"parking","capacity":"3","fee":"no","parking":"surface"}}, "geometry":{"type":"Point","coordinates":[1.2841,52.66396 ]}},
{ "type":"Feature","properties":{"osm_id":"674087333","other":{"amenity":"parking","capacity":"5","fee":"no","parking":"surface"}}, "geometry":{"type":"Point","coordinates":[1.28414,52.66415 ]}},
{ "type":"Feature","properties":{"osm_id":"674087499","other":{"amenity":"parking","fee":"no"}}, "geometry":{"type":"Point","coordinates":[1.28945,52.65885 ]}},
{ "type":"Feature","properties":{"osm_id":"674087502","other":{"amenity":"parking","fee":"no"}}, "geometry":{"type":"Point","coordinates":[1.28943,52.6593 ]}},
{ "type":"Feature","properties":{"osm_id":"674087919","other":{"amenity":"parking","capacity":"4","fee":"no","parking":"surface"}}, "geometry":{"type":"Point","coordinates":[1.28606,52.66359 ]}},
{ "type":"Feature","properties":{"osm_id":"674087929","other":{"amenity":"parking","capacity":"5","fee":"no","parking":"surface"}}, "geometry":{"type":"Point","coordinates":[1.28638,52.66356 ]}},
{ "type":"Feature","properties":{"osm_id":"674087970","other":{"amenity":"parking","capacity":"5","fee":"no","parking":"surface"}}, "geometry":{"type":"Point","coordinates":[1.28708,52.6635 ]}},
{ "type":"Feature","properties":{"osm_id":"674087971","other":{"amenity":"parking","capacity":"7","fee":"no","parking":"surface"}}, "geometry":{"type":"Point","coordinates":[1.28681,52.66352 ]}},
{ "type":"Feature","properties":{"osm_id":"697035684","name":"Holding bays","other":{"access":"private","amenity":"parking","capacity":"3","capacity:bus":"3","fee":"no","parking":"surface"}}, "geometry":{"type":"Point","coordinates":[1.29288,52.62387 ]}},
{ "type":"Feature","properties":{"osm_id":"1026725891","other":{"access":"yes","amenity":"parking","capacity":"13","fee":"no","no_return":"1 hour","opening_hours":"Mo-Sa 08:00-17:30","parking":"surface"}}, "geometry":{"type":"Point","coordinates":[1.28304,52.62491 ]}},
{ "type":"Feature","properties":{"osm_id":"1027128654","other":{"amenity":"parking","capacity":"2","capacity:disabled":"2","fee":"no","parking":"surface"}}, "geometry":{"type":"Point","coordinates":[1.23547,52.62035 ]}},
{ "type":"Feature","properties":{"osm_id":"1027128676","other":{"amenity":"parking","capacity":"2","capacity:disabled":"2","fee":"no","parking":"surface"}}, "geometry":{"type":"Point","coordinates":[1.2347,52.62076 ]}},
{ "type":"Feature","properties":{"osm_id":"1042905015","other":{"amenity":"parking","capacity":"12","capacity:disabled":"1","fee":"no","parking":"surface"}}, "geometry":{"type":"Point","coordinates":[1.24759,52.629 ]}},
{ "type":"Feature","properties":{"osm_id":"1077208603","other":{"kerb":"lowered"}}, "geometry":{"type":"Point","coordinates":[1.25449,52.63308 ]}},
{ "type":"Feature","properties":{"osm_id":"1077208672","other":{"kerb":"lowered"}}, "geometry":{"type":"Point","coordinates":[1.25467,52.63316 ]}},
{ "type":"Feature","properties":{"osm_id":"1077208745","other":{"kerb":"lowered"}}, "geometry":{"type":"Point","coordinates":[1.25487,52.63308 ]}},
{ "type":"Feature","properties":{"osm_id":"1083579204","other":{"amenity":"parking","capacity":"21"}}, "geometry":{"type":"Point","coordinates":[1.32647,52.6317 ]}},
{ "type":"Feature","properties":{"osm_id":"1133975030","man_made":"surveillance","other":{"surveillance":"outdoor"}}, "geometry":{"type":"Point","coordinates":[1.23367,52.62234 ]}},
{ "type":"Feature","properties":{"osm_id":"1193398273","other":{"amenity":"parking_entrance"}}, "geometry":{"type":"Point","coordinates":[1.29328,52.63126 ]}},
{ "type":"Feature","properties":{"osm_id":"1359963155","other":{"amenity":"parking"}}, "geometry":{"type":"Point","coordinates":[1.28252,52.63242 ]}},
{ "type":"Feature","properties":{"osm_id":"1422396353","other":{"check_date":"2021-10-02","description":"start\/end of the Worcestershire Way","information":"map","tourism":"information"}}, "geometry":{"type":"Point","coordinates":[-2.32971,52.11135 ]}},
{ "type":"Feature","properties":{"osm_id":"2061747996","other":{"amenity":"bench","backrest":"yes","material":"wood","seats":"4"}}, "geometry":{"type":"Point","coordinates":[1.26166,52.63099 ]}},
{ "type":"Feature","properties":{"osm_id":"2061748000","other":{"historic":"memorial","inscription":"1914 -1918 and 1939 - 1945","memorial":"war_memorial"}}, "geometry":{"type":"Point","coordinates":[1.26182,52.63107 ]}},
{ "type":"Feature","properties":{"osm_id":"2879539074","other":{"access":"yes","amenity":"parking","parking":"surface"}}, "geometry":{"type":"Point","coordinates":[1.29069,52.64596 ]}},
{ "type":"Feature","properties":{"osm_id":"2882361745","other":{"access":"yes","amenity":"parking","parking":"surface"}}, "geometry":{"type":"Point","coordinates":[1.29045,52.64596 ]}},
{ "type":"Feature","properties":{"osm_id":"3862586926","other":{"inscription":"Norwich Fish Market occupied this site from 1914 to 1980 \/ This plaque was taken from the wall when the buildings were demolished to build the car park."}}, "geometry":{"type":"Point","coordinates":[1.30285,52.62775 ]}},
{ "type":"Feature","properties":{"osm_id":"4422266885","other":{"inscription":"City of Norwich \/ This FishMarket was opened in substitution for that in St.Peter Street. \/ 24th December 1913 \/ Councillor Charles H.Finch. \/ Chairman of the Markets Committee \/ Arnold H.Miller. \/ Town Clerk. \/ Arthur E.Collins.Minst.CE. \/ City Engineer."}}, "geometry":{"type":"Point","coordinates":[1.30284,52.62774 ]}},
{ "type":"Feature","properties":{"osm_id":"5219677914","ref":"CM2076","other":{"amenity":"charging_station","amperage":"32","authentication:membership_card":"yes","capacity":"2","car":"yes","fee":"no","opening_hours":"Mo-Su 06:00-02:00","operator":"ChargeMaster","serial_number":"3196","socket:type2":"2","voltage":"230","website":"https:\/\/chargemasterplc.com\/"}}, "geometry":{"type":"Point","coordinates":[1.23937,52.62629 ]}},
{ "type":"Feature","properties":{"osm_id":"5352779623","other":{"amenity":"parking","fee":"Mo-Sa 07:30-18:30","maxstay":"1 hour","parking":"on_street"}}, "geometry":{"type":"Point","coordinates":[1.29677,52.63066 ]}},
{ "type":"Feature","properties":{"osm_id":"6554658580","other":{"access":"yes","amenity":"parking","fee":"no","parking":"layby"}}, "geometry":{"type":"Point","coordinates":[1.28415,52.60832 ]}},
{ "type":"Feature","properties":{"osm_id":"6554658582","other":{"access":"yes","amenity":"parking","fee":"no","parking":"layby"}}, "geometry":{"type":"Point","coordinates":[1.28435,52.60859 ]}},
{ "type":"Feature","properties":{"osm_id":"8443930136","other":{"natural":"tree"}}, "geometry":{"type":"Point","coordinates":[-1.73558,52.56098 ]}},
{ "type":"Feature","properties":{"osm_id":"8463372694","man_made":"surveillance","other":{"surveillance":"outdoor"}}, "geometry":{"type":"Point","coordinates":[1.23934,52.62213 ]}},
{ "type":"Feature","properties":{"osm_id":"9238152762","name":"Lime Kiln Ruins","other":{"historic":"ruins","wikidata":"Q29490897"}}, "geometry":{"type":"Point","coordinates":[-5.28229,51.87024 ]}},
{ "type":"Feature","properties":{"osm_id":"9238152764","name":"Lime Kiln Ruins","other":{"historic":"ruins","wikidata":"Q29490899"}}, "geometry":{"type":"Point","coordinates":[-5.28314,51.87023 ]}},
{ "type":"Feature","properties":{"osm_id":"9531926656","name":"Gentlemans Walk (opposite Lloyds Bank)","other":{"access":"permit","amenity":"parking","capacity":"2","capacity:disabled":"2","description":"Accessed via Gaol Hill. In high demand often occupied. Consider alternative parking options eg Chantry car park, Assembly House or intu Chapelfield car parks (charges apply).","fee":"no","maxstay":"4 hour","no_return":"4 hour","note:maxstay":"4 hour limit. You must display your clock","operator":"Norwich City Council","parking":"lane","surface":"paved","website":"https:\/\/www.norwich.gov.uk\/directory_record\/826\/gentlemans_walk_opposite_lloyds_bank"}}, "geometry":{"type":"Point","coordinates":[1.29327,52.62875 ]}},
{ "type":"Feature","properties":{"osm_way_id":"4515773","name":"Courthouse Street Car Park","amenity":"parking","other":{"access":"yes","description":"Municipal pay and display open-air parking","fee":"yes"}}, "geometry":{"type":"MultiPolygon","coordinates":[[[[-1.69345,53.90636],[-1.69348,53.90642],[-1.69342,53.90643],[-1.69338,53.90644],[-1.69342,53.90651],[-1.69344,53.90656],[-1.69342,53.9066],[-1.69347,53.90673],[-1.69347,53.90675],[-1.6931,53.90681],[-1.69303,53.90682],[-1.69292,53.9066],[-1.69287,53.90651],[-1.69283,53.9064],[-1.69288,53.9064],[-1.69288,53.90636],[-1.69328,53.90635],[-1.69332,53.90636],[-1.69345,53.90636]]]]}},
{ "type":"Feature","properties":{"osm_way_id":"4515785","amenity":"parking"},"geometry":{"type":"MultiPolygon","coordinates":[[[[-1.70143,53.90311],[-1.70137,53.90305],[-1.70126,53.90302],[-1.70123,53.90299],[-1.70148,53.90291],[-1.7016,53.90307],[-1.70143,53.90311]]]]}},
{ "type":"Feature","properties":{"osm_way_id":"26257308","name":"Saint Helens Wharf","amenity":"parking","other":{"access":"yes","capacity":"134","fee":"yes","parking":"surface"}}, "geometry":{"type":"MultiPolygon","coordinates":[[[[1.30302,52.63398],[1.30304,52.63409],[1.30303,52.63411],[1.303,52.63412],[1.30324,52.63457],[1.30337,52.63451],[1.30387,52.6343],[1.30378,52.6339],[1.3034,52.63393],[1.30338,52.63389],[1.30321,52.63391],[1.30318,52.63396],[1.30315,52.63396],[1.30302,52.63398]]]]}},
{ "type":"Feature","properties":{"osm_way_id":"27752427","name":"Rouen Road","amenity":"parking","other":{"capacity":"187","capacity:disabled":"4","fee":"yes","fee:amount:1_hour":"£1.40 GBP","fee:amount:2_hour":"£2.80 GBP","fee:amount:3_hour":"£4.20 GBP","fee:amount:conditional":"£2.20 GBP @ Mo-Sa,PH 18:30-05:00","fee:amount:maximum":"£5.40 GBP","operator":"Norwich City Council","park_ride":"no","parking":"surface"}}, "geometry":{"type":"MultiPolygon","coordinates":[[[[1.29901,52.62512],[1.29942,52.62524],[1.30032,52.62418],[1.2998,52.62417],[1.29901,52.62512]]]]}},
{ "type":"Feature","properties":{"osm_way_id":"27892580","name":"Castle Mall: Car Park 1","amenity":"parking","other":{"access":"customers","capacity":"710","capacity:disabled":"25","covered":"yes","fee":"yes","fee:amount:18:00-00:00":"£1.50 GBP","fee:amount:1_hour":"£1.10 GBP","fee:amount:2_hour":"£2.20 GBP","fee:amount:3_hour":"£3.30 GBP","fee:amount:4_hour":"£4.40 GBP","fee:amount:6_hour":"£8.00 GBP","fee:amount:8_hour":"£12.00 GBP","fee:amount:maximum":"£20.00 GBP","layer":"-1","lit":"yes","opening_hours":"Mo-Sa 08:00-00:00; Su 09:30-00:00","operator":"Castle Mall","parking":"underground","website":"https:\/\/castlemallnorwich.co.uk\/information\/parking.php","wheelchair":"designated","wheelchair:description":"25 spaces in car park 1, these can be found on level J and level L. Normal charges apply."}}, "geometry":{"type":"MultiPolygon","coordinates":[[[[1.29737,52.62825],[1.29742,52.62812],[1.29745,52.62807],[1.29746,52.62803],[1.2975,52.62794],[1.29759,52.62798],[1.29768,52.628],[1.29774,52.62798],[1.29777,52.62797],[1.29782,52.62798],[1.29787,52.62796],[1.29788,52.62792],[1.29808,52.62785],[1.2977,52.62744],[1.29744,52.62709],[1.29686,52.62714],[1.29651,52.62742],[1.29637,52.62781],[1.29711,52.62821],[1.29737,52.62825]]]]}},
{ "type":"Feature","properties":{"osm_way_id":"28050388","name":"The Forum Car Park","amenity":"parking","other":{"addr:city":"Norwich","addr:street":"Bethel Street","capacity":"204","capacity:disabled":"12","capacity:parent":"8","fee":"yes","fee:amount:17:30-00:00":"£2.50 GBP","fee:amount:per_hour:07:00-17:30":"£2 GBP","layer":"-1","maxheight":"2","opening_hours":"07:00-00:00; Dec 25-26 off","operator":"The Forum","park_ride":"no","parking":"underground","phone":"+44 1606727950","supervised":"yes","website":"https:\/\/theforumnorwich.co.uk\/visit-us\/plan-your-visit\/car-park"}}, "geometry":{"type":"MultiPolygon","coordinates":[[[[1.29044,52.62783],[1.2906,52.628],[1.29152,52.62788],[1.29141,52.62726],[1.29056,52.62746],[1.29037,52.62772],[1.2904,52.62776],[1.29044,52.62783]]]]}},
{ "type":"Feature","properties":{"osm_way_id":"28050389","name":"Chantry","amenity":"parking","other":{"access":"yes","addr:city":"Norwich","addr:country":"GB","addr:parentstreet":"Theatre Street","addr:postcode":"NR2 1RG","addr:street":"The Chantry","capacity":"90","fee":"yes","fee:amount:1_hour":"£2.00 GBP","fee:amount:2_hour":"£4.00 GBP","fee:amount:3_hour":"£6.00 GBP","fee:amount:4_hour":"£8.00 GBP","fee:amount:5_hour":"£8.50 GBP","fee:amount:conditional":"£2.20 GBP @ Mo-Sa,PH 18:30-05:00","fee:amount:maximum":"£15.00 GBP","operator":"Norwich City Council","park_ride":"no","parking":"surface"}}, "geometry":{"type":"MultiPolygon","coordinates":[[[[1.29139,52.62706],[1.29173,52.62698],[1.29185,52.62696],[1.29188,52.62694],[1.29181,52.62684],[1.2918,52.62682],[1.29195,52.62678],[1.29143,52.62641],[1.29136,52.62643],[1.29131,52.62644],[1.29121,52.62648],[1.29119,52.62648],[1.29109,52.62651],[1.29108,52.62664],[1.29113,52.62681],[1.2912,52.62694],[1.29126,52.62704],[1.29128,52.62708],[1.29139,52.62706]]]]}},
{ "type":"Feature","properties":{"osm_way_id":"30662948","name":"Riverside Car Park","amenity":"parking","building":"yes","other":{"access":"yes","addr:city":"Norwich","addr:country":"GB","addr:postcode":"NR1 1WT","addr:street":"Koblenz Avenue","capacity":"734","capacity:disabled":"54","charge":"20 GBP\/24hours;2 GBP\/2 hours;3 GBP\/3 hours;4 GBP\/4 hours; 5 GBP\/5 hours;12 GBP\/24 hours 'rail unvalidated';11 GBP\/24 hours 'rail validated'","fee":"yes","layer":"1","maxheight":"2.1","opening_hours":"24\/7","operator":"Riverside Entertainment","park_ride":"no","parking":"multi-storey"}}, "geometry":{"type":"MultiPolygon","coordinates":[[[[1.30513,52.62636],[1.30521,52.62632],[1.30526,52.62629],[1.30631,52.62568],[1.30613,52.62557],[1.306,52.62548],[1.30594,52.62544],[1.30489,52.62605],[1.30484,52.62608],[1.30476,52.62613],[1.30513,52.62636]]]]}},
{ "type":"Feature","properties":{"osm_way_id":"30663030","name":"Castle Mall Car Park 2","amenity":"parking","other":{"access":"customers","capacity":"81","fee":"yes","fee:amount:18:00-00:00":"£1.50 GBP","fee:amount:1_hour":"£1.10 GBP","fee:amount:2_hour":"£2.20 GBP","fee:amount:3_hour":"£3.30 GBP","fee:amount:4_hour":"£4.40 GBP","fee:amount:6_hour":"£8.00 GBP","fee:amount:8_hour":"£12.00 GBP","fee:amount:maximum":"£20.00 GBP","layer":"-1","lit":"yes","opening_hours":"Mo-Sa 08:00-00:00; Su 09:30-00:00","operator":"Castle Mall","parking":"underground","website":"https:\/\/castlemallnorwich.co.uk\/information\/parking.php"}}, "geometry":{"type":"MultiPolygon","coordinates":[[[[1.29566,52.62717],[1.29583,52.6271],[1.29588,52.62708],[1.29597,52.62705],[1.29603,52.62702],[1.29638,52.62689],[1.29641,52.62688],[1.29648,52.62685],[1.29654,52.62683],[1.29627,52.62657],[1.29539,52.62691],[1.29566,52.62717]]]]}},
{ "type":"Feature","properties":{"osm_way_id":"30663031","name":"Saint Andrews","amenity":"parking","building":"parking","other":{"addr:city":"Norwich","addr:country":"GB","addr:housename":"St Andrews multi-storey","addr:postcode":"NR3 3AT","addr:street":"Duke Street","capacity":"1084","fee":"yes","fee:amount:1_hour":"£1.80 GBP","fee:amount:2_hour":"£3.60 GBP","fee:amount:3_hour":"£5.40 GBP","fee:amount:conditional":"£2.20 GBP @ Mo-Sa,PH 18:30-05:00","fee:amount:maximum":"£6.00 GBP","maintenance":"salting","maxheight":"2.3","opening_hours":"24\/7","operator":"Norwich City Council","park_ride":"no","parking":"multi-storey","salting:ref":"NKE044","toilets":"yes","toilets:centralkey":"nks","toilets:changing_table":"limited","toilets:female":"yes","toilets:male":"yes","toilets:opening_hours":"365 days a year, up until 9pm","toilets:position":"located on level 1 next to the bridge entrance and stairs and lifts.","toilets:wheelchair":"yes"}}, "geometry":{"type":"MultiPolygon","coordinates":[[[[1.2935,52.63164],[1.29443,52.63166],[1.29447,52.63105],[1.29401,52.63104],[1.29401,52.63111],[1.294,52.63112],[1.29381,52.63112],[1.29328,52.6311],[1.29328,52.63119],[1.29328,52.63126],[1.29328,52.63137],[1.29351,52.63137],[1.2935,52.63164]]]]}},
{ "type":"Feature","properties":{"osm_way_id":"31016857","name":"Hanover Road","amenity":"parking","other":{"access":"permit","maxspeed":"20 mph","parking":"surface"}}, "geometry":{"type":"MultiPolygon","coordinates":[[[[1.2842,52.62098],[1.28417,52.62101],[1.28426,52.62105],[1.28441,52.62092],[1.28433,52.62089],[1.28431,52.62088],[1.2842,52.62098]]]]}},
{ "type":"Feature","properties":{"osm_way_id":"31165676","amenity":"parking","other":{"parking":"surface","surface":"asphalt"}}, "geometry":{"type":"MultiPolygon","coordinates":[[[[1.21102,52.64356],[1.21068,52.64356],[1.2107,52.64361],[1.21062,52.64363],[1.21072,52.64378],[1.21085,52.64375],[1.21084,52.64371],[1.21087,52.6437],[1.2109,52.64374],[1.21105,52.6437],[1.21104,52.64369],[1.21103,52.64366],[1.21102,52.6436],[1.21102,52.64356]]]]}},
{ "type":"Feature","properties":{"osm_way_id":"31290260","amenity":"parking","other":{"access":"private","surface":"paved"}}, "geometry":{"type":"MultiPolygon","coordinates":[[[[1.27551,52.61158],[1.27594,52.61148],[1.27611,52.61177],[1.27562,52.61189],[1.27544,52.6116],[1.27551,52.61158]]]]}},
{ "type":"Feature","properties":{"osm_way_id":"31469829","amenity":"parking","other":{"access":"yes","fee":"no","parking":"surface"}}, "geometry":{"type":"MultiPolygon","coordinates":[[[[1.24872,52.60769],[1.24869,52.60767],[1.24853,52.60758],[1.24843,52.60763],[1.24843,52.60763],[1.24839,52.60765],[1.24849,52.60771],[1.24853,52.60773],[1.24858,52.60776],[1.24874,52.60769],[1.24872,52.60769]]]]}},
{ "type":"Feature","properties":{"osm_way_id":"31979282","name":"Wilkins Court","amenity":"parking","other":{"access":"private","capacity":"10","fee":"no","lit":"sunset-00:00,05:00-sunrise UTC","parking":"surface","surface":"asphalt"}}, "geometry":{"type":"MultiPolygon","coordinates":[[[[1.23575,52.63862],[1.23577,52.63865],[1.23578,52.63867],[1.23581,52.63872],[1.23559,52.63877],[1.23555,52.63873],[1.23554,52.63872],[1.23551,52.63871],[1.23544,52.63873],[1.2354,52.63868],[1.23558,52.63865],[1.2356,52.63862],[1.23558,52.6386],[1.23565,52.63857],[1.23571,52.63856],[1.23575,52.63862]]]]}},
{ "type":"Feature","properties":{"osm_way_id":"31979283","amenity":"parking","other":{"access":"yes","capacity":"15","fee":"no","lit":"yes","parking":"surface","service":"driveway","surface":"asphalt"}}, "geometry":{"type":"MultiPolygon","coordinates":[[[[1.23343,52.63881],[1.23343,52.63881],[1.23337,52.63884],[1.23323,52.6389],[1.23318,52.63893],[1.23299,52.63879],[1.23316,52.63871],[1.23333,52.63877],[1.23337,52.63878],[1.23343,52.63881]]]]}},
{ "type":"Feature","properties":{"osm_way_id":"31979292","amenity":"parking","other":{"parking":"surface"}}, "geometry":{"type":"MultiPolygon","coordinates":[[[[1.24797,52.63355],[1.24797,52.63371],[1.24772,52.63371],[1.24772,52.63346],[1.24797,52.63346],[1.24797,52.63355]]]]}},
{ "type":"Feature","properties":{"osm_way_id":"32030924","amenity":"parking","other":{"fee":"no","parking":"surface","surface":"asphalt"}}, "geometry":{"type":"MultiPolygon","coordinates":[[[[1.28334,52.61183],[1.28326,52.61186],[1.28282,52.61197],[1.28296,52.61211],[1.28334,52.61197],[1.28337,52.61196],[1.28334,52.61193],[1.28333,52.61189],[1.28334,52.61183]]]]}},
{ "type":"Feature","properties":{"osm_way_id":"32229888","amenity":"parking"},"geometry":{"type":"MultiPolygon","coordinates":[[[[1.2634,52.63266],[1.26353,52.63268],[1.26347,52.63279],[1.2634,52.63275],[1.26336,52.63273],[1.26337,52.63271],[1.2634,52.63266]]]]}},
{ "type":"Feature","properties":{"osm_way_id":"32229904","amenity":"parking"},"geometry":{"type":"MultiPolygon","coordinates":[[[[1.2629,52.63228],[1.26304,52.6323],[1.26313,52.63211],[1.26291,52.63207],[1.2629,52.63209],[1.26287,52.63215],[1.26292,52.63216],[1.26286,52.63227],[1.2629,52.63228]]]]}},
{ "type":"Feature","properties":{"osm_way_id":"32954601","amenity":"parking","other":{"fee":"no","parking":"surface","surface":"asphalt"}}, "geometry":{"type":"MultiPolygon","coordinates":[[[[1.24868,52.63976],[1.24864,52.63972],[1.24836,52.63983],[1.24841,52.63987],[1.24868,52.63976]]]]}},
{ "type":"Feature","properties":{"osm_way_id":"32954602","amenity":"parking","other":{"fee":"no","parking":"surface","surface":"asphalt"}}, "geometry":{"type":"MultiPolygon","coordinates":[[[[1.24803,52.63997],[1.24808,52.64001],[1.24782,52.64012],[1.24777,52.64008],[1.24803,52.63997]]]]}},
{ "type":"Feature","properties":{"osm_way_id":"32954613","amenity":"parking","other":{"maxspeed":"20 mph","service":"driveway"}}, "geometry":{"type":"MultiPolygon","coordinates":[[[[1.2396,52.64277],[1.23971,52.64274],[1.23987,52.64293],[1.23976,52.64296],[1.23973,52.64297],[1.23968,52.64291],[1.23957,52.64278],[1.2396,52.64277]]]]}},
{ "type":"Feature","properties":{"osm_way_id":"32954618","amenity":"parking","other":{"fee":"no","parking":"surface","surface":"asphalt"}}, "geometry":{"type":"MultiPolygon","coordinates":[[[[1.24755,52.63875],[1.24753,52.63872],[1.24749,52.63865],[1.24726,52.63868],[1.24724,52.63869],[1.24726,52.63879],[1.24731,52.63878],[1.24736,52.63877],[1.24744,52.63875],[1.24749,52.63875],[1.24755,52.63875]]]]}},
{ "type":"Feature","properties":{"osm_way_id":"33179703","amenity":"parking","other":{"access":"customers","fee":"no","parking":"surface"}}, "geometry":{"type":"MultiPolygon","coordinates":[[[[1.23569,52.64128],[1.23569,52.64134],[1.23629,52.64132],[1.23641,52.64132],[1.23636,52.64125],[1.2363,52.6412],[1.23624,52.64124],[1.23611,52.64125],[1.23592,52.64114],[1.23592,52.64112],[1.23595,52.64109],[1.23593,52.64108],[1.23599,52.64105],[1.23596,52.64103],[1.23599,52.64101],[1.23599,52.64099],[1.23608,52.64094],[1.23628,52.64093],[1.23644,52.64103],[1.23672,52.64094],[1.23667,52.64066],[1.2366,52.64068],[1.2362,52.6408],[1.23603,52.64085],[1.23592,52.64091],[1.23585,52.64095],[1.23581,52.64098],[1.23574,52.64108],[1.23571,52.64119],[1.23569,52.64128]]]]}},
{ "type":"Feature","properties":{"osm_way_id":"33424410","amenity":"parking","other":{"access":"customers","fee":"no","parking":"surface"}}, "geometry":{"type":"MultiPolygon","coordinates":[[[[1.27802,52.5989],[1.27791,52.59891],[1.27795,52.59903],[1.27817,52.59901],[1.27814,52.59892],[1.27808,52.59893],[1.27807,52.59889],[1.27802,52.5989]]]]}},
{ "type":"Feature","properties":{"osm_way_id":"33424412","amenity":"parking","other":{"access":"customers","fee":"no","parking":"surface"}}, "geometry":{"type":"MultiPolygon","coordinates":[[[[1.27792,52.59871],[1.27803,52.5987],[1.27809,52.59882],[1.278,52.59883],[1.2779,52.59884],[1.27786,52.59872],[1.27792,52.59871]]]]}},
{ "type":"Feature","properties":{"osm_way_id":"33617609","name":"Ninham Street","amenity":"parking","other":{"access":"private"}}, "geometry":{"type":"MultiPolygon","coordinates":[[[[1.29679,52.61845],[1.29655,52.61849],[1.29659,52.61856],[1.29685,52.61851],[1.29692,52.6185],[1.29691,52.61848],[1.29682,52.61846],[1.29681,52.61844],[1.29679,52.61845]]]]}},
{ "type":"Feature","properties":{"osm_way_id":"33617639","amenity":"parking","other":{"lit":"sunset-00:00,05:00-sunrise UTC"}}, "geometry":{"type":"MultiPolygon","coordinates":[[[[1.30419,52.61323],[1.30431,52.6132],[1.30445,52.61338],[1.30433,52.61342],[1.30424,52.61345],[1.30419,52.61332],[1.30414,52.61325],[1.30419,52.61323]]]]}},
{ "type":"Feature","properties":{"osm_way_id":"33617662","amenity":"parking"},"geometry":{"type":"MultiPolygon","coordinates":[[[[1.29099,52.61916],[1.29098,52.61918],[1.29054,52.61923],[1.29051,52.61906],[1.291,52.61914],[1.29099,52.61916]]]]}},
{ "type":"Feature","properties":{"osm_way_id":"33617664","amenity":"parking"},"geometry":{"type":"MultiPolygon","coordinates":[[[[1.29253,52.62024],[1.29247,52.62018],[1.29266,52.62013],[1.29276,52.62026],[1.29261,52.62033],[1.29259,52.62034],[1.29255,52.62036],[1.2925,52.62032],[1.29253,52.62024]]]]}},
{ "type":"Feature","properties":{"osm_way_id":"33617828","amenity":"parking","other":{"access":"private","fee":"no"}}, "geometry":{"type":"MultiPolygon","coordinates":[[[[1.29068,52.62151],[1.29074,52.62156],[1.2907,52.62158],[1.29063,52.62152],[1.29068,52.62151]]]]}},
{ "type":"Feature","properties":{"osm_way_id":"33617922","amenity":"parking","other":{"access":"private","fee":"no","lit":"yes"}}, "geometry":{"type":"MultiPolygon","coordinates":[[[[1.29058,52.62176],[1.29053,52.62179],[1.29026,52.62159],[1.29054,52.62146],[1.29068,52.62139],[1.29073,52.62143],[1.29038,52.6216],[1.29058,52.62176]]]]}},
{ "type":"Feature","properties":{"osm_way_id":"33777869","name":"Scarles Yard","amenity":"parking","building":"parking","other":{"building:colour":"grey","building:levels":"2","capacity":"823","fee":"yes","opening_hours":"PH 08:00-18:00; Sa 07:00-18:00","operator":"Aviva","parking":"multi-storey","ref:NPLG:UPRN:1":"200004364596","roof:colour":"grey","roof:shape":"flat"}}, "geometry":{"type":"MultiPolygon","coordinates":[[[[1.29512,52.62083],[1.29591,52.6206],[1.29664,52.62146],[1.29658,52.62148],[1.29637,52.62155],[1.29616,52.62161],[1.2961,52.62163],[1.29605,52.62158],[1.29582,52.62165],[1.29514,52.62085],[1.29512,52.62083]]]]}},
{ "type":"Feature","properties":{"osm_way_id":"34127811","amenity":"parking","other":{"access":"customers","parking":"surface"}}, "geometry":{"type":"MultiPolygon","coordinates":[[[[1.28536,52.63264],[1.28555,52.63259],[1.28539,52.6324],[1.28475,52.63259],[1.28478,52.63262],[1.28489,52.63275],[1.28496,52.63273],[1.28493,52.6327],[1.28518,52.63263],[1.28524,52.63271],[1.28531,52.63269],[1.28528,52.63265],[1.28536,52.63264]]]]}},
{ "type":"Feature","properties":{"osm_way_id":"34943183","name":"Botolph Street","amenity":"parking","other":{"capacity":"160","fee":"yes","parking":"surface","surface":"unpaved"}}, "geometry":{"type":"MultiPolygon","coordinates":[[[[1.29398,52.6366],[1.29395,52.63648],[1.29393,52.6364],[1.2937,52.63588],[1.29364,52.63575],[1.2934,52.63577],[1.29341,52.63586],[1.29325,52.63587],[1.29332,52.63616],[1.29304,52.63619],[1.2932,52.63666],[1.29335,52.63673],[1.29351,52.63677],[1.29398,52.6366]]]]}},
{ "type":"Feature","properties":{"osm_way_id":"37073028","name":"Paradise Place","amenity":"parking","other":{"access":"private","maxspeed":"20 mph"}}, "geometry":{"type":"MultiPolygon","coordinates":[[[[1.29831,52.62517],[1.29821,52.62517],[1.29816,52.6252],[1.29815,52.62557],[1.29823,52.62559],[1.29827,52.62559],[1.29832,52.62551],[1.29834,52.62522],[1.29833,52.62517],[1.29831,52.62517]]]]}},
{ "type":"Feature","properties":{"osm_way_id":"37333469","amenity":"parking","other":{"fee":"no","parking":"surface"}}, "geometry":{"type":"MultiPolygon","coordinates":[[[[1.2704,52.6378],[1.27039,52.6379],[1.27086,52.63794],[1.27083,52.63762],[1.27071,52.63761],[1.27065,52.63761],[1.27062,52.63763],[1.27061,52.6377],[1.27044,52.63769],[1.27043,52.63777],[1.2704,52.63777],[1.2704,52.6378]]]]}},
{ "type":"Feature","properties":{"osm_way_id":"38868413","amenity":"parking","other":{"access":"yes","fee":"no","parking":"surface"}}, "geometry":{"type":"MultiPolygon","coordinates":[[[[1.26731,52.64795],[1.2673,52.64819],[1.26748,52.64818],[1.26806,52.64788],[1.26779,52.64758],[1.26732,52.64781],[1.26731,52.64795]]]]}},
{ "type":"Feature","properties":{"osm_way_id":"38868415","amenity":"parking","other":{"lit":"sunset-00:00,05:00-sunrise UTC"}}, "geometry":{"type":"MultiPolygon","coordinates":[[[[1.27271,52.6443],[1.27283,52.64431],[1.27283,52.64428],[1.27287,52.64416],[1.27275,52.64415],[1.27271,52.6443]]]]}},
{ "type":"Feature","properties":{"osm_way_id":"40269464","amenity":"parking"},"geometry":{"type":"MultiPolygon","coordinates":[[[[1.27312,52.64039],[1.27331,52.64038],[1.27277,52.64006],[1.27266,52.64004],[1.27256,52.64032],[1.27294,52.64037],[1.27293,52.64039],[1.27305,52.64041],[1.27312,52.64039]]]]}},
{ "type":"Feature","properties":{"osm_way_id":"40269478","amenity":"parking"},"geometry":{"type":"MultiPolygon","coordinates":[[[[1.27327,52.64074],[1.27309,52.64082],[1.27327,52.64098],[1.27346,52.64091],[1.27356,52.64097],[1.27354,52.64104],[1.27373,52.64106],[1.27382,52.64086],[1.27338,52.64081],[1.27329,52.64073],[1.27327,52.64074]]]]}},
{ "type":"Feature","properties":{"osm_way_id":"40269496","amenity":"parking","other":{"surface":"unpaved"}}, "geometry":{"type":"MultiPolygon","coordinates":[[[[1.27133,52.64051],[1.2713,52.64059],[1.27096,52.64054],[1.27101,52.64039],[1.27136,52.64044],[1.27133,52.64051]]]]}},
{ "type":"Feature","properties":{"osm_way_id":"47153675","amenity":"parking","other":{"fee":"no","parking":"surface","surface":"asphalt"}}, "geometry":{"type":"MultiPolygon","coordinates":[[[[1.308,52.63551],[1.30807,52.63564],[1.30867,52.6355],[1.30866,52.63545],[1.30849,52.63543],[1.30847,52.6354],[1.30819,52.63547],[1.308,52.63551]]]]}},
{ "type":"Feature","properties":{"osm_way_id":"47153691","amenity":"parking","other":{"fee":"no","parking":"surface","surface":"asphalt"}}, "geometry":{"type":"MultiPolygon","coordinates":[[[[1.30913,52.63525],[1.30879,52.63533],[1.30881,52.63536],[1.30882,52.63537],[1.30916,52.63529],[1.30915,52.63529],[1.30913,52.63525]]]]}},
{ "type":"Feature","properties":{"osm_way_id":"47153709","amenity":"parking","other":{"fee":"no","parking":"surface","surface":"asphalt"}}, "geometry":{"type":"MultiPolygon","coordinates":[[[[1.30754,52.63561],[1.3072,52.63569],[1.30724,52.63574],[1.30757,52.63565],[1.30754,52.63561]]]]}},
{ "type":"Feature","properties":{"osm_way_id":"47153751","amenity":"parking","other":{"fee":"no","parking":"surface","surface":"asphalt"}}, "geometry":{"type":"MultiPolygon","coordinates":[[[[1.30687,52.63593],[1.30651,52.63604],[1.30647,52.63598],[1.30641,52.63592],[1.30677,52.63581],[1.30682,52.63587],[1.30687,52.63593]]]]}},
{ "type":"Feature","properties":{"osm_way_id":"47154016","amenity":"parking","other":{"access":"yes","fee":"no","park_ride":"no","parking":"surface"}}, "geometry":{"type":"MultiPolygon","coordinates":[[[[1.32008,52.6444],[1.31998,52.64443],[1.31993,52.64447],[1.31981,52.64455],[1.31975,52.64453],[1.31962,52.64447],[1.31967,52.64438],[1.31968,52.64435],[1.31973,52.64437],[1.3198,52.64431],[1.31979,52.64427],[1.31986,52.6442],[1.32016,52.64427],[1.32016,52.64429],[1.32008,52.6444]]]]}},
{ "type":"Feature","properties":{"osm_way_id":"53274483","amenity":"parking"},"geometry":{"type":"MultiPolygon","coordinates":[[[[1.29073,52.6603],[1.29072,52.66032],[1.2907,52.66042],[1.29069,52.66047],[1.29081,52.66048],[1.2909,52.66049],[1.29094,52.66032],[1.29085,52.66031],[1.29073,52.6603]]]]}},
{ "type":"Feature","properties":{"osm_way_id":"53274485","amenity":"parking"},"geometry":{"type":"MultiPolygon","coordinates":[[[[1.29078,52.65983],[1.29074,52.66],[1.29094,52.66001],[1.29094,52.66],[1.29097,52.65985],[1.29085,52.65984],[1.29078,52.65983]]]]}},
{ "type":"Feature","properties":{"osm_way_id":"53274533","amenity":"parking"},"geometry":{"type":"MultiPolygon","coordinates":[[[[1.29056,52.66064],[1.29079,52.66052],[1.29087,52.66056],[1.29064,52.66069],[1.29056,52.66064]]]]}},
{ "type":"Feature","properties":{"osm_way_id":"76738385","amenity":"parking","other":{"access":"private","park_ride":"no","parking":"surface"}}, "geometry":{"type":"MultiPolygon","coordinates":[[[[1.29758,52.62497],[1.29738,52.62535],[1.29733,52.62561],[1.29739,52.62561],[1.29745,52.62562],[1.2975,52.62541],[1.29741,52.62541],[1.29743,52.62534],[1.29751,52.62535],[1.29753,52.62526],[1.2979,52.62529],[1.29782,52.62563],[1.29794,52.62564],[1.29815,52.62601],[1.2981,52.62602],[1.29804,52.62588],[1.29801,52.62588],[1.29787,52.62587],[1.29785,52.62596],[1.29791,52.62597],[1.29798,52.62597],[1.29797,52.626],[1.2979,52.62599],[1.29782,52.62637],[1.29788,52.62637],[1.29816,52.62623],[1.29818,52.62612],[1.29822,52.62609],[1.29826,52.62606],[1.29799,52.62556],[1.29799,52.62507],[1.29789,52.62504],[1.29783,52.62502],[1.29757,52.62494],[1.29733,52.62486],[1.29712,52.62488],[1.29688,52.62506],[1.29736,52.62515],[1.29741,52.62514],[1.29747,52.62509],[1.29755,52.62497],[1.29758,52.62497]]]]}},
{ "type":"Feature","properties":{"osm_way_id":"78609406","name":"Main Visitors' Car Park","amenity":"parking","other":{"fee":"yes","parking":"surface"}}, "geometry":{"type":"MultiPolygon","coordinates":[[[[1.24434,52.62307],[1.24435,52.62299],[1.2434,52.62292],[1.24339,52.62296],[1.2426,52.62291],[1.24259,52.62293],[1.24245,52.62293],[1.24244,52.62294],[1.24172,52.62289],[1.24168,52.62289],[1.24167,52.62295],[1.24126,52.62299],[1.2412,52.62302],[1.24119,52.62308],[1.2412,52.62343],[1.24119,52.62348],[1.24325,52.62364],[1.24349,52.62368],[1.24411,52.62373],[1.24415,52.62352],[1.24472,52.62355],[1.24474,52.62344],[1.24482,52.62344],[1.24486,52.6232],[1.24465,52.62319],[1.24467,52.62307],[1.2447,52.62305],[1.24451,52.62303],[1.24448,52.62308],[1.24434,52.62307]]]]}},
{ "type":"Feature","properties":{"osm_way_id":"80409515","name":"John Lewis Car Park","amenity":"parking","building":"yes","other":{"access":"yes","capacity":"650","fee":"yes","operator":"John Lewis","parking":"multi-storey","source:building":"OS_OpenData_StreetView"}}, "geometry":{"type":"MultiPolygon","coordinates":[[[[1.29623,52.6245],[1.29577,52.62458],[1.2957,52.62445],[1.29562,52.62428],[1.29648,52.6235],[1.29688,52.62366],[1.29616,52.62433],[1.29619,52.6244],[1.29623,52.6245]]]]}},
{ "type":"Feature","properties":{"osm_way_id":"88682754","amenity":"parking","other":{"capacity":"53","capacity:disabled":"2","fee":"no","parking":"surface"}}, "geometry":{"type":"MultiPolygon","coordinates":[[[[1.22222,52.6416],[1.2221,52.64162],[1.22186,52.64165],[1.22174,52.64166],[1.22183,52.64195],[1.22209,52.64192],[1.22226,52.64189],[1.22232,52.64189],[1.22222,52.6416]]]]}},
{ "type":"Feature","properties":{"osm_way_id":"92909685","amenity":"parking","other":{"fee":"no","parking":"surface","surface":"brick_weave"}}, "geometry":{"type":"MultiPolygon","coordinates":[[[[1.25449,52.63316],[1.25467,52.63316],[1.25487,52.63316],[1.25487,52.63308],[1.25487,52.63301],[1.25449,52.63301],[1.25449,52.63308],[1.25449,52.63316]]]]}},
{ "type":"Feature","properties":{"osm_way_id":"97836893","name":"Central","amenity":"parking","other":{"parking":"surface"}}, "geometry":{"type":"MultiPolygon","coordinates":[[[[1.23588,52.62119],[1.23586,52.6214],[1.23582,52.62142],[1.2357,52.62142],[1.23569,52.62144],[1.2354,52.62143],[1.23509,52.62142],[1.23497,52.6214],[1.23492,52.62136],[1.23504,52.6213],[1.235,52.62125],[1.23509,52.62122],[1.23518,52.6212],[1.23525,52.62119],[1.23535,52.62118],[1.23545,52.62118],[1.23556,52.62118],[1.23569,52.62119],[1.23588,52.62119]]]]}},
{ "type":"Feature","properties":{"osm_way_id":"98347978","amenity":"parking","other":{"access":"private"}}, "geometry":{"type":"MultiPolygon","coordinates":[[[[1.24093,52.62043],[1.24117,52.62059],[1.24123,52.62056],[1.241,52.6204],[1.24093,52.62043]]]]}},
{ "type":"Feature","properties":{"osm_way_id":"98347982","amenity":"parking","other":{"access":"private"}}, "geometry":{"type":"MultiPolygon","coordinates":[[[[1.24145,52.62061],[1.24151,52.62058],[1.24083,52.62011],[1.24076,52.62014],[1.24145,52.62061]]]]}},
{ "type":"Feature","properties":{"osm_way_id":"99018580","name":"West Car Park","amenity":"parking","other":{"fee":"yes","parking":"surface"}}, "geometry":{"type":"MultiPolygon","coordinates":[[[[1.23313,52.62235],[1.23331,52.62236],[1.23331,52.62241],[1.23338,52.62241],[1.23367,52.62239],[1.23367,52.62234],[1.23388,52.62233],[1.23389,52.62239],[1.23455,52.62236],[1.23503,52.62232],[1.23554,52.62228],[1.23599,52.62223],[1.2365,52.62221],[1.23686,52.62221],[1.23684,52.62212],[1.23685,52.62207],[1.2365,52.62207],[1.23558,52.62213],[1.23558,52.62216],[1.23537,52.6222],[1.23535,52.62215],[1.23537,52.62202],[1.2353,52.62202],[1.23532,52.62197],[1.23424,52.62193],[1.23421,52.62227],[1.23376,52.62227],[1.23367,52.62226],[1.23368,52.6221],[1.23294,52.62206],[1.23292,52.62233],[1.23313,52.62235]]]]}},
{ "type":"Feature","properties":{"osm_way_id":"100655894","amenity":"parking","other":{"access":"private"}}, "geometry":{"type":"MultiPolygon","coordinates":[[[[1.29009,52.636],[1.29029,52.63603],[1.29025,52.63613],[1.29005,52.63611],[1.29009,52.636]]]]}},
{ "type":"Feature","properties":{"osm_way_id":"100655903","name":"Saint Crispins","amenity":"parking","other":{"access":"yes","addr:city":"Norwich","addr:country":"GB","addr:postcode":"NR3 3DN","addr:street":"Chatham Street","capacity":"80","fee":"yes","fee:amount:1_hour":"£1.30 GBP","fee:amount:2_hour":"£2.60 GBP","fee:amount:3_hour":"£3.90 GBP","fee:amount:conditional":"£2.20 GBP @ Mo-Sa,PH 18:30-05:00","fee:amount:maximum":"£4.40 GBP","opening_hours":"24\/7","operator":"Norwich City Council","park_ride":"no","parking":"surface"}}, "geometry":{"type":"MultiPolygon","coordinates":[[[[1.29137,52.63545],[1.2917,52.63545],[1.29186,52.63547],[1.29183,52.63592],[1.29135,52.63593],[1.29136,52.63581],[1.29137,52.63545]]]]}},
{ "type":"Feature","properties":{"osm_way_id":"100660105","amenity":"parking","other":{"access":"private"}}, "geometry":{"type":"MultiPolygon","coordinates":[[[[1.29508,52.63724],[1.29558,52.63711],[1.29562,52.63711],[1.29565,52.63714],[1.29567,52.63716],[1.29566,52.6372],[1.29561,52.63727],[1.29556,52.63736],[1.29552,52.63744],[1.29552,52.6375],[1.2952,52.63753],[1.29513,52.63754],[1.29508,52.63724]]]]}},
{ "type":"Feature","properties":{"osm_way_id":"100660108","name":"Anglia Square","amenity":"parking","other":{"access":"yes","capacity":"138","capacity:disabled":"5","fee":"yes","parking":"surface","url":"http:\/\/www.rcpparking.com\/car_parks\/park\/5"}}, "geometry":{"type":"MultiPolygon","coordinates":[[[[1.29454,52.63718],[1.29449,52.63725],[1.29436,52.63727],[1.29427,52.63727],[1.29419,52.63717],[1.294,52.63702],[1.29383,52.63691],[1.29374,52.63686],[1.29378,52.63684],[1.2942,52.63666],[1.29451,52.6366],[1.29467,52.63676],[1.29472,52.63676],[1.29473,52.63692],[1.29459,52.63698],[1.29457,52.63702],[1.29456,52.63704],[1.29456,52.63709],[1.29456,52.63713],[1.29454,52.63718]]]]}},
{ "type":"Feature","properties":{"osm_way_id":"100719572","name":"Sportspark","amenity":"parking","other":{"access":"customers","capacity":"160","capacity:disabled":"8","fee":"no","park_ride":"no","parking":"surface"}}, "geometry":{"type":"MultiPolygon","coordinates":[[[[1.24058,52.62501],[1.24049,52.6256],[1.24053,52.62568],[1.24051,52.6258],[1.24042,52.6258],[1.24029,52.6266],[1.24016,52.62731],[1.24046,52.62733],[1.24069,52.6257],[1.24107,52.62571],[1.24108,52.62504],[1.24058,52.62501]]]]}},
{ "type":"Feature","properties":{"osm_way_id":"101270209","amenity":"parking","other":{"access":"private"}}, "geometry":{"type":"MultiPolygon","coordinates":[[[[1.29288,52.63438],[1.29356,52.63436],[1.29355,52.63449],[1.29291,52.63454],[1.2929,52.63446],[1.29288,52.63438]]]]}},
{ "type":"Feature","properties":{"osm_way_id":"101804315","amenity":"parking","other":{"access":"private"}}, "geometry":{"type":"MultiPolygon","coordinates":[[[[1.2607,52.63315],[1.26091,52.63317],[1.26087,52.63337],[1.26067,52.63337],[1.2607,52.63315]]]]}},
{ "type":"Feature","properties":{"osm_way_id":"101804320","name":"Main Car Park","amenity":"parking","other":{"fee":"no","operator":"Norfolk Primary Care Trust","parking":"surface"}}, "geometry":{"type":"MultiPolygon","coordinates":[[[[1.26444,52.6355],[1.26507,52.63545],[1.26498,52.63483],[1.26504,52.63472],[1.26505,52.63465],[1.26504,52.6345],[1.265,52.63422],[1.2643,52.63414],[1.26416,52.63451],[1.26435,52.63453],[1.26432,52.63462],[1.2644,52.63463],[1.26436,52.63478],[1.26425,52.63477],[1.26424,52.63493],[1.26418,52.63507],[1.26428,52.6354],[1.26433,52.63549],[1.26444,52.6355]]]]}},
{ "type":"Feature","properties":{"osm_way_id":"101843244","amenity":"parking"},"geometry":{"type":"MultiPolygon","coordinates":[[[[1.25859,52.63413],[1.25877,52.63413],[1.2589,52.63413],[1.25891,52.63438],[1.25891,52.63445],[1.25903,52.63445],[1.25901,52.63401],[1.25859,52.63401],[1.25859,52.63413]]]]}},
{ "type":"Feature","properties":{"osm_way_id":"101978505","name":"Magdalen Street","amenity":"parking","other":{"addr:city":"Norwich","addr:country":"GB","addr:postcode":"NR3 1SP","addr:street":"St Saviours Lane","capacity":"206","capacity:disabled":"yes","fee":"yes","fee:amount:1_hour":"£1.40 GBP","fee:amount:2_hour":"£2.80 GBP","fee:amount:3_hour":"£4.20 GBP","fee:amount:conditional":"£2.20 GBP @ Mo-Sa,PH 18:30-05:00","fee:amount:maximum":"£5.20 GBP","opening_hours":"24\/7","operator":"Norwich City Council","park_ride":"no","parking":"surface","surface":"paved"}}, "geometry":{"type":"MultiPolygon","coordinates":[[[[1.29793,52.63517],[1.29802,52.63518],[1.29806,52.63522],[1.29805,52.63525],[1.29804,52.63529],[1.29799,52.63551],[1.29806,52.63551],[1.29816,52.63553],[1.29818,52.63548],[1.29843,52.6355],[1.29837,52.63567],[1.29765,52.63556],[1.29722,52.63549],[1.29723,52.63545],[1.29719,52.63544],[1.29711,52.63564],[1.29734,52.63568],[1.29731,52.63577],[1.29783,52.63583],[1.29774,52.63602],[1.29769,52.63602],[1.29766,52.63612],[1.29721,52.63606],[1.29721,52.63603],[1.29697,52.63601],[1.29701,52.63591],[1.29705,52.63576],[1.29701,52.63569],[1.29667,52.63569],[1.29668,52.63559],[1.2966,52.63557],[1.29665,52.63539],[1.29678,52.63539],[1.29678,52.63538],[1.29686,52.63538],[1.29686,52.63533],[1.29686,52.63529],[1.29722,52.63529],[1.29725,52.6352],[1.2975,52.63521],[1.29751,52.63519],[1.29753,52.63514],[1.29793,52.63517]]]]}},
{ "type":"Feature","properties":{"osm_way_id":"103078723","name":"Red Lion Car Park","amenity":"parking","other":{"access":"customers","capacity":"32","capacity:disabled":"2","fee":"no","parking":"surface"}}, "geometry":{"type":"MultiPolygon","coordinates":[[[[1.25029,52.60809],[1.25041,52.60797],[1.25029,52.60791],[1.25034,52.60788],[1.25024,52.60784],[1.25006,52.60774],[1.25002,52.60773],[1.24993,52.60772],[1.24984,52.60779],[1.24978,52.60784],[1.25015,52.60802],[1.25029,52.60809]]]]}},
{ "type":"Feature","properties":{"osm_way_id":"103078731","name":"Waitrose Car Park","amenity":"parking","other":{"access":"customers","capacity":"326","capacity:disabled":"24","fee":"no","fee:overstay":"£70 GBP","maxstay":"2 hour","no_return":"2 hour","operator":"Waitrose","parking":"surface","surface":"paved"}}, "geometry":{"type":"MultiPolygon","coordinates":[[[[1.24947,52.60725],[1.24961,52.60712],[1.24985,52.60704],[1.25024,52.60693],[1.25032,52.60692],[1.25077,52.60682],[1.25079,52.60687],[1.25085,52.60685],[1.25122,52.60708],[1.2513,52.60707],[1.25136,52.60708],[1.25152,52.60703],[1.25181,52.60727],[1.25152,52.60754],[1.25146,52.60752],[1.25133,52.60754],[1.25129,52.60758],[1.25102,52.60747],[1.25095,52.60745],[1.25099,52.60741],[1.25096,52.60739],[1.2509,52.60742],[1.25084,52.60738],[1.25091,52.60735],[1.25082,52.60729],[1.2508,52.6073],[1.25058,52.60742],[1.2506,52.60744],[1.25067,52.6074],[1.25078,52.60748],[1.2507,52.60754],[1.25065,52.60758],[1.25029,52.60777],[1.25021,52.60772],[1.25005,52.60763],[1.2499,52.60754],[1.24947,52.60725]]]]}},
{ "type":"Feature","properties":{"osm_way_id":"105334139","amenity":"parking","other":{"access":"customers","capacity":"13","operator":"Tesco Express"}}, "geometry":{"type":"MultiPolygon","coordinates":[[[[1.32668,52.63714],[1.32714,52.63726],[1.3272,52.63716],[1.32676,52.63704],[1.32668,52.63714]]]]}},
{ "type":"Feature","properties":{"osm_way_id":"105805351","name":"Eaton Park (West)","amenity":"parking","other":{"access":"yes","fee":"no","parking":"surface"}}, "geometry":{"type":"MultiPolygon","coordinates":[[[[1.25256,52.61969],[1.25245,52.62014],[1.25246,52.62022],[1.25232,52.62083],[1.25228,52.62086],[1.25211,52.62095],[1.25207,52.62094],[1.252,52.62092],[1.25195,52.6209],[1.25217,52.62028],[1.25235,52.61967],[1.25256,52.61969]]]]}},
{ "type":"Feature","properties":{"osm_way_id":"105805357","name":"Eaton Park (East)","amenity":"parking","other":{"parking":"surface"}}, "geometry":{"type":"MultiPolygon","coordinates":[[[[1.26141,52.62139],[1.26056,52.62162],[1.26048,52.6216],[1.26046,52.62153],[1.26053,52.62147],[1.26065,52.62144],[1.26132,52.62125],[1.26141,52.62139]]]]}},
{ "type":"Feature","properties":{"osm_way_id":"105854301","amenity":"parking","other":{"access":"customers","operator":"The Farmhouse","parking":"surface","surface":"paved"}}, "geometry":{"type":"MultiPolygon","coordinates":[[[[1.26348,52.62144],[1.26321,52.62127],[1.26317,52.62126],[1.26299,52.62127],[1.26296,52.62127],[1.26273,52.62115],[1.26284,52.62109],[1.26302,52.62106],[1.26305,52.62112],[1.26308,52.62114],[1.26313,52.62115],[1.26335,52.62112],[1.26351,52.62127],[1.26356,52.62125],[1.26365,52.62133],[1.26348,52.62144]]]]}},
{ "type":"Feature","properties":{"osm_way_id":"106366984","name":"Short Stay & Hire Returns","amenity":"parking","other":{"access":"customers","capacity":"613","capacity:disabled":"10","capacity:parent":"0","capacity:women":"0","fee":"yes","operator":"NCP","parking":"surface","ref":"1"}}, "geometry":{"type":"MultiPolygon","coordinates":[[[[1.27637,52.6683],[1.27499,52.66894],[1.27503,52.66896],[1.27499,52.669],[1.27498,52.66903],[1.275,52.66907],[1.27494,52.66909],[1.27568,52.66971],[1.27588,52.6697],[1.27592,52.66968],[1.27596,52.66972],[1.27738,52.66909],[1.27721,52.66895],[1.2771,52.66899],[1.27715,52.66903],[1.27705,52.66908],[1.27685,52.66891],[1.27713,52.66879],[1.27662,52.66836],[1.27656,52.66839],[1.27649,52.66834],[1.27644,52.66832],[1.27641,52.66833],[1.27637,52.6683]]]]}},
{ "type":"Feature","properties":{"osm_way_id":"106366987","name":"Holiday Inn","amenity":"parking","other":{"access":"customers","fee":"yes","parking":"surface"}}, "geometry":{"type":"MultiPolygon","coordinates":[[[[1.2734,52.66886],[1.27343,52.66903],[1.27413,52.66898],[1.27414,52.6689],[1.27419,52.6689],[1.2743,52.669],[1.27497,52.6687],[1.27569,52.66837],[1.27539,52.66811],[1.27519,52.66818],[1.27511,52.66816],[1.2746,52.66838],[1.27468,52.66845],[1.2743,52.66862],[1.27411,52.66871],[1.27406,52.66877],[1.2739,52.66885],[1.27376,52.66885],[1.2734,52.66886]]]]}},
{ "type":"Feature","properties":{"osm_way_id":"106376356","name":"Enterprise Centre and Earlham Park Visitors Car Park Zone A","amenity":"parking","other":{"access":"customers","capacity":"40","capacity:disabled":"0","fee":"no","lit":"yes","maxstay:conditional":"2 hour @ Mo-Fr 08:30-17:30","no_return:conditional":"4 hour @ Mo-Fr 08:30-17:30","opening_hours":"Mo-Su 06:00-02:00","operator":"NCP","owner":"Norwich City Council","park_ride":"no","parking":"surface","supervised":"yes","surveillance":"public"}}, "geometry":{"type":"MultiPolygon","coordinates":[[[[1.23955,52.62609],[1.23908,52.62608],[1.23908,52.62619],[1.23907,52.6264],[1.23931,52.62641],[1.23932,52.62629],[1.23937,52.62629],[1.23954,52.6263],[1.23955,52.62609]]]]}},
{ "type":"Feature","properties":{"osm_way_id":"106425311","amenity":"parking","other":{"access":"customers","capacity:disabled":"yes","fee":"no","operator":"McDonald's","parking":"surface"}}, "geometry":{"type":"MultiPolygon","coordinates":[[[[1.27209,52.66821],[1.27243,52.66816],[1.2725,52.66804],[1.27266,52.66806],[1.2727,52.66798],[1.27225,52.66789],[1.27209,52.66821]]]]}},
{ "type":"Feature","properties":{"osm_way_id":"112186384","amenity":"parking","other":{"parking":"surface"}}, "geometry":{"type":"MultiPolygon","coordinates":[[[[1.29518,52.63337],[1.29525,52.63337],[1.29531,52.63338],[1.29535,52.63325],[1.29528,52.63325],[1.29521,52.63324],[1.29518,52.63337]]]]}},
{ "type":"Feature","properties":{"osm_way_id":"112186393","name":"Colegate","amenity":"parking","other":{"addr:city":"Norwich","addr:country":"GB","addr:postcode":"NR3 1HS","addr:street":"Golden Dog Lane","capacity":"94","fee":"yes","fee:amount:1_hour":"£1.50 GBP","fee:amount:2_hour":"£3.00 GBP","fee:amount:3_hour":"£4.50 GBP","fee:amount:4_hour":"£6.00 GBP","fee:amount:5_hour":"£8.00 GBP","fee:amount:conditional":"£2.20 GBP @ Mo-Sa,PH 18:30-05:00","fee:amount:maximum":"£8.00 GBP","opening_hours":"24\/7","operator":"Norwich City Council","park_ride":"no","parking":"surface"}}, "geometry":{"type":"MultiPolygon","coordinates":[[[[1.29599,52.63355],[1.29624,52.63362],[1.29621,52.63368],[1.29628,52.6337],[1.29619,52.63389],[1.29628,52.63393],[1.29626,52.63401],[1.29624,52.63405],[1.29618,52.63421],[1.296,52.63419],[1.29602,52.63422],[1.2958,52.6343],[1.29573,52.63427],[1.29563,52.63426],[1.29564,52.63419],[1.29568,52.63412],[1.29589,52.63371],[1.29596,52.63372],[1.296,52.63363],[1.29594,52.63362],[1.29599,52.63355]]]]}},
{ "type":"Feature","properties":{"osm_way_id":"112186407","amenity":"parking"},"geometry":{"type":"MultiPolygon","coordinates":[[[[1.29556,52.63302],[1.29565,52.63304],[1.29564,52.63305],[1.29559,52.63316],[1.29553,52.63314],[1.2955,52.63314],[1.29556,52.63302]]]]}},
{ "type":"Feature","properties":{"osm_way_id":"112186423","amenity":"parking","building":"yes","other":{"access":"permissive"}}, "geometry":{"type":"MultiPolygon","coordinates":[[[[1.29498,52.63249],[1.29518,52.63244],[1.29529,52.63247],[1.29503,52.63297],[1.29492,52.63295],[1.29479,52.63293],[1.29491,52.63274],[1.29484,52.63273],[1.29498,52.63249]]]]}},
{ "type":"Feature","properties":{"osm_way_id":"112840104","name":"Halfords car park","amenity":"parking","other":{"access":"customers"}}, "geometry":{"type":"MultiPolygon","coordinates":[[[[1.28653,52.63626],[1.28657,52.63621],[1.28662,52.63614],[1.28666,52.63608],[1.28671,52.63597],[1.28675,52.63589],[1.28681,52.63582],[1.28697,52.63589],[1.28698,52.63628],[1.28684,52.63688],[1.2868,52.63692],[1.28613,52.63668],[1.28622,52.63658],[1.28662,52.63673],[1.28694,52.6364],[1.28653,52.63626]]]]}},
{ "type":"Feature","properties":{"osm_way_id":"112840129","amenity":"parking","other":{"access":"customers","fee":"no","parking":"surface"}}, "geometry":{"type":"MultiPolygon","coordinates":[[[[1.28469,52.63869],[1.28431,52.63855],[1.28423,52.63856],[1.28382,52.63897],[1.28392,52.63906],[1.284,52.63915],[1.28419,52.63922],[1.28469,52.63869]]]]}},
{ "type":"Feature","properties":{"osm_way_id":"112840158","amenity":"parking","other":{"access":"customers","fee":"no","parking":"surface"}}, "geometry":{"type":"MultiPolygon","coordinates":[[[[1.28565,52.63773],[1.28521,52.63757],[1.28453,52.63827],[1.28497,52.63842],[1.28565,52.63773]]]]}},
{ "type":"Feature","properties":{"osm_way_id":"112840173","amenity":"parking","other":{"access":"private"}}, "geometry":{"type":"MultiPolygon","coordinates":[[[[1.28563,52.63771],[1.28578,52.63756],[1.28592,52.63741],[1.28607,52.63726],[1.28621,52.63712],[1.28635,52.63697],[1.28649,52.63683],[1.28609,52.63668],[1.28594,52.63684],[1.28527,52.63753],[1.2853,52.63754],[1.28527,52.63757],[1.28563,52.63771]]]]}},
{ "type":"Feature","properties":{"osm_way_id":"114401904","amenity":"parking"},"geometry":{"type":"MultiPolygon","coordinates":[[[[1.24115,52.63191],[1.24124,52.6319],[1.24117,52.63159],[1.24129,52.63158],[1.24128,52.63153],[1.24107,52.63155],[1.24115,52.63191]]]]}},
{ "type":"Feature","properties":{"osm_way_id":"114401953","amenity":"parking"},"geometry":{"type":"MultiPolygon","coordinates":[[[[1.24162,52.63202],[1.24168,52.63202],[1.24166,52.63192],[1.24129,52.63195],[1.24131,52.63205],[1.24139,52.63204],[1.2414,52.63209],[1.24163,52.63207],[1.24162,52.63202]]]]}},
{ "type":"Feature","properties":{"osm_way_id":"114440029","amenity":"parking","other":{"access":"customers","parking":"surface"}}, "geometry":{"type":"MultiPolygon","coordinates":[[[[1.24873,52.62937],[1.24864,52.62933],[1.24853,52.6294],[1.24866,52.62948],[1.2487,52.62948],[1.24874,52.62948],[1.24878,52.62946],[1.24896,52.62933],[1.24886,52.62928],[1.24873,52.62937]]]]}},
{ "type":"Feature","properties":{"osm_way_id":"114440049","name":"Co-op car park","amenity":"parking","other":{"access":"customers","addr:city":"Norwich","addr:postcode":"NR4 7TE","addr:street":"Earlham Green Lane","capacity":"21","fee":"no","park_ride":"no","parking":"surface","ref":"P1"}}, "geometry":{"type":"MultiPolygon","coordinates":[[[[1.24717,52.62945],[1.24732,52.62948],[1.24742,52.62951],[1.24754,52.62955],[1.24751,52.62959],[1.24758,52.62963],[1.24739,52.62979],[1.24732,52.62977],[1.24728,52.6298],[1.24718,52.62976],[1.24722,52.62972],[1.24718,52.62971],[1.24707,52.62969],[1.24717,52.62945]]]]}},
{ "type":"Feature","properties":{"osm_way_id":"114553430","name":"Eaton Park","amenity":"parking","other":{"parking":"surface"}}, "geometry":{"type":"MultiPolygon","coordinates":[[[[1.24723,52.61972],[1.24727,52.61983],[1.24687,52.61991],[1.24687,52.61986],[1.24687,52.61979],[1.24689,52.61975],[1.2471,52.61972],[1.24723,52.61972]]]]}},
{ "type":"Feature","properties":{"osm_way_id":"115217933","amenity":"parking","other":{"fee":"no","parking":"surface"}}, "geometry":{"type":"MultiPolygon","coordinates":[[[[1.21513,52.63008],[1.21507,52.63016],[1.215,52.63018],[1.21498,52.63022],[1.21473,52.63015],[1.21476,52.6301],[1.21477,52.63006],[1.21477,52.63003],[1.21481,52.62998],[1.21513,52.63008]]]]}},
{ "type":"Feature","properties":{"osm_way_id":"116344888","amenity":"parking","other":{"access":"private","parking":"surface"}}, "geometry":{"type":"MultiPolygon","coordinates":[[[[1.25864,52.64536],[1.25865,52.64541],[1.25868,52.64544],[1.2587,52.64547],[1.25874,52.64549],[1.25879,52.64551],[1.25884,52.64552],[1.2589,52.64552],[1.25896,52.64551],[1.25902,52.64549],[1.25918,52.64561],[1.25911,52.64564],[1.25902,52.64566],[1.25891,52.64567],[1.25881,52.64567],[1.25873,52.64566],[1.25864,52.64563],[1.25857,52.6456],[1.25851,52.64556],[1.25846,52.64551],[1.25842,52.64545],[1.25841,52.6454],[1.25841,52.64536],[1.25864,52.64536]]]]}},
{ "type":"Feature","properties":{"osm_way_id":"116693581","amenity":"parking","other":{"access":"customers","capacity":"99","capacity:disabled":"6","fee":"no","opening_hours":"Mo-Fr 06:00-22:30; Sa 07:00-18:30; Su 07:30-20:30; PH 09:00-16:30","operator":"Norwich City Council","parking":"surface"}}, "geometry":{"type":"MultiPolygon","coordinates":[[[[1.30603,52.62241],[1.30623,52.62227],[1.30617,52.62223],[1.30623,52.6222],[1.30595,52.622],[1.3059,52.62202],[1.30584,52.62201],[1.30576,52.62201],[1.30571,52.62203],[1.30566,52.62207],[1.30561,52.62204],[1.30522,52.6223],[1.3055,52.62244],[1.30543,52.62249],[1.30564,52.62259],[1.30569,52.62255],[1.30575,52.62259],[1.30588,52.6225],[1.30582,52.62247],[1.30597,52.62238],[1.30603,52.62241]]]]}},
{ "type":"Feature","properties":{"osm_way_id":"117384368","amenity":"parking","other":{"fee":"no"}}, "geometry":{"type":"MultiPolygon","coordinates":[[[[1.28304,52.647],[1.28287,52.6472],[1.28294,52.64722],[1.2829,52.64728],[1.28319,52.64757],[1.2833,52.64752],[1.28336,52.64756],[1.28371,52.64741],[1.28324,52.64702],[1.28315,52.64703],[1.28304,52.647]]]]}},
{ "type":"Feature","properties":{"osm_way_id":"117630431","amenity":"parking","other":{"parking":"surface"}}, "geometry":{"type":"MultiPolygon","coordinates":[[[[1.29275,52.6084],[1.29295,52.60858],[1.29316,52.60879],[1.29322,52.60878],[1.29324,52.60881],[1.29351,52.60872],[1.29337,52.60851],[1.29328,52.60838],[1.29314,52.60818],[1.29295,52.60822],[1.29279,52.6083],[1.29283,52.60834],[1.29281,52.60838],[1.29275,52.6084]]]]}},
{ "type":"Feature","properties":{"osm_way_id":"117631079","amenity":"parking"},"geometry":{"type":"MultiPolygon","coordinates":[[[[1.29548,52.60836],[1.2957,52.60842],[1.29551,52.60868],[1.29547,52.60874],[1.2954,52.60872],[1.29536,52.60877],[1.29511,52.6087],[1.29517,52.60862],[1.2952,52.60859],[1.2953,52.60861],[1.29548,52.60836]]]]}},
{ "type":"Feature","properties":{"osm_way_id":"117631080","amenity":"parking","other":{"access":"customers"}}, "geometry":{"type":"MultiPolygon","coordinates":[[[[1.29157,52.60841],[1.29184,52.60868],[1.29177,52.6087],[1.29183,52.60876],[1.29184,52.60879],[1.29173,52.60885],[1.29211,52.60921],[1.29218,52.6092],[1.29225,52.6092],[1.29233,52.60915],[1.29263,52.60909],[1.29269,52.60909],[1.29274,52.60908],[1.29282,52.60924],[1.29188,52.60943],[1.29153,52.60949],[1.29148,52.60939],[1.29141,52.60939],[1.29115,52.60944],[1.29087,52.60948],[1.29075,52.60952],[1.29062,52.60956],[1.2907,52.60974],[1.29075,52.60979],[1.29064,52.60982],[1.29051,52.60984],[1.29034,52.60972],[1.29017,52.60954],[1.29012,52.60947],[1.29015,52.60942],[1.29095,52.60912],[1.29083,52.60899],[1.29075,52.60903],[1.29061,52.60889],[1.29056,52.60895],[1.28989,52.60921],[1.28956,52.60878],[1.29012,52.60856],[1.29016,52.6086],[1.29062,52.60843],[1.29058,52.60839],[1.29084,52.60829],[1.29091,52.6083],[1.29098,52.60829],[1.29101,52.60831],[1.29103,52.60834],[1.29099,52.60838],[1.291,52.60842],[1.29107,52.60839],[1.2912,52.60835],[1.29131,52.60834],[1.29142,52.60834],[1.29148,52.60837],[1.29153,52.60841],[1.29157,52.60841]]]]}},
{ "type":"Feature","properties":{"osm_way_id":"117632500","amenity":"parking","other":{"parking":"surface"}}, "geometry":{"type":"MultiPolygon","coordinates":[[[[1.29222,52.6088],[1.29262,52.60865],[1.2926,52.60863],[1.29273,52.60858],[1.29268,52.60853],[1.29266,52.60851],[1.29214,52.60871],[1.29215,52.60874],[1.29222,52.6088]]]]}},
{ "type":"Feature","properties":{"osm_way_id":"119509659","amenity":"parking","other":{"parking":"surface"}}, "geometry":{"type":"MultiPolygon","coordinates":[[[[1.24278,52.63749],[1.24311,52.63743],[1.24303,52.63726],[1.24298,52.63727],[1.24253,52.63735],[1.24263,52.63756],[1.2428,52.63753],[1.24278,52.63749]]]]}},
{ "type":"Feature","properties":{"osm_way_id":"119509661","amenity":"parking","other":{"parking":"surface"}}, "geometry":{"type":"MultiPolygon","coordinates":[[[[1.24241,52.63711],[1.24253,52.63735],[1.24298,52.63727],[1.24286,52.63703],[1.24241,52.63711]]]]}},
{ "type":"Feature","properties":{"osm_way_id":"121286444","amenity":"parking","other":{"access":"customers","capacity":"22","capacity:disabled":"2"}}, "geometry":{"type":"MultiPolygon","coordinates":[[[[1.26063,52.62511],[1.26067,52.6249],[1.2608,52.62491],[1.26084,52.62491],[1.26094,52.62492],[1.26093,52.62496],[1.26107,52.62497],[1.26104,52.62514],[1.26099,52.62513],[1.26076,52.62512],[1.26072,52.62512],[1.26063,52.62511]]]]}},
{ "type":"Feature","properties":{"osm_way_id":"121499509","amenity":"parking","other":{"access":"customers","fee":"no","parking":"surface"}}, "geometry":{"type":"MultiPolygon","coordinates":[[[[1.28147,52.63291],[1.2817,52.63284],[1.28157,52.63264],[1.2813,52.63269],[1.28147,52.63291]]]]}},
{ "type":"Feature","properties":{"osm_way_id":"121635514","amenity":"parking"},"geometry":{"type":"MultiPolygon","coordinates":[[[[1.27683,52.64058],[1.27707,52.64065],[1.27701,52.64073],[1.27708,52.64075],[1.27697,52.64091],[1.27662,52.64082],[1.27667,52.64074],[1.27671,52.64075],[1.27683,52.64058]]]]}},
{ "type":"Feature","properties":{"osm_way_id":"122819632","amenity":"parking","other":{"access":"private","parking":"surface"}}, "geometry":{"type":"MultiPolygon","coordinates":[[[[1.26887,52.62926],[1.26889,52.62938],[1.26872,52.6294],[1.26873,52.62942],[1.26889,52.62941],[1.26933,52.62939],[1.26931,52.62924],[1.26887,52.62926]]]]}},
{ "type":"Feature","properties":{"osm_way_id":"122819633","amenity":"parking","other":{"parking":"surface"}}, "geometry":{"type":"MultiPolygon","coordinates":[[[[1.26877,52.62882],[1.2688,52.62896],[1.26892,52.62895],[1.2689,52.62886],[1.26951,52.62881],[1.2695,52.62876],[1.26877,52.62882]]]]}},
{ "type":"Feature","properties":{"osm_way_id":"123870357","amenity":"parking"},"geometry":{"type":"MultiPolygon","coordinates":[[[[1.31105,52.6343],[1.31108,52.63443],[1.31164,52.63437],[1.3116,52.63425],[1.31105,52.6343]]]]}},
{ "type":"Feature","properties":{"osm_way_id":"125607903","name":"Monastery Court","amenity":"parking","other":{"addr:city":"Norwich","addr:country":"GB","addr:postcode":"NR3 1HN","addr:street":"Elm Hill","capacity":"50","fee":"yes","fee:amount:1_hour":"£1.60 GBP","fee:amount:2_hour":"£3.20 GBP","fee:amount:3_hour":"£4.80 GBP","fee:amount:4_hour":"£6.40 GBP","fee:amount:5_hour":"£8.00 GBP","fee:amount:conditional":"£2.20 GBP @ Mo-Sa,PH 18:30-05:00","fee:amount:maximum":"£15.00 GBP","opening_hours":"24\/7","operator":"Norwich City Council","park_ride":"no","parking":"surface"}}, "geometry":{"type":"MultiPolygon","coordinates":[[[[1.29622,52.63141],[1.29642,52.63149],[1.29642,52.63151],[1.2964,52.63158],[1.29623,52.63168],[1.29618,52.63166],[1.29606,52.63174],[1.2962,52.63183],[1.29619,52.63184],[1.29631,52.63191],[1.29667,52.63171],[1.29691,52.63191],[1.29673,52.63199],[1.29669,52.63195],[1.29654,52.63203],[1.2965,52.63204],[1.29646,52.63206],[1.29637,52.63201],[1.29627,52.63197],[1.29621,52.63194],[1.29615,52.63192],[1.29606,52.63189],[1.29596,52.63188],[1.29582,52.63186],[1.29585,52.63172],[1.29589,52.63173],[1.29597,52.63174],[1.29612,52.63151],[1.29622,52.63141]]]]}},
{ "type":"Feature","properties":{"osm_way_id":"128738265","name":"The Woolpack Inn","amenity":"pub","building":"house","other":{"addr:city":"Norwich","addr:country":"GB","addr:housename":"The Woolpack Inn","addr:housenumber":"9","addr:postcode":"NR1 3EH","addr:street":"Golden Ball Street","brand":"Star","fhrs:id":"1080668","opening_hours":"Mo-Sa 11:00-23:00; Su 12:00-22:30","opening_hours:kitchen":"12:00-22:00","phone":"+44 1603 627047","real_ale":"4","real_cider":"no","website":"http:\/\/www.johnbarras.com\/pub\/woolpack-norwich\/c6372\/"}}, "geometry":{"type":"MultiPolygon","coordinates":[[[[1.2968,52.62604],[1.29682,52.62604],[1.29688,52.6261],[1.29685,52.6261],[1.29689,52.62615],[1.29709,52.62608],[1.29696,52.62593],[1.29676,52.626],[1.2968,52.62604]]]]}},
{ "type":"Feature","properties":{"osm_way_id":"128913426","name":"Staff Car Park","amenity":"parking"},"geometry":{"type":"MultiPolygon","coordinates":[[[[1.2877,52.61856],[1.28806,52.61919],[1.28738,52.61935],[1.28731,52.61949],[1.28697,52.61956],[1.28682,52.61935],[1.2868,52.61931],[1.28649,52.61877],[1.28678,52.61869],[1.28685,52.61871],[1.28728,52.61863],[1.2877,52.61856]]]]}},
{ "type":"Feature","properties":{"osm_way_id":"128913427","name":"Student Car Park","amenity":"parking"},"geometry":{"type":"MultiPolygon","coordinates":[[[[1.28745,52.61676],[1.28655,52.61695],[1.28633,52.61658],[1.28638,52.61654],[1.28624,52.61627],[1.2865,52.6162],[1.28644,52.61608],[1.28693,52.61598],[1.28716,52.61639],[1.28726,52.61642],[1.28745,52.61676]]]]}},
{ "type":"Feature","properties":{"osm_way_id":"128913480","amenity":"parking","other":{"access":"customers","fee":"no","parking":"surface"}}, "geometry":{"type":"MultiPolygon","coordinates":[[[[1.2792,52.6152],[1.27942,52.61539],[1.27903,52.61555],[1.27899,52.61551],[1.27893,52.61554],[1.27875,52.61539],[1.2792,52.6152]]]]}},
{ "type":"Feature","properties":{"osm_way_id":"129109304","name":"Saint Giles","amenity":"parking","building":"yes","other":{"access":"yes","addr:city":"Norwich","addr:country":"GB","addr:housename":"St Giles multi-storey","addr:postcode":"NR2 1JL","addr:street":"St Giles Street","capacity":"330","fee":"yes","fee:amount:1_hour":"£2.00 GBP","fee:amount:2_hour":"£4.00 GBP","fee:amount:3_hour":"£6.00 GBP","fee:amount:4_hour":"£8.00 GBP","fee:amount:5_hour":"£8.50 GBP","fee:amount:conditional":"GBP 2.20 @ Mo-Sa,BH 18:30-05:00","fee:amount:maximum":"£15.00 GBP","maintenance":"salting","maxheight":"1.9","opening_hours":"07:00-01:00","operator":"Norwich City Council","park_ride":"no","parking":"multi-storey","salting:ref":"NKE044"}}, "geometry":{"type":"MultiPolygon","coordinates":[[[[1.29043,52.62946],[1.29045,52.62975],[1.29122,52.62972],[1.2912,52.6295],[1.2912,52.62944],[1.2905,52.62946],[1.29043,52.62946]]]]}},
{ "type":"Feature","properties":{"osm_way_id":"129109308","name":"Pottergate","amenity":"parking","other":{"access":"yes","addr:city":"Norwich","addr:country":"GB","addr:postcode":"NR2 1DX","addr:street":"Pottergate","capacity":"27","fee":"yes","fee:amount:1_hour":"£2.00 GBP","fee:amount:2_hour":"£4.00 GBP","fee:amount:3_hour":"£6.00 GBP","fee:amount:4_hour":"£8.00 GBP","fee:amount:5_hour":"£8.50 GBP","fee:amount:conditional":"£2.20 GBP @ Mo-Sa,PH 18:30-05:00","fee:amount:maximum":"£15.00 GBP","opening_hours":"24\/7","operator":"Norwich City Council","park_ride":"no","parking":"surface"}}, "geometry":{"type":"MultiPolygon","coordinates":[[[[1.29062,52.63013],[1.29059,52.62983],[1.29036,52.62984],[1.29041,52.63015],[1.29062,52.63013]]]]}},
{ "type":"Feature","properties":{"osm_way_id":"129195762","name":"Edward Street","amenity":"parking","other":{"access":"permit","capacity":"66","fee":"yes","fee:quarter":"£228.00 GBP","opening_hours":"24\/7","operator":"RCP Parking","parking":"surface","surface":"asphalt","website":"https:\/\/www.rcpparking.com\/contract-parking\/details\/27"}}, "geometry":{"type":"MultiPolygon","coordinates":[[[[1.29431,52.63766],[1.29433,52.63755],[1.29436,52.63747],[1.29452,52.63748],[1.29469,52.63749],[1.29469,52.6375],[1.2947,52.63751],[1.29463,52.63785],[1.29462,52.63786],[1.29458,52.63799],[1.29454,52.63818],[1.29454,52.63841],[1.29425,52.6384],[1.29427,52.63819],[1.29429,52.63802],[1.29431,52.63781],[1.29431,52.63766]]]]}},
{ "type":"Feature","properties":{"osm_way_id":"129223121","amenity":"parking","other":{"access":"customers","capacity:disabled":"2","operator":"McDonald's"}}, "geometry":{"type":"MultiPolygon","coordinates":[[[[1.29165,52.61036],[1.29198,52.6103],[1.29218,52.61051],[1.29171,52.61059],[1.29169,52.61048],[1.29166,52.61037],[1.29165,52.61036]]]]}},
{ "type":"Feature","properties":{"osm_way_id":"131001420","name":"North Car Park","amenity":"parking","other":{"fee":"yes","parking":"surface"}}, "geometry":{"type":"MultiPolygon","coordinates":[[[[1.23838,52.62195],[1.23836,52.62208],[1.23836,52.6221],[1.23787,52.62208],[1.23762,52.62208],[1.23759,52.62209],[1.23707,52.6221],[1.23699,52.62204],[1.23699,52.62196],[1.2376,52.62192],[1.23838,52.62195]]]]}},
{ "type":"Feature","properties":{"osm_way_id":"132137488","amenity":"parking","other":{"surface":"gravel"}}, "geometry":{"type":"MultiPolygon","coordinates":[[[[1.11364,52.91251],[1.11345,52.91252],[1.11354,52.91266],[1.11362,52.91343],[1.11374,52.91438],[1.11376,52.91478],[1.11431,52.91476],[1.11417,52.91437],[1.11383,52.91438],[1.11364,52.91251]]]]}},
{ "type":"Feature","properties":{"osm_way_id":"134666612","name":"Norwich Airport Park & Ride","amenity":"parking","other":{"access":"customers","capacity":"620","capacity:disabled":"32","fee":"yes","opening_hours":"Mo-We,Fr 06:30-20:00; Th 06:30-21:00; Sa 06:50-19:00; Su closed; PH off","park_ride":"bus","parking":"surface","postal_code":"NR6 6JT"}}, "geometry":{"type":"MultiPolygon","coordinates":[[[[1.27038,52.6714],[1.27024,52.67144],[1.26977,52.67131],[1.26971,52.67128],[1.26966,52.67122],[1.26968,52.67115],[1.26962,52.67113],[1.2702,52.67039],[1.27087,52.66941],[1.27098,52.66923],[1.27111,52.66902],[1.27136,52.66907],[1.27207,52.66922],[1.27302,52.66944],[1.27302,52.66945],[1.27271,52.66987],[1.27282,52.66997],[1.27294,52.67003],[1.27272,52.67029],[1.27248,52.67032],[1.2722,52.67034],[1.27193,52.67038],[1.27176,52.6704],[1.27168,52.67041],[1.27137,52.67041],[1.27112,52.67067],[1.271,52.67077],[1.27093,52.67075],[1.27076,52.67094],[1.27064,52.6711],[1.27055,52.67123],[1.27048,52.67131],[1.27038,52.6714]]]]}},
{ "type":"Feature","properties":{"osm_way_id":"135757260","amenity":"parking","other":{"access":"yes","maxstay":"30 minutes","operator":"Euro Car Parks Ltd.","parking":"surface"}}, "geometry":{"type":"MultiPolygon","coordinates":[[[[1.2782,52.63392],[1.27818,52.63378],[1.27843,52.63375],[1.27847,52.63376],[1.27846,52.63389],[1.27831,52.6339],[1.27831,52.63391],[1.2782,52.63392]]]]}},
{ "type":"Feature","properties":{"osm_way_id":"136090693","name":"Saint Stephens Car Park","amenity":"parking","building":"yes","other":{"addr:city":"Norwich","addr:housenumber":"12","addr:postcode":"NR1 3PR","addr:street":"Queens Road","capacity":"260","capacity:disabled":"4","fee":"yes","level":"1","opening_hours":"Mo-Su 06:30-00:30","operator":"NCP","parking":"multi-storey"}}, "geometry":{"type":"MultiPolygon","coordinates":[[[[1.29121,52.62444],[1.29142,52.62435],[1.29146,52.6244],[1.29157,52.62436],[1.2921,52.62414],[1.29212,52.62412],[1.29213,52.6241],[1.29213,52.62409],[1.29213,52.62407],[1.29215,52.62408],[1.29212,52.62406],[1.29195,52.62395],[1.29182,52.62387],[1.29167,52.6239],[1.29158,52.62394],[1.29141,52.62401],[1.29123,52.62408],[1.29115,52.62411],[1.29109,52.62414],[1.29105,52.62416],[1.29104,52.62418],[1.29103,52.62422],[1.29103,52.62425],[1.29103,52.62427],[1.29107,52.62432],[1.29121,52.62444]]]]}},
{ "type":"Feature","properties":{"osm_way_id":"136282736","amenity":"parking","other":{"access":"private","parking":"surface"}}, "geometry":{"type":"MultiPolygon","coordinates":[[[[1.30496,52.62326],[1.30494,52.6233],[1.3049,52.62337],[1.30487,52.62337],[1.30482,52.62346],[1.30496,52.62326]]]]}},
{ "type":"Feature","properties":{"osm_way_id":"136284682","amenity":"parking","other":{"access":"private","parking":"surface"}}, "geometry":{"type":"MultiPolygon","coordinates":[[[[1.30441,52.62383],[1.30443,52.62383],[1.30447,52.62375],[1.30445,52.62375],[1.30449,52.62368],[1.30464,52.62371],[1.30453,52.62391],[1.30452,52.62393],[1.30437,52.6239],[1.30441,52.62383]]]]}},
{ "type":"Feature","properties":{"osm_way_id":"136294506","amenity":"parking","other":{"access":"private","parking":"surface"}}, "geometry":{"type":"MultiPolygon","coordinates":[[[[1.3056,52.6236],[1.30554,52.62356],[1.30554,52.6235],[1.30557,52.62348],[1.30553,52.62345],[1.30549,52.62346],[1.30536,52.62339],[1.30535,52.62342],[1.30548,52.62351],[1.3054,52.62365],[1.30547,52.62366],[1.30549,52.62362],[1.30558,52.62364],[1.3056,52.6236]]]]}},
{ "type":"Feature","properties":{"osm_way_id":"136294512","amenity":"parking","other":{"access":"private","parking":"surface"}}, "geometry":{"type":"MultiPolygon","coordinates":[[[[1.30521,52.6241],[1.30524,52.62414],[1.30536,52.62408],[1.30529,52.62404],[1.30534,52.62401],[1.30527,52.62397],[1.30522,52.624],[1.30509,52.62407],[1.305,52.62405],[1.30498,52.62408],[1.30509,52.6241],[1.30518,52.62408],[1.30521,52.6241]]]]}},
{ "type":"Feature","properties":{"osm_way_id":"136319776","amenity":"parking","other":{"access":"private","parking":"surface"}}, "geometry":{"type":"MultiPolygon","coordinates":[[[[1.30396,52.62448],[1.30401,52.62438],[1.30423,52.62443],[1.30416,52.62455],[1.30396,52.62448]]]]}},
{ "type":"Feature","properties":{"osm_way_id":"136741700","amenity":"parking","other":{"access":"customers","parking":"surface"}}, "geometry":{"type":"MultiPolygon","coordinates":[[[[1.30584,52.62404],[1.30608,52.62391],[1.30617,52.62388],[1.30663,52.62391],[1.30715,52.62424],[1.3071,52.62427],[1.30783,52.62474],[1.30786,52.62477],[1.30788,52.62481],[1.30793,52.62485],[1.30774,52.62494],[1.30753,52.62481],[1.30711,52.62505],[1.30672,52.6248],[1.30677,52.62477],[1.30661,52.62467],[1.30667,52.62463],[1.30662,52.6246],[1.30668,52.62457],[1.30665,52.62456],[1.30597,52.62413],[1.30584,52.62404]]]]}},
{ "type":"Feature","properties":{"osm_way_id":"136741701","amenity":"parking","other":{"access":"customers","parking":"surface"}}, "geometry":{"type":"MultiPolygon","coordinates":[[[[1.30598,52.62329],[1.30603,52.62326],[1.30635,52.62346],[1.30639,52.62348],[1.30646,52.62351],[1.30654,52.62351],[1.30661,52.62351],[1.30668,52.62349],[1.30673,52.62348],[1.3075,52.62302],[1.30745,52.62299],[1.30751,52.62295],[1.30713,52.62272],[1.30707,52.62275],[1.30706,52.62274],[1.30703,52.62276],[1.30699,52.62273],[1.30682,52.62282],[1.30676,52.62286],[1.30661,52.62295],[1.30655,52.62298],[1.30637,52.62309],[1.30631,52.62312],[1.30617,52.6232],[1.30622,52.62323],[1.3062,52.62324],[1.30608,52.6232],[1.30613,52.62317],[1.30577,52.62294],[1.3056,52.62305],[1.30564,52.62307],[1.30598,52.62329]]]]}},
{ "type":"Feature","properties":{"osm_way_id":"136741702","amenity":"parking","other":{"access":"customers","parking":"surface"}}, "geometry":{"type":"MultiPolygon","coordinates":[[[[1.30869,52.62454],[1.30858,52.62462],[1.30851,52.62464],[1.30845,52.62465],[1.30836,52.62465],[1.30828,52.62464],[1.30822,52.62461],[1.30792,52.62442],[1.30777,52.62437],[1.30779,52.62434],[1.30764,52.62425],[1.30759,52.62428],[1.30747,52.62421],[1.3074,52.62415],[1.30743,52.62413],[1.3072,52.62398],[1.30687,52.62378],[1.30682,52.62375],[1.3068,52.62372],[1.3068,52.62369],[1.30688,52.62368],[1.30688,52.62367],[1.30683,52.62363],[1.30712,52.62345],[1.30717,52.62348],[1.30729,52.62342],[1.30762,52.62362],[1.30771,52.62357],[1.30773,52.62358],[1.30835,52.62322],[1.30789,52.62293],[1.30794,52.62289],[1.3079,52.62286],[1.30814,52.62273],[1.30819,52.62276],[1.30824,52.62273],[1.30894,52.62318],[1.30889,52.62321],[1.30895,52.62324],[1.30888,52.62328],[1.30883,52.62331],[1.3088,52.62334],[1.30877,52.62338],[1.30876,52.62342],[1.30876,52.62347],[1.30876,52.6235],[1.30868,52.6235],[1.30876,52.62355],[1.30818,52.62388],[1.30813,52.62384],[1.30807,52.62385],[1.3078,52.624],[1.30778,52.62403],[1.30779,52.62405],[1.30781,52.62407],[1.30806,52.62423],[1.30808,52.62424],[1.30811,52.62423],[1.30819,52.62418],[1.30868,52.6245],[1.30864,52.62452],[1.30869,52.62454]]]]}},
{ "type":"Feature","properties":{"osm_way_id":"140118833","amenity":"parking"},"geometry":{"type":"MultiPolygon","coordinates":[[[[1.25844,52.65089],[1.2591,52.65077],[1.2595,52.6507],[1.26055,52.65051],[1.2608,52.65099],[1.26072,52.65101],[1.26074,52.65105],[1.26055,52.65108],[1.26053,52.65104],[1.26033,52.65108],[1.26035,52.65112],[1.25961,52.65125],[1.25959,52.65121],[1.25933,52.65126],[1.25936,52.6513],[1.25878,52.65141],[1.25874,52.65132],[1.25865,52.65133],[1.25844,52.65089]]]]}},
{ "type":"Feature","properties":{"osm_way_id":"143205639","amenity":"parking","other":{"access":"private"}}, "geometry":{"type":"MultiPolygon","coordinates":[[[[1.2523,52.60852],[1.25228,52.60851],[1.25235,52.60848],[1.25233,52.60846],[1.25226,52.60849],[1.25222,52.60846],[1.25213,52.6085],[1.25215,52.60853],[1.25204,52.60857],[1.25208,52.60862],[1.25217,52.60858],[1.25226,52.60867],[1.25241,52.6086],[1.25237,52.60857],[1.25242,52.60854],[1.25237,52.60851],[1.25231,52.60853],[1.2523,52.60852]]]]}},
{ "type":"Feature","properties":{"osm_way_id":"143238033","amenity":"parking","other":{"fee":"no","parking":"surface","surface":"brick_weave"}}, "geometry":{"type":"MultiPolygon","coordinates":[[[[1.26255,52.62357],[1.26276,52.62343],[1.2628,52.6234],[1.26249,52.62323],[1.26224,52.6234],[1.26252,52.62355],[1.26255,52.62357]]]]}},
{ "type":"Feature","properties":{"osm_way_id":"147395413","name":"Health Centre Car Park","amenity":"parking","other":{"access":"customers","fee":"no","parking":"surface"}}, "geometry":{"type":"MultiPolygon","coordinates":[[[[1.27963,52.63127],[1.27955,52.631],[1.27989,52.63097],[1.27992,52.63107],[1.28014,52.63105],[1.2801,52.63094],[1.28037,52.63091],[1.28041,52.63105],[1.28033,52.63106],[1.28037,52.63119],[1.28033,52.63119],[1.27981,52.63125],[1.27963,52.63127]]]]}},
{ "type":"Feature","properties":{"osm_way_id":"149767745","amenity":"parking","other":{"wheelchair":"yes"}}, "geometry":{"type":"MultiPolygon","coordinates":[[[[1.29028,52.61107],[1.29011,52.6115],[1.29009,52.61156],[1.29031,52.61163],[1.2909,52.61143],[1.29098,52.61123],[1.29092,52.61122],[1.29096,52.6111],[1.29093,52.61105],[1.29058,52.61098],[1.29046,52.61099],[1.29041,52.61108],[1.29028,52.61107]]]]}},
{ "type":"Feature","properties":{"osm_way_id":"150185390","amenity":"parking"},"geometry":{"type":"MultiPolygon","coordinates":[[[[-0.32141,54.23039],[-0.3212,54.23048],[-0.32155,54.2308],[-0.32148,54.23083],[-0.32103,54.23044],[-0.32111,54.2304],[-0.32132,54.23035],[-0.32141,54.23039]]]]}},
{ "type":"Feature","properties":{"osm_way_id":"153374534","name":"Cathedral Retail Park","amenity":"parking","other":{"access":"customers","addr:city":"Norwich","addr:country":"GB","addr:postcode":"NR2 4SZ","addr:street":"Westwick Street","fee":"yes","hgv":"no","opening_hours":"24\/7","operator":"Completely Retail","park_ride":"no","parking":"surface"}}, "geometry":{"type":"MultiPolygon","coordinates":[[[[1.28639,52.63304],[1.28647,52.63301],[1.28645,52.63298],[1.28666,52.6329],[1.28669,52.63294],[1.28743,52.63266],[1.28739,52.63263],[1.28771,52.63251],[1.28775,52.63254],[1.28799,52.63245],[1.28807,52.63235],[1.28788,52.63217],[1.28798,52.63214],[1.28819,52.63226],[1.2882,52.63236],[1.28743,52.63317],[1.28704,52.63359],[1.28692,52.63362],[1.28682,52.63357],[1.28639,52.63304]]]]}},
{ "type":"Feature","properties":{"osm_way_id":"156612468","name":"Christopher Court","amenity":"parking","other":{"access":"private","parking":"surface"}}, "geometry":{"type":"MultiPolygon","coordinates":[[[[1.23541,52.6362],[1.2354,52.63619],[1.23538,52.63619],[1.23536,52.63616],[1.23532,52.63612],[1.23562,52.63604],[1.23572,52.63616],[1.23558,52.6362],[1.23559,52.63621],[1.2355,52.63624],[1.23545,52.63625],[1.23544,52.63624],[1.23541,52.6362]]]]}},
{ "type":"Feature","properties":{"osm_way_id":"159672449","amenity":"parking","other":{"fee":"yes","opening_hours":"Mo-We,Fr-Sa 08:00-20:00; Th 08:00-21:00; Su 09:00-18:00","operator":"RCP","parking":"surface"}}, "geometry":{"type":"MultiPolygon","coordinates":[[[[1.29181,52.63085],[1.2917,52.63089],[1.29156,52.63093],[1.29161,52.63104],[1.29112,52.63115],[1.29121,52.63131],[1.29137,52.63132],[1.29188,52.63129],[1.29193,52.63129],[1.29203,52.63135],[1.29213,52.63138],[1.29228,52.63145],[1.29243,52.63148],[1.29279,52.63156],[1.29279,52.63153],[1.2928,52.63149],[1.29273,52.63148],[1.29274,52.63145],[1.29282,52.63145],[1.29282,52.63125],[1.29284,52.63125],[1.29284,52.63115],[1.29282,52.63115],[1.29281,52.631],[1.2928,52.63096],[1.29262,52.63096],[1.29263,52.63099],[1.29265,52.63121],[1.29245,52.63122],[1.29242,52.63097],[1.29185,52.631],[1.29181,52.63085]]]]}},
{ "type":"Feature","properties":{"osm_way_id":"162235706","amenity":"parking","other":{"access":"residents","parking":"surface"}}, "geometry":{"type":"MultiPolygon","coordinates":[[[[1.2421,52.63979],[1.24233,52.63974],[1.24219,52.63953],[1.24196,52.63958],[1.2421,52.63979]]]]}},
{ "type":"Feature","properties":{"osm_way_id":"164708621","amenity":"parking","other":{"access":"private","parking":"surface"}}, "geometry":{"type":"MultiPolygon","coordinates":[[[[1.28596,52.62187],[1.28576,52.62171],[1.28582,52.62169],[1.28601,52.62185],[1.28596,52.62187]]]]}},
{ "type":"Feature","properties":{"osm_way_id":"164710197","amenity":"parking","other":{"access":"private","parking":"surface"}}, "geometry":{"type":"MultiPolygon","coordinates":[[[[1.28636,52.62209],[1.28626,52.62202],[1.28634,52.62197],[1.28645,52.62204],[1.28636,52.62209]]]]}},
{ "type":"Feature","properties":{"osm_way_id":"166884922","amenity":"parking","other":{"access":"customers","parking":"surface"}}, "geometry":{"type":"MultiPolygon","coordinates":[[[[1.25304,52.62915],[1.2529,52.62914],[1.2529,52.62913],[1.25278,52.62912],[1.25279,52.62905],[1.25297,52.62906],[1.25304,52.62912],[1.25304,52.62915]]]]}},
{ "type":"Feature","properties":{"osm_way_id":"169205760","amenity":"parking","other":{"access":"customers","fee":"no","parking":"surface"}}, "geometry":{"type":"MultiPolygon","coordinates":[[[[1.25279,52.60913],[1.25285,52.6091],[1.25278,52.60905],[1.25302,52.60894],[1.25306,52.60897],[1.25304,52.60898],[1.25329,52.60916],[1.25304,52.60929],[1.25279,52.60913]]]]}},
{ "type":"Feature","properties":{"osm_way_id":"169556515","amenity":"parking","other":{"parking":"surface"}}, "geometry":{"type":"MultiPolygon","coordinates":[[[[1.33796,52.64074],[1.33778,52.64094],[1.33804,52.64103],[1.33824,52.64079],[1.33798,52.64071],[1.33796,52.64074]]]]}},
{ "type":"Feature","properties":{"osm_way_id":"171373190","amenity":"parking","other":{"access":"customers","parking":"surface"}}, "geometry":{"type":"MultiPolygon","coordinates":[[[[1.28479,52.62894],[1.2849,52.62901],[1.28503,52.62897],[1.28504,52.62892],[1.28505,52.62888],[1.28486,52.62886],[1.28482,52.62887],[1.28484,52.6289],[1.28477,52.62892],[1.28477,52.62893],[1.28479,52.62894]]]]}},
{ "type":"Feature","properties":{"osm_way_id":"173053093","amenity":"parking","other":{"access":"customers"}}, "geometry":{"type":"MultiPolygon","coordinates":[[[[1.28961,52.63405],[1.28934,52.63398],[1.28932,52.63402],[1.28927,52.634],[1.28917,52.63398],[1.28915,52.634],[1.2891,52.63409],[1.28916,52.6341],[1.28918,52.63413],[1.2892,52.6342],[1.28925,52.63423],[1.28922,52.63427],[1.28935,52.6343],[1.28936,52.63428],[1.28943,52.6343],[1.28947,52.63425],[1.28956,52.63413],[1.28961,52.63405]]]]}},
{ "type":"Feature","properties":{"osm_way_id":"173672837","name":"Wedgwood","amenity":"parking","other":{"access":"private"}}, "geometry":{"type":"MultiPolygon","coordinates":[[[[-2.17276,52.95199],[-2.1714,52.95225],[-2.17116,52.9518],[-2.17142,52.95175],[-2.1715,52.95174],[-2.17228,52.95159],[-2.17235,52.95157],[-2.17252,52.95153],[-2.17276,52.95199]]]]}},
{ "type":"Feature","properties":{"osm_way_id":"178761454","amenity":"parking","other":{"access":"customers","fee":"no","parking":"surface","surface":"brick_weave"}}, "geometry":{"type":"MultiPolygon","coordinates":[[[[1.27295,52.66861],[1.27299,52.66866],[1.27293,52.6687],[1.27287,52.66882],[1.27275,52.6688],[1.2728,52.66873],[1.2727,52.66874],[1.27265,52.66872],[1.27261,52.66876],[1.27229,52.66868],[1.27237,52.66854],[1.27243,52.66855],[1.27244,52.66853],[1.27248,52.66854],[1.27249,52.66852],[1.27247,52.66849],[1.27251,52.66844],[1.27259,52.66843],[1.27279,52.66839],[1.27286,52.66851],[1.27295,52.66861]]]]}},
{ "type":"Feature","properties":{"osm_way_id":"179684764","amenity":"parking","other":{"access":"customers","fee":"no","parking":"surface"}}, "geometry":{"type":"MultiPolygon","coordinates":[[[[-1.38259,50.92572],[-1.38275,50.92546],[-1.38252,50.92541],[-1.38241,50.92537],[-1.38233,50.92537],[-1.3823,50.92565],[-1.38244,50.92568],[-1.38259,50.92572]]]]}},
{ "type":"Feature","properties":{"osm_way_id":"180678597","amenity":"parking","other":{"fee":"no","parking":"surface"}}, "geometry":{"type":"MultiPolygon","coordinates":[[[[1.32298,52.63984],[1.32242,52.63989],[1.32236,52.63989],[1.32238,52.63978],[1.32249,52.63977],[1.32257,52.63977],[1.32256,52.6398],[1.3226,52.6398],[1.32261,52.63976],[1.32269,52.63975],[1.32276,52.63976],[1.32276,52.63978],[1.32279,52.63978],[1.3228,52.63974],[1.32288,52.63973],[1.32295,52.63974],[1.32294,52.6398],[1.32295,52.63982],[1.32298,52.63984]]]]}},
{ "type":"Feature","properties":{"osm_way_id":"181747521","amenity":"parking","other":{"access":"customers","fee":"no","maxstay":"1.5 hour","operator":"Aldi","parking":"surface"}}, "geometry":{"type":"MultiPolygon","coordinates":[[[[1.2415,52.63908],[1.24143,52.63909],[1.24145,52.63913],[1.24126,52.63917],[1.24124,52.63913],[1.24118,52.63914],[1.24091,52.63873],[1.24087,52.63864],[1.24084,52.6386],[1.24116,52.63853],[1.24126,52.63871],[1.24134,52.63869],[1.24151,52.63897],[1.24144,52.63899],[1.2415,52.63908]]]]}},
{ "type":"Feature","properties":{"osm_way_id":"196081921","amenity":"parking","other":{"access":"yes","fee":"no","parking":"surface"}}, "geometry":{"type":"MultiPolygon","coordinates":[[[[1.25881,52.63139],[1.2588,52.63102],[1.25911,52.63101],[1.25908,52.63143],[1.25881,52.63139]]]]}},
{ "type":"Feature","properties":{"osm_way_id":"200564479","amenity":"parking","other":{"fee":"no","parking":"surface"}}, "geometry":{"type":"MultiPolygon","coordinates":[[[[1.24871,52.64605],[1.24876,52.64614],[1.24883,52.6462],[1.24888,52.64629],[1.24891,52.64637],[1.24905,52.64637],[1.24903,52.64622],[1.24895,52.64615],[1.24899,52.646],[1.24886,52.64601],[1.24871,52.64605]]]]}},
{ "type":"Feature","properties":{"osm_way_id":"203084332","amenity":"parking","other":{"capacity":"158","capacity:disabled":"8","fee":"no","parking":"surface"}}, "geometry":{"type":"MultiPolygon","coordinates":[[[[1.24788,52.62764],[1.24789,52.62699],[1.24732,52.62698],[1.24731,52.62702],[1.24684,52.627],[1.24684,52.62706],[1.24675,52.62713],[1.24672,52.62743],[1.24685,52.62753],[1.24724,52.62763],[1.24788,52.62764]]]]}},
{ "type":"Feature","properties":{"osm_way_id":"207319780","amenity":"parking","other":{"access":"yes","check_date:fee":"2021-03-30","fee":"no","parking":"surface"}}, "geometry":{"type":"MultiPolygon","coordinates":[[[[1.29951,52.67413],[1.29954,52.6742],[1.29956,52.67426],[1.29947,52.67427],[1.29946,52.67424],[1.29942,52.67414],[1.29951,52.67413]]]]}},
{ "type":"Feature","properties":{"osm_way_id":"209727665","amenity":"parking","other":{"access":"private","parking":"surface"}}, "geometry":{"type":"MultiPolygon","coordinates":[[[[1.30422,52.62904],[1.30421,52.62898],[1.30428,52.62897],[1.30426,52.62891],[1.3044,52.62884],[1.30447,52.629],[1.30422,52.62904]]]]}},
{ "type":"Feature","properties":{"osm_way_id":"209727667","amenity":"parking","other":{"access":"private","parking":"surface"}}, "geometry":{"type":"MultiPolygon","coordinates":[[[[1.30399,52.62938],[1.30398,52.62931],[1.30396,52.62924],[1.30423,52.6292],[1.30425,52.62926],[1.30417,52.62928],[1.30417,52.62933],[1.30399,52.62938]]]]}},
{ "type":"Feature","properties":{"osm_way_id":"210045109","amenity":"parking"},"geometry":{"type":"MultiPolygon","coordinates":[[[[-2.46182,56.7335],[-2.46202,56.73308],[-2.46182,56.73305],[-2.46177,56.73303],[-2.46158,56.733],[-2.46143,56.73334],[-2.46152,56.73335],[-2.46147,56.73347],[-2.4615,56.73347],[-2.46141,56.73367],[-2.46132,56.73366],[-2.46129,56.73375],[-2.46153,56.73378],[-2.46165,56.73347],[-2.46182,56.7335]]]]}},
{ "type":"Feature","properties":{"osm_way_id":"216478311","amenity":"parking","other":{"access":"customers","parking":"surface"}}, "geometry":{"type":"MultiPolygon","coordinates":[[[[1.28001,52.65539],[1.28012,52.65538],[1.28011,52.65535],[1.28014,52.65535],[1.28013,52.65527],[1.28011,52.65525],[1.28012,52.65524],[1.28015,52.65522],[1.2802,52.65516],[1.28015,52.65515],[1.28013,52.6551],[1.27995,52.65512],[1.28001,52.65539]]]]}},
{ "type":"Feature","properties":{"osm_way_id":"217480508","amenity":"parking","other":{"capacity":"12"}}, "geometry":{"type":"MultiPolygon","coordinates":[[[[1.32862,52.63059],[1.32861,52.63085],[1.3284,52.63086],[1.32842,52.63056],[1.32862,52.63059]]]]}},
{ "type":"Feature","properties":{"osm_way_id":"221611439","type":"customer","amenity":"parking","other":{"access":"customers"}}, "geometry":{"type":"MultiPolygon","coordinates":[[[[1.27714,52.65619],[1.27715,52.65624],[1.27728,52.6562],[1.27738,52.65614],[1.2775,52.65602],[1.27766,52.65581],[1.27732,52.65571],[1.27715,52.65586],[1.27736,52.65596],[1.27714,52.65619]]]]}},
{ "type":"Feature","properties":{"osm_way_id":"225791687","name":"Staff Car Park","amenity":"parking","other":{"access":"private","surface":"paved"}}, "geometry":{"type":"MultiPolygon","coordinates":[[[[1.29065,52.61379],[1.29032,52.6139],[1.29025,52.61387],[1.29021,52.61387],[1.28909,52.61414],[1.28908,52.61402],[1.29019,52.61376],[1.29018,52.61375],[1.29033,52.61371],[1.29065,52.61379]]]]}},
{ "type":"Feature","properties":{"osm_way_id":"231192003","amenity":"parking","other":{"fee":"Private parking","maxstay":"Private parking","parking":"surface"}}, "geometry":{"type":"MultiPolygon","coordinates":[[[[1.2998,52.62847],[1.29977,52.62843],[1.30009,52.62851],[1.29992,52.6288],[1.29989,52.62883],[1.29985,52.62885],[1.29981,52.62886],[1.29976,52.62887],[1.2997,52.62887],[1.29965,52.62886],[1.2998,52.62847]]]]}},
{ "type":"Feature","properties":{"osm_way_id":"234568358","name":"Staff Car Park","amenity":"parking","other":{"access":"private","surface":"paved"}}, "geometry":{"type":"MultiPolygon","coordinates":[[[[1.29246,52.61289],[1.2924,52.61283],[1.29237,52.6128],[1.29219,52.61263],[1.29184,52.61276],[1.29201,52.61291],[1.29197,52.61292],[1.29186,52.61296],[1.29167,52.61278],[1.29177,52.61274],[1.29168,52.61264],[1.29132,52.61278],[1.29168,52.61308],[1.29199,52.61296],[1.29205,52.61294],[1.29214,52.61302],[1.29241,52.61292],[1.29246,52.61289]]]]}},
{ "type":"Feature","properties":{"osm_way_id":"234568359","name":"Visitor Car Park","amenity":"parking","other":{"access":"customers","supervised":"no","surface":"paved"}}, "geometry":{"type":"MultiPolygon","coordinates":[[[[1.2924,52.61283],[1.29274,52.61271],[1.29278,52.61275],[1.29281,52.61278],[1.29293,52.61291],[1.29271,52.61302],[1.2927,52.613],[1.29273,52.61299],[1.29272,52.61297],[1.29273,52.61297],[1.29265,52.61288],[1.29263,52.61289],[1.2926,52.61285],[1.29246,52.61289],[1.2924,52.61283]]]]}},
{ "type":"Feature","properties":{"osm_way_id":"238500996","name":"Assembly Rooms","amenity":"parking","other":{"capacity":"40","capacity:disabled":"3","fee":"yes","fee:amount:17:00-09:00":"£2.50 GBP","fee:amount:per_hour:09:00-17:00":"£1.50 GBP","opening_hours":"24\/7","operator":"Assembly House","park_ride":"no","parking":"surface","website":"https:\/\/www.assemblyhousenorwich.co.uk\/index.php5\/en\/carpark"}}, "geometry":{"type":"MultiPolygon","coordinates":[[[[1.29051,52.62636],[1.29037,52.62639],[1.29027,52.62642],[1.29023,52.62642],[1.29,52.62654],[1.29,52.62658],[1.28991,52.62662],[1.28984,52.62664],[1.28995,52.62682],[1.29012,52.62678],[1.29014,52.62677],[1.29011,52.62673],[1.29021,52.62667],[1.29044,52.62662],[1.29039,52.62652],[1.2906,52.62648],[1.29051,52.62636]]]]}},
{ "type":"Feature","properties":{"osm_way_id":"238500997","name":"Chapelfield East","amenity":"parking","other":{"addr:city":"Norwich","addr:country":"GB","addr:postcode":"NR1 3SH","addr:street":"Chapel Field Road","capacity":"17","capacity:disabled":"1","fee":"yes","fee:amount:1_hour":"£2.00 GBP","fee:amount:2_hour":"£4.00 GBP","fee:amount:3_hour":"£6.00 GBP","fee:amount:4_hour":"£8.00 GBP","fee:amount:5_hour":"£8.50 GBP","fee:amount:conditional":"£2.20 GBP @ Mo-Sa,PH 18:30-05:00","fee:amount:maximum":"£15.00 GBP","opening_hours":"24\/7","operator":"Norwich City Council","park_ride":"no","parking":"surface","payment:coins":"yes","website":"https:\/\/www.norwich.gov.uk\/directory_record\/853\/chapelfield_east_car_park_nr1_3sh"}}, "geometry":{"type":"MultiPolygon","coordinates":[[[[1.28927,52.62688],[1.28933,52.62696],[1.28926,52.62699],[1.28928,52.62704],[1.28891,52.62712],[1.28886,52.62703],[1.28892,52.62702],[1.28899,52.62698],[1.28915,52.62694],[1.28921,52.6269],[1.28927,52.62688]]]]}},
{ "type":"Feature","properties":{"osm_way_id":"238501001","name":"Queens Road Car Park","amenity":"parking","other":{"access":"yes","addr:city":"Norwich","addr:country":"GB","addr:postcode":"NR1 3PG","addr:street":"Queens Road","capacity":"66","capacity:disabled":"3","fee":"yes","fee:amount:1_hour":"£1.40 GBP","fee:amount:2_hour":"£2.80 GBP","fee:amount:3_hour":"£4.20 GBP","fee:amount:4_hour":"£5.60 GBP","fee:amount:5_hour":"£6.50 GBP","fee:amount:conditional":"£2.20 GBP @ Mo-Sa,PH 18:30-05:00","fee:amount:maximum":"£8.00 GBP","opening_hours":"24\/7","operator":"Norwich City Council","park_ride":"no","parking":"surface"}}, "geometry":{"type":"MultiPolygon","coordinates":[[[[1.29704,52.62197],[1.29698,52.6219],[1.29613,52.62221],[1.29602,52.62223],[1.29472,52.62268],[1.29479,52.62276],[1.29704,52.62197]]]]}},
{ "type":"Feature","properties":{"osm_way_id":"240342002","name":"Disabled Parking","amenity":"parking","other":{"access":"yes","capacity:disabled":"yes","fee":"no","parking":"surface"}}, "geometry":{"type":"MultiPolygon","coordinates":[[[[1.27437,52.60284],[1.2743,52.60288],[1.27438,52.60293],[1.27446,52.6029],[1.27437,52.60284]]]]}},
{ "type":"Feature","properties":{"osm_way_id":"240342003","amenity":"parking","other":{"access":"yes","fee":"no","park_ride":"no","parking":"surface"}}, "geometry":{"type":"MultiPolygon","coordinates":[[[[1.27602,52.60258],[1.27603,52.6027],[1.27584,52.60275],[1.27577,52.60265],[1.27602,52.60258]]]]}},
{ "type":"Feature","properties":{"osm_way_id":"252909992","amenity":"parking","other":{"access":"customers","parking":"surface"}}, "geometry":{"type":"MultiPolygon","coordinates":[[[[1.24662,52.63472],[1.24687,52.63477],[1.24698,52.63454],[1.24686,52.63452],[1.24681,52.63451],[1.24678,52.63458],[1.2467,52.63457],[1.24662,52.63472]]]]}},
{ "type":"Feature","properties":{"osm_way_id":"252977008","amenity":"parking","other":{"access":"customers","capacity":"54","fee":"no","park_ride":"no","parking":"surface"}}, "geometry":{"type":"MultiPolygon","coordinates":[[[[1.25583,52.63496],[1.25595,52.635],[1.25686,52.63497],[1.25701,52.63493],[1.25697,52.63489],[1.25706,52.63484],[1.25693,52.63479],[1.25686,52.63482],[1.256,52.63485],[1.256,52.63487],[1.25595,52.63489],[1.25592,52.63488],[1.25583,52.63496]]]]}},
{ "type":"Feature","properties":{"osm_way_id":"254630095","name":"Notre Dame Car Park","amenity":"parking","other":{"fee":"no","parking":"surface"}}, "geometry":{"type":"MultiPolygon","coordinates":[[[[1.29873,52.62166],[1.29893,52.62173],[1.29865,52.62201],[1.29877,52.62205],[1.29852,52.62228],[1.29819,52.62217],[1.29873,52.62166]]]]}},
{ "type":"Feature","properties":{"osm_way_id":"290677086","amenity":"parking","other":{"access":"private"}}, "geometry":{"type":"MultiPolygon","coordinates":[[[[1.21102,52.64234],[1.21097,52.64187],[1.21125,52.64186],[1.21143,52.6419],[1.21147,52.64241],[1.21125,52.64242],[1.21124,52.64237],[1.21118,52.64234],[1.21102,52.64234]]]]}},
{ "type":"Feature","properties":{"osm_way_id":"299216770","name":"Visitor Parking","amenity":"parking","other":{"access":"customers","fee":"no","parking":"surface","surface":"asphalt"}}, "geometry":{"type":"MultiPolygon","coordinates":[[[[1.2187,52.64309],[1.21916,52.64307],[1.21914,52.64291],[1.21908,52.64291],[1.21908,52.64289],[1.21921,52.64288],[1.21925,52.64292],[1.21934,52.64289],[1.2193,52.64285],[1.21923,52.64285],[1.21904,52.64285],[1.21902,52.64284],[1.21863,52.64286],[1.21842,52.64277],[1.21838,52.64252],[1.21846,52.64247],[1.21826,52.64248],[1.21807,52.64248],[1.21783,52.64243],[1.21771,52.64272],[1.21799,52.64278],[1.21823,52.64277],[1.21824,52.6428],[1.2182,52.64282],[1.21814,52.64286],[1.2187,52.64309]]]]}},
{ "type":"Feature","properties":{"osm_way_id":"322743662","amenity":"parking","other":{"access":"customers","fee":"no","parking":"surface"}}, "geometry":{"type":"MultiPolygon","coordinates":[[[[1.21622,52.64323],[1.21618,52.64288],[1.21629,52.64282],[1.21629,52.64277],[1.21571,52.64278],[1.21565,52.64283],[1.21569,52.64334],[1.21628,52.64334],[1.21622,52.64323]]]]}},
{ "type":"Feature","properties":{"osm_way_id":"329852871","name":"Mountergate Car Park","amenity":"parking","other":{"charge":"4.80 GBP\/day; 1.20 GBP\/hour; 1.20 GBP\/night","charge:conditional":"1.20 GBP @ 18:00-06:00","fee":"yes","operator":"RCP Parking Ltd","parking":"surface"}}, "geometry":{"type":"MultiPolygon","coordinates":[[[[1.30186,52.62739],[1.30177,52.62733],[1.30213,52.62711],[1.30226,52.62724],[1.30186,52.62739]]]]}},
{ "type":"Feature","properties":{"osm_way_id":"361249207","amenity":"parking","other":{"access":"customers","fee":"no","parking":"surface"}}, "geometry":{"type":"MultiPolygon","coordinates":[[[[1.28344,52.6201],[1.28354,52.62],[1.28371,52.62007],[1.28367,52.62011],[1.28381,52.62014],[1.28392,52.62019],[1.28379,52.62031],[1.28368,52.62027],[1.28362,52.62017],[1.28344,52.6201]]]]}},
{ "type":"Feature","properties":{"osm_way_id":"366717223","amenity":"parking"},"geometry":{"type":"MultiPolygon","coordinates":[[[[1.28887,52.6062],[1.28891,52.60625],[1.28931,52.60612],[1.28899,52.60576],[1.28893,52.60578],[1.2889,52.60574],[1.28877,52.60578],[1.2888,52.60582],[1.28851,52.60592],[1.28879,52.60623],[1.28887,52.6062]]]]}},
{ "type":"Feature","properties":{"osm_way_id":"366717224","amenity":"parking","other":{"access":"customers","fee":"no","lit":"yes","maxstay":"4 hour","no_return":"2 hour","parking":"surface","smoothness":"excellent","supervised":"yes","surface":"asphalt"}}, "geometry":{"type":"MultiPolygon","coordinates":[[[[1.28813,52.60666],[1.28822,52.60677],[1.28819,52.60679],[1.28844,52.60707],[1.28854,52.60704],[1.28855,52.60709],[1.28917,52.60707],[1.28917,52.60703],[1.28932,52.60702],[1.28944,52.60696],[1.28963,52.6069],[1.2896,52.60686],[1.28971,52.60683],[1.28945,52.60651],[1.28961,52.60646],[1.28943,52.60625],[1.28813,52.60666]]]]}},
{ "type":"Feature","properties":{"osm_way_id":"368167547","amenity":"parking","other":{"capacity:disabled":"2","capacity:emergency":"1","fee":"no","parking":"surface"}}, "geometry":{"type":"MultiPolygon","coordinates":[[[[1.25634,52.63319],[1.25655,52.63319],[1.25655,52.63328],[1.25634,52.63328],[1.25634,52.63319]]]]}},
{ "type":"Feature","properties":{"osm_way_id":"368167548","amenity":"parking","other":{"capacity":"6","fee":"no","parking":"surface"}}, "geometry":{"type":"MultiPolygon","coordinates":[[[[1.25661,52.63328],[1.25661,52.63316],[1.25677,52.63316],[1.25677,52.63329],[1.25661,52.63328]]]]}},
{ "type":"Feature","properties":{"osm_way_id":"368167549","amenity":"parking","other":{"capacity":"6","fee":"no","parking":"surface"}}, "geometry":{"type":"MultiPolygon","coordinates":[[[[1.25627,52.63328],[1.25627,52.63319],[1.25608,52.63319],[1.25607,52.63328],[1.25627,52.63328]]]]}},
{ "type":"Feature","properties":{"osm_way_id":"383058915","name":"Rose Lane multi-storey car park","amenity":"parking","building":"yes","other":{"addr:city":"Norwich","addr:country":"GB","addr:postcode":"NR1 1PY","addr:street":"Mountergate","building:levels":"5","capacity":"595","capacity:disabled":"36","fee":"yes","fee:amount:1_hour":"£1.80 GBP","fee:amount:2_hour":"£3.60 GBP","fee:amount:3_hour":"£5.40 GBP","fee:amount:conditional":"£2.20 GBP @ Mo-Su,PH 18:30-05:00","fee:amount:maximum":"£6.00 GBP","maxheight":"2.3","opening_hours":"24\/7","park_ride":"no","parking":"multi-storey","payment:cash":"yes","payment:contactless":"yes","payment:credit_cards":"yes","payment:debit_cards":"yes","payment:visa_debit":"no","start_date":"2016-05-25 14:00 +01:00","website":"https:\/\/www.norwich.gov.uk\/directory_record\/859\/rose_lane_multi-storey_car_park_nr1_1py"}}, "geometry":{"type":"MultiPolygon","coordinates":[[[[1.30259,52.62848],[1.30308,52.62838],[1.30317,52.62835],[1.3032,52.62829],[1.30319,52.62822],[1.30307,52.62824],[1.303,52.62813],[1.30312,52.62809],[1.30309,52.62803],[1.30303,52.62794],[1.30295,52.62796],[1.30285,52.62775],[1.30284,52.62774],[1.30283,52.62771],[1.30283,52.6277],[1.30281,52.62768],[1.3028,52.62767],[1.30274,52.62767],[1.3027,52.62762],[1.30227,52.62775],[1.30234,52.62793],[1.30259,52.62848]]]]}},
{ "type":"Feature","properties":{"osm_way_id":"384799652","amenity":"parking"},"geometry":{"type":"MultiPolygon","coordinates":[[[[1.26221,52.62215],[1.26279,52.62177],[1.2629,52.62182],[1.26284,52.62187],[1.2628,52.62186],[1.26276,52.62186],[1.26268,52.62188],[1.26249,52.62201],[1.26255,52.62205],[1.26231,52.6222],[1.26226,52.62217],[1.26221,52.62215]]]]}},
{ "type":"Feature","properties":{"osm_way_id":"389036526","name":"Carphone Warehouse Car Park","amenity":"parking","other":{"access":"customers"}}, "geometry":{"type":"MultiPolygon","coordinates":[[[[1.27766,52.65657],[1.27784,52.65641],[1.27802,52.65646],[1.27788,52.65666],[1.27778,52.65662],[1.27766,52.65657]]]]}},
{ "type":"Feature","properties":{"osm_way_id":"396501819","amenity":"parking","other":{"access":"customers","fee":"no","parking":"surface","surface":"asphalt"}}, "geometry":{"type":"MultiPolygon","coordinates":[[[[1.27916,52.63346],[1.27917,52.63349],[1.279,52.63352],[1.27894,52.63342],[1.27901,52.63341],[1.27905,52.63348],[1.27916,52.63346]]]]}},
{ "type":"Feature","properties":{"osm_way_id":"396507046","amenity":"parking","other":{"access":"customers","parking":"surface","surface":"asphalt"}}, "geometry":{"type":"MultiPolygon","coordinates":[[[[1.28038,52.63291],[1.28066,52.63285],[1.28058,52.63264],[1.28028,52.6327],[1.28029,52.63272],[1.28033,52.63278],[1.28038,52.63291]]]]}},
{ "type":"Feature","properties":{"osm_way_id":"396785787","amenity":"parking"},"geometry":{"type":"MultiPolygon","coordinates":[[[[1.30457,52.63053],[1.30437,52.62992],[1.3052,52.6298],[1.30542,52.63044],[1.30457,52.63053]]]]}},
{ "type":"Feature","properties":{"osm_way_id":"397409714","amenity":"parking","other":{"access":"customers","parking":"surface","surface":"asphalt"}}, "geometry":{"type":"MultiPolygon","coordinates":[[[[1.27826,52.63314],[1.27835,52.63336],[1.2778,52.63344],[1.27774,52.63329],[1.27802,52.63325],[1.27799,52.63317],[1.27826,52.63314]]]]}},
{ "type":"Feature","properties":{"osm_way_id":"397461639","amenity":"parking","other":{"access":"customers","parking":"surface","surface":"asphalt"}}, "geometry":{"type":"MultiPolygon","coordinates":[[[[1.27944,52.5989],[1.27941,52.59883],[1.2792,52.59886],[1.27917,52.59879],[1.2802,52.59862],[1.28027,52.59877],[1.27944,52.5989]]]]}},
{ "type":"Feature","properties":{"osm_way_id":"397461640","amenity":"parking","other":{"access":"customers","parking":"surface","surface":"asphalt"}}, "geometry":{"type":"MultiPolygon","coordinates":[[[[1.27917,52.59908],[1.27917,52.59902],[1.28084,52.59897],[1.28085,52.59903],[1.28003,52.59906],[1.27998,52.59906],[1.27917,52.59908]]]]}},
{ "type":"Feature","properties":{"osm_way_id":"397461710","amenity":"parking","other":{"access":"customers","parking":"surface","surface":"asphalt"}}, "geometry":{"type":"MultiPolygon","coordinates":[[[[1.27885,52.59876],[1.27873,52.59844],[1.27896,52.59841],[1.27911,52.59872],[1.27903,52.59873],[1.27899,52.59873],[1.27885,52.59876]]]]}},
{ "type":"Feature","properties":{"osm_way_id":"401350433","amenity":"parking","other":{"access":"private","parking":"surface"}}, "geometry":{"type":"MultiPolygon","coordinates":[[[[1.27681,52.63259],[1.27701,52.63259],[1.27699,52.6324],[1.27679,52.63241],[1.27681,52.63259]]]]}},
{ "type":"Feature","properties":{"osm_way_id":"415336039","amenity":"parking"},"geometry":{"type":"MultiPolygon","coordinates":[[[[1.26304,52.63331],[1.26312,52.63318],[1.26242,52.63305],[1.26233,52.63308],[1.26221,52.63305],[1.26221,52.63302],[1.26206,52.63299],[1.26195,52.63302],[1.26134,52.6329],[1.26128,52.633],[1.26304,52.63331]]]]}},
{ "type":"Feature","properties":{"osm_way_id":"415336040","amenity":"parking"},"geometry":{"type":"MultiPolygon","coordinates":[[[[1.26118,52.63283],[1.26115,52.6328],[1.26116,52.63277],[1.26104,52.63274],[1.26097,52.63283],[1.26086,52.63282],[1.2608,52.63295],[1.26094,52.63301],[1.26107,52.63288],[1.26111,52.63288],[1.26118,52.63283]]]]}},
{ "type":"Feature","properties":{"osm_way_id":"415336041","amenity":"parking"},"geometry":{"type":"MultiPolygon","coordinates":[[[[1.26155,52.63258],[1.26161,52.63245],[1.26179,52.63248],[1.26173,52.63262],[1.26155,52.63258]]]]}},
{ "type":"Feature","properties":{"osm_way_id":"415336042","amenity":"parking"},"geometry":{"type":"MultiPolygon","coordinates":[[[[1.2617,52.63274],[1.26173,52.63268],[1.2617,52.63267],[1.26172,52.63263],[1.26154,52.6326],[1.26149,52.63271],[1.2617,52.63274]]]]}},
{ "type":"Feature","properties":{"osm_way_id":"415336043","amenity":"parking"},"geometry":{"type":"MultiPolygon","coordinates":[[[[1.26372,52.63311],[1.26383,52.63285],[1.26372,52.63285],[1.26358,52.63283],[1.26355,52.63291],[1.26363,52.63293],[1.26359,52.63301],[1.2636,52.63308],[1.26372,52.63311]]]]}},
{ "type":"Feature","properties":{"osm_way_id":"419738624","amenity":"parking","other":{"access":"customers","parking":"surface"}}, "geometry":{"type":"MultiPolygon","coordinates":[[[[1.28114,52.61108],[1.28149,52.611],[1.28139,52.61086],[1.28126,52.61061],[1.281,52.61066],[1.28113,52.61086],[1.28104,52.61089],[1.28105,52.61095],[1.28114,52.61108]]]]}},
{ "type":"Feature","properties":{"osm_way_id":"431067863","amenity":"parking","other":{"access":"customers","parking":"surface"}}, "geometry":{"type":"MultiPolygon","coordinates":[[[[1.28424,52.60233],[1.28424,52.60218],[1.2841,52.60218],[1.2841,52.60233],[1.28424,52.60233]]]]}},
{ "type":"Feature","properties":{"osm_way_id":"445782689","amenity":"parking","other":{"fee":"yes","park_ride":"no","parking":"surface"}}, "geometry":{"type":"MultiPolygon","coordinates":[[[[0.01094,50.8695],[0.01096,50.86897],[0.01119,50.86899],[0.0113,50.86899],[0.0113,50.86949],[0.01106,50.8695],[0.01094,50.8695]]]]}},
{ "type":"Feature","properties":{"osm_way_id":"457392355","amenity":"parking","other":{"access":"customers","parking":"surface"}}, "geometry":{"type":"MultiPolygon","coordinates":[[[[1.32715,52.63728],[1.32723,52.63717],[1.32737,52.63721],[1.32729,52.63731],[1.32715,52.63728]]]]}},
{ "type":"Feature","properties":{"osm_way_id":"462319663","amenity":"parking","other":{"parking":"surface"}}, "geometry":{"type":"MultiPolygon","coordinates":[[[[1.28543,52.60848],[1.2852,52.60844],[1.285,52.6088],[1.28525,52.60885],[1.28529,52.60878],[1.28527,52.60878],[1.28543,52.60848]]]]}},
{ "type":"Feature","properties":{"osm_way_id":"462553548","amenity":"parking"},"geometry":{"type":"MultiPolygon","coordinates":[[[[1.32941,52.64145],[1.3299,52.6414],[1.32983,52.64118],[1.32978,52.64112],[1.32933,52.64118],[1.32941,52.64145]]]]}},
{ "type":"Feature","properties":{"osm_way_id":"466461878","amenity":"parking","other":{"access":"customers"}}, "geometry":{"type":"MultiPolygon","coordinates":[[[[1.29995,52.63566],[1.29991,52.63574],[1.30004,52.63575],[1.30006,52.63567],[1.29995,52.63566]]]]}},
{ "type":"Feature","properties":{"osm_way_id":"466461879","amenity":"parking","other":{"access":"customers"}}, "geometry":{"type":"MultiPolygon","coordinates":[[[[1.3001,52.63576],[1.30012,52.63576],[1.30022,52.63578],[1.30024,52.6357],[1.30013,52.63568],[1.3001,52.63576]]]]}},
{ "type":"Feature","properties":{"osm_way_id":"467273859","amenity":"parking","other":{"parking":"surface"}}, "geometry":{"type":"MultiPolygon","coordinates":[[[[1.29199,52.62081],[1.29178,52.62064],[1.29163,52.6207],[1.29184,52.62088],[1.29199,52.62081]]]]}},
{ "type":"Feature","properties":{"osm_way_id":"476148082","amenity":"parking","other":{"access":"customers","fee":"no"}}, "geometry":{"type":"MultiPolygon","coordinates":[[[[-1.25109,51.4004],[-1.25109,51.40042],[-1.25107,51.40046],[-1.25065,51.4004],[-1.25067,51.40035],[-1.25067,51.40034],[-1.25109,51.4004]]]]}},
{ "type":"Feature","properties":{"osm_way_id":"479765158","amenity":"parking","other":{"access":"customers","parking":"surface"}}, "geometry":{"type":"MultiPolygon","coordinates":[[[[1.26703,52.61993],[1.26682,52.61984],[1.26657,52.62006],[1.26663,52.62009],[1.26703,52.61993]]]]}},
{ "type":"Feature","properties":{"osm_way_id":"529733927","amenity":"parking","other":{"access":"yes","fee":"no","parking":"surface"}}, "geometry":{"type":"MultiPolygon","coordinates":[[[[1.21513,52.64432],[1.21514,52.64452],[1.21492,52.64453],[1.21491,52.64432],[1.21502,52.64432],[1.21513,52.64432]]]]}},
{ "type":"Feature","properties":{"osm_way_id":"531018514","amenity":"parking","other":{"access":"private"}}, "geometry":{"type":"MultiPolygon","coordinates":[[[[1.29444,52.6245],[1.29428,52.62446],[1.29405,52.62487],[1.29421,52.6249],[1.29444,52.6245]]]]}},
{ "type":"Feature","properties":{"osm_way_id":"531018518","amenity":"parking","other":{"access":"private"}}, "geometry":{"type":"MultiPolygon","coordinates":[[[[1.29457,52.62419],[1.2947,52.62419],[1.29481,52.6243],[1.29481,52.62432],[1.29478,52.62436],[1.29474,52.62437],[1.29469,52.62437],[1.29447,52.62427],[1.29457,52.62419]]]]}},
{ "type":"Feature","properties":{"osm_way_id":"533818177","amenity":"parking","other":{"parking":"surface"}}, "geometry":{"type":"MultiPolygon","coordinates":[[[[1.27173,52.63179],[1.27152,52.63178],[1.27152,52.63188],[1.27172,52.63188],[1.27173,52.63179]]]]}},
{ "type":"Feature","properties":{"osm_way_id":"536892578","amenity":"parking","other":{"fee":"no","parking":"surface","surface":"asphalt"}}, "geometry":{"type":"MultiPolygon","coordinates":[[[[1.33472,52.64419],[1.33479,52.64417],[1.33487,52.64422],[1.335,52.64439],[1.33476,52.64445],[1.33469,52.64435],[1.33472,52.64419]]]]}},
{ "type":"Feature","properties":{"osm_way_id":"539423133","name":"Enterprise Centre and Earlham Park Visitors Car Park Zone B","amenity":"parking","other":{"access":"private","capacity":"26","capacity:disabled":"3","fee":"no","lit":"yes","maxstay:conditional":"2 hour @ Mo-Fr 08:30-17:30","no_return:conditional":"4 hour @ Mo-Fr 08:30-17:30","opening_hours":"Mo-Su 06:00-02:00","operator":"NCP","owner":"Norwich City Council","park_ride":"no","parking":"surface","supervised":"yes","surveillance":"public"}}, "geometry":{"type":"MultiPolygon","coordinates":[[[[1.23931,52.62641],[1.23978,52.62642],[1.23981,52.62613],[1.23955,52.62609],[1.23954,52.6263],[1.23937,52.62629],[1.23932,52.62629],[1.23931,52.62641]]]]}},
{ "type":"Feature","properties":{"osm_way_id":"539910970","amenity":"parking","other":{"access":"private"}}, "geometry":{"type":"MultiPolygon","coordinates":[[[[1.29393,52.62377],[1.29412,52.62392],[1.29386,52.62406],[1.29366,52.62389],[1.29393,52.62377]]]]}},
{ "type":"Feature","properties":{"osm_way_id":"541291337","amenity":"parking","other":{"access":"customers","capacity":"22","capacity:disabled":"2","fee":"no","parking":"surface","smoothness":"good","surface":"asphalt"}}, "geometry":{"type":"MultiPolygon","coordinates":[[[[1.28684,52.63424],[1.28699,52.63411],[1.28711,52.63424],[1.28729,52.63441],[1.28727,52.63443],[1.28722,52.63452],[1.28728,52.63453],[1.28723,52.63464],[1.2872,52.6347],[1.28688,52.63464],[1.28689,52.63463],[1.28718,52.6344],[1.28701,52.63432],[1.28684,52.63424]]]]}},
{ "type":"Feature","properties":{"osm_way_id":"541582356","amenity":"parking","other":{"access":"private","capacity":"10"}}, "geometry":{"type":"MultiPolygon","coordinates":[[[[1.29044,52.62114],[1.29056,52.62124],[1.29073,52.62116],[1.29061,52.62106],[1.29044,52.62114]]]]}},
{ "type":"Feature","properties":{"osm_way_id":"543661601","amenity":"parking","other":{"parking":"surface"}}, "geometry":{"type":"MultiPolygon","coordinates":[[[[1.28988,52.61234],[1.29,52.6124],[1.29032,52.61234],[1.29011,52.61189],[1.29001,52.61179],[1.28997,52.61176],[1.28982,52.61183],[1.28971,52.61188],[1.28966,52.61192],[1.28988,52.61234]]]]}},
{ "type":"Feature","properties":{"osm_way_id":"545683301","amenity":"parking","other":{"fee":"yes","operator":"RCP"}}, "geometry":{"type":"MultiPolygon","coordinates":[[[[1.28982,52.6276],[1.28994,52.62779],[1.29025,52.62772],[1.29014,52.62753],[1.28982,52.6276]]]]}},
{ "type":"Feature","properties":{"osm_way_id":"545698726","amenity":"parking"},"geometry":{"type":"MultiPolygon","coordinates":[[[[1.30993,52.64981],[1.30977,52.64988],[1.30999,52.65008],[1.31016,52.65002],[1.30993,52.64981]]]]}},
{ "type":"Feature","properties":{"osm_way_id":"545698729","amenity":"parking","other":{"access":"customers","fee":"no","operator":"Aldi","parking":"surface"}}, "geometry":{"type":"MultiPolygon","coordinates":[[[[1.30926,52.64928],[1.30887,52.64942],[1.30903,52.64954],[1.30868,52.64972],[1.30892,52.6499],[1.30899,52.64992],[1.30905,52.64992],[1.30961,52.64964],[1.30926,52.64928]]]]}},
{ "type":"Feature","properties":{"osm_way_id":"547437878","amenity":"parking"},"geometry":{"type":"MultiPolygon","coordinates":[[[[1.25844,52.64775],[1.25933,52.64771],[1.25945,52.64798],[1.2591,52.64804],[1.25912,52.64808],[1.25867,52.64815],[1.25865,52.6481],[1.25848,52.64813],[1.25835,52.64783],[1.25843,52.64782],[1.25845,52.64779],[1.25844,52.64775]]]]}},
{ "type":"Feature","properties":{"osm_way_id":"547460176","amenity":"parking","other":{"access":"private"}}, "geometry":{"type":"MultiPolygon","coordinates":[[[[1.30619,52.63504],[1.30608,52.635],[1.30599,52.63498],[1.3056,52.63492],[1.30523,52.63445],[1.30581,52.63443],[1.30656,52.63451],[1.30661,52.63464],[1.30608,52.6348],[1.30608,52.63491],[1.30619,52.63504]]]]}},
{ "type":"Feature","properties":{"osm_way_id":"547460177","amenity":"parking","other":{"access":"private"}}, "geometry":{"type":"MultiPolygon","coordinates":[[[[1.30608,52.63491],[1.30608,52.6348],[1.30661,52.63464],[1.30666,52.63478],[1.30655,52.63479],[1.30661,52.6349],[1.3067,52.63489],[1.30677,52.63511],[1.30716,52.63512],[1.30722,52.63534],[1.3069,52.63545],[1.30687,52.63541],[1.30658,52.6355],[1.30619,52.63504],[1.30608,52.63491]]]]}},
{ "type":"Feature","properties":{"osm_way_id":"548008987","amenity":"parking","other":{"access":"private"}}, "geometry":{"type":"MultiPolygon","coordinates":[[[[1.242,52.63243],[1.2421,52.63232],[1.24198,52.63227],[1.242,52.63243]]]]}},
{ "type":"Feature","properties":{"osm_way_id":"548008988","amenity":"parking"},"geometry":{"type":"MultiPolygon","coordinates":[[[[1.24144,52.63238],[1.24146,52.63248],[1.2417,52.63246],[1.24168,52.63236],[1.24144,52.63238]]]]}},
{ "type":"Feature","properties":{"osm_way_id":"548624332","amenity":"parking","other":{"fee":"yes"}}, "geometry":{"type":"MultiPolygon","coordinates":[[[[1.28285,52.62949],[1.28288,52.62974],[1.28267,52.6298],[1.28256,52.62967],[1.28259,52.62954],[1.28281,52.62943],[1.28285,52.62949]]]]}},
{ "type":"Feature","properties":{"osm_way_id":"548905200","amenity":"parking","other":{"access":"private","park_ride":"no","parking":"surface","surface":"asphalt"}}, "geometry":{"type":"MultiPolygon","coordinates":[[[[1.30215,52.63712],[1.30204,52.63698],[1.30161,52.6371],[1.30171,52.63722],[1.30193,52.63717],[1.30215,52.63712]]]]}},
{ "type":"Feature","properties":{"osm_way_id":"549152270","amenity":"parking","other":{"access":"private","parking":"surface"}}, "geometry":{"type":"MultiPolygon","coordinates":[[[[1.30282,52.63704],[1.30303,52.63703],[1.30303,52.63698],[1.30314,52.63697],[1.30309,52.6367],[1.30265,52.63672],[1.30267,52.63684],[1.30275,52.63684],[1.30275,52.63693],[1.30267,52.63695],[1.3027,52.63704],[1.30282,52.63704]]]]}},
{ "type":"Feature","properties":{"osm_way_id":"550271091","amenity":"parking","other":{"access":"private","operator":"Jarrold"}}, "geometry":{"type":"MultiPolygon","coordinates":[[[[1.30302,52.63542],[1.30304,52.63591],[1.30383,52.63589],[1.3048,52.6357],[1.30457,52.63536],[1.30439,52.63542],[1.30302,52.63542]]]]}},
{ "type":"Feature","properties":{"osm_way_id":"557471171","amenity":"parking"},"geometry":{"type":"MultiPolygon","coordinates":[[[[1.30606,52.63372],[1.30612,52.63378],[1.30612,52.63407],[1.30585,52.63407],[1.30572,52.63406],[1.30573,52.63387],[1.30597,52.63387],[1.30594,52.63371],[1.30606,52.63372]]]]}},
{ "type":"Feature","properties":{"osm_way_id":"557471174","amenity":"parking"},"geometry":{"type":"MultiPolygon","coordinates":[[[[1.30631,52.63347],[1.30649,52.63357],[1.30643,52.63401],[1.30621,52.634],[1.30623,52.63373],[1.30609,52.63367],[1.30606,52.63362],[1.30631,52.63347]]]]}},
{ "type":"Feature","properties":{"osm_way_id":"557471176","amenity":"parking"},"geometry":{"type":"MultiPolygon","coordinates":[[[[1.30625,52.6333],[1.30632,52.63312],[1.30699,52.63321],[1.30693,52.63338],[1.30681,52.63339],[1.30681,52.63343],[1.30635,52.63344],[1.30635,52.63338],[1.30622,52.63336],[1.30625,52.6333]]]]}},
{ "type":"Feature","properties":{"osm_way_id":"568692915","amenity":"parking","other":{"parking":"surface"}}, "geometry":{"type":"MultiPolygon","coordinates":[[[[1.27507,52.6447],[1.27513,52.64448],[1.27483,52.64445],[1.27477,52.6447],[1.2749,52.64471],[1.27491,52.64471],[1.27507,52.6447]]]]}},
{ "type":"Feature","properties":{"osm_way_id":"569847306","amenity":"parking","other":{"access":"private"}}, "geometry":{"type":"MultiPolygon","coordinates":[[[[1.29803,52.62282],[1.29798,52.62288],[1.29812,52.62293],[1.29817,52.62287],[1.29803,52.62282]]]]}},
{ "type":"Feature","properties":{"osm_way_id":"577488695","amenity":"parking","other":{"access":"customers","capacity":"30","fee":"no","parking":"surface"}}, "geometry":{"type":"MultiPolygon","coordinates":[[[[1.26799,52.62981],[1.26785,52.6298],[1.26775,52.63025],[1.26758,52.63095],[1.26773,52.63096],[1.26789,52.63026],[1.26799,52.62981]]]]}},
{ "type":"Feature","properties":{"osm_way_id":"577727452","amenity":"parking","other":{"access":"customers","capacity":"30","fee":"no","parking":"surface"}}, "geometry":{"type":"MultiPolygon","coordinates":[[[[1.26763,52.63128],[1.2675,52.63126],[1.26728,52.63214],[1.26741,52.63216],[1.26763,52.63128]]]]}},
{ "type":"Feature","properties":{"osm_way_id":"589651775","amenity":"parking","other":{"access":"private","parking":"surface"}}, "geometry":{"type":"MultiPolygon","coordinates":[[[[1.30991,52.62932],[1.30971,52.62932],[1.30972,52.62954],[1.30991,52.62954],[1.30991,52.62932]]]]}},
{ "type":"Feature","properties":{"osm_way_id":"593389911","amenity":"parking","other":{"parking":"surface"}}, "geometry":{"type":"MultiPolygon","coordinates":[[[[1.26834,52.60979],[1.26768,52.60935],[1.26791,52.60918],[1.26881,52.60985],[1.26866,52.60992],[1.26834,52.60979]]]]}},
{ "type":"Feature","properties":{"osm_way_id":"597274402","amenity":"parking","other":{"parking":"surface"}}, "geometry":{"type":"MultiPolygon","coordinates":[[[[1.2756,52.61904],[1.2757,52.61896],[1.27541,52.61881],[1.2753,52.61889],[1.2756,52.61904]]]]}},
{ "type":"Feature","properties":{"osm_way_id":"598092420","name":"Customer Parking","amenity":"parking","other":{"access":"customers","capacity":"61","capacity:disabled":"6","parking":"surface"}}, "geometry":{"type":"MultiPolygon","coordinates":[[[[1.26464,52.65185],[1.26437,52.65177],[1.26453,52.65156],[1.26425,52.65148],[1.26407,52.65171],[1.26396,52.65168],[1.26374,52.65197],[1.2644,52.65216],[1.26464,52.65185]]]]}},
{ "type":"Feature","properties":{"osm_way_id":"604398709","amenity":"parking","other":{"access":"customers"}}, "geometry":{"type":"MultiPolygon","coordinates":[[[[1.2978,52.61895],[1.29783,52.61895],[1.29785,52.61903],[1.29787,52.61911],[1.29769,52.61913],[1.29768,52.61908],[1.29751,52.6191],[1.29744,52.61911],[1.29738,52.61885],[1.29743,52.61881],[1.29766,52.61879],[1.29768,52.61885],[1.29749,52.61887],[1.29753,52.61898],[1.2978,52.61895]]]]}},
{ "type":"Feature","properties":{"osm_way_id":"619128086","amenity":"parking","other":{"fee":"no","parking":"surface","surface":"grass"}}, "geometry":{"type":"MultiPolygon","coordinates":[[[[1.23707,52.63218],[1.23702,52.63198],[1.2373,52.63196],[1.23735,52.63216],[1.23707,52.63218]]]]}},
{ "type":"Feature","properties":{"osm_way_id":"621544988","amenity":"parking","other":{"access":"customers","capacity":"11","fee":"no","parking":"surface","surface":"asphalt"}}, "geometry":{"type":"MultiPolygon","coordinates":[[[[1.29728,52.60738],[1.29771,52.60736],[1.2977,52.60729],[1.29767,52.60729],[1.29732,52.60731],[1.29727,52.60731],[1.29727,52.60735],[1.29728,52.60738]]]]}},
{ "type":"Feature","properties":{"osm_way_id":"621945452","amenity":"parking","other":{"access":"customers","fee":"no","parking":"surface"}}, "geometry":{"type":"MultiPolygon","coordinates":[[[[1.3013,52.61048],[1.30144,52.61052],[1.30155,52.61037],[1.30141,52.61033],[1.30131,52.6103],[1.3012,52.61045],[1.3013,52.61048]]]]}},
{ "type":"Feature","properties":{"osm_way_id":"621945453","amenity":"parking","other":{"access":"yes","fee":"no","parking":"layby"}}, "geometry":{"type":"MultiPolygon","coordinates":[[[[1.30142,52.6102],[1.30145,52.61023],[1.30167,52.61029],[1.30176,52.61028],[1.30142,52.6102]]]]}},
{ "type":"Feature","properties":{"osm_way_id":"633083117","amenity":"parking","other":{"access":"customers","fee":"no","parking":"surface"}}, "geometry":{"type":"MultiPolygon","coordinates":[[[[1.28296,52.60112],[1.28301,52.60117],[1.28566,52.60141],[1.28573,52.60139],[1.28588,52.60091],[1.28628,52.60094],[1.28647,52.60017],[1.28629,52.60016],[1.28626,52.60027],[1.2863,52.60028],[1.28623,52.60053],[1.28619,52.60053],[1.28612,52.6008],[1.28611,52.60085],[1.2831,52.60059],[1.28296,52.60112]]]]}},
{ "type":"Feature","properties":{"osm_way_id":"641615925","amenity":"parking","other":{"fee":"no","parking":"surface","surface":"asphalt"}}, "geometry":{"type":"MultiPolygon","coordinates":[[[[1.22596,52.63953],[1.22613,52.63953],[1.22615,52.63936],[1.226,52.6392],[1.22588,52.63917],[1.22589,52.63931],[1.22596,52.63953]]]]}},
{ "type":"Feature","properties":{"osm_way_id":"651675695","amenity":"parking","other":{"access":"customers","operator":"{my}Dentist","parking":"surface","supervised":"yes"}}, "geometry":{"type":"MultiPolygon","coordinates":[[[[1.30443,52.63682],[1.30473,52.63675],[1.30463,52.63658],[1.30444,52.63662],[1.30442,52.63658],[1.30438,52.63658],[1.30435,52.63659],[1.30443,52.63682]]]]}},
{ "type":"Feature","properties":{"osm_way_id":"656790763","amenity":"parking","other":{"access":"private","parking":"surface"}}, "geometry":{"type":"MultiPolygon","coordinates":[[[[1.30732,52.61918],[1.30712,52.6191],[1.30703,52.61906],[1.30719,52.61891],[1.3074,52.61883],[1.30743,52.61893],[1.30744,52.61899],[1.30732,52.61918]]]]}},
{ "type":"Feature","properties":{"osm_way_id":"660965960","amenity":"parking","other":{"access":"customers","fee":"no","operator":"Cushions","parking":"surface","surface":"gravel"}}, "geometry":{"type":"MultiPolygon","coordinates":[[[[1.28453,52.63367],[1.28431,52.63337],[1.28445,52.63333],[1.2843,52.63311],[1.28443,52.63306],[1.28454,52.63303],[1.28459,52.63306],[1.28474,52.63325],[1.28487,52.63322],[1.28492,52.63328],[1.28507,52.63324],[1.28512,52.63329],[1.28517,52.63335],[1.28517,52.63339],[1.28518,52.63343],[1.28515,52.63346],[1.28479,52.63355],[1.28482,52.63359],[1.28453,52.63367]]]]}},
{ "type":"Feature","properties":{"osm_way_id":"661411750","amenity":"parking","other":{"access":"customers","fee":"no","parking":"surface"}}, "geometry":{"type":"MultiPolygon","coordinates":[[[[1.27508,52.66689],[1.27505,52.66683],[1.27552,52.66675],[1.27559,52.66689],[1.27528,52.66695],[1.27526,52.6669],[1.27508,52.66689]]]]}},
{ "type":"Feature","properties":{"osm_way_id":"661745032","amenity":"parking","other":{"access":"private","parking":"surface"}}, "geometry":{"type":"MultiPolygon","coordinates":[[[[1.28564,52.62713],[1.2856,52.62712],[1.28552,52.62708],[1.28541,52.62696],[1.28569,52.62672],[1.28591,52.62684],[1.28589,52.62686],[1.28564,52.62713]]]]}},
{ "type":"Feature","properties":{"osm_way_id":"674132108","amenity":"parking","other":{"access":"private","parking":"surface"}}, "geometry":{"type":"MultiPolygon","coordinates":[[[[1.29554,52.61418],[1.29555,52.61387],[1.29529,52.61387],[1.29529,52.61418],[1.29536,52.61418],[1.29554,52.61418]]]]}},
{ "type":"Feature","properties":{"osm_way_id":"674132111","amenity":"parking","other":{"access":"permit","parking":"surface"}}, "geometry":{"type":"MultiPolygon","coordinates":[[[[1.29529,52.61324],[1.29527,52.61305],[1.29552,52.61302],[1.29552,52.61324],[1.29529,52.61324]]]]}},
{ "type":"Feature","properties":{"osm_way_id":"674132113","amenity":"parking","other":{"access":"permit","parking":"surface"}}, "geometry":{"type":"MultiPolygon","coordinates":[[[[1.29546,52.61257],[1.29541,52.61234],[1.29522,52.61238],[1.29518,52.61239],[1.29522,52.61259],[1.29546,52.61257]]]]}},
{ "type":"Feature","properties":{"osm_way_id":"676513275","amenity":"parking","other":{"access":"permit","operator":"Lakenham Primary School","parking":"surface","surface":"asphalt"}}, "geometry":{"type":"MultiPolygon","coordinates":[[[[1.29942,52.61613],[1.29941,52.6161],[1.29937,52.61595],[1.29967,52.61588],[1.3,52.61582],[1.30003,52.61583],[1.30015,52.61602],[1.2998,52.61606],[1.29965,52.61611],[1.29949,52.61613],[1.29942,52.61613]]]]}},
{ "type":"Feature","properties":{"osm_way_id":"690797768","amenity":"parking","other":{"parking":"layby"}}, "geometry":{"type":"MultiPolygon","coordinates":[[[[1.23194,52.63795],[1.23191,52.63794],[1.23185,52.63791],[1.23191,52.63789],[1.23194,52.6379],[1.23199,52.63793],[1.23194,52.63795]]]]}},
{ "type":"Feature","properties":{"osm_way_id":"690816354","amenity":"parking","other":{"access":"private","capacity":"5","fee":"no","parking":"surface","surface":"asphalt"}}, "geometry":{"type":"MultiPolygon","coordinates":[[[[1.23632,52.63854],[1.23625,52.63855],[1.2363,52.63864],[1.23636,52.63863],[1.23639,52.63868],[1.23633,52.63869],[1.23638,52.63877],[1.23644,52.63875],[1.23632,52.63854]]]]}},
{ "type":"Feature","properties":{"osm_way_id":"690816355","amenity":"parking","other":{"access":"private","capacity":"5","fee":"no","parking":"surface","surface":"asphalt"}}, "geometry":{"type":"MultiPolygon","coordinates":[[[[1.2365,52.63848],[1.23657,52.63847],[1.23662,52.63856],[1.23656,52.63857],[1.23659,52.63862],[1.23665,52.63861],[1.2367,52.63868],[1.23663,52.6387],[1.2365,52.63848]]]]}},
{ "type":"Feature","properties":{"osm_way_id":"691283919","amenity":"parking","other":{"access":"permissive","capacity":"13"}}, "geometry":{"type":"MultiPolygon","coordinates":[[[[1.29242,52.63929],[1.29248,52.63935],[1.29253,52.63941],[1.29227,52.6395],[1.29222,52.63945],[1.29216,52.63938],[1.29242,52.63929]]]]}},
{ "type":"Feature","properties":{"osm_way_id":"692996290","amenity":"parking","other":{"access":"private","fee":"no","parking":"surface"}}, "geometry":{"type":"MultiPolygon","coordinates":[[[[1.21372,52.64442],[1.21378,52.64442],[1.21399,52.64443],[1.21406,52.64443],[1.21405,52.64424],[1.21398,52.64424],[1.21377,52.64429],[1.21371,52.64429],[1.21372,52.64442]]]]}},
{ "type":"Feature","properties":{"osm_way_id":"692996291","amenity":"parking","other":{"access":"private","fee":"no","parking":"surface"}}, "geometry":{"type":"MultiPolygon","coordinates":[[[[1.21409,52.64439],[1.21417,52.64438],[1.2144,52.64438],[1.21441,52.64433],[1.21447,52.64433],[1.21447,52.64427],[1.2144,52.64422],[1.21433,52.64423],[1.21416,52.64423],[1.21408,52.64424],[1.21409,52.64439]]]]}},
{ "type":"Feature","properties":{"osm_way_id":"705054556","amenity":"parking","other":{"access":"private","capacity":"115","parking":"surface","surface":"asphalt"}}, "geometry":{"type":"MultiPolygon","coordinates":[[[[1.20949,52.64394],[1.21004,52.6439],[1.21005,52.6439],[1.21006,52.64389],[1.21007,52.64388],[1.21007,52.64387],[1.20996,52.64328],[1.20996,52.64327],[1.20994,52.64327],[1.20993,52.64326],[1.20991,52.64326],[1.20938,52.6433],[1.20949,52.64394]]]]}},
{ "type":"Feature","properties":{"osm_way_id":"705496651","amenity":"parking"},"geometry":{"type":"MultiPolygon","coordinates":[[[[1.29142,52.64256],[1.29184,52.64267],[1.29189,52.64269],[1.29213,52.64238],[1.29162,52.64225],[1.29142,52.64256]]]]}},
{ "type":"Feature","properties":{"osm_way_id":"711991609","amenity":"parking"},"geometry":{"type":"MultiPolygon","coordinates":[[[[1.2303,52.63709],[1.23052,52.63717],[1.23022,52.63748],[1.22998,52.63739],[1.2303,52.63709]]]]}},
{ "type":"Feature","properties":{"osm_way_id":"711991610","amenity":"parking"},"geometry":{"type":"MultiPolygon","coordinates":[[[[1.22969,52.63679],[1.22992,52.63656],[1.22977,52.63645],[1.22932,52.63671],[1.22942,52.63674],[1.22949,52.63671],[1.22969,52.63679]]]]}},
{ "type":"Feature","properties":{"osm_way_id":"715307261","amenity":"parking","other":{"parking":"surface","surface":"asphalt"}}, "geometry":{"type":"MultiPolygon","coordinates":[[[[1.28519,52.61632],[1.28545,52.61627],[1.28531,52.61604],[1.28523,52.61606],[1.28522,52.61608],[1.28517,52.61609],[1.28514,52.61608],[1.28506,52.61609],[1.28519,52.61632]]]]}},
{ "type":"Feature","properties":{"osm_way_id":"718101540","amenity":"parking","other":{"access":"permit","access:conditional":"permit @ (Mo-Fr 08:00-18:30)","capacity":"12","parking":"surface","surface":"asphalt"}}, "geometry":{"type":"MultiPolygon","coordinates":[[[[1.29858,52.61347],[1.29866,52.61342],[1.29891,52.61358],[1.29883,52.61363],[1.29858,52.61347]]]]}},
{ "type":"Feature","properties":{"osm_way_id":"718101541","amenity":"parking","other":{"access":"customers","fee":"no","operator":"Jubilee Centre","operator:type":"community","parking":"surface"}}, "geometry":{"type":"MultiPolygon","coordinates":[[[[1.29883,52.61385],[1.29894,52.61392],[1.29861,52.61411],[1.2985,52.61404],[1.29883,52.61385]]]]}},
{ "type":"Feature","properties":{"osm_way_id":"727854536","amenity":"parking","other":{"fee":"no","parking":"surface"}}, "geometry":{"type":"MultiPolygon","coordinates":[[[[1.27718,52.63349],[1.27716,52.63335],[1.27696,52.63337],[1.27699,52.63351],[1.27718,52.63349]]]]}},
{ "type":"Feature","properties":{"osm_way_id":"736585730","amenity":"parking"},"geometry":{"type":"MultiPolygon","coordinates":[[[[1.27611,52.63477],[1.27651,52.63471],[1.27647,52.63456],[1.27602,52.63461],[1.27604,52.63478],[1.27611,52.63477]]]]}},
{ "type":"Feature","properties":{"osm_way_id":"747094000","name":"Pay on Foot Visitor Car Park","amenity":"parking","other":{"fee":"yes","operator":"Norfolk Count Council"}}, "geometry":{"type":"MultiPolygon","coordinates":[[[[1.30863,52.61542],[1.3086,52.61539],[1.30867,52.61536],[1.30861,52.61531],[1.30869,52.61528],[1.30857,52.61519],[1.30851,52.61521],[1.30792,52.61473],[1.30759,52.61444],[1.30777,52.61435],[1.30722,52.61388],[1.30718,52.6139],[1.30711,52.61385],[1.30663,52.61407],[1.30682,52.61422],[1.30703,52.61438],[1.30707,52.61436],[1.30731,52.61456],[1.30819,52.61532],[1.30825,52.6153],[1.30836,52.61539],[1.30842,52.61537],[1.30851,52.61545],[1.30863,52.61542]]]]}},
{ "type":"Feature","properties":{"osm_way_id":"751933605","name":"S.C.V.A.","amenity":"parking","other":{"access":"permissive","fee":"no","parking":"surface"}}, "geometry":{"type":"MultiPolygon","coordinates":[[[[1.23569,52.62055],[1.23572,52.6203],[1.23597,52.6203],[1.23639,52.62031],[1.23637,52.62058],[1.23569,52.62055]]]]}},
{ "type":"Feature","properties":{"osm_way_id":"784293368","amenity":"parking","other":{"access":"customers","parking":"surface"}}, "geometry":{"type":"MultiPolygon","coordinates":[[[[1.29781,52.62452],[1.2981,52.62462],[1.29821,52.6245],[1.29813,52.62446],[1.29815,52.62443],[1.29831,52.62448],[1.29836,52.62442],[1.29836,52.62436],[1.29825,52.62433],[1.29831,52.62425],[1.29818,52.62421],[1.29809,52.62431],[1.29813,52.62432],[1.29812,52.62434],[1.29802,52.62431],[1.29781,52.62452]]]]}},
{ "type":"Feature","properties":{"osm_way_id":"787118699","amenity":"parking"},"geometry":{"type":"MultiPolygon","coordinates":[[[[1.28507,52.65454],[1.28532,52.65451],[1.28524,52.65432],[1.285,52.65436],[1.28501,52.65439],[1.28507,52.65454]]]]}},
{ "type":"Feature","properties":{"osm_way_id":"787118700","amenity":"parking"},"geometry":{"type":"MultiPolygon","coordinates":[[[[1.28478,52.65429],[1.28481,52.65428],[1.28494,52.65427],[1.28483,52.65399],[1.28471,52.65401],[1.28467,52.65401],[1.28478,52.65429]]]]}},
{ "type":"Feature","properties":{"osm_way_id":"787122444","amenity":"parking"},"geometry":{"type":"MultiPolygon","coordinates":[[[[1.2846,52.65542],[1.28449,52.65543],[1.28428,52.65546],[1.28435,52.65565],[1.28467,52.65561],[1.2846,52.65542]]]]}},
{ "type":"Feature","properties":{"osm_way_id":"804892772","amenity":"parking","other":{"access":"permit","parking":"surface"}}, "geometry":{"type":"MultiPolygon","coordinates":[[[[1.29379,52.6343],[1.2938,52.63426],[1.29374,52.63422],[1.2937,52.6342],[1.29365,52.63412],[1.29355,52.63412],[1.29351,52.63411],[1.2935,52.63417],[1.29345,52.63416],[1.29346,52.63424],[1.29331,52.63425],[1.29331,52.63427],[1.29379,52.6343]]]]}},
{ "type":"Feature","properties":{"osm_way_id":"809265633","amenity":"parking","other":{"access":"private","parking":"street_side"}}, "geometry":{"type":"MultiPolygon","coordinates":[[[[1.29238,52.64178],[1.29237,52.64188],[1.29228,52.64188],[1.29229,52.64178],[1.29238,52.64178]]]]}},
{ "type":"Feature","properties":{"osm_way_id":"810333159","amenity":"parking","other":{"access":"permit","parking":"surface","surface":"asphalt"}}, "geometry":{"type":"MultiPolygon","coordinates":[[[[1.27299,52.61708],[1.2729,52.61713],[1.27305,52.61723],[1.27311,52.6172],[1.27318,52.61724],[1.27321,52.61723],[1.27329,52.61719],[1.27307,52.61704],[1.27299,52.61708]]]]}},
{ "type":"Feature","properties":{"osm_way_id":"812520717","amenity":"parking","other":{"access":"private","fee":"no","lit":"yes","parking":"surface","supervised":"no","surface":"asphalt"}}, "geometry":{"type":"MultiPolygon","coordinates":[[[[1.27139,52.67102],[1.27145,52.67084],[1.27163,52.67075],[1.27182,52.67068],[1.27204,52.67063],[1.2722,52.6706],[1.27251,52.67059],[1.27266,52.6706],[1.27271,52.6706],[1.27273,52.67072],[1.27272,52.67077],[1.2725,52.67075],[1.27242,52.67076],[1.2723,52.67076],[1.2722,52.67077],[1.27207,52.6708],[1.27198,52.67081],[1.27182,52.67086],[1.27174,52.6709],[1.27164,52.67096],[1.27157,52.671],[1.27153,52.67101],[1.27149,52.67102],[1.27144,52.67103],[1.27139,52.67102]]]]}},
{ "type":"Feature","properties":{"osm_way_id":"816218011","amenity":"parking"},"geometry":{"type":"MultiPolygon","coordinates":[[[[1.27757,52.63949],[1.27792,52.63947],[1.27786,52.63916],[1.27752,52.63919],[1.27757,52.63949]]]]}},
{ "type":"Feature","properties":{"osm_way_id":"826443875","amenity":"parking"},"geometry":{"type":"MultiPolygon","coordinates":[[[[1.22074,52.64202],[1.22026,52.64204],[1.22023,52.64167],[1.2207,52.64166],[1.22074,52.64202]]]]}},
{ "type":"Feature","properties":{"osm_way_id":"826954851","amenity":"parking"},"geometry":{"type":"MultiPolygon","coordinates":[[[[1.25206,52.60701],[1.25189,52.60709],[1.25169,52.60693],[1.25187,52.60685],[1.25206,52.60701]]]]}},
{ "type":"Feature","properties":{"osm_way_id":"840583094","name":"High Altitude Carpark","amenity":"parking","other":{"access":"customers","capacity":"20","covered":"no","fee":"no","parking":"surface","surface":"asphalt"}}, "geometry":{"type":"MultiPolygon","coordinates":[[[[1.26521,52.65182],[1.26528,52.65174],[1.26488,52.65162],[1.26482,52.6517],[1.26521,52.65182]]]]}},
{ "type":"Feature","properties":{"osm_way_id":"840583095","amenity":"parking","other":{"access":"customers","fee":"no","operator:type":"private","parking":"surface","surface":"asphalt"}}, "geometry":{"type":"MultiPolygon","coordinates":[[[[1.268,52.65367],[1.26809,52.65355],[1.26779,52.65346],[1.26789,52.65334],[1.26762,52.65325],[1.26752,52.65337],[1.26681,52.65316],[1.26674,52.65314],[1.26699,52.65282],[1.26708,52.65285],[1.2671,52.65281],[1.26734,52.65288],[1.26737,52.65283],[1.26757,52.65289],[1.26767,52.65278],[1.26783,52.65282],[1.26793,52.65268],[1.26761,52.65259],[1.26748,52.65276],[1.26716,52.65266],[1.26706,52.65281],[1.26671,52.65271],[1.26658,52.65266],[1.26621,52.65316],[1.268,52.65367]]]]}},
{ "type":"Feature","properties":{"osm_way_id":"843544563","amenity":"parking","other":{"access":"customers","parking":"surface"}}, "geometry":{"type":"MultiPolygon","coordinates":[[[[1.28555,52.61935],[1.28559,52.61934],[1.28548,52.61917],[1.28493,52.61931],[1.28499,52.6194],[1.28506,52.61942],[1.28509,52.61947],[1.28555,52.61935]]]]}},
{ "type":"Feature","properties":{"osm_way_id":"843858992","amenity":"parking","other":{"access":"customers","operator":"The Unthank Arms","operator:type":"business","parking":"surface"}}, "geometry":{"type":"MultiPolygon","coordinates":[[[[1.27886,52.62105],[1.27886,52.62108],[1.27859,52.62129],[1.27873,52.62136],[1.27898,52.62114],[1.27899,52.62113],[1.27898,52.62112],[1.27904,52.62107],[1.27902,52.62105],[1.27892,52.621],[1.27886,52.62105]]]]}},
{ "type":"Feature","properties":{"osm_way_id":"850534899","amenity":"parking","other":{"access":"private","parking":"surface"}}, "geometry":{"type":"MultiPolygon","coordinates":[[[[1.27998,52.66718],[1.28007,52.66728],[1.28057,52.66778],[1.28085,52.66767],[1.28092,52.6677],[1.28149,52.6675],[1.2813,52.66688],[1.28057,52.66701],[1.27998,52.66718]]]]}},
{ "type":"Feature","properties":{"osm_way_id":"851765595","amenity":"parking","other":{"access":"permissive","capacity":"60","operator":"Norwich International Airport","operator:type":"private","parking":"surface","surface":"concrete"}}, "geometry":{"type":"MultiPolygon","coordinates":[[[[1.26893,52.67258],[1.26907,52.67224],[1.26863,52.67217],[1.26849,52.67251],[1.26893,52.67258]]]]}},
{ "type":"Feature","properties":{"osm_way_id":"854399214","amenity":"parking"},"geometry":{"type":"MultiPolygon","coordinates":[[[[-3.09663,57.6073],[-3.09658,57.60734],[-3.09655,57.60737],[-3.09652,57.60739],[-3.09646,57.60744],[-3.0969,57.60758],[-3.09698,57.60751],[-3.09706,57.60745],[-3.09663,57.6073]]]]}},
{ "type":"Feature","properties":{"osm_way_id":"855470023","amenity":"parking","other":{"access":"private","parking":"surface"}}, "geometry":{"type":"MultiPolygon","coordinates":[[[[1.27898,52.66893],[1.27964,52.6689],[1.2798,52.669],[1.27987,52.66907],[1.27938,52.66907],[1.27938,52.66921],[1.27905,52.66928],[1.27899,52.66929],[1.27898,52.66893]]]]}},
{ "type":"Feature","properties":{"osm_way_id":"855472855","amenity":"parking","other":{"access":"customers","fee":"no","parking":"surface"}}, "geometry":{"type":"MultiPolygon","coordinates":[[[[1.28316,52.66756],[1.28313,52.66803],[1.28327,52.66813],[1.28399,52.66817],[1.28409,52.66756],[1.28317,52.66749],[1.28316,52.66756]]]]}},
{ "type":"Feature","properties":{"osm_way_id":"855475342","amenity":"parking"},"geometry":{"type":"MultiPolygon","coordinates":[[[[1.27856,52.66489],[1.27866,52.66487],[1.27885,52.66484],[1.27943,52.66489],[1.27954,52.66512],[1.27962,52.66529],[1.2795,52.66532],[1.27936,52.66505],[1.27893,52.66513],[1.27889,52.66505],[1.27876,52.66507],[1.27866,52.66509],[1.27856,52.66489]]]]}},
{ "type":"Feature","properties":{"osm_way_id":"855476376","amenity":"parking"},"geometry":{"type":"MultiPolygon","coordinates":[[[[1.27802,52.66453],[1.27814,52.66454],[1.27805,52.66485],[1.27801,52.66488],[1.27754,52.66497],[1.27741,52.66493],[1.27752,52.66448],[1.27756,52.66448],[1.27802,52.66453]]]]}},
{ "type":"Feature","properties":{"osm_way_id":"855476381","amenity":"parking"},"geometry":{"type":"MultiPolygon","coordinates":[[[[1.28076,52.66412],[1.28143,52.66419],[1.28156,52.66373],[1.28089,52.66366],[1.28076,52.66412]]]]}},
{ "type":"Feature","properties":{"osm_way_id":"855476382","amenity":"parking"},"geometry":{"type":"MultiPolygon","coordinates":[[[[1.28108,52.66418],[1.28105,52.6643],[1.28089,52.66428],[1.28087,52.66435],[1.28091,52.66436],[1.28136,52.6644],[1.28141,52.66421],[1.28108,52.66418]]]]}},
{ "type":"Feature","properties":{"osm_way_id":"856114362","amenity":"parking","other":{"access":"private","parking":"surface"}}, "geometry":{"type":"MultiPolygon","coordinates":[[[[1.27894,52.66874],[1.27929,52.66876],[1.27921,52.66836],[1.27882,52.6685],[1.27894,52.66874]]]]}},
{ "type":"Feature","properties":{"osm_way_id":"856114363","amenity":"parking","other":{"access":"permissive","parking":"surface"}}, "geometry":{"type":"MultiPolygon","coordinates":[[[[1.27931,52.66879],[1.27973,52.66882],[1.27993,52.66875],[1.27946,52.66827],[1.27921,52.66836],[1.27931,52.66879]]]]}},
{ "type":"Feature","properties":{"osm_way_id":"856114703","amenity":"parking","other":{"access":"private","parking":"surface"}}, "geometry":{"type":"MultiPolygon","coordinates":[[[[1.28074,52.66884],[1.28086,52.66898],[1.28095,52.66899],[1.28161,52.66876],[1.28145,52.66859],[1.28074,52.66884]]]]}},
{ "type":"Feature","properties":{"osm_way_id":"856115268","amenity":"parking","other":{"access":"private","parking":"surface"}}, "geometry":{"type":"MultiPolygon","coordinates":[[[[1.2833,52.66845],[1.28332,52.66835],[1.28442,52.6684],[1.28489,52.66848],[1.28485,52.66857],[1.28444,52.66854],[1.28443,52.66857],[1.28399,52.66854],[1.284,52.6685],[1.28388,52.6685],[1.28387,52.66854],[1.28345,52.66851],[1.28345,52.66849],[1.2834,52.66849],[1.28341,52.66845],[1.2833,52.66845]]]]}},
{ "type":"Feature","properties":{"osm_way_id":"856115437","amenity":"parking","other":{"access":"private","parking":"surface"}}, "geometry":{"type":"MultiPolygon","coordinates":[[[[1.28444,52.6669],[1.28447,52.66677],[1.28526,52.66682],[1.2852,52.66713],[1.28514,52.66713],[1.28515,52.66708],[1.28508,52.66708],[1.2851,52.66695],[1.28444,52.6669]]]]}},
{ "type":"Feature","properties":{"osm_way_id":"866599900","name":"staff parking","amenity":"parking","other":{"access":"private"}}, "geometry":{"type":"MultiPolygon","coordinates":[[[[-1.70294,53.90313],[-1.70309,53.9031],[-1.70346,53.90304],[-1.70349,53.90301],[-1.70354,53.90299],[-1.70355,53.90301],[-1.70361,53.90308],[-1.70299,53.90321],[-1.70294,53.90313]]]]}},
{ "type":"Feature","properties":{"osm_way_id":"867519104","amenity":"parking","other":{"access":"private","parking":"surface"}}, "geometry":{"type":"MultiPolygon","coordinates":[[[[1.28017,52.62155],[1.28021,52.62151],[1.27999,52.62143],[1.27995,52.62147],[1.2799,52.62146],[1.27987,52.62144],[1.27991,52.6214],[1.27978,52.62136],[1.27968,52.62143],[1.27978,52.62147],[1.27979,52.62147],[1.2799,52.62151],[1.28,52.62155],[1.28,52.62155],[1.28001,52.62156],[1.28012,52.6216],[1.28017,52.62155]]]]}},
{ "type":"Feature","properties":{"osm_way_id":"878232096","amenity":"parking"},"geometry":{"type":"MultiPolygon","coordinates":[[[[1.30824,52.63287],[1.30824,52.63301],[1.30779,52.63301],[1.30779,52.63297],[1.30772,52.63297],[1.30772,52.63301],[1.30758,52.63301],[1.30758,52.63297],[1.30742,52.63297],[1.30742,52.63288],[1.30771,52.63287],[1.30772,52.63292],[1.3078,52.63292],[1.3078,52.63288],[1.30824,52.63287]]]]}},
{ "type":"Feature","properties":{"osm_way_id":"878234672","amenity":"parking"},"geometry":{"type":"MultiPolygon","coordinates":[[[[1.30835,52.63278],[1.30835,52.63308],[1.3086,52.63308],[1.30861,52.63278],[1.30835,52.63278]]]]}},
{ "type":"Feature","properties":{"osm_way_id":"882540049","amenity":"parking","other":{"access":"customers"}}, "geometry":{"type":"MultiPolygon","coordinates":[[[[-1.4922,52.91594],[-1.49232,52.91592],[-1.49224,52.91573],[-1.49215,52.91575],[-1.4921,52.91562],[-1.49237,52.91557],[-1.49253,52.91586],[-1.49224,52.91599],[-1.4922,52.91594]]]]}},
{ "type":"Feature","properties":{"osm_way_id":"884291930","amenity":"parking","other":{"access":"private","parking":"surface"}}, "geometry":{"type":"MultiPolygon","coordinates":[[[[-3.15474,55.90546],[-3.1545,55.90529],[-3.15436,55.90536],[-3.15444,55.90542],[-3.15437,55.90545],[-3.15452,55.90556],[-3.15474,55.90546]]]]}},
{ "type":"Feature","properties":{"osm_way_id":"884291931","amenity":"parking","other":{"access":"private","parking":"surface"}}, "geometry":{"type":"MultiPolygon","coordinates":[[[[-3.15367,55.90593],[-3.15346,55.90579],[-3.15326,55.90589],[-3.15351,55.90605],[-3.1536,55.90601],[-3.15356,55.90598],[-3.15367,55.90593]]]]}},
{ "type":"Feature","properties":{"osm_way_id":"889486531","amenity":"parking","other":{"access":"yes","fee":"no","surface":"asphalt"}}, "geometry":{"type":"MultiPolygon","coordinates":[[[[1.32622,52.63192],[1.32661,52.63188],[1.32654,52.63161],[1.32614,52.63165],[1.32622,52.63192]]]]}},
{ "type":"Feature","properties":{"osm_way_id":"894559523","amenity":"parking","other":{"access":"private","layer":"-1","parking":"underground","surface":"asphalt"}}, "geometry":{"type":"MultiPolygon","coordinates":[[[[1.28647,52.62243],[1.28658,52.62252],[1.28676,52.62245],[1.28663,52.62235],[1.28647,52.62243]]]]}},
{ "type":"Feature","properties":{"osm_way_id":"896972729","amenity":"parking","other":{"access":"customers","parking":"surface"}}, "geometry":{"type":"MultiPolygon","coordinates":[[[[1.28457,52.62103],[1.28455,52.62102],[1.28466,52.62092],[1.28469,52.62093],[1.28471,52.62093],[1.2849,52.62101],[1.28493,52.62102],[1.28497,52.62103],[1.28483,52.62115],[1.28457,52.62103]]]]}},
{ "type":"Feature","properties":{"osm_way_id":"898163295","amenity":"parking"},"geometry":{"type":"MultiPolygon","coordinates":[[[[1.31105,52.62189],[1.31104,52.62182],[1.31106,52.62163],[1.31108,52.62163],[1.31139,52.62161],[1.31143,52.62186],[1.3111,52.62188],[1.31105,52.62189]]]]}},
{ "type":"Feature","properties":{"osm_way_id":"911483192","name":"Visitors' Car Park","amenity":"parking","other":{"access":"official","disused:amenity":"parking","disused:parking":"surface","fee":"yes","layer":"1"}}, "geometry":{"type":"MultiPolygon","coordinates":[[[[1.23889,52.62227],[1.2389,52.6222],[1.23883,52.6222],[1.23884,52.62212],[1.23884,52.62211],[1.23934,52.62213],[1.23954,52.62227],[1.23979,52.62245],[1.23971,52.62247],[1.23969,52.62249],[1.23945,52.62231],[1.23942,52.62229],[1.23889,52.62227]]]]}},
{ "type":"Feature","properties":{"osm_way_id":"922101888","amenity":"parking"},"geometry":{"type":"MultiPolygon","coordinates":[[[[1.29707,52.64438],[1.29671,52.64429],[1.29678,52.64417],[1.29714,52.64424],[1.29707,52.64438]]]]}},
{ "type":"Feature","properties":{"osm_way_id":"931302217","amenity":"parking","other":{"access":"private","operator":"Norwich International Airport","operator:type":"private","parking":"surface"}}, "geometry":{"type":"MultiPolygon","coordinates":[[[[1.28014,52.66897],[1.27946,52.66827],[1.28153,52.6676],[1.28187,52.66841],[1.28014,52.66897]]]]}},
{ "type":"Feature","properties":{"osm_way_id":"931411047","amenity":"parking","other":{"capacity":"3"}}, "geometry":{"type":"MultiPolygon","coordinates":[[[[1.2998,52.63197],[1.29994,52.63199],[1.29996,52.63196],[1.29991,52.63195],[1.29992,52.63194],[1.29983,52.63192],[1.2998,52.63197]]]]}},
{ "type":"Feature","properties":{"osm_way_id":"936397395","amenity":"parking","other":{"access":"private","capacity:disabled":"2","parking":"surface"}}, "geometry":{"type":"MultiPolygon","coordinates":[[[[1.28875,52.66787],[1.2895,52.66815],[1.28943,52.66833],[1.28934,52.66837],[1.28883,52.66803],[1.28866,52.66795],[1.28875,52.66787]]]]}},
{ "type":"Feature","properties":{"osm_way_id":"936397398","amenity":"parking","other":{"access":"private","parking":"surface"}}, "geometry":{"type":"MultiPolygon","coordinates":[[[[1.28713,52.66745],[1.28686,52.66733],[1.28569,52.66854],[1.28601,52.6686],[1.28736,52.66757],[1.28713,52.66745]]]]}},
{ "type":"Feature","properties":{"osm_way_id":"936403288","amenity":"parking","other":{"access":"customers","fee":"no","parking":"surface"}}, "geometry":{"type":"MultiPolygon","coordinates":[[[[1.27471,52.66649],[1.27336,52.66674],[1.27346,52.66698],[1.27367,52.66742],[1.27504,52.66715],[1.27476,52.66657],[1.27471,52.66649]]]]}},
{ "type":"Feature","properties":{"osm_way_id":"936403289","amenity":"parking","other":{"access":"customers","fee":"no","parking":"surface"}}, "geometry":{"type":"MultiPolygon","coordinates":[[[[1.27265,52.66703],[1.27283,52.66697],[1.27319,52.66692],[1.27334,52.66693],[1.27346,52.66698],[1.27367,52.66742],[1.27353,52.66745],[1.27349,52.66736],[1.2734,52.66734],[1.27333,52.66735],[1.27332,52.66738],[1.27337,52.66739],[1.27331,52.6675],[1.27323,52.66749],[1.27321,52.66754],[1.27313,52.66752],[1.27316,52.66747],[1.27313,52.66746],[1.27324,52.66734],[1.27318,52.66731],[1.27323,52.66728],[1.27332,52.66726],[1.27334,52.66729],[1.27339,52.66727],[1.2734,52.66724],[1.27334,52.66725],[1.27325,52.66706],[1.27285,52.66712],[1.27284,52.66718],[1.27281,52.66724],[1.27273,52.6673],[1.27256,52.66734],[1.27249,52.66746],[1.27264,52.6675],[1.27266,52.66759],[1.27257,52.66774],[1.27231,52.66767],[1.27237,52.66758],[1.27218,52.66755],[1.27238,52.66721],[1.27247,52.66723],[1.27252,52.66711],[1.27265,52.66703]]]]}},
{ "type":"Feature","properties":{"osm_way_id":"942712581","amenity":"parking","other":{"parking":"surface"}}, "geometry":{"type":"MultiPolygon","coordinates":[[[[1.28801,52.66748],[1.28867,52.66781],[1.28899,52.66739],[1.2882,52.66719],[1.28801,52.66748]]]]}},
{ "type":"Feature","properties":{"osm_way_id":"942714739","amenity":"parking","other":{"operator":"Mercedes Benz \/ Mitsubishi","parking":"surface"}}, "geometry":{"type":"MultiPolygon","coordinates":[[[[1.288,52.66961],[1.28891,52.67014],[1.28941,52.67011],[1.28939,52.66998],[1.28945,52.66981],[1.28848,52.6693],[1.288,52.66961]]]]}},
{ "type":"Feature","properties":{"osm_way_id":"942714740","amenity":"parking","other":{"parking":"surface"}}, "geometry":{"type":"MultiPolygon","coordinates":[[[[1.28517,52.66981],[1.28496,52.67009],[1.28532,52.67038],[1.28541,52.67035],[1.28648,52.67095],[1.28673,52.67073],[1.28718,52.67095],[1.28724,52.67091],[1.28517,52.66981]]]]}},
{ "type":"Feature","properties":{"osm_way_id":"953900675","amenity":"parking","other":{"access":"private","parking":"surface"}}, "geometry":{"type":"MultiPolygon","coordinates":[[[[1.26854,52.62933],[1.26858,52.62932],[1.26851,52.629],[1.26847,52.629],[1.26854,52.62933]]]]}},
{ "type":"Feature","properties":{"osm_way_id":"956545150","amenity":"parking","other":{"access":"private","parking":"surface"}}, "geometry":{"type":"MultiPolygon","coordinates":[[[[-3.20365,55.92804],[-3.20347,55.92746],[-3.20339,55.92747],[-3.20348,55.92777],[-3.20353,55.92792],[-3.20358,55.92805],[-3.20365,55.92804]]]]}},
{ "type":"Feature","properties":{"osm_way_id":"962418767","amenity":"parking","other":{"parking":"surface"}}, "geometry":{"type":"MultiPolygon","coordinates":[[[[-0.94881,52.32525],[-0.94865,52.32499],[-0.94898,52.32495],[-0.94912,52.32516],[-0.94905,52.32518],[-0.94902,52.3252],[-0.94881,52.32525]]]]}},
{ "type":"Feature","properties":{"osm_way_id":"969552501","amenity":"parking"},"geometry":{"type":"MultiPolygon","coordinates":[[[[1.22819,52.63727],[1.22825,52.63718],[1.22837,52.63721],[1.22832,52.6373],[1.22819,52.63727]]]]}},
{ "type":"Feature","properties":{"osm_way_id":"969552502","amenity":"parking"},"geometry":{"type":"MultiPolygon","coordinates":[[[[1.22841,52.63714],[1.22829,52.63711],[1.22835,52.63702],[1.22846,52.63705],[1.22841,52.63714]]]]}},
{ "type":"Feature","properties":{"osm_way_id":"969552504","amenity":"parking"},"geometry":{"type":"MultiPolygon","coordinates":[[[[1.22769,52.63723],[1.22775,52.63716],[1.22729,52.63701],[1.22723,52.63709],[1.22769,52.63723]]]]}},
{ "type":"Feature","properties":{"osm_way_id":"969552505","amenity":"parking"},"geometry":{"type":"MultiPolygon","coordinates":[[[[1.22692,52.637],[1.22689,52.63705],[1.22723,52.63717],[1.22727,52.63711],[1.22692,52.637]]]]}},
{ "type":"Feature","properties":{"osm_way_id":"969552507","amenity":"parking"},"geometry":{"type":"MultiPolygon","coordinates":[[[[1.227,52.63746],[1.22697,52.63747],[1.22701,52.63751],[1.22705,52.6375],[1.227,52.63746]]]]}},
{ "type":"Feature","properties":{"osm_way_id":"969552508","amenity":"parking"},"geometry":{"type":"MultiPolygon","coordinates":[[[[1.22707,52.63751],[1.22703,52.63753],[1.22708,52.63756],[1.22712,52.63755],[1.22707,52.63751]]]]}},
{ "type":"Feature","properties":{"osm_way_id":"969552509","amenity":"parking"},"geometry":{"type":"MultiPolygon","coordinates":[[[[1.22714,52.63757],[1.2271,52.63758],[1.22715,52.63762],[1.22718,52.6376],[1.22714,52.63757]]]]}},
{ "type":"Feature","properties":{"osm_way_id":"969560056","amenity":"parking"},"geometry":{"type":"MultiPolygon","coordinates":[[[[1.26167,52.64798],[1.26164,52.64789],[1.26091,52.64801],[1.26095,52.6481],[1.26167,52.64798]]]]}},
{ "type":"Feature","properties":{"osm_way_id":"969560057","amenity":"parking"},"geometry":{"type":"MultiPolygon","coordinates":[[[[1.26244,52.64867],[1.26298,52.64857],[1.26286,52.64831],[1.26281,52.6482],[1.26243,52.64808],[1.26219,52.64811],[1.26244,52.64867]]]]}},
{ "type":"Feature","properties":{"osm_way_id":"969580946","amenity":"parking"},"geometry":{"type":"MultiPolygon","coordinates":[[[[1.23088,52.63734],[1.23075,52.63745],[1.23086,52.63751],[1.23099,52.63739],[1.23088,52.63734]]]]}},
{ "type":"Feature","properties":{"osm_way_id":"969580948","amenity":"parking"},"geometry":{"type":"MultiPolygon","coordinates":[[[[1.2286,52.63759],[1.22858,52.63764],[1.22923,52.63778],[1.22925,52.63775],[1.2286,52.63759]]]]}},
{ "type":"Feature","properties":{"osm_way_id":"973324979","amenity":"parking","other":{"access":"customers","parking":"surface"}}, "geometry":{"type":"MultiPolygon","coordinates":[[[[1.30509,52.65092],[1.3049,52.65096],[1.30486,52.65087],[1.30511,52.65083],[1.30509,52.65092]]]]}},
{ "type":"Feature","properties":{"osm_way_id":"973324981","amenity":"parking","other":{"access":"customers","parking":"surface"}}, "geometry":{"type":"MultiPolygon","coordinates":[[[[1.3048,52.64955],[1.30475,52.64946],[1.30527,52.64937],[1.30531,52.64945],[1.3048,52.64955]]]]}},
{ "type":"Feature","properties":{"osm_way_id":"973447103","amenity":"parking"},"geometry":{"type":"MultiPolygon","coordinates":[[[[1.27991,52.65339],[1.28027,52.65332],[1.28017,52.65311],[1.28004,52.65314],[1.27998,52.65305],[1.2799,52.65302],[1.27973,52.65306],[1.2797,52.65311],[1.27965,52.65316],[1.27963,52.6532],[1.27986,52.65323],[1.27982,52.65334],[1.27992,52.65336],[1.27991,52.65339]]]]}},
{ "type":"Feature","properties":{"osm_way_id":"974134212","amenity":"parking"},"geometry":{"type":"MultiPolygon","coordinates":[[[[1.27989,52.66826],[1.27992,52.66829],[1.28035,52.66814],[1.28032,52.66811],[1.27989,52.66826]]]]}},
{ "type":"Feature","properties":{"osm_way_id":"987655483","amenity":"parking"},"geometry":{"type":"MultiPolygon","coordinates":[[[[1.2452,52.62799],[1.24555,52.62804],[1.24556,52.62799],[1.24565,52.628],[1.24567,52.62791],[1.24562,52.6279],[1.24526,52.62785],[1.2452,52.62799]]]]}},
{ "type":"Feature","properties":{"osm_way_id":"993038554","amenity":"parking","other":{"access":"customers","fee":"no","opening_hours":"24\/7","parking":"surface","surface":"asphalt"}}, "geometry":{"type":"MultiPolygon","coordinates":[[[[1.28756,52.65646],[1.28781,52.65641],[1.28777,52.65619],[1.28748,52.6562],[1.28756,52.65646]]]]}},
{ "type":"Feature","properties":{"osm_way_id":"999242014","amenity":"parking","other":{"access":"private"}}, "geometry":{"type":"MultiPolygon","coordinates":[[[[1.24455,52.62188],[1.24454,52.62196],[1.24493,52.62197],[1.24493,52.6219],[1.2449,52.6219],[1.2449,52.62189],[1.24455,52.62188]]]]}},
{ "type":"Feature","properties":{"osm_way_id":"1000819127","amenity":"parking"},"geometry":{"type":"MultiPolygon","coordinates":[[[[-2.19721,51.17907],[-2.19727,51.17907],[-2.19726,51.17891],[-2.19659,51.179],[-2.1966,51.17905],[-2.1965,51.17906],[-2.19647,51.17923],[-2.19676,51.17922],[-2.19682,51.17908],[-2.19682,51.17903],[-2.19683,51.17902],[-2.19683,51.17901],[-2.19696,51.179],[-2.197,51.179],[-2.197,51.17899],[-2.19708,51.17899],[-2.19709,51.17901],[-2.19722,51.17901],[-2.19721,51.17907]]]]}},
{ "type":"Feature","properties":{"osm_way_id":"1004287064","amenity":"parking","other":{"parking":"surface"}}, "geometry":{"type":"MultiPolygon","coordinates":[[[[1.24833,52.63757],[1.24888,52.63747],[1.24887,52.63752],[1.24842,52.6376],[1.24833,52.63757]]]]}},
{ "type":"Feature","properties":{"osm_way_id":"1006829348","amenity":"parking","other":{"access":"customers","parking":"surface"}}, "geometry":{"type":"MultiPolygon","coordinates":[[[[1.29364,52.64254],[1.29357,52.64252],[1.29378,52.64223],[1.29381,52.64223],[1.29373,52.64234],[1.2937,52.64239],[1.29374,52.6424],[1.29368,52.64248],[1.29366,52.64251],[1.29364,52.64254]]]]}},
{ "type":"Feature","properties":{"osm_way_id":"1010249003","amenity":"parking"},"geometry":{"type":"MultiPolygon","coordinates":[[[[1.2478,52.64085],[1.24813,52.64071],[1.24805,52.64063],[1.24771,52.64078],[1.2478,52.64085]]]]}},
{ "type":"Feature","properties":{"osm_way_id":"1010249316","amenity":"parking"},"geometry":{"type":"MultiPolygon","coordinates":[[[[1.24664,52.64156],[1.24673,52.6415],[1.24682,52.64143],[1.24669,52.64137],[1.24651,52.6415],[1.24664,52.64156]]]]}},
{ "type":"Feature","properties":{"osm_way_id":"1020576507","amenity":"parking"},"geometry":{"type":"MultiPolygon","coordinates":[[[[1.29017,52.65968],[1.29013,52.65986],[1.28987,52.65983],[1.2899,52.65968],[1.28999,52.65968],[1.28999,52.65966],[1.29017,52.65968]]]]}},
{ "type":"Feature","properties":{"osm_way_id":"1023341669","amenity":"parking"},"geometry":{"type":"MultiPolygon","coordinates":[[[[1.25133,52.64818],[1.25147,52.64821],[1.25159,52.64825],[1.2517,52.64829],[1.25162,52.64835],[1.25161,52.64836],[1.25157,52.64834],[1.2513,52.64823],[1.25133,52.64818]]]]}},
{ "type":"Feature","properties":{"osm_way_id":"1028637479","amenity":"parking","other":{"access":"customers","fee":"no","parking":"surface","surface":"asphalt"}}, "geometry":{"type":"MultiPolygon","coordinates":[[[[1.21677,52.64292],[1.2168,52.64281],[1.21686,52.64279],[1.21742,52.64291],[1.21816,52.6432],[1.21811,52.64324],[1.21821,52.64335],[1.21835,52.64347],[1.21828,52.64354],[1.21821,52.64352],[1.21819,52.64354],[1.21826,52.64356],[1.21818,52.64362],[1.21812,52.6436],[1.21794,52.64368],[1.21788,52.64365],[1.21806,52.64348],[1.21813,52.6435],[1.21817,52.64338],[1.21808,52.64334],[1.21797,52.64344],[1.21785,52.64339],[1.21795,52.6433],[1.21767,52.64318],[1.21756,52.64328],[1.21729,52.64316],[1.21734,52.64311],[1.2172,52.64302],[1.21714,52.643],[1.21687,52.64294],[1.21677,52.64292]]]]}},
{ "type":"Feature","properties":{"osm_way_id":"1035927564","amenity":"parking","other":{"description":"Parking in on the ground floor","layer":"-1"}}, "geometry":{"type":"MultiPolygon","coordinates":[[[[1.28694,52.63208],[1.28595,52.63239],[1.28561,52.63199],[1.28577,52.63193],[1.28593,52.63189],[1.2862,52.63183],[1.28694,52.63208]]]]}},
{ "type":"Feature","properties":{"osm_way_id":"1037764839","name":"Overflow parking","amenity":"parking","other":{"access":"customers","fee":"no","parking":"surface","surface":"asphalt"}}, "geometry":{"type":"MultiPolygon","coordinates":[[[[1.21939,52.64272],[1.21922,52.64273],[1.21921,52.64258],[1.21918,52.64253],[1.21917,52.64248],[1.21943,52.64247],[1.21944,52.64257],[1.21941,52.64257],[1.21941,52.64262],[1.21939,52.64272]]]]}},
{ "type":"Feature","properties":{"osm_way_id":"1044285014","amenity":"parking","other":{"access":"private"}}, "geometry":{"type":"MultiPolygon","coordinates":[[[[-5.05658,50.26089],[-5.05657,50.26092],[-5.05657,50.26094],[-5.05655,50.26097],[-5.05653,50.26099],[-5.05652,50.26101],[-5.05649,50.26103],[-5.05647,50.26105],[-5.05644,50.26107],[-5.05641,50.26109],[-5.05638,50.2611],[-5.05635,50.26112],[-5.05632,50.26113],[-5.05629,50.26114],[-5.05627,50.26115],[-5.05624,50.26112],[-5.05623,50.26113],[-5.05619,50.2611],[-5.05626,50.26105],[-5.05628,50.26104],[-5.05629,50.26102],[-5.0563,50.261],[-5.05629,50.26098],[-5.05627,50.26096],[-5.05625,50.26095],[-5.05619,50.26092],[-5.05622,50.26089],[-5.05624,50.2609],[-5.05625,50.26088],[-5.05642,50.2609],[-5.05641,50.26091],[-5.05642,50.26091],[-5.05644,50.26091],[-5.05644,50.2609],[-5.05644,50.26089],[-5.05645,50.26087],[-5.05638,50.26086],[-5.05639,50.26084],[-5.0564,50.26081],[-5.05642,50.26079],[-5.05644,50.26077],[-5.05647,50.26074],[-5.0565,50.26073],[-5.05654,50.26071],[-5.05658,50.2607],[-5.05662,50.26068],[-5.05664,50.26073],[-5.05667,50.26073],[-5.0567,50.26072],[-5.05672,50.26071],[-5.05672,50.2607],[-5.05672,50.26068],[-5.05672,50.26068],[-5.05671,50.26066],[-5.05665,50.26068],[-5.05663,50.26066],[-5.05661,50.26064],[-5.0566,50.26062],[-5.05658,50.26061],[-5.05656,50.26059],[-5.05661,50.26056],[-5.05661,50.26055],[-5.05665,50.26054],[-5.05668,50.26053],[-5.05674,50.2605],[-5.05676,50.26052],[-5.05678,50.26054],[-5.0568,50.26056],[-5.05682,50.26058],[-5.05684,50.2606],[-5.05686,50.26061],[-5.05687,50.26063],[-5.05682,50.26066],[-5.05681,50.26066],[-5.05682,50.26067],[-5.05683,50.26067],[-5.0569,50.26067],[-5.0569,50.26069],[-5.0569,50.26071],[-5.05691,50.26073],[-5.05691,50.26075],[-5.05692,50.26078],[-5.05685,50.26078],[-5.05684,50.26078],[-5.05684,50.26079],[-5.05685,50.26082],[-5.05687,50.26083],[-5.05689,50.26085],[-5.05697,50.26085],[-5.05704,50.26084],[-5.05705,50.26087],[-5.05704,50.26089],[-5.05703,50.26092],[-5.05701,50.26095],[-5.05703,50.26095],[-5.05699,50.26099],[-5.05692,50.26095],[-5.05693,50.26094],[-5.05686,50.2609],[-5.05685,50.26088],[-5.05683,50.26085],[-5.05681,50.26083],[-5.05679,50.26083],[-5.05678,50.26083],[-5.05675,50.26083],[-5.05671,50.26083],[-5.05668,50.26083],[-5.05664,50.26083],[-5.05665,50.26079],[-5.05665,50.26078],[-5.05665,50.26078],[-5.05662,50.26078],[-5.05659,50.26079],[-5.05657,50.2608],[-5.05655,50.26082],[-5.05652,50.26084],[-5.05652,50.26086],[-5.05651,50.26087],[-5.05651,50.26089],[-5.05658,50.26089]]]]}}
]
}
