{
"type": "FeatureCollection",
"features": [
{ "type":"Feature","properties":{"osm_way_id":"146627235","name":"Wincanton","building":"warehouse"},"geometry":{"type":"MultiPolygon","coordinates":[[[[-2.67174,50.94942],[-2.671,50.94948],[-2.6708,50.94853],[-2.67155,50.94847],[-2.67174,50.94942]]]]}},
{ "type":"Feature","properties":{"osm_way_id":"199682171","building":"warehouse"},"geometry":{"type":"MultiPolygon","coordinates":[[[[-2.90358,50.95529],[-2.90367,50.95543],[-2.90374,50.95542],[-2.90376,50.95546],[-2.90364,50.95549],[-2.9035,50.95531],[-2.90358,50.95529]]]]}},
{ "type":"Feature","properties":{"osm_way_id":"199682989","building":"warehouse"},"geometry":{"type":"MultiPolygon","coordinates":[[[[-2.90661,50.9507],[-2.90689,50.95069],[-2.9069,50.95088],[-2.90663,50.95089],[-2.90661,50.9507]]]]}},
{ "type":"Feature","properties":{"osm_way_id":"506809135","building":"warehouse","other":{"addr:city":"Ilminster","addr:country":"GB","addr:county":"Somerset","addr:postcode":"TA19 9DJ","addr:street":"Harts Close","building:levels":"2"}}, "geometry":{"type":"MultiPolygon","coordinates":[[[[-2.92719,50.92998],[-2.92738,50.92939],[-2.92706,50.92935],[-2.92686,50.92994],[-2.92719,50.92998]]]]}},
{ "type":"Feature","properties":{"osm_way_id":"712673603","name":"Southwest Motor Homes","building":"warehouse","other":{"addr:city":"Ilminster","addr:country":"GB","addr:county":"Somerset","addr:parentstreet":"Jordans Road","addr:postcode":"TA19 9FF","addr:street":"Southfields Enterprise Park","addr:unit":"1"}}, "geometry":{"type":"MultiPolygon","coordinates":[[[[-2.93558,50.93239],[-2.93515,50.93237],[-2.93514,50.93252],[-2.93557,50.93254],[-2.93558,50.93239]]]]}},
{ "type":"Feature","properties":{"osm_way_id":"714068155","name":"Sub 82","building":"warehouse","other":{"addr:city":"Ilminster","addr:country":"GB","addr:county":"Somerset","addr:housename":"Broadoak Park","addr:postcode":"TA19 9FA","addr:street":"Canal Way","addr:unit":"3"}}, "geometry":{"type":"MultiPolygon","coordinates":[[[[-2.92745,50.92908],[-2.92732,50.92894],[-2.92724,50.92897],[-2.92736,50.92911],[-2.92745,50.92908]]]]}},
{ "type":"Feature","properties":{"osm_way_id":"801972505","building":"warehouse","other":{"addr:city":"Ilminster","addr:country":"GB","addr:county":"Somerset","addr:parentstreet":"Harts Close","addr:postcode":"TA19 9DJ","addr:street":"Canal Wharf Industrial Units","addr:unit":"3","building:levels":"2"}}, "geometry":{"type":"MultiPolygon","coordinates":[[[[-2.92656,50.9293],[-2.92661,50.92915],[-2.92646,50.92914],[-2.92642,50.92929],[-2.92656,50.9293]]]]}},
{ "type":"Feature","properties":{"osm_way_id":"801972508","building":"warehouse","other":{"addr:city":"Ilminster","addr:country":"GB","addr:county":"Somerset","addr:postcode":"TA19 9DJ","addr:street":"Harts Close","building:levels":"2"}}, "geometry":{"type":"MultiPolygon","coordinates":[[[[-2.92569,50.9296],[-2.92576,50.92927],[-2.92546,50.92924],[-2.92539,50.92957],[-2.92569,50.9296]]]]}},
{ "type":"Feature","properties":{"osm_way_id":"849589739","name":"Yodel","building":"warehouse"},"geometry":{"type":"MultiPolygon","coordinates":[[[[-2.66347,50.9337],[-2.66304,50.93363],[-2.66305,50.93358],[-2.66238,50.93348],[-2.66248,50.93321],[-2.66359,50.93338],[-2.66347,50.9337]]]]}},
{ "type":"Feature","properties":{"osm_way_id":"1013479179","building":"warehouse","other":{"addr:city":"Ilminster","addr:country":"GB","addr:county":"Somerset","addr:parentstreet":"Main Street","addr:postcode":"TA19 9DU","addr:street":"Ilton Business Park","addr:unit":"8A","addr:village":"Ilton"}}, "geometry":{"type":"MultiPolygon","coordinates":[[[[-2.92379,50.95793],[-2.92374,50.95788],[-2.92363,50.95794],[-2.92368,50.95798],[-2.92379,50.95793]]]]}},
{ "type":"Feature","properties":{"osm_way_id":"1013479180","building":"warehouse","other":{"addr:city":"Ilminster","addr:country":"GB","addr:county":"Somerset","addr:parentstreet":"Main Street","addr:postcode":"TA19 9DU","addr:street":"Ilton Business Park","addr:unit":"8","addr:village":"Ilton"}}, "geometry":{"type":"MultiPolygon","coordinates":[[[[-2.92365,50.95789],[-2.92359,50.95784],[-2.92352,50.95787],[-2.92358,50.95793],[-2.92365,50.95789]]]]}},
{ "type":"Feature","properties":{"osm_way_id":"1013479183","building":"warehouse","other":{"addr:city":"Ilminster","addr:country":"GB","addr:county":"Somerset","addr:parentstreet":"Main Street","addr:postcode":"TA19 9DU","addr:street":"Ilton Business Park","addr:unit":"23","addr:village":"Ilton"}}, "geometry":{"type":"MultiPolygon","coordinates":[[[[-2.92297,50.95809],[-2.92304,50.95805],[-2.92316,50.95815],[-2.92309,50.95818],[-2.92297,50.95809]]]]}},
{ "type":"Feature","properties":{"osm_way_id":"1013479184","building":"warehouse","other":{"addr:city":"Ilminster","addr:country":"GB","addr:county":"Somerset","addr:parentstreet":"Main Street","addr:postcode":"TA19 9DU","addr:street":"Ilton Business Park","addr:unit":"24","addr:village":"Ilton"}}, "geometry":{"type":"MultiPolygon","coordinates":[[[[-2.92304,50.95805],[-2.92312,50.95802],[-2.92318,50.95807],[-2.92323,50.95811],[-2.92316,50.95815],[-2.92304,50.95805]]]]}},
{ "type":"Feature","properties":{"osm_way_id":"1013479185","building":"warehouse","other":{"addr:city":"Ilminster","addr:country":"GB","addr:county":"Somerset","addr:parentstreet":"Main Street","addr:postcode":"TA19 9DU","addr:street":"Ilton Business Park","addr:unit":"25","addr:village":"Ilton"}}, "geometry":{"type":"MultiPolygon","coordinates":[[[[-2.92318,50.95807],[-2.92325,50.95803],[-2.92331,50.95808],[-2.92323,50.95811],[-2.92318,50.95807]]]]}},
{ "type":"Feature","properties":{"osm_way_id":"1013479186","building":"warehouse","other":{"addr:city":"Ilminster","addr:country":"GB","addr:county":"Somerset","addr:parentstreet":"Main Street","addr:postcode":"TA19 9DU","addr:street":"Ilton Business Park","addr:unit":"28","addr:village":"Ilton"}}, "geometry":{"type":"MultiPolygon","coordinates":[[[[-2.92312,50.95802],[-2.92319,50.95798],[-2.92325,50.95803],[-2.92318,50.95807],[-2.92312,50.95802]]]]}},
{ "type":"Feature","properties":{"osm_way_id":"1013479188","building":"warehouse","other":{"addr:city":"Ilminster","addr:country":"GB","addr:county":"Somerset","addr:parentstreet":"Main Street","addr:postcode":"TA19 9DU","addr:street":"Ilton Business Park","addr:unit":"27","addr:village":"Ilton"}}, "geometry":{"type":"MultiPolygon","coordinates":[[[[-2.92319,50.95798],[-2.92326,50.95795],[-2.92332,50.958],[-2.92325,50.95803],[-2.92319,50.95798]]]]}},
{ "type":"Feature","properties":{"osm_way_id":"1013479190","building":"warehouse","other":{"addr:city":"Ilminster","addr:country":"GB","addr:county":"Somerset","addr:parentstreet":"Main Street","addr:postcode":"TA19 9DU","addr:street":"Ilton Business Park","addr:unit":"5","addr:village":"Ilton"}}, "geometry":{"type":"MultiPolygon","coordinates":[[[[-2.92345,50.95832],[-2.92362,50.95823],[-2.92385,50.95841],[-2.92368,50.95849],[-2.92345,50.95832]]]]}},
{ "type":"Feature","properties":{"osm_way_id":"1013479191","building":"warehouse","other":{"addr:city":"Ilminster","addr:country":"GB","addr:county":"Somerset","addr:parentstreet":"Main Street","addr:postcode":"TA19 9DU","addr:street":"Ilton Business Park","addr:unit":"6","addr:village":"Ilton"}}, "geometry":{"type":"MultiPolygon","coordinates":[[[[-2.92298,50.95862],[-2.92321,50.9585],[-2.92345,50.95868],[-2.92322,50.9588],[-2.92298,50.95862]]]]}},
{ "type":"Feature","properties":{"osm_way_id":"1013479192","building":"warehouse","other":{"addr:city":"Ilminster","addr:country":"GB","addr:county":"Somerset","addr:parentstreet":"Main Street","addr:postcode":"TA19 9DU","addr:street":"Ilton Business Park","addr:unit":"7","addr:village":"Ilton"}}, "geometry":{"type":"MultiPolygon","coordinates":[[[[-2.92195,50.95902],[-2.92248,50.95877],[-2.9227,50.95896],[-2.92217,50.95921],[-2.92195,50.95902]]]]}},
{ "type":"Feature","properties":{"osm_way_id":"1013479193","building":"warehouse","other":{"addr:city":"Ilminster","addr:country":"GB","addr:county":"Somerset","addr:parentstreet":"Main Street","addr:postcode":"TA19 9DU","addr:street":"Ilton Business Park","addr:unit":"29","addr:village":"Ilton"}}, "geometry":{"type":"MultiPolygon","coordinates":[[[[-2.92263,50.9576],[-2.92273,50.95755],[-2.92285,50.95766],[-2.92275,50.95771],[-2.92263,50.9576]]]]}},
{ "type":"Feature","properties":{"osm_way_id":"1013479194","building":"warehouse","other":{"addr:city":"Ilminster","addr:country":"GB","addr:county":"Somerset","addr:parentstreet":"Main Street","addr:postcode":"TA19 9DU","addr:street":"Ilton Business Park","addr:unit":"30","addr:village":"Ilton"}}, "geometry":{"type":"MultiPolygon","coordinates":[[[[-2.92273,50.95755],[-2.92283,50.95751],[-2.92295,50.95762],[-2.92285,50.95766],[-2.92273,50.95755]]]]}},
{ "type":"Feature","properties":{"osm_way_id":"1013479195","building":"warehouse","other":{"addr:city":"Ilminster","addr:country":"GB","addr:county":"Somerset","addr:parentstreet":"Main Street","addr:postcode":"TA19 9DU","addr:street":"Ilton Business Park","addr:unit":"32","addr:village":"Ilton"}}, "geometry":{"type":"MultiPolygon","coordinates":[[[[-2.92294,50.95746],[-2.92304,50.95742],[-2.92316,50.95753],[-2.92306,50.95757],[-2.92294,50.95746]]]]}},
{ "type":"Feature","properties":{"osm_way_id":"1013479196","building":"warehouse","other":{"addr:city":"Ilminster","addr:country":"GB","addr:county":"Somerset","addr:parentstreet":"Main Street","addr:postcode":"TA19 9DU","addr:street":"Ilton Business Park","addr:unit":"31","addr:village":"Ilton"}}, "geometry":{"type":"MultiPolygon","coordinates":[[[[-2.92283,50.95751],[-2.92294,50.95746],[-2.92306,50.95757],[-2.92295,50.95762],[-2.92283,50.95751]]]]}},
{ "type":"Feature","properties":{"osm_way_id":"1013479197","building":"warehouse","other":{"addr:city":"Ilminster","addr:country":"GB","addr:county":"Somerset","addr:parentstreet":"Main Street","addr:postcode":"TA19 9DU","addr:street":"Ilton Business Park","addr:unit":"33","addr:village":"Ilton"}}, "geometry":{"type":"MultiPolygon","coordinates":[[[[-2.92304,50.95742],[-2.92314,50.95738],[-2.92326,50.95749],[-2.92316,50.95753],[-2.92304,50.95742]]]]}}
]
}
