{
"type": "FeatureCollection",
"features": [
{ "type":"Feature","properties":{"osm_id":"588646129","name":"Bayhead Shop","other":{"addr:postcode":"HS6 5DS","facebook":"https:\/\/www.facebook.com\/bayheadshop\/","fhrs:id":"806478","opening_hours":"8:00-18:00","phone":"+44 1876510257","shop":"supermarket"}}, "geometry":{"type":"Point","coordinates":[-7.44079,57.5878 ]}},
{ "type":"Feature","properties":{"osm_id":"1801696421","name":"Lidl","other":{"addr:country":"GB","addr:postcode":"B79 7AG","addr:street":"Bolebridge Street","brand":"Lidl","brand:wikidata":"Q151954","brand:wikipedia":"en:Lidl","fhrs:id":"466469","shop":"supermarket"}}, "geometry":{"type":"Point","coordinates":[-1.68868,52.63215 ]}},
{ "type":"Feature","properties":{"osm_id":"1881803401","name":"Lincolnshire Co-op","other":{"operator":"Lincolnshire Co-operative Society","shop":"supermarket"}}, "geometry":{"type":"Point","coordinates":[-0.5251,53.10696 ]}},
{ "type":"Feature","properties":{"osm_id":"5159901347","name":"Lovats Shop","other":{"addr:city":"Baile a' Mhanaich","addr:housenumber":"1","addr:postcode":"HS7 5LH","addr:street":"Slighe Winfield","fhrs:id":"806463","opening_hours":"Mo-Fr 08:00-21:00; Sa 09:00-21:00; Su 11:00-18:00","operator":"SPAR","shop":"supermarket","website":"https:\/\/www.facebook.com\/lovatssupermarket\/"}}, "geometry":{"type":"Point","coordinates":[-7.38795,57.47363 ]}},
{ "type":"Feature","properties":{"osm_way_id":"78539849","name":"Co-op Food","building":"yes","shop":"supermarket","other":{"addr:city":"Stornoway","addr:housenumber":"8","addr:postcode":"HS1 2HU","addr:street":"Macaulay Road","brand":"Co-op Food","brand:wikidata":"Q3277439","brand:wikipedia":"en:Co-op Food","facebook":"https:\/\/www.facebook.com\/MacaulayRoadCoop\/","fhrs:id":"806659","operator":"The Co-operative Group","operator:wikidata":"Q117202","operator:wikipedia":"en:The Co-operative Group","website":"https:\/\/finder.coop.co.uk\/food\/store\/HS1-2HU\/8-macaulay-road"}}, "geometry":{"type":"MultiPolygon","coordinates":[[[[-6.38348,58.21587],[-6.38422,58.21587],[-6.38421,58.21639],[-6.38428,58.21642],[-6.38417,58.21648],[-6.38411,58.21644],[-6.38315,58.21644],[-6.38315,58.2161],[-6.38327,58.2161],[-6.38327,58.21599],[-6.3834,58.21599],[-6.3834,58.21601],[-6.38348,58.21601],[-6.38348,58.21587]]]]}},
{ "type":"Feature","properties":{"osm_way_id":"97256446","name":"Tesco","building":"yes","shop":"supermarket","other":{"addr:city":"Steòrnabhagh","addr:postcode":"HS1 2QY","addr:street":"Iomair Sligeach","brand":"Tesco","brand:wikidata":"Q487494","brand:wikipedia":"en:Tesco","contact:website":"https:\/\/www.tesco.com\/store-locator\/stornoway\/ferry-rd","fhrs:id":"806627","payment:cash":"yes","payment:debit_cards":"yes"}}, "geometry":{"type":"MultiPolygon","coordinates":[[[[-6.38286,58.20713],[-6.3828,58.2071],[-6.38276,58.20712],[-6.38265,58.20718],[-6.38223,58.20697],[-6.38292,58.20658],[-6.38335,58.20679],[-6.38296,58.20702],[-6.38301,58.20705],[-6.38296,58.20708],[-6.38286,58.20713]]]]}},
{ "type":"Feature","properties":{"osm_way_id":"111512128","name":"Sainsbury's","building":"yes","shop":"supermarket","other":{"addr:city":"Haverhill","addr:postcode":"CB9 7YL","addr:street":"Haycocks Road","branch":"Haverhill Superstore","brand":"Sainsbury's","brand:wikidata":"Q152096","brand:wikipedia":"en:Sainsbury's","opening_hours":"Mo-Fr 08:00-22:00; Sa 07:30-22:00; Su 10:00-16:00"}}, "geometry":{"type":"MultiPolygon","coordinates":[[[[0.41263,52.09225],[0.41263,52.09223],[0.41261,52.09147],[0.41364,52.09146],[0.41385,52.09148],[0.41384,52.09163],[0.41404,52.09163],[0.41406,52.09225],[0.41263,52.09225]]]]}},
{ "type":"Feature","properties":{"osm_way_id":"199234440","name":"Spar","building":"yes","shop":"supermarket","other":{"brand":"Spar","brand:wikidata":"Q610492","brand:wikipedia":"en:SPAR (retailer)","facebook":"https:\/\/www.facebook.com\/Spar-Manor-Filling-Station-154486107912862\/","fhrs:id":"806586","website":"https:\/\/www.spar.co.uk\/store-locator\/lan03936-spar-stornoway"}}, "geometry":{"type":"MultiPolygon","coordinates":[[[[-6.38542,58.2153],[-6.38535,58.2152],[-6.38495,58.21527],[-6.38501,58.21537],[-6.38542,58.2153]]]]}},
{ "type":"Feature","properties":{"osm_way_id":"206169008","name":"Co Chomunn na Hearadh","building":"yes","shop":"supermarket","other":{"addr:city":"An t-Òb","addr:postcode":"HS5 3TS","addr:street":"Obbe Road","facebook":"https:\/\/www.facebook.com\/HarrisCommunityCoop\/","fhrs:id":"806636","name:en":"Harris Community Shop","opening_hours":"Mo-Th 09:00-18:00; Fr-Sa 09:00-19:00","operator":"Harris Community Co-op","twitter":"AnClachanShop","website":"http:\/\/www.harriscommunityshop.co.uk\/"}}, "geometry":{"type":"MultiPolygon","coordinates":[[[[-7.01521,57.77027],[-7.01525,57.77021],[-7.0151,57.77018],[-7.01513,57.77011],[-7.01489,57.77008],[-7.0149,57.77006],[-7.01478,57.77006],[-7.01477,57.77007],[-7.01471,57.77007],[-7.01465,57.77018],[-7.01521,57.77027]]]]}},
{ "type":"Feature","properties":{"osm_way_id":"207376849","name":"Lovats Supermarket","building":"yes","shop":"supermarket","other":{"addr:postcode":"HS8 5RH","facebook":"https:\/\/www.facebook.com\/lovatssupermarket\/","fhrs:id":"806503","opening_hours":"Mo-Sa 08:00-18:00; Su 14:00-16:00"}}, "geometry":{"type":"MultiPolygon","coordinates":[[[[-7.33109,57.39694],[-7.33126,57.3967],[-7.33111,57.39667],[-7.33107,57.39672],[-7.331,57.39671],[-7.3308,57.397],[-7.33087,57.39701],[-7.33089,57.39698],[-7.33094,57.39699],[-7.33099,57.39692],[-7.33109,57.39694]]]]}},
{ "type":"Feature","properties":{"osm_way_id":"207948602","name":"The Co-operative Bàgh a' Chaisteil","building":"yes","shop":"supermarket","other":{"addr:city":"Bàgh a' Chaisteil","addr:postcode":"HS9 5XD","brand":"The Co-operative Food","brand:wikidata":"Q3277439","brand:wikipedia":"en:Co-op Food","fhrs:id":"806671","operator":"The Co-operative Group","website":"https:\/\/finder.coop.co.uk\/food\/store\/HS9-5XD\/isle-of-barra"}}, "geometry":{"type":"MultiPolygon","coordinates":[[[[-7.49849,56.95557],[-7.49846,56.95551],[-7.49851,56.95551],[-7.49849,56.95547],[-7.49845,56.95548],[-7.49842,56.95543],[-7.49809,56.95547],[-7.49816,56.95562],[-7.49849,56.95557]]]]}},
{ "type":"Feature","properties":{"osm_way_id":"208702009","name":"The Co-operative Dalabrog","building":"yes","shop":"supermarket","other":{"addr:postcode":"HS8 5SS","brand":"The Co-operative Food","brand:wikidata":"Q3277439","brand:wikipedia":"en:Co-op Food","fhrs:id":"806546","opening_hours":"Mo-Fr 07:00-22:00; Su 12:30-22:00","operator":"The Co-operative Group","website":"https:\/\/finder.coop.co.uk\/food\/store\/HS8-5SS\/292-daliburgh"}}, "geometry":{"type":"MultiPolygon","coordinates":[[[[-7.37148,57.16586],[-7.37145,57.16583],[-7.37148,57.16582],[-7.37143,57.16576],[-7.37139,57.16577],[-7.37128,57.16566],[-7.37103,57.16574],[-7.37111,57.16582],[-7.37106,57.16583],[-7.37119,57.16595],[-7.37148,57.16586]]]]}},
{ "type":"Feature","properties":{"osm_way_id":"208741010","name":"The Co-operative Food","building":"supermarket","shop":"supermarket","other":{"addr:city":"Creag Ghoraidh","addr:country":"GB","addr:district":"Isle of Benbecula","addr:place":"Creagorry","addr:postcode":"HS7 5PG","atm":"yes","branch":"Creagorry","fhrs:id":"806529","opening_hours":"Mo-Sa 07:00-22:00; Su 12:30-22:00","operator":"The Co-operative Group","website":"https:\/\/finder.coop.co.uk\/food\/store\/HS7-5PG\/creagorry"}}, "geometry":{"type":"MultiPolygon","coordinates":[[[[-7.33504,57.41058],[-7.33492,57.41043],[-7.33485,57.41044],[-7.33481,57.4104],[-7.33477,57.4104],[-7.33475,57.41038],[-7.33457,57.41042],[-7.33458,57.41044],[-7.3345,57.41046],[-7.33457,57.41056],[-7.33465,57.41067],[-7.33504,57.41058]]]]}},
{ "type":"Feature","properties":{"osm_way_id":"359368563","name":"Co-op Food","building":"yes","shop":"supermarket","other":{"addr:city":"Solas","addr:postcode":"HS6 5BS","brand":"Co-op Food","brand:wikidata":"Q3277439","brand:wikipedia":"en:Co-op Food","fhrs:id":"806817","opening_hours":"Mo-Sa 07:00-22:00","operator":"The Co-operative Group","operator:wikidata":"Q117202","operator:wikipedia":"en:The Co-operative Group","website":"https:\/\/finder.coop.co.uk\/food\/store\/HS6-5BS\/sollas"}}, "geometry":{"type":"MultiPolygon","coordinates":[[[[-7.34452,57.64997],[-7.34465,57.65013],[-7.34443,57.65018],[-7.3443,57.65003],[-7.34452,57.64997]]]]}},
{ "type":"Feature","properties":{"osm_way_id":"503204152","name":"MacLennans","building":"yes","shop":"supermarket","other":{"addr:city":"Baile a' Mhanaich","addr:housenumber":"2","addr:postcode":"HS7 5LA","contact:facebook":"https:\/\/facebook.com\/maclennanssupermarket\/","fhrs:id":"806461","opening_hours":"Mo-Sa 08:00-20:00; Su 11:00-16:00","website":"http:\/\/www.maclennanssupermarket.co.uk\/"}}, "geometry":{"type":"MultiPolygon","coordinates":[[[[-7.39068,57.47331],[-7.39028,57.4733],[-7.39028,57.47327],[-7.3902,57.47327],[-7.3902,57.47323],[-7.39028,57.47323],[-7.39028,57.47319],[-7.39068,57.47319],[-7.39068,57.47331]]]]}}
]
}
