{
"type": "FeatureCollection",
"features": [
{ "type":"Feature","properties":{"osm_id":"5159005096","name":"Mammoet Ferry Transport (UK) BV","other":{"addr:city":"Glasgow","addr:housenumber":"101","addr:postcode":"G32 8NB","addr:street":"Cambuslang Road","building":"warehouse","office":"logistics"}}, "geometry":{"type":"Point","coordinates":[-4.17207,55.8272 ]}},
{ "type":"Feature","properties":{"osm_way_id":"27283404","building":"warehouse"},"geometry":{"type":"MultiPolygon","coordinates":[[[[-4.28287,55.85016],[-4.28209,55.85014],[-4.28208,55.85027],[-4.2819,55.85026],[-4.28183,55.8511],[-4.28223,55.85111],[-4.28225,55.85092],[-4.28234,55.85092],[-4.28268,55.85093],[-4.2828,55.85094],[-4.28287,55.85016]]]]}},
{ "type":"Feature","properties":{"osm_way_id":"27293672","building":"warehouse"},"geometry":{"type":"MultiPolygon","coordinates":[[[[-4.28208,55.85119],[-4.2818,55.85118],[-4.28175,55.85177],[-4.28224,55.85178],[-4.28227,55.85143],[-4.28206,55.85143],[-4.28208,55.85119]]]]}},
{ "type":"Feature","properties":{"osm_way_id":"41085313","building":"warehouse"},"geometry":{"type":"MultiPolygon","coordinates":[[[[-4.34843,55.87038],[-4.34626,55.86962],[-4.3467,55.86916],[-4.34682,55.86921],[-4.3476,55.8685],[-4.34968,55.86927],[-4.34843,55.87038]]]]}},
{ "type":"Feature","properties":{"osm_way_id":"41085840","building":"warehouse"},"geometry":{"type":"MultiPolygon","coordinates":[[[[-4.33881,55.8681],[-4.33827,55.86796],[-4.33845,55.86774],[-4.33899,55.86788],[-4.33881,55.8681]]]]}},
{ "type":"Feature","properties":{"osm_way_id":"156680440","building":"warehouse"},"geometry":{"type":"MultiPolygon","coordinates":[[[[-4.26,55.83524],[-4.2601,55.83508],[-4.25961,55.835],[-4.25952,55.83516],[-4.26,55.83524]]]]}},
{ "type":"Feature","properties":{"osm_way_id":"162222937","name":"Kwik Fit","building":"warehouse","shop":"car_repair","other":{"addr:postcode":"G40 2UB","addr:street":"Alma Street","addr:unit":"1","brand":"Kwik Fit","brand:wikidata":"Q958053","brand:wikipedia":"en:Kwik Fit","contact:phone":"+44 141 556 4036","contact:website":"https:\/\/www.kwik-fit.com","service:vehicle:tyres":"yes"}}, "geometry":{"type":"MultiPolygon","coordinates":[[[[-4.21494,55.85303],[-4.2149,55.85319],[-4.21426,55.85313],[-4.2143,55.85297],[-4.21494,55.85303]]]]}},
{ "type":"Feature","properties":{"osm_way_id":"282177545","building":"warehouse"},"geometry":{"type":"MultiPolygon","coordinates":[[[[-4.24841,55.87279],[-4.24836,55.87273],[-4.24789,55.87284],[-4.24795,55.87291],[-4.24842,55.8728],[-4.24841,55.87279]]]]}},
{ "type":"Feature","properties":{"osm_way_id":"724201303","name":"AS Scaffolding","building":"warehouse"},"geometry":{"type":"MultiPolygon","coordinates":[[[[-4.21359,55.85784],[-4.21319,55.85783],[-4.21323,55.85754],[-4.21362,55.85755],[-4.21359,55.85784]]]]}},
{ "type":"Feature","properties":{"osm_way_id":"724201310","name":"The Paint Shed","building":"warehouse","shop":"paint","other":{"addr:postcode":"G40 2UB","addr:street":"Alma Street","addr:unit":"4","contact:phone":"+44 141 554 3692","contact:website":"https:\/\/www.thepaintshed.com"}}, "geometry":{"type":"MultiPolygon","coordinates":[[[[-4.21481,55.8535],[-4.21477,55.85366],[-4.21471,55.85365],[-4.21414,55.8536],[-4.21418,55.85345],[-4.21481,55.8535]]]]}},
{ "type":"Feature","properties":{"osm_way_id":"724201311","name":"Screwfix","building":"warehouse","shop":"doityourself","other":{"addr:postcode":"G40 2UB","addr:street":"Alma Street","addr:unit":"3","brand":"Screwfix","brand:wikidata":"Q7439115","brand:wikipedia":"en:Screwfix","contact:website":"https:\/\/www.screwfix.com","trade":"hardware"}}, "geometry":{"type":"MultiPolygon","coordinates":[[[[-4.21485,55.85335],[-4.21481,55.8535],[-4.21418,55.85345],[-4.21422,55.85329],[-4.21485,55.85335]]]]}},
{ "type":"Feature","properties":{"osm_way_id":"724201312","name":"Toolstation","building":"warehouse","shop":"doityourself","other":{"addr:postcode":"G40 2UB","addr:street":"Alma Street","addr:unit":"2","brand":"Toolstation","brand:wikidata":"Q7824103","brand:wikipedia":"en:Toolstation","contact:website":"https:\/\/www.toolstation.com","trade":"hardware"}}, "geometry":{"type":"MultiPolygon","coordinates":[[[[-4.2149,55.85319],[-4.21485,55.85335],[-4.21422,55.85329],[-4.21426,55.85313],[-4.2149,55.85319]]]]}}
]
}
