{
"type": "FeatureCollection",
"features": [
{ "type":"Feature","properties":{"osm_id":"263018277","name":"Whole Foods Market","other":{"addr:housenumber":"32-40","addr:postcode":"N16 0LU","addr:street":"Stoke Newington Church Street","brand":"Whole Foods Market","brand:wikidata":"Q1809448","brand:wikipedia":"en:Whole Foods Market","fhrs:id":"469337","organic":"yes","shop":"supermarket","source:addr":"interpolation","website":"https:\/\/www.wholefoodsmarket.co.uk\/stores\/stokenewington\/","wheelchair":"yes"}}, "geometry":{"type":"Point","coordinates":[-0.07526,51.5622 ]}},
{ "type":"Feature","properties":{"osm_id":"364788038","other":{"amenity":"parking"}}, "geometry":{"type":"Point","coordinates":[0.50547,51.29116 ]}},
{ "type":"Feature","properties":{"osm_id":"369975053","name":"Organic Food Centre","other":{"organic":"only","shop":"supermarket"}}, "geometry":{"type":"Point","coordinates":[-0.07396,51.55972 ]}},
{ "type":"Feature","properties":{"osm_id":"426001389","name":"The Co-operative Food","other":{"addr:housename":"Gainsborough Studios","addr:housenumber":"167","addr:postcode":"N1 6SU","addr:street":"New North Road","atm":"yes","opening_hours":"Mo-Su 07:00-22:00","operator":"coop","shop":"supermarket"}}, "geometry":{"type":"Point","coordinates":[-0.08919,51.53568 ]}},
{ "type":"Feature","properties":{"osm_id":"502010829","name":"So Real","other":{"organic":"only","shop":"supermarket"}}, "geometry":{"type":"Point","coordinates":[-0.0658,51.56878 ]}},
{ "type":"Feature","properties":{"osm_id":"506351494","name":"Kollos Supermarket","other":{"addr:city":"London","addr:housename":"Abney Park Court","addr:housenumber":"230-240","addr:postcode":"N16 7HU","addr:street":"Stoke Newington High Street","addr:unit":"Unit 6","description":"Eastern European Delicatessen","fhrs:id":"469447","shop":"supermarket"}}, "geometry":{"type":"Point","coordinates":[-0.07289,51.56345 ]}},
{ "type":"Feature","properties":{"osm_id":"510606735","name":"Sainsbury's","other":{"addr:city":"London","addr:housename":"Kingsland Shopping Centre","addr:postcode":"E8 2LX","addr:street":"Kingsland High Street","brand":"Sainsbury's","brand:wikidata":"Q152096","brand:wikipedia":"en:Sainsbury's","fhrs:id":"470686","operator":"Sainsbury's","shop":"supermarket","wheelchair":"yes"}}, "geometry":{"type":"Point","coordinates":[-0.07321,51.54748 ]}},
{ "type":"Feature","properties":{"osm_id":"660899264","name":"The 99p shop","other":{"addr:city":"London","addr:housenumber":"149","addr:postcode":"N16 0NY","addr:street":"Stoke Newington High Street","shop":"supermarket"}}, "geometry":{"type":"Point","coordinates":[-0.07399,51.56112 ]}},
{ "type":"Feature","properties":{"osm_id":"1972650342","name":"Istanbul Supermarket","other":{"addr:city":"London","addr:housenumber":"217-219","addr:postcode":"EC1V 1JN","addr:street":"City Road","contact:phone":"+44 20 7251 8144","fhrs:id":"469920","opening_hours":"24\/7","shop":"supermarket","source:addr":"FHRS Open Data","source:name":"survey"}}, "geometry":{"type":"Point","coordinates":[-0.09149,51.52829 ]}},
{ "type":"Feature","properties":{"osm_id":"3889080038","name":"Co-op Food","other":{"brand":"Co-op Food","brand:wikidata":"Q3277439","brand:wikipedia":"en:Co-op Food","shop":"supermarket"}}, "geometry":{"type":"Point","coordinates":[-0.08262,51.52574 ]}},
{ "type":"Feature","properties":{"osm_id":"4741418424","name":"Longdan Express","other":{"addr:city":"London","addr:housenumber":"25","addr:postcode":"E2 7NX","addr:street":"Hackney Road","brand":"Longdan","fhrs:id":"470044","name:en":"Longdan Express","opening_hours":"Mo-Su 10:30-20:30","origin":"asian","phone":"+44 20 3222 0118","shop":"supermarket","survey:date":"2021-11-26","website":"http:\/\/www.longdan.co.uk"}}, "geometry":{"type":"Point","coordinates":[-0.07673,51.52774 ]}},
{ "type":"Feature","properties":{"osm_id":"5188912373","name":"Co-op Food","other":{"addr:city":"London","addr:housename":"Ocean House","addr:postcode":"E8 3FT","addr:street":"Dalston Square","brand":"Co-op Food","brand:wikidata":"Q3277439","brand:wikipedia":"en:Co-op Food","fhrs:id":"991598","opening_hours":"Mo-Su 07:00-23:00","shop":"supermarket","wheelchair":"limited"}}, "geometry":{"type":"Point","coordinates":[-0.07479,51.54614 ]}},
{ "type":"Feature","properties":{"osm_id":"5633868740","name":"Bulk Market","other":{"addr:city":"London","addr:housenumber":"6","addr:postcode":"E8 1DU","addr:street":"Bohemia Place","email":"hello@bulkmarket.uk","fhrs:id":"1132792","opening_hours":"Mo-Fr 12:00-19:00; Sa 10:00-19:00; Su 11:00-17:00","organic":"only","payment:credit_cards":"yes","payment:debit_cards":"yes","shop":"supermarket","website":"https:\/\/www.bulkmarket.uk\/","zero_waste":"only"}}, "geometry":{"type":"Point","coordinates":[-0.05397,51.54719 ]}},
{ "type":"Feature","properties":{"osm_id":"5678299606","name":"Marks and Spencer Foodhall","other":{"addr:city":"London","addr:housenumber":"51-57","addr:postcode":"E8 2JS","addr:street":"Kingsland High Street","brand":"M&S Foodhall","brand:wikidata":"Q714491","opening_hours":"Mo-Sa 07:00-22:00; Su 11:00-17:00","phone":"+44 20 3889 5736","shop":"supermarket","website":"https:\/\/www.marksandspencer.com\/"}}, "geometry":{"type":"Point","coordinates":[-0.07567,51.54799 ]}},
{ "type":"Feature","properties":{"osm_id":"5856741886","name":"Hoxton Brothers","other":{"shop":"supermarket"}}, "geometry":{"type":"Point","coordinates":[-0.08039,51.53381 ]}},
{ "type":"Feature","properties":{"osm_id":"5951006160","name":"Oriental Supermarket","other":{"shop":"supermarket"}}, "geometry":{"type":"Point","coordinates":[-0.08708,51.52977 ]}},
{ "type":"Feature","properties":{"osm_id":"6558595885","name":"Re.Store","other":{"addr:city":"London","addr:housename":"Hackney Downs Studios","addr:housenumber":"17","addr:postcode":"E8 2BT","addr:street":"Amhurst Terrace","addr:unit":"Shop 6","description":"A refill shop that opened in Hackney Downs Studios in February 2019.","fhrs:id":"1220380","opening_hours":"Tu-Th 11:00-19:00; Fr 11:00-18:00; Sa 11:00-17:30; Su 12:00-16:00","shop":"supermarket","website":"https:\/\/restorerefill.co.uk\/","zero_waste":"only"}}, "geometry":{"type":"Point","coordinates":[-0.06685,51.55475 ]}},
{ "type":"Feature","properties":{"osm_id":"9419339379","name":"1010 Supermarket","other":{"addr:housenumber":"4","addr:street":"Manor Road","shop":"supermarket"}}, "geometry":{"type":"Point","coordinates":[-0.07452,51.56575 ]}},
{ "type":"Feature","properties":{"osm_id":"9500905154","name":"Riverside Supermarket","other":{"shop":"supermarket"}}, "geometry":{"type":"Point","coordinates":[-0.03153,51.5518 ]}},
{ "type":"Feature","properties":{"osm_way_id":"29635140","name":"Tesco","building":"retail","shop":"supermarket","other":{"addr:city":"London","addr:country":"GB","addr:housenumber":"55","addr:postcode":"E9 6ND","addr:street":"Morning Lane","atm":"yes","brand":"Tesco","brand:wikidata":"Q487494","brand:wikipedia":"en:Tesco","building:levels":"1","contact:website":"https:\/\/www.tesco.com\/store-locator\/uk\/?bID=2671","fhrs:id":"469129","name:fa":"تسکو","opening_hours":"Mo 06:00-00:00, Tu-Fr 00:00-24:00, Sa 00:00-22:00,Su 11:00-17:00","opening_hours:covid19":"Mo-Sa 06:00-22:00,Su 11:00-17:00","toilets":"customers"}}, "geometry":{"type":"MultiPolygon","coordinates":[[[[-0.05327,51.54665],[-0.0531,51.54666],[-0.05247,51.54669],[-0.05214,51.54679],[-0.0522,51.54718],[-0.05238,51.54717],[-0.05238,51.54715],[-0.05314,51.54711],[-0.05314,51.54713],[-0.05333,51.54712],[-0.05327,51.54665]]]]}},
{ "type":"Feature","properties":{"osm_way_id":"37962005","name":"Morrisons","building":"retail","shop":"supermarket","other":{"addr:city":"London","addr:housenumber":"47-49","addr:postcode":"N16 5SR","addr:street":"Stamford Hill","brand":"Morrisons","brand:wikidata":"Q922344","brand:wikipedia":"en:Morrisons","fhrs:id":"469579","roof:colour":"white","roof:shape":"flat"}}, "geometry":{"type":"MultiPolygon","coordinates":[[[[-0.07437,51.56692],[-0.07436,51.56658],[-0.07442,51.56653],[-0.07431,51.56647],[-0.0733,51.56648],[-0.0733,51.56647],[-0.0732,51.56647],[-0.0732,51.56652],[-0.07323,51.56652],[-0.07323,51.56681],[-0.0732,51.56681],[-0.0732,51.56693],[-0.07437,51.56692]]]]}},
{ "type":"Feature","properties":{"osm_way_id":"42727887","name":"Asda","building":"yes","shop":"supermarket","other":{"addr:city":"London","addr:country":"GB","addr:housenumber":"158","addr:postcode":"E5 9AG","addr:street":"Clapton Common","brand":"Asda","brand:wikidata":"Q297410","brand:wikipedia":"en:Asda","contact:facebook":"https:\/\/www.facebook.com\/asda\/","contact:twitter":"@asda","contact:website":"https:\/\/storelocator.asda.com\/london\/london\/158-clapton-common-stamford-hill","fhrs:authority":"Hackney","fhrs:id":"470569","operator":"Asda Stores Ltd","source:addr":"FHRS Open Data"}}, "geometry":{"type":"MultiPolygon","coordinates":[[[[-0.07149,51.57364],[-0.07126,51.57383],[-0.07087,51.57384],[-0.07087,51.57378],[-0.07081,51.57367],[-0.07053,51.57352],[-0.0707,51.57329],[-0.07081,51.57313],[-0.07089,51.57302],[-0.07112,51.57309],[-0.0709,51.57334],[-0.07149,51.57364]]]]}},
{ "type":"Feature","properties":{"osm_way_id":"42727964","name":"Sainsbury's","building":"yes","shop":"supermarket","other":{"addr:city":"London","addr:housenumber":"1","addr:postcode":"N16 5LW","addr:street":"Amhurst Park","brand":"Sainsbury's","brand:wikidata":"Q152096","brand:wikipedia":"en:Sainsbury's","fhrs:authority":"Hackney","fhrs:id":"470416","fhrs:local_authority_id":"36014","source:addr":"FHRS Open Data"}}, "geometry":{"type":"MultiPolygon","coordinates":[[[[-0.07336,51.57349],[-0.0734,51.57343],[-0.07381,51.57327],[-0.07364,51.5731],[-0.07377,51.57304],[-0.07372,51.573],[-0.07368,51.57302],[-0.07367,51.57301],[-0.07364,51.57302],[-0.0736,51.57299],[-0.07321,51.57314],[-0.07319,51.57312],[-0.07315,51.57309],[-0.07306,51.57313],[-0.07297,51.57312],[-0.07295,51.57318],[-0.07291,51.5732],[-0.0729,51.57326],[-0.07312,51.57348],[-0.07322,51.57349],[-0.07323,51.57348],[-0.07336,51.57349]]]]}},
{ "type":"Feature","properties":{"osm_way_id":"118398976","name":"Mercan Food Centre","building":"yes","shop":"supermarket","other":{"addr:city":"London","addr:housenumber":"81-83","addr:postcode":"N16 7SJ","addr:street":"Evering Road","operator":"Lara Supermarket","phone":"+44 20 7254 1831","wheelchair":"yes"}}, "geometry":{"type":"MultiPolygon","coordinates":[[[[-0.06877,51.55847],[-0.06887,51.5586],[-0.06874,51.55864],[-0.06865,51.55851],[-0.06857,51.55853],[-0.06847,51.55841],[-0.06869,51.55833],[-0.06875,51.5584],[-0.0688,51.55846],[-0.06877,51.55847]]]]}},
{ "type":"Feature","properties":{"osm_way_id":"151904729","name":"Lidl","building":"retail","shop":"supermarket","other":{"addr:city":"London","addr:housenumber":"27-37","addr:postcode":"E9 7QX","addr:street":"Well Street","brand":"Lidl","brand:wikidata":"Q151954","brand:wikipedia":"en:Lidl","building:levels":"1","fhrs:id":"469123","name:fa":"لیدل","opening_hours":"Mo-Sa 08:00-22:00; Su 11:00-17:00"}}, "geometry":{"type":"MultiPolygon","coordinates":[[[[-0.05412,51.54096],[-0.05412,51.54092],[-0.05406,51.54052],[-0.05367,51.54055],[-0.05368,51.54061],[-0.0536,51.54062],[-0.05365,51.54088],[-0.05366,51.54088],[-0.05368,51.54098],[-0.05412,51.54096]]]]}},
{ "type":"Feature","properties":{"osm_way_id":"164483492","name":"The Grocery","building":"yes","shop":"supermarket","other":{"addr:city":"London","addr:housename":"John Carter House","addr:housenumber":"52-56","addr:postcode":"E2 8DP","addr:street":"Kingsland Road","email":"info@thegroceryshop.co.uk","fhrs:id":"469680","opening_hours":"Mo-Su 08:00-22:00","phone":"+44 20 7729 6855","website":"https:\/\/www.thegroceryshop.co.uk\/"}}, "geometry":{"type":"MultiPolygon","coordinates":[[[[-0.0777,51.52889],[-0.07766,51.52899],[-0.07746,51.52897],[-0.07761,51.52887],[-0.0777,51.52889]]]]}},
{ "type":"Feature","properties":{"osm_way_id":"164483529","name":"Longdan","building":"yes","shop":"supermarket","other":{"addr:city":"London","addr:housenumber":"57-59","addr:postcode":"E2 8AG","addr:street":"Kingsland Road","cuisine":"asian","fhrs:id":"622408","opening_hours":"Mo-Su 10:30-20:30","phone":"+44 20 7739 3968","website":"http:\/\/www.longdan.co.uk"}}, "geometry":{"type":"MultiPolygon","coordinates":[[[[-0.07777,51.52975],[-0.0777,51.52974],[-0.07755,51.52972],[-0.07758,51.52958],[-0.07772,51.5296],[-0.07777,51.52961],[-0.07774,51.52969],[-0.07779,51.5297],[-0.07777,51.52975]]]]}},
{ "type":"Feature","properties":{"osm_way_id":"184486958","name":"Hackney Whole Food","building":"retail","shop":"supermarket","other":{"addr:city":"London","addr:housenumber":"45-47","addr:postcode":"E5 0NS","addr:street":"Lower Clapton Road","building:levels":"3","contact:instagram":"hackney_whole_food","roof:levels":"1","survey:date":"2020-11-10"}}, "geometry":{"type":"MultiPolygon","coordinates":[[[[-0.0521,51.55093],[-0.05221,51.55092],[-0.05226,51.55102],[-0.05214,51.55103],[-0.0521,51.55093]]]]}},
{ "type":"Feature","properties":{"osm_way_id":"228900857","name":"Kenninghall Food & Wine","building":"yes","shop":"supermarket","other":{"addr:city":"London","addr:housenumber":"1","addr:postcode":"E5 8BS","addr:street":"Kenninghall Road","fhrs:id":"469683","opening_hours":"Mo-Sa 08:00-21:00; Su 09:00-21:00"}}, "geometry":{"type":"MultiPolygon","coordinates":[[[[-0.06324,51.5587],[-0.06326,51.55863],[-0.06319,51.55862],[-0.06317,51.55869],[-0.06324,51.5587]]]]}},
{ "type":"Feature","properties":{"osm_way_id":"273181996","name":"Tesco Metro","building":"retail","shop":"supermarket","other":{"addr:city":"London","addr:housenumber":"180","addr:postcode":"E9 6QU","addr:street":"Well Street","brand":"Tesco Metro","brand:wikidata":"Q57551648","building:colour":"brown","building:levels":"1","building:material":"brick","contact:website":"https:\/\/www.tesco.com\/store-locator\/uk\/?bID=2619","fhrs:id":"470271","height":"4","opening_hours":"Mo-Sa 06:00-23:00; Su 10:00-16:00","roof:colour":"white","roof:shape":"flat"}}, "geometry":{"type":"MultiPolygon","coordinates":[[[[-0.04759,51.5433],[-0.04741,51.54319],[-0.04741,51.54321],[-0.04737,51.54321],[-0.0474,51.54265],[-0.04754,51.54264],[-0.04754,51.54268],[-0.0477,51.54268],[-0.04769,51.54277],[-0.0479,51.54278],[-0.04815,51.54291],[-0.04759,51.5433]]]]}},
{ "type":"Feature","properties":{"osm_way_id":"366302187","name":"Figs & Grain","building":"apartments","shop":"supermarket","other":{"addr:city":"London","addr:housenumber":"19-21","addr:postcode":"E8 4PH","addr:street":"Broadway Market","building:levels":"3","contact:instagram":"figsandgrain","opening_hours":"Mo-Su 07:00-22:00"}}, "geometry":{"type":"MultiPolygon","coordinates":[[[[-0.06218,51.53606],[-0.0624,51.53611],[-0.06246,51.53613],[-0.06241,51.53621],[-0.06238,51.5362],[-0.06214,51.53615],[-0.06218,51.53606]]]]}},
{ "type":"Feature","properties":{"osm_way_id":"366327427","name":"Planet Organic","building":"retail","shop":"supermarket","other":{"addr:housenumber":"30","addr:street":"Broadway Market","brand":"Planet Organic","brand:wikidata":"Q24298870","brand:wikipedia":"en:Planet Organic","building:levels":"1","fhrs:id":"1426604","opening_hours":"Mo-Sa 07:30-21:00; Su 09:00-21:00","organic":"only","phone":"+44 20 8159 9485","website":"https:\/\/www.planetorganic.com\/pages\/planet-organic-broadway-market"}}, "geometry":{"type":"MultiPolygon","coordinates":[[[[-0.06179,51.53644],[-0.06154,51.53643],[-0.06154,51.53656],[-0.06168,51.53656],[-0.06173,51.53656],[-0.06175,51.53657],[-0.06179,51.53644]]]]}},
{ "type":"Feature","properties":{"osm_way_id":"372808116","name":"Hoxton Fruit","building":"yes","shop":"supermarket","other":{"addr:city":"London","addr:country":"GB","addr:housenumber":"406","addr:postcode":"E8 1HP","addr:street":"Mare Street","addr:suburb":"Hackney","building:colour":"brown","building:levels":"3","building:material":"brick","fhrs:id":"1418316","roof:colour":"darkgrey","roof:levels":"1"}}, "geometry":{"type":"MultiPolygon","coordinates":[[[[-0.05465,51.54927],[-0.05454,51.54927],[-0.05456,51.54918],[-0.05497,51.54922],[-0.05494,51.5493],[-0.05465,51.54927]]]]}},
{ "type":"Feature","properties":{"osm_way_id":"372808118","name":"Kings Meat & Groceries","building":"yes","shop":"supermarket","other":{"addr:city":"London","addr:country":"GB","addr:housenumber":"410","addr:postcode":"E8 1HP","addr:street":"Mare Street","addr:suburb":"Hackney","building:colour":"brown","building:levels":"3","building:material":"brick","fhrs:id":"1432159","roof:colour":"darkgrey","roof:levels":"1"}}, "geometry":{"type":"MultiPolygon","coordinates":[[[[-0.05462,51.54935],[-0.05463,51.54933],[-0.05461,51.54932],[-0.05462,51.54931],[-0.05464,51.54931],[-0.0549,51.54936],[-0.05488,51.54939],[-0.05485,51.54941],[-0.05462,51.54935]]]]}},
{ "type":"Feature","properties":{"osm_way_id":"393884154","name":"Hootch Supermarket","building":"yes","shop":"supermarket","other":{"addr:city":"London","addr:housenumber":"140-142","addr:postcode":"E8 2NS","addr:street":"Kingsland High Street","building:levels":"3","building:material":"brick","opening_hours":"Mo-Su 08:00-21:00","phone":"+44 20 7683 0377","website":"https:\/\/hootchsupermarket.com\/"}}, "geometry":{"type":"MultiPolygon","coordinates":[[[[-0.07504,51.55041],[-0.07505,51.55031],[-0.07465,51.5503],[-0.07464,51.5504],[-0.07465,51.5504],[-0.07504,51.55041]]]]}},
{ "type":"Feature","properties":{"osm_way_id":"460833875","name":"Uludağ Food and Wine","building":"yes","shop":"supermarket","other":{"addr:city":"London","addr:housenumber":"396","addr:postcode":"E8 4AA","addr:street":"Kingsland Road","fhrs:id":"470665"}}, "geometry":{"type":"MultiPolygon","coordinates":[[[[-0.07604,51.54136],[-0.07605,51.54131],[-0.07582,51.54129],[-0.07581,51.54135],[-0.07604,51.54136]]]]}},
{ "type":"Feature","properties":{"osm_way_id":"460833879","name":"Yours Locally","building":"yes","shop":"supermarket","other":{"addr:city":"London","addr:housenumber":"386","addr:postcode":"E8 4AA","addr:street":"Kingsland Road","fhrs:id":"469915"}}, "geometry":{"type":"MultiPolygon","coordinates":[[[[-0.07609,51.54119],[-0.0761,51.54115],[-0.07588,51.54113],[-0.07587,51.54116],[-0.0759,51.54116],[-0.07609,51.54119]]]]}},
{ "type":"Feature","properties":{"osm_way_id":"546803107","name":"World Foods k-superstore","building":"yes","shop":"supermarket"},"geometry":{"type":"MultiPolygon","coordinates":[[[[-0.05877,51.56291],[-0.05882,51.563],[-0.05859,51.56306],[-0.05844,51.5631],[-0.05838,51.56301],[-0.05877,51.56291]]]]}},
{ "type":"Feature","properties":{"osm_way_id":"896551642","name":"Adonis Supermarket","building":"retail","shop":"supermarket","other":{"addr:city":"London","addr:housenumber":"31-33","addr:postcode":"E9 6JP","addr:street":"Homerton High Street","building:levels":"3","fhrs:id":"1092302","opening_hours:signed":"no","roof:shape":"gabled"}}, "geometry":{"type":"MultiPolygon","coordinates":[[[[-0.04758,51.54821],[-0.04742,51.54821],[-0.04743,51.54812],[-0.04759,51.54813],[-0.04758,51.54821]]]]}}
]
}
