{
"type": "FeatureCollection",
"features": [
{ "type":"Feature","properties":{"osm_id":"3176629701","name":"Aldi","other":{"brand":"ALDI","brand:wikidata":"Q41171672","brand:wikipedia":"en:Aldi","shop":"supermarket"}}, "geometry":{"type":"Point","coordinates":[-4.78606,55.63147 ]}},
{ "type":"Feature","properties":{"osm_id":"3176635293","other":{"shop":"supermarket"}}, "geometry":{"type":"Point","coordinates":[-4.75243,55.63558 ]}},
{ "type":"Feature","properties":{"osm_id":"3828517796","name":"Asda","other":{"addr:city":"Irvine","addr:country":"GB","addr:place":"Rivergate Shopping Centre","addr:postcode":"KA12 8EH","brand":"Asda","brand:wikidata":"Q297410","brand:wikipedia":"en:Asda","contact:facebook":"https:\/\/www.facebook.com\/asda\/","contact:phone":"+44 1294 313036","contact:twitter":"@asda","contact:website":"https:\/\/storelocator.asda.com\/scotland\/irvine\/rivergate-shopping-centre","fhrs:id":"529847","opening_hours":"Mo-Su 08:00-22:00","operator":"Asda Stores Ltd","shop":"supermarket"}}, "geometry":{"type":"Point","coordinates":[-4.67326,55.61205 ]}},
{ "type":"Feature","properties":{"osm_id":"5218413912","name":"Co-op","other":{"shop":"supermarket"}}, "geometry":{"type":"Point","coordinates":[-4.7194,55.70791 ]}},
{ "type":"Feature","properties":{"osm_way_id":"211982450","name":"Co-op Food","building":"retail","shop":"supermarket","other":{"brand":"Co-op Food","operator":"The Co-operative Group","brand:wikidata":"Q3277439","brand:wikipedia":"en:Co-op Food"}}, "geometry":{"type":"Polygon","coordinates":[[[ -5.14243,55.57627],[-5.14206,55.57626],[-5.14208,55.57607],[-5.14211,55.57607],[-5.14212,55.57596],[-5.14227,55.57597],[-5.14228,55.57594],[-5.14264,55.57594],[-5.14263,55.57606],[-5.14272,55.57606],[-5.1427,55.57623],[-5.1427,55.57628],[-5.14261,55.57628],[-5.14253,55.57628],[-5.14253,55.57631],[-5.14242,55.57631],[-5.14243,55.57627]] ]}},
{ "type":"Feature","properties":{"osm_way_id":"221450538","name":"Asda","building":"retail","shop":"supermarket","other":{"brand":"Asda","fhrs:id":"529832","operator":"Asda Stores Ltd","addr:city":"Ardrossan","addr:street":"Harbour Road","addr:country":"GB","addr:postcode":"KA22 8BZ","brand:wikidata":"Q297410","brand:wikipedia":"en:Asda","contact:twitter":"@asda","contact:website":"https:\/\/storelocator.asda.com\/scotland\/adrossan\/harbour-road","contact:facebook":"https:\/\/www.facebook.com\/asda\/"}}, "geometry":{"type":"Polygon","coordinates":[[[ -4.81512,55.63929],[-4.81515,55.63932],[-4.815,55.63937],[-4.81479,55.63918],[-4.81462,55.63923],[-4.8145,55.63921],[-4.81454,55.63917],[-4.81447,55.63916],[-4.81452,55.6391],[-4.81449,55.63908],[-4.81438,55.63904],[-4.81413,55.63881],[-4.81483,55.63856],[-4.8149,55.63863],[-4.81497,55.6386],[-4.81567,55.63923],[-4.81558,55.63926],[-4.81547,55.63916],[-4.81512,55.63929]] ]}},
{ "type":"Feature","properties":{"osm_way_id":"263727915","name":"Co-op Food","building":"yes","shop":"supermarket","other":{"addr:housenumber":"160-166","addr:postcode":"KA13 6EE","addr:street":"Main Street","alt_name":"The Co-operative Food","brand":"Co-op Food","brand:wikidata":"Q3277439","brand:wikipedia":"en:Co-op Food"}}, "geometry":{"type":"Polygon","coordinates":[[[ -4.70125,55.65406],[-4.70101,55.65411],[-4.70071,55.65362],[-4.70098,55.65359],[-4.70103,55.65366],[-4.70125,55.65406]] ]}},
{ "type":"Feature","properties":{"osm_way_id":"263729490","name":"Morrisons","building":"supermarket","shop":"supermarket","other":{"brand":"Morrisons","alt_name":"Morrsisons Stevenson","addr:street":"Kilwinning Road","addr:postcode":"KA20 3DE","brand:wikidata":"Q922344","brand:wikipedia":"en:Morrisons"}}, "geometry":{"type":"Polygon","coordinates":[[[ -4.73531,55.64694],[-4.73511,55.64681],[-4.73498,55.64688],[-4.73443,55.64652],[-4.7344,55.6465],[-4.73514,55.64614],[-4.73507,55.6461],[-4.73519,55.64604],[-4.73527,55.64609],[-4.73532,55.64606],[-4.73535,55.64608],[-4.73536,55.64609],[-4.73544,55.64605],[-4.73553,55.64611],[-4.73548,55.64614],[-4.73566,55.64626],[-4.73559,55.64629],[-4.73604,55.64658],[-4.73531,55.64694]] ]}},
{ "type":"Feature","properties":{"osm_way_id":"297012553","name":"Tesco","building":"yes","shop":"supermarket","other":{"brand":"Tesco","brand:wikidata":"Q487494","brand:wikipedia":"en:Tesco"}}, "geometry":{"type":"Polygon","coordinates":[[[ -4.68301,55.75572],[-4.68269,55.75582],[-4.68272,55.75586],[-4.68259,55.75589],[-4.6827,55.75601],[-4.68249,55.75608],[-4.68172,55.75529],[-4.68232,55.7551],[-4.68235,55.75513],[-4.68241,55.75511],[-4.68301,55.75572]] ]}},
{ "type":"Feature","properties":{"osm_way_id":"300714366","name":"Tesco Extra","building":"retail","shop":"supermarket","other":{"addr:city":"Irvine","addr:housenumber":"16","addr:postcode":"KA12 8AY","addr:street":"Riverway","brand":"Tesco Extra","brand:wikidata":"Q25172225","brand:wikipedia":"en:Tesco Extra","contact:website":"https:\/\/www.tesco.com\/store-locator\/irvine\/15-16-riverway-retail-park","opening_hours":"Mo-Su 06:00-24:00","operator":"Tesco","phone":"+44 345 677 9380"}}, "geometry":{"type":"Polygon","coordinates":[[[ -4.6726,55.60731],[-4.67275,55.60769],[-4.67204,55.60778],[-4.67187,55.60733],[-4.67157,55.60737],[-4.6711,55.60628],[-4.67132,55.60626],[-4.67147,55.60623],[-4.67143,55.60615],[-4.67225,55.60603],[-4.67225,55.60605],[-4.67239,55.60603],[-4.67242,55.60612],[-4.6725,55.60611],[-4.67293,55.60709],[-4.67273,55.60711],[-4.67274,55.60714],[-4.6728,55.60728],[-4.6726,55.60731]] ]}},
{ "type":"Feature","properties":{"osm_way_id":"300714637","name":"Sainsbury's","building":"yes","shop":"supermarket","other":{"brand":"Sainsbury's","brand:wikidata":"Q152096","brand:wikipedia":"en:Sainsbury's","opening_hours":"Mo-Fr 08:00-22:00; Sa 07:00-22:00; Su 08:00-20:00"}}, "geometry":{"type":"Polygon","coordinates":[[[ -4.6675,55.60582],[-4.6674,55.60583],[-4.66726,55.60549],[-4.66738,55.60537],[-4.66743,55.60536],[-4.66753,55.6054],[-4.66753,55.60541],[-4.6683,55.60531],[-4.66835,55.6053],[-4.66872,55.60619],[-4.6687,55.6062],[-4.66818,55.60626],[-4.66809,55.60627],[-4.66768,55.60634],[-4.66762,55.60611],[-4.66759,55.60604],[-4.6675,55.60582]] ]}},
{ "type":"Feature","properties":{"osm_way_id":"318709230","name":"The Co-operative Food","building":"yes","shop":"supermarket","other":{"phone":"+44 1505 504101","operator":"The Co-operative","addr:city":"Beith","addr:street":"Laigh Road","addr:postcode":"KA15 2DJ","opening_hours":"Mo-Su 07:00-23:00"}}, "geometry":{"type":"Polygon","coordinates":[[[ -4.63359,55.7537],[-4.63327,55.75379],[-4.63318,55.75369],[-4.63303,55.75373],[-4.63284,55.75352],[-4.63305,55.75345],[-4.63303,55.75343],[-4.6332,55.75338],[-4.63323,55.7534],[-4.6333,55.75338],[-4.63359,55.7537]] ]}},
{ "type":"Feature","properties":{"osm_way_id":"368203955","name":"Morrisons","building":"yes","shop":"supermarket","other":{"brand":"Morrisons","brand:wikidata":"Q922344","brand:wikipedia":"en:Morrisons"}}, "geometry":{"type":"Polygon","coordinates":[[[ -4.86515,55.7916],[-4.8651,55.79154],[-4.86506,55.79155],[-4.86495,55.79142],[-4.86471,55.7914],[-4.86469,55.79111],[-4.86544,55.79091],[-4.8658,55.79135],[-4.86524,55.7915],[-4.8653,55.79156],[-4.86515,55.7916]] ]}},
{ "type":"Feature","properties":{"osm_way_id":"380507984","name":"Aldi","building":"yes","shop":"supermarket","other":{"brand":"ALDI","brand:wikidata":"Q41171672","brand:wikipedia":"en:Aldi","opening_hours":"Mo-Sa 08:00-22:00; Su 09:00-20:00"}}, "geometry":{"type":"Polygon","coordinates":[[[ -4.66508,55.61662],[-4.66502,55.61658],[-4.66472,55.61637],[-4.66534,55.61607],[-4.6657,55.61632],[-4.66508,55.61662]] ]}},
{ "type":"Feature","properties":{"osm_way_id":"390017111","name":"Lidl","building":"supermarket","shop":"supermarket","other":{"brand":"Lidl","fhrs:id":"529862","addr:city":"Dalry","addr:street":"Kilwinning Road","addr:postcode":"KA24 4LA","brand:wikidata":"Q151954","brand:wikipedia":"en:Lidl","addr:housenumber":"2"}}, "geometry":{"type":"Polygon","coordinates":[[[ -4.72538,55.70418],[-4.72537,55.70432],[-4.72547,55.70432],[-4.72546,55.70443],[-4.7245,55.70442],[-4.72451,55.70412],[-4.72482,55.70413],[-4.72482,55.70418],[-4.72538,55.70418]] ]}},
{ "type":"Feature","properties":{"osm_way_id":"426742815","name":"Co-op","building":"retail","shop":"supermarket","other":{"opening_hours":"Mo-Su 07:00-22:00","operator":"The Co-operative Group"}}, "geometry":{"type":"Polygon","coordinates":[[[ -4.66172,55.62311],[-4.66162,55.62321],[-4.66117,55.62308],[-4.66127,55.62297],[-4.66155,55.62306],[-4.66172,55.62311]] ]}},
{ "type":"Feature","properties":{"osm_way_id":"537818323","name":"Tesco Metro","building":"yes","shop":"supermarket","other":{"addr:city":"Saltcoats","addr:housename":"Tesco Metro","addr:postcode":"KA21 5RP","addr:street":"High Road","brand":"Tesco Metro","brand:wikidata":"Q57551648","contact:website":"https:\/\/www.tesco.com\/store-locator\/saltcoats\/high-rd","operator":"Tesco"}}, "geometry":{"type":"Polygon","coordinates":[[[ -4.77563,55.64133],[-4.77551,55.64153],[-4.77443,55.64133],[-4.77455,55.64113],[-4.77563,55.64133]] ]}},
{ "type":"Feature","properties":{"osm_way_id":"700576556","name":"Sainsbury's","building":"supermarket","shop":"supermarket","other":{"brand":"Sainsbury's","brand:wikidata":"Q152096","brand:wikipedia":"en:Sainsbury's"}}, "geometry":{"type":"Polygon","coordinates":[[[ -4.79114,55.63524],[-4.79153,55.6356],[-4.79152,55.63574],[-4.79128,55.63583],[-4.79103,55.6358],[-4.79059,55.63548],[-4.79072,55.63542],[-4.7907,55.6354],[-4.79075,55.63538],[-4.79072,55.63535],[-4.79076,55.63533],[-4.79081,55.63531],[-4.79085,55.63534],[-4.79105,55.63525],[-4.79108,55.63527],[-4.79114,55.63524]] ]}},
{ "type":"Feature","properties":{"osm_way_id":"745979054","name":"Lidl","building":"yes","shop":"supermarket","other":{"addr:country":"GB","addr:housenumber":"104","addr:postcode":"KA20 3JL","addr:street":"Boglemart Street","brand":"Lidl","brand:wikidata":"Q151954","brand:wikipedia":"en:Lidl","fhrs:id":"529871"}}, "geometry":{"type":"Polygon","coordinates":[[[ -4.76217,55.63882],[-4.76172,55.63896],[-4.76135,55.6386],[-4.76162,55.63851],[-4.76157,55.63846],[-4.76175,55.6384],[-4.76217,55.63882]] ]}}
]
}
