{
"type": "FeatureCollection",
"features": [
{ "type":"Feature","properties":{"osm_way_id":"119550050","building":"warehouse","other":{"addr:city":"Reading","addr:housenumber":"9","addr:street":"Deacon Way","building:levels":"1","source:building":"OS_OpenData_StreetView"}}, "geometry":{"type":"MultiPolygon","coordinates":[[[[-1.01719,51.4654],[-1.01809,51.46573],[-1.01784,51.46599],[-1.01694,51.46566],[-1.01719,51.4654]]]]}},
{ "type":"Feature","properties":{"osm_way_id":"124465732","building":"warehouse"},"geometry":{"type":"MultiPolygon","coordinates":[[[[-5.27644,55.69767],[-5.27542,55.69727],[-5.27559,55.69713],[-5.27617,55.69735],[-5.27645,55.69712],[-5.27689,55.6973],[-5.27644,55.69767]]]]}},
{ "type":"Feature","properties":{"osm_way_id":"300560245","building":"warehouse"},"geometry":{"type":"MultiPolygon","coordinates":[[[[-4.6717,55.60961],[-4.67162,55.60983],[-4.67226,55.6099],[-4.67228,55.60983],[-4.67234,55.60984],[-4.67236,55.60976],[-4.67231,55.60976],[-4.67234,55.60967],[-4.6717,55.60961]]]]}},
{ "type":"Feature","properties":{"osm_way_id":"300560247","name":"Sports Direct","building":"warehouse","shop":"sports","other":{"addr:housenumber":"3","addr:postcode":"KA12 8AY","addr:street":"Riverway","brand":"Sports Direct","brand:wikidata":"Q7579661","brand:wikipedia":"en:SportsDirect.com"}}, "geometry":{"type":"MultiPolygon","coordinates":[[[[-4.67219,55.61026],[-4.67222,55.61018],[-4.67217,55.61018],[-4.67219,55.61011],[-4.67154,55.61004],[-4.67148,55.61025],[-4.67211,55.61032],[-4.67214,55.61026],[-4.67219,55.61026]]]]}},
{ "type":"Feature","properties":{"osm_way_id":"300560248","building":"warehouse"},"geometry":{"type":"MultiPolygon","coordinates":[[[[-4.67148,55.61025],[-4.6714,55.61047],[-4.67204,55.61053],[-4.67206,55.61046],[-4.67212,55.61047],[-4.67215,55.61039],[-4.6721,55.61038],[-4.67211,55.61032],[-4.67148,55.61025]]]]}},
{ "type":"Feature","properties":{"osm_way_id":"300560249","name":"Next Clearance","building":"warehouse","other":{"addr:housenumber":"1A","addr:postcode":"KA12 8AG","addr:street":"Riverway"}}, "geometry":{"type":"MultiPolygon","coordinates":[[[[-4.6714,55.61047],[-4.67132,55.6107],[-4.67184,55.61075],[-4.67196,55.61071],[-4.67197,55.61068],[-4.67203,55.61069],[-4.67205,55.61061],[-4.67201,55.61061],[-4.67204,55.61053],[-4.6714,55.61047]]]]}},
{ "type":"Feature","properties":{"osm_way_id":"380507985","building":"warehouse"},"geometry":{"type":"MultiPolygon","coordinates":[[[[-4.66594,55.61769],[-4.66563,55.61748],[-4.6663,55.61716],[-4.66645,55.61726],[-4.66658,55.61734],[-4.66631,55.61747],[-4.66635,55.61749],[-4.66594,55.61769]]]]}}
]
}
