{
"type": "FeatureCollection",
"features": [
{ "type":"Feature","properties":{"osm_id":"241774549","name":"Budgens","other":{"addr:city":"Abingdon","addr:country":"GB","addr:housename":"Peachcroft Shopping Centre","addr:postcode":"OX14 2QA","addr:street":"Peachcroft Road","addr:unit":"13","brand":"Budgens","brand:wikidata":"Q4985016","brand:wikipedia":"en:Budgens","fhrs:id":"264257","shop":"supermarket"}}, "geometry":{"type":"Point","coordinates":[-1.26619,51.68451 ]}},
{ "type":"Feature","properties":{"osm_id":"370652797","name":"Co-op","other":{"addr:city":"Cramlington","addr:county":"Northumberland","addr:postcode":"NE23 7RG","fhrs:id":"466031","opening_hours":"24\/7","operator":"The Co-operative Group","shop":"supermarket","website":"https:\/\/finder.coop.co.uk\/food\/store\/NE23-7QA\/moorfarm-roundabout"}}, "geometry":{"type":"Point","coordinates":[-1.57969,55.06517 ]}},
{ "type":"Feature","properties":{"osm_id":"574910006","name":"Coop","other":{"addr:city":"Bedlington","addr:street":"Station Road","shop":"supermarket"}}, "geometry":{"type":"Point","coordinates":[-1.56985,55.13936 ]}},
{ "type":"Feature","properties":{"osm_id":"827266824","name":"Iceland","other":{"addr:city":"Newcastle upon Tyne","addr:housenumber":"253","addr:postcode":"NE4 5JT","addr:street":"Stanhope Street","brand":"Iceland","brand:wikidata":"Q721810","fhrs:id":"236801","not:addr:postcode":"NE4 5JN","opening_hours":"Mo-Sa 09:00-18:00; Su 10:00-16:00","operator":"Iceland","phone":"+44 191 272 5488","shop":"supermarket"}}, "geometry":{"type":"Point","coordinates":[-1.6365,54.97589 ]}},
{ "type":"Feature","properties":{"osm_id":"1117457117","man_made":"surveillance","other":{"camera:mount":"roof","camera:type":"dome","surveillance:type":"camera"}}, "geometry":{"type":"Point","coordinates":[-1.51855,55.03259 ]}},
{ "type":"Feature","properties":{"osm_id":"1117457257","man_made":"surveillance","other":{"camera:mount":"roof","camera:type":"dome","surveillance:type":"camera"}}, "geometry":{"type":"Point","coordinates":[-1.51852,55.03323 ]}},
{ "type":"Feature","properties":{"osm_id":"1189859940","name":"The Co-operative Food","other":{"addr:city":"Lynemouth","addr:county":"Northumberland","addr:housenumber":"6","addr:postcode":"NE61 5TS","addr:street":"West Market Street","fhrs:id":"286712","operator":"The Co-operative Group","shop":"supermarket"}}, "geometry":{"type":"Point","coordinates":[-1.53681,55.21262 ]}},
{ "type":"Feature","properties":{"osm_id":"1630542868","name":"The Co-operative Food","other":{"addr:city":"Widdrington Station","addr:county":"Northumberland","addr:postcode":"NE61 5ND","addr:street":"Grangemoor Road","brand":"The Co-operative Food","brand:wikidata":"Q3277439","brand:wikipedia":"en:Co-op Food","fhrs:id":"286003","operator":"The Co-operative Group","shop":"supermarket"}}, "geometry":{"type":"Point","coordinates":[-1.61726,55.24123 ]}},
{ "type":"Feature","properties":{"osm_id":"1910275085","name":"Green Shop","other":{"addr:city":"Berwick-Upon-Tweed","addr:county":"Northumberland","addr:housenumber":"30","addr:postcode":"TD15 1AQ","addr:street":"Bridge Street","fhrs:id":"285983","organic":"only","shop":"supermarket","wikidata":"Q26652422"}}, "geometry":{"type":"Point","coordinates":[-2.00417,55.76829 ]}},
{ "type":"Feature","properties":{"osm_id":"1991656119","name":"Co-op Food","other":{"addr:city":"Ponteland","addr:county":"Northumberland","addr:housenumber":"15","addr:postcode":"NE20 9PW","addr:street":"Broadway","atm":"yes","brand":"Co-op Food","brand:wikidata":"Q3277439","brand:wikipedia":"en:Co-op Food","fhrs:id":"287728","opening_hours":"Mo-Su 07:00-22:00","shop":"supermarket"}}, "geometry":{"type":"Point","coordinates":[-1.76482,55.03645 ]}},
{ "type":"Feature","properties":{"osm_id":"2048737632","name":"Waitrose","other":{"addr:city":"Newcastle upon Tyne","addr:housename":"Eldon Square Shopping Centre","addr:housenumber":"9-11","addr:postcode":"NE1 7JD","addr:street":"St George's Way","alt_name":"Waitrose Eldon Square","brand":"Waitrose","brand:wikidata":"Q771734","brand:wikipedia":"en:Waitrose","fhrs:id":"235606","level":"0","official_name":"Waitrose & Partners","opening_hours":"Mo-Sa 08:00-19:00; Su 11:00-17:00","operator":"Waitrose & Partners","phone":"+44 191 233 2816","shop":"supermarket"}}, "geometry":{"type":"Point","coordinates":[-1.61556,54.9754 ]}},
{ "type":"Feature","properties":{"osm_id":"2341912520","name":"Spar","other":{"addr:city":"Newcastle upon Tyne","addr:housenumber":"83a","addr:postcode":"NE3 1DU","addr:street":"Salters Road","brand":"Spar","brand:wikidata":"Q610492","brand:wikipedia":"en:Spar (retailer)","operator":"Loco","shop":"supermarket","wheelchair":"yes"}}, "geometry":{"type":"Point","coordinates":[-1.62352,55.00653 ]}},
{ "type":"Feature","properties":{"osm_id":"2371106912","name":"The Co-operative Food","other":{"addr:city":"Rothbury","addr:county":"Northumberland","addr:postcode":"NE65 7TB","addr:street":"High Street","fhrs:id":"288346","operator":"The Co-operative Group","shop":"supermarket"}}, "geometry":{"type":"Point","coordinates":[-1.91208,55.30979 ]}},
{ "type":"Feature","properties":{"osm_id":"3638689965","name":"Wing Hong Chinese Supermarket","other":{"addr:city":"Newcastle upon Tyne","addr:housenumber":"45-51","addr:postcode":"NE1 4YB","addr:street":"Stowell Street","phone":"+44 191 2331800","shop":"supermarket","website":"http:\/\/www.winghong.co.uk\/"}}, "geometry":{"type":"Point","coordinates":[-1.62055,54.97185 ]}},
{ "type":"Feature","properties":{"osm_id":"3670607954","name":"Heron Foods","other":{"addr:city":"Amble","addr:county":"Northumberland","addr:housenumber":"70-76","addr:postcode":"NE65 0DD","addr:street":"Queen Street","brand":"Heron Foods","brand:wikidata":"Q5743472","brand:wikipedia":"en:Heron Foods","contact:website":"https:\/\/heronfoods.com\/index.php\/storelocator\/store-details\/huyton","fhrs:id":"288282","shop":"supermarket"}}, "geometry":{"type":"Point","coordinates":[-1.58335,55.33388 ]}},
{ "type":"Feature","properties":{"osm_id":"3767030775","name":"Asda","other":{"addr:city":"Newcastle Upon Tyne","addr:country":"GB","addr:postcode":"NE4 8BE","addr:street":"Adelaide Shopping Centre","brand":"Asda","brand:wikidata":"Q297410","brand:wikipedia":"en:Asda","contact:facebook":"https:\/\/www.facebook.com\/asda\/","contact:twitter":"@asda","contact:website":"https:\/\/storelocator.asda.com\/north-east\/benwell\/the-adelaide-centre","fhrs:id":"236459","opening_hours":"07:00-11:00","operator":"Asda Stores Ltd","shop":"supermarket"}}, "geometry":{"type":"Point","coordinates":[-1.65575,54.97015 ]}},
{ "type":"Feature","properties":{"osm_id":"4321222080","name":"Heron Foods","other":{"addr:city":"Blyth","addr:county":"Northumberland","addr:housenumber":"41","addr:postcode":"NE24 1BW","addr:street":"Waterloo Road","brand":"Heron Foods","brand:wikidata":"Q5743472","brand:wikipedia":"en:Heron Foods","contact:website":"https:\/\/heronfoods.com\/storelocator\/store-details\/blyth","fhrs:id":"288923","shop":"supermarket"}}, "geometry":{"type":"Point","coordinates":[-1.50964,55.12674 ]}},
{ "type":"Feature","properties":{"osm_id":"4324882985","name":"Springways","other":{"addr:city":"Blyth","addr:country":"GB","addr:county":"Northumberland","addr:housenumber":"56","addr:postcode":"NE24 1LT","addr:street":"Regent Street","fhrs:id":"288605","shop":"supermarket"}}, "geometry":{"type":"Point","coordinates":[-1.51088,55.12893 ]}},
{ "type":"Feature","properties":{"osm_id":"4330780594","name":"Spar","other":{"addr:city":"Bedlington","addr:county":"Northumberland","addr:housenumber":"37","addr:postcode":"NE22 5PP","addr:street":"Station Road","brand":"Spar","brand:wikidata":"Q610492","fhrs:id":"287794","shop":"supermarket"}}, "geometry":{"type":"Point","coordinates":[-1.57303,55.1385 ]}},
{ "type":"Feature","properties":{"osm_id":"4420387450","name":"Sainsbury's Local","other":{"addr:city":"Newcastle upon Tyne","addr:housename":"The Jesmond","addr:postcode":"NE2 3HH","addr:street":"Lyndhurst Avenue","addr:unit":"2","brand:wikidata":"Q13218434","fhrs:id":"926999","shop":"supermarket"}}, "geometry":{"type":"Point","coordinates":[-1.60952,54.99386 ]}},
{ "type":"Feature","properties":{"osm_id":"4492725229","name":"Heron Foods","other":{"addr:city":"Prudhoe","addr:county":"Northumberland","addr:housenumber":"8a","addr:postcode":"NE42 5HJ","addr:street":"Front Street","brand":"Heron Foods","brand:wikidata":"Q5743472","brand:wikipedia":"en:Heron Foods","fhrs:id":"286471","shop":"supermarket","source:addr":"FHRS Open Data"}}, "geometry":{"type":"Point","coordinates":[-1.84997,54.96163 ]}},
{ "type":"Feature","properties":{"osm_id":"4502258129","name":"Price Watch Supermarket","other":{"addr:city":"Newcastle Upon Tyne","addr:postcode":"NE1 2JQ","addr:street":"Melbourne Street","fhrs:id":"237048","shop":"supermarket"}}, "geometry":{"type":"Point","coordinates":[-1.60282,54.97232 ]}},
{ "type":"Feature","properties":{"osm_id":"4554149649","name":"LTH Oriental Supermarket","other":{"addr:city":"Newcastle Upon Tyne","addr:street":"Railway Street","shop":"supermarket"}}, "geometry":{"type":"Point","coordinates":[-1.62709,54.96407 ]}},
{ "type":"Feature","properties":{"osm_id":"4563686977","name":"Gihan Food Store & Bakery","other":{"addr:city":"Newcastle Upon Tyne","addr:housenumber":"31 - 33","addr:postcode":"NE4 6ER","addr:street":"Elswick Road","fhrs:id":"1208065","shop":"supermarket","source:addr":"FHRS Open Data"}}, "geometry":{"type":"Point","coordinates":[-1.63118,54.97086 ]}},
{ "type":"Feature","properties":{"osm_id":"4563722071","name":"M A Brothers Asian Supermarket","other":{"addr:city":"Newcastle Upon Tyne","addr:housenumber":"177","addr:postcode":"NE4 6SR","addr:street":"Elswick Road","fhrs:id":"235831","shop":"supermarket","source:addr":"FHRS Open Data"}}, "geometry":{"type":"Point","coordinates":[-1.64311,54.96849 ]}},
{ "type":"Feature","properties":{"osm_id":"4589284607","name":"Najeb Supermarket","other":{"addr:city":"Newcastle Upon Tyne","addr:housenumber":"405 - 409","addr:postcode":"NE4 6PB","addr:street":"Westgate Road","fhrs:id":"861037","shop":"supermarket","source:addr":"FHRS Open Data"}}, "geometry":{"type":"Point","coordinates":[-1.63956,54.9733 ]}},
{ "type":"Feature","properties":{"osm_id":"4589339778","name":"Northeast Halal Food Store","other":{"addr:city":"Newcastle Upon Tyne","addr:street":"West Road","shop":"supermarket"}}, "geometry":{"type":"Point","coordinates":[-1.65259,54.97533 ]}},
{ "type":"Feature","properties":{"osm_id":"4601470462","name":"Newcastle Superstore","other":{"addr:city":"Newcastle Upon Tyne","addr:street":"West Road","shop":"supermarket"}}, "geometry":{"type":"Point","coordinates":[-1.65189,54.9755 ]}},
{ "type":"Feature","properties":{"osm_id":"4603415249","name":"M.A.M.","other":{"addr:city":"Newcastle Upon Tyne","addr:street":"West Road","phone":"+44 191 597 9363","shop":"supermarket"}}, "geometry":{"type":"Point","coordinates":[-1.65512,54.97604 ]}},
{ "type":"Feature","properties":{"osm_id":"4625553249","name":"Heron Foods","other":{"addr:city":"Newcastle Upon Tyne","addr:country":"GB","addr:housenumber":"444,446","addr:postcode":"NE6 2NY","addr:street":"Welbeck Road","brand":"Heron Foods","brand:wikidata":"Q5743472","brand:wikipedia":"en:Heron Foods","contact:website":"https:\/\/heronfoods.com\/storelocator\/store-details\/walker","fhrs:id":"237029","shop":"supermarket"}}, "geometry":{"type":"Point","coordinates":[-1.56264,54.97381 ]}},
{ "type":"Feature","properties":{"osm_id":"4628401920","name":"Heron Foods","other":{"addr:city":"Newcastle Upon Tyne","addr:country":"GB","addr:housenumber":"1","addr:postcode":"NE6 3DH","addr:street":"Church Walk","brand":"Heron Foods","brand:wikidata":"Q5743472","brand:wikipedia":"en:Heron Foods","contact:website":"https:\/\/heronfoods.com\/storelocator\/store-details\/church-walk","fhrs:id":"237024","shop":"supermarket"}}, "geometry":{"type":"Point","coordinates":[-1.54574,54.97416 ]}},
{ "type":"Feature","properties":{"osm_id":"4631856518","name":"The Food Warehouse","other":{"addr:city":"Newcastle Upon Tyne","addr:country":"GB","addr:housename":"Newcastle Shopping Park","addr:postcode":"NE6 2UJ","addr:street":"Fossway","addr:unit":"5B","brand":"The Food Warehouse","brand:wikidata":"Q87263899","fhrs:id":"1158010","shop":"supermarket"}}, "geometry":{"type":"Point","coordinates":[-1.57225,54.97892 ]}},
{ "type":"Feature","properties":{"osm_id":"4634996698","name":"The Honey Tree","other":{"addr:city":"Newcastle Upon Tyne","addr:housenumber":"68","addr:postcode":"NE6 5HL","addr:street":"Heaton Road","email":"thehoneytreeshopteam@gmail.com","fhrs:id":"237147","opening_hours":"Tu-Fr 11:00-18:00; Sa 10:30-17:00","organic":"only","shop":"supermarket","website":"https:\/\/www.thehoneytree.org"}}, "geometry":{"type":"Point","coordinates":[-1.58056,54.98076 ]}},
{ "type":"Feature","properties":{"osm_id":"4748826822","name":"HiYoU Oriental Supermarket","other":{"addr:city":"Newcastle upon Tyne","addr:housenumber":"104-108","addr:postcode":"NE1 5RQ","addr:street":"Newgate Street","fhrs:id":"236047","level":"0","shop":"supermarket"}}, "geometry":{"type":"Point","coordinates":[-1.61725,54.97356 ]}},
{ "type":"Feature","properties":{"osm_id":"4841364101","name":"Londis Shop and Post Office","other":{"addr:city":"Holywell","addr:postcode":"NE25 0ND","addr:street":"Laurel Terrace","operator":"Londis","shop":"supermarket"}}, "geometry":{"type":"Point","coordinates":[-1.50885,55.06503 ]}},
{ "type":"Feature","properties":{"osm_id":"4867752760","name":"Humshaugh Village Shop","other":{"shop":"supermarket"}}, "geometry":{"type":"Point","coordinates":[-2.128,55.0376 ]}},
{ "type":"Feature","properties":{"osm_id":"5291386583","name":"Co-op Food","other":{"addr:city":"Whitley Bay","addr:housename":"Berkeley Tavern","addr:postcode":"NE26 1LY","addr:street":"Marine Avenue","brand":"Co-op Food","brand:wikidata":"Q3277439","brand:wikipedia":"en:Co-op Food","fhrs:id":"945484","level":"0","opening_hours":"Mo-Su 06:00-23:00","operator":"The Co-operative Group","operator:wikidata":"Q117202","operator:wikipedia":"en:The Co-operative Group","payment:cash":"yes","payment:debit_cards":"yes","shop":"supermarket"}}, "geometry":{"type":"Point","coordinates":[-1.44955,55.04769 ]}},
{ "type":"Feature","properties":{"osm_id":"5938803487","name":"Viet House Supermarket","other":{"addr:housenumber":"85","addr:street":"Westgate Road","shop":"supermarket"}}, "geometry":{"type":"Point","coordinates":[-1.61934,54.97031 ]}},
{ "type":"Feature","properties":{"osm_id":"6203681677","name":"Broadway Supermarket","other":{"addr:city":"Blyth","addr:county":"Northumberland","addr:housenumber":"9","addr:postcode":"NE24 2PG","addr:street":"Broadway Circle","fhrs:id":"288891","shop":"supermarket"}}, "geometry":{"type":"Point","coordinates":[-1.51616,55.12267 ]}},
{ "type":"Feature","properties":{"osm_id":"6241463595","man_made":"surveillance","other":{"camera:mount":"building","camera:type":"dome","surveillance:type":"camera"}}, "geometry":{"type":"Point","coordinates":[-1.47961,55.04414 ]}},
{ "type":"Feature","properties":{"osm_id":"7038911348","name":"Shop Locally","other":{"addr:city":"Newcastle Upon Tyne","addr:housenumber":"50","addr:postcode":"NE4 9TN","addr:street":"Willow Avenue","fhrs:id":"1130189","shop":"supermarket"}}, "geometry":{"type":"Point","coordinates":[-1.65935,54.98551 ]}},
{ "type":"Feature","properties":{"osm_id":"7038955040","name":"JCR Convenience Store","other":{"addr:city":"Newcastle Upon Tyne","addr:housenumber":"41","addr:postcode":"NE5 3JN","addr:street":"Stamfordham Road","fhrs:id":"1295656","opening_hours":"Mo-Su 08:00-22:00","payment:cash":"yes","payment:contactless":"yes","payment:debit_cards":"yes","payment:mastercard":"yes","payment:visa":"yes","shop":"supermarket"}}, "geometry":{"type":"Point","coordinates":[-1.66087,54.98924 ]}},
{ "type":"Feature","properties":{"osm_id":"7193575848","name":"Heron Foods","other":{"addr:city":"Longbenton","addr:housename":"Boulevard Shopping Centre","addr:postcode":"NE12 8GA","addr:street":"West Farm Avenue","addr:unit":"8","brand":"Heron Foods","brand:wikidata":"Q5743472","brand:wikipedia":"en:Heron Foods","fhrs:id":"23097","not:addr:postcode":"NE12 8GA","opening_hours":"Mo-Sa 08:00-19:00; Su 10:00-17:00","shop":"supermarket","website":"https:\/\/heronfoods.com\/store\/longbenton\/"}}, "geometry":{"type":"Point","coordinates":[-1.59101,55.01131 ]}},
{ "type":"Feature","properties":{"osm_id":"7193575873","name":"Heron Foods","other":{"addr:city":"Wallsend","addr:postcode":"NE28 7DB","addr:street":"Churchill Street","addr:unit":"2","brand":"Heron Foods","brand:wikidata":"Q5743472","brand:wikipedia":"en:Heron Foods","fhrs:id":"1038356","opening_hours":"Mo-Sa 08:00-20:00; Su 10:00-16:00","shop":"supermarket","website":"https:\/\/heronfoods.com\/store\/high-howdon\/"}}, "geometry":{"type":"Point","coordinates":[-1.50299,54.99712 ]}},
{ "type":"Feature","properties":{"osm_id":"7206639838","name":"Tuk Tuk Market","other":{"addr:city":"Whitley Bay","addr:county":"Tyne And Wear","addr:housename":"Roxburgh House","addr:housenumber":"3","addr:postcode":"NE26 1DS","addr:street":"Park Avenue","disused:shop":"yes","fhrs:id":"1383513","shop":"supermarket"}}, "geometry":{"type":"Point","coordinates":[-1.44687,55.04311 ]}},
{ "type":"Feature","properties":{"osm_id":"7248308629","name":"Iceland","other":{"addr:city":"Cramlington","addr:county":"Northumberland","addr:postcode":"NE23 6QW","addr:unit":"Manor Walks Shopping Centre","brand":"Iceland","brand:wikidata":"Q721810","fhrs:id":"285932","shop":"supermarket"}}, "geometry":{"type":"Point","coordinates":[-1.59108,55.08578 ]}},
{ "type":"Feature","properties":{"osm_id":"7316810050","name":"Spar","other":{"addr:city":"Newcastle Upon Tyne","addr:country":"GB","addr:housenumber":"37-39","addr:postcode":"NE3 3RX","addr:street":"Halewood Avenue","brand":"Spar","brand:wikidata":"Q610492","fhrs:id":"237489","shop":"supermarket"}}, "geometry":{"type":"Point","coordinates":[-1.65261,55.00618 ]}},
{ "type":"Feature","properties":{"osm_id":"7619277224","name":"Heron Foods","other":{"addr:city":"Newcastle Upon Tyne","addr:country":"GB","addr:housenumber":"151","addr:postcode":"NE3 3BE","addr:street":"Kirkwood Drive","brand":"Heron Foods","brand:wikidata":"Q5743472","brand:wikipedia":"en:Heron Foods","contact:website":"https:\/\/heronfoods.com\/storelocator\/store-details\/kenton","fhrs:id":"861036","level":"0","shop":"supermarket"}}, "geometry":{"type":"Point","coordinates":[-1.65261,55.00655 ]}},
{ "type":"Feature","properties":{"osm_id":"7633575769","name":"Co-op Food","other":{"addr:city":"Alnwick","addr:county":"Northumberland","addr:housenumber":"48","addr:postcode":"NE66 1JD","addr:street":"Bondgate Within","branch":"Alnwick - Bondgate","brand":"Co-op Food","brand:wikidata":"Q3277439","brand:wikipedia":"en:Co-op Food","fhrs:id":"286137","opening_hours":"Mo-Su 07:00-22:00","shop":"supermarket","wikidata":"Q26590165"}}, "geometry":{"type":"Point","coordinates":[-1.70659,55.41388 ]}},
{ "type":"Feature","properties":{"osm_id":"8084713899","name":"Buy The Kilo","other":{"addr:housename":"Tynemouth Metro Station","addr:postcode":"NE30 2TF","addr:street":"Station Mews","addr:town":"Tynemouth","addr:unit":"3","fhrs:id":"1337127","shop":"supermarket","website":"https:\/\/www.buy-the-kilo.com\/","zero_waste":"only"}}, "geometry":{"type":"Point","coordinates":[-1.42908,55.01712 ]}},
{ "type":"Feature","properties":{"osm_id":"8779526022","name":"Costcutter","other":{"addr:city":"Newcastle Upon Tyne","addr:housenumber":"29","addr:postcode":"NE3 2PE","addr:street":"Fawdon Park Road","brand":"Costcutter","brand:wikidata":"Q5175072","brand:wikipedia":"en:Costcutter","fhrs:id":"235518","shop":"supermarket"}}, "geometry":{"type":"Point","coordinates":[-1.64529,55.01395 ]}},
{ "type":"Feature","properties":{"osm_id":"9434502316","name":"Lakes and Dales Co-operative","other":{"addr:housename":"Delaval House","addr:postcode":"NE25 0DS","addr:street":"Avenue Road","brand:wikidata":"Q110620660","fhrs:id":"289186","shop":"supermarket"}}, "geometry":{"type":"Point","coordinates":[-1.52503,55.07252 ]}},
{ "type":"Feature","properties":{"osm_way_id":"24422485","name":"Asda","building":"retail","shop":"supermarket","other":{"addr:city":"Blyth","addr:country":"GB","addr:county":"Northumberland","addr:postcode":"NE24 4LZ","addr:street":"Cowpen Road","brand":"Asda","brand:wikidata":"Q297410","brand:wikipedia":"en:Asda","contact:facebook":"https:\/\/www.facebook.com\/asda\/","contact:twitter":"@asda","contact:website":"https:\/\/storelocator.asda.com\/north-east\/blyth\/cowpen-road","fhrs:id":"287667","operator":"Asda Stores Ltd"}}, "geometry":{"type":"MultiPolygon","coordinates":[[[[-1.55576,55.12752],[-1.5554,55.12756],[-1.55542,55.12761],[-1.55479,55.12769],[-1.55475,55.12759],[-1.55463,55.12761],[-1.55453,55.12735],[-1.55445,55.12736],[-1.55433,55.12704],[-1.55425,55.12705],[-1.55416,55.12682],[-1.55424,55.1268],[-1.55422,55.12676],[-1.55436,55.12674],[-1.55432,55.12663],[-1.55506,55.12654],[-1.55509,55.12661],[-1.55524,55.12659],[-1.55527,55.12664],[-1.55534,55.12663],[-1.55548,55.12661],[-1.55556,55.1266],[-1.55565,55.12682],[-1.55573,55.12703],[-1.55556,55.12705],[-1.55565,55.12727],[-1.55572,55.12726],[-1.55578,55.12741],[-1.55572,55.12741],[-1.55576,55.12752]]]]}},
{ "type":"Feature","properties":{"osm_way_id":"26935440","name":"Asda","building":"retail","shop":"supermarket","other":{"addr:city":"Cramlington","addr:country":"GB","addr:county":"Northumberland","addr:postcode":"NE23 6QW","addr:unit":"Manor Walks Shopping Centre","brand":"Asda","brand:wikidata":"Q297410","brand:wikipedia":"en:Asda","contact:facebook":"https:\/\/www.facebook.com\/asda\/","contact:twitter":"@asda","contact:website":"https:\/\/storelocator.asda.com\/north-east\/cramlington\/manor-walks-shopping-centre","fhrs:id":"289045","operator":"Asda Stores Ltd"}}, "geometry":{"type":"MultiPolygon","coordinates":[[[[-1.59235,55.0864],[-1.59235,55.08581],[-1.59229,55.08578],[-1.59188,55.08578],[-1.5914,55.08578],[-1.5914,55.08587],[-1.5914,55.0864],[-1.59235,55.0864]]]]}},
{ "type":"Feature","properties":{"osm_way_id":"27571713","name":"Morrisons","building":"retail","shop":"supermarket","other":{"addr:city":"North Shields","addr:housename":"Collingwood Centre","addr:postcode":"NE29 9QR","addr:street":"Preston North Road","brand":"Morrisons","brand:wikidata":"Q922344","brand:wikipedia":"en:Morrisons","fhrs:id":"370703","opening_hours":"mo-sa 07:00-22:00; su 11:00-17:00","operator":"Morrisons","toilets":"yes","toilets:female":"yes","toilets:male":"yes","website":"https:\/\/my.morrisons.com\/storefinder\/64"}}, "geometry":{"type":"MultiPolygon","coordinates":[[[[-1.45714,55.02351],[-1.45759,55.02425],[-1.45751,55.02427],[-1.45765,55.02448],[-1.45761,55.02454],[-1.45745,55.02457],[-1.45737,55.02443],[-1.45694,55.02452],[-1.45686,55.02439],[-1.45664,55.02444],[-1.45663,55.02443],[-1.45631,55.0239],[-1.4563,55.02387],[-1.45611,55.0239],[-1.45602,55.02375],[-1.45598,55.02376],[-1.45596,55.02372],[-1.45588,55.02373],[-1.45583,55.02364],[-1.45591,55.02363],[-1.45588,55.02359],[-1.45596,55.02357],[-1.45593,55.02353],[-1.45608,55.0235],[-1.4561,55.02354],[-1.45626,55.02351],[-1.45628,55.02354],[-1.45663,55.02347],[-1.45664,55.02349],[-1.45673,55.02347],[-1.45676,55.02353],[-1.45694,55.02349],[-1.45697,55.02354],[-1.45714,55.02351]]]]}},
{ "type":"Feature","properties":{"osm_way_id":"35544498","name":"Tesco Extra","building":"yes","shop":"supermarket","other":{"addr:city":"North Shields","addr:postcode":"NE29 7UJ","addr:street":"Norham Road","brand":"Tesco Extra","brand:wikidata":"Q25172225","brand:wikipedia":"en:Tesco Extra","changing_table":"yes","contact:website":"https:\/\/www.tesco.com\/store-locator\/north-shields\/norham-road","fhrs:id":"865212","internet_access":"wlan","internet_access:fee":"no","opening_hours":"Mo-Sa 00:00-24:00; Su 10:00-16:00","operator":"Tesco","toilets":"yes","toilets:fee":"no","toilets:wheelchair":"yes","wheelchair":"yes"}}, "geometry":{"type":"MultiPolygon","coordinates":[[[[-1.48633,55.01105],[-1.48444,55.01149],[-1.48403,55.01091],[-1.48543,55.01058],[-1.48541,55.01056],[-1.4855,55.01053],[-1.48552,55.01056],[-1.48592,55.01047],[-1.48606,55.01068],[-1.48615,55.01066],[-1.48622,55.01077],[-1.48614,55.01078],[-1.48633,55.01105]]]]}},
{ "type":"Feature","properties":{"osm_way_id":"41137628","name":"Lidl","building":"retail","shop":"supermarket","other":{"addr:city":"Wallsend","addr:postcode":"NE28 9EN","addr:street":"Battle Hill Drive","brand":"Lidl","brand:wikidata":"Q151954","brand:wikipedia":"en:Lidl","fhrs:id":"34829","opening_hours":"Mo-Sa 08:00-22:00; Su 10:00-16:00; PH 08:00-20:00","operator":"Lidl"}}, "geometry":{"type":"MultiPolygon","coordinates":[[[[-1.52109,55.00505],[-1.52101,55.00507],[-1.52022,55.00524],[-1.52007,55.005],[-1.52032,55.00495],[-1.52029,55.00489],[-1.52041,55.00487],[-1.52045,55.00492],[-1.52093,55.00482],[-1.52109,55.00505]]]]}},
{ "type":"Feature","properties":{"osm_way_id":"41589773","name":"Tesco Extra","building":"yes","shop":"supermarket","other":{"addr:city":"Newcastle upon Tyne","addr:housename":"Kingston Park","addr:postcode":"NE3 2FP","addr:street":"Brunton Lane","brand":"Tesco Extra","brand:wikidata":"Q25172225","brand:wikipedia":"en:Tesco Extra","fhrs:id":"236143","opening_hours":"Mo-Sa 00:00-24:00; Su 10:00-16:00"}}, "geometry":{"type":"MultiPolygon","coordinates":[[[[-1.66237,55.013],[-1.66169,55.01416],[-1.66184,55.01419],[-1.66179,55.01428],[-1.66164,55.01425],[-1.66163,55.01427],[-1.65976,55.01391],[-1.65983,55.01378],[-1.65978,55.01377],[-1.65984,55.01367],[-1.65978,55.01366],[-1.65995,55.01349],[-1.66008,55.01351],[-1.66002,55.01362],[-1.66016,55.01365],[-1.6603,55.0134],[-1.66039,55.01342],[-1.6606,55.01306],[-1.6605,55.01304],[-1.66061,55.01284],[-1.66071,55.01286],[-1.66081,55.0127],[-1.66237,55.013]]]]}},
{ "type":"Feature","properties":{"osm_way_id":"46614066","name":"Allendale Co-operative Society","building":"retail","shop":"supermarket","other":{"addr:city":"Allendale","addr:country":"GB","addr:county":"Northumberland","addr:postcode":"NE47 9BD","addr:street":"Market Place","brand":"Co-op Food","brand:wikidata":"Q3277439","brand:wikipedia":"en:Co-op Food","contact:facebook":"https:\/\/www.facebook.com\/Allendale-Co-operative-Society-Ltd-470241973049146\/","contact:website":"http:\/\/allendalecoop.co.uk\/","fhrs:id":"287308","opening_hours":"Mo-Fr 08:30-19:00; Sa 08:30-17:00","operator":"Allendale Co-operative Society Ltd"}}, "geometry":{"type":"MultiPolygon","coordinates":[[[[-2.25417,54.89756],[-2.254,54.89765],[-2.25392,54.89769],[-2.25398,54.89773],[-2.25414,54.89765],[-2.25423,54.89771],[-2.25433,54.89765],[-2.25435,54.89766],[-2.25448,54.89759],[-2.25431,54.89749],[-2.25428,54.8975],[-2.25417,54.89756]]]]}},
{ "type":"Feature","properties":{"osm_way_id":"61845924","name":"Sainsbury's","building":"retail","shop":"supermarket","other":{"addr:city":"Whitley Bay","addr:country":"GB","addr:postcode":"NE25 9EX","addr:street":"Newsteads Drive","addr:suburb":"Monkseaton","brand":"Sainsbury's","brand:wikidata":"Q152096","brand:wikipedia":"en:Sainsbury's","building:levels":"2","fhrs:id":"98708","opening_hours":"Mo-Fr 08:00-22:00, Sa 08:00-21:00; Su 10:00-16:00","operator":"Sainsbury's Supermarkets LTD","payment:cash":"yes","payment:contactless":"yes","payment:credit_cards":"yes","payment:debit_cards":"yes","phone":"+44 191 297 1522","toilets":"yes","toilets:disposal":"flush","toilets:female":"yes","toilets:handwashing":"yes","toilets:male":"yes","toilets:position":"seated;urinal","wheelchair":"yes"}}, "geometry":{"type":"MultiPolygon","coordinates":[[[[-1.48022,55.04345],[-1.48128,55.04378],[-1.48118,55.04388],[-1.48112,55.04387],[-1.48074,55.04427],[-1.48064,55.04437],[-1.4805,55.04433],[-1.48028,55.04456],[-1.47974,55.04439],[-1.4797,55.04443],[-1.47946,55.04436],[-1.47949,55.04432],[-1.47944,55.0443],[-1.4794,55.04429],[-1.47949,55.0442],[-1.47954,55.04422],[-1.47961,55.04414],[-1.48002,55.04371],[-1.47999,55.0437],[-1.48008,55.0436],[-1.48004,55.04359],[-1.48014,55.04348],[-1.48018,55.04349],[-1.48022,55.04345]]]]}},
{ "type":"Feature","properties":{"osm_way_id":"62119867","name":"The Co-operative Food","building":"yes","shop":"supermarket","other":{"addr:city":"Prudhoe","addr:county":"Northumberland","addr:postcode":"NE42 5HF","addr:street":"Oakfield Terrace","brand":"The Co-operative Food","brand:wikidata":"Q3277439","brand:wikipedia":"en:Co-op Food","fhrs:id":"286935"}}, "geometry":{"type":"MultiPolygon","coordinates":[[[[-1.85071,54.96116],[-1.85042,54.9612],[-1.85009,54.96122],[-1.84997,54.96094],[-1.85089,54.96083],[-1.85097,54.96103],[-1.85103,54.96103],[-1.85107,54.96114],[-1.85108,54.96116],[-1.85102,54.96117],[-1.85103,54.96119],[-1.85099,54.96119],[-1.851,54.96123],[-1.85086,54.96125],[-1.85084,54.96121],[-1.85073,54.96123],[-1.85071,54.96116]]]]}},
{ "type":"Feature","properties":{"osm_way_id":"62142501","name":"Morrisons","building":"supermarket","shop":"supermarket","other":{"addr:city":"Newcastle Upon Tyne","addr:postcode":"NE6 1EJ","addr:street":"Shields Road","brand":"Morrisons","brand:wikidata":"Q922344","brand:wikipedia":"en:Morrisons","fhrs:id":"237169","not:addr:postcode":"NE6 1DJ","opening_hours":"Mo-Sa 07:00-22:00; Su 10:00-16:00","operator":"Morrisons","website":"https:\/\/my.morrisons.com\/storefinder\/91","wheelchair":"yes"}}, "geometry":{"type":"MultiPolygon","coordinates":[[[[-1.58658,54.97706],[-1.58547,54.97721],[-1.58537,54.9773],[-1.58522,54.97725],[-1.58517,54.97714],[-1.58536,54.97711],[-1.58513,54.9766],[-1.5863,54.97643],[-1.58658,54.97706]]]]}},
{ "type":"Feature","properties":{"osm_way_id":"67660446","name":"Spar","building":"yes","shop":"supermarket","other":{"brand":"Spar","brand:wikidata":"Q610492","building:roof:shape":"flat","building:use":"retail","height":"4 m","wheelchair":"yes"}}, "geometry":{"type":"MultiPolygon","coordinates":[[[[-1.93546,55.6861],[-1.93563,55.68607],[-1.93572,55.68618],[-1.93581,55.68616],[-1.93589,55.68628],[-1.93553,55.68636],[-1.93539,55.68617],[-1.9355,55.68615],[-1.93546,55.6861]]]]}},
{ "type":"Feature","properties":{"osm_way_id":"72056691","name":"Asda","building":"yes","shop":"supermarket","other":{"addr:city":"Benton","addr:country":"GB","addr:postcode":"NE12 9SJ","addr:street":"Whitley Road","brand":"Asda","brand:wikidata":"Q297410","brand:wikipedia":"en:Asda","contact:facebook":"https:\/\/www.facebook.com\/asda\/","contact:phone":"+44 191 270 5700","contact:twitter":"@asda","contact:website":"https:\/\/storelocator.asda.com\/north-east\/newcastle-upon-tyne\/whitley-road","fhrs:id":"198573","opening_hours":"mo 06:00-24:00; tu-fr 00:00-24:00; sa 00:00-22:00; su 10:00-16:00","operator":"Asda Stores Ltd","payment:apple_pay":"yes","payment:cash":"yes","payment:credit_cards":"yes","payment:cryptocurrencies":"no","payment:google_pay":"yes","payment:visa_debit":"yes"}}, "geometry":{"type":"MultiPolygon","coordinates":[[[[-1.53786,55.02036],[-1.53677,55.01988],[-1.53558,55.02078],[-1.53666,55.02126],[-1.53755,55.02059],[-1.53761,55.02062],[-1.53782,55.02046],[-1.53776,55.02043],[-1.53786,55.02036]]]]}},
{ "type":"Feature","properties":{"osm_way_id":"76833751","name":"Sainsbury's","building":"yes","shop":"supermarket","other":{"addr:city":"Newcastle Upon Tyne","addr:postcode":"NE15 9AF","addr:street":"Newburn Road","addr:suburb":"Throckley","brand":"Sainsbury's","brand:wikidata":"Q152096","fhrs:id":"235926","wheelchair":"yes"}}, "geometry":{"type":"MultiPolygon","coordinates":[[[[-1.75366,54.99488],[-1.75335,54.9944],[-1.75396,54.99427],[-1.75417,54.9946],[-1.75406,54.99462],[-1.75416,54.99478],[-1.75366,54.99488]]]]}},
{ "type":"Feature","properties":{"osm_way_id":"78274339","name":"Lidl Ashington","building":"retail","shop":"supermarket","other":{"addr:city":"Ashington","addr:county":"Northumberland","addr:postcode":"NE63 9AQ","addr:street":"Woodhorn Road Back","brand":"Lidl","brand:wikidata":"Q151954","brand:wikipedia":"en:Lidl","fhrs:id":"288063"}}, "geometry":{"type":"MultiPolygon","coordinates":[[[[-1.56614,55.18569],[-1.56606,55.18552],[-1.56601,55.18541],[-1.56709,55.18525],[-1.56713,55.18535],[-1.56705,55.18536],[-1.56711,55.1855],[-1.56641,55.18561],[-1.56643,55.18565],[-1.56614,55.18569]]]]}},
{ "type":"Feature","properties":{"osm_way_id":"78274343","name":"The Original Factory Shop","building":"retail","shop":"supermarket","other":{"addr:city":"Ashington","addr:county":"Northumberland","addr:postcode":"NE63 9AQ","addr:street":"Woodhorn Road Back","brand:wikidata":"Q7755366","fhrs:id":"286344"}}, "geometry":{"type":"MultiPolygon","coordinates":[[[[-1.56696,55.18572],[-1.56732,55.18567],[-1.56749,55.18604],[-1.56713,55.1861],[-1.56696,55.18572]]]]}},
{ "type":"Feature","properties":{"osm_way_id":"87764062","name":"Sainsbury's","building":"yes","shop":"supermarket","other":{"addr:city":"Cramlington","addr:county":"Northumberland","addr:postcode":"NE23 6YD","addr:unit":"Forum Way","brand":"Sainsbury's","brand:wikidata":"Q152096","brand:wikipedia":"en:Sainsbury's","fhrs:id":"430483;289106","opening_hours":"Mo-Sa 07:00-23:00; Su 10:00-16:00; PH off"}}, "geometry":{"type":"MultiPolygon","coordinates":[[[[-1.5867,55.08549],[-1.5867,55.086],[-1.58661,55.08605],[-1.58671,55.08612],[-1.58681,55.08607],[-1.58755,55.08607],[-1.58774,55.08607],[-1.58781,55.08607],[-1.58795,55.086],[-1.58796,55.08586],[-1.58796,55.08549],[-1.5867,55.08549]]]]}},
{ "type":"Feature","properties":{"osm_way_id":"96429049","name":"Sainsbury's","building":"retail","shop":"supermarket","other":{"addr:city":"Shiremoor","addr:postcode":"NE27 0SJ","addr:street":"Earsdon Road","brand":"Sainsbury's","brand:wikidata":"Q152096","brand:wikipedia":"en:Sainsbury's","fhrs:id":"258083","opening_hours":"mo-fr 07:00-10:00; sa 07:00-21:00; su 10:00-16:00"}}, "geometry":{"type":"MultiPolygon","coordinates":[[[[-1.51798,55.03293],[-1.51855,55.03259],[-1.51909,55.0329],[-1.51852,55.03323],[-1.51798,55.03293]]]]}},
{ "type":"Feature","properties":{"osm_way_id":"97373347","name":"The Cooperative Food North Seaton","building":"retail","shop":"supermarket","other":{"addr:city":"North Seaton","addr:housenumber":"8","addr:postcode":"NE63 0XE","addr:street":"Newbiggin Road","fhrs:id":"1367261"}}, "geometry":{"type":"MultiPolygon","coordinates":[[[[-1.54712,55.17076],[-1.54696,55.17077],[-1.54688,55.17048],[-1.54704,55.17046],[-1.54712,55.17076]]]]}},
{ "type":"Feature","properties":{"osm_way_id":"97462914","name":"Aldi","building":"retail","shop":"supermarket","other":{"addr:city":"Ashington","addr:county":"Northumberland","addr:postcode":"NE63 8QG","addr:street":"Morpeth Road","brand":"ALDI","brand:wikidata":"Q41171672","brand:wikipedia":"en:Aldi","fhrs:id":"286439"}}, "geometry":{"type":"MultiPolygon","coordinates":[[[[-1.58767,55.18556],[-1.58763,55.18529],[-1.58667,55.18533],[-1.58671,55.1856],[-1.58694,55.18559],[-1.58767,55.18556]]]]}},
{ "type":"Feature","properties":{"osm_way_id":"98320294","name":"Co-op","building":"shop","shop":"supermarket"},"geometry":{"type":"MultiPolygon","coordinates":[[[[-1.57602,55.16341],[-1.57577,55.16338],[-1.57577,55.1633],[-1.57601,55.1633],[-1.57602,55.16341]]]]}},
{ "type":"Feature","properties":{"osm_way_id":"99579563","name":"Co-op","building":"shop","shop":"supermarket","other":{"addr:city":"Newbiggin by the Sea","addr:housenumber":"85-87","addr:postcode":"NE64 6AD","addr:street":"Front Street","fhrs:id":"288628","opening_hours":"Mo-Su 07:00-22:00","operator":"The Co-operative Group"}}, "geometry":{"type":"MultiPolygon","coordinates":[[[[-1.50927,55.1858],[-1.50918,55.18574],[-1.50886,55.18554],[-1.50908,55.18543],[-1.50936,55.18561],[-1.50941,55.18558],[-1.50954,55.18566],[-1.50927,55.1858]]]]}},
{ "type":"Feature","properties":{"osm_way_id":"100694046","name":"Morrisons","building":"yes","shop":"supermarket","other":{"addr:city":"Newcastle Upon Tyne","addr:housenumber":"200","addr:postcode":"NE4 9SZ","addr:street":"Two Ball Lonnen","brand":"Morrisons","brand:wikidata":"Q922344","brand:wikipedia":"en:Morrisons","fhrs:id":"747061","opening_hours":"Mo-Sa 07:00-22:00; Su 10:00-16:00"}}, "geometry":{"type":"MultiPolygon","coordinates":[[[[-1.65678,54.98926],[-1.65689,54.98871],[-1.65758,54.98881],[-1.65782,54.98883],[-1.65791,54.9888],[-1.658,54.98886],[-1.6581,54.98887],[-1.65809,54.98892],[-1.65801,54.98891],[-1.65796,54.98913],[-1.65804,54.98914],[-1.65801,54.98928],[-1.65789,54.98935],[-1.65678,54.98926]]]]}},
{ "type":"Feature","properties":{"osm_way_id":"103434146","name":"Waitrose","building":"retail","shop":"supermarket","other":{"addr:city":"Hexham","addr:county":"Northumberland","addr:postcode":"NE46 3PD","addr:street":"Wentworth Park","alt_name":"Waitrose Hexham","brand":"Waitrose","brand:wikidata":"Q771734","brand:wikipedia":"en:Waitrose","fhrs:id":"287632","official_name":"Waitrose & Partners","old_name":"Safeway","opening_hours":"Mo-Fr 08:00-21:00; Sa 08:00-20:00; Su 10:00-16:00","operator":"Waitrose & Partners","wheelchair":"yes"}}, "geometry":{"type":"MultiPolygon","coordinates":[[[[-2.09713,54.97279],[-2.09775,54.97292],[-2.0975,54.97331],[-2.0973,54.97327],[-2.09717,54.97347],[-2.09674,54.97338],[-2.09691,54.97313],[-2.09707,54.97288],[-2.09713,54.97279]]]]}},
{ "type":"Feature","properties":{"osm_way_id":"107706841","name":"Co-op Food","building":"retail","shop":"supermarket","other":{"brand":"Co-op Food","brand:wikidata":"Q3277439","brand:wikipedia":"en:Co-op Food","operator":"The Co-operative Group","operator:wikidata":"Q117202","operator:wikipedia":"en:The Co-operative Group"}}, "geometry":{"type":"MultiPolygon","coordinates":[[[[-1.58721,54.99597],[-1.58708,54.99579],[-1.58696,54.99582],[-1.58673,54.99588],[-1.58678,54.99595],[-1.58671,54.99597],[-1.58679,54.99608],[-1.58721,54.99597]]]]}},
{ "type":"Feature","properties":{"osm_way_id":"116935727","name":"Tesco Extra","building":"yes","shop":"supermarket","other":{"brand":"Tesco Extra","brand:wikidata":"Q25172225","brand:wikipedia":"en:Tesco Extra","opening_hours":"Mo-Sa 00:00-24:00; Su 00:00-16:00","operator":"Tesco","toilets:wheelchair":"yes","website":"https:\/\/www.tesco.com\/store-locator\/mansfield\/jubilee-way-south","wheelchair":"yes"}}, "geometry":{"type":"MultiPolygon","coordinates":[[[[-1.15331,53.13483],[-1.15323,53.13472],[-1.15295,53.1343],[-1.15256,53.13374],[-1.15252,53.13367],[-1.15248,53.13368],[-1.15143,53.13394],[-1.15221,53.13508],[-1.15261,53.13498],[-1.15294,53.1349],[-1.15297,53.13495],[-1.15299,53.13495],[-1.15303,53.13494],[-1.15326,53.13488],[-1.15331,53.13483]]]]}},
{ "type":"Feature","properties":{"osm_way_id":"117167304","name":"Asda","building":"yes","shop":"supermarket","other":{"addr:city":"Wallsend","addr:country":"GB","addr:postcode":"NE28 6HH","addr:street":"Hadrian Road","brand":"Asda","brand:wikidata":"Q297410","brand:wikipedia":"en:Asda","contact:facebook":"https:\/\/www.facebook.com\/asda\/","contact:phone":"+44 191 210 6940","contact:twitter":"@asda","contact:website":"https:\/\/storelocator.asda.com\/north-east\/wallsend\/hadrian-road","fhrs:id":"760642","not:addr:postcode":"NE28 6NX","opening_hours":"mo-sa 07:00-22:00; su 10:00-16:00","operator":"Asda Stores Ltd"}}, "geometry":{"type":"MultiPolygon","coordinates":[[[[-1.53005,54.98958],[-1.53,54.98951],[-1.5301,54.98949],[-1.52999,54.98935],[-1.52931,54.98951],[-1.52949,54.98974],[-1.53005,54.98958]]]]}},
{ "type":"Feature","properties":{"osm_way_id":"117631487","name":"Waitrose","building":"yes","shop":"supermarket","other":{"addr:city":"Ponteland","addr:county":"Northumberland","addr:housenumber":"27","addr:postcode":"NE20 9NH","addr:street":"Main Street","alt_name":"Waitrose Ponteland","brand":"Waitrose","brand:wikidata":"Q771734","brand:wikipedia":"en:Waitrose & Partners","fhrs:id":"287746","official_name":"Waitrose & Partners","opening_hours":"Mo-Sa 08:00-21:00; Su 10:00-16:00","operator":"Waitrose & Partners"}}, "geometry":{"type":"MultiPolygon","coordinates":[[[[-1.7442,55.04941],[-1.74375,55.04948],[-1.7437,55.04937],[-1.74355,55.04939],[-1.74341,55.04911],[-1.74375,55.04905],[-1.74372,55.049],[-1.74381,55.04898],[-1.74381,55.049],[-1.74389,55.04899],[-1.74391,55.04902],[-1.744,55.04901],[-1.74407,55.04914],[-1.7442,55.04941]]]]}},
{ "type":"Feature","properties":{"osm_way_id":"117631500","name":"Sainsbury's","building":"retail","shop":"supermarket","other":{"addr:city":"Ponteland","addr:county":"Northumberland","addr:postcode":"NE20 9BE","addr:street":"Bell Villas","alt_name":"Sainsbury's Ponteland Superstore","brand":"Sainsbury's","brand:wikidata":"Q152096","fhrs:id":"286579","opening_hours":"Mo-Sa 07:00-22:00; Su 11:00-17:00"}}, "geometry":{"type":"MultiPolygon","coordinates":[[[[-1.73892,55.04946],[-1.73926,55.04949],[-1.73914,55.04989],[-1.73876,55.04985],[-1.73887,55.04951],[-1.7389,55.04951],[-1.73892,55.04946]]]]}},
{ "type":"Feature","properties":{"osm_way_id":"127008245","name":"LIDL","building":"yes","shop":"supermarket","other":{"addr:city":"Morpeth","addr:county":"Northumberland","addr:postcode":"NE61 1PA","addr:street":"Stanley Terrace","alt_name":"LIDL Morpeth","brand":"Lidl","brand:wikidata":"Q151954","fhrs:id":"286076"}}, "geometry":{"type":"MultiPolygon","coordinates":[[[[-1.68798,55.1678],[-1.68798,55.16784],[-1.68798,55.16786],[-1.68783,55.16785],[-1.68782,55.16803],[-1.68762,55.16803],[-1.68762,55.168],[-1.68704,55.16799],[-1.68705,55.1679],[-1.68688,55.1679],[-1.68689,55.16777],[-1.68798,55.1678]]]]}},
{ "type":"Feature","properties":{"osm_way_id":"128332446","name":"Sainsbury's Local","building":"yes","shop":"supermarket","other":{"addr:city":"Morpeth","addr:postcode":"NE61 2SB","addr:street":"Shields Road","brand:wikidata":"Q13218434","fhrs:id":"520809"}}, "geometry":{"type":"MultiPolygon","coordinates":[[[[-1.68097,55.15935],[-1.68103,55.15935],[-1.68104,55.15947],[-1.68097,55.15947],[-1.68097,55.15945],[-1.68073,55.15945],[-1.68073,55.15943],[-1.68067,55.15943],[-1.68067,55.15935],[-1.68073,55.15935],[-1.68073,55.15929],[-1.68097,55.15928],[-1.68097,55.15935]]]]}},
{ "type":"Feature","properties":{"osm_way_id":"129705808","name":"Morrisons","building":"supermarket","shop":"supermarket","other":{"addr:city":"Alnwick","addr:postcode":"NE66 1JE","addr:street":"Fenkle Street","branch":"Alnwick","brand":"Morrisons","brand:wikidata":"Q922344","brand:wikipedia":"en:Morrisons","contact:website":"https:\/\/my.morrisons.com\/storefinder\/201","fhrs:id":"285845","opening_hours":"Mo-Sa 07:00-22:00,Su 10:00-16:00","operator":"Morrisons"}}, "geometry":{"type":"MultiPolygon","coordinates":[[[[-1.70854,55.41315],[-1.70853,55.41302],[-1.70868,55.41302],[-1.70868,55.41299],[-1.70884,55.41299],[-1.70884,55.41302],[-1.70887,55.41302],[-1.70894,55.41305],[-1.70894,55.41312],[-1.70898,55.41312],[-1.70898,55.41315],[-1.70901,55.41315],[-1.70902,55.41323],[-1.70896,55.41324],[-1.70898,55.41347],[-1.70896,55.41348],[-1.70822,55.41349],[-1.70821,55.41315],[-1.70854,55.41315]]]]}},
{ "type":"Feature","properties":{"osm_way_id":"134454697","name":"Asda","building":"yes","shop":"supermarket","other":{"addr:city":"Blyth","addr:country":"GB","addr:county":"Northumberland","addr:postcode":"NE24 5TS","addr:street":"Cowpen Road","brand":"Asda","brand:wikidata":"Q297410","brand:wikipedia":"en:Asda","contact:facebook":"https:\/\/www.facebook.com\/asda\/","contact:twitter":"@asda","contact:website":"https:\/\/storelocator.asda.com\/north-east\/blyth\/cowpen-road-supermarket-cowpen-road","fhrs:id":"288953","opening_hours":"mo-sa 07:00-22:00; su 10:00-16:00","operator":"Asda Stores Ltd"}}, "geometry":{"type":"MultiPolygon","coordinates":[[[[-1.52404,55.13241],[-1.52349,55.13252],[-1.52328,55.13217],[-1.52382,55.13206],[-1.52404,55.13241]]]]}},
{ "type":"Feature","properties":{"osm_way_id":"134681038","name":"Co-op Food","building":"retail","shop":"supermarket","other":{"addr:city":"Blyth","addr:county":"Northumberland","addr:housenumber":"2-6","addr:postcode":"NE24 4AL","addr:street":"Newcastle Road","brand":"Co-op Food","brand:wikidata":"Q3277439","brand:wikipedia":"en:Co-op Food","fhrs:id":"288960","opening_hours":"Mo-Su 07:00-22:00","operator":"The Co-operative Group"}}, "geometry":{"type":"MultiPolygon","coordinates":[[[[-1.53177,55.1115],[-1.53134,55.11157],[-1.53116,55.1112],[-1.53159,55.11113],[-1.53177,55.1115]]]]}},
{ "type":"Feature","properties":{"osm_way_id":"139588390","name":"Co-op Food","building":"yes","shop":"supermarket","other":{"addr:city":"Alnwick","addr:postcode":"NE66 1RF","addr:street":"Victoria Road","atm":"yes","branch":"Alnwick - Victoria Road","brand":"Co-op Food","brand:wikidata":"Q3277439","brand:wikipedia":"en:Co-op Food","fhrs:id":"285985","opening_hours":"Mo-Su 07:00-23:00","operator":"The Co-operative Food"}}, "geometry":{"type":"MultiPolygon","coordinates":[[[[-1.69852,55.40697],[-1.69825,55.40698],[-1.69827,55.40715],[-1.69853,55.40713],[-1.69852,55.40697]]]]}},
{ "type":"Feature","properties":{"osm_way_id":"139680107","name":"The Cooperative Food","building":"retail","shop":"supermarket"},"geometry":{"type":"MultiPolygon","coordinates":[[[[-1.60127,55.15915],[-1.60144,55.15925],[-1.60113,55.15944],[-1.60108,55.15941],[-1.60095,55.15934],[-1.60127,55.15915]]]]}},
{ "type":"Feature","properties":{"osm_way_id":"140405298","name":"Aldi","building":"commercial","shop":"supermarket","other":{"addr:city":"Alnwick","addr:county":"Northumberland","addr:postcode":"NE66 2PA","addr:street":"South Road","branch":"Alnwick","brand":"ALDI","brand:wikidata":"Q41171672","brand:wikipedia":"en:Aldi","fhrs:id":"776816","opening_hours":"Mo-Sa 08:00-22:00; Su 10:00-16:00"}}, "geometry":{"type":"MultiPolygon","coordinates":[[[[-1.69397,55.40548],[-1.69406,55.40575],[-1.69321,55.40584],[-1.69312,55.40556],[-1.69397,55.40548]]]]}},
{ "type":"Feature","properties":{"osm_way_id":"142412284","name":"Wing Hong Cash & Carry","building":"yes","shop":"supermarket","other":{"addr:city":"Newcastle upon Tyne","addr:housenumber":"55","addr:postcode":"NE4 7JN","addr:street":"George Street","operator":"Wing Hong Company Ltd.","phone":"+44 191 272 3888","website":"www.winghong.co.uk","wheelchair":"yes"}}, "geometry":{"type":"MultiPolygon","coordinates":[[[[-1.62658,54.96787],[-1.62714,54.96763],[-1.62658,54.96718],[-1.62601,54.96742],[-1.62658,54.96787]]]]}},
{ "type":"Feature","properties":{"osm_way_id":"144447337","name":"The Co-operative Food","building":"yes","shop":"supermarket","other":{"brand":"The Co-operative Food","brand:wikidata":"Q3277439","brand:wikipedia":"en:Co-op Food"}}, "geometry":{"type":"MultiPolygon","coordinates":[[[[-1.61722,55.43244],[-1.61721,55.43227],[-1.61757,55.43226],[-1.61758,55.43241],[-1.61745,55.43241],[-1.61745,55.43243],[-1.61722,55.43244]]]]}},
{ "type":"Feature","properties":{"osm_way_id":"145171987","name":"Morrisons","landuse":"retail","shop":"supermarket","other":{"addr:city":"Amble","addr:country":"GB","addr:county":"Northumberland","addr:district":"Coquet Enterprise Park","addr:postcode":"NE65 0PE","brand":"Morrisons","brand:wikidata":"Q922344","brand:wikipedia":"en:Morrisons","fhrs:id":"1255851","wheelchair":"yes"}}, "geometry":{"type":"MultiPolygon","coordinates":[[[[-1.5834,55.32854],[-1.58124,55.32772],[-1.58107,55.32766],[-1.58165,55.32717],[-1.58171,55.32712],[-1.58217,55.32673],[-1.5822,55.3267],[-1.58452,55.32759],[-1.584,55.32803],[-1.58384,55.32817],[-1.5834,55.32854]]]]}},
{ "type":"Feature","properties":{"osm_way_id":"145984770","name":"Asda","building":"retail","shop":"supermarket","other":{"addr:city":"Newcastle Upon Tyne","addr:country":"GB","addr:postcode":"NE6 2XP","addr:street":"Fossway","addr:suburb":"Newcastle Shopping Park","addr:unit":"5","brand":"Asda","brand:wikidata":"Q297410","brand:wikipedia":"en:Asda","contact:facebook":"https:\/\/www.facebook.com\/asda\/","contact:twitter":"@asda","contact:website":"https:\/\/storelocator.asda.com\/north-east\/newcastle-upon-tyne\/unit-5-newcastle-shopping-park","fhrs:id":"670269;691645","not:addr:postcode":"NE6 2UJ","operator":"Asda Stores Ltd","source:addr":"FHRS Open Data","toilets:wheelchair":"yes","wheelchair":"yes"}}, "geometry":{"type":"MultiPolygon","coordinates":[[[[-1.57213,54.97908],[-1.57209,54.97903],[-1.57305,54.97877],[-1.5731,54.97883],[-1.57368,54.97953],[-1.5734,54.9796],[-1.57344,54.97965],[-1.57276,54.97984],[-1.57233,54.97932],[-1.57225,54.97935],[-1.57204,54.9791],[-1.57213,54.97908]]]]}},
{ "type":"Feature","properties":{"osm_way_id":"146640066","name":"The Co-operative Food","building":"yes","shop":"supermarket","other":{"addr:city":"Amble","addr:county":"Northumberland","addr:housenumber":"1","addr:postcode":"NE65 0BX","addr:street":"Queen Street","fhrs:id":"288218","operator":"The Co-operative Group"}}, "geometry":{"type":"MultiPolygon","coordinates":[[[[-1.58592,55.33299],[-1.58605,55.3331],[-1.58588,55.33317],[-1.58601,55.33327],[-1.58581,55.33335],[-1.58569,55.33325],[-1.58567,55.33325],[-1.58553,55.33314],[-1.58592,55.33299]]]]}},
{ "type":"Feature","properties":{"osm_way_id":"150401803","name":"Morrisons","building":"yes","shop":"supermarket","other":{"addr:city":"Whitley Bay","addr:postcode":"NE25 8HN","addr:street":"Hillheads Road","brand":"Morrisons","brand:wikidata":"Q922344","brand:wikipedia":"en:Morrisons","building:levels":"1","building:material":"brick","fhrs:id":"370701","not:addr:postcode":"NE25 8HJ","opening_hours":"Mo-Sa 07:00-22:00; Su 10:00-16:00","operator":"Morrisons","phone":"+44 191 297 1966","toilets":"yes","website":"https:\/\/my.morrisons.com\/storefinder\/207"}}, "geometry":{"type":"MultiPolygon","coordinates":[[[[-1.45307,55.04029],[-1.45295,55.04019],[-1.45268,55.04031],[-1.45259,55.04023],[-1.45254,55.04025],[-1.45204,55.03987],[-1.45276,55.03956],[-1.45285,55.03963],[-1.45298,55.03957],[-1.45361,55.04006],[-1.45307,55.04029]]]]}},
{ "type":"Feature","properties":{"osm_way_id":"155905849","name":"Morrisons","building":"retail","shop":"supermarket","other":{"addr:city":"West Denton","addr:country":"GB","addr:housename":"Denton Park Shopping Centre","addr:postcode":"NE5 2RA","addr:street":"West Denton Way","addr:unit":"22","alt_name":"Morrisons West Denton","brand":"Morrisons","brand:wikidata":"Q922344","brand:wikipedia":"en:Morrisons","fhrs:id":"237347","website":"https:\/\/my.morrisons.com\/storefinder\/146"}}, "geometry":{"type":"MultiPolygon","coordinates":[[[[-1.69825,54.99357],[-1.69824,54.99322],[-1.69823,54.993],[-1.69833,54.993],[-1.69832,54.99289],[-1.69811,54.99289],[-1.69811,54.99292],[-1.69713,54.99293],[-1.69713,54.9929],[-1.69703,54.9929],[-1.69705,54.99333],[-1.69671,54.99333],[-1.69672,54.99362],[-1.69706,54.99362],[-1.69706,54.99373],[-1.69732,54.99372],[-1.69732,54.99358],[-1.69825,54.99357]]]]}},
{ "type":"Feature","properties":{"osm_way_id":"158297774","name":"Tesco","building":"yes","shop":"supermarket","other":{"addr:city":"Berwick Upon Tweed","addr:county":"Northumberland","addr:housename":"Tweedside Trading Estate","addr:postcode":"TD15 2XG","addr:street":"Ord Drive","alt_name":"Tesco Berwick Upon Tweed Superstore","brand":"Tesco","brand:wikidata":"Q487494","brand:wikipedia":"en:Tesco","fhrs:id":"286559;289245","opening_hours":"Mo-Sa 06:00-24:00; Su 10:00-16:00"}}, "geometry":{"type":"MultiPolygon","coordinates":[[[[-2.02386,55.76419],[-2.02371,55.76429],[-2.02368,55.76428],[-2.02305,55.76473],[-2.02198,55.76425],[-2.02195,55.76427],[-2.02185,55.76422],[-2.02193,55.76417],[-2.02202,55.76421],[-2.0221,55.76415],[-2.02221,55.7642],[-2.02223,55.76418],[-2.02228,55.7642],[-2.02225,55.76422],[-2.02235,55.76426],[-2.02253,55.76413],[-2.02258,55.76415],[-2.02279,55.764],[-2.02295,55.76389],[-2.02299,55.7639],[-2.02306,55.76385],[-2.02374,55.76416],[-2.02386,55.76419]]]]}},
{ "type":"Feature","properties":{"osm_way_id":"158297775","name":"Morrisons","building":"retail","shop":"supermarket","other":{"addr:city":"Berwick Upon Tweed","addr:country":"GB","addr:county":"Northumberland","addr:postcode":"TD15 1UQ","addr:street":"Loaning Meadows","alt_name":"Morrisons Berwick","brand":"Morrisons","brand:wikidata":"Q922344","brand:wikipedia":"en:Morrisons","fhrs:id":"287008","opening_hours":"Mo-Sa 07:00-22:00; Su 10:00-16:00"}}, "geometry":{"type":"MultiPolygon","coordinates":[[[[-2.01833,55.7847],[-2.0181,55.78459],[-2.01794,55.7847],[-2.01773,55.7846],[-2.01789,55.78449],[-2.01765,55.78437],[-2.01722,55.78467],[-2.01716,55.78467],[-2.01712,55.78469],[-2.01704,55.78466],[-2.01676,55.78486],[-2.01677,55.78497],[-2.01714,55.78514],[-2.01721,55.78509],[-2.01767,55.78531],[-2.01815,55.78498],[-2.01801,55.78491],[-2.01833,55.7847]]]]}},
{ "type":"Feature","properties":{"osm_way_id":"158297776","name":"Asda","building":"supermarket","shop":"supermarket","other":{"addr:city":"Tweedmouth","addr:country":"GB","addr:county":"Northumberland","addr:postcode":"TD15 2DS","addr:street":"Main Street","alt_name":"ASDA Tweedmouth Supermarket","brand":"Asda","brand:wikidata":"Q297410","brand:wikipedia":"en:Asda","check_date:opening_hours":"2021-08-12","contact:facebook":"https:\/\/www.facebook.com\/asda\/","contact:twitter":"@asda","contact:website":"https:\/\/storelocator.asda.com\/north-east\/tweedmouth\/main-street","fhrs:id":"288660","opening_hours":"Mo-Sa 07:00-23:00; Su 10:00-16:00","operator":"Asda Stores Ltd"}}, "geometry":{"type":"MultiPolygon","coordinates":[[[[-2.00909,55.76237],[-2.00856,55.76193],[-2.00792,55.76218],[-2.00844,55.76261],[-2.00909,55.76237]]]]}},
{ "type":"Feature","properties":{"osm_way_id":"159975582","name":"Tesco","building":"yes","shop":"supermarket","other":{"brand":"Tesco","brand:wikidata":"Q487494","brand:wikipedia":"en:Tesco","opening_hours":"24\/7"}}, "geometry":{"type":"MultiPolygon","coordinates":[[[[-1.81848,52.49481],[-1.81886,52.49464],[-1.81854,52.4943],[-1.81827,52.49438],[-1.81802,52.4942],[-1.81795,52.49423],[-1.81724,52.49457],[-1.81772,52.49494],[-1.81777,52.49493],[-1.81826,52.49508],[-1.81839,52.49512],[-1.81855,52.49505],[-1.81847,52.49499],[-1.81831,52.49505],[-1.81818,52.49495],[-1.81848,52.49481]]]]}},
{ "type":"Feature","properties":{"osm_way_id":"169355121","name":"M&S Foodhall","building":"retail","shop":"supermarket","other":{"addr:city":"Berwick Upon Tweed","addr:housename":"Tweedbank Retail Park","addr:postcode":"TD15 2AS","addr:street":"Northumberland Road","addr:unit":"3","alt_name":"M&S Berwick Upon Tweed Simply Food","brand":"M&S Foodhall","brand:wikidata":"Q714491","brand:wikipedia":"en:Marks & Spencer","building:levels":"1","fhrs:id":"286399","opening_hours":"Mo-Fr 08:00-20:00; Sa 08:00-19:00; Su 10:30-16:30"}}, "geometry":{"type":"MultiPolygon","coordinates":[[[[-2.01079,55.75859],[-2.01068,55.7584],[-2.00992,55.75855],[-2.01004,55.75874],[-2.01052,55.75865],[-2.01079,55.75859]]]]}},
{ "type":"Feature","properties":{"osm_way_id":"169371217","name":"Aldi","building":"yes","shop":"supermarket","other":{"addr:city":"Berwick Upon Tweed","addr:county":"Northumberland","addr:postcode":"TD15 1QQ","addr:street":"North Road","alt_name":"ALDI Berwick Upon Tweed","brand":"ALDI","brand:wikidata":"Q41171672","brand:wikipedia":"en:Aldi","fhrs:id":"287636","opening_hours":"Mo-Sa 08:00-21:00; Su 10:00-16:00"}}, "geometry":{"type":"MultiPolygon","coordinates":[[[[-2.01253,55.78219],[-2.01208,55.78185],[-2.01249,55.78168],[-2.01263,55.78178],[-2.01255,55.78182],[-2.01286,55.78205],[-2.01253,55.78219]]]]}},
{ "type":"Feature","properties":{"osm_way_id":"174930723","name":"Tesco Metro","building":"yes","shop":"supermarket","other":{"addr:housename":"Caistron House","addr:housenumber":"1A","addr:postcode":"NE2 2DJ","addr:street":"Acorn Road","brand":"Tesco Metro","brand:wikidata":"Q57551648","fhrs:id":"236103","opening_hours":"Mo-Fr 06:00-24:00; Sa 06:00-22:00; Su 10:00-16:00","operator":"Tesco"}}, "geometry":{"type":"MultiPolygon","coordinates":[[[[-1.6062,54.99265],[-1.60569,54.99262],[-1.60569,54.99264],[-1.60567,54.99264],[-1.60564,54.99275],[-1.60589,54.99277],[-1.60587,54.99285],[-1.60611,54.99287],[-1.60613,54.99278],[-1.60617,54.99278],[-1.6062,54.99265]]]]}},
{ "type":"Feature","properties":{"osm_way_id":"178210966","name":"The Co-operative Food","building":"retail","shop":"supermarket","other":{"addr:city":"Bellingham","addr:county":"Northumberland","addr:housenumber":"2-3","addr:postcode":"NE48 2AY","addr:street":"Parkside Place","designation":"The Co-operative Food","fhrs:id":"285663","opening_hours":"Mo-Su 07:00-22:00"}}, "geometry":{"type":"MultiPolygon","coordinates":[[[[-2.25423,55.14415],[-2.25406,55.14425],[-2.25396,55.1442],[-2.25412,55.14409],[-2.25423,55.14415]]]]}},
{ "type":"Feature","properties":{"osm_way_id":"190106952","name":"Co-op Food","building":"retail","shop":"supermarket","other":{"addr:city":"Belford","addr:county":"Northumberland","addr:postcode":"NE70 7QE","addr:street":"West Street","atm":"yes","brand":"Co-op Food","brand:wikidata":"Q3277439","brand:wikipedia":"en:Co-op Food","building:levels":"2","fhrs:id":"286173","opening_hours":"Mo-Su 07:00-22:00","operator":"The Co-operative Group","payment:cards":"yes","payment:cash":"yes","phone":"+44 1668 213202","roof:levels":"1","roof:shape":"gabled","source:addr":"FHRS Open Data","website":"https:\/\/www.coop.co.uk\/","wheelchair":"yes"}}, "geometry":{"type":"MultiPolygon","coordinates":[[[[-1.83011,55.59812],[-1.83004,55.59804],[-1.83001,55.59805],[-1.82993,55.59797],[-1.82972,55.59803],[-1.82974,55.59805],[-1.82965,55.59807],[-1.82979,55.59822],[-1.83011,55.59812]]]]}},
{ "type":"Feature","properties":{"osm_way_id":"192246304","name":"The Co-operative Food","building":"retail","shop":"supermarket","other":{"addr:city":"Haydon Bridge","addr:county":"Northumberland","addr:housenumber":"4","addr:postcode":"NE47 6ET","addr:street":"Ratcliffe Road","brand":"The Co-operative Food","brand:wikidata":"Q3277439","brand:wikipedia":"en:Co-op Food","fhrs:id":"287349"}}, "geometry":{"type":"MultiPolygon","coordinates":[[[[-2.24781,54.97342],[-2.24763,54.97321],[-2.24753,54.97313],[-2.24734,54.97323],[-2.24747,54.97333],[-2.24758,54.97347],[-2.24781,54.97342]]]]}},
{ "type":"Feature","properties":{"osm_way_id":"192248778","name":"ALDI","building":"yes","shop":"supermarket","other":{"addr:city":"Hexham","addr:county":"Northumberland","addr:housename":"Haugh Lane Industrial Estate","addr:housenumber":"5","addr:postcode":"NE46 3PU","alt_name":"ALDI Hexham","brand":"ALDI","brand:wikidata":"Q41171672","brand:wikipedia":"en:Aldi","fhrs:id":"287125","opening_hours":"Mo-Sa 08:00-22:00; Su 10:00-16:00","wheelchair":"yes"}}, "geometry":{"type":"MultiPolygon","coordinates":[[[[-2.10145,54.97393],[-2.1011,54.97393],[-2.1011,54.97403],[-2.10099,54.97403],[-2.101,54.97452],[-2.10122,54.97452],[-2.10122,54.97446],[-2.10142,54.97446],[-2.10141,54.97415],[-2.10145,54.97415],[-2.10145,54.97393]]]]}},
{ "type":"Feature","properties":{"osm_way_id":"192248779","name":"Tesco Extra","building":"retail","shop":"supermarket","other":{"addr:city":"Hexham","addr:county":"Northumberland","addr:housename":"Tynedale Retail Park","addr:postcode":"NE46 3PJ","addr:street":"Alemouth Road","alt_name":"Tesco Hexham Extra","brand":"Tesco Extra","brand:wikidata":"Q25172225","brand:wikipedia":"en:Tesco Extra","building:levels":"1","fhrs:id":"285573","opening_hours":"Mo-Sa 06:00-24:00; Su 10:00-16:00","wheelchair":"yes"}}, "geometry":{"type":"MultiPolygon","coordinates":[[[[-2.10092,54.97477],[-2.10088,54.97382],[-2.1008,54.97382],[-2.0991,54.97384],[-2.09911,54.97409],[-2.09945,54.97437],[-2.09959,54.97437],[-2.0996,54.97455],[-2.09968,54.9746],[-2.09983,54.9746],[-2.09983,54.97444],[-2.10006,54.97444],[-2.10009,54.97477],[-2.10092,54.97477]]]]}},
{ "type":"Feature","properties":{"osm_way_id":"197713807","name":"Spar","building":"yes","shop":"supermarket","other":{"addr:city":"Berwick-upon-Tweed","addr:county":"Northumberland","addr:housenumber":"74","addr:postcode":"TD15 2AF","addr:street":"Main Street","brand":"Spar","brand:wikidata":"Q610492","brand:wikipedia":"en:Spar (retailer)","fhrs:id":"287660","opening_hours":"Mo-Sa 07:00-22:00; Su 07:30-22:00"}}, "geometry":{"type":"MultiPolygon","coordinates":[[[[-2.0103,55.76574],[-2.01027,55.76561],[-2.01012,55.76562],[-2.01014,55.76575],[-2.0103,55.76574]]]]}},
{ "type":"Feature","properties":{"osm_way_id":"200351568","name":"Sainsbury's","building":"yes","shop":"supermarket","other":{"addr:city":"Newcastle Upon Tyne","addr:postcode":"NE7 7JW","addr:street":"Etherstone Avenue","brand":"Sainsbury's","brand:wikidata":"Q152096","brand:wikipedia":"en:Sainsbury's","fhrs:id":"1321659","opening_hours":"Mo-Fr 07:00-22:00; Sa 07:00-21:00; Su 10:00-16:00","phone":"+44 191 336 1170","website":"https:\/\/stores.sainsburys.co.uk\/2268\/heaton-newcastle"}}, "geometry":{"type":"MultiPolygon","coordinates":[[[[-1.57804,54.99726],[-1.57777,54.99643],[-1.57672,54.99654],[-1.57675,54.99662],[-1.57622,54.99668],[-1.57626,54.99683],[-1.57658,54.99679],[-1.57675,54.99731],[-1.57654,54.99733],[-1.57668,54.9975],[-1.57796,54.99737],[-1.57793,54.99727],[-1.57804,54.99726]]]]}},
{ "type":"Feature","properties":{"osm_way_id":"203627824","name":"Co-op Food","building":"retail","shop":"supermarket","other":{"addr:city":"Bedlington","addr:county":"Northumberland","addr:postcode":"NE22 6DZ","addr:street":"Netherton Lane","brand":"Co-op Food","brand:wikidata":"Q3277439","brand:wikipedia":"en:Co-op Food","fhrs:id":"285893","old_name":"Ridge Farm Pub","opening_hours":"Mo-Su 07:00-23:00","wheelchair":"yes"}}, "geometry":{"type":"MultiPolygon","coordinates":[[[[-1.60773,55.13296],[-1.6075,55.13296],[-1.6075,55.13287],[-1.60756,55.13287],[-1.60756,55.13279],[-1.6075,55.13279],[-1.6075,55.13267],[-1.60765,55.13267],[-1.60765,55.13263],[-1.60791,55.13264],[-1.60791,55.13266],[-1.60789,55.13266],[-1.60789,55.13272],[-1.60791,55.13272],[-1.60791,55.1328],[-1.60788,55.1328],[-1.6078,55.13293],[-1.60786,55.13295],[-1.60784,55.13298],[-1.60773,55.13296]]]]}},
{ "type":"Feature","properties":{"osm_way_id":"210106693","name":"Sainsbury's","building":"retail","shop":"supermarket","other":{"addr:city":"Newcastle upon Tyne","addr:housename":"Gosforth Centre","addr:housenumber":"1-7","addr:postcode":"NE3 1JZ","addr:street":"Gosforth High Street","brand":"Sainsbury's","brand:wikidata":"Q152096","brand:wikipedia":"en:Sainsbury's","fhrs:id":"236690","wheelchair":"yes"}}, "geometry":{"type":"MultiPolygon","coordinates":[[[[-1.61998,55.00558],[-1.61995,55.00558],[-1.61907,55.0055],[-1.619,55.00581],[-1.61991,55.00588],[-1.61998,55.00558]]]]}},
{ "type":"Feature","properties":{"osm_way_id":"210106864","name":"Asda","building":"yes","shop":"supermarket","other":{"addr:city":"Newcastle upon Tyne","addr:country":"GB","addr:postcode":"NE3 5BU","addr:street":"Hollywood Avenue","alt_name":"ASDA Gosforth Superstore","brand":"Asda","brand:wikidata":"Q297410","brand:wikipedia":"en:Asda","contact:facebook":"https:\/\/www.facebook.com\/asda\/","contact:twitter":"@asda","contact:website":"https:\/\/storelocator.asda.com\/north-east\/newcastle-upon-tyne\/hollywood-avenue","fhrs:id":"237348","operator":"Asda Stores Ltd","toilets:wheelchair":"yes","wheelchair":"yes"}}, "geometry":{"type":"MultiPolygon","coordinates":[[[[-1.62088,55.01342],[-1.62066,55.01345],[-1.62064,55.0134],[-1.61962,55.01354],[-1.61953,55.01361],[-1.6193,55.01364],[-1.619,55.01287],[-1.61916,55.01277],[-1.61924,55.01276],[-1.61922,55.01273],[-1.61957,55.01268],[-1.61959,55.01272],[-1.61974,55.0127],[-1.6198,55.01285],[-1.62064,55.01274],[-1.62088,55.01342]]]]}},
{ "type":"Feature","properties":{"osm_way_id":"210107254","name":"Asda","building":"retail","shop":"supermarket","other":{"addr:city":"Gosforth","addr:country":"GB","addr:housenumber":"2-4","addr:postcode":"NE3 3HQ","addr:street":"Wansbeck Road South","brand":"Asda","brand:wikidata":"Q297410","brand:wikipedia":"en:Asda","contact:facebook":"https:\/\/www.facebook.com\/asda\/","contact:twitter":"@asda","contact:website":"https:\/\/storelocator.asda.com\/north-east\/gosforth\/wansbeck-south","fhrs:id":"494350","operator":"Asda Stores Ltd","wheelchair":"yes"}}, "geometry":{"type":"MultiPolygon","coordinates":[[[[-1.63576,55.01225],[-1.63549,55.0121],[-1.63545,55.01213],[-1.63534,55.01207],[-1.63514,55.01218],[-1.63525,55.01225],[-1.63506,55.01236],[-1.63537,55.01253],[-1.63559,55.0124],[-1.63555,55.01237],[-1.63576,55.01225]]]]}},
{ "type":"Feature","properties":{"osm_way_id":"210107525","name":"Aldi","building":"retail","shop":"supermarket","other":{"addr:city":"Newcastle upon Tyne","addr:postcode":"NE5 3AB","addr:street":"McKendrick Villas","brand":"ALDI","brand:wikidata":"Q41171672","brand:wikipedia":"en:Aldi","fhrs:id":"236166","opening_hours":"Mo-Sa 08:00-22:00; Su 10:00-16:00","website":"https:\/\/www.aldi.co.uk\/store\/s-uk-E0573"}}, "geometry":{"type":"MultiPolygon","coordinates":[[[[-1.65875,54.99261],[-1.65867,54.99253],[-1.6586,54.99256],[-1.65845,54.99242],[-1.65775,54.99266],[-1.65801,54.99291],[-1.65871,54.99267],[-1.65868,54.99264],[-1.65875,54.99261]]]]}},
{ "type":"Feature","properties":{"osm_way_id":"211634794","name":"Aldi Blyth","building":"yes","shop":"supermarket","other":{"addr:postcode":"NE24 5EZ","addr:street":"Cowpen Road","brand":"ALDI","brand:wikidata":"Q41171672","brand:wikipedia":"en:Aldi","fhrs:id":"288845","source:addr":"FSA Food Hygiene Ratings Database"}}, "geometry":{"type":"MultiPolygon","coordinates":[[[[-1.53723,55.13151],[-1.53706,55.13097],[-1.5366,55.13101],[-1.53664,55.13115],[-1.5367,55.13114],[-1.53682,55.13152],[-1.53712,55.13149],[-1.53713,55.13152],[-1.53723,55.13151]]]]}},
{ "type":"Feature","properties":{"osm_way_id":"214220184","name":"Sainsbury's","building":"yes","shop":"supermarket","other":{"addr:city":"Alnwick","addr:county":"Northumberland","addr:postcode":"NE66 2JH","addr:street":"Willowburn Avenue","branch":"Alnwick Superstore","brand":"Sainsbury's","brand:wikidata":"Q152096","brand:wikipedia":"en:Sainsbury's","fhrs:id":"288405","opening_hours":"Mo-Fr 08:00-21:00; Sa 08:00-20:00; Su 10:00-16:00"}}, "geometry":{"type":"MultiPolygon","coordinates":[[[[-1.69379,55.40194],[-1.69346,55.4018],[-1.6935,55.40176],[-1.69333,55.40168],[-1.69292,55.40151],[-1.6926,55.40177],[-1.69266,55.40179],[-1.69263,55.40182],[-1.69256,55.40182],[-1.69254,55.40184],[-1.69252,55.40194],[-1.69305,55.40216],[-1.69298,55.40222],[-1.69324,55.40232],[-1.69328,55.40229],[-1.69336,55.40232],[-1.69347,55.40224],[-1.69342,55.40222],[-1.69379,55.40194]]]]}},
{ "type":"Feature","properties":{"osm_way_id":"221523088","building":"residential"},"geometry":{"type":"MultiPolygon","coordinates":[[[[-1.68494,55.15597],[-1.6849,55.15588],[-1.68504,55.15586],[-1.68508,55.15596],[-1.68494,55.15597]]]]}},
{ "type":"Feature","properties":{"osm_way_id":"221872460","name":"Morrisons","building":"retail","shop":"supermarket","other":{"addr:city":"Morpeth","addr:country":"GB","addr:county":"Northumberland","addr:postcode":"NE61 1HQ","addr:street":"Dark Lane","alt_name":"Morrisons Morpeth","brand":"Morrisons","brand:wikidata":"Q922344","brand:wikipedia":"en:Morrisons","fhrs:id":"466104","layer":"1","not:addr:postcode":"NE61 1ST","phone":"+44 1670 517 219"}}, "geometry":{"type":"MultiPolygon","coordinates":[[[[-1.68375,55.16899],[-1.68317,55.16945],[-1.68407,55.16981],[-1.68469,55.16935],[-1.6845,55.16928],[-1.68446,55.16928],[-1.68444,55.16929],[-1.68404,55.16911],[-1.68375,55.16899]]]]}},
{ "type":"Feature","properties":{"osm_way_id":"222919365","name":"Co-op Food","building":"retail","shop":"supermarket","other":{"brand":"Co-op Food","brand:wikidata":"Q3277439","brand:wikipedia":"en:Co-op Food"}}, "geometry":{"type":"MultiPolygon","coordinates":[[[[-1.64889,55.18114],[-1.64865,55.18113],[-1.64866,55.18104],[-1.64868,55.18085],[-1.64891,55.18086],[-1.64889,55.18114]]]]}},
{ "type":"Feature","properties":{"osm_way_id":"225119875","name":"Lidl","building":"retail","shop":"supermarket","other":{"brand":"Lidl","brand:wikidata":"Q151954","opening_hours":"mo-sa 08:00-22:00; su 10:00-16:00"}}, "geometry":{"type":"MultiPolygon","coordinates":[[[[-1.59932,55.0081],[-1.59822,55.00828],[-1.59804,55.00793],[-1.59884,55.0078],[-1.59914,55.00775],[-1.59924,55.00794],[-1.59932,55.0081]]]]}},
{ "type":"Feature","properties":{"osm_way_id":"228561384","name":"Lidl","building":"yes","shop":"supermarket","other":{"addr:city":"Alnwick","addr:county":"Northumberland","addr:postcode":"NE66 2QL","addr:street":"South Road","branch":"Alnwick","brand":"Lidl","brand:wikidata":"Q151954","brand:wikipedia":"en:Lidl","fhrs:id":"286491","opening_hours":"Mo-Sa 08:00-20:00; Su 10:00-16:00"}}, "geometry":{"type":"MultiPolygon","coordinates":[[[[-1.69804,55.40909],[-1.69774,55.40893],[-1.69769,55.40897],[-1.69735,55.4088],[-1.69706,55.40898],[-1.69746,55.40919],[-1.69741,55.40921],[-1.69765,55.40934],[-1.69773,55.40929],[-1.69804,55.40909]]]]}},
{ "type":"Feature","properties":{"osm_way_id":"229051477","name":"Tesco Express","building":"yes","shop":"supermarket","other":{"addr:city":"Amble","addr:county":"Northumberland","addr:housenumber":"93","addr:postcode":"NE65 0DA","addr:street":"Queen Street","alt_name":"Amble Express","brand":"Tesco Express","brand:wikidata":"Q98456772","fhrs:id":"288444"}}, "geometry":{"type":"MultiPolygon","coordinates":[[[[-1.5827,55.33449],[-1.5825,55.33439],[-1.58257,55.33434],[-1.58284,55.33422],[-1.58301,55.33435],[-1.583,55.33435],[-1.58274,55.33446],[-1.5827,55.33449]]]]}},
{ "type":"Feature","properties":{"osm_way_id":"229052361","name":"The Co-operative Food","building":"yes","shop":"supermarket","other":{"addr:city":"Amble","addr:county":"Northumberland","addr:housenumber":"31a","addr:postcode":"NE65 0AQ","addr:street":"Newburgh Street","fhrs:id":"285929","operator":"The Co-operative Group"}}, "geometry":{"type":"MultiPolygon","coordinates":[[[[-1.57674,55.335],[-1.57662,55.33502],[-1.57676,55.33533],[-1.57679,55.33533],[-1.57686,55.33523],[-1.57674,55.335]]]]}},
{ "type":"Feature","properties":{"osm_way_id":"230709446","name":"Asda","building":"yes","shop":"supermarket","other":{"addr:city":"Newcastle upon Tyne","addr:country":"GB","addr:postcode":"NE4 6QA","addr:street":"Mill Lane","addr:suburb":"Benwell","brand":"Asda","brand:wikidata":"Q297410","brand:wikipedia":"en:Asda","contact:facebook":"https:\/\/www.facebook.com\/asda\/","contact:phone":"+44 191 2106960","contact:twitter":"@asda","contact:website":"https:\/\/storelocator.asda.com\/north-east\/benwell\/mill-lane","fhrs:id":"237293","opening_hours":"Mo-Sa 07:00-23:00; Su 10:00-16:00","operator":"Asda Stores Ltd"}}, "geometry":{"type":"MultiPolygon","coordinates":[[[[-1.64142,54.97292],[-1.64088,54.97283],[-1.64077,54.97306],[-1.64145,54.97317],[-1.6415,54.97307],[-1.64135,54.97305],[-1.64142,54.97292]]]]}},
{ "type":"Feature","properties":{"osm_way_id":"238047213","name":"Morrisons Blyth","building":"yes","shop":"supermarket","other":{"addr:county":"Northumberland","addr:postcode":"NE24 1LQ","addr:street":"Regent Street","brand":"Morrisons","brand:wikidata":"Q922344","brand:wikipedia":"en:Morrisons","fhrs:id":"285794"}}, "geometry":{"type":"MultiPolygon","coordinates":[[[[-1.51312,55.12773],[-1.51215,55.12793],[-1.51241,55.12837],[-1.51227,55.1284],[-1.51234,55.12851],[-1.51345,55.12827],[-1.51349,55.12834],[-1.51389,55.12826],[-1.51379,55.1281],[-1.51358,55.12814],[-1.51344,55.12793],[-1.51327,55.12796],[-1.51312,55.12773]]]]}},
{ "type":"Feature","properties":{"osm_way_id":"256706445","name":"Lidl","building":"retail","shop":"supermarket","other":{"addr:city":"Newcastle Upon Tyne","addr:country":"GB","addr:postcode":"NE15 6LS","addr:street":"Benwell Lane","brand":"Lidl","brand:wikidata":"Q151954","fhrs:id":"237398","operator":"Lidl"}}, "geometry":{"type":"MultiPolygon","coordinates":[[[[-1.66225,54.97228],[-1.66181,54.97223],[-1.66195,54.97181],[-1.66187,54.9718],[-1.66245,54.97168],[-1.66235,54.97198],[-1.66243,54.97198],[-1.6624,54.97208],[-1.66232,54.97207],[-1.66225,54.97228]]]]}},
{ "type":"Feature","properties":{"osm_way_id":"256706880","name":"Sainsbury's","building":"retail","shop":"supermarket","other":{"addr:city":"Newcastle Upon Tyne","addr:housename":"Westburn Lodge Whickham View","addr:postcode":"NE15 7HP","brand":"Sainsbury's","brand:wikidata":"Q152096","fhrs:id":"237425","source:addr":"FHRS Open Data","website":"https:\/\/stores.sainsburys.co.uk\/4892\/denton-burn-whickham-view-local"}}, "geometry":{"type":"MultiPolygon","coordinates":[[[[-1.68959,54.97977],[-1.68935,54.97995],[-1.68908,54.97983],[-1.6892,54.97974],[-1.68927,54.97977],[-1.68938,54.97968],[-1.68959,54.97977]]]]}},
{ "type":"Feature","properties":{"osm_way_id":"256706881","name":"Budgens","building":"retail","shop":"supermarket","other":{"addr:city":"Newcastle Upon Tyne","addr:housenumber":"701 - 703","addr:postcode":"NE15 7QQ","addr:street":"West Road","brand":"Budgens","brand:wikidata":"Q4985016","brand:wikipedia":"en:Budgens","fhrs:id":"1203595"}}, "geometry":{"type":"MultiPolygon","coordinates":[[[[-1.68888,54.98338],[-1.68873,54.98353],[-1.68835,54.98344],[-1.68832,54.98341],[-1.68832,54.98338],[-1.6885,54.98324],[-1.68888,54.98338]]]]}},
{ "type":"Feature","properties":{"osm_way_id":"258764322","name":"M&S Foodhall","building":"retail","shop":"supermarket","other":{"addr:city":"Cramlington","addr:county":"Northumberland","addr:housenumber":"1a","addr:postcode":"NE23 6UY","addr:unit":"Westmorland Retail Park","brand":"M&S Foodhall","brand:wikidata":"Q714491","brand:wikipedia":"en:Marks & Spencer","fhrs:id":"621620","operator":"Marks and Spencer"}}, "geometry":{"type":"MultiPolygon","coordinates":[[[[-1.59515,55.08573],[-1.59515,55.0854],[-1.59574,55.0854],[-1.59574,55.08573],[-1.59515,55.08573]]]]}},
{ "type":"Feature","properties":{"osm_way_id":"260361024","name":"The Co-operative Food","building":"yes","shop":"supermarket","other":{"addr:housenumber":"41","addr:postcode":"NE68 7RF","addr:street":"Main Street","fhrs:id":"285609","operator":"The Co-operative Group","phone":"+44 1665 720245"}}, "geometry":{"type":"MultiPolygon","coordinates":[[[[-1.65466,55.58064],[-1.65464,55.5806],[-1.65452,55.58054],[-1.65405,55.58088],[-1.65421,55.58096],[-1.65466,55.58064]]]]}},
{ "type":"Feature","properties":{"osm_way_id":"260795051","name":"Sainsbury's","building":"retail","shop":"supermarket","other":{"addr:city":"Haltwhistle","addr:county":"Northumberland","addr:housename":"Sainsbury's","addr:postcode":"NE49 9DZ","addr:street":"Fair Hill","alt_name":"Sainsbury's Haltwhistle Superstore","atm":"yes","brand":"Sainsbury's","brand:wikidata":"Q152096","building:levels":"1","fhrs:id":"287652","opening_hours":"Mo-Sa 08:00-21:00; Su 10:00-16:00","roof:levels":"1","roof:shape":"hipped"}}, "geometry":{"type":"MultiPolygon","coordinates":[[[[-2.45896,54.97183],[-2.45898,54.97161],[-2.45876,54.97161],[-2.45876,54.97164],[-2.45848,54.97163],[-2.45846,54.97181],[-2.45896,54.97183]]]]}},
{ "type":"Feature","properties":{"osm_way_id":"268365105","name":"Co-op Food","building":"yes","shop":"supermarket","other":{"addr:city":"Corbridge","addr:county":"Northumberland","addr:housenumber":"3-5","addr:postcode":"NE45 5AA","addr:street":"Hill Street","alt_name":"The Co-operative Food","brand":"Co-op Food","brand:wikidata":"Q3277439","brand:wikipedia":"en:Co-op Food","fhrs:id":"286914"}}, "geometry":{"type":"MultiPolygon","coordinates":[[[[-2.01787,54.97454],[-2.01794,54.97441],[-2.01766,54.97436],[-2.01762,54.97443],[-2.01759,54.97448],[-2.01787,54.97454]]]]}},
{ "type":"Feature","properties":{"osm_way_id":"287561570","name":"Spar","building":"yes","shop":"supermarket","other":{"addr:city":"Whitley Bay","addr:housename":"Corner House","addr:postcode":"NE25 8AQ","addr:street":"Front Street","brand":"Spar","brand:wikidata":"Q610492","brand:wikipedia":"en:SPAR (retailer)","fhrs:id":"77654","opening_hours":"Mo-Sa 07:00-22:30; Su 08:00-22:30","operator":"Spar","payment:apple_pay":"yes","payment:cash":"yes","payment:contactless":"yes","payment:debit_cards":"yes","website":"https:\/\/www.spar.co.uk\/store-locator\/hal10685-spar-monkseaton"}}, "geometry":{"type":"MultiPolygon","coordinates":[[[[-1.46356,55.04087],[-1.46307,55.0409],[-1.46303,55.04079],[-1.46346,55.04076],[-1.46345,55.04071],[-1.46353,55.0407],[-1.46356,55.04087]]]]}},
{ "type":"Feature","properties":{"osm_way_id":"288701493","name":"Seaton Valley Co-Op","building":"retail","shop":"supermarket","other":{"addr:postcode":"NE25 0FF","addr:street":"Blackhaugh Drive","alt_name":"Wheatridge Park Supermarket","website":"http:\/\/www.seatonvalleyco-op.co.uk","wheelchair":"yes"}}, "geometry":{"type":"MultiPolygon","coordinates":[[[[-1.53464,55.07649],[-1.53421,55.07665],[-1.53392,55.07639],[-1.53439,55.07622],[-1.53449,55.07631],[-1.53445,55.07632],[-1.53464,55.07649]]]]}},
{ "type":"Feature","properties":{"osm_way_id":"302567274","name":"Asda","building":"retail","shop":"supermarket","other":{"addr:city":"Lemington","addr:country":"GB","addr:housenumber":"1A","addr:postcode":"NE15 8SH","addr:street":"High Row","brand":"Asda","brand:wikidata":"Q297410","brand:wikipedia":"en:Asda","contact:facebook":"https:\/\/www.facebook.com\/asda\/","contact:twitter":"@asda","contact:website":"https:\/\/storelocator.asda.com\/north-east\/lemington\/unit-1a-northumberland-road","fhrs:id":"551691","operator":"Asda Stores Ltd"}}, "geometry":{"type":"MultiPolygon","coordinates":[[[[-1.71435,54.97612],[-1.71481,54.97617],[-1.71479,54.97623],[-1.71471,54.97623],[-1.71459,54.97655],[-1.71447,54.97654],[-1.71436,54.97653],[-1.71436,54.97654],[-1.71421,54.97652],[-1.71435,54.97612]]]]}},
{ "type":"Feature","properties":{"osm_way_id":"335611955","name":"M&S Foodhall","building":"shop","shop":"supermarket","other":{"brand":"M&S Foodhall","brand:wikidata":"Q714491","brand:wikipedia":"en:Marks & Spencer","wheelchair":"yes"}}, "geometry":{"type":"MultiPolygon","coordinates":[[[[-1.62003,55.0122],[-1.61999,55.01199],[-1.62014,55.01199],[-1.62013,55.01191],[-1.62062,55.01196],[-1.62063,55.01209],[-1.62052,55.01217],[-1.62003,55.0122]]]]}},
{ "type":"Feature","properties":{"osm_way_id":"347221354","name":"Coop","building":"retail","shop":"supermarket"},"geometry":{"type":"MultiPolygon","coordinates":[[[[-2.01408,55.54534],[-2.01417,55.54536],[-2.01433,55.54538],[-2.01435,55.54541],[-2.01434,55.54557],[-2.01426,55.54556],[-2.01425,55.54559],[-2.0139,55.54552],[-2.01392,55.54549],[-2.01396,55.54544],[-2.01398,55.54545],[-2.01402,55.54541],[-2.01408,55.54534]]]]}},
{ "type":"Feature","properties":{"osm_way_id":"355176001","name":"Asda","building":"retail","shop":"supermarket","other":{"addr:city":"Ashington","addr:country":"GB","addr:postcode":"NE63 9XG","addr:street":"Lintonville Terrace","brand":"Asda","brand:wikidata":"Q297410","brand:wikipedia":"en:Asda","contact:facebook":"https:\/\/www.facebook.com\/asda\/","contact:twitter":"@asda","contact:website":"https:\/\/storelocator.asda.com\/north-east\/ashington\/portland-park-lintonville-terrace","fhrs:id":"285765","layer":"1","operator":"Asda Stores Ltd","wheelchair":"yes"}}, "geometry":{"type":"MultiPolygon","coordinates":[[[[-1.57156,55.18518],[-1.57139,55.18484],[-1.57119,55.18487],[-1.57096,55.18441],[-1.57115,55.18438],[-1.57111,55.18431],[-1.57108,55.18424],[-1.57189,55.18411],[-1.57193,55.18418],[-1.57211,55.18415],[-1.5722,55.18432],[-1.57243,55.18428],[-1.57279,55.18498],[-1.57255,55.18502],[-1.57156,55.18518]]]]}},
{ "type":"Feature","properties":{"osm_way_id":"386536553","name":"Co-op Food","building":"retail","shop":"supermarket","other":{"addr:city":"Newcastle Upon Tyne","addr:country":"GB","addr:postcode":"NE13 6LN","addr:street":"Great North Road","addr:suburb":"Wideopen","brand":"Co-op Food","brand:wikidata":"Q3277439","brand:wikipedia":"en:Co-op Food","fhrs:id":"82827","not:addr:postcode":"NE13 6PL","opening_hours":"Mo-Sa 07:00-22:00; Su 10:00-16:00","phone":"+44 191 236 4956","website":"https:\/\/finder.coop.co.uk\/food\/store\/NE13-6LN\/great-north-road"}}, "geometry":{"type":"MultiPolygon","coordinates":[[[[-1.62479,55.04826],[-1.62475,55.04827],[-1.62475,55.04829],[-1.62472,55.04829],[-1.62435,55.04836],[-1.62433,55.04836],[-1.62425,55.04822],[-1.62442,55.04819],[-1.6244,55.04815],[-1.62466,55.04809],[-1.62468,55.04814],[-1.62472,55.04814],[-1.62479,55.04826]]]]}},
{ "type":"Feature","properties":{"osm_way_id":"395077330","name":"Asda","building":"retail","shop":"supermarket","other":{"addr:city":"North Shields","addr:country":"GB","addr:postcode":"NE30 1NT","addr:street":"Saville Street","alt_name":"ASDA North Shields Supermarket","brand":"Asda","brand:wikidata":"Q297410","brand:wikipedia":"en:Asda","contact:facebook":"https:\/\/www.facebook.com\/asda\/","contact:phone":"+44 191 210 6950","contact:twitter":"@asda","contact:website":"https:\/\/storelocator.asda.com\/north-east\/north-shields\/saville-street","fhrs:id":"745638","opening_hours":"Mo-Sa 08:00-22:00; Su 10:00-16:00","operator":"Asda Stores Ltd"}}, "geometry":{"type":"MultiPolygon","coordinates":[[[[-1.44485,55.00805],[-1.44443,55.00821],[-1.44394,55.0078],[-1.44405,55.00775],[-1.44409,55.00779],[-1.44418,55.00776],[-1.44428,55.00785],[-1.44442,55.00779],[-1.44466,55.008],[-1.44475,55.00797],[-1.44485,55.00805]]]]}},
{ "type":"Feature","properties":{"osm_way_id":"406195144","name":"The Co-operative Food","building":"yes","shop":"supermarket","other":{"addr:city":"Whitley Bay","addr:postcode":"NE25 9SX","addr:street":"Earsdon Road","brand":"The Co-operative Food","brand:wikidata":"Q3277439","brand:wikipedia":"en:Co-op Food","fhrs:id":"953678","opening_hours":"Mo-Su 06:00-23:00","payment:apple_pay":"yes","payment:cash":"yes","payment:contactless":"yes","payment:debit_cards":"yes","payment:google_pay":"yes","phone":"+44 191 252 5347","website":"https:\/\/finder.coop.co.uk\/food\/store\/NE25-9SX\/earsdon-road","wheelchair":"yes"}}, "geometry":{"type":"MultiPolygon","coordinates":[[[[-1.473,55.03822],[-1.47276,55.03807],[-1.47276,55.03807],[-1.47299,55.03795],[-1.47323,55.03809],[-1.47305,55.03819],[-1.473,55.03822]]]]}},
{ "type":"Feature","properties":{"osm_way_id":"418055661","name":"Heron Foods","building":"yes","shop":"supermarket","other":{"addr:city":"Newcastle upon Tyne","addr:housenumber":"87","addr:postcode":"NE1 5PY","addr:street":"Clayton Street","brand":"Heron Foods","brand:wikidata":"Q5743472","brand:wikipedia":"en:Heron Foods","contact:website":"https:\/\/heronfoods.com\/storelocator\/store-details\/clayton-street","fhrs:id":"235713","opening_hours":"Mo-Sa 08:00-18:00; Su 10:30-16:30"}}, "geometry":{"type":"MultiPolygon","coordinates":[[[[-1.61784,54.97116],[-1.61771,54.97123],[-1.61742,54.97108],[-1.61755,54.971],[-1.61776,54.97112],[-1.61784,54.97116]]]]}},
{ "type":"Feature","properties":{"osm_way_id":"439468913","name":"Lidl","landuse":"retail","shop":"supermarket","other":{"addr:country":"GB","addr:postcode":"NE22 6BP","addr:street":"Schalksmuhle Road","alt_name":"Lidl Bedlington","brand":"Lidl","brand:wikidata":"Q151954","brand:wikipedia":"en:Lidl","fhrs:id":"943819","opening_hours":"Mo-Sa 08:00-22:00, Su 10:00-14:00","operator":"Lidl"}}, "geometry":{"type":"MultiPolygon","coordinates":[[[[-1.5983,55.13248],[-1.59819,55.13318],[-1.59808,55.13325],[-1.59722,55.1332],[-1.59649,55.13314],[-1.59666,55.13237],[-1.5983,55.13248]]]]}},
{ "type":"Feature","properties":{"osm_way_id":"446908883","name":"Tsang","building":"yes","shop":"supermarket","other":{"addr:city":"Newcastle upon Tyne","addr:housenumber":"87","addr:postcode":"NE1 7RW","addr:street":"Percy Street","fhrs:id":"237032"}}, "geometry":{"type":"MultiPolygon","coordinates":[[[[-1.61582,54.97636],[-1.61588,54.97631],[-1.61605,54.97637],[-1.616,54.97641],[-1.61582,54.97636]]]]}},
{ "type":"Feature","properties":{"osm_way_id":"452241717","name":"Co-op Food","building":"yes","shop":"supermarket","other":{"addr:city":"Wylam","addr:county":"Northumberland","addr:postcode":"NE41 8DN","addr:street":"Main Road","brand":"Co-op Food","brand:wikidata":"Q3277439","brand:wikipedia":"en:Co-op Food","fhrs:id":"986606","opening_hours":"Mo-Su 07:00-23:00","operator":"The Co-operative Group","operator:wikidata":"Q117202","operator:wikipedia":"en:The Co-operative Group"}}, "geometry":{"type":"MultiPolygon","coordinates":[[[[-1.81808,54.97577],[-1.81845,54.97569],[-1.81842,54.97564],[-1.81805,54.97572],[-1.81808,54.97577]]]]}},
{ "type":"Feature","properties":{"osm_way_id":"453281318","name":"The Co-operative Food","building":"residential","shop":"supermarket","other":{"addr:city":"Cullercoats","addr:postcode":"NE30 4PJ","addr:street":"John Street","brand":"The Co-operative Food","brand:wikidata":"Q3277439","brand:wikipedia":"en:Co-op Food","fhrs:id":"493418","operator":"The Co-operative Group"}}, "geometry":{"type":"MultiPolygon","coordinates":[[[[-1.4354,55.03745],[-1.43532,55.0375],[-1.43522,55.03749],[-1.43505,55.03732],[-1.43521,55.03726],[-1.4354,55.03745]]]]}},
{ "type":"Feature","properties":{"osm_way_id":"454212159","name":"Aldi","building":"yes","shop":"supermarket","other":{"addr:city":"Whitley Bay","addr:postcode":"NE25 8UG","addr:street":"Foxhunters Road","brand":"ALDI","brand:wikidata":"Q41171672","brand:wikipedia":"en:Aldi","fhrs:id":"945493","operator":"ALDI"}}, "geometry":{"type":"MultiPolygon","coordinates":[[[[-1.45689,55.03364],[-1.45661,55.03393],[-1.45635,55.03384],[-1.45637,55.03382],[-1.45586,55.03365],[-1.45613,55.03338],[-1.45648,55.03349],[-1.45646,55.03351],[-1.45681,55.03363],[-1.45682,55.03362],[-1.45689,55.03364]]]]}},
{ "type":"Feature","properties":{"osm_way_id":"456016278","name":"The Cooperative Food","landuse":"retail","shop":"supermarket","other":{"addr:city":"Ashington","addr:postcode":"NE63 8UB","addr:street":"Remscheid Way","addr:suburb":"Jubilee Industrial Estate","fhrs:id":"986608"}}, "geometry":{"type":"MultiPolygon","coordinates":[[[[-1.57277,55.17288],[-1.57294,55.17237],[-1.5718,55.17248],[-1.57182,55.17251],[-1.57195,55.17267],[-1.57203,55.17277],[-1.57209,55.17283],[-1.57228,55.17286],[-1.57246,55.17287],[-1.57277,55.17288]]]]}},
{ "type":"Feature","properties":{"osm_way_id":"458141210","name":"Co-op Food","building":"yes","shop":"supermarket","other":{"addr:city":"North Shields","addr:postcode":"NE29 9AL","addr:street":"Queen Alexandra Road","brand":"Co-op Food","brand:wikidata":"Q3277439","brand:wikipedia":"en:Co-op Food","phone":"+44 191 258 5151","website":"http:\/\/www.tnscars.com\/"}}, "geometry":{"type":"MultiPolygon","coordinates":[[[[-1.45717,55.01452],[-1.45699,55.01453],[-1.45699,55.01441],[-1.45713,55.01432],[-1.45732,55.01433],[-1.45741,55.01438],[-1.45717,55.01452]]]]}},
{ "type":"Feature","properties":{"osm_way_id":"458914906","name":"Heron Foods","building":"yes","shop":"supermarket","other":{"addr:city":"North Shields","addr:housenumber":"78-80","addr:postcode":"NE29 6QF","addr:street":"Bedford Street","brand":"Heron Foods","brand:wikidata":"Q5743472","brand:wikipedia":"en:Heron Foods","fhrs:id":"708924","opening_hours":"Mo-Sa 08:00-18:00; Su 10:00-16:00","website":"https:\/\/heronfoods.com\/store\/north-shields\/"}}, "geometry":{"type":"MultiPolygon","coordinates":[[[[-1.44782,55.00918],[-1.44815,55.00904],[-1.44822,55.00909],[-1.44818,55.00911],[-1.44822,55.00914],[-1.44817,55.00917],[-1.4482,55.00919],[-1.44817,55.0092],[-1.44822,55.00924],[-1.44813,55.00928],[-1.44802,55.00933],[-1.44782,55.00918]]]]}},
{ "type":"Feature","properties":{"osm_way_id":"460369940","name":"Lidl Blyth","building":"retail","shop":"supermarket","other":{"addr:city":"Blyth","addr:county":"Northumberland","addr:postcode":"NE24 5TS","addr:street":"Cowpen Road","brand":"Lidl","brand:wikidata":"Q151954","brand:wikipedia":"en:Lidl","fhrs:id":"953524"}}, "geometry":{"type":"MultiPolygon","coordinates":[[[[-1.52548,55.13215],[-1.52436,55.13238],[-1.52429,55.13226],[-1.52436,55.13225],[-1.52426,55.13207],[-1.52548,55.13215]]]]}},
{ "type":"Feature","properties":{"osm_way_id":"465642809","name":"Aldi","building":"retail","shop":"supermarket","other":{"addr:city":"Wallsend","addr:postcode":"NE28 0EB","addr:street":"Tynemouth Road","brand":"ALDI","brand:wikidata":"Q41171672","brand:wikipedia":"en:Aldi","fhrs:id":"1030582","opening_hours":"Mo-Sa 08:00-22:00; Su 10:00-16:00","website":"https:\/\/www.aldi.co.uk\/store\/s-uk-E0348"}}, "geometry":{"type":"MultiPolygon","coordinates":[[[[-1.49487,54.99855],[-1.49409,54.99871],[-1.49402,54.99859],[-1.4941,54.99858],[-1.49404,54.99847],[-1.49489,54.9983],[-1.49498,54.99846],[-1.49483,54.99849],[-1.49487,54.99855]]]]}},
{ "type":"Feature","properties":{"osm_way_id":"468507786","name":"Heron Foods","building":"yes","shop":"supermarket","other":{"addr:city":"Wallsend","addr:housenumber":"2-4","addr:postcode":"NE28 8PQ","addr:street":"High Street East","brand":"Heron Foods","brand:wikidata":"Q5743472","brand:wikipedia":"en:Heron Foods","fhrs:id":"457056","opening_hours":"Mo-Sa 08:00-18:00; Su 10:00-16:00","website":"https:\/\/heronfoods.com\/store\/wallsend\/"}}, "geometry":{"type":"MultiPolygon","coordinates":[[[[-1.53291,54.99087],[-1.53318,54.99078],[-1.53346,54.99107],[-1.53338,54.99109],[-1.53324,54.99112],[-1.5332,54.99106],[-1.53316,54.99101],[-1.53301,54.99099],[-1.533,54.99095],[-1.53291,54.99087]]]]}},
{ "type":"Feature","properties":{"osm_way_id":"470502103","name":"Lidl","landuse":"retail","shop":"supermarket","other":{"addr:city":"Newcastle Upon Tyne","addr:country":"GB","addr:housenumber":"505","addr:postcode":"NE6 4NS","addr:street":"Shields Road","brand":"Lidl","brand:wikidata":"Q151954","brand:wikipedia":"en:Lidl","fhrs:id":"236267","operator":"Lidl","wheelchair":"yes"}}, "geometry":{"type":"MultiPolygon","coordinates":[[[[-1.56257,54.98471],[-1.5614,54.98491],[-1.5608,54.98432],[-1.56197,54.98399],[-1.56257,54.98471]]]]}},
{ "type":"Feature","properties":{"osm_way_id":"471464342","name":"Aldi","building":"retail","shop":"supermarket","other":{"addr:city":"Wallsend","addr:housenumber":"113","addr:postcode":"NE28 8JD","addr:street":"High Street West","brand":"ALDI","brand:wikidata":"Q41171672","brand:wikipedia":"en:Aldi","fhrs:id":"945494","opening_hours":"Mo-Sa 08:00-22:00; Su 10:00-16:00","website":"https:\/\/www.aldi.co.uk\/store\/s-uk-E1152"}}, "geometry":{"type":"MultiPolygon","coordinates":[[[[-1.53885,54.99036],[-1.53873,54.99037],[-1.53874,54.9904],[-1.53838,54.99044],[-1.53854,54.99093],[-1.53886,54.9909],[-1.53888,54.99094],[-1.53903,54.99092],[-1.53885,54.99036]]]]}},
{ "type":"Feature","properties":{"osm_way_id":"478349429","name":"Morrisons","landuse":"retail","shop":"supermarket","other":{"addr:city":"Bedlington","brand":"Morrisons","brand:wikidata":"Q922344","brand:wikipedia":"en:Morrisons"}}, "geometry":{"type":"MultiPolygon","coordinates":[[[[-1.59938,55.13277],[-1.59931,55.13326],[-1.59918,55.13331],[-1.5984,55.13326],[-1.59835,55.13321],[-1.59844,55.13271],[-1.59938,55.13277]]]]}},
{ "type":"Feature","properties":{"osm_way_id":"478522153","name":"Iceland","building":"yes","shop":"supermarket","other":{"brand":"Iceland","brand:wikidata":"Q721810"}}, "geometry":{"type":"MultiPolygon","coordinates":[[[[-1.67627,54.99137],[-1.67571,54.99103],[-1.67592,54.99091],[-1.67648,54.99125],[-1.67627,54.99137]]]]}},
{ "type":"Feature","properties":{"osm_way_id":"481937403","name":"Aldi","building":"yes","shop":"supermarket","other":{"brand":"ALDI","brand:wikidata":"Q41171672","brand:wikipedia":"en:Aldi","operator":"Aldi"}}, "geometry":{"type":"MultiPolygon","coordinates":[[[[-1.68892,54.99914],[-1.68812,54.99902],[-1.68823,54.99876],[-1.68846,54.99879],[-1.68844,54.99883],[-1.68902,54.99891],[-1.68892,54.99914]]]]}},
{ "type":"Feature","properties":{"osm_way_id":"481937452","name":"Asda","building":"supermarket","shop":"supermarket","other":{"addr:city":"Westerhope","addr:country":"GB","addr:postcode":"NE5 2LD","addr:street":"Stamfordham Road","brand":"Asda","brand:wikidata":"Q297410","brand:wikipedia":"en:Asda","contact:facebook":"https:\/\/www.facebook.com\/asda\/","contact:twitter":"@asda","contact:website":"https:\/\/storelocator.asda.com\/north-east\/newcastle-upon-tyne\/stamfordham-road-westerhope","fhrs:id":"584068","operator":"Asda Stores Ltd"}}, "geometry":{"type":"MultiPolygon","coordinates":[[[[-1.68677,54.99908],[-1.68696,54.9987],[-1.68718,54.99873],[-1.68715,54.99879],[-1.68743,54.99883],[-1.68731,54.99908],[-1.68721,54.99907],[-1.68717,54.99915],[-1.68677,54.99908]]]]}},
{ "type":"Feature","properties":{"osm_way_id":"482803841","name":"Tesco Express","building":"retail","shop":"supermarket","other":{"addr:city":"Newcastle upon Tyne","addr:postcode":"NE5 1DR","addr:street":"Hillhead Parkway","brand":"Tesco Express","brand:wikidata":"Q98456772","brand:wikipedia":"en:Tesco","opening_hours":"Mo-Su 06:00-23:00","operator":"Tesco"}}, "geometry":{"type":"MultiPolygon","coordinates":[[[[-1.71626,54.9952],[-1.71591,54.99514],[-1.71599,54.99499],[-1.71611,54.99501],[-1.7161,54.99503],[-1.71629,54.99506],[-1.71628,54.99508],[-1.71637,54.9951],[-1.71636,54.99513],[-1.7163,54.99512],[-1.71626,54.9952]]]]}},
{ "type":"Feature","properties":{"osm_way_id":"526080198","name":"Lidl","landuse":"retail","shop":"supermarket","other":{"addr:city":"Newcastle","addr:country":"GB","addr:postcode":"NE12 6EN","addr:street":"Southgate","addr:suburb":"Killingworth","brand":"Lidl","brand:wikidata":"Q151954","brand:wikipedia":"en:Lidl","fhrs:id":"1023668","opening_hours":"Mo-Sa 08:00-22:00, Su 10:00-16:00","operator":"LIDL"}}, "geometry":{"type":"MultiPolygon","coordinates":[[[[-1.57413,55.02876],[-1.57426,55.0288],[-1.57444,55.02891],[-1.57509,55.02897],[-1.5754,55.02795],[-1.57512,55.02789],[-1.57481,55.02786],[-1.57443,55.02794],[-1.57438,55.02797],[-1.57431,55.02802],[-1.57421,55.02829],[-1.57417,55.02842],[-1.57406,55.02869],[-1.57413,55.02876]]]]}},
{ "type":"Feature","properties":{"osm_way_id":"526083304","name":"Aldi","landuse":"retail","shop":"supermarket","other":{"addr:city":"Newcastle Upon Tyne","addr:country":"GB","addr:postcode":"NE12 9EW","addr:street":"Great Lime Road","addr:suburb":"Forest Hall","alt_name":"ALDI - Great Lime Road","brand":"ALDI","brand:wikidata":"Q41171672","brand:wikipedia":"en:Aldi","fhrs:id":"727997","website":"https:\/\/www.aldi.co.uk\/store\/s-uk-E0819"}}, "geometry":{"type":"MultiPolygon","coordinates":[[[[-1.55318,55.02511],[-1.55299,55.02556],[-1.55459,55.02576],[-1.55465,55.02548],[-1.55433,55.02545],[-1.55445,55.02517],[-1.55318,55.02511]]]]}},
{ "type":"Feature","properties":{"osm_way_id":"542623266","name":"Aldi","building":"yes","shop":"supermarket","other":{"addr:city":"Newcastle upon Tyne","addr:housename":"Aldi Foodstore Ltd Walker Road","addr:postcode":"NE6 3LB","addr:street":"Walker Road","brand":"ALDI","brand:wikidata":"Q41171672","brand:wikipedia":"en:Aldi","fhrs:id":"1011577","opening_hours":"Mo-Sa 08:00-22:00; Su 10:00-16:00","website":"https:\/\/www.aldi.co.uk\/store\/s-uk-E1044"}}, "geometry":{"type":"MultiPolygon","coordinates":[[[[-1.55067,54.96549],[-1.55132,54.96596],[-1.55171,54.96578],[-1.55106,54.96532],[-1.55067,54.96549]]]]}},
{ "type":"Feature","properties":{"osm_way_id":"565101784","name":"Lidl","building":"yes","shop":"supermarket","other":{"addr:country":"GB","addr:housename":"Saint James Retail Park","addr:postcode":"NE5 2SF","addr:street":"Stamfordham Road","addr:unit":"6A","brand":"Lidl","brand:wikidata":"Q151954","fhrs:id":"715074"}}, "geometry":{"type":"MultiPolygon","coordinates":[[[[-1.67627,54.99137],[-1.67607,54.99148],[-1.67551,54.99114],[-1.67571,54.99103],[-1.67627,54.99137]]]]}},
{ "type":"Feature","properties":{"osm_way_id":"567536836","name":"Aldi","building":"yes","shop":"supermarket","other":{"addr:city":"Fawdon","addr:postcode":"NE3 3NB","addr:street":"Edgefield Avenue","brand":"ALDI","brand:wikidata":"Q41171672","brand:wikipedia":"en:Aldi","fhrs:id":"869818","opening_hours":"Mo-Sa 08:00-22:00; Su 10:00-16:00"}}, "geometry":{"type":"MultiPolygon","coordinates":[[[[-1.64551,55.01317],[-1.64504,55.01314],[-1.64512,55.01269],[-1.64545,55.01271],[-1.64546,55.01266],[-1.64561,55.01267],[-1.64551,55.01317]]]]}},
{ "type":"Feature","properties":{"osm_way_id":"579544977","name":"Morrisons","building":"retail","shop":"supermarket","other":{"addr:postcode":"NE12 6YT","brand":"Morrisons","brand:wikidata":"Q922344","brand:wikipedia":"en:Morrisons","fhrs:id":"200708"}}, "geometry":{"type":"MultiPolygon","coordinates":[[[[-1.56732,55.03591],[-1.56839,55.03618],[-1.56818,55.03645],[-1.56842,55.03651],[-1.56828,55.03669],[-1.56844,55.03673],[-1.56829,55.03693],[-1.56805,55.03687],[-1.56801,55.03692],[-1.56799,55.03692],[-1.56798,55.03693],[-1.56704,55.03669],[-1.56696,55.03679],[-1.56682,55.03676],[-1.56668,55.03672],[-1.56732,55.03591]]]]}},
{ "type":"Feature","properties":{"osm_way_id":"596065420","name":"Co-op Food","building":"retail","shop":"supermarket","other":{"addr:postcode":"NE61 2DR","alt_name":"Loansdean's Co-Op","brand":"Co-op Food","brand:wikidata":"Q3277439","brand:wikipedia":"en:Co-op Food","opening_hours":"07:00-23:00","operator":"Co-operative Society","phone":"+44 1670 519 133","website":"https:\/\/finder.coop.co.uk\/food\/store\/NE61-2DR\/a197"}}, "geometry":{"type":"MultiPolygon","coordinates":[[[[-1.68891,55.15226],[-1.68878,55.15227],[-1.68858,55.1523],[-1.68852,55.15214],[-1.68856,55.15213],[-1.68856,55.15212],[-1.68867,55.15211],[-1.68867,55.15212],[-1.68885,55.15209],[-1.68891,55.15226]]]]}},
{ "type":"Feature","properties":{"osm_way_id":"662530488","name":"Aldi","building":"retail","shop":"supermarket","other":{"addr:city":"Backworth","addr:postcode":"NE27 0FS","addr:street":"Northumberland Park Way","brand":"ALDI","brand:wikidata":"Q41171672","brand:wikipedia":"en:Aldi","fhrs:id":"1154791","opening_hours":"Mo-Sa 08:00-22:00; Su 10:00-16:00"}}, "geometry":{"type":"MultiPolygon","coordinates":[[[[-1.52299,55.03108],[-1.52327,55.03131],[-1.52306,55.0314],[-1.52311,55.03144],[-1.52289,55.03153],[-1.52285,55.03149],[-1.52251,55.03163],[-1.52243,55.03156],[-1.52248,55.03154],[-1.52228,55.03137],[-1.52299,55.03108]]]]}},
{ "type":"Feature","properties":{"osm_way_id":"673921698","name":"Heron Foods","shop":"supermarket","other":{"addr:city":"Newcastle Upon Tyne","addr:country":"GB","addr:housenumber":"1","addr:place":"Hillhead Parkway Shopping Centre","addr:postcode":"NE5 1DT","brand":"Heron Foods","brand:wikidata":"Q5743472","brand:wikipedia":"en:Heron Foods","building:part":"yes","contact:website":"https:\/\/heronfoods.com\/storelocator\/store-details\/chapel-house","fhrs:id":"237431"}}, "geometry":{"type":"MultiPolygon","coordinates":[[[[-1.71683,54.99516],[-1.71701,54.99519],[-1.71707,54.99508],[-1.71656,54.995],[-1.7165,54.99511],[-1.71683,54.99516]]]]}},
{ "type":"Feature","properties":{"osm_way_id":"695745274","name":"Heron Foods","building":"yes","shop":"supermarket","other":{"addr:city":"Shiremoor","addr:postcode":"NE27 0SJ","addr:street":"Earsdon Road","addr:unit":"7","brand":"Heron Foods","brand:wikidata":"Q5743472","brand:wikipedia":"en:Heron Foods","contact:website":"https:\/\/heronfoods.com\/storelocator\/store-details\/shiremoor","fhrs:id":"1084503"}}, "geometry":{"type":"MultiPolygon","coordinates":[[[[-1.51676,55.03392],[-1.51711,55.03372],[-1.51717,55.03375],[-1.5172,55.03377],[-1.51739,55.03388],[-1.51705,55.03406],[-1.51676,55.03392]]]]}},
{ "type":"Feature","properties":{"osm_way_id":"731155375","name":"Aldi","landuse":"retail","shop":"supermarket","other":{"addr:city":"Cramlington","addr:county":"Northumberland","addr:postcode":"NE23 1DA","addr:street":"Cumbrian Road","brand":"ALDI","brand:wikidata":"Q41171672","brand:wikipedia":"en:Aldi","fhrs:id":"286405","opening_hours":"Mo-Sa 07:00-18:00; Su 10:00-16:00"}}, "geometry":{"type":"MultiPolygon","coordinates":[[[[-1.58131,55.08825],[-1.58133,55.0873],[-1.5804,55.0873],[-1.58022,55.0873],[-1.5802,55.0874],[-1.5802,55.08762],[-1.58028,55.0877],[-1.58023,55.08772],[-1.58018,55.08775],[-1.58018,55.08779],[-1.5804,55.08808],[-1.58064,55.08818],[-1.58131,55.08825]]]]}},
{ "type":"Feature","properties":{"osm_way_id":"767361682","name":"The Food Warehouse","building":"yes","shop":"supermarket","other":{"addr:city":"North Shields","addr:postcode":"NE29 7UJ","addr:street":"Coast Road Retail Park","addr:unit":"6","brand":"The Food Warehouse","brand:wikidata":"Q87263899","fhrs:id":"1084509","opening_hours":"Mo-Sa 08:00-21:00; Su 10:00-22:00","phone":"+44 191 259 1098","website":"https:\/\/www.thefoodwarehouse.com\/store-locator\/north-shields-newcastle","wheelchair":"yes"}}, "geometry":{"type":"MultiPolygon","coordinates":[[[[-1.48441,55.01149],[-1.48371,55.01165],[-1.48368,55.01165],[-1.48366,55.01164],[-1.48365,55.01162],[-1.48367,55.0116],[-1.48369,55.01159],[-1.48362,55.01148],[-1.4842,55.01135],[-1.48422,55.01134],[-1.4843,55.01133],[-1.48441,55.01149]]]]}},
{ "type":"Feature","properties":{"osm_way_id":"797321101","name":"M&S Foodhall","building":"yes","shop":"supermarket","other":{"brand":"M&S Foodhall","brand:wikidata":"Q714491","brand:wikipedia":"en:Marks & Spencer"}}, "geometry":{"type":"MultiPolygon","coordinates":[[[[-1.69431,55.40033],[-1.69396,55.40022],[-1.69431,55.39988],[-1.69464,55.4],[-1.69431,55.40033]]]]}},
{ "type":"Feature","properties":{"osm_way_id":"892101168","name":"The Food Warehouse","building":"retail","shop":"supermarket","other":{"addr:city":"Newcastle upon Tyne","addr:postcode":"NE3 2ES","addr:street":"Brunton Lane","addr:unit":"4","brand":"The Food Warehouse","brand:wikidata":"Q87263899","fhrs:id":"999206","operator":"Iceland","wheelchair":"yes"}}, "geometry":{"type":"MultiPolygon","coordinates":[[[[-1.6675,55.01087],[-1.66742,55.01095],[-1.6675,55.01097],[-1.66737,55.01109],[-1.66729,55.01106],[-1.66721,55.01114],[-1.66663,55.01093],[-1.66686,55.01072],[-1.66687,55.01072],[-1.66694,55.01075],[-1.667,55.01069],[-1.66715,55.01075],[-1.6675,55.01087]]]]}},
{ "type":"Feature","properties":{"osm_way_id":"901938936","building":"yes"},"geometry":{"type":"MultiPolygon","coordinates":[[[[-1.60127,54.97477],[-1.60121,54.97477],[-1.6012,54.9747],[-1.60111,54.9747],[-1.60111,54.9746],[-1.60111,54.9746],[-1.60111,54.97458],[-1.60125,54.97458],[-1.60127,54.97477]]]]}},
{ "type":"Feature","properties":{"osm_way_id":"913514832","name":"Lidl","landuse":"retail","shop":"supermarket","other":{"addr:postcode":"NE29 9QS","addr:province":"North Tyneside","addr:street":"Rake Lane","addr:suburb":"Preston Grange","brand":"Lidl","brand:wikidata":"Q151954","brand:wikipedia":"en:Lidl","opening_hours":"Mo-Sa 08:00-22:00; Su 10:00-16:00; PH 08:00-20:00"}}, "geometry":{"type":"MultiPolygon","coordinates":[[[[-1.46425,55.02725],[-1.46444,55.02736],[-1.46436,55.0274],[-1.46433,55.02739],[-1.46427,55.02742],[-1.46418,55.02747],[-1.4641,55.02752],[-1.46406,55.02757],[-1.46405,55.02763],[-1.46418,55.02772],[-1.46434,55.02783],[-1.46436,55.02783],[-1.4644,55.02784],[-1.46444,55.02783],[-1.46451,55.02779],[-1.46463,55.02788],[-1.46468,55.02791],[-1.46527,55.02759],[-1.46545,55.0275],[-1.46556,55.0274],[-1.46563,55.02733],[-1.46569,55.02726],[-1.46568,55.02718],[-1.46564,55.02711],[-1.46547,55.02699],[-1.46517,55.02672],[-1.46507,55.02664],[-1.46415,55.02705],[-1.46411,55.02709],[-1.4641,55.02713],[-1.46413,55.02717],[-1.46425,55.02725]]]]}},
{ "type":"Feature","properties":{"osm_way_id":"973239459","name":"Nisa","building":"retail","shop":"supermarket","other":{"addr:city":"Wooler","addr:housenumber":"10","addr:postcode":"NE71 6NW","addr:street":"South Street","designation":"Nisa Local","phone":"+44 1668 283900","website":"http:\/\/www.nisalocally.co.uk\/store\/nisa-local-10-south-rd-wooler"}}, "geometry":{"type":"MultiPolygon","coordinates":[[[[-2.01152,55.54719],[-2.01185,55.54713],[-2.01181,55.54706],[-2.01149,55.54711],[-2.01152,55.54719]]]]}},
{ "type":"Feature","properties":{"osm_way_id":"1020580227","name":"Aldi","landuse":"retail","shop":"supermarket","other":{"addr:city":"Bedlington","addr:county":"Northumberland","addr:postcode":"NE22 7FH","addr:street":"Schalksmuhle Road","brand":"ALDI","brand:wikidata":"Q41171672","brand:wikipedia":"en:Aldi","opening_hours":"Mo-Sa 08:00-22:00; Su 10:00-16:00"}}, "geometry":{"type":"MultiPolygon","coordinates":[[[[-1.59225,55.13213],[-1.59166,55.13183],[-1.59132,55.1316],[-1.59129,55.13154],[-1.59129,55.13148],[-1.59133,55.13141],[-1.59215,55.13103],[-1.59234,55.13116],[-1.59255,55.13125],[-1.5931,55.13149],[-1.59266,55.13182],[-1.59256,55.1319],[-1.59225,55.13213]]]]}}
]
}
