{
"type": "FeatureCollection",
"features": [
{ "type":"Feature","properties":{"osm_id":"297604216","name":"Co-op Food","other":{"brand":"Co-op Food","brand:wikidata":"Q3277439","brand:wikipedia":"en:Co-op Food","operator":"Co-Op","shop":"supermarket"}}, "geometry":{"type":"Point","coordinates":[-3.40093,52.1478 ]}},
{ "type":"Feature","properties":{"osm_id":"761507847","name":"Spar","other":{"brand":"Spar","brand:wikidata":"Q610492","brand:wikipedia":"en:SPAR (retailer)","shop":"supermarket"}}, "geometry":{"type":"Point","coordinates":[-3.51065,52.30024 ]}},
{ "type":"Feature","properties":{"osm_id":"6391888791","name":"Camden Stores Farm Shop","other":{"shop":"supermarket"}}, "geometry":{"type":"Point","coordinates":[-3.37265,51.94154 ]}},
{ "type":"Feature","properties":{"osm_id":"6788114802","name":"Co-Op","other":{"shop":"supermarket"}}, "geometry":{"type":"Point","coordinates":[-3.5094,52.3008 ]}},
{ "type":"Feature","properties":{"osm_id":"8510228321","other":{"power":"pole"}}, "geometry":{"type":"Point","coordinates":[-3.43103,52.52767 ]}},
{ "type":"Feature","properties":{"osm_id":"8659113662","name":"Tuffins","other":{"addr:city":"Welshpool","shop":"supermarket","start_date":"2018"}}, "geometry":{"type":"Point","coordinates":[-3.1231,52.67148 ]}},
{ "type":"Feature","properties":{"osm_id":"8821387078","highway":"give_way","other":{"direction":"backward"}}, "geometry":{"type":"Point","coordinates":[-3.0509,52.69804 ]}},
{ "type":"Feature","properties":{"osm_id":"9240609359","other":{"power":"pole"}}, "geometry":{"type":"Point","coordinates":[-2.37176,57.55733 ]}},
{ "type":"Feature","properties":{"osm_id":"9240609419","other":{"power":"pole"}}, "geometry":{"type":"Point","coordinates":[-2.32347,57.55883 ]}},
{ "type":"Feature","properties":{"osm_id":"9240609422","other":{"power":"pole"}}, "geometry":{"type":"Point","coordinates":[-2.32292,57.55707 ]}},
{ "type":"Feature","properties":{"osm_way_id":"24960899","name":"Morrisons","building":"yes","shop":"supermarket","other":{"addr:postcode":"WA8 6UA","addr:street":"Green Oaks Way","brand":"Morrisons","brand:wikidata":"Q922344","brand:wikipedia":"en:Morrisons","fhrs:id":"113812","source:addr":"FHRS Open Data","wheelchair":"yes"}}, "geometry":{"type":"MultiPolygon","coordinates":[[[[-2.7241,53.36799],[-2.72437,53.36751],[-2.72448,53.3673],[-2.72384,53.36717],[-2.72376,53.36734],[-2.72336,53.36727],[-2.72304,53.36786],[-2.72335,53.36792],[-2.72335,53.36785],[-2.72366,53.36791],[-2.7241,53.36799]]]]}},
{ "type":"Feature","properties":{"osm_way_id":"26301233","name":"Tesco Extra","building":"yes","landuse":"retail","shop":"supermarket","other":{"brand":"Tesco Extra","brand:wikidata":"Q25172225","brand:wikipedia":"en:Tesco Extra"}}, "geometry":{"type":"MultiPolygon","coordinates":[[[[-3.9903,55.94578],[-3.99089,55.94612],[-3.99096,55.94608],[-3.99115,55.94618],[-3.99245,55.94547],[-3.99228,55.94537],[-3.99271,55.94513],[-3.99258,55.94506],[-3.99208,55.94533],[-3.99182,55.94518],[-3.99189,55.94514],[-3.99161,55.94498],[-3.99037,55.94566],[-3.99045,55.9457],[-3.9903,55.94578]]]]}},
{ "type":"Feature","properties":{"osm_way_id":"26706502","name":"Asda","building":"yes","shop":"supermarket","other":{"addr:city":"Coatbridge","addr:postcode":"ML5 3BU","addr:street":"Main Street","brand":"Asda","brand:wikidata":"Q297410","brand:wikipedia":"en:Asda","building:cladding":"brick","building:roof":"metal","building:use":"retail","contact:facebook":"https:\/\/www.facebook.com\/asda\/","contact:twitter":"@asda","contact:website":"https:\/\/storelocator.asda.com\/scotland\/coatbridge\/main-street","fhrs:id":"614991","height":"16 m","opening_hours":"24\/7","operator":"Asda Stores Ltd","roof:shape":"flat","wheelchair":"yes"}}, "geometry":{"type":"MultiPolygon","coordinates":[[[[-4.02542,55.8612],[-4.0264,55.86139],[-4.0263,55.86153],[-4.02639,55.86155],[-4.02607,55.86212],[-4.02499,55.86192],[-4.02522,55.86151],[-4.02521,55.86148],[-4.02427,55.8613],[-4.02441,55.86106],[-4.02506,55.86116],[-4.02502,55.86121],[-4.02537,55.86128],[-4.02542,55.8612]]]]}},
{ "type":"Feature","properties":{"osm_way_id":"82514244","name":"Tesco","building":"supermarket","shop":"supermarket","other":{"brand":"Tesco","brand:wikidata":"Q487494","brand:wikipedia":"en:Tesco","opening_hours":"07:00-23:00","website":"https:\/\/www.tesco.com\/store-locator\/llandrindod-wells\/waterloo-rd"}}, "geometry":{"type":"MultiPolygon","coordinates":[[[[-3.37843,52.24457],[-3.37906,52.24467],[-3.379,52.2448],[-3.37919,52.24483],[-3.37925,52.2447],[-3.37942,52.24473],[-3.37971,52.24414],[-3.37866,52.24397],[-3.37843,52.24457]]]]}},
{ "type":"Feature","properties":{"osm_way_id":"82521227","name":"ALDI","building":"yes","shop":"supermarket","other":{"brand":"ALDI","brand:wikidata":"Q41171672","brand:wikipedia":"en:Aldi"}}, "geometry":{"type":"MultiPolygon","coordinates":[[[[-3.37816,52.24292],[-3.37784,52.24288],[-3.37784,52.24286],[-3.37769,52.24284],[-3.37773,52.24272],[-3.37778,52.24273],[-3.37788,52.24242],[-3.37829,52.24247],[-3.37828,52.24249],[-3.37839,52.2425],[-3.37836,52.24261],[-3.37823,52.24259],[-3.37816,52.24281],[-3.37819,52.24282],[-3.37816,52.24292]]]]}},
{ "type":"Feature","properties":{"osm_way_id":"89051324","name":"Morrisons","building":"yes","shop":"supermarket","other":{"addr:city":"Brecon","addr:postcode":"LD3 7SE","addr:street":"Free Street","alt_name":"Morrisons Brecon","brand":"Morrisons","brand:wikidata":"Q922344","brand:wikipedia":"en:Morrisons","opening_hours":"Mo-Sa 07:00-22:00; Su 10:00-16:00","wheelchair":"yes"}}, "geometry":{"type":"MultiPolygon","coordinates":[[[[-3.38856,51.94745],[-3.38845,51.94735],[-3.38849,51.94732],[-3.38842,51.94727],[-3.38857,51.9472],[-3.38838,51.94705],[-3.38824,51.94713],[-3.38809,51.947],[-3.38802,51.94702],[-3.38792,51.94706],[-3.38789,51.94703],[-3.38781,51.94706],[-3.38784,51.9471],[-3.38763,51.94721],[-3.38769,51.94726],[-3.38759,51.94732],[-3.38769,51.94741],[-3.38765,51.94743],[-3.38784,51.94758],[-3.38782,51.9476],[-3.38792,51.94768],[-3.38796,51.94766],[-3.38804,51.94772],[-3.38817,51.94766],[-3.38829,51.9476],[-3.38827,51.94758],[-3.38856,51.94745]]]]}},
{ "type":"Feature","properties":{"osm_way_id":"111662215","name":"ALDI","building":"retail","shop":"supermarket","other":{"addr:city":"Derby","addr:postcode":"DE21 6LZ","addr:street":"Nottingham Road","brand":"ALDI","brand:wikidata":"Q41171672","brand:wikipedia":"en:Aldi","building:levels":"1","fhrs:id":"643043","not:addr:postcode":"DE21 7NF","opening_hours":"Mo-Sa 08:00-10:00; Su 10:00-16:00; PH 08:00-20:00","roof:levels":"1"}}, "geometry":{"type":"MultiPolygon","coordinates":[[[[-1.43656,52.92403],[-1.43638,52.92397],[-1.43642,52.92392],[-1.43626,52.92387],[-1.4365,52.92363],[-1.43645,52.92361],[-1.43657,52.92349],[-1.43696,52.92362],[-1.43656,52.92403]]]]}},
{ "type":"Feature","properties":{"osm_way_id":"138942503","name":"Co-op","building":"yes","shop":"supermarket","other":{"addr:housenumber":"80-88","addr:postcode":"SY20 8EE","addr:street":"Meangwyn Street","alt_name":"The Co-operative Food"}}, "geometry":{"type":"MultiPolygon","coordinates":[[[[-3.84803,52.59076],[-3.848,52.59076],[-3.84798,52.59078],[-3.84795,52.59078],[-3.84793,52.59076],[-3.84768,52.59076],[-3.84768,52.59033],[-3.84768,52.59031],[-3.84803,52.59031],[-3.84803,52.59076]]]]}},
{ "type":"Feature","properties":{"osm_way_id":"156845667","name":"Churchstoke Shopping Centre (Harry Tuffins)","building":"yes","shop":"supermarket","other":{"addr:city":"Churchstoke","addr:postcode":"SY15 6AR","operator":"The Midcounties Co-operative Society","phone":"+44 1588 620226"}}, "geometry":{"type":"MultiPolygon","coordinates":[[[[-3.06439,52.53732],[-3.06424,52.53731],[-3.06333,52.53724],[-3.06324,52.53724],[-3.0632,52.53747],[-3.06324,52.53748],[-3.06321,52.53768],[-3.06373,52.53773],[-3.06372,52.5378],[-3.06405,52.53782],[-3.06407,52.53775],[-3.06425,52.53776],[-3.06427,52.53769],[-3.06434,52.53769],[-3.06439,52.53732]]]]}},
{ "type":"Feature","properties":{"osm_way_id":"199543699","name":"LIDL","building":"yes","shop":"supermarket","other":{"addr:city":"Newtown","addr:postcode":"SY16 1ET","addr:street":"Llanidloes Road","alt_name":"LIDL Newtown","brand":"Lidl","brand:wikidata":"Q151954","fhrs:id":"182526","opening_hours":"Mo-Sa 08:00-20:00; Su 10:00-16:00","source:addr:postcode":"FSA Food Hygiene Ratings Database"}}, "geometry":{"type":"MultiPolygon","coordinates":[[[[-3.31988,52.51006],[-3.31969,52.50977],[-3.31952,52.50981],[-3.31956,52.50987],[-3.31882,52.51004],[-3.31885,52.51009],[-3.31879,52.51011],[-3.31892,52.5103],[-3.31988,52.51006]]]]}},
{ "type":"Feature","properties":{"osm_way_id":"199543700","name":"Morrisons","building":"yes","shop":"supermarket","other":{"addr:city":"Newtown","addr:postcode":"SY16 3AH","addr:street":"Pool Road","alt_name":"Morrisons Newtown","brand":"Morrisons","brand:wikidata":"Q922344","brand:wikipedia":"en:Morrisons","opening_hours":"Mo-Sa 07:00-22:00; Su 10:00-16:00"}}, "geometry":{"type":"MultiPolygon","coordinates":[[[[-3.29963,52.51656],[-3.2994,52.51634],[-3.29908,52.51604],[-3.29825,52.51636],[-3.29857,52.51666],[-3.29847,52.5167],[-3.29867,52.5169],[-3.2987,52.51693],[-3.29963,52.51656]]]]}},
{ "type":"Feature","properties":{"osm_way_id":"199543701","name":"Tesco","building":"yes","shop":"supermarket","other":{"addr:city":"Newtown","addr:postcode":"SY16 1DW","addr:street":"Pool Road","alt_name":"Tesco Newtown Superstore","brand":"Tesco","brand:wikidata":"Q487494","brand:wikipedia":"en:Tesco","opening_hours":"Mo-Sa 07:00-22:00; Su 10:00-16:00"}}, "geometry":{"type":"MultiPolygon","coordinates":[[[[-3.30566,52.51428],[-3.30525,52.51375],[-3.30668,52.51333],[-3.3068,52.51349],[-3.30656,52.51356],[-3.30666,52.51368],[-3.30658,52.51377],[-3.30651,52.51385],[-3.30648,52.51396],[-3.30645,52.51408],[-3.30622,52.51414],[-3.30566,52.51428]]]]}},
{ "type":"Feature","properties":{"osm_way_id":"236012251","name":"Tesco","building":"yes","shop":"supermarket","other":{"addr:postcode":"SY21 7BL","addr:street":"Smithfield Road","branch":"Superstore","brand":"Tesco","brand:wikidata":"Q487494","brand:wikipedia":"en:Tesco","operator":"Tesco","toilets:wheelchair":"yes","wheelchair":"yes"}}, "geometry":{"type":"MultiPolygon","coordinates":[[[[-3.14162,52.65907],[-3.14059,52.65882],[-3.14055,52.65881],[-3.14092,52.65826],[-3.1412,52.65831],[-3.14125,52.65823],[-3.14159,52.65832],[-3.14158,52.65836],[-3.14167,52.65854],[-3.14191,52.65861],[-3.14186,52.65869],[-3.14162,52.65907]]]]}},
{ "type":"Feature","properties":{"osm_way_id":"236012252","name":"Morrisons","building":"retail","shop":"supermarket","other":{"addr:postcode":"SY21 7SQ","addr:street":"Berriew Street","brand":"Morrisons","brand:wikidata":"Q922344","brand:wikipedia":"en:Morrisons","designation":"Welshpool","toilets":"yes","toilets:wheelchair":"yes","wheelchair":"yes"}}, "geometry":{"type":"MultiPolygon","coordinates":[[[[-3.14632,52.65837],[-3.14636,52.65833],[-3.14637,52.65832],[-3.14642,52.65828],[-3.14648,52.6583],[-3.14685,52.65791],[-3.14694,52.65788],[-3.14697,52.65787],[-3.14726,52.65823],[-3.14702,52.65848],[-3.14708,52.6585],[-3.14698,52.65858],[-3.14671,52.65854],[-3.14632,52.65837]]]]}},
{ "type":"Feature","properties":{"osm_way_id":"236012253","name":"Sainsbury's","building":"yes","shop":"supermarket","other":{"addr:city":"Welshpool","addr:postcode":"SY21 7NJ","addr:street":"Brook Street","brand":"Sainsbury's","brand:wikidata":"Q152096","brand:wikipedia":"en:Sainsbury's","designation":"Welshpool Superstore","fhrs:id":"441019","wheelchair":"yes","wheelchair:description":"ATM MACHINE HERE"}}, "geometry":{"type":"MultiPolygon","coordinates":[[[[-3.1502,52.66156],[-3.1503,52.66112],[-3.15003,52.6611],[-3.14993,52.66154],[-3.1502,52.66156]]]]}},
{ "type":"Feature","properties":{"osm_way_id":"258009166","name":"Spar","building":"yes","shop":"supermarket","other":{"addr:housename":"Eagle House","addr:postcode":"SY22 6AQ","alt_name":"Wynnstay Stores","brand":"Spar","brand:wikidata":"Q610492","brand:wikipedia":"en:SPAR (retailer)","designation":"Wynnstay-Llansantffraid"}}, "geometry":{"type":"MultiPolygon","coordinates":[[[[-3.15349,52.77448],[-3.15343,52.77421],[-3.1531,52.77423],[-3.15316,52.7745],[-3.15349,52.77448]]]]}},
{ "type":"Feature","properties":{"osm_way_id":"259020385","name":"Asda","building":"retail","shop":"supermarket","other":{"addr:city":"Rugby","addr:country":"GB","addr:postcode":"CV21 2DN","addr:street":"Corporation Street","brand":"Asda","brand:wikidata":"Q297410","brand:wikipedia":"en:Asda","building:levels":"2","building:levels:underground":"1","contact:facebook":"https:\/\/www.facebook.com\/asda\/","contact:twitter":"@asda","contact:website":"https:\/\/storelocator.asda.com\/west-midlands\/rugby\/12-chapel-street","fhrs:id":"210421","operator":"Asda Stores Ltd","source:addr":"FHRS Open Data","wheelchair":"yes"}}, "geometry":{"type":"MultiPolygon","coordinates":[[[[-1.26496,52.3723],[-1.26443,52.3723],[-1.26443,52.37229],[-1.26407,52.37229],[-1.26406,52.37227],[-1.26404,52.37226],[-1.26401,52.37226],[-1.26399,52.37227],[-1.26398,52.37229],[-1.26384,52.37243],[-1.26379,52.37247],[-1.26364,52.37263],[-1.26366,52.37266],[-1.26371,52.37266],[-1.26384,52.37279],[-1.26391,52.3728],[-1.26391,52.37297],[-1.26395,52.37298],[-1.26396,52.37313],[-1.26441,52.37313],[-1.26441,52.373],[-1.26456,52.373],[-1.26456,52.37297],[-1.26488,52.37297],[-1.26504,52.37292],[-1.26514,52.37283],[-1.26515,52.37233],[-1.26518,52.37231],[-1.26516,52.37227],[-1.26509,52.37227],[-1.26506,52.37227],[-1.26496,52.3723]]]]}},
{ "type":"Feature","properties":{"osm_way_id":"281326099","name":"Harry Tuffins","building":"yes","shop":"supermarket","other":{"addr:country":"GB","addr:postcode":"LD7 1DA","alt_name":"Whitehall Supermarket","operator":"The Midcounties Co-operative Society"}}, "geometry":{"type":"MultiPolygon","coordinates":[[[[-3.04722,52.3429],[-3.04721,52.34289],[-3.04712,52.34281],[-3.04693,52.34265],[-3.04657,52.34281],[-3.0467,52.34292],[-3.04677,52.34289],[-3.04693,52.34302],[-3.04722,52.3429]]]]}},
{ "type":"Feature","properties":{"osm_way_id":"281326104","name":"Costcutter","building":"yes","shop":"supermarket","other":{"addr:housenumber":"16-19","addr:postcode":"LD7 1BL","addr:street":"Broad Street","brand":"Costcutter","brand:wikidata":"Q5175072","brand:wikipedia":"en:Costcutter"}}, "geometry":{"type":"MultiPolygon","coordinates":[[[[-3.04881,52.34437],[-3.04905,52.3442],[-3.04918,52.34427],[-3.04929,52.34419],[-3.049,52.34404],[-3.04865,52.34429],[-3.04881,52.34437]]]]}},
{ "type":"Feature","properties":{"osm_way_id":"305043830","name":"Co-op Food","building":"yes","shop":"supermarket","other":{"addr:postcode":"LD3 7HY","addr:street":"Lion Street","alt_name":"The Co-operative Food","brand":"Co-op Food","brand:wikidata":"Q3277439","brand:wikipedia":"en:Co-op Food"}}, "geometry":{"type":"MultiPolygon","coordinates":[[[[-3.39076,51.94851],[-3.3911,51.94823],[-3.39067,51.94802],[-3.39037,51.94824],[-3.39038,51.94831],[-3.39066,51.94843],[-3.39063,51.94845],[-3.39076,51.94851]]]]}},
{ "type":"Feature","properties":{"osm_way_id":"305043831","name":"Aldi","building":"supermarket","shop":"supermarket","other":{"addr:postcode":"LD3 7ED","addr:street":"Rich Way","alt_name":"ALDI Brecon","brand":"ALDI","brand:wikidata":"Q41171672","brand:wikipedia":"en:Aldi"}}, "geometry":{"type":"MultiPolygon","coordinates":[[[[-3.3886,51.94472],[-3.38831,51.94456],[-3.38816,51.94466],[-3.38799,51.94457],[-3.38786,51.94466],[-3.38803,51.94476],[-3.38786,51.94487],[-3.3882,51.94506],[-3.38833,51.94497],[-3.38827,51.94494],[-3.3886,51.94472]]]]}},
{ "type":"Feature","properties":{"osm_way_id":"350178668","name":"Tesco","building":"yes","shop":"supermarket","other":{"brand":"Tesco","brand:wikidata":"Q487494"}}, "geometry":{"type":"MultiPolygon","coordinates":[[[[-3.77467,51.76901],[-3.77498,51.76849],[-3.77496,51.76849],[-3.77499,51.76844],[-3.77403,51.76822],[-3.774,51.76826],[-3.77396,51.76825],[-3.77365,51.76877],[-3.77467,51.76901]]]]}},
{ "type":"Feature","properties":{"osm_way_id":"356610212","name":"Spar","building":"yes","shop":"supermarket","other":{"brand":"Spar","brand:wikidata":"Q610492","brand:wikipedia":"en:SPAR (retailer)"}}, "geometry":{"type":"MultiPolygon","coordinates":[[[[-3.20139,52.59926],[-3.20147,52.59922],[-3.2014,52.59917],[-3.20133,52.59922],[-3.20139,52.59926]]]]}},
{ "type":"Feature","properties":{"osm_way_id":"358525274","name":"Spar","building":"yes","shop":"supermarket","other":{"addr:city":"Newtown","addr:housenumber":"40-41","addr:postcode":"SY16 2NA","addr:street":"Broad Street","alt_name":"Blakemore Retail - Newtown","brand":"Spar","brand:wikidata":"Q610492","brand:wikipedia":"en:SPAR (retailer)","opening_hours":"Mo-Sa 07:00-23:00; Su 08:00-23:00"}}, "geometry":{"type":"MultiPolygon","coordinates":[[[[-3.31538,52.51616],[-3.31575,52.51604],[-3.31568,52.51597],[-3.31529,52.5161],[-3.31538,52.51616]]]]}},
{ "type":"Feature","properties":{"osm_way_id":"390585756","name":"Aldi","building":"retail","shop":"supermarket","other":{"addr:postcode":"WR1 2DZ","addr:street":"Pheasant Street","brand":"ALDI","brand:wikidata":"Q41171672","brand:wikipedia":"en:Aldi","fhrs:id":"685445"}}, "geometry":{"type":"MultiPolygon","coordinates":[[[[-2.21531,52.19521],[-2.21578,52.19508],[-2.21551,52.19472],[-2.21534,52.19468],[-2.21499,52.19479],[-2.21531,52.19521]]]]}},
{ "type":"Feature","properties":{"osm_way_id":"403257724","name":"The Co-operative Food","building":"retail","shop":"supermarket","other":{"addr:city":"Llanidloes","addr:postcode":"SY18 6ES","addr:street":"Llangurig Road","fhrs:id":"447522"}}, "geometry":{"type":"MultiPolygon","coordinates":[[[[-3.54272,52.44484],[-3.54267,52.44467],[-3.54218,52.44472],[-3.54221,52.44483],[-3.54216,52.44483],[-3.54218,52.44492],[-3.54232,52.44491],[-3.54232,52.44488],[-3.54272,52.44484]]]]}},
{ "type":"Feature","properties":{"osm_way_id":"440061236","name":"SPAR","building":"yes","shop":"supermarket","other":{"addr:city":"Caersws","addr:postcode":"SY17 5EQ","addr:street":"The Cross","alt_name":"SPAR Caersws","atm":"yes","brand":"Spar","brand:wikidata":"Q610492","opening_hours":"Mo-Sa 07:30-20:00; Su 08:00-18:30","website":"https:\/\/www.spar.co.uk\/store-locator\/afb19384-spar-caersws"}}, "geometry":{"type":"MultiPolygon","coordinates":[[[[-3.42964,52.51602],[-3.42955,52.51592],[-3.42948,52.51595],[-3.4295,52.51597],[-3.42929,52.51605],[-3.42938,52.51613],[-3.42957,52.51607],[-3.42955,52.51605],[-3.42964,52.51602]]]]}},
{ "type":"Feature","properties":{"osm_way_id":"539175029","name":"Morrisons","building":"retail","shop":"supermarket","other":{"addr:postcode":"CW12 1YJ","brand":"Morrisons","brand:wikidata":"Q922344","brand:wikipedia":"en:Morrisons","fhrs:id":"890351","layer":"1"}}, "geometry":{"type":"MultiPolygon","coordinates":[[[[-2.21291,53.164],[-2.21273,53.16417],[-2.21282,53.16421],[-2.21284,53.16423],[-2.21301,53.16429],[-2.21302,53.16428],[-2.21311,53.16431],[-2.21302,53.16442],[-2.21275,53.16433],[-2.21267,53.16434],[-2.21246,53.16427],[-2.21249,53.16423],[-2.21204,53.16407],[-2.21211,53.16393],[-2.21218,53.16391],[-2.21222,53.16381],[-2.21217,53.16378],[-2.21221,53.16367],[-2.21229,53.16364],[-2.21239,53.16366],[-2.21237,53.1637],[-2.21259,53.16373],[-2.21261,53.16374],[-2.21275,53.16379],[-2.21276,53.16378],[-2.21304,53.16388],[-2.21306,53.16388],[-2.21302,53.16392],[-2.21293,53.16388],[-2.21284,53.16397],[-2.21291,53.164]]]]}},
{ "type":"Feature","properties":{"osm_way_id":"606342228","name":"ALDI","building":"yes","shop":"supermarket","other":{"addr:city":"Welshpool","addr:street":"Mill Lane","brand":"ALDI","brand:wikidata":"Q41171672","brand:wikipedia":"en:Aldi","operator":"Aldi","wheelchair":"yes"}}, "geometry":{"type":"MultiPolygon","coordinates":[[[[-3.14228,52.66069],[-3.14189,52.66051],[-3.14232,52.66016],[-3.14231,52.66015],[-3.14244,52.66003],[-3.14287,52.66022],[-3.14228,52.66069]]]]}},
{ "type":"Feature","properties":{"osm_way_id":"662580441","name":"ALDI","building":"yes","shop":"supermarket","other":{"brand":"ALDI","brand:wikidata":"Q41171672","brand:wikipedia":"en:Aldi","operator":"Aldi"}}, "geometry":{"type":"MultiPolygon","coordinates":[[[[-3.29878,52.51781],[-3.29805,52.51803],[-3.2978,52.51778],[-3.29853,52.51754],[-3.29878,52.51781]]]]}},
{ "type":"Feature","properties":{"osm_way_id":"707042443","name":"Co-op Food","building":"yes","shop":"supermarket","other":{"brand":"Co-op Food","brand:wikidata":"Q3277439","brand:wikipedia":"en:Co-op Food","wheelchair":"yes"}}, "geometry":{"type":"MultiPolygon","coordinates":[[[[-3.4018,52.15224],[-3.40153,52.15234],[-3.40157,52.15238],[-3.40164,52.15246],[-3.40168,52.1525],[-3.40195,52.15241],[-3.4018,52.15224]]]]}},
{ "type":"Feature","properties":{"osm_way_id":"815713156","building":"house","other":{"addr:housename":"Doneraile","addr:housenumber":"6"}}, "geometry":{"type":"MultiPolygon","coordinates":[[[[-3.36878,52.24164],[-3.3686,52.24169],[-3.3686,52.24169],[-3.36858,52.24169],[-3.36856,52.24167],[-3.36858,52.24166],[-3.36856,52.24163],[-3.36862,52.24161],[-3.36862,52.24161],[-3.36873,52.24158],[-3.36878,52.24164]]]]}},
{ "type":"Feature","properties":{"osm_way_id":"815713157","building":"house","other":{"addr:housename":"Cheriton","addr:housenumber":"8"}}, "geometry":{"type":"MultiPolygon","coordinates":[[[[-3.36891,52.24161],[-3.36884,52.24154],[-3.36888,52.24153],[-3.36888,52.24152],[-3.36898,52.24148],[-3.36906,52.24156],[-3.36896,52.2416],[-3.36895,52.24159],[-3.36891,52.24161]]]]}},
{ "type":"Feature","properties":{"osm_way_id":"824659759","name":"Waitrose","building":"yes","shop":"supermarket","other":{"brand":"Waitrose","brand:wikidata":"Q771734","brand:wikipedia":"en:Waitrose & Partners","official_name":"Waitrose & Partners"}}, "geometry":{"type":"MultiPolygon","coordinates":[[[[-0.42404,51.6109],[-0.42435,51.61085],[-0.42436,51.61087],[-0.42442,51.611],[-0.4246,51.61145],[-0.42438,51.61148],[-0.42424,51.61145],[-0.42404,51.6109]]]]}}
]
}
