{
"type": "FeatureCollection",
"features": [
{ "type":"Feature","properties":{"osm_way_id":"85948546","name":"Sainsbury's","building":"retail","shop":"supermarket","other":{"brand":"Sainsbury's","brand:wikidata":"Q152096","brand:wikipedia":"en:Sainsbury's"}}, "geometry":{"type":"MultiPolygon","coordinates":[[[[-2.20261,52.59514],[-2.2026,52.59542],[-2.2026,52.59548],[-2.20197,52.59547],[-2.20197,52.59537],[-2.20175,52.59537],[-2.20175,52.59522],[-2.20157,52.59522],[-2.20158,52.59483],[-2.20201,52.59483],[-2.20201,52.59481],[-2.20255,52.59481],[-2.20261,52.59487],[-2.20261,52.59514]]]]}},
{ "type":"Feature","properties":{"osm_way_id":"93719831","name":"The Co-operative Food","amenity":"post_office","building":"retail","shop":"supermarket","other":{"fhrs:id":"1258361","operator":"The Midcounties Co-operative","addr:city":"Penkridge","addr:street":"Market Street","addr:postcode":"ST19 5DH"}}, "geometry":{"type":"MultiPolygon","coordinates":[[[[-2.11397,52.72563],[-2.1138,52.72555],[-2.11373,52.7256],[-2.1136,52.72554],[-2.114,52.72524],[-2.11426,52.72537],[-2.11411,52.72548],[-2.11419,52.72551],[-2.11414,52.72555],[-2.11409,52.72553],[-2.11397,52.72563]]]]}},
{ "type":"Feature","properties":{"osm_way_id":"160820459","name":"Sainsbury's","building":"yes","shop":"supermarket","other":{"brand":"Sainsbury's","brand:wikidata":"Q152096","brand:wikipedia":"en:Sainsbury's"}}, "geometry":{"type":"MultiPolygon","coordinates":[[[[-2.2084,52.52691],[-2.2073,52.52672],[-2.20754,52.5262],[-2.2084,52.52635],[-2.20822,52.52674],[-2.20846,52.52678],[-2.2084,52.52691]]]]}},
{ "type":"Feature","properties":{"osm_way_id":"268669878","name":"Co-Op","building":"retail","shop":"supermarket"},"geometry":{"type":"MultiPolygon","coordinates":[[[[-2.20307,52.63078],[-2.20284,52.63075],[-2.2028,52.63075],[-2.20273,52.63068],[-2.20288,52.63023],[-2.20322,52.63027],[-2.20307,52.63078]]]]}},
{ "type":"Feature","properties":{"osm_way_id":"293157913","name":"Co-operative","amenity":"post_office","building":"retail","shop":"supermarket"},"geometry":{"type":"MultiPolygon","coordinates":[[[[-2.17355,52.67698],[-2.17346,52.67708],[-2.17326,52.67701],[-2.17342,52.67684],[-2.17362,52.67691],[-2.17355,52.67698]]]]}},
{ "type":"Feature","properties":{"osm_way_id":"358225870","name":"The Co-operative Food","building":"yes","shop":"supermarket","other":{"operator":"The Co-operative Group","addr:postcode":"WS6 6DZ"}}, "geometry":{"type":"MultiPolygon","coordinates":[[[[-2.0188,52.65752],[-2.01883,52.65777],[-2.01818,52.6578],[-2.01814,52.65756],[-2.0188,52.65752]]]]}},
{ "type":"Feature","properties":{"osm_way_id":"358226137","name":"The Co-operative Food","building":"yes","shop":"supermarket","other":{"operator":"Midcounties Co-operative Society","addr:postcode":"WS6 7AD"}}, "geometry":{"type":"MultiPolygon","coordinates":[[[[-2.03267,52.65947],[-2.03269,52.65954],[-2.03266,52.65959],[-2.03267,52.65964],[-2.03253,52.65966],[-2.03252,52.65963],[-2.03231,52.65965],[-2.03227,52.65951],[-2.03267,52.65947]]]]}},
{ "type":"Feature","properties":{"osm_way_id":"358227449","name":"The Co-operative Food","building":"yes","shop":"supermarket","other":{"operator":"The Midcounties Co-operative"}}, "geometry":{"type":"MultiPolygon","coordinates":[[[[-2.13576,52.65779],[-2.13562,52.65774],[-2.13571,52.65766],[-2.13569,52.65765],[-2.13574,52.65761],[-2.13584,52.65765],[-2.13587,52.65762],[-2.13593,52.65765],[-2.13576,52.65779]]]]}},
{ "type":"Feature","properties":{"osm_way_id":"612745319","name":"Co-op","building":"yes","shop":"supermarket"},"geometry":{"type":"MultiPolygon","coordinates":[[[[-2.18967,52.62499],[-2.18941,52.6249],[-2.18951,52.62477],[-2.18997,52.62492],[-2.18987,52.625],[-2.18972,52.62495],[-2.18967,52.62499]]]]}},
{ "type":"Feature","properties":{"osm_way_id":"698235308","name":"Co-operative Food","building":"yes","shop":"supermarket"},"geometry":{"type":"MultiPolygon","coordinates":[[[[-2.18618,52.5373],[-2.18621,52.53738],[-2.18611,52.53739],[-2.18614,52.53748],[-2.18646,52.53743],[-2.18639,52.53724],[-2.18627,52.53726],[-2.18628,52.53729],[-2.18618,52.5373]]]]}},
{ "type":"Feature","properties":{"osm_way_id":"713282569","name":"Co-op","building":"retail","shop":"supermarket","other":{"fhrs:id":"451302","operator":"The Co-operative Group","addr:city":"Penkridge","addr:street":"Wolverhampton Road","addr:postcode":"ST19 5NS"}}, "geometry":{"type":"MultiPolygon","coordinates":[[[[-2.11799,52.71711],[-2.11796,52.71715],[-2.11799,52.71716],[-2.11791,52.71728],[-2.11788,52.71727],[-2.11783,52.71734],[-2.11713,52.71716],[-2.11729,52.71693],[-2.11765,52.71703],[-2.11799,52.71711]]]]}}
]
}
