{
"type": "FeatureCollection",
"features": [
{ "type":"Feature","properties":{"osm_id":"691370654","name":"Sainsbury's","other":{"addr:city":"Derby","addr:housenumber":"2-6","addr:place":"Derbion","addr:postcode":"DE1 2NQ","addr:substreet":"Copecastle Square","brand":"Sainsbury's","brand:wikidata":"Q152096","brand:wikipedia":"en:Sainsbury's","fhrs:id":"460187","shop":"supermarket","wheelchair":"yes"}}, "geometry":{"type":"Point","coordinates":[-1.47214,52.91966 ]}},
{ "type":"Feature","properties":{"osm_id":"836518884","name":"Simply Local","other":{"addr:city":"Derby","addr:housenumber":"1270","addr:postcode":"DE24 8QP","addr:street":"London Road","brand":"Simply Local","old_brand":"The Co-operative Food","old_brand:wikidata":"Q3277439","old_brand:wikipedia":"en:Co-op Food","old_fhrs:id":"695888","old_name":"The Co-operative Food","shop":"supermarket"}}, "geometry":{"type":"Point","coordinates":[-1.42939,52.89708 ]}},
{ "type":"Feature","properties":{"osm_id":"1349533919","name":"Co-op Food","other":{"addr:city":"Derby","addr:housenumber":"3","addr:postcode":"DE73 6UD","addr:street":"Swarkestone Road","addr:suburb":"Chellaston","brand":"Co-op Food","brand:wikidata":"Q3277439","brand:wikipedia":"en:Co-op Food","fhrs:id":"712460","not:addr:postcode":"DE73 1TD","operator":"Central England Co-operative Society","shop":"supermarket"}}, "geometry":{"type":"Point","coordinates":[-1.43801,52.86845 ]}},
{ "type":"Feature","properties":{"osm_id":"1982157829","name":"Co-op Food","other":{"addr:city":"Derby","addr:housenumber":"187","addr:postcode":"DE22 2GN","addr:street":"Blenheim Drive","addr:suburb":"Allestree","brand":"Co-op Food","brand:wikidata":"Q3277439","brand:wikipedia":"en:Co-op Food","fhrs:id":"727611","operator":"Central England Co-operative Society","shop":"supermarket"}}, "geometry":{"type":"Point","coordinates":[-1.49406,52.95344 ]}},
{ "type":"Feature","properties":{"osm_id":"3262510560","name":"The Co-operative Food","other":{"addr:city":"Derby","addr:parentstreet":"Park Farm Drive","addr:place":"Park Farm Shopping Centre","addr:postcode":"DE22 2QN","addr:unit":"49","fhrs:id":"577437","opening_hours":"Mo-Sa 07:00-21:00, Su,PH 10:00-16:00","operator":"The Co-operative Group","shop":"supermarket"}}, "geometry":{"type":"Point","coordinates":[-1.49697,52.94347 ]}},
{ "type":"Feature","properties":{"osm_id":"5878102890","name":"Heron Foods","other":{"addr:city":"Derby","addr:country":"GB","addr:housename":"The Blue Boy","addr:postcode":"DE21 6EZ","addr:street":"Wiltshire Road","addr:unit":"1","brand":"Heron Foods","brand:wikidata":"Q5743472","brand:wikipedia":"en:Heron Foods","contact:website":"https:\/\/heronfoods.com\/storelocator\/store-details\/chaddesden","fhrs:id":"767234","shop":"supermarket"}}, "geometry":{"type":"Point","coordinates":[-1.44985,52.93044 ]}},
{ "type":"Feature","properties":{"osm_id":"5878102894","name":"Nisa Extra","other":{"addr:city":"Derby","addr:housenumber":"88","addr:postcode":"DE21 6EZ","addr:street":"Wiltshire Road","brand":"Nisa Extra","brand:wikidata":"Q16999069","brand:wikipedia":"en:Nisa (retailer)","shop":"supermarket"}}, "geometry":{"type":"Point","coordinates":[-1.45023,52.93071 ]}},
{ "type":"Feature","properties":{"osm_id":"5878812204","name":"The Co-operative Food","other":{"addr:city":"Derby","addr:housenumber":"432","addr:postcode":"DE22 2TF","addr:street":"Kedleston Road","brand":"The Co-operative Food","brand:wikidata":"Q3277439","brand:wikipedia":"en:Co-op Food","fhrs:id":"904461","shop":"supermarket"}}, "geometry":{"type":"Point","coordinates":[-1.50279,52.94435 ]}},
{ "type":"Feature","properties":{"osm_id":"6312673774","other":{"emergency":"defibrillator","indoor":"no"}}, "geometry":{"type":"Point","coordinates":[-1.44083,52.93737 ]}},
{ "type":"Feature","properties":{"osm_id":"6312678472","other":{"emergency":"defibrillator","indoor":"no"}}, "geometry":{"type":"Point","coordinates":[-1.42081,52.94806 ]}},
{ "type":"Feature","properties":{"osm_id":"6312678473","other":{"emergency":"defibrillator","indoor":"no"}}, "geometry":{"type":"Point","coordinates":[-1.45358,52.9431 ]}},
{ "type":"Feature","properties":{"osm_id":"8207175995","name":"Murugan store","other":{"addr:city":"Derby","addr:housenumber":"127","addr:postcode":"DE21 6NJ","addr:street":"Reginald Road South","opening_hours":"Mo-Su 07:00-21:00","phone":"+44 1332 671714","shop":"supermarket","website":"www.muruganstores.co.uk"}}, "geometry":{"type":"Point","coordinates":[-1.43445,52.9301 ]}},
{ "type":"Feature","properties":{"osm_id":"8349985061","other":{"generator:method":"photovoltaic","generator:output:electricity":"yes","generator:source":"solar","generator:type":"solar_photovoltaic_panel","location":"roof","power":"generator"}}, "geometry":{"type":"Point","coordinates":[-1.66197,51.22468 ]}},
{ "type":"Feature","properties":{"osm_id":"8349985199","other":{"generator:method":"photovoltaic","generator:output:electricity":"yes","generator:source":"solar","generator:type":"solar_photovoltaic_panel","location":"roof","power":"generator"}}, "geometry":{"type":"Point","coordinates":[-1.65896,51.23901 ]}},
{ "type":"Feature","properties":{"osm_id":"8821387078","highway":"give_way","other":{"direction":"backward"}}, "geometry":{"type":"Point","coordinates":[-3.0509,52.69804 ]}},
{ "type":"Feature","properties":{"osm_id":"8895105543","other":{"amenity":"parking_entrance"}}, "geometry":{"type":"Point","coordinates":[-1.54309,52.90386 ]}},
{ "type":"Feature","properties":{"osm_id":"8895105544","other":{"amenity":"parking_entrance"}}, "geometry":{"type":"Point","coordinates":[-1.54227,52.90411 ]}},
{ "type":"Feature","properties":{"osm_id":"9110829809","other":{"power":"pole"}}, "geometry":{"type":"Point","coordinates":[-5.18003,57.91266 ]}},
{ "type":"Feature","properties":{"osm_id":"9329336607","name":"Lakshmi Stores","other":{"addr:city":"Derby","addr:housenumber":"2","addr:postcode":"DE24 8JD","addr:street":"Pontefract Street","fhrs:id":"1432245","shop":"supermarket","website":"https:\/\/www.lakshmistores.com\/"}}, "geometry":{"type":"Point","coordinates":[-1.45181,52.8967 ]}},
{ "type":"Feature","properties":{"osm_id":"9383890064","name":"Super Oshee Market","other":{"addr:city":"Derby","addr:street":"Normanton Road","shop":"supermarket"}}, "geometry":{"type":"Point","coordinates":[-1.47709,52.91367 ]}},
{ "type":"Feature","properties":{"osm_way_id":"6215589","name":"The Food Warehouse","building":"yes","shop":"supermarket","other":{"addr:city":"Derby","addr:parentstreet":"Wyvern Way","addr:place":"Wyvern Retail Park","addr:postcode":"DE21 6NZ","addr:unit":"6","brand":"The Food Warehouse","brand:wikidata":"Q87263899","website":"https:\/\/www.thefoodwarehouse.com\/store-locator\/derby"}}, "geometry":{"type":"MultiPolygon","coordinates":[[[[-1.43701,52.91713],[-1.4374,52.91724],[-1.43709,52.91765],[-1.4367,52.91754],[-1.43701,52.91713]]]]}},
{ "type":"Feature","properties":{"osm_way_id":"30555035","name":"The Co-operative Food","building":"supermarket","shop":"supermarket","other":{"addr:city":"Derby","addr:country":"GB","addr:housenumber":"471-473","addr:postcode":"DE23 6FQ","addr:street":"Burton Road","addr:suburb":"Littleover","brand":"The Co-operative Food","brand:wikidata":"Q107617274","contact:website":"https:\/\/stores.centralengland.coop\/the-co-operative-food-littleover-5e2bfc218863","fhrs:id":"589057","operator":"Central England Co-operative","operator:wikidata":"Q16986583","wheelchair":"yes"}}, "geometry":{"type":"MultiPolygon","coordinates":[[[[-1.50359,52.90642],[-1.50395,52.90627],[-1.5038,52.90614],[-1.50397,52.90607],[-1.50381,52.90593],[-1.50328,52.90614],[-1.5033,52.90616],[-1.50359,52.90642]]]]}},
{ "type":"Feature","properties":{"osm_way_id":"32645165","name":"Tesco","building":"yes","shop":"supermarket","other":{"addr:city":"Derby","addr:postcode":"DE3 9NH","addr:street":"Kipling Drive","brand":"Tesco","brand:wikidata":"Q487494","brand:wikipedia":"en:Tesco","fhrs:id":"619139","wheelchair":"yes"}}, "geometry":{"type":"MultiPolygon","coordinates":[[[[-1.5421,52.90412],[-1.54214,52.9041],[-1.54218,52.90414],[-1.54223,52.90413],[-1.54227,52.90411],[-1.54231,52.9041],[-1.54234,52.90409],[-1.54235,52.9041],[-1.54237,52.90412],[-1.5428,52.90398],[-1.54287,52.90396],[-1.54285,52.90394],[-1.54304,52.90388],[-1.54309,52.90386],[-1.5432,52.90383],[-1.54322,52.90385],[-1.54345,52.90377],[-1.54356,52.90391],[-1.54343,52.90396],[-1.54353,52.90408],[-1.54309,52.90423],[-1.54334,52.90451],[-1.54272,52.9047],[-1.54256,52.90452],[-1.54252,52.90453],[-1.54245,52.90446],[-1.54233,52.90432],[-1.54227,52.90431],[-1.54223,52.90426],[-1.54216,52.90418],[-1.5421,52.90412]]]]}},
{ "type":"Feature","properties":{"osm_way_id":"36826512","name":"Asda","building":"yes","shop":"supermarket","other":{"addr:city":"Derby","addr:housename":"Sinfin District Centre","addr:postcode":"DE24 3DS","brand":"Asda","brand:wikidata":"Q297410","brand:wikipedia":"en:Asda","contact:facebook":"https:\/\/www.facebook.com\/asda\/","contact:twitter":"@asda","contact:website":"https:\/\/storelocator.asda.com\/east-midlands\/derby\/sinfin-shopping-centre","fhrs:id":"451995","operator":"Asda Stores Ltd"}}, "geometry":{"type":"MultiPolygon","coordinates":[[[[-1.49462,52.8766],[-1.49354,52.87659],[-1.49354,52.8765],[-1.49325,52.8765],[-1.49326,52.87616],[-1.49327,52.87601],[-1.49315,52.87601],[-1.49316,52.87585],[-1.49322,52.87585],[-1.49357,52.87586],[-1.49358,52.8758],[-1.49433,52.87581],[-1.49433,52.87586],[-1.49448,52.87587],[-1.49449,52.87581],[-1.49455,52.87581],[-1.49466,52.87581],[-1.49462,52.8766]]]]}},
{ "type":"Feature","properties":{"osm_way_id":"54627590","name":"Lidl","building":"yes","shop":"supermarket","other":{"addr:city":"Derby","addr:parentstreet":"Normanton Road","addr:place":"Southgate Retail Park","addr:postcode":"DE23 6UQ","addr:unit":"1","brand":"Lidl","brand:wikidata":"Q151954","brand:wikipedia":"en:Lidl","fhrs:id":"679711","not:addr:postcode":"DE1 2GJ","wheelchair":"yes"}}, "geometry":{"type":"MultiPolygon","coordinates":[[[[-1.47827,52.91375],[-1.47738,52.9138],[-1.47735,52.9135],[-1.47845,52.91344],[-1.47846,52.91351],[-1.47838,52.91351],[-1.47839,52.91355],[-1.47831,52.91356],[-1.47832,52.9137],[-1.47827,52.9137],[-1.47827,52.91375]]]]}},
{ "type":"Feature","properties":{"osm_way_id":"54733263","name":"ALDI","building":"yes","shop":"supermarket","other":{"addr:city":"Derby","addr:postcode":"DE22 3HN","addr:street":"Southmead Way","brand":"ALDI","brand:wikidata":"Q41171672","brand:wikipedia":"en:Aldi","fhrs:id":"455292"}}, "geometry":{"type":"MultiPolygon","coordinates":[[[[-1.51627,52.91302],[-1.51555,52.9132],[-1.51547,52.91307],[-1.51554,52.91305],[-1.51548,52.91296],[-1.51621,52.91278],[-1.51632,52.91294],[-1.51623,52.91296],[-1.51627,52.91302]]]]}},
{ "type":"Feature","properties":{"osm_way_id":"55892031","name":"Sainsbury's","building":"yes","shop":"supermarket","other":{"addr:city":"Derby","addr:postcode":"DE24 8EB","addr:street":"Peak Drive","brand":"Sainsbury's","brand:wikidata":"Q152096","brand:wikipedia":"en:Sainsbury's","fhrs:id":"530653","wheelchair":"yes"}}, "geometry":{"type":"MultiPolygon","coordinates":[[[[-1.47312,52.89442],[-1.47279,52.89517],[-1.47238,52.89511],[-1.47177,52.89501],[-1.47143,52.89495],[-1.47178,52.89414],[-1.47209,52.89419],[-1.47207,52.89425],[-1.47312,52.89442]]]]}},
{ "type":"Feature","properties":{"osm_way_id":"55892033","name":"Lidl","building":"yes","shop":"supermarket","other":{"addr:city":"Derby","addr:parentstreet":"Sinfin Lane","addr:place":"Foresters Leisure Park","addr:postcode":"DE23 8AG","brand":"Lidl","brand:wikidata":"Q151954","brand:wikipedia":"en:Lidl","fhrs:id":"216096;1452703","old_name":"Buzz Bingo","old_name:2":"Gala Bingo"}}, "geometry":{"type":"MultiPolygon","coordinates":[[[[-1.47848,52.89665],[-1.47771,52.89673],[-1.4776,52.89633],[-1.47838,52.89626],[-1.47848,52.89665]]]]}},
{ "type":"Feature","properties":{"osm_way_id":"56777450","name":"Chung Wah Chinese Supermarket","building":"yes","shop":"supermarket","other":{"addr:city":"Derby","addr:housenumber":"1-2","addr:postcode":"DE1 2LS","addr:street":"Wilmot Street","fhrs:id":"772452","not:addr:postcode":"DE1 2JJ","opening_hours":"Mo-Sa 10:30- 5:30, Su 11:30- 4","phone":"+44 1332 299338"}}, "geometry":{"type":"MultiPolygon","coordinates":[[[[-1.47454,52.91728],[-1.47477,52.91722],[-1.4747,52.91713],[-1.47448,52.91719],[-1.47454,52.91728]]]]}},
{ "type":"Feature","properties":{"osm_way_id":"60270901","name":"Asda","building":"yes","shop":"supermarket","other":{"addr:city":"Derby","addr:country":"GB","addr:postcode":"DE21 7LW","addr:street":"Derby Road","addr:suburb":"Spondon","brand":"Asda","brand:wikidata":"Q297410","brand:wikipedia":"en:Asda","contact:facebook":"https:\/\/www.facebook.com\/asda\/","contact:phone":"+44 1332 661751","contact:twitter":"@asda","contact:website":"https:\/\/storelocator.asda.com\/east-midlands\/spondon\/derby-road","fhrs:id":"460188;1373120","opening_hours":"Mo 08:00-24:00; Tu-Fr 00:00-24:00; Sa 00:00-22:00; Su 10:00-16:00","opening_hours:covid19":"Mo-Sa 08:00-22:00; Su 10:00-16:00","operator":"Asda Stores Ltd"}}, "geometry":{"type":"MultiPolygon","coordinates":[[[[-1.4194,52.91756],[-1.41914,52.91665],[-1.41896,52.91667],[-1.41892,52.91652],[-1.41911,52.9165],[-1.41906,52.91631],[-1.41992,52.91622],[-1.42002,52.91626],[-1.42004,52.91636],[-1.42017,52.91634],[-1.42021,52.91637],[-1.42027,52.91661],[-1.42057,52.91658],[-1.4207,52.91706],[-1.42082,52.91705],[-1.42085,52.91716],[-1.42055,52.91719],[-1.42062,52.91744],[-1.4194,52.91756]]]]}},
{ "type":"Feature","properties":{"osm_way_id":"61903470","name":"Heron Foods","building":"yes","shop":"supermarket","other":{"addr:city":"Derby","addr:country":"GB","addr:housenumber":"840","addr:postcode":"DE24 9AB","addr:street":"Osmaston Road","addr:suburb":"Allenton","brand":"Heron Foods","brand:wikidata":"Q5743472","brand:wikipedia":"en:Heron Foods","fhrs:id":"1432243","old_fhrs:id":"589074;687872","old_name":"Allenton's Co-op","old_operator":"The Co-operative Group"}}, "geometry":{"type":"MultiPolygon","coordinates":[[[[-1.45222,52.89006],[-1.4522,52.89003],[-1.45253,52.88993],[-1.45266,52.89009],[-1.45207,52.89027],[-1.45197,52.89013],[-1.45222,52.89006]]]]}},
{ "type":"Feature","properties":{"osm_way_id":"65621371","name":"Sainsbury's","building":"yes","shop":"supermarket","other":{"addr:city":"Derby","addr:postcode":"DE22 3FA","addr:street":"Kingsway","brand":"Sainsbury's","brand:wikidata":"Q152096","brand:wikipedia":"en:Sainsbury's","fhrs:id":"451990","not:addr:postcode":"DE22 3NH","opening_hours":"Mo-Sa 07:00-22:00; Su 10:00-16:00","operator":"Sainsbury's","phone":"+44 133 229 1180","website":"https:\/\/stores.sainsburys.co.uk\/0871\/kingsway","wheelchair":"yes"}}, "geometry":{"type":"MultiPolygon","coordinates":[[[[-1.50866,52.92082],[-1.50884,52.92069],[-1.50877,52.92065],[-1.50887,52.92059],[-1.50894,52.92062],[-1.50904,52.92055],[-1.50914,52.9206],[-1.50962,52.92026],[-1.51055,52.92075],[-1.50985,52.92122],[-1.50954,52.92106],[-1.50935,52.92119],[-1.50874,52.92086],[-1.50866,52.92082]]]]}},
{ "type":"Feature","properties":{"osm_way_id":"65621653","name":"M&S Simply Food","building":"yes","shop":"supermarket","other":{"addr:city":"Derby","addr:postcode":"DE22 3NH","addr:street":"Kingsway","brand":"M&S Simply Food","brand:wikidata":"Q714491","brand:wikipedia":"en:Marks & Spencer","fhrs:id":"530646"}}, "geometry":{"type":"MultiPolygon","coordinates":[[[[-1.50559,52.91976],[-1.5057,52.91997],[-1.50532,52.92004],[-1.50521,52.91982],[-1.50559,52.91976]]]]}},
{ "type":"Feature","properties":{"osm_way_id":"72351641","name":"Tesco Bracknell North","building":"yes","shop":"supermarket","other":{"addr:city":"Bracknell","addr:postcode":"RG42 3JP","addr:street":"County Lane","brand":"Tesco","brand:wikidata":"Q487494","brand:wikipedia":"en:Tesco"}}, "geometry":{"type":"MultiPolygon","coordinates":[[[[-0.73069,51.42744],[-0.73079,51.42688],[-0.73084,51.42689],[-0.73087,51.42674],[-0.73084,51.42674],[-0.73088,51.42655],[-0.73091,51.42655],[-0.73094,51.42641],[-0.7313,51.42643],[-0.73148,51.42645],[-0.73154,51.42645],[-0.73154,51.42642],[-0.73173,51.42643],[-0.73192,51.42657],[-0.73189,51.4267],[-0.73197,51.42671],[-0.73189,51.42712],[-0.73178,51.42712],[-0.73176,51.42721],[-0.73155,51.42719],[-0.7315,51.42746],[-0.7315,51.42746],[-0.73149,51.4275],[-0.73136,51.42749],[-0.73127,51.42748],[-0.73102,51.42747],[-0.73069,51.42744]]]]}},
{ "type":"Feature","properties":{"osm_way_id":"75672934","name":"ALDI","building":"yes","shop":"supermarket","other":{"addr:city":"Derby","addr:parentstreet":"Mansfield Road","addr:place":"The Meteor Centre","addr:postcode":"DE21 4SY","brand":"ALDI","brand:wikidata":"Q41171672","brand:wikipedia":"en:Aldi","fhrs:id":"628541"}}, "geometry":{"type":"MultiPolygon","coordinates":[[[[-1.4628,52.94223],[-1.46251,52.9422],[-1.46249,52.94224],[-1.46241,52.94223],[-1.46231,52.94252],[-1.46224,52.94251],[-1.46221,52.94262],[-1.46219,52.94266],[-1.46226,52.94267],[-1.46223,52.94276],[-1.46243,52.94279],[-1.46245,52.94272],[-1.46262,52.94274],[-1.4628,52.94223]]]]}},
{ "type":"Feature","properties":{"osm_way_id":"75672939","name":"Morrisons","building":"yes","shop":"supermarket","other":{"addr:city":"Derby","addr:postcode":"DE21 4RY","addr:street":"Wheatcroft Way","brand":"Morrisons","brand:wikidata":"Q922344","brand:wikipedia":"en:Morrisons","fhrs:id":"466358","not:addr:postcode":"DE21 4RX","wheelchair":"yes"}}, "geometry":{"type":"MultiPolygon","coordinates":[[[[-1.46312,52.94591],[-1.46339,52.94511],[-1.46303,52.94507],[-1.46304,52.94506],[-1.46297,52.94505],[-1.46298,52.94501],[-1.46262,52.94496],[-1.46258,52.94492],[-1.46248,52.94491],[-1.46244,52.94493],[-1.46241,52.9449],[-1.46231,52.94493],[-1.46224,52.94496],[-1.46228,52.94499],[-1.46224,52.945],[-1.46221,52.94501],[-1.4622,52.94506],[-1.46225,52.9451],[-1.4622,52.94525],[-1.46236,52.94527],[-1.46216,52.94579],[-1.4623,52.9458],[-1.4622,52.94607],[-1.46251,52.94611],[-1.46256,52.94598],[-1.46297,52.94603],[-1.46302,52.9459],[-1.46312,52.94591]]]]}},
{ "type":"Feature","properties":{"osm_way_id":"78324129","name":"Pak Foods","building":"yes","shop":"supermarket","other":{"addr:city":"Derby","addr:housenumber":"309-331","addr:postcode":"DE23 6UU","addr:street":"Normanton Road","description":"Supermarket specialising in Asian foods but also with standard supermarket foods and goods","fhrs:id":"643042","not:addr:postcode":"DE1 2GJ","website":"pakfoods.net"}}, "geometry":{"type":"MultiPolygon","coordinates":[[[[-1.47861,52.90931],[-1.47845,52.90957],[-1.47842,52.90956],[-1.47822,52.90952],[-1.47824,52.90948],[-1.47791,52.90941],[-1.47792,52.90939],[-1.47794,52.90936],[-1.47807,52.90938],[-1.47809,52.90935],[-1.47811,52.90932],[-1.47813,52.90928],[-1.47815,52.90925],[-1.47817,52.90921],[-1.47854,52.90929],[-1.47854,52.9093],[-1.47861,52.90931]]]]}},
{ "type":"Feature","properties":{"osm_way_id":"79271654","name":"Super Sam","building":"yes","shop":"supermarket","other":{"addr:city":"Derby","addr:housenumber":"180-182","addr:postcode":"DE23 8NQ","addr:street":"Pear Tree Road","fhrs:id":"727619"}}, "geometry":{"type":"MultiPolygon","coordinates":[[[[-1.47555,52.90477],[-1.47546,52.90487],[-1.47537,52.90484],[-1.47535,52.90486],[-1.47548,52.9049],[-1.4754,52.90499],[-1.47517,52.90492],[-1.47504,52.90483],[-1.47511,52.9047],[-1.4754,52.9048],[-1.47545,52.90474],[-1.47555,52.90477]]]]}},
{ "type":"Feature","properties":{"osm_way_id":"107387234","name":"The Co-operative Food","building":"yes","shop":"supermarket","other":{"addr:city":"Derby","addr:housenumber":"93","addr:postcode":"DE24 0LX","addr:street":"Holbrook Road","brand":"The Co-operative Food","brand:wikidata":"Q3277439","brand:wikipedia":"en:Co-op Food","fhrs:id":"695887","operator":"Central England Co-operative Society"}}, "geometry":{"type":"MultiPolygon","coordinates":[[[[-1.42182,52.8889],[-1.42183,52.88872],[-1.42179,52.88872],[-1.42167,52.88872],[-1.42151,52.88871],[-1.4215,52.8889],[-1.42182,52.8889]]]]}},
{ "type":"Feature","properties":{"osm_way_id":"111662215","name":"ALDI","building":"retail","shop":"supermarket","other":{"addr:city":"Derby","addr:postcode":"DE21 6LZ","addr:street":"Nottingham Road","brand":"ALDI","brand:wikidata":"Q41171672","brand:wikipedia":"en:Aldi","building:levels":"1","fhrs:id":"643043","not:addr:postcode":"DE21 7NF","opening_hours":"Mo-Sa 08:00-10:00; Su 10:00-16:00; PH 08:00-20:00","roof:levels":"1"}}, "geometry":{"type":"MultiPolygon","coordinates":[[[[-1.43656,52.92403],[-1.43638,52.92397],[-1.43642,52.92392],[-1.43626,52.92387],[-1.4365,52.92363],[-1.43645,52.92361],[-1.43657,52.92349],[-1.43696,52.92362],[-1.43656,52.92403]]]]}},
{ "type":"Feature","properties":{"osm_way_id":"113526917","name":"Co-op Food","building":"retail","shop":"supermarket","other":{"addr:city":"Derby","addr:housename":"Unit 1, District Centre","addr:postcode":"DE23 3TZ","addr:street":"Hollybrook Way","brand":"Co-op Food","brand:wikidata":"Q3277439","brand:wikipedia":"en:Co-op Food","fhrs:id":"718670","not:addr:postcode":"DE23 7TU","operator":"Central England Co-operative Society"}}, "geometry":{"type":"MultiPolygon","coordinates":[[[[-1.53153,52.89272],[-1.53144,52.89278],[-1.53158,52.89286],[-1.5318,52.8927],[-1.53177,52.89269],[-1.53179,52.89267],[-1.53168,52.89261],[-1.53165,52.89263],[-1.53153,52.89272]]]]}},
{ "type":"Feature","properties":{"osm_way_id":"114394674","name":"Co-op Food","building":"yes","shop":"supermarket","other":{"addr:city":"Derby","addr:parentstreet":"Danebridge Crescent","addr:place":"Oakwood District Centre","addr:postcode":"DE21 2HT","addr:suburb":"Oakwood","addr:unit":"1","brand":"Co-op Food","brand:wikidata":"Q3277439","brand:wikipedia":"en:Co-op Food","fhrs:id":"577436","operator":"The Co-operative Group"}}, "geometry":{"type":"MultiPolygon","coordinates":[[[[-1.43196,52.94112],[-1.43222,52.94098],[-1.43271,52.94131],[-1.43251,52.94142],[-1.43241,52.94147],[-1.43231,52.9414],[-1.43235,52.94138],[-1.43196,52.94112]]]]}},
{ "type":"Feature","properties":{"osm_way_id":"151468358","name":"Sainsbury's","building":"retail","shop":"supermarket","other":{"addr:city":"Derby","addr:postcode":"DE21 6NZ","addr:street":"Wyvern Way","brand":"Sainsbury's","brand:wikidata":"Q152096","brand:wikipedia":"en:Sainsbury's","fhrs:id":"1035812","wheelchair":"yes"}}, "geometry":{"type":"MultiPolygon","coordinates":[[[[-1.43414,52.91571],[-1.43401,52.91581],[-1.43408,52.91584],[-1.43405,52.91586],[-1.43411,52.91589],[-1.43399,52.91598],[-1.43417,52.91607],[-1.43382,52.91633],[-1.43385,52.91634],[-1.43367,52.91648],[-1.43359,52.91654],[-1.43331,52.9164],[-1.43332,52.91639],[-1.43322,52.91634],[-1.43321,52.91635],[-1.43279,52.91614],[-1.43288,52.91607],[-1.43261,52.91594],[-1.43264,52.91592],[-1.4326,52.9159],[-1.43252,52.91586],[-1.4331,52.91544],[-1.43306,52.91542],[-1.43321,52.91531],[-1.43324,52.91533],[-1.43331,52.91528],[-1.43381,52.91553],[-1.43396,52.91561],[-1.43405,52.91565],[-1.43407,52.91566],[-1.43406,52.91567],[-1.43414,52.91571]]]]}},
{ "type":"Feature","properties":{"osm_way_id":"160017094","name":"The Co-operative Food","building":"yes","shop":"supermarket","other":{"addr:city":"Derby","addr:housenumber":"69","addr:postcode":"DE22 4BG","addr:street":"Prince Charles Avenue","brand":"The Co-operative Food","brand:wikidata":"Q3277439","brand:wikipedia":"en:Co-op Food","fhrs:id":"687932","operator":"Central England Co-operative Society"}}, "geometry":{"type":"MultiPolygon","coordinates":[[[[-1.51805,52.9284],[-1.51797,52.92826],[-1.51793,52.92821],[-1.51761,52.92831],[-1.51772,52.92848],[-1.51805,52.9284]]]]}},
{ "type":"Feature","properties":{"osm_way_id":"169739432","name":"Lidl","building":"yes","shop":"supermarket","other":{"addr:city":"Derby","addr:postcode":"DE73 5UA","addr:street":"Swarkestone Road","brand":"Lidl","brand:wikidata":"Q151954","brand:wikipedia":"en:Lidl","fhrs:id":"1271434","not:addr:postcode":"DE73 1UD"}}, "geometry":{"type":"MultiPolygon","coordinates":[[[[-1.43783,52.86733],[-1.43894,52.86708],[-1.43911,52.86736],[-1.43894,52.86739],[-1.43891,52.86735],[-1.43797,52.86755],[-1.43783,52.86733]]]]}},
{ "type":"Feature","properties":{"osm_way_id":"215306437","name":"Lidl","building":"yes","shop":"supermarket","other":{"addr:city":"Derby","addr:postcode":"DE24 0DW","addr:street":"Raynesway","brand":"Lidl","brand:wikidata":"Q151954","brand:wikipedia":"en:Lidl","fhrs:id":"1334045"}}, "geometry":{"type":"MultiPolygon","coordinates":[[[[-1.42667,52.89968],[-1.42664,52.8996],[-1.42668,52.8995],[-1.42684,52.89926],[-1.42692,52.89914],[-1.42726,52.89877],[-1.42734,52.8988],[-1.42821,52.89901],[-1.42802,52.89936],[-1.4277,52.89932],[-1.42753,52.89967],[-1.42747,52.89986],[-1.42681,52.89977],[-1.42667,52.89968]]]]}},
{ "type":"Feature","properties":{"osm_way_id":"224128562","name":"Co-op Food","building":"yes","shop":"supermarket","other":{"addr:city":"Derby","addr:housenumber":"497-499","addr:postcode":"DE21 6NA","addr:street":"Nottingham Road","brand":"Co-op Food","brand:wikidata":"Q3277439","brand:wikipedia":"en:Co-op Food","fhrs:id":"679713","not:addr:postcode":"DE21 7NF"}}, "geometry":{"type":"MultiPolygon","coordinates":[[[[-1.43956,52.92481],[-1.43947,52.92488],[-1.43949,52.92489],[-1.43931,52.92504],[-1.43915,52.92498],[-1.43928,52.92487],[-1.43924,52.92486],[-1.43934,52.92478],[-1.43937,52.9248],[-1.43943,52.92475],[-1.43956,52.92481]]]]}},
{ "type":"Feature","properties":{"osm_way_id":"256925930","name":"The Co-operative Food","building":"supermarket","shop":"supermarket","other":{"addr:city":"Derby","addr:housenumber":"622","addr:postcode":"DE24 8GS","addr:street":"Osmaston Road","brand":"The Co-operative Food","brand:wikidata":"Q3277439","brand:wikipedia":"en:Co-op Food","fhrs:id":"441869","operator":"Central England Co-operative Society"}}, "geometry":{"type":"MultiPolygon","coordinates":[[[[-1.45805,52.89788],[-1.45798,52.89767],[-1.45777,52.89769],[-1.45785,52.8979],[-1.45805,52.89788]]]]}},
{ "type":"Feature","properties":{"osm_way_id":"261734978","name":"The Co-operative Food","building":"supermarket","shop":"supermarket","other":{"addr:city":"Derby","addr:postcode":"DE22 3AS","addr:street":"Ashbourne Road","brand":"The Co-operative Food","brand:wikidata":"Q3277439","brand:wikipedia":"en:Co-op Food","fhrs:id":"687891","operator":"Central England Co-operative Society","wheelchair":"yes"}}, "geometry":{"type":"MultiPolygon","coordinates":[[[[-1.49615,52.9267],[-1.49606,52.92683],[-1.49562,52.92672],[-1.49572,52.92658],[-1.49615,52.9267]]]]}},
{ "type":"Feature","properties":{"osm_way_id":"264025016","name":"The Co-operative Food","building":"yes","shop":"supermarket","other":{"addr:city":"Derby","addr:housenumber":"10","addr:postcode":"DE21 4DG","addr:street":"Scarborough Rise","brand":"The Co-operative Food","brand:wikidata":"Q107617274","brand:wikipedia":"en:The Co-operative Food","fhrs:id":"718694","opening_hours":"Mo-Su 07:00-21:00","operator":"Central England Co-operative","operator:wikidata":"Q16986583"}}, "geometry":{"type":"MultiPolygon","coordinates":[[[[-1.45385,52.94317],[-1.4537,52.94302],[-1.45359,52.94307],[-1.45361,52.94309],[-1.45358,52.9431],[-1.45343,52.94315],[-1.45355,52.94328],[-1.45385,52.94317]]]]}},
{ "type":"Feature","properties":{"osm_way_id":"319789929","name":"The Co-operative Food","building":"yes","shop":"supermarket","other":{"addr:city":"Derby","addr:housenumber":"49","addr:postcode":"DE21 2SF","addr:street":"Smalley Drive","brand":"The Co-operative Food","brand:wikidata":"Q107617274","fhrs:id":"451959","operator":"Central England Co-operative","operator:wikidata":"Q16986583"}}, "geometry":{"type":"MultiPolygon","coordinates":[[[[-1.42101,52.94788],[-1.42091,52.94808],[-1.42081,52.94806],[-1.42071,52.94804],[-1.42074,52.94798],[-1.42075,52.94796],[-1.42081,52.94784],[-1.42084,52.9478],[-1.42093,52.94782],[-1.42091,52.94785],[-1.42101,52.94788]]]]}},
{ "type":"Feature","properties":{"osm_way_id":"319789949","name":"The Co-operative Food","building":"yes","shop":"supermarket","other":{"addr:city":"Derby","addr:postcode":"DE21 6HW","addr:street":"Wollaton Road","brand":"The Co-operative Food","brand:wikidata":"Q107617274","brand:wikipedia":"en:The Co-operative Food","fhrs:id":"695850","not:addr:postcode":"DE21 4HX","opening_hours":"Mo-Sa 07:00-21:00; Su 08:00-20:00","operator":"Central England Co-operative","operator:wikidata":"Q16986583"}}, "geometry":{"type":"MultiPolygon","coordinates":[[[[-1.44108,52.93724],[-1.44114,52.9374],[-1.44086,52.93744],[-1.44083,52.93737],[-1.4408,52.93729],[-1.44108,52.93724]]]]}},
{ "type":"Feature","properties":{"osm_way_id":"319789987","name":"The Co-operative Food","building":"yes","shop":"supermarket","other":{"addr:city":"Derby","addr:housenumber":"43","addr:postcode":"DE21 6GR","addr:street":"Sussex Circus","brand":"The Co-operative Food","brand:wikidata":"Q107617274","brand:wikipedia":"en:The Co-operative Food","fhrs:id":"718695","opening_hours":"Mo-Su 07:00-22:00","operator":"Central England Co-operative","operator:wikidata":"Q16986583"}}, "geometry":{"type":"MultiPolygon","coordinates":[[[[-1.45063,52.93383],[-1.45053,52.93393],[-1.45075,52.93413],[-1.45089,52.93413],[-1.45088,52.93408],[-1.45075,52.93396],[-1.45084,52.93393],[-1.45077,52.93387],[-1.45063,52.93383]]]]}},
{ "type":"Feature","properties":{"osm_way_id":"321290871","name":"Co-op Food","building":"yes","shop":"supermarket","other":{"addr:city":"Derby","addr:housenumber":"27-29","addr:postcode":"DE24 0HL","addr:street":"Crayford Road","brand":"Co-op Food","brand:wikidata":"Q3277439","brand:wikipedia":"en:Co-op Food","fhrs:id":"712442","operator":"Central England Co-operative Society"}}, "geometry":{"type":"MultiPolygon","coordinates":[[[[-1.4353,52.88811],[-1.43506,52.88824],[-1.43477,52.88803],[-1.43509,52.88787],[-1.43528,52.888],[-1.43521,52.88804],[-1.4353,52.88811]]]]}},
{ "type":"Feature","properties":{"osm_way_id":"344384392","name":"Aldi","building":"supermarket","shop":"supermarket","other":{"addr:city":"Derby","addr:postcode":"DE24 8NH","addr:street":"Coleman Street","brand":"ALDI","brand:wikidata":"Q41171672","brand:wikipedia":"en:Aldi","fhrs:id":"767227","not:addr:postcode":"DE24 8MH","wheelchair":"yes"}}, "geometry":{"type":"MultiPolygon","coordinates":[[[[-1.44547,52.89323],[-1.44542,52.89296],[-1.44538,52.89296],[-1.44456,52.89303],[-1.4446,52.89321],[-1.4445,52.89322],[-1.44451,52.8933],[-1.44547,52.89323]]]]}},
{ "type":"Feature","properties":{"osm_way_id":"533859889","name":"The Co-operative Food","building":"yes","shop":"supermarket","other":{"addr:city":"Derby","addr:postcode":"DE21 6UZ","addr:street":"Lexington Road","fhrs:id":"1020708","old_name":"The Kingfisher","operator":"Central England Co-operative"}}, "geometry":{"type":"MultiPolygon","coordinates":[[[[-1.42353,52.92279],[-1.42343,52.92279],[-1.42343,52.92277],[-1.42319,52.92278],[-1.42319,52.92266],[-1.42341,52.92266],[-1.42341,52.9227],[-1.42353,52.9227],[-1.42353,52.92279]]]]}},
{ "type":"Feature","properties":{"osm_way_id":"746731312","name":"Lidl","building":"commercial","shop":"supermarket","other":{"addr:city":"Derby","addr:housenumber":"469-479","addr:postcode":"DE21 6NA","addr:street":"Nottingham Road","brand":"Lidl","brand:wikidata":"Q151954","brand:wikipedia":"en:Lidl","fhrs:id":"451945"}}, "geometry":{"type":"MultiPolygon","coordinates":[[[[-1.44058,52.92567],[-1.44063,52.92569],[-1.44101,52.92545],[-1.44065,52.92526],[-1.44002,52.92568],[-1.44011,52.92573],[-1.44013,52.92574],[-1.44019,52.9257],[-1.44038,52.92581],[-1.44058,52.92567]]]]}},
{ "type":"Feature","properties":{"osm_way_id":"748825988","name":"The Co-operative Food","building":"yes","shop":"supermarket","other":{"addr:city":"Derby","addr:postcode":"DE24 0UQ","addr:street":"Bembridge Drive","brand":"The Co-operative Food","brand:wikidata":"Q3277439","brand:wikipedia":"en:Co-op Food","fhrs:id":"1057410","not:addr:postcode":"DE24 8UQ"}}, "geometry":{"type":"MultiPolygon","coordinates":[[[[-1.41455,52.88689],[-1.41443,52.88678],[-1.41424,52.88685],[-1.41434,52.88696],[-1.41455,52.88689]]]]}},
{ "type":"Feature","properties":{"osm_way_id":"844216099","name":"ALDI","building":"yes","shop":"supermarket","other":{"addr:city":"Derby","addr:postcode":"DE1 1TH","addr:street":"Burton Road","brand":"ALDI","brand:wikidata":"Q41171672","brand:wikipedia":"en:Aldi","fhrs:id":"1050407"}}, "geometry":{"type":"MultiPolygon","coordinates":[[[[-1.48014,52.91595],[-1.48007,52.91599],[-1.4801,52.91601],[-1.47982,52.91618],[-1.47956,52.91603],[-1.4796,52.91601],[-1.47923,52.91578],[-1.47933,52.91573],[-1.47944,52.91566],[-1.47939,52.91563],[-1.4795,52.91556],[-1.47955,52.91559],[-1.4796,52.91556],[-1.47977,52.91565],[-1.47971,52.91569],[-1.48014,52.91595]]]]}},
{ "type":"Feature","properties":{"osm_way_id":"974936368","name":"SuperSam XL","building":"yes","shop":"supermarket","other":{"addr:city":"Derby","addr:housenumber":"80","addr:postcode":"DE1 2GH","addr:street":"Normanton Road","contact:facebook":"https:\/\/www.facebook.com\/SuperSam-Xl-146218670890668"}}, "geometry":{"type":"MultiPolygon","coordinates":[[[[-1.47801,52.91502],[-1.47831,52.91487],[-1.47848,52.91502],[-1.47842,52.91505],[-1.4786,52.91521],[-1.47832,52.91534],[-1.4782,52.91527],[-1.47801,52.91502]]]]}}
]
}
