{
"type": "FeatureCollection",
"features": [
{ "type":"Feature","properties":{"osm_id":"626071694","other":{"odbl":"clean"}}, "geometry":{"type":"Point","coordinates":[-1.51109,52.44482 ]}},
{ "type":"Feature","properties":{"osm_id":"626071696","other":{"odbl":"clean"}}, "geometry":{"type":"Point","coordinates":[-1.51111,52.44524 ]}},
{ "type":"Feature","properties":{"osm_id":"626071699","other":{"odbl":"clean"}}, "geometry":{"type":"Point","coordinates":[-1.51202,52.44523 ]}},
{ "type":"Feature","properties":{"osm_id":"626071701","other":{"odbl":"clean"}}, "geometry":{"type":"Point","coordinates":[-1.512,52.44481 ]}},
{ "type":"Feature","properties":{"osm_id":"858057321","name":"S & K Supermarket","other":{"shop":"supermarket"}}, "geometry":{"type":"Point","coordinates":[-1.52618,52.4169 ]}},
{ "type":"Feature","properties":{"osm_id":"2692862837","name":"Dhaliwal Supermarket","other":{"shop":"supermarket"}}, "geometry":{"type":"Point","coordinates":[-1.49926,52.42849 ]}},
{ "type":"Feature","properties":{"osm_id":"2692863591","name":"Opus Foods","other":{"shop":"supermarket"}}, "geometry":{"type":"Point","coordinates":[-1.49921,52.42855 ]}},
{ "type":"Feature","properties":{"osm_id":"2694726892","name":"New Land Cash And Carry","other":{"shop":"supermarket"}}, "geometry":{"type":"Point","coordinates":[-1.49191,52.43961 ]}},
{ "type":"Feature","properties":{"osm_id":"2698135762","name":"Lal And Sons Cash And Carry","other":{"shop":"supermarket"}}, "geometry":{"type":"Point","coordinates":[-1.49979,52.41833 ]}},
{ "type":"Feature","properties":{"osm_id":"2712504981","name":"Costcutter","other":{"addr:city":"Coventry","addr:street":"Alfall Road","brand":"Costcutter","brand:wikidata":"Q5175072","brand:wikipedia":"en:Costcutter","shop":"supermarket"}}, "geometry":{"type":"Point","coordinates":[-1.47847,52.41897 ]}},
{ "type":"Feature","properties":{"osm_id":"2712660365","name":"simplyfresh","other":{"shop":"supermarket"}}, "geometry":{"type":"Point","coordinates":[-1.50475,52.40731 ]}},
{ "type":"Feature","properties":{"osm_id":"3750474967","name":"Nisa Local Earlsdon","other":{"addr:city":"Coventry","addr:housenumber":"23-25","addr:postcode":"CV1 3GJ","addr:street":"Butts","fhrs:id":"239615","opening_hours":"07:00-00:00","operator":"Nisa","shop":"supermarket","source:addr":"FHRS Open Data","website":"http:\/\/www.nisalocally.co.uk\/store\/nisa-local-23-25-the-butts-coventry"}}, "geometry":{"type":"Point","coordinates":[-1.52177,52.40479 ]}},
{ "type":"Feature","properties":{"osm_id":"5511302296","name":"Top Express Oriental Supermarket","other":{"shop":"supermarket"}}, "geometry":{"type":"Point","coordinates":[-1.50783,52.40953 ]}},
{ "type":"Feature","properties":{"osm_id":"6308548810","name":"Costcutter","other":{"brand":"Costcutter","brand:wikidata":"Q5175072","brand:wikipedia":"en:Costcutter","shop":"supermarket"}}, "geometry":{"type":"Point","coordinates":[-1.55969,52.40387 ]}},
{ "type":"Feature","properties":{"osm_id":"6312819131","name":"Costcutter","other":{"addr:city":"Coventry","addr:housenumber":"23","addr:postcode":"CV3 2HE","addr:street":"Princethorpe Way","brand":"Costcutter","brand:wikidata":"Q5175072","brand:wikipedia":"en:Costcutter","fhrs:id":"240123","shop":"supermarket"}}, "geometry":{"type":"Point","coordinates":[-1.45102,52.4014 ]}},
{ "type":"Feature","properties":{"osm_id":"6353265405","name":"Costcutter","other":{"addr:city":"Coventry","addr:housenumber":"77","addr:street":"Courtland Avenue","brand":"Costcutter","brand:wikidata":"Q5175072","brand:wikipedia":"en:Costcutter","shop":"supermarket"}}, "geometry":{"type":"Point","coordinates":[-1.53807,52.42054 ]}},
{ "type":"Feature","properties":{"osm_id":"8772517433","name":"Wah Yan Hong","other":{"shop":"supermarket"}}, "geometry":{"type":"Point","coordinates":[-1.5108,52.407 ]}},
{ "type":"Feature","properties":{"osm_way_id":"25290702","name":"Sainsbury's","building":"yes","shop":"supermarket","other":{"brand":"Sainsbury's","brand:wikidata":"Q152096","brand:wikipedia":"en:Sainsbury's","wheelchair":"yes"}}, "geometry":{"type":"MultiPolygon","coordinates":[[[[-1.50868,52.41011],[-1.50857,52.41011],[-1.50854,52.41001],[-1.50853,52.40994],[-1.50855,52.40979],[-1.5086,52.40969],[-1.50866,52.40963],[-1.50869,52.40964],[-1.50876,52.40959],[-1.50911,52.40975],[-1.50868,52.41011]]]]}},
{ "type":"Feature","properties":{"osm_way_id":"26063459","name":"Sainsbury's","building":"yes","shop":"supermarket","other":{"addr:city":"Coventry","addr:housenumber":"330","addr:postcode":"CV4 9BJ","addr:street":"Fletchamstead Highway","brand":"Sainsbury's","brand:wikidata":"Q152096","brand:wikipedia":"en:Sainsbury's","contact:phone":"+44 24 7671 1324","fhrs:id":"240598","opening_hours":"Mo-Fr 07:00-23:00; Sa 07:00-22:00; Su 10:00-16:00","phone":"+44 24 7671 1324","source:addr":"FHRS Open Data","website":"https:\/\/stores.sainsburys.co.uk\/0773\/canley"}}, "geometry":{"type":"MultiPolygon","coordinates":[[[[-1.55509,52.40228],[-1.55509,52.40246],[-1.55482,52.40246],[-1.55481,52.40216],[-1.55469,52.40216],[-1.5547,52.40206],[-1.55463,52.40206],[-1.55463,52.40189],[-1.55437,52.40189],[-1.55438,52.40125],[-1.55583,52.40125],[-1.55582,52.40209],[-1.55579,52.40209],[-1.55578,52.40224],[-1.55572,52.40224],[-1.55572,52.40228],[-1.55509,52.40228]]]]}},
{ "type":"Feature","properties":{"osm_way_id":"49293766","name":"Morrisons","building":"yes","shop":"supermarket","other":{"addr:postcode":"CV6 4GB","brand":"Morrisons","brand:wikidata":"Q922344","brand:wikipedia":"en:Morrisons"}}, "geometry":{"type":"MultiPolygon","coordinates":[[[[-1.51109,52.44482],[-1.5111,52.44508],[-1.51111,52.44524],[-1.51202,52.44523],[-1.512,52.44481],[-1.51109,52.44482]]]]}},
{ "type":"Feature","properties":{"osm_way_id":"92344357","name":"Tesco","building":"retail","shop":"supermarket","other":{"addr:city":"Coventry","addr:place":"Cannon Park Centre","addr:postcode":"CV4 7EH","addr:street":"Lynchgate Road","brand":"Tesco","brand:wikidata":"Q487494","brand:wikipedia":"en:Tesco","fhrs:id":"239750","opening_hours":"Mo 06:00-24:00; Tu-Sa 00:00-24:00; Su 10:00-16:00","source:addr":"FHRS Open Data","wheelchair":"yes"}}, "geometry":{"type":"MultiPolygon","coordinates":[[[[-1.55426,52.38666],[-1.55441,52.38657],[-1.55513,52.38657],[-1.55543,52.38674],[-1.55543,52.38722],[-1.55535,52.38727],[-1.55498,52.38727],[-1.55469,52.38727],[-1.55469,52.38709],[-1.55419,52.38709],[-1.55412,52.38709],[-1.55412,52.387],[-1.55426,52.38692],[-1.55426,52.38666]]]]}},
{ "type":"Feature","properties":{"osm_way_id":"92871394","name":"Tesco Extra","building":"yes","shop":"supermarket","other":{"brand":"Tesco Extra","brand:wikidata":"Q25172225","brand:wikipedia":"en:Tesco Extra"}}, "geometry":{"type":"MultiPolygon","coordinates":[[[[-1.49283,52.4445],[-1.49112,52.44493],[-1.49087,52.44474],[-1.49136,52.44463],[-1.49093,52.44398],[-1.49044,52.44411],[-1.49041,52.44387],[-1.49047,52.44385],[-1.49032,52.44366],[-1.49057,52.4436],[-1.49054,52.44356],[-1.49165,52.44329],[-1.49168,52.44333],[-1.49198,52.44326],[-1.49283,52.4445]]]]}},
{ "type":"Feature","properties":{"osm_way_id":"94172312","name":"Sainsbury's","building":"yes","shop":"supermarket","other":{"brand":"Sainsbury's","brand:wikidata":"Q152096","brand:wikipedia":"en:Sainsbury's"}}, "geometry":{"type":"MultiPolygon","coordinates":[[[[-1.48301,52.4272],[-1.48246,52.42718],[-1.48247,52.42705],[-1.48217,52.42704],[-1.4819,52.42703],[-1.4819,52.42708],[-1.48161,52.42707],[-1.48167,52.42642],[-1.48293,52.42646],[-1.48292,52.42657],[-1.48307,52.42658],[-1.48301,52.4272]]]]}},
{ "type":"Feature","properties":{"osm_way_id":"96072909","name":"Tesco","building":"yes","shop":"supermarket","other":{"brand":"Tesco","brand:wikidata":"Q487494","brand:wikipedia":"en:Tesco"}}, "geometry":{"type":"MultiPolygon","coordinates":[[[[-1.4416,52.41311],[-1.44111,52.41307],[-1.44112,52.41301],[-1.44092,52.41299],[-1.44094,52.41292],[-1.44076,52.41291],[-1.44056,52.413],[-1.44051,52.41327],[-1.44047,52.41327],[-1.4404,52.41366],[-1.44114,52.41372],[-1.44114,52.41374],[-1.4416,52.41378],[-1.44171,52.41323],[-1.44169,52.41323],[-1.44158,52.41322],[-1.4416,52.41311]]]]}},
{ "type":"Feature","properties":{"osm_way_id":"96757717","name":"Lido Extra","building":"yes","shop":"supermarket"},"geometry":{"type":"MultiPolygon","coordinates":[[[[-1.47249,52.43527],[-1.47218,52.4354],[-1.47194,52.4352],[-1.47188,52.43522],[-1.47176,52.43512],[-1.47213,52.43496],[-1.47249,52.43527]]]]}},
{ "type":"Feature","properties":{"osm_way_id":"98013071","name":"Asda","building":"yes","shop":"supermarket","other":{"addr:city":"Coventry","addr:country":"GB","addr:postcode":"CV2 2PN","addr:street":"Brade Drive","brand":"Asda","brand:wikidata":"Q297410","brand:wikipedia":"en:Asda","contact:facebook":"https:\/\/www.facebook.com\/asda\/","contact:twitter":"@asda","contact:website":"https:\/\/storelocator.asda.com\/west-midlands\/coventry\/brade-drive","fhrs:id":"239912","operator":"Asda Stores Ltd"}}, "geometry":{"type":"MultiPolygon","coordinates":[[[[-1.433,52.4298],[-1.43223,52.42974],[-1.43222,52.42981],[-1.43206,52.42977],[-1.43199,52.42971],[-1.43183,52.42957],[-1.43173,52.42962],[-1.43165,52.42962],[-1.43156,52.42956],[-1.43167,52.42896],[-1.43195,52.42899],[-1.43199,52.42877],[-1.43319,52.42887],[-1.433,52.4298]]]]}},
{ "type":"Feature","properties":{"osm_way_id":"98828850","name":"Tesco Extra","building":"yes","shop":"supermarket","other":{"addr:postcode":"CV2 2SH","addr:street":"Olivier Way","brand":"Tesco Extra","brand:wikidata":"Q25172225","brand:wikipedia":"en:Tesco Extra"}}, "geometry":{"type":"MultiPolygon","coordinates":[[[[-1.43296,52.43454],[-1.43252,52.43436],[-1.43266,52.43424],[-1.43262,52.43422],[-1.43261,52.43423],[-1.43221,52.43407],[-1.43226,52.43402],[-1.43223,52.434],[-1.43222,52.43401],[-1.43179,52.43384],[-1.43233,52.43335],[-1.43225,52.43331],[-1.43244,52.43314],[-1.43275,52.43327],[-1.43271,52.4333],[-1.4329,52.43338],[-1.43294,52.4334],[-1.433,52.43335],[-1.4334,52.43352],[-1.43326,52.43365],[-1.43372,52.43384],[-1.43296,52.43454]]]]}},
{ "type":"Feature","properties":{"osm_way_id":"106670352","name":"Co-op Food","building":"yes","shop":"supermarket","other":{"addr:city":"Coventry","addr:housenumber":"8","addr:postcode":"CV5 6EG","addr:street":"Earlsdon Street","alt_name":"Co-op","brand":"Co-op Food","brand:wikidata":"Q3277439","brand:wikipedia":"en:Co-op Food","fhrs:id":"240584","operator":"The Co-operative Group","operator:wikidata":"Q117202","operator:wikipedia":"en:The Co-operative Group","organic":"yes","website":"https:\/\/www.coop.co.uk\/store-finder\/CV5-6EG\/8-earlsdon-street","wheelchair":"yes"}}, "geometry":{"type":"MultiPolygon","coordinates":[[[[-1.53103,52.39978],[-1.53132,52.3996],[-1.53172,52.3998],[-1.53152,52.39992],[-1.53147,52.3999],[-1.53144,52.39992],[-1.53141,52.3999],[-1.53144,52.39988],[-1.53139,52.39985],[-1.53136,52.39988],[-1.5313,52.39986],[-1.53103,52.39978]]]]}},
{ "type":"Feature","properties":{"osm_way_id":"136406222","name":"Aldi","building":"retail","shop":"supermarket","other":{"addr:city":"Coventry","addr:postcode":"CV2 2TW","addr:street":"Hinckley Road","brand":"ALDI","brand:wikidata":"Q41171672","brand:wikipedia":"en:Aldi"}}, "geometry":{"type":"MultiPolygon","coordinates":[[[[-1.43607,52.43134],[-1.43613,52.43103],[-1.43614,52.43097],[-1.4361,52.43096],[-1.43611,52.43088],[-1.43602,52.43087],[-1.436,52.43095],[-1.43562,52.43093],[-1.43554,52.43131],[-1.43607,52.43134]]]]}},
{ "type":"Feature","properties":{"osm_way_id":"147405313","name":"Morrisons","building":"retail","shop":"supermarket","other":{"addr:city":"Coventry","brand":"Morrisons","brand:wikidata":"Q922344","brand:wikipedia":"en:Morrisons","phone":"+44 2476 601333","source_1":"receipt"}}, "geometry":{"type":"MultiPolygon","coordinates":[[[[-1.53253,52.41251],[-1.53261,52.41271],[-1.53216,52.4132],[-1.53143,52.41295],[-1.53139,52.413],[-1.53114,52.41292],[-1.53113,52.41288],[-1.53109,52.41288],[-1.53106,52.4128],[-1.53111,52.41279],[-1.53109,52.41274],[-1.53122,52.41259],[-1.5313,52.41262],[-1.53159,52.41231],[-1.53166,52.41233],[-1.5317,52.41228],[-1.53193,52.41235],[-1.53198,52.4123],[-1.53245,52.41245],[-1.53253,52.41251]]]]}},
{ "type":"Feature","properties":{"osm_way_id":"148187999","name":"Morrisons","building":"supermarket","shop":"supermarket","other":{"addr:city":"Coventry","addr:postcode":"CV3 2XA","addr:street":"Skipworth Road","brand":"Morrisons","brand:wikidata":"Q922344","brand:wikipedia":"en:Morrisons","fhrs:id":"240641","source:addr":"FHRS data"}}, "geometry":{"type":"MultiPolygon","coordinates":[[[[-1.43511,52.39753],[-1.43508,52.3975],[-1.43508,52.39747],[-1.43501,52.39747],[-1.43501,52.3974],[-1.43481,52.3974],[-1.43481,52.39736],[-1.43462,52.39736],[-1.43462,52.39714],[-1.43447,52.39714],[-1.43447,52.39695],[-1.43419,52.39695],[-1.43419,52.39676],[-1.43445,52.39676],[-1.43445,52.39664],[-1.43554,52.39664],[-1.43555,52.39717],[-1.43573,52.39717],[-1.43573,52.39719],[-1.43577,52.39719],[-1.43578,52.39733],[-1.43584,52.39736],[-1.43584,52.39741],[-1.43579,52.39745],[-1.43584,52.39748],[-1.43571,52.39756],[-1.43566,52.39753],[-1.4356,52.39756],[-1.43553,52.39756],[-1.43546,52.39753],[-1.43511,52.39753]]]]}},
{ "type":"Feature","properties":{"osm_way_id":"148192970","name":"Asda","building":"yes","shop":"supermarket","other":{"addr:city":"Coventry","addr:country":"GB","addr:housename":"Abbey Park","addr:postcode":"CV3 4AR","addr:street":"London Road","brand":"Asda","brand:wikidata":"Q297410","brand:wikipedia":"en:Asda","contact:facebook":"https:\/\/www.facebook.com\/asda\/","contact:twitter":"@asda","contact:website":"https:\/\/storelocator.asda.com\/west-midlands\/coventry\/abbey-park-north-london-road","fhrs:id":"240267","operator":"Asda Stores Ltd"}}, "geometry":{"type":"MultiPolygon","coordinates":[[[[-1.48601,52.39189],[-1.48577,52.39203],[-1.48514,52.39163],[-1.48501,52.39171],[-1.4848,52.39158],[-1.48484,52.39155],[-1.48471,52.39147],[-1.48483,52.3914],[-1.48482,52.3914],[-1.48491,52.39134],[-1.48492,52.39135],[-1.48522,52.39117],[-1.48528,52.39121],[-1.4856,52.39101],[-1.48633,52.39147],[-1.48631,52.39148],[-1.48649,52.3916],[-1.48624,52.39175],[-1.48609,52.39165],[-1.48586,52.3918],[-1.48601,52.39189]]]]}},
{ "type":"Feature","properties":{"osm_way_id":"150770413","name":"Aldi","building":"yes","shop":"supermarket","other":{"brand":"ALDI","brand:wikidata":"Q41171672","brand:wikipedia":"en:Aldi","opening_hours":"Mo-Sa 08:00-22:00; Su 10:00-16:00; PH 08:00-20:00"}}, "geometry":{"type":"MultiPolygon","coordinates":[[[[-1.522,52.42328],[-1.52182,52.42336],[-1.52178,52.42333],[-1.52139,52.42351],[-1.52134,52.42353],[-1.52123,52.42344],[-1.52117,52.42347],[-1.52104,52.42337],[-1.52173,52.42306],[-1.522,52.42328]]]]}},
{ "type":"Feature","properties":{"osm_way_id":"153662579","name":"Co-op Food","building":"yes","shop":"supermarket","other":{"brand":"Co-op Food","brand:wikidata":"Q3277439","brand:wikipedia":"en:Co-op Food","operator":"Heart of England Co-operative Society"}}, "geometry":{"type":"MultiPolygon","coordinates":[[[[-1.54818,52.41203],[-1.54838,52.41181],[-1.54872,52.41192],[-1.54852,52.41214],[-1.54845,52.41213],[-1.54818,52.41203]]]]}},
{ "type":"Feature","properties":{"osm_way_id":"156511615","name":"Heron Foods","building":"yes","shop":"supermarket","other":{"addr:city":"Coventry","addr:country":"GB","addr:housenumber":"84","addr:postcode":"CV3 3DP","addr:street":"Remembrance Road","brand":"Heron Foods","brand:wikidata":"Q5743472","brand:wikipedia":"en:Heron Foods","contact:website":"https:\/\/heronfoods.com\/storelocator\/store-details\/remembrance-road-willenhall","fhrs:id":"1217045","opening_hours":"Mo-Sa 08:00-20:00; Su 10:00-16:00"}}, "geometry":{"type":"MultiPolygon","coordinates":[[[[-1.4641,52.38912],[-1.46349,52.38897],[-1.46339,52.38912],[-1.46342,52.38913],[-1.46337,52.38921],[-1.46395,52.38935],[-1.4641,52.38912]]]]}},
{ "type":"Feature","properties":{"osm_way_id":"161564882","name":"Asda","building":"retail","shop":"supermarket","other":{"addr:country":"GB","addr:postcode":"CV6 3EX","addr:street":"Jubilee Crescent","brand":"Asda","brand:wikidata":"Q297410","brand:wikipedia":"en:Asda","contact:facebook":"https:\/\/www.facebook.com\/asda\/","contact:twitter":"@asda","contact:website":"https:\/\/storelocator.asda.com\/west-midlands\/coventry\/jubilee-crescent-radford","operator":"Asda Stores Ltd"}}, "geometry":{"type":"MultiPolygon","coordinates":[[[[-1.51843,52.43029],[-1.51801,52.43035],[-1.5181,52.43059],[-1.51852,52.43052],[-1.51843,52.43029]]]]}},
{ "type":"Feature","properties":{"osm_way_id":"161564897","name":"Tesco Metro","building":"yes","shop":"supermarket","other":{"brand":"Tesco Metro","brand:wikidata":"Q57551648"}}, "geometry":{"type":"MultiPolygon","coordinates":[[[[-1.51796,52.43161],[-1.51775,52.43178],[-1.5176,52.43169],[-1.51742,52.43158],[-1.51766,52.43142],[-1.51796,52.43161]]]]}},
{ "type":"Feature","properties":{"osm_way_id":"164940552","name":"Lidl","building":"retail","shop":"supermarket","other":{"addr:country":"GB","addr:housenumber":"87","addr:postcode":"CV3 1HX","addr:street":"Binley Road","brand":"Lidl","brand:wikidata":"Q151954","brand:wikipedia":"en:Lidl","fhrs:id":"241083"}}, "geometry":{"type":"MultiPolygon","coordinates":[[[[-1.47662,52.40696],[-1.47662,52.40664],[-1.47671,52.40664],[-1.47671,52.40647],[-1.47624,52.40647],[-1.47624,52.40701],[-1.47639,52.40701],[-1.47639,52.40696],[-1.47662,52.40696]]]]}},
{ "type":"Feature","properties":{"osm_way_id":"182937673","name":"Nisa Extra","building":"yes","shop":"supermarket","other":{"addr:city":"Coventry","addr:country":"GB","addr:postcode":"CV5 9AF","addr:street":"Winsford Court","brand":"Nisa Extra","brand:wikidata":"Q16999069","brand:wikipedia":"en:Nisa (retailer)"}}, "geometry":{"type":"MultiPolygon","coordinates":[[[[-1.55456,52.41252],[-1.5545,52.41251],[-1.55449,52.41256],[-1.55444,52.41256],[-1.55402,52.41255],[-1.55402,52.41269],[-1.55455,52.41271],[-1.55456,52.41252]]]]}},
{ "type":"Feature","properties":{"osm_way_id":"216100745","name":"Yash Supermarket","building":"yes","shop":"supermarket","other":{"addr:housenumber":"60","addr:postcode":"CV3 5FX","addr:street":"Silksby Street"}}, "geometry":{"type":"MultiPolygon","coordinates":[[[[-1.50526,52.39717],[-1.50532,52.39726],[-1.50553,52.39714],[-1.50542,52.39707],[-1.50526,52.39717]]]]}},
{ "type":"Feature","properties":{"osm_way_id":"243570007","name":"Kalma Foods","building":"yes","shop":"supermarket"},"geometry":{"type":"MultiPolygon","coordinates":[[[[-1.49155,52.42652],[-1.49163,52.42664],[-1.4918,52.42676],[-1.49191,52.4267],[-1.49189,52.42669],[-1.49207,52.4266],[-1.49193,52.4265],[-1.4919,52.42652],[-1.49188,52.4265],[-1.49182,52.42643],[-1.49155,52.42652]]]]}},
{ "type":"Feature","properties":{"osm_way_id":"244360526","name":"Lidl","building":"yes","shop":"supermarket","other":{"addr:city":"Coventry","addr:postcode":"CV3 2JD","addr:street":"Brandon Road","brand":"Lidl","brand:wikidata":"Q151954","brand:wikipedia":"en:Lidl","fhrs:id":"240928"}}, "geometry":{"type":"MultiPolygon","coordinates":[[[[-1.43733,52.3963],[-1.43706,52.39621],[-1.43711,52.39616],[-1.43696,52.39611],[-1.43651,52.39659],[-1.43697,52.39675],[-1.43711,52.39661],[-1.43705,52.39659],[-1.4373,52.39633],[-1.43733,52.3963]]]]}},
{ "type":"Feature","properties":{"osm_way_id":"280337414","name":"Spar","building":"yes","shop":"supermarket","other":{"addr:city":"Coventry","addr:housenumber":"17","addr:postcode":"CV1 5RE","addr:street":"High Street","brand":"Spar","brand:wikidata":"Q610492","brand:wikipedia":"en:SPAR (retailer)","fhrs:id":"513933"}}, "geometry":{"type":"MultiPolygon","coordinates":[[[[-1.50869,52.40747],[-1.50873,52.40732],[-1.50874,52.40731],[-1.50875,52.4073],[-1.50877,52.4073],[-1.50879,52.4073],[-1.50895,52.40735],[-1.50888,52.40742],[-1.50887,52.40748],[-1.50884,52.40748],[-1.50869,52.40747]]]]}},
{ "type":"Feature","properties":{"osm_way_id":"306173912","name":"Asda","building":"retail","shop":"supermarket","other":{"addr:city":"Coventry","addr:country":"GB","addr:housenumber":"168","addr:postcode":"CV3 5HE","addr:street":"Daventry Road","brand":"Asda","brand:wikidata":"Q297410","brand:wikipedia":"en:Asda","building:levels":"1","contact:facebook":"https:\/\/www.facebook.com\/asda\/","contact:twitter":"@asda","contact:website":"https:\/\/storelocator.asda.com\/west-midlands\/coventry\/daventry-road-cheylesmore","diet:halal":"yes","fhrs:id":"727722","opening_hours":"Mo-Sa 07:00-23:00; Su 10:00-16:00","operator":"Asda Stores Ltd","roof:levels":"0","wheelchair":"yes"}}, "geometry":{"type":"MultiPolygon","coordinates":[[[[-1.50429,52.39364],[-1.50354,52.3935],[-1.50351,52.39357],[-1.50365,52.3936],[-1.50358,52.39373],[-1.50375,52.39376],[-1.50408,52.39382],[-1.50406,52.39386],[-1.50419,52.39388],[-1.50421,52.39383],[-1.50426,52.39371],[-1.50429,52.39364]]]]}},
{ "type":"Feature","properties":{"osm_way_id":"310503322","name":"Sarra Foods","building":"retail","shop":"supermarket","other":{"addr:housenumber":"149-151","addr:postcode":"CV3 5HD","addr:street":"Daventry Road","cuisine":"indian"}}, "geometry":{"type":"MultiPolygon","coordinates":[[[[-1.50601,52.39453],[-1.50618,52.39452],[-1.50616,52.39441],[-1.50599,52.39442],[-1.50601,52.39453]]]]}},
{ "type":"Feature","properties":{"osm_way_id":"319764462","name":"Spar","building":"yes","shop":"supermarket","other":{"addr:city":"Coventry","addr:housenumber":"3","addr:postcode":"CV4 9AE","addr:street":"Gramercy Park","brand":"Spar","brand:wikidata":"Q610492","brand:wikipedia":"en:Spar (retailer)","fhrs:id":"240698"}}, "geometry":{"type":"MultiPolygon","coordinates":[[[[-1.59727,52.41171],[-1.59762,52.4117],[-1.59761,52.41155],[-1.59725,52.41156],[-1.59727,52.41171]]]]}},
{ "type":"Feature","properties":{"osm_way_id":"323312203","name":"Lidl","building":"yes","shop":"supermarket","other":{"addr:country":"GB","addr:housenumber":"1","addr:postcode":"CV6 5RF","addr:street":"John Wigley Way","brand":"Lidl","brand:wikidata":"Q151954","brand:wikipedia":"en:Lidl","fhrs:id":"240058","website":"https:\/\/www.lidl.co.uk\/"}}, "geometry":{"type":"MultiPolygon","coordinates":[[[[-1.49386,52.435],[-1.49385,52.43467],[-1.49293,52.43468],[-1.49293,52.43478],[-1.49302,52.43478],[-1.49303,52.43497],[-1.49313,52.43497],[-1.49356,52.43496],[-1.49356,52.435],[-1.49386,52.435]]]]}},
{ "type":"Feature","properties":{"osm_way_id":"358304648","name":"Co-op Food","building":"yes","shop":"supermarket","other":{"addr:city":"Coventry","addr:housenumber":"329-331","addr:postcode":"CV4 9DU","addr:street":"Tile Hill Lane","brand":"Co-op Food","brand:wikidata":"Q3277439","brand:wikipedia":"en:Co-op Food","operator":"Heart of England Co-operative Society"}}, "geometry":{"type":"MultiPolygon","coordinates":[[[[-1.56293,52.40384],[-1.56271,52.40388],[-1.56259,52.40364],[-1.56281,52.4036],[-1.56283,52.40363],[-1.56293,52.40384]]]]}},
{ "type":"Feature","properties":{"osm_way_id":"358304845","name":"Co-op Food","building":"yes","shop":"supermarket","other":{"addr:city":"Coventry","addr:housenumber":"134","addr:postcode":"CV5 7NJ","addr:street":"Sutherland Avenue","brand":"Co-op Food","brand:wikidata":"Q3277439","brand:wikipedia":"en:Co-op Food","fhrs:id":"240677","operator":"The Co-operative Group"}}, "geometry":{"type":"MultiPolygon","coordinates":[[[[-1.57042,52.41508],[-1.57058,52.41515],[-1.57039,52.41529],[-1.57024,52.41521],[-1.57042,52.41508]]]]}},
{ "type":"Feature","properties":{"osm_way_id":"358306328","name":"Co-op Food","building":"yes","shop":"supermarket","other":{"addr:city":"Coventry","addr:housenumber":"52","addr:postcode":"CV6 2BQ","addr:street":"Norman Place Road","brand":"Co-op Food","brand:wikidata":"Q3277439","brand:wikipedia":"en:Co-op Food","operator":"Heart of England Co-operative Society"}}, "geometry":{"type":"MultiPolygon","coordinates":[[[[-1.53298,52.4302],[-1.53307,52.4303],[-1.53292,52.43035],[-1.53298,52.43042],[-1.5328,52.43048],[-1.53257,52.43023],[-1.53278,52.43016],[-1.53298,52.4302]]]]}},
{ "type":"Feature","properties":{"osm_way_id":"363955976","name":"Sainsbury's","building":"yes","shop":"supermarket","other":{"brand":"Sainsbury's","brand:wikidata":"Q152096","brand:wikipedia":"en:Sainsbury's","opening_hours":"Mo-Sa 08:00-21:00; Su 10:00-16:00"}}, "geometry":{"type":"MultiPolygon","coordinates":[[[[-1.60546,52.19151],[-1.60546,52.1915],[-1.60536,52.19149],[-1.60539,52.19137],[-1.6055,52.19138],[-1.60557,52.19114],[-1.60545,52.19113],[-1.60549,52.19101],[-1.6056,52.19102],[-1.60563,52.19093],[-1.60624,52.19099],[-1.60612,52.1914],[-1.60627,52.19141],[-1.60625,52.19146],[-1.60608,52.19157],[-1.60546,52.19151]]]]}},
{ "type":"Feature","properties":{"osm_way_id":"397493251","name":"Co-op Food","building":"commercial","shop":"supermarket","other":{"brand":"Co-op Food","brand:wikidata":"Q3277439","brand:wikipedia":"en:Co-op Food"}}, "geometry":{"type":"MultiPolygon","coordinates":[[[[-1.4759,52.41932],[-1.47542,52.41923],[-1.47538,52.4193],[-1.4753,52.41928],[-1.47529,52.41931],[-1.47526,52.41937],[-1.47532,52.41938],[-1.47533,52.41935],[-1.47544,52.41937],[-1.47542,52.4194],[-1.47567,52.41945],[-1.47568,52.41943],[-1.47583,52.41946],[-1.4759,52.41932]]]]}},
{ "type":"Feature","properties":{"osm_way_id":"442965757","name":"Aldi","building":"yes","shop":"supermarket","other":{"addr:city":"Coventry","addr:housenumber":"7","addr:postcode":"CV4 7AN","addr:street":"Shultern Lane","alt_name":"Aldi Supermarket","brand":"ALDI","brand:wikidata":"Q41171672","brand:wikipedia":"en:Aldi","fhrs:id":"924819","opening_hours":"Mo-Sa 08:00-22:00; Su 10:00-16:00","source:addr":"FHRS Open Data"}}, "geometry":{"type":"MultiPolygon","coordinates":[[[[-1.55426,52.38967],[-1.55474,52.38918],[-1.55437,52.38905],[-1.55392,52.38951],[-1.5539,52.38954],[-1.55426,52.38967]]]]}},
{ "type":"Feature","properties":{"osm_way_id":"442975414","name":"Aldi","building":"yes","shop":"supermarket","other":{"addr:city":"Coventry","addr:parentstreet":"London Road","addr:place":"Airport Retail Park","addr:postcode":"CV3 4RP","brand":"ALDI","brand:wikidata":"Q41171672","brand:wikipedia":"en:Aldi","fhrs:id":"975789","source:addr":"FHRS Open Data"}}, "geometry":{"type":"MultiPolygon","coordinates":[[[[-1.46496,52.37962],[-1.46567,52.37936],[-1.46551,52.3792],[-1.4656,52.37917],[-1.46552,52.37908],[-1.46467,52.37939],[-1.46473,52.37945],[-1.46478,52.37943],[-1.46496,52.37962]]]]}},
{ "type":"Feature","properties":{"osm_way_id":"454551701","name":"M&S Foodhall","building":"retail","shop":"supermarket","other":{"brand":"M&S Foodhall","brand:wikidata":"Q714491","brand:wikipedia":"en:Marks & Spencer"}}, "geometry":{"type":"MultiPolygon","coordinates":[[[[-1.43148,52.39853],[-1.43096,52.3984],[-1.43115,52.39812],[-1.4312,52.39814],[-1.43166,52.39825],[-1.43148,52.39853]]]]}},
{ "type":"Feature","properties":{"osm_way_id":"511079689","name":"Co-op Food","building":"yes","shop":"supermarket","other":{"addr:city":"Coventry","addr:housenumber":"15-17","addr:postcode":"CV3 1AT","addr:street":"Humber Road","brand":"Co-op Food","brand:wikidata":"Q3277439","brand:wikipedia":"en:Co-op Food","fhrs:id":"803430"}}, "geometry":{"type":"MultiPolygon","coordinates":[[[[-1.48675,52.40365],[-1.4864,52.4036],[-1.48645,52.40348],[-1.4865,52.40349],[-1.48677,52.40352],[-1.48675,52.40365]]]]}}
]
}
