{
"type": "FeatureCollection",
"features": [
{ "type":"Feature","properties":{"osm_id":"376774988","name":"The Co-operative Food","other":{"operator":"The Co-operative Group","shop":"supermarket"}}, "geometry":{"type":"Point","coordinates":[-0.11328,53.70957 ]}},
{ "type":"Feature","properties":{"osm_id":"467708641","name":"The Co-operative Food","other":{"shop":"supermarket"}}, "geometry":{"type":"Point","coordinates":[-0.87189,53.69587 ]}},
{ "type":"Feature","properties":{"osm_id":"660529442","name":"Snaith Post Office","other":{"amenity":"post_office","operator":"The Co-operative Group","shop":"supermarket"}}, "geometry":{"type":"Point","coordinates":[-1.02981,53.6917 ]}},
{ "type":"Feature","properties":{"osm_id":"1437515298","name":"Heron Foods","other":{"addr:city":"Hornsea","addr:country":"GB","addr:postcode":"HU18 1AB","addr:street":"Newbegin","brand":"Heron Foods","brand:wikidata":"Q5743472","brand:wikipedia":"en:Heron Foods","contact:website":"https:\/\/heronfoods.com\/index.php\/storelocator\/store-details\/hornsea","fhrs:id":"371241","shop":"supermarket"}}, "geometry":{"type":"Point","coordinates":[-0.17037,53.91129 ]}},
{ "type":"Feature","properties":{"osm_id":"3249012961","name":"Heron Foods","other":{"addr:city":"Hessle","addr:country":"GB","addr:housenumber":"23","addr:postcode":"HU13 0AE","addr:street":"The Square","brand":"Heron Foods","brand:wikidata":"Q5743472","brand:wikipedia":"en:Heron Foods","contact:website":"https:\/\/heronfoods.com\/storelocator\/store-details\/hessle-square","fhrs:id":"656009","shop":"supermarket"}}, "geometry":{"type":"Point","coordinates":[-0.43486,53.72345 ]}},
{ "type":"Feature","properties":{"osm_id":"3256750476","name":"Co-op Food","other":{"brand":"Co-op Food","brand:wikidata":"Q3277439","brand:wikipedia":"en:Co-op Food","operator":"The Co-operative Group","shop":"supermarket"}}, "geometry":{"type":"Point","coordinates":[-0.19888,53.74123 ]}},
{ "type":"Feature","properties":{"osm_id":"3433591522","name":"Heron Foods","other":{"addr:city":"Cottingham","addr:country":"GB","addr:housenumber":"30","addr:postcode":"HU16 5QE","addr:street":"King Street","brand":"Heron Foods","brand:wikidata":"Q5743472","brand:wikipedia":"en:Heron Foods","contact:website":"https:\/\/heronfoods.com\/storelocator\/store-details\/cottingham","fhrs:id":"430882","shop":"supermarket"}}, "geometry":{"type":"Point","coordinates":[-0.41386,53.78067 ]}},
{ "type":"Feature","properties":{"osm_id":"3510346536","name":"Heron Foods","other":{"addr:city":"Beverly","addr:country":"GB","addr:housenumber":"15,17","addr:postcode":"HU17 9AA","addr:street":"Toll Gavel","brand":"Heron Foods","brand:wikidata":"Q5743472","brand:wikipedia":"en:Heron Foods","contact:website":"https:\/\/heronfoods.com\/storelocator\/store-details\/beverley","fhrs:id":"465338","shop":"supermarket"}}, "geometry":{"type":"Point","coordinates":[-0.43076,53.84203 ]}},
{ "type":"Feature","properties":{"osm_id":"3639683255","name":"Costcutter","other":{"brand":"Costcutter","brand:wikidata":"Q5175072","brand:wikipedia":"en:Costcutter","operator":"D & S Retail Group","shop":"supermarket"}}, "geometry":{"type":"Point","coordinates":[-0.48587,53.82058 ]}},
{ "type":"Feature","properties":{"osm_id":"4089713499","name":"The Co-operative Food","other":{"opening_hours":"Mo-Sa 07:00-22:00; Su 10:00-16:00","shop":"supermarket"}}, "geometry":{"type":"Point","coordinates":[-0.41518,53.78246 ]}},
{ "type":"Feature","properties":{"osm_id":"4756662106","name":"Food Warehouse by Iceland","other":{"brand":"The Food Warehouse","brand:wikidata":"Q87263899","shop":"supermarket"}}, "geometry":{"type":"Point","coordinates":[-0.42294,53.74762 ]}},
{ "type":"Feature","properties":{"osm_id":"5160036419","name":"Heron Foods","other":{"addr:city":"Withernsea","addr:country":"GB","addr:housenumber":"171,173","addr:postcode":"HU19 2JR","addr:street":"Queen Street","brand":"Heron Foods","brand:wikidata":"Q5743472","brand:wikipedia":"en:Heron Foods","contact:website":"https:\/\/heronfoods.com\/index.php\/storelocator\/store-details\/withernsea","fhrs:id":"950657","shop":"supermarket"}}, "geometry":{"type":"Point","coordinates":[0.03293,53.73046 ]}},
{ "type":"Feature","properties":{"osm_id":"5432119179","name":"Aldi","other":{"addr:city":"Cottingham","addr:postcode":"HU16 5AW","addr:street":"Summer's Drive","brand":"ALDI","brand:wikidata":"Q41171672","brand:wikipedia":"en:Aldi","opening_hours":"Mo-Sa 08:00-22:00; Su 10:00-16:00","operator":"Aldi","shop":"supermarket"}}, "geometry":{"type":"Point","coordinates":[-0.41429,53.78436 ]}},
{ "type":"Feature","properties":{"osm_id":"6401908180","name":"Co-op Food","other":{"addr:city":"Thorngumbald","addr:housenumber":"160","addr:postcode":"HU12 9NE","addr:street":"Main Road","atm":"yes","brand":"Co-op Food","brand:wikidata":"Q3277439","brand:wikipedia":"en:Co-op Food","fhrs:id":"371230","opening_hours":"Mo-Su 07:00-23:00","operator":"The Co-operative Group","operator:wikidata":"Q117202","operator:wikipedia":"en:The Co-operative Group","shop":"supermarket"}}, "geometry":{"type":"Point","coordinates":[-0.16812,53.72 ]}},
{ "type":"Feature","properties":{"osm_id":"6761863050","name":"Heron Foods","other":{"addr:city":"Bridlington","addr:country":"GB","addr:postcode":"YO15 2DX","addr:street":"Chapel Street","brand":"Heron Foods","brand:wikidata":"Q5743472","brand:wikipedia":"en:Heron Foods","contact:website":"https:\/\/heronfoods.com\/storelocator\/store-details\/bridlington","fhrs:id":"188076","shop":"supermarket"}}, "geometry":{"type":"Point","coordinates":[-0.18972,54.08331 ]}},
{ "type":"Feature","properties":{"osm_id":"7108823035","name":"Morrisons Car Charger","other":{"amenity":"charging_station","capacity":"3","operator":"GeniePoint","operator:type":"business","payment:debit_cards":"yes"}}, "geometry":{"type":"Point","coordinates":[-0.44388,53.8235 ]}},
{ "type":"Feature","properties":{"osm_id":"8883717042","name":"Heron Foods","other":{"brand":"Heron Foods","brand:wikidata":"Q5743472","brand:wikipedia":"en:Heron Foods","shop":"supermarket"}}, "geometry":{"type":"Point","coordinates":[-0.19875,53.74066 ]}},
{ "type":"Feature","properties":{"osm_id":"9301710377","other":{"defibrillator:location":"outside Costcutter shop, Main Street, Brandesburton","emergency":"defibrillator","indoor":"no"}}, "geometry":{"type":"Point","coordinates":[-0.30104,53.91247 ]}},
{ "type":"Feature","properties":{"osm_id":"8321426","name":"Morrisons","type":"multipolygon","building":"store","shop":"supermarket","other":{"addr:postcode":"HU17 8XE","addr:street":"Wingfield Road","brand":"Morrisons","brand:wikidata":"Q922344","brand:wikipedia":"en:Morrisons","designation":"Beverley","opening_hours":"Mo-Sa 07:00-10:00; Su 10:00-16:00"}}, "geometry":{"type":"MultiPolygon","coordinates":[[[[-0.44411,53.82362],[-0.44401,53.82362],[-0.44401,53.82355],[-0.44411,53.82355],[-0.44411,53.82362]]],[[[-0.44376,53.82329],[-0.44325,53.82331],[-0.44325,53.82331],[-0.44305,53.82332],[-0.44306,53.82336],[-0.44301,53.82338],[-0.44289,53.82339],[-0.44285,53.82336],[-0.44276,53.82336],[-0.4427,53.82333],[-0.44269,53.82328],[-0.44273,53.82326],[-0.44265,53.82322],[-0.44269,53.82319],[-0.44267,53.82302],[-0.44271,53.82302],[-0.44267,53.82264],[-0.44383,53.8226],[-0.44384,53.82276],[-0.44398,53.82276],[-0.44429,53.82315],[-0.44427,53.82316],[-0.44429,53.82318],[-0.44422,53.8232],[-0.44393,53.82321],[-0.44391,53.82305],[-0.44386,53.82305],[-0.44388,53.82321],[-0.4438,53.82322],[-0.4438,53.82324],[-0.44382,53.82324],[-0.44383,53.82325],[-0.44383,53.8233],[-0.44378,53.82331],[-0.44378,53.82329],[-0.44376,53.82329]]]]}},
{ "type":"Feature","properties":{"osm_way_id":"8761733","name":"Sainsbury's","building":"supermarket","shop":"supermarket","other":{"addr:city":"Hessle","addr:postcode":"HU13 9NS","addr:street":"Sainsbury Way","brand":"Sainsbury's","brand:wikidata":"Q152096","opening_hours":"Mo-Sa 07:00-22:00; Su 10:00-16:00","toilets":"yes","wheelchair":"yes"}}, "geometry":{"type":"MultiPolygon","coordinates":[[[[-0.42081,53.72281],[-0.42093,53.72277],[-0.42099,53.72285],[-0.42132,53.72276],[-0.42137,53.72282],[-0.42129,53.72284],[-0.42159,53.72325],[-0.42004,53.72366],[-0.4196,53.72307],[-0.41988,53.723],[-0.41991,53.72304],[-0.42,53.72302],[-0.42081,53.72281]]]]}},
{ "type":"Feature","properties":{"osm_way_id":"19598554","name":"Morrisons","building":"store","shop":"supermarket","other":{"addr:postcode":"HU10 6RJ","addr:street":"Springfield Way","alt_name":"Morrisons Anlaby","brand":"Morrisons","brand:wikidata":"Q922344","brand:wikipedia":"en:Morrisons"}}, "geometry":{"type":"MultiPolygon","coordinates":[[[[-0.42827,53.74813],[-0.42737,53.74809],[-0.42738,53.74804],[-0.42705,53.74803],[-0.42703,53.74821],[-0.42712,53.74821],[-0.42707,53.74865],[-0.42723,53.74866],[-0.4272,53.74893],[-0.42797,53.74897],[-0.42799,53.7488],[-0.42818,53.74881],[-0.42827,53.74813]]]]}},
{ "type":"Feature","properties":{"osm_way_id":"19794448","name":"Iceland","building":"store","shop":"supermarket","other":{"addr:city":"Hull","addr:housename":"Willerby Shopping Park","addr:housenumber":"Unit 1\/2","addr:postcode":"HU10 6EB","addr:street":"Grange Park Lane","addr:village":"Willerby","alt_name":"Iceland Willerby","brand":"Iceland","brand:wikidata":"Q721810","fhrs:id":"113621","source:addr":"FHRS Open Data"}}, "geometry":{"type":"MultiPolygon","coordinates":[[[[-0.45516,53.76371],[-0.45485,53.76366],[-0.45491,53.76353],[-0.45563,53.76364],[-0.45557,53.76378],[-0.45516,53.76371]]]]}},
{ "type":"Feature","properties":{"osm_way_id":"29979267","name":"ALDI","building":"store","shop":"supermarket","other":{"addr:city":"Hull","addr:postcode":"HU10 6DE","addr:street":"Great Gutter Lane East","addr:village":"Willerby","alt_name":"ALDI Willerby","brand":"ALDI","brand:wikidata":"Q41171672","brand:wikipedia":"en:Aldi","fhrs:id":"465332","source:addr":"FHRS Open Data"}}, "geometry":{"type":"MultiPolygon","coordinates":[[[[-0.454,53.76255],[-0.45362,53.76255],[-0.45362,53.7626],[-0.45349,53.7626],[-0.45349,53.76255],[-0.45323,53.76255],[-0.45323,53.76227],[-0.454,53.76227],[-0.454,53.76255]]]]}},
{ "type":"Feature","properties":{"osm_way_id":"38327724","name":"Sainsbury's","building":"supermarket","shop":"supermarket","other":{"addr:city":"Pocklington","addr:postcode":"YO42 2GG","alt_name":"Sainsbury's Pocklington Superstore","brand":"Sainsbury's","brand:wikidata":"Q152096","building:levels":"1","roof:shape":"saltbox"}}, "geometry":{"type":"MultiPolygon","coordinates":[[[[-0.77748,53.92789],[-0.778,53.92762],[-0.77787,53.92753],[-0.77783,53.92755],[-0.77737,53.92724],[-0.77688,53.92749],[-0.77748,53.92789]]]]}},
{ "type":"Feature","properties":{"osm_way_id":"39685781","name":"Tesco","building":"retail","shop":"supermarket","other":{"addr:postcode":"DN14 6BB","addr:street":"Boothferry Road","brand":"Tesco","brand:wikidata":"Q487494","brand:wikipedia":"en:Tesco","building:levels":"1","opening_hours":"Mo-Fr 06:00-00:00; Sa 06:00-22:00; Su 10:00-16:00","roof:levels":"1","toilets:wheelchair":"yes","wheelchair":"yes"}}, "geometry":{"type":"MultiPolygon","coordinates":[[[[-0.87716,53.70666],[-0.87735,53.70629],[-0.87634,53.70612],[-0.87625,53.70602],[-0.8759,53.70597],[-0.87579,53.7062],[-0.8757,53.70619],[-0.87561,53.7063],[-0.87555,53.70628],[-0.87561,53.70614],[-0.8755,53.70613],[-0.87532,53.70651],[-0.87565,53.70656],[-0.87568,53.7065],[-0.87673,53.70667],[-0.87675,53.70665],[-0.87691,53.70667],[-0.87693,53.70663],[-0.87716,53.70666]]]]}},
{ "type":"Feature","properties":{"osm_way_id":"70422360","name":"Morrisons","building":"supermarket","shop":"supermarket","other":{"addr:city":"Goole","addr:housenumber":"145","addr:postcode":"DN14 6EN","addr:street":"Boothferry Road","brand":"Morrisons","brand:wikidata":"Q922344","brand:wikipedia":"en:Morrisons","fhrs:id":"101180","opening_hours":"Mo-Sa 08:00-22:00; Su 10:00-16:00","toilets:wheelchair":"yes","website":"https:\/\/www.morrisons.co.uk\/","wheelchair":"yes"}}, "geometry":{"type":"MultiPolygon","coordinates":[[[[-0.88013,53.70673],[-0.88012,53.70674],[-0.8802,53.70679],[-0.88026,53.7068],[-0.88024,53.70686],[-0.87999,53.70682],[-0.87996,53.70687],[-0.87987,53.70685],[-0.87985,53.70689],[-0.87991,53.7069],[-0.87976,53.70721],[-0.87883,53.70705],[-0.87906,53.70658],[-0.8796,53.70667],[-0.87962,53.70664],[-0.88013,53.70673]]]]}},
{ "type":"Feature","properties":{"osm_way_id":"84659020","name":"Morrisons","building":"store","shop":"supermarket","other":{"addr:postcode":"HU15 1AF","addr:street":"Welton Road","brand":"Morrisons","brand:wikidata":"Q922344","brand:wikipedia":"en:Morrisons"}}, "geometry":{"type":"MultiPolygon","coordinates":[[[[-0.56978,53.72944],[-0.57028,53.72943],[-0.57028,53.72952],[-0.57048,53.72951],[-0.57047,53.72913],[-0.57078,53.72912],[-0.57078,53.729],[-0.56988,53.72901],[-0.56988,53.72913],[-0.56977,53.72913],[-0.56978,53.72944]]]]}},
{ "type":"Feature","properties":{"osm_way_id":"108096533","name":"Costcutter","building":"yes","shop":"supermarket","other":{"addr:city":"Driffield","addr:country":"GB","addr:housenumber":"77","addr:postcode":"YO25 8RH","addr:street":"Main Street","addr:village":"Brandesburton","brand":"Costcutter","brand:wikidata":"Q5175072","brand:wikipedia":"en:Costcutter","fhrs:id":"112477","operator":"D & S Retail Group"}}, "geometry":{"type":"MultiPolygon","coordinates":[[[[-0.30127,53.9124],[-0.30112,53.91236],[-0.30104,53.91247],[-0.30103,53.91248],[-0.30106,53.91248],[-0.3011,53.91249],[-0.30111,53.91248],[-0.30115,53.91249],[-0.30116,53.91248],[-0.30137,53.91254],[-0.30142,53.91247],[-0.30125,53.91243],[-0.30127,53.9124]]]]}},
{ "type":"Feature","properties":{"osm_way_id":"108344853","name":"Tesco","building":"yes","shop":"supermarket","other":{"addr:city":"Market Weighton","addr:postcode":"YO43 3BG","addr:street":"Southgate","brand":"Tesco","brand:wikidata":"Q487494","brand:wikipedia":"en:Tesco"}}, "geometry":{"type":"MultiPolygon","coordinates":[[[[-0.66281,53.86317],[-0.66195,53.86286],[-0.6619,53.8629],[-0.66174,53.86284],[-0.66217,53.86243],[-0.6632,53.86281],[-0.66281,53.86317]]]]}},
{ "type":"Feature","properties":{"osm_way_id":"120697380","name":"The Co-operative Food","building":"store","shop":"supermarket","other":{"addr:city":"Hessle","addr:housenumber":"27-29","addr:postcode":"HU13 0AE","addr:street":"The Square","opening_hours":"Mo-Sa 06:00-22:00, Su 10:00-16:00","operator":"The Co-operative Group","source:addr":"Food hygiene open data"}}, "geometry":{"type":"MultiPolygon","coordinates":[[[[-0.43438,53.72385],[-0.43407,53.72388],[-0.43414,53.7236],[-0.43446,53.72329],[-0.43462,53.72334],[-0.43451,53.72346],[-0.43456,53.72347],[-0.43445,53.72364],[-0.43438,53.72385]]]]}},
{ "type":"Feature","properties":{"osm_way_id":"128997770","name":"Waitrose","building":"store","shop":"supermarket","other":{"addr:city":"Hull","addr:postcode":"HU10 6EB","addr:street":"Grange Park Lane","addr:village":"Willerby","alt_name":"Waitrose WIllerby","brand":"Waitrose & Partners","brand:wikidata":"Q771734","brand:wikipedia":"en:Waitrose & Partners","fhrs:id":"74777","operator":"Waitrose & Partners","source:addr":"FHRS Open Data"}}, "geometry":{"type":"MultiPolygon","coordinates":[[[[-0.45563,53.76364],[-0.45491,53.76353],[-0.45462,53.76349],[-0.45485,53.76294],[-0.45592,53.7631],[-0.45572,53.76356],[-0.45587,53.76358],[-0.45582,53.76367],[-0.45563,53.76364]]]]}},
{ "type":"Feature","properties":{"osm_way_id":"130549333","name":"Co-op Food","building":"yes","shop":"supermarket","other":{"addr:city":"Hornsea","addr:housenumber":"29-51","addr:postcode":"HU18 1AB","addr:street":"Newbegin","brand":"Co-op Food","brand:wikidata":"Q3277439","brand:wikipedia":"en:Co-op Food","fhrs:id":"197664","opening_hours":"Mo-Su 07:00-22:00","operator":"The Co-operative Group","wheelchair":"yes"}}, "geometry":{"type":"MultiPolygon","coordinates":[[[[-0.17016,53.91154],[-0.17007,53.91155],[-0.1701,53.91161],[-0.16987,53.91165],[-0.16982,53.91155],[-0.16985,53.91153],[-0.16975,53.91132],[-0.17003,53.91127],[-0.17016,53.91154]]]]}},
{ "type":"Feature","properties":{"osm_way_id":"148624290","name":"Tesco","building":"yes","shop":"supermarket","other":{"brand":"Tesco","brand:wikidata":"Q487494","brand:wikipedia":"en:Tesco","opening_hours":"Mo-Sa 07:00-23:00, Su 10:00-16:00","wheelchair":"yes"}}, "geometry":{"type":"MultiPolygon","coordinates":[[[[-0.17042,53.90628],[-0.16994,53.90675],[-0.16898,53.90643],[-0.16966,53.90579],[-0.16993,53.9059],[-0.16978,53.90604],[-0.17042,53.90628]]]]}},
{ "type":"Feature","properties":{"osm_way_id":"155473745","name":"Tesco","building":"supermarket","shop":"supermarket","other":{"addr:city":"Bridlington","addr:postcode":"YO15 3EP","addr:street":"Station Approach","brand":"Tesco","brand:wikidata":"Q487494","brand:wikipedia":"en:Tesco","designation":"Bridlington Superstore","opening_hours":"Mo-Sa 06:00-24:00; Su 10:00-16:00"}}, "geometry":{"type":"MultiPolygon","coordinates":[[[[-0.1966,54.08463],[-0.19656,54.08432],[-0.19652,54.08432],[-0.19649,54.08404],[-0.19638,54.08405],[-0.19636,54.08381],[-0.19676,54.0838],[-0.19677,54.08389],[-0.19725,54.08387],[-0.19728,54.08413],[-0.19735,54.08412],[-0.19736,54.08422],[-0.1973,54.08422],[-0.19732,54.08435],[-0.19763,54.08434],[-0.19765,54.08451],[-0.19734,54.08452],[-0.19735,54.0846],[-0.1966,54.08463]]]]}},
{ "type":"Feature","properties":{"osm_way_id":"181771798","name":"Co-op Food","building":"yes","shop":"supermarket","other":{"addr:city":"Howden","addr:housenumber":"69","addr:postcode":"DN14 7SU","addr:street":"Hailgate","brand":"Co-op Food","brand:wikidata":"Q3277439","brand:wikipedia":"en:Co-op Food","opening_hours":"Mo-Sa 07:00-22:00; Su 10:00-16:00","operator":"The Co-operative Group","phone":"+44 1430 431650"}}, "geometry":{"type":"MultiPolygon","coordinates":[[[[-0.86404,53.74521],[-0.86383,53.7452],[-0.86383,53.74523],[-0.86362,53.74523],[-0.86362,53.7452],[-0.86346,53.7452],[-0.86345,53.74552],[-0.86367,53.74552],[-0.86367,53.74548],[-0.86376,53.74548],[-0.86376,53.74551],[-0.8639,53.74551],[-0.8639,53.74548],[-0.86398,53.74548],[-0.86398,53.7454],[-0.86404,53.7454],[-0.86404,53.74521]]]]}},
{ "type":"Feature","properties":{"osm_way_id":"183177554","name":"Sainsbury's","building":"yes","shop":"supermarket","other":{"addr:city":"Hedon","addr:postcode":"HU12 8DJ","addr:street":"Hull Road","brand":"Sainsbury's","brand:wikidata":"Q152096","brand:wikipedia":"en:Sainsbury's"}}, "geometry":{"type":"MultiPolygon","coordinates":[[[[-0.21299,53.74007],[-0.2127,53.74004],[-0.21271,53.74002],[-0.21249,53.74],[-0.2125,53.73994],[-0.21221,53.73991],[-0.21234,53.73944],[-0.21298,53.73951],[-0.21291,53.73975],[-0.21302,53.73976],[-0.21298,53.73993],[-0.21302,53.73993],[-0.21299,53.74007]]]]}},
{ "type":"Feature","properties":{"osm_way_id":"185277554","name":"M&S Simply Food","building":"yes","shop":"supermarket","other":{"addr:city":"Beverley","addr:housenumber":"25-31","addr:postcode":"HU17 0AA","addr:street":"Butcher Row","brand":"M&S Simply Food","brand:wikidata":"Q714491","brand:wikipedia":"en:Marks & Spencer","opening_hours":"Mo-Fr 08:00-20:00; Sa 08:00-19:00; Su 10:00-16:00","wheelchair":"yes"}}, "geometry":{"type":"MultiPolygon","coordinates":[[[[-0.427,53.8419],[-0.42668,53.84181],[-0.42675,53.84172],[-0.42643,53.84166],[-0.42654,53.84151],[-0.42687,53.84158],[-0.42704,53.84135],[-0.42743,53.84153],[-0.42734,53.8416],[-0.42719,53.84172],[-0.427,53.8419]]]]}},
{ "type":"Feature","properties":{"osm_way_id":"186827615","name":"M&S Simply Food","building":"retail","shop":"supermarket","other":{"addr:housename":"Anlaby Retail Park","addr:housenumber":"Unit A","addr:postcode":"HU10 6RJ","addr:street":"Springfield Way","alt_name":"M&S Anlaby Hull Simply Food","brand":"M&S Simply Food","brand:wikidata":"Q714491"}}, "geometry":{"type":"MultiPolygon","coordinates":[[[[-0.42569,53.74809],[-0.42563,53.74864],[-0.42515,53.74862],[-0.42517,53.74842],[-0.42521,53.74807],[-0.42569,53.74809]]]]}},
{ "type":"Feature","properties":{"osm_way_id":"190624400","name":"Asda","building":"yes","shop":"supermarket","other":{"addr:city":"Goole","addr:country":"GB","addr:place":"Wesley Square","addr:postcode":"DN14 5EZ","brand":"Asda","brand:wikidata":"Q297410","brand:wikipedia":"en:Asda","contact:website":"https:\/\/storelocator.asda.com\/yorkshire-&-humber\/goole\/unit-1-wesley-square","fhrs:id":"110350","operator":"Asda Stores Ltd","toilets":"yes","toilets:access":"customers","toilets:wheelchair":"no","wheelchair":"yes"}}, "geometry":{"type":"MultiPolygon","coordinates":[[[[-0.87125,53.70602],[-0.87058,53.70599],[-0.87059,53.70579],[-0.87105,53.7058],[-0.87127,53.70581],[-0.87125,53.70602]]]]}},
{ "type":"Feature","properties":{"osm_way_id":"204966616","name":"Asda","building":"retail","shop":"supermarket","other":{"addr:city":"Beverley","addr:country":"GB","addr:housenumber":"18-20","addr:postcode":"HU17 9EY","addr:street":"Norwood","brand":"Asda","brand:wikidata":"Q297410","brand:wikipedia":"en:Asda","contact:website":"https:\/\/storelocator.asda.com\/yorkshire-&-humber\/beverley\/20-norwood","designation":"Beverley Supermarket","fhrs:id":"491384","opening_hours":"Mo-Sa 07:00-22:00; Su 10:00-16:00"}}, "geometry":{"type":"MultiPolygon","coordinates":[[[[-0.43066,53.84531],[-0.43063,53.8453],[-0.43028,53.84509],[-0.43011,53.845],[-0.42999,53.84507],[-0.43004,53.84509],[-0.42973,53.84528],[-0.42982,53.84533],[-0.42986,53.84531],[-0.43021,53.84551],[-0.43025,53.84548],[-0.43032,53.84552],[-0.43066,53.84531]]]]}},
{ "type":"Feature","properties":{"osm_way_id":"204966617","name":"Tesco","building":"supermarket","shop":"supermarket","other":{"addr:postcode":"HU17 9DB","addr:street":"Morton Lane","brand":"Tesco","brand:wikidata":"Q487494","brand:wikipedia":"en:Tesco","designation":"Beverley Superstore","opening_hours":"Mo-Sa 07:00-22:30; Su 10:00-16:00","wheelchair":"yes"}}, "geometry":{"type":"MultiPolygon","coordinates":[[[[-0.43063,53.84437],[-0.43042,53.84414],[-0.43071,53.84405],[-0.43066,53.84399],[-0.43036,53.84408],[-0.43012,53.84382],[-0.43019,53.8438],[-0.43007,53.84367],[-0.42895,53.84403],[-0.42941,53.84453],[-0.42966,53.84445],[-0.42971,53.84451],[-0.42995,53.84443],[-0.43001,53.84451],[-0.43034,53.8444],[-0.43038,53.84445],[-0.43063,53.84437]]]]}},
{ "type":"Feature","properties":{"osm_way_id":"235285153","name":"Co-op Food","building":"retail","shop":"supermarket","other":{"addr:city":"North Ferriby","addr:housenumber":"10","addr:postcode":"HU14 3JP","addr:street":"High Street","atm":"yes","brand":"Co-op Food","brand:wikidata":"Q3277439","brand:wikipedia":"en:Co-op Food","building:levels":"1","opening_hours":"Mo-Su 08:00-22:00","operator":"The Co-operative Group","source:addr":"Food hygiene open data"}}, "geometry":{"type":"MultiPolygon","coordinates":[[[[-0.50471,53.72337],[-0.5047,53.72358],[-0.50431,53.72357],[-0.50431,53.72337],[-0.50471,53.72337]]]]}},
{ "type":"Feature","properties":{"osm_way_id":"240825808","name":"Aldi","building":"retail","shop":"supermarket","other":{"addr:city":"Bridlington","addr:postcode":"YO16 4SJ","addr:street":"Bessingby Way","addr:unit":"C","brand":"ALDI","brand:wikidata":"Q41171672","brand:wikipedia":"en:Aldi","designation":"Bridlintgon"}}, "geometry":{"type":"MultiPolygon","coordinates":[[[[-0.20769,54.08216],[-0.20768,54.08216],[-0.20751,54.08228],[-0.20719,54.08212],[-0.20771,54.08176],[-0.208,54.0819],[-0.20766,54.08214],[-0.20769,54.08216]]]]}},
{ "type":"Feature","properties":{"osm_way_id":"240855132","name":"Lidl","building":"retail","shop":"supermarket","other":{"addr:city":"Driffield","addr:country":"GB","addr:county":"East Riding of Yorkshire","addr:postcode":"YO25 6TN","addr:street":"Mill Street","brand":"Lidl","brand:wikidata":"Q151954","designation":"Driffield","fhrs:id":"455999"}}, "geometry":{"type":"MultiPolygon","coordinates":[[[[-0.44225,54.00576],[-0.4422,54.0057],[-0.44182,54.00526],[-0.44176,54.00528],[-0.4417,54.0052],[-0.44211,54.00508],[-0.44236,54.00536],[-0.44244,54.00534],[-0.4425,54.00541],[-0.44244,54.00543],[-0.44258,54.00559],[-0.44263,54.00565],[-0.44225,54.00576]]]]}},
{ "type":"Feature","properties":{"osm_way_id":"240855133","name":"Tesco","building":"supermarket","shop":"supermarket","other":{"addr:city":"Driffield","addr:postcode":"YO25 6RA","addr:street":"George Street","atm":"yes","brand":"Tesco","brand:wikidata":"Q487494","brand:wikipedia":"en:Tesco","designation":"Driffield Superstore","internet_access":"wlan","pharmacy":"yes","phone:pharmacy":"+44 1914 798237","toilets":"yes","wheelchair":"yes"}}, "geometry":{"type":"MultiPolygon","coordinates":[[[[-0.43904,54.00424],[-0.43894,54.00413],[-0.43885,54.00403],[-0.43851,54.00366],[-0.43895,54.00352],[-0.43942,54.00404],[-0.43944,54.00407],[-0.43943,54.0041],[-0.43938,54.00411],[-0.43904,54.00424]]]]}},
{ "type":"Feature","properties":{"osm_way_id":"288020604","name":"ALDI","building":"supermarket","shop":"supermarket","other":{"addr:city":"Pocklington","addr:postcode":"YO42 2QT","addr:street":"Robertson Close","alt_name":"ALDI Pocklington","brand":"ALDI","brand:wikidata":"Q41171672","brand:wikipedia":"en:Aldi","building:levels":"1","roof:shape":"flat"}}, "geometry":{"type":"MultiPolygon","coordinates":[[[[-0.77929,53.92815],[-0.7789,53.92797],[-0.7787,53.92788],[-0.77895,53.92768],[-0.77955,53.92795],[-0.77929,53.92815]]]]}},
{ "type":"Feature","properties":{"osm_way_id":"306110842","name":"The Co-operative Food","building":"yes","shop":"supermarket","other":{"addr:city":"Pocklington","addr:postcode":"YO42 2AE","addr:street":"Market Place"}}, "geometry":{"type":"MultiPolygon","coordinates":[[[[-0.77797,53.93127],[-0.77812,53.9312],[-0.7782,53.93126],[-0.77828,53.93132],[-0.77824,53.93134],[-0.77827,53.93136],[-0.77823,53.93138],[-0.77832,53.93144],[-0.77837,53.93142],[-0.77835,53.93141],[-0.77841,53.93138],[-0.77847,53.93142],[-0.77832,53.9315],[-0.77812,53.93137],[-0.77797,53.93127]]]]}},
{ "type":"Feature","properties":{"osm_way_id":"311946412","name":"Morrisons","building":"supermarket","shop":"supermarket","other":{"addr:city":"Bridlington","addr:postcode":"YO16 4SJ","addr:street":"Bessingby Way","brand":"Morrisons","brand:wikidata":"Q922344","brand:wikipedia":"en:Morrisons","designation":"Bridlington"}}, "geometry":{"type":"MultiPolygon","coordinates":[[[[-0.21039,54.08182],[-0.2101,54.08169],[-0.20943,54.08218],[-0.2094,54.0822],[-0.20923,54.08232],[-0.20972,54.08255],[-0.20975,54.08253],[-0.21012,54.0827],[-0.21009,54.08272],[-0.21027,54.08281],[-0.21042,54.08269],[-0.21036,54.08266],[-0.21091,54.08225],[-0.21069,54.08215],[-0.21084,54.08204],[-0.2106,54.08192],[-0.21047,54.08202],[-0.21026,54.08192],[-0.21039,54.08182]]]]}},
{ "type":"Feature","properties":{"osm_way_id":"312892488","name":"Co-op Food","building":"yes","shop":"supermarket","other":{"addr:city":"Bridlington","addr:postcode":"YO16 7JS","addr:street":"St John's Street","brand":"Co-op Food","brand:wikidata":"Q3277439","brand:wikipedia":"en:Co-op Food","opening_hours":"Mo-Su 08:00-22:00","operator":"The Co-operative Group"}}, "geometry":{"type":"MultiPolygon","coordinates":[[[[-0.20417,54.09221],[-0.20412,54.0921],[-0.20384,54.09214],[-0.20383,54.09211],[-0.20371,54.09212],[-0.20374,54.09222],[-0.2037,54.09223],[-0.20372,54.0923],[-0.20388,54.09228],[-0.20387,54.09225],[-0.20417,54.09221]]]]}},
{ "type":"Feature","properties":{"osm_way_id":"316578198","name":"Co-op","building":"yes","shop":"supermarket","other":{"addr:city":"Flamborough","addr:postcode":"YO15 1NE","addr:street":"Allison Lane","building:levels":"1"}}, "geometry":{"type":"MultiPolygon","coordinates":[[[[-0.12323,54.11635],[-0.12326,54.1162],[-0.12299,54.11618],[-0.12296,54.11633],[-0.12307,54.11634],[-0.12323,54.11635]]]]}},
{ "type":"Feature","properties":{"osm_way_id":"317722698","name":"Co-op Food","building":"supermarket","shop":"supermarket","other":{"addr:city":"Bridlington","addr:postcode":"YO16 6YS","addr:street":"Martongate","brand":"Co-op Food","brand:wikidata":"Q3277439","brand:wikipedia":"en:Co-op Food","opening_hours":"Mo-Sa 07:00-22:00; Su 11:00-17:00","operator":"The Co-operative Group"}}, "geometry":{"type":"MultiPolygon","coordinates":[[[[-0.18799,54.09989],[-0.18775,54.09971],[-0.18783,54.09968],[-0.18776,54.09963],[-0.18733,54.09984],[-0.1874,54.09989],[-0.1872,54.09999],[-0.18744,54.10015],[-0.18799,54.09989]]]]}},
{ "type":"Feature","properties":{"osm_way_id":"327486774","name":"The Co-operative Food","building":"yes","shop":"supermarket","other":{"addr:city":"Stamford Bridge","addr:postcode":"YO41 1AF","addr:street":"The Square","operator":"The Co-operative Group"}}, "geometry":{"type":"MultiPolygon","coordinates":[[[[-0.91501,53.9915],[-0.91496,53.99147],[-0.91496,53.99146],[-0.91492,53.99143],[-0.91491,53.99143],[-0.91468,53.99141],[-0.9148,53.99149],[-0.91492,53.99155],[-0.91501,53.9915]]]]}},
{ "type":"Feature","properties":{"osm_way_id":"401994963","name":"Lidl","building":"yes","shop":"supermarket","other":{"addr:city":"Hull","addr:postcode":"HU10 6DP","addr:street":"Great Gutter Lane West","addr:village":"Willerby","brand":"Lidl","brand:wikidata":"Q151954","fhrs:id":"113623","source:addr":"FHRS Open Data"}}, "geometry":{"type":"MultiPolygon","coordinates":[[[[-0.4581,53.76304],[-0.45812,53.76309],[-0.45833,53.76305],[-0.45812,53.7627],[-0.45793,53.7624],[-0.45744,53.7625],[-0.45761,53.76276],[-0.45781,53.7631],[-0.4581,53.76304]]]]}},
{ "type":"Feature","properties":{"osm_way_id":"531493123","name":"Aldi","shop":"supermarket","other":{"addr:city":"Withernsea","addr:housenumber":"134","addr:postcode":"HU19 2HB","addr:street":"Queen Street","brand":"ALDI","brand:wikidata":"Q41171672","brand:wikipedia":"en:Aldi","level":"0","opening_hours":"Mo-Sa 08:00-21:00; Su 10:00-16:00","operator":"Aldi","room":"shop"}}, "geometry":{"type":"MultiPolygon","coordinates":[[[[0.03296,53.72965],[0.03335,53.72941],[0.03341,53.72938],[0.03376,53.72958],[0.03373,53.72959],[0.03351,53.72973],[0.0333,53.72985],[0.03324,53.72982],[0.03317,53.72986],[0.03306,53.7298],[0.03313,53.72975],[0.03296,53.72965]]]]}},
{ "type":"Feature","properties":{"osm_way_id":"531493141","name":"Tesco Metro","landuse":"retail","shop":"supermarket","other":{"addr:city":"Withernsea","addr:postcode":"HU19 2NS","addr:street":"Queen Street","brand":"Tesco Metro","brand:wikidata":"Q57551648","contact:website":"https:\/\/www.tesco.com\/store-locator\/withernsea\/queen-st","opening_hours":"Mo-Sa 08:00-22:00; Su 10:00-16:00","phone":"+44 345 026 9975","ref":"3444"}}, "geometry":{"type":"MultiPolygon","coordinates":[[[[0.03546,53.72338],[0.03542,53.72354],[0.03554,53.72355],[0.03543,53.72403],[0.03566,53.72406],[0.03676,53.72418],[0.03696,53.72392],[0.037,53.72387],[0.03703,53.72384],[0.03704,53.7238],[0.03703,53.72377],[0.037,53.72374],[0.03697,53.72371],[0.03704,53.72362],[0.03713,53.72362],[0.03718,53.72362],[0.03723,53.7236],[0.03728,53.72356],[0.03717,53.72353],[0.03635,53.72346],[0.03546,53.72338]]]]}},
{ "type":"Feature","properties":{"osm_way_id":"648624323","name":"Lidl","building":"supermarket","shop":"supermarket","other":{"addr:country":"GB","addr:postcode":"DN14 6TY","addr:street":"Rawcliffe Road","brand":"Lidl","brand:wikidata":"Q151954","fhrs:id":"907361"}}, "geometry":{"type":"MultiPolygon","coordinates":[[[[-0.89048,53.70526],[-0.88996,53.7052],[-0.89017,53.70453],[-0.8907,53.70459],[-0.89048,53.70526]]]]}},
{ "type":"Feature","properties":{"osm_way_id":"826264948","name":"ALDI","building":"retail","shop":"supermarket","other":{"brand":"ALDI","brand:wikidata":"Q41171672","brand:wikipedia":"en:Aldi","opening_hours":"Mo-Sa 08:00-22:00; Su 10:00-16:00","wheelchair":"yes"}}, "geometry":{"type":"MultiPolygon","coordinates":[[[[-0.40767,53.84451],[-0.40765,53.84431],[-0.40675,53.84434],[-0.40677,53.84454],[-0.40767,53.84451]]]]}},
{ "type":"Feature","properties":{"osm_way_id":"913872290","name":"Lidl","building":"retail","shop":"supermarket","other":{"addr:country":"GB","addr:postcode":"SK13 8HS","addr:street":"Victoria Street","brand":"Lidl","brand:wikidata":"Q151954","brand:wikipedia":"en:Lidl","fhrs:id":"1339748","opening_hours":"Mo-Sa 08:00-22:00; Su 10:00-16:00","opening_hours:covid19":"same","payment:cash":"yes","payment:contactless":"yes","payment:credit_cards":"yes","payment:mastercard":"yes","payment:visa":"yes"}}, "geometry":{"type":"MultiPolygon","coordinates":[[[[-1.94668,53.4428],[-1.94584,53.44279],[-1.94582,53.44258],[-1.94668,53.44259],[-1.94668,53.4428]]]]}},
{ "type":"Feature","properties":{"osm_way_id":"919665095","name":"Lidl","building":"yes","shop":"supermarket","other":{"brand":"Lidl","brand:wikidata":"Q151954","brand:wikipedia":"en:Lidl"}}, "geometry":{"type":"MultiPolygon","coordinates":[[[[-0.40764,53.83542],[-0.40713,53.83526],[-0.40699,53.83543],[-0.40706,53.83545],[-0.40678,53.83577],[-0.40669,53.83588],[-0.407,53.83598],[-0.40697,53.83601],[-0.4071,53.83605],[-0.40764,53.83542]]]]}}
]
}
