{
"type": "FeatureCollection",
"features": [
{ "type":"Feature","properties":{"osm_id":"241774549","name":"Budgens","other":{"addr:city":"Abingdon","addr:country":"GB","addr:housename":"Peachcroft Shopping Centre","addr:postcode":"OX14 2QA","addr:street":"Peachcroft Road","addr:unit":"13","brand":"Budgens","brand:wikidata":"Q4985016","brand:wikipedia":"en:Budgens","fhrs:id":"264257","shop":"supermarket"}}, "geometry":{"type":"Point","coordinates":[-1.26619,51.68451 ]}},
{ "type":"Feature","properties":{"osm_id":"269255247","name":"The Co-operative Food","other":{"addr:housenumber":"1-3","addr:postcode":"OX13 6DN","addr:street":"Besselsleigh Road","brand":"The Co-operative Food","brand:wikidata":"Q107617274","operator":"Midcounties Co-operative Society","shop":"supermarket","website":"http:\/\/www.co-operativefood.co.uk"}}, "geometry":{"type":"Point","coordinates":[-1.31532,51.70647 ]}},
{ "type":"Feature","properties":{"osm_id":"279369927","name":"The Co-operative Food","other":{"addr:city":"Abingdon","addr:housename":"St Helen House","addr:housenumber":"5-13","addr:postcode":"OX14 5BL","addr:street":"West St Helen Street","fhrs:id":"264196","operator":"Midcounties Co-operative Society","shop":"supermarket"}}, "geometry":{"type":"Point","coordinates":[-1.28323,51.66968 ]}},
{ "type":"Feature","properties":{"osm_id":"402422936","name":"Co-op Village Store","other":{"operator":"Co-op","shop":"supermarket"}}, "geometry":{"type":"Point","coordinates":[-1.50551,51.63726 ]}},
{ "type":"Feature","properties":{"osm_id":"540940317","name":"Co-operative","other":{"addr:city":"Kingston Bagpuize","addr:postcode":"OX13 5AN","addr:street":"Witney Road","opening_hours":"Mo-Su 07:00-23:00","shop":"supermarket","website":"https:\/\/finder.coop.co.uk\/food\/store\/OX13-5AN\/witney-road"}}, "geometry":{"type":"Point","coordinates":[-1.41255,51.68216 ]}},
{ "type":"Feature","properties":{"osm_id":"1073436350","name":"Co-Op","other":{"shop":"supermarket"}}, "geometry":{"type":"Point","coordinates":[-1.43,51.60723 ]}},
{ "type":"Feature","properties":{"osm_id":"3100507082","name":"Reynolds supermarket","other":{"shop":"supermarket"}}, "geometry":{"type":"Point","coordinates":[-1.28883,51.66307 ]}},
{ "type":"Feature","properties":{"osm_id":"3605531208","name":"Savers","other":{"addr:city":"Abingdon","addr:housenumber":"15B","addr:postcode":"OX14 5BB","addr:street":"High Street","fhrs:id":"754243","shop":"supermarket"}}, "geometry":{"type":"Point","coordinates":[-1.28284,51.67015 ]}},
{ "type":"Feature","properties":{"osm_id":"8258460653","name":"Co-op Food","other":{"brand":"Co-op Food","brand:wikidata":"Q3277439","brand:wikipedia":"en:Co-op Food","shop":"supermarket"}}, "geometry":{"type":"Point","coordinates":[-1.29703,51.75148 ]}},
{ "type":"Feature","properties":{"osm_id":"8623608433","name":"Lidl","other":{"addr:country":"GB","addr:housename":"Fairacres Retail Park","addr:postcode":"OX14 1BY","addr:street":"Marcham Road","addr:unit":"F1","brand":"Lidl","brand:wikidata":"Q151954","brand:wikipedia":"en:Lidl","fhrs:id":"1360260","shop":"supermarket","start_date":"2021-04-29"}}, "geometry":{"type":"Point","coordinates":[-1.30523,51.66987 ]}},
{ "type":"Feature","properties":{"osm_id":"8887605999","name":"Co-op Food","other":{"brand":"Co-op Food","brand:wikidata":"Q3277439","brand:wikipedia":"en:Co-op Food","opening_hours":"Mo-Su 07:00-22:00","shop":"supermarket"}}, "geometry":{"type":"Point","coordinates":[-1.2447,51.71884 ]}},
{ "type":"Feature","properties":{"osm_way_id":"31545816","name":"Sainsbury's","building":"yes","shop":"supermarket","other":{"addr:city":"Wantage","addr:postcode":"OX12 9AJ","addr:street":"Limborough Road","alt_name":"Sainsbury's Wantage Superstore","brand":"Sainsbury's","brand:wikidata":"Q152096","brand:wikipedia":"en:Sainsbury's","operator":"Sainsbury's","website":"https:\/\/stores.sainsburys.co.uk\/2244\/wantage"}}, "geometry":{"type":"MultiPolygon","coordinates":[[[[-1.42579,51.59001],[-1.42594,51.58998],[-1.42653,51.58953],[-1.42724,51.58984],[-1.42636,51.59044],[-1.42603,51.59031],[-1.42611,51.59024],[-1.42586,51.59013],[-1.42579,51.59001]]]]}},
{ "type":"Feature","properties":{"osm_way_id":"59290332","name":"Tesco Extra","building":"retail","shop":"supermarket","other":{"addr:city":"Abingdon","addr:housename":"Tesco","addr:postcode":"OX14 1TU","addr:street":"Marcham Road","brand":"Tesco Extra","brand:wikidata":"Q25172225","brand:wikipedia":"en:Tesco Extra","fhrs:id":"264331","operator":"Tesco","source:addr":"FHRS Open Data","website":"https:\/\/www.tesco.com\/store-locator\/abingdon\/marcham-road"}}, "geometry":{"type":"MultiPolygon","coordinates":[[[[-1.30993,51.667],[-1.30993,51.66641],[-1.30895,51.66641],[-1.30895,51.66726],[-1.30895,51.66748],[-1.30991,51.66748],[-1.30991,51.66742],[-1.31031,51.66742],[-1.31031,51.667],[-1.31012,51.667],[-1.30993,51.667]]]]}},
{ "type":"Feature","properties":{"osm_way_id":"68743393","name":"Waitrose","building":"yes","shop":"supermarket","other":{"addr:city":"Wantage","addr:housenumber":"17","addr:postcode":"OX12 8BD","addr:street":"Wallingford Street","alt_name":"Waitrose Wantage","brand":"Waitrose","brand:wikidata":"Q771734","brand:wikipedia":"en:Waitrose & Partners","official_name":"Waitrose & Partners","operator":"Waitrose & Partners"}}, "geometry":{"type":"MultiPolygon","coordinates":[[[[-1.42504,51.58903],[-1.42472,51.58898],[-1.42486,51.58863],[-1.42501,51.58866],[-1.42521,51.58866],[-1.42516,51.58878],[-1.42504,51.58903]]]]}},
{ "type":"Feature","properties":{"osm_way_id":"107421785","name":"Waitrose","building":"yes","shop":"supermarket","other":{"addr:postcode":"OX14 3HL","addr:street":"Abbey Close","brand":"Waitrose","brand:wikidata":"Q771734","brand:wikipedia":"en:Waitrose","official_name":"Waitrose & Partners","operator":"Waitrose & Partners"}}, "geometry":{"type":"MultiPolygon","coordinates":[[[[-1.28009,51.67179],[-1.27927,51.67197],[-1.27931,51.67204],[-1.27902,51.6721],[-1.27904,51.67214],[-1.27885,51.67219],[-1.27898,51.67242],[-1.28015,51.67217],[-1.28015,51.67218],[-1.28017,51.67221],[-1.28031,51.67218],[-1.28029,51.67214],[-1.28009,51.67179]]]]}},
{ "type":"Feature","properties":{"osm_way_id":"122129416","name":"Tesco","building":"retail","shop":"supermarket","other":{"addr:city":"Heanor","addr:postcode":"DE75 7EX","addr:street":"High Street","brand":"Tesco","brand:wikidata":"Q487494","brand:wikipedia":"en:Tesco","fhrs:id":"1488;1537","source:addr":"FHRS open data","wheelchair":"yes"}}, "geometry":{"type":"MultiPolygon","coordinates":[[[[-1.36009,53.01439],[-1.35986,53.01434],[-1.35988,53.0143],[-1.35968,53.01426],[-1.35957,53.01445],[-1.35945,53.01449],[-1.35961,53.01469],[-1.35956,53.01471],[-1.3596,53.01475],[-1.35954,53.01477],[-1.35964,53.01489],[-1.35975,53.01486],[-1.35983,53.01496],[-1.35999,53.01516],[-1.36057,53.01499],[-1.36009,53.01439]]]]}},
{ "type":"Feature","properties":{"osm_way_id":"254408454","building":"yes"},"geometry":{"type":"MultiPolygon","coordinates":[[[[-1.29847,51.75212],[-1.29835,51.75202],[-1.29843,51.75198],[-1.29852,51.75206],[-1.29855,51.75209],[-1.29847,51.75212]]]]}},
{ "type":"Feature","properties":{"osm_way_id":"264314319","name":"Co-operative Food","building":"yes","shop":"supermarket","other":{"addr:city":"Shrivenham","addr:housenumber":"54","addr:postcode":"SN6 8AA","addr:street":"High Street","phone":"+44 1793 782579"}}, "geometry":{"type":"MultiPolygon","coordinates":[[[[-1.65605,51.59828],[-1.65615,51.59847],[-1.65602,51.5985],[-1.65598,51.59843],[-1.65593,51.59831],[-1.65605,51.59828]]]]}},
{ "type":"Feature","properties":{"osm_way_id":"367965131","name":"The Co-operative Food","building":"commercial","shop":"supermarket","other":{"operator":"Midcounties Co-operative Society"}}, "geometry":{"type":"MultiPolygon","coordinates":[[[[-1.32018,51.62384],[-1.32025,51.62398],[-1.31999,51.62403],[-1.31992,51.62389],[-1.32018,51.62384]]]]}},
{ "type":"Feature","properties":{"osm_way_id":"498338865","name":"Tesco Express","building":"yes","shop":"supermarket","other":{"brand":"Tesco Express","brand:wikidata":"Q98456772"}}, "geometry":{"type":"MultiPolygon","coordinates":[[[[-1.42215,51.61003],[-1.42168,51.60995],[-1.42164,51.60991],[-1.42167,51.60984],[-1.42174,51.60982],[-1.42221,51.60991],[-1.42215,51.61003]]]]}},
{ "type":"Feature","properties":{"osm_way_id":"540282118","name":"Asda","building":"retail","shop":"supermarket","other":{"addr:city":"Harwell","addr:country":"GB","addr:housenumber":"108-168","addr:postcode":"OX11 6GD","addr:street":"Greenwood Way","brand":"Asda","brand:wikidata":"Q297410","brand:wikipedia":"en:Asda","contact:facebook":"https:\/\/www.facebook.com\/asda\/","contact:twitter":"@asda","contact:website":"https:\/\/storelocator.asda.com\/south-east\/harwell-didcot\/108-to-168-greenwood-way","fhrs:id":"1003414","opening_hours":"Mo-Sa 08:00-22:00","operator":"Asda Stores Ltd","payment:cash":"yes","payment:coins":"yes","payment:credit_cards":"yes","payment:debit_cards":"yes","payment:mastercard":"yes","payment:visa":"yes"}}, "geometry":{"type":"MultiPolygon","coordinates":[[[[-1.27179,51.60423],[-1.27191,51.60459],[-1.27153,51.60464],[-1.27141,51.60428],[-1.27179,51.60423]]]]}},
{ "type":"Feature","properties":{"osm_way_id":"677055186","name":"Sainsbury's","shop":"supermarket","other":{"brand":"Sainsbury's","brand:wikidata":"Q152096","brand:wikipedia":"en:Sainsbury's","website":"https:\/\/stores.sainsburys.co.uk\/2244\/wantage"}}, "geometry":{"type":"MultiPolygon","coordinates":[[[[-1.4244,51.59213],[-1.42451,51.59205],[-1.4245,51.59203],[-1.42441,51.59199],[-1.42423,51.59199],[-1.42419,51.59202],[-1.4244,51.59213]]]]}},
{ "type":"Feature","properties":{"osm_way_id":"827611949","name":"Aldi","building":"yes","shop":"supermarket","other":{"brand":"ALDI","brand:wikidata":"Q41171672","brand:wikipedia":"en:Aldi","operator":"Aldi"}}, "geometry":{"type":"MultiPolygon","coordinates":[[[[-1.57487,51.65129],[-1.5746,51.65118],[-1.57465,51.65113],[-1.5742,51.65094],[-1.57448,51.65068],[-1.57521,51.65098],[-1.57487,51.65129]]]]}},
{ "type":"Feature","properties":{"osm_way_id":"827611951","name":"Waitrose","building":"yes","shop":"supermarket","other":{"brand":"Waitrose","brand:wikidata":"Q771734","brand:wikipedia":"en:Waitrose & Partners","official_name":"Waitrose & Partners","operator":"Waitrose","toilets":"yes"}}, "geometry":{"type":"MultiPolygon","coordinates":[[[[-1.57589,51.65022],[-1.57562,51.65048],[-1.57557,51.65046],[-1.57518,51.6503],[-1.57525,51.65024],[-1.5751,51.65018],[-1.57531,51.64998],[-1.57589,51.65022]]]]}},
{ "type":"Feature","properties":{"osm_way_id":"840263764","name":"Tesco Metro","building":"yes","shop":"supermarket","other":{"addr:city":"Faringdon","addr:housenumber":"21","addr:postcode":"SN7 7BP","addr:street":"Park Road","brand":"Tesco Metro","brand:wikidata":"Q57551648","contact:website":"https:\/\/www.tesco.com\/store-locator\/faringdon\/park-rd","fhrs:id":"585826","operator":"Tesco","source:addr":"FSA Food Hygiene Ratings Database"}}, "geometry":{"type":"MultiPolygon","coordinates":[[[[-1.58525,51.6537],[-1.58575,51.65355],[-1.58574,51.65354],[-1.58581,51.65347],[-1.58558,51.65317],[-1.58554,51.65317],[-1.58542,51.65301],[-1.58519,51.65308],[-1.58525,51.65316],[-1.58493,51.65325],[-1.58495,51.65332],[-1.58525,51.6537]]]]}}
]
}
