{
"type": "FeatureCollection",
"features": [
{ "type":"Feature","properties":{"osm_id":"3245896866","name":"Lincolnshire Co-op","other":{"shop":"supermarket"}}, "geometry":{"type":"Point","coordinates":[-0.1083,53.55698 ]}},
{ "type":"Feature","properties":{"osm_id":"3245897957","name":"Lincolnshire Co-op","other":{"shop":"supermarket"}}, "geometry":{"type":"Point","coordinates":[-0.09913,53.54935 ]}},
{ "type":"Feature","properties":{"osm_id":"3245898701","name":"Lincolnshire Co-op","other":{"shop":"supermarket"}}, "geometry":{"type":"Point","coordinates":[-0.1005,53.52916 ]}},
{ "type":"Feature","properties":{"osm_id":"3662112259","name":"Original Factory Shop","other":{"addr:street":"Washdyke Lane","shop":"supermarket"}}, "geometry":{"type":"Point","coordinates":[-0.21183,53.61664 ]}},
{ "type":"Feature","properties":{"osm_id":"5626793727","name":"Spar","other":{"brand":"Spar","brand:wikidata":"Q610492","brand:wikipedia":"en:SPAR (retailer)","shop":"supermarket"}}, "geometry":{"type":"Point","coordinates":[-0.09302,53.53667 ]}},
{ "type":"Feature","properties":{"osm_id":"7446823935","name":"Asda","other":{"addr:city":"Grimsby","addr:country":"GB","addr:postcode":"DN31 1UF","addr:street":"Corporation Road","brand":"Asda","brand:wikidata":"Q297410","brand:wikipedia":"en:Asda","contact:website":"https:\/\/storelocator.asda.com\/yorkshire-&-humber\/grimsby\/32-corporation-road-alexandra-road","fhrs:id":"676171","operator":"Asda Stores Ltd","shop":"supermarket"}}, "geometry":{"type":"Point","coordinates":[-0.08736,53.57049 ]}},
{ "type":"Feature","properties":{"osm_id":"7783311965","name":"Jack's","other":{"addr:city":"Immingham","addr:housenumber":"35","addr:postcode":"DN40 2AB","addr:street":"Kennedy Way","brand":"Jack's","brand:wikidata":"Q60741213","brand:wikipedia":"en:Jack's (store)","opening_hours":"Mo-Sa 08:00-20:00; Su 10:00-16:00","opening_hours:covid19":"open","operator":"Tesco","payment:american_express":"yes","payment:cash":"yes","payment:diners_club":"yes","payment:maestro":"yes","payment:mastercard":"yes","payment:visa":"yes","payment:visa_debit":"yes","payment:visa_electron":"yes","shop":"supermarket"}}, "geometry":{"type":"Point","coordinates":[-0.21439,53.61657 ]}},
{ "type":"Feature","properties":{"osm_id":"9595987046","name":"Go local","other":{"addr:city":"Cleethorpes","addr:country":"GB","addr:housenumber":"27","addr:postcode":"DN35 8LA","addr:street":"High Street","shop":"supermarket"}}, "geometry":{"type":"Point","coordinates":[-0.03112,53.56053 ]}},
{ "type":"Feature","properties":{"osm_id":"9621364348","name":"New Waltham Co-op","other":{"shop":"supermarket"}}, "geometry":{"type":"Point","coordinates":[-0.06508,53.52316 ]}},
{ "type":"Feature","properties":{"osm_way_id":"83737206","name":"Asda","building":"yes","shop":"supermarket","other":{"addr:city":"Grimsby","addr:country":"GB","addr:postcode":"DN32 9DL","addr:street":"Holles Street","brand":"Asda","brand:wikidata":"Q297410","brand:wikipedia":"en:Asda","contact:website":"https:\/\/storelocator.asda.com\/yorkshire-&-humber\/grimsby\/holles-street","fhrs:id":"674990","operator":"Asda Stores Ltd","ref":"4321","wheelchair":"yes"}}, "geometry":{"type":"MultiPolygon","coordinates":[[[[-0.07808,53.56761],[-0.07657,53.56744],[-0.07654,53.56758],[-0.07645,53.56758],[-0.0764,53.56774],[-0.07635,53.56773],[-0.07633,53.56784],[-0.07628,53.56784],[-0.07607,53.56851],[-0.07629,53.56853],[-0.07629,53.5685],[-0.07703,53.56856],[-0.07707,53.5684],[-0.07784,53.56848],[-0.0779,53.56825],[-0.07793,53.56816],[-0.07794,53.56808],[-0.07798,53.56794],[-0.07808,53.56761]]]]}},
{ "type":"Feature","properties":{"osm_way_id":"114804529","name":"Sainsbury's","building":"retail","shop":"supermarket","other":{"brand":"Sainsbury's","brand:wikidata":"Q152096","brand:wikipedia":"en:Sainsbury's"}}, "geometry":{"type":"MultiPolygon","coordinates":[[[[-0.08505,53.56954],[-0.085,53.5701],[-0.08467,53.57009],[-0.08463,53.57036],[-0.08461,53.57067],[-0.08463,53.57066],[-0.08463,53.57072],[-0.08452,53.57072],[-0.08453,53.57066],[-0.08456,53.57066],[-0.08459,53.57037],[-0.08425,53.57036],[-0.08424,53.57031],[-0.08417,53.5703],[-0.08416,53.57052],[-0.08384,53.5705],[-0.08386,53.57026],[-0.0836,53.57025],[-0.08368,53.5695],[-0.08405,53.56952],[-0.08405,53.56948],[-0.08469,53.5695],[-0.08469,53.56941],[-0.08477,53.56942],[-0.08476,53.56953],[-0.08505,53.56954]]]]}},
{ "type":"Feature","properties":{"osm_way_id":"114814161","name":"Tesco Extra","building":"retail","shop":"supermarket","other":{"brand":"Tesco Extra","brand:wikidata":"Q25172225","brand:wikipedia":"en:Tesco Extra"}}, "geometry":{"type":"MultiPolygon","coordinates":[[[[-0.07921,53.56922],[-0.07809,53.56914],[-0.07785,53.57027],[-0.07808,53.57029],[-0.0781,53.57018],[-0.07882,53.57024],[-0.0788,53.57034],[-0.079,53.57036],[-0.07901,53.57031],[-0.07911,53.57032],[-0.07912,53.57029],[-0.07918,53.56997],[-0.07921,53.56997],[-0.07929,53.56998],[-0.07936,53.56963],[-0.07913,53.56961],[-0.07921,53.56922]]]]}},
{ "type":"Feature","properties":{"osm_way_id":"114883919","name":"Aldi","building":"retail","shop":"supermarket","other":{"brand":"ALDI","brand:wikidata":"Q41171672","brand:wikipedia":"en:Aldi"}}, "geometry":{"type":"MultiPolygon","coordinates":[[[[-0.06365,53.57389],[-0.06356,53.574],[-0.06348,53.57398],[-0.0634,53.57408],[-0.06263,53.57386],[-0.06275,53.57371],[-0.06285,53.57373],[-0.0629,53.57368],[-0.06365,53.57389]]]]}},
{ "type":"Feature","properties":{"osm_way_id":"185368456","name":"The Food Warehouse","building":"yes","shop":"supermarket","other":{"addr:city":"Grimsby","addr:country":"GB","addr:postcode":"DN31 1SG","addr:street":"Alexandra Retail Park, Corporation Rd","brand":"The Food Warehouse","brand:wikidata":"Q87263899","website":"https:\/\/www.thefoodwarehouse.com\/store-locator\/grimsby"}}, "geometry":{"type":"MultiPolygon","coordinates":[[[[-0.0854,53.57191],[-0.08565,53.57194],[-0.08557,53.57218],[-0.08503,53.57211],[-0.08494,53.5721],[-0.08502,53.57187],[-0.0854,53.57191]]]]}},
{ "type":"Feature","properties":{"osm_way_id":"185640512","name":"Morrisons","building":"yes","shop":"supermarket","other":{"addr:postcode":"DN37 7SQ","brand":"Morrisons","brand:wikidata":"Q922344","brand:wikipedia":"en:Morrisons"}}, "geometry":{"type":"MultiPolygon","coordinates":[[[[-0.1411,53.55087],[-0.14094,53.5509],[-0.14096,53.55094],[-0.13978,53.55114],[-0.13952,53.55061],[-0.13938,53.55064],[-0.13936,53.55059],[-0.13927,53.55041],[-0.13936,53.55039],[-0.13968,53.55034],[-0.13973,53.55043],[-0.14039,53.55031],[-0.14044,53.55042],[-0.1407,53.55038],[-0.14074,53.55047],[-0.14097,53.55043],[-0.14105,53.55059],[-0.14122,53.55056],[-0.1413,53.55073],[-0.14114,53.55076],[-0.14116,53.55079],[-0.14107,53.55081],[-0.1411,53.55087]]]]}},
{ "type":"Feature","properties":{"osm_way_id":"204833355","name":"Tesco Extra","building":"yes","shop":"supermarket","other":{"addr:city":"Cleethorpes","addr:postcode":"DN35 9QR","addr:street":"Hewitts Avenue","brand":"Tesco Extra","brand:wikidata":"Q25172225","brand:wikipedia":"en:Tesco Extra","contact:website":"https:\/\/www.tesco.com\/store-locator\/cleethorpes\/hewitts-circus-retail-park","fhrs:id":"676075","source:addr":"FHRS Open Data"}}, "geometry":{"type":"MultiPolygon","coordinates":[[[[-0.04593,53.53933],[-0.04598,53.53935],[-0.04597,53.53943],[-0.04595,53.53944],[-0.04597,53.53946],[-0.04584,53.53952],[-0.04586,53.53953],[-0.04582,53.53955],[-0.04579,53.53957],[-0.04575,53.53955],[-0.04563,53.53961],[-0.04562,53.53959],[-0.04557,53.53961],[-0.04546,53.5396],[-0.04535,53.53953],[-0.04475,53.53979],[-0.04395,53.53914],[-0.04402,53.53911],[-0.04396,53.53906],[-0.0442,53.53896],[-0.04432,53.53905],[-0.0445,53.53897],[-0.04461,53.53898],[-0.04464,53.539],[-0.04458,53.53902],[-0.04462,53.53905],[-0.0447,53.53902],[-0.0446,53.53896],[-0.04473,53.53889],[-0.04482,53.53895],[-0.04484,53.53895],[-0.04477,53.53889],[-0.04479,53.53888],[-0.04474,53.53883],[-0.04488,53.53877],[-0.04493,53.53881],[-0.04502,53.53877],[-0.04503,53.53878],[-0.04514,53.53883],[-0.04517,53.53884],[-0.04522,53.53888],[-0.04526,53.53891],[-0.04533,53.53888],[-0.04584,53.53932],[-0.04593,53.53933]]]]}},
{ "type":"Feature","properties":{"osm_way_id":"216245130","name":"Co-op Food","building":"yes","shop":"supermarket","other":{"brand":"Co-op Food","brand:wikidata":"Q3277439","brand:wikipedia":"en:Co-op Food","operator":"The Co-operative Group","operator:wikidata":"Q117202","operator:wikipedia":"en:The Co-operative Group"}}, "geometry":{"type":"MultiPolygon","coordinates":[[[[-0.03134,53.55853],[-0.031,53.55866],[-0.03087,53.55855],[-0.03124,53.55842],[-0.03134,53.55853]]]]}},
{ "type":"Feature","properties":{"osm_way_id":"230272292","name":"Lincolnshire Co-op","building":"yes","shop":"supermarket","other":{"operator":"Lincolnshire Co-operative Society"}}, "geometry":{"type":"MultiPolygon","coordinates":[[[[-0.13827,53.5649],[-0.13802,53.56473],[-0.13825,53.56461],[-0.13847,53.56478],[-0.13827,53.5649]]]]}},
{ "type":"Feature","properties":{"osm_way_id":"230372299","name":"McColls","building":"yes","shop":"supermarket"},"geometry":{"type":"MultiPolygon","coordinates":[[[[-0.13856,53.56459],[-0.1384,53.56448],[-0.13869,53.56433],[-0.13885,53.56444],[-0.13878,53.56448],[-0.13863,53.56455],[-0.13856,53.56459]]]]}},
{ "type":"Feature","properties":{"osm_way_id":"231869906","name":"ALDI","building":"yes","shop":"supermarket","other":{"brand":"ALDI","brand:wikidata":"Q41171672","brand:wikipedia":"en:Aldi"}}, "geometry":{"type":"MultiPolygon","coordinates":[[[[-0.11728,53.55828],[-0.11685,53.55827],[-0.11685,53.55808],[-0.11687,53.55783],[-0.11689,53.55783],[-0.11689,53.55777],[-0.1169,53.55771],[-0.11717,53.55772],[-0.11717,53.5577],[-0.11729,53.5577],[-0.11728,53.55828]]]]}},
{ "type":"Feature","properties":{"osm_way_id":"318194264","name":"Lincolnshire Co-op","building":"yes","shop":"supermarket"},"geometry":{"type":"MultiPolygon","coordinates":[[[[-0.12863,53.56986],[-0.12886,53.57003],[-0.12859,53.57016],[-0.12836,53.56999],[-0.12863,53.56986]]]]}},
{ "type":"Feature","properties":{"osm_way_id":"318194424","name":"The Co-operative Food","building":"yes","shop":"supermarket","other":{"operator":"The Co-operative Group"}}, "geometry":{"type":"MultiPolygon","coordinates":[[[[-0.12425,53.55115],[-0.12436,53.55116],[-0.12442,53.55119],[-0.12438,53.55138],[-0.12421,53.55137],[-0.12425,53.55115]]]]}},
{ "type":"Feature","properties":{"osm_way_id":"361778845","name":"Aldi","building":"supermarket","shop":"supermarket","other":{"addr:postcode":"DN40 2AA","addr:street":"Washdyke Lane","brand":"ALDI","brand:wikidata":"Q41171672","brand:wikipedia":"en:Aldi","opening_hours":"Mo-Sa 08:00-22:00; Su 10:00-16:00","wheelchair":"yes"}}, "geometry":{"type":"MultiPolygon","coordinates":[[[[-0.21118,53.61744],[-0.21077,53.6176],[-0.21035,53.61726],[-0.21077,53.61709],[-0.21118,53.61744]]]]}},
{ "type":"Feature","properties":{"osm_way_id":"424214898","name":"Lidl","building":"supermarket","shop":"supermarket","other":{"addr:country":"GB","addr:postcode":"DN32 9EG","addr:street":"Ladysmith Road","brand":"Lidl","brand:wikidata":"Q151954","brand:wikipedia":"en:Lidl","fhrs:id":"675334"}}, "geometry":{"type":"MultiPolygon","coordinates":[[[[-0.06675,53.55731],[-0.06572,53.55753],[-0.06556,53.55726],[-0.06583,53.5572],[-0.06585,53.55724],[-0.06652,53.5571],[-0.0666,53.55724],[-0.0667,53.55722],[-0.06675,53.55731]]]]}},
{ "type":"Feature","properties":{"osm_way_id":"589248755","name":"SPAR Scartho","building":"retail","shop":"supermarket","other":{"addr:country":"GB","addr:housenumber":"33","addr:postcode":"DN33 2LY","addr:street":"Waltham Road"}}, "geometry":{"type":"MultiPolygon","coordinates":[[[[-0.09257,53.53661],[-0.09278,53.53658],[-0.0928,53.53656],[-0.09294,53.53654],[-0.09301,53.53671],[-0.09299,53.53671],[-0.093,53.53674],[-0.09264,53.5368],[-0.09257,53.53661]]]]}},
{ "type":"Feature","properties":{"osm_way_id":"852726083","name":"Lidl","building":"yes","shop":"supermarket","other":{"addr:country":"GB","addr:postcode":"DN31 2BB","addr:street":"Cromwell Road","brand":"Lidl","brand:wikidata":"Q151954","brand:wikipedia":"en:Lidl","fhrs:id":"675247","source:outline":"Bing","website":"https:\/\/www.lidl.co.uk\/"}}, "geometry":{"type":"MultiPolygon","coordinates":[[[[-0.10261,53.56575],[-0.10285,53.5655],[-0.10196,53.5652],[-0.1019,53.56526],[-0.10198,53.56529],[-0.10184,53.56544],[-0.10238,53.56562],[-0.10235,53.56566],[-0.10261,53.56575]]]]}},
{ "type":"Feature","properties":{"osm_way_id":"1036911120","name":"Nisa Local","building":"yes","shop":"supermarket","other":{"addr:city":"Grimsby","addr:country":"GB","addr:housenumber":"180","addr:postcode":"DN33 1HA","addr:street":"Sutcliffe Avenue","phone":"+44 1472 877 534","website":"https:\/\/www.nisalocally.co.uk\/stores\/n-e-lincolnshire\/grimsby\/180-sutcliffe-ave"}}, "geometry":{"type":"MultiPolygon","coordinates":[[[[-0.10813,53.54838],[-0.10798,53.5484],[-0.10796,53.54832],[-0.10811,53.5483],[-0.10825,53.54829],[-0.10828,53.54837],[-0.10813,53.54838]]]]}}
]
}
