{
"type": "FeatureCollection",
"features": [
{ "type":"Feature","properties":{"osm_id":"412126493","name":"Tuffins","other":{"shop":"supermarket","operator":"Nisa","addr:city":"Craven Arms","wheelchair":"yes","addr:street":"Shrewsbury Road","addr:postcode":"SY7 9PY","addr:housename":"Craven Centre","toilets:wheelchair":"yes","wheelchair:description":"New (2015) designated wheelchair accessible toilet. Supermarket is wheelchair accessible throughout. Designated parking spaces generally not abused."}}, "geometry":{"type":"Point","coordinates":[-2.83645,52.44046 ]}},
{ "type":"Feature","properties":{"osm_id":"452478113","other":{"amenity":"bicycle_parking"}}, "geometry":{"type":"Point","coordinates":[-2.74239,52.70497 ]}},
{ "type":"Feature","properties":{"osm_id":"651603229","name":"Co-operative Food Store","other":{"addr:street":"Bank Farm Road","opening_hours":"Mo-Sa 07:00-22:00; Su 10:00-16:00","phone":"+44 1743 232308","shop":"supermarket","website":"https:\/\/www.coop.co.uk\/store-finder\/SY3-6DU\/bank-farm-road"}}, "geometry":{"type":"Point","coordinates":[-2.77545,52.69639 ]}},
{ "type":"Feature","properties":{"osm_id":"2244961367","other":{"emergency":"defibrillator","indoor":"no"}}, "geometry":{"type":"Point","coordinates":[-2.72228,52.85506 ]}},
{ "type":"Feature","properties":{"osm_id":"3762386227","name":"The Co-operative Food","other":{"shop":"supermarket","operator":"The Co-operative Group"}}, "geometry":{"type":"Point","coordinates":[-2.47377,52.6097 ]}},
{ "type":"Feature","properties":{"osm_id":"3769691490","other":{"emergency":"defibrillator","indoor":"yes","location":"On exterior wall of Co-Op facing Lion Meadow, just left if tge main entrance."}}, "geometry":{"type":"Point","coordinates":[-2.80712,52.53759 ]}},
{ "type":"Feature","properties":{"osm_id":"3988164299","name":"Spar","other":{"brand":"Spar","brand:wikidata":"Q610492","brand:wikipedia":"en:SPAR (retailer)","shop":"supermarket"}}, "geometry":{"type":"Point","coordinates":[-2.48267,52.61302 ]}},
{ "type":"Feature","properties":{"osm_id":"4087259545","name":"Co-operative Food","other":{"shop":"supermarket","operator":"Co-operative Food","addr:city":"Shifnal","addr:street":"High Street"}}, "geometry":{"type":"Point","coordinates":[-2.37256,52.67189 ]}},
{ "type":"Feature","properties":{"osm_id":"8764530230","other":{"amenity":"bench","material":"wood","seats":"2"}}, "geometry":{"type":"Point","coordinates":[-2.82634,52.65249 ]}},
{ "type":"Feature","properties":{"osm_id":"9310968065","name":"Sainsbury's","other":{"addr:city":"Ludlow","addr:street":"Duncow Road","brand":"Sainsbury's","brand:wikidata":"Q152096","brand:wikipedia":"en:Sainsbury's","shop":"supermarket","start_date":"2021-11-30","website":"https:\/\/stores.sainsburys.co.uk\/2355\/ludlow"}}, "geometry":{"type":"Point","coordinates":[-2.70282,52.37709 ]}},
{ "type":"Feature","properties":{"osm_id":"850819957","highway":"service","other":{"service":"parking_aisle"}}, "geometry":{"type":"LineString","coordinates":[[-2.99817,52.48781],[-2.99785,52.48761],[-2.99737,52.48785]]}},
{ "type":"Feature","properties":{"osm_way_id":"42728171","name":"Lidl","building":"yes","shop":"supermarket","other":{"addr:country":"GB","addr:postcode":"SY13 1QL","addr:street":"Bridgewater Street","brand":"Lidl","brand:wikidata":"Q151954","brand:wikipedia":"en:Lidl","fhrs:id":"1154410","wheelchair":"yes"}}, "geometry":{"type":"MultiPolygon","coordinates":[[[[-2.6796,52.96843],[-2.67917,52.9683],[-2.67897,52.96823],[-2.67874,52.96847],[-2.67937,52.96868],[-2.6796,52.96843]]]]}},
{ "type":"Feature","properties":{"osm_way_id":"78224893","name":"Co-op Food","building":"yes","shop":"supermarket","other":{"addr:city":"Bridgnorth","addr:postcode":"WV15 5AL","addr:street":"Mill Street","alt_name":"Co-op","brand":"Co-op Food","brand:wikidata":"Q3277439","brand:wikipedia":"en:Co-op Food","opening_hours":"Mo-Sa 07:00-20:00, Su 11:00-17:00","operator":"The Co-operative Group","operator:wikidata":"Q117202","operator:wikipedia":"en:The Co-operative Group","wheelchair":"yes"}}, "geometry":{"type":"MultiPolygon","coordinates":[[[[-2.41283,52.53418],[-2.41286,52.53444],[-2.4123,52.53446],[-2.41227,52.53419],[-2.41283,52.53418]]]]}},
{ "type":"Feature","properties":{"osm_way_id":"93926245","name":"Tesco","building":"yes","shop":"supermarket","other":{"addr:city":"Ludlow","addr:postcode":"SY8 2PQ","addr:street":"Station Drive","alt_name":"Tesco Ludlow Superstore","brand":"Tesco","brand:wikidata":"Q487494","brand:wikipedia":"en:Tesco","operator":"Tesco","toilets:wheelchair":"yes","wheelchair":"yes","wheelchair:description":"Spacious, automatic doors, wheelchair attachable trolleys and an accessible toilet."}}, "geometry":{"type":"MultiPolygon","coordinates":[[[[-2.71806,52.37076],[-2.71816,52.37118],[-2.71901,52.3711],[-2.71889,52.37061],[-2.71837,52.37066],[-2.71833,52.37052],[-2.71794,52.37056],[-2.71797,52.37067],[-2.71783,52.37069],[-2.71784,52.37072],[-2.71798,52.3707],[-2.71798,52.37073],[-2.71799,52.37077],[-2.71806,52.37076]]]]}},
{ "type":"Feature","properties":{"osm_way_id":"146810810","name":"The Co-operative Food","building":"supermarket","shop":"supermarket","other":{"brand":"The Co-operative Food","brand:wikidata":"Q107617274","brand:wikipedia":"en:The Co-operative Food","opening_hours":"Mo-Sa 07:00-22:00, Su 10:00-16:00","operator":"Midcounties Co-operative Society","operator:wikidata":"Q6841138","operator:wikipedia":"Midcounties Co-operative","wheelchair":"yes"}}, "geometry":{"type":"MultiPolygon","coordinates":[[[[-2.72224,52.85489],[-2.7223,52.85488],[-2.72235,52.85496],[-2.72228,52.85499],[-2.72233,52.85501],[-2.72228,52.85506],[-2.72226,52.85508],[-2.72218,52.85507],[-2.72208,52.85508],[-2.7219,52.85512],[-2.72172,52.85477],[-2.7216,52.85458],[-2.72183,52.85453],[-2.72188,52.85462],[-2.72204,52.85458],[-2.72224,52.85489]]]]}},
{ "type":"Feature","properties":{"osm_way_id":"155052635","name":"Morrisons","building":"yes","shop":"supermarket","other":{"addr:postcode":"SY1 4DL","addr:street":"Whitchurch Road","brand":"Morrisons","brand:wikidata":"Q922344","brand:wikipedia":"en:Morrisons"}}, "geometry":{"type":"MultiPolygon","coordinates":[[[[-2.73599,52.72855],[-2.73624,52.72866],[-2.73609,52.7288],[-2.73667,52.72905],[-2.73598,52.72958],[-2.73544,52.72931],[-2.73546,52.72929],[-2.73519,52.72917],[-2.73554,52.7289],[-2.73533,52.72879],[-2.73561,52.72858],[-2.73559,52.72851],[-2.73599,52.72849],[-2.73599,52.72855]]]]}},
{ "type":"Feature","properties":{"osm_way_id":"163581868","name":"Sainsbury's","building":"supermarket","shop":"supermarket","other":{"addr:housename":"Meole Brace Retail Park","addr:postcode":"SY3 9NB","addr:street":"Hereford Road","brand":"Sainsbury's","brand:wikidata":"Q152096","brand:wikipedia":"en:Sainsbury's","website":"https:\/\/stores.sainsburys.co.uk\/0718\/shrewsbury"}}, "geometry":{"type":"MultiPolygon","coordinates":[[[[-2.75281,52.68845],[-2.75194,52.68827],[-2.752,52.68816],[-2.75157,52.68807],[-2.75193,52.68745],[-2.75217,52.6875],[-2.75222,52.68742],[-2.75245,52.68747],[-2.75338,52.68767],[-2.75314,52.68807],[-2.75303,52.68805],[-2.75281,52.68845]]]]}},
{ "type":"Feature","properties":{"osm_way_id":"163581869","name":"Asda","building":"yes","shop":"supermarket","other":{"brand":"Asda","operator":"Asda Stores Ltd","addr:street":"Old Potts Way","addr:country":"GB","addr:postcode":"SY3 7ET","contact:phone":"+44 1743 276800","brand:wikidata":"Q297410","brand:wikipedia":"en:Asda","contact:twitter":"@asdashrewsbury","contact:website":"https:\/\/storelocator.asda.com\/west-midlands\/shrewsbury\/old-potts-way","contact:facebook":"https:\/\/www.facebook.com\/asdashrewsbury\/","opening_hours:covid19":"Mo-Sa 08:00-22:00; Su 10:00-16:00"}}, "geometry":{"type":"MultiPolygon","coordinates":[[[[-2.74225,52.70537],[-2.74218,52.70529],[-2.74165,52.70547],[-2.74127,52.70508],[-2.7413,52.70507],[-2.74127,52.70505],[-2.74138,52.70501],[-2.74133,52.70495],[-2.74133,52.70491],[-2.74195,52.70469],[-2.74205,52.7048],[-2.74217,52.70475],[-2.74239,52.70497],[-2.74243,52.70501],[-2.74248,52.70499],[-2.74269,52.70521],[-2.74245,52.70529],[-2.74225,52.70537]]]]}},
{ "type":"Feature","properties":{"osm_way_id":"167046490","name":"M&S Foodhall","building":"yes","shop":"supermarket","other":{"brand":"M&S Foodhall","brand:wikidata":"Q714491","brand:wikipedia":"en:Marks & Spencer"}}, "geometry":{"type":"MultiPolygon","coordinates":[[[[-2.75445,52.68949],[-2.75393,52.68938],[-2.7541,52.6891],[-2.75462,52.68921],[-2.75445,52.68949]]]]}},
{ "type":"Feature","properties":{"osm_way_id":"171498051","name":"Home Bargains","building":"yes","shop":"supermarket","other":{"wheelchair":"yes"}}, "geometry":{"type":"MultiPolygon","coordinates":[[[[-3.05511,52.85951],[-3.05536,52.85954],[-3.05537,52.85949],[-3.05538,52.85946],[-3.05541,52.85946],[-3.05542,52.85941],[-3.05543,52.85935],[-3.05561,52.85938],[-3.05575,52.85938],[-3.05583,52.85939],[-3.05586,52.85939],[-3.05592,52.8594],[-3.05607,52.85941],[-3.05619,52.85962],[-3.05591,52.8597],[-3.05508,52.85963],[-3.05511,52.85951]]]]}},
{ "type":"Feature","properties":{"osm_way_id":"171511511","name":"Sainsbury's","building":"retail","shop":"supermarket","other":{"addr:city":"Oswestry","addr:postcode":"SY11 2EF","addr:street":"Black Gate Street","alt_name":"Sainsbury's Ostwestry Superstore","brand":"Sainsbury's","brand:wikidata":"Q152096","brand:wikipedia":"en:Sainsbury's","toilets:wheelchair":"yes","wheelchair":"yes"}}, "geometry":{"type":"MultiPolygon","coordinates":[[[[-3.05175,52.85957],[-3.05177,52.85965],[-3.05176,52.85969],[-3.05172,52.85972],[-3.05164,52.85971],[-3.05161,52.85968],[-3.0516,52.85965],[-3.05133,52.85966],[-3.05125,52.85966],[-3.05125,52.85969],[-3.05105,52.85969],[-3.05105,52.85966],[-3.05098,52.85966],[-3.05094,52.85973],[-3.05075,52.8597],[-3.05075,52.85937],[-3.05074,52.85917],[-3.05089,52.85911],[-3.05091,52.8591],[-3.05112,52.8591],[-3.05169,52.85909],[-3.05176,52.85913],[-3.05175,52.85917],[-3.05184,52.85919],[-3.05189,52.85924],[-3.05175,52.85945],[-3.05175,52.85957]]]]}},
{ "type":"Feature","properties":{"osm_way_id":"171631988","name":"ALDI","building":"retail","shop":"supermarket","other":{"addr:city":"Oswestry","addr:postcode":"SY11 1HL","addr:street":"Beatrice Street","alt_name":"ALDI Oswestry","brand":"ALDI","brand:wikidata":"Q41171672","brand:wikipedia":"en:Aldi"}}, "geometry":{"type":"MultiPolygon","coordinates":[[[[-3.05117,52.8617],[-3.05095,52.86187],[-3.05152,52.86214],[-3.05179,52.86192],[-3.05162,52.86185],[-3.05158,52.86188],[-3.05117,52.8617]]]]}},
{ "type":"Feature","properties":{"osm_way_id":"171770560","name":"The Co-operative Food","building":"retail","shop":"supermarket"},"geometry":{"type":"MultiPolygon","coordinates":[[[[-3.05428,52.85546],[-3.05392,52.85582],[-3.05374,52.85576],[-3.05388,52.85562],[-3.05384,52.85561],[-3.05406,52.85539],[-3.05428,52.85546]]]]}},
{ "type":"Feature","properties":{"osm_way_id":"176628609","name":"The Co-operative Food","building":"yes","shop":"supermarket","other":{"alt_name":"The Mid Counties Co-operative Food","operator":"MIdcounties Co-operative Society","addr:street":"Lion Meadow","addr:postcode":"SY6 6BX"}}, "geometry":{"type":"MultiPolygon","coordinates":[[[[-2.80745,52.53769],[-2.80735,52.53766],[-2.80732,52.53769],[-2.80712,52.53762],[-2.80714,52.53759],[-2.80712,52.53759],[-2.80694,52.53753],[-2.80713,52.53732],[-2.80722,52.53722],[-2.80763,52.53736],[-2.80773,52.5374],[-2.80745,52.53769]]]]}},
{ "type":"Feature","properties":{"osm_way_id":"176628770","name":"Family Shopper","building":"yes","shop":"supermarket","other":{"addr:street":"Sandford Avenue","addr:postcode":"SY6 6AG"}}, "geometry":{"type":"MultiPolygon","coordinates":[[[[-2.8046,52.53831],[-2.80477,52.53805],[-2.80458,52.538],[-2.80441,52.53826],[-2.8046,52.53831]]]]}},
{ "type":"Feature","properties":{"osm_way_id":"183490285","name":"Tesco","building":"retail","shop":"supermarket","other":{"brand":"Tesco","alt_name":"Tesco Ellesmere Superstore","addr:city":"Ellesmere","addr:street":"Canal Way","addr:postcode":"SY12 0EJ","opening_hours":"Mo-Sa 06:00-24:00; Su 10:00-16:00","brand:wikidata":"Q487494","brand:wikipedia":"en:Tesco"}}, "geometry":{"type":"MultiPolygon","coordinates":[[[[-2.89693,52.90469],[-2.89611,52.90533],[-2.89581,52.9052],[-2.89575,52.90524],[-2.89548,52.90512],[-2.89559,52.90503],[-2.89565,52.90505],[-2.89577,52.90496],[-2.8961,52.9047],[-2.89624,52.90476],[-2.89636,52.90467],[-2.89665,52.9048],[-2.89685,52.90465],[-2.89693,52.90469]]]]}},
{ "type":"Feature","properties":{"osm_way_id":"183563496","name":"The Co-operative Food","building":"yes","shop":"supermarket","other":{"addr:city":"Ludlow","addr:postcode":"SY8 1LS","addr:street":"Foldgate Lane","old_name":"Tuffins","wheelchair":"yes"}}, "geometry":{"type":"MultiPolygon","coordinates":[[[[-2.69608,52.36463],[-2.69574,52.3646],[-2.69583,52.36432],[-2.69597,52.36434],[-2.69599,52.36428],[-2.69613,52.3643],[-2.69611,52.36437],[-2.69619,52.36438],[-2.69613,52.36457],[-2.69609,52.36457],[-2.69608,52.36463]]]]}},
{ "type":"Feature","properties":{"osm_way_id":"194952556","name":"M&S Simply Food","building":"yes","shop":"supermarket","other":{"addr:housenumber":"43","addr:postcode":"WV15 6AG","addr:street":"St John Street","alt_name":"M&S Bridgnorth Simply Food","brand":"M&S Simply Food","brand:wikidata":"Q714491","brand:wikipedia":"en:Marks & Spencer","wheelchair":"yes"}}, "geometry":{"type":"MultiPolygon","coordinates":[[[[-2.41325,52.5342],[-2.41326,52.53417],[-2.41331,52.53417],[-2.41334,52.53409],[-2.41329,52.53408],[-2.41331,52.53404],[-2.41277,52.53397],[-2.41272,52.53413],[-2.41325,52.5342]]]]}},
{ "type":"Feature","properties":{"osm_way_id":"194952559","name":"Sainsbury's","building":"yes","shop":"supermarket","other":{"addr:postcode":"WV16 4QN","addr:street":"Whitburn Street","alt_name":"Sainsbury's Bridgorth Superstore","brand":"Sainsbury's","brand:wikidata":"Q152096","brand:wikipedia":"en:Sainsbury's","wheelchair":"yes"}}, "geometry":{"type":"MultiPolygon","coordinates":[[[[-2.42448,52.53688],[-2.42431,52.53684],[-2.42434,52.53679],[-2.42363,52.53665],[-2.42377,52.53639],[-2.42369,52.53638],[-2.42378,52.53621],[-2.42458,52.53637],[-2.42443,52.53665],[-2.42459,52.53668],[-2.42448,52.53688]]]]}},
{ "type":"Feature","properties":{"osm_way_id":"200353909","name":"Sainsbury's","building":"yes","shop":"supermarket","other":{"brand":"Sainsbury's","brand:wikidata":"Q152096","brand:wikipedia":"en:Sainsbury's"}}, "geometry":{"type":"MultiPolygon","coordinates":[[[[-2.68621,52.97346],[-2.68515,52.97352],[-2.68515,52.97351],[-2.68492,52.97352],[-2.68484,52.97341],[-2.68503,52.97334],[-2.68501,52.97319],[-2.6851,52.97318],[-2.68507,52.97285],[-2.68611,52.9728],[-2.68621,52.97346]]]]}},
{ "type":"Feature","properties":{"osm_way_id":"200522771","name":"Aldi","building":"retail","shop":"supermarket","other":{"addr:postcode":"SY1 4PR","addr:street":"Arlington Way","brand":"ALDI","brand:wikidata":"Q41171672","brand:wikipedia":"en:Aldi"}}, "geometry":{"type":"MultiPolygon","coordinates":[[[[-2.71831,52.73588],[-2.71799,52.73626],[-2.71823,52.73634],[-2.71819,52.73638],[-2.71837,52.73643],[-2.71874,52.73601],[-2.71831,52.73588]]]]}},
{ "type":"Feature","properties":{"osm_way_id":"200526350","name":"Morrisons","building":"retail","shop":"supermarket","other":{"brand":"Morrisons","brand:wikidata":"Q922344","brand:wikipedia":"en:Morrisons"}}, "geometry":{"type":"MultiPolygon","coordinates":[[[[-2.48835,52.90942],[-2.48821,52.90924],[-2.48826,52.90922],[-2.48811,52.90903],[-2.48824,52.909],[-2.48817,52.90891],[-2.48807,52.90894],[-2.48804,52.90892],[-2.48773,52.909],[-2.48776,52.90903],[-2.48753,52.9091],[-2.48733,52.90916],[-2.48741,52.90925],[-2.48724,52.9093],[-2.48737,52.90946],[-2.4875,52.90964],[-2.48835,52.90942]]]]}},
{ "type":"Feature","properties":{"osm_way_id":"200714912","name":"Tesco Extra","building":"commercial","shop":"supermarket","other":{"addr:housename":"Cattle Market","addr:postcode":"SY1 4HA","addr:street":"Battlefield Road","brand":"Tesco Extra","brand:wikidata":"Q25172225","brand:wikipedia":"en:Tesco Extra"}}, "geometry":{"type":"MultiPolygon","coordinates":[[[[-2.72641,52.73768],[-2.72642,52.73767],[-2.72622,52.7376],[-2.72624,52.73758],[-2.72562,52.73737],[-2.72564,52.73735],[-2.72547,52.7373],[-2.7246,52.73824],[-2.7254,52.73851],[-2.72544,52.73847],[-2.72563,52.73854],[-2.72586,52.73829],[-2.72597,52.73832],[-2.72614,52.73814],[-2.72628,52.73818],[-2.72634,52.73811],[-2.72617,52.73805],[-2.72638,52.73782],[-2.72643,52.73784],[-2.72654,52.73772],[-2.72641,52.73768]]]]}},
{ "type":"Feature","properties":{"osm_way_id":"200715154","name":"Lidl","building":"yes","shop":"supermarket","other":{"addr:country":"GB","addr:postcode":"SY1 3AA","addr:street":"Whitchurch Road","brand":"Lidl","brand:wikidata":"Q151954","brand:wikipedia":"en:Lidl","fhrs:id":"126007"}}, "geometry":{"type":"MultiPolygon","coordinates":[[[[-2.72629,52.73633],[-2.72563,52.73605],[-2.72559,52.73609],[-2.72551,52.73605],[-2.72541,52.73613],[-2.72539,52.73612],[-2.72523,52.73626],[-2.72549,52.73637],[-2.72554,52.73633],[-2.72559,52.73635],[-2.72558,52.73636],[-2.72581,52.73646],[-2.72583,52.73645],[-2.72599,52.73651],[-2.72612,52.73638],[-2.72619,52.73641],[-2.72629,52.73633]]]]}},
{ "type":"Feature","properties":{"osm_way_id":"215424514","name":"ALDI","building":"yes","shop":"supermarket","other":{"addr:city":"Ludlow","addr:postcode":"SY8 1DA","addr:street":"Station Drive","alt_name":"ALDI Ludlow","brand":"ALDI","brand:wikidata":"Q41171672","brand:wikipedia":"en:Aldi","wheelchair":"yes"}}, "geometry":{"type":"MultiPolygon","coordinates":[[[[-2.71788,52.37188],[-2.71781,52.37151],[-2.71778,52.37151],[-2.71774,52.37136],[-2.71739,52.37139],[-2.7173,52.3714],[-2.7174,52.37186],[-2.71765,52.37184],[-2.71766,52.37189],[-2.71788,52.37188]]]]}},
{ "type":"Feature","properties":{"osm_way_id":"219099930","name":"M&S Simply Food","building":"yes","shop":"supermarket","other":{"addr:city":"Oswestry","addr:postcode":"SY11 2EL","addr:street":"Smithfield Road","alt_name":"M&S Oswestry Simply Food","brand":"M&S Simply Food","brand:wikidata":"Q714491","brand:wikipedia":"en:Marks & Spencer","wheelchair":"yes"}}, "geometry":{"type":"MultiPolygon","coordinates":[[[[-3.05544,52.85739],[-3.05541,52.85742],[-3.05549,52.85746],[-3.05545,52.85752],[-3.05534,52.85747],[-3.05513,52.85763],[-3.05515,52.85761],[-3.05474,52.85742],[-3.05477,52.8574],[-3.05487,52.85732],[-3.05504,52.8572],[-3.05544,52.85739]]]]}},
{ "type":"Feature","properties":{"osm_way_id":"219446717","name":"Co-op","building":"yes","shop":"supermarket","other":{"addr:street":"Station Road","addr:postcode":"SY5 0BE","addr:housename":"Minsterley Service Station"}}, "geometry":{"type":"MultiPolygon","coordinates":[[[[-2.92121,52.64128],[-2.92106,52.64114],[-2.92085,52.64122],[-2.921,52.64137],[-2.92121,52.64128]]]]}},
{ "type":"Feature","properties":{"osm_way_id":"240842985","name":"The Co-operative Food","building":"yes","shop":"supermarket","other":{"fhrs:id":"799297","addr:city":"Bishop's Castle","wheelchair":"limited","addr:street":"Church Street","addr:postcode":"SY9 5AD","opening_hours":"Mo-Su 06:00-22:00","addr:housenumber":"59-63"}}, "geometry":{"type":"MultiPolygon","coordinates":[[[[-2.99799,52.49254],[-2.99786,52.49252],[-2.99781,52.49266],[-2.99823,52.49271],[-2.99825,52.49264],[-2.99796,52.4926],[-2.99799,52.49254]]]]}},
{ "type":"Feature","properties":{"osm_way_id":"286894536","name":"Aldi","building":"yes","shop":"supermarket","other":{"addr:postcode":"WV15 6AL","addr:street":"Stourbridge Road","alt_name":"ALDI Bridgnorth","brand":"ALDI","brand:wikidata":"Q41171672","brand:wikipedia":"en:Aldi","toilets:wheelchair":"no","wheelchair":"yes"}}, "geometry":{"type":"MultiPolygon","coordinates":[[[[-2.40771,52.52895],[-2.40771,52.5287],[-2.40683,52.52869],[-2.40682,52.52894],[-2.40771,52.52895]]]]}},
{ "type":"Feature","properties":{"osm_way_id":"293210060","name":"Stans Superstore","building":"yes","shop":"supermarket","other":{"addr:city":"St Martins","addr:postcode":"SY11 3AY","not:brand:wikidata":"Q16999069","operator":"Nisa Extra"}}, "geometry":{"type":"MultiPolygon","coordinates":[[[[-3.00824,52.92423],[-3.00807,52.92439],[-3.00814,52.92442],[-3.00812,52.92444],[-3.00811,52.92447],[-3.00812,52.92451],[-3.00815,52.92454],[-3.00818,52.92457],[-3.00814,52.92462],[-3.00827,52.92468],[-3.00821,52.92474],[-3.00821,52.92477],[-3.00849,52.92488],[-3.00843,52.92493],[-3.00849,52.92498],[-3.00887,52.92512],[-3.00891,52.92508],[-3.00883,52.92505],[-3.00901,52.92488],[-3.00886,52.92482],[-3.00912,52.92457],[-3.00824,52.92423]]]]}},
{ "type":"Feature","properties":{"osm_way_id":"344746997","name":"ALDI","shop":"supermarket","other":{"brand":"ALDI","brand:wikidata":"Q41171672","brand:wikipedia":"en:Aldi"}}, "geometry":{"type":"MultiPolygon","coordinates":[[[[-2.74078,52.68807],[-2.74073,52.68738],[-2.73964,52.6874],[-2.73969,52.68807],[-2.74078,52.68807]]]]}},
{ "type":"Feature","properties":{"osm_way_id":"403063733","name":"Tesco","building":"yes","shop":"supermarket","other":{"brand":"Tesco","brand:wikidata":"Q487494","brand:wikipedia":"en:Tesco","wheelchair":"yes"}}, "geometry":{"type":"MultiPolygon","coordinates":[[[[-2.68185,52.96855],[-2.68196,52.96854],[-2.68217,52.96834],[-2.68212,52.96823],[-2.6815,52.96797],[-2.68139,52.96799],[-2.68107,52.96787],[-2.68102,52.96792],[-2.68122,52.968],[-2.68109,52.96813],[-2.68117,52.96829],[-2.68185,52.96855]]]]}},
{ "type":"Feature","properties":{"osm_way_id":"403116700","name":"Asda","building":"retail","shop":"supermarket","other":{"brand":"Asda","fhrs:id":"81592","operator":"Asda Stores Ltd","addr:city":"Market Drayton","addr:street":"Stafford Street","addr:country":"GB","addr:postcode":"TF9 1HY","brand:wikidata":"Q297410","brand:wikipedia":"en:Asda","contact:twitter":"@asda","contact:website":"https:\/\/storelocator.asda.com\/west-midlands\/market-drayton\/32-stafford-street","addr:housenumber":"32","contact:facebook":"https:\/\/www.facebook.com\/asda\/"}}, "geometry":{"type":"MultiPolygon","coordinates":[[[[-2.48263,52.90485],[-2.48236,52.90496],[-2.48202,52.90466],[-2.48229,52.90455],[-2.48263,52.90485]]]]}},
{ "type":"Feature","properties":{"osm_way_id":"403117586","name":"Lidl","building":"retail","shop":"supermarket","other":{"brand":"Lidl","fhrs:id":"124728","addr:country":"GB","addr:postcode":"TF9 3AA","brand:wikidata":"Q151954","brand:wikipedia":"en:Lidl"}}, "geometry":{"type":"MultiPolygon","coordinates":[[[[-2.48606,52.90718],[-2.48594,52.90723],[-2.48599,52.90728],[-2.48588,52.90733],[-2.48582,52.90728],[-2.4854,52.90746],[-2.48514,52.90724],[-2.48533,52.90716],[-2.48537,52.90719],[-2.48584,52.90699],[-2.48606,52.90718]]]]}},
{ "type":"Feature","properties":{"osm_way_id":"447726955","name":"The Co-operative Food","building":"yes","shop":"supermarket","other":{"addr:city":"Ellesmere","addr:housenumber":"25","addr:postcode":"SY12 0AW","addr:street":"Cross Street","atm":"yes","brand":"The Co-operative Food","brand:wikidata":"Q107617274","opening_hours":"Mo-Su 07:00-22:00"}}, "geometry":{"type":"MultiPolygon","coordinates":[[[[-2.89339,52.90822],[-2.89347,52.90811],[-2.89321,52.90804],[-2.89313,52.90815],[-2.89339,52.90822]]]]}},
{ "type":"Feature","properties":{"osm_way_id":"449114629","name":"Co-operative Food","building":"yes","shop":"supermarket"},"geometry":{"type":"MultiPolygon","coordinates":[[[[-2.48499,52.37823],[-2.48477,52.37825],[-2.48468,52.37796],[-2.48485,52.37794],[-2.48488,52.37805],[-2.48494,52.37804],[-2.48499,52.37823]]]]}},
{ "type":"Feature","properties":{"osm_way_id":"520950002","name":"Co-op Food","building":"retail","shop":"supermarket","other":{"addr:housenumber":"Bicton Heath Shopping Centre","addr:street":"Welshpool Road","brand":"Co-op Food","brand:wikidata":"Q6841138","brand:wikipedia":"en:Midcounties Co-operative","building:levels":"1","diet:kosher":"no","nohousenumber":"yes","opening_hours":"Mo-Sa 07:00-22:00; Su 10:00-16:00","operator":"Mid-Counties Co-op","phone":"+44 1743 365629","roof:shape":"hipped","website":"https:\/\/www.coop.co.uk\/store-finder\/SY3-5AD\/bicton-heath-shopping-centre","wheelchair":"yes"}}, "geometry":{"type":"MultiPolygon","coordinates":[[[[-2.80633,52.71485],[-2.80633,52.71481],[-2.80626,52.71481],[-2.80625,52.71474],[-2.80617,52.71474],[-2.80617,52.7147],[-2.80603,52.7147],[-2.80596,52.7147],[-2.80596,52.71475],[-2.80579,52.71475],[-2.80579,52.71498],[-2.80579,52.71505],[-2.80643,52.71505],[-2.80643,52.71487],[-2.80643,52.71485],[-2.80633,52.71485]]]]}},
{ "type":"Feature","properties":{"osm_way_id":"572093979","name":"Lidl","building":"commercial","shop":"supermarket","other":{"addr:country":"GB","addr:street":"Oteley Road","brand":"Lidl","brand:wikidata":"Q151954","brand:wikipedia":"en:Lidl","fhrs:id":"1109438"}}, "geometry":{"type":"MultiPolygon","coordinates":[[[[-2.74786,52.68926],[-2.74678,52.68902],[-2.74675,52.68908],[-2.74661,52.68931],[-2.74761,52.68954],[-2.74773,52.68935],[-2.74779,52.68937],[-2.74786,52.68926]]]]}},
{ "type":"Feature","properties":{"osm_way_id":"578641005","name":"Co-op Food","building":"yes","shop":"supermarket","other":{"addr:housenumber":"37","addr:street":"Mytton Oak Road","brand":"Co-op Food","brand:wikidata":"Q3277439","brand:wikipedia":"en:Co-op Food","opening_hours":"Mo-Sa 07:00-22:00; Su 10:00-16:00","operator":"The Co-operative Group","operator:wikidata":"Q117202","operator:wikipedia":"en:The Co-operative Group","phone":"+44 1743 350721","website":"https:\/\/www.coop.co.uk\/store-finder\/SY3-8UD\/37-mytton-oak-road"}}, "geometry":{"type":"MultiPolygon","coordinates":[[[[-2.78341,52.7071],[-2.78318,52.70674],[-2.78307,52.70677],[-2.78312,52.70684],[-2.78282,52.70691],[-2.78301,52.7072],[-2.78335,52.70712],[-2.78341,52.7071]]]]}},
{ "type":"Feature","properties":{"osm_way_id":"606494154","name":"Aldi","building":"retail","shop":"supermarket","other":{"brand":"ALDI","brand:wikidata":"Q41171672","brand:wikipedia":"en:Aldi"}}, "geometry":{"type":"MultiPolygon","coordinates":[[[[-3.04475,52.85118],[-3.04441,52.85102],[-3.0439,52.85142],[-3.04397,52.85145],[-3.04393,52.85148],[-3.04424,52.85162],[-3.04446,52.85146],[-3.04442,52.85144],[-3.04475,52.85118]]]]}},
{ "type":"Feature","properties":{"osm_way_id":"713810183","name":"Morrisons","building":"yes","shop":"supermarket","other":{"addr:city":"Oswestry","addr:postcode":"SY11 4QA","addr:street":"Shrewsbury Road","brand":"Morrisons","brand:wikidata":"Q922344","brand:wikipedia":"en:Morrisons","fhrs:id":"1202789","source:addr":"FHRS Open Data","website":"https:\/\/my.morrisons.com\/storefinder\/416"}}, "geometry":{"type":"MultiPolygon","coordinates":[[[[-3.04187,52.8507],[-3.04055,52.85071],[-3.04056,52.85009],[-3.0419,52.8501],[-3.0419,52.85036],[-3.04219,52.85035],[-3.04219,52.8506],[-3.04187,52.8506],[-3.04187,52.8507]]]]}},
{ "type":"Feature","properties":{"osm_way_id":"801793682","name":"Aldi","building":"retail","shop":"supermarket","other":{"addr:city":"Whitchurch","addr:postcode":"SY13 1JG","addr:street":"Wrexham Road","brand":"ALDI","brand:wikidata":"Q41171672","brand:wikipedia":"en:Aldi","opening_hours":"Mo-Sa 08:00-22:00; Su 10:00-16:00","opening_hours:url":"https:\/\/www.aldi.co.uk\/store\/s-uk-E1254","start_date":"2020-06-04","website":"https:\/\/www.aldi.co.uk\/store\/s-uk-E1254"}}, "geometry":{"type":"MultiPolygon","coordinates":[[[[-2.70556,52.96799],[-2.70547,52.96792],[-2.70495,52.96817],[-2.70513,52.96831],[-2.70574,52.96801],[-2.70565,52.96794],[-2.70556,52.96799]]]]}},
{ "type":"Feature","properties":{"osm_way_id":"830683130","name":"Lidl","building":"yes","shop":"supermarket","other":{"addr:country":"GB","addr:housenumber":"70","addr:postcode":"SY11 2HU","addr:street":"Victoria Road","brand":"Lidl","brand:wikidata":"Q151954","brand:wikipedia":"en:Lidl","fhrs:id":"1044447"}}, "geometry":{"type":"MultiPolygon","coordinates":[[[[-3.04956,52.85404],[-3.04921,52.85384],[-3.05,52.85335],[-3.05014,52.85343],[-3.05009,52.85346],[-3.0503,52.85359],[-3.04956,52.85404]]]]}},
{ "type":"Feature","properties":{"osm_way_id":"849329785","building":"house"},"geometry":{"type":"MultiPolygon","coordinates":[[[[-3.03004,52.85845],[-3.02993,52.85846],[-3.02991,52.8584],[-3.03002,52.85839],[-3.03004,52.85845]]]]}},
{ "type":"Feature","properties":{"osm_way_id":"932922389","natural":"wood"},"geometry":{"type":"MultiPolygon","coordinates":[[[[-2.6163,52.63359],[-2.6159,52.63394],[-2.61548,52.63462],[-2.61476,52.63497],[-2.61468,52.63471],[-2.61473,52.63426],[-2.61497,52.63379],[-2.61574,52.63371],[-2.6163,52.63359]]]]}},
{ "type":"Feature","properties":{"osm_way_id":"947386871","name":"Spar","building":"yes","shop":"supermarket","other":{"brand":"Spar","brand:wikidata":"Q610492","brand:wikipedia":"en:Spar (retailer)"}}, "geometry":{"type":"MultiPolygon","coordinates":[[[[-2.85325,52.7915],[-2.85291,52.79149],[-2.85293,52.79131],[-2.85327,52.79132],[-2.85326,52.79147],[-2.85325,52.7915]]]]}}
]
}
