{
"type": "FeatureCollection",
"features": [
{ "type":"Feature","properties":{"osm_id":"2736274792","name":"Co-op Food","other":{"addr:city":"Arbroath","addr:country":"GB","addr:housename":"Abbeygate Mall","addr:postcode":"DD11 1HY","addr:street":"High Street","addr:unit":"11","brand":"Co-op Food","brand:wikidata":"Q3277439","brand:wikipedia":"en:Co-op Food","shop":"supermarket"}}, "geometry":{"type":"Point","coordinates":[-2.58326,56.56031 ]}},
{ "type":"Feature","properties":{"osm_id":"4585313288","name":"Scotmid","other":{"addr:city":"Montrose","addr:housenumber":"69-75","addr:postcode":"DD10 8QZ","addr:street":"High Street","atm":"yes","brand":"Scotmid","brand:wikidata":"Q7435719","brand:wikipedia":"en:Scotmid","opening_hours":"Mo-Sa 07:00-19:00; Su 08:00-22:00","operator":"Scottish Midland Co-operative Society","shop":"supermarket"}}, "geometry":{"type":"Point","coordinates":[-2.46785,56.71191 ]}},
{ "type":"Feature","properties":{"osm_id":"8260343067","name":"S-Mart - The Social Supermarket","other":{"shop":"supermarket"}}, "geometry":{"type":"Point","coordinates":[-2.88961,56.64394 ]}},
{ "type":"Feature","properties":{"osm_id":"8431784633","name":"Gourmet Grocery","other":{"addr:city":"Brechin","addr:housenumber":"29","addr:postcode":"DD9 6EG","addr:street":"St David Street","phone":"+44 1356 622307","shop":"supermarket","website":"https:\/\/gourmetgrocery.co.uk"}}, "geometry":{"type":"Point","coordinates":[-2.66159,56.732 ]}},
{ "type":"Feature","properties":{"osm_way_id":"69754953","name":"Tesco","building":"yes","shop":"supermarket","other":{"brand":"Tesco","branch":"Montrose Superstore","addr:city":"Montrose","addr:street":"Western Road","addr:postcode":"DD10 8LW","opening_hours":"Mo-Su 06:00-24:00","brand:wikidata":"Q487494","brand:wikipedia":"en:Tesco"}}, "geometry":{"type":"Polygon","coordinates":[[[ -2.4707,56.71162],[-2.47056,56.71158],[-2.47064,56.71151],[-2.47046,56.71145],[-2.47054,56.71137],[-2.47026,56.71128],[-2.47094,56.71059],[-2.47153,56.71077],[-2.4707,56.71162]] ]}},
{ "type":"Feature","properties":{"osm_way_id":"70007669","name":"Lidl","building":"yes","shop":"supermarket","other":{"addr:city":"Montrose","addr:country":"GB","addr:postcode":"DD10 9BP","addr:street":"Brechin Road","branch":"Montrose","brand":"Lidl","brand:wikidata":"Q151954","brand:wikipedia":"en:Lidl","fhrs:id":"75281","opening_hours":"Mo-Su 08:00-21:00","source:name":"survey"}}, "geometry":{"type":"Polygon","coordinates":[[[ -2.46735,56.72308],[-2.46687,56.72308],[-2.46686,56.72297],[-2.46677,56.72297],[-2.46676,56.72292],[-2.46676,56.7229],[-2.46686,56.7229],[-2.46685,56.72251],[-2.4674,56.7225],[-2.46741,56.72268],[-2.46734,56.72268],[-2.46735,56.72308]] ]}},
{ "type":"Feature","properties":{"osm_way_id":"115118529","name":"The Co-operative Food","building":"yes","shop":"supermarket","other":{"operator":"The Co-operative Group"}}, "geometry":{"type":"Polygon","coordinates":[[[ -2.66125,56.73586],[-2.6604,56.73569],[-2.66049,56.73555],[-2.66042,56.73554],[-2.66047,56.73547],[-2.66138,56.73565],[-2.66125,56.73586]] ]}},
{ "type":"Feature","properties":{"osm_way_id":"152405611","name":"Morrisons","building":"yes","shop":"supermarket","other":{"brand":"Morrisons","phone":"+44 1241 870 900","toilets":"yes","operator":"Morrisons","addr:postcode":"DD11 1UH","brand:wikidata":"Q922344","toilets:access":"public","brand:wikipedia":"en:Morrisons"}}, "geometry":{"type":"Polygon","coordinates":[[[ -2.58817,56.56222],[-2.58798,56.56222],[-2.58798,56.56227],[-2.58755,56.56227],[-2.58755,56.5623],[-2.58712,56.5623],[-2.58711,56.56205],[-2.58708,56.56148],[-2.58726,56.56148],[-2.58726,56.56156],[-2.58815,56.56155],[-2.5882,56.56174],[-2.5882,56.56199],[-2.58817,56.56222]] ]}},
{ "type":"Feature","properties":{"osm_way_id":"205397225","name":"Co-op Food","building":"yes","shop":"supermarket","other":{"addr:city":"Kirriemuir","addr:housenumber":"16","addr:postcode":"DD8 4EY","addr:street":"High Street","brand":"Co-op Food","brand:wikidata":"Q3277439","brand:wikipedia":"en:Co-op Food","operator":"The Co-operative Group","operator:wikidata":"Q117202","operator:wikipedia":"en:The Co-operative Group"}}, "geometry":{"type":"Polygon","coordinates":[[[ -3.00433,56.67345],[-3.00409,56.67347],[-3.00404,56.67329],[-3.00403,56.67329],[-3.00402,56.67329],[-3.004,56.67325],[-3.00401,56.67325],[-3.00402,56.67324],[-3.00406,56.67324],[-3.00428,56.67321],[-3.00431,56.67326],[-3.00431,56.67332],[-3.00431,56.67333],[-3.00432,56.67339],[-3.00433,56.67345]] ]}},
{ "type":"Feature","properties":{"osm_way_id":"205397227","name":"Co-op Food","building":"yes","shop":"supermarket","other":{"addr:city":"Kirriemuir","addr:housenumber":"33","addr:postcode":"DD8 4HN","addr:street":"Roods","brand":"Co-op Food","brand:wikidata":"Q3277439","brand:wikipedia":"en:Co-op Food","operator":"The Co-operative Group","operator:wikidata":"Q117202","operator:wikipedia":"en:The Co-operative Group"}}, "geometry":{"type":"Polygon","coordinates":[[[ -3.00497,56.67472],[-3.00491,56.67472],[-3.00493,56.6748],[-3.00484,56.6748],[-3.00485,56.67482],[-3.00471,56.67483],[-3.0047,56.67482],[-3.00449,56.67483],[-3.00448,56.67482],[-3.00441,56.67482],[-3.00438,56.67475],[-3.00436,56.67474],[-3.00431,56.67454],[-3.00479,56.67451],[-3.00487,56.67446],[-3.00488,56.67451],[-3.00494,56.6745],[-3.00495,56.67454],[-3.00493,56.67454],[-3.00497,56.67472]] ]}},
{ "type":"Feature","properties":{"osm_way_id":"205398123","name":"Tesco","building":"yes","shop":"supermarket","other":{"brand":"Tesco","addr:city":"Forfar","addr:street":"Castle Street","addr:postcode":"DD8 3HX","brand:wikidata":"Q487494","brand:wikipedia":"en:Tesco"}}, "geometry":{"type":"Polygon","coordinates":[[[ -2.88724,56.64879],[-2.88648,56.64882],[-2.88634,56.64793],[-2.88691,56.64791],[-2.88709,56.6479],[-2.88711,56.64804],[-2.88713,56.64811],[-2.88721,56.6481],[-2.88726,56.64842],[-2.88718,56.64842],[-2.88724,56.64879]] ]}},
{ "type":"Feature","properties":{"osm_way_id":"205398124","name":"Lidl","building":"yes","shop":"supermarket","other":{"addr:country":"GB","addr:postcode":"DD8 3JA","addr:street":"Queenswell Road","brand":"Lidl","brand:wikidata":"Q151954","brand:wikipedia":"en:Lidl","fhrs:id":"69260"}}, "geometry":{"type":"Polygon","coordinates":[[[ -2.89168,56.647],[-2.8916,56.64701],[-2.8916,56.64702],[-2.89128,56.64705],[-2.89129,56.64707],[-2.89115,56.64709],[-2.89101,56.64662],[-2.89144,56.64658],[-2.89153,56.64684],[-2.89155,56.64684],[-2.89162,56.64683],[-2.89168,56.647]] ]}},
{ "type":"Feature","properties":{"osm_way_id":"205398126","name":"Aldi","building":"yes","shop":"supermarket","other":{"addr:postcode":"DD8 1BT","addr:street":"Craig O'Loch Road","brand":"ALDI","brand:wikidata":"Q41171672","brand:wikipedia":"en:Aldi"}}, "geometry":{"type":"Polygon","coordinates":[[[ -2.89518,56.64618],[-2.89441,56.64619],[-2.89441,56.64608],[-2.89432,56.64608],[-2.89432,56.64594],[-2.89517,56.64593],[-2.89518,56.64618]] ]}},
{ "type":"Feature","properties":{"osm_way_id":"210270668","name":"Tesco","building":"yes","shop":"supermarket","other":{"brand":"Tesco","brand:wikidata":"Q487494","brand:wikipedia":"en:Tesco"}}, "geometry":{"type":"Polygon","coordinates":[[[ -2.59249,56.56247],[-2.59245,56.56247],[-2.59123,56.56248],[-2.59121,56.56207],[-2.59121,56.56205],[-2.59242,56.56203],[-2.59243,56.56214],[-2.59247,56.56214],[-2.59249,56.56247]] ]}},
{ "type":"Feature","properties":{"osm_way_id":"242192224","name":"Asda","building":"supermarket","shop":"supermarket","other":{"addr:city":"Arbroath","addr:country":"GB","addr:housename":"Westway Retail Park","addr:postcode":"DD11 2NQ","addr:street":"Dundee Road","addr:unit":"6","alt_name":"Asda Arbroath","brand":"Asda","brand:wikidata":"Q297410","brand:wikipedia":"en:Asda","contact:facebook":"https:\/\/www.facebook.com\/asda\/","contact:phone":"+44 1241 442 500","contact:twitter":"@asda","contact:website":"https:\/\/storelocator.asda.com\/scotland\/arbroath\/westway-retail-park-dundee-road","fhrs:id":"439851","opening_hours":"Mo-Sa 07:00-23:00; Su 08:00-22:00","operator":"Asda Stores Ltd","wheelchair":"yes"}}, "geometry":{"type":"Polygon","coordinates":[[[ -2.61355,56.5497],[-2.61429,56.54939],[-2.61476,56.54975],[-2.61402,56.55005],[-2.61372,56.54982],[-2.61355,56.5497]] ]}},
{ "type":"Feature","properties":{"osm_way_id":"289061949","name":"Tesco","building":"commercial","shop":"supermarket","other":{"addr:housename":"Tesco Superstore","brand":"Tesco","brand:wikidata":"Q487494","brand:wikipedia":"en:Tesco","building:levels":"1","opening_hours":"Mo-Fr 07:00-23:00; Sa 07:00-22:00; Su 08:00-20:00"}}, "geometry":{"type":"Polygon","coordinates":[[[ -2.81698,56.48135],[-2.81656,56.48115],[-2.81706,56.48083],[-2.81747,56.48102],[-2.81698,56.48135]] ]}},
{ "type":"Feature","properties":{"osm_way_id":"389906139","name":"Asda","building":"supermarket","shop":"supermarket","other":{"brand":"Asda","fhrs:id":"439847","operator":"Asda Stores Ltd","addr:city":"Forfar","addr:unit":"1","wheelchair":"yes","addr:street":"New Road","addr:country":"GB","addr:postcode":"DD8 2AE","contact:phone":"+44 1307 457 300","opening_hours":"Mo-Su 07:30-22:00","brand:wikidata":"Q297410","brand:wikipedia":"en:Asda","contact:twitter":"@asda","contact:website":"https:\/\/storelocator.asda.com\/scotland\/forfar\/unit-1-new-road","contact:facebook":"https:\/\/www.facebook.com\/asda\/"}}, "geometry":{"type":"Polygon","coordinates":[[[ -2.88798,56.64256],[-2.88868,56.6431],[-2.88845,56.64319],[-2.88835,56.64311],[-2.88785,56.64331],[-2.88788,56.64334],[-2.88775,56.64339],[-2.88772,56.64336],[-2.88763,56.6434],[-2.8872,56.6431],[-2.88735,56.64304],[-2.88731,56.643],[-2.88738,56.64297],[-2.88729,56.6429],[-2.88733,56.64288],[-2.88726,56.64283],[-2.88798,56.64256]] ]}},
{ "type":"Feature","properties":{"osm_way_id":"390017116","name":"Lidl","building":"supermarket","shop":"supermarket","other":{"addr:country":"GB","addr:postcode":"DD9 7BD","addr:street":"Commerce Street","brand":"Lidl","brand:wikidata":"Q151954","brand:wikipedia":"en:Lidl","fhrs:id":"76132","wheelchair":"yes"}}, "geometry":{"type":"Polygon","coordinates":[[[ -2.65375,56.73021],[-2.6533,56.73019],[-2.65333,56.7299],[-2.65336,56.72967],[-2.65382,56.72969],[-2.65381,56.72974],[-2.65389,56.72974],[-2.65388,56.72983],[-2.6538,56.72983],[-2.65375,56.73021]] ]}},
{ "type":"Feature","properties":{"osm_way_id":"407013527","name":"Lidl","building":"yes","shop":"supermarket","other":{"addr:city":"Arbroath","addr:country":"GB","addr:housenumber":"2","addr:postcode":"DD11 1HT","addr:street":"Gravesend","brand":"Lidl","brand:wikidata":"Q151954","brand:wikipedia":"en:Lidl","fhrs:id":"75227"}}, "geometry":{"type":"Polygon","coordinates":[[[ -2.58406,56.55947],[-2.58342,56.55893],[-2.58385,56.55878],[-2.58415,56.55903],[-2.58421,56.55902],[-2.58431,56.5591],[-2.58422,56.55913],[-2.58445,56.55933],[-2.58406,56.55947]] ]}},
{ "type":"Feature","properties":{"osm_way_id":"457407695","name":"Co-op Food","building":"retail","shop":"supermarket","other":{"addr:city":"Carnoustie","addr:housenumber":"3","addr:postcode":"DD7 6AN","addr:street":"High Street","brand":"Co-op Food","brand:wikidata":"Q3277439","brand:wikipedia":"en:Co-op Food","opening_hours":"Mo-Su 06:00-23:00","operator":"The Co-operative Group","operator:wikidata":"Q117202","operator:wikipedia":"en:The Co-operative Group","phone":"+44 1241 858484","website":"https:\/\/finder.coop.co.uk\/food\/store\/DD7-6AN\/3-high-st"}}, "geometry":{"type":"Polygon","coordinates":[[[ -2.70789,56.50135],[-2.70763,56.50139],[-2.70753,56.5014],[-2.70752,56.50138],[-2.70736,56.50106],[-2.7073,56.50106],[-2.70718,56.50103],[-2.70717,56.501],[-2.70773,56.50092],[-2.7079,56.50127],[-2.70785,56.50128],[-2.70789,56.50135]] ]}},
{ "type":"Feature","properties":{"osm_way_id":"696003961","name":"Co-op Food","building":"yes","shop":"supermarket","other":{"brand":"Co-op Food","brand:wikidata":"Q3277439","brand:wikipedia":"en:Co-op Food","operator":"The Co-operative Group","operator:wikidata":"Q117202","operator:wikipedia":"en:The Co-operative Group"}}, "geometry":{"type":"Polygon","coordinates":[[[ -2.60557,56.55918],[-2.6061,56.55889],[-2.60656,56.55915],[-2.60643,56.55922],[-2.60611,56.55905],[-2.60585,56.55919],[-2.60591,56.55923],[-2.60578,56.5593],[-2.60557,56.55918]] ]}},
{ "type":"Feature","properties":{"osm_way_id":"809707983","building":"apartments"},"geometry":{"type":"Polygon","coordinates":[[[ -3.00331,56.66807],[-3.00336,56.66813],[-3.00307,56.6682],[-3.00302,56.66815],[-3.00308,56.66813],[-3.00306,56.66811],[-3.00309,56.6681],[-3.00311,56.66813],[-3.00324,56.66809],[-3.00323,56.66807],[-3.00329,56.66805],[-3.00331,56.66807]] ]}},
{ "type":"Feature","properties":{"osm_way_id":"1008716153","name":"Aldi","building":"yes","shop":"supermarket","other":{"brand":"ALDI","brand:wikidata":"Q41171672","brand:wikipedia":"en:Aldi"}}, "geometry":{"type":"Polygon","coordinates":[[[ -2.47181,56.7136],[-2.47162,56.71359],[-2.47162,56.71351],[-2.47132,56.7135],[-2.47134,56.71324],[-2.4713,56.71324],[-2.47132,56.71296],[-2.47187,56.71298],[-2.47181,56.7136]] ]}}
]
}
