{
"type": "FeatureCollection",
"features": [
{ "type":"Feature","properties":{"osm_id":"287572475","other":{"amenity":"parking","parking":"surface"}}, "geometry":{"type":"Point","coordinates":[1.45218,52.62585 ]}},
{ "type":"Feature","properties":{"osm_id":"289033992","name":"Ferry Inn Car Park","other":{"amenity":"parking"}}, "geometry":{"type":"Point","coordinates":[1.5507,52.55859 ]}},
{ "type":"Feature","properties":{"osm_id":"373313543","name":"Reedham Station Parking","other":{"amenity":"parking","parking":"surface","wheelchair":"yes"}}, "geometry":{"type":"Point","coordinates":[1.56049,52.56412 ]}},
{ "type":"Feature","properties":{"osm_id":"415631774","name":"Cantley School Car Park","other":{"amenity":"parking","parking":"surface"}}, "geometry":{"type":"Point","coordinates":[1.51064,52.58636 ]}},
{ "type":"Feature","properties":{"osm_id":"655181659","name":"Makro Car Park","other":{"amenity":"parking","capacity":"419","capacity:disabled":"18","fee":"no","parking":"surface"}}, "geometry":{"type":"Point","coordinates":[1.37373,52.63435 ]}},
{ "type":"Feature","properties":{"osm_id":"671301437","other":{"amenity":"parking","fee":"no","parking":"surface"}}, "geometry":{"type":"Point","coordinates":[1.30924,52.66411 ]}},
{ "type":"Feature","properties":{"osm_id":"671301464","other":{"amenity":"parking","fee":"no","parking":"surface"}}, "geometry":{"type":"Point","coordinates":[1.30789,52.66474 ]}},
{ "type":"Feature","properties":{"osm_id":"671301499","other":{"amenity":"parking","fee":"no","parking":"surface"}}, "geometry":{"type":"Point","coordinates":[1.30927,52.66467 ]}},
{ "type":"Feature","properties":{"osm_id":"671301557","other":{"amenity":"parking","fee":"no","parking":"surface"}}, "geometry":{"type":"Point","coordinates":[1.31099,52.66398 ]}},
{ "type":"Feature","properties":{"osm_id":"671301572","other":{"amenity":"parking","fee":"no","parking":"surface"}}, "geometry":{"type":"Point","coordinates":[1.31222,52.66397 ]}},
{ "type":"Feature","properties":{"osm_id":"671301644","other":{"amenity":"parking","fee":"no","parking":"surface"}}, "geometry":{"type":"Point","coordinates":[1.3074,52.66616 ]}},
{ "type":"Feature","properties":{"osm_id":"671301655","other":{"amenity":"parking","fee":"no","parking":"surface"}}, "geometry":{"type":"Point","coordinates":[1.30742,52.66698 ]}},
{ "type":"Feature","properties":{"osm_id":"671301706","other":{"amenity":"parking","fee":"no","parking":"surface"}}, "geometry":{"type":"Point","coordinates":[1.30912,52.66645 ]}},
{ "type":"Feature","properties":{"osm_id":"671301796","other":{"amenity":"parking","fee":"no","parking":"surface"}}, "geometry":{"type":"Point","coordinates":[1.30799,52.66789 ]}},
{ "type":"Feature","properties":{"osm_id":"674087026","other":{"amenity":"parking","capacity":"11","fee":"no"}}, "geometry":{"type":"Point","coordinates":[1.28081,52.65802 ]}},
{ "type":"Feature","properties":{"osm_id":"674089091","other":{"amenity":"parking","fee":"no"}}, "geometry":{"type":"Point","coordinates":[1.29922,52.6627 ]}},
{ "type":"Feature","properties":{"osm_id":"674090174","other":{"access":"residents","amenity":"parking","capacity":"3","capacity:disabled":"3","fee":"no","supervised":"no"}}, "geometry":{"type":"Point","coordinates":[1.30377,52.67067 ]}},
{ "type":"Feature","properties":{"osm_id":"685986010","other":{"amenity":"parking","description":"Patch of dirt on each side of road"}}, "geometry":{"type":"Point","coordinates":[1.08646,52.7618 ]}},
{ "type":"Feature","properties":{"osm_id":"691007501","other":{"amenity":"parking","description":"Patch of dirt at side of road"}}, "geometry":{"type":"Point","coordinates":[1.08634,52.76187 ]}},
{ "type":"Feature","properties":{"osm_id":"691119351","other":{"amenity":"parking","description":"Patch of dirt"}}, "geometry":{"type":"Point","coordinates":[1.13957,52.73874 ]}},
{ "type":"Feature","properties":{"osm_id":"968833004","other":{"access":"yes","amenity":"parking","fee":"no"}}, "geometry":{"type":"Point","coordinates":[1.26536,52.67371 ]}},
{ "type":"Feature","properties":{"osm_id":"968834037","other":{"amenity":"parking"}}, "geometry":{"type":"Point","coordinates":[1.27404,52.81637 ]}},
{ "type":"Feature","properties":{"osm_id":"1195880709","other":{"amenity":"parking"}}, "geometry":{"type":"Point","coordinates":[1.48872,52.67488 ]}},
{ "type":"Feature","properties":{"osm_id":"1278252893","other":{"amenity":"parking"}}, "geometry":{"type":"Point","coordinates":[1.22826,52.71165 ]}},
{ "type":"Feature","properties":{"osm_id":"1296135976","other":{"amenity":"parking","fee":"no","parking":"surface"}}, "geometry":{"type":"Point","coordinates":[1.41364,52.69775 ]}},
{ "type":"Feature","properties":{"osm_id":"1315884072","other":{"amenity":"parking","capacity":"14","parking":"surface"}}, "geometry":{"type":"Point","coordinates":[1.25115,52.79517 ]}},
{ "type":"Feature","properties":{"osm_id":"1315884073","other":{"amenity":"parking","capacity":"6","capacity:disabled":"1","parking":"surface"}}, "geometry":{"type":"Point","coordinates":[1.25136,52.79511 ]}},
{ "type":"Feature","properties":{"osm_id":"1369211076","other":{"access":"yes","amenity":"parking","fee":"no","parking":"surface"}}, "geometry":{"type":"Point","coordinates":[1.51856,52.63551 ]}},
{ "type":"Feature","properties":{"osm_id":"1457796794","other":{"amenity":"parking","capacity":"6","fee":"no","parking":"surface"}}, "geometry":{"type":"Point","coordinates":[1.26545,52.73855 ]}},
{ "type":"Feature","properties":{"osm_id":"1599614244","other":{"access":"yes","amenity":"parking","fee":"no","parking":"layby"}}, "geometry":{"type":"Point","coordinates":[1.48484,52.63662 ]}},
{ "type":"Feature","properties":{"osm_id":"1626577913","other":{"amenity":"parking","fee":"no","parking":"surface"}}, "geometry":{"type":"Point","coordinates":[1.13697,52.65552 ]}},
{ "type":"Feature","properties":{"osm_id":"1626582112","other":{"amenity":"parking","fee":"no","parking":"surface"}}, "geometry":{"type":"Point","coordinates":[1.10922,52.66454 ]}},
{ "type":"Feature","properties":{"osm_id":"1626582122","other":{"amenity":"parking","fee":"no","parking":"layby"}}, "geometry":{"type":"Point","coordinates":[1.10738,52.66496 ]}},
{ "type":"Feature","properties":{"osm_id":"1777950687","other":{"access":"yes","amenity":"parking","fee":"no","parking":"layby","surface":"asphalt"}}, "geometry":{"type":"Point","coordinates":[1.4029,52.62783 ]}},
{ "type":"Feature","properties":{"osm_id":"1777950718","other":{"access":"yes","amenity":"parking","fee":"no","parking":"layby"}}, "geometry":{"type":"Point","coordinates":[1.46885,52.63645 ]}},
{ "type":"Feature","properties":{"osm_id":"1777950735","other":{"access":"yes","amenity":"parking","fee":"no","parking":"layby"}}, "geometry":{"type":"Point","coordinates":[1.4686,52.63636 ]}},
{ "type":"Feature","properties":{"osm_id":"1913703446","other":{"access":"yes","amenity":"parking","fee":"no","parking":"surface"}}, "geometry":{"type":"Point","coordinates":[1.20937,52.76624 ]}},
{ "type":"Feature","properties":{"osm_id":"1968035834","other":{"amenity":"parking","fee":"no","parking":"surface"}}, "geometry":{"type":"Point","coordinates":[1.40716,52.61697 ]}},
{ "type":"Feature","properties":{"osm_id":"1968035913","other":{"amenity":"parking","parking":"surface"}}, "geometry":{"type":"Point","coordinates":[1.39332,52.61915 ]}},
{ "type":"Feature","properties":{"osm_id":"2571734306","other":{"amenity":"parking","fee":"no","parking":"surface"}}, "geometry":{"type":"Point","coordinates":[1.38415,52.68919 ]}},
{ "type":"Feature","properties":{"osm_id":"2904926626","other":{"amenity":"parking","fee":"no","parking":"layby"}}, "geometry":{"type":"Point","coordinates":[1.66166,52.62148 ]}},
{ "type":"Feature","properties":{"osm_id":"2904926627","other":{"amenity":"parking","fee":"no","parking":"layby"}}, "geometry":{"type":"Point","coordinates":[1.64579,52.62197 ]}},
{ "type":"Feature","properties":{"osm_id":"2904926628","other":{"amenity":"parking","fee":"no","parking":"layby"}}, "geometry":{"type":"Point","coordinates":[1.62644,52.62257 ]}},
{ "type":"Feature","properties":{"osm_id":"2904926629","other":{"amenity":"parking","fee":"no","parking":"layby"}}, "geometry":{"type":"Point","coordinates":[1.59383,52.62602 ]}},
{ "type":"Feature","properties":{"osm_id":"2904926631","other":{"amenity":"parking","fee":"no","parking":"layby"}}, "geometry":{"type":"Point","coordinates":[1.57527,52.63144 ]}},
{ "type":"Feature","properties":{"osm_id":"3092318376","other":{"access":"private","amenity":"parking","parking":"surface"}}, "geometry":{"type":"Point","coordinates":[1.28498,52.68106 ]}},
{ "type":"Feature","properties":{"osm_id":"3092328837","other":{"access":"private","amenity":"parking","parking":"surface"}}, "geometry":{"type":"Point","coordinates":[1.28762,52.68311 ]}},
{ "type":"Feature","properties":{"osm_id":"3116386510","other":{"access":"customers","amenity":"parking","parking":"surface"}}, "geometry":{"type":"Point","coordinates":[1.12771,52.6997 ]}},
{ "type":"Feature","properties":{"osm_id":"3116386517","other":{"access":"customers","amenity":"parking","parking":"surface"}}, "geometry":{"type":"Point","coordinates":[1.12738,52.70022 ]}},
{ "type":"Feature","properties":{"osm_id":"3402145004","other":{"access":"yes","amenity":"parking","fee":"no","surface":"grass"}}, "geometry":{"type":"Point","coordinates":[1.48413,52.67999 ]}},
{ "type":"Feature","properties":{"osm_id":"3453510959","other":{"access":"permissive","amenity":"parking","capacity":"2","fee":"no","parking":"surface","surface":"ground"}}, "geometry":{"type":"Point","coordinates":[1.05267,52.77434 ]}},
{ "type":"Feature","properties":{"osm_id":"3554908644","other":{"amenity":"parking","parking":"surface"}}, "geometry":{"type":"Point","coordinates":[1.39107,52.67528 ]}},
{ "type":"Feature","properties":{"osm_id":"3602013123","other":{"access":"yes","amenity":"parking","fee":"no","parking":"layby"}}, "geometry":{"type":"Point","coordinates":[1.41126,52.63028 ]}},
{ "type":"Feature","properties":{"osm_id":"3638956585","highway":"give_way"},"geometry":{"type":"Point","coordinates":[1.37849,52.6245 ]}},
{ "type":"Feature","properties":{"osm_id":"3638956586","highway":"give_way"},"geometry":{"type":"Point","coordinates":[1.37826,52.62534 ]}},
{ "type":"Feature","properties":{"osm_id":"3638956590","highway":"give_way"},"geometry":{"type":"Point","coordinates":[1.37656,52.62522 ]}},
{ "type":"Feature","properties":{"osm_id":"3638972395","highway":"give_way"},"geometry":{"type":"Point","coordinates":[1.37684,52.62528 ]}},
{ "type":"Feature","properties":{"osm_id":"3638972401","highway":"give_way"},"geometry":{"type":"Point","coordinates":[1.37862,52.62528 ]}},
{ "type":"Feature","properties":{"osm_id":"3638972403","highway":"give_way"},"geometry":{"type":"Point","coordinates":[1.37891,52.62437 ]}},
{ "type":"Feature","properties":{"osm_id":"3638972407","highway":"give_way"},"geometry":{"type":"Point","coordinates":[1.37871,52.62445 ]}},
{ "type":"Feature","properties":{"osm_id":"3638972411","highway":"give_way"},"geometry":{"type":"Point","coordinates":[1.37801,52.62536 ]}},
{ "type":"Feature","properties":{"osm_id":"3638972418","highway":"give_way"},"geometry":{"type":"Point","coordinates":[1.37712,52.62533 ]}},
{ "type":"Feature","properties":{"osm_id":"3638972419","highway":"give_way"},"geometry":{"type":"Point","coordinates":[1.37753,52.62537 ]}},
{ "type":"Feature","properties":{"osm_id":"3638972427","highway":"give_way"},"geometry":{"type":"Point","coordinates":[1.37778,52.62537 ]}},
{ "type":"Feature","properties":{"osm_id":"3796470622","other":{"amenity":"parking"}}, "geometry":{"type":"Point","coordinates":[1.33336,52.74547 ]}},
{ "type":"Feature","properties":{"osm_id":"3900184419","other":{"access":"yes","amenity":"parking","fee":"no","parking":"layby"}}, "geometry":{"type":"Point","coordinates":[1.40865,52.63016 ]}},
{ "type":"Feature","properties":{"osm_id":"3939495256","other":{"access":"yes","amenity":"parking","fee":"no","parking":"layby"}}, "geometry":{"type":"Point","coordinates":[1.49475,52.6356 ]}},
{ "type":"Feature","properties":{"osm_id":"4229728116","other":{"access":"yes","amenity":"parking","fee":"no","parking":"surface","surface":"ground"}}, "geometry":{"type":"Point","coordinates":[1.14471,52.75766 ]}},
{ "type":"Feature","properties":{"osm_id":"4705479463","other":{"amenity":"parking","fee":"no","parking":"surface"}}, "geometry":{"type":"Point","coordinates":[1.40558,52.68339 ]}},
{ "type":"Feature","properties":{"osm_id":"5167614634","other":{"access":"yes","amenity":"parking","fee":"no","parking":"surface","surface":"asphalt"}}, "geometry":{"type":"Point","coordinates":[1.12354,52.65732 ]}},
{ "type":"Feature","properties":{"osm_id":"5182136608","other":{"access":"yes","amenity":"parking","fee":"no","parking":"surface","surface":"asphalt"}}, "geometry":{"type":"Point","coordinates":[1.17859,52.7076 ]}},
{ "type":"Feature","properties":{"osm_id":"5466317285","other":{"board_type":"nature","information":"board","tourism":"information"}}, "geometry":{"type":"Point","coordinates":[1.33999,52.65195 ]}},
{ "type":"Feature","properties":{"osm_id":"5498156957","other":{"access":"yes","amenity":"parking","fee":"no","parking":"surface","surface":"ground"}}, "geometry":{"type":"Point","coordinates":[1.08578,52.74146 ]}},
{ "type":"Feature","properties":{"osm_id":"5588557356","other":{"amenity":"parking","fee":"no","lit":"no","parking":"layby","surface":"asphalt"}}, "geometry":{"type":"Point","coordinates":[1.38229,52.63821 ]}},
{ "type":"Feature","properties":{"osm_id":"5588557357","other":{"amenity":"parking","fee":"no","lit":"no","parking":"layby","surface":"asphalt"}}, "geometry":{"type":"Point","coordinates":[1.38266,52.63832 ]}},
{ "type":"Feature","properties":{"osm_id":"5722779925","other":{"amenity":"parking","fee":"no","parking":"surface"}}, "geometry":{"type":"Point","coordinates":[1.38691,52.7162 ]}},
{ "type":"Feature","properties":{"osm_id":"6138013645","other":{"access":"yes","amenity":"parking","fee":"no","parking":"surface","surface":"compacted"}}, "geometry":{"type":"Point","coordinates":[1.22651,52.79238 ]}},
{ "type":"Feature","properties":{"osm_id":"6327722271","ref":"CHT-13-722","other":{"emergency":"defibrillator","location":"On exterior wall of Kings Head pub, facing Station Road."}}, "geometry":{"type":"Point","coordinates":[1.49134,52.62283 ]}},
{ "type":"Feature","properties":{"osm_id":"6497775512","other":{"amenity":"parking","parking":"layby"}}, "geometry":{"type":"Point","coordinates":[1.34452,52.70384 ]}},
{ "type":"Feature","properties":{"osm_id":"6641316139","other":{"access":"customers","amenity":"parking","surface":"grass"}}, "geometry":{"type":"Point","coordinates":[1.32661,52.75931 ]}},
{ "type":"Feature","properties":{"osm_id":"7394614373","other":{"access":"customers","amenity":"parking","parking":"surface","surface":"gravel"}}, "geometry":{"type":"Point","coordinates":[1.13726,52.7834 ]}},
{ "type":"Feature","properties":{"osm_id":"7716975706","other":{"amenity":"parking","description":"Overflow car park","surface":"grass"}}, "geometry":{"type":"Point","coordinates":[1.12922,52.70021 ]}},
{ "type":"Feature","properties":{"osm_id":"7945651606","other":{"traffic_calming":"bump"}}, "geometry":{"type":"Point","coordinates":[1.25547,52.65952 ]}},
{ "type":"Feature","properties":{"osm_id":"9046420065","other":{"access":"customers","amenity":"parking","parking":"surface"}}, "geometry":{"type":"Point","coordinates":[1.35672,52.7283 ]}},
{ "type":"Feature","properties":{"osm_id":"9046420071","other":{"access":"customers","amenity":"parking","fee":"no","parking":"surface"}}, "geometry":{"type":"Point","coordinates":[1.35805,52.72765 ]}},
{ "type":"Feature","properties":{"osm_id":"9046420091","other":{"amenity":"parking","parking":"surface"}}, "geometry":{"type":"Point","coordinates":[1.346,52.71173 ]}},
{ "type":"Feature","properties":{"osm_id":"9091095138","other":{"access":"yes","amenity":"parking","parking":"surface"}}, "geometry":{"type":"Point","coordinates":[1.48929,52.67775 ]}},
{ "type":"Feature","properties":{"osm_way_id":"4681943","amenity":"parking","other":{"access":"customers","fee":"no","maxstay":"3 hour","parking":"surface"}}, "geometry":{"type":"MultiPolygon","coordinates":[[[[1.26337,52.65352],[1.26349,52.65344],[1.2636,52.65329],[1.26374,52.65327],[1.26406,52.65302],[1.26414,52.65304],[1.26427,52.65287],[1.26247,52.65238],[1.2624,52.65246],[1.26289,52.65259],[1.26282,52.65269],[1.26303,52.65275],[1.26274,52.65312],[1.26279,52.65314],[1.26245,52.65359],[1.26229,52.65354],[1.26225,52.6536],[1.26217,52.65369],[1.26173,52.65357],[1.26165,52.65367],[1.26297,52.65404],[1.2631,52.65388],[1.26314,52.65369],[1.26322,52.65359],[1.26337,52.65352]]]]}},
{ "type":"Feature","properties":{"osm_way_id":"5118057","amenity":"parking","other":{"access":"customers","fee":"no","parking":"surface","surface":"asphalt"}}, "geometry":{"type":"MultiPolygon","coordinates":[[[[1.10771,52.66393],[1.10771,52.66399],[1.10766,52.66409],[1.1076,52.6641],[1.1075,52.66411],[1.10749,52.66403],[1.10741,52.66404],[1.10739,52.66392],[1.1074,52.6639],[1.10771,52.66393]]]]}},
{ "type":"Feature","properties":{"osm_way_id":"26414298","amenity":"parking","other":{"fee":"no","parking":"surface"}}, "geometry":{"type":"MultiPolygon","coordinates":[[[[1.24878,52.79342],[1.24884,52.79341],[1.24891,52.7934],[1.24899,52.79339],[1.24935,52.79434],[1.24924,52.79435],[1.24913,52.79437],[1.24878,52.79342]]]]}},
{ "type":"Feature","properties":{"osm_way_id":"26709275","name":"Reedcutter Car Park","amenity":"parking","other":{"fee":"no","parking":"surface"}}, "geometry":{"type":"MultiPolygon","coordinates":[[[[1.51455,52.57677],[1.51474,52.57647],[1.51435,52.57639],[1.51424,52.57657],[1.51442,52.57661],[1.51444,52.57674],[1.51449,52.57675],[1.51455,52.57677]]]]}},
{ "type":"Feature","properties":{"osm_way_id":"26709277","name":"Cantley Station Parking","amenity":"parking","other":{"fee":"no","parking":"surface"}}, "geometry":{"type":"MultiPolygon","coordinates":[[[[1.51367,52.57845],[1.51366,52.57859],[1.51368,52.57861],[1.51388,52.57855],[1.51392,52.57854],[1.5139,52.57853],[1.51367,52.57845]]]]}},
{ "type":"Feature","properties":{"osm_way_id":"26713824","name":"Factory Car Park","amenity":"parking","other":{"access":"private","fee":"no","park_ride":"no","parking":"surface","supervised":"no","surface":"gravel"}}, "geometry":{"type":"MultiPolygon","coordinates":[[[[1.51252,52.57829],[1.51244,52.57808],[1.51215,52.57812],[1.51225,52.57836],[1.51252,52.57829]]]]}},
{ "type":"Feature","properties":{"osm_way_id":"26833114","amenity":"parking"},"geometry":{"type":"MultiPolygon","coordinates":[[[[1.5505,52.55881],[1.55066,52.55886],[1.55072,52.55878],[1.5509,52.55873],[1.55091,52.55871],[1.55059,52.55855],[1.55055,52.55862],[1.55049,52.55874],[1.5505,52.55881]]]]}},
{ "type":"Feature","properties":{"osm_way_id":"26833116","amenity":"parking"},"geometry":{"type":"MultiPolygon","coordinates":[[[[1.55016,52.55807],[1.55019,52.55798],[1.55011,52.55792],[1.55003,52.55797],[1.54998,52.55793],[1.55004,52.55785],[1.54975,52.55771],[1.54966,52.5579],[1.54978,52.55796],[1.54973,52.55808],[1.55016,52.55807]]]]}},
{ "type":"Feature","properties":{"osm_way_id":"27033871","name":"Farm Shop Car Park","amenity":"parking","other":{"fee":"no","parking":"surface"}}, "geometry":{"type":"MultiPolygon","coordinates":[[[[1.45798,52.63573],[1.45798,52.63579],[1.45797,52.63591],[1.45889,52.63598],[1.45889,52.63522],[1.45798,52.63521],[1.45798,52.63573]]]]}},
{ "type":"Feature","properties":{"osm_way_id":"27825253","amenity":"parking"},"geometry":{"type":"MultiPolygon","coordinates":[[[[1.56736,52.64837],[1.56736,52.64819],[1.56764,52.6482],[1.56805,52.64819],[1.568,52.64838],[1.56809,52.64856],[1.56777,52.64851],[1.56777,52.64845],[1.56783,52.64844],[1.56784,52.64843],[1.56782,52.64842],[1.56736,52.64837]]]]}},
{ "type":"Feature","properties":{"osm_way_id":"27841029","name":"Limpenhoe Village Hall Car Park","amenity":"parking"},"geometry":{"type":"MultiPolygon","coordinates":[[[[1.53546,52.58076],[1.53538,52.58067],[1.53532,52.58061],[1.53525,52.58063],[1.53486,52.58068],[1.53491,52.58086],[1.53493,52.58092],[1.53501,52.58091],[1.53546,52.58076]]]]}},
{ "type":"Feature","properties":{"osm_way_id":"31276138","name":"The Ship Car Park","amenity":"parking","other":{"parking":"surface"}}, "geometry":{"type":"MultiPolygon","coordinates":[[[[1.49562,52.66448],[1.49594,52.66456],[1.49602,52.66444],[1.4957,52.66436],[1.49562,52.66448]]]]}},
{ "type":"Feature","properties":{"osm_way_id":"37370801","amenity":"parking","other":{"access":"customers","fee":"no","parking":"surface"}}, "geometry":{"type":"MultiPolygon","coordinates":[[[[1.2558,52.79129],[1.25581,52.79143],[1.25514,52.79143],[1.25514,52.79139],[1.25475,52.79135],[1.25449,52.79135],[1.2545,52.7913],[1.25449,52.79123],[1.25474,52.79122],[1.25513,52.7912],[1.25513,52.79118],[1.25567,52.79116],[1.25596,52.79114],[1.25655,52.79112],[1.25658,52.79126],[1.2558,52.79129]]]]}},
{ "type":"Feature","properties":{"osm_way_id":"39164145","amenity":"parking","other":{"operator":"Hellesdon Hospital"}}, "geometry":{"type":"MultiPolygon","coordinates":[[[[1.2491,52.65723],[1.24917,52.65726],[1.24905,52.65739],[1.24895,52.65736],[1.24901,52.65729],[1.2491,52.65723]]]]}},
{ "type":"Feature","properties":{"osm_way_id":"39164201","amenity":"parking","other":{"service":"driveway"}}, "geometry":{"type":"MultiPolygon","coordinates":[[[[1.25119,52.6587],[1.25111,52.65878],[1.25122,52.65882],[1.25117,52.65887],[1.25126,52.65891],[1.2513,52.65887],[1.25133,52.65888],[1.25129,52.65892],[1.25131,52.65893],[1.25146,52.65879],[1.25138,52.65875],[1.25122,52.65868],[1.25119,52.6587]]]]}},
{ "type":"Feature","properties":{"osm_way_id":"39164203","amenity":"parking","other":{"parking":"surface"}}, "geometry":{"type":"MultiPolygon","coordinates":[[[[1.25088,52.65998],[1.25089,52.65997],[1.25109,52.65978],[1.25092,52.65971],[1.25071,52.65991],[1.25085,52.65998],[1.25088,52.65998]]]]}},
{ "type":"Feature","properties":{"osm_way_id":"39164206","name":"Car Park D (disused)","amenity":"parking","other":{"operator":"Hellesdon Hospital","parking":"surface","surface":"unpaved"}}, "geometry":{"type":"MultiPolygon","coordinates":[[[[1.24874,52.66029],[1.24904,52.66008],[1.2487,52.65991],[1.24839,52.66014],[1.24871,52.6603],[1.24874,52.66029]]]]}},
{ "type":"Feature","properties":{"osm_way_id":"39365510","name":"Cafe Overflow Carpark","amenity":"parking","other":{"parking":"surface"}}, "geometry":{"type":"MultiPolygon","coordinates":[[[[1.37193,52.62865],[1.37202,52.62864],[1.37198,52.62851],[1.37169,52.62852],[1.3717,52.62866],[1.37193,52.62865]]]]}},
{ "type":"Feature","properties":{"osm_way_id":"42809072","amenity":"parking","other":{"parking":"surface","surface":"asphalt"}}, "geometry":{"type":"MultiPolygon","coordinates":[[[[1.26827,52.6547],[1.26806,52.65464],[1.26843,52.65417],[1.26851,52.65408],[1.26895,52.65421],[1.26882,52.65438],[1.26878,52.65437],[1.26881,52.65433],[1.26848,52.65423],[1.26833,52.65443],[1.26845,52.65446],[1.26827,52.6547]]]]}},
{ "type":"Feature","properties":{"osm_way_id":"43072258","amenity":"parking","other":{"surface":"ground"}}, "geometry":{"type":"MultiPolygon","coordinates":[[[[1.26441,52.67316],[1.26446,52.67302],[1.26454,52.67304],[1.26458,52.67307],[1.26466,52.67309],[1.26472,52.67309],[1.26477,52.67311],[1.2646,52.67344],[1.26446,52.67341],[1.26456,52.6732],[1.26441,52.67316]]]]}},
{ "type":"Feature","properties":{"osm_way_id":"52288574","amenity":"parking"},"geometry":{"type":"MultiPolygon","coordinates":[[[[1.54723,52.64313],[1.54733,52.64306],[1.5473,52.64303],[1.5474,52.64298],[1.54743,52.64301],[1.54753,52.64298],[1.54761,52.64316],[1.54749,52.64317],[1.54742,52.64317],[1.54739,52.64316],[1.54735,52.64316],[1.54728,52.64315],[1.54723,52.64313]]]]}},
{ "type":"Feature","properties":{"osm_way_id":"52775557","amenity":"parking","other":{"wheelchair":"yes"}}, "geometry":{"type":"MultiPolygon","coordinates":[[[[1.32648,52.66418],[1.3265,52.6642],[1.3266,52.66431],[1.32678,52.66425],[1.32673,52.66419],[1.32669,52.66416],[1.32666,52.66412],[1.32648,52.66418]]]]}},
{ "type":"Feature","properties":{"osm_way_id":"53274290","amenity":"parking","other":{"access":"customers","parking":"surface"}}, "geometry":{"type":"MultiPolygon","coordinates":[[[[1.27334,52.66649],[1.27339,52.66652],[1.27341,52.66656],[1.27343,52.6666],[1.27338,52.66661],[1.27329,52.66663],[1.27325,52.66664],[1.27318,52.66665],[1.27289,52.6667],[1.27283,52.66668],[1.2728,52.66666],[1.27278,52.66663],[1.27279,52.66609],[1.27286,52.66609],[1.27287,52.66604],[1.27299,52.66604],[1.27298,52.6662],[1.27298,52.66628],[1.27298,52.66639],[1.27296,52.66639],[1.27296,52.66642],[1.27293,52.66642],[1.27293,52.66649],[1.27296,52.66649],[1.273,52.66651],[1.273,52.66654],[1.27319,52.66654],[1.27319,52.66653],[1.27328,52.66653],[1.27328,52.66649],[1.27334,52.66649]]]]}},
{ "type":"Feature","properties":{"osm_way_id":"53274370","amenity":"parking"},"geometry":{"type":"MultiPolygon","coordinates":[[[[1.27708,52.65811],[1.27751,52.65821],[1.27761,52.65804],[1.27732,52.65798],[1.27721,52.65793],[1.27719,52.65798],[1.2771,52.65802],[1.27704,52.6581],[1.27708,52.65811]]]]}},
{ "type":"Feature","properties":{"osm_way_id":"62073793","amenity":"parking"},"geometry":{"type":"MultiPolygon","coordinates":[[[[1.33608,52.6263],[1.33593,52.62633],[1.33596,52.62637],[1.33578,52.62641],[1.33577,52.62648],[1.33598,52.62644],[1.33615,52.62641],[1.33608,52.6263]]]]}},
{ "type":"Feature","properties":{"osm_way_id":"90380641","amenity":"parking","other":{"fee":"no","parking":"surface","surface":"asphalt"}}, "geometry":{"type":"MultiPolygon","coordinates":[[[[1.32271,52.69106],[1.32277,52.69098],[1.32297,52.69104],[1.32295,52.69106],[1.32293,52.69109],[1.3229,52.69113],[1.3227,52.69108],[1.32271,52.69106]]]]}},
{ "type":"Feature","properties":{"osm_way_id":"91859338","amenity":"parking","other":{"access":"customers","fee":"no","parking":"surface"}}, "geometry":{"type":"MultiPolygon","coordinates":[[[[1.28273,52.69599],[1.2827,52.69622],[1.28247,52.69623],[1.28245,52.69613],[1.28237,52.69614],[1.28239,52.69623],[1.28197,52.69625],[1.28179,52.69626],[1.28175,52.69594],[1.28281,52.69595],[1.28273,52.69599]]]]}},
{ "type":"Feature","properties":{"osm_way_id":"95290145","amenity":"parking","other":{"wheelchair":"yes"}}, "geometry":{"type":"MultiPolygon","coordinates":[[[[-3.2898,57.64865],[-3.28965,57.64841],[-3.28948,57.64815],[-3.28984,57.64809],[-3.29,57.64834],[-3.29129,57.6481],[-3.29145,57.64834],[-3.2898,57.64865]]]]}},
{ "type":"Feature","properties":{"osm_way_id":"99095079","amenity":"parking"},"geometry":{"type":"MultiPolygon","coordinates":[[[[1.23801,52.79252],[1.23805,52.79238],[1.23825,52.79186],[1.2388,52.79193],[1.23853,52.7926],[1.23801,52.79252]]]]}},
{ "type":"Feature","properties":{"osm_way_id":"116366468","name":"Roarr! Dinosaur Adventure Car Park","amenity":"parking","other":{"fee":"no","parking":"surface","postal_code":"NR9 5JE"}}, "geometry":{"type":"MultiPolygon","coordinates":[[[[1.12012,52.71446],[1.12054,52.71452],[1.12049,52.71468],[1.1209,52.71473],[1.12117,52.71448],[1.1214,52.71446],[1.12151,52.7144],[1.12183,52.71321],[1.12188,52.71306],[1.12183,52.71298],[1.12147,52.71282],[1.12145,52.71261],[1.12164,52.71242],[1.12177,52.71215],[1.12124,52.71192],[1.12104,52.71218],[1.12096,52.71251],[1.12073,52.71248],[1.12067,52.7128],[1.12089,52.71282],[1.12082,52.71298],[1.12069,52.71313],[1.12055,52.71334],[1.12031,52.71373],[1.12012,52.71446]]]]}},
{ "type":"Feature","properties":{"osm_way_id":"119066144","amenity":"parking"},"geometry":{"type":"MultiPolygon","coordinates":[[[[1.1102,52.76394],[1.1103,52.76378],[1.11049,52.76336],[1.11047,52.76334],[1.11012,52.7633],[1.1099,52.7633],[1.10994,52.76362],[1.11001,52.76377],[1.11014,52.76396],[1.1102,52.76394]]]]}},
{ "type":"Feature","properties":{"osm_way_id":"119496453","amenity":"parking","other":{"access":"yes","capacity":"20","maxstay":"1.5 hr","parking":"surface","surface":"asphalt"}}, "geometry":{"type":"MultiPolygon","coordinates":[[[[1.11132,52.76261],[1.11075,52.76248],[1.11113,52.7624],[1.11132,52.76261]]]]}},
{ "type":"Feature","properties":{"osm_way_id":"119496454","amenity":"parking","other":{"access":"yes","capacity":"22","maxstay":"1.5 hr","parking":"surface","supervised":"yes","surface":"asphalt"}}, "geometry":{"type":"MultiPolygon","coordinates":[[[[1.11138,52.7627],[1.11099,52.76279],[1.11089,52.76258],[1.11138,52.7627]]]]}},
{ "type":"Feature","properties":{"osm_way_id":"119497928","amenity":"parking"},"geometry":{"type":"MultiPolygon","coordinates":[[[[1.1081,52.76792],[1.10856,52.76788],[1.10863,52.76779],[1.10866,52.76769],[1.10855,52.7676],[1.10834,52.76747],[1.1081,52.76792]]]]}},
{ "type":"Feature","properties":{"osm_way_id":"119811890","amenity":"parking"},"geometry":{"type":"MultiPolygon","coordinates":[[[[1.10612,52.75755],[1.10621,52.75752],[1.10634,52.75747],[1.10576,52.75676],[1.10565,52.7568],[1.10579,52.75695],[1.10569,52.75698],[1.10597,52.75737],[1.10612,52.75755]]]]}},
{ "type":"Feature","properties":{"osm_way_id":"119842928","amenity":"parking"},"geometry":{"type":"MultiPolygon","coordinates":[[[[1.11261,52.76695],[1.11243,52.76678],[1.11197,52.76643],[1.11177,52.76653],[1.1119,52.76667],[1.11185,52.76677],[1.11203,52.76696],[1.11218,52.76711],[1.11261,52.76695]]]]}},
{ "type":"Feature","properties":{"osm_way_id":"119846855","amenity":"parking","other":{"access":"permissive"}}, "geometry":{"type":"MultiPolygon","coordinates":[[[[1.10941,52.76264],[1.10939,52.76253],[1.10951,52.76252],[1.10971,52.76261],[1.10941,52.76264]]]]}},
{ "type":"Feature","properties":{"osm_way_id":"119846859","amenity":"parking","other":{"access":"private"}}, "geometry":{"type":"MultiPolygon","coordinates":[[[[1.10926,52.76231],[1.10956,52.76228],[1.10937,52.76243],[1.1093,52.76244],[1.10926,52.76231]]]]}},
{ "type":"Feature","properties":{"osm_way_id":"120274753","amenity":"parking"},"geometry":{"type":"MultiPolygon","coordinates":[[[[1.3659,52.62808],[1.36601,52.62806],[1.36606,52.62806],[1.36611,52.62805],[1.36625,52.62839],[1.36602,52.62839],[1.3659,52.62808]]]]}},
{ "type":"Feature","properties":{"osm_way_id":"120274762","amenity":"parking"},"geometry":{"type":"MultiPolygon","coordinates":[[[[1.36746,52.62784],[1.36739,52.62785],[1.36728,52.62787],[1.36745,52.62825],[1.36767,52.62822],[1.36753,52.62788],[1.36751,52.62784],[1.36746,52.62785],[1.36746,52.62784]]]]}},
{ "type":"Feature","properties":{"osm_way_id":"120326593","amenity":"parking","other":{"access":"private"}}, "geometry":{"type":"MultiPolygon","coordinates":[[[[1.10713,52.75829],[1.10708,52.75824],[1.1067,52.75832],[1.10676,52.75837],[1.10713,52.75829]]]]}},
{ "type":"Feature","properties":{"osm_way_id":"120393540","amenity":"parking","other":{"parking":"surface"}}, "geometry":{"type":"MultiPolygon","coordinates":[[[[1.36796,52.62866],[1.36803,52.62878],[1.36846,52.62869],[1.36848,52.62874],[1.36853,52.62874],[1.36859,52.62876],[1.36862,52.62878],[1.36911,52.62961],[1.36897,52.62963],[1.36895,52.62956],[1.36891,52.62954],[1.36885,52.62952],[1.36872,52.62928],[1.36864,52.62925],[1.36852,52.62925],[1.36792,52.62937],[1.36784,52.62941],[1.36783,52.62947],[1.36792,52.62945],[1.36852,52.63054],[1.36828,52.63059],[1.36799,52.63007],[1.36805,52.63006],[1.36803,52.63003],[1.36798,52.63003],[1.36795,52.63003],[1.36793,52.63],[1.36791,52.62996],[1.36794,52.62992],[1.36793,52.62988],[1.36791,52.62983],[1.36772,52.62946],[1.36764,52.62947],[1.36744,52.62885],[1.36751,52.62883],[1.36753,52.6288],[1.36757,52.62878],[1.36762,52.62876],[1.36776,52.62873],[1.36774,52.6287],[1.36796,52.62866]]]]}},
{ "type":"Feature","properties":{"osm_way_id":"121202144","amenity":"parking"},"geometry":{"type":"MultiPolygon","coordinates":[[[[1.35988,52.63038],[1.35987,52.63043],[1.36014,52.63045],[1.36015,52.63041],[1.3602,52.63041],[1.36023,52.63024],[1.36027,52.63003],[1.36,52.63001],[1.35993,52.63001],[1.35988,52.63004],[1.35983,52.63012],[1.3598,52.63037],[1.35988,52.63038]]]]}},
{ "type":"Feature","properties":{"osm_way_id":"121202146","amenity":"parking"},"geometry":{"type":"MultiPolygon","coordinates":[[[[1.36041,52.62961],[1.36077,52.62963],[1.36077,52.62951],[1.36095,52.62948],[1.36121,52.62942],[1.36127,52.62944],[1.36152,52.62955],[1.36153,52.6296],[1.36148,52.62989],[1.36146,52.62996],[1.36152,52.62996],[1.36149,52.63015],[1.36142,52.63015],[1.36137,52.63017],[1.36134,52.63031],[1.36131,52.63038],[1.3613,52.63045],[1.36128,52.63058],[1.36127,52.63066],[1.36125,52.63073],[1.36128,52.63076],[1.36127,52.63079],[1.36117,52.63079],[1.36111,52.63079],[1.36111,52.63075],[1.36085,52.63073],[1.36085,52.63078],[1.3607,52.63077],[1.36031,52.63075],[1.36032,52.63071],[1.36024,52.6307],[1.36026,52.63059],[1.36039,52.63057],[1.36042,52.63053],[1.36045,52.6304],[1.3604,52.63037],[1.36041,52.63025],[1.36043,52.63011],[1.36044,52.62998],[1.36046,52.62983],[1.36046,52.62976],[1.36042,52.6297],[1.36041,52.62961]]]]}},
{ "type":"Feature","properties":{"osm_way_id":"124069974","amenity":"parking"},"geometry":{"type":"MultiPolygon","coordinates":[[[[1.30897,52.75527],[1.30893,52.75527],[1.3089,52.75526],[1.30882,52.75517],[1.30882,52.75499],[1.30874,52.75495],[1.30863,52.75492],[1.30869,52.75482],[1.30922,52.75502],[1.30897,52.75527]]]]}},
{ "type":"Feature","properties":{"osm_way_id":"128489747","amenity":"parking"},"geometry":{"type":"MultiPolygon","coordinates":[[[[1.42731,52.63172],[1.4273,52.63177],[1.42779,52.63191],[1.4279,52.63178],[1.42782,52.63175],[1.42783,52.63169],[1.42749,52.63159],[1.42744,52.63164],[1.42732,52.63164],[1.42723,52.63162],[1.42718,52.63168],[1.42731,52.63172]]]]}},
{ "type":"Feature","properties":{"osm_way_id":"132626947","amenity":"parking"},"geometry":{"type":"MultiPolygon","coordinates":[[[[1.32651,52.64609],[1.32657,52.64611],[1.32658,52.64609],[1.32674,52.64613],[1.32676,52.64609],[1.32753,52.64629],[1.32744,52.64642],[1.32706,52.64632],[1.32698,52.64644],[1.32691,52.64642],[1.32685,52.64651],[1.32666,52.64646],[1.32663,52.6465],[1.32636,52.64643],[1.32639,52.64639],[1.32632,52.64637],[1.32651,52.64609]]]]}},
{ "type":"Feature","properties":{"osm_way_id":"132626952","amenity":"parking"},"geometry":{"type":"MultiPolygon","coordinates":[[[[1.32242,52.64552],[1.32272,52.64574],[1.32277,52.64571],[1.3231,52.64595],[1.32335,52.64614],[1.32353,52.64605],[1.32361,52.64593],[1.32398,52.64574],[1.32419,52.64544],[1.32623,52.64598],[1.32609,52.64618],[1.32606,52.64617],[1.32598,52.64627],[1.32585,52.64624],[1.32583,52.64629],[1.32555,52.64621],[1.32558,52.64617],[1.32545,52.64614],[1.32542,52.64618],[1.32514,52.6461],[1.32517,52.64606],[1.32503,52.64603],[1.325,52.64607],[1.3245,52.64594],[1.32453,52.64589],[1.32445,52.64587],[1.32433,52.64591],[1.3243,52.64596],[1.32436,52.64597],[1.32409,52.64636],[1.32391,52.64631],[1.32384,52.64641],[1.32377,52.6464],[1.32372,52.64647],[1.32378,52.64649],[1.3237,52.64661],[1.32363,52.64659],[1.32358,52.64668],[1.32365,52.64669],[1.32356,52.64681],[1.32349,52.64679],[1.32344,52.64687],[1.3235,52.64689],[1.32344,52.64698],[1.32337,52.64696],[1.32331,52.64704],[1.32338,52.64706],[1.32334,52.64711],[1.32328,52.64709],[1.32324,52.64709],[1.32319,52.64711],[1.32268,52.64671],[1.3229,52.64658],[1.32285,52.64654],[1.32267,52.64648],[1.32261,52.64651],[1.32251,52.64643],[1.32253,52.64627],[1.32255,52.64618],[1.32204,52.6458],[1.32205,52.64569],[1.32242,52.64552]]]]}},
{ "type":"Feature","properties":{"osm_way_id":"132626954","amenity":"parking"},"geometry":{"type":"MultiPolygon","coordinates":[[[[1.32189,52.64789],[1.32296,52.6484],[1.32395,52.64783],[1.32371,52.64766],[1.32349,52.64777],[1.323,52.64803],[1.32242,52.64762],[1.32189,52.64789]]]]}},
{ "type":"Feature","properties":{"osm_way_id":"133399666","name":"Blickling Hall carpark","amenity":"parking"},"geometry":{"type":"MultiPolygon","coordinates":[[[[1.22601,52.81106],[1.22623,52.81115],[1.227,52.8111],[1.22699,52.81099],[1.22721,52.81096],[1.22731,52.81109],[1.22755,52.81149],[1.22819,52.81136],[1.22795,52.811],[1.22779,52.81103],[1.22765,52.81081],[1.22759,52.8108],[1.22751,52.81078],[1.22736,52.81075],[1.22732,52.81053],[1.22731,52.81044],[1.22709,52.81046],[1.22707,52.81047],[1.22706,52.81049],[1.22706,52.81052],[1.22712,52.81075],[1.227,52.81076],[1.22694,52.81051],[1.22692,52.81049],[1.22687,52.81048],[1.22584,52.81057],[1.2259,52.81082],[1.22594,52.81101],[1.22601,52.81106]]]]}},
{ "type":"Feature","properties":{"osm_way_id":"133496064","amenity":"parking"},"geometry":{"type":"MultiPolygon","coordinates":[[[[1.14907,52.71429],[1.14936,52.71427],[1.14929,52.71415],[1.14901,52.71418],[1.14907,52.71429]]]]}},
{ "type":"Feature","properties":{"osm_way_id":"134236952","amenity":"parking"},"geometry":{"type":"MultiPolygon","coordinates":[[[[1.31446,52.65663],[1.31457,52.65675],[1.31475,52.65669],[1.31465,52.65657],[1.31446,52.65663]]]]}},
{ "type":"Feature","properties":{"osm_way_id":"134236968","amenity":"parking","other":{"access":"yes"}}, "geometry":{"type":"MultiPolygon","coordinates":[[[[1.2609,52.66429],[1.26122,52.66449],[1.26097,52.66466],[1.26121,52.66479],[1.26153,52.66461],[1.26173,52.66473],[1.26179,52.66469],[1.26191,52.66459],[1.26112,52.66415],[1.261,52.66423],[1.2609,52.66429]]]]}},
{ "type":"Feature","properties":{"osm_way_id":"135185738","amenity":"parking","other":{"fee":"yes"}}, "geometry":{"type":"MultiPolygon","coordinates":[[[[1.4074,52.71125],[1.40648,52.71096],[1.40643,52.71102],[1.40626,52.71096],[1.4062,52.71103],[1.40745,52.71143],[1.40757,52.71129],[1.40773,52.71134],[1.40785,52.71122],[1.40753,52.71111],[1.4074,52.71125]]]]}},
{ "type":"Feature","properties":{"osm_way_id":"135185744","amenity":"parking"},"geometry":{"type":"MultiPolygon","coordinates":[[[[1.40401,52.71072],[1.40424,52.71101],[1.40455,52.71092],[1.40452,52.71088],[1.40437,52.71069],[1.40432,52.71063],[1.40401,52.71072]]]]}},
{ "type":"Feature","properties":{"osm_way_id":"135187140","amenity":"parking"},"geometry":{"type":"MultiPolygon","coordinates":[[[[1.44153,52.68286],[1.44204,52.68307],[1.44199,52.68323],[1.44138,52.68298],[1.44153,52.68286]]]]}},
{ "type":"Feature","properties":{"osm_way_id":"139234407","name":"Sprowston Park & Ride","amenity":"parking","other":{"access":"customers","capacity":"792","capacity:disabled":"45","capacity:parent":"15","fee":"yes","lit":"yes","opening_hours":"Mo-We,Fr 06:30-20:00; Th 06:30-21:00; Sa 06:50-19:00; Su closed; PH off","park_ride":"bus","parking":"surface","postal_code":"NR7 8RN"}}, "geometry":{"type":"MultiPolygon","coordinates":[[[[1.33189,52.66605],[1.33221,52.66626],[1.33228,52.66628],[1.33236,52.6663],[1.33243,52.6663],[1.33339,52.66629],[1.33345,52.6663],[1.3335,52.66632],[1.33358,52.66637],[1.33365,52.66639],[1.33373,52.66639],[1.33382,52.66637],[1.33595,52.66568],[1.336,52.66565],[1.33602,52.66561],[1.33601,52.66557],[1.33598,52.66553],[1.33511,52.66497],[1.33506,52.66495],[1.33499,52.66495],[1.33491,52.66497],[1.33475,52.66506],[1.33466,52.66505],[1.33414,52.66472],[1.33391,52.66474],[1.33365,52.66478],[1.33365,52.66484],[1.33371,52.66484],[1.33369,52.6649],[1.33364,52.66495],[1.33189,52.66591],[1.33186,52.66594],[1.33185,52.66598],[1.33186,52.66602],[1.33189,52.66605]]]]}},
{ "type":"Feature","properties":{"osm_way_id":"140118833","amenity":"parking"},"geometry":{"type":"MultiPolygon","coordinates":[[[[1.25844,52.65089],[1.2591,52.65077],[1.2595,52.6507],[1.26055,52.65051],[1.2608,52.65099],[1.26072,52.65101],[1.26074,52.65105],[1.26055,52.65108],[1.26053,52.65104],[1.26033,52.65108],[1.26035,52.65112],[1.25961,52.65125],[1.25959,52.65121],[1.25933,52.65126],[1.25936,52.6513],[1.25878,52.65141],[1.25874,52.65132],[1.25865,52.65133],[1.25844,52.65089]]]]}},
{ "type":"Feature","properties":{"osm_way_id":"145335726","amenity":"parking","other":{"access":"customers","operator":"Apple Tree"}}, "geometry":{"type":"MultiPolygon","coordinates":[[[[-1.15372,52.91338],[-1.15332,52.9131],[-1.15285,52.91308],[-1.15255,52.91327],[-1.15245,52.91333],[-1.15228,52.91322],[-1.15258,52.91305],[-1.15258,52.91297],[-1.15251,52.91297],[-1.15251,52.91292],[-1.15259,52.91285],[-1.15275,52.91285],[-1.15273,52.91297],[-1.15305,52.91299],[-1.15332,52.913],[-1.15341,52.91294],[-1.15372,52.91314],[-1.15381,52.91309],[-1.15386,52.91312],[-1.1539,52.91315],[-1.15383,52.91319],[-1.15393,52.91326],[-1.15372,52.91338]]]]}},
{ "type":"Feature","properties":{"osm_way_id":"152636818","amenity":"parking","other":{"fee":"no","parking":"surface","surface":"asphalt"}}, "geometry":{"type":"MultiPolygon","coordinates":[[[[1.48894,52.66277],[1.48914,52.66282],[1.48918,52.66278],[1.4892,52.66269],[1.48912,52.6627],[1.48903,52.66273],[1.48894,52.66277]]]]}},
{ "type":"Feature","properties":{"osm_way_id":"153174820","amenity":"parking","other":{"fee":"no","parking":"surface","surface":"asphalt"}}, "geometry":{"type":"MultiPolygon","coordinates":[[[[1.44813,52.63391],[1.44823,52.63393],[1.44831,52.63388],[1.44822,52.63382],[1.44816,52.63382],[1.44812,52.63382],[1.44807,52.63389],[1.44813,52.63391]]]]}},
{ "type":"Feature","properties":{"osm_way_id":"153812092","amenity":"parking","other":{"fee":"no","parking":"surface","surface":"gravel"}}, "geometry":{"type":"MultiPolygon","coordinates":[[[[1.16423,52.6809],[1.16411,52.68094],[1.16417,52.681],[1.1642,52.68099],[1.16432,52.68095],[1.16426,52.68089],[1.16423,52.6809]]]]}},
{ "type":"Feature","properties":{"osm_way_id":"154716400","amenity":"parking","other":{"access":"permissive","capacity":"5","fee":"no","parking":"surface","surface":"ground"}}, "geometry":{"type":"MultiPolygon","coordinates":[[[[1.26037,52.80289],[1.26038,52.80281],[1.26011,52.8028],[1.2601,52.80288],[1.26037,52.80289]]]]}},
{ "type":"Feature","properties":{"osm_way_id":"155965682","amenity":"parking","other":{"fee":"no","parking":"surface"}}, "geometry":{"type":"MultiPolygon","coordinates":[[[[1.15049,52.72232],[1.15068,52.72226],[1.15061,52.72218],[1.15057,52.72214],[1.15042,52.72218],[1.15039,52.72221],[1.15049,52.72232]]]]}},
{ "type":"Feature","properties":{"osm_way_id":"156433698","amenity":"parking","other":{"access":"no","disused:name":"Stracey Arms","fee":"no","parking":"surface","surface":"gravel"}}, "geometry":{"type":"MultiPolygon","coordinates":[[[[1.60133,52.62395],[1.60154,52.62421],[1.60055,52.62449],[1.60035,52.62423],[1.60133,52.62395]]]]}},
{ "type":"Feature","properties":{"osm_way_id":"158363554","amenity":"parking"},"geometry":{"type":"MultiPolygon","coordinates":[[[[1.2123,52.68675],[1.21189,52.68709],[1.21229,52.68727],[1.2127,52.68693],[1.2123,52.68675]]]]}},
{ "type":"Feature","properties":{"osm_way_id":"158640592","amenity":"parking","other":{"access":"customers","surface":"compacted"}}, "geometry":{"type":"MultiPolygon","coordinates":[[[[1.48912,52.67745],[1.48955,52.67744],[1.48958,52.6772],[1.48912,52.67719],[1.48912,52.67737],[1.48912,52.67745]]]]}},
{ "type":"Feature","properties":{"osm_way_id":"158647017","amenity":"parking","other":{"maxstay":"6 hours","owner":"Colitshall Commons Management Trust","parking":"surface"}}, "geometry":{"type":"MultiPolygon","coordinates":[[[[1.37046,52.72833],[1.37042,52.72825],[1.37036,52.72825],[1.37038,52.72809],[1.3705,52.72809],[1.37052,52.72781],[1.37067,52.72783],[1.37089,52.72784],[1.3709,52.72785],[1.3709,52.72786],[1.37094,52.72793],[1.37084,52.72808],[1.37076,52.72827],[1.37061,52.7283],[1.37046,52.72833]]]]}},
{ "type":"Feature","properties":{"osm_way_id":"158649050","amenity":"parking"},"geometry":{"type":"MultiPolygon","coordinates":[[[[1.36137,52.7303],[1.36205,52.7303],[1.36204,52.73036],[1.36204,52.73044],[1.36137,52.7305],[1.36137,52.7303]]]]}},
{ "type":"Feature","properties":{"osm_way_id":"159063723","amenity":"parking"},"geometry":{"type":"MultiPolygon","coordinates":[[[[1.37081,52.63353],[1.3708,52.6336],[1.37079,52.63367],[1.37009,52.63363],[1.37009,52.63359],[1.37005,52.63356],[1.37003,52.63353],[1.37004,52.63349],[1.37081,52.63353]]]]}},
{ "type":"Feature","properties":{"osm_way_id":"161698302","amenity":"parking"},"geometry":{"type":"MultiPolygon","coordinates":[[[[1.3642,52.62958],[1.36421,52.62962],[1.36522,52.62949],[1.36522,52.62946],[1.36523,52.62944],[1.36527,52.62943],[1.36529,52.62947],[1.36536,52.62946],[1.36536,52.62943],[1.3654,52.62943],[1.36543,52.62947],[1.36546,52.62947],[1.36554,52.62945],[1.36705,52.62922],[1.36689,52.62875],[1.36669,52.62871],[1.36638,52.62869],[1.36613,52.62869],[1.36597,52.62872],[1.36588,52.62876],[1.36588,52.62882],[1.36602,52.62921],[1.36484,52.62938],[1.36466,52.62893],[1.36439,52.62897],[1.3644,52.62901],[1.36416,52.62905],[1.36411,52.62891],[1.36388,52.62894],[1.36412,52.62958],[1.3642,52.62958]]]]}},
{ "type":"Feature","properties":{"osm_way_id":"161897869","amenity":"parking"},"geometry":{"type":"MultiPolygon","coordinates":[[[[1.37401,52.63487],[1.37377,52.63488],[1.3737,52.63488],[1.37363,52.63487],[1.37356,52.63484],[1.3735,52.6348],[1.37345,52.63476],[1.37342,52.63469],[1.37337,52.63463],[1.37334,52.6346],[1.37329,52.63457],[1.37321,52.63454],[1.37312,52.63451],[1.37298,52.6344],[1.37294,52.63434],[1.37289,52.63425],[1.37287,52.63417],[1.37285,52.63409],[1.37286,52.63404],[1.37292,52.63401],[1.37303,52.634],[1.37307,52.63397],[1.37354,52.63394],[1.37353,52.6339],[1.37428,52.63387],[1.37429,52.63397],[1.3743,52.63412],[1.37431,52.63426],[1.37432,52.6344],[1.37433,52.63454],[1.37434,52.63468],[1.37436,52.63473],[1.37435,52.63477],[1.37428,52.63481],[1.37419,52.63483],[1.374,52.63483],[1.37401,52.63487]]]]}},
{ "type":"Feature","properties":{"osm_way_id":"161897870","amenity":"parking"},"geometry":{"type":"MultiPolygon","coordinates":[[[[1.36956,52.62955],[1.37065,52.62969],[1.3707,52.62955],[1.37072,52.62948],[1.37075,52.62941],[1.37041,52.62937],[1.3704,52.62941],[1.37029,52.6294],[1.3703,52.62935],[1.36972,52.62928],[1.3697,52.62932],[1.36953,52.62929],[1.36949,52.62943],[1.36956,52.62944],[1.36953,52.6295],[1.36958,52.6295],[1.36956,52.62955]]]]}},
{ "type":"Feature","properties":{"osm_way_id":"161897874","amenity":"parking"},"geometry":{"type":"MultiPolygon","coordinates":[[[[1.37037,52.63139],[1.3709,52.63123],[1.37131,52.63111],[1.3712,52.63098],[1.37127,52.63095],[1.37117,52.63082],[1.37079,52.63094],[1.37073,52.63096],[1.37077,52.631],[1.37067,52.63103],[1.37063,52.63099],[1.37053,52.63101],[1.3704,52.63105],[1.37037,52.63104],[1.37011,52.63072],[1.37034,52.63064],[1.37031,52.63059],[1.3702,52.63062],[1.37016,52.63058],[1.36995,52.63065],[1.36997,52.63069],[1.36997,52.63073],[1.36998,52.63077],[1.36999,52.6308],[1.37001,52.63082],[1.36995,52.63084],[1.37018,52.63111],[1.37024,52.6312],[1.37017,52.63122],[1.37025,52.63132],[1.3703,52.63131],[1.37037,52.63139]]]]}},
{ "type":"Feature","properties":{"osm_way_id":"161897885","amenity":"parking"},"geometry":{"type":"MultiPolygon","coordinates":[[[[1.36993,52.62996],[1.37051,52.63003],[1.3705,52.63005],[1.37081,52.63009],[1.37083,52.63003],[1.37092,52.63004],[1.37098,52.62981],[1.37091,52.6298],[1.37084,52.62979],[1.3708,52.62979],[1.36981,52.62965],[1.36977,52.62965],[1.36973,52.62966],[1.36969,52.62967],[1.36966,52.62969],[1.36964,52.62972],[1.3697,52.62973],[1.36968,52.62976],[1.36969,52.6298],[1.36971,52.62984],[1.36975,52.62988],[1.36979,52.62989],[1.36983,52.6299],[1.36988,52.62991],[1.36994,52.62992],[1.36993,52.62996]]]]}},
{ "type":"Feature","properties":{"osm_way_id":"164887317","amenity":"parking","other":{"fee":"no","parking":"surface"}}, "geometry":{"type":"MultiPolygon","coordinates":[[[[1.43917,52.65364],[1.43889,52.65359],[1.43898,52.6533],[1.43898,52.65312],[1.43926,52.65311],[1.43917,52.65364]]]]}},
{ "type":"Feature","properties":{"osm_way_id":"166442042","amenity":"parking"},"geometry":{"type":"MultiPolygon","coordinates":[[[[1.11418,52.7234],[1.1141,52.72335],[1.11437,52.72322],[1.11442,52.7232],[1.11451,52.72326],[1.11453,52.72328],[1.11422,52.72343],[1.11418,52.7234]]]]}},
{ "type":"Feature","properties":{"osm_way_id":"170327096","amenity":"parking","other":{"access":"customers","parking":"surface","wheelchair":"limited"}}, "geometry":{"type":"MultiPolygon","coordinates":[[[[1.34475,52.6377],[1.34466,52.6377],[1.34453,52.63769],[1.34446,52.63814],[1.34459,52.63815],[1.34469,52.63815],[1.34475,52.6377]]]]}},
{ "type":"Feature","properties":{"osm_way_id":"171402516","amenity":"parking","other":{"access":"customers","parking":"surface"}}, "geometry":{"type":"MultiPolygon","coordinates":[[[[1.30465,52.65634],[1.30458,52.65636],[1.30444,52.65641],[1.30447,52.65644],[1.30412,52.65654],[1.30424,52.65668],[1.30431,52.65666],[1.30434,52.6567],[1.30453,52.65663],[1.30468,52.65662],[1.30459,52.65655],[1.30474,52.65648],[1.30469,52.65644],[1.30475,52.65642],[1.30465,52.65634]]]]}},
{ "type":"Feature","properties":{"osm_way_id":"175866886","amenity":"parking","other":{"access":"yes","charge":"5Â£\/day","fee":"yes","operator":"National Trust","operator:wikidata":"Q333515","operator:wikipedia":"en:National Trust","parking":"surface","payment:coins":"yes","payment:credit_cards":"no","payment:debit_cards":"no","payment:notes":"no","surface":"ground"}}, "geometry":{"type":"MultiPolygon","coordinates":[[[[1.20653,52.8217],[1.20648,52.82169],[1.20682,52.82161],[1.20679,52.82149],[1.20689,52.82139],[1.207,52.82134],[1.20709,52.82136],[1.20722,52.82141],[1.20718,52.82147],[1.20712,52.82155],[1.207,52.82171],[1.20676,52.82206],[1.20643,52.82178],[1.20653,52.8217]]]]}},
{ "type":"Feature","properties":{"osm_way_id":"178631586","amenity":"parking","other":{"surface":"gravel"}}, "geometry":{"type":"MultiPolygon","coordinates":[[[[1.17497,52.75765],[1.17501,52.75759],[1.17505,52.7576],[1.17509,52.75759],[1.1752,52.75762],[1.17538,52.75767],[1.17527,52.75782],[1.17519,52.7578],[1.17499,52.75774],[1.17492,52.75772],[1.17497,52.75765]]]]}},
{ "type":"Feature","properties":{"osm_way_id":"180358515","amenity":"parking","other":{"surface":"gravel"}}, "geometry":{"type":"MultiPolygon","coordinates":[[[[1.2069,52.71578],[1.20699,52.71582],[1.20716,52.71569],[1.20709,52.71564],[1.20701,52.7156],[1.20682,52.71574],[1.2069,52.71578]]]]}},
{ "type":"Feature","properties":{"osm_way_id":"183026301","amenity":"parking","other":{"fee":"no","parking":"surface"}}, "geometry":{"type":"MultiPolygon","coordinates":[[[[1.49039,52.61927],[1.49057,52.61929],[1.49102,52.61929],[1.49103,52.61923],[1.49103,52.61917],[1.49058,52.61918],[1.49058,52.61884],[1.49058,52.61869],[1.49031,52.61869],[1.49027,52.61874],[1.49028,52.61886],[1.49038,52.61926],[1.49039,52.61927]]]]}},
{ "type":"Feature","properties":{"osm_way_id":"204896385","amenity":"parking","other":{"parking":"surface"}}, "geometry":{"type":"MultiPolygon","coordinates":[[[[1.54556,52.63665],[1.54555,52.63656],[1.5456,52.63656],[1.54559,52.6365],[1.54571,52.63649],[1.54605,52.63648],[1.54605,52.63638],[1.54634,52.63634],[1.54634,52.63638],[1.54659,52.63639],[1.54659,52.63646],[1.54665,52.63646],[1.54665,52.63664],[1.54625,52.63663],[1.54598,52.63663],[1.54556,52.63665]]]]}},
{ "type":"Feature","properties":{"osm_way_id":"204898069","amenity":"parking"},"geometry":{"type":"MultiPolygon","coordinates":[[[[1.54722,52.63906],[1.54715,52.63918],[1.54752,52.63923],[1.54754,52.63917],[1.54779,52.63919],[1.54778,52.63911],[1.54722,52.63906]]]]}},
{ "type":"Feature","properties":{"osm_way_id":"204898070","amenity":"parking"},"geometry":{"type":"MultiPolygon","coordinates":[[[[1.54916,52.63867],[1.54916,52.63862],[1.54866,52.63863],[1.54854,52.63864],[1.54854,52.63874],[1.5483,52.63875],[1.54831,52.63882],[1.54855,52.63881],[1.54859,52.63876],[1.54876,52.63877],[1.54887,52.63878],[1.54895,52.63873],[1.54906,52.63869],[1.54916,52.63867]]]]}},
{ "type":"Feature","properties":{"osm_way_id":"204898071","amenity":"parking"},"geometry":{"type":"MultiPolygon","coordinates":[[[[1.54722,52.63906],[1.54724,52.63903],[1.54737,52.63883],[1.54776,52.63885],[1.54776,52.63888],[1.54794,52.63888],[1.54791,52.639],[1.5478,52.63899],[1.54778,52.63911],[1.54722,52.63906]]]]}},
{ "type":"Feature","properties":{"osm_way_id":"204900420","amenity":"parking"},"geometry":{"type":"MultiPolygon","coordinates":[[[[1.55262,52.63765],[1.55248,52.63746],[1.55239,52.63749],[1.55228,52.63735],[1.55277,52.63722],[1.55286,52.63732],[1.55297,52.63729],[1.55324,52.63721],[1.55335,52.63718],[1.55343,52.63728],[1.55316,52.63735],[1.5532,52.6374],[1.55278,52.63751],[1.55284,52.63759],[1.55262,52.63765]]]]}},
{ "type":"Feature","properties":{"osm_way_id":"204907157","amenity":"parking"},"geometry":{"type":"MultiPolygon","coordinates":[[[[1.54799,52.64118],[1.54785,52.6411],[1.54784,52.641],[1.54797,52.64099],[1.5481,52.64099],[1.5481,52.64103],[1.5482,52.64108],[1.54799,52.64118]]]]}},
{ "type":"Feature","properties":{"osm_way_id":"204907160","amenity":"parking"},"geometry":{"type":"MultiPolygon","coordinates":[[[[1.54866,52.64123],[1.54867,52.64128],[1.54892,52.64126],[1.54896,52.64146],[1.54925,52.64144],[1.54922,52.6413],[1.54915,52.6413],[1.54914,52.64119],[1.54866,52.64123]]]]}},
{ "type":"Feature","properties":{"osm_way_id":"204907161","amenity":"parking"},"geometry":{"type":"MultiPolygon","coordinates":[[[[1.5493,52.64151],[1.54926,52.64124],[1.54934,52.64123],[1.54936,52.64139],[1.5497,52.64138],[1.54971,52.64145],[1.54953,52.64146],[1.54952,52.64142],[1.54947,52.64142],[1.54944,52.64144],[1.54943,52.64147],[1.54943,52.6415],[1.5493,52.64151]]]]}},
{ "type":"Feature","properties":{"osm_way_id":"204907163","amenity":"parking","other":{"fee":"no","parking":"surface"}}, "geometry":{"type":"MultiPolygon","coordinates":[[[[1.54767,52.64132],[1.54772,52.64158],[1.54777,52.64178],[1.54827,52.64176],[1.54828,52.64181],[1.54848,52.6418],[1.54846,52.6417],[1.54838,52.64118],[1.54831,52.64118],[1.54824,52.6412],[1.54819,52.64122],[1.54816,52.64125],[1.54815,52.64129],[1.54767,52.64132]]]]}},
{ "type":"Feature","properties":{"osm_way_id":"204910480","amenity":"parking","other":{"fee":"no","parking":"surface"}}, "geometry":{"type":"MultiPolygon","coordinates":[[[[1.54377,52.63489],[1.5438,52.6349],[1.5438,52.63491],[1.54443,52.63503],[1.54448,52.63493],[1.54437,52.63491],[1.5444,52.63485],[1.54424,52.63481],[1.54422,52.63485],[1.54408,52.63482],[1.54407,52.63484],[1.54382,52.63479],[1.54379,52.63485],[1.54377,52.63489]]]]}},
{ "type":"Feature","properties":{"osm_way_id":"205393615","amenity":"parking"},"geometry":{"type":"MultiPolygon","coordinates":[[[[1.54456,52.64056],[1.54452,52.64038],[1.545,52.64034],[1.545,52.64039],[1.54506,52.64038],[1.54508,52.6405],[1.5452,52.64049],[1.54522,52.64056],[1.54506,52.64057],[1.54502,52.64053],[1.54456,52.64056]]]]}},
{ "type":"Feature","properties":{"osm_way_id":"205394012","amenity":"parking"},"geometry":{"type":"MultiPolygon","coordinates":[[[[1.54411,52.63724],[1.5442,52.63707],[1.54423,52.63704],[1.54425,52.63702],[1.54425,52.63698],[1.54446,52.63698],[1.54446,52.63704],[1.5444,52.63704],[1.5444,52.63705],[1.54432,52.63705],[1.54432,52.63706],[1.54427,52.63706],[1.54427,52.6371],[1.54444,52.63711],[1.54444,52.6372],[1.54459,52.63721],[1.54467,52.63721],[1.54467,52.63729],[1.54439,52.63729],[1.54411,52.63724]]]]}},
{ "type":"Feature","properties":{"osm_way_id":"205693121","amenity":"parking"},"geometry":{"type":"MultiPolygon","coordinates":[[[[1.55089,52.63673],[1.55124,52.63674],[1.55122,52.63696],[1.55082,52.63695],[1.55082,52.63694],[1.55082,52.6369],[1.55088,52.6369],[1.55089,52.63673]]]]}},
{ "type":"Feature","properties":{"osm_way_id":"207314881","amenity":"parking","other":{"access":"yes","capacity:disabled":"1","check_date:fee":"2021-06-04","fee":"no","parking":"surface"}}, "geometry":{"type":"MultiPolygon","coordinates":[[[[1.53897,52.65818],[1.53892,52.65814],[1.53878,52.65817],[1.53875,52.65813],[1.53797,52.65831],[1.53806,52.65845],[1.5381,52.65847],[1.53813,52.65847],[1.53816,52.65846],[1.53815,52.65843],[1.53817,52.65841],[1.5389,52.65825],[1.53888,52.65821],[1.53897,52.65818]]]]}},
{ "type":"Feature","properties":{"osm_way_id":"207319780","amenity":"parking","other":{"access":"yes","check_date:fee":"2021-03-30","fee":"no","parking":"surface"}}, "geometry":{"type":"MultiPolygon","coordinates":[[[[1.29951,52.67413],[1.29954,52.6742],[1.29956,52.67426],[1.29947,52.67427],[1.29946,52.67424],[1.29942,52.67414],[1.29951,52.67413]]]]}},
{ "type":"Feature","properties":{"osm_way_id":"208258234","amenity":"parking"},"geometry":{"type":"MultiPolygon","coordinates":[[[[1.37086,52.63569],[1.37096,52.63567],[1.3709,52.63559],[1.37087,52.63552],[1.37079,52.63552],[1.37068,52.63553],[1.37059,52.63554],[1.3705,52.63556],[1.37042,52.63557],[1.37033,52.63559],[1.37022,52.63562],[1.37012,52.63566],[1.37003,52.63569],[1.36993,52.63575],[1.36983,52.6358],[1.36976,52.63585],[1.36969,52.6359],[1.36964,52.63595],[1.36986,52.63604],[1.36993,52.63598],[1.37001,52.63591],[1.37009,52.63586],[1.37019,52.63582],[1.37031,52.63577],[1.37042,52.63574],[1.37053,52.63571],[1.37064,52.6357],[1.37075,52.63568],[1.37081,52.63568],[1.37086,52.63569]]]]}},
{ "type":"Feature","properties":{"osm_way_id":"208258236","amenity":"parking"},"geometry":{"type":"MultiPolygon","coordinates":[[[[1.37106,52.63567],[1.37107,52.63559],[1.37107,52.63552],[1.37119,52.63552],[1.3713,52.63554],[1.3714,52.63555],[1.3715,52.63558],[1.37146,52.63563],[1.37134,52.63561],[1.37123,52.6356],[1.3712,52.63569],[1.37106,52.63567]]]]}},
{ "type":"Feature","properties":{"osm_way_id":"208258239","amenity":"parking"},"geometry":{"type":"MultiPolygon","coordinates":[[[[1.37175,52.63565],[1.3717,52.6357],[1.37173,52.63572],[1.37166,52.6358],[1.37174,52.63583],[1.37179,52.63586],[1.37182,52.63588],[1.37187,52.63584],[1.37193,52.6358],[1.37203,52.63587],[1.37212,52.63592],[1.372,52.63599],[1.37209,52.63607],[1.37216,52.63605],[1.37218,52.63607],[1.37234,52.63602],[1.37228,52.63596],[1.37221,52.6359],[1.37213,52.63584],[1.37207,52.63581],[1.37198,52.63575],[1.37191,52.63572],[1.37183,52.63568],[1.37175,52.63565]]]]}},
{ "type":"Feature","properties":{"osm_way_id":"217515728","amenity":"parking","other":{"access":"yes","fee":"no","parking":"surface"}}, "geometry":{"type":"MultiPolygon","coordinates":[[[[1.23289,52.71205],[1.23273,52.71186],[1.23292,52.7118],[1.233,52.71177],[1.23315,52.71196],[1.23309,52.71199],[1.23289,52.71205]]]]}},
{ "type":"Feature","properties":{"osm_way_id":"217645857","amenity":"parking","other":{"access":"customers","fee":"no","parking":"surface"}}, "geometry":{"type":"MultiPolygon","coordinates":[[[[1.27284,52.65552],[1.27294,52.65537],[1.27309,52.65541],[1.27305,52.65546],[1.27298,52.65544],[1.27291,52.65554],[1.27284,52.65552]]]]}},
{ "type":"Feature","properties":{"osm_way_id":"217681115","amenity":"parking","other":{"access":"permissive","charge":"5Â£\/day","fee":"yes","operator":"National Trust","operator:wikidata":"Q333515","operator:wikipedia":"en:National Trust","parking":"surface","payment:coins":"yes","payment:credit_cards":"no","payment:debit_cards":"no","payment:notes":"no"}}, "geometry":{"type":"MultiPolygon","coordinates":[[[[1.19757,52.81528],[1.1975,52.81512],[1.19772,52.81509],[1.19782,52.81508],[1.19788,52.81523],[1.19757,52.81528]]]]}},
{ "type":"Feature","properties":{"osm_way_id":"221609260","amenity":"parking","other":{"access":"customers"}}, "geometry":{"type":"MultiPolygon","coordinates":[[[[1.27632,52.6564],[1.27611,52.65633],[1.2759,52.65625],[1.27583,52.65629],[1.27615,52.6565],[1.27632,52.6564]]]]}},
{ "type":"Feature","properties":{"osm_way_id":"223111157","amenity":"parking","other":{"access":"customers","capacity":"13","fee":"no","parking":"surface"}}, "geometry":{"type":"MultiPolygon","coordinates":[[[[1.27648,52.65687],[1.27653,52.65684],[1.2766,52.65689],[1.27691,52.65696],[1.27687,52.657],[1.27684,52.65702],[1.27678,52.65706],[1.2767,52.65707],[1.2766,52.65707],[1.27651,52.65704],[1.27645,52.657],[1.27652,52.65696],[1.27647,52.65693],[1.2764,52.65696],[1.2764,52.65691],[1.27648,52.65687]]]]}},
{ "type":"Feature","properties":{"osm_way_id":"224613320","amenity":"parking","other":{"access":"customers","fee":"no","parking":"surface"}}, "geometry":{"type":"MultiPolygon","coordinates":[[[[1.16422,52.67913],[1.16404,52.67908],[1.16371,52.67923],[1.16376,52.67933],[1.1638,52.67936],[1.16382,52.6794],[1.16377,52.67943],[1.16389,52.67957],[1.16396,52.67954],[1.16447,52.67931],[1.16449,52.6793],[1.1645,52.6793],[1.16433,52.67915],[1.16422,52.67913]]]]}},
{ "type":"Feature","properties":{"osm_way_id":"228787223","amenity":"parking","other":{"access":"customers","fee":"no","parking":"surface"}}, "geometry":{"type":"MultiPolygon","coordinates":[[[[1.55749,52.64074],[1.55748,52.64069],[1.55757,52.64065],[1.55769,52.64062],[1.55776,52.64063],[1.55783,52.64067],[1.55789,52.64073],[1.55789,52.64079],[1.55772,52.64076],[1.55758,52.64074],[1.55749,52.64074]]]]}},
{ "type":"Feature","properties":{"osm_way_id":"229087463","amenity":"parking","other":{"access":"private","parking":"surface"}}, "geometry":{"type":"MultiPolygon","coordinates":[[[[1.33293,52.68659],[1.33303,52.68657],[1.33296,52.68645],[1.33287,52.68647],[1.33293,52.68659]]]]}},
{ "type":"Feature","properties":{"osm_way_id":"229087464","amenity":"parking","other":{"access":"private","parking":"surface"}}, "geometry":{"type":"MultiPolygon","coordinates":[[[[1.333,52.68699],[1.33306,52.68688],[1.33306,52.68685],[1.33301,52.68674],[1.33309,52.68673],[1.33315,52.68685],[1.33315,52.6869],[1.33308,52.68701],[1.333,52.68699]]]]}},
{ "type":"Feature","properties":{"osm_way_id":"233081969","amenity":"parking"},"geometry":{"type":"MultiPolygon","coordinates":[[[[1.36919,52.67483],[1.36917,52.67461],[1.36942,52.67465],[1.3694,52.67469],[1.36974,52.67475],[1.36976,52.67471],[1.36988,52.67473],[1.36984,52.67482],[1.36978,52.67492],[1.36919,52.67483]]]]}},
{ "type":"Feature","properties":{"osm_way_id":"233081973","amenity":"parking"},"geometry":{"type":"MultiPolygon","coordinates":[[[[1.36988,52.67396],[1.36982,52.67365],[1.37023,52.67362],[1.37024,52.67374],[1.37022,52.67391],[1.37021,52.67396],[1.3702,52.67398],[1.36988,52.67396]]]]}},
{ "type":"Feature","properties":{"osm_way_id":"235428300","amenity":"parking"},"geometry":{"type":"MultiPolygon","coordinates":[[[[1.25284,52.78663],[1.25287,52.78656],[1.25305,52.78657],[1.25304,52.78663],[1.25312,52.78663],[1.25313,52.78658],[1.25328,52.78659],[1.25327,52.78666],[1.25309,52.78665],[1.25284,52.78663]]]]}},
{ "type":"Feature","properties":{"osm_way_id":"235428303","amenity":"parking"},"geometry":{"type":"MultiPolygon","coordinates":[[[[1.25343,52.78658],[1.25346,52.78645],[1.25348,52.78632],[1.25342,52.78624],[1.25332,52.78625],[1.25335,52.78641],[1.25342,52.7864],[1.25343,52.78644],[1.25336,52.78645],[1.2533,52.78657],[1.25343,52.78658]]]]}},
{ "type":"Feature","properties":{"osm_way_id":"238826640","amenity":"parking","other":{"access":"permissive","fee":"no","parking":"surface"}}, "geometry":{"type":"MultiPolygon","coordinates":[[[[1.21544,52.74722],[1.2155,52.74702],[1.21534,52.74699],[1.21497,52.74691],[1.21486,52.74699],[1.21481,52.7472],[1.21544,52.74722]]]]}},
{ "type":"Feature","properties":{"osm_way_id":"241617788","amenity":"parking","other":{"access":"customers","fee":"no","operator":"Norfolk Wildlife Trust","park_ride":"no","parking":"surface"}}, "geometry":{"type":"MultiPolygon","coordinates":[[[[1.51832,52.66851],[1.51845,52.66856],[1.51853,52.66855],[1.51859,52.66854],[1.5186,52.66847],[1.51853,52.66845],[1.51855,52.66843],[1.51844,52.66839],[1.51837,52.66846],[1.51832,52.66851]]]]}},
{ "type":"Feature","properties":{"osm_way_id":"242048909","amenity":"parking","other":{"access":"customers","fee":"no","park_ride":"no","parking":"surface"}}, "geometry":{"type":"MultiPolygon","coordinates":[[[[1.29141,52.72713],[1.29142,52.72706],[1.29148,52.72706],[1.29154,52.72681],[1.2915,52.72678],[1.29147,52.72678],[1.29147,52.72674],[1.29156,52.72675],[1.29157,52.72667],[1.29199,52.72668],[1.29196,52.7269],[1.29169,52.72689],[1.29166,52.72714],[1.29141,52.72713]]]]}},
{ "type":"Feature","properties":{"osm_way_id":"245550723","amenity":"parking","other":{"operator":"RSPB Strumpshaw Fen","parking":"surface"}}, "geometry":{"type":"MultiPolygon","coordinates":[[[[1.45698,52.60718],[1.45711,52.6068],[1.45748,52.60657],[1.45765,52.60665],[1.45741,52.60686],[1.45736,52.60723],[1.45727,52.60721],[1.45728,52.60708],[1.45712,52.60709],[1.45707,52.6072],[1.45698,52.60718]]]]}},
{ "type":"Feature","properties":{"osm_way_id":"245550726","amenity":"parking","other":{"operator":"RSPB Strumpshaw Fen","parking":"surface"}}, "geometry":{"type":"MultiPolygon","coordinates":[[[[1.45651,52.60732],[1.45633,52.60727],[1.45673,52.60686],[1.45682,52.60688],[1.45651,52.60732]]]]}},
{ "type":"Feature","properties":{"osm_way_id":"259022471","amenity":"parking","other":{"access":"yes","capacity:disabled":"yes","fee":"no","opening_hours":"Mo-Su 08:00-20:00","park_ride":"no","parking":"surface","surface":"concrete"}}, "geometry":{"type":"MultiPolygon","coordinates":[[[[1.19459,52.68162],[1.19474,52.6819],[1.1957,52.68171],[1.19566,52.68163],[1.19548,52.68156],[1.19504,52.68164],[1.19499,52.68154],[1.19459,52.68162]]]]}},
{ "type":"Feature","properties":{"osm_way_id":"261105467","amenity":"parking","other":{"parking":"surface","surface":"grass"}}, "geometry":{"type":"MultiPolygon","coordinates":[[[[1.50353,52.61988],[1.50352,52.61975],[1.5035,52.61962],[1.50283,52.61962],[1.50284,52.61988],[1.50353,52.61988]]]]}},
{ "type":"Feature","properties":{"osm_way_id":"261107392","amenity":"parking","other":{"fee":"no","parking":"surface"}}, "geometry":{"type":"MultiPolygon","coordinates":[[[[1.5164,52.61608],[1.51627,52.61612],[1.51605,52.61583],[1.51612,52.61579],[1.51616,52.61578],[1.51618,52.6158],[1.51635,52.616],[1.5164,52.61608]]]]}},
{ "type":"Feature","properties":{"osm_way_id":"262115507","amenity":"parking","other":{"access":"yes","fee":"no","parking":"surface","surface":"gravel"}}, "geometry":{"type":"MultiPolygon","coordinates":[[[[1.41723,52.67767],[1.41767,52.67784],[1.41785,52.67768],[1.4174,52.67751],[1.41723,52.67767]]]]}},
{ "type":"Feature","properties":{"osm_way_id":"265450846","amenity":"parking","other":{"access":"yes","fee":"no","parking":"surface","surface":"unpaved"}}, "geometry":{"type":"MultiPolygon","coordinates":[[[[1.51338,52.58534],[1.51351,52.58543],[1.51352,52.58543],[1.51363,52.5855],[1.51367,52.58554],[1.51371,52.58553],[1.51376,52.58552],[1.51384,52.58551],[1.51383,52.58547],[1.51375,52.58534],[1.5137,52.58535],[1.51367,52.58529],[1.51366,52.58528],[1.51338,52.58534]]]]}},
{ "type":"Feature","properties":{"osm_way_id":"269496407","amenity":"parking","other":{"fee":"no","parking":"surface"}}, "geometry":{"type":"MultiPolygon","coordinates":[[[[1.12705,52.69949],[1.12709,52.69932],[1.12745,52.69936],[1.12741,52.69951],[1.12705,52.69949]]]]}},
{ "type":"Feature","properties":{"osm_way_id":"275637991","amenity":"parking","other":{"access":"permissive","fee":"no","parking":"surface","surface":"ground"}}, "geometry":{"type":"MultiPolygon","coordinates":[[[[1.20166,52.75788],[1.20171,52.75782],[1.20176,52.75777],[1.20151,52.75757],[1.20144,52.7576],[1.20136,52.75764],[1.20166,52.75788]]]]}},
{ "type":"Feature","properties":{"osm_way_id":"283175751","amenity":"parking","other":{"access":"private","parking":"surface","surface":"asphalt"}}, "geometry":{"type":"MultiPolygon","coordinates":[[[[1.20747,52.68249],[1.20737,52.68242],[1.20758,52.68231],[1.20769,52.68238],[1.20747,52.68249]]]]}},
{ "type":"Feature","properties":{"osm_way_id":"283175752","amenity":"parking","other":{"access":"customers","fee":"no","operator":"Norfolk Constabulary","parking":"surface","surface":"asphalt"}}, "geometry":{"type":"MultiPolygon","coordinates":[[[[1.20745,52.6825],[1.20757,52.6826],[1.20781,52.68248],[1.20769,52.68238],[1.20747,52.68249],[1.20745,52.6825]]]]}},
{ "type":"Feature","properties":{"osm_way_id":"284605259","amenity":"parking","other":{"access":"yes","fee":"no","operator":"Norfolk County Council","parking":"surface","surface":"gravel"}}, "geometry":{"type":"MultiPolygon","coordinates":[[[[1.30623,52.75767],[1.30631,52.75771],[1.30638,52.75777],[1.30592,52.75798],[1.30578,52.75786],[1.30623,52.75767]]]]}},
{ "type":"Feature","properties":{"osm_way_id":"288884502","amenity":"parking","other":{"access":"yes","fee":"no","parking":"surface","surface":"gravel"}}, "geometry":{"type":"MultiPolygon","coordinates":[[[[1.24323,52.74113],[1.24288,52.74102],[1.24294,52.74094],[1.24299,52.74096],[1.24303,52.74091],[1.24279,52.74083],[1.24286,52.74076],[1.24274,52.74072],[1.24276,52.74066],[1.24286,52.74062],[1.24326,52.74078],[1.24322,52.74082],[1.24339,52.74088],[1.24324,52.74105],[1.24329,52.74106],[1.24323,52.74113]]]]}},
{ "type":"Feature","properties":{"osm_way_id":"295226775","amenity":"parking"},"geometry":{"type":"MultiPolygon","coordinates":[[[[1.2184,52.73425],[1.21912,52.73447],[1.21891,52.7347],[1.21869,52.73464],[1.21853,52.73458],[1.21838,52.73453],[1.21829,52.73448],[1.21827,52.73443],[1.21832,52.73437],[1.21836,52.73431],[1.2184,52.73425]]]]}},
{ "type":"Feature","properties":{"osm_way_id":"299962111","name":"Fishermans Car Park","amenity":"parking","other":{"access":"yes","charge":"5Â£\/day","fee":"yes","parking":"surface","payment:coins":"yes","payment:credit_cards":"no","payment:debit_cards":"no","payment:notes":"no","surface":"ground"}}, "geometry":{"type":"MultiPolygon","coordinates":[[[[1.23351,52.81986],[1.23374,52.81986],[1.23378,52.81961],[1.23375,52.81955],[1.23366,52.81951],[1.23341,52.8195],[1.23343,52.8196],[1.23344,52.81963],[1.23351,52.81986]]]]}},
{ "type":"Feature","properties":{"osm_way_id":"304656556","amenity":"parking","other":{"access":"private","parking":"surface"}}, "geometry":{"type":"MultiPolygon","coordinates":[[[[1.28762,52.68367],[1.28766,52.68368],[1.28775,52.68373],[1.28784,52.68377],[1.28794,52.68382],[1.28803,52.68386],[1.28813,52.6839],[1.28833,52.684],[1.28854,52.68382],[1.28861,52.68377],[1.28858,52.68375],[1.28846,52.68364],[1.28834,52.68354],[1.28833,52.68352],[1.28819,52.68341],[1.28757,52.68363],[1.28762,52.68367]]]]}},
{ "type":"Feature","properties":{"osm_way_id":"305612716","amenity":"parking"},"geometry":{"type":"MultiPolygon","coordinates":[[[[1.08727,52.38027],[1.08711,52.37997],[1.0872,52.37995],[1.08719,52.37993],[1.08727,52.3799],[1.08732,52.37989],[1.08734,52.3799],[1.08779,52.37985],[1.08783,52.38001],[1.08774,52.38002],[1.08774,52.38003],[1.08741,52.38007],[1.08747,52.38025],[1.08727,52.38027]]]]}},
{ "type":"Feature","properties":{"osm_way_id":"306666157","amenity":"parking","other":{"fee":"no","parking":"surface","surface":"gravel"}}, "geometry":{"type":"MultiPolygon","coordinates":[[[[1.12873,52.69992],[1.12867,52.69987],[1.1287,52.69973],[1.12891,52.69978],[1.12885,52.69989],[1.12907,52.69993],[1.12902,52.70002],[1.12895,52.70001],[1.12892,52.70004],[1.12883,52.70002],[1.12873,52.69992]]]]}},
{ "type":"Feature","properties":{"osm_way_id":"315852234","amenity":"parking","other":{"access":"customers","fee":"no","parking":"surface","surface":"grass"}}, "geometry":{"type":"MultiPolygon","coordinates":[[[[1.1075,52.66411],[1.10749,52.66415],[1.10721,52.66416],[1.10726,52.66451],[1.10802,52.66426],[1.10799,52.66409],[1.1076,52.66412],[1.1076,52.6641],[1.1075,52.66411]]]]}},
{ "type":"Feature","properties":{"osm_way_id":"316308423","amenity":"parking","other":{"fee":"no","parking":"surface"}}, "geometry":{"type":"MultiPolygon","coordinates":[[[[1.12146,52.71147],[1.12171,52.7112],[1.12195,52.71101],[1.12157,52.71083],[1.1215,52.71088],[1.12135,52.71083],[1.12102,52.7111],[1.12105,52.71113],[1.12092,52.71124],[1.12146,52.71147]]]]}},
{ "type":"Feature","properties":{"osm_way_id":"319361081","amenity":"parking","other":{"fee":"no","parking":"surface"}}, "geometry":{"type":"MultiPolygon","coordinates":[[[[1.19325,52.77034],[1.19325,52.77023],[1.19331,52.77015],[1.1935,52.77015],[1.19348,52.77032],[1.19325,52.77034]]]]}},
{ "type":"Feature","properties":{"osm_way_id":"321740521","amenity":"parking","other":{"access":"customers","operator":"The Salhouse Bell"}}, "geometry":{"type":"MultiPolygon","coordinates":[[[[1.41025,52.67748],[1.4102,52.67747],[1.41032,52.67729],[1.41047,52.6773],[1.41056,52.6773],[1.41063,52.67732],[1.41047,52.67754],[1.41025,52.67748]]]]}},
{ "type":"Feature","properties":{"osm_way_id":"321776910","amenity":"parking","other":{"access":"private","parking":"surface","surface":"asphalt"}}, "geometry":{"type":"MultiPolygon","coordinates":[[[[1.13193,52.72596],[1.1317,52.72549],[1.13171,52.72541],[1.1319,52.72534],[1.13331,52.72509],[1.13395,52.72633],[1.13373,52.72638],[1.1336,52.72619],[1.13327,52.7261],[1.13324,52.72605],[1.13311,52.72577],[1.13193,52.72596]]]]}},
{ "type":"Feature","properties":{"osm_way_id":"324020973","amenity":"parking","other":{"access":"customers","fee":"no","parking":"surface"}}, "geometry":{"type":"MultiPolygon","coordinates":[[[[1.21915,52.67795],[1.21918,52.67778],[1.21913,52.67767],[1.219,52.67754],[1.21883,52.67751],[1.21827,52.67767],[1.21805,52.67785],[1.21815,52.67801],[1.21811,52.67805],[1.21837,52.67812],[1.21845,52.67812],[1.21904,52.67799],[1.21915,52.67795]]]]}},
{ "type":"Feature","properties":{"osm_way_id":"328243564","amenity":"parking","other":{"access":"yes","fee":"no","operator":"Norfolk County Council","parking":"surface","surface":"gravel"}}, "geometry":{"type":"MultiPolygon","coordinates":[[[[1.19618,52.70276],[1.19607,52.70279],[1.19595,52.70261],[1.19605,52.70253],[1.19615,52.70264],[1.19619,52.70269],[1.1962,52.70275],[1.19618,52.70276]]]]}},
{ "type":"Feature","properties":{"osm_way_id":"331851006","amenity":"parking","other":{"access":"customers"}}, "geometry":{"type":"MultiPolygon","coordinates":[[[[1.18352,52.68657],[1.18359,52.68654],[1.18388,52.68642],[1.18405,52.68654],[1.18424,52.68645],[1.18439,52.68657],[1.18459,52.68647],[1.18444,52.68636],[1.18452,52.68633],[1.18464,52.68627],[1.18406,52.68573],[1.18395,52.68577],[1.1837,52.68555],[1.18356,52.68566],[1.18334,52.68575],[1.18328,52.68589],[1.18297,52.68611],[1.18352,52.68657]]]]}},
{ "type":"Feature","properties":{"osm_way_id":"331905818","amenity":"parking","other":{"access":"private"}}, "geometry":{"type":"MultiPolygon","coordinates":[[[[1.1851,52.68694],[1.18485,52.68731],[1.18477,52.68745],[1.18469,52.68756],[1.18471,52.68768],[1.18488,52.68773],[1.18494,52.68771],[1.1852,52.68744],[1.18528,52.68745],[1.18531,52.68734],[1.18568,52.6874],[1.18537,52.68706],[1.18504,52.68673],[1.18484,52.68682],[1.18498,52.68686],[1.18496,52.68689],[1.1851,52.68694]]]]}},
{ "type":"Feature","properties":{"osm_way_id":"331939447","amenity":"parking","other":{"access":"private"}}, "geometry":{"type":"MultiPolygon","coordinates":[[[[1.15186,52.70695],[1.15195,52.70689],[1.15172,52.70675],[1.15161,52.70682],[1.15186,52.70695]]]]}},
{ "type":"Feature","properties":{"osm_way_id":"333058176","amenity":"parking","other":{"access":"yes","fee":"no","surface":"asphalt"}}, "geometry":{"type":"MultiPolygon","coordinates":[[[[1.43247,52.62633],[1.4324,52.62619],[1.43352,52.62594],[1.43355,52.626],[1.43354,52.62607],[1.43342,52.62606],[1.43341,52.6261],[1.43326,52.62608],[1.43327,52.62604],[1.43325,52.62604],[1.43323,52.62605],[1.43322,52.62606],[1.43322,52.62608],[1.43323,52.62611],[1.43315,52.62613],[1.43318,52.62616],[1.43273,52.62628],[1.43247,52.62633]]]]}},
{ "type":"Feature","properties":{"osm_way_id":"336624932","amenity":"parking","other":{"access":"customers"}}, "geometry":{"type":"MultiPolygon","coordinates":[[[[1.19777,52.68642],[1.19772,52.68636],[1.19721,52.68653],[1.197,52.68661],[1.19711,52.68662],[1.19723,52.6866],[1.19777,52.68642]]]]}},
{ "type":"Feature","properties":{"osm_way_id":"336624934","amenity":"parking","other":{"access":"customers"}}, "geometry":{"type":"MultiPolygon","coordinates":[[[[1.19778,52.68633],[1.19788,52.68645],[1.19804,52.6864],[1.198,52.68636],[1.19803,52.68636],[1.19806,52.68639],[1.19812,52.68638],[1.19802,52.68626],[1.19778,52.68633]]]]}},
{ "type":"Feature","properties":{"osm_way_id":"336624935","amenity":"parking","other":{"access":"customers"}}, "geometry":{"type":"MultiPolygon","coordinates":[[[[1.19767,52.68702],[1.19744,52.68678],[1.19765,52.68672],[1.19768,52.68675],[1.19782,52.6867],[1.1978,52.68668],[1.19794,52.68663],[1.19809,52.6868],[1.1981,52.6868],[1.19815,52.68686],[1.19767,52.68702]]]]}},
{ "type":"Feature","properties":{"osm_way_id":"336625368","amenity":"parking","other":{"access":"customers"}}, "geometry":{"type":"MultiPolygon","coordinates":[[[[1.19742,52.6863],[1.19777,52.68619],[1.19779,52.68617],[1.19772,52.68609],[1.19759,52.68613],[1.19758,52.68613],[1.19734,52.68621],[1.19742,52.6863]]]]}},
{ "type":"Feature","properties":{"osm_way_id":"336857626","amenity":"parking","other":{"access":"customers","fee":"no","parking":"surface"}}, "geometry":{"type":"MultiPolygon","coordinates":[[[[1.26618,52.66293],[1.26573,52.6632],[1.26541,52.663],[1.26547,52.66296],[1.26567,52.6631],[1.2659,52.66296],[1.26598,52.66291],[1.266,52.66292],[1.26609,52.66288],[1.26618,52.66293]]]]}},
{ "type":"Feature","properties":{"osm_way_id":"336857628","amenity":"parking","other":{"access":"customers","fee":"no","parking":"surface"}}, "geometry":{"type":"MultiPolygon","coordinates":[[[[1.26589,52.66261],[1.26578,52.66253],[1.26551,52.66269],[1.26582,52.6629],[1.2659,52.66286],[1.26586,52.66283],[1.26594,52.66278],[1.26578,52.66268],[1.26589,52.66261]]]]}},
{ "type":"Feature","properties":{"osm_way_id":"338046186","amenity":"parking"},"geometry":{"type":"MultiPolygon","coordinates":[[[[1.36325,52.73277],[1.36274,52.73274],[1.36271,52.73254],[1.36319,52.7325],[1.36325,52.73277]]]]}},
{ "type":"Feature","properties":{"osm_way_id":"338501056","amenity":"parking","other":{"access":"customers"}}, "geometry":{"type":"MultiPolygon","coordinates":[[[[1.11314,52.76844],[1.11299,52.7685],[1.11246,52.76863],[1.11238,52.76864],[1.11231,52.76861],[1.11231,52.76855],[1.11287,52.7683],[1.11297,52.76825],[1.11301,52.76834],[1.11314,52.76831],[1.11313,52.76828],[1.11401,52.76813],[1.11421,52.76809],[1.11427,52.76818],[1.11417,52.76828],[1.1139,52.76832],[1.11388,52.76827],[1.11348,52.76834],[1.1135,52.76839],[1.11314,52.76844]]]]}},
{ "type":"Feature","properties":{"osm_way_id":"338708261","amenity":"parking"},"geometry":{"type":"MultiPolygon","coordinates":[[[[1.10504,52.75699],[1.105,52.75694],[1.10557,52.75681],[1.1056,52.75686],[1.10504,52.75699]]]]}},
{ "type":"Feature","properties":{"osm_way_id":"338708273","amenity":"parking"},"geometry":{"type":"MultiPolygon","coordinates":[[[[1.10533,52.75709],[1.10546,52.75705],[1.10579,52.75759],[1.10566,52.75762],[1.10535,52.75712],[1.10533,52.75709]]]]}},
{ "type":"Feature","properties":{"osm_way_id":"338708274","amenity":"parking"},"geometry":{"type":"MultiPolygon","coordinates":[[[[1.1055,52.75706],[1.1056,52.75702],[1.10583,52.75743],[1.10591,52.75754],[1.10579,52.75758],[1.1055,52.75706]]]]}},
{ "type":"Feature","properties":{"osm_way_id":"339334102","name":"Woodbastwick Staithe","amenity":"parking","other":{"access":"yes","fee":"no","parking":"surface","surface":"compacted"}}, "geometry":{"type":"MultiPolygon","coordinates":[[[[1.46701,52.69475],[1.46704,52.69539],[1.46713,52.69539],[1.46712,52.69501],[1.46708,52.69497],[1.46708,52.69492],[1.46712,52.69491],[1.46712,52.69475],[1.46701,52.69475]]]]}},
{ "type":"Feature","properties":{"osm_way_id":"348356013","amenity":"parking","other":{"access":"customers","fee":"no","parking":"surface"}}, "geometry":{"type":"MultiPolygon","coordinates":[[[[1.24013,52.70407],[1.24035,52.70385],[1.24031,52.70384],[1.24034,52.70382],[1.24021,52.70378],[1.24024,52.70375],[1.24017,52.70374],[1.24021,52.7037],[1.24006,52.70365],[1.23996,52.70369],[1.23973,52.70394],[1.24013,52.70407]]]]}},
{ "type":"Feature","properties":{"osm_way_id":"354192884","amenity":"parking"},"geometry":{"type":"MultiPolygon","coordinates":[[[[1.24443,52.7899],[1.24462,52.78985],[1.24459,52.78981],[1.24462,52.7898],[1.24458,52.78974],[1.2445,52.78977],[1.24447,52.78971],[1.24433,52.78976],[1.24437,52.78981],[1.24443,52.7899]]]]}},
{ "type":"Feature","properties":{"osm_way_id":"354485409","amenity":"parking","other":{"capacity":"8","fee":"no","parking":"surface","surface":"ground"}}, "geometry":{"type":"MultiPolygon","coordinates":[[[[1.49372,52.63744],[1.49392,52.63743],[1.49391,52.63715],[1.49371,52.63715],[1.49372,52.63744]]]]}},
{ "type":"Feature","properties":{"osm_way_id":"354870650","name":"Salhouse Broad car park","amenity":"parking","other":{"access":"yes","addr:postcode":"NR13 6RX","capacity":"50","fee":"no","operator":"Broads Authority","park_ride":"no","parking":"surface","supervised":"no"}}, "geometry":{"type":"MultiPolygon","coordinates":[[[[1.43002,52.68296],[1.42947,52.68303],[1.42951,52.68318],[1.43009,52.68313],[1.43002,52.68296]]]]}},
{ "type":"Feature","properties":{"osm_way_id":"355115059","amenity":"parking","other":{"access":"customers","opening_hours":"Mo-Su 10:00-17:00"}}, "geometry":{"type":"MultiPolygon","coordinates":[[[[1.50333,52.66606],[1.50333,52.66627],[1.5017,52.66607],[1.50187,52.66578],[1.50146,52.6657],[1.50132,52.66567],[1.50132,52.66563],[1.50145,52.66547],[1.50222,52.66564],[1.50227,52.66565],[1.50233,52.66566],[1.5033,52.66579],[1.50333,52.66606]]]]}},
{ "type":"Feature","properties":{"osm_way_id":"355129088","amenity":"parking"},"geometry":{"type":"MultiPolygon","coordinates":[[[[1.503,52.66526],[1.50297,52.66504],[1.50303,52.66504],[1.50307,52.66503],[1.50329,52.66502],[1.50342,52.66502],[1.50344,52.66516],[1.50344,52.66523],[1.50341,52.66523],[1.50323,52.66526],[1.50307,52.66534],[1.50303,52.66532],[1.503,52.66526]]]]}},
{ "type":"Feature","properties":{"osm_way_id":"355129090","amenity":"parking"},"geometry":{"type":"MultiPolygon","coordinates":[[[[1.50293,52.66451],[1.50325,52.66451],[1.50329,52.66475],[1.50325,52.66477],[1.50301,52.66478],[1.50298,52.66477],[1.50295,52.66476],[1.50293,52.66451]]]]}},
{ "type":"Feature","properties":{"osm_way_id":"356111999","amenity":"parking","other":{"access":"customers"}}, "geometry":{"type":"MultiPolygon","coordinates":[[[[1.33194,52.64743],[1.33186,52.64755],[1.33222,52.64765],[1.33213,52.64779],[1.3322,52.64781],[1.33217,52.64784],[1.3323,52.64787],[1.33241,52.64773],[1.33231,52.64753],[1.33194,52.64743]]]]}},
{ "type":"Feature","properties":{"osm_way_id":"356977138","amenity":"parking","other":{"day_off":"Sa","day_on":"Mo","fee":"no","maxstay":"4 hour","operator":"Broadland District Council","parking":"surface","time_off":"18:00","time_on":"08:00"}}, "geometry":{"type":"MultiPolygon","coordinates":[[[[1.25296,52.79499],[1.25344,52.79491],[1.25342,52.79487],[1.25349,52.79485],[1.25354,52.79487],[1.25391,52.79476],[1.25388,52.79473],[1.25377,52.79475],[1.25376,52.79471],[1.25312,52.79482],[1.25311,52.79481],[1.25341,52.79475],[1.25337,52.79463],[1.25282,52.79471],[1.25288,52.79484],[1.25302,52.79481],[1.25303,52.79484],[1.25289,52.79486],[1.25296,52.79499]]]]}},
{ "type":"Feature","properties":{"osm_way_id":"359118775","name":"Postwick Park & Ride","amenity":"parking","other":{"access":"customers","capacity":"552","capacity:disabled":"12","fee":"yes","lit":"yes","opening_hours":"Mo-We,Fr 06:30-20:00; Th 06:30-21:00; Sa 06:50-19:00; Su closed; PH off","park_ride":"bus","parking":"surface"}}, "geometry":{"type":"MultiPolygon","coordinates":[[[[1.37638,52.62515],[1.37643,52.62519],[1.3765,52.62521],[1.37656,52.62522],[1.37669,52.62526],[1.37684,52.62528],[1.37699,52.62531],[1.37712,52.62533],[1.37728,52.62535],[1.3774,52.62536],[1.37753,52.62537],[1.37766,52.62537],[1.37778,52.62537],[1.3779,52.62536],[1.37801,52.62536],[1.37812,52.62535],[1.37826,52.62534],[1.37838,52.62532],[1.3785,52.6253],[1.37862,52.62528],[1.37874,52.62525],[1.37884,52.62523],[1.37894,52.6252],[1.37905,52.62517],[1.37916,52.62512],[1.37925,52.62507],[1.37936,52.62502],[1.37924,52.62475],[1.37921,52.62469],[1.37905,52.62438],[1.37896,52.6244],[1.37894,52.62435],[1.37891,52.62437],[1.37883,52.6244],[1.37871,52.62445],[1.3786,52.62447],[1.37849,52.6245],[1.37826,52.62454],[1.3779,52.6246],[1.37768,52.62464],[1.37745,52.62469],[1.37723,52.62473],[1.37687,52.62479],[1.37662,52.62484],[1.3764,52.62488],[1.37633,52.62489],[1.37628,52.62494],[1.37638,52.62515]]]]}},
{ "type":"Feature","properties":{"osm_way_id":"361135555","amenity":"parking","other":{"access":"customers","fee":"no","parking":"surface","surface":"gravel"}}, "geometry":{"type":"MultiPolygon","coordinates":[[[[1.28236,52.69143],[1.28234,52.6913],[1.28248,52.69128],[1.28246,52.69119],[1.28273,52.69117],[1.28276,52.69117],[1.28292,52.69121],[1.2829,52.69124],[1.28255,52.69127],[1.28255,52.69128],[1.28292,52.69126],[1.28294,52.6914],[1.28236,52.69143]]]]}},
{ "type":"Feature","properties":{"osm_way_id":"375043169","amenity":"parking","other":{"access":"yes","fee":"no","parking":"surface","surface":"compacted"}}, "geometry":{"type":"MultiPolygon","coordinates":[[[[1.35515,52.72446],[1.35509,52.72442],[1.35539,52.72424],[1.35552,52.72432],[1.35539,52.7244],[1.35515,52.72446]]]]}},
{ "type":"Feature","properties":{"osm_way_id":"375577269","amenity":"parking","other":{"parking":"surface"}}, "geometry":{"type":"MultiPolygon","coordinates":[[[[1.26091,52.79657],[1.26099,52.79663],[1.26114,52.79669],[1.26131,52.7967],[1.26219,52.79657],[1.26227,52.79651],[1.26211,52.79641],[1.26201,52.79614],[1.2617,52.79592],[1.26149,52.79578],[1.26126,52.79589],[1.26087,52.79605],[1.2608,52.79612],[1.26074,52.79623],[1.26042,52.79627],[1.26054,52.79662],[1.26091,52.79657]]]]}},
{ "type":"Feature","properties":{"osm_way_id":"376392411","amenity":"parking"},"geometry":{"type":"MultiPolygon","coordinates":[[[[1.51049,52.58648],[1.51053,52.5865],[1.51076,52.58649],[1.51086,52.58622],[1.51071,52.5862],[1.51055,52.58622],[1.51049,52.58648]]]]}},
{ "type":"Feature","properties":{"osm_way_id":"376392420","amenity":"parking"},"geometry":{"type":"MultiPolygon","coordinates":[[[[1.51795,52.57914],[1.51806,52.57927],[1.51808,52.57926],[1.5188,52.57903],[1.51867,52.5789],[1.51795,52.57914]]]]}},
{ "type":"Feature","properties":{"osm_way_id":"378202265","amenity":"parking"},"geometry":{"type":"MultiPolygon","coordinates":[[[[1.35945,52.64137],[1.35963,52.64127],[1.35961,52.64098],[1.35954,52.64088],[1.35945,52.64084],[1.35936,52.6408],[1.3593,52.64077],[1.35917,52.64092],[1.35929,52.64097],[1.35931,52.64102],[1.35921,52.64105],[1.35918,52.64124],[1.35922,52.64135],[1.35932,52.64138],[1.35945,52.64137]]]]}},
{ "type":"Feature","properties":{"osm_way_id":"378202267","amenity":"parking"},"geometry":{"type":"MultiPolygon","coordinates":[[[[1.35932,52.64053],[1.35902,52.64051],[1.35899,52.64064],[1.35878,52.64064],[1.35876,52.64079],[1.35917,52.64081],[1.35929,52.64072],[1.35932,52.64053]]]]}},
{ "type":"Feature","properties":{"osm_way_id":"378875332","amenity":"parking","other":{"access":"yes","fee":"no","lit":"no","parking":"surface","surface":"compacted"}}, "geometry":{"type":"MultiPolygon","coordinates":[[[[1.41504,52.62473],[1.41454,52.62468],[1.41458,52.62455],[1.41508,52.6246],[1.41504,52.62473]]]]}},
{ "type":"Feature","properties":{"osm_way_id":"381209178","amenity":"parking","other":{"access":"yes","fee":"no","parking":"surface","surface":"compacted"}}, "geometry":{"type":"MultiPolygon","coordinates":[[[[1.50722,52.67121],[1.50728,52.67107],[1.50674,52.67104],[1.50662,52.67132],[1.50685,52.67129],[1.50709,52.67125],[1.50722,52.67121]]]]}},
{ "type":"Feature","properties":{"osm_way_id":"383938942","amenity":"parking","other":{"fee":"no","parking":"surface","surface":"gravel"}}, "geometry":{"type":"MultiPolygon","coordinates":[[[[1.32686,52.62657],[1.32676,52.62657],[1.32678,52.62642],[1.32688,52.62642],[1.32686,52.62657]]]]}},
{ "type":"Feature","properties":{"osm_way_id":"390053150","amenity":"parking","other":{"access":"yes","fee":"no","parking":"surface","surface":"gravel"}}, "geometry":{"type":"MultiPolygon","coordinates":[[[[1.48589,52.62777],[1.48637,52.62773],[1.4864,52.62751],[1.48632,52.62753],[1.48626,52.62754],[1.48589,52.62777]]]]}},
{ "type":"Feature","properties":{"osm_way_id":"390220056","amenity":"parking","other":{"access":"customers"}}, "geometry":{"type":"MultiPolygon","coordinates":[[[[1.49057,52.61965],[1.49108,52.61965],[1.49108,52.6194],[1.49057,52.6194],[1.49057,52.61965]]]]}},
{ "type":"Feature","properties":{"osm_way_id":"390776060","name":"G A Carter Motors","amenity":"parking","other":{"access":"customers","fee":"no","surface":"gravel"}}, "geometry":{"type":"MultiPolygon","coordinates":[[[[1.53832,52.61465],[1.53819,52.61473],[1.53844,52.61496],[1.53875,52.61485],[1.5387,52.61471],[1.5387,52.61464],[1.5386,52.61455],[1.53832,52.61465]]]]}},
{ "type":"Feature","properties":{"osm_way_id":"392035781","amenity":"parking","other":{"access":"customers","parking":"surface"}}, "geometry":{"type":"MultiPolygon","coordinates":[[[[1.22246,52.67964],[1.2224,52.67946],[1.22264,52.67944],[1.22269,52.67962],[1.22246,52.67964]]]]}},
{ "type":"Feature","properties":{"osm_way_id":"392088307","amenity":"parking","other":{"access":"customers","parking":"surface"}}, "geometry":{"type":"MultiPolygon","coordinates":[[[[1.20823,52.67923],[1.20805,52.67898],[1.20813,52.67896],[1.20831,52.67921],[1.20823,52.67923]]]]}},
{ "type":"Feature","properties":{"osm_way_id":"396771872","amenity":"parking","other":{"access":"destination","parking":"surface"}}, "geometry":{"type":"MultiPolygon","coordinates":[[[[1.25039,52.79533],[1.25057,52.79526],[1.25055,52.79523],[1.25054,52.79521],[1.2507,52.79519],[1.25064,52.79504],[1.25043,52.7951],[1.25041,52.79507],[1.2502,52.79516],[1.25039,52.79533]]]]}},
{ "type":"Feature","properties":{"osm_way_id":"397984200","amenity":"parking","other":{"access":"customers","parking":"surface","surface":"asphalt"}}, "geometry":{"type":"MultiPolygon","coordinates":[[[[1.27921,52.76071],[1.27937,52.76031],[1.28007,52.76041],[1.28006,52.76044],[1.28038,52.76049],[1.28026,52.7608],[1.27987,52.76075],[1.27985,52.7608],[1.27921,52.76071]]]]}},
{ "type":"Feature","properties":{"osm_way_id":"401762833","amenity":"parking","other":{"access":"yes","fee":"no","parking":"surface"}}, "geometry":{"type":"MultiPolygon","coordinates":[[[[1.56217,52.56654],[1.56219,52.56642],[1.56255,52.56645],[1.56259,52.56629],[1.56275,52.5663],[1.5628,52.56649],[1.56278,52.56656],[1.5626,52.56657],[1.56217,52.56654]]]]}},
{ "type":"Feature","properties":{"osm_way_id":"401771291","amenity":"parking","other":{"parking":"surface"}}, "geometry":{"type":"MultiPolygon","coordinates":[[[[1.56718,52.55925],[1.56776,52.55935],[1.56779,52.55929],[1.5672,52.5592],[1.56718,52.55925]]]]}},
{ "type":"Feature","properties":{"osm_way_id":"401771294","amenity":"parking","other":{"parking":"surface"}}, "geometry":{"type":"MultiPolygon","coordinates":[[[[1.56788,52.55936],[1.56812,52.55938],[1.56813,52.55931],[1.56789,52.5593],[1.56788,52.55936]]]]}},
{ "type":"Feature","properties":{"osm_way_id":"401771295","amenity":"parking","other":{"parking":"surface"}}, "geometry":{"type":"MultiPolygon","coordinates":[[[[1.56863,52.55935],[1.56864,52.55934],[1.56827,52.55933],[1.56826,52.55938],[1.56863,52.55939],[1.56863,52.55935]]]]}},
{ "type":"Feature","properties":{"osm_way_id":"401771298","amenity":"parking","other":{"parking":"surface"}}, "geometry":{"type":"MultiPolygon","coordinates":[[[[1.57006,52.55936],[1.56972,52.55937],[1.56944,52.55937],[1.56916,52.55936],[1.56916,52.55937],[1.56915,52.55941],[1.56944,52.55942],[1.56972,52.55942],[1.57007,52.55941],[1.57006,52.55936]]]]}},
{ "type":"Feature","properties":{"osm_way_id":"401790774","amenity":"parking","other":{"fee":"no","parking":"surface"}}, "geometry":{"type":"MultiPolygon","coordinates":[[[[1.37437,52.6844],[1.37464,52.68417],[1.37401,52.68392],[1.37388,52.68398],[1.37379,52.68399],[1.37371,52.68401],[1.3736,52.68407],[1.37437,52.6844]]]]}},
{ "type":"Feature","properties":{"osm_way_id":"404156534","amenity":"parking"},"geometry":{"type":"MultiPolygon","coordinates":[[[[1.19111,52.69167],[1.19117,52.69177],[1.19114,52.69178],[1.19129,52.6921],[1.19124,52.69216],[1.19124,52.69219],[1.19129,52.69228],[1.19133,52.69232],[1.19141,52.69232],[1.19151,52.69251],[1.19161,52.69271],[1.19175,52.69298],[1.1917,52.69305],[1.19175,52.69317],[1.19181,52.69328],[1.1917,52.6933],[1.19165,52.6932],[1.19156,52.69321],[1.19147,52.69321],[1.19144,52.69312],[1.19113,52.69254],[1.19112,52.69252],[1.19105,52.69254],[1.19093,52.69256],[1.19085,52.6924],[1.19085,52.69239],[1.19082,52.69232],[1.19075,52.69233],[1.1905,52.69186],[1.19057,52.69184],[1.19098,52.69175],[1.19095,52.6917],[1.19111,52.69167]]]]}},
{ "type":"Feature","properties":{"osm_way_id":"404199864","amenity":"parking"},"geometry":{"type":"MultiPolygon","coordinates":[[[[1.19205,52.69373],[1.19177,52.69378],[1.19175,52.69384],[1.19184,52.69399],[1.19192,52.69398],[1.19193,52.694],[1.19195,52.69404],[1.19217,52.694],[1.19205,52.69373]]]]}},
{ "type":"Feature","properties":{"osm_way_id":"404200842","amenity":"parking"},"geometry":{"type":"MultiPolygon","coordinates":[[[[1.18827,52.6908],[1.18835,52.69079],[1.18842,52.69077],[1.18854,52.69101],[1.18865,52.69123],[1.18856,52.69125],[1.18847,52.69126],[1.18844,52.6912],[1.18831,52.69094],[1.18834,52.69094],[1.18827,52.6908]]]]}},
{ "type":"Feature","properties":{"osm_way_id":"404480125","amenity":"parking"},"geometry":{"type":"MultiPolygon","coordinates":[[[[1.19115,52.69103],[1.19109,52.69104],[1.19101,52.69087],[1.1911,52.69086],[1.19111,52.69085],[1.19111,52.69084],[1.19121,52.69083],[1.19128,52.69101],[1.19121,52.69102],[1.19123,52.69105],[1.19131,52.69104],[1.19141,52.69102],[1.1914,52.69099],[1.19132,52.691],[1.19125,52.69082],[1.19137,52.69081],[1.19148,52.6908],[1.19155,52.69097],[1.19148,52.69098],[1.19149,52.69101],[1.19158,52.691],[1.19165,52.69099],[1.19166,52.69096],[1.1916,52.69097],[1.19153,52.69079],[1.19166,52.69077],[1.19166,52.69076],[1.19166,52.69074],[1.19161,52.69062],[1.19146,52.69064],[1.19143,52.69056],[1.19174,52.69051],[1.19183,52.69074],[1.19195,52.69104],[1.19178,52.69106],[1.19177,52.69103],[1.19175,52.69102],[1.19173,52.69102],[1.19124,52.69109],[1.19117,52.6911],[1.19115,52.69103]]]]}},
{ "type":"Feature","properties":{"osm_way_id":"404480688","amenity":"parking"},"geometry":{"type":"MultiPolygon","coordinates":[[[[1.18934,52.69372],[1.18924,52.69354],[1.18916,52.6935],[1.18913,52.69352],[1.18899,52.69344],[1.18883,52.69356],[1.18893,52.69363],[1.18897,52.69366],[1.1885,52.6939],[1.18846,52.69392],[1.18851,52.694],[1.18859,52.6942],[1.1888,52.69417],[1.18891,52.6944],[1.18926,52.69434],[1.18925,52.69427],[1.18927,52.69419],[1.18929,52.69414],[1.18931,52.69411],[1.18932,52.69409],[1.18933,52.69407],[1.18932,52.69403],[1.18922,52.69381],[1.18916,52.69383],[1.18915,52.69379],[1.18913,52.69376],[1.18924,52.69374],[1.18934,52.69372]]]]}},
{ "type":"Feature","properties":{"osm_way_id":"408665376","amenity":"parking","other":{"fee":"no","parking":"surface","surface":"ground"}}, "geometry":{"type":"MultiPolygon","coordinates":[[[[1.58178,52.59287],[1.58182,52.59275],[1.58159,52.59276],[1.58162,52.5928],[1.58169,52.59284],[1.58178,52.59287]]]]}},
{ "type":"Feature","properties":{"osm_way_id":"408676265","amenity":"parking","other":{"access":"yes","fee":"no","parking":"surface","surface":"compacted"}}, "geometry":{"type":"MultiPolygon","coordinates":[[[[1.55938,52.58757],[1.55952,52.58758],[1.55951,52.58762],[1.56018,52.58764],[1.56019,52.58752],[1.55938,52.5875],[1.55938,52.58757]]]]}},
{ "type":"Feature","properties":{"osm_way_id":"408676268","amenity":"parking","other":{"access":"yes","fee":"no","parking":"surface","surface":"asphalt"}}, "geometry":{"type":"MultiPolygon","coordinates":[[[[1.55938,52.5875],[1.55925,52.58748],[1.55902,52.58732],[1.55886,52.58733],[1.55882,52.5874],[1.55918,52.58757],[1.55938,52.58757],[1.55938,52.5875]]]]}},
{ "type":"Feature","properties":{"osm_way_id":"408687072","amenity":"parking","other":{"parking":"surface","surface":"gravel"}}, "geometry":{"type":"MultiPolygon","coordinates":[[[[1.56604,52.60253],[1.56622,52.60252],[1.56622,52.60269],[1.56608,52.60269],[1.56607,52.60263],[1.56604,52.60253]]]]}},
{ "type":"Feature","properties":{"osm_way_id":"408924804","amenity":"parking","other":{"fee":"no","parking":"surface","surface":"gravel"}}, "geometry":{"type":"MultiPolygon","coordinates":[[[[1.16135,52.77156],[1.16156,52.7713],[1.16166,52.77127],[1.16176,52.77131],[1.16182,52.77134],[1.16183,52.77139],[1.16182,52.77145],[1.16175,52.77143],[1.16173,52.77146],[1.16166,52.77144],[1.16154,52.77161],[1.16135,52.77156]]]]}},
{ "type":"Feature","properties":{"osm_way_id":"412789977","amenity":"parking"},"geometry":{"type":"MultiPolygon","coordinates":[[[[1.29489,52.72781],[1.295,52.72757],[1.2942,52.72745],[1.29412,52.72767],[1.29489,52.72781]]]]}},
{ "type":"Feature","properties":{"osm_way_id":"429895212","amenity":"parking","other":{"access":"permissive","fee":"no","parking":"surface","surface":"compacted"}}, "geometry":{"type":"MultiPolygon","coordinates":[[[[1.29594,52.65571],[1.29603,52.65567],[1.29621,52.65571],[1.29627,52.65577],[1.29623,52.65578],[1.29615,52.65589],[1.29613,52.6559],[1.29611,52.65591],[1.29608,52.65591],[1.29595,52.65589],[1.29591,52.65586],[1.29592,52.65582],[1.29594,52.65575],[1.29594,52.65571]]]]}},
{ "type":"Feature","properties":{"osm_way_id":"441684790","amenity":"parking"},"geometry":{"type":"MultiPolygon","coordinates":[[[[1.24211,52.69968],[1.24255,52.69979],[1.24263,52.69968],[1.24291,52.69975],[1.24296,52.69968],[1.24298,52.69965],[1.24287,52.69961],[1.2429,52.69958],[1.24257,52.69948],[1.2427,52.69931],[1.24247,52.69924],[1.2424,52.69933],[1.24214,52.69964],[1.24213,52.69966],[1.24211,52.69968]]]]}},
{ "type":"Feature","properties":{"osm_way_id":"442390301","amenity":"parking","other":{"access":"yes","fee":"no","parking":"surface"}}, "geometry":{"type":"MultiPolygon","coordinates":[[[[1.29096,52.72326],[1.29088,52.72347],[1.29086,52.72353],[1.29026,52.72346],[1.29033,52.72322],[1.29034,52.72318],[1.29096,52.72326]]]]}},
{ "type":"Feature","properties":{"osm_way_id":"443330653","amenity":"parking"},"geometry":{"type":"MultiPolygon","coordinates":[[[[1.56511,52.649],[1.56511,52.64885],[1.56514,52.64879],[1.56521,52.64874],[1.56532,52.6487],[1.5654,52.64868],[1.5655,52.64862],[1.56554,52.64856],[1.56555,52.6485],[1.56547,52.64844],[1.56587,52.6483],[1.56592,52.64841],[1.56601,52.6484],[1.56603,52.6485],[1.56596,52.64856],[1.56597,52.64898],[1.56594,52.64898],[1.5652,52.649],[1.56511,52.649]]]]}},
{ "type":"Feature","properties":{"osm_way_id":"447311226","amenity":"parking"},"geometry":{"type":"MultiPolygon","coordinates":[[[[1.45472,52.6389],[1.45476,52.63849],[1.45482,52.63847],[1.45485,52.63846],[1.45531,52.63849],[1.4553,52.63854],[1.45556,52.63856],[1.45555,52.63858],[1.45555,52.63861],[1.45554,52.63868],[1.45541,52.63867],[1.4554,52.63874],[1.45553,52.63875],[1.45552,52.63886],[1.4555,52.63894],[1.45549,52.63904],[1.45523,52.63905],[1.45476,52.63903],[1.45478,52.63896],[1.45478,52.6389],[1.45472,52.6389]]]]}},
{ "type":"Feature","properties":{"osm_way_id":"461707771","amenity":"parking"},"geometry":{"type":"MultiPolygon","coordinates":[[[[1.19444,52.68233],[1.19463,52.68227],[1.1946,52.68226],[1.19445,52.68231],[1.19444,52.68233]]]]}},
{ "type":"Feature","properties":{"osm_way_id":"461707772","amenity":"parking"},"geometry":{"type":"MultiPolygon","coordinates":[[[[1.19246,52.68315],[1.19244,52.68314],[1.19215,52.68326],[1.19212,52.68329],[1.19228,52.68323],[1.19246,52.68315]]]]}},
{ "type":"Feature","properties":{"osm_way_id":"461712154","amenity":"parking","other":{"access":"customers"}}, "geometry":{"type":"MultiPolygon","coordinates":[[[[1.19652,52.68178],[1.19643,52.68164],[1.19607,52.68174],[1.19611,52.6818],[1.19616,52.68187],[1.19652,52.68178]]]]}},
{ "type":"Feature","properties":{"osm_way_id":"461965183","amenity":"parking"},"geometry":{"type":"MultiPolygon","coordinates":[[[[1.20145,52.68107],[1.20151,52.68101],[1.20127,52.68075],[1.20117,52.68076],[1.20145,52.68107]]]]}},
{ "type":"Feature","properties":{"osm_way_id":"465954388","amenity":"parking","other":{"parking":"surface"}}, "geometry":{"type":"MultiPolygon","coordinates":[[[[1.30085,52.71771],[1.30097,52.71745],[1.30112,52.71748],[1.301,52.71774],[1.30085,52.71771]]]]}},
{ "type":"Feature","properties":{"osm_way_id":"480939640","name":"Village Car Park","amenity":"parking","other":{"access":"permissive","operator":"Heydon Estate","operator:type":"community","parking":"surface","surface":"gravel"}}, "geometry":{"type":"MultiPolygon","coordinates":[[[[1.13305,52.8027],[1.13278,52.80276],[1.13228,52.80224],[1.13252,52.80218],[1.1326,52.80216],[1.13267,52.80214],[1.1327,52.80215],[1.13281,52.80216],[1.13285,52.80221],[1.13292,52.80232],[1.13282,52.80235],[1.13291,52.80249],[1.13294,52.80254],[1.13302,52.80265],[1.13302,52.80266],[1.13305,52.8027]]]]}},
{ "type":"Feature","properties":{"osm_way_id":"483516811","amenity":"parking","other":{"access":"yes","fee":"no","parking":"surface"}}, "geometry":{"type":"MultiPolygon","coordinates":[[[[1.2306,52.71169],[1.23093,52.71168],[1.23093,52.71184],[1.23055,52.71185],[1.2306,52.71169]]]]}},
{ "type":"Feature","properties":{"osm_way_id":"483516812","amenity":"parking","other":{"access":"yes","fee":"no","parking":"surface"}}, "geometry":{"type":"MultiPolygon","coordinates":[[[[1.2284,52.71146],[1.22836,52.71138],[1.22834,52.71128],[1.22839,52.71119],[1.22844,52.71116],[1.22857,52.71116],[1.22869,52.71118],[1.22877,52.71123],[1.22878,52.71131],[1.22876,52.71139],[1.22867,52.71147],[1.22856,52.7115],[1.2284,52.71146]]]]}},
{ "type":"Feature","properties":{"osm_way_id":"490496875","amenity":"parking","other":{"fee":"no","parking":"surface"}}, "geometry":{"type":"MultiPolygon","coordinates":[[[[1.16626,52.76978],[1.16623,52.76971],[1.16624,52.76969],[1.16629,52.76966],[1.16642,52.76964],[1.16645,52.76967],[1.16652,52.76971],[1.16631,52.76974],[1.16628,52.76976],[1.16626,52.76978]]]]}},
{ "type":"Feature","properties":{"osm_way_id":"493446391","amenity":"parking","other":{"access":"customers","fee":"no","operator":"Greater Anglia","park_ride":"no"}}, "geometry":{"type":"MultiPolygon","coordinates":[[[[1.43974,52.61925],[1.43981,52.6193],[1.44069,52.6189],[1.43974,52.61925]]]]}},
{ "type":"Feature","properties":{"osm_way_id":"513976474","amenity":"parking","other":{"access":"customers","parking":"surface"}}, "geometry":{"type":"MultiPolygon","coordinates":[[[[1.55177,52.66011],[1.55134,52.66034],[1.5512,52.66027],[1.55166,52.66006],[1.55177,52.66011]]]]}},
{ "type":"Feature","properties":{"osm_way_id":"516622674","amenity":"parking","other":{"fee":"no","parking":"surface","surface":"asphalt"}}, "geometry":{"type":"MultiPolygon","coordinates":[[[[1.21816,52.68895],[1.21833,52.68914],[1.21822,52.68918],[1.21825,52.68922],[1.21826,52.68922],[1.21809,52.68928],[1.21806,52.68924],[1.21803,52.68925],[1.21803,52.6893],[1.21792,52.6893],[1.21792,52.68924],[1.21786,52.68922],[1.21781,52.68911],[1.21774,52.68908],[1.21778,52.68902],[1.21786,52.68905],[1.21789,52.68904],[1.21785,52.689],[1.21797,52.68896],[1.21802,52.68901],[1.21816,52.68895]]]]}},
{ "type":"Feature","properties":{"osm_way_id":"523987284","name":"Bure Vally Way Car Park","amenity":"parking","other":{"access":"yes","fee":"no","parking":"surface","surface":"compacted"}}, "geometry":{"type":"MultiPolygon","coordinates":[[[[1.35986,52.73436],[1.35985,52.73432],[1.36005,52.73431],[1.36006,52.73435],[1.35986,52.73436]]]]}},
{ "type":"Feature","properties":{"osm_way_id":"534119951","amenity":"parking","other":{"fee":"no","parking":"surface"}}, "geometry":{"type":"MultiPolygon","coordinates":[[[[1.3782,52.6627],[1.37802,52.66262],[1.37792,52.66271],[1.37797,52.66274],[1.37809,52.6628],[1.3782,52.6627]]]]}},
{ "type":"Feature","properties":{"osm_way_id":"534211518","amenity":"parking","other":{"fee":"no","parking":"surface"}}, "geometry":{"type":"MultiPolygon","coordinates":[[[[1.36609,52.64874],[1.36591,52.64888],[1.36578,52.64905],[1.36541,52.64889],[1.36573,52.64859],[1.36609,52.64874]]]]}},
{ "type":"Feature","properties":{"osm_way_id":"534213812","amenity":"parking","other":{"access":"customers","fee":"no","parking":"surface"}}, "geometry":{"type":"MultiPolygon","coordinates":[[[[1.34291,52.63559],[1.34294,52.63543],[1.34301,52.63547],[1.34313,52.63549],[1.3431,52.63561],[1.34291,52.63559]]]]}},
{ "type":"Feature","properties":{"osm_way_id":"542322865","amenity":"parking","other":{"access":"private"}}, "geometry":{"type":"MultiPolygon","coordinates":[[[[1.3738,52.63005],[1.37429,52.62997],[1.37431,52.63001],[1.3744,52.63],[1.37442,52.63004],[1.37453,52.63002],[1.37456,52.63008],[1.37478,52.63004],[1.37458,52.6296],[1.37528,52.62948],[1.37493,52.62874],[1.37453,52.6288],[1.37457,52.62889],[1.37409,52.62897],[1.37412,52.62905],[1.37371,52.62912],[1.37374,52.62919],[1.37323,52.62928],[1.37327,52.62936],[1.37208,52.62956],[1.37215,52.62974],[1.3723,52.62971],[1.37243,52.63001],[1.3725,52.63],[1.3726,52.63021],[1.3727,52.63019],[1.37274,52.63029],[1.37298,52.63025],[1.37271,52.62964],[1.37355,52.6295],[1.3738,52.63005]]]]}},
{ "type":"Feature","properties":{"osm_way_id":"542322866","amenity":"parking","other":{"access":"private"}}, "geometry":{"type":"MultiPolygon","coordinates":[[[[1.37577,52.63004],[1.37571,52.62991],[1.37494,52.63004],[1.37498,52.63013],[1.37515,52.6301],[1.37517,52.63015],[1.37577,52.63004]]]]}},
{ "type":"Feature","properties":{"osm_way_id":"542322867","amenity":"parking","other":{"access":"private"}}, "geometry":{"type":"MultiPolygon","coordinates":[[[[1.37746,52.6298],[1.3777,52.62983],[1.37797,52.62887],[1.37657,52.62873],[1.3765,52.62898],[1.37657,52.62899],[1.37656,52.62901],[1.37766,52.62913],[1.37746,52.6298]]]]}},
{ "type":"Feature","properties":{"osm_way_id":"542322868","amenity":"parking","other":{"access":"private"}}, "geometry":{"type":"MultiPolygon","coordinates":[[[[1.37613,52.63021],[1.37724,52.63033],[1.3773,52.63011],[1.37761,52.63015],[1.37768,52.6299],[1.37755,52.62989],[1.37626,52.62975],[1.37613,52.63021]]]]}},
{ "type":"Feature","properties":{"osm_way_id":"544505141","amenity":"parking","other":{"capacity":"25 + overflow"}}, "geometry":{"type":"MultiPolygon","coordinates":[[[[1.10606,52.72336],[1.1062,52.72352],[1.10626,52.72356],[1.10633,52.72356],[1.1064,52.72356],[1.10654,52.7235],[1.10657,52.72343],[1.1064,52.72324],[1.10606,52.72336]]]]}},
{ "type":"Feature","properties":{"osm_way_id":"545825559","amenity":"parking"},"geometry":{"type":"MultiPolygon","coordinates":[[[[1.32273,52.64735],[1.32257,52.64744],[1.32261,52.64747],[1.32277,52.64738],[1.32273,52.64735]]]]}},
{ "type":"Feature","properties":{"osm_way_id":"547719987","amenity":"parking"},"geometry":{"type":"MultiPolygon","coordinates":[[[[1.26998,52.65464],[1.27004,52.65465],[1.27008,52.65462],[1.27159,52.6551],[1.27157,52.65514],[1.27164,52.65515],[1.2714,52.65601],[1.2698,52.65585],[1.27002,52.65495],[1.2701,52.65495],[1.27013,52.65487],[1.26985,52.65479],[1.26998,52.65464]]]]}},
{ "type":"Feature","properties":{"osm_way_id":"547720404","amenity":"parking"},"geometry":{"type":"MultiPolygon","coordinates":[[[[1.28266,52.65781],[1.28266,52.65795],[1.28258,52.65795],[1.28242,52.65801],[1.28222,52.65801],[1.28221,52.65798],[1.28194,52.65798],[1.28194,52.65802],[1.28166,52.65802],[1.28167,52.65836],[1.28156,52.65837],[1.28123,52.65767],[1.28126,52.65754],[1.28249,52.65769],[1.28266,52.65781]]]]}},
{ "type":"Feature","properties":{"osm_way_id":"547745010","amenity":"parking","other":{"access":"yes","fee":"no","parking":"surface"}}, "geometry":{"type":"MultiPolygon","coordinates":[[[[1.33504,52.65851],[1.33574,52.65923],[1.33517,52.65942],[1.33505,52.65929],[1.33403,52.65966],[1.33467,52.66031],[1.33482,52.66025],[1.33521,52.66062],[1.33538,52.66057],[1.33546,52.66066],[1.33529,52.66071],[1.33527,52.66074],[1.33392,52.66049],[1.33367,52.66023],[1.33325,52.66024],[1.33326,52.65998],[1.33319,52.65997],[1.33324,52.65973],[1.3334,52.65941],[1.33364,52.65915],[1.33399,52.65891],[1.33437,52.65875],[1.33504,52.65851]]]]}},
{ "type":"Feature","properties":{"osm_way_id":"550120643","amenity":"parking","other":{"access":"customers","fee":"no","parking":"surface"}}, "geometry":{"type":"MultiPolygon","coordinates":[[[[1.33872,52.65458],[1.33936,52.65441],[1.33944,52.65434],[1.3392,52.65419],[1.33857,52.65436],[1.33872,52.65458]]]]}},
{ "type":"Feature","properties":{"osm_way_id":"551453922","amenity":"parking","other":{"access":"customers","fee":"no","parking":"surface"}}, "geometry":{"type":"MultiPolygon","coordinates":[[[[1.3441,52.62693],[1.34401,52.62711],[1.34386,52.62714],[1.34369,52.62709],[1.34367,52.62707],[1.34347,52.62702],[1.34344,52.62702],[1.34339,52.62697],[1.34332,52.62695],[1.3433,52.62697],[1.34322,52.62695],[1.34318,52.627],[1.34288,52.62697],[1.3429,52.62692],[1.34287,52.62692],[1.34289,52.62684],[1.34293,52.62684],[1.34294,52.62681],[1.34324,52.62685],[1.34347,52.62687],[1.34346,52.6269],[1.34369,52.62694],[1.34388,52.62697],[1.34397,52.62696],[1.3441,52.62693]]]]}},
{ "type":"Feature","properties":{"osm_way_id":"557477606","amenity":"parking"},"geometry":{"type":"MultiPolygon","coordinates":[[[[1.32568,52.64893],[1.32575,52.64884],[1.32654,52.64906],[1.32641,52.64922],[1.32587,52.64906],[1.32568,52.64893]]]]}},
{ "type":"Feature","properties":{"osm_way_id":"558591080","amenity":"parking","other":{"fee":"no","parking":"surface"}}, "geometry":{"type":"MultiPolygon","coordinates":[[[[1.33703,52.69416],[1.33699,52.6941],[1.33699,52.694],[1.3371,52.694],[1.3371,52.69385],[1.33713,52.69385],[1.33715,52.69381],[1.33712,52.69379],[1.33711,52.69372],[1.33706,52.69371],[1.33706,52.69364],[1.33723,52.69358],[1.33739,52.69396],[1.3372,52.69398],[1.33721,52.69401],[1.3373,52.69401],[1.33735,52.69412],[1.33703,52.69416]]]]}},
{ "type":"Feature","properties":{"osm_way_id":"559153200","amenity":"parking","other":{"fee":"no","parking":"surface","surface":"compacted"}}, "geometry":{"type":"MultiPolygon","coordinates":[[[[1.09596,52.73825],[1.09601,52.73824],[1.0958,52.73812],[1.09573,52.73817],[1.09579,52.73822],[1.09585,52.73821],[1.09596,52.73825]]]]}},
{ "type":"Feature","properties":{"osm_way_id":"559817006","amenity":"parking","other":{"parking":"surface"}}, "geometry":{"type":"MultiPolygon","coordinates":[[[[1.31375,52.71223],[1.3139,52.71201],[1.31393,52.71202],[1.31417,52.71208],[1.31406,52.71229],[1.31375,52.71223]]]]}},
{ "type":"Feature","properties":{"osm_way_id":"560361963","amenity":"parking"},"geometry":{"type":"MultiPolygon","coordinates":[[[[1.40084,52.70681],[1.40081,52.70664],[1.40125,52.70667],[1.40127,52.70674],[1.40142,52.70675],[1.40145,52.70679],[1.40147,52.70688],[1.40131,52.70689],[1.4013,52.70687],[1.40128,52.70679],[1.40096,52.70681],[1.40084,52.70681]]]]}},
{ "type":"Feature","properties":{"osm_way_id":"560363357","amenity":"parking"},"geometry":{"type":"MultiPolygon","coordinates":[[[[1.01261,52.77988],[1.01269,52.77974],[1.01224,52.77964],[1.0123,52.77955],[1.01221,52.77953],[1.01213,52.77952],[1.012,52.77974],[1.01261,52.77988]]]]}},
{ "type":"Feature","properties":{"osm_way_id":"560363569","amenity":"parking"},"geometry":{"type":"MultiPolygon","coordinates":[[[[1.11014,52.72133],[1.11045,52.72148],[1.11048,52.72149],[1.11054,52.72146],[1.1106,52.7215],[1.11074,52.72146],[1.11058,52.72124],[1.11048,52.72126],[1.11014,52.72133]]]]}},
{ "type":"Feature","properties":{"osm_way_id":"560507108","amenity":"parking","other":{"access":"customers","fee":"no","parking":"surface","surface":"asphalt"}}, "geometry":{"type":"MultiPolygon","coordinates":[[[[1.26329,52.66517],[1.26343,52.66507],[1.26324,52.66496],[1.26309,52.66506],[1.26329,52.66517]]]]}},
{ "type":"Feature","properties":{"osm_way_id":"568086695","amenity":"parking","other":{"access":"yes","fee":"no","lit":"no","parking":"surface","surface":"gravel"}}, "geometry":{"type":"MultiPolygon","coordinates":[[[[1.34009,52.65186],[1.34007,52.65194],[1.33999,52.65193],[1.33999,52.65195],[1.33997,52.65202],[1.33958,52.65199],[1.3396,52.65182],[1.34009,52.65186]]]]}},
{ "type":"Feature","properties":{"osm_way_id":"569895138","amenity":"parking","other":{"parking":"surface","surface":"gravel"}}, "geometry":{"type":"MultiPolygon","coordinates":[[[[1.10577,52.80871],[1.10593,52.80871],[1.10605,52.80871],[1.10605,52.80867],[1.10617,52.80867],[1.10617,52.80845],[1.10577,52.80846],[1.10577,52.80871]]]]}},
{ "type":"Feature","properties":{"osm_way_id":"571368468","amenity":"parking","other":{"access":"customers","fee":"no","lit":"no","parking":"surface","surface":"asphalt"}}, "geometry":{"type":"MultiPolygon","coordinates":[[[[1.22604,52.67679],[1.22541,52.67693],[1.22542,52.67697],[1.22545,52.67708],[1.22569,52.67704],[1.22571,52.67705],[1.22583,52.67704],[1.22582,52.67701],[1.22608,52.67697],[1.22604,52.67679]]]]}},
{ "type":"Feature","properties":{"osm_way_id":"576478257","name":"Car Park","amenity":"parking","other":{"access":"yes","capacity":"20","description":"Taverham Nature Reserve","fee":"no","parking":"surface","surface":"ground"}}, "geometry":{"type":"MultiPolygon","coordinates":[[[[1.1924,52.67828],[1.19273,52.67825],[1.19279,52.67825],[1.19293,52.67822],[1.19297,52.6782],[1.19298,52.67814],[1.19277,52.67811],[1.19224,52.67802],[1.19216,52.67803],[1.19225,52.67812],[1.1923,52.67816],[1.19232,52.67823],[1.19234,52.67829],[1.1924,52.67828]]]]}},
{ "type":"Feature","properties":{"osm_way_id":"591553256","amenity":"parking","other":{"access":"customers","parking":"surface"}}, "geometry":{"type":"MultiPolygon","coordinates":[[[[1.12018,52.37168],[1.12002,52.37133],[1.11991,52.37113],[1.1198,52.37093],[1.11997,52.37088],[1.12028,52.37101],[1.12031,52.37104],[1.12,52.37113],[1.12016,52.37131],[1.12059,52.37118],[1.12084,52.37148],[1.12018,52.37168]]]]}},
{ "type":"Feature","properties":{"osm_way_id":"618581711","amenity":"parking","other":{"lit":"no","parking":"surface","surface":"gravel"}}, "geometry":{"type":"MultiPolygon","coordinates":[[[[1.28536,52.7372],[1.28523,52.73736],[1.28556,52.73746],[1.28564,52.73737],[1.28574,52.7374],[1.28577,52.73737],[1.28587,52.7374],[1.2859,52.73738],[1.28536,52.7372]]]]}},
{ "type":"Feature","properties":{"osm_way_id":"629499367","amenity":"parking","other":{"access":"private","parking":"surface"}}, "geometry":{"type":"MultiPolygon","coordinates":[[[[1.11013,52.76277],[1.11015,52.76283],[1.11029,52.76281],[1.11029,52.76281],[1.11033,52.7628],[1.11031,52.7627],[1.11023,52.76271],[1.11012,52.76272],[1.11013,52.76277]]]]}},
{ "type":"Feature","properties":{"osm_way_id":"631835022","amenity":"parking","other":{"access":"customers","parking":"surface"}}, "geometry":{"type":"MultiPolygon","coordinates":[[[[1.44001,52.63189],[1.44006,52.63222],[1.44082,52.63217],[1.44139,52.63214],[1.44138,52.63207],[1.44136,52.63189],[1.44104,52.63191],[1.44104,52.63187],[1.44081,52.63187],[1.44021,52.63188],[1.44001,52.63189]]]]}},
{ "type":"Feature","properties":{"osm_way_id":"636615795","amenity":"parking","other":{"access":"customers","parking":"surface"}}, "geometry":{"type":"MultiPolygon","coordinates":[[[[1.36274,52.62858],[1.36267,52.62862],[1.36277,52.62872],[1.36292,52.62869],[1.36322,52.62865],[1.36314,52.62854],[1.3628,52.62855],[1.36274,52.62858]]]]}},
{ "type":"Feature","properties":{"osm_way_id":"641976841","amenity":"parking","other":{"access":"customers","capacity":"5","fee":"no","operator":"Londis","parking":"surface"}}, "geometry":{"type":"MultiPolygon","coordinates":[[[[1.35817,52.72817],[1.35807,52.72816],[1.35814,52.72801],[1.35824,52.72803],[1.35817,52.72817]]]]}},
{ "type":"Feature","properties":{"osm_way_id":"642167656","amenity":"parking","other":{"access":"customers","fee":"no","operator":"The Red Lion","parking":"surface"}}, "geometry":{"type":"MultiPolygon","coordinates":[[[[1.2239,52.67644],[1.22411,52.67641],[1.22414,52.67642],[1.22413,52.67646],[1.22431,52.6766],[1.22438,52.67658],[1.22443,52.67665],[1.22417,52.6767],[1.22418,52.67684],[1.22396,52.67688],[1.22382,52.67664],[1.22391,52.67655],[1.22385,52.67651],[1.22387,52.67648],[1.2239,52.67644]]]]}},
{ "type":"Feature","properties":{"osm_way_id":"642710901","amenity":"parking","other":{"access":"private","parking":"surface"}}, "geometry":{"type":"MultiPolygon","coordinates":[[[[1.34959,52.62739],[1.35028,52.62746],[1.35029,52.62725],[1.35025,52.62722],[1.35016,52.62718],[1.34948,52.62714],[1.34947,52.62717],[1.34953,52.62718],[1.34953,52.62719],[1.34971,52.62721],[1.34969,52.62727],[1.34969,52.62727],[1.34968,52.62732],[1.3496,52.62732],[1.34959,52.62736],[1.34959,52.62739]]]]}},
{ "type":"Feature","properties":{"osm_way_id":"650082864","amenity":"parking","other":{"access":"customers","parking":"surface"}}, "geometry":{"type":"MultiPolygon","coordinates":[[[[1.5763,52.60637],[1.57632,52.60658],[1.57634,52.60658],[1.5767,52.60659],[1.57668,52.60653],[1.57659,52.60648],[1.57655,52.60642],[1.57657,52.60637],[1.57662,52.60635],[1.57637,52.60636],[1.5763,52.60637]]]]}},
{ "type":"Feature","properties":{"osm_way_id":"655086509","amenity":"parking","other":{"parking":"surface"}}, "geometry":{"type":"MultiPolygon","coordinates":[[[[1.23105,52.79054],[1.23112,52.7913],[1.23073,52.79131],[1.23071,52.79109],[1.23063,52.79109],[1.23058,52.79055],[1.23105,52.79054]]]]}},
{ "type":"Feature","properties":{"osm_way_id":"660813453","amenity":"parking","other":{"parking":"surface"}}, "geometry":{"type":"MultiPolygon","coordinates":[[[[1.41465,52.6793],[1.41485,52.67912],[1.41505,52.6792],[1.4151,52.67916],[1.41514,52.67918],[1.41518,52.67919],[1.41499,52.67942],[1.41465,52.6793]]]]}},
{ "type":"Feature","properties":{"osm_way_id":"660825194","amenity":"parking"},"geometry":{"type":"MultiPolygon","coordinates":[[[[1.39061,52.67439],[1.39046,52.67443],[1.39038,52.67445],[1.39037,52.67447],[1.39078,52.6751],[1.39092,52.67536],[1.39094,52.67535],[1.39114,52.67531],[1.39061,52.67439]]]]}},
{ "type":"Feature","properties":{"osm_way_id":"660832265","amenity":"parking","other":{"access":"customers","parking":"surface"}}, "geometry":{"type":"MultiPolygon","coordinates":[[[[1.34351,52.65019],[1.34343,52.65034],[1.34249,52.6501],[1.34263,52.64987],[1.34284,52.64992],[1.343,52.64973],[1.3432,52.64978],[1.3431,52.64995],[1.34302,52.65008],[1.34294,52.65006],[1.34289,52.65015],[1.34319,52.65021],[1.34324,52.65013],[1.34351,52.65019]]]]}},
{ "type":"Feature","properties":{"osm_way_id":"661008148","amenity":"parking","other":{"access":"customers","fee":"no","operator":"The Racecourse Pub","parking":"surface"}}, "geometry":{"type":"MultiPolygon","coordinates":[[[[1.35102,52.65235],[1.35086,52.65231],[1.35011,52.6521],[1.35035,52.65176],[1.3512,52.65198],[1.35169,52.65129],[1.35224,52.65144],[1.35195,52.6518],[1.35158,52.6517],[1.35138,52.652],[1.35129,52.65199],[1.35102,52.65235]]]]}},
{ "type":"Feature","properties":{"osm_way_id":"661369422","amenity":"parking","other":{"parking":"surface"}}, "geometry":{"type":"MultiPolygon","coordinates":[[[[1.42637,52.62569],[1.4267,52.62568],[1.42669,52.62562],[1.42645,52.62562],[1.42641,52.62535],[1.42601,52.62537],[1.42603,52.62549],[1.42628,52.62548],[1.42629,52.62557],[1.42636,52.62557],[1.42637,52.62569]]]]}},
{ "type":"Feature","properties":{"osm_way_id":"664512554","amenity":"parking","other":{"parking":"surface","surface":"gravel"}}, "geometry":{"type":"MultiPolygon","coordinates":[[[[1.44086,52.68264],[1.44069,52.68257],[1.44063,52.68261],[1.44056,52.68259],[1.44056,52.68254],[1.44066,52.68247],[1.441,52.68236],[1.44115,52.68243],[1.44086,52.68264]]]]}},
{ "type":"Feature","properties":{"osm_way_id":"667662686","amenity":"parking","other":{"fee":"no","parking":"surface","surface":"gravel"}}, "geometry":{"type":"MultiPolygon","coordinates":[[[[1.26332,52.74236],[1.26343,52.74208],[1.26317,52.742],[1.2631,52.74212],[1.26302,52.7421],[1.26291,52.74229],[1.26316,52.74235],[1.26332,52.74236]]]]}},
{ "type":"Feature","properties":{"osm_way_id":"673892968","amenity":"parking","other":{"access":"private","operator":"Hellesdon High School","parking":"surface","surface":"asphalt"}}, "geometry":{"type":"MultiPolygon","coordinates":[[[[1.25499,52.65979],[1.25551,52.66007],[1.25559,52.66012],[1.25601,52.65983],[1.25555,52.65957],[1.25547,52.65952],[1.25542,52.6595],[1.25537,52.65953],[1.25532,52.65956],[1.2553,52.65958],[1.25515,52.65968],[1.25499,52.65979]]]]}},
{ "type":"Feature","properties":{"osm_way_id":"673896958","amenity":"parking","other":{"access":"private","operator":"Hellesdon High School","parking":"surface","surface":"asphalt"}}, "geometry":{"type":"MultiPolygon","coordinates":[[[[1.25658,52.65887],[1.25659,52.65885],[1.25707,52.6584],[1.25665,52.65824],[1.25611,52.65874],[1.25613,52.65877],[1.25614,52.65879],[1.25611,52.65883],[1.25605,52.65888],[1.25584,52.65905],[1.25595,52.6591],[1.25602,52.65904],[1.2561,52.65896],[1.25631,52.65875],[1.25658,52.65887]]]]}},
{ "type":"Feature","properties":{"osm_way_id":"675685593","amenity":"parking","other":{"access":"customers"}}, "geometry":{"type":"MultiPolygon","coordinates":[[[[1.49098,52.62251],[1.49101,52.62267],[1.49102,52.62273],[1.49104,52.62274],[1.4911,52.62273],[1.49115,52.62273],[1.49129,52.62271],[1.49134,52.62283],[1.49135,52.62285],[1.49142,52.62284],[1.49135,52.62262],[1.49135,52.62257],[1.49098,52.62251]]]]}},
{ "type":"Feature","properties":{"osm_way_id":"675685597","amenity":"parking","other":{"access":"customers"}}, "geometry":{"type":"MultiPolygon","coordinates":[[[[1.48303,52.62242],[1.48287,52.62242],[1.48285,52.62229],[1.48301,52.62228],[1.48301,52.62231],[1.48303,52.62242]]]]}},
{ "type":"Feature","properties":{"osm_way_id":"684445611","amenity":"parking","other":{"capacity":"25","fee":"no","operator":"Brundall Parish Council","parking":"surface","surface":"asphalt"}}, "geometry":{"type":"MultiPolygon","coordinates":[[[[1.43499,52.62413],[1.43509,52.62438],[1.43501,52.62439],[1.43503,52.62442],[1.4351,52.6244],[1.43514,52.62451],[1.43513,52.62452],[1.43488,52.62456],[1.43485,52.62448],[1.43495,52.62446],[1.43493,52.62441],[1.43485,52.62443],[1.43478,52.6243],[1.43487,52.62428],[1.43482,52.62416],[1.43486,52.62416],[1.43499,52.62413]]]]}},
{ "type":"Feature","properties":{"osm_way_id":"691275619","amenity":"parking","other":{"access":"customers","parking":"surface","surface":"grass"}}, "geometry":{"type":"MultiPolygon","coordinates":[[[[1.33147,52.74796],[1.33157,52.74795],[1.33197,52.74783],[1.33168,52.74759],[1.33158,52.74756],[1.33156,52.7476],[1.33149,52.74789],[1.33147,52.74796]]]]}},
{ "type":"Feature","properties":{"osm_way_id":"693957621","amenity":"parking"},"geometry":{"type":"MultiPolygon","coordinates":[[[[1.41908,52.62327],[1.41928,52.62303],[1.41888,52.6229],[1.41867,52.62314],[1.41908,52.62327]]]]}},
{ "type":"Feature","properties":{"osm_way_id":"694540872","amenity":"parking","other":{"parking":"surface"}}, "geometry":{"type":"MultiPolygon","coordinates":[[[[1.30219,52.66182],[1.30206,52.66158],[1.3016,52.66169],[1.30174,52.66193],[1.30219,52.66182]]]]}},
{ "type":"Feature","properties":{"osm_way_id":"703421021","amenity":"parking"},"geometry":{"type":"MultiPolygon","coordinates":[[[[1.45519,52.63453],[1.45511,52.63437],[1.45556,52.63438],[1.45557,52.63453],[1.45519,52.63453]]]]}},
{ "type":"Feature","properties":{"osm_way_id":"709253047","amenity":"parking"},"geometry":{"type":"MultiPolygon","coordinates":[[[[1.21158,52.69749],[1.21137,52.69734],[1.21086,52.69746],[1.21096,52.69762],[1.21149,52.69754],[1.21158,52.69749]]]]}},
{ "type":"Feature","properties":{"osm_way_id":"756866085","amenity":"parking","other":{"operator":"St Margaret Church Hall"}}, "geometry":{"type":"MultiPolygon","coordinates":[[[[1.29841,52.66287],[1.29879,52.6628],[1.2987,52.66264],[1.29829,52.66271],[1.29834,52.6628],[1.29838,52.6628],[1.29841,52.66287]]]]}},
{ "type":"Feature","properties":{"osm_way_id":"788548059","amenity":"parking","other":{"access":"customers","operator":"The Bell","operator:type":"business","parking":"surface","surface":"gravel"}}, "geometry":{"type":"MultiPolygon","coordinates":[[[[1.16344,52.77064],[1.16352,52.77088],[1.16373,52.77085],[1.16367,52.77062],[1.16359,52.77063],[1.16351,52.77064],[1.16344,52.77064]]]]}},
{ "type":"Feature","properties":{"osm_way_id":"821141202","amenity":"parking","other":{"access":"private","capacity:disabled":"12","fee":"no","parking":"surface","surface":"asphalt"}}, "geometry":{"type":"MultiPolygon","coordinates":[[[[1.25608,52.6626],[1.25615,52.66255],[1.25618,52.66257],[1.25624,52.66253],[1.25619,52.66249],[1.25624,52.66246],[1.25621,52.66244],[1.25627,52.6624],[1.25636,52.66245],[1.25643,52.66241],[1.25655,52.66248],[1.2566,52.66251],[1.25662,52.66252],[1.2563,52.66272],[1.25608,52.6626]]]]}},
{ "type":"Feature","properties":{"osm_way_id":"821381371","name":"Car Park C","amenity":"parking","other":{"access":"yes","capacity":"106","operator":"Hellesdon Hospital","operator:type":"private","parking":"surface","surface":"asphalt"}}, "geometry":{"type":"MultiPolygon","coordinates":[[[[1.24896,52.65937],[1.24907,52.65955],[1.25005,52.65936],[1.25011,52.6593],[1.25005,52.65916],[1.24994,52.65908],[1.24909,52.65925],[1.24896,52.65937]]]]}},
{ "type":"Feature","properties":{"osm_way_id":"821381372","name":"Car Park E","amenity":"parking","other":{"access":"private","capacity":"37","capacity:disabled":"1","operator":"Hellesdon Hospital","operator:type":"private","parking":"surface","surface":"asphalt"}}, "geometry":{"type":"MultiPolygon","coordinates":[[[[1.24954,52.66046],[1.25006,52.66069],[1.25007,52.66073],[1.24978,52.66079],[1.24946,52.66055],[1.24954,52.66046]]]]}},
{ "type":"Feature","properties":{"osm_way_id":"821381373","name":"Car Park F","amenity":"parking","other":{"access":"yes","capacity":"54","capacity:disabled":"0","operator":"Hellesdon Hospital","operator:type":"private","parking":"surface","surface":"asphalt"}}, "geometry":{"type":"MultiPolygon","coordinates":[[[[1.25181,52.66009],[1.25204,52.66018],[1.25158,52.66059],[1.25134,52.66048],[1.25181,52.66009]]]]}},
{ "type":"Feature","properties":{"osm_way_id":"822686146","name":"Car Park A","amenity":"parking","other":{"access":"yes","capacity":"54","capacity:disabled":"0","operator":"Hellesdon Hospital","operator:type":"private","parking":"surface","surface":"asphalt"}}, "geometry":{"type":"MultiPolygon","coordinates":[[[[1.25279,52.65922],[1.25301,52.65931],[1.2526,52.65969],[1.25237,52.65959],[1.25279,52.65922]]]]}},
{ "type":"Feature","properties":{"osm_way_id":"823142748","amenity":"parking"},"geometry":{"type":"MultiPolygon","coordinates":[[[[1.33028,52.68777],[1.33062,52.68779],[1.33067,52.68753],[1.33112,52.68757],[1.331,52.6879],[1.33067,52.68787],[1.33027,52.68784],[1.33028,52.68777]]]]}},
{ "type":"Feature","properties":{"osm_way_id":"825911051","amenity":"parking","other":{"access":"permissive","fee":"no","operator":"St Faiths Centre Horhsham and Newton","operator:type":"business","parking":"surface","surface":"asphalt"}}, "geometry":{"type":"MultiPolygon","coordinates":[[[[1.28188,52.70037],[1.28198,52.70007],[1.28224,52.7001],[1.28222,52.70016],[1.28237,52.70018],[1.28228,52.70048],[1.28215,52.70047],[1.28212,52.70053],[1.28127,52.70043],[1.28129,52.70038],[1.2814,52.70039],[1.28142,52.70032],[1.28184,52.70037],[1.28188,52.70037]]]]}},
{ "type":"Feature","properties":{"osm_way_id":"825911052","amenity":"parking","other":{"access":"permissive","fee":"no","operator":"St Faiths Centre Horhsham and Newton","operator:type":"business","parking":"surface","surface":"asphalt"}}, "geometry":{"type":"MultiPolygon","coordinates":[[[[1.28142,52.69994],[1.28158,52.69996],[1.28162,52.69984],[1.28169,52.69964],[1.2814,52.69961],[1.28134,52.69985],[1.28145,52.69986],[1.28142,52.69994]]]]}},
{ "type":"Feature","properties":{"osm_way_id":"827635897","amenity":"parking"},"geometry":{"type":"MultiPolygon","coordinates":[[[[1.31705,52.6585],[1.31739,52.65841],[1.31728,52.65827],[1.31745,52.65823],[1.31782,52.65874],[1.31731,52.65882],[1.31725,52.65877],[1.31705,52.6585]]]]}},
{ "type":"Feature","properties":{"osm_way_id":"827672854","amenity":"parking","other":{"access":"customers","parking":"surface"}}, "geometry":{"type":"MultiPolygon","coordinates":[[[[1.32761,52.66417],[1.32782,52.66415],[1.32781,52.66411],[1.32794,52.66409],[1.32792,52.66403],[1.32799,52.66403],[1.32798,52.66396],[1.32783,52.66402],[1.32757,52.66405],[1.32761,52.66417]]]]}},
{ "type":"Feature","properties":{"osm_way_id":"830304067","amenity":"parking","other":{"access":"private","capacity":"22","capacity:disabled":"2","operator":"Norse Commercial Services Ltd","operator:type":"private","parking":"surface","surface":"asphalt"}}, "geometry":{"type":"MultiPolygon","coordinates":[[[[1.28035,52.68926],[1.2806,52.68957],[1.28083,52.68951],[1.28079,52.68946],[1.28065,52.68928],[1.28035,52.68926]]]]}},
{ "type":"Feature","properties":{"osm_way_id":"837582196","amenity":"parking"},"geometry":{"type":"MultiPolygon","coordinates":[[[[1.41832,52.62288],[1.41785,52.62285],[1.4178,52.62317],[1.41827,52.6232],[1.41832,52.62288]]]]}},
{ "type":"Feature","properties":{"osm_way_id":"843112197","amenity":"parking","other":{"access":"yes","capacity":"5","fee":"no","operator":"Broadland District Council","operator:type":"public","parking":"surface","surface":"unpaved"}}, "geometry":{"type":"MultiPolygon","coordinates":[[[[1.29243,52.76799],[1.29249,52.76801],[1.29258,52.7679],[1.29252,52.76788],[1.29243,52.76799]]]]}},
{ "type":"Feature","properties":{"osm_way_id":"843489600","amenity":"parking","other":{"parking":"surface","surface":"ground"}}, "geometry":{"type":"MultiPolygon","coordinates":[[[[1.28825,52.77411],[1.28876,52.7743],[1.2888,52.77426],[1.28901,52.77434],[1.28905,52.77434],[1.2894,52.77439],[1.28954,52.77418],[1.28979,52.77382],[1.28907,52.77358],[1.28886,52.77358],[1.28825,52.77411]]]]}},
{ "type":"Feature","properties":{"osm_way_id":"844014025","amenity":"parking"},"geometry":{"type":"MultiPolygon","coordinates":[[[[1.39799,52.6985],[1.39805,52.69845],[1.398,52.69842],[1.39802,52.6984],[1.39809,52.69843],[1.39825,52.69831],[1.39819,52.69828],[1.39828,52.69822],[1.39851,52.69821],[1.39851,52.69811],[1.39819,52.69811],[1.39819,52.69821],[1.39814,52.69824],[1.3981,52.69822],[1.39793,52.69835],[1.39797,52.69838],[1.39794,52.6984],[1.39786,52.69836],[1.39779,52.69841],[1.39799,52.6985]]]]}},
{ "type":"Feature","properties":{"osm_way_id":"844028051","amenity":"parking","other":{"parking":"surface"}}, "geometry":{"type":"MultiPolygon","coordinates":[[[[1.40668,52.65057],[1.40679,52.65049],[1.40679,52.65043],[1.40675,52.65037],[1.40551,52.6502],[1.40551,52.65032],[1.40553,52.6505],[1.40585,52.65055],[1.40581,52.65063],[1.40586,52.65063],[1.40583,52.65069],[1.40601,52.65072],[1.40619,52.65073],[1.40641,52.65068],[1.40668,52.65057]]]]}},
{ "type":"Feature","properties":{"osm_way_id":"844031208","amenity":"parking","other":{"parking":"surface"}}, "geometry":{"type":"MultiPolygon","coordinates":[[[[1.41211,52.67019],[1.41206,52.67024],[1.41196,52.6702],[1.41193,52.67023],[1.4118,52.67019],[1.41171,52.67016],[1.41163,52.67012],[1.41224,52.66956],[1.41234,52.66959],[1.41242,52.66952],[1.41276,52.66966],[1.41256,52.66987],[1.41251,52.66986],[1.4124,52.66985],[1.41237,52.66985],[1.4121,52.67005],[1.41207,52.67012],[1.41206,52.67015],[1.41211,52.67019]]]]}},
{ "type":"Feature","properties":{"osm_way_id":"844402317","natural":"water","other":{"basin":"waste_water","intermittent":"yes","water":"basin"}}, "geometry":{"type":"MultiPolygon","coordinates":[[[[1.23986,52.68344],[1.24006,52.68352],[1.2407,52.68329],[1.24065,52.68308],[1.2404,52.68302],[1.23978,52.68331],[1.23986,52.68344]]]]}},
{ "type":"Feature","properties":{"osm_way_id":"844731134","amenity":"parking","other":{"capacity":"20","capacity:disabled":"2","parking":"surface","surface":"ground"}}, "geometry":{"type":"MultiPolygon","coordinates":[[[[1.26093,52.67837],[1.2609,52.6786],[1.26106,52.67864],[1.26129,52.6784],[1.26122,52.67838],[1.26127,52.67831],[1.26103,52.67828],[1.26102,52.67837],[1.26093,52.67837]]]]}},
{ "type":"Feature","properties":{"osm_way_id":"846543145","amenity":"parking","other":{"access":"private","capacity":"3","parking":"surface"}}, "geometry":{"type":"MultiPolygon","coordinates":[[[[1.30498,52.66782],[1.30515,52.66793],[1.30512,52.66793],[1.30499,52.66785],[1.30498,52.66782]]]]}},
{ "type":"Feature","properties":{"osm_way_id":"846546980","amenity":"parking","other":{"access":"private","parking":"surface"}}, "geometry":{"type":"MultiPolygon","coordinates":[[[[1.25612,52.66181],[1.25604,52.66186],[1.25608,52.66189],[1.25602,52.66192],[1.25597,52.66188],[1.25588,52.66178],[1.256,52.66174],[1.25603,52.66173],[1.25607,52.66172],[1.2561,52.6617],[1.25619,52.66168],[1.25627,52.66172],[1.2562,52.66176],[1.25623,52.66178],[1.2562,52.6618],[1.25617,52.66179],[1.25612,52.66181]]]]}},
{ "type":"Feature","properties":{"osm_way_id":"846549143","amenity":"parking"},"geometry":{"type":"MultiPolygon","coordinates":[[[[1.29577,52.66524],[1.29578,52.66531],[1.29626,52.66527],[1.29625,52.66523],[1.29629,52.66523],[1.29628,52.6652],[1.29633,52.66519],[1.29635,52.66529],[1.29633,52.66531],[1.29572,52.66536],[1.29564,52.66533],[1.29554,52.6653],[1.29553,52.66526],[1.29577,52.66524]]]]}},
{ "type":"Feature","properties":{"osm_way_id":"846644087","amenity":"parking","other":{"access":"private"}}, "geometry":{"type":"MultiPolygon","coordinates":[[[[1.25846,52.66256],[1.25857,52.66263],[1.2587,52.66256],[1.25858,52.66248],[1.25846,52.66256]]]]}},
{ "type":"Feature","properties":{"osm_way_id":"848066311","amenity":"parking","other":{"access":"private","fee":"no","parking":"surface","surface":"asphalt"}}, "geometry":{"type":"MultiPolygon","coordinates":[[[[1.27653,52.67939],[1.27653,52.67942],[1.27653,52.67948],[1.2769,52.67948],[1.2769,52.67938],[1.27656,52.67939],[1.27653,52.67939]]]]}},
{ "type":"Feature","properties":{"osm_way_id":"848066321","amenity":"parking","other":{"access":"private","parking":"surface"}}, "geometry":{"type":"MultiPolygon","coordinates":[[[[1.27709,52.67942],[1.27715,52.67946],[1.27742,52.67928],[1.27736,52.67925],[1.27709,52.67942]]]]}},
{ "type":"Feature","properties":{"osm_way_id":"848066322","amenity":"parking","other":{"access":"private","parking":"surface"}}, "geometry":{"type":"MultiPolygon","coordinates":[[[[1.277,52.67935],[1.27692,52.67935],[1.27692,52.67918],[1.2773,52.67918],[1.27729,52.67921],[1.27701,52.67938],[1.277,52.67935]]]]}},
{ "type":"Feature","properties":{"osm_way_id":"851857569","amenity":"parking","other":{"access":"private","capacity":"12","fee":"no","parking":"surface","surface":"asphalt"}}, "geometry":{"type":"MultiPolygon","coordinates":[[[[1.22831,52.67429],[1.22835,52.67434],[1.22829,52.67436],[1.22825,52.67431],[1.22823,52.67426],[1.22847,52.67421],[1.22848,52.67424],[1.22831,52.67429]]]]}},
{ "type":"Feature","properties":{"osm_way_id":"851915702","amenity":"parking","other":{"access":"private","capacity":"67","fee":"no","operator":"Rightforsuccess Academy Trust","operator:type":"private","parking":"surface","surface":"asphalt"}}, "geometry":{"type":"MultiPolygon","coordinates":[[[[1.32367,52.65065],[1.32401,52.65081],[1.32407,52.65083],[1.32415,52.65077],[1.3243,52.65063],[1.32448,52.65048],[1.32421,52.65036],[1.32408,52.6503],[1.32367,52.65065]]]]}},
{ "type":"Feature","properties":{"osm_way_id":"851922686","amenity":"parking","other":{"access":"private","capacity":"84","fee":"no","operator":"Rightforsuccess Academy Trust","parking":"surface","surface":"concrete"}}, "geometry":{"type":"MultiPolygon","coordinates":[[[[1.32465,52.65236],[1.32475,52.65218],[1.32483,52.65203],[1.32549,52.65216],[1.3253,52.65249],[1.32465,52.65236]]]]}},
{ "type":"Feature","properties":{"osm_way_id":"851925027","amenity":"parking","other":{"access":"private","fee":"no","parking":"surface","surface":"asphalt"}}, "geometry":{"type":"MultiPolygon","coordinates":[[[[1.3248,52.64977],[1.32486,52.64979],[1.32512,52.64991],[1.32527,52.64979],[1.32542,52.64966],[1.32503,52.64949],[1.32473,52.64974],[1.3248,52.64977]]]]}},
{ "type":"Feature","properties":{"osm_way_id":"851926401","amenity":"parking","other":{"capacity":"19","parking":"surface"}}, "geometry":{"type":"MultiPolygon","coordinates":[[[[1.32693,52.65265],[1.32703,52.65257],[1.32718,52.65264],[1.32737,52.65247],[1.32741,52.65243],[1.32753,52.65248],[1.32724,52.65272],[1.32693,52.65265]]]]}},
{ "type":"Feature","properties":{"osm_way_id":"853993269","amenity":"parking","other":{"access":"customers","fee":"no","parking":"surface"}}, "geometry":{"type":"MultiPolygon","coordinates":[[[[1.30201,52.66733],[1.30218,52.66746],[1.30172,52.66769],[1.30152,52.66754],[1.30182,52.66737],[1.30186,52.6674],[1.30201,52.66733]]]]}},
{ "type":"Feature","properties":{"osm_way_id":"853993931","amenity":"parking","other":{"access":"permissive","parking":"surface","surface":"asphalt"}}, "geometry":{"type":"MultiPolygon","coordinates":[[[[1.30613,52.669],[1.30511,52.66901],[1.30511,52.66959],[1.30584,52.66959],[1.30601,52.66959],[1.30603,52.66968],[1.30636,52.66966],[1.30633,52.66943],[1.30628,52.66943],[1.30628,52.66934],[1.30625,52.66934],[1.30624,52.66918],[1.30616,52.66918],[1.30613,52.669]]]]}},
{ "type":"Feature","properties":{"osm_way_id":"877985751","amenity":"parking","other":{"access":"private","parking":"surface"}}, "geometry":{"type":"MultiPolygon","coordinates":[[[[1.27267,52.66458],[1.27223,52.66454],[1.27184,52.6645],[1.27174,52.66484],[1.27265,52.66503],[1.27267,52.66497],[1.27261,52.66492],[1.2726,52.66495],[1.27242,52.66494],[1.27242,52.66492],[1.27216,52.66491],[1.27217,52.6648],[1.27235,52.66481],[1.27237,52.66469],[1.27247,52.6647],[1.27247,52.66467],[1.27265,52.66468],[1.27267,52.66458]]]]}},
{ "type":"Feature","properties":{"osm_way_id":"878201189","building":"yes"},"geometry":{"type":"MultiPolygon","coordinates":[[[[1.53865,52.61426],[1.5386,52.61428],[1.53858,52.61426],[1.53854,52.61428],[1.53853,52.61426],[1.53851,52.61427],[1.53848,52.61424],[1.53858,52.6142],[1.53865,52.61426]]]]}},
{ "type":"Feature","properties":{"osm_way_id":"878201190","building":"yes"},"geometry":{"type":"MultiPolygon","coordinates":[[[[1.53889,52.61418],[1.53885,52.61419],[1.53883,52.61417],[1.53879,52.61419],[1.53877,52.61418],[1.53875,52.61419],[1.53872,52.61416],[1.53883,52.61412],[1.53889,52.61418]]]]}},
{ "type":"Feature","properties":{"osm_way_id":"878201191","building":"yes"},"geometry":{"type":"MultiPolygon","coordinates":[[[[1.53889,52.61418],[1.53893,52.61416],[1.53891,52.61414],[1.53895,52.61413],[1.53894,52.61411],[1.53896,52.61411],[1.53893,52.61408],[1.53883,52.61412],[1.53889,52.61418]]]]}},
{ "type":"Feature","properties":{"osm_way_id":"898520359","amenity":"parking","other":{"access":"private","parking":"surface","surface":"asphalt"}}, "geometry":{"type":"MultiPolygon","coordinates":[[[[-2.53454,51.47899],[-2.53468,51.47895],[-2.53458,51.47881],[-2.5345,51.47884],[-2.53448,51.47882],[-2.53445,51.47883],[-2.53444,51.47884],[-2.53445,51.47886],[-2.53448,51.47895],[-2.53453,51.47894],[-2.53454,51.47899]]]]}},
{ "type":"Feature","properties":{"osm_way_id":"899603524","amenity":"parking","other":{"fee":"no","parking":"surface"}}, "geometry":{"type":"MultiPolygon","coordinates":[[[[1.1936,52.68919],[1.19338,52.68924],[1.19371,52.68994],[1.19412,52.68986],[1.1941,52.68983],[1.19416,52.68981],[1.19409,52.68966],[1.19403,52.68967],[1.19401,52.68964],[1.19386,52.68967],[1.19383,52.68961],[1.19375,52.68954],[1.1937,52.68955],[1.19366,52.68947],[1.19373,52.68946],[1.1936,52.68919]]]]}},
{ "type":"Feature","properties":{"osm_way_id":"916605965","amenity":"parking"},"geometry":{"type":"MultiPolygon","coordinates":[[[[1.47392,52.61654],[1.47393,52.61642],[1.47403,52.61642],[1.47403,52.61636],[1.47435,52.61636],[1.47434,52.61656],[1.47433,52.61668],[1.47422,52.61668],[1.47423,52.61654],[1.47392,52.61654]]]]}},
{ "type":"Feature","properties":{"osm_way_id":"922461470","amenity":"parking","other":{"access":"customers","parking":"surface"}}, "geometry":{"type":"MultiPolygon","coordinates":[[[[1.32456,52.6583],[1.32457,52.65824],[1.32451,52.65821],[1.32445,52.65827],[1.32451,52.6583],[1.32451,52.65834],[1.32474,52.65844],[1.32473,52.65845],[1.32486,52.65851],[1.32491,52.65848],[1.32503,52.65854],[1.32509,52.65849],[1.32496,52.65843],[1.32492,52.65847],[1.32479,52.65841],[1.32456,52.6583]]]]}},
{ "type":"Feature","properties":{"osm_way_id":"940678845","amenity":"parking","other":{"access":"private","capacity":"10","description":"Car Park for customers and employees of the business operator only,","fee":"yes","parking":"surface"}}, "geometry":{"type":"MultiPolygon","coordinates":[[[[1.12514,52.71826],[1.12529,52.71821],[1.12524,52.71809],[1.12519,52.71804],[1.12508,52.71808],[1.12506,52.71812],[1.12501,52.71811],[1.12514,52.71826]]]]}},
{ "type":"Feature","properties":{"osm_way_id":"949104990","amenity":"parking","other":{"access":"private","fee":"no","parking":"surface","surface":"asphalt"}}, "geometry":{"type":"MultiPolygon","coordinates":[[[[-1.73053,50.7422],[-1.73052,50.74207],[-1.7303,50.74207],[-1.73031,50.7422],[-1.73053,50.7422]]]]}},
{ "type":"Feature","properties":{"osm_way_id":"949104996","amenity":"parking","other":{"access":"private","fee":"no","parking":"surface","surface":"asphalt"}}, "geometry":{"type":"MultiPolygon","coordinates":[[[[-1.72931,50.74276],[-1.7294,50.74272],[-1.7295,50.74268],[-1.72965,50.74282],[-1.72947,50.7429],[-1.72931,50.74276]]]]}},
{ "type":"Feature","properties":{"osm_way_id":"949104999","amenity":"parking","other":{"access":"customers","fee":"no","parking":"surface","surface":"asphalt"}}, "geometry":{"type":"MultiPolygon","coordinates":[[[[-1.72817,50.74289],[-1.7285,50.74279],[-1.72847,50.74274],[-1.72848,50.74268],[-1.72852,50.74266],[-1.72835,50.74243],[-1.72828,50.74245],[-1.72819,50.74232],[-1.72786,50.7426],[-1.728,50.7428],[-1.72805,50.74283],[-1.72812,50.74281],[-1.72817,50.74289]]]]}},
{ "type":"Feature","properties":{"osm_way_id":"949105003","amenity":"parking","other":{"access":"private","fee":"no","parking":"surface","surface":"asphalt"}}, "geometry":{"type":"MultiPolygon","coordinates":[[[[-1.72592,50.74326],[-1.72615,50.74324],[-1.72611,50.7431],[-1.72589,50.74313],[-1.72592,50.74326]]]]}},
{ "type":"Feature","properties":{"osm_way_id":"949105006","amenity":"parking","other":{"access":"private","fee":"no","parking":"surface","surface":"asphalt"}}, "geometry":{"type":"MultiPolygon","coordinates":[[[[-1.72662,50.74281],[-1.7268,50.74276],[-1.72672,50.74264],[-1.72654,50.74269],[-1.72662,50.74281]]]]}},
{ "type":"Feature","properties":{"osm_way_id":"949105008","amenity":"parking","other":{"access":"private","fee":"no","parking":"surface","surface":"asphalt"}}, "geometry":{"type":"MultiPolygon","coordinates":[[[[-1.72734,50.74245],[-1.72741,50.74248],[-1.72734,50.74258],[-1.72726,50.74256],[-1.72734,50.74245]]]]}},
{ "type":"Feature","properties":{"osm_way_id":"959051973","name":"Staff Parking","amenity":"parking","other":{"access":"private","fee":"no","parking":"surface"}}, "geometry":{"type":"MultiPolygon","coordinates":[[[[1.25675,52.67708],[1.25699,52.67681],[1.25653,52.67666],[1.25629,52.67693],[1.25675,52.67708]]]]}},
{ "type":"Feature","properties":{"osm_way_id":"959051976","name":"Car Park 3","amenity":"parking","other":{"fee":"no","parking":"surface"}}, "geometry":{"type":"MultiPolygon","coordinates":[[[[1.25609,52.67766],[1.25627,52.6775],[1.25602,52.67743],[1.25585,52.6774],[1.25573,52.67741],[1.25561,52.67744],[1.25569,52.67756],[1.25609,52.67766]]]]}},
{ "type":"Feature","properties":{"osm_way_id":"959051977","name":"Car Park 2","amenity":"parking","other":{"fee":"no","parking":"surface"}}, "geometry":{"type":"MultiPolygon","coordinates":[[[[1.25852,52.67765],[1.25855,52.67759],[1.25853,52.67754],[1.25845,52.6775],[1.25836,52.67747],[1.25731,52.67733],[1.25725,52.67748],[1.25852,52.67765]]]]}},
{ "type":"Feature","properties":{"osm_way_id":"959051979","name":"Car Park 1","amenity":"parking","other":{"fee":"no","parking":"surface"}}, "geometry":{"type":"MultiPolygon","coordinates":[[[[1.25998,52.6775],[1.26002,52.67736],[1.26105,52.67751],[1.26104,52.67755],[1.26082,52.67761],[1.26042,52.67756],[1.26036,52.67753],[1.26025,52.67751],[1.26018,52.67753],[1.25998,52.6775]]]]}},
{ "type":"Feature","properties":{"osm_way_id":"962225824","amenity":"parking"},"geometry":{"type":"MultiPolygon","coordinates":[[[[-2.52457,53.50436],[-2.52333,53.50436],[-2.52314,53.50436],[-2.52306,53.50428],[-2.52301,53.50415],[-2.52303,53.50397],[-2.52304,53.50395],[-2.52313,53.50375],[-2.52337,53.50339],[-2.52374,53.50281],[-2.52397,53.50261],[-2.52407,53.50248],[-2.52413,53.50245],[-2.52428,53.50243],[-2.52445,53.50248],[-2.52454,53.50253],[-2.52451,53.50263],[-2.52451,53.5027],[-2.52502,53.50285],[-2.52519,53.5029],[-2.52537,53.50295],[-2.52545,53.50295],[-2.52548,53.50295],[-2.52556,53.50295],[-2.52559,53.50295],[-2.52566,53.50294],[-2.52587,53.50292],[-2.52587,53.50317],[-2.52561,53.50317],[-2.52561,53.50322],[-2.52455,53.50323],[-2.52455,53.50342],[-2.52441,53.50342],[-2.52442,53.50359],[-2.52433,53.50359],[-2.52433,53.50375],[-2.52442,53.50375],[-2.52443,53.50389],[-2.52456,53.50389],[-2.52457,53.50436]]]]}},
{ "type":"Feature","properties":{"osm_way_id":"969582447","amenity":"parking"},"geometry":{"type":"MultiPolygon","coordinates":[[[[1.47009,52.5981],[1.46967,52.59822],[1.46961,52.59814],[1.47004,52.59796],[1.47012,52.59804],[1.47009,52.5981]]]]}},
{ "type":"Feature","properties":{"osm_way_id":"975356285","amenity":"parking","other":{"access":"private"}}, "geometry":{"type":"MultiPolygon","coordinates":[[[[1.42838,52.63214],[1.42843,52.63208],[1.42865,52.63214],[1.42859,52.6322],[1.42838,52.63214]]]]}},
{ "type":"Feature","properties":{"osm_way_id":"989359090","amenity":"parking"},"geometry":{"type":"MultiPolygon","coordinates":[[[[1.25077,52.65706],[1.25066,52.65705],[1.25062,52.65713],[1.25069,52.65715],[1.25081,52.65715],[1.2509,52.65714],[1.25097,52.65713],[1.2511,52.6571],[1.25103,52.65703],[1.25092,52.65705],[1.25077,52.65706]]]]}},
{ "type":"Feature","properties":{"osm_way_id":"989359093","amenity":"parking"},"geometry":{"type":"MultiPolygon","coordinates":[[[[1.24972,52.65789],[1.24981,52.65791],[1.24987,52.65779],[1.24994,52.65768],[1.25003,52.65755],[1.25012,52.65746],[1.25018,52.65739],[1.2501,52.65736],[1.25,52.65748],[1.24992,52.65758],[1.24984,52.65769],[1.24977,52.65779],[1.24972,52.65789]]]]}},
{ "type":"Feature","properties":{"osm_way_id":"990858937","name":"Car Park B","amenity":"parking","other":{"operator":"Hellesdon Hospital","parking":"surface","surface":"asphalt"}}, "geometry":{"type":"MultiPolygon","coordinates":[[[[1.25174,52.6583],[1.25212,52.65846],[1.25212,52.65845],[1.25239,52.65822],[1.25217,52.65812],[1.25228,52.65803],[1.25194,52.65788],[1.25181,52.65799],[1.25204,52.65809],[1.25196,52.65816],[1.25188,52.65812],[1.25176,52.65823],[1.25177,52.65827],[1.25174,52.6583]]]]}},
{ "type":"Feature","properties":{"osm_way_id":"991544536","amenity":"parking","other":{"parking":"surface"}}, "geometry":{"type":"MultiPolygon","coordinates":[[[[1.24768,52.74452],[1.24756,52.74485],[1.24814,52.74491],[1.24828,52.74456],[1.24768,52.74452]]]]}},
{ "type":"Feature","properties":{"osm_way_id":"996311600","amenity":"parking"},"geometry":{"type":"MultiPolygon","coordinates":[[[[1.22462,52.8117],[1.22565,52.81186],[1.22579,52.81177],[1.22587,52.81159],[1.22584,52.81142],[1.22541,52.8113],[1.22481,52.81123],[1.22462,52.8117]]]]}},
{ "type":"Feature","properties":{"osm_way_id":"996623729","amenity":"parking"},"geometry":{"type":"MultiPolygon","coordinates":[[[[-3.03233,53.81109],[-3.03212,53.81114],[-3.03227,53.81136],[-3.03234,53.81134],[-3.03235,53.81135],[-3.03249,53.81132],[-3.03234,53.8111],[-3.03233,53.81109]]]]}},
{ "type":"Feature","properties":{"osm_way_id":"996623734","amenity":"parking"},"geometry":{"type":"MultiPolygon","coordinates":[[[[-3.03269,53.81128],[-3.03263,53.81129],[-3.03259,53.8113],[-3.03271,53.81147],[-3.03281,53.81145],[-3.03277,53.81139],[-3.03294,53.81135],[-3.03291,53.8113],[-3.03301,53.81127],[-3.03297,53.81121],[-3.03269,53.81128]]]]}},
{ "type":"Feature","properties":{"osm_way_id":"996623737","amenity":"parking"},"geometry":{"type":"MultiPolygon","coordinates":[[[[-3.03339,53.81125],[-3.03333,53.81115],[-3.03326,53.81117],[-3.03332,53.81126],[-3.03339,53.81125]]]]}},
{ "type":"Feature","properties":{"osm_way_id":"1004158531","amenity":"parking","other":{"access":"private","addr:city":"Caerleon","addr:postcode":"NP18 1AX","addr:street":"Museum Street","covered":"no","operator":"British Telecom","operator:type":"business","parking":"surface","surface":"asphalt"}}, "geometry":{"type":"MultiPolygon","coordinates":[[[[-2.95471,51.61097],[-2.95483,51.6109],[-2.95473,51.61083],[-2.9546,51.61074],[-2.95453,51.61079],[-2.95471,51.61091],[-2.95466,51.61094],[-2.95471,51.61097]]]]}},
{ "type":"Feature","properties":{"osm_way_id":"1005957801","amenity":"parking","other":{"access":"customers","parking":"surface"}}, "geometry":{"type":"MultiPolygon","coordinates":[[[[1.11461,52.76785],[1.11456,52.76781],[1.1145,52.76784],[1.1142,52.76776],[1.11428,52.76766],[1.11437,52.76762],[1.11455,52.76755],[1.11475,52.7677],[1.11468,52.76773],[1.11474,52.76779],[1.11461,52.76785]]]]}},
{ "type":"Feature","properties":{"osm_way_id":"1012148020","amenity":"parking"},"geometry":{"type":"MultiPolygon","coordinates":[[[[1.24791,52.65812],[1.24793,52.6581],[1.24796,52.65806],[1.24803,52.65797],[1.24788,52.65793],[1.24787,52.65792],[1.24774,52.65807],[1.24791,52.65812]]]]}},
{ "type":"Feature","properties":{"osm_way_id":"1012148024","amenity":"parking"},"geometry":{"type":"MultiPolygon","coordinates":[[[[1.24867,52.65673],[1.24923,52.6565],[1.2492,52.65647],[1.2487,52.656],[1.24813,52.65624],[1.24867,52.65673]]]]}},
{ "type":"Feature","properties":{"osm_way_id":"1018279313","amenity":"parking","other":{"access":"customers"}}, "geometry":{"type":"MultiPolygon","coordinates":[[[[-0.33558,51.22785],[-0.33554,51.22781],[-0.33549,51.22776],[-0.33535,51.22767],[-0.3352,51.22759],[-0.33516,51.22757],[-0.3351,51.22763],[-0.33505,51.22769],[-0.33503,51.22772],[-0.33514,51.22775],[-0.33513,51.22777],[-0.33525,51.22789],[-0.33529,51.22792],[-0.33558,51.22785]]]]}},
{ "type":"Feature","properties":{"osm_way_id":"1023341807","amenity":"parking"},"geometry":{"type":"MultiPolygon","coordinates":[[[[1.25155,52.64925],[1.25172,52.64929],[1.25181,52.64902],[1.25163,52.64899],[1.25155,52.64925]]]]}},
{ "type":"Feature","properties":{"osm_way_id":"1025527206","amenity":"parking","other":{"access":"customers","fee":"no","parking":"surface","surface":"asphalt"}}, "geometry":{"type":"MultiPolygon","coordinates":[[[[1.38198,52.63112],[1.38259,52.63114],[1.3826,52.63109],[1.38269,52.63109],[1.38273,52.63024],[1.38263,52.63025],[1.38263,52.6302],[1.38219,52.63021],[1.3822,52.63031],[1.38228,52.63031],[1.38229,52.63034],[1.38221,52.63034],[1.3822,52.63045],[1.38227,52.63045],[1.38227,52.63048],[1.3822,52.63048],[1.3822,52.63057],[1.38219,52.63066],[1.38227,52.63066],[1.38226,52.63091],[1.38181,52.63089],[1.38179,52.63099],[1.38185,52.631],[1.38186,52.63103],[1.38194,52.63107],[1.38198,52.63108],[1.38198,52.63112]]]]}},
{ "type":"Feature","properties":{"osm_way_id":"1029696962","amenity":"parking","other":{"fee":"no","parking":"layby"}}, "geometry":{"type":"MultiPolygon","coordinates":[[[[1.58613,52.62825],[1.58616,52.6282],[1.5865,52.62807],[1.58686,52.62796],[1.58709,52.6279],[1.58745,52.62783],[1.58752,52.62783],[1.58733,52.62789],[1.58669,52.62808],[1.58627,52.6282],[1.58613,52.62825]]]]}}
]
}
