{
"type": "FeatureCollection",
"features": [
{ "type":"Feature","properties":{"osm_way_id":"51341840","name":"Makro","building":"warehouse","shop":"cash_and_carry","other":{"addr:city":"Norwich","addr:country":"GB","addr:postcode":"NR7 0WE","addr:street":"Cranley Road","brand:wikidata":"Q704606","opening_hours":"Mo-Fr 07:00-21:00; Sa 07:00-19:00; Su 09:30-17:30","phone":"+44 844 445 7445"}}, "geometry":{"type":"MultiPolygon","coordinates":[[[[1.37456,52.63492],[1.37447,52.63382],[1.3751,52.6338],[1.37511,52.63388],[1.3757,52.63386],[1.37574,52.63437],[1.37578,52.63488],[1.37456,52.63492]]]]}},
{ "type":"Feature","properties":{"osm_way_id":"132626906","name":"Homebase","building":"warehouse","shop":"doityourself","other":{"addr:city":"Norwich","addr:country":"GB","addr:postcode":"NR7 8SH","addr:street":"Roundtree Way","brand":"Homebase","brand:wikidata":"Q9293447","brand:wikipedia":"en:Homebase","contact:website":"https:\/\/store.homebase.co.uk\/norwich\/roundtree-way","opening_hours":"Mo-Sa 08:00-20:00; Su 10:00-16:00","phone":"+44 3456 407059"}}, "geometry":{"type":"MultiPolygon","coordinates":[[[[1.32317,52.64592],[1.32326,52.64599],[1.32344,52.6459],[1.32334,52.64583],[1.32365,52.64568],[1.3238,52.64561],[1.32346,52.64536],[1.32331,52.64543],[1.3232,52.64534],[1.32302,52.64521],[1.32246,52.64548],[1.32277,52.64571],[1.3231,52.64595],[1.32311,52.64595],[1.32317,52.64592]]]]}},
{ "type":"Feature","properties":{"osm_way_id":"153706779","name":"Warehouse One","building":"warehouse","other":{"operator":"Mattressman"}}, "geometry":{"type":"MultiPolygon","coordinates":[[[[1.32842,52.64898],[1.32826,52.6492],[1.32976,52.64958],[1.32992,52.64936],[1.32842,52.64898]]]]}},
{ "type":"Feature","properties":{"osm_way_id":"153706794","name":"Warehouse Two","building":"warehouse","other":{"operator":"Mattressman"}}, "geometry":{"type":"MultiPolygon","coordinates":[[[[1.32933,52.64854],[1.32898,52.64904],[1.32936,52.64914],[1.3297,52.64864],[1.32933,52.64854]]]]}},
{ "type":"Feature","properties":{"osm_way_id":"161419801","building":"warehouse","other":{"building:levels":"1"}}, "geometry":{"type":"MultiPolygon","coordinates":[[[[1.27586,52.68022],[1.27542,52.68023],[1.27543,52.68029],[1.27565,52.68028],[1.27565,52.68034],[1.27587,52.68033],[1.27586,52.68022]]]]}},
{ "type":"Feature","properties":{"osm_way_id":"161897868","name":"Bertram Books","building":"warehouse","other":{"addr:postcode":"NR7 0WF"}}, "geometry":{"type":"MultiPolygon","coordinates":[[[[1.37426,52.63066],[1.37414,52.63144],[1.37586,52.63154],[1.37592,52.63113],[1.37623,52.63115],[1.37625,52.63098],[1.37615,52.63098],[1.37619,52.6307],[1.37591,52.63068],[1.3759,52.63075],[1.37521,52.63071],[1.37523,52.63055],[1.37487,52.63052],[1.37484,52.6307],[1.37426,52.63066]]]]}},
{ "type":"Feature","properties":{"osm_way_id":"161897876","name":"Menzies Distribution","building":"warehouse"},"geometry":{"type":"MultiPolygon","coordinates":[[[[1.37223,52.63182],[1.37226,52.63215],[1.3725,52.63214],[1.3725,52.63221],[1.37336,52.63218],[1.37332,52.63178],[1.37223,52.63182]]]]}},
{ "type":"Feature","properties":{"osm_way_id":"161897878","name":"Start-rite","building":"warehouse"},"geometry":{"type":"MultiPolygon","coordinates":[[[[1.37337,52.63377],[1.37394,52.63371],[1.37373,52.63297],[1.37316,52.63303],[1.37331,52.63356],[1.37325,52.63356],[1.3733,52.63373],[1.37335,52.63372],[1.37337,52.63377]]]]}},
{ "type":"Feature","properties":{"osm_way_id":"161897879","name":"DX","building":"warehouse"},"geometry":{"type":"MultiPolygon","coordinates":[[[[1.37376,52.63232],[1.37439,52.63229],[1.37432,52.63154],[1.37369,52.63156],[1.37376,52.63232]]]]}},
{ "type":"Feature","properties":{"osm_way_id":"161897883","name":"D&F McCarthy","building":"warehouse","other":{"addr:postcode":"NR7 0WH"}}, "geometry":{"type":"MultiPolygon","coordinates":[[[[1.37454,52.63375],[1.37499,52.63372],[1.37465,52.6329],[1.37436,52.63294],[1.37434,52.63293],[1.37431,52.63291],[1.37428,52.63291],[1.37424,52.63291],[1.37421,52.63291],[1.37417,52.63292],[1.37414,52.63294],[1.37413,52.63295],[1.37412,52.63297],[1.37412,52.633],[1.37414,52.63303],[1.37416,52.63304],[1.37418,52.63305],[1.3741,52.63307],[1.37416,52.6332],[1.37429,52.63318],[1.37454,52.63375]]]]}},
{ "type":"Feature","properties":{"osm_way_id":"161897888","name":"Yodel","building":"warehouse"},"geometry":{"type":"MultiPolygon","coordinates":[[[[1.37535,52.63157],[1.37531,52.6319],[1.37539,52.6319],[1.37538,52.63196],[1.37589,52.63198],[1.3759,52.63193],[1.37716,52.63199],[1.37721,52.63167],[1.37535,52.63157]]]]}},
{ "type":"Feature","properties":{"osm_way_id":"241909820","building":"warehouse"},"geometry":{"type":"MultiPolygon","coordinates":[[[[1.22134,52.69127],[1.22102,52.69134],[1.22107,52.69141],[1.2203,52.69158],[1.22034,52.69164],[1.22028,52.69166],[1.22033,52.69173],[1.22038,52.69172],[1.22067,52.69222],[1.22176,52.69199],[1.22134,52.69127]]]]}},
{ "type":"Feature","properties":{"osm_way_id":"295155696","building":"warehouse"},"geometry":{"type":"MultiPolygon","coordinates":[[[[1.27603,52.68923],[1.2758,52.6887],[1.2761,52.68865],[1.27633,52.68919],[1.27603,52.68923]]]]}},
{ "type":"Feature","properties":{"osm_way_id":"295155697","building":"warehouse"},"geometry":{"type":"MultiPolygon","coordinates":[[[[1.27462,52.68952],[1.27447,52.6892],[1.27475,52.68915],[1.2749,52.68947],[1.27462,52.68952]]]]}},
{ "type":"Feature","properties":{"osm_way_id":"295155698","building":"warehouse"},"geometry":{"type":"MultiPolygon","coordinates":[[[[1.27471,52.68988],[1.27541,52.68977],[1.27533,52.6896],[1.27463,52.68971],[1.27471,52.68988]]]]}},
{ "type":"Feature","properties":{"osm_way_id":"295155699","building":"warehouse"},"geometry":{"type":"MultiPolygon","coordinates":[[[[1.27568,52.68929],[1.27545,52.68876],[1.27572,52.68871],[1.27595,52.68924],[1.27568,52.68929]]]]}},
{ "type":"Feature","properties":{"osm_way_id":"295155700","building":"warehouse","other":{"addr:postcode":"NR10 3JU"}}, "geometry":{"type":"MultiPolygon","coordinates":[[[[1.27498,52.68946],[1.27483,52.68913],[1.27511,52.68909],[1.27526,52.68941],[1.27498,52.68946]]]]}},
{ "type":"Feature","properties":{"osm_way_id":"295155701","building":"warehouse"},"geometry":{"type":"MultiPolygon","coordinates":[[[[1.27648,52.68931],[1.27634,52.689],[1.27661,52.68896],[1.27675,52.68927],[1.27648,52.68931]]]]}},
{ "type":"Feature","properties":{"osm_way_id":"295155702","building":"warehouse"},"geometry":{"type":"MultiPolygon","coordinates":[[[[1.274,52.68984],[1.27378,52.68942],[1.27407,52.68937],[1.27428,52.68979],[1.274,52.68984]]]]}},
{ "type":"Feature","properties":{"osm_way_id":"295155703","building":"warehouse"},"geometry":{"type":"MultiPolygon","coordinates":[[[[1.27644,52.68885],[1.27635,52.68866],[1.27649,52.68863],[1.27658,52.68883],[1.27644,52.68885]]]]}},
{ "type":"Feature","properties":{"osm_way_id":"295155704","building":"warehouse"},"geometry":{"type":"MultiPolygon","coordinates":[[[[1.27574,52.68971],[1.27565,52.68951],[1.27583,52.68948],[1.27585,52.68952],[1.27629,52.68944],[1.27636,52.6896],[1.27574,52.68971]]]]}},
{ "type":"Feature","properties":{"osm_way_id":"295155705","building":"warehouse"},"geometry":{"type":"MultiPolygon","coordinates":[[[[1.27364,52.68932],[1.27346,52.68893],[1.27383,52.68887],[1.27389,52.68899],[1.27381,52.68901],[1.27393,52.68927],[1.27364,52.68932]]]]}},
{ "type":"Feature","properties":{"osm_way_id":"295155706","building":"warehouse"},"geometry":{"type":"MultiPolygon","coordinates":[[[[1.27485,52.68897],[1.27428,52.68906],[1.2742,52.68885],[1.2744,52.68882],[1.27443,52.68888],[1.27449,52.68887],[1.27479,52.68883],[1.27485,52.68897]]]]}},
{ "type":"Feature","properties":{"osm_way_id":"533969808","name":"BT","building":"warehouse","other":{"addr:postcode":"NR7 0WJ"}}, "geometry":{"type":"MultiPolygon","coordinates":[[[[1.37678,52.63291],[1.37677,52.63263],[1.37594,52.63264],[1.37596,52.63292],[1.37643,52.63292],[1.37643,52.63295],[1.37652,52.63294],[1.37652,52.63291],[1.37678,52.63291]]]]}},
{ "type":"Feature","properties":{"osm_way_id":"624367983","name":"Gordon Signs and Interior Displays","building":"warehouse","shop":"signs","other":{"addr:city":"Norwich","addr:country":"GB","addr:housename":"Gordon Signs & Interior Displays Ltd","addr:postcode":"NR6 7BW","addr:street":"St Faiths Road","email":"info@gordonsigns.co.uk","fax":"+44 1603 486172","opening_hours":"Mo-Sa 08:30-17:00","phone":"+44 1603 486142","short_name":"Gordon Signs","start_date":"1983-05","website":"https:\/\/www.gordonsigns.co.uk\/"}}, "geometry":{"type":"MultiPolygon","coordinates":[[[[1.29834,52.67232],[1.29827,52.67213],[1.29776,52.67221],[1.29783,52.6724],[1.29834,52.67232]]]]}},
{ "type":"Feature","properties":{"osm_way_id":"711029076","building":"warehouse"},"geometry":{"type":"MultiPolygon","coordinates":[[[[1.27481,52.6901],[1.27627,52.68986],[1.27619,52.68969],[1.27474,52.68993],[1.27481,52.6901]]]]}},
{ "type":"Feature","properties":{"osm_way_id":"711029077","building":"warehouse"},"geometry":{"type":"MultiPolygon","coordinates":[[[[1.27542,52.68975],[1.27572,52.6897],[1.27566,52.68957],[1.27537,52.68962],[1.27542,52.68975]]]]}},
{ "type":"Feature","properties":{"osm_way_id":"820923948","building":"warehouse","other":{"building:levels":"1","roof:shape":"gabled"}}, "geometry":{"type":"MultiPolygon","coordinates":[[[[1.28745,52.69083],[1.28757,52.69085],[1.28763,52.69075],[1.2875,52.69072],[1.28745,52.69083]]]]}},
{ "type":"Feature","properties":{"osm_way_id":"821387175","building":"warehouse","other":{"building:levels":"1","roof:shape":"gabled"}}, "geometry":{"type":"MultiPolygon","coordinates":[[[[1.27992,52.68252],[1.28014,52.68247],[1.28022,52.68261],[1.28,52.68265],[1.27992,52.68252]]]]}},
{ "type":"Feature","properties":{"osm_way_id":"821387176","building":"warehouse","other":{"building:levels":"1","roof:shape":"gabled"}}, "geometry":{"type":"MultiPolygon","coordinates":[[[[1.27983,52.68233],[1.28005,52.68229],[1.28014,52.68245],[1.27991,52.68249],[1.27983,52.68233]]]]}},
{ "type":"Feature","properties":{"osm_way_id":"843554654","building":"warehouse"},"geometry":{"type":"MultiPolygon","coordinates":[[[[1.29695,52.69775],[1.29697,52.69781],[1.29725,52.69777],[1.29722,52.69767],[1.29707,52.69769],[1.29708,52.69773],[1.29695,52.69775]]]]}}
]
}
