{
"type": "FeatureCollection",
"features": [
{ "type":"Feature","properties":{"osm_way_id":"27462637","name":"D82","building":"warehouse","other":{"source:name":"NaPTAN"}}, "geometry":{"type":"MultiPolygon","coordinates":[[[[-1.19011,52.92943],[-1.18882,52.92796],[-1.18859,52.92771],[-1.18693,52.92828],[-1.18787,52.9293],[-1.18691,52.92962],[-1.18754,52.9303],[-1.19011,52.92943]]]]}},
{ "type":"Feature","properties":{"osm_way_id":"27462646","name":"D105","building":"warehouse"},"geometry":{"type":"MultiPolygon","coordinates":[[[[-1.18823,52.93069],[-1.18692,52.9315],[-1.18683,52.93145],[-1.18655,52.93163],[-1.18666,52.93169],[-1.18548,52.93242],[-1.18672,52.93316],[-1.18951,52.93145],[-1.18908,52.93119],[-1.18922,52.93111],[-1.18881,52.93086],[-1.18867,52.93095],[-1.18823,52.93069]]]]}},
{ "type":"Feature","properties":{"osm_way_id":"37079589","name":"The Arches & Trent Vineyard Storage","building":"warehouse"},"geometry":{"type":"MultiPolygon","coordinates":[[[[-1.173,52.94303],[-1.17274,52.94316],[-1.17317,52.94348],[-1.17344,52.94336],[-1.173,52.94303]]]]}},
{ "type":"Feature","properties":{"osm_way_id":"78192683","building":"warehouse","other":{"vacant":"yes"}}, "geometry":{"type":"MultiPolygon","coordinates":[[[[-1.12637,52.94461],[-1.12719,52.9446],[-1.12721,52.94505],[-1.12639,52.94506],[-1.12637,52.94461]]]]}},
{ "type":"Feature","properties":{"osm_way_id":"165129513","building":"warehouse","other":{"addr:housename":"Unit 2","addr:street":"Queen's Road","old_name":"East Mids Hire"}}, "geometry":{"type":"MultiPolygon","coordinates":[[[[-1.14119,52.94706],[-1.14118,52.94689],[-1.14118,52.94679],[-1.14131,52.94679],[-1.14155,52.94679],[-1.14156,52.94703],[-1.14156,52.94705],[-1.14119,52.94706]]]]}},
{ "type":"Feature","properties":{"osm_way_id":"184149761","name":"Red Liquids Ltd.","building":"warehouse","man_made":"works","other":{"addr:city":"Nottingham","addr:housename":"Red Liquids Ltd.","addr:housenumber":"3","addr:place":"Robin Hood Industrial Estate","addr:postcode":"NG3 1GE","addr:street":"Alfred Street South","addr:unit":"3","email":"sales@redliquids.com","fax":"+44 (0) 333 939 8646","image":"https:\/\/www.mapillary.com\/map\/im\/NMcY2uO0wpoSl8o9PgBf7Q","phone":"+44 333 939 8646","start_date":"1974","website":"www.redliquids.com"}}, "geometry":{"type":"MultiPolygon","coordinates":[[[[-1.13664,52.95706],[-1.13642,52.95703],[-1.13648,52.95688],[-1.1367,52.9569],[-1.13664,52.95706]]]]}},
{ "type":"Feature","properties":{"osm_way_id":"184149765","name":"Red Liquids Ltd.","building":"warehouse","man_made":"works","other":{"addr:city":"Nottingham","addr:housename":"Red Liquids Ltd.","addr:housenumber":"2","addr:place":"Robin Hood Industrial Estate","addr:postcode":"NG3 1GE","addr:street":"Alfred Street South","addr:unit":"2","email":"sales@redliquids.com","fax":"+44 (0) 333 939 8646","image":"https:\/\/www.mapillary.com\/map\/im\/NMcY2uO0wpoSl8o9PgBf7Q","phone":"+44 333 939 8646","website":"www.redliquids.com"}}, "geometry":{"type":"MultiPolygon","coordinates":[[[[-1.13685,52.95709],[-1.13664,52.95706],[-1.1367,52.9569],[-1.13691,52.95693],[-1.13685,52.95709]]]]}},
{ "type":"Feature","properties":{"osm_way_id":"184149781","name":"The Treat Kitchen","building":"warehouse","other":{"addr:city":"Nottingham","addr:housename":"The Treat Kitchen","addr:housenumber":"5","addr:place":"Robin Hood Industrial Estate","addr:postcode":"NG3 1GE","addr:street":"Alfred Street South","addr:unit":"5","email":"sales@thetreatkitchen.co.uk","fax":"+44 115 950 8150","fhrs:id":"1051061","phone":"+44 115 950 8150","website":"https:\/\/www.thetreatkitchen.co.uk\/trade"}}, "geometry":{"type":"MultiPolygon","coordinates":[[[[-1.1362,52.957],[-1.13598,52.95697],[-1.13604,52.95681],[-1.13626,52.95685],[-1.1362,52.957]]]]}},
{ "type":"Feature","properties":{"osm_way_id":"184149783","name":"Sue Ryder","building":"warehouse","shop":"charity","other":{"addr:city":"Nottingham","addr:housename":"Sue Ryder","addr:housenumber":"1","addr:place":"Robin Hood Industrial Estate","addr:postcode":"NG3 1GE","addr:street":"Alfred Street South","addr:unit":"1","brand":"Sue Ryder","brand:wikidata":"Q7634271","brand:wikipedia":"en:Sue Ryder (charity)","email":"info@sueryder.org","fax":"+44 (0) 333 003 1883","image":"https:\/\/www.mapillary.com\/map\/im\/EN3hLbIHFts3MPXqdFLjJA","phone":"+44 333 003 1883","website":"https:\/\/www.sueryder.org\/"}}, "geometry":{"type":"MultiPolygon","coordinates":[[[[-1.13708,52.95712],[-1.13685,52.95709],[-1.13691,52.95693],[-1.13714,52.95696],[-1.13708,52.95712]]]]}},
{ "type":"Feature","properties":{"osm_way_id":"216478401","building":"warehouse","other":{"addr:postcode":"NG7 3HG","old_amenity":"gym","old_leisure":"fitness","old_name":"Gym Combat"}}, "geometry":{"type":"MultiPolygon","coordinates":[[[[-1.17378,52.95596],[-1.17424,52.95594],[-1.17423,52.9558],[-1.17373,52.95582],[-1.17373,52.95587],[-1.17377,52.95587],[-1.17378,52.95596]]]]}},
{ "type":"Feature","properties":{"osm_way_id":"216513724","building":"warehouse"},"geometry":{"type":"MultiPolygon","coordinates":[[[[-1.17341,52.95726],[-1.17262,52.95732],[-1.17263,52.95744],[-1.17266,52.95758],[-1.17346,52.95753],[-1.17341,52.95726]]]]}},
{ "type":"Feature","properties":{"osm_way_id":"216513738","building":"warehouse"},"geometry":{"type":"MultiPolygon","coordinates":[[[[-1.17357,52.95603],[-1.17424,52.95599],[-1.17446,52.9574],[-1.17379,52.95743],[-1.17357,52.95603]]]]}},
{ "type":"Feature","properties":{"osm_way_id":"216513740","building":"warehouse"},"geometry":{"type":"MultiPolygon","coordinates":[[[[-1.17322,52.95648],[-1.17224,52.95654],[-1.17233,52.95709],[-1.17332,52.95703],[-1.17322,52.95648]]]]}},
{ "type":"Feature","properties":{"osm_way_id":"216513745","building":"warehouse"},"geometry":{"type":"MultiPolygon","coordinates":[[[[-1.17334,52.9562],[-1.17214,52.95627],[-1.1721,52.95599],[-1.17308,52.95594],[-1.1733,52.95593],[-1.1733,52.95595],[-1.17334,52.9562]]]]}},
{ "type":"Feature","properties":{"osm_way_id":"218212033","building":"warehouse","other":{"source:building":"Bing"}}, "geometry":{"type":"MultiPolygon","coordinates":[[[[-1.18556,52.96605],[-1.1846,52.9659],[-1.18468,52.96571],[-1.18565,52.96585],[-1.18556,52.96605]]]]}},
{ "type":"Feature","properties":{"osm_way_id":"220442806","name":"Print 4","building":"warehouse","other":{"addr:city":"Nottingham","addr:postcode":"NG6 8WA","addr:street":"Dabell Avenue","source:addr":"Companies House Registered Companies","source:building":"Bing"}}, "geometry":{"type":"MultiPolygon","coordinates":[[[[-1.21911,53.00723],[-1.21872,53.00716],[-1.21858,53.00747],[-1.21897,53.00753],[-1.21911,53.00723]]]]}},
{ "type":"Feature","properties":{"osm_way_id":"220442807","building":"warehouse"},"geometry":{"type":"MultiPolygon","coordinates":[[[[-1.21341,53.0085],[-1.21223,53.00815],[-1.21212,53.00828],[-1.21321,53.0086],[-1.21317,53.00865],[-1.21327,53.00868],[-1.21341,53.0085]]]]}},
{ "type":"Feature","properties":{"osm_way_id":"220442808","building":"warehouse"},"geometry":{"type":"MultiPolygon","coordinates":[[[[-1.21551,53.00777],[-1.21473,53.00761],[-1.2146,53.00784],[-1.21538,53.008],[-1.21551,53.00777]]]]}},
{ "type":"Feature","properties":{"osm_way_id":"220442809","name":"Paul White Wholesale","building":"warehouse","shop":"wholesale","other":{"source:building":"Bing","website":"https:\/\/www.paulwhiteltd.com\/","wholesale":"cards;stationery"}}, "geometry":{"type":"MultiPolygon","coordinates":[[[[-1.21864,53.00789],[-1.21839,53.00787],[-1.21834,53.0082],[-1.21858,53.00821],[-1.21864,53.00789]]]]}},
{ "type":"Feature","properties":{"osm_way_id":"220442810","building":"warehouse"},"geometry":{"type":"MultiPolygon","coordinates":[[[[-1.21082,53.00724],[-1.21033,53.00711],[-1.21022,53.00725],[-1.21072,53.00738],[-1.21082,53.00724]]]]}},
{ "type":"Feature","properties":{"osm_way_id":"220442812","building":"warehouse"},"geometry":{"type":"MultiPolygon","coordinates":[[[[-1.21073,53.00615],[-1.21049,53.00646],[-1.21093,53.00658],[-1.21089,53.00662],[-1.21134,53.00675],[-1.21129,53.00681],[-1.21153,53.00688],[-1.21166,53.0067],[-1.21151,53.00666],[-1.2117,53.00642],[-1.21073,53.00615]]]]}},
{ "type":"Feature","properties":{"osm_way_id":"220442814","name":"CIE-group","building":"warehouse","other":{"addr:city":"Nottingham","addr:housenumber":"3","addr:postcode":"NG6 8WB","addr:street":"Widdowson Close","source:addr":"Companies House Registered Companies"}}, "geometry":{"type":"MultiPolygon","coordinates":[[[[-1.21723,53.00867],[-1.21648,53.00852],[-1.21639,53.00869],[-1.21714,53.00884],[-1.21723,53.00867]]]]}},
{ "type":"Feature","properties":{"osm_way_id":"220442815","building":"warehouse"},"geometry":{"type":"MultiPolygon","coordinates":[[[[-1.21205,53.0074],[-1.21107,53.00713],[-1.21085,53.00743],[-1.21182,53.0077],[-1.21205,53.0074]]]]}},
{ "type":"Feature","properties":{"osm_way_id":"220442817","building":"warehouse"},"geometry":{"type":"MultiPolygon","coordinates":[[[[-1.2133,53.00807],[-1.21247,53.00785],[-1.21238,53.00797],[-1.21321,53.00819],[-1.2133,53.00807]]]]}},
{ "type":"Feature","properties":{"osm_way_id":"220442818","building":"warehouse"},"geometry":{"type":"MultiPolygon","coordinates":[[[[-1.21234,53.00616],[-1.21221,53.00632],[-1.2116,53.00615],[-1.21157,53.00619],[-1.21071,53.00594],[-1.21086,53.00575],[-1.2115,53.00593],[-1.21154,53.00586],[-1.21171,53.00591],[-1.21166,53.00597],[-1.21234,53.00616]]]]}},
{ "type":"Feature","properties":{"osm_way_id":"220442820","building":"warehouse"},"geometry":{"type":"MultiPolygon","coordinates":[[[[-1.21334,53.00594],[-1.21304,53.00587],[-1.21302,53.0059],[-1.21297,53.00588],[-1.21285,53.00606],[-1.21288,53.00607],[-1.21286,53.0061],[-1.21316,53.00618],[-1.21334,53.00594]]]]}},
{ "type":"Feature","properties":{"osm_way_id":"220442821","name":"dpd","building":"warehouse","other":{"addr:street":"Dabell Avenue","source:building":"Bing"}}, "geometry":{"type":"MultiPolygon","coordinates":[[[[-1.22295,53.00847],[-1.22201,53.00846],[-1.22203,53.00799],[-1.22238,53.008],[-1.22238,53.00797],[-1.22272,53.00797],[-1.22272,53.008],[-1.22297,53.008],[-1.22295,53.00847]]]]}},
{ "type":"Feature","properties":{"osm_way_id":"220442822","building":"warehouse"},"geometry":{"type":"MultiPolygon","coordinates":[[[[-1.22151,53.00789],[-1.22086,53.00789],[-1.22085,53.00862],[-1.2215,53.00862],[-1.22151,53.00789]]]]}},
{ "type":"Feature","properties":{"osm_way_id":"220442824","name":"Natgraph","building":"warehouse","other":{"addr:city":"Nottingham","addr:postcode":"NG6 8WA","addr:street":"Dabell Avenue","source:addr":"Companies House Registered Companies","source:building":"Bing"}}, "geometry":{"type":"MultiPolygon","coordinates":[[[[-1.22242,53.00736],[-1.22246,53.00736],[-1.22246,53.00734],[-1.22309,53.00735],[-1.22308,53.0076],[-1.22246,53.0076],[-1.22246,53.00742],[-1.22242,53.00742],[-1.22242,53.00759],[-1.22196,53.00759],[-1.22196,53.00704],[-1.22243,53.00704],[-1.22242,53.00736]]]]}},
{ "type":"Feature","properties":{"osm_way_id":"220442825","building":"warehouse"},"geometry":{"type":"MultiPolygon","coordinates":[[[[-1.20867,53.00511],[-1.20834,53.00498],[-1.20862,53.00473],[-1.20895,53.00487],[-1.20867,53.00511]]]]}},
{ "type":"Feature","properties":{"osm_way_id":"220442826","building":"warehouse"},"geometry":{"type":"MultiPolygon","coordinates":[[[[-1.21023,53.00683],[-1.20994,53.00675],[-1.20952,53.00663],[-1.20914,53.00713],[-1.20938,53.0072],[-1.20934,53.00725],[-1.20961,53.00732],[-1.20968,53.00723],[-1.20988,53.00728],[-1.21023,53.00683]]]]}},
{ "type":"Feature","properties":{"osm_way_id":"220442827","building":"warehouse"},"geometry":{"type":"MultiPolygon","coordinates":[[[[-1.21557,53.00778],[-1.2154,53.00809],[-1.21615,53.00824],[-1.21632,53.00793],[-1.21557,53.00778]]]]}},
{ "type":"Feature","properties":{"osm_way_id":"220442828","building":"warehouse"},"geometry":{"type":"MultiPolygon","coordinates":[[[[-1.21169,53.00809],[-1.21123,53.00796],[-1.21129,53.00787],[-1.2108,53.00774],[-1.21062,53.00798],[-1.2111,53.00811],[-1.21102,53.0082],[-1.21151,53.00834],[-1.21169,53.00809]]]]}},
{ "type":"Feature","properties":{"osm_way_id":"220442829","building":"warehouse"},"geometry":{"type":"MultiPolygon","coordinates":[[[[-1.21469,53.00687],[-1.21394,53.00666],[-1.21398,53.00661],[-1.21391,53.00659],[-1.21387,53.00663],[-1.21367,53.00657],[-1.21376,53.00646],[-1.21397,53.00651],[-1.21395,53.00653],[-1.21402,53.00655],[-1.21437,53.00611],[-1.21536,53.00638],[-1.21517,53.00664],[-1.21493,53.00657],[-1.21469,53.00687]]]]}},
{ "type":"Feature","properties":{"osm_way_id":"220442830","name":"Wright Roofing Ltd","building":"warehouse","other":{"addr:city":"Nottingham","addr:postcode":"NG6 8WA","addr:street":"Dabell Avenue","alt_name":"Eat Midlands Roofing Supplies","source:addr":"NCC Open Data planning"}}, "geometry":{"type":"MultiPolygon","coordinates":[[[[-1.21573,53.00737],[-1.21509,53.00724],[-1.215,53.00739],[-1.21516,53.00743],[-1.21514,53.00746],[-1.21523,53.00748],[-1.21525,53.00744],[-1.21564,53.00752],[-1.2157,53.00742],[-1.21572,53.00739],[-1.21573,53.00737]]]]}},
{ "type":"Feature","properties":{"osm_way_id":"220442831","name":"Micro-Mesh","building":"warehouse","other":{"addr:city":"Nottingham","addr:housename":"Innovation House","addr:postcode":"NG6 8WA","addr:street":"Dabell Avenue","source:addr":"Companies House Registered Companies","source:building":"Bing"}}, "geometry":{"type":"MultiPolygon","coordinates":[[[[-1.21879,53.00676],[-1.21842,53.00669],[-1.21801,53.00742],[-1.21838,53.00749],[-1.21879,53.00676]]]]}},
{ "type":"Feature","properties":{"osm_way_id":"220442832","name":"Cheshires","building":"warehouse","other":{"addr:street":"Dabell Avenue","source:building":"Bing"}}, "geometry":{"type":"MultiPolygon","coordinates":[[[[-1.21809,53.0068],[-1.21677,53.00654],[-1.21679,53.00649],[-1.2166,53.00645],[-1.21657,53.0065],[-1.21653,53.00649],[-1.21628,53.00695],[-1.21614,53.00692],[-1.21605,53.00709],[-1.21665,53.00722],[-1.21669,53.00721],[-1.21674,53.00712],[-1.21752,53.00727],[-1.21748,53.00734],[-1.21764,53.00737],[-1.21768,53.00731],[-1.21779,53.00733],[-1.21809,53.0068]]]]}},
{ "type":"Feature","properties":{"osm_way_id":"220442834","building":"warehouse"},"geometry":{"type":"MultiPolygon","coordinates":[[[[-1.22162,53.00764],[-1.221,53.00764],[-1.22101,53.00736],[-1.22103,53.00736],[-1.22103,53.00692],[-1.22163,53.00692],[-1.22162,53.00764]]]]}},
{ "type":"Feature","properties":{"osm_way_id":"220442835","name":"Paul White Wholesale","building":"warehouse","shop":"wholesale","other":{"website":"https:\/\/www.paulwhiteltd.com\/","wholesale":"cards;stationery"}}, "geometry":{"type":"MultiPolygon","coordinates":[[[[-1.21797,53.00816],[-1.21763,53.0081],[-1.21782,53.00776],[-1.21816,53.00782],[-1.21797,53.00816]]]]}},
{ "type":"Feature","properties":{"osm_way_id":"220442838","name":"Great Bear Distribution","building":"warehouse","other":{"addr:city":"Nottingham","addr:housenumber":"4","addr:postcode":"NG6 8UZ","addr:street":"Freeston Drive","old_fhrs:id":"931440","old_name":"The Co-operative Food Nottingham Distribution Centre","source:addr:postcode":"NCC Open Data planning","source:name":"survey"}}, "geometry":{"type":"MultiPolygon","coordinates":[[[[-1.21479,53.00838],[-1.21436,53.00882],[-1.21406,53.00871],[-1.214,53.00877],[-1.2138,53.0087],[-1.21351,53.009],[-1.21329,53.00892],[-1.2132,53.00901],[-1.2158,53.00994],[-1.21668,53.00905],[-1.21587,53.00876],[-1.21524,53.00854],[-1.21479,53.00838]]]]}},
{ "type":"Feature","properties":{"osm_way_id":"220442839","building":"warehouse"},"geometry":{"type":"MultiPolygon","coordinates":[[[[-1.21279,53.00657],[-1.21212,53.00639],[-1.21198,53.00658],[-1.21266,53.00676],[-1.21279,53.00657]]]]}},
{ "type":"Feature","properties":{"osm_way_id":"220442840","name":"Asiana","building":"warehouse","other":{"addr:city":"Nottingham","addr:housenumber":"4","addr:postcode":"NG6 8WA","addr:street":"Dabell Avenue","addr:unit":"1","old_fhrs:id":"216743","source:addr":"FHRS Open Data","source:building":"Bing","website":"https:\/\/www.asianaltd.com\/"}}, "geometry":{"type":"MultiPolygon","coordinates":[[[[-1.21995,53.00763],[-1.21935,53.00763],[-1.21935,53.00691],[-1.21995,53.00691],[-1.21995,53.00763]]]]}},
{ "type":"Feature","properties":{"osm_way_id":"220442841","building":"warehouse"},"geometry":{"type":"MultiPolygon","coordinates":[[[[-1.2102,53.00781],[-1.20995,53.00774],[-1.21028,53.0073],[-1.21053,53.00737],[-1.2102,53.00781]]]]}},
{ "type":"Feature","properties":{"osm_way_id":"220442842","name":"UK Mail","building":"warehouse","other":{"addr:city":"Nottingham","addr:postcode":"NG6 8PE","addr:street":"Bennerley Road","source:addr:postcode":"OS Opendata Code-point","source:building":"Bing"}}, "geometry":{"type":"MultiPolygon","coordinates":[[[[-1.2146,53.00711],[-1.21325,53.00685],[-1.21297,53.00737],[-1.21432,53.00764],[-1.2146,53.00711]]]]}},
{ "type":"Feature","properties":{"osm_way_id":"220442843","building":"warehouse"},"geometry":{"type":"MultiPolygon","coordinates":[[[[-1.21306,53.00881],[-1.21202,53.00844],[-1.2119,53.00857],[-1.21295,53.00893],[-1.21306,53.00881]]]]}},
{ "type":"Feature","properties":{"osm_way_id":"220442845","building":"warehouse"},"geometry":{"type":"MultiPolygon","coordinates":[[[[-1.22002,53.00789],[-1.21965,53.00788],[-1.21964,53.00859],[-1.22001,53.00859],[-1.22002,53.00789]]]]}},
{ "type":"Feature","properties":{"osm_way_id":"220442847","building":"warehouse"},"geometry":{"type":"MultiPolygon","coordinates":[[[[-1.21265,53.00697],[-1.21222,53.00685],[-1.21205,53.00706],[-1.21199,53.00714],[-1.21219,53.00719],[-1.21224,53.00713],[-1.21247,53.00719],[-1.21265,53.00697]]]]}},
{ "type":"Feature","properties":{"osm_way_id":"220442849","building":"warehouse"},"geometry":{"type":"MultiPolygon","coordinates":[[[[-1.21951,53.00789],[-1.21894,53.00788],[-1.21894,53.008],[-1.21917,53.00801],[-1.21916,53.0083],[-1.2195,53.0083],[-1.21951,53.00789]]]]}},
{ "type":"Feature","properties":{"osm_way_id":"221570510","name":"Storage King","building":"warehouse","shop":"storage_rental","other":{"addr:postcode":"NG7 7NQ","addr:street":"Radford Road","source:building":"Bing","source:postcode":"NCC Open Data"}}, "geometry":{"type":"MultiPolygon","coordinates":[[[[-1.17513,52.97332],[-1.17537,52.9725],[-1.17491,52.97245],[-1.17468,52.97328],[-1.17513,52.97332]]]]}},
{ "type":"Feature","properties":{"osm_way_id":"324229715","building":"warehouse"},"geometry":{"type":"MultiPolygon","coordinates":[[[[-1.20753,53.00934],[-1.20743,53.00923],[-1.20685,53.00942],[-1.20695,53.00953],[-1.20753,53.00934]]]]}},
{ "type":"Feature","properties":{"osm_way_id":"324229717","name":"ASDA (HSC)","building":"warehouse"},"geometry":{"type":"MultiPolygon","coordinates":[[[[-1.20622,53.00912],[-1.20587,53.00908],[-1.20592,53.00894],[-1.20536,53.00887],[-1.20537,53.00884],[-1.20427,53.0087],[-1.20424,53.00877],[-1.204,53.00874],[-1.2038,53.00931],[-1.20602,53.00959],[-1.20601,53.00961],[-1.20618,53.00963],[-1.20623,53.00949],[-1.2061,53.00947],[-1.20622,53.00912]]]]}},
{ "type":"Feature","properties":{"osm_way_id":"324229718","building":"warehouse"},"geometry":{"type":"MultiPolygon","coordinates":[[[[-1.20778,53.00944],[-1.20758,53.00942],[-1.20748,53.00977],[-1.20769,53.00979],[-1.20778,53.00944]]]]}},
{ "type":"Feature","properties":{"osm_way_id":"324229719","name":"Batleys Cash & Carry","building":"warehouse","shop":"wholesale","other":{"addr:city":"Nottingham","addr:postcode":"NG6 8XF","addr:street":"Firth Way","fhrs:id":"217950","source:addr":"FHRS Open Data","wholesale":"food"}}, "geometry":{"type":"MultiPolygon","coordinates":[[[[-1.20836,53.0087],[-1.20731,53.00906],[-1.20692,53.00865],[-1.20675,53.00871],[-1.2064,53.00834],[-1.20657,53.00829],[-1.20628,53.00798],[-1.20734,53.00762],[-1.20778,53.00808],[-1.20795,53.00802],[-1.20784,53.00791],[-1.20819,53.00779],[-1.20862,53.00825],[-1.20828,53.00837],[-1.20824,53.00833],[-1.20807,53.00839],[-1.20836,53.0087]]]]}},
{ "type":"Feature","properties":{"osm_way_id":"330244636","building":"warehouse","other":{"source:building":"Bing"}}, "geometry":{"type":"MultiPolygon","coordinates":[[[[-1.18898,53.01011],[-1.18903,53.00983],[-1.18855,53.0098],[-1.18851,53.01002],[-1.1886,53.01002],[-1.18859,53.01009],[-1.18898,53.01011]]]]}},
{ "type":"Feature","properties":{"osm_way_id":"338674804","name":"Shri Swaminarayan Mandir","amenity":"place_of_worship","building":"warehouse","other":{"addr:housenumber":"102-103","addr:postcode":"NG7 7HS","addr:street":"Palm Street","contact:email":"info.nottingham@uk.baps.org","phone":"+44 115 978 8029","religion":"hindu"}}, "geometry":{"type":"MultiPolygon","coordinates":[[[[-1.16831,52.9717],[-1.16808,52.97175],[-1.16816,52.97188],[-1.16838,52.97184],[-1.16831,52.9717]]]]}},
{ "type":"Feature","properties":{"osm_way_id":"424441058","name":"Omega Red Group Ltd","building":"warehouse","other":{"addr:city":"Nottingham","addr:postcode":"NG6 8WA","addr:street":"Dabell Avenue","source:addr":"Companies House Registered Companies","source:building":"Bing"}}, "geometry":{"type":"MultiPolygon","coordinates":[[[[-1.21611,53.00762],[-1.21641,53.00768],[-1.2165,53.00752],[-1.21619,53.00746],[-1.21585,53.00739],[-1.21584,53.00742],[-1.21572,53.00739],[-1.2157,53.00742],[-1.21576,53.00744],[-1.21564,53.00766],[-1.2157,53.00767],[-1.21571,53.00765],[-1.21606,53.00772],[-1.21611,53.00762]]]]}},
{ "type":"Feature","properties":{"osm_way_id":"512946967","name":"Player's Bonded Warehouses","building":"warehouse","other":{"building:levels":"9","building:material":"concrete","building:use":"disused","colour":"#F5F5DC","disused":"yes","product":"tobacco","roof:shape":"flat","warehouse":"bonded_warehouse"}}, "geometry":{"type":"MultiPolygon","coordinates":[[[[-1.1869,52.95476],[-1.18691,52.95492],[-1.18756,52.95489],[-1.18754,52.95476],[-1.18749,52.95434],[-1.18687,52.95436],[-1.1869,52.95458],[-1.18692,52.95476],[-1.1869,52.95476]]]]}},
{ "type":"Feature","properties":{"osm_way_id":"537771175","name":"John Pye Auctions","building":"warehouse","other":{"website":"http:\/\/www.johnpye.co.uk\/auction-locations\/nottingham\/"}}, "geometry":{"type":"MultiPolygon","coordinates":[[[[-1.1734,52.97257],[-1.17342,52.97265],[-1.17338,52.97265],[-1.17339,52.97271],[-1.17297,52.97275],[-1.17301,52.97293],[-1.17384,52.97285],[-1.17382,52.97277],[-1.17398,52.97276],[-1.17395,52.97266],[-1.17391,52.97266],[-1.17389,52.97257],[-1.17367,52.97259],[-1.17366,52.97254],[-1.1734,52.97257]]]]}},
{ "type":"Feature","properties":{"osm_way_id":"675451877","building":"warehouse"},"geometry":{"type":"MultiPolygon","coordinates":[[[[-1.20834,53.0048],[-1.20855,53.00461],[-1.20818,53.00446],[-1.20815,53.00449],[-1.208,53.00462],[-1.20796,53.00464],[-1.20834,53.0048]]]]}},
{ "type":"Feature","properties":{"osm_way_id":"675451881","building":"warehouse"},"geometry":{"type":"MultiPolygon","coordinates":[[[[-1.20833,53.00541],[-1.20843,53.00533],[-1.20858,53.0052],[-1.20859,53.00519],[-1.20826,53.00505],[-1.208,53.00527],[-1.20833,53.00541]]]]}},
{ "type":"Feature","properties":{"osm_way_id":"680118690","name":"Harvey Quilting Ltd.","building":"warehouse","man_made":"works","other":{"addr:city":"Nottingham","addr:housename":"Harvey Quilting Ltd.","addr:housenumber":"11","addr:place":"Robin Hood Industrial Estate","addr:postcode":"NG3 1GE","addr:street":"Alfred Street South","addr:unit":"11","email":"sales@harveyquilting.co.uk","fax":"+44 (0) 115 950 3339","image":"https:\/\/www.mapillary.com\/map\/im\/cOHc4QB-PAnBom0PHJvVxw","phone":"+44 115 958 7777","website":"www.harveyquilting.co.uk"}}, "geometry":{"type":"MultiPolygon","coordinates":[[[[-1.13619,52.95656],[-1.13597,52.95652],[-1.13603,52.95636],[-1.13625,52.95639],[-1.13619,52.95656]]]]}},
{ "type":"Feature","properties":{"osm_way_id":"680118691","name":"(empty)","building":"warehouse","other":{"addr:city":"Nottingham","addr:housename":"(empty)","addr:housenumber":"12","addr:place":"Robin Hood Industrial Estate","addr:postcode":"NG3 1GE","addr:street":"Alfred Street South","addr:unit":"12"}}, "geometry":{"type":"MultiPolygon","coordinates":[[[[-1.13641,52.95659],[-1.13619,52.95656],[-1.13625,52.95639],[-1.13647,52.95642],[-1.13641,52.95659]]]]}},
{ "type":"Feature","properties":{"osm_way_id":"680118692","name":"Rainbow Jersey Ltd.","building":"warehouse","other":{"addr:city":"Nottingham","addr:housename":"Rainbow Jersey Ltd.","addr:housenumber":"13","addr:place":"Robin Hood Industrial Estate","addr:postcode":"NG3 1GE","addr:street":"Alfred Street South","addr:unit":"13"}}, "geometry":{"type":"MultiPolygon","coordinates":[[[[-1.13662,52.95664],[-1.1364,52.95661],[-1.13641,52.95659],[-1.13647,52.95642],[-1.13669,52.95645],[-1.13662,52.95664]]]]}},
{ "type":"Feature","properties":{"osm_way_id":"680118693","name":"(empty)","building":"warehouse","other":{"addr:city":"Nottingham","addr:housename":"(empty)","addr:housenumber":"14","addr:place":"Robin Hood Industrial Estate","addr:postcode":"NG3 1GE","addr:street":"Alfred Street South","addr:unit":"14"}}, "geometry":{"type":"MultiPolygon","coordinates":[[[[-1.13684,52.95667],[-1.13662,52.95664],[-1.13669,52.95645],[-1.13691,52.95648],[-1.13684,52.95667]]]]}},
{ "type":"Feature","properties":{"osm_way_id":"680118695","name":"Docherty Chimney Group","building":"warehouse","other":{"addr:city":"Nottingham","addr:housename":"Docherty Chimney Group","addr:housenumber":"15","addr:place":"Robin Hood Industrial Estate","addr:postcode":"NG3 1GE","addr:street":"Alfred Street South","addr:unit":"15","email":"sales@docherty.co.uk","fax":"+44 (0) 115 958 4734","image":"https:\/\/www.mapillary.com\/map\/im\/qnV1ecfCF9zbJZz9ZI6drA","phone":"+44 115 958 4734","website":"www.dochertytrade.co.uk"}}, "geometry":{"type":"MultiPolygon","coordinates":[[[[-1.13706,52.9567],[-1.13684,52.95667],[-1.13691,52.95648],[-1.13713,52.95651],[-1.13706,52.9567]]]]}},
{ "type":"Feature","properties":{"osm_way_id":"680118696","name":"Docherty Chimney Group","building":"warehouse","other":{"addr:city":"Nottingham","addr:housename":"Docherty Chimney Group","addr:housenumber":"16","addr:place":"Robin Hood Industrial Estate","addr:postcode":"NG3 1GE","addr:street":"Alfred Street South","addr:unit":"16","email":"sales@docherty.co.uk","fax":"+44 (0) 115 958 4734","image":"https:\/\/www.mapillary.com\/map\/im\/qnV1ecfCF9zbJZz9ZI6drA","phone":"+44 115 958 4734","website":"www.dochertytrade.co.uk"}}, "geometry":{"type":"MultiPolygon","coordinates":[[[[-1.13728,52.95673],[-1.13706,52.9567],[-1.13713,52.95651],[-1.13735,52.95654],[-1.13728,52.95673]]]]}},
{ "type":"Feature","properties":{"osm_way_id":"683253889","name":"Bedding Warehouse","building":"warehouse","other":{"addr:city":"Nottingham","addr:flats":"28a;28b","addr:housenumber":"28;28a;28b","addr:postcode":"NG1 1DF","addr:street":"Bath Street","image":"https:\/\/www.mapillary.com\/map\/im\/CYFW8Spd0vYWWpei69LsCg","layer":"1"}}, "geometry":{"type":"MultiPolygon","coordinates":[[[[-1.13735,52.9547],[-1.13738,52.95474],[-1.13739,52.95475],[-1.13722,52.9548],[-1.13722,52.9548],[-1.13722,52.95479],[-1.13712,52.95483],[-1.13708,52.95479],[-1.13723,52.95474],[-1.13735,52.9547]]]]}}
]
}
