{
"type": "FeatureCollection",
"features": [
{ "type":"Feature","properties":{"osm_id":"320988940","name":"Tesco Metro","other":{"addr:city":"Nottingham","addr:housenumber":"93","addr:place":"Victoria Centre","addr:postcode":"NG1 3QE","brand":"Tesco Metro","brand:wikidata":"Q57551648","fhrs:id":"217486","level":"0","shop":"supermarket","wheelchair":"yes"}}, "geometry":{"type":"Point","coordinates":[-1.1475,52.958 ]}},
{ "type":"Feature","properties":{"osm_id":"430512151","name":"James's Supermarket","other":{"addr:city":"Nottingham","addr:housenumber":"30","addr:postcode":"NG3 4EZ","addr:street":"Robin Hood Chase","old_fhrs:id":"624091","old_name":"The Co-operative Food","old_shop":"supermarket","shop":"supermarket","source:addr":"NCC Open Data Licensed Premises"}}, "geometry":{"type":"Point","coordinates":[-1.13816,52.9631 ]}},
{ "type":"Feature","properties":{"osm_id":"495225438","name":"ALDI","other":{"addr:city":"Nottingham","addr:housenumber":"157","addr:postcode":"NG1 3NL","addr:street":"Huntingdon Street","branch":"Nottingham","brand":"ALDI","brand:wikidata":"Q41171672","brand:wikipedia":"en:Aldi","fhrs:id":"217304","operator":"ALDI","shop":"supermarket","source:addr":"NCC Open Data"}}, "geometry":{"type":"Point","coordinates":[-1.14561,52.95814 ]}},
{ "type":"Feature","properties":{"osm_id":"776408635","name":"Coop","other":{"addr:city":"Nottingham","addr:housenumber":"140-142","addr:postcode":"NG2 4HJ","addr:street":"Sneinton Dale","fhrs:id":"218341","old_name":"The Co-operative Food","shop":"supermarket","source:addr":"FHRS Open Data"}}, "geometry":{"type":"Point","coordinates":[-1.12334,52.95346 ]}},
{ "type":"Feature","properties":{"osm_id":"787793221","name":"The Food Warehouse","other":{"addr:city":"Nottingham","addr:place":"Lady Bay Retail Park","addr:postcode":"NG2 3GZ","addr:street":"Meadow Lane","addr:unit":"Unit 4","brand":"The Food Warehouse","brand:wikidata":"Q87263899","fhrs:id":"1302284","old_fhrs:id":"957541","old_name":"Staples","old_name:2":"Office Outlet","old_shop":"stationery","shop":"supermarket","source:addr":"NCC Open Data"}}, "geometry":{"type":"Point","coordinates":[-1.1332,52.9457 ]}},
{ "type":"Feature","properties":{"osm_id":"813272870","name":"The Co-operative","other":{"addr:city":"Nottingham","addr:housenumber":"365","addr:postcode":"NG5 2DA","addr:street":"Mansfield Road","fhrs:id":"218746","shop":"supermarket","source:addr":"NCC Open Data"}}, "geometry":{"type":"Point","coordinates":[-1.15207,52.97315 ]}},
{ "type":"Feature","properties":{"osm_id":"820514999","name":"Murat Food Centre","other":{"addr:housenumber":"2","addr:postcode":"NG1 1DS","addr:street":"Gedling Street","fhrs:id":"216811","shop":"supermarket","source:addr":"NCC Open Data"}}, "geometry":{"type":"Point","coordinates":[-1.13932,52.95401 ]}},
{ "type":"Feature","properties":{"osm_id":"885231926","name":"Lidl","other":{"addr:city":"Nottingham","addr:postcode":"NG7 3NY","addr:street":"Midland Way","addr:unit":"5","brand":"Lidl","brand:wikidata":"Q151954","brand:wikipedia":"en:Lidl","fhrs:id":"217100","not:nccod:shop":"licensing_data","opening_hours":"Mo-Sa 08:00-22:00 Su 10:00-16:00","shop":"supermarket","source:addr":"NCC Open Data"}}, "geometry":{"type":"Point","coordinates":[-1.18387,52.95596 ]}},
{ "type":"Feature","properties":{"osm_id":"1157849234","name":"Sharif & Sons Superstore","other":{"addr:housenumber":"106-110","addr:postcode":"NG7 5FU","addr:street":"Radford Road","fhrs:id":"624093","shop":"supermarket","source:addr":"NCC Open Data"}}, "geometry":{"type":"Point","coordinates":[-1.16994,52.96528 ]}},
{ "type":"Feature","properties":{"osm_id":"1264748064","name":"Man Li Supermarket","other":{"addr:city":"Nottingham","addr:housenumber":"49","addr:postcode":"NG3 1FN","addr:street":"Union Road","cuisine":"chinese","fhrs:id":"971898","shop":"supermarket","source:addr":"NCC Open Data","survey:image":"3112_20110426"}}, "geometry":{"type":"Point","coordinates":[-1.14384,52.95903 ]}},
{ "type":"Feature","properties":{"osm_id":"1707740846","name":"Meadows' Co-op","other":{"addr:city":"Nottingham","addr:housenumber":"12-18","addr:postcode":"NG2 2JD","addr:street":"Bridgeway Centre","fhrs:id":"216486","old_name":"The Co-operative Food","shop":"supermarket","source:addr":"NCC Open Data Food Hygiene"}}, "geometry":{"type":"Point","coordinates":[-1.14619,52.94326 ]}},
{ "type":"Feature","properties":{"osm_id":"2208387325","name":"POLOmarket","other":{"addr:housenumber":"102","addr:postcode":"NG7 3NS","addr:street":"Alfreton Road","brand":"POLOmarket","brand:wikidata":"Q11821937","brand:wikipedia":"pl:Polomarket","old_fhrs:id":"780806","old_name":"Sheer Definitions;Lola Rose Nails and Beauty","old_shop":"beauty","shop":"supermarket","source:addr":"FHRS Open Data"}}, "geometry":{"type":"Point","coordinates":[-1.16553,52.95796 ]}},
{ "type":"Feature","properties":{"osm_id":"2263610291","name":"Kamal Food Store","other":{"addr:housenumber":"340-346","addr:postcode":"NG7 5GQ","addr:street":"Radford Road","fhrs:id":"1098085","old_fhrs:id":"216591","old_name":"Hafiz Supermarket","operator":"independent","shop":"supermarket"}}, "geometry":{"type":"Point","coordinates":[-1.1741,52.97017 ]}},
{ "type":"Feature","properties":{"osm_id":"2275670544","name":"Pricecutter","other":{"addr:housenumber":"322-326","addr:postcode":"NG7 5GP","addr:street":"Radford Road","fhrs:id":"1088499","shop":"supermarket"}}, "geometry":{"type":"Point","coordinates":[-1.17374,52.96979 ]}},
{ "type":"Feature","properties":{"osm_id":"2287995202","name":"Top Market","other":{"addr:city":"Nottingham","addr:housenumber":"119A","addr:postcode":"NG2 4LW","addr:street":"Sneinton Dale","brand":"Top Market","brand:wikidata":"Q9360044","brand:wikipedia":"pl:Top Market","cuisine":"polish","fhrs:id":"1112249","old_fhrs:id":"595734","old_name":"Labbas","old_name:2":"UK Å»abka","old_shop":"clothes","shop":"supermarket","source:addr":"FHRS Open Data"}}, "geometry":{"type":"Point","coordinates":[-1.1245,52.95311 ]}},
{ "type":"Feature","properties":{"osm_id":"2288594427","name":"Co-op","other":{"addr:housenumber":"75","addr:postcode":"NG8 4PH","addr:street":"Bracebridge Drive","alt_name":"Bracebridge Drive's Co-op","fhrs:id":"216422","old_name":"The Co-operative Food","operator":"The Co-operative Group","shop":"supermarket","source:housenumber":"NCC Open Data","source:postcode":"ONS"}}, "geometry":{"type":"Point","coordinates":[-1.22799,52.96454 ]}},
{ "type":"Feature","properties":{"osm_id":"2288594434","name":"Heron Foods","other":{"addr:housenumber":"63","addr:postcode":"NG8 4PH","addr:street":"Bracebridge Drive","brand":"Heron Foods","brand:wikidata":"Q5743472","brand:wikipedia":"en:Heron Foods","contact:website":"https:\/\/heronfoods.com\/storelocator\/store-details\/bilborough","fhrs:id":"217561","shop":"supermarket","source:housenumber":"NCC Open Data","source:postcode":"ONS"}}, "geometry":{"type":"Point","coordinates":[-1.22742,52.96482 ]}},
{ "type":"Feature","properties":{"osm_id":"2291367395","name":"Heron Foods","other":{"addr:city":"Nottingham","addr:country":"GB","addr:housenumber":"194-198","addr:postcode":"NG11 8AA","addr:street":"Southchurch Drive","brand":"Heron Foods","brand:wikidata":"Q5743472","brand:wikipedia":"en:Heron Foods","contact:website":"https:\/\/heronfoods.com\/storelocator\/store-details\/clifton-relocation","fhrs:id":"1029376","old_name":"Store 21","opening_hours":"Mo-Sa 08:00-20:00; Su 10:00-16:00","shop":"supermarket","source:addr":"NCC Open Data","wheelchair":"yes"}}, "geometry":{"type":"Point","coordinates":[-1.17753,52.90352 ]}},
{ "type":"Feature","properties":{"osm_id":"2303442140","name":"Heron Foods","other":{"addr:city":"Nottingham","addr:housenumber":"77","addr:postcode":"NG6 8QD","addr:street":"Main Street","brand":"Heron Foods","brand:wikidata":"Q5743472","brand:wikipedia":"en:Heron Foods","contact:website":"https:\/\/heronfoods.com\/index.php\/storelocator\/store-details\/bulwell","fhrs:id":"216428","shop":"supermarket","source:addr":"NCC Open Data"}}, "geometry":{"type":"Point","coordinates":[-1.19724,53.00077 ]}},
{ "type":"Feature","properties":{"osm_id":"4301295845"},"geometry":{"type":"Point","coordinates":[-1.14401,52.98379 ]}},
{ "type":"Feature","properties":{"osm_id":"4329984978","name":"Hafiz","other":{"addr:housenumber":"292","addr:postcode":"NG7 7DG","addr:street":"Nottingham Road","halal":"yes","old_fhrs:id":"842253","shop":"supermarket","source:addr":"FHRS Open Data"}}, "geometry":{"type":"Point","coordinates":[-1.17047,52.97906 ]}},
{ "type":"Feature","properties":{"osm_id":"5894608023","other":{"exit":"yes"}}, "geometry":{"type":"Point","coordinates":[-1.12459,52.94679 ]}},
{ "type":"Feature","properties":{"osm_id":"7949095137","name":"ALDI","other":{"addr:city":"Nottingham","addr:country":"GB","addr:postcode":"NG6 9LQ","addr:street":"Hucknall Road","brand":"ALDI","brand:wikidata":"Q41171672","brand:wikipedia":"en:Aldi","contact:website":"https:\/\/www.aldi.co.uk\/store\/s-uk-E0950","shop":"supermarket"}}, "geometry":{"type":"Point","coordinates":[-1.17979,52.9969 ]}},
{ "type":"Feature","properties":{"osm_id":"8048771438","name":"Lidl","other":{"addr:city":"Nottingham","addr:place":"Beechdale Retail Park","addr:postcode":"NG8 3LL","addr:street":"Beechdale Road","brand":"Lidl","brand:wikidata":"Q151954","brand:wikipedia":"en:Lidl","fhrs:id":"1172392","shop":"supermarket"}}, "geometry":{"type":"Point","coordinates":[-1.19233,52.96049 ]}},
{ "type":"Feature","properties":{"osm_id":"9400454857","name":"Makkah Food Store","other":{"shop":"supermarket"}}, "geometry":{"type":"Point","coordinates":[-1.16962,52.96566 ]}},
{ "type":"Feature","properties":{"osm_way_id":"23770790","name":"Lidl","building":"retail","shop":"supermarket","other":{"addr:city":"Nottingham","addr:housenumber":"110","addr:postcode":"NG8 2DH","addr:street":"Trowell Road","brand":"Lidl","brand:wikidata":"Q151954","brand:wikipedia":"en:Lidl","fhrs:id":"1315978","old_fhrs:id":"731199","old_name":"Waitrose","source:postcode":"NCC Open Data"}}, "geometry":{"type":"MultiPolygon","coordinates":[[[[-1.22975,52.95624],[-1.22868,52.95617],[-1.22873,52.95585],[-1.22874,52.95584],[-1.22875,52.95574],[-1.22925,52.95576],[-1.22928,52.95558],[-1.22963,52.9556],[-1.2296,52.95574],[-1.22983,52.95576],[-1.22983,52.9558],[-1.22982,52.95585],[-1.22975,52.95624]]]]}},
{ "type":"Feature","properties":{"osm_way_id":"24905212","name":"Lidl","building":"yes","shop":"supermarket","other":{"addr:city":"Nottingham","addr:housenumber":"323-333","addr:postcode":"NG5 2DA","addr:street":"Mansfield Road","brand":"Lidl","brand:wikidata":"Q151954","brand:wikipedia":"en:Lidl","fhrs:id":"217588","wheelchair":"yes"}}, "geometry":{"type":"MultiPolygon","coordinates":[[[[-1.15354,52.97238],[-1.15266,52.97216],[-1.1528,52.97194],[-1.15301,52.97199],[-1.1536,52.97214],[-1.15351,52.97227],[-1.1536,52.97229],[-1.15354,52.97238]]]]}},
{ "type":"Feature","properties":{"osm_way_id":"33078147","name":"Sainsbury's","building":"yes","shop":"supermarket","other":{"addr:housenumber":"11","addr:postcode":"NG7 1GX","addr:street":"Castle Bridge Road","brand":"Sainsbury's","brand:wikidata":"Q152096","brand:wikipedia":"en:Sainsbury's","fhrs:id":"218889","source:addr":"NCC Open Data (Food Hygiene, Non-business Rates)","wheelchair":"yes"}}, "geometry":{"type":"MultiPolygon","coordinates":[[[[-1.16304,52.94665],[-1.16265,52.94683],[-1.16255,52.94675],[-1.16252,52.94677],[-1.16247,52.94672],[-1.16216,52.94686],[-1.16205,52.94691],[-1.16197,52.94685],[-1.16177,52.94694],[-1.1617,52.94688],[-1.16155,52.94695],[-1.16139,52.94682],[-1.16174,52.94667],[-1.1617,52.94663],[-1.16175,52.94661],[-1.16151,52.94642],[-1.16188,52.94626],[-1.16259,52.94593],[-1.16276,52.94607],[-1.16313,52.94637],[-1.16336,52.94655],[-1.16313,52.94665],[-1.1631,52.94663],[-1.16304,52.94665]]]]}},
{ "type":"Feature","properties":{"osm_way_id":"33751960","name":"Asda","building":"retail","shop":"supermarket","other":{"addr:postcode":"NG8 3AP","addr:street":"Strelley Road","brand":"Asda","brand:wikidata":"Q297410","brand:wikipedia":"en:Asda","contact:facebook":"https:\/\/www.facebook.com\/asda\/","contact:phone":"+44 115 784 1626","contact:twitter":"@asda","contact:website":"https:\/\/storelocator.asda.com\/east-midlands\/nottingham\/40-strelley-road","fhrs:id":"743168","old_name":"Co-op","opening_hours:covid19":"Mo-Th,Sa 08:00-22:00; Fr 08:00-20:00; Su 10:00-16:00","operator":"Asda Stores Ltd"}}, "geometry":{"type":"MultiPolygon","coordinates":[[[[-1.21865,52.97404],[-1.21856,52.97465],[-1.21889,52.97467],[-1.21888,52.97473],[-1.21896,52.97473],[-1.21897,52.97465],[-1.21936,52.97467],[-1.21937,52.97458],[-1.21935,52.97458],[-1.21943,52.97404],[-1.21928,52.97403],[-1.21928,52.97407],[-1.21888,52.97405],[-1.21888,52.97401],[-1.21874,52.97401],[-1.21874,52.97405],[-1.21865,52.97404]]]]}},
{ "type":"Feature","properties":{"osm_way_id":"80242786","name":"Sainsbury's","building":"retail","shop":"supermarket","other":{"addr:city":"Nottingham","addr:postcode":"NG5 1HH","addr:street":"Perry Road","branch":"Perry Road","brand":"Sainsbury's","brand:wikidata":"Q152096","brand:wikipedia":"en:Sainsbury's","fhrs:id":"216394","operator":"Sainsbury's","source:postcode":"FHRS Open Data"}}, "geometry":{"type":"MultiPolygon","coordinates":[[[[-1.17065,52.98043],[-1.17057,52.98039],[-1.17054,52.98042],[-1.1704,52.98035],[-1.17043,52.98033],[-1.1698,52.98003],[-1.17029,52.97965],[-1.17058,52.97979],[-1.17053,52.97983],[-1.17109,52.9801],[-1.17065,52.98043]]]]}},
{ "type":"Feature","properties":{"osm_way_id":"80847390","name":"Co-operative Food","building":"yes","shop":"supermarket","other":{"addr:postcode":"NG11 7AX","addr:street":"Wilford Green","fhrs:id":"217772","operator":"Co-operative","source:addr:postcode":"FHRS Open Data"}}, "geometry":{"type":"MultiPolygon","coordinates":[[[[-1.15919,52.9253],[-1.15895,52.92531],[-1.15894,52.92529],[-1.15868,52.9253],[-1.15867,52.92524],[-1.15866,52.92517],[-1.15887,52.92516],[-1.15886,52.92512],[-1.15916,52.92511],[-1.15918,52.92523],[-1.15919,52.9253]]]]}},
{ "type":"Feature","properties":{"osm_way_id":"81979482","name":"Tesco Extra","building":"yes","shop":"supermarket","other":{"addr:city":"Nottingham","addr:postcode":"NG6 8EQ","addr:street":"Jennison Street","brand":"Tesco Extra","brand:wikidata":"Q25172225","brand:wikipedia":"en:Tesco Extra","fhrs:id":"216957","opening_hours":"24\/7","source:area":"OS_OpenData_StreetView","wheelchair":"yes"}}, "geometry":{"type":"MultiPolygon","coordinates":[[[[-1.19527,53.00293],[-1.19515,53.00288],[-1.19508,53.00294],[-1.19405,53.00258],[-1.19361,53.00299],[-1.19352,53.0031],[-1.19347,53.00308],[-1.1934,53.00305],[-1.19336,53.00309],[-1.19334,53.00315],[-1.19335,53.00321],[-1.19337,53.00325],[-1.19343,53.00329],[-1.19358,53.00335],[-1.19376,53.00342],[-1.19374,53.00344],[-1.19438,53.00367],[-1.19459,53.00348],[-1.19467,53.00351],[-1.19477,53.00346],[-1.19479,53.00344],[-1.19508,53.00356],[-1.1953,53.00337],[-1.19506,53.00328],[-1.19505,53.0033],[-1.19492,53.00325],[-1.1951,53.00307],[-1.19513,53.00307],[-1.19524,53.00295],[-1.19527,53.00293]]]]}},
{ "type":"Feature","properties":{"osm_way_id":"108357705","name":"ALDI","building":"yes","shop":"supermarket","other":{"addr:city":"Nottingham","addr:postcode":"NG6 8GN","addr:street":"Seller's Wood Drive","brand":"ALDI","brand:wikidata":"Q41171672","brand:wikipedia":"en:Aldi","fhrs:id":"218696","source:addr":"NCC Open Data Licensed Premises"}}, "geometry":{"type":"MultiPolygon","coordinates":[[[[-1.20923,53.00427],[-1.20919,53.00431],[-1.20909,53.00427],[-1.20868,53.00467],[-1.20886,53.00474],[-1.20889,53.0047],[-1.20912,53.00479],[-1.20954,53.00439],[-1.20923,53.00427]]]]}},
{ "type":"Feature","properties":{"osm_way_id":"111504867","name":"Asiana Hypermarket","building":"yes","shop":"supermarket","other":{"addr:city":"Nottingham","addr:housenumber":"108","addr:postcode":"NG3 1AR","addr:street":"Woodborough Road","fhrs:id":"1288944","old_fhrs:id":"216469","operator":"Asiana Hypermarket"}}, "geometry":{"type":"MultiPolygon","coordinates":[[[[-1.14653,52.96211],[-1.14708,52.96228],[-1.14695,52.96244],[-1.14642,52.96229],[-1.14649,52.96219],[-1.14647,52.96219],[-1.14653,52.96211]]]]}},
{ "type":"Feature","properties":{"osm_way_id":"118600216","name":"ALDI","building":"retail","shop":"supermarket","other":{"addr:place":"Castle Retail Park","addr:postcode":"NG7 5QJ","addr:street":"Radford Boulevard","addr:unit":"4","brand":"ALDI","brand:wikidata":"Q41171672","brand:wikipedia":"en:Aldi","fhrs:id":"218163","opening_hours":"Mo-Sa 08:00-22:00; Su 10:00-16:00"}}, "geometry":{"type":"MultiPolygon","coordinates":[[[[-1.17817,52.96102],[-1.17878,52.96097],[-1.17888,52.96096],[-1.17894,52.96125],[-1.17823,52.96131],[-1.17817,52.96102]]]]}},
{ "type":"Feature","properties":{"osm_way_id":"143611304","name":"Morrisons","building":"retail","shop":"supermarket","other":{"addr:country":"GB","addr:postcode":"NG11 9LQ","addr:street":"Green Lane","alt_name":"Morrisons Clifton","brand":"Morrisons","brand:wikidata":"Q922344","brand:wikipedia":"en:Morrisons","fhrs:id":"216758","opening_hours":"Mo-Sa 07:00-22:00; Su 10:00-16:00","source:building":"Bing","source:postcode":"NCC Open Data"}}, "geometry":{"type":"MultiPolygon","coordinates":[[[[-1.17821,52.90399],[-1.1781,52.90415],[-1.17798,52.90412],[-1.17795,52.90412],[-1.17806,52.90396],[-1.17786,52.90391],[-1.17838,52.90321],[-1.17877,52.90331],[-1.17879,52.90328],[-1.17894,52.90332],[-1.17892,52.90335],[-1.17896,52.90336],[-1.17865,52.90379],[-1.17841,52.90372],[-1.17821,52.90399]]]]}},
{ "type":"Feature","properties":{"osm_way_id":"147774942","name":"Co-op Food","building":"retail","shop":"supermarket","other":{"addr:housenumber":"172","addr:postcode":"NG8 2QP","addr:street":"Bramcote Lane","brand":"Co-op Food","brand:wikidata":"Q3277439","brand:wikipedia":"en:Co-op Food","building:levels":"2","fhrs:id":"624065","operator":"The Co-operative Group","operator:wikidata":"Q117202","operator:wikipedia":"en:The Co-operative Group","source:name":"survey","source:postcode":"NCC Open Data"}}, "geometry":{"type":"MultiPolygon","coordinates":[[[[-1.23313,52.94593],[-1.23296,52.94603],[-1.2331,52.94613],[-1.23312,52.94612],[-1.23329,52.94623],[-1.23324,52.94625],[-1.23347,52.94643],[-1.23345,52.94644],[-1.23353,52.9465],[-1.23372,52.94641],[-1.2334,52.94617],[-1.23344,52.94614],[-1.2332,52.94597],[-1.23313,52.94593]]]]}},
{ "type":"Feature","properties":{"osm_way_id":"152153091","name":"Medina Food Store","building":"yes","shop":"supermarket","other":{"addr:housenumber":"79-83","addr:postcode":"NG7 5DR","addr:street":"Radford Road","fhrs:id":"815420","source:addr":"NCC Open Data"}}, "geometry":{"type":"MultiPolygon","coordinates":[[[[-1.17005,52.9647],[-1.17054,52.9646],[-1.1706,52.96461],[-1.17069,52.96479],[-1.17055,52.96482],[-1.1705,52.96473],[-1.17024,52.96479],[-1.17011,52.96481],[-1.17005,52.9647]]]]}},
{ "type":"Feature","properties":{"osm_way_id":"154318036","name":"Tesco Extra","building":"retail","shop":"supermarket","other":{"addr:city":"Nottingham","addr:postcode":"NG5 9DD","addr:street":"Top Valley Way","brand":"Tesco Extra","brand:wikidata":"Q25172225","brand:wikipedia":"en:Tesco Extra","building:levels":"1","cafe":"yes","fhrs:id":"218750","operator":"tesco","roof:levels":"0","source:addr":"Food Hygiene Open Data"}}, "geometry":{"type":"MultiPolygon","coordinates":[[[[-1.17681,53.00259],[-1.17698,53.00256],[-1.17694,53.00248],[-1.17786,53.00232],[-1.17796,53.00231],[-1.17802,53.00245],[-1.1781,53.00244],[-1.1782,53.00266],[-1.17812,53.00267],[-1.17841,53.00329],[-1.17823,53.00332],[-1.17716,53.0035],[-1.17699,53.00342],[-1.17697,53.00338],[-1.17732,53.00332],[-1.17707,53.00279],[-1.17687,53.00282],[-1.1768,53.00268],[-1.17681,53.00259]]]]}},
{ "type":"Feature","properties":{"osm_way_id":"154543504","name":"Two'j Supermarket","building":"yes","shop":"supermarket","other":{"addr:city":"Nottingham","addr:housenumber":"494-496","addr:postcode":"NG2 3GD","addr:street":"Meadow Lane","fhrs:id":"771646","old_name":"Bargain Bazaar","source:addr":"NCC Open Data"}}, "geometry":{"type":"MultiPolygon","coordinates":[[[[-1.12749,52.94862],[-1.1279,52.94864],[-1.12784,52.94903],[-1.12763,52.94901],[-1.12763,52.94899],[-1.12744,52.94898],[-1.12749,52.94862]]]]}},
{ "type":"Feature","properties":{"osm_way_id":"195458122","name":"Falcon","building":"yes","shop":"supermarket","other":{"addr:city":"Nottingham","addr:housenumber":"135","addr:postcode":"NG3 2FN","addr:street":"Carlton Road","description":"former Co-op Superstore","fhrs:id":"1175521","source:postcode":"NCC Open Data"}}, "geometry":{"type":"MultiPolygon","coordinates":[[[[-1.13062,52.95708],[-1.12999,52.95722],[-1.13024,52.95769],[-1.13096,52.95768],[-1.13062,52.95708]]]]}},
{ "type":"Feature","properties":{"osm_way_id":"212731950","name":"Morrisons","building":"yes","shop":"supermarket","other":{"addr:city":"Nottingham","addr:postcode":"NG6 8EP","addr:street":"Leen Drive","brand":"Morrisons","brand:wikidata":"Q922344","brand:wikipedia":"en:Morrisons","cafe":"yes","fhrs:id":"217569"}}, "geometry":{"type":"MultiPolygon","coordinates":[[[[-1.19,53.00872],[-1.18985,53.00909],[-1.18967,53.00906],[-1.18961,53.00923],[-1.18948,53.00921],[-1.18942,53.00936],[-1.18914,53.00932],[-1.18912,53.00937],[-1.18903,53.00936],[-1.18899,53.00945],[-1.1887,53.00941],[-1.18878,53.00919],[-1.18871,53.00918],[-1.18874,53.0091],[-1.18871,53.00909],[-1.18899,53.0084],[-1.18981,53.00852],[-1.18985,53.00844],[-1.18989,53.00844],[-1.1899,53.00843],[-1.18991,53.00842],[-1.18993,53.00842],[-1.18998,53.00842],[-1.18999,53.00843],[-1.19,53.00844],[-1.19,53.00846],[-1.19015,53.00847],[-1.19019,53.0085],[-1.19021,53.00853],[-1.19022,53.00857],[-1.19019,53.00864],[-1.19021,53.00864],[-1.19021,53.00865],[-1.19022,53.00866],[-1.19021,53.00868],[-1.1902,53.00869],[-1.19018,53.00869],[-1.19017,53.0087],[-1.19015,53.00874],[-1.19,53.00872]]]]}},
{ "type":"Feature","properties":{"osm_way_id":"212735707","name":"the gym","amenity":"gym","building":"yes","shop":"supermarket","other":{"addr:city":"Nottingham","addr:housenumber":"684","addr:postcode":"NG5 2GE","addr:street":"Mansfield Road","source:addr":"NCC Open Data","wheelchair":"yes"}}, "geometry":{"type":"MultiPolygon","coordinates":[[[[-1.1442,52.98384],[-1.14403,52.98406],[-1.14335,52.98388],[-1.14339,52.98383],[-1.14331,52.98381],[-1.14337,52.98373],[-1.14345,52.98375],[-1.14352,52.98366],[-1.14376,52.98372],[-1.14401,52.98379],[-1.14414,52.98382],[-1.1442,52.98384]]]]}},
{ "type":"Feature","properties":{"osm_way_id":"217690421","name":"Kaya Food Centre","building":"yes","shop":"supermarket","other":{"addr:city":"Nottingham","addr:housenumber":"85-89","addr:postcode":"NG7 3JL","addr:street":"Alfreton Road","fhrs:id":"1246143","old_fhrs:id":"595721","opening_hours":"24\/7","source:building":"Bing"}}, "geometry":{"type":"MultiPolygon","coordinates":[[[[-1.16477,52.95737],[-1.1646,52.95729],[-1.16474,52.95718],[-1.16479,52.95713],[-1.16504,52.95724],[-1.16498,52.95729],[-1.16491,52.95726],[-1.16487,52.95729],[-1.16477,52.95737]]]]}},
{ "type":"Feature","properties":{"osm_way_id":"221740510","name":"Co-op Food","building":"retail","shop":"supermarket","other":{"addr:city":"Nottingham","addr:housenumber":"346","addr:postcode":"NG11 9FE","addr:street":"Southchurch Drive","brand":"Co-op Food","brand:wikidata":"Q3277439","brand:wikipedia":"en:Co-op Food","building:levels":"1","fhrs:id":"851200","opening_hours":"Mo-Su 07:00-22:00","operator":"Central England Co-operative Society","roof:levels":"0","roof:shape":"flat","source:building":"Bing","survey_date":"2014-02-15;2015-02-28","wheelchair":"yes"}}, "geometry":{"type":"MultiPolygon","coordinates":[[[[-1.18128,52.89772],[-1.1815,52.89758],[-1.18126,52.89744],[-1.18104,52.89757],[-1.18128,52.89772]]]]}},
{ "type":"Feature","properties":{"osm_way_id":"226318920","name":"McColl's","building":"retail","shop":"supermarket","other":{"addr:housenumber":"395","addr:postcode":"NG8 5RR","addr:street":"Aspley Lane","fhrs:id":"957524","old_name":"The Co-operative Food","old_operator":"The Co-operative Group","source:building":"Bing"}}, "geometry":{"type":"MultiPolygon","coordinates":[[[[-1.20015,52.97157],[-1.20001,52.97153],[-1.20021,52.97126],[-1.20035,52.97129],[-1.20015,52.97157]]]]}},
{ "type":"Feature","properties":{"osm_way_id":"226318922","name":"Heron Foods","building":"retail","shop":"supermarket","other":{"addr:housenumber":"362","addr:postcode":"NG8 5GB","addr:street":"Aspley Lane","brand":"Heron Foods","brand:wikidata":"Q5743472","brand:wikipedia":"en:Heron Foods","contact:website":"https:\/\/heronfoods.com\/storelocator\/store-details\/aspley","fhrs:id":"1131426","old_fhrs:id":"595794","old_fhrs:id:2":"842255","old_name":"My Local","source:addr":"FHRS Open Data","source:building":"Bing"}}, "geometry":{"type":"MultiPolygon","coordinates":[[[[-1.19768,52.97095],[-1.19743,52.97113],[-1.19759,52.97121],[-1.19769,52.97113],[-1.19771,52.97114],[-1.19782,52.97106],[-1.19783,52.97103],[-1.19768,52.97095]]]]}},
{ "type":"Feature","properties":{"osm_way_id":"228199946","name":"The Co-operative Food","building":"retail","shop":"supermarket","other":{"addr:city":"Nottingham","addr:housenumber":"254","addr:postcode":"NG5 5PA","addr:street":"Beckhampton Road","brand":"The Co-operative Food","brand:wikidata":"Q107617274","fhrs:id":"218029","source:addr":"NCC Open Data Food Hygiene"}}, "geometry":{"type":"MultiPolygon","coordinates":[[[[-1.15636,53.00287],[-1.15636,53.00279],[-1.15636,53.00257],[-1.15606,53.00257],[-1.15606,53.00287],[-1.15636,53.00287]]]]}},
{ "type":"Feature","properties":{"osm_way_id":"228376012","name":"Heron Foods","shop":"supermarket","other":{"addr:city":"Nottingham","addr:housenumber":"17","addr:postcode":"NG5 5EJ","addr:street":"Bestwood Park Drive West","brand":"Heron Foods","brand:wikidata":"Q5743472","brand:wikipedia":"en:Heron Foods","contact:website":"https:\/\/heronfoods.com\/storelocator\/store-details\/rise-park","fhrs:id":"703752","source:addr":"FHRS Open Data"}}, "geometry":{"type":"MultiPolygon","coordinates":[[[[-1.17406,53.01041],[-1.17388,53.01073],[-1.17368,53.01069],[-1.17376,53.01055],[-1.17386,53.01037],[-1.17406,53.01041]]]]}},
{ "type":"Feature","properties":{"osm_way_id":"228381333","name":"The Co-operative Food","building":"retail","shop":"supermarket","other":{"addr:housenumber":"209","addr:postcode":"NG6 9BU","addr:street":"Highbury Road","brand":"The Co-operative Food","brand:wikidata":"Q3277439","brand:wikipedia":"en:Co-op Food","fhrs:id":"989956","source:addr":"NCC Open Data"}}, "geometry":{"type":"MultiPolygon","coordinates":[[[[-1.19175,52.99534],[-1.19138,52.99549],[-1.19152,52.99561],[-1.19156,52.99559],[-1.19158,52.99561],[-1.19204,52.99542],[-1.19187,52.99526],[-1.19173,52.99532],[-1.19175,52.99534]]]]}},
{ "type":"Feature","properties":{"osm_way_id":"302935191","name":"ALDI","building":"retail","shop":"supermarket","other":{"addr:city":"Nottingham","addr:postcode":"NG5 1EL","addr:street":"Lortas Road","brand":"ALDI","brand:wikidata":"Q41171672","brand:wikipedia":"en:Aldi","fhrs:id":"664835","source:addr":"NCC Food Hygiene Open Data","source:building":"MapBox"}}, "geometry":{"type":"MultiPolygon","coordinates":[[[[-1.16993,52.97875],[-1.16965,52.97896],[-1.16947,52.97909],[-1.16912,52.97893],[-1.16931,52.97878],[-1.16923,52.97875],[-1.16933,52.97868],[-1.16939,52.97871],[-1.16957,52.97857],[-1.16993,52.97875]]]]}},
{ "type":"Feature","properties":{"osm_way_id":"329699286","name":"ALDI","building":"retail","shop":"supermarket","other":{"addr:city":"Nottingham","addr:housenumber":"565","addr:postcode":"NG3 5GG","addr:street":"Woodborough Road","brand":"ALDI","brand:wikidata":"Q41171672","brand:wikipedia":"en:Aldi","fhrs:id":"656882","source:addr":"FHRS Open Data"}}, "geometry":{"type":"MultiPolygon","coordinates":[[[[-1.12984,52.98113],[-1.12972,52.98117],[-1.12935,52.98128],[-1.12954,52.98152],[-1.12973,52.98174],[-1.13022,52.98159],[-1.12984,52.98113]]]]}},
{ "type":"Feature","properties":{"osm_way_id":"334108219","name":"Heron Foods","building":"yes","shop":"supermarket","other":{"addr:city":"Nottingham","addr:housenumber":"387","addr:postcode":"NG3 3JL","addr:street":"Saint Ann's Well Road","brand":"Heron Foods","brand:wikidata":"Q5743472","brand:wikipedia":"en:Heron Foods","contact:website":"https:\/\/heronfoods.com\/storelocator\/store-details\/st-anns","fhrs:id":"707726","old_amenity":"pub","old_name":"The Westmister","source:addr":"NCC Open Data Food Hygiene"}}, "geometry":{"type":"MultiPolygon","coordinates":[[[[-1.13108,52.96494],[-1.1312,52.96498],[-1.13121,52.96496],[-1.13136,52.96501],[-1.13119,52.96521],[-1.13098,52.96515],[-1.13104,52.96507],[-1.13099,52.96505],[-1.13108,52.96494]]]]}},
{ "type":"Feature","properties":{"osm_way_id":"334210369","name":"ALDI","building":"retail","shop":"supermarket","other":{"addr:city":"Nottingham","addr:place":"Eastpoint Retail Park","addr:postcode":"NG2 3GN","addr:street":"Daleside Road","brand":"ALDI","brand:wikidata":"Q41171672","brand:wikipedia":"en:Aldi","fhrs:id":"799817","source:addr":"FHRS Open Data","start_date":"2015-11-19"}}, "geometry":{"type":"MultiPolygon","coordinates":[[[[-1.12503,52.94668],[-1.12457,52.94677],[-1.12459,52.94679],[-1.12489,52.94724],[-1.12502,52.9472],[-1.12535,52.94712],[-1.12523,52.94694],[-1.12531,52.94692],[-1.12525,52.94685],[-1.12518,52.94687],[-1.12503,52.94668]]]]}},
{ "type":"Feature","properties":{"osm_way_id":"370498911","name":"Pak Foods","building":"retail","shop":"supermarket","other":{"addr:city":"Nottingham","addr:housenumber":"152","addr:postcode":"NG2 4HJ","addr:street":"Sneinton Dale","fhrs:id":"218770","source:addr":"FHRS Open Data","source:building":"Bing;MapBox;survey"}}, "geometry":{"type":"MultiPolygon","coordinates":[[[[-1.12262,52.9537],[-1.12274,52.95377],[-1.12281,52.95374],[-1.12288,52.95379],[-1.12249,52.954],[-1.1223,52.95381],[-1.1224,52.95377],[-1.12249,52.95385],[-1.12252,52.95383],[-1.12244,52.95377],[-1.12262,52.9537]]]]}},
{ "type":"Feature","properties":{"osm_way_id":"518937683","name":"Lidl","building":"retail","shop":"supermarket","other":{"addr:city":"Nottingham","addr:housenumber":"107","addr:postcode":"NG3 2FB","addr:street":"Carlton Road","brand":"Lidl","brand:wikidata":"Q151954","brand:wikipedia":"en:Lidl","fhrs:id":"731192;962381","source:addr":"FHRS Open Data"}}, "geometry":{"type":"MultiPolygon","coordinates":[[[[-1.13258,52.95718],[-1.13263,52.95722],[-1.1328,52.95715],[-1.13218,52.95659],[-1.13233,52.95729],[-1.13258,52.95718]]]]}},
{ "type":"Feature","properties":{"osm_way_id":"616453702","name":"Lidl","building":"retail","shop":"supermarket","other":{"addr:city":"Nottingham","addr:postcode":"NG11 9LN","addr:street":"Green Lane","brand":"Lidl","brand:wikidata":"Q151954","brand:wikipedia":"en:Lidl","fhrs:id":"1024359","opening_hours":"Mo-Sa 08:00-22:00; Su 10:00-16:00","phone":"+44 8009777766"}}, "geometry":{"type":"MultiPolygon","coordinates":[[[[-1.18091,52.9039],[-1.18109,52.90333],[-1.18068,52.90329],[-1.18048,52.90391],[-1.18081,52.90395],[-1.18091,52.9039]]]]}},
{ "type":"Feature","properties":{"osm_way_id":"702493389","name":"Lidl","shop":"supermarket","other":{"addr:city":"Nottingham","addr:housename":"Unit 1 Castle Marina Retail Park","addr:housenumber":"20","addr:postcode":"NG7 1GX","addr:street":"Castle Bridge Road","brand":"Lidl","brand:wikidata":"Q151954","brand:wikipedia":"en:Lidl","fhrs:id":"1081406","ref:vatin":"GB275834273","source:addr":"NCC Planning Applications Open Data"}}, "geometry":{"type":"MultiPolygon","coordinates":[[[[-1.16128,52.94485],[-1.16094,52.94424],[-1.16052,52.94433],[-1.16059,52.94445],[-1.16061,52.94449],[-1.16085,52.94492],[-1.16111,52.94486],[-1.16112,52.94488],[-1.16128,52.94485]]]]}},
{ "type":"Feature","properties":{"osm_way_id":"800522130","name":"Asda","building":"retail","shop":"supermarket","other":{"addr:city":"Nottingham","addr:country":"GB","addr:postcode":"NG7 5FP","addr:street":"Radford Road","brand":"Asda","brand:wikidata":"Q297410","brand:wikipedia":"en:Asda","contact:facebook":"https:\/\/www.facebook.com\/asda\/","contact:phone":"+44 115 942 4300","contact:twitter":"@asda","contact:website":"https:\/\/storelocator.asda.com\/east-midlands\/nottingham\/radford-rd-hyson-green","fhrs:id":"218844;218516;1029358","layer":"1","opening_hours:covid19":"Mo-Th,Sa 08:00-22:00; Fr 08:00-20:00; Su 10:00-16:00","operator":"Asda Stores Ltd","source:addr":"NCC Open Data"}}, "geometry":{"type":"MultiPolygon","coordinates":[[[[-1.17062,52.96717],[-1.17058,52.96712],[-1.17054,52.96706],[-1.17062,52.96704],[-1.17054,52.96692],[-1.17047,52.96694],[-1.17027,52.96662],[-1.17039,52.96659],[-1.17028,52.96643],[-1.17028,52.96643],[-1.17019,52.96645],[-1.17023,52.96651],[-1.16959,52.96664],[-1.16954,52.96655],[-1.16919,52.96663],[-1.16917,52.96661],[-1.16916,52.96659],[-1.16879,52.96667],[-1.16889,52.96683],[-1.16887,52.96683],[-1.16872,52.96687],[-1.16878,52.96696],[-1.16872,52.96697],[-1.16874,52.96701],[-1.16894,52.96733],[-1.16911,52.9673],[-1.16923,52.96748],[-1.17062,52.96717]]]]}},
{ "type":"Feature","properties":{"osm_way_id":"805574571","name":"Aldi","building":"yes","shop":"supermarket","other":{"addr:city":"Nottingham","addr:postcode":"NG8 6PZ","addr:street":"Lawrence Drive","brand":"ALDI","brand:wikidata":"Q41171672","brand:wikipedia":"en:Aldi","payment:american_express":"yes","payment:coins":"yes","payment:contactless":"yes","payment:jcb":"yes","payment:maestro":"yes","payment:mastercard":"yes","payment:notes":"yes","payment:visa":"yes","payment:visa_debit":"yes","payment:visa_electron":"yes"}}, "geometry":{"type":"MultiPolygon","coordinates":[[[[-1.2374,52.97993],[-1.23747,52.9801],[-1.2375,52.9801],[-1.23754,52.98009],[-1.23758,52.98019],[-1.23667,52.98032],[-1.23656,52.98005],[-1.2374,52.97993]]]]}},
{ "type":"Feature","properties":{"osm_way_id":"859851557","building":"yes","other":{"source:building":"Bing"}}, "geometry":{"type":"MultiPolygon","coordinates":[[[[-1.15563,52.97754],[-1.15555,52.97755],[-1.15554,52.97752],[-1.15562,52.97751],[-1.15563,52.97754]]]]}},
{ "type":"Feature","properties":{"osm_way_id":"998702835","name":"Lidl","building":"supermarket","shop":"supermarket","other":{"addr:city":"Nottingham","addr:country":"GB","addr:postcode":"NG6 8EQ","addr:street":"Jennison Street","brand":"Lidl","brand:wikidata":"Q151954","brand:wikipedia":"en:Lidl","fhrs:id":"1000182","survey:date":"2020-02-12"}}, "geometry":{"type":"MultiPolygon","coordinates":[[[[-1.19404,53.00446],[-1.1931,53.00408],[-1.1932,53.00398],[-1.19327,53.00401],[-1.19339,53.00391],[-1.19426,53.00426],[-1.19404,53.00446]]]]}}
]
}
