{
"type": "FeatureCollection",
"features": [
{ "type":"Feature","properties":{"osm_way_id":"121199825","building":"warehouse"},"geometry":{"type":"MultiPolygon","coordinates":[[[[-0.15672,50.83262],[-0.15539,50.8325],[-0.15543,50.83232],[-0.15676,50.83245],[-0.15672,50.83262]]]]}},
{ "type":"Feature","properties":{"osm_way_id":"150215904","building":"warehouse"},"geometry":{"type":"MultiPolygon","coordinates":[[[[-0.20165,50.82725],[-0.20244,50.82735],[-0.20247,50.82725],[-0.20168,50.82715],[-0.20165,50.82725]]]]}},
{ "type":"Feature","properties":{"osm_way_id":"150215914","name":"Quayside House","building":"warehouse"},"geometry":{"type":"MultiPolygon","coordinates":[[[[-0.20369,50.82724],[-0.20377,50.82696],[-0.20327,50.82691],[-0.20319,50.82718],[-0.20369,50.82724]]]]}},
{ "type":"Feature","properties":{"osm_way_id":"150215942","building":"warehouse"},"geometry":{"type":"MultiPolygon","coordinates":[[[[-0.20195,50.827],[-0.20201,50.82677],[-0.20171,50.82673],[-0.20164,50.82696],[-0.20195,50.827]]]]}},
{ "type":"Feature","properties":{"osm_way_id":"150215969","building":"warehouse"},"geometry":{"type":"MultiPolygon","coordinates":[[[[-0.20345,50.82743],[-0.20346,50.82735],[-0.20372,50.82737],[-0.2037,50.82745],[-0.20345,50.82743]]]]}},
{ "type":"Feature","properties":{"osm_way_id":"234077520","name":"StorageMart","building":"warehouse","shop":"storage_rental","other":{"addr:street":"Stevenson Road","website":"https:\/\/www.storage-mart.com\/en-gb\/sussex\/east-sussex\/brighton\/stevenson-rd"}}, "geometry":{"type":"MultiPolygon","coordinates":[[[[-0.12314,50.8232],[-0.123,50.82317],[-0.12304,50.82312],[-0.12271,50.82303],[-0.12268,50.82308],[-0.12262,50.82306],[-0.12238,50.82339],[-0.12241,50.8234],[-0.12233,50.82351],[-0.12258,50.82358],[-0.12257,50.8236],[-0.12265,50.82362],[-0.12266,50.8236],[-0.12282,50.82363],[-0.12314,50.8232]]]]}},
{ "type":"Feature","properties":{"osm_way_id":"413369682","name":"FairShare Sussex","building":"warehouse","other":{"addr:city":"Brighton","addr:housename":"Units 3-4","addr:housenumber":"Fairway Business Park","addr:postcode":"BN2 4JZ","addr:street":"Westergate Road","building:levels":"2","email":"fssussex@fareshare.org.uk","height":"6","phone":"+44 1273 671111"}}, "geometry":{"type":"MultiPolygon","coordinates":[[[[-0.107,50.85182],[-0.10723,50.85178],[-0.10724,50.85179],[-0.10728,50.85189],[-0.10704,50.85193],[-0.107,50.85182]]]]}},
{ "type":"Feature","properties":{"osm_way_id":"608449564","name":"George Rose","building":"warehouse","other":{"addr:city":"Brighton","addr:housename":"Fairway Business Park","addr:housenumber":"Unit 5 & 6","addr:postcode":"BN2 4JZ","addr:street":"Westergate Road","building:levels":"2","height":"6","phone":"+44 1273 697231"}}, "geometry":{"type":"MultiPolygon","coordinates":[[[[-0.10729,50.85191],[-0.1075,50.85187],[-0.10746,50.85178],[-0.10745,50.85176],[-0.10724,50.85179],[-0.10729,50.85191]]]]}},
{ "type":"Feature","properties":{"osm_way_id":"608449565","name":"FairShare","building":"warehouse","other":{"addr:city":"Brighton","addr:housename":"Fairway Business Park","addr:street":"Westergate Road","building:levels":"2","height":"6"}}, "geometry":{"type":"MultiPolygon","coordinates":[[[[-0.10767,50.85197],[-0.10755,50.85199],[-0.1075,50.85188],[-0.10762,50.85186],[-0.10767,50.85197]]]]}},
{ "type":"Feature","properties":{"osm_way_id":"615624081","name":"Covaris","building":"warehouse","other":{"website":"https:\/\/covaris.com\/applications\/dnarna-shearing-for-ngs\/"}}, "geometry":{"type":"MultiPolygon","coordinates":[[[[-0.07406,50.83894],[-0.07401,50.83884],[-0.07382,50.83888],[-0.07387,50.83898],[-0.07406,50.83894]]]]}},
{ "type":"Feature","properties":{"osm_way_id":"935487226","building":"warehouse"},"geometry":{"type":"MultiPolygon","coordinates":[[[[-3.16252,55.82368],[-3.16232,55.82371],[-3.16228,55.82363],[-3.16248,55.82359],[-3.16252,55.82368]]]]}}
]
}
