{
"type": "FeatureCollection",
"features": [
{ "type":"Feature","properties":{"osm_way_id":"35771022","name":"Chippenham Delivery Office","amenity":"post_depot","building":"warehouse","other":{"addr:city":"Chippenham","addr:postcode":"SN14 6EX","addr:street":"Bumpers Way","operator":"Royal Mail"}}, "geometry":{"type":"MultiPolygon","coordinates":[[[[-2.14382,51.46499],[-2.14404,51.46465],[-2.14448,51.46476],[-2.14426,51.4651],[-2.14382,51.46499]]]]}},
{ "type":"Feature","properties":{"osm_way_id":"142767545","building":"warehouse","other":{"addr:housenumber":"115"}}, "geometry":{"type":"MultiPolygon","coordinates":[[[[-1.78455,51.0663],[-1.78454,51.06633],[-1.78428,51.06628],[-1.78429,51.06624],[-1.78432,51.0662],[-1.78384,51.06611],[-1.78393,51.0659],[-1.7849,51.06608],[-1.78494,51.066],[-1.78546,51.0661],[-1.78538,51.06626],[-1.78528,51.06625],[-1.78523,51.06635],[-1.78513,51.06633],[-1.7851,51.0664],[-1.78455,51.0663]]]]}},
{ "type":"Feature","properties":{"osm_way_id":"143542504","building":"warehouse"},"geometry":{"type":"MultiPolygon","coordinates":[[[[-1.71956,51.03507],[-1.71931,51.03509],[-1.71921,51.03458],[-1.71945,51.03456],[-1.71956,51.03507]]]]}},
{ "type":"Feature","properties":{"osm_way_id":"143542509","building":"warehouse"},"geometry":{"type":"MultiPolygon","coordinates":[[[[-1.71872,51.03525],[-1.71857,51.03463],[-1.71887,51.0346],[-1.71902,51.03522],[-1.71872,51.03525]]]]}},
{ "type":"Feature","properties":{"osm_way_id":"143542511","building":"warehouse"},"geometry":{"type":"MultiPolygon","coordinates":[[[[-1.71926,51.03555],[-1.71879,51.0356],[-1.71874,51.03541],[-1.71921,51.03536],[-1.71926,51.03555]]]]}},
{ "type":"Feature","properties":{"osm_way_id":"143542512","building":"warehouse"},"geometry":{"type":"MultiPolygon","coordinates":[[[[-1.72015,51.03524],[-1.71937,51.03551],[-1.71922,51.03535],[-1.72001,51.03507],[-1.72015,51.03524]]]]}},
{ "type":"Feature","properties":{"osm_way_id":"166184150","name":"Homebase","building":"warehouse","other":{"not:shop":"diy"}}, "geometry":{"type":"MultiPolygon","coordinates":[[[[-1.85658,51.5487],[-1.85662,51.54872],[-1.85663,51.54871],[-1.8579,51.54914],[-1.85628,51.55096],[-1.85502,51.55053],[-1.85505,51.5505],[-1.85442,51.55029],[-1.85503,51.54959],[-1.85566,51.54981],[-1.85649,51.54887],[-1.85644,51.54886],[-1.85658,51.5487]]]]}},
{ "type":"Feature","properties":{"osm_way_id":"166184152","name":"National Self-Build and Renovation Centre","building":"warehouse","other":{"addr:postcode":"SN5 8UB"}}, "geometry":{"type":"MultiPolygon","coordinates":[[[[-1.85309,51.54817],[-1.85459,51.54868],[-1.8542,51.54912],[-1.8527,51.54861],[-1.85309,51.54817]]]]}},
{ "type":"Feature","properties":{"osm_way_id":"183307188","building":"warehouse"},"geometry":{"type":"MultiPolygon","coordinates":[[[[-2.11066,51.52744],[-2.11026,51.52737],[-2.11016,51.52751],[-2.11004,51.52748],[-2.11012,51.52734],[-2.10993,51.52729],[-2.11024,51.52661],[-2.1108,51.52669],[-2.11074,51.52681],[-2.11098,51.52686],[-2.11066,51.52744]]]]}},
{ "type":"Feature","properties":{"osm_way_id":"220106022","building":"warehouse"},"geometry":{"type":"MultiPolygon","coordinates":[[[[-2.26076,51.36737],[-2.26022,51.36747],[-2.26014,51.3673],[-2.26068,51.3672],[-2.26076,51.36737]]]]}},
{ "type":"Feature","properties":{"osm_way_id":"243231133","building":"warehouse","other":{"addr:city":"Marlborough","addr:housename":"Farmoor Court","addr:housenumber":"4","addr:street":"Marlborough Business Park"}}, "geometry":{"type":"MultiPolygon","coordinates":[[[[-1.7192,51.41503],[-1.71936,51.415],[-1.71944,51.41517],[-1.71927,51.4152],[-1.7192,51.41503]]]]}},
{ "type":"Feature","properties":{"osm_way_id":"243231137","building":"warehouse","other":{"addr:city":"Marlborough","addr:housename":"Glympton Court","addr:housenumber":"7","addr:street":"Marlborough Business Park"}}, "geometry":{"type":"MultiPolygon","coordinates":[[[[-1.72006,51.41488],[-1.72022,51.41486],[-1.7203,51.41505],[-1.72013,51.41508],[-1.72006,51.41488]]]]}},
{ "type":"Feature","properties":{"osm_way_id":"260420528","name":"SCC Transport","building":"warehouse","other":{"addr:city":"Devizes","addr:street":"Folly Road","building:levels":"1","roof:shape":"gabled"}}, "geometry":{"type":"MultiPolygon","coordinates":[[[[-1.9753,51.3624],[-1.97509,51.36234],[-1.97535,51.36202],[-1.97526,51.36199],[-1.97557,51.36162],[-1.97562,51.36164],[-1.97564,51.36161],[-1.9757,51.36158],[-1.97574,51.36156],[-1.97577,51.36154],[-1.97588,51.36148],[-1.97593,51.36145],[-1.97601,51.3615],[-1.97583,51.36171],[-1.97589,51.36173],[-1.97558,51.36211],[-1.97555,51.3621],[-1.9753,51.3624]]]]}},
{ "type":"Feature","properties":{"osm_way_id":"260428786","name":"LUX Group Holdings","building":"warehouse","other":{"addr:city":"Devizes","addr:street":"Hopton Road","roof:shape":"gabled"}}, "geometry":{"type":"MultiPolygon","coordinates":[[[[-1.97107,51.36607],[-1.97042,51.36635],[-1.97002,51.36599],[-1.97067,51.36571],[-1.97107,51.36607]]]]}},
{ "type":"Feature","properties":{"osm_way_id":"262217835","building":"warehouse"},"geometry":{"type":"MultiPolygon","coordinates":[[[[-2.19554,51.21491],[-2.19546,51.21474],[-2.19454,51.2149],[-2.19463,51.21508],[-2.19554,51.21491]]]]}},
{ "type":"Feature","properties":{"osm_way_id":"262217836","building":"warehouse"},"geometry":{"type":"MultiPolygon","coordinates":[[[[-2.19444,51.21474],[-2.19359,51.21489],[-2.19352,51.21471],[-2.19436,51.21456],[-2.19444,51.21474]]]]}},
{ "type":"Feature","properties":{"osm_way_id":"262217837","building":"warehouse"},"geometry":{"type":"MultiPolygon","coordinates":[[[[-2.19464,51.21469],[-2.1954,51.21455],[-2.1953,51.21438],[-2.19456,51.2145],[-2.19464,51.21469]]]]}},
{ "type":"Feature","properties":{"osm_way_id":"262217838","building":"warehouse"},"geometry":{"type":"MultiPolygon","coordinates":[[[[-2.19523,51.21412],[-2.19454,51.21424],[-2.19448,51.2141],[-2.19453,51.21409],[-2.19452,51.21405],[-2.19515,51.21395],[-2.19523,51.21412]]]]}},
{ "type":"Feature","properties":{"osm_way_id":"360795617","building":"warehouse"},"geometry":{"type":"MultiPolygon","coordinates":[[[[-2.12946,51.48662],[-2.12893,51.4866],[-2.12898,51.48615],[-2.12941,51.48617],[-2.1294,51.48629],[-2.1295,51.48629],[-2.12946,51.48662]]]]}},
{ "type":"Feature","properties":{"osm_way_id":"466420966","name":"Bldg 409","building":"warehouse"},"geometry":{"type":"MultiPolygon","coordinates":[[[[-2.2134,51.4211],[-2.21326,51.42116],[-2.21337,51.42124],[-2.2135,51.42119],[-2.2134,51.4211]]]]}},
{ "type":"Feature","properties":{"osm_way_id":"672489548","building":"warehouse","other":{"addr:city":"Salisbury","addr:flats":"1-4","addr:housename":"St Mary's Court","addr:street":"Coldharbour Lane","building:levels":"3","building:use":"apartments"}}, "geometry":{"type":"MultiPolygon","coordinates":[[[[-1.80453,51.07467],[-1.80435,51.07475],[-1.8043,51.07469],[-1.80448,51.07462],[-1.80453,51.07467]]]]}},
{ "type":"Feature","properties":{"osm_way_id":"837434429","building":"warehouse","other":{"addr:city":"Marlborough","addr:housename":"Farmoor Court","addr:housenumber":"1","addr:street":"Marlborough Business Park"}}, "geometry":{"type":"MultiPolygon","coordinates":[[[[-1.71966,51.41495],[-1.71984,51.41493],[-1.7199,51.4151],[-1.71972,51.41512],[-1.71966,51.41495]]]]}},
{ "type":"Feature","properties":{"osm_way_id":"837434430","building":"warehouse","other":{"addr:city":"Marlborough","addr:housename":"Farmoor Court","addr:housenumber":"2","addr:street":"Marlborough Business Park"}}, "geometry":{"type":"MultiPolygon","coordinates":[[[[-1.71951,51.41498],[-1.71966,51.41495],[-1.71972,51.41512],[-1.71958,51.41515],[-1.71951,51.41498]]]]}},
{ "type":"Feature","properties":{"osm_way_id":"837434431","building":"warehouse","other":{"addr:city":"Marlborough","addr:housename":"Farmoor Court","addr:housenumber":"3","addr:street":"Marlborough Business Park"}}, "geometry":{"type":"MultiPolygon","coordinates":[[[[-1.71936,51.415],[-1.71951,51.41498],[-1.71958,51.41515],[-1.71944,51.41517],[-1.71936,51.415]]]]}},
{ "type":"Feature","properties":{"osm_way_id":"837434432","building":"warehouse","other":{"addr:city":"Marlborough","addr:housename":"Glympton Court","addr:housenumber":"1","addr:street":"Marlborough Business Park"}}, "geometry":{"type":"MultiPolygon","coordinates":[[[[-1.72112,51.41473],[-1.72131,51.4147],[-1.72138,51.41489],[-1.7212,51.41492],[-1.72112,51.41473]]]]}},
{ "type":"Feature","properties":{"osm_way_id":"837434433","building":"warehouse","other":{"addr:city":"Marlborough","addr:housename":"Glympton Court","addr:housenumber":"2","addr:street":"Marlborough Business Park"}}, "geometry":{"type":"MultiPolygon","coordinates":[[[[-1.72094,51.41476],[-1.72112,51.41473],[-1.7212,51.41492],[-1.72101,51.41495],[-1.72094,51.41476]]]]}},
{ "type":"Feature","properties":{"osm_way_id":"837434436","building":"warehouse","other":{"addr:city":"Marlborough","addr:housename":"Glympton Court","addr:housenumber":"5","addr:street":"Marlborough Business Park"}}, "geometry":{"type":"MultiPolygon","coordinates":[[[[-1.72041,51.41483],[-1.72058,51.41481],[-1.72065,51.415],[-1.72048,51.41503],[-1.72041,51.41483]]]]}},
{ "type":"Feature","properties":{"osm_way_id":"837434437","building":"warehouse","other":{"addr:city":"Marlborough","addr:housename":"Glympton Court","addr:housenumber":"6","addr:street":"Marlborough Business Park"}}, "geometry":{"type":"MultiPolygon","coordinates":[[[[-1.72022,51.41486],[-1.72041,51.41483],[-1.72048,51.41503],[-1.7203,51.41505],[-1.72022,51.41486]]]]}},
{ "type":"Feature","properties":{"osm_way_id":"846359638","name":"The Longhouse","building":"warehouse"},"geometry":{"type":"MultiPolygon","coordinates":[[[[-2.27861,51.18726],[-2.27838,51.18739],[-2.27795,51.18708],[-2.278,51.18705],[-2.27796,51.18702],[-2.27805,51.18697],[-2.27814,51.18692],[-2.27824,51.18699],[-2.2785,51.18718],[-2.27861,51.18726]]]]}},
{ "type":"Feature","properties":{"osm_way_id":"897914758","name":"Professional Books","building":"warehouse","office":"yes","other":{"addr:city":"Devizes","addr:housename":"Old Kingdom Hall","addr:street":"Avon Terrace","building:levels":"1","roof:shape":"gabled"}}, "geometry":{"type":"MultiPolygon","coordinates":[[[[-2.00096,51.35509],[-2.00103,51.35501],[-2.00101,51.355],[-2.00103,51.35498],[-2.00092,51.35495],[-2.00091,51.35497],[-2.00089,51.35497],[-2.00087,51.35499],[-2.00083,51.35498],[-2.00079,51.35504],[-2.00082,51.35505],[-2.00082,51.35505],[-2.00096,51.35509]]]]}},
{ "type":"Feature","properties":{"osm_way_id":"897914765","building":"warehouse"},"geometry":{"type":"MultiPolygon","coordinates":[[[[-2.00105,51.35466],[-2.001,51.3546],[-2.00091,51.35464],[-2.00096,51.35469],[-2.00105,51.35466]]]]}},
{ "type":"Feature","properties":{"osm_way_id":"899858420","name":"Henry Aldridge & Son","building":"warehouse","other":{"addr:city":"Devizes","addr:housename":"1 Bath Road Business Centre","addr:street":"Bath Road","building:levels":"1","roof:shape":"gabled"}}, "geometry":{"type":"MultiPolygon","coordinates":[[[[-2.01533,51.35146],[-2.01517,51.35117],[-2.01497,51.35121],[-2.015,51.35126],[-2.01482,51.3513],[-2.01493,51.3515],[-2.01506,51.35147],[-2.01508,51.35152],[-2.01533,51.35146]]]]}},
{ "type":"Feature","properties":{"osm_way_id":"899858421","name":"Mercer Holdings","building":"warehouse","other":{"addr:city":"Devizes","addr:housename":"9a Bath Road Business Centre","addr:street":"Bath Road","building:levels":"1","roof:shape":"gabled"}}, "geometry":{"type":"MultiPolygon","coordinates":[[[[-2.01485,51.35123],[-2.01496,51.3512],[-2.01492,51.35114],[-2.01481,51.35117],[-2.01485,51.35123]]]]}},
{ "type":"Feature","properties":{"osm_way_id":"899858422","name":"Arthur Wombat's Emporium","building":"warehouse","other":{"addr:city":"Devizes","addr:housename":"11 Bath Road Business Centre","addr:street":"Bath Road","building:levels":"1","roof:shape":"gabled"}}, "geometry":{"type":"MultiPolygon","coordinates":[[[[-2.0153,51.35112],[-2.01523,51.351],[-2.01505,51.35104],[-2.01511,51.35116],[-2.0153,51.35112]]]]}},
{ "type":"Feature","properties":{"osm_way_id":"903067197","building":"warehouse"},"geometry":{"type":"MultiPolygon","coordinates":[[[[-1.99088,51.35173],[-1.99085,51.35168],[-1.99059,51.35174],[-1.99047,51.35175],[-1.99051,51.35183],[-1.99068,51.35181],[-1.99083,51.35177],[-1.99082,51.35174],[-1.99088,51.35173]]]]}},
{ "type":"Feature","properties":{"osm_way_id":"906230715","building":"warehouse"},"geometry":{"type":"MultiPolygon","coordinates":[[[[-1.9938,51.35284],[-1.99374,51.35277],[-1.99385,51.35273],[-1.99391,51.3528],[-1.9938,51.35284]]]]}},
{ "type":"Feature","properties":{"osm_way_id":"906606575","name":"M Godding Books","building":"warehouse","other":{"addr:housename":"1b Bath Road Business Centre","building:levels":"1","roof:shape":"gabled"}}, "geometry":{"type":"MultiPolygon","coordinates":[[[[-2.01482,51.3513],[-2.01479,51.35125],[-2.01497,51.35121],[-2.015,51.35126],[-2.01482,51.3513]]]]}},
{ "type":"Feature","properties":{"osm_way_id":"906606576","name":"The Beehive","building":"warehouse","other":{"addr:city":"Devizes","addr:housename":"9b Bath Road Business Centre","addr:street":"Bath Road","building:levels":"1","roof:shape":"gabled"}}, "geometry":{"type":"MultiPolygon","coordinates":[[[[-2.01492,51.35114],[-2.01489,51.35108],[-2.01479,51.35111],[-2.01478,51.35112],[-2.01481,51.35117],[-2.01492,51.35114]]]]}},
{ "type":"Feature","properties":{"osm_way_id":"906606577","name":"Thus","building":"warehouse","other":{"addr:city":"Devizes","addr:housename":"6 Bath Road Business Centre","addr:street":"Bath Road","building:levels":"1","roof:shape":"gabled"}}, "geometry":{"type":"MultiPolygon","coordinates":[[[[-2.01568,51.35129],[-2.01582,51.35125],[-2.0158,51.35123],[-2.01587,51.35121],[-2.01592,51.35131],[-2.01586,51.35132],[-2.01586,51.35131],[-2.01571,51.35134],[-2.01568,51.35129]]]]}},
{ "type":"Feature","properties":{"osm_way_id":"906606578","name":"Exalon Care Homes","building":"warehouse","other":{"addr:city":"Devizes","addr:housename":"5 Bath Road Business Centre","addr:street":"Bath Road","building:levels":"1","roof:shape":"gabled"}}, "geometry":{"type":"MultiPolygon","coordinates":[[[[-2.01561,51.35137],[-2.01566,51.35148],[-2.01577,51.35145],[-2.01571,51.35134],[-2.01568,51.35129],[-2.01557,51.35131],[-2.01561,51.35137]]]]}},
{ "type":"Feature","properties":{"osm_way_id":"906606583","name":"The Wharf Theatre","building":"warehouse","other":{"addr:city":"Devizes","addr:housename":"2 Bath Road Business Centre","addr:street":"Bath Road","building:levels":"1","roof:shape":"gabled"}}, "geometry":{"type":"MultiPolygon","coordinates":[[[[-2.01535,51.35138],[-2.0154,51.35146],[-2.0155,51.35144],[-2.01545,51.35136],[-2.01535,51.35138]]]]}},
{ "type":"Feature","properties":{"osm_way_id":"960893581","building":"warehouse"},"geometry":{"type":"MultiPolygon","coordinates":[[[[-1.85303,51.58335],[-1.85301,51.58302],[-1.85288,51.5829],[-1.85282,51.58292],[-1.85282,51.58298],[-1.85274,51.58305],[-1.85238,51.58307],[-1.85196,51.5832],[-1.85214,51.58342],[-1.85303,51.58335]]]]}},
{ "type":"Feature","properties":{"osm_way_id":"977366788","building":"warehouse","other":{"building:levels":"1","roof:shape":"flat"}}, "geometry":{"type":"MultiPolygon","coordinates":[[[[-1.97659,51.36203],[-1.97663,51.36198],[-1.97591,51.36175],[-1.97587,51.3618],[-1.97659,51.36203]]]]}},
{ "type":"Feature","properties":{"osm_way_id":"977366789","building":"warehouse","other":{"building:levels":"1","roof:shape":"flat"}}, "geometry":{"type":"MultiPolygon","coordinates":[[[[-1.97623,51.3621],[-1.97627,51.36205],[-1.97633,51.36207],[-1.97637,51.36202],[-1.97582,51.36184],[-1.97574,51.36193],[-1.97623,51.3621]]]]}},
{ "type":"Feature","properties":{"osm_way_id":"977366790","building":"warehouse","other":{"building:levels":"1","roof:shape":"flat"}}, "geometry":{"type":"MultiPolygon","coordinates":[[[[-1.97595,51.36219],[-1.97599,51.36214],[-1.97606,51.36216],[-1.97609,51.36211],[-1.9757,51.36198],[-1.97562,51.36208],[-1.97595,51.36219]]]]}},
{ "type":"Feature","properties":{"osm_way_id":"983130245","building":"warehouse"},"geometry":{"type":"MultiPolygon","coordinates":[[[[-2.11476,51.51351],[-2.11368,51.51358],[-2.11351,51.51244],[-2.11458,51.51237],[-2.11476,51.51351]]]]}},
{ "type":"Feature","properties":{"osm_way_id":"1039278360","building":"warehouse"},"geometry":{"type":"MultiPolygon","coordinates":[[[[-4.61256,50.67643],[-4.6123,50.67621],[-4.6125,50.67611],[-4.61256,50.67615],[-4.6126,50.67613],[-4.61276,50.67626],[-4.61271,50.67628],[-4.61277,50.67632],[-4.61256,50.67643]]]]}}
]
}
