{
"type": "FeatureCollection",
"features": [
{ "type":"Feature","properties":{"osm_id":"300612033","name":"M&S Foodhall","other":{"addr:city":"Beckenham","addr:housenumber":"44","addr:postcode":"BR3 1AY","addr:street":"High Street","brand":"M&S Foodhall","brand:wikidata":"Q714491","brand:wikipedia":"en:Marks & Spencer","fhrs:authority":"Bromley","fhrs:id":"357229","operator":"Marks & Spencer","shop":"supermarket"}}, "geometry":{"type":"Point","coordinates":[-0.02539,51.40933 ]}},
{ "type":"Feature","properties":{"osm_id":"313074689","name":"Lidl","other":{"addr:city":"Orpington","addr:country":"GB","addr:housenumber":"168","addr:postcode":"BR5 3AE","addr:street":"Sevenoaks Way","brand":"Lidl","brand:wikidata":"Q151954","brand:wikipedia":"en:Lidl","fhrs:id":"1450625","opening_hours":"Mo-Sa 08:00-22:00; Su 10:00-16:00","shop":"supermarket"}}, "geometry":{"type":"Point","coordinates":[0.11247,51.3992 ]}},
{ "type":"Feature","properties":{"osm_id":"420729590","name":"Tesco Express","other":{"addr:city":"Bromley","addr:housenumber":"3 - 5","addr:postcode":"BR1 1LF","addr:street":"High Street","brand":"Tesco Express","brand:wikidata":"Q98456772","brand:wikipedia":"en:Tesco","contact:website":"https:\/\/www.tesco.com\/store-locator\/bromley\/3-5-high-st","fhrs:id":"595504","name:fa":"تسکو اکسپرس","shop":"supermarket","source:addr":"FHRS Open Data","toilets":"no"}}, "geometry":{"type":"Point","coordinates":[0.01723,51.40044 ]}},
{ "type":"Feature","properties":{"osm_id":"420738697","name":"Lidl","other":{"addr:country":"GB","addr:housenumber":"124,126","addr:postcode":"BR1 1DW","addr:street":"High Street","brand":"Lidl","brand:wikidata":"Q151954","brand:wikipedia":"en:Lidl","fhrs:id":"1094617","shop":"supermarket","survey:date":"2019-03-05"}}, "geometry":{"type":"Point","coordinates":[0.01488,51.40384 ]}},
{ "type":"Feature","properties":{"osm_id":"425907411","name":"Co-operative food","other":{"shop":"supermarket"}}, "geometry":{"type":"Point","coordinates":[0.034,51.39324 ]}},
{ "type":"Feature","properties":{"osm_id":"456384027","name":"Lidl","other":{"addr:city":"Beckenham","addr:housenumber":"135","addr:postcode":"BR3 1AG","addr:street":"High Street","brand":"Lidl","brand:wikidata":"Q151954","fhrs:id":"358212","phone":"+44 870 444 1234","shop":"supermarket","source:addr":"FHRS Open Data","website":"https:\/\/www.lidl.co.uk\/"}}, "geometry":{"type":"Point","coordinates":[-0.02816,51.40663 ]}},
{ "type":"Feature","properties":{"osm_id":"689563111","name":"Sainsbury's","other":{"addr:city":"Beckenham","addr:housenumber":"181","addr:postcode":"BR3 1AH","addr:street":"High Street","brand":"Sainsbury's","brand:wikidata":"Q152096","contact:website":"https:\/\/stores.sainsburys.co.uk\/0228\/beckenham","shop":"supermarket"}}, "geometry":{"type":"Point","coordinates":[-0.03063,51.40596 ]}},
{ "type":"Feature","properties":{"osm_id":"693728392","name":"Co-operative Food","other":{"atm":"yes","opening_hours":"Mo-Su 07:00-22:00","shop":"supermarket"}}, "geometry":{"type":"Point","coordinates":[-0.05774,51.40626 ]}},
{ "type":"Feature","properties":{"osm_id":"2117212891","name":"Iceland","other":{"addr:city":"Bromley","addr:place":"The Mall","addr:postcode":"BR1 1TR","addr:unit":"1 - 5","brand":"Iceland","brand:wikidata":"Q721810","fhrs:id":"478690","shop":"supermarket","source:addr":"FHRS Open Data"}}, "geometry":{"type":"Point","coordinates":[0.0173,51.40265 ]}},
{ "type":"Feature","properties":{"osm_id":"3261542724","name":"Cook","other":{"opening_hours":"Mo-Sa 09:00-17:00; Su 10:30-16:00","shop":"supermarket"}}, "geometry":{"type":"Point","coordinates":[0.00113,51.39204 ]}},
{ "type":"Feature","properties":{"osm_id":"4040270642","name":"Sainsbury's","other":{"addr:city":"Orpington","addr:postcode":"BR6 8NZ","addr:street":"Pallant Way","brand:wikidata":"Q152096","fhrs:id":"357856","internet_access":"wlan","opening_hours":"Mo-Th, Sa 07:00-22:00; Fr 07:00-23:00; Su 10:00-16:00","shop":"supermarket"}}, "geometry":{"type":"Point","coordinates":[0.05538,51.36594 ]}},
{ "type":"Feature","properties":{"osm_id":"4221818850","name":"Mega Saver","other":{"addr:city":"Penge","addr:housenumber":"183–189","addr:street":"High Street","brand":"Mega Saver","opening_hours":"Mo-Su 08:00-20:00","shop":"supermarket"}}, "geometry":{"type":"Point","coordinates":[-0.05129,51.41364 ]}},
{ "type":"Feature","properties":{"osm_id":"4221856326","name":"Penge Food Centre","other":{"addr:city":"Penge","addr:street":"High Street","shop":"supermarket"}}, "geometry":{"type":"Point","coordinates":[-0.05105,51.41325 ]}},
{ "type":"Feature","properties":{"osm_id":"5910469867","name":"Co-op Food","other":{"brand":"Co-op Food","brand:wikidata":"Q3277439","brand:wikipedia":"en:Co-op Food","shop":"supermarket"}}, "geometry":{"type":"Point","coordinates":[0.00109,51.36964 ]}},
{ "type":"Feature","properties":{"osm_id":"6262853669","name":"ALDI","other":{"addr:city":"Orpington","addr:postcode":"BR5 3SG","addr:street":"Sevenoaks Way","addr:unit":"Unit 5","brand":"ALDI","brand:wikidata":"Q41171672","brand:wikipedia":"en:Aldi","fhrs:id":"1422870","shop":"supermarket","website":"https:\/\/www.aldi.co.uk\/store\/s-uk-E1541"}}, "geometry":{"type":"Point","coordinates":[0.11428,51.39878 ]}},
{ "type":"Feature","properties":{"osm_id":"6394834767","name":"Co-op","other":{"addr:city":"Orpington","addr:housenumber":"13-14","addr:postcode":"BR6 0JB","addr:street":"Carlton Parade","fhrs:id":"357695","shop":"supermarket","source:addr":"FHRS Open Data"}}, "geometry":{"type":"Point","coordinates":[0.10727,51.38252 ]}},
{ "type":"Feature","properties":{"osm_id":"6403161209","name":"Krishna's","other":{"addr:city":"Orpington","addr:housenumber":"158-160","addr:postcode":"BR6 0JR","addr:street":"High Street","fhrs:id":"1358680","shop":"supermarket"}}, "geometry":{"type":"Point","coordinates":[0.10087,51.37807 ]}},
{ "type":"Feature","properties":{"osm_id":"6410355193","name":"Iceland","other":{"addr:city":"Orpington","addr:housenumber":"157-159","addr:postcode":"BR6 0LN","addr:street":"High Street","brand":"Iceland","brand:wikidata":"Q721810","fhrs:id":"357790","shop":"supermarket","source:addr":"FHRS Open Data"}}, "geometry":{"type":"Point","coordinates":[0.10084,51.37751 ]}},
{ "type":"Feature","properties":{"osm_id":"7098743790","name":"Co-Op","other":{"shop":"supermarket"}}, "geometry":{"type":"Point","coordinates":[-0.03831,51.39164 ]}},
{ "type":"Feature","properties":{"osm_id":"8478303117","name":"Londis","other":{"brand":"Londis","brand:wikidata":"Q21008564","brand:wikipedia":"en:Londis (United Kingdom)","shop":"supermarket"}}, "geometry":{"type":"Point","coordinates":[0.001,51.36929 ]}},
{ "type":"Feature","properties":{"osm_id":"9386120544","name":"M&S Foodhall","other":{"brand":"M&S Foodhall","brand:wikidata":"Q714491","brand:wikipedia":"en:Marks & Spencer","shop":"supermarket"}}, "geometry":{"type":"Point","coordinates":[0.11295,51.39364 ]}},
{ "type":"Feature","properties":{"osm_id":"9594279786","name":"Budgens","other":{"addr:city":"Bromley","addr:housenumber":"209-211","addr:postcode":"BR2 8AR","addr:street":"Southborough Lane","addr:suburb":"Bickley","fhrs:id":"358605","fhrs:local_authority_id":"10\/00387\/MIXED","level":"0","shop":"supermarket"}}, "geometry":{"type":"Point","coordinates":[0.04991,51.39017 ]}},
{ "type":"Feature","properties":{"osm_way_id":"11846131","name":"Waitrose","building":"retail","shop":"supermarket","other":{"addr:city":"Bromley","addr:housenumber":"45","addr:postcode":"BR2 9HD","addr:street":"Masons Hill","brand":"Waitrose","brand:wikidata":"Q771734","brand:wikipedia":"en:Waitrose & Partners","fhrs:id":"357480","operator":"Waitrose & Partners","source:addr":"FHRS Open Data"}}, "geometry":{"type":"MultiPolygon","coordinates":[[[[0.01868,51.39894],[0.01941,51.39875],[0.01941,51.39874],[0.0196,51.3987],[0.01968,51.39882],[0.01966,51.39882],[0.01977,51.39901],[0.01987,51.39898],[0.01997,51.39914],[0.01971,51.39921],[0.01967,51.39916],[0.0192,51.39928],[0.01918,51.39925],[0.019,51.39898],[0.01892,51.399],[0.01891,51.39899],[0.01873,51.39903],[0.01868,51.39894]]]]}},
{ "type":"Feature","properties":{"osm_way_id":"11846383","name":"Sainsbury's","building":"retail","shop":"supermarket","other":{"brand:wikidata":"Q152096","building:levels":"2","opening_hours":"Mo-Sa 07:00-22:00; Su 10:00-16:00"}}, "geometry":{"type":"MultiPolygon","coordinates":[[[[-0.01527,51.37663],[-0.01477,51.37658],[-0.01467,51.37693],[-0.01522,51.37703],[-0.0153,51.37687],[-0.01532,51.37683],[-0.0154,51.37684],[-0.01543,51.37675],[-0.01532,51.37674],[-0.01533,51.37669],[-0.01527,51.37663]]]]}},
{ "type":"Feature","properties":{"osm_way_id":"11846925","name":"Sainsbury's","building":"yes","shop":"supermarket","other":{"addr:city":"West Wickham","addr:housenumber":"143","addr:postcode":"BR4 0LU","addr:street":"High Street","brand":"Sainsbury's","brand:wikidata":"Q152096","brand:wikipedia":"en:Sainsbury's","fhrs:authority":"Bromley","fhrs:id":"358365"}}, "geometry":{"type":"MultiPolygon","coordinates":[[[[-0.02221,51.3772],[-0.02217,51.37722],[-0.02211,51.37721],[-0.02143,51.37713],[-0.0214,51.3771],[-0.02133,51.3771],[-0.02131,51.37711],[-0.02126,51.3771],[-0.02124,51.37709],[-0.02126,51.377],[-0.02131,51.37684],[-0.02137,51.37685],[-0.02142,51.37686],[-0.02143,51.37683],[-0.02148,51.37682],[-0.0217,51.37684],[-0.02177,51.37685],[-0.02176,51.37687],[-0.02211,51.37691],[-0.02212,51.37685],[-0.02227,51.37687],[-0.02225,51.37697],[-0.02221,51.37718],[-0.02221,51.3772]]]]}},
{ "type":"Feature","properties":{"osm_way_id":"14760316","name":"Tesco","building":"shop","shop":"supermarket","other":{"brand":"Tesco","brand:wikidata":"Q487494","name:fa":"تسکو"}}, "geometry":{"type":"MultiPolygon","coordinates":[[[[-0.0503,51.39714],[-0.0495,51.39704],[-0.04969,51.39635],[-0.04989,51.39618],[-0.05024,51.39622],[-0.05025,51.39618],[-0.0503,51.39619],[-0.05036,51.39597],[-0.05034,51.39597],[-0.05034,51.39574],[-0.05055,51.39573],[-0.05056,51.39592],[-0.05054,51.39592],[-0.05054,51.39595],[-0.0508,51.39594],[-0.05082,51.39619],[-0.05063,51.39687],[-0.05051,51.39694],[-0.05047,51.39707],[-0.05034,51.39706],[-0.05032,51.39714],[-0.0503,51.39714]]]]}},
{ "type":"Feature","properties":{"osm_way_id":"23029759","name":"Morrisons","building":"yes","shop":"supermarket","other":{"addr:housenumber":"70","addr:postcode":"BR5 1DH","addr:street":"Queensway","brand":"Morrisons","brand:wikidata":"Q922344","brand:wikipedia":"en:Morrisons","fhrs:id":"357866"}}, "geometry":{"type":"MultiPolygon","coordinates":[[[[0.07362,51.38837],[0.07412,51.38786],[0.07464,51.38806],[0.07419,51.38851],[0.07409,51.38847],[0.0739,51.38848],[0.07362,51.38837]]]]}},
{ "type":"Feature","properties":{"osm_way_id":"23945692","name":"Sainsbury's","building":"shop","shop":"supermarket","other":{"brand":"Sainsbury's","brand:wikidata":"Q152096"}}, "geometry":{"type":"MultiPolygon","coordinates":[[[[-0.05134,51.41307],[-0.05123,51.41302],[-0.05128,51.41298],[-0.05097,51.41281],[-0.05099,51.41279],[-0.05143,51.41248],[-0.05158,51.41237],[-0.0515,51.41233],[-0.05157,51.41227],[-0.05167,51.41233],[-0.05179,51.41224],[-0.05197,51.41234],[-0.0522,51.41247],[-0.05134,51.41307]]]]}},
{ "type":"Feature","properties":{"osm_way_id":"28476791","name":"Sainsburys Locksbottom","building":"retail","shop":"supermarket","other":{"addr:city":"Orpington","addr:postcode":"BR6 8NZ","addr:street":"Pallant Way"}}, "geometry":{"type":"MultiPolygon","coordinates":[[[[0.05452,51.3658],[0.05556,51.3665],[0.05622,51.36608],[0.05513,51.36542],[0.05452,51.3658]]]]}},
{ "type":"Feature","properties":{"osm_way_id":"33968790","name":"Waitrose","building":"supermarket","shop":"supermarket","other":{"addr:city":"Beckenham","addr:postcode":"BR3 1SD","addr:street":"Southend Road","brand":"Waitrose","brand:wikidata":"Q771734","brand:wikipedia":"en:Waitrose & Partners","fhrs:id":"357296","operator":"Waitrose & Partners","source:addr":"FHRS Open Data","wheelchair":"yes"}}, "geometry":{"type":"MultiPolygon","coordinates":[[[[-0.02685,51.41153],[-0.0269,51.41154],[-0.02693,51.41138],[-0.02688,51.41137],[-0.02689,51.41134],[-0.02666,51.41132],[-0.02665,51.41136],[-0.02622,51.41133],[-0.0262,51.41144],[-0.02622,51.41144],[-0.02621,51.41152],[-0.02599,51.41151],[-0.026,51.41148],[-0.02582,51.41146],[-0.02576,51.41174],[-0.02614,51.41177],[-0.02614,51.41179],[-0.02679,51.41184],[-0.02685,51.41153]]]]}},
{ "type":"Feature","properties":{"osm_way_id":"35968587","name":"Tesco","building":"retail","shop":"supermarket","other":{"addr:city":"Bromley","addr:postcode":"BR1 2UE","addr:street":"Homesdale Road","brand":"Tesco","brand:wikidata":"Q487494","brand:wikipedia":"en:Tesco","fhrs:id":"358424","name:fa":"تسکو","source:addr":"FHRS Open Data","wheelchair":"yes"}}, "geometry":{"type":"MultiPolygon","coordinates":[[[[0.03114,51.40022],[0.03102,51.39994],[0.03118,51.39991],[0.03208,51.39978],[0.03218,51.40004],[0.03209,51.40006],[0.03214,51.40018],[0.03147,51.40028],[0.03143,51.40018],[0.03114,51.40022]]]]}},
{ "type":"Feature","properties":{"osm_way_id":"35997477","name":"Sainsbury's","building":"retail","shop":"supermarket","other":{"addr:city":"Bromley","addr:postcode":"BR1 1TP","addr:street":"Walters Yard","brand":"Sainsbury's","brand:wikidata":"Q152096","brand:wikipedia":"en:Sainsbury's","fhrs:id":"357560","source:addr":"FHRS Open Data"}}, "geometry":{"type":"MultiPolygon","coordinates":[[[[0.01382,51.40656],[0.01377,51.40654],[0.01366,51.40664],[0.01375,51.40668],[0.01399,51.40678],[0.01404,51.40681],[0.01409,51.40675],[0.0142,51.4068],[0.01466,51.407],[0.01504,51.40667],[0.01501,51.40659],[0.01488,51.40653],[0.01483,51.40635],[0.01472,51.4063],[0.01459,51.40641],[0.0143,51.40629],[0.01421,51.40637],[0.01391,51.40648],[0.01382,51.40656]]]]}},
{ "type":"Feature","properties":{"osm_way_id":"37229466","name":"Tesco","building":"retail","shop":"supermarket","other":{"addr:postcode":"DA14 5BN","addr:street":"Edgington Way","brand":"Tesco","brand:wikidata":"Q487494","brand:wikipedia":"en:Tesco","fhrs:id":"357683","opening_hours":"Mo-Sa 06:00-24:00; Su 10:00-16:00"}}, "geometry":{"type":"MultiPolygon","coordinates":[[[[0.12353,51.41285],[0.12332,51.41315],[0.12279,51.41301],[0.12284,51.41294],[0.12203,51.41271],[0.12212,51.41257],[0.12188,51.4125],[0.12201,51.41232],[0.12233,51.41241],[0.12254,51.41213],[0.12334,51.41235],[0.12325,51.41248],[0.12349,51.41254],[0.12332,51.41279],[0.12353,51.41285]]]]}},
{ "type":"Feature","properties":{"osm_way_id":"38867011","name":"Waitrose","building":"yes","shop":"supermarket","other":{"brand":"Waitrose & Partners","brand:wikidata":"Q771734","brand:wikipedia":"en:Waitrose & Partners","operator":"Waitrose & Partners"}}, "geometry":{"type":"MultiPolygon","coordinates":[[[[0.08973,51.3552],[0.09039,51.35528],[0.09047,51.35504],[0.08975,51.35495],[0.08972,51.35504],[0.08975,51.35505],[0.08972,51.35513],[0.08976,51.35513],[0.08973,51.3552]]]]}},
{ "type":"Feature","properties":{"osm_way_id":"75923004","name":"Tesco","building":"retail","shop":"supermarket","other":{"addr:city":"Falkirk","addr:housename":"Grahamston Retail Park","addr:postcode":"FK1 1LW","addr:street":"Grahams Road","brand":"Tesco","brand:wikidata":"Q487494","brand:wikipedia":"en:Tesco","opening_hours":"24\/7","wheelchair":"yes"}}, "geometry":{"type":"MultiPolygon","coordinates":[[[[-3.7834,56.0028],[-3.78319,56.00244],[-3.78274,56.00242],[-3.78265,56.00225],[-3.78239,56.00229],[-3.78236,56.00225],[-3.78221,56.00222],[-3.78176,56.00217],[-3.7818,56.00225],[-3.78156,56.00229],[-3.7817,56.00257],[-3.78166,56.00258],[-3.7819,56.00303],[-3.78193,56.00308],[-3.78247,56.00299],[-3.78245,56.00295],[-3.7834,56.0028]]]]}},
{ "type":"Feature","properties":{"osm_way_id":"116606207","name":"Waitrose","building":"yes","shop":"supermarket","other":{"addr:housenumber":"168","addr:postcode":"TN16 3BB","addr:street":"Main Road","alt_name":"Waitrose Biggin Hill","brand":"Waitrose","brand:wikidata":"Q771734","brand:wikipedia":"en:Waitrose & Partners","official_name":"Waitrose & Partners","phone":"+44 1959575079","website":"https:\/\/www.waitrose.com\/bf_home\/bf\/240.html","wheelchair":"yes"}}, "geometry":{"type":"MultiPolygon","coordinates":[[[[0.03607,51.30894],[0.03634,51.3091],[0.0364,51.30906],[0.037,51.3094],[0.03715,51.3093],[0.0371,51.30927],[0.03728,51.30915],[0.03665,51.30878],[0.03673,51.30871],[0.03665,51.30866],[0.03629,51.3089],[0.03624,51.30887],[0.03617,51.30886],[0.03607,51.30894]]]]}},
{ "type":"Feature","properties":{"osm_way_id":"144473838","name":"Tesco Extra","building":"yes","shop":"supermarket","other":{"addr:city":"Orpington","addr:housenumber":"9","addr:postcode":"BR6 0NH","addr:street":"Augustus Lane","brand":"Tesco Extra","brand:wikidata":"Q25172225","fhrs:id":"358489","layer":"1","source:addr":"FHRS Open Data","toilets:wheelchair":"yes","wheelchair":"yes"}}, "geometry":{"type":"MultiPolygon","coordinates":[[[[0.09655,51.37458],[0.09741,51.3744],[0.097,51.3737],[0.09679,51.37344],[0.09677,51.37342],[0.09673,51.37339],[0.09666,51.37338],[0.09593,51.37341],[0.09591,51.37337],[0.09598,51.37336],[0.09588,51.37335],[0.09578,51.37336],[0.09584,51.37345],[0.09592,51.37343],[0.09638,51.37416],[0.0963,51.37419],[0.09655,51.37458]]]]}},
{ "type":"Feature","properties":{"osm_way_id":"144821327","name":"Sainsbury's","building":"yes","shop":"supermarket","other":{"addr:city":"Orpington","addr:housenumber":"5-7","addr:postcode":"BR6 0RT","addr:street":"Homefield Rise","brand":"Sainsbury's","brand:wikidata":"Q152096","fhrs:id":"358445","internet_access":"wlan","layer":"1","source:addr":"FHRS Open Data","wheelchair":"yes"}}, "geometry":{"type":"MultiPolygon","coordinates":[[[[0.10112,51.376],[0.10112,51.37599],[0.10069,51.37541],[0.10048,51.37547],[0.10016,51.37556],[0.10012,51.37563],[0.10014,51.37566],[0.10011,51.37567],[0.10043,51.3761],[0.10038,51.37612],[0.10041,51.37614],[0.10044,51.37614],[0.10051,51.37623],[0.1009,51.37612],[0.10086,51.37607],[0.10095,51.37605],[0.10112,51.376]]]]}},
{ "type":"Feature","properties":{"osm_way_id":"172844248","name":"Aldi","building":"retail","shop":"supermarket","other":{"brand":"ALDI","brand:wikidata":"Q41171672","brand:wikipedia":"en:Aldi","name:fa":"آلدی","opening_hours":"Mo-Sa 08:00-22:00; Su 10:00-16:00"}}, "geometry":{"type":"MultiPolygon","coordinates":[[[[-0.0591,51.40822],[-0.05863,51.40836],[-0.0587,51.40845],[-0.0589,51.40839],[-0.05911,51.40867],[-0.05914,51.4087],[-0.05935,51.40864],[-0.05938,51.40858],[-0.0591,51.40822]]]]}},
{ "type":"Feature","properties":{"osm_way_id":"179319964","name":"Sainsbury's","building":"yes","shop":"supermarket","other":{"addr:housenumber":"73","addr:postcode":"BR7 5AG","addr:street":"High Street","brand":"Sainsbury's","brand:wikidata":"Q152096","fhrs:id":"357621"}}, "geometry":{"type":"MultiPolygon","coordinates":[[[[0.06633,51.4192],[0.06696,51.41866],[0.06693,51.41864],[0.06697,51.4186],[0.06682,51.41853],[0.06678,51.41857],[0.06652,51.41846],[0.06598,51.41894],[0.06623,51.41905],[0.06615,51.41912],[0.06633,51.4192]]]]}},
{ "type":"Feature","properties":{"osm_way_id":"220847611","name":"Lidl","building":"yes","shop":"supermarket","other":{"addr:country":"GB","addr:housenumber":"129","addr:postcode":"BR1 5AJ","addr:street":"Burnt Ash Lane","brand":"Lidl","brand:wikidata":"Q151954","brand:wikipedia":"en:Lidl","fhrs:id":"1295612"}}, "geometry":{"type":"MultiPolygon","coordinates":[[[[0.02106,51.42083],[0.02142,51.42097],[0.02136,51.42103],[0.02144,51.42106],[0.02108,51.42141],[0.02094,51.42136],[0.0209,51.42139],[0.02071,51.42132],[0.02078,51.42125],[0.02071,51.42118],[0.02106,51.42083]]]]}},
{ "type":"Feature","properties":{"osm_way_id":"258876185","name":"Tesco Express","building":"yes","shop":"supermarket","other":{"addr:city":"Beckenham","addr:housenumber":"408","addr:postcode":"BR3 4EP","addr:street":"Croydon Road","brand":"Tesco Express","brand:wikidata":"Q98456772","contact:website":"https:\/\/www.tesco.com\/store-locator\/beckenham\/408-424-croydon-rd","fhrs:id":"358594","name:fa":"تسکو اکسپرس","source:addr":"FHRS Open Data"}}, "geometry":{"type":"MultiPolygon","coordinates":[[[[-0.0329,51.40686],[-0.03264,51.40673],[-0.0328,51.40663],[-0.03304,51.40676],[-0.0329,51.40686]]]]}},
{ "type":"Feature","properties":{"osm_way_id":"403276956","name":"The Co-operative Food","building":"retail","shop":"supermarket","other":{"addr:city":"London","addr:housenumber":"60","addr:postcode":"SE9 4EB","addr:street":"Kimmeridge Street","building_1":"commercial","opening_hours":"Mo-Sa 06:00-22:00; Su 10:00-16:00"}}, "geometry":{"type":"MultiPolygon","coordinates":[[[[0.0455,51.42694],[0.0455,51.42688],[0.04555,51.4265],[0.0459,51.42651],[0.04586,51.4269],[0.04569,51.42689],[0.04568,51.42695],[0.0455,51.42694]]]]}},
{ "type":"Feature","properties":{"osm_way_id":"584963107","name":"Lidl","building":"retail","shop":"supermarket","other":{"addr:country":"GB","addr:housenumber":"2A","addr:postcode":"BR4 0RJ","addr:street":"Glebe Way","brand":"Lidl","brand:wikidata":"Q151954","brand:wikipedia":"en:Lidl","fhrs:id":"940538"}}, "geometry":{"type":"MultiPolygon","coordinates":[[[[-0.01283,51.3754],[-0.01209,51.37531],[-0.01217,51.37503],[-0.01292,51.37508],[-0.01283,51.3754]]]]}},
{ "type":"Feature","properties":{"osm_way_id":"955495285","name":"Lidl","building":"yes","shop":"supermarket","other":{"addr:housenumber":"330","addr:postcode":"BR6 8NW","addr:street":"Crofton Road","brand":"Lidl","brand:wikidata":"Q151954","fhrs:id":"445151"}}, "geometry":{"type":"MultiPolygon","coordinates":[[[[0.05605,51.36786],[0.05633,51.36798],[0.05622,51.36807],[0.05627,51.3681],[0.05625,51.36812],[0.05632,51.36815],[0.05626,51.3682],[0.05612,51.36814],[0.05598,51.36826],[0.05572,51.36815],[0.05605,51.36786]]]]}},
{ "type":"Feature","properties":{"osm_way_id":"966045307","name":"Co-op Food","building":"yes","shop":"supermarket","other":{"brand":"Co-op Food","brand:wikidata":"Q3277439","brand:wikipedia":"en:Co-op Food"}}, "geometry":{"type":"MultiPolygon","coordinates":[[[[0.01413,51.41121],[0.0142,51.41122],[0.0142,51.41123],[0.01435,51.41123],[0.01435,51.41132],[0.01436,51.41142],[0.01432,51.41142],[0.01432,51.41143],[0.01419,51.41143],[0.01419,51.41143],[0.01417,51.41143],[0.01412,51.41143],[0.01412,51.41135],[0.01412,51.41128],[0.01412,51.41128],[0.01413,51.41121]]]]}},
{ "type":"Feature","properties":{"osm_way_id":"1013333203","name":"Co-op Food","building":"apartments","shop":"supermarket","other":{"addr:city":"Orpington","addr:housenumber":"97-101","addr:postcode":"BR5 2RB","addr:street":"Cotmandene Crescent","brand":"Co-op Food","brand:wikidata":"Q3277439","brand:wikipedia":"en:Co-op Food","fhrs:id":"357593"}}, "geometry":{"type":"MultiPolygon","coordinates":[[[[0.10592,51.40394],[0.10573,51.40408],[0.10556,51.404],[0.10575,51.40385],[0.10592,51.40394]]]]}}
]
}
