{
"type": "FeatureCollection",
"features": [
{ "type":"Feature","properties":{"osm_way_id":"29120229","name":"Tuffnells Parcels Express","building":"warehouse","other":{"addr:city":"BELVEDERE","addr:postcode":"DA17 6BT","addr:street":"Crabtree Manorway North"}}, "geometry":{"type":"MultiPolygon","coordinates":[[[[0.1633,51.5],[0.16318,51.4998],[0.16413,51.49958],[0.16426,51.49978],[0.1633,51.5]]]]}},
{ "type":"Feature","properties":{"osm_way_id":"29120415","name":"Ocado Customer Fulfillment Centre","building":"warehouse","other":{"addr:city":"Erith","addr:postcode":"DA8 1DE","addr:street":"Church Manorway"}}, "geometry":{"type":"MultiPolygon","coordinates":[[[[0.16327,51.49626],[0.16569,51.49575],[0.16562,51.49559],[0.16588,51.49554],[0.1654,51.49462],[0.16515,51.49421],[0.16504,51.49422],[0.16495,51.49403],[0.16505,51.494],[0.16483,51.4936],[0.16333,51.4939],[0.1633,51.49384],[0.16198,51.49413],[0.16246,51.495],[0.16256,51.49498],[0.16327,51.49626]]]]}},
{ "type":"Feature","properties":{"osm_way_id":"29120478","name":"Ocado General Merchandise Distribution Centre","building":"warehouse","other":{"addr:city":"Erith","addr:postcode":"DA8 1PQ","addr:street":"Church Manorway"}}, "geometry":{"type":"MultiPolygon","coordinates":[[[[0.17007,51.48971],[0.1721,51.48909],[0.17201,51.48897],[0.17146,51.48827],[0.16943,51.48889],[0.17007,51.48971]]]]}},
{ "type":"Feature","properties":{"osm_way_id":"319178807","building":"warehouse"},"geometry":{"type":"MultiPolygon","coordinates":[[[[0.12294,51.4152],[0.12274,51.41494],[0.1224,51.41504],[0.12261,51.4153],[0.12294,51.4152]]]]}},
{ "type":"Feature","properties":{"osm_way_id":"319178809","building":"warehouse"},"geometry":{"type":"MultiPolygon","coordinates":[[[[0.12254,51.41467],[0.12238,51.41447],[0.12232,51.41448],[0.12228,51.41443],[0.122,51.41451],[0.1222,51.41477],[0.12254,51.41467]]]]}},
{ "type":"Feature","properties":{"osm_way_id":"534411797","building":"warehouse"},"geometry":{"type":"MultiPolygon","coordinates":[[[[0.12398,51.41996],[0.12471,51.41972],[0.12399,51.41887],[0.12362,51.41898],[0.12326,51.41908],[0.12398,51.41996]]]]}},
{ "type":"Feature","properties":{"osm_way_id":"535320873","building":"warehouse"},"geometry":{"type":"MultiPolygon","coordinates":[[[[0.11975,51.41924],[0.12018,51.41899],[0.12048,51.41919],[0.12006,51.41943],[0.11975,51.41924]]]]}},
{ "type":"Feature","properties":{"osm_way_id":"535320874","building":"warehouse"},"geometry":{"type":"MultiPolygon","coordinates":[[[[0.11975,51.41924],[0.11951,51.41907],[0.11994,51.41883],[0.12018,51.41899],[0.11975,51.41924]]]]}},
{ "type":"Feature","properties":{"osm_way_id":"535320875","name":"Donovan Bros","building":"warehouse"},"geometry":{"type":"MultiPolygon","coordinates":[[[[0.12006,51.41943],[0.11927,51.41891],[0.11967,51.41867],[0.11994,51.41883],[0.12048,51.41919],[0.12006,51.41943]]]]}},
{ "type":"Feature","properties":{"osm_way_id":"535359313","building":"warehouse"},"geometry":{"type":"MultiPolygon","coordinates":[[[[0.12044,51.41424],[0.12041,51.41418],[0.12076,51.41412],[0.1208,51.4142],[0.12109,51.41415],[0.12114,51.41424],[0.12121,51.41423],[0.12142,51.41464],[0.12107,51.41471],[0.12111,51.41483],[0.12054,51.41494],[0.12041,51.4146],[0.12036,51.41461],[0.12022,51.41445],[0.12011,51.41422],[0.1201,51.41412],[0.12025,51.41409],[0.12034,51.41426],[0.12044,51.41424]]]]}},
{ "type":"Feature","properties":{"osm_way_id":"535374013","building":"warehouse"},"geometry":{"type":"MultiPolygon","coordinates":[[[[0.123,51.4149],[0.12316,51.4147],[0.12392,51.41492],[0.12376,51.41513],[0.12384,51.41516],[0.12374,51.41551],[0.12338,51.41547],[0.1235,51.41506],[0.123,51.4149]]]]}},
{ "type":"Feature","properties":{"osm_way_id":"535374014","building":"warehouse"},"geometry":{"type":"MultiPolygon","coordinates":[[[[0.12446,51.41554],[0.12425,51.41553],[0.12424,51.41558],[0.12429,51.41561],[0.12445,51.41562],[0.12446,51.41554]]]]}},
{ "type":"Feature","properties":{"osm_way_id":"535374016","name":"Lexus Sidcup","building":"warehouse","shop":"car_repair;car","other":{"brand":"Lexus"}}, "geometry":{"type":"MultiPolygon","coordinates":[[[[0.12487,51.41537],[0.12492,51.41537],[0.12492,51.41538],[0.12524,51.4154],[0.12527,51.41532],[0.12528,51.41531],[0.12529,51.41531],[0.12529,51.4153],[0.12529,51.41529],[0.12528,51.41528],[0.12527,51.41528],[0.12527,51.41519],[0.12515,51.41518],[0.12516,51.41514],[0.12505,51.41514],[0.12501,51.41512],[0.12496,51.41515],[0.12489,51.41515],[0.12487,51.41537]]]]}},
{ "type":"Feature","properties":{"osm_way_id":"731161558","building":"warehouse","other":{"addr:city":"Sidcup","addr:postcode":"DA15 7AB","addr:street":"Station Road"}}, "geometry":{"type":"MultiPolygon","coordinates":[[[[0.1029,51.43492],[0.10323,51.43497],[0.10332,51.43471],[0.103,51.43466],[0.1029,51.43492]]]]}}
]
}
