{
"type": "FeatureCollection",
"features": [
{ "type":"Feature","properties":{"osm_id":"757641018","ref":"BH31 208","other":{"amenity":"post_box","postal_code":"BH31"}}, "geometry":{"type":"Point","coordinates":[-1.87594,50.87636 ]}},
{ "type":"Feature","properties":{"osm_id":"763208781","name":"Iceland","other":{"brand":"Iceland","brand:wikidata":"Q721810","shop":"supermarket","wheelchair":"yes"}}, "geometry":{"type":"Point","coordinates":[-0.75525,51.29053 ]}},
{ "type":"Feature","properties":{"osm_id":"1726348467","name":"Londis","other":{"addr:housenumber":"17-18","addr:postcode":"DT4 8AR","addr:street":"St Edmund Street","brand":"Londis","brand:wikidata":"Q610492","fhrs:id":"992768","shop":"supermarket","source:addr":"FHRS Open Data"}}, "geometry":{"type":"Point","coordinates":[-2.45487,50.60786 ]}},
{ "type":"Feature","properties":{"osm_id":"1871577439","name":"Co-op Food","other":{"addr:postcode":"SP7 8PT","addr:street":"Beaufoy Close","alt_name":"The Co-operative Food","brand":"Co-op Food","brand:wikidata":"Q3277439","brand:wikipedia":"en:Co-op Food","fhrs:id":"993938","operator":"The Southern Co-operative","shop":"supermarket"}}, "geometry":{"type":"Point","coordinates":[-2.18581,51.00809 ]}},
{ "type":"Feature","properties":{"osm_id":"3675106847","name":"Co-op Food","other":{"addr:housenumber":"92","addr:postcode":"BH31 7AL","addr:street":"Ringwood Road","brand":"Co-op Food","brand:wikidata":"Q3277439","brand:wikipedia":"en:Co-op Food","fhrs:id":"1063708","shop":"supermarket","source:addr":"FHRS Open Data"}}, "geometry":{"type":"Point","coordinates":[-1.86532,50.87864 ]}},
{ "type":"Feature","properties":{"osm_id":"4426370495","name":"The Co-operative","other":{"addr:housenumber":"83","addr:postcode":"DT5 1LY","addr:street":"Fortuneswell","fhrs:id":"992617","shop":"supermarket","source:addr":"FHRS Open Data"}}, "geometry":{"type":"Point","coordinates":[-2.44337,50.55993 ]}},
{ "type":"Feature","properties":{"osm_id":"4498311349","name":"M&S Foodhall","other":{"addr:housenumber":"4-8","addr:postcode":"DT4 8PF","addr:street":"St Mary Street","brand":"M&S Foodhall","brand:wikidata":"Q714491","brand:wikipedia":"en:Marks & Spencer","fhrs:id":"992586","shop":"supermarket","source:addr":"FHRS Open Data"}}, "geometry":{"type":"Point","coordinates":[-2.45362,50.61086 ]}},
{ "type":"Feature","properties":{"osm_id":"5042301930","name":"Spar","other":{"brand":"Spar","brand:wikidata":"Q610492","brand:wikipedia":"en:Spar (retailer)","shop":"supermarket"}}, "geometry":{"type":"Point","coordinates":[-1.94202,50.80168 ]}},
{ "type":"Feature","properties":{"osm_id":"5590561958","name":"Shillingstone Co-op","other":{"addr:city":"Shillingstone","addr:postcode":"DT11 0QZ","addr:street":"Cookswell","fhrs:id":"1055893","shop":"supermarket","source:addr":"FHRS Open Data"}}, "geometry":{"type":"Point","coordinates":[-2.25347,50.90534 ]}},
{ "type":"Feature","properties":{"osm_id":"8761539683","man_made":"street_cabinet","other":{"cabinet":"fttc","colour":"green","manufacturer":"Huawei","operator":"BT OpenReach","street_cabinet":"telecom","telephone_exchange":"Wareham"}}, "geometry":{"type":"Point","coordinates":[-2.11817,50.69584 ]}},
{ "type":"Feature","properties":{"osm_id":"8764530230","other":{"amenity":"bench","material":"wood","seats":"2"}}, "geometry":{"type":"Point","coordinates":[-2.82634,52.65249 ]}},
{ "type":"Feature","properties":{"osm_way_id":"17919680","name":"Morrisons","building":"yes","shop":"supermarket","other":{"addr:city":"Bridport","addr:country":"GB","addr:postcode":"DT6 4SB","addr:street":"West Bay Road","alt_name":"Morrisons Bridport","brand":"Morrisons","brand:wikidata":"Q922344","brand:wikipedia":"en:Morrisons","designation":"Bridport","fhrs:id":"995242","opening_hours":"Mo-Sa 07:00-22:00; Su 10:00-16:00"}}, "geometry":{"type":"MultiPolygon","coordinates":[[[[-2.75621,50.72654],[-2.75592,50.72655],[-2.75593,50.72656],[-2.75585,50.72656],[-2.75585,50.72656],[-2.75582,50.72656],[-2.75582,50.72655],[-2.75571,50.72655],[-2.7557,50.72628],[-2.75583,50.72627],[-2.75582,50.72599],[-2.75601,50.72573],[-2.75641,50.72572],[-2.75641,50.72567],[-2.75661,50.72567],[-2.75662,50.7258],[-2.75638,50.72581],[-2.75639,50.72587],[-2.75645,50.72587],[-2.75645,50.7259],[-2.75661,50.7259],[-2.75661,50.726],[-2.75678,50.726],[-2.7568,50.72638],[-2.75669,50.72638],[-2.7567,50.72648],[-2.75663,50.72648],[-2.75663,50.72649],[-2.75651,50.72649],[-2.75651,50.72648],[-2.75621,50.72649],[-2.75621,50.72654]]]]}},
{ "type":"Feature","properties":{"osm_way_id":"27027543","name":"Tesco Extra","building":"yes","shop":"supermarket","other":{"addr:city":"Cardiff","addr:postcode":"CF24 2HP","addr:street":"Eastern Bay Link Road","branch":"Pengam Green","brand":"Tesco Extra","brand:wikidata":"Q25172225","brand:wikipedia":"en:Tesco Extra","fhrs:id":"968911","opening_hours":"Mo-Fr 06:00-00:00; Sa 06:00-22:00; Su 10:00-16:00","phone":"+44 345 677 9129","website":"https:\/\/www.tesco.com\/store-locator\/cardiff\/eastern-bay-road","wheelchair":"yes"}}, "geometry":{"type":"MultiPolygon","coordinates":[[[[-3.12828,51.48735],[-3.12747,51.48697],[-3.12746,51.48698],[-3.12632,51.48793],[-3.12643,51.48798],[-3.12658,51.48785],[-3.12728,51.48817],[-3.12729,51.48818],[-3.12791,51.48767],[-3.12806,51.48774],[-3.12824,51.48759],[-3.12808,51.48752],[-3.12828,51.48735]]]]}},
{ "type":"Feature","properties":{"osm_way_id":"29179416","name":"Morrisons","building":"yes","shop":"supermarket","other":{"addr:housenumber":"244","addr:postcode":"DT3 5AX","addr:street":"Dorchester Road","brand":"Morrisons","brand:wikidata":"Q922344","brand:wikipedia":"en:Morrisons","fhrs:id":"992191","operator":"Morrisons","phone":"+44 1305 761787","source:addr":"FHRS Open Data","toilets:wheelchair":"yes","wheelchair":"yes"}}, "geometry":{"type":"MultiPolygon","coordinates":[[[[-2.46461,50.63427],[-2.46415,50.6343],[-2.46416,50.63442],[-2.46386,50.63444],[-2.46382,50.6342],[-2.46364,50.63422],[-2.46355,50.63416],[-2.46348,50.63361],[-2.46371,50.6336],[-2.46379,50.63359],[-2.46423,50.63357],[-2.46423,50.63354],[-2.46456,50.63352],[-2.46456,50.63356],[-2.4647,50.63356],[-2.46477,50.63409],[-2.46458,50.6341],[-2.46461,50.63427]]]]}},
{ "type":"Feature","properties":{"osm_way_id":"60966559","name":"Sainsbury's Ashton Moss","building":"yes","shop":"supermarket","other":{"addr:city":"Ashton-Under-Lyne","addr:housenumber":"2","addr:postcode":"OL6 7UB","addr:street":"Lord Sheldon Way","brand":"Sainsbury's","brand:wikidata":"Q152096","brand:wikipedia":"en:Sainsbury's","fhrs:id":"28387","opening_hours":"Mo-Fr 07:00-23:00, Sa 07:00-22:00, Su 11:00-17:00","source:addr":"FHRS Open Data","website":"https:\/\/stores.sainsburys.co.uk\/2054\/ashton-moss","wheelchair":"yes"}}, "geometry":{"type":"MultiPolygon","coordinates":[[[[-2.10657,53.49156],[-2.10662,53.49111],[-2.1052,53.49109],[-2.10514,53.49177],[-2.10654,53.49181],[-2.10657,53.49156]]]]}},
{ "type":"Feature","properties":{"osm_way_id":"76285347","name":"Tesco","building":"yes","shop":"supermarket","other":{"addr:city":"Shaftesbury","addr:postcode":"SP7 8PF","addr:street":"Christy's Lane","brand":"Tesco","brand:wikidata":"Q487494","operator":"Tesco"}}, "geometry":{"type":"MultiPolygon","coordinates":[[[[-2.19339,51.0072],[-2.19288,51.00733],[-2.19281,51.00723],[-2.19242,51.00733],[-2.19236,51.00725],[-2.19252,51.00721],[-2.1923,51.00688],[-2.19236,51.00686],[-2.19232,51.0068],[-2.19243,51.00677],[-2.19246,51.00681],[-2.19247,51.00683],[-2.193,51.00668],[-2.19302,51.00661],[-2.19313,51.00661],[-2.19312,51.00669],[-2.19324,51.00683],[-2.19347,51.00686],[-2.19339,51.0072]]]]}},
{ "type":"Feature","properties":{"osm_way_id":"76930471","name":"Waitrose","building":"supermarket","shop":"supermarket","other":{"addr:city":"Gillingham","addr:postcode":"SP8 4UA","addr:street":"Chantry Fields","brand":"Waitrose","brand:wikidata":"Q771734","brand:wikipedia":"en:Waitrose","fhrs:id":"993987","official_name":"Waitrose & Partners","operator":"Waitrose & Partners","wheelchair":"yes"}}, "geometry":{"type":"MultiPolygon","coordinates":[[[[-2.27635,51.03641],[-2.27659,51.03651],[-2.27689,51.03622],[-2.27685,51.0362],[-2.27705,51.03602],[-2.27657,51.03581],[-2.27647,51.03583],[-2.27631,51.03598],[-2.27625,51.03595],[-2.2759,51.03628],[-2.27631,51.03645],[-2.27635,51.03641]]]]}},
{ "type":"Feature","properties":{"osm_way_id":"76936046","name":"Asda","building":"supermarket","shop":"supermarket","other":{"addr:city":"Gillingham","addr:postcode":"SP8 4QA","addr:street":"Station Road","brand":"Asda","brand:wikidata":"Q297410","brand:wikipedia":"en:Asda","contact:facebook":"https:\/\/www.facebook.com\/asda\/","contact:twitter":"@asda","contact:website":"https:\/\/storelocator.asda.com\/south-west\/gillingham\/station-road","fhrs:id":"993974","opening_hours":"Mo-Sa 07:00-23:00; Su 10:00-16:00","operator":"Asda Stores Ltd","wheelchair":"yes"}}, "geometry":{"type":"MultiPolygon","coordinates":[[[[-2.27493,51.03579],[-2.27393,51.03572],[-2.27399,51.0354],[-2.275,51.03547],[-2.27493,51.03579]]]]}},
{ "type":"Feature","properties":{"osm_way_id":"76936056","name":"Lidl","building":"yes","shop":"supermarket","other":{"addr:city":"Gillingham","addr:postcode":"SP8 4QJ","addr:street":"School Lane","brand":"Lidl","brand:wikidata":"Q151954","brand:wikipedia":"en:Lidl","fhrs:id":"993964","wheelchair":"yes"}}, "geometry":{"type":"MultiPolygon","coordinates":[[[[-2.27202,51.0376],[-2.27225,51.03713],[-2.27193,51.03707],[-2.27169,51.03754],[-2.27202,51.0376]]]]}},
{ "type":"Feature","properties":{"osm_way_id":"80187149","name":"Tesco","building":"yes","shop":"supermarket","other":{"addr:housenumber":"35","addr:postcode":"BH22 9TH","addr:street":"Penny's Walk","brand":"Tesco","brand:wikidata":"Q487494","brand:wikipedia":"en:Tesco","fhrs:id":"340655","opening_hours":"Mo-Sa 07:00-23:00; Su 10:00-16:00","source:addr":"FHRS Open Data","wheelchair":"yes"}}, "geometry":{"type":"MultiPolygon","coordinates":[[[[-1.89184,50.80149],[-1.89213,50.80166],[-1.89239,50.80181],[-1.89244,50.80177],[-1.89246,50.80176],[-1.89254,50.8017],[-1.89256,50.80169],[-1.89264,50.80163],[-1.89322,50.80125],[-1.89257,50.80087],[-1.89235,50.80101],[-1.89228,50.80097],[-1.89224,50.801],[-1.8923,50.80104],[-1.89225,50.80107],[-1.89221,50.80105],[-1.89205,50.80117],[-1.89208,50.80118],[-1.89197,50.80126],[-1.89169,50.80146],[-1.89174,50.80149],[-1.89167,50.80154],[-1.89172,50.80157],[-1.89184,50.80149]]]]}},
{ "type":"Feature","properties":{"osm_way_id":"80187152","name":"Sainsbury's","building":"yes","shop":"supermarket","other":{"addr:housenumber":"597","addr:postcode":"BH22 9AL","addr:street":"Ringwood Road","brand":"Sainsbury's","brand:wikidata":"Q152096","brand:wikipedia":"en:Sainsbury's","fhrs:id":"340569","source:addr":"FHRS Open Data"}}, "geometry":{"type":"MultiPolygon","coordinates":[[[[-1.87631,50.81167],[-1.87599,50.81141],[-1.876,50.8114],[-1.87579,50.81123],[-1.87575,50.81125],[-1.8756,50.81112],[-1.87549,50.81117],[-1.87552,50.8112],[-1.87498,50.81146],[-1.87496,50.81144],[-1.87459,50.81162],[-1.87466,50.81168],[-1.87467,50.81167],[-1.87487,50.81184],[-1.87464,50.81195],[-1.87471,50.81201],[-1.87475,50.81199],[-1.87482,50.81205],[-1.87503,50.81196],[-1.87528,50.81202],[-1.87544,50.81194],[-1.87564,50.81211],[-1.87613,50.81187],[-1.87605,50.8118],[-1.87631,50.81167]]]]}},
{ "type":"Feature","properties":{"osm_way_id":"80187163","name":"Lidl","building":"yes","shop":"supermarket","other":{"addr:postcode":"BH22 0AE","addr:street":"Ringwood Road","brand":"Lidl","brand:wikidata":"Q151954","brand:wikipedia":"en:Lidl","fhrs:id":"340353","source:addr":"FHRS Open Data"}}, "geometry":{"type":"MultiPolygon","coordinates":[[[[-1.87253,50.81231],[-1.87221,50.81214],[-1.87225,50.81211],[-1.87205,50.812],[-1.87196,50.81207],[-1.87194,50.81206],[-1.8718,50.81217],[-1.87176,50.81215],[-1.87165,50.81224],[-1.87172,50.81228],[-1.87174,50.81226],[-1.87196,50.81237],[-1.872,50.81234],[-1.87209,50.81238],[-1.87213,50.81235],[-1.87233,50.81246],[-1.87253,50.81231]]]]}},
{ "type":"Feature","properties":{"osm_way_id":"105143193","name":"Sainsbury's","building":"yes","shop":"supermarket","other":{"addr:housenumber":"38","addr:postcode":"EH45 8RS","addr:street":"Northgate","brand":"Sainsbury's","brand:wikidata":"Q152096","brand:wikipedia":"en:Sainsbury's","fhrs:id":"19311"}}, "geometry":{"type":"MultiPolygon","coordinates":[[[[-3.18857,55.6537],[-3.18857,55.65353],[-3.18867,55.65353],[-3.18867,55.65336],[-3.18884,55.65336],[-3.18883,55.65335],[-3.18883,55.65334],[-3.18883,55.65332],[-3.18883,55.6533],[-3.18875,55.6533],[-3.18795,55.6533],[-3.18795,55.65336],[-3.18802,55.65339],[-3.18802,55.65367],[-3.18813,55.65367],[-3.18813,55.6537],[-3.18857,55.6537]]]]}},
{ "type":"Feature","properties":{"osm_way_id":"105467200","name":"Tesco Express","building":"yes","shop":"supermarket","other":{"addr:housenumber":"34-36","addr:postcode":"NW6 5UA","addr:street":"Kilburn High Road","brand":"Tesco Express","brand:wikidata":"Q98456772","building:min_level":"1","contact:phone":"+44 8456719266","contact:website":"https:\/\/www.tesco.com\/store-locator\/uk\/?bid=5244","opening_hours":"07:00-23:00","operator":"Tesco"}}, "geometry":{"type":"MultiPolygon","coordinates":[[[[-0.19154,51.53686],[-0.19148,51.53689],[-0.19144,51.53691],[-0.1914,51.53693],[-0.19135,51.53696],[-0.1913,51.53699],[-0.19139,51.53705],[-0.19153,51.53713],[-0.19195,51.53689],[-0.19179,51.53675],[-0.19162,51.53682],[-0.19154,51.53686]]]]}},
{ "type":"Feature","properties":{"osm_way_id":"120596053","name":"Tesco","building":"yes","shop":"supermarket","other":{"addr:postcode":"DT1 2RY","addr:street":"Weymouth Avenue","brand":"Tesco","brand:wikidata":"Q487494","brand:wikipedia":"en:Tesco","ref:store":"2423"}}, "geometry":{"type":"MultiPolygon","coordinates":[[[[-2.44419,50.70214],[-2.44385,50.70204],[-2.44384,50.70206],[-2.44377,50.70204],[-2.44375,50.70206],[-2.44364,50.70203],[-2.44366,50.702],[-2.44361,50.70199],[-2.44363,50.70196],[-2.44333,50.70187],[-2.44379,50.70123],[-2.44466,50.70148],[-2.44419,50.70214]]]]}},
{ "type":"Feature","properties":{"osm_way_id":"157581055","name":"Sainsbury's","building":"yes","shop":"supermarket","other":{"addr:city":"Sherborne","addr:postcode":"DT9 3ND","addr:street":"Ludbourne Road","alt_name":"Sainsbury's Sherborne Superstore","brand":"Sainsbury's","brand:wikidata":"Q152096","brand:wikipedia":"en:Sainsbury's","opening_hours":"Mo-Sa 08:00-21:00; Su 10:00-16:00"}}, "geometry":{"type":"MultiPolygon","coordinates":[[[[-2.51283,50.94503],[-2.51286,50.945],[-2.51283,50.94497],[-2.51269,50.9449],[-2.51267,50.94491],[-2.51237,50.94473],[-2.51183,50.94508],[-2.5119,50.94512],[-2.5118,50.94518],[-2.51186,50.94522],[-2.51175,50.94529],[-2.51208,50.9455],[-2.51244,50.94528],[-2.51249,50.94532],[-2.51263,50.94523],[-2.51258,50.9452],[-2.51283,50.94503]]]]}},
{ "type":"Feature","properties":{"osm_way_id":"157581056","name":"Waitrose","building":"yes","shop":"supermarket","other":{"addr:city":"Sherborne","addr:postcode":"DT9 3PU","addr:street":"Cheap Street","alt_name":"Waitrose Sherborne","brand":"Waitrose & Partners","brand:wikidata":"Q771734","brand:wikipedia":"en:Waitrose & Partners","fhrs:id":"995703","opening_hours":"Mo-Sa 08:00-21:00; Su 10:00-16:00","operator":"Waitrose & Partners"}}, "geometry":{"type":"MultiPolygon","coordinates":[[[[-2.5162,50.94971],[-2.51603,50.94942],[-2.51586,50.94945],[-2.51539,50.94955],[-2.51556,50.94983],[-2.5162,50.94971]]]]}},
{ "type":"Feature","properties":{"osm_way_id":"157581057","name":"The Co-operative Food","building":"yes","shop":"supermarket","other":{"building:levels":"1","operator":"The Co-operative Group"}}, "geometry":{"type":"MultiPolygon","coordinates":[[[[-2.53305,50.94248],[-2.53301,50.94257],[-2.53296,50.94256],[-2.53286,50.94254],[-2.53277,50.94253],[-2.5328,50.94246],[-2.53282,50.9424],[-2.53282,50.94239],[-2.53308,50.94244],[-2.53306,50.94249],[-2.53305,50.94248]]]]}},
{ "type":"Feature","properties":{"osm_way_id":"158614879","name":"Budgens","building":"yes","shop":"supermarket","other":{"addr:city":"Swanage","addr:county":"Dorset","addr:housenumber":"28 - 36","addr:postcode":"BH19 1AF","addr:street":"Station Road","brand":"Budgens","brand:wikidata":"Q4985016","brand:wikipedia":"en:Budgens","fhrs:id":"977007","source:addr":"FHRS Open Data"}}, "geometry":{"type":"MultiPolygon","coordinates":[[[[-1.95897,50.60983],[-1.95859,50.60972],[-1.95848,50.60987],[-1.95838,50.61001],[-1.95876,50.61012],[-1.9589,50.60993],[-1.95897,50.60984],[-1.95897,50.60983]]]]}},
{ "type":"Feature","properties":{"osm_way_id":"158614884","name":"Co-op Food","building":"retail","shop":"supermarket","other":{"addr:city":"Swanage","addr:county":"Dorset","addr:postcode":"BH19 1HP","brand":"Co-op Food","brand:wikidata":"Q3277439","brand:wikipedia":"en:Co-op Food","fhrs:id":"976621","source:addr":"FHRS Open Data","surveillance":"indoor"}}, "geometry":{"type":"MultiPolygon","coordinates":[[[[-1.96158,50.60963],[-1.96159,50.60939],[-1.96088,50.60938],[-1.96087,50.60954],[-1.96082,50.60954],[-1.96082,50.60963],[-1.96084,50.60963],[-1.96084,50.60964],[-1.96097,50.60965],[-1.96098,50.60962],[-1.96158,50.60963]]]]}},
{ "type":"Feature","properties":{"osm_way_id":"158615232","name":"Sainsbury's","building":"retail","shop":"supermarket","other":{"brand":"Sainsbury's","brand:wikidata":"Q152096","brand:wikipedia":"en:Sainsbury's"}}, "geometry":{"type":"MultiPolygon","coordinates":[[[[-2.10862,50.68581],[-2.10852,50.6855],[-2.1087,50.68548],[-2.10886,50.68544],[-2.10897,50.68555],[-2.10912,50.68553],[-2.10918,50.68568],[-2.10898,50.68571],[-2.109,50.68575],[-2.10862,50.68581]]]]}},
{ "type":"Feature","properties":{"osm_way_id":"158615234","name":"The Co-operative Food","building":"yes","shop":"supermarket"},"geometry":{"type":"MultiPolygon","coordinates":[[[[-2.11093,50.68655],[-2.11089,50.68646],[-2.11031,50.68657],[-2.11035,50.68666],[-2.11093,50.68655]]]]}},
{ "type":"Feature","properties":{"osm_way_id":"160472071","name":"The Co-operative Food","building":"yes","shop":"supermarket","other":{"addr:city":"Beaminster","addr:country":"GB","addr:housenumber":"23,24","addr:postcode":"DT8 3AU","addr:street":"The Square","branch":"Beaminster","designation":"The Co-operative Food","fhrs:id":"995238","opening_hours":"Mo-Su 07:00-23:00","operator":"The Co-operative Group"}}, "geometry":{"type":"MultiPolygon","coordinates":[[[[-2.73947,50.8089],[-2.73954,50.80882],[-2.73943,50.80878],[-2.73942,50.80879],[-2.73932,50.80877],[-2.73928,50.80886],[-2.73947,50.8089]]]]}},
{ "type":"Feature","properties":{"osm_way_id":"160473140","name":"Waitrose","building":"yes","shop":"supermarket","other":{"addr:city":"Bridport","addr:housenumber":"42-44","addr:postcode":"DT6 3QB","addr:street":"West Street","alt_name":"Waitrose Bridport","brand":"Waitrose","brand:wikidata":"Q771734","brand:wikipedia":"en:Waitrose","designation":"Bridport","fhrs:id":"318694","layer":"1","official_name":"Waitrose & Partners","opening_hours":"Mo-Sa 08:00-20:00; Su 10:00-16:00","operator":"Waitrose & Partners"}}, "geometry":{"type":"MultiPolygon","coordinates":[[[[-2.76078,50.73391],[-2.76079,50.73384],[-2.76079,50.73383],[-2.76082,50.7335],[-2.76082,50.73332],[-2.7604,50.73331],[-2.76038,50.73347],[-2.76043,50.73348],[-2.76041,50.73374],[-2.76036,50.73383],[-2.76044,50.73384],[-2.76065,50.73388],[-2.76078,50.73391]]]]}},
{ "type":"Feature","properties":{"osm_way_id":"160581291","name":"Tesco Metro","building":"yes","shop":"supermarket","other":{"addr:housenumber":"63","addr:postcode":"DT4 8EQ","addr:street":"St Thomas Street","brand":"Tesco Metro","brand:wikidata":"Q57551648","fhrs:id":"992538","source:addr":"FHRS Open Data"}}, "geometry":{"type":"MultiPolygon","coordinates":[[[[-2.45541,50.60871],[-2.45516,50.60867],[-2.45505,50.60865],[-2.45498,50.60884],[-2.45502,50.60889],[-2.45534,50.60891],[-2.45541,50.60871]]]]}},
{ "type":"Feature","properties":{"osm_way_id":"160581292","name":"Asda","building":"yes","shop":"supermarket","other":{"addr:city":"Weymouth","addr:postcode":"DT4 8JX","addr:street":"Newstead Road","alt_name":"Asda Weymouth","brand":"Asda","brand:wikidata":"Q297410","brand:wikipedia":"en:Asda","contact:facebook":"https:\/\/www.facebook.com\/asda\/","contact:twitter":"@asda","contact:website":"https:\/\/storelocator.asda.com\/south-west\/weymouth\/newstead-road","fhrs:id":"992585","operator":"Asda Stores Ltd"}}, "geometry":{"type":"MultiPolygon","coordinates":[[[[-2.46225,50.60719],[-2.46145,50.60699],[-2.46132,50.60696],[-2.46118,50.60718],[-2.46125,50.6072],[-2.46102,50.60756],[-2.46177,50.60775],[-2.46188,50.60758],[-2.462,50.60761],[-2.46225,50.60719]]]]}},
{ "type":"Feature","properties":{"osm_way_id":"164180187","name":"The Co-operative Food","building":"commercial","shop":"supermarket","other":{"addr:city":"Dorchester","addr:postcode":"DT1 1TT","addr:street":"Trinity Square","brand":"The Co-operative Food","brand:wikidata":"Q107617274","brand:wikipedia":"en:Co-op Food","opening_hours":"Mo-Sa 06:00-23:00; Su 10:00-16:00","operator":"The Co-operative Group","operator:wikidata":"Q117202","operator:wikipedia":"en:The Co-operative Group"}}, "geometry":{"type":"MultiPolygon","coordinates":[[[[-2.43909,50.71346],[-2.43901,50.71321],[-2.43893,50.71322],[-2.43888,50.71309],[-2.43848,50.71314],[-2.43849,50.71316],[-2.43842,50.71317],[-2.43846,50.7133],[-2.43851,50.71329],[-2.43855,50.7134],[-2.43814,50.71346],[-2.43802,50.71347],[-2.43803,50.71353],[-2.43804,50.71357],[-2.4381,50.71356],[-2.43811,50.71359],[-2.43909,50.71346]]]]}},
{ "type":"Feature","properties":{"osm_way_id":"164180188","name":"Waitrose","building":"yes","shop":"supermarket","other":{"addr:city":"Dorchester","addr:postcode":"DT1 1BN","addr:street":"Tudor Arcade, South Street","brand":"Waitrose","brand:wikidata":"Q771734","brand:wikipedia":"en:Waitrose","official_name":"Waitrose & Partners","opening_hours":"Mo-Sa 08:00-20:00; Su 10:00-16:00","operator":"Waitrose & Partners"}}, "geometry":{"type":"MultiPolygon","coordinates":[[[[-2.43563,50.71409],[-2.43529,50.71409],[-2.43528,50.7144],[-2.43532,50.71452],[-2.43557,50.7145],[-2.43571,50.71453],[-2.43572,50.71431],[-2.43573,50.71431],[-2.43573,50.71409],[-2.43572,50.71409],[-2.43563,50.71409]]]]}},
{ "type":"Feature","properties":{"osm_way_id":"166332291","name":"Waitrose","building":"yes","shop":"supermarket","other":{"addr:city":"Wimborne Minster","addr:postcode":"BH21 1AN","addr:street":"Rowlands Hill","branch":"Wimbourne Minster","brand":"Waitrose","brand:wikidata":"Q771734","brand:wikipedia":"en:Waitrose & Partners","fhrs:id":"340694","official_name":"Waitrose & Partners","opening_hours":"Mo-Sa 08:00-20:00 Su 10:00-16:00","operator":"Waitrose & Partners"}}, "geometry":{"type":"MultiPolygon","coordinates":[[[[-1.98437,50.79929],[-1.98443,50.79943],[-1.98436,50.79944],[-1.98447,50.79975],[-1.98434,50.79977],[-1.98351,50.7999],[-1.98342,50.79971],[-1.98342,50.79969],[-1.98375,50.79963],[-1.9837,50.79947],[-1.9837,50.79947],[-1.98387,50.79943],[-1.98384,50.79937],[-1.98437,50.79929]]]]}},
{ "type":"Feature","properties":{"osm_way_id":"166568825","name":"Co-op Food","building":"retail","shop":"supermarket","other":{"addr:city":"Wimborne Minster","addr:postcode":"BH21 1ED","addr:street":"Crown Mead","atm":"yes","branch":"Wimbourne","brand":"Co-op Food","brand:wikidata":"Q3277439","brand:wikipedia":"en:Co-op Food","fhrs:id":"340714","opening_hours":"Mo-Sa 06:00-22:00; Su 10:00-16:00"}}, "geometry":{"type":"MultiPolygon","coordinates":[[[[-1.98599,50.79962],[-1.98599,50.79939],[-1.98602,50.7994],[-1.98614,50.79921],[-1.98614,50.7992],[-1.98598,50.7992],[-1.98598,50.79922],[-1.98538,50.79922],[-1.98537,50.79933],[-1.98547,50.79953],[-1.98555,50.79953],[-1.98555,50.79961],[-1.98588,50.7996],[-1.98588,50.79962],[-1.98599,50.79962]]]]}},
{ "type":"Feature","properties":{"osm_way_id":"176391054","name":"Co-op Food","building":"yes","shop":"supermarket","other":{"addr:city":"Bridport","addr:country":"GB","addr:postcode":"DT6 4RR","addr:street":"Sea Road North","brand":"Co-op Food","brand:wikidata":"Q3277439","brand:wikipedia":"en:Co-op Food","fhrs:id":"995240","opening_hours":"Mo-Sa 06:00-23:00; Su 10:00-16:00","operator":"The Co-operative Group"}}, "geometry":{"type":"MultiPolygon","coordinates":[[[[-2.74636,50.73865],[-2.74584,50.73851],[-2.74587,50.73847],[-2.74578,50.73844],[-2.74591,50.73825],[-2.746,50.73827],[-2.74604,50.73821],[-2.74619,50.73825],[-2.74621,50.73823],[-2.74647,50.73829],[-2.74652,50.73822],[-2.74663,50.73825],[-2.74636,50.73865]]]]}},
{ "type":"Feature","properties":{"osm_way_id":"181000911","name":"Co-op","shop":"supermarket","other":{"addr:postcode":"DT10 1BB","addr:street":"Station Road","fhrs:id":"993875"}}, "geometry":{"type":"MultiPolygon","coordinates":[[[[-2.30419,50.92771],[-2.30413,50.92759],[-2.30411,50.92759],[-2.30403,50.92761],[-2.30404,50.92763],[-2.30386,50.92767],[-2.30385,50.92765],[-2.30367,50.92769],[-2.3036,50.9277],[-2.3035,50.92772],[-2.3036,50.92789],[-2.30381,50.92785],[-2.30383,50.92788],[-2.30398,50.92785],[-2.30397,50.92783],[-2.30423,50.92778],[-2.30422,50.92776],[-2.30419,50.92771]]]]}},
{ "type":"Feature","properties":{"osm_way_id":"183796651","name":"Tesco","building":"yes","shop":"supermarket","other":{"addr:city":"Blandford Forum","addr:postcode":"DT11 9PU","addr:street":"Stour Park","brand":"Tesco","brand:wikidata":"Q487494","brand:wikipedia":"en:Tesco","designation":"Blandford Forum Superstore","fhrs:id":"993729","opening_hours":"Mo-Sa 06:00-23:00 Su10:00-16:00"}}, "geometry":{"type":"MultiPolygon","coordinates":[[[[-2.15948,50.85139],[-2.15874,50.85119],[-2.15916,50.85055],[-2.1599,50.85074],[-2.15963,50.85115],[-2.15984,50.85121],[-2.15976,50.85132],[-2.15956,50.85127],[-2.15948,50.85139]]]]}},
{ "type":"Feature","properties":{"osm_way_id":"183796701","name":"Morrisons","building":"yes","shop":"supermarket","other":{"addr:city":"Blandford Forum","addr:postcode":"DT11 7AW","addr:street":"West Street","brand":"Morrisons","brand:wikidata":"Q922344","brand:wikipedia":"en:Morrisons","designation":"Blandford Forum","fhrs:id":"994019","opening_hours":"Mo-Sa 07:00-22:00 Su10:00-16:00"}}, "geometry":{"type":"MultiPolygon","coordinates":[[[[-2.16621,50.8549],[-2.16604,50.85489],[-2.16604,50.8549],[-2.16575,50.85488],[-2.16576,50.85509],[-2.16572,50.85519],[-2.16561,50.85519],[-2.16555,50.85546],[-2.16564,50.85547],[-2.16589,50.8555],[-2.16591,50.85544],[-2.16599,50.85545],[-2.16601,50.85539],[-2.16604,50.85539],[-2.16606,50.8553],[-2.16608,50.85522],[-2.16611,50.85513],[-2.16621,50.8549]]]]}},
{ "type":"Feature","properties":{"osm_way_id":"183796791","name":"M&S Foodhall","building":"retail","shop":"supermarket","other":{"addr:city":"Blandford Forum","addr:postcode":"DT11 7EN","addr:street":"Langton Road","branch":"Blandford Forum Foodhall","brand":"M&S Foodhall","brand:wikidata":"Q714491","brand:wikipedia":"en:Marks & Spencer","fhrs:id":"994395","old_name":"The Co-operative Food","opening_hours":"Mo-Sa 08:00-20:00 Su 10:00-16:00"}}, "geometry":{"type":"MultiPolygon","coordinates":[[[[-2.15981,50.85595],[-2.15976,50.85557],[-2.15925,50.85559],[-2.1593,50.85597],[-2.15937,50.85597],[-2.15937,50.85602],[-2.15954,50.85601],[-2.15953,50.85596],[-2.15981,50.85595]]]]}},
{ "type":"Feature","properties":{"osm_way_id":"183797177","name":"Co-op Food","building":"yes","shop":"supermarket","other":{"addr:housename":"Salisbury Road Retail Park","addr:postcode":"DT11 7QG","addr:street":"Salisbury Road","addr:unit":"2","brand":"Co-op Food","brand:wikidata":"Q3277439","brand:wikipedia":"en:Co-op Food","contact:website":"https:\/\/stores.thesouthernco-operative.co.uk\/dorset\/blandford-forum\/unit-2--salisbury-road.html","fhrs:id":"993999"}}, "geometry":{"type":"MultiPolygon","coordinates":[[[[-2.16238,50.86011],[-2.16207,50.85993],[-2.16197,50.85999],[-2.16228,50.86018],[-2.16238,50.86011]]]]}},
{ "type":"Feature","properties":{"osm_way_id":"193701135","name":"Lidl","building":"yes","shop":"supermarket","other":{"addr:city":"Bridport","addr:country":"GB","addr:postcode":"DT6 3DJ","addr:street":"St Andrew's Road","alt_name":"LIDL Bridport","brand":"Lidl","brand:wikidata":"Q151954","brand:wikipedia":"en:Lidl","designation":"Bridport","fhrs:id":"319090","opening_hours":"Mo-Sa 08:00-21:00; Su 10:00-16:00"}}, "geometry":{"type":"MultiPolygon","coordinates":[[[[-2.74512,50.73952],[-2.74439,50.73926],[-2.74421,50.73946],[-2.74471,50.73964],[-2.74467,50.73969],[-2.7449,50.73978],[-2.74512,50.73952]]]]}},
{ "type":"Feature","properties":{"osm_way_id":"197857808","name":"Lidl","building":"yes","shop":"supermarket","other":{"addr:country":"GB","addr:housenumber":"1","addr:postcode":"DT1 1XU","addr:street":"The Grove","brand":"Lidl","brand:wikidata":"Q151954","brand:wikipedia":"en:Lidl","fhrs:id":"319077"}}, "geometry":{"type":"MultiPolygon","coordinates":[[[[-2.44145,50.7182],[-2.4412,50.71814],[-2.44118,50.71818],[-2.44064,50.71805],[-2.44049,50.71829],[-2.44098,50.71841],[-2.44101,50.71836],[-2.44131,50.71843],[-2.44136,50.71834],[-2.44145,50.7182]]]]}},
{ "type":"Feature","properties":{"osm_way_id":"204959988","name":"Dike & Son","building":"yes","shop":"supermarket","other":{"addr:postcode":"DT10 2NB","addr:street":"Ring Street","fhrs:id":"993697"}}, "geometry":{"type":"MultiPolygon","coordinates":[[[[-2.37928,50.95853],[-2.37899,50.95828],[-2.37889,50.95832],[-2.37897,50.95839],[-2.3788,50.95847],[-2.37887,50.95854],[-2.37844,50.95873],[-2.37841,50.9587],[-2.37837,50.95873],[-2.37867,50.959],[-2.37904,50.95883],[-2.3789,50.9587],[-2.37928,50.95853]]]]}},
{ "type":"Feature","properties":{"osm_way_id":"205679404","name":"Marks & Spencer","building":"yes","shop":"supermarket","other":{"addr:city":"Ashton-Under-Lyne","addr:postcode":"OL6 7UB","addr:street":"Lord Sheldon Way","brand":"Marks & Spencer","brand:wikidata":"Q714491","fhrs:id":"28296","source:addr":"FHRS Open Data","website":"https:\/\/www.marksandspencer.com\/stores\/ashton-moss-1190"}}, "geometry":{"type":"MultiPolygon","coordinates":[[[[-2.10657,53.49156],[-2.10794,53.49159],[-2.10796,53.49124],[-2.10796,53.49115],[-2.10662,53.49111],[-2.10657,53.49156]]]]}},
{ "type":"Feature","properties":{"osm_way_id":"223895387","name":"Co-op Food","building":"retail","shop":"supermarket","other":{"addr:housenumber":"4","addr:postcode":"SP8 4EH","addr:street":"Lodbourne Green","brand":"Co-op Food","brand:wikidata":"Q3277439","brand:wikipedia":"en:Co-op Food","fhrs:id":"993925","operator":"The Co-operative Group","source:addr":"FHRS Open Data"}}, "geometry":{"type":"MultiPolygon","coordinates":[[[[-2.27647,51.04183],[-2.27631,51.04186],[-2.2762,51.04159],[-2.27635,51.04156],[-2.27647,51.04183]]]]}},
{ "type":"Feature","properties":{"osm_way_id":"281257960","name":"Lidl","building":"yes","shop":"supermarket","other":{"addr:housenumber":"148-152","addr:postcode":"DT3 5EF","addr:street":"Dorchester Road","brand":"Lidl","brand:wikidata":"Q151954","brand:wikipedia":"en:Lidl","fhrs:id":"992192","source:addr":"FHRS Open Data"}}, "geometry":{"type":"MultiPolygon","coordinates":[[[[-2.46001,50.62864],[-2.45975,50.62874],[-2.45978,50.62878],[-2.45966,50.62883],[-2.45913,50.62829],[-2.45952,50.62814],[-2.46001,50.62864]]]]}},
{ "type":"Feature","properties":{"osm_way_id":"284993310","name":"Tesco","building":"supermarket","shop":"supermarket","other":{"addr:city":"Portland","addr:postcode":"DT5 2AD","addr:street":"Park Road","brand":"Tesco","brand:wikidata":"Q487494","brand:wikipedia":"en:Tesco","fhrs:id":"992650","wheelchair":"yes"}}, "geometry":{"type":"MultiPolygon","coordinates":[[[[-2.43672,50.54416],[-2.43633,50.54422],[-2.43633,50.54421],[-2.43598,50.54426],[-2.43596,50.54421],[-2.4354,50.54429],[-2.4353,50.54403],[-2.43532,50.54403],[-2.43529,50.54395],[-2.43527,50.54395],[-2.43525,50.54389],[-2.4361,50.54376],[-2.43612,50.54383],[-2.43628,50.5438],[-2.43631,50.54388],[-2.43637,50.54406],[-2.43652,50.54404],[-2.43654,50.54411],[-2.43662,50.5441],[-2.43664,50.54414],[-2.43671,50.54413],[-2.43672,50.54416]]]]}},
{ "type":"Feature","properties":{"osm_way_id":"296167026","name":"Sainsbury's","building":"yes","shop":"supermarket","other":{"addr:postcode":"DT3 5FA","addr:street":"Mercery Road","brand":"Sainsbury's","brand:wikidata":"Q152096","brand:wikipedia":"en:Sainsbury's","fhrs:id":"992727","source:addr":"FHRS Open Data"}}, "geometry":{"type":"MultiPolygon","coordinates":[[[[-2.46285,50.63345],[-2.46209,50.63351],[-2.4621,50.63352],[-2.46189,50.63354],[-2.46187,50.63348],[-2.46171,50.63349],[-2.46159,50.63284],[-2.46162,50.63284],[-2.4616,50.63274],[-2.46159,50.6327],[-2.46172,50.63269],[-2.46176,50.63268],[-2.46179,50.63282],[-2.46252,50.63276],[-2.46249,50.63263],[-2.46267,50.63261],[-2.46269,50.63275],[-2.46272,50.63275],[-2.46285,50.63345]]]]}},
{ "type":"Feature","properties":{"osm_way_id":"315242048","name":"Co-op Food","building":"yes","shop":"supermarket","other":{"addr:housenumber":"46","addr:postcode":"BH21 3LE","addr:street":"Wareham Road","brand":"Co-op Food","brand:wikidata":"Q3277439","brand:wikipedia":"en:Co-op Food","fhrs:id":"340887","operator":"The Co-operative Group","source:addr":"FHRS Open Data"}}, "geometry":{"type":"MultiPolygon","coordinates":[[[[-2.01704,50.77455],[-2.01712,50.77437],[-2.01704,50.77436],[-2.01715,50.77411],[-2.01703,50.77408],[-2.01705,50.77403],[-2.01682,50.77398],[-2.01673,50.77417],[-2.01677,50.77418],[-2.01669,50.77436],[-2.01673,50.77437],[-2.01668,50.77448],[-2.01704,50.77455]]]]}},
{ "type":"Feature","properties":{"osm_way_id":"330960510","name":"Felicity's Farm Shop","building":"yes","shop":"supermarket","other":{"addr:postcode":"DT6 6DJ","website":"http:\/\/www.felicitysfarmshop.co.uk\/"}}, "geometry":{"type":"MultiPolygon","coordinates":[[[[-2.83917,50.74017],[-2.83887,50.73999],[-2.83872,50.74009],[-2.83901,50.74027],[-2.83917,50.74017]]]]}},
{ "type":"Feature","properties":{"osm_way_id":"363324574","name":"Co-op Food","building":"yes","shop":"supermarket","other":{"addr:housenumber":"147","addr:postcode":"BH21 3LA","addr:street":"Wareham Road","brand":"Co-op Food","brand:wikidata":"Q3277439","brand:wikipedia":"en:Co-op Food","fhrs:id":"340845","operator":"The Co-operative Group","source:addr":"FHRS Open Data"}}, "geometry":{"type":"MultiPolygon","coordinates":[[[[-2.02121,50.7654],[-2.02112,50.76553],[-2.02082,50.76544],[-2.02086,50.76539],[-2.02076,50.76536],[-2.02081,50.76529],[-2.02102,50.76535],[-2.02121,50.7654]]]]}},
{ "type":"Feature","properties":{"osm_way_id":"363324936","name":"Co-op Food","building":"yes","shop":"supermarket","other":{"brand":"Co-op Food","brand:wikidata":"Q3277439","brand:wikipedia":"en:Co-op Food","operator":"The Co-operative Group"}}, "geometry":{"type":"MultiPolygon","coordinates":[[[[-2.02698,50.73806],[-2.0267,50.73802],[-2.0268,50.73771],[-2.02694,50.73773],[-2.02688,50.73793],[-2.02702,50.73795],[-2.02698,50.73806]]]]}},
{ "type":"Feature","properties":{"osm_way_id":"363335739","name":"Spar","building":"yes","shop":"supermarket","other":{"addr:city":"West Moors","brand":"Spar","brand:wikidata":"Q610492","brand:wikipedia":"en:SPAR (retailer)"}}, "geometry":{"type":"MultiPolygon","coordinates":[[[[-1.88884,50.82416],[-1.88917,50.82459],[-1.88894,50.82466],[-1.88861,50.82423],[-1.88884,50.82416]]]]}},
{ "type":"Feature","properties":{"osm_way_id":"363336048","name":"The Co-operative Food","building":"yes","shop":"supermarket","other":{"operator":"The Co-operative Group"}}, "geometry":{"type":"MultiPolygon","coordinates":[[[[-1.96327,50.80991],[-1.96318,50.81005],[-1.96291,50.80998],[-1.9631,50.80986],[-1.96327,50.80991]]]]}},
{ "type":"Feature","properties":{"osm_way_id":"429216182","name":"Co-op","building":"yes","shop":"supermarket"},"geometry":{"type":"MultiPolygon","coordinates":[[[[-2.49168,50.61224],[-2.49157,50.61237],[-2.49121,50.61226],[-2.4913,50.61213],[-2.49168,50.61224]]]]}},
{ "type":"Feature","properties":{"osm_way_id":"580796359","name":"ALDI","building":"yes","shop":"supermarket","other":{"brand":"ALDI","brand:wikidata":"Q41171672","brand:wikipedia":"en:Aldi"}}, "geometry":{"type":"MultiPolygon","coordinates":[[[[-2.4975,50.61458],[-2.49703,50.61468],[-2.49677,50.61415],[-2.49723,50.61405],[-2.4975,50.61458]]]]}},
{ "type":"Feature","properties":{"osm_way_id":"590590542","name":"M&S Foodhall","building":"retail","shop":"supermarket","other":{"brand":"M&S Foodhall","brand:wikidata":"Q714491","brand:wikipedia":"en:Marks & Spencer","building:levels":"2","toilets":"no","wheelchair":"yes"}}, "geometry":{"type":"MultiPolygon","coordinates":[[[[-1.8954,50.7975],[-1.89528,50.79743],[-1.89525,50.79746],[-1.89517,50.79741],[-1.89509,50.79746],[-1.89501,50.79742],[-1.89555,50.79704],[-1.89583,50.7972],[-1.8954,50.7975]]]]}},
{ "type":"Feature","properties":{"osm_way_id":"591282552","name":"Morrisons","building":"yes","shop":"supermarket","other":{"addr:postcode":"BH31 6UQ","addr:street":"Chiltern Drive","brand":"Morrisons","brand:wikidata":"Q922344","brand:wikipedia":"en:Morrisons","fhrs:id":"340402","source:addr":"FHRS Open Data"}}, "geometry":{"type":"MultiPolygon","coordinates":[[[[-1.87594,50.87636],[-1.8759,50.87637],[-1.87502,50.87663],[-1.87439,50.87681],[-1.87453,50.87701],[-1.87465,50.87698],[-1.87476,50.87712],[-1.8749,50.87708],[-1.87505,50.87728],[-1.87637,50.87694],[-1.87605,50.8765],[-1.87603,50.87648],[-1.87594,50.87636]]]]}},
{ "type":"Feature","properties":{"osm_way_id":"599223269","name":"McColls","building":"yes","shop":"supermarket","other":{"opening_hours":"Mo-Su 06:00-22:00"}}, "geometry":{"type":"MultiPolygon","coordinates":[[[[-2.50259,50.6247],[-2.5025,50.62446],[-2.50234,50.62448],[-2.50243,50.62472],[-2.50259,50.6247]]]]}},
{ "type":"Feature","properties":{"osm_way_id":"603957790","name":"Central","building":"yes","shop":"supermarket"},"geometry":{"type":"MultiPolygon","coordinates":[[[[-2.44637,50.71089],[-2.44622,50.71088],[-2.44625,50.71071],[-2.4464,50.71072],[-2.44637,50.71089]]]]}},
{ "type":"Feature","properties":{"osm_way_id":"605659421","name":"Spar","building":"yes","shop":"supermarket","other":{"addr:city":"Blandford Forum","addr:housenumber":"21","addr:postcode":"DT11 7AU","addr:street":"Market Place","brand":"Spar","brand:wikidata":"Q610492","brand:wikipedia":"en:Spar (retailer)","collectplus":"yes","fhrs:id":"993855","opening_hours":"07:00-23:00","payment:american_express":"yes","payment:amex":"yes","payment:cards":"yes","payment:cash":"yes","payment:coins":"yes","payment:credit_cards":"yes","payment:debit_cards":"yes","payment:mastercard":"yes","payment:notes":"yes","payment:visa":"yes","paypoint":"yes","wikidata":"Q26402438"}}, "geometry":{"type":"MultiPolygon","coordinates":[[[[-2.16471,50.8561],[-2.16473,50.85634],[-2.16462,50.85634],[-2.1646,50.85621],[-2.16458,50.8561],[-2.16471,50.8561]]]]}},
{ "type":"Feature","properties":{"osm_way_id":"627271185","name":"Lidl","building":"yes","shop":"supermarket","other":{"addr:city":"Blandford Forum","addr:postcode":"DT11 7FZ","addr:street":"Wendal Road","brand":"Lidl","brand:wikidata":"Q151954","brand:wikipedia":"en:Lidl","fhrs:id":"1042680","source:addr:postcode":"FHRS Open Data"}}, "geometry":{"type":"MultiPolygon","coordinates":[[[[-2.15789,50.87214],[-2.15741,50.87268],[-2.1577,50.87278],[-2.15766,50.87282],[-2.15782,50.87288],[-2.15834,50.87229],[-2.15789,50.87214]]]]}},
{ "type":"Feature","properties":{"osm_way_id":"799492185","name":"Charmouth Stores","building":"retail","shop":"supermarket","other":{"addr:city":"Charmouth","addr:postcode":"DT6 6PP","addr:street":"The Street"}}, "geometry":{"type":"MultiPolygon","coordinates":[[[[-2.90169,50.73904],[-2.90153,50.73906],[-2.90146,50.73887],[-2.90163,50.73884],[-2.90167,50.73896],[-2.90169,50.73904]]]]}},
{ "type":"Feature","properties":{"osm_way_id":"813663759","building":"residential"},"geometry":{"type":"MultiPolygon","coordinates":[[[[-1.88995,50.80941],[-1.89008,50.80943],[-1.89013,50.8093],[-1.89,50.80928],[-1.88995,50.80941]]]]}},
{ "type":"Feature","properties":{"osm_way_id":"853042164","name":"Lidl","building":"retail","shop":"supermarket","other":{"addr:country":"GB","addr:housenumber":"2","addr:postcode":"DT5 1DX","addr:street":"Hamm Beach Road","brand":"Lidl","brand:wikidata":"Q151954","brand:wikipedia":"en:Lidl","building:levels":"1","fhrs:id":"1210776","survey:date":"2019-12-09"}}, "geometry":{"type":"MultiPolygon","coordinates":[[[[-2.45788,50.56971],[-2.45853,50.5701],[-2.45822,50.5703],[-2.45763,50.56994],[-2.45785,50.56979],[-2.4578,50.56976],[-2.45788,50.56971]]]]}},
{ "type":"Feature","properties":{"osm_way_id":"909646077","building":"yes","shop":"supermarket"},"geometry":{"type":"MultiPolygon","coordinates":[[[[-2.07572,50.79394],[-2.07586,50.79403],[-2.07583,50.79405],[-2.07584,50.79405],[-2.07574,50.79412],[-2.07572,50.7941],[-2.07571,50.79411],[-2.07558,50.79403],[-2.07572,50.79394]]]]}},
{ "type":"Feature","properties":{"osm_way_id":"909646131","building":"yes","shop":"supermarket"},"geometry":{"type":"MultiPolygon","coordinates":[[[[-2.07367,50.79542],[-2.07344,50.79564],[-2.07348,50.79566],[-2.07376,50.79577],[-2.07388,50.7955],[-2.07367,50.79542]]]]}},
{ "type":"Feature","properties":{"osm_way_id":"913872290","name":"Lidl","building":"retail","shop":"supermarket","other":{"addr:country":"GB","addr:postcode":"SK13 8HS","addr:street":"Victoria Street","brand":"Lidl","brand:wikidata":"Q151954","brand:wikipedia":"en:Lidl","fhrs:id":"1339748","opening_hours":"Mo-Sa 08:00-22:00; Su 10:00-16:00","opening_hours:covid19":"same","payment:cash":"yes","payment:contactless":"yes","payment:credit_cards":"yes","payment:mastercard":"yes","payment:visa":"yes"}}, "geometry":{"type":"MultiPolygon","coordinates":[[[[-1.94668,53.4428],[-1.94584,53.44279],[-1.94582,53.44258],[-1.94668,53.44259],[-1.94668,53.4428]]]]}},
{ "type":"Feature","properties":{"osm_way_id":"915866660","name":"Aldi","building":"retail","shop":"supermarket","other":{"brand":"ALDI","brand:wikidata":"Q41171672","brand:wikipedia":"en:Aldi","opening_hours":"Mo-Sa 08:00-22:00; Su 10:00-16:00"}}, "geometry":{"type":"MultiPolygon","coordinates":[[[[-2.25702,51.02876],[-2.25671,51.02887],[-2.2562,51.02835],[-2.25653,51.02823],[-2.25702,51.02876]]]]}},
{ "type":"Feature","properties":{"osm_way_id":"974617740","name":"ALDI","building":"yes","shop":"supermarket","other":{"addr:city":"Weymouth","addr:postcode":"DT3 5FA","addr:street":"Mercery Road","brand":"ALDI","brand:wikidata":"Q41171672","brand:wikipedia":"en:Aldi","contact:website":"https:\/\/www.aldi.co.uk\/store\/s-uk-E1316","fhrs:id":"1274623","source:addr":"FHRS Open Data","source:geometry":"OS OpenMap Local"}}, "geometry":{"type":"MultiPolygon","coordinates":[[[[-2.46245,50.63141],[-2.46165,50.63149],[-2.46158,50.6312],[-2.46239,50.63113],[-2.46245,50.63141]]]]}}
]
}
