{
"type": "FeatureCollection",
"features": [
{ "type":"Feature","properties":{"osm_id":"286836489","name":"McColls","other":{"addr:housenumber":"129","addr:postcode":"WF5 9PA","addr:street":"Dewsbury Road","shop":"supermarket"}}, "geometry":{"type":"Point","coordinates":[-1.58508,53.6892 ]}},
{ "type":"Feature","properties":{"osm_id":"2689724086","name":"Co-op Food","other":{"addr:housenumber":"15-17","addr:postcode":"WF10 3JJ","addr:street":"The Square","addr:town":"Castleford","brand":"Co-op Food","brand:wikidata":"Q3277439","brand:wikipedia":"en:Co-op Food","fhrs:id":"283888","operator":"The Co-operative Group","shop":"supermarket"}}, "geometry":{"type":"Point","coordinates":[-1.31486,53.72348 ]}},
{ "type":"Feature","properties":{"osm_id":"4211554352","name":"M&S Foodhall","other":{"addr:postcode":"WF4 4LQ","brand":"M&S Foodhall","brand:wikidata":"Q714491","brand:wikipedia":"en:Marks & Spencer","fhrs:id":"284755","shop":"supermarket"}}, "geometry":{"type":"Point","coordinates":[-1.54563,53.62209 ]}},
{ "type":"Feature","properties":{"osm_id":"5414521521","name":"Fultons Foods","other":{"addr:housenumber":"2","addr:postcode":"WF5 8BQ","addr:street":"Market Place","addr:town":"Ossett","brand:wikidata":"Q6112633","fhrs:id":"313789","old_name":"Jack Fulton","shop":"supermarket"}}, "geometry":{"type":"Point","coordinates":[-1.57902,53.67961 ]}},
{ "type":"Feature","properties":{"osm_id":"6670200528","name":"Kindness Sharehouse","other":{"shop":"supermarket","fhrs:id":"1080772","addr:city":"Wakefield","addr:unit":"1","addr:place":"Headway Business Park","addr:postcode":"WF2 7AZ"}}, "geometry":{"type":"Point","coordinates":[-1.5033,53.66752 ]}},
{ "type":"Feature","properties":{"osm_id":"8308128679","other":{"amenity":"parking_entrance"}}, "geometry":{"type":"Point","coordinates":[-1.49547,53.68144 ]}},
{ "type":"Feature","properties":{"osm_id":"8639858034","name":"M&S Foodhall","other":{"addr:city":"Wakefield","addr:housenumber":"18","addr:postcode":"WF1 1SS","addr:street":"Kirkgate","brand":"M&S Foodhall","brand:wikidata":"Q714491","brand:wikipedia":"en:Marks & Spencer","shop":"supermarket","toilets:wheelchair":"yes","wheelchair":"yes"}}, "geometry":{"type":"Point","coordinates":[-1.4967,53.68237 ]}},
{ "type":"Feature","properties":{"osm_id":"145193407","highway":"footway"},"geometry":{"type":"LineString","coordinates":[[-1.50276,53.72004],[-1.5026,53.71995],[-1.50242,53.71987],[-1.50222,53.71979],[-1.50181,53.71966],[-1.50155,53.71957],[-1.50137,53.71952],[-1.50127,53.71949],[-1.5012,53.71948],[-1.50111,53.71948],[-1.50102,53.7195],[-1.50096,53.71954],[-1.50093,53.71958],[-1.50092,53.71964],[-1.50092,53.71972],[-1.50095,53.71987],[-1.50098,53.72002],[-1.50097,53.72012],[-1.50095,53.72032],[-1.50092,53.72043],[-1.5009,53.72052],[-1.50085,53.72059],[-1.50078,53.72064],[-1.50065,53.72071],[-1.5006,53.72076],[-1.50052,53.72083],[-1.50043,53.72088],[-1.50033,53.72093],[-1.50018,53.72099],[-1.49999,53.72106],[-1.49979,53.72114],[-1.49963,53.72121],[-1.49945,53.72131],[-1.4993,53.7214],[-1.49921,53.72148],[-1.49913,53.72158],[-1.49904,53.72172],[-1.49891,53.72191],[-1.49879,53.72206],[-1.49866,53.72221],[-1.49848,53.72235]]}},
{ "type":"Feature","properties":{"osm_id":"797893759","highway":"footway","other":{"access":"permissive"}}, "geometry":{"type":"LineString","coordinates":[[-1.52522,53.60336],[-1.52536,53.60312],[-1.52494,53.60283],[-1.52482,53.60275],[-1.52495,53.60262],[-1.52495,53.60246],[-1.52457,53.60232]]}},
{ "type":"Feature","properties":{"osm_id":"860117913","highway":"service","other":{"maxspeed":"5 mph","oneway":"yes","service":"drive-through"}}, "geometry":{"type":"LineString","coordinates":[[-1.32104,53.69712],[-1.32105,53.69707],[-1.32096,53.69696],[-1.32088,53.69684],[-1.32087,53.69682],[-1.32089,53.69679],[-1.32097,53.69672],[-1.32099,53.69671],[-1.32103,53.69672],[-1.32106,53.69673],[-1.3211,53.69676],[-1.32123,53.69692],[-1.32129,53.69693]]}},
{ "type":"Feature","properties":{"osm_way_id":"76040039","name":"Co-op Food","building":"retail","shop":"supermarket","other":{"addr:city":"Wakefield","addr:housenumber":"64","addr:postcode":"WF3 4HS","addr:street":"Lake Lock Road","brand":"Co-op Food","brand:wikidata":"Q3277439","brand:wikipedia":"en:Co-op Food","fhrs:id":"283916","operator":"The Co-operative Group","operator:wikidata":"Q117202","operator:wikipedia":"en:The Co-operative Group"}}, "geometry":{"type":"MultiPolygon","coordinates":[[[[-1.47558,53.71382],[-1.4756,53.71384],[-1.47569,53.7138],[-1.47583,53.71393],[-1.47559,53.71402],[-1.47553,53.71396],[-1.47553,53.71394],[-1.47546,53.71387],[-1.47558,53.71382]]]]}},
{ "type":"Feature","properties":{"osm_way_id":"83629201","name":"Manchester Superstores","building":"yes","shop":"supermarket","other":{"fhrs:id":"626359","addr:city":"Wakefield","addr:street":"Park Lodge Lane","addr:postcode":"WF1 4NL","addr:housenumber":"38"}}, "geometry":{"type":"MultiPolygon","coordinates":[[[[-1.48686,53.68272],[-1.48671,53.68269],[-1.48667,53.68268],[-1.48651,53.68264],[-1.48667,53.68244],[-1.48684,53.68249],[-1.4869,53.68243],[-1.48705,53.68247],[-1.48686,53.68272]]]]}},
{ "type":"Feature","properties":{"osm_way_id":"87266773","name":"Tani Sklep Food Store","building":"yes","shop":"supermarket","other":{"addr:city":"Wakefield","addr:housenumber":"142-146","addr:postcode":"WF1 1TU","addr:street":"Kirkgate","fhrs:id":"1244571","old_name":"Wis Eastern European Food","opening_hours":"Mo-Sa 06:00-22:00; Su 08:00-20:00"}}, "geometry":{"type":"MultiPolygon","coordinates":[[[[-1.49288,53.68059],[-1.49289,53.68061],[-1.49316,53.68057],[-1.4932,53.6806],[-1.4932,53.68063],[-1.49305,53.68065],[-1.49292,53.68067],[-1.49295,53.68072],[-1.49281,53.68075],[-1.49273,53.68064],[-1.49272,53.68063],[-1.49288,53.68059]]]]}},
{ "type":"Feature","properties":{"osm_way_id":"112048567","name":"Asda","building":"supermarket","shop":"supermarket","other":{"addr:country":"GB","addr:postcode":"WF8 1NL","addr:street":"Halfpenny Lane","addr:town":"Pontefract","brand":"Asda","brand:wikidata":"Q297410","brand:wikipedia":"en:Asda","contact:website":"https:\/\/storelocator.asda.com\/yorkshire-&-humber\/pontefract\/halfpenny-lane","fhrs:id":"313276","opening_hours":"Mo-Sa 08:00-23:00; Su 10:00-16:00","operator":"Asda Stores Ltd"}}, "geometry":{"type":"MultiPolygon","coordinates":[[[[-1.31754,53.69178],[-1.31739,53.6917],[-1.31731,53.69175],[-1.31711,53.69173],[-1.317,53.69167],[-1.31724,53.69152],[-1.31717,53.69147],[-1.31748,53.69129],[-1.31757,53.69135],[-1.31767,53.69141],[-1.31792,53.69156],[-1.31781,53.69162],[-1.31788,53.69166],[-1.31771,53.69176],[-1.31764,53.69172],[-1.31754,53.69178]]]]}},
{ "type":"Feature","properties":{"osm_way_id":"115617011","name":"Morrisons","building":"yes","shop":"supermarket","other":{"brand":"Morrisons","fhrs:id":"314386","addr:town":"Castleford","addr:street":"Albion Street","addr:postcode":"WF10 1QX","brand:wikidata":"Q922344","brand:wikipedia":"en:Morrisons"}}, "geometry":{"type":"MultiPolygon","coordinates":[[[[-1.3596,53.72359],[-1.35947,53.72337],[-1.35944,53.72332],[-1.3589,53.72343],[-1.35906,53.72371],[-1.3596,53.72359]]]]}},
{ "type":"Feature","properties":{"osm_way_id":"153212098","name":"Asda","building":"yes","shop":"supermarket","other":{"brand":"Asda","fhrs:id":"283785","operator":"Asda Stores Ltd","addr:city":"Wakefield","addr:street":"Asdale Road","addr:country":"GB","addr:postcode":"WF2 7EQ","brand:wikidata":"Q297410","brand:wikipedia":"en:Asda","contact:website":"https:\/\/storelocator.asda.com\/yorkshire-&-humber\/wakefield\/asdale-road"}}, "geometry":{"type":"MultiPolygon","coordinates":[[[[-1.50267,53.64966],[-1.50106,53.64945],[-1.50091,53.6495],[-1.50087,53.6496],[-1.50092,53.64964],[-1.50079,53.64999],[-1.50097,53.65002],[-1.50081,53.65044],[-1.50189,53.65057],[-1.50214,53.65047],[-1.50217,53.65041],[-1.50224,53.65042],[-1.50229,53.65026],[-1.50216,53.65024],[-1.5022,53.65012],[-1.5025,53.65016],[-1.50267,53.64966]]]]}},
{ "type":"Feature","properties":{"osm_way_id":"153212110","name":"ALDI","building":"yes","shop":"supermarket","other":{"addr:city":"Wakefield","addr:postcode":"WF2 7JE","addr:street":"Asdale Road","brand":"ALDI","brand:wikidata":"Q41171672","brand:wikipedia":"en:Aldi","fhrs:id":"313502"}}, "geometry":{"type":"MultiPolygon","coordinates":[[[[-1.49795,53.65011],[-1.49781,53.64986],[-1.49714,53.64999],[-1.49722,53.65013],[-1.49715,53.65015],[-1.49722,53.65026],[-1.49795,53.65011]]]]}},
{ "type":"Feature","properties":{"osm_way_id":"156402674","name":"Morrisons","building":"supermarket","shop":"supermarket","other":{"addr:postcode":"WF8 1BT","addr:street":"Stuart Road","addr:town":"Pontefract","brand":"Morrisons","brand:wikidata":"Q922344","brand:wikipedia":"en:Morrisons","fhrs:id":"283768","opening_hours":"Mo-Sa 07:00-22:00; Su 10:00-16:00","operator":"WM Morrisons","phone":"+44 1977 600808","website":"https:\/\/my.morrisons.com\/storefinder\/51","wheelchair":"yes"}}, "geometry":{"type":"MultiPolygon","coordinates":[[[[-1.30998,53.69349],[-1.30999,53.69349],[-1.31018,53.69373],[-1.3101,53.69375],[-1.31017,53.69383],[-1.31024,53.69381],[-1.31036,53.69395],[-1.31046,53.69407],[-1.31091,53.69394],[-1.31096,53.694],[-1.3113,53.69391],[-1.31129,53.69393],[-1.31137,53.69395],[-1.31137,53.69394],[-1.3114,53.69394],[-1.31159,53.69389],[-1.31169,53.6938],[-1.31165,53.69375],[-1.31168,53.69374],[-1.31164,53.69369],[-1.3116,53.6937],[-1.31158,53.69368],[-1.31142,53.69365],[-1.31141,53.69363],[-1.31144,53.69362],[-1.3114,53.69358],[-1.31133,53.6936],[-1.31124,53.69348],[-1.31105,53.69354],[-1.31085,53.6933],[-1.31091,53.69328],[-1.31087,53.69323],[-1.30998,53.69349]]]]}},
{ "type":"Feature","properties":{"osm_way_id":"177315075","name":"ALDI","building":"yes","shop":"supermarket","other":{"addr:country":"GB","addr:postcode":"WF8 2LN","addr:street":"South Baileygate Retail Park","addr:town":"Pontefract","brand":"ALDI","brand:wikidata":"Q41171672","brand:wikipedia":"en:Aldi","contact:phone":"+44 0800 042 0800","contact:website":"https:\/\/www.aldi.co.uk\/store\/s-uk-E0111","fhrs:id":"313417","operator":"Aldi","payment:cash":"yes","payment:contactless":"yes","payment:credit_cards":"yes","payment:debit_cards":"yes"}}, "geometry":{"type":"MultiPolygon","coordinates":[[[[-1.29959,53.69638],[-1.29993,53.69617],[-1.29933,53.69582],[-1.29929,53.69585],[-1.29928,53.69586],[-1.2991,53.69596],[-1.29909,53.69597],[-1.29901,53.69602],[-1.29899,53.69603],[-1.29934,53.69623],[-1.29928,53.69627],[-1.29944,53.69636],[-1.2995,53.69633],[-1.29959,53.69638]]]]}},
{ "type":"Feature","properties":{"osm_way_id":"183083329","name":"Co-op Food","building":"retail","shop":"supermarket","other":{"addr:housename":"Dale Court Flats 1-29","addr:postcode":"WF5 9DB","addr:street":"Dale Street","brand":"Co-op Food","brand:wikidata":"Q3277439","brand:wikipedia":"en:Co-op Food","building:levels":"3","fhrs:id":"283459","opening_hours":"Mo-Sa 07:00-22:00; Su 10:00-16:00","roof:shape":"hipped"}}, "geometry":{"type":"MultiPolygon","coordinates":[[[[-1.57973,53.68039],[-1.57985,53.68041],[-1.57999,53.68043],[-1.58013,53.68045],[-1.57994,53.6809],[-1.57973,53.68087],[-1.57971,53.68087],[-1.57954,53.68084],[-1.57973,53.68039]]]]}},
{ "type":"Feature","properties":{"osm_way_id":"193297160","name":"Asda","building":"yes","shop":"supermarket","other":{"addr:country":"GB","addr:housenumber":"264-268","addr:postcode":"WF9 2AD","addr:street":"Barnsley Road","addr:suburb":"South Elmsall","addr:town":"Pontefract","brand":"Asda","brand:wikidata":"Q297410","brand:wikipedia":"en:Asda","contact:website":"https:\/\/storelocator.asda.com\/yorkshire-&-humber\/pontefract\/264-barnsley-road-moorthorpe","fhrs:id":"748827","operator":"Asda Stores Ltd"}}, "geometry":{"type":"MultiPolygon","coordinates":[[[[-1.29591,53.594],[-1.29623,53.5938],[-1.29567,53.59347],[-1.29548,53.59359],[-1.29559,53.59365],[-1.29545,53.59373],[-1.29591,53.594]]]]}},
{ "type":"Feature","properties":{"osm_way_id":"211762690","name":"Morrisons","building":"supermarket","shop":"supermarket","other":{"addr:city":"Wakefield","addr:postcode":"WF2 9BY","addr:street":"Dewsbury Road","brand":"Morrisons","brand:wikidata":"Q922344","brand:wikipedia":"en:Morrisons","fhrs:id":"283879","not:addr:postcode":"WF2 9BL","opening_hours":"Mo-Sa 07:00-22:00; Su,PH 10:00-16:00","operator":"WM Morrisons","wheelchair":"yes"}}, "geometry":{"type":"MultiPolygon","coordinates":[[[[-1.52579,53.67942],[-1.52538,53.67954],[-1.52468,53.67976],[-1.52447,53.67952],[-1.52442,53.67953],[-1.52424,53.67932],[-1.52419,53.67926],[-1.52404,53.67923],[-1.5241,53.6791],[-1.52425,53.67912],[-1.52456,53.67902],[-1.52464,53.67912],[-1.52533,53.67889],[-1.52536,53.67892],[-1.52551,53.67887],[-1.52556,53.67892],[-1.52577,53.67885],[-1.52591,53.679],[-1.52573,53.67906],[-1.5258,53.67913],[-1.52576,53.67915],[-1.52589,53.6793],[-1.5258,53.67933],[-1.52572,53.67935],[-1.52579,53.67942]]]]}},
{ "type":"Feature","properties":{"osm_way_id":"232835948","name":"Co-op Food","building":"yes","shop":"supermarket","other":{"addr:city":"Wakefield","addr:housenumber":"1","addr:postcode":"WF1 3TR","addr:street":"Broadmeadows","brand":"Co-op Food","brand:wikidata":"Q3277439","brand:wikipedia":"en:Co-op Food","designation":"The Co-operative Food","fhrs:id":"284566","operator":"The Co-operative Group","operator:wikidata":"Q117202","operator:wikipedia":"en:The Co-operative Group"}}, "geometry":{"type":"MultiPolygon","coordinates":[[[[-1.49675,53.71476],[-1.49675,53.71459],[-1.49694,53.71459],[-1.49748,53.7146],[-1.49748,53.71476],[-1.49741,53.71476],[-1.49741,53.71489],[-1.49669,53.71488],[-1.49669,53.71476],[-1.49675,53.71476]]]]}},
{ "type":"Feature","properties":{"osm_way_id":"260303322","name":"Asda","building":"yes","shop":"supermarket","other":{"addr:city":"Castleford","addr:country":"GB","addr:postcode":"WF10 5EL","addr:street":"Leeds Road","addr:town":"Castleford","brand":"Asda","brand:wikidata":"Q297410","brand:wikipedia":"en:Asda","building:levels":"1","contact:website":"https:\/\/storelocator.asda.com\/yorkshire-&-humber\/castleford\/leeds-road-glasshoughton","fhrs:id":"283540","opening_hours:covid19":"Mo-Sa 08:00-22:00; Su 10:00-16:00","operator":"Asda Stores Ltd","payment:american_express":"yes","payment:cash":"yes","payment:coins":"yes","payment:contactless":"yes","payment:credit_cards":"yes","payment:debit_cards":"yes","payment:maestro":"yes","payment:mastercard":"yes","payment:notes":"yes","payment:visa":"yes","payment:visa_debit":"yes","wheelchair":"yes"}}, "geometry":{"type":"MultiPolygon","coordinates":[[[[-1.35241,53.71465],[-1.3524,53.71463],[-1.35232,53.71464],[-1.35215,53.71414],[-1.35223,53.71413],[-1.35218,53.71398],[-1.35323,53.71386],[-1.35328,53.71386],[-1.35329,53.71388],[-1.35336,53.71388],[-1.35366,53.71397],[-1.35403,53.71425],[-1.35409,53.71442],[-1.35382,53.71445],[-1.3535,53.71449],[-1.35351,53.71453],[-1.35241,53.71465]]]]}},
{ "type":"Feature","properties":{"osm_way_id":"284135670","name":"Co-op Food","building":"yes","shop":"supermarket","other":{"addr:postcode":"WF7 7BS","addr:street":"Barnsley Road","addr:suburb":"Ackworth","addr:town":"Pontefract","brand":"Co-op Food","brand:wikidata":"Q3277439","brand:wikipedia":"en:Co-op Food","fhrs:id":"284469","opening_hours":"Mo-Sa 07:00-22:00; Su 10:00-16:00","operator":"The Co-operative Group","operator:wikidata":"Q117202","operator:wikipedia":"en:The Co-operative Group","payment:cash":"yes","payment:credit_cards":"yes","payment:debit_cards":"yes","payment:visa":"yes","phone":"+44 1977 619437","website":"https:\/\/www.coop.co.uk\/store-finder\/WF7-7NB\/barnsley-road"}}, "geometry":{"type":"MultiPolygon","coordinates":[[[[-1.33818,53.64196],[-1.33803,53.64164],[-1.33736,53.64175],[-1.33746,53.64195],[-1.33767,53.64192],[-1.33773,53.64206],[-1.33782,53.64218],[-1.33812,53.64211],[-1.33803,53.64198],[-1.33818,53.64196]]]]}},
{ "type":"Feature","properties":{"osm_way_id":"319280178","name":"Co-op Food","building":"yes","shop":"supermarket","other":{"brand":"Co-op Food","fhrs:id":"284564","operator":"The Co-operative Group","addr:town":"Pontefract","addr:street":"Waggon Lane","addr:suburb":"Upton","addr:postcode":"WF9 1JT","brand:wikidata":"Q3277439","brand:wikipedia":"en:Co-op Food"}}, "geometry":{"type":"MultiPolygon","coordinates":[[[[-1.27179,53.61867],[-1.27159,53.61871],[-1.27148,53.61847],[-1.27168,53.61843],[-1.27179,53.61867]]]]}},
{ "type":"Feature","properties":{"osm_way_id":"319283267","name":"Co-op Food","building":"yes","shop":"supermarket","other":{"addr:postcode":"WF9 3HQ","addr:street":"White Apron Street","addr:suburb":"South Kirkby","addr:town":"Pontefract","brand":"Co-op Food","brand:wikidata":"Q3277439","brand:wikipedia":"en:Co-op Food","fhrs:id":"284379","operator":"The Co-operative Group"}}, "geometry":{"type":"MultiPolygon","coordinates":[[[[-1.33024,53.59244],[-1.32961,53.59249],[-1.32959,53.59243],[-1.32964,53.59243],[-1.32963,53.59237],[-1.33021,53.59232],[-1.33024,53.59244]]]]}},
{ "type":"Feature","properties":{"osm_way_id":"338057626","name":"Heron Foods","building":"retail","shop":"supermarket","other":{"brand":"Heron Foods","fhrs:id":"542701","addr:city":"Castleford","addr:town":"Castleford","addr:street":"Carlton Street","addr:postcode":"WF10 1AN","brand:wikidata":"Q5743472","brand:wikipedia":"en:Heron Foods","building:levels":"2","contact:website":"https:\/\/heronfoods.com\/storelocator\/store-details\/castleford","addr:housenumber":"57","building:material":"brick"}}, "geometry":{"type":"MultiPolygon","coordinates":[[[[-1.35134,53.72603],[-1.35121,53.72606],[-1.35131,53.72625],[-1.35144,53.72622],[-1.35142,53.72619],[-1.35134,53.72603]]]]}},
{ "type":"Feature","properties":{"osm_way_id":"353719329","name":"Food Plus","shop":"supermarket","other":{"fhrs:id":"1015886","addr:town":"Castleford","addr:street":"Albion Street","addr:postcode":"WF10 1EG","addr:housenumber":"7-9"}}, "geometry":{"type":"MultiPolygon","coordinates":[[[[-1.35647,53.72553],[-1.35637,53.72547],[-1.35626,53.72554],[-1.35637,53.7256],[-1.35642,53.72557],[-1.35647,53.72553]]]]}},
{ "type":"Feature","properties":{"osm_way_id":"359644555","name":"Co-op Food","building":"commercial","shop":"supermarket","other":{"brand":"Co-op Food","fhrs:id":"283936","addr:city":"Wakefield","addr:street":"Horbury Road","addr:postcode":"WF2 8JN","brand:wikidata":"Q3277439","brand:wikipedia":"en:Co-op Food","addr:housenumber":"323"}}, "geometry":{"type":"MultiPolygon","coordinates":[[[[-1.53399,53.66831],[-1.53409,53.66827],[-1.53417,53.66834],[-1.53409,53.66837],[-1.53394,53.66843],[-1.53386,53.66846],[-1.53375,53.66835],[-1.53395,53.66828],[-1.53399,53.66831]]]]}},
{ "type":"Feature","properties":{"osm_way_id":"359644755","name":"Co-op Food","building":"yes","shop":"supermarket","other":{"addr:city":"Wakefield","addr:housenumber":"21-29","addr:postcode":"WF4 5AA","addr:street":"High Street","brand":"Co-op Food","brand:wikidata":"Q3277439","brand:wikipedia":"en:Co-op Food","fhrs:id":"283796"}}, "geometry":{"type":"MultiPolygon","coordinates":[[[[-1.55595,53.65936],[-1.55595,53.65949],[-1.55585,53.65961],[-1.55509,53.65941],[-1.5552,53.65926],[-1.55523,53.65927],[-1.55549,53.65934],[-1.55552,53.65929],[-1.55577,53.65936],[-1.55595,53.65936]]]]}},
{ "type":"Feature","properties":{"osm_way_id":"359644823","name":"Co-op Food","building":"yes","shop":"supermarket","other":{"addr:city":"Wakefield","addr:housenumber":"59-59a","addr:postcode":"WF4 3JR","addr:street":"Stoney Lane","brand":"Co-op Food","brand:wikidata":"Q3277439","brand:wikipedia":"en:Co-op Food","fhrs:id":"284849","operator":"The Co-operative Group","operator:wikidata":"Q117202","operator:wikipedia":"en:The Co-operative Group"}}, "geometry":{"type":"MultiPolygon","coordinates":[[[[-1.51981,53.63242],[-1.51997,53.63257],[-1.51974,53.63266],[-1.51958,53.63252],[-1.51981,53.63242]]]]}},
{ "type":"Feature","properties":{"osm_way_id":"388487782","name":"Asda","building":"yes","shop":"supermarket","other":{"brand":"Asda","fhrs:id":"314392","operator":"Asda Stores Ltd","addr:city":"Wakefield","addr:street":"Dewsbury Road","addr:country":"GB","addr:postcode":"WF2 9BL","brand:wikidata":"Q297410","brand:wikipedia":"en:Asda","contact:website":"https:\/\/storelocator.asda.com\/yorkshire-&-humber\/wakefield\/dewsbury-road"}}, "geometry":{"type":"MultiPolygon","coordinates":[[[[-1.51796,53.67814],[-1.5179,53.67815],[-1.51771,53.67816],[-1.51771,53.67818],[-1.51761,53.67819],[-1.51756,53.678],[-1.51747,53.67801],[-1.51742,53.6778],[-1.5174,53.67773],[-1.51785,53.67769],[-1.51786,53.67774],[-1.51796,53.67814]]]]}},
{ "type":"Feature","properties":{"osm_way_id":"414731001","name":"Aldi","building":"supermarket","shop":"supermarket","other":{"addr:city":"Wakefield","addr:housenumber":"82","addr:postcode":"WF2 0AE","addr:street":"Batley Road","brand":"ALDI","brand:wikidata":"Q41171672","brand:wikipedia":"en:Aldi","fhrs:id":"733519","opening_hours":"Mo-Sa 08:00-22:00; Su 10:00-16:00; PH 08:00-20:00"}}, "geometry":{"type":"MultiPolygon","coordinates":[[[[-1.52691,53.68782],[-1.52627,53.68752],[-1.5261,53.68765],[-1.52602,53.68761],[-1.52594,53.68767],[-1.52667,53.68801],[-1.52691,53.68782]]]]}},
{ "type":"Feature","properties":{"osm_way_id":"448331891","name":"Food Plus Supermarket","building":"yes","shop":"supermarket","other":{"fhrs:id":"781046","addr:city":"Wakefield","addr:street":"Kirkgate","addr:postcode":"WF1 1TB","addr:housenumber":"94"}}, "geometry":{"type":"MultiPolygon","coordinates":[[[[-1.49391,53.68148],[-1.49348,53.68156],[-1.49351,53.68161],[-1.49394,53.68153],[-1.49391,53.68148]]]]}},
{ "type":"Feature","properties":{"osm_way_id":"458711708","name":"Heron Foods","building":"yes","shop":"supermarket","other":{"brand":"Heron Foods","fhrs:id":"1018747","addr:town":"Normanton","addr:street":"High Street","addr:postcode":"WF6 2AF","brand:wikidata":"Q5743472","brand:wikipedia":"en:Heron Foods","contact:website":"https:\/\/heronfoods.com\/storelocator\/store-details\/normanton","addr:housenumber":"57-63"}}, "geometry":{"type":"MultiPolygon","coordinates":[[[[-1.41815,53.70014],[-1.41838,53.70008],[-1.41839,53.70009],[-1.41848,53.70019],[-1.4185,53.70022],[-1.41828,53.70029],[-1.41826,53.70027],[-1.41815,53.70014]]]]}},
{ "type":"Feature","properties":{"osm_way_id":"543958051","name":"Tesco","building":"yes","shop":"supermarket","other":{"addr:city":"Hemsworth","addr:postcode":"WF9 4JY","addr:street":"Market Street","brand":"Tesco","brand:wikidata":"Q487494","brand:wikipedia":"en:Tesco","fhrs:id":"314290","website":"https:\/\/www.tesco.com\/store-locator\/pontefract\/market-street"}}, "geometry":{"type":"MultiPolygon","coordinates":[[[[-1.3524,53.61272],[-1.35246,53.61269],[-1.35285,53.61292],[-1.35285,53.61294],[-1.35285,53.61298],[-1.35285,53.61303],[-1.35259,53.61303],[-1.35259,53.61298],[-1.35259,53.61294],[-1.35247,53.61294],[-1.35247,53.61303],[-1.35247,53.61313],[-1.35231,53.61325],[-1.35231,53.61338],[-1.35155,53.61338],[-1.35155,53.61344],[-1.35162,53.61344],[-1.35162,53.61349],[-1.35155,53.61348],[-1.35155,53.61355],[-1.35151,53.61355],[-1.35151,53.6137],[-1.35141,53.6137],[-1.35141,53.61368],[-1.35127,53.61368],[-1.35127,53.61364],[-1.35117,53.61364],[-1.35117,53.6135],[-1.35127,53.6135],[-1.35127,53.61324],[-1.35123,53.61324],[-1.35123,53.61272],[-1.3524,53.61272]]]]}},
{ "type":"Feature","properties":{"osm_way_id":"544346894","name":"Morrisons","building":"supermarket","shop":"supermarket","other":{"brand":"Morrisons","fhrs:id":"284124","website":"https:\/\/my.morrisons.com\/storefinder\/144","operator":"Morrison's","addr:street":"Marine Villa Road","addr:postcode":"WF11 8ER","brand:wikidata":"Q922344","brand:wikipedia":"en:Morrisons"}}, "geometry":{"type":"MultiPolygon","coordinates":[[[[-1.25355,53.70849],[-1.25345,53.70818],[-1.25366,53.70815],[-1.25364,53.7081],[-1.25372,53.70809],[-1.2537,53.70801],[-1.25388,53.70799],[-1.25379,53.70772],[-1.25331,53.70778],[-1.25332,53.70783],[-1.25241,53.70793],[-1.25244,53.70803],[-1.25227,53.70805],[-1.25245,53.70857],[-1.25235,53.70858],[-1.25239,53.7087],[-1.25261,53.70867],[-1.25259,53.70863],[-1.25311,53.70857],[-1.2531,53.70854],[-1.25355,53.70849]]]]}},
{ "type":"Feature","properties":{"osm_way_id":"544495996","name":"Morrisons","building":"yes","landuse":"retail","shop":"supermarket","other":{"addr:city":"Wakefield","addr:postcode":"WF1 1YA","brand":"Morrisons","brand:wikidata":"Q922344","brand:wikipedia":"en:Morrisons","fhrs:id":"284306","website":"https:\/\/my.morrisons.com\/storefinder\/34"}}, "geometry":{"type":"MultiPolygon","coordinates":[[[[-1.49611,53.68147],[-1.49576,53.68152],[-1.49573,53.68143],[-1.49547,53.68144],[-1.49542,53.68144],[-1.49534,53.68144],[-1.49529,53.68144],[-1.4952,53.68098],[-1.49538,53.68096],[-1.49538,53.68092],[-1.49608,53.68088],[-1.49604,53.6808],[-1.49632,53.68075],[-1.49646,53.68102],[-1.49619,53.68106],[-1.49616,53.68101],[-1.49596,53.68104],[-1.49607,53.68141],[-1.49611,53.68147]]]]}},
{ "type":"Feature","properties":{"osm_way_id":"574142640","name":"Lidl","building":"yes","shop":"supermarket","other":{"addr:postcode":"WF11 8EE","addr:street":"Hill Top Mews","addr:town":"Knottingley","brand":"Lidl","brand:wikidata":"Q151954","brand:wikipedia":"en:Lidl","fhrs:id":"909121","name:en":"Lidl","name:pl":"Lidl"}}, "geometry":{"type":"MultiPolygon","coordinates":[[[[-1.24762,53.70858],[-1.24781,53.70856],[-1.24782,53.70862],[-1.24808,53.7086],[-1.24811,53.70875],[-1.24817,53.70874],[-1.2482,53.70891],[-1.24822,53.70891],[-1.24825,53.70909],[-1.24807,53.7091],[-1.24807,53.70908],[-1.24772,53.70911],[-1.24762,53.70858]]]]}},
{ "type":"Feature","properties":{"osm_way_id":"576412756","name":"ALDI","building":"yes","shop":"supermarket","other":{"addr:postcode":"WF7 5PB","addr:street":"Wakefield Road","addr:suburb":"Featherstone","addr:town":"Pontefract","addr:unit":"1","brand":"ALDI","brand:wikidata":"Q41171672","brand:wikipedia":"en:Aldi","fhrs:id":"949890"}}, "geometry":{"type":"MultiPolygon","coordinates":[[[[-1.3632,53.67449],[-1.36334,53.67392],[-1.36351,53.67393],[-1.3635,53.67399],[-1.3638,53.67401],[-1.36378,53.67406],[-1.36372,53.67431],[-1.36367,53.6745],[-1.36333,53.67447],[-1.36332,53.6745],[-1.3632,53.67449]]]]}},
{ "type":"Feature","properties":{"osm_way_id":"576412760","name":"Lidl","building":"yes","shop":"supermarket","other":{"brand":"Lidl","fhrs:id":"516514","addr:town":"Pontefract","addr:street":"Pontefract Road","addr:suburb":"Featherstone","addr:postcode":"WF7 5HG","brand:wikidata":"Q151954","brand:wikipedia":"en:Lidl","not:addr:postcode":"WF7 5FG"}}, "geometry":{"type":"MultiPolygon","coordinates":[[[[-1.35814,53.67382],[-1.35836,53.67358],[-1.35853,53.67363],[-1.35857,53.67358],[-1.35871,53.67363],[-1.35867,53.67367],[-1.35899,53.67377],[-1.35874,53.67406],[-1.35848,53.67398],[-1.35852,53.67394],[-1.35814,53.67382]]]]}},
{ "type":"Feature","properties":{"osm_way_id":"718460689","name":"The Food Warehouse","building":"yes","shop":"supermarket","other":{"addr:city":"Wakefield","addr:housenumber":"2","addr:postcode":"WF1 2UZ","addr:street":"Snow Hill Way","brand":"The Food Warehouse","brand:wikidata":"Q87263899","brand:wikipedia":"en:Iceland (supermarket)","fhrs:id":"996645"}}, "geometry":{"type":"MultiPolygon","coordinates":[[[[-1.50683,53.69735],[-1.50713,53.69736],[-1.50742,53.69737],[-1.50739,53.69766],[-1.5068,53.69764],[-1.50683,53.69735]]]]}},
{ "type":"Feature","properties":{"osm_way_id":"718460690","name":"ALDI","building":"yes","shop":"supermarket","other":{"addr:city":"Wakefield","addr:housenumber":"1","addr:postcode":"WF1 2UZ","addr:street":"Snow Hill Way","brand":"ALDI","brand:wikidata":"Q41171672","brand:wikipedia":"en:Aldi","fhrs:id":"999652"}}, "geometry":{"type":"MultiPolygon","coordinates":[[[[-1.5068,53.69764],[-1.50642,53.69763],[-1.50641,53.69768],[-1.50625,53.69768],[-1.50625,53.69762],[-1.5059,53.69761],[-1.50591,53.69752],[-1.50596,53.69752],[-1.50598,53.69729],[-1.50608,53.69729],[-1.50608,53.69732],[-1.50683,53.69735],[-1.5068,53.69764]]]]}},
{ "type":"Feature","properties":{"osm_way_id":"730250880","name":"ALDI","building":"yes","shop":"supermarket","other":{"addr:city":"Castleford","addr:postcode":"WF10 4RJ","addr:street":"Park Road","addr:town":"Castleford","brand":"ALDI","brand:wikidata":"Q41171672","brand:wikipedia":"en:Aldi","building:levels":"1","currency:GBP":"yes","fhrs:id":"1068662","mapillary":"zpffpM96mxzgrUjeq3qszQ","opening_hours:covid19":"Mo-Sa 08:00-22:00; Su 10:00-16:00","payment:cash":"yes","payment:coins":"yes","payment:contactless":"yes","payment:credit_cards":"yes","payment:debit_cards":"yes","payment:visa_debit":"yes","second_hand":"no","wheelchair":"yes"}}, "geometry":{"type":"MultiPolygon","coordinates":[[[[-1.33462,53.71121],[-1.33454,53.71102],[-1.3346,53.71101],[-1.33464,53.711],[-1.3346,53.7109],[-1.33364,53.71105],[-1.33366,53.7111],[-1.33368,53.71114],[-1.33373,53.71113],[-1.33382,53.71133],[-1.33421,53.71127],[-1.33462,53.71121]]]]}},
{ "type":"Feature","properties":{"osm_way_id":"759407543","name":"Jack's","building":"yes","shop":"supermarket","other":{"brand":"Jack's","fhrs:id":"1207559","addr:city":"Wakefield","addr:unit":"1","addr:street":"Ings Road","addr:postcode":"WF2 9SD","addr:housename":"Westgate Retail And Leisure Park","brand:wikidata":"Q60741213","brand:wikipedia":"en:Jack's (store)"}}, "geometry":{"type":"MultiPolygon","coordinates":[[[[-1.50533,53.67839],[-1.5051,53.6788],[-1.50532,53.67885],[-1.50534,53.67881],[-1.5055,53.67885],[-1.50572,53.67846],[-1.50533,53.67839]]]]}},
{ "type":"Feature","properties":{"osm_way_id":"796298159","name":"Asda","building":"yes","shop":"supermarket","other":{"addr:country":"GB","addr:postcode":"WF6 2AL","addr:street":"High Street","brand":"Asda","brand:wikidata":"Q297410","brand:wikipedia":"en:Asda","contact:website":"https:\/\/storelocator.asda.com\/yorkshire-&-humber\/normanton\/high-street","fhrs:id":"314418","operator":"Asda Stores Ltd"}}, "geometry":{"type":"MultiPolygon","coordinates":[[[[-1.41678,53.70032],[-1.41648,53.69997],[-1.41656,53.69994],[-1.41653,53.69991],[-1.41647,53.69993],[-1.41641,53.69986],[-1.41661,53.6998],[-1.41668,53.69988],[-1.41667,53.69989],[-1.41669,53.69991],[-1.41679,53.69987],[-1.41703,53.70016],[-1.41704,53.70017],[-1.41708,53.70016],[-1.41712,53.7002],[-1.41708,53.70022],[-1.41709,53.70023],[-1.41678,53.70032]]]]}},
{ "type":"Feature","properties":{"osm_way_id":"854914832","name":"Lidl","building":"supermarket","shop":"supermarket","other":{"addr:postcode":"WF6 2AY","addr:street":"Altofts Road","brand":"Lidl","brand:wikidata":"Q151954","brand:wikipedia":"en:Lidl","fhrs:id":"759594"}}, "geometry":{"type":"MultiPolygon","coordinates":[[[[-1.42196,53.70085],[-1.42191,53.70083],[-1.42163,53.70109],[-1.42136,53.701],[-1.42134,53.70101],[-1.42118,53.70095],[-1.42164,53.70051],[-1.4217,53.70053],[-1.42177,53.70046],[-1.4222,53.70062],[-1.42196,53.70085]]]]}},
{ "type":"Feature","properties":{"osm_way_id":"859922873","name":"M&S Foodhall","building":"yes","shop":"supermarket","other":{"addr:housenumber":"9","addr:postcode":"WF8 1AL","addr:street":"Beastfair","brand":"M&S Foodhall","brand:wikidata":"Q714491","brand:wikipedia":"en:Marks & Spencer"}}, "geometry":{"type":"MultiPolygon","coordinates":[[[[-1.31276,53.69095],[-1.31271,53.69091],[-1.31265,53.69087],[-1.3126,53.69089],[-1.31257,53.69087],[-1.31221,53.69106],[-1.3121,53.69112],[-1.31215,53.69115],[-1.31226,53.6912],[-1.31241,53.69112],[-1.3125,53.69107],[-1.31251,53.69107],[-1.31276,53.69095]]]]}},
{ "type":"Feature","properties":{"osm_way_id":"860339990","name":"ALDI","building":"yes","shop":"supermarket","other":{"addr:postcode":"WF10 1EQ","addr:street":"Enterprise Way","brand":"ALDI","brand:wikidata":"Q41171672","brand:wikipedia":"en:Aldi","fhrs:id":"313948","operator":"Aldi"}}, "geometry":{"type":"MultiPolygon","coordinates":[[[[-1.3578,53.72364],[-1.35783,53.72368],[-1.35731,53.72382],[-1.35725,53.72384],[-1.35728,53.72389],[-1.35726,53.72389],[-1.35739,53.72405],[-1.35743,53.72404],[-1.35817,53.72384],[-1.35798,53.7236],[-1.3578,53.72364]]]]}},
{ "type":"Feature","properties":{"osm_way_id":"881865013","name":"Lidl","building":"yes","shop":"supermarket","other":{"addr:city":"Wakefield","addr:postcode":"WF5 8DA","addr:street":"Kingsway","brand":"Lidl","brand:wikidata":"Q151954","brand:wikipedia":"en:Lidl","fhrs:id":"404482"}}, "geometry":{"type":"MultiPolygon","coordinates":[[[[-1.5815,53.68022],[-1.58144,53.68032],[-1.58152,53.68034],[-1.58147,53.68042],[-1.58144,53.68047],[-1.58165,53.68052],[-1.58162,53.68057],[-1.58218,53.68069],[-1.58234,53.68042],[-1.58232,53.68041],[-1.5815,53.68022]]]]}},
{ "type":"Feature","properties":{"osm_way_id":"912900323","natural":"water","other":{"water":"wastewater"}}, "geometry":{"type":"MultiPolygon","coordinates":[[[[-1.45251,53.6611],[-1.45203,53.66094],[-1.45217,53.66079],[-1.45265,53.66095],[-1.45251,53.6611]]]]}},
{ "type":"Feature","properties":{"osm_way_id":"914329399","name":"ALDI","building":"yes","shop":"supermarket","other":{"addr:postcode":"WF9 2AA","addr:street":"Barnsley Road","addr:suburb":"South Elmsall","addr:town":"Pontefract","brand":"ALDI","brand:wikidata":"Q41171672","brand:wikipedia":"en:Aldi","fhrs:id":"1173557"}}, "geometry":{"type":"MultiPolygon","coordinates":[[[[-1.29563,53.59508],[-1.29504,53.59463],[-1.29496,53.59467],[-1.295,53.5947],[-1.29473,53.59483],[-1.29525,53.59522],[-1.29548,53.59511],[-1.2955,53.59512],[-1.29551,53.59513],[-1.29563,53.59508]]]]}},
{ "type":"Feature","properties":{"osm_way_id":"945963523","name":"Sainsbury's","building":"retail","shop":"supermarket","other":{"addr:city":"Wakefield","addr:housenumber":"1","addr:postcode":"WF1 1RS","addr:street":"Ings Road","brand":"Sainsbury's","brand:wikidata":"Q152096","brand:wikipedia":"en:Sainsbury's","fhrs:id":"314406","opening_hours":"Mo-Fr 07:00-22:00; Sa 06:00-22:00; Su 10:00-16:00","website":"https:\/\/stores.sainsburys.co.uk\/2295\/wakefield-ings-road"}}, "geometry":{"type":"MultiPolygon","coordinates":[[[[-1.50002,53.67754],[-1.49914,53.6773],[-1.49892,53.67726],[-1.49886,53.67739],[-1.49894,53.6774],[-1.49893,53.67745],[-1.49904,53.67746],[-1.49902,53.67748],[-1.49881,53.67797],[-1.49875,53.67796],[-1.49871,53.67806],[-1.49959,53.6782],[-1.49962,53.67817],[-1.49967,53.67816],[-1.49971,53.67809],[-1.49993,53.67812],[-1.50011,53.67773],[-1.49994,53.67771],[-1.50002,53.67754]]]]}},
{ "type":"Feature","properties":{"osm_way_id":"949246683","name":"Tesco","building":"yes","shop":"supermarket","other":{"addr:housenumber":"10","addr:postcode":"WF8 1BJ","addr:street":"Cornmarket","addr:town":"Pontefract","brand":"Tesco","brand:wikidata":"Q487494","brand:wikipedia":"en:Tesco","contact:website":"https:\/\/www.tesco.com\/store-locator\/pontefract\/12-cornmarket","fhrs:id":"284081","opening_hours":"Mo-Sa 06:00-22:00; Su 10:00-16:00","phone":"+44 345 677 9540","toilets:wheelchair":"yes","wheelchair":"yes"}}, "geometry":{"type":"MultiPolygon","coordinates":[[[[-1.31362,53.69201],[-1.31361,53.69211],[-1.31371,53.69211],[-1.31381,53.69212],[-1.3138,53.6922],[-1.31383,53.69219],[-1.31395,53.6923],[-1.31398,53.69229],[-1.31409,53.69239],[-1.31414,53.69238],[-1.31423,53.69246],[-1.31426,53.69245],[-1.31436,53.69255],[-1.31413,53.69264],[-1.31379,53.69277],[-1.31345,53.69246],[-1.3134,53.69248],[-1.31332,53.69241],[-1.31331,53.6924],[-1.31343,53.69235],[-1.31341,53.69234],[-1.31348,53.69229],[-1.31353,53.69224],[-1.31354,53.69214],[-1.31355,53.6921],[-1.31356,53.692],[-1.31362,53.69201]]]]}},
{ "type":"Feature","properties":{"osm_way_id":"970320333","name":"Heron Foods","building":"yes","shop":"supermarket","other":{"addr:postcode":"WF9 2SE","addr:street":"Barnsley Road","addr:suburb":"South Elmsall","addr:town":"Pontefract","brand":"Heron Foods","brand:wikidata":"Q5743472","brand:wikipedia":"en:Heron Foods","contact:website":"https:\/\/heronfoods.com\/storelocator\/store-details\/south-elmsall","fhrs:id":"731092"}}, "geometry":{"type":"MultiPolygon","coordinates":[[[[-1.28987,53.59502],[-1.28987,53.5951],[-1.28976,53.5951],[-1.28975,53.5952],[-1.29004,53.59521],[-1.29006,53.59502],[-1.28987,53.59502]]]]}},
{ "type":"Feature","properties":{"osm_way_id":"989766757","name":"Sainsbury's","building":"yes","shop":"supermarket","other":{"addr:city":"Wakefield","addr:postcode":"WF1 1QQ","addr:street":"Lower Trinity Walk","brand":"Sainsbury's","brand:wikidata":"Q152096","brand:wikipedia":"en:Sainsbury's","fhrs:id":"314403","level":"0"}}, "geometry":{"type":"MultiPolygon","coordinates":[[[[-1.49481,53.6852],[-1.49484,53.68505],[-1.4941,53.685],[-1.49379,53.68497],[-1.49351,53.68495],[-1.49302,53.68492],[-1.49294,53.68491],[-1.49291,53.68507],[-1.49348,53.68512],[-1.49375,53.68514],[-1.49406,53.68516],[-1.49407,53.68514],[-1.49481,53.6852]]]]}}
]
}
