{
"type": "FeatureCollection",
"features": [
{ "type":"Feature","properties":{"osm_id":"28163978","name":"The Co-operative Food","other":{"addr:city":"Stotfold","addr:country":"GB","addr:postcode":"SG5 4NL","addr:street":"Mulberry Close","fhrs:authority":"Central Bedfordshire","fhrs:id":"451219","fhrs:local_authority_id":"85421","operator":"Co-Op","shop":"supermarket"}}, "geometry":{"type":"Point","coordinates":[-0.22687,52.01352 ]}},
{ "type":"Feature","properties":{"osm_id":"49582394","name":"Tesco","other":{"addr:city":"Flitwick","addr:country":"GB","addr:postcode":"MK45 1LX","addr:street":"Coniston Road","brand":"Tesco","brand:wikidata":"Q487494","brand:wikipedia":"en:Tesco","contact:website":"https:\/\/www.tesco.com\/store-locator\/bedford\/coniston-rd","fhrs:id":"451241","operator":"Tesco Stores Ltd","shop":"supermarket"}}, "geometry":{"type":"Point","coordinates":[-0.49774,52.00295 ]}},
{ "type":"Feature","properties":{"osm_id":"247418458","name":"The Co-Operative Food","other":{"addr:city":"Caddington","addr:country":"GB","addr:housenumber":"9-11","addr:postcode":"LU1 4EE","addr:street":"Manor Road","fhrs:authority":"Central Bedfordshire","fhrs:id":"450555","fhrs:local_authority_id":"60404","shop":"supermarket"}}, "geometry":{"type":"Point","coordinates":[-0.45738,51.86564 ]}},
{ "type":"Feature","properties":{"osm_id":"469290088","name":"Budgens","other":{"addr:city":"Bedford","addr:country":"GB","addr:housenumber":"26-32","addr:postcode":"MK45 1BX","addr:street":"Brookes Road","addr:town":"Flitwick","brand":"Budgens","brand:wikidata":"Q4985016","brand:wikipedia":"en:Budgens","fhrs:id":"1256357","opening_hours":"Mo-Su 06:00-24:00","opening_hours:covid19":"Mo-Su 08:00-22:00","operator":"Budgens","payment:cash":"yes","payment:credit_cards":"yes","shop":"supermarket"}}, "geometry":{"type":"Point","coordinates":[-0.49231,52.00636 ]}},
{ "type":"Feature","properties":{"osm_id":"741577627","name":"The Co-operative","other":{"addr:city":"Sandy","addr:country":"GB","addr:housename":"Sandy Filling Station","addr:postcode":"SG19 1NA","addr:street":"Great North Road","fhrs:authority":"Central Bedfordshire","fhrs:id":"1173468","fhrs:local_authority_id":"78211","shop":"supermarket"}}, "geometry":{"type":"Point","coordinates":[-0.29992,52.12775 ]}},
{ "type":"Feature","properties":{"osm_id":"2436747444","name":"Co-op Food","other":{"addr:city":"Biggleswade","addr:country":"GB","addr:housenumber":"6","addr:postcode":"SG18 8AT","addr:street":"Kingsfield Road","brand":"Co-op Food","brand:wikidata":"Q3277439","brand:wikipedia":"en:Co-op Food","fhrs:authority":"Central Bedfordshire","fhrs:id":"546560","fhrs:local_authority_id":"78018","shop":"supermarket"}}, "geometry":{"type":"Point","coordinates":[-0.24644,52.08317 ]}},
{ "type":"Feature","properties":{"osm_id":"3006662877","name":"Parc Market","other":{"shop":"supermarket"}}, "geometry":{"type":"Point","coordinates":[-0.53042,52.02393 ]}},
{ "type":"Feature","properties":{"osm_id":"6693359304","name":"McColls","other":{"addr:city":"Ampthill","addr:country":"GB","addr:housenumber":"17","addr:postcode":"MK45 2PL","addr:street":"Church Street","fhrs:authority":"Central Bedfordshire","fhrs:id":"555917","fhrs:local_authority_id":"69776","shop":"supermarket"}}, "geometry":{"type":"Point","coordinates":[-0.49217,52.03199 ]}},
{ "type":"Feature","properties":{"osm_id":"6698119104","name":"Downside Supermarket","other":{"addr:city":"Dunstable","addr:country":"GB","addr:housenumber":"14","addr:postcode":"LU5 4AP","addr:street":"Mayfield Road","fhrs:authority":"Central Bedfordshire","fhrs:id":"450604","fhrs:local_authority_id":"65879","shop":"supermarket"}}, "geometry":{"type":"Point","coordinates":[-0.50601,51.87818 ]}},
{ "type":"Feature","properties":{"osm_id":"6699362654","name":"Co-operative","other":{"addr:city":"Dunstable","addr:country":"GB","addr:housenumber":"37-43","addr:postcode":"LU5 4NP","addr:street":"Katherine Drive","fhrs:authority":"Central Bedfordshire","fhrs:id":"450621","fhrs:local_authority_id":"66105","shop":"supermarket"}}, "geometry":{"type":"Point","coordinates":[-0.49853,51.89252 ]}},
{ "type":"Feature","properties":{"osm_id":"6711067869","name":"Iceland","other":{"addr:city":"Dunstable","addr:country":"GB","addr:housenumber":"66","addr:postcode":"LU6 1LE","addr:street":"High Street North","brand":"Iceland","brand:wikidata":"Q721810","fhrs:authority":"Central Bedfordshire","fhrs:id":"1173435","fhrs:local_authority_id":"67175","shop":"supermarket"}}, "geometry":{"type":"Point","coordinates":[-0.52315,51.88793 ]}},
{ "type":"Feature","properties":{"osm_id":"6717234087","name":"Kopernik Polish Supermarket","other":{"addr:city":"Dunstable","addr:country":"GB","addr:housenumber":"17-19","addr:postcode":"LU6 1SL","addr:street":"West Street","fhrs:authority":"Central Bedfordshire","fhrs:id":"1038469","fhrs:local_authority_id":"166739","shop":"supermarket"}}, "geometry":{"type":"Point","coordinates":[-0.52224,51.88543 ]}},
{ "type":"Feature","properties":{"osm_id":"6727659026","name":"Co-op Food","other":{"addr:city":"Marston Moretaine","addr:country":"GB","addr:housenumber":"1","addr:postcode":"MK43 0PH","addr:street":"Station Road","brand":"Co-op Food","brand:wikidata":"Q3277439","brand:wikipedia":"en:Co-op Food","fhrs:authority":"Central Bedfordshire","fhrs:id":"450449","fhrs:local_authority_id":"22269","opening_hours":"Mo-Su 06:00-22:00","operator":"The Co-operative Group","operator:wikidata":"Q117202","operator:wikipedia":"en:The Co-operative Group","shop":"supermarket","website":"https:\/\/www.coop.co.uk\/store-finder\/MK43-0PH\/1-station-road"}}, "geometry":{"type":"Point","coordinates":[-0.54778,52.06302 ]}},
{ "type":"Feature","properties":{"osm_id":"6736517160","name":"Co-operative","other":{"addr:city":"Dunstable","addr:country":"GB","addr:housenumber":"121","addr:postcode":"LU6 1DP","addr:street":"Westfield Road","fhrs:authority":"Central Bedfordshire","fhrs:id":"624729","fhrs:local_authority_id":"81060","shop":"supermarket"}}, "geometry":{"type":"Point","coordinates":[-0.53627,51.88859 ]}},
{ "type":"Feature","properties":{"osm_id":"6746754265","name":"Co-operative","other":{"addr:city":"Leighton Buzzard","addr:country":"GB","addr:housenumber":"109-113","addr:postcode":"LU7 3PL","addr:street":"Waterdell","fhrs:authority":"Central Bedfordshire","fhrs:id":"1173393","fhrs:local_authority_id":"20507","shop":"supermarket"}}, "geometry":{"type":"Point","coordinates":[-0.64516,51.91694 ]}},
{ "type":"Feature","properties":{"osm_id":"9587500340","name":"Tesco Express","other":{"operator":"Tesco","shop":"supermarket"}}, "geometry":{"type":"Point","coordinates":[-0.24831,51.99896 ]}},
{ "type":"Feature","properties":{"osm_way_id":"26568645","name":"Asda","building":"yes","shop":"supermarket","other":{"addr:city":"Dunstable","addr:country":"GB","addr:postcode":"LU5 4JD","addr:street":"Court Drive","brand":"Asda","brand:wikidata":"Q297410","brand:wikipedia":"en:Asda","contact:facebook":"https:\/\/www.facebook.com\/asda\/","contact:phone":"+44 1582 697000","contact:twitter":"@asda","contact:website":"https:\/\/storelocator.asda.com\/east-of-england\/dunstable\/court-drive","fhrs:authority":"Central Bedfordshire","fhrs:id":"450148","opening_hours:covid19":"Mo-Sa 08:00-22:00; Su 10:00-16:00","operator":"Asda Stores Ltd"}}, "geometry":{"type":"MultiPolygon","coordinates":[[[[-0.52113,51.88922],[-0.52032,51.88967],[-0.5197,51.88918],[-0.52049,51.88871],[-0.52113,51.88922]]]]}},
{ "type":"Feature","properties":{"osm_way_id":"26569202","name":"Sainsbury's","building":"retail","shop":"supermarket","other":{"addr:city":"Dunstable","addr:country":"GB","addr:housenumber":"2-8","addr:postcode":"LU5 4RF","addr:street":"Luton Road","brand":"Sainsbury's","brand:wikidata":"Q152096","building:levels":"1","fhrs:authority":"Central Bedfordshire","fhrs:id":"450166","fhrs:local_authority_id":"12949","opening_hours":"Mo-Sa 07:00-22:00; Su 10:00-16:00","roof:shape":"flat"}}, "geometry":{"type":"MultiPolygon","coordinates":[[[[-0.51233,51.88848],[-0.51158,51.88876],[-0.51239,51.88956],[-0.51312,51.88928],[-0.51233,51.88848]]]]}},
{ "type":"Feature","properties":{"osm_way_id":"30851573","name":"Tesco","building":"yes","shop":"supermarket","other":{"addr:city":"Leighton Buzzard","addr:country":"GB","addr:postcode":"LU7 1ER","addr:street":"Vimy Road","alt_name":"Tesco Leighton Buzzard Superstore","branch":"Leighton Buzzard Superstore","brand":"Tesco","brand:wikidata":"Q487494","brand:wikipedia":"en:Tesco","contact:website":"https:\/\/www.tesco.com\/store-locator\/leighton-buzzard","fhrs:id":"450742","opening_hours":"Mo-Sa 06:00-24:00, Su 10:00-16:00","operator":"Tesco Stores Ltd","organic":"yes","phone":"+44 3456 779421","wheelchair":"yes"}}, "geometry":{"type":"MultiPolygon","coordinates":[[[[-0.66996,51.9181],[-0.66987,51.91809],[-0.66992,51.91783],[-0.66972,51.91782],[-0.66929,51.91779],[-0.66918,51.91778],[-0.66915,51.9179],[-0.66905,51.91845],[-0.66901,51.91863],[-0.66908,51.91863],[-0.66907,51.91867],[-0.66917,51.91867],[-0.66917,51.9187],[-0.66921,51.91871],[-0.66918,51.91885],[-0.66957,51.91888],[-0.66981,51.91884],[-0.66996,51.9181]]]]}},
{ "type":"Feature","properties":{"osm_way_id":"66474594","name":"Co-operative","building":"yes","shop":"supermarket","other":{"addr:city":"Sandy","addr:country":"GB","addr:housenumber":"30","addr:postcode":"SG19 1JA","addr:street":"Market Square","fhrs:authority":"Central Bedfordshire","fhrs:id":"895293","fhrs:local_authority_id":"159597"}}, "geometry":{"type":"MultiPolygon","coordinates":[[[[-0.28871,52.12886],[-0.28883,52.12882],[-0.2888,52.12878],[-0.28883,52.12877],[-0.28872,52.12864],[-0.2887,52.12864],[-0.28861,52.12854],[-0.28814,52.12868],[-0.28812,52.12872],[-0.28815,52.12876],[-0.28815,52.12876],[-0.28821,52.12878],[-0.28822,52.12878],[-0.28832,52.12875],[-0.28834,52.12876],[-0.28815,52.12882],[-0.28813,52.12887],[-0.28818,52.12893],[-0.28828,52.12895],[-0.28837,52.12907],[-0.28842,52.12908],[-0.28875,52.12898],[-0.28877,52.12893],[-0.28871,52.12886]]]]}},
{ "type":"Feature","properties":{"osm_way_id":"67070121","name":"Aldi","building":"retail","shop":"supermarket","other":{"addr:city":"Biggleswade","addr:country":"GB","addr:postcode":"SG18 8AY","addr:street":"Bonds Lane","brand":"ALDI","brand:wikidata":"Q41171672","brand:wikipedia":"en:Aldi","description":"Building originally constructed in 1990 for Budgens supermarket. Remodelled by Aldi in 2007. https:\/\/www.biggleswadehistory.org.uk\/research\/roads\/bonds-lane-palace-street-foundry-lane\/","fhrs:id":"539737","year_of_construction":"1990"}}, "geometry":{"type":"MultiPolygon","coordinates":[[[[-0.26426,52.08541],[-0.26409,52.08541],[-0.26376,52.08543],[-0.26375,52.08538],[-0.26374,52.08526],[-0.26372,52.08506],[-0.26371,52.08496],[-0.26421,52.08494],[-0.26426,52.08541]]]]}},
{ "type":"Feature","properties":{"osm_way_id":"78637164","name":"Asda","building":"yes","shop":"supermarket","other":{"addr:city":"Biggleswade","addr:country":"GB","addr:postcode":"SG18 0JS","addr:street":"Church Street","brand":"Asda","brand:wikidata":"Q297410","brand:wikipedia":"en:Asda","contact:facebook":"https:\/\/www.facebook.com\/asda\/","contact:twitter":"@asda","contact:website":"https:\/\/storelocator.asda.com\/east-of-england\/biggleswade\/church-street","description":"Built on site of Greene King brewery","fhrs:authority":"Central Bedfordshire","fhrs:id":"450433","fhrs:local_authority_id":"21904","operator":"Asda Stores Ltd","year_of_construction":"2005"}}, "geometry":{"type":"MultiPolygon","coordinates":[[[[-0.2643,52.08813],[-0.26524,52.08797],[-0.26555,52.08867],[-0.26469,52.08881],[-0.26471,52.08887],[-0.26433,52.08893],[-0.26423,52.08871],[-0.26414,52.08872],[-0.26411,52.08864],[-0.2645,52.08857],[-0.2643,52.08813]]]]}},
{ "type":"Feature","properties":{"osm_way_id":"89143603","name":"Aldi","building":"yes","shop":"supermarket","other":{"addr:city":"Leighton Buzzard","addr:country":"GB","addr:postcode":"LU7 1ER","addr:street":"Vimy Road","alt_name":"ALDI Leighton Buzzard","brand":"ALDI","brand:wikidata":"Q41171672","brand:wikipedia":"en:Aldi","fhrs:id":"450741","wheelchair":"yes"}}, "geometry":{"type":"MultiPolygon","coordinates":[[[[-0.66831,51.91777],[-0.66793,51.91822],[-0.66758,51.91812],[-0.66769,51.91799],[-0.66798,51.91766],[-0.66831,51.91777]]]]}},
{ "type":"Feature","properties":{"osm_way_id":"89419292","name":"Morrisons","building":"yes","shop":"supermarket","other":{"addr:city":"Leighton Buzzard","addr:country":"GB","addr:postcode":"LU7 1WS","addr:street":"Lake Street","alt_name":"Morrisons Leighton Buzzard","brand":"Morrisons","brand:wikidata":"Q922344","brand:wikipedia":"en:Morrisons","fhrs:authority":"Central Bedfordshire","fhrs:id":"450758","fhrs:local_authority_id":"68870","wheelchair":"yes"}}, "geometry":{"type":"MultiPolygon","coordinates":[[[[-0.65685,51.91515],[-0.65666,51.91527],[-0.65659,51.91523],[-0.65628,51.91544],[-0.65606,51.91531],[-0.65576,51.9155],[-0.65546,51.91531],[-0.65556,51.91525],[-0.65529,51.9151],[-0.6555,51.91497],[-0.65559,51.91502],[-0.65609,51.91469],[-0.65685,51.91515]]]]}},
{ "type":"Feature","properties":{"osm_way_id":"93373188","name":"Sainsbury's","building":"yes","shop":"supermarket","other":{"addr:city":"Biggleswade","addr:country":"GB","addr:postcode":"SG18 0NA","addr:street":"Bells Brook","brand":"Sainsbury's","brand:wikidata":"Q152096","brand:wikipedia":"en:Sainsbury's","fhrs:authority":"Central Bedfordshire","fhrs:id":"450472","fhrs:local_authority_id":"2332"}}, "geometry":{"type":"MultiPolygon","coordinates":[[[[-0.27422,52.09378],[-0.2741,52.09298],[-0.2729,52.09305],[-0.27273,52.09306],[-0.27274,52.09308],[-0.27282,52.0936],[-0.27345,52.09356],[-0.27347,52.09369],[-0.2734,52.09369],[-0.27342,52.09383],[-0.27422,52.09378]]]]}},
{ "type":"Feature","properties":{"osm_way_id":"94355065","name":"Waitrose","building":"yes","shop":"supermarket","other":{"addr:city":"Ampthill","addr:country":"GB","addr:housenumber":"25","addr:postcode":"MK45 2LU","addr:street":"Bedford Street","brand":"Waitrose & Partners","brand:wikidata":"Q771734","brand:wikipedia":"en:Waitrose & Partners","fhrs:authority":"Central Bedfordshire","fhrs:id":"450347","fhrs:local_authority_id":"1820","operator":"Waitrose & Partners"}}, "geometry":{"type":"MultiPolygon","coordinates":[[[[-0.4944,52.03338],[-0.49416,52.03357],[-0.49346,52.03324],[-0.49357,52.03316],[-0.49351,52.03313],[-0.49373,52.03295],[-0.4938,52.0329],[-0.49395,52.03284],[-0.49407,52.03298],[-0.4941,52.03302],[-0.49425,52.03318],[-0.49427,52.03316],[-0.4944,52.03338]]]]}},
{ "type":"Feature","properties":{"osm_way_id":"112173075","name":"Waitrose","building":"retail","shop":"supermarket","other":{"addr:city":"Leighton Buzzard","addr:country":"GB","addr:housenumber":"7","addr:postcode":"LU7 1DH","addr:street":"Waterborne Walk","alt_name":"Waitrose Leighton Buzzard","brand":"Waitrose","brand:wikidata":"Q771734","brand:wikipedia":"en:Waitrose & Partners","fhrs:authority":"Central Bedfordshire","fhrs:id":"450287","fhrs:local_authority_id":"16599","official_name":"Waitrose & Partners","operator":"Waitrose & Partners","wheelchair":"yes"}}, "geometry":{"type":"MultiPolygon","coordinates":[[[[-0.66399,51.9171],[-0.66399,51.91713],[-0.66395,51.91713],[-0.66398,51.91722],[-0.66409,51.9172],[-0.6641,51.91724],[-0.66427,51.91719],[-0.66421,51.91706],[-0.66444,51.91703],[-0.66434,51.91675],[-0.66447,51.91672],[-0.66445,51.9167],[-0.66443,51.91665],[-0.66429,51.91667],[-0.66431,51.91672],[-0.66386,51.91677],[-0.66389,51.91684],[-0.66399,51.9171]]]]}},
{ "type":"Feature","properties":{"osm_way_id":"118741843","name":"Co-Operative","building":"yes","shop":"supermarket","other":{"addr:city":"Cranfield","addr:country":"GB","addr:postcode":"MK43 0JG","addr:street":"Mill Road","fhrs:authority":"Central Bedfordshire","fhrs:id":"450290","fhrs:local_authority_id":"1667"}}, "geometry":{"type":"MultiPolygon","coordinates":[[[[-0.60202,52.07318],[-0.60222,52.07328],[-0.60227,52.07324],[-0.60228,52.07325],[-0.60231,52.07323],[-0.60243,52.07312],[-0.60222,52.07302],[-0.60202,52.07318]]]]}},
{ "type":"Feature","properties":{"osm_way_id":"118741844","name":"Budgens","building":"yes","shop":"supermarket","other":{"addr:city":"Cranfield","addr:country":"GB","addr:housenumber":"57-67","addr:postcode":"MK43 0DP","addr:street":"High Street","brand":"Budgens","brand:wikidata":"Q4985016","brand:wikipedia":"en:Budgens","fhrs:authority":"Central Bedfordshire","fhrs:id":"450431","fhrs:local_authority_id":"2185"}}, "geometry":{"type":"MultiPolygon","coordinates":[[[[-0.61053,52.06835],[-0.61056,52.06833],[-0.6104,52.06824],[-0.6107,52.06803],[-0.61096,52.06817],[-0.61062,52.0684],[-0.61053,52.06835]]]]}},
{ "type":"Feature","properties":{"osm_way_id":"120009136","name":"Cooperative Food","building":"yes","shop":"supermarket","other":{"addr:city":"Sandy","addr:country":"GB","addr:housename":"The Local Centre","addr:postcode":"SG19 2TG","addr:street":"Kestrel Way","fhrs:authority":"Central Bedfordshire","fhrs:id":"724193","fhrs:local_authority_id":"151761"}}, "geometry":{"type":"MultiPolygon","coordinates":[[[[-0.29463,52.14146],[-0.29453,52.14123],[-0.29472,52.1412],[-0.29475,52.14128],[-0.29479,52.14127],[-0.29482,52.14135],[-0.29479,52.14136],[-0.29482,52.14143],[-0.29463,52.14146]]]]}},
{ "type":"Feature","properties":{"osm_way_id":"206412895","name":"Tesco Express","building":"yes","shop":"supermarket","other":{"addr:city":"Shefford","addr:country":"GB","addr:housename":"Shefford Service Station","addr:postcode":"SG17 5LH","addr:street":"Ivel Road","brand":"Tesco Express","brand:wikidata":"Q98456772","brand:wikipedia":"en:Tesco","fhrs:authority":"Central Bedfordshire","fhrs:id":"811625","fhrs:local_authority_id":"1841","operator":"Tesco Stores Ltd"}}, "geometry":{"type":"MultiPolygon","coordinates":[[[[-0.33305,52.03153],[-0.33309,52.03141],[-0.33271,52.03137],[-0.33267,52.03149],[-0.33305,52.03153]]]]}},
{ "type":"Feature","properties":{"osm_way_id":"206413711","name":"Morrisons","building":"yes","shop":"supermarket","other":{"addr:city":"Shefford","addr:country":"GB","addr:postcode":"SG17 5DZ","addr:street":"St Francis Way","brand":"Morrisons","brand:wikidata":"Q922344","brand:wikipedia":"en:Morrisons","fhrs:id":"450910"}}, "geometry":{"type":"MultiPolygon","coordinates":[[[[-0.33392,52.03749],[-0.33326,52.03732],[-0.33294,52.03778],[-0.33307,52.03782],[-0.333,52.03791],[-0.3331,52.03794],[-0.33318,52.03783],[-0.33361,52.03794],[-0.33371,52.0378],[-0.33377,52.03781],[-0.33381,52.03775],[-0.33376,52.03773],[-0.33392,52.03749]]]]}},
{ "type":"Feature","properties":{"osm_way_id":"279493945","name":"Tesco","building":"retail","shop":"supermarket","other":{"addr:city":"Sandy","addr:country":"GB","addr:postcode":"SG19 1NX","addr:street":"New Road","brand":"Tesco","brand:wikidata":"Q487494","brand:wikipedia":"en:Tesco","fhrs:authority":"Central Bedfordshire","fhrs:id":"585531","fhrs:local_authority_id":"152277","operator":"Tesco Stores Ltd"}}, "geometry":{"type":"MultiPolygon","coordinates":[[[[-0.28236,52.12272],[-0.28109,52.12243],[-0.2813,52.12202],[-0.28229,52.12222],[-0.28235,52.12231],[-0.28229,52.12245],[-0.2825,52.1225],[-0.28236,52.12272]]]]}},
{ "type":"Feature","properties":{"osm_way_id":"389521999","name":"Morrisons","building":"yes","shop":"supermarket","other":{"addr:city":"Houghton Regis","addr:country":"GB","addr:postcode":"LU5 5EX","addr:street":"High Street","brand":"Morrisons","brand:wikidata":"Q922344","brand:wikipedia":"en:Morrisons","fhrs:authority":"Central Bedfordshire","fhrs:id":"451082","fhrs:local_authority_id":"79386"}}, "geometry":{"type":"MultiPolygon","coordinates":[[[[-0.52324,51.90317],[-0.52315,51.90308],[-0.52302,51.90313],[-0.52273,51.90281],[-0.52184,51.90312],[-0.52227,51.90358],[-0.52298,51.90333],[-0.52294,51.90328],[-0.52324,51.90317]]]]}},
{ "type":"Feature","properties":{"osm_way_id":"414767593","name":"Co-op","building":"yes","shop":"supermarket","other":{"addr:city":"Barton-le-Clay","addr:country":"GB","addr:housenumber":"85","addr:postcode":"MK45 4LL","addr:street":"Bedford Road","fhrs:authority":"Central Bedfordshire","fhrs:id":"450805","fhrs:local_authority_id":"69884","operator":"The Co-operative Group"}}, "geometry":{"type":"MultiPolygon","coordinates":[[[[-0.42817,51.96828],[-0.428,51.96842],[-0.42775,51.9683],[-0.42771,51.96833],[-0.42758,51.96827],[-0.42779,51.9681],[-0.42817,51.96828]]]]}},
{ "type":"Feature","properties":{"osm_way_id":"421053697","name":"Tesco Extra","building":"yes","shop":"supermarket","other":{"addr:city":"Dunstable","addr:country":"GB","addr:postcode":"LU5 4JU","addr:street":"Skimpot Road","brand":"Tesco Extra","brand:wikidata":"Q25172225","brand:wikipedia":"en:Tesco Extra","fhrs:authority":"Central Bedfordshire","fhrs:id":"450170","fhrs:local_authority_id":"13518","operator":"Tesco Stores Ltd"}}, "geometry":{"type":"MultiPolygon","coordinates":[[[[-0.48451,51.88994],[-0.48584,51.88981],[-0.48567,51.88919],[-0.48546,51.88921],[-0.48545,51.88912],[-0.48482,51.88918],[-0.48449,51.88932],[-0.48445,51.88917],[-0.48425,51.88919],[-0.48451,51.88994]]]]}},
{ "type":"Feature","properties":{"osm_way_id":"545522517","name":"Aldi","building":"yes","shop":"supermarket","other":{"addr:city":"Dunstable","addr:country":"GB","addr:postcode":"LU5 4RP","addr:street":"Church Street","brand":"ALDI","brand:wikidata":"Q41171672","brand:wikipedia":"en:Aldi","fhrs:id":"818198"}}, "geometry":{"type":"MultiPolygon","coordinates":[[[[-0.51858,51.88731],[-0.51848,51.88715],[-0.51843,51.88716],[-0.51836,51.88705],[-0.51841,51.88704],[-0.51827,51.88681],[-0.51873,51.88672],[-0.5188,51.88684],[-0.51875,51.88685],[-0.51898,51.88722],[-0.51858,51.88731]]]]}},
{ "type":"Feature","properties":{"osm_way_id":"619574175","name":"M&S Simply Food","building":"retail","shop":"supermarket","other":{"addr:city":"Leighton Buzzard","addr:country":"GB","addr:postcode":"LU7 4UX","addr:street":"Grovebury Road","addr:unit":"Unit B Grovebury Retail Park","brand":"M&S Simply Food","brand:wikidata":"Q714491","brand:wikipedia":"en:Marks & Spencer","fhrs:id":"1103837"}}, "geometry":{"type":"MultiPolygon","coordinates":[[[[-0.66562,51.90315],[-0.66494,51.90314],[-0.66494,51.90347],[-0.66561,51.90348],[-0.66562,51.90315]]]]}},
{ "type":"Feature","properties":{"osm_way_id":"619574177","name":"Aldi","building":"retail","shop":"supermarket","other":{"brand":"ALDI","brand:wikidata":"Q41171672","brand:wikipedia":"en:Aldi"}}, "geometry":{"type":"MultiPolygon","coordinates":[[[[-0.66627,51.9042],[-0.66654,51.90394],[-0.66636,51.90387],[-0.66638,51.90385],[-0.66622,51.90378],[-0.66619,51.9038],[-0.66584,51.90366],[-0.66557,51.90392],[-0.66627,51.9042]]]]}},
{ "type":"Feature","properties":{"osm_way_id":"667686345","name":"Co-op Food","building":"yes","shop":"supermarket","other":{"addr:city":"Marston Moretaine","addr:country":"GB","addr:postcode":"MK43 0LD","addr:street":"Bedford Road","brand":"Co-op Food","brand:wikidata":"Q3277439","brand:wikipedia":"en:Co-op Food","fhrs:authority":"Central Bedfordshire","fhrs:id":"1030542","fhrs:local_authority_id":"159855","opening_hours":"Mo-Sa 07:00-22:00; Su 10:00-16:00","operator":"Central England Co-operative","operator:wikidata":"Q117202","operator:wikipedia":"en:The Co-operative Group"}}, "geometry":{"type":"MultiPolygon","coordinates":[[[[-0.54711,52.06573],[-0.54678,52.06607],[-0.54645,52.06595],[-0.54677,52.06561],[-0.54711,52.06573]]]]}},
{ "type":"Feature","properties":{"osm_way_id":"669589970","name":"Central Oriental Superstore","building":"yes","shop":"supermarket","other":{"addr:city":"Sandy","addr:country":"GB","addr:housenumber":"65-65","addr:postcode":"SG19 1DH","addr:street":"London Road","fhrs:authority":"Central Bedfordshire","fhrs:id":"451137","fhrs:local_authority_id":"80402"}}, "geometry":{"type":"MultiPolygon","coordinates":[[[[-0.29976,52.13471],[-0.29991,52.13474],[-0.29982,52.13496],[-0.29966,52.13493],[-0.29976,52.13471]]]]}},
{ "type":"Feature","properties":{"osm_way_id":"706639364","name":"Lidl","building":"yes","shop":"supermarket","other":{"addr:city":"Dunstable","addr:country":"GB","addr:street":"Luton Road","brand":"Lidl","brand:wikidata":"Q151954","fhrs:authority":"Central Bedfordshire","fhrs:id":"934281","fhrs:local_authority_id":"159694","not:addr:postcode":"LU5 4LN"}}, "geometry":{"type":"MultiPolygon","coordinates":[[[[-0.50574,51.8873],[-0.50533,51.88746],[-0.50481,51.88692],[-0.5052,51.88677],[-0.50574,51.8873]]]]}},
{ "type":"Feature","properties":{"osm_way_id":"991570506","name":"Lidl","building":"yes","shop":"supermarket","other":{"addr:city":"Biggleswade","addr:country":"GB","addr:housename":"Stratton Business Park","addr:postcode":"SG18 8NE","addr:street":"London Road","brand":"Lidl","brand:wikidata":"Q151954","brand:wikipedia":"en:Lidl","fhrs:id":"1401193","opening_hours":"Mo-Sa 08:00-22:00; Su 10:00-16:00","website":"https:\/\/www.lidl.co.uk\/"}}, "geometry":{"type":"MultiPolygon","coordinates":[[[[-0.24228,52.07477],[-0.24246,52.07473],[-0.24243,52.07468],[-0.24265,52.07463],[-0.24255,52.07447],[-0.24262,52.07445],[-0.24237,52.07404],[-0.24191,52.07414],[-0.24228,52.07477]]]]}},
{ "type":"Feature","properties":{"osm_way_id":"1039732595","name":"Lidl","building":"supermarket","shop":"supermarket","other":{"brand":"Lidl","brand:wikidata":"Q151954","brand:wikipedia":"en:Lidl"}}, "geometry":{"type":"MultiPolygon","coordinates":[[[[-0.4985,51.91815],[-0.49751,51.91782],[-0.49778,51.91752],[-0.49803,51.91761],[-0.498,51.91764],[-0.49841,51.91778],[-0.49838,51.91782],[-0.49863,51.91791],[-0.49852,51.91803],[-0.49859,51.91806],[-0.4985,51.91815]]]]}}
]
}
