{
"type": "FeatureCollection",
"features": [
{ "type":"Feature","properties":{"osm_id":"254878072","name":"Spar","other":{"addr:city":"Fort William","addr:postcode":"PH33 6JH","addr:street":"Grange Road","brand":"Spar","brand:wikidata":"Q610492","brand:wikipedia":"en:SPAR (retailer)","opening_hours":"Mo-Sa 07:00-22:00;Su 08:00-22:00","phone":"+44 1397 705562","shop":"supermarket","website":"https:\/\/www.spar.co.uk\/store-locator\/lan10842-spar-grange-fort-william"}}, "geometry":{"type":"Point","coordinates":[-5.11805,56.81203 ]}},
{ "type":"Feature","properties":{"osm_id":"376771276","name":"Co-op Food","other":{"addr:postcode":"IV51 9DA","addr:street":"Bank Street","brand":"Co-op Food","brand:wikidata":"Q3277439","brand:wikipedia":"en:Co-op Food","fhrs:id":"562538","shop":"supermarket"}}, "geometry":{"type":"Point","coordinates":[-6.1924,57.41288 ]}},
{ "type":"Feature","properties":{"osm_id":"402377300","name":"Co-op Food","other":{"shop":"supermarket","brand":"Co-op Food","fhrs:id":"360607","operator":"The Co-operative Group","addr:city":"Nairn","wheelchair":"yes","addr:street":"King Street","addr:postcode":"IV12 4DN","brand:wikidata":"Q3277439","brand:wikipedia":"en:Co-op Food","addr:housenumber":"64"}}, "geometry":{"type":"Point","coordinates":[-3.87104,57.58456 ]}},
{ "type":"Feature","properties":{"osm_id":"460032464","name":"Co-op Food","other":{"addr:city":"Beauly","addr:postcode":"IV4 7EH","addr:street":"Station Road","brand":"Co-op Food","brand:wikidata":"Q3277439","brand:wikipedia":"en:Co-op Food","fhrs:id":"611481","operator":"The Co-operative Group","shop":"supermarket"}}, "geometry":{"type":"Point","coordinates":[-4.46806,57.48003 ]}},
{ "type":"Feature","properties":{"osm_id":"471855590","name":"The Co-operative Food","other":{"shop":"supermarket","operator":"The Co-operative Group"}}, "geometry":{"type":"Point","coordinates":[-4.16425,57.47211 ]}},
{ "type":"Feature","properties":{"osm_id":"506829407","name":"Co-op Food","other":{"addr:city":"Dornoch","addr:postcode":"IV25 3SJ","addr:street":"Cathedral Square","brand":"Co-op Food","brand:wikidata":"Q3277439","brand:wikipedia":"en:Co-op Food","opening_hours":"Mo-Su 07:00-22:00","operator":"The Co-operative Group","shop":"supermarket"}}, "geometry":{"type":"Point","coordinates":[-4.03087,57.88045 ]}},
{ "type":"Feature","properties":{"osm_id":"905998547","name":"Coop","other":{"shop":"supermarket","opening_hours":"07:00-22:00"}}, "geometry":{"type":"Point","coordinates":[-4.96425,56.71304 ]}},
{ "type":"Feature","properties":{"osm_id":"1032865311","name":"Co-op Food","other":{"shop":"supermarket","brand":"Co-op Food","phone":"+441463230673","fhrs:id":"360610","addr:city":"Inverness","addr:street":"Church Street","addr:postcode":"IV1 1DY","opening_hours":"Mo-Fr 6:00-22:00; Su 7:00-22:00","brand:wikidata":"Q3277439","brand:wikipedia":"en:Co-op Food","addr:housenumber":"59"}}, "geometry":{"type":"Point","coordinates":[-4.22701,57.47885 ]}},
{ "type":"Feature","properties":{"osm_id":"1098186590","name":"The Co-Operative Food","other":{"shop":"supermarket","operator":"The Co-Operative Group","opening_hours":"Mo-Su 07:00-22:00"}}, "geometry":{"type":"Point","coordinates":[-5.82893,57.0059 ]}},
{ "type":"Feature","properties":{"osm_id":"1099806374","name":"Spar","other":{"brand":"Spar","brand:wikidata":"Q610492","brand:wikipedia":"en:Spar (retailer)","opening_hours":"Mo-Sa 08:00-20:00; Su 09:00-20:00","shop":"supermarket"}}, "geometry":{"type":"Point","coordinates":[-5.8471,56.90982 ]}},
{ "type":"Feature","properties":{"osm_id":"1349067444","name":"The Co-operative Food","other":{"addr:city":"Kingussie","addr:housenumber":"24","addr:postcode":"PH21 1HR","addr:street":"High Street","fhrs:id":"562217","opening_hours":"06:00-22:00","operator":"The Co-operative Group","shop":"supermarket","source:addr":"FHRS Open Data"}}, "geometry":{"type":"Point","coordinates":[-4.0517,57.08001 ]}},
{ "type":"Feature","properties":{"osm_id":"2382495762","name":"Co-op Food","other":{"addr:city":"Tain","addr:housenumber":"14","addr:postcode":"IV19 1AE","addr:street":"High Street","alt_name":"The Co-operative Food","brand":"Co-op Food","brand:wikidata":"Q3277439","brand:wikipedia":"en:Co-op Food","operator":"The Co-operative Group","shop":"supermarket"}}, "geometry":{"type":"Point","coordinates":[-4.05422,57.81183 ]}},
{ "type":"Feature","properties":{"osm_id":"3640971416","name":"The Co-operative Food","other":{"shop":"supermarket","operator":"The Co-operative Group"}}, "geometry":{"type":"Point","coordinates":[-3.82376,57.20094 ]}},
{ "type":"Feature","properties":{"osm_id":"5438582813","name":"M&S Foodhall","other":{"shop":"supermarket","brand":"M&S Foodhall","fhrs:id":"1013677","operator":"Marks and Spencers","addr:city":"Fort William","addr:unit":"Unit 3","addr:place":"Fort William Retail Park","addr:street":"North Road","addr:postcode":"PH33 6PP","brand:wikidata":"Q714491","brand:wikipedia":"en:Marks & Spencer"}}, "geometry":{"type":"Point","coordinates":[-5.08197,56.82853 ]}},
{ "type":"Feature","properties":{"osm_id":"5909461650","name":"Uig Filling Station â€“ Shop & Takeaway","other":{"shop":"supermarket","website":"https:\/\/www.facebook.com\/Uig-Filling-Station-Shop-Takeaway-500794416773970\/","opening_hours":"Mo-Sa 08:00-20:00; Su 10:30-17:00"}}, "geometry":{"type":"Point","coordinates":[-6.37657,57.58752 ]}},
{ "type":"Feature","properties":{"osm_id":"5918572261","name":"Aldi","other":{"brand":"ALDI","brand:wikidata":"Q41171672","brand:wikipedia":"en:Aldi","shop":"supermarket"}}, "geometry":{"type":"Point","coordinates":[-3.83046,57.19274 ]}},
{ "type":"Feature","properties":{"osm_id":"6328870889","name":"Scotmid","other":{"addr:city":"Grantown on Spey","addr:housenumber":"34","addr:street":"The Square","brand":"Scotmid","brand:wikidata":"Q7435719","brand:wikipedia":"en:Scotmid","operator":"Scotmid","shop":"supermarket"}}, "geometry":{"type":"Point","coordinates":[-3.60754,57.33091 ]}},
{ "type":"Feature","properties":{"osm_id":"6716439711","name":"keystore","other":{"shop":"supermarket"}}, "geometry":{"type":"Point","coordinates":[-3.09241,58.44229 ]}},
{ "type":"Feature","properties":{"osm_id":"6814519136","name":"Scotmid Coop","other":{"addr:city":"Drumnadrochit","addr:housenumber":"1","addr:postcode":"IV63 6AG","addr:street":"Carriers Croft","brand":"Scotmid","brand:wikidata":"Q7435719","brand:wikipedia":"en:Scotmid","phone":"+44 1456 459057","shop":"supermarket"}}, "geometry":{"type":"Point","coordinates":[-4.47812,57.32939 ]}},
{ "type":"Feature","properties":{"osm_id":"9110829809","other":{"power":"pole"}}, "geometry":{"type":"Point","coordinates":[-5.18003,57.91266 ]}},
{ "type":"Feature","properties":{"osm_id":"951271438","highway":"path","z_order": 0 }, "geometry":{"type":"LineString","coordinates":[[-4.31346,57.41072],[-4.31415,57.41132],[-4.31497,57.41243],[-4.3149,57.4134],[-4.31469,57.41414],[-4.31447,57.41512],[-4.31391,57.41612],[-4.31441,57.41634],[-4.3157,57.41641],[-4.31698,57.41666],[-4.31773,57.41655],[-4.31898,57.41637],[-4.31994,57.41625],[-4.31986,57.41666],[-4.32029,57.41694],[-4.32082,57.41715]]}},
{ "type":"Feature","properties":{"osm_way_id":"36531026","name":"Morrisons","building":"yes","shop":"supermarket","other":{"brand":"Morrisons","phone":"+44 1463 250260","fhrs:id":"359893","alt_name":"Morrisons Inverness","operator":"Morrisons","addr:city":"Inverness","addr:street":"Millburn Road","addr:postcode":"IV2 3PX","opening_hours":"Mo-We 08:00-20:00; Th-Fr 08:00-22:00; Sa 08:00-20:00; Su 09:00-20:00","brand:wikidata":"Q922344","brand:wikipedia":"en:Morrisons"}}, "geometry":{"type":"Polygon","coordinates":[[[ -4.22127,57.48057],[-4.22053,57.48104],[-4.22029,57.48113],[-4.22009,57.48101],[-4.22006,57.48103],[-4.21974,57.48089],[-4.21978,57.48086],[-4.21965,57.48079],[-4.21967,57.48077],[-4.21926,57.48059],[-4.21939,57.48051],[-4.21947,57.4805],[-4.21958,57.48042],[-4.21958,57.48039],[-4.21964,57.48034],[-4.21971,57.48037],[-4.21992,57.48024],[-4.2199,57.48017],[-4.21985,57.48018],[-4.21981,57.48008],[-4.2199,57.48007],[-4.21988,57.48001],[-4.22,57.47999],[-4.22001,57.48005],[-4.22009,57.48004],[-4.22014,57.48006],[-4.2202,57.48009],[-4.22127,57.48057]] ]}},
{ "type":"Feature","properties":{"osm_way_id":"44192514","name":"Tesco Extra","building":"retail","shop":"supermarket","other":{"brand":"Tesco Extra","alt_name":"Tesco Inverness Inshes Extra","operator":"Tesco","addr:city":"Inverness","wheelchair":"yes","addr:street":"Milton of Inshes","addr:postcode":"IV2 3TW","opening_hours":"Mo 08:00-24:00; Tu-Fr 06:00-24:00; Sa 06:00-22:00; Su 09:00-20:00","addr:housename":"Inshes Retail Park","brand:wikidata":"Q25172225","brand:wikipedia":"en:Tesco Extra"}}, "geometry":{"type":"Polygon","coordinates":[[[ -4.18927,57.47009],[-4.19013,57.47029],[-4.19021,57.4703],[-4.1898,57.47079],[-4.19005,57.47085],[-4.18995,57.47097],[-4.19008,57.471],[-4.18977,57.47138],[-4.18942,57.4713],[-4.18914,57.47124],[-4.18891,57.47118],[-4.18862,57.47112],[-4.18881,57.47088],[-4.18866,57.47085],[-4.18892,57.47052],[-4.1889,57.47052],[-4.18901,57.47038],[-4.18903,57.47039],[-4.18927,57.47009]] ]}},
{ "type":"Feature","properties":{"osm_way_id":"54851997","name":"Tesco Extra","building":"yes","shop":"supermarket","other":{"addr:city":"Inverness","addr:housenumber":"1a","addr:place":"Inverness Business & Retail Park","addr:postcode":"IV2 7GD","addr:street":"Eastfield Way\/Nairn Road","alt_name":"Tesco Inverness Extra","brand":"Tesco Extra","brand:wikidata":"Q25172225","brand:wikipedia":"en:Tesco Extra","open":"mo-su 24h","opening_hours":"24\/7","website":"https:\/\/www.tesco.com\/store-locator\/inverness\/1a-eastfield-way"}}, "geometry":{"type":"Polygon","coordinates":[[[ -4.17659,57.48284],[-4.17647,57.48304],[-4.17651,57.48308],[-4.17647,57.48314],[-4.17661,57.48317],[-4.17638,57.48353],[-4.17647,57.48355],[-4.17636,57.48372],[-4.17633,57.48377],[-4.17625,57.48375],[-4.17608,57.48403],[-4.17559,57.48394],[-4.17556,57.484],[-4.1753,57.48395],[-4.17528,57.48397],[-4.17508,57.4843],[-4.17497,57.48428],[-4.17515,57.48399],[-4.17481,57.48393],[-4.17479,57.48387],[-4.17476,57.48386],[-4.17474,57.48381],[-4.17479,57.48373],[-4.17473,57.48372],[-4.17481,57.48356],[-4.1749,57.48358],[-4.1753,57.48283],[-4.17538,57.48284],[-4.17539,57.48283],[-4.17548,57.48284],[-4.17552,57.48277],[-4.17559,57.48278],[-4.17571,57.48261],[-4.17648,57.48275],[-4.17644,57.48281],[-4.17659,57.48284]] ]}},
{ "type":"Feature","properties":{"osm_way_id":"60615690","name":"Co-op Food","building":"retail","shop":"supermarket","other":{"addr:city":"Portree","addr:postcode":"IV51 9HQ","addr:street":"Woodpark Road","brand":"Co-op Food","brand:wikidata":"Q3277439","brand:wikipedia":"en:Co-op Food","check_date:opening_hours":"2021-06-01","fhrs:id":"562540","opening_hours":"Mo-Su 07:00-22:00","operator":"The Co-operative","roof:colour":"grey","website":"https:\/\/finder.coop.co.uk\/food\/store\/IV51-9HQ\/woodpark-road"}}, "geometry":{"type":"Polygon","coordinates":[[[ -6.20824,57.41782],[-6.20763,57.41796],[-6.20728,57.4175],[-6.20792,57.41736],[-6.20809,57.41759],[-6.20799,57.41761],[-6.20806,57.41769],[-6.20813,57.41768],[-6.20824,57.41782]] ]}},
{ "type":"Feature","properties":{"osm_way_id":"61318165","name":"Tesco","building":"yes","shop":"supermarket","other":{"addr:postcode":"KW14 8PS","addr:street":"Millbank Road","alt_name":"Tesco Thurso Superstore","brand":"Tesco","brand:wikidata":"Q487494","brand:wikipedia":"en:Tesco"}}, "geometry":{"type":"Polygon","coordinates":[[[ -3.51748,58.5907],[-3.51702,58.59052],[-3.51735,58.59029],[-3.51768,58.59007],[-3.51814,58.59026],[-3.51748,58.5907]] ]}},
{ "type":"Feature","properties":{"osm_way_id":"68723895","name":"Tesco","building":"retail","shop":"supermarket","other":{"brand":"Tesco","alt_name":"Tesco Ullapool Superstore","wheelchair":"yes","addr:street":"Latherton Lane","addr:postcode":"IV26 2XB","opening_hours":"Mo-Sa 08:00-22:00; Su 09:00-20:00","brand:wikidata":"Q487494","brand:wikipedia":"en:Tesco","building:levels":"1"}}, "geometry":{"type":"Polygon","coordinates":[[[ -5.16325,57.89688],[-5.16332,57.89703],[-5.16342,57.89702],[-5.16346,57.89711],[-5.16267,57.89722],[-5.16255,57.89698],[-5.16325,57.89688]] ]}},
{ "type":"Feature","properties":{"osm_way_id":"104965302","name":"Lidl","building":"retail","shop":"supermarket","other":{"brand":"Lidl","fhrs:id":"360114","alt_name":"Lidl Inverness","operator":"Lidl","wheelchair":"yes","addr:street":"Telford Street","addr:postcode":"IV3 5LU","brand:wikidata":"Q151954","brand:wikipedia":"en:Lidl"}}, "geometry":{"type":"Polygon","coordinates":[[[ -4.24312,57.48116],[-4.24273,57.48104],[-4.24268,57.48102],[-4.24324,57.48047],[-4.24364,57.48059],[-4.2436,57.48063],[-4.24323,57.481],[-4.24327,57.48101],[-4.24312,57.48116]] ]}},
{ "type":"Feature","properties":{"osm_way_id":"112466041","name":"Tesco Metro","building":"retail","shop":"supermarket","other":{"brand":"Tesco Metro","fhrs:id":"360612","alt_name":"Tesco Inverness Metro","operator":"Tesco","addr:city":"Inverness","addr:street":"Tomnahurich Street","addr:postcode":"IV3 5DD","brand:wikidata":"Q57551648","building:levels":"1","addr:housenumber":"8-10"}}, "geometry":{"type":"Polygon","coordinates":[[[ -4.23023,57.47643],[-4.23046,57.47659],[-4.23043,57.47677],[-4.23054,57.47685],[-4.2302,57.477],[-4.2302,57.47702],[-4.23011,57.47706],[-4.23005,57.47706],[-4.22992,57.47705],[-4.22958,57.47673],[-4.22959,57.47664],[-4.23011,57.47642],[-4.23023,57.47643]] ]}},
{ "type":"Feature","properties":{"osm_way_id":"114126009","name":"ALDI","building":"yes","shop":"supermarket","other":{"addr:city":"Inverness","addr:postcode":"IV3 5JP","addr:street":"Friars Bridge","alt_name":"Aldi Inverness","brand":"ALDI","brand:wikidata":"Q41171672","brand:wikipedia":"en:Aldi","fhrs:id":"454086","opening_hours":"Mo-Fr 09:00-20:00; Sa 09:00-19:00; Su 10:00-18:00","operator":"Aldi"}}, "geometry":{"type":"Polygon","coordinates":[[[ -4.23838,57.48081],[-4.23832,57.48087],[-4.23824,57.48085],[-4.23807,57.48103],[-4.23731,57.48084],[-4.23752,57.48059],[-4.23838,57.48081]] ]}},
{ "type":"Feature","properties":{"osm_way_id":"114199063","name":"The Co-operative","building":"yes","shop":"supermarket","other":{"fhrs:id":"454383","operator":"Co-operative Group","addr:city":"Inverness","addr:street":"Telford Street","addr:postcode":"IV3 5LS","addr:housenumber":"74"}}, "geometry":{"type":"Polygon","coordinates":[[[ -4.24446,57.48268],[-4.24466,57.48272],[-4.24464,57.48275],[-4.24482,57.48279],[-4.24485,57.48275],[-4.24494,57.48273],[-4.24502,57.48275],[-4.24505,57.4828],[-4.24463,57.48334],[-4.2448,57.48337],[-4.24476,57.48343],[-4.24459,57.48339],[-4.24456,57.48342],[-4.24391,57.48327],[-4.24437,57.48269],[-4.24444,57.4827],[-4.24446,57.48268]] ]}},
{ "type":"Feature","properties":{"osm_way_id":"116661129","name":"Scotmid","building":"yes","shop":"supermarket","other":{"addr:city":"Nairn","addr:place":"Bridgemill","addr:postcode":"IV12 5AA","addr:unit":"Unit 1","brand":"Scotmid","brand:wikidata":"Q7435719","brand:wikipedia":"en:Scotmid","fhrs:id":"360084","operator":"Scottish Midland Co-operative Society"}}, "geometry":{"type":"Polygon","coordinates":[[[ -3.86307,57.58539],[-3.86289,57.58547],[-3.86294,57.58551],[-3.86283,57.58556],[-3.86257,57.5854],[-3.86267,57.58535],[-3.86277,57.58541],[-3.86296,57.58532],[-3.86307,57.58539]] ]}},
{ "type":"Feature","properties":{"osm_way_id":"117871358","name":"Morrisons","building":"yes","shop":"supermarket","other":{"brand":"Morrisons","operator":"Morrisons","addr:city":"Alness","addr:street":"Dalmore Road","designation":"Alness","addr:postcode":"IV17 0UY","brand:wikidata":"Q922344","brand:wikipedia":"en:Morrisons"}}, "geometry":{"type":"Polygon","coordinates":[[[ -4.24317,57.6935],[-4.24234,57.69373],[-4.24189,57.69326],[-4.24154,57.6929],[-4.24181,57.69282],[-4.24215,57.69318],[-4.24272,57.69302],[-4.24317,57.6935]] ]}},
{ "type":"Feature","properties":{"osm_way_id":"132680615","name":"Lidl","building":"yes","shop":"supermarket","other":{"addr:city":"Wick Caithness","addr:country":"GB","addr:housename":"Wick Retail Park","addr:postcode":"KW1 5NH","addr:street":"South Road","brand":"Lidl","brand:wikidata":"Q151954","brand:wikipedia":"en:Lidl","fhrs:id":"561277"}}, "geometry":{"type":"Polygon","coordinates":[[[ -3.09611,58.43276],[-3.09559,58.43268],[-3.09566,58.43255],[-3.09574,58.43257],[-3.09592,58.43225],[-3.09619,58.43229],[-3.09622,58.43222],[-3.09637,58.43224],[-3.09611,58.43276]] ]}},
{ "type":"Feature","properties":{"osm_way_id":"180977661","name":"The Co-operative Food","building":"yes","shop":"supermarket","other":{"addr:postcode":"IV49 9AE","addr:street":"Main Street","designation":"Broadford","opening_hours":"Mo-Sa 08:00-22:00; Su 09:00-18:00","operator":"Co-operative","phone":"+44 1471 820420","roof:colour":"grey","roof:material":"slate","roof:shape":"gabled","website":"http:\/\/www.co-operative.co.uk\/"}}, "geometry":{"type":"Polygon","coordinates":[[[ -5.90713,57.24167],[-5.9067,57.24163],[-5.90683,57.24122],[-5.90702,57.24123],[-5.90701,57.24127],[-5.90725,57.24129],[-5.90721,57.24142],[-5.90713,57.24167]] ]}},
{ "type":"Feature","properties":{"osm_way_id":"186924483","name":"Tesco","building":"yes","shop":"supermarket","other":{"addr:city":"Dingwall","addr:housename":"Dingwall Auction Mart","addr:postcode":"IV15 9PP","addr:street":"Mart Road","alt_name":"Tesco Dingwall Mart Road Superstore","brand":"Tesco","brand:wikidata":"Q487494","brand:wikipedia":"en:Tesco","fhrs:id":"360105","opening_hours":"Su 08:00-22:00; Mo-Sa 06:00-24:00"}}, "geometry":{"type":"Polygon","coordinates":[[[ -4.43186,57.5979],[-4.43182,57.598],[-4.43166,57.59802],[-4.4317,57.5981],[-4.43135,57.59815],[-4.43131,57.59807],[-4.43,57.59827],[-4.43003,57.59831],[-4.42993,57.59833],[-4.42986,57.59821],[-4.43032,57.59814],[-4.43025,57.598],[-4.43034,57.59798],[-4.43021,57.59774],[-4.43016,57.59775],[-4.43006,57.59756],[-4.43161,57.59732],[-4.43176,57.59759],[-4.4317,57.5976],[-4.43186,57.5979]] ]}},
{ "type":"Feature","properties":{"osm_way_id":"186924485","name":"Lidl","building":"yes","shop":"supermarket","other":{"addr:city":"Dingwall","addr:postcode":"IV15 9JZ","addr:street":"Tulloch Street","alt_name":"Lidl Dingwall","brand":"Lidl","brand:wikidata":"Q151954","brand:wikipedia":"en:Lidl","fhrs:id":"360131","opening_hours":"Mo-Su 08:00-21:00"}}, "geometry":{"type":"Polygon","coordinates":[[[ -4.4265,57.59643],[-4.42643,57.59644],[-4.42644,57.59648],[-4.42655,57.59674],[-4.42657,57.59679],[-4.42608,57.59675],[-4.42603,57.59661],[-4.42585,57.59662],[-4.42576,57.59634],[-4.42602,57.59632],[-4.42646,57.59628],[-4.4265,57.59643]] ]}},
{ "type":"Feature","properties":{"osm_way_id":"197076676","name":"Morrisons","building":"yes","shop":"supermarket","other":{"addr:city":"Fort William","addr:postcode":"PH33 6AN","addr:street":"An Aird","alt_name":"Morrisons Fort William","brand":"Morrisons","brand:wikidata":"Q922344","brand:wikipedia":"en:Morrisons","fhrs:id":"360617","internet_access":"wlan","internet_access:fee":"no","opening_hours":"Mo-Sa 07:00-22:00; PH,Su 08:00-20:00 closed","phone":"+44 1397 700333","website":"https:\/\/www.morrisons.co.uk\/","wheelchair":"yes"}}, "geometry":{"type":"Polygon","coordinates":[[[ -5.1056,56.82142],[-5.10557,56.82146],[-5.1056,56.82151],[-5.10499,56.82164],[-5.10496,56.82158],[-5.1049,56.8216],[-5.10488,56.82156],[-5.10445,56.82165],[-5.1043,56.82142],[-5.10453,56.82138],[-5.10448,56.82129],[-5.10424,56.82134],[-5.10412,56.82117],[-5.10542,56.82091],[-5.10554,56.82109],[-5.10549,56.8211],[-5.10565,56.82134],[-5.10564,56.82136],[-5.10573,56.82138],[-5.10568,56.82144],[-5.1056,56.82142]] ]}},
{ "type":"Feature","properties":{"osm_way_id":"197076677","name":"Tesco Metro","building":"yes","shop":"supermarket","other":{"brand":"Tesco Metro","phone":"+44 845 677 9276","fhrs:id":"360615","alt_name":"Tesco Metro Fort William","addr:city":"Fort William","wheelchair":"yes","addr:street":"High Street","addr:postcode":"PH33 6AU","opening_hours":"Mo-Sa 07:00-21:00; Su 10:00-17:00","brand:wikidata":"Q57551648"}}, "geometry":{"type":"Polygon","coordinates":[[[ -5.10889,56.81912],[-5.10859,56.81895],[-5.10886,56.81881],[-5.10916,56.81897],[-5.10889,56.81912]] ]}},
{ "type":"Feature","properties":{"osm_way_id":"197076841","name":"Lidl","building":"yes","shop":"supermarket","other":{"brand":"Lidl","fhrs:id":"360202","website":"https:\/\/www.lidl.co.uk\/","alt_name":"LIDL Fort William","addr:city":"Fort William","addr:street":"Camanachd Crescent","addr:postcode":"PH33 6AN","opening_hours":"Mo-Fr 08:00-20:00; Sa 08:00-19:00; Sa 09:00-19:00","brand:wikidata":"Q151954","brand:wikipedia":"en:Lidl"}}, "geometry":{"type":"Polygon","coordinates":[[[ -5.10169,56.82198],[-5.10074,56.82217],[-5.10059,56.82194],[-5.10078,56.8219],[-5.10075,56.82186],[-5.10091,56.82183],[-5.10094,56.82187],[-5.10153,56.82175],[-5.10169,56.82198]] ]}},
{ "type":"Feature","properties":{"osm_way_id":"204907469","name":"Co-op Food","building":"yes","shop":"supermarket","other":{"addr:city":"Grantown-on-Spey","addr:housenumber":"34","addr:postcode":"PH26 3HF","addr:street":"The Square","alt_name":"The Co-operative Food","atm":"yes","brand":"Co-op Food","brand:wikidata":"Q3277439","brand:wikipedia":"en:Co-op Food","opening_hours":"Mo-Sa 07:00-22:00; Su 08:00-22:00","operator":"The Co-operative Group","operator:wikidata":"Q117202","operator:wikipedia":"en:The Co-operative Group","wheelchair":"yes"}}, "geometry":{"type":"Polygon","coordinates":[[[ -3.6091,57.33121],[-3.60892,57.33136],[-3.60835,57.33116],[-3.60854,57.33101],[-3.6091,57.33121]] ]}},
{ "type":"Feature","properties":{"osm_way_id":"206452852","name":"Tesco","building":"yes","shop":"supermarket","other":{"addr:city":"Aviemore","addr:postcode":"PH22 1RH","addr:street":"Grampian Road","alt_name":"Aviemore Metro","atm":"yes","brand":"Tesco","brand:wikidata":"Q57551648","opening_hours":"Mo-Sa 07:00-22:00; Su 08:00-22:00"}}, "geometry":{"type":"Polygon","coordinates":[[[ -3.82968,57.1895],[-3.82971,57.18931],[-3.83017,57.18933],[-3.83021,57.18936],[-3.83031,57.18936],[-3.83031,57.18934],[-3.83056,57.18935],[-3.83055,57.18941],[-3.83033,57.1894],[-3.83029,57.18964],[-3.82953,57.18961],[-3.82955,57.18949],[-3.82968,57.1895]] ]}},
{ "type":"Feature","properties":{"osm_way_id":"206719123","name":"Co-op Food","building":"retail","shop":"supermarket","other":{"addr:city":"Kyle of Lochalsh","addr:postcode":"IV40 8BH","addr:street":"Bridge Road","atm":"yes","brand":"Co-op Food","brand:wikidata":"Q3277439","brand:wikipedia":"en:Co-op Food","check_date:opening_hours":"2021-05-29","fhrs:id":"561207","opening_hours":"Mo-Su 07:00-23:00","operator":"The Co-operative Group","operator:wikidata":"Q117202","operator:wikipedia":"en:The Co-operative Group","roof:angle":"15","roof:colour":"grey","roof:shape":"gabled","wheelchair":"yes"}}, "geometry":{"type":"Polygon","coordinates":[[[ -5.7177,57.2807],[-5.71759,57.2806],[-5.71768,57.28057],[-5.7176,57.28049],[-5.71812,57.28033],[-5.71823,57.28044],[-5.71831,57.28042],[-5.71837,57.28048],[-5.7183,57.2805],[-5.71831,57.28051],[-5.7177,57.2807]] ]}},
{ "type":"Feature","properties":{"osm_way_id":"209633171","name":"The Co-operative Food","building":"yes","shop":"supermarket","other":{"addr:city":"Wick","addr:postcode":"KW1 5LE","addr:street":"Angle Park","brand":"The Co-operative Food","brand:wikidata":"Q107617274","building:levels":"2","roof:shape":"flat"}}, "geometry":{"type":"Polygon","coordinates":[[[ -3.09841,58.44057],[-3.09893,58.44076],[-3.09884,58.44083],[-3.09894,58.44086],[-3.09889,58.4409],[-3.099,58.44094],[-3.09882,58.44108],[-3.09881,58.44108],[-3.09861,58.44101],[-3.09865,58.44098],[-3.09839,58.44088],[-3.09833,58.44093],[-3.09822,58.44089],[-3.09839,58.44076],[-3.09813,58.44066],[-3.0983,58.44053],[-3.09834,58.44051],[-3.09845,58.44055],[-3.09841,58.44057]] ]}},
{ "type":"Feature","properties":{"osm_way_id":"211046718","name":"Tesco","building":"yes","shop":"supermarket","other":{"addr:city":"Inverness","addr:postcode":"IV2 4XT","addr:street":"Dores Road","branch":"Inverness Ness Side Superstore","brand":"Tesco","brand:wikidata":"Q487494","brand:wikipedia":"en:Tesco","opening_hours":"Mo-Sa 06:00-24:00; Su 08:00-22:00","operator":"Tesco"}}, "geometry":{"type":"Polygon","coordinates":[[[ -4.24997,57.45302],[-4.24953,57.45292],[-4.24945,57.45302],[-4.24923,57.45296],[-4.24976,57.45232],[-4.25042,57.45248],[-4.24997,57.45302]] ]}},
{ "type":"Feature","properties":{"osm_way_id":"225733760","name":"Lidl","building":"yes","shop":"supermarket","other":{"addr:country":"GB","addr:postcode":"KW14 7LS","addr:street":"Castlegreen Road","alt_name":"LIDL Thurso","brand":"Lidl","brand:wikidata":"Q151954","brand:wikipedia":"en:Lidl","fhrs:id":"561183","not:addr:postcode":"KW147LS","opening_hours":"Mo-Sa 08:00-21:00; Su 08:00-20:00"}}, "geometry":{"type":"Polygon","coordinates":[[[ -3.53182,58.59741],[-3.53135,58.59736],[-3.53155,58.5969],[-3.53203,58.59696],[-3.53202,58.59699],[-3.5321,58.597],[-3.53206,58.5971],[-3.53197,58.59708],[-3.53182,58.59741]] ]}},
{ "type":"Feature","properties":{"osm_way_id":"229682947","name":"Lidl","building":"yes","shop":"supermarket","other":{"addr:city":"Tain","addr:country":"GB","addr:postcode":"IV19 1PY","addr:street":"Morangie Road","alt_name":"LIDL Tain","brand":"Lidl","brand:wikidata":"Q151954","brand:wikipedia":"en:Lidl","fhrs:id":"561537"}}, "geometry":{"type":"Polygon","coordinates":[[[ -4.06736,57.81709],[-4.0668,57.81748],[-4.06643,57.81734],[-4.06699,57.81694],[-4.06736,57.81709]] ]}},
{ "type":"Feature","properties":{"osm_way_id":"229682948","name":"Tesco","building":"yes","shop":"supermarket","other":{"addr:city":"Tain","addr:postcode":"IV19 1EH","addr:street":"Shore Road","alt_name":"Tesco Tain Superstore","brand":"Tesco","brand:wikidata":"Q487494","brand:wikipedia":"en:Tesco"}}, "geometry":{"type":"Polygon","coordinates":[[[ -4.05596,57.81384],[-4.05585,57.81392],[-4.05561,57.81382],[-4.05525,57.81408],[-4.05435,57.81373],[-4.05482,57.81339],[-4.05596,57.81384]] ]}},
{ "type":"Feature","properties":{"osm_way_id":"232177106","name":"Spar","building":"yes","shop":"supermarket","other":{"addr:postcode":"IV54 8YD","addr:street":"Main Street","brand":"Spar","brand:wikidata":"Q610492","brand:wikipedia":"en:Spar (retailer)","operator":"Spar"}}, "geometry":{"type":"Polygon","coordinates":[[[ -5.49161,57.4002],[-5.49129,57.40035],[-5.49122,57.4003],[-5.49154,57.40016],[-5.49161,57.4002]] ]}},
{ "type":"Feature","properties":{"osm_way_id":"255976159","name":"Isle of Eigg Shop","building":"commercial","shop":"supermarket","other":{"website":"https:\/\/isleofeiggshop.com","addr:postcode":"PH42 4RL"}}, "geometry":{"type":"Polygon","coordinates":[[[ -6.13073,56.87717],[-6.13076,56.87725],[-6.13062,56.87726],[-6.13059,56.87719],[-6.13073,56.87717]] ]}},
{ "type":"Feature","properties":{"osm_way_id":"259522594","name":"Scotmid","building":"yes","shop":"supermarket","other":{"addr:postcode":"IV2 7HQ","addr:street":"Culloden Road","brand":"Scotmid","brand:wikidata":"Q7435719","brand:wikipedia":"en:Scotmid","designation":"Scottish Midland Co-operative Society","operator":"Scottish Midland Co-operative Society"}}, "geometry":{"type":"Polygon","coordinates":[[[ -4.12021,57.49695],[-4.12016,57.49698],[-4.12017,57.49699],[-4.12008,57.49704],[-4.12007,57.49703],[-4.12003,57.49705],[-4.12009,57.49708],[-4.12,57.49712],[-4.11995,57.4971],[-4.11993,57.4971],[-4.11978,57.49702],[-4.12005,57.49687],[-4.12021,57.49695]] ]}},
{ "type":"Feature","properties":{"osm_way_id":"259525282","name":"The Co-operative Food","building":"yes","shop":"supermarket","other":{"operator":"The Co-operative Group","addr:street":"Keppock Road","designation":"The Co-operative Food","addr:postcode":"IV2 7LL","addr:housename":"Shopping Centre"}}, "geometry":{"type":"Polygon","coordinates":[[[ -4.1425,57.4869],[-4.14218,57.4869],[-4.14218,57.4867],[-4.1425,57.4867],[-4.1425,57.4869]] ]}},
{ "type":"Feature","properties":{"osm_way_id":"282458711","name":"Spar","building":"yes","shop":"supermarket","other":{"addr:housenumber":"2-4","addr:postcode":"KW8 6JA","addr:street":"Dunrobin Street","alt_name":"SPAR Helmsdale","brand":"Spar","brand:wikidata":"Q610492","brand:wikipedia":"en:SPAR (retailer)"}}, "geometry":{"type":"Polygon","coordinates":[[[ -3.65375,58.11677],[-3.65353,58.11695],[-3.65338,58.1169],[-3.65361,58.11672],[-3.65375,58.11677]] ]}},
{ "type":"Feature","properties":{"osm_way_id":"282460763","name":"Co-op Food","building":"yes","shop":"supermarket","other":{"addr:city":"Golspie","addr:postcode":"KW10 6RA","addr:street":"Main Street","alt_name":"The Co-operative Food","brand":"Co-op Food","brand:wikidata":"Q3277439","brand:wikipedia":"en:Co-op Food","fhrs:id":"360600","opening_hours":"07:00-22:00","operator":"The Co-operative Group","operator:wikidata":"Q117202","operator:wikipedia":"en:The Co-operative Group"}}, "geometry":{"type":"Polygon","coordinates":[[[ -3.97516,57.97422],[-3.97498,57.97428],[-3.9747,57.97407],[-3.97465,57.97403],[-3.97483,57.97396],[-3.97516,57.97422]] ]}},
{ "type":"Feature","properties":{"osm_way_id":"283189291","name":"Co-op Food","building":"yes","shop":"supermarket","other":{"brand":"Co-op Food","brand:wikidata":"Q3277439","brand:wikipedia":"en:Co-op Food","building:levels":"2","operator":"The Co-operative Group","operator:wikidata":"Q117202","operator:wikipedia":"en:The Co-operative Group","roof:shape":"gabled"}}, "geometry":{"type":"Polygon","coordinates":[[[ -5.1008,56.83765],[-5.10058,56.83777],[-5.10066,56.83782],[-5.10048,56.83792],[-5.10024,56.83779],[-5.10065,56.83756],[-5.1008,56.83765]] ]}},
{ "type":"Feature","properties":{"osm_way_id":"283618468","name":"McColls","building":"yes","shop":"supermarket","other":{"fhrs:id":"453984","addr:city":"Gairloch","addr:street":"Strath","source:addr":"FHRS Open Data","addr:country":"GB","addr:postcode":"IV21 2DA"}}, "geometry":{"type":"Polygon","coordinates":[[[ -5.70323,57.73157],[-5.70299,57.73145],[-5.70308,57.7314],[-5.70332,57.73152],[-5.70323,57.73157]] ]}},
{ "type":"Feature","properties":{"osm_way_id":"289810209","name":"Co-op Food","building":"yes","shop":"supermarket","other":{"addr:postcode":"KW14 8ER","addr:street":"Meadow Lane","alt_name":"The Co-operative Food","brand":"Co-op Food","brand:wikidata":"Q3277439","brand:wikipedia":"en:Co-op Food","operator":"The Co-operative Group"}}, "geometry":{"type":"Polygon","coordinates":[[[ -3.51891,58.59477],[-3.51827,58.59451],[-3.51845,58.59439],[-3.51866,58.59447],[-3.51881,58.59437],[-3.51916,58.59451],[-3.51921,58.59448],[-3.51928,58.5945],[-3.5193,58.59451],[-3.51891,58.59477]] ]}},
{ "type":"Feature","properties":{"osm_way_id":"291828532","name":"Aldi","building":"retail","shop":"supermarket","other":{"addr:city":"Inverness","addr:postcode":"IV2 3TW","addr:street":"Sir Walter Scott Drive","brand":"ALDI","brand:wikidata":"Q41171672","brand:wikipedia":"en:Aldi","fhrs:id":"642562","opening_hours":"Mo-Sa 08:00-22:00; Su 09:00-19:00","operator":"Aldi","wheelchair":"yes"}}, "geometry":{"type":"Polygon","coordinates":[[[ -4.18914,57.46847],[-4.18876,57.46893],[-4.18838,57.46884],[-4.18879,57.46834],[-4.18891,57.46837],[-4.18888,57.46841],[-4.18914,57.46847]] ]}},
{ "type":"Feature","properties":{"osm_way_id":"292436125","name":"Tesco","building":"yes","shop":"supermarket","other":{"brand":"Tesco","brand:wikidata":"Q487494","brand:wikipedia":"en:Tesco","building:levels":"3","roof:shape":"flat"}}, "geometry":{"type":"Polygon","coordinates":[[[ -3.09687,58.45229],[-3.09709,58.45167],[-3.09872,58.45183],[-3.0987,58.45187],[-3.09858,58.45223],[-3.09895,58.45226],[-3.09887,58.45249],[-3.09687,58.45229]] ]}},
{ "type":"Feature","properties":{"osm_way_id":"294249900","name":"Sainsbury's","building":"retail","shop":"supermarket","other":{"addr:city":"Nairn","addr:place":"Balmakeith Retail Park","addr:postcode":"IV12 5QF","addr:street":"Forres Road","brand":"Sainsbury's","brand:wikidata":"Q152096","brand:wikipedia":"en:Sainsbury's","fhrs:id":"360364"}}, "geometry":{"type":"Polygon","coordinates":[[[ -3.85229,57.58157],[-3.8512,57.58159],[-3.85119,57.58127],[-3.85116,57.58101],[-3.8519,57.58087],[-3.85227,57.58112],[-3.85229,57.58157]] ]}},
{ "type":"Feature","properties":{"osm_way_id":"302952467","name":"Spar","building":"yes","shop":"supermarket","other":{"brand":"Spar","brand:wikidata":"Q610492","brand:wikipedia":"en:Spar (retailer)","opening_hours":"Mo-Sa 08:00-18:30, Su 09:00-17:30"}}, "geometry":{"type":"Polygon","coordinates":[[[ -5.23965,58.15372],[-5.23952,58.15381],[-5.23937,58.15375],[-5.2395,58.15366],[-5.23965,58.15372]] ]}},
{ "type":"Feature","properties":{"osm_way_id":"331351213","name":"The Co-operative Food","building":"supermarket","shop":"supermarket","other":{"atm":"yes","phone":"+44 1855 811993","website":"https:\/\/www.co-operative.coop\/store\/food\/PH49-4JS\/old-station-yard","addr:city":"Ballachulish","addr:street":"Park Road","addr:country":"GB","addr:postcode":"PH49 4JS","opening_hours":"Mo-Su 07:00-22:00","addr:housename":"Old Station Yard"}}, "geometry":{"type":"Polygon","coordinates":[[[ -5.13102,56.67833],[-5.13075,56.67813],[-5.131,56.67803],[-5.13127,56.67823],[-5.13102,56.67833]] ]}},
{ "type":"Feature","properties":{"osm_way_id":"359186901","name":"Co-op Food","building":"yes","shop":"supermarket","other":{"addr:city":"Fortrose","addr:housenumber":"60-73","addr:postcode":"IV10 8TF","addr:street":"High Street","atm":"yes","brand":"Co-op Food","brand:wikidata":"Q3277439","brand:wikipedia":"en:Co-op Food","opening_hours":"Mo-Su 07:00-22:00","operator":"The Co-operative Group"}}, "geometry":{"type":"Polygon","coordinates":[[[ -4.12997,57.58214],[-4.13011,57.58222],[-4.13006,57.58225],[-4.13012,57.58228],[-4.12994,57.58238],[-4.12973,57.58227],[-4.12997,57.58214]] ]}},
{ "type":"Feature","properties":{"osm_way_id":"359188437","name":"Co-op Food","building":"yes","shop":"supermarket","other":{"addr:city":"Alness","addr:housenumber":"46-48","addr:street":"High Street","brand":"Co-op Food","brand:wikidata":"Q3277439","brand:wikipedia":"en:Co-op Food","operator":"The Co-operative Group"}}, "geometry":{"type":"Polygon","coordinates":[[[ -4.25496,57.69584],[-4.25455,57.6958],[-4.25459,57.69568],[-4.25453,57.69568],[-4.25463,57.69537],[-4.25479,57.69538],[-4.25476,57.69548],[-4.25507,57.69551],[-4.25496,57.69584]] ]}},
{ "type":"Feature","properties":{"osm_way_id":"359188740","name":"The Co-operative Food","building":"yes","shop":"supermarket","other":{"addr:postcode":"KW9 6NX","brand":"The Co-operative Food","brand:wikidata":"Q107617274","brand:wikipedia":"en:Co-op Food","operator":"The Co-operative Group","operator:wikidata":"Q117202","operator:wikipedia":"en:The Co-operative Group","wheelchair":"yes"}}, "geometry":{"type":"Polygon","coordinates":[[[ -3.85525,58.0106],[-3.85548,58.01067],[-3.85538,58.01076],[-3.85544,58.01077],[-3.85535,58.01086],[-3.85546,58.01089],[-3.85535,58.01099],[-3.85515,58.01093],[-3.85518,58.0109],[-3.85499,58.01084],[-3.85525,58.0106]] ]}},
{ "type":"Feature","properties":{"osm_way_id":"390017114","name":"Lidl","building":"supermarket","shop":"supermarket","other":{"addr:city":"Alness","addr:country":"GB","addr:postcode":"IV17 0UX","addr:street":"Dalmore Road","brand":"Lidl","brand:wikidata":"Q151954","brand:wikipedia":"en:Lidl","fhrs:id":"561333","wheelchair":"yes"}}, "geometry":{"type":"Polygon","coordinates":[[[ -4.24228,57.69226],[-4.24124,57.69257],[-4.24117,57.6925],[-4.24125,57.69248],[-4.24112,57.69235],[-4.24181,57.69214],[-4.24177,57.69211],[-4.24204,57.69203],[-4.24228,57.69226]] ]}},
{ "type":"Feature","properties":{"osm_way_id":"595155091","name":"ALDI","building":"supermarket","shop":"supermarket","other":{"addr:city":"Fort William","addr:unit":"Unit A","brand":"ALDI","brand:wikidata":"Q41171672","brand:wikipedia":"en:Aldi"}}, "geometry":{"type":"Polygon","coordinates":[[[ -5.08368,56.82808],[-5.08308,56.82775],[-5.08353,56.8275],[-5.08364,56.82756],[-5.08357,56.82759],[-5.08407,56.82787],[-5.08368,56.82808]] ]}},
{ "type":"Feature","properties":{"osm_way_id":"603891172","name":"Asda","building":"supermarket","shop":"supermarket","other":{"brand":"Asda","branch":"Inverness Superstore","fhrs:id":"454243","alt_name":"Asda Inverness","operator":"Asda Stores Ltd","addr:city":"Inverness","wheelchair":"yes","addr:street":"Sir Walter Scott Drive","addr:country":"GB","addr:postcode":"IV2 6BZ","contact:phone":"+44 1463 880 300","opening_hours":"24\/7","brand:wikidata":"Q297410","brand:wikipedia":"en:Asda","contact:twitter":"@asda","contact:website":"https:\/\/storelocator.asda.com\/scotland\/inverness\/ivanhoe-avenue-inverness","contact:facebook":"https:\/\/www.facebook.com\/asda\/"}}, "geometry":{"type":"Polygon","coordinates":[[[ -4.216,57.4508],[-4.21516,57.45162],[-4.214,57.45127],[-4.21421,57.45107],[-4.21438,57.45112],[-4.21458,57.45093],[-4.21451,57.45091],[-4.21456,57.45086],[-4.21467,57.4509],[-4.21487,57.45071],[-4.21484,57.4507],[-4.21503,57.45052],[-4.216,57.4508]] ]}},
{ "type":"Feature","properties":{"osm_way_id":"638022217","name":"Asda","building":"supermarket","shop":"supermarket","other":{"brand":"Asda","fhrs:id":"562049","alt_name":"ASDA Tain Supermarket","operator":"Asda Stores Ltd","addr:city":"Tain","wheelchair":"yes","addr:street":"Knockbreck Road","addr:country":"GB","addr:postcode":"IV19 1NZ","contact:phone":"+44 1862 857 124","opening_hours":"Mo-Su 07:00-23:00","brand:wikidata":"Q297410","brand:wikipedia":"en:Asda","contact:twitter":"@asda","contact:website":"https:\/\/storelocator.asda.com\/scotland\/tain\/knockbreck-road","contact:facebook":"https:\/\/www.facebook.com\/asda\/"}}, "geometry":{"type":"Polygon","coordinates":[[[ -4.04846,57.80329],[-4.04834,57.8038],[-4.04737,57.80374],[-4.04749,57.80322],[-4.04846,57.80329]] ]}},
{ "type":"Feature","properties":{"osm_way_id":"646096482","name":"The Co-operative Food","building":"commercial","shop":"supermarket","other":{"addr:city":"Newtonmore","addr:housename":"The Co-operative","addr:postcode":"PH20 1DR","addr:street":"Balavil Brae","atm":"yes","building:levels":"1","fhrs:authority":"Highland","fhrs:id":"562530","fhrs:local_authority_id":"667","opening_hours":"Mo-Su 07:00-22:00","operator":"The Co-operative Group","wheelchair":"yes"}}, "geometry":{"type":"Polygon","coordinates":[[[ -4.11571,57.06763],[-4.11602,57.06754],[-4.11618,57.06764],[-4.11611,57.06766],[-4.11602,57.06768],[-4.11594,57.0677],[-4.11585,57.06772],[-4.11576,57.06774],[-4.11571,57.06763]] ]}},
{ "type":"Feature","properties":{"osm_way_id":"852931352","name":"Co-op Food","building":"retail","shop":"supermarket","other":{"addr:city":"Invergordon","addr:housenumber":"110","addr:postcode":"IV18 0DL","addr:street":"High Street","brand":"Co-op Food","brand:wikidata":"Q3277439","brand:wikipedia":"en:Co-op Food","building:levels":"1","capacity:covid19":"10","changing_table":"no","opening_hours":"Mo-Su 06:00-23:00; PH closed","operator":"The Co-operative Group","toilets":"no","website":"https:\/\/finder.coop.co.uk\/food\/store\/IV18-0DL\/110-high-street","wheelchair":"yes"}}, "geometry":{"type":"Polygon","coordinates":[[[ -4.16539,57.68861],[-4.16508,57.68864],[-4.165,57.68841],[-4.16531,57.68838],[-4.16539,57.68861]] ]}},
{ "type":"Feature","properties":{"osm_way_id":"891054116","building":"yes"},"geometry":{"type":"Polygon","coordinates":[[[ -3.9043,57.7597],[-3.90408,57.75977],[-3.904,57.7597],[-3.9041,57.75967],[-3.90406,57.75963],[-3.90423,57.75958],[-3.90432,57.75965],[-3.90427,57.75967],[-3.9043,57.7597]] ]}},
{ "type":"Feature","properties":{"osm_way_id":"906768003","building":"yes"},"geometry":{"type":"Polygon","coordinates":[[[ -4.98895,56.90288],[-4.98907,56.90288],[-4.98907,56.90295],[-4.98896,56.90295],[-4.98895,56.90288]] ]}},
{ "type":"Feature","properties":{"osm_way_id":"986040152","name":"Co-op","building":"yes","shop":"supermarket","other":{"branch":"Wester Inshes"}}, "geometry":{"type":"Polygon","coordinates":[[[ -4.18615,57.46291],[-4.18589,57.46293],[-4.18584,57.46273],[-4.1861,57.46271],[-4.18615,57.46291]] ]}}
]
}
