{
"type": "FeatureCollection",
"features": [
{ "type":"Feature","properties":{"osm_id":"615954544","name":"Spar","other":{"brand":"Spar","brand:wikidata":"Q610492","shop":"supermarket"}}, "geometry":{"type":"Point","coordinates":[-3.72184,55.9874 ]}},
{ "type":"Feature","properties":{"osm_id":"1783972423","name":"Spar","other":{"brand":"Spar","brand:wikidata":"Q610492","shop":"supermarket"}}, "geometry":{"type":"Point","coordinates":[-3.71087,56.00924 ]}},
{ "type":"Feature","properties":{"osm_id":"4154291957","name":"Scotmid","other":{"addr:city":"Bo'ness","addr:housenumber":"66","addr:postcode":"EH51 0HX","addr:street":"Linlithgow Road","brand":"Scotmid","brand:wikidata":"Q7435719","brand:wikipedia":"en:Scotmid","fhrs:id":"549169","operator":"Scottish Midland Co-operative Society","shop":"supermarket"}}, "geometry":{"type":"Point","coordinates":[-3.61029,56.00895 ]}},
{ "type":"Feature","properties":{"osm_id":"5002156474","name":"The Co-operative Food","other":{"addr:city":"Denny","addr:street":"Stirling Street","brand":"The Co-operative Food","brand:wikidata":"Q3277439","brand:wikipedia":"en:Co-op Food","shop":"supermarket"}}, "geometry":{"type":"Point","coordinates":[-3.9082,56.02414 ]}},
{ "type":"Feature","properties":{"osm_id":"5718578241","name":"Lidl","other":{"addr:country":"GB","addr:housename":"The Carron Centre","addr:postcode":"FK2 7TA","addr:street":"Ronades Road","brand":"Lidl","brand:wikidata":"Q151954","brand:wikipedia":"en:Lidl","fhrs:id":"549262","shop":"supermarket"}}, "geometry":{"type":"Point","coordinates":[-3.79224,56.01701 ]}},
{ "type":"Feature","properties":{"osm_id":"7832760577","name":"Spar","other":{"brand":"Spar","brand:wikidata":"Q610492","brand:wikipedia":"en:Spar (retailer)","shop":"supermarket"}}, "geometry":{"type":"Point","coordinates":[-3.81224,56.00308 ]}},
{ "type":"Feature","properties":{"osm_id":"8743050673","name":"Scotmid","other":{"brand":"Scotmid","brand:wikidata":"Q7435719","brand:wikipedia":"en:Scotmid","shop":"supermarket"}}, "geometry":{"type":"Point","coordinates":[-3.78371,56.02845 ]}},
{ "type":"Feature","properties":{"osm_id":"9178942753","other":{"generator:method":"photovoltaic","generator:output:electricity":"yes","generator:source":"solar","generator:type":"solar_photovoltaic_panel","power":"generator"}}, "geometry":{"type":"Point","coordinates":[-3.91127,56.00628 ]}},
{ "type":"Feature","properties":{"osm_id":"9440487790","name":"Scotmid","other":{"brand":"Scotmid","brand:wikidata":"Q7435719","brand:wikipedia":"en:Scotmid","shop":"supermarket"}}, "geometry":{"type":"Point","coordinates":[-3.9425,55.99099 ]}},
{ "type":"Feature","properties":{"osm_way_id":"10427607","name":"Asda","building":"yes","shop":"supermarket","other":{"addr:city":"Grangemouth","addr:housenumber":"9","addr:postcode":"FK3 8TY","addr:street":"Dock Road","brand":"Asda","brand:wikidata":"Q297410","brand:wikipedia":"en:Asda","contact:facebook":"https:\/\/www.facebook.com\/asda\/","contact:twitter":"@asda","contact:website":"https:\/\/storelocator.asda.com\/scotland\/grangemouth\/dock-road","fhrs:id":"549139","operator":"Asda Stores Ltd"}}, "geometry":{"type":"MultiPolygon","coordinates":[[[[-3.7201,56.02047],[-3.71891,56.02024],[-3.7191,56.01993],[-3.71868,56.01985],[-3.71888,56.01954],[-3.72048,56.01986],[-3.72043,56.01995],[-3.72048,56.01996],[-3.72049,56.01996],[-3.72032,56.02024],[-3.72018,56.02045],[-3.72012,56.02043],[-3.7201,56.02047]]]]}},
{ "type":"Feature","properties":{"osm_way_id":"61918243","name":"Aldi","building":"retail","shop":"supermarket","other":{"brand":"ALDI","brand:wikidata":"Q41171672","brand:wikipedia":"en:Aldi"}}, "geometry":{"type":"MultiPolygon","coordinates":[[[[-3.70594,55.99151],[-3.70674,55.99149],[-3.70672,55.99112],[-3.70651,55.99112],[-3.70628,55.99113],[-3.70592,55.99113],[-3.70594,55.99151]]]]}},
{ "type":"Feature","properties":{"osm_way_id":"75480709","name":"Morrisons","building":"retail","shop":"supermarket","other":{"addr:postcode":"FK1 5BU","addr:street":"Hope Street","brand":"Morrisons","brand:wikidata":"Q922344","brand:wikipedia":"en:Morrisons"}}, "geometry":{"type":"MultiPolygon","coordinates":[[[[-3.79055,56.00498],[-3.79055,56.00483],[-3.79066,56.00483],[-3.79066,56.00476],[-3.79094,56.00476],[-3.79094,56.00468],[-3.79095,56.00408],[-3.79089,56.00408],[-3.7909,56.00394],[-3.79073,56.00394],[-3.79073,56.00398],[-3.79016,56.00398],[-3.79016,56.00393],[-3.78979,56.00393],[-3.78979,56.00412],[-3.78989,56.00412],[-3.78989,56.00433],[-3.78994,56.00433],[-3.78994,56.00476],[-3.7899,56.00476],[-3.78989,56.00491],[-3.78997,56.00491],[-3.78996,56.00498],[-3.79009,56.00498],[-3.79055,56.00498]]]]}},
{ "type":"Feature","properties":{"osm_way_id":"75923004","name":"Tesco","building":"retail","shop":"supermarket","other":{"addr:city":"Falkirk","addr:housename":"Grahamston Retail Park","addr:postcode":"FK1 1LW","addr:street":"Grahams Road","brand":"Tesco","brand:wikidata":"Q487494","brand:wikipedia":"en:Tesco","opening_hours":"24\/7","wheelchair":"yes"}}, "geometry":{"type":"MultiPolygon","coordinates":[[[[-3.7834,56.0028],[-3.78319,56.00244],[-3.78274,56.00242],[-3.78265,56.00225],[-3.78239,56.00229],[-3.78236,56.00225],[-3.78221,56.00222],[-3.78176,56.00217],[-3.7818,56.00225],[-3.78156,56.00229],[-3.7817,56.00257],[-3.78166,56.00258],[-3.7819,56.00303],[-3.78193,56.00308],[-3.78247,56.00299],[-3.78245,56.00295],[-3.7834,56.0028]]]]}},
{ "type":"Feature","properties":{"osm_way_id":"127386263","name":"Asda","building":"yes","shop":"supermarket","other":{"addr:city":"Falkirk","addr:country":"GB","addr:housename":"Newmarket Centre","addr:housenumber":"3","addr:postcode":"FK1 1JT","addr:street":"Newmarket Street","brand":"Asda","brand:wikidata":"Q297410","brand:wikipedia":"en:Asda","contact:facebook":"https:\/\/www.facebook.com\/asda\/","contact:twitter":"@asda","contact:website":"https:\/\/storelocator.asda.com\/scotland\/falkirk\/3-newmarket-centre","fhrs:id":"549610","operator":"Asda Stores Ltd"}}, "geometry":{"type":"MultiPolygon","coordinates":[[[[-3.78741,56.00084],[-3.7872,56.00084],[-3.7872,56.00071],[-3.78675,56.00072],[-3.78675,56.00074],[-3.78675,56.00081],[-3.78664,56.00081],[-3.78664,56.00084],[-3.78653,56.00084],[-3.78642,56.00084],[-3.78642,56.00088],[-3.78642,56.00094],[-3.78675,56.00094],[-3.78675,56.00128],[-3.78631,56.00129],[-3.78631,56.00134],[-3.78628,56.00134],[-3.78617,56.00134],[-3.78613,56.00134],[-3.78613,56.00166],[-3.78621,56.00171],[-3.78619,56.00172],[-3.7862,56.00174],[-3.78625,56.00177],[-3.78629,56.00177],[-3.78681,56.00177],[-3.78687,56.00174],[-3.78694,56.00174],[-3.78705,56.00168],[-3.78709,56.0017],[-3.78714,56.00167],[-3.7871,56.00165],[-3.78714,56.00163],[-3.7872,56.00163],[-3.78726,56.00158],[-3.78737,56.00158],[-3.78752,56.00148],[-3.78753,56.00121],[-3.78768,56.0012],[-3.78767,56.00084],[-3.78741,56.00084]]]]}},
{ "type":"Feature","properties":{"osm_way_id":"136184205","name":"Co-op Food","building":"retail","shop":"supermarket","other":{"brand":"Co-op Food","brand:wikidata":"Q3277439","brand:wikipedia":"en:Co-op Food"}}, "geometry":{"type":"MultiPolygon","coordinates":[[[[-3.79225,56.01624],[-3.79168,56.01588],[-3.79187,56.01579],[-3.79188,56.01576],[-3.79179,56.01571],[-3.79203,56.01559],[-3.79234,56.01544],[-3.79263,56.01561],[-3.79277,56.01555],[-3.79294,56.01565],[-3.79281,56.01572],[-3.79296,56.01581],[-3.79299,56.01581],[-3.7931,56.01576],[-3.79346,56.01599],[-3.79333,56.01605],[-3.79336,56.01607],[-3.7932,56.01614],[-3.79318,56.01613],[-3.79304,56.0162],[-3.79272,56.016],[-3.79225,56.01624]]]]}},
{ "type":"Feature","properties":{"osm_way_id":"149981405","name":"The Co-operative Food","building":"retail","shop":"supermarket","other":{"addr:city":"Leeds","addr:housenumber":"260","addr:postcode":"LS8 3LE","addr:street":"Oakwood Lane","brand":"The Co-operative Food","brand:wikidata":"Q107617274","brand:wikipedia":"en:Co-op Food","fhrs:id":"321695","operator":"The Co-operative Group","operator:wikidata":"Q117202","operator:wikipedia":"en:The Co-operative Group"}}, "geometry":{"type":"MultiPolygon","coordinates":[[[[-1.49492,53.82082],[-1.49502,53.82076],[-1.49497,53.82073],[-1.49505,53.82067],[-1.49473,53.8205],[-1.49464,53.82056],[-1.49476,53.82062],[-1.49466,53.82068],[-1.49466,53.82068],[-1.49466,53.82068],[-1.49492,53.82082]]]]}},
{ "type":"Feature","properties":{"osm_way_id":"178443116","name":"Tesco","building":"retail","shop":"supermarket","other":{"brand":"Tesco","brand:wikidata":"Q487494","brand:wikipedia":"en:Tesco"}}, "geometry":{"type":"MultiPolygon","coordinates":[[[[-3.60437,56.01757],[-3.60368,56.01744],[-3.60367,56.01745],[-3.60363,56.01744],[-3.60364,56.01742],[-3.60352,56.01739],[-3.6035,56.01742],[-3.60345,56.01741],[-3.60342,56.01746],[-3.60347,56.01747],[-3.60346,56.01749],[-3.60359,56.01751],[-3.6036,56.01749],[-3.60365,56.0175],[-3.60362,56.01755],[-3.60347,56.0178],[-3.60421,56.01793],[-3.60431,56.01795],[-3.60445,56.01771],[-3.60446,56.01765],[-3.60448,56.01757],[-3.60437,56.01757]]]]}},
{ "type":"Feature","properties":{"osm_way_id":"197277763","name":"Nisa Local","building":"yes","shop":"supermarket"},"geometry":{"type":"MultiPolygon","coordinates":[[[[-3.91719,56.01464],[-3.91715,56.0146],[-3.91702,56.01464],[-3.91688,56.01449],[-3.91702,56.01445],[-3.91701,56.01444],[-3.91713,56.0144],[-3.91714,56.01442],[-3.91724,56.01439],[-3.91731,56.01446],[-3.91734,56.01445],[-3.91739,56.0145],[-3.91734,56.01451],[-3.91737,56.01454],[-3.91725,56.01457],[-3.91728,56.0146],[-3.91719,56.01464]]]]}},
{ "type":"Feature","properties":{"osm_way_id":"231030240","name":"Tesco","building":"yes","shop":"supermarket","other":{"addr:city":"Falkirk","addr:place":"Camelon","addr:postcode":"FK1 4HQ","addr:street":"Glasgow Road","brand":"Tesco","brand:wikidata":"Q487494","brand:wikipedia":"en:Tesco","fhrs:id":"550001","opening_hours":"Mo-Sa 07:00-23:00; Su 08:00-22:00","operator":"Tesco Stores Ltd","source:addr":"fhrs opendata"}}, "geometry":{"type":"MultiPolygon","coordinates":[[[[-3.82217,56.00574],[-3.8209,56.00559],[-3.82061,56.00635],[-3.82082,56.00637],[-3.82083,56.00634],[-3.82118,56.00638],[-3.82115,56.00644],[-3.82151,56.00649],[-3.82154,56.00639],[-3.82191,56.00643],[-3.82217,56.00574]]]]}},
{ "type":"Feature","properties":{"osm_way_id":"231031999","name":"Tesco","building":"retail","shop":"supermarket","other":{"addr:postcode":"FK2 9RA","addr:street":"Colliery Road","addr:village":"Redding","brand":"Tesco","brand:wikidata":"Q487494","brand:wikipedia":"en:Tesco","building:levels":"2","fhrs:id":"549848","nohousenumber":"yes","opening_hours":"06:00-00:00","operator":"Tesco","roof:levels":"0","website":"https:\/\/www.tesco.com\/store-locator\/falkirk\/colliery-rd","wheelchair":"yes"}}, "geometry":{"type":"MultiPolygon","coordinates":[[[[-3.73734,55.98488],[-3.7373,55.98475],[-3.73721,55.98476],[-3.73711,55.98444],[-3.73708,55.98444],[-3.73704,55.98433],[-3.73707,55.98433],[-3.73704,55.98423],[-3.737,55.98412],[-3.7373,55.98409],[-3.73731,55.98413],[-3.73871,55.98399],[-3.73871,55.98401],[-3.73873,55.98405],[-3.73845,55.98408],[-3.73851,55.98425],[-3.73833,55.98427],[-3.73849,55.98476],[-3.73734,55.98488]]]]}},
{ "type":"Feature","properties":{"osm_way_id":"321282180","name":"Lidl","building":"retail","shop":"supermarket","other":{"addr:city":"Bo'ness","addr:country":"GB","addr:housenumber":"2,4","addr:postcode":"EH51 9AW","addr:street":"Links Road","brand":"Lidl","brand:wikidata":"Q151954","brand:wikipedia":"en:Lidl","fhrs:id":"549502"}}, "geometry":{"type":"MultiPolygon","coordinates":[[[[-3.60245,56.01699],[-3.60257,56.01681],[-3.60274,56.01653],[-3.60316,56.01661],[-3.60297,56.01692],[-3.60304,56.01693],[-3.60294,56.01709],[-3.60245,56.01699]]]]}},
{ "type":"Feature","properties":{"osm_way_id":"353470669","name":"Asda","building":"yes","shop":"supermarket","other":{"addr:city":"Stenhousemuir","addr:country":"GB","addr:housenumber":"21","addr:postcode":"FK5 3DB","addr:street":"Hallam Road","brand":"Asda","brand:wikidata":"Q297410","brand:wikipedia":"en:Asda","contact:facebook":"https:\/\/www.facebook.com\/asda\/","contact:twitter":"@asda","contact:website":"https:\/\/storelocator.asda.com\/scotland\/stenhousemuir\/17-hallam-road","fhrs:id":"549684","operator":"Asda Stores Ltd"}}, "geometry":{"type":"MultiPolygon","coordinates":[[[[-3.81582,56.02533],[-3.81555,56.02437],[-3.81466,56.02445],[-3.81472,56.02469],[-3.81489,56.02468],[-3.81496,56.02492],[-3.81504,56.02492],[-3.81512,56.02517],[-3.81518,56.02517],[-3.81524,56.02538],[-3.81582,56.02533]]]]}},
{ "type":"Feature","properties":{"osm_way_id":"359229475","name":"Co-op Food","building":"yes","shop":"supermarket","other":{"brand":"Co-op Food","brand:wikidata":"Q3277439","brand:wikipedia":"en:Co-op Food","operator":"The Co-operative Group","operator:wikidata":"Q117202","operator:wikipedia":"en:The Co-operative Group"}}, "geometry":{"type":"MultiPolygon","coordinates":[[[[-3.83052,56.00309],[-3.83049,56.00298],[-3.83,56.00302],[-3.83002,56.00313],[-3.83052,56.00309]]]]}},
{ "type":"Feature","properties":{"osm_way_id":"419872850","name":"Aldi","building":"retail","shop":"supermarket","other":{"addr:city":"Falkirk","addr:postcode":"FK1 4DD","addr:street":"Redbrae Road","brand":"ALDI","brand:wikidata":"Q41171672","brand:wikipedia":"en:Aldi","fhrs:id":"681768","operator":"Aldi Foodstore Ltd","source:addr":"fhrs opendata"}}, "geometry":{"type":"MultiPolygon","coordinates":[[[[-3.82064,56.00577],[-3.82023,56.00572],[-3.82027,56.00561],[-3.82044,56.00518],[-3.82084,56.00523],[-3.82064,56.00577]]]]}},
{ "type":"Feature","properties":{"osm_way_id":"511348347","name":"Sainsbury's","building":"yes","shop":"supermarket","other":{"addr:city":"Denny","addr:street":"Cruikshank's Court","brand":"Sainsbury's","brand:wikidata":"Q152096","brand:wikipedia":"en:Sainsbury's"}}, "geometry":{"type":"MultiPolygon","coordinates":[[[[-3.90705,56.01739],[-3.90694,56.01739],[-3.90694,56.01744],[-3.90656,56.01743],[-3.90653,56.01775],[-3.90645,56.01775],[-3.90644,56.01787],[-3.90702,56.01789],[-3.90705,56.01739]]]]}},
{ "type":"Feature","properties":{"osm_way_id":"513071137","name":"M&S Foodhall","building":"yes","shop":"supermarket","other":{"brand":"M&S Foodhall","brand:wikidata":"Q714491","brand:wikipedia":"en:Marks & Spencer","opening_hours":"Mo-Sa 08:00-20:00; Su 10:00-18:00","wheelchair":"yes"}}, "geometry":{"type":"MultiPolygon","coordinates":[[[[-3.77804,56.00226],[-3.77827,56.00229],[-3.77841,56.00188],[-3.77816,56.00186],[-3.77804,56.00226]]]]}},
{ "type":"Feature","properties":{"osm_way_id":"618022481","name":"Pantry Deli & Bakery","building":"yes","shop":"supermarket","other":{"cuisine":"polish","opening_hours":"Mo-Sa 10:00-19:00; Su 11:00-17:00"}}, "geometry":{"type":"MultiPolygon","coordinates":[[[[-3.78346,55.99724],[-3.78339,55.99734],[-3.78322,55.9973],[-3.78329,55.99721],[-3.78346,55.99724]]]]}},
{ "type":"Feature","properties":{"osm_way_id":"719503053","name":"David's Kitchen","building":"shed","shop":"supermarket"},"geometry":{"type":"MultiPolygon","coordinates":[[[[-3.78171,56.00848],[-3.78153,56.00824],[-3.78131,56.00829],[-3.7815,56.00853],[-3.78171,56.00848]]]]}},
{ "type":"Feature","properties":{"osm_way_id":"910082370","name":"Scotmid","building":"yes","shop":"supermarket","other":{"addr:city":"Bonnybridge","addr:housenumber":"25-27","addr:postcode":"FK4 1BX","addr:street":"High Street","brand":"Scotmid","brand:wikidata":"Q7435719","brand:wikipedia":"en:Scotmid","fhrs:id":"681778"}}, "geometry":{"type":"MultiPolygon","coordinates":[[[[-3.88834,56.00128],[-3.88795,56.00121],[-3.88803,56.00107],[-3.8881,56.00097],[-3.88819,56.00099],[-3.88823,56.00086],[-3.88855,56.00091],[-3.88834,56.00128]]]]}},
{ "type":"Feature","properties":{"osm_way_id":"913281823","name":"Lidl","landuse":"retail","shop":"supermarket","other":{"addr:city":"Falkirk","addr:housenumber":"1","addr:postcode":"FK1 1YG","addr:street":"Arnot Street","brand":"Lidl","brand:wikidata":"Q151954","brand:wikipedia":"en:Lidl","check_date":"2021-03-03","fhrs:id":"1451309","opening_date":"2021-11-01","operator":"Lidl"}}, "geometry":{"type":"MultiPolygon","coordinates":[[[[-3.77852,55.99597],[-3.77917,55.99711],[-3.77887,55.99716],[-3.77907,55.99747],[-3.77783,55.99773],[-3.77782,55.9977],[-3.77764,55.99731],[-3.77799,55.99721],[-3.77798,55.99692],[-3.77796,55.99606],[-3.77852,55.99597]]]]}},
{ "type":"Feature","properties":{"osm_way_id":"943469000","name":"McColl's","building":"yes","shop":"supermarket","other":{"opening_hours":"Mo-Su 06:00-22:00"}}, "geometry":{"type":"MultiPolygon","coordinates":[[[[-3.79282,56.02432],[-3.793,56.02438],[-3.79282,56.02454],[-3.79264,56.02448],[-3.79282,56.02432]]]]}}
]
}
