{
"type": "FeatureCollection",
"features": [
{ "type":"Feature","properties":{"osm_way_id":"177535289","building":"warehouse"},"geometry":{"type":"MultiPolygon","coordinates":[[[[-3.69759,56.01466],[-3.69692,56.01444],[-3.6973,56.01408],[-3.69797,56.0143],[-3.69759,56.01466]]]]}},
{ "type":"Feature","properties":{"osm_way_id":"177539072","building":"warehouse"},"geometry":{"type":"MultiPolygon","coordinates":[[[[-3.69568,56.01403],[-3.69607,56.01367],[-3.6952,56.01337],[-3.69493,56.01362],[-3.69474,56.01356],[-3.69462,56.01366],[-3.69568,56.01403]]]]}},
{ "type":"Feature","properties":{"osm_way_id":"223328588","name":"H.W. Coates Ltd","building":"warehouse","other":{"addr:city":"Grangemouth","addr:housename":"South Site","addr:postcode":"FK3 8UU","addr:street":"Earl's Road"}}, "geometry":{"type":"MultiPolygon","coordinates":[[[[-3.73344,56.01437],[-3.73326,56.01421],[-3.7323,56.01454],[-3.73248,56.0147],[-3.73259,56.01479],[-3.73332,56.01454],[-3.73322,56.01445],[-3.73328,56.01442],[-3.73344,56.01437]]]]}},
{ "type":"Feature","properties":{"osm_way_id":"223328601","name":"H.W. Coates Ltd","building":"warehouse","other":{"addr:city":"Grangemouth","addr:housename":"South Site","addr:postcode":"FK3 8UU","addr:street":"Earl's Road"}}, "geometry":{"type":"MultiPolygon","coordinates":[[[[-3.7339,56.01413],[-3.73381,56.01405],[-3.7335,56.01415],[-3.7336,56.01424],[-3.7339,56.01413]]]]}},
{ "type":"Feature","properties":{"osm_way_id":"394722872","building":"warehouse","other":{"addr:city":"Grangemouth"}}, "geometry":{"type":"MultiPolygon","coordinates":[[[[-3.73359,56.01671],[-3.73298,56.01703],[-3.73262,56.01681],[-3.73323,56.01649],[-3.73359,56.01671]]]]}},
{ "type":"Feature","properties":{"osm_way_id":"418564384","name":"Rosebank Warehouse","building":"warehouse"},"geometry":{"type":"MultiPolygon","coordinates":[[[[-3.80403,56.0024],[-3.80303,56.00278],[-3.80282,56.0028],[-3.80271,56.00264],[-3.80305,56.00257],[-3.80342,56.00242],[-3.80352,56.0025],[-3.80396,56.00234],[-3.80403,56.0024]]]]}},
{ "type":"Feature","properties":{"osm_way_id":"497005880","name":"H.W. Coates Ltd","building":"warehouse","other":{"addr:city":"Grangemouth","addr:housename":"South Site","addr:postcode":"FK3 8UU","addr:street":"Earl's Road"}}, "geometry":{"type":"MultiPolygon","coordinates":[[[[-3.73346,56.01399],[-3.73309,56.01365],[-3.73239,56.01389],[-3.73277,56.01423],[-3.73346,56.01399]]]]}},
{ "type":"Feature","properties":{"osm_way_id":"497151154","building":"warehouse"},"geometry":{"type":"MultiPolygon","coordinates":[[[[-3.61063,56.00876],[-3.61049,56.00877],[-3.61047,56.00868],[-3.61061,56.00866],[-3.61063,56.00876]]]]}},
{ "type":"Feature","properties":{"osm_way_id":"509617253","name":"Alexander Dennis Limited","building":"warehouse","other":{"addr:city":"Larbert","addr:housenumber":"9","addr:postcode":"FK5 4RU","addr:street":"Central Boulevard"}}, "geometry":{"type":"MultiPolygon","coordinates":[[[[-3.83436,56.03372],[-3.83402,56.03253],[-3.83316,56.03261],[-3.83328,56.03303],[-3.83297,56.03306],[-3.83313,56.0336],[-3.83347,56.03357],[-3.83353,56.03379],[-3.83436,56.03372]]]]}}
]
}
