{
"type": "FeatureCollection",
"features": [
{ "type":"Feature","properties":{"osm_id":"297021458","name":"Sainsbury's","other":{"addr:city":"Portsmouth","addr:country":"GB","addr:postcode":"PO6 1RR","addr:street":"Fitzherbert Road","brand":"Sainsbury's","brand:wikidata":"Q152096","brand:wikipedia":"en:Sainsbury's","fhrs:id":"137285","opening_hours":"Mo-Sa 07:00-22:00; Su 10:00-16:00","operator":"Sainsbury's Supermarkets Ltd","phone":"+442392200236","shop":"supermarket","website":"https:\/\/stores.sainsburys.co.uk\/0672\/farlington"}}, "geometry":{"type":"Point","coordinates":[-1.03962,50.84051 ]}},
{ "type":"Feature","properties":{"osm_id":"360679076","name":"The Co-operative Food","other":{"addr:city":"Portsmouth","addr:country":"GB","addr:housenumber":"48","addr:postcode":"PO6 2NE","addr:street":"Tregaron Avenue","fhrs:id":"51962","shop":"supermarket","source:addr":"FHRS Open Data"}}, "geometry":{"type":"Point","coordinates":[-1.054,50.84285 ]}},
{ "type":"Feature","properties":{"osm_id":"360980083","name":"Co-op Food","other":{"addr:city":"Portsmouth","addr:country":"GB","addr:housename":"Trafalgar House","addr:postcode":"PO1 2LX","addr:street":"Winston Churchill Avenue","brand":"Co-op Food","brand:wikidata":"Q3277439","brand:wikipedia":"en:Co-op Food","description":"This store is known as Trafalgar House's Coop and is a 'blue' Coop.","fhrs:id":"1008073","opening_hours":"Mo-Su,PH 07:00-23:00","pay_point":"yes","phone":"+44 2392 829342","shop":"supermarket"}}, "geometry":{"type":"Point","coordinates":[-1.09184,50.7952 ]}},
{ "type":"Feature","properties":{"osm_id":"1274361926","name":"The Co-operative Food","other":{"addr:city":"Portsmouth","addr:country":"GB","addr:housenumber":"154-158","addr:postcode":"PO2 7RJ","addr:street":"New Road","opening_hours":"Mo-Su 06:00-23:00","pay_point":"yes","phone":"+44 2392 752339","shop":"supermarket"}}, "geometry":{"type":"Point","coordinates":[-1.0713,50.80911 ]}},
{ "type":"Feature","properties":{"osm_id":"1296687061","name":"Tesco Metro","other":{"addr:city":"Portsmouth","addr:country":"GB","addr:housenumber":"16","addr:postcode":"PO6 3BZ","addr:street":"High Street","brand":"Tesco Metro","brand:wikidata":"Q57551648","brand:wikipedia":"en:Tesco","contact:website":"https:\/\/www.tesco.com\/store-locator\/portsmouth\/16-high-st","fhrs:id":"64897","operator":"Tesco plc","phone":"+44 345 6779184","shop":"supermarket","source:addr":"FHRS Open Data"}}, "geometry":{"type":"Point","coordinates":[-1.06706,50.84597 ]}},
{ "type":"Feature","properties":{"osm_id":"1297570639","name":"Co-op Food","other":{"addr:city":"Southsea","addr:country":"GB","addr:housenumber":"155,157,159","addr:postcode":"PO4 0DH","addr:street":"Fawcett Road","brand":"Co-op Food","brand:wikidata":"Q3277439","brand:wikipedia":"en:Co-op Food","fhrs:id":"51941","shop":"supermarket"}}, "geometry":{"type":"Point","coordinates":[-1.07618,50.79136 ]}},
{ "type":"Feature","properties":{"osm_id":"1299331420","name":"The Co-operative Food","other":{"addr:city":"Southsea","addr:country":"GB","addr:housenumber":"73-75","addr:postcode":"PO5 2SG","addr:street":"Albert Road","fhrs:id":"86843","shop":"supermarket","source:addr:postcode":"FHRS Open Data","wheelchair":"yes"}}, "geometry":{"type":"Point","coordinates":[-1.07992,50.78709 ]}},
{ "type":"Feature","properties":{"osm_id":"1299333539","name":"The Co-operative Food","other":{"addr:city":"Southsea","addr:housenumber":"251","addr:postcode":"PO4 0JR","addr:street":"Albert Road","brand":"The Co-operative Food","brand:wikidata":"Q3277439","brand:wikipedia":"en:Co-op Food","fhrs:id":"594411","phone":"+44 2392 819544","shop":"supermarket","source:addr":"FHRS Open Data","source:fhrs_ref":"FHRS Open Data"}}, "geometry":{"type":"Point","coordinates":[-1.07104,50.78656 ]}},
{ "type":"Feature","properties":{"osm_id":"1299337708","name":"Iceland","other":{"addr:city":"Portsmouth","addr:country":"GB","addr:postcode":"PO1 1SL","addr:street":"Somers Road North","brand":"Iceland","brand:wikidata":"Q721810","fhrs:id":"136145","phone":"+44 23 92 828 172","ref:store":"0260","shop":"supermarket","source:addr":"FHRS Open Data"}}, "geometry":{"type":"Point","coordinates":[-1.07806,50.79854 ]}},
{ "type":"Feature","properties":{"osm_id":"1507557908","name":"Sainsbury's Local","other":{"addr:city":"Southsea","addr:housenumber":"77-79","addr:postcode":"PO5 3PP","addr:street":"Palmerston Road","brand:wikidata":"Q13218434","fhrs:id":"109431","fhrs:local_authority_id":"39536","shop":"supermarket","source:addr":"FHRS Open Data","wheelchair":"yes"}}, "geometry":{"type":"Point","coordinates":[-1.0887,50.7842 ]}},
{ "type":"Feature","properties":{"osm_id":"3357036316","name":"Thai & Asian Foodmart","other":{"addr:city":"Southsea","addr:country":"GB","addr:housenumber":"173","addr:postcode":"PO4 0JW","addr:street":"Albert Road","fhrs:id":"107645","shop":"supermarket","source:addr":"FHRS Open Data"}}, "geometry":{"type":"Point","coordinates":[-1.07478,50.78682 ]}},
{ "type":"Feature","properties":{"osm_id":"3521355313","name":"Co-op Food","other":{"addr:city":"Portsmouth","addr:country":"GB","addr:housenumber":"125","addr:postcode":"PO1 3HY","addr:street":"Queen Street","brand":"Co-op Food","brand:wikidata":"Q3277439","brand:wikipedia":"en:Co-op Food","fhrs:id":"805202","operator":"The Co-operative Group","operator:wikidata":"Q117202","operator:wikipedia":"en:The Co-operative Group","phone":"+44 2392 811866","shop":"supermarket","source:addr":"FHRS Open Data"}}, "geometry":{"type":"Point","coordinates":[-1.10335,50.7999 ]}},
{ "type":"Feature","properties":{"osm_id":"3695929668","name":"Kwiki Mart","other":{"addr:city":"Portsmouth","addr:country":"GB","addr:housenumber":"163","addr:postcode":"PO4 8BJ","addr:street":"Goldsmith Avenue","fhrs:id":"761699","shop":"supermarket","source:addr":"FHRS Open Data"}}, "geometry":{"type":"Point","coordinates":[-1.06812,50.79457 ]}},
{ "type":"Feature","properties":{"osm_id":"4445657227","name":"Okey Oriental Supermarket","other":{"addr:city":"Southsea","addr:country":"GB","addr:housenumber":"104,106","addr:postcode":"PO5 1LP","addr:street":"Elm Grove","alt_name":"Eleven 'Til 7 Food","fhrs:id":"1227679","phone":"+44 2392 837177","shop":"supermarket"}}, "geometry":{"type":"Point","coordinates":[-1.08515,50.78954 ]}},
{ "type":"Feature","properties":{"osm_id":"4589652159","name":"The Co-operative Food","other":{"addr:city":"Portsmouth","addr:housename":"The Pavilion Lakeside North Harbour","addr:postcode":"PO6 3EN","addr:street":"Western Road","fhrs:id":"458880","fhrs:local_authority_id":"43909","opening_hours":"Mo-Fr 07:00-19:00","phone":"+44 2392 324346","shop":"supermarket"}}, "geometry":{"type":"Point","coordinates":[-1.08223,50.84113 ]}},
{ "type":"Feature","properties":{"osm_id":"4753708189","name":"M A Food Cash & Carry","other":{"addr:city":"Portsmouth","addr:country":"GB","addr:housenumber":"154","addr:postcode":"PO2 7DP","addr:street":"Kingston Road","fhrs:id":"118862","phone":"+44 2392 654448; +44 2392 666211","shop":"supermarket"}}, "geometry":{"type":"Point","coordinates":[-1.07868,50.81051 ]}},
{ "type":"Feature","properties":{"osm_id":"5290273378","name":"The Co-operative Food","other":{"addr:city":"Southsea","addr:postcode":"PO4 0RN","addr:street":"South Parade","description":"This is a 'blue' Coop known as South Parade's Coop.","fhrs:id":"1008088","opening_hours":"07:00-22:00","shop":"supermarket"}}, "geometry":{"type":"Point","coordinates":[-1.07715,50.77944 ]}},
{ "type":"Feature","properties":{"osm_way_id":"28127834","name":"Morrisons","building":"yes","shop":"supermarket","other":{"addr:city":"Portsmouth","addr:country":"GB","addr:housename":"Victory Retail Park","addr:postcode":"PO1 4QP","addr:street":"Flathouse Road","alt_name":"Morrisons Portsmouth - Victory Retail Park","brand":"Morrisons","brand:wikidata":"Q922344","brand:wikipedia":"en:Morrisons","fhrs:id":"112365","opening_hours":"Mo-Sa 07:00-22:00; Su 10:00-16:00","operator":"Morrisons","phone":"+44 23 9287 5532","wheelchair":"yes"}}, "geometry":{"type":"MultiPolygon","coordinates":[[[[-1.08826,50.80606],[-1.08825,50.80602],[-1.08845,50.806],[-1.08846,50.80604],[-1.08935,50.80596],[-1.08946,50.8064],[-1.08923,50.80642],[-1.08927,50.80661],[-1.08902,50.80663],[-1.089,50.80654],[-1.08862,50.80657],[-1.08861,50.80655],[-1.08848,50.80656],[-1.08847,50.8065],[-1.08816,50.80652],[-1.08805,50.80608],[-1.08826,50.80606]]]]}},
{ "type":"Feature","properties":{"osm_way_id":"30821396","name":"Booker","building":"retail","shop":"supermarket","other":{"addr:city":"Portsmouth","addr:country":"GB","addr:postcode":"PO3 5SP","addr:street":"Williams Road","fhrs:id":"95334","source:addr":"FHRS Open Data"}}, "geometry":{"type":"MultiPolygon","coordinates":[[[[-1.05866,50.82651],[-1.05741,50.8262],[-1.05699,50.82689],[-1.05823,50.82719],[-1.05829,50.82708],[-1.05853,50.82714],[-1.05878,50.82674],[-1.05855,50.82668],[-1.05866,50.82651]]]]}},
{ "type":"Feature","properties":{"osm_way_id":"31119641","name":"Morrisons","building":"supermarket","shop":"supermarket","other":{"addr:city":"Portsmouth","addr:country":"GB","addr:county":"Hampshire","addr:postcode":"PO3 5UH","addr:street":"Anchorage Road","brand":"Morrisons","brand:wikidata":"Q922344","brand:wikipedia":"en:Morrisons","fhrs:id":"79528","opening_hours":"Mo-Sa 07:00-22:00; Su 10:00-16:00","operator":"Morrisons Supermarkets plc","phone":"+44 23 9269 3629","source:addr":"FHRS Open Data"}}, "geometry":{"type":"MultiPolygon","coordinates":[[[[-1.04743,50.82625],[-1.04741,50.82638],[-1.0474,50.82642],[-1.04721,50.82641],[-1.04711,50.8264],[-1.04708,50.8266],[-1.04639,50.82656],[-1.04638,50.82662],[-1.04601,50.8266],[-1.04608,50.82617],[-1.04644,50.82619],[-1.04644,50.82615],[-1.04645,50.82613],[-1.04663,50.82614],[-1.04661,50.8262],[-1.04743,50.82625]]]]}},
{ "type":"Feature","properties":{"osm_way_id":"32138054","name":"Lidl","building":"yes","shop":"supermarket","other":{"addr:city":"Portsmouth","addr:country":"GB","addr:postcode":"PO3 5HT","addr:street":"Norway Road","brand":"Lidl","brand:wikidata":"Q151954","fhrs:id":"100164","source:addr":"FHRS Open Data"}}, "geometry":{"type":"MultiPolygon","coordinates":[[[[-1.06505,50.83093],[-1.06468,50.83083],[-1.06502,50.83032],[-1.06538,50.83042],[-1.06505,50.83093]]]]}},
{ "type":"Feature","properties":{"osm_way_id":"180953949","name":"Tesco","building":"yes","shop":"supermarket","other":{"addr:city":"Portsmouth","addr:country":"GB","addr:postcode":"PO1 1RS","addr:street":"Crasswell Street","alt_name":"tesco Portsmouth Superstore","brand":"Tesco","brand:wikidata":"Q487494","brand:wikipedia":"en:Tesco","fhrs:id":"91925","layer":"-1","opening_hours":"Mo-Sa 07:00-23:00; Su 10:00-16:00","operator":"Tesco plc","sells:tobacco":"yes","survey:date":"2019-11-29","wheelchair":"yes"}}, "geometry":{"type":"MultiPolygon","coordinates":[[[[-1.0881,50.80107],[-1.08818,50.80078],[-1.08747,50.80069],[-1.08756,50.80039],[-1.08687,50.80031],[-1.08667,50.80098],[-1.08719,50.80104],[-1.08714,50.8012],[-1.08779,50.80128],[-1.08783,50.80115],[-1.08795,50.80116],[-1.08798,50.80105],[-1.0881,50.80107]]]]}},
{ "type":"Feature","properties":{"osm_way_id":"180954727","name":"Waitrose","building":"yes","shop":"supermarket","other":{"addr:city":"Southsea","addr:housenumber":"32-34","addr:postcode":"PO5 2EJ","addr:street":"Marmion Road","branch":"Southsea","brand":"Waitrose & Partners","brand:wikidata":"Q771734","brand:wikipedia":"en:Waitrose & Partners","fhrs:id":"86572","opening_hours":"Mo-Fr 08:00-21:00; Sa 08:00-20:00; Su 10:00-16:00","operator":"Waitrose & Partners","phone":"+44 2392 873584","ref":"170","source:addr":"FHRS Open Data","website":"https:\/\/www.waitrose.com\/bf_home\/bf\/170.html"}}, "geometry":{"type":"MultiPolygon","coordinates":[[[[-1.08726,50.78565],[-1.08705,50.78559],[-1.087,50.78566],[-1.08693,50.78564],[-1.08672,50.78593],[-1.08664,50.78592],[-1.08659,50.78594],[-1.08654,50.78594],[-1.08646,50.78595],[-1.08648,50.78598],[-1.08666,50.78603],[-1.08682,50.78608],[-1.08691,50.78613],[-1.087,50.78615],[-1.08707,50.78614],[-1.0871,50.78615],[-1.08715,50.78608],[-1.08713,50.78607],[-1.08722,50.78594],[-1.08721,50.78593],[-1.08728,50.78583],[-1.08726,50.78579],[-1.08715,50.78576],[-1.0872,50.7857],[-1.08722,50.7857],[-1.08726,50.78565]]]]}},
{ "type":"Feature","properties":{"osm_way_id":"180954840","name":"ASDA","building":"yes","shop":"supermarket","other":{"addr:city":"Portsmouth","addr:country":"GB","addr:housename":"The Bridge Shopping Centre","addr:postcode":"PO1 1SL","addr:street":"Somers Road North","alt_name":"ASDA Portsmouth Superstore","brand":"Asda","brand:wikidata":"Q297410","brand:wikipedia":"en:Asda","contact:facebook":"https:\/\/www.facebook.com\/asda\/","contact:phone":"+44 2392 841800","contact:twitter":"@asda","contact:website":"https:\/\/storelocator.asda.com\/south-east\/portsmouth\/the-bridge-shopping-centre","fhrs:id":"123665","opening_hours":"Mo-Fr 07:00-23:00; Sa 07:00-22:00; Su 10:00-16:00","operator":"Asda Stores Ltd","ref:store":"04583"}}, "geometry":{"type":"MultiPolygon","coordinates":[[[[-1.07945,50.79887],[-1.0794,50.79814],[-1.07893,50.79815],[-1.07893,50.7981],[-1.07815,50.79814],[-1.07827,50.79887],[-1.07877,50.79884],[-1.07878,50.79888],[-1.07945,50.79887]]]]}},
{ "type":"Feature","properties":{"osm_way_id":"180955061","name":"ALDI","building":"yes","shop":"supermarket","other":{"addr:city":"Portsmouth","addr:country":"GB","addr:county":"Hampshire","addr:housenumber":"1","addr:postcode":"PO2 7AL","addr:street":"Gamble Road","addr:suburb":"North End","brand":"ALDI","brand:wikidata":"Q41171672","brand:wikipedia":"en:Aldi","fhrs:id":"107424","operator":"Aldi Stores Limited","self_checkout":"none, only staffed checkouts.","toilets:wheelchair":"no","website":"https:\/\/www.aldi.co.uk\/store\/s-uk-E0340","wheelchair":"yes"}}, "geometry":{"type":"MultiPolygon","coordinates":[[[[-1.08179,50.81268],[-1.08159,50.81265],[-1.08158,50.8127],[-1.0814,50.81268],[-1.08131,50.81296],[-1.08127,50.81295],[-1.08123,50.81308],[-1.08141,50.8131],[-1.0814,50.81312],[-1.0815,50.81314],[-1.0815,50.81311],[-1.08164,50.81313],[-1.08179,50.81268]]]]}},
{ "type":"Feature","properties":{"osm_way_id":"180955299","name":"Lidl","building":"yes","shop":"supermarket","other":{"addr:city":"Portsmouth","addr:country":"GB","addr:postcode":"PO4 8BU","addr:street":"Goldsmith Avenue","brand":"Lidl","brand:wikidata":"Q151954","brand:wikipedia":"en:Lidl","fhrs:id":"1153004","opening_hours":"Mo-Sa 08:00-20:00; Su 10:00-10:30,10:30-16:00","opening_hours:covid19":"same","payment:apple_pay":"yes","payment:cash":"yes","payment:contactless":"yes","payment:credit_cards":"yes","payment:debit_cards":"yes","payment:google_pay":"yes"}}, "geometry":{"type":"MultiPolygon","coordinates":[[[[-1.07018,50.79497],[-1.06937,50.79484],[-1.06949,50.79455],[-1.06986,50.79461],[-1.06982,50.7947],[-1.07019,50.79476],[-1.07018,50.79497]]]]}},
{ "type":"Feature","properties":{"osm_way_id":"502158996","name":"Tesco Extra","building":"yes","shop":"supermarket","other":{"addr:city":"Portsmouth","addr:country":"GB","addr:county":"Hampshire","addr:postcode":"PO6 4SR","addr:street":"Clement Attlee Way","alt_name":"Tesco North Harbour","brand":"Tesco Extra","brand:wikidata":"Q25172225","brand:wikipedia":"en:Tesco Extra","fhrs:id":"91924","operator":"Tesco","phone":"+443456779561","ref:store":"3055"}}, "geometry":{"type":"MultiPolygon","coordinates":[[[[-1.09409,50.84563],[-1.09467,50.84568],[-1.09489,50.8457],[-1.09488,50.84574],[-1.095,50.84575],[-1.09514,50.84517],[-1.09517,50.84503],[-1.09522,50.84503],[-1.09525,50.84493],[-1.0952,50.84492],[-1.09521,50.84484],[-1.0947,50.8448],[-1.09471,50.84476],[-1.09472,50.84472],[-1.0944,50.84469],[-1.09442,50.84462],[-1.09436,50.84461],[-1.09437,50.84455],[-1.09399,50.84451],[-1.09405,50.84424],[-1.09397,50.84423],[-1.09391,50.84448],[-1.09385,50.84448],[-1.09373,50.845],[-1.09371,50.84499],[-1.09365,50.84525],[-1.09364,50.8453],[-1.09372,50.8453],[-1.09379,50.84501],[-1.09394,50.84503],[-1.09383,50.84549],[-1.09392,50.8455],[-1.0939,50.84559],[-1.09409,50.8456],[-1.09409,50.84563]]]]}},
{ "type":"Feature","properties":{"osm_way_id":"506232559","name":"Tesco Extra","building":"yes","shop":"supermarket","other":{"brand":"Tesco Extra","brand:wikidata":"Q25172225","brand:wikipedia":"en:Tesco Extra","ref:store":"4579"}}, "geometry":{"type":"MultiPolygon","coordinates":[[[[-1.06691,50.79623],[-1.06652,50.7962],[-1.06564,50.79612],[-1.0656,50.79631],[-1.06585,50.79633],[-1.06581,50.79653],[-1.06546,50.7965],[-1.06542,50.79668],[-1.06579,50.79671],[-1.06569,50.79719],[-1.06669,50.79727],[-1.06673,50.79706],[-1.06685,50.79707],[-1.06696,50.79652],[-1.06685,50.79651],[-1.06691,50.79623]]]]}},
{ "type":"Feature","properties":{"osm_way_id":"570449084","name":"Lidl","building":"retail","shop":"supermarket","other":{"addr:city":"Portsmouth","addr:country":"GB","addr:county":"Hampshire","addr:housenumber":"55-73","addr:postcode":"PO2 0BH","addr:street":"London Road","brand":"Lidl","brand:wikidata":"Q151954","brand:wikipedia":"en:Lidl","fhrs:id":"1014109","opening_hours":"Mo-Sa 08:00-22:00; Su 10:00-16:00","operator":"Lidl UK GmbH","source:addr":"FHRS Open Data","toilets":"accessible customer toilets","website":"https:\/\/lidl.co.uk\/"}}, "geometry":{"type":"MultiPolygon","coordinates":[[[[-1.08053,50.81477],[-1.08053,50.8149],[-1.08053,50.81526],[-1.08009,50.81526],[-1.07987,50.81526],[-1.0798,50.81522],[-1.07985,50.81489],[-1.08014,50.81486],[-1.08014,50.81483],[-1.08032,50.81481],[-1.08032,50.81477],[-1.08053,50.81477],[-1.08053,50.81477]]]]}},
{ "type":"Feature","properties":{"osm_way_id":"572494965","name":"Iceland","shop":"supermarket","other":{"addr:city":"Portsmouth","addr:country":"GB","addr:county":"Hampshire","addr:housenumber":"86,88","addr:postcode":"PO2 0LZ","addr:street":"London Road","brand":"Iceland","brand:wikidata":"Q721810","brand:wikipedia":"en:Iceland (supermarket)","contact:website":"https:\/\/www.iceland.co.uk\/store-finder\/store?StoreID=122&StoreName=NORTH%20END","fhrs:id":"136100","opening_hours":"Mo-Sa 08:00-19:00; Su 10:00-16:00","phone":"+44 23 92672171","ref:store":"0122","source:addr":"FHRS Open Data"}}, "geometry":{"type":"MultiPolygon","coordinates":[[[[-1.07952,50.81591],[-1.07952,50.81584],[-1.07952,50.81577],[-1.07937,50.81577],[-1.07937,50.81591],[-1.07952,50.81591]]]]}},
{ "type":"Feature","properties":{"osm_way_id":"578665412","name":"ALDI","building":"yes","shop":"supermarket","other":{"addr:city":"Paulsgrove, Portsmouth","addr:street":"Southampton Road","brand":"ALDI","brand:wikidata":"Q41171672","brand:wikipedia":"en:Aldi","opening_hours":"Mo-Sa 08:00-22:00; Su 10:00-16:00","operator":"Aldi Stores Limited","start_date":"2018-03-08","website":"https:\/\/www.aldi.co.uk\/store\/s-uk-E1045"}}, "geometry":{"type":"MultiPolygon","coordinates":[[[[-1.09546,50.84771],[-1.0956,50.84713],[-1.09511,50.84709],[-1.09505,50.84736],[-1.09509,50.84737],[-1.09503,50.84762],[-1.09531,50.84764],[-1.0953,50.84769],[-1.09546,50.84771]]]]}},
{ "type":"Feature","properties":{"osm_way_id":"651632915","name":"Lidl","shop":"supermarket","other":{"addr:city":"Portsmouth","addr:country":"GB","addr:county":"Hampshire","addr:housename":"Ocean Retail Park","addr:postcode":"PO3 5NP","addr:street":"Burrfields Road","brand":"Lidl","brand:wikidata":"Q151954","brand:wikipedia":"en:Lidl","building:part":"yes","indoor":"shop","old_name":"Toys R Us","opening_hours":"Mo-Sa 08:00-22:00; Su 10:00-16:00","start_date":"2019-10-10","toilets":"yes"}}, "geometry":{"type":"MultiPolygon","coordinates":[[[[-1.0551,50.81685],[-1.0551,50.81728],[-1.05546,50.81728],[-1.05546,50.81684],[-1.0551,50.81685]]]]}},
{ "type":"Feature","properties":{"osm_way_id":"651632916","name":"M&S Foodhall","shop":"supermarket","other":{"addr:city":"Portsmouth","addr:country":"GB","addr:county":"Hampshire","addr:housename":"Ocean Retail Park","addr:postcode":"PO3 5NP","addr:street":"Burrfields Road","addr:unit":"5C","brand":"M&S Foodhall","brand:wikidata":"Q714491","brand:wikipedia":"en:Marks & Spencer","building:part":"yes","fhrs:id":"1026926","phone":"+44 2393 879996","website":"https:\/\/www.marksandspencer.com\/"}}, "geometry":{"type":"MultiPolygon","coordinates":[[[[-1.05353,50.81809],[-1.05327,50.81809],[-1.05327,50.81831],[-1.05353,50.81831],[-1.05353,50.81809]]]]}},
{ "type":"Feature","properties":{"osm_way_id":"653832941","name":"Eastern Stores","shop":"supermarket","other":{"addr:city":"Portsmouth","addr:country":"GB","addr:county":"Hampshire","addr:housenumber":"212-216","addr:postcode":"PO2 7LR","addr:street":"Kingston Road","description":"This is an oriental supermarket.","fhrs:id":"1008059","source:addr":"FHRS Open Data"}}, "geometry":{"type":"MultiPolygon","coordinates":[[[[-1.07969,50.81213],[-1.07981,50.81213],[-1.07984,50.81222],[-1.07972,50.81223],[-1.0797,50.81223],[-1.07969,50.81213]]]]}}
]
}
