{
"type": "FeatureCollection",
"features": [
{ "type":"Feature","properties":{"osm_id":"7630471522","other":{"emergency":"defibrillator"}}, "geometry":{"type":"Point","coordinates":[-0.92072,52.47731 ]}},
{ "type":"Feature","properties":{"osm_id":"8653316380","name":"Bar At Rushden Town Bowls Club","other":{"addr:city":"Rushden","addr:country":"GB","addr:housenumber":"144","addr:postcode":"NN10 6AN","addr:street":"Northampton Road","amenity":"bar","fhrs:authority":"North Northamptonshire","fhrs:id":"1049289","fhrs:local_authority_id":"18\/00017\/COM"}}, "geometry":{"type":"Point","coordinates":[-0.60962,52.302 ]}},
{ "type":"Feature","properties":{"osm_way_id":"41452133","name":"Tesco Metro","building":"yes","shop":"supermarket","other":{"addr:city":"Market Harborough","addr:country":"GB","addr:housenumber":"21","addr:postcode":"LE16 7PA","addr:street":"The Square","alt_name":"Tesco Market Harborough Metro","brand":"Tesco Metro","brand:wikidata":"Q57551648","fhrs:authority":"Harborough","fhrs:id":"355512","fhrs:local_authority_id":"16100\/0021\/0\/000","operator":"Tesco","toilets:wheelchair":"no","wheelchair":"yes"}}, "geometry":{"type":"MultiPolygon","coordinates":[[[[-0.92078,52.47739],[-0.92102,52.47732],[-0.92132,52.47722],[-0.92112,52.47698],[-0.9206,52.47714],[-0.92072,52.47731],[-0.92078,52.47739]]]]}},
{ "type":"Feature","properties":{"osm_way_id":"54117826","name":"Sainsbury's","building":"yes","shop":"supermarket","other":{"addr:city":"Market Harborough","addr:country":"GB","addr:housenumber":"20","addr:postcode":"LE16 7DR","addr:street":"St Marys Place","alt_name":"Sainsbury's Market Harborough Superstore","brand":"Sainsbury's","brand:wikidata":"Q152096","brand:wikipedia":"en:Sainsbury's","fhrs:authority":"Harborough","fhrs:id":"355477","fhrs:local_authority_id":"14450\/2008\/2\/000","operator":"Sainsbury's","source:position":"OS_OpenData_StreetView"}}, "geometry":{"type":"MultiPolygon","coordinates":[[[[-0.91805,52.47698],[-0.91783,52.47651],[-0.91734,52.4766],[-0.91721,52.47632],[-0.91685,52.47638],[-0.91699,52.47667],[-0.91705,52.47682],[-0.91687,52.47702],[-0.9172,52.47713],[-0.91805,52.47698]]]]}},
{ "type":"Feature","properties":{"osm_way_id":"54154038","name":"Lidl","building":"yes","shop":"supermarket","other":{"addr:city":"Market Harborough","addr:country":"GB","addr:housenumber":"13","addr:postcode":"LE16 8AN","addr:street":"Kettering Road","alt_name":"LIDL Market Harborough","brand":"Lidl","brand:wikidata":"Q151954","brand:wikipedia":"en:Lidl","fhrs:authority":"Harborough","fhrs:id":"354960","fhrs:local_authority_id":"04\/00124\/FOODHS","operator":"LIDL"}}, "geometry":{"type":"MultiPolygon","coordinates":[[[[-0.9119,52.47785],[-0.91173,52.47777],[-0.91168,52.47781],[-0.91156,52.47775],[-0.91222,52.47726],[-0.91257,52.47744],[-0.91221,52.4777],[-0.91215,52.47767],[-0.9119,52.47785]]]]}},
{ "type":"Feature","properties":{"osm_way_id":"54154046","name":"ALDI","building":"yes","shop":"supermarket","other":{"addr:city":"Market Harborough","addr:country":"GB","addr:postcode":"LE16 8BD","addr:street":"Springfield Street","alt_name":"ALDI Market Harborough","brand":"ALDI","brand:wikidata":"Q41171672","brand:wikipedia":"en:Aldi","fhrs:authority":"Harborough","fhrs:id":"354991","fhrs:local_authority_id":"05\/00119\/FOODHS"}}, "geometry":{"type":"MultiPolygon","coordinates":[[[[-0.91455,52.47742],[-0.9144,52.47718],[-0.91364,52.47736],[-0.91379,52.47759],[-0.91455,52.47742]]]]}},
{ "type":"Feature","properties":{"osm_way_id":"54154047","name":"Waitrose","building":"yes","shop":"supermarket","other":{"addr:city":"Market Harborough","addr:country":"GB","addr:postcode":"LE16 8BD","addr:street":"Springfield Street","alt_name":"Waitrose Market Harborough","brand":"Waitrose","brand:wikidata":"Q771734","brand:wikipedia":"en:Waitrose","fhrs:authority":"Harborough","fhrs:id":"479123","fhrs:local_authority_id":"12\/00076\/FOODHS","official_name":"Waitrose & Partners","operator":"Waitrose & Partners"}}, "geometry":{"type":"MultiPolygon","coordinates":[[[[-0.91504,52.47707],[-0.91473,52.47715],[-0.91481,52.47727],[-0.91458,52.47733],[-0.9143,52.47693],[-0.91484,52.47679],[-0.91504,52.47707]]]]}},
{ "type":"Feature","properties":{"osm_way_id":"58516993","name":"The Co-operative Food","building":"yes","shop":"supermarket","other":{"addr:city":"Market Harborough","addr:country":"GB","addr:postcode":"LE16 9BX","addr:street":"Coventry Road","brand:wikidata":"Q107617274","fhrs:authority":"Harborough","fhrs:id":"354942","fhrs:local_authority_id":"03550\/0029\/0\/000","opening_hours":"Mo-Sa 08:00-20:00; Su 10:00-16:00","operator":"Central England Co-operative","operator:wikidata":"Q16986583"}}, "geometry":{"type":"MultiPolygon","coordinates":[[[[-0.92274,52.4769],[-0.92283,52.47691],[-0.92302,52.47722],[-0.92296,52.47724],[-0.92302,52.47734],[-0.92273,52.47741],[-0.92263,52.47739],[-0.92245,52.47703],[-0.92246,52.47695],[-0.92274,52.4769]]]]}},
{ "type":"Feature","properties":{"osm_way_id":"95132146","name":"The Co-operative Food","building":"yes","shop":"supermarket","other":{"addr:city":"Leicester","addr:country":"GB","addr:housenumber":"26-30","addr:postcode":"LE8 8AJ","addr:street":"High Street","addr:village":"Fleckney","fhrs:authority":"Harborough","fhrs:id":"355060","fhrs:local_authority_id":"06990\/2630\/0\/000","operator":"Central England Co-operative Society"}}, "geometry":{"type":"MultiPolygon","coordinates":[[[[-1.04482,52.53572],[-1.04537,52.53558],[-1.04544,52.53565],[-1.04523,52.53581],[-1.04529,52.53584],[-1.04495,52.53595],[-1.04482,52.53572]]]]}},
{ "type":"Feature","properties":{"osm_way_id":"95211650","name":"Springfields Supermarkets","building":"yes","shop":"supermarket","other":{"addr:city":"Lutterworth","addr:country":"GB","addr:housenumber":"2","addr:postcode":"LE17 6LH","addr:street":"High Street","addr:village":"Husbands Bosworth","fhrs:authority":"Harborough","fhrs:id":"859855","fhrs:local_authority_id":"16\/00010\/FOODHS"}}, "geometry":{"type":"MultiPolygon","coordinates":[[[[-1.05632,52.45239],[-1.0562,52.45243],[-1.05614,52.45236],[-1.05626,52.45232],[-1.05632,52.45239]]]]}},
{ "type":"Feature","properties":{"osm_way_id":"107367610","name":"The Co-operative Food","building":"yes","shop":"supermarket","other":{"addr:city":"Leicester","addr:country":"GB","addr:housenumber":"61","addr:postcode":"LE8 0HS","addr:street":"High Street","addr:village":"Kibworth","fhrs:authority":"Harborough","fhrs:id":"355096","fhrs:local_authority_id":"07040\/0061\/0\/000","operator":"Central England Co-operative Society"}}, "geometry":{"type":"MultiPolygon","coordinates":[[[[-0.99881,52.53732],[-0.99889,52.53701],[-0.99887,52.53687],[-0.99849,52.53688],[-0.99849,52.53699],[-0.99854,52.53699],[-0.99855,52.53713],[-0.99851,52.53713],[-0.99851,52.53728],[-0.99867,52.53727],[-0.99868,52.53732],[-0.99881,52.53732]]]]}},
{ "type":"Feature","properties":{"osm_way_id":"152922152","name":"Waitrose","building":"yes","shop":"supermarket","other":{"addr:city":"Lutterworth","addr:country":"GB","addr:postcode":"LE17 4NF","addr:street":"Lower Leicester Road","alt_name":"Waitrose Lutterworth","brand":"Waitrose","brand:wikidata":"Q771734","brand:wikipedia":"en:Waitrose","fhrs:authority":"Harborough","fhrs:id":"355313","fhrs:local_authority_id":"10\/00013\/FOODHS","official_name":"Waitrose & Partners","operator":"Waitrose & Partners","wheelchair":"yes"}}, "geometry":{"type":"MultiPolygon","coordinates":[[[[-1.20117,52.45821],[-1.20122,52.45826],[-1.20132,52.45822],[-1.20088,52.45774],[-1.2004,52.4579],[-1.20059,52.4581],[-1.20053,52.45812],[-1.20074,52.45835],[-1.20117,52.45821]]]]}},
{ "type":"Feature","properties":{"osm_way_id":"152922154","name":"Morrisons","building":"yes","shop":"supermarket","other":{"addr:city":"Lutterworth","addr:country":"GB","addr:postcode":"LE17 4EZ","addr:street":"Bitteswell Road","alt_name":"Morrisons Lutterworth","brand":"Morrisons","brand:wikidata":"Q922344","brand:wikipedia":"en:Morrisons","fhrs:id":"354981"}}, "geometry":{"type":"MultiPolygon","coordinates":[[[[-1.20217,52.45776],[-1.20209,52.4578],[-1.20218,52.45786],[-1.20155,52.45821],[-1.20131,52.45805],[-1.20127,52.45807],[-1.20114,52.45798],[-1.20111,52.45781],[-1.20118,52.45777],[-1.20158,52.45754],[-1.20151,52.4575],[-1.20169,52.45739],[-1.20217,52.45776]]]]}},
{ "type":"Feature","properties":{"osm_way_id":"192084117","name":"Co-op Food","building":"yes","shop":"supermarket","other":{"addr:city":"Lutterworth","addr:country":"GB","addr:postcode":"LE17 4SS","addr:street":"Linden Drive","brand":"Co-op Food","brand:wikidata":"Q3277439","brand:wikipedia":"en:Co-op Food","fhrs:authority":"Harborough","fhrs:id":"920008","fhrs:local_authority_id":"14\/00024\/FOODHS"}}, "geometry":{"type":"MultiPolygon","coordinates":[[[[-1.21149,52.45764],[-1.21155,52.45766],[-1.21153,52.45769],[-1.21169,52.45774],[-1.21184,52.45757],[-1.21161,52.4575],[-1.21149,52.45764]]]]}},
{ "type":"Feature","properties":{"osm_way_id":"266452295","name":"The Co-operative Food","building":"yes","shop":"supermarket","other":{"addr:city":"Leicester","addr:country":"GB","addr:housenumber":"13","addr:postcode":"LE8 9GH","addr:street":"Main Street","addr:village":"Great Glen","fhrs:authority":"Harborough","fhrs:id":"355287","fhrs:local_authority_id":"09790\/0013\/0\/000"}}, "geometry":{"type":"MultiPolygon","coordinates":[[[[-1.03367,52.57463],[-1.03365,52.5747],[-1.03351,52.57474],[-1.03329,52.57471],[-1.03334,52.57458],[-1.03367,52.57463]]]]}},
{ "type":"Feature","properties":{"osm_way_id":"296172006","name":"The Co-operative Food","building":"yes","shop":"supermarket","other":{"opening_hours":"Mo-Su 06:00-23:00","operator":"The Co-operative Group"}}, "geometry":{"type":"MultiPolygon","coordinates":[[[[-1.048,52.63296],[-1.04796,52.63307],[-1.04755,52.63301],[-1.04759,52.63291],[-1.048,52.63296]]]]}},
{ "type":"Feature","properties":{"osm_way_id":"296172658","name":"The Co-operative Food","building":"yes","shop":"supermarket","other":{"addr:city":"Scraptoft","addr:country":"GB","addr:postcode":"LE7 9TD","addr:street":"Main Street","fhrs:authority":"Harborough","fhrs:id":"355348","fhrs:local_authority_id":"10010\/2009\/2\/000","operator":"Central England Co-operative"}}, "geometry":{"type":"MultiPolygon","coordinates":[[[[-1.04659,52.64568],[-1.04659,52.64587],[-1.04637,52.64587],[-1.04637,52.64568],[-1.04659,52.64568]]]]}},
{ "type":"Feature","properties":{"osm_way_id":"317111033","name":"The Co-operative Food","building":"yes","shop":"supermarket","other":{"addr:city":"Leicester","addr:country":"GB","addr:housenumber":"17","addr:postcode":"LE7 9GE","addr:street":"Main Street","addr:village":"Houghton On The Hill","fhrs:authority":"Harborough","fhrs:id":"354883","fhrs:local_authority_id":"02\/00075\/FOODC","opening_hours":"Mo-Su 07:00-22:00","operator":"Central England Co-operative Society"}}, "geometry":{"type":"MultiPolygon","coordinates":[[[[-0.99739,52.62544],[-0.99765,52.62554],[-0.99758,52.62561],[-0.99732,52.62551],[-0.99739,52.62544]]]]}},
{ "type":"Feature","properties":{"osm_way_id":"370327487","name":"The Co-operative Food","building":"yes","shop":"supermarket","other":{"addr:city":"Leicester","addr:country":"GB","addr:housenumber":"93","addr:postcode":"LE9 6RE","addr:street":"Main Street","addr:village":"Broughton Astley","fhrs:authority":"Harborough","fhrs:id":"355268","fhrs:local_authority_id":"09570\/0093\/0\/000","operator":"Central England Co-operative"}}, "geometry":{"type":"MultiPolygon","coordinates":[[[[-1.23056,52.53409],[-1.23062,52.53431],[-1.23033,52.53441],[-1.23021,52.53442],[-1.23013,52.53413],[-1.2303,52.53412],[-1.23056,52.53409]]]]}},
{ "type":"Feature","properties":{"osm_way_id":"617778207","name":"Co-op Food","building":"yes","shop":"supermarket","other":{"addr:city":"Market Harborough","addr:country":"GB","addr:postcode":"LE16 7AY","addr:street":"Leicester Road","brand:wikidata":"Q3277439","fhrs:authority":"Harborough","fhrs:id":"1035046","fhrs:local_authority_id":"18\/00016\/FOODHS","opening_hours":"Mo-Su 06:00-22:00","operator":"The Co-operative Group"}}, "geometry":{"type":"MultiPolygon","coordinates":[[[[-0.92466,52.48127],[-0.92495,52.4815],[-0.92509,52.48143],[-0.92502,52.48137],[-0.92522,52.48128],[-0.92501,52.48111],[-0.92466,52.48127]]]]}},
{ "type":"Feature","properties":{"osm_way_id":"648167863","name":"ALDI","building":"yes","shop":"supermarket","other":{"addr:city":"Leicester","addr:country":"GB","addr:housenumber":"173","addr:postcode":"LE9 6TA","addr:street":"Buxton Crescent","addr:village":"Broughton Astley","brand":"ALDI","brand:wikidata":"Q41171672","brand:wikipedia":"en:Aldi","fhrs:authority":"Harborough","fhrs:id":"992932","fhrs:local_authority_id":"17\/00068\/FOODHS"}}, "geometry":{"type":"MultiPolygon","coordinates":[[[[-1.22059,52.53234],[-1.22013,52.53249],[-1.21992,52.53225],[-1.21996,52.53224],[-1.21977,52.53202],[-1.22003,52.53194],[-1.21998,52.53188],[-1.22014,52.53183],[-1.22059,52.53234]]]]}}
]
}
