{
"type": "FeatureCollection",
"features": [
{ "type":"Feature","properties":{"osm_id":"6317767372","ref":"AAI16","other":{"location":"On exterior wall of Co-op supermarket, near the right-hand corner facing Wisbech Road.","emergency":"defibrillator"}}, "geometry":{"type":"Point","coordinates":[0.3019,52.46002 ]}},
{ "type":"Feature","properties":{"osm_way_id":"39539119","name":"Asda","building":"yes","shop":"supermarket","other":{"brand":"Asda","fhrs:id":"710398","operator":"Asda Stores Ltd","addr:city":"Ely","addr:town":"Soham","addr:street":"Clay Street","source:addr":"FHRS Open Data","addr:country":"GB","addr:postcode":"CB7 5HH","brand:wikidata":"Q297410","brand:wikipedia":"en:Asda","contact:twitter":"@asda","contact:website":"https:\/\/storelocator.asda.com\/east-of-england\/soham\/2a-clay-street","addr:housenumber":"2A","contact:facebook":"https:\/\/www.facebook.com\/asda\/"}}, "geometry":{"type":"MultiPolygon","coordinates":[[[[0.33698,52.33223],[0.33693,52.33233],[0.33683,52.33231],[0.33678,52.33241],[0.33751,52.33254],[0.33761,52.33234],[0.33698,52.33223]]]]}},
{ "type":"Feature","properties":{"osm_way_id":"57833293","name":"Waitrose","building":"yes","shop":"supermarket","other":{"addr:city":"Ely","addr:postcode":"CB7 4QJ","addr:street":"Bray's Lane","branch":"Ely","brand":"Waitrose","brand:wikidata":"Q771734","brand:wikipedia":"en:Waitrose","fhrs:id":"336496","official_name":"Waitrose & Partners","opening_hours":"Mo-Fr 07:30-21:00; Sa 07:30-20:00; Su 10:00-16:00","operator":"Waitrose & Partners","website":"https:\/\/www.waitrose.com\/bf_home\/bf\/205.html","wheelchair":"yes"}}, "geometry":{"type":"MultiPolygon","coordinates":[[[[0.26706,52.40044],[0.26771,52.40016],[0.26781,52.40013],[0.26772,52.40005],[0.26749,52.40016],[0.26732,52.4],[0.26736,52.39999],[0.26727,52.39992],[0.26713,52.39998],[0.2669,52.40007],[0.26687,52.40004],[0.26671,52.4001],[0.26668,52.40011],[0.26706,52.40044]]]]}},
{ "type":"Feature","properties":{"osm_way_id":"136891313","name":"The Co-operative Food","building":"retail","shop":"supermarket","other":{"addr:city":"Ely","addr:housenumber":"40","addr:postcode":"CB6 1JH","addr:street":"Wisbech Road","addr:village":"Littleport","brand":"Co-op Food","brand:wikidata":"Q3277439","brand:wikipedia":"en:Co-op Food","fhrs:id":"336353","opening_hours":"Su 10:00-16:00, Mo-Sa 06:00-22:00","operator":"Central England Co-operative Society","source:addr":"FHRS Open Data"}}, "geometry":{"type":"MultiPolygon","coordinates":[[[[0.30191,52.46001],[0.3019,52.46002],[0.30151,52.46017],[0.30196,52.46062],[0.30212,52.46056],[0.30196,52.4604],[0.30221,52.46031],[0.30191,52.46001]]]]}},
{ "type":"Feature","properties":{"osm_way_id":"151868436","name":"Sainsbury's","building":"retail","shop":"supermarket","other":{"brand":"Sainsbury's","layer":"1","branch":"Ely Superstore","fhrs:id":"408467","website":"https:\/\/stores.sainsburys.co.uk\/2271\/ely","addr:city":"Ely","wheelchair":"yes","addr:street":"Lisle Lane","addr:postcode":"CB7 4AS","opening_hours":"Mo-Sa 08:00-22:00 Su 10:00-16:00","brand:wikidata":"Q152096","brand:wikipedia":"en:Sainsbury's"}}, "geometry":{"type":"MultiPolygon","coordinates":[[[[0.27139,52.39886],[0.27148,52.39892],[0.27155,52.39888],[0.27158,52.3989],[0.27153,52.39892],[0.27216,52.39934],[0.27299,52.39887],[0.27329,52.39906],[0.2734,52.399],[0.27309,52.39879],[0.27331,52.39867],[0.27318,52.39858],[0.27266,52.39824],[0.27243,52.39837],[0.27235,52.39831],[0.27139,52.39886]]]]}},
{ "type":"Feature","properties":{"osm_way_id":"220813261","name":"The Co-operative Food","building":"yes","shop":"supermarket","other":{"addr:city":"Ely","addr:housenumber":"43","addr:postcode":"CB7 5HA","addr:street":"High Street","addr:town":"Soham","brand":"Co-op Food","brand:wikidata":"Q3277439","brand:wikipedia":"en:Co-op Food","fhrs:id":"336691","operator":"The Co-operative Group","source:addr":"FHRS Open Data"}}, "geometry":{"type":"MultiPolygon","coordinates":[[[[0.33723,52.33318],[0.33731,52.33305],[0.33723,52.33303],[0.33728,52.33297],[0.33768,52.33306],[0.33769,52.33304],[0.33776,52.33306],[0.33765,52.33324],[0.33753,52.33322],[0.33751,52.33324],[0.33744,52.33322],[0.33744,52.33323],[0.33723,52.33318]]]]}},
{ "type":"Feature","properties":{"osm_way_id":"223913082","name":"ALDI","building":"yes","shop":"supermarket","other":{"addr:city":"Ely","addr:housenumber":"41","addr:postcode":"CB7 4AS","addr:street":"Lisle Lane","branch":"Ely","brand":"ALDI","brand:wikidata":"Q41171672","brand:wikipedia":"en:Aldi","fhrs:id":"531067","opening_hours":"Mo-Sa 08:00-22:00; Su 10:00-16:00","website":"https:\/\/www.aldi.co.uk\/store\/s-uk-E0667"}}, "geometry":{"type":"MultiPolygon","coordinates":[[[[0.27021,52.39898],[0.2699,52.39879],[0.26918,52.3991],[0.26949,52.39933],[0.26991,52.39916],[0.26988,52.39913],[0.27021,52.39898]]]]}},
{ "type":"Feature","properties":{"osm_way_id":"224896008","name":"The Co-operative Food","building":"yes","shop":"supermarket","other":{"atm":"yes","fhrs:id":"336468","operator":"The Co-operative Group","addr:city":"Burwell","addr:street":"North Street","source:addr":"FHRS Open Data","addr:postcode":"CB25 0BA","opening_hours":"Mo-Su 07:00-22:00","addr:housenumber":"5"}}, "geometry":{"type":"MultiPolygon","coordinates":[[[[0.32376,52.28037],[0.32431,52.28026],[0.32437,52.28036],[0.32381,52.28047],[0.32376,52.28037]]]]}},
{ "type":"Feature","properties":{"osm_way_id":"256335664","name":"Tesco","building":"yes","shop":"supermarket","other":{"addr:city":"Ely","addr:postcode":"CB7 4DJ","addr:street":"Angel Drove","branch":"Ely Superstore","brand":"Tesco","brand:wikidata":"Q487494","brand:wikipedia":"en:Tesco","fhrs:id":"336489","opening_hours":"Mo-Sa 06:00-24:00; Su 10:00-16:00","operator":"Tesco Stores Ltd","optician":"yes","pharmacy":"yes","phone":"+44 345 677 9256","website":"https:\/\/www.tesco.com\/store-locator\/ely\/angel-drove","wheelchair":"yes"}}, "geometry":{"type":"MultiPolygon","coordinates":[[[[0.26507,52.39055],[0.26529,52.39077],[0.26525,52.39078],[0.26572,52.39125],[0.26573,52.39124],[0.2659,52.39141],[0.26524,52.39165],[0.26525,52.39167],[0.26514,52.39171],[0.26511,52.39168],[0.26485,52.39178],[0.26433,52.39127],[0.26446,52.39122],[0.2643,52.39106],[0.26437,52.39104],[0.26421,52.39089],[0.26458,52.39075],[0.26473,52.3909],[0.26476,52.39088],[0.26451,52.39062],[0.26463,52.39058],[0.26461,52.39055],[0.26475,52.3905],[0.26478,52.39054],[0.26486,52.39054],[0.26488,52.39037],[0.26502,52.39037],[0.26502,52.39033],[0.26514,52.39033],[0.26513,52.39055],[0.26507,52.39055]]]]}},
{ "type":"Feature","properties":{"osm_way_id":"362554720","name":"The Co-operative Food","building":"retail","shop":"supermarket","other":{"addr:city":"Ely","addr:housenumber":"30","addr:postcode":"CB6 1PJ","addr:street":"Main Street","addr:village":"Littleport","brand":"Co-op Food","brand:wikidata":"Q3277439","brand:wikipedia":"en:Co-op Food","fhrs:id":"336649","opening_hours":"Mo-Su 07:00-22:00","operator":"The Co-operative Group","source:addr":"FSA Food Hygiene Ratings Database","wheelchair":"yes"}}, "geometry":{"type":"MultiPolygon","coordinates":[[[[0.30551,52.45682],[0.30532,52.45687],[0.30542,52.457],[0.30561,52.45695],[0.30551,52.45682]]]]}},
{ "type":"Feature","properties":{"osm_way_id":"362555529","name":"The Co-operative Food","building":"yes","shop":"supermarket","other":{"brand":"Co-op Food","brand:wikidata":"Q3277439","brand:wikipedia":"en:Co-op Food","operator":"The Co-operative Group"}}, "geometry":{"type":"MultiPolygon","coordinates":[[[[0.40948,52.34202],[0.40934,52.34223],[0.40917,52.34219],[0.4092,52.34213],[0.40927,52.34215],[0.40937,52.34199],[0.40948,52.34202]]]]}},
{ "type":"Feature","properties":{"osm_way_id":"870767181","building":"yes"},"geometry":{"type":"MultiPolygon","coordinates":[[[[0.21664,52.34391],[0.21673,52.34389],[0.21669,52.34381],[0.21661,52.34383],[0.21664,52.34391]]]]}}
]
}
