{
"type": "FeatureCollection",
"features": [
{ "type":"Feature","properties":{"osm_id":"271114078","other":{"addr:city":"Weston-Super-Mare"}}, "geometry":{"type":"Point","coordinates":[-2.97438,51.34663 ]}},
{ "type":"Feature","properties":{"osm_id":"271114079","other":{"addr:city":"Weston-Super-Mare"}}, "geometry":{"type":"Point","coordinates":[-2.97481,51.34593 ]}},
{ "type":"Feature","properties":{"osm_id":"271114080","other":{"addr:city":"Weston-Super-Mare"}}, "geometry":{"type":"Point","coordinates":[-2.97582,51.34613 ]}},
{ "type":"Feature","properties":{"osm_id":"271114081","other":{"addr:city":"Weston-Super-Mare"}}, "geometry":{"type":"Point","coordinates":[-2.97549,51.34684 ]}},
{ "type":"Feature","properties":{"osm_id":"982344595","name":"The Co-operative Food","other":{"addr:city":"Holsworthy","addr:housenumber":"5-6","addr:postcode":"EX22 6AP","addr:street":"Stanhope Square","opening_hours":"Mo-Su 06:00-22:00","operator":"The Co-operative Group","payment:cash":"yes","payment:coins":"yes","payment:contactless":"yes","payment:credit_cards":"yes","payment:debit_cards":"yes","shop":"supermarket"}}, "geometry":{"type":"Point","coordinates":[-4.35299,50.8095 ]}},
{ "type":"Feature","properties":{"osm_id":"1500542955","other":{"addr:city":"Weston-Super-Mare"}}, "geometry":{"type":"Point","coordinates":[-2.97465,51.34606 ]}},
{ "type":"Feature","properties":{"osm_id":"1500542958","other":{"addr:city":"Weston-Super-Mare"}}, "geometry":{"type":"Point","coordinates":[-2.97474,51.34608 ]}},
{ "type":"Feature","properties":{"osm_id":"1562459051","other":{"addr:city":"Weston-Super-Mare"}}, "geometry":{"type":"Point","coordinates":[-2.97445,51.34664 ]}},
{ "type":"Feature","properties":{"osm_id":"2688262407","name":"Buckland Brewer Community Shop","other":{"shop":"supermarket","wheelchair":"yes"}}, "geometry":{"type":"Point","coordinates":[-4.25273,50.96504 ]}},
{ "type":"Feature","properties":{"osm_id":"5766935171","name":"The Clovelly Soap Company","other":{"organic":"only","shop":"supermarket"}}, "geometry":{"type":"Point","coordinates":[-4.40158,50.99928 ]}},
{ "type":"Feature","properties":{"osm_way_id":"24949314","name":"Tesco","building":"retail","shop":"supermarket","other":{"addr:city":"Weston-Super-Mare","addr:postcode":"BS23 1XG","addr:street":"Station Road","brand":"Tesco","brand:wikidata":"Q487494","brand:wikipedia":"en:Tesco","fhrs:id":"151283","operator":"Tesco","phone":"+44 345 6779712"}}, "geometry":{"type":"MultiPolygon","coordinates":[[[[-2.97438,51.34663],[-2.97465,51.34606],[-2.97474,51.34608],[-2.97481,51.34593],[-2.97582,51.34613],[-2.97549,51.34684],[-2.97445,51.34664],[-2.97438,51.34663]]]]}},
{ "type":"Feature","properties":{"osm_way_id":"57395779","name":"Waitrose","building":"yes","shop":"supermarket","other":{"brand":"Waitrose","brand:wikidata":"Q771734","brand:wikipedia":"en:Waitrose","official_name":"Waitrose & Partners","operator":"Waitrose & Partners","wheelchair":"yes"}}, "geometry":{"type":"MultiPolygon","coordinates":[[[[-4.35384,50.80789],[-4.35379,50.80781],[-4.35364,50.80753],[-4.35429,50.80739],[-4.35453,50.80783],[-4.35425,50.80789],[-4.35422,50.80782],[-4.35384,50.80789]]]]}},
{ "type":"Feature","properties":{"osm_way_id":"177291443","name":"Asda","building":"yes","shop":"supermarket","other":{"addr:city":"Bideford","addr:country":"GB","addr:postcode":"EX39 3QU","addr:street":"Clovelly Road","brand":"Asda","brand:wikidata":"Q297410","brand:wikipedia":"en:Asda","contact:facebook":"https:\/\/www.facebook.com\/asda\/","contact:twitter":"@asda","contact:website":"https:\/\/storelocator.asda.com\/south-west\/bideford\/clovelly-road","fhrs:id":"234116","operator":"Asda Stores Ltd","toilets":"yes","toilets:access":"customers","toilets:wheelchair":"yes","wheelchair":"yes"}}, "geometry":{"type":"MultiPolygon","coordinates":[[[[-4.23654,51.0083],[-4.23585,51.00827],[-4.23584,51.00828],[-4.23573,51.00828],[-4.23574,51.00826],[-4.23563,51.00825],[-4.23575,51.00765],[-4.23584,51.00749],[-4.23668,51.00754],[-4.23665,51.00768],[-4.23673,51.00769],[-4.2367,51.00784],[-4.23663,51.00783],[-4.23654,51.0083]]]]}},
{ "type":"Feature","properties":{"osm_way_id":"184552686","name":"Tesco","building":"yes","shop":"supermarket","other":{"addr:city":"Bideford","addr:postcode":"EX39 4AJ","addr:street":"Manteo Way","alt_name":"Tesco Bideford Superstore","brand":"Tesco","brand:wikidata":"Q487494","brand:wikipedia":"en:Tesco","wheelchair":"yes"}}, "geometry":{"type":"MultiPolygon","coordinates":[[[[-4.18926,51.01831],[-4.18916,51.01832],[-4.18916,51.0183],[-4.18833,51.01833],[-4.1883,51.01812],[-4.18816,51.01789],[-4.18819,51.01787],[-4.18811,51.01776],[-4.18824,51.01773],[-4.18832,51.01784],[-4.1885,51.01783],[-4.1885,51.0178],[-4.1892,51.01777],[-4.18923,51.01803],[-4.18926,51.01831]]]]}},
{ "type":"Feature","properties":{"osm_way_id":"279585958","name":"Morrisons","building":"supermarket","shop":"supermarket","other":{"addr:city":"Bideford","addr:postcode":"EX39 2LG","addr:street":"Kingsley Road","alt_name":"Morrisons Bideford","brand":"Morrisons","brand:wikidata":"Q922344","brand:wikipedia":"en:Morrisons","fhrs:id":"233615","source:addr":"FHRS Open Data"}}, "geometry":{"type":"MultiPolygon","coordinates":[[[[-4.20602,51.02244],[-4.20606,51.02233],[-4.20627,51.02225],[-4.20652,51.02224],[-4.20652,51.02214],[-4.20662,51.02215],[-4.20668,51.0222],[-4.20671,51.02219],[-4.2068,51.02229],[-4.20684,51.02228],[-4.20688,51.02233],[-4.20693,51.02231],[-4.207,51.02235],[-4.20744,51.02283],[-4.20693,51.02301],[-4.20688,51.02295],[-4.20644,51.02311],[-4.20595,51.0226],[-4.20611,51.02254],[-4.20602,51.02244]]]]}},
{ "type":"Feature","properties":{"osm_way_id":"279585963","name":"Co-op Food","building":"yes","shop":"supermarket","other":{"addr:city":"Bideford","addr:housenumber":"62-63","addr:postcode":"EX39 2JT","addr:street":"Mill Street","alt_name":"The Co-operative Food","brand":"Co-op Food","brand:wikidata":"Q3277439","brand:wikipedia":"en:Co-op Food","fhrs:id":"233810"}}, "geometry":{"type":"MultiPolygon","coordinates":[[[[-4.20561,51.01837],[-4.20548,51.01821],[-4.20515,51.01831],[-4.20529,51.01848],[-4.20545,51.01843],[-4.20548,51.01846],[-4.2056,51.01842],[-4.20557,51.01838],[-4.20561,51.01837]]]]}},
{ "type":"Feature","properties":{"osm_way_id":"300870147","name":"Co-op","building":"yes","shop":"supermarket","other":{"addr:city":"Torrington","addr:housenumber":"22","addr:postcode":"EX38 8AA","addr:street":"South Street","alt_name":"The Co-operative Food"}}, "geometry":{"type":"MultiPolygon","coordinates":[[[[-4.14346,50.95148],[-4.14341,50.95137],[-4.14336,50.95116],[-4.14356,50.95112],[-4.14363,50.95132],[-4.1435,50.95134],[-4.14355,50.95146],[-4.14346,50.95148]]]]}},
{ "type":"Feature","properties":{"osm_way_id":"300870148","name":"Lidl","building":"yes","shop":"supermarket","other":{"addr:city":"Torrington","addr:country":"GB","addr:postcode":"EX38 8BX","addr:street":"New Street","alt_name":"LIDL Torrington","brand":"Lidl","brand:wikidata":"Q151954","brand:wikipedia":"en:Lidl","fhrs:id":"233931"}}, "geometry":{"type":"MultiPolygon","coordinates":[[[[-4.15115,50.95375],[-4.15095,50.95326],[-4.15059,50.95331],[-4.15078,50.95381],[-4.15115,50.95375]]]]}},
{ "type":"Feature","properties":{"osm_way_id":"464502894","name":"ALDI","building":"yes","shop":"supermarket","other":{"brand":"ALDI","brand:wikidata":"Q41171672","brand:wikipedia":"en:Aldi"}}, "geometry":{"type":"MultiPolygon","coordinates":[[[[-4.23961,51.00941],[-4.23955,51.00967],[-4.24039,51.00975],[-4.24042,51.00966],[-4.24033,51.00965],[-4.24037,51.00948],[-4.23961,51.00941]]]]}},
{ "type":"Feature","properties":{"osm_way_id":"473322187","name":"Lidl","building":"yes","shop":"supermarket","other":{"addr:city":"Bideford","addr:postcode":"EX39 3QU","addr:street":"Clovelly Road","brand":"Lidl","brand:wikidata":"Q151954","brand:wikipedia":"en:Lidl","fhrs:id":"931011","source:addr":"FHRS Open Data"}}, "geometry":{"type":"MultiPolygon","coordinates":[[[[-4.23418,51.00874],[-4.23318,51.00876],[-4.23319,51.00886],[-4.2332,51.00905],[-4.23376,51.00903],[-4.23377,51.00913],[-4.23418,51.00913],[-4.23418,51.00907],[-4.2342,51.00907],[-4.23418,51.00874]]]]}},
{ "type":"Feature","properties":{"osm_way_id":"954197658","name":"M&S Simply Food","building":"yes","shop":"supermarket","other":{"addr:city":"Holsworthy","addr:street":"Rydon Road","brand":"M&S Simply Food","brand:wikidata":"Q714491","brand:wikipedia":"en:Marks & Spencer","operator":"M&S"}}, "geometry":{"type":"MultiPolygon","coordinates":[[[[-4.35663,50.8132],[-4.35687,50.81323],[-4.35692,50.8131],[-4.35668,50.81307],[-4.35663,50.8132]]]]}}
]
}
