{
"type": "FeatureCollection",
"features": [
{ "type":"Feature","properties":{"osm_id":"1943451637","name":"Nisa Local","other":{"addr:city":"Upper Beeding","addr:postcode":"BN44 3JE","addr:street":"Hyde Square","fhrs:id":"187303","shop":"supermarket","source:addr":"FHRS Open Data"}}, "geometry":{"type":"Point","coordinates":[-0.29999,50.88315 ]}},
{ "type":"Feature","properties":{"osm_id":"8623658191","name":"Co-op Food","other":{"addr:city":"Broadbridge Heath","addr:postcode":"RH12 3XS","addr:street":"Sargent Way","brand":"Co-op Food","brand:wikidata":"Q3277439","brand:wikipedia":"en:Co-op Food","fhrs:id":"1213103","shop":"supermarket"}}, "geometry":{"type":"Point","coordinates":[-0.36392,51.06662 ]}},
{ "type":"Feature","properties":{"osm_way_id":"60574161","name":"Tesco Express","building":"commercial","shop":"supermarket","other":{"addr:city":"Horsham","addr:housenumber":"49","addr:postcode":"RH13 6EZ","addr:street":"Brighton Road","brand":"Tesco Express","brand:wikidata":"Q98456772","brand:wikipedia":"en:Tesco","fhrs:id":"585619","operator":"Tesco"}}, "geometry":{"type":"MultiPolygon","coordinates":[[[[-0.3134,51.05688],[-0.31372,51.05681],[-0.31365,51.05668],[-0.31346,51.05672],[-0.31344,51.05669],[-0.31334,51.05671],[-0.31339,51.05681],[-0.31336,51.05682],[-0.3134,51.05688]]]]}},
{ "type":"Feature","properties":{"osm_way_id":"104241697","name":"Tesco Metro","building":"yes","shop":"supermarket","other":{"addr:housenumber":"18","addr:postcode":"RH20 1AS","addr:street":"London Road","alt_name":"Pulborough Metro","brand":"Tesco Metro","brand:wikidata":"Q57551648","description":"Pulborough Metro","fhrs:id":"338441"}}, "geometry":{"type":"MultiPolygon","coordinates":[[[[-0.50843,50.96133],[-0.50854,50.96143],[-0.50868,50.96137],[-0.50871,50.96139],[-0.50871,50.96144],[-0.50866,50.96147],[-0.5087,50.9615],[-0.50878,50.96147],[-0.50886,50.96153],[-0.50881,50.96155],[-0.50886,50.96159],[-0.50802,50.96195],[-0.50774,50.96171],[-0.50772,50.96172],[-0.50763,50.96166],[-0.50843,50.96133]]]]}},
{ "type":"Feature","properties":{"osm_way_id":"152868721","name":"Morrisons","building":"supermarket","shop":"supermarket","other":{"brand":"Morrisons","brand:wikidata":"Q922344","brand:wikipedia":"en:Morrisons","old_name":"Safeway"}}, "geometry":{"type":"MultiPolygon","coordinates":[[[[-1.52454,54.12108],[-1.5236,54.12107],[-1.52359,54.12123],[-1.52358,54.1214],[-1.52357,54.12168],[-1.52378,54.12169],[-1.52378,54.12176],[-1.52463,54.12177],[-1.52464,54.12167],[-1.52464,54.12159],[-1.5246,54.12159],[-1.5246,54.12149],[-1.52452,54.12149],[-1.52452,54.1214],[-1.52452,54.12132],[-1.52453,54.12131],[-1.52454,54.12112],[-1.52454,54.12108]]]]}},
{ "type":"Feature","properties":{"osm_way_id":"154360355","name":"Morrisons","building":"yes","shop":"supermarket","other":{"addr:city":"Faversham","addr:county":"Kent","addr:postcode":"ME13 7DY","addr:street":"North Lane","alt_name":"Morrisons Faversham","brand":"Morrisons","brand:wikidata":"Q922344","brand:wikipedia":"en:Morrisons","fhrs:id":"713981","opening_hours":"Mo-Sa 07:00-21:00; Su 10:00-16:00"}}, "geometry":{"type":"MultiPolygon","coordinates":[[[[0.88786,51.31686],[0.888,51.31684],[0.88805,51.31689],[0.88809,51.31701],[0.88803,51.31703],[0.88806,51.31716],[0.88736,51.31726],[0.8873,51.31708],[0.88725,51.31708],[0.88717,51.31682],[0.88723,51.31681],[0.88722,51.31677],[0.88739,51.31675],[0.88739,51.31678],[0.88766,51.31674],[0.88765,51.31671],[0.88779,51.31669],[0.88786,51.31686]]]]}},
{ "type":"Feature","properties":{"osm_way_id":"180933275","name":"Tesco Extra","building":"retail","shop":"supermarket","other":{"addr:city":"Broadbridge Heath","addr:housename":"Broadbridge Heath Retail Park","addr:postcode":"RH12 3YU","addr:street":"Wickhurst Lane","brand":"Tesco Extra","brand:wikidata":"Q25172225","building:levels":"1","fhrs:id":"158585","not:addr:postcode":"RH12 3LX","opening_hours":"Mo 06:00-24:00; Tu-Fr 00:00-24:00; Sa 00:00-22:00; Su,PH 10:00-16:00","roof:levels":"1","roof:shape":"hipped","wheelchair":"yes"}}, "geometry":{"type":"MultiPolygon","coordinates":[[[[-0.35712,51.06565],[-0.3571,51.06568],[-0.35697,51.06564],[-0.35698,51.06562],[-0.35686,51.06559],[-0.35688,51.06557],[-0.35666,51.06551],[-0.35663,51.06554],[-0.35635,51.06545],[-0.35606,51.06582],[-0.35596,51.06595],[-0.35598,51.06596],[-0.35594,51.06602],[-0.35596,51.06603],[-0.35592,51.06608],[-0.35597,51.0661],[-0.3558,51.06632],[-0.35598,51.06637],[-0.35591,51.06646],[-0.35612,51.06652],[-0.35621,51.06641],[-0.35628,51.06644],[-0.35632,51.06638],[-0.35611,51.06632],[-0.35618,51.06623],[-0.35644,51.06631],[-0.35648,51.06627],[-0.35673,51.06634],[-0.35666,51.06643],[-0.35657,51.0664],[-0.35649,51.0665],[-0.35648,51.06649],[-0.35644,51.06655],[-0.35676,51.06665],[-0.3568,51.06659],[-0.35677,51.06658],[-0.35691,51.06639],[-0.35697,51.06641],[-0.35726,51.06603],[-0.35739,51.06607],[-0.35752,51.0659],[-0.3575,51.0659],[-0.35776,51.06556],[-0.3577,51.06554],[-0.35752,51.06578],[-0.35712,51.06565]]]]}},
{ "type":"Feature","properties":{"osm_way_id":"180933711","name":"Sainsbury's","building":"retail","shop":"supermarket","other":{"addr:city":"Horsham","addr:housenumber":"7","addr:postcode":"RH12 1SQ","addr:street":"Worthing Road","brand":"Sainsbury's","brand:wikidata":"Q152096","brand:wikipedia":"en:Sainsbury's","description":"This store has a pharmacy and a cafe.","fhrs:id":"406360","opening_hours":"Mo-Sa 07:00-22:00; Su 10:00-16:00"}}, "geometry":{"type":"MultiPolygon","coordinates":[[[[-0.33247,51.06135],[-0.3315,51.061],[-0.33151,51.06099],[-0.33161,51.06088],[-0.33146,51.06082],[-0.33192,51.06032],[-0.3328,51.06064],[-0.33283,51.0606],[-0.33286,51.06057],[-0.33319,51.06069],[-0.33316,51.06071],[-0.33304,51.06085],[-0.333,51.06083],[-0.33293,51.06091],[-0.33287,51.06088],[-0.33276,51.06101],[-0.33254,51.06127],[-0.33247,51.06135]]]]}},
{ "type":"Feature","properties":{"osm_way_id":"180934136","name":"Co-op Food","building":"retail","shop":"supermarket","other":{"addr:housenumber":"2-4","addr:postcode":"RH13 6AA","addr:street":"Fitzalan Road","brand":"Co-op Food","brand:wikidata":"Q3277439","brand:wikipedia":"en:Co-op Food","fhrs:id":"406313","operator":"The Co-operative Group","operator:wikidata":"Q117202","operator:wikipedia":"en:The Co-operative Group"}}, "geometry":{"type":"MultiPolygon","coordinates":[[[[-0.30267,51.07356],[-0.30244,51.07357],[-0.30233,51.07338],[-0.30252,51.07331],[-0.30257,51.07329],[-0.30258,51.0733],[-0.30262,51.07328],[-0.30265,51.07332],[-0.30261,51.07333],[-0.30263,51.07335],[-0.30257,51.07338],[-0.30262,51.07347],[-0.30267,51.07356]]]]}},
{ "type":"Feature","properties":{"osm_way_id":"259662750","name":"Sainsbury's","building":"yes","shop":"supermarket","other":{"addr:postcode":"RH20 1BQ","addr:street":"Stane Street","alt_name":"Pulborough Superstore","brand":"Sainsbury's","brand:wikidata":"Q152096","brand:wikipedia":"en:Sainsbury's","description":"Pulborough Superstore","fhrs:id":"185079"}}, "geometry":{"type":"MultiPolygon","coordinates":[[[[-0.50067,50.96725],[-0.50023,50.96709],[-0.5,50.96733],[-0.49995,50.96732],[-0.49988,50.96739],[-0.50023,50.96752],[-0.50027,50.96753],[-0.50042,50.96751],[-0.50067,50.96725]]]]}},
{ "type":"Feature","properties":{"osm_way_id":"321531034","name":"The Co-operative Food","building":"commercial","shop":"supermarket","other":{"addr:city":"Horsham","addr:postcode":"RH12 1TR","addr:street":"Guildford Road","fhrs:id":"479328","opening_hours":"07:00-22:00","source:addr":"FHRS Open Data"}}, "geometry":{"type":"MultiPolygon","coordinates":[[[[-0.33781,51.06486],[-0.33795,51.06473],[-0.338,51.06469],[-0.33778,51.0646],[-0.3376,51.06477],[-0.33781,51.06486]]]]}},
{ "type":"Feature","properties":{"osm_way_id":"329178325","name":"The Co-operative Food","building":"retail","shop":"supermarket","other":{"addr:city":"Steyning","addr:housenumber":"43-45","addr:postcode":"BN44 3RE","addr:street":"High Street","fhrs:id":"185951","opening_hours":"Mo-Su 06:00-22:00"}}, "geometry":{"type":"MultiPolygon","coordinates":[[[[-0.32959,50.88864],[-0.33013,50.88843],[-0.33004,50.88834],[-0.32996,50.88837],[-0.3295,50.88854],[-0.32959,50.88864]]]]}},
{ "type":"Feature","properties":{"osm_way_id":"342790659","name":"Lidl","building":"commercial","shop":"supermarket","other":{"addr:country":"GB","addr:housename":"Foundry Retail Park","addr:postcode":"RH13 5PX","addr:street":"Foundry Lane","brand":"Lidl","brand:wikidata":"Q151954","brand:wikipedia":"en:Lidl","fhrs:id":"1202709"}}, "geometry":{"type":"MultiPolygon","coordinates":[[[[-0.31547,51.06801],[-0.31554,51.06807],[-0.31563,51.06808],[-0.31564,51.06821],[-0.31541,51.06834],[-0.31537,51.06832],[-0.31505,51.06851],[-0.31495,51.06844],[-0.31493,51.06845],[-0.31483,51.06838],[-0.31547,51.06801]]]]}},
{ "type":"Feature","properties":{"osm_way_id":"384354019","name":"Waitrose","building":"retail","shop":"supermarket","other":{"addr:city":"Horsham","addr:postcode":"RH12 1LP","addr:street":"Albion Way","brand":"Waitrose","brand:wikidata":"Q771734","brand:wikipedia":"en:Waitrose & Partners","fhrs:id":"778890","layer":"1","official_name":"Waitrose & Partners","operator":"Waitrose & Partners","source:addr":"FRHS Open Data"}}, "geometry":{"type":"MultiPolygon","coordinates":[[[[-0.33589,51.06323],[-0.33581,51.06321],[-0.33537,51.06306],[-0.33533,51.06305],[-0.33535,51.06301],[-0.33537,51.06298],[-0.33541,51.06291],[-0.33544,51.06283],[-0.33546,51.06275],[-0.33548,51.06266],[-0.33549,51.06261],[-0.33549,51.06257],[-0.3355,51.06247],[-0.33615,51.06248],[-0.33614,51.06257],[-0.33632,51.06258],[-0.33631,51.06267],[-0.33638,51.06267],[-0.33637,51.06284],[-0.33644,51.06284],[-0.33643,51.06292],[-0.33637,51.06292],[-0.33636,51.06302],[-0.33615,51.06322],[-0.33597,51.06315],[-0.33589,51.06323]]]]}},
{ "type":"Feature","properties":{"osm_way_id":"458890019","name":"The Co-operative Southwater","building":"retail","shop":"supermarket","other":{"addr:city":"Southwater","addr:postcode":"RH13 9LA","addr:street":"Fairbank Road","addr:substreet":"Lintot Square","fhrs:id":"546352","source:addr":"FHRS Open Data"}}, "geometry":{"type":"MultiPolygon","coordinates":[[[[-0.35195,51.02501],[-0.35193,51.02475],[-0.35196,51.02473],[-0.35189,51.02469],[-0.35185,51.02471],[-0.35151,51.02471],[-0.35152,51.02502],[-0.35195,51.02501]]]]}},
{ "type":"Feature","properties":{"osm_way_id":"496512494","name":"Co-op","building":"yes","shop":"supermarket","other":{"addr:city":"Horsham","addr:housename":"The Coach House","addr:postcode":"RH13 8BT","addr:street":"Horsham Road","addr:village":"Cowfold"}}, "geometry":{"type":"MultiPolygon","coordinates":[[[[-0.27262,50.99048],[-0.27255,50.99049],[-0.27243,50.9905],[-0.27247,50.99072],[-0.27267,50.9907],[-0.27262,50.99048]]]]}},
{ "type":"Feature","properties":{"osm_way_id":"496750792","name":"Waitrose","building":"yes","shop":"supermarket","other":{"addr:city":"Storrington","addr:housenumber":"12","addr:postcode":"RH20 4NQ","addr:street":"Old Mill Drive","brand":"Waitrose & Partners","brand:wikidata":"Q771734","brand:wikipedia":"en:Waitrose & Partners","cafe":"no","fhrs:id":"185920","opening_hours":"Mo-Sa 08:00-20:00; Su 10:00-16:00","operator":"Waitrose & Partners","phone":"+44 1903 741210","toilets":"no","website":"https:\/\/www.waitrose.com\/bf_home\/bf\/317.html"}}, "geometry":{"type":"MultiPolygon","coordinates":[[[[-0.45245,50.91857],[-0.45196,50.91858],[-0.45196,50.91849],[-0.45181,50.91849],[-0.4518,50.91836],[-0.45166,50.91836],[-0.45165,50.91836],[-0.45158,50.91836],[-0.45158,50.91827],[-0.45163,50.91827],[-0.45163,50.91816],[-0.45171,50.91815],[-0.45171,50.91809],[-0.45238,50.91808],[-0.45239,50.91833],[-0.45244,50.91833],[-0.45245,50.91857]]]]}},
{ "type":"Feature","properties":{"osm_way_id":"529078367","name":"Co-op Food","building":"retail","shop":"supermarket","other":{"addr:city":"Horsham","addr:housenumber":"24-24A","addr:postcode":"RH12 2DH","addr:street":"North Parade","brand":"Co-op Food","brand:wikidata":"Q3277439","brand:wikipedia":"en:Co-op Food","description":"This is a 'blue' Coop and is called North Parade's Coop.","fhrs:id":"338427","not:addr:postcode":"RH12 1DH","opening_hours":"Mo-Su 07:00-22:00","operator":"Co-operative","phone":"+44 1403 253801"}}, "geometry":{"type":"MultiPolygon","coordinates":[[[[-0.3292,51.07548],[-0.32927,51.07553],[-0.32901,51.0757],[-0.32896,51.07567],[-0.32893,51.07569],[-0.32885,51.07564],[-0.32891,51.07561],[-0.3289,51.0756],[-0.32898,51.07553],[-0.32907,51.07544],[-0.32908,51.07545],[-0.32909,51.07544],[-0.32921,51.07547],[-0.3292,51.07548]]]]}},
{ "type":"Feature","properties":{"osm_way_id":"573318301","name":"Co-op Food","building":"yes","shop":"supermarket","other":{"addr:city":"Horsham","addr:locality":"Partridge Green","addr:postcode":"RH13 8HR","addr:street":"High Street","brand":"Co-op Food","brand:wikidata":"Q3277439","brand:wikipedia":"en:Co-op Food","fhrs:id":"187339","operator":"The Co-operative Group","operator:wikidata":"Q117202","operator:wikipedia":"en:The Co-operative Group","source:addr":"FHRS Open Data"}}, "geometry":{"type":"MultiPolygon","coordinates":[[[[-0.30468,50.95996],[-0.30459,50.95998],[-0.30451,50.95988],[-0.30461,50.95985],[-0.30465,50.9599],[-0.30468,50.95996]]]]}},
{ "type":"Feature","properties":{"osm_way_id":"711700575","building":"yes","shop":"supermarket","other":{"addr:city":"Steyning","addr:housenumber":"88","addr:postcode":"BN44 3RD","addr:street":"High Street","phone":"+44 1903 444668","website":"https:\/\/www.budgens.co.uk\/our-stores\/steyning"}}, "geometry":{"type":"MultiPolygon","coordinates":[[[[-0.3303,50.88948],[-0.33022,50.88941],[-0.33008,50.88945],[-0.32976,50.88956],[-0.32979,50.8896],[-0.32981,50.88962],[-0.33018,50.88951],[-0.3302,50.88952],[-0.3303,50.88948]]]]}},
{ "type":"Feature","properties":{"osm_way_id":"868794848","name":"Budgens","building":"yes","shop":"supermarket","other":{"addr:city":"Henfield","addr:postcode":"BN5 9DB","addr:street":"High Street","brand":"Budgens","brand:wikidata":"Q4985016","brand:wikipedia":"en:Budgens"}}, "geometry":{"type":"MultiPolygon","coordinates":[[[[-0.27234,50.93016],[-0.2722,50.93015],[-0.27208,50.93014],[-0.27187,50.93014],[-0.27186,50.93016],[-0.27181,50.93018],[-0.27177,50.93018],[-0.27176,50.9303],[-0.27178,50.9303],[-0.27177,50.93037],[-0.27194,50.93037],[-0.27194,50.93036],[-0.27216,50.93037],[-0.27216,50.93038],[-0.27228,50.93039],[-0.27234,50.93016]]]]}},
{ "type":"Feature","properties":{"osm_way_id":"909783106","building":"yes"},"geometry":{"type":"MultiPolygon","coordinates":[[[[-0.31461,51.08385],[-0.31454,51.08383],[-0.31456,51.08379],[-0.31463,51.08381],[-0.31461,51.08385]]]]}}
]
}
