{
"type": "FeatureCollection",
"features": [
{ "type":"Feature","properties":{"osm_id":"1604289767","name":"Sainsbury's","other":{"addr:city":"Ripley","addr:postcode":"DE5 3QP","addr:street":"Nottingham Road","brand":"Sainsbury's","brand:wikidata":"Q152096","brand:wikipedia":"en:Sainsbury's","fhrs:id":"1236","shop":"supermarket","source:postcode":"FHRS Open Data"}}, "geometry":{"type":"Point","coordinates":[-1.39677,53.0541 ]}},
{ "type":"Feature","properties":{"osm_id":"1732094568","name":"The Co-operative Food","other":{"addr:city":"Belper","addr:postcode":"DE56 1UN","addr:street":"Strutt Street","brand":"The Co-operative Food","brand:wikidata":"Q107617274","fhrs:id":"1155","opening_hours":"Mo-Sa 08:00-20:00; Su 10:00-16:00","operator":"Central England Co-operative","operator:wikidata":"Q16986583","shop":"supermarket"}}, "geometry":{"type":"Point","coordinates":[-1.4812,53.02244 ]}},
{ "type":"Feature","properties":{"osm_id":"4862799978","other":{"defibrillator:location":"outside the Co-op store, Maple Avenue, Ripley","emergency":"defibrillator","indoor":"no"}}, "geometry":{"type":"Point","coordinates":[-1.41352,53.04628 ]}},
{ "type":"Feature","properties":{"osm_id":"4917756067","other":{"emergency":"defibrillator"}}, "geometry":{"type":"Point","coordinates":[-1.37874,53.09582 ]}},
{ "type":"Feature","properties":{"osm_id":"5503454718","other":{"emergency":"defibrillator","indoor":"no","location":"on car park side of Co-op, High Street, Ripley"}}, "geometry":{"type":"Point","coordinates":[-1.40626,53.0487 ]}},
{ "type":"Feature","properties":{"osm_id":"5860956046","other":{"emergency":"defibrillator"}}, "geometry":{"type":"Point","coordinates":[-1.42251,53.00158 ]}},
{ "type":"Feature","properties":{"osm_id":"8701719056","name":"Maisy Moo Fabrics","other":{"addr:city":"Alfreton","addr:housenumber":"Room 10","addr:postcode":"DE55 7HH","addr:street":"High Street","level":"2","opening_hours:covid19":"open","operator":"Cerian Moncaster","payment:cash":"yes","payment:contactless":"yes","payment:credit_cards":"yes","payment:debit_cards":"yes","payment:mastercard":"yes","payment:visa":"yes","phone":"+44 7841 420236","shop":"supermarket","website":"www.maisymoofabrics.co.uk"}}, "geometry":{"type":"Point","coordinates":[-1.38508,53.09781 ]}},
{ "type":"Feature","properties":{"osm_way_id":"64935273","name":"The Co-operative Food","building":"yes","shop":"supermarket","other":{"addr:city":"Ripley","addr:country":"GB","addr:housenumber":"1","addr:postcode":"DE5 3EA","addr:street":"Derby Road","brand":"The Co-operative Food","brand:wikidata":"Q107617274","contact:website":"https:\/\/stores.centralengland.coop\/the-co-operative-food-derby-road-ripley-40c1e94b9ae1","fhrs:id":"1182","old_name":"Co-op","operator":"Central England Co-operative","operator:wikidata":"Q16986583","roof:shape":"flat"}}, "geometry":{"type":"MultiPolygon","coordinates":[[[[-1.40549,53.04878],[-1.40587,53.04874],[-1.40586,53.0487],[-1.40607,53.04868],[-1.40608,53.04872],[-1.40626,53.0487],[-1.40636,53.04869],[-1.40637,53.04871],[-1.40649,53.0487],[-1.40657,53.04901],[-1.40662,53.04902],[-1.40662,53.04904],[-1.40659,53.04907],[-1.40629,53.0491],[-1.40628,53.04909],[-1.40622,53.04909],[-1.40622,53.04908],[-1.40616,53.04909],[-1.40615,53.04908],[-1.40609,53.04908],[-1.40608,53.04907],[-1.40602,53.04908],[-1.40602,53.04907],[-1.40588,53.04908],[-1.40588,53.04907],[-1.40558,53.0491],[-1.40557,53.04909],[-1.4055,53.04883],[-1.40549,53.04878]]]]}},
{ "type":"Feature","properties":{"osm_way_id":"64935278","name":"The Co-operative Food","building":"yes","shop":"supermarket","other":{"addr:city":"Ripley","addr:housenumber":"43","addr:postcode":"DE5 3PY","addr:street":"Maple Avenue","brand":"The Co-operative Food","brand:wikidata":"Q107617274","building:levels":"3","fhrs:id":"1221","operator":"Central England Co-operative Society","roof:shape":"flat"}}, "geometry":{"type":"MultiPolygon","coordinates":[[[[-1.41339,53.04617],[-1.41355,53.0461],[-1.41361,53.04608],[-1.41377,53.04622],[-1.41365,53.04626],[-1.41361,53.04628],[-1.41354,53.0463],[-1.41352,53.04628],[-1.41339,53.04617]]]]}},
{ "type":"Feature","properties":{"osm_way_id":"86595217","name":"Morrisons","building":"supermarket","shop":"supermarket","other":{"addr:city":"Belper","addr:postcode":"DE56 1YA","addr:street":"Chapel Street","brand":"Morrisons","brand:wikidata":"Q922344","brand:wikipedia":"en:Morrisons","fhrs:id":"1053"}}, "geometry":{"type":"MultiPolygon","coordinates":[[[[-1.48616,53.02124],[-1.48605,53.02085],[-1.486,53.02084],[-1.48598,53.02074],[-1.48607,53.02069],[-1.48616,53.02068],[-1.48629,53.02057],[-1.48708,53.02048],[-1.48717,53.02078],[-1.48724,53.02105],[-1.4871,53.02107],[-1.48712,53.02113],[-1.48616,53.02124]]]]}},
{ "type":"Feature","properties":{"osm_way_id":"110332863","name":"Asda","building":"retail","shop":"supermarket","other":{"addr:postcode":"NG16 4LH","addr:street":"Station Road","addr:suburb":"Langley Mill","brand":"Asda","brand:wikidata":"Q297410","brand:wikipedia":"en:Asda","contact:facebook":"https:\/\/www.facebook.com\/asda\/","contact:twitter":"@asda","contact:website":"https:\/\/storelocator.asda.com\/east-midlands\/langley-mill\/wesley-street","fhrs:id":"34117","operator":"Asda Stores Ltd","source:addr":"FHRS open data","source:area":"Bing","wheelchair":"yes"}}, "geometry":{"type":"MultiPolygon","coordinates":[[[[-1.33078,53.01991],[-1.33074,53.02036],[-1.3305,53.02035],[-1.33047,53.02061],[-1.32989,53.0206],[-1.32968,53.02059],[-1.32968,53.02054],[-1.32969,53.02038],[-1.32962,53.02038],[-1.32962,53.02031],[-1.3297,53.02031],[-1.32971,53.0202],[-1.32963,53.0202],[-1.32966,53.01988],[-1.32974,53.01988],[-1.33035,53.0199],[-1.33035,53.01987],[-1.33054,53.01988],[-1.33054,53.01991],[-1.33078,53.01991]]]]}},
{ "type":"Feature","properties":{"osm_way_id":"119613137","name":"ALDI","building":"retail","shop":"supermarket","other":{"addr:place":"Heanor Retail Park","addr:postcode":"DE75 7EX","addr:street":"High Street","addr:unit":"1","brand":"ALDI","brand:wikidata":"Q41171672","brand:wikipedia":"en:Aldi","fhrs:id":"7560","source:addr":"FHRS open data;interpolation"}}, "geometry":{"type":"MultiPolygon","coordinates":[[[[-1.35746,53.01595],[-1.35716,53.01608],[-1.35684,53.01622],[-1.35697,53.01633],[-1.35693,53.01635],[-1.35715,53.01653],[-1.35783,53.01622],[-1.35768,53.01609],[-1.35762,53.01604],[-1.35759,53.01605],[-1.35746,53.01595]]]]}},
{ "type":"Feature","properties":{"osm_way_id":"122129416","name":"Tesco","building":"retail","shop":"supermarket","other":{"addr:city":"Heanor","addr:postcode":"DE75 7EX","addr:street":"High Street","brand":"Tesco","brand:wikidata":"Q487494","brand:wikipedia":"en:Tesco","fhrs:id":"1488;1537","source:addr":"FHRS open data","wheelchair":"yes"}}, "geometry":{"type":"MultiPolygon","coordinates":[[[[-1.36009,53.01439],[-1.35986,53.01434],[-1.35988,53.0143],[-1.35968,53.01426],[-1.35957,53.01445],[-1.35945,53.01449],[-1.35961,53.01469],[-1.35956,53.01471],[-1.3596,53.01475],[-1.35954,53.01477],[-1.35964,53.01489],[-1.35975,53.01486],[-1.35983,53.01496],[-1.35999,53.01516],[-1.36057,53.01499],[-1.36009,53.01439]]]]}},
{ "type":"Feature","properties":{"osm_way_id":"161118315","name":"Tesco","building":"yes","shop":"supermarket","other":{"addr:city":"Alfreton","addr:postcode":"DE55 7BQ","addr:street":"Hall Street","brand":"Tesco","brand:wikidata":"Q487494","brand:wikipedia":"en:Tesco","fhrs:id":"10078","opening_hours":"Mo-Sa 06:00-24:00; PH,Su 10:00-16:00","postal_code":"DE55 7BT"}}, "geometry":{"type":"MultiPolygon","coordinates":[[[[-1.38973,53.09531],[-1.38956,53.09447],[-1.38843,53.09456],[-1.3884,53.09439],[-1.3881,53.09442],[-1.38817,53.0948],[-1.38841,53.09478],[-1.38848,53.09511],[-1.38858,53.0951],[-1.38864,53.09539],[-1.38973,53.09531]]]]}},
{ "type":"Feature","properties":{"osm_way_id":"161118632","name":"Lidl","building":"retail","shop":"supermarket","other":{"addr:city":"Alfreton","addr:housenumber":"20","addr:postcode":"DE55 7JL","addr:street":"Mansfield Road","brand":"Lidl","brand:wikidata":"Q151954","brand:wikipedia":"en:Lidl","fhrs:id":"605","opening_hours":"Mo-Sa 08:00-22:00; Su 10:00-16:00","operator":"Lidl"}}, "geometry":{"type":"MultiPolygon","coordinates":[[[[-1.38281,53.09807],[-1.3829,53.09789],[-1.38204,53.09772],[-1.38196,53.09791],[-1.38281,53.09807]]]]}},
{ "type":"Feature","properties":{"osm_way_id":"165015745","name":"Co-op","building":"retail","shop":"supermarket","other":{"addr:city":"Whitstable","addr:country":"GB","addr:county":"Kent","addr:housenumber":"14-16","addr:postcode":"CT5 4EX","addr:street":"Canterbury Road","fhrs:id":"1102326","operator":"Co-operative Group Ltd."}}, "geometry":{"type":"MultiPolygon","coordinates":[[[[1.02507,51.354],[1.0252,51.35394],[1.02535,51.35393],[1.02539,51.35391],[1.0252,51.35378],[1.02497,51.35392],[1.02507,51.354]]]]}},
{ "type":"Feature","properties":{"osm_way_id":"165015747","name":"Co-op Food","building":"retail","shop":"supermarket","other":{"addr:city":"Whitstable","addr:country":"GB","addr:county":"Kent","addr:housenumber":"58","addr:postcode":"CT5 1DG","addr:street":"Oxford Street","brand":"Co-op Food","brand:wikidata":"Q3277439","brand:wikipedia":"en:Co-op Food","fhrs:id":"1102238"}}, "geometry":{"type":"MultiPolygon","coordinates":[[[[1.02458,51.35535],[1.0247,51.35524],[1.02421,51.35505],[1.02411,51.35514],[1.02415,51.35516],[1.02413,51.35518],[1.02417,51.35519],[1.02415,51.35521],[1.02427,51.35526],[1.0243,51.35524],[1.02458,51.35535]]]]}},
{ "type":"Feature","properties":{"osm_way_id":"203146107","name":"The Co-operative Food","building":"yes","shop":"supermarket","other":{"addr:housename":"The Co-operative Food","addr:housenumber":"40-42","addr:postcode":"DE56 4GD","addr:street":"Town Street","brand":"The Co-operative Food","brand:wikidata":"Q107617274","brand:wikipedia":"en:Co-op Food","fhrs:id":"813","operator":"The Co-operative Group","operator:wikidata":"Q117202","operator:wikipedia":"en:The Co-operative Group","source:addr":"FHRS open data"}}, "geometry":{"type":"MultiPolygon","coordinates":[[[[-1.48779,52.98574],[-1.48805,52.98572],[-1.48807,52.9858],[-1.48818,52.98579],[-1.48819,52.98585],[-1.488,52.98586],[-1.48782,52.98588],[-1.48779,52.98574]]]]}},
{ "type":"Feature","properties":{"osm_way_id":"243865511","name":"Lidl","building":"retail","shop":"supermarket","other":{"addr:housenumber":"210","addr:place":"Access 26 Business Park","addr:postcode":"NG16 4AN","addr:street":"Derby Road","addr:suburb":"Langley Mill","brand":"Lidl","brand:wikidata":"Q151954","brand:wikipedia":"en:Lidl","fhrs:id":"15115","operator":"Lidl","source:addr":"FHRS open data"}}, "geometry":{"type":"MultiPolygon","coordinates":[[[[-1.32631,53.01931],[-1.32566,53.01916],[-1.32563,53.0192],[-1.32537,53.01914],[-1.32554,53.01886],[-1.32615,53.019],[-1.32618,53.01896],[-1.32632,53.01899],[-1.32629,53.01905],[-1.32645,53.01908],[-1.32631,53.01931]]]]}},
{ "type":"Feature","properties":{"osm_way_id":"264017837","name":"The Co-operative Food","shop":"supermarket","other":{"addr:housenumber":"1","addr:postcode":"DE55 1LJ","addr:street":"Swanwick Road","fhrs:id":"1305","operator":"Central England Co-operative Society"}}, "geometry":{"type":"MultiPolygon","coordinates":[[[[-1.37467,53.07512],[-1.37475,53.07527],[-1.37481,53.07539],[-1.37476,53.0754],[-1.37478,53.07543],[-1.37437,53.07551],[-1.37424,53.07548],[-1.37415,53.0754],[-1.37414,53.07537],[-1.37402,53.07521],[-1.37454,53.07508],[-1.37457,53.07507],[-1.37463,53.07505],[-1.37466,53.07501],[-1.37463,53.07494],[-1.37472,53.07492],[-1.37483,53.07509],[-1.37467,53.07512]]]]}},
{ "type":"Feature","properties":{"osm_way_id":"264689131","name":"Nisa Extra","building":"yes","shop":"supermarket","other":{"addr:city":"Alfreton","addr:housenumber":"136","addr:postcode":"DE55 4EX","addr:street":"Greenhill Lane","addr:village":"Riddings","brand":"Nisa Extra","brand:wikidata":"Q16999069","brand:wikipedia":"en:Nisa (retailer)","fhrs:id":"656"}}, "geometry":{"type":"MultiPolygon","coordinates":[[[[-1.3702,53.07169],[-1.37007,53.07149],[-1.37049,53.07139],[-1.37062,53.07159],[-1.37045,53.07163],[-1.3702,53.07169]]]]}},
{ "type":"Feature","properties":{"osm_way_id":"281230856","name":"Co-op Food","building":"yes","shop":"supermarket","other":{"addr:city":"Alfreton","addr:housenumber":"89","addr:postcode":"DE55 7GR","addr:street":"Nottingham Road","brand":"Co-op Food","brand:wikidata":"Q3277439","brand:wikipedia":"en:Co-op Food","fhrs:id":"5717","not:addr:postcode":"DE55 7GP","operator":"Central England Co-operative Society"}}, "geometry":{"type":"MultiPolygon","coordinates":[[[[-1.37907,53.09593],[-1.37874,53.09582],[-1.37868,53.09581],[-1.37859,53.09592],[-1.37862,53.09593],[-1.3786,53.09596],[-1.37866,53.09598],[-1.3787,53.09593],[-1.37874,53.09594],[-1.3786,53.0961],[-1.37886,53.09618],[-1.37907,53.09593]]]]}},
{ "type":"Feature","properties":{"osm_way_id":"359153715","name":"The Co-operative Food","building":"yes","shop":"supermarket","other":{"addr:postcode":"DE55 4HT","addr:street":"Market Place","fhrs:id":"691","operator":"Central England Co-operative Society"}}, "geometry":{"type":"MultiPolygon","coordinates":[[[[-1.36794,53.07927],[-1.36773,53.0794],[-1.36751,53.07927],[-1.3676,53.07922],[-1.36773,53.07915],[-1.36794,53.07927]]]]}},
{ "type":"Feature","properties":{"osm_way_id":"371660505","name":"The Co-operative Food","building":"yes","shop":"supermarket","other":{"addr:housenumber":"131","addr:postcode":"DE7 6AX","addr:street":"Main Street","fhrs:id":"842","source:addr":"FHRS Open Data"}}, "geometry":{"type":"MultiPolygon","coordinates":[[[[-1.42289,53.0015],[-1.42279,53.00165],[-1.42251,53.00158],[-1.42237,53.00155],[-1.42246,53.0014],[-1.42289,53.0015]]]]}},
{ "type":"Feature","properties":{"osm_way_id":"392180593","name":"The Co-operative Food","building":"retail","shop":"supermarket","other":{"addr:housenumber":"23","addr:postcode":"NG16 4BG","addr:street":"Station Road","fhrs:id":"929","old_amenity":"pub","source:addr":"FHRS open data"}}, "geometry":{"type":"MultiPolygon","coordinates":[[[[-1.33857,53.01853],[-1.33883,53.01856],[-1.33882,53.01859],[-1.33899,53.01861],[-1.33896,53.01872],[-1.33879,53.0187],[-1.33878,53.01871],[-1.33861,53.01869],[-1.33862,53.01868],[-1.33853,53.01866],[-1.33857,53.01853]]]]}},
{ "type":"Feature","properties":{"osm_way_id":"458364354","name":"Lidl","building":"yes","shop":"supermarket","other":{"addr:city":"Ripley","addr:postcode":"DE5 3DL","addr:street":"Chapel Street","brand":"Lidl","brand:wikidata":"Q151954","brand:wikipedia":"en:Lidl","fhrs:id":"1494"}}, "geometry":{"type":"MultiPolygon","coordinates":[[[[-1.40523,53.05216],[-1.40568,53.05209],[-1.40573,53.0522],[-1.40582,53.05218],[-1.40598,53.05255],[-1.40543,53.05263],[-1.40523,53.05216]]]]}},
{ "type":"Feature","properties":{"osm_way_id":"504535944","name":"The Co-operative Food","building":"yes","shop":"supermarket","other":{"addr:postcode":"DE55 4HT","operator":"Central England Co-operative Society"}}, "geometry":{"type":"MultiPolygon","coordinates":[[[[-1.36751,53.07927],[-1.36735,53.07918],[-1.36744,53.07912],[-1.3676,53.07922],[-1.36751,53.07927]]]]}},
{ "type":"Feature","properties":{"osm_way_id":"664548861","name":"Aldi","shop":"supermarket","other":{"addr:postcode":"DE55 4JN","addr:street":"Nottingham Road","brand":"ALDI","brand:wikidata":"Q41171672","brand:wikipedia":"en:Aldi","fhrs:id":"1076655"}}, "geometry":{"type":"MultiPolygon","coordinates":[[[[-1.37505,53.0861],[-1.37521,53.08607],[-1.37554,53.086],[-1.37583,53.08593],[-1.37667,53.08577],[-1.37708,53.08658],[-1.37529,53.08675],[-1.37505,53.0861]]]]}},
{ "type":"Feature","properties":{"osm_way_id":"682307745","name":"The Co-operative Food","building":"yes","shop":"supermarket","other":{"addr:city":"Derby","addr:postcode":"DE22 4DT","addr:street":"Samuel Road","brand":"The Co-operative Food","brand:wikidata":"Q3277439","brand:wikipedia":"en:Co-op Food","fhrs:id":"1212105"}}, "geometry":{"type":"MultiPolygon","coordinates":[[[[-1.53823,52.92631],[-1.53795,52.92639],[-1.53781,52.92621],[-1.53809,52.92614],[-1.53823,52.92631]]]]}},
{ "type":"Feature","properties":{"osm_way_id":"780283057","name":"ALDI","building":"supermarket","shop":"supermarket","other":{"addr:city":"Belper","addr:housename":"Unit 2","addr:postcode":"DE56 1AR","addr:street":"Chapel Street","brand":"ALDI","brand:wikidata":"Q41171672","brand:wikipedia":"en:Aldi","fhrs:id":"939959"}}, "geometry":{"type":"MultiPolygon","coordinates":[[[[-1.4865,53.02164],[-1.48586,53.02173],[-1.48594,53.02198],[-1.48633,53.02193],[-1.48638,53.02207],[-1.48665,53.02204],[-1.4865,53.02164]]]]}},
{ "type":"Feature","properties":{"osm_way_id":"1017102260","building":"house","other":{"addr:city":"Ripley","addr:housenumber":"25","addr:postcode":"DE5 3TJ","addr:street":"Priory Way"}}, "geometry":{"type":"MultiPolygon","coordinates":[[[[-1.4011,53.04176],[-1.40107,53.04172],[-1.40095,53.04175],[-1.40098,53.04179],[-1.4011,53.04176]]]]}}
]
}
