{
"type": "FeatureCollection",
"features": [
{ "type":"Feature","properties":{"osm_id":"307448929","other":{"amenity":"parking"}}, "geometry":{"type":"Point","coordinates":[-3.89281,50.54045 ]}},
{ "type":"Feature","properties":{"osm_id":"324711496","other":{"amenity":"parking","parking":"surface","surface":"unpaved"}}, "geometry":{"type":"Point","coordinates":[-4.16554,50.60436 ]}},
{ "type":"Feature","properties":{"osm_id":"332583219","other":{"amenity":"parking"}}, "geometry":{"type":"Point","coordinates":[-3.99698,50.74237 ]}},
{ "type":"Feature","properties":{"osm_id":"442570266","other":{"amenity":"parking"}}, "geometry":{"type":"Point","coordinates":[-3.94901,50.77028 ]}},
{ "type":"Feature","properties":{"osm_id":"549220960","other":{"amenity":"parking"}}, "geometry":{"type":"Point","coordinates":[-4.20029,50.48544 ]}},
{ "type":"Feature","properties":{"osm_id":"549231900","other":{"amenity":"parking"}}, "geometry":{"type":"Point","coordinates":[-4.18886,50.4805 ]}},
{ "type":"Feature","properties":{"osm_id":"549829770","other":{"amenity":"parking"}}, "geometry":{"type":"Point","coordinates":[-4.18403,50.47983 ]}},
{ "type":"Feature","properties":{"osm_id":"603251173","other":{"amenity":"parking"}}, "geometry":{"type":"Point","coordinates":[-4.00013,50.73579 ]}},
{ "type":"Feature","properties":{"osm_id":"603286033","other":{"amenity":"parking"}}, "geometry":{"type":"Point","coordinates":[-3.99896,50.74986 ]}},
{ "type":"Feature","properties":{"osm_id":"603312894","other":{"amenity":"parking"}}, "geometry":{"type":"Point","coordinates":[-4.00844,50.73139 ]}},
{ "type":"Feature","properties":{"osm_id":"706787583","other":{"access":"customers","amenity":"parking","fee":"yes","lit":"no","opening_hours":"24\/7","parking":"surface","surface":"gravel"}}, "geometry":{"type":"Point","coordinates":[-3.89977,50.57859 ]}},
{ "type":"Feature","properties":{"osm_id":"746831856","other":{"amenity":"parking"}}, "geometry":{"type":"Point","coordinates":[-3.9054,50.53917 ]}},
{ "type":"Feature","properties":{"osm_id":"761819349","name":"for co-op shoppers","other":{"amenity":"parking"}}, "geometry":{"type":"Point","coordinates":[-4.07265,50.8202 ]}},
{ "type":"Feature","properties":{"osm_id":"851849349","name":"Wheal Josia","other":{"amenity":"parking"}}, "geometry":{"type":"Point","coordinates":[-4.22176,50.54041 ]}},
{ "type":"Feature","properties":{"osm_id":"991887862","other":{"access":"yes","amenity":"parking","fee":"yes","parking":"surface"}}, "geometry":{"type":"Point","coordinates":[-4.09083,50.49237 ]}},
{ "type":"Feature","properties":{"osm_id":"1008220854","other":{"amenity":"parking","fee":"no","parking":"surface"}}, "geometry":{"type":"Point","coordinates":[-4.25091,50.66774 ]}},
{ "type":"Feature","properties":{"osm_id":"1008220907","other":{"access":"yes","amenity":"parking","fee":"no","parking":"surface"}}, "geometry":{"type":"Point","coordinates":[-4.00965,50.72511 ]}},
{ "type":"Feature","properties":{"osm_id":"1008220947","other":{"amenity":"parking","fee":"no","parking":"surface"}}, "geometry":{"type":"Point","coordinates":[-4.11568,50.69891 ]}},
{ "type":"Feature","properties":{"osm_id":"1008221080","other":{"access":"yes","amenity":"parking","fee":"no","parking":"surface"}}, "geometry":{"type":"Point","coordinates":[-3.93156,50.74093 ]}},
{ "type":"Feature","properties":{"osm_id":"1008221087","other":{"access":"yes","amenity":"parking","fee":"no","parking":"surface"}}, "geometry":{"type":"Point","coordinates":[-4.2106,50.67902 ]}},
{ "type":"Feature","properties":{"osm_id":"1008221449","other":{"access":"yes","amenity":"parking","fee":"no","parking":"surface"}}, "geometry":{"type":"Point","coordinates":[-4.15685,50.6916 ]}},
{ "type":"Feature","properties":{"osm_id":"1008221603","other":{"access":"yes","amenity":"parking","fee":"no","parking":"surface"}}, "geometry":{"type":"Point","coordinates":[-4.29202,50.65343 ]}},
{ "type":"Feature","properties":{"osm_id":"1008221718","other":{"access":"yes","amenity":"parking","fee":"no","parking":"surface"}}, "geometry":{"type":"Point","coordinates":[-4.16618,50.68896 ]}},
{ "type":"Feature","properties":{"osm_id":"1008221904","other":{"amenity":"parking","fee":"no","parking":"surface"}}, "geometry":{"type":"Point","coordinates":[-3.92916,50.74136 ]}},
{ "type":"Feature","properties":{"osm_id":"1008222318","other":{"amenity":"parking","fee":"no","parking":"surface"}}, "geometry":{"type":"Point","coordinates":[-4.24926,50.66865 ]}},
{ "type":"Feature","properties":{"osm_id":"1008222397","other":{"access":"yes","amenity":"parking","fee":"no","parking":"surface"}}, "geometry":{"type":"Point","coordinates":[-4.1912,50.6859 ]}},
{ "type":"Feature","properties":{"osm_id":"1008222446","other":{"amenity":"parking","fee":"no","parking":"surface"}}, "geometry":{"type":"Point","coordinates":[-4.00438,50.72793 ]}},
{ "type":"Feature","properties":{"osm_id":"1008222453","other":{"amenity":"parking","fee":"no","parking":"surface"}}, "geometry":{"type":"Point","coordinates":[-4.29207,50.65385 ]}},
{ "type":"Feature","properties":{"osm_id":"1008222657","other":{"access":"yes","amenity":"parking","fee":"no","parking":"surface"}}, "geometry":{"type":"Point","coordinates":[-3.88536,50.73284 ]}},
{ "type":"Feature","properties":{"osm_id":"1008222772","other":{"amenity":"parking","fee":"no","parking":"surface"}}, "geometry":{"type":"Point","coordinates":[-3.8191,50.71678 ]}},
{ "type":"Feature","properties":{"osm_id":"1008222909","other":{"access":"yes","amenity":"parking","fee":"no","parking":"surface"}}, "geometry":{"type":"Point","coordinates":[-3.85626,50.72701 ]}},
{ "type":"Feature","properties":{"osm_id":"1008222926","other":{"access":"yes","amenity":"parking","fee":"no","parking":"surface"}}, "geometry":{"type":"Point","coordinates":[-3.77647,50.72452 ]}},
{ "type":"Feature","properties":{"osm_id":"1008222939","other":{"amenity":"parking","fee":"no","parking":"surface"}}, "geometry":{"type":"Point","coordinates":[-4.11747,50.69784 ]}},
{ "type":"Feature","properties":{"osm_id":"1008222994","other":{"access":"yes","amenity":"parking","fee":"no","parking":"surface"}}, "geometry":{"type":"Point","coordinates":[-3.87842,50.73093 ]}},
{ "type":"Feature","properties":{"osm_id":"1008223026","other":{"amenity":"parking","fee":"no","parking":"surface"}}, "geometry":{"type":"Point","coordinates":[-3.9756,50.73849 ]}},
{ "type":"Feature","properties":{"osm_id":"1335814682","name":"Chagford Swimming Pool","other":{"amenity":"parking","fee":"Free for swimmers, donation for non-swimmers."}}, "geometry":{"type":"Point","coordinates":[-3.8326,50.6808 ]}},
{ "type":"Feature","properties":{"osm_id":"1449880736","name":"Church Car Park","other":{"access":"private","amenity":"parking"}}, "geometry":{"type":"Point","coordinates":[-4.13058,50.4946 ]}},
{ "type":"Feature","properties":{"osm_id":"1449928740","other":{"natural":"tree"}}, "geometry":{"type":"Point","coordinates":[-4.13124,50.49345 ]}},
{ "type":"Feature","properties":{"osm_id":"1449928757","other":{"amenity":"parking"}}, "geometry":{"type":"Point","coordinates":[-4.13061,50.49353 ]}},
{ "type":"Feature","properties":{"osm_id":"1449928793","other":{"amenity":"grit_bin"}}, "geometry":{"type":"Point","coordinates":[-4.13048,50.49346 ]}},
{ "type":"Feature","properties":{"osm_id":"1507302950","other":{"amenity":"parking","capacity":"25"}}, "geometry":{"type":"Point","coordinates":[-3.92618,50.7301 ]}},
{ "type":"Feature","properties":{"osm_id":"1586378864","other":{"amenity":"parking"}}, "geometry":{"type":"Point","coordinates":[-4.02387,50.55691 ]}},
{ "type":"Feature","properties":{"osm_id":"1646866415","other":{"amenity":"parking"}}, "geometry":{"type":"Point","coordinates":[-4.02291,50.73055 ]}},
{ "type":"Feature","properties":{"osm_id":"1707024022","other":{"amenity":"parking"}}, "geometry":{"type":"Point","coordinates":[-3.91778,50.72429 ]}},
{ "type":"Feature","properties":{"osm_id":"1719546291","other":{"access":"customers","amenity":"parking","fee":"no","parking":"street_side"}}, "geometry":{"type":"Point","coordinates":[-3.78085,50.6962 ]}},
{ "type":"Feature","properties":{"osm_id":"1823252784","other":{"amenity":"parking"}}, "geometry":{"type":"Point","coordinates":[-3.92632,50.58184 ]}},
{ "type":"Feature","properties":{"osm_id":"1823323305","other":{"amenity":"parking"}}, "geometry":{"type":"Point","coordinates":[-3.97181,50.52163 ]}},
{ "type":"Feature","properties":{"osm_id":"1823323307","other":{"amenity":"parking"}}, "geometry":{"type":"Point","coordinates":[-3.97085,50.52024 ]}},
{ "type":"Feature","properties":{"osm_id":"1823323309","other":{"amenity":"parking"}}, "geometry":{"type":"Point","coordinates":[-3.96382,50.52056 ]}},
{ "type":"Feature","properties":{"osm_id":"1835312579","other":{"amenity":"parking"}}, "geometry":{"type":"Point","coordinates":[-3.90965,50.72111 ]}},
{ "type":"Feature","properties":{"osm_id":"1836185054","other":{"amenity":"parking"}}, "geometry":{"type":"Point","coordinates":[-3.88972,50.72187 ]}},
{ "type":"Feature","properties":{"osm_id":"1882969627","other":{"access":"permissive","amenity":"parking","capacity":"4","parking":"surface","surface":"gravel"}}, "geometry":{"type":"Point","coordinates":[-3.98291,50.70294 ]}},
{ "type":"Feature","properties":{"osm_id":"1882969628","other":{"access":"permissive","amenity":"parking","capacity":"6","parking":"surface","surface":"gravel"}}, "geometry":{"type":"Point","coordinates":[-3.98449,50.71048 ]}},
{ "type":"Feature","properties":{"osm_id":"1882969629","other":{"access":"permissive","amenity":"parking","capacity":"3","parking":"surface","surface":"gravel"}}, "geometry":{"type":"Point","coordinates":[-3.99248,50.7164 ]}},
{ "type":"Feature","properties":{"osm_id":"1929184752","other":{"amenity":"parking","parking":"street_side"}}, "geometry":{"type":"Point","coordinates":[-4.09445,50.48587 ]}},
{ "type":"Feature","properties":{"osm_id":"1929194405","other":{"amenity":"parking"}}, "geometry":{"type":"Point","coordinates":[-4.09547,50.46409 ]}},
{ "type":"Feature","properties":{"osm_id":"1929194406","other":{"amenity":"parking"}}, "geometry":{"type":"Point","coordinates":[-4.08874,50.46653 ]}},
{ "type":"Feature","properties":{"osm_id":"1929200698","other":{"amenity":"parking","parking":"street_side"}}, "geometry":{"type":"Point","coordinates":[-4.08988,50.49035 ]}},
{ "type":"Feature","properties":{"osm_id":"1929200703","other":{"access":"yes","amenity":"parking","fee":"no","parking":"surface"}}, "geometry":{"type":"Point","coordinates":[-4.10424,50.4964 ]}},
{ "type":"Feature","properties":{"osm_id":"1929200706","other":{"access":"yes","amenity":"parking","fee":"no","parking":"surface"}}, "geometry":{"type":"Point","coordinates":[-4.09197,50.49217 ]}},
{ "type":"Feature","properties":{"osm_id":"1929202780","other":{"amenity":"parking"}}, "geometry":{"type":"Point","coordinates":[-4.10679,50.50065 ]}},
{ "type":"Feature","properties":{"osm_id":"1929222196","other":{"access":"yes","amenity":"parking","fee":"no","parking":"surface"}}, "geometry":{"type":"Point","coordinates":[-4.01261,50.53484 ]}},
{ "type":"Feature","properties":{"osm_id":"1929222199","other":{"access":"yes","amenity":"parking","capacity":"20","fee":"no","parking":"surface"}}, "geometry":{"type":"Point","coordinates":[-4.03225,50.51976 ]}},
{ "type":"Feature","properties":{"osm_id":"1929222204","other":{"access":"yes","amenity":"parking","fee":"no","parking":"surface"}}, "geometry":{"type":"Point","coordinates":[-4.0371,50.51775 ]}},
{ "type":"Feature","properties":{"osm_id":"1931238978","other":{"amenity":"parking"}}, "geometry":{"type":"Point","coordinates":[-4.10379,50.46315 ]}},
{ "type":"Feature","properties":{"osm_id":"1931238979","other":{"amenity":"parking"}}, "geometry":{"type":"Point","coordinates":[-4.1063,50.46069 ]}},
{ "type":"Feature","properties":{"osm_id":"1931238980","other":{"amenity":"parking"}}, "geometry":{"type":"Point","coordinates":[-4.10219,50.46124 ]}},
{ "type":"Feature","properties":{"osm_id":"1935786116","other":{"amenity":"parking"}}, "geometry":{"type":"Point","coordinates":[-3.88615,50.53188 ]}},
{ "type":"Feature","properties":{"osm_id":"2080394859","other":{"amenity":"parking","capacity":"4"}}, "geometry":{"type":"Point","coordinates":[-3.8945,50.66322 ]}},
{ "type":"Feature","properties":{"osm_id":"2091201371","name":"Meldon Quarry Map","other":{"information":"map","map_size":"site","tourism":"information"}}, "geometry":{"type":"Point","coordinates":[-4.03028,50.71116 ]}},
{ "type":"Feature","properties":{"osm_id":"2098802635","name":"Roadside","other":{"access":"yes","amenity":"parking","fee":"no","parking":"lane"}}, "geometry":{"type":"Point","coordinates":[-4.0447,50.49424 ]}},
{ "type":"Feature","properties":{"osm_id":"2129598068","other":{"amenity":"parking"}}, "geometry":{"type":"Point","coordinates":[-4.00142,50.76077 ]}},
{ "type":"Feature","properties":{"osm_id":"2248120467","other":{"amenity":"parking","capacity":"5"}}, "geometry":{"type":"Point","coordinates":[-3.93031,50.55752 ]}},
{ "type":"Feature","properties":{"osm_id":"2357855251","other":{"amenity":"parking","capacity":"18"}}, "geometry":{"type":"Point","coordinates":[-3.93726,50.72837 ]}},
{ "type":"Feature","properties":{"osm_id":"2365851903","other":{"ford":"yes"}}, "geometry":{"type":"Point","coordinates":[-4.00458,50.48842 ]}},
{ "type":"Feature","properties":{"osm_id":"2428447110","other":{"amenity":"parking","capacity":"5"}}, "geometry":{"type":"Point","coordinates":[-3.96124,50.72306 ]}},
{ "type":"Feature","properties":{"osm_id":"2549266075","other":{"amenity":"parking","capacity":"5"}}, "geometry":{"type":"Point","coordinates":[-4.10414,50.61934 ]}},
{ "type":"Feature","properties":{"osm_id":"2549274808","other":{"amenity":"parking","capacity":"5"}}, "geometry":{"type":"Point","coordinates":[-4.1076,50.61509 ]}},
{ "type":"Feature","properties":{"osm_id":"2591467248","other":{"access":"yes","amenity":"parking","capacity":"30","fee":"no","parking":"surface"}}, "geometry":{"type":"Point","coordinates":[-4.01966,50.50627 ]}},
{ "type":"Feature","properties":{"osm_id":"2591467251","other":{"access":"yes","amenity":"parking","capacity":"7","fee":"no","parking":"street_side"}}, "geometry":{"type":"Point","coordinates":[-4.02083,50.50672 ]}},
{ "type":"Feature","properties":{"osm_id":"2619079732","other":{"amenity":"parking"}}, "geometry":{"type":"Point","coordinates":[-4.11553,50.50427 ]}},
{ "type":"Feature","properties":{"osm_id":"2637162369","other":{"amenity":"parking","capacity":"10"}}, "geometry":{"type":"Point","coordinates":[-4.14589,50.51772 ]}},
{ "type":"Feature","properties":{"osm_id":"2637162374","other":{"amenity":"parking","capacity":"2"}}, "geometry":{"type":"Point","coordinates":[-4.14082,50.51817 ]}},
{ "type":"Feature","properties":{"osm_id":"2637169034","other":{"amenity":"parking","capacity":"80"}}, "geometry":{"type":"Point","coordinates":[-4.13525,50.53057 ]}},
{ "type":"Feature","properties":{"osm_id":"2637214674","other":{"amenity":"parking","capacity":"15"}}, "geometry":{"type":"Point","coordinates":[-4.12033,50.5053 ]}},
{ "type":"Feature","properties":{"osm_id":"2637219391","other":{"access":"yes","amenity":"parking","fee":"no","parking":"surface"}}, "geometry":{"type":"Point","coordinates":[-4.10322,50.49591 ]}},
{ "type":"Feature","properties":{"osm_id":"2714803725","man_made":"antenna"},"geometry":{"type":"Point","coordinates":[-3.99042,50.57076 ]}},
{ "type":"Feature","properties":{"osm_id":"2722302939","other":{"amenity":"parking","capacity":"15"}}, "geometry":{"type":"Point","coordinates":[-4.03812,50.47343 ]}},
{ "type":"Feature","properties":{"osm_id":"2723994031","other":{"amenity":"parking","capacity":"2"}}, "geometry":{"type":"Point","coordinates":[-4.02281,50.49251 ]}},
{ "type":"Feature","properties":{"osm_id":"2785278215","other":{"amenity":"parking","capacity":"15"}}, "geometry":{"type":"Point","coordinates":[-3.981,50.7359 ]}},
{ "type":"Feature","properties":{"osm_id":"2788358590","other":{"amenity":"parking"}}, "geometry":{"type":"Point","coordinates":[-4.13155,50.51868 ]}},
{ "type":"Feature","properties":{"osm_id":"2788417048","other":{"amenity":"parking"}}, "geometry":{"type":"Point","coordinates":[-4.11681,50.50453 ]}},
{ "type":"Feature","properties":{"osm_id":"2821203486","other":{"amenity":"parking","capacity":"4"}}, "geometry":{"type":"Point","coordinates":[-3.84548,50.67098 ]}},
{ "type":"Feature","properties":{"osm_id":"2868637455","other":{"amenity":"parking","capacity":"20"}}, "geometry":{"type":"Point","coordinates":[-4.067,50.85229 ]}},
{ "type":"Feature","properties":{"osm_id":"2901738276","other":{"amenity":"parking"}}, "geometry":{"type":"Point","coordinates":[-3.95648,50.72475 ]}},
{ "type":"Feature","properties":{"osm_id":"3084709478","name":"The Burrator Inn","other":{"access":"customers","amenity":"parking","parking":"surface"}}, "geometry":{"type":"Point","coordinates":[-4.06451,50.50128 ]}},
{ "type":"Feature","properties":{"osm_id":"3158578873","name":"Brimpts FC","other":{"amenity":"parking","capacity":"5"}}, "geometry":{"type":"Point","coordinates":[-3.88515,50.54542 ]}},
{ "type":"Feature","properties":{"osm_id":"3158585368","other":{"amenity":"parking","capacity":"5"}}, "geometry":{"type":"Point","coordinates":[-3.8883,50.54179 ]}},
{ "type":"Feature","properties":{"osm_id":"3158587446","other":{"amenity":"parking","capacity":"10"}}, "geometry":{"type":"Point","coordinates":[-3.89925,50.53809 ]}},
{ "type":"Feature","properties":{"osm_id":"3594214635","other":{"access":"yes","amenity":"parking","capacity":"8","fee":"no","parking":"street_side"}}, "geometry":{"type":"Point","coordinates":[-3.89362,50.54046 ]}},
{ "type":"Feature","properties":{"osm_id":"3594214636","other":{"amenity":"parking","capacity":"3"}}, "geometry":{"type":"Point","coordinates":[-3.89109,50.54084 ]}},
{ "type":"Feature","properties":{"osm_id":"3812304782","other":{"amenity":"parking","capacity":"3"}}, "geometry":{"type":"Point","coordinates":[-3.94549,50.56746 ]}},
{ "type":"Feature","properties":{"osm_id":"3812308784","other":{"amenity":"parking","capacity":"2"}}, "geometry":{"type":"Point","coordinates":[-3.93946,50.55577 ]}},
{ "type":"Feature","properties":{"osm_id":"4059571317","other":{"amenity":"parking","capacity":"5","fee":"no","park_ride":"no","parking":"surface","supervised":"no","surface":"gravel"}}, "geometry":{"type":"Point","coordinates":[-3.99705,50.70401 ]}},
{ "type":"Feature","properties":{"osm_id":"4081245061","name":"Prison View Car Park","other":{"access":"yes","amenity":"parking","capacity":"15","parking":"surface"}}, "geometry":{"type":"Point","coordinates":[-3.98722,50.54785 ]}},
{ "type":"Feature","properties":{"osm_id":"4195712993","other":{"amenity":"parking"}}, "geometry":{"type":"Point","coordinates":[-3.94605,50.76376 ]}},
{ "type":"Feature","properties":{"osm_id":"4195727705","other":{"amenity":"parking"}}, "geometry":{"type":"Point","coordinates":[-3.93613,50.77658 ]}},
{ "type":"Feature","properties":{"osm_id":"4195743107","other":{"amenity":"parking"}}, "geometry":{"type":"Point","coordinates":[-3.89997,50.69557 ]}},
{ "type":"Feature","properties":{"osm_id":"4195743109","other":{"amenity":"parking"}}, "geometry":{"type":"Point","coordinates":[-3.89961,50.70332 ]}},
{ "type":"Feature","properties":{"osm_id":"4213730677","other":{"access":"yes","amenity":"parking","capacity":"4","fee":"no","parking":"surface"}}, "geometry":{"type":"Point","coordinates":[-4.00443,50.53841 ]}},
{ "type":"Feature","properties":{"osm_id":"4213734120","other":{"access":"yes","amenity":"parking","capacity":"4","fee":"no","parking":"surface"}}, "geometry":{"type":"Point","coordinates":[-4.01819,50.52926 ]}},
{ "type":"Feature","properties":{"osm_id":"4213734121","other":{"access":"yes","amenity":"parking","capacity":"3","fee":"no","parking":"surface"}}, "geometry":{"type":"Point","coordinates":[-4.02465,50.52204 ]}},
{ "type":"Feature","properties":{"osm_id":"4213734122","other":{"access":"yes","amenity":"parking","fee":"no","parking":"surface"}}, "geometry":{"type":"Point","coordinates":[-4.02259,50.52473 ]}},
{ "type":"Feature","properties":{"osm_id":"4213734123","other":{"amenity":"parking"}}, "geometry":{"type":"Point","coordinates":[-4.04262,50.51341 ]}},
{ "type":"Feature","properties":{"osm_id":"4213734124","other":{"access":"yes","amenity":"parking","capacity":"17","fee":"no","parking":"surface"}}, "geometry":{"type":"Point","coordinates":[-4.03104,50.51991 ]}},
{ "type":"Feature","properties":{"osm_id":"4213734126","other":{"access":"yes","amenity":"parking","fee":"no","parking":"surface"}}, "geometry":{"type":"Point","coordinates":[-4.04108,50.51509 ]}},
{ "type":"Feature","properties":{"osm_id":"4213743903","other":{"amenity":"parking","capacity":"80"}}, "geometry":{"type":"Point","coordinates":[-4.0649,50.51274 ]}},
{ "type":"Feature","properties":{"osm_id":"4213759720","other":{"amenity":"parking"}}, "geometry":{"type":"Point","coordinates":[-4.09573,50.5292 ]}},
{ "type":"Feature","properties":{"osm_id":"4213759749","other":{"amenity":"parking"}}, "geometry":{"type":"Point","coordinates":[-4.07521,50.51005 ]}},
{ "type":"Feature","properties":{"osm_id":"4213769064","other":{"amenity":"parking"}}, "geometry":{"type":"Point","coordinates":[-4.02251,50.55714 ]}},
{ "type":"Feature","properties":{"osm_id":"4577479888","other":{"amenity":"parking","capacity":"3","capacity:disabled":"1","park_ride":"no","parking":"lane","supervised":"no"}}, "geometry":{"type":"Point","coordinates":[-4.09227,50.66483 ]}},
{ "type":"Feature","properties":{"osm_id":"4577502951","other":{"amenity":"parking","capacity":"2","park_ride":"no","parking":"lane","supervised":"no"}}, "geometry":{"type":"Point","coordinates":[-4.09044,50.66359 ]}},
{ "type":"Feature","properties":{"osm_id":"4622440630","other":{"amenity":"parking","parking":"layby"}}, "geometry":{"type":"Point","coordinates":[-4.23951,50.65083 ]}},
{ "type":"Feature","properties":{"osm_id":"4895178681","other":{"amenity":"parking","capacity":"2"}}, "geometry":{"type":"Point","coordinates":[-3.97222,50.554 ]}},
{ "type":"Feature","properties":{"osm_id":"5240155697","other":{"access":"permissive","amenity":"parking","capacity":"8","parking":"surface","surface":"gravel"}}, "geometry":{"type":"Point","coordinates":[-3.98374,50.71052 ]}},
{ "type":"Feature","properties":{"osm_id":"6402177485","name":"Burrator - Norsworthy","other":{"access":"yes","amenity":"parking","fee":"no","parking":"surface"}}, "geometry":{"type":"Point","coordinates":[-4.01979,50.50609 ]}},
{ "type":"Feature","properties":{"osm_id":"6682248998","other":{"access":"customers","amenity":"parking","fee":"no"}}, "geometry":{"type":"Point","coordinates":[-3.97186,50.74084 ]}},
{ "type":"Feature","properties":{"osm_id":"7567234526","other":{"access":"yes","amenity":"parking","fee":"no","parking":"surface"}}, "geometry":{"type":"Point","coordinates":[-4.03668,50.51806 ]}},
{ "type":"Feature","properties":{"osm_id":"7777499260","other":{"amenity":"parking","parking":"layby"}}, "geometry":{"type":"Point","coordinates":[-4.08878,50.65957 ]}},
{ "type":"Feature","properties":{"osm_id":"8231167387","other":{"amenity":"parking"}}, "geometry":{"type":"Point","coordinates":[-4.11181,50.51311 ]}},
{ "type":"Feature","properties":{"osm_id":"8243476719","other":{"addr:housename":"Scrubtor Car Park","amenity":"parking","capacity":"10","fee":"no","operator":"Scrubtor Car Park","parking":"surface","surface":"unpaved"}}, "geometry":{"type":"Point","coordinates":[-4.2391,50.54759 ]}},
{ "type":"Feature","properties":{"osm_id":"8243633889","other":{"addr:housename":"Madacleave Car Park","amenity":"parking"}}, "geometry":{"type":"Point","coordinates":[-4.17517,50.50637 ]}},
{ "type":"Feature","properties":{"osm_id":"8319484505","other":{"amenity":"parking","capacity":"6"}}, "geometry":{"type":"Point","coordinates":[-4.11741,50.62725 ]}},
{ "type":"Feature","properties":{"osm_id":"8626857634","name":"Peter Tavy Inn Car Park","other":{"amenity":"parking"}}, "geometry":{"type":"Point","coordinates":[-4.10318,50.58068 ]}},
{ "type":"Feature","properties":{"osm_id":"8703194157","other":{"amenity":"parking"}}, "geometry":{"type":"Point","coordinates":[-3.89905,50.53783 ]}},
{ "type":"Feature","properties":{"osm_id":"9392805221","other":{"amenity":"parking","parking":"layby"}}, "geometry":{"type":"Point","coordinates":[-3.9073,50.8246 ]}},
{ "type":"Feature","properties":{"osm_way_id":"26491187","name":"Bedford","amenity":"parking","other":{"access":"yes","fee":"yes","parking":"surface","surface":"asphalt"}}, "geometry":{"type":"MultiPolygon","coordinates":[[[[-4.14524,50.54825],[-4.14499,50.54799],[-4.14565,50.54745],[-4.14601,50.54727],[-4.1461,50.5473],[-4.14616,50.54735],[-4.14621,50.5474],[-4.14624,50.54743],[-4.14629,50.54748],[-4.14633,50.54753],[-4.14651,50.54768],[-4.14524,50.54825]]]]}},
{ "type":"Feature","properties":{"osm_way_id":"29501331","amenity":"parking","other":{"access":"yes","fee":"Â£1 (Voluntary)","maxstay":"Not overnight","parking":"surface"}}, "geometry":{"type":"MultiPolygon","coordinates":[[[[-4.03868,50.70745],[-4.03757,50.70787],[-4.03838,50.70846],[-4.03934,50.70792],[-4.0391,50.70782],[-4.03874,50.70753],[-4.03868,50.70745]]]]}},
{ "type":"Feature","properties":{"osm_way_id":"30183413","amenity":"parking","other":{"access":"yes","fee":"yes","parking":"surface"}}, "geometry":{"type":"MultiPolygon","coordinates":[[[[-4.00394,50.74102],[-4.00354,50.74045],[-4.00314,50.74059],[-4.00301,50.74063],[-4.00285,50.74051],[-4.00262,50.74053],[-4.00258,50.74111],[-4.00303,50.74105],[-4.00323,50.74157],[-4.00359,50.74129],[-4.00354,50.7412],[-4.00367,50.74114],[-4.00394,50.74123],[-4.00345,50.74172],[-4.00362,50.74179],[-4.00427,50.74116],[-4.00427,50.74108],[-4.00402,50.74118],[-4.00383,50.74109],[-4.00394,50.74102]]]]}},
{ "type":"Feature","properties":{"osm_way_id":"40502797","amenity":"parking","other":{"fee":"Pay & Display","parking":"surface"}}, "geometry":{"type":"MultiPolygon","coordinates":[[[[-3.83857,50.67217],[-3.83918,50.67172],[-3.83926,50.67167],[-3.83896,50.67147],[-3.83827,50.67199],[-3.83824,50.672],[-3.83857,50.67217]]]]}},
{ "type":"Feature","properties":{"osm_way_id":"41602973","amenity":"parking","other":{"parking":"surface"}}, "geometry":{"type":"MultiPolygon","coordinates":[[[[-3.91122,50.72479],[-3.91132,50.7247],[-3.91161,50.7248],[-3.91157,50.72498],[-3.91137,50.72507],[-3.91111,50.72493],[-3.91122,50.72479]]]]}},
{ "type":"Feature","properties":{"osm_way_id":"44066048","name":"Gutter Tor Car Park","amenity":"parking","other":{"access":"yes","capacity":"15","fee":"no","parking":"surface"}}, "geometry":{"type":"MultiPolygon","coordinates":[[[[-4.00481,50.48825],[-4.00455,50.48823],[-4.00446,50.48833],[-4.00458,50.48842],[-4.00456,50.48844],[-4.00504,50.48837],[-4.00503,50.48831],[-4.00502,50.4882],[-4.00481,50.48825]]]]}},
{ "type":"Feature","properties":{"osm_way_id":"47041856","amenity":"parking","other":{"capacity:disabled":"2","fee":"no","parking":"surface"}}, "geometry":{"type":"MultiPolygon","coordinates":[[[[-3.89874,50.79936],[-3.89866,50.79928],[-3.89873,50.79925],[-3.89868,50.79919],[-3.89847,50.79926],[-3.8985,50.79928],[-3.89817,50.79941],[-3.89805,50.79947],[-3.89814,50.79952],[-3.8983,50.79948],[-3.89833,50.79951],[-3.89874,50.79936]]]]}},
{ "type":"Feature","properties":{"osm_way_id":"47388008","amenity":"parking","other":{"access":"yes","fee":"yes","parking":"surface"}}, "geometry":{"type":"MultiPolygon","coordinates":[[[[-3.99973,50.7388],[-3.99943,50.73838],[-3.99941,50.73834],[-3.99934,50.73816],[-3.9993,50.7377],[-3.9993,50.73766],[-3.99943,50.73766],[-3.99948,50.7378],[-3.99963,50.73777],[-3.9997,50.73793],[-3.99983,50.73829],[-3.9997,50.73837],[-3.99985,50.73858],[-3.99989,50.73878],[-3.99973,50.7388]]]]}},
{ "type":"Feature","properties":{"osm_way_id":"47391358","amenity":"parking"},"geometry":{"type":"MultiPolygon","coordinates":[[[[-3.99539,50.74619],[-3.99582,50.74577],[-3.99507,50.74552],[-3.99464,50.74595],[-3.99539,50.74619]]]]}},
{ "type":"Feature","properties":{"osm_way_id":"47397622","amenity":"parking"},"geometry":{"type":"MultiPolygon","coordinates":[[[[-4.01184,50.73808],[-4.01166,50.7378],[-4.01189,50.73763],[-4.01206,50.73778],[-4.01215,50.73785],[-4.01184,50.73808]]]]}},
{ "type":"Feature","properties":{"osm_way_id":"49857238","amenity":"parking","other":{"access":"yes","fee":"yes"}}, "geometry":{"type":"MultiPolygon","coordinates":[[[[-3.88325,50.63965],[-3.8832,50.63963],[-3.88282,50.63938],[-3.88275,50.63933],[-3.88274,50.63925],[-3.88282,50.63922],[-3.88292,50.63922],[-3.88311,50.63929],[-3.88325,50.63929],[-3.88348,50.63927],[-3.88362,50.6393],[-3.88366,50.63936],[-3.88368,50.63938],[-3.88372,50.6394],[-3.88366,50.63944],[-3.88347,50.63957],[-3.88325,50.63965]]]]}},
{ "type":"Feature","properties":{"osm_way_id":"51577497","amenity":"parking","other":{"fee":"no","parking":"surface"}}, "geometry":{"type":"MultiPolygon","coordinates":[[[[-3.96489,50.55869],[-3.96488,50.55871],[-3.96477,50.55871],[-3.96469,50.5587],[-3.96466,50.55867],[-3.96461,50.55862],[-3.96462,50.55859],[-3.96463,50.55855],[-3.96489,50.55858],[-3.96488,50.55864],[-3.96489,50.55869]]]]}},
{ "type":"Feature","properties":{"osm_way_id":"61893535","name":"Cranmere Pool","natural":"water","other":{"water":"pond"}}, "geometry":{"type":"MultiPolygon","coordinates":[[[[-3.97753,50.65545],[-3.97742,50.65544],[-3.97733,50.65541],[-3.9773,50.65537],[-3.9773,50.65533],[-3.97732,50.65528],[-3.97738,50.65526],[-3.97745,50.6553],[-3.97748,50.65537],[-3.97749,50.65542],[-3.97753,50.65545]]]]}},
{ "type":"Feature","properties":{"osm_way_id":"70014815","amenity":"parking","other":{"access":"yes","fee":"no","parking":"surface"}}, "geometry":{"type":"MultiPolygon","coordinates":[[[[-4.02011,50.50266],[-4.02021,50.50287],[-4.01986,50.50293],[-4.01952,50.50298],[-4.01955,50.50288],[-4.01955,50.50272],[-4.0195,50.50264],[-4.01958,50.50262],[-4.01977,50.50259],[-4.01997,50.50257],[-4.02006,50.5026],[-4.02011,50.50266]]]]}},
{ "type":"Feature","properties":{"osm_way_id":"122232829","amenity":"parking","other":{"access":"permissive","parking":"surface"}}, "geometry":{"type":"MultiPolygon","coordinates":[[[[-1.85135,50.82018],[-1.85066,50.81977],[-1.85076,50.81969],[-1.8508,50.81966],[-1.85149,50.82009],[-1.85135,50.82018]]]]}},
{ "type":"Feature","properties":{"osm_way_id":"122896744","amenity":"parking"},"geometry":{"type":"MultiPolygon","coordinates":[[[[-3.80731,50.69813],[-3.80755,50.69814],[-3.80792,50.69817],[-3.80931,50.69809],[-3.80924,50.6978],[-3.80816,50.69794],[-3.80813,50.69803],[-3.8079,50.69803],[-3.80775,50.69799],[-3.8075,50.69795],[-3.80706,50.69792],[-3.80664,50.69791],[-3.80659,50.69772],[-3.80615,50.69768],[-3.80598,50.69762],[-3.80585,50.69764],[-3.80575,50.69799],[-3.80581,50.698],[-3.80598,50.69802],[-3.80617,50.69804],[-3.80657,50.69806],[-3.80731,50.69813]]]]}},
{ "type":"Feature","properties":{"osm_way_id":"128734799","name":"Foggintor School Ruin \/ Four Winds","amenity":"parking","other":{"fee":"no","parking":"surface"}}, "geometry":{"type":"MultiPolygon","coordinates":[[[[-4.03364,50.5561],[-4.03311,50.55619],[-4.03304,50.55598],[-4.03351,50.55592],[-4.03364,50.5561]]]]}},
{ "type":"Feature","properties":{"osm_way_id":"131787150","name":"Buckland Abbey","amenity":"parking","other":{"access":"customers","fee":"no","operator":"National Trust","parking":"surface"}}, "geometry":{"type":"MultiPolygon","coordinates":[[[[-4.13023,50.48101],[-4.12984,50.48088],[-4.12936,50.48068],[-4.12921,50.48089],[-4.12954,50.48103],[-4.12972,50.4811],[-4.12999,50.48118],[-4.13012,50.48121],[-4.13023,50.48101]]]]}},
{ "type":"Feature","properties":{"osm_way_id":"132418267","name":"Abbey","amenity":"parking","other":{"access":"yes","fee":"yes","parking":"surface","surface":"asphalt"}}, "geometry":{"type":"MultiPolygon","coordinates":[[[[-4.14322,50.54793],[-4.14341,50.54797],[-4.14333,50.54818],[-4.14324,50.54845],[-4.14319,50.54851],[-4.14299,50.54846],[-4.14289,50.54828],[-4.14295,50.54817],[-4.1431,50.54799],[-4.14322,50.54793]]]]}},
{ "type":"Feature","properties":{"osm_way_id":"134952272","name":"Russell Street","amenity":"parking","other":{"access":"yes","fee":"yes","parking":"surface","surface":"asphalt"}}, "geometry":{"type":"MultiPolygon","coordinates":[[[[-4.14716,50.5489],[-4.14697,50.54873],[-4.14664,50.54889],[-4.14671,50.54906],[-4.14716,50.5489]]]]}},
{ "type":"Feature","properties":{"osm_way_id":"137428761","amenity":"parking","other":{"access":"customers","operator":"The Garden House","parking":"surface"}}, "geometry":{"type":"MultiPolygon","coordinates":[[[[-4.12171,50.49409],[-4.12162,50.49437],[-4.12124,50.4945],[-4.12101,50.49396],[-4.12116,50.49391],[-4.1212,50.4939],[-4.12171,50.49409]]]]}},
{ "type":"Feature","properties":{"osm_way_id":"160054214","amenity":"parking"},"geometry":{"type":"MultiPolygon","coordinates":[[[[-3.9403,50.79201],[-3.94022,50.79179],[-3.94057,50.79175],[-3.94063,50.79186],[-3.94067,50.79196],[-3.9403,50.79201]]]]}},
{ "type":"Feature","properties":{"osm_way_id":"168611024","amenity":"parking"},"geometry":{"type":"MultiPolygon","coordinates":[[[[-4.09585,50.60049],[-4.09595,50.60038],[-4.09629,50.60053],[-4.09637,50.60062],[-4.09646,50.60067],[-4.09637,50.6007],[-4.09634,50.60071],[-4.09616,50.60063],[-4.09597,50.60053],[-4.09585,50.60049]]]]}},
{ "type":"Feature","properties":{"osm_way_id":"170746746","amenity":"parking","other":{"access":"customers","operator":"Plume of Feathers"}}, "geometry":{"type":"MultiPolygon","coordinates":[[[[-3.9904,50.543],[-3.98992,50.54316],[-3.98997,50.54325],[-3.99002,50.54332],[-3.99015,50.54327],[-3.99036,50.54353],[-3.9903,50.54356],[-3.99035,50.54362],[-3.99041,50.54367],[-3.99048,50.54364],[-3.99063,50.54376],[-3.99071,50.54371],[-3.99086,50.54363],[-3.99075,50.54347],[-3.9904,50.543]]]]}},
{ "type":"Feature","properties":{"osm_way_id":"170746964","amenity":"parking","other":{"fee":"yes"}}, "geometry":{"type":"MultiPolygon","coordinates":[[[[-3.9919,50.54405],[-3.99191,50.54406],[-3.99203,50.54416],[-3.99206,50.54418],[-3.99216,50.54422],[-3.99226,50.54426],[-3.99247,50.54415],[-3.99255,50.54411],[-3.99264,50.54408],[-3.99276,50.54429],[-3.99313,50.54418],[-3.993,50.54395],[-3.99286,50.54385],[-3.99264,50.54368],[-3.99249,50.54375],[-3.9923,50.54385],[-3.99196,50.54404],[-3.9919,50.54405]]]]}},
{ "type":"Feature","properties":{"osm_way_id":"178117775","amenity":"parking","other":{"fee":"no","parking":"surface","surface":"asphalt"}}, "geometry":{"type":"MultiPolygon","coordinates":[[[[-3.79188,50.70351],[-3.79135,50.70353],[-3.79133,50.70342],[-3.79144,50.70342],[-3.79144,50.70337],[-3.79175,50.70335],[-3.79179,50.70345],[-3.79188,50.70351]]]]}},
{ "type":"Feature","properties":{"osm_way_id":"180213730","name":"Pork Hill Car Park","amenity":"parking","other":{"fee":"no","parking":"surface","surface":"gravel"}}, "geometry":{"type":"MultiPolygon","coordinates":[[[[-4.07656,50.55744],[-4.0765,50.5574],[-4.07636,50.55738],[-4.07621,50.55733],[-4.07612,50.55732],[-4.07528,50.55733],[-4.07501,50.55733],[-4.07485,50.55733],[-4.07482,50.55739],[-4.07483,50.55761],[-4.0749,50.55762],[-4.07527,50.55762],[-4.0756,50.55762],[-4.07584,50.5576],[-4.07602,50.55758],[-4.07611,50.55757],[-4.07652,50.55753],[-4.07656,50.55744]]]]}},
{ "type":"Feature","properties":{"osm_way_id":"183473459","amenity":"parking","other":{"access":"customers","parking":"surface"}}, "geometry":{"type":"MultiPolygon","coordinates":[[[[-4.29853,50.64553],[-4.29871,50.64553],[-4.29871,50.64536],[-4.29784,50.64533],[-4.29749,50.64533],[-4.29678,50.64532],[-4.29677,50.64586],[-4.29723,50.64587],[-4.29724,50.64553],[-4.29735,50.64552],[-4.29735,50.6455],[-4.29743,50.64543],[-4.29768,50.64543],[-4.2978,50.64548],[-4.29808,50.64549],[-4.2981,50.64552],[-4.29853,50.64553]]]]}},
{ "type":"Feature","properties":{"osm_way_id":"187687090","amenity":"parking","other":{"fee":"yes"}}, "geometry":{"type":"MultiPolygon","coordinates":[[[[-4.07394,50.82071],[-4.07353,50.82089],[-4.07331,50.82074],[-4.0732,50.82065],[-4.07309,50.82049],[-4.07323,50.82043],[-4.07333,50.82034],[-4.07339,50.82034],[-4.07345,50.82036],[-4.07361,50.82043],[-4.0737,50.82049],[-4.07381,50.82057],[-4.07394,50.82071]]]]}},
{ "type":"Feature","properties":{"osm_way_id":"189408265","amenity":"parking","other":{"parking":"surface"}}, "geometry":{"type":"MultiPolygon","coordinates":[[[[-4.22546,50.69257],[-4.22555,50.69259],[-4.22601,50.69272],[-4.22599,50.69279],[-4.22584,50.6928],[-4.22545,50.6927],[-4.22539,50.69255],[-4.22546,50.69257]]]]}},
{ "type":"Feature","properties":{"osm_way_id":"199056844","amenity":"parking","other":{"access":"customers","fee":"no","park_ride":"no","parking":"surface","supervised":"no","surface":"asphalt"}}, "geometry":{"type":"MultiPolygon","coordinates":[[[[-4.01065,50.72703],[-4.01083,50.72697],[-4.01091,50.72688],[-4.01096,50.72687],[-4.01097,50.72685],[-4.01098,50.72683],[-4.01088,50.72674],[-4.01083,50.72674],[-4.01084,50.72676],[-4.01077,50.72677],[-4.01077,50.72679],[-4.01067,50.72681],[-4.01067,50.72682],[-4.01062,50.72683],[-4.01061,50.72681],[-4.0106,50.72682],[-4.01058,50.72677],[-4.01057,50.72677],[-4.01055,50.72674],[-4.01049,50.72675],[-4.01019,50.72678],[-4.00984,50.72693],[-4.00984,50.72696],[-4.01006,50.72716],[-4.01017,50.72715],[-4.01047,50.72707],[-4.01065,50.72703]]]]}},
{ "type":"Feature","properties":{"osm_way_id":"199072727","amenity":"parking"},"geometry":{"type":"MultiPolygon","coordinates":[[[[-3.9976,50.7324],[-3.99736,50.73241],[-3.9969,50.73249],[-3.99642,50.73259],[-3.99627,50.7326],[-3.99632,50.73262],[-3.99683,50.73254],[-3.99718,50.73249],[-3.99757,50.73245],[-3.9976,50.7324]]]]}},
{ "type":"Feature","properties":{"osm_way_id":"199072730","amenity":"parking"},"geometry":{"type":"MultiPolygon","coordinates":[[[[-3.99426,50.73273],[-3.99425,50.73271],[-3.99404,50.73273],[-3.99403,50.73266],[-3.99422,50.73264],[-3.99423,50.73261],[-3.99525,50.73253],[-3.99574,50.73248],[-3.99576,50.73247],[-3.99575,50.73252],[-3.99572,50.73252],[-3.99559,50.73258],[-3.99558,50.73264],[-3.99558,50.73265],[-3.99526,50.73263],[-3.99505,50.73263],[-3.99426,50.73273]]]]}},
{ "type":"Feature","properties":{"osm_way_id":"199087135","amenity":"parking"},"geometry":{"type":"MultiPolygon","coordinates":[[[[-4.03056,50.7114],[-4.03056,50.71131],[-4.03056,50.71122],[-4.03048,50.71122],[-4.03046,50.71117],[-4.0305,50.71109],[-4.03055,50.71095],[-4.03038,50.71092],[-4.03034,50.711],[-4.0303,50.71108],[-4.03028,50.71113],[-4.03028,50.71116],[-4.03027,50.71121],[-4.03026,50.71124],[-4.03033,50.71138],[-4.03042,50.71142],[-4.03052,50.71144],[-4.03056,50.7114]]]]}},
{ "type":"Feature","properties":{"osm_way_id":"199895788","amenity":"parking","other":{"access":"yes","capacity":"30","fee":"no","parking":"surface"}}, "geometry":{"type":"MultiPolygon","coordinates":[[[[-4.04617,50.49083],[-4.04596,50.49091],[-4.04631,50.49121],[-4.0465,50.49114],[-4.0466,50.49093],[-4.04648,50.4908],[-4.04624,50.49089],[-4.04617,50.49083]]]]}},
{ "type":"Feature","properties":{"osm_way_id":"215020597","amenity":"parking","other":{"access":"customers","capacity":"25","fee":"no","operator":"Fox & Hounds Hotel","park_ride":"no","parking":"surface","supervised":"no","surface":"fine_gravel"}}, "geometry":{"type":"MultiPolygon","coordinates":[[[[-4.08792,50.66116],[-4.08779,50.66139],[-4.08743,50.66126],[-4.08761,50.66105],[-4.08792,50.66116]]]]}},
{ "type":"Feature","properties":{"osm_way_id":"223210866","amenity":"parking","other":{"parking":"surface"}}, "geometry":{"type":"MultiPolygon","coordinates":[[[[-3.99769,50.5492],[-3.9978,50.54939],[-3.99801,50.54933],[-3.99796,50.54926],[-3.99805,50.54924],[-3.99795,50.54912],[-3.99769,50.5492]]]]}},
{ "type":"Feature","properties":{"osm_way_id":"223210867","amenity":"parking","other":{"parking":"surface"}}, "geometry":{"type":"MultiPolygon","coordinates":[[[[-3.99834,50.5494],[-3.99821,50.54944],[-3.99801,50.54918],[-3.99812,50.54915],[-3.99834,50.5494]]]]}},
{ "type":"Feature","properties":{"osm_way_id":"227042022","amenity":"parking","other":{"capacity":"27","fee":"no","parking":"surface","supervised":"no","surface":"asphalt"}}, "geometry":{"type":"MultiPolygon","coordinates":[[[[-4.10843,50.64321],[-4.10883,50.64359],[-4.10872,50.64367],[-4.10857,50.64356],[-4.10851,50.64359],[-4.10842,50.64364],[-4.10819,50.64345],[-4.1084,50.64336],[-4.10827,50.64324],[-4.10843,50.64321]]]]}},
{ "type":"Feature","properties":{"osm_way_id":"229348390","amenity":"parking","other":{"access":"private"}}, "geometry":{"type":"MultiPolygon","coordinates":[[[[-3.98981,50.54362],[-3.98996,50.54356],[-3.99026,50.54385],[-3.99014,50.54388],[-3.9901,50.5439],[-3.9899,50.54374],[-3.98988,50.54372],[-3.98985,50.54368],[-3.98981,50.54362]]]]}},
{ "type":"Feature","properties":{"osm_way_id":"229348391","amenity":"parking","other":{"access":"customers","operator":"Fox Tor Cafe"}}, "geometry":{"type":"MultiPolygon","coordinates":[[[[-3.98975,50.54397],[-3.9899,50.54387],[-3.98981,50.54378],[-3.9899,50.54374],[-3.98988,50.54372],[-3.98985,50.54368],[-3.98961,50.5437],[-3.98947,50.54382],[-3.98975,50.54397]]]]}},
{ "type":"Feature","properties":{"osm_way_id":"229348393","amenity":"parking"},"geometry":{"type":"MultiPolygon","coordinates":[[[[-3.99089,50.54486],[-3.9911,50.54462],[-3.991,50.54459],[-3.99082,50.54453],[-3.99086,50.54447],[-3.99069,50.54441],[-3.99062,50.54454],[-3.99067,50.54455],[-3.99057,50.54466],[-3.99062,50.54473],[-3.99061,50.54478],[-3.99089,50.54486]]]]}},
{ "type":"Feature","properties":{"osm_way_id":"230114425","amenity":"parking"},"geometry":{"type":"MultiPolygon","coordinates":[[[[-3.83293,50.68072],[-3.83271,50.68069],[-3.83246,50.68072],[-3.83247,50.68079],[-3.83264,50.68079],[-3.83278,50.68085],[-3.83293,50.68072]]]]}},
{ "type":"Feature","properties":{"osm_way_id":"240278437","amenity":"parking","other":{"capacity":"6","fee":"no","park_ride":"no","parking":"surface","supervised":"no","surface":"fine_gravel"}}, "geometry":{"type":"MultiPolygon","coordinates":[[[[-4.08753,50.64912],[-4.08755,50.64911],[-4.08747,50.64908],[-4.08744,50.6491],[-4.08741,50.6491],[-4.08738,50.64911],[-4.08737,50.64913],[-4.08738,50.64915],[-4.08738,50.64917],[-4.08739,50.64919],[-4.08742,50.64919],[-4.08745,50.6492],[-4.08748,50.6492],[-4.08752,50.6492],[-4.08753,50.64919],[-4.08753,50.64916],[-4.08753,50.64912]]]]}},
{ "type":"Feature","properties":{"osm_way_id":"240278439","amenity":"parking","other":{"capacity":"25","fee":"no","park_ride":"no","parking":"surface","supervised":"no","surface":"fine_gravel"}}, "geometry":{"type":"MultiPolygon","coordinates":[[[[-4.08694,50.64894],[-4.08691,50.64894],[-4.08688,50.64893],[-4.08684,50.64892],[-4.08678,50.6489],[-4.08679,50.64892],[-4.08673,50.64896],[-4.08673,50.64898],[-4.08676,50.64902],[-4.08679,50.64906],[-4.08683,50.64912],[-4.08686,50.64917],[-4.0869,50.64921],[-4.08694,50.64926],[-4.08698,50.64926],[-4.08702,50.64925],[-4.08706,50.64923],[-4.08703,50.64919],[-4.08702,50.64916],[-4.08701,50.64913],[-4.08698,50.64908],[-4.08695,50.64905],[-4.08693,50.64902],[-4.08691,50.64901],[-4.0869,50.64898],[-4.08691,50.64896],[-4.08694,50.64894]]]]}},
{ "type":"Feature","properties":{"osm_way_id":"240278444","amenity":"parking","other":{"capacity":"15","fee":"no","park_ride":"no","parking":"surface","supervised":"no","surface":"fine_gravel"}}, "geometry":{"type":"MultiPolygon","coordinates":[[[[-4.08721,50.64903],[-4.08723,50.64902],[-4.08717,50.64901],[-4.08711,50.64899],[-4.08707,50.649],[-4.08704,50.64902],[-4.08702,50.64903],[-4.08703,50.64906],[-4.08706,50.64912],[-4.08709,50.64915],[-4.08712,50.64919],[-4.08713,50.64922],[-4.08718,50.64922],[-4.08721,50.64922],[-4.08725,50.64922],[-4.08731,50.64921],[-4.08732,50.64918],[-4.08731,50.64915],[-4.08731,50.64913],[-4.0873,50.64911],[-4.08727,50.64909],[-4.08722,50.64907],[-4.0872,50.64906],[-4.08721,50.64903]]]]}},
{ "type":"Feature","properties":{"osm_way_id":"241847580","amenity":"parking","other":{"fee":"no"}}, "geometry":{"type":"MultiPolygon","coordinates":[[[[-4.12313,50.77229],[-4.12284,50.77228],[-4.12265,50.77226],[-4.12267,50.77244],[-4.12267,50.77246],[-4.12268,50.77257],[-4.12297,50.77257],[-4.12307,50.77255],[-4.12311,50.77253],[-4.12314,50.77249],[-4.12313,50.77242],[-4.12313,50.77229]]]]}},
{ "type":"Feature","properties":{"osm_way_id":"241849310","amenity":"parking"},"geometry":{"type":"MultiPolygon","coordinates":[[[[-4.07544,50.69397],[-4.07539,50.6941],[-4.07515,50.69409],[-4.07482,50.69396],[-4.07489,50.69389],[-4.07506,50.69397],[-4.0751,50.69394],[-4.07544,50.69397]]]]}},
{ "type":"Feature","properties":{"osm_way_id":"246678136","amenity":"parking"},"geometry":{"type":"MultiPolygon","coordinates":[[[[-3.95647,50.73857],[-3.95577,50.73838],[-3.95556,50.7387],[-3.95616,50.73881],[-3.95616,50.73876],[-3.95638,50.73878],[-3.95639,50.73876],[-3.95647,50.73857]]]]}},
{ "type":"Feature","properties":{"osm_way_id":"260967328","landuse":"farmyard"},"geometry":{"type":"MultiPolygon","coordinates":[[[[-4.18211,50.47363],[-4.18199,50.47353],[-4.18174,50.47342],[-4.18147,50.47337],[-4.18118,50.47338],[-4.18084,50.47354],[-4.18074,50.47368],[-4.18069,50.47386],[-4.1811,50.47395],[-4.18159,50.47397],[-4.18196,50.4739],[-4.18188,50.47371],[-4.18211,50.47363]]]]}},
{ "type":"Feature","properties":{"osm_way_id":"264099730","name":"Meldon Village Hall Car Park","amenity":"parking","other":{"access":"private"}}, "geometry":{"type":"MultiPolygon","coordinates":[[[[-4.04061,50.71307],[-4.04063,50.71311],[-4.0407,50.71308],[-4.04076,50.71308],[-4.0408,50.71308],[-4.04085,50.71307],[-4.04089,50.71305],[-4.04093,50.71304],[-4.04093,50.71302],[-4.04083,50.71299],[-4.04073,50.71296],[-4.04068,50.71294],[-4.04059,50.71293],[-4.04052,50.71292],[-4.04048,50.71292],[-4.04052,50.71294],[-4.04061,50.71307]]]]}},
{ "type":"Feature","properties":{"osm_way_id":"265869310","name":"Holming Beam","amenity":"parking","other":{"fee":"no","parking":"surface"}}, "geometry":{"type":"MultiPolygon","coordinates":[[[[-3.99019,50.57101],[-3.99015,50.571],[-3.99012,50.57097],[-3.99012,50.57094],[-3.99014,50.57093],[-3.99016,50.57091],[-3.99046,50.57084],[-3.99042,50.57076],[-3.99055,50.57073],[-3.99061,50.57072],[-3.99066,50.57083],[-3.99069,50.5709],[-3.99069,50.57094],[-3.99063,50.57095],[-3.99056,50.57096],[-3.99048,50.57096],[-3.99035,50.57098],[-3.99028,50.571],[-3.99019,50.57101]]]]}},
{ "type":"Feature","properties":{"osm_way_id":"265869332","amenity":"parking","other":{"capacity":"15","operator":"None","parking":"surface","supervised":"no","surface":"gravel"}}, "geometry":{"type":"MultiPolygon","coordinates":[[[[-4.06908,50.62229],[-4.06906,50.62233],[-4.06897,50.62239],[-4.06891,50.62245],[-4.06895,50.6225],[-4.06902,50.62252],[-4.06909,50.62252],[-4.06916,50.62253],[-4.06921,50.62252],[-4.06925,50.6225],[-4.06926,50.62247],[-4.06928,50.62244],[-4.06927,50.62241],[-4.06925,50.62239],[-4.06922,50.62235],[-4.06915,50.62228],[-4.06916,50.62226],[-4.06912,50.62227],[-4.06908,50.62229]]]]}},
{ "type":"Feature","properties":{"osm_way_id":"274444983","amenity":"parking"},"geometry":{"type":"MultiPolygon","coordinates":[[[[-3.90527,50.79973],[-3.90521,50.79958],[-3.90519,50.79953],[-3.90475,50.79959],[-3.90458,50.79966],[-3.90451,50.79981],[-3.90527,50.79973]]]]}},
{ "type":"Feature","properties":{"osm_way_id":"277636297","amenity":"parking","other":{"capacity":"30"}}, "geometry":{"type":"MultiPolygon","coordinates":[[[[-3.83065,50.6658],[-3.83026,50.6659],[-3.83023,50.66585],[-3.83038,50.66576],[-3.83022,50.66556],[-3.83015,50.66545],[-3.83034,50.66542],[-3.83074,50.66565],[-3.83065,50.6658]]]]}},
{ "type":"Feature","properties":{"osm_way_id":"280303868","amenity":"parking","other":{"access":"yes","capacity":"10","fee":"no","park_ride":"no","parking":"surface","supervised":"no","surface":"fine_gravel"}}, "geometry":{"type":"MultiPolygon","coordinates":[[[[-3.95505,50.72767],[-3.95462,50.72777],[-3.95438,50.72742],[-3.95496,50.72733],[-3.95505,50.72767]]]]}},
{ "type":"Feature","properties":{"osm_way_id":"282780311","amenity":"parking","other":{"access":"customers","fee":"no","parking":"surface"}}, "geometry":{"type":"MultiPolygon","coordinates":[[[[-3.96592,50.55775],[-3.96563,50.55795],[-3.96574,50.55775],[-3.96574,50.55771],[-3.96531,50.55762],[-3.96524,50.55748],[-3.96529,50.55732],[-3.96557,50.55727],[-3.96599,50.55747],[-3.96592,50.55775]]]]}},
{ "type":"Feature","properties":{"osm_way_id":"282930117","amenity":"parking","other":{"capacity":"40"}}, "geometry":{"type":"MultiPolygon","coordinates":[[[[-4.07579,50.85732],[-4.07597,50.85724],[-4.07593,50.85719],[-4.07606,50.85713],[-4.07615,50.85715],[-4.07626,50.85713],[-4.07606,50.85689],[-4.0758,50.85702],[-4.07544,50.85702],[-4.07558,50.85712],[-4.07579,50.85732]]]]}},
{ "type":"Feature","properties":{"osm_way_id":"297105869","amenity":"parking","other":{"access":"yes","parking":"surface","surface":"asphalt"}}, "geometry":{"type":"MultiPolygon","coordinates":[[[[-3.92177,50.55666],[-3.92178,50.55668],[-3.92178,50.55671],[-3.92176,50.55673],[-3.92171,50.55676],[-3.92164,50.55678],[-3.92158,50.55678],[-3.92153,50.55677],[-3.92147,50.55675],[-3.92141,50.55671],[-3.92139,50.55669],[-3.9214,50.55665],[-3.92144,50.55661],[-3.9215,50.55659],[-3.9216,50.55661],[-3.92165,50.55662],[-3.92177,50.55666]]]]}},
{ "type":"Feature","properties":{"osm_way_id":"297106106","amenity":"parking","other":{"access":"yes","parking":"surface","surface":"gravel"}}, "geometry":{"type":"MultiPolygon","coordinates":[[[[-3.93333,50.55723],[-3.93329,50.55723],[-3.93325,50.55723],[-3.9332,50.55728],[-3.93316,50.55732],[-3.93316,50.55735],[-3.93317,50.55739],[-3.9332,50.55742],[-3.93322,50.55744],[-3.93325,50.55744],[-3.93331,50.55744],[-3.93335,50.55741],[-3.93337,50.55734],[-3.93337,50.55729],[-3.93335,50.55726],[-3.93333,50.55723]]]]}},
{ "type":"Feature","properties":{"osm_way_id":"297107565","amenity":"parking","other":{"access":"yes","parking":"surface","surface":"dirt"}}, "geometry":{"type":"MultiPolygon","coordinates":[[[[-3.92435,50.55715],[-3.92436,50.55709],[-3.92435,50.55704],[-3.92432,50.55699],[-3.92425,50.55696],[-3.9242,50.55696],[-3.92417,50.55698],[-3.92417,50.55701],[-3.92419,50.55707],[-3.92425,50.55714],[-3.92429,50.55716],[-3.92429,50.55715],[-3.92435,50.55715]]]]}},
{ "type":"Feature","properties":{"osm_way_id":"300534955","amenity":"parking","other":{"capacity":"50","fee":"yes","operator":"Dartmoor National Park","park_ride":"no","parking":"surface","supervised":"no","surface":"asphalt"}}, "geometry":{"type":"MultiPolygon","coordinates":[[[[-3.91301,50.59388],[-3.91394,50.59337],[-3.91367,50.59312],[-3.91366,50.59312],[-3.91285,50.59355],[-3.91268,50.59363],[-3.91301,50.59388]]]]}},
{ "type":"Feature","properties":{"osm_way_id":"309262835","name":"Museum Visitor Parking","amenity":"parking","other":{"fee":"no","park_ride":"no","parking":"surface","supervised":"no","surface":"asphalt"}}, "geometry":{"type":"MultiPolygon","coordinates":[[[[-4.0002,50.55024],[-4.00041,50.55005],[-4.00003,50.54991],[-3.99982,50.5501],[-4.00014,50.55022],[-4.0002,50.55024]]]]}},
{ "type":"Feature","properties":{"osm_way_id":"309262947","amenity":"parking","other":{"access":"private","fee":"no","park_ride":"no","parking":"surface","supervised":"no","surface":"asphalt"}}, "geometry":{"type":"MultiPolygon","coordinates":[[[[-3.99675,50.54829],[-3.99647,50.54787],[-3.99616,50.54797],[-3.99643,50.54834],[-3.99675,50.54829]]]]}},
{ "type":"Feature","properties":{"osm_way_id":"311844475","amenity":"parking","other":{"surface":"asphalt"}}, "geometry":{"type":"MultiPolygon","coordinates":[[[[-4.03705,50.71835],[-4.03682,50.71838],[-4.03548,50.71871],[-4.03566,50.71873],[-4.03593,50.71869],[-4.03684,50.71847],[-4.03705,50.7184],[-4.03705,50.71835]]]]}},
{ "type":"Feature","properties":{"osm_way_id":"311880139","amenity":"parking","other":{"access":"yes","parking":"surface"}}, "geometry":{"type":"MultiPolygon","coordinates":[[[[-3.90859,50.73915],[-3.90664,50.73906],[-3.90694,50.73912],[-3.90834,50.73918],[-3.90859,50.73915]]]]}},
{ "type":"Feature","properties":{"osm_way_id":"311880142","amenity":"parking","other":{"access":"yes","fee":"no","parking":"surface"}}, "geometry":{"type":"MultiPolygon","coordinates":[[[[-3.91591,50.73944],[-3.91504,50.73929],[-3.91404,50.73916],[-3.91453,50.73919],[-3.91516,50.73928],[-3.91572,50.73937],[-3.91591,50.73944]]]]}},
{ "type":"Feature","properties":{"osm_way_id":"312955985","amenity":"parking"},"geometry":{"type":"MultiPolygon","coordinates":[[[[-4.19767,50.50633],[-4.1973,50.50598],[-4.19688,50.50551],[-4.19671,50.50551],[-4.19649,50.50527],[-4.19599,50.50539],[-4.19606,50.50551],[-4.19617,50.50554],[-4.19618,50.50561],[-4.19579,50.50563],[-4.19576,50.50568],[-4.19735,50.50651],[-4.19767,50.50633]]]]}},
{ "type":"Feature","properties":{"osm_way_id":"314146822","amenity":"parking","other":{"access":"customers","fee":"no","parking":"surface"}}, "geometry":{"type":"MultiPolygon","coordinates":[[[[-4.00527,50.73978],[-4.00523,50.73968],[-4.00503,50.73947],[-4.00471,50.73945],[-4.00443,50.73948],[-4.00411,50.73964],[-4.00423,50.73973],[-4.00446,50.73968],[-4.00449,50.73976],[-4.00527,50.73978]]]]}},
{ "type":"Feature","properties":{"osm_way_id":"315741547","amenity":"parking"},"geometry":{"type":"MultiPolygon","coordinates":[[[[-3.89634,50.67404],[-3.89637,50.67383],[-3.89614,50.67379],[-3.89547,50.67408],[-3.89557,50.67413],[-3.89605,50.67407],[-3.89634,50.67404]]]]}},
{ "type":"Feature","properties":{"osm_way_id":"315767101","amenity":"parking","other":{"capacity":"10","fee":"no","operator":"None","park_ride":"no","parking":"surface","supervised":"no","surface":"gravel"}}, "geometry":{"type":"MultiPolygon","coordinates":[[[[-3.87335,50.6144],[-3.87333,50.6144],[-3.87311,50.61455],[-3.87308,50.61453],[-3.87306,50.61449],[-3.87304,50.61445],[-3.87315,50.61437],[-3.87337,50.61433],[-3.87345,50.61432],[-3.87335,50.6144]]]]}},
{ "type":"Feature","properties":{"osm_way_id":"315783448","amenity":"parking","other":{"access":"yes","fee":"no","parking":"surface","surface":"paved"}}, "geometry":{"type":"MultiPolygon","coordinates":[[[[-4.06152,50.70687],[-4.06155,50.70687],[-4.06165,50.70687],[-4.06173,50.70687],[-4.06172,50.70683],[-4.06167,50.70676],[-4.06162,50.7067],[-4.06154,50.70666],[-4.06137,50.70659],[-4.06136,50.70664],[-4.0611,50.70662],[-4.06092,50.70664],[-4.06069,50.70671],[-4.06049,50.70679],[-4.06047,50.70677],[-4.06034,50.70684],[-4.06026,50.70694],[-4.06023,50.70701],[-4.06033,50.70702],[-4.06037,50.70697],[-4.06044,50.70688],[-4.06052,50.70683],[-4.06065,50.70676],[-4.06077,50.70672],[-4.06084,50.70682],[-4.06098,50.70679],[-4.06107,50.70677],[-4.06119,50.70676],[-4.06132,50.70677],[-4.06144,50.7068],[-4.06152,50.70687]]]]}},
{ "type":"Feature","properties":{"osm_way_id":"315783451","amenity":"parking","other":{"access":"yes","fee":"no","hgv":"yes","parking":"surface","surface":"paved"}}, "geometry":{"type":"MultiPolygon","coordinates":[[[[-4.06131,50.70715],[-4.0607,50.70729],[-4.06047,50.7073],[-4.06056,50.70719],[-4.06133,50.70701],[-4.06142,50.70704],[-4.06135,50.70709],[-4.06131,50.70715]]]]}},
{ "type":"Feature","properties":{"osm_way_id":"321689038","name":"Lydford Gorge","amenity":"parking","other":{"access":"customers","capacity":"50","operator":"National Trust","parking":"surface"}}, "geometry":{"type":"MultiPolygon","coordinates":[[[[-4.1109,50.6412],[-4.11113,50.64094],[-4.11109,50.64084],[-4.11043,50.6406],[-4.11035,50.64069],[-4.1103,50.64068],[-4.11019,50.64081],[-4.11027,50.64094],[-4.11037,50.64102],[-4.1109,50.6412]]]]}},
{ "type":"Feature","properties":{"osm_way_id":"326610893","amenity":"parking","other":{"access":"permissive","capacity":"20","fee":"no","parking":"surface","supervised":"no","surface":"gravel"}}, "geometry":{"type":"MultiPolygon","coordinates":[[[[-3.98948,50.71234],[-3.98958,50.71238],[-3.98961,50.71241],[-3.98965,50.71253],[-3.98969,50.71265],[-3.98969,50.7127],[-3.98968,50.71275],[-3.98966,50.71285],[-3.9896,50.71288],[-3.98953,50.71291],[-3.98951,50.71283],[-3.98945,50.71266],[-3.98947,50.71242],[-3.98948,50.71234]]]]}},
{ "type":"Feature","properties":{"osm_way_id":"327625964","amenity":"parking","other":{"access":"yes","fee":"no","parking":"surface"}}, "geometry":{"type":"MultiPolygon","coordinates":[[[[-4.17949,50.70667],[-4.17855,50.70674],[-4.17856,50.70667],[-4.17891,50.70655],[-4.17887,50.70645],[-4.17891,50.70637],[-4.17924,50.70622],[-4.17949,50.70667]]]]}},
{ "type":"Feature","properties":{"osm_way_id":"337967830","name":"Riverside","amenity":"parking","other":{"access":"yes","fee":"yes","parking":"surface","surface":"asphalt"}}, "geometry":{"type":"MultiPolygon","coordinates":[[[[-4.14689,50.54564],[-4.14571,50.54669],[-4.14557,50.54665],[-4.14542,50.5468],[-4.14577,50.54691],[-4.1472,50.54577],[-4.14689,50.54564]]]]}},
{ "type":"Feature","properties":{"osm_way_id":"337967831","name":"Guildhall","amenity":"parking","other":{"access":"yes","fee":"yes","parking":"surface","surface":"asphalt"}}, "geometry":{"type":"MultiPolygon","coordinates":[[[[-4.14424,50.54965],[-4.14411,50.5497],[-4.14402,50.54972],[-4.14392,50.54966],[-4.14384,50.54969],[-4.14382,50.54956],[-4.14389,50.54953],[-4.14407,50.54944],[-4.14413,50.5495],[-4.14424,50.54965]]]]}},
{ "type":"Feature","properties":{"osm_way_id":"337984781","amenity":"parking","other":{"fee":"no"}}, "geometry":{"type":"MultiPolygon","coordinates":[[[[-4.12849,50.56146],[-4.12837,50.56143],[-4.12807,50.56183],[-4.12821,50.56185],[-4.12843,50.56162],[-4.12848,50.56153],[-4.12849,50.56146]]]]}},
{ "type":"Feature","properties":{"osm_way_id":"337990734","name":"Brook Street","amenity":"parking","building":"yes","shop":"supermarket","other":{"access":"yes","addr:housenumber":"20","addr:postcode":"PL19 0BJ","addr:street":"Brook Street","fee":"yes","fhrs:id":"808993","operator":"The Co-operative Group","parking":"multi-storey","source:addr":"FHRS Open Data","surface":"asphalt"}}, "geometry":{"type":"MultiPolygon","coordinates":[[[[-4.14246,50.55201],[-4.14196,50.55223],[-4.1417,50.55199],[-4.14176,50.55196],[-4.14173,50.55192],[-4.1421,50.55176],[-4.14215,50.55181],[-4.14221,50.55178],[-4.14246,50.55201]]]]}},
{ "type":"Feature","properties":{"osm_way_id":"362641366","amenity":"parking","other":{"fee":"no","operator":"Okehampton Castle","parking":"surface"}}, "geometry":{"type":"MultiPolygon","coordinates":[[[[-4.00671,50.73234],[-4.0064,50.73225],[-4.00648,50.73219],[-4.0066,50.73209],[-4.00678,50.73197],[-4.00691,50.73194],[-4.00711,50.73201],[-4.00671,50.73234]]]]}},
{ "type":"Feature","properties":{"osm_way_id":"362641609","amenity":"parking"},"geometry":{"type":"MultiPolygon","coordinates":[[[[-3.99637,50.73635],[-3.99576,50.73611],[-3.99624,50.73577],[-3.99664,50.73633],[-3.99651,50.7364],[-3.99637,50.73635]]]]}},
{ "type":"Feature","properties":{"osm_way_id":"373868062","amenity":"parking","other":{"access":"yes","fee":"yes","parking":"surface","surface":"asphalt"}}, "geometry":{"type":"MultiPolygon","coordinates":[[[[-4.14624,50.54743],[-4.14644,50.54736],[-4.14627,50.54721],[-4.1461,50.5473],[-4.14624,50.54743]]]]}},
{ "type":"Feature","properties":{"osm_way_id":"373868064","name":"Wharf","amenity":"parking","other":{"access":"yes","fee":"yes","parking":"surface","surface":"asphalt"}}, "geometry":{"type":"MultiPolygon","coordinates":[[[[-4.14648,50.54735],[-4.14724,50.54698],[-4.14719,50.54692],[-4.14724,50.5469],[-4.14708,50.54676],[-4.1463,50.54721],[-4.14648,50.54735]]]]}},
{ "type":"Feature","properties":{"osm_way_id":"379388636","amenity":"parking"},"geometry":{"type":"MultiPolygon","coordinates":[[[[-3.85014,50.7204],[-3.85023,50.7202],[-3.85062,50.71994],[-3.85104,50.72017],[-3.85053,50.72049],[-3.85014,50.7204]]]]}},
{ "type":"Feature","properties":{"osm_way_id":"399662378","amenity":"parking","other":{"access":"yes","capacity":"8","fee":"no","operator":"None","park_ride":"no","parking":"surface","supervised":"no","surface":"gravel"}}, "geometry":{"type":"MultiPolygon","coordinates":[[[[-3.8832,50.60961],[-3.88324,50.60964],[-3.88334,50.60968],[-3.8834,50.60971],[-3.88345,50.60973],[-3.88346,50.60976],[-3.88343,50.60978],[-3.88341,50.60979],[-3.88339,50.60979],[-3.88332,50.60976],[-3.88325,50.60972],[-3.88319,50.6097],[-3.88315,50.60967],[-3.88312,50.60967],[-3.88309,50.60964],[-3.8832,50.60961]]]]}},
{ "type":"Feature","properties":{"osm_way_id":"399662418","amenity":"parking","other":{"capacity":"10","fee":"no","operator":"None","park_ride":"no","parking":"surface","supervised":"no","surface":"gravel"}}, "geometry":{"type":"MultiPolygon","coordinates":[[[[-3.89472,50.60404],[-3.89471,50.60406],[-3.8947,50.60407],[-3.89473,50.60414],[-3.89478,50.6042],[-3.89482,50.60424],[-3.89483,50.60427],[-3.89478,50.6043],[-3.89464,50.60433],[-3.89459,50.60432],[-3.89458,50.60429],[-3.89461,50.60421],[-3.89466,50.60414],[-3.89466,50.6041],[-3.89463,50.60408],[-3.89467,50.60406],[-3.89472,50.60404]]]]}},
{ "type":"Feature","properties":{"osm_way_id":"399911046","amenity":"parking","other":{"capacity":"20","fee":"no","operator":"Dartmoor National Park Authority","park_ride":"no","parking":"surface","supervised":"no","surface":"fine_gravel"}}, "geometry":{"type":"MultiPolygon","coordinates":[[[[-4.09685,50.63177],[-4.09682,50.6318],[-4.09678,50.63181],[-4.09675,50.63182],[-4.09673,50.63186],[-4.09672,50.6319],[-4.09669,50.63194],[-4.09664,50.63203],[-4.09658,50.63213],[-4.09648,50.63213],[-4.09638,50.63211],[-4.09632,50.63209],[-4.09636,50.63203],[-4.09643,50.63193],[-4.0965,50.63182],[-4.09655,50.63176],[-4.09658,50.63175],[-4.09658,50.63174],[-4.0966,50.63171],[-4.09685,50.63177]]]]}},
{ "type":"Feature","properties":{"osm_way_id":"399911074","amenity":"parking","other":{"capacity":"3","fee":"no","operator":"None","park_ride":"no","parking":"surface","supervised":"no","surface":"unpaved"}}, "geometry":{"type":"MultiPolygon","coordinates":[[[[-4.09836,50.62675],[-4.09832,50.62674],[-4.0983,50.62673],[-4.0983,50.62669],[-4.09829,50.62666],[-4.09827,50.62664],[-4.09823,50.62664],[-4.09819,50.62665],[-4.09819,50.62662],[-4.09821,50.62661],[-4.09826,50.62661],[-4.0983,50.6266],[-4.09833,50.62658],[-4.09835,50.62656],[-4.09838,50.62655],[-4.09841,50.62653],[-4.09847,50.62654],[-4.09842,50.62663],[-4.09836,50.62675]]]]}},
{ "type":"Feature","properties":{"osm_way_id":"399911075","amenity":"parking","other":{"capacity":"4","fee":"no","operator":"None","park_ride":"no","parking":"surface","supervised":"no","surface":"unpaved"}}, "geometry":{"type":"MultiPolygon","coordinates":[[[[-4.09783,50.62934],[-4.09779,50.62934],[-4.09777,50.62932],[-4.09775,50.62932],[-4.09767,50.62934],[-4.09757,50.62934],[-4.09744,50.62932],[-4.09746,50.62929],[-4.09754,50.62929],[-4.09765,50.62929],[-4.09773,50.62928],[-4.09778,50.62927],[-4.09781,50.62925],[-4.09785,50.62926],[-4.09783,50.62934]]]]}},
{ "type":"Feature","properties":{"osm_way_id":"400020111","amenity":"parking","other":{"capacity":"3","fee":"no","operator":"None","park_ride":"no","parking":"surface","supervised":"no","surface":"fine_gravel"}}, "geometry":{"type":"MultiPolygon","coordinates":[[[[-4.1083,50.61369],[-4.10824,50.61367],[-4.10824,50.61366],[-4.10825,50.61362],[-4.10825,50.6136],[-4.10828,50.61357],[-4.10831,50.61355],[-4.10836,50.61351],[-4.10842,50.61352],[-4.1083,50.61369]]]]}},
{ "type":"Feature","properties":{"osm_way_id":"405103651","amenity":"parking","other":{"access":"private","capacity":"10","operator":"Ministry of Defence","parking":"surface","surface":"asphalt"}}, "geometry":{"type":"MultiPolygon","coordinates":[[[[-4.00389,50.71796],[-4.00387,50.71785],[-4.00357,50.71787],[-4.00354,50.71788],[-4.00352,50.71789],[-4.00354,50.71797],[-4.00354,50.71799],[-4.00383,50.71797],[-4.00389,50.71796]]]]}},
{ "type":"Feature","properties":{"osm_way_id":"405103653","amenity":"parking","other":{"access":"private","capacity":"6","operator":"Ministry of Defence","parking":"surface","surface":"asphalt"}}, "geometry":{"type":"MultiPolygon","coordinates":[[[[-4.00421,50.71827],[-4.00417,50.71828],[-4.00402,50.7183],[-4.00399,50.71829],[-4.00396,50.71819],[-4.00415,50.71817],[-4.00417,50.71817],[-4.00418,50.71818],[-4.00421,50.71827]]]]}},
{ "type":"Feature","properties":{"osm_way_id":"437888114","amenity":"parking","other":{"access":"private","parking":"surface","surface":"gravel"}}, "geometry":{"type":"MultiPolygon","coordinates":[[[[-3.87641,50.56097],[-3.87634,50.56091],[-3.87636,50.56087],[-3.87642,50.56081],[-3.87651,50.56078],[-3.87659,50.56084],[-3.87662,50.56082],[-3.8767,50.56089],[-3.8767,50.56092],[-3.87641,50.56097]]]]}},
{ "type":"Feature","properties":{"osm_way_id":"437892133","amenity":"parking","other":{"capacity":"20"}}, "geometry":{"type":"MultiPolygon","coordinates":[[[[-3.91841,50.55555],[-3.91864,50.55558],[-3.91882,50.55558],[-3.9189,50.55549],[-3.91889,50.55542],[-3.91856,50.55532],[-3.91842,50.55533],[-3.91829,50.55551],[-3.91841,50.55555]]]]}},
{ "type":"Feature","properties":{"osm_way_id":"475805499","amenity":"parking"},"geometry":{"type":"MultiPolygon","coordinates":[[[[-4.04955,50.50496],[-4.04969,50.50483],[-4.04975,50.50476],[-4.04964,50.50469],[-4.04949,50.50466],[-4.04932,50.5049],[-4.04955,50.50496]]]]}},
{ "type":"Feature","properties":{"osm_way_id":"478347474","name":"Bank Square","amenity":"parking","other":{"access":"yes","fee":"yes","operator":"West Devon Borough Council","parking":"surface","surface":"asphalt"}}, "geometry":{"type":"MultiPolygon","coordinates":[[[[-4.14626,50.55034],[-4.14639,50.55025],[-4.14617,50.55011],[-4.14596,50.55021],[-4.14626,50.55034]]]]}},
{ "type":"Feature","properties":{"osm_way_id":"484654598","amenity":"parking","other":{"access":"yes","fee":"yes","parking":"surface"}}, "geometry":{"type":"MultiPolygon","coordinates":[[[[-4.00377,50.73896],[-4.00385,50.73894],[-4.0039,50.73901],[-4.00411,50.73898],[-4.004,50.73915],[-4.00414,50.73934],[-4.00429,50.73935],[-4.0043,50.73943],[-4.00407,50.73942],[-4.00395,50.73932],[-4.004,50.7393],[-4.00391,50.73915],[-4.00384,50.73906],[-4.00377,50.73896]]]]}},
{ "type":"Feature","properties":{"osm_way_id":"510679785","amenity":"parking"},"geometry":{"type":"MultiPolygon","coordinates":[[[[-3.87708,50.61182],[-3.87696,50.61189],[-3.87691,50.61192],[-3.87682,50.61186],[-3.87698,50.61175],[-3.87701,50.61173],[-3.87708,50.61182]]]]}},
{ "type":"Feature","properties":{"osm_way_id":"517847589","amenity":"parking","other":{"access":"customers","operator":"Betty Cottles Inn","parking":"surface","surface":"asphalt"}}, "geometry":{"type":"MultiPolygon","coordinates":[[[[-4.03464,50.72264],[-4.03497,50.72274],[-4.03511,50.72258],[-4.03524,50.72262],[-4.03533,50.72251],[-4.03512,50.72244],[-4.03511,50.72245],[-4.03499,50.72242],[-4.03502,50.72237],[-4.03488,50.72233],[-4.03464,50.72264]]]]}},
{ "type":"Feature","properties":{"osm_way_id":"540804485","amenity":"parking","other":{"access":"yes","capacity:disabled":"4","fee":"no","operator":"Devon County Council","park_ride":"no","parking":"surface","supervised":"no","surface":"asphalt"}}, "geometry":{"type":"MultiPolygon","coordinates":[[[[-3.84044,50.67304],[-3.84031,50.67297],[-3.84036,50.67293],[-3.84049,50.67299],[-3.84044,50.67304]]]]}},
{ "type":"Feature","properties":{"osm_way_id":"559841575","amenity":"parking"},"geometry":{"type":"MultiPolygon","coordinates":[[[[-4.03721,50.4648],[-4.0372,50.46477],[-4.03715,50.46474],[-4.03714,50.4647],[-4.03712,50.46465],[-4.03703,50.46459],[-4.03697,50.46454],[-4.03687,50.46454],[-4.03681,50.46459],[-4.03684,50.46468],[-4.03691,50.46475],[-4.03703,50.46481],[-4.03712,50.46483],[-4.03718,50.46482],[-4.03721,50.4648]]]]}},
{ "type":"Feature","properties":{"osm_way_id":"566155848","name":"Bellever Tor Car Park","amenity":"parking","other":{"fee":"no","operator":"Foresty Commission","parking":"surface","supervised":"no","surface":"gravel"}}, "geometry":{"type":"MultiPolygon","coordinates":[[[[-3.91392,50.5925],[-3.91386,50.59248],[-3.91379,50.59243],[-3.91462,50.59071],[-3.91491,50.59082],[-3.91434,50.5919],[-3.91411,50.59225],[-3.91392,50.5925]]]]}},
{ "type":"Feature","properties":{"osm_way_id":"571479830","amenity":"parking","other":{"access":"customers","parking":"surface","surface":"asphalt"}}, "geometry":{"type":"MultiPolygon","coordinates":[[[[-4.14516,50.53724],[-4.14539,50.53706],[-4.1459,50.53714],[-4.1459,50.53707],[-4.1455,50.537],[-4.14481,50.53686],[-4.14465,50.53698],[-4.14516,50.53724]]]]}},
{ "type":"Feature","properties":{"osm_way_id":"571479836","amenity":"parking"},"geometry":{"type":"MultiPolygon","coordinates":[[[[-4.12273,50.54],[-4.12268,50.54001],[-4.12254,50.54006],[-4.12252,50.54008],[-4.12251,50.5401],[-4.12253,50.54014],[-4.12269,50.54019],[-4.12277,50.54021],[-4.1228,50.5402],[-4.12283,50.54019],[-4.12285,50.54016],[-4.12285,50.54015],[-4.12285,50.54013],[-4.12281,50.54009],[-4.12273,50.54]]]]}},
{ "type":"Feature","properties":{"osm_way_id":"571479842","amenity":"parking"},"geometry":{"type":"MultiPolygon","coordinates":[[[[-4.11236,50.54232],[-4.1123,50.54223],[-4.11225,50.54217],[-4.11214,50.5421],[-4.11171,50.5421],[-4.11162,50.54212],[-4.11158,50.54215],[-4.11158,50.54219],[-4.11156,50.54226],[-4.11156,50.54232],[-4.11157,50.54235],[-4.11158,50.54242],[-4.11236,50.54232]]]]}},
{ "type":"Feature","properties":{"osm_way_id":"571479843","amenity":"parking"},"geometry":{"type":"MultiPolygon","coordinates":[[[[-4.10931,50.54235],[-4.10926,50.54234],[-4.10921,50.54233],[-4.10916,50.54229],[-4.10918,50.54224],[-4.1092,50.54217],[-4.10925,50.54211],[-4.10927,50.54208],[-4.10935,50.54207],[-4.10945,50.54207],[-4.10949,50.54209],[-4.10953,50.54213],[-4.10957,50.54218],[-4.10961,50.54221],[-4.10966,50.54224],[-4.10966,50.54227],[-4.10966,50.5423],[-4.10959,50.54231],[-4.10953,50.5423],[-4.10945,50.54231],[-4.10939,50.54233],[-4.10936,50.54234],[-4.10931,50.54235]]]]}},
{ "type":"Feature","properties":{"osm_way_id":"571479844","amenity":"parking"},"geometry":{"type":"MultiPolygon","coordinates":[[[[-4.10718,50.54234],[-4.10718,50.5423],[-4.10715,50.54227],[-4.10712,50.54222],[-4.10713,50.54216],[-4.10716,50.54213],[-4.10722,50.54212],[-4.10731,50.54212],[-4.10736,50.54214],[-4.10741,50.54216],[-4.10744,50.54219],[-4.10742,50.54224],[-4.1074,50.54227],[-4.10733,50.54231],[-4.1073,50.54235],[-4.10727,50.54236],[-4.10723,50.54235],[-4.10718,50.54234]]]]}},
{ "type":"Feature","properties":{"osm_way_id":"571479847","amenity":"parking"},"geometry":{"type":"MultiPolygon","coordinates":[[[[-4.10103,50.54166],[-4.10096,50.54165],[-4.10083,50.54169],[-4.1008,50.54173],[-4.1008,50.54178],[-4.10084,50.54183],[-4.10094,50.54185],[-4.10108,50.54184],[-4.10112,50.54181],[-4.10114,50.54178],[-4.10112,50.54175],[-4.1011,50.54168],[-4.10103,50.54166]]]]}},
{ "type":"Feature","properties":{"osm_way_id":"579542820","amenity":"parking","other":{"access":"yes","fee":"no","park_ride":"no","parking":"surface","supervised":"no"}}, "geometry":{"type":"MultiPolygon","coordinates":[[[[-3.79102,50.70432],[-3.79102,50.70427],[-3.79102,50.7042],[-3.79065,50.70423],[-3.79066,50.70428],[-3.79066,50.70435],[-3.79102,50.70432]]]]}},
{ "type":"Feature","properties":{"osm_way_id":"583619697","amenity":"parking","other":{"parking":"surface"}}, "geometry":{"type":"MultiPolygon","coordinates":[[[[-3.95603,50.72162],[-3.95623,50.72136],[-3.95614,50.72137],[-3.9561,50.72145],[-3.95603,50.72162]]]]}},
{ "type":"Feature","properties":{"osm_way_id":"597896258","name":"Dunnabridge Car Park","amenity":"parking"},"geometry":{"type":"MultiPolygon","coordinates":[[[[-3.91334,50.55577],[-3.91358,50.55582],[-3.91362,50.55565],[-3.91352,50.55552],[-3.91338,50.55534],[-3.91321,50.5552],[-3.913,50.55509],[-3.91268,50.55511],[-3.9129,50.55518],[-3.91309,50.5553],[-3.91325,50.55541],[-3.91334,50.55556],[-3.91336,50.55568],[-3.91334,50.55577]]]]}},
{ "type":"Feature","properties":{"osm_way_id":"608668441","amenity":"parking","other":{"operator":"National Trust","parking":"surface"}}, "geometry":{"type":"MultiPolygon","coordinates":[[[[-4.12044,50.62888],[-4.12078,50.62896],[-4.12117,50.62928],[-4.12117,50.62933],[-4.12107,50.62935],[-4.12102,50.62931],[-4.12078,50.62912],[-4.1207,50.62912],[-4.12069,50.62915],[-4.12091,50.62931],[-4.12092,50.62935],[-4.12084,50.62938],[-4.12048,50.62913],[-4.1204,50.62902],[-4.12021,50.62888],[-4.12034,50.62886],[-4.12044,50.62888]]]]}},
{ "type":"Feature","properties":{"osm_way_id":"611799567","amenity":"parking","other":{"capacity":"35"}}, "geometry":{"type":"MultiPolygon","coordinates":[[[[-3.97324,50.74178],[-3.97301,50.7418],[-3.97286,50.7418],[-3.97257,50.74173],[-3.97247,50.74173],[-3.97246,50.74167],[-3.97321,50.74161],[-3.97324,50.74178]]]]}},
{ "type":"Feature","properties":{"osm_way_id":"619857404","amenity":"parking","other":{"access":"customers","fee":"no","operator":"The London Inn","parking":"surface"}}, "geometry":{"type":"MultiPolygon","coordinates":[[[[-4.09873,50.50934],[-4.09851,50.50946],[-4.09847,50.50944],[-4.0983,50.50932],[-4.09852,50.5092],[-4.09873,50.50934]]]]}},
{ "type":"Feature","properties":{"osm_way_id":"622137636","amenity":"parking","other":{"access":"yes","capacity":"30"}}, "geometry":{"type":"MultiPolygon","coordinates":[[[[-4.08763,50.49087],[-4.08723,50.49094],[-4.08716,50.49085],[-4.08748,50.49072],[-4.08767,50.49062],[-4.08785,50.49074],[-4.0877,50.49083],[-4.08763,50.49087]]]]}},
{ "type":"Feature","properties":{"osm_way_id":"633478568","amenity":"parking"},"geometry":{"type":"MultiPolygon","coordinates":[[[[-4.0699,50.55773],[-4.06981,50.55776],[-4.06973,50.55775],[-4.06966,50.55767],[-4.06972,50.55757],[-4.06982,50.55755],[-4.06987,50.55759],[-4.06991,50.55766],[-4.0699,50.55773]]]]}},
{ "type":"Feature","properties":{"osm_way_id":"633478569","amenity":"parking"},"geometry":{"type":"MultiPolygon","coordinates":[[[[-4.06295,50.55653],[-4.06272,50.55658],[-4.06253,50.55666],[-4.06226,50.55673],[-4.06211,50.55675],[-4.06209,50.55669],[-4.06216,50.55657],[-4.06222,50.55649],[-4.0623,50.55649],[-4.06235,50.55648],[-4.06241,50.55654],[-4.0625,50.55653],[-4.06257,50.55644],[-4.06278,50.5564],[-4.06289,50.55642],[-4.06299,50.55647],[-4.06295,50.55653]]]]}},
{ "type":"Feature","properties":{"osm_way_id":"633710223","amenity":"parking"},"geometry":{"type":"MultiPolygon","coordinates":[[[[-4.0712,50.53671],[-4.07124,50.53676],[-4.07128,50.53677],[-4.07132,50.5368],[-4.0714,50.53682],[-4.07149,50.53684],[-4.07154,50.53679],[-4.07146,50.53672],[-4.07143,50.53669],[-4.07147,50.53662],[-4.0712,50.53671]]]]}},
{ "type":"Feature","properties":{"osm_way_id":"633710224","amenity":"parking"},"geometry":{"type":"MultiPolygon","coordinates":[[[[-4.071,50.53711],[-4.07104,50.53716],[-4.07111,50.53722],[-4.07109,50.53726],[-4.07101,50.53728],[-4.07096,50.53725],[-4.07093,50.53722],[-4.07095,50.53717],[-4.071,50.53711]]]]}},
{ "type":"Feature","properties":{"osm_way_id":"635433455","amenity":"parking"},"geometry":{"type":"MultiPolygon","coordinates":[[[[-4.10467,50.53339],[-4.10465,50.53336],[-4.10463,50.53334],[-4.10446,50.53331],[-4.10435,50.5333],[-4.10429,50.53332],[-4.10426,50.53336],[-4.10426,50.53341],[-4.10427,50.53346],[-4.10433,50.53353],[-4.1045,50.53348],[-4.10456,50.53344],[-4.10467,50.53339]]]]}},
{ "type":"Feature","properties":{"osm_way_id":"635433457","amenity":"parking"},"geometry":{"type":"MultiPolygon","coordinates":[[[[-4.10526,50.53318],[-4.10518,50.53315],[-4.10504,50.53311],[-4.10497,50.53317],[-4.10509,50.53323],[-4.10526,50.53318]]]]}},
{ "type":"Feature","properties":{"osm_way_id":"636376038","amenity":"parking"},"geometry":{"type":"MultiPolygon","coordinates":[[[[-4.09777,50.5374],[-4.09763,50.53741],[-4.09743,50.53742],[-4.09737,50.5374],[-4.09735,50.53738],[-4.09735,50.53735],[-4.09736,50.53733],[-4.0974,50.53733],[-4.09742,50.5373],[-4.09741,50.53728],[-4.09737,50.53728],[-4.09738,50.53724],[-4.09739,50.53721],[-4.09757,50.53721],[-4.09774,50.53722],[-4.09777,50.53724],[-4.09778,50.53732],[-4.09777,50.5374]]]]}},
{ "type":"Feature","properties":{"osm_way_id":"636376040","amenity":"parking"},"geometry":{"type":"MultiPolygon","coordinates":[[[[-4.09593,50.53138],[-4.0958,50.53144],[-4.0956,50.53152],[-4.09537,50.53146],[-4.09518,50.53136],[-4.09519,50.53125],[-4.09541,50.53111],[-4.09556,50.53105],[-4.0957,50.53102],[-4.09584,50.53099],[-4.09593,50.53138]]]]}},
{ "type":"Feature","properties":{"osm_way_id":"636376041","amenity":"parking"},"geometry":{"type":"MultiPolygon","coordinates":[[[[-4.08761,50.53575],[-4.08779,50.53561],[-4.08761,50.53552],[-4.08745,50.53566],[-4.08761,50.53575]]]]}},
{ "type":"Feature","properties":{"osm_way_id":"637288435","amenity":"parking"},"geometry":{"type":"MultiPolygon","coordinates":[[[[-4.07958,50.54206],[-4.07963,50.54196],[-4.07951,50.54181],[-4.07942,50.54167],[-4.07933,50.54161],[-4.07927,50.54161],[-4.07923,50.54163],[-4.07917,50.5417],[-4.07915,50.54186],[-4.07926,50.54198],[-4.0794,50.54205],[-4.07958,50.54206]]]]}},
{ "type":"Feature","properties":{"osm_way_id":"637296546","amenity":"parking"},"geometry":{"type":"MultiPolygon","coordinates":[[[[-4.07348,50.53627],[-4.07356,50.53629],[-4.07371,50.53631],[-4.07381,50.53632],[-4.07386,50.53631],[-4.07382,50.53625],[-4.0738,50.53615],[-4.07379,50.53613],[-4.07348,50.53627]]]]}},
{ "type":"Feature","properties":{"osm_way_id":"639077842","amenity":"parking"},"geometry":{"type":"MultiPolygon","coordinates":[[[[-4.07467,50.81918],[-4.07482,50.81908],[-4.07429,50.81877],[-4.07394,50.81867],[-4.07381,50.81866],[-4.07378,50.81877],[-4.0739,50.81884],[-4.07412,50.81888],[-4.07467,50.81918]]]]}},
{ "type":"Feature","properties":{"osm_way_id":"639510056","amenity":"parking"},"geometry":{"type":"MultiPolygon","coordinates":[[[[-4.05027,50.55836],[-4.05028,50.55839],[-4.05007,50.55841],[-4.05007,50.55836],[-4.05027,50.55836]]]]}},
{ "type":"Feature","properties":{"osm_way_id":"639510057","amenity":"parking"},"geometry":{"type":"MultiPolygon","coordinates":[[[[-4.04963,50.5584],[-4.04948,50.55839],[-4.04937,50.55836],[-4.04929,50.55833],[-4.04934,50.5583],[-4.04946,50.55834],[-4.04963,50.55835],[-4.04963,50.55838],[-4.04963,50.5584]]]]}},
{ "type":"Feature","properties":{"osm_way_id":"640134245","amenity":"parking"},"geometry":{"type":"MultiPolygon","coordinates":[[[[-4.10929,50.53239],[-4.10938,50.53242],[-4.10952,50.53244],[-4.10965,50.53248],[-4.1098,50.53248],[-4.10988,50.53242],[-4.10988,50.53234],[-4.10981,50.5323],[-4.10973,50.53225],[-4.10936,50.53237],[-4.10929,50.53239]]]]}},
{ "type":"Feature","properties":{"osm_way_id":"640991424","amenity":"parking","other":{"access":"yes","fee":"no","parking":"surface","surface":"gravel"}}, "geometry":{"type":"MultiPolygon","coordinates":[[[[-4.08944,50.58182],[-4.08954,50.58188],[-4.08941,50.58197],[-4.08927,50.58199],[-4.08916,50.58196],[-4.08911,50.58193],[-4.08907,50.5819],[-4.08916,50.58176],[-4.0892,50.58175],[-4.08927,50.58174],[-4.08933,50.58175],[-4.08938,50.58176],[-4.08944,50.58182]]]]}},
{ "type":"Feature","properties":{"osm_way_id":"647471000","amenity":"parking"},"geometry":{"type":"MultiPolygon","coordinates":[[[[-4.12034,50.50516],[-4.1202,50.50523],[-4.12015,50.50531],[-4.12026,50.50539],[-4.12041,50.50537],[-4.12047,50.50527],[-4.12044,50.50517],[-4.12034,50.50516]]]]}},
{ "type":"Feature","properties":{"osm_way_id":"647471146","amenity":"parking"},"geometry":{"type":"MultiPolygon","coordinates":[[[[-4.11686,50.5046],[-4.11693,50.50455],[-4.11677,50.50448],[-4.11665,50.50452],[-4.1167,50.50459],[-4.11686,50.5046]]]]}},
{ "type":"Feature","properties":{"osm_way_id":"647471147","amenity":"parking"},"geometry":{"type":"MultiPolygon","coordinates":[[[[-4.11549,50.50435],[-4.11562,50.50432],[-4.11562,50.50422],[-4.1155,50.5042],[-4.11538,50.50425],[-4.1154,50.50429],[-4.11549,50.50435]]]]}},
{ "type":"Feature","properties":{"osm_way_id":"647839488","amenity":"parking"},"geometry":{"type":"MultiPolygon","coordinates":[[[[-4.13129,50.49346],[-4.1313,50.49328],[-4.13113,50.49328],[-4.13113,50.49342],[-4.13122,50.49343],[-4.13124,50.49345],[-4.13129,50.49346]]]]}},
{ "type":"Feature","properties":{"osm_way_id":"647839491","amenity":"parking"},"geometry":{"type":"MultiPolygon","coordinates":[[[[-4.13045,50.49355],[-4.13065,50.49358],[-4.13068,50.49348],[-4.13048,50.49346],[-4.13045,50.49355]]]]}},
{ "type":"Feature","properties":{"osm_way_id":"647839822","name":"Church Car Park","amenity":"parking"},"geometry":{"type":"MultiPolygon","coordinates":[[[[-4.13052,50.4947],[-4.13069,50.49469],[-4.1307,50.49463],[-4.13085,50.49461],[-4.13082,50.49453],[-4.13047,50.49452],[-4.13052,50.4947]]]]}},
{ "type":"Feature","properties":{"osm_way_id":"648281691","amenity":"parking"},"geometry":{"type":"MultiPolygon","coordinates":[[[[-4.0943,50.52193],[-4.09421,50.52199],[-4.09408,50.522],[-4.09397,50.52197],[-4.09392,50.5219],[-4.09395,50.52182],[-4.09403,50.52177],[-4.09412,50.52175],[-4.09422,50.52178],[-4.09423,50.52185],[-4.0943,50.52185],[-4.0943,50.52193]]]]}},
{ "type":"Feature","properties":{"osm_way_id":"658899109","amenity":"parking"},"geometry":{"type":"MultiPolygon","coordinates":[[[[-4.11343,50.54533],[-4.11317,50.5453],[-4.11307,50.54525],[-4.11305,50.54515],[-4.11316,50.5451],[-4.11332,50.54509],[-4.11354,50.54514],[-4.11343,50.54533]]]]}},
{ "type":"Feature","properties":{"osm_way_id":"658914102","amenity":"parking"},"geometry":{"type":"MultiPolygon","coordinates":[[[[-4.09828,50.54705],[-4.09813,50.54702],[-4.09818,50.54693],[-4.09835,50.54695],[-4.09828,50.54705]]]]}},
{ "type":"Feature","properties":{"osm_way_id":"672220561","amenity":"parking","other":{"capacity":"8","parking":"surface"}}, "geometry":{"type":"MultiPolygon","coordinates":[[[[-3.86774,50.61914],[-3.86784,50.61904],[-3.86788,50.619],[-3.86775,50.61894],[-3.86759,50.61908],[-3.86774,50.61914]]]]}},
{ "type":"Feature","properties":{"osm_way_id":"676058373","amenity":"parking","other":{"access":"yes","fee":"no","parking":"surface","surface":"gravel"}}, "geometry":{"type":"MultiPolygon","coordinates":[[[[-4.15184,50.46393],[-4.15151,50.46421],[-4.15146,50.46419],[-4.15141,50.46421],[-4.15133,50.46418],[-4.15132,50.4641],[-4.15173,50.46385],[-4.15184,50.46393]]]]}},
{ "type":"Feature","properties":{"osm_way_id":"681489775","name":"Duchy House B&B Car Park","amenity":"parking","other":{"parking":"surface"}}, "geometry":{"type":"MultiPolygon","coordinates":[[[[-3.99346,50.54518],[-3.99363,50.54505],[-3.99349,50.54497],[-3.9933,50.5451],[-3.99335,50.54513],[-3.99344,50.54517],[-3.99346,50.54518]]]]}},
{ "type":"Feature","properties":{"osm_way_id":"682268001","amenity":"parking","other":{"parking":"surface"}}, "geometry":{"type":"MultiPolygon","coordinates":[[[[-4.11364,50.58987],[-4.11373,50.58988],[-4.11379,50.58994],[-4.11388,50.59007],[-4.11384,50.5901],[-4.11374,50.5901],[-4.11365,50.59009],[-4.11358,50.58997],[-4.1136,50.5899],[-4.11361,50.58988],[-4.11364,50.58987]]]]}},
{ "type":"Feature","properties":{"osm_way_id":"693713490","amenity":"parking"},"geometry":{"type":"MultiPolygon","coordinates":[[[[-3.90779,50.79973],[-3.90802,50.79959],[-3.90808,50.79955],[-3.90808,50.79949],[-3.90795,50.79945],[-3.90777,50.79947],[-3.90761,50.79951],[-3.90759,50.79956],[-3.90766,50.79968],[-3.90779,50.79973]]]]}},
{ "type":"Feature","properties":{"osm_way_id":"694227544","amenity":"parking"},"geometry":{"type":"MultiPolygon","coordinates":[[[[-4.1601,50.66429],[-4.16043,50.66406],[-4.16025,50.66397],[-4.16017,50.66404],[-4.16021,50.66407],[-4.15998,50.66423],[-4.1601,50.66429]]]]}},
{ "type":"Feature","properties":{"osm_way_id":"710759418","amenity":"parking","other":{"fee":"no"}}, "geometry":{"type":"MultiPolygon","coordinates":[[[[-3.97188,50.74125],[-3.97158,50.74126],[-3.97154,50.74084],[-3.97186,50.74084],[-3.97188,50.74125]]]]}},
{ "type":"Feature","properties":{"osm_way_id":"710759419","amenity":"parking"},"geometry":{"type":"MultiPolygon","coordinates":[[[[-3.97155,50.74167],[-3.97135,50.74175],[-3.97128,50.74169],[-3.97136,50.74166],[-3.97127,50.74152],[-3.97144,50.74145],[-3.97155,50.74167]]]]}},
{ "type":"Feature","properties":{"osm_way_id":"710759420","amenity":"parking"},"geometry":{"type":"MultiPolygon","coordinates":[[[[-3.97146,50.74073],[-3.97185,50.74071],[-3.97185,50.74077],[-3.97146,50.74079],[-3.97146,50.74073]]]]}},
{ "type":"Feature","properties":{"osm_way_id":"710759421","amenity":"parking"},"geometry":{"type":"MultiPolygon","coordinates":[[[[-3.97249,50.74081],[-3.97249,50.74085],[-3.97218,50.74085],[-3.97217,50.74081],[-3.97249,50.74081]]]]}},
{ "type":"Feature","properties":{"osm_way_id":"731178622","amenity":"parking","other":{"access":"customers"}}, "geometry":{"type":"MultiPolygon","coordinates":[[[[-4.14488,50.54901],[-4.14506,50.54894],[-4.14511,50.54892],[-4.14525,50.54887],[-4.14487,50.54859],[-4.14483,50.54861],[-4.14481,50.54859],[-4.14472,50.54863],[-4.1447,50.54861],[-4.14459,50.54865],[-4.14461,50.54868],[-4.14456,50.5487],[-4.14459,50.54873],[-4.14488,50.54901]]]]}},
{ "type":"Feature","properties":{"osm_way_id":"740022069","amenity":"parking","other":{"access":"customers","operator":"Long Ash Garden Centre","parking":"surface"}}, "geometry":{"type":"MultiPolygon","coordinates":[[[[-4.1206,50.50507],[-4.12032,50.505],[-4.11976,50.50488],[-4.1198,50.50474],[-4.12067,50.50494],[-4.1206,50.50507]]]]}},
{ "type":"Feature","properties":{"osm_way_id":"740025683","amenity":"parking","other":{"access":"customers","operator":"The Leaping Salmon","operator:type":"private"}}, "geometry":{"type":"MultiPolygon","coordinates":[[[[-4.0985,50.51084],[-4.09811,50.51064],[-4.0982,50.51055],[-4.09821,50.51056],[-4.09858,50.51077],[-4.0985,50.51084]]]]}},
{ "type":"Feature","properties":{"osm_way_id":"745351174","amenity":"parking","other":{"access":"private","parking":"surface","surface":"asphalt"}}, "geometry":{"type":"MultiPolygon","coordinates":[[[[-4.16176,50.54304],[-4.1614,50.54285],[-4.16152,50.54276],[-4.16157,50.54278],[-4.16188,50.54295],[-4.16176,50.54304]]]]}},
{ "type":"Feature","properties":{"osm_way_id":"777277238","amenity":"parking","other":{"access":"customers","operator":"Drake's Cafe","parking":"surface","surface":"asphalt"}}, "geometry":{"type":"MultiPolygon","coordinates":[[[[-4.12648,50.52438],[-4.12673,50.52449],[-4.12676,50.52453],[-4.12672,50.52456],[-4.12668,50.52454],[-4.12657,50.52465],[-4.12652,50.5247],[-4.1264,50.52465],[-4.12627,50.5246],[-4.12648,50.52438]]]]}},
{ "type":"Feature","properties":{"osm_way_id":"779175753","amenity":"parking","other":{"access":"customers"}}, "geometry":{"type":"MultiPolygon","coordinates":[[[[-4.28494,50.64377],[-4.28435,50.64367],[-4.28445,50.64332],[-4.28476,50.64336],[-4.28481,50.64327],[-4.28513,50.6433],[-4.28494,50.64377]]]]}},
{ "type":"Feature","properties":{"osm_way_id":"779176429","amenity":"parking"},"geometry":{"type":"MultiPolygon","coordinates":[[[[-4.2789,50.64117],[-4.27877,50.64108],[-4.27869,50.64099],[-4.27868,50.64091],[-4.2793,50.64085],[-4.27925,50.64105],[-4.27911,50.64113],[-4.27896,50.64116],[-4.2789,50.64117]]]]}},
{ "type":"Feature","properties":{"osm_way_id":"779267063","amenity":"parking","other":{"access":"customers"}}, "geometry":{"type":"MultiPolygon","coordinates":[[[[-4.27069,50.64239],[-4.27075,50.64229],[-4.27071,50.64195],[-4.27018,50.64199],[-4.27022,50.64209],[-4.27044,50.64219],[-4.27058,50.64231],[-4.27069,50.64239]]]]}},
{ "type":"Feature","properties":{"osm_way_id":"779267183","amenity":"parking","other":{"access":"customers"}}, "geometry":{"type":"MultiPolygon","coordinates":[[[[-4.27257,50.64379],[-4.27266,50.64368],[-4.27233,50.6436],[-4.27228,50.64372],[-4.27238,50.64376],[-4.27257,50.64379]]]]}},
{ "type":"Feature","properties":{"osm_way_id":"780127522","amenity":"parking","other":{"fee":"no","surface":"gravel"}}, "geometry":{"type":"MultiPolygon","coordinates":[[[[-4.10686,50.45445],[-4.10683,50.45449],[-4.10684,50.45458],[-4.10679,50.45458],[-4.10673,50.45458],[-4.10664,50.45455],[-4.10666,50.45452],[-4.10672,50.45447],[-4.10674,50.45442],[-4.10686,50.45445]]]]}},
{ "type":"Feature","properties":{"osm_way_id":"780127523","amenity":"parking","other":{"access":"yes","fee":"no","parking":"surface"}}, "geometry":{"type":"MultiPolygon","coordinates":[[[[-4.10637,50.45602],[-4.10647,50.45602],[-4.10653,50.456],[-4.10659,50.45595],[-4.10665,50.4558],[-4.10664,50.45567],[-4.10649,50.45559],[-4.1063,50.45558],[-4.10621,50.45561],[-4.10617,50.45573],[-4.10613,50.45581],[-4.10616,50.45589],[-4.10622,50.45596],[-4.10631,50.45602],[-4.10637,50.45602]]]]}},
{ "type":"Feature","properties":{"osm_way_id":"780127524","amenity":"parking","other":{"access":"yes","fee":"no","parking":"surface"}}, "geometry":{"type":"MultiPolygon","coordinates":[[[[-4.10788,50.45642],[-4.10784,50.45647],[-4.10777,50.45649],[-4.10764,50.45648],[-4.10759,50.45642],[-4.10762,50.45637],[-4.10767,50.45636],[-4.10762,50.45626],[-4.10759,50.4562],[-4.10777,50.45619],[-4.10787,50.45622],[-4.10797,50.45629],[-4.10794,50.45637],[-4.10792,50.45639],[-4.10788,50.45642]]]]}},
{ "type":"Feature","properties":{"osm_way_id":"780127525","amenity":"parking","other":{"access":"yes","fee":"no","parking":"surface"}}, "geometry":{"type":"MultiPolygon","coordinates":[[[[-4.10492,50.45535],[-4.10487,50.45543],[-4.10486,50.45556],[-4.10489,50.4557],[-4.10493,50.45575],[-4.105,50.45578],[-4.10511,50.45576],[-4.1052,50.45572],[-4.10527,50.45562],[-4.10531,50.45556],[-4.10523,50.45553],[-4.10514,50.45549],[-4.10503,50.45543],[-4.10501,50.45539],[-4.10492,50.45535]]]]}},
{ "type":"Feature","properties":{"osm_way_id":"837774573","amenity":"parking"},"geometry":{"type":"MultiPolygon","coordinates":[[[[-3.99513,50.54227],[-3.99465,50.54238],[-3.99476,50.54239],[-3.99484,50.54238],[-3.99492,50.54238],[-3.995,50.54235],[-3.99508,50.54232],[-3.99511,50.54229],[-3.99513,50.54227]]]]}},
{ "type":"Feature","properties":{"osm_way_id":"837774574","amenity":"parking"},"geometry":{"type":"MultiPolygon","coordinates":[[[[-3.99508,50.54222],[-3.99486,50.54227],[-3.99464,50.54233],[-3.9947,50.54228],[-3.99475,50.54224],[-3.99483,50.5422],[-3.99493,50.54219],[-3.99501,50.54219],[-3.99506,50.54219],[-3.99512,50.54221],[-3.99508,50.54222]]]]}},
{ "type":"Feature","properties":{"osm_way_id":"837871010","amenity":"parking"},"geometry":{"type":"MultiPolygon","coordinates":[[[[-4.01198,50.53527],[-4.01199,50.53533],[-4.01208,50.5354],[-4.01211,50.53545],[-4.01207,50.53546],[-4.01203,50.53546],[-4.01196,50.53543],[-4.01195,50.5354],[-4.01192,50.53535],[-4.01195,50.53532],[-4.01193,50.5353],[-4.01198,50.53527]]]]}},
{ "type":"Feature","properties":{"osm_way_id":"844097967","amenity":"parking","other":{"parking":"surface"}}, "geometry":{"type":"MultiPolygon","coordinates":[[[[-4.04421,50.55701],[-4.044,50.55703],[-4.04383,50.55705],[-4.0437,50.55699],[-4.04382,50.55688],[-4.04392,50.55686],[-4.04401,50.55687],[-4.04412,50.55691],[-4.04421,50.55701]]]]}},
{ "type":"Feature","properties":{"osm_way_id":"844097968","amenity":"parking","other":{"capacity":"8","parking":"surface"}}, "geometry":{"type":"MultiPolygon","coordinates":[[[[-3.9297,50.57701],[-3.92972,50.57699],[-3.92974,50.57696],[-3.92965,50.57694],[-3.9295,50.57697],[-3.92947,50.57705],[-3.92957,50.5771],[-3.92966,50.57703],[-3.9297,50.57701]]]]}},
{ "type":"Feature","properties":{"osm_way_id":"844307256","amenity":"parking","other":{"parking":"surface"}}, "geometry":{"type":"MultiPolygon","coordinates":[[[[-2.36178,52.65944],[-2.36146,52.65962],[-2.36112,52.65936],[-2.36139,52.65917],[-2.36127,52.65914],[-2.36126,52.65881],[-2.36145,52.65859],[-2.36169,52.65868],[-2.36155,52.6588],[-2.36157,52.65918],[-2.36149,52.65923],[-2.36152,52.65926],[-2.36164,52.65934],[-2.36178,52.65944]]]]}},
{ "type":"Feature","properties":{"osm_way_id":"846131010","amenity":"parking"},"geometry":{"type":"MultiPolygon","coordinates":[[[[-1.37323,54.75964],[-1.37316,54.75964],[-1.37315,54.75972],[-1.37206,54.75981],[-1.37196,54.75938],[-1.37134,54.75943],[-1.37128,54.75944],[-1.37123,54.75931],[-1.37201,54.75927],[-1.37204,54.75932],[-1.37223,54.75931],[-1.37222,54.75926],[-1.3729,54.75922],[-1.37291,54.75927],[-1.37299,54.75927],[-1.373,54.75935],[-1.37313,54.7594],[-1.37321,54.7594],[-1.37323,54.75964]]]]}},
{ "type":"Feature","properties":{"osm_way_id":"850767752","amenity":"parking"},"geometry":{"type":"MultiPolygon","coordinates":[[[[-4.12307,50.77247],[-4.12306,50.77239],[-4.123,50.77235],[-4.12293,50.77234],[-4.12276,50.77234],[-4.12271,50.77237],[-4.12272,50.7724],[-4.12273,50.77252],[-4.12274,50.77254],[-4.12277,50.77255],[-4.12287,50.77256],[-4.12286,50.77251],[-4.12301,50.77251],[-4.123,50.77247],[-4.12307,50.77247]]]]}},
{ "type":"Feature","properties":{"osm_way_id":"851661050","name":"Higher Artiscombe","landuse":"farmyard"},"geometry":{"type":"MultiPolygon","coordinates":[[[[-4.20057,50.54457],[-4.1999,50.5439],[-4.1996,50.5436],[-4.19933,50.54367],[-4.19908,50.54355],[-4.19869,50.54348],[-4.19726,50.54354],[-4.19868,50.54506],[-4.19936,50.54472],[-4.19955,50.54492],[-4.20011,50.54467],[-4.20032,50.54466],[-4.20057,50.54457]]]]}},
{ "type":"Feature","properties":{"osm_way_id":"858154793","name":"Disused","amenity":"parking"},"geometry":{"type":"MultiPolygon","coordinates":[[[[-4.08927,50.58174],[-4.0892,50.58175],[-4.08916,50.58176],[-4.08907,50.5819],[-4.08911,50.58193],[-4.08916,50.58196],[-4.08927,50.58199],[-4.08941,50.58197],[-4.08954,50.58188],[-4.08944,50.58182],[-4.08938,50.58176],[-4.08933,50.58175],[-4.08927,50.58174]]]]}},
{ "type":"Feature","properties":{"osm_way_id":"875277099","amenity":"parking","other":{"access":"customers","capacity":"6","parking":"surface"}}, "geometry":{"type":"MultiPolygon","coordinates":[[[[-1.89949,53.82745],[-1.89942,53.82745],[-1.89942,53.82746],[-1.89933,53.82746],[-1.89934,53.82743],[-1.89927,53.82743],[-1.89928,53.82725],[-1.89937,53.82726],[-1.89941,53.82726],[-1.89944,53.82726],[-1.89943,53.82738],[-1.89943,53.8274],[-1.89949,53.8274],[-1.89949,53.82745]]]]}},
{ "type":"Feature","properties":{"osm_way_id":"891072479","amenity":"parking"},"geometry":{"type":"MultiPolygon","coordinates":[[[[-4.14775,50.54861],[-4.14757,50.54847],[-4.14773,50.54839],[-4.14783,50.54839],[-4.14788,50.54842],[-4.148,50.54836],[-4.14805,50.5484],[-4.14798,50.54844],[-4.14803,50.54846],[-4.14775,50.54861]]]]}},
{ "type":"Feature","properties":{"osm_way_id":"891359228","amenity":"parking","other":{"access":"yes","fee":"no","parking":"surface"}}, "geometry":{"type":"MultiPolygon","coordinates":[[[[-4.09741,50.49272],[-4.09739,50.49273],[-4.09743,50.49277],[-4.09728,50.49285],[-4.09723,50.49286],[-4.09716,50.49287],[-4.09713,50.49286],[-4.09704,50.49277],[-4.09701,50.4927],[-4.09703,50.49269],[-4.09712,50.49267],[-4.09731,50.49264],[-4.09733,50.49266],[-4.09735,50.49265],[-4.09741,50.49272]]]]}},
{ "type":"Feature","properties":{"osm_way_id":"891364791","amenity":"parking"},"geometry":{"type":"MultiPolygon","coordinates":[[[[-4.11237,50.51292],[-4.11233,50.51312],[-4.11221,50.51316],[-4.11181,50.51311],[-4.11167,50.5129],[-4.11237,50.51292]]]]}},
{ "type":"Feature","properties":{"osm_way_id":"905568193","amenity":"parking"},"geometry":{"type":"MultiPolygon","coordinates":[[[[-4.01489,50.83078],[-4.01465,50.83081],[-4.01451,50.83093],[-4.01466,50.83096],[-4.01471,50.83089],[-4.01479,50.83091],[-4.01489,50.83078]]]]}},
{ "type":"Feature","properties":{"osm_way_id":"908718731","amenity":"parking","other":{"parking":"surface"}}, "geometry":{"type":"MultiPolygon","coordinates":[[[[-4.18021,50.48177],[-4.1808,50.48186],[-4.18087,50.48168],[-4.18028,50.48159],[-4.18021,50.48177]]]]}},
{ "type":"Feature","properties":{"osm_way_id":"908719078","amenity":"parking","other":{"parking":"surface"}}, "geometry":{"type":"MultiPolygon","coordinates":[[[[-4.08379,50.48929],[-4.08334,50.48901],[-4.08349,50.48892],[-4.08378,50.48911],[-4.08386,50.48906],[-4.08401,50.48915],[-4.08379,50.48929]]]]}},
{ "type":"Feature","properties":{"osm_way_id":"918679214","amenity":"parking"},"geometry":{"type":"MultiPolygon","coordinates":[[[[-4.14726,50.54907],[-4.14707,50.54911],[-4.14702,50.54903],[-4.1472,50.54897],[-4.14726,50.54907]]]]}},
{ "type":"Feature","properties":{"osm_way_id":"918681156","amenity":"parking"},"geometry":{"type":"MultiPolygon","coordinates":[[[[-4.15165,50.54622],[-4.15127,50.54642],[-4.15104,50.54623],[-4.15136,50.54606],[-4.15165,50.54622]]]]}},
{ "type":"Feature","properties":{"osm_way_id":"919950237","amenity":"parking"},"geometry":{"type":"MultiPolygon","coordinates":[[[[-3.89746,50.63952],[-3.89747,50.63948],[-3.89734,50.63942],[-3.89743,50.63934],[-3.89723,50.63933],[-3.89704,50.63937],[-3.89705,50.63946],[-3.89702,50.63951],[-3.89706,50.63955],[-3.89746,50.63952]]]]}},
{ "type":"Feature","properties":{"osm_way_id":"943498393","name":"Tamar Trails Sawmills Car Park","amenity":"parking","other":{"capacity":"50","fee":"Â£2 all day","park_ride":"no","parking":"surface","website":"http:\/\/www.tamartrails.co.uk\/","wheelchair":"yes"}}, "geometry":{"type":"MultiPolygon","coordinates":[[[[-4.20532,50.53459],[-4.20495,50.53463],[-4.20481,50.53417],[-4.20487,50.53417],[-4.20518,50.53413],[-4.20532,50.53459]]]]}},
{ "type":"Feature","properties":{"osm_way_id":"943611216","amenity":"parking","other":{"parking":"surface","surface":"gravel"}}, "geometry":{"type":"MultiPolygon","coordinates":[[[[-4.09364,50.52793],[-4.09346,50.52786],[-4.09344,50.5278],[-4.09347,50.52777],[-4.09357,50.52769],[-4.09373,50.52777],[-4.09364,50.52793]]]]}},
{ "type":"Feature","properties":{"osm_way_id":"945264692","amenity":"parking"},"geometry":{"type":"MultiPolygon","coordinates":[[[[-4.12965,50.50771],[-4.12949,50.50772],[-4.12945,50.50773],[-4.12946,50.50784],[-4.12965,50.50782],[-4.12965,50.50771]]]]}},
{ "type":"Feature","properties":{"osm_way_id":"984942477","name":"Denham Wood\/Bridge Car Park","amenity":"parking","other":{"access":"permissive","fee":"no","operator":"Forestry Commission","parking":"surface"}}, "geometry":{"type":"MultiPolygon","coordinates":[[[[-4.15074,50.48895],[-4.15118,50.48906],[-4.15127,50.48904],[-4.15123,50.48894],[-4.15108,50.48889],[-4.15094,50.48886],[-4.15073,50.48888],[-4.15074,50.48895]]]]}},
{ "type":"Feature","properties":{"osm_way_id":"987226525","amenity":"parking"},"geometry":{"type":"MultiPolygon","coordinates":[[[[-4.08336,50.47126],[-4.08355,50.47125],[-4.08373,50.47126],[-4.0839,50.47131],[-4.08382,50.47138],[-4.08378,50.47137],[-4.08368,50.47135],[-4.08364,50.47134],[-4.08355,50.47134],[-4.08348,50.47134],[-4.08336,50.47136],[-4.08336,50.47126]]]]}},
{ "type":"Feature","properties":{"osm_way_id":"993580212","amenity":"parking"},"geometry":{"type":"MultiPolygon","coordinates":[[[[-4.10235,50.68819],[-4.10223,50.68807],[-4.10172,50.68828],[-4.10184,50.6884],[-4.10235,50.68819]]]]}},
{ "type":"Feature","properties":{"osm_way_id":"1004637541","amenity":"parking"},"geometry":{"type":"MultiPolygon","coordinates":[[[[-5.08317,51.7594],[-5.08314,51.75945],[-5.08296,51.75949],[-5.08285,51.75926],[-5.08289,51.75914],[-5.08318,51.75916],[-5.08321,51.7591],[-5.08323,51.75908],[-5.08337,51.75909],[-5.08341,51.75918],[-5.08324,51.75921],[-5.08332,51.75933],[-5.08317,51.7594]]]]}},
{ "type":"Feature","properties":{"osm_way_id":"1017787327","amenity":"parking","other":{"access":"customers"}}, "geometry":{"type":"MultiPolygon","coordinates":[[[[-4.10544,50.68426],[-4.10544,50.68417],[-4.10543,50.68411],[-4.10541,50.68409],[-4.10534,50.68408],[-4.10519,50.68408],[-4.10513,50.68407],[-4.1051,50.68411],[-4.1051,50.68416],[-4.10511,50.68422],[-4.10538,50.68425],[-4.10544,50.68426]]]]}},
{ "type":"Feature","properties":{"osm_way_id":"1035337173","amenity":"parking","other":{"access":"yes","fee":"no","parking":"street_side"}}, "geometry":{"type":"MultiPolygon","coordinates":[[[[-3.98289,50.73353],[-3.98288,50.73352],[-3.98257,50.73365],[-3.9822,50.73383],[-3.98164,50.73414],[-3.98124,50.73442],[-3.98126,50.73443],[-3.98197,50.734],[-3.98248,50.73373],[-3.98289,50.73353]]]]}},
{ "type":"Feature","properties":{"osm_way_id":"1037169621","amenity":"parking","other":{"access":"customers","parking":"surface","surface":"asphalt"}}, "geometry":{"type":"MultiPolygon","coordinates":[[[[-4.14622,50.53802],[-4.14621,50.53813],[-4.14582,50.53847],[-4.1456,50.53861],[-4.14524,50.53858],[-4.14512,50.53847],[-4.14559,50.53828],[-4.14529,50.53798],[-4.14522,50.53801],[-4.14514,50.53793],[-4.14511,50.53789],[-4.14561,50.5377],[-4.14622,50.53802]]]]}},
{ "type":"Feature","properties":{"osm_way_id":"1039986421","amenity":"parking","other":{"access":"customers","fee":"no","parking":"surface","surface":"asphalt"}}, "geometry":{"type":"MultiPolygon","coordinates":[[[[-4.25842,50.56215],[-4.25827,50.56204],[-4.25837,50.56199],[-4.25852,50.5621],[-4.25842,50.56215]]]]}}
]
}
