{
"type": "FeatureCollection",
"features": [
{ "type":"Feature","properties":{"osm_id":"1577876735","name":"Tesco Metro","other":{"addr:city":"Leamington Spa","addr:housenumber":"22-24","addr:postcode":"CV32 4DN","addr:street":"Parade","air_conditioning":"yes","brand":"Tesco Metro","brand:wikidata":"Q57551648","changing_table":"no","contact:website":"https:\/\/www.tesco.com\/store-locator\/leamington-spa\/22-24-parade","diet:halal":"no","diet:kosher":"no","fhrs:id":"241608","level":"0","opening_hours":"Mo-Fr 06:00-23:00; Sa 06:00-22:00; Su 10:00-16:00","shop":"supermarket","source:addr":"FHRS Open Data","toilets":"no","wheelchair":"designated"}}, "geometry":{"type":"Point","coordinates":[-1.53617,52.29256 ]}},
{ "type":"Feature","properties":{"osm_id":"6260281190","name":"Co-op Food","other":{"addr:city":"Leamington Spa","addr:housenumber":"156","addr:postcode":"CV32 4BQ","addr:street":"Parade","brand":"Co-op Food","brand:wikidata":"Q3277439","brand:wikipedia":"en:Co-op Food","fhrs:id":"699044","opening_hours":"Mo-Su 07:00-21:00","operator":"The Co-operative Group","operator:wikidata":"Q117202","operator:wikipedia":"en:The Co-operative Group","shop":"supermarket"}}, "geometry":{"type":"Point","coordinates":[-1.53539,52.28844 ]}},
{ "type":"Feature","properties":{"osm_way_id":"42359964","name":"Tesco","building":"yes","shop":"supermarket","other":{"addr:city":"Warwick","addr:postcode":"CV34 5QJ","addr:street":"Emscote Road","brand":"Tesco","brand:wikidata":"Q487494","brand:wikipedia":"en:Tesco","fhrs:id":"241665"}}, "geometry":{"type":"MultiPolygon","coordinates":[[[[-1.56372,52.28653],[-1.56363,52.2865],[-1.56283,52.28632],[-1.56279,52.28639],[-1.56261,52.28634],[-1.56266,52.28626],[-1.56252,52.28623],[-1.56268,52.28597],[-1.56284,52.286],[-1.56315,52.28549],[-1.56416,52.28573],[-1.56401,52.28598],[-1.56406,52.28599],[-1.56372,52.28653]]]]}},
{ "type":"Feature","properties":{"osm_way_id":"46581604","name":"Asda","building":"retail","shop":"supermarket","other":{"addr:city":"Leamington Spa","addr:country":"GB","addr:postcode":"CV31 1YD","addr:street":"Chesterton Drive","brand":"Asda","brand:wikidata":"Q297410","brand:wikipedia":"en:Asda","contact:facebook":"https:\/\/www.facebook.com\/asda\/","contact:phone":"+44 1926 311656","contact:twitter":"@asda","contact:website":"https:\/\/storelocator.asda.com\/west-midlands\/leamington-spa\/chesterton-drive","fhrs:id":"242789","opening_hours":"Mo-Fr 07:00-23:00;Sa 07:00-21:00;Su 10:00-16:00","operator":"Asda Stores Ltd"}}, "geometry":{"type":"MultiPolygon","coordinates":[[[[-1.51633,52.27647],[-1.51521,52.27647],[-1.51521,52.27638],[-1.51494,52.27638],[-1.51493,52.27603],[-1.51524,52.27602],[-1.51522,52.27574],[-1.51517,52.27573],[-1.51517,52.27563],[-1.51532,52.27563],[-1.51533,52.27573],[-1.51545,52.27573],[-1.51545,52.27567],[-1.51615,52.27567],[-1.5163,52.27575],[-1.51631,52.27599],[-1.51644,52.27599],[-1.51645,52.27631],[-1.51632,52.27631],[-1.51633,52.27647]]]]}},
{ "type":"Feature","properties":{"osm_way_id":"55264267","name":"Sainsbury's","building":"yes","shop":"supermarket","other":{"addr:city":"Warwick","addr:postcode":"CV34 4TR","addr:street":"Saltisford","branch":"Warwick Superstore","brand":"Sainsbury's","brand:wikidata":"Q152096","brand:wikipedia":"en:Sainsbury's","fhrs:id":"242139","opening_hours":"Mo-Sa 07:00-22:00; Su 10:00-16:00","phone":"+44 1926 493449"}}, "geometry":{"type":"MultiPolygon","coordinates":[[[[-1.59379,52.28425],[-1.59332,52.28458],[-1.59316,52.2845],[-1.59296,52.28463],[-1.59279,52.28454],[-1.59274,52.28458],[-1.59262,52.28452],[-1.5926,52.28453],[-1.59254,52.2845],[-1.59255,52.28448],[-1.59244,52.28442],[-1.5924,52.28445],[-1.59226,52.28437],[-1.59268,52.28408],[-1.59263,52.28406],[-1.59298,52.28381],[-1.59314,52.2839],[-1.5931,52.28392],[-1.59313,52.28394],[-1.59341,52.28409],[-1.59344,52.28406],[-1.59379,52.28425]]]]}},
{ "type":"Feature","properties":{"osm_way_id":"94016673","name":"Sainsbury's","building":"yes","shop":"supermarket","other":{"addr:city":"Warwick","addr:postcode":"CV34 6RH","addr:street":"Tachbrook Park Drive","brand":"Sainsbury's","brand:wikidata":"Q152096","brand:wikipedia":"en:Sainsbury's","fhrs:id":"242098","layer":"1","opening_hours":"Mo-Sa 07:00-22:00; Su 10:00-16:00"}}, "geometry":{"type":"MultiPolygon","coordinates":[[[[-1.54789,52.27876],[-1.54772,52.27828],[-1.54761,52.2783],[-1.54754,52.27809],[-1.54749,52.27809],[-1.54748,52.27807],[-1.54644,52.27822],[-1.54645,52.27824],[-1.54637,52.27825],[-1.54642,52.27839],[-1.54619,52.27842],[-1.54578,52.27849],[-1.54599,52.27905],[-1.54628,52.27903],[-1.5467,52.27897],[-1.5467,52.27899],[-1.54695,52.27895],[-1.54694,52.27894],[-1.54742,52.27888],[-1.5474,52.27883],[-1.54751,52.27881],[-1.54751,52.27882],[-1.54766,52.2788],[-1.54766,52.27879],[-1.54789,52.27876]]]]}},
{ "type":"Feature","properties":{"osm_way_id":"125959428","name":"Lidl","building":"retail","shop":"supermarket","other":{"addr:city":"Warwick","addr:postcode":"CV31 3NY","addr:street":"Myton Road","brand":"Lidl","brand:wikidata":"Q151954","brand:wikipedia":"en:Lidl","fhrs:id":"242800"}}, "geometry":{"type":"MultiPolygon","coordinates":[[[[-1.55219,52.28283],[-1.55296,52.28274],[-1.55288,52.28249],[-1.55258,52.28253],[-1.55256,52.28247],[-1.55241,52.28249],[-1.55243,52.28254],[-1.55211,52.28258],[-1.55219,52.28283]]]]}},
{ "type":"Feature","properties":{"osm_way_id":"184450066","name":"Morrisons","building":"yes","shop":"supermarket","other":{"addr:city":"Leamington Spa","addr:postcode":"CV31 3NT","addr:street":"Old Warwick Road","brand":"Morrisons","brand:wikidata":"Q922344","brand:wikipedia":"en:Morrisons","fhrs:id":"554880"}}, "geometry":{"type":"MultiPolygon","coordinates":[[[[-1.545,52.28413],[-1.54389,52.28439],[-1.54388,52.28437],[-1.54354,52.28381],[-1.5435,52.28374],[-1.54461,52.28349],[-1.545,52.28413]]]]}},
{ "type":"Feature","properties":{"osm_way_id":"246189884","name":"Co-op Food","building":"retail","shop":"supermarket","other":{"addr:city":"Warwick","addr:housenumber":"16","addr:postcode":"CV34 5RN","addr:street":"Reardon Court","brand":"Co-op Food","brand:wikidata":"Q3277439","brand:wikipedia":"en:Co-op Food","fhrs:id":"623681","operator":"The Co-operative Group","operator:wikidata":"Q117202","operator:wikipedia":"en:The Co-operative Group"}}, "geometry":{"type":"MultiPolygon","coordinates":[[[[-1.58683,52.29504],[-1.58708,52.29499],[-1.58695,52.29475],[-1.58669,52.2948],[-1.58683,52.29504]]]]}},
{ "type":"Feature","properties":{"osm_way_id":"256418124","name":"ALDI","building":"retail","shop":"supermarket","other":{"addr:city":"Leamington Spa","addr:postcode":"CV31 3LZ","addr:street":"Queensway","brand":"ALDI","brand:wikidata":"Q41171672","brand:wikipedia":"en:Aldi","fhrs:id":"668045","opening_hours":"Mo-Sa 08:00-22:00, Su 10:00-16:00","payment:american_express":"yes","payment:cash":"yes","payment:coins":"yes","payment:contactless":"yes","payment:credit_cards":"yes","payment:debit_cards":"yes","payment:mastercard":"yes","payment:visa":"yes","website":"https:\/\/www.aldi.co.uk\/store\/s-uk-E0732","wheelchair":"yes"}}, "geometry":{"type":"MultiPolygon","coordinates":[[[[-1.54539,52.28047],[-1.54505,52.28065],[-1.54508,52.28067],[-1.54482,52.2808],[-1.54456,52.28063],[-1.5446,52.28061],[-1.54453,52.28056],[-1.54519,52.28021],[-1.54527,52.28027],[-1.54517,52.28032],[-1.54539,52.28047]]]]}},
{ "type":"Feature","properties":{"osm_way_id":"276393726","name":"Waitrose","building":"retail","shop":"supermarket","other":{"addr:city":"Kenilworth","addr:housenumber":"51","addr:postcode":"CV8 1JP","addr:street":"Bertie Road","brand":"Waitrose","brand:wikidata":"Q771734","brand:wikipedia":"en:Waitrose","fhrs:id":"241899","official_name":"Waitrose & Partners","opening_hours":"Mo-Sa 08:00-21:00; Su 10:00-16:00","operator":"Waitrose & Partners","payment:american_express":"yes","payment:cash":"yes","payment:contactless":"yes","payment:credit_cards":"yes","payment:debit_cards":"yes","payment:mastercard":"yes","payment:visa":"yes","wheelchair":"yes"}}, "geometry":{"type":"MultiPolygon","coordinates":[[[[-1.57757,52.34217],[-1.57732,52.34177],[-1.57742,52.34174],[-1.57739,52.3417],[-1.57738,52.34169],[-1.57654,52.34191],[-1.57658,52.34197],[-1.57651,52.34198],[-1.57672,52.34231],[-1.5768,52.34242],[-1.57703,52.34236],[-1.57702,52.34235],[-1.5772,52.3423],[-1.57718,52.34227],[-1.57757,52.34217]]]]}},
{ "type":"Feature","properties":{"osm_way_id":"276393735","name":"Sainsbury's","building":"retail","shop":"supermarket","other":{"addr:city":"Kenilworth","addr:housenumber":"60-66","addr:postcode":"CV8 1HH","addr:street":"Warwick Road","brand":"Sainsbury's","brand:wikidata":"Q152096","brand:wikipedia":"en:Sainsbury's","fhrs:id":"242613","opening_hours":"Mo-Sa 08:00-21:00; Su 10:00-16:00","operator":"Sainsbury's","payment:american_express":"yes","payment:cash":"yes","payment:credit_cards":"yes","payment:debit_cards":"yes","payment:mastercard":"yes","payment:visa":"yes","website":"https:\/\/stores.sainsburys.co.uk\/0552\/kenilworth","wheelchair":"yes"}}, "geometry":{"type":"MultiPolygon","coordinates":[[[[-1.57843,52.34044],[-1.57828,52.34029],[-1.57825,52.34026],[-1.57797,52.34036],[-1.57793,52.34038],[-1.57788,52.3404],[-1.57784,52.34041],[-1.57763,52.34049],[-1.57759,52.34051],[-1.57768,52.3406],[-1.57729,52.34074],[-1.57743,52.34088],[-1.57776,52.34076],[-1.57784,52.34084],[-1.57787,52.34083],[-1.57844,52.3406],[-1.57832,52.34048],[-1.57843,52.34044]]]]}},
{ "type":"Feature","properties":{"osm_way_id":"333876755","name":"Co-op Food","building":"retail","shop":"supermarket","other":{"addr:city":"Leamington Spa","addr:housenumber":"34-56","addr:postcode":"CV31 2DN","addr:street":"Clemens Street","brand":"Co-op Food","brand:wikidata":"Q3277439","brand:wikipedia":"en:Co-op Food","building:levels":"2","old_name":"Somerfield","opening_hours":"Mo-Sa 07:00-22:00, Su 11:00-17:00","operator":"The Co-operative Group","operator:wikidata":"Q117202","operator:wikipedia":"en:The Co-operative Group","phone":"+44 1926 335284","roof:levels":"0","website":"https:\/\/www.co-operative.coop\/food\/"}}, "geometry":{"type":"MultiPolygon","coordinates":[[[[-1.53219,52.28305],[-1.5321,52.28306],[-1.53175,52.28312],[-1.53171,52.28302],[-1.53173,52.28302],[-1.53168,52.28291],[-1.5321,52.28284],[-1.53219,52.28305]]]]}},
{ "type":"Feature","properties":{"osm_way_id":"423946558","name":"Co-op Food","building":"retail","shop":"supermarket","other":{"addr:city":"Warwick","addr:housenumber":"90","addr:postcode":"CV34 5DH","addr:street":"Cape Road","brand":"Co-op Food","brand:wikidata":"Q3277439","brand:wikipedia":"en:Co-op Food","fhrs:id":"1002310","opening_hours":"07:00-23:00","operator":"The Co-operative Group","operator:wikidata":"Q117202","operator:wikipedia":"en:The Co-operative Group","phone":"+44 1926 496457"}}, "geometry":{"type":"MultiPolygon","coordinates":[[[[-1.59417,52.28948],[-1.59397,52.28949],[-1.59397,52.28953],[-1.59388,52.28953],[-1.59389,52.28955],[-1.5937,52.28956],[-1.59369,52.28946],[-1.59375,52.28946],[-1.59374,52.28943],[-1.59395,52.28943],[-1.59395,52.28941],[-1.59406,52.28941],[-1.59407,52.28943],[-1.59416,52.28943],[-1.59417,52.28948]]]]}},
{ "type":"Feature","properties":{"osm_way_id":"434856381","name":"Asda","building":"retail","shop":"supermarket","other":{"addr:city":"Leamington Spa","addr:country":"GB","addr:housenumber":"130","addr:postcode":"CV32 6DN","addr:street":"Rugby Road","brand":"Asda","brand:wikidata":"Q297410","brand:wikipedia":"en:Asda","building:levels":"1","contact:facebook":"https:\/\/www.facebook.com\/asda\/","contact:twitter":"@asda","contact:website":"https:\/\/storelocator.asda.com\/west-midlands\/leamington-spa-warwickshire\/130-rugby-road","diet:halal":"no","diet:kosher":"no","fhrs:id":"242468","opening_hours":"Mo-Su 07:00-23:00","operator":"Asda Stores Ltd","payment:cash":"yes","payment:coins":"yes","payment:contactless":"yes","payment:credit_cards":"yes","payment:cryptocurrencies":"no","payment:debit_cards":"yes","payment:electronic_purses":"no","payment:maestro":"yes","payment:mastercard":"yes","payment:notes":"yes","payment:visa":"yes","payment:visa_debit":"yes","roof:levels":"0","roof:shape":"flat","wheelchair":"yes"}}, "geometry":{"type":"MultiPolygon","coordinates":[[[[-1.54776,52.29326],[-1.54771,52.29328],[-1.54761,52.29334],[-1.54757,52.29336],[-1.54748,52.29329],[-1.54752,52.29327],[-1.54753,52.29327],[-1.54768,52.2932],[-1.54776,52.29326]]]]}},
{ "type":"Feature","properties":{"osm_way_id":"758815287","name":"simplyfresh","building":"retail","shop":"supermarket","other":{"addr:street":"Roseland Road","opening_hours":"Mo-Su 06:30-21:30"}}, "geometry":{"type":"MultiPolygon","coordinates":[[[[-1.57971,52.33631],[-1.57962,52.33613],[-1.57953,52.33614],[-1.57952,52.33611],[-1.57947,52.33612],[-1.57953,52.33625],[-1.57956,52.33632],[-1.57957,52.33633],[-1.57971,52.33631]]]]}},
{ "type":"Feature","properties":{"osm_way_id":"1002264419","name":"Lidl","building":"yes","shop":"supermarket","other":{"addr:city":"Warwick","addr:country":"GB","addr:housenumber":"46-48","addr:postcode":"CV34 4QP","addr:street":"Emscote Road","brand":"Lidl","brand:wikidata":"Q151954","brand:wikipedia":"en:Lidl","fhrs:id":"1393475"}}, "geometry":{"type":"MultiPolygon","coordinates":[[[[-1.57106,52.28593],[-1.5716,52.28594],[-1.57154,52.28514],[-1.57102,52.28516],[-1.57106,52.28593]]]]}}
]
}
