{
"type": "FeatureCollection",
"features": [
{ "type":"Feature","properties":{"osm_id":"2902874275","name":"VioVet Ltd.","other":{"addr:city":"Luton","addr:housenumber":"53","addr:postcode":"LU1 1UU","addr:street":"Bilton Way","building":"warehouse","phone":"+44 1582842096","website":"https:\/\/www.viovet.co.uk\/"}}, "geometry":{"type":"Point","coordinates":[-0.45209,51.88501 ]}},
{ "type":"Feature","properties":{"osm_way_id":"110313453","name":"Barratt Industrial Park","building":"warehouse","other":{"addr:postcode":"LU2 9NH"}}, "geometry":{"type":"MultiPolygon","coordinates":[[[[-0.38706,51.87396],[-0.38779,51.87366],[-0.38783,51.8737],[-0.38838,51.87348],[-0.38826,51.87337],[-0.38845,51.87329],[-0.38839,51.87323],[-0.38847,51.8732],[-0.38833,51.87307],[-0.38824,51.87311],[-0.38821,51.87307],[-0.38802,51.87315],[-0.38811,51.87322],[-0.38783,51.87333],[-0.38778,51.87329],[-0.38759,51.87336],[-0.38765,51.87341],[-0.38749,51.87347],[-0.38744,51.87342],[-0.38719,51.87352],[-0.38725,51.87357],[-0.38695,51.87369],[-0.3869,51.87365],[-0.38678,51.8737],[-0.38683,51.87374],[-0.38706,51.87396]]]]}},
{ "type":"Feature","properties":{"osm_way_id":"418970951","name":"Central Cash & Carry","building":"warehouse","other":{"addr:city":"Luton","addr:country":"GB","addr:housenumber":"4","addr:postcode":"LU1 3AN","addr:street":"Union Street","fhrs:authority":"Luton","fhrs:id":"359272","fhrs:local_authority_id":"21544"}}, "geometry":{"type":"MultiPolygon","coordinates":[[[[-0.4144,51.87525],[-0.41468,51.87533],[-0.415,51.87494],[-0.41472,51.87486],[-0.4144,51.87525]]]]}},
{ "type":"Feature","properties":{"osm_way_id":"419240867","building":"warehouse"},"geometry":{"type":"MultiPolygon","coordinates":[[[[-0.40351,51.87676],[-0.40364,51.87708],[-0.40387,51.87705],[-0.40375,51.87673],[-0.40351,51.87676]]]]}},
{ "type":"Feature","properties":{"osm_way_id":"419240868","building":"warehouse"},"geometry":{"type":"MultiPolygon","coordinates":[[[[-0.40367,51.87712],[-0.40389,51.87753],[-0.40412,51.87748],[-0.4039,51.87707],[-0.40367,51.87712]]]]}},
{ "type":"Feature","properties":{"osm_way_id":"419240869","building":"warehouse"},"geometry":{"type":"MultiPolygon","coordinates":[[[[-0.40392,51.87757],[-0.40434,51.87808],[-0.40455,51.87801],[-0.40414,51.8775],[-0.40392,51.87757]]]]}},
{ "type":"Feature","properties":{"osm_way_id":"419240870","name":"Cross","building":"warehouse","other":{"addr:city":"Luton","addr:street":"Thistle Road"}}, "geometry":{"type":"MultiPolygon","coordinates":[[[[-0.40497,51.87783],[-0.40552,51.87768],[-0.4054,51.87752],[-0.4053,51.87755],[-0.40519,51.8774],[-0.40484,51.8775],[-0.40495,51.87765],[-0.40485,51.87768],[-0.40497,51.87783]]]]}},
{ "type":"Feature","properties":{"osm_way_id":"419240871","building":"warehouse","other":{"addr:postcode":"LU1 3XJ"}}, "geometry":{"type":"MultiPolygon","coordinates":[[[[-0.40432,51.87687],[-0.4047,51.87748],[-0.4051,51.87738],[-0.40497,51.87717],[-0.40488,51.87719],[-0.40475,51.877],[-0.40466,51.87702],[-0.40454,51.87682],[-0.40432,51.87687]]]]}},
{ "type":"Feature","properties":{"osm_way_id":"505300975","name":"Booker Cash And Carry","building":"warehouse","other":{"addr:city":"Luton","addr:country":"GB","addr:housenumber":"1","addr:postcode":"LU3 3AN","addr:street":"Camford Way","fhrs:authority":"Luton","fhrs:id":"657326","fhrs:local_authority_id":"3214"}}, "geometry":{"type":"MultiPolygon","coordinates":[[[[-0.47608,51.92323],[-0.47563,51.92245],[-0.4766,51.92224],[-0.47671,51.92243],[-0.47696,51.92238],[-0.47729,51.92296],[-0.47608,51.92323]]]]}},
{ "type":"Feature","properties":{"osm_way_id":"505301074","building":"warehouse"},"geometry":{"type":"MultiPolygon","coordinates":[[[[-0.47901,51.91306],[-0.47969,51.91318],[-0.47959,51.91345],[-0.47942,51.91342],[-0.47948,51.91326],[-0.47896,51.91316],[-0.47901,51.91306]]]]}},
{ "type":"Feature","properties":{"osm_way_id":"505301075","building":"warehouse"},"geometry":{"type":"MultiPolygon","coordinates":[[[[-0.48029,51.91337],[-0.48035,51.91319],[-0.4805,51.91321],[-0.48046,51.91334],[-0.48052,51.91339],[-0.48035,51.91344],[-0.48029,51.91337]]]]}},
{ "type":"Feature","properties":{"osm_way_id":"505301076","building":"warehouse","other":{"addr:postcode":"LU4 9UP"}}, "geometry":{"type":"MultiPolygon","coordinates":[[[[-0.48039,51.91298],[-0.48046,51.91285],[-0.4813,51.91299],[-0.48123,51.91313],[-0.48039,51.91298]]]]}},
{ "type":"Feature","properties":{"osm_way_id":"505301077","building":"warehouse"},"geometry":{"type":"MultiPolygon","coordinates":[[[[-0.47627,51.91276],[-0.47642,51.91245],[-0.47693,51.91254],[-0.47703,51.91256],[-0.47688,51.91287],[-0.47627,51.91276]]]]}},
{ "type":"Feature","properties":{"osm_way_id":"505301081","building":"warehouse"},"geometry":{"type":"MultiPolygon","coordinates":[[[[-0.47848,51.91289],[-0.47879,51.91294],[-0.47871,51.91315],[-0.4784,51.91311],[-0.47848,51.91289]]]]}},
{ "type":"Feature","properties":{"osm_way_id":"505301082","building":"warehouse"},"geometry":{"type":"MultiPolygon","coordinates":[[[[-0.4781,51.91281],[-0.47826,51.91284],[-0.47822,51.91296],[-0.47805,51.91293],[-0.4781,51.91281]]]]}},
{ "type":"Feature","properties":{"osm_way_id":"693632319","name":"Bell Packaging","building":"warehouse","other":{"addr:postcode":"LU2 9NH","email":"info@bellpackaging.com","fax":"+44 (0)1582 450181","phone":"+44 1582 459292","website":"http:\/\/www.bellpackaging.com"}}, "geometry":{"type":"MultiPolygon","coordinates":[[[[-0.38683,51.87374],[-0.38665,51.87382],[-0.38688,51.87403],[-0.38706,51.87396],[-0.38683,51.87374]]]]}},
{ "type":"Feature","properties":{"osm_way_id":"706690163","building":"warehouse"},"geometry":{"type":"MultiPolygon","coordinates":[[[[-0.48358,51.88897],[-0.48183,51.88907],[-0.48145,51.88906],[-0.48142,51.88899],[-0.48093,51.889],[-0.48089,51.88875],[-0.48081,51.88875],[-0.48081,51.8886],[-0.48162,51.88855],[-0.48164,51.88861],[-0.48351,51.8885],[-0.48358,51.88897]]]]}},
{ "type":"Feature","properties":{"osm_way_id":"846455642","building":"warehouse"},"geometry":{"type":"MultiPolygon","coordinates":[[[[-0.46485,51.90302],[-0.46482,51.90294],[-0.46499,51.90291],[-0.46503,51.90299],[-0.46485,51.90302]]]]}},
{ "type":"Feature","properties":{"osm_way_id":"848450535","building":"warehouse"},"geometry":{"type":"MultiPolygon","coordinates":[[[[-0.47825,51.91278],[-0.47703,51.91256],[-0.47693,51.91254],[-0.47706,51.91227],[-0.47838,51.91251],[-0.47825,51.91278]]]]}},
{ "type":"Feature","properties":{"osm_way_id":"965458379","name":"Rodreid","building":"warehouse"},"geometry":{"type":"MultiPolygon","coordinates":[[[[-0.46835,51.9019],[-0.46844,51.90194],[-0.46847,51.90195],[-0.46832,51.90207],[-0.4682,51.90203],[-0.46821,51.90202],[-0.46835,51.9019]]]]}},
{ "type":"Feature","properties":{"osm_way_id":"974763147","building":"warehouse"},"geometry":{"type":"MultiPolygon","coordinates":[[[[-0.46025,51.90012],[-0.46014,51.90002],[-0.46,51.90008],[-0.46012,51.90018],[-0.46025,51.90012]]]]}},
{ "type":"Feature","properties":{"osm_way_id":"1025263651","building":"warehouse"},"geometry":{"type":"MultiPolygon","coordinates":[[[[-0.4453,51.88612],[-0.44454,51.88614],[-0.44442,51.88549],[-0.44521,51.88545],[-0.4453,51.88612]]]]}}
]
}
