{
"type": "FeatureCollection",
"features": [
{ "type":"Feature","properties":{"osm_id":"88760248","other":{"amenity":"parking","layer":"-1","parking":"underground"}}, "geometry":{"type":"Point","coordinates":[-0.17297,51.485 ]}},
{ "type":"Feature","properties":{"osm_id":"306472064","name":"Harrods Car Park","other":{"amenity":"parking"}}, "geometry":{"type":"Point","coordinates":[-0.16373,51.49823 ]}},
{ "type":"Feature","properties":{"osm_id":"307847790","other":{"amenity":"parking_entrance"}}, "geometry":{"type":"Point","coordinates":[-0.20255,51.49324 ]}},
{ "type":"Feature","properties":{"osm_id":"443289142","other":{"access":"yes","amenity":"parking","fee":"yes","layer":"-1","operator":"Sloane Square Car Park","parking":"underground","phone":"+44 800 024 3974","website":"https:\/\/www.parking-pros.co.uk\/sloane-square-car-park\/"}}, "geometry":{"type":"Point","coordinates":[-0.16085,51.49024 ]}},
{ "type":"Feature","properties":{"osm_id":"448513051","name":"Cadogan Place NCP","other":{"access":"yes","amenity":"parking","fee":"yes","parking":"underground"}}, "geometry":{"type":"Point","coordinates":[-0.15812,51.49773 ]}},
{ "type":"Feature","properties":{"osm_id":"598995279","other":{"access":"customers","amenity":"parking","parking":"surface"}}, "geometry":{"type":"Point","coordinates":[-0.15824,51.49845 ]}},
{ "type":"Feature","properties":{"osm_id":"731088504","other":{"access":"customers","amenity":"parking"}}, "geometry":{"type":"Point","coordinates":[-0.20289,51.51288 ]}},
{ "type":"Feature","properties":{"osm_id":"866577906","other":{"amenity":"parking_entrance"}}, "geometry":{"type":"Point","coordinates":[-0.16647,51.49117 ]}},
{ "type":"Feature","properties":{"osm_id":"1011806990","other":{"access":"private","amenity":"parking","layer":"-1","parking":"underground"}}, "geometry":{"type":"Point","coordinates":[-0.199,51.50635 ]}},
{ "type":"Feature","properties":{"osm_id":"1116224969","other":{"access":"private","amenity":"parking","capacity":"8","parking":"surface"}}, "geometry":{"type":"Point","coordinates":[-0.20579,51.52215 ]}},
{ "type":"Feature","properties":{"osm_id":"1208870263","other":{"amenity":"parking","layer":"-1","parking":"underground"}}, "geometry":{"type":"Point","coordinates":[-0.17092,51.48781 ]}},
{ "type":"Feature","properties":{"osm_id":"1263657574","other":{"amenity":"parking","layer":"-1","parking":"underground"}}, "geometry":{"type":"Point","coordinates":[-0.18355,51.50091 ]}},
{ "type":"Feature","properties":{"osm_id":"1268387256","other":{"amenity":"parking","layer":"-1","parking":"underground"}}, "geometry":{"type":"Point","coordinates":[-0.18498,51.48181 ]}},
{ "type":"Feature","properties":{"osm_id":"1313310990","other":{"amenity":"parking"}}, "geometry":{"type":"Point","coordinates":[-0.208,51.51597 ]}},
{ "type":"Feature","properties":{"osm_id":"1478158242","name":"Euro Car Park","other":{"access":"yes","amenity":"parking","fee":"yes","layer":"-1","parking":"underground"}}, "geometry":{"type":"Point","coordinates":[-0.18848,51.50256 ]}},
{ "type":"Feature","properties":{"osm_id":"1718283890","name":"Reindeer Antiques","other":{"addr:housenumber":"81","addr:street":"Kensington Church Street","phone":"+44 20 7937 3754","shop":"antiques","website":"https:\/\/www.reindeerantiques.co.uk\/"}}, "geometry":{"type":"Point","coordinates":[-0.19386,51.50481 ]}},
{ "type":"Feature","properties":{"osm_id":"1718283901","name":"Savills","other":{"addr:city":"London","addr:housenumber":"145","addr:street":"Kensington Church Street","phone":"+44 20 7535 3300","shop":"estate_agent","website":"https:\/\/www.savills.co.uk\/estate-agents\/savills-kensington.aspx"}}, "geometry":{"type":"Point","coordinates":[-0.1951,51.50784 ]}},
{ "type":"Feature","properties":{"osm_id":"3059855778","name":"London Park Towers Hotel","other":{"amenity":"parking","capacity":"70","capacity:disabled":"0","fee":"yes","layer":"-1","lit":"yes","maxstay":"30+","opening_hours":"24\/7","operator":"NCP","parking":"underground","surface":"paved"}}, "geometry":{"type":"Point","coordinates":[-0.15885,51.50178 ]}},
{ "type":"Feature","properties":{"osm_id":"5171949886","other":{"amenity":"parking","layer":"-1","parking":"underground"}}, "geometry":{"type":"Point","coordinates":[-0.15646,51.49033 ]}},
{ "type":"Feature","properties":{"osm_id":"7086788820","other":{"access":"customers","amenity":"parking","fee":"no"}}, "geometry":{"type":"Point","coordinates":[-0.19267,51.4982 ]}},
{ "type":"Feature","properties":{"osm_id":"7112719379","other":{"access":"customers","amenity":"parking","building":"garage","maxheight":"8'10","operator":"60 Sloane Avenue","operator:type":"private","parking":"sheds"}}, "geometry":{"type":"Point","coordinates":[-0.16664,51.49314 ]}},
{ "type":"Feature","properties":{"osm_id":"7160476064","other":{"amenity":"parking"}}, "geometry":{"type":"Point","coordinates":[-0.19977,51.5137 ]}},
{ "type":"Feature","properties":{"osm_id":"7449297023","other":{"amenity":"parking","layer":"-1","parking":"underground"}}, "geometry":{"type":"Point","coordinates":[-0.19793,51.50297 ]}},
{ "type":"Feature","properties":{"osm_id":"7449297086","other":{"amenity":"parking","layer":"-1","parking":"underground"}}, "geometry":{"type":"Point","coordinates":[-0.19698,51.50298 ]}},
{ "type":"Feature","properties":{"osm_id":"7456829184","other":{"amenity":"parking","layer":"-1","parking":"underground"}}, "geometry":{"type":"Point","coordinates":[-0.1998,51.5064 ]}},
{ "type":"Feature","properties":{"osm_id":"7485302787","other":{"amenity":"parking","layer":"-1","parking":"underground"}}, "geometry":{"type":"Point","coordinates":[-0.19758,51.50718 ]}},
{ "type":"Feature","properties":{"osm_id":"7538985135","name":"Nell Gwynn House garages","other":{"access":"yes","amenity":"parking","fee":"yes","layer":"-1","opening_hours":"Mo-Fr 07:00-19:00","operator":"Nell Gwynn House","operator:type":"private","parking":"underground"}}, "geometry":{"type":"Point","coordinates":[-0.16518,51.49255 ]}},
{ "type":"Feature","properties":{"osm_id":"7551014609","other":{"amenity":"parking","layer":"-1","parking":"underground"}}, "geometry":{"type":"Point","coordinates":[-0.19299,51.50911 ]}},
{ "type":"Feature","properties":{"osm_id":"7563549237","other":{"amenity":"parking","layer":"-1","parking":"underground"}}, "geometry":{"type":"Point","coordinates":[-0.18113,51.50027 ]}},
{ "type":"Feature","properties":{"osm_id":"7644979852","other":{"amenity":"parking","layer":"-1","parking":"underground"}}, "geometry":{"type":"Point","coordinates":[-0.18909,51.49842 ]}},
{ "type":"Feature","properties":{"osm_id":"7752006041","other":{"amenity":"parking_entrance"}}, "geometry":{"type":"Point","coordinates":[-0.20247,51.49322 ]}},
{ "type":"Feature","properties":{"osm_id":"7770530782","other":{"advertising":"billboard"}}, "geometry":{"type":"Point","coordinates":[-0.19282,51.48892 ]}},
{ "type":"Feature","properties":{"osm_id":"7815483847","other":{"access":"yes","amenity":"parking","email":"parking@chelseacloisters.co.uk","layer":"-1","operator":"Chelsea Cloisters","operator:type":"private","parking":"underground","phone":"+44 7713 739 447"}}, "geometry":{"type":"Point","coordinates":[-0.16667,51.49247 ]}},
{ "type":"Feature","properties":{"osm_id":"7855108852","other":{"amenity":"parking","fee":"yes","parking":"lane"}}, "geometry":{"type":"Point","coordinates":[-0.17641,51.48296 ]}},
{ "type":"Feature","properties":{"osm_id":"7855108853","other":{"amenity":"parking","fee":"yes","parking":"lane"}}, "geometry":{"type":"Point","coordinates":[-0.17608,51.48262 ]}},
{ "type":"Feature","properties":{"osm_id":"7855108863","other":{"amenity":"parking","fee":"yes","parking":"lane"}}, "geometry":{"type":"Point","coordinates":[-0.17569,51.4823 ]}},
{ "type":"Feature","properties":{"osm_id":"7855108864","other":{"amenity":"parking","fee":"yes","parking":"lane"}}, "geometry":{"type":"Point","coordinates":[-0.17549,51.48203 ]}},
{ "type":"Feature","properties":{"osm_id":"7855130028","other":{"access":"private","amenity":"parking","parking":"lane"}}, "geometry":{"type":"Point","coordinates":[-0.17766,51.48187 ]}},
{ "type":"Feature","properties":{"osm_id":"7857339227","other":{"amenity":"parking","fee":"yes","parking":"lane"}}, "geometry":{"type":"Point","coordinates":[-0.17668,51.48326 ]}},
{ "type":"Feature","properties":{"osm_id":"8008388261","other":{"amenity":"parking_entrance"}}, "geometry":{"type":"Point","coordinates":[-0.16084,51.49989 ]}},
{ "type":"Feature","properties":{"osm_id":"8018801097","other":{"access":"private","amenity":"parking","layer":"-1","parking":"underground"}}, "geometry":{"type":"Point","coordinates":[-0.16089,51.48594 ]}},
{ "type":"Feature","properties":{"osm_id":"8022461847","other":{"access":"permissive","amenity":"parking","description":"This is approximate","layer":"-1","operator":"Edith grove car park","parking":"underground","surface":"asphalt"}}, "geometry":{"type":"Point","coordinates":[-0.1802,51.48105 ]}},
{ "type":"Feature","properties":{"osm_id":"8201616200","name":"Chelsea & Westminster Hospital Public Car Park","other":{"amenity":"parking","layer":"-1","maxheight":"1.95","parking":"underground"}}, "geometry":{"type":"Point","coordinates":[-0.18064,51.48474 ]}},
{ "type":"Feature","properties":{"osm_id":"8222886566","other":{"amenity":"parking","layer":"-1","parking":"underground"}}, "geometry":{"type":"Point","coordinates":[-0.17972,51.48611 ]}},
{ "type":"Feature","properties":{"osm_id":"8242038022","other":{"amenity":"parking","layer":"-1","parking":"underground"}}, "geometry":{"type":"Point","coordinates":[-0.17732,51.48751 ]}},
{ "type":"Feature","properties":{"osm_id":"8308257943","name":"Sydney Street Car Park","other":{"amenity":"parking","capacity":"48","layer":"-1","parking":"underground"}}, "geometry":{"type":"Point","coordinates":[-0.16891,51.4879 ]}},
{ "type":"Feature","properties":{"osm_id":"8366125603","other":{"amenity":"parking","layer":"-1","parking":"underground"}}, "geometry":{"type":"Point","coordinates":[-0.16191,51.49012 ]}},
{ "type":"Feature","properties":{"osm_id":"8401318991","other":{"amenity":"parking","layer":"-1","parking":"underground"}}, "geometry":{"type":"Point","coordinates":[-0.16864,51.48686 ]}},
{ "type":"Feature","properties":{"osm_id":"8437173318","other":{"amenity":"parking","layer":"-1","parking":"underground"}}, "geometry":{"type":"Point","coordinates":[-0.17754,51.4813 ]}},
{ "type":"Feature","properties":{"osm_id":"8440069865","other":{"amenity":"parking","layer":"-1","parking":"underground"}}, "geometry":{"type":"Point","coordinates":[-0.18241,51.48087 ]}},
{ "type":"Feature","properties":{"osm_id":"8684626522","other":{"amenity":"parking","surface":"concrete"}}, "geometry":{"type":"Point","coordinates":[-0.17609,51.49518 ]}},
{ "type":"Feature","properties":{"osm_id":"8820969258","other":{"addr:city":"Oakfield, Ryde","addr:housenumber":"12","addr:street":"Upper Highland Road"}}, "geometry":{"type":"Point","coordinates":[-1.15286,50.72169 ]}},
{ "type":"Feature","properties":{"osm_id":"9555937661","other":{"access":"private","amenity":"parking"}}, "geometry":{"type":"Point","coordinates":[-0.18069,51.48452 ]}},
{ "type":"Feature","properties":{"osm_way_id":"6828492","amenity":"parking"},"geometry":{"type":"MultiPolygon","coordinates":[[[[-2.17327,57.209],[-2.17288,57.2087],[-2.17248,57.2088],[-2.17238,57.20883],[-2.1728,57.20909],[-2.17327,57.209]]]]}},
{ "type":"Feature","properties":{"osm_way_id":"23599300","amenity":"parking","other":{"access":"yes","fee":"yes","parking":"surface"}}, "geometry":{"type":"MultiPolygon","coordinates":[[[[-0.20527,51.50199],[-0.20533,51.50203],[-0.20554,51.5019],[-0.20542,51.50182],[-0.20533,51.50177],[-0.20525,51.50171],[-0.20507,51.50161],[-0.20468,51.50138],[-0.2045,51.5015],[-0.20464,51.50159],[-0.20486,51.50172],[-0.20527,51.50199]]]]}},
{ "type":"Feature","properties":{"osm_way_id":"23600789","amenity":"parking"},"geometry":{"type":"MultiPolygon","coordinates":[[[[-0.21856,51.52597],[-0.2186,51.5259],[-0.21884,51.52581],[-0.21889,51.52575],[-0.21851,51.52555],[-0.21746,51.52539],[-0.21737,51.52538],[-0.2171,51.52532],[-0.21689,51.52566],[-0.21646,51.52558],[-0.21649,51.52553],[-0.21643,51.52551],[-0.21641,51.52548],[-0.21637,51.52547],[-0.21631,51.52541],[-0.21613,51.52541],[-0.21567,51.52591],[-0.21557,51.52602],[-0.21557,51.52608],[-0.21573,51.52639],[-0.21627,51.5263],[-0.21634,51.52609],[-0.21682,51.52602],[-0.21675,51.52641],[-0.21688,51.52643],[-0.21719,51.52587],[-0.21728,51.52589],[-0.2173,51.52585],[-0.21748,51.52589],[-0.21752,51.52583],[-0.21816,51.52597],[-0.21819,51.5259],[-0.21856,51.52597]]]]}},
{ "type":"Feature","properties":{"osm_way_id":"27186115","name":"Hyde Park Coach and Car Park","amenity":"parking","other":{"access":"yes","fee":"yes","operator":"Euro Car Parks","parking":"surface"}}, "geometry":{"type":"MultiPolygon","coordinates":[[[[-0.191,51.50983],[-0.19077,51.50937],[-0.18976,51.50947],[-0.18997,51.50992],[-0.19051,51.50987],[-0.191,51.50983]]]]}},
{ "type":"Feature","properties":{"osm_way_id":"37798941","name":"Lots Road Car Pound","amenity":"parking","other":{"access":"private","addr:housenumber":"60","addr:street":"Lots Road","operator":"City of Westminster"}}, "geometry":{"type":"MultiPolygon","coordinates":[[[[-0.18453,51.47768],[-0.18453,51.47771],[-0.18439,51.47777],[-0.18394,51.4779],[-0.18386,51.4779],[-0.18356,51.47757],[-0.18357,51.47755],[-0.18352,51.4775],[-0.18346,51.47749],[-0.18338,51.47741],[-0.18368,51.47749],[-0.18376,51.47754],[-0.18383,51.47756],[-0.1839,51.47755],[-0.18395,51.47753],[-0.18396,51.4775],[-0.18401,51.47749],[-0.18411,51.47746],[-0.18422,51.47741],[-0.18427,51.47746],[-0.18435,51.47743],[-0.18453,51.47768]]]]}},
{ "type":"Feature","properties":{"osm_way_id":"45193774","name":"University Car Park","amenity":"parking","other":{"access":"private"}}, "geometry":{"type":"MultiPolygon","coordinates":[[[[-4.13102,53.22924],[-4.13099,53.22922],[-4.1307,53.22933],[-4.13031,53.22914],[-4.12999,53.22935],[-4.13008,53.2294],[-4.12996,53.22947],[-4.12972,53.22936],[-4.12966,53.2294],[-4.12948,53.22933],[-4.12945,53.22937],[-4.12943,53.22938],[-4.12973,53.22956],[-4.12977,53.22959],[-4.12986,53.22966],[-4.13003,53.2296],[-4.13017,53.22957],[-4.13075,53.22942],[-4.1311,53.2293],[-4.13102,53.22924]]]]}},
{ "type":"Feature","properties":{"osm_way_id":"61157189","amenity":"parking","other":{"fee":"yes","parking":"surface","surface":"concrete"}}, "geometry":{"type":"MultiPolygon","coordinates":[[[[-0.20052,51.50901],[-0.20014,51.50911],[-0.20007,51.509],[-0.19983,51.50906],[-0.19975,51.50896],[-0.20007,51.50894],[-0.20015,51.50894],[-0.20045,51.50892],[-0.20052,51.50901]]]]}},
{ "type":"Feature","properties":{"osm_way_id":"93299816","name":"Wormington Green","amenity":"parking"},"geometry":{"type":"MultiPolygon","coordinates":[[[[-0.21038,51.52328],[-0.21098,51.52294],[-0.2112,51.52309],[-0.21073,51.52337],[-0.21059,51.52332],[-0.21049,51.52332],[-0.21038,51.52328]]]]}},
{ "type":"Feature","properties":{"osm_way_id":"98690426","amenity":"parking","other":{"access":"private"}}, "geometry":{"type":"MultiPolygon","coordinates":[[[[-0.17044,51.49176],[-0.17023,51.49158],[-0.17028,51.49156],[-0.17026,51.49155],[-0.17024,51.49153],[-0.17024,51.49152],[-0.17035,51.49147],[-0.17056,51.49164],[-0.17057,51.49166],[-0.17058,51.49166],[-0.1706,51.49168],[-0.17044,51.49176]]]]}},
{ "type":"Feature","properties":{"osm_way_id":"98701395","amenity":"parking"},"geometry":{"type":"MultiPolygon","coordinates":[[[[-0.169,51.48837],[-0.16894,51.48838],[-0.16897,51.48841],[-0.1689,51.48843],[-0.16885,51.48845],[-0.16869,51.48822],[-0.16886,51.48817],[-0.169,51.48837]]]]}},
{ "type":"Feature","properties":{"osm_way_id":"98858896","amenity":"parking","other":{"access":"private","parking":"surface"}}, "geometry":{"type":"MultiPolygon","coordinates":[[[[-0.16641,51.49149],[-0.16616,51.49132],[-0.16617,51.49129],[-0.16644,51.49115],[-0.16647,51.49117],[-0.16662,51.49126],[-0.16649,51.49133],[-0.16654,51.49139],[-0.16641,51.49149]]]]}},
{ "type":"Feature","properties":{"osm_way_id":"101937643","name":"Sydney Street car park","amenity":"parking","other":{"fee":"yes","parking":"surface"}}, "geometry":{"type":"MultiPolygon","coordinates":[[[[-0.16971,51.48786],[-0.16935,51.48796],[-0.16925,51.48784],[-0.16961,51.48774],[-0.16971,51.48786]]]]}},
{ "type":"Feature","properties":{"osm_way_id":"104779660","amenity":"parking","other":{"access":"private"}}, "geometry":{"type":"MultiPolygon","coordinates":[[[[-0.17091,51.48804],[-0.171,51.48814],[-0.17121,51.48807],[-0.17112,51.48797],[-0.17091,51.48804]]]]}},
{ "type":"Feature","properties":{"osm_way_id":"104779670","amenity":"parking","other":{"access":"private"}}, "geometry":{"type":"MultiPolygon","coordinates":[[[[-0.17137,51.48805],[-0.17147,51.48802],[-0.17146,51.488],[-0.17148,51.48799],[-0.17124,51.48773],[-0.17113,51.48778],[-0.17137,51.48805]]]]}},
{ "type":"Feature","properties":{"osm_way_id":"105036588","amenity":"parking"},"geometry":{"type":"MultiPolygon","coordinates":[[[[-0.17091,51.48358],[-0.17099,51.48355],[-0.17101,51.48357],[-0.17106,51.48355],[-0.17102,51.48351],[-0.17098,51.48346],[-0.17098,51.48347],[-0.17095,51.48344],[-0.17082,51.48348],[-0.17084,51.4835],[-0.17086,51.48352],[-0.17091,51.48358]]]]}},
{ "type":"Feature","properties":{"osm_way_id":"110722826","amenity":"parking"},"geometry":{"type":"MultiPolygon","coordinates":[[[[-0.18271,51.50095],[-0.18278,51.50096],[-0.18302,51.50099],[-0.18314,51.501],[-0.18325,51.50102],[-0.18324,51.50114],[-0.18281,51.50109],[-0.18282,51.50107],[-0.18268,51.50106],[-0.18271,51.50095]]]]}},
{ "type":"Feature","properties":{"osm_way_id":"111299681","amenity":"parking","other":{"access":"private"}}, "geometry":{"type":"MultiPolygon","coordinates":[[[[-0.18515,51.48206],[-0.18531,51.4822],[-0.18538,51.48217],[-0.18521,51.48203],[-0.18515,51.48206]]]]}},
{ "type":"Feature","properties":{"osm_way_id":"111299682","amenity":"parking","other":{"access":"private"}}, "geometry":{"type":"MultiPolygon","coordinates":[[[[-0.18541,51.48228],[-0.18547,51.48225],[-0.1856,51.48237],[-0.18554,51.48239],[-0.18541,51.48228]]]]}},
{ "type":"Feature","properties":{"osm_way_id":"111299691","amenity":"parking"},"geometry":{"type":"MultiPolygon","coordinates":[[[[-0.18555,51.48285],[-0.1858,51.48269],[-0.18574,51.48265],[-0.18567,51.48269],[-0.1856,51.48265],[-0.18543,51.48273],[-0.18544,51.48274],[-0.18555,51.48285]]]]}},
{ "type":"Feature","properties":{"osm_way_id":"111318917","amenity":"parking","other":{"access":"private"}}, "geometry":{"type":"MultiPolygon","coordinates":[[[[-0.17505,51.48293],[-0.17467,51.48255],[-0.17477,51.48252],[-0.17514,51.48289],[-0.17505,51.48293]]]]}},
{ "type":"Feature","properties":{"osm_way_id":"111318939","amenity":"parking","other":{"layer":"1","parking":"rooftop"}}, "geometry":{"type":"MultiPolygon","coordinates":[[[[-0.17632,51.48411],[-0.17654,51.48402],[-0.17661,51.48399],[-0.1766,51.48398],[-0.17668,51.48394],[-0.17666,51.48393],[-0.17651,51.48379],[-0.17643,51.48372],[-0.1761,51.48386],[-0.17615,51.48389],[-0.17613,51.4839],[-0.17611,51.48391],[-0.17614,51.48394],[-0.17618,51.48398],[-0.17622,51.48402],[-0.17625,51.48404],[-0.17626,51.48406],[-0.17627,51.48407],[-0.17628,51.48408],[-0.17632,51.48411]]]]}},
{ "type":"Feature","properties":{"osm_way_id":"111618718","amenity":"parking"},"geometry":{"type":"MultiPolygon","coordinates":[[[[-0.17712,51.48162],[-0.17704,51.48166],[-0.17693,51.48171],[-0.17701,51.48177],[-0.17698,51.48179],[-0.17695,51.4818],[-0.17701,51.48185],[-0.17702,51.48187],[-0.17713,51.48181],[-0.17714,51.48181],[-0.17717,51.48179],[-0.17715,51.48177],[-0.1771,51.48173],[-0.17714,51.48171],[-0.1772,51.48168],[-0.17712,51.48162]]]]}},
{ "type":"Feature","properties":{"osm_way_id":"111629769","amenity":"parking"},"geometry":{"type":"MultiPolygon","coordinates":[[[[-0.17765,51.4819],[-0.17765,51.48191],[-0.17765,51.48197],[-0.17795,51.48199],[-0.1781,51.48193],[-0.17765,51.4819]]]]}},
{ "type":"Feature","properties":{"osm_way_id":"111634952","amenity":"parking","other":{"access":"private"}}, "geometry":{"type":"MultiPolygon","coordinates":[[[[-0.17637,51.48198],[-0.17636,51.48197],[-0.17634,51.48196],[-0.17632,51.48194],[-0.1763,51.48192],[-0.17636,51.4819],[-0.17642,51.48196],[-0.17637,51.48198]]]]}},
{ "type":"Feature","properties":{"osm_way_id":"111634979","amenity":"parking","other":{"access":"permit"}}, "geometry":{"type":"MultiPolygon","coordinates":[[[[-0.17662,51.48261],[-0.17665,51.48264],[-0.17667,51.48263],[-0.17673,51.48269],[-0.17678,51.48269],[-0.17685,51.4827],[-0.17693,51.48272],[-0.177,51.48275],[-0.17703,51.48277],[-0.17704,51.48277],[-0.17709,51.48275],[-0.17687,51.48255],[-0.17685,51.48254],[-0.17682,51.48254],[-0.17662,51.48261]]]]}},
{ "type":"Feature","properties":{"osm_way_id":"111645997","amenity":"parking","other":{"access":"private"}}, "geometry":{"type":"MultiPolygon","coordinates":[[[[-0.18471,51.48328],[-0.18476,51.48325],[-0.18482,51.48328],[-0.18486,51.48325],[-0.18499,51.48332],[-0.18474,51.48348],[-0.18461,51.48334],[-0.18471,51.48328]]]]}},
{ "type":"Feature","properties":{"osm_way_id":"112149995","amenity":"parking","other":{"access":"private"}}, "geometry":{"type":"MultiPolygon","coordinates":[[[[-0.17743,51.48809],[-0.17735,51.48804],[-0.17744,51.48798],[-0.17752,51.48804],[-0.17743,51.48809]]]]}},
{ "type":"Feature","properties":{"osm_way_id":"112261846","amenity":"parking","other":{"access":"private","parking":"surface"}}, "geometry":{"type":"MultiPolygon","coordinates":[[[[-0.16301,51.49223],[-0.16294,51.49228],[-0.16308,51.49237],[-0.16315,51.49233],[-0.16301,51.49223]]]]}},
{ "type":"Feature","properties":{"osm_way_id":"112261891","amenity":"parking","other":{"access":"private","parking":"surface"}}, "geometry":{"type":"MultiPolygon","coordinates":[[[[-0.16259,51.4924],[-0.16249,51.49246],[-0.16262,51.49255],[-0.16273,51.49249],[-0.16259,51.4924]]]]}},
{ "type":"Feature","properties":{"osm_way_id":"112442008","amenity":"parking"},"geometry":{"type":"MultiPolygon","coordinates":[[[[-0.20032,51.49366],[-0.20041,51.49377],[-0.20064,51.49369],[-0.20057,51.49358],[-0.20054,51.49359],[-0.20032,51.49366]]]]}},
{ "type":"Feature","properties":{"osm_way_id":"112442522","amenity":"parking","other":{"access":"private"}}, "geometry":{"type":"MultiPolygon","coordinates":[[[[-0.19773,51.49537],[-0.19748,51.49545],[-0.19746,51.49549],[-0.19732,51.49553],[-0.19728,51.49553],[-0.19695,51.49563],[-0.19691,51.49557],[-0.19769,51.49532],[-0.19773,51.49537]]]]}},
{ "type":"Feature","properties":{"osm_way_id":"112673207","amenity":"parking","other":{"access":"private"}}, "geometry":{"type":"MultiPolygon","coordinates":[[[[-0.19424,51.50918],[-0.19486,51.50907],[-0.19493,51.50905],[-0.19489,51.50892],[-0.19488,51.50888],[-0.19485,51.50881],[-0.19484,51.50875],[-0.19478,51.50859],[-0.19466,51.5086],[-0.19465,51.5086],[-0.19474,51.50903],[-0.19466,51.50905],[-0.19421,51.50913],[-0.19424,51.50918]]]]}},
{ "type":"Feature","properties":{"osm_way_id":"112680188","amenity":"parking","other":{"access":"private"}}, "geometry":{"type":"MultiPolygon","coordinates":[[[[-0.19142,51.49034],[-0.19133,51.49023],[-0.19132,51.49021],[-0.19141,51.49018],[-0.19153,51.49015],[-0.19163,51.49028],[-0.19142,51.49034]]]]}},
{ "type":"Feature","properties":{"osm_way_id":"113678059","amenity":"parking","other":{"access":"private","parking":"surface"}}, "geometry":{"type":"MultiPolygon","coordinates":[[[[-0.19312,51.49535],[-0.1931,51.49508],[-0.19262,51.4951],[-0.19265,51.49537],[-0.19312,51.49535]]]]}},
{ "type":"Feature","properties":{"osm_way_id":"113679300","amenity":"parking"},"geometry":{"type":"MultiPolygon","coordinates":[[[[-0.19366,51.50003],[-0.19369,51.5001],[-0.19401,51.49999],[-0.19393,51.49979],[-0.19385,51.49981],[-0.1939,51.49995],[-0.19366,51.50003]]]]}},
{ "type":"Feature","properties":{"osm_way_id":"113681072","amenity":"parking","other":{"access":"private"}}, "geometry":{"type":"MultiPolygon","coordinates":[[[[-0.19237,51.49986],[-0.19205,51.49998],[-0.19193,51.49985],[-0.19189,51.4998],[-0.19197,51.49978],[-0.19201,51.49983],[-0.19204,51.49981],[-0.19212,51.49966],[-0.19208,51.49957],[-0.19212,51.49956],[-0.19219,51.49954],[-0.19237,51.49986]]]]}},
{ "type":"Feature","properties":{"osm_way_id":"113748135","amenity":"parking"},"geometry":{"type":"MultiPolygon","coordinates":[[[[-0.19271,51.50246],[-0.193,51.50239],[-0.19297,51.50234],[-0.19268,51.50242],[-0.19271,51.50246]]]]}},
{ "type":"Feature","properties":{"osm_way_id":"113752384","amenity":"parking"},"geometry":{"type":"MultiPolygon","coordinates":[[[[-0.19963,51.49574],[-0.19965,51.49572],[-0.19968,51.4957],[-0.19969,51.49567],[-0.19969,51.49564],[-0.19967,51.49561],[-0.19964,51.49559],[-0.19958,51.49558],[-0.19952,51.49559],[-0.19948,51.4956],[-0.19945,51.49562],[-0.19944,51.49564],[-0.1995,51.49573],[-0.19955,51.49572],[-0.19957,51.49576],[-0.19963,51.49574]]]]}},
{ "type":"Feature","properties":{"osm_way_id":"115594407","amenity":"parking"},"geometry":{"type":"MultiPolygon","coordinates":[[[[-0.2049,51.49807],[-0.20482,51.4981],[-0.20476,51.49812],[-0.20492,51.49827],[-0.20505,51.49822],[-0.2049,51.49807]]]]}},
{ "type":"Feature","properties":{"osm_way_id":"115594439","amenity":"parking"},"geometry":{"type":"MultiPolygon","coordinates":[[[[-0.20413,51.49926],[-0.20404,51.49917],[-0.20415,51.49913],[-0.20424,51.49923],[-0.20419,51.49924],[-0.20413,51.49926]]]]}},
{ "type":"Feature","properties":{"osm_way_id":"127935493","amenity":"parking","other":{"access":"yes","covered":"yes","fee":"yes","layer":"-1","parking":"underground"}}, "geometry":{"type":"MultiPolygon","coordinates":[[[[-0.19588,51.50231],[-0.19576,51.50236],[-0.19569,51.50238],[-0.19552,51.50245],[-0.1954,51.50249],[-0.19528,51.50254],[-0.19504,51.50262],[-0.19468,51.50225],[-0.1945,51.50205],[-0.19408,51.50166],[-0.19411,51.50165],[-0.19488,51.50137],[-0.19494,51.50135],[-0.19588,51.50231]]]]}},
{ "type":"Feature","properties":{"osm_way_id":"128298773","amenity":"parking"},"geometry":{"type":"MultiPolygon","coordinates":[[[[-0.19069,51.4997],[-0.19072,51.49975],[-0.19048,51.4998],[-0.19045,51.49975],[-0.19069,51.4997]]]]}},
{ "type":"Feature","properties":{"osm_way_id":"148730370","amenity":"parking","other":{"access":"private","parking":"surface"}}, "geometry":{"type":"MultiPolygon","coordinates":[[[[-0.2095,51.49811],[-0.20978,51.49797],[-0.20992,51.49809],[-0.20966,51.49823],[-0.2095,51.49811]]]]}},
{ "type":"Feature","properties":{"osm_way_id":"205703733","name":"Westway Sports Centre car park","amenity":"parking","other":{"access":"yes","fee":"yes","layer":"-1","operator":"Euro Car Parks","parking":"underground"}}, "geometry":{"type":"MultiPolygon","coordinates":[[[[-0.21972,51.51631],[-0.21967,51.51602],[-0.21964,51.51587],[-0.21861,51.51594],[-0.21832,51.51596],[-0.2184,51.5164],[-0.21972,51.51631]]]]}},
{ "type":"Feature","properties":{"osm_way_id":"249653186","amenity":"parking","other":{"access":"permissive"}}, "geometry":{"type":"MultiPolygon","coordinates":[[[[-0.21289,51.50952],[-0.21277,51.50955],[-0.2128,51.50962],[-0.21293,51.5096],[-0.21289,51.50952]]]]}},
{ "type":"Feature","properties":{"osm_way_id":"249653187","amenity":"parking","other":{"access":"permissive"}}, "geometry":{"type":"MultiPolygon","coordinates":[[[[-0.2123,51.50952],[-0.21241,51.5095],[-0.21235,51.50939],[-0.21225,51.50941],[-0.2123,51.50952]]]]}},
{ "type":"Feature","properties":{"osm_way_id":"249653188","amenity":"parking","other":{"access":"permissive"}}, "geometry":{"type":"MultiPolygon","coordinates":[[[[-0.2125,51.5096],[-0.21237,51.50962],[-0.21234,51.50957],[-0.21244,51.50955],[-0.21247,51.50955],[-0.2125,51.5096]]]]}},
{ "type":"Feature","properties":{"osm_way_id":"280273743","name":"Olympia Motorail Car Park P4","amenity":"parking","other":{"fee":"yes","park_ride":"yes","parking":"surface"}}, "geometry":{"type":"MultiPolygon","coordinates":[[[[-0.21055,51.49817],[-0.21121,51.49871],[-0.21126,51.49869],[-0.21162,51.49898],[-0.21186,51.49918],[-0.2123,51.49954],[-0.21278,51.49994],[-0.21288,51.50004],[-0.21319,51.50032],[-0.21347,51.50058],[-0.21367,51.50076],[-0.21372,51.50075],[-0.21369,51.50069],[-0.21372,51.50067],[-0.21366,51.50062],[-0.21364,51.50059],[-0.21373,51.50055],[-0.21368,51.50051],[-0.2136,51.50054],[-0.21355,51.5005],[-0.21357,51.50049],[-0.21352,51.50044],[-0.21354,51.50043],[-0.21339,51.50028],[-0.21331,51.50021],[-0.21339,51.50017],[-0.21336,51.50014],[-0.21339,51.50012],[-0.21313,51.49991],[-0.21233,51.49923],[-0.21152,51.49856],[-0.21086,51.49802],[-0.21055,51.49817]]]]}},
{ "type":"Feature","properties":{"osm_way_id":"290524614","amenity":"parking","other":{"access":"private","parking":"surface"}}, "geometry":{"type":"MultiPolygon","coordinates":[[[[-2.28102,53.48096],[-2.28052,53.48083],[-2.28047,53.48089],[-2.28021,53.48083],[-2.28041,53.48055],[-2.28067,53.48062],[-2.28064,53.48066],[-2.28114,53.48079],[-2.28114,53.48078],[-2.28116,53.48074],[-2.28118,53.48071],[-2.2812,53.48068],[-2.28128,53.4807],[-2.28148,53.48046],[-2.28146,53.48044],[-2.28138,53.48041],[-2.28101,53.48034],[-2.28093,53.48034],[-2.2809,53.48034],[-2.28083,53.48036],[-2.28065,53.4804],[-2.28048,53.48045],[-2.28029,53.48053],[-2.27996,53.48072],[-2.27981,53.48082],[-2.2809,53.48112],[-2.28095,53.48105],[-2.28097,53.48102],[-2.28099,53.48099],[-2.28102,53.48096]]]]}},
{ "type":"Feature","properties":{"osm_way_id":"293187786","name":"NCP London Pavilion Road","amenity":"parking","building":"parking","other":{"access":"yes","building:levels":"5","capacity":"300","fee":"yes","operator":"NCP","parking":"multi-storey","roof:levels":"0","website":"https:\/\/www.ncp.co.uk\/find-a-car-park\/car-parks\/london-pavilion-road\/"}}, "geometry":{"type":"MultiPolygon","coordinates":[[[[-0.16098,51.49988],[-0.1611,51.49973],[-0.16109,51.49972],[-0.1611,51.49969],[-0.16111,51.49965],[-0.16108,51.49965],[-0.16108,51.49961],[-0.16107,51.49958],[-0.16104,51.49955],[-0.16091,51.49949],[-0.16054,51.49952],[-0.16064,51.49988],[-0.16069,51.4999],[-0.16084,51.49989],[-0.16098,51.49988]]]]}},
{ "type":"Feature","properties":{"osm_way_id":"304148085","amenity":"parking","other":{"building:levels":"1","parking":"garage_boxes","roof:levels":"0","roof:shape":"flat"}}, "geometry":{"type":"MultiPolygon","coordinates":[[[[-0.16641,51.49219],[-0.16656,51.49215],[-0.16632,51.49203],[-0.16629,51.49201],[-0.16617,51.49211],[-0.16624,51.49211],[-0.16641,51.49219]]]]}},
{ "type":"Feature","properties":{"osm_way_id":"377272754","name":"Store Car Park","amenity":"parking","building":"parking","other":{"access":"customers","addr:city":"London","addr:postcode":"W14 8PB","addr:street":"West Cromwell Road","fee":"no","park_ride":"no","parking":"multi-storey"}}, "geometry":{"type":"MultiPolygon","coordinates":[[[[-0.20177,51.49267],[-0.2017,51.49269],[-0.20223,51.49328],[-0.20243,51.49321],[-0.20247,51.49322],[-0.20255,51.49324],[-0.20261,51.49325],[-0.20268,51.49325],[-0.20275,51.49323],[-0.20282,51.4932],[-0.20287,51.49316],[-0.20291,51.49312],[-0.20292,51.49304],[-0.20287,51.49297],[-0.20204,51.49202],[-0.2014,51.49224],[-0.20177,51.49267]]]]}},
{ "type":"Feature","properties":{"osm_way_id":"392631241","amenity":"parking","other":{"access":"yes","fee":"yes","parking":"surface"}}, "geometry":{"type":"MultiPolygon","coordinates":[[[[-0.17848,51.49378],[-0.17842,51.49343],[-0.1784,51.49343],[-0.17838,51.49343],[-0.17759,51.49365],[-0.17758,51.49364],[-0.17748,51.49368],[-0.17758,51.49378],[-0.17761,51.49386],[-0.17848,51.49378]]]]}},
{ "type":"Feature","properties":{"osm_way_id":"419104125","amenity":"parking","other":{"access":"customers"}}, "geometry":{"type":"MultiPolygon","coordinates":[[[[-0.19164,51.49904],[-0.19154,51.49908],[-0.19137,51.49888],[-0.19147,51.49885],[-0.19164,51.49904]]]]}},
{ "type":"Feature","properties":{"osm_way_id":"547344638","amenity":"parking"},"geometry":{"type":"MultiPolygon","coordinates":[[[[-1.69397,52.52803],[-1.69403,52.52785],[-1.6941,52.52786],[-1.69414,52.52775],[-1.69422,52.52775],[-1.69436,52.52736],[-1.69452,52.52737],[-1.69471,52.52686],[-1.69425,52.52677],[-1.69425,52.52673],[-1.69369,52.52665],[-1.6936,52.52688],[-1.69342,52.52686],[-1.6934,52.5269],[-1.69409,52.52699],[-1.69372,52.52799],[-1.69397,52.52803]]]]}},
{ "type":"Feature","properties":{"osm_way_id":"631020667","amenity":"parking","other":{"access":"private"}}, "geometry":{"type":"MultiPolygon","coordinates":[[[[-0.1857,51.4823],[-0.18558,51.48219],[-0.18549,51.48223],[-0.18559,51.48232],[-0.18564,51.48232],[-0.1857,51.4823]]]]}},
{ "type":"Feature","properties":{"osm_way_id":"631020668","amenity":"parking","other":{"access":"private"}}, "geometry":{"type":"MultiPolygon","coordinates":[[[[-0.18549,51.4821],[-0.18536,51.48199],[-0.18528,51.48202],[-0.18528,51.48205],[-0.1854,51.48214],[-0.18549,51.4821]]]]}},
{ "type":"Feature","properties":{"osm_way_id":"765454477","building":"house","other":{"addr:housenumber":"3","addr:street":"Wilby Mews","building:levels":"2"}}, "geometry":{"type":"MultiPolygon","coordinates":[[[[-0.20306,51.50925],[-0.2031,51.50931],[-0.20316,51.50929],[-0.20312,51.50924],[-0.20306,51.50925]]]]}},
{ "type":"Feature","properties":{"osm_way_id":"771703751","amenity":"parking","other":{"access":"private"}}, "geometry":{"type":"MultiPolygon","coordinates":[[[[-0.2038,51.5166],[-0.20351,51.51666],[-0.20341,51.51652],[-0.20372,51.51646],[-0.2038,51.5166]]]]}},
{ "type":"Feature","properties":{"osm_way_id":"776791019","amenity":"parking","other":{"access":"private"}}, "geometry":{"type":"MultiPolygon","coordinates":[[[[-0.20704,51.51936],[-0.20695,51.51926],[-0.20663,51.51942],[-0.20663,51.51942],[-0.20663,51.51944],[-0.20663,51.51945],[-0.2067,51.51953],[-0.2067,51.51953],[-0.20704,51.51936]]]]}},
{ "type":"Feature","properties":{"osm_way_id":"777107257","amenity":"parking"},"geometry":{"type":"MultiPolygon","coordinates":[[[[-0.20723,51.521],[-0.207,51.5209],[-0.20684,51.52104],[-0.20707,51.52114],[-0.20723,51.521]]]]}},
{ "type":"Feature","properties":{"osm_way_id":"777427854","amenity":"parking","other":{"access":"private","parking":"surface"}}, "geometry":{"type":"MultiPolygon","coordinates":[[[[-0.20619,51.52307],[-0.20611,51.52315],[-0.20601,51.5233],[-0.20491,51.52302],[-0.20497,51.52293],[-0.20516,51.52266],[-0.20582,51.52285],[-0.20595,51.52289],[-0.20613,51.52299],[-0.20617,51.52302],[-0.20619,51.52304],[-0.20619,51.52307]]]]}},
{ "type":"Feature","properties":{"osm_way_id":"777427857","amenity":"parking"},"geometry":{"type":"MultiPolygon","coordinates":[[[[-0.2059,51.52339],[-0.20578,51.52356],[-0.20533,51.52345],[-0.20545,51.52327],[-0.2059,51.52339]]]]}},
{ "type":"Feature","properties":{"osm_way_id":"777654119","amenity":"parking"},"geometry":{"type":"MultiPolygon","coordinates":[[[[-0.20894,51.5238],[-0.2088,51.52376],[-0.20891,51.5236],[-0.20905,51.52364],[-0.20894,51.5238]]]]}},
{ "type":"Feature","properties":{"osm_way_id":"777900527","amenity":"parking"},"geometry":{"type":"MultiPolygon","coordinates":[[[[-0.21062,51.52492],[-0.21082,51.525],[-0.21097,51.52484],[-0.21095,51.52484],[-0.21077,51.52479],[-0.21062,51.52492]]]]}},
{ "type":"Feature","properties":{"osm_way_id":"779016626","amenity":"parking"},"geometry":{"type":"MultiPolygon","coordinates":[[[[-0.22239,51.52301],[-0.22211,51.52307],[-0.22206,51.52298],[-0.222,51.52285],[-0.22228,51.5228],[-0.22239,51.52301]]]]}},
{ "type":"Feature","properties":{"osm_way_id":"779508446","amenity":"parking"},"geometry":{"type":"MultiPolygon","coordinates":[[[[-0.21721,51.52304],[-0.21704,51.52277],[-0.21658,51.52287],[-0.21674,51.52314],[-0.21721,51.52304]]]]}},
{ "type":"Feature","properties":{"osm_way_id":"780357048","amenity":"parking"},"geometry":{"type":"MultiPolygon","coordinates":[[[[-0.22319,51.52217],[-0.22273,51.52227],[-0.2227,51.52222],[-0.2227,51.52221],[-0.22292,51.52207],[-0.22296,51.5221],[-0.22313,51.52206],[-0.22316,51.5221],[-0.22319,51.52217]]]]}},
{ "type":"Feature","properties":{"osm_way_id":"781179594","amenity":"parking"},"geometry":{"type":"MultiPolygon","coordinates":[[[[-0.22339,51.52074],[-0.22336,51.52068],[-0.2228,51.52079],[-0.22292,51.52103],[-0.22339,51.52074]]]]}},
{ "type":"Feature","properties":{"osm_way_id":"781474235","amenity":"parking"},"geometry":{"type":"MultiPolygon","coordinates":[[[[-0.21821,51.51936],[-0.21806,51.51939],[-0.21812,51.51951],[-0.21815,51.51958],[-0.21818,51.51962],[-0.21834,51.51958],[-0.21821,51.51936]]]]}},
{ "type":"Feature","properties":{"osm_way_id":"782587801","amenity":"parking"},"geometry":{"type":"MultiPolygon","coordinates":[[[[-0.22186,51.51927],[-0.22219,51.51923],[-0.22215,51.51931],[-0.22186,51.51927]]]]}},
{ "type":"Feature","properties":{"osm_way_id":"782714260","building":"commercial","other":{"building:levels":"1"}}, "geometry":{"type":"MultiPolygon","coordinates":[[[[-0.22364,51.51821],[-0.22356,51.51803],[-0.22373,51.51797],[-0.22384,51.51809],[-0.22388,51.51813],[-0.22384,51.51815],[-0.22374,51.51818],[-0.22364,51.51821]]]]}},
{ "type":"Feature","properties":{"osm_way_id":"782714264","building":"residential","other":{"addr:housenumber":"1","addr:street":"Latimer Place","building:levels":"3"}}, "geometry":{"type":"MultiPolygon","coordinates":[[[[-0.22403,51.51819],[-0.22408,51.51817],[-0.22413,51.51822],[-0.22408,51.51824],[-0.22403,51.51819]]]]}},
{ "type":"Feature","properties":{"osm_way_id":"782714292","building":"yes"},"geometry":{"type":"MultiPolygon","coordinates":[[[[-0.22434,51.51885],[-0.22429,51.51887],[-0.22424,51.51882],[-0.2243,51.5188],[-0.22434,51.51885]]]]}},
{ "type":"Feature","properties":{"osm_way_id":"782714315","building":"terrace"},"geometry":{"type":"MultiPolygon","coordinates":[[[[-0.22524,51.51989],[-0.22521,51.5199],[-0.22514,51.51993],[-0.22512,51.51991],[-0.22505,51.51994],[-0.225,51.5199],[-0.22506,51.51987],[-0.22502,51.51983],[-0.22495,51.51986],[-0.22489,51.51981],[-0.22496,51.51978],[-0.22495,51.51977],[-0.22504,51.51973],[-0.22506,51.51972],[-0.22524,51.51989]]]]}},
{ "type":"Feature","properties":{"osm_way_id":"783081174","amenity":"parking"},"geometry":{"type":"MultiPolygon","coordinates":[[[[-0.21821,51.51506],[-0.21811,51.51505],[-0.21797,51.51504],[-0.218,51.51493],[-0.21824,51.51495],[-0.21821,51.51506]]]]}},
{ "type":"Feature","properties":{"osm_way_id":"783081177","amenity":"parking"},"geometry":{"type":"MultiPolygon","coordinates":[[[[-0.218,51.51491],[-0.21824,51.51494],[-0.21826,51.51487],[-0.21801,51.51484],[-0.218,51.51491]]]]}},
{ "type":"Feature","properties":{"osm_way_id":"783541348","amenity":"parking"},"geometry":{"type":"MultiPolygon","coordinates":[[[[-0.21343,51.51608],[-0.21339,51.51611],[-0.21332,51.51615],[-0.21309,51.51602],[-0.2132,51.51594],[-0.21342,51.51606],[-0.21343,51.51608]]]]}},
{ "type":"Feature","properties":{"osm_way_id":"784368530","amenity":"parking"},"geometry":{"type":"MultiPolygon","coordinates":[[[[-0.21704,51.5118],[-0.21729,51.51173],[-0.21718,51.51158],[-0.21714,51.51159],[-0.21696,51.51164],[-0.21694,51.51165],[-0.21704,51.5118]]]]}},
{ "type":"Feature","properties":{"osm_way_id":"784441942","amenity":"parking"},"geometry":{"type":"MultiPolygon","coordinates":[[[[-0.21941,51.5115],[-0.21945,51.51159],[-0.21918,51.51163],[-0.21914,51.51155],[-0.21941,51.5115]]]]}},
{ "type":"Feature","properties":{"osm_way_id":"788507914","amenity":"parking","other":{"parking":"street_side"}}, "geometry":{"type":"MultiPolygon","coordinates":[[[[-0.21165,51.51102],[-0.21155,51.51086],[-0.21161,51.51085],[-0.21171,51.51101],[-0.21165,51.51102]]]]}},
{ "type":"Feature","properties":{"osm_way_id":"791101823","amenity":"parking"},"geometry":{"type":"MultiPolygon","coordinates":[[[[-0.21151,51.49936],[-0.21137,51.49924],[-0.21127,51.49929],[-0.21123,51.49931],[-0.21113,51.49936],[-0.21113,51.49936],[-0.21113,51.49937],[-0.21125,51.49947],[-0.21126,51.49947],[-0.21128,51.49947],[-0.21151,51.49936]]]]}},
{ "type":"Feature","properties":{"osm_way_id":"791194548","amenity":"parking"},"geometry":{"type":"MultiPolygon","coordinates":[[[[-0.20761,51.49653],[-0.20757,51.4965],[-0.20753,51.49649],[-0.20747,51.49648],[-0.20742,51.49647],[-0.20737,51.49648],[-0.20733,51.49649],[-0.20728,51.49651],[-0.20737,51.49658],[-0.20744,51.49662],[-0.20761,51.49653]]]]}},
{ "type":"Feature","properties":{"osm_way_id":"792487914","amenity":"parking"},"geometry":{"type":"MultiPolygon","coordinates":[[[[-0.2111,51.50443],[-0.21122,51.50439],[-0.21121,51.50439],[-0.21108,51.50435],[-0.21105,51.50436],[-0.2111,51.50443]]]]}},
{ "type":"Feature","properties":{"osm_way_id":"794215611","amenity":"parking","other":{"access":"private"}}, "geometry":{"type":"MultiPolygon","coordinates":[[[[-0.20619,51.49901],[-0.20606,51.49917],[-0.20589,51.49911],[-0.20592,51.49908],[-0.20596,51.49908],[-0.20599,51.49907],[-0.20602,51.49906],[-0.2061,51.49898],[-0.20615,51.499],[-0.20619,51.49901]]]]}},
{ "type":"Feature","properties":{"osm_way_id":"794318157","amenity":"parking"},"geometry":{"type":"MultiPolygon","coordinates":[[[[-0.20299,51.49958],[-0.20292,51.49959],[-0.20286,51.49959],[-0.20281,51.49959],[-0.20276,51.49957],[-0.20273,51.49955],[-0.20272,51.49951],[-0.2028,51.49942],[-0.20291,51.49943],[-0.20299,51.49958]]]]}},
{ "type":"Feature","properties":{"osm_way_id":"800374619","amenity":"parking"},"geometry":{"type":"MultiPolygon","coordinates":[[[[-0.19855,51.5069],[-0.19843,51.50668],[-0.198,51.50677],[-0.19814,51.50702],[-0.19848,51.50694],[-0.19846,51.50692],[-0.19855,51.5069]]]]}},
{ "type":"Feature","properties":{"osm_way_id":"800779588","amenity":"parking","other":{"access":"private"}}, "geometry":{"type":"MultiPolygon","coordinates":[[[[-0.19563,51.50752],[-0.1955,51.50755],[-0.19546,51.50744],[-0.19545,51.50739],[-0.19543,51.50734],[-0.19548,51.50734],[-0.19544,51.50725],[-0.19552,51.50724],[-0.19563,51.50752]]]]}},
{ "type":"Feature","properties":{"osm_way_id":"800969679","amenity":"parking","other":{"access":"private"}}, "geometry":{"type":"MultiPolygon","coordinates":[[[[-0.19549,51.50712],[-0.1954,51.50691],[-0.19528,51.50695],[-0.19537,51.50716],[-0.19549,51.50712]]]]}},
{ "type":"Feature","properties":{"osm_way_id":"805873913","amenity":"parking"},"geometry":{"type":"MultiPolygon","coordinates":[[[[-0.1915,51.50494],[-0.19147,51.50489],[-0.19112,51.50497],[-0.19115,51.50502],[-0.1912,51.50501],[-0.1915,51.50494]]]]}},
{ "type":"Feature","properties":{"osm_way_id":"805873914","amenity":"parking"},"geometry":{"type":"MultiPolygon","coordinates":[[[[-0.19139,51.50477],[-0.19142,51.50482],[-0.19107,51.50489],[-0.19104,51.50484],[-0.19112,51.50483],[-0.19117,51.50481],[-0.19139,51.50477]]]]}},
{ "type":"Feature","properties":{"osm_way_id":"806552902","amenity":"parking","other":{"parking":"surface"}}, "geometry":{"type":"MultiPolygon","coordinates":[[[[-0.15999,51.486],[-0.15988,51.48593],[-0.15963,51.48578],[-0.15965,51.48577],[-0.15955,51.48571],[-0.15947,51.48576],[-0.15918,51.48558],[-0.15946,51.4854],[-0.15949,51.48538],[-0.15965,51.48547],[-0.15978,51.48538],[-0.15985,51.48543],[-0.16016,51.48567],[-0.16032,51.48579],[-0.15999,51.486]]]]}},
{ "type":"Feature","properties":{"osm_way_id":"809645365","amenity":"parking"},"geometry":{"type":"MultiPolygon","coordinates":[[[[-0.18356,51.49954],[-0.18344,51.49954],[-0.18344,51.49944],[-0.18356,51.49944],[-0.18356,51.49954]]]]}},
{ "type":"Feature","properties":{"osm_way_id":"815001804","amenity":"parking"},"geometry":{"type":"MultiPolygon","coordinates":[[[[-0.18763,51.49937],[-0.18734,51.49937],[-0.18733,51.49959],[-0.18762,51.49959],[-0.18763,51.49937]]]]}},
{ "type":"Feature","properties":{"osm_way_id":"819853647","amenity":"parking"},"geometry":{"type":"MultiPolygon","coordinates":[[[[-0.18931,51.49826],[-0.18942,51.49826],[-0.18937,51.49813],[-0.18937,51.49816],[-0.18931,51.49826]]]]}},
{ "type":"Feature","properties":{"osm_way_id":"820361027","amenity":"parking"},"geometry":{"type":"MultiPolygon","coordinates":[[[[-0.18883,51.49486],[-0.18905,51.49486],[-0.18911,51.49486],[-0.18917,51.49489],[-0.18918,51.49492],[-0.18917,51.49495],[-0.18901,51.49512],[-0.18872,51.49499],[-0.18883,51.49486]]]]}},
{ "type":"Feature","properties":{"osm_way_id":"820361028","amenity":"parking"},"geometry":{"type":"MultiPolygon","coordinates":[[[[-0.1889,51.49521],[-0.18863,51.4955],[-0.1882,51.49553],[-0.1881,51.49513],[-0.18834,51.49506],[-0.18851,51.49505],[-0.1889,51.49521]]]]}},
{ "type":"Feature","properties":{"osm_way_id":"822178590","amenity":"parking"},"geometry":{"type":"MultiPolygon","coordinates":[[[[-0.17794,51.48352],[-0.17823,51.48341],[-0.17822,51.48337],[-0.17791,51.48349],[-0.17794,51.48352]]]]}},
{ "type":"Feature","properties":{"osm_way_id":"825932967","amenity":"parking"},"geometry":{"type":"MultiPolygon","coordinates":[[[[-0.19593,51.49565],[-0.19579,51.4957],[-0.19576,51.49566],[-0.19568,51.49558],[-0.19581,51.49554],[-0.19593,51.49565]]]]}},
{ "type":"Feature","properties":{"osm_way_id":"826378945","amenity":"parking"},"geometry":{"type":"MultiPolygon","coordinates":[[[[-0.19553,51.49517],[-0.19538,51.49521],[-0.19528,51.49512],[-0.19544,51.49507],[-0.19553,51.49517]]]]}},
{ "type":"Feature","properties":{"osm_way_id":"827103217","amenity":"parking","other":{"access":"private","parking":"surface"}}, "geometry":{"type":"MultiPolygon","coordinates":[[[[-0.19685,51.49486],[-0.19674,51.49474],[-0.19625,51.4949],[-0.19627,51.49493],[-0.19636,51.49502],[-0.19637,51.49502],[-0.19661,51.49494],[-0.19668,51.49491],[-0.19685,51.49486]]]]}},
{ "type":"Feature","properties":{"osm_way_id":"829934030","amenity":"parking"},"geometry":{"type":"MultiPolygon","coordinates":[[[[-0.20354,51.49735],[-0.20345,51.49737],[-0.20322,51.49709],[-0.2033,51.49706],[-0.20354,51.49735]]]]}},
{ "type":"Feature","properties":{"osm_way_id":"829963497","amenity":"parking"},"geometry":{"type":"MultiPolygon","coordinates":[[[[-0.20523,51.49661],[-0.20516,51.49665],[-0.20502,51.49654],[-0.20505,51.49653],[-0.20512,51.49658],[-0.20517,51.49656],[-0.20523,51.49661]]]]}},
{ "type":"Feature","properties":{"osm_way_id":"830380046","amenity":"parking"},"geometry":{"type":"MultiPolygon","coordinates":[[[[-0.20307,51.49338],[-0.20293,51.49341],[-0.20293,51.49339],[-0.20289,51.49334],[-0.2028,51.49324],[-0.20288,51.49321],[-0.20307,51.49338]]]]}},
{ "type":"Feature","properties":{"osm_way_id":"830602974","amenity":"parking"},"geometry":{"type":"MultiPolygon","coordinates":[[[[-0.20089,51.49158],[-0.2008,51.49166],[-0.20047,51.49162],[-0.20052,51.49142],[-0.20076,51.49143],[-0.20089,51.49158]]]]}},
{ "type":"Feature","properties":{"osm_way_id":"832303385","amenity":"parking"},"geometry":{"type":"MultiPolygon","coordinates":[[[[-0.19289,51.48889],[-0.19293,51.48894],[-0.19278,51.48899],[-0.19274,51.48895],[-0.19282,51.48892],[-0.19289,51.48889]]]]}},
{ "type":"Feature","properties":{"osm_way_id":"833139530","amenity":"parking","other":{"access":"customers"}}, "geometry":{"type":"MultiPolygon","coordinates":[[[[-0.19539,51.49276],[-0.19544,51.49275],[-0.19544,51.49274],[-0.19546,51.49273],[-0.19537,51.49266],[-0.19531,51.49268],[-0.19539,51.49276]]]]}},
{ "type":"Feature","properties":{"osm_way_id":"835238372","amenity":"parking"},"geometry":{"type":"MultiPolygon","coordinates":[[[[-0.1946,51.49433],[-0.1946,51.49429],[-0.19428,51.49429],[-0.19428,51.49434],[-0.19421,51.49434],[-0.19422,51.49439],[-0.19427,51.49439],[-0.19427,51.49434],[-0.19461,51.49434],[-0.1946,51.49433]]]]}},
{ "type":"Feature","properties":{"osm_way_id":"840677471","amenity":"parking"},"geometry":{"type":"MultiPolygon","coordinates":[[[[-0.17703,51.48303],[-0.17703,51.48302],[-0.17694,51.483],[-0.17672,51.48308],[-0.17677,51.48313],[-0.17703,51.48303]]]]}},
{ "type":"Feature","properties":{"osm_way_id":"841977206","amenity":"parking","other":{"access":"private"}}, "geometry":{"type":"MultiPolygon","coordinates":[[[[-0.17691,51.48244],[-0.17694,51.48247],[-0.17686,51.4825],[-0.1768,51.48252],[-0.17678,51.48251],[-0.17674,51.48248],[-0.17685,51.48243],[-0.17688,51.48242],[-0.17689,51.48243],[-0.17691,51.48244]]]]}},
{ "type":"Feature","properties":{"osm_way_id":"841977208","amenity":"parking","other":{"access":"private","parking":"lane"}}, "geometry":{"type":"MultiPolygon","coordinates":[[[[-0.17645,51.48271],[-0.17643,51.48269],[-0.17642,51.48267],[-0.17661,51.4826],[-0.17662,51.48261],[-0.17665,51.48264],[-0.17645,51.48271]]]]}},
{ "type":"Feature","properties":{"osm_way_id":"841977246","amenity":"parking","other":{"access":"private","parking":"surface"}}, "geometry":{"type":"MultiPolygon","coordinates":[[[[-0.17837,51.48231],[-0.17838,51.48232],[-0.17841,51.48231],[-0.17843,51.48228],[-0.17845,51.48226],[-0.17841,51.48222],[-0.17827,51.48208],[-0.17824,51.48209],[-0.1782,51.48204],[-0.17796,51.48213],[-0.17802,51.48219],[-0.17806,51.48219],[-0.17809,51.48219],[-0.17814,51.4822],[-0.17817,51.4822],[-0.17821,51.4822],[-0.17824,51.48221],[-0.17826,51.48221],[-0.17827,51.48221],[-0.17834,51.48228],[-0.17837,51.48231]]]]}},
{ "type":"Feature","properties":{"osm_way_id":"841977277","amenity":"parking","other":{"access":"private","parking":"surface"}}, "geometry":{"type":"MultiPolygon","coordinates":[[[[-0.17741,51.48194],[-0.17729,51.48199],[-0.1775,51.48219],[-0.17758,51.48216],[-0.17761,51.48215],[-0.17763,51.48215],[-0.17762,51.48213],[-0.17758,51.4821],[-0.17757,51.4821],[-0.17742,51.48197],[-0.17743,51.48196],[-0.17741,51.48194]]]]}},
{ "type":"Feature","properties":{"osm_way_id":"842227256","amenity":"parking"},"geometry":{"type":"MultiPolygon","coordinates":[[[[-0.17547,51.48312],[-0.17532,51.48318],[-0.17512,51.48297],[-0.17519,51.48295],[-0.17539,51.4831],[-0.17541,51.48311],[-0.17543,51.4831],[-0.17545,51.4831],[-0.17547,51.48312]]]]}},
{ "type":"Feature","properties":{"osm_way_id":"856903728","amenity":"parking"},"geometry":{"type":"MultiPolygon","coordinates":[[[[-0.18357,51.48507],[-0.18377,51.48497],[-0.1839,51.48507],[-0.18371,51.48517],[-0.18357,51.48507]]]]}},
{ "type":"Feature","properties":{"osm_way_id":"860732943","amenity":"parking","other":{"access":"permit","parking":"surface","surface":"paving_stones"}}, "geometry":{"type":"MultiPolygon","coordinates":[[[[-0.17922,51.48116],[-0.17912,51.48102],[-0.17882,51.48111],[-0.17888,51.48119],[-0.17892,51.48124],[-0.17922,51.48116]]]]}},
{ "type":"Feature","properties":{"osm_way_id":"876112134","amenity":"parking"},"geometry":{"type":"MultiPolygon","coordinates":[[[[-0.18303,51.4977],[-0.18179,51.4978],[-0.18179,51.49778],[-0.18303,51.49769],[-0.18303,51.4977]]]]}},
{ "type":"Feature","properties":{"osm_way_id":"876112135","amenity":"parking"},"geometry":{"type":"MultiPolygon","coordinates":[[[[-0.18138,51.49783],[-0.18138,51.49781],[-0.18104,51.49784],[-0.18104,51.49786],[-0.18138,51.49783]]]]}},
{ "type":"Feature","properties":{"osm_way_id":"878495428","amenity":"parking"},"geometry":{"type":"MultiPolygon","coordinates":[[[[-0.18742,51.48579],[-0.18736,51.48582],[-0.18756,51.48595],[-0.18762,51.48591],[-0.18742,51.48579]]]]}},
{ "type":"Feature","properties":{"osm_way_id":"878819188","amenity":"parking"},"geometry":{"type":"MultiPolygon","coordinates":[[[[-0.19039,51.48674],[-0.19028,51.48668],[-0.19023,51.48668],[-0.19024,51.4867],[-0.19024,51.48671],[-0.19032,51.48675],[-0.19034,51.48675],[-0.19035,51.48675],[-0.19037,51.48674],[-0.19039,51.48674]]]]}},
{ "type":"Feature","properties":{"osm_way_id":"883669610","amenity":"parking"},"geometry":{"type":"MultiPolygon","coordinates":[[[[-0.17797,51.48375],[-0.17797,51.48376],[-0.17793,51.48378],[-0.17785,51.48372],[-0.17763,51.48382],[-0.17759,51.48378],[-0.17785,51.48366],[-0.17797,51.48375]]]]}},
{ "type":"Feature","properties":{"osm_way_id":"883873685","amenity":"parking"},"geometry":{"type":"MultiPolygon","coordinates":[[[[-0.17705,51.48359],[-0.17708,51.48363],[-0.17709,51.48365],[-0.17709,51.48366],[-0.1771,51.48368],[-0.17706,51.48381],[-0.17702,51.48384],[-0.17699,51.48387],[-0.17701,51.48382],[-0.17703,51.48376],[-0.17704,51.48371],[-0.17705,51.48359]]]]}},
{ "type":"Feature","properties":{"osm_way_id":"886378586","amenity":"parking"},"geometry":{"type":"MultiPolygon","coordinates":[[[[-0.17733,51.4873],[-0.17747,51.4874],[-0.17731,51.48749],[-0.17717,51.48739],[-0.17733,51.4873]]]]}},
{ "type":"Feature","properties":{"osm_way_id":"891919527","amenity":"parking","other":{"access":"private","parking":"surface"}}, "geometry":{"type":"MultiPolygon","coordinates":[[[[-0.17029,51.48871],[-0.17041,51.4889],[-0.17002,51.48899],[-0.16989,51.48881],[-0.17029,51.48871]]]]}},
{ "type":"Feature","properties":{"osm_way_id":"892172549","amenity":"parking"},"geometry":{"type":"MultiPolygon","coordinates":[[[[-0.17052,51.48843],[-0.17048,51.48849],[-0.17043,51.48855],[-0.17036,51.48859],[-0.1703,51.48851],[-0.17028,51.48851],[-0.17018,51.48838],[-0.17012,51.48839],[-0.17012,51.48839],[-0.16999,51.48822],[-0.1701,51.48819],[-0.17023,51.48834],[-0.17052,51.48843]]]]}},
{ "type":"Feature","properties":{"osm_way_id":"892172552","amenity":"parking","other":{"access":"private"}}, "geometry":{"type":"MultiPolygon","coordinates":[[[[-0.17005,51.48867],[-0.16996,51.48869],[-0.16994,51.48866],[-0.16993,51.48865],[-0.17001,51.48862],[-0.17005,51.48867]]]]}},
{ "type":"Feature","properties":{"osm_way_id":"892932085","amenity":"parking"},"geometry":{"type":"MultiPolygon","coordinates":[[[[-0.17095,51.49181],[-0.17093,51.4918],[-0.1709,51.49178],[-0.17077,51.49186],[-0.17092,51.49195],[-0.17098,51.49192],[-0.17096,51.4919],[-0.17095,51.49189],[-0.17095,51.49188],[-0.17096,51.49187],[-0.171,51.49185],[-0.17095,51.49181]]]]}},
{ "type":"Feature","properties":{"osm_way_id":"893228534","amenity":"parking"},"geometry":{"type":"MultiPolygon","coordinates":[[[[-0.17026,51.49188],[-0.17005,51.49198],[-0.16992,51.4919],[-0.16981,51.49183],[-0.16996,51.49165],[-0.17026,51.49188]]]]}},
{ "type":"Feature","properties":{"osm_way_id":"893228535","amenity":"parking"},"geometry":{"type":"MultiPolygon","coordinates":[[[[-0.1697,51.49197],[-0.17001,51.49222],[-0.16992,51.49227],[-0.16991,51.49227],[-0.16967,51.4921],[-0.16963,51.49206],[-0.16968,51.49199],[-0.1697,51.49197]]]]}},
{ "type":"Feature","properties":{"osm_way_id":"893898232","amenity":"parking","other":{"access":"private"}}, "geometry":{"type":"MultiPolygon","coordinates":[[[[-0.16904,51.48865],[-0.16911,51.48863],[-0.16899,51.48848],[-0.16892,51.4885],[-0.16904,51.48865]]]]}},
{ "type":"Feature","properties":{"osm_way_id":"894981161","amenity":"parking"},"geometry":{"type":"MultiPolygon","coordinates":[[[[-0.16566,51.48924],[-0.16565,51.48924],[-0.16551,51.48927],[-0.16555,51.48934],[-0.16558,51.48937],[-0.1656,51.48942],[-0.16561,51.48943],[-0.1657,51.48941],[-0.16581,51.48938],[-0.16575,51.48927],[-0.16574,51.48925],[-0.16567,51.48927],[-0.16566,51.48924]]]]}},
{ "type":"Feature","properties":{"osm_way_id":"896069673","amenity":"parking"},"geometry":{"type":"MultiPolygon","coordinates":[[[[-0.16505,51.49013],[-0.16463,51.49023],[-0.16468,51.49033],[-0.1647,51.49034],[-0.16473,51.49035],[-0.16476,51.49034],[-0.16509,51.49026],[-0.16511,51.49025],[-0.16512,51.49024],[-0.16512,51.49022],[-0.16505,51.49013]]]]}},
{ "type":"Feature","properties":{"osm_way_id":"896591615","amenity":"parking"},"geometry":{"type":"MultiPolygon","coordinates":[[[[-0.1614,51.49269],[-0.16131,51.4926],[-0.16123,51.49252],[-0.16096,51.49266],[-0.16112,51.4928],[-0.1614,51.49269]]]]}},
{ "type":"Feature","properties":{"osm_way_id":"896703297","amenity":"parking"},"geometry":{"type":"MultiPolygon","coordinates":[[[[-0.16303,51.49107],[-0.16294,51.49106],[-0.16293,51.49106],[-0.16291,51.49105],[-0.16276,51.49097],[-0.16281,51.49094],[-0.16303,51.49107]]]]}},
{ "type":"Feature","properties":{"osm_way_id":"900302050","amenity":"parking","other":{"access":"private"}}, "geometry":{"type":"MultiPolygon","coordinates":[[[[-0.16116,51.49005],[-0.16096,51.49016],[-0.16093,51.49015],[-0.16091,51.49013],[-0.16097,51.4901],[-0.16108,51.49002],[-0.1611,51.49002],[-0.16116,51.49005]]]]}},
{ "type":"Feature","properties":{"osm_way_id":"901682819","amenity":"parking"},"geometry":{"type":"MultiPolygon","coordinates":[[[[-0.16039,51.48584],[-0.1603,51.4859],[-0.16087,51.48627],[-0.16092,51.48624],[-0.16056,51.48597],[-0.16039,51.48584]]]]}},
{ "type":"Feature","properties":{"osm_way_id":"902975932","building":"residential","other":{"addr:housenumber":"10","addr:street":"Christchurch Terrace","building:levels":"3"}}, "geometry":{"type":"MultiPolygon","coordinates":[[[[-0.16297,51.48607],[-0.16292,51.48604],[-0.16283,51.48609],[-0.16288,51.48612],[-0.16297,51.48607]]]]}},
{ "type":"Feature","properties":{"osm_way_id":"904633400","amenity":"parking","other":{"access":"private"}}, "geometry":{"type":"MultiPolygon","coordinates":[[[[-0.16845,51.4868],[-0.16838,51.48674],[-0.16775,51.487],[-0.16781,51.48706],[-0.16845,51.4868]]]]}},
{ "type":"Feature","properties":{"osm_way_id":"904633409","amenity":"parking"},"geometry":{"type":"MultiPolygon","coordinates":[[[[-0.16776,51.48709],[-0.16771,51.48703],[-0.16751,51.48711],[-0.16757,51.48717],[-0.16776,51.48709]]]]}},
{ "type":"Feature","properties":{"osm_way_id":"904936979","amenity":"parking"},"geometry":{"type":"MultiPolygon","coordinates":[[[[-0.16682,51.48365],[-0.16681,51.48361],[-0.16674,51.48362],[-0.16675,51.48364],[-0.16675,51.48366],[-0.16682,51.48365]]]]}},
{ "type":"Feature","properties":{"osm_way_id":"907250640","amenity":"parking"},"geometry":{"type":"MultiPolygon","coordinates":[[[[-0.17507,51.48389],[-0.17501,51.48391],[-0.1748,51.484],[-0.17467,51.48386],[-0.17465,51.48384],[-0.17483,51.48378],[-0.17486,51.4838],[-0.17489,51.48383],[-0.17498,51.4838],[-0.17507,51.48389]]]]}},
{ "type":"Feature","properties":{"osm_way_id":"908626607","amenity":"parking"},"geometry":{"type":"MultiPolygon","coordinates":[[[[-0.18094,51.4815],[-0.18088,51.48136],[-0.18036,51.48144],[-0.18038,51.4815],[-0.1804,51.48155],[-0.18041,51.48158],[-0.18059,51.48155],[-0.18094,51.4815]]]]}},
{ "type":"Feature","properties":{"osm_way_id":"909133435","amenity":"parking","other":{"access":"private"}}, "geometry":{"type":"MultiPolygon","coordinates":[[[[-0.18031,51.4791],[-0.18027,51.47913],[-0.18025,51.47914],[-0.18018,51.47918],[-0.18022,51.47921],[-0.18017,51.47924],[-0.18022,51.47928],[-0.18042,51.47918],[-0.18031,51.4791]]]]}},
{ "type":"Feature","properties":{"osm_way_id":"909133436","amenity":"parking"},"geometry":{"type":"MultiPolygon","coordinates":[[[[-0.18108,51.47881],[-0.18103,51.47877],[-0.18113,51.47873],[-0.18117,51.47877],[-0.18108,51.47881]]]]}},
{ "type":"Feature","properties":{"osm_way_id":"909228774","amenity":"parking"},"geometry":{"type":"MultiPolygon","coordinates":[[[[-0.1819,51.47875],[-0.18186,51.4787],[-0.1818,51.47871],[-0.18179,51.47872],[-0.18182,51.47876],[-0.18183,51.47877],[-0.1819,51.47875]]]]}},
{ "type":"Feature","properties":{"osm_way_id":"909239939","amenity":"parking"},"geometry":{"type":"MultiPolygon","coordinates":[[[[-0.18344,51.48078],[-0.18336,51.48068],[-0.18325,51.48072],[-0.18332,51.48082],[-0.18344,51.48078]]]]}},
{ "type":"Feature","properties":{"osm_way_id":"909239951","amenity":"parking","other":{"access":"private","parking":"surface"}}, "geometry":{"type":"MultiPolygon","coordinates":[[[[-0.18455,51.48033],[-0.18431,51.4804],[-0.18421,51.48027],[-0.18444,51.4802],[-0.18455,51.48033]]]]}},
{ "type":"Feature","properties":{"osm_way_id":"909239952","amenity":"parking","other":{"access":"private","parking":"surface"}}, "geometry":{"type":"MultiPolygon","coordinates":[[[[-0.18444,51.4802],[-0.18438,51.48011],[-0.18408,51.48021],[-0.18413,51.48028],[-0.18418,51.48026],[-0.18419,51.48027],[-0.18444,51.4802]]]]}},
{ "type":"Feature","properties":{"osm_way_id":"909239954","amenity":"parking","other":{"access":"private"}}, "geometry":{"type":"MultiPolygon","coordinates":[[[[-0.18431,51.4804],[-0.18439,51.4805],[-0.18469,51.48041],[-0.18463,51.48034],[-0.18462,51.48034],[-0.18457,51.48036],[-0.18455,51.48033],[-0.18431,51.4804]]]]}},
{ "type":"Feature","properties":{"osm_way_id":"909253905","amenity":"parking"},"geometry":{"type":"MultiPolygon","coordinates":[[[[-0.18475,51.47999],[-0.1847,51.47992],[-0.1848,51.47989],[-0.18485,51.47995],[-0.18475,51.47999]]]]}},
{ "type":"Feature","properties":{"osm_way_id":"952714543","amenity":"parking","other":{"parking":"surface","surface":"asphalt"}}, "geometry":{"type":"MultiPolygon","coordinates":[[[[-0.87302,52.27394],[-0.87188,52.27404],[-0.87186,52.27398],[-0.8718,52.27399],[-0.87175,52.27383],[-0.87202,52.27381],[-0.87204,52.2739],[-0.87217,52.27388],[-0.87217,52.27386],[-0.87312,52.27378],[-0.87313,52.27384],[-0.873,52.27389],[-0.87302,52.27394]]]]}},
{ "type":"Feature","properties":{"osm_way_id":"952720577","amenity":"parking","other":{"capacity":"20"}}, "geometry":{"type":"MultiPolygon","coordinates":[[[[-1.31014,53.52632],[-1.30996,53.52628],[-1.30959,53.52672],[-1.30921,53.52661],[-1.30913,53.52671],[-1.30971,53.52686],[-1.31014,53.52632]]]]}},
{ "type":"Feature","properties":{"osm_way_id":"954368452","amenity":"parking","other":{"access":"private"}}, "geometry":{"type":"MultiPolygon","coordinates":[[[[-0.16966,51.48948],[-0.16964,51.48945],[-0.16963,51.4894],[-0.16975,51.48937],[-0.1698,51.48933],[-0.1699,51.4893],[-0.16991,51.48932],[-0.16982,51.48935],[-0.16977,51.48939],[-0.16973,51.48947],[-0.1697,51.48947],[-0.16966,51.48948]]]]}},
{ "type":"Feature","properties":{"osm_way_id":"954368453","amenity":"parking"},"geometry":{"type":"MultiPolygon","coordinates":[[[[-0.17008,51.4897],[-0.17003,51.4897],[-0.17,51.48969],[-0.16997,51.48968],[-0.16995,51.48968],[-0.16993,51.48968],[-0.16983,51.48963],[-0.16987,51.48962],[-0.16994,51.48966],[-0.17001,51.48967],[-0.17009,51.48967],[-0.17014,51.48966],[-0.17015,51.48968],[-0.17008,51.4897]]]]}},
{ "type":"Feature","properties":{"osm_way_id":"1004507323","amenity":"parking","other":{"access":"customers","parking":"surface"}}, "geometry":{"type":"MultiPolygon","coordinates":[[[[-2.16488,52.02841],[-2.1648,52.02835],[-2.16469,52.02832],[-2.16458,52.02834],[-2.16455,52.02829],[-2.16427,52.02838],[-2.16389,52.02842],[-2.16387,52.02836],[-2.16376,52.02835],[-2.16365,52.02826],[-2.16345,52.02833],[-2.16357,52.02844],[-2.16365,52.02841],[-2.16372,52.02845],[-2.16367,52.02849],[-2.16378,52.02852],[-2.16393,52.02853],[-2.16395,52.02849],[-2.16404,52.0285],[-2.16404,52.02854],[-2.16425,52.02856],[-2.16428,52.02853],[-2.16426,52.0285],[-2.16434,52.02848],[-2.16437,52.02852],[-2.16463,52.02845],[-2.1646,52.02841],[-2.16468,52.0284],[-2.1648,52.02846],[-2.16484,52.02843],[-2.16488,52.02841]]]]}}
]
}
