{
"type": "FeatureCollection",
"features": [
{ "type":"Feature","properties":{"osm_id":"5071317280","name":"Partridges","other":{"shop":"supermarket","phone":"+44 20 7581 0535","website":"https:\/\/www.nisalocally.co.uk\/stores\/greater-london\/london\/17-19-gloucester-rd","addr:street":"Gloucester Road","addr:housenumber":"17-21"}}, "geometry":{"type":"Point","coordinates":[-0.18356,51.49836 ]}},
{ "type":"Feature","properties":{"osm_id":"7223123635","name":"Garcia's Food and Wine","other":{"shop":"supermarket","addr:street":"Portobello Road","addr:housenumber":"248-250"}}, "geometry":{"type":"Point","coordinates":[-0.20652,51.51796 ]}},
{ "type":"Feature","properties":{"osm_id":"7254778394","name":"Costcutter","other":{"shop":"supermarket","brand":"Costcutter","website":"https:\/\/www.costcutter.co.uk\/","addr:street":"Golborne Road","brand:wikidata":"Q5175072","brand:wikipedia":"en:Costcutter","addr:housenumber":"17"}}, "geometry":{"type":"Point","coordinates":[-0.20629,51.52345 ]}},
{ "type":"Feature","properties":{"osm_id":"7285393185","name":"Green Valley","other":{"shop":"supermarket","addr:street":"Kensington High Street","addr:housenumber":"348-354"}}, "geometry":{"type":"Point","coordinates":[-0.20522,51.49706 ]}},
{ "type":"Feature","properties":{"osm_id":"7353477027","name":"Oksa Quality Food","other":{"shop":"supermarket","addr:street":"Clarendon Road","addr:housenumber":"121"}}, "geometry":{"type":"Point","coordinates":[-0.21112,51.51247 ]}},
{ "type":"Feature","properties":{"osm_id":"8118643631","name":"M&S Simply Food","other":{"addr:city":"London","addr:housenumber":"104-106","addr:postcode":"W11 3QA","addr:street":"Notting Hill Gate","brand":"M&S Simply Food","brand:wikidata":"Q714491","brand:wikipedia":"en:Marks & Spencer","operator":"Marks & Spencer","phone":"+44 20 7167 2541","shop":"supermarket"}}, "geometry":{"type":"Point","coordinates":[-0.19792,51.50901 ]}},
{ "type":"Feature","properties":{"osm_id":"8292498877","name":"Here Organic Warehouse","other":{"addr:housenumber":"125","addr:street":"Sydney Street","organic":"only","shop":"supermarket"}}, "geometry":{"type":"Point","coordinates":[-0.16991,51.48806 ]}},
{ "type":"Feature","properties":{"osm_id":"8308880903","name":"Waitrose","other":{"addr:housenumber":"186","addr:street":"King's Road","brand":"Waitrose","brand:wikidata":"Q771734","brand:wikipedia":"en:Waitrose","official_name":"Waitrose & Partners","shop":"supermarket"}}, "geometry":{"type":"Point","coordinates":[-0.16672,51.48844 ]}},
{ "type":"Feature","properties":{"osm_id":"9197803635","other":{"advertising":"screen","animated":"screen","direction":"290","land_property":"private","lit":"no","luminous":"yes","mapillary":"235040564736686","message":"commercial","operator":"London Lites","sides":"1","support":"wall","visibility":"area","website":"https:\/\/londonlites.co.uk\/locations\/cromwell-trio\/"}}, "geometry":{"type":"Point","coordinates":[-0.1845,51.4948 ]}},
{ "type":"Feature","properties":{"osm_id":"9197803636","other":{"advertising":"screen","animated":"screen","direction":"290","land_property":"private","lit":"no","luminous":"yes","mapillary":"301152991719578","message":"commercial","operator":"London Lites","sides":"1","support":"wall","visibility":"area","website":"https:\/\/londonlites.co.uk\/locations\/cromwell-trio\/"}}, "geometry":{"type":"Point","coordinates":[-0.18463,51.49471 ]}},
{ "type":"Feature","properties":{"osm_way_id":"4996178","name":"Tesco","building":"yes","landuse":"retail","shop":"supermarket","other":{"addr:city":"London","addr:postcode":"W14 8PB","addr:street":"West Cromwell Road","alt_name":"tesco Kensington Superstore","brand":"Tesco","brand:wikidata":"Q487494","brand:wikipedia":"en:Tesco","building:levels":"2","name:fa":"تسکو","opening_hours":"Mo-Sa 00:00-24:00; Su 11:00-17:00"}}, "geometry":{"type":"MultiPolygon","coordinates":[[[[-0.20166,51.49271],[-0.2017,51.49269],[-0.20223,51.49328],[-0.20209,51.49333],[-0.20151,51.49353],[-0.20099,51.49295],[-0.20083,51.49274],[-0.2015,51.49252],[-0.20166,51.49271]]]]}},
{ "type":"Feature","properties":{"osm_way_id":"24790185","name":"Sainsbury's","building":"yes","shop":"supermarket","other":{"brand":"Sainsbury's","alt_name":"Sainsbury's Ladbroke Grove Superstore","wheelchair":"yes","addr:street":"Ladbroke Grove","addr:postcode":"W10 5AA","opening_hours":"Mo-Sa 07:00-24:00; Su 11:00-17:00","brand:wikidata":"Q152096","brand:wikipedia":"en:Sainsbury's","toilets:wheelchair":"yes"}}, "geometry":{"type":"MultiPolygon","coordinates":[[[[-0.21688,51.52643],[-0.21719,51.52587],[-0.21728,51.52589],[-0.2173,51.52585],[-0.21748,51.52589],[-0.21752,51.52583],[-0.21816,51.52597],[-0.21819,51.5259],[-0.21856,51.52597],[-0.21862,51.52599],[-0.21853,51.52615],[-0.21846,51.52613],[-0.21811,51.52677],[-0.21697,51.52653],[-0.21701,51.52646],[-0.21688,51.52643]]]]}},
{ "type":"Feature","properties":{"osm_way_id":"26614151","name":"Sainsbury's","building":"retail","shop":"supermarket","other":{"brand":"Sainsbury's","alt_name":"Sainsbury's Cromwell Road Superstore","addr:street":"Cromwell Road","addr:postcode":"SW7 4EJ","opening_hours":"Mo 07:00-24:00, Tu-Fr 06:00-24:00, Sa 06:00-22:00; Su 11:00-17:00","brand:wikidata":"Q152096","brand:wikipedia":"en:Sainsbury's","addr:housenumber":"158a"}}, "geometry":{"type":"MultiPolygon","coordinates":[[[[-0.189,51.49519],[-0.18885,51.49536],[-0.18878,51.49536],[-0.18864,51.49557],[-0.18847,51.49582],[-0.18845,51.49585],[-0.18843,51.49587],[-0.18839,51.49589],[-0.18809,51.49592],[-0.18795,51.49525],[-0.18794,51.49518],[-0.18793,51.49511],[-0.18822,51.49502],[-0.18836,51.49499],[-0.18844,51.49498],[-0.18852,51.49491],[-0.18851,51.4949],[-0.18857,51.49483],[-0.18879,51.4949],[-0.1887,51.49499],[-0.18889,51.49507],[-0.18892,51.49512],[-0.18895,51.49511],[-0.18896,51.49511],[-0.18898,51.49512],[-0.189,51.49515],[-0.189,51.49519]]]]}},
{ "type":"Feature","properties":{"osm_way_id":"98704288","name":"Waitrose","building":"retail","shop":"supermarket","other":{"addr:city":"London","addr:housenumber":"196","addr:postcode":"SW3 5XP","addr:street":"King's Road","alt_name":"Waitrose King's Road","brand":"Waitrose","brand:wikidata":"Q771734","brand:wikipedia":"en:Waitrose","building:levels":"3","official_name":"Waitrose & Partners","opening_hours":"Mo-Fr 07:30-22:00; Sa 07:30-21:00; Su 11:00-17:00","opening_hours:covid19":"Mo-Sa 07:30-21:00, Su11:00-17:00","operator":"Waitrose & Partners","roof:levels":"0","wheelchair":"yes"}}, "geometry":{"type":"MultiPolygon","coordinates":[[[[-0.16692,51.48883],[-0.16701,51.48879],[-0.16708,51.48876],[-0.16734,51.48864],[-0.16718,51.48845],[-0.16671,51.48865],[-0.16686,51.48882],[-0.16689,51.4888],[-0.16692,51.48883]]]]}},
{ "type":"Feature","properties":{"osm_way_id":"124030234","name":"Partrigdes","shop":"supermarket","other":{"addr:housenumber":"2-5","addr:postcode":"SW3 4LY","addr:street":"Duke of York Square","building:levels":"3","building:min_level":"2","phone":"+44 20 7730 0651","website":"https:\/\/www.partridges.co.uk\/","wheelchair":"yes"}}, "geometry":{"type":"MultiPolygon","coordinates":[[[[-0.16085,51.49069],[-0.16083,51.49068],[-0.16057,51.49049],[-0.16042,51.49057],[-0.16034,51.49061],[-0.1604,51.49066],[-0.16061,51.49081],[-0.16083,51.4907],[-0.16085,51.49069]]]]}},
{ "type":"Feature","properties":{"osm_way_id":"205669328","name":"M&S Simply Food","shop":"supermarket","other":{"brand":"M&S Simply Food","addr:street":"Earl's Court Road","addr:postcode":"SW5 9AS","opening_hours":"Su 12:00-18:00; Mo-Sa 07:00-23:00","brand:wikidata":"Q714491","brand:wikipedia":"en:Marks & Spencer","addr:housenumber":"226-268"}}, "geometry":{"type":"MultiPolygon","coordinates":[[[[-0.19259,51.49135],[-0.19272,51.49128],[-0.19268,51.49125],[-0.19262,51.49121],[-0.19229,51.49139],[-0.19215,51.49146],[-0.19232,51.49158],[-0.19245,51.49151],[-0.19241,51.49148],[-0.19262,51.49137],[-0.19259,51.49135]]]]}},
{ "type":"Feature","properties":{"osm_way_id":"210085408","name":"Tesco Metro","building":"yes","shop":"supermarket","other":{"addr:city":"London","addr:housenumber":"224-226","addr:postcode":"W11 1LJ","addr:street":"Portobello Road","branch":"Portobello Road Metro","brand":"Tesco Metro","brand:wikidata":"Q57551648","building:levels":"3","name:fa":"تسکو مترو","opening_hours":"Mo-Sa 07:00-23:00; Su 11:00-17:00"}}, "geometry":{"type":"MultiPolygon","coordinates":[[[[-0.20593,51.51718],[-0.20581,51.51705],[-0.20561,51.51711],[-0.20559,51.51709],[-0.20557,51.5171],[-0.20527,51.51717],[-0.20524,51.51718],[-0.20533,51.51733],[-0.20541,51.51731],[-0.20554,51.51728],[-0.20562,51.51726],[-0.20571,51.51724],[-0.20581,51.51721],[-0.20593,51.51718]]]]}},
{ "type":"Feature","properties":{"osm_way_id":"367518276","name":"Tesco Metro","shop":"supermarket","other":{"addr:housenumber":"114-120","addr:street":"Notting Hill Gate","brand":"Tesco Metro","brand:wikidata":"Q57551648","name:fa":"تسکو مترو"}}, "geometry":{"type":"MultiPolygon","coordinates":[[[[-0.19865,51.50908],[-0.19853,51.50916],[-0.19839,51.50918],[-0.19828,51.50891],[-0.19859,51.50887],[-0.1986,51.5089],[-0.19863,51.50901],[-0.19865,51.50908]]]]}},
{ "type":"Feature","properties":{"osm_way_id":"816719941","name":"Whole Foods Market","shop":"supermarket","other":{"addr:housenumber":"63-97","addr:postcode":"W8 5SE","addr:street":"Kensington High Street","brand":"Whole Foods Market","brand:wikidata":"Q1809448","brand:wikipedia":"en:Whole Foods Market","fhrs:id":"333654","level":"0-2","opening_hours":"Mo-Sa 08:00-21:00; Su 12:00-18:00","source:addr:postcode":"FHRS Open Data","website":"https:\/\/www.wholefoodsmarket.co.uk\/stores\/kensington\/"}}, "geometry":{"type":"MultiPolygon","coordinates":[[[[-0.19016,51.50198],[-0.19047,51.50193],[-0.19049,51.50193],[-0.19058,51.50191],[-0.19087,51.50183],[-0.19067,51.50156],[-0.19073,51.50154],[-0.19062,51.50135],[-0.18993,51.50147],[-0.19016,51.50198]]]]}},
{ "type":"Feature","properties":{"osm_way_id":"824948806","name":"Waitrose Kensington","shop":"supermarket","other":{"brand":"Waitrose","website":"https:\/\/www.waitrose.com\/content\/waitrose\/en\/bf_home\/bf\/678.html","addr:street":"Kensington High Street","official_name":"Waitrose & Partners","brand:wikidata":"Q771734","brand:wikipedia":"en:Waitrose & Partners","addr:housenumber":"243"}}, "geometry":{"type":"MultiPolygon","coordinates":[[[[-0.19818,51.49908],[-0.19809,51.49912],[-0.19797,51.49897],[-0.19784,51.49884],[-0.19768,51.49854],[-0.19815,51.49846],[-0.19826,51.49868],[-0.19794,51.49874],[-0.19798,51.49883],[-0.19818,51.49908]]]]}},
{ "type":"Feature","properties":{"osm_way_id":"840385653","name":"Waitrose Gloucester Road","shop":"supermarket","other":{"addr:housenumber":"128","addr:street":"Gloucester Road","brand":"Waitrose","brand:wikidata":"Q771734","brand:wikipedia":"en:Waitrose & Partners","level":"0","official_name":"Waitrose & Partners","opening_hours":"Mo-Fr 07:30-22:00; Sa 08:00-21:00; Su 12:00-18:00","operator":"Waitrose & Partners"}}, "geometry":{"type":"MultiPolygon","coordinates":[[[[-0.18426,51.49483],[-0.18428,51.49478],[-0.18407,51.49474],[-0.18402,51.49484],[-0.18397,51.49483],[-0.18387,51.49481],[-0.18384,51.49481],[-0.18386,51.49477],[-0.18316,51.49463],[-0.18332,51.49433],[-0.18344,51.49436],[-0.18423,51.49452],[-0.18465,51.4946],[-0.18466,51.49465],[-0.18463,51.49471],[-0.18463,51.49472],[-0.18464,51.49474],[-0.18465,51.49474],[-0.18466,51.49476],[-0.18466,51.49477],[-0.18465,51.49478],[-0.18464,51.49479],[-0.18463,51.49479],[-0.18461,51.4948],[-0.18459,51.4948],[-0.1845,51.49478],[-0.1845,51.4948],[-0.18449,51.49481],[-0.18426,51.49483]]]]}}
]
}
