{
"type": "FeatureCollection",
"features": [
{ "type":"Feature","properties":{"osm_id":"242067885","name":"Sainsbury's","other":{"brand":"Sainsbury's","brand:wikidata":"Q152096","brand:wikipedia":"en:Sainsbury's","opening_hours":"Mo-Fr 07:00-22:00; Sa 07:00-21:30; Su 11:00-17:00","shop":"supermarket","wheelchair":"yes"}}, "geometry":{"type":"Point","coordinates":[-0.35571,51.81633 ]}},
{ "type":"Feature","properties":{"osm_id":"242069353","name":"Co-op Food","other":{"addr:city":"Harpenden","addr:country":"GB","addr:housenumber":"130","addr:postcode":"AL5 1PU","addr:street":"Southdown Road","brand":"Co-op Food","brand:wikidata":"Q3277439","brand:wikipedia":"en:Co-op Food","fhrs:id":"305884","opening_hours":"Mo-Sa 07:00-23:00; Su 10:00-16:00","operator":"The Co-operative Group","operator:wikidata":"Q117202","operator:wikipedia":"en:The Co-operative Group","phone":"+44 1582 769961","shop":"supermarket","website":"https:\/\/www.coop.co.uk\/store-finder\/AL5-1PU\/130-southdown-road"}}, "geometry":{"type":"Point","coordinates":[-0.34386,51.80741 ]}},
{ "type":"Feature","properties":{"osm_id":"242072372","name":"M&S Simply Food","other":{"brand":"M&S Simply Food","brand:wikidata":"Q714491","brand:wikipedia":"en:Marks & Spencer","opening_hours":"Mo-Sa 08:00-20:00; Su 11:00-17:00","shop":"supermarket"}}, "geometry":{"type":"Point","coordinates":[-0.3574,51.81583 ]}},
{ "type":"Feature","properties":{"osm_id":"472020303","name":"Budgens","other":{"brand":"Budgens","brand:wikidata":"Q4985016","brand:wikipedia":"en:Budgens","shop":"supermarket"}}, "geometry":{"type":"Point","coordinates":[-0.30701,51.76416 ]}},
{ "type":"Feature","properties":{"osm_id":"5936542483","name":"Mrs. Ladybird Polish Shop","other":{"addr:city":"St Albans","addr:street":"London Road","shop":"supermarket"}}, "geometry":{"type":"Point","coordinates":[-0.33482,51.74928 ]}},
{ "type":"Feature","properties":{"osm_id":"7176318654","name":"Co-op Food","other":{"brand":"Co-op Food","brand:wikidata":"Q3277439","brand:wikipedia":"en:Co-op Food","opening_hours":"Mo-Sa 07:00-22:00; Su 09:00-22:00","shop":"supermarket"}}, "geometry":{"type":"Point","coordinates":[-0.36014,51.72804 ]}},
{ "type":"Feature","properties":{"osm_way_id":"4211967","name":"Sainsbury's","building":"yes","shop":"supermarket","other":{"addr:city":"St Albans","addr:postcode":"AL1 2QU","addr:street":"Everard Close","brand":"Sainsbury's","brand:wikidata":"Q152096","brand:wikipedia":"en:Sainsbury's","contact:website":"https:\/\/stores.sainsburys.co.uk\/0629\/st-albans","opening_hours":"Mo-Sa 07:00-22:00; Su 10:00-16:00; Dec 25-26 off","operator":"Sainsbury's Supermarkets Ltd.","phone":"+44 1727 847707"}}, "geometry":{"type":"MultiPolygon","coordinates":[[[[-0.34014,51.74322],[-0.33911,51.7427],[-0.33877,51.7425],[-0.33863,51.74242],[-0.33844,51.7423],[-0.33847,51.74228],[-0.33866,51.74239],[-0.33877,51.74231],[-0.33891,51.74239],[-0.33894,51.74237],[-0.33924,51.74252],[-0.33937,51.74242],[-0.3393,51.74239],[-0.33946,51.74227],[-0.33952,51.7423],[-0.33955,51.74227],[-0.33999,51.74249],[-0.34007,51.74242],[-0.34046,51.74259],[-0.34084,51.74277],[-0.34072,51.74286],[-0.34065,51.74283],[-0.34014,51.74322]]]]}},
{ "type":"Feature","properties":{"osm_way_id":"4370426","name":"Morrisons","building":"store","shop":"supermarket","other":{"addr:housenumber":"244","addr:postcode":"AL1 4SU","addr:street":"Hatfield Road","brand":"Morrisons","brand:wikidata":"Q922344","brand:wikipedia":"en:Morrisons","opening_hours":"Mo-Sa 07:00-22:00; Su 10:00-16:00"}}, "geometry":{"type":"MultiPolygon","coordinates":[[[[-0.31194,51.75145],[-0.312,51.75146],[-0.31198,51.75166],[-0.31204,51.75166],[-0.31202,51.7518],[-0.31194,51.75179],[-0.31193,51.75187],[-0.31139,51.75185],[-0.31139,51.75178],[-0.3106,51.75174],[-0.31062,51.75157],[-0.31073,51.75158],[-0.3108,51.75102],[-0.31114,51.75104],[-0.31113,51.75115],[-0.31144,51.75116],[-0.31145,51.75105],[-0.31178,51.75107],[-0.31177,51.75119],[-0.3118,51.75119],[-0.31195,51.75119],[-0.31194,51.7513],[-0.31196,51.7513],[-0.31194,51.75145]]]]}},
{ "type":"Feature","properties":{"osm_way_id":"34319798","name":"Waitrose","building":"yes","shop":"supermarket","other":{"addr:city":"St Albans","addr:housenumber":"1","addr:postcode":"AL3 4JZ","addr:street":"Ermine Close, Mayne Avenue","brand":"Waitrose","brand:wikidata":"Q771734","brand:wikipedia":"en:Waitrose","official_name":"Waitrose & Partners","opening_hours":"Mo-Fr 08:00-21:00; Sa 08:00-20:00; Su 11:00-17:00","operator":"Waitrose & Partners","phone":"+44 1727 831117","website":"https:\/\/www.waitrose.com\/"}}, "geometry":{"type":"MultiPolygon","coordinates":[[[[-0.35996,51.74681],[-0.35964,51.74661],[-0.36002,51.74637],[-0.3602,51.74648],[-0.36052,51.74628],[-0.36087,51.7465],[-0.36057,51.74668],[-0.36052,51.74665],[-0.3604,51.74672],[-0.36025,51.74663],[-0.35996,51.74681]]]]}},
{ "type":"Feature","properties":{"osm_way_id":"34781450","name":"Tesco Metro","building":"yes","shop":"supermarket","other":{"addr:city":"St Albans","addr:country":"GB","addr:housenumber":"33-39","addr:postcode":"AL1 3DU","addr:street":"St Peter's Street","brand":"Tesco Metro","brand:wikidata":"Q57551648","brand:wikipedia":"en:Tesco","contact:website":"https:\/\/www.tesco.com\/store-locator\/st.-albans\/33-39-st.-peters-street","old_name":"Woolworths","opening_hours":"Mo-Sa 07:00-22:00; Su 11:00-17:00","operator":"Tesco Stores Ltd","phone":"+44 345 610 2902"}}, "geometry":{"type":"MultiPolygon","coordinates":[[[[-0.33796,51.75327],[-0.3378,51.75343],[-0.33793,51.75348],[-0.33818,51.7536],[-0.33824,51.75355],[-0.3383,51.75357],[-0.33833,51.75355],[-0.33844,51.75359],[-0.33863,51.75343],[-0.33861,51.75342],[-0.33863,51.7534],[-0.33853,51.75335],[-0.3385,51.75337],[-0.33847,51.75336],[-0.33845,51.75337],[-0.33843,51.75336],[-0.33838,51.75339],[-0.33831,51.75336],[-0.33827,51.75334],[-0.33821,51.75339],[-0.33819,51.75338],[-0.33821,51.75337],[-0.33818,51.75335],[-0.33796,51.75327]]]]}},
{ "type":"Feature","properties":{"osm_way_id":"170314259","name":"Sainsbury's","building":"yes","shop":"supermarket","other":{"addr:city":"London Colney","addr:housename":"Colney Fields Shopping Park","addr:postcode":"AL2 1AB","addr:street":"Barnet Road","brand":"Sainsbury's","brand:wikidata":"Q152096","brand:wikipedia":"en:Sainsbury's","contact:website":"https:\/\/stores.sainsburys.co.uk\/0567\/london-colney","opening_hours":"Mo-Sa 06:00-23:59; Su 11:00-17:00","phone":"+44 1727 744400"}}, "geometry":{"type":"MultiPolygon","coordinates":[[[[-0.28833,51.71633],[-0.28673,51.71675],[-0.28665,51.71665],[-0.28641,51.71672],[-0.28634,51.71662],[-0.2865,51.71658],[-0.2862,51.71614],[-0.28602,51.71619],[-0.28593,51.71606],[-0.2878,51.71557],[-0.28833,51.71633]]]]}},
{ "type":"Feature","properties":{"osm_way_id":"197066281","name":"Spar","building":"retail","shop":"supermarket","other":{"addr:postcode":"AL4 0AS","brand":"Spar","brand:wikidata":"Q610492","brand:wikipedia":"en:SPAR (retailer)"}}, "geometry":{"type":"MultiPolygon","coordinates":[[[[-0.30138,51.74493],[-0.30137,51.745],[-0.30129,51.745],[-0.30127,51.7451],[-0.30136,51.74511],[-0.30135,51.74519],[-0.30153,51.7452],[-0.30154,51.74514],[-0.30163,51.74515],[-0.30165,51.74503],[-0.30161,51.74503],[-0.30162,51.74498],[-0.30157,51.74498],[-0.30157,51.74494],[-0.30138,51.74493]]]]}},
{ "type":"Feature","properties":{"osm_way_id":"236063456","name":"Waitrose","building":"retail","shop":"supermarket","other":{"addr:housenumber":"3","addr:street":"Leyton Road","brand":"Waitrose","brand:wikidata":"Q771734","brand:wikipedia":"en:Waitrose","building:levels":"2","official_name":"Waitrose & Partners","opening_hours":"Su 10:00-16:00; Mo-Fr 08:00-21:00; Sa 08:00-20:00; PH 09:00-18:00","operator":"Waitrose & Partners"}}, "geometry":{"type":"MultiPolygon","coordinates":[[[[-0.35765,51.81553],[-0.35764,51.8155],[-0.35752,51.81542],[-0.35746,51.81543],[-0.35716,51.81524],[-0.35718,51.81522],[-0.3571,51.81517],[-0.35702,51.81519],[-0.35696,51.81522],[-0.35697,51.81525],[-0.35701,51.81528],[-0.35695,51.81532],[-0.35678,51.81522],[-0.35674,51.81522],[-0.35672,51.81523],[-0.35672,51.81525],[-0.35669,51.81527],[-0.35666,51.81527],[-0.35664,51.81528],[-0.35663,51.8153],[-0.35681,51.81541],[-0.35674,51.81545],[-0.35686,51.81553],[-0.35684,51.81554],[-0.35705,51.81567],[-0.35709,51.81567],[-0.35718,51.81562],[-0.3572,51.81563],[-0.35738,51.81552],[-0.3575,51.81559],[-0.35753,51.81557],[-0.35758,51.81557],[-0.35765,51.81553]]]]}},
{ "type":"Feature","properties":{"osm_way_id":"553648435","name":"Co-op Food","building":"yes","shop":"supermarket","other":{"brand":"Co-op Food","brand:wikidata":"Q3277439","brand:wikipedia":"en:Co-op Food","operator":"The Co-operative Group","operator:wikidata":"Q117202","operator:wikipedia":"en:The Co-operative Group"}}, "geometry":{"type":"MultiPolygon","coordinates":[[[[-0.31258,51.74365],[-0.31248,51.74369],[-0.31235,51.74357],[-0.31244,51.74353],[-0.31258,51.74365]]]]}},
{ "type":"Feature","properties":{"osm_way_id":"878155331","name":"M&S Foodhall","building":"yes","shop":"supermarket","other":{"addr:city":"St Albans","addr:postcode":"AL4 9TU","addr:street":"The Ridgeway","brand":"M&S Foodhall","brand:wikidata":"Q714491","brand:wikipedia":"en:Marks & Spencer","website":"marksandspencer.com"}}, "geometry":{"type":"MultiPolygon","coordinates":[[[[-0.30659,51.76302],[-0.30707,51.76307],[-0.30705,51.76314],[-0.3071,51.76314],[-0.30707,51.76325],[-0.30655,51.7632],[-0.30659,51.76302]]]]}},
{ "type":"Feature","properties":{"osm_way_id":"918362547","name":"ALDI","building":"yes","shop":"supermarket","other":{"addr:city":"St Albans","addr:housenumber":"5","addr:postcode":"AL1 2DF","addr:street":"Graham Close","brand":"ALDI","brand:wikidata":"Q41171672","brand:wikipedia":"en:Aldi"}}, "geometry":{"type":"MultiPolygon","coordinates":[[[[-0.3404,51.74167],[-0.33992,51.74209],[-0.34018,51.74221],[-0.34015,51.74223],[-0.34026,51.74228],[-0.34082,51.74179],[-0.34068,51.74173],[-0.34063,51.74177],[-0.3404,51.74167]]]]}},
{ "type":"Feature","properties":{"osm_way_id":"1040041564","name":"Co-op Food","building":"yes","shop":"supermarket","other":{"brand":"Co-op Food","brand:wikidata":"Q3277439","brand:wikipedia":"en:Co-op Food","operator":"The Co-operative Group","operator:wikidata":"Q117202","operator:wikipedia":"en:The Co-operative Group"}}, "geometry":{"type":"MultiPolygon","coordinates":[[[[-0.34181,51.82587],[-0.34166,51.82566],[-0.34179,51.82562],[-0.34194,51.82583],[-0.34181,51.82587]]]]}},
{ "type":"Feature","properties":{"osm_way_id":"1040041599","name":"Tesco","building":"yes","shop":"supermarket","other":{"brand":"Tesco","brand:wikidata":"Q487494","brand:wikipedia":"en:Tesco","operator":"Tesco"}}, "geometry":{"type":"MultiPolygon","coordinates":[[[[-0.34092,51.8247],[-0.34075,51.82465],[-0.34086,51.82452],[-0.34092,51.82445],[-0.34109,51.8245],[-0.34092,51.8247]]]]}}
]
}
