{
"type": "FeatureCollection",
"features": [
{ "type":"Feature","properties":{"osm_id":"243583757","name":"Lidl","other":{"addr:city":"London","addr:housenumber":"106-112","addr:postcode":"SE26 5JX","addr:street":"Sydenham Road","brand":"Lidl","brand:wikidata":"Q151954","brand:wikipedia":"en:Lidl","fhrs:id":"256273","name:fa":"لیدل","operator":"Lidl","shop":"supermarket","source:addr":"FHRS Open Data","wheelchair":"yes"}}, "geometry":{"type":"Point","coordinates":[-0.04804,51.42528 ]}},
{ "type":"Feature","properties":{"osm_id":"243584788","name":"Lidl","other":{"addr:country":"GB","addr:housenumber":"237-249","addr:postcode":"SE6 3DS","addr:street":"Southend Lane","brand":"Lidl","brand:wikidata":"Q151954","fhrs:id":"255054","shop":"supermarket","wheelchair":"yes"}}, "geometry":{"type":"Point","coordinates":[-0.0263,51.42632 ]}},
{ "type":"Feature","properties":{"osm_id":"264046250","name":"Tesco","other":{"addr:city":"London","addr:housenumber":"87-91","addr:postcode":"SE6 4LJ","addr:street":"Perry Hill","brand":"Tesco Express","brand:wikidata":"Q98456772","contact:website":"https:\/\/www.tesco.com\/store-locator\/london\/87-89-perry-hill","fhrs:id":"256217","name:fa":"تسکو","shop":"supermarket","source:addr":"FHRS Open Data"}}, "geometry":{"type":"Point","coordinates":[-0.03393,51.43564 ]}},
{ "type":"Feature","properties":{"osm_id":"2563680049","name":"Lidl","other":{"addr:city":"London","addr:housenumber":"104-120","addr:postcode":"SE13 5PT","addr:street":"Lee High Road","brand":"Lidl","brand:wikidata":"Q151954","brand:wikipedia":"en:Lidl","fhrs:id":"580633","shop":"supermarket","source:addr":"FHRS Open Data","wheelchair":"yes"}}, "geometry":{"type":"Point","coordinates":[-0.00524,51.46039 ]}},
{ "type":"Feature","properties":{"osm_id":"3889304773","name":"The Co-operative Food","other":{"addr:city":"London","addr:housename":"Hilton House","addr:housenumber":"100","addr:postcode":"SE4 2BN","addr:street":"St Norbert Road","brand":"The Co-operative Food","brand:wikidata":"Q3277439","brand:wikipedia":"en:Co-op Food","fhrs:id":"256171","fhrs:local_authority_id":"PI\/000180856","shop":"supermarket"}}, "geometry":{"type":"Point","coordinates":[-0.04377,51.45878 ]}},
{ "type":"Feature","properties":{"osm_id":"4086368559","name":"Co-op","other":{"addr:city":"London","addr:housenumber":"308-312","addr:postcode":"SE6 2JT","addr:street":"Sangley Road","addr:suburb":"Catford","fhrs:id":"255011","opening_hours":"Open until late","operator":"Co-op","shop":"supermarket","source:addr":"FHRS Open Data"}}, "geometry":{"type":"Point","coordinates":[-0.01069,51.44221 ]}},
{ "type":"Feature","properties":{"osm_id":"4314954442","name":"Corner Shop","other":{"shop":"supermarket"}}, "geometry":{"type":"Point","coordinates":[-0.04357,51.4351 ]}},
{ "type":"Feature","properties":{"osm_id":"4505132707","name":"Iceland","other":{"addr:county":"London","addr:housenumber":"470","addr:postcode":"BR1 4PP","addr:street":"Bromley Road","brand":"Iceland","brand:wikidata":"Q721810","fhrs:id":"982767","name:en":"Iceland","shop":"supermarket","source:addr":"FHRS Open Data"}}, "geometry":{"type":"Point","coordinates":[-0.00394,51.42416 ]}},
{ "type":"Feature","properties":{"osm_id":"4505836989","name":"Tesco Express","other":{"addr:county":"London","addr:housenumber":"480-486","addr:postcode":"BR1 4PB","addr:street":"Bromley Road","brand":"Tesco Express","brand:wikidata":"Q98456772","brand:wikipedia":"en:Tesco","contact:website":"https:\/\/www.tesco.com\/store-locator\/bromley\/480-486-bromley-rd","fhrs:id":"256507","name:en":"Tesco Express","name:fa":"تسکو اکسپرس","shop":"supermarket","source:addr":"FHRS Open Data"}}, "geometry":{"type":"Point","coordinates":[-0.00374,51.42369 ]}},
{ "type":"Feature","properties":{"osm_id":"5550231148","name":"Co-op Food","other":{"addr:city":"London","addr:housename":"Crofton Park","addr:housenumber":"294","addr:postcode":"SE4 2RA","addr:street":"Brockley Road","addr:unit":"Flat B","fhrs:id":"1004037","opening_hours":"Mo-Su 07:00-23:00","shop":"supermarket","source:addr":"FHRS Open Data"}}, "geometry":{"type":"Point","coordinates":[-0.03411,51.4591 ]}},
{ "type":"Feature","properties":{"osm_id":"5842529138","name":"Istanbul","other":{"addr:city":"Sydenham","addr:floor":"Ground Floor Unit","addr:housenumber":"91","addr:postcode":"SE26 5UA","addr:street":"Sydenham Road","fhrs:id":"256542","name:fa":"استانبول","shop":"supermarket","source:addr":"FHRS Open Data"}}, "geometry":{"type":"Point","coordinates":[-0.05011,51.42611 ]}},
{ "type":"Feature","properties":{"osm_id":"5842529169","name":"Endora House Food & Wine","other":{"addr:city":"London","addr:housenumber":"28","addr:postcode":"SE26 5QW","addr:street":"Sydenham Road","fhrs:id":"256184","shop":"supermarket","source:addr":"FHRS Open Data"}}, "geometry":{"type":"Point","coordinates":[-0.05288,51.42616 ]}},
{ "type":"Feature","properties":{"osm_id":"5842529172","name":"PFC","other":{"addr:city":"Sydenham","addr:floor":"0","addr:housenumber":"42","addr:postcode":"SE26 5QF","addr:street":"Sydenham Road","fhrs:id":"868955","shop":"supermarket","source:addr":"FHRS Open Data"}}, "geometry":{"type":"Point","coordinates":[-0.05183,51.42601 ]}},
{ "type":"Feature","properties":{"osm_id":"5842529986","name":"To Tu Polish Food Shop","other":{"addr:city":"Sydenham","addr:housenumber":"104","addr:postcode":"SE26 5JX","addr:street":"Sydenham Road","fhrs:id":"1092429","shop":"supermarket","source:addr":"FHRS Open Data"}}, "geometry":{"type":"Point","coordinates":[-0.04819,51.42559 ]}},
{ "type":"Feature","properties":{"osm_id":"5842530008","name":"S K Food & Wine","other":{"addr:city":"London","addr:housenumber":"168","addr:postcode":"SE26 5JZ","addr:street":"Sydenham Road","fhrs:id":"868958","shop":"supermarket","source:addr":"FHRS Open Data"}}, "geometry":{"type":"Point","coordinates":[-0.04437,51.42555 ]}},
{ "type":"Feature","properties":{"osm_id":"5842530009","name":"Istanbul Supermarket","other":{"addr:city":"Sydenham","addr:housenumber":"180-190","addr:postcode":"SE26 5RP","addr:street":"Sydenham Road","fhrs:id":"1034853","name:fa":"سوپرمارکت استانبول","shop":"supermarket","source:addr":"FHRS Open Data"}}, "geometry":{"type":"Point","coordinates":[-0.04348,51.42573 ]}},
{ "type":"Feature","properties":{"osm_id":"6143757027","name":"Asda","other":{"addr:city":"Lewisham","addr:country":"GB","addr:housename":"Lindsay Court","addr:postcode":"SE13 7LL","addr:street":"Loampit Vale","addr:unit":"1,2","brand":"Asda","brand:wikidata":"Q297410","brand:wikipedia":"en:Asda","contact:facebook":"https:\/\/www.facebook.com\/asda\/","contact:twitter":"@asda","contact:website":"https:\/\/storelocator.asda.com\/london\/lewisham\/unit-1-and-2-thurston-point","fhrs:id":"955826","level":"0","operator":"Asda Stores Ltd","shop":"supermarket"}}, "geometry":{"type":"Point","coordinates":[-0.01659,51.46511 ]}},
{ "type":"Feature","properties":{"osm_id":"6655557352","name":"Tesco Express","other":{"addr:city":"London","addr:housename":"The George","addr:housenumber":"1","addr:postcode":"SE6 4AS","addr:street":"Rushey Green","brand":"Tesco Express","brand:wikidata":"Q98456772","brand:wikipedia":"en:Tesco","contact:website":"https:\/\/www.tesco.com\/store-locator\/london\/1-rushey-green","fhrs:id":"760537","name:fa":"تسکو اکسپرس","shop":"supermarket","source:addr":"FHRS Open Data"}}, "geometry":{"type":"Point","coordinates":[-0.01667,51.45031 ]}},
{ "type":"Feature","properties":{"osm_id":"6848733874","other":{"exit":"yes"}}, "geometry":{"type":"Point","coordinates":[-0.04207,51.47692 ]}},
{ "type":"Feature","properties":{"osm_id":"7294365255","name":"Forest Hill Supermarket","other":{"shop":"supermarket"}}, "geometry":{"type":"Point","coordinates":[-0.05265,51.439 ]}},
{ "type":"Feature","properties":{"osm_id":"7756557961","name":"Co-op Food","other":{"addr:city":"London","addr:housenumber":"36-40","addr:postcode":"SE6 3BT","addr:street":"Randlesdown Road","addr:suburb":"Bellingham","brand":"Co-op Food","brand:wikidata":"Q3277439","brand:wikipedia":"en:Co-op Food","fhrs:id":"255710","shop":"supermarket","source:addr":"FHRS Open Data"}}, "geometry":{"type":"Point","coordinates":[-0.02119,51.4324 ]}},
{ "type":"Feature","properties":{"osm_id":"8215522335","name":"Co-op Food","other":{"brand":"Co-op Food","brand:wikidata":"Q3277439","brand:wikipedia":"en:Co-op Food","operator":"The Co-operative Group","operator:wikidata":"Q117202","operator:wikipedia":"en:The Co-operative Group","shop":"supermarket"}}, "geometry":{"type":"Point","coordinates":[-0.04758,51.44249 ]}},
{ "type":"Feature","properties":{"osm_id":"8623617101","name":"Longdan Lewisham","other":{"addr:city":"London","addr:housenumber":"262 - 274","addr:interpolation":"even","addr:postcode":"SE13 6AD","addr:street":"Lewisham High Street","addr:suburb":"Hither Green","fhrs:id":"1382428","opening_hours":"Mo-Su 10:30-20:30","phone":"+44 20 8690 0316","shop":"supermarket","source:addr":"FHRS Open Data","vegan":"yes","website":"https:\/\/longdan.co.uk\/"}}, "geometry":{"type":"Point","coordinates":[-0.01334,51.45794 ]}},
{ "type":"Feature","properties":{"osm_id":"8685217846","name":"Korona","other":{"addr:city":"London","addr:housenumber":"99-101","addr:postcode":"SE6 4AF","addr:street":"Rushey Green","fhrs:id":"944002","shop":"supermarket","source:addr":"FHRS Open Data"}}, "geometry":{"type":"Point","coordinates":[-0.01803,51.44734 ]}},
{ "type":"Feature","properties":{"osm_id":"8779379976","name":"Costcutter","other":{"brand":"Costcutter","brand:wikidata":"Q5175072","brand:wikipedia":"en:Costcutter","shop":"supermarket"}}, "geometry":{"type":"Point","coordinates":[0.03108,51.43176 ]}},
{ "type":"Feature","properties":{"osm_way_id":"4076656","name":"Sainsbury's","building":"supermarket","shop":"supermarket","other":{"addr:city":"London","addr:housename":"Sava Centre","addr:postcode":"SE26 4PU","addr:street":"Southend Lane","addr:suburb":"Bellingham","brand":"Sainsbury's","brand:wikidata":"Q152096","designation":"Sydenham Superstore","fhrs:id":"255487","source:addr":"FHRS Open Data","wheelchair":"yes"}}, "geometry":{"type":"MultiPolygon","coordinates":[[[[-0.03422,51.43066],[-0.03252,51.43071],[-0.03242,51.42961],[-0.03421,51.42953],[-0.03424,51.42974],[-0.03427,51.43],[-0.03415,51.43],[-0.03422,51.43065],[-0.03422,51.43066]]]]}},
{ "type":"Feature","properties":{"osm_way_id":"48162810","name":"Co-Op","building":"yes","shop":"supermarket","other":{"addr:postcode":"BR1 5HS","addr:street":"Downham Way","fhrs:id":"256851","operator":"Co-Op","source:addr":"FHRS Open Data"}}, "geometry":{"type":"MultiPolygon","coordinates":[[[[0.0122,51.42736],[0.01217,51.42689],[0.0126,51.42688],[0.01262,51.42731],[0.01236,51.42731],[0.01236,51.42736],[0.0122,51.42736]]]]}},
{ "type":"Feature","properties":{"osm_way_id":"158439966","name":"Sainsbury's","building":"yes","shop":"supermarket","other":{"addr:housenumber":"34-48","addr:postcode":"SE23 3HF","addr:street":"London Road","brand":"Sainsbury's","brand:wikidata":"Q152096","brand:wikipedia":"en:Sainsbury's","designation":"Forest Hill Superstore","payment:cash":"yes","payment:credit_cards":"yes","wheelchair":"yes"}}, "geometry":{"type":"MultiPolygon","coordinates":[[[[-0.05587,51.4398],[-0.05535,51.43961],[-0.05528,51.43968],[-0.05518,51.4398],[-0.05535,51.43986],[-0.05524,51.43999],[-0.05521,51.44003],[-0.05525,51.44004],[-0.05512,51.44017],[-0.05539,51.44025],[-0.05558,51.44032],[-0.05572,51.44017],[-0.05564,51.44014],[-0.05575,51.43994],[-0.05577,51.43992],[-0.05587,51.4398]]]]}},
{ "type":"Feature","properties":{"osm_way_id":"176347850","name":"Tesco","building":"retail","shop":"supermarket","other":{"addr:city":"London","addr:housename":"Tesco Superstore","addr:housenumber":"209","addr:postcode":"SE13 7PA","addr:street":"Lewisham Road","addr:suburb":"Ladywell","brand":"Tesco","brand:wikidata":"Q487494","brand:wikipedia":"en:Tesco","building:levels":"1","fhrs:authority":"Lewisham","fhrs:id":"255831","fhrs:local_authority_id":"PI\/000038046","name:fa":"تسکو","opening_hours":"Mo-Sa 00:00-24:00; Su 11:00-17:00","roof:levels":"1","source:addr":"FHRS Open Data","toilets":"yes","toilets:access":"public","toilets:female":"yes","toilets:male":"yes","toilets:wheelchair":"yes","wheelchair":"yes","wheelchair:description":"Small (often locked) accessible unisex toilet. Key available from customer services. Access carpark downstairs via stairs, lift or long ramp"}}, "geometry":{"type":"MultiPolygon","coordinates":[[[[-0.01322,51.46642],[-0.01305,51.46631],[-0.01302,51.46633],[-0.01242,51.46591],[-0.01228,51.46599],[-0.01244,51.46609],[-0.01212,51.46628],[-0.01204,51.46623],[-0.01176,51.46641],[-0.01201,51.46657],[-0.01212,51.4665],[-0.01243,51.4667],[-0.01239,51.46673],[-0.01247,51.46678],[-0.01245,51.46679],[-0.01255,51.46685],[-0.01261,51.46681],[-0.01278,51.46687],[-0.01299,51.46674],[-0.01319,51.46687],[-0.01345,51.46671],[-0.01334,51.46664],[-0.01328,51.4666],[-0.01332,51.46657],[-0.01324,51.46652],[-0.01327,51.4665],[-0.01319,51.46644],[-0.01322,51.46642]]]]}},
{ "type":"Feature","properties":{"osm_way_id":"186872602","name":"Sainsbury's","building":"retail","shop":"supermarket","other":{"addr:city":"London","addr:housenumber":"263d","addr:postcode":"SE14 5UQ","addr:street":"New Cross Road","brand":"Sainsbury's","brand:wikidata":"Q152096","brand:wikipedia":"en:Sainsbury's","building:levels":"1","internet_access":"wlan","internet_access:fee":"no","opening_hours":"Mo-Sa 08:00-22:00; Su 11:00-17:00","website":"https:\/\/stores.sainsburys.co.uk\/0031\/new-cross-gate","wheelchair":"yes"}}, "geometry":{"type":"MultiPolygon","coordinates":[[[[-0.04293,51.47729],[-0.04289,51.4773],[-0.04291,51.47732],[-0.04285,51.47776],[-0.04275,51.47778],[-0.04269,51.47766],[-0.04221,51.47774],[-0.04203,51.47758],[-0.04202,51.47755],[-0.04198,51.47756],[-0.04176,51.47711],[-0.0418,51.4771],[-0.04176,51.47703],[-0.04187,51.47701],[-0.04185,51.47698],[-0.04174,51.477],[-0.04173,51.47698],[-0.04191,51.47695],[-0.04207,51.47692],[-0.04239,51.47686],[-0.04242,51.47693],[-0.04264,51.47689],[-0.04261,51.47682],[-0.04269,51.4768],[-0.04273,51.47688],[-0.04281,51.47705],[-0.04283,51.47709],[-0.04293,51.47729]]]]}},
{ "type":"Feature","properties":{"osm_way_id":"186878671","name":"Spar","shop":"supermarket","other":{"addr:city":"London","addr:housenumber":"4","addr:postcode":"SE4 2EX","addr:street":"Mantle Road","atm":"indoor","brand":"Spar","brand:wikidata":"Q610492","brand:wikipedia":"en:Spar (retailer)","fhrs:id":"937520","name:fa":"اسپار","opening_hours":"Mo-Sa 06:30-22:00, Su 06:30-21:00","source:addr":"FHRS Open Data","wheelchair":"yes"}}, "geometry":{"type":"MultiPolygon","coordinates":[[[[-0.03803,51.4647],[-0.038,51.46493],[-0.03775,51.46492],[-0.03776,51.46483],[-0.03776,51.46477],[-0.03777,51.46469],[-0.03803,51.4647]]]]}},
{ "type":"Feature","properties":{"osm_way_id":"215416573","name":"Tesco","building":"retail","shop":"supermarket","other":{"addr:city":"London","addr:housenumber":"14-21","addr:postcode":"SE6 4JU","addr:street":"Winslade Way","brand":"Tesco","brand:wikidata":"Q487494","brand:wikipedia":"en:Tesco","designation":"Catford Superstore","fhrs:id":"256892","name:fa":"تسکو","opening_hours":"Mo-Sa 07:00-19:00; Su 10:00-16:00","source:addr":"FHRS Open Data"}}, "geometry":{"type":"MultiPolygon","coordinates":[[[[-0.02245,51.44658],[-0.0218,51.44651],[-0.02198,51.44592],[-0.02262,51.44599],[-0.02245,51.44658]]]]}},
{ "type":"Feature","properties":{"osm_way_id":"215417384","name":"Aldi","building":"supermarket","shop":"supermarket","other":{"addr:city":"London","addr:housenumber":"42-52","addr:postcode":"SE6 4JD","addr:street":"Rushey Green","brand":"ALDI","brand:wikidata":"Q41171672","brand:wikipedia":"en:Aldi","designation":"Catford","fhrs:id":"255063","name:fa":"آلدی","opening_hours":"Mo-Sa 08:00-20:00; Su 10:30-17:00","source:addr":"FHRS Open Data","wheelchair":"yes"}}, "geometry":{"type":"MultiPolygon","coordinates":[[[[-0.01801,51.4485],[-0.01784,51.44846],[-0.01791,51.44836],[-0.01775,51.44834],[-0.01746,51.44881],[-0.01783,51.4489],[-0.0179,51.44877],[-0.01785,51.44876],[-0.01801,51.4485]]]]}},
{ "type":"Feature","properties":{"osm_way_id":"215418534","name":"Lidl","building":"supermarket","shop":"supermarket","other":{"addr:city":"London","addr:postcode":"SE6 2DD","addr:street":"Plassy Road","addr:unit":"UNIT 2B lIDL","brand":"Lidl","brand:wikidata":"Q151954","brand:wikipedia":"en:Lidl","designation":"Catford","fhrs:id":"255486","source:addr":"FHRS Open Data"}}, "geometry":{"type":"MultiPolygon","coordinates":[[[[-0.01937,51.44436],[-0.01871,51.4443],[-0.01864,51.44458],[-0.019,51.44462],[-0.0193,51.44464],[-0.01937,51.44436]]]]}},
{ "type":"Feature","properties":{"osm_way_id":"223047451","name":"Tesco Express","shop":"supermarket","other":{"addr:housename":"Meridian South Development","addr:postcode":"SE13 6RT","addr:street":"Hither Green Lane","brand":"Tesco Express","brand:wikidata":"Q98456772","name:fa":"تسکو اکسپرس","opening_hours":"Mo-Su 07:00-23:00"}}, "geometry":{"type":"MultiPolygon","coordinates":[[[[-0.00399,51.44856],[-0.00388,51.44847],[-0.00377,51.44837],[-0.00355,51.44846],[-0.00376,51.44866],[-0.00399,51.44856]]]]}},
{ "type":"Feature","properties":{"osm_way_id":"223048154","name":"Sainsbury's","building":"yes","shop":"supermarket","other":{"addr:city":"London","addr:housenumber":"14","addr:postcode":"SE12 8PZ","addr:street":"Burnt Ash Road","brand":"Sainsbury's","brand:wikidata":"Q152096","designation":"Lea Green Superstore","fhrs:id":"256068","opening_hours":"Mo-Sa 07:00-23:00, Su 11:00-17:00","source:addr":"FHRS Open Data"}}, "geometry":{"type":"MultiPolygon","coordinates":[[[[0.00949,51.456],[0.00977,51.45601],[0.00981,51.45574],[0.00987,51.45571],[0.01022,51.45573],[0.01022,51.4557],[0.01067,51.45573],[0.01064,51.45588],[0.01071,51.45588],[0.01068,51.45606],[0.01067,51.4561],[0.01054,51.45608],[0.01045,51.45649],[0.00986,51.45645],[0.00985,51.45647],[0.00979,51.45646],[0.00969,51.45645],[0.00963,51.45643],[0.00958,51.4564],[0.00956,51.45637],[0.00954,51.45631],[0.00949,51.456]]]]}},
{ "type":"Feature","properties":{"osm_way_id":"223048890","name":"Co-op","building":"yes","shop":"supermarket","other":{"addr:city":"London","addr:housenumber":"200-206","addr:postcode":"SE13 6RT","addr:street":"Hither Green Lane","addr:suburb":"Hither Green","fhrs:id":"255131","source:addr":"FHRS Open Data"}}, "geometry":{"type":"MultiPolygon","coordinates":[[[[-0.00667,51.45121],[-0.00653,51.45102],[-0.00646,51.45104],[-0.00627,51.45109],[-0.00641,51.45129],[-0.00667,51.45121]]]]}},
{ "type":"Feature","properties":{"osm_way_id":"223048892","name":"Co-op","building":"yes","shop":"supermarket","other":{"addr:city":"London","addr:housename":"Texaco Service Station","addr:postcode":"SE6 1AA","addr:street":"Brownhill Road","fhrs:id":"1047075","source:addr":"FHRS Open Data"}}, "geometry":{"type":"MultiPolygon","coordinates":[[[[-0.00763,51.44534],[-0.00763,51.44519],[-0.00729,51.44519],[-0.00728,51.44535],[-0.00759,51.44536],[-0.00763,51.44534]]]]}},
{ "type":"Feature","properties":{"osm_way_id":"372018632","name":"Ha-Noi","building":"yes","shop":"supermarket","other":{"addr:city":"London","addr:housenumber":"84","addr:postcode":"SE8 4RG","addr:street":"Deptford High Street","cuisine":"vietnamese","fhrs:id":"256890","source:addr":"FHRS Open Data","wheelchair":"limited"}}, "geometry":{"type":"MultiPolygon","coordinates":[[[[-0.02578,51.47739],[-0.02577,51.47733],[-0.02556,51.47733],[-0.02546,51.47733],[-0.02546,51.47739],[-0.02556,51.47739],[-0.02578,51.47739]]]]}},
{ "type":"Feature","properties":{"osm_way_id":"390830077","name":"Asda","building":"yes","shop":"supermarket","other":{"addr:city":"London","addr:country":"GB","addr:housenumber":"5-9","addr:postcode":"SE8 4AD","addr:street":"Deptford High Street","alt_name":"ASDA Deptford","brand":"Asda","brand:wikidata":"Q297410","brand:wikipedia":"en:Asda","contact:facebook":"https:\/\/www.facebook.com\/asda\/","contact:phone":"+44 20 3794 7420","contact:twitter":"@asda","contact:website":"https:\/\/storelocator.asda.com\/london\/deptford\/5-9-deptford-high-street","fhrs:id":"786204","opening_hours":"Mo-Sa 07:00-23:00; Su 11:00-17:00","operator":"Asda Stores Ltd","wheelchair":"yes"}}, "geometry":{"type":"MultiPolygon","coordinates":[[[[-0.02611,51.47533],[-0.02614,51.47518],[-0.02628,51.47519],[-0.02625,51.47534],[-0.02611,51.47533]]]]}},
{ "type":"Feature","properties":{"osm_way_id":"434694848","name":"Peacock Food & Wine","building":"yes","shop":"supermarket","other":{"addr:city":"London","addr:housenumber":"333","addr:postcode":"SE6 4UE","addr:street":"Stanstead Road","addr:suburb":"Catford","fhrs:id":"255609","source:addr":"FHRS Open Data"}}, "geometry":{"type":"MultiPolygon","coordinates":[[[[-0.03307,51.44224],[-0.03299,51.44222],[-0.03305,51.44211],[-0.03312,51.44212],[-0.03307,51.44224]]]]}},
{ "type":"Feature","properties":{"osm_way_id":"435374356","name":"Lidl","building":"yes","shop":"supermarket","other":{"addr:city":"London Borough of Southwark","addr:country":"GB","addr:postcode":"SE8 5AB","addr:street":"Bestwood Street","brand":"Lidl","brand:wikidata":"Q151954","brand:wikipedia":"en:Lidl","fhrs:id":"463555","opening_hours":"Mo-Sa 08:00-22:00, Su 11:00-17:00","payment:cash":"yes","payment:mastercard":"yes","payment:visa":"yes"}}, "geometry":{"type":"MultiPolygon","coordinates":[[[[-0.04328,51.48973],[-0.04334,51.48977],[-0.0435,51.48968],[-0.04402,51.49002],[-0.04437,51.48983],[-0.04377,51.48942],[-0.04376,51.48943],[-0.04328,51.48973]]]]}},
{ "type":"Feature","properties":{"osm_way_id":"536721733","name":"Co-op","building":"yes","shop":"supermarket","other":{"addr:city":"London","addr:housenumber":"27-31","addr:postcode":"SE12 0AE","addr:street":"Burnt Ash Hill","fhrs:id":"850237","operator":"The Co-operative Group","source:addr":"survey;FHRS Open Data"}}, "geometry":{"type":"MultiPolygon","coordinates":[[[[0.01341,51.44835],[0.01354,51.44837],[0.01345,51.44862],[0.01331,51.44861],[0.01341,51.44835]]]]}},
{ "type":"Feature","properties":{"osm_way_id":"555320957","name":"Aldi","building":"retail","shop":"supermarket","other":{"addr:city":"London","addr:housenumber":"Units 1-2","addr:postcode":"SE26 4PU","addr:street":"Bell Green Retail Park","addr:unit":"1-2","brand":"ALDI","brand:wikidata":"Q41171672","brand:wikipedia":"en:Aldi"}}, "geometry":{"type":"MultiPolygon","coordinates":[[[[-0.03547,51.43195],[-0.03542,51.43146],[-0.0353,51.43147],[-0.03482,51.43149],[-0.03487,51.43197],[-0.03547,51.43195]]]]}},
{ "type":"Feature","properties":{"osm_way_id":"760829250","name":"Sainsbury's","shop":"supermarket","other":{"addr:city":"London","addr:housename":"Lewisham Centre","addr:housenumber":"Unit 33","addr:postcode":"SE13 7EP","addr:street":"Molesworth Street","addr:suburb":"Hither Green","brand":"Sainsbury's","brand:wikidata":"Q152096","brand:wikipedia":"en:Sainsbury's","fhrs:id":"256586","fixme:addr:1":"Riverdale Centre","indoor":"room","source:addr":"FHRS Open Data","wheelchair":"yes"}}, "geometry":{"type":"MultiPolygon","coordinates":[[[[-0.01216,51.46193],[-0.01287,51.46209],[-0.01301,51.46185],[-0.01302,51.46166],[-0.01302,51.4616],[-0.01269,51.46152],[-0.01254,51.46179],[-0.01228,51.46173],[-0.01216,51.46193]]]]}},
{ "type":"Feature","properties":{"osm_way_id":"772464644","name":"Budgens","shop":"supermarket","other":{"addr:city":"London","addr:housenumber":"400-406","addr:postcode":"SE4 2DH","addr:street":"Brockley Road","addr:suburb":"Crofton Park","alt_name":"Jays Budgens","branch":"Brockley Road","brand":"Budgens","brand:wikidata":"Q4985016","brand:wikipedia":"en:Budgens","building:part":"retail","fhrs:id":"606314","fhrs:local_authority_id":"PI\/000194327","level":"0"}}, "geometry":{"type":"MultiPolygon","coordinates":[[[[-0.03822,51.45365],[-0.03819,51.45369],[-0.03834,51.45373],[-0.03834,51.45371],[-0.03838,51.45365],[-0.03839,51.45364],[-0.03841,51.45361],[-0.03843,51.45359],[-0.03828,51.45354],[-0.03825,51.4536],[-0.03822,51.45365]]]]}},
{ "type":"Feature","properties":{"osm_way_id":"772782385","name":"Budgens","shop":"supermarket","other":{"addr:city":"London","addr:housenumber":"400-406","addr:postcode":"SE4 2DH","addr:street":"Brockley Road","addr:suburb":"Crofton Park","alt_name":"Jays Budgens","branch":"Brockley Road","brand":"Budgens","brand:wikidata":"Q4985016","brand:wikipedia":"en:Budgens","building:part":"retail","fhrs:id":"606314","fhrs:local_authority_id":"PI\/000194327","level":"0","website":"https:\/\/www.budgens.co.uk\/our-stores\/brockley-road"}}, "geometry":{"type":"MultiPolygon","coordinates":[[[[-0.03822,51.45365],[-0.03819,51.45369],[-0.03834,51.45373],[-0.03834,51.45371],[-0.03838,51.45365],[-0.03839,51.45364],[-0.03841,51.45361],[-0.03843,51.45359],[-0.03828,51.45354],[-0.03825,51.4536],[-0.03822,51.45365]]]]}},
{ "type":"Feature","properties":{"osm_way_id":"887686355","name":"The Blackheath Pantry","building":"yes","shop":"supermarket","other":{"addr:city":"London","addr:floor":"0","addr:housenumber":"12","addr:postcode":"SE3 0TA","addr:street":"Montpelier Vale","addr:suburb":"Blackheath","fhrs:id":"1268769","opening_hours:signed":"no","organic":"only","source:addr":"FHRS Open Data"}}, "geometry":{"type":"MultiPolygon","coordinates":[[[[0.00867,51.46669],[0.00888,51.46666],[0.00886,51.46662],[0.00881,51.46662],[0.00878,51.46662],[0.00878,51.46662],[0.00873,51.46662],[0.00873,51.46662],[0.00864,51.46663],[0.00867,51.46669]]]]}}
]
}
