{
"type": "FeatureCollection",
"features": [
{ "type":"Feature","properties":{"osm_id":"312500125","name":"Hathaway Stores","other":{"operator":"Premier","shop":"supermarket"}}, "geometry":{"type":"Point","coordinates":[-1.7394,52.1961 ]}},
{ "type":"Feature","properties":{"osm_id":"476848449","name":"Simply Fresh","other":{"addr:city":"Alcester","addr:housenumber":"5-7","addr:postcode":"B49 5AE","addr:street":"High Street","phone":"+44 1789 766768","shop":"supermarket","website":"http:\/\/www.simplyfresh.info\/"}}, "geometry":{"type":"Point","coordinates":[-1.86968,52.21517 ]}},
{ "type":"Feature","properties":{"osm_id":"3050773601","name":"Waitrose","other":{"addr:postcode":"CV35 0AA","brand":"Waitrose","brand:wikidata":"Q771734","brand:wikipedia":"en:Waitrose & Partners","fhrs:id":"503842","official_name":"Waitrose & Partners","operator":"Welcome Break","shop":"supermarket"}}, "geometry":{"type":"Point","coordinates":[-1.50553,52.21661 ]}},
{ "type":"Feature","properties":{"osm_id":"4396793754","name":"Waitrose","other":{"addr:city":"Warwick","addr:housename":"Warwick Services South, M40 between Junctions 13 and 12.","addr:postcode":"CV35 0AA","brand":"Waitrose","brand:wikidata":"Q771734","brand:wikipedia":"en:Waitrose & Partners","fhrs:id":"503899","official_name":"Waitrose & Partners","operator":"Welcome Break Group Ltd","shop":"supermarket"}}, "geometry":{"type":"Point","coordinates":[-1.50241,52.21929 ]}},
{ "type":"Feature","properties":{"osm_id":"6815699385","other":{"emergency":"defibrillator"}}, "geometry":{"type":"Point","coordinates":[-1.40106,52.24847 ]}},
{ "type":"Feature","properties":{"osm_way_id":"28460560","name":"The Co-operative Food","building":"yes","shop":"supermarket","other":{"addr:postcode":"CV35 9RU","addr:street":"Loxley Close","alt_name":"Heart of England Co-operative Society","brand":"The Co-operative Food","brand:wikidata":"Q107617274","brand:wikipedia":"en:The Co-operative Food","opening_hours":"Mo-Sa 07:00-22:00; Su 10:00-16:00","operator":"Heart of England Co-operative Society","website":"https:\/\/heartofengland.coop\/food\/","wikidata":"Q5692254","wikipedia":"en:Heart of England Co-operative Society"}}, "geometry":{"type":"MultiPolygon","coordinates":[[[[-1.59834,52.19064],[-1.59874,52.19095],[-1.59845,52.19111],[-1.59837,52.19105],[-1.59834,52.19107],[-1.59829,52.19103],[-1.598,52.19083],[-1.59834,52.19064]]]]}},
{ "type":"Feature","properties":{"osm_way_id":"60693948","name":"M&S Simply Food","building":"yes","shop":"supermarket","other":{"brand":"M&S Simply Food","brand:wikidata":"Q714491","brand:wikipedia":"en:Marks & Spencer"}}, "geometry":{"type":"MultiPolygon","coordinates":[[[[-1.7113,52.20059],[-1.71123,52.20071],[-1.71064,52.20057],[-1.71065,52.20055],[-1.71063,52.20037],[-1.71128,52.20034],[-1.7113,52.20059]]]]}},
{ "type":"Feature","properties":{"osm_way_id":"60693949","name":"Tesco","building":"yes","shop":"supermarket","other":{"addr:postcode":"CV37 0UA","addr:street":"Birmingham Road","alt_name":"Tesco Stratford Upon Avon Superstore","brand":"Tesco","brand:wikidata":"Q487494","brand:wikipedia":"en:Tesco"}}, "geometry":{"type":"MultiPolygon","coordinates":[[[[-1.7154,52.20258],[-1.71449,52.20322],[-1.7142,52.20307],[-1.71438,52.20294],[-1.71345,52.20245],[-1.71371,52.20226],[-1.71394,52.20239],[-1.71432,52.20212],[-1.71422,52.20207],[-1.71431,52.20201],[-1.71512,52.20243],[-1.7154,52.20258]]]]}},
{ "type":"Feature","properties":{"osm_way_id":"100391560","name":"Waitrose","building":"yes","shop":"supermarket","other":{"addr:city":"Alcester","addr:postcode":"B49 5DA","addr:street":"Moorfield Road","brand":"Waitrose","brand:wikidata":"Q771734","brand:wikipedia":"en:Waitrose","fhrs:id":"503755","official_name":"Waitrose & Partners","operator":"Waitrose & Partners","website":"https:\/\/www.waitrose.com\/"}}, "geometry":{"type":"MultiPolygon","coordinates":[[[[-1.87244,52.21478],[-1.87235,52.21487],[-1.87243,52.2149],[-1.8722,52.21511],[-1.87189,52.21498],[-1.8719,52.21497],[-1.87172,52.21489],[-1.87167,52.21487],[-1.87181,52.21473],[-1.87188,52.21475],[-1.87193,52.2147],[-1.872,52.21473],[-1.87214,52.21465],[-1.87244,52.21478]]]]}},
{ "type":"Feature","properties":{"osm_way_id":"126531319","name":"Co-op Food","building":"retail","shop":"supermarket","other":{"addr:city":"Bidford on Avon","addr:postcode":"B50 4EH","addr:street":"Salford Road","brand":"Co-op Food","brand:website":"https:\/\/www.midcounties.coop\/","brand:wikidata":"Q3277439","brand:wikipedia":"en:Co-op Food","fhrs:id":"503022","operator":"Midcounties Cooperative"}}, "geometry":{"type":"MultiPolygon","coordinates":[[[[-1.86179,52.16456],[-1.86124,52.16468],[-1.86121,52.16462],[-1.86115,52.16463],[-1.86104,52.16444],[-1.86121,52.1644],[-1.86123,52.16443],[-1.86162,52.16434],[-1.86169,52.16446],[-1.86173,52.16445],[-1.86179,52.16456]]]]}},
{ "type":"Feature","properties":{"osm_way_id":"146636497","name":"Co-op Food","building":"yes","shop":"supermarket","other":{"addr:housenumber":"3-5","addr:postcode":"CV36 4AB","addr:street":"High Street","brand":"Co-op Food","brand:wikidata":"Q3277439","brand:wikipedia":"en:Co-op Food","operator":"Midcounties Co-operative"}}, "geometry":{"type":"MultiPolygon","coordinates":[[[[-1.62502,52.06291],[-1.62507,52.06289],[-1.62502,52.06283],[-1.62524,52.06275],[-1.62526,52.06277],[-1.6253,52.06276],[-1.62539,52.06285],[-1.62504,52.06297],[-1.62488,52.06303],[-1.62483,52.06297],[-1.62502,52.06291]]]]}},
{ "type":"Feature","properties":{"osm_way_id":"146636501","name":"Co-op Food","building":"yes","shop":"supermarket","other":{"addr:postcode":"CV36 4AB","brand":"Co-op Food","brand:wikidata":"Q3277439","brand:wikipedia":"en:Co-op Food","operator":"Co-operative Group"}}, "geometry":{"type":"MultiPolygon","coordinates":[[[[-1.6247,52.06268],[-1.62472,52.0627],[-1.62474,52.0627],[-1.62476,52.06272],[-1.62474,52.06273],[-1.62477,52.06276],[-1.6248,52.06275],[-1.62479,52.06273],[-1.6248,52.06272],[-1.62478,52.0627],[-1.62487,52.06267],[-1.62488,52.06269],[-1.62492,52.06268],[-1.62492,52.06267],[-1.62498,52.06265],[-1.62499,52.06267],[-1.62507,52.06264],[-1.62507,52.06259],[-1.6251,52.06258],[-1.62514,52.0627],[-1.62488,52.06278],[-1.62472,52.06284],[-1.62459,52.0627],[-1.6247,52.06268]]]]}},
{ "type":"Feature","properties":{"osm_way_id":"154749821","name":"Morrisons","building":"yes","shop":"supermarket","other":{"addr:city":"Stratford-upon-Avon","addr:postcode":"CV37 9DA","addr:street":"Alcester Road","alt_name":"Morrisons Stratford Upon Avon","brand":"Morrisons","brand:wikidata":"Q922344","brand:wikipedia":"en:Morrisons","website":"https:\/\/my.morrisons.com\/storefinder\/263"}}, "geometry":{"type":"MultiPolygon","coordinates":[[[[-1.71713,52.19666],[-1.71676,52.19667],[-1.71668,52.19575],[-1.71713,52.19575],[-1.71713,52.19569],[-1.71786,52.19567],[-1.71785,52.19571],[-1.71811,52.1957],[-1.71813,52.19593],[-1.71772,52.19645],[-1.71762,52.19652],[-1.71735,52.19652],[-1.71734,52.1964],[-1.71712,52.1964],[-1.71713,52.19666]]]]}},
{ "type":"Feature","properties":{"osm_way_id":"157555710","name":"The Co-operative Food","building":"yes","shop":"supermarket","other":{"operator":"The Midcounties Co-operative Society"}}, "geometry":{"type":"MultiPolygon","coordinates":[[[[-1.82912,52.36336],[-1.82908,52.36337],[-1.82903,52.36332],[-1.8291,52.3633],[-1.82908,52.36328],[-1.82923,52.36321],[-1.82931,52.36328],[-1.82912,52.36336]]]]}},
{ "type":"Feature","properties":{"osm_way_id":"158013270","name":"Co-op Food","building":"yes","shop":"supermarket","other":{"addr:city":"Stratford-upon-Avon","addr:housenumber":"2-3","addr:postcode":"CV37 6PU","addr:street":"Henley Street","alt_name":"The Midcounties Co-operative Society","brand":"Co-op Food","brand:wikidata":"Q3277439","brand:wikipedia":"en:Co-op Food","operator":"The Co-operative Group","operator:wikidata":"Q117202","operator:wikipedia":"en:The Co-operative Group"}}, "geometry":{"type":"MultiPolygon","coordinates":[[[[-1.70672,52.19352],[-1.70655,52.19349],[-1.70669,52.19307],[-1.70677,52.193],[-1.7069,52.19308],[-1.70683,52.19313],[-1.70677,52.19333],[-1.70679,52.19333],[-1.70677,52.19342],[-1.70674,52.19342],[-1.70672,52.19352]]]]}},
{ "type":"Feature","properties":{"osm_way_id":"158022666","name":"Aldi","building":"yes","shop":"supermarket","other":{"addr:postcode":"CV37 0BJ","addr:street":"Canners Way","alt_name":"ALDI Stratford Upon Avon","brand":"ALDI","brand:wikidata":"Q41171672","brand:wikipedia":"en:Aldi"}}, "geometry":{"type":"MultiPolygon","coordinates":[[[[-1.7175,52.20222],[-1.7172,52.20207],[-1.71773,52.20167],[-1.71786,52.20174],[-1.71798,52.20165],[-1.71815,52.20173],[-1.7175,52.20222]]]]}},
{ "type":"Feature","properties":{"osm_way_id":"160614893","name":"Lidl","building":"yes","shop":"supermarket","other":{"addr:country":"GB","addr:housename":"Maybrook Industrial Estate","addr:postcode":"CV37 0BT","addr:street":"Maybrook Road","addr:unit":"1","brand":"Lidl","brand:wikidata":"Q151954","brand:wikipedia":"en:Lidl","fhrs:id":"1158666","survey:date":"2019-08-01"}}, "geometry":{"type":"MultiPolygon","coordinates":[[[[-1.71365,52.19882],[-1.71387,52.19897],[-1.7134,52.19923],[-1.71318,52.19908],[-1.71365,52.19882]]]]}},
{ "type":"Feature","properties":{"osm_way_id":"226060297","name":"Waitrose","building":"yes","shop":"supermarket","other":{"addr:housename":"Rosebird Centre","addr:postcode":"CV37 8LU","alt_name":"Waitrose Stratford Upon Avon","brand":"Waitrose","brand:wikidata":"Q771734","brand:wikipedia":"en:Waitrose","fhrs:id":"547313","official_name":"Waitrose & Partners","operator":"Waitrose & Partners"}}, "geometry":{"type":"MultiPolygon","coordinates":[[[[-1.69872,52.17895],[-1.69867,52.17944],[-1.69844,52.17943],[-1.69844,52.17939],[-1.6978,52.17936],[-1.69785,52.17892],[-1.69872,52.17895]]]]}},
{ "type":"Feature","properties":{"osm_way_id":"229411299","name":"The Crown","amenity":"pub","building":"yes","shop":"supermarket","other":{"addr:city":"Tiddington","addr:housenumber":"14","addr:postcode":"CV37 7AZ","addr:street":"Main Street","fhrs:id":"502758"}}, "geometry":{"type":"MultiPolygon","coordinates":[[[[-1.6769,52.1999],[-1.67698,52.20002],[-1.67691,52.20003],[-1.67681,52.20006],[-1.67674,52.19997],[-1.67682,52.19995],[-1.67682,52.19996],[-1.67685,52.19996],[-1.67682,52.19992],[-1.6769,52.1999]]]]}},
{ "type":"Feature","properties":{"osm_way_id":"303553508","name":"Co-op Food","building":"yes","shop":"supermarket","other":{"addr:housenumber":"108","addr:postcode":"B95 5BY","addr:street":"High Street","alt_name":"The Co-oeprative Food","brand":"Co-op Food","brand:wikidata":"Q3277439","brand:wikipedia":"en:Co-op Food"}}, "geometry":{"type":"MultiPolygon","coordinates":[[[[-1.78025,52.29197],[-1.78025,52.29195],[-1.78025,52.29188],[-1.78037,52.29188],[-1.78051,52.29187],[-1.78079,52.29184],[-1.7808,52.29193],[-1.78064,52.29194],[-1.78037,52.29196],[-1.78025,52.29197]]]]}},
{ "type":"Feature","properties":{"osm_way_id":"363955976","name":"Sainsbury's","building":"yes","shop":"supermarket","other":{"brand":"Sainsbury's","brand:wikidata":"Q152096","brand:wikipedia":"en:Sainsbury's","opening_hours":"Mo-Sa 08:00-21:00; Su 10:00-16:00"}}, "geometry":{"type":"MultiPolygon","coordinates":[[[[-1.60546,52.19151],[-1.60546,52.1915],[-1.60536,52.19149],[-1.60539,52.19137],[-1.6055,52.19138],[-1.60557,52.19114],[-1.60545,52.19113],[-1.60549,52.19101],[-1.6056,52.19102],[-1.60563,52.19093],[-1.60624,52.19099],[-1.60612,52.1914],[-1.60627,52.19141],[-1.60625,52.19146],[-1.60608,52.19157],[-1.60546,52.19151]]]]}},
{ "type":"Feature","properties":{"osm_way_id":"371489838","name":"Tesco","building":"retail","shop":"supermarket","other":{"addr:city":"Southam","addr:postcode":"CV47 0FG","addr:street":"Northfield Rd","brand":"Tesco","brand:wikidata":"Q487494","brand:wikipedia":"en:Tesco","opening_hours":"Mo-Sa 07:00-23:00; Su 10:00-16:00","payment:american_express":"yes","payment:cash":"yes","payment:coins":"yes","payment:contactless":"yes","payment:credit_cards":"yes","payment:debit_cards":"yes","payment:mastercard":"yes","payment:visa":"yes"}}, "geometry":{"type":"MultiPolygon","coordinates":[[[[-1.40111,52.24848],[-1.40093,52.24891],[-1.39982,52.24873],[-1.39986,52.24865],[-1.40007,52.24869],[-1.40014,52.24853],[-1.40027,52.24855],[-1.40033,52.24841],[-1.40054,52.24844],[-1.40056,52.24839],[-1.40106,52.24847],[-1.40111,52.24848]]]]}},
{ "type":"Feature","properties":{"osm_way_id":"399220487","name":"Aldi","building":"retail","shop":"supermarket","other":{"brand":"ALDI","brand:wikidata":"Q41171672","brand:wikipedia":"en:Aldi"}}, "geometry":{"type":"MultiPolygon","coordinates":[[[[-1.89467,52.27516],[-1.89397,52.27537],[-1.89388,52.27525],[-1.89381,52.27527],[-1.8937,52.27514],[-1.89448,52.27491],[-1.89467,52.27516]]]]}},
{ "type":"Feature","properties":{"osm_way_id":"475519366","name":"Co-op Food","building":"yes","shop":"supermarket","other":{"addr:city":"Long Itchington","addr:postcode":"CV47 9PN","addr:street":"Church Road","brand":"Co-op Food","brand:wikidata":"Q3277439","brand:wikipedia":"en:Co-op Food","building:levels":"2","fhrs:id":"502882","operator":"Heart Of England Co-Op Society"}}, "geometry":{"type":"MultiPolygon","coordinates":[[[[-1.39858,52.28328],[-1.39862,52.28311],[-1.39842,52.2831],[-1.39838,52.28327],[-1.39858,52.28328]]]]}},
{ "type":"Feature","properties":{"osm_way_id":"692803583","name":"Londis","building":"yes","shop":"supermarket","other":{"addr:city":"Long Marston","addr:postcode":"CV37 8YE","addr:street":"Wellington Avenue","brand":"Londis","brand:wikidata":"Q21008564","brand:wikipedia":"en:Londis (United Kingdom)"}}, "geometry":{"type":"MultiPolygon","coordinates":[[[[-1.76056,52.12012],[-1.76017,52.12012],[-1.76017,52.11999],[-1.76056,52.11999],[-1.76056,52.12012]]]]}}
]
}
