{
"type": "FeatureCollection",
"features": [
{ "type":"Feature","properties":{"osm_id":"1936891006","name":"Iceland","other":{"brand":"Iceland","brand:wikidata":"Q721810","operator":"Iceland","shop":"supermarket"}}, "geometry":{"type":"Point","coordinates":[-1.45834,53.5618 ]}},
{ "type":"Feature","properties":{"osm_id":"2689546521","other":{"shop":"supermarket"}}, "geometry":{"type":"Point","coordinates":[-1.31507,53.51961 ]}},
{ "type":"Feature","properties":{"osm_id":"3257106796","name":"The Co-operative Food","other":{"shop":"supermarket","fhrs:id":"397277","operator":"The Co-operative Group","addr:city":"Darfield","addr:street":"Barnsley Road","addr:country":"GB","addr:postcode":"S73 9DJ"}}, "geometry":{"type":"Point","coordinates":[-1.38641,53.53758 ]}},
{ "type":"Feature","properties":{"osm_id":"3639395548","name":"The Co-operative Food","other":{"shop":"supermarket","operator":"The Co-operative Group","addr:city":"Hoyland","addr:street":"High Street","addr:postcode":"S74 9AB"}}, "geometry":{"type":"Point","coordinates":[-1.43792,53.50052 ]}},
{ "type":"Feature","properties":{"osm_id":"3825000961","name":"Fultons Foods","other":{"brand":"Fultons Foods","brand:wikidata":"Q6112633","shop":"supermarket"}}, "geometry":{"type":"Point","coordinates":[-1.4788,53.57923 ]}},
{ "type":"Feature","properties":{"osm_id":"7446738710","name":"Asda","other":{"addr:city":"Rotherham","addr:postcode":"S63 0JZ","addr:street":"Welfare Road","addr:town":"Thurnscoe","brand":"Asda","brand:wikidata":"Q297410","brand:wikipedia":"en:Asda","contact:website":"https:\/\/storelocator.asda.com\/yorkshire-&-humber\/barnsley\/welfare-road-thurnscoe","fhrs:id":"398419","operator":"Asda Stores Ltd","shop":"supermarket"}}, "geometry":{"type":"Point","coordinates":[-1.31505,53.54589 ]}},
{ "type":"Feature","properties":{"osm_id":"7598923498","other":{"emergency":"defibrillator","defibrillator:location":"On outside wall. Available 24\/7."}}, "geometry":{"type":"Point","coordinates":[-1.52548,53.54311 ]}},
{ "type":"Feature","properties":{"osm_id":"7904504569","name":"Jack's","other":{"brand":"Jack's","brand:wikidata":"Q60741213","brand:wikipedia":"en:Jack's (store)","shop":"supermarket"}}, "geometry":{"type":"Point","coordinates":[-1.43566,53.54245 ]}},
{ "type":"Feature","properties":{"osm_way_id":"161211079","name":"Tesco","building":"yes","landuse":"retail","shop":"supermarket","other":{"addr:city":"Sheffield","addr:postcode":"S36 6TS","addr:street":"Market Lane","addr:suburb":"Penistone","brand":"Tesco","brand:wikidata":"Q487494","brand:wikipedia":"en:Tesco","opening_hours":"Mo-Sa 06:00-24:00; Su 10:00-16:00","toilets:wheelchair":"yes","wheelchair":"yes"}}, "geometry":{"type":"MultiPolygon","coordinates":[[[[-1.6332,53.52549],[-1.63327,53.5255],[-1.63329,53.52546],[-1.63391,53.52558],[-1.63386,53.52567],[-1.63396,53.52568],[-1.634,53.5256],[-1.63437,53.52567],[-1.63431,53.52579],[-1.63418,53.52577],[-1.63415,53.52583],[-1.63405,53.52581],[-1.634,53.52589],[-1.63377,53.52585],[-1.63368,53.52603],[-1.63309,53.52591],[-1.63305,53.5259],[-1.63321,53.52559],[-1.63315,53.52558],[-1.6332,53.52549]]]]}},
{ "type":"Feature","properties":{"osm_way_id":"167861516","name":"Morrisons","building":"yes","shop":"supermarket","other":{"brand":"Morrisons","addr:street":"Lower Thomas Street","addr:postcode":"S70 1LQ","opening_hours":"Mo- Sa 06:00-22:00; Su 10:00-16:00","brand:wikidata":"Q922344","brand:wikipedia":"en:Morrisons"}}, "geometry":{"type":"MultiPolygon","coordinates":[[[[-1.484,53.55007],[-1.48335,53.54949],[-1.48263,53.54978],[-1.48258,53.54974],[-1.4823,53.54985],[-1.4825,53.55003],[-1.48255,53.55001],[-1.48294,53.55036],[-1.4831,53.5503],[-1.48321,53.55039],[-1.48327,53.55037],[-1.48344,53.55052],[-1.48335,53.55062],[-1.48354,53.55069],[-1.48366,53.55055],[-1.48363,53.55054],[-1.48386,53.55044],[-1.48363,53.55022],[-1.484,53.55007]]]]}},
{ "type":"Feature","properties":{"osm_way_id":"167997225","name":"The Co-operative Food","building":"yes","shop":"supermarket","other":{"addr:city":"Dodworth","addr:street":"Barnsley Road","brand":"The Co-operative Food","brand:wikidata":"Q107617274","not:brand:wikidata":"Q3277439","old_name":"Budgens","opening_hours":"Mo-Sa 07:00-22:00; Su,PH 10:00-16:00","operator":"Central England Co-operative","operator:wikidata":"Q16986583"}}, "geometry":{"type":"MultiPolygon","coordinates":[[[[-1.52545,53.54318],[-1.52548,53.54311],[-1.52561,53.54284],[-1.5252,53.54276],[-1.52501,53.54317],[-1.52514,53.54319],[-1.52517,53.54314],[-1.52545,53.54318]]]]}},
{ "type":"Feature","properties":{"osm_way_id":"211485185","name":"Tesco Extra","building":"yes","shop":"supermarket","other":{"addr:postcode":"S70 3NS","addr:street":"Wombwell Lane","brand":"Tesco Extra","brand:wikidata":"Q25172225","brand:wikipedia":"en:Tesco Extra"}}, "geometry":{"type":"MultiPolygon","coordinates":[[[[-1.43643,53.54062],[-1.43583,53.54032],[-1.43568,53.54041],[-1.43562,53.54038],[-1.4354,53.54042],[-1.43487,53.54078],[-1.43505,53.54087],[-1.43508,53.54088],[-1.43506,53.5409],[-1.43523,53.54098],[-1.43525,53.54097],[-1.43539,53.54103],[-1.43543,53.54101],[-1.43627,53.54142],[-1.43663,53.54118],[-1.43679,53.54126],[-1.43692,53.54117],[-1.43694,53.54102],[-1.43689,53.54099],[-1.43693,53.54095],[-1.43692,53.54088],[-1.43682,53.54084],[-1.43694,53.54074],[-1.43682,53.54054],[-1.43668,53.54047],[-1.43643,53.54062]]]]}},
{ "type":"Feature","properties":{"osm_way_id":"211486022","name":"Asda","building":"yes","shop":"supermarket","other":{"brand":"Asda","fhrs:id":"397672","addr:city":"Barnsley","addr:street":"Old Mill Lane","addr:country":"GB","addr:postcode":"S71 1LN","brand:wikidata":"Q297410","brand:wikipedia":"en:Asda","contact:website":"https:\/\/storelocator.asda.com\/yorkshire-&-humber\/barnsley\/old-mill-lane"}}, "geometry":{"type":"MultiPolygon","coordinates":[[[[-1.47625,53.56103],[-1.47602,53.56091],[-1.47639,53.56066],[-1.47577,53.56034],[-1.47563,53.56043],[-1.47542,53.56031],[-1.47477,53.56074],[-1.47469,53.5607],[-1.47448,53.56084],[-1.47456,53.56088],[-1.47443,53.56097],[-1.47525,53.56141],[-1.47558,53.56118],[-1.47582,53.56131],[-1.47625,53.56103]]]]}},
{ "type":"Feature","properties":{"osm_way_id":"211486214","name":"Asda","building":"yes","shop":"supermarket","other":{"brand":"Asda","fhrs:id":"398308","operator":"Asda Stores Ltd","addr:city":"Worsbrough","addr:street":"Thomas Street","addr:country":"GB","addr:postcode":"S70 5AU","brand:wikidata":"Q297410","brand:wikipedia":"en:Asda","contact:website":"https:\/\/storelocator.asda.com\/yorkshire-&-humber\/worsbrough\/thomas-street"}}, "geometry":{"type":"MultiPolygon","coordinates":[[[[-1.46951,53.53125],[-1.4689,53.53109],[-1.46875,53.5313],[-1.46879,53.53131],[-1.46877,53.53133],[-1.46895,53.53138],[-1.46897,53.53135],[-1.46936,53.53145],[-1.46951,53.53125]]]]}},
{ "type":"Feature","properties":{"osm_way_id":"211487276","name":"Aldi","building":"yes","shop":"supermarket","other":{"addr:postcode":"S70 3PE","addr:street":"Doncaster Road","brand":"ALDI","brand:wikidata":"Q41171672","brand:wikipedia":"en:Aldi"}}, "geometry":{"type":"MultiPolygon","coordinates":[[[[-1.44037,53.54519],[-1.43973,53.54492],[-1.44,53.54469],[-1.44059,53.54495],[-1.44044,53.54507],[-1.4405,53.54509],[-1.44037,53.54519]]]]}},
{ "type":"Feature","properties":{"osm_way_id":"220245704","name":"Co-op Food","building":"supermarket","shop":"supermarket","other":{"addr:city":"Mapplewell","addr:country":"GB","addr:postcode":"S75 6BP","addr:street":"Mapplewell Drive","brand":"Co-op Food","brand:wikidata":"Q3277439","brand:wikipedia":"en:Co-op Food","fhrs:id":"397825","opening_hours":"Mo-Sa 07:00-22:00; Su 10:00-16:00","opening_hours:covid19":"same","operator":"The Co-operative Group","operator:wikidata":"Q117202","operator:wikipedia":"en:The Co-operative Group","payment:cards":"yes","payment:contactless":"yes","payment:debit_cards":"yes","payment:mastercard":"yes","payment:visa_debit":"yes","phone":"+44 1226380492","website":"https:\/\/www.coop.co.uk\/"}}, "geometry":{"type":"MultiPolygon","coordinates":[[[[-1.49957,53.58483],[-1.4998,53.58458],[-1.50048,53.58479],[-1.5003,53.58498],[-1.4998,53.58482],[-1.49974,53.58488],[-1.49957,53.58483]]]]}},
{ "type":"Feature","properties":{"osm_way_id":"230903798","name":"Asda","building":"supermarket","shop":"supermarket","other":{"brand":"Asda","fhrs:id":"398307","operator":"Asda Stores Ltd","addr:city":"Grimethorpe","addr:street":"High Street","addr:country":"GB","addr:postcode":"S72 7LT","brand:wikidata":"Q297410","brand:wikipedia":"en:Asda","contact:website":"https:\/\/storelocator.asda.com\/yorkshire-&-humber\/barnsley\/high-street-grimethorpe"}}, "geometry":{"type":"MultiPolygon","coordinates":[[[[-1.37873,53.57517],[-1.37839,53.57519],[-1.3783,53.57476],[-1.37861,53.57474],[-1.37868,53.57504],[-1.37874,53.57503],[-1.37876,53.57516],[-1.37873,53.57517]]]]}},
{ "type":"Feature","properties":{"osm_way_id":"230904156","name":"Co-Op","building":"yes","shop":"supermarket","other":{"source:building":"Bing"}}, "geometry":{"type":"MultiPolygon","coordinates":[[[[-1.3751,53.57466],[-1.37475,53.57477],[-1.37466,53.57468],[-1.37503,53.57457],[-1.3751,53.57466]]]]}},
{ "type":"Feature","properties":{"osm_way_id":"231497942","name":"Co-op Food","building":"supermarket","shop":"supermarket","other":{"addr:city":"Cudworth","addr:country":"GB","addr:postcode":"S72 8BU","addr:street":"Barnsley Road","brand":"Co-op Food","brand:wikidata":"Q3277439","brand:wikipedia":"en:Co-op Food","fhrs:id":"397680","operator":"The Co-operative Group","operator:wikidata":"Q117202","operator:wikipedia":"en:The Co-operative Group"}}, "geometry":{"type":"MultiPolygon","coordinates":[[[[-1.4177,53.57708],[-1.41741,53.57697],[-1.41746,53.57692],[-1.41712,53.57679],[-1.41721,53.57671],[-1.41735,53.57676],[-1.41779,53.57672],[-1.41799,53.5768],[-1.41796,53.57682],[-1.41799,53.57684],[-1.4177,53.57708]]]]}},
{ "type":"Feature","properties":{"osm_way_id":"258988922","name":"The Co-operative Food","building":"yes","shop":"supermarket","other":{"operator":"The Co-operative Group","wheelchair":"limited","addr:street":"Church Street","addr:postcode":"S75 5HF"}}, "geometry":{"type":"MultiPolygon","coordinates":[[[[-1.52958,53.58616],[-1.52958,53.58605],[-1.52931,53.58606],[-1.52931,53.58616],[-1.52958,53.58616]]]]}},
{ "type":"Feature","properties":{"osm_way_id":"258990317","name":"Aldi","building":"yes","shop":"supermarket","other":{"addr:city":"Barugh","addr:country":"GB","addr:postcode":"S75 1AP","addr:street":"Claycliffe Road","brand":"ALDI","brand:wikidata":"Q41171672","brand:wikipedia":"en:Aldi","fhrs:id":"398987"}}, "geometry":{"type":"MultiPolygon","coordinates":[[[[-1.51981,53.56802],[-1.5202,53.56788],[-1.51974,53.56744],[-1.51934,53.56759],[-1.51981,53.56802]]]]}},
{ "type":"Feature","properties":{"osm_way_id":"274330981","name":"Co-op Food","building":"yes","shop":"supermarket","other":{"brand":"Co-op Food","fhrs:id":"397668","addr:street":"The Cross","addr:country":"GB","addr:postcode":"S75 4LX","brand:wikidata":"Q3277439","brand:wikipedia":"en:Co-op Food"}}, "geometry":{"type":"MultiPolygon","coordinates":[[[[-1.56505,53.54365],[-1.56504,53.54359],[-1.56499,53.54359],[-1.56497,53.54345],[-1.56513,53.54344],[-1.5652,53.54356],[-1.56517,53.54356],[-1.56522,53.54368],[-1.56541,53.54364],[-1.56534,53.54351],[-1.5655,53.54348],[-1.56545,53.54338],[-1.56476,53.54341],[-1.56477,53.54345],[-1.56484,53.54345],[-1.56487,53.5436],[-1.56482,53.5436],[-1.56483,53.54366],[-1.56505,53.54365]]]]}},
{ "type":"Feature","properties":{"osm_way_id":"275353327","name":"Co-op Food","building":"yes","shop":"supermarket","other":{"addr:city":"Sheffield","addr:postcode":"S36 6BZ","addr:street":"Market Street","addr:suburb":"Penistone","brand":"Co-op Food","brand:wikidata":"Q3277439","brand:wikipedia":"en:Co-op Food","operator":"The Co-operative Group"}}, "geometry":{"type":"MultiPolygon","coordinates":[[[[-1.63122,53.52531],[-1.63125,53.5253],[-1.63126,53.52532],[-1.63154,53.52529],[-1.63151,53.52515],[-1.63106,53.5252],[-1.63109,53.52531],[-1.63122,53.52531]]]]}},
{ "type":"Feature","properties":{"osm_way_id":"275434964","name":"Spar","building":"yes","shop":"supermarket","other":{"addr:city":"Sheffield","addr:postcode":"S36 6BS","addr:street":"High Street","addr:suburb":"Penistone","brand":"Spar","brand:wikidata":"Q610492","brand:wikipedia":"en:Spar (retailer)"}}, "geometry":{"type":"MultiPolygon","coordinates":[[[[-1.63141,53.52497],[-1.6311,53.525],[-1.63105,53.52485],[-1.63136,53.52482],[-1.63141,53.52497]]]]}},
{ "type":"Feature","properties":{"osm_way_id":"305491003","name":"Booker Cash & Carry","building":"yes","shop":"supermarket","other":{"addr:city":"Barnsley","addr:postcode":"S71 1DN","addr:street":"Twibell Street","fax":"+44 1226 202227","opening_hours":"Mo,Th 06:30-19:00; Tu-We,Fr-Sa 06:30-16:30; Su 09:00-13:00","operator":"Booker","phone":"+44 1226 243556","website":"https:\/\/www.booker.co.uk\/"}}, "geometry":{"type":"MultiPolygon","coordinates":[[[[-1.46774,53.55931],[-1.46843,53.55936],[-1.46844,53.55931],[-1.46892,53.55934],[-1.46888,53.55956],[-1.46907,53.55957],[-1.46897,53.56013],[-1.46876,53.56012],[-1.46877,53.56009],[-1.4679,53.56003],[-1.46763,53.55986],[-1.46774,53.55931]]]]}},
{ "type":"Feature","properties":{"osm_way_id":"307866308","name":"Costcutter","building":"yes","shop":"supermarket","other":{"brand":"Costcutter","brand:wikidata":"Q5175072","brand:wikipedia":"en:Costcutter"}}, "geometry":{"type":"MultiPolygon","coordinates":[[[[-1.49233,53.55203],[-1.49233,53.55184],[-1.4922,53.55184],[-1.49221,53.55203],[-1.49233,53.55203]]]]}},
{ "type":"Feature","properties":{"osm_way_id":"312446820","name":"Sainsbury's Local","building":"yes","shop":"supermarket","other":{"brand:wikidata":"Q13218434"}}, "geometry":{"type":"MultiPolygon","coordinates":[[[[-1.50798,53.56072],[-1.50821,53.56077],[-1.5083,53.56075],[-1.50841,53.56056],[-1.50812,53.5605],[-1.50798,53.56072]]]]}},
{ "type":"Feature","properties":{"osm_way_id":"320274946","name":"ALDI","building":"yes","shop":"supermarket","other":{"brand":"ALDI","brand:wikidata":"Q41171672","brand:wikipedia":"en:Aldi"}}, "geometry":{"type":"MultiPolygon","coordinates":[[[[-1.47759,53.50074],[-1.47768,53.5007],[-1.47771,53.50072],[-1.478,53.50059],[-1.47748,53.50018],[-1.47707,53.50034],[-1.47714,53.50041],[-1.47717,53.50039],[-1.4773,53.5005],[-1.47735,53.50054],[-1.47728,53.50057],[-1.47735,53.50062],[-1.47741,53.50059],[-1.47759,53.50074]]]]}},
{ "type":"Feature","properties":{"osm_way_id":"320419206","name":"The Co-operative Food","building":"yes","shop":"supermarket","other":{"brand":"The Co-operative Food","brand:wikidata":"Q107617274","not:brand:wikidata":"Q3277439","opening_hours":"Mo-Su 07:00-22:00","operator":"Central England Co-operative","operator:wikidata":"Q16986583","operator:wikipedia":"en:Central England Co-operative"}}, "geometry":{"type":"MultiPolygon","coordinates":[[[[-1.49414,53.54368],[-1.49414,53.54369],[-1.49417,53.54369],[-1.49418,53.54382],[-1.49416,53.54382],[-1.49384,53.54382],[-1.49383,53.54381],[-1.49382,53.54374],[-1.49385,53.54374],[-1.49385,53.54369],[-1.49383,53.54369],[-1.49383,53.54364],[-1.49384,53.54364],[-1.49384,53.54361],[-1.49404,53.54361],[-1.49404,53.54361],[-1.49404,53.54362],[-1.49404,53.54368],[-1.49414,53.54368]]]]}},
{ "type":"Feature","properties":{"osm_way_id":"320662348","name":"Lidl","building":"yes","shop":"supermarket","other":{"addr:country":"GB","addr:postcode":"S70 2RE","addr:street":"Peel Street","brand":"Lidl","brand:wikidata":"Q151954","brand:wikipedia":"en:Lidl","fhrs:id":"439786"}}, "geometry":{"type":"MultiPolygon","coordinates":[[[[-1.48504,53.55149],[-1.48477,53.55151],[-1.48475,53.55146],[-1.48462,53.55147],[-1.48463,53.55153],[-1.48422,53.55157],[-1.48429,53.55183],[-1.48437,53.55183],[-1.48439,53.55194],[-1.48487,53.5519],[-1.48485,53.55183],[-1.48512,53.5518],[-1.48504,53.55149]]]]}},
{ "type":"Feature","properties":{"osm_way_id":"355279439","name":"Fultons Foods","building":"yes","shop":"supermarket","other":{"brand":"Fultons Foods","brand:wikidata":"Q6112633"}}, "geometry":{"type":"MultiPolygon","coordinates":[[[[-1.48124,53.5517],[-1.48123,53.55165],[-1.48104,53.55169],[-1.48106,53.55172],[-1.48124,53.5517]]]]}},
{ "type":"Feature","properties":{"osm_way_id":"359080733","name":"The Co-operative Food","building":"yes","shop":"supermarket","other":{"brand":"The Co-operative Food","brand:wikidata":"Q107617274","operator":"Central England Co-operative Society"}}, "geometry":{"type":"MultiPolygon","coordinates":[[[[-1.45295,53.58299],[-1.45322,53.58315],[-1.45308,53.58323],[-1.45307,53.58322],[-1.45294,53.58314],[-1.45283,53.58307],[-1.45288,53.58304],[-1.45282,53.58301],[-1.45287,53.58298],[-1.45292,53.58301],[-1.45295,53.58299]]]]}},
{ "type":"Feature","properties":{"osm_way_id":"359178900","name":"Co-op Food","building":"yes","shop":"supermarket","other":{"addr:city":"Rotherham","addr:housenumber":"10-12","addr:postcode":"S63 8BA","addr:street":"St Andrew's Square","addr:town":"Bolton upon Dearne","brand":"Co-op Food","brand:wikidata":"Q3277439","brand:wikipedia":"en:Co-op Food","fhrs:id":"397681","operator":"The Co-operative Group"}}, "geometry":{"type":"MultiPolygon","coordinates":[[[[-1.3228,53.52078],[-1.32293,53.52081],[-1.32288,53.5209],[-1.32234,53.52109],[-1.32217,53.52106],[-1.32221,53.52099],[-1.32229,53.521],[-1.32236,53.52098],[-1.32232,53.52095],[-1.32269,53.52082],[-1.32272,53.52086],[-1.32276,53.52084],[-1.3228,53.52078]]]]}},
{ "type":"Feature","properties":{"osm_way_id":"359179722","name":"The Co-operative Food","building":"yes","shop":"supermarket","other":{"fhrs:id":"399062","operator":"The Co-operative Group","addr:city":"Darfield","addr:street":"Doncaster Road","addr:country":"GB","addr:postcode":"S73 9JG"}}, "geometry":{"type":"MultiPolygon","coordinates":[[[[-1.35508,53.5334],[-1.35512,53.53351],[-1.3549,53.53354],[-1.35484,53.53355],[-1.35482,53.53349],[-1.35487,53.53348],[-1.35485,53.53344],[-1.35508,53.5334]]]]}},
{ "type":"Feature","properties":{"osm_way_id":"359180349","name":"The Co-operative Food","building":"yes","shop":"supermarket","other":{"operator":"The Co-operative Group","addr:city":"Barnsley","addr:street":"Rotherham Road","addr:country":"GB","addr:village":"Great Houghton","addr:postcode":"S72 0DB","addr:housenumber":"6A"}}, "geometry":{"type":"MultiPolygon","coordinates":[[[[-1.34873,53.55248],[-1.34888,53.55254],[-1.34873,53.55267],[-1.34858,53.55262],[-1.34873,53.55248]]]]}},
{ "type":"Feature","properties":{"osm_way_id":"359180939","name":"Co-op Food","building":"yes","shop":"supermarket","other":{"addr:city":"Royston","addr:country":"GB","addr:postcode":"S71 4RF","addr:street":"High Street","brand":"Co-op Food","brand:wikidata":"Q3277439","brand:wikipedia":"en:Co-op Food","fhrs:id":"398466","operator":"The Co-operative Group","operator:wikidata":"Q117202","operator:wikipedia":"en:The Co-operative Group"}}, "geometry":{"type":"MultiPolygon","coordinates":[[[[-1.45561,53.598],[-1.45571,53.59815],[-1.45565,53.59816],[-1.45582,53.59841],[-1.45551,53.59848],[-1.45527,53.59813],[-1.45549,53.59808],[-1.45546,53.59804],[-1.45561,53.598]]]]}},
{ "type":"Feature","properties":{"osm_way_id":"359181397","name":"The Co-operative Food","building":"yes","shop":"supermarket","other":{"fhrs:id":"397674","operator":"The Co-operative Group","addr:city":"Athersley South","addr:street":"Laithes Lane","addr:country":"GB","addr:postcode":"S71 3TY"}}, "geometry":{"type":"MultiPolygon","coordinates":[[[[-1.47936,53.57875],[-1.47959,53.57898],[-1.4793,53.57909],[-1.47898,53.57877],[-1.47912,53.57872],[-1.47921,53.5788],[-1.47936,53.57875]]]]}},
{ "type":"Feature","properties":{"osm_way_id":"359182319","name":"The Co-operative Food","building":"yes","shop":"supermarket","other":{"fhrs:id":"397835","operator":"The Co-operative Group","addr:city":"Hoyland","addr:street":"Hoyland Road","addr:country":"GB","addr:postcode":"S74 0NE","addr:housenumber":"16-22"}}, "geometry":{"type":"MultiPolygon","coordinates":[[[[-1.46437,53.49726],[-1.46458,53.49744],[-1.46443,53.4975],[-1.4643,53.49739],[-1.46421,53.49742],[-1.46414,53.49736],[-1.46437,53.49726]]]]}},
{ "type":"Feature","properties":{"osm_way_id":"379329033","name":"Poundstretcher","building":"yes","shop":"supermarket"},"geometry":{"type":"MultiPolygon","coordinates":[[[[-1.47815,53.58016],[-1.47798,53.58045],[-1.47747,53.58034],[-1.47769,53.57999],[-1.47775,53.58],[-1.47773,53.58003],[-1.47784,53.58005],[-1.47782,53.58009],[-1.47815,53.58016]]]]}},
{ "type":"Feature","properties":{"osm_way_id":"379329040","name":"Nisa","building":"yes","shop":"supermarket"},"geometry":{"type":"MultiPolygon","coordinates":[[[[-1.47869,53.5836],[-1.4787,53.58354],[-1.47852,53.58353],[-1.47853,53.5835],[-1.47826,53.58348],[-1.47825,53.58356],[-1.47835,53.58356],[-1.47833,53.58369],[-1.47861,53.58371],[-1.47864,53.5836],[-1.47869,53.5836]]]]}},
{ "type":"Feature","properties":{"osm_way_id":"462069567","name":"Asda","building":"yes","shop":"supermarket","other":{"addr:city":"Rotherham","addr:housenumber":"3-5","addr:postcode":"S63 9NQ","addr:street":"High Street","addr:town":"Goldthorpe","alt_name":"ASDA Goldthorpe Supermarket","brand":"Asda","brand:wikidata":"Q297410","brand:wikipedia":"en:Asda","contact:website":"https:\/\/storelocator.asda.com\/yorkshire-&-humber\/rotherham\/high-street-goldthorpe","fhrs:id":"397679","opening_hours":"Mo-Sa 07:00-23:00; Su 10:00-16:00","operator":"Asda Stores Ltd"}}, "geometry":{"type":"MultiPolygon","coordinates":[[[[-1.30395,53.53271],[-1.30409,53.53298],[-1.30347,53.53309],[-1.30338,53.53291],[-1.30351,53.53289],[-1.30349,53.53285],[-1.30374,53.5328],[-1.30372,53.53275],[-1.30395,53.53271]]]]}},
{ "type":"Feature","properties":{"osm_way_id":"462070425","name":"ALDI","building":"yes","shop":"supermarket","other":{"addr:city":"Rotherham","addr:postcode":"S63 9PJ","addr:street":"Barnsley Road","addr:town":"Goldthorpe","brand":"ALDI","brand:wikidata":"Q41171672","brand:wikipedia":"en:Aldi","opening_hours":"Mo-Sa 08:00-22:00; Su 10:00-16:00"}}, "geometry":{"type":"MultiPolygon","coordinates":[[[[-1.32277,53.53319],[-1.32276,53.53297],[-1.3219,53.53298],[-1.32191,53.53321],[-1.32277,53.53319]]]]}},
{ "type":"Feature","properties":{"osm_way_id":"648292615","name":"Asda","building":"yes","shop":"supermarket","other":{"brand":"Asda","fhrs:id":"398263","operator":"Asda Stores Ltd","addr:city":"Royston","addr:street":"The Lane","addr:country":"GB","addr:postcode":"S71 4BP","brand:wikidata":"Q297410","brand:wikipedia":"en:Asda","contact:website":"https:\/\/storelocator.asda.com\/yorkshire-&-humber\/royston\/midland-road"}}, "geometry":{"type":"MultiPolygon","coordinates":[[[[-1.45165,53.60081],[-1.45127,53.60091],[-1.45103,53.60057],[-1.45106,53.60056],[-1.45103,53.60051],[-1.45122,53.60046],[-1.45125,53.6005],[-1.45128,53.60048],[-1.4514,53.60047],[-1.45165,53.60081]]]]}},
{ "type":"Feature","properties":{"osm_way_id":"763345522","name":"Tesco","building":"yes","shop":"supermarket","other":{"brand":"Tesco","brand:wikidata":"Q487494","brand:wikipedia":"en:Tesco"}}, "geometry":{"type":"MultiPolygon","coordinates":[[[[-1.44278,53.50593],[-1.44207,53.5063],[-1.4416,53.50598],[-1.44232,53.5056],[-1.44278,53.50593]]]]}},
{ "type":"Feature","properties":{"osm_way_id":"777288903","name":"Heron Foods","building":"yes","shop":"supermarket","other":{"brand":"Heron Foods","fhrs:id":"398794","addr:city":"Wombwell","addr:street":"High Street","addr:country":"GB","addr:postcode":"S73 8DA","brand:wikidata":"Q5743472","brand:wikipedia":"en:Heron Foods","contact:website":"https:\/\/heronfoods.com\/storelocator\/store-details\/wombwell","addr:housenumber":"60"}}, "geometry":{"type":"MultiPolygon","coordinates":[[[[-1.40031,53.5238],[-1.39999,53.52397],[-1.39985,53.52388],[-1.40017,53.52371],[-1.40031,53.5238]]]]}},
{ "type":"Feature","properties":{"osm_way_id":"852001398","name":"ALDI","building":"retail","shop":"supermarket","other":{"brand":"ALDI","brand:wikidata":"Q41171672","brand:wikipedia":"en:Aldi"}}, "geometry":{"type":"MultiPolygon","coordinates":[[[[-1.41591,53.57838],[-1.41595,53.57865],[-1.41602,53.57864],[-1.41611,53.57864],[-1.41611,53.5786],[-1.41621,53.57859],[-1.41622,53.57864],[-1.41631,53.57864],[-1.4163,53.57858],[-1.41685,53.57855],[-1.41681,53.57833],[-1.41601,53.57837],[-1.41591,53.57838]]]]}},
{ "type":"Feature","properties":{"osm_way_id":"852636148","name":"Lidl","building":"yes","shop":"supermarket","other":{"addr:city":"Barnsley","addr:country":"GB","addr:postcode":"S73 8DS","addr:street":"Bradbury Balk Lane","addr:town":"Wombwell","brand":"Lidl","brand:wikidata":"Q151954","brand:wikipedia":"en:Lidl","fhrs:id":"928285","not:addr:postcode":"S73 8JN"}}, "geometry":{"type":"MultiPolygon","coordinates":[[[[-1.40836,53.52984],[-1.40797,53.53004],[-1.40723,53.5295],[-1.40739,53.52942],[-1.40741,53.52944],[-1.40744,53.52946],[-1.40768,53.52934],[-1.40836,53.52984]]]]}},
{ "type":"Feature","properties":{"osm_way_id":"924984791","name":"ALDI","building":"yes","shop":"supermarket","other":{"addr:postcode":"S71 4RF","addr:street":"High Street","addr:town":"Royston","brand":"ALDI","brand:wikidata":"Q41171672","brand:wikipedia":"en:Aldi","fhrs:id":"1337028","source:addr":"FHRS Open Data"}}, "geometry":{"type":"MultiPolygon","coordinates":[[[[-1.45922,53.59733],[-1.45891,53.59733],[-1.45891,53.59728],[-1.4587,53.59728],[-1.4587,53.59788],[-1.45882,53.59788],[-1.45882,53.59786],[-1.45921,53.59786],[-1.45922,53.59733]]]]}},
{ "type":"Feature","properties":{"osm_way_id":"998259841","name":"Lidl","building":"supermarket","shop":"supermarket","other":{"addr:country":"GB","addr:postcode":"S75 6DJ","addr:street":"Wakefield Road","brand":"Lidl","brand:wikidata":"Q151954","brand:wikipedia":"en:Lidl","fhrs:id":"1212991"}}, "geometry":{"type":"MultiPolygon","coordinates":[[[[-1.4877,53.58424],[-1.48659,53.58449],[-1.48655,53.58442],[-1.48662,53.5844],[-1.48649,53.5842],[-1.48663,53.58417],[-1.48723,53.58404],[-1.48721,53.58401],[-1.48752,53.58394],[-1.4877,53.58424]]]]}}
]
}
