{
"type": "FeatureCollection",
"features": [
{ "type":"Feature","properties":{"osm_id":"132686936","name":"Co-op","is_in":"Surrey, England","other":{"shop":"supermarket","fhrs:id":"680742","operator":"The Co-operative Group","addr:city":"Caterham","addr:street":"Raglan Precinct","survey:date":"2018-09-24","addr:postcode":"CR3 5UG","opening_hours":"Mo-Su 07:00-22:00","fhrs:authority":"Tandridge","addr:housenumber":"16-17,19-21","addr:parentstreet":"Town End"}}, "geometry":{"type":"Point","coordinates":[-0.0894,51.28798 ]}},
{ "type":"Feature","properties":{"osm_id":"1326937636","name":"Co-op Food","other":{"addr:city":"Oxted","addr:housenumber":"21-23","addr:postcode":"RH8 0BD","addr:street":"Station Road East","brand":"Co-op Food","brand:wikidata":"Q3277439","brand:wikipedia":"en:Co-op Food","opening_hours":"Mo-Su 06:00-23:00","operator":"Southern Co-operative","operator:wikidata":"Q7569773","shop":"supermarket","website":"https:\/\/stores.thesouthernco-operative.co.uk\/surrey\/oxted\/21---23-station-road.html","wheelchair":"yes"}}, "geometry":{"type":"Point","coordinates":[-0.00127,51.25705 ]}},
{ "type":"Feature","properties":{"osm_id":"2876169904","name":"Holland & Barrett","other":{"addr:city":"Caterham","addr:housenumber":"44","addr:postcode":"CR3 6RT","addr:street":"Church Walk","brand:wikidata":"Q5880870","fhrs:authority":"Tandridge","fhrs:id":"104475","shop":"supermarket"}}, "geometry":{"type":"Point","coordinates":[-0.07739,51.28166 ]}},
{ "type":"Feature","properties":{"osm_id":"3541894782","name":"Waitrose","other":{"shop":"supermarket","phone":"+44 1883 715740","website":"https:\/\/www.waitrose.com\/bf_home\/bf\/838.html","operator":"Waitrose & Partners","addr:city":"Oxted","addr:street":"Station Road East","addr:postcode":"RH8 0QE","brand:wikidata":"Q771734","addr:housenumber":"159"}}, "geometry":{"type":"Point","coordinates":[-0.00477,51.25866 ]}},
{ "type":"Feature","properties":{"osm_id":"3541981017","name":"Sainsbury's Local","other":{"shop":"supermarket","website":"https:\/\/stores.sainsburys.co.uk\/4137\/oxted-local","addr:city":"Oxted","addr:street":"Station Road East","addr:postcode":"RH8 0QA","opening_hours":"Mo-Su‚ê£07:00-23:00","brand:wikidata":"Q13218434","addr:housenumber":"88"}}, "geometry":{"type":"Point","coordinates":[-0.00375,51.25818 ]}},
{ "type":"Feature","properties":{"osm_id":"158540112","highway":"service"},"geometry":{"type":"LineString","coordinates":[[-0.00122,51.26045],[-0.0017,51.26043]]}},
{ "type":"Feature","properties":{"osm_way_id":"25955608","name":"Morrisons","building":"yes","shop":"supermarket","other":{"addr:housenumber":"43","addr:postcode":"RH8 9AE","addr:street":"East Hill","alt_name":"Morrisons Oxted","brand":"Morrisons","brand:wikidata":"Q922344","brand:wikipedia":"en:Morrisons","wheelchair":"yes"}}, "geometry":{"type":"MultiPolygon","coordinates":[[[[-0.00412,51.25643],[-0.00419,51.25641],[-0.00424,51.2564],[-0.00438,51.25635],[-0.00505,51.25613],[-0.00496,51.25602],[-0.00477,51.25579],[-0.00476,51.25577],[-0.00467,51.2558],[-0.00465,51.25577],[-0.00463,51.25578],[-0.00461,51.25575],[-0.00456,51.25577],[-0.00447,51.25564],[-0.00423,51.25572],[-0.00425,51.25575],[-0.00407,51.25581],[-0.0037,51.25593],[-0.00386,51.25612],[-0.0039,51.2561],[-0.00404,51.25627],[-0.00399,51.25628],[-0.00412,51.25643]]]]}},
{ "type":"Feature","properties":{"osm_way_id":"179000353","name":"Co-op","building":"yes","shop":"supermarket"},"geometry":{"type":"MultiPolygon","coordinates":[[[[-0.01816,51.17456],[-0.01782,51.17451],[-0.01783,51.17448],[-0.01784,51.17448],[-0.01785,51.17446],[-0.01799,51.17444],[-0.0181,51.17445],[-0.01813,51.17436],[-0.01821,51.17438],[-0.01816,51.1745],[-0.01818,51.17451],[-0.01816,51.17456]]]]}},
{ "type":"Feature","properties":{"osm_way_id":"255866940","name":"Waitrose","building":"yes","shop":"supermarket","other":{"addr:city":"Caterham","addr:housenumber":"2-10","addr:postcode":"CR3 6LB","addr:street":"Station Avenue","alt_name":"Waitrose Caterham","brand":"Waitrose & Partners","brand:wikidata":"Q771734","brand:wikipedia":"en:Waitrose & Partners","fhrs:authority":"Tandridge","fhrs:id":"104912","operator":"Waitrose & Partners","phone":"+44 1883 346 173","toilets":"no","wheelchair":"yes"}}, "geometry":{"type":"MultiPolygon","coordinates":[[[[-0.07803,51.28208],[-0.07807,51.28209],[-0.07815,51.28218],[-0.07852,51.2827],[-0.07839,51.28277],[-0.07822,51.28257],[-0.07807,51.28261],[-0.07789,51.28238],[-0.07769,51.28214],[-0.07803,51.28208]]]]}},
{ "type":"Feature","properties":{"osm_way_id":"279919074","name":"Sainsbury's","building":"retail","shop":"supermarket","other":{"addr:city":"Warlingham","addr:housenumber":"631","addr:postcode":"CR6 9DY","addr:street":"Limpsfield Road","addr:village":"Whyteleafe","alt_name":"Sainsbury's Warlingham Superstore","brand":"Sainsbury's","brand:wikidata":"Q152096","opening_hours":"Mo-Fr 08:00-22:00; Sa 07:00-22:00; Su 10:00-16:00","website":"https:\/\/stores.sainsburys.co.uk\/0023\/warlingham"}}, "geometry":{"type":"MultiPolygon","coordinates":[[[[-0.0437,51.30731],[-0.0431,51.30724],[-0.04308,51.30723],[-0.04307,51.30727],[-0.04273,51.3074],[-0.04247,51.30737],[-0.04251,51.30725],[-0.04229,51.30723],[-0.04225,51.30734],[-0.04221,51.30733],[-0.04209,51.3077],[-0.04207,51.30769],[-0.04204,51.30778],[-0.04332,51.30794],[-0.04333,51.30791],[-0.04342,51.30792],[-0.04346,51.30781],[-0.04353,51.30782],[-0.0437,51.30731]]]]}},
{ "type":"Feature","properties":{"osm_way_id":"283788936","name":"Morrisons","building":"yes","shop":"supermarket","other":{"addr:city":"Caterham","addr:country":"GB","addr:housenumber":"28","addr:postcode":"CR3 6RT","addr:street":"Church Walk","alt_name":"Morrisons Caterham","brand":"Morrisons","brand:wikidata":"Q922344","brand:wikipedia":"en:Morrisons","fhrs:id":"104443"}}, "geometry":{"type":"MultiPolygon","coordinates":[[[[-0.07676,51.28078],[-0.07683,51.28095],[-0.07692,51.28121],[-0.07773,51.28109],[-0.07763,51.28083],[-0.07756,51.28066],[-0.07676,51.28078]]]]}},
{ "type":"Feature","properties":{"osm_way_id":"283788937","name":"Tesco","building":"yes","shop":"supermarket","other":{"addr:city":"Caterham","addr:postcode":"CR3 5QX","addr:street":"Guards Avenue","alt_name":"Tesco Caterham Superstore","brand":"Tesco","brand:wikidata":"Q487494","brand:wikipedia":"en:Tesco","contact:website":"https:\/\/www.tesco.com\/store-locator\/caterham\/guards-ave","fhrs:authority":"Tandridge","fhrs:id":"104500","opening_hours":"Mo-Sa 06:00-00:00; Su 10:00-16:00","wheelchair":"yes"}}, "geometry":{"type":"MultiPolygon","coordinates":[[[[-0.10154,51.2905],[-0.10045,51.29068],[-0.1003,51.29033],[-0.10134,51.29015],[-0.10146,51.2904],[-0.10149,51.2904],[-0.10154,51.2905]]]]}},
{ "type":"Feature","properties":{"osm_way_id":"626036828","name":"Co-operative","building":"yes","shop":"supermarket","other":{"fhrs:id":"106257","addr:city":"Warlingham","addr:street":"The Green","addr:postcode":"CR6 9NA","fhrs:authority":"Tandridge","addr:housenumber":"52-58"}}, "geometry":{"type":"MultiPolygon","coordinates":[[[[-0.05548,51.30936],[-0.05551,51.30924],[-0.0552,51.30922],[-0.05518,51.30939],[-0.05548,51.30936]]]]}}
]
}
