{
"type": "FeatureCollection",
"features": [
{ "type":"Feature","properties":{"osm_id":"1814805216","name":"Spar","other":{"addr:city":"Lytham St Annes","addr:housenumber":"20","addr:postcode":"FY8 3PU","addr:street":"Whalley Place","atm":"yes","atm:fee":"free","brand":"Spar","brand:wikidata":"Q610492","fhrs:id":"127518","shop":"supermarket"}}, "geometry":{"type":"Point","coordinates":[-3.00253,53.75265 ]}},
{ "type":"Feature","properties":{"osm_id":"3976098801","name":"Booths","other":{"addr:city":"St Anne's on the Sea","addr:postcode":"FY8 3RG","addr:street":"Main Drive","brand:wikidata":"Q4943949","brand:wikipedia":"Q4943949","contact:website":"https:\/\/www.booths.co.uk\/store\/st-annes\/","fhrs:id":"807504","opening_hours:url":"https:\/\/www.booths.co.uk\/store\/st-annes\/","shop":"supermarket"}}, "geometry":{"type":"Point","coordinates":[-3.00418,53.75795 ]}},
{ "type":"Feature","properties":{"osm_id":"4601287814","name":"ALDI","other":{"addr:city":"Lytham St Annes","addr:postcode":"FY8 2NA","addr:street":"Clifton Drive North","addr:suburb":"St Annes On Sea","brand":"ALDI","brand:wikidata":"Q41171672","brand:wikipedia":"en:Aldi","fhrs:id":"635543","shop":"supermarket"}}, "geometry":{"type":"Point","coordinates":[-3.03336,53.75137 ]}},
{ "type":"Feature","properties":{"osm_id":"5565195710","name":"Spar","other":{"brand":"Spar","brand:wikidata":"Q610492","brand:wikipedia":"en:SPAR (retailer)","operator":"G & E Murgatroyd","shop":"supermarket"}}, "geometry":{"type":"Point","coordinates":[-2.8953,53.74984 ]}},
{ "type":"Feature","properties":{"osm_way_id":"163318220","name":"Lidl","building":"yes","shop":"supermarket","other":{"addr:city":"Lytham St Annes","addr:postcode":"FY8 5AT","addr:street":"Preston Road","addr:suburb":"Salcotes","brand":"Lidl","brand:wikidata":"Q151954","brand:wikipedia":"en:Lidl","fhrs:id":"139648"}}, "geometry":{"type":"MultiPolygon","coordinates":[[[[-2.94063,53.74355],[-2.94015,53.74369],[-2.93974,53.74321],[-2.93985,53.74318],[-2.93988,53.74322],[-2.94018,53.74313],[-2.94028,53.74324],[-2.94035,53.74322],[-2.94063,53.74355]]]]}},
{ "type":"Feature","properties":{"osm_way_id":"165997996","name":"Booker Cash and Carry","building":"yes","shop":"supermarket","other":{"addr:postcode":"FY4 5ES"}}, "geometry":{"type":"MultiPolygon","coordinates":[[[[-3.00091,53.79385],[-3.00088,53.79325],[-3.0011,53.79324],[-3.00109,53.79298],[-2.9994,53.793],[-2.99944,53.79388],[-3.00091,53.79385]]]]}},
{ "type":"Feature","properties":{"osm_way_id":"196293237","name":"Co-Op","shop":"supermarket","other":{"addr:postcode":"FY8 4ER","fhrs:id":"128916","opening_hours":"Mo-Sa 07:00-23:00; Su 10:00-16:00","wheelchair":"yes"}}, "geometry":{"type":"MultiPolygon","coordinates":[[[[-2.99148,53.74291],[-2.99136,53.74307],[-2.99111,53.74301],[-2.99125,53.7428],[-2.99129,53.74282],[-2.99133,53.74276],[-2.99152,53.7428],[-2.99157,53.74284],[-2.99152,53.74291],[-2.99148,53.74291]]]]}},
{ "type":"Feature","properties":{"osm_way_id":"201452902","name":"Sainsbury's","building":"yes","shop":"supermarket","other":{"addr:postcode":"FY8 2DH","addr:street":"St Andrew's Road North","brand":"Sainsbury's","brand:wikidata":"Q152096","brand:wikipedia":"en:Sainsbury's","designation":"Lytham St Anne's Superstore","fhrs:id":"86767"}}, "geometry":{"type":"MultiPolygon","coordinates":[[[[-3.03031,53.75367],[-3.03051,53.75357],[-3.03022,53.75337],[-3.03017,53.7534],[-3.02967,53.75307],[-3.02953,53.75315],[-3.02948,53.75312],[-3.02939,53.75316],[-3.02944,53.75319],[-3.0293,53.75326],[-3.02998,53.7537],[-3.03019,53.75359],[-3.03031,53.75367]]]]}},
{ "type":"Feature","properties":{"osm_way_id":"214405012","name":"Morrisons","building":"yes","shop":"supermarket","other":{"addr:postcode":"FY4 2AY","brand":"Morrisons","brand:wikidata":"Q922344","brand:wikipedia":"en:Morrisons","fhrs:id":"83904"}}, "geometry":{"type":"MultiPolygon","coordinates":[[[[-3.03591,53.77868],[-3.03611,53.77908],[-3.03566,53.77917],[-3.03571,53.77924],[-3.0353,53.77931],[-3.03497,53.77921],[-3.03489,53.77907],[-3.03508,53.77903],[-3.03503,53.77893],[-3.03479,53.77851],[-3.0356,53.77835],[-3.0355,53.77814],[-3.03575,53.77809],[-3.03604,53.77866],[-3.03591,53.77868]]]]}},
{ "type":"Feature","properties":{"osm_way_id":"230110473","name":"Morrisons","building":"yes","shop":"supermarket","other":{"addr:postcode":"PR4 2AQ","addr:street":"Poulton Street","alt_name":"Morrisons Kirkham","brand":"Morrisons","brand:wikidata":"Q922344","brand:wikipedia":"en:Morrisons","fhrs:id":"137883"}}, "geometry":{"type":"MultiPolygon","coordinates":[[[[-2.87579,53.78236],[-2.87666,53.78224],[-2.87679,53.78254],[-2.87664,53.78256],[-2.8767,53.78271],[-2.87637,53.78275],[-2.8764,53.78283],[-2.87607,53.78288],[-2.87608,53.7829],[-2.87595,53.78292],[-2.87591,53.78282],[-2.87588,53.78282],[-2.87584,53.78273],[-2.87588,53.78272],[-2.87583,53.78261],[-2.87589,53.78261],[-2.87579,53.78236]]]]}},
{ "type":"Feature","properties":{"osm_way_id":"238234417","name":"M&S Simply Food","shop":"supermarket","other":{"addr:housenumber":"333","addr:postcode":"FY8 1LP","addr:street":"Clifton Drive South","brand":"M&S Simply Food","brand:wikidata":"Q714491","brand:wikipedia":"en:Marks & Spencer","designation":"Lytham St Anne's Simply Food","fhrs:id":"133174"}}, "geometry":{"type":"MultiPolygon","coordinates":[[[[-3.03155,53.75028],[-3.03139,53.75036],[-3.03165,53.75054],[-3.03191,53.7504],[-3.03165,53.75022],[-3.03155,53.75028]]]]}},
{ "type":"Feature","properties":{"osm_way_id":"238234421","name":"Tesco Express","building":"yes","shop":"supermarket","other":{"addr:postcode":"FY8 1SB","addr:street":"St Anne's Road West","brand":"Tesco Express","brand:wikidata":"Q98456772","designation":"Lytham St Anne's Road Express","fhrs:id":"119871"}}, "geometry":{"type":"MultiPolygon","coordinates":[[[[-3.03233,53.75159],[-3.03202,53.75138],[-3.03188,53.75146],[-3.03218,53.75166],[-3.03233,53.75159]]]]}},
{ "type":"Feature","properties":{"osm_way_id":"338072143","name":"Booths","building":"retail","shop":"supermarket","other":{"addr:postcode":"FY8 5EG","brand:wikidata":"Q4943949","contact:website":"https:\/\/www.booths.co.uk\/store\/lytham-haven-road\/","fhrs:id":"133915","operator":"Booths"}}, "geometry":{"type":"MultiPolygon","coordinates":[[[[-2.95631,53.73907],[-2.95636,53.73904],[-2.95642,53.73902],[-2.95649,53.73902],[-2.95655,53.73904],[-2.95661,53.73906],[-2.95664,53.7391],[-2.95661,53.73912],[-2.95661,53.73915],[-2.9566,53.73917],[-2.95657,53.73919],[-2.95658,53.7392],[-2.95657,53.73922],[-2.95656,53.73925],[-2.95657,53.73928],[-2.9566,53.73934],[-2.95651,53.73934],[-2.95652,53.7394],[-2.95556,53.73945],[-2.95554,53.73932],[-2.95564,53.73931],[-2.95562,53.73913],[-2.95548,53.73914],[-2.95547,53.73907],[-2.95545,53.73893],[-2.95563,53.73892],[-2.95564,53.73897],[-2.95587,53.73896],[-2.95589,53.73901],[-2.95593,53.73905],[-2.95597,53.73907],[-2.95601,53.73908],[-2.95631,53.73907]]]]}},
{ "type":"Feature","properties":{"osm_way_id":"438652188","name":"ALDI","building":"yes","shop":"supermarket","other":{"brand":"ALDI","brand:wikidata":"Q41171672","brand:wikipedia":"en:Aldi","retail":"supermarket"}}, "geometry":{"type":"MultiPolygon","coordinates":[[[[-2.88903,53.79674],[-2.88991,53.79676],[-2.88991,53.79667],[-2.88981,53.79667],[-2.88982,53.79644],[-2.88905,53.79642],[-2.88903,53.79674]]]]}},
{ "type":"Feature","properties":{"osm_way_id":"622906973","name":"Lidl","building":"yes","shop":"supermarket","other":{"addr:city":"Lytham St Annes","addr:country":"GB","addr:postcode":"FY8 2FX","addr:street":"Squires Gate Lane","brand":"Lidl","brand:wikidata":"Q151954","brand:wikipedia":"en:Lidl","fhrs:id":"1050471"}}, "geometry":{"type":"MultiPolygon","coordinates":[[[[-3.04607,53.77726],[-3.04578,53.77728],[-3.04547,53.7773],[-3.04548,53.77735],[-3.04557,53.77793],[-3.04557,53.77794],[-3.04612,53.7779],[-3.04604,53.77753],[-3.0462,53.77751],[-3.04616,53.7774],[-3.04609,53.77741],[-3.04607,53.77726]]]]}},
{ "type":"Feature","properties":{"osm_way_id":"701409915","building":"retail","shop":"supermarket","other":{"brand":"Spar"}}, "geometry":{"type":"MultiPolygon","coordinates":[[[[-2.89077,53.79586],[-2.89076,53.796],[-2.8903,53.79599],[-2.89031,53.79584],[-2.89077,53.79586]]]]}}
]
}
