{
"type": "FeatureCollection",
"features": [
{ "type":"Feature","properties":{"osm_way_id":"27021509","name":"Morrisons","building":"yes","shop":"supermarket","other":{"addr:city":"Hastings","addr:county":"East Sussex","addr:housenumber":"170","addr:postcode":"TN34 1RN","addr:street":"Queens Road","brand":"Morrisons","brand:wikidata":"Q922344","brand:wikipedia":"en:Morrisons","designation":"Hastings","fhrs:id":"175905","source:addr":"FHRS Open Data"}}, "geometry":{"type":"MultiPolygon","coordinates":[[[[0.58133,50.85996],[0.58202,50.85956],[0.58258,50.85994],[0.58263,50.85991],[0.58292,50.86011],[0.58217,50.86054],[0.58133,50.85996]]]]}},
{ "type":"Feature","properties":{"osm_way_id":"27694602","name":"Tesco Extra","building":"yes","shop":"supermarket","other":{"addr:city":"St Leonards-on-sea","addr:county":"East Sussex","addr:postcode":"TN38 9RB","addr:street":"Church Wood Drive","brand":"Tesco Extra","brand:wikidata":"Q25172225","brand:wikipedia":"en:Tesco Extra","fhrs:id":"176962","source:addr":"FHRS Open Data","wheelchair":"yes"}}, "geometry":{"type":"MultiPolygon","coordinates":[[[[0.53575,50.87694],[0.53687,50.87693],[0.53687,50.87704],[0.53717,50.87704],[0.5373,50.87704],[0.53729,50.8778],[0.53727,50.87797],[0.53717,50.87797],[0.53717,50.87789],[0.53682,50.87789],[0.53682,50.87781],[0.53663,50.87781],[0.53664,50.87799],[0.53615,50.87799],[0.53615,50.87792],[0.53601,50.87792],[0.53602,50.87781],[0.53559,50.87781],[0.53557,50.87704],[0.53574,50.87704],[0.53575,50.87694]]]]}},
{ "type":"Feature","properties":{"osm_way_id":"83153809","name":"Lidl","building":"yes","shop":"supermarket","other":{"addr:city":"Hastings","addr:country":"GB","addr:postcode":"TN37 6RA","addr:street":"Bohemia Road","brand":"Lidl","brand:wikidata":"Q151954","brand:wikipedia":"en:Lidl","designation":"Hastings","fhrs:id":"181040","source:building":"OS_OpenData_StreetView","url":"http:\/\/www.lidl.co.uk","wheelchair":"yes"}}, "geometry":{"type":"MultiPolygon","coordinates":[[[[0.56275,50.85939],[0.56262,50.85949],[0.56244,50.85962],[0.56251,50.85965],[0.56233,50.85978],[0.56239,50.85981],[0.56214,50.85998],[0.5624,50.86011],[0.5628,50.85982],[0.56292,50.85972],[0.56296,50.85975],[0.56314,50.85962],[0.56275,50.85939]]]]}},
{ "type":"Feature","properties":{"osm_way_id":"169474194","name":"Sainsbury's","building":"retail","shop":"supermarket","other":{"addr:postcode":"TN37 7SQ","addr:street":"John MacAdam Way","brand":"Sainsbury's","brand:wikidata":"Q152096","brand:wikipedia":"en:Sainsbury's","fhrs:id":"169599","opening_hours":"Mo-Sa 07:00-23:00; Su 10:00-16:00","source:addr":"FHRS Open Data","source:geometry":"Bing"}}, "geometry":{"type":"MultiPolygon","coordinates":[[[[0.54953,50.88775],[0.54968,50.88764],[0.54984,50.88773],[0.54989,50.88769],[0.55003,50.88776],[0.55028,50.88758],[0.55068,50.88779],[0.55104,50.88798],[0.55078,50.88818],[0.55083,50.8882],[0.55068,50.88831],[0.55063,50.88829],[0.55026,50.88856],[0.55015,50.8885],[0.54998,50.88862],[0.54947,50.88835],[0.54957,50.88828],[0.5493,50.88813],[0.5497,50.88784],[0.54953,50.88775]]]]}},
{ "type":"Feature","properties":{"osm_way_id":"185811695","name":"Asda","building":"yes","shop":"supermarket","other":{"addr:city":"St Leonards-on-sea","addr:country":"GB","addr:postcode":"TN37 7AA","addr:street":"Battle Road","brand":"Asda","brand:wikidata":"Q297410","brand:wikipedia":"en:Asda","contact:facebook":"https:\/\/www.facebook.com\/asda\/","contact:twitter":"@asda","contact:website":"https:\/\/storelocator.asda.com\/south-east\/saint-leonards\/battle-road","designation":"St Leonard's on Sea Superstore","fhrs:id":"180938","operator":"Asda Stores Ltd"}}, "geometry":{"type":"MultiPolygon","coordinates":[[[[0.55394,50.86844],[0.55504,50.86811],[0.55492,50.86794],[0.55474,50.86786],[0.55465,50.86789],[0.55437,50.86751],[0.55398,50.86762],[0.55344,50.86776],[0.55358,50.86794],[0.55394,50.86844]]]]}},
{ "type":"Feature","properties":{"osm_way_id":"185812474","name":"Co-op Food","building":"yes","shop":"supermarket","other":{"addr:city":"St Leonards-on-sea","addr:county":"East Sussex","addr:housenumber":"45-47","addr:postcode":"TN37 6RE","addr:street":"Bohemia Road","brand":"Co-op Food","brand:wikidata":"Q3277439","brand:wikipedia":"en:Co-op Food","fhrs:id":"427607","source:addr":"FHRS Open Data"}}, "geometry":{"type":"MultiPolygon","coordinates":[[[[0.55883,50.86351],[0.55891,50.86343],[0.55917,50.86354],[0.55909,50.86361],[0.55883,50.86351]]]]}},
{ "type":"Feature","properties":{"osm_way_id":"738478773","name":"ALDI","building":"yes","shop":"supermarket","other":{"brand":"ALDI","brand:wikidata":"Q41171672","brand:wikipedia":"en:Aldi","contact:website":"https:\/\/www.aldi.co.uk\/store\/s-uk-E1301","payment:cash":"yes"}}, "geometry":{"type":"MultiPolygon","coordinates":[[[[0.52019,50.84991],[0.52046,50.84951],[0.5205,50.84946],[0.52091,50.84957],[0.52059,50.85002],[0.52019,50.84991]]]]}},
{ "type":"Feature","properties":{"osm_way_id":"777342251","name":"ALDI","building":"retail","shop":"supermarket","other":{"addr:city":"Hastings","addr:county":"East Sussex","addr:housename":"Aldi","addr:postcode":"TN35 5DG","addr:street":"Rye Road","brand":"ALDI","brand:wikidata":"Q41171672","brand:wikipedia":"en:Aldi","building:levels":"1","fhrs:id":"732920","opening_hours":"Mo-Sa 08:00-22:00; Su 10:00-16:00","roof:shape":"flat","source:addr":"FHRS Open Data"}}, "geometry":{"type":"MultiPolygon","coordinates":[[[[0.60903,50.87529],[0.60888,50.87515],[0.6088,50.87519],[0.60872,50.87512],[0.60938,50.87485],[0.60945,50.87492],[0.60952,50.87489],[0.60968,50.87505],[0.60942,50.87516],[0.6094,50.87513],[0.60903,50.87529]]]]}}
]
}
