{
"type": "FeatureCollection",
"features": [
{ "type":"Feature","properties":{"osm_id":"442029460","name":"Green Ginger","other":{"organic":"only","shop":"supermarket"}}, "geometry":{"type":"Point","coordinates":[-1.19246,54.12056 ]}},
{ "type":"Feature","properties":{"osm_id":"1703549121","name":"Co-op Food","other":{"brand":"Co-op Food","brand:wikidata":"Q3277439","brand:wikipedia":"en:Co-op Food","operator":"The Co-operative Group","shop":"supermarket"}}, "geometry":{"type":"Point","coordinates":[-1.5929,54.28881 ]}},
{ "type":"Feature","properties":{"osm_id":"5319810224","name":"Co-op Food","other":{"atm":"yes","brand":"Co-op Food","brand:wikidata":"Q3277439","brand:wikipedia":"en:Co-op Food","operator":"The Cooperative Group","shop":"supermarket"}}, "geometry":{"type":"Point","coordinates":[-1.13333,54.4884 ]}},
{ "type":"Feature","properties":{"osm_way_id":"39965472","name":"The Co-operative Food","building":"supermarket","shop":"supermarket","other":{"addr:city":"Easingwold","addr:housenumber":"179b","addr:postcode":"YO61 3JB","addr:street":"Long Street","operator":"The Co-operative Group"}}, "geometry":{"type":"MultiPolygon","coordinates":[[[[-1.19036,54.11837],[-1.1905,54.11795],[-1.19072,54.11798],[-1.19058,54.1184],[-1.19036,54.11837]]]]}},
{ "type":"Feature","properties":{"osm_way_id":"52248451","name":"Tesco Northallerton Superstore","building":"supermarket","shop":"supermarket","other":{"addr:city":"Northallerton","addr:postcode":"DL6 1NP","addr:street":"East Road","brand":"Tesco","brand:wikidata":"Q487494","brand:wikipedia":"en:Tesco","contact:website":"https:\/\/www.tesco.com\/store-locator\/northallerton\/east-rd"}}, "geometry":{"type":"MultiPolygon","coordinates":[[[[-1.43219,54.33809],[-1.43254,54.33808],[-1.43254,54.33794],[-1.43245,54.33795],[-1.43245,54.33775],[-1.4324,54.33775],[-1.4324,54.3376],[-1.4324,54.33756],[-1.4312,54.33758],[-1.43119,54.33768],[-1.43153,54.33813],[-1.43219,54.33811],[-1.43219,54.33809]]]]}},
{ "type":"Feature","properties":{"osm_way_id":"52299161","name":"Sainsbury's","building":"yes","shop":"supermarket","other":{"brand":"Sainsbury's","brand:wikidata":"Q152096","brand:wikipedia":"en:Sainsbury's","operator":"Sainsbury"}}, "geometry":{"type":"MultiPolygon","coordinates":[[[[-1.43977,54.34416],[-1.43912,54.3443],[-1.43888,54.34393],[-1.43952,54.3438],[-1.43955,54.34384],[-1.43992,54.34376],[-1.44005,54.34397],[-1.4397,54.34404],[-1.43977,54.34416]]]]}},
{ "type":"Feature","properties":{"osm_way_id":"74332809","name":"Tesco","building":"supermarket","shop":"supermarket","other":{"addr:city":"Thirsk","addr:postcode":"YO7 1PZ","addr:street":"Station Road","alt_name":"Thirsk Superstore","brand":"Tesco","brand:wikidata":"Q487494","brand:wikipedia":"en:Tesco","cafe":"yes","internet_access":"wlan","opening_hours":"Mo-Sa 06:00-23:59; Su 10:00-16:00","toilets":"yes","wheelchair":"yes"}}, "geometry":{"type":"MultiPolygon","coordinates":[[[[-1.34709,54.23104],[-1.34676,54.23068],[-1.34815,54.23024],[-1.34826,54.23036],[-1.34836,54.23033],[-1.34851,54.23049],[-1.34815,54.23061],[-1.34824,54.2307],[-1.34804,54.23076],[-1.34796,54.23079],[-1.348,54.23082],[-1.34761,54.23094],[-1.34756,54.23089],[-1.34709,54.23104]]]]}},
{ "type":"Feature","properties":{"osm_way_id":"107367610","name":"The Co-operative Food","building":"yes","shop":"supermarket","other":{"addr:city":"Leicester","addr:country":"GB","addr:housenumber":"61","addr:postcode":"LE8 0HS","addr:street":"High Street","addr:village":"Kibworth","fhrs:authority":"Harborough","fhrs:id":"355096","fhrs:local_authority_id":"07040\/0061\/0\/000","operator":"Central England Co-operative Society"}}, "geometry":{"type":"MultiPolygon","coordinates":[[[[-0.99881,52.53732],[-0.99889,52.53701],[-0.99887,52.53687],[-0.99849,52.53688],[-0.99849,52.53699],[-0.99854,52.53699],[-0.99855,52.53713],[-0.99851,52.53713],[-0.99851,52.53728],[-0.99867,52.53727],[-0.99868,52.53732],[-0.99881,52.53732]]]]}},
{ "type":"Feature","properties":{"osm_way_id":"116818949","name":"Asda","building":"supermarket","shop":"supermarket","other":{"addr:city":"Northallerton","addr:country":"GB","addr:postcode":"DL6 1DT","addr:street":"Brompton Road","brand":"Asda","brand:wikidata":"Q297410","brand:wikipedia":"en:Asda","contact:website":"https:\/\/storelocator.asda.com\/yorkshire-&-humber\/northallerton\/brompton-road","fhrs:id":"246471","old_name":"Netto","operator":"Asda Stores Ltd"}}, "geometry":{"type":"MultiPolygon","coordinates":[[[[-1.43302,54.34239],[-1.43265,54.34238],[-1.43267,54.34211],[-1.43273,54.34211],[-1.43273,54.34204],[-1.43299,54.34205],[-1.43298,54.3422],[-1.43297,54.34223],[-1.43296,54.34234],[-1.43302,54.34234],[-1.43302,54.34239]]]]}},
{ "type":"Feature","properties":{"osm_way_id":"133735634","name":"Co-op","building":"supermarket","shop":"supermarket","other":{"addr:postcode":"TS9 5ER","addr:street":"Springfield","alt_name":"The Co-operative Food","opening_hours":"Mo-Sa 06:00-22:00, Su,PH 10:00-16:00"}}, "geometry":{"type":"MultiPolygon","coordinates":[[[[-1.18668,54.47204],[-1.18653,54.47196],[-1.18648,54.47198],[-1.18628,54.47188],[-1.1857,54.47225],[-1.18599,54.4724],[-1.18646,54.47209],[-1.18654,54.47213],[-1.18668,54.47204]]]]}},
{ "type":"Feature","properties":{"osm_way_id":"152328704","name":"B & M Home Store","building":"retail","shop":"supermarket"},"geometry":{"type":"MultiPolygon","coordinates":[[[[-1.43837,54.34596],[-1.43773,54.34586],[-1.43772,54.34589],[-1.43758,54.34586],[-1.43751,54.34599],[-1.43765,54.34602],[-1.43756,54.34621],[-1.43744,54.34619],[-1.43738,54.34631],[-1.43815,54.34644],[-1.43837,54.34596]]]]}},
{ "type":"Feature","properties":{"osm_way_id":"155015454","name":"Lidl","building":"supermarket","shop":"supermarket","other":{"addr:city":"Thirsk","addr:country":"GB","addr:postcode":"YO7 1TQ","addr:street":"Station Road","alt_name":"LIDL Thirsk","brand":"Lidl","brand:wikidata":"Q151954","brand:wikipedia":"en:Lidl","fhrs:id":"536083"}}, "geometry":{"type":"MultiPolygon","coordinates":[[[[-1.34824,54.23182],[-1.34768,54.23156],[-1.34737,54.23179],[-1.34797,54.23207],[-1.34809,54.23199],[-1.34804,54.23197],[-1.34824,54.23182]]]]}},
{ "type":"Feature","properties":{"osm_way_id":"253268573","name":"Heron Foods","shop":"supermarket","other":{"addr:city":"Thirsk","addr:country":"GB","addr:housenumber":"65-67","addr:postcode":"YO7 1EY","addr:street":"Market Place","brand":"Heron Foods","brand:wikidata":"Q5743472","brand:wikipedia":"en:Heron Foods","contact:website":"https:\/\/heronfoods.com\/storelocator\/store-details\/thirsk","fhrs:id":"723832"}}, "geometry":{"type":"MultiPolygon","coordinates":[[[[-1.34269,54.23335],[-1.34249,54.23303],[-1.34234,54.23307],[-1.34256,54.23344],[-1.3426,54.23342],[-1.34266,54.23341],[-1.34272,54.2334],[-1.34269,54.23335]]]]}},
{ "type":"Feature","properties":{"osm_way_id":"253268574","name":"Co-op Food","building":"yes","shop":"supermarket","other":{"addr:city":"Thirsk","addr:housenumber":"32","addr:postcode":"YO7 1LB","addr:street":"Market Place","alt_name":"The Co-operative Food","brand":"Co-op Food","brand:wikidata":"Q3277439","brand:wikipedia":"en:Co-op Food"}}, "geometry":{"type":"MultiPolygon","coordinates":[[[[-1.3424,54.23191],[-1.3422,54.23196],[-1.34239,54.23221],[-1.34248,54.23233],[-1.3425,54.23234],[-1.34269,54.2323],[-1.34255,54.23213],[-1.3424,54.23191]]]]}},
{ "type":"Feature","properties":{"osm_way_id":"304199121","name":"Co-op Food","building":"yes","shop":"supermarket","other":{"addr:housenumber":"44","addr:postcode":"TS9 5DQ","addr:street":"High Street","alt_name":"The Co-operative Food","brand":"Co-op Food","brand:wikidata":"Q3277439","brand:wikipedia":"en:Co-op Food"}}, "geometry":{"type":"MultiPolygon","coordinates":[[[[-1.19389,54.47039],[-1.19384,54.47023],[-1.19381,54.47007],[-1.19371,54.46987],[-1.19355,54.46989],[-1.19364,54.47009],[-1.19366,54.47026],[-1.1937,54.47042],[-1.19389,54.47039]]]]}},
{ "type":"Feature","properties":{"osm_way_id":"361428916","name":"Co-op","building":"yes","shop":"supermarket","other":{"operator":"The Co-operative Group"}}, "geometry":{"type":"MultiPolygon","coordinates":[[[[-1.44603,54.32834],[-1.44639,54.32837],[-1.44635,54.32849],[-1.446,54.32846],[-1.44603,54.32834]]]]}},
{ "type":"Feature","properties":{"osm_way_id":"448517465","name":"M&S Simply Food","building":"yes","shop":"supermarket","other":{"addr:city":"Northallerton","addr:street":"Friarage Street","brand":"M&S Simply Food","brand:wikidata":"Q714491","brand:wikipedia":"en:Marks & Spencer"}}, "geometry":{"type":"MultiPolygon","coordinates":[[[[-1.43418,54.34124],[-1.43394,54.34128],[-1.43396,54.34133],[-1.43359,54.34139],[-1.43354,54.34139],[-1.43357,54.34145],[-1.4335,54.34146],[-1.43354,54.34154],[-1.43348,54.34155],[-1.4335,54.3416],[-1.43437,54.34146],[-1.43435,54.34142],[-1.43432,54.34142],[-1.43429,54.34135],[-1.43427,54.34136],[-1.43424,54.34129],[-1.4342,54.3413],[-1.43418,54.34124]]]]}},
{ "type":"Feature","properties":{"osm_way_id":"515518016","name":"ALDI","building":"yes","shop":"supermarket","other":{"addr:city":"Sowerby","addr:postcode":"YO7 3HF","addr:street":"Topcliffe Road","alt_name":"Fen House","brand":"ALDI","brand:wikidata":"Q41171672","brand:wikipedia":"en:Aldi","contact:website":"https:\/\/www.aldi.co.uk\/store\/s-uk-E1033","wheelchair":"yes"}}, "geometry":{"type":"MultiPolygon","coordinates":[[[[-1.35196,54.21882],[-1.35123,54.21858],[-1.35137,54.21843],[-1.35129,54.21841],[-1.35135,54.21835],[-1.35141,54.21837],[-1.35144,54.21833],[-1.35219,54.21858],[-1.35196,54.21882]]]]}},
{ "type":"Feature","properties":{"osm_way_id":"761939128","name":"Lidl","building":"retail","shop":"supermarket","other":{"addr:city":"Northallerton","addr:housename":"1 Treadmills","addr:postcode":"DL6 1AU","addr:street":"Crosby Road","brand":"Lidl","brand:wikidata":"Q151954","brand:wikipedia":"en:Lidl","fhrs:id":"1301507"}}, "geometry":{"type":"MultiPolygon","coordinates":[[[[-1.43028,54.33868],[-1.42991,54.33804],[-1.43002,54.33802],[-1.43004,54.33806],[-1.43027,54.33802],[-1.43036,54.33819],[-1.43043,54.33818],[-1.43058,54.33844],[-1.43049,54.33846],[-1.43054,54.33855],[-1.43038,54.33858],[-1.43042,54.33865],[-1.43028,54.33868]]]]}}
]
}
