{
"type": "FeatureCollection",
"features": [
{ "type":"Feature","properties":{"osm_id":"3172317386","other":{"shop":"supermarket"}}, "geometry":{"type":"Point","coordinates":[-0.4027,51.67317 ]}},
{ "type":"Feature","properties":{"osm_id":"7684907385","other":{"amenity":"parking_entrance"}}, "geometry":{"type":"Point","coordinates":[-0.38663,51.64928 ]}},
{ "type":"Feature","properties":{"osm_id":"8638032874","name":"ALDI","other":{"addr:city":"Watford","brand":"ALDI","brand:wikidata":"Q41171672","brand:wikipedia":"en:Aldi","shop":"supermarket"}}, "geometry":{"type":"Point","coordinates":[-0.38935,51.64951 ]}},
{ "type":"Feature","properties":{"osm_way_id":"44186564","name":"Tesco Extra","building":"yes","shop":"supermarket","other":{"addr:city":"Watford","addr:housenumber":"239-241","addr:postcode":"WD17 2BD","addr:street":"Lower High Street","alt_name":"Tesco Watford Extra","brand":"Tesco Extra","brand:wikidata":"Q25172225","brand:wikipedia":"en:Tesco Extra","contact:website":"https:\/\/www.tesco.com\/store-locator\/watford\/239-241-lower-high-st","currency:GBP":"yes","currency:others":"no","opening_hours":"Mo-Sa 00:00-24:00; Su 10:00-16:00","opening_hours:url":"https:\/\/www.tesco.com\/store-locator\/uk\/?bID=3372","operator":"Tesco Stores Ltd","payment:android_pay":"yes","payment:apple_pay":"yes","payment:cash":"yes","payment:contactless":"yes","payment:credit_cards":"yes","payment:debit_cards":"yes","payment:samsung_pay":"yes","phone":"+44 345 677 9702","wheelchair":"yes"}}, "geometry":{"type":"MultiPolygon","coordinates":[[[[-0.38763,51.65256],[-0.38744,51.65227],[-0.38729,51.6523],[-0.38727,51.65228],[-0.38722,51.6522],[-0.38737,51.65216],[-0.38721,51.65192],[-0.38674,51.6512],[-0.38772,51.65094],[-0.38777,51.65087],[-0.38824,51.651],[-0.38826,51.65103],[-0.3883,51.65102],[-0.38838,51.65113],[-0.38835,51.65114],[-0.38846,51.65131],[-0.38835,51.65137],[-0.38836,51.65154],[-0.38823,51.65157],[-0.38825,51.65159],[-0.38806,51.65164],[-0.38838,51.65214],[-0.3884,51.65236],[-0.38763,51.65256]]]]}},
{ "type":"Feature","properties":{"osm_way_id":"88718749","name":"Sainsbury's","building":"retail","shop":"supermarket","other":{"addr:city":"Watford","addr:postcode":"WD17 1PE","addr:street":"Albert Road South","alt_name":"Sainsbury's Watford Superstore","brand":"Sainsbury's","brand:wikidata":"Q152096","brand:wikipedia":"en:Sainsbury's","opening_hours":"Mo-Sa 07:00-21:00; Su 10:00-16:00","phone":"+44 1923 255252"}}, "geometry":{"type":"MultiPolygon","coordinates":[[[[-0.3992,51.65917],[-0.39992,51.65889],[-0.39927,51.65826],[-0.3992,51.65825],[-0.39904,51.65832],[-0.39886,51.65814],[-0.39873,51.65819],[-0.39872,51.65849],[-0.39881,51.65879],[-0.3992,51.65917]]]]}},
{ "type":"Feature","properties":{"osm_way_id":"103685484","name":"Costcutter","building":"yes","shop":"supermarket","other":{"addr:housenumber":"150","addr:postcode":"WD25 7QX","addr:street":"Haines Way","website":"http:\/\/www.costcutter.com\/"}}, "geometry":{"type":"MultiPolygon","coordinates":[[[[-0.40827,51.69276],[-0.40812,51.69273],[-0.4082,51.69256],[-0.4084,51.69259],[-0.40837,51.69265],[-0.40832,51.69264],[-0.40827,51.69276]]]]}},
{ "type":"Feature","properties":{"osm_way_id":"134073999","name":"Asda","building":"retail","shop":"supermarket","other":{"addr:city":"Watford","addr:country":"GB","addr:housename":"Odhams Industrial Estate","addr:postcode":"WD24 7RT","addr:street":"St Albans Road","alt_name":"ASDA Watfrod Supercentre","brand":"Asda","brand:wikidata":"Q297410","brand:wikipedia":"en:Asda","contact:facebook":"https:\/\/www.facebook.com\/asda\/","contact:phone":"+44 1923 250380","contact:twitter":"@asda","contact:website":"https:\/\/storelocator.asda.com\/east-of-england\/watford\/odhams-industrial-estate-st-albans-road","diet:halal":"yes","opening_hours":"Mo 06:00-24:00; Tu-Fr 00:00-24:00; Sa 00:00-22:00; Su 10:00-16:00","opening_hours:url":"http:\/\/storelocator.asda.com\/store\/watford-supercentre","operator":"Asda Stores Ltd","toilets":"yes","toilets:access":"customers","toilets:wheelchair":"yes","wheelchair":"yes"}}, "geometry":{"type":"MultiPolygon","coordinates":[[[[-0.39032,51.68023],[-0.39038,51.68016],[-0.39044,51.68018],[-0.3905,51.6801],[-0.39043,51.68008],[-0.39058,51.67991],[-0.39122,51.67912],[-0.39088,51.67902],[-0.39089,51.679],[-0.39074,51.67894],[-0.39072,51.67896],[-0.38992,51.67873],[-0.38966,51.67867],[-0.38933,51.67906],[-0.38928,51.67905],[-0.38907,51.67931],[-0.38894,51.67927],[-0.38886,51.67936],[-0.38904,51.67942],[-0.38878,51.67975],[-0.39032,51.68023]]]]}},
{ "type":"Feature","properties":{"osm_way_id":"134079742","name":"Sainsbury's","building":"retail","shop":"supermarket","other":{"addr:city":"Watford","addr:postcode":"WD25 9JS","addr:street":"Cow Lane","alt_name":"Sainsbury's Dome Roundabout Superstore","brand":"Sainsbury's","brand:wikidata":"Q152096","brand:wikipedia":"en:Sainsbury's","opening_hours":"Mo-Sa 07:00-23:00; Su 10:00-16:00; May 29 08:00-19:00","opening_hours:url":"https:\/\/stores.sainsburys.co.uk\/0601\/dome-roundabout","phone":"+44 1923 889110","website":"https:\/\/stores.sainsburys.co.uk\/0601\/dome-roundabout"}}, "geometry":{"type":"MultiPolygon","coordinates":[[[[-0.38749,51.68097],[-0.38869,51.68103],[-0.3886,51.68173],[-0.3874,51.68167],[-0.38749,51.68097]]]]}},
{ "type":"Feature","properties":{"osm_way_id":"491897128","name":"Morrisons","building":"retail","shop":"supermarket","other":{"addr:city":"Watford","addr:housename":"Morrisons","addr:postcode":"WD18 8AA","addr:street":"Ascot Road","alt_name":"Morrisons Watford","brand":"Morrisons","brand:wikidata":"Q922344","brand:wikipedia":"en:Morrisons","building:levels":"2","opening_hours":"Mo-Sa 07:00-23:00; Su 10:00-16:00","opening_hours:url":"https:\/\/my.morrisons.com\/storefinder\/586","phone":"+44 1923 700695","roof:shape":"flat","website":"https:\/\/my.morrisons.com\/storefinder\/586","wheelchair":"yes"}}, "geometry":{"type":"MultiPolygon","coordinates":[[[[-0.424,51.64846],[-0.42299,51.64854],[-0.423,51.64859],[-0.42279,51.64861],[-0.42277,51.64847],[-0.42289,51.64846],[-0.42274,51.64774],[-0.42319,51.6477],[-0.42323,51.64789],[-0.42387,51.64784],[-0.424,51.64846]]]]}},
{ "type":"Feature","properties":{"osm_way_id":"823116628","name":"Lidl","building":"retail","shop":"supermarket","other":{"addr:country":"GB","addr:housenumber":"275","addr:postcode":"WD17 2HY","addr:street":"Lower High Street","brand":"Lidl","brand:wikidata":"Q151954","brand:wikipedia":"en:Lidl","building:levels":"2","fhrs:id":"1211112","layer":"2","smoking":"no"}}, "geometry":{"type":"MultiPolygon","coordinates":[[[[-0.38706,51.64984],[-0.38671,51.64994],[-0.38643,51.65],[-0.3862,51.64944],[-0.3863,51.64943],[-0.38627,51.64934],[-0.38655,51.64929],[-0.38663,51.64928],[-0.38668,51.64927],[-0.38671,51.64926],[-0.3869,51.64975],[-0.38701,51.64973],[-0.38706,51.64984]]]]}}
]
}
