{
"type": "FeatureCollection",
"features": [
{ "type":"Feature","properties":{"osm_id":"1710471010","name":"T Kirks Forestry","other":{"building":"warehouse"}}, "geometry":{"type":"Point","coordinates":[-1.7774,53.55823 ]}},
{ "type":"Feature","properties":{"osm_id":"1710545154","name":"Old Fieldhouse Lane Depot","other":{"amenity":"bus_station","building":"warehouse","bus":"yes","designation":"First Group","public_transport":"station"}}, "geometry":{"type":"Point","coordinates":[-1.76152,53.66392 ]}},
{ "type":"Feature","properties":{"osm_way_id":"144130650","name":"IKEA Warehouse","building":"warehouse"},"geometry":{"type":"MultiPolygon","coordinates":[[[[-1.65272,53.74537],[-1.65081,53.74569],[-1.65043,53.74491],[-1.65234,53.74458],[-1.65272,53.74537]]]]}},
{ "type":"Feature","properties":{"osm_way_id":"144130668","name":"Ocado","building":"warehouse","other":{"addr:city":"Birstall","addr:postcode":"WF17 9LW","addr:street":"Dark Lane"}}, "geometry":{"type":"MultiPolygon","coordinates":[[[[-1.65605,53.74214],[-1.65573,53.74211],[-1.65581,53.74173],[-1.65614,53.74176],[-1.65605,53.74214]]]]}},
{ "type":"Feature","properties":{"osm_way_id":"158935672","name":"Thongsbridge Tennis Club","building":"warehouse","leisure":"sports_centre","sport":"tennis","other":{"addr:city":"Holmfirth","addr:hamlet":"Thongsbridge","addr:postcode":"HD9 7RY","addr:street":"Miry Lane"}}, "geometry":{"type":"MultiPolygon","coordinates":[[[[-1.77731,53.58599],[-1.77676,53.58583],[-1.77647,53.58618],[-1.77622,53.58649],[-1.77676,53.58665],[-1.77731,53.58599]]]]}},
{ "type":"Feature","properties":{"osm_way_id":"159051184","building":"warehouse"},"geometry":{"type":"MultiPolygon","coordinates":[[[[-1.78448,53.55322],[-1.7842,53.55287],[-1.78321,53.55316],[-1.78333,53.55334],[-1.78366,53.55325],[-1.78381,53.55342],[-1.78448,53.55322]]]]}},
{ "type":"Feature","properties":{"osm_way_id":"276995673","building":"warehouse"},"geometry":{"type":"MultiPolygon","coordinates":[[[[-1.67106,53.55389],[-1.67032,53.55392],[-1.67029,53.55392],[-1.67028,53.55387],[-1.6706,53.55386],[-1.67059,53.55381],[-1.67105,53.5538],[-1.67106,53.55389]]]]}},
{ "type":"Feature","properties":{"osm_way_id":"494483158","building":"warehouse","other":{"addr:city":"Huddersfield","addr:country":"GB","addr:hamlet":"Slaithwaite","addr:postcode":"HD7 5JS"}}, "geometry":{"type":"MultiPolygon","coordinates":[[[[-1.88041,53.62111],[-1.88038,53.62119],[-1.88009,53.62116],[-1.88003,53.62115],[-1.88006,53.62106],[-1.88041,53.62111]]]]}},
{ "type":"Feature","properties":{"osm_way_id":"783919309","building":"yes","other":{"addr:housenumber":"7","addr:street":"Albion Gardens"}}, "geometry":{"type":"MultiPolygon","coordinates":[[[[-1.85944,53.59252],[-1.85952,53.59252],[-1.85952,53.59251],[-1.8595,53.59237],[-1.85943,53.59237],[-1.85944,53.59252]]]]}},
{ "type":"Feature","properties":{"osm_way_id":"901738060","building":"warehouse"},"geometry":{"type":"MultiPolygon","coordinates":[[[[-1.87384,53.65704],[-1.87371,53.65695],[-1.87377,53.65693],[-1.87363,53.65683],[-1.8739,53.6567],[-1.87403,53.65679],[-1.87406,53.65678],[-1.87419,53.65687],[-1.87406,53.65694],[-1.87413,53.65699],[-1.87406,53.65702],[-1.87399,53.65697],[-1.87384,53.65704]]]]}},
{ "type":"Feature","properties":{"osm_way_id":"902093053","building":"warehouse","other":{"abandoned:building":"yes"}}, "geometry":{"type":"MultiPolygon","coordinates":[[[[-1.86772,53.65939],[-1.86759,53.65916],[-1.86785,53.65911],[-1.86778,53.65898],[-1.86821,53.6589],[-1.86829,53.65904],[-1.86801,53.65909],[-1.86813,53.65931],[-1.86772,53.65939]]]]}}
]
}
