{
"type": "FeatureCollection",
"features": [
{ "type":"Feature","properties":{"osm_id":"364993649","name":"Tesco Express","other":{"brand":"Tesco Express","brand:wikidata":"Q98456772","contact:website":"https:\/\/www.tesco.com\/store-locator\/reading\/7-loddon-vale-centre-hurricane-way","opening_hours":"Mo-Su 06:00-23:00","operator":"Tesco","shop":"supermarket"}}, "geometry":{"type":"Point","coordinates":[-0.88807,51.45488 ]}},
{ "type":"Feature","properties":{"osm_id":"370356335","name":"Iceland","other":{"brand":"Iceland","brand:wikidata":"Q721810","shop":"supermarket","wheelchair":"yes"}}, "geometry":{"type":"Point","coordinates":[-0.93459,51.42314 ]}},
{ "type":"Feature","properties":{"osm_id":"370356337","name":"M&S Simply Food","other":{"brand":"M&S Simply Food","brand:wikidata":"Q714491","shop":"supermarket","wheelchair":"yes"}}, "geometry":{"type":"Point","coordinates":[-0.93463,51.42298 ]}},
{ "type":"Feature","properties":{"osm_id":"4573003091","name":"Co-op Food","other":{"brand":"Co-op Food","brand:wikidata":"Q3277439","brand:wikipedia":"en:Co-op Food","name:en":"The co-operative food","shop":"supermarket","wheelchair":"yes"}}, "geometry":{"type":"Point","coordinates":[-0.83438,51.41001 ]}},
{ "type":"Feature","properties":{"osm_id":"4716294198","name":"Seoul Plaza 7","other":{"shop":"supermarket"}}, "geometry":{"type":"Point","coordinates":[-0.94297,51.44071 ]}},
{ "type":"Feature","properties":{"osm_way_id":"25712581","name":"Tesco","building":"retail","shop":"supermarket","other":{"brand":"Tesco","brand:wikidata":"Q487494","brand:wikipedia":"en:Tesco","contact:website":"https:\/\/www.tesco.com\/store-locator\/wokingham\/78-finchampstead-rd","source:building":"OS_OpenData_StreetView"}}, "geometry":{"type":"MultiPolygon","coordinates":[[[[-0.83736,51.40358],[-0.83782,51.40342],[-0.83792,51.40328],[-0.8382,51.40319],[-0.83854,51.40357],[-0.83863,51.40354],[-0.83879,51.40371],[-0.83875,51.40384],[-0.83806,51.40406],[-0.83777,51.404],[-0.83763,51.40383],[-0.83759,51.40384],[-0.83736,51.40358]]]]}},
{ "type":"Feature","properties":{"osm_way_id":"39750715","name":"Asda","building":"retail","shop":"supermarket","other":{"brand":"Asda","fhrs:id":"282337","alt_name":"ASDA Lower Earley","operator":"Asda Stores Ltd","addr:city":"Reading","wheelchair":"yes","addr:street":"Chalfont Way","addr:country":"GB","addr:postcode":"RG6 5TT","opening_hours":"Mo 08:00-24:00, Tu-Fr 06:00-24:00, Sa 06:00-22:00, Su 10:00-16:00","brand:wikidata":"Q297410","brand:wikipedia":"en:Asda","contact:twitter":"@asda","contact:website":"https:\/\/storelocator.asda.com\/south-east\/reading\/chalfont-way-lower-earley","source:building":"OS_OpenData_StreetView","contact:facebook":"https:\/\/www.facebook.com\/asda\/"}}, "geometry":{"type":"MultiPolygon","coordinates":[[[[-0.93301,51.42543],[-0.93293,51.42539],[-0.93305,51.42529],[-0.9327,51.42512],[-0.93256,51.42524],[-0.93224,51.42509],[-0.93208,51.42522],[-0.93166,51.42502],[-0.93178,51.42493],[-0.9315,51.4248],[-0.93188,51.42448],[-0.93193,51.42444],[-0.93213,51.42427],[-0.93264,51.42451],[-0.93289,51.4243],[-0.93383,51.42474],[-0.93301,51.42543]]]]}},
{ "type":"Feature","properties":{"osm_way_id":"46613603","name":"Morrisons","building":"yes","shop":"supermarket","other":{"addr:housename":"Woosehill Shopping Centre","addr:postcode":"RG41 3SW","brand":"Morrisons","brand:wikidata":"Q922344","brand:wikipedia":"en:Morrisons","operator":"Morrisons","source:building":"OS_OpenData_StreetView"}}, "geometry":{"type":"MultiPolygon","coordinates":[[[[-0.8546,51.41457],[-0.85408,51.41461],[-0.85371,51.41463],[-0.85371,51.41467],[-0.8535,51.41468],[-0.85349,51.4146],[-0.85367,51.41458],[-0.85366,51.41453],[-0.85357,51.41454],[-0.85351,51.41425],[-0.85381,51.41423],[-0.85381,51.41422],[-0.85436,51.41411],[-0.85444,51.41412],[-0.85458,51.4144],[-0.8546,51.41457]]]]}},
{ "type":"Feature","properties":{"osm_way_id":"47039534","name":"Waitrose","building":"yes","landuse":"retail","shop":"supermarket","other":{"addr:city":"Twyford","addr:postcode":"RG10 9EH","addr:street":"London Road","branch":"Twyford","brand":"Waitrose & Partners","brand:wikidata":"Q771734","brand:wikipedia":"en:Waitrose & Partners","opening_hours":"Mo-Fr 08:00-21:00; Sa 08:00-20:00; Su 10:00-16:00","operator":"Waitrose & Partners"}}, "geometry":{"type":"MultiPolygon","coordinates":[[[[-0.86635,51.47831],[-0.866,51.47802],[-0.86591,51.47801],[-0.86575,51.47808],[-0.86569,51.47804],[-0.86563,51.47803],[-0.86558,51.47804],[-0.86555,51.47806],[-0.86555,51.4781],[-0.86565,51.47819],[-0.86537,51.47831],[-0.86547,51.4784],[-0.8656,51.47834],[-0.86582,51.47854],[-0.86635,51.47831]]]]}},
{ "type":"Feature","properties":{"osm_way_id":"56419018","name":"Sainsbury's","building":"retail","shop":"supermarket","other":{"addr:city":"Wokingham","addr:place":"Winnersh","addr:postcode":"RG41 5AR","addr:street":"King Street Lane","alt_name":"Sainsbury's Winnersh Superstore","brand":"Sainsbury's","brand:wikidata":"Q152096","opening_hours":"Mo-Sa 05:00-22:00; Su 10:00-16:00","source:building":"OS_OpenData_StreetView","wheelchair":"yes"}}, "geometry":{"type":"MultiPolygon","coordinates":[[[[-0.87813,51.42785],[-0.87799,51.42806],[-0.87779,51.42801],[-0.87772,51.42811],[-0.87687,51.42789],[-0.87717,51.42745],[-0.87735,51.4275],[-0.87753,51.42724],[-0.87822,51.42743],[-0.87796,51.42781],[-0.87813,51.42785]]]]}},
{ "type":"Feature","properties":{"osm_way_id":"72660044","name":"Waitrose","building":"yes","shop":"supermarket","other":{"addr:city":"Wokingham","addr:postcode":"RG40 1BB","addr:street":"Rectory Road","alt_name":"Waitrose Wokingham","brand":"Waitrose & Partners","brand:wikidata":"Q771734","brand:wikipedia":"en:Waitrose & Partners","operator":"Waitrose & Partners","source:building":"OS_OpenData_StreetView"}}, "geometry":{"type":"MultiPolygon","coordinates":[[[[-0.83413,51.41164],[-0.83314,51.41204],[-0.83295,51.41186],[-0.83275,51.41194],[-0.83269,51.41188],[-0.83284,51.41182],[-0.83287,51.41184],[-0.83329,51.41168],[-0.83312,51.41151],[-0.83356,51.41133],[-0.8335,51.41128],[-0.83368,51.41121],[-0.8339,51.41142],[-0.83413,51.41164]]]]}},
{ "type":"Feature","properties":{"osm_way_id":"79797052","name":"Lidl","building":"yes","shop":"supermarket","other":{"addr:city":"Reading","addr:country":"GB","addr:housenumber":"6","addr:postcode":"RG5 4JA","addr:street":"Headley Road","brand":"Lidl","brand:wikidata":"Q151954","brand:wikipedia":"en:Lidl","fhrs:id":"282753","opening_hours":"Mo-Sa 08:00-21:00; Su 11:00-18:00","source:building":"OS_OpenData_StreetView","toilets:wheelchair":"no","wheelchair":"yes"}}, "geometry":{"type":"MultiPolygon","coordinates":[[[[-0.9045,51.45312],[-0.90487,51.45305],[-0.90496,51.4533],[-0.905,51.45337],[-0.90507,51.45355],[-0.9047,51.45359],[-0.9045,51.45312]]]]}},
{ "type":"Feature","properties":{"osm_way_id":"79797059","name":"Waitrose","building":"yes","shop":"supermarket","other":{"url":"http:\/\/www.waitrose.com","brand":"Waitrose","operator":"Waitrose & Partners","addr:city":"Reading","addr:postcode":"RG5 3JW","official_name":"Waitrose & Partners","opening_hours":"Mo-Fr 08:00-20:00; Sa 08:00-21:00; Su 10:00-16:00","brand:wikidata":"Q771734","brand:wikipedia":"en:Waitrose & Partners","source:building":"OS_OpenData_StreetView"}}, "geometry":{"type":"MultiPolygon","coordinates":[[[[-0.90511,51.45208],[-0.90523,51.45179],[-0.90509,51.45177],[-0.90512,51.4517],[-0.90525,51.45172],[-0.9053,51.45161],[-0.90536,51.45159],[-0.90578,51.45166],[-0.90582,51.4517],[-0.90573,51.45197],[-0.90551,51.45204],[-0.90547,51.45214],[-0.90511,51.45208]]]]}},
{ "type":"Feature","properties":{"osm_way_id":"148889156","name":"Lidl Wokingham","building":"retail","shop":"supermarket","other":{"brand":"Lidl","brand:wikidata":"Q151954","building:levels":"1.5"}}, "geometry":{"type":"MultiPolygon","coordinates":[[[[-0.8463,51.40664],[-0.84704,51.40621],[-0.84684,51.40607],[-0.84685,51.40607],[-0.84676,51.40601],[-0.84674,51.406],[-0.84634,51.40623],[-0.84639,51.40626],[-0.84617,51.40639],[-0.84609,51.40644],[-0.84625,51.40655],[-0.84621,51.40658],[-0.8463,51.40664]]]]}},
{ "type":"Feature","properties":{"osm_way_id":"390571654","name":"M&S Simply Food","building":"yes","shop":"supermarket","other":{"brand":"M&S Simply Food","brand:wikidata":"Q714491","brand:wikipedia":"en:Marks & Spencer"}}, "geometry":{"type":"MultiPolygon","coordinates":[[[[-0.91972,51.45893],[-0.91899,51.45879],[-0.91914,51.45849],[-0.91988,51.45864],[-0.91972,51.45893]]]]}},
{ "type":"Feature","properties":{"osm_way_id":"597711191","name":"Aldi","building":"yes","shop":"supermarket","other":{"addr:city":"Reading","addr:postcode":"RG6 1AZ","addr:street":"Suttons Park Avenue","addr:unit":"26","brand":"ALDI","brand:wikidata":"Q41171672","brand:wikipedia":"en:Aldi","opening_hours":"Mo-Sa 08:00-22:00; Su 10:00-16:00; PH 08:00-20:00"}}, "geometry":{"type":"MultiPolygon","coordinates":[[[[-0.93347,51.45835],[-0.93361,51.45828],[-0.93355,51.45823],[-0.93379,51.45812],[-0.93351,51.45792],[-0.93356,51.4579],[-0.93329,51.45769],[-0.93298,51.45784],[-0.93295,51.45782],[-0.93286,51.45786],[-0.93296,51.45793],[-0.93347,51.45835]]]]}},
{ "type":"Feature","properties":{"osm_way_id":"626221446","name":"Co-op Food","building":"apartments","shop":"supermarket","other":{"brand":"Co-op Food","brand:wikidata":"Q3277439","brand:wikipedia":"en:Co-op Food","opening_hours":"Mo-Sa 07:00-20:00; Su 08:00-20:00"}}, "geometry":{"type":"MultiPolygon","coordinates":[[[[-0.92217,51.45094],[-0.92151,51.45111],[-0.92143,51.45099],[-0.92183,51.45089],[-0.92184,51.4509],[-0.92198,51.45087],[-0.92196,51.45083],[-0.92208,51.4508],[-0.92217,51.45094]]]]}},
{ "type":"Feature","properties":{"osm_way_id":"652392598","name":"The Co-operative Food","building":"retail","shop":"supermarket","other":{"fhrs:id":"282658","operator":"Midcounties Co-operative","addr:city":"Finchampstead","addr:street":"Finchampstead Road","source:addr":"fhrs opendata","addr:postcode":"RG40 3RB","opening_hours":"Mo-Su 07:00-23:00","addr:housenumber":"420"}}, "geometry":{"type":"MultiPolygon","coordinates":[[[[-0.85577,51.37689],[-0.85585,51.37682],[-0.85565,51.37673],[-0.85557,51.37681],[-0.85568,51.37686],[-0.85577,51.37689]]]]}},
{ "type":"Feature","properties":{"osm_way_id":"824022278","name":"Aldi","building":"supermarket","shop":"supermarket","other":{"brand":"ALDI","brand:wikidata":"Q41171672","brand:wikipedia":"en:Aldi"}}, "geometry":{"type":"MultiPolygon","coordinates":[[[[-0.83751,51.40837],[-0.8372,51.40854],[-0.83718,51.40852],[-0.83713,51.40855],[-0.83658,51.40815],[-0.83668,51.4081],[-0.83673,51.40814],[-0.83695,51.40802],[-0.83724,51.40823],[-0.83728,51.40821],[-0.83751,51.40837]]]]}}
]
}
