{
"type": "FeatureCollection",
"features": [
{ "type":"Feature","properties":{"osm_id":"248444186","name":"Co-op Food","other":{"addr:city":"London","addr:housenumber":"185","addr:postcode":"EC1V 9NP","addr:street":"Old Street","brand":"Co-op Food","brand:wikidata":"Q3277439","brand:wikipedia":"en:Co-op Food","opening_hours":"Mo-Sa 06:00-24:00, Su 11:00-17:00","shop":"supermarket"}}, "geometry":{"type":"Point","coordinates":[-0.09053,51.52561 ]}},
{ "type":"Feature","properties":{"osm_id":"279651368","name":"Arsenal Mini Mart","other":{"shop":"supermarket"}}, "geometry":{"type":"Point","coordinates":[-0.11103,51.55383 ]}},
{ "type":"Feature","properties":{"osm_id":"285921198","name":"Waitrose","other":{"addr:city":"London","addr:housename":"Cherry Tree Walk Centre","addr:postcode":"EC1Y 8NX","addr:street":"Cherry Tree Walk","branch":"Barbican","brand":"Waitrose","brand:wikidata":"Q771734","brand:wikipedia":"en:Waitrose","fhrs:id":"416999","official_name":"Waitrose & Partners","opening_hours":"Mo-Fr 07:00-22:00; Sa 08:00-21:00; Su 11:00-17:00","operator":"Waitrose & Partners","shop":"supermarket"}}, "geometry":{"type":"Point","coordinates":[-0.09212,51.52229 ]}},
{ "type":"Feature","properties":{"osm_id":"299443505","name":"Planet Organic","other":{"brand":"Planet Organic","brand:wikidata":"Q24298870","brand:wikipedia":"en:Planet Organic","organic":"only","shop":"supermarket","website":"https:\/\/www.planetorganic.com\/pages\/islington"}}, "geometry":{"type":"Point","coordinates":[-0.09948,51.53787 ]}},
{ "type":"Feature","properties":{"osm_id":"331880904","name":"Budgens","other":{"addr:city":"London","addr:housenumber":"213-215","addr:postcode":"N1 1RL","addr:street":"Upper Street","addr:suburb":"Islington","brand":"Budgens","brand:wikidata":"Q4985016","brand:wikipedia":"en:Budgens","shop":"supermarket","source:addr":"FHRS Open Data","toilets:wheelchair":"no","wheelchair":"yes"}}, "geometry":{"type":"Point","coordinates":[-0.10346,51.54359 ]}},
{ "type":"Feature","properties":{"osm_id":"331880929","name":"Tesco Metro","other":{"addr:city":"London","addr:housenumber":"43","addr:postcode":"N7 8JP","addr:street":"Holloway Road","addr:suburb":"Islington","brand":"Tesco Metro","brand:wikidata":"Q57551648","fhrs:id":"416316","payment:american_express":"yes","shop":"supermarket","source:addr":"FHRS Open Data","wheelchair":"yes"}}, "geometry":{"type":"Point","coordinates":[-0.10485,51.54684 ]}},
{ "type":"Feature","properties":{"osm_id":"548204081","name":"Food City","other":{"shop":"supermarket"}}, "geometry":{"type":"Point","coordinates":[-0.09787,51.53925 ]}},
{ "type":"Feature","properties":{"osm_id":"548208393","name":"Pound Stop","other":{"addr:housenumber":"125a","addr:street":"Essex road","shop":"supermarket"}}, "geometry":{"type":"Point","coordinates":[-0.09796,51.53917 ]}},
{ "type":"Feature","properties":{"osm_id":"578498509","name":"Mother Earth","other":{"organic":"only","shop":"supermarket"}}, "geometry":{"type":"Point","coordinates":[-0.10085,51.54632 ]}},
{ "type":"Feature","properties":{"osm_id":"701538560","name":"Addis Food and Wine","other":{"addr:city":"Islington","addr:country":"GB","addr:housenumber":"64","addr:postcode":"N5 1ND","addr:street":"Drayton Park","fhrs:id":"1087046","level":"0","shop":"supermarket"}}, "geometry":{"type":"Point","coordinates":[-0.10464,51.55334 ]}},
{ "type":"Feature","properties":{"osm_id":"712768510","name":"Waitrose","other":{"addr:city":"London","addr:housenumber":"174","addr:postcode":"EC1V 4DE","addr:street":"St. John Street","addr:suburb":"Islington","brand":"Waitrose","brand:wikidata":"Q771734","brand:wikipedia":"en:Waitrose & Partners","fhrs:id":"417441","official_name":"Waitrose & Partners","opening_hours":"Mo-Fr 07:30-22:00, Sa 07:30-21:00, Su 12:00-18:00","operator":"Waitrose & Partners","shop":"supermarket","source:addr":"FHRS Open Data","wheelchair":"yes"}}, "geometry":{"type":"Point","coordinates":[-0.10273,51.52415 ]}},
{ "type":"Feature","properties":{"osm_id":"842436325","name":"M&S Food","other":{"brand":"M&S Foodhall","brand:wikidata":"Q714491","shop":"supermarket"}}, "geometry":{"type":"Point","coordinates":[-0.13547,51.56517 ]}},
{ "type":"Feature","properties":{"osm_id":"885683227","name":"City Road Supermarket","other":{"addr:city":"London","addr:housenumber":"152","addr:postcode":"EC1V 8AY","addr:street":"Central Street","opening_hours":"24\/7","phone":"+44 20 7251 8181","shop":"supermarket"}}, "geometry":{"type":"Point","coordinates":[-0.09722,51.52928 ]}},
{ "type":"Feature","properties":{"osm_id":"1150114262","name":"Sainsbury's Local","other":{"brand:wikidata":"Q13218434","shop":"supermarket"}}, "geometry":{"type":"Point","coordinates":[-0.1319,51.56434 ]}},
{ "type":"Feature","properties":{"osm_id":"1859056493","name":"Tesco Express","other":{"addr:housenumber":"625-627","addr:postcode":"N19 5SS","addr:street":"Holloway Road","brand":"Tesco Express","brand:wikidata":"Q98456772","contact:website":"https:\/\/www.tesco.com\/store-locator\/archway\/627-635-holloway-rd","former_name":"Budgens","shop":"supermarket"}}, "geometry":{"type":"Point","coordinates":[-0.13149,51.56424 ]}},
{ "type":"Feature","properties":{"osm_id":"1896046530","name":"Waitrose","other":{"addr:city":"London","addr:housenumber":"28-32","addr:postcode":"N5 1RD","addr:street":"Highbury Corner","addr:suburb":"Islington","brand":"Waitrose","brand:wikidata":"Q771734","brand:wikipedia":"en:Waitrose","description":"This is a Little Waitrose store.","fhrs:id":"559405","official_name":"Waitrose & Partners","opening_hours":"07:00-23:00","operator":"Waitrose & Partners","phone":"+44 20 7609 6591","shop":"supermarket","source:addr":"FHRS Open Data","website":"https:\/\/www.waitrose.com\/highburycorner","wheelchair":"yes"}}, "geometry":{"type":"Point","coordinates":[-0.1043,51.54694 ]}},
{ "type":"Feature","properties":{"osm_id":"2481856556","name":"Budgens","other":{"brand":"Budgens","brand:wikidata":"Q4985016","brand:wikipedia":"en:Budgens","shop":"supermarket","start_date":"2013"}}, "geometry":{"type":"Point","coordinates":[-0.13172,51.5577 ]}},
{ "type":"Feature","properties":{"osm_id":"2533273380","name":"Sainsbury's Local","other":{"brand:wikidata":"Q13218434","shop":"supermarket"}}, "geometry":{"type":"Point","coordinates":[-0.1182,51.54813 ]}},
{ "type":"Feature","properties":{"osm_id":"2687082149","name":"Tesco Express","other":{"brand":"Tesco Express","brand:wikidata":"Q98456772","contact:website":"https:\/\/www.tesco.com\/store-locator\/london\/nicolas-house","opening_hours":"Mo-Su 07:00-23:00","shop":"supermarket"}}, "geometry":{"type":"Point","coordinates":[-0.11773,51.54919 ]}},
{ "type":"Feature","properties":{"osm_id":"3813667444","name":"M&S Food","other":{"addr:city":"London","addr:housenumber":"201","addr:postcode":"EC1V 9NP","addr:street":"Old Street","brand":"M&S Foodhall","brand:wikidata":"Q714491","brand:wikipedia":"en:Marks & Spencer","fhrs:id":"1247114","operator":"Marks and Spencer","shop":"supermarket","source:addr:postcode":"FHRS Open Data"}}, "geometry":{"type":"Point","coordinates":[-0.08993,51.52566 ]}},
{ "type":"Feature","properties":{"osm_id":"3896724198","name":"The Cooperative Food","other":{"shop":"supermarket"}}, "geometry":{"type":"Point","coordinates":[-0.1257,51.54769 ]}},
{ "type":"Feature","properties":{"osm_id":"4046850724","name":"Co-op Food","other":{"addr:housenumber":"54","addr:street":"Benwell Road","brand":"Co-op Food","brand:wikidata":"Q3277439","brand:wikipedia":"en:Co-op Food","fhrs:id":"846693","opening_hours":"PH,Mo-Su 07:00-23:00","shop":"supermarket"}}, "geometry":{"type":"Point","coordinates":[-0.10972,51.55327 ]}},
{ "type":"Feature","properties":{"osm_id":"5617880813","name":"U.see.inn Continental Supermarket","other":{"shop":"supermarket"}}, "geometry":{"type":"Point","coordinates":[-0.11794,51.54505 ]}},
{ "type":"Feature","properties":{"osm_id":"8048972596","name":"Co-op","other":{"shop":"supermarket"}}, "geometry":{"type":"Point","coordinates":[-0.1257,51.56239 ]}},
{ "type":"Feature","properties":{"osm_id":"8819117409","name":"The Boutique Grocer","other":{"addr:housenumber":"6","addr:street":"Esther Anne Place","shop":"supermarket","website":"https:\/\/boutiquegrocer.co.uk"}}, "geometry":{"type":"Point","coordinates":[-0.104,51.53871 ]}},
{ "type":"Feature","properties":{"osm_id":"8891846851","other":{"natural":"tree"}}, "geometry":{"type":"Point","coordinates":[-5.02288,54.89619 ]}},
{ "type":"Feature","properties":{"osm_id":"8891847048","other":{"natural":"tree"}}, "geometry":{"type":"Point","coordinates":[-5.02192,54.89681 ]}},
{ "type":"Feature","properties":{"osm_id":"8891847056","other":{"natural":"tree"}}, "geometry":{"type":"Point","coordinates":[-5.02263,54.89717 ]}},
{ "type":"Feature","properties":{"osm_id":"8891847061","other":{"natural":"tree"}}, "geometry":{"type":"Point","coordinates":[-5.02291,54.89735 ]}},
{ "type":"Feature","properties":{"osm_id":"9223751840","name":"Lidl","other":{"addr:country":"GB","addr:housename":"The Arts Building","addr:housenumber":"2","addr:postcode":"N4 3JG","addr:street":"Morris Place","brand":"Lidl","brand:wikidata":"Q151954","brand:wikipedia":"en:Lidl","fhrs:id":"1403339","level":"0","shop":"supermarket","start_date":"2021-06-29"}}, "geometry":{"type":"Point","coordinates":[-0.10761,51.56611 ]}},
{ "type":"Feature","properties":{"osm_id":"9519425869","name":"M&S Food","other":{"shop":"supermarket"}}, "geometry":{"type":"Point","coordinates":[-0.10762,51.56474 ]}},
{ "type":"Feature","properties":{"osm_way_id":"30475080","name":"Sainsbury's","building":"yes","shop":"supermarket","other":{"addr:housenumber":"31-41","addr:postcode":"N1 0RW","addr:street":"Liverpool Road","brand":"Sainsbury's","brand:wikidata":"Q152096","brand:wikipedia":"en:Sainsbury's","fhrs:id":"417515","toilets:wheelchair":"no","wheelchair":"yes"}}, "geometry":{"type":"MultiPolygon","coordinates":[[[[-0.10735,51.53453],[-0.10724,51.53451],[-0.10719,51.53447],[-0.10709,51.53401],[-0.10783,51.53397],[-0.10802,51.53396],[-0.10803,51.53402],[-0.1084,51.53401],[-0.10841,51.53414],[-0.10834,51.53415],[-0.10837,51.53433],[-0.10735,51.53453]]]]}},
{ "type":"Feature","properties":{"osm_way_id":"30850331","name":"Waitrose & Partners","building":"retail","shop":"supermarket","other":{"addr:city":"London","addr:housenumber":"366","addr:postcode":"N7 6PA","addr:street":"Holloway Road","brand":"Waitrose","brand:wikidata":"Q771734","brand:wikipedia":"en:Waitrose & Partners","designation":"Holloway","fhrs:id":"701777","official_name":"Waitrose & Partners","opening_hours":"Mo-Fr 08:00-22:00; Sa 08:00-21:00; Su 11:00-17:00","operator":"Waitrose & Partners","source:addr":"FHRS Open Data"}}, "geometry":{"type":"MultiPolygon","coordinates":[[[[-0.11594,51.55646],[-0.11578,51.55634],[-0.11587,51.55629],[-0.11571,51.55618],[-0.1159,51.55608],[-0.11604,51.55617],[-0.11622,51.55608],[-0.11609,51.55599],[-0.11628,51.55588],[-0.1166,51.55611],[-0.11594,51.55646]]]]}},
{ "type":"Feature","properties":{"osm_way_id":"30850333","name":"Morrisons","building":"retail","shop":"supermarket","other":{"addr:housenumber":"10","addr:postcode":"N7 6PL","addr:street":"Hertslet Road","brand":"Morrisons","brand:wikidata":"Q922344","brand:wikipedia":"en:Morrisons","designation":"Holloway","opening_hours":"Mo-Sa 07:00-23:00; Su 11:00-17:00"}}, "geometry":{"type":"MultiPolygon","coordinates":[[[[-0.11668,51.55755],[-0.1172,51.55726],[-0.11712,51.55719],[-0.11712,51.55719],[-0.11671,51.55689],[-0.11657,51.55695],[-0.11641,51.55682],[-0.11623,51.55692],[-0.11618,51.55688],[-0.11615,51.5569],[-0.11612,51.55688],[-0.11608,51.55691],[-0.1161,51.55692],[-0.11608,51.55693],[-0.11607,51.55692],[-0.11596,51.55698],[-0.11596,51.55701],[-0.116,51.55704],[-0.11599,51.55704],[-0.11601,51.55705],[-0.11599,51.55706],[-0.11665,51.55754],[-0.11666,51.55753],[-0.11668,51.55755]]]]}},
{ "type":"Feature","properties":{"osm_way_id":"31066851","name":"Shell Shop","building":"yes","shop":"supermarket"},"geometry":{"type":"MultiPolygon","coordinates":[[[[-0.10222,51.54082],[-0.10208,51.54081],[-0.10209,51.54063],[-0.10222,51.54063],[-0.10222,51.54067],[-0.10222,51.54074],[-0.10222,51.54079],[-0.10222,51.54082]]]]}},
{ "type":"Feature","properties":{"osm_way_id":"32826154","name":"Co-op Food","building":"yes","shop":"supermarket","other":{"brand":"Co-op Food","brand:wikidata":"Q3277439","brand:wikipedia":"en:Co-op Food","operator":"The Co-operative Group"}}, "geometry":{"type":"MultiPolygon","coordinates":[[[[-0.11758,51.5413],[-0.11722,51.54132],[-0.11717,51.54107],[-0.11723,51.54106],[-0.11739,51.54105],[-0.11747,51.54105],[-0.11749,51.54115],[-0.11755,51.54114],[-0.11758,51.5413]]]]}},
{ "type":"Feature","properties":{"osm_way_id":"36771814","name":"Tesco Metro","building":"yes","shop":"supermarket","other":{"addr:city":"London","addr:housenumber":"21","addr:postcode":"N1 9DX","addr:street":"Caledonian Road","alt_name":"Tesco Kings Cross Metro","atm":"yes","brand":"Tesco Metro","brand:wikidata":"Q57551648","building:levels":"4","contact:website":"https:\/\/www.tesco.com\/store-locator\/london\/21-caledonian-rd","name:fa":"تسکو مترو","opening_hours":"Mo-Sa 06:00-23:00; Su 12:00-18:00","payment:cash":"yes","payment:mastercard":"yes","payment:visa":"yes","phone":"+44 345 6779821","wheelchair":"yes"}}, "geometry":{"type":"MultiPolygon","coordinates":[[[[-0.12137,51.53209],[-0.12139,51.53177],[-0.1212,51.53177],[-0.12106,51.53177],[-0.12102,51.53178],[-0.12097,51.53179],[-0.12094,51.53181],[-0.12093,51.53183],[-0.12092,51.53186],[-0.12095,51.53186],[-0.12095,51.53191],[-0.12093,51.53191],[-0.12093,51.53206],[-0.12094,51.53206],[-0.12094,51.53208],[-0.12107,51.53208],[-0.12107,51.53205],[-0.12123,51.53205],[-0.12123,51.53209],[-0.12137,51.53209]]]]}},
{ "type":"Feature","properties":{"osm_way_id":"67421042","name":"Co-op","building":"yes","shop":"supermarket","other":{"addr:housenumber":"273","addr:street":"City Road","old_name":"The Co-operatove Food","opening_hours":"Mo-Su 07:00-23:00"}}, "geometry":{"type":"MultiPolygon","coordinates":[[[[-0.09812,51.53001],[-0.09819,51.53002],[-0.09808,51.53019],[-0.09802,51.53016],[-0.09793,51.53001],[-0.09793,51.52999],[-0.09795,51.52997],[-0.09799,51.52997],[-0.09812,51.53001]]]]}},
{ "type":"Feature","properties":{"osm_way_id":"76507118","name":"Iceland","building":"yes","shop":"supermarket","other":{"addr:housenumber":"46","addr:postcode":"N19 5RD","addr:street":"Junction Road","brand":"Iceland","brand:wikidata":"Q721810","contact:phone":"+44 20 7272 2390"}}, "geometry":{"type":"MultiPolygon","coordinates":[[[[-0.13552,51.56397],[-0.13571,51.56401],[-0.13569,51.56405],[-0.13574,51.56406],[-0.1358,51.56407],[-0.13588,51.56409],[-0.13594,51.56397],[-0.13599,51.56387],[-0.13583,51.56384],[-0.1358,51.56389],[-0.13558,51.56385],[-0.13552,51.56397]]]]}},
{ "type":"Feature","properties":{"osm_way_id":"76586535","name":"Aldi","building":"yes","shop":"supermarket","other":{"brand":"ALDI","brand:wikidata":"Q41171672","brand:wikipedia":"en:Aldi","building:levels":"2","level":"0","name:fa":"آلدی"}}, "geometry":{"type":"MultiPolygon","coordinates":[[[[-0.13405,51.56528],[-0.13372,51.56516],[-0.13396,51.56493],[-0.13406,51.56497],[-0.134,51.56503],[-0.13418,51.56509],[-0.13416,51.56511],[-0.13422,51.56512],[-0.13413,51.56521],[-0.13405,51.56528]]]]}},
{ "type":"Feature","properties":{"osm_way_id":"76586543","name":"Co-operative","building":"yes","shop":"supermarket","other":{"addr:housenumber":"15-19","addr:postcode":"N19 5QT","addr:street":"Junction Road","opening_hours":"Mo-Sa 06:00-23:00, Su 11:00-17:00","wheelchair":"yes"}}, "geometry":{"type":"MultiPolygon","coordinates":[[[[-0.13467,51.56489],[-0.1346,51.56502],[-0.13435,51.56497],[-0.1343,51.56495],[-0.13427,51.56494],[-0.13432,51.56488],[-0.1344,51.56481],[-0.13467,51.56489]]]]}},
{ "type":"Feature","properties":{"osm_way_id":"119438298","name":"Waitrose","building":"yes","shop":"supermarket","other":{"addr:city":"London","addr:housenumber":"21","addr:postcode":"N1 0RW","addr:street":"Liverpool Road","addr:suburb":"Islington","brand":"Waitrose","brand:wikidata":"Q771734","brand:wikipedia":"en:Waitrose & Partners","fhrs:id":"416726","official_name":"Waitrose & Partners","operator":"Waitrose & Partners","source:addr":"FHRS Open Data"}}, "geometry":{"type":"MultiPolygon","coordinates":[[[[-0.10709,51.53401],[-0.10783,51.53397],[-0.10782,51.53387],[-0.10781,51.53384],[-0.10753,51.53386],[-0.10753,51.53384],[-0.10746,51.53366],[-0.10729,51.53367],[-0.10732,51.53381],[-0.10724,51.53382],[-0.10719,51.53382],[-0.10704,51.53383],[-0.10709,51.53401]]]]}},
{ "type":"Feature","properties":{"osm_way_id":"119773872","name":"Healthwise","building":"yes","shop":"supermarket","other":{"addr:housenumber":"13","addr:postcode":"N1 9EZ","addr:street":"Chapel Market","organic":"only"}}, "geometry":{"type":"MultiPolygon","coordinates":[[[[-0.10998,51.53349],[-0.10991,51.53349],[-0.10992,51.53359],[-0.11,51.53359],[-0.10998,51.53349]]]]}},
{ "type":"Feature","properties":{"osm_way_id":"205098836","name":"Tesco Metro","building":"yes","shop":"supermarket","other":{"addr:housenumber":"25-29","addr:postcode":"N1 8DU","addr:street":"Islington Green","brand":"Tesco Metro","brand:wikidata":"Q57551648","name:fa":"تسکو مترو"}}, "geometry":{"type":"MultiPolygon","coordinates":[[[[-0.10215,51.53578],[-0.10224,51.53571],[-0.10257,51.5359],[-0.10244,51.53598],[-0.10241,51.53596],[-0.10226,51.53605],[-0.10216,51.53599],[-0.10234,51.53588],[-0.10215,51.53578]]]]}},
{ "type":"Feature","properties":{"osm_way_id":"233810154","name":"Iceland","building":"yes","shop":"supermarket","other":{"addr:housenumber":"442-446","addr:postcode":"N7 6QA","addr:street":"Holloway Road","brand":"Iceland","brand:wikidata":"Q721810","designation":"Holloway"}}, "geometry":{"type":"MultiPolygon","coordinates":[[[[-0.11883,51.55765],[-0.11867,51.55755],[-0.11844,51.55768],[-0.11836,51.55772],[-0.11832,51.55769],[-0.11814,51.55779],[-0.11837,51.55797],[-0.11856,51.55787],[-0.11852,51.55782],[-0.11856,51.5578],[-0.11865,51.55775],[-0.11871,51.55772],[-0.11883,51.55765]]]]}},
{ "type":"Feature","properties":{"osm_way_id":"233810158","name":"Lidl","building":"yes","shop":"supermarket","other":{"addr:country":"GB","addr:housenumber":"422-434","addr:postcode":"N7 6QD","addr:street":"Holloway Road","brand":"Lidl","brand:wikidata":"Q151954","brand:wikipedia":"en:Lidl","fhrs:id":"1255910"}}, "geometry":{"type":"MultiPolygon","coordinates":[[[[-0.11848,51.55742],[-0.11835,51.55749],[-0.11819,51.55757],[-0.11828,51.55764],[-0.11826,51.55765],[-0.11808,51.55774],[-0.11791,51.55761],[-0.11785,51.55764],[-0.11772,51.55756],[-0.11779,51.55751],[-0.1177,51.55744],[-0.11755,51.55733],[-0.1176,51.55731],[-0.11774,51.55724],[-0.1178,51.55726],[-0.11789,51.55731],[-0.11787,51.55732],[-0.1179,51.55734],[-0.11795,51.55737],[-0.11803,51.55733],[-0.11821,51.55723],[-0.11848,51.55742]]]]}},
{ "type":"Feature","properties":{"osm_way_id":"237969432","name":"Tesco Express","building":"yes","shop":"supermarket","other":{"addr:housenumber":"126-130","addr:postcode":"N7 7NS","addr:street":"Seven Sisters Road","brand":"Tesco Express","brand:wikidata":"Q98456772","designation":"Seven Sisters Express"}}, "geometry":{"type":"MultiPolygon","coordinates":[[[[-0.11431,51.56017],[-0.11435,51.56015],[-0.11432,51.56012],[-0.11441,51.56008],[-0.11449,51.56005],[-0.11453,51.56008],[-0.11457,51.56012],[-0.1146,51.56014],[-0.11461,51.56014],[-0.11463,51.56015],[-0.11468,51.56019],[-0.11474,51.56025],[-0.11456,51.56035],[-0.11447,51.56029],[-0.11442,51.56025],[-0.11431,51.56017]]]]}},
{ "type":"Feature","properties":{"osm_way_id":"264032020","name":"Tesco Metro","building":"yes","shop":"supermarket","other":{"brand":"Tesco Metro","brand:wikidata":"Q57551648"}}, "geometry":{"type":"MultiPolygon","coordinates":[[[[-0.11214,51.5692],[-0.11172,51.56899],[-0.11189,51.56885],[-0.11205,51.56873],[-0.11216,51.56865],[-0.11223,51.5686],[-0.11259,51.56878],[-0.11252,51.56883],[-0.11258,51.56886],[-0.1124,51.56898],[-0.11238,51.56899],[-0.11214,51.5692]]]]}},
{ "type":"Feature","properties":{"osm_way_id":"847260474","building":"yes"},"geometry":{"type":"MultiPolygon","coordinates":[[[[-0.13249,51.5702],[-0.13257,51.57026],[-0.13264,51.57024],[-0.13254,51.57017],[-0.13249,51.5702]]]]}},
{ "type":"Feature","properties":{"osm_way_id":"982715378","name":"Co-op Food","building":"yes","shop":"supermarket","other":{"brand":"Co-op Food","brand:wikidata":"Q3277439","brand:wikipedia":"en:Co-op Food","operator":"The Co-operative Group","operator:wikidata":"Q117202","operator:wikipedia":"en:The Co-operative Group"}}, "geometry":{"type":"MultiPolygon","coordinates":[[[[-0.1045,51.52041],[-0.10464,51.52061],[-0.1044,51.52068],[-0.10427,51.52046],[-0.1045,51.52041]]]]}}
]
}
