{
"type": "FeatureCollection",
"features": [
{ "type":"Feature","properties":{"osm_way_id":"27718917","name":"DPD","building":"warehouse"},"geometry":{"type":"MultiPolygon","coordinates":[[[[-0.2711,51.53204],[-0.27178,51.53182],[-0.27132,51.5313],[-0.2713,51.5313],[-0.27124,51.53123],[-0.27073,51.5314],[-0.27076,51.53143],[-0.27069,51.53146],[-0.27073,51.5315],[-0.27066,51.53153],[-0.2711,51.53204]]]]}},
{ "type":"Feature","properties":{"osm_way_id":"38242749","building":"warehouse","other":{"addr:housenumber":"1000","addr:street":"North Circular Road"}}, "geometry":{"type":"MultiPolygon","coordinates":[[[[-0.23561,51.56923],[-0.23274,51.56975],[-0.233,51.57031],[-0.23587,51.5698],[-0.23561,51.56923]]]]}},
{ "type":"Feature","properties":{"osm_way_id":"217329937","building":"warehouse"},"geometry":{"type":"MultiPolygon","coordinates":[[[[-0.23933,51.532],[-0.23943,51.53189],[-0.23871,51.53165],[-0.23862,51.53176],[-0.23933,51.532]]]]}},
{ "type":"Feature","properties":{"osm_way_id":"224489301","name":"Access Self Storage","building":"warehouse","shop":"storage_rental"},"geometry":{"type":"MultiPolygon","coordinates":[[[[-0.30036,51.53786],[-0.29929,51.53786],[-0.2992,51.53776],[-0.2992,51.5377],[-0.29915,51.5377],[-0.29911,51.53759],[-0.29911,51.53753],[-0.29921,51.53753],[-0.29921,51.53751],[-0.30036,51.53751],[-0.30036,51.53784],[-0.30036,51.53786]]]]}},
{ "type":"Feature","properties":{"osm_way_id":"224642458","name":"Intraport","building":"warehouse"},"geometry":{"type":"MultiPolygon","coordinates":[[[[-0.30292,51.53789],[-0.30258,51.53792],[-0.30242,51.53731],[-0.30276,51.53727],[-0.30292,51.53789]]]]}},
{ "type":"Feature","properties":{"osm_way_id":"224643318","building":"warehouse"},"geometry":{"type":"MultiPolygon","coordinates":[[[[-0.30522,51.53296],[-0.30458,51.53306],[-0.30449,51.53282],[-0.30512,51.53272],[-0.30522,51.53296]]]]}},
{ "type":"Feature","properties":{"osm_way_id":"224643319","building":"warehouse"},"geometry":{"type":"MultiPolygon","coordinates":[[[[-0.30463,51.53368],[-0.30384,51.53381],[-0.30363,51.53329],[-0.30443,51.53317],[-0.30463,51.53368]]]]}},
{ "type":"Feature","properties":{"osm_way_id":"224643320","building":"warehouse"},"geometry":{"type":"MultiPolygon","coordinates":[[[[-0.3056,51.53361],[-0.30506,51.5337],[-0.30489,51.53326],[-0.30543,51.53318],[-0.3056,51.53361]]]]}},
{ "type":"Feature","properties":{"osm_way_id":"224643321","building":"warehouse"},"geometry":{"type":"MultiPolygon","coordinates":[[[[-0.30401,51.53297],[-0.30349,51.53305],[-0.30331,51.53259],[-0.30401,51.53247],[-0.3041,51.53269],[-0.30391,51.53272],[-0.30401,51.53297]]]]}},
{ "type":"Feature","properties":{"osm_way_id":"228606734","building":"warehouse"},"geometry":{"type":"MultiPolygon","coordinates":[[[[-0.30565,51.53866],[-0.30406,51.53868],[-0.30405,51.5385],[-0.30471,51.53849],[-0.30471,51.53843],[-0.30517,51.53842],[-0.30517,51.53835],[-0.30564,51.53835],[-0.30565,51.53866]]]]}},
{ "type":"Feature","properties":{"osm_way_id":"312216903","name":"Mash Purveyors","building":"warehouse","other":{"addr:city":"London","addr:housename":"Unit 3 Origin Business Park","addr:postcode":"NW10 7FW","addr:street":"Rainsford Road","building:levels":"2"}}, "geometry":{"type":"MultiPolygon","coordinates":[[[[-0.27988,51.53276],[-0.27941,51.53218],[-0.27864,51.53241],[-0.27911,51.53301],[-0.27988,51.53276]]]]}},
{ "type":"Feature","properties":{"osm_way_id":"312216906","name":"Ocado","building":"warehouse","other":{"addr:city":"London","addr:housename":"Unit 1 Origin Business Park","addr:postcode":"NW10 7FW","addr:street":"Rainsford Road","building:levels":"2"}}, "geometry":{"type":"MultiPolygon","coordinates":[[[[-0.27991,51.5317],[-0.27913,51.53195],[-0.27859,51.53127],[-0.27851,51.53117],[-0.27851,51.53117],[-0.27924,51.53094],[-0.27929,51.53093],[-0.27982,51.53159],[-0.27991,51.5317]]]]}},
{ "type":"Feature","properties":{"osm_way_id":"361388011","building":"warehouse"},"geometry":{"type":"MultiPolygon","coordinates":[[[[-0.26608,51.53229],[-0.26487,51.53234],[-0.26497,51.53308],[-0.26617,51.53303],[-0.26608,51.53229]]]]}},
{ "type":"Feature","properties":{"osm_way_id":"361388022","building":"warehouse"},"geometry":{"type":"MultiPolygon","coordinates":[[[[-0.27019,51.53202],[-0.26965,51.53258],[-0.27005,51.53273],[-0.27059,51.53217],[-0.27019,51.53202]]]]}},
{ "type":"Feature","properties":{"osm_way_id":"528477425","name":"John Lewis distribution centre","building":"warehouse","other":{"building:levels":"2"}}, "geometry":{"type":"MultiPolygon","coordinates":[[[[-0.28105,51.53059],[-0.28028,51.53079],[-0.27936,51.52941],[-0.27989,51.52927],[-0.27998,51.52941],[-0.28023,51.52935],[-0.28105,51.53059]]]]}},
{ "type":"Feature","properties":{"osm_way_id":"528477426","building":"warehouse","other":{"building:levels":"2"}}, "geometry":{"type":"MultiPolygon","coordinates":[[[[-0.28279,51.53243],[-0.28188,51.53271],[-0.28154,51.5323],[-0.2818,51.53222],[-0.28185,51.5322],[-0.28194,51.53232],[-0.28255,51.53213],[-0.28279,51.53243]]]]}},
{ "type":"Feature","properties":{"osm_way_id":"570037648","name":"Gorillas","building":"warehouse"},"geometry":{"type":"MultiPolygon","coordinates":[[[[-0.23047,51.54498],[-0.2305,51.54509],[-0.23015,51.54519],[-0.2301,51.54503],[-0.23047,51.54498]]]]}},
{ "type":"Feature","properties":{"osm_way_id":"682255883","name":"Wasabi","building":"warehouse","other":{"building:levels":"2"}}, "geometry":{"type":"MultiPolygon","coordinates":[[[[-0.28226,51.53179],[-0.28194,51.53138],[-0.28061,51.53177],[-0.28093,51.53218],[-0.28226,51.53179]]]]}},
{ "type":"Feature","properties":{"osm_way_id":"682255884","name":"T-Juice","building":"warehouse","other":{"building:levels":"2"}}, "geometry":{"type":"MultiPolygon","coordinates":[[[[-0.28068,51.53251],[-0.28035,51.5321],[-0.27959,51.53234],[-0.27992,51.53275],[-0.28068,51.53251]]]]}},
{ "type":"Feature","properties":{"osm_way_id":"713315543","name":"Christie's Warehouse","building":"warehouse"},"geometry":{"type":"MultiPolygon","coordinates":[[[[-0.26599,51.53135],[-0.26559,51.5316],[-0.2655,51.53155],[-0.26543,51.53159],[-0.2652,51.53145],[-0.26567,51.53115],[-0.26599,51.53135]]]]}}
]
}
