{
"type": "FeatureCollection",
"features": [
{ "type":"Feature","properties":{"osm_id":"304421999","name":"Super Save","other":{"shop":"supermarket"}}, "geometry":{"type":"Point","coordinates":[-0.24635,51.53579 ]}},
{ "type":"Feature","properties":{"osm_id":"304690532","name":"Pak Discount Cash & Carry","other":{"shop":"supermarket"}}, "geometry":{"type":"Point","coordinates":[-0.25064,51.5388 ]}},
{ "type":"Feature","properties":{"osm_id":"305084453","name":"Lidl","other":{"addr:city":"Wembley","addr:housename":"Stadium Retail Park","addr:housenumber":"3","addr:postcode":"HA9 8TS","addr:street":"Wembley Park Drive","brand":"Lidl","brand:wikidata":"Q151954","brand:wikipedia":"en:Lidl","fhrs:id":"532748","shop":"supermarket","source:addr":"FHRS Open Data"}}, "geometry":{"type":"Point","coordinates":[-0.28101,51.56117 ]}},
{ "type":"Feature","properties":{"osm_id":"548866021","name":"Co-op Food","other":{"addr:city":"Wembley","addr:country":"GB","addr:housenumber":"215-219","addr:postcode":"HA9 8NF","addr:street":"Preston Road","brand":"Co-op Food","brand:wikidata":"Q3277439","brand:wikipedia":"en:Co-op Food","opening_hours":"Mo-Su 07:00-23:00","shop":"supermarket","source:addr:postcode":"FHRS Open Data","survey:date":"2013-08-02","toilets:wheelchair":"no","wheelchair":"yes"}}, "geometry":{"type":"Point","coordinates":[-0.29496,51.57097 ]}},
{ "type":"Feature","properties":{"osm_id":"935555304","name":"Iceland","other":{"brand":"Iceland","brand:wikidata":"Q721810","opening_hours":"Mo-Fr 09:00-18:00;Sa-Su 10:00-16:00","shop":"supermarket"}}, "geometry":{"type":"Point","coordinates":[-0.25242,51.56121 ]}},
{ "type":"Feature","properties":{"osm_id":"1993188867","name":"Tesco Express","other":{"addr:city":"London","addr:housenumber":"664","addr:postcode":"NW9 9HN","addr:street":"Kingsbury Road","brand":"Tesco Express","brand:wikidata":"Q98456772","contact:website":"https:\/\/www.tesco.com\/store-locator\/london\/prince-of-wales-house","fhrs:id":"533322","shop":"supermarket","source:addr":"FHRS Open Data"}}, "geometry":{"type":"Point","coordinates":[-0.28125,51.58529 ]}},
{ "type":"Feature","properties":{"osm_id":"2293040160","name":"Wing Yip","other":{"addr:housenumber":"395","addr:postcode":"NW2 6LN","addr:street":"Edgware Road","shop":"supermarket","toilets":"yes","toilets:wheelchair":"yes","wheelchair":"yes"}}, "geometry":{"type":"Point","coordinates":[-0.22914,51.56723 ]}},
{ "type":"Feature","properties":{"osm_id":"2990692742","name":"Lidl","other":{"addr:country":"GB","addr:postcode":"NW9 8SD","addr:street":"Blackbird Hill","brand":"Lidl","brand:wikidata":"Q151954","fhrs:id":"532376","shop":"supermarket"}}, "geometry":{"type":"Point","coordinates":[-0.26394,51.5647 ]}},
{ "type":"Feature","properties":{"osm_id":"3249150758","name":"Tesco Express","other":{"addr:city":"London","addr:housenumber":"31","addr:postcode":"NW10 3NB","addr:street":"Chamberlayne Road","brand":"Tesco Express","brand:wikidata":"Q98456772","contact:website":"https:\/\/www.tesco.com\/store-locator\/london\/31-chamberlayne-rd","fhrs:id":"533101","name:fa":"تسکو اکسپرس","opening_hours":"07:00-23:00","shop":"supermarket","source:addr:postcode":"FHRS Open Data"}}, "geometry":{"type":"Point","coordinates":[-0.21686,51.53131 ]}},
{ "type":"Feature","properties":{"osm_id":"3412445293","name":"Sahar Food Store","other":{"addr:city":"London","addr:housenumber":"106-108","addr:postcode":"NW10 4SL","addr:street":"High Street","fhrs:id":"532050","shop":"supermarket","source:addr":"FHRS Open Data"}}, "geometry":{"type":"Point","coordinates":[-0.24506,51.53601 ]}},
{ "type":"Feature","properties":{"osm_id":"3914624972","name":"Sainsbury's Local","other":{"addr:city":"Wembley","addr:housename":"Wembley Civic Centre","addr:housenumber":"1-7","addr:postcode":"HA9 0NP","addr:street":"Exhibition Way","alt_name":"Sainsbury's Wembley West Olympic Way Local","brand:wikidata":"Q13218434","fhrs:id":"1331920","shop":"supermarket","source:addr":"FHRS Open Data"}}, "geometry":{"type":"Point","coordinates":[-0.28083,51.55907 ]}},
{ "type":"Feature","properties":{"osm_id":"6236246263","name":"Co-op","other":{"addr:housenumber":"104","addr:postcode":"NW6 6RG","addr:street":"Salusbury Road","shop":"supermarket"}}, "geometry":{"type":"Point","coordinates":[-0.20626,51.53708 ]}},
{ "type":"Feature","properties":{"osm_id":"6506185325","name":"Co-op Food","other":{"brand":"Co-op Food","brand:wikidata":"Q3277439","brand:wikipedia":"en:Co-op Food","shop":"supermarket"}}, "geometry":{"type":"Point","coordinates":[-0.27891,51.5589 ]}},
{ "type":"Feature","properties":{"osm_id":"6684013386","name":"Planet Organic","other":{"addr:housenumber":"117-121","addr:street":"Salusbury Road","brand":"Planet Organic","brand:wikidata":"Q24298870","brand:wikipedia":"en:Planet Organic","organic":"only","phone":"+44 20 3985 5410","shop":"supermarket","website":"https:\/\/www.planetorganic.com\/pages\/queens-park"}}, "geometry":{"type":"Point","coordinates":[-0.20674,51.53768 ]}},
{ "type":"Feature","properties":{"osm_id":"8529268156","name":"Amazon Fresh","other":{"addr:borough":"Wembley","addr:city":"London","addr:postcode":"HA9 0HP","addr:street":"Wembley Park Boulevard","addr:unit":"3","brand":"Amazon Fresh","brand:wikidata":"Q4740834","brand:wikipedia":"en:Amazon Fresh","shop":"supermarket"}}, "geometry":{"type":"Point","coordinates":[-0.28189,51.55733 ]}},
{ "type":"Feature","properties":{"osm_id":"8791588697","name":"Brent Newsagent & Post Office","other":{"addr:city":"London","addr:housenumber":"6","addr:postcode":"HA9 9JS","addr:street":"Forty Lane","opening_hours:covid19":"open","operator":"unkown","payment:cash":"yes","payment:credit_cards":"yes","payment:notes":"yes","phone":"+44 20 8904 2003","shop":"supermarket"}}, "geometry":{"type":"Point","coordinates":[-0.27775,51.56564 ]}},
{ "type":"Feature","properties":{"osm_way_id":"4243023","name":"Sainsbury's","building":"yes","shop":"supermarket","other":{"addr:city":"London","addr:housename":"High Road","addr:postcode":"NW10 2TD","addr:street":"High Road","branch_name":"Willesden Green","brand":"Sainsbury's","brand:wikidata":"Q152096","brand:wikipedia":"en:Sainsbury's","building:colour":"brown","building:levels":"1","opening_hours":"Mo-Su 08:00-22:00, Su 11:00-17:00","payment:cash":"yes","payment:credit_cards":"yes","payment:debit_cards":"yes","roof:colour":"grey"}}, "geometry":{"type":"MultiPolygon","coordinates":[[[[-0.22499,51.54692],[-0.22546,51.54704],[-0.22558,51.54706],[-0.22557,51.54708],[-0.22564,51.5471],[-0.22559,51.54718],[-0.22576,51.54721],[-0.2258,51.54714],[-0.22584,51.54715],[-0.22592,51.54702],[-0.22589,51.54701],[-0.22604,51.54676],[-0.22606,51.54673],[-0.22584,51.54668],[-0.22571,51.54665],[-0.22574,51.54661],[-0.22553,51.54655],[-0.22562,51.5464],[-0.22535,51.54634],[-0.22499,51.54692]]]]}},
{ "type":"Feature","properties":{"osm_way_id":"23507206","name":"Tesco Extra","building":"shop","shop":"supermarket","other":{"addr:city":"London","addr:postcode":"NW10 0TL","addr:street":"Great Central Way","alt_name":"tesco Wembley Extra","brand":"Tesco Extra","brand:wikidata":"Q25172225","contact:website":"https:\/\/www.tesco.com\/store-locator\/london\/great-central-way","opening_hours":"Mo-Sa 00:00-00:00; Su 11:00-17:00; PH open","payment:coins":"yes","payment:credit_cards":"yes","payment:debit_cards":"yes","payment:mastercard":"yes","payment:notes":"yes","payment:visa":"yes"}}, "geometry":{"type":"MultiPolygon","coordinates":[[[[-0.2565,51.55419],[-0.256,51.55391],[-0.25592,51.55396],[-0.25497,51.55343],[-0.25428,51.5539],[-0.25534,51.55449],[-0.25558,51.55462],[-0.25608,51.55425],[-0.2562,51.55433],[-0.25626,51.55429],[-0.25634,51.55424],[-0.25638,51.55427],[-0.2565,51.55419]]]]}},
{ "type":"Feature","properties":{"osm_way_id":"37691424","name":"Morrisons","building":"retail","shop":"supermarket","other":{"addr:city":"Brent","addr:postcode":"NW9 6RN","addr:street":"Honeypot Lane","atm":"yes","branch":"Queensbury","brand":"Morrisons","brand:wikidata":"Q922344","brand:wikipedia":"en:Morrisons","fhrs:id":"533563","opening_hours":"Mo-Sa 07:00-23:00; Su 10:00-16:00","toilets:wheelchair":"yes","website":"https:\/\/my.morrisons.com\/storefinder\/307","wheelchair":"yes"}}, "geometry":{"type":"MultiPolygon","coordinates":[[[[-0.28455,51.59254],[-0.28409,51.59224],[-0.28421,51.59217],[-0.28375,51.59186],[-0.28405,51.59168],[-0.28415,51.59175],[-0.28437,51.59162],[-0.28428,51.59156],[-0.28459,51.59138],[-0.2854,51.59191],[-0.28534,51.59195],[-0.28488,51.59221],[-0.28499,51.59228],[-0.28455,51.59254]]]]}},
{ "type":"Feature","properties":{"osm_way_id":"77664690","name":"Tesco Express","building":"yes","shop":"supermarket","other":{"addr:street":"Willesden Lane","brand":"Tesco Express","brand:wikidata":"Q98456772","building:levels":"5"}}, "geometry":{"type":"MultiPolygon","coordinates":[[[[-0.20325,51.54079],[-0.2028,51.54083],[-0.20275,51.54085],[-0.20274,51.54088],[-0.20282,51.54095],[-0.2029,51.54101],[-0.20296,51.54099],[-0.20306,51.54107],[-0.20317,51.54102],[-0.20302,51.54092],[-0.20307,51.5409],[-0.20325,51.54087],[-0.20325,51.54079]]]]}},
{ "type":"Feature","properties":{"osm_way_id":"77891213","name":"Ranya Food Centre","building":"yes","shop":"supermarket","other":{"addr:housenumber":"143","addr:street":"Kilburn High Road","contact:phone":"+44 20 3302 2170"}}, "geometry":{"type":"MultiPolygon","coordinates":[[[[-0.19618,51.54027],[-0.19614,51.54023],[-0.19626,51.54018],[-0.1963,51.54022],[-0.19618,51.54027]]]]}},
{ "type":"Feature","properties":{"osm_way_id":"98552712","name":"Sainsbury's","building":"retail","shop":"supermarket","other":{"addr:city":"Harrow","addr:housenumber":"1","addr:postcode":"HA3 0JA","addr:street":"Nash Way","brand":"Sainsbury's","brand:wikidata":"Q152096","brand:wikipedia":"en:Sainsbury's","fhrs:id":"532412","opening_hours":"Mo-Sa 07:00-22:00;Su 10:00-16:00","source:addr":"FHRS Open Data"}}, "geometry":{"type":"MultiPolygon","coordinates":[[[[-0.316,51.58181],[-0.31607,51.58179],[-0.31594,51.58162],[-0.31604,51.58159],[-0.31588,51.58138],[-0.31578,51.58141],[-0.31555,51.5811],[-0.31536,51.58115],[-0.31527,51.58103],[-0.31447,51.58126],[-0.31501,51.58198],[-0.31505,51.58197],[-0.3151,51.58203],[-0.3155,51.58191],[-0.3154,51.58178],[-0.31588,51.58164],[-0.316,51.58181]]]]}},
{ "type":"Feature","properties":{"osm_way_id":"220063780","name":"Loon Fung","building":"supermarket","shop":"supermarket"},"geometry":{"type":"MultiPolygon","coordinates":[[[[-0.30245,51.5376],[-0.30188,51.53766],[-0.30165,51.53686],[-0.30153,51.53688],[-0.3015,51.53676],[-0.30161,51.53675],[-0.30157,51.53659],[-0.30214,51.53652],[-0.30245,51.5376]]]]}},
{ "type":"Feature","properties":{"osm_way_id":"224411244","name":"Sainsbury's","building":"supermarket","shop":"supermarket","other":{"brand":"Sainsbury's","wheelchair":"yes","opening_hours":"Mo-Sa 07:00-23:00; Su 10:30-16:30","brand:wikidata":"Q152096","brand:wikipedia":"en:Sainsbury's"}}, "geometry":{"type":"MultiPolygon","coordinates":[[[[-0.30385,51.53913],[-0.30286,51.53913],[-0.30286,51.53866],[-0.3027,51.53866],[-0.30271,51.53825],[-0.30359,51.53825],[-0.30359,51.53833],[-0.30386,51.53834],[-0.30385,51.53913]]]]}},
{ "type":"Feature","properties":{"osm_way_id":"228952703","name":"Asda","building":"retail","shop":"supermarket","other":{"brand":"Asda","fhrs:id":"533605","alt_name":"ASDA Colindale Superstore","operator":"Asda Stores Ltd","addr:city":"Colindale","addr:unit":"53","addr:street":"Capitol Way","addr:country":"GB","addr:postcode":"NW9 0AS","contact:phone":"+44 20 8200 4833","opening_hours":"Mo 07:00-24:00; Tu-Fr 00:00-24:00; Sa 00:00-22:00; Su 11:00-17:00","addr:housename":"Capitol Industrial Park","brand:wikidata":"Q297410","brand:wikipedia":"en:Asda","contact:twitter":"@asda","contact:website":"https:\/\/storelocator.asda.com\/london\/london\/capitol-way-off-edgware-road-colindale","contact:facebook":"https:\/\/www.facebook.com\/asda\/","opening_hours:url":"http:\/\/storelocator.asda.com\/store\/colindale"}}, "geometry":{"type":"MultiPolygon","coordinates":[[[[-0.26077,51.59463],[-0.26011,51.59407],[-0.26052,51.59389],[-0.26047,51.59384],[-0.26114,51.59357],[-0.26135,51.59375],[-0.26147,51.5937],[-0.26154,51.59377],[-0.26175,51.59367],[-0.26193,51.59383],[-0.262,51.59379],[-0.26226,51.59403],[-0.26222,51.59406],[-0.2622,51.59416],[-0.262,51.59414],[-0.26156,51.59432],[-0.26152,51.59429],[-0.26077,51.59463]]]]}},
{ "type":"Feature","properties":{"osm_way_id":"228954712","name":"ALDI","building":"yes","shop":"supermarket","other":{"addr:city":"London","addr:housenumber":"634-640","addr:postcode":"NW9 9HN","addr:street":"Kingsbury Road","brand":"ALDI","brand:wikidata":"Q41171672","brand:wikipedia":"en:Aldi","fhrs:id":"532239","name:fa":"آلدی","opening_hours":"Mo-Su 08:00-22:00","source:addr":"FHRS Open Data"}}, "geometry":{"type":"MultiPolygon","coordinates":[[[[-0.28014,51.58547],[-0.28008,51.58499],[-0.27967,51.58501],[-0.27973,51.58548],[-0.28014,51.58547]]]]}},
{ "type":"Feature","properties":{"osm_way_id":"230574792","name":"V.B. & Sons","building":"supermarket","shop":"supermarket"},"geometry":{"type":"MultiPolygon","coordinates":[[[[-0.29685,51.54479],[-0.29669,51.5448],[-0.29661,51.54452],[-0.29676,51.5445],[-0.29685,51.54479]]]]}},
{ "type":"Feature","properties":{"osm_way_id":"243988325","name":"Mleczko","building":"apartments","shop":"supermarket","other":{"addr:city":"Harrow","addr:housenumber":"177-179","addr:postcode":"HA3 0EY","addr:street":"Kenton Road","building:levels":"3","building:material":"brick","cuisine":"polish","fhrs:id":"532104","roof:colour":"grey","source:addr":"FHRS Open Data"}}, "geometry":{"type":"MultiPolygon","coordinates":[[[[-0.31572,51.58242],[-0.31586,51.58252],[-0.31586,51.58253],[-0.31589,51.58254],[-0.31569,51.58266],[-0.31538,51.58244],[-0.31548,51.58239],[-0.31554,51.58236],[-0.31552,51.58234],[-0.31557,51.58231],[-0.31572,51.58242]]]]}},
{ "type":"Feature","properties":{"osm_way_id":"244762014","name":"Mleczko","landuse":"retail","shop":"supermarket","other":{"addr:city":"Harrow","addr:country":"GB","addr:housenumber":"177-179","addr:street":"Kenton Road"}}, "geometry":{"type":"MultiPolygon","coordinates":[[[[-0.31548,51.58239],[-0.31546,51.58238],[-0.31551,51.58235],[-0.31551,51.58232],[-0.31559,51.58228],[-0.31561,51.58229],[-0.31575,51.58239],[-0.31577,51.5824],[-0.31589,51.58249],[-0.3159,51.5825],[-0.3159,51.58252],[-0.31589,51.58254],[-0.31569,51.58266],[-0.31538,51.58244],[-0.31548,51.58239]]]]}},
{ "type":"Feature","properties":{"osm_way_id":"247866765","name":"Polmar","building":"yes","shop":"supermarket","other":{"website":"http:\/\/www.blands.co.uk","building:levels":"3","building:material":"brick"}}, "geometry":{"type":"MultiPolygon","coordinates":[[[[-0.2963,51.55278],[-0.29614,51.55283],[-0.29634,51.55302],[-0.29638,51.55306],[-0.29642,51.55304],[-0.29638,51.55301],[-0.29649,51.55296],[-0.2963,51.55278]]]]}},
{ "type":"Feature","properties":{"osm_way_id":"256915443","name":"Tesco Metro","building":"yes","shop":"supermarket","other":{"brand":"Tesco Metro","brand:wikidata":"Q57551648","name:fa":"تسکو مترو","payment:american_express":"yes","wheelchair":"yes"}}, "geometry":{"type":"MultiPolygon","coordinates":[[[[-0.24647,51.53655],[-0.24649,51.53657],[-0.24675,51.53687],[-0.24677,51.53689],[-0.24646,51.537],[-0.24615,51.53666],[-0.24647,51.53655]]]]}},
{ "type":"Feature","properties":{"osm_way_id":"309215643","name":"Around the Clock 24 hour Off License","building":"yes","shop":"supermarket","other":{"addr:street":"Kilburn High Road","addr:postcode":"NW6 7JR","addr:housenumber":"261"}}, "geometry":{"type":"MultiPolygon","coordinates":[[[[-0.19996,51.54315],[-0.1998,51.54323],[-0.19976,51.54319],[-0.19978,51.54318],[-0.19999,51.54308],[-0.20004,51.54312],[-0.19996,51.54315]]]]}},
{ "type":"Feature","properties":{"osm_way_id":"415833369","name":"ASDA Wembley Superstore","building":"yes","shop":"supermarket","other":{"addr:city":"Wembley","addr:country":"GB","addr:postcode":"HA9 9EX","addr:street":"Forty Lane","alt_name":"ASDA Wembley Superstore","brand":"Asda","brand:wikidata":"Q297410","brand:wikipedia":"en:Asda","building:levels":"2","contact:facebook":"https:\/\/www.facebook.com\/asda","contact:instagram":"https:\/\/www.instagram.com\/asda","contact:twitter":"https:\/\/twitter.com\/asda","contact:website":"https:\/\/storelocator.asda.com\/london\/wembley\/forty-lane","fhrs:id":"531724","opening_hours":"Mo 07:00-24:00; Tu-Fr 00:00-24:00; Sa 00:00-22:00; Su 11:00-17:00","operator":"Asda Stores Ltd","payment:american_express":"yes","payment:cash":"yes","payment:mastercard":"yes","payment:visa":"yes","payment:visa_debit":"yes","wheelchair":"yes"}}, "geometry":{"type":"MultiPolygon","coordinates":[[[[-0.27504,51.56426],[-0.27611,51.56426],[-0.27611,51.5641],[-0.27625,51.56411],[-0.27627,51.56467],[-0.27664,51.56467],[-0.27658,51.56502],[-0.27627,51.56502],[-0.27627,51.56521],[-0.27516,51.56521],[-0.27516,51.56498],[-0.27506,51.56498],[-0.27504,51.56426]]]]}},
{ "type":"Feature","properties":{"osm_way_id":"419517563","name":"M&S Simply Food","shop":"supermarket","other":{"addr:housenumber":"31","addr:street":"Salusbury Road","brand":"M&S Simply Food","brand:wikidata":"Q714491","building:part":"yes","opening_hours":"Mo-Fr 07:00-22:00; Sa 08:00-21:00; Su 10:00-17:00"}}, "geometry":{"type":"MultiPolygon","coordinates":[[[[-0.20391,51.53375],[-0.20389,51.53375],[-0.20372,51.53378],[-0.2036,51.53355],[-0.20377,51.53352],[-0.20383,51.53363],[-0.20385,51.53362],[-0.20388,51.53367],[-0.20391,51.53375]]]]}},
{ "type":"Feature","properties":{"osm_way_id":"439016354","name":"Tesco Express","building":"yes","shop":"supermarket","other":{"addr:housenumber":"21-23","addr:street":"Station Terrace","brand":"Tesco Express","brand:wikidata":"Q98456772","building:colour":"brown","building:levels":"2","building:material":"brick","name:fa":"تسکو اکسپرس","roof:colour":"black","roof:shape":"flat"}}, "geometry":{"type":"MultiPolygon","coordinates":[[[[-0.21911,51.5337],[-0.21907,51.53366],[-0.21904,51.53361],[-0.21915,51.53358],[-0.21927,51.53354],[-0.21929,51.53357],[-0.21918,51.5336],[-0.21919,51.53362],[-0.2192,51.53363],[-0.21932,51.5336],[-0.21934,51.53363],[-0.21937,51.53366],[-0.21925,51.53369],[-0.21926,51.53371],[-0.21915,51.53375],[-0.21911,51.5337]]]]}},
{ "type":"Feature","properties":{"osm_way_id":"439037535","name":"Best Price","building":"yes","shop":"supermarket","other":{"check_date":"2020-05-20","roof:shape":"gabled","addr:street":"Kilburn Lane","roof:colour":"black","building:colour":"brown","building:levels":"2","addr:housenumber":"11","building:material":"brick"}}, "geometry":{"type":"MultiPolygon","coordinates":[[[[-0.21611,51.52853],[-0.21611,51.52858],[-0.21625,51.52858],[-0.21624,51.52853],[-0.21611,51.52853]]]]}},
{ "type":"Feature","properties":{"osm_way_id":"462933277","name":"Morrisons","building":"supermarket","shop":"supermarket","other":{"addr:city":"Colindale","addr:housenumber":"399","addr:postcode":"NW9 0AS","addr:street":"Edgware Road","alt_name":"Morrisons Colindale","brand":"Morrisons","brand:wikidata":"Q922344","brand:wikipedia":"en:Morrisons","opening_hours":"Mo-Sa 07:00-23:00; Su 10:00-16:00"}}, "geometry":{"type":"MultiPolygon","coordinates":[[[[-0.25994,51.59402],[-0.25977,51.59396],[-0.25956,51.59365],[-0.25963,51.59362],[-0.25959,51.59358],[-0.26084,51.59307],[-0.26126,51.59345],[-0.25994,51.59402]]]]}},
{ "type":"Feature","properties":{"osm_way_id":"470422456","name":"Vicky's Oriental Supermarket","building":"residential","shop":"supermarket","other":{"roof:shape":"flat","addr:street":"Willesden Lane","roof:colour":"black","building:colour":"brown","building:levels":"2","addr:housenumber":"4"}}, "geometry":{"type":"MultiPolygon","coordinates":[[[[-0.19861,51.54181],[-0.19868,51.54178],[-0.19878,51.54187],[-0.19884,51.54192],[-0.19879,51.54194],[-0.19874,51.54189],[-0.19871,51.5419],[-0.19861,51.54181]]]]}},
{ "type":"Feature","properties":{"osm_way_id":"675377880","name":"Loon Fung","building":"yes","shop":"supermarket"},"geometry":{"type":"MultiPolygon","coordinates":[[[[-0.25917,51.59281],[-0.2589,51.59293],[-0.25867,51.59278],[-0.25853,51.59261],[-0.2588,51.59249],[-0.25917,51.59281]]]]}},
{ "type":"Feature","properties":{"osm_way_id":"911430877","name":"Londis","building":"yes","shop":"supermarket","other":{"addr:housenumber":"875","addr:street":"Harrow Road","brand":"Londis","brand:wikidata":"Q21008564","brand:wikipedia":"en:Londis (United Kingdom)","phone":"+44 20 8969 2389","website":"https:\/\/www.londis.co.uk\/our-stores\/londis-london-20"}}, "geometry":{"type":"MultiPolygon","coordinates":[[[[-0.23855,51.53226],[-0.23874,51.53229],[-0.23876,51.53224],[-0.23871,51.53214],[-0.23859,51.53212],[-0.23858,51.53215],[-0.23859,51.53215],[-0.23855,51.53226]]]]}}
]
}
