{
"type": "FeatureCollection",
"features": [
{ "type":"Feature","properties":{"osm_id":"1517886928","other":{"access":"customers","amenity":"parking_entrance","parking":"underground","operator":"Tesco"}}, "geometry":{"type":"Point","coordinates":[-1.17609,50.85061 ]}},
{ "type":"Feature","properties":{"osm_id":"4669966452","name":"Spar","other":{"addr:city":"Stubbington, Fareham","addr:postcode":"PO14 2PN","addr:street":"Stubbington Lane","brand":"Spar","brand:wikidata":"Q610492","opening_hours":"Mo-Su 07:00-22:00","operator":"Euro Garages","phone":"+44 1329 668872","shop":"supermarket"}}, "geometry":{"type":"Point","coordinates":[-1.21444,50.82191 ]}},
{ "type":"Feature","properties":{"osm_id":"4751568722","name":"The Co-operative Food","other":{"shop":"supermarket","phone":"+44 2392 383565","fhrs:id":"621081","addr:city":"Portchester","pay_point":"yes","addr:street":"White Hart Lane","addr:country":"GB","addr:postcode":"PO16 9AR","opening_hours":"Mo-Sa 06:00-23:00; Su 07:00-23:00","addr:housenumber":"242-244"}}, "geometry":{"type":"Point","coordinates":[-1.13662,50.84346 ]}},
{ "type":"Feature","properties":{"osm_id":"5522723437","name":"Spar","other":{"shop":"supermarket","brand":"Spar","addr:city":"Fareham","addr:street":"Gosport Road","addr:postcode":"PO16 0QW","brand:wikidata":"Q610492","brand:wikipedia":"en:Spar (retailer)","addr:housenumber":"86-94"}}, "geometry":{"type":"Point","coordinates":[-1.18299,50.84477 ]}},
{ "type":"Feature","properties":{"osm_id":"9362640","name":"ALDI","type":"multipolygon","building":"retail","shop":"supermarket","other":{"addr:city":"Fareham","addr:country":"GB","addr:county":"Hampshire","addr:housenumber":"208-220","addr:postcode":"PO16 0AL","addr:street":"West Street","brand":"ALDI","brand:wikidata":"Q41171672","brand:wikipedia":"en:Aldi","building:levels":"1","check_date:opening_hours":"2021-03-30","fhrs:id":"37830","opening_hours":"Mo-Sa 08:00-22:00; Su 10:00-16:00","operator":"Aldi Stores Limited","roof:shape":"gabled","toilets":"The toilets are officially staff toilets but customers can ask a member of staff to use the toilet.","website":"https:\/\/www.aldi.co.uk\/store\/s-uk-E0300","wheelchair":"yes"}}, "geometry":{"type":"MultiPolygon","coordinates":[[[[-1.18796,50.85216],[-1.18777,50.85215],[-1.18767,50.85215],[-1.18768,50.85204],[-1.18733,50.85203],[-1.18729,50.85251],[-1.18766,50.85253],[-1.18767,50.85228],[-1.18796,50.85229],[-1.18796,50.85216]]]]}},
{ "type":"Feature","properties":{"osm_way_id":"29189525","name":"Waitrose","building":"retail","shop":"supermarket","other":{"addr:city":"Locks Heath, Southampton","addr:street":"Centre Way","brand":"Waitrose & Partners","brand:wikidata":"Q771734","brand:wikipedia":"en:Waitrose & Partners","opening_hours":"Mo-Sa 08:00-20:00; Su 10:00-16:00","operator":"Waitrose & Partners","phone":"+441489578696","ref:store":"563","website":"https:\/\/www.waitrose.com\/locksheath"}}, "geometry":{"type":"MultiPolygon","coordinates":[[[[-1.27415,50.86358],[-1.2738,50.86411],[-1.27382,50.86415],[-1.27455,50.86435],[-1.2746,50.86428],[-1.27454,50.86426],[-1.27459,50.86419],[-1.27461,50.86417],[-1.27465,50.8641],[-1.27473,50.86399],[-1.27474,50.86397],[-1.27485,50.86381],[-1.27481,50.86376],[-1.27467,50.86372],[-1.27466,50.86372],[-1.27464,50.86369],[-1.2742,50.86357],[-1.27415,50.86358]]]]}},
{ "type":"Feature","properties":{"osm_way_id":"35073927","name":"Asda","building":"supermarket","shop":"supermarket","other":{"addr:city":"Fareham","addr:country":"GB","addr:housename":"Speedfields Park","addr:postcode":"PO14 1TT","addr:street":"Newgate Lane","alt_name":"Asda Fareham","brand":"Asda","brand:wikidata":"Q297410","brand:wikipedia":"en:Asda","contact:facebook":"https:\/\/www.facebook.com\/asda\/","contact:phone":"+44 1329 822 272","contact:twitter":"@asda","contact:website":"https:\/\/storelocator.asda.com\/store\/fareham","fhrs:id":"39654","opening_hours":"Mo 06:00-24:00; Tu-Fr 00:00-24:00; Sa 00:00-22:00; Su 10:00-16:00","operator":"Asda Stores Ltd","pay_point":"yes","store_ref":"04669","toilets":"at front right of the store just after the Kiosk.","website":"https:\/\/storelocator.asda.com\/south-east\/fareham\/speedfields-park-newgate-lane","wheelchair":"yes"}}, "geometry":{"type":"MultiPolygon","coordinates":[[[[-1.18484,50.83359],[-1.18474,50.83356],[-1.18476,50.8335],[-1.18451,50.83347],[-1.18454,50.83337],[-1.18375,50.83327],[-1.18378,50.83319],[-1.1835,50.83315],[-1.18347,50.83322],[-1.18342,50.83322],[-1.18337,50.83337],[-1.18327,50.83336],[-1.18309,50.8339],[-1.18324,50.83393],[-1.18319,50.83406],[-1.18443,50.83423],[-1.18443,50.83421],[-1.18463,50.83425],[-1.18474,50.83389],[-1.18476,50.83389],[-1.18477,50.83386],[-1.18475,50.83386],[-1.1848,50.83371],[-1.18484,50.83359]]]]}},
{ "type":"Feature","properties":{"osm_way_id":"38543237","name":"Sainsbury's","building":"retail","shop":"supermarket","other":{"addr:city":"Fareham","addr:country":"GB","addr:postcode":"PO16 8SU","addr:street":"Broadcut","branch":"Broadcut","brand":"Sainsbury's","brand:wikidata":"Q152096","brand:wikipedia":"en:Sainsbury's","contact:website":"https:\/\/stores.sainsburys.co.uk\/0681\/broadcut","fhrs:id":"37913","operator":"Sainsbury's Supermarkets Ltd","phone":"+441329827936","wheelchair":"yes"}}, "geometry":{"type":"MultiPolygon","coordinates":[[[[-1.17568,50.85916],[-1.17552,50.85909],[-1.1752,50.85895],[-1.17526,50.8589],[-1.1747,50.85864],[-1.17473,50.85861],[-1.17468,50.85859],[-1.1747,50.85857],[-1.17449,50.85847],[-1.17384,50.85905],[-1.17375,50.85913],[-1.1738,50.85915],[-1.17378,50.85917],[-1.17479,50.85962],[-1.17493,50.8595],[-1.17497,50.85952],[-1.17505,50.85945],[-1.1751,50.85947],[-1.17532,50.85928],[-1.17547,50.85935],[-1.17568,50.85916]]]]}},
{ "type":"Feature","properties":{"osm_way_id":"44093195","name":"Iceland","shop":"supermarket","other":{"addr:city":"Southampton","addr:country":"GB","addr:county":"Hampshire","addr:housename":"Locks Heath Centre","addr:postcode":"SO31 6DX","addr:street":"Centre Way","addr:unit":"22","brand":"Iceland","brand:wikidata":"Q721810","brand:wikipedia":"en:Iceland (supermarket)","contact:website":"https:\/\/www.iceland.co.uk\/store-finder\/store?StoreID=98&StoreName=LOCKS%20HEATH","fhrs:id":"38717","phone":"+44 1489 583207","ref:store":"0098","source:addr":"FHRS Open Data"}}, "geometry":{"type":"MultiPolygon","coordinates":[[[[-1.2754,50.86429],[-1.27554,50.86408],[-1.27542,50.86405],[-1.27505,50.86395],[-1.27492,50.86416],[-1.2754,50.86429]]]]}},
{ "type":"Feature","properties":{"osm_way_id":"47297231","name":"Coop","building":"yes","shop":"supermarket","other":{"phone":"+441329845110","fhrs:id":"37821","operator":"Co-operative Group Ltd","addr:city":"Fareham","store_ref":"9734","addr:street":"Highlands Road","source:addr":"FHRS Open Data","addr:country":"GB","addr:postcode":"PO15 6QL","addr:housenumber":"139"}}, "geometry":{"type":"MultiPolygon","coordinates":[[[[-1.20971,50.8596],[-1.20938,50.85944],[-1.20961,50.85925],[-1.20995,50.85941],[-1.20978,50.85955],[-1.20971,50.8596]]]]}},
{ "type":"Feature","properties":{"osm_way_id":"99550491","name":"Lidl","building":"commercial","shop":"supermarket","other":{"brand":"Lidl","fhrs:id":"39652","website":"https:\/\/www.lidl.co.uk\/","addr:city":"Fareham","addr:street":"Newgate Lane","source:addr":"FHRS Open Data","addr:country":"GB","addr:postcode":"PO14 1TZ","opening_hours":"Mo-Sa 08:00-22:00; Su 10:00-16:00","addr:housename":"Speedfields Park","brand:wikidata":"Q151954","brand:wikipedia":"en:Lidl"}}, "geometry":{"type":"MultiPolygon","coordinates":[[[[-1.18573,50.83405],[-1.18619,50.8341],[-1.18614,50.83424],[-1.18608,50.83423],[-1.18598,50.83453],[-1.18571,50.8345],[-1.1857,50.83454],[-1.18569,50.83455],[-1.18557,50.83453],[-1.18573,50.83405]]]]}},
{ "type":"Feature","properties":{"osm_way_id":"217325302","name":"Tesco","building":"shop","shop":"supermarket","other":{"addr:city":"Fareham","addr:country":"GB","addr:postcode":"PO16 0LE","addr:street":"Quay Street","branch":"Fareham","brand":"Tesco","brand:wikidata":"Q487494","brand:wikipedia":"en:Tesco","contact:website":"https:\/\/www.tesco.com\/store-locator\/fareham\/quay-st","fhrs:id":"39695","opening_hours":"Mo-Sa 06:00-00:00; Su 10:00-16:00","operator":"Tesco Stores Ltd","phone":"+443456719437","ref:store":"6255"}}, "geometry":{"type":"MultiPolygon","coordinates":[[[[-1.17645,50.8507],[-1.17606,50.85139],[-1.17508,50.85117],[-1.17508,50.85113],[-1.17484,50.85108],[-1.17502,50.8508],[-1.175,50.8507],[-1.17596,50.85059],[-1.17609,50.85061],[-1.17645,50.8507]]]]}},
{ "type":"Feature","properties":{"osm_way_id":"469259813","name":"The Co-operative Food","building":"yes","shop":"supermarket","other":{"addr:city":"Fareham","addr:country":"GB","addr:housenumber":"42","addr:postcode":"PO14 2LE","addr:street":"Stubbington Green","brand":"The Co-operative Food","brand:wikidata":"Q107617274","brand:wikipedia":"en:Co-op Food","contact:phone":"+44 1329 668512","contact:website":"https:\/\/finder.coop.co.uk\/food\/store\/PO14-2LE\/42-the-green","description":"This Coop superstore is a 'blue' Coop and is called 'Stubbington's Coop'. ","fhrs:id":"365255","operator":"The Co-operative Group","operator:wikidata":"Q117202","operator:wikipedia":"en:The Co-operative Group","pay_point":"yes","wheelchair":"yes"}}, "geometry":{"type":"MultiPolygon","coordinates":[[[[-1.21381,50.82529],[-1.2138,50.82546],[-1.21367,50.82546],[-1.21345,50.82545],[-1.21318,50.82544],[-1.21319,50.82538],[-1.21322,50.82538],[-1.21322,50.82527],[-1.21325,50.82527],[-1.21325,50.82525],[-1.2133,50.82525],[-1.2133,50.82523],[-1.21337,50.82523],[-1.21337,50.82521],[-1.21358,50.82522],[-1.21357,50.82528],[-1.21381,50.82529]]]]}},
{ "type":"Feature","properties":{"osm_way_id":"548024018","name":"The Co-operative Food","building":"retail","shop":"supermarket","other":{"addr:city":"Fareham","addr:country":"GB","addr:county":"Hampshire","addr:housenumber":"219","addr:postcode":"PO15 6PZ","addr:street":"Gudge Heath Lane","fhrs:id":"37820","operator":"The Southern Co-operative Limited","phone":"+44 1329 280959","store_ref":"00032"}}, "geometry":{"type":"MultiPolygon","coordinates":[[[[-1.20787,50.86069],[-1.20766,50.86058],[-1.20781,50.86048],[-1.20787,50.86043],[-1.20806,50.8605],[-1.208,50.86055],[-1.20789,50.86066],[-1.20787,50.86069]]]]}},
{ "type":"Feature","properties":{"osm_way_id":"550696969","name":"Lidl","building":"yes","shop":"supermarket","other":{"addr:city":"Fareham","addr:country":"GB","addr:housenumber":"16","addr:postcode":"PO16 9SF","addr:street":"Castle Trading Estate","brand":"Lidl","brand:wikidata":"Q151954","fhrs:id":"939978","source:addr":"FHRS Open Data"}}, "geometry":{"type":"MultiPolygon","coordinates":[[[[-1.11787,50.84695],[-1.11833,50.84626],[-1.11783,50.84626],[-1.11787,50.84695]]]]}}
]
}
