{
"type": "FeatureCollection",
"features": [
{ "type":"Feature","properties":{"osm_id":"2155158432","name":"Lidl","other":{"addr:country":"GB","addr:housenumber":"227","addr:postcode":"LE4 5PN","addr:street":"Loughborough Road","brand":"Lidl","brand:wikidata":"Q151954","brand:wikipedia":"en:Lidl","fhrs:id":"739649","shop":"supermarket"}}, "geometry":{"type":"Point","coordinates":[-1.12434,52.66114 ]}},
{ "type":"Feature","properties":{"osm_id":"2187865993","name":"LIDL","other":{"addr:city":"Leicester","addr:housenumber":"2","addr:postcode":"LE3 0AD","addr:street":"Upperton Road","alt_name":"LIDL Leicester","brand":"Lidl","brand:wikidata":"Q151954","shop":"supermarket"}}, "geometry":{"type":"Point","coordinates":[-1.14633,52.62559 ]}},
{ "type":"Feature","properties":{"osm_id":"2330907120","name":"Cash and Carry","other":{"addr:postcode":"LE2 0DS","shop":"supermarket"}}, "geometry":{"type":"Point","coordinates":[-1.1142,52.63271 ]}},
{ "type":"Feature","properties":{"osm_id":"2698358474","name":"Heron Foods","other":{"addr:city":"Leicester","addr:country":"GB","addr:housenumber":"549","addr:postcode":"LE2 6UL","addr:street":"Saffron Lane","brand":"Heron Foods","brand:wikidata":"Q5743472","brand:wikipedia":"en:Heron Foods","contact:website":"https:\/\/heronfoods.com\/storelocator\/store-details\/saffron-lane","fhrs:id":"467963","shop":"supermarket","wheelchair":"yes"}}, "geometry":{"type":"Point","coordinates":[-1.13917,52.6041 ]}},
{ "type":"Feature","properties":{"osm_id":"3551271593","name":"The Co-operative Food","other":{"operator":"Central England Co-operative Society","shop":"supermarket"}}, "geometry":{"type":"Point","coordinates":[-1.05547,52.63803 ]}},
{ "type":"Feature","properties":{"osm_id":"3918886467","name":"Choice Supermarket","other":{"addr:housenumber":"151","addr:postcode":"LE2 1EF","addr:street":"London Road","fhrs:id":"878396","shop":"supermarket","source:addr":"FHRS Open Data"}}, "geometry":{"type":"Point","coordinates":[-1.12003,52.62723 ]}},
{ "type":"Feature","properties":{"osm_id":"4486206026","other":{"access":"customers","amenity":"parking"}}, "geometry":{"type":"Point","coordinates":[-1.13695,52.65239 ]}},
{ "type":"Feature","properties":{"osm_id":"4744078837","name":"Harrow Stores","other":{"name:en":"Harrow Stores","shop":"supermarket"}}, "geometry":{"type":"Point","coordinates":[-1.15222,52.62814 ]}},
{ "type":"Feature","properties":{"osm_id":"5072360921","name":"Yours Supermarket","other":{"addr:city":"Leicester","addr:housenumber":"203","addr:postcode":"LE1 3HT","addr:street":"Belgrave Gate","fhrs:id":"733380","operator":"Goldens International","shop":"supermarket","source:addr":"FHRS Open Data"}}, "geometry":{"type":"Point","coordinates":[-1.12872,52.64128 ]}},
{ "type":"Feature","properties":{"osm_id":"6125784881","name":"Food Plus","other":{"addr:city":"Leicester","addr:housenumber":"235","addr:postcode":"LE3 0TG","addr:street":"Hinckley Road","operator":"Polskie Delicje Ltd","payment:cash":"yes","payment:coins":"yes","payment:credit_cards":"yes","payment:debit_cards":"yes","payment:electronic_purses":"yes","shop":"supermarket","website":"http:\/\/www.foodplus.eu"}}, "geometry":{"type":"Point","coordinates":[-1.15913,52.63315 ]}},
{ "type":"Feature","properties":{"osm_id":"7707330019","name":"Euro Market (U Grubego)","other":{"addr:city":"Leicester","addr:housenumber":"747","addr:postcode":"LE2 8TG","addr:street":"Aylestone Road","shop":"supermarket"}}, "geometry":{"type":"Point","coordinates":[-1.15552,52.60248 ]}},
{ "type":"Feature","properties":{"osm_way_id":"49430830","name":"Morrisons","building":"yes","shop":"supermarket","other":{"addr:city":"Leicester","addr:housename":"Freemans Park","addr:housenumber":"9","addr:postcode":"LE2 7LT","addr:street":"Counting House Road","alt_name":"Morrisons Leicetser","brand":"Morrisons","brand:wikidata":"Q922344","brand:wikipedia":"en:Morrisons","fhrs:id":"15633","opening_hours":"Mo-Sa 07:00-23:00; Su 11:00-17:00","operator":"Morrisons","source:addr":"FHRS Open Data","website":"https:\/\/my.morrisons.com\/storefinder\/234","wheelchair":"yes"}}, "geometry":{"type":"MultiPolygon","coordinates":[[[[-1.13412,52.62062],[-1.13321,52.62054],[-1.13321,52.62055],[-1.13298,52.62053],[-1.13301,52.62044],[-1.13306,52.62044],[-1.13312,52.62018],[-1.13321,52.6198],[-1.13323,52.6198],[-1.13324,52.61975],[-1.13331,52.61972],[-1.13347,52.61974],[-1.13345,52.61982],[-1.1343,52.6199],[-1.13412,52.62062]]]]}},
{ "type":"Feature","properties":{"osm_way_id":"80338821","name":"Radia's Superstore","building":"yes","shop":"supermarket","other":{"addr:housenumber":"123-127","addr:postcode":"LE4 6QS","addr:street":"Melton Road","source:addr":"FHRS Open Data"}}, "geometry":{"type":"MultiPolygon","coordinates":[[[[-1.11846,52.65498],[-1.11856,52.65485],[-1.11845,52.65482],[-1.11814,52.65473],[-1.11816,52.65471],[-1.11804,52.65467],[-1.11801,52.6547],[-1.11797,52.65469],[-1.11788,52.6548],[-1.11832,52.65493],[-1.11846,52.65498]]]]}},
{ "type":"Feature","properties":{"osm_way_id":"102533832","name":"Tesco Extra","building":"yes","shop":"supermarket","other":{"addr:postcode":"LE4 1DE","brand":"Tesco Extra","brand:wikidata":"Q25172225","brand:wikipedia":"en:Tesco Extra","opening_hours":"Mo-Sa 06:00-24:00, Su 10:00-16:00"}}, "geometry":{"type":"MultiPolygon","coordinates":[[[[-1.16585,52.6664],[-1.16583,52.66621],[-1.16576,52.66486],[-1.16575,52.66471],[-1.16572,52.66471],[-1.16562,52.66471],[-1.16504,52.66473],[-1.16504,52.66482],[-1.1648,52.66482],[-1.1648,52.66492],[-1.16469,52.66492],[-1.16473,52.66584],[-1.16465,52.66585],[-1.16465,52.66641],[-1.16585,52.6664]]]]}},
{ "type":"Feature","properties":{"osm_way_id":"102692498","name":"Maxi Grosik","building":"yes","shop":"supermarket","other":{"addr:city":"Leicester","addr:housenumber":"38","addr:postcode":"LE4 0FW","addr:street":"Blackbird Road","operator":"MEGA GROSIK LTD"}}, "geometry":{"type":"MultiPolygon","coordinates":[[[[-1.14856,52.64516],[-1.1488,52.64476],[-1.14883,52.64474],[-1.14885,52.64473],[-1.14889,52.64473],[-1.14893,52.64473],[-1.14897,52.64474],[-1.149,52.64476],[-1.14923,52.645],[-1.14897,52.64509],[-1.1491,52.6451],[-1.14914,52.64509],[-1.14918,52.64512],[-1.14915,52.64513],[-1.14907,52.64526],[-1.14887,52.64522],[-1.14889,52.64518],[-1.1488,52.64516],[-1.14877,52.64521],[-1.14856,52.64516]]]]}},
{ "type":"Feature","properties":{"osm_way_id":"103426407","name":"ALDI","building":"yes","shop":"supermarket","other":{"addr:city":"Leicester","addr:country":"GB","addr:housenumber":"55","addr:postcode":"LE3 5GH","addr:street":"Woodgate","brand":"ALDI","brand:wikidata":"Q41171672","brand:wikipedia":"en:Aldi","self_checkout":"yes"}}, "geometry":{"type":"MultiPolygon","coordinates":[[[[-1.14732,52.64399],[-1.14772,52.64402],[-1.14766,52.64437],[-1.1477,52.64437],[-1.14766,52.64458],[-1.1474,52.64456],[-1.14741,52.64451],[-1.14723,52.6445],[-1.14724,52.64446],[-1.14729,52.64417],[-1.14732,52.64399]]]]}},
{ "type":"Feature","properties":{"osm_way_id":"109387982","name":"Premier Home Farm Convenience Store","building":"yes","shop":"supermarket","other":{"addr:city":"Leicester","addr:housenumber":"1","addr:postcode":"LE4 0RX","addr:street":"Old Barn Walk","opening_hours":"Mo-Sa 08:00-20:00 Su 10:00-16:00"}}, "geometry":{"type":"MultiPolygon","coordinates":[[[[-1.15345,52.66184],[-1.15361,52.66159],[-1.15318,52.66149],[-1.15306,52.66168],[-1.15302,52.66173],[-1.15345,52.66184]]]]}},
{ "type":"Feature","properties":{"osm_way_id":"136793733","name":"Tai Fat Chinese Supermarket","building":"yes","shop":"supermarket","other":{"addr:city":"Leicester","addr:housenumber":"5","addr:postcode":"LE1 3NB","addr:street":"Melton Street","building:levels":"2","opening_hours":"Mo-We 10:15-17:00; Th Off; Fr-Sa 10:15-17:00; Su 10:30-16:30","phone":"+44 116 262 9656","ref:GB:uprn":"2465081559"}}, "geometry":{"type":"MultiPolygon","coordinates":[[[[-1.12719,52.6431],[-1.12702,52.64305],[-1.12713,52.64291],[-1.12731,52.64296],[-1.12719,52.6431]]]]}},
{ "type":"Feature","properties":{"osm_way_id":"155202161","name":"The Co-operative Food","building":"yes","shop":"supermarket","other":{"opening_hours":"Mo-Sa 07:00-21:00, Su 08:00-20:00","operator":"Central England Co-operative Society"}}, "geometry":{"type":"MultiPolygon","coordinates":[[[[-1.05755,52.6283],[-1.05762,52.62814],[-1.05778,52.62817],[-1.0578,52.62812],[-1.05796,52.62815],[-1.05787,52.62835],[-1.05755,52.6283]]]]}},
{ "type":"Feature","properties":{"osm_way_id":"170787483","name":"Tesco","building":"yes","shop":"supermarket","other":{"addr:city":"Leicester","addr:housenumber":"100","addr:postcode":"LE3 5NJ","addr:street":"New Park Street","alt_name":"Tesco Leicester Superstore","brand":"Tesco","brand:wikidata":"Q487494","brand:wikipedia":"en:Tesco","opening_hours":"Mo-Sa 06:00-23:59; Su 10:00-16:00","operator":"Tesco","ref":"5973"}}, "geometry":{"type":"MultiPolygon","coordinates":[[[[-1.14635,52.63246],[-1.14607,52.63239],[-1.14607,52.63238],[-1.1455,52.63222],[-1.14551,52.6322],[-1.14529,52.63215],[-1.14525,52.63211],[-1.14528,52.63205],[-1.14556,52.63211],[-1.14579,52.6317],[-1.14645,52.63184],[-1.14647,52.63179],[-1.14648,52.63177],[-1.14665,52.6318],[-1.14664,52.63182],[-1.14662,52.63186],[-1.14668,52.63188],[-1.14635,52.63246]]]]}},
{ "type":"Feature","properties":{"osm_way_id":"208497535","name":"The Co-operative Food","building":"yes","shop":"supermarket","other":{"operator":"Central England Co-operative Society"}}, "geometry":{"type":"MultiPolygon","coordinates":[[[[-1.17206,52.61754],[-1.17163,52.61753],[-1.17164,52.61732],[-1.17208,52.61733],[-1.17206,52.61754]]]]}},
{ "type":"Feature","properties":{"osm_way_id":"254032859","name":"The Co-operative Food","building":"yes","shop":"supermarket","other":{"addr:city":"Leicester","addr:housenumber":"202","addr:postcode":"LE2 3AF","addr:street":"Clarendon Park Road","opening_hours":"Mo-Sa 07:00-22:00, Su 08:00-22:00","operator":"Central England Co-operative","toilets:wheelchair":"no","wheelchair":"yes"}}, "geometry":{"type":"MultiPolygon","coordinates":[[[[-1.12059,52.6151],[-1.12037,52.61521],[-1.12027,52.61515],[-1.12013,52.61506],[-1.12036,52.61494],[-1.12059,52.6151]]]]}},
{ "type":"Feature","properties":{"osm_way_id":"296432496","name":"The Co-operative Food","building":"yes","shop":"supermarket","other":{"operator":"Central England Co-operative Society"}}, "geometry":{"type":"MultiPolygon","coordinates":[[[[-1.07927,52.6359],[-1.07893,52.63603],[-1.07868,52.6358],[-1.07901,52.63566],[-1.07927,52.6359]]]]}},
{ "type":"Feature","properties":{"osm_way_id":"296433382","name":"EUROPEAN SUPERSTORE","building":"yes","shop":"supermarket","other":{"opening_hours":"Mo-Su 08:00-23:00","operator":"European Superstore"}}, "geometry":{"type":"MultiPolygon","coordinates":[[[[-1.15139,52.64078],[-1.15134,52.64091],[-1.15127,52.64092],[-1.15108,52.6409],[-1.15112,52.64081],[-1.15123,52.64082],[-1.15126,52.64076],[-1.15139,52.64078]]]]}},
{ "type":"Feature","properties":{"osm_way_id":"296433806","name":"The Co-operative Food","building":"yes","shop":"supermarket","other":{"addr:city":"Leicester","addr:housenumber":"277 - 287","addr:postcode":"LE3 9PW","addr:street":"Aikman Avenue","fhrs:id":"744345","opening_hours":"Mo-Sa 07:00-21:00; Su 09:00-21:00","operator":"Central England Co-operative"}}, "geometry":{"type":"MultiPolygon","coordinates":[[[[-1.17644,52.64645],[-1.17639,52.64653],[-1.17621,52.64648],[-1.17605,52.64643],[-1.17589,52.64638],[-1.17595,52.64631],[-1.17596,52.6463],[-1.17613,52.64636],[-1.17628,52.6464],[-1.17644,52.64645]]]]}},
{ "type":"Feature","properties":{"osm_way_id":"320184558","name":"The Co-operative Food","building":"yes","shop":"supermarket","other":{"addr:city":"Glen Parva","addr:country":"GB","addr:postcode":"LE2 9PT","addr:street":"Hillsborough Road","fhrs:authority":"Blaby","fhrs:id":"1201940","fhrs:local_authority_id":"39329","operator":"The Co-operative Group","toilets:wheelchair":"no","wheelchair":"yes"}}, "geometry":{"type":"MultiPolygon","coordinates":[[[[-1.15145,52.5855],[-1.15104,52.58549],[-1.15106,52.58506],[-1.15147,52.58507],[-1.15145,52.5855]]]]}},
{ "type":"Feature","properties":{"osm_way_id":"325711182","name":"Tesco Extra","building":"yes","shop":"supermarket","other":{"branch":"Hamilton","brand":"Tesco Extra","brand:wikidata":"Q25172225","brand:wikipedia":"en:Tesco Extra"}}, "geometry":{"type":"MultiPolygon","coordinates":[[[[-1.06921,52.65331],[-1.06886,52.653],[-1.06885,52.653],[-1.06867,52.65284],[-1.07054,52.65208],[-1.07072,52.65224],[-1.07067,52.65226],[-1.07135,52.65288],[-1.07124,52.65293],[-1.07103,52.65274],[-1.07079,52.65283],[-1.0709,52.65294],[-1.07066,52.65304],[-1.07065,52.65303],[-1.0706,52.65305],[-1.07063,52.65307],[-1.07054,52.6531],[-1.07038,52.65296],[-1.07024,52.65301],[-1.07019,52.65297],[-1.06988,52.6531],[-1.06996,52.65316],[-1.06921,52.65331]]]]}},
{ "type":"Feature","properties":{"osm_way_id":"330337101","name":"The Co-operative Food","building":"yes","shop":"supermarket","other":{"addr:city":"Leicester","addr:housenumber":"249 - 259","addr:postcode":"LE3 2QR","addr:street":"Narborough Road","fhrs:id":"699643","operator":"Central England Co-operative","wheelchair":"yes"}}, "geometry":{"type":"MultiPolygon","coordinates":[[[[-1.15548,52.62234],[-1.15567,52.62242],[-1.15545,52.6226],[-1.15526,52.62252],[-1.15548,52.62234]]]]}},
{ "type":"Feature","properties":{"osm_way_id":"330337260","name":"ALDI","building":"retail","shop":"supermarket","other":{"addr:city":"Leicester","addr:housenumber":"577","addr:postcode":"LE2 8TD","addr:street":"Aylestone Road","brand":"ALDI","brand:wikidata":"Q41171672","brand:wikipedia":"en:Aldi","contact:website":"https:\/\/www.aldi.co.uk\/store\/s-uk-E0777","opening_hours":"Mo-Sa 08:00-22:00; Su 10:00-16:00","operator":"ALDI Stores Limited","payment:cash":"yes","payment:contactless":"yes","payment:credit_cards":"yes","payment:debit_cards":"yes","ref":"782-054","ref:GB:uprn":"2465185398","website":"https:\/\/www.aldi.co.uk"}}, "geometry":{"type":"MultiPolygon","coordinates":[[[[-1.15059,52.60765],[-1.15044,52.60778],[-1.1505,52.60781],[-1.15043,52.60787],[-1.1497,52.60755],[-1.14977,52.6075],[-1.14993,52.60736],[-1.15007,52.60742],[-1.15059,52.60765]]]]}},
{ "type":"Feature","properties":{"osm_way_id":"330643473","name":"The Co-operative Food","building":"yes","shop":"supermarket","other":{"operator":"Central England Co-operative Society","wheelchair":"yes"}}, "geometry":{"type":"MultiPolygon","coordinates":[[[[-1.14412,52.59069],[-1.14403,52.59098],[-1.14383,52.59096],[-1.14392,52.59067],[-1.14412,52.59069]]]]}},
{ "type":"Feature","properties":{"osm_way_id":"335071302","name":"Lidl","building":"yes","shop":"supermarket","other":{"brand":"Lidl","brand:wikidata":"Q151954","brand:wikipedia":"en:Lidl"}}, "geometry":{"type":"MultiPolygon","coordinates":[[[[-1.10507,52.65467],[-1.10555,52.65482],[-1.10512,52.65533],[-1.10494,52.65527],[-1.10499,52.65522],[-1.10474,52.65514],[-1.105,52.65484],[-1.10495,52.65482],[-1.10507,52.65467]]]]}},
{ "type":"Feature","properties":{"osm_way_id":"386809274","name":"Lidl","building":"yes","shop":"supermarket","other":{"addr:country":"GB","addr:housenumber":"217","addr:postcode":"LE3 5EZ","addr:street":"Fosse Road North","brand":"Lidl","brand:wikidata":"Q151954","building:levels":"1","fhrs:id":"840017","toilets:wheelchair":"yes","wheelchair":"yes"}}, "geometry":{"type":"MultiPolygon","coordinates":[[[[-1.15318,52.63947],[-1.15295,52.6399],[-1.15263,52.63951],[-1.15272,52.63952],[-1.15278,52.63938],[-1.15318,52.63947]]]]}},
{ "type":"Feature","properties":{"osm_way_id":"410851229","name":"Pak Foods","building":"yes","shop":"supermarket"},"geometry":{"type":"MultiPolygon","coordinates":[[[[-1.10178,52.62729],[-1.10126,52.62717],[-1.10132,52.62707],[-1.10119,52.62704],[-1.10144,52.62661],[-1.10158,52.62664],[-1.10151,52.62676],[-1.10178,52.62682],[-1.10171,52.62693],[-1.10196,52.62698],[-1.10178,52.62729]]]]}},
{ "type":"Feature","properties":{"osm_way_id":"415340069","name":"Sainsbury's","building":"yes","shop":"supermarket","other":{"addr:city":"Leicester","addr:housenumber":"58-62","addr:postcode":"LE1 3PJ","addr:street":"Humberstone Gate","brand":"Sainsbury's","brand:wikidata":"Q152096","brand:wikipedia":"en:Sainsbury's","opening_hours":"Mo-Sa 07:00-20:00; Su 11:00-17:00","phone":"+44 116 262 6365","wheelchair":"yes"}}, "geometry":{"type":"MultiPolygon","coordinates":[[[[-1.12922,52.63751],[-1.12892,52.63748],[-1.12881,52.63707],[-1.12886,52.63707],[-1.12883,52.63699],[-1.12873,52.63674],[-1.12894,52.63669],[-1.12901,52.63693],[-1.12908,52.63709],[-1.12913,52.63732],[-1.12932,52.6373],[-1.12934,52.6374],[-1.12919,52.63741],[-1.12922,52.63751]]]]}},
{ "type":"Feature","properties":{"osm_way_id":"443174860","name":"Sainsbury's","building":"retail","shop":"supermarket","other":{"addr:city":"Leicester","addr:housenumber":"501","addr:postcode":"LE4 7SJ","addr:street":"Melton Road","brand":"Sainsbury's","brand:wikidata":"Q152096","brand:wikipedia":"en:Sainsbury's","fhrs:id":"688709","source:addr":"FHRS Open Data"}}, "geometry":{"type":"MultiPolygon","coordinates":[[[[-1.10496,52.66713],[-1.10389,52.66689],[-1.10314,52.6681],[-1.10421,52.66834],[-1.10496,52.66713]]]]}},
{ "type":"Feature","properties":{"osm_way_id":"451805442","name":"Asda","building":"retail","shop":"supermarket","other":{"addr:city":"Leicester","addr:country":"GB","addr:housenumber":"1","addr:postcode":"LE4 5NU","addr:street":"Exploration Drive","brand":"Asda","brand:wikidata":"Q297410","brand:wikipedia":"en:Asda","contact:facebook":"https:\/\/www.facebook.com\/asda\/","contact:phone":"+44 116 243 7726","contact:twitter":"@asda","contact:website":"https:\/\/storelocator.asda.com\/east-midlands\/leicester\/1-exploration-drive","fhrs:id":"744364","opening_hours":"Mo-Sa 07:00-23:00; Su 10:00-16:00","opening_hours:covid19":"Mo-Th,Sa 08:00-22:00; Fr 08:00-20:00; Su 10:00-16:00","operator":"Asda Stores Ltd"}}, "geometry":{"type":"MultiPolygon","coordinates":[[[[-1.13733,52.65257],[-1.1373,52.65265],[-1.13688,52.65259],[-1.13695,52.65239],[-1.13707,52.6524],[-1.13723,52.65189],[-1.13746,52.65192],[-1.13755,52.65164],[-1.13783,52.65168],[-1.13778,52.65183],[-1.1377,52.65183],[-1.13766,52.65195],[-1.13845,52.65205],[-1.13824,52.65268],[-1.13733,52.65257]]]]}},
{ "type":"Feature","properties":{"osm_way_id":"458940225","name":"A1 Cash & Carry","building":"yes","shop":"supermarket"},"geometry":{"type":"MultiPolygon","coordinates":[[[[-1.10286,52.63928],[-1.10262,52.63928],[-1.10262,52.63922],[-1.10241,52.63914],[-1.10247,52.63909],[-1.10253,52.63911],[-1.10258,52.63906],[-1.10273,52.63891],[-1.10286,52.63896],[-1.10286,52.63928]]]]}},
{ "type":"Feature","properties":{"osm_way_id":"474076038","name":"Heron Foods","shop":"supermarket","other":{"addr:city":"Leicester","addr:country":"GB","addr:housenumber":"13","addr:postcode":"LE1 3HP","addr:street":"Belgrave Gate","brand":"Heron Foods","brand:wikidata":"Q5743472","brand:wikipedia":"en:Heron Foods","contact:website":"https:\/\/heronfoods.com\/storelocator\/store-details\/belgrave","fhrs:id":"211014","indoor":"room","level":"0","room":"shop"}}, "geometry":{"type":"MultiPolygon","coordinates":[[[[-1.13216,52.63721],[-1.13215,52.63716],[-1.13214,52.63711],[-1.13231,52.63709],[-1.13253,52.63707],[-1.13248,52.63717],[-1.13216,52.63721]]]]}},
{ "type":"Feature","properties":{"osm_way_id":"476966334","name":"Paraban Supermarket","building":"yes","shop":"supermarket","other":{"addr:city":"Leicester","addr:housenumber":"75","addr:postcode":"LE4 7RP","addr:street":"Nicklaus Road"}}, "geometry":{"type":"MultiPolygon","coordinates":[[[[-1.09881,52.66838],[-1.09878,52.66844],[-1.09844,52.66838],[-1.09847,52.66832],[-1.09867,52.66835],[-1.09881,52.66838]]]]}},
{ "type":"Feature","properties":{"osm_way_id":"488961369","name":"Pak Foods","building":"yes","shop":"supermarket","other":{"addr:city":"Leicester","addr:housenumber":"269-271","addr:postcode":"LE5 4DG","addr:street":"Uppingham Road"}}, "geometry":{"type":"MultiPolygon","coordinates":[[[[-1.08843,52.64199],[-1.08842,52.64185],[-1.08841,52.64177],[-1.08841,52.64176],[-1.08818,52.64177],[-1.0882,52.64198],[-1.08843,52.64199]]]]}},
{ "type":"Feature","properties":{"osm_way_id":"488961401","name":"The Co-operative Food","building":"no","shop":"supermarket","other":{"addr:city":"Leicester","addr:housenumber":"243-247","addr:postcode":"LE5 4DG","addr:street":"Uppingham Road","level":"1","operator":"Central England Co-operative Society"}}, "geometry":{"type":"MultiPolygon","coordinates":[[[[-1.08932,52.64202],[-1.08933,52.64189],[-1.08942,52.64189],[-1.08965,52.6419],[-1.08967,52.64203],[-1.08932,52.64202]]]]}},
{ "type":"Feature","properties":{"osm_way_id":"523955274","name":"The Food Warehouse","building":"retail","shop":"supermarket","other":{"addr:city":"Leicester","addr:postcode":"LE1 1SG","addr:unit":"4","brand":"The Food Warehouse","brand:wikidata":"Q87263899","operator":"Iceland Foods"}}, "geometry":{"type":"MultiPolygon","coordinates":[[[[-1.12027,52.63629],[-1.11969,52.63606],[-1.11953,52.63622],[-1.1201,52.63645],[-1.12012,52.63643],[-1.12015,52.63643],[-1.12024,52.63635],[-1.12022,52.63634],[-1.12027,52.63629]]]]}},
{ "type":"Feature","properties":{"osm_way_id":"523955275","name":"ALDI","building":"retail","shop":"supermarket","other":{"addr:city":"Leicester","addr:postcode":"LE1 1SG","addr:unit":"5","brand":"ALDI","brand:wikidata":"Q41171672","brand:wikipedia":"en:Aldi","opening_hours":"Mo-Sa 08:00-22:00; Su 11:00-17:00"}}, "geometry":{"type":"MultiPolygon","coordinates":[[[[-1.12027,52.63629],[-1.12029,52.6363],[-1.12039,52.63621],[-1.12037,52.6362],[-1.12051,52.63607],[-1.12048,52.63606],[-1.12013,52.63592],[-1.12014,52.6359],[-1.11996,52.63582],[-1.11969,52.63606],[-1.12027,52.63629]]]]}},
{ "type":"Feature","properties":{"osm_way_id":"524522676","name":"Aldi","building":"yes","shop":"supermarket","other":{"addr:city":"Leicester","addr:housenumber":"2","addr:postcode":"LE4 0BR","addr:street":"Humphrey's Way","brand":"ALDI","brand:wikidata":"Q41171672","brand:wikipedia":"en:Aldi","opening_hours":"Mo-Sa 08:00-22:00"}}, "geometry":{"type":"MultiPolygon","coordinates":[[[[-1.13901,52.65174],[-1.13993,52.65188],[-1.13989,52.65198],[-1.13981,52.65197],[-1.13975,52.65211],[-1.13973,52.65216],[-1.13923,52.65208],[-1.13892,52.65203],[-1.13901,52.65183],[-1.13897,52.65183],[-1.13901,52.65174]]]]}},
{ "type":"Feature","properties":{"osm_way_id":"525106830","name":"Leicester Wholefood Co-op","building":"industrial","shop":"supermarket","other":{"addr:city":"Leicester","addr:housenumber":"2","addr:postcode":"LE1 2LX","addr:street":"Freehold Street","addr:unit":"3","opening_hours":"Mo-Th 09:30-18:00, Fr 09:30-19:00, Sa 09:30-17:30; Su Off","operator":"Leicester Wholefood Co-operative","phone":"+44 116 251 2525","website":"https:\/\/www.wholefoodcoop.co.uk"}}, "geometry":{"type":"MultiPolygon","coordinates":[[[[-1.11741,52.64119],[-1.11718,52.64115],[-1.11731,52.6409],[-1.11753,52.64094],[-1.11741,52.64119]]]]}},
{ "type":"Feature","properties":{"osm_way_id":"525177424","name":"Abu Qassim Wholesale & Retail","building":"no","shop":"supermarket","other":{"addr:city":"Leicester","addr:housename":"Kocha House","addr:postcode":"LE1 2PD","addr:street":"Malabar Road","addr:unit":"3","indoor":"shop","level":"0"}}, "geometry":{"type":"MultiPolygon","coordinates":[[[[-1.12159,52.63936],[-1.12159,52.63928],[-1.12148,52.63927],[-1.12147,52.63936],[-1.12159,52.63936]]]]}},
{ "type":"Feature","properties":{"osm_way_id":"578247801","name":"Aldi","building":"yes","shop":"supermarket","other":{"addr:city":"Leicester","addr:housenumber":"3","addr:postcode":"LE4 9LP","addr:street":"Fletton Close","brand":"ALDI","brand:wikidata":"Q41171672","brand:wikipedia":"en:Aldi","opening_hours":"Mo-Sa 08:00-22:00; Su 10:00-16:00","payment:cash":"yes","payment:electronic_purses":"yes","payment:mastercard":"yes","payment:visa":"yes","start_date":"2018-04-12"}}, "geometry":{"type":"MultiPolygon","coordinates":[[[[-1.08222,52.6577],[-1.08211,52.65764],[-1.08155,52.65732],[-1.08148,52.65728],[-1.08112,52.65752],[-1.08188,52.65793],[-1.08222,52.6577]]]]}},
{ "type":"Feature","properties":{"osm_way_id":"656362494","name":"Europa Supermarket","building":"yes","shop":"supermarket","other":{"addr:city":"Leicester","addr:housenumber":"9-13","addr:postcode":"LE3 0LP","addr:street":"Fosse Road South","opening_hours":"Mo-Su 08:00-22:00"}}, "geometry":{"type":"MultiPolygon","coordinates":[[[[-1.15347,52.63169],[-1.1532,52.63162],[-1.15329,52.63148],[-1.15357,52.63155],[-1.15347,52.63169]]]]}},
{ "type":"Feature","properties":{"osm_way_id":"666423814","name":"Maja","building":"no","shop":"supermarket","other":{"addr:city":"Leicester","addr:housenumber":"64-66","addr:postcode":"LE3 5GF","addr:street":"Woodgate","email":"info@sklepmaja.co.uk","opening_hours":"Mo-Sa 09:00-22:00; Su 09:00-21:00"}}, "geometry":{"type":"MultiPolygon","coordinates":[[[[-1.1479,52.64383],[-1.14782,52.64383],[-1.14776,52.64382],[-1.1478,52.64361],[-1.14786,52.64362],[-1.14794,52.64362],[-1.1479,52.64383]]]]}},
{ "type":"Feature","properties":{"osm_way_id":"667933811","name":"Lidl","building":"retail","shop":"supermarket","other":{"addr:city":"Leicester","addr:country":"GB","addr:housenumber":"12","addr:postcode":"LE1 1TE","addr:street":"Burton Street","brand":"Lidl","brand:wikidata":"Q151954","brand:wikipedia":"en:Lidl","fhrs:id":"862226","opening_hours":"Mo-Sa 08:00-22:00; Su 10:00-16:00"}}, "geometry":{"type":"MultiPolygon","coordinates":[[[[-1.12407,52.63692],[-1.12363,52.63692],[-1.12362,52.63647],[-1.12405,52.63647],[-1.12407,52.63692]]]]}},
{ "type":"Feature","properties":{"osm_way_id":"669602396","name":"Delikatesy Smaczek","building":"retail","shop":"supermarket","other":{"addr:city":"Leicester","addr:housenumber":"30","addr:postcode":"LE1 3GP","addr:street":"Belgrave Gate","fhrs:id":"870160","opening_hours":"Su 10:00-16:00; Mo-Fr 09:00-19:00; Sa 08:00-19:00","phone":"+44 116 253 2120","source:addr":"FHRS Open Data","website":"http:\/\/delikatesysmaczek.co.uk\/","wheelchair":"yes"}}, "geometry":{"type":"MultiPolygon","coordinates":[[[[-1.1325,52.63772],[-1.13237,52.63769],[-1.13235,52.63772],[-1.1323,52.63779],[-1.13242,52.63782],[-1.13256,52.63789],[-1.13264,52.63793],[-1.13259,52.63797],[-1.13268,52.63802],[-1.13288,52.63788],[-1.13267,52.63777],[-1.13252,52.63769],[-1.1325,52.63772]]]]}},
{ "type":"Feature","properties":{"osm_way_id":"925592805","name":"Aldi","building":"retail","shop":"supermarket","other":{"addr:city":"Leicester","addr:housenumber":"40-46","addr:postcode":"LE4 1DE","addr:street":"Bradgate Mall","addr:unit":"10-11","brand":"ALDI","brand:wikidata":"Q41171672","brand:wikipedia":"en:Aldi","opening_hours":"Mo-Sa 08:00-22:00; Su 10:00-16:00","ref":"s-uk-E1419","ref:GB:uprn":"2465211715","start_date":"2020-11-19","website":"https:\/\/www.aldi.co.uk\/store\/s-uk-E1419"}}, "geometry":{"type":"MultiPolygon","coordinates":[[[[-1.16738,52.66525],[-1.16706,52.66526],[-1.16707,52.6653],[-1.16674,52.66531],[-1.16671,52.66492],[-1.16704,52.66491],[-1.16736,52.66491],[-1.16738,52.66519],[-1.16738,52.66525]]]]}}
]
}
