{
"type": "FeatureCollection",
"features": [
{ "type":"Feature","properties":{"osm_id":"7578919","name":"Shoe Zone","type":"multipolygon","building":"warehouse","other":{"addr:city":"Leicester","addr:postcode":"LE1 2JT","addr:street":"Syston Street East","brand:wikipedia":"en:Shoe Zone","website":"http:\/\/www.shoezone.com\/"}}, "geometry":{"type":"MultiPolygon","coordinates":[[[[-1.11659,52.64054],[-1.11615,52.64046],[-1.11595,52.64086],[-1.11574,52.64126],[-1.11533,52.64208],[-1.11577,52.64216],[-1.11653,52.64068],[-1.11658,52.64068],[-1.1166,52.64064],[-1.11655,52.64064],[-1.11659,52.64054]]],[[[-1.11555,52.64079],[-1.11595,52.64086],[-1.11574,52.64126],[-1.11514,52.64116],[-1.11555,52.64079]]],[[[-1.11503,52.64053],[-1.11559,52.64075],[-1.11555,52.64079],[-1.11514,52.64116],[-1.11409,52.64213],[-1.11389,52.64205],[-1.11344,52.64246],[-1.11323,52.64237],[-1.1132,52.6424],[-1.11304,52.64234],[-1.11503,52.64053]]]]}},
{ "type":"Feature","properties":{"osm_way_id":"89854520","name":"JBS Group (Leicester) SBA Ltd","building":"warehouse","other":{"addr:city":"Leicester","addr:housenumber":"90","addr:postcode":"LE2 7SQ","addr:street":"Freemen's Common Road"}}, "geometry":{"type":"MultiPolygon","coordinates":[[[[-1.13315,52.61879],[-1.13315,52.61888],[-1.13326,52.61888],[-1.13327,52.61915],[-1.13328,52.6192],[-1.13219,52.61921],[-1.13218,52.6189],[-1.13271,52.61889],[-1.13271,52.6188],[-1.13315,52.61879]]]]}},
{ "type":"Feature","properties":{"osm_way_id":"111990530","building":"warehouse","other":{"addr:city":"Leicester","addr:housenumber":"68","addr:postcode":"LE4 1AW","addr:street":"Boston Road"}}, "geometry":{"type":"MultiPolygon","coordinates":[[[[-1.17482,52.66633],[-1.17434,52.66657],[-1.17438,52.6666],[-1.17417,52.66671],[-1.17412,52.66667],[-1.17418,52.66664],[-1.17384,52.66638],[-1.17433,52.66614],[-1.17441,52.6662],[-1.17455,52.66613],[-1.17482,52.66633]]]]}},
{ "type":"Feature","properties":{"osm_way_id":"123653105","name":"PJC Plant Services","building":"warehouse","other":{"addr:city":"Leicester","addr:housenumber":"33","addr:postcode":"LE4 0BX","addr:street":"Ravensbridge Drive"}}, "geometry":{"type":"MultiPolygon","coordinates":[[[[-1.14376,52.6472],[-1.14374,52.64725],[-1.14394,52.64727],[-1.14396,52.64723],[-1.14413,52.64725],[-1.14417,52.64713],[-1.14414,52.64712],[-1.14415,52.6471],[-1.144,52.64708],[-1.14407,52.64689],[-1.14373,52.64685],[-1.14362,52.64719],[-1.14376,52.6472]]]]}},
{ "type":"Feature","properties":{"osm_way_id":"178266357","name":"Business Post","building":"warehouse","other":{"addr:city":"Leicester","addr:postcode":"LE4 1JY","addr:street":"Knights Road"}}, "geometry":{"type":"MultiPolygon","coordinates":[[[[-1.15219,52.67481],[-1.15231,52.6745],[-1.15099,52.67432],[-1.1509,52.67457],[-1.15086,52.67468],[-1.152,52.67483],[-1.15202,52.67478],[-1.15219,52.67481]]]]}},
{ "type":"Feature","properties":{"osm_way_id":"199013861","building":"warehouse","other":{"addr:city":"Leicester","addr:housenumber":"7-11","addr:postcode":"LE1 4DH","addr:street":"Harding Street"}}, "geometry":{"type":"MultiPolygon","coordinates":[[[[-1.14106,52.64147],[-1.14205,52.64121],[-1.14197,52.6411],[-1.14154,52.64122],[-1.14104,52.64135],[-1.14099,52.64136],[-1.14106,52.64147]]]]}},
{ "type":"Feature","properties":{"osm_way_id":"199171154","name":"Parcel Force","building":"warehouse"},"geometry":{"type":"MultiPolygon","coordinates":[[[[-1.21017,52.63276],[-1.21021,52.63347],[-1.21022,52.6335],[-1.20973,52.63351],[-1.20968,52.63278],[-1.21017,52.63276]]]]}},
{ "type":"Feature","properties":{"osm_way_id":"452878903","name":"Pertemba","building":"warehouse","other":{"addr:city":"Leicester","addr:housenumber":"50","addr:postcode":"LE3 1HR","addr:street":"Oswin Road","operator":"Universal Textiles UK Ltd","phone":"+44 116 296 4557","ref:GB:uprn":"2465010646"}}, "geometry":{"type":"MultiPolygon","coordinates":[[[[-1.18527,52.63178],[-1.18514,52.63151],[-1.18447,52.63163],[-1.18459,52.6319],[-1.18527,52.63178]]]]}},
{ "type":"Feature","properties":{"osm_way_id":"458587628","name":"Sarstedt","building":"warehouse","other":{"addr:city":"Leicester","addr:housenumber":"22","addr:postcode":"LE3 1TH","addr:street":"Foxholes Road","ref:NPLG:UPRN:1":"2465172806"}}, "geometry":{"type":"MultiPolygon","coordinates":[[[[-1.19344,52.63016],[-1.19333,52.62992],[-1.19329,52.62985],[-1.19384,52.62975],[-1.19399,52.63007],[-1.19344,52.63016]]]]}},
{ "type":"Feature","properties":{"osm_way_id":"462437678","building":"warehouse"},"geometry":{"type":"MultiPolygon","coordinates":[[[[-1.14827,52.6288],[-1.14839,52.62864],[-1.14858,52.62869],[-1.14865,52.62871],[-1.14869,52.62872],[-1.14876,52.62874],[-1.14872,52.62879],[-1.14864,52.6289],[-1.14827,52.6288]]]]}}
]
}
