{
"type": "FeatureCollection",
"features": [
{ "type":"Feature","properties":{"osm_way_id":"67240234","name":"PD Logistics Ltd","building":"warehouse","other":{"addr:city":"Felixstowe","addr:country":"GB","addr:housename":"PD House","addr:postcode":"IP11 4HF","addr:street":"Parker Avenue"}}, "geometry":{"type":"MultiPolygon","coordinates":[[[[1.31683,51.96392],[1.31748,51.96353],[1.31751,51.96351],[1.31739,51.96344],[1.31525,51.96209],[1.31519,51.96205],[1.31516,51.96207],[1.31451,51.96245],[1.31444,51.9625],[1.31451,51.96254],[1.31649,51.96379],[1.31676,51.96397],[1.31683,51.96392]]]]}},
{ "type":"Feature","properties":{"osm_way_id":"68282125","name":"Aldi Depot","building":"warehouse","other":{"addr:city":"Chelmsford","addr:postcode":"CM2 5AS","addr:street":"Sheepcotes"}}, "geometry":{"type":"MultiPolygon","coordinates":[[[[0.51413,51.74858],[0.51423,51.74859],[0.51396,51.74945],[0.51551,51.74964],[0.51555,51.74951],[0.51662,51.74964],[0.51719,51.7478],[0.51727,51.7478],[0.51733,51.7476],[0.51716,51.74758],[0.51713,51.74766],[0.51498,51.74741],[0.51502,51.74726],[0.5148,51.74723],[0.51496,51.74669],[0.51475,51.74666],[0.51456,51.7473],[0.51451,51.74729],[0.51413,51.74858]]]]}},
{ "type":"Feature","properties":{"osm_way_id":"93166490","name":"DCG Logistics UK Ltd","building":"warehouse","other":{"addr:city":"Chelmsford","addr:country":"GB","addr:interpolation":"even","addr:postcode":"CM2 6TB","addr:street":"Atholl Road","addr:unit":"2-4","email":"sales@dcg-uk.co.uk","opening_hours":"Mo-Fr 08:30-17:30; Sa-Su off","phone":"+44 1268 766510","website":"http:\/\/dcg-uk.co.uk\/"}}, "geometry":{"type":"MultiPolygon","coordinates":[[[[0.50387,51.74497],[0.50389,51.74518],[0.5046,51.74516],[0.50485,51.74515],[0.50479,51.74438],[0.50394,51.74441],[0.50383,51.74441],[0.50385,51.74462],[0.50373,51.74462],[0.50375,51.74497],[0.50387,51.74497]]]]}},
{ "type":"Feature","properties":{"osm_way_id":"93166492","name":"CP Dynes Drainage Contractor","building":"warehouse","other":{"addr:city":"Chelmsford","addr:country":"GB","addr:postcode":"CM2 6TE","addr:street":"Montrose Road","email":"info@cpdynes.com","phone":"+44 1245 451577","website":"http:\/\/www.cpdynes.com\/"}}, "geometry":{"type":"MultiPolygon","coordinates":[[[[0.50524,51.74218],[0.50541,51.74213],[0.50524,51.74189],[0.50507,51.74194],[0.50524,51.74218]]]]}},
{ "type":"Feature","properties":{"osm_way_id":"93166511","building":"warehouse","other":{"addr:interpolation":"odd"}}, "geometry":{"type":"MultiPolygon","coordinates":[[[[0.50301,51.74533],[0.50298,51.74515],[0.50296,51.74497],[0.50293,51.74479],[0.5029,51.74462],[0.50287,51.74444],[0.50199,51.74448],[0.50202,51.74467],[0.50205,51.74485],[0.50249,51.74482],[0.50251,51.745],[0.50254,51.74518],[0.50257,51.74536],[0.50301,51.74533]]]]}},
{ "type":"Feature","properties":{"osm_way_id":"93166515","name":"Leathams","building":"warehouse","other":{"addr:city":"Chelmsford","addr:country":"GB","addr:postcode":"CM2 6ZJ","addr:street":"Beaufort Road","addr:unit":"1-7","phone":"+44 20 7635 4000","website":"https:\/\/leathams.com\/"}}, "geometry":{"type":"MultiPolygon","coordinates":[[[[0.50493,51.74335],[0.50497,51.74357],[0.5052,51.74355],[0.50528,51.74394],[0.50502,51.74396],[0.50505,51.74412],[0.50585,51.74407],[0.5057,51.7433],[0.50493,51.74335]]]]}},
{ "type":"Feature","properties":{"osm_way_id":"93166518","name":"Woodland Group","building":"warehouse","other":{"addr:city":"Chelmsford","addr:housename":"Woodland House","addr:postcode":"CM2 6TE","addr:street":"Montrose Road","email":"web-emea@woodlandgroup.com","phone":"+44 1245 619900","website":"https:\/\/www.woodlandgroup.com\/"}}, "geometry":{"type":"MultiPolygon","coordinates":[[[[0.50225,51.74395],[0.50217,51.74276],[0.50258,51.74275],[0.5026,51.74307],[0.50291,51.74306],[0.50308,51.74306],[0.50307,51.74297],[0.50398,51.74295],[0.50406,51.74294],[0.50407,51.74303],[0.50417,51.74303],[0.5042,51.74352],[0.5041,51.74352],[0.5041,51.74363],[0.50412,51.7439],[0.50225,51.74395]]]]}},
{ "type":"Feature","properties":{"osm_way_id":"93166522","name":"Perspex Distribution","building":"warehouse","other":{"addr:city":"Chelmsford","addr:country":"GB","addr:housename":"Springfield Business Park","addr:housenumber":"2-3","addr:postcode":"CM2 5AR","addr:street":"Lonebarn Link","email":"sales.chelmsford@perspex.co.uk","phone":"+44 1245 232800","website":"https:\/\/www.perspex.co.uk\/"}}, "geometry":{"type":"MultiPolygon","coordinates":[[[[0.51405,51.7456],[0.51445,51.7456],[0.51443,51.74502],[0.51402,51.74503],[0.51405,51.7456]]]]}},
{ "type":"Feature","properties":{"osm_way_id":"93166541","name":"CP Dynes Drainage Contractor","building":"warehouse","other":{"addr:city":"Chelmsford","addr:country":"GB","addr:postcode":"CM2 6TE","addr:street":"Montrose Road","email":"info@cpdynes.com","phone":"+44 1245 451577","website":"http:\/\/www.cpdynes.com\/"}}, "geometry":{"type":"MultiPolygon","coordinates":[[[[0.50576,51.74174],[0.50548,51.74156],[0.5054,51.7416],[0.50546,51.74164],[0.50545,51.74164],[0.50547,51.74167],[0.50547,51.74168],[0.50566,51.7418],[0.50576,51.74174]]]]}},
{ "type":"Feature","properties":{"osm_way_id":"93174915","name":"Kay-Metzeler","building":"warehouse","other":{"addr:city":"Chelmsford","addr:postcode":"CM1 1UQ","addr:street":"Brook Street","fax":"+44 1245 342122","phone":"+44 1245 342101;+44 1245 342104","website":"http:\/\/www.kay-metzeler.com\/"}}, "geometry":{"type":"MultiPolygon","coordinates":[[[[0.47615,51.73927],[0.47639,51.73887],[0.47647,51.73889],[0.47651,51.73882],[0.47643,51.73881],[0.47646,51.73876],[0.47534,51.7385],[0.47533,51.73852],[0.47477,51.73839],[0.47456,51.73873],[0.47493,51.73882],[0.4748,51.73902],[0.47533,51.73914],[0.47536,51.73909],[0.47615,51.73927]]]]}},
{ "type":"Feature","properties":{"osm_way_id":"157622511","name":"DFS","building":"warehouse","other":{"addr:city":"Chelmsford","addr:housenumber":"16","addr:postcode":"CM1 3UB","addr:street":"Tattersall Way","brand":"DFS","brand:wikidata":"Q5204927","brand:wikipedia":"en:DFS Furniture","building:colour":"#B9BAB6","building:material":"metal","website":"https:\/\/www.dfs.co.uk\/"}}, "geometry":{"type":"MultiPolygon","coordinates":[[[[0.45146,51.72023],[0.45145,51.72023],[0.45145,51.72022],[0.45119,51.71962],[0.45119,51.71962],[0.4512,51.71961],[0.4512,51.71961],[0.4512,51.71961],[0.45185,51.7195],[0.45186,51.7195],[0.45187,51.7195],[0.45187,51.71951],[0.45187,51.71951],[0.45213,51.72011],[0.45213,51.72011],[0.45213,51.72012],[0.45212,51.72012],[0.45212,51.72012],[0.45147,51.72023],[0.45146,51.72023],[0.45146,51.72023]]]]}},
{ "type":"Feature","properties":{"osm_way_id":"159255205","building":"warehouse","other":{"addr:city":"Chelmsford","addr:postcode":"CM1 1GU","addr:street":"Hoffmanns Way"}}, "geometry":{"type":"MultiPolygon","coordinates":[[[[0.47804,51.74021],[0.47815,51.74004],[0.47831,51.74008],[0.47848,51.74012],[0.47878,51.74019],[0.47868,51.74036],[0.47862,51.74035],[0.47837,51.74029],[0.47821,51.74025],[0.47804,51.74021]]]]}},
{ "type":"Feature","properties":{"osm_way_id":"176624172","building":"warehouse","other":{"addr:city":"Chelmsford","addr:street":"Tattersall Way"}}, "geometry":{"type":"MultiPolygon","coordinates":[[[[0.44969,51.71979],[0.44973,51.7199],[0.44982,51.71988],[0.44985,51.71994],[0.44994,51.72018],[0.45026,51.72014],[0.45011,51.71973],[0.44969,51.71979]]]]}},
{ "type":"Feature","properties":{"osm_way_id":"176624200","building":"warehouse"},"geometry":{"type":"MultiPolygon","coordinates":[[[[0.44918,51.7195],[0.44904,51.71924],[0.44885,51.71928],[0.44899,51.71954],[0.44918,51.7195]]]]}},
{ "type":"Feature","properties":{"osm_way_id":"176624215","building":"warehouse"},"geometry":{"type":"MultiPolygon","coordinates":[[[[0.44898,51.71955],[0.44884,51.71929],[0.44819,51.71942],[0.4482,51.71944],[0.4483,51.71963],[0.44833,51.71968],[0.44898,51.71955]]]]}},
{ "type":"Feature","properties":{"osm_way_id":"176624317","building":"warehouse"},"geometry":{"type":"MultiPolygon","coordinates":[[[[0.44691,51.72029],[0.4471,51.72025],[0.44683,51.71973],[0.44664,51.71976],[0.44691,51.72029]]]]}},
{ "type":"Feature","properties":{"osm_way_id":"176624322","building":"warehouse"},"geometry":{"type":"MultiPolygon","coordinates":[[[[0.448,51.71969],[0.4483,51.71963],[0.4482,51.71944],[0.4479,51.7195],[0.448,51.71969]]]]}},
{ "type":"Feature","properties":{"osm_way_id":"206622435","building":"warehouse"},"geometry":{"type":"MultiPolygon","coordinates":[[[[0.42238,51.72457],[0.42231,51.72448],[0.42227,51.72439],[0.42284,51.72425],[0.4229,51.72434],[0.42296,51.72441],[0.42282,51.72445],[0.42238,51.72457]]]]}},
{ "type":"Feature","properties":{"osm_way_id":"348614725","name":"Stores","building":"warehouse"},"geometry":{"type":"MultiPolygon","coordinates":[[[[0.50745,51.7488],[0.50728,51.74893],[0.50743,51.74901],[0.5076,51.74887],[0.50745,51.7488]]]]}},
{ "type":"Feature","properties":{"osm_way_id":"349536707","name":"Smurfit Kappa","building":"warehouse","other":{"addr:city":"Chelmsford","addr:postcode":"CM1 3BB","addr:street":"Robjohns Road"}}, "geometry":{"type":"MultiPolygon","coordinates":[[[[0.45081,51.72453],[0.45022,51.72463],[0.45046,51.72514],[0.45105,51.72504],[0.45081,51.72453]]]]}},
{ "type":"Feature","properties":{"osm_way_id":"547323328","name":"Dunmow Group","building":"warehouse","other":{"addr:city":"Chelmsford","addr:housenumber":"7","addr:postcode":"CM3 3FY","addr:street":"Eagle Way","phone":"+44 1245 466646","website":"https:\/\/www.dunmowgroup.com\/"}}, "geometry":{"type":"MultiPolygon","coordinates":[[[[0.48895,51.77356],[0.48885,51.77394],[0.4898,51.77404],[0.4899,51.77365],[0.48895,51.77356]]]]}},
{ "type":"Feature","properties":{"osm_way_id":"687046681","building":"warehouse"},"geometry":{"type":"MultiPolygon","coordinates":[[[[0.47826,51.6991],[0.47848,51.69917],[0.47821,51.69954],[0.47796,51.69947],[0.47826,51.6991]]]]}},
{ "type":"Feature","properties":{"osm_way_id":"687046682","building":"warehouse"},"geometry":{"type":"MultiPolygon","coordinates":[[[[0.47853,51.69968],[0.47901,51.69981],[0.47931,51.69944],[0.4788,51.6993],[0.47853,51.69968]]]]}},
{ "type":"Feature","properties":{"osm_way_id":"687046683","name":"Regatta Garden Furniture","building":"warehouse"},"geometry":{"type":"MultiPolygon","coordinates":[[[[0.47899,51.69932],[0.47933,51.69941],[0.47975,51.69888],[0.47941,51.69878],[0.47899,51.69932]]]]}},
{ "type":"Feature","properties":{"osm_way_id":"687046684","building":"warehouse"},"geometry":{"type":"MultiPolygon","coordinates":[[[[0.47943,51.69876],[0.47977,51.69886],[0.47997,51.69859],[0.47983,51.69855],[0.47977,51.69862],[0.47959,51.69857],[0.47943,51.69876]]]]}},
{ "type":"Feature","properties":{"osm_way_id":"687046685","name":"Gray & Sons","building":"warehouse"},"geometry":{"type":"MultiPolygon","coordinates":[[[[0.47843,51.69893],[0.47882,51.69904],[0.47913,51.69866],[0.47887,51.69858],[0.47843,51.69893]]]]}},
{ "type":"Feature","properties":{"osm_way_id":"896764809","building":"warehouse"},"geometry":{"type":"MultiPolygon","coordinates":[[[[0.56628,51.71624],[0.56641,51.71635],[0.56677,51.7162],[0.56664,51.71609],[0.56628,51.71624]]]]}},
{ "type":"Feature","properties":{"osm_way_id":"896764810","building":"warehouse"},"geometry":{"type":"MultiPolygon","coordinates":[[[[0.5664,51.71644],[0.56659,51.71636],[0.56687,51.71661],[0.56668,51.71669],[0.5664,51.71644]]]]}},
{ "type":"Feature","properties":{"osm_way_id":"896764811","building":"warehouse"},"geometry":{"type":"MultiPolygon","coordinates":[[[[0.56659,51.71636],[0.56677,51.71628],[0.56702,51.7165],[0.56705,51.71653],[0.56687,51.71661],[0.56659,51.71636]]]]}},
{ "type":"Feature","properties":{"osm_way_id":"896764812","building":"warehouse"},"geometry":{"type":"MultiPolygon","coordinates":[[[[0.56677,51.71628],[0.56696,51.7162],[0.56721,51.71642],[0.56702,51.7165],[0.56677,51.71628]]]]}},
{ "type":"Feature","properties":{"osm_way_id":"1025036497","building":"warehouse"},"geometry":{"type":"MultiPolygon","coordinates":[[[[0.5049,51.74502],[0.50551,51.745],[0.5055,51.74485],[0.50549,51.7447],[0.50548,51.74455],[0.50547,51.7444],[0.50486,51.74442],[0.50487,51.74457],[0.50488,51.74472],[0.50489,51.74486],[0.5049,51.74502]]]]}},
{ "type":"Feature","properties":{"osm_way_id":"1025036501","building":"warehouse"},"geometry":{"type":"MultiPolygon","coordinates":[[[[0.50636,51.74267],[0.50652,51.74254],[0.50669,51.74241],[0.50629,51.74222],[0.50613,51.74234],[0.50596,51.74247],[0.50636,51.74267]]]]}},
{ "type":"Feature","properties":{"osm_way_id":"1025036504","building":"warehouse"},"geometry":{"type":"MultiPolygon","coordinates":[[[[0.50666,51.74239],[0.50693,51.74218],[0.50677,51.7421],[0.5066,51.74202],[0.50644,51.74194],[0.50626,51.74185],[0.50599,51.74205],[0.50617,51.74214],[0.50633,51.74222],[0.50649,51.74231],[0.50666,51.74239]]]]}},
{ "type":"Feature","properties":{"osm_way_id":"1025036505","building":"warehouse"},"geometry":{"type":"MultiPolygon","coordinates":[[[[0.50734,51.74201],[0.50754,51.74185],[0.50739,51.74178],[0.50743,51.74175],[0.50729,51.74169],[0.50732,51.74166],[0.50718,51.74159],[0.50721,51.74156],[0.50705,51.74148],[0.50708,51.74146],[0.50689,51.74137],[0.50656,51.74162],[0.50674,51.74171],[0.50691,51.7418],[0.50705,51.74187],[0.50719,51.74193],[0.50734,51.74201]]]]}}
]
}
