{
"type": "FeatureCollection",
"features": [
{ "type":"Feature","properties":{"osm_id":"285978526","name":"Co-op Food","other":{"brand":"Co-op Food","brand:wikidata":"Q3277439","brand:wikipedia":"en:Co-op Food","operator":"The Co-operative Group","operator:wikidata":"Q117202","operator:wikipedia":"en:The Co-operative Group","shop":"supermarket"}}, "geometry":{"type":"Point","coordinates":[-1.07549,53.5084 ]}},
{ "type":"Feature","properties":{"osm_id":"286279047","name":"The Co-operative","other":{"shop":"supermarket","wheelchair":"yes"}}, "geometry":{"type":"Point","coordinates":[-1.08792,53.50001 ]}},
{ "type":"Feature","properties":{"osm_id":"1426815179","name":"The Co-operative Food","other":{"shop":"supermarket"}}, "geometry":{"type":"Point","coordinates":[-1.02104,53.42894 ]}},
{ "type":"Feature","properties":{"osm_id":"3256968947","name":"Heron Foods","other":{"addr:city":"Doncaster","addr:country":"GB","addr:housenumber":"268","addr:postcode":"DN6 7HN","addr:street":"Great North Road","brand":"Heron Foods","brand:wikidata":"Q5743472","brand:wikipedia":"en:Heron Foods","contact:website":"https:\/\/heronfoods.com\/index.php\/storelocator\/store-details\/woodlands","fhrs:id":"692401","shop":"supermarket"}}, "geometry":{"type":"Point","coordinates":[-1.19503,53.56375 ]}},
{ "type":"Feature","properties":{"osm_id":"4081274554","name":"The Co-operative Food","other":{"addr:street":"Hayfield Lane","operator":"The Co-operative Group","shop":"supermarket"}}, "geometry":{"type":"Point","coordinates":[-1.02257,53.49033 ]}},
{ "type":"Feature","properties":{"osm_id":"4190969224","name":"Heron Foods","other":{"addr:city":"Doncaster","addr:country":"GB","addr:housenumber":"1,3","addr:postcode":"DN8 5AP","addr:street":"The Green","brand":"Heron Foods","brand:wikidata":"Q5743472","brand:wikipedia":"en:Heron Foods","contact:website":"https:\/\/heronfoods.com\/storelocator\/store-details\/thorne","fhrs:id":"1110161","shop":"supermarket"}}, "geometry":{"type":"Point","coordinates":[-0.96251,53.61178 ]}},
{ "type":"Feature","properties":{"osm_id":"4190969279","name":"Fultons Foods","other":{"addr:city":"Doncaster","addr:country":"GB","addr:housenumber":"9","addr:postcode":"DN8 5DE","addr:street":"Finkle Street","addr:town":"Thorne","brand":"Fultons Foods","brand:wikidata":"Q6112633","fhrs:id":"368255","old_name":"Jack Fultons","shop":"supermarket"}}, "geometry":{"type":"Point","coordinates":[-0.96254,53.61112 ]}},
{ "type":"Feature","properties":{"osm_id":"4192610796","name":"Iceland","other":{"brand":"Iceland","brand:wikidata":"Q721810","shop":"supermarket"}}, "geometry":{"type":"Point","coordinates":[-1.1847,53.58267 ]}},
{ "type":"Feature","properties":{"osm_id":"4192610807","name":"Asda","other":{"addr:city":"Carcroft","addr:country":"GB","addr:postcode":"DN6 8DN","addr:street":"High Street","brand":"Asda","brand:wikidata":"Q297410","brand:wikipedia":"en:Asda","contact:website":"https:\/\/storelocator.asda.com\/yorkshire-&-humber\/doncaster\/high-street-carcroft","fhrs:id":"366955","operator":"Asda Stores Ltd","shop":"supermarket"}}, "geometry":{"type":"Point","coordinates":[-1.18252,53.58229 ]}},
{ "type":"Feature","properties":{"osm_id":"4192662957","name":"Co-op","other":{"opening_hours":"Mo-Su 07:00-22:00","operator":"The Co-operative Group","shop":"supermarket"}}, "geometry":{"type":"Point","coordinates":[-1.01236,53.58186 ]}},
{ "type":"Feature","properties":{"osm_id":"5101224363","name":"Heron Foods","other":{"addr:city":"Doncaster","addr:country":"GB","addr:housenumber":"45,46","addr:postcode":"DN1 1NJ","addr:street":"Market Place","brand":"Heron Foods","brand:wikidata":"Q5743472","brand:wikipedia":"en:Heron Foods","contact:website":"https:\/\/heronfoods.com\/storelocator\/store-details\/doncaster-market","fhrs:id":"698549","shop":"supermarket"}}, "geometry":{"type":"Point","coordinates":[-1.13324,53.52419 ]}},
{ "type":"Feature","properties":{"osm_id":"6606544206","other":{"amenity":"post_box","operator":"Royal Mail"}}, "geometry":{"type":"Point","coordinates":[-1.13756,53.49098 ]}},
{ "type":"Feature","properties":{"osm_id":"7446823487","name":"Asda","other":{"addr:city":"Balby","addr:country":"GB","addr:postcode":"DN4 9DL","addr:street":"Springwell Lane","brand":"Asda","brand:wikidata":"Q297410","brand:wikipedia":"en:Asda","contact:website":"https:\/\/storelocator.asda.com\/yorkshire-&-humber\/doncaster\/springwell-lane-balby","fhrs:id":"707084","operator":"Asda Stores Ltd","shop":"supermarket"}}, "geometry":{"type":"Point","coordinates":[-1.15568,53.49481 ]}},
{ "type":"Feature","properties":{"osm_id":"7446838809","name":"Asda","other":{"addr:city":"Edlington","addr:country":"GB","addr:postcode":"DN12 1DL","addr:street":"Bungalow Road","brand":"Asda","brand:wikidata":"Q297410","brand:wikipedia":"en:Asda","contact:website":"https:\/\/storelocator.asda.com\/yorkshire-&-humber\/edlington\/bungalow-road","fhrs:id":"368927","operator":"Asda Stores Ltd","shop":"supermarket"}}, "geometry":{"type":"Point","coordinates":[-1.19126,53.4814 ]}},
{ "type":"Feature","properties":{"osm_id":"7965552544","name":"M&S Foodhall","other":{"brand":"M&S Foodhall","brand:wikidata":"Q714491","brand:wikipedia":"en:Marks & Spencer","shop":"supermarket"}}, "geometry":{"type":"Point","coordinates":[-1.10003,53.54334 ]}},
{ "type":"Feature","properties":{"osm_id":"8042278792","name":"The Food Warehouse","other":{"brand":"The Food Warehouse","brand:wikidata":"Q87263899","shop":"supermarket"}}, "geometry":{"type":"Point","coordinates":[-1.14606,53.53118 ]}},
{ "type":"Feature","properties":{"osm_id":"8818300703","other":{"emergency":"defibrillator","indoor":"no"}}, "geometry":{"type":"Point","coordinates":[-1.0719,53.57723 ]}},
{ "type":"Feature","properties":{"osm_way_id":"32786138","name":"Asda","building":"supermarket","shop":"supermarket","other":{"addr:city":"Doncaster","addr:country":"GB","addr:postcode":"DN4 5NW","addr:street":"Gliwice Way","brand":"Asda","brand:wikidata":"Q297410","brand:wikipedia":"en:Asda","contact:website":"https:\/\/storelocator.asda.com\/yorkshire-&-humber\/doncaster\/gliwice-way-bawtry-road","fhrs:id":"366354","operator":"Asda Stores Ltd","toilets":"yes","toilets:access":"customers","toilets:wheelchair":"yes","wheelchair":"yes"}}, "geometry":{"type":"MultiPolygon","coordinates":[[[[-1.1033,53.51623],[-1.10291,53.51615],[-1.10299,53.516],[-1.1029,53.51599],[-1.10234,53.51587],[-1.10223,53.51585],[-1.10217,53.51597],[-1.10148,53.51583],[-1.10121,53.51633],[-1.10175,53.51644],[-1.10166,53.51662],[-1.10244,53.51677],[-1.10238,53.51689],[-1.10293,53.51701],[-1.1032,53.51653],[-1.10328,53.51654],[-1.10344,53.51626],[-1.1033,53.51623]]]]}},
{ "type":"Feature","properties":{"osm_way_id":"215414095","name":"Sainsbury's","building":"yes","shop":"supermarket","other":{"addr:housename":"Frenchgate Centre","addr:housenumber":"15 South Mall","addr:postcode":"DN1 1TT","brand":"Sainsbury's","brand:wikidata":"Q152096","brand:wikipedia":"en:Sainsbury's"}}, "geometry":{"type":"MultiPolygon","coordinates":[[[[-1.13816,53.52266],[-1.13821,53.52254],[-1.13813,53.52244],[-1.13816,53.52239],[-1.13806,53.52228],[-1.13767,53.52222],[-1.13762,53.52234],[-1.13766,53.52239],[-1.1378,53.52241],[-1.13778,53.52245],[-1.13774,53.52245],[-1.1377,53.52253],[-1.13757,53.52251],[-1.13756,53.52252],[-1.13754,53.52257],[-1.13773,53.5226],[-1.13789,53.52262],[-1.13816,53.52266]]]]}},
{ "type":"Feature","properties":{"osm_way_id":"221499548","name":"Sainsbury's","building":"yes","shop":"supermarket","other":{"brand":"Sainsbury's","brand:wikidata":"Q152096","brand:wikipedia":"en:Sainsbury's"}}, "geometry":{"type":"MultiPolygon","coordinates":[[[[-1.07691,53.54465],[-1.07708,53.54491],[-1.07741,53.54542],[-1.07688,53.54554],[-1.07694,53.54563],[-1.07678,53.54566],[-1.07679,53.54569],[-1.07657,53.54574],[-1.07652,53.54567],[-1.07637,53.5457],[-1.0764,53.54578],[-1.07621,53.54582],[-1.0762,53.5458],[-1.07594,53.54585],[-1.0758,53.54567],[-1.07594,53.54564],[-1.07587,53.54552],[-1.07619,53.54527],[-1.07617,53.54523],[-1.0761,53.54525],[-1.07598,53.5451],[-1.07607,53.54507],[-1.07604,53.54503],[-1.07618,53.545],[-1.07621,53.54504],[-1.07651,53.54497],[-1.07649,53.54495],[-1.07646,53.54496],[-1.07641,53.54489],[-1.07649,53.54487],[-1.07641,53.54475],[-1.07691,53.54465]]]]}},
{ "type":"Feature","properties":{"osm_way_id":"225660749","name":"Tesco Extra","building":"yes","shop":"supermarket","other":{"addr:city":"Doncaster","addr:country":"GB","addr:housename":"Woodfield Plantation","addr:postcode":"DN4 8SN","addr:street":"Woodfield Way","addr:suburb":"Balby","brand":"Tesco Extra","brand:wikidata":"Q25172225","brand:wikipedia":"en:Tesco Extra","fhrs:id":"368005"}}, "geometry":{"type":"MultiPolygon","coordinates":[[[[-1.13881,53.49126],[-1.13804,53.49129],[-1.13771,53.49131],[-1.1376,53.49131],[-1.13756,53.49098],[-1.13746,53.49021],[-1.13902,53.49014],[-1.13904,53.49033],[-1.13869,53.49035],[-1.13881,53.49126]]]]}},
{ "type":"Feature","properties":{"osm_way_id":"246184186","name":"Lidl","building":"yes","shop":"supermarket","other":{"addr:country":"GB","addr:postcode":"DN4 8DD","addr:street":"Sandford Road","brand":"Lidl","brand:wikidata":"Q151954","fhrs:id":"367532"}}, "geometry":{"type":"MultiPolygon","coordinates":[[[[-1.14746,53.50683],[-1.14671,53.50655],[-1.14672,53.50654],[-1.1467,53.50645],[-1.14674,53.50641],[-1.14689,53.50628],[-1.14698,53.50631],[-1.14702,53.50631],[-1.14708,53.50633],[-1.14717,53.50638],[-1.14713,53.50641],[-1.1473,53.50651],[-1.14766,53.50665],[-1.14746,53.50683]]]]}},
{ "type":"Feature","properties":{"osm_way_id":"249257541","name":"Tesco","building":"yes","shop":"supermarket","other":{"addr:city":"Edenthorpe","addr:postcode":"DN3 2JE","addr:street":"Thorne Road","branch":"Doncaster Edenthorpe Superstore","brand":"Tesco","brand:wikidata":"Q487494","brand:wikipedia":"en:Tesco","opening_hours":"Mo-Sa 06:00-23:00; Su 10:00-16:00"}}, "geometry":{"type":"MultiPolygon","coordinates":[[[[-1.06367,53.55529],[-1.06325,53.55536],[-1.06322,53.55529],[-1.06271,53.55537],[-1.06275,53.55546],[-1.06236,53.55553],[-1.06243,53.55568],[-1.06239,53.55569],[-1.06248,53.55588],[-1.06295,53.5558],[-1.06296,53.55584],[-1.06309,53.5561],[-1.06335,53.55606],[-1.06366,53.55601],[-1.06389,53.55597],[-1.06375,53.55571],[-1.06387,53.55569],[-1.06367,53.55529]]]]}},
{ "type":"Feature","properties":{"osm_way_id":"251614625","name":"Morrisons","building":"supermarket","shop":"supermarket","other":{"brand":"Morrisons","brand:wikidata":"Q922344","brand:wikipedia":"en:Morrisons"}}, "geometry":{"type":"MultiPolygon","coordinates":[[[[-1.14933,53.53212],[-1.149,53.53231],[-1.14905,53.53234],[-1.149,53.53239],[-1.14923,53.53253],[-1.14916,53.53257],[-1.14944,53.53275],[-1.14941,53.53278],[-1.14949,53.53283],[-1.1495,53.53282],[-1.14963,53.53289],[-1.1496,53.53291],[-1.14971,53.53297],[-1.14974,53.53295],[-1.15002,53.53311],[-1.15067,53.53272],[-1.15073,53.53275],[-1.15084,53.53269],[-1.15081,53.53267],[-1.15094,53.5326],[-1.15081,53.53252],[-1.15083,53.53251],[-1.15073,53.53244],[-1.15066,53.53248],[-1.1504,53.53232],[-1.15043,53.5323],[-1.15032,53.53224],[-1.15028,53.53226],[-1.15015,53.53218],[-1.15003,53.53226],[-1.14984,53.53216],[-1.14972,53.53222],[-1.14953,53.53212],[-1.14944,53.53218],[-1.14933,53.53212]]]]}},
{ "type":"Feature","properties":{"osm_way_id":"319284242","name":"The Co-operative Food","building":"yes","shop":"supermarket"},"geometry":{"type":"MultiPolygon","coordinates":[[[[-1.19643,53.56401],[-1.1965,53.56412],[-1.19642,53.56413],[-1.19654,53.56432],[-1.19632,53.56437],[-1.19622,53.56421],[-1.19605,53.56425],[-1.19596,53.56412],[-1.19643,53.56401]]]]}},
{ "type":"Feature","properties":{"osm_way_id":"319285629","name":"Co-op Food","building":"yes","shop":"supermarket","other":{"brand":"Co-op Food","brand:wikidata":"Q3277439","brand:wikipedia":"en:Co-op Food","operator":"The Co-operative Group"}}, "geometry":{"type":"MultiPolygon","coordinates":[[[[-1.11404,53.53557],[-1.11388,53.53561],[-1.11391,53.53566],[-1.11381,53.53568],[-1.11365,53.53545],[-1.11371,53.53544],[-1.11363,53.53532],[-1.11384,53.53527],[-1.11404,53.53557]]]]}},
{ "type":"Feature","properties":{"osm_way_id":"319287802","name":"Morrisons","building":"yes","shop":"supermarket","other":{"brand":"Morrisons","brand:wikidata":"Q922344","brand:wikipedia":"en:Morrisons"}}, "geometry":{"type":"MultiPolygon","coordinates":[[[[-1.05626,53.53543],[-1.05586,53.53537],[-1.05603,53.53499],[-1.05636,53.53505],[-1.05622,53.53535],[-1.05629,53.53536],[-1.05626,53.53543]]]]}},
{ "type":"Feature","properties":{"osm_way_id":"319288332","name":"The Co-operative Food","building":"retail","shop":"supermarket","other":{"operator":"The Co-operative Group"}}, "geometry":{"type":"MultiPolygon","coordinates":[[[[-1.0688,53.5621],[-1.06889,53.56229],[-1.06896,53.56228],[-1.06898,53.56234],[-1.06874,53.56238],[-1.06862,53.56213],[-1.0688,53.5621]]]]}},
{ "type":"Feature","properties":{"osm_way_id":"338703074","name":"Asda","building":"yes","shop":"supermarket","other":{"addr:city":"Doncaster","addr:country":"GB","addr:postcode":"DN12 4TJ","addr:street":"Hill Top Road","brand":"Asda","brand:wikidata":"Q297410","brand:wikipedia":"en:Asda","contact:website":"https:\/\/storelocator.asda.com\/yorkshire-&-humber\/conisbrough\/hill-top-road","fhrs:id":"368825","operator":"Asda Stores Ltd"}}, "geometry":{"type":"MultiPolygon","coordinates":[[[[-1.25528,53.49136],[-1.25555,53.49135],[-1.25554,53.49128],[-1.25557,53.49127],[-1.25551,53.49091],[-1.25496,53.49094],[-1.25502,53.49131],[-1.25527,53.4913],[-1.25528,53.49136]]]]}},
{ "type":"Feature","properties":{"osm_way_id":"381727679","name":"Co-op Food","building":"yes","shop":"supermarket","other":{"addr:city":"Doncaster","addr:country":"GB","addr:postcode":"DN6 0EP","addr:street":"Selby Road","addr:town":"Askern","brand":"Co-op Food","brand:wikidata":"Q3277439","brand:wikipedia":"en:Co-op Food","fhrs:id":"628060","operator":"The Co-operative Group"}}, "geometry":{"type":"MultiPolygon","coordinates":[[[[-1.15337,53.61691],[-1.15354,53.61727],[-1.15316,53.61733],[-1.15298,53.61698],[-1.15337,53.61691]]]]}},
{ "type":"Feature","properties":{"osm_way_id":"478460565","name":"Asda","building":"yes","shop":"supermarket","other":{"addr:city":"Doncaster","addr:country":"GB","addr:postcode":"DN11 0LP","addr:street":"Grange Lane","brand":"Asda","brand:wikidata":"Q297410","brand:wikipedia":"en:Asda","contact:website":"https:\/\/storelocator.asda.com\/yorkshire-&-humber\/rossington\/grange-lane-new-rossington","fhrs:id":"368877","operator":"Asda Stores Ltd"}}, "geometry":{"type":"MultiPolygon","coordinates":[[[[-1.07639,53.47593],[-1.07637,53.4758],[-1.07635,53.4758],[-1.07634,53.47569],[-1.07578,53.47571],[-1.07578,53.4757],[-1.07557,53.47571],[-1.0756,53.47596],[-1.07639,53.47593]]]]}},
{ "type":"Feature","properties":{"osm_way_id":"478996647","name":"Morrisons","building":"yes","shop":"supermarket","other":{"brand":"Morrisons","brand:wikidata":"Q922344","brand:wikipedia":"en:Morrisons","postal_code":"DN4 5JP"}}, "geometry":{"type":"MultiPolygon","coordinates":[[[[-1.12847,53.4987],[-1.12795,53.49931],[-1.12802,53.49933],[-1.12787,53.49951],[-1.12768,53.49946],[-1.12756,53.49959],[-1.12733,53.49952],[-1.1274,53.49944],[-1.12686,53.49927],[-1.12759,53.49843],[-1.12847,53.4987]]]]}},
{ "type":"Feature","properties":{"osm_way_id":"485023236","name":"Asda","building":"yes","shop":"supermarket","other":{"addr:city":"Stainforth","addr:country":"GB","addr:postcode":"DN7 5DX","addr:street":"Station Road","branch":"Stainforth Supermarket","brand":"Asda","brand:wikidata":"Q297410","brand:wikipedia":"en:Asda","contact:website":"https:\/\/storelocator.asda.com\/yorkshire-&-humber\/stainforth\/station-road","fhrs:id":"698544","opening_hours":"Mo-Sa 07:00-23:00; Su 10:00-16:00","operator":"Asda Stores Ltd"}}, "geometry":{"type":"MultiPolygon","coordinates":[[[[-1.02764,53.59028],[-1.02729,53.59006],[-1.02686,53.59031],[-1.02717,53.5905],[-1.02745,53.59034],[-1.02749,53.59036],[-1.02764,53.59028]]]]}},
{ "type":"Feature","properties":{"osm_way_id":"485023390","name":"Sainsbury's","building":"yes","shop":"supermarket","other":{"addr:city":"Doncaster","addr:country":"GB","addr:housenumber":"90","addr:postcode":"DN8 5BA","addr:street":"King Street","addr:town":"Thorne","branch":"Thorne Superstore","brand":"Sainsbury's","brand:wikidata":"Q152096","brand:wikipedia":"en:Sainsbury's","fhrs:id":"368519","opening_hours":"Mo-Sa 08:00-20:00; Su 10:00-16:00"}}, "geometry":{"type":"MultiPolygon","coordinates":[[[[-0.96383,53.61321],[-0.96419,53.61294],[-0.96353,53.61263],[-0.96317,53.61291],[-0.96383,53.61321]]]]}},
{ "type":"Feature","properties":{"osm_way_id":"545575763","name":"Sainsbury's Local","building":"yes","shop":"supermarket","other":{"brand:wikidata":"Q13218434"}}, "geometry":{"type":"MultiPolygon","coordinates":[[[[-1.15953,53.52363],[-1.1591,53.52338],[-1.15882,53.52355],[-1.15922,53.52379],[-1.15931,53.52373],[-1.15934,53.52374],[-1.15953,53.52363]]]]}},
{ "type":"Feature","properties":{"osm_way_id":"627994276","name":"Aldi","building":"retail","shop":"supermarket","other":{"brand":"ALDI","brand:wikidata":"Q41171672","brand:wikipedia":"en:Aldi"}}, "geometry":{"type":"MultiPolygon","coordinates":[[[[-0.97822,53.61716],[-0.97773,53.61684],[-0.97828,53.61652],[-0.97869,53.61677],[-0.97852,53.61688],[-0.97862,53.61694],[-0.97822,53.61716]]]]}},
{ "type":"Feature","properties":{"osm_way_id":"637867878","name":"Co-op Food","building":"yes","shop":"supermarket","other":{"addr:housename":"The Co-operative Food","addr:postcode":"S64 9LU","alt_name":"Co-op","brand":"Co-op Food","brand:wikidata":"Q3277439","brand:wikipedia":"en:Co-op Food","old_name":"Somerfields","website":"https:\/\/www.co-operative.coop\/find-us\/?q=mexborough&lat=53.493099&long=-1.2804519999999684&filters=Food,Bank,Travel,Pharmacy,Funerals,Motor,Britannia,Misc,Nonfood,Post,Homestore,Petrol&options="}}, "geometry":{"type":"MultiPolygon","coordinates":[[[[-1.29365,53.49356],[-1.29317,53.49373],[-1.29325,53.49381],[-1.29334,53.4939],[-1.29349,53.49405],[-1.29396,53.49388],[-1.29365,53.49356]]]]}},
{ "type":"Feature","properties":{"osm_way_id":"686430752","name":"Aldi","building":"yes","shop":"supermarket","other":{"addr:postcode":"DN1 2DG","brand":"ALDI","brand:wikidata":"Q41171672","brand:wikipedia":"en:Aldi"}}, "geometry":{"type":"MultiPolygon","coordinates":[[[[-1.1259,53.5285],[-1.12627,53.52828],[-1.1256,53.52788],[-1.12523,53.5281],[-1.1259,53.5285]]]]}},
{ "type":"Feature","properties":{"osm_way_id":"694021929","name":"Aldi","building":"yes","shop":"supermarket","other":{"brand":"ALDI","brand:wikidata":"Q41171672","brand:wikipedia":"en:Aldi"}}, "geometry":{"type":"MultiPolygon","coordinates":[[[[-1.05528,53.5349],[-1.05501,53.53483],[-1.05523,53.53455],[-1.05551,53.53463],[-1.05528,53.5349]]]]}},
{ "type":"Feature","properties":{"osm_way_id":"700664480","name":"Lidl","building":"yes","shop":"supermarket","other":{"brand":"Lidl","brand:wikidata":"Q151954","brand:wikipedia":"en:Lidl"}}, "geometry":{"type":"MultiPolygon","coordinates":[[[[-1.0936,53.48303],[-1.09329,53.48347],[-1.09335,53.48349],[-1.09327,53.48359],[-1.09322,53.48365],[-1.09269,53.48351],[-1.09318,53.48286],[-1.09333,53.4829],[-1.09329,53.48295],[-1.0936,53.48303]]]]}},
{ "type":"Feature","properties":{"osm_way_id":"731865921","name":"Lidl","building":"yes","shop":"supermarket","other":{"brand":"Lidl","brand:wikidata":"Q151954","brand:wikipedia":"en:Lidl","operator":"Lidl"}}, "geometry":{"type":"MultiPolygon","coordinates":[[[[-0.36856,52.75482],[-0.36842,52.75428],[-0.36839,52.75419],[-0.36788,52.75424],[-0.36788,52.75427],[-0.36789,52.75431],[-0.36791,52.75431],[-0.36793,52.75435],[-0.36793,52.75438],[-0.36794,52.7544],[-0.36795,52.75442],[-0.36795,52.75445],[-0.36796,52.75447],[-0.36796,52.75449],[-0.36797,52.75451],[-0.36798,52.75454],[-0.36798,52.75456],[-0.36799,52.75458],[-0.36799,52.75459],[-0.368,52.75462],[-0.36801,52.75464],[-0.36801,52.75466],[-0.36802,52.75469],[-0.36803,52.75471],[-0.36803,52.75473],[-0.36804,52.75476],[-0.36805,52.75478],[-0.36807,52.75487],[-0.36839,52.75483],[-0.36856,52.75482]]]]}},
{ "type":"Feature","properties":{"osm_way_id":"733681193","name":"Costcutter","building":"yes","shop":"supermarket","other":{"brand":"Costcutter","brand:wikidata":"Q5175072","brand:wikipedia":"en:Costcutter"}}, "geometry":{"type":"MultiPolygon","coordinates":[[[[-1.07323,53.56347],[-1.07294,53.56347],[-1.07295,53.56332],[-1.07319,53.56333],[-1.07323,53.56347]]]]}},
{ "type":"Feature","properties":{"osm_way_id":"744099795","name":"Lidl","building":"yes","shop":"supermarket","other":{"brand":"Lidl","brand:wikidata":"Q151954","brand:wikipedia":"en:Lidl"}}, "geometry":{"type":"MultiPolygon","coordinates":[[[[-0.9626,53.61389],[-0.96187,53.61354],[-0.96199,53.61345],[-0.96206,53.61348],[-0.96226,53.61334],[-0.9625,53.61346],[-0.96254,53.61343],[-0.96295,53.61363],[-0.9626,53.61389]]]]}},
{ "type":"Feature","properties":{"osm_way_id":"767834015","name":"Heron Foods","building":"retail","shop":"supermarket","other":{"addr:city":"Doncaster","addr:country":"GB","addr:housename":"Rossington Market","addr:postcode":"DN11 0PD","addr:street":"Norman Crescent","brand":"Heron Foods","brand:wikidata":"Q5743472","brand:wikipedia":"en:Heron Foods","contact:website":"https:\/\/heronfoods.com\/storelocator\/store-details\/rossington","fhrs:id":"704750"}}, "geometry":{"type":"MultiPolygon","coordinates":[[[[-1.07851,53.47806],[-1.07825,53.47808],[-1.07823,53.47794],[-1.07849,53.47792],[-1.07851,53.47806]]]]}},
{ "type":"Feature","properties":{"osm_way_id":"852012316","name":"Aldi","building":"yes","shop":"supermarket","other":{"brand":"ALDI","brand:wikidata":"Q41171672","brand:wikipedia":"en:Aldi"}}, "geometry":{"type":"MultiPolygon","coordinates":[[[[-1.16968,53.53797],[-1.16996,53.53807],[-1.16993,53.53811],[-1.17011,53.53817],[-1.17052,53.53778],[-1.17001,53.53759],[-1.16981,53.53778],[-1.16985,53.5378],[-1.16968,53.53797]]]]}},
{ "type":"Feature","properties":{"osm_way_id":"853030585","name":"Lidl","building":"retail","shop":"supermarket","other":{"addr:country":"GB","addr:housenumber":"128","addr:postcode":"DN5 0EW","addr:street":"Askern Road","brand":"Lidl","brand:wikidata":"Q151954","brand:wikipedia":"en:Lidl","fhrs:id":"953976","opening_hours":"Mo-Sa 08:00-22:00; Su 11:00-17:00"}}, "geometry":{"type":"MultiPolygon","coordinates":[[[[-1.14685,53.55062],[-1.14685,53.55062],[-1.14791,53.55055],[-1.14796,53.55085],[-1.14691,53.55092],[-1.14687,53.55074],[-1.14679,53.55074],[-1.14677,53.55063],[-1.14685,53.55062]]]]}},
{ "type":"Feature","properties":{"osm_way_id":"853035592","name":"Lidl","building":"retail","shop":"supermarket","other":{"addr:city":"Doncaster","addr:country":"GB","addr:postcode":"S64 9HU","addr:street":"Cliff Street","addr:town":"Mexborough","brand":"Lidl","brand:wikidata":"Q151954","brand:wikipedia":"en:Lidl","building:levels":"1","fhrs:id":"486359"}}, "geometry":{"type":"MultiPolygon","coordinates":[[[[-1.29312,53.49227],[-1.29316,53.49218],[-1.29407,53.4923],[-1.29404,53.49239],[-1.29396,53.49259],[-1.29336,53.49251],[-1.29338,53.49246],[-1.29316,53.49243],[-1.29322,53.49228],[-1.29312,53.49227]]]]}},
{ "type":"Feature","properties":{"osm_way_id":"871566602","name":"Lidl","building":"supermarket","shop":"supermarket","other":{"addr:country":"GB","addr:housename":"Leger Retail Centre","addr:postcode":"DN2 5DX","addr:street":"Thorne Road","brand":"Lidl","brand:wikidata":"Q151954","brand:wikipedia":"en:Lidl","fhrs:id":"577462"}}, "geometry":{"type":"MultiPolygon","coordinates":[[[[-1.0849,53.54342],[-1.08517,53.54306],[-1.08598,53.54328],[-1.08587,53.54343],[-1.0859,53.54343],[-1.0858,53.54356],[-1.08553,53.54348],[-1.08551,53.5435],[-1.08523,53.54343],[-1.08518,53.5435],[-1.0849,53.54342]]]]}},
{ "type":"Feature","properties":{"osm_way_id":"941436241","name":"Spar","building":"yes","shop":"supermarket","other":{"brand":"Spar","brand:wikidata":"Q610492","brand:wikipedia":"en:Spar (retailer)"}}, "geometry":{"type":"MultiPolygon","coordinates":[[[[-1.01905,53.50186],[-1.01887,53.50191],[-1.0188,53.50181],[-1.01872,53.5017],[-1.01883,53.50168],[-1.01886,53.50172],[-1.01892,53.5017],[-1.01905,53.50186]]]]}},
{ "type":"Feature","properties":{"osm_way_id":"941443832","name":"Co-op Food","building":"yes","shop":"supermarket","other":{"brand":"Co-op Food","brand:wikidata":"Q3277439","brand:wikipedia":"en:Co-op Food"}}, "geometry":{"type":"MultiPolygon","coordinates":[[[[-1.0229,53.49036],[-1.02272,53.49036],[-1.02267,53.49041],[-1.02247,53.49033],[-1.0226,53.49022],[-1.0229,53.49022],[-1.0229,53.49036]]]]}},
{ "type":"Feature","properties":{"osm_way_id":"952719995","name":"The Co-operative Food","building":"yes","shop":"supermarket","other":{"addr:city":"Barnby Dun","addr:street":"High Street","opening_hours":"Mo-Su 07:00-22:00","operator":"Central England Co-operative","toilets":"yes","toilets:access":"permissive","toilets:wheelchair":"yes"}}, "geometry":{"type":"MultiPolygon","coordinates":[[[[-1.07211,53.57731],[-1.07194,53.57721],[-1.0719,53.57723],[-1.07174,53.57732],[-1.07186,53.5774],[-1.07192,53.57736],[-1.07197,53.57739],[-1.07211,53.57731]]]]}},
{ "type":"Feature","properties":{"osm_way_id":"979860465","name":"ALDI","building":"yes","shop":"supermarket","other":{"brand":"ALDI","brand:wikidata":"Q41171672","brand:wikipedia":"en:Aldi","building:levels":"1"}}, "geometry":{"type":"MultiPolygon","coordinates":[[[[-1.07351,53.56008],[-1.07388,53.55985],[-1.07434,53.55999],[-1.07378,53.56028],[-1.07351,53.56008]]]]}},
{ "type":"Feature","properties":{"osm_way_id":"987147119","building":"yes","shop":"supermarket"},"geometry":{"type":"MultiPolygon","coordinates":[[[[-1.07489,53.50816],[-1.07516,53.50829],[-1.07528,53.5082],[-1.07532,53.50821],[-1.07534,53.50821],[-1.07538,53.50819],[-1.07537,53.50816],[-1.0753,53.50812],[-1.07526,53.50813],[-1.0751,53.50805],[-1.07504,53.50809],[-1.07498,53.50807],[-1.07489,53.50816]]]]}}
]
}
