{
"type": "FeatureCollection",
"features": [
{ "type":"Feature","properties":{"osm_id":"1313240184","name":"The Wholefood Store","other":{"addr:city":"Manningtree","addr:housenumber":"26","addr:postcode":"CO11 1AJ","addr:street":"High Street","old:fhrs:id":"860609","shop":"supermarket","website":"www.the-wholefoodstore.co.uk"}}, "geometry":{"type":"Point","coordinates":[1.06396,51.9454 ]}},
{ "type":"Feature","properties":{"osm_id":"1449651202","other":{"power":"pole"}}, "geometry":{"type":"Point","coordinates":[1.11262,51.90161 ]}},
{ "type":"Feature","properties":{"osm_id":"1449651203","other":{"natural":"tree"}}, "geometry":{"type":"Point","coordinates":[1.11171,51.90168 ]}},
{ "type":"Feature","properties":{"osm_id":"1449651207","other":{"power":"pole"}}, "geometry":{"type":"Point","coordinates":[1.11193,51.90217 ]}},
{ "type":"Feature","properties":{"osm_id":"3803937576","other":{"emergency":"defibrillator"}}, "geometry":{"type":"Point","coordinates":[1.14867,51.79516 ]}},
{ "type":"Feature","properties":{"osm_id":"3803938953","other":{"emergency":"defibrillator"}}, "geometry":{"type":"Point","coordinates":[1.18265,51.80321 ]}},
{ "type":"Feature","properties":{"osm_id":"3811411607","other":{"emergency":"defibrillator"}}, "geometry":{"type":"Point","coordinates":[1.27278,51.84939 ]}},
{ "type":"Feature","properties":{"osm_id":"4539357778","other":{"addr:city":"Clacton-on-Sea","addr:flats":"1-6","addr:housenumber":"23","addr:postcode":"CO15 1JA","addr:street":"Jackson Road"}}, "geometry":{"type":"Point","coordinates":[1.15046,51.78902 ]}},
{ "type":"Feature","properties":{"osm_way_id":"26587720","name":"Tesco","building":"yes","shop":"supermarket","other":{"addr:housename":"Brook Retail Park","addr:postcode":"CO15 3TP","addr:street":"London Road","branch":"Clacton-On-Sea Superstore","brand":"Tesco","brand:wikidata":"Q487494","brand:wikipedia":"en:Tesco","fhrs:id":"611506","not:addr:postcode":"CO16 9QX","operator":"Tesco Stores Ltd"}}, "geometry":{"type":"MultiPolygon","coordinates":[[[[1.15044,51.81268],[1.14933,51.81258],[1.14953,51.81172],[1.15043,51.8118],[1.15049,51.81157],[1.1507,51.81159],[1.15054,51.81227],[1.15076,51.81229],[1.15072,51.81245],[1.1505,51.81243],[1.15044,51.81268]]]]}},
{ "type":"Feature","properties":{"osm_way_id":"30879313","name":"Asda","building":"retail","shop":"supermarket","other":{"addr:city":"Harwich","addr:country":"GB","addr:postcode":"CO12 3HJ","addr:street":"Main Road","alt_name":"ASDA Harwich Supermarket","brand":"Asda","brand:wikidata":"Q297410","brand:wikipedia":"en:Asda","contact:facebook":"https:\/\/www.facebook.com\/asda\/","contact:twitter":"@asda","contact:website":"https:\/\/storelocator.asda.com\/east-of-england\/harwich\/main-road","fhrs:id":"611759","operator":"Asda Stores Ltd"}}, "geometry":{"type":"MultiPolygon","coordinates":[[[[1.27342,51.93671],[1.27322,51.93669],[1.27321,51.93657],[1.27275,51.93653],[1.27276,51.93647],[1.27267,51.93646],[1.27274,51.93621],[1.27304,51.93624],[1.27308,51.93607],[1.27353,51.93612],[1.27342,51.93671]]]]}},
{ "type":"Feature","properties":{"osm_way_id":"59697698","name":"CO-OP Daily","building":"shop","shop":"supermarket","other":{"addr:city":"Brightlingsea","addr:housenumber":"25-27","addr:postcode":"CO7 0BT","addr:street":"Station Road","fhrs:id":"611891","operator":"East of England Co-Op","source:building":"bing"}}, "geometry":{"type":"MultiPolygon","coordinates":[[[[1.02149,51.80956],[1.02156,51.80945],[1.02169,51.80935],[1.02172,51.80936],[1.02175,51.80934],[1.02196,51.80943],[1.02186,51.80953],[1.02179,51.80965],[1.02149,51.80956]]]]}},
{ "type":"Feature","properties":{"osm_way_id":"68724595","name":"Morrisons","building":"retail","shop":"supermarket","other":{"addr:city":"Harwich","addr:housename":"Iconfield Park","addr:postcode":"CO12 4EN","addr:street":"Freshfields Road","alt_name":"Morrisons Harwich","brand":"Morrisons","brand:wikidata":"Q922344","brand:wikipedia":"en:Morrisons","fhrs:id":"611515"}}, "geometry":{"type":"MultiPolygon","coordinates":[[[[1.26116,51.94113],[1.26159,51.94112],[1.26202,51.9411],[1.26199,51.94063],[1.26204,51.94063],[1.26203,51.94052],[1.26192,51.94052],[1.26192,51.94044],[1.26141,51.94046],[1.26141,51.94043],[1.26125,51.94043],[1.26125,51.94047],[1.26098,51.94048],[1.26099,51.94054],[1.26113,51.94053],[1.26116,51.94099],[1.26103,51.94101],[1.26103,51.94111],[1.26116,51.9411],[1.26116,51.94113]]]]}},
{ "type":"Feature","properties":{"osm_way_id":"72887778","name":"JJ Supermarket","building":"retail","shop":"supermarket","other":{"addr:city":"Clacton-on-Sea","addr:housenumber":"23","addr:postcode":"CO15 1JA","addr:street":"Jackson Road","old_name":"The Crab and Pumpkin"}}, "geometry":{"type":"MultiPolygon","coordinates":[[[[1.15012,51.78898],[1.15015,51.78907],[1.15024,51.78906],[1.15046,51.78903],[1.15046,51.78902],[1.15043,51.78894],[1.15012,51.78898]]]]}},
{ "type":"Feature","properties":{"osm_way_id":"76850891","name":"Morrisons","building":"retail","shop":"supermarket","other":{"addr:housename":"Waterglade Retail Park","addr:postcode":"CO15 1HX","addr:street":"Old Road","branch":"Clacton Waterglade","brand":"Morrisons","brand:wikidata":"Q922344","brand:wikipedia":"en:Morrisons","fhrs:id":"611514","opening_hours":"Mo-Sa 08:00-21:00; Su 10:00-16:00","phone":"+44 1255 221127","source:building":"bing"}}, "geometry":{"type":"MultiPolygon","coordinates":[[[[1.14752,51.78958],[1.14762,51.79012],[1.14691,51.79016],[1.14681,51.78963],[1.14752,51.78958]]]]}},
{ "type":"Feature","properties":{"osm_way_id":"80434481","name":"Lidl","building":"shop","shop":"supermarket","other":{"addr:city":"Clacton-on-Sea","addr:postcode":"CO15 3BN","addr:street":"St Osyth Road","brand":"Lidl","brand:wikidata":"Q151954","fhrs:id":"1148939","old:fhrs:id":"611812","source:building":"bing"}}, "geometry":{"type":"MultiPolygon","coordinates":[[[[1.14677,51.7928],[1.14679,51.79254],[1.14762,51.79255],[1.14761,51.7927],[1.1476,51.79286],[1.14732,51.79285],[1.14732,51.79285],[1.14732,51.79281],[1.14678,51.7928],[1.14677,51.7928]]]]}},
{ "type":"Feature","properties":{"osm_way_id":"107184377","name":"LIDL","building":"shop","shop":"supermarket","other":{"addr:city":"Harwich","addr:postcode":"CO12 4NX","addr:street":"Parkeston Road","alt_name":"LIDL Harwich","brand":"Lidl","brand:wikidata":"Q151954","old:fhrs:id":"611584","source:building":"bing"}}, "geometry":{"type":"MultiPolygon","coordinates":[[[[1.25889,51.93901],[1.25901,51.93874],[1.25803,51.93857],[1.258,51.93865],[1.25807,51.93866],[1.25799,51.93882],[1.2582,51.93885],[1.25866,51.93893],[1.25864,51.93897],[1.25872,51.93899],[1.25889,51.93901]]]]}},
{ "type":"Feature","properties":{"osm_way_id":"110294110","name":"Co-op Supermarket","building":"shop","shop":"supermarket","other":{"addr:city":"Manningtree","addr:housename":"Fiveways Superstore","addr:postcode":"CO11 1US","addr:street":"Riverside Avenue East","branch":"East of England Co-operative Food, Manningtree","fhrs:id":"612138","opening_hours":"Mo-Sa 07:00-21:00; Su 10:00-16:00","url":"http:\/\/www.eastofengland.coop\/store-finder\/stores\/manningtree-post-office","wheelchair":"yes"}}, "geometry":{"type":"MultiPolygon","coordinates":[[[[1.06094,51.94708],[1.0606,51.94759],[1.06044,51.94755],[1.06045,51.94752],[1.06027,51.94747],[1.06029,51.94744],[1.06021,51.94741],[1.06025,51.94736],[1.06018,51.94734],[1.06023,51.94729],[1.06025,51.94729],[1.06029,51.94724],[1.06031,51.94725],[1.06034,51.9472],[1.06036,51.94721],[1.06056,51.94694],[1.06075,51.94699],[1.06074,51.94702],[1.06094,51.94708]]]]}},
{ "type":"Feature","properties":{"osm_way_id":"112582919","name":"Tesco Express","building":"shop","shop":"supermarket","other":{"addr:city":"Brightlingsea","addr:housenumber":"44-45","addr:postcode":"CO7 0AB","addr:street":"Victoria Place","brand":"Tesco Express","brand:wikidata":"Q98456772","brand:wikipedia":"en:Tesco","fhrs:id":"658923","operator":"Tesco Stores Ltd","source:building":"bing"}}, "geometry":{"type":"MultiPolygon","coordinates":[[[[1.02479,51.81148],[1.02493,51.81142],[1.025,51.81149],[1.02511,51.81145],[1.02502,51.81136],[1.02492,51.81126],[1.02482,51.81132],[1.02479,51.81135],[1.02476,51.81142],[1.02479,51.81148]]]]}},
{ "type":"Feature","properties":{"osm_way_id":"116464955","name":"Tesco Express","building":"shop","shop":"supermarket","other":{"addr:city":"Manningtree","addr:housenumber":"32-34","addr:postcode":"CO11 1AJ","addr:street":"High Street","brand":"Tesco Express","brand:wikidata":"Q98456772","brand:wikipedia":"en:Tesco","fhrs:id":"611969","operator":"Tesco Stores Ltd","wheelchair":"yes"}}, "geometry":{"type":"MultiPolygon","coordinates":[[[[1.0642,51.94539],[1.06439,51.94538],[1.06438,51.94529],[1.06437,51.94513],[1.06427,51.94513],[1.06428,51.94525],[1.0642,51.94528],[1.0642,51.94539]]]]}},
{ "type":"Feature","properties":{"osm_way_id":"128746069","name":"Co-op Daily","building":"shop","shop":"supermarket","other":{"addr:city":"Clacton-on-Sea","addr:housenumber":"53","addr:postcode":"CO15 5UH","addr:street":"Frinton Road","addr:suburb":"Holland-on-Sea","atm":"yes","fhrs:id":"611803","operator":"East of England Co-op","source:building":"bing"}}, "geometry":{"type":"MultiPolygon","coordinates":[[[[1.18209,51.80352],[1.18223,51.80338],[1.1823,51.80341],[1.18254,51.80317],[1.18265,51.80321],[1.18268,51.80322],[1.18231,51.8036],[1.18209,51.80352]]]]}},
{ "type":"Feature","properties":{"osm_way_id":"129747139","name":"Co-Op Daily","building":"shop","shop":"supermarket","other":{"addr:city":"Clacton-on-Sea","addr:housenumber":"162-164","addr:postcode":"CO15 3AY","addr:street":"Old Road","atm":"yes","fhrs:id":"611526","source:building":"bing"}}, "geometry":{"type":"MultiPolygon","coordinates":[[[[1.14871,51.79525],[1.14867,51.79516],[1.14867,51.79515],[1.14905,51.79508],[1.1491,51.79518],[1.14871,51.79525]]]]}},
{ "type":"Feature","properties":{"osm_way_id":"161427310","name":"Tesco Express","building":"yes","shop":"supermarket","other":{"addr:city":"Great Bentley","addr:housename":"London House","addr:postcode":"CO7 8LA","addr:street":"Plough Road","brand":"Tesco Express","brand:wikidata":"Q98456772","brand:wikipedia":"en:Tesco","fhrs:id":"730932","operator":"Tesco Stores Ltd"}}, "geometry":{"type":"MultiPolygon","coordinates":[[[[1.06418,51.85265],[1.06423,51.85253],[1.06433,51.85253],[1.06449,51.85253],[1.06449,51.85261],[1.06433,51.85262],[1.06431,51.85267],[1.06418,51.85265]]]]}},
{ "type":"Feature","properties":{"osm_way_id":"174823717","name":"Co-Op Daily","building":"shop","shop":"supermarket","other":{"addr:city":"Frinton-on-Sea","addr:housenumber":"100-110","addr:postcode":"CO13 9PT","addr:street":"Connaught Avenue","fhrs:id":"611975","opening_hours":"Mo-Su 07:00-22:00","operator":"East of England Co-operative","source:building":"Bing"}}, "geometry":{"type":"MultiPolygon","coordinates":[[[[1.245,51.83394],[1.24514,51.83396],[1.24522,51.83363],[1.24507,51.83361],[1.245,51.83394]]]]}},
{ "type":"Feature","properties":{"osm_way_id":"185408364","name":"Co-op Food","building":"shop","shop":"supermarket","other":{"addr:city":"Brightlingsea","addr:housename":"Fiveways Superstore","addr:postcode":"CO7 0RN","addr:street":"Samsons Road","alt_name":"East of England Co-op Supermarket","brand":"Co-op Food","brand:wikidata":"Q3277439","brand:wikipedia":"en:Co-op Food","fhrs:id":"612205","operator":"East of England Co-operative Society Limited","source:building":"bing"}}, "geometry":{"type":"MultiPolygon","coordinates":[[[[1.02461,51.82184],[1.02442,51.82194],[1.02444,51.82196],[1.02429,51.82204],[1.02427,51.82202],[1.024,51.82216],[1.02371,51.82194],[1.02369,51.82195],[1.02358,51.82188],[1.0237,51.82181],[1.02372,51.82183],[1.02423,51.82156],[1.02461,51.82184]]]]}},
{ "type":"Feature","properties":{"osm_way_id":"190278264","name":"Co-op","building":"shop","shop":"supermarket","other":{"addr:city":"Dovercourt","addr:housenumber":"465","addr:postcode":"CO12 4HT","addr:street":"Main Road","fhrs:id":"612283","operator":"East of England Co-op","source:building":"Bing"}}, "geometry":{"type":"MultiPolygon","coordinates":[[[[1.25805,51.93313],[1.25786,51.93307],[1.25775,51.9331],[1.25776,51.93311],[1.25768,51.93313],[1.25765,51.93308],[1.25751,51.93311],[1.25766,51.93336],[1.25791,51.9333],[1.25805,51.93313]]]]}},
{ "type":"Feature","properties":{"osm_way_id":"191492834","name":"Co-Op Daily","building":"shop","shop":"supermarket","other":{"addr:city":"Walton-on-the-Naze","addr:housenumber":"74","addr:postcode":"CO14 8AF","addr:street":"High Street","branch":"Walton-on-the-Naze Foodstore","fhrs:id":"611895","opening_hours":"Mo-Su 07:00-22:00","operator":"East of England Co-operative","source:building":"Bing"}}, "geometry":{"type":"MultiPolygon","coordinates":[[[[1.27258,51.84934],[1.27278,51.84939],[1.27303,51.84945],[1.27301,51.84949],[1.27296,51.84956],[1.27251,51.84944],[1.27258,51.84934]]]]}},
{ "type":"Feature","properties":{"osm_way_id":"191715029","name":"Tesco Express","building":"shop","shop":"supermarket","other":{"addr:city":"Walton-on-the-Naze","addr:housenumber":"22","addr:postcode":"CO14 8BH","addr:street":"High Street","atm":"yes","branch":"Walton on the Naze Express","brand":"Tesco Express","brand:wikidata":"Q98456772","brand:wikipedia":"en:Tesco","opening_hours":"Mo-Su 06:00-23:00","operator":"Tesco Stores Ltd","source:building":"Bing"}}, "geometry":{"type":"MultiPolygon","coordinates":[[[[1.26986,51.84842],[1.26994,51.84828],[1.27007,51.8483],[1.27007,51.84833],[1.27022,51.84835],[1.27015,51.84853],[1.27011,51.84854],[1.26995,51.84851],[1.26998,51.84844],[1.26991,51.84843],[1.26986,51.84842]]]]}},
{ "type":"Feature","properties":{"osm_way_id":"198746771","name":"Co-Op Supermarket","building":"shop","shop":"supermarket","other":{"addr:city":"Frinton-on-Sea","addr:postcode":"CO13 0AU","addr:street":"Triangle Shopping Centre","branch":"East of England Co-op","fhrs:id":"612257","opening_hours":"Mo-Sa 07:00-20:00; Su 10:00-16:00","operator":"East of England Co-operative","source:building":"Bing"}}, "geometry":{"type":"MultiPolygon","coordinates":[[[[1.24883,51.84437],[1.24882,51.8444],[1.2484,51.84431],[1.24839,51.84434],[1.24825,51.84431],[1.24826,51.84428],[1.24825,51.84428],[1.24825,51.84427],[1.24822,51.84427],[1.24838,51.84398],[1.24897,51.84409],[1.24896,51.84412],[1.24904,51.84414],[1.249,51.84422],[1.24892,51.8442],[1.24883,51.84437]]]]}},
{ "type":"Feature","properties":{"osm_way_id":"198748519","name":"Iceland","building":"shop","shop":"supermarket","other":{"addr:city":"Frinton-on-Sea","addr:postcode":"CO13 0AU","addr:street":"Triangle Shopping Centre","branch":"Frinton","brand":"Iceland","brand:wikidata":"Q721810"}}, "geometry":{"type":"MultiPolygon","coordinates":[[[[1.24949,51.84384],[1.24957,51.8437],[1.24966,51.84371],[1.24987,51.84376],[1.24998,51.84378],[1.25007,51.8438],[1.25,51.84393],[1.24976,51.84388],[1.24976,51.84389],[1.24973,51.84389],[1.24949,51.84384]]]]}},
{ "type":"Feature","properties":{"osm_way_id":"242051196","name":"Aldi","building":"shop","shop":"supermarket","other":{"addr:city":"Clacton-on-Sea","addr:postcode":"CO15 1NJ","addr:street":"Pier Avenue","brand":"ALDI","brand:wikidata":"Q41171672","brand:wikipedia":"en:Aldi","fhrs:id":"658965","opening_hours":"Mo-Sa 08:00-22:00; Su 10:00-16:00"}}, "geometry":{"type":"MultiPolygon","coordinates":[[[[1.14837,51.79306],[1.14838,51.793],[1.14835,51.793],[1.14835,51.7928],[1.14868,51.7928],[1.14868,51.79283],[1.14919,51.79283],[1.14919,51.793],[1.14927,51.79299],[1.14926,51.79307],[1.14837,51.79306]]]]}},
{ "type":"Feature","properties":{"osm_way_id":"262058425","name":"Spar","building":"shop","shop":"supermarket","other":{"addr:city":"Brightlingsea","addr:housenumber":"20-21","addr:postcode":"CO7 0BX","addr:street":"Victoria Place","brand":"Spar","brand:wikidata":"Q610492","fhrs:id":"690710","source:building":"Bing"}}, "geometry":{"type":"MultiPolygon","coordinates":[[[[1.02433,51.81058],[1.0245,51.81052],[1.02446,51.81048],[1.02451,51.81047],[1.02442,51.81038],[1.02421,51.81047],[1.02433,51.81058]]]]}},
{ "type":"Feature","properties":{"osm_way_id":"447162975","name":"Asda","building":"retail","shop":"supermarket","other":{"addr:city":"Clacton-on-Sea","addr:country":"GB","addr:postcode":"CO15 3TH","addr:street":"Oxford Road","alt_name":"Asda Clacton-on-Sea","brand":"Asda","brand:wikidata":"Q297410","brand:wikipedia":"en:Asda","contact:facebook":"https:\/\/www.facebook.com\/asda\/","contact:phone":"+44 1255 258498","contact:twitter":"@asda","contact:website":"https:\/\/storelocator.asda.com\/east-of-england\/clacton-on-sea\/bull-hill-road","fhrs:id":"916602","not:addr:postcode":"CO15 4AU","opening_hours":"Mo-Sa 07:00-22:00; Su 10:00-16:00","operator":"Asda Stores Ltd"}}, "geometry":{"type":"MultiPolygon","coordinates":[[[[1.1585,51.80204],[1.15848,51.80202],[1.15842,51.80205],[1.15839,51.80202],[1.15828,51.80205],[1.15763,51.8013],[1.15858,51.80099],[1.15923,51.80173],[1.15857,51.80196],[1.15861,51.802],[1.1585,51.80204]]]]}},
{ "type":"Feature","properties":{"osm_way_id":"642121537","name":"Lidl","building":"shop","shop":"supermarket","other":{"addr:city":"Clacton-on-Sea","addr:housename":"Lidl","addr:postcode":"CO16 9FY","addr:street":"T Grove","brand":"Lidl","brand:wikidata":"Q151954","fhrs:id":"1106999","not:addr:postcode":"CO15 4EF","opening_hours":"Mo-Sa 08:00-22:00; Su 10:00-16:00"}}, "geometry":{"type":"MultiPolygon","coordinates":[[[[1.14384,51.81218],[1.1443,51.81162],[1.14384,51.81147],[1.14371,51.81164],[1.14376,51.81166],[1.14342,51.81208],[1.14372,51.81217],[1.14368,51.81221],[1.14379,51.81224],[1.14384,51.81218]]]]}},
{ "type":"Feature","properties":{"osm_way_id":"647259034","name":"Aldi","building":"shop","shop":"supermarket","other":{"brand":"ALDI","brand:wikidata":"Q41171672","brand:wikipedia":"en:Aldi"}}, "geometry":{"type":"MultiPolygon","coordinates":[[[[1.2661,51.84969],[1.26616,51.84946],[1.26617,51.84945],[1.26699,51.8495],[1.26695,51.8497],[1.2669,51.8497],[1.26689,51.84976],[1.2667,51.84975],[1.26668,51.84979],[1.26642,51.84977],[1.26643,51.84972],[1.2661,51.84969]]]]}},
{ "type":"Feature","properties":{"osm_way_id":"647259043","name":"M&S Foodhall","building":"shop","shop":"supermarket","other":{"addr:city":"Walton-on-the-Naze","addr:postcode":"CO14 8FT","addr:street":"Arthur Ransome Way","brand":"M&S Foodhall","brand:wikidata":"Q714491","brand:wikipedia":"en:Marks & Spencer"}}, "geometry":{"type":"MultiPolygon","coordinates":[[[[1.26613,51.85048],[1.26633,51.85025],[1.26636,51.85022],[1.26595,51.85008],[1.26571,51.85034],[1.26613,51.85048]]]]}},
{ "type":"Feature","properties":{"osm_way_id":"905251554","building":"semidetached_house","other":{"building:levels":"2","roof:shape":"gabled"}}, "geometry":{"type":"MultiPolygon","coordinates":[[[[-2.68411,53.72162],[-2.68419,53.72167],[-2.68425,53.72163],[-2.68416,53.72158],[-2.68411,53.72162]]]]}},
{ "type":"Feature","properties":{"osm_way_id":"972352361","name":"Aldi","building":"retail","shop":"supermarket","other":{"addr:city":"Eston, Middlesbrough","addr:street":"Trunk Road","brand":"ALDI","brand:wikidata":"Q41171672","brand:wikipedia":"en:Aldi","contact:website":"https:\/\/www.aldi.co.uk\/store\/s-uk-E1398"}}, "geometry":{"type":"MultiPolygon","coordinates":[[[[-1.15976,54.57289],[-1.16017,54.57331],[-1.15975,54.57345],[-1.15961,54.57331],[-1.15953,54.57334],[-1.15943,54.57323],[-1.15951,54.57321],[-1.15933,54.57303],[-1.15976,54.57289]]]]}},
{ "type":"Feature","properties":{"osm_way_id":"978765110","name":"Morrisons","building":"retail","shop":"supermarket","other":{"brand":"Morrisons","brand:wikidata":"Q922344","brand:wikipedia":"en:Morrisons"}}, "geometry":{"type":"MultiPolygon","coordinates":[[[[1.15096,51.81947],[1.15089,51.81913],[1.14992,51.81921],[1.14999,51.81954],[1.15096,51.81947]]]]}}
]
}
