{
"type": "FeatureCollection",
"features": [
{ "type":"Feature","properties":{"osm_id":"4296682476","name":"Heron Foods","other":{"addr:city":"South Shields","addr:country":"GB","addr:housenumber":"351,353","addr:postcode":"NE34 7LZ","addr:street":"Prince Edward Road","brand":"Heron Foods","brand:wikidata":"Q5743472","brand:wikipedia":"en:Heron Foods","contact:website":"https:\/\/heronfoods.com\/index.php\/storelocator\/store-details\/south-shields","fhrs:id":"191308","shop":"supermarket"}}, "geometry":{"type":"Point","coordinates":[-1.40699,54.9723 ]}},
{ "type":"Feature","properties":{"osm_id":"4314108086","name":"Tesco","other":{"addr:city":"South Shields","addr:county":"Tyne & Wear","addr:postcode":"NE34 9QD","addr:street":"Towers Place","brand":"Tesco","brand:wikidata":"Q487494","contact:website":"https:\/\/www.tesco.com\/store-locator\/south-shields\/towers-place","fhrs:id":"191709","shop":"supermarket"}}, "geometry":{"type":"Point","coordinates":[-1.46396,54.9703 ]}},
{ "type":"Feature","properties":{"osm_id":"4340875270","name":"Heron Foods","other":{"addr:city":"South Shields","addr:country":"GB","addr:housenumber":"10,12","addr:postcode":"NE33 5EA","addr:street":"Frederick Street","brand":"Heron Foods","brand:wikidata":"Q5743472","brand:wikipedia":"en:Heron Foods","contact:website":"https:\/\/heronfoods.com\/storelocator\/store-details\/frederick-street","fhrs:id":"191139","shop":"supermarket"}}, "geometry":{"type":"Point","coordinates":[-1.43753,54.98919 ]}},
{ "type":"Feature","properties":{"osm_id":"4340893739","name":"Zam Zam Superstore","other":{"addr:city":"South Shields","addr:street":"Frederick Street","shop":"supermarket"}}, "geometry":{"type":"Point","coordinates":[-1.43772,54.98851 ]}},
{ "type":"Feature","properties":{"osm_id":"4341134822","name":"Sainsbury's Local","other":{"addr:city":"South Shields","addr:street":"Stanhope Road","brand:wikidata":"Q13218434","shop":"supermarket"}}, "geometry":{"type":"Point","coordinates":[-1.43104,54.98195 ]}},
{ "type":"Feature","properties":{"osm_id":"4347001453","name":"Heron Foods","other":{"addr:city":"South Shields","addr:country":"GB","addr:housenumber":"19,18","addr:postcode":"NE33 1JF","addr:street":"Market Place","brand":"Heron Foods","brand:wikidata":"Q5743472","brand:wikipedia":"en:Heron Foods","contact:website":"https:\/\/heronfoods.com\/storelocator\/store-details\/market-place","fhrs:id":"191076","shop":"supermarket"}}, "geometry":{"type":"Point","coordinates":[-1.43817,54.99801 ]}},
{ "type":"Feature","properties":{"osm_id":"4355318106","name":"Asda","other":{"addr:city":"Hebburn","addr:country":"GB","addr:postcode":"NE31 1AA","addr:street":"Station Road","brand":"Asda","brand:wikidata":"Q297410","brand:wikipedia":"en:Asda","contact:facebook":"https:\/\/www.facebook.com\/asda\/","contact:twitter":"@asda","contact:website":"https:\/\/storelocator.asda.com\/north-east\/hebburn\/station-road","fhrs:id":"191766","opening_hours":"Mo-Sa 07:00-22:00; Su 10:00-16:00","operator":"Asda Stores Ltd","shop":"supermarket"}}, "geometry":{"type":"Point","coordinates":[-1.51949,54.97383 ]}},
{ "type":"Feature","properties":{"osm_id":"7679825907","name":"Heron Foods","other":{"addr:city":"Boldon Colliery","addr:country":"GB","addr:housenumber":"45,47","addr:postcode":"NE35 9AU","addr:street":"East View","brand":"Heron Foods","brand:wikidata":"Q5743472","brand:wikipedia":"en:Heron Foods","fhrs:id":"763777","shop":"supermarket"}}, "geometry":{"type":"Point","coordinates":[-1.46146,54.94826 ]}},
{ "type":"Feature","properties":{"osm_id":"8868405848","name":"Co-op Food","other":{"brand":"Co-op Food","brand:wikidata":"Q3277439","brand:wikipedia":"en:Co-op Food","shop":"supermarket"}}, "geometry":{"type":"Point","coordinates":[-1.36469,54.95065 ]}},
{ "type":"Feature","properties":{"osm_way_id":"32987744","name":"Aldi","building":"yes","shop":"supermarket","other":{"addr:city":"South Shields","addr:county":"Tyne & Wear","addr:postcode":"NE33 4HF","addr:street":"Chichester Road","brand":"ALDI","brand:wikidata":"Q41171672","brand:wikipedia":"en:Aldi","fhrs:id":"191010","opening_hours":"Mo-Sa 08:00-22:00; Su 10:00-16:00","source:addr":"FHRS Open Data"}}, "geometry":{"type":"MultiPolygon","coordinates":[[[[-1.43061,54.98989],[-1.43059,54.98991],[-1.43046,54.98987],[-1.43063,54.9897],[-1.43066,54.98971],[-1.43098,54.98942],[-1.43149,54.98959],[-1.43137,54.98971],[-1.43129,54.98968],[-1.43113,54.98984],[-1.43103,54.98993],[-1.43093,54.98989],[-1.43085,54.98998],[-1.43061,54.98989]]]]}},
{ "type":"Feature","properties":{"osm_way_id":"139031286","name":"Asda","building":"yes","shop":"supermarket","other":{"addr:city":"South Shields","addr:country":"GB","addr:housenumber":"15","addr:postcode":"NE33 1AZ","addr:street":"Coronation Street","brand":"Asda","brand:wikidata":"Q297410","brand:wikipedia":"en:Asda","contact:facebook":"https:\/\/www.facebook.com\/asda\/","contact:twitter":"@asda","contact:website":"https:\/\/storelocator.asda.com\/north-east\/south-shields\/coronation-street","fhrs:id":"191594","operator":"Asda Stores Ltd"}}, "geometry":{"type":"MultiPolygon","coordinates":[[[[-1.43679,54.99609],[-1.43666,54.99591],[-1.43646,54.99595],[-1.43615,54.9955],[-1.43633,54.99546],[-1.43628,54.99538],[-1.43723,54.99517],[-1.4374,54.99542],[-1.43764,54.99537],[-1.43769,54.99546],[-1.43781,54.99543],[-1.43792,54.99558],[-1.43781,54.99562],[-1.43795,54.99583],[-1.43779,54.99586],[-1.43766,54.99589],[-1.43768,54.99591],[-1.43759,54.99594],[-1.43761,54.99596],[-1.43727,54.99604],[-1.43724,54.996],[-1.4371,54.99604],[-1.43692,54.99608],[-1.43688,54.99607],[-1.43679,54.99609]]]]}},
{ "type":"Feature","properties":{"osm_way_id":"171044327","name":"Asda","building":"yes","shop":"supermarket","other":{"addr:city":"Boldon Colliery","addr:country":"GB","addr:postcode":"NE35 9AR","addr:street":"North Road","alt_name":"Asda Boldon","brand":"Asda","brand:wikidata":"Q297410","brand:wikipedia":"en:Asda","contact:facebook":"https:\/\/www.facebook.com\/asda\/","contact:phone":"+44 191 536 6300","contact:twitter":"@asda","contact:website":"https:\/\/storelocator.asda.com\/north-east\/newcastle-upon-tyne\/north-road-boldon-colliery","fhrs:id":"191743","int_name":"Walmart","opening_hours":"Mo 06:00-24:00; Tu-Fr 00:00-24:00; Sa 00:00-22:00; Su 10:00-16:00","operator":"Asda Stores Ltd","wheelchair":"yes"}}, "geometry":{"type":"MultiPolygon","coordinates":[[[[-1.46214,54.94842],[-1.46276,54.94825],[-1.4628,54.94831],[-1.46315,54.94822],[-1.46311,54.94816],[-1.4639,54.94795],[-1.46383,54.94787],[-1.4638,54.94783],[-1.46385,54.94782],[-1.46378,54.94773],[-1.46351,54.94741],[-1.46348,54.94737],[-1.46345,54.94738],[-1.46332,54.94722],[-1.46277,54.94737],[-1.46263,54.9472],[-1.46126,54.94757],[-1.46146,54.94781],[-1.46156,54.94779],[-1.46162,54.94787],[-1.46159,54.94788],[-1.4616,54.94789],[-1.46165,54.94788],[-1.46195,54.94824],[-1.46212,54.9482],[-1.46217,54.94826],[-1.46204,54.9483],[-1.46214,54.94842]]]]}},
{ "type":"Feature","properties":{"osm_way_id":"231926988","name":"Morrisons","building":"yes","shop":"supermarket","other":{"addr:city":"Jarrow","addr:housename":"Morrisons Jarrow","addr:housenumber":"20","addr:postcode":"NE32 3LQ","addr:street":"Viking Centre","alt_name":"Morrisons Jarrow","brand":"Morrisons","brand:wikidata":"Q922344","brand:wikipedia":"en:Morrisons","fhrs:id":"191744","opening_hours":"Mo-Sa 07:00-22:00; Su 10:00-16:00","operator":"Morrisons","phone":"+44 191 483 7404","website":"https:\/\/my.morrisons.com\/storefinder\/88","wheelchair":"yes"}}, "geometry":{"type":"MultiPolygon","coordinates":[[[[-1.48813,54.97973],[-1.48816,54.97978],[-1.48771,54.97985],[-1.48772,54.97988],[-1.48753,54.97991],[-1.48755,54.97996],[-1.48769,54.98036],[-1.48771,54.98041],[-1.48772,54.98043],[-1.48778,54.98047],[-1.48781,54.98048],[-1.48785,54.98048],[-1.48789,54.98049],[-1.48831,54.98042],[-1.48831,54.98041],[-1.48853,54.98038],[-1.48889,54.98033],[-1.48885,54.98024],[-1.48907,54.9802],[-1.48903,54.9801],[-1.48922,54.98007],[-1.48914,54.97991],[-1.48896,54.97994],[-1.4889,54.97981],[-1.48882,54.97983],[-1.4888,54.97978],[-1.48872,54.97979],[-1.4887,54.97974],[-1.48864,54.97975],[-1.48859,54.97966],[-1.48813,54.97973]]]]}},
{ "type":"Feature","properties":{"osm_way_id":"329139667","name":"Iceland","building":"yes","shop":"supermarket","other":{"addr:city":"South Shields","addr:postcode":"NE33 4HF","addr:street":"Chichester Road","brand":"Iceland","brand:wikidata":"Q721810","fhrs:id":"200750","opening_hours":"Mo-Sa 08:00-19:00; Su 10:00-16:00","operator":"Iceland"}}, "geometry":{"type":"MultiPolygon","coordinates":[[[[-1.43032,54.99031],[-1.43034,54.99035],[-1.43025,54.99036],[-1.43029,54.99044],[-1.43012,54.99048],[-1.42995,54.99051],[-1.42994,54.99049],[-1.42978,54.99052],[-1.42962,54.99055],[-1.42954,54.99041],[-1.4299,54.99034],[-1.42988,54.99031],[-1.4302,54.99025],[-1.43024,54.99032],[-1.43032,54.99031]]]]}},
{ "type":"Feature","properties":{"osm_way_id":"432535975","name":"Lidl","building":"yes","shop":"supermarket","other":{"addr:street":"Boldon Lane","brand":"Lidl","brand:wikidata":"Q151954","brand:wikipedia":"en:Lidl"}}, "geometry":{"type":"MultiPolygon","coordinates":[[[[-1.44049,54.97439],[-1.4411,54.97427],[-1.44095,54.97403],[-1.44087,54.97404],[-1.44064,54.97366],[-1.44012,54.97376],[-1.44049,54.97439]]]]}},
{ "type":"Feature","properties":{"osm_way_id":"433014404","name":"Co-op Food","building":"yes","shop":"supermarket","other":{"addr:city":"South Shields","addr:county":"Tyne & Wear","addr:housename":"Co-operative","addr:postcode":"NE34 0RU","addr:street":"Mortimer Road","brand":"Co-op Food","brand:wikidata":"Q3277439","brand:wikipedia":"en:Co-op Food","fhrs:id":"1026163","opening_hours":"Mo-Su 06:00-23:00","source:addr":"FHRS Open Data"}}, "geometry":{"type":"MultiPolygon","coordinates":[[[[-1.42282,54.98074],[-1.42294,54.98082],[-1.42301,54.98085],[-1.42308,54.98081],[-1.42309,54.98082],[-1.42321,54.98072],[-1.42307,54.98062],[-1.42282,54.98074]]]]}},
{ "type":"Feature","properties":{"osm_way_id":"436515837","name":"Lidl","building":"retail","shop":"supermarket","other":{"addr:city":"South Shields","addr:country":"GB","addr:housenumber":"193","addr:postcode":"NE33 5RG","addr:street":"Laygate","brand":"Lidl","brand:wikidata":"Q151954","brand:wikipedia":"en:Lidl","fhrs:id":"191478"}}, "geometry":{"type":"MultiPolygon","coordinates":[[[[-1.43577,54.98988],[-1.43593,54.98989],[-1.43594,54.98984],[-1.43623,54.98986],[-1.43629,54.98956],[-1.43634,54.98957],[-1.43638,54.9894],[-1.43632,54.98938],[-1.43632,54.98937],[-1.43588,54.98934],[-1.43577,54.98988]]]]}},
{ "type":"Feature","properties":{"osm_way_id":"436862105","name":"Morrisons","building":"yes","shop":"supermarket","other":{"addr:city":"South Shields","addr:postcode":"NE33 2AA","addr:street":"Ocean Road","brand":"Morrisons","brand:wikidata":"Q922344","brand:wikipedia":"en:Morrisons","building:material":"brick","fhrs:id":"191701","not:addr:postcode":"NE33 2HT","phone":"+44 191 456 9139","website":"https:\/\/my.morrisons.com\/storefinder\/389"}}, "geometry":{"type":"MultiPolygon","coordinates":[[[[-1.43023,54.99923],[-1.43018,54.99929],[-1.43061,54.99987],[-1.43136,54.99971],[-1.43094,54.99907],[-1.43023,54.99923]]]]}},
{ "type":"Feature","properties":{"osm_way_id":"437454396","name":"Heron Foods","building":"yes","shop":"supermarket","other":{"addr:city":"Jarrow","addr:housename":"Boldon Lad","addr:postcode":"NE32 4LQ","addr:street":"Hedworth Lane","brand":"Heron Foods","brand:wikidata":"Q5743472","brand:wikipedia":"en:Heron Foods","wheelchair":"yes"}}, "geometry":{"type":"MultiPolygon","coordinates":[[[[-1.47553,54.9565],[-1.4757,54.95659],[-1.47569,54.9566],[-1.47582,54.95667],[-1.47602,54.95655],[-1.47584,54.95646],[-1.47582,54.95647],[-1.47579,54.95646],[-1.47582,54.95644],[-1.47574,54.9564],[-1.47567,54.95644],[-1.47564,54.95643],[-1.47553,54.9565]]]]}},
{ "type":"Feature","properties":{"osm_way_id":"939970810","name":"Aldi","building":"yes","shop":"supermarket","other":{"brand":"ALDI","brand:wikidata":"Q41171672","brand:wikipedia":"en:Aldi","opening_hours":"Mo-Sa 08:00-22:00; Su 10:00-16:00"}}, "geometry":{"type":"MultiPolygon","coordinates":[[[[-1.52011,54.97415],[-1.51982,54.97394],[-1.52028,54.97374],[-1.52025,54.97372],[-1.52055,54.97358],[-1.52067,54.97368],[-1.52058,54.97372],[-1.52077,54.97386],[-1.52014,54.97414],[-1.52011,54.97415]]]]}}
]
}
