{
"type": "FeatureCollection",
"features": [
{ "type":"Feature","properties":{"osm_id":"3676412128","name":"Wool Warehouse","other":{"building":"warehouse"}}, "geometry":{"type":"Point","coordinates":[-1.51959,52.27707 ]}},
{ "type":"Feature","properties":{"osm_way_id":"56215830","building":"warehouse"},"geometry":{"type":"MultiPolygon","coordinates":[[[[-1.48059,52.36481],[-1.47885,52.36432],[-1.47909,52.364],[-1.47928,52.36405],[-1.47967,52.36353],[-1.4795,52.36348],[-1.47959,52.36337],[-1.47987,52.36345],[-1.4798,52.36355],[-1.48124,52.36396],[-1.48059,52.36481]]]]}},
{ "type":"Feature","properties":{"osm_way_id":"56215832","name":"Parcelforce","building":"warehouse"},"geometry":{"type":"MultiPolygon","coordinates":[[[[-1.47708,52.36376],[-1.47714,52.36369],[-1.47618,52.36341],[-1.47632,52.36323],[-1.47358,52.36243],[-1.47344,52.36261],[-1.47235,52.3623],[-1.47287,52.36163],[-1.47775,52.36305],[-1.47787,52.3629],[-1.47803,52.36295],[-1.47797,52.36303],[-1.47808,52.36306],[-1.47773,52.36351],[-1.47751,52.36344],[-1.47746,52.36351],[-1.47769,52.36357],[-1.47746,52.36387],[-1.47708,52.36376]]]]}},
{ "type":"Feature","properties":{"osm_way_id":"56216071","name":"Unipart Logistics - Baginton A","building":"warehouse"},"geometry":{"type":"MultiPolygon","coordinates":[[[[-1.4703,52.37144],[-1.46999,52.37139],[-1.46993,52.3715],[-1.46976,52.37147],[-1.46982,52.37135],[-1.4685,52.37111],[-1.46923,52.36955],[-1.47078,52.36982],[-1.47066,52.37006],[-1.47093,52.37011],[-1.4703,52.37144]]]]}},
{ "type":"Feature","properties":{"osm_way_id":"57035988","name":"Trust Pet Products","building":"warehouse","other":{"addr:city":"Warwick","addr:postcode":"CV34 5QF","addr:street":"Broxell Close","industry":"pet_food"}}, "geometry":{"type":"MultiPolygon","coordinates":[[[[-1.60179,52.29118],[-1.60032,52.29149],[-1.60021,52.29131],[-1.60169,52.29099],[-1.60179,52.29118]]]]}},
{ "type":"Feature","properties":{"osm_way_id":"114274314","name":"Montague Storage","amenity":"selfstorage","building":"warehouse","other":{"addr:city":"Warwick","addr:postcode":"CV34 5LW","addr:street":"Montague Road","website":"https:\/\/www.montaguestorage.co.uk\/"}}, "geometry":{"type":"MultiPolygon","coordinates":[[[[-1.57446,52.29043],[-1.57466,52.29016],[-1.57523,52.29032],[-1.57471,52.29049],[-1.57446,52.29043]]]]}},
{ "type":"Feature","properties":{"osm_way_id":"647325327","building":"warehouse"},"geometry":{"type":"MultiPolygon","coordinates":[[[[-1.5267,52.25396],[-1.52639,52.25386],[-1.52681,52.25337],[-1.52713,52.25347],[-1.5267,52.25396]]]]}},
{ "type":"Feature","properties":{"osm_way_id":"647325332","building":"warehouse"},"geometry":{"type":"MultiPolygon","coordinates":[[[[-1.52788,52.2538],[-1.52755,52.25368],[-1.52795,52.25325],[-1.52828,52.25337],[-1.52788,52.2538]]]]}},
{ "type":"Feature","properties":{"osm_way_id":"647325340","building":"warehouse"},"geometry":{"type":"MultiPolygon","coordinates":[[[[-1.52864,52.25463],[-1.52752,52.25424],[-1.52784,52.2539],[-1.52878,52.25423],[-1.52864,52.25439],[-1.5288,52.25444],[-1.52864,52.25463]]]]}},
{ "type":"Feature","properties":{"osm_way_id":"647325343","building":"warehouse"},"geometry":{"type":"MultiPolygon","coordinates":[[[[-1.52905,52.25421],[-1.52797,52.25383],[-1.52828,52.2535],[-1.52936,52.25387],[-1.52905,52.25421]]]]}},
{ "type":"Feature","properties":{"osm_way_id":"1014105522","building":"warehouse"},"geometry":{"type":"MultiPolygon","coordinates":[[[[-1.52755,52.25368],[-1.52718,52.25355],[-1.52759,52.25312],[-1.52795,52.25325],[-1.52755,52.25368]]]]}}
]
}
