{
"type": "FeatureCollection",
"features": [
{ "type":"Feature","properties":{"osm_id":"316073132","name":"Spar","other":{"addr:city":"Hollywood","addr:housenumber":"8","addr:postcode":"B47 5HD","addr:street":"Drakes Cross Parade","brand":"Spar","brand:wikidata":"Q610492","brand:wikipedia":"en:SPAR (retailer)","fhrs:id":"840327","opening_hours":"Mo-Su 07:00-22:00","phone":"+44 1564 824252","shop":"supermarket","website":"https:\/\/www.spar.co.uk\/store-locator\/afb18544-spar-drakes-cross"}}, "geometry":{"type":"Point","coordinates":[-1.8836,52.38558 ]}},
{ "type":"Feature","properties":{"osm_id":"317065718","name":"The Co-operative Food","other":{"shop":"supermarket","operator":"The Co-operative Group","addr:city":"Birmingham","addr:street":"New Road","addr:postcode":"B45 9JA","opening_hours":"Mo-Sa 07:00-22:00; Su 10:00-16:00","addr:housenumber":"182A"}}, "geometry":{"type":"Point","coordinates":[-2.0172,52.39343 ]}},
{ "type":"Feature","properties":{"osm_id":"317065770","name":"Costcutter","other":{"addr:city":"Birmingham","addr:housenumber":"149","addr:postcode":"B45 9JW","addr:street":"New Road","brand":"Costcutter","brand:wikidata":"Q5175072","brand:wikipedia":"en:Costcutter","opening_hours":"Mo-Sa 08:30-21:00; Su 10:00-16:00","shop":"supermarket"}}, "geometry":{"type":"Point","coordinates":[-2.01922,52.39352 ]}},
{ "type":"Feature","properties":{"osm_id":"318806846","name":"Costcutter","other":{"brand":"Costcutter","brand:wikidata":"Q5175072","brand:wikipedia":"en:Costcutter","shop":"supermarket"}}, "geometry":{"type":"Point","coordinates":[-2.02526,52.39741 ]}},
{ "type":"Feature","properties":{"osm_id":"2625215165","name":"Poundland","other":{"shop":"supermarket","addr:city":"Bromsgrove","addr:street":"High Street","addr:postcode":"B61 8AJ","opening_hours":"Mo-Sa 08:00-18:00; Su 10:00-16:00","addr:housenumber":"37-41"}}, "geometry":{"type":"Point","coordinates":[-2.06142,52.33455 ]}},
{ "type":"Feature","properties":{"osm_id":"3078863204","name":"Harrisons","other":{"shop":"supermarket"}}, "geometry":{"type":"Point","coordinates":[-2.01746,52.39336 ]}},
{ "type":"Feature","properties":{"osm_way_id":"54510515","name":"Asda","building":"yes","shop":"supermarket","other":{"brand":"Asda","fhrs:id":"684363","alt_name":"ASDA Bromsgrove Superstore","operator":"Asda Stores Ltd","addr:street":"Market Street","addr:country":"GB","addr:postcode":"B61 8DA","opening_hours":"Mo-Sa 08:00-21:00; Su 10:00-16:00","brand:wikidata":"Q297410","brand:wikipedia":"en:Asda","contact:twitter":"@asda","contact:website":"https:\/\/storelocator.asda.com\/west-midlands\/bromsgrove\/21-market-street","addr:housenumber":"21","contact:facebook":"https:\/\/www.facebook.com\/asda\/"}}, "geometry":{"type":"MultiPolygon","coordinates":[[[[-2.06268,52.33645],[-2.06206,52.33621],[-2.062,52.33627],[-2.06173,52.33616],[-2.06177,52.33611],[-2.06158,52.33603],[-2.06157,52.336],[-2.0618,52.33577],[-2.06185,52.33576],[-2.06206,52.33558],[-2.06211,52.33556],[-2.06215,52.33558],[-2.0622,52.33554],[-2.0629,52.33582],[-2.06276,52.33596],[-2.0631,52.33606],[-2.06268,52.33645]]]]}},
{ "type":"Feature","properties":{"osm_way_id":"54510516","name":"Morrisons","building":"yes","shop":"supermarket","other":{"addr:city":"Bromsgrove","addr:country":"GB","addr:postcode":"B60 3EX","addr:street":"Buntsford Park Road","brand":"Morrisons","brand:wikidata":"Q922344","brand:wikipedia":"en:Morrisons"}}, "geometry":{"type":"MultiPolygon","coordinates":[[[[-2.06594,52.31694],[-2.06578,52.31701],[-2.0657,52.31694],[-2.06559,52.31685],[-2.06573,52.31677],[-2.06552,52.31661],[-2.06446,52.31708],[-2.06481,52.31737],[-2.06507,52.31758],[-2.06613,52.31709],[-2.06594,52.31694]]]]}},
{ "type":"Feature","properties":{"osm_way_id":"54513845","name":"ALDI","building":"yes","shop":"supermarket","other":{"brand":"ALDI","brand:wikidata":"Q41171672","brand:wikipedia":"en:Aldi"}}, "geometry":{"type":"MultiPolygon","coordinates":[[[[-2.06301,52.31824],[-2.06292,52.31819],[-2.06294,52.31817],[-2.06271,52.31804],[-2.06249,52.31818],[-2.06253,52.3182],[-2.0621,52.31848],[-2.06214,52.3185],[-2.06239,52.31864],[-2.0625,52.31857],[-2.06247,52.31856],[-2.0628,52.31835],[-2.06282,52.31836],[-2.06301,52.31824]]]]}},
{ "type":"Feature","properties":{"osm_way_id":"54871674","name":"Lidl","building":"retail","shop":"supermarket","other":{"addr:country":"GB","addr:housename":"Bromsgrove Retail Park","addr:housenumber":"54","addr:postcode":"B61 0DD","addr:street":"Birmingham Road","addr:unit":"3","brand":"Lidl","brand:wikidata":"Q151954","brand:wikipedia":"en:Lidl","fhrs:id":"1038067","opening_hours":"Mo-Sa 08:00-22:00; Dec 25 off; Su 10:00-16:00","toilets":"no","wheelchair":"yes"}}, "geometry":{"type":"MultiPolygon","coordinates":[[[[-2.05571,52.33824],[-2.05463,52.33847],[-2.05445,52.33818],[-2.05552,52.33796],[-2.05571,52.33824]]]]}},
{ "type":"Feature","properties":{"osm_way_id":"67548859","name":"Sainsbury's","building":"retail","shop":"supermarket","other":{"addr:city":"Birmingham","addr:housenumber":"1059-1061","addr:postcode":"B14 5TN","addr:street":"Alcester Road South","brand":"Sainsbury's","brand:wikidata":"Q152096","brand:wikipedia":"en:Sainsbury's","fhrs:id":"598614","opening_hours":"Mo-Sa 08:00-20:00; Su 10:00-16:00","phone":"+44 121 474 3102","website":"https:\/\/stores.sainsburys.co.uk\/0545\/maypole","wheelchair":"yes"}}, "geometry":{"type":"MultiPolygon","coordinates":[[[[-1.88598,52.40403],[-1.88605,52.40409],[-1.88608,52.40416],[-1.88618,52.40434],[-1.88598,52.40403]]]]}},
{ "type":"Feature","properties":{"osm_way_id":"132713578","name":"Jack's","building":"yes","shop":"supermarket","other":{"brand":"Jack's","brand:wikidata":"Q60741213","brand:wikipedia":"en:Jack's (store)"}}, "geometry":{"type":"MultiPolygon","coordinates":[[[[-2.01484,52.39439],[-2.01462,52.39419],[-2.01484,52.39439]]]]}},
{ "type":"Feature","properties":{"osm_way_id":"217972678","building":"house","other":{"addr:street":"Coach Cottages","addr:housenumber":"5"}}, "geometry":{"type":"MultiPolygon","coordinates":[[[[-1.98942,52.36099],[-1.98931,52.36098],[-1.98929,52.36102],[-1.98941,52.36104],[-1.98942,52.36099]]]]}},
{ "type":"Feature","properties":{"osm_way_id":"224737619","name":"Co-op Food","building":"retail","shop":"supermarket","other":{"addr:city":"Alvechurch","addr:housenumber":"25","addr:postcode":"B48 7LA","addr:street":"The Square","brand":"Co-op Food","brand:wikidata":"Q3277439","brand:wikipedia":"en:Co-op Food","fhrs:id":"684447","operator":"The Co-operative Group","operator:wikidata":"Q117202","operator:wikipedia":"en:The Co-operative Group","wheelchair":"yes"}}, "geometry":{"type":"MultiPolygon","coordinates":[[[[-1.95905,52.35242],[-1.95903,52.35243],[-1.959,52.35241],[-1.95888,52.35233],[-1.95907,52.35222],[-1.95915,52.35226],[-1.95923,52.35231],[-1.95905,52.35242]]]]}},
{ "type":"Feature","properties":{"osm_way_id":"324887044","name":"The Food Warehouse","building":"retail","shop":"supermarket","other":{"addr:postcode":"B61 0DD","addr:street":"Birmingham Road","brand":"The Food Warehouse","brand:wikidata":"Q87263899"}}, "geometry":{"type":"MultiPolygon","coordinates":[[[[-2.05476,52.33863],[-2.0543,52.33837],[-2.05408,52.33852],[-2.05421,52.33859],[-2.05454,52.33878],[-2.05476,52.33863]]]]}},
{ "type":"Feature","properties":{"osm_way_id":"538373522","name":"Waitrose","building":"supermarket","shop":"supermarket","other":{"addr:postcode":"B61 8RR","addr:street":"St John Street","brand":"Waitrose","brand:wikidata":"Q771734","brand:wikipedia":"en:Waitrose","official_name":"Waitrose & Partners","opening_hours":"Mo-Sa 07:00-22:00; Su 11:00-17:00","operator":"Waitrose & Partners","phone":"+44 1527 876189","website":"https:\/\/www.waitrose.com\/bf_home\/bf\/877.html","wheelchair":"yes"}}, "geometry":{"type":"MultiPolygon","coordinates":[[[[-2.06453,52.33324],[-2.06424,52.33317],[-2.06426,52.33315],[-2.06421,52.33314],[-2.06433,52.33294],[-2.06441,52.33295],[-2.06444,52.33291],[-2.06463,52.33295],[-2.06461,52.33299],[-2.06467,52.333],[-2.06453,52.33324]]]]}},
{ "type":"Feature","properties":{"osm_way_id":"901629545","name":"ALDI","building":"yes","shop":"supermarket","other":{"addr:city":"Bromsgrove","addr:postcode":"B61 0DR","addr:street":"Birmingham Road","brand":"ALDI","brand:wikidata":"Q41171672","brand:wikipedia":"en:Aldi","opening_hours":"Mo-Sa 08:00-22:00; Su 10:00-16:00","start_date":"2018-08-09"}}, "geometry":{"type":"MultiPolygon","coordinates":[[[[-2.05794,52.33883],[-2.05773,52.33884],[-2.05774,52.33888],[-2.05746,52.33888],[-2.05746,52.33882],[-2.05706,52.33883],[-2.05706,52.33876],[-2.05712,52.33876],[-2.05711,52.33855],[-2.05793,52.33855],[-2.05794,52.33883]]]]}}
]
}
