{
"type": "FeatureCollection",
"features": [
{ "type":"Feature","properties":{"osm_id":"370652797","name":"Co-op","other":{"addr:city":"Cramlington","addr:county":"Northumberland","addr:postcode":"NE23 7RG","fhrs:id":"466031","opening_hours":"24\/7","operator":"The Co-operative Group","shop":"supermarket","website":"https:\/\/finder.coop.co.uk\/food\/store\/NE23-7QA\/moorfarm-roundabout"}}, "geometry":{"type":"Point","coordinates":[-1.57969,55.06517 ]}},
{ "type":"Feature","properties":{"osm_id":"574910006","name":"Coop","other":{"addr:city":"Bedlington","addr:street":"Station Road","shop":"supermarket"}}, "geometry":{"type":"Point","coordinates":[-1.56985,55.13936 ]}},
{ "type":"Feature","properties":{"osm_id":"1189859940","name":"The Co-operative Food","other":{"addr:city":"Lynemouth","addr:county":"Northumberland","addr:housenumber":"6","addr:postcode":"NE61 5TS","addr:street":"West Market Street","fhrs:id":"286712","operator":"The Co-operative Group","shop":"supermarket"}}, "geometry":{"type":"Point","coordinates":[-1.53681,55.21262 ]}},
{ "type":"Feature","properties":{"osm_id":"1630542868","name":"The Co-operative Food","other":{"addr:city":"Widdrington Station","addr:county":"Northumberland","addr:postcode":"NE61 5ND","addr:street":"Grangemoor Road","brand":"The Co-operative Food","brand:wikidata":"Q3277439","brand:wikipedia":"en:Co-op Food","fhrs:id":"286003","operator":"The Co-operative Group","shop":"supermarket"}}, "geometry":{"type":"Point","coordinates":[-1.61726,55.24123 ]}},
{ "type":"Feature","properties":{"osm_id":"1910275085","name":"Green Shop","other":{"addr:city":"Berwick-Upon-Tweed","addr:county":"Northumberland","addr:housenumber":"30","addr:postcode":"TD15 1AQ","addr:street":"Bridge Street","fhrs:id":"285983","organic":"only","shop":"supermarket","wikidata":"Q26652422"}}, "geometry":{"type":"Point","coordinates":[-2.00417,55.76829 ]}},
{ "type":"Feature","properties":{"osm_id":"1991656119","name":"Co-op Food","other":{"addr:city":"Ponteland","addr:county":"Northumberland","addr:housenumber":"15","addr:postcode":"NE20 9PW","addr:street":"Broadway","atm":"yes","brand":"Co-op Food","brand:wikidata":"Q3277439","brand:wikipedia":"en:Co-op Food","fhrs:id":"287728","opening_hours":"Mo-Su 07:00-22:00","shop":"supermarket"}}, "geometry":{"type":"Point","coordinates":[-1.76482,55.03645 ]}},
{ "type":"Feature","properties":{"osm_id":"2371106912","name":"The Co-operative Food","other":{"addr:city":"Rothbury","addr:county":"Northumberland","addr:postcode":"NE65 7TB","addr:street":"High Street","fhrs:id":"288346","operator":"The Co-operative Group","shop":"supermarket"}}, "geometry":{"type":"Point","coordinates":[-1.91208,55.30979 ]}},
{ "type":"Feature","properties":{"osm_id":"3670607954","name":"Heron Foods","other":{"addr:city":"Amble","addr:county":"Northumberland","addr:housenumber":"70-76","addr:postcode":"NE65 0DD","addr:street":"Queen Street","brand":"Heron Foods","brand:wikidata":"Q5743472","brand:wikipedia":"en:Heron Foods","contact:website":"https:\/\/heronfoods.com\/index.php\/storelocator\/store-details\/huyton","fhrs:id":"288282","shop":"supermarket"}}, "geometry":{"type":"Point","coordinates":[-1.58335,55.33388 ]}},
{ "type":"Feature","properties":{"osm_id":"4321222080","name":"Heron Foods","other":{"addr:city":"Blyth","addr:county":"Northumberland","addr:housenumber":"41","addr:postcode":"NE24 1BW","addr:street":"Waterloo Road","brand":"Heron Foods","brand:wikidata":"Q5743472","brand:wikipedia":"en:Heron Foods","contact:website":"https:\/\/heronfoods.com\/storelocator\/store-details\/blyth","fhrs:id":"288923","shop":"supermarket"}}, "geometry":{"type":"Point","coordinates":[-1.50964,55.12674 ]}},
{ "type":"Feature","properties":{"osm_id":"4324882985","name":"Springways","other":{"addr:city":"Blyth","addr:country":"GB","addr:county":"Northumberland","addr:housenumber":"56","addr:postcode":"NE24 1LT","addr:street":"Regent Street","fhrs:id":"288605","shop":"supermarket"}}, "geometry":{"type":"Point","coordinates":[-1.51088,55.12893 ]}},
{ "type":"Feature","properties":{"osm_id":"4330780594","name":"Spar","other":{"addr:city":"Bedlington","addr:county":"Northumberland","addr:housenumber":"37","addr:postcode":"NE22 5PP","addr:street":"Station Road","brand":"Spar","brand:wikidata":"Q610492","fhrs:id":"287794","shop":"supermarket"}}, "geometry":{"type":"Point","coordinates":[-1.57303,55.1385 ]}},
{ "type":"Feature","properties":{"osm_id":"4492725229","name":"Heron Foods","other":{"addr:city":"Prudhoe","addr:county":"Northumberland","addr:housenumber":"8a","addr:postcode":"NE42 5HJ","addr:street":"Front Street","brand":"Heron Foods","brand:wikidata":"Q5743472","brand:wikipedia":"en:Heron Foods","fhrs:id":"286471","shop":"supermarket","source:addr":"FHRS Open Data"}}, "geometry":{"type":"Point","coordinates":[-1.84997,54.96163 ]}},
{ "type":"Feature","properties":{"osm_id":"4841364101","name":"Londis Shop and Post Office","other":{"addr:city":"Holywell","addr:postcode":"NE25 0ND","addr:street":"Laurel Terrace","operator":"Londis","shop":"supermarket"}}, "geometry":{"type":"Point","coordinates":[-1.50885,55.06503 ]}},
{ "type":"Feature","properties":{"osm_id":"4867752760","name":"Humshaugh Village Shop","other":{"shop":"supermarket"}}, "geometry":{"type":"Point","coordinates":[-2.128,55.0376 ]}},
{ "type":"Feature","properties":{"osm_id":"6203681677","name":"Broadway Supermarket","other":{"addr:city":"Blyth","addr:county":"Northumberland","addr:housenumber":"9","addr:postcode":"NE24 2PG","addr:street":"Broadway Circle","fhrs:id":"288891","shop":"supermarket"}}, "geometry":{"type":"Point","coordinates":[-1.51616,55.12267 ]}},
{ "type":"Feature","properties":{"osm_id":"7248308629","name":"Iceland","other":{"addr:city":"Cramlington","addr:county":"Northumberland","addr:postcode":"NE23 6QW","addr:unit":"Manor Walks Shopping Centre","brand":"Iceland","brand:wikidata":"Q721810","fhrs:id":"285932","shop":"supermarket"}}, "geometry":{"type":"Point","coordinates":[-1.59108,55.08578 ]}},
{ "type":"Feature","properties":{"osm_id":"7633575769","name":"Co-op Food","other":{"addr:city":"Alnwick","addr:county":"Northumberland","addr:housenumber":"48","addr:postcode":"NE66 1JD","addr:street":"Bondgate Within","branch":"Alnwick - Bondgate","brand":"Co-op Food","brand:wikidata":"Q3277439","brand:wikipedia":"en:Co-op Food","fhrs:id":"286137","opening_hours":"Mo-Su 07:00-22:00","shop":"supermarket","wikidata":"Q26590165"}}, "geometry":{"type":"Point","coordinates":[-1.70659,55.41388 ]}},
{ "type":"Feature","properties":{"osm_id":"9434502316","name":"Lakes and Dales Co-operative","other":{"addr:housename":"Delaval House","addr:postcode":"NE25 0DS","addr:street":"Avenue Road","brand:wikidata":"Q110620660","fhrs:id":"289186","shop":"supermarket"}}, "geometry":{"type":"Point","coordinates":[-1.52503,55.07252 ]}},
{ "type":"Feature","properties":{"osm_way_id":"24422485","name":"Asda","building":"retail","shop":"supermarket","other":{"addr:city":"Blyth","addr:country":"GB","addr:county":"Northumberland","addr:postcode":"NE24 4LZ","addr:street":"Cowpen Road","brand":"Asda","brand:wikidata":"Q297410","brand:wikipedia":"en:Asda","contact:facebook":"https:\/\/www.facebook.com\/asda\/","contact:twitter":"@asda","contact:website":"https:\/\/storelocator.asda.com\/north-east\/blyth\/cowpen-road","fhrs:id":"287667","operator":"Asda Stores Ltd"}}, "geometry":{"type":"MultiPolygon","coordinates":[[[[-1.55576,55.12752],[-1.5554,55.12756],[-1.55542,55.12761],[-1.55479,55.12769],[-1.55475,55.12759],[-1.55463,55.12761],[-1.55453,55.12735],[-1.55445,55.12736],[-1.55433,55.12704],[-1.55425,55.12705],[-1.55416,55.12682],[-1.55424,55.1268],[-1.55422,55.12676],[-1.55436,55.12674],[-1.55432,55.12663],[-1.55506,55.12654],[-1.55509,55.12661],[-1.55524,55.12659],[-1.55527,55.12664],[-1.55534,55.12663],[-1.55548,55.12661],[-1.55556,55.1266],[-1.55565,55.12682],[-1.55573,55.12703],[-1.55556,55.12705],[-1.55565,55.12727],[-1.55572,55.12726],[-1.55578,55.12741],[-1.55572,55.12741],[-1.55576,55.12752]]]]}},
{ "type":"Feature","properties":{"osm_way_id":"26935440","name":"Asda","building":"retail","shop":"supermarket","other":{"addr:city":"Cramlington","addr:country":"GB","addr:county":"Northumberland","addr:postcode":"NE23 6QW","addr:unit":"Manor Walks Shopping Centre","brand":"Asda","brand:wikidata":"Q297410","brand:wikipedia":"en:Asda","contact:facebook":"https:\/\/www.facebook.com\/asda\/","contact:twitter":"@asda","contact:website":"https:\/\/storelocator.asda.com\/north-east\/cramlington\/manor-walks-shopping-centre","fhrs:id":"289045","operator":"Asda Stores Ltd"}}, "geometry":{"type":"MultiPolygon","coordinates":[[[[-1.59235,55.0864],[-1.59235,55.08581],[-1.59229,55.08578],[-1.59188,55.08578],[-1.5914,55.08578],[-1.5914,55.08587],[-1.5914,55.0864],[-1.59235,55.0864]]]]}},
{ "type":"Feature","properties":{"osm_way_id":"46614066","name":"Allendale Co-operative Society","building":"retail","shop":"supermarket","other":{"addr:city":"Allendale","addr:country":"GB","addr:county":"Northumberland","addr:postcode":"NE47 9BD","addr:street":"Market Place","brand":"Co-op Food","brand:wikidata":"Q3277439","brand:wikipedia":"en:Co-op Food","contact:facebook":"https:\/\/www.facebook.com\/Allendale-Co-operative-Society-Ltd-470241973049146\/","contact:website":"http:\/\/allendalecoop.co.uk\/","fhrs:id":"287308","opening_hours":"Mo-Fr 08:30-19:00; Sa 08:30-17:00","operator":"Allendale Co-operative Society Ltd"}}, "geometry":{"type":"MultiPolygon","coordinates":[[[[-2.25417,54.89756],[-2.254,54.89765],[-2.25392,54.89769],[-2.25398,54.89773],[-2.25414,54.89765],[-2.25423,54.89771],[-2.25433,54.89765],[-2.25435,54.89766],[-2.25448,54.89759],[-2.25431,54.89749],[-2.25428,54.8975],[-2.25417,54.89756]]]]}},
{ "type":"Feature","properties":{"osm_way_id":"62119867","name":"The Co-operative Food","building":"yes","shop":"supermarket","other":{"addr:city":"Prudhoe","addr:county":"Northumberland","addr:postcode":"NE42 5HF","addr:street":"Oakfield Terrace","brand":"The Co-operative Food","brand:wikidata":"Q3277439","brand:wikipedia":"en:Co-op Food","fhrs:id":"286935"}}, "geometry":{"type":"MultiPolygon","coordinates":[[[[-1.85071,54.96116],[-1.85042,54.9612],[-1.85009,54.96122],[-1.84997,54.96094],[-1.85089,54.96083],[-1.85097,54.96103],[-1.85103,54.96103],[-1.85107,54.96114],[-1.85108,54.96116],[-1.85102,54.96117],[-1.85103,54.96119],[-1.85099,54.96119],[-1.851,54.96123],[-1.85086,54.96125],[-1.85084,54.96121],[-1.85073,54.96123],[-1.85071,54.96116]]]]}},
{ "type":"Feature","properties":{"osm_way_id":"67660446","name":"Spar","building":"yes","shop":"supermarket","other":{"brand":"Spar","brand:wikidata":"Q610492","building:roof:shape":"flat","building:use":"retail","height":"4 m","wheelchair":"yes"}}, "geometry":{"type":"MultiPolygon","coordinates":[[[[-1.93546,55.6861],[-1.93563,55.68607],[-1.93572,55.68618],[-1.93581,55.68616],[-1.93589,55.68628],[-1.93553,55.68636],[-1.93539,55.68617],[-1.9355,55.68615],[-1.93546,55.6861]]]]}},
{ "type":"Feature","properties":{"osm_way_id":"78274339","name":"Lidl Ashington","building":"retail","shop":"supermarket","other":{"addr:city":"Ashington","addr:county":"Northumberland","addr:postcode":"NE63 9AQ","addr:street":"Woodhorn Road Back","brand":"Lidl","brand:wikidata":"Q151954","brand:wikipedia":"en:Lidl","fhrs:id":"288063"}}, "geometry":{"type":"MultiPolygon","coordinates":[[[[-1.56614,55.18569],[-1.56606,55.18552],[-1.56601,55.18541],[-1.56709,55.18525],[-1.56713,55.18535],[-1.56705,55.18536],[-1.56711,55.1855],[-1.56641,55.18561],[-1.56643,55.18565],[-1.56614,55.18569]]]]}},
{ "type":"Feature","properties":{"osm_way_id":"78274343","name":"The Original Factory Shop","building":"retail","shop":"supermarket","other":{"addr:city":"Ashington","addr:county":"Northumberland","addr:postcode":"NE63 9AQ","addr:street":"Woodhorn Road Back","brand:wikidata":"Q7755366","fhrs:id":"286344"}}, "geometry":{"type":"MultiPolygon","coordinates":[[[[-1.56696,55.18572],[-1.56732,55.18567],[-1.56749,55.18604],[-1.56713,55.1861],[-1.56696,55.18572]]]]}},
{ "type":"Feature","properties":{"osm_way_id":"87764062","name":"Sainsbury's","building":"yes","shop":"supermarket","other":{"addr:city":"Cramlington","addr:county":"Northumberland","addr:postcode":"NE23 6YD","addr:unit":"Forum Way","brand":"Sainsbury's","brand:wikidata":"Q152096","brand:wikipedia":"en:Sainsbury's","fhrs:id":"430483;289106","opening_hours":"Mo-Sa 07:00-23:00; Su 10:00-16:00; PH off"}}, "geometry":{"type":"MultiPolygon","coordinates":[[[[-1.5867,55.08549],[-1.5867,55.086],[-1.58661,55.08605],[-1.58671,55.08612],[-1.58681,55.08607],[-1.58755,55.08607],[-1.58774,55.08607],[-1.58781,55.08607],[-1.58795,55.086],[-1.58796,55.08586],[-1.58796,55.08549],[-1.5867,55.08549]]]]}},
{ "type":"Feature","properties":{"osm_way_id":"97373347","name":"The Cooperative Food North Seaton","building":"retail","shop":"supermarket","other":{"addr:city":"North Seaton","addr:housenumber":"8","addr:postcode":"NE63 0XE","addr:street":"Newbiggin Road","fhrs:id":"1367261"}}, "geometry":{"type":"MultiPolygon","coordinates":[[[[-1.54712,55.17076],[-1.54696,55.17077],[-1.54688,55.17048],[-1.54704,55.17046],[-1.54712,55.17076]]]]}},
{ "type":"Feature","properties":{"osm_way_id":"97462914","name":"Aldi","building":"retail","shop":"supermarket","other":{"addr:city":"Ashington","addr:county":"Northumberland","addr:postcode":"NE63 8QG","addr:street":"Morpeth Road","brand":"ALDI","brand:wikidata":"Q41171672","brand:wikipedia":"en:Aldi","fhrs:id":"286439"}}, "geometry":{"type":"MultiPolygon","coordinates":[[[[-1.58767,55.18556],[-1.58763,55.18529],[-1.58667,55.18533],[-1.58671,55.1856],[-1.58694,55.18559],[-1.58767,55.18556]]]]}},
{ "type":"Feature","properties":{"osm_way_id":"98320294","name":"Co-op","building":"shop","shop":"supermarket"},"geometry":{"type":"MultiPolygon","coordinates":[[[[-1.57602,55.16341],[-1.57577,55.16338],[-1.57577,55.1633],[-1.57601,55.1633],[-1.57602,55.16341]]]]}},
{ "type":"Feature","properties":{"osm_way_id":"99579563","name":"Co-op","building":"shop","shop":"supermarket","other":{"addr:city":"Newbiggin by the Sea","addr:housenumber":"85-87","addr:postcode":"NE64 6AD","addr:street":"Front Street","fhrs:id":"288628","opening_hours":"Mo-Su 07:00-22:00","operator":"The Co-operative Group"}}, "geometry":{"type":"MultiPolygon","coordinates":[[[[-1.50927,55.1858],[-1.50918,55.18574],[-1.50886,55.18554],[-1.50908,55.18543],[-1.50936,55.18561],[-1.50941,55.18558],[-1.50954,55.18566],[-1.50927,55.1858]]]]}},
{ "type":"Feature","properties":{"osm_way_id":"103434146","name":"Waitrose","building":"retail","shop":"supermarket","other":{"addr:city":"Hexham","addr:county":"Northumberland","addr:postcode":"NE46 3PD","addr:street":"Wentworth Park","alt_name":"Waitrose Hexham","brand":"Waitrose","brand:wikidata":"Q771734","brand:wikipedia":"en:Waitrose","fhrs:id":"287632","official_name":"Waitrose & Partners","old_name":"Safeway","opening_hours":"Mo-Fr 08:00-21:00; Sa 08:00-20:00; Su 10:00-16:00","operator":"Waitrose & Partners","wheelchair":"yes"}}, "geometry":{"type":"MultiPolygon","coordinates":[[[[-2.09713,54.97279],[-2.09775,54.97292],[-2.0975,54.97331],[-2.0973,54.97327],[-2.09717,54.97347],[-2.09674,54.97338],[-2.09691,54.97313],[-2.09707,54.97288],[-2.09713,54.97279]]]]}},
{ "type":"Feature","properties":{"osm_way_id":"116935727","name":"Tesco Extra","building":"yes","shop":"supermarket","other":{"brand":"Tesco Extra","brand:wikidata":"Q25172225","brand:wikipedia":"en:Tesco Extra","opening_hours":"Mo-Sa 00:00-24:00; Su 00:00-16:00","operator":"Tesco","toilets:wheelchair":"yes","website":"https:\/\/www.tesco.com\/store-locator\/mansfield\/jubilee-way-south","wheelchair":"yes"}}, "geometry":{"type":"MultiPolygon","coordinates":[[[[-1.15331,53.13483],[-1.15323,53.13472],[-1.15295,53.1343],[-1.15256,53.13374],[-1.15252,53.13367],[-1.15248,53.13368],[-1.15143,53.13394],[-1.15221,53.13508],[-1.15261,53.13498],[-1.15294,53.1349],[-1.15297,53.13495],[-1.15299,53.13495],[-1.15303,53.13494],[-1.15326,53.13488],[-1.15331,53.13483]]]]}},
{ "type":"Feature","properties":{"osm_way_id":"117631487","name":"Waitrose","building":"yes","shop":"supermarket","other":{"addr:city":"Ponteland","addr:county":"Northumberland","addr:housenumber":"27","addr:postcode":"NE20 9NH","addr:street":"Main Street","alt_name":"Waitrose Ponteland","brand":"Waitrose","brand:wikidata":"Q771734","brand:wikipedia":"en:Waitrose & Partners","fhrs:id":"287746","official_name":"Waitrose & Partners","opening_hours":"Mo-Sa 08:00-21:00; Su 10:00-16:00","operator":"Waitrose & Partners"}}, "geometry":{"type":"MultiPolygon","coordinates":[[[[-1.7442,55.04941],[-1.74375,55.04948],[-1.7437,55.04937],[-1.74355,55.04939],[-1.74341,55.04911],[-1.74375,55.04905],[-1.74372,55.049],[-1.74381,55.04898],[-1.74381,55.049],[-1.74389,55.04899],[-1.74391,55.04902],[-1.744,55.04901],[-1.74407,55.04914],[-1.7442,55.04941]]]]}},
{ "type":"Feature","properties":{"osm_way_id":"117631500","name":"Sainsbury's","building":"retail","shop":"supermarket","other":{"addr:city":"Ponteland","addr:county":"Northumberland","addr:postcode":"NE20 9BE","addr:street":"Bell Villas","alt_name":"Sainsbury's Ponteland Superstore","brand":"Sainsbury's","brand:wikidata":"Q152096","fhrs:id":"286579","opening_hours":"Mo-Sa 07:00-22:00; Su 11:00-17:00"}}, "geometry":{"type":"MultiPolygon","coordinates":[[[[-1.73892,55.04946],[-1.73926,55.04949],[-1.73914,55.04989],[-1.73876,55.04985],[-1.73887,55.04951],[-1.7389,55.04951],[-1.73892,55.04946]]]]}},
{ "type":"Feature","properties":{"osm_way_id":"127008245","name":"LIDL","building":"yes","shop":"supermarket","other":{"addr:city":"Morpeth","addr:county":"Northumberland","addr:postcode":"NE61 1PA","addr:street":"Stanley Terrace","alt_name":"LIDL Morpeth","brand":"Lidl","brand:wikidata":"Q151954","fhrs:id":"286076"}}, "geometry":{"type":"MultiPolygon","coordinates":[[[[-1.68798,55.1678],[-1.68798,55.16784],[-1.68798,55.16786],[-1.68783,55.16785],[-1.68782,55.16803],[-1.68762,55.16803],[-1.68762,55.168],[-1.68704,55.16799],[-1.68705,55.1679],[-1.68688,55.1679],[-1.68689,55.16777],[-1.68798,55.1678]]]]}},
{ "type":"Feature","properties":{"osm_way_id":"128332446","name":"Sainsbury's Local","building":"yes","shop":"supermarket","other":{"addr:city":"Morpeth","addr:postcode":"NE61 2SB","addr:street":"Shields Road","brand:wikidata":"Q13218434","fhrs:id":"520809"}}, "geometry":{"type":"MultiPolygon","coordinates":[[[[-1.68097,55.15935],[-1.68103,55.15935],[-1.68104,55.15947],[-1.68097,55.15947],[-1.68097,55.15945],[-1.68073,55.15945],[-1.68073,55.15943],[-1.68067,55.15943],[-1.68067,55.15935],[-1.68073,55.15935],[-1.68073,55.15929],[-1.68097,55.15928],[-1.68097,55.15935]]]]}},
{ "type":"Feature","properties":{"osm_way_id":"129705808","name":"Morrisons","building":"supermarket","shop":"supermarket","other":{"addr:city":"Alnwick","addr:postcode":"NE66 1JE","addr:street":"Fenkle Street","branch":"Alnwick","brand":"Morrisons","brand:wikidata":"Q922344","brand:wikipedia":"en:Morrisons","contact:website":"https:\/\/my.morrisons.com\/storefinder\/201","fhrs:id":"285845","opening_hours":"Mo-Sa 07:00-22:00,Su 10:00-16:00","operator":"Morrisons"}}, "geometry":{"type":"MultiPolygon","coordinates":[[[[-1.70854,55.41315],[-1.70853,55.41302],[-1.70868,55.41302],[-1.70868,55.41299],[-1.70884,55.41299],[-1.70884,55.41302],[-1.70887,55.41302],[-1.70894,55.41305],[-1.70894,55.41312],[-1.70898,55.41312],[-1.70898,55.41315],[-1.70901,55.41315],[-1.70902,55.41323],[-1.70896,55.41324],[-1.70898,55.41347],[-1.70896,55.41348],[-1.70822,55.41349],[-1.70821,55.41315],[-1.70854,55.41315]]]]}},
{ "type":"Feature","properties":{"osm_way_id":"134454697","name":"Asda","building":"yes","shop":"supermarket","other":{"addr:city":"Blyth","addr:country":"GB","addr:county":"Northumberland","addr:postcode":"NE24 5TS","addr:street":"Cowpen Road","brand":"Asda","brand:wikidata":"Q297410","brand:wikipedia":"en:Asda","contact:facebook":"https:\/\/www.facebook.com\/asda\/","contact:twitter":"@asda","contact:website":"https:\/\/storelocator.asda.com\/north-east\/blyth\/cowpen-road-supermarket-cowpen-road","fhrs:id":"288953","opening_hours":"mo-sa 07:00-22:00; su 10:00-16:00","operator":"Asda Stores Ltd"}}, "geometry":{"type":"MultiPolygon","coordinates":[[[[-1.52404,55.13241],[-1.52349,55.13252],[-1.52328,55.13217],[-1.52382,55.13206],[-1.52404,55.13241]]]]}},
{ "type":"Feature","properties":{"osm_way_id":"134681038","name":"Co-op Food","building":"retail","shop":"supermarket","other":{"addr:city":"Blyth","addr:county":"Northumberland","addr:housenumber":"2-6","addr:postcode":"NE24 4AL","addr:street":"Newcastle Road","brand":"Co-op Food","brand:wikidata":"Q3277439","brand:wikipedia":"en:Co-op Food","fhrs:id":"288960","opening_hours":"Mo-Su 07:00-22:00","operator":"The Co-operative Group"}}, "geometry":{"type":"MultiPolygon","coordinates":[[[[-1.53177,55.1115],[-1.53134,55.11157],[-1.53116,55.1112],[-1.53159,55.11113],[-1.53177,55.1115]]]]}},
{ "type":"Feature","properties":{"osm_way_id":"139588390","name":"Co-op Food","building":"yes","shop":"supermarket","other":{"addr:city":"Alnwick","addr:postcode":"NE66 1RF","addr:street":"Victoria Road","atm":"yes","branch":"Alnwick - Victoria Road","brand":"Co-op Food","brand:wikidata":"Q3277439","brand:wikipedia":"en:Co-op Food","fhrs:id":"285985","opening_hours":"Mo-Su 07:00-23:00","operator":"The Co-operative Food"}}, "geometry":{"type":"MultiPolygon","coordinates":[[[[-1.69852,55.40697],[-1.69825,55.40698],[-1.69827,55.40715],[-1.69853,55.40713],[-1.69852,55.40697]]]]}},
{ "type":"Feature","properties":{"osm_way_id":"139680107","name":"The Cooperative Food","building":"retail","shop":"supermarket"},"geometry":{"type":"MultiPolygon","coordinates":[[[[-1.60127,55.15915],[-1.60144,55.15925],[-1.60113,55.15944],[-1.60108,55.15941],[-1.60095,55.15934],[-1.60127,55.15915]]]]}},
{ "type":"Feature","properties":{"osm_way_id":"140405298","name":"Aldi","building":"commercial","shop":"supermarket","other":{"addr:city":"Alnwick","addr:county":"Northumberland","addr:postcode":"NE66 2PA","addr:street":"South Road","branch":"Alnwick","brand":"ALDI","brand:wikidata":"Q41171672","brand:wikipedia":"en:Aldi","fhrs:id":"776816","opening_hours":"Mo-Sa 08:00-22:00; Su 10:00-16:00"}}, "geometry":{"type":"MultiPolygon","coordinates":[[[[-1.69397,55.40548],[-1.69406,55.40575],[-1.69321,55.40584],[-1.69312,55.40556],[-1.69397,55.40548]]]]}},
{ "type":"Feature","properties":{"osm_way_id":"144447337","name":"The Co-operative Food","building":"yes","shop":"supermarket","other":{"brand":"The Co-operative Food","brand:wikidata":"Q3277439","brand:wikipedia":"en:Co-op Food"}}, "geometry":{"type":"MultiPolygon","coordinates":[[[[-1.61722,55.43244],[-1.61721,55.43227],[-1.61757,55.43226],[-1.61758,55.43241],[-1.61745,55.43241],[-1.61745,55.43243],[-1.61722,55.43244]]]]}},
{ "type":"Feature","properties":{"osm_way_id":"145171987","name":"Morrisons","landuse":"retail","shop":"supermarket","other":{"addr:city":"Amble","addr:country":"GB","addr:county":"Northumberland","addr:district":"Coquet Enterprise Park","addr:postcode":"NE65 0PE","brand":"Morrisons","brand:wikidata":"Q922344","brand:wikipedia":"en:Morrisons","fhrs:id":"1255851","wheelchair":"yes"}}, "geometry":{"type":"MultiPolygon","coordinates":[[[[-1.5834,55.32854],[-1.58124,55.32772],[-1.58107,55.32766],[-1.58165,55.32717],[-1.58171,55.32712],[-1.58217,55.32673],[-1.5822,55.3267],[-1.58452,55.32759],[-1.584,55.32803],[-1.58384,55.32817],[-1.5834,55.32854]]]]}},
{ "type":"Feature","properties":{"osm_way_id":"146640066","name":"The Co-operative Food","building":"yes","shop":"supermarket","other":{"addr:city":"Amble","addr:county":"Northumberland","addr:housenumber":"1","addr:postcode":"NE65 0BX","addr:street":"Queen Street","fhrs:id":"288218","operator":"The Co-operative Group"}}, "geometry":{"type":"MultiPolygon","coordinates":[[[[-1.58592,55.33299],[-1.58605,55.3331],[-1.58588,55.33317],[-1.58601,55.33327],[-1.58581,55.33335],[-1.58569,55.33325],[-1.58567,55.33325],[-1.58553,55.33314],[-1.58592,55.33299]]]]}},
{ "type":"Feature","properties":{"osm_way_id":"158297774","name":"Tesco","building":"yes","shop":"supermarket","other":{"addr:city":"Berwick Upon Tweed","addr:county":"Northumberland","addr:housename":"Tweedside Trading Estate","addr:postcode":"TD15 2XG","addr:street":"Ord Drive","alt_name":"Tesco Berwick Upon Tweed Superstore","brand":"Tesco","brand:wikidata":"Q487494","brand:wikipedia":"en:Tesco","fhrs:id":"286559;289245","opening_hours":"Mo-Sa 06:00-24:00; Su 10:00-16:00"}}, "geometry":{"type":"MultiPolygon","coordinates":[[[[-2.02386,55.76419],[-2.02371,55.76429],[-2.02368,55.76428],[-2.02305,55.76473],[-2.02198,55.76425],[-2.02195,55.76427],[-2.02185,55.76422],[-2.02193,55.76417],[-2.02202,55.76421],[-2.0221,55.76415],[-2.02221,55.7642],[-2.02223,55.76418],[-2.02228,55.7642],[-2.02225,55.76422],[-2.02235,55.76426],[-2.02253,55.76413],[-2.02258,55.76415],[-2.02279,55.764],[-2.02295,55.76389],[-2.02299,55.7639],[-2.02306,55.76385],[-2.02374,55.76416],[-2.02386,55.76419]]]]}},
{ "type":"Feature","properties":{"osm_way_id":"158297775","name":"Morrisons","building":"retail","shop":"supermarket","other":{"addr:city":"Berwick Upon Tweed","addr:country":"GB","addr:county":"Northumberland","addr:postcode":"TD15 1UQ","addr:street":"Loaning Meadows","alt_name":"Morrisons Berwick","brand":"Morrisons","brand:wikidata":"Q922344","brand:wikipedia":"en:Morrisons","fhrs:id":"287008","opening_hours":"Mo-Sa 07:00-22:00; Su 10:00-16:00"}}, "geometry":{"type":"MultiPolygon","coordinates":[[[[-2.01833,55.7847],[-2.0181,55.78459],[-2.01794,55.7847],[-2.01773,55.7846],[-2.01789,55.78449],[-2.01765,55.78437],[-2.01722,55.78467],[-2.01716,55.78467],[-2.01712,55.78469],[-2.01704,55.78466],[-2.01676,55.78486],[-2.01677,55.78497],[-2.01714,55.78514],[-2.01721,55.78509],[-2.01767,55.78531],[-2.01815,55.78498],[-2.01801,55.78491],[-2.01833,55.7847]]]]}},
{ "type":"Feature","properties":{"osm_way_id":"158297776","name":"Asda","building":"supermarket","shop":"supermarket","other":{"addr:city":"Tweedmouth","addr:country":"GB","addr:county":"Northumberland","addr:postcode":"TD15 2DS","addr:street":"Main Street","alt_name":"ASDA Tweedmouth Supermarket","brand":"Asda","brand:wikidata":"Q297410","brand:wikipedia":"en:Asda","check_date:opening_hours":"2021-08-12","contact:facebook":"https:\/\/www.facebook.com\/asda\/","contact:twitter":"@asda","contact:website":"https:\/\/storelocator.asda.com\/north-east\/tweedmouth\/main-street","fhrs:id":"288660","opening_hours":"Mo-Sa 07:00-23:00; Su 10:00-16:00","operator":"Asda Stores Ltd"}}, "geometry":{"type":"MultiPolygon","coordinates":[[[[-2.00909,55.76237],[-2.00856,55.76193],[-2.00792,55.76218],[-2.00844,55.76261],[-2.00909,55.76237]]]]}},
{ "type":"Feature","properties":{"osm_way_id":"169355121","name":"M&S Foodhall","building":"retail","shop":"supermarket","other":{"addr:city":"Berwick Upon Tweed","addr:housename":"Tweedbank Retail Park","addr:postcode":"TD15 2AS","addr:street":"Northumberland Road","addr:unit":"3","alt_name":"M&S Berwick Upon Tweed Simply Food","brand":"M&S Foodhall","brand:wikidata":"Q714491","brand:wikipedia":"en:Marks & Spencer","building:levels":"1","fhrs:id":"286399","opening_hours":"Mo-Fr 08:00-20:00; Sa 08:00-19:00; Su 10:30-16:30"}}, "geometry":{"type":"MultiPolygon","coordinates":[[[[-2.01079,55.75859],[-2.01068,55.7584],[-2.00992,55.75855],[-2.01004,55.75874],[-2.01052,55.75865],[-2.01079,55.75859]]]]}},
{ "type":"Feature","properties":{"osm_way_id":"169371217","name":"Aldi","building":"yes","shop":"supermarket","other":{"addr:city":"Berwick Upon Tweed","addr:county":"Northumberland","addr:postcode":"TD15 1QQ","addr:street":"North Road","alt_name":"ALDI Berwick Upon Tweed","brand":"ALDI","brand:wikidata":"Q41171672","brand:wikipedia":"en:Aldi","fhrs:id":"287636","opening_hours":"Mo-Sa 08:00-21:00; Su 10:00-16:00"}}, "geometry":{"type":"MultiPolygon","coordinates":[[[[-2.01253,55.78219],[-2.01208,55.78185],[-2.01249,55.78168],[-2.01263,55.78178],[-2.01255,55.78182],[-2.01286,55.78205],[-2.01253,55.78219]]]]}},
{ "type":"Feature","properties":{"osm_way_id":"178210966","name":"The Co-operative Food","building":"retail","shop":"supermarket","other":{"addr:city":"Bellingham","addr:county":"Northumberland","addr:housenumber":"2-3","addr:postcode":"NE48 2AY","addr:street":"Parkside Place","designation":"The Co-operative Food","fhrs:id":"285663","opening_hours":"Mo-Su 07:00-22:00"}}, "geometry":{"type":"MultiPolygon","coordinates":[[[[-2.25423,55.14415],[-2.25406,55.14425],[-2.25396,55.1442],[-2.25412,55.14409],[-2.25423,55.14415]]]]}},
{ "type":"Feature","properties":{"osm_way_id":"190106952","name":"Co-op Food","building":"retail","shop":"supermarket","other":{"addr:city":"Belford","addr:county":"Northumberland","addr:postcode":"NE70 7QE","addr:street":"West Street","atm":"yes","brand":"Co-op Food","brand:wikidata":"Q3277439","brand:wikipedia":"en:Co-op Food","building:levels":"2","fhrs:id":"286173","opening_hours":"Mo-Su 07:00-22:00","operator":"The Co-operative Group","payment:cards":"yes","payment:cash":"yes","phone":"+44 1668 213202","roof:levels":"1","roof:shape":"gabled","source:addr":"FHRS Open Data","website":"https:\/\/www.coop.co.uk\/","wheelchair":"yes"}}, "geometry":{"type":"MultiPolygon","coordinates":[[[[-1.83011,55.59812],[-1.83004,55.59804],[-1.83001,55.59805],[-1.82993,55.59797],[-1.82972,55.59803],[-1.82974,55.59805],[-1.82965,55.59807],[-1.82979,55.59822],[-1.83011,55.59812]]]]}},
{ "type":"Feature","properties":{"osm_way_id":"192246304","name":"The Co-operative Food","building":"retail","shop":"supermarket","other":{"addr:city":"Haydon Bridge","addr:county":"Northumberland","addr:housenumber":"4","addr:postcode":"NE47 6ET","addr:street":"Ratcliffe Road","brand":"The Co-operative Food","brand:wikidata":"Q3277439","brand:wikipedia":"en:Co-op Food","fhrs:id":"287349"}}, "geometry":{"type":"MultiPolygon","coordinates":[[[[-2.24781,54.97342],[-2.24763,54.97321],[-2.24753,54.97313],[-2.24734,54.97323],[-2.24747,54.97333],[-2.24758,54.97347],[-2.24781,54.97342]]]]}},
{ "type":"Feature","properties":{"osm_way_id":"192248778","name":"ALDI","building":"yes","shop":"supermarket","other":{"addr:city":"Hexham","addr:county":"Northumberland","addr:housename":"Haugh Lane Industrial Estate","addr:housenumber":"5","addr:postcode":"NE46 3PU","alt_name":"ALDI Hexham","brand":"ALDI","brand:wikidata":"Q41171672","brand:wikipedia":"en:Aldi","fhrs:id":"287125","opening_hours":"Mo-Sa 08:00-22:00; Su 10:00-16:00","wheelchair":"yes"}}, "geometry":{"type":"MultiPolygon","coordinates":[[[[-2.10145,54.97393],[-2.1011,54.97393],[-2.1011,54.97403],[-2.10099,54.97403],[-2.101,54.97452],[-2.10122,54.97452],[-2.10122,54.97446],[-2.10142,54.97446],[-2.10141,54.97415],[-2.10145,54.97415],[-2.10145,54.97393]]]]}},
{ "type":"Feature","properties":{"osm_way_id":"192248779","name":"Tesco Extra","building":"retail","shop":"supermarket","other":{"addr:city":"Hexham","addr:county":"Northumberland","addr:housename":"Tynedale Retail Park","addr:postcode":"NE46 3PJ","addr:street":"Alemouth Road","alt_name":"Tesco Hexham Extra","brand":"Tesco Extra","brand:wikidata":"Q25172225","brand:wikipedia":"en:Tesco Extra","building:levels":"1","fhrs:id":"285573","opening_hours":"Mo-Sa 06:00-24:00; Su 10:00-16:00","wheelchair":"yes"}}, "geometry":{"type":"MultiPolygon","coordinates":[[[[-2.10092,54.97477],[-2.10088,54.97382],[-2.1008,54.97382],[-2.0991,54.97384],[-2.09911,54.97409],[-2.09945,54.97437],[-2.09959,54.97437],[-2.0996,54.97455],[-2.09968,54.9746],[-2.09983,54.9746],[-2.09983,54.97444],[-2.10006,54.97444],[-2.10009,54.97477],[-2.10092,54.97477]]]]}},
{ "type":"Feature","properties":{"osm_way_id":"197713807","name":"Spar","building":"yes","shop":"supermarket","other":{"addr:city":"Berwick-upon-Tweed","addr:county":"Northumberland","addr:housenumber":"74","addr:postcode":"TD15 2AF","addr:street":"Main Street","brand":"Spar","brand:wikidata":"Q610492","brand:wikipedia":"en:Spar (retailer)","fhrs:id":"287660","opening_hours":"Mo-Sa 07:00-22:00; Su 07:30-22:00"}}, "geometry":{"type":"MultiPolygon","coordinates":[[[[-2.0103,55.76574],[-2.01027,55.76561],[-2.01012,55.76562],[-2.01014,55.76575],[-2.0103,55.76574]]]]}},
{ "type":"Feature","properties":{"osm_way_id":"203627824","name":"Co-op Food","building":"retail","shop":"supermarket","other":{"addr:city":"Bedlington","addr:county":"Northumberland","addr:postcode":"NE22 6DZ","addr:street":"Netherton Lane","brand":"Co-op Food","brand:wikidata":"Q3277439","brand:wikipedia":"en:Co-op Food","fhrs:id":"285893","old_name":"Ridge Farm Pub","opening_hours":"Mo-Su 07:00-23:00","wheelchair":"yes"}}, "geometry":{"type":"MultiPolygon","coordinates":[[[[-1.60773,55.13296],[-1.6075,55.13296],[-1.6075,55.13287],[-1.60756,55.13287],[-1.60756,55.13279],[-1.6075,55.13279],[-1.6075,55.13267],[-1.60765,55.13267],[-1.60765,55.13263],[-1.60791,55.13264],[-1.60791,55.13266],[-1.60789,55.13266],[-1.60789,55.13272],[-1.60791,55.13272],[-1.60791,55.1328],[-1.60788,55.1328],[-1.6078,55.13293],[-1.60786,55.13295],[-1.60784,55.13298],[-1.60773,55.13296]]]]}},
{ "type":"Feature","properties":{"osm_way_id":"211634794","name":"Aldi Blyth","building":"yes","shop":"supermarket","other":{"addr:postcode":"NE24 5EZ","addr:street":"Cowpen Road","brand":"ALDI","brand:wikidata":"Q41171672","brand:wikipedia":"en:Aldi","fhrs:id":"288845","source:addr":"FSA Food Hygiene Ratings Database"}}, "geometry":{"type":"MultiPolygon","coordinates":[[[[-1.53723,55.13151],[-1.53706,55.13097],[-1.5366,55.13101],[-1.53664,55.13115],[-1.5367,55.13114],[-1.53682,55.13152],[-1.53712,55.13149],[-1.53713,55.13152],[-1.53723,55.13151]]]]}},
{ "type":"Feature","properties":{"osm_way_id":"214220184","name":"Sainsbury's","building":"yes","shop":"supermarket","other":{"addr:city":"Alnwick","addr:county":"Northumberland","addr:postcode":"NE66 2JH","addr:street":"Willowburn Avenue","branch":"Alnwick Superstore","brand":"Sainsbury's","brand:wikidata":"Q152096","brand:wikipedia":"en:Sainsbury's","fhrs:id":"288405","opening_hours":"Mo-Fr 08:00-21:00; Sa 08:00-20:00; Su 10:00-16:00"}}, "geometry":{"type":"MultiPolygon","coordinates":[[[[-1.69379,55.40194],[-1.69346,55.4018],[-1.6935,55.40176],[-1.69333,55.40168],[-1.69292,55.40151],[-1.6926,55.40177],[-1.69266,55.40179],[-1.69263,55.40182],[-1.69256,55.40182],[-1.69254,55.40184],[-1.69252,55.40194],[-1.69305,55.40216],[-1.69298,55.40222],[-1.69324,55.40232],[-1.69328,55.40229],[-1.69336,55.40232],[-1.69347,55.40224],[-1.69342,55.40222],[-1.69379,55.40194]]]]}},
{ "type":"Feature","properties":{"osm_way_id":"221523088","building":"residential"},"geometry":{"type":"MultiPolygon","coordinates":[[[[-1.68494,55.15597],[-1.6849,55.15588],[-1.68504,55.15586],[-1.68508,55.15596],[-1.68494,55.15597]]]]}},
{ "type":"Feature","properties":{"osm_way_id":"221872460","name":"Morrisons","building":"retail","shop":"supermarket","other":{"addr:city":"Morpeth","addr:country":"GB","addr:county":"Northumberland","addr:postcode":"NE61 1HQ","addr:street":"Dark Lane","alt_name":"Morrisons Morpeth","brand":"Morrisons","brand:wikidata":"Q922344","brand:wikipedia":"en:Morrisons","fhrs:id":"466104","layer":"1","not:addr:postcode":"NE61 1ST","phone":"+44 1670 517 219"}}, "geometry":{"type":"MultiPolygon","coordinates":[[[[-1.68375,55.16899],[-1.68317,55.16945],[-1.68407,55.16981],[-1.68469,55.16935],[-1.6845,55.16928],[-1.68446,55.16928],[-1.68444,55.16929],[-1.68404,55.16911],[-1.68375,55.16899]]]]}},
{ "type":"Feature","properties":{"osm_way_id":"222919365","name":"Co-op Food","building":"retail","shop":"supermarket","other":{"brand":"Co-op Food","brand:wikidata":"Q3277439","brand:wikipedia":"en:Co-op Food"}}, "geometry":{"type":"MultiPolygon","coordinates":[[[[-1.64889,55.18114],[-1.64865,55.18113],[-1.64866,55.18104],[-1.64868,55.18085],[-1.64891,55.18086],[-1.64889,55.18114]]]]}},
{ "type":"Feature","properties":{"osm_way_id":"228561384","name":"Lidl","building":"yes","shop":"supermarket","other":{"addr:city":"Alnwick","addr:county":"Northumberland","addr:postcode":"NE66 2QL","addr:street":"South Road","branch":"Alnwick","brand":"Lidl","brand:wikidata":"Q151954","brand:wikipedia":"en:Lidl","fhrs:id":"286491","opening_hours":"Mo-Sa 08:00-20:00; Su 10:00-16:00"}}, "geometry":{"type":"MultiPolygon","coordinates":[[[[-1.69804,55.40909],[-1.69774,55.40893],[-1.69769,55.40897],[-1.69735,55.4088],[-1.69706,55.40898],[-1.69746,55.40919],[-1.69741,55.40921],[-1.69765,55.40934],[-1.69773,55.40929],[-1.69804,55.40909]]]]}},
{ "type":"Feature","properties":{"osm_way_id":"229051477","name":"Tesco Express","building":"yes","shop":"supermarket","other":{"addr:city":"Amble","addr:county":"Northumberland","addr:housenumber":"93","addr:postcode":"NE65 0DA","addr:street":"Queen Street","alt_name":"Amble Express","brand":"Tesco Express","brand:wikidata":"Q98456772","fhrs:id":"288444"}}, "geometry":{"type":"MultiPolygon","coordinates":[[[[-1.5827,55.33449],[-1.5825,55.33439],[-1.58257,55.33434],[-1.58284,55.33422],[-1.58301,55.33435],[-1.583,55.33435],[-1.58274,55.33446],[-1.5827,55.33449]]]]}},
{ "type":"Feature","properties":{"osm_way_id":"229052361","name":"The Co-operative Food","building":"yes","shop":"supermarket","other":{"addr:city":"Amble","addr:county":"Northumberland","addr:housenumber":"31a","addr:postcode":"NE65 0AQ","addr:street":"Newburgh Street","fhrs:id":"285929","operator":"The Co-operative Group"}}, "geometry":{"type":"MultiPolygon","coordinates":[[[[-1.57674,55.335],[-1.57662,55.33502],[-1.57676,55.33533],[-1.57679,55.33533],[-1.57686,55.33523],[-1.57674,55.335]]]]}},
{ "type":"Feature","properties":{"osm_way_id":"238047213","name":"Morrisons Blyth","building":"yes","shop":"supermarket","other":{"addr:county":"Northumberland","addr:postcode":"NE24 1LQ","addr:street":"Regent Street","brand":"Morrisons","brand:wikidata":"Q922344","brand:wikipedia":"en:Morrisons","fhrs:id":"285794"}}, "geometry":{"type":"MultiPolygon","coordinates":[[[[-1.51312,55.12773],[-1.51215,55.12793],[-1.51241,55.12837],[-1.51227,55.1284],[-1.51234,55.12851],[-1.51345,55.12827],[-1.51349,55.12834],[-1.51389,55.12826],[-1.51379,55.1281],[-1.51358,55.12814],[-1.51344,55.12793],[-1.51327,55.12796],[-1.51312,55.12773]]]]}},
{ "type":"Feature","properties":{"osm_way_id":"258764322","name":"M&S Foodhall","building":"retail","shop":"supermarket","other":{"addr:city":"Cramlington","addr:county":"Northumberland","addr:housenumber":"1a","addr:postcode":"NE23 6UY","addr:unit":"Westmorland Retail Park","brand":"M&S Foodhall","brand:wikidata":"Q714491","brand:wikipedia":"en:Marks & Spencer","fhrs:id":"621620","operator":"Marks and Spencer"}}, "geometry":{"type":"MultiPolygon","coordinates":[[[[-1.59515,55.08573],[-1.59515,55.0854],[-1.59574,55.0854],[-1.59574,55.08573],[-1.59515,55.08573]]]]}},
{ "type":"Feature","properties":{"osm_way_id":"260361024","name":"The Co-operative Food","building":"yes","shop":"supermarket","other":{"addr:housenumber":"41","addr:postcode":"NE68 7RF","addr:street":"Main Street","fhrs:id":"285609","operator":"The Co-operative Group","phone":"+44 1665 720245"}}, "geometry":{"type":"MultiPolygon","coordinates":[[[[-1.65466,55.58064],[-1.65464,55.5806],[-1.65452,55.58054],[-1.65405,55.58088],[-1.65421,55.58096],[-1.65466,55.58064]]]]}},
{ "type":"Feature","properties":{"osm_way_id":"260795051","name":"Sainsbury's","building":"retail","shop":"supermarket","other":{"addr:city":"Haltwhistle","addr:county":"Northumberland","addr:housename":"Sainsbury's","addr:postcode":"NE49 9DZ","addr:street":"Fair Hill","alt_name":"Sainsbury's Haltwhistle Superstore","atm":"yes","brand":"Sainsbury's","brand:wikidata":"Q152096","building:levels":"1","fhrs:id":"287652","opening_hours":"Mo-Sa 08:00-21:00; Su 10:00-16:00","roof:levels":"1","roof:shape":"hipped"}}, "geometry":{"type":"MultiPolygon","coordinates":[[[[-2.45896,54.97183],[-2.45898,54.97161],[-2.45876,54.97161],[-2.45876,54.97164],[-2.45848,54.97163],[-2.45846,54.97181],[-2.45896,54.97183]]]]}},
{ "type":"Feature","properties":{"osm_way_id":"268365105","name":"Co-op Food","building":"yes","shop":"supermarket","other":{"addr:city":"Corbridge","addr:county":"Northumberland","addr:housenumber":"3-5","addr:postcode":"NE45 5AA","addr:street":"Hill Street","alt_name":"The Co-operative Food","brand":"Co-op Food","brand:wikidata":"Q3277439","brand:wikipedia":"en:Co-op Food","fhrs:id":"286914"}}, "geometry":{"type":"MultiPolygon","coordinates":[[[[-2.01787,54.97454],[-2.01794,54.97441],[-2.01766,54.97436],[-2.01762,54.97443],[-2.01759,54.97448],[-2.01787,54.97454]]]]}},
{ "type":"Feature","properties":{"osm_way_id":"288701493","name":"Seaton Valley Co-Op","building":"retail","shop":"supermarket","other":{"addr:postcode":"NE25 0FF","addr:street":"Blackhaugh Drive","alt_name":"Wheatridge Park Supermarket","website":"http:\/\/www.seatonvalleyco-op.co.uk","wheelchair":"yes"}}, "geometry":{"type":"MultiPolygon","coordinates":[[[[-1.53464,55.07649],[-1.53421,55.07665],[-1.53392,55.07639],[-1.53439,55.07622],[-1.53449,55.07631],[-1.53445,55.07632],[-1.53464,55.07649]]]]}},
{ "type":"Feature","properties":{"osm_way_id":"347221354","name":"Coop","building":"retail","shop":"supermarket"},"geometry":{"type":"MultiPolygon","coordinates":[[[[-2.01408,55.54534],[-2.01417,55.54536],[-2.01433,55.54538],[-2.01435,55.54541],[-2.01434,55.54557],[-2.01426,55.54556],[-2.01425,55.54559],[-2.0139,55.54552],[-2.01392,55.54549],[-2.01396,55.54544],[-2.01398,55.54545],[-2.01402,55.54541],[-2.01408,55.54534]]]]}},
{ "type":"Feature","properties":{"osm_way_id":"355176001","name":"Asda","building":"retail","shop":"supermarket","other":{"addr:city":"Ashington","addr:country":"GB","addr:postcode":"NE63 9XG","addr:street":"Lintonville Terrace","brand":"Asda","brand:wikidata":"Q297410","brand:wikipedia":"en:Asda","contact:facebook":"https:\/\/www.facebook.com\/asda\/","contact:twitter":"@asda","contact:website":"https:\/\/storelocator.asda.com\/north-east\/ashington\/portland-park-lintonville-terrace","fhrs:id":"285765","layer":"1","operator":"Asda Stores Ltd","wheelchair":"yes"}}, "geometry":{"type":"MultiPolygon","coordinates":[[[[-1.57156,55.18518],[-1.57139,55.18484],[-1.57119,55.18487],[-1.57096,55.18441],[-1.57115,55.18438],[-1.57111,55.18431],[-1.57108,55.18424],[-1.57189,55.18411],[-1.57193,55.18418],[-1.57211,55.18415],[-1.5722,55.18432],[-1.57243,55.18428],[-1.57279,55.18498],[-1.57255,55.18502],[-1.57156,55.18518]]]]}},
{ "type":"Feature","properties":{"osm_way_id":"439468913","name":"Lidl","landuse":"retail","shop":"supermarket","other":{"addr:country":"GB","addr:postcode":"NE22 6BP","addr:street":"Schalksmuhle Road","alt_name":"Lidl Bedlington","brand":"Lidl","brand:wikidata":"Q151954","brand:wikipedia":"en:Lidl","fhrs:id":"943819","opening_hours":"Mo-Sa 08:00-22:00, Su 10:00-14:00","operator":"Lidl"}}, "geometry":{"type":"MultiPolygon","coordinates":[[[[-1.5983,55.13248],[-1.59819,55.13318],[-1.59808,55.13325],[-1.59722,55.1332],[-1.59649,55.13314],[-1.59666,55.13237],[-1.5983,55.13248]]]]}},
{ "type":"Feature","properties":{"osm_way_id":"452241717","name":"Co-op Food","building":"yes","shop":"supermarket","other":{"addr:city":"Wylam","addr:county":"Northumberland","addr:postcode":"NE41 8DN","addr:street":"Main Road","brand":"Co-op Food","brand:wikidata":"Q3277439","brand:wikipedia":"en:Co-op Food","fhrs:id":"986606","opening_hours":"Mo-Su 07:00-23:00","operator":"The Co-operative Group","operator:wikidata":"Q117202","operator:wikipedia":"en:The Co-operative Group"}}, "geometry":{"type":"MultiPolygon","coordinates":[[[[-1.81808,54.97577],[-1.81845,54.97569],[-1.81842,54.97564],[-1.81805,54.97572],[-1.81808,54.97577]]]]}},
{ "type":"Feature","properties":{"osm_way_id":"456016278","name":"The Cooperative Food","landuse":"retail","shop":"supermarket","other":{"addr:city":"Ashington","addr:postcode":"NE63 8UB","addr:street":"Remscheid Way","addr:suburb":"Jubilee Industrial Estate","fhrs:id":"986608"}}, "geometry":{"type":"MultiPolygon","coordinates":[[[[-1.57277,55.17288],[-1.57294,55.17237],[-1.5718,55.17248],[-1.57182,55.17251],[-1.57195,55.17267],[-1.57203,55.17277],[-1.57209,55.17283],[-1.57228,55.17286],[-1.57246,55.17287],[-1.57277,55.17288]]]]}},
{ "type":"Feature","properties":{"osm_way_id":"460369940","name":"Lidl Blyth","building":"retail","shop":"supermarket","other":{"addr:city":"Blyth","addr:county":"Northumberland","addr:postcode":"NE24 5TS","addr:street":"Cowpen Road","brand":"Lidl","brand:wikidata":"Q151954","brand:wikipedia":"en:Lidl","fhrs:id":"953524"}}, "geometry":{"type":"MultiPolygon","coordinates":[[[[-1.52548,55.13215],[-1.52436,55.13238],[-1.52429,55.13226],[-1.52436,55.13225],[-1.52426,55.13207],[-1.52548,55.13215]]]]}},
{ "type":"Feature","properties":{"osm_way_id":"478349429","name":"Morrisons","landuse":"retail","shop":"supermarket","other":{"addr:city":"Bedlington","brand":"Morrisons","brand:wikidata":"Q922344","brand:wikipedia":"en:Morrisons"}}, "geometry":{"type":"MultiPolygon","coordinates":[[[[-1.59938,55.13277],[-1.59931,55.13326],[-1.59918,55.13331],[-1.5984,55.13326],[-1.59835,55.13321],[-1.59844,55.13271],[-1.59938,55.13277]]]]}},
{ "type":"Feature","properties":{"osm_way_id":"596065420","name":"Co-op Food","building":"retail","shop":"supermarket","other":{"addr:postcode":"NE61 2DR","alt_name":"Loansdean's Co-Op","brand":"Co-op Food","brand:wikidata":"Q3277439","brand:wikipedia":"en:Co-op Food","opening_hours":"07:00-23:00","operator":"Co-operative Society","phone":"+44 1670 519 133","website":"https:\/\/finder.coop.co.uk\/food\/store\/NE61-2DR\/a197"}}, "geometry":{"type":"MultiPolygon","coordinates":[[[[-1.68891,55.15226],[-1.68878,55.15227],[-1.68858,55.1523],[-1.68852,55.15214],[-1.68856,55.15213],[-1.68856,55.15212],[-1.68867,55.15211],[-1.68867,55.15212],[-1.68885,55.15209],[-1.68891,55.15226]]]]}},
{ "type":"Feature","properties":{"osm_way_id":"731155375","name":"Aldi","landuse":"retail","shop":"supermarket","other":{"addr:city":"Cramlington","addr:county":"Northumberland","addr:postcode":"NE23 1DA","addr:street":"Cumbrian Road","brand":"ALDI","brand:wikidata":"Q41171672","brand:wikipedia":"en:Aldi","fhrs:id":"286405","opening_hours":"Mo-Sa 07:00-18:00; Su 10:00-16:00"}}, "geometry":{"type":"MultiPolygon","coordinates":[[[[-1.58131,55.08825],[-1.58133,55.0873],[-1.5804,55.0873],[-1.58022,55.0873],[-1.5802,55.0874],[-1.5802,55.08762],[-1.58028,55.0877],[-1.58023,55.08772],[-1.58018,55.08775],[-1.58018,55.08779],[-1.5804,55.08808],[-1.58064,55.08818],[-1.58131,55.08825]]]]}},
{ "type":"Feature","properties":{"osm_way_id":"797321101","name":"M&S Foodhall","building":"yes","shop":"supermarket","other":{"brand":"M&S Foodhall","brand:wikidata":"Q714491","brand:wikipedia":"en:Marks & Spencer"}}, "geometry":{"type":"MultiPolygon","coordinates":[[[[-1.69431,55.40033],[-1.69396,55.40022],[-1.69431,55.39988],[-1.69464,55.4],[-1.69431,55.40033]]]]}},
{ "type":"Feature","properties":{"osm_way_id":"973239459","name":"Nisa","building":"retail","shop":"supermarket","other":{"addr:city":"Wooler","addr:housenumber":"10","addr:postcode":"NE71 6NW","addr:street":"South Street","designation":"Nisa Local","phone":"+44 1668 283900","website":"http:\/\/www.nisalocally.co.uk\/store\/nisa-local-10-south-rd-wooler"}}, "geometry":{"type":"MultiPolygon","coordinates":[[[[-2.01152,55.54719],[-2.01185,55.54713],[-2.01181,55.54706],[-2.01149,55.54711],[-2.01152,55.54719]]]]}},
{ "type":"Feature","properties":{"osm_way_id":"1020580227","name":"Aldi","landuse":"retail","shop":"supermarket","other":{"addr:city":"Bedlington","addr:county":"Northumberland","addr:postcode":"NE22 7FH","addr:street":"Schalksmuhle Road","brand":"ALDI","brand:wikidata":"Q41171672","brand:wikipedia":"en:Aldi","opening_hours":"Mo-Sa 08:00-22:00; Su 10:00-16:00"}}, "geometry":{"type":"MultiPolygon","coordinates":[[[[-1.59225,55.13213],[-1.59166,55.13183],[-1.59132,55.1316],[-1.59129,55.13154],[-1.59129,55.13148],[-1.59133,55.13141],[-1.59215,55.13103],[-1.59234,55.13116],[-1.59255,55.13125],[-1.5931,55.13149],[-1.59266,55.13182],[-1.59256,55.1319],[-1.59225,55.13213]]]]}}
]
}
