{
"type": "FeatureCollection",
"features": [
{ "type":"Feature","properties":{"osm_id":"244445621","name":"Co-op Food","other":{"addr:housename":"Brook House","addr:housenumber":"386","addr:postcode":"SE18 4LP","addr:street":"Shooters Hill Road","alt_name":"The Co-operative Food","brand":"Co-op Food","brand:wikidata":"Q3277439","brand:wikipedia":"en:Co-op Food","opening_hours":"Mo-Su 07:00-22:00","operator":"The Co-operative Group","operator:wikidata":"Q117202","operator:wikipedia":"en:The Co-operative Group","shop":"supermarket","website":"https:\/\/finder.coop.co.uk\/food\/store\/SE18-4LP\/386-shooters-hill-road"}}, "geometry":{"type":"Point","coordinates":[0.04589,51.47268 ]}},
{ "type":"Feature","properties":{"osm_id":"1668630326","name":"Lidl","other":{"addr:country":"GB","addr:housenumber":"1B","addr:postcode":"SE2 9RQ","addr:street":"Eynsham Drive","brand":"Lidl","brand:wikidata":"Q151954","brand:wikipedia":"en:Lidl","fhrs:id":"694307","shop":"supermarket"}}, "geometry":{"type":"Point","coordinates":[0.11907,51.49591 ]}},
{ "type":"Feature","properties":{"osm_id":"1668640307","name":"co-op","other":{"shop":"supermarket"}}, "geometry":{"type":"Point","coordinates":[0.11371,51.48737 ]}},
{ "type":"Feature","properties":{"osm_id":"1893982006","name":"Costcutter","other":{"addr:housenumber":"428-430","addr:postcode":"SE9 6UD","addr:street":"Well Hall Road","shop":"supermarket"}}, "geometry":{"type":"Point","coordinates":[0.05302,51.46695 ]}},
{ "type":"Feature","properties":{"osm_id":"2375236954","name":"Waitrose","other":{"addr:city":"London","addr:housename":"Victoria Parade","addr:postcode":"SE10 9DD","addr:street":"New Capital Quay","brand":"Waitrose","brand:wikidata":"Q771734","brand:wikipedia":"en:Waitrose","designation":"Greenwich","fhrs:id":"695490","official_name":"Waitrose & Partners","opening_hours":"Mo-Sa 07:00-22:00; Su 11:00-17:00","operator":"Waitrose & Partners","shop":"supermarket","source:addr":"FHRS Open Data","wheelchair":"yes"}}, "geometry":{"type":"Point","coordinates":[-0.01566,51.48232 ]}},
{ "type":"Feature","properties":{"osm_id":"2478124996","name":"The Co-operative Food","other":{"addr:street":"Well Hall Road","shop":"supermarket"}}, "geometry":{"type":"Point","coordinates":[0.05062,51.45684 ]}},
{ "type":"Feature","properties":{"osm_id":"2530634771","name":"Co-op","other":{"shop":"supermarket","wheelchair":"yes"}}, "geometry":{"type":"Point","coordinates":[0.07093,51.43841 ]}},
{ "type":"Feature","properties":{"osm_id":"4795415648","name":"M&S","other":{"addr:city":"Woolwich","addr:housenumber":"4","addr:postcode":"SE18 6FL","addr:street":"Victory Parade","branch":"Woolwich Foodhall","brand":"Marks & Spencer","brand:wikidata":"Q714491","opening_hours":"Mo-Sa 08:00-20:00; Su 11:00-17:00","shop":"supermarket"}}, "geometry":{"type":"Point","coordinates":[0.07068,51.49162 ]}},
{ "type":"Feature","properties":{"osm_id":"5602064570","name":"Nisa","other":{"addr:city":"London","addr:housename":"Nisa Local","addr:housenumber":"79-81","addr:postcode":"SE9 4TJ","addr:street":"Mottingham Road","addr:suburb":"Mottingham","fhrs:id":"694532","fixme:place":"Greenwich","shop":"supermarket","source:addr":"FHRS Open Data"}}, "geometry":{"type":"Point","coordinates":[0.04556,51.4361 ]}},
{ "type":"Feature","properties":{"osm_id":"5644902040","name":"Co-op Food","other":{"addr:city":"London","addr:housenumber":"196-200","addr:postcode":"SE3 8RP","addr:street":"Shooters Hill Road","addr:suburb":"Blackheath","branch":"Late Shop","brand":"Co-op Food","brand:wikidata":"Q3277439","brand:wikipedia":"en:Co-op Food","fhrs:id":"694713","fhrs:local_authority_id":"PI\/000132672","opening_hours":"Mo-Su 07:00-23:00","operator":"The Co-operative Group","operator:wikidata":"Q117202","operator:wikipedia":"en:The Co-operative Group","shop":"supermarket"}}, "geometry":{"type":"Point","coordinates":[0.03511,51.47449 ]}},
{ "type":"Feature","properties":{"osm_id":"5916003255","name":"ALDI","other":{"addr:city":"London","addr:postcode":"SE7 7FR","addr:street":"Brocklebank Road","brand":"ALDI","brand:wikidata":"Q41171672","brand:wikipedia":"en:Aldi","name:fa":"آلدی","opening_hours":"Mo-Sa 08:00-22:00; Su 11:00-17:00","shop":"supermarket"}}, "geometry":{"type":"Point","coordinates":[0.02226,51.49087 ]}},
{ "type":"Feature","properties":{"osm_id":"7081045233","name":"Co-op Food","other":{"addr:housenumber":"44","addr:postcode":"SE10 0GE","addr:street":"Chandlers Avenue","brand":"Co-op Food","brand:wikidata":"Q3277439","brand:wikipedia":"en:Co-op Food","internet_access":"wlan","internet_access:fee":"customers","operator":"The Co-operative Group","operator:wikidata":"Q117202","operator:wikipedia":"en:The Co-operative Group","payment:cash":"yes","payment:credit_cards":"yes","shop":"supermarket"}}, "geometry":{"type":"Point","coordinates":[0.01174,51.497 ]}},
{ "type":"Feature","properties":{"osm_id":"7476019327","name":"Lidl","other":{"addr:country":"GB","addr:housename":"Greenwich Shopping Park","addr:postcode":"SE7 7SR","addr:street":"Bugsbys Way","addr:suburb":"Charlton","addr:town":"Greenwich","addr:unit":"12","brand":"Lidl","brand:wikidata":"Q151954","brand:wikipedia":"en:Lidl","fhrs:id":"1223642","opening_hours":"Mo-Sa 08:00-22:00; Su 11:00-17:00","shop":"supermarket"}}, "geometry":{"type":"Point","coordinates":[0.02471,51.48968 ]}},
{ "type":"Feature","properties":{"osm_id":"7894378919","name":"Duc Tien Cash & Carry","other":{"addr:city":"London","addr:housename":"Unit 2 Lombard Trading Estate","addr:housenumber":"51","addr:postcode":"SE7 7SN","addr:street":"Anchor And Hope Lane","opening_hours":"Mo-Sa 09:30-18:00; Su 10:00-17:00","payment:cash":"yes","payment:credit_cards":"yes","shop":"supermarket"}}, "geometry":{"type":"Point","coordinates":[0.02899,51.4905 ]}},
{ "type":"Feature","properties":{"osm_id":"8384716801","name":"Co-op Food","other":{"brand":"Co-op Food","brand:wikidata":"Q3277439","brand:wikipedia":"en:Co-op Food","opening_hours":"Mo-Su 07:00-23:00","shop":"supermarket"}}, "geometry":{"type":"Point","coordinates":[-0.02177,51.47445 ]}},
{ "type":"Feature","properties":{"osm_id":"8420901031","name":"The Food Warehouse","other":{"brand":"The Food Warehouse","brand:wikidata":"Q87263899","shop":"supermarket"}}, "geometry":{"type":"Point","coordinates":[0.03381,51.4894 ]}},
{ "type":"Feature","properties":{"osm_id":"8462302952","name":"Tesco Extra","other":{"addr:city":"Woolwich","addr:postcode":"SE18 6HQ","addr:street":"Grand Depot Road","branch":"Woolwich Extra","brand":"Tesco Extra","brand:wikidata":"Q25172225","brand:wikipedia":"en:Tesco Extra","contact:website":"https:\/\/www.tesco.com\/store-locator\/london\/grand-depot-road","opening_hours":"Mo-Sa 06:00-24:00, Su 11:00-17:00","shop":"supermarket"}}, "geometry":{"type":"Point","coordinates":[0.06631,51.48925 ]}},
{ "type":"Feature","properties":{"osm_id":"8734853595","name":"Costcutter","other":{"addr:city":"Mottingham","addr:housenumber":"188","addr:postcode":"SE9 4EW","addr:street":"Court Road","brand":"Costcutter","brand:wikidata":"Q5175072","brand:wikipedia":"en:Costcutter","shop":"supermarket"}}, "geometry":{"type":"Point","coordinates":[0.05094,51.43979 ]}},
{ "type":"Feature","properties":{"osm_id":"8787180289","name":"Co-op Food","other":{"addr:city":"London","addr:housenumber":"51","addr:postcode":"SE10 0FE","addr:street":"Banning Street","brand":"Co-op Food","brand:wikidata":"Q3277439","brand:wikipedia":"en:Co-op Food","opening_hours":"Mo-Su 07:00-22:00","shop":"supermarket"}}, "geometry":{"type":"Point","coordinates":[0.00272,51.48754 ]}},
{ "type":"Feature","properties":{"osm_id":"9275031843","name":"Co-op Food","other":{"addr:housenumber":"2","addr:postcode":"SE10 0ZN","addr:street":"Trathen Square","brand":"Co-op Food","brand:wikidata":"Q3277439","brand:wikipedia":"en:Co-op Food","opening_hours":"Mo-Su 07:00-23:00","operator":"The Co-operative Group","operator:wikidata":"Q117202","operator:wikipedia":"en:The Co-operative Group","shop":"supermarket"}}, "geometry":{"type":"Point","coordinates":[0.01643,51.49177 ]}},
{ "type":"Feature","properties":{"osm_way_id":"37744323","name":"Morrisons","building":"supermarket","shop":"supermarket","other":{"brand":"Morrisons","brand:wikidata":"Q922344","brand:wikipedia":"en:Morrisons","toilets:wheelchair":"yes","wheelchair":"yes"}}, "geometry":{"type":"MultiPolygon","coordinates":[[[[0.10657,51.50778],[0.10592,51.50728],[0.10476,51.50783],[0.10551,51.50844],[0.10592,51.50824],[0.10577,51.50814],[0.10657,51.50778]]]]}},
{ "type":"Feature","properties":{"osm_way_id":"102018829","name":"M&S Simply Food","building":"retail","shop":"supermarket","other":{"brand":"M&S Simply Food","brand:wikidata":"Q714491","brand:wikipedia":"en:Marks & Spencer","operator":"Marks & Spencer"}}, "geometry":{"type":"MultiPolygon","coordinates":[[[[0.02048,51.47683],[0.02042,51.47663],[0.02038,51.47659],[0.02025,51.47657],[0.02018,51.47656],[0.02019,51.47652],[0.0201,51.47651],[0.0201,51.47651],[0.01979,51.47649],[0.01986,51.47668],[0.01999,51.47666],[0.02008,51.47692],[0.02042,51.47688],[0.02048,51.47683]]]]}},
{ "type":"Feature","properties":{"osm_way_id":"160661242","name":"ALDI SHOP&GO","building":"yes","shop":"supermarket","other":{"brand":"ALDI","brand:wikidata":"Q41171672","brand:wikipedia":"en:Aldi"}}, "geometry":{"type":"MultiPolygon","coordinates":[[[[-0.01097,51.47903],[-0.01076,51.47915],[-0.01062,51.47923],[-0.01078,51.47935],[-0.01114,51.47916],[-0.01097,51.47903]]]]}},
{ "type":"Feature","properties":{"osm_way_id":"179063210","name":"Sainsbury's","building":"yes","shop":"supermarket","other":{"addr:housenumber":"1a","addr:postcode":"SE9 5DL","addr:street":"Philpot Path","alt_name":"Sainsbury's Eltham Superstore","brand":"Sainsbury's","brand:wikidata":"Q152096","brand:wikipedia":"en:Sainsbury's","wheelchair":"yes"}}, "geometry":{"type":"MultiPolygon","coordinates":[[[[0.05686,51.45018],[0.0569,51.44987],[0.05692,51.44981],[0.05696,51.44979],[0.05698,51.44967],[0.05784,51.44973],[0.05778,51.45012],[0.05801,51.45013],[0.058,51.45028],[0.05718,51.45023],[0.05711,51.45026],[0.05694,51.45025],[0.05686,51.45018]]]]}},
{ "type":"Feature","properties":{"osm_way_id":"179063396","name":"Lidl","building":"retail","shop":"supermarket","other":{"addr:country":"GB","addr:housenumber":"137","addr:postcode":"SE9 1TQ","addr:street":"Eltham High Street","alt_name":"LIDL Eltham","brand":"Lidl","brand:wikidata":"Q151954","brand:wikipedia":"en:Lidl","fhrs:id":"951558","opening_hours":"Mo-Sa 08:00-22:00; Su 11:00-17:00; PH 08:00-22:00","wheelchair":"yes"}}, "geometry":{"type":"MultiPolygon","coordinates":[[[[0.05564,51.45129],[0.05571,51.4509],[0.05568,51.4509],[0.05566,51.45089],[0.05567,51.45081],[0.05574,51.45082],[0.05608,51.45085],[0.05604,51.451],[0.05603,51.45108],[0.05605,51.45112],[0.05601,51.45129],[0.05598,51.45136],[0.0557,51.45134],[0.05571,51.45129],[0.05564,51.45129]]]]}},
{ "type":"Feature","properties":{"osm_way_id":"221471622","name":"Lidl","building":"retail","shop":"supermarket","other":{"addr:city":"Woolwich","addr:country":"GB","addr:housenumber":"38","addr:postcode":"SE18 6LW","addr:street":"MacBean Street","brand":"Lidl","brand:wikidata":"Q151954","brand:wikipedia":"en:Lidl","designation":"London - Woolwich","fhrs:id":"694512","opening_hours":"Mo-Sa 08:00-22:00; Su 10:00-16:00","wheelchair":"yes"}}, "geometry":{"type":"MultiPolygon","coordinates":[[[[0.06545,51.49272],[0.06597,51.49301],[0.066,51.49302],[0.06605,51.49301],[0.06609,51.493],[0.06658,51.49266],[0.06658,51.49264],[0.06655,51.49263],[0.06593,51.49231],[0.06588,51.49232],[0.06586,51.49233],[0.06542,51.49267],[0.06542,51.4927],[0.06545,51.49272]]]]}},
{ "type":"Feature","properties":{"osm_way_id":"232841313","name":"Tesco Express","building":"yes","shop":"supermarket","other":{"addr:housenumber":"18-30","addr:postcode":"SE18 1PP","addr:street":"Lakedale Road","brand":"Tesco Express","brand:wikidata":"Q98456772","designation":"Plumstead Lakedale Road Express"}}, "geometry":{"type":"MultiPolygon","coordinates":[[[[0.09058,51.48674],[0.09079,51.48672],[0.09088,51.48694],[0.09057,51.48697],[0.09052,51.48682],[0.09054,51.48679],[0.09059,51.48678],[0.09058,51.48674]]]]}},
{ "type":"Feature","properties":{"osm_way_id":"232841343","name":"Sainsbury's","building":"yes","shop":"supermarket","other":{"addr:city":"Woolwich","addr:housenumber":"25","addr:postcode":"SE18 6QW","addr:street":"Clara Place","brand":"Sainsbury's","brand:wikidata":"Q152096","brand:wikipedia":"en:Sainsbury's","designation":"Woolwich Superstore","opening_hours":"Mo-Sa 07:00-21:00; Su 11:00-17:00"}}, "geometry":{"type":"MultiPolygon","coordinates":[[[[0.06311,51.49144],[0.06362,51.49083],[0.06352,51.49079],[0.06361,51.49069],[0.06368,51.49071],[0.06371,51.49067],[0.06418,51.49082],[0.0636,51.49151],[0.06347,51.49147],[0.06341,51.49153],[0.06311,51.49144]]]]}},
{ "type":"Feature","properties":{"osm_way_id":"232841491","name":"Co-op","building":"yes","shop":"supermarket","other":{"addr:housenumber":"196-212","addr:postcode":"SE18 2RS","addr:street":"Plumstead Common Road","designation":"The Co-operative Food"}}, "geometry":{"type":"MultiPolygon","coordinates":[[[[0.08067,51.48063],[0.08054,51.48032],[0.0809,51.48027],[0.08101,51.48057],[0.08067,51.48063]]]]}},
{ "type":"Feature","properties":{"osm_way_id":"266638590","name":"Co-op","building":"yes","shop":"supermarket","other":{"addr:housenumber":"9-15","addr:postcode":"SE18 3TB","addr:street":"Herbert Road","alt_name":"The Co-operative Food"}}, "geometry":{"type":"MultiPolygon","coordinates":[[[[0.0697,51.48123],[0.06987,51.48121],[0.07001,51.48148],[0.06986,51.48151],[0.06974,51.48132],[0.0697,51.48123]]]]}},
{ "type":"Feature","properties":{"osm_way_id":"285156063","name":"Asda","building":"yes","shop":"supermarket","other":{"addr:city":"London","addr:country":"GB","addr:postcode":"SE7 7ST","addr:street":"Bugsby's Way","brand":"Asda","brand:wikidata":"Q297410","brand:wikipedia":"en:Asda","contact:facebook":"https:\/\/www.facebook.com\/asda\/","contact:twitter":"@asda","contact:website":"https:\/\/storelocator.asda.com\/london\/london\/bugsby-way-charlton","fhrs:id":"694145","opening_hours":"Mo-Fr 06:00-24:00; Sa 06:00-22:00; Su 11:00-17:00","operator":"Asda Stores Ltd","payment:cash":"yes","payment:debit_cards":"yes","wheelchair":"yes"}}, "geometry":{"type":"MultiPolygon","coordinates":[[[[0.02159,51.489],[0.02228,51.48901],[0.02227,51.48911],[0.02234,51.48911],[0.02233,51.48921],[0.02272,51.48922],[0.02273,51.48914],[0.02293,51.48915],[0.02295,51.48861],[0.02297,51.48861],[0.02298,51.48849],[0.02289,51.48849],[0.0229,51.48845],[0.0228,51.48844],[0.0228,51.48849],[0.0227,51.48849],[0.0227,51.48847],[0.02274,51.48847],[0.02274,51.4884],[0.02261,51.4884],[0.02261,51.48827],[0.02252,51.48824],[0.02211,51.48823],[0.0221,51.48842],[0.02176,51.48842],[0.02176,51.48841],[0.02171,51.48841],[0.02172,51.48836],[0.02167,51.48836],[0.02167,51.48833],[0.02161,51.48833],[0.02159,51.489]]]]}},
{ "type":"Feature","properties":{"osm_way_id":"285156198","name":"See Woo","building":"yes","shop":"supermarket"},"geometry":{"type":"MultiPolygon","coordinates":[[[[0.01878,51.48957],[0.01945,51.48956],[0.01942,51.48909],[0.01876,51.4891],[0.01878,51.48957]]]]}},
{ "type":"Feature","properties":{"osm_way_id":"375427443","name":"Sainsbury's","building":"retail","shop":"supermarket","other":{"addr:city":"London","addr:housenumber":"7-11","addr:postcode":"SE7 7SA","addr:street":"Gallions Road","brand":"Sainsbury's","brand:wikidata":"Q152096","brand:wikipedia":"en:Sainsbury's","building:levels":"2","opening_hours":"Mo-Fr 07:00-23:59; Sa 07:00-23:00; Su 11:00-17:00","roof:shape":"flat","website":"https:\/\/stores.sainsburys.co.uk\/2625\/charlton-riverside"}}, "geometry":{"type":"MultiPolygon","coordinates":[[[[0.02562,51.48807],[0.02555,51.48851],[0.02564,51.48851],[0.02555,51.489],[0.0257,51.48901],[0.02565,51.48929],[0.02654,51.48935],[0.02675,51.48815],[0.02562,51.48807]]]]}},
{ "type":"Feature","properties":{"osm_way_id":"431242856","name":"Co-op","building":"yes","shop":"supermarket","other":{"addr:city":"New Eltham","addr:housenumber":"370-380","addr:postcode":"SE9 2AA","addr:street":"Footscray Road","operator":"Co-Operative","wheelchair":"yes"}}, "geometry":{"type":"MultiPolygon","coordinates":[[[[0.07095,51.43854],[0.07113,51.43839],[0.07117,51.43834],[0.07112,51.4383],[0.07105,51.43826],[0.07097,51.43827],[0.07089,51.43834],[0.07076,51.43829],[0.07071,51.4383],[0.07062,51.43841],[0.07095,51.43854]]]]}},
{ "type":"Feature","properties":{"osm_way_id":"479080387","name":"Woolwich Supermarket","building":"retail","shop":"supermarket"},"geometry":{"type":"MultiPolygon","coordinates":[[[[0.0626,51.49335],[0.06247,51.49344],[0.06241,51.49344],[0.06249,51.4932],[0.06265,51.49324],[0.0626,51.49335]]]]}},
{ "type":"Feature","properties":{"osm_way_id":"528667052","name":"Co-op","building":"yes","shop":"supermarket","other":{"addr:city":"London","addr:housenumber":"19-23","addr:postcode":"SE7 8UG","addr:street":"The Village","description":"Supermarket chain selling groceries and household goods, with a self stated focus on ethical practices.","operator":"The Co-operative Group","website":"https:\/\/finder.coop.co.uk\/food\/store\/SE7-8UG\/19-23-the-village"}}, "geometry":{"type":"MultiPolygon","coordinates":[[[[0.03717,51.4821],[0.03715,51.48195],[0.03686,51.48189],[0.03681,51.48202],[0.03717,51.4821]]]]}},
{ "type":"Feature","properties":{"osm_way_id":"540747486","name":"Aldi","building":"commercial","shop":"supermarket","other":{"brand":"ALDI","brand:wikidata":"Q41171672","brand:wikipedia":"en:Aldi","name:fa":"لیدل"}}, "geometry":{"type":"MultiPolygon","coordinates":[[[[0.10624,51.50632],[0.10585,51.50599],[0.10614,51.50583],[0.10654,51.50617],[0.1064,51.50624],[0.10624,51.50632]]]]}},
{ "type":"Feature","properties":{"osm_way_id":"587145648","name":"Sainsbury's","building":"yes","shop":"supermarket","other":{"brand":"Sainsbury's","brand:wikidata":"Q152096","brand:wikipedia":"en:Sainsbury's"}}, "geometry":{"type":"MultiPolygon","coordinates":[[[[0.11963,51.49326],[0.12084,51.49327],[0.12085,51.49309],[0.121,51.49309],[0.12102,51.49241],[0.11989,51.4924],[0.11991,51.49286],[0.1196,51.49285],[0.11963,51.49326]]]]}},
{ "type":"Feature","properties":{"osm_way_id":"587565091","name":"BMP Star Supermarket","building":"yes","shop":"supermarket","other":{"addr:city":"London","addr:housename":"Eltham","addr:housenumber":"278 - 280","addr:postcode":"SE9 4TU","addr:street":"Court Road","addr:suburb":"Greenwich","fhrs:id":"695427","shop_1":"off licence","source:addr":"FHRS Open Data"}}, "geometry":{"type":"MultiPolygon","coordinates":[[[[0.0455,51.43651],[0.04563,51.43658],[0.04555,51.43664],[0.04542,51.43658],[0.0455,51.43651]]]]}},
{ "type":"Feature","properties":{"osm_way_id":"649276105","name":"Poundland","building":"yes","shop":"supermarket","other":{"operator":"Poundland"}}, "geometry":{"type":"MultiPolygon","coordinates":[[[[0.09245,51.48732],[0.09262,51.48728],[0.09257,51.4872],[0.09241,51.48724],[0.09245,51.48732]]]]}}
]
}
