{
"type": "FeatureCollection",
"features": [
{ "type":"Feature","properties":{"osm_id":"2419206766","name":"Tesco","other":{"addr:city":"Gosport","addr:country":"GB","addr:housename":"Alver Village Square","addr:postcode":"PO13 8ZW","addr:street":"Grange Road","addr:unit":"1","brand":"Tesco","brand:wikidata":"Q487494","brand:wikipedia":"en:Tesco","contact:website":"https:\/\/www.tesco.com\/store-locator\/gosport\/1-alver-village-square","fhrs:id":"627751","operator":"Tesco Stores Ltd","shop":"supermarket","toilets":"customer toilets are located near the front of the store on the left hand side beyond the Kiosk."}}, "geometry":{"type":"Point","coordinates":[-1.16695,50.80246 ]}},
{ "type":"Feature","properties":{"osm_id":"3267124615","name":"Budgens","other":{"addr:city":"Gosport","addr:country":"GB","addr:housenumber":"73-75","addr:postcode":"PO12 3AR","addr:street":"Brockhurst Road","brand":"Budgens","brand:wikidata":"Q4985016","brand:wikipedia":"en:Budgens","fhrs:id":"773410","opening_hours":"Mo-Su 07:00-22:00","operator":"Booker Retail Partners GB Limited","phone":"+44 20 8785 4567","shop":"supermarket","website":"https:\/\/www.budgens.co.uk\/our-stores\/brockhurst-road","wheelchair":"yes"}}, "geometry":{"type":"Point","coordinates":[-1.15244,50.80513 ]}},
{ "type":"Feature","properties":{"osm_id":"3267172916","name":"Co-op Food","other":{"addr:street":"Forton Road","brand":"Co-op Food","brand:wikidata":"Q3277439","brand:wikipedia":"en:Co-op Food","operator":"The Co-operative Group","operator:wikidata":"Q117202","operator:wikipedia":"en:The Co-operative Group","shop":"supermarket"}}, "geometry":{"type":"Point","coordinates":[-1.14879,50.80351 ]}},
{ "type":"Feature","properties":{"osm_id":"7722222130","name":"Co-op Food","other":{"addr:city":"Lee-on-the-Solent","addr:country":"GB","addr:housenumber":"119-121","addr:postcode":"PO13 9BU","addr:street":"High Street","brand":"Co-op Food","brand:wikidata":"Q3277439","brand:wikipedia":"en:Co-op Food","fhrs:id":"627138","operator":"The Co-operative Group","operator:wikidata":"Q117202","operator:wikipedia":"en:The Co-operative Group","shop":"supermarket"}}, "geometry":{"type":"Point","coordinates":[-1.20199,50.80146 ]}},
{ "type":"Feature","properties":{"osm_id":"8428251215","name":"The Food Warehouse","other":{"addr:city":"Gosport","addr:country":"GB","addr:housename":"Brockhurst Gate","addr:postcode":"PO12 4FA","addr:street":"Cotsworth Road","addr:unit":"6","brand":"The Food Warehouse","brand:wikidata":"Q87263899","fhrs:id":"1130908","shop":"supermarket"}}, "geometry":{"type":"Point","coordinates":[-1.15744,50.81671 ]}},
{ "type":"Feature","properties":{"osm_id":"8428263717","name":"M&S Foodhall","other":{"addr:city":"Gosport","addr:country":"GB","addr:housename":"Brockhurst Gate","addr:postcode":"PO12 4FA","addr:street":"Cotsworth Road","addr:unit":"4","brand":"M&S Foodhall","brand:wikidata":"Q714491","brand:wikipedia":"en:Marks & Spencer","fhrs:id":"1125673","phone":"+44 2394 211374","shop":"supermarket"}}, "geometry":{"type":"Point","coordinates":[-1.15798,50.81703 ]}},
{ "type":"Feature","properties":{"osm_id":"8428263718","name":"Lidl","other":{"addr:city":"Gosport","addr:country":"GB","addr:housename":"Brockhurst Gate","addr:postcode":"PO12 4FA","addr:street":"Cotsworth Road","addr:unit":"3","brand":"Lidl","brand:wikidata":"Q151954","brand:wikipedia":"en:Lidl","fhrs:id":"1128007","shop":"supermarket"}}, "geometry":{"type":"Point","coordinates":[-1.15823,50.81722 ]}},
{ "type":"Feature","properties":{"osm_way_id":"27895185","name":"Morrisons","building":"yes","shop":"supermarket","other":{"brand":"Morrisons","phone":"+44 2392 523641","fhrs:id":"627609","operator":"WM Morrison Supermarkets PLC","addr:city":"Gosport","addr:street":"Walpole Road","source:addr":"FHRS Open Data","addr:country":"GB","addr:postcode":"PO12 1NQ","brand:wikidata":"Q922344","brand:wikipedia":"en:Morrisons","addr:housenumber":"15"}}, "geometry":{"type":"MultiPolygon","coordinates":[[[[-1.12594,50.79499],[-1.12596,50.79504],[-1.12613,50.79551],[-1.12673,50.79544],[-1.12675,50.79549],[-1.12679,50.7955],[-1.1271,50.79545],[-1.12718,50.79537],[-1.12699,50.79488],[-1.12688,50.79484],[-1.12683,50.79482],[-1.12681,50.79485],[-1.12625,50.79494],[-1.12594,50.79499]]]]}},
{ "type":"Feature","properties":{"osm_way_id":"146019092","name":"Asda","building":"yes","shop":"supermarket","other":{"brand":"Asda","fhrs:id":"627578","alt_name":"Asda Gosport Superstore","int_name":"line","operator":"Asda Stores Ltd","addr:city":"Gosport","addr:site":"Cranbourne Industrial Estate","addr:street":"Dock Road","addr:country":"GB","addr:postcode":"PO12 1SH","brand:wikidata":"Q297410","brand:wikipedia":"en:Asda","contact:twitter":"@asda","contact:website":"https:\/\/storelocator.asda.com\/south-east\/gosport\/cranbourne-ind-est-dock-road","contact:facebook":"https:\/\/www.facebook.com\/asda\/"}}, "geometry":{"type":"MultiPolygon","coordinates":[[[[-1.12995,50.79202],[-1.12927,50.79208],[-1.12926,50.79202],[-1.12881,50.79206],[-1.12867,50.79141],[-1.12873,50.7914],[-1.12872,50.79139],[-1.12878,50.79138],[-1.12879,50.79144],[-1.12876,50.79144],[-1.12877,50.79148],[-1.12891,50.79147],[-1.12887,50.79129],[-1.12895,50.79128],[-1.12908,50.79127],[-1.12957,50.79132],[-1.1296,50.79145],[-1.12965,50.79145],[-1.12965,50.79143],[-1.12979,50.79141],[-1.1298,50.79143],[-1.12982,50.79143],[-1.12989,50.79154],[-1.12999,50.79153],[-1.13006,50.79186],[-1.13007,50.79192],[-1.12993,50.79193],[-1.12995,50.79202]]]]}},
{ "type":"Feature","properties":{"osm_way_id":"486460931","name":"Lidl","building":"yes","shop":"supermarket","other":{"brand":"Lidl","fhrs:id":"627359","operator":"Lidl","addr:city":"Gosport","addr:street":"Forton Road","addr:country":"GB","addr:postcode":"PO12 3HJ","brand:wikidata":"Q151954","brand:wikipedia":"en:Lidl","addr:housenumber":"160"}}, "geometry":{"type":"MultiPolygon","coordinates":[[[[-1.14163,50.80197],[-1.14155,50.80196],[-1.14124,50.80194],[-1.14132,50.8015],[-1.14142,50.80151],[-1.14141,50.80155],[-1.14164,50.80157],[-1.14163,50.80158],[-1.14176,50.80159],[-1.14173,50.80172],[-1.14167,50.80172],[-1.14163,50.80197]]]]}},
{ "type":"Feature","properties":{"osm_way_id":"514527877","name":"Waitrose Gosport","building":"yes","shop":"supermarket","other":{"addr:city":"Gosport","addr:country":"GB","addr:housenumber":"129","addr:postcode":"PO12 1SD","addr:street":"Stoke Road","brand":"Waitrose","brand:wikidata":"Q771734","brand:wikipedia":"en:Waitrose & Partners","fhrs:id":"627607","official_name":"Waitrose & Partners","opening_hours":"Mo-Sa 08:00-20:00, Su 10:00-16:00","operator":"Waitrose","phone":"+44 23 92511266","website":"https:\/\/www.waitrose.com\/bf_home\/bf\/152.html"}}, "geometry":{"type":"MultiPolygon","coordinates":[[[[-1.13518,50.79285],[-1.13512,50.79257],[-1.13495,50.79259],[-1.13492,50.79252],[-1.1348,50.79253],[-1.13482,50.79261],[-1.13474,50.79262],[-1.13486,50.79303],[-1.13486,50.79304],[-1.13487,50.79305],[-1.13488,50.79305],[-1.13488,50.79305],[-1.13489,50.79305],[-1.1349,50.79304],[-1.1349,50.79304],[-1.1349,50.79303],[-1.1349,50.79301],[-1.13491,50.79301],[-1.13518,50.79285]]]]}},
{ "type":"Feature","properties":{"osm_way_id":"577305711","name":"Aldi","building":"yes","shop":"supermarket","other":{"addr:city":"Gosport","addr:country":"GB","addr:housename":"Street Record","addr:street":"Mumby Road","brand":"ALDI","brand:wikidata":"Q41171672","brand:wikipedia":"en:Aldi","fhrs:id":"868666","operator":"Aldi Stores Limited"}}, "geometry":{"type":"MultiPolygon","coordinates":[[[[-1.1215,50.7967],[-1.12153,50.79641],[-1.12158,50.79641],[-1.1216,50.79624],[-1.12113,50.79622],[-1.12108,50.79671],[-1.12119,50.79671],[-1.12119,50.79669],[-1.1215,50.7967]]]]}}
]
}
