{
"type": "FeatureCollection",
"features": [
{ "type":"Feature","properties":{"osm_id":"1631435137","name":"B&M Bargains","other":{"shop":"supermarket"}}, "geometry":{"type":"Point","coordinates":[-2.2556,53.50369 ]}},
{ "type":"Feature","properties":{"osm_id":"4438213391","name":"Costcutter","other":{"addr:city":"Salford","addr:housenumber":"365","addr:postcode":"M3 5JT","addr:street":"Chapel Street","addr:unit":"Unit 2 Zenith","fhrs:id":"688539","shop":"supermarket","source:addr":"FHRS Open Data"}}, "geometry":{"type":"Point","coordinates":[-2.26383,53.4829 ]}},
{ "type":"Feature","properties":{"osm_id":"4804048552","name":"The Co-operative Food","other":{"addr:city":"Salford","addr:housename":"Vimto Gardens","addr:postcode":"M3 5JH","addr:street":"Islington Way","addr:unit":"1","fhrs:id":"930084","shop":"supermarket"}}, "geometry":{"type":"Point","coordinates":[-2.26238,53.48314 ]}},
{ "type":"Feature","properties":{"osm_id":"4858724221","name":"Co-Op","other":{"addr:housenumber":"355","addr:postcode":"M27 0FJ","addr:street":"Worsley Road","opening_hours":"Mo-Su 07:00-22:00","shop":"supermarket"}}, "geometry":{"type":"Point","coordinates":[-2.35617,53.50368 ]}},
{ "type":"Feature","properties":{"osm_id":"4994623930","name":"Spar","other":{"brand":"Spar","brand:wikidata":"Q610492","brand:wikipedia":"en:Spar (retailer)","shop":"supermarket"}}, "geometry":{"type":"Point","coordinates":[-2.38971,53.52274 ]}},
{ "type":"Feature","properties":{"osm_id":"5523770489","name":"Asda","other":{"addr:city":"Pendlebury","addr:country":"GB","addr:housenumber":"604-612","addr:postcode":"M27 4ET","addr:street":"Bolton Road","brand":"Asda","brand:wikidata":"Q297410","brand:wikipedia":"en:Asda","contact:website":"https:\/\/storelocator.asda.com\/north-west\/pendlebury\/604-612-bolton-road","opening_hours":"Mo-Sa 07:00-22:00, Su 10:00-16:00","operator":"Asda Stores Ltd","shop":"supermarket"}}, "geometry":{"type":"Point","coordinates":[-2.33126,53.51667 ]}},
{ "type":"Feature","properties":{"osm_id":"5958044197","name":"Heron Foods","other":{"addr:city":"Salford","addr:postcode":"M6 5HW","brand":"Heron Foods","brand:wikidata":"Q5743472","brand:wikipedia":"en:Heron Foods","contact:website":"https:\/\/heronfoods.com\/storelocator\/store-details\/salford","fhrs:id":"97622","fixme:addr2":"74 Fitzgerald Way","shop":"supermarket","source:addr":"FHRS Open Data"}}, "geometry":{"type":"Point","coordinates":[-2.2884,53.48837 ]}},
{ "type":"Feature","properties":{"osm_id":"7435683155","name":"Salford Off Licence","other":{"addr:city":"Salford","addr:housenumber":"559-563","addr:postcode":"M6 5GY","addr:street":"Liverpool Road","fhrs:id":"133796","shop":"supermarket"}}, "geometry":{"type":"Point","coordinates":[-2.29918,53.48393 ]}},
{ "type":"Feature","properties":{"osm_id":"7449856057","name":"Asda","other":{"addr:city":"Swinton","addr:country":"GB","addr:housenumber":"25","addr:postcode":"M27 4BR","addr:street":"Wellington Road","brand":"Asda","brand:wikidata":"Q297410","brand:wikipedia":"en:Asda","contact:website":"https:\/\/storelocator.asda.com\/north-west\/swinton\/15-wellington-road","fhrs:id":"657882","operator":"Asda Stores Ltd","shop":"supermarket"}}, "geometry":{"type":"Point","coordinates":[-2.33723,53.51269 ]}},
{ "type":"Feature","properties":{"osm_id":"8175440914","name":"Spar","other":{"addr:city":"Salford","addr:postcode":"M44 6FB","addr:street":"Liverpool Road","brand":"Spar","brand:wikidata":"Q610492","brand:wikipedia":"en:SPAR (retailer)","shop":"supermarket"}}, "geometry":{"type":"Point","coordinates":[-2.40147,53.45665 ]}},
{ "type":"Feature","properties":{"osm_id":"9218020224","name":"Lidl","other":{"addr:country":"GB","addr:housename":"West One Retail Park","addr:postcode":"M50 1ZD","addr:street":"West One Way","addr:unit":"7,8,9A","brand":"Lidl","brand:wikidata":"Q151954","brand:wikipedia":"en:Lidl","fhrs:id":"858007","shop":"supermarket"}}, "geometry":{"type":"Point","coordinates":[-2.32853,53.48286 ]}},
{ "type":"Feature","properties":{"osm_id":"9388736894","name":"Home Bargains","other":{"addr:country":"GB","addr:housename":"West One Retail Park","addr:postcode":"M50 1ZD","addr:street":"West One Way","addr:unit":"11,12","brand":"Home Bargains","brand:wikipedia":"en:Home Bargains","shop":"supermarket"}}, "geometry":{"type":"Point","coordinates":[-2.32884,53.48216 ]}},
{ "type":"Feature","properties":{"osm_id":"9388736895","name":"The Food Warehouse","other":{"addr:country":"GB","addr:housename":"West One Retail Park","addr:postcode":"M50 1ZD","addr:street":"West One Way","addr:unit":"10","brand":"The Food Warehouse","brand:wikidata":"Q87263899","brand:wikipedia":"en:The Food Warehouse","shop":"supermarket"}}, "geometry":{"type":"Point","coordinates":[-2.32872,53.48247 ]}},
{ "type":"Feature","properties":{"osm_way_id":"94366408","name":"Morrisons","building":"yes","shop":"supermarket","other":{"addr:city":"Salford","addr:housenumber":"7","addr:postcode":"M30 0FH","addr:street":"Irwell Place","brand":"Morrisons","brand:wikidata":"Q922344","brand:wikipedia":"en:Morrisons","fhrs:id":"91838","website":"https:\/\/my.morrisons.com\/storefinder\/28"}}, "geometry":{"type":"MultiPolygon","coordinates":[[[[-2.33518,53.48233],[-2.33518,53.48243],[-2.33523,53.48243],[-2.33523,53.48245],[-2.33524,53.48252],[-2.33519,53.48252],[-2.33521,53.48267],[-2.3353,53.4829],[-2.33515,53.48292],[-2.33514,53.48291],[-2.33502,53.48293],[-2.33502,53.48292],[-2.33486,53.48295],[-2.33487,53.48296],[-2.33474,53.48298],[-2.33473,53.48296],[-2.33454,53.48299],[-2.33455,53.48301],[-2.33443,53.48302],[-2.33442,53.48301],[-2.33423,53.48304],[-2.33423,53.48305],[-2.33411,53.48307],[-2.33389,53.48249],[-2.33388,53.48248],[-2.33429,53.48242],[-2.33498,53.48232],[-2.33518,53.48233]]]]}},
{ "type":"Feature","properties":{"osm_way_id":"150570259","name":"Asda","shop":"supermarket","other":{"addr:city":"Salford","addr:country":"GB","addr:housenumber":"510","addr:postcode":"M30 7JA","addr:street":"Liverpool Road","brand":"Asda","brand:wikidata":"Q297410","brand:wikipedia":"en:Asda","contact:website":"https:\/\/storelocator.asda.com\/north-west\/eccles\/510-liverpool-road","fhrs:id":"51643","operator":"Asda Stores Ltd","source:addr":"FHRS Open Data"}}, "geometry":{"type":"MultiPolygon","coordinates":[[[[-2.36653,53.47805],[-2.36613,53.47828],[-2.36612,53.47834],[-2.3661,53.47851],[-2.36608,53.47859],[-2.36666,53.47864],[-2.36713,53.47865],[-2.36722,53.47841],[-2.36699,53.47829],[-2.3668,53.4782],[-2.36653,53.47805]]]]}},
{ "type":"Feature","properties":{"osm_way_id":"176435681","name":"Asda","building":"supermarket","shop":"supermarket","other":{"addr:city":"Salford","addr:country":"GB","addr:postcode":"M7 4UF","addr:street":"Great Cheetham Street East","alt_name":"Asda Higher Broughton","brand":"Asda","brand:wikidata":"Q297410","brand:wikipedia":"en:Asda","contact:website":"https:\/\/storelocator.asda.com\/north-west\/salford\/great-cheetham-street","fhrs:id":"103218","opening_hours":"Mo-Sa 07:00-23:00, Su 10:00-16:00","operator":"Asda Stores Ltd"}}, "geometry":{"type":"MultiPolygon","coordinates":[[[[-2.25446,53.50352],[-2.25398,53.50362],[-2.25386,53.5034],[-2.25434,53.5033],[-2.25446,53.50352]]]]}},
{ "type":"Feature","properties":{"osm_way_id":"179464018","name":"Sainsbury's","building":"retail","shop":"supermarket","other":{"addr:city":"Salford","addr:housenumber":"100","addr:postcode":"M5 4QU","addr:street":"Regent Road","branch":"Salford Superstore","brand":"Sainsbury's","brand:wikidata":"Q152096","brand:wikipedia":"en:Sainsbury's","building:levels":"2","fhrs:id":"135970","opening_hours":"Mo-Fr 07:00-23:00; Sa 07:00-22:00; Su 11:00-17:00","roof:levels":"0","roof:shape":"quadruple_saltbox","wheelchair":"yes"}}, "geometry":{"type":"MultiPolygon","coordinates":[[[[-2.26882,53.47669],[-2.2684,53.47663],[-2.26839,53.47665],[-2.26812,53.47661],[-2.26814,53.47659],[-2.26752,53.47649],[-2.26742,53.47647],[-2.26731,53.47673],[-2.26737,53.47674],[-2.26729,53.47693],[-2.26727,53.47693],[-2.26721,53.47706],[-2.2672,53.47705],[-2.26716,53.47716],[-2.2672,53.47716],[-2.26717,53.47723],[-2.26722,53.47728],[-2.26733,53.47737],[-2.26783,53.47744],[-2.26796,53.47746],[-2.26817,53.47749],[-2.26829,53.47721],[-2.26837,53.47722],[-2.26835,53.47727],[-2.26857,53.47731],[-2.2687,53.47699],[-2.26871,53.47697],[-2.26871,53.47695],[-2.26876,53.47696],[-2.26878,53.4769],[-2.26874,53.47689],[-2.26882,53.47669]]]]}},
{ "type":"Feature","properties":{"osm_way_id":"185097357","name":"Aldi","building":"yes","shop":"supermarket","other":{"addr:city":"Salford","addr:postcode":"M30 0DF","addr:street":"Church Road","brand":"ALDI","brand:wikidata":"Q41171672","brand:wikipedia":"en:Aldi","fhrs:id":"73679"}}, "geometry":{"type":"MultiPolygon","coordinates":[[[[-2.33998,53.48354],[-2.33913,53.48328],[-2.33894,53.48348],[-2.33894,53.48349],[-2.33921,53.48357],[-2.3396,53.4837],[-2.33958,53.48372],[-2.33976,53.48378],[-2.33998,53.48354]]]]}},
{ "type":"Feature","properties":{"osm_way_id":"204334209","name":"Tesco Extra","building":"retail","shop":"supermarket","other":{"addr:city":"Salford","addr:postcode":"M6 5JG","addr:street":"Pendleton Way","brand":"Tesco Extra","brand:wikidata":"Q25172225","brand:wikipedia":"en:Tesco Extra","contact:website":"https:\/\/www.tesco.com\/store-locator\/salford\/pendleton-way","fhrs:id":"494339","nohousenumber":"yes","opening_hours":"Mo-Sa 06:00-24:00, Su 11:00-17:00","phone":"+443456719561"}}, "geometry":{"type":"MultiPolygon","coordinates":[[[[-2.28908,53.48944],[-2.29065,53.48913],[-2.29111,53.48994],[-2.28954,53.49025],[-2.28908,53.48944]]]]}},
{ "type":"Feature","properties":{"osm_way_id":"222493841","name":"Morrisons","building":"yes","shop":"supermarket","other":{"addr:city":"Swinton","addr:housenumber":"49","addr:postcode":"M27 4BT","addr:street":"Swinton Hall Road","brand":"Morrisons","brand:wikidata":"Q922344","brand:wikipedia":"en:Morrisons","fhrs:id":"137867","operator":"Morrisons","source:addr":"FHRS Open Data","wheelchair":"yes"}}, "geometry":{"type":"MultiPolygon","coordinates":[[[[-2.3358,53.51352],[-2.33541,53.51412],[-2.3353,53.51409],[-2.33526,53.51413],[-2.33469,53.514],[-2.33476,53.5139],[-2.33443,53.51381],[-2.33476,53.51333],[-2.33529,53.51345],[-2.33532,53.51339],[-2.3358,53.51352]]]]}},
{ "type":"Feature","properties":{"osm_way_id":"222493884","name":"Aldi","building":"yes","shop":"supermarket","other":{"addr:city":"Swinton","addr:housenumber":"51","addr:postcode":"M27 4BL","addr:street":"Swinton Hall Road","brand":"ALDI","brand:wikidata":"Q41171672","brand:wikipedia":"en:Aldi","fhrs:id":"56174","operator":"Aldi","source:addr":"FHRS Open Data"}}, "geometry":{"type":"MultiPolygon","coordinates":[[[[-2.33503,53.51296],[-2.3349,53.51318],[-2.33486,53.51323],[-2.33412,53.51307],[-2.3342,53.51293],[-2.33429,53.51279],[-2.33503,53.51296]]]]}},
{ "type":"Feature","properties":{"osm_way_id":"251429493","name":"Lidl","building":"yes","shop":"supermarket","other":{"addr:city":"Salford","addr:housenumber":"68","addr:postcode":"M6 5JE","addr:street":"Fitzwarren Street","brand":"Lidl","brand:wikidata":"Q151954","fhrs:id":"89988","source:addr":"FHRS Open Data"}}, "geometry":{"type":"MultiPolygon","coordinates":[[[[-2.29141,53.48703],[-2.29101,53.4871],[-2.29078,53.48665],[-2.29119,53.48658],[-2.2913,53.48679],[-2.29138,53.48678],[-2.29142,53.48685],[-2.29133,53.48687],[-2.29141,53.48703]]]]}},
{ "type":"Feature","properties":{"osm_way_id":"478404549","name":"ALDI","building":"yes","shop":"supermarket","other":{"addr:city":"Salford","addr:housenumber":"389","addr:postcode":"M6 7NJ","addr:street":"Bolton Road","brand":"ALDI","brand:wikidata":"Q41171672","brand:wikipedia":"en:Aldi","fhrs:id":"132221","source:addr":"FHRS Open Data"}}, "geometry":{"type":"MultiPolygon","coordinates":[[[[-2.31012,53.50065],[-2.30954,53.50094],[-2.30945,53.50087],[-2.30928,53.50095],[-2.30912,53.50084],[-2.30907,53.50086],[-2.30901,53.50082],[-2.30906,53.5008],[-2.30902,53.50077],[-2.30882,53.50087],[-2.30839,53.50055],[-2.30854,53.50048],[-2.3088,53.50067],[-2.30926,53.50045],[-2.30924,53.50043],[-2.30932,53.50039],[-2.30934,53.5004],[-2.30941,53.50037],[-2.30958,53.50049],[-2.30976,53.5004],[-2.31012,53.50065]]]]}},
{ "type":"Feature","properties":{"osm_way_id":"479103196","name":"Tesco Extra","building":"yes","shop":"supermarket","other":{"addr:city":"Salford","addr:postcode":"M44 6BL","addr:street":"Woodrow Way","brand":"Tesco Extra","brand:wikidata":"Q25172225","brand:wikipedia":"en:Tesco Extra","fhrs:id":"91885","wheelchair":"yes"}}, "geometry":{"type":"MultiPolygon","coordinates":[[[[-2.42376,53.43793],[-2.42322,53.43806],[-2.4225,53.43822],[-2.422,53.43834],[-2.42198,53.43834],[-2.42193,53.43827],[-2.42198,53.43826],[-2.42163,53.43772],[-2.42173,53.4377],[-2.42168,53.43761],[-2.42165,53.43762],[-2.42158,53.43751],[-2.42178,53.43746],[-2.42187,53.4376],[-2.4219,53.43759],[-2.42187,53.43754],[-2.42212,53.43749],[-2.42219,53.43759],[-2.42307,53.43739],[-2.423,53.43728],[-2.42316,53.43724],[-2.42323,53.43735],[-2.42333,53.43733],[-2.42367,53.43786],[-2.42371,53.43786],[-2.42376,53.43793]]]]}},
{ "type":"Feature","properties":{"osm_way_id":"506723983","name":"Tesco Extra","building":"yes","shop":"supermarket","other":{"addr:postcode":"M28 3BT","brand":"Tesco Extra","brand:wikidata":"Q25172225"}}, "geometry":{"type":"MultiPolygon","coordinates":[[[[-2.40201,53.52626],[-2.40184,53.52558],[-2.39943,53.52577],[-2.39938,53.52577],[-2.39958,53.52668],[-2.3997,53.52667],[-2.39968,53.52658],[-2.39997,53.52655],[-2.39996,53.52647],[-2.40076,53.5264],[-2.40079,53.52658],[-2.40125,53.52653],[-2.40134,53.52647],[-2.40131,53.52636],[-2.40149,53.52635],[-2.40148,53.5263],[-2.40157,53.52629],[-2.40201,53.52626]]]]}},
{ "type":"Feature","properties":{"osm_way_id":"793635822","name":"Lidl","building":"yes","shop":"supermarket","other":{"addr:city":"Salford","addr:country":"GB","addr:housenumber":"2","addr:postcode":"M44 6NN","addr:street":"Woodrow Way","brand":"Lidl","brand:wikidata":"Q151954","brand:wikipedia":"en:Lidl","fhrs:id":"64277"}}, "geometry":{"type":"MultiPolygon","coordinates":[[[[-2.42501,53.43967],[-2.42472,53.43965],[-2.42472,53.43961],[-2.42467,53.43961],[-2.4247,53.43939],[-2.42463,53.43938],[-2.42465,53.43922],[-2.4247,53.43915],[-2.42476,53.43915],[-2.42508,53.43916],[-2.42501,53.43967]]]]}},
{ "type":"Feature","properties":{"osm_way_id":"795022030","name":"ALDI","building":"retail","shop":"supermarket","other":{"addr:city":"Salford","addr:postcode":"M6 5UJ","addr:street":"Heywood Way","brand":"ALDI","brand:wikidata":"Q41171672","brand:wikipedia":"en:Aldi","fhrs:id":"650845","opening_hours":"Mo-Sa 08:00-22:00"}}, "geometry":{"type":"MultiPolygon","coordinates":[[[[-2.28801,53.48789],[-2.28762,53.48777],[-2.28809,53.48726],[-2.2882,53.4873],[-2.28816,53.48734],[-2.28843,53.48743],[-2.28801,53.48789]]]]}},
{ "type":"Feature","properties":{"osm_way_id":"851428639","name":"M&S Foodhall","building":"yes","shop":"supermarket","other":{"brand":"M&S Foodhall","brand:wikidata":"Q714491","brand:wikipedia":"en:Marks & Spencer"}}, "geometry":{"type":"MultiPolygon","coordinates":[[[[-2.4008,53.52781],[-2.40085,53.52797],[-2.40041,53.52803],[-2.4001,53.52804],[-2.40006,53.52804],[-2.40002,53.52803],[-2.39999,53.52801],[-2.39997,53.52799],[-2.39994,53.52791],[-2.4008,53.52781]]]]}},
{ "type":"Feature","properties":{"osm_way_id":"851428644","name":"Aldi","building":"yes","shop":"supermarket","other":{"brand":"ALDI","brand:wikidata":"Q41171672","brand:wikipedia":"en:Aldi"}}, "geometry":{"type":"MultiPolygon","coordinates":[[[[-2.4006,53.5272],[-2.40051,53.52693],[-2.40046,53.52675],[-2.39991,53.52682],[-2.39996,53.52696],[-2.40004,53.52695],[-2.40014,53.52725],[-2.4006,53.5272]]]]}},
{ "type":"Feature","properties":{"osm_way_id":"926137313","name":"ALDI","building":"yes","shop":"supermarket","other":{"brand":"ALDI","brand:wikidata":"Q41171672","brand:wikipedia":"en:Aldi"}}, "geometry":{"type":"MultiPolygon","coordinates":[[[[-2.37747,53.47029],[-2.37762,53.47034],[-2.37764,53.47032],[-2.37773,53.47035],[-2.37774,53.47034],[-2.37793,53.4704],[-2.37797,53.47034],[-2.37801,53.47036],[-2.3784,53.4699],[-2.37806,53.46979],[-2.37808,53.46977],[-2.37795,53.46974],[-2.37747,53.47029]]]]}},
{ "type":"Feature","properties":{"osm_way_id":"962079823","name":"Lidl","building":"retail","shop":"supermarket","other":{"addr:country":"GB","addr:housenumber":"319","addr:postcode":"M30 8BW","addr:street":"Worsley Road","brand":"Lidl","brand:wikidata":"Q151954","brand:wikipedia":"en:Lidl","building:levels":"1","diet:kosher":"yes","fhrs:id":"91815","nohousenumber":"yes","opening_hours":"Mo-Sa 08:00-22:00; Su 10:00-16:00","roof:shape":"flat","wheelchair":"yes"}}, "geometry":{"type":"MultiPolygon","coordinates":[[[[-2.36987,53.48939],[-2.36965,53.48914],[-2.37064,53.48884],[-2.37085,53.48909],[-2.36987,53.48939]]]]}}
]
}
