{
"type": "FeatureCollection",
"features": [
{ "type":"Feature","properties":{"osm_id":"7630248232","other":{"amenity":"loading_dock"}}, "geometry":{"type":"Point","coordinates":[-1.55978,54.9537 ]}},
{ "type":"Feature","properties":{"osm_way_id":"146296191","name":"The Storage Place Warehouse","building":"warehouse","shop":"storage_rental","other":{"addr:city":"Gateshead","addr:housename":"The Storage Place Warehouse","addr:postcode":"NE10 0EY","addr:street":"Brewery Lane","contact:website":"https:\/\/www.thestorageplace.co.uk\/contact-us\/","opening_hours":"Mo-Su 08:00-20:00","opening_hours:covid19":"same","phone":"+44 191 438 1616","website":"https:\/\/www.thestorageplace.co.uk"}}, "geometry":{"type":"MultiPolygon","coordinates":[[[[-1.56603,54.95677],[-1.56587,54.95661],[-1.56574,54.95665],[-1.56569,54.95661],[-1.56582,54.95657],[-1.56558,54.95634],[-1.56567,54.95631],[-1.56563,54.95628],[-1.56384,54.95689],[-1.56422,54.95723],[-1.56484,54.95702],[-1.56497,54.95713],[-1.56603,54.95677]]]]}},
{ "type":"Feature","properties":{"osm_way_id":"146296810","building":"warehouse","other":{"addr:street":"Stoneygate Close","old_name":"1st Storage Centres"}}, "geometry":{"type":"MultiPolygon","coordinates":[[[[-1.56052,54.95381],[-1.55986,54.95361],[-1.55978,54.9537],[-1.55959,54.95391],[-1.56025,54.95411],[-1.56052,54.95381]]]]}},
{ "type":"Feature","properties":{"osm_way_id":"146296816","building":"warehouse"},"geometry":{"type":"MultiPolygon","coordinates":[[[[-1.5566,54.95485],[-1.5544,54.95467],[-1.55436,54.95484],[-1.5535,54.95477],[-1.55367,54.95403],[-1.55489,54.95413],[-1.55497,54.95378],[-1.55503,54.95378],[-1.55506,54.95366],[-1.55685,54.9538],[-1.5566,54.95485]]]]}},
{ "type":"Feature","properties":{"osm_way_id":"146412597","building":"warehouse"},"geometry":{"type":"MultiPolygon","coordinates":[[[[-1.58169,54.96228],[-1.58141,54.96257],[-1.58106,54.96246],[-1.58134,54.96217],[-1.58169,54.96228]]]]}},
{ "type":"Feature","properties":{"osm_way_id":"239746052","name":"City Link","building":"warehouse","other":{"addr:postcode":"NE10 8YF","addr:street":"Follingsby Avenue","website":"http:\/\/www.city-link.co.uk"}}, "geometry":{"type":"MultiPolygon","coordinates":[[[[-1.51973,54.9368],[-1.51839,54.93674],[-1.51843,54.93641],[-1.51978,54.93647],[-1.51977,54.93651],[-1.51973,54.9368]]]]}},
{ "type":"Feature","properties":{"osm_way_id":"239746054","name":"FedEx","building":"warehouse","other":{"addr:postcode":"NE10 8YF","addr:street":"Follingsby Lane","website":"http:\/\/uk.fedex.com"}}, "geometry":{"type":"MultiPolygon","coordinates":[[[[-1.51978,54.93647],[-1.51843,54.93641],[-1.51848,54.93608],[-1.51982,54.93613],[-1.51978,54.93647]]]]}},
{ "type":"Feature","properties":{"osm_way_id":"314041574","building":"warehouse"},"geometry":{"type":"MultiPolygon","coordinates":[[[[-1.70172,54.9669],[-1.70124,54.96698],[-1.70122,54.96699],[-1.70113,54.96684],[-1.70119,54.96683],[-1.70128,54.96683],[-1.70158,54.96678],[-1.70156,54.96674],[-1.70164,54.96672],[-1.70172,54.9669]]]]}},
{ "type":"Feature","properties":{"osm_way_id":"315025617","name":"Former milk warehouse","building":"warehouse"},"geometry":{"type":"MultiPolygon","coordinates":[[[[-1.69869,54.96688],[-1.6987,54.96658],[-1.69879,54.96658],[-1.69879,54.96633],[-1.69879,54.96627],[-1.69868,54.9662],[-1.69846,54.96632],[-1.69846,54.96688],[-1.69869,54.96688]]]]}},
{ "type":"Feature","properties":{"osm_way_id":"437978457","name":"Whistl Gateshead","building":"warehouse","other":{"addr:city":"Gateshead","addr:housenumber":"1","addr:postcode":"NE10 8HQ","addr:street":"Follingsby Avenue","description":"contact centre and warehouse fulfilment services provided by great people with great ideas","old_name":"Spark Response Ltd","website":"https:\/\/www.whistl.co.uk\/"}}, "geometry":{"type":"MultiPolygon","coordinates":[[[[-1.5154,54.94126],[-1.51575,54.942],[-1.51558,54.94203],[-1.51565,54.94216],[-1.51582,54.94214],[-1.51595,54.94243],[-1.51575,54.94246],[-1.5158,54.94256],[-1.51682,54.9424],[-1.51623,54.94113],[-1.5154,54.94126]]]]}},
{ "type":"Feature","properties":{"osm_way_id":"437978458","name":"DFS Warehouse","building":"warehouse","other":{"addr:city":"Heworth","addr:street":"Follingsby Avenue"}}, "geometry":{"type":"MultiPolygon","coordinates":[[[[-1.51505,54.94046],[-1.51532,54.94105],[-1.51612,54.94094],[-1.51584,54.94035],[-1.51505,54.94046]]]]}},
{ "type":"Feature","properties":{"osm_way_id":"437979587","name":"Whistl Unit 4","building":"warehouse","other":{"addr:city":"Gateshead","addr:housenumber":"4","addr:postcode":"NE10 8HQ","addr:street":"Follingsby Avenue","description":"contact centre and warehouse fulfilment services provided by great people with great ideas","website":"www.sparkresponse.com"}}, "geometry":{"type":"MultiPolygon","coordinates":[[[[-1.51434,54.93866],[-1.51574,54.93927],[-1.51633,54.93882],[-1.51608,54.93871],[-1.51493,54.93821],[-1.51434,54.93866]]]]}},
{ "type":"Feature","properties":{"osm_way_id":"445887219","name":"Blaydon Delivery Office","amenity":"post_depot","building":"warehouse","other":{"addr:city":"Blaydon On Tyne","addr:postcode":"NE21 5DD","addr:street":"Cowen Road","operator":"Royal Mail"}}, "geometry":{"type":"MultiPolygon","coordinates":[[[[-1.7078,54.96475],[-1.70777,54.96454],[-1.70781,54.96454],[-1.70818,54.96452],[-1.70822,54.96476],[-1.70806,54.96477],[-1.70805,54.96473],[-1.7078,54.96475]]]]}},
{ "type":"Feature","properties":{"osm_way_id":"709207116","building":"warehouse","other":{"addr:city":"Chester-le-Street","addr:postcode":"DH3 2SA","addr:town":"Birtley"}}, "geometry":{"type":"MultiPolygon","coordinates":[[[[-1.56543,54.89574],[-1.5655,54.89586],[-1.56523,54.89592],[-1.56515,54.89579],[-1.56543,54.89574]]]]}},
{ "type":"Feature","properties":{"osm_way_id":"710280818","building":"warehouse","other":{"addr:housenumber":"Unit C"}}, "geometry":{"type":"MultiPolygon","coordinates":[[[[-1.69882,54.96866],[-1.69834,54.96846],[-1.69846,54.96837],[-1.6987,54.96833],[-1.69906,54.96848],[-1.69882,54.96866]]]]}},
{ "type":"Feature","properties":{"osm_way_id":"710280819","name":"Imprint","building":"warehouse","other":{"addr:housenumber":"Unit B"}}, "geometry":{"type":"MultiPolygon","coordinates":[[[[-1.69846,54.96914],[-1.69897,54.96873],[-1.69834,54.96846],[-1.69827,54.96906],[-1.69846,54.96914]]]]}},
{ "type":"Feature","properties":{"osm_way_id":"710280820","building":"warehouse","other":{"addr:housename":"Pressmatic","addr:housenumber":"Unit D"}}, "geometry":{"type":"MultiPolygon","coordinates":[[[[-1.69921,54.96854],[-1.69952,54.96829],[-1.69935,54.96821],[-1.6987,54.96833],[-1.69903,54.96847],[-1.69921,54.96854]]]]}},
{ "type":"Feature","properties":{"osm_way_id":"710289037","building":"warehouse","other":{"addr:housenumber":"Unit 6"}}, "geometry":{"type":"MultiPolygon","coordinates":[[[[-1.69888,54.9693],[-1.69887,54.96931],[-1.69854,54.96918],[-1.69911,54.96872],[-1.69918,54.96875],[-1.69924,54.9687],[-1.69968,54.96887],[-1.69906,54.96937],[-1.69888,54.9693]]]]}},
{ "type":"Feature","properties":{"osm_way_id":"710293167","building":"warehouse","other":{"addr:housename":"Holystone Group","addr:housenumber":"Unit 7"}}, "geometry":{"type":"MultiPolygon","coordinates":[[[[-1.70029,54.96838],[-1.70005,54.96828],[-1.69988,54.96826],[-1.69979,54.96834],[-1.69963,54.96831],[-1.69943,54.96847],[-1.69993,54.96868],[-1.70029,54.96838]]]]}},
{ "type":"Feature","properties":{"osm_way_id":"710293168","name":"North East Conservatory Solutions","building":"warehouse","other":{"addr:housename":"st Conservatory Solutions","addr:housenumber":"Unit 7A"}}, "geometry":{"type":"MultiPolygon","coordinates":[[[[-1.69993,54.96868],[-1.69943,54.96847],[-1.69927,54.9686],[-1.69933,54.96863],[-1.69924,54.9687],[-1.69968,54.96887],[-1.69993,54.96868]]]]}},
{ "type":"Feature","properties":{"osm_way_id":"906320754","name":"Spark Etail","building":"warehouse","other":{"addr:city":"Heworth","addr:housenumber":"5B","addr:postcode":"NE10 8HQ","addr:street":"Follingsby Avenue","description":"Warehouse fulfilment for Ethical Superstore, Natural Collection, and other online stores."}}, "geometry":{"type":"MultiPolygon","coordinates":[[[[-1.51684,54.93798],[-1.51725,54.93838],[-1.51772,54.93822],[-1.51733,54.93782],[-1.51684,54.93798]]]]}},
{ "type":"Feature","properties":{"osm_way_id":"1025475852","name":"Amazon DNE2","building":"warehouse"},"geometry":{"type":"MultiPolygon","coordinates":[[[[-1.51621,54.93459],[-1.51624,54.93386],[-1.51383,54.93385],[-1.51381,54.93457],[-1.51405,54.93458],[-1.51621,54.93459]]]]}}
]
}
