{
"type": "FeatureCollection",
"features": [
{ "type":"Feature","properties":{"osm_id":"2725318202","name":"Priors Green Supermarket (Tesco Express)","other":{"brand":"Tesco Express","brand:wikidata":"Q98456772","contact:website":"https:\/\/www.tesco.com\/store-locator\/dunmow\/1-priors-green-local-centre","opening_hours":"07:00-23:00","operator":"Tesco","shop":"supermarket"}}, "geometry":{"type":"Point","coordinates":[0.28174,51.8701 ]}},
{ "type":"Feature","properties":{"osm_id":"4795317727","name":"The Co-operative Food","other":{"addr:city":"Stansted Mountfitchet","addr:postcode":"CM24 8BE","addr:street":"Church Road","brand":"The Co-operative Food","brand:wikidata":"Q107617274","opening_hours":"Mo-Su 07:00-23:00","shop":"supermarket"}}, "geometry":{"type":"Point","coordinates":[0.19984,51.90212 ]}},
{ "type":"Feature","properties":{"osm_way_id":"140682581","name":"M&S Simply Food","building":"yes","shop":"supermarket","other":{"brand":"M&S Simply Food","brand:wikidata":"Q714491","brand:wikipedia":"en:Marks & Spencer"}}, "geometry":{"type":"MultiPolygon","coordinates":[[[[0.24773,51.87569],[0.24792,51.87569],[0.24791,51.87551],[0.2479,51.87551],[0.2479,51.87547],[0.24772,51.87548],[0.24773,51.87569]]]]}},
{ "type":"Feature","properties":{"osm_way_id":"274094156","name":"Tesco","building":"yes","shop":"supermarket","other":{"brand":"Tesco","alt_name":"Tesco Dunmow Superstore","operator":"Tesco Stores Ltd","addr:city":"Great Dunmow","addr:street":"Stortford Road","addr:postcode":"CM6 1SF","brand:wikidata":"Q487494","brand:wikipedia":"en:Tesco"}}, "geometry":{"type":"MultiPolygon","coordinates":[[[[0.34671,51.87281],[0.34741,51.87279],[0.3474,51.8727],[0.34753,51.8727],[0.34753,51.87266],[0.34781,51.87265],[0.34783,51.87292],[0.34762,51.87293],[0.34765,51.87333],[0.34656,51.87336],[0.34655,51.87326],[0.34663,51.87326],[0.34661,51.87297],[0.34672,51.87296],[0.34671,51.87281]]]]}},
{ "type":"Feature","properties":{"osm_way_id":"274803578","name":"Waitrose","building":"yes","shop":"supermarket","other":{"addr:city":"Saffron Walden","addr:postcode":"CB10 1DT;CB10 1ED;CB10 1EH","addr:street":"Hill Street","alt_name":"Waitrose Saffron Walden","brand":"Waitrose","brand:wikidata":"Q771734","brand:wikipedia":"en:Waitrose & Partners","official_name":"Waitrose & Partners","opening_hours":"Mo-Sa 07:00-21:00; Su 10:00-16:00","operator":"Waitrose & Partners","website":"https:\/\/www.waitrose.com\/content\/waitrose\/en\/bf_home\/bf\/135.html"}}, "geometry":{"type":"MultiPolygon","coordinates":[[[[0.24145,52.02304],[0.24154,52.02291],[0.24156,52.02291],[0.24179,52.02258],[0.24171,52.02256],[0.24176,52.0225],[0.24241,52.02266],[0.24222,52.02296],[0.24212,52.02293],[0.24201,52.02309],[0.24199,52.02309],[0.24194,52.02316],[0.24145,52.02304]]]]}},
{ "type":"Feature","properties":{"osm_way_id":"274803982","name":"Tesco","building":"yes","shop":"supermarket","other":{"brand":"Tesco","alt_name":"Tesco Saffron Walden Superstore","operator":"Tesco Stores Ltd","addr:city":"Saffron Walden","addr:street":"Radwinter Road","addr:postcode":"CB10 2JP","opening_hours":"Mo-Sa 00:00-24:00; Su 10:00-16:00","brand:wikidata":"Q487494","brand:wikipedia":"en:Tesco"}}, "geometry":{"type":"MultiPolygon","coordinates":[[[[0.25809,52.02248],[0.25809,52.02243],[0.25801,52.02243],[0.25799,52.02194],[0.25807,52.02194],[0.25807,52.0219],[0.25801,52.0219],[0.258,52.0215],[0.25834,52.0215],[0.25834,52.02169],[0.25861,52.02168],[0.25861,52.02165],[0.25912,52.02164],[0.25913,52.02181],[0.25995,52.0218],[0.25996,52.02184],[0.25996,52.02187],[0.25913,52.02188],[0.25913,52.02204],[0.25894,52.02204],[0.25895,52.02224],[0.25862,52.02224],[0.25862,52.02232],[0.25837,52.02233],[0.25837,52.02248],[0.25809,52.02248]]]]}},
{ "type":"Feature","properties":{"osm_way_id":"285675101","name":"Co-op Food","building":"yes","shop":"supermarket","other":{"addr:city":"Great Dunmow","addr:postcode":"CM6 1BD","addr:street":"White Street","alt_name":"The Co-operative Food","brand":"Co-op Food","brand:wikidata":"Q3277439","brand:wikipedia":"en:Co-op Food","operator":"The Co-operative Group","operator:wikidata":"Q117202","operator:wikipedia":"en:The Co-operative Group"}}, "geometry":{"type":"MultiPolygon","coordinates":[[[[0.36364,51.87218],[0.3637,51.87199],[0.36416,51.87208],[0.36429,51.8721],[0.36426,51.87217],[0.36419,51.87216],[0.36412,51.87228],[0.36404,51.87245],[0.36372,51.87239],[0.3638,51.87221],[0.36364,51.87218]]]]}},
{ "type":"Feature","properties":{"osm_way_id":"487004020","name":"Tesco Express","building":"yes","shop":"supermarket","other":{"addr:city":"Stansted Mouthfitchet","addr:housenumber":"16-18","addr:postcode":"CM24 8BZ","addr:street":"Cambridge Road","branch":"Stansted Express","brand":"Tesco Express","brand:wikidata":"Q98456772","brand:wikipedia":"en:Tesco","opening_hours":"Mo-Su 06:00-23:00","operator":"Tesco Stores Ltd"}}, "geometry":{"type":"MultiPolygon","coordinates":[[[[0.1943,51.90486],[0.19421,51.90478],[0.19415,51.90473],[0.19446,51.90459],[0.19462,51.90472],[0.1943,51.90486]]]]}},
{ "type":"Feature","properties":{"osm_way_id":"587995580","name":"ALDI","building":"yes","shop":"supermarket","other":{"addr:city":"Saffron Walden","addr:county":"Essex","addr:housename":"Knight Park","addr:postcode":"CB10 2SG","addr:unit":"1","brand":"ALDI","brand:wikidata":"Q41171672","brand:wikipedia":"en:Aldi","fhrs:id":"814731","source:addr":"FHRS Open Data","website":"https:\/\/www.aldi.co.uk\/store\/s-uk-E0865"}}, "geometry":{"type":"MultiPolygon","coordinates":[[[[0.25753,52.01303],[0.25777,52.01287],[0.25722,52.01255],[0.2569,52.01278],[0.25752,52.01313],[0.25762,52.01307],[0.25753,52.01303]]]]}}
]
}
