{
"type": "FeatureCollection",
"features": [
{ "type":"Feature","properties":{"osm_way_id":"25111816","building":"warehouse"},"geometry":{"type":"MultiPolygon","coordinates":[[[[-0.17769,51.63393],[-0.17759,51.63361],[-0.17669,51.63372],[-0.17679,51.63404],[-0.17769,51.63393]]]]}},
{ "type":"Feature","properties":{"osm_way_id":"25111817","name":"A1 Self Storage","building":"warehouse"},"geometry":{"type":"MultiPolygon","coordinates":[[[[-0.17853,51.63349],[-0.17792,51.63356],[-0.17811,51.63405],[-0.1787,51.63398],[-0.17853,51.63349]]]]}},
{ "type":"Feature","properties":{"osm_way_id":"25111822","building":"warehouse"},"geometry":{"type":"MultiPolygon","coordinates":[[[[-0.1784,51.63337],[-0.17788,51.63343],[-0.17774,51.63297],[-0.17826,51.63291],[-0.1784,51.63337]]]]}},
{ "type":"Feature","properties":{"osm_way_id":"27464287","building":"warehouse"},"geometry":{"type":"MultiPolygon","coordinates":[[[[-0.19345,51.59932],[-0.19373,51.59911],[-0.1933,51.59888],[-0.19301,51.59908],[-0.19303,51.59909],[-0.19319,51.59918],[-0.19345,51.59932]]]]}},
{ "type":"Feature","properties":{"osm_way_id":"62787036","building":"warehouse"},"geometry":{"type":"MultiPolygon","coordinates":[[[[-0.17432,51.6289],[-0.17431,51.62872],[-0.17406,51.62873],[-0.17407,51.62891],[-0.17432,51.6289]]]]}},
{ "type":"Feature","properties":{"osm_way_id":"62788545","building":"warehouse"},"geometry":{"type":"MultiPolygon","coordinates":[[[[-0.17409,51.62864],[-0.17399,51.62864],[-0.17399,51.62862],[-0.1739,51.62863],[-0.17389,51.62843],[-0.17386,51.62843],[-0.17384,51.62812],[-0.17404,51.62811],[-0.17403,51.62823],[-0.17409,51.62824],[-0.17411,51.62824],[-0.17408,51.62842],[-0.17409,51.62864]]]]}},
{ "type":"Feature","properties":{"osm_way_id":"187066713","name":"Big Yellow Self Storage","building":"warehouse","other":{"building:colour":"yellow"}}, "geometry":{"type":"MultiPolygon","coordinates":[[[[-0.17427,51.60047],[-0.17392,51.60081],[-0.17379,51.60082],[-0.17376,51.60071],[-0.1737,51.60072],[-0.17359,51.60041],[-0.17423,51.60034],[-0.17427,51.60047]]]]}},
{ "type":"Feature","properties":{"osm_way_id":"187728210","name":"Marathon Warehouse Distribution","building":"warehouse","other":{"addr:postcode":"N10 2PA","addr:street":"Hampden Road","operator":"Marathon Warehouse Distribution","operator:website":"http:\/\/www.mwd.uk.com"}}, "geometry":{"type":"MultiPolygon","coordinates":[[[[-0.14604,51.60628],[-0.14595,51.60616],[-0.14585,51.60619],[-0.14586,51.60621],[-0.1457,51.60625],[-0.14582,51.60641],[-0.14579,51.60641],[-0.14584,51.60647],[-0.14591,51.60656],[-0.14592,51.60657],[-0.14614,51.6065],[-0.14598,51.6063],[-0.14604,51.60628]]]]}},
{ "type":"Feature","properties":{"osm_way_id":"202194825","name":"Big Yellow Self Storage","building":"warehouse"},"geometry":{"type":"MultiPolygon","coordinates":[[[[-0.17564,51.6034],[-0.17482,51.60353],[-0.17471,51.60325],[-0.17553,51.60312],[-0.17564,51.6034]]]]}},
{ "type":"Feature","properties":{"osm_way_id":"628560846","name":"Curtain Factory Outlet","building":"warehouse","other":{"addr:city":"London","addr:housenumber":"12a","addr:postcode":"N12 8DT","addr:street":"Hutton Grove"}}, "geometry":{"type":"MultiPolygon","coordinates":[[[[-0.1798,51.61255],[-0.17966,51.61247],[-0.17967,51.61246],[-0.17964,51.61245],[-0.17982,51.61232],[-0.17992,51.61238],[-0.17984,51.61243],[-0.1799,51.61247],[-0.1798,51.61255]]]]}}
]
}
