{
"type": "FeatureCollection",
"features": [
{ "type":"Feature","properties":{"osm_id":"49233948","name":"Sainsbury's New Barnet","other":{"brand":"Sainsbury's","brand:wikidata":"Q152096","brand:wikipedia":"en:Sainsbury's","shop":"supermarket"}}, "geometry":{"type":"Point","coordinates":[-0.17144,51.64957 ]}},
{ "type":"Feature","properties":{"osm_id":"49311845","name":"Waitrose","other":{"brand":"Waitrose","brand:wikidata":"Q771734","brand:wikipedia":"en:Waitrose","official_name":"Waitrose & Partners","operator":"Waitrose & Partners","payment:cash":"yes","payment:contactless":"yes","payment:credit_cards":"yes","payment:debit_cards":"yes","shop":"supermarket"}}, "geometry":{"type":"Point","coordinates":[-0.20392,51.65596 ]}},
{ "type":"Feature","properties":{"osm_id":"655197621","name":"Q Stores","other":{"shop":"supermarket"}}, "geometry":{"type":"Point","coordinates":[-0.1787,51.61669 ]}},
{ "type":"Feature","properties":{"osm_id":"1324709957","name":"Tesco Express","other":{"addr:city":"London","addr:housenumber":"Unit 3, Block B","addr:postcode":"NW9 5EN","addr:street":"Beaufort Park","brand":"Tesco Express","brand:wikidata":"Q98456772","contact:website":"https:\/\/www.tesco.com\/store-locator\/london\/8-heritage-ave","opening_hours":"Mo-Su 06:00-23:00","shop":"supermarket"}}, "geometry":{"type":"Point","coordinates":[-0.24286,51.59633 ]}},
{ "type":"Feature","properties":{"osm_id":"1567342580","name":"Co-op Food","other":{"brand":"Co-op Food","brand:wikidata":"Q3277439","brand:wikipedia":"en:Co-op Food","shop":"supermarket"}}, "geometry":{"type":"Point","coordinates":[-0.21512,51.5572 ]}},
{ "type":"Feature","properties":{"osm_id":"1634359228","name":"Tesco Express","other":{"brand":"Tesco Express","brand:wikidata":"Q98456772","contact:website":"https:\/\/www.tesco.com\/store-locator\/barnet\/64-66-high-st","shop":"supermarket"}}, "geometry":{"type":"Point","coordinates":[-0.19982,51.65317 ]}},
{ "type":"Feature","properties":{"osm_id":"2341125366","name":"Ari Food Centre","other":{"shop":"supermarket"}}, "geometry":{"type":"Point","coordinates":[-0.17694,51.61327 ]}},
{ "type":"Feature","properties":{"osm_id":"4140733554","name":"Co-op Food","other":{"addr:city":"London","addr:housenumber":"713","addr:postcode":"NW2 2JN","addr:street":"Finchley Road","brand":"Co-op Food","brand:wikidata":"Q3277439","brand:wikipedia":"en:Co-op Food","level":"0","shop":"supermarket"}}, "geometry":{"type":"Point","coordinates":[-0.19744,51.56317 ]}},
{ "type":"Feature","properties":{"osm_id":"4480990846","name":"Sainsbury's Local","other":{"addr:city":"London","addr:postcode":"NW9 5ZN","addr:street":"Heath Parade, Grahame Park Way","brand:wikidata":"Q13218434","fhrs:id":"801400","opening_hours":"Mo-Su 07:00-23:00","shop":"supermarket","source:addr":"FSA Food Hygiene Ratings Scheme open data"}}, "geometry":{"type":"Point","coordinates":[-0.24505,51.59708 ]}},
{ "type":"Feature","properties":{"osm_id":"4777049743","name":"Sainsbury's Local","other":{"brand:wikidata":"Q13218434","shop":"supermarket"}}, "geometry":{"type":"Point","coordinates":[-0.25076,51.59538 ]}},
{ "type":"Feature","properties":{"osm_id":"5188912377","name":"Church's Road Co-op","other":{"brand":"Co-op","opening_hours":"Mo-Su 07:00-23:00","shop":"supermarket"}}, "geometry":{"type":"Point","coordinates":[-0.22569,51.58982 ]}},
{ "type":"Feature","properties":{"osm_id":"5204303823","name":"Martin’s","other":{"addr:housenumber":"13","addr:street":"Glengall Road","shop":"supermarket"}}, "geometry":{"type":"Point","coordinates":[-0.26935,51.62649 ]}},
{ "type":"Feature","properties":{"osm_id":"5319160299","name":"Little Waitrose","other":{"addr:city":"London","addr:housename":"Gateway House","addr:housenumber":"318-320","addr:postcode":"N3 2LN","addr:street":"Regent's Park Road","brand":"Waitrose & Partners","brand:wikidata":"Q771734","brand:wikipedia":"en:Waitrose & Partners","opening_hours":"Mo-Su 07:00-22:00","operator":"John Lewis Partnership","shop":"supermarket","wheelchair":"yes"}}, "geometry":{"type":"Point","coordinates":[-0.19492,51.60009 ]}},
{ "type":"Feature","properties":{"osm_id":"5749897910","name":"Tesco Express","other":{"brand":"Tesco Express","brand:wikidata":"Q98456772","contact:website":"https:\/\/www.tesco.com\/store-locator\/mill-hill\/59-61-mill-hill-broadway","level":"0","shop":"supermarket"}}, "geometry":{"type":"Point","coordinates":[-0.24668,51.61496 ]}},
{ "type":"Feature","properties":{"osm_id":"5749900022","name":"M&S Foodhall Mill Hill","other":{"addr:city":"Mill Hill, London","addr:housenumber":"3-7","addr:postcode":"NW7 3LN","addr:street":"The Broadway","brand":"M&S Foodhall","brand:wikidata":"Q714491","brand:wikipedia":"en:Marks & Spencer","phone":"+44 20 8906 8220","shop":"supermarket"}}, "geometry":{"type":"Point","coordinates":[-0.24918,51.61411 ]}},
{ "type":"Feature","properties":{"osm_id":"5762034700","name":"Food 4 Less","other":{"shop":"supermarket"}}, "geometry":{"type":"Point","coordinates":[-0.26653,51.60094 ]}},
{ "type":"Feature","properties":{"osm_id":"5893194785","name":"Seoul Plaza","other":{"name:ja":"ソウルプラザ","payment:cash":"yes","payment:credit_cards":"yes","payment:debit_cards":"yes","payment:visa":"yes","phone":"+44 20 8209 3739","shop":"supermarket"}}, "geometry":{"type":"Point","coordinates":[-0.19637,51.57183 ]}},
{ "type":"Feature","properties":{"osm_id":"6065970593","name":"Co-operative Food","other":{"shop":"supermarket"}}, "geometry":{"type":"Point","coordinates":[-0.18108,51.58594 ]}},
{ "type":"Feature","properties":{"osm_id":"6553257206","name":"Waitrose","other":{"brand":"Waitrose","brand:wikidata":"Q771734","brand:wikipedia":"en:Waitrose & Partners","level":"1","shop":"supermarket"}}, "geometry":{"type":"Point","coordinates":[-0.22262,51.57735 ]}},
{ "type":"Feature","properties":{"osm_id":"7768143623","name":"Budgens","other":{"brand":"Budgens","brand:wikidata":"Q4985016","opening_hours":"Mo-Sa 07:00-23:00; Su 12:00-18:00","shop":"supermarket","wheelchair":"yes"}}, "geometry":{"type":"Point","coordinates":[-0.16435,51.58974 ]}},
{ "type":"Feature","properties":{"osm_id":"7768143634","name":"Iceland","other":{"brand":"Iceland","brand:wikidata":"Q721810","opening_hours":"Mo-Sa 08:00-22:00; Su 11:00-17:00","shop":"supermarket","wheelchair":"yes"}}, "geometry":{"type":"Point","coordinates":[-0.16445,51.59014 ]}},
{ "type":"Feature","properties":{"osm_id":"9173383505","name":"Co-op Food","other":{"brand":"Co-op Food","brand:wikidata":"Q3277439","brand:wikipedia":"en:Co-op Food","operator":"The Co-operative Group","operator:wikidata":"Q117202","operator:wikipedia":"en:The Co-operative Group","shop":"supermarket"}}, "geometry":{"type":"Point","coordinates":[-0.25001,51.59484 ]}},
{ "type":"Feature","properties":{"osm_way_id":"4338882","name":"Waitrose","building":"supermarket","shop":"supermarket","other":{"addr:city":"London","addr:housenumber":"1305","addr:postcode":"N20 9HX","addr:street":"High Road","brand":"Waitrose","brand:wikidata":"Q771734","brand:wikipedia":"en:Waitrose","official_name":"Waitrose & Partners","opening_hours":"Mo-Sa 08:00-20:30; Su 11:00-17:00","operator":"Waitrose & Partners","wheelchair":"yes"}}, "geometry":{"type":"MultiPolygon","coordinates":[[[[-0.17614,51.63153],[-0.17576,51.63157],[-0.17553,51.63159],[-0.17545,51.63131],[-0.17606,51.63125],[-0.17614,51.63153]]]]}},
{ "type":"Feature","properties":{"osm_way_id":"4338883","name":"M&S","building":"shop","shop":"supermarket","other":{"addr:city":"London","addr:housenumber":"1430","addr:postcode":"N20 9BS","addr:street":"High Road","alt_name":"M&S Whetstone Simply Food","brand":"Marks & Spencer","brand:wikidata":"Q714491","fhrs:id":"757008","opening_hours":"Mo-Sa 08:00-21:00; Su 11:00-17:00","source:addr":"FHRS data"}}, "geometry":{"type":"MultiPolygon","coordinates":[[[[-0.17607,51.63492],[-0.17562,51.63496],[-0.17553,51.63462],[-0.17599,51.63458],[-0.17607,51.63492]]]]}},
{ "type":"Feature","properties":{"osm_way_id":"4425413","name":"Tesco","building":"yes","landuse":"retail","shop":"supermarket","other":{"brand":"Tesco","brand:wikidata":"Q487494","brand:wikipedia":"en:Tesco","internet_access":"wlan","opening_hours":"24\/7","wheelchair":"yes"}}, "geometry":{"type":"MultiPolygon","coordinates":[[[[-0.21553,51.57442],[-0.21469,51.57473],[-0.21412,51.57416],[-0.21496,51.57384],[-0.21538,51.57426],[-0.21553,51.57442]]]]}},
{ "type":"Feature","properties":{"osm_way_id":"14965209","name":"Waitrose & Partners","building":"yes","shop":"supermarket","other":{"addr:city":"London","addr:country":"GB","addr:housenumber":"273","addr:postcode":"N12 8NR","addr:street":"Ballards Lane","brand":"Waitrose","brand:wikidata":"Q771734","brand:wikipedia":"en:Waitrose & Partners","fhrs:id":"756595","official_name":"Waitrose & Partners","operator":"Waitrose & Partners"}}, "geometry":{"type":"MultiPolygon","coordinates":[[[[-0.18032,51.61131],[-0.18025,51.61127],[-0.18021,51.6113],[-0.17982,51.61107],[-0.17938,51.61137],[-0.17989,51.61165],[-0.17985,51.61168],[-0.18001,51.61176],[-0.18024,51.61161],[-0.18047,51.61144],[-0.18029,51.61134],[-0.18032,51.61131]]]]}},
{ "type":"Feature","properties":{"osm_way_id":"20794161","name":"ALDI","building":"yes","shop":"supermarket","other":{"addr:postcode":"N12 0ER","addr:street":"Ballards Lane, Tally Ho Corner","brand":"ALDI","brand:wikidata":"Q41171672","brand:wikipedia":"en:Aldi","name:fa":"آلدی","wheelchair":"yes"}}, "geometry":{"type":"MultiPolygon","coordinates":[[[[-0.17737,51.61261],[-0.17731,51.61274],[-0.17713,51.61311],[-0.17672,51.61306],[-0.1769,51.61255],[-0.17737,51.61261]]]]}},
{ "type":"Feature","properties":{"osm_way_id":"22870680","name":"Tesco Extra Colney Hatch","building":"yes","shop":"supermarket","other":{"addr:city":"North Finchley","addr:housename":"Coppetts Centre","addr:postcode":"N12 0SH","addr:street":"North Circular Road","brand":"Tesco Extra","brand:wikidata":"Q25172225","brand:wikipedia":"en:Tesco Extra","opening_hours":"Mo 06:00-00:00; Tu-Fr 00:00-00:00; Sa 00:00-22:00; Su 10:00-16:00"}}, "geometry":{"type":"MultiPolygon","coordinates":[[[[-0.15564,51.60714],[-0.15577,51.6071],[-0.15588,51.6072],[-0.15555,51.60748],[-0.15526,51.60757],[-0.15518,51.6075],[-0.15501,51.60756],[-0.15518,51.60775],[-0.15491,51.60784],[-0.15487,51.60779],[-0.15479,51.60782],[-0.15466,51.60767],[-0.15459,51.6077],[-0.15452,51.60762],[-0.15443,51.60765],[-0.15428,51.60747],[-0.15407,51.60723],[-0.15398,51.60726],[-0.15383,51.60709],[-0.15474,51.60678],[-0.15484,51.60675],[-0.15488,51.60678],[-0.15522,51.60667],[-0.15564,51.60714]]]]}},
{ "type":"Feature","properties":{"osm_way_id":"24147904","name":"Sainsbury's","building":"retail","shop":"supermarket","other":{"addr:city":"London","addr:housenumber":"836","addr:postcode":"N12 9RE","addr:street":"High Road","brand":"Sainsbury's","brand:wikidata":"Q152096","wheelchair":"yes"}}, "geometry":{"type":"MultiPolygon","coordinates":[[[[-0.1765,51.61821],[-0.17573,51.6182],[-0.17573,51.61812],[-0.1757,51.61812],[-0.1757,51.61763],[-0.17597,51.61762],[-0.17606,51.61761],[-0.17653,51.61761],[-0.1765,51.61821]]]]}},
{ "type":"Feature","properties":{"osm_way_id":"28531906","name":"Tesco Superstore Finchley","building":"retail","shop":"supermarket","other":{"addr:city":"London","addr:country":"GB","addr:housenumber":"21-29","addr:postcode":"N3 1XP","addr:street":"Ballards Lane","brand":"Tesco","brand:wikidata":"Q487494","brand:wikipedia":"en:Tesco","building:levels":"3","fhrs:id":"757716","opening_hours":"Mo-Sa 06:00-24:00, Su 11:00-17:00","roof:levels":"0","toilets":"yes","toilets:wheelchair":"yes","wheelchair":"yes"}}, "geometry":{"type":"MultiPolygon","coordinates":[[[[-0.19228,51.60353],[-0.19214,51.60345],[-0.19211,51.60348],[-0.19144,51.60314],[-0.19201,51.60275],[-0.19228,51.60289],[-0.19223,51.60292],[-0.19229,51.60296],[-0.19226,51.60298],[-0.19228,51.60299],[-0.19267,51.6032],[-0.19269,51.60324],[-0.19228,51.60353]]]]}},
{ "type":"Feature","properties":{"osm_way_id":"30925564","name":"Sainsbury's","building":"shop","shop":"supermarket","other":{"brand":"Sainsbury's","brand:wikidata":"Q152096"}}, "geometry":{"type":"MultiPolygon","coordinates":[[[[-0.24464,51.5818],[-0.24459,51.58183],[-0.24471,51.58191],[-0.2446,51.58197],[-0.24467,51.58201],[-0.24438,51.58217],[-0.24433,51.58213],[-0.24417,51.58222],[-0.2442,51.58224],[-0.24394,51.58238],[-0.24391,51.58236],[-0.24388,51.58237],[-0.24363,51.5822],[-0.24371,51.58215],[-0.24315,51.58176],[-0.24309,51.58171],[-0.24308,51.58161],[-0.24326,51.58151],[-0.24342,51.58162],[-0.24395,51.58133],[-0.24464,51.5818]]]]}},
{ "type":"Feature","properties":{"osm_way_id":"38304017","name":"Lidl","building":"yes","shop":"supermarket","other":{"brand":"Lidl","brand:wikidata":"Q151954","brand:wikipedia":"en:Lidl","operator":"Lidl"}}, "geometry":{"type":"MultiPolygon","coordinates":[[[[-0.22011,51.56249],[-0.22063,51.56221],[-0.22095,51.56244],[-0.22039,51.56271],[-0.22011,51.56249]]]]}},
{ "type":"Feature","properties":{"osm_way_id":"124976222","name":"Waitrose","building":"yes","shop":"supermarket","other":{"addr:housenumber":"32-39","addr:postcode":"NW11 0QS","addr:street":"Temple Fortune Parade","brand":"Waitrose","brand:wikidata":"Q771734","brand:wikipedia":"en:Waitrose & Partners","official_name":"Waitrose & Partners","operator":"Waitrose & Partners"}}, "geometry":{"type":"MultiPolygon","coordinates":[[[[-0.20022,51.58401],[-0.2,51.58403],[-0.19995,51.58375],[-0.19993,51.5836],[-0.20009,51.58358],[-0.20012,51.58372],[-0.20017,51.58372],[-0.20022,51.58401]]]]}},
{ "type":"Feature","properties":{"osm_way_id":"143214348","name":"Sainsbury's Golders Green","building":"yes","shop":"supermarket","other":{"brand":"Sainsbury's","brand:wikidata":"Q152096","brand:wikipedia":"en:Sainsbury's","operator":"Sainsbury's","website":"https:\/\/stores.sainsburys.co.uk\/0164\/golders-green","wheelchair":"yes"}}, "geometry":{"type":"MultiPolygon","coordinates":[[[[-0.19495,51.5706],[-0.19499,51.57083],[-0.19409,51.57088],[-0.19412,51.5706],[-0.19428,51.5706],[-0.19429,51.57065],[-0.19495,51.5706]]]]}},
{ "type":"Feature","properties":{"osm_way_id":"146668326","name":"May Lane's Co-op","building":"yes","shop":"supermarket","other":{"addr:housenumber":"187","addr:street":"Mays Lane","brand":"Co-op Food","brand:wikidata":"Q3277439","brand:wikipedia":"en:Co-op Food","opening_hours":"Mo-Su 07:00-23:00","operator":"The Co-operative Group","operator:wikidata":"Q117202","operator:wikipedia":"en:The Co-operative Group"}}, "geometry":{"type":"MultiPolygon","coordinates":[[[[-0.20345,51.64585],[-0.20327,51.64587],[-0.20317,51.6456],[-0.2032,51.6456],[-0.20318,51.64555],[-0.20325,51.64554],[-0.20326,51.64557],[-0.20335,51.64556],[-0.20345,51.64585]]]]}},
{ "type":"Feature","properties":{"osm_way_id":"166129315","name":"Waitrose","building":"retail","shop":"supermarket","other":{"brand":"Waitrose","brand:wikidata":"Q771734","brand:wikipedia":"en:Waitrose & Partners","official_name":"Waitrose & Partners","operator":"Waitrose & Partners","phone":"+44 20 8371 8248","wheelchair":"yes"}}, "geometry":{"type":"MultiPolygon","coordinates":[[[[-0.20955,51.6074],[-0.20915,51.6069],[-0.20854,51.60709],[-0.20872,51.60731],[-0.20876,51.6073],[-0.20897,51.60756],[-0.20907,51.60753],[-0.20911,51.60758],[-0.20943,51.60749],[-0.2094,51.60745],[-0.20955,51.6074]]]]}},
{ "type":"Feature","properties":{"osm_way_id":"171417014","name":"The Co-operative Food","building":"yes","shop":"supermarket","other":{"addr:housenumber":"308","addr:postcode":"N12 0LH","addr:street":"Woodhouse Road","brand:wikidata":"Q3277439","opening_hours":"Mo-Su 07:00-23:00","phone":"+44 20 8211 3359","website":"https:\/\/www.coop.co.uk\/store-finder\/N12-0LH\/woodhouse-road"}}, "geometry":{"type":"MultiPolygon","coordinates":[[[[-0.15947,51.61231],[-0.15977,51.61218],[-0.15973,51.61215],[-0.1597,51.61212],[-0.1594,51.61224],[-0.15947,51.61231]]]]}},
{ "type":"Feature","properties":{"osm_way_id":"178634675","name":"ALDI","building":"yes","shop":"supermarket","other":{"addr:city":"Barnet","addr:housenumber":"30","addr:postcode":"EN4 8SL","addr:street":"Brookhill Road","brand":"ALDI","brand:wikidata":"Q41171672","brand:wikipedia":"en:Aldi","name:fa":"آلدی"}}, "geometry":{"type":"MultiPolygon","coordinates":[[[[-0.16347,51.64479],[-0.16366,51.64459],[-0.16365,51.64459],[-0.16371,51.64453],[-0.16396,51.64463],[-0.16401,51.64458],[-0.16434,51.64471],[-0.16424,51.64481],[-0.16426,51.64482],[-0.16413,51.64495],[-0.16415,51.64496],[-0.16408,51.64502],[-0.16401,51.645],[-0.16403,51.64498],[-0.1636,51.64482],[-0.16359,51.64483],[-0.16347,51.64479]]]]}},
{ "type":"Feature","properties":{"osm_way_id":"188280753","name":"Greens International Food Centre","building":"yes","shop":"supermarket","other":{"fhrs:id":"1373208","operator":"Greens International Food Centre","website":"https:\/\/greensfoodcentre.co.uk\/"}}, "geometry":{"type":"MultiPolygon","coordinates":[[[[-0.1731,51.6123],[-0.17306,51.61216],[-0.17275,51.61208],[-0.17268,51.61219],[-0.1729,51.61224],[-0.17292,51.61221],[-0.173,51.61222],[-0.17301,51.61229],[-0.17302,51.61231],[-0.1731,51.6123]]]]}},
{ "type":"Feature","properties":{"osm_way_id":"201351895","name":"HFC Hyper Food Centre","building":"yes","shop":"supermarket","other":{"addr:city":"London","addr:housenumber":"3","addr:postcode":"NW4 2BP","addr:street":"Bell Lane"}}, "geometry":{"type":"MultiPolygon","coordinates":[[[[-0.2196,51.58677],[-0.21949,51.58652],[-0.21972,51.58648],[-0.21984,51.58673],[-0.2196,51.58677]]]]}},
{ "type":"Feature","properties":{"osm_way_id":"228952705","name":"Sainsbury's","building":"retail","shop":"supermarket","other":{"addr:city":"Edgware","addr:housename":"Broadwalk Shopping Centre","addr:postcode":"HA8 7BQ","addr:street":"Station Road","atm":"yes","branch":"Edgware Superstore","brand":"Sainsbury's","brand:wikidata":"Q152096","opening_hours":"Mo-Sa 07:00-22:00; Su 11:00-17:00; 2017 May 29 08:00-19:00","opening_hours:url":"https:\/\/stores.sainsburys.co.uk\/0515\/edgware","phone":"+44 20 8905 6066","website":"https:\/\/stores.sainsburys.co.uk\/0515\/edgware"}}, "geometry":{"type":"MultiPolygon","coordinates":[[[[-0.27518,51.6118],[-0.27515,51.61168],[-0.27524,51.61167],[-0.27569,51.61129],[-0.27645,51.61164],[-0.27623,51.61185],[-0.27614,51.61203],[-0.27601,51.61217],[-0.27518,51.6118]]]]}},
{ "type":"Feature","properties":{"osm_way_id":"398513023","name":"Sainsbury's Local","building":"retail","shop":"supermarket","other":{"brand:wikidata":"Q13218434","opening_hours":"PH,Mo-Su 07:00-23:00"}}, "geometry":{"type":"MultiPolygon","coordinates":[[[[-0.23103,51.58267],[-0.23099,51.58249],[-0.23077,51.5825],[-0.2308,51.58268],[-0.23103,51.58267]]]]}},
{ "type":"Feature","properties":{"osm_way_id":"592464404","name":"Whetstone Mini Supermarket","building":"yes","shop":"supermarket","other":{"addr:city":"London","addr:housenumber":"5-7","addr:postcode":"N20 9HE","addr:street":"Oakleigh Road North","opening_hours":"Mo-Su 08:00-22:00"}}, "geometry":{"type":"MultiPolygon","coordinates":[[[[-0.17428,51.63006],[-0.17408,51.6301],[-0.17405,51.63005],[-0.17425,51.63],[-0.17428,51.63006]]]]}},
{ "type":"Feature","properties":{"osm_way_id":"961890907","name":"M&S Foodhall","building":"yes","shop":"supermarket","other":{"addr:city":"London","addr:housenumber":"820-832","addr:postcode":"NW11 6XL","addr:street":"Finchley Road","brand":"M&S Foodhall","brand:wikidata":"Q714491","brand:wikipedia":"en:Marks & Spencer"}}, "geometry":{"type":"MultiPolygon","coordinates":[[[[-0.19952,51.58348],[-0.1995,51.5835],[-0.19947,51.58351],[-0.19936,51.58353],[-0.19934,51.58351],[-0.19902,51.58355],[-0.19894,51.58353],[-0.1989,51.5834],[-0.19883,51.58341],[-0.19881,51.58335],[-0.19893,51.5833],[-0.19895,51.58333],[-0.19926,51.58329],[-0.19923,51.58322],[-0.19925,51.5832],[-0.19935,51.58317],[-0.19941,51.58317],[-0.19952,51.58348]]]]}},
{ "type":"Feature","properties":{"osm_way_id":"1005608362","name":"Da Food Island","building":"yes","shop":"supermarket"},"geometry":{"type":"MultiPolygon","coordinates":[[[[-0.24819,51.58463],[-0.24819,51.5846],[-0.24812,51.58454],[-0.24793,51.5845],[-0.24784,51.58453],[-0.24791,51.58466],[-0.24819,51.58463]]]]}}
]
}
