{
"type": "FeatureCollection",
"features": [
{ "type":"Feature","properties":{"osm_way_id":"85437105","name":"Amazon UK (LBA1)","building":"warehouse","other":{"addr:postcode":"DN4 5JS","operator":"Amazon UK Services Ltd. Doncaster"}}, "geometry":{"type":"MultiPolygon","coordinates":[[[[-1.12191,53.49888],[-1.1214,53.4995],[-1.12124,53.49944],[-1.12093,53.49982],[-1.12101,53.49984],[-1.1209,53.49998],[-1.12455,53.50106],[-1.12548,53.49994],[-1.12191,53.49888]]]]}},
{ "type":"Feature","properties":{"osm_way_id":"85437107","name":"VictoriaPlum","building":"warehouse"},"geometry":{"type":"MultiPolygon","coordinates":[[[[-1.12853,53.49944],[-1.1278,53.50024],[-1.13093,53.50123],[-1.13162,53.50039],[-1.12853,53.49944]]]]}},
{ "type":"Feature","properties":{"osm_way_id":"85437109","name":"Amazon UK (LBA3)","building":"warehouse","other":{"operator":"Amazon UK Services Ltd. Doncaster","postal_code":"DN4 5JP","ref":"Amazon LBA3"}}, "geometry":{"type":"MultiPolygon","coordinates":[[[[-1.13143,53.50136],[-1.13216,53.50048],[-1.13478,53.50129],[-1.134,53.50219],[-1.13143,53.50136]]]]}},
{ "type":"Feature","properties":{"osm_way_id":"188170330","name":"Next Distribution","building":"warehouse","other":{"addr:city":"Doncaster","addr:housename":"Redhouse Interchange","addr:postcode":"DN6 7FB","addr:street":"Rockingham Way","building:levels":"2","description":"RSC"}}, "geometry":{"type":"MultiPolygon","coordinates":[[[[-1.2127,53.56774],[-1.21238,53.56666],[-1.20997,53.56692],[-1.21029,53.56799],[-1.2127,53.56774]]]]}},
{ "type":"Feature","properties":{"osm_way_id":"188170331","name":"ASDA Distribution","building":"warehouse","other":{"addr:postcode":"DN6 7FB"}}, "geometry":{"type":"MultiPolygon","coordinates":[[[[-1.21169,53.57223],[-1.21126,53.57093],[-1.21146,53.57091],[-1.211,53.5695],[-1.21081,53.56952],[-1.21055,53.56873],[-1.2082,53.569],[-1.20935,53.5725],[-1.21169,53.57223]]]]}},
{ "type":"Feature","properties":{"osm_way_id":"188170332","name":"DFS Group Support Center","building":"warehouse","other":{"addr:postcode":"DN6 7NA"}}, "geometry":{"type":"MultiPolygon","coordinates":[[[[-1.21186,53.57444],[-1.21164,53.57377],[-1.20916,53.57406],[-1.20938,53.57473],[-1.21186,53.57444]]]]}},
{ "type":"Feature","properties":{"osm_way_id":"188170333","building":"warehouse"},"geometry":{"type":"MultiPolygon","coordinates":[[[[-1.21688,53.57095],[-1.217,53.5703],[-1.2172,53.57031],[-1.2177,53.56768],[-1.21748,53.56767],[-1.21753,53.56742],[-1.21693,53.56738],[-1.21695,53.56726],[-1.21504,53.56714],[-1.21501,53.56726],[-1.21483,53.56724],[-1.21479,53.56749],[-1.21454,53.56748],[-1.21404,53.57011],[-1.21427,53.57012],[-1.21412,53.57088],[-1.21637,53.57103],[-1.21639,53.57092],[-1.21688,53.57095]]]]}},
{ "type":"Feature","properties":{"osm_way_id":"248366135","name":"Doncaster Delivery Office","amenity":"post_depot","building":"warehouse","other":{"addr:city":"Doncaster","addr:postcode":"DN4 5NE","addr:street":"Middle Bank","old_name":"Doncaster Sorting Office","operator":"Royal Mail"}}, "geometry":{"type":"MultiPolygon","coordinates":[[[[-1.12656,53.5131],[-1.12557,53.51238],[-1.12482,53.51274],[-1.12495,53.51283],[-1.1249,53.51285],[-1.12513,53.51302],[-1.12518,53.513],[-1.12552,53.51325],[-1.12548,53.51327],[-1.12576,53.51348],[-1.12581,53.51347],[-1.12594,53.5134],[-1.126,53.51344],[-1.12617,53.51335],[-1.12611,53.51332],[-1.12656,53.5131]]]]}},
{ "type":"Feature","properties":{"osm_way_id":"258191164","name":"IKEA Distribution Centre","building":"warehouse"},"geometry":{"type":"MultiPolygon","coordinates":[[[[-1.03263,53.542],[-1.03251,53.54196],[-1.03256,53.5419],[-1.02913,53.54083],[-1.02907,53.54089],[-1.02876,53.54079],[-1.0288,53.54074],[-1.02406,53.53925],[-1.02567,53.53744],[-1.02999,53.53881],[-1.02973,53.53909],[-1.03145,53.53963],[-1.03149,53.53959],[-1.0314,53.53956],[-1.03145,53.5395],[-1.03237,53.53978],[-1.03224,53.53993],[-1.03398,53.54048],[-1.03263,53.542]]]]}},
{ "type":"Feature","properties":{"osm_way_id":"362117957","building":"warehouse"},"geometry":{"type":"MultiPolygon","coordinates":[[[[-1.03079,53.53466],[-1.03367,53.53549],[-1.03318,53.53608],[-1.03264,53.53592],[-1.03107,53.53784],[-1.02815,53.537],[-1.02984,53.53494],[-1.03042,53.53511],[-1.03079,53.53466]]]]}},
{ "type":"Feature","properties":{"osm_way_id":"362117958","building":"warehouse","other":{"addr:postcode":"DN3 3FF"}}, "geometry":{"type":"MultiPolygon","coordinates":[[[[-1.03446,53.53756],[-1.03359,53.53861],[-1.03236,53.53826],[-1.03323,53.53719],[-1.03446,53.53756]]]]}},
{ "type":"Feature","properties":{"osm_way_id":"362117959","building":"warehouse"},"geometry":{"type":"MultiPolygon","coordinates":[[[[-1.03561,53.53602],[-1.0347,53.53716],[-1.03356,53.53684],[-1.03448,53.5357],[-1.03561,53.53602]]]]}},
{ "type":"Feature","properties":{"osm_way_id":"362117960","building":"warehouse","other":{"addr:postcode":"DN3 3FG"}}, "geometry":{"type":"MultiPolygon","coordinates":[[[[-1.03868,53.53695],[-1.03779,53.53805],[-1.03619,53.5376],[-1.03707,53.53649],[-1.03868,53.53695]]]]}},
{ "type":"Feature","properties":{"osm_way_id":"362117961","building":"warehouse"},"geometry":{"type":"MultiPolygon","coordinates":[[[[-1.03748,53.53818],[-1.03644,53.53946],[-1.03503,53.53905],[-1.03607,53.53777],[-1.03748,53.53818]]]]}},
{ "type":"Feature","properties":{"osm_way_id":"535587747","name":"Amazon UK (DDN1)","building":"warehouse","other":{"operator":"Amazon UK Services Ltd. Doncaster"}}, "geometry":{"type":"MultiPolygon","coordinates":[[[[-1.10787,53.48212],[-1.1063,53.48184],[-1.10556,53.48328],[-1.10501,53.48318],[-1.10494,53.48331],[-1.10707,53.48369],[-1.10787,53.48212]]]]}},
{ "type":"Feature","properties":{"osm_way_id":"626905887","name":"Amazon UK (LBA2)","building":"warehouse","other":{"addr:postcode":"DN11 0BQ","operator":"Amazon UK Services Ltd. Doncaster"}}, "geometry":{"type":"MultiPolygon","coordinates":[[[[-1.10613,53.4863],[-1.10412,53.48593],[-1.10402,53.48612],[-1.10068,53.4855],[-1.10078,53.48531],[-1.09877,53.48494],[-1.09961,53.48334],[-1.10307,53.48398],[-1.10316,53.48382],[-1.10375,53.48393],[-1.10367,53.4841],[-1.10696,53.48471],[-1.10613,53.4863]]]]}},
{ "type":"Feature","properties":{"osm_way_id":"626905890","building":"warehouse","other":{"addr:postcode":"DN11 0BQ","operator":"Ceva Logistics"}}, "geometry":{"type":"MultiPolygon","coordinates":[[[[-1.10203,53.4827],[-1.10074,53.48246],[-1.10068,53.48258],[-1.10014,53.48248],[-1.10021,53.48236],[-1.10047,53.48241],[-1.10126,53.48089],[-1.10282,53.48118],[-1.10203,53.4827]]]]}},
{ "type":"Feature","properties":{"osm_way_id":"628338779","building":"warehouse","other":{"addr:postcode":"DN11 0BF"}}, "geometry":{"type":"MultiPolygon","coordinates":[[[[-1.10386,53.48173],[-1.10282,53.48153],[-1.10316,53.48091],[-1.10419,53.48111],[-1.10386,53.48173]]]]}},
{ "type":"Feature","properties":{"osm_way_id":"691046073","name":"Lidl Distribution Centre","building":"warehouse","other":{"brand":"Lidl","brand:wikidata":"Q151954","brand:wikipedia":"en:Lidl","operator":"Lidl"}}, "geometry":{"type":"MultiPolygon","coordinates":[[[[-1.10832,53.47997],[-1.10233,53.47887],[-1.10293,53.4777],[-1.10847,53.47871],[-1.10856,53.47856],[-1.10888,53.47863],[-1.10896,53.47874],[-1.10832,53.47997]]]]}},
{ "type":"Feature","properties":{"osm_way_id":"691046074","building":"warehouse"},"geometry":{"type":"MultiPolygon","coordinates":[[[[-1.10453,53.48106],[-1.10326,53.48081],[-1.10382,53.47979],[-1.10509,53.48004],[-1.10453,53.48106]]]]}},
{ "type":"Feature","properties":{"osm_way_id":"863645615","name":"Amazon UK (LBA4)","building":"warehouse","other":{"operator":"Amazon UK Services Ltd. Doncaster","smoking":"outside"}}, "geometry":{"type":"MultiPolygon","coordinates":[[[[-1.11108,53.47478],[-1.10846,53.4743],[-1.10958,53.47215],[-1.11219,53.47263],[-1.11108,53.47478]]]]}},
{ "type":"Feature","properties":{"osm_way_id":"1011909713","building":"warehouse"},"geometry":{"type":"MultiPolygon","coordinates":[[[[-1.03949,53.52663],[-1.03809,53.52635],[-1.03686,53.52849],[-1.03827,53.52878],[-1.03949,53.52663]]]]}}
]
}
