{
"type": "FeatureCollection",
"features": [
{ "type":"Feature","properties":{"osm_id":"26629221","name":"Co-op Food","other":{"shop":"supermarket","brand":"Co-op Food","operator":"The Co-operative Group","addr:street":"Kingsley Road","opening_hours":"Mo-Su 06:00-22:00","brand:wikidata":"Q3277439","brand:wikipedia":"en:Co-op Food"}}, "geometry":{"type":"Point","coordinates":[-1.16833,51.90875 ]}},
{ "type":"Feature","properties":{"osm_id":"26632769","name":"The Co-operative Food","other":{"shop":"supermarket","operator":"Midcounties Co-operative"}}, "geometry":{"type":"Point","coordinates":[-1.15636,51.91018 ]}},
{ "type":"Feature","properties":{"osm_id":"26885220","name":"Co-op Food","other":{"shop":"supermarket","brand":"Co-op Food","operator":"Midcounties Co-operative","brand:wikidata":"Q3277439","brand:wikipedia":"en:Co-op Food"}}, "geometry":{"type":"Point","coordinates":[-1.14705,51.90615 ]}},
{ "type":"Feature","properties":{"osm_id":"282311059","name":"Amigo","other":{"shop":"supermarket"}}, "geometry":{"type":"Point","coordinates":[-1.12379,51.87382 ]}},
{ "type":"Feature","properties":{"osm_id":"676396746","name":"Co-op Food","other":{"brand":"Co-op Food","brand:wikidata":"Q3277439","brand:wikipedia":"en:Co-op Food","shop":"supermarket"}}, "geometry":{"type":"Point","coordinates":[-1.32841,52.04881 ]}},
{ "type":"Feature","properties":{"osm_id":"3838292350","name":"grape tree","other":{"shop":"supermarket","organic":"only"}}, "geometry":{"type":"Point","coordinates":[-1.16363,51.88759 ]}},
{ "type":"Feature","properties":{"osm_id":"5389720574","name":"Co-op Food","other":{"brand":"Co-op Food","brand:wikidata":"Q3277439","brand:wikipedia":"en:Co-op Food","operator":"Midcounties Co-operative","shop":"supermarket"}}, "geometry":{"type":"Point","coordinates":[-1.35536,52.07483 ]}},
{ "type":"Feature","properties":{"osm_id":"6326531858","name":"Taste of Poland","other":{"shop":"supermarket"}}, "geometry":{"type":"Point","coordinates":[-1.15283,51.89635 ]}},
{ "type":"Feature","properties":{"osm_id":"6566642241","name":"Co-op Food","other":{"shop":"supermarket","brand":"Co-op Food","opening_hours":"Mo-Su 07:00-20:00","brand:wikidata":"Q3277439","brand:wikipedia":"en:Co-op Food"}}, "geometry":{"type":"Point","coordinates":[-1.16964,51.89362 ]}},
{ "type":"Feature","properties":{"osm_id":"8653282115","name":"Sainsbury's","other":{"opening_hours":"Mo-Su 07:00-23:00","shop":"supermarket","wheelchair":"yes"}}, "geometry":{"type":"Point","coordinates":[-1.25388,51.92821 ]}},
{ "type":"Feature","properties":{"osm_id":"8909677307","name":"Amazon Locker Tulip","other":{"amenity":"vending_machine","brand":"Amazon Locker","brand:wikidata":"Q16974764","brand:wikipedia":"en:Amazon Locker","covered":"yes","indoor":"yes","operator":"Amazon","vending":"parcel_pickup"}}, "geometry":{"type":"Point","coordinates":[-1.33213,52.05709 ]}},
{ "type":"Feature","properties":{"osm_id":"9031995588","name":"Co-op","other":{"operator":"Midcounties Co-operative","shop":"supermarket"}}, "geometry":{"type":"Point","coordinates":[-1.2759,51.85621 ]}},
{ "type":"Feature","properties":{"osm_id":"9420146183","name":"The Co-operative Food","other":{"brand":"The Co-operative Food","brand:wikidata":"Q107617274","shop":"supermarket"}}, "geometry":{"type":"Point","coordinates":[-1.34956,52.05556 ]}},
{ "type":"Feature","properties":{"osm_way_id":"41212996","name":"Sainsbury's","building":"yes","shop":"supermarket","other":{"brand":"Sainsbury's","brand:wikidata":"Q152096","operator":"Sainsbury's","source:geometry":"Bing","wheelchair":"yes"}}, "geometry":{"type":"MultiPolygon","coordinates":[[[[-1.27686,51.80904],[-1.27688,51.80905],[-1.27685,51.80909],[-1.27732,51.80924],[-1.27734,51.80923],[-1.27759,51.80931],[-1.27758,51.80932],[-1.27779,51.80937],[-1.27783,51.80938],[-1.27787,51.80938],[-1.27791,51.80937],[-1.27795,51.80936],[-1.27799,51.80934],[-1.27825,51.80897],[-1.27819,51.80885],[-1.2781,51.80882],[-1.27792,51.80841],[-1.27786,51.80839],[-1.27784,51.80838],[-1.27778,51.80837],[-1.27776,51.80841],[-1.27745,51.80832],[-1.27738,51.80835],[-1.27686,51.80904]]]]}},
{ "type":"Feature","properties":{"osm_way_id":"41875255","name":"Aldi","building":"retail","shop":"supermarket","other":{"addr:city":"Banbury","addr:housename":"Aldi","addr:postcode":"OX16 2GU","addr:street":"Ruscote Avenue","alt_name":"ALDI Banbury","brand":"ALDI","brand:wikidata":"Q41171672","brand:wikipedia":"en:Aldi","fhrs:id":"222474","opening_hours:covid19":"open","source:addr:postcode":"FSA Food Hygiene Ratings Database"}}, "geometry":{"type":"MultiPolygon","coordinates":[[[[-1.34583,52.07113],[-1.34562,52.07097],[-1.34556,52.07093],[-1.34627,52.07056],[-1.34633,52.0706],[-1.34659,52.07079],[-1.34641,52.07088],[-1.34636,52.07085],[-1.34583,52.07113]]]]}},
{ "type":"Feature","properties":{"osm_way_id":"118659120","name":"Tesco Metro","building":"supermarket","shop":"supermarket","other":{"brand":"Tesco Metro","brand:wikidata":"Q57551648","source:geometry":"Bing"}}, "geometry":{"type":"MultiPolygon","coordinates":[[[[-1.28763,51.82383],[-1.28777,51.82407],[-1.28789,51.82428],[-1.28765,51.82433],[-1.28738,51.82389],[-1.28763,51.82383]]]]}},
{ "type":"Feature","properties":{"osm_way_id":"131543022","name":"The Co-operative","building":"supermarket","shop":"supermarket"},"geometry":{"type":"MultiPolygon","coordinates":[[[[-1.28886,51.82335],[-1.28858,51.82341],[-1.2886,51.82343],[-1.28854,51.82344],[-1.28852,51.8234],[-1.28833,51.82308],[-1.2883,51.82309],[-1.28827,51.82305],[-1.28829,51.82304],[-1.28824,51.82295],[-1.28834,51.82293],[-1.28835,51.82294],[-1.28861,51.82288],[-1.28864,51.82291],[-1.28865,51.82291],[-1.28874,51.82306],[-1.28869,51.82307],[-1.28879,51.82323],[-1.28886,51.82335]]]]}},
{ "type":"Feature","properties":{"osm_way_id":"132580585","name":"Co-op Food","building":"yes","shop":"supermarket","other":{"addr:housenumber":"199","addr:postcode":"OX5 1AL","addr:street":"Banbury Road","addr:village":"Kidlington","brand":"Co-op Food","brand:wikidata":"Q3277439","brand:wikipedia":"en:Co-op Food","fhrs:id":"222366","source:addr":"FHRS Open Data"}}, "geometry":{"type":"MultiPolygon","coordinates":[[[[-1.29956,51.82981],[-1.29953,51.82977],[-1.29927,51.82986],[-1.29928,51.82987],[-1.29926,51.82987],[-1.29931,51.82994],[-1.29954,51.82986],[-1.29957,51.82989],[-1.29972,51.82984],[-1.29967,51.82978],[-1.29956,51.82981]]]]}},
{ "type":"Feature","properties":{"osm_way_id":"149880833","name":"Morrisons","building":"yes","shop":"supermarket","other":{"addr:city":"Banbury","addr:postcode":"OX16 5AQ","addr:street":"Swan Close Road","branch":"Banbury","brand":"Morrisons","brand:wikidata":"Q922344","brand:wikipedia":"en:Morrisons","diet:vegan":"no","diet:vegetarian":"yes","layer":"1","opening_hours":"Mo-Sa 06:00-22:00; Su 09:30-16:00","opening_hours:covid19":"open","payment:cash":"yes","payment:credit_cards":"yes","payment:debit_cards":"yes","website":"https:\/\/my.morrisons.com\/storefinder\/106"}}, "geometry":{"type":"MultiPolygon","coordinates":[[[[-1.33241,52.05643],[-1.33355,52.0568],[-1.33312,52.0573],[-1.33278,52.05719],[-1.33272,52.05727],[-1.33213,52.05709],[-1.33187,52.057],[-1.33198,52.05687],[-1.33203,52.05689],[-1.33241,52.05643]]]]}},
{ "type":"Feature","properties":{"osm_way_id":"152817557","name":"Tesco Extra","building":"retail","shop":"supermarket","other":{"addr:city":"Banbury","addr:housename":"Tesco","addr:postcode":"OX16 1LX","addr:street":"Lockheed Close","alt_name":"Tesco Banbury Extra","brand":"Tesco Extra","brand:wikidata":"Q25172225","brand:wikipedia":"en:Tesco Extra","building:levels":"2","contact:website":"https:\/\/www.tesco.com\/store-locator\/banbury\/lockheed-close","opening_hours":"24\/7","opening_hours:covid19":"open","operator":"Tesco PLC","stroller":"yes","wheelchair":"yes"}}, "geometry":{"type":"MultiPolygon","coordinates":[[[[-1.3387,52.07438],[-1.3402,52.07455],[-1.34027,52.07431],[-1.34013,52.0743],[-1.34019,52.07413],[-1.33996,52.0741],[-1.34002,52.0739],[-1.34014,52.07391],[-1.34019,52.07375],[-1.33928,52.07365],[-1.33931,52.07354],[-1.33891,52.0735],[-1.33886,52.07366],[-1.33879,52.07365],[-1.33876,52.07377],[-1.33882,52.07378],[-1.3388,52.07383],[-1.33887,52.07384],[-1.3387,52.07438]]]]}},
{ "type":"Feature","properties":{"osm_way_id":"160658794","name":"Sainsbury's","building":"yes","shop":"supermarket","other":{"addr:city":"Banbury","addr:postcode":"OX16 9XA","addr:street":"Oxford Road","branch":"Banbury Superstore","brand":"Sainsbury's","brand:wikidata":"Q152096","brand:wikipedia":"en:Sainsbury's","opening_hours":"Mo-Sa 07:00-22:00 Su 10:00-16:00","operator":"Sainsburys"}}, "geometry":{"type":"MultiPolygon","coordinates":[[[[-1.33446,52.05088],[-1.33365,52.0501],[-1.33254,52.05053],[-1.33308,52.05105],[-1.33332,52.05096],[-1.33347,52.0511],[-1.33356,52.05107],[-1.33371,52.05121],[-1.33378,52.05119],[-1.33375,52.05116],[-1.33389,52.05111],[-1.33392,52.05114],[-1.334,52.05111],[-1.33397,52.05108],[-1.33446,52.05088]]]]}},
{ "type":"Feature","properties":{"osm_way_id":"221959534","name":"Budgens","building":"yes","shop":"supermarket","other":{"brand":"Budgens","brand:wikidata":"Q4985016","brand:wikipedia":"en:Budgens"}}, "geometry":{"type":"MultiPolygon","coordinates":[[[[-1.30642,51.80972],[-1.30624,51.80963],[-1.30648,51.80946],[-1.30665,51.80955],[-1.30659,51.8096],[-1.30661,51.8097],[-1.30656,51.80974],[-1.30642,51.80972]]]]}},
{ "type":"Feature","properties":{"osm_way_id":"254038337","name":"LIDL","building":"commercial","shop":"supermarket","other":{"addr:city":"Bicester","addr:postcode":"OX26 4LB","addr:street":"Launton Road","alt_name":"LIDL Bicester","brand":"Lidl","brand:wikidata":"Q151954","fhrs:id":"222819","source:addr:postcode":"FSA Food Hygiene Ratings Database"}}, "geometry":{"type":"MultiPolygon","coordinates":[[[[-1.13332,51.90426],[-1.13377,51.90402],[-1.13358,51.90388],[-1.13353,51.9039],[-1.13318,51.90365],[-1.13292,51.90379],[-1.13288,51.90376],[-1.13273,51.90384],[-1.13332,51.90426]]]]}},
{ "type":"Feature","properties":{"osm_way_id":"254825940","name":"Aldi","building":"yes","shop":"supermarket","other":{"addr:city":"Bicester","addr:postcode":"OX26 6PZ","addr:street":"Launton Road","alt_name":"ALDI Bicester","brand":"ALDI","brand:wikidata":"Q41171672","brand:wikipedia":"en:Aldi"}}, "geometry":{"type":"MultiPolygon","coordinates":[[[[-1.14167,51.89847],[-1.14113,51.89882],[-1.14085,51.89866],[-1.14123,51.89842],[-1.14118,51.89838],[-1.14133,51.89828],[-1.14167,51.89847]]]]}},
{ "type":"Feature","properties":{"osm_way_id":"254826397","name":"Sainsbury's","building":"retail","shop":"supermarket","other":{"atm":"yes","brand":"Sainsbury's","branch":"Bicester Superstore","addr:city":"Bicester","wheelchair":"yes","addr:street":"Bure Place","addr:postcode":"OX26 6FA","opening_hours":"Mo-Fr 07:00-23:00; Sa 07:00-22:00; Su 10:00-16:00","addr:housename":"Pioneer Square","brand:wikidata":"Q152096","brand:wikipedia":"en:Sainsbury's","toilets:wheelchair":"yes"}}, "geometry":{"type":"MultiPolygon","coordinates":[[[[-1.15343,51.89813],[-1.15336,51.89807],[-1.15249,51.89749],[-1.15189,51.89773],[-1.15246,51.89836],[-1.15269,51.89839],[-1.15343,51.89813]]]]}},
{ "type":"Feature","properties":{"osm_way_id":"330732593","name":"Co-op Food","building":"retail","shop":"supermarket","other":{"brand":"Co-op Food","operator":"Midcounties Co-operative","addr:city":"Bicester","addr:street":"Buckingham Road","addr:postcode":"OX26 3AH","addr:housename":"Audley House","brand:wikidata":"Q3277439","brand:wikipedia":"en:Co-op Food","addr:housenumber":"Unit 1"}}, "geometry":{"type":"MultiPolygon","coordinates":[[[[-1.15067,51.90773],[-1.15071,51.90766],[-1.15069,51.90766],[-1.15076,51.90755],[-1.15051,51.90749],[-1.15044,51.90759],[-1.15043,51.90758],[-1.15038,51.90765],[-1.15067,51.90773]]]]}},
{ "type":"Feature","properties":{"osm_way_id":"394989441","name":"Tesco","building":"retail","shop":"supermarket","other":{"addr:city":"Bicester","addr:postcode":"OX26 1DE","addr:street":"Lakeview Drive","atm":"yes","branch":"Bicester Superstore","brand":"Tesco","brand:wikidata":"Q487494","brand:wikipedia":"en:Tesco","building:levels":"2","nohousenumber":"yes","opening_hours":"Mo-Sa 06:00-24:00; Su 10:00-16:00","roof:levels":"0","website":"https:\/\/www.tesco.com\/store-locator\/bicester\/lakeview-drive"}}, "geometry":{"type":"MultiPolygon","coordinates":[[[[-1.15925,51.89141],[-1.1581,51.89106],[-1.15842,51.89058],[-1.1586,51.89063],[-1.1589,51.89024],[-1.15986,51.89053],[-1.15985,51.89056],[-1.16011,51.89064],[-1.16005,51.89073],[-1.15982,51.89066],[-1.15925,51.89141]]]]}},
{ "type":"Feature","properties":{"osm_way_id":"401364367","name":"Bao Giang Oriental Supermarket","building":"yes","shop":"supermarket"},"geometry":{"type":"MultiPolygon","coordinates":[[[[-1.33885,52.06208],[-1.33876,52.06206],[-1.33876,52.06201],[-1.33885,52.06202],[-1.33885,52.06208]]]]}},
{ "type":"Feature","properties":{"osm_way_id":"558446619","name":"Waitrose","building":"yes","shop":"supermarket","other":{"addr:city":"Banbury","addr:postcode":"OX16 2FW","addr:street":"Southam Road","brand":"Waitrose","brand:wikidata":"Q771734","brand:wikipedia":"en:Waitrose","official_name":"Waitrose & Partners","operator":"Waitrose & Partners","payment:cash":"yes","payment:credit_cards":"yes"}}, "geometry":{"type":"MultiPolygon","coordinates":[[[[-1.34071,52.06845],[-1.34017,52.06907],[-1.34108,52.06938],[-1.34163,52.06876],[-1.34071,52.06845]]]]}},
{ "type":"Feature","properties":{"osm_way_id":"624058869","name":"Sklep Grosik","building":"retail","shop":"supermarket","other":{"addr:city":"Banbury","addr:street":"Middleton Road","building:levels":"3","addr:housenumber":"35-39"}}, "geometry":{"type":"MultiPolygon","coordinates":[[[[-1.32713,52.06294],[-1.32701,52.06305],[-1.32688,52.063],[-1.327,52.06289],[-1.32713,52.06294]]]]}},
{ "type":"Feature","properties":{"osm_way_id":"651622192","name":"Tesco","building":"retail","shop":"supermarket","other":{"brand":"Tesco","brand:wikidata":"Q487494","brand:wikipedia":"en:Tesco","building:levels":"1","nohousenumber":"yes","roof:shape":"flat","website":"https:\/\/www.tesco.com\/store-locator\/bicester\/lakeview-drive"}}, "geometry":{"type":"MultiPolygon","coordinates":[[[[-1.16119,51.8922],[-1.16103,51.89215],[-1.16107,51.8921],[-1.16123,51.89215],[-1.16119,51.8922]]]]}},
{ "type":"Feature","properties":{"osm_way_id":"935103819","name":"M&S Simply Food","building":"yes","shop":"supermarket","other":{"addr:city":"Bicester","addr:housename":"M&S Simply Food","addr:street":"Kelso Road","brand":"M&S Simply Food","brand:wikidata":"Q714491","brand:wikipedia":"en:Marks & Spencer"}}, "geometry":{"type":"MultiPolygon","coordinates":[[[[-1.16349,51.89301],[-1.16325,51.89292],[-1.16327,51.89289],[-1.16365,51.89249],[-1.16391,51.89258],[-1.16349,51.89301]]]]}},
{ "type":"Feature","properties":{"osm_way_id":"937806525","name":"The Food Warehouse","building":"yes","shop":"supermarket","other":{"brand":"The Food Warehouse","brand:wikidata":"Q87263899"}}, "geometry":{"type":"MultiPolygon","coordinates":[[[[-1.3436,52.07344],[-1.34353,52.07368],[-1.34325,52.07365],[-1.34298,52.07361],[-1.34303,52.07338],[-1.34309,52.07338],[-1.34326,52.0734],[-1.3436,52.07344]]]]}},
{ "type":"Feature","properties":{"osm_way_id":"938786429","name":"MAXI Fresh Co","building":"supermarket","shop":"supermarket"},"geometry":{"type":"MultiPolygon","coordinates":[[[[-1.33755,52.06094],[-1.3375,52.06088],[-1.33735,52.06093],[-1.33736,52.06095],[-1.3374,52.06097],[-1.33742,52.06098],[-1.33755,52.06094]]]]}},
{ "type":"Feature","properties":{"osm_way_id":"938791466","name":"International Supermarket","building":"yes","shop":"supermarket","other":{"addr:city":"Banbury","addr:housenumber":"33a-34a","addr:postcode":"OX16 5ER","addr:street":"High Street"}}, "geometry":{"type":"MultiPolygon","coordinates":[[[[-1.33884,52.06039],[-1.33883,52.06038],[-1.33878,52.0603],[-1.33864,52.06033],[-1.33868,52.0604],[-1.33871,52.06044],[-1.33884,52.06039]]]]}},
{ "type":"Feature","properties":{"osm_way_id":"939272384","name":"Grosik Euro Market","building":"yes","shop":"supermarket","other":{"addr:city":"Banbury","addr:housenumber":"40","addr:postcode":"OX16 1ET","addr:street":"High Street","building:levels":"2"}}, "geometry":{"type":"MultiPolygon","coordinates":[[[[-1.33929,52.06027],[-1.33936,52.06025],[-1.33933,52.06021],[-1.3393,52.06016],[-1.33923,52.06018],[-1.33929,52.06027]]]]}},
{ "type":"Feature","properties":{"osm_way_id":"939272392","name":"V5 Superstores","building":"yes","shop":"supermarket","other":{"addr:city":"Banbury","addr:housenumber":"2","addr:postcode":"OX16 0AA","addr:street":"Horsefair","opening_hours":"Mo-Su 08:00-23:00","opening_hours:covid19":"open","payment:cards":"yes","payment:cash":"yes","payment:contactless":"yes"}}, "geometry":{"type":"MultiPolygon","coordinates":[[[[-1.33968,52.06017],[-1.3398,52.06014],[-1.33971,52.06006],[-1.3396,52.06011],[-1.33965,52.06013],[-1.33968,52.06017]]]]}},
{ "type":"Feature","properties":{"osm_way_id":"955810023","name":"Co-op Food","building":"yes","shop":"supermarket","other":{"addr:city":"Banbury","addr:housenumber":"1","addr:postcode":"OX16 1PH","addr:street":"Ruscote Arcade","brand":"Co-op Food","brand:wikidata":"Q3277439","brand:wikipedia":"en:Co-op Food"}}, "geometry":{"type":"MultiPolygon","coordinates":[[[[-1.34886,52.07109],[-1.34876,52.07111],[-1.34883,52.07122],[-1.34893,52.07119],[-1.34886,52.07109]]]]}},
{ "type":"Feature","properties":{"osm_way_id":"955813338","name":"Co-op Food","building":"yes","shop":"supermarket","other":{"brand":"Co-op Food","brand:wikidata":"Q3277439","brand:wikipedia":"en:Co-op Food"}}, "geometry":{"type":"MultiPolygon","coordinates":[[[[-1.35559,52.07485],[-1.3556,52.07481],[-1.35529,52.07478],[-1.35528,52.07481],[-1.35559,52.07485]]]]}},
{ "type":"Feature","properties":{"osm_way_id":"958203609","name":"Euro Food Centre","building":"yes","shop":"supermarket"},"geometry":{"type":"MultiPolygon","coordinates":[[[[-1.33443,52.06173],[-1.33441,52.06172],[-1.33441,52.06174],[-1.33437,52.06174],[-1.33438,52.06175],[-1.33427,52.06175],[-1.33428,52.06174],[-1.33424,52.06174],[-1.33422,52.06172],[-1.33421,52.06165],[-1.33423,52.06164],[-1.33424,52.06146],[-1.33425,52.06133],[-1.33441,52.06134],[-1.33442,52.06139],[-1.33442,52.06146],[-1.33443,52.06163],[-1.33443,52.06169],[-1.33443,52.06173]]]]}},
{ "type":"Feature","properties":{"osm_way_id":"961013014","name":"Lidl","building":"yes","shop":"supermarket","other":{"addr:country":"GB","addr:postcode":"OX16 2DN","addr:street":"Spiceball Park Road","brand":"Lidl","brand:wikidata":"Q151954","brand:wikipedia":"en:Lidl","fhrs:id":"1396584","operator":"Lidl"}}, "geometry":{"type":"MultiPolygon","coordinates":[[[[-1.33189,52.0641],[-1.33227,52.06381],[-1.33137,52.06337],[-1.33099,52.06366],[-1.33189,52.0641]]]]}},
{ "type":"Feature","properties":{"osm_way_id":"984963562","building":"yes","shop":"supermarket"},"geometry":{"type":"MultiPolygon","coordinates":[[[[-1.33927,52.06211],[-1.33918,52.0621],[-1.3392,52.06202],[-1.33921,52.06199],[-1.33929,52.062],[-1.33928,52.06205],[-1.33927,52.06211]]]]}}
]
}
