{
"type": "FeatureCollection",
"features": [
{ "type":"Feature","properties":{"osm_id":"6361126092","name":"dbsymmetry","other":{"building":"warehouse"}}, "geometry":{"type":"Point","coordinates":[-1.12417,51.88072 ]}},
{ "type":"Feature","properties":{"osm_id":"6361126093","name":"Bentley designs","other":{"building":"warehouse"}}, "geometry":{"type":"Point","coordinates":[-1.12269,51.88037 ]}},
{ "type":"Feature","properties":{"osm_id":"8425604252","ref":"DOX2","other":{"amenity":"loading_dock"}}, "geometry":{"type":"Point","coordinates":[-1.33426,52.08095 ]}},
{ "type":"Feature","properties":{"osm_id":"8425604253","other":{"amenity":"loading_dock"}}, "geometry":{"type":"Point","coordinates":[-1.33431,52.08095 ]}},
{ "type":"Feature","properties":{"osm_id":"8425604254","other":{"amenity":"loading_dock"}}, "geometry":{"type":"Point","coordinates":[-1.33437,52.08094 ]}},
{ "type":"Feature","properties":{"osm_id":"8425604255","other":{"amenity":"loading_dock"}}, "geometry":{"type":"Point","coordinates":[-1.33443,52.08094 ]}},
{ "type":"Feature","properties":{"osm_id":"8425604256","other":{"amenity":"loading_dock"}}, "geometry":{"type":"Point","coordinates":[-1.33408,52.08097 ]}},
{ "type":"Feature","properties":{"osm_id":"8425604257","other":{"amenity":"loading_dock"}}, "geometry":{"type":"Point","coordinates":[-1.33414,52.08096 ]}},
{ "type":"Feature","properties":{"osm_id":"8591208636","highway":"street_lamp","other":{"direction":"180","lamp_mount":"high_mast","lamp_type":"led"}}, "geometry":{"type":"Point","coordinates":[-1.33337,52.08104 ]}},
{ "type":"Feature","properties":{"osm_id":"8591208637","highway":"street_lamp","other":{"direction":"180","lamp_mount":"high_mast","lamp_type":"led"}}, "geometry":{"type":"Point","coordinates":[-1.33395,52.08098 ]}},
{ "type":"Feature","properties":{"osm_way_id":"135164452","name":"Press & Shear","building":"warehouse","other":{"addr:city":"Tamworth","addr:housenumber":"14","addr:postcode":"B77 5ES","addr:street":"Ninian Park","website":"http:\/\/www.pressandshear.com\/"}}, "geometry":{"type":"MultiPolygon","coordinates":[[[[-1.6771,52.60221],[-1.6771,52.60238],[-1.67643,52.60238],[-1.67643,52.60237],[-1.6764,52.60237],[-1.6764,52.6023],[-1.67643,52.6023],[-1.67643,52.60221],[-1.6765,52.60221],[-1.6765,52.60213],[-1.67651,52.60213],[-1.67659,52.60213],[-1.67663,52.60213],[-1.67676,52.60212],[-1.67676,52.60221],[-1.6771,52.60221]]]]}},
{ "type":"Feature","properties":{"osm_way_id":"188060375","building":"warehouse"},"geometry":{"type":"MultiPolygon","coordinates":[[[[-1.34068,52.07005],[-1.34061,52.07003],[-1.34057,52.07007],[-1.34008,52.0699],[-1.33929,52.07075],[-1.33932,52.07077],[-1.33922,52.07088],[-1.33964,52.07102],[-1.33974,52.07091],[-1.33987,52.07096],[-1.34068,52.07005]]]]}},
{ "type":"Feature","properties":{"osm_way_id":"190130900","name":"DHL Cherwell Site 2","building":"warehouse"},"geometry":{"type":"MultiPolygon","coordinates":[[[[-1.31382,52.06766],[-1.31388,52.06764],[-1.31385,52.06761],[-1.31382,52.06758],[-1.31379,52.06755],[-1.31388,52.06751],[-1.31392,52.06753],[-1.31397,52.06758],[-1.31401,52.06762],[-1.31405,52.06766],[-1.31407,52.0677],[-1.31409,52.06774],[-1.3141,52.06778],[-1.31398,52.0678],[-1.31398,52.06778],[-1.31397,52.06775],[-1.31396,52.06773],[-1.31394,52.06771],[-1.31388,52.06773],[-1.3146,52.06867],[-1.31466,52.06865],[-1.31464,52.06863],[-1.31462,52.06861],[-1.31458,52.06859],[-1.31469,52.06853],[-1.31473,52.06856],[-1.31477,52.0686],[-1.31481,52.06865],[-1.31485,52.06871],[-1.31488,52.06876],[-1.31488,52.0688],[-1.31476,52.06881],[-1.31475,52.06878],[-1.31474,52.06876],[-1.31472,52.06873],[-1.31466,52.06875],[-1.31468,52.06877],[-1.31249,52.0694],[-1.31162,52.06827],[-1.31381,52.06764],[-1.31382,52.06766]]]]}},
{ "type":"Feature","properties":{"osm_way_id":"190130909","name":"DHL Cherwell Site 1","building":"warehouse"},"geometry":{"type":"MultiPolygon","coordinates":[[[[-1.31529,52.0703],[-1.31311,52.07059],[-1.31292,52.07008],[-1.31375,52.06997],[-1.31374,52.06993],[-1.31361,52.06995],[-1.31357,52.06983],[-1.31398,52.06977],[-1.31403,52.06989],[-1.31389,52.06991],[-1.3139,52.06995],[-1.3151,52.0698],[-1.31529,52.0703]]]]}},
{ "type":"Feature","properties":{"osm_way_id":"190130925","name":"DHL Cherwell Site 3","building":"warehouse","other":{"addr:city":"Banbury","addr:housename":"DHL Cherwell Site 3","addr:postcode":"OX16 3ED","addr:street":"Brookhill Way"}}, "geometry":{"type":"MultiPolygon","coordinates":[[[[-1.31645,52.07493],[-1.31601,52.07426],[-1.31778,52.07382],[-1.31789,52.074],[-1.31807,52.07396],[-1.31827,52.07427],[-1.31812,52.07431],[-1.31824,52.0745],[-1.31755,52.07466],[-1.31761,52.07475],[-1.31718,52.07485],[-1.31713,52.07476],[-1.31645,52.07493]]]]}},
{ "type":"Feature","properties":{"osm_way_id":"505000299","name":"Amazon DOX2","building":"warehouse","other":{"addr:city":"Banbury","addr:housename":"Amazon DOX2","addr:housenumber":"Unit 3","addr:postcode":"OX16 2SN","addr:street":"Southam Road","building:levels":"2"}}, "geometry":{"type":"MultiPolygon","coordinates":[[[[-1.33313,52.08197],[-1.3329,52.08109],[-1.33337,52.08104],[-1.33365,52.08101],[-1.33383,52.081],[-1.33385,52.08099],[-1.33388,52.08099],[-1.3339,52.08099],[-1.33394,52.08098],[-1.33395,52.08098],[-1.33408,52.08097],[-1.33414,52.08096],[-1.33426,52.08095],[-1.33431,52.08095],[-1.33437,52.08094],[-1.33443,52.08094],[-1.33469,52.08092],[-1.3353,52.08086],[-1.33535,52.08087],[-1.33549,52.08144],[-1.33553,52.08173],[-1.33313,52.08197]]]]}},
{ "type":"Feature","properties":{"osm_way_id":"678519144","building":"warehouse"},"geometry":{"type":"MultiPolygon","coordinates":[[[[-1.12368,51.88153],[-1.12169,51.88087],[-1.12212,51.88034],[-1.12243,51.88042],[-1.12278,51.87993],[-1.12454,51.88056],[-1.12368,51.88153]]]]}},
{ "type":"Feature","properties":{"osm_way_id":"967880442","building":"warehouse"},"geometry":{"type":"MultiPolygon","coordinates":[[[[-1.12974,51.90778],[-1.12882,51.90698],[-1.12725,51.90768],[-1.12815,51.90847],[-1.12974,51.90778]]]]}},
{ "type":"Feature","properties":{"osm_way_id":"967880443","building":"warehouse"},"geometry":{"type":"MultiPolygon","coordinates":[[[[-1.12801,51.90855],[-1.1271,51.90775],[-1.12595,51.90824],[-1.12688,51.90904],[-1.12801,51.90855]]]]}}
]
}
