{
"type": "FeatureCollection",
"features": [
{ "type":"Feature","properties":{"osm_id":"4705171202","name":"Spar","other":{"addr:city":"Felpham, Bognor Regis","addr:housenumber":"97","addr:postcode":"PO22 8QB","addr:street":"Felpham Way","brand":"Spar","brand:wikidata":"Q610492","brand:wikipedia":"en:SPAR (retailer)","operator":"spar","phone":"+44 1243 587455","shop":"supermarket"}}, "geometry":{"type":"Point","coordinates":[-0.64222,50.79374 ]}},
{ "type":"Feature","properties":{"osm_id":"4985231362","name":"EU Supermarket","other":{"shop":"supermarket"}}, "geometry":{"type":"Point","coordinates":[-0.67438,50.78292 ]}},
{ "type":"Feature","properties":{"osm_id":"5003314323","name":"Co-op Food","other":{"addr:city":"Arundel","brand":"Co-op Food","brand:wikidata":"Q3277439","brand:wikipedia":"en:Co-op Food","opening_hours":"Mo-Su 06:00-22:00","operator":"The Co-operative Group","operator:wikidata":"Q117202","operator:wikipedia":"en:The Co-operative Group","phone":"+44 1903 882290","shop":"supermarket"}}, "geometry":{"type":"Point","coordinates":[-0.55202,50.85275 ]}},
{ "type":"Feature","properties":{"osm_id":"5766607353","name":"Aldi","other":{"addr:street":"Rustington Bypass","brand":"ALDI","brand:wikidata":"Q41171672","brand:wikipedia":"en:Aldi","contact:website":"https:\/\/www.aldi.co.uk\/store\/s-uk-E1166","name:en":"Aldi","shop":"supermarket"}}, "geometry":{"type":"Point","coordinates":[-0.50521,50.81962 ]}},
{ "type":"Feature","properties":{"osm_id":"8932353856","name":"Co-op Food","other":{"brand":"Co-op Food","brand:wikidata":"Q3277439","brand:wikipedia":"en:Co-op Food","shop":"supermarket"}}, "geometry":{"type":"Point","coordinates":[-0.7166,50.78493 ]}},
{ "type":"Feature","properties":{"osm_id":"9360560935","name":"ALDI","other":{"brand":"ALDI","brand:wikidata":"Q41171672","brand:wikipedia":"en:Aldi","shop":"supermarket"}}, "geometry":{"type":"Point","coordinates":[-0.66938,50.80677 ]}},
{ "type":"Feature","properties":{"osm_id":"10004135","name":"Morrisons","type":"multipolygon","building":"yes","shop":"supermarket","other":{"addr:city":"Bognor Regis","addr:housenumber":"30","addr:postcode":"PO21 1RP","addr:street":"Bedford Street","alt_name":"Morrisons Bognor Regis","brand":"Morrisons","brand:wikidata":"Q922344","brand:wikipedia":"en:Morrisons","fhrs:id":"749856","phone":"+44 1243 861134","wheelchair":"yes"}}, "geometry":{"type":"MultiPolygon","coordinates":[[[[-0.67593,50.78485],[-0.67586,50.78481],[-0.67578,50.78476],[-0.67555,50.78462],[-0.6753,50.78443],[-0.67519,50.78447],[-0.67512,50.78441],[-0.67506,50.78437],[-0.67473,50.7845],[-0.67479,50.78455],[-0.67473,50.78457],[-0.67519,50.78501],[-0.67528,50.78509],[-0.67567,50.78495],[-0.67577,50.78493],[-0.67586,50.7849],[-0.67593,50.78485]]]]}},
{ "type":"Feature","properties":{"osm_way_id":"157161325","name":"Iceland","building":"yes","shop":"supermarket","other":{"addr:housenumber":"72-74","addr:postcode":"PO21 1SJ","addr:street":"High Street","alt_name":"Iceland Bognor Regis","brand":"Iceland","brand:wikidata":"Q721810"}}, "geometry":{"type":"MultiPolygon","coordinates":[[[[-0.67523,50.78314],[-0.67507,50.78315],[-0.67477,50.78317],[-0.67471,50.78306],[-0.67521,50.78303],[-0.67523,50.78314]]]]}},
{ "type":"Feature","properties":{"osm_way_id":"173875862","name":"Lidl","building":"yes","shop":"supermarket","other":{"addr:country":"GB","addr:postcode":"BN17 5AX","addr:street":"New Road","alt_name":"LIDL Littlehampton","brand":"Lidl","brand:wikidata":"Q151954","brand:wikipedia":"en:Lidl","fhrs:id":"292060","toilets:wheelchair":"no","wheelchair":"yes"}}, "geometry":{"type":"MultiPolygon","coordinates":[[[[-0.54333,50.80813],[-0.54332,50.80758],[-0.54322,50.80758],[-0.54322,50.80763],[-0.5429,50.80763],[-0.5429,50.80797],[-0.54284,50.80797],[-0.54284,50.80814],[-0.54333,50.80813]]]]}},
{ "type":"Feature","properties":{"osm_way_id":"195575390","name":"Sainsbury's","building":"supermarket","shop":"supermarket","other":{"addr:city":"Bognor Regis","addr:housename":"Sainsbury's Bognor Regis Superstore","addr:postcode":"PO22 9FB","addr:street":"Shripney Road","alt_name":"Sainsbury's Bognor Regis Superstore","brand":"Sainsbury's","brand:wikidata":"Q152096","brand:wikipedia":"en:Sainsbury's"}}, "geometry":{"type":"MultiPolygon","coordinates":[[[[-0.66546,50.79702],[-0.66666,50.79747],[-0.66607,50.79811],[-0.66486,50.79766],[-0.66546,50.79702]]]]}},
{ "type":"Feature","properties":{"osm_way_id":"213878974","name":"Tesco","building":"yes","shop":"supermarket","other":{"addr:postcode":"PO22 9ND","addr:street":"Shripney Road","alt_name":"Tesco Bognor Regis Superstore","brand":"Tesco","brand:wikidata":"Q487494","brand:wikipedia":"en:Tesco"}}, "geometry":{"type":"MultiPolygon","coordinates":[[[[-0.66916,50.79664],[-0.66966,50.79644],[-0.66945,50.79623],[-0.66956,50.79618],[-0.66969,50.79624],[-0.66986,50.79618],[-0.67003,50.79624],[-0.67017,50.79637],[-0.67008,50.79641],[-0.67024,50.79657],[-0.67036,50.79669],[-0.67037,50.79671],[-0.67064,50.79697],[-0.6705,50.79703],[-0.67058,50.79711],[-0.67038,50.7972],[-0.6703,50.79713],[-0.6701,50.79721],[-0.6702,50.7973],[-0.66988,50.79743],[-0.66971,50.79727],[-0.66963,50.79719],[-0.66966,50.79718],[-0.6697,50.79716],[-0.66916,50.79664]]]]}},
{ "type":"Feature","properties":{"osm_way_id":"213879633","name":"Lidl","building":"yes","shop":"supermarket","other":{"addr:city":"Bersted","addr:housename":"The Bognor Regis Retail Park","addr:postcode":"PO22 9TR","addr:street":"Shripney Road","addr:unit":"Unit 1b","alt_name":"LIDL Bognor Regis West Sussex","brand":"Lidl","brand:wikidata":"Q151954","brand:wikipedia":"en:Lidl","fhrs:id":"1157952"}}, "geometry":{"type":"MultiPolygon","coordinates":[[[[-0.6688,50.80274],[-0.66793,50.8029],[-0.66783,50.80268],[-0.66871,50.80252],[-0.6688,50.80274]]]]}},
{ "type":"Feature","properties":{"osm_way_id":"219186104","name":"Morrisons","building":"retail","shop":"supermarket","other":{"addr:city":"Wick, Littlehampton","addr:postcode":"BN17 7LA","addr:street":"Hawthorn Road","atm":"yes","branch":"Littlehampton","brand":"Morrisons","brand:wikidata":"Q922344","brand:wikipedia":"en:Morrisons","description":"This store is called the Littlehampton Morrisons superstore.","opening_hours":"Mo-Sa 07:00-22:00 Su 10:00-16:00","operator":"WM Morrisons Supermarkets PLC","phone":"+44 1903 716818","source_1":"receipt from visit","website":"https:\/\/my.morrisons.com\/storefinder\/stores\/Littlehampton,West-Sussex"}}, "geometry":{"type":"MultiPolygon","coordinates":[[[[-0.54611,50.82266],[-0.54587,50.82264],[-0.54585,50.82264],[-0.54494,50.82259],[-0.54502,50.82204],[-0.54567,50.82208],[-0.54587,50.82209],[-0.54585,50.82225],[-0.54601,50.82226],[-0.54599,50.82241],[-0.54614,50.82242],[-0.54611,50.82266]]]]}},
{ "type":"Feature","properties":{"osm_way_id":"234342660","name":"Tesco Express","building":"yes","shop":"supermarket","other":{"addr:housenumber":"84","addr:postcode":"PO21 2PE","addr:street":"Aldwick Road","alt_name":"Tesco Bognor Regis Aldwick Road Express","brand":"Tesco Express","brand:wikidata":"Q98456772","brand:wikipedia":"en:Tesco"}}, "geometry":{"type":"MultiPolygon","coordinates":[[[[-0.68677,50.78175],[-0.68683,50.78155],[-0.6866,50.78152],[-0.68654,50.78173],[-0.68667,50.78175],[-0.68667,50.78173],[-0.68677,50.78175]]]]}},
{ "type":"Feature","properties":{"osm_way_id":"234343677","name":"Co-op","building":"yes","shop":"supermarket","other":{"addr:housenumber":"2","addr:postcode":"PO21 3HG","addr:street":"Nyetimber Lane","designation":"The Co-operative Food"}}, "geometry":{"type":"MultiPolygon","coordinates":[[[[-0.71693,50.78489],[-0.71656,50.78486],[-0.71653,50.78499],[-0.71683,50.78501],[-0.71684,50.78493],[-0.71692,50.78494],[-0.71693,50.78489]]]]}},
{ "type":"Feature","properties":{"osm_way_id":"234343679","name":"Co-op Food","building":"retail","shop":"supermarket","other":{"addr:city":"Bognor Regis","addr:housenumber":"152-156","addr:postcode":"PO21 2UR","addr:street":"Hawthorn Road","brand":"Co-op Food","brand:wikidata":"Q3277439","brand:wikipedia":"en:Co-op Food","building:levels":"2","designation":"The Co-operative Food","opening_hours":"Mo-Su 07:00-23:00","operator":"The Co-operative Group","operator:wikidata":"Q117202","operator:wikipedia":"en:The Co-operative Group","roof:levels":"0","wheelchair":"yes"}}, "geometry":{"type":"MultiPolygon","coordinates":[[[[-0.68594,50.78975],[-0.68613,50.78961],[-0.68625,50.78967],[-0.68623,50.78969],[-0.68654,50.78983],[-0.68644,50.78992],[-0.68634,50.78987],[-0.68628,50.78991],[-0.68594,50.78975]]]]}},
{ "type":"Feature","properties":{"osm_way_id":"246079212","name":"Asda","building":"yes","shop":"supermarket","other":{"addr:city":"Worthing","addr:country":"GB","addr:locality":"Ferring","addr:postcode":"BN12 6PW","addr:street":"Littlehampton Road","alt_name":"ASDA Ferring Superstore","brand":"Asda","brand:wikidata":"Q297410","brand:wikipedia":"en:Asda","contact:facebook":"https:\/\/www.facebook.com\/asda\/","contact:twitter":"@asda","contact:website":"https:\/\/storelocator.asda.com\/south-east\/ferring\/littlehampton-road","fhrs:id":"521173","opening_hours":"Mo-Sa 06:00-24:00; Su 10:00-16:00","operator":"Asda Stores Ltd","phone":"+44 1903 540100","website":"https:\/\/storelocator.asda.com\/south-east\/ferring\/littlehampton-road"}}, "geometry":{"type":"MultiPolygon","coordinates":[[[[-0.45889,50.81771],[-0.45819,50.81772],[-0.45819,50.81773],[-0.45799,50.81773],[-0.45799,50.81772],[-0.45722,50.81773],[-0.45718,50.81683],[-0.45884,50.8168],[-0.45885,50.81688],[-0.45889,50.81688],[-0.45889,50.81696],[-0.459,50.81696],[-0.459,50.81712],[-0.45905,50.81712],[-0.45906,50.81723],[-0.45901,50.81723],[-0.45901,50.81734],[-0.45888,50.81735],[-0.45889,50.81771]]]]}},
{ "type":"Feature","properties":{"osm_way_id":"310155474","name":"(To let)","building":"yes","shop":"supermarket","other":{"addr:postcode":"BN17 6AT","addr:street":"Avon Road","alt_name":"Waitrose Littlehampton"}}, "geometry":{"type":"MultiPolygon","coordinates":[[[[-0.54127,50.8105],[-0.54123,50.81046],[-0.54116,50.81045],[-0.54112,50.81043],[-0.54109,50.81041],[-0.5404,50.81019],[-0.54056,50.81],[-0.54068,50.80997],[-0.54137,50.81017],[-0.54138,50.81016],[-0.54148,50.81019],[-0.54131,50.81043],[-0.54134,50.81047],[-0.54127,50.8105]]]]}},
{ "type":"Feature","properties":{"osm_way_id":"310163800","name":"Sainsbury's","building":"yes","shop":"supermarket","other":{"addr:housenumber":"19-23","addr:postcode":"BN17 5EG","addr:street":"High Street","alt_name":"Sainsbury's LIttlehampton Superstore","brand":"Sainsbury's","brand:wikidata":"Q152096","brand:wikipedia":"en:Sainsbury's"}}, "geometry":{"type":"MultiPolygon","coordinates":[[[[-0.54328,50.81016],[-0.54328,50.81014],[-0.54338,50.80981],[-0.54341,50.80972],[-0.54338,50.80972],[-0.5434,50.80966],[-0.54328,50.80965],[-0.54328,50.80967],[-0.54304,50.80964],[-0.54304,50.80967],[-0.54298,50.80984],[-0.54293,50.81003],[-0.54296,50.81003],[-0.54292,50.81016],[-0.54313,50.81018],[-0.54315,50.81012],[-0.54317,50.81012],[-0.54316,50.81015],[-0.54328,50.81016]]]]}},
{ "type":"Feature","properties":{"osm_way_id":"319789482","name":"Waitrose","building":"yes","shop":"supermarket","other":{"addr:city":"Rustington","addr:postcode":"BN16 2NE","addr:street":"Broadmark Lane","branch":"Rustington","brand":"Waitrose","brand:wikidata":"Q771734","brand:wikipedia":"en:Waitrose & Partners","opening_hours":"Mo-Sa 07:30-20:00 Su 10:00-16:00","operator":"Waitrose & Partners","phone":"+44 1903 778772","website":"www.waitrose.com\/rustington"}}, "geometry":{"type":"MultiPolygon","coordinates":[[[[-0.50509,50.8097],[-0.50504,50.80984],[-0.50509,50.80985],[-0.50506,50.80993],[-0.50445,50.80984],[-0.5044,50.80996],[-0.50418,50.80992],[-0.50431,50.80958],[-0.50509,50.8097]]]]}},
{ "type":"Feature","properties":{"osm_way_id":"464507579","name":"Sainsbury's","shop":"supermarket","other":{"addr:city":"Rustington","addr:housename":"Rustington Retail Park","addr:housenumber":"Unit C","addr:postcode":"BN16 3RT","addr:street":"New Road","branch":"Rustington Superstore","brand":"Sainsbury's","brand:wikidata":"Q152096","brand:wikipedia":"en:Sainsbury's","opening_hours":"Mo-Sa 07:00-22:00 Su 10:00-16:00"}}, "geometry":{"type":"MultiPolygon","coordinates":[[[[-0.49449,50.81815],[-0.49449,50.81806],[-0.49428,50.81807],[-0.49428,50.81796],[-0.49427,50.8178],[-0.49409,50.8178],[-0.49408,50.81749],[-0.49386,50.81749],[-0.49386,50.81743],[-0.49407,50.81743],[-0.49407,50.81736],[-0.49489,50.81735],[-0.49489,50.81742],[-0.49636,50.8174],[-0.49639,50.81802],[-0.49596,50.81803],[-0.49566,50.81804],[-0.49567,50.81816],[-0.49516,50.81816],[-0.49516,50.81814],[-0.49449,50.81815]]]]}},
{ "type":"Feature","properties":{"osm_way_id":"465924602","name":"Tesco Express","building":"yes","shop":"supermarket","other":{"addr:city":"Rustington","addr:housenumber":"7","addr:postcode":"BN16 3DR","addr:street":"Sterling Parade, The Street","atm":"yes","branch":"Rustington Sterling Parade Express","brand":"Tesco Express","brand:wikidata":"Q98456772","brand:wikipedia":"en:Tesco","opening_hours":"Mo-Su 06:00-23:00"}}, "geometry":{"type":"MultiPolygon","coordinates":[[[[-0.5076,50.81031],[-0.50762,50.81022],[-0.50765,50.80997],[-0.50788,50.80998],[-0.5078,50.81033],[-0.5076,50.81031]]]]}},
{ "type":"Feature","properties":{"osm_way_id":"471420803","name":"Tesco Superstore","building":"yes","shop":"supermarket","other":{"addr:city":"Littlehampton","addr:housename":"Broadpiece","addr:postcode":"BN17 5RA","brand":"Tesco","brand:wikidata":"Q110416151","brand:wikipedia":"en:Tesco","opening_hours":"Mo-Sa 06:00-24:00; Su 10:00-16:00","operator":"Tesco Stores Ltd","website":"https:\/\/www.tesco.com\/store-locator\/littlehampton\/broadpiece"}}, "geometry":{"type":"MultiPolygon","coordinates":[[[[-0.55891,50.81602],[-0.558,50.81643],[-0.55806,50.81649],[-0.55786,50.81658],[-0.55822,50.81688],[-0.55824,50.81686],[-0.55846,50.81705],[-0.55841,50.81708],[-0.55854,50.81718],[-0.55863,50.81714],[-0.55891,50.81738],[-0.55901,50.81733],[-0.55907,50.8171],[-0.55892,50.81696],[-0.55875,50.81704],[-0.55866,50.81696],[-0.55874,50.81692],[-0.5587,50.81688],[-0.55879,50.81683],[-0.55876,50.81679],[-0.55907,50.81666],[-0.55911,50.8162],[-0.55891,50.81602]]]]}},
{ "type":"Feature","properties":{"osm_way_id":"782126326","name":"One Stop","shop":"supermarket"},"geometry":{"type":"MultiPolygon","coordinates":[[[[-0.705,50.78139],[-0.70497,50.78143],[-0.70519,50.78151],[-0.70521,50.78148],[-0.70528,50.78151],[-0.70535,50.78143],[-0.70531,50.78142],[-0.70536,50.78137],[-0.70503,50.78125],[-0.70495,50.78134],[-0.70497,50.78135],[-0.70495,50.78137],[-0.705,50.78139]]]]}},
{ "type":"Feature","properties":{"osm_way_id":"914330288","name":"Lidl","building":"yes","shop":"supermarket","other":{"addr:country":"GB","addr:postcode":"PO22 9FJ","addr:street":"Newlands Road","addr:unit":"1","brand":"Lidl","brand:wikidata":"Q151954","brand:wikipedia":"en:Lidl","fhrs:id":"1336544"}}, "geometry":{"type":"MultiPolygon","coordinates":[[[[-0.66446,50.80644],[-0.66378,50.80681],[-0.66353,50.80663],[-0.66421,50.80626],[-0.66446,50.80644]]]]}}
]
}
