{
"type": "FeatureCollection",
"features": [
{ "type":"Feature","properties":{"osm_way_id":"92970550","name":"Blueleaf","building":"warehouse","shop":"trade","other":{"addr:city":"Chatham","addr:housename":"Apex House","addr:housenumber":"96","addr:postcode":"ME5 7PY","addr:street":"Hopewell Drive","email":"info@blueleafcare.com","phone":"+44 3300 55 22 88","ref:GB:uprn":"100062392540","source:shape":"visual","website":"https:\/\/www.blueleafcare.com"}}, "geometry":{"type":"MultiPolygon","coordinates":[[[[0.54425,51.36398],[0.54387,51.36348],[0.54425,51.36337],[0.54463,51.36387],[0.54425,51.36398]]]]}},
{ "type":"Feature","properties":{"osm_way_id":"174425835","name":"Swain","building":"warehouse"},"geometry":{"type":"MultiPolygon","coordinates":[[[[0.48781,51.39077],[0.48798,51.391],[0.48807,51.39097],[0.48899,51.39218],[0.48907,51.39215],[0.48916,51.39229],[0.49004,51.39203],[0.48984,51.39176],[0.48998,51.39172],[0.4903,51.39214],[0.49057,51.39206],[0.49001,51.39129],[0.48959,51.39073],[0.48943,51.39051],[0.48924,51.39027],[0.48929,51.39025],[0.48915,51.39007],[0.48902,51.38991],[0.48879,51.38998],[0.48884,51.39004],[0.48906,51.39033],[0.48808,51.39062],[0.48798,51.39049],[0.48783,51.3903],[0.48766,51.39007],[0.48711,51.39024],[0.48741,51.39062],[0.48751,51.39059],[0.48768,51.39081],[0.48781,51.39077]]]]}},
{ "type":"Feature","properties":{"osm_way_id":"207704237","name":"Royal Mail","building":"warehouse"},"geometry":{"type":"MultiPolygon","coordinates":[[[[0.49631,51.35916],[0.49645,51.35881],[0.49494,51.35858],[0.49484,51.35884],[0.49475,51.35883],[0.49472,51.35891],[0.49631,51.35916]]]]}},
{ "type":"Feature","properties":{"osm_way_id":"301501077","name":"Unit C","building":"warehouse"},"geometry":{"type":"MultiPolygon","coordinates":[[[[0.48254,51.38469],[0.4829,51.38445],[0.48347,51.38476],[0.48312,51.38501],[0.48254,51.38469]]]]}},
{ "type":"Feature","properties":{"osm_way_id":"301501078","name":"Unit A1-A4","building":"warehouse"},"geometry":{"type":"MultiPolygon","coordinates":[[[[0.4829,51.38498],[0.48212,51.38551],[0.48183,51.38533],[0.48259,51.38481],[0.4829,51.38498]]]]}},
{ "type":"Feature","properties":{"osm_way_id":"301501079","name":"Unit B5-B8","building":"warehouse"},"geometry":{"type":"MultiPolygon","coordinates":[[[[0.48267,51.38595],[0.4831,51.38619],[0.48395,51.38561],[0.48353,51.38537],[0.48267,51.38595]]]]}},
{ "type":"Feature","properties":{"osm_way_id":"301501080","name":"Cellecta","building":"warehouse"},"geometry":{"type":"MultiPolygon","coordinates":[[[[0.48328,51.38518],[0.48399,51.38558],[0.48435,51.38534],[0.48364,51.38493],[0.48328,51.38518]]]]}},
{ "type":"Feature","properties":{"osm_way_id":"301501426","name":"Meyer","building":"warehouse"},"geometry":{"type":"MultiPolygon","coordinates":[[[[0.4809,51.38394],[0.48201,51.38456],[0.48234,51.38434],[0.48241,51.38438],[0.48258,51.38425],[0.48251,51.38422],[0.48144,51.38358],[0.4809,51.38394]]]]}},
{ "type":"Feature","properties":{"osm_way_id":"301501427","name":"Culpeck Clifford","building":"warehouse"},"geometry":{"type":"MultiPolygon","coordinates":[[[[0.48039,51.38445],[0.48121,51.38493],[0.48166,51.38462],[0.48182,51.38471],[0.48195,51.38461],[0.4818,51.38452],[0.481,51.38404],[0.48039,51.38445]]]]}},
{ "type":"Feature","properties":{"osm_way_id":"840525154","name":"Amazon Rochester Medway LCY8","building":"warehouse","other":{"addr:city":"Rochester","addr:country":"GB","addr:county":"Kent","addr:place":"London Medway Commercial Park","addr:postcode":"ME3 9GX","addr:street":"James Swallow Way","addr:unit":"1a","source:shape":"Maxar Premium Imagery"}}, "geometry":{"type":"MultiPolygon","coordinates":[[[[0.61513,51.43257],[0.6168,51.43319],[0.61512,51.43491],[0.61353,51.43431],[0.6135,51.43435],[0.61343,51.43432],[0.61513,51.43257]]]]}}
]
}
