{
"type": "FeatureCollection",
"features": [
{ "type":"Feature","properties":{"osm_id":"25744394","name":"Tesco Express","other":{"brand":"Tesco Express","brand:wikidata":"Q98456772","brand:wikipedia":"en:Tesco","contact:website":"https:\/\/www.tesco.com\/store-locator\/london\/23-25-swains-ln","shop":"supermarket","wheelchair":"limited"}}, "geometry":{"type":"Point","coordinates":[-0.14936,51.56208 ]}},
{ "type":"Feature","properties":{"osm_id":"25813308","name":"Tesco Express","other":{"brand":"Tesco Express","brand:wikidata":"Q98456772","contact:website":"https:\/\/www.tesco.com\/store-locator\/london\/196-camden-rd","shop":"supermarket"}}, "geometry":{"type":"Point","coordinates":[-0.13334,51.54534 ]}},
{ "type":"Feature","properties":{"osm_id":"26618618","name":"M&S Foodhall","other":{"addr:city":"London","addr:housenumber":"143-151","addr:postcode":"NW1 7JX","addr:street":"Camden High Street","brand":"M&S Foodhall","brand:wikidata":"Q714491","brand:wikipedia":"en:Marks & Spencer","fhrs:id":"425546","shop":"supermarket","source:addr":"FSA Food Hygiene Rating Scheme open data","wheelchair":"yes"}}, "geometry":{"type":"Point","coordinates":[-0.14204,51.53781 ]}},
{ "type":"Feature","properties":{"osm_id":"292183286","name":"M&S Foodhall","other":{"addr:city":"London","addr:housenumber":"10","addr:postcode":"NW3 2PS","addr:street":"Pond Street","brand":"M&S Foodhall","brand:wikidata":"Q714491","payment:cash":"yes","payment:mastercard":"yes","payment:visa":"yes","phone":"+44 20 7435 0619","shop":"supermarket","website":"https:\/\/www.marksandspencer.com\/stores\/hampstead-sf-7553","wheelchair":"yes"}}, "geometry":{"type":"Point","coordinates":[-0.16523,51.55393 ]}},
{ "type":"Feature","properties":{"osm_id":"317291389","name":"M&S Foodhall","other":{"addr:city":"London","addr:housenumber":"55","addr:postcode":"W1T 2EQ","addr:street":"Tottenham Court Road","brand":"M&S Foodhall","brand:wikidata":"Q714491","brand:wikipedia":"en:Marks & Spencer","opening_hours":"Mo-Fr 07:00-22:00; Sa 08:00-21:00; Su 12:00-18:00","shop":"supermarket","wheelchair":"yes","wheelchair:description":"This is not just access, this is M"}}, "geometry":{"type":"Point","coordinates":[-0.1336,51.51964 ]}},
{ "type":"Feature","properties":{"osm_id":"388116716","other":{"shop":"supermarket"}}, "geometry":{"type":"Point","coordinates":[-0.1268,51.51705 ]}},
{ "type":"Feature","properties":{"osm_id":"411095362","name":"Little Waitrose","other":{"brand":"Waitrose & Partners","brand:wikidata":"Q771734","brand:wikipedia":"en:Waitrose & Partners","shop":"supermarket"}}, "geometry":{"type":"Point","coordinates":[-0.1926,51.55156 ]}},
{ "type":"Feature","properties":{"osm_id":"596786062","name":"Waitrose","other":{"addr:city":"London","addr:housenumber":"199","addr:postcode":"NW3 6NN","addr:street":"Finchley Road","brand":"Waitrose & Partners","brand:wikidata":"Q771734","brand:wikipedia":"en:Waitrose & Partners","opening_hours":"Mo-Sa 08:00-22:00; Su 11:00-17:00","operator":"Waitrose & Partners","shop":"supermarket","wheelchair":"yes"}}, "geometry":{"type":"Point","coordinates":[-0.17964,51.54642 ]}},
{ "type":"Feature","properties":{"osm_id":"647052117","name":"Sourced Market","other":{"building:level":"0","level":"0","organic":"only","shop":"supermarket","wheelchair":"yes"}}, "geometry":{"type":"Point","coordinates":[-0.12632,51.5319 ]}},
{ "type":"Feature","properties":{"osm_id":"2530470840","name":"Co-op Food","other":{"addr:country":"GB","addr:housenumber":"23","addr:postcode":"NW3 3RA","addr:street":"Lower Merton Rise","brand":"Co-op Food","brand:wikidata":"Q3277439","brand:wikipedia":"en:Co-op Food","opening_hours":"07:00-23:00","shop":"supermarket","wheelchair":"yes"}}, "geometry":{"type":"Point","coordinates":[-0.16658,51.54293 ]}},
{ "type":"Feature","properties":{"osm_id":"2536763015","name":"Neal's Yard Dairy","other":{"organic":"only","shop":"supermarket","wheelchair":"no"}}, "geometry":{"type":"Point","coordinates":[-0.12624,51.51424 ]}},
{ "type":"Feature","properties":{"osm_id":"2622422137","name":"Londis","other":{"addr:city":"London","addr:housename":"Chester Court","addr:housenumber":"9-10","addr:postcode":"NW1 4BU","addr:street":"Albany Street","brand":"Londis","brand:wikidata":"Q21008564","brand:wikipedia":"en:Londis (United Kingdom)","operator":"Londis","shop":"supermarket"}}, "geometry":{"type":"Point","coordinates":[-0.14455,51.52913 ]}},
{ "type":"Feature","properties":{"osm_id":"2626187868","name":"Neel's news","other":{"addr:city":"London","addr:housenumber":"159","addr:street":"Robert Street","shop":"supermarket"}}, "geometry":{"type":"Point","coordinates":[-0.14365,51.5284 ]}},
{ "type":"Feature","properties":{"osm_id":"2626207028","name":"Robert street supermarket","other":{"addr:city":"London","shop":"supermarket"}}, "geometry":{"type":"Point","coordinates":[-0.14346,51.52834 ]}},
{ "type":"Feature","properties":{"osm_id":"3202320667","name":"Pricewise Food & Wine","other":{"shop":"supermarket"}}, "geometry":{"type":"Point","coordinates":[-0.17995,51.54702 ]}},
{ "type":"Feature","properties":{"osm_id":"3790109346","name":"Co-op Food","other":{"addr:housenumber":"9","addr:postcode":"NW5 1AA","addr:street":"Fortess Road","brand":"Co-op Food","brand:wikidata":"Q3277439","brand:wikipedia":"en:Co-op Food","shop":"supermarket"}}, "geometry":{"type":"Point","coordinates":[-0.14131,51.55239 ]}},
{ "type":"Feature","properties":{"osm_id":"3838023409","name":"Waitrose","other":{"addr:city":"London","addr:housenumber":"1","addr:postcode":"N1C 4BZ","addr:street":"Wharf Road","alt_name":"Waitrose Kings Cross","brand":"Waitrose","brand:wikidata":"Q771734","brand:wikipedia":"en:Waitrose & Partners","fhrs:id":"912305","official_name":"Waitrose & Partners","opening_hours":"Mo-Sa 08:00-22:00; Su 12:00-18:00","operator":"Waitrose & Partners","shop":"supermarket","source:addr":"FHRS Open Data","wheelchair":"yes"}}, "geometry":{"type":"Point","coordinates":[-0.12351,51.53609 ]}},
{ "type":"Feature","properties":{"osm_id":"4160210092","name":"Save More","other":{"check_date":"2020-04-15","shop":"supermarket"}}, "geometry":{"type":"Point","coordinates":[-0.17993,51.54195 ]}},
{ "type":"Feature","properties":{"osm_id":"4286153589","name":"Londis","other":{"addr:street":"Highgate Road","atm":"yes","atm:fee":"GBP 1.50","brand":"Londis","brand:wikidata":"Q21008564","brand:wikipedia":"en:Londis (United Kingdom)","shop":"supermarket"}}, "geometry":{"type":"Point","coordinates":[-0.14534,51.55503 ]}},
{ "type":"Feature","properties":{"osm_id":"4554053665","name":"Welcome","other":{"contact:website":"https:\/\/stores.welcome-stores.co.uk\/london\/london\/2-4-winchester-road.html","operator":"The Southern Co-operative Limited","payment:cash":"yes","payment:contactless":"yes","payment:credit_cards":"yes","shop":"supermarket"}}, "geometry":{"type":"Point","coordinates":[-0.17166,51.54284 ]}},
{ "type":"Feature","properties":{"osm_id":"4899105377","name":"Co-op Food","other":{"addr:city":"London","addr:housenumber":"39-43","addr:postcode":"WC1X 8PR","addr:street":"Grays Inn Road","brand":"Co-op Food","brand:wikidata":"Q3277439","brand:wikipedia":"en:Co-op Food","opening_hours":"Mo-Sa 07:00-23:00; Su 07:00-22:30","phone":"+44 20 7242 8638","shop":"supermarket","website":"https:\/\/www.coop.co.uk\/"}}, "geometry":{"type":"Point","coordinates":[-0.11376,51.52183 ]}},
{ "type":"Feature","properties":{"osm_id":"6177241385","name":"oseyo","other":{"name:zh":"韓国人超市","shop":"supermarket"}}, "geometry":{"type":"Point","coordinates":[-0.14202,51.5387 ]}},
{ "type":"Feature","properties":{"osm_id":"6232917585","name":"Nisa","other":{"shop":"supermarket"}}, "geometry":{"type":"Point","coordinates":[-0.15277,51.54946 ]}},
{ "type":"Feature","properties":{"osm_id":"6798574590","name":"Sainsbury's Local","other":{"addr:housenumber":"204","addr:street":"West End Lane","brand:wikidata":"Q13218434","opening_hours":"07:00-23:00","shop":"supermarket"}}, "geometry":{"type":"Point","coordinates":[-0.19118,51.55002 ]}},
{ "type":"Feature","properties":{"osm_id":"7529834021","name":"The Peoples Supermarket","other":{"addr:city":"London","addr:housenumber":"72-78","addr:postcode":"WC1N 3LP","addr:street":"Lamb's Conduit Street","level":"1","shop":"supermarket"}}, "geometry":{"type":"Point","coordinates":[-0.11879,51.5226 ]}},
{ "type":"Feature","properties":{"osm_id":"8764530230","other":{"amenity":"bench","material":"wood","seats":"2"}}, "geometry":{"type":"Point","coordinates":[-2.82634,52.65249 ]}},
{ "type":"Feature","properties":{"osm_id":"9394311262","name":"Healthywealthy Supermarket","other":{"addr:city":"London Borough of Camden","addr:housenumber":"3","addr:postcode":"N7 0BL","addr:street":"Brecknock Road","description":"Indian groceries and wellness products","shop":"supermarket"}}, "geometry":{"type":"Point","coordinates":[-0.12966,51.54908 ]}},
{ "type":"Feature","properties":{"osm_id":"9400529805","name":"Planet Organic","other":{"addr:housenumber":"6","addr:postcode":"NW3 1PR","addr:street":"Hampstead High Street","brand":"Planet Organic","brand:wikidata":"Q24298870","brand:wikipedia":"en:Planet Organic","opening_hours":"Mo-Sa 08:00-20:00; Su 09:00-20:00","organic":"only","phone":"+44 20 8159 9499","shop":"supermarket"}}, "geometry":{"type":"Point","coordinates":[-0.17481,51.55551 ]}},
{ "type":"Feature","properties":{"osm_way_id":"33281639","name":"Waitrose","building":"retail","shop":"supermarket","other":{"addr:city":"London","addr:housenumber":"23-29","addr:postcode":"WC1N 1AF","addr:street":"The Brunswick Centre","alt_name":"Waitrose Bloomsbury","brand":"Waitrose","brand:wikidata":"Q771734","brand:wikipedia":"en:Waitrose","building:levels":"1","official_name":"Waitrose & Partners","opening_hours":"Mo-Fr 08:00-22:00; Sa 08:00-21:00; Su 12:00-18:00","operator":"Waitrose & Partners","start_date":"2006","wheelchair":"yes"}}, "geometry":{"type":"MultiPolygon","coordinates":[[[[-0.12368,51.52477],[-0.12389,51.52473],[-0.12411,51.52468],[-0.1243,51.52464],[-0.12439,51.52462],[-0.12463,51.52501],[-0.12454,51.52503],[-0.12391,51.52518],[-0.12368,51.52477]]]]}},
{ "type":"Feature","properties":{"osm_way_id":"41854689","name":"Planet Organic","building":"yes","shop":"supermarket","other":{"brand:wikidata":"Q24298870","website":"https:\/\/www.planetorganic.com\/pages\/torrington-place"}}, "geometry":{"type":"MultiPolygon","coordinates":[[[[-0.13421,51.52173],[-0.13406,51.52179],[-0.13396,51.52169],[-0.13401,51.52167],[-0.13411,51.52163],[-0.13421,51.52173]]]]}},
{ "type":"Feature","properties":{"osm_way_id":"77766913","name":"Iceland","building":"yes","shop":"supermarket","other":{"addr:city":"London","addr:housenumber":"100-104","addr:postcode":"NW6 4HS","addr:street":"Kilburn High Road","alt_name":"Iceland Kilburn High Road","brand":"Iceland","brand:wikidata":"Q721810","opening_hours":"Mo-Sa 07:00-22:00; Su 11:00-17:00"}}, "geometry":{"type":"MultiPolygon","coordinates":[[[[-0.19395,51.53921],[-0.1938,51.53908],[-0.19404,51.53897],[-0.19427,51.53888],[-0.19442,51.53901],[-0.19395,51.53921]]]]}},
{ "type":"Feature","properties":{"osm_way_id":"77766915","name":"Sainsbury's","building":"yes","shop":"supermarket","other":{"addr:city":"London","addr:housenumber":"88-92","addr:postcode":"NW6 4HS","addr:street":"Kilburn High Road","brand":"Sainsbury's","brand:wikidata":"Q152096","opening_hours":"Mo-Sa 07:00-22:00; Su 11:00-17:00","wheelchair":"yes"}}, "geometry":{"type":"MultiPolygon","coordinates":[[[[-0.19412,51.53874],[-0.1939,51.53884],[-0.19385,51.53881],[-0.19359,51.53893],[-0.19367,51.53899],[-0.1934,51.53911],[-0.19335,51.53913],[-0.19307,51.53893],[-0.19329,51.53863],[-0.19349,51.53868],[-0.19364,51.53862],[-0.1937,51.53867],[-0.19395,51.53857],[-0.19412,51.53874]]]]}},
{ "type":"Feature","properties":{"osm_way_id":"105467176","name":"M&S Simply Food","building":"yes","shop":"supermarket","other":{"addr:city":"London","addr:housenumber":"66-68","addr:postcode":"NW6 4HJ","addr:street":"Kilburn High Road","alt_name":"M&S Foodhall","brand":"M&S Simply Food","brand:wikidata":"Q714491","wheelchair":"yes"}}, "geometry":{"type":"MultiPolygon","coordinates":[[[[-0.19345,51.53812],[-0.1934,51.53808],[-0.19333,51.53801],[-0.19314,51.5381],[-0.19308,51.53813],[-0.19305,51.53811],[-0.1927,51.53828],[-0.19289,51.53844],[-0.19323,51.53824],[-0.19345,51.53812]]]]}},
{ "type":"Feature","properties":{"osm_way_id":"105467200","name":"Tesco Express","building":"yes","shop":"supermarket","other":{"addr:housenumber":"34-36","addr:postcode":"NW6 5UA","addr:street":"Kilburn High Road","brand":"Tesco Express","brand:wikidata":"Q98456772","building:min_level":"1","contact:phone":"+44 8456719266","contact:website":"https:\/\/www.tesco.com\/store-locator\/uk\/?bid=5244","opening_hours":"07:00-23:00","operator":"Tesco"}}, "geometry":{"type":"MultiPolygon","coordinates":[[[[-0.19154,51.53686],[-0.19148,51.53689],[-0.19144,51.53691],[-0.1914,51.53693],[-0.19135,51.53696],[-0.1913,51.53699],[-0.19139,51.53705],[-0.19153,51.53713],[-0.19195,51.53689],[-0.19179,51.53675],[-0.19162,51.53682],[-0.19154,51.53686]]]]}},
{ "type":"Feature","properties":{"osm_way_id":"107809449","name":"Buy Wise","building":"yes","shop":"supermarket","other":{"addr:city":"London Borough of Camden","addr:housenumber":"49","addr:postcode":"N7 0BT","addr:street":"Brecknock Road"}}, "geometry":{"type":"MultiPolygon","coordinates":[[[[-0.13093,51.55032],[-0.13096,51.55031],[-0.13095,51.5503],[-0.13107,51.55028],[-0.13104,51.55022],[-0.13092,51.55025],[-0.13092,51.55024],[-0.13062,51.5503],[-0.13066,51.55037],[-0.13081,51.55034],[-0.13081,51.55034],[-0.13093,51.55032]]]]}},
{ "type":"Feature","properties":{"osm_way_id":"110601061","name":"Morrisons","building":"yes","shop":"supermarket","other":{"branch":"(temporary building)","brand":"Morrisons","brand:wikidata":"Q922344","brand:wikipedia":"en:Morrisons"}}, "geometry":{"type":"MultiPolygon","coordinates":[[[[-0.15039,51.54287],[-0.15028,51.54307],[-0.14942,51.5429],[-0.14953,51.5427],[-0.15039,51.54287]]]]}},
{ "type":"Feature","properties":{"osm_way_id":"123092671","name":"Aldi","building":"yes","shop":"supermarket","other":{"addr:city":"London","addr:housenumber":"142-146","addr:postcode":"NW6 4JD","addr:street":"Kilburn High Road","brand":"ALDI","brand:wikidata":"Q41171672","brand:wikipedia":"en:Aldi","name:fa":"آلدی","opening_hours":"Mo-Sa 07:00-23:00; Su 11:00-17:00; PH 08:00-20:00","wheelchair":"yes"}}, "geometry":{"type":"MultiPolygon","coordinates":[[[[-0.196,51.5405],[-0.19593,51.54053],[-0.19614,51.54071],[-0.19628,51.54065],[-0.19602,51.54042],[-0.19594,51.54045],[-0.196,51.5405]]]]}},
{ "type":"Feature","properties":{"osm_way_id":"124434631","name":"Sainsbury's","building":"yes","shop":"supermarket","other":{"addr:city":"London","addr:housename":"O2 Centre","addr:housenumber":"255","addr:postcode":"NW3 6LU","addr:street":"Finchley Road","alt_name":"Sainsbury's Finchley Road Superstore","brand":"Sainsbury's","brand:wikidata":"Q152096","brand:wikipedia":"en:Sainsbury's","building:levels":"5","building:min_level":"4","opening_hours":"Mo-Fr 06:00-24:00; Sa 06:00-23:30; Su 11:00-17:00"}}, "geometry":{"type":"MultiPolygon","coordinates":[[[[-0.18245,51.54829],[-0.18242,51.5482],[-0.18228,51.54771],[-0.18148,51.5478],[-0.18152,51.54797],[-0.18138,51.54798],[-0.18149,51.54839],[-0.18155,51.54839],[-0.18245,51.54829]]]]}},
{ "type":"Feature","properties":{"osm_way_id":"143369836","name":"Sainsbury's","building":"retail","shop":"supermarket","other":{"HE_ref":"1463938","addr:city":"London","addr:housenumber":"17-21","addr:postcode":"NW1 9LJ","addr:street":"Camden Road","alt_name":"Sainsbury's Camden Superstore","brand":"Sainsbury's","brand:wikidata":"Q152096","brand:wikipedia":"en:Sainsbury's","fhrs:id":"425136","layer":"1","listed_status":"Grade II","opening_hours":"Mo-Fr 07:00-23:00; Sa 07:00-22:00; Su,PH 11:00-17:00; easter off; Dec 25 off","operator":"Sainsbury's","wheelchair":"yes","wikidata":"Q47012710"}}, "geometry":{"type":"MultiPolygon","coordinates":[[[[-0.14154,51.54044],[-0.14147,51.54047],[-0.14142,51.54049],[-0.14144,51.5405],[-0.14131,51.54055],[-0.14143,51.54067],[-0.14125,51.54074],[-0.14126,51.54075],[-0.1412,51.54078],[-0.14119,51.54077],[-0.14106,51.54082],[-0.14094,51.54087],[-0.14091,51.54088],[-0.14087,51.54084],[-0.14086,51.54083],[-0.14085,51.54083],[-0.14084,51.54083],[-0.14083,51.54083],[-0.14082,51.54083],[-0.14081,51.54083],[-0.14076,51.54079],[-0.1408,51.54077],[-0.14079,51.54076],[-0.14074,51.54078],[-0.14074,51.54079],[-0.14045,51.54091],[-0.14033,51.5408],[-0.14036,51.54079],[-0.1402,51.54064],[-0.14017,51.54065],[-0.14008,51.54056],[-0.14011,51.54055],[-0.14009,51.54053],[-0.14105,51.54014],[-0.14106,51.54015],[-0.14118,51.5401],[-0.14127,51.54019],[-0.14129,51.54018],[-0.14147,51.54035],[-0.14145,51.54036],[-0.14154,51.54044]]]]}},
{ "type":"Feature","properties":{"osm_way_id":"167004572","name":"Nisa","building":"apartments","shop":"supermarket","other":{"addr:housenumber":"101","addr:street":"Brecknock Road","building:levels":"3","diet:kosher":"no","opening_hours":"Mo-Sa 08:00-23:00; Su 10:00-22:30","roof:levels":"0"}}, "geometry":{"type":"MultiPolygon","coordinates":[[[[-0.13268,51.55231],[-0.13265,51.55233],[-0.13255,51.55226],[-0.13255,51.55224],[-0.13265,51.55217],[-0.1328,51.55223],[-0.13281,51.55224],[-0.13268,51.55231]]]]}},
{ "type":"Feature","properties":{"osm_way_id":"239099480","name":"The Valley","building":"yes","shop":"supermarket","other":{"addr:housenumber":"230","addr:street":"Kilburn High Road","building:colour":"grey","building:levels":"4","contact:phone":"+44 20 7624 1661","roof:colour":"black"}}, "geometry":{"type":"MultiPolygon","coordinates":[[[[-0.19809,51.54212],[-0.19815,51.54216],[-0.19792,51.54228],[-0.19785,51.54223],[-0.19809,51.54212]]]]}},
{ "type":"Feature","properties":{"osm_way_id":"291687184","name":"Lidl","building":"retail","shop":"supermarket","other":{"addr:city":"London","addr:country":"GB","addr:housenumber":"217-223","addr:postcode":"NW5 2JU","addr:street":"Kentish Town Road","brand":"Lidl","brand:wikidata":"Q151954","brand:wikipedia":"en:Lidl","fhrs:id":"817061","opening_hours":"Mo-Sa 07:00-22:00; Su 10:00-19:00; PH 07:00-22:00","wheelchair":"yes"}}, "geometry":{"type":"MultiPolygon","coordinates":[[[[-0.1416,51.54742],[-0.14155,51.54759],[-0.14178,51.54761],[-0.14185,51.54762],[-0.14186,51.54759],[-0.1419,51.54745],[-0.1416,51.54742]]]]}},
{ "type":"Feature","properties":{"osm_way_id":"294894106","name":"Tesco Metro","building":"yes","shop":"supermarket","other":{"addr:city":"London","addr:housenumber":"10-16","addr:postcode":"W1T 2QB","addr:street":"Goodge Street","alt_name":"Tesco Goodge Street Metro","brand":"Tesco Metro","brand:wikidata":"Q57551648","name:fa":"تسکو مترو","opening_hours":"Mo-Fr 06:00-00:00; Sa 06:00-23:00; Su 12:00-18:00"}}, "geometry":{"type":"MultiPolygon","coordinates":[[[[-0.13438,51.52011],[-0.13433,51.52007],[-0.13428,51.52002],[-0.13455,51.51992],[-0.13465,51.52001],[-0.13438,51.52011]]]]}},
{ "type":"Feature","properties":{"osm_way_id":"373706260","name":"OrganicO","building":"yes","shop":"supermarket","other":{"addr:city":"London","addr:housenumber":"45-46","addr:postcode":"NW1 8AJ","addr:street":"Chalk Farm Road"}}, "geometry":{"type":"MultiPolygon","coordinates":[[[[-0.14866,51.54295],[-0.14881,51.54298],[-0.14874,51.54312],[-0.14858,51.54309],[-0.14866,51.54295]]]]}},
{ "type":"Feature","properties":{"osm_way_id":"373710189","name":"Amazon Fresh","shop":"supermarket","other":{"addr:city":"London","addr:country":"GB","addr:housenumber":"86","addr:postcode":"NW1 8AR","addr:street":"Chalk Farm Road","brand":"Amazon Fresh","brand:wikidata":"Q4740834","brand:wikipedia":"en:Amazon Fresh","fhrs:id":"1374084","level":"0","opening_hours":"Mo-Su 07:00-23:00","wheelchair":"yes"}}, "geometry":{"type":"MultiPolygon","coordinates":[[[[-0.15217,51.54381],[-0.15185,51.5437],[-0.15176,51.54381],[-0.152,51.54389],[-0.15201,51.5439],[-0.15201,51.5439],[-0.15213,51.54394],[-0.15217,51.54389],[-0.15211,51.54388],[-0.15217,51.54381]]]]}},
{ "type":"Feature","properties":{"osm_way_id":"416601711","name":"M&S Simply Food","shop":"supermarket","other":{"addr:city":"London","brand":"M&S Simply Food","brand:wikidata":"Q714491","brand:wikipedia":"en:Marks & Spencer","building:part":"yes","level":"0","opening_hours":"Mo-Fr 07:00-24:00, Sa 07:00-23:00, Su 08:00-23:00","wheelchair":"yes"}}, "geometry":{"type":"MultiPolygon","coordinates":[[[[-0.12473,51.53133],[-0.12459,51.53122],[-0.12448,51.53125],[-0.12452,51.53132],[-0.12456,51.53138],[-0.12473,51.53133]]]]}},
{ "type":"Feature","properties":{"osm_way_id":"421386553","name":"M&S Simply Food","shop":"supermarket","other":{"addr:city":"London","addr:housenumber":"323-324","addr:postcode":"WC1V 7PU","addr:street":"High Holborn","alt_name":"Marks & Spencer Simply Food","brand":"M&S Simply Food","brand:wikidata":"Q714491","brand:wikipedia":"en:Marks & Spencer","fhrs:id":"294553","opening_hours":"Mo-Fr 07:00-22:00, Sa 08:00-21:00, Su 11:00-17:00"}}, "geometry":{"type":"MultiPolygon","coordinates":[[[[-0.11245,51.51815],[-0.11249,51.51798],[-0.11232,51.51797],[-0.11224,51.51801],[-0.11226,51.51813],[-0.11245,51.51815]]]]}},
{ "type":"Feature","properties":{"osm_way_id":"425013558","name":"Planet Organic","shop":"supermarket","other":{"brand:wikidata":"Q24298870","organic":"only","website":"https:\/\/www.planetorganic.com\/pages\/tottenham-court-road"}}, "geometry":{"type":"MultiPolygon","coordinates":[[[[-0.13185,51.51789],[-0.13195,51.51799],[-0.13204,51.518],[-0.13221,51.51793],[-0.13232,51.51789],[-0.13221,51.51776],[-0.13185,51.51789]]]]}},
{ "type":"Feature","properties":{"osm_way_id":"451480067","name":"Longdan","shop":"supermarket","other":{"wheelchair":"yes"}}, "geometry":{"type":"MultiPolygon","coordinates":[[[[-0.1436,51.53858],[-0.14346,51.53843],[-0.14343,51.53841],[-0.1434,51.53839],[-0.14327,51.53845],[-0.14331,51.53849],[-0.14327,51.53851],[-0.1433,51.53856],[-0.14336,51.53866],[-0.1436,51.53858]]]]}},
{ "type":"Feature","properties":{"osm_way_id":"451564161","name":"Whole Foods Market","shop":"supermarket","other":{"addr:city":"London","addr:housenumber":"49","addr:postcode":"NW1 7PN","addr:street":"Parkway","brand":"Whole Foods Market","brand:wikidata":"Q1809448","brand:wikipedia":"en:Whole Foods Market","fhrs:id":"424561","website":"https:\/\/www.wholefoodsmarket.co.uk\/stores\/camden\/"}}, "geometry":{"type":"MultiPolygon","coordinates":[[[[-0.14438,51.53778],[-0.14406,51.5379],[-0.14416,51.53795],[-0.14422,51.53792],[-0.14436,51.53799],[-0.14444,51.53803],[-0.14459,51.53792],[-0.14438,51.53778]]]]}},
{ "type":"Feature","properties":{"osm_way_id":"452856403","name":"Lidl","building":"retail","shop":"supermarket","other":{"addr:housenumber":"64-70","addr:postcode":"NW1 0LT","addr:street":"Camden High Street","brand":"Lidl","brand:wikidata":"Q151954","brand:wikipedia":"en:Lidl","building:levels":"4","fhrs:id":"426021","opening_hours":"Mo-Sa 07:00-23:00; Su 12:00-18:00","roof:levels":"1"}}, "geometry":{"type":"MultiPolygon","coordinates":[[[[-0.13978,51.53661],[-0.14,51.53653],[-0.14013,51.53647],[-0.14019,51.53645],[-0.14002,51.53628],[-0.13996,51.5363],[-0.13985,51.53634],[-0.13981,51.53636],[-0.13964,51.53642],[-0.13977,51.53655],[-0.13974,51.53656],[-0.13978,51.53661]]]]}},
{ "type":"Feature","properties":{"osm_way_id":"457644937","name":"ALDI","building":"yes","shop":"supermarket","other":{"addr:housenumber":"131-133","addr:postcode":"NW1 7JR","addr:street":"Camden High Street","brand":"ALDI","brand:wikidata":"Q41171672","brand:wikipedia":"en:Aldi","fhrs:id":"720388","name:fa":"آلدی","opening_hours":"Mo-Sa 07:30-23:00; Su 11:00-17:00","operator":"Aldi","wheelchair":"yes"}}, "geometry":{"type":"MultiPolygon","coordinates":[[[[-0.14162,51.53749],[-0.14217,51.53729],[-0.14229,51.53725],[-0.14233,51.53729],[-0.14244,51.53725],[-0.14256,51.53739],[-0.14208,51.53756],[-0.14203,51.53751],[-0.14173,51.53761],[-0.14162,51.53749]]]]}},
{ "type":"Feature","properties":{"osm_way_id":"483801992","name":"Lidl","building":"yes","shop":"supermarket","other":{"old_name":"Sainsbury's Local"}}, "geometry":{"type":"MultiPolygon","coordinates":[[[[-0.13711,51.52423],[-0.13716,51.52429],[-0.13714,51.52431],[-0.13651,51.52457],[-0.13661,51.52467],[-0.13717,51.52444],[-0.13714,51.5244],[-0.13721,51.52438],[-0.13727,51.52444],[-0.13747,51.52437],[-0.13742,51.5243],[-0.1373,51.52417],[-0.13711,51.52423]]]]}},
{ "type":"Feature","properties":{"osm_way_id":"750589882","name":"Lidl","shop":"supermarket","other":{"addr:city":"London","addr:country":"GB","addr:housenumber":"145","addr:postcode":"W1T 7NE","addr:street":"Tottenham Court Road","brand":"Lidl","brand:wikidata":"Q151954","brand:wikipedia":"en:Lidl","fhrs:id":"1267287","opening_hours":"Mo-Sa 07:00-22:00; Su 11:00-17:00","start_date":"2020-04-30"}}, "geometry":{"type":"MultiPolygon","coordinates":[[[[-0.13711,51.52423],[-0.1373,51.52417],[-0.13742,51.5243],[-0.13721,51.52438],[-0.13714,51.5244],[-0.13717,51.52444],[-0.13661,51.52467],[-0.13651,51.52457],[-0.13714,51.52431],[-0.13716,51.52429],[-0.13711,51.52423]]]]}},
{ "type":"Feature","properties":{"osm_way_id":"864003576","name":"Phoenicia Mediterranean Food Hall","building":"retail","shop":"supermarket","other":{"addr:city":"London","addr:housenumber":"186-192","addr:street":"Kentish Town Road","email":"info@phoeniciafoodhall.co.uk","payment:card":"yes","payment:cash":"yes","phone":"+44 20 7267 1267","website":"https:\/\/phoeniciafoodhall.co.uk\/"}}, "geometry":{"type":"MultiPolygon","coordinates":[[[[-0.14103,51.5475],[-0.14096,51.54769],[-0.14126,51.54774],[-0.14133,51.54754],[-0.14103,51.5475]]]]}},
{ "type":"Feature","properties":{"osm_way_id":"864003580","name":"Earth Natural Foods","building":"retail","shop":"supermarket","other":{"addr:city":"London","addr:housenumber":"200-202","addr:postcode":"NW5 2AE","addr:street":"Kentish Town Road","contact:website":"https:\/\/www.earthnaturalfoods.co.uk\/","fhrs:id":"425300","fhrs:local_authority_id":"53446","level":"0","source:addr":"FHRS Open Data"}}, "geometry":{"type":"MultiPolygon","coordinates":[[[[-0.14095,51.54794],[-0.14117,51.54796],[-0.14121,51.54788],[-0.14098,51.54785],[-0.14075,51.54783],[-0.14075,51.54786],[-0.14075,51.54787],[-0.14074,51.54793],[-0.14095,51.54794]]]]}},
{ "type":"Feature","properties":{"osm_way_id":"864126693","name":"Brecknock Supermarket","building":"yes","shop":"supermarket","other":{"addr:city":"London Borough of Camden","addr:housenumber":"43","addr:postcode":"N7 0BT","addr:street":"Brecknock Road"}}, "geometry":{"type":"MultiPolygon","coordinates":[[[[-0.13089,51.55008],[-0.13086,51.55001],[-0.1308,51.55002],[-0.1308,51.55002],[-0.13065,51.55005],[-0.13066,51.55006],[-0.13052,51.55009],[-0.13055,51.55015],[-0.13089,51.55008]]]]}},
{ "type":"Feature","properties":{"osm_way_id":"1018324386","name":"Tesco Express","building":"apartments","shop":"supermarket","other":{"addr:city":"London","addr:housenumber":"44-46","addr:postcode":"NW3 4UE","addr:street":"England's Lane","brand":"Tesco Express","brand:wikidata":"Q98456772","wheelchair":"yes"}}, "geometry":{"type":"MultiPolygon","coordinates":[[[[-0.16261,51.54585],[-0.16249,51.54578],[-0.16261,51.5457],[-0.16273,51.54577],[-0.16274,51.54577],[-0.16261,51.54585]]]]}},
{ "type":"Feature","properties":{"osm_way_id":"1018848846","building":"yes","shop":"supermarket"},"geometry":{"type":"MultiPolygon","coordinates":[[[[-0.20147,51.5451],[-0.20132,51.54495],[-0.20136,51.54494],[-0.20138,51.54494],[-0.20153,51.54508],[-0.20147,51.5451]]]]}}
]
}
