{
"type": "FeatureCollection",
"features": [
{ "type":"Feature","properties":{"osm_id":"1666565067","name":"Waitrose","other":{"addr:housename":"The Podium","addr:postcode":"BA1 5AL","addr:street":"Northgate Street","alt_name":"Waitrose Bath","brand":"Waitrose","brand:wikidata":"Q771734","brand:wikipedia":"en:Waitrose & Partners","fhrs:id":"203988","official_name":"Waitrose & Partners","operator":"Waitrose & Partners","shop":"supermarket","website":"https:\/\/www.waitrose.com\/bf_home\/bf\/193.html","wheelchair":"yes"}}, "geometry":{"type":"Point","coordinates":[-2.35908,51.38337 ]}},
{ "type":"Feature","properties":{"osm_id":"3750167918","name":"The Co-operative Food","other":{"addr:city":"Paulton","addr:postcode":"BS39 7QG","addr:street":"Hill Court","fhrs:id":"205119","opening_hours":"Mo-Su 07:00-22:00","operator":"Radstock Co-operative Society","shop":"supermarket","website":"http:\/\/www.radstockcoop.co.uk\/store\/paulton"}}, "geometry":{"type":"Point","coordinates":[-2.50172,51.30669 ]}},
{ "type":"Feature","properties":{"osm_way_id":"47272674","name":"Tesco Express","shop":"supermarket","other":{"addr:postcode":"BA2 2ER","brand":"Tesco Express","brand:wikidata":"Q98456772","contact:website":"https:\/\/www.tesco.com\/store-locator\/bath\/241-243-englishcombe-ln","fhrs:id":"204994"}}, "geometry":{"type":"MultiPolygon","coordinates":[[[[-2.39148,51.36657],[-2.39099,51.36605],[-2.39073,51.36613],[-2.39083,51.36626],[-2.39072,51.3663],[-2.39111,51.36671],[-2.39148,51.36657]]]]}},
{ "type":"Feature","properties":{"osm_way_id":"51801064","name":"Co-op Food","building":"supermarket","shop":"supermarket","other":{"addr:city":"Bath","addr:country":"GB","addr:housenumber":"110","addr:postcode":"BA2 1LN","addr:street":"Mount Road","brand":"Co-op Food","brand:wikidata":"Q3277439","brand:wikipedia":"en:Co-op Food","fhrs:id":"204393","opening_hours":"Mo-Su 06:00-22:00","operator":"Co-op","phone":"+44 1225 429666","toilets:wheelchair":"no","website":"https:\/\/www.coop.co.uk\/store\/food\/BA2-1LN\/110-mount-road","wheelchair":"yes"}}, "geometry":{"type":"MultiPolygon","coordinates":[[[[-2.3965,51.37198],[-2.39643,51.37215],[-2.39597,51.37207],[-2.39616,51.37192],[-2.3965,51.37198]]]]}},
{ "type":"Feature","properties":{"osm_way_id":"89232048","name":"Sainsbury's","building":"retail","shop":"supermarket","other":{"addr:city":"Bath","addr:housename":"Green Park Station","addr:postcode":"BA1 2DR","addr:street":"Green Park Road","alt_name":"Sainsbury's Bath Superstore","atm":"yes","brand":"Sainsbury's","brand:wikidata":"Q152096","brand:wikipedia":"en:Sainsbury's","building:levels":"1","fhrs:id":"204575","layer":"1","opening_hours":"Mo-Sa 07:00-22:00; Su 11:00-17:00","roof:levels":"0","roof:shape":"flat","toilets:wheelchair":"yes","website":"https:\/\/stores.sainsburys.co.uk\/0005\/bath","wheelchair":"yes"}}, "geometry":{"type":"MultiPolygon","coordinates":[[[[-2.36925,51.38133],[-2.36915,51.38133],[-2.36915,51.38137],[-2.36911,51.38137],[-2.36831,51.3814],[-2.3683,51.3814],[-2.36827,51.38142],[-2.36823,51.38144],[-2.36813,51.38144],[-2.36808,51.38143],[-2.36805,51.38141],[-2.36785,51.38141],[-2.36785,51.38135],[-2.36772,51.38136],[-2.36772,51.38129],[-2.36789,51.38129],[-2.36789,51.38125],[-2.36806,51.38125],[-2.36805,51.38104],[-2.36803,51.38102],[-2.36828,51.38091],[-2.36838,51.38091],[-2.36838,51.38089],[-2.36922,51.38085],[-2.36925,51.38133]]]]}},
{ "type":"Feature","properties":{"osm_way_id":"94826687","name":"Tesco Express","landuse":"retail","shop":"supermarket","other":{"addr:postcode":"BA2 4SA","brand":"Tesco Express","brand:wikidata":"Q98456772","contact:website":"https:\/\/www.tesco.com\/store-locator\/bath\/52-wellsway","fhrs:id":"550915"}}, "geometry":{"type":"MultiPolygon","coordinates":[[[[-2.36645,51.37027],[-2.36602,51.37024],[-2.36601,51.3699],[-2.36642,51.36994],[-2.36636,51.37014],[-2.36648,51.37015],[-2.36645,51.37027]]]]}},
{ "type":"Feature","properties":{"osm_way_id":"127961333","name":"Tesco","landuse":"retail","shop":"supermarket","other":{"addr:city":"Midsomer Norton","addr:postcode":"BS39 7SW","addr:street":"Old Mills","alt_name":"Tesco Midsomer Norton Superstore","brand":"Tesco","brand:wikidata":"Q487494","brand:wikipedia":"en:Tesco","contact:website":"https:\/\/www.tesco.com\/store-locator\/bristol\/old-mills","fhrs:id":"205749"}}, "geometry":{"type":"MultiPolygon","coordinates":[[[[-2.49987,51.29283],[-2.49969,51.29226],[-2.49968,51.29224],[-2.499,51.29223],[-2.49885,51.29217],[-2.49872,51.29209],[-2.4987,51.29169],[-2.49727,51.29171],[-2.49717,51.2918],[-2.49728,51.29312],[-2.49756,51.29311],[-2.49764,51.29315],[-2.49774,51.29319],[-2.4979,51.29322],[-2.49811,51.29324],[-2.49826,51.29323],[-2.49845,51.2932],[-2.49858,51.29318],[-2.4988,51.29314],[-2.49901,51.29308],[-2.49951,51.29293],[-2.49987,51.29283]]]]}},
{ "type":"Feature","properties":{"osm_way_id":"140405298","name":"Aldi","building":"commercial","shop":"supermarket","other":{"addr:city":"Alnwick","addr:county":"Northumberland","addr:postcode":"NE66 2PA","addr:street":"South Road","branch":"Alnwick","brand":"ALDI","brand:wikidata":"Q41171672","brand:wikipedia":"en:Aldi","fhrs:id":"776816","opening_hours":"Mo-Sa 08:00-22:00; Su 10:00-16:00"}}, "geometry":{"type":"MultiPolygon","coordinates":[[[[-1.69397,55.40548],[-1.69406,55.40575],[-1.69321,55.40584],[-1.69312,55.40556],[-1.69397,55.40548]]]]}},
{ "type":"Feature","properties":{"osm_way_id":"144473708","name":"The Co-operative Food","building":"yes","shop":"supermarket","other":{"addr:postcode":"BA3 3RQ","fhrs:id":"204141","operator":"Radstock Co-operative Society","website":"http:\/\/www.radstockcoop.co.uk\/","wheelchair":"yes"}}, "geometry":{"type":"MultiPolygon","coordinates":[[[[-2.44905,51.29266],[-2.44826,51.29254],[-2.44816,51.29251],[-2.44813,51.29246],[-2.44811,51.29243],[-2.44812,51.29239],[-2.44846,51.29188],[-2.44849,51.29189],[-2.4486,51.29183],[-2.44897,51.29192],[-2.44889,51.29204],[-2.44905,51.29209],[-2.44913,51.29216],[-2.44905,51.29229],[-2.44916,51.29233],[-2.44908,51.29245],[-2.44917,51.29247],[-2.44905,51.29266]]]]}},
{ "type":"Feature","properties":{"osm_way_id":"172279247","name":"Co-op","building":"retail","shop":"supermarket","other":{"addr:postcode":"BA2 5EH","fhrs:id":"205604","website":"https:\/\/www.coop.co.uk\/store\/food\/BA2-5EH\/the-avenue"}}, "geometry":{"type":"MultiPolygon","coordinates":[[[[-2.34701,51.35995],[-2.34685,51.35991],[-2.3468,51.3599],[-2.34675,51.35998],[-2.34697,51.36003],[-2.34701,51.35995]]]]}},
{ "type":"Feature","properties":{"osm_way_id":"183157874","name":"Co-op Food","building":"retail","shop":"supermarket","other":{"addr:housenumber":"3A","addr:postcode":"BA1 2SQ","addr:street":"Burlington Place, Julian Road","brand":"Co-op Food","brand:wikidata":"Q3277439","brand:wikipedia":"en:Co-op Food","building:levels":"2","fhrs:id":"205153","toilets:wheelchair":"no","website":"https:\/\/www.coop.co.uk\/store\/food\/ba1-2sq\/3a-burlington-place","wheelchair":"yes","wheelchair:description":"may be a bit tight inside"}}, "geometry":{"type":"MultiPolygon","coordinates":[[[[-2.36489,51.38801],[-2.36508,51.38804],[-2.3651,51.388],[-2.36512,51.38796],[-2.36514,51.38792],[-2.36496,51.38788],[-2.36495,51.38791],[-2.36493,51.38791],[-2.36489,51.38801]]]]}},
{ "type":"Feature","properties":{"osm_way_id":"209331027","name":"Waitrose","landuse":"retail","shop":"supermarket","other":{"addr:city":"Bristol","addr:postcode":"BS31 1ST","addr:street":"Broadmead Lane","alt_name":"Waitrose Keynsham","brand":"Waitrose & Partners","brand:wikidata":"Q771734","brand:wikipedia":"en:Waitrose & Partners","fhrs:id":"764765","operator":"Waitrose & Partners","website":"https:\/\/www.waitrose.com\/content\/waitrose\/en\/bf_home\/bf\/557.html"}}, "geometry":{"type":"MultiPolygon","coordinates":[[[[-2.4849,51.41355],[-2.48459,51.41413],[-2.4845,51.41439],[-2.48423,51.41468],[-2.48354,51.41465],[-2.48316,51.4146],[-2.48299,51.41452],[-2.48291,51.41446],[-2.48291,51.41426],[-2.48292,51.414],[-2.4829,51.41374],[-2.48273,51.41316],[-2.48273,51.41307],[-2.48276,51.41299],[-2.48287,51.41294],[-2.48312,51.41296],[-2.4849,51.41355]]]]}},
{ "type":"Feature","properties":{"osm_way_id":"238794516","name":"Sainsbury's Odd Down","shop":"supermarket","other":{"addr:city":"Bath","addr:postcode":"BA2 5RF","addr:street":"Frome Road","brand":"Sainsbury's","brand:wikidata":"Q152096","brand:wikipedia":"en:Sainsbury's","fhrs:id":"204188","operator":"Sainsbury's","toilets:wheelchair":"yes","website":"https:\/\/stores.sainsburys.co.uk\/2166\/bath-odd-down","wheelchair":"yes"}}, "geometry":{"type":"MultiPolygon","coordinates":[[[[-2.37118,51.35675],[-2.37118,51.35667],[-2.37157,51.35625],[-2.37194,51.35585],[-2.37225,51.35551],[-2.37382,51.35607],[-2.37297,51.35702],[-2.37291,51.35707],[-2.37285,51.3571],[-2.37282,51.35713],[-2.37263,51.35701],[-2.3725,51.35705],[-2.37233,51.35709],[-2.37217,51.35709],[-2.37204,51.35706],[-2.37187,51.357],[-2.37118,51.35675]]]]}},
{ "type":"Feature","properties":{"osm_way_id":"245486696","name":"Sainsbury's","building":"supermarket","shop":"supermarket","other":{"addr:city":"Midsomer Norton","addr:housename":"The Hollies","addr:postcode":"BA3 2DT","addr:street":"High Street","alt_name":"Sainsbury's Midsomer Norton Superstore","brand":"Sainsbury's","brand:wikidata":"Q152096","brand:wikipedia":"en:Sainsbury's","fhrs:id":"205243","website":"https:\/\/stores.sainsburys.co.uk\/2125\/midsomer-norton"}}, "geometry":{"type":"MultiPolygon","coordinates":[[[[-2.4826,51.28659],[-2.48214,51.28625],[-2.48188,51.2864],[-2.48178,51.28633],[-2.48171,51.28637],[-2.48165,51.28633],[-2.4816,51.28635],[-2.48151,51.28641],[-2.48167,51.28651],[-2.48177,51.28659],[-2.48185,51.28664],[-2.48196,51.28672],[-2.48201,51.28669],[-2.48213,51.28677],[-2.48227,51.28677],[-2.4826,51.28659]]]]}},
{ "type":"Feature","properties":{"osm_way_id":"335960632","name":"Co-op Food","building":"supermarket","shop":"supermarket","other":{"addr:postcode":"BA2 6AA","brand":"Co-op Food","brand:wikidata":"Q3277439","brand:wikipedia":"en:Co-op Food","fhrs:id":"914664","opening_hours":"Mo-Su 07:00-22:30","toilets:wheelchair":"no","website":"https:\/\/www.coop.co.uk\/store\/food\/BA2-6AA\/ground-floor-retail-unit","wheelchair":"yes"}}, "geometry":{"type":"MultiPolygon","coordinates":[[[[-2.35298,51.37664],[-2.35307,51.37652],[-2.35294,51.37649],[-2.35287,51.3766],[-2.35298,51.37664]]]]}},
{ "type":"Feature","properties":{"osm_way_id":"440418932","name":"Tesco","shop":"supermarket","other":{"addr:city":"Keynsham","addr:postcode":"BS31 2BA","addr:street":"Bristol Road","alt_name":"Tesco Keynsham Superstore","brand":"Tesco","brand:wikidata":"Q487494","brand:wikipedia":"en:Tesco","contact:website":"https:\/\/www.tesco.com\/store-locator\/keynsham\/bristol-rd","fhrs:id":"204308"}}, "geometry":{"type":"MultiPolygon","coordinates":[[[[-2.50208,51.41672],[-2.50208,51.41672],[-2.50085,51.41708],[-2.50095,51.41723],[-2.50054,51.41734],[-2.49987,51.41641],[-2.50039,51.41627],[-2.50042,51.41631],[-2.50111,51.41618],[-2.50117,51.41621],[-2.50155,51.41618],[-2.50169,51.41638],[-2.50184,51.41634],[-2.50208,51.41672]]]]}},
{ "type":"Feature","properties":{"osm_way_id":"440526474","name":"Morrisons","shop":"supermarket","other":{"addr:postcode":"BA1 6AE","addr:street":"York Place, London Road","brand":"Morrisons","brand:wikidata":"Q922344","brand:wikipedia":"en:Morrisons","fhrs:id":"204981","toilets":"yes","toilets:wheelchair":"yes","website":"https:\/\/my.morrisons.com\/storefinder\/320","wheelchair":"yes"}}, "geometry":{"type":"MultiPolygon","coordinates":[[[[-2.34986,51.39218],[-2.34951,51.39171],[-2.34994,51.39164],[-2.34975,51.391],[-2.35129,51.39091],[-2.35198,51.39165],[-2.35167,51.39176],[-2.35175,51.39184],[-2.35155,51.39191],[-2.35172,51.392],[-2.35147,51.39211],[-2.35124,51.39187],[-2.35102,51.39196],[-2.35089,51.39181],[-2.34986,51.39218]]]]}},
{ "type":"Feature","properties":{"osm_way_id":"440528495","name":"Co-op Food","shop":"supermarket","other":{"addr:postcode":"BA2 3LH","brand":"Co-op Food","brand:wikidata":"Q3277439","brand:wikipedia":"en:Co-op Food","fhrs:id":"205397","opening_hours":"Mo-Sa 07:00-23:00; Su 10:00-16:00","website":"https:\/\/www.coop.co.uk\/store\/food\/BA2-3LH\/shaftsbury-road","wheelchair":"yes"}}, "geometry":{"type":"MultiPolygon","coordinates":[[[[-2.37823,51.37728],[-2.37762,51.37782],[-2.37755,51.37782],[-2.37733,51.37789],[-2.37734,51.37795],[-2.37723,51.37799],[-2.37703,51.37777],[-2.3774,51.37764],[-2.3772,51.37743],[-2.37761,51.37723],[-2.37729,51.37696],[-2.37758,51.37681],[-2.37771,51.37693],[-2.3778,51.3769],[-2.37823,51.37728]]]]}},
{ "type":"Feature","properties":{"osm_way_id":"440664666","name":"Lidl","shop":"supermarket","other":{"addr:city":"Midsomer Norton","addr:housenumber":"39","addr:postcode":"BA3 2DL","addr:street":"High Street","brand":"Lidl","brand:wikidata":"Q151954","brand:wikipedia":"en:Lidl","fhrs:id":"204825","website":"https:\/\/www.lidl.co.uk\/en\/index.htm"}}, "geometry":{"type":"MultiPolygon","coordinates":[[[[-2.47914,51.28834],[-2.47907,51.2883],[-2.47887,51.28822],[-2.47879,51.28821],[-2.47893,51.28804],[-2.47912,51.28787],[-2.47917,51.28785],[-2.47922,51.28785],[-2.47925,51.28788],[-2.47968,51.28816],[-2.47961,51.28819],[-2.4797,51.28827],[-2.4796,51.2883],[-2.47995,51.28867],[-2.47945,51.28879],[-2.47914,51.28834]]]]}},
{ "type":"Feature","properties":{"osm_way_id":"440674171","name":"The Co-operative Food","building":"supermarket","shop":"supermarket","other":{"addr:postcode":"BA3 3SX","fhrs:id":"203995","operator":"Radstock Co-operative Society","website":"https:\/\/www.coop.co.uk\/store\/food\/BA3-3SX\/elm-tree-avenue"}}, "geometry":{"type":"MultiPolygon","coordinates":[[[[-2.46523,51.28686],[-2.46515,51.28679],[-2.46505,51.28683],[-2.46513,51.28691],[-2.46523,51.28686]]]]}},
{ "type":"Feature","properties":{"osm_way_id":"440674831","name":"Iceland","building":"supermarket","shop":"supermarket","other":{"addr:city":"Bristol","addr:housenumber":"14-18","addr:place":"Keynsham","addr:postcode":"BS31 1EG","addr:street":"Temple Street","brand":"Iceland","brand:wikidata":"Q721810","brand:wikipedia":"en:Iceland (supermarket)","contact:website":"https:\/\/www.iceland.co.uk\/store-finder\/store?StoreID=376&StoreName=KEYNSHAM","fhrs:id":"204234","source:addr":"FHRS Open Data"}}, "geometry":{"type":"MultiPolygon","coordinates":[[[[-2.49788,51.41389],[-2.49781,51.41373],[-2.49789,51.41371],[-2.49802,51.41372],[-2.49822,51.41372],[-2.4983,51.4139],[-2.49803,51.41394],[-2.49788,51.41389]]]]}},
{ "type":"Feature","properties":{"osm_way_id":"440721225","name":"The Co-operative Food","building":"yes","shop":"supermarket","other":{"addr:city":"Chew Magna","addr:housenumber":"15","addr:postcode":"BS40 8RA","addr:street":"Harford Square","fhrs:id":"204501","opening_hours":"Mo-Su 07:00-22:00","operator":"Radstock Co-operative Society","website":"https:\/\/www.coop.co.uk\/store\/food\/BS40-8RA\/15-harford-square"}}, "geometry":{"type":"MultiPolygon","coordinates":[[[[-2.61099,51.3659],[-2.61095,51.36585],[-2.61097,51.36583],[-2.61103,51.36582],[-2.61137,51.3658],[-2.61138,51.36584],[-2.61104,51.36585],[-2.61106,51.36588],[-2.61099,51.3659]]]]}},
{ "type":"Feature","properties":{"osm_way_id":"440723052","name":"Co-op Food","shop":"supermarket","other":{"addr:city":"Bath","addr:country":"GB","addr:postcode":"BA1 6SA","addr:street":"Saint Saviour's Road","addr:suburb":"Larkhall","brand":"Co-op Food","brand:wikidata":"Q3277439","brand:wikipedia":"en:Co-op Food","fhrs:id":"204182","opening_hours":"Mo-Sa 07:00-22:00; Su 10:00-16:00","operator":"The Co-operative Group","operator:wikidata":"Q117202","operator:wikipedia":"en:The Co-operative Group","website":"https:\/\/www.coop.co.uk\/store\/food\/BA1-6RT\/st-saviours-road"}}, "geometry":{"type":"MultiPolygon","coordinates":[[[[-2.344,51.39776],[-2.34477,51.39793],[-2.34492,51.39765],[-2.34457,51.39757],[-2.34401,51.39774],[-2.344,51.39776]]]]}},
{ "type":"Feature","properties":{"osm_way_id":"450902253","name":"Marks & Spencer Foodhall","building":"supermarket","shop":"supermarket","other":{"addr:postcode":"BA2 1EP","brand":"M&S Foodhall","brand:wikidata":"Q714491","fhrs:id":"909470","toilets:wheelchair":"yes","website":"https:\/\/www.marksandspencer.com\/","wheelchair":"yes"}}, "geometry":{"type":"MultiPolygon","coordinates":[[[[-2.38886,51.3811],[-2.38877,51.38088],[-2.3895,51.38075],[-2.3896,51.38098],[-2.38886,51.3811]]]]}},
{ "type":"Feature","properties":{"osm_way_id":"474676685","name":"The Co-operative Food","shop":"supermarket","other":{"addr:city":"Bristol","addr:postcode":"BS39 6TQ","fhrs:id":"688881","operator":"Radstock Co-operative Society"}}, "geometry":{"type":"MultiPolygon","coordinates":[[[[-2.53293,51.29987],[-2.53301,51.29955],[-2.53367,51.29952],[-2.53364,51.2997],[-2.53359,51.29995],[-2.53293,51.29987]]]]}},
{ "type":"Feature","properties":{"osm_way_id":"478445695","name":"The Co-Operative Fosseway","building":"retail","shop":"supermarket","other":{"addr:postcode":"BA3 4AX","fhrs:id":"462969","operator":"adstock Co-operative Society Ltd"}}, "geometry":{"type":"MultiPolygon","coordinates":[[[[-2.47349,51.2792],[-2.47337,51.27934],[-2.47309,51.27924],[-2.4732,51.27911],[-2.47349,51.2792]]]]}},
{ "type":"Feature","properties":{"osm_way_id":"478455426","name":"Central Convenience Stores","building":"retail","shop":"supermarket","other":{"addr:city":"Temple Cloud","addr:housename":"Temple Cloud Garage","addr:postcode":"BS39 5BZ","addr:street":"Main Road","fhrs:id":"1046933","website":"http:\/\/www.centralconveniencestores.co.uk\/"}}, "geometry":{"type":"MultiPolygon","coordinates":[[[[-2.54445,51.32062],[-2.54451,51.32073],[-2.5446,51.32071],[-2.54463,51.32075],[-2.54469,51.32074],[-2.5446,51.32059],[-2.54445,51.32062]]]]}},
{ "type":"Feature","properties":{"osm_way_id":"481334437","name":"Lidl","shop":"supermarket","other":{"addr:city":"Bath","addr:postcode":"BA2 1ES","addr:street":"Lower Bristol Road","brand":"Lidl","brand:wikidata":"Q151954","fhrs:id":"764769","opening_hours":"Mo-Sa 07:00-22:00; Su 10:00-16:00; PH 08:00-20:00","website":"https:\/\/www.lidl.co.uk\/en\/785.htm","wheelchair":"yes"}}, "geometry":{"type":"MultiPolygon","coordinates":[[[[-2.3873,51.38167],[-2.38702,51.381],[-2.38767,51.38079],[-2.38774,51.3808],[-2.38776,51.38082],[-2.38804,51.38117],[-2.38798,51.3812],[-2.38804,51.38128],[-2.38811,51.38131],[-2.38816,51.38134],[-2.38825,51.38139],[-2.38829,51.38143],[-2.38832,51.38151],[-2.3873,51.38167]]]]}},
{ "type":"Feature","properties":{"osm_way_id":"491788541","name":"Spar","building":"retail","shop":"supermarket","other":{"addr:housenumber":"6","addr:postcode":"BA1 3DU","addr:street":"Chelsea Road","brand":"Spar","brand:wikidata":"Q610492","fhrs:id":"205436","website":"https:\/\/www.spar.co.uk\/store-locator\/awl24238-spar-goss-chelsea-road","wheelchair":"yes"}}, "geometry":{"type":"MultiPolygon","coordinates":[[[[-2.38868,51.38504],[-2.38866,51.38494],[-2.38851,51.38495],[-2.38853,51.38505],[-2.38868,51.38504]]]]}},
{ "type":"Feature","properties":{"osm_way_id":"919152461","name":"Perfecto","building":"retail","shop":"supermarket","other":{"addr:housename":"West Point","addr:housenumber":"Unit 2","addr:postcode":"BA1 1UN","addr:street":"Avon Street","fhrs:id":"1366001","toilets:wheelchair":"no","website":"https:\/\/perfectomarket.com\/","wheelchair":"yes"}}, "geometry":{"type":"MultiPolygon","coordinates":[[[[-2.36349,51.38071],[-2.36324,51.38063],[-2.36309,51.38061],[-2.36308,51.38072],[-2.36326,51.38076],[-2.36341,51.38082],[-2.36349,51.38071]]]]}},
{ "type":"Feature","properties":{"osm_way_id":"939527406","building":"yes"},"geometry":{"type":"MultiPolygon","coordinates":[[[[-2.48068,51.31616],[-2.48064,51.31617],[-2.48068,51.31621],[-2.48071,51.31619],[-2.48068,51.31616]]]]}}
]
}
