{
"type": "FeatureCollection",
"features": [
{ "type":"Feature","properties":{"osm_id":"4712245355","name":"Spar","other":{"addr:city":"Worthing","addr:housenumber":"68-72","addr:postcode":"BN11 3RG","addr:street":"Heene Road","brand":"Spar","brand:wikidata":"Q610492","brand:wikipedia":"en:Spar (retailer)","fhrs:id":"574792","shop":"supermarket","source:addr":"FHRS Open Data"}}, "geometry":{"type":"Point","coordinates":[-0.38491,50.80959 ]}},
{ "type":"Feature","properties":{"osm_id":"4712370660","name":"Polish shop","other":{"shop":"supermarket"}}, "geometry":{"type":"Point","coordinates":[-0.37271,50.81111 ]}},
{ "type":"Feature","properties":{"osm_id":"5262929740","name":"Tesco Express","other":{"addr:city":"Worthing","addr:housenumber":"23-25","addr:postcode":"BN11 1EG","addr:street":"Chapel Road","brand":"Tesco Express","brand:wikidata":"Q98456772","brand:wikipedia":"en:Tesco","contact:website":"https:\/\/www.tesco.com\/store-locator\/worthing\/23-25-chapel-rd","fhrs:id":"575484","opening_hours":"Mo-Su 06:00-23:00","operator":"Tesco","shop":"supermarket"}}, "geometry":{"type":"Point","coordinates":[-0.37069,50.81249 ]}},
{ "type":"Feature","properties":{"osm_id":"6653324987","name":"Viva","other":{"addr:city":"Worthing","addr:housenumber":"33","addr:postcode":"BN11 3JJ","addr:street":"Rowlands Road","fhrs:id":"575193","shop":"supermarket","source:addr":"FHRS Open Data"}}, "geometry":{"type":"Point","coordinates":[-0.3799,50.80975 ]}},
{ "type":"Feature","properties":{"osm_id":"6653324989","name":"Co-op Food","other":{"addr:city":"Worthing","addr:housenumber":"1-3","addr:parentstreet":"Rowlands Road","addr:postcode":"BN11 3JG","addr:street":"Plaza Parade","brand":"Co-op Food","brand:wikidata":"Q3277439","brand:wikipedia":"en:Co-op Food","fhrs:id":"574938","shop":"supermarket","source:addr":"FHRS Open Data"}}, "geometry":{"type":"Point","coordinates":[-0.37896,50.81002 ]}},
{ "type":"Feature","properties":{"osm_id":"6658104089","name":"Grocers","other":{"addr:city":"Worthing","addr:housenumber":"14A","addr:postcode":"BN11 1BJ","addr:street":"Chapel Road","fhrs:id":"679738","shop":"supermarket"}}, "geometry":{"type":"Point","coordinates":[-0.37037,50.81252 ]}},
{ "type":"Feature","properties":{"osm_id":"6658105886","name":"Global food market","other":{"addr:street":"Chapel Road","shop":"supermarket"}}, "geometry":{"type":"Point","coordinates":[-0.37051,50.81198 ]}},
{ "type":"Feature","properties":{"osm_id":"6688277086","name":"M&V Polish Shop","other":{"addr:city":"Worthing","addr:housenumber":"53","addr:postcode":"BN11 3JN","addr:street":"Rowlands Road","fhrs:id":"1208593","shop":"supermarket","source:addr":"FHRS Open Data"}}, "geometry":{"type":"Point","coordinates":[-0.38115,50.80989 ]}},
{ "type":"Feature","properties":{"osm_way_id":"26937406","name":"Tesco","building":"yes","shop":"supermarket","other":{"addr:city":"Minehead","addr:country":"GB","addr:postcode":"TA24 5BY","addr:street":"Seaward Way","brand":"Tesco","brand:wikidata":"Q487494","brand:wikipedia":"en:Tesco","fhrs:authority":"West Somerset","fhrs:id":"160850","fhrs:local_authority_id":"PI\/000000694"}}, "geometry":{"type":"MultiPolygon","coordinates":[[[[-3.46459,51.20165],[-3.46449,51.20163],[-3.46448,51.20164],[-3.46404,51.20154],[-3.46403,51.20156],[-3.46394,51.20154],[-3.46392,51.20157],[-3.46384,51.20155],[-3.46377,51.20154],[-3.46375,51.20158],[-3.46346,51.20152],[-3.46367,51.20112],[-3.46375,51.20114],[-3.46378,51.20108],[-3.46387,51.20109],[-3.46392,51.201],[-3.46438,51.20109],[-3.46433,51.20119],[-3.46468,51.20126],[-3.46465,51.20132],[-3.46473,51.20134],[-3.46462,51.20155],[-3.46464,51.20156],[-3.46459,51.20165]]]]}},
{ "type":"Feature","properties":{"osm_way_id":"33171147","name":"Tesco Extra","building":"retail","shop":"supermarket","other":{"addr:city":"West Durrington","addr:full":"New Road, West Durrington, Worthing, West Sussex, BN13 3PB","addr:postcode":"BN13 3PB","addr:street":"New Road","alt_name":"Tesco West Durrington Extra","brand":"Tesco Extra","brand:wikidata":"Q25172225","brand:wikipedia":"en:Tesco Extra","building:levels":"1","opening_hours":"Mo-Sa 06:00-24:00; Su 11:00-17:00","phone":"+44 845 0269574","roof:levels":"0","roof:shape":"flat"}}, "geometry":{"type":"MultiPolygon","coordinates":[[[[-0.42535,50.83143],[-0.42597,50.83144],[-0.42596,50.83155],[-0.42648,50.83155],[-0.42681,50.83171],[-0.42681,50.83178],[-0.4269,50.83179],[-0.42689,50.83181],[-0.42703,50.83181],[-0.42735,50.832],[-0.42735,50.83202],[-0.42708,50.83202],[-0.42708,50.83207],[-0.42702,50.83207],[-0.42702,50.83204],[-0.42696,50.83204],[-0.42696,50.83202],[-0.42693,50.83202],[-0.42692,50.83226],[-0.42683,50.83226],[-0.42683,50.83221],[-0.42679,50.83221],[-0.42679,50.83226],[-0.42678,50.83253],[-0.4255,50.83252],[-0.4255,50.8325],[-0.42537,50.8325],[-0.42537,50.83254],[-0.42495,50.83253],[-0.42496,50.83218],[-0.42508,50.83217],[-0.42509,50.8319],[-0.42521,50.8319],[-0.42521,50.83168],[-0.42526,50.83169],[-0.42526,50.83152],[-0.42531,50.83152],[-0.42531,50.83147],[-0.42535,50.83147],[-0.42535,50.83143]]]]}},
{ "type":"Feature","properties":{"osm_way_id":"36723636","name":"Morrisons","building":"yes","shop":"supermarket","other":{"addr:city":"Worthing","addr:postcode":"BN11 1JU","addr:street":"Newland Street","brand":"Morrisons","brand:wikidata":"Q922344","brand:wikipedia":"en:Morrisons","fhrs:id":"574886","operator":"WM Morrison Supermarkets PLC","phone":"+44 1903 237820","website":"https:\/\/my.morrisons.com\/storefinder\/641"}}, "geometry":{"type":"MultiPolygon","coordinates":[[[[-0.37253,50.81862],[-0.37245,50.81822],[-0.37247,50.81822],[-0.37242,50.81799],[-0.3721,50.81802],[-0.37211,50.81804],[-0.37161,50.81808],[-0.37162,50.81806],[-0.3715,50.81806],[-0.37123,50.81811],[-0.37124,50.81817],[-0.37121,50.81817],[-0.37122,50.81818],[-0.37119,50.81818],[-0.37121,50.81829],[-0.3713,50.81828],[-0.37138,50.8187],[-0.37253,50.81862]]]]}},
{ "type":"Feature","properties":{"osm_way_id":"91013383","name":"Co-op Food","building":"commercial","shop":"supermarket","other":{"addr:city":"Worthing","addr:housenumber":"12","addr:postcode":"BN14 9DB","addr:street":"Cricketers Parade","addr:suburb":"Broadwater","brand":"Co-op Food","brand:wikidata":"Q3277439","brand:wikipedia":"en:Co-op Food","fhrs:id":"574641","source:addr":"FHRS Open Data"}}, "geometry":{"type":"MultiPolygon","coordinates":[[[[-0.37478,50.8291],[-0.37481,50.82925],[-0.37466,50.82927],[-0.37459,50.82899],[-0.37467,50.82898],[-0.37467,50.82898],[-0.37493,50.82896],[-0.375,50.82904],[-0.37496,50.82908],[-0.37478,50.8291]]]]}},
{ "type":"Feature","properties":{"osm_way_id":"171232712","name":"Sainsbury's","building":"yes","shop":"supermarket","other":{"addr:city":"Worthing","addr:housename":"Downlands Business Park","addr:parentstreet":"Lyons Way","addr:place":"Lyons Farm Retail Park","addr:postcode":"BN14 9LA","addr:suburb":"Offington","alt_name":"Sainsbury's Lyons Farm Superstore","brand":"Sainsbury's","brand:wikidata":"Q152096","brand:wikipedia":"en:Sainsbury's","fhrs:id":"574836","opening_hours":"Mo-Sa 07:00-22:00 Su 10:00-16:00","operator":"Sainsbury's Supermarkets Ltd","payment:cash":"yes","payment:credit_cards":"yes","phone":"+44 1903 236114","source:addr":"FHRS Open Data","website":"https:\/\/stores.sainsburys.co.uk\/0058\/lyons-farm"}}, "geometry":{"type":"MultiPolygon","coordinates":[[[[-0.36782,50.83614],[-0.36764,50.83614],[-0.36764,50.83602],[-0.36666,50.83602],[-0.36666,50.83625],[-0.36683,50.83625],[-0.36683,50.83651],[-0.3667,50.83651],[-0.3667,50.83666],[-0.36662,50.83666],[-0.36662,50.83681],[-0.36683,50.83681],[-0.36683,50.83685],[-0.36783,50.83685],[-0.36782,50.83614]]]]}},
{ "type":"Feature","properties":{"osm_way_id":"171233302","name":"Waitrose","building":"yes","shop":"supermarket","other":{"addr:city":"Worthing","addr:postcode":"BN11 1LL","brand":"Waitrose","brand:wikidata":"Q771734","brand:wikipedia":"en:Waitrose & Partners","fhrs:id":"574800","official_name":"Waitrose & Partners","operator":"Waitrose & Partners","source:addr":"FHRS Open Data"}}, "geometry":{"type":"MultiPolygon","coordinates":[[[[-0.36814,50.81461],[-0.36805,50.81438],[-0.36809,50.81437],[-0.36803,50.81423],[-0.3678,50.81427],[-0.36781,50.8143],[-0.36722,50.81441],[-0.36723,50.81442],[-0.3671,50.81444],[-0.36718,50.81464],[-0.36698,50.81467],[-0.36706,50.81487],[-0.36764,50.81477],[-0.36768,50.81479],[-0.36804,50.81473],[-0.36812,50.81464],[-0.36812,50.81462],[-0.36814,50.81461]]]]}},
{ "type":"Feature","properties":{"osm_way_id":"171233655","name":"Lidl","building":"yes","shop":"supermarket","other":{"addr:city":"Worthing","addr:housenumber":"34","addr:postcode":"BN11 1DU","addr:street":"North Street","brand":"Lidl","brand:wikidata":"Q151954","brand:wikipedia":"en:Lidl","fhrs:id":"574889","source:addr":"FHRS Open Data"}}, "geometry":{"type":"MultiPolygon","coordinates":[[[[-0.36976,50.81499],[-0.36967,50.81452],[-0.36923,50.81455],[-0.36924,50.8146],[-0.36947,50.81459],[-0.36947,50.81462],[-0.36937,50.81463],[-0.36942,50.8149],[-0.36939,50.8149],[-0.36941,50.81501],[-0.36944,50.81501],[-0.36945,50.81502],[-0.36976,50.81499]]]]}},
{ "type":"Feature","properties":{"osm_way_id":"986953862","name":"Wing Wah Chinese Food Market","building":"yes","shop":"supermarket","other":{"addr:street":"Clifton Road"}}, "geometry":{"type":"MultiPolygon","coordinates":[[[[-0.3786,50.81724],[-0.3786,50.81733],[-0.37872,50.81733],[-0.37872,50.81732],[-0.37882,50.81732],[-0.37881,50.81725],[-0.37872,50.81725],[-0.37872,50.81724],[-0.3786,50.81724]]]]}},
{ "type":"Feature","properties":{"osm_way_id":"987108709","name":"Black Sea - Черно море","building":"yes","shop":"supermarket","other":{"addr:street":"Oxford Road"}}, "geometry":{"type":"MultiPolygon","coordinates":[[[[-0.37606,50.81772],[-0.37624,50.81777],[-0.37632,50.81779],[-0.37635,50.81773],[-0.37609,50.81766],[-0.37606,50.81772]]]]}},
{ "type":"Feature","properties":{"osm_way_id":"987108720","name":"Worthing Food Centre","building":"yes","shop":"supermarket","other":{"addr:housenumber":"30","addr:street":"Teville Road"}}, "geometry":{"type":"MultiPolygon","coordinates":[[[[-0.37543,50.81727],[-0.37532,50.81725],[-0.37529,50.8173],[-0.3754,50.81732],[-0.37543,50.81727]]]]}},
{ "type":"Feature","properties":{"osm_way_id":"991904005","name":"MAA Cash And Carry","building":"yes","shop":"supermarket"},"geometry":{"type":"MultiPolygon","coordinates":[[[[-0.38699,50.81822],[-0.38706,50.81823],[-0.38712,50.81811],[-0.38713,50.8181],[-0.38708,50.81809],[-0.38705,50.81815],[-0.38703,50.81814],[-0.38699,50.81822]]]]}},
{ "type":"Feature","properties":{"osm_way_id":"997508182","name":"TEBA International Foods","building":"yes","shop":"supermarket","other":{"addr:street":"South Street"}}, "geometry":{"type":"MultiPolygon","coordinates":[[[[-0.39178,50.81859],[-0.39179,50.81864],[-0.3918,50.81866],[-0.39164,50.81867],[-0.39163,50.81865],[-0.39167,50.81865],[-0.39167,50.81862],[-0.39162,50.81862],[-0.39162,50.8186],[-0.39178,50.81859]]]]}},
{ "type":"Feature","properties":{"osm_way_id":"1001579002","name":"Salvington Food Centre","building":"yes","shop":"supermarket"},"geometry":{"type":"MultiPolygon","coordinates":[[[[-0.40569,50.83532],[-0.40562,50.83531],[-0.40564,50.83522],[-0.40571,50.83522],[-0.40569,50.83532]]]]}},
{ "type":"Feature","properties":{"osm_way_id":"1002130736","name":"Co-op Food","building":"yes","shop":"supermarket","other":{"addr:city":"Durrington-on-Sea, Worthing","addr:street":"Nelson Road","brand":"Co-op Food","brand:wikidata":"Q3277439","brand:wikipedia":"en:Co-op Food","opening_hours":"06:00-23:00","operator":"The Co-operative Group","operator:wikidata":"Q117202","operator:wikipedia":"en:The Co-operative Group","pay_point":"yes"}}, "geometry":{"type":"MultiPolygon","coordinates":[[[[-0.41126,50.82101],[-0.41151,50.82101],[-0.41152,50.82122],[-0.41127,50.82123],[-0.41126,50.82101]]]]}},
{ "type":"Feature","properties":{"osm_way_id":"1002130740","name":"Budgens","building":"yes","shop":"supermarket","other":{"addr:city":"Worthing","addr:housenumber":"4-5","addr:locality":"Goring-by-Sea","addr:postcode":"BN12 6BR","addr:street":"Boxgrove Parade, The Strand","brand":"Budgens","brand:wikidata":"Q4985016","brand:wikipedia":"en:Budgens","description":"This Budgens store is the 'Boxgrove Store'.","opening_hours":"07:00-22:00","pay_point":"yes"}}, "geometry":{"type":"MultiPolygon","coordinates":[[[[-0.43106,50.82041],[-0.43098,50.82042],[-0.431,50.8205],[-0.4309,50.8205],[-0.4309,50.82048],[-0.43088,50.82048],[-0.43086,50.82031],[-0.43097,50.8203],[-0.43097,50.82031],[-0.43105,50.82031],[-0.43106,50.82041]]]]}},
{ "type":"Feature","properties":{"osm_way_id":"1005560944","name":"IFS Food Worthing","building":"yes","shop":"supermarket"},"geometry":{"type":"MultiPolygon","coordinates":[[[[-0.35156,50.81695],[-0.35165,50.81694],[-0.35163,50.81685],[-0.35154,50.81686],[-0.35156,50.81695]]]]}}
]
}
