{
"type": "FeatureCollection",
"features": [
{ "type":"Feature","properties":{"osm_id":"456058249","name":"Co-Op","other":{"shop":"supermarket"}}, "geometry":{"type":"Point","coordinates":[-1.30558,54.53367 ]}},
{ "type":"Feature","properties":{"osm_id":"751174923","name":"Co-op Food","other":{"brand":"Co-op Food","brand:wikidata":"Q3277439","brand:wikipedia":"en:Co-op Food","operator":"Co-op","shop":"supermarket"}}, "geometry":{"type":"Point","coordinates":[-1.34166,54.58822 ]}},
{ "type":"Feature","properties":{"osm_id":"751211442","name":"Co-op Food","other":{"addr:city":"Stockton-On-Tees","addr:housename":"Cooperative Store","addr:housenumber":"10","addr:postcode":"TS18 5EQ","addr:street":"Harper Parade","brand":"Co-op Food","brand:wikidata":"Q3277439","brand:wikipedia":"en:Co-op Food","designation":"shopping = supermarket","fhrs:id":"251162","operator":"The Co-operative Group","operator:wikidata":"Q117202","operator:wikipedia":"en:The Co-operative Group","shop":"supermarket","source:addr":"FHRS Open Data","website":"https:\/\/www.co-operative.coop\/"}}, "geometry":{"type":"Point","coordinates":[-1.34108,54.55521 ]}},
{ "type":"Feature","properties":{"osm_id":"752352258","name":"Heron Foods","other":{"addr:city":"Stockton","addr:country":"GB","addr:housenumber":"8A","addr:postcode":"TS18 1AL","addr:street":"Castle Way","brand":"Heron Foods","brand:wikidata":"Q5743472","brand:wikipedia":"en:Heron Foods","contact:website":"https:\/\/heronfoods.com\/storelocator\/store-details\/stockton","fhrs:id":"251252","layer":"1","operator":"Heron","shop":"supermarket"}}, "geometry":{"type":"Point","coordinates":[-1.31179,54.56219 ]}},
{ "type":"Feature","properties":{"osm_id":"1479991660","name":"M&S Foodhall","other":{"addr:housename":"Marks & Spencer","addr:housenumber":"5-7","addr:postcode":"TS17 7BW","addr:street":"Goodwood Square","brand":"M&S Foodhall","brand:wikidata":"Q714491","brand:wikipedia":"en:Marks & Spencer","shop":"supermarket","website":"https:\/\/www.marksandspencer.com\/stores\/teesside-6156"}}, "geometry":{"type":"Point","coordinates":[-1.27574,54.55492 ]}},
{ "type":"Feature","properties":{"osm_id":"1811207148","name":"The Food Warehouse","other":{"addr:city":"Stockton-on-Tees","addr:postcode":"TS18 2PA","addr:street":"Holme House Road","addr:unit":"C","brand":"The Food Warehouse","brand:wikidata":"Q87263899","fhrs:id":"251029","opening_hours":"Mo-Sa 08:00-20:00; Su 10:00-16:00","shop":"supermarket","source:addr":"FHRS Open Data"}}, "geometry":{"type":"Point","coordinates":[-1.28764,54.57396 ]}},
{ "type":"Feature","properties":{"osm_id":"2430578418","name":"Aldi","other":{"addr:city":"Yarm","addr:housenumber":"9","addr:postcode":"TS15 9XN","addr:street":"Healaugh Park","brand":"ALDI","brand:wikidata":"Q41171672","brand:wikipedia":"en:Aldi","shop":"supermarket"}}, "geometry":{"type":"Point","coordinates":[-1.34405,54.49783 ]}},
{ "type":"Feature","properties":{"osm_id":"3360202730","name":"Premier","other":{"addr:parentstreet":"Laburnum Avenue","addr:postcode":"TS17 8ND","addr:street":"South View","addr:town":"Thornaby","fhrs:id":"251516","opening_hours":"Mo-Su 06:00-22:00","shop":"supermarket","source:addr":"FHRS Open Data"}}, "geometry":{"type":"Point","coordinates":[-1.303,54.54321 ]}},
{ "type":"Feature","properties":{"osm_id":"6327096046","name":"Heron Foods","other":{"addr:city":"Billingham","addr:country":"GB","addr:housenumber":"60","addr:postcode":"TS23 2NP","addr:street":"Queensway","brand":"Heron Foods","brand:wikidata":"Q5743472","brand:wikipedia":"en:Heron Foods","contact:website":"https:\/\/heronfoods.com\/storelocator\/store-details\/billingham","fhrs:id":"251049","shop":"supermarket"}}, "geometry":{"type":"Point","coordinates":[-1.29295,54.60708 ]}},
{ "type":"Feature","properties":{"osm_id":"7986157819","name":"Monkey Tree","other":{"operator":"McColls","shop":"supermarket"}}, "geometry":{"type":"Point","coordinates":[-1.33698,54.58076 ]}},
{ "type":"Feature","properties":{"osm_id":"9210157277","name":"Co-op Food","other":{"brand":"Co-op Food","brand:wikidata":"Q3277439","brand:wikipedia":"en:Co-op Food","operator":"The Co-operative Group","operator:wikidata":"Q117202","operator:wikipedia":"en:The Co-operative Group","shop":"supermarket"}}, "geometry":{"type":"Point","coordinates":[-1.32187,54.52223 ]}},
{ "type":"Feature","properties":{"osm_way_id":"43472268","name":"Tesco Extra","building":"yes","shop":"supermarket","other":{"brand":"Tesco Extra","brand:wikidata":"Q25172225","brand:wikipedia":"en:Tesco Extra","building:levels":"2","building:roof":"flat","building:use":"shop","fhrs:id":"250782","is_in":"Stockton-on-Tees","opening_hours":"Mo 06:00-24:00; Tu-Sa 00:00-24:00; Su 10:00-16:00","operator":"Tesco","postal_code":"TS21 3LU"}}, "geometry":{"type":"MultiPolygon","coordinates":[[[[-1.35463,54.59294],[-1.35286,54.59389],[-1.35192,54.5933],[-1.35357,54.59242],[-1.35349,54.59237],[-1.35361,54.59231],[-1.35463,54.59294]]]]}},
{ "type":"Feature","properties":{"osm_way_id":"48836649","name":"Sainsbury's","building":"yes","shop":"supermarket","other":{"brand":"Sainsbury's","brand:wikidata":"Q152096","brand:wikipedia":"en:Sainsbury's","opening_hours":"Mo-Fr 08:00-21:00; Sa 08:00-20:00; Su 10:00-16:00","operator":"Sainsburys"}}, "geometry":{"type":"MultiPolygon","coordinates":[[[[-1.33974,54.57238],[-1.33983,54.57238],[-1.33985,54.57252],[-1.3389,54.57256],[-1.33889,54.57252],[-1.33888,54.57243],[-1.33886,54.57229],[-1.33885,54.57222],[-1.33876,54.57223],[-1.33873,54.57205],[-1.33872,54.57196],[-1.33889,54.57195],[-1.33967,54.57191],[-1.33974,54.57238]]]]}},
{ "type":"Feature","properties":{"osm_way_id":"59536489","name":"Tesco","building":"yes","shop":"supermarket","other":{"addr:postcode":"TS17 0WA","addr:street":"Myton Road","addr:town":"Ingleby Barwick","brand":"Tesco","brand:wikidata":"Q487494","brand:wikipedia":"en:Tesco","fhrs:id":"250858","operator":"Tesco","source:addr":"FHRS Open Data"}}, "geometry":{"type":"MultiPolygon","coordinates":[[[[-1.31644,54.51709],[-1.31689,54.51704],[-1.31698,54.51724],[-1.31719,54.51793],[-1.31699,54.51795],[-1.31622,54.51803],[-1.31596,54.5173],[-1.31648,54.51724],[-1.31644,54.51709]]]]}},
{ "type":"Feature","properties":{"osm_way_id":"97704176","name":"Tesco","building":"retail","shop":"supermarket","other":{"addr:city":"Billingham","addr:postcode":"TS23 3TA","addr:street":"Leeholme Road","brand":"Tesco","brand:wikidata":"Q487494","brand:wikipedia":"en:Tesco","building:levels":"1","fhrs:id":"251090","opening_hours":"Tu-Fr 06:00-24:00; Sa 06:00-22:00; Su 10:00-16:00","operator":"Tesco","roof:shape":"flat","source:addr":"FHRS Open Data"}}, "geometry":{"type":"MultiPolygon","coordinates":[[[[-1.27949,54.60706],[-1.27867,54.60747],[-1.27888,54.60761],[-1.27879,54.60765],[-1.27878,54.60773],[-1.27909,54.60793],[-1.27924,54.60786],[-1.27937,54.60794],[-1.2801,54.60757],[-1.28015,54.6076],[-1.28035,54.6075],[-1.28023,54.60743],[-1.28017,54.60746],[-1.27962,54.60709],[-1.27957,54.60711],[-1.27949,54.60706]]]]}},
{ "type":"Feature","properties":{"osm_way_id":"99353488","name":"Asda","building":"yes","shop":"supermarket","other":{"addr:city":"Stockton-On-Tees","addr:country":"GB","addr:housenumber":"5","addr:postcode":"TS18 2DS","addr:street":"Bath Lane","alt_name":"ASDA Stockton Bath Lane Supermarket","brand":"Asda","brand:wikidata":"Q297410","brand:wikipedia":"en:Asda","contact:facebook":"https:\/\/www.facebook.com\/asda\/","contact:twitter":"@asda","contact:website":"https:\/\/storelocator.asda.com\/north-east\/stockton-on-tees\/5-bath-lane","fhrs:id":"250617","operator":"Asda Stores Ltd"}}, "geometry":{"type":"MultiPolygon","coordinates":[[[[-1.3081,54.56801],[-1.30809,54.56799],[-1.30806,54.56786],[-1.30817,54.56786],[-1.3081,54.56765],[-1.30765,54.5677],[-1.30773,54.56797],[-1.30764,54.56798],[-1.30766,54.56805],[-1.30775,54.56804],[-1.3081,54.56801]]]]}},
{ "type":"Feature","properties":{"osm_way_id":"99638654","name":"Aldi","building":"retail","shop":"supermarket","other":{"brand":"ALDI","brand:wikidata":"Q41171672","brand:wikipedia":"en:Aldi","operator":"Aldi"}}, "geometry":{"type":"MultiPolygon","coordinates":[[[[-1.32413,54.58565],[-1.32448,54.58583],[-1.324,54.58614],[-1.32359,54.58593],[-1.32374,54.58583],[-1.3238,54.58586],[-1.32413,54.58565]]]]}},
{ "type":"Feature","properties":{"osm_way_id":"131884781","name":"Asda","building":"yes","shop":"supermarket","other":{"addr:city":"Billingham","addr:country":"GB","addr:postcode":"TS23 2LF","addr:street":"The Causeway","brand":"Asda","brand:wikidata":"Q297410","brand:wikipedia":"en:Asda","building:levels":"3","building:use":"shop","contact:facebook":"https:\/\/www.facebook.com\/asda\/","contact:twitter":"@asda","contact:website":"https:\/\/storelocator.asda.com\/north-east\/billingham\/the-causeway","fhrs:id":"251599","opening_hours":"Mo-Sa 07:00-23:00; Su 10:00-16:00","operator":"Asda Stores Ltd","roof:shape":"flat","wheelchair":"yes"}}, "geometry":{"type":"MultiPolygon","coordinates":[[[[-1.29215,54.60793],[-1.29206,54.60819],[-1.29108,54.60807],[-1.2911,54.60801],[-1.29116,54.60785],[-1.29117,54.60782],[-1.29127,54.60783],[-1.29215,54.60793]]]]}},
{ "type":"Feature","properties":{"osm_way_id":"147698919","name":"Asda","building":"retail","shop":"supermarket","other":{"addr:city":"Stockton-On-Tees","addr:country":"GB","addr:postcode":"TS18 2PB","addr:street":"Portrack Lane","alt_name":"ASDA Stockton Supercentre","brand":"Asda","brand:wikidata":"Q297410","brand:wikipedia":"en:Asda","building:levels":"2","building:use":"shop","contact:facebook":"https:\/\/www.facebook.com\/asda\/","contact:twitter":"@asda","contact:website":"https:\/\/storelocator.asda.com\/north-east\/stockton-on-tees\/portrack-lane","fhrs:id":"250548","opening_hours":"Mo 08:00-24:00; Tu-Fr 00:00-24:00; Sa 00:00-22:00; Su 10:00-16:00","operator":"Asda Stores Ltd","roof:shape":"flat","source:addr":"FHRS Open Data"}}, "geometry":{"type":"MultiPolygon","coordinates":[[[[-1.28482,54.57123],[-1.28446,54.57088],[-1.2844,54.5709],[-1.28432,54.57082],[-1.28437,54.5708],[-1.28417,54.57061],[-1.28454,54.57048],[-1.28466,54.57061],[-1.28474,54.57058],[-1.28482,54.57066],[-1.28495,54.57061],[-1.28465,54.57032],[-1.28481,54.57026],[-1.28503,54.57048],[-1.28543,54.57034],[-1.28551,54.57042],[-1.28555,54.5704],[-1.28564,54.57049],[-1.2856,54.57051],[-1.28595,54.57084],[-1.28482,54.57123]]]]}},
{ "type":"Feature","properties":{"osm_way_id":"152202811","name":"Morrisons","building":"retail","shop":"supermarket","other":{"addr:city":"Thornaby","addr:postcode":"TS17 7BP","addr:street":"Newmarket Avenue","alt_name":"Morrisons Stockton","brand":"Morrisons","brand:wikidata":"Q922344","brand:wikipedia":"en:Morrisons","building:levels":"1","building:use":"shop","designation":"shopping=supermarket","opening_hours":"Mo-Sa 08:00-21:00;Su 11:00-17:00","roof:shape":"flat","website":"https:\/\/www.morrisons.co.uk\/"}}, "geometry":{"type":"MultiPolygon","coordinates":[[[[-1.27505,54.55753],[-1.27524,54.55765],[-1.27569,54.55744],[-1.27632,54.55788],[-1.27644,54.55782],[-1.27661,54.55795],[-1.2766,54.55801],[-1.27666,54.55801],[-1.27665,54.55809],[-1.27659,54.55809],[-1.27659,54.55815],[-1.27632,54.55828],[-1.27625,54.55824],[-1.27602,54.55834],[-1.27592,54.55825],[-1.27564,54.55837],[-1.27474,54.55771],[-1.27475,54.55766],[-1.27505,54.55753]]]]}},
{ "type":"Feature","properties":{"osm_way_id":"158954009","name":"Sainsbury's","building":"yes","shop":"supermarket","other":{"addr:city":"Yarm","addr:housenumber":"88-92","addr:postcode":"TS15 9AP","addr:street":"High Street","brand":"Sainsbury's","brand:wikidata":"Q152096","brand:wikipedia":"en:Sainsbury's","fhrs:id":"251182","source:addr":"FHRS Open Data"}}, "geometry":{"type":"MultiPolygon","coordinates":[[[[-1.35492,54.51037],[-1.35474,54.5101],[-1.35405,54.51025],[-1.35423,54.51052],[-1.35492,54.51037]]]]}},
{ "type":"Feature","properties":{"osm_way_id":"184043888","name":"Aldi","building":"yes","shop":"supermarket","other":{"brand":"ALDI","brand:wikidata":"Q41171672","brand:wikipedia":"en:Aldi","designation":"supermarket","operator":"Aldi"}}, "geometry":{"type":"MultiPolygon","coordinates":[[[[-1.32092,54.56118],[-1.32097,54.56168],[-1.3205,54.5617],[-1.32049,54.56161],[-1.32058,54.56161],[-1.32053,54.5612],[-1.32092,54.56118]]]]}},
{ "type":"Feature","properties":{"osm_way_id":"301016337","name":"Asda","building":"retail","shop":"supermarket","other":{"addr:city":"Thornaby","addr:country":"GB","addr:postcode":"TS17 9EN","addr:street":"Allensway","alt_name":"Asda Thornaby","brand":"Asda","brand:wikidata":"Q297410","brand:wikipedia":"en:Asda","contact:facebook":"https:\/\/www.facebook.com\/asda\/","contact:twitter":"@asda","fhrs:id":"251019","operator":"Asda Stores Ltd","website":"https:\/\/storelocator.asda.com\/north-east\/stockton-on-tees\/allensway-thornaby"}}, "geometry":{"type":"MultiPolygon","coordinates":[[[[-1.29142,54.53813],[-1.29137,54.53803],[-1.29111,54.5375],[-1.29043,54.53762],[-1.29041,54.53759],[-1.28997,54.53766],[-1.28988,54.53749],[-1.28942,54.53756],[-1.28952,54.53776],[-1.28948,54.53777],[-1.28949,54.5378],[-1.2895,54.53782],[-1.28933,54.53785],[-1.28956,54.53833],[-1.28961,54.53843],[-1.29035,54.53831],[-1.29033,54.53828],[-1.29068,54.53822],[-1.2907,54.53825],[-1.29142,54.53813]]]]}},
{ "type":"Feature","properties":{"osm_way_id":"301016338","name":"LIDL","building":"retail","shop":"supermarket","other":{"addr:housename":"Grace House","addr:place":"Pavilion Shopping Centre","addr:postcode":"TS17 9FF","addr:town":"Thornaby","brand":"Lidl","brand:wikidata":"Q151954","building:levels":"1","fhrs:id":"250963","roof:shape":"flat","source:addr":"FHRS Open Data"}}, "geometry":{"type":"MultiPolygon","coordinates":[[[[-1.29194,54.53984],[-1.29225,54.53978],[-1.29239,54.53976],[-1.29254,54.54006],[-1.29261,54.54005],[-1.29264,54.54011],[-1.29257,54.54012],[-1.29267,54.54033],[-1.29221,54.5404],[-1.29194,54.53984]]]]}},
{ "type":"Feature","properties":{"osm_way_id":"537391847","name":"Queensgate Lidl","building":"retail","shop":"supermarket","other":{"addr:city":"Stockton-On-Tees","addr:postcode":"TS18 3RU","addr:street":"Yarm Road","brand":"Lidl","brand:wikidata":"Q151954","brand:wikipedia":"en:Lidl","fhrs:id":"1110823","layer":"1","source:addr":"FHRS Open Data"}}, "geometry":{"type":"MultiPolygon","coordinates":[[[[-1.33287,54.54939],[-1.33185,54.54911],[-1.33204,54.54883],[-1.33294,54.54906],[-1.33299,54.54901],[-1.3332,54.54907],[-1.33306,54.54925],[-1.33298,54.54923],[-1.33287,54.54939]]]]}},
{ "type":"Feature","properties":{"osm_way_id":"552144003","name":"Spar","building":"yes","shop":"supermarket","other":{"addr:city":"Stockton-On-Tees","addr:postcode":"TS19 8JZ","addr:street":"High Newham Road","brand":"Spar","brand:wikidata":"Q610492","brand:wikipedia":"en:Spar (retailer)","fhrs:id":"250536","source:addr":"FHRS Open Data"}}, "geometry":{"type":"MultiPolygon","coordinates":[[[[-1.35112,54.58333],[-1.35087,54.58333],[-1.35075,54.58323],[-1.35098,54.58318],[-1.35112,54.58318],[-1.35112,54.58333]]]]}},
{ "type":"Feature","properties":{"osm_way_id":"690921019","name":"Aldi","shop":"supermarket","other":{"addr:street":"The Causeway","brand":"ALDI","brand:wikidata":"Q41171672","brand:wikipedia":"en:Aldi","opening_hours":"Mo-Sa 08:00-22:00; Su 10:00-16:00","payment:cash":"yes","wheelchair":"yes"}}, "geometry":{"type":"MultiPolygon","coordinates":[[[[-1.28954,54.6079],[-1.28971,54.60741],[-1.28932,54.60737],[-1.28921,54.60766],[-1.2891,54.60764],[-1.28907,54.60771],[-1.28918,54.60773],[-1.28914,54.60785],[-1.28954,54.6079]]]]}},
{ "type":"Feature","properties":{"osm_way_id":"729004263","name":"Lidl","building":"retail","shop":"supermarket","other":{"addr:city":"Norton","addr:country":"GB","addr:postcode":"TS19 9NA","addr:street":"Junction Road","brand":"Lidl","brand:wikidata":"Q151954","brand:wikipedia":"en:Lidl","fhrs:id":"1048564","roof:shape":"flat"}}, "geometry":{"type":"MultiPolygon","coordinates":[[[[-1.34367,54.59348],[-1.34354,54.59321],[-1.34249,54.59338],[-1.34257,54.59355],[-1.34249,54.59356],[-1.34253,54.59366],[-1.34367,54.59348]]]]}},
{ "type":"Feature","properties":{"osm_way_id":"748871095","name":"Tesco","building":"yes","shop":"supermarket","other":{"addr:city":"Stockton-on-Tees","addr:postcode":"TS16 0PE","addr:street":"Urlay Nook Road","addr:suburb":"Eaglescliffe","brand":"Tesco","brand:wikidata":"Q487494","brand:wikipedia":"en:Tesco","fhrs:id":"250531","opening_hours":"Mo-Sa 08:00-22:00; Su 10:00-16:00","operator":"Tesco"}}, "geometry":{"type":"MultiPolygon","coordinates":[[[[-1.35885,54.51765],[-1.35842,54.51777],[-1.35839,54.51773],[-1.35806,54.51783],[-1.35809,54.51786],[-1.35799,54.51789],[-1.35841,54.51838],[-1.35873,54.51829],[-1.35863,54.51818],[-1.35859,54.51819],[-1.35851,54.5181],[-1.35909,54.51794],[-1.35885,54.51765]]]]}},
{ "type":"Feature","properties":{"osm_way_id":"921513181","name":"Lidl","building":"retail","shop":"supermarket","other":{"addr:city":"Stockton-On-Tees","addr:country":"GB","addr:postcode":"TS18 3AA","addr:street":"Tower Street","brand":"Lidl","brand:wikidata":"Q151954","brand:wikipedia":"en:Lidl","fhrs:id":"1377180","start_date":"2021-02-18"}}, "geometry":{"type":"MultiPolygon","coordinates":[[[[-1.31245,54.56066],[-1.31236,54.56007],[-1.3123,54.56007],[-1.3123,54.56007],[-1.3123,54.5601],[-1.31179,54.56012],[-1.31181,54.56028],[-1.31185,54.56057],[-1.31193,54.56056],[-1.31194,54.56064],[-1.31225,54.56063],[-1.31226,54.56067],[-1.31245,54.56066]]]]}}
]
}
