{
"type": "FeatureCollection",
"features": [
{ "type":"Feature","properties":{"osm_id":"441217626","name":"Co-op Food","other":{"brand":"Co-op Food","brand:wikidata":"Q3277439","brand:wikipedia":"en:Co-op Food","shop":"supermarket"}}, "geometry":{"type":"Point","coordinates":[-2.10484,52.60506 ]}},
{ "type":"Feature","properties":{"osm_id":"1636652021","name":"The Co-operative Food","other":{"addr:housenumber":"657","addr:street":"Stafford Road","operator":"The Midcounties Co-operative Society","shop":"supermarket"}}, "geometry":{"type":"Point","coordinates":[-2.12732,52.62758 ]}},
{ "type":"Feature","properties":{"osm_id":"2359306643","name":"Spar","other":{"brand":"Spar","brand:wikidata":"Q610492","brand:wikipedia":"en:SPAR (retailer)","shop":"supermarket"}}, "geometry":{"type":"Point","coordinates":[-2.17662,52.58682 ]}},
{ "type":"Feature","properties":{"osm_id":"2988258855","other":{"tourism":"artwork"}}, "geometry":{"type":"Point","coordinates":[-2.08635,52.59794 ]}},
{ "type":"Feature","properties":{"osm_id":"2988258856","other":{"tourism":"artwork"}}, "geometry":{"type":"Point","coordinates":[-2.08593,52.59798 ]}},
{ "type":"Feature","properties":{"osm_id":"3631842229","name":"The Co-operative Food","other":{"addr:postcode":"WV11 3NL","operator":"The Midcounties Co-operative","shop":"supermarket"}}, "geometry":{"type":"Point","coordinates":[-2.05981,52.60432 ]}},
{ "type":"Feature","properties":{"osm_id":"4086502810","name":"Kabanos","other":{"addr:city":"Wolverhampton","addr:street":"Cleveland Street","level":"0","shop":"supermarket"}}, "geometry":{"type":"Point","coordinates":[-2.12652,52.58312 ]}},
{ "type":"Feature","properties":{"osm_id":"4344433681","other":{"amenity":"post_box"}}, "geometry":{"type":"Point","coordinates":[-2.16157,52.61069 ]}},
{ "type":"Feature","properties":{"osm_id":"4634763177","name":"Upper Villiers Mini Market","other":{"addr:city":"Wolverhampton","addr:country":"GB","addr:housenumber":"90","addr:postcode":"WV2 4NX","addr:street":"Upper Villiers Street","fhrs:id":"1068718","shop":"supermarket"}}, "geometry":{"type":"Point","coordinates":[-2.13365,52.56943 ]}},
{ "type":"Feature","properties":{"osm_id":"5810356579","name":"All In One Supersave","other":{"addr:city":"Wolverhampton","addr:housename":"All In One Supersave","addr:housenumber":"327-329","addr:postcode":"WV10 9UJ","addr:street":"Bushbury Lane","shop":"supermarket"}}, "geometry":{"type":"Point","coordinates":[-2.11786,52.61595 ]}},
{ "type":"Feature","properties":{"osm_id":"5810361892","name":"Select & Save S T B Supermarket","other":{"addr:city":"Wolverhampton","addr:housename":"Select & Save S T B Supermarket","addr:housenumber":"337","addr:postcode":"WV10 9UL","addr:street":"Bushbury Lane","phone":"+44 1902 788301","shop":"supermarket"}}, "geometry":{"type":"Point","coordinates":[-2.11751,52.61639 ]}},
{ "type":"Feature","properties":{"osm_id":"8188911788","name":"Glorious Food","other":{"shop":"supermarket"}}, "geometry":{"type":"Point","coordinates":[-2.12594,52.5813 ]}},
{ "type":"Feature","properties":{"osm_way_id":"24862496","name":"Lidl","building":"yes","shop":"supermarket","other":{"addr:city":"Sutton","addr:country":"GB","addr:housenumber":"262-270","addr:postcode":"SM1 1PG","addr:street":"High Street","brand":"Lidl","brand:wikidata":"Q151954","brand:wikipedia":"en:Lidl","fhrs:id":"1389518"}}, "geometry":{"type":"MultiPolygon","coordinates":[[[[-0.19501,51.36816],[-0.19487,51.36782],[-0.19446,51.36789],[-0.19432,51.36791],[-0.19427,51.36779],[-0.19402,51.36783],[-0.19421,51.36829],[-0.19429,51.36828],[-0.19501,51.36816]]]]}},
{ "type":"Feature","properties":{"osm_way_id":"56631798","name":"Tesco","building":"yes","shop":"supermarket","other":{"brand":"Tesco","brand:wikidata":"Q487494","brand:wikipedia":"en:Tesco"}}, "geometry":{"type":"MultiPolygon","coordinates":[[[[-2.13465,52.57602],[-2.13375,52.57645],[-2.1335,52.57626],[-2.13367,52.57618],[-2.13343,52.57601],[-2.13327,52.57609],[-2.13302,52.57591],[-2.1333,52.57577],[-2.13351,52.57567],[-2.13364,52.5756],[-2.13355,52.57553],[-2.13388,52.57536],[-2.13393,52.5754],[-2.13399,52.57537],[-2.13415,52.57549],[-2.13407,52.57553],[-2.1342,52.57563],[-2.13412,52.57566],[-2.13451,52.57595],[-2.13453,52.57594],[-2.13465,52.57602]]]]}},
{ "type":"Feature","properties":{"osm_way_id":"149004364","name":"Asda","building":"yes","shop":"supermarket","other":{"brand":"Asda","brand:wikidata":"Q297410","brand:wikipedia":"en:Asda","contact:facebook":"https:\/\/www.facebook.com\/asda\/","contact:twitter":"@asda","contact:website":"https:\/\/storelocator.asda.com\/west-midlands\/wolverhampton\/molineux-way-waterloo-road","operator":"Asda Stores Ltd","wheelchair":"yes"}}, "geometry":{"type":"MultiPolygon","coordinates":[[[[-2.12797,52.59271],[-2.12779,52.59262],[-2.12784,52.59232],[-2.12802,52.59228],[-2.12797,52.59218],[-2.12815,52.59215],[-2.1281,52.59206],[-2.12889,52.5919],[-2.129,52.59209],[-2.12912,52.59207],[-2.12914,52.59212],[-2.12929,52.59209],[-2.12932,52.59214],[-2.12918,52.59217],[-2.12919,52.59218],[-2.1292,52.5922],[-2.12933,52.59217],[-2.12936,52.59223],[-2.12922,52.59225],[-2.12925,52.59231],[-2.12921,52.59232],[-2.12952,52.59288],[-2.1294,52.59291],[-2.12945,52.593],[-2.12914,52.59306],[-2.12889,52.59311],[-2.12887,52.59307],[-2.12842,52.59316],[-2.1284,52.59312],[-2.12825,52.59309],[-2.12819,52.59309],[-2.12797,52.59271]]]]}},
{ "type":"Feature","properties":{"osm_way_id":"149720732","name":"ALDI","building":"retail","shop":"supermarket","other":{"addr:city":"Wolverhampton","addr:postcode":"WV2 3LQ","addr:street":"Lever Street","brand":"ALDI","brand:wikidata":"Q41171672","brand:wikipedia":"en:Aldi","wheelchair":"yes"}}, "geometry":{"type":"MultiPolygon","coordinates":[[[[-2.12491,52.57934],[-2.12444,52.57935],[-2.12444,52.5794],[-2.12428,52.5794],[-2.12428,52.57935],[-2.12357,52.57937],[-2.12355,52.5791],[-2.12489,52.57907],[-2.12491,52.57934]]]]}},
{ "type":"Feature","properties":{"osm_way_id":"156819966","name":"Aldi","building":"retail","shop":"supermarket","other":{"brand":"ALDI","brand:wikidata":"Q41171672","brand:wikipedia":"en:Aldi"}}, "geometry":{"type":"MultiPolygon","coordinates":[[[[-2.08789,52.59623],[-2.08791,52.59623],[-2.08792,52.59645],[-2.08785,52.59645],[-2.08785,52.59652],[-2.08701,52.59653],[-2.087,52.59626],[-2.08782,52.59625],[-2.08782,52.59623],[-2.08789,52.59623]]]]}},
{ "type":"Feature","properties":{"osm_way_id":"156821442","name":"Sainsbury's","building":"retail","shop":"supermarket","other":{"brand":"Sainsbury's","brand:wikidata":"Q152096","brand:wikipedia":"en:Sainsbury's"}}, "geometry":{"type":"MultiPolygon","coordinates":[[[[-2.08688,52.59736],[-2.0865,52.59739],[-2.08638,52.59687],[-2.08543,52.59696],[-2.08548,52.59722],[-2.08563,52.59777],[-2.08566,52.5979],[-2.08574,52.5979],[-2.08577,52.59799],[-2.08593,52.59798],[-2.08635,52.59794],[-2.087,52.59788],[-2.08688,52.59736]]]]}},
{ "type":"Feature","properties":{"osm_way_id":"157925603","name":"Morrisons","building":"yes","shop":"supermarket","other":{"addr:country":"GB","addr:postcode":"WV14 0DZ","brand":"Morrisons","brand:wikidata":"Q922344","brand:wikipedia":"en:Morrisons"}}, "geometry":{"type":"MultiPolygon","coordinates":[[[[-2.0767,52.56365],[-2.07604,52.56321],[-2.07589,52.56331],[-2.07558,52.56313],[-2.07535,52.56325],[-2.07526,52.56319],[-2.07519,52.56314],[-2.07464,52.56344],[-2.07462,52.56354],[-2.07499,52.5638],[-2.07503,52.56378],[-2.07553,52.5641],[-2.07562,52.56405],[-2.07567,52.56408],[-2.07589,52.56396],[-2.07585,52.56393],[-2.07599,52.56386],[-2.07606,52.56391],[-2.07641,52.56372],[-2.07648,52.56376],[-2.0767,52.56365]]]]}},
{ "type":"Feature","properties":{"osm_way_id":"167062538","name":"Morrisons","building":"yes","shop":"supermarket","other":{"brand":"Morrisons","brand:wikidata":"Q922344","brand:wikipedia":"en:Morrisons","wheelchair":"yes"}}, "geometry":{"type":"MultiPolygon","coordinates":[[[[-2.14632,52.62264],[-2.1459,52.62261],[-2.14559,52.62259],[-2.14568,52.62216],[-2.14574,52.62204],[-2.14595,52.62205],[-2.14596,52.62211],[-2.14612,52.62212],[-2.14637,52.62214],[-2.14643,52.62214],[-2.14641,52.62225],[-2.14632,52.62264]]]]}},
{ "type":"Feature","properties":{"osm_way_id":"185127618","name":"ALDI","building":"retail","shop":"supermarket","other":{"brand":"ALDI","brand:wikidata":"Q41171672","brand:wikipedia":"en:Aldi"}}, "geometry":{"type":"MultiPolygon","coordinates":[[[[-2.12346,52.56666],[-2.1234,52.56649],[-2.12354,52.56647],[-2.12352,52.56641],[-2.12357,52.56641],[-2.12373,52.56638],[-2.12371,52.56633],[-2.12419,52.56627],[-2.12429,52.56656],[-2.12348,52.56666],[-2.12346,52.56666]]]]}},
{ "type":"Feature","properties":{"osm_way_id":"203601489","name":"Lidl","building":"retail","shop":"supermarket","other":{"addr:country":"GB","addr:housenumber":"74,76","addr:postcode":"WV14 0EZ","addr:street":"High Street","brand":"Lidl","brand:wikidata":"Q151954","brand:wikipedia":"en:Lidl","fhrs:id":"784133"}}, "geometry":{"type":"MultiPolygon","coordinates":[[[[-2.08145,52.56372],[-2.08106,52.56375],[-2.08076,52.56378],[-2.08073,52.56367],[-2.0808,52.56367],[-2.08072,52.56338],[-2.08078,52.56337],[-2.08076,52.56329],[-2.08085,52.56328],[-2.08084,52.56326],[-2.08091,52.56325],[-2.0809,52.5632],[-2.08117,52.56318],[-2.08116,52.56314],[-2.08137,52.56312],[-2.0814,52.56323],[-2.08155,52.56322],[-2.08157,52.5633],[-2.08131,52.56332],[-2.08138,52.56359],[-2.08142,52.56359],[-2.08145,52.56372]]]]}},
{ "type":"Feature","properties":{"osm_way_id":"258903649","name":"Lidl","building":"retail","shop":"supermarket","other":{"addr:country":"GB","addr:housenumber":"27","addr:postcode":"WV11 1BQ","addr:street":"Blackhalve Lane","brand":"Lidl","brand:wikidata":"Q151954","brand:wikipedia":"en:Lidl","fhrs:id":"680863"}}, "geometry":{"type":"MultiPolygon","coordinates":[[[[-2.09715,52.61408],[-2.09681,52.61419],[-2.09673,52.61411],[-2.09633,52.61424],[-2.09612,52.61401],[-2.09687,52.61377],[-2.09715,52.61408]]]]}},
{ "type":"Feature","properties":{"osm_way_id":"259810581","name":"Heron Foods","building":"retail","shop":"supermarket","other":{"addr:city":"Wednesfield","addr:country":"GB","addr:housenumber":"6","addr:postcode":"WV11 1SZ","addr:street":"High Street","brand":"Heron Foods","brand:wikidata":"Q5743472","brand:wikipedia":"en:Heron Foods","contact:website":"https:\/\/heronfoods.com\/storelocator\/store-details\/wednesfield","fhrs:id":"784697","old_name":"Co-operative Food"}}, "geometry":{"type":"MultiPolygon","coordinates":[[[[-2.08309,52.59932],[-2.08294,52.59929],[-2.08239,52.59917],[-2.08245,52.59904],[-2.08265,52.59903],[-2.08319,52.59916],[-2.08309,52.59932]]]]}},
{ "type":"Feature","properties":{"osm_way_id":"263332241","name":"The Co-operative Food","building":"yes","shop":"supermarket","other":{"operator":"The Co-operative Group"}}, "geometry":{"type":"MultiPolygon","coordinates":[[[[-2.11686,52.61589],[-2.11635,52.61596],[-2.11649,52.61632],[-2.11661,52.6163],[-2.11659,52.61624],[-2.11698,52.61618],[-2.11686,52.61589]]]]}},
{ "type":"Feature","properties":{"osm_way_id":"265804146","name":"ALDI","building":"retail","shop":"supermarket","other":{"brand":"ALDI","brand:wikidata":"Q41171672","brand:wikipedia":"en:Aldi"}}, "geometry":{"type":"MultiPolygon","coordinates":[[[[-2.12813,52.6111],[-2.12741,52.61098],[-2.12743,52.61093],[-2.12727,52.6109],[-2.12731,52.6108],[-2.1274,52.61082],[-2.12745,52.6107],[-2.12751,52.61071],[-2.12824,52.61084],[-2.12813,52.6111]]]]}},
{ "type":"Feature","properties":{"osm_way_id":"267026242","name":"Morrisons Daily","building":"yes","shop":"supermarket","other":{"brand":"Morrisons Daily","brand:wikidata":"Q99752411","operator":"The Co-operative Group"}}, "geometry":{"type":"MultiPolygon","coordinates":[[[[-2.09112,52.57145],[-2.09092,52.57136],[-2.09113,52.57118],[-2.09133,52.57127],[-2.09112,52.57145]]]]}},
{ "type":"Feature","properties":{"osm_way_id":"294026350","name":"Sainsbury's","building":"retail","shop":"supermarket","other":{"brand":"Sainsbury's","brand:wikidata":"Q152096","brand:wikipedia":"en:Sainsbury's","opening_hours":"Mo-Sa 07:00-23:00; Su 11:00-17:00","wheelchair":"yes"}}, "geometry":{"type":"MultiPolygon","coordinates":[[[[-2.1346,52.58346],[-2.13465,52.58345],[-2.13617,52.58322],[-2.13596,52.5827],[-2.13568,52.58273],[-2.13548,52.58222],[-2.13436,52.58238],[-2.13418,52.5824],[-2.1346,52.58346]]]]}},
{ "type":"Feature","properties":{"osm_way_id":"295119263","name":"Asda","building":"retail","shop":"supermarket","other":{"addr:city":"Heath Town","addr:country":"GB","addr:postcode":"WV10 0QB","addr:street":"Wolverhampton Road","brand":"Asda","brand:wikidata":"Q297410","brand:wikipedia":"en:Asda","contact:facebook":"https:\/\/www.facebook.com\/asda\/","contact:twitter":"@asda","contact:website":"https:\/\/storelocator.asda.com\/west-midlands\/wolverhampton\/wolverhampton-road-heath-town","fhrs:id":"585048","operator":"Asda Stores Ltd"}}, "geometry":{"type":"MultiPolygon","coordinates":[[[[-2.10422,52.59278],[-2.10367,52.59276],[-2.1037,52.59248],[-2.10424,52.5925],[-2.10422,52.59278]]]]}},
{ "type":"Feature","properties":{"osm_way_id":"297104481","name":"The Co-operative Food","building":"yes","shop":"supermarket","other":{"operator":"The Midcounties Co-operative Society"}}, "geometry":{"type":"MultiPolygon","coordinates":[[[[-2.16178,52.61085],[-2.16193,52.61087],[-2.16201,52.61062],[-2.1619,52.61061],[-2.16163,52.61057],[-2.16161,52.61057],[-2.16157,52.61069],[-2.16156,52.61072],[-2.16181,52.61075],[-2.16178,52.61085]]]]}},
{ "type":"Feature","properties":{"osm_way_id":"297417224","name":"Lidl","building":"retail","shop":"supermarket","other":{"addr:country":"GB","addr:postcode":"WV3 9EN","addr:street":"Finchfield Hill","brand":"Lidl","brand:wikidata":"Q151954","brand:wikipedia":"en:Lidl","fhrs:id":"784446"}}, "geometry":{"type":"MultiPolygon","coordinates":[[[[-2.17263,52.5811],[-2.17245,52.58107],[-2.17241,52.58117],[-2.17222,52.58114],[-2.17241,52.58067],[-2.17278,52.58072],[-2.17272,52.58087],[-2.1728,52.58088],[-2.17276,52.58098],[-2.17268,52.58097],[-2.17263,52.5811]]]]}},
{ "type":"Feature","properties":{"osm_way_id":"316777015","name":"The Co-operative Food","building":"yes","shop":"supermarket","other":{"brand":"Co-Operative Food","currency:others":"no","payment:cash":"yes","payment:coins":"yes","payment:credit_cards":"yes","second_hand":"no"}}, "geometry":{"type":"MultiPolygon","coordinates":[[[[-2.16617,52.5676],[-2.16574,52.5675],[-2.16558,52.56746],[-2.1657,52.56728],[-2.1665,52.56747],[-2.16641,52.56762],[-2.16628,52.56759],[-2.16626,52.56762],[-2.16617,52.5676]]]]}},
{ "type":"Feature","properties":{"osm_way_id":"355526994","name":"The Co-operative Food","building":"retail","shop":"supermarket","other":{"addr:city":"Wolverhampton","addr:housenumber":"46","addr:postcode":"WV4 4LP","addr:street":"Warstones Road","opening_hours":"Mo-Sa 06:00-22:00; Su 10:00-16:00","operator":"Midcounties Co-operative Society"}}, "geometry":{"type":"MultiPolygon","coordinates":[[[[-2.17177,52.57089],[-2.17192,52.5709],[-2.17195,52.57073],[-2.1718,52.57072],[-2.17178,52.57082],[-2.17177,52.57089]]]]}},
{ "type":"Feature","properties":{"osm_way_id":"358228311","name":"The Co-operative Food","building":"yes","shop":"supermarket","other":{"operator":"The Midcounties Co-operative Society"}}, "geometry":{"type":"MultiPolygon","coordinates":[[[[-2.13,52.61909],[-2.12995,52.61929],[-2.12938,52.61923],[-2.12942,52.61904],[-2.13,52.61909]]]]}},
{ "type":"Feature","properties":{"osm_way_id":"821071918","name":"ALDI","building":"retail","shop":"supermarket","other":{"addr:city":"Willenhall","addr:postcode":"WV13 3TG","addr:street":"South Street","air_conditioning":"yes","brand":"ALDI","brand:wikidata":"Q41171672","brand:wikipedia":"en:Aldi","building:levels":"1","opening_hours":"Mo-Sa 08:00-22:00 Su 10:00-16:00","opening_hours:covid19":"same","operator":"Aldi","payment:cash":"yes","payment:coins":"yes","payment:credit_cards":"yes","payment:debit_cards":"yes","payment:mastercard":"yes","payment:visa":"yes"}}, "geometry":{"type":"MultiPolygon","coordinates":[[[[-2.06714,52.58206],[-2.06782,52.58205],[-2.0678,52.58188],[-2.06713,52.58191],[-2.06714,52.58206]]]]}},
{ "type":"Feature","properties":{"osm_way_id":"851918552","name":"ALDI","building":"yes","shop":"supermarket","other":{"addr:postcode":"WV10 0BA","addr:street":"Broad Gauge Way","brand":"ALDI","brand:wikidata":"Q41171672","brand:wikipedia":"en:Aldi","fhrs:id":"1193852","source:addr":"FHRS Open Data"}}, "geometry":{"type":"MultiPolygon","coordinates":[[[[-2.11759,52.58851],[-2.11763,52.5885],[-2.11771,52.58871],[-2.11724,52.58878],[-2.1172,52.58869],[-2.11714,52.58854],[-2.11706,52.58856],[-2.11698,52.58837],[-2.11695,52.58828],[-2.11713,52.58826],[-2.11746,52.5882],[-2.11755,52.58841],[-2.11757,52.58846],[-2.11759,52.58851]]]]}}
]
}
