{
"type": "FeatureCollection",
"features": [
{ "type":"Feature","properties":{"osm_id":"313074689","name":"Lidl","other":{"addr:city":"Orpington","addr:country":"GB","addr:housenumber":"168","addr:postcode":"Orpington","addr:street":"Sevenoaks Way","brand":"Lidl","brand:wikidata":"Q151954","brand:wikipedia":"en:Lidl","fhrs:id":"1450625","shop":"supermarket"}}, "geometry":{"type":"Point","coordinates":[0.11247,51.3992 ]}},
{ "type":"Feature","properties":{"osm_id":"667486663","name":"Co-op Food","other":{"addr:city":"Ashbourne","addr:postcode":"DE6 1GF","brand":"Co-op Food","brand:wikidata":"Q3277439","brand:wikipedia":"en:Co-op Food","operator":"The Co-operative Group","operator:wikidata":"Q117202","operator:wikipedia":"en:The Co-operative Group","shop":"supermarket"}}, "geometry":{"type":"Point","coordinates":[-1.73166,53.01678 ]}},
{ "type":"Feature","properties":{"osm_id":"983320360","name":"The Co-operative Food","other":{"addr:postcode":"S33 9JL","addr:street":"Netherside","operator":"The Co-operative Group","phone":"+44 1433 620429","shop":"supermarket"}}, "geometry":{"type":"Point","coordinates":[-1.7404,53.3277 ]}},
{ "type":"Feature","properties":{"osm_id":"5048053667","other":{"emergency":"defibrillator"}}, "geometry":{"type":"Point","coordinates":[-1.55669,53.13911 ]}},
{ "type":"Feature","properties":{"osm_id":"6414946136","name":"Aldi","other":{"addr:city":"Bakewell","addr:postcode":"DE45 1GL","addr:street":"Buxton Road","brand":"ALDI","brand:wikidata":"Q41171672","brand:wikipedia":"en:Aldi","fhrs:id":"1129136","opening_hours":"Mo-Sa 08:00-22:00; Su 10:00-16:00","shop":"supermarket"}}, "geometry":{"type":"Point","coordinates":[-1.68642,53.21797 ]}},
{ "type":"Feature","properties":{"osm_id":"6518229238","other":{"defibrillator:location":"On outside wall. Available 24\/7.","emergency":"defibrillator","indoor":"no","opening_hours":"24\/7"}}, "geometry":{"type":"Point","coordinates":[-1.64229,53.26979 ]}},
{ "type":"Feature","properties":{"osm_id":"6570409994","other":{"emergency":"defibrillator","indoor":"no"}}, "geometry":{"type":"Point","coordinates":[-1.67323,53.21341 ]}},
{ "type":"Feature","properties":{"osm_id":"9014702117","name":"The Co-operative Food","other":{"brand":"The Co-operative Food","brand:wikidata":"Q107617274","shop":"supermarket"}}, "geometry":{"type":"Point","coordinates":[-1.71779,53.00629 ]}},
{ "type":"Feature","properties":{"osm_way_id":"55440233","name":"Sainsbury's","building":"yes","shop":"supermarket","other":{"addr:city":"Ashbourne","addr:housename":"Coopers Mill","addr:postcode":"DE6 1BW","addr:street":"King Edward Street","alt_name":"Sainsbury's Ashbourne Superstore","brand":"Sainsbury's","brand:wikidata":"Q152096","brand:wikipedia":"en:Sainsbury's","fhrs:id":"258504","operator":"Sainsburys"}}, "geometry":{"type":"MultiPolygon","coordinates":[[[[-1.7334,53.01475],[-1.73253,53.01488],[-1.73251,53.01483],[-1.73264,53.01481],[-1.73262,53.01477],[-1.73247,53.0148],[-1.73245,53.01475],[-1.7326,53.01472],[-1.7325,53.01444],[-1.73286,53.0144],[-1.7329,53.01449],[-1.73328,53.01444],[-1.7334,53.01475]]]]}},
{ "type":"Feature","properties":{"osm_way_id":"108002028","name":"The Co-operative Food","building":"yes","shop":"supermarket","other":{"addr:city":"Tideswell","addr:postcode":"SK17 8NU","addr:street":"Commercial Road","fhrs:id":"1136145","operator":"The Co-operative Group"}}, "geometry":{"type":"MultiPolygon","coordinates":[[[[-1.77338,53.27809],[-1.77332,53.27823],[-1.7734,53.27825],[-1.7734,53.27826],[-1.77361,53.27829],[-1.77364,53.27822],[-1.77349,53.27819],[-1.77353,53.27812],[-1.77338,53.27809]]]]}},
{ "type":"Feature","properties":{"osm_way_id":"152867719","name":"Sainsbury's","building":"yes","shop":"supermarket","other":{"brand":"Sainsbury's","brand:wikidata":"Q152096","brand:wikipedia":"en:Sainsbury's"}}, "geometry":{"type":"MultiPolygon","coordinates":[[[[-1.52325,54.13617],[-1.52324,54.13617],[-1.52279,54.13615],[-1.52272,54.13619],[-1.52239,54.13619],[-1.5224,54.1361],[-1.52224,54.13609],[-1.52224,54.13611],[-1.52212,54.13611],[-1.52213,54.13606],[-1.52193,54.13606],[-1.52193,54.13611],[-1.52132,54.13609],[-1.5213,54.13623],[-1.52127,54.13623],[-1.52125,54.13623],[-1.52127,54.13626],[-1.52129,54.13627],[-1.52129,54.13627],[-1.52177,54.13629],[-1.52201,54.13629],[-1.52201,54.13634],[-1.52269,54.13636],[-1.52277,54.13637],[-1.52278,54.1363],[-1.52281,54.1363],[-1.52281,54.13629],[-1.52282,54.13624],[-1.52296,54.13624],[-1.52297,54.13619],[-1.52325,54.1362],[-1.52325,54.13617]]]]}},
{ "type":"Feature","properties":{"osm_way_id":"166188035","name":"The Co-operative Food","building":"yes","shop":"supermarket","other":{"addr:city":"Bakewell","addr:postcode":"DE45 1DS","addr:street":"Market Street","branch":"Bakewell Supermarket","brand":"The Co-operative Food","brand:wikidata":"Q107617274","fhrs:id":"258470","opening_hours":"Mo-Sa 08:00-22:00; Su 10:00-16:00","operator":"Central England Co-operative Society","website":"https:\/\/stores.centralengland.coop\/the-co-operative-food-market-street-bakewell-6b1bbdbe3aca","wheelchair":"yes"}}, "geometry":{"type":"MultiPolygon","coordinates":[[[[-1.67318,53.21298],[-1.67293,53.21312],[-1.67292,53.21314],[-1.6729,53.21318],[-1.67291,53.2132],[-1.67292,53.21322],[-1.67323,53.21341],[-1.67335,53.21349],[-1.67372,53.21328],[-1.67363,53.21322],[-1.67356,53.21316],[-1.67355,53.21316],[-1.67347,53.2131],[-1.67341,53.21313],[-1.67318,53.21298]]]]}},
{ "type":"Feature","properties":{"osm_way_id":"192999026","name":"SPAR","building":"yes","shop":"supermarket","other":{"addr:city":"Calver","addr:postcode":"S32 3XH","addr:street":"Calver Cross Roads","alt_name":"White's Calver","branch":"Calver","brand":"Spar","brand:wikidata":"Q610492","opening_hours":"Mo-Su 07:00-22:00"}}, "geometry":{"type":"MultiPolygon","coordinates":[[[[-1.64228,53.26979],[-1.64208,53.2697],[-1.64204,53.26968],[-1.64212,53.26961],[-1.64217,53.26964],[-1.6423,53.26954],[-1.64258,53.26968],[-1.64255,53.2697],[-1.64258,53.26972],[-1.64248,53.26979],[-1.64241,53.26976],[-1.64231,53.26977],[-1.64229,53.26979],[-1.64228,53.26979]]]]}},
{ "type":"Feature","properties":{"osm_way_id":"227528981","name":"M&S Foodhall","shop":"supermarket","other":{"addr:city":"Matlock","addr:housenumber":"4","addr:postcode":"DE4 3AU","addr:street":"Bakewell Road","branch":"Matlock Foodhall","brand":"M&S Foodhall","brand:wikidata":"Q714491","brand:wikipedia":"en:Marks & Spencer","fhrs:id":"925912","opening_hours":"Mo-Sa 08:00-22:00; Su 11:00-17:00","toilets:wheelchair":"yes","wheelchair":"yes"}}, "geometry":{"type":"MultiPolygon","coordinates":[[[[-1.5568,53.13916],[-1.55677,53.13918],[-1.55625,53.13957],[-1.55584,53.13937],[-1.55608,53.13919],[-1.55587,53.13908],[-1.55617,53.13886],[-1.55669,53.13911],[-1.5568,53.13916]]]]}},
{ "type":"Feature","properties":{"osm_way_id":"230208504","name":"Co-op Food","building":"yes","shop":"supermarket","other":{"addr:city":"Matlock","addr:housenumber":"3","addr:postcode":"DE4 3AS","addr:street":"Firs Parade","brand":"Co-op Food","brand:wikidata":"Q3277439","brand:wikipedia":"en:Co-op Food","fhrs:id":"258195","opening_hours":"Mo-Su 06:00-22:00","wheelchair":"yes"}}, "geometry":{"type":"MultiPolygon","coordinates":[[[[-1.55336,53.13826],[-1.55355,53.13828],[-1.55354,53.13818],[-1.55334,53.13816],[-1.55318,53.13816],[-1.5532,53.13825],[-1.55317,53.13826],[-1.55319,53.13832],[-1.55335,53.13829],[-1.55336,53.13826]]]]}},
{ "type":"Feature","properties":{"osm_way_id":"231568892","name":"Sainsbury's","building":"yes","shop":"supermarket","other":{"addr:city":"Matlock","addr:postcode":"DE4 3SP","addr:street":"Cawdor Way","brand":"Sainsbury's","brand:wikidata":"Q152096","brand:wikipedia":"en:Sainsbury's","designation":"Matlock Superstore","fhrs:id":"258695","opening_hours":"Mo-Sa 08:00-22:00; Su 10:30-16:30","toilets:wheelchair":"yes","wheelchair":"yes"}}, "geometry":{"type":"MultiPolygon","coordinates":[[[[-1.56098,53.13844],[-1.56054,53.13878],[-1.56056,53.1388],[-1.5606,53.13882],[-1.56062,53.13885],[-1.56061,53.13889],[-1.56053,53.13897],[-1.56046,53.13899],[-1.56041,53.13898],[-1.56037,53.13898],[-1.56032,53.13896],[-1.56028,53.13894],[-1.56025,53.13897],[-1.55991,53.13882],[-1.55995,53.1388],[-1.55938,53.13855],[-1.55937,53.13852],[-1.55937,53.13847],[-1.55941,53.13845],[-1.55947,53.13844],[-1.55951,53.13844],[-1.55962,53.13849],[-1.56002,53.13816],[-1.56067,53.13846],[-1.5608,53.13835],[-1.56098,53.13844]]]]}},
{ "type":"Feature","properties":{"osm_way_id":"357909560","name":"Aldi","shop":"supermarket","other":{"addr:city":"Ashbourne","addr:postcode":"DE6 1AY","addr:street":"Carnation Way","brand":"ALDI","brand:wikidata":"Q41171672","brand:wikipedia":"en:Aldi","fhrs:id":"833647"}}, "geometry":{"type":"MultiPolygon","coordinates":[[[[-1.74721,53.0095],[-1.74683,53.00932],[-1.74772,53.00878],[-1.74779,53.00872],[-1.74779,53.00864],[-1.74831,53.00825],[-1.74889,53.00871],[-1.74828,53.00904],[-1.74721,53.0095]]]]}},
{ "type":"Feature","properties":{"osm_way_id":"382667270","name":"Co-Operative Food","building":"yes","shop":"supermarket","other":{"addr:city":"Baslow","addr:postcode":"DE45 1RP","addr:street":"Calver Road","fhrs:id":"258417"}}, "geometry":{"type":"MultiPolygon","coordinates":[[[[-1.62496,53.24811],[-1.6248,53.24796],[-1.62487,53.24793],[-1.62488,53.24793],[-1.62495,53.24791],[-1.62512,53.24807],[-1.62505,53.24809],[-1.62503,53.24808],[-1.62496,53.24811]]]]}},
{ "type":"Feature","properties":{"osm_way_id":"939418128","amenity":"parking","other":{"access":"private","operator":"Derbyshire Wildlife Trust","parking":"surface","surface":"asphalt"}}, "geometry":{"type":"MultiPolygon","coordinates":[[[[-1.58489,53.09651],[-1.58466,53.09656],[-1.58463,53.09651],[-1.58452,53.09632],[-1.58439,53.09634],[-1.58425,53.09637],[-1.58412,53.0964],[-1.58402,53.09642],[-1.58398,53.09636],[-1.58394,53.09628],[-1.58466,53.09616],[-1.58472,53.09627],[-1.58489,53.09651]]]]}}
]
}
