{
"type": "FeatureCollection",
"features": [
{ "type":"Feature","properties":{"osm_id":"269256560","name":"Nisa","other":{"shop":"supermarket"}}, "geometry":{"type":"Point","coordinates":[-2.13581,53.47855 ]}},
{ "type":"Feature","properties":{"osm_id":"286964371","name":"Sainsbury's","other":{"brand":"Sainsbury's","brand:wikidata":"Q152096","brand:wikipedia":"en:Sainsbury's","shop":"supermarket"}}, "geometry":{"type":"Point","coordinates":[-2.11184,53.53968 ]}},
{ "type":"Feature","properties":{"osm_id":"287027024","name":"Cooperative","other":{"shop":"supermarket"}}, "geometry":{"type":"Point","coordinates":[-2.15051,53.51485 ]}},
{ "type":"Feature","properties":{"osm_id":"292666147","name":"Co-Op","other":{"shop":"supermarket"}}, "geometry":{"type":"Point","coordinates":[-2.15731,53.36534 ]}},
{ "type":"Feature","properties":{"osm_id":"297574222","name":"The co-operative food","other":{"shop":"supermarket"}}, "geometry":{"type":"Point","coordinates":[-2.14698,53.37833 ]}},
{ "type":"Feature","properties":{"osm_id":"298658902","name":"Venus Supermarket","other":{"shop":"supermarket"}}, "geometry":{"type":"Point","coordinates":[-2.21175,53.45421 ]}},
{ "type":"Feature","properties":{"osm_id":"300149741","name":"Co-op Food","other":{"addr:city":"Southampton","addr:country":"GB","addr:housenumber":"117","addr:postcode":"SO14 2EA","addr:street":"High Street","brand":"Co-op Food","brand:wikidata":"Q3277439","brand:wikipedia":"en:Co-op Food","fhrs:id":"220335","operator":"The Co-operative Group","operator:wikidata":"Q117202","operator:wikipedia":"en:The Co-operative Group","shop":"supermarket"}}, "geometry":{"type":"Point","coordinates":[-1.40416,50.89806 ]}},
{ "type":"Feature","properties":{"osm_id":"301413682","name":"Lidl","other":{"brand":"Lidl","brand:wikidata":"Q151954","brand:wikipedia":"en:Lidl","shop":"supermarket","wheelchair":"yes"}}, "geometry":{"type":"Point","coordinates":[-2.22685,53.45848 ]}},
{ "type":"Feature","properties":{"osm_id":"307743818","name":"Co-operative","other":{"shop":"supermarket","wheelchair":"yes"}}, "geometry":{"type":"Point","coordinates":[-2.34171,53.42938 ]}},
{ "type":"Feature","properties":{"osm_id":"307748113","name":"Aldi","other":{"addr:city":"Manchester","addr:country":"GB","addr:housenumber":"850","addr:street":"Kingsway","brand":"ALDI","brand:wikidata":"Q41171672","brand:wikipedia":"en:Aldi","shop":"supermarket","source:addr":"til receipt"}}, "geometry":{"type":"Point","coordinates":[-2.20984,53.42701 ]}},
{ "type":"Feature","properties":{"osm_id":"307753149","name":"Wing Yip","other":{"addr:city":"Manchester","addr:postcode":"M4 5HU","addr:street":"Oldham Road","opening_hours":"Mo-Sa 09:30-19:00; Su 11:00-17:00; easter off; Dec 25-26 off","shop":"supermarket","website":"https:\/\/wingyip.com\/","wheelchair":"yes"}}, "geometry":{"type":"Point","coordinates":[-2.22905,53.48667 ]}},
{ "type":"Feature","properties":{"osm_id":"321854977","name":"M&S Foodhall","other":{"addr:city":"Manchester","addr:parentstreet":"Cheetham Hill Road","addr:place":"Manchester Fort Shopping Park","addr:postcode":"M8 8EP","brand":"M&S Foodhall","brand:wikidata":"Q714491","brand:wikipedia":"en:Marks & Spencer","shop":"supermarket","source:addr:postcode":"code-point_open"}}, "geometry":{"type":"Point","coordinates":[-2.23701,53.49711 ]}},
{ "type":"Feature","properties":{"osm_id":"369527066","name":"Co-Op","other":{"shop":"supermarket"}}, "geometry":{"type":"Point","coordinates":[-2.18996,53.36581 ]}},
{ "type":"Feature","properties":{"osm_id":"377820551","name":"Home Bargains","other":{"shop":"supermarket"}}, "geometry":{"type":"Point","coordinates":[-2.20438,53.44393 ]}},
{ "type":"Feature","properties":{"osm_id":"393401971","name":"Worldwide","other":{"shop":"supermarket"}}, "geometry":{"type":"Point","coordinates":[-2.24346,53.51204 ]}},
{ "type":"Feature","properties":{"osm_id":"490081927","name":"Co-op Food","other":{"addr:city":"Stockport","addr:housenumber":"84","addr:postcode":"SK3 9AL","addr:street":"Castle Street","brand":"Co-op Food","brand:wikidata":"Q3277439","brand:wikipedia":"en:Co-op Food","opening_hours":"Mon-Sat 07:00--22:00, Sun 10:00--16:00","operator":"The Co-Operative Group","payment:cash":"yes","payment:credit_cards":"yes","payment:debit_cards":"yes","shop":"supermarket","wheelchair":"yes"}}, "geometry":{"type":"Point","coordinates":[-2.16739,53.40184 ]}},
{ "type":"Feature","properties":{"osm_id":"494915031","name":"Worldwide Food","other":{"addr:city":"Old Trafford","addr:housenumber":"2","addr:postcode":"M16 0LH","addr:street":"Tennis Street","fhrs:id":"1150709","shop":"supermarket","source:addr":"FHRS Open Data"}}, "geometry":{"type":"Point","coordinates":[-2.27699,53.46064 ]}},
{ "type":"Feature","properties":{"osm_id":"649319440","name":"Tesco Metro","other":{"addr:postcode":"BL0 9AS","addr:street":"Irwell Street","brand":"Tesco Metro","brand:wikidata":"Q57551648","fhrs:id":"936726","shop":"supermarket","source:addr":"FHRS Open Data"}}, "geometry":{"type":"Point","coordinates":[-2.31593,53.64712 ]}},
{ "type":"Feature","properties":{"osm_id":"715907067","name":"Urmston Convenience Store","other":{"phone":"+44 161 747 1090","shop":"supermarket"}}, "geometry":{"type":"Point","coordinates":[-2.35515,53.4483 ]}},
{ "type":"Feature","properties":{"osm_id":"718512359","name":"The Food Warehouse","other":{"brand":"The Food Warehouse","brand:wikidata":"Q87263899","shop":"supermarket"}}, "geometry":{"type":"Point","coordinates":[-2.35995,53.46332 ]}},
{ "type":"Feature","properties":{"osm_id":"738211414","name":"Friendly Shopper","other":{"shop":"supermarket","wheelchair":"yes"}}, "geometry":{"type":"Point","coordinates":[-2.27818,53.44571 ]}},
{ "type":"Feature","properties":{"osm_id":"789880433","name":"Co-op Food","other":{"addr:housenumber":"2","addr:postcode":"BL8 4DD","addr:street":"Vernon Road","brand":"Co-op Food","brand:wikidata":"Q3277439","brand:wikipedia":"en:Co-op Food","fhrs:id":"936690","operator":"The Co-operative Group","shop":"supermarket","source:addr":"FHRS Open Data"}}, "geometry":{"type":"Point","coordinates":[-2.32944,53.62538 ]}},
{ "type":"Feature","properties":{"osm_id":"974360165","name":"Morrisons","other":{"brand":"Morrisons","brand:wikidata":"Q922344","brand:wikipedia":"en:Morrisons","shop":"supermarket","wheelchair":"yes"}}, "geometry":{"type":"Point","coordinates":[-2.08083,53.47768 ]}},
{ "type":"Feature","properties":{"osm_id":"1139529296","name":"The Co-operative Food","other":{"operator":"The Co-operative Group","shop":"supermarket"}}, "geometry":{"type":"Point","coordinates":[-2.29806,53.5832 ]}},
{ "type":"Feature","properties":{"osm_id":"1297490781","name":"Waitrose","other":{"brand":"Waitrose & Partners","brand:wikidata":"Q771734","brand:wikipedia":"en:Waitrose & Partners","operator":"Waitrose & Partners","shop":"supermarket"}}, "geometry":{"type":"Point","coordinates":[-2.36398,53.40559 ]}},
{ "type":"Feature","properties":{"osm_id":"1434108651","other":{"amenity":"parking_entrance"}}, "geometry":{"type":"Point","coordinates":[-2.32492,53.4247 ]}},
{ "type":"Feature","properties":{"osm_id":"1490377716","other":{"amenity":"parking_entrance"}}, "geometry":{"type":"Point","coordinates":[-2.32363,53.42473 ]}},
{ "type":"Feature","properties":{"osm_id":"1492350822","name":"ALDI","other":{"addr:city":"Manchester","addr:country":"GB","addr:floor":"1","addr:housenumber":"55A","addr:place":"Arndale Centre","addr:postcode":"M1 1WR","addr:street":"Market Street","brand":"ALDI","brand:wikidata":"Q41171672","brand:wikipedia":"en:Aldi","fhrs:id":"855033","organic":"no","self_checkout":"yes","shop":"supermarket","source:addr":"FHRS Open Data","website":"https:\/\/www.aldi.co.uk\/store\/s-uk-E0647","wheelchair":"yes"}}, "geometry":{"type":"Point","coordinates":[-2.24042,53.48246 ]}},
{ "type":"Feature","properties":{"osm_id":"1508516282","name":"Manchester Superstore","other":{"shop":"supermarket"}}, "geometry":{"type":"Point","coordinates":[-2.24125,53.50822 ]}},
{ "type":"Feature","properties":{"osm_id":"1508516292","name":"Lidl","other":{"addr:city":"Manchester","addr:country":"GB","addr:postcode":"M8 0SN","addr:street":"Cheetham Hill Road","brand":"Lidl","brand:wikidata":"Q151954","brand:wikipedia":"en:Lidl","fhrs:id":"1337063","shop":"supermarket"}}, "geometry":{"type":"Point","coordinates":[-2.24085,53.50756 ]}},
{ "type":"Feature","properties":{"osm_id":"1520847891","name":"M&S Simply Food","other":{"addr:city":"Manchester","addr:country":"GB","addr:housenumber":"6A","addr:postcode":"M1 4AH","addr:street":"Piccadilly Plaza","brand":"M&S Simply Food","brand:wikidata":"Q714491","brand:wikipedia":"en:Marks & Spencer","shop":"supermarket","wheelchair":"limited"}}, "geometry":{"type":"Point","coordinates":[-2.23891,53.48074 ]}},
{ "type":"Feature","properties":{"osm_id":"1556667244","name":"Lidl","other":{"addr:postcode":"M8 8BB","addr:street":"Cheetham Hill Retail Park","brand":"Lidl","brand:wikidata":"Q151954","brand:wikipedia":"en:Lidl","shop":"supermarket","source:addr:postcode":"code-point_open"}}, "geometry":{"type":"Point","coordinates":[-2.23816,53.49892 ]}},
{ "type":"Feature","properties":{"osm_id":"1631435137","name":"B&M Bargains","other":{"shop":"supermarket"}}, "geometry":{"type":"Point","coordinates":[-2.2556,53.50369 ]}},
{ "type":"Feature","properties":{"osm_id":"1781765068","name":"M&S Foodhall","other":{"addr:city":"Hale, Altrincham","addr:street":"Ashley Road","brand":"M&S Foodhall","brand:wikidata":"Q714491","old_name":"The Co-operative Food","shop":"supermarket"}}, "geometry":{"type":"Point","coordinates":[-2.3457,53.37635 ]}},
{ "type":"Feature","properties":{"osm_id":"1782739528","name":"Co-op","other":{"shop":"supermarket"}}, "geometry":{"type":"Point","coordinates":[-2.10383,53.41571 ]}},
{ "type":"Feature","properties":{"osm_id":"1860373744","name":"Tesco","other":{"brand":"Tesco","brand:wikidata":"Q487494","brand:wikipedia":"en:Tesco","contact:website":"https:\/\/www.tesco.com\/store-locator\/rochdale\/silk-st","shop":"supermarket"}}, "geometry":{"type":"Point","coordinates":[-2.17407,53.60246 ]}},
{ "type":"Feature","properties":{"osm_id":"1960946639","name":"Spar","other":{"brand":"Spar","brand:wikidata":"Q610492","shop":"supermarket","wheelchair":"yes"}}, "geometry":{"type":"Point","coordinates":[-2.12072,53.63758 ]}},
{ "type":"Feature","properties":{"osm_id":"1965795124","name":"Asda","other":{"addr:city":"Shaw","addr:country":"GB","addr:postcode":"OL2 8QP","addr:street":"Greenfield Lane","brand":"Asda","brand:wikidata":"Q297410","brand:wikipedia":"en:Asda","contact:website":"https:\/\/storelocator.asda.com\/north-west\/shaw-oldham\/greenfield-lane","fhrs:id":"117796","operator":"Asda Stores Ltd","shop":"supermarket","toilets:wheelchair":"no","wheelchair":"yes"}}, "geometry":{"type":"Point","coordinates":[-2.09163,53.57602 ]}},
{ "type":"Feature","properties":{"osm_id":"1965796430","name":"ALDI","other":{"brand":"ALDI","brand:wikidata":"Q41171672","brand:wikipedia":"en:Aldi","shop":"supermarket","wheelchair":"yes"}}, "geometry":{"type":"Point","coordinates":[-2.09362,53.57525 ]}},
{ "type":"Feature","properties":{"osm_id":"2098007117","name":"ALDI","other":{"addr:postcode":"SK3 0LX","addr:street":"Stockport Road","brand":"ALDI","brand:wikidata":"Q41171672","brand:wikipedia":"en:Aldi","contact:website":"https:\/\/www.aldi.co.uk\/store\/s-uk-E0508","shop":"supermarket"}}, "geometry":{"type":"Point","coordinates":[-2.19284,53.40137 ]}},
{ "type":"Feature","properties":{"osm_id":"2116717119","name":"Aldi","other":{"brand":"ALDI","brand:wikidata":"Q41171672","brand:wikipedia":"en:Aldi","shop":"supermarket","wheelchair":"yes"}}, "geometry":{"type":"Point","coordinates":[-2.15012,53.61788 ]}},
{ "type":"Feature","properties":{"osm_id":"2116825976","name":"Lidl","other":{"addr:postcode":"OL12 6TS","addr:street":"Spotland Road","brand":"Lidl","brand:wikidata":"Q151954","fhrs:id":"149771","shop":"supermarket","source:addr":"FHRS Open Data","wheelchair":"yes"}}, "geometry":{"type":"Point","coordinates":[-2.16094,53.61961 ]}},
{ "type":"Feature","properties":{"osm_id":"2143946918","name":"Aldi","other":{"addr:city":"Manchester","addr:country":"GB","addr:housename":"Urban Exchange","addr:housenumber":"100","addr:postcode":"M4 6DE","addr:street":"Great Ancoats Street","brand":"ALDI","brand:wikidata":"Q41171672","brand:wikipedia":"en:Aldi","opening_hours":"Mo-Sa 08:00-22:00; Su 11:00-17:00","organic":"no","payment:cards":"yes","payment:cash":"yes","shop":"supermarket","website":"https:\/\/www.aldi.co.uk\/store\/s-uk-E0781","wheelchair":"yes"}}, "geometry":{"type":"Point","coordinates":[-2.22788,53.48176 ]}},
{ "type":"Feature","properties":{"osm_id":"2150795570","name":"Co-op Food","other":{"addr:city":"Manchester","addr:country":"GB","addr:housenumber":"1","addr:postcode":"M60 4EP","addr:street":"Balloon Street","alt_name":"Co-op","brand":"Co-op Food","brand:wikidata":"Q3277439","brand:wikipedia":"en:Co-op Food","opening_hours":"Mo-Su 06:00-24:00","operator":"The Co-operative Group","shop":"supermarket","wheelchair":"yes"}}, "geometry":{"type":"Point","coordinates":[-2.24132,53.48564 ]}},
{ "type":"Feature","properties":{"osm_id":"2197662944","other":{"amenity":"parking_entrance"}}, "geometry":{"type":"Point","coordinates":[-2.15553,53.41224 ]}},
{ "type":"Feature","properties":{"osm_id":"2225553081","name":"The Co-operative Food","other":{"operator":"The Co-operative Group","shop":"supermarket"}}, "geometry":{"type":"Point","coordinates":[-2.19269,53.53742 ]}},
{ "type":"Feature","properties":{"osm_id":"2298954320","name":"Lidl","other":{"addr:country":"GB","addr:postcode":"SK8 5NU","addr:street":"Councillor Lane","brand":"Lidl","brand:wikidata":"Q151954","brand:wikipedia":"en:Lidl","fhrs:id":"1152276","shop":"supermarket"}}, "geometry":{"type":"Point","coordinates":[-2.18479,53.38701 ]}},
{ "type":"Feature","properties":{"osm_id":"2606363779","name":"W. H. Lung","other":{"addr:city":"Manchester","addr:country":"GB","shop":"supermarket","wheelchair":"yes"}}, "geometry":{"type":"Point","coordinates":[-2.22946,53.46756 ]}},
{ "type":"Feature","properties":{"osm_id":"2632354121","name":"B&M","other":{"shop":"supermarket"}}, "geometry":{"type":"Point","coordinates":[-2.31656,53.42509 ]}},
{ "type":"Feature","properties":{"osm_id":"2689448123","name":"Hang Won Hong","other":{"addr:city":"Manchester","addr:country":"GB","addr:housenumber":"60","addr:postcode":"M1 4HF","addr:street":"George Street","shop":"supermarket","wheelchair":"no"}}, "geometry":{"type":"Point","coordinates":[-2.24066,53.47883 ]}},
{ "type":"Feature","properties":{"osm_id":"2694450082","name":"Co-operative","other":{"shop":"supermarket"}}, "geometry":{"type":"Point","coordinates":[-2.10744,53.39078 ]}},
{ "type":"Feature","properties":{"osm_id":"2696670942","name":"Wing Fat","other":{"addr:city":"Manchester","addr:country":"GB","addr:housenumber":"51","addr:postcode":"M1 4EE","addr:street":"Faulkner Street","origin":"chinese","shop":"supermarket","wheelchair":"no"}}, "geometry":{"type":"Point","coordinates":[-2.23949,53.47851 ]}},
{ "type":"Feature","properties":{"osm_id":"2714032586","name":"Wahib Grocers","other":{"shop":"supermarket"}}, "geometry":{"type":"Point","coordinates":[-2.08816,53.45792 ]}},
{ "type":"Feature","properties":{"osm_id":"2868820728","name":"Spar","other":{"brand":"Spar","brand:wikidata":"Q610492","brand:wikipedia":"en:SPAR (retailer)","shop":"supermarket"}}, "geometry":{"type":"Point","coordinates":[-2.22925,53.46149 ]}},
{ "type":"Feature","properties":{"osm_id":"3006927512","name":"Heron Foods","other":{"addr:city":"Manchester","addr:country":"GB","addr:housename":"Stretford Shopping Mall","addr:postcode":"M32 9BD","addr:street":"Chester Road","addr:unit":"67,68","brand":"Heron Foods","brand:wikidata":"Q5743472","brand:wikipedia":"en:Heron Foods","contact:website":"https:\/\/heronfoods.com\/storelocator\/store-details\/stretford-shopping-centre","fhrs:id":"972009","shop":"supermarket"}}, "geometry":{"type":"Point","coordinates":[-2.31092,53.44521 ]}},
{ "type":"Feature","properties":{"osm_id":"3246620909","name":"Home Bargains","other":{"addr:city":"Manchester","addr:postcode":"M9 0QS","addr:street":"Heaton Park","opening_hours":"Mo-Sa 08:00-20:00; Su 10:00-16:00","operator":"Home Bargains","shop":"supermarket","website":"https:\/\/storelocator.homebargains.co.uk\/store\/A648\/Heaton+Park+Road,+Heaton+Park,+Manchester+"}}, "geometry":{"type":"Point","coordinates":[-2.23782,53.53816 ]}},
{ "type":"Feature","properties":{"osm_id":"3308518062","name":"Co-op Great Moor","other":{"shop":"supermarket"}}, "geometry":{"type":"Point","coordinates":[-2.13576,53.3885 ]}},
{ "type":"Feature","properties":{"osm_id":"3379264164","name":"Asda","other":{"addr:city":"Stockport","addr:country":"GB","addr:housenumber":"6","addr:postcode":"SK4 1TN","addr:street":"Manchester Road","brand":"Asda","brand:wikidata":"Q297410","brand:wikipedia":"en:Asda","contact:website":"https:\/\/storelocator.asda.com\/north-west\/stockport\/manchester-road","fhrs:id":"716510","operator":"Asda Stores Ltd","shop":"supermarket"}}, "geometry":{"type":"Point","coordinates":[-2.16291,53.42097 ]}},
{ "type":"Feature","properties":{"osm_id":"3713426325","name":"Lameizi Super Store","other":{"addr:postcode":"M1 5QS","addr:street":"The Quadrangle, Chester Street","shop":"supermarket","source:addr":"FHRS Open Data","wheelchair":"yes"}}, "geometry":{"type":"Point","coordinates":[-2.24031,53.47242 ]}},
{ "type":"Feature","properties":{"osm_id":"3902942368","name":"Heron Foods","other":{"addr:city":"Manchester","addr:country":"GB","addr:housenumber":"10,10A","addr:place":"Partington","addr:postcode":"M31 4EL","brand":"Heron Foods","brand:wikidata":"Q5743472","brand:wikipedia":"en:Heron Foods","contact:website":"https:\/\/heronfoods.com\/storelocator\/store-details\/partington","fhrs:id":"724072","shop":"supermarket"}}, "geometry":{"type":"Point","coordinates":[-2.42566,53.41845 ]}},
{ "type":"Feature","properties":{"osm_id":"4192290673","name":"The Co-operative Food","other":{"addr:city":"Manchester","addr:housenumber":"72","addr:postcode":"SK8 4NQ","addr:street":"Church Road","fhrs:id":"127238","operator":"Co-operative Group Food Limitd","shop":"supermarket"}}, "geometry":{"type":"Point","coordinates":[-2.23768,53.39144 ]}},
{ "type":"Feature","properties":{"osm_id":"4395300091","name":"Asda","other":{"addr:city":"Manchester","addr:country":"GB","addr:housenumber":"89-95","addr:postcode":"M18 7JH","addr:street":"Reddish Lane","brand":"Asda","brand:wikidata":"Q297410","brand:wikipedia":"en:Asda","contact:website":"https:\/\/storelocator.asda.com\/north-west\/manchester\/reddish-lane","fhrs:id":"492989","operator":"Asda Stores Ltd","shop":"supermarket"}}, "geometry":{"type":"Point","coordinates":[-2.15856,53.45538 ]}},
{ "type":"Feature","properties":{"osm_id":"4416687111","name":"The Co-operative Food","other":{"operator":"The Co-operative Group","shop":"supermarket"}}, "geometry":{"type":"Point","coordinates":[-2.20533,53.41233 ]}},
{ "type":"Feature","properties":{"osm_id":"4416698409","name":"Co-op","other":{"old_name":"M Local","operator":"The Co-operative Group","shop":"supermarket"}}, "geometry":{"type":"Point","coordinates":[-2.18147,53.41043 ]}},
{ "type":"Feature","properties":{"osm_id":"4416702352","name":"Co-op Food","other":{"brand":"Co-op Food","brand:wikidata":"Q3277439","brand:wikipedia":"en:Co-op Food","operator":"The Co-operative Group","shop":"supermarket","wheelchair":"yes"}}, "geometry":{"type":"Point","coordinates":[-2.27871,53.44239 ]}},
{ "type":"Feature","properties":{"osm_id":"4438213391","name":"Costcutter","other":{"addr:city":"Salford","addr:housenumber":"365","addr:postcode":"M3 5JT","addr:street":"Chapel Street","addr:unit":"Unit 2 Zenith","fhrs:id":"688539","shop":"supermarket","source:addr":"FHRS Open Data"}}, "geometry":{"type":"Point","coordinates":[-2.26383,53.4829 ]}},
{ "type":"Feature","properties":{"osm_id":"4552954247","name":"Asda","other":{"addr:city":"Cheadle","addr:country":"GB","addr:housename":"Cheadle Hulme Shopping Centre","addr:postcode":"SK8 5BB","brand":"Asda","brand:wikidata":"Q297410","brand:wikipedia":"en:Asda","contact:website":"https:\/\/storelocator.asda.com\/north-west\/cheadle-hulme\/the-precinct","fhrs:id":"552200","operator":"Asda Stores Ltd","shop":"supermarket"}}, "geometry":{"type":"Point","coordinates":[-2.18877,53.37798 ]}},
{ "type":"Feature","properties":{"osm_id":"4564184011","name":"Hamza Cash and Carry","other":{"shop":"supermarket"}}, "geometry":{"type":"Point","coordinates":[-2.26967,53.4481 ]}},
{ "type":"Feature","properties":{"osm_id":"4564184013","name":"Manchester Superstore","other":{"shop":"supermarket"}}, "geometry":{"type":"Point","coordinates":[-2.26862,53.44774 ]}},
{ "type":"Feature","properties":{"osm_id":"4564184014","name":"Mughal General Stores","other":{"shop":"supermarket"}}, "geometry":{"type":"Point","coordinates":[-2.26878,53.44773 ]}},
{ "type":"Feature","properties":{"osm_id":"4564184015","name":"Chand Superstore","other":{"addr:city":"Manchester","addr:country":"GB","addr:housenumber":"205","addr:postcode":"M16 0EH","addr:street":"Clarendon Road","fhrs:id":"902765","shop":"supermarket"}}, "geometry":{"type":"Point","coordinates":[-2.26886,53.44774 ]}},
{ "type":"Feature","properties":{"osm_id":"4564184018","name":"Martco","other":{"shop":"supermarket"}}, "geometry":{"type":"Point","coordinates":[-2.26987,53.44771 ]}},
{ "type":"Feature","properties":{"osm_id":"4569209747","name":"Ahmad's Grocers","other":{"shop":"supermarket"}}, "geometry":{"type":"Point","coordinates":[-2.26408,53.44781 ]}},
{ "type":"Feature","properties":{"osm_id":"4632881164","name":"Costcutter","other":{"brand":"Costcutter","brand:wikidata":"Q5175072","brand:wikipedia":"en:Costcutter","shop":"supermarket"}}, "geometry":{"type":"Point","coordinates":[-2.20009,53.44001 ]}},
{ "type":"Feature","properties":{"osm_id":"4687761495","name":"Tresco","other":{"name:en":"Tresco","shop":"supermarket"}}, "geometry":{"type":"Point","coordinates":[-2.23662,53.46992 ]}},
{ "type":"Feature","properties":{"osm_id":"4716376559","name":"Aldi","other":{"addr:postcode":"OL16 4GJ","addr:street":"Elizabethan Way","brand":"ALDI","brand:wikidata":"Q41171672","brand:wikipedia":"en:Aldi","shop":"supermarket","source:addr:postcode":"code-point_open"}}, "geometry":{"type":"Point","coordinates":[-2.11456,53.60953 ]}},
{ "type":"Feature","properties":{"osm_id":"4729369182","name":"Budgens","other":{"brand":"Budgens","brand:wikidata":"Q4985016","brand:wikipedia":"en:Budgens","shop":"supermarket"}}, "geometry":{"type":"Point","coordinates":[-2.16238,53.3423 ]}},
{ "type":"Feature","properties":{"osm_id":"4764798421","name":"Asda","other":{"addr:city":"Ashton-Under-Lyne","addr:country":"GB","addr:postcode":"OL6 8ER","addr:street":"Queens Road","brand":"Asda","brand:wikidata":"Q297410","brand:wikipedia":"en:Asda","contact:website":"https:\/\/storelocator.asda.com\/north-west\/ashton-under-lyne\/queens-road-hurst","fhrs:id":"48048","operator":"Asda Stores Ltd","shop":"supermarket"}}, "geometry":{"type":"Point","coordinates":[-2.07723,53.4997 ]}},
{ "type":"Feature","properties":{"osm_id":"4791269124","name":"Asda","other":{"addr:country":"GB","addr:postcode":"M40 2JL","addr:street":"Old Church Street","brand":"Asda","brand:wikidata":"Q297410","brand:wikipedia":"en:Asda","contact:website":"https:\/\/storelocator.asda.com\/north-west\/newton-heath\/old-church-street","opening_hours":"Su 10:00-16:00; Mo-Sa 07:00-23:00","operator":"Asda Stores Ltd","shop":"supermarket"}}, "geometry":{"type":"Point","coordinates":[-2.17882,53.5002 ]}},
{ "type":"Feature","properties":{"osm_id":"4802451721","name":"M&S Simply Food","other":{"addr:city":"Manchester","addr:country":"GB","addr:housenumber":"437","addr:postcode":"M21 8AU","addr:street":"Barlow Moor Road","brand":"M&S Simply Food","brand:wikidata":"Q714491","operator":"Marks & Spencer","shop":"supermarket"}}, "geometry":{"type":"Point","coordinates":[-2.2739,53.43596 ]}},
{ "type":"Feature","properties":{"osm_id":"4802451731","name":"The Co-Operative Food & Petrol","other":{"addr:city":"Manchester","addr:country":"GB","addr:housenumber":"849","addr:postcode":"M20 2ZF","addr:street":"Princess Road","opening_hours":"24\/7","shop":"supermarket"}}, "geometry":{"type":"Point","coordinates":[-2.25936,53.4201 ]}},
{ "type":"Feature","properties":{"osm_id":"4804048552","name":"The Co-operative Food","other":{"addr:city":"Salford","addr:housename":"Vimto Gardens","addr:postcode":"M3 5JH","addr:street":"Islington Way","addr:unit":"1","fhrs:id":"930084","shop":"supermarket"}}, "geometry":{"type":"Point","coordinates":[-2.26238,53.48314 ]}},
{ "type":"Feature","properties":{"osm_id":"4858724221","name":"Co-Op","other":{"addr:housenumber":"355","addr:postcode":"M27 0FJ","addr:street":"Worsley Road","opening_hours":"Mo-Su 07:00-22:00","shop":"supermarket"}}, "geometry":{"type":"Point","coordinates":[-2.35617,53.50368 ]}},
{ "type":"Feature","properties":{"osm_id":"4929264123","name":"M&S Foodhall","other":{"brand":"M&S Foodhall","brand:wikidata":"Q714491","brand:wikipedia":"en:Marks & Spencer","shop":"supermarket"}}, "geometry":{"type":"Point","coordinates":[-2.28579,53.46151 ]}},
{ "type":"Feature","properties":{"osm_id":"4963367457","name":"Spar","other":{"brand":"Spar","brand:wikidata":"Q610492","brand:wikipedia":"en:SPAR (retailer)","shop":"supermarket"}}, "geometry":{"type":"Point","coordinates":[-2.27605,53.55146 ]}},
{ "type":"Feature","properties":{"osm_id":"4994623930","name":"Spar","other":{"brand":"Spar","brand:wikidata":"Q610492","brand:wikipedia":"en:Spar (retailer)","shop":"supermarket"}}, "geometry":{"type":"Point","coordinates":[-2.38971,53.52274 ]}},
{ "type":"Feature","properties":{"osm_id":"5085132241","name":"A.S.M Indian Grocery","other":{"shop":"supermarket"}}, "geometry":{"type":"Point","coordinates":[-2.09935,53.48942 ]}},
{ "type":"Feature","properties":{"osm_id":"5086260296","name":"Asda","other":{"addr:country":"GB","addr:housename":"Kiingsway Retail Park","addr:postcode":"OL16 5AF","addr:street":"Kingsway","addr:unit":"2","brand":"Asda","brand:wikidata":"Q297410","brand:wikipedia":"en:Asda","contact:website":"https:\/\/storelocator.asda.com\/north-west\/rochdale\/unit-2-kingsway-retail-park","fhrs:id":"42822","operator":"Asda Stores Ltd","shop":"supermarket","source:addr":"FHRS Open Data"}}, "geometry":{"type":"Point","coordinates":[-2.12841,53.61533 ]}},
{ "type":"Feature","properties":{"osm_id":"5099365172","name":"Aldi","other":{"brand":"ALDI","brand:wikidata":"Q41171672","brand:wikipedia":"en:Aldi","shop":"supermarket","wheelchair":"yes"}}, "geometry":{"type":"Point","coordinates":[-2.35489,53.44926 ]}},
{ "type":"Feature","properties":{"osm_id":"5109545136","name":"Marks & Spencer","other":{"addr:city":"Altrincham","brand":"Marks & Spencer","brand:wikidata":"Q714491","brand:wikipedia":"en:Marks & Spencer","shop":"supermarket"}}, "geometry":{"type":"Point","coordinates":[-2.3504,53.3874 ]}},
{ "type":"Feature","properties":{"osm_id":"5271085221","name":"Costcutter","other":{"brand":"Costcutter","brand:wikidata":"Q5175072","brand:wikipedia":"en:Costcutter","shop":"supermarket"}}, "geometry":{"type":"Point","coordinates":[-2.10704,53.39086 ]}},
{ "type":"Feature","properties":{"osm_id":"5331572346","name":"Spar","other":{"brand":"Spar","brand:wikidata":"Q610492","brand:wikipedia":"en:SPAR (retailer)","shop":"supermarket"}}, "geometry":{"type":"Point","coordinates":[-2.33669,53.45709 ]}},
{ "type":"Feature","properties":{"osm_id":"5401543737","name":"Aldi","other":{"addr:city":"Manchester","addr:housenumber":"5a","addr:parentstreet":"Chester Road","addr:place":"Stretford Mall Extension","addr:postcode":"M32 9BA","brand":"ALDI","brand:wikidata":"Q41171672","brand:wikipedia":"en:Aldi","fhrs:id":"868825","shop":"supermarket","source:addr":"FHRS Open Data"}}, "geometry":{"type":"Point","coordinates":[-2.31208,53.44536 ]}},
{ "type":"Feature","properties":{"osm_id":"5523770489","name":"Asda","other":{"addr:city":"Pendlebury","addr:country":"GB","addr:housenumber":"604-612","addr:postcode":"M27 4ET","addr:street":"Bolton Road","brand":"Asda","brand:wikidata":"Q297410","brand:wikipedia":"en:Asda","contact:website":"https:\/\/storelocator.asda.com\/north-west\/pendlebury\/604-612-bolton-road","opening_hours":"Mo-Sa 07:00-22:00, Su 10:00-16:00","operator":"Asda Stores Ltd","shop":"supermarket"}}, "geometry":{"type":"Point","coordinates":[-2.33126,53.51667 ]}},
{ "type":"Feature","properties":{"osm_id":"5622782767","name":"ALDI","other":{"brand":"ALDI","brand:wikidata":"Q41171672","brand:wikipedia":"en:Aldi","shop":"supermarket"}}, "geometry":{"type":"Point","coordinates":[-2.11886,53.45764 ]}},
{ "type":"Feature","properties":{"osm_id":"5628221927","name":"Heron Foods","other":{"addr:city":"Wigan","addr:country":"GB","addr:place":"The Galleries","addr:postcode":"WN1 1AW","brand":"Heron Foods","brand:wikidata":"Q5743472","brand:wikipedia":"en:Heron Foods","contact:website":"https:\/\/heronfoods.com\/storelocator\/store-details\/wigan","fhrs:id":"50985","level":"0","shop":"supermarket"}}, "geometry":{"type":"Point","coordinates":[-2.63309,53.5483 ]}},
{ "type":"Feature","properties":{"osm_id":"5841871825","name":"Hulme Express","other":{"addr:city":"Manchester","addr:street":"Stretford Road","shop":"supermarket"}}, "geometry":{"type":"Point","coordinates":[-2.24304,53.46865 ]}},
{ "type":"Feature","properties":{"osm_id":"5958044197","name":"Heron Foods","other":{"addr:city":"Salford","addr:postcode":"M6 5HW","brand":"Heron Foods","brand:wikidata":"Q5743472","brand:wikipedia":"en:Heron Foods","contact:website":"https:\/\/heronfoods.com\/storelocator\/store-details\/salford","fhrs:id":"97622","fixme:addr2":"74 Fitzgerald Way","shop":"supermarket","source:addr":"FHRS Open Data"}}, "geometry":{"type":"Point","coordinates":[-2.2884,53.48837 ]}},
{ "type":"Feature","properties":{"osm_id":"5982168667","name":"Cheeni Supermarket","other":{"addr:city":"Trafford","addr:housenumber":"100","addr:postcode":"M15 4AN","addr:street":"Chorlton Road","shop":"supermarket"}}, "geometry":{"type":"Point","coordinates":[-2.25828,53.46197 ]}},
{ "type":"Feature","properties":{"osm_id":"6111002737","name":"Co-op Food","other":{"addr:city":"Manchester","addr:country":"GB","addr:housename":"Unit 12","addr:housenumber":"12","addr:postcode":"M15 6PB","addr:street":"Manchester Business School","brand":"Co-op Food","brand:wikidata":"Q3277439","brand:wikipedia":"en:Co-op Food","opening_hours":"Mo-Su 06:00-23:00","operator":"The Co-operative Group","operator:wikidata":"Q117202","operator:wikipedia":"en:The Co-operative Group","shop":"supermarket"}}, "geometry":{"type":"Point","coordinates":[-2.23554,53.46815 ]}},
{ "type":"Feature","properties":{"osm_id":"6150108373","name":"Booths","other":{"addr:city":"Altrincham","addr:country":"GB","addr:housename":"The Square","addr:postcode":"WA15 8ST","addr:street":"Hale Road","addr:unit":"1","addr:village":"Hale Barns","brand":"Booths","brand:wikidata":"Q4943949","brand:wikipedia":"en:Booths","contact:website":"https:\/\/www.booths.co.uk\/store\/hale-barns\/","fhrs:id":"740408","shop":"supermarket","wheelchair":"yes"}}, "geometry":{"type":"Point","coordinates":[-2.31412,53.36906 ]}},
{ "type":"Feature","properties":{"osm_id":"6170351736","name":"Global African Ltd","other":{"addr:city":"Manchester","addr:country":"GB","addr:housenumber":"78","addr:postcode":"M15 5JP","addr:street":"Hulme High Street","shop":"supermarket"}}, "geometry":{"type":"Point","coordinates":[-2.24848,53.46094 ]}},
{ "type":"Feature","properties":{"osm_id":"6170351737","name":"Hulme Manchester Superstore","other":{"addr:city":"Manchester","addr:country":"GB","addr:housenumber":"110","addr:postcode":"M15 5JP","addr:street":"Hulme High Street","shop":"supermarket"}}, "geometry":{"type":"Point","coordinates":[-2.24848,53.46085 ]}},
{ "type":"Feature","properties":{"osm_id":"6206514204","name":"Co-op","other":{"addr:city":"Manchester","operator":"Co-Op","shop":"supermarket","wheelchair":"yes"}}, "geometry":{"type":"Point","coordinates":[-2.2556,53.41063 ]}},
{ "type":"Feature","properties":{"osm_id":"6304435476","name":"M&S Foodhall","other":{"addr:city":"Manchester","addr:country":"GB","addr:housenumber":"Unit 1","addr:postcode":"M3 3EB","addr:street":"Spinningfields","brand":"M&S Foodhall","brand:wikidata":"Q714491","brand:wikipedia":"en:Marks & Spencer","phone":"+44 161 9336634","shop":"supermarket"}}, "geometry":{"type":"Point","coordinates":[-2.25283,53.4791 ]}},
{ "type":"Feature","properties":{"osm_id":"6322874331","name":"Cool Country Polski Sklep","other":{"addr:city":"Manchester","addr:housenumber":"45","addr:postcode":"M16 9NH","addr:street":"Ayres Road","fhrs:id":"92138","shop":"supermarket","source:addr":"FHRS Open Data"}}, "geometry":{"type":"Point","coordinates":[-2.26386,53.45915 ]}},
{ "type":"Feature","properties":{"osm_id":"6329231752","name":"Warka Polish Delikatessen","other":{"addr:city":"Manchester","addr:housenumber":"103A","addr:postcode":"M16 7GS","addr:street":"Ayres Road","fhrs:id":"740397","shop":"supermarket","source:addr":"FHRS Open Data"}}, "geometry":{"type":"Point","coordinates":[-2.26801,53.45843 ]}},
{ "type":"Feature","properties":{"osm_id":"6341695672","name":"Manchester Super Store","other":{"addr:city":"Manchester","addr:housenumber":"129","addr:postcode":"M16 9NR","addr:street":"Ayres Road","fhrs:id":"812357","operator":"Badshah","shop":"supermarket","source:addr":"FHRS Open Data"}}, "geometry":{"type":"Point","coordinates":[-2.27074,53.45791 ]}},
{ "type":"Feature","properties":{"osm_id":"6391876501","name":"Morrisons","other":{"addr:city":"Manchester","addr:country":"GB","addr:housenumber":"19-25","addr:postcode":"M1 1LU","addr:street":"Piccadilly","brand":"Morrisons","brand:wikidata":"Q922344","brand:wikipedia":"en:Morrisons","shop":"supermarket"}}, "geometry":{"type":"Point","coordinates":[-2.23663,53.48153 ]}},
{ "type":"Feature","properties":{"osm_id":"6562440941","name":"Heron Foods","other":{"addr:city":"Bolton","addr:country":"GB","addr:housenumber":"150","addr:postcode":"BL2 2HR","addr:street":"Tonge Moor Road","brand":"Heron Foods","brand:wikidata":"Q5743472","brand:wikipedia":"en:Heron Foods","contact:website":"https:\/\/heronfoods.com\/storelocator\/store-details\/tonge-moor","fhrs:id":"1216674","shop":"supermarket"}}, "geometry":{"type":"Point","coordinates":[-2.41197,53.58801 ]}},
{ "type":"Feature","properties":{"osm_id":"6582037585","name":"The Food Warehouse","other":{"brand:wikidata":"Q87263899","shop":"supermarket"}}, "geometry":{"type":"Point","coordinates":[-2.27618,53.57608 ]}},
{ "type":"Feature","properties":{"osm_id":"6945231124","name":"Co-op Food","other":{"brand":"Co-op Food","brand:wikidata":"Q3277439","brand:wikipedia":"en:Co-op Food","shop":"supermarket"}}, "geometry":{"type":"Point","coordinates":[-2.23545,53.48733 ]}},
{ "type":"Feature","properties":{"osm_id":"7093465955","name":"The Food Warehouse","other":{"addr:city":"Wigan","addr:parentstreet":"Worthington Way","addr:postcode":"WN3 6XA","addr:street":"Marus Bridge Retail Park","brand":"The Food Warehouse","brand:wikidata":"Q87263899","fhrs:id":"1130472","shop":"supermarket","source:addr":"FHRS Open Data","website":"https:\/\/www.thefoodwarehouse.com\/store-locator\/wigan"}}, "geometry":{"type":"Point","coordinates":[-2.65435,53.52133 ]}},
{ "type":"Feature","properties":{"osm_id":"7435683155","name":"Salford Off Licence","other":{"addr:city":"Salford","addr:housenumber":"559-563","addr:postcode":"M6 5GY","addr:street":"Liverpool Road","fhrs:id":"133796","shop":"supermarket"}}, "geometry":{"type":"Point","coordinates":[-2.29918,53.48393 ]}},
{ "type":"Feature","properties":{"osm_id":"7448912716","name":"Asda","other":{"addr:city":"Hindley","addr:country":"GB","addr:postcode":"WN2 2QA","addr:street":"Ladies Lane","brand":"Asda","brand:wikidata":"Q297410","brand:wikipedia":"en:Asda","contact:website":"https:\/\/storelocator.asda.com\/north-west\/hindley\/ladies-lane","fhrs:id":"99348","operator":"Asda Stores Ltd","shop":"supermarket"}}, "geometry":{"type":"Point","coordinates":[-2.57706,53.53764 ]}},
{ "type":"Feature","properties":{"osm_id":"7449290084","name":"Asda","other":{"addr:city":"Manchester","addr:country":"GB","addr:postcode":"M46 9JZ","addr:street":"Bolton Road","brand":"Asda","brand:wikidata":"Q297410","brand:wikipedia":"en:Asda","contact:website":"https:\/\/storelocator.asda.com\/north-west\/manchester\/bolton-road-atherton","fhrs:id":"722634","operator":"Asda Stores Ltd","shop":"supermarket"}}, "geometry":{"type":"Point","coordinates":[-2.48514,53.52595 ]}},
{ "type":"Feature","properties":{"osm_id":"7449822779","name":"Asda","other":{"addr:city":"Stockport","addr:country":"GB","addr:housenumber":"23","addr:postcode":"SK4 1JG","addr:street":"Hamilton Square","brand":"Asda","brand:wikidata":"Q297410","brand:wikipedia":"en:Asda","contact:website":"https:\/\/storelocator.asda.com\/north-west\/stockport\/hamilton-square-belmont-shopping-centre","fhrs:id":"102773","operator":"Asda Stores Ltd","shop":"supermarket"}}, "geometry":{"type":"Point","coordinates":[-2.16564,53.416 ]}},
{ "type":"Feature","properties":{"osm_id":"7449856057","name":"Asda","other":{"addr:city":"Swinton","addr:country":"GB","addr:housenumber":"25","addr:postcode":"M27 4BR","addr:street":"Wellington Road","brand":"Asda","brand:wikidata":"Q297410","brand:wikipedia":"en:Asda","contact:website":"https:\/\/storelocator.asda.com\/north-west\/swinton\/15-wellington-road","fhrs:id":"657882","operator":"Asda Stores Ltd","shop":"supermarket"}}, "geometry":{"type":"Point","coordinates":[-2.33723,53.51269 ]}},
{ "type":"Feature","properties":{"osm_id":"7682910413","name":"Aldi","other":{"addr:city":"Bolton","addr:country":"GB","addr:postcode":"BL3 2NB","addr:street":"Vincent Way","brand":"ALDI","brand:wikidata":"Q41171672","brand:wikipedia":"en:Aldi","contact:website":"https:\/\/www.aldi.co.uk\/store\/s-uk-E1183","fhrs:id":"1269890","shop":"supermarket"}}, "geometry":{"type":"Point","coordinates":[-2.41427,53.5661 ]}},
{ "type":"Feature","properties":{"osm_id":"7761183516","name":"The Food Warehouse","other":{"brand":"The Food Warehouse","brand:wikidata":"Q87263899","shop":"supermarket"}}, "geometry":{"type":"Point","coordinates":[-2.63587,53.48623 ]}},
{ "type":"Feature","properties":{"osm_id":"7761183517","name":"Quality Save","other":{"shop":"supermarket"}}, "geometry":{"type":"Point","coordinates":[-2.6362,53.48633 ]}},
{ "type":"Feature","properties":{"osm_id":"7947497572","name":"Aldi","other":{"brand":"ALDI","brand:wikidata":"Q41171672","brand:wikipedia":"en:Aldi","shop":"supermarket"}}, "geometry":{"type":"Point","coordinates":[-2.6648,53.58657 ]}},
{ "type":"Feature","properties":{"osm_id":"8010168008","name":"Aldi","other":{"addr:postcode":"M16 0RP","brand":"ALDI","brand:wikidata":"Q41171672","brand:wikipedia":"en:Aldi","fhrs:id":"1014673","opening_hours":"Mo-Sa 08:00-22:00;Su 11:00-17:00","shop":"supermarket","source:addr":"FHRS Open Data","website":"https:\/\/www.aldi.co.uk\/store\/s-uk-E1227","wheelchair":"yes"}}, "geometry":{"type":"Point","coordinates":[-2.28571,53.46126 ]}},
{ "type":"Feature","properties":{"osm_id":"8137323708","name":"Co-op Food","other":{"brand":"Co-op Food","brand:wikidata":"Q3277439","brand:wikipedia":"en:Co-op Food","shop":"supermarket"}}, "geometry":{"type":"Point","coordinates":[-2.32066,53.42982 ]}},
{ "type":"Feature","properties":{"osm_id":"8175440914","name":"Spar","other":{"addr:city":"Salford","addr:postcode":"M44 6FB","addr:street":"Liverpool Road","brand":"Spar","brand:wikidata":"Q610492","brand:wikipedia":"en:SPAR (retailer)","shop":"supermarket"}}, "geometry":{"type":"Point","coordinates":[-2.40147,53.45665 ]}},
{ "type":"Feature","properties":{"osm_id":"8180057589","name":"The Food Warehouse","other":{"brand":"The Food Warehouse","brand:wikidata":"Q87263899","shop":"supermarket"}}, "geometry":{"type":"Point","coordinates":[-2.28484,53.46095 ]}},
{ "type":"Feature","properties":{"osm_id":"8196598887","name":"Freshers","other":{"addr:city":"Manchester","addr:country":"GB","addr:housenumber":"129","addr:postcode":"M14 7DS","addr:street":"Wilbraham Road","payment:cash":"yes","payment:contactless":"yes","payment:credit_cards":"yes","payment:mastercard":"yes","payment:visa":"yes","phone":"+441612244218","shop":"supermarket"}}, "geometry":{"type":"Point","coordinates":[-2.23197,53.44354 ]}},
{ "type":"Feature","properties":{"osm_id":"8390924627","name":"Quality Save","other":{"shop":"supermarket"}}, "geometry":{"type":"Point","coordinates":[-2.35161,53.38584 ]}},
{ "type":"Feature","properties":{"osm_id":"8450150894","name":"Lidl","other":{"addr:country":"GB","addr:postcode":"BL2 1HE","addr:street":"Manchester Road","brand":"Lidl","brand:wikidata":"Q151954","brand:wikipedia":"en:Lidl","fhrs:id":"1349165","shop":"supermarket","survey:date":"2021-10-09"}}, "geometry":{"type":"Point","coordinates":[-2.41146,53.56165 ]}},
{ "type":"Feature","properties":{"osm_id":"8461464988","name":"Lidl","other":{"addr:country":"GB","addr:postcode":"M29 8PR","addr:street":"Mosley Common Road","brand":"Lidl","brand:wikidata":"Q151954","brand:wikipedia":"en:Lidl","fhrs:id":"1333776","shop":"supermarket"}}, "geometry":{"type":"Point","coordinates":[-2.43203,53.51123 ]}},
{ "type":"Feature","properties":{"osm_id":"8818529520","other":{"amenity":"loading_dock"}}, "geometry":{"type":"Point","coordinates":[-2.29423,53.45899 ]}},
{ "type":"Feature","properties":{"osm_id":"9071200628","other":{"amenity":"parking_entrance"}}, "geometry":{"type":"Point","coordinates":[-2.15564,53.412 ]}},
{ "type":"Feature","properties":{"osm_id":"9115348830","other":{"amenity":"parking_entrance"}}, "geometry":{"type":"Point","coordinates":[-2.15385,53.41694 ]}},
{ "type":"Feature","properties":{"osm_id":"9126058061","name":"Spa","other":{"shop":"supermarket"}}, "geometry":{"type":"Point","coordinates":[-2.54462,53.49757 ]}},
{ "type":"Feature","properties":{"osm_id":"9136056323","name":"Co-op Food","other":{"brand":"Co-op Food","brand:wikidata":"Q3277439","brand:wikipedia":"en:Co-op Food","operator":"The Co-operative Group","operator:wikidata":"Q117202","operator:wikipedia":"en:The Co-operative Group","shop":"supermarket"}}, "geometry":{"type":"Point","coordinates":[-2.58093,53.47428 ]}},
{ "type":"Feature","properties":{"osm_id":"9218020224","name":"Lidl","other":{"addr:country":"GB","addr:housename":"West One Retail Park","addr:postcode":"M50 1ZD","addr:street":"West One Way","addr:unit":"7,8,9A","brand":"Lidl","brand:wikidata":"Q151954","brand:wikipedia":"en:Lidl","fhrs:id":"858007","shop":"supermarket"}}, "geometry":{"type":"Point","coordinates":[-2.32853,53.48286 ]}},
{ "type":"Feature","properties":{"osm_id":"9227338190","name":"Spar","other":{"brand":"Spar","brand:wikidata":"Q610492","brand:wikipedia":"en:SPAR (retailer)","shop":"supermarket"}}, "geometry":{"type":"Point","coordinates":[-2.56452,53.53382 ]}},
{ "type":"Feature","properties":{"osm_id":"9388736894","name":"Home Bargains","other":{"addr:country":"GB","addr:housename":"West One Retail Park","addr:postcode":"M50 1ZD","addr:street":"West One Way","addr:unit":"11,12","brand":"Home Bargains","brand:wikipedia":"en:Home Bargains","shop":"supermarket"}}, "geometry":{"type":"Point","coordinates":[-2.32884,53.48216 ]}},
{ "type":"Feature","properties":{"osm_id":"9388736895","name":"The Food Warehouse","other":{"addr:country":"GB","addr:housename":"West One Retail Park","addr:postcode":"M50 1ZD","addr:street":"West One Way","addr:unit":"10","brand":"The Food Warehouse","brand:wikidata":"Q87263899","brand:wikipedia":"en:The Food Warehouse","shop":"supermarket"}}, "geometry":{"type":"Point","coordinates":[-2.32872,53.48247 ]}},
{ "type":"Feature","properties":{"osm_id":"9514126691","name":"M&S Foodhall","other":{"brand":"M&S Foodhall","brand:wikidata":"Q714491","brand:wikipedia":"en:Marks & Spencer","shop":"supermarket"}}, "geometry":{"type":"Point","coordinates":[-2.65501,53.54463 ]}},
{ "type":"Feature","properties":{"osm_way_id":"4760133","name":"Sainsbury's","building":"retail","shop":"supermarket","other":{"brand":"Sainsbury's","brand:wikidata":"Q152096","brand:wikipedia":"en:Sainsbury's","wheelchair":"yes"}}, "geometry":{"type":"MultiPolygon","coordinates":[[[[-2.32402,53.42598],[-2.32362,53.4265],[-2.32256,53.42624],[-2.32263,53.42613],[-2.32268,53.42611],[-2.32278,53.42595],[-2.32282,53.42594],[-2.32298,53.42572],[-2.32359,53.42587],[-2.32402,53.42598]]]]}},
{ "type":"Feature","properties":{"osm_way_id":"10804706","name":"Asda","building":"retail","shop":"supermarket","other":{"addr:city":"London","addr:country":"GB","addr:housenumber":"1","addr:parentstreet":"Marshall Road","addr:postcode":"E10 5NH","addr:street":"Leyton Mills","branch":"Leyton Mills","brand":"Asda","brand:wikidata":"Q297410","brand:wikipedia":"en:Asda","building:levels":"1","contact:facebook":"https:\/\/www.facebook.com\/asda\/","contact:twitter":"@asda","contact:website":"https:\/\/storelocator.asda.com\/london\/leyton\/marshall-road","fhrs:id":"514237","operator":"Asda Stores Ltd","source:addr":"FHRS Open Data","wheelchair":"yes"}}, "geometry":{"type":"MultiPolygon","coordinates":[[[[-0.01014,51.55655],[-0.00888,51.55707],[-0.00809,51.55629],[-0.00813,51.55627],[-0.00805,51.5562],[-0.00819,51.55615],[-0.00826,51.55622],[-0.00867,51.55605],[-0.00861,51.556],[-0.00929,51.55572],[-0.00931,51.55574],[-0.00958,51.55564],[-0.00976,51.55582],[-0.0095,51.55592],[-0.01014,51.55655]]]]}},
{ "type":"Feature","properties":{"osm_way_id":"24718543","name":"ALDI","building":"yes","shop":"supermarket","other":{"addr:street":"Weybrook Road","brand":"ALDI","brand:wikidata":"Q41171672","brand:wikipedia":"en:Aldi","opening_hours":"Mo-Sa 08:00-21:00; Su 10:00-16:00","operator":"Aldi Süd"}}, "geometry":{"type":"MultiPolygon","coordinates":[[[[-2.18243,53.43395],[-2.18171,53.43419],[-2.18157,53.43404],[-2.1815,53.43406],[-2.18144,53.43401],[-2.18226,53.43375],[-2.18243,53.43395]]]]}},
{ "type":"Feature","properties":{"osm_way_id":"27283250","name":"Tesco Extra","building":"yes","landuse":"retail","shop":"supermarket","other":{"brand":"Tesco Extra","brand:wikidata":"Q25172225","brand:wikipedia":"en:Tesco Extra","layer":"1"}}, "geometry":{"type":"MultiPolygon","coordinates":[[[[-2.34791,53.38601],[-2.34776,53.38599],[-2.34749,53.38596],[-2.34724,53.38594],[-2.34702,53.38592],[-2.34688,53.3859],[-2.34676,53.38589],[-2.34698,53.38514],[-2.34702,53.38495],[-2.34714,53.38496],[-2.34732,53.38498],[-2.34753,53.385],[-2.34768,53.38501],[-2.34769,53.38499],[-2.34763,53.38498],[-2.34773,53.38464],[-2.34784,53.38465],[-2.34778,53.38486],[-2.34791,53.38488],[-2.3479,53.38492],[-2.34796,53.38493],[-2.34794,53.38501],[-2.348,53.38502],[-2.34799,53.38505],[-2.34829,53.38508],[-2.3483,53.38519],[-2.34836,53.38519],[-2.34833,53.38531],[-2.34812,53.38529],[-2.3481,53.38537],[-2.34791,53.38601]]]]}},
{ "type":"Feature","properties":{"osm_way_id":"28028615","name":"Asda","building":"yes","shop":"supermarket","other":{"addr:city":"Stockport","addr:country":"GB","addr:postcode":"SK1 1UA","addr:street":"Warren Street","brand":"Asda","brand:wikidata":"Q297410","brand:wikipedia":"en:Asda","contact:phone":"+44 161 429 9599","contact:website":"https:\/\/storelocator.asda.com\/north-west\/stockport\/warren-street","fhrs:id":"80369","opening_hours":"Mo-Sa 07:00-22:00; Su 10:30-16:30","operator":"Asda Stores Ltd"}}, "geometry":{"type":"MultiPolygon","coordinates":[[[[-2.15667,53.41267],[-2.15659,53.4125],[-2.15642,53.41211],[-2.15633,53.41212],[-2.15629,53.41213],[-2.15627,53.41209],[-2.15592,53.41196],[-2.15579,53.41198],[-2.15564,53.412],[-2.15547,53.41202],[-2.15556,53.41224],[-2.15553,53.41224],[-2.15515,53.4123],[-2.15531,53.41267],[-2.15532,53.41269],[-2.15539,53.41286],[-2.15667,53.41267]]]]}},
{ "type":"Feature","properties":{"osm_way_id":"32337126","name":"Lidl","building":"yes","shop":"supermarket","other":{"brand":"Lidl","brand:wikidata":"Q151954","brand:wikipedia":"en:Lidl"}}, "geometry":{"type":"MultiPolygon","coordinates":[[[[-2.59841,53.47232],[-2.59732,53.4721],[-2.59717,53.47234],[-2.5974,53.47238],[-2.59739,53.47242],[-2.59823,53.4726],[-2.59841,53.47232]]]]}},
{ "type":"Feature","properties":{"osm_way_id":"32466162","name":"Asda","building":"yes","shop":"supermarket","other":{"addr:city":"Warrington","addr:country":"GB","addr:postcode":"WA3 3RW","addr:street":"Edge Green Lane","brand":"Asda","brand:wikidata":"Q297410","brand:wikipedia":"en:Asda","contact:website":"https:\/\/storelocator.asda.com\/north-west\/warrington\/edge-green-lane","fhrs:id":"53431","operator":"Asda Stores Ltd","wheelchair":"yes"}}, "geometry":{"type":"MultiPolygon","coordinates":[[[[-2.60591,53.48105],[-2.60558,53.48087],[-2.60566,53.48083],[-2.60498,53.4805],[-2.60453,53.48082],[-2.60462,53.48086],[-2.6044,53.48101],[-2.60424,53.48115],[-2.60435,53.48125],[-2.60464,53.48139],[-2.60492,53.48152],[-2.60509,53.48152],[-2.60525,53.48142],[-2.60543,53.4813],[-2.6055,53.48133],[-2.60591,53.48105]]]]}},
{ "type":"Feature","properties":{"osm_way_id":"32544342","name":"Asda","building":"yes","shop":"supermarket","other":{"addr:city":"Manchester","addr:country":"GB","addr:housename":"Harpurhey Shopping Centre","addr:postcode":"M9 4DJ","addr:street":"Rochdale Road","brand":"Asda","brand:wikidata":"Q297410","brand:wikipedia":"en:Asda","contact:website":"https:\/\/storelocator.asda.com\/north-west\/manchester\/harpurhey-shopping-centre","fhrs:id":"331129","operator":"Asda Stores Ltd"}}, "geometry":{"type":"MultiPolygon","coordinates":[[[[-2.21106,53.51262],[-2.21128,53.51226],[-2.21139,53.51228],[-2.21166,53.51185],[-2.21061,53.51162],[-2.2105,53.5118],[-2.21014,53.51172],[-2.20999,53.51197],[-2.20989,53.51212],[-2.21028,53.5122],[-2.21011,53.51249],[-2.21044,53.51256],[-2.21048,53.51249],[-2.21106,53.51262]]]]}},
{ "type":"Feature","properties":{"osm_way_id":"32547781","name":"Lidl","building":"yes","shop":"supermarket","other":{"addr:city":"Manchester","addr:postcode":"M9 4DA","addr:street":"Upper Conran Street","brand":"Lidl","brand:wikidata":"Q151954","brand:wikipedia":"en:Lidl","fhrs:id":"331264","source:addr":"FHRS Open Data"}}, "geometry":{"type":"MultiPolygon","coordinates":[[[[-2.20999,53.51197],[-2.20989,53.51212],[-2.2098,53.51227],[-2.20967,53.51224],[-2.2097,53.51219],[-2.20915,53.51207],[-2.20926,53.51188],[-2.20933,53.51178],[-2.20933,53.51178],[-2.20934,53.51177],[-2.20956,53.51181],[-2.20953,53.51187],[-2.20999,53.51197]]]]}},
{ "type":"Feature","properties":{"osm_way_id":"33079389","name":"Aldi","building":"yes","shop":"supermarket","other":{"addr:postcode":"BL6 5QH","addr:street":"Mason Street","brand":"ALDI","brand:wikidata":"Q41171672","brand:wikipedia":"en:Aldi","fhrs:id":"136362","opening_hours":"Mo-Sa 08:00-22:00; Su 10:00-16:00","source:addr":"FHRS Open Data"}}, "geometry":{"type":"MultiPolygon","coordinates":[[[[-2.54991,53.59722],[-2.55016,53.59744],[-2.55081,53.59719],[-2.55056,53.59696],[-2.54991,53.59722]]]]}},
{ "type":"Feature","properties":{"osm_way_id":"34695888","name":"Asda","building":"yes","shop":"supermarket","other":{"addr:city":"Wigan","addr:country":"GB","addr:postcode":"WN3 6XA","addr:street":"Worthington Way","brand":"Asda","brand:wikidata":"Q297410","brand:wikipedia":"en:Asda","contact:website":"https:\/\/storelocator.asda.com\/north-west\/wigan\/wheatlea-industrial-estate","fhrs:id":"254881","operator":"Asda Stores Ltd"}}, "geometry":{"type":"MultiPolygon","coordinates":[[[[-2.65358,53.51872],[-2.65301,53.51874],[-2.65304,53.51906],[-2.65314,53.51906],[-2.65314,53.51903],[-2.65334,53.51903],[-2.65361,53.51901],[-2.65358,53.51872]]]]}},
{ "type":"Feature","properties":{"osm_way_id":"34695921","name":"Sainsbury's","building":"yes","shop":"supermarket","other":{"addr:city":"Wigan","addr:parentstreet":"Worthington Way","addr:postcode":"WN3 6XA","addr:street":"Marus Bridge Retail Park","brand":"Sainsbury's","brand:wikidata":"Q152096","brand:wikipedia":"en:Sainsbury's","fhrs:id":"55429","source:addr":"FHRS Open Data"}}, "geometry":{"type":"MultiPolygon","coordinates":[[[[-2.65608,53.52038],[-2.65558,53.51992],[-2.6553,53.52003],[-2.65514,53.51989],[-2.65412,53.52028],[-2.65477,53.52088],[-2.65608,53.52038]]]]}},
{ "type":"Feature","properties":{"osm_way_id":"38356174","name":"Tesco Extra","building":"yes","shop":"supermarket","other":{"addr:postcode":"WN2 3AT","addr:street":"Cross Street","brand":"Tesco Extra","brand:wikidata":"Q25172225","brand:wikipedia":"en:Tesco Extra","fhrs:id":"53632","operator":"Tesco plc","source:addr":"FHRS Open Data","source:name":"FHRS Open Data"}}, "geometry":{"type":"MultiPolygon","coordinates":[[[[-2.57987,53.53626],[-2.57991,53.53627],[-2.57999,53.53612],[-2.57881,53.53585],[-2.57877,53.5359],[-2.57882,53.5359],[-2.57855,53.53634],[-2.57845,53.53649],[-2.57865,53.53654],[-2.57868,53.53653],[-2.57956,53.53674],[-2.57979,53.53638],[-2.57987,53.53626]]]]}},
{ "type":"Feature","properties":{"osm_way_id":"38416987","name":"Tesco Extra","building":"yes","shop":"supermarket","other":{"brand":"Tesco Extra","brand:wikidata":"Q25172225","brand:wikipedia":"en:Tesco Extra"}}, "geometry":{"type":"MultiPolygon","coordinates":[[[[-2.62583,53.55202],[-2.62573,53.55201],[-2.62575,53.55193],[-2.62566,53.55192],[-2.62567,53.55188],[-2.62551,53.55185],[-2.62554,53.55176],[-2.62528,53.55173],[-2.62524,53.55181],[-2.62497,53.55178],[-2.62499,53.55173],[-2.62492,53.55167],[-2.62473,53.55165],[-2.62474,53.55162],[-2.62468,53.55161],[-2.62468,53.55159],[-2.6246,53.55157],[-2.62446,53.55142],[-2.62456,53.55119],[-2.62438,53.55116],[-2.62449,53.55088],[-2.62478,53.55092],[-2.62527,53.55098],[-2.62538,53.55099],[-2.62537,53.55103],[-2.62616,53.55112],[-2.62583,53.55202]]]]}},
{ "type":"Feature","properties":{"osm_way_id":"40314155","name":"Asda","building":"yes","shop":"supermarket","other":{"addr:city":"Manchester","addr:country":"GB","addr:postcode":"M26 3DA","addr:street":"Pilkington Way","brand":"Asda","brand:wikidata":"Q297410","brand:wikipedia":"en:Asda","contact:website":"https:\/\/storelocator.asda.com\/north-west\/manchester\/riverside-retail-park","fhrs:id":"936711","operator":"Asda Stores Ltd","wheelchair":"yes"}}, "geometry":{"type":"MultiPolygon","coordinates":[[[[-2.32798,53.55692],[-2.3276,53.5573],[-2.32783,53.55738],[-2.32779,53.55742],[-2.32821,53.55757],[-2.32824,53.55753],[-2.32883,53.55774],[-2.32884,53.55773],[-2.32898,53.55778],[-2.32916,53.5576],[-2.32925,53.55763],[-2.32935,53.55754],[-2.32926,53.5575],[-2.3293,53.55746],[-2.32917,53.55741],[-2.32939,53.55719],[-2.32918,53.55712],[-2.32921,53.55709],[-2.32916,53.55708],[-2.32922,53.55702],[-2.32906,53.55696],[-2.3291,53.55692],[-2.32867,53.55677],[-2.32848,53.55695],[-2.32826,53.55687],[-2.32824,53.55689],[-2.32814,53.55686],[-2.32805,53.55695],[-2.32798,53.55692]]]]}},
{ "type":"Feature","properties":{"osm_way_id":"40549113","name":"Morrisons","building":"yes","shop":"supermarket","other":{"addr:postcode":"SK3 0RJ","addr:street":"Edgley Road","brand":"Morrisons","brand:wikidata":"Q922344","brand:wikipedia":"en:Morrisons","opening_hours":"Mo-Sa 07:00-11:00; Su 10:00-16:00","website":"https:\/\/my.morrisons.com\/storefinder\/122"}}, "geometry":{"type":"MultiPolygon","coordinates":[[[[-2.1896,53.40172],[-2.18908,53.4019],[-2.18917,53.40199],[-2.18899,53.40206],[-2.18816,53.40117],[-2.18922,53.40078],[-2.18941,53.40095],[-2.18932,53.40098],[-2.18968,53.40136],[-2.18951,53.40142],[-2.18957,53.40148],[-2.18952,53.40158],[-2.18949,53.40159],[-2.1896,53.40172]]]]}},
{ "type":"Feature","properties":{"osm_way_id":"55037504","name":"Asda","building":"yes","shop":"supermarket","other":{"addr:city":"Leigh","addr:country":"GB","addr:postcode":"WN7 5RZ","addr:street":"Atherleigh Way","brand":"Asda","brand:wikidata":"Q297410","brand:wikipedia":"en:Asda","contact:website":"https:\/\/storelocator.asda.com\/north-west\/leigh\/atherleigh-way","fhrs:id":"671624","opening_hours":"00:00-24:00","operator":"Asda Stores Ltd"}}, "geometry":{"type":"MultiPolygon","coordinates":[[[[-2.52561,53.50322],[-2.52455,53.50323],[-2.52455,53.50342],[-2.52456,53.50359],[-2.52442,53.50359],[-2.52433,53.50359],[-2.52433,53.50375],[-2.52442,53.50375],[-2.52443,53.50389],[-2.52456,53.50389],[-2.52457,53.50436],[-2.52566,53.50435],[-2.52566,53.50433],[-2.52564,53.5034],[-2.52588,53.5034],[-2.52588,53.50317],[-2.52561,53.50317],[-2.52561,53.50322]]]]}},
{ "type":"Feature","properties":{"osm_way_id":"55136516","name":"Asda","building":"yes","shop":"supermarket","other":{"addr:city":"Farnworth","addr:country":"GB","addr:postcode":"BL4 9DT","addr:street":"Brackley Street","brand":"Asda","brand:wikidata":"Q297410","brand:wikipedia":"en:Asda","contact:phone":"+44 1204 709809","contact:website":"https:\/\/storelocator.asda.com\/north-west\/bolton\/brackley-street-farnworth","fhrs:id":"89295","operator":"Asda Stores Ltd","wheelchair":"yes"}}, "geometry":{"type":"MultiPolygon","coordinates":[[[[-2.39715,53.54753],[-2.39707,53.54733],[-2.39639,53.54743],[-2.39638,53.54739],[-2.39623,53.54741],[-2.39583,53.54747],[-2.39592,53.54768],[-2.39596,53.54768],[-2.39598,53.54772],[-2.39603,53.54771],[-2.39615,53.54799],[-2.39628,53.54797],[-2.39634,53.54812],[-2.39668,53.54808],[-2.39666,53.54804],[-2.39702,53.54799],[-2.39701,53.54796],[-2.39719,53.54794],[-2.39717,53.54789],[-2.39728,53.54787],[-2.39721,53.54771],[-2.39747,53.54767],[-2.39743,53.54756],[-2.39754,53.54755],[-2.39751,53.54746],[-2.39739,53.54748],[-2.39739,53.5475],[-2.39715,53.54753]]]]}},
{ "type":"Feature","properties":{"osm_way_id":"55212486","name":"Asda","building":"retail","shop":"supermarket","other":{"addr:city":"Bury","addr:country":"GB","addr:postcode":"BL9 0RN","addr:street":"Spring Street","brand":"Asda","brand:wikidata":"Q297410","brand:wikipedia":"en:Asda","contact:website":"https:\/\/storelocator.asda.com\/north-west\/bury\/spring-street","fhrs:id":"893989","opening_hours":"Mo-Sa 07:00-22:00; Su 11:00-17:00","operator":"Asda Stores Ltd"}}, "geometry":{"type":"MultiPolygon","coordinates":[[[[-2.29217,53.59159],[-2.29163,53.59131],[-2.29076,53.59188],[-2.29131,53.59217],[-2.29217,53.59159]]]]}},
{ "type":"Feature","properties":{"osm_way_id":"55600447","name":"Asda","building":"retail","shop":"supermarket","other":{"addr:city":"Wigan","addr:country":"GB","addr:postcode":"WN5 0XA","addr:street":"Soho Street","brand":"Asda","brand:wikidata":"Q297410","brand:wikipedia":"en:Asda","contact:website":"https:\/\/storelocator.asda.com\/north-west\/wigan\/soho-street-robin-park","fhrs:id":"55230","operator":"Asda Stores Ltd"}}, "geometry":{"type":"MultiPolygon","coordinates":[[[[-2.65199,53.54255],[-2.6524,53.54298],[-2.65165,53.54323],[-2.6518,53.54339],[-2.65133,53.54355],[-2.65125,53.54362],[-2.65118,53.54359],[-2.65106,53.54364],[-2.65101,53.54372],[-2.65092,53.54367],[-2.65078,53.54371],[-2.65085,53.54376],[-2.65072,53.54389],[-2.65052,53.54395],[-2.65044,53.54385],[-2.65018,53.54393],[-2.64962,53.54332],[-2.64997,53.54321],[-2.64995,53.54318],[-2.64986,53.54309],[-2.65099,53.5427],[-2.6511,53.54284],[-2.65154,53.54269],[-2.65148,53.54261],[-2.65156,53.54259],[-2.65151,53.54254],[-2.65169,53.54249],[-2.65171,53.54252],[-2.65174,53.54254],[-2.65179,53.54252],[-2.65185,53.5426],[-2.65199,53.54255]]]]}},
{ "type":"Feature","properties":{"osm_way_id":"55952848","name":"Aldi","building":"yes","shop":"supermarket","other":{"addr:postcode":"BL3 6DH","addr:street":"Trinity Street","brand":"ALDI","brand:wikidata":"Q41171672","brand:wikipedia":"en:Aldi","fhrs:id":"70905","source:addr":"FHRS Open Data","wheelchair":"yes"}}, "geometry":{"type":"MultiPolygon","coordinates":[[[[-2.43332,53.57324],[-2.43281,53.57323],[-2.43278,53.5737],[-2.43329,53.57371],[-2.43332,53.57324]]]]}},
{ "type":"Feature","properties":{"osm_way_id":"55953717","name":"Sainsbury's","building":"yes","shop":"supermarket","other":{"addr:postcode":"BL3 6DG","addr:street":"Trinity Street","brand":"Sainsbury's","brand:wikidata":"Q152096","brand:wikipedia":"en:Sainsbury's","fhrs:id":"52205","source:addr":"FHRS Open Data","toilets:wheelchair":"yes","website":"https:\/\/stores.sainsburys.co.uk\/2835\/bolton","wheelchair":"yes"}}, "geometry":{"type":"MultiPolygon","coordinates":[[[[-2.43024,53.57231],[-2.43022,53.57243],[-2.43046,53.57244],[-2.43045,53.57251],[-2.4302,53.57249],[-2.43011,53.57296],[-2.42962,53.57293],[-2.42959,53.57308],[-2.42858,53.573],[-2.42861,53.57284],[-2.42866,53.57284],[-2.42877,53.57233],[-2.42903,53.57223],[-2.43024,53.57231]]]]}},
{ "type":"Feature","properties":{"osm_way_id":"56249607","name":"Morrisons","building":"yes","shop":"supermarket","other":{"addr:city":"Bolton","addr:postcode":"BL2 6QT","addr:street":"Bury Road","brand":"Morrisons","brand:wikidata":"Q922344","brand:wikipedia":"en:Morrisons","fhrs:id":"66562"}}, "geometry":{"type":"MultiPolygon","coordinates":[[[[-2.38492,53.58099],[-2.38421,53.58087],[-2.38414,53.5809],[-2.38406,53.58106],[-2.38488,53.58119],[-2.38491,53.58114],[-2.38486,53.58113],[-2.38492,53.58099]]]]}},
{ "type":"Feature","properties":{"osm_way_id":"60738436","name":"Tesco","building":"yes","shop":"supermarket","other":{"brand":"Tesco","brand:wikidata":"Q487494","brand:wikipedia":"en:Tesco","parking":"rooftop","wheelchair":"yes"}}, "geometry":{"type":"MultiPolygon","coordinates":[[[[-2.32441,53.42476],[-2.32461,53.42458],[-2.32463,53.42459],[-2.32468,53.42461],[-2.32472,53.42462],[-2.32492,53.4247],[-2.32539,53.42427],[-2.32535,53.42413],[-2.32454,53.42381],[-2.32428,53.42405],[-2.32415,53.42416],[-2.32413,53.42419],[-2.3241,53.42421],[-2.32377,53.42451],[-2.32387,53.42455],[-2.32441,53.42476]]]]}},
{ "type":"Feature","properties":{"osm_way_id":"60738437","name":"Marks & Spencer","building":"yes","shop":"supermarket","other":{"brand":"Marks & Spencer","brand:wikidata":"Q714491","wheelchair":"yes"}}, "geometry":{"type":"MultiPolygon","coordinates":[[[[-2.32608,53.42466],[-2.32629,53.42448],[-2.3263,53.42447],[-2.3263,53.42447],[-2.32629,53.42446],[-2.32628,53.42446],[-2.32627,53.42446],[-2.32626,53.42446],[-2.32623,53.42446],[-2.32628,53.42442],[-2.32605,53.42432],[-2.32608,53.4243],[-2.3259,53.42422],[-2.32588,53.42425],[-2.32585,53.42424],[-2.32582,53.42426],[-2.32577,53.42424],[-2.32568,53.42431],[-2.32569,53.42431],[-2.32578,53.42435],[-2.32565,53.42446],[-2.32563,53.42448],[-2.32608,53.42466]]]]}},
{ "type":"Feature","properties":{"osm_way_id":"60756823","name":"Unicorn Grocery","building":"yes","shop":"supermarket","other":{"addr:city":"Manchester","addr:housenumber":"89","addr:postcode":"M21 0BN","addr:street":"Albany Road","diet:vegan":"yes","phone":"+44 161 861 0010","website":"https:\/\/www.unicorn-grocery.co.uk\/","wheelchair":"yes","wikipedia":"en:Unicorn Grocery"}}, "geometry":{"type":"MultiPolygon","coordinates":[[[[-2.27723,53.44681],[-2.27705,53.44652],[-2.27706,53.4465],[-2.27696,53.44649],[-2.27668,53.44676],[-2.27704,53.44683],[-2.27706,53.44678],[-2.27723,53.44681]]]]}},
{ "type":"Feature","properties":{"osm_way_id":"60966559","name":"Sainsbury's Ashton Moss","building":"yes","shop":"supermarket","other":{"addr:city":"Ashton-Under-Lyne","addr:housenumber":"2","addr:postcode":"OL6 7UB","addr:street":"Lord Sheldon Way","brand":"Sainsbury's","brand:wikidata":"Q152096","brand:wikipedia":"en:Sainsbury's","fhrs:id":"28387","opening_hours":"Mo-Fr 07:00-23:00, Sa 07:00-22:00, Su 11:00-17:00","source:addr":"FHRS Open Data","website":"https:\/\/stores.sainsburys.co.uk\/2054\/ashton-moss","wheelchair":"yes"}}, "geometry":{"type":"MultiPolygon","coordinates":[[[[-2.10657,53.49156],[-2.10662,53.49111],[-2.1052,53.49109],[-2.10514,53.49177],[-2.10654,53.49181],[-2.10657,53.49156]]]]}},
{ "type":"Feature","properties":{"osm_way_id":"64047746","name":"Tesco","building":"yes","shop":"supermarket","other":{"brand":"Tesco","brand:wikidata":"Q487494","brand:wikipedia":"en:Tesco"}}, "geometry":{"type":"MultiPolygon","coordinates":[[[[-2.12683,53.54589],[-2.12673,53.54563],[-2.12655,53.54516],[-2.12563,53.54529],[-2.12553,53.54505],[-2.12513,53.5451],[-2.12551,53.54607],[-2.12683,53.54589]]]]}},
{ "type":"Feature","properties":{"osm_way_id":"78144699","name":"Asda","building":"retail","shop":"supermarket","other":{"addr:city":"Ashton-Under-Lyne","addr:country":"GB","addr:postcode":"OL6 7PF","addr:street":"Cavendish Street","brand":"Asda","brand:wikidata":"Q297410","brand:wikipedia":"en:Asda","contact:website":"https:\/\/storelocator.asda.com\/north-west\/ashton-under-lyne\/cavendish-street","fhrs:id":"4726","operator":"Asda Stores Ltd"}}, "geometry":{"type":"MultiPolygon","coordinates":[[[[-2.09587,53.4847],[-2.09563,53.48441],[-2.09453,53.48475],[-2.09457,53.48479],[-2.09439,53.48484],[-2.09429,53.48482],[-2.09418,53.48498],[-2.09426,53.48506],[-2.0942,53.48514],[-2.09426,53.48521],[-2.0943,53.48526],[-2.09443,53.48525],[-2.09463,53.48548],[-2.09482,53.48542],[-2.09476,53.48535],[-2.09479,53.48534],[-2.09512,53.4857],[-2.09579,53.48549],[-2.09591,53.48545],[-2.09583,53.48535],[-2.09599,53.4853],[-2.09568,53.48496],[-2.09581,53.48492],[-2.09586,53.48495],[-2.09594,53.48492],[-2.09578,53.48472],[-2.09587,53.4847]]]]}},
{ "type":"Feature","properties":{"osm_way_id":"78144702","name":"Lidl","building":"yes","shop":"supermarket","other":{"brand":"Lidl","brand:wikidata":"Q151954","brand:wikipedia":"en:Lidl"}}, "geometry":{"type":"MultiPolygon","coordinates":[[[[-2.09856,53.48639],[-2.09836,53.48612],[-2.09762,53.48632],[-2.09761,53.48635],[-2.09781,53.48663],[-2.09813,53.48654],[-2.09811,53.48651],[-2.09856,53.48639]]]]}},
{ "type":"Feature","properties":{"osm_way_id":"79499239","name":"Morrisons","building":"supermarket","shop":"supermarket","other":{"addr:city":"Hyde","addr:postcode":"SK14 2NG","addr:street":"Mottram Road","brand":"Morrisons","brand:wikidata":"Q922344","brand:wikipedia":"en:Morrisons","fhrs:id":"14054","source:addr":"FHRS Open Data","wheelchair":"yes"}}, "geometry":{"type":"MultiPolygon","coordinates":[[[[-2.07564,53.45224],[-2.07529,53.45203],[-2.07488,53.4521],[-2.07466,53.4517],[-2.07362,53.45187],[-2.07404,53.45271],[-2.07513,53.45251],[-2.07564,53.45224]]]]}},
{ "type":"Feature","properties":{"osm_way_id":"80129127","name":"Tesco Extra","building":"yes","shop":"supermarket","other":{"addr:city":"Stockport","addr:housename":"Tesco Stores Ltd","addr:postcode":"SK1 2BT","addr:street":"Tiviot Way","branch":"Stockport","brand":"Tesco Extra","brand:wikidata":"Q25172225","brand:wikipedia":"en:Tesco Extra","wheelchair":"yes"}}, "geometry":{"type":"MultiPolygon","coordinates":[[[[-2.15396,53.41696],[-2.15385,53.41694],[-2.15376,53.41692],[-2.15372,53.41703],[-2.15287,53.41689],[-2.15291,53.41681],[-2.15262,53.41677],[-2.1527,53.4166],[-2.1529,53.41617],[-2.1528,53.41616],[-2.15276,53.41615],[-2.15277,53.41612],[-2.15274,53.41611],[-2.15281,53.41596],[-2.15284,53.41597],[-2.15286,53.41593],[-2.1529,53.41594],[-2.15299,53.41595],[-2.15303,53.41585],[-2.15431,53.41606],[-2.15405,53.41662],[-2.15411,53.41664],[-2.15396,53.41696]]]]}},
{ "type":"Feature","properties":{"osm_way_id":"83674888","name":"Tesco","building":"retail","shop":"supermarket","other":{"brand":"Tesco","brand:wikidata":"Q487494","brand:wikipedia":"en:Tesco"}}, "geometry":{"type":"MultiPolygon","coordinates":[[[[-2.05395,53.48231],[-2.05373,53.48205],[-2.05361,53.48209],[-2.05358,53.48205],[-2.05216,53.48249],[-2.05212,53.48261],[-2.05226,53.48277],[-2.05233,53.48275],[-2.0524,53.48282],[-2.05245,53.4828],[-2.05253,53.4829],[-2.05262,53.48288],[-2.05263,53.48289],[-2.05394,53.48248],[-2.05383,53.48234],[-2.05395,53.48231]]]]}},
{ "type":"Feature","properties":{"osm_way_id":"84171991","name":"Tesco","building":"retail","shop":"supermarket","other":{"addr:city":"Bolton","addr:housename":"Tesco","addr:postcode":"BL3 1AA","addr:street":"Crossley Street","brand":"Tesco","brand:wikidata":"Q487494","brand:wikipedia":"en:Tesco","contact:website":"https:\/\/www.tesco.com\/store-locator\/bolton\/crossley-st","opening_hours":"07:00-23:00","operator":"tesco"}}, "geometry":{"type":"MultiPolygon","coordinates":[[[[-2.37349,53.56443],[-2.37344,53.5644],[-2.37327,53.56428],[-2.37331,53.56426],[-2.37328,53.56424],[-2.37325,53.56425],[-2.37317,53.5642],[-2.3731,53.56416],[-2.37301,53.56409],[-2.37228,53.56447],[-2.37277,53.56481],[-2.37349,53.56443]]]]}},
{ "type":"Feature","properties":{"osm_way_id":"93930153","name":"Asda","building":"yes","shop":"supermarket","other":{"addr:city":"Manchester","addr:country":"GB","addr:postcode":"M41 7ZA","addr:street":"Traders Avenue","brand":"Asda","brand:wikidata":"Q297410","brand:wikipedia":"en:Asda","contact:website":"https:\/\/storelocator.asda.com\/north-west\/manchester\/barton-dock-road","fhrs:id":"49938","operator":"Asda Stores Ltd","wheelchair":"limited"}}, "geometry":{"type":"MultiPolygon","coordinates":[[[[-2.34554,53.46946],[-2.34539,53.4694],[-2.34532,53.46945],[-2.3453,53.46944],[-2.34523,53.4695],[-2.34521,53.46952],[-2.34514,53.46953],[-2.34508,53.4695],[-2.34484,53.46945],[-2.34481,53.46944],[-2.3449,53.46936],[-2.34486,53.46934],[-2.34477,53.46941],[-2.34463,53.46935],[-2.34461,53.46937],[-2.34449,53.46932],[-2.34445,53.46935],[-2.34431,53.46929],[-2.34436,53.46925],[-2.34457,53.46925],[-2.34457,53.46922],[-2.34445,53.46922],[-2.34445,53.46917],[-2.34434,53.46916],[-2.34434,53.46912],[-2.34401,53.46898],[-2.34417,53.46885],[-2.34415,53.46884],[-2.34464,53.46844],[-2.34478,53.4685],[-2.34489,53.46841],[-2.34511,53.4685],[-2.34515,53.46847],[-2.34537,53.46856],[-2.34533,53.46859],[-2.34579,53.46879],[-2.34577,53.46881],[-2.34611,53.46895],[-2.34601,53.46903],[-2.34605,53.46904],[-2.34554,53.46946]]]]}},
{ "type":"Feature","properties":{"osm_way_id":"94366408","name":"Morrisons","building":"yes","shop":"supermarket","other":{"addr:city":"Salford","addr:housenumber":"7","addr:postcode":"M30 0FH","addr:street":"Irwell Place","brand":"Morrisons","brand:wikidata":"Q922344","brand:wikipedia":"en:Morrisons","fhrs:id":"91838","website":"https:\/\/my.morrisons.com\/storefinder\/28"}}, "geometry":{"type":"MultiPolygon","coordinates":[[[[-2.33518,53.48233],[-2.33518,53.48243],[-2.33523,53.48243],[-2.33523,53.48245],[-2.33524,53.48252],[-2.33519,53.48252],[-2.33521,53.48267],[-2.3353,53.4829],[-2.33515,53.48292],[-2.33514,53.48291],[-2.33502,53.48293],[-2.33502,53.48292],[-2.33486,53.48295],[-2.33487,53.48296],[-2.33474,53.48298],[-2.33473,53.48296],[-2.33454,53.48299],[-2.33455,53.48301],[-2.33443,53.48302],[-2.33442,53.48301],[-2.33423,53.48304],[-2.33423,53.48305],[-2.33411,53.48307],[-2.33389,53.48249],[-2.33388,53.48248],[-2.33429,53.48242],[-2.33498,53.48232],[-2.33518,53.48233]]]]}},
{ "type":"Feature","properties":{"osm_way_id":"96336848","name":"Tesco Extra","building":"yes","shop":"supermarket","other":{"branch":"Baguley","brand":"Tesco Extra","brand:wikidata":"Q25172225","brand:wikipedia":"en:Tesco Extra"}}, "geometry":{"type":"MultiPolygon","coordinates":[[[[-2.29728,53.40016],[-2.29717,53.40016],[-2.29716,53.39989],[-2.29716,53.39987],[-2.29704,53.39987],[-2.29704,53.39983],[-2.29657,53.39984],[-2.29657,53.39979],[-2.29678,53.39979],[-2.29678,53.39977],[-2.2968,53.39977],[-2.2968,53.39976],[-2.29674,53.39976],[-2.29674,53.3997],[-2.29657,53.3997],[-2.29657,53.39968],[-2.29656,53.39968],[-2.29611,53.39969],[-2.29613,53.40022],[-2.29607,53.40022],[-2.29608,53.4004],[-2.29612,53.4004],[-2.29613,53.40069],[-2.29621,53.40068],[-2.29621,53.40078],[-2.29723,53.40077],[-2.29723,53.40066],[-2.2973,53.40066],[-2.29728,53.40016]]]]}},
{ "type":"Feature","properties":{"osm_way_id":"102581144","name":"Co-op","building":"yes","shop":"supermarket","other":{"wheelchair":"yes"}}, "geometry":{"type":"MultiPolygon","coordinates":[[[[-2.04805,53.51864],[-2.0479,53.51852],[-2.0478,53.51856],[-2.04756,53.51848],[-2.0475,53.51854],[-2.04754,53.51855],[-2.04739,53.51872],[-2.04783,53.51886],[-2.04805,53.51864]]]]}},
{ "type":"Feature","properties":{"osm_way_id":"103422530","name":"Tesco","building":"retail","shop":"supermarket","other":{"addr:postcode":"OL3 7AF","addr:street":"Chew Valley Road","alt_name":"Tesco Greenfield Superstore","brand":"Tesco","brand:wikidata":"Q487494","brand:wikipedia":"en:Tesco","building:levels":"1","fhrs:id":"122850","nohousenumber":"yes","opening_hours":"Su 10:00-16:00","roof:levels":"0","roof:shape":"flat"}}, "geometry":{"type":"MultiPolygon","coordinates":[[[[-2.01121,53.53885],[-2.01062,53.53857],[-2.01011,53.53895],[-2.01059,53.53918],[-2.01054,53.53923],[-2.01049,53.5392],[-2.01044,53.53924],[-2.01049,53.53926],[-2.01044,53.5393],[-2.01053,53.53934],[-2.01121,53.53885]]]]}},
{ "type":"Feature","properties":{"osm_way_id":"114093753","name":"Morrisons","building":"yes","shop":"supermarket","other":{"brand":"Morrisons","brand:wikidata":"Q922344","brand:wikipedia":"en:Morrisons"}}, "geometry":{"type":"MultiPolygon","coordinates":[[[[-2.11993,53.42331],[-2.11969,53.42283],[-2.11981,53.4228],[-2.11967,53.42253],[-2.11911,53.42263],[-2.11915,53.42272],[-2.1185,53.42283],[-2.11862,53.42309],[-2.11876,53.42306],[-2.11885,53.42326],[-2.11873,53.42328],[-2.11884,53.4235],[-2.11993,53.42331]]]]}},
{ "type":"Feature","properties":{"osm_way_id":"116596689","name":"Co-op Food","building":"yes","shop":"supermarket","other":{"brand":"Co-op Food","brand:wikidata":"Q3277439","brand:wikipedia":"en:Co-op Food"}}, "geometry":{"type":"MultiPolygon","coordinates":[[[[-2.23379,53.3705],[-2.2338,53.37043],[-2.23385,53.37043],[-2.23388,53.37026],[-2.23383,53.37026],[-2.23384,53.37021],[-2.23354,53.37019],[-2.23349,53.37048],[-2.23379,53.3705]]]]}},
{ "type":"Feature","properties":{"osm_way_id":"116596694","name":"Sainsbury's","building":"retail","shop":"supermarket","other":{"brand":"Sainsbury's","brand:wikidata":"Q152096","brand:wikipedia":"en:Sainsbury's"}}, "geometry":{"type":"MultiPolygon","coordinates":[[[[-2.21517,53.37628],[-2.21526,53.37669],[-2.21523,53.37669],[-2.21526,53.37682],[-2.21529,53.37681],[-2.21529,53.37685],[-2.21555,53.37683],[-2.21554,53.37678],[-2.21637,53.37671],[-2.21636,53.37664],[-2.21687,53.3766],[-2.21684,53.37645],[-2.21675,53.37645],[-2.21677,53.37652],[-2.21669,53.37652],[-2.21662,53.37624],[-2.21646,53.37625],[-2.21639,53.37595],[-2.21661,53.37593],[-2.21657,53.37579],[-2.21523,53.3759],[-2.21519,53.37588],[-2.21518,53.37583],[-2.21506,53.37584],[-2.21506,53.37586],[-2.21494,53.37587],[-2.21497,53.37602],[-2.21501,53.37616],[-2.21502,53.37618],[-2.21504,53.37619],[-2.21507,53.37619],[-2.2151,53.37619],[-2.21512,53.37628],[-2.21517,53.37628]]]]}},
{ "type":"Feature","properties":{"osm_way_id":"127541191","name":"Gee Tees","building":"retail","shop":"supermarket","other":{"wheelchair":"yes"}}, "geometry":{"type":"MultiPolygon","coordinates":[[[[-2.52228,53.54809],[-2.52233,53.54789],[-2.52282,53.54793],[-2.52277,53.54813],[-2.52228,53.54809]]]]}},
{ "type":"Feature","properties":{"osm_way_id":"129561206","name":"Asda","building":"yes","shop":"supermarket","other":{"addr:country":"GB","addr:housenumber":"701","addr:postcode":"M12 4QN","addr:street":"Stockport Road","brand":"Asda","brand:wikidata":"Q297410","brand:wikipedia":"en:Asda","contact:website":"https:\/\/storelocator.asda.com\/north-west\/levenshulme\/701-stockport-road","opening_hours":"Mo-Sa 08:00-20:00; Su 10:00-16:00","operator":"Asda Stores Ltd","wheelchair":"yes"}}, "geometry":{"type":"MultiPolygon","coordinates":[[[[-2.19222,53.44946],[-2.19231,53.44964],[-2.19163,53.44977],[-2.19154,53.44959],[-2.19222,53.44946]]]]}},
{ "type":"Feature","properties":{"osm_way_id":"129834883","name":"Asda","building":"yes","shop":"supermarket","other":{"addr:city":"Manchester","addr:country":"GB","addr:housenumber":"100","addr:postcode":"M15 5AS","addr:street":"Princess Road","alt_name":"Asda Hulme Superstore","brand":"Asda","brand:wikidata":"Q297410","brand:wikipedia":"en:Asda","contact:website":"https:\/\/storelocator.asda.com\/north-west\/manchester\/100-princess-road","operator":"Asda Stores Ltd","toilets:wheelchair":"yes","wheelchair":"yes"}}, "geometry":{"type":"MultiPolygon","coordinates":[[[[-2.24553,53.46066],[-2.24598,53.46068],[-2.24599,53.4606],[-2.246,53.46058],[-2.2465,53.4606],[-2.2465,53.46069],[-2.24682,53.4607],[-2.24681,53.46082],[-2.24683,53.46082],[-2.24679,53.4611],[-2.24678,53.46134],[-2.24677,53.46146],[-2.24651,53.46146],[-2.24643,53.46145],[-2.24628,53.46145],[-2.24619,53.46145],[-2.24571,53.46144],[-2.24571,53.46132],[-2.24547,53.46131],[-2.24544,53.46131],[-2.24548,53.46078],[-2.24552,53.46078],[-2.24553,53.46068],[-2.24553,53.46066]]]]}},
{ "type":"Feature","properties":{"osm_way_id":"130205125","name":"Sainsbury's","building":"yes","shop":"supermarket","other":{"brand":"Sainsbury's","brand:wikidata":"Q152096","wheelchair":"yes"}}, "geometry":{"type":"MultiPolygon","coordinates":[[[[-2.1328,53.45519],[-2.13339,53.45457],[-2.13275,53.45434],[-2.13227,53.45433],[-2.13227,53.4545],[-2.13199,53.4545],[-2.13181,53.45468],[-2.13165,53.45464],[-2.13142,53.45486],[-2.13245,53.4552],[-2.13254,53.4551],[-2.1328,53.45519]]]]}},
{ "type":"Feature","properties":{"osm_way_id":"134636415","name":"Asda","building":"yes","shop":"supermarket","other":{"addr:city":"Manchester","addr:country":"GB","addr:postcode":"M22 5HZ","brand":"Asda","brand:wikidata":"Q297410","brand:wikipedia":"en:Asda","contact:website":"https:\/\/storelocator.asda.com\/north-west\/manchester\/1-swan-walk-civic-centre-wythenshawe","fhrs:id":"331284","layer":"-1","opening_hours":"Mo,Sa 07:00-22:00; Tu-Fr 06:00-22:00; Su 10:00-16:00","operator":"Asda Stores Ltd"}}, "geometry":{"type":"MultiPolygon","coordinates":[[[[-2.26271,53.37867],[-2.2617,53.37853],[-2.26159,53.37852],[-2.26154,53.37863],[-2.26142,53.37893],[-2.26138,53.37903],[-2.26252,53.37919],[-2.26271,53.37867]]]]}},
{ "type":"Feature","properties":{"osm_way_id":"135756109","name":"ALDI","building":"yes","shop":"supermarket","other":{"brand":"ALDI","brand:wikidata":"Q41171672","brand:wikipedia":"en:Aldi","parking":"rooftop","wheelchair":"yes"}}, "geometry":{"type":"MultiPolygon","coordinates":[[[[-2.32362,53.42531],[-2.32317,53.42523],[-2.32321,53.42516],[-2.32323,53.42516],[-2.32328,53.42511],[-2.32338,53.42502],[-2.32342,53.42499],[-2.32329,53.42494],[-2.32355,53.4247],[-2.32363,53.42473],[-2.32369,53.42476],[-2.3237,53.42474],[-2.32382,53.42479],[-2.32404,53.42487],[-2.32398,53.42493],[-2.32401,53.42494],[-2.32398,53.42497],[-2.32379,53.42515],[-2.32377,53.42517],[-2.32363,53.4253],[-2.32362,53.42531]]]]}},
{ "type":"Feature","properties":{"osm_way_id":"135932131","name":"Asda","building":"yes","shop":"supermarket","other":{"addr:city":"Stockport","addr:country":"GB","addr:housenumber":"114","addr:postcode":"SK7 4AG","addr:street":"London Road","brand":"Asda","brand:wikidata":"Q297410","brand:wikipedia":"en:Asda","contact:website":"https:\/\/storelocator.asda.com\/north-west\/stockport\/114-london-road","fhrs:id":"98482","operator":"Asda Stores Ltd"}}, "geometry":{"type":"MultiPolygon","coordinates":[[[[-2.12486,53.3822],[-2.12473,53.3821],[-2.12468,53.38211],[-2.12433,53.38182],[-2.12435,53.38177],[-2.12432,53.38174],[-2.1244,53.38171],[-2.12447,53.38172],[-2.12489,53.38153],[-2.12523,53.38173],[-2.12556,53.38196],[-2.12535,53.38206],[-2.12523,53.38201],[-2.12486,53.3822]]]]}},
{ "type":"Feature","properties":{"osm_way_id":"135932135","name":"Sainsbury's","building":"yes","shop":"supermarket","other":{"brand":"Sainsbury's","brand:wikidata":"Q152096","brand:wikipedia":"en:Sainsbury's","wheelchair":"yes"}}, "geometry":{"type":"MultiPolygon","coordinates":[[[[-2.12599,53.38577],[-2.12526,53.38538],[-2.12523,53.38541],[-2.12504,53.3853],[-2.12517,53.38521],[-2.12494,53.38509],[-2.12486,53.38516],[-2.1246,53.38502],[-2.1252,53.38461],[-2.12526,53.38456],[-2.12594,53.38492],[-2.12589,53.38496],[-2.12598,53.38502],[-2.1261,53.38492],[-2.12616,53.38496],[-2.12672,53.38529],[-2.12599,53.38577]]]]}},
{ "type":"Feature","properties":{"osm_way_id":"135934691","name":"Sainsbury's","building":"yes","shop":"supermarket","other":{"brand:wikidata":"Q152096"}}, "geometry":{"type":"MultiPolygon","coordinates":[[[[-2.23821,53.53829],[-2.2362,53.53732],[-2.23548,53.53791],[-2.23583,53.53809],[-2.23548,53.53833],[-2.23592,53.53854],[-2.23627,53.53828],[-2.23686,53.53857],[-2.23793,53.53848],[-2.23821,53.53829]]]]}},
{ "type":"Feature","properties":{"osm_way_id":"136012358","name":"Co-operative","building":"yes","shop":"supermarket"},"geometry":{"type":"MultiPolygon","coordinates":[[[[-2.66349,53.5871],[-2.66341,53.58691],[-2.66313,53.58695],[-2.66318,53.58707],[-2.66314,53.58707],[-2.6632,53.58727],[-2.6634,53.58724],[-2.66339,53.5872],[-2.66341,53.5872],[-2.6634,53.58717],[-2.66344,53.58716],[-2.66349,53.5871]]]]}},
{ "type":"Feature","properties":{"osm_way_id":"137135025","name":"Tesco","building":"yes","shop":"supermarket","other":{"brand":"Tesco","brand:wikidata":"Q487494","brand:wikipedia":"en:Tesco"}}, "geometry":{"type":"MultiPolygon","coordinates":[[[[-2.24466,53.51359],[-2.24415,53.51285],[-2.24383,53.51292],[-2.2438,53.51293],[-2.2439,53.51307],[-2.24335,53.5132],[-2.24321,53.51303],[-2.243,53.51309],[-2.24315,53.51326],[-2.24304,53.51329],[-2.24346,53.51389],[-2.24466,53.51359]]]]}},
{ "type":"Feature","properties":{"osm_way_id":"137171383","name":"Tesco Extra","building":"yes","shop":"supermarket","other":{"addr:city":"Manchester","addr:postcode":"M24 1HB","addr:street":"Park Road","addr:town":"Middleton","brand":"Tesco Extra","brand:wikidata":"Q25172225","brand:wikipedia":"en:Tesco Extra","contact:website":"https:\/\/www.tesco.com\/store-locator\/middleton-manchester\/barton-rd","fhrs:id":"56891","source:addr":"FHRS Open Data"}}, "geometry":{"type":"MultiPolygon","coordinates":[[[[-2.19743,53.54952],[-2.19676,53.54976],[-2.19663,53.5498],[-2.19641,53.54988],[-2.19562,53.54908],[-2.19665,53.54873],[-2.19743,53.54952]]]]}},
{ "type":"Feature","properties":{"osm_way_id":"139319162","name":"Sainsbury's","building":"retail","shop":"supermarket","other":{"addr:city":"Manchester","addr:housenumber":"347","addr:postcode":"M14 6SS","addr:street":"Wilmslow Road","brand":"Sainsbury's","brand:wikidata":"Q152096","brand:wikipedia":"en:Sainsbury's","contact:website":"https:\/\/stores.sainsburys.co.uk\/2014\/fallowfield","opening_hours":"Mo-Fr 08:00-23:00; Sa 08:00-22:00; Su 11:00-17:00","operator":"J Sainsbury plc","source:opening_hours":"survey"}}, "geometry":{"type":"MultiPolygon","coordinates":[[[[-2.21849,53.44114],[-2.21828,53.44107],[-2.21826,53.4411],[-2.21733,53.4408],[-2.21725,53.44088],[-2.21715,53.44088],[-2.21707,53.44085],[-2.21747,53.4404],[-2.21907,53.44091],[-2.21896,53.44101],[-2.21886,53.44114],[-2.21849,53.44114]]]]}},
{ "type":"Feature","properties":{"osm_way_id":"139321455","name":"ALDI","building":"yes","shop":"supermarket","other":{"addr:city":"Stockport","addr:housename":"Aldi","addr:postcode":"SK1 2NA","addr:street":"Newbridge Lane","brand":"ALDI","brand:wikidata":"Q41171672","brand:wikipedia":"en:Aldi"}}, "geometry":{"type":"MultiPolygon","coordinates":[[[[-2.15323,53.41085],[-2.15317,53.4107],[-2.15325,53.41069],[-2.15323,53.41064],[-2.1533,53.41063],[-2.15327,53.41057],[-2.15321,53.41058],[-2.1532,53.41056],[-2.15242,53.41069],[-2.15246,53.41078],[-2.15253,53.41095],[-2.15313,53.41086],[-2.15322,53.41085],[-2.15323,53.41085]]]]}},
{ "type":"Feature","properties":{"osm_way_id":"141496306","name":"Tesco","building":"yes","shop":"supermarket","other":{"brand":"Tesco","brand:wikidata":"Q487494","brand:wikipedia":"en:Tesco","wheelchair":"yes"}}, "geometry":{"type":"MultiPolygon","coordinates":[[[[-2.49004,53.52226],[-2.4891,53.52222],[-2.48905,53.52273],[-2.48929,53.52274],[-2.48928,53.5229],[-2.48979,53.52292],[-2.48982,53.52251],[-2.49002,53.52252],[-2.49003,53.52236],[-2.49004,53.52226]]]]}},
{ "type":"Feature","properties":{"osm_way_id":"142434739","name":"Morrisons","shop":"supermarket","other":{"addr:city":"Manchester","addr:housenumber":"418B","addr:postcode":"M21 0SD","addr:street":"Wilbraham Road","brand":"Morrisons","brand:wikidata":"Q922344","brand:wikipedia":"en:Morrisons","opening_hours":"Mo-Sa 07:00-23:00; Su 10:00-16:00; easter off"}}, "geometry":{"type":"MultiPolygon","coordinates":[[[[-2.27463,53.44257],[-2.27342,53.44256],[-2.27339,53.44256],[-2.27339,53.44258],[-2.27352,53.44269],[-2.27349,53.4427],[-2.27375,53.44293],[-2.27379,53.443],[-2.27416,53.44333],[-2.27459,53.44378],[-2.27539,53.44361],[-2.27511,53.4432],[-2.2747,53.44261],[-2.27467,53.44259],[-2.27463,53.44257]]]]}},
{ "type":"Feature","properties":{"osm_way_id":"143905308","name":"M&S Foodhall","building":"yes","shop":"supermarket","other":{"addr:housenumber":"462","addr:postcode":"M25 3AN","addr:street":"Bury New Road","branch":"Prestwich Simply Food","brand":"M&S Foodhall","brand:wikidata":"Q714491","brand:wikipedia":"en:Marks & Spencer","operator":"Marks & Spencer"}}, "geometry":{"type":"MultiPolygon","coordinates":[[[[-2.28599,53.53409],[-2.28546,53.53422],[-2.28524,53.53388],[-2.28577,53.53376],[-2.28599,53.53409]]]]}},
{ "type":"Feature","properties":{"osm_way_id":"144594360","name":"Waitrose","building":"yes","shop":"supermarket","other":{"addr:city":"Cheadle Hulme","addr:postcode":"SK8 5AE","addr:street":"Station Road","brand":"Waitrose","brand:wikidata":"Q771734","brand:wikipedia":"en:Waitrose","fhrs:id":"78124","official_name":"Waitrose & Partners","operator":"Waitrose & Partners","roof:shape":"flat","source:addr":"fhrs opendata"}}, "geometry":{"type":"MultiPolygon","coordinates":[[[[-2.18983,53.37587],[-2.18921,53.37622],[-2.18925,53.37624],[-2.18917,53.37628],[-2.18916,53.37631],[-2.18924,53.37641],[-2.1893,53.37639],[-2.18932,53.37641],[-2.1894,53.37637],[-2.18942,53.37639],[-2.18945,53.37637],[-2.18959,53.37646],[-2.18968,53.3764],[-2.18971,53.37642],[-2.18974,53.3764],[-2.18983,53.37646],[-2.19033,53.37618],[-2.18983,53.37587]]]]}},
{ "type":"Feature","properties":{"osm_way_id":"150570259","name":"Asda","shop":"supermarket","other":{"addr:city":"Salford","addr:country":"GB","addr:housenumber":"510","addr:postcode":"M30 7JA","addr:street":"Liverpool Road","brand":"Asda","brand:wikidata":"Q297410","brand:wikipedia":"en:Asda","contact:website":"https:\/\/storelocator.asda.com\/north-west\/eccles\/510-liverpool-road","fhrs:id":"51643","operator":"Asda Stores Ltd","source:addr":"FHRS Open Data"}}, "geometry":{"type":"MultiPolygon","coordinates":[[[[-2.36653,53.47805],[-2.36613,53.47828],[-2.36612,53.47834],[-2.3661,53.47851],[-2.36608,53.47859],[-2.36666,53.47864],[-2.36713,53.47865],[-2.36722,53.47841],[-2.36699,53.47829],[-2.3668,53.4782],[-2.36653,53.47805]]]]}},
{ "type":"Feature","properties":{"osm_way_id":"153087684","name":"Tesco Metro","building":"yes","shop":"supermarket","other":{"brand":"Tesco Metro","brand:wikidata":"Q57551648"}}, "geometry":{"type":"MultiPolygon","coordinates":[[[[-2.31622,53.64693],[-2.31598,53.64692],[-2.31598,53.64699],[-2.31595,53.64699],[-2.31595,53.64701],[-2.31565,53.647],[-2.31564,53.64728],[-2.3159,53.64729],[-2.3159,53.6473],[-2.31621,53.6473],[-2.31622,53.64693]]]]}},
{ "type":"Feature","properties":{"osm_way_id":"153088169","name":"Morrisons","building":"supermarket","shop":"supermarket","other":{"addr:postcode":"BL0 9AS","addr:street":"King Street","brand":"Morrisons","brand:wikidata":"Q922344","brand:wikipedia":"en:Morrisons","fhrs:id":"936692","source:addr":"FHRS Open Data"}}, "geometry":{"type":"MultiPolygon","coordinates":[[[[-2.31685,53.64702],[-2.31633,53.647],[-2.3163,53.64754],[-2.31648,53.64755],[-2.31648,53.64758],[-2.31673,53.64759],[-2.31673,53.64761],[-2.31695,53.64761],[-2.31695,53.64748],[-2.31682,53.64748],[-2.31685,53.64702]]]]}},
{ "type":"Feature","properties":{"osm_way_id":"153088518","name":"Aldi","building":"yes","shop":"supermarket","other":{"addr:housenumber":"4","addr:postcode":"BL0 9AL","addr:street":"Railway Street","brand":"ALDI","brand:wikidata":"Q41171672","brand:wikipedia":"en:Aldi","fhrs:id":"936693","source:addr":"FHRS Open Data"}}, "geometry":{"type":"MultiPolygon","coordinates":[[[[-2.31596,53.64616],[-2.31548,53.64615],[-2.31518,53.64614],[-2.31517,53.64644],[-2.31602,53.64646],[-2.31602,53.64632],[-2.31595,53.64632],[-2.31596,53.64616]]]]}},
{ "type":"Feature","properties":{"osm_way_id":"154470005","name":"Asda","building":"retail","shop":"supermarket","other":{"addr:city":"Rochdale","addr:country":"GB","addr:postcode":"OL12 6XT","addr:street":"Dane Street","brand":"Asda","brand:wikidata":"Q297410","brand:wikipedia":"en:Asda","contact:website":"https:\/\/storelocator.asda.com\/north-west\/rochdale\/the-old-cricket-ground-dane-street","fhrs:id":"144326","operator":"Asda Stores Ltd"}}, "geometry":{"type":"MultiPolygon","coordinates":[[[[-2.16588,53.61616],[-2.16455,53.61645],[-2.16452,53.6164],[-2.16444,53.61642],[-2.16441,53.61636],[-2.16436,53.61638],[-2.16427,53.61624],[-2.16422,53.61625],[-2.16396,53.61583],[-2.1644,53.61573],[-2.16436,53.61567],[-2.16464,53.61561],[-2.16466,53.61564],[-2.16502,53.61556],[-2.16506,53.61564],[-2.1655,53.61554],[-2.16571,53.61588],[-2.16588,53.61616]]]]}},
{ "type":"Feature","properties":{"osm_way_id":"157057969","name":"Aldi","building":"yes","shop":"supermarket","other":{"brand":"ALDI","brand:wikidata":"Q41171672","brand:wikipedia":"en:Aldi"}}, "geometry":{"type":"MultiPolygon","coordinates":[[[[-2.19917,53.55095],[-2.19875,53.55081],[-2.19917,53.55038],[-2.19927,53.55041],[-2.19924,53.55044],[-2.19935,53.55048],[-2.19929,53.55054],[-2.19944,53.55059],[-2.19921,53.55082],[-2.19928,53.55084],[-2.19917,53.55095]]]]}},
{ "type":"Feature","properties":{"osm_way_id":"162034116","name":"Madina Stores","building":"yes","shop":"supermarket","other":{"addr:city":"Manchester","addr:housenumber":"876-878","addr:postcode":"M19 3BP","addr:street":"Stockport Road","fhrs:id":"530112","fhrs:rating":"2","source:addr":"fhrs opendata"}}, "geometry":{"type":"MultiPolygon","coordinates":[[[[-2.19181,53.44581],[-2.19164,53.44583],[-2.1916,53.44603],[-2.19186,53.44601],[-2.19181,53.44581]]]]}},
{ "type":"Feature","properties":{"osm_way_id":"163313158","name":"Aldi","building":"yes","shop":"supermarket","other":{"brand":"ALDI","brand:wikidata":"Q41171672","brand:wikipedia":"en:Aldi","operator":"Aldi"}}, "geometry":{"type":"MultiPolygon","coordinates":[[[[-2.17972,53.46261],[-2.17959,53.46284],[-2.17967,53.46285],[-2.17958,53.463],[-2.17905,53.46289],[-2.17908,53.46285],[-2.17902,53.46283],[-2.17921,53.4625],[-2.17972,53.46261]]]]}},
{ "type":"Feature","properties":{"osm_way_id":"165760184","name":"Tesco","building":"yes","shop":"supermarket","other":{"addr:postcode":"M20 5NP","addr:street":"Parrs Wood Lane","brand":"Tesco","brand:wikidata":"Q487494","brand:wikipedia":"en:Tesco","fhrs:id":"809428","wheelchair":"yes"}}, "geometry":{"type":"MultiPolygon","coordinates":[[[[-2.21882,53.41243],[-2.2192,53.41175],[-2.21964,53.41184],[-2.21971,53.41172],[-2.22034,53.41185],[-2.22024,53.41203],[-2.22011,53.41201],[-2.21988,53.41243],[-2.21951,53.41236],[-2.21947,53.41243],[-2.21927,53.41239],[-2.21921,53.41251],[-2.21882,53.41243]]]]}},
{ "type":"Feature","properties":{"osm_way_id":"166300578","name":"Morrisons","shop":"supermarket","other":{"brand":"Morrisons","brand:wikidata":"Q922344","brand:wikipedia":"en:Morrisons"}}, "geometry":{"type":"MultiPolygon","coordinates":[[[[-2.15521,53.52241],[-2.15511,53.5221],[-2.1548,53.52133],[-2.15442,53.52029],[-2.15327,53.52035],[-2.15328,53.52043],[-2.15328,53.52046],[-2.15329,53.52053],[-2.15272,53.52123],[-2.15268,53.52127],[-2.15262,53.52134],[-2.15254,53.52144],[-2.15216,53.52191],[-2.15218,53.52211],[-2.15328,53.52233],[-2.15364,53.52236],[-2.154,53.52244],[-2.15487,53.52246],[-2.15521,53.52241]]]]}},
{ "type":"Feature","properties":{"osm_way_id":"166726459","name":"Sainsbury's","building":"yes","shop":"supermarket","other":{"branch":"Altrincham","brand":"Sainsbury's","brand:wikidata":"Q152096","brand:wikipedia":"en:Sainsbury's"}}, "geometry":{"type":"MultiPolygon","coordinates":[[[[-2.35135,53.3836],[-2.35124,53.38358],[-2.35125,53.38354],[-2.35062,53.38349],[-2.35063,53.38344],[-2.35032,53.38342],[-2.35026,53.38366],[-2.35036,53.38367],[-2.35023,53.38428],[-2.35076,53.38431],[-2.35098,53.38431],[-2.35106,53.38427],[-2.35112,53.38403],[-2.3512,53.38404],[-2.35124,53.38391],[-2.35152,53.38393],[-2.35153,53.38383],[-2.35132,53.3838],[-2.35135,53.3836]]]]}},
{ "type":"Feature","properties":{"osm_way_id":"167561064","name":"Asda","building":"yes","shop":"supermarket","other":{"addr:city":"Oldham","addr:country":"GB","addr:housenumber":"1","addr:postcode":"OL9 0JE","addr:street":"Milne Street","brand":"Asda","brand:wikidata":"Q297410","brand:wikipedia":"en:Asda","contact:website":"https:\/\/storelocator.asda.com\/north-west\/oldham\/milne-street-chadderton","fhrs:id":"146139","operator":"Asda Stores Ltd"}}, "geometry":{"type":"MultiPolygon","coordinates":[[[[-2.14053,53.54688],[-2.13873,53.54649],[-2.13894,53.54615],[-2.13914,53.54619],[-2.1393,53.54594],[-2.13949,53.54598],[-2.1395,53.54596],[-2.13989,53.54604],[-2.13992,53.54599],[-2.14012,53.54604],[-2.14009,53.54608],[-2.14019,53.5461],[-2.14021,53.54606],[-2.14038,53.5461],[-2.14034,53.54617],[-2.14041,53.54619],[-2.14035,53.54629],[-2.14083,53.5464],[-2.14053,53.54688]]]]}},
{ "type":"Feature","properties":{"osm_way_id":"167790347","name":"Asda","building":"yes","shop":"supermarket","other":{"addr:city":"Manchester","addr:country":"GB","addr:postcode":"M11 4BD","addr:street":"Ashton New Road","branch":"Eastlands Supercentre","brand":"Asda","brand:wikidata":"Q297410","brand:wikipedia":"en:Asda","contact:website":"https:\/\/storelocator.asda.com\/north-west\/manchester\/asda-sportcity-ashton-new-road","fhrs:id":"931825","opening_hours":"Mo 07:00-24:00; Tu-Th 00:00-24:00; Sa 00:00-22:00; Su 11:00-17:00","operator":"Asda Stores Ltd","wheelchair":"yes"}}, "geometry":{"type":"MultiPolygon","coordinates":[[[[-2.19488,53.48244],[-2.19433,53.48256],[-2.19467,53.48307],[-2.19165,53.48373],[-2.19153,53.48354],[-2.19126,53.4831],[-2.1919,53.48296],[-2.19178,53.48279],[-2.19259,53.48262],[-2.19251,53.48249],[-2.19332,53.48232],[-2.1934,53.48244],[-2.19388,53.48233],[-2.19436,53.48222],[-2.19456,53.48231],[-2.19488,53.48244]]]]}},
{ "type":"Feature","properties":{"osm_way_id":"169687681","name":"Tesco Extra","building":"yes","shop":"supermarket","other":{"addr:postcode":"BL6 6JS","addr:street":"Mansell Way","alt_name":"Tesco Bolton Horwich Extra","brand":"Tesco Extra","brand:wikidata":"Q25172225","brand:wikipedia":"en:Tesco Extra","fhrs:id":"51243","website":"https:\/\/www.tesco.com\/store-locator\/bolton\/mansell-way"}}, "geometry":{"type":"MultiPolygon","coordinates":[[[[-2.53292,53.58052],[-2.53233,53.58087],[-2.53291,53.58122],[-2.53307,53.58112],[-2.53281,53.58096],[-2.53293,53.58089],[-2.53329,53.58111],[-2.53301,53.58128],[-2.53312,53.58135],[-2.53191,53.58205],[-2.53149,53.58229],[-2.53138,53.58222],[-2.53059,53.58172],[-2.53083,53.58158],[-2.53075,53.58153],[-2.53157,53.58106],[-2.53165,53.58111],[-2.53195,53.58094],[-2.53199,53.58097],[-2.53226,53.58081],[-2.53219,53.58077],[-2.53241,53.58064],[-2.53222,53.58053],[-2.53232,53.58047],[-2.53231,53.58046],[-2.53239,53.58041],[-2.53263,53.58056],[-2.53281,53.58045],[-2.53292,53.58052]]]]}},
{ "type":"Feature","properties":{"osm_way_id":"170004169","name":"Morrisons","building":"yes","shop":"supermarket","other":{"addr:postcode":"BL1 1PQ","addr:street":"Black Horse Street","brand":"Morrisons","brand:wikidata":"Q922344","brand:wikipedia":"en:Morrisons","fhrs:id":"89162","wheelchair":"yes"}}, "geometry":{"type":"MultiPolygon","coordinates":[[[[-2.42979,53.57492],[-2.42981,53.57497],[-2.42981,53.57502],[-2.42981,53.57508],[-2.42982,53.5751],[-2.42976,53.57512],[-2.42971,53.57515],[-2.42967,53.57519],[-2.42965,53.57518],[-2.42963,53.57521],[-2.42961,53.57527],[-2.42966,53.57535],[-2.4295,53.57538],[-2.42946,53.57533],[-2.42932,53.57537],[-2.4293,53.57534],[-2.42925,53.57534],[-2.42916,53.57535],[-2.42915,53.57534],[-2.42884,53.57533],[-2.42883,53.57531],[-2.42879,53.57532],[-2.4284,53.57471],[-2.42863,53.57465],[-2.42861,53.57461],[-2.42865,53.5746],[-2.42939,53.57443],[-2.42955,53.57468],[-2.42961,53.57471],[-2.42968,53.57476],[-2.42973,53.5748],[-2.42976,53.57479],[-2.42983,53.57491],[-2.42979,53.57492]]]]}},
{ "type":"Feature","properties":{"osm_way_id":"170261971","name":"Morrisons","building":"yes","shop":"supermarket","other":{"addr:postcode":"BL1 4EU","addr:street":"Mornington Road","brand":"Morrisons","brand:wikidata":"Q922344","brand:wikipedia":"en:Morrisons","fhrs:id":"144814","source:addr":"FHRS Open Data"}}, "geometry":{"type":"MultiPolygon","coordinates":[[[[-2.45289,53.58567],[-2.45316,53.58577],[-2.45312,53.58581],[-2.45339,53.58591],[-2.45329,53.58601],[-2.45361,53.58613],[-2.45357,53.58617],[-2.45378,53.58625],[-2.45338,53.58664],[-2.45331,53.58662],[-2.45314,53.58678],[-2.45259,53.58658],[-2.45255,53.58661],[-2.45209,53.58645],[-2.45244,53.5861],[-2.45225,53.58603],[-2.45228,53.586],[-2.45245,53.58584],[-2.45258,53.58572],[-2.45264,53.58574],[-2.45272,53.58566],[-2.45285,53.58571],[-2.45289,53.58567]]]]}},
{ "type":"Feature","properties":{"osm_way_id":"172211174","name":"ALDI","building":"yes","shop":"supermarket","other":{"addr:country":"GB","addr:postcode":"SK14 1BW","addr:street":"Great Norbury Street","brand":"ALDI","brand:wikidata":"Q41171672","brand:wikipedia":"en:Aldi","contact:website":"https:\/\/www.aldi.co.uk\/store\/s-uk-E0541"}}, "geometry":{"type":"MultiPolygon","coordinates":[[[[-2.08658,53.45217],[-2.08632,53.4517],[-2.08607,53.45174],[-2.0861,53.45179],[-2.08588,53.45183],[-2.08612,53.45226],[-2.08658,53.45217]]]]}},
{ "type":"Feature","properties":{"osm_way_id":"172530295","name":"Aldi","building":"yes","shop":"supermarket","other":{"addr:postcode":"BL8 1GU","addr:street":"Wood Street","brand":"ALDI","brand:wikidata":"Q41171672","brand:wikipedia":"en:Aldi","fhrs:id":"936698","source:addr":"FHRS Open Data"}}, "geometry":{"type":"MultiPolygon","coordinates":[[[[-2.3118,53.59567],[-2.31186,53.59546],[-2.31128,53.5954],[-2.31122,53.59561],[-2.3118,53.59567]]]]}},
{ "type":"Feature","properties":{"osm_way_id":"172530296","name":"B&M Home Store","building":"yes","shop":"supermarket","other":{"addr:city":"Bury","addr:postcode":"BL8 1LB","addr:street":"Wood Street","fhrs:id":"964828","phone":"+44 330 838 9575","website":"https:\/\/bmstores.co.uk\/"}}, "geometry":{"type":"MultiPolygon","coordinates":[[[[-2.31121,53.59568],[-2.30998,53.59556],[-2.30996,53.59556],[-2.30986,53.59595],[-2.31111,53.59607],[-2.31116,53.59586],[-2.31121,53.59568]]]]}},
{ "type":"Feature","properties":{"osm_way_id":"172855659","name":"Tesco","building":"yes","shop":"supermarket","other":{"addr:postcode":"BL4 9LS","addr:street":"Longcauseway","brand":"Tesco","brand:wikidata":"Q487494","brand:wikipedia":"en:Tesco","fhrs:id":"66511","source:addr":"FHRS Open Data","wheelchair":"yes"}}, "geometry":{"type":"MultiPolygon","coordinates":[[[[-2.39798,53.54347],[-2.39777,53.54267],[-2.39655,53.54278],[-2.39685,53.5439],[-2.39708,53.54388],[-2.39699,53.54357],[-2.39798,53.54347]]]]}},
{ "type":"Feature","properties":{"osm_way_id":"173823088","name":"Morrisons","building":"retail","shop":"supermarket","other":{"addr:housenumber":"5","addr:postcode":"M45 8QH","addr:street":"Stanley Road","brand":"Morrisons","brand:wikidata":"Q922344","brand:wikipedia":"en:Morrisons","fhrs:id":"84298","source:addr":"FHRS Open Data","toilets:wheelchair":"yes","wheelchair":"yes"}}, "geometry":{"type":"MultiPolygon","coordinates":[[[[-2.29636,53.55241],[-2.2952,53.55272],[-2.29462,53.55189],[-2.29572,53.55159],[-2.29636,53.55241]]]]}},
{ "type":"Feature","properties":{"osm_way_id":"175665327","name":"Company Shop","building":"yes","shop":"supermarket","other":{"website":"https:\/\/www.companyshopgroup.co.uk\/home"}}, "geometry":{"type":"MultiPolygon","coordinates":[[[[-2.17036,53.5688],[-2.16955,53.56882],[-2.16953,53.56866],[-2.16981,53.56865],[-2.1698,53.5686],[-2.17007,53.56859],[-2.17006,53.56854],[-2.17033,53.56852],[-2.17036,53.5688]]]]}},
{ "type":"Feature","properties":{"osm_way_id":"175773411","name":"Morrisons","building":"yes","shop":"supermarket","other":{"addr:country":"GB","addr:postcode":"OL16 4AT","brand":"Morrisons","brand:wikidata":"Q922344","brand:wikipedia":"en:Morrisons"}}, "geometry":{"type":"MultiPolygon","coordinates":[[[[-2.13642,53.61226],[-2.1362,53.61236],[-2.13623,53.61239],[-2.1362,53.61242],[-2.13633,53.6125],[-2.13594,53.6127],[-2.1358,53.6127],[-2.13578,53.61273],[-2.13556,53.61271],[-2.13559,53.61268],[-2.13544,53.61266],[-2.13531,53.61257],[-2.13548,53.6125],[-2.13481,53.61203],[-2.13525,53.61179],[-2.13507,53.61167],[-2.13535,53.61152],[-2.1361,53.61209],[-2.13616,53.61207],[-2.13642,53.61226]]]]}},
{ "type":"Feature","properties":{"osm_way_id":"175927728","name":"Lidl","building":"supermarket","shop":"supermarket","other":{"addr:country":"GB","addr:postcode":"OL9 9QL","addr:street":"Jardine Way","addr:unit":"2","brand":"Lidl","brand:wikidata":"Q151954","brand:wikipedia":"en:Lidl","fhrs:id":"62737","wheelchair":"yes"}}, "geometry":{"type":"MultiPolygon","coordinates":[[[[-2.15573,53.53261],[-2.15557,53.53267],[-2.15552,53.53262],[-2.15532,53.5327],[-2.15501,53.53244],[-2.15495,53.53246],[-2.15479,53.53232],[-2.15521,53.53215],[-2.15573,53.53261]]]]}},
{ "type":"Feature","properties":{"osm_way_id":"176435681","name":"Asda","building":"supermarket","shop":"supermarket","other":{"addr:city":"Salford","addr:country":"GB","addr:postcode":"M7 4UF","addr:street":"Great Cheetham Street East","alt_name":"Asda Higher Broughton","brand":"Asda","brand:wikidata":"Q297410","brand:wikipedia":"en:Asda","contact:website":"https:\/\/storelocator.asda.com\/north-west\/salford\/great-cheetham-street","fhrs:id":"103218","opening_hours":"Mo-Sa 07:00-23:00, Su 10:00-16:00","operator":"Asda Stores Ltd"}}, "geometry":{"type":"MultiPolygon","coordinates":[[[[-2.25446,53.50352],[-2.25398,53.50362],[-2.25386,53.5034],[-2.25434,53.5033],[-2.25446,53.50352]]]]}},
{ "type":"Feature","properties":{"osm_way_id":"179464018","name":"Sainsbury's","building":"retail","shop":"supermarket","other":{"addr:city":"Salford","addr:housenumber":"100","addr:postcode":"M5 4QU","addr:street":"Regent Road","branch":"Salford Superstore","brand":"Sainsbury's","brand:wikidata":"Q152096","brand:wikipedia":"en:Sainsbury's","building:levels":"2","fhrs:id":"135970","opening_hours":"Mo-Fr 07:00-23:00; Sa 07:00-22:00; Su 11:00-17:00","roof:levels":"0","roof:shape":"quadruple_saltbox","wheelchair":"yes"}}, "geometry":{"type":"MultiPolygon","coordinates":[[[[-2.26882,53.47669],[-2.2684,53.47663],[-2.26839,53.47665],[-2.26812,53.47661],[-2.26814,53.47659],[-2.26752,53.47649],[-2.26742,53.47647],[-2.26731,53.47673],[-2.26737,53.47674],[-2.26729,53.47693],[-2.26727,53.47693],[-2.26721,53.47706],[-2.2672,53.47705],[-2.26716,53.47716],[-2.2672,53.47716],[-2.26717,53.47723],[-2.26722,53.47728],[-2.26733,53.47737],[-2.26783,53.47744],[-2.26796,53.47746],[-2.26817,53.47749],[-2.26829,53.47721],[-2.26837,53.47722],[-2.26835,53.47727],[-2.26857,53.47731],[-2.2687,53.47699],[-2.26871,53.47697],[-2.26871,53.47695],[-2.26876,53.47696],[-2.26878,53.4769],[-2.26874,53.47689],[-2.26882,53.47669]]]]}},
{ "type":"Feature","properties":{"osm_way_id":"185097357","name":"Aldi","building":"yes","shop":"supermarket","other":{"addr:city":"Salford","addr:postcode":"M30 0DF","addr:street":"Church Road","brand":"ALDI","brand:wikidata":"Q41171672","brand:wikipedia":"en:Aldi","fhrs:id":"73679"}}, "geometry":{"type":"MultiPolygon","coordinates":[[[[-2.33998,53.48354],[-2.33913,53.48328],[-2.33894,53.48348],[-2.33894,53.48349],[-2.33921,53.48357],[-2.3396,53.4837],[-2.33958,53.48372],[-2.33976,53.48378],[-2.33998,53.48354]]]]}},
{ "type":"Feature","properties":{"osm_way_id":"186654220","name":"Tesco Extra","building":"yes","shop":"supermarket","other":{"addr:city":"LEIGH","addr:postcode":"WN7 4BA","addr:street":"Derby Street","brand":"Tesco Extra","brand:wikidata":"Q25172225","brand:wikipedia":"en:Tesco Extra","website":"https:\/\/www.tesco.com\/store-locator\/leigh\/the-loom"}}, "geometry":{"type":"MultiPolygon","coordinates":[[[[-2.51647,53.49475],[-2.51573,53.49465],[-2.51545,53.49462],[-2.51514,53.49458],[-2.51554,53.4936],[-2.51619,53.49369],[-2.51631,53.4934],[-2.51669,53.49345],[-2.51666,53.49352],[-2.51641,53.49348],[-2.51637,53.49363],[-2.51681,53.49369],[-2.51686,53.49374],[-2.51683,53.4938],[-2.51647,53.49475]]]]}},
{ "type":"Feature","properties":{"osm_way_id":"186655057","name":"ALDI","building":"yes","shop":"supermarket","other":{"addr:city":"Leigh","addr:country":"GB","addr:housenumber":"70","addr:postcode":"WN7 4LJ","addr:street":"King Street","brand":"ALDI","brand:wikidata":"Q41171672","brand:wikipedia":"en:Aldi","contact:website":"https:\/\/www.aldi.co.uk\/store\/s-uk-E0656","fhrs:id":"98514"}}, "geometry":{"type":"MultiPolygon","coordinates":[[[[-2.52064,53.49448],[-2.52051,53.49445],[-2.52016,53.49439],[-2.52041,53.4939],[-2.52088,53.49399],[-2.52094,53.49408],[-2.5209,53.49415],[-2.52082,53.49414],[-2.52074,53.4943],[-2.52064,53.49448]]]]}},
{ "type":"Feature","properties":{"osm_way_id":"187024466","name":"Morrisons","building":"supermarket","shop":"supermarket","other":{"brand":"Morrisons","brand:wikidata":"Q922344","brand:wikipedia":"en:Morrisons","wheelchair":"yes"}}, "geometry":{"type":"MultiPolygon","coordinates":[[[[-2.22918,53.46351],[-2.22975,53.46333],[-2.22974,53.46331],[-2.22978,53.4633],[-2.22967,53.46317],[-2.22905,53.46336],[-2.22918,53.46351]]]]}},
{ "type":"Feature","properties":{"osm_way_id":"187161282","name":"Sainsbury's","building":"yes","shop":"supermarket","other":{"addr:postcode":"BL5 3RD","addr:street":"Cricketers Way","brand":"Sainsbury's","brand:wikidata":"Q152096","brand:wikipedia":"en:Sainsbury's","description":"This Sainsbury's also has a Argos shop","fhrs:id":"76306","payment:cash":"yes","payment:contactless":"yes","payment:credit_cards":"yes","source:addr":"FHRS Open Data","toilets:wheelchair":"yes","website":"https:\/\/stores.sainsburys.co.uk\/2097\/westhoughton","wheelchair":"yes"}}, "geometry":{"type":"MultiPolygon","coordinates":[[[[-2.52544,53.54651],[-2.52544,53.546],[-2.52417,53.54601],[-2.52417,53.54618],[-2.52417,53.54652],[-2.52544,53.54651]]]]}},
{ "type":"Feature","properties":{"osm_way_id":"188041918","name":"Manchester Superstores","building":"yes","shop":"supermarket","other":{"source:name":"survey"}}, "geometry":{"type":"MultiPolygon","coordinates":[[[[-2.22382,53.45269],[-2.22375,53.45247],[-2.22301,53.45255],[-2.22308,53.45278],[-2.22382,53.45269]]]]}},
{ "type":"Feature","properties":{"osm_way_id":"188335845","name":"Worldwide","building":"yes","shop":"supermarket","other":{"addr:city":"Manchester","addr:housenumber":"401","addr:postcode":"M14 4AH","addr:street":"Great Western Street","fhrs:id":"144731","source:addr":"FHRS Open Data"}}, "geometry":{"type":"MultiPolygon","coordinates":[[[[-2.22733,53.45737],[-2.22716,53.45715],[-2.22659,53.45731],[-2.22678,53.45756],[-2.22695,53.45752],[-2.22692,53.45748],[-2.22733,53.45737]]]]}},
{ "type":"Feature","properties":{"osm_way_id":"189827237","name":"Tesco Extra","building":"yes","shop":"supermarket","other":{"brand":"Tesco Extra","brand:wikidata":"Q25172225","brand:wikipedia":"en:Tesco Extra","website":"https:\/\/www.tesco.com\/store-locator\/bolton\/mansell-way"}}, "geometry":{"type":"MultiPolygon","coordinates":[[[[-2.52884,53.58155],[-2.52891,53.58159],[-2.52875,53.58168],[-2.52868,53.58164],[-2.52884,53.58155]]]]}},
{ "type":"Feature","properties":{"osm_way_id":"202374364","name":"Co-op Food","building":"yes","shop":"supermarket","other":{"brand":"Co-op Food","brand:wikidata":"Q3277439","brand:wikipedia":"en:Co-op Food"}}, "geometry":{"type":"MultiPolygon","coordinates":[[[[-2.09604,53.64269],[-2.09583,53.64252],[-2.09652,53.6422],[-2.09654,53.64222],[-2.09658,53.6422],[-2.09664,53.64225],[-2.09661,53.64226],[-2.09664,53.64229],[-2.09638,53.64241],[-2.09648,53.64248],[-2.09604,53.64269]]]]}},
{ "type":"Feature","properties":{"osm_way_id":"202797181","name":"Lidl","building":"yes","shop":"supermarket","other":{"addr:city":"Littleborough","addr:country":"GB","addr:postcode":"OL15 8YJ","addr:street":"Stockton Street","alt_name":"Lidl Littleborough","brand":"Lidl","brand:wikidata":"Q151954","brand:wikipedia":"en:Lidl","building:levels":"1","fhrs:id":"1107663","source:outline":"bing"}}, "geometry":{"type":"MultiPolygon","coordinates":[[[[-2.10303,53.64341],[-2.10314,53.64335],[-2.10247,53.64289],[-2.10205,53.6431],[-2.10226,53.64325],[-2.10231,53.64322],[-2.10272,53.6435],[-2.10298,53.64337],[-2.10303,53.64341]]]]}},
{ "type":"Feature","properties":{"osm_way_id":"203678664","name":"Tesco","building":"supermarket","shop":"supermarket","other":{"brand":"Tesco","brand:wikidata":"Q487494","brand:wikipedia":"en:Tesco"}}, "geometry":{"type":"MultiPolygon","coordinates":[[[[-2.20687,53.53293],[-2.2072,53.53256],[-2.20771,53.53268],[-2.20777,53.53259],[-2.20774,53.53249],[-2.20759,53.53239],[-2.20654,53.53203],[-2.20599,53.53266],[-2.20687,53.53293]]]]}},
{ "type":"Feature","properties":{"osm_way_id":"204334209","name":"Tesco Extra","building":"retail","shop":"supermarket","other":{"addr:city":"Salford","addr:postcode":"M6 5JG","addr:street":"Pendleton Way","brand":"Tesco Extra","brand:wikidata":"Q25172225","brand:wikipedia":"en:Tesco Extra","contact:website":"https:\/\/www.tesco.com\/store-locator\/salford\/pendleton-way","fhrs:id":"494339","nohousenumber":"yes","opening_hours":"Mo-Sa 06:00-24:00, Su 11:00-17:00","phone":"+443456719561"}}, "geometry":{"type":"MultiPolygon","coordinates":[[[[-2.28908,53.48944],[-2.29065,53.48913],[-2.29111,53.48994],[-2.28954,53.49025],[-2.28908,53.48944]]]]}},
{ "type":"Feature","properties":{"osm_way_id":"204930432","name":"Sainsbury's","building":"yes","shop":"supermarket","other":{"addr:postcode":"M41 0NA","addr:street":"Golden Way","addr:unit":"24","brand":"Sainsbury's","brand:wikidata":"Q152096","brand:wikipedia":"en:Sainsbury's","contact:website":"https:\/\/stores.sainsburys.co.uk\/2150\/urmston"}}, "geometry":{"type":"MultiPolygon","coordinates":[[[[-2.35447,53.44942],[-2.35479,53.45013],[-2.35474,53.45014],[-2.35476,53.45018],[-2.35465,53.45019],[-2.35461,53.45009],[-2.35387,53.45021],[-2.35389,53.45026],[-2.35377,53.45028],[-2.35345,53.44954],[-2.35358,53.44952],[-2.3536,53.44956],[-2.35447,53.44942]]]]}},
{ "type":"Feature","properties":{"osm_way_id":"205288394","name":"ALDI","building":"retail","shop":"supermarket","other":{"addr:street":"Wellington Road","brand":"ALDI","brand:wikidata":"Q41171672","brand:wikipedia":"en:Aldi","building:levels":"1","roof:levels":"0","wheelchair":"yes"}}, "geometry":{"type":"MultiPolygon","coordinates":[[[[-2.09997,53.49014],[-2.09986,53.48983],[-2.09959,53.48978],[-2.09908,53.48991],[-2.09917,53.49022],[-2.09997,53.49014]]]]}},
{ "type":"Feature","properties":{"osm_way_id":"205679404","name":"Marks & Spencer","building":"yes","shop":"supermarket","other":{"addr:city":"Ashton-Under-Lyne","addr:postcode":"OL6 7UB","addr:street":"Lord Sheldon Way","brand":"Marks & Spencer","brand:wikidata":"Q714491","fhrs:id":"28296","source:addr":"FHRS Open Data","website":"https:\/\/www.marksandspencer.com\/stores\/ashton-moss-1190"}}, "geometry":{"type":"MultiPolygon","coordinates":[[[[-2.10657,53.49156],[-2.10794,53.49159],[-2.10796,53.49124],[-2.10796,53.49115],[-2.10662,53.49111],[-2.10657,53.49156]]]]}},
{ "type":"Feature","properties":{"osm_way_id":"206403432","name":"ALDI","building":"retail","shop":"supermarket","other":{"brand":"ALDI","brand:wikidata":"Q41171672","brand:wikipedia":"en:Aldi"}}, "geometry":{"type":"MultiPolygon","coordinates":[[[[-2.05858,53.48196],[-2.05933,53.48181],[-2.05939,53.48191],[-2.0595,53.48211],[-2.05876,53.48226],[-2.05858,53.48196]]]]}},
{ "type":"Feature","properties":{"osm_way_id":"206466383","name":"Tesco Metro","building":"yes","shop":"supermarket","other":{"addr:city":"Manchester","addr:housenumber":"404-406","addr:postcode":"M22 4JT","addr:street":"Palatine Road","brand":"Tesco Metro","brand:wikidata":"Q57551648","brand:wikipedia":"en:Tesco","fhrs:id":"88004","operator":"Tesco","website":"https:\/\/www.tesco.com\/store-locator\/manchester\/404-406-palatine-rd"}}, "geometry":{"type":"MultiPolygon","coordinates":[[[[-2.25994,53.4074],[-2.25958,53.40755],[-2.25933,53.40733],[-2.2597,53.40719],[-2.25994,53.4074]]]]}},
{ "type":"Feature","properties":{"osm_way_id":"207169476","name":"Asda","building":"yes","shop":"supermarket","other":{"addr:city":"Bury","addr:country":"GB","addr:postcode":"BL9 8RS","addr:street":"Pilsworth Road","brand":"Asda","brand:wikidata":"Q297410","brand:wikipedia":"en:Asda","contact:website":"https:\/\/storelocator.asda.com\/north-west\/bury\/pilsworth-road","fhrs:id":"936710","operator":"Asda Stores Ltd","wheelchair":"yes"}}, "geometry":{"type":"MultiPolygon","coordinates":[[[[-2.27434,53.5781],[-2.27415,53.57744],[-2.2739,53.57746],[-2.27389,53.57744],[-2.27382,53.57745],[-2.2738,53.57738],[-2.27372,53.57739],[-2.27373,53.57743],[-2.27363,53.57744],[-2.27363,53.57741],[-2.27356,53.57741],[-2.27357,53.57747],[-2.27316,53.57751],[-2.27317,53.57754],[-2.27265,53.5776],[-2.27268,53.57772],[-2.27248,53.57774],[-2.27264,53.57829],[-2.27282,53.57828],[-2.27289,53.57853],[-2.27323,53.57849],[-2.27323,53.57847],[-2.27366,53.57843],[-2.27365,53.57838],[-2.27406,53.57834],[-2.274,53.57813],[-2.27434,53.5781]]]]}},
{ "type":"Feature","properties":{"osm_way_id":"209200960","name":"Tesco","building":"yes","shop":"supermarket","other":{"addr:postcode":"M25 3TG","addr:street":"Valley Park Road","brand":"Tesco","brand:wikidata":"Q487494","brand:wikipedia":"en:Tesco","designation":"Prestwich Superstore","fhrs:id":"936707"}}, "geometry":{"type":"MultiPolygon","coordinates":[[[[-2.29092,53.53538],[-2.29086,53.5354],[-2.29093,53.53551],[-2.29073,53.53556],[-2.29069,53.53551],[-2.29039,53.53558],[-2.29036,53.53553],[-2.29007,53.5356],[-2.29016,53.53575],[-2.29006,53.53577],[-2.28991,53.53555],[-2.28975,53.53559],[-2.28961,53.53539],[-2.28949,53.53542],[-2.28937,53.53523],[-2.28933,53.53524],[-2.28912,53.53493],[-2.28951,53.53484],[-2.28956,53.53491],[-2.29049,53.53469],[-2.29092,53.53538]]]]}},
{ "type":"Feature","properties":{"osm_way_id":"209645924","name":"Tesco","building":"yes","shop":"supermarket","other":{"addr:postcode":"M19 1TF","addr:street":"Burnage Lane","brand":"Tesco","brand:wikidata":"Q487494","brand:wikipedia":"en:Tesco"}}, "geometry":{"type":"MultiPolygon","coordinates":[[[[-2.2106,53.42042],[-2.21033,53.42039],[-2.20927,53.42012],[-2.20972,53.41952],[-2.21117,53.4199],[-2.21111,53.41998],[-2.21129,53.42004],[-2.21127,53.42007],[-2.21131,53.42008],[-2.21121,53.42022],[-2.21079,53.42011],[-2.21068,53.42027],[-2.21093,53.42033],[-2.21148,53.42041],[-2.21184,53.42022],[-2.21197,53.4203],[-2.21164,53.42049],[-2.21157,53.42052],[-2.21152,53.42053],[-2.21147,53.42052],[-2.21073,53.42041],[-2.21075,53.42038],[-2.21065,53.42036],[-2.2106,53.42042]]]]}},
{ "type":"Feature","properties":{"osm_way_id":"209649029","name":"Co-op Food","building":"retail","shop":"supermarket","other":{"addr:postcode":"M20 3HE","addr:street":"Copson Street","brand":"Co-op Food","brand:wikidata":"Q3277439","brand:wikipedia":"en:Co-op Food","opening_hours":"Mo-Sa 07:00-23:00; Su 11:00-17:00","operator":"The Co-operative Group","wheelchair":"yes"}}, "geometry":{"type":"MultiPolygon","coordinates":[[[[-2.23105,53.43377],[-2.23077,53.43369],[-2.23052,53.434],[-2.2308,53.43408],[-2.23105,53.43377]]]]}},
{ "type":"Feature","properties":{"osm_way_id":"214220869","name":"Tesco Extra","building":"yes","shop":"supermarket","other":{"brand":"Tesco Extra","brand:wikidata":"Q25172225","brand:wikipedia":"en:Tesco Extra"}}, "geometry":{"type":"MultiPolygon","coordinates":[[[[-2.17454,53.46248],[-2.17349,53.46252],[-2.17335,53.46131],[-2.17343,53.46131],[-2.17463,53.46151],[-2.1747,53.46205],[-2.17451,53.46209],[-2.17454,53.46248]]]]}},
{ "type":"Feature","properties":{"osm_way_id":"219563520","name":"ALDI","building":"yes","shop":"supermarket","other":{"brand":"ALDI","brand:wikidata":"Q41171672","brand:wikipedia":"en:Aldi"}}, "geometry":{"type":"MultiPolygon","coordinates":[[[[-2.12421,53.38286],[-2.12351,53.38313],[-2.12372,53.38333],[-2.12462,53.38298],[-2.12451,53.38287],[-2.12436,53.38293],[-2.12439,53.38296],[-2.12434,53.38298],[-2.12421,53.38286]]]]}},
{ "type":"Feature","properties":{"osm_way_id":"222493841","name":"Morrisons","building":"yes","shop":"supermarket","other":{"addr:city":"Swinton","addr:housenumber":"49","addr:postcode":"M27 4BT","addr:street":"Swinton Hall Road","brand":"Morrisons","brand:wikidata":"Q922344","brand:wikipedia":"en:Morrisons","fhrs:id":"137867","operator":"Morrisons","source:addr":"FHRS Open Data","wheelchair":"yes"}}, "geometry":{"type":"MultiPolygon","coordinates":[[[[-2.3358,53.51352],[-2.33541,53.51412],[-2.3353,53.51409],[-2.33526,53.51413],[-2.33469,53.514],[-2.33476,53.5139],[-2.33443,53.51381],[-2.33476,53.51333],[-2.33529,53.51345],[-2.33532,53.51339],[-2.3358,53.51352]]]]}},
{ "type":"Feature","properties":{"osm_way_id":"222493884","name":"ALDI","building":"yes","shop":"supermarket","other":{"addr:city":"Swinton","addr:housenumber":"51","addr:postcode":"M27 4BL","addr:street":"Swinton Hall Road","brand":"ALDI","brand:wikidata":"Q41171672","brand:wikipedia":"en:Aldi","fhrs:id":"56174","operator":"Aldi","source:addr":"FHRS Open Data"}}, "geometry":{"type":"MultiPolygon","coordinates":[[[[-2.33503,53.51296],[-2.3349,53.51318],[-2.33486,53.51323],[-2.33412,53.51307],[-2.3342,53.51293],[-2.33429,53.51279],[-2.33503,53.51296]]]]}},
{ "type":"Feature","properties":{"osm_way_id":"225472694","name":"ALDI","building":"retail","shop":"supermarket","other":{"addr:postcode":"M45 7EA","addr:street":"Higher Lane","brand":"ALDI","brand:wikidata":"Q41171672","brand:wikipedia":"en:Aldi","fhrs:id":"936708","source:addr":"FHRS Open Data"}}, "geometry":{"type":"MultiPolygon","coordinates":[[[[-2.29151,53.54326],[-2.29156,53.54324],[-2.29151,53.5432],[-2.29171,53.5431],[-2.29204,53.54296],[-2.29231,53.54319],[-2.29214,53.54326],[-2.29172,53.54344],[-2.29151,53.54326]]]]}},
{ "type":"Feature","properties":{"osm_way_id":"237814823","name":"Blue Corn","building":"yes","shop":"supermarket","other":{"addr:city":"Stockport","addr:housenumber":"208","addr:postcode":"SK4 4DU","addr:street":"Heaton Moor Road","organic":"only"}}, "geometry":{"type":"MultiPolygon","coordinates":[[[[-2.18991,53.41744],[-2.18988,53.41748],[-2.18965,53.41742],[-2.18968,53.41738],[-2.18991,53.41744]]]]}},
{ "type":"Feature","properties":{"osm_way_id":"238202773","name":"ALDI","building":"yes","shop":"supermarket","other":{"brand":"ALDI","brand:wikidata":"Q41171672","brand:wikipedia":"en:Aldi"}}, "geometry":{"type":"MultiPolygon","coordinates":[[[[-2.09774,53.41247],[-2.09701,53.41248],[-2.097,53.41221],[-2.09773,53.4122],[-2.09774,53.41247]]]]}},
{ "type":"Feature","properties":{"osm_way_id":"238261966","name":"Asda","building":"yes","shop":"supermarket","other":{"addr:country":"GB","addr:postcode":"SK14 1BD","addr:street":"Greenfield Street","alt_name":"Asda Hyde Superstore","brand":"Asda","brand:wikidata":"Q297410","brand:wikipedia":"en:Asda","contact:website":"https:\/\/storelocator.asda.com\/north-west\/hyde\/greenfield-street","fhrs:id":"28338","operator":"Asda Stores Ltd","wheelchair":"yes"}}, "geometry":{"type":"MultiPolygon","coordinates":[[[[-2.08374,53.45092],[-2.08315,53.45116],[-2.08296,53.45099],[-2.08276,53.45107],[-2.08262,53.45095],[-2.0825,53.451],[-2.08193,53.45049],[-2.08284,53.45012],[-2.08374,53.45092]]]]}},
{ "type":"Feature","properties":{"osm_way_id":"240442221","name":"Lidl","building":"yes","shop":"supermarket","other":{"addr:postcode":"M25 0LD","addr:street":"Bury New Road","brand":"Lidl","brand:wikidata":"Q151954","brand:wikipedia":"en:Lidl","designation":"Prestwich","fhrs:id":"936719"}}, "geometry":{"type":"MultiPolygon","coordinates":[[[[-2.27039,53.51794],[-2.27022,53.51752],[-2.27071,53.51744],[-2.27078,53.51763],[-2.27071,53.51763],[-2.27082,53.51789],[-2.27057,53.51793],[-2.2706,53.51799],[-2.27034,53.51802],[-2.27031,53.51795],[-2.27039,53.51794]]]]}},
{ "type":"Feature","properties":{"osm_way_id":"246532005","name":"Aldi","building":"yes","shop":"supermarket","other":{"addr:city":"Chadderton","addr:housename":"Aldi","addr:postcode":"OL9 6QR","addr:street":"Ellen Street","brand":"ALDI","brand:wikidata":"Q41171672","brand:wikipedia":"en:Aldi"}}, "geometry":{"type":"MultiPolygon","coordinates":[[[[-2.12762,53.54831],[-2.12823,53.54797],[-2.12792,53.54777],[-2.12731,53.54811],[-2.12762,53.54831]]]]}},
{ "type":"Feature","properties":{"osm_way_id":"251429493","name":"Lidl","building":"yes","shop":"supermarket","other":{"addr:city":"Salford","addr:housenumber":"68","addr:postcode":"M6 5JE","addr:street":"Fitzwarren Street","brand":"Lidl","brand:wikidata":"Q151954","fhrs:id":"89988","source:addr":"FHRS Open Data"}}, "geometry":{"type":"MultiPolygon","coordinates":[[[[-2.29141,53.48703],[-2.29101,53.4871],[-2.29078,53.48665],[-2.29119,53.48658],[-2.2913,53.48679],[-2.29138,53.48678],[-2.29142,53.48685],[-2.29133,53.48687],[-2.29141,53.48703]]]]}},
{ "type":"Feature","properties":{"osm_way_id":"255028595","name":"Aldi","building":"yes","shop":"supermarket","other":{"addr:city":"Manchester","addr:housenumber":"674","addr:postcode":"M20 2DN","addr:street":"Wilmslow Road","brand":"ALDI","brand:wikidata":"Q41171672","brand:wikipedia":"en:Aldi","fhrs:id":"106475"}}, "geometry":{"type":"MultiPolygon","coordinates":[[[[-2.23331,53.41926],[-2.23334,53.41897],[-2.23312,53.41896],[-2.23311,53.41901],[-2.23262,53.419],[-2.2326,53.41923],[-2.23331,53.41926]]]]}},
{ "type":"Feature","properties":{"osm_way_id":"255416005","name":"Lidl","building":"supermarket","shop":"supermarket","other":{"addr:country":"GB","addr:housenumber":"1270","addr:postcode":"M11 1JJ","addr:street":"Ashton Old Road","brand":"Lidl","brand:wikidata":"Q151954","brand:wikipedia":"en:Lidl","fhrs:id":"861084","wheelchair":"yes"}}, "geometry":{"type":"MultiPolygon","coordinates":[[[[-2.1647,53.47278],[-2.16577,53.47279],[-2.16578,53.47255],[-2.16516,53.47254],[-2.16516,53.47247],[-2.16471,53.47247],[-2.1647,53.47278]]]]}},
{ "type":"Feature","properties":{"osm_way_id":"255416006","name":"Morrisons","building":"supermarket","shop":"supermarket","other":{"addr:postcode":"M11 1DA","brand":"Morrisons","brand:wikidata":"Q922344","brand:wikipedia":"en:Morrisons"}}, "geometry":{"type":"MultiPolygon","coordinates":[[[[-2.16677,53.47378],[-2.16639,53.47427],[-2.16624,53.47423],[-2.1661,53.47441],[-2.16508,53.47413],[-2.16505,53.47416],[-2.16484,53.47411],[-2.16544,53.47334],[-2.16564,53.47339],[-2.16561,53.47343],[-2.16625,53.47361],[-2.16624,53.47363],[-2.16677,53.47378]]]]}},
{ "type":"Feature","properties":{"osm_way_id":"255441562","name":"Co-op Food","building":"yes","shop":"supermarket","other":{"addr:housenumber":"376","addr:postcode":"BL9 8LU","addr:street":"Parr Lane","brand":"Co-op Food","brand:wikidata":"Q3277439","brand:wikipedia":"en:Co-op Food","fhrs:id":"958407","operator":"The Co-operative Group","source:addr":"FHRS Open Data"}}, "geometry":{"type":"MultiPolygon","coordinates":[[[[-2.28199,53.55612],[-2.28184,53.55603],[-2.28212,53.55588],[-2.28227,53.55597],[-2.28199,53.55612]]]]}},
{ "type":"Feature","properties":{"osm_way_id":"255613003","name":"Lidl","building":"yes","shop":"supermarket","other":{"addr:country":"GB","addr:housenumber":"750","addr:postcode":"M32 0WZ","addr:street":"Chester Road","brand":"Lidl","brand:wikidata":"Q151954","brand:wikipedia":"en:Lidl","building:levels":"1","fhrs:id":"1093454","roof:shape":"gabled"}}, "geometry":{"type":"MultiPolygon","coordinates":[[[[-2.29348,53.45951],[-2.29376,53.45937],[-2.29432,53.45908],[-2.2943,53.45907],[-2.29436,53.45904],[-2.29432,53.45902],[-2.29425,53.45897],[-2.29423,53.45899],[-2.2942,53.459],[-2.29389,53.45879],[-2.29306,53.45922],[-2.29348,53.45951]]]]}},
{ "type":"Feature","properties":{"osm_way_id":"258323424","name":"Spar","building":"yes","shop":"supermarket","other":{"brand":"Spar","brand:wikidata":"Q610492","brand:wikipedia":"en:Spar (retailer)"}}, "geometry":{"type":"MultiPolygon","coordinates":[[[[-2.27577,53.59232],[-2.27553,53.5923],[-2.27558,53.59211],[-2.27578,53.59214],[-2.27581,53.59217],[-2.27577,53.59232]]]]}},
{ "type":"Feature","properties":{"osm_way_id":"260607143","name":"Aldi","building":"commercial","shop":"supermarket","other":{"addr:city":"Prestwich","addr:postcode":"M25 1AR","addr:street":"Bury New Road","brand":"ALDI","brand:wikidata":"Q41171672","brand:wikipedia":"en:Aldi","operator":"Aldi"}}, "geometry":{"type":"MultiPolygon","coordinates":[[[[-2.28249,53.53011],[-2.28169,53.53039],[-2.28164,53.53041],[-2.28167,53.53044],[-2.28171,53.53048],[-2.28181,53.53058],[-2.2819,53.53055],[-2.28268,53.53029],[-2.28249,53.53011]]]]}},
{ "type":"Feature","properties":{"osm_way_id":"263421117","name":"Morrisons","building":"supermarket","shop":"supermarket","other":{"addr:postcode":"OL10 4PU","brand":"Morrisons","brand:wikidata":"Q922344","brand:wikipedia":"en:Morrisons","website":"https:\/\/my.morrisons.com\/storefinder\/32"}}, "geometry":{"type":"MultiPolygon","coordinates":[[[[-2.22295,53.5948],[-2.22348,53.59477],[-2.22348,53.59482],[-2.22388,53.5948],[-2.22386,53.59461],[-2.22402,53.5946],[-2.22406,53.59493],[-2.22439,53.59491],[-2.2244,53.59496],[-2.22459,53.59495],[-2.22464,53.59534],[-2.22431,53.59536],[-2.22432,53.59546],[-2.22316,53.59551],[-2.22309,53.59499],[-2.22298,53.59499],[-2.22295,53.5948]]]]}},
{ "type":"Feature","properties":{"osm_way_id":"263421159","name":"Aldi","building":"yes","shop":"supermarket","other":{"brand":"ALDI","brand:wikidata":"Q41171672","brand:wikipedia":"en:Aldi"}}, "geometry":{"type":"MultiPolygon","coordinates":[[[[-2.20995,53.59342],[-2.20947,53.59357],[-2.20907,53.59311],[-2.20929,53.59304],[-2.20933,53.59309],[-2.20954,53.59303],[-2.20979,53.5933],[-2.20983,53.59329],[-2.20995,53.59342]]]]}},
{ "type":"Feature","properties":{"osm_way_id":"278353261","name":"Lidl","building":"yes","shop":"supermarket","other":{"addr:country":"GB","addr:postcode":"WN1 1DL","addr:street":"Darlington Street","brand":"Lidl","brand:wikidata":"Q151954","brand:wikipedia":"en:Lidl","fhrs:id":"1200628"}}, "geometry":{"type":"MultiPolygon","coordinates":[[[[-2.62562,53.54349],[-2.62542,53.54296],[-2.62498,53.54302],[-2.62504,53.54318],[-2.62511,53.54317],[-2.62522,53.54346],[-2.62542,53.54344],[-2.62544,53.54351],[-2.62562,53.54349]]]]}},
{ "type":"Feature","properties":{"osm_way_id":"284797542","name":"Aldi","building":"yes","shop":"supermarket","other":{"addr:city":"Wigan","addr:housenumber":"5","addr:postcode":"WN4 9DA","addr:street":"Princess Road","addr:suburb":"Ashton-in-Makerfield","brand":"ALDI","brand:wikidata":"Q41171672","brand:wikipedia":"en:Aldi","fhrs:id":"98027"}}, "geometry":{"type":"MultiPolygon","coordinates":[[[[-2.63586,53.48766],[-2.63529,53.48797],[-2.63516,53.48789],[-2.6351,53.48792],[-2.63493,53.48782],[-2.63559,53.48747],[-2.63568,53.48753],[-2.63586,53.48766]]]]}},
{ "type":"Feature","properties":{"osm_way_id":"286403404","name":"Morrisons","building":"yes","shop":"supermarket","other":{"brand":"Morrisons","brand:wikidata":"Q922344","brand:wikipedia":"en:Morrisons","operator":"Morrisons","wheelchair":"yes"}}, "geometry":{"type":"MultiPolygon","coordinates":[[[[-2.11111,53.45547],[-2.11089,53.45548],[-2.11089,53.45546],[-2.11027,53.45546],[-2.11027,53.45535],[-2.10972,53.45534],[-2.1097,53.45478],[-2.10951,53.45478],[-2.10951,53.45462],[-2.11024,53.4546],[-2.11025,53.4547],[-2.1104,53.4547],[-2.11041,53.45475],[-2.11091,53.45475],[-2.11092,53.45512],[-2.111,53.45512],[-2.111,53.45516],[-2.11109,53.45516],[-2.1111,53.45532],[-2.11119,53.45532],[-2.11119,53.45543],[-2.11111,53.45547]]]]}},
{ "type":"Feature","properties":{"osm_way_id":"287805420","name":"Tesco Extra","building":"yes","shop":"supermarket","other":{"addr:postcode":"M32 0ZS","brand":"Tesco Extra","brand:wikidata":"Q25172225","brand:wikipedia":"en:Tesco Extra","fhrs:id":"494117","layer":"1","opening_hours":"Mo-Sa 00:00-24:00; Su 10:00-15:00","source:addr":"FHRS Open Data"}}, "geometry":{"type":"MultiPolygon","coordinates":[[[[-2.2917,53.4592],[-2.29133,53.45937],[-2.29142,53.45944],[-2.29023,53.46],[-2.28999,53.45983],[-2.29008,53.45979],[-2.28997,53.45972],[-2.29002,53.4597],[-2.28957,53.45935],[-2.28952,53.45936],[-2.2894,53.45927],[-2.2898,53.45909],[-2.28955,53.45889],[-2.28992,53.45873],[-2.28981,53.45864],[-2.29053,53.45831],[-2.29105,53.45872],[-2.2911,53.4587],[-2.29118,53.45875],[-2.29114,53.45877],[-2.29155,53.45908],[-2.29159,53.45906],[-2.29166,53.45912],[-2.29162,53.45914],[-2.2917,53.4592]]]]}},
{ "type":"Feature","properties":{"osm_way_id":"292982845","name":"Asda","building":"yes","shop":"supermarket","other":{"addr:city":"Manchester","addr:country":"GB","addr:housenumber":"214","addr:postcode":"M22 4QN","addr:street":"Hollyhedge Road","brand":"Asda","brand:wikidata":"Q297410","brand:wikipedia":"en:Asda","contact:website":"https:\/\/storelocator.asda.com\/north-west\/wythenshawe\/214-hollyhedge-road","fhrs:id":"375164","operator":"Asda Stores Ltd"}}, "geometry":{"type":"MultiPolygon","coordinates":[[[[-2.2534,53.38808],[-2.25346,53.38768],[-2.25316,53.38767],[-2.25309,53.38806],[-2.2534,53.38808]]]]}},
{ "type":"Feature","properties":{"osm_way_id":"303377113","name":"Tesco Extra","building":"retail","shop":"supermarket","other":{"brand":"Tesco Extra","brand:wikidata":"Q25172225","brand:wikipedia":"en:Tesco Extra","contact:website":"https:\/\/www.tesco.com\/store-locator\/manchester\/ashton-road"}}, "geometry":{"type":"MultiPolygon","coordinates":[[[[-2.15775,53.50842],[-2.15862,53.50903],[-2.15967,53.50851],[-2.15916,53.50815],[-2.15897,53.50824],[-2.1588,53.50813],[-2.1587,53.50818],[-2.1585,53.50803],[-2.1582,53.50818],[-2.15816,53.50816],[-2.15798,53.50825],[-2.15803,53.50828],[-2.15775,53.50842]]]]}},
{ "type":"Feature","properties":{"osm_way_id":"306532901","name":"Aldi","building":"supermarket","shop":"supermarket","other":{"brand":"ALDI","brand:wikidata":"Q41171672","brand:wikipedia":"en:Aldi"}}, "geometry":{"type":"MultiPolygon","coordinates":[[[[-2.20476,53.54766],[-2.20466,53.54769],[-2.20465,53.54767],[-2.20435,53.54775],[-2.20438,53.5478],[-2.20448,53.54793],[-2.20451,53.54792],[-2.20472,53.54822],[-2.20498,53.54815],[-2.20501,53.5482],[-2.20512,53.54817],[-2.20476,53.54766]]]]}},
{ "type":"Feature","properties":{"osm_way_id":"307802081","name":"ALDI","building":"retail","shop":"supermarket","other":{"brand":"ALDI","brand:wikidata":"Q41171672","brand:wikipedia":"en:Aldi"}}, "geometry":{"type":"MultiPolygon","coordinates":[[[[-2.30079,53.40142],[-2.2998,53.40144],[-2.29978,53.40106],[-2.30077,53.40104],[-2.30079,53.40142]]]]}},
{ "type":"Feature","properties":{"osm_way_id":"320749629","name":"Asda","building":"yes","shop":"supermarket","other":{"addr:city":"Horwich","addr:country":"GB","addr:housename":"Middlebrook Retail Park","addr:housenumber":"43-53","addr:postcode":"BL6 6JA","addr:street":"The Linkway","alt_name":"ASDA Horwich Supercentre","brand":"Asda","brand:wikidata":"Q297410","brand:wikipedia":"en:Asda","contact:website":"https:\/\/storelocator.asda.com\/north-west\/horwich\/43-53-the-linkway","fhrs:id":"40321","operator":"Asda Stores Ltd","toilets:wheelchair":"yes","wheelchair":"yes"}}, "geometry":{"type":"MultiPolygon","coordinates":[[[[-2.53499,53.58491],[-2.53477,53.58506],[-2.53476,53.58506],[-2.5346,53.58515],[-2.53447,53.58508],[-2.53443,53.58511],[-2.5342,53.58497],[-2.53416,53.58499],[-2.53412,53.58497],[-2.534,53.58505],[-2.53366,53.58482],[-2.53382,53.58472],[-2.5336,53.5846],[-2.53353,53.58464],[-2.53346,53.5846],[-2.53356,53.58455],[-2.53342,53.58447],[-2.53419,53.58397],[-2.53445,53.58413],[-2.53457,53.58404],[-2.53541,53.5845],[-2.53528,53.58459],[-2.53539,53.58466],[-2.53499,53.58491]]]]}},
{ "type":"Feature","properties":{"osm_way_id":"321901931","name":"Morrisons","building":"yes","shop":"supermarket","other":{"addr:city":"Stockport","addr:housenumber":"408","addr:postcode":"SK5 7AA","addr:street":"Reddish Road","brand":"Morrisons","brand:wikidata":"Q922344","brand:wikipedia":"en:Morrisons","opening_hours":"Mo-Sa 07:00-22:00, Su 11:00-17:00","phone":"+44 161 4421144"}}, "geometry":{"type":"MultiPolygon","coordinates":[[[[-2.15826,53.43726],[-2.15727,53.43772],[-2.15746,53.43785],[-2.15741,53.43802],[-2.15718,53.43804],[-2.15705,53.43773],[-2.15701,53.43769],[-2.15714,53.43763],[-2.15666,53.43728],[-2.15758,53.43684],[-2.1579,53.43708],[-2.15797,53.43704],[-2.15826,53.43726]]]]}},
{ "type":"Feature","properties":{"osm_way_id":"339725045","name":"McColl's","building":"yes","shop":"supermarket","other":{"addr:city":"Ashton-in-Makerfield","addr:housenumber":"308-338","addr:postcode":"WN4 0BS","addr:street":"Wigan Road","phone":"+44 1942 723186"}}, "geometry":{"type":"MultiPolygon","coordinates":[[[[-2.64862,53.50302],[-2.64841,53.50286],[-2.64892,53.50261],[-2.64897,53.50265],[-2.64896,53.50265],[-2.64906,53.50273],[-2.64908,53.50272],[-2.64914,53.50276],[-2.64862,53.50302]]]]}},
{ "type":"Feature","properties":{"osm_way_id":"353079318","name":"Spar","building":"supermarket","shop":"supermarket","other":{"brand":"Spar","brand:wikidata":"Q610492","brand:wikipedia":"en:SPAR (retailer)"}}, "geometry":{"type":"MultiPolygon","coordinates":[[[[-2.2142,53.53074],[-2.21427,53.53059],[-2.21405,53.53055],[-2.21398,53.5307],[-2.2142,53.53074]]]]}},
{ "type":"Feature","properties":{"osm_way_id":"359733746","name":"The Co-operative Food","building":"yes","shop":"supermarket","other":{"operator":"The Co-operative Group"}}, "geometry":{"type":"MultiPolygon","coordinates":[[[[-2.18097,53.6261],[-2.18098,53.62625],[-2.18077,53.62625],[-2.18077,53.6262],[-2.18065,53.6262],[-2.18065,53.6261],[-2.18097,53.6261]]]]}},
{ "type":"Feature","properties":{"osm_way_id":"359734141","name":"The Co-operative Food","building":"yes","shop":"supermarket","other":{"operator":"The Co-operative Group"}}, "geometry":{"type":"MultiPolygon","coordinates":[[[[-2.18937,53.62221],[-2.1893,53.62256],[-2.18904,53.62254],[-2.18905,53.62245],[-2.18907,53.62233],[-2.18909,53.62226],[-2.18921,53.62227],[-2.18923,53.6222],[-2.18937,53.62221]]]]}},
{ "type":"Feature","properties":{"osm_way_id":"359734303","name":"The Co-operative Food","building":"yes","shop":"supermarket","other":{"operator":"The Co-operative Group"}}, "geometry":{"type":"MultiPolygon","coordinates":[[[[-2.19828,53.62213],[-2.19817,53.62229],[-2.19809,53.62228],[-2.19821,53.62211],[-2.19828,53.62213]]]]}},
{ "type":"Feature","properties":{"osm_way_id":"359734511","name":"The Co-operative Food","building":"yes","shop":"supermarket","other":{"addr:city":"Rochdale","addr:housenumber":"645","addr:postcode":"OL11 5XE","addr:street":"Edenfield Road","opening_hours":"07:00-22:00","operator":"The Co-operative Group"}}, "geometry":{"type":"MultiPolygon","coordinates":[[[[-2.21031,53.62659],[-2.21028,53.6267],[-2.20998,53.62667],[-2.21002,53.62656],[-2.21031,53.62659]]]]}},
{ "type":"Feature","properties":{"osm_way_id":"359734849","name":"The Co-operative Food","building":"yes","shop":"supermarket","other":{"operator":"The Co-operative Group"}}, "geometry":{"type":"MultiPolygon","coordinates":[[[[-2.13312,53.62181],[-2.13285,53.62192],[-2.1327,53.62179],[-2.13297,53.62169],[-2.13312,53.62181]]]]}},
{ "type":"Feature","properties":{"osm_way_id":"359735089","name":"The Co-operative Food","building":"yes","shop":"supermarket","other":{"operator":"The Co-operative Group","wheelchair":"yes"}}, "geometry":{"type":"MultiPolygon","coordinates":[[[[-2.11045,53.60966],[-2.11103,53.60989],[-2.11079,53.6101],[-2.1104,53.60976],[-2.11036,53.60974],[-2.11045,53.60966]]]]}},
{ "type":"Feature","properties":{"osm_way_id":"359735286","name":"The Co-operative Food","building":"yes","shop":"supermarket","other":{"operator":"The Co-operative Group"}}, "geometry":{"type":"MultiPolygon","coordinates":[[[[-2.17648,53.59004],[-2.17663,53.59009],[-2.17653,53.5902],[-2.17637,53.59015],[-2.17648,53.59004]]]]}},
{ "type":"Feature","properties":{"osm_way_id":"359735751","name":"The Co-operative Food","building":"yes","shop":"supermarket","other":{"operator":"The Co-operative Group"}}, "geometry":{"type":"MultiPolygon","coordinates":[[[[-2.20856,53.5813],[-2.20877,53.58137],[-2.20862,53.58153],[-2.20849,53.58149],[-2.20845,53.58143],[-2.20856,53.5813]]]]}},
{ "type":"Feature","properties":{"osm_way_id":"359735922","name":"The Co-operative Food","building":"yes","shop":"supermarket","other":{"operator":"The Co-operative Group"}}, "geometry":{"type":"MultiPolygon","coordinates":[[[[-2.25067,53.58816],[-2.25072,53.58831],[-2.25049,53.58834],[-2.25043,53.58818],[-2.25067,53.58816]]]]}},
{ "type":"Feature","properties":{"osm_way_id":"359736420","name":"The Co-operative Food","building":"yes","shop":"supermarket","other":{"operator":"The Co-operative Group"}}, "geometry":{"type":"MultiPolygon","coordinates":[[[[-2.29229,53.60855],[-2.29251,53.60855],[-2.29252,53.6086],[-2.2923,53.60861],[-2.29229,53.60855]]]]}},
{ "type":"Feature","properties":{"osm_way_id":"359736653","name":"Co-op Food","building":"yes","shop":"supermarket","other":{"addr:housenumber":"78","addr:postcode":"BL8 2JR","addr:street":"Mile Lane","brand":"Co-op Food","brand:wikidata":"Q3277439","brand:wikipedia":"en:Co-op Food","fhrs:id":"936712","operator":"The Co-operative Group","source:addr":"FHRS Open Data"}}, "geometry":{"type":"MultiPolygon","coordinates":[[[[-2.33583,53.588],[-2.3356,53.58807],[-2.33571,53.58819],[-2.33575,53.58825],[-2.33599,53.58818],[-2.33583,53.588]]]]}},
{ "type":"Feature","properties":{"osm_way_id":"362358594","name":"Spar","building":"yes","shop":"supermarket","other":{"brand":"Spar","brand:wikidata":"Q610492"}}, "geometry":{"type":"MultiPolygon","coordinates":[[[[-2.43188,53.60982],[-2.43176,53.60984],[-2.43172,53.60974],[-2.43183,53.60972],[-2.43188,53.60982]]]]}},
{ "type":"Feature","properties":{"osm_way_id":"366123608","name":"Co-Op Food","building":"retail","shop":"supermarket","other":{"addr:housenumber":"135-141","addr:postcode":"M16 8EE","addr:street":"Withington Road","wheelchair":"yes"}}, "geometry":{"type":"MultiPolygon","coordinates":[[[[-2.25745,53.45219],[-2.25744,53.45177],[-2.25717,53.45177],[-2.25719,53.45215],[-2.25732,53.45215],[-2.25733,53.45219],[-2.25742,53.45219],[-2.25745,53.45219]]]]}},
{ "type":"Feature","properties":{"osm_way_id":"381802171","name":"Aldi","building":"yes","shop":"supermarket","other":{"brand":"ALDI","brand:wikidata":"Q41171672","brand:wikipedia":"en:Aldi"}}, "geometry":{"type":"MultiPolygon","coordinates":[[[[-2.15924,53.51005],[-2.15885,53.5102],[-2.15854,53.5099],[-2.15892,53.50976],[-2.15924,53.51005]]]]}},
{ "type":"Feature","properties":{"osm_way_id":"381802172","name":"Morrisons","building":"yes","shop":"supermarket","other":{"brand":"Morrisons","brand:wikidata":"Q922344","brand:wikipedia":"en:Morrisons","website":"https:\/\/my.morrisons.com\/storefinder\/22"}}, "geometry":{"type":"MultiPolygon","coordinates":[[[[-2.17004,53.50379],[-2.17048,53.50435],[-2.16896,53.5047],[-2.16863,53.50425],[-2.16938,53.50406],[-2.16927,53.5039],[-2.16937,53.50387],[-2.16942,53.50379],[-2.16977,53.50368],[-2.16987,53.50382],[-2.17004,53.50379]]]]}},
{ "type":"Feature","properties":{"osm_way_id":"401010048","name":"Tesco Extra","building":"retail","shop":"supermarket","other":{"addr:postcode":"OL4 2AJ","addr:street":"Huddersfield Road","brand":"Tesco Extra","brand:wikidata":"Q25172225","brand:wikipedia":"en:Tesco Extra","fhrs:id":"120607","source:addr":"FHRS Open Data","website":"https:\/\/www.tesco.com\/store-locator\/oldham\/huddersfield-road"}}, "geometry":{"type":"MultiPolygon","coordinates":[[[[-2.09098,53.54643],[-2.09204,53.54603],[-2.09141,53.54524],[-2.09136,53.54525],[-2.09107,53.54498],[-2.09084,53.54505],[-2.09103,53.54524],[-2.09046,53.54545],[-2.09026,53.54527],[-2.08996,53.54538],[-2.09051,53.54589],[-2.09044,53.54592],[-2.09063,53.54609],[-2.09057,53.54611],[-2.09062,53.54617],[-2.09066,53.54615],[-2.09093,53.54642],[-2.09096,53.54641],[-2.09098,53.54643]]]]}},
{ "type":"Feature","properties":{"osm_way_id":"421947695","name":"Asda","building":"yes","shop":"supermarket","other":{"addr:city":"Bolton","addr:country":"GB","addr:postcode":"BL3 2QS","addr:street":"Manchester Road","brand":"Asda","brand:wikidata":"Q297410","brand:wikipedia":"en:Asda","contact:website":"https:\/\/storelocator.asda.com\/north-west\/greater-manchester\/manchester-road-bolton","fhrs:id":"59584","operator":"Asda Stores Ltd"}}, "geometry":{"type":"MultiPolygon","coordinates":[[[[-2.41838,53.56925],[-2.41802,53.5694],[-2.41832,53.56965],[-2.41765,53.56993],[-2.41755,53.56984],[-2.41733,53.56993],[-2.41714,53.56977],[-2.41698,53.56983],[-2.41652,53.56944],[-2.41791,53.56886],[-2.41838,53.56925]]]]}},
{ "type":"Feature","properties":{"osm_way_id":"439813963","name":"Lidl","building":"yes","shop":"supermarket","other":{"addr:city":"Stockport","addr:country":"GB","addr:housename":"Lidl GB","addr:housenumber":"14","addr:postcode":"SK1 4LG","addr:street":"Hempshaw Lane","brand":"Lidl","brand:wikidata":"Q151954","brand:wikipedia":"en:Lidl","fhrs:id":"1022691"}}, "geometry":{"type":"MultiPolygon","coordinates":[[[[-2.14885,53.40233],[-2.14837,53.40243],[-2.14803,53.40183],[-2.1485,53.40173],[-2.14885,53.40233]]]]}},
{ "type":"Feature","properties":{"osm_way_id":"444180799","name":"Co-op Food","building":"yes","shop":"supermarket","other":{"addr:city":"Manchester","addr:housenumber":"756","addr:postcode":"M20 2DW","addr:street":"Wilmslow Road","brand":"Co-op Food","brand:wikidata":"Q3277439","brand:wikipedia":"en:Co-op Food","fhrs:id":"90060","operator":"The Co-operative Group"}}, "geometry":{"type":"MultiPolygon","coordinates":[[[[-2.23186,53.41644],[-2.23205,53.41647],[-2.23236,53.41651],[-2.23243,53.41633],[-2.23239,53.41632],[-2.2324,53.41629],[-2.23232,53.41628],[-2.23231,53.41632],[-2.23221,53.41631],[-2.23193,53.41627],[-2.23186,53.41644]]]]}},
{ "type":"Feature","properties":{"osm_way_id":"444181707","name":"The Co-operative Food","building":"yes","shop":"supermarket","other":{"operator":"The Co-operative Group"}}, "geometry":{"type":"MultiPolygon","coordinates":[[[[-2.21346,53.43525],[-2.21326,53.4354],[-2.21311,53.43551],[-2.21304,53.43548],[-2.21306,53.43546],[-2.21287,53.43537],[-2.2132,53.43512],[-2.21346,53.43525]]]]}},
{ "type":"Feature","properties":{"osm_way_id":"444184384","name":"The Co-operative Food","building":"yes","shop":"supermarket","other":{"opening_hours":"Mo-Su 07:00-23:00","operator":"The Co-operative Group","roof:shape":"gabled"}}, "geometry":{"type":"MultiPolygon","coordinates":[[[[-2.27513,53.43821],[-2.27507,53.43807],[-2.27466,53.43814],[-2.27472,53.43827],[-2.27513,53.43821]]]]}},
{ "type":"Feature","properties":{"osm_way_id":"457099650","name":"Asda","building":"yes","shop":"supermarket","other":{"addr:city":"Manchester","addr:country":"GB","addr:postcode":"M12 4NH","addr:street":"Stanley Grove","brand":"Asda","brand:wikidata":"Q297410","brand:wikipedia":"en:Asda","contact:website":"https:\/\/storelocator.asda.com\/north-west\/manchester\/stanley-grove-longsight","fhrs:id":"831576","operator":"Asda Stores Ltd","source:addr":"fhrs opendata","wheelchair":"yes"}}, "geometry":{"type":"MultiPolygon","coordinates":[[[[-2.19916,53.45795],[-2.19929,53.45791],[-2.19933,53.45796],[-2.19962,53.45787],[-2.19958,53.45782],[-2.20009,53.45765],[-2.19994,53.45749],[-2.20016,53.45742],[-2.19978,53.457],[-2.19956,53.45708],[-2.19942,53.45692],[-2.19859,53.45719],[-2.19884,53.45747],[-2.19875,53.4575],[-2.19916,53.45795]]]]}},
{ "type":"Feature","properties":{"osm_way_id":"462653908","name":"Tesco Metro","building":"yes","shop":"supermarket","other":{"addr:city":"Manchester","addr:housenumber":"998-990","addr:postcode":"M19 3NN","addr:street":"Stockport Road","brand":"Tesco Metro","brand:wikidata":"Q57551648","contact:website":"https:\/\/www.tesco.com\/store-locator\/manchester\/998-990-stockport-rd","fhrs:id":"701668","opening_hours":"Mo-Sa 06:00-23:00; Su 11:00-17:00","operator":"Tesco PLC"}}, "geometry":{"type":"MultiPolygon","coordinates":[[[[-2.19056,53.4425],[-2.19065,53.44257],[-2.19075,53.44253],[-2.19077,53.44255],[-2.19078,53.44257],[-2.19091,53.44252],[-2.1909,53.44251],[-2.19093,53.44249],[-2.19098,53.44254],[-2.19121,53.44245],[-2.19106,53.4423],[-2.19095,53.4422],[-2.19103,53.44217],[-2.19097,53.44212],[-2.19089,53.44215],[-2.19088,53.44214],[-2.19078,53.44218],[-2.19065,53.44223],[-2.19052,53.44228],[-2.19049,53.44229],[-2.19045,53.44231],[-2.19062,53.44247],[-2.19056,53.4425]]]]}},
{ "type":"Feature","properties":{"osm_way_id":"463484601","name":"U Mart","building":"retail","shop":"supermarket","other":{"addr:housenumber":"99","addr:postcode":"M16 7RX","addr:street":"Upper Chorlton Road"}}, "geometry":{"type":"MultiPolygon","coordinates":[[[[-2.26258,53.45595],[-2.26243,53.45604],[-2.26241,53.45603],[-2.26231,53.45598],[-2.26234,53.45596],[-2.26184,53.45567],[-2.26197,53.45559],[-2.26258,53.45595]]]]}},
{ "type":"Feature","properties":{"osm_way_id":"478404549","name":"ALDI","building":"yes","shop":"supermarket","other":{"addr:city":"Salford","addr:housenumber":"389","addr:postcode":"M6 7NJ","addr:street":"Bolton Road","brand":"ALDI","brand:wikidata":"Q41171672","brand:wikipedia":"en:Aldi","fhrs:id":"132221","source:addr":"FHRS Open Data"}}, "geometry":{"type":"MultiPolygon","coordinates":[[[[-2.31012,53.50065],[-2.30954,53.50094],[-2.30945,53.50087],[-2.30928,53.50095],[-2.30912,53.50084],[-2.30907,53.50086],[-2.30901,53.50082],[-2.30906,53.5008],[-2.30902,53.50077],[-2.30882,53.50087],[-2.30839,53.50055],[-2.30854,53.50048],[-2.3088,53.50067],[-2.30926,53.50045],[-2.30924,53.50043],[-2.30932,53.50039],[-2.30934,53.5004],[-2.30941,53.50037],[-2.30958,53.50049],[-2.30976,53.5004],[-2.31012,53.50065]]]]}},
{ "type":"Feature","properties":{"osm_way_id":"478798249","name":"Lidl","building":"yes","shop":"supermarket","other":{"brand":"Lidl","brand:wikidata":"Q151954","opening_hours":"Mo-Sa 08:00-22:00; Su 10:00-16:00","payment:cash":"yes","payment:credit_cards":"yes"}}, "geometry":{"type":"MultiPolygon","coordinates":[[[[-2.19968,53.45646],[-2.19948,53.45653],[-2.19952,53.45657],[-2.19904,53.45674],[-2.19875,53.45646],[-2.19888,53.45642],[-2.19884,53.45638],[-2.19896,53.45634],[-2.19894,53.45632],[-2.19938,53.45616],[-2.19968,53.45646]]]]}},
{ "type":"Feature","properties":{"osm_way_id":"479074648","name":"Heron Foods","building":"yes","shop":"supermarket","other":{"addr:city":"Manchester","addr:country":"GB","addr:postcode":"M29 8FF","addr:street":"Elliott Street","brand":"Heron Foods","brand:wikidata":"Q5743472","brand:wikipedia":"en:Heron Foods","contact:website":"https:\/\/heronfoods.com\/storelocator\/store-details\/tyldesley","fhrs:id":"964247"}}, "geometry":{"type":"MultiPolygon","coordinates":[[[[-2.46766,53.51449],[-2.46767,53.51423],[-2.46732,53.51422],[-2.4673,53.51448],[-2.46766,53.51449]]]]}},
{ "type":"Feature","properties":{"osm_way_id":"479074649","name":"ALDI","building":"yes","shop":"supermarket","other":{"brand":"ALDI","brand:wikidata":"Q41171672","brand:wikipedia":"en:Aldi"}}, "geometry":{"type":"MultiPolygon","coordinates":[[[[-2.47092,53.5144],[-2.47047,53.51442],[-2.47051,53.51466],[-2.47043,53.51467],[-2.47047,53.5149],[-2.47072,53.51488],[-2.4707,53.51476],[-2.47092,53.51475],[-2.47089,53.51453],[-2.47094,53.51453],[-2.47092,53.5144]]]]}},
{ "type":"Feature","properties":{"osm_way_id":"479076387","name":"Iceland","building":"yes","shop":"supermarket","other":{"brand":"Iceland","brand:wikidata":"Q721810","brand:wikipedia":"en:Iceland (supermarket)"}}, "geometry":{"type":"MultiPolygon","coordinates":[[[[-2.47772,53.51628],[-2.4778,53.51574],[-2.47764,53.51573],[-2.47763,53.51578],[-2.47735,53.51576],[-2.47731,53.51608],[-2.4773,53.51609],[-2.47725,53.51608],[-2.47723,53.51626],[-2.47772,53.51628]]]]}},
{ "type":"Feature","properties":{"osm_way_id":"479103196","name":"Tesco Extra","building":"yes","shop":"supermarket","other":{"addr:city":"Salford","addr:postcode":"M44 6BL","addr:street":"Woodrow Way","brand":"Tesco Extra","brand:wikidata":"Q25172225","brand:wikipedia":"en:Tesco Extra","fhrs:id":"91885","wheelchair":"yes"}}, "geometry":{"type":"MultiPolygon","coordinates":[[[[-2.42376,53.43793],[-2.42322,53.43806],[-2.4225,53.43822],[-2.422,53.43834],[-2.42198,53.43834],[-2.42193,53.43827],[-2.42198,53.43826],[-2.42163,53.43772],[-2.42173,53.4377],[-2.42168,53.43761],[-2.42165,53.43762],[-2.42158,53.43751],[-2.42178,53.43746],[-2.42187,53.4376],[-2.4219,53.43759],[-2.42187,53.43754],[-2.42212,53.43749],[-2.42219,53.43759],[-2.42307,53.43739],[-2.423,53.43728],[-2.42316,53.43724],[-2.42323,53.43735],[-2.42333,53.43733],[-2.42367,53.43786],[-2.42371,53.43786],[-2.42376,53.43793]]]]}},
{ "type":"Feature","properties":{"osm_way_id":"479547564","name":"Morrisons","building":"yes","shop":"supermarket","other":{"brand":"Morrisons","brand:wikidata":"Q922344","brand:wikipedia":"en:Morrisons"}}, "geometry":{"type":"MultiPolygon","coordinates":[[[[-2.59049,53.5429],[-2.58957,53.54332],[-2.59031,53.5439],[-2.59116,53.54351],[-2.59121,53.54355],[-2.59151,53.54341],[-2.59129,53.54324],[-2.5912,53.54328],[-2.59078,53.54295],[-2.59064,53.54302],[-2.59049,53.5429]]]]}},
{ "type":"Feature","properties":{"osm_way_id":"480941362","name":"Morrisons","building":"yes","shop":"supermarket","other":{"addr:postcode":"BL2 3HN","addr:street":"Lea Gate","brand":"Morrisons","brand:wikidata":"Q922344","brand:wikipedia":"en:Morrisons","fhrs:id":"145663","source:addr":"FHRS Open Data"}}, "geometry":{"type":"MultiPolygon","coordinates":[[[[-2.39801,53.60431],[-2.39711,53.60387],[-2.39673,53.60415],[-2.39667,53.60412],[-2.39652,53.60424],[-2.39645,53.60424],[-2.39646,53.60436],[-2.39654,53.60435],[-2.39655,53.60438],[-2.39678,53.6045],[-2.39682,53.60451],[-2.39687,53.60448],[-2.39738,53.60472],[-2.39749,53.60471],[-2.39765,53.60461],[-2.39749,53.60453],[-2.39768,53.60439],[-2.39782,53.60445],[-2.39801,53.60431]]]]}},
{ "type":"Feature","properties":{"osm_way_id":"485003121","name":"Co-op Food","building":"yes","shop":"supermarket","other":{"brand":"Co-op Food","brand:wikidata":"Q3277439","brand:wikipedia":"en:Co-op Food","operator":"The Co-operative Group","operator:wikidata":"Q117202","operator:wikipedia":"en:The Co-operative Group"}}, "geometry":{"type":"MultiPolygon","coordinates":[[[[-2.71154,53.53221],[-2.71142,53.53213],[-2.71107,53.53233],[-2.71118,53.5324],[-2.71154,53.53221]]]]}},
{ "type":"Feature","properties":{"osm_way_id":"486114959","name":"Sainsbury's","building":"yes","shop":"supermarket","other":{"brand":"Sainsbury's","brand:wikidata":"Q152096","brand:wikipedia":"en:Sainsbury's"}}, "geometry":{"type":"MultiPolygon","coordinates":[[[[-2.52686,53.50113],[-2.52621,53.50096],[-2.52609,53.50112],[-2.52589,53.50107],[-2.5259,53.50105],[-2.52574,53.50102],[-2.52551,53.50077],[-2.52597,53.50011],[-2.52784,53.50059],[-2.52748,53.50109],[-2.52698,53.50096],[-2.52686,53.50113]]]]}},
{ "type":"Feature","properties":{"osm_way_id":"496657606","name":"Premier Express, Brooklands","building":"yes","shop":"supermarket","other":{"addr:city":"Sale","addr:housename":"Premier Express","addr:postcode":"M33 3ND","addr:street":"Marsland Road","operator":"Premier Stores","website":"https:\/\/www.premier-stores.co.uk\/"}}, "geometry":{"type":"MultiPolygon","coordinates":[[[[-2.32086,53.41749],[-2.32077,53.41749],[-2.32077,53.41748],[-2.32077,53.41744],[-2.32077,53.41742],[-2.32077,53.41736],[-2.3208,53.41736],[-2.3208,53.41734],[-2.3208,53.41733],[-2.3208,53.41732],[-2.3208,53.41731],[-2.32088,53.41731],[-2.32088,53.4174],[-2.32086,53.41742],[-2.32086,53.41749]]]]}},
{ "type":"Feature","properties":{"osm_way_id":"497737381","name":"Quality Save","building":"yes","shop":"supermarket","other":{"wheelchair":"yes"}}, "geometry":{"type":"MultiPolygon","coordinates":[[[[-2.27866,53.44337],[-2.2783,53.44336],[-2.27831,53.44325],[-2.27867,53.44325],[-2.27866,53.44337]]]]}},
{ "type":"Feature","properties":{"osm_way_id":"506486421","name":"Lidl","building":"yes","shop":"supermarket","other":{"addr:city":"Bolton","addr:country":"GB","addr:postcode":"BL3 6JR","addr:street":"Derby Street","brand":"Lidl","brand:wikidata":"Q151954","brand:wikipedia":"en:Lidl","fhrs:id":"66059","opening_hours":"Mo-Fr 08:00-20:00; Sa 08:00-20:00; Su 10:00-16:00"}}, "geometry":{"type":"MultiPolygon","coordinates":[[[[-2.43982,53.5709],[-2.4398,53.57089],[-2.43908,53.57055],[-2.43912,53.57052],[-2.43888,53.57041],[-2.43863,53.57059],[-2.43968,53.57109],[-2.43978,53.57101],[-2.43971,53.57098],[-2.43982,53.5709]]]]}},
{ "type":"Feature","properties":{"osm_way_id":"506569524","name":"Aldi","building":"yes","shop":"supermarket","other":{"addr:postcode":"BL1 2HJ","addr:street":"Higher Bridge Street","brand":"ALDI","brand:wikidata":"Q41171672","brand:wikipedia":"en:Aldi","fhrs:id":"145093","source:addr":"FHRS Open Data"}}, "geometry":{"type":"MultiPolygon","coordinates":[[[[-2.43086,53.58508],[-2.43102,53.58564],[-2.43082,53.58566],[-2.43081,53.58561],[-2.43062,53.58563],[-2.43061,53.58557],[-2.43052,53.58526],[-2.43051,53.58524],[-2.43046,53.58524],[-2.43043,53.58512],[-2.43086,53.58508]]]]}},
{ "type":"Feature","properties":{"osm_way_id":"506609568","name":"Co-op Food","building":"yes","shop":"supermarket","other":{"addr:city":"Bolton","addr:housenumber":"687","addr:postcode":"BL2 6HP","addr:street":"Bury Road","brand":"Co-op Food","brand:wikidata":"Q3277439","brand:wikipedia":"en:Co-op Food","fhrs:id":"88989","phone":"+44 1204 529676"}}, "geometry":{"type":"MultiPolygon","coordinates":[[[[-2.38937,53.58148],[-2.38935,53.58137],[-2.38887,53.5814],[-2.38889,53.5815],[-2.38937,53.58148]]]]}},
{ "type":"Feature","properties":{"osm_way_id":"506723983","name":"Tesco Extra","building":"yes","shop":"supermarket","other":{"addr:postcode":"M28 3BT","brand":"Tesco Extra","brand:wikidata":"Q25172225"}}, "geometry":{"type":"MultiPolygon","coordinates":[[[[-2.40201,53.52626],[-2.40184,53.52558],[-2.39943,53.52577],[-2.39938,53.52577],[-2.39958,53.52668],[-2.3997,53.52667],[-2.39968,53.52658],[-2.39997,53.52655],[-2.39996,53.52647],[-2.40076,53.5264],[-2.40079,53.52658],[-2.40125,53.52653],[-2.40134,53.52647],[-2.40131,53.52636],[-2.40149,53.52635],[-2.40148,53.5263],[-2.40157,53.52629],[-2.40201,53.52626]]]]}},
{ "type":"Feature","properties":{"osm_way_id":"507011568","name":"Asda","building":"yes","shop":"supermarket","other":{"addr:city":"Bolton","addr:country":"GB","addr:housenumber":"226","addr:postcode":"BL3 4EB","addr:street":"St Helens Road","brand":"Asda","brand:wikidata":"Q297410","brand:wikipedia":"en:Asda","contact:website":"https:\/\/storelocator.asda.com\/north-west\/bolton\/st-helens-road-daubhill","fhrs:id":"66707","operator":"Asda Stores Ltd"}}, "geometry":{"type":"MultiPolygon","coordinates":[[[[-2.45441,53.56248],[-2.45434,53.56222],[-2.4537,53.56227],[-2.45375,53.56248],[-2.45405,53.56245],[-2.45406,53.56251],[-2.45441,53.56248]]]]}},
{ "type":"Feature","properties":{"osm_way_id":"507011578","name":"Spar","building":"yes","shop":"supermarket","other":{"addr:housenumber":"244","addr:postcode":"BL3 5HP","addr:street":"Deane Road","brand":"Spar","brand:wikidata":"Q610492","brand:wikipedia":"en:Spar (retailer)","fhrs:id":"66413","source:addr":"FHRS Open Data"}}, "geometry":{"type":"MultiPolygon","coordinates":[[[[-2.44592,53.57285],[-2.44588,53.57276],[-2.44565,53.57279],[-2.4457,53.57296],[-2.4458,53.57294],[-2.44577,53.57287],[-2.44592,53.57285]]]]}},
{ "type":"Feature","properties":{"osm_way_id":"507151340","name":"Lidl","building":"yes","shop":"supermarket","other":{"addr:postcode":"BL4 9HF","addr:street":"Albert Road","brand":"Lidl","brand:wikidata":"Q151954","brand:wikipedia":"en:Lidl","fhrs:id":"50263","source:addr":"FHRS Open Data"}}, "geometry":{"type":"MultiPolygon","coordinates":[[[[-2.39885,53.54615],[-2.39887,53.54598],[-2.39883,53.54598],[-2.39886,53.54571],[-2.3986,53.5457],[-2.3986,53.54564],[-2.39849,53.54564],[-2.39844,53.54614],[-2.39885,53.54615]]]]}},
{ "type":"Feature","properties":{"osm_way_id":"507151400","name":"Heron Foods","building":"yes","shop":"supermarket","other":{"addr:city":"Bolton","addr:country":"GB","addr:housenumber":"52B","addr:postcode":"BL4 9DR","addr:street":"Brackley Street","brand":"Heron Foods","brand:wikidata":"Q5743472","brand:wikipedia":"en:Heron Foods","contact:website":"https:\/\/heronfoods.com\/index.php\/storelocator\/store-details\/farnworth","fhrs:id":"50327"}}, "geometry":{"type":"MultiPolygon","coordinates":[[[[-2.39553,53.54767],[-2.39553,53.54766],[-2.39572,53.54763],[-2.39577,53.54765],[-2.39585,53.54784],[-2.39582,53.54786],[-2.39572,53.54788],[-2.39571,53.54787],[-2.39564,53.54788],[-2.39562,53.54787],[-2.39561,53.54785],[-2.39553,53.54767]]]]}},
{ "type":"Feature","properties":{"osm_way_id":"507317556","name":"Tesco","building":"yes","shop":"supermarket","other":{"addr:postcode":"BL9 5BY","addr:street":"Peel Way","brand":"Tesco","brand:wikidata":"Q487494","brand:wikipedia":"en:Tesco","fhrs:id":"893987","source:addr":"FHRS Open Data","website":"https:\/\/www.tesco.com\/store-locator\/bury\/woodfield-retail-park"}}, "geometry":{"type":"MultiPolygon","coordinates":[[[[-2.29597,53.59704],[-2.29596,53.5971],[-2.29588,53.59709],[-2.29577,53.59749],[-2.29591,53.5975],[-2.2959,53.59755],[-2.29595,53.59756],[-2.29609,53.59764],[-2.29607,53.59768],[-2.29587,53.59769],[-2.29586,53.59772],[-2.29589,53.59771],[-2.2959,53.59776],[-2.29638,53.59775],[-2.29639,53.59781],[-2.29586,53.59782],[-2.29586,53.59781],[-2.29564,53.59781],[-2.29495,53.59774],[-2.29495,53.59773],[-2.29454,53.5977],[-2.29455,53.59768],[-2.29439,53.59766],[-2.29459,53.59691],[-2.29597,53.59704]]]]}},
{ "type":"Feature","properties":{"osm_way_id":"522976819","name":"Co-op","building":"retail","shop":"supermarket","other":{"addr:postcode":"OL4 3BP","addr:street":"Owl Mill","fhrs:id":"51064"}}, "geometry":{"type":"MultiPolygon","coordinates":[[[[-2.07449,53.53879],[-2.07457,53.53879],[-2.07457,53.53907],[-2.07449,53.53907],[-2.07449,53.53912],[-2.07442,53.53912],[-2.07442,53.53919],[-2.07389,53.53919],[-2.0739,53.53879],[-2.07437,53.53879],[-2.07437,53.53876],[-2.07449,53.53876],[-2.07449,53.53879]]]]}},
{ "type":"Feature","properties":{"osm_way_id":"529796457","name":"Tesco Extra","building":"yes","shop":"supermarket","other":{"brand":"Tesco Extra","brand:wikidata":"Q25172225","brand:wikipedia":"en:Tesco Extra"}}, "geometry":{"type":"MultiPolygon","coordinates":[[[[-2.02316,53.45433],[-2.02293,53.45303],[-2.02313,53.45302],[-2.02312,53.45295],[-2.02401,53.45289],[-2.02406,53.45316],[-2.02399,53.45316],[-2.02409,53.45371],[-2.02377,53.45373],[-2.02383,53.45405],[-2.02356,53.45407],[-2.0236,53.4543],[-2.02316,53.45433]]]]}},
{ "type":"Feature","properties":{"osm_way_id":"533641554","name":"Moorside Co-op","building":"yes","shop":"supermarket"},"geometry":{"type":"MultiPolygon","coordinates":[[[[-2.07563,53.56203],[-2.0755,53.56196],[-2.07556,53.56192],[-2.07549,53.56189],[-2.07561,53.56178],[-2.07563,53.56179],[-2.07565,53.56177],[-2.07569,53.56179],[-2.07567,53.5618],[-2.07583,53.56188],[-2.07563,53.56203]]]]}},
{ "type":"Feature","properties":{"osm_way_id":"541395035","name":"PK Foods","building":"yes","shop":"supermarket","other":{"addr:housenumber":"240","addr:postcode":"BL1 8DT","addr:street":"Blackburn Road","fhrs:id":"66699","source:addr":"FHRS Open Data"}}, "geometry":{"type":"MultiPolygon","coordinates":[[[[-2.43049,53.59283],[-2.43046,53.59268],[-2.43091,53.59264],[-2.43093,53.5928],[-2.43049,53.59283]]]]}},
{ "type":"Feature","properties":{"osm_way_id":"541477709","name":"The Food Warehouse","building":"yes","shop":"supermarket","other":{"addr:city":"Bolton","addr:postcode":"BL2 6QR","addr:street":"Bury Road","addr:unit":"B1","brand:wikidata":"Q87263899","operator":"Iceland"}}, "geometry":{"type":"MultiPolygon","coordinates":[[[[-2.38372,53.58106],[-2.38362,53.5813],[-2.3831,53.58122],[-2.38321,53.58098],[-2.38372,53.58106]]]]}},
{ "type":"Feature","properties":{"osm_way_id":"541477711","name":"Aldi","building":"yes","shop":"supermarket","other":{"addr:city":"Bolton","addr:postcode":"BL2 6PP","addr:street":"Breightmet Fold Lane","brand":"ALDI","brand:wikidata":"Q41171672","brand:wikipedia":"en:Aldi","fhrs:id":"909788"}}, "geometry":{"type":"MultiPolygon","coordinates":[[[[-2.38209,53.58057],[-2.38197,53.58084],[-2.38192,53.58083],[-2.38181,53.58108],[-2.38179,53.58107],[-2.38176,53.58113],[-2.38132,53.58105],[-2.38158,53.58049],[-2.38209,53.58057]]]]}},
{ "type":"Feature","properties":{"osm_way_id":"541755879","name":"Spar","building":"yes","shop":"supermarket","other":{"addr:city":"Bolton","addr:housenumber":"63","addr:postcode":"BL2 5BP","addr:street":"New Lane","brand":"Spar","brand:wikidata":"Q610492","brand:wikipedia":"en:Spar (retailer)","fhrs:id":"1088443"}}, "geometry":{"type":"MultiPolygon","coordinates":[[[[-2.3953,53.59194],[-2.39522,53.59214],[-2.39491,53.59209],[-2.39499,53.5919],[-2.3953,53.59194]]]]}},
{ "type":"Feature","properties":{"osm_way_id":"542014124","name":"Spar","building":"yes","shop":"supermarket","other":{"brand":"Spar","brand:wikidata":"Q610492","brand:wikipedia":"en:SPAR (retailer)"}}, "geometry":{"type":"MultiPolygon","coordinates":[[[[-2.39557,53.54398],[-2.39554,53.54401],[-2.39542,53.54402],[-2.39541,53.54398],[-2.39537,53.54387],[-2.39537,53.54385],[-2.39539,53.54385],[-2.39538,53.54383],[-2.39546,53.54382],[-2.39548,53.54387],[-2.39553,53.54386],[-2.39557,53.54398]]]]}},
{ "type":"Feature","properties":{"osm_way_id":"544837223","name":"Morrisons","building":"yes","shop":"supermarket","other":{"addr:postcode":"WN7 4JY","addr:street":"Sale Way","brand":"Morrisons","brand:wikidata":"Q922344","brand:wikipedia":"en:Morrisons","website":"https:\/\/my.morrisons.com\/storefinder\/508","wheelchair":"yes"}}, "geometry":{"type":"MultiPolygon","coordinates":[[[[-2.53286,53.4901],[-2.53192,53.4899],[-2.53239,53.48912],[-2.53287,53.48921],[-2.53273,53.48944],[-2.53319,53.48955],[-2.53286,53.4901]]]]}},
{ "type":"Feature","properties":{"osm_way_id":"547205827","name":"Asda","landuse":"retail","shop":"supermarket","other":{"addr:country":"GB","addr:housename":"Ridgedale Centre","addr:postcode":"SK6 6AU","addr:street":"Hollins Lane","brand":"Asda","brand:wikidata":"Q297410","brand:wikipedia":"en:Asda","contact:website":"https:\/\/storelocator.asda.com\/north-west\/stockport\/the-ridgedale-centre","fhrs:id":"756399","old_name":"The Co-operative Food","operator":"Asda Stores Ltd","source:addr":"FHRS Open Data"}}, "geometry":{"type":"MultiPolygon","coordinates":[[[[-2.06235,53.39486],[-2.06235,53.39501],[-2.06228,53.39502],[-2.06226,53.39522],[-2.06234,53.39538],[-2.06238,53.39543],[-2.06242,53.39563],[-2.06247,53.39589],[-2.06361,53.39583],[-2.06351,53.39527],[-2.06345,53.3949],[-2.0634,53.39487],[-2.06235,53.39486]]]]}},
{ "type":"Feature","properties":{"osm_way_id":"549221806","name":"Lidl","building":"yes","shop":"supermarket","other":{"addr:city":"Bolton","addr:postcode":"BL1 8TH","addr:street":"Crompton Way","brand":"Lidl","brand:wikidata":"Q151954","brand:wikipedia":"en:Lidl","fhrs:id":"73180","website":"https:\/\/www.lidl.co.uk\/en\/index.htm?ar=7&changestore=1"}}, "geometry":{"type":"MultiPolygon","coordinates":[[[[-2.43146,53.60122],[-2.43145,53.60137],[-2.43154,53.60138],[-2.43151,53.60183],[-2.43137,53.60183],[-2.43137,53.60179],[-2.43109,53.60178],[-2.43111,53.60139],[-2.43104,53.60138],[-2.43105,53.6012],[-2.43123,53.60121],[-2.43123,53.60122],[-2.43146,53.60122]]]]}},
{ "type":"Feature","properties":{"osm_way_id":"549904140","name":"The Co-operative Food","building":"yes","shop":"supermarket","other":{"addr:housenumber":"196","addr:postcode":"BL7 9JJ","addr:street":"Darwen Road","brand":"The Co-operative Food","brand:wikidata":"Q3277439","brand:wikipedia":"en:Co-op Food","fhrs:id":"89015","source:addr":"FHRS Open Data"}}, "geometry":{"type":"MultiPolygon","coordinates":[[[[-2.41916,53.61526],[-2.41896,53.61545],[-2.41838,53.61523],[-2.41848,53.61514],[-2.41853,53.61517],[-2.41855,53.61517],[-2.41865,53.61509],[-2.41898,53.61521],[-2.41899,53.6152],[-2.41916,53.61526]]]]}},
{ "type":"Feature","properties":{"osm_way_id":"551706189","name":"Lidl","building":"yes","shop":"supermarket","other":{"brand":"Lidl","brand:wikidata":"Q151954"}}, "geometry":{"type":"MultiPolygon","coordinates":[[[[-2.31218,53.59378],[-2.31205,53.59402],[-2.31188,53.59399],[-2.31186,53.59404],[-2.3117,53.59402],[-2.31173,53.59397],[-2.31127,53.59388],[-2.31142,53.59359],[-2.3121,53.59372],[-2.31208,53.59376],[-2.31218,53.59378]]]]}},
{ "type":"Feature","properties":{"osm_way_id":"554825686","name":"Lidl","building":"yes","shop":"supermarket","other":{"addr:country":"GB","addr:housenumber":"2","addr:postcode":"WN7 4PF","addr:street":"Derby Street","brand":"Lidl","brand:wikidata":"Q151954","brand:wikipedia":"en:Lidl","fhrs:id":"1200627"}}, "geometry":{"type":"MultiPolygon","coordinates":[[[[-2.5126,53.49496],[-2.51256,53.49479],[-2.51252,53.49479],[-2.51246,53.49453],[-2.51222,53.49455],[-2.51221,53.49449],[-2.51209,53.4945],[-2.5122,53.49499],[-2.5126,53.49496]]]]}},
{ "type":"Feature","properties":{"osm_way_id":"558216351","name":"Spar","building":"yes","shop":"supermarket","other":{"brand":"Spar","brand:wikidata":"Q610492","brand:wikipedia":"en:SPAR (retailer)"}}, "geometry":{"type":"MultiPolygon","coordinates":[[[[-2.38367,53.54218],[-2.38359,53.54215],[-2.38356,53.54218],[-2.38348,53.54227],[-2.38355,53.5423],[-2.38367,53.54218]]]]}},
{ "type":"Feature","properties":{"osm_way_id":"558219774","name":"Spar","building":"yes","shop":"supermarket","other":{"brand":"Spar","brand:wikidata":"Q610492","brand:wikipedia":"en:SPAR (retailer)"}}, "geometry":{"type":"MultiPolygon","coordinates":[[[[-2.30934,53.60071],[-2.30912,53.60059],[-2.30894,53.60071],[-2.30908,53.60078],[-2.30915,53.60074],[-2.30923,53.60078],[-2.30934,53.60071]]]]}},
{ "type":"Feature","properties":{"osm_way_id":"558244055","name":"The Co-operative Food","building":"yes","shop":"supermarket","other":{"addr:housenumber":"383","addr:postcode":"BL3 4QJ","addr:street":"Wigan Road","brand":"The Co-operative Food","brand:wikidata":"Q3277439","brand:wikipedia":"en:Co-op Food","fhrs:id":"89218","source:addr":"FHRS Open Data"}}, "geometry":{"type":"MultiPolygon","coordinates":[[[[-2.46561,53.56681],[-2.46538,53.56656],[-2.46531,53.56659],[-2.46534,53.56662],[-2.4653,53.56663],[-2.46534,53.56668],[-2.46529,53.5667],[-2.46536,53.56678],[-2.46524,53.56681],[-2.46524,53.56687],[-2.46528,53.56692],[-2.46561,53.56681]]]]}},
{ "type":"Feature","properties":{"osm_way_id":"562792691","name":"Co-op","building":"yes","shop":"supermarket","other":{"addr:housenumber":"245","addr:postcode":"BL4 0NX","addr:street":"Highfield Road","fhrs:id":"89356","source:addr":"FHRS Open Data"}}, "geometry":{"type":"MultiPolygon","coordinates":[[[[-2.42871,53.54687],[-2.42876,53.54673],[-2.4285,53.5467],[-2.42848,53.54675],[-2.4285,53.54675],[-2.42846,53.54684],[-2.42871,53.54687]]]]}},
{ "type":"Feature","properties":{"osm_way_id":"564007113","name":"Sainsbury's","building":"yes","shop":"supermarket","other":{"brand":"Sainsbury's","brand:wikidata":"Q152096","brand:wikipedia":"en:Sainsbury's","website":"https:\/\/stores.sainsburys.co.uk\/2835\/bolton"}}, "geometry":{"type":"MultiPolygon","coordinates":[[[[-2.42967,53.57345],[-2.42952,53.57343],[-2.42948,53.57363],[-2.42958,53.57364],[-2.42957,53.57365],[-2.42962,53.57366],[-2.42967,53.57345]]]]}},
{ "type":"Feature","properties":{"osm_way_id":"564502922","name":"Lidl","building":"yes","shop":"supermarket","other":{"addr:city":"Wigan","addr:country":"GB","addr:housenumber":"2","addr:postcode":"WN5 8BQ","addr:street":"Chatsworth Street","addr:suburb":"Pemberton","brand":"Lidl","brand:wikidata":"Q151954","brand:wikipedia":"en:Lidl","fhrs:id":"98916"}}, "geometry":{"type":"MultiPolygon","coordinates":[[[[-2.67643,53.53445],[-2.67618,53.53424],[-2.67548,53.53454],[-2.67574,53.53475],[-2.67643,53.53445]]]]}},
{ "type":"Feature","properties":{"osm_way_id":"564922030","name":"ALDI","building":"retail","shop":"supermarket","other":{"addr:city":"Newtown","addr:country":"GB","addr:postcode":"WN5 0TQ","addr:street":"Scot Lane","brand":"ALDI","brand:wikidata":"Q41171672","brand:wikipedia":"en:Aldi","fhrs:id":"433418"}}, "geometry":{"type":"MultiPolygon","coordinates":[[[[-2.6529,53.54058],[-2.65267,53.54035],[-2.65251,53.5404],[-2.65184,53.54063],[-2.65195,53.54074],[-2.65207,53.54087],[-2.6529,53.54058]]]]}},
{ "type":"Feature","properties":{"osm_way_id":"565026257","name":"Food Plus","building":"yes","shop":"supermarket","other":{"addr:postcode":"BL3 6HU","addr:street":"Shaw Street"}}, "geometry":{"type":"MultiPolygon","coordinates":[[[[-2.43658,53.57173],[-2.43668,53.57166],[-2.43655,53.5716],[-2.43629,53.57148],[-2.4362,53.57155],[-2.43629,53.57159],[-2.43658,53.57173]]]]}},
{ "type":"Feature","properties":{"osm_way_id":"576594490","name":"The Co-operative Food","building":"yes","shop":"supermarket"},"geometry":{"type":"MultiPolygon","coordinates":[[[[-2.40809,53.58647],[-2.40802,53.58638],[-2.40789,53.58642],[-2.40784,53.58643],[-2.4078,53.58639],[-2.40772,53.58642],[-2.40778,53.5865],[-2.40782,53.58649],[-2.40786,53.58654],[-2.40809,53.58647]]]]}},
{ "type":"Feature","properties":{"osm_way_id":"579147169","name":"Co-op Food","building":"yes","shop":"supermarket","other":{"addr:housenumber":"190","addr:postcode":"BL2 2HN","addr:street":"Tonge Moor Road","brand":"Co-op Food","brand:wikidata":"Q3277439","brand:wikipedia":"en:Co-op Food","fhrs:id":"1030360","source:addr":"FHRS Open Data"}}, "geometry":{"type":"MultiPolygon","coordinates":[[[[-2.41226,53.59054],[-2.41226,53.59064],[-2.41199,53.59064],[-2.41199,53.59054],[-2.41211,53.59054],[-2.41226,53.59054]]]]}},
{ "type":"Feature","properties":{"osm_way_id":"584019071","name":"Asda","building":"yes","shop":"supermarket","other":{"addr:city":"Oldham","addr:country":"GB","addr:housenumber":"242","addr:postcode":"OL4 2RB","addr:street":"Huddersfield Road","brand":"Asda","brand:wikidata":"Q297410","brand:wikipedia":"en:Asda","contact:website":"https:\/\/storelocator.asda.com\/north-west\/oldham\/huddersfield-road","fhrs:id":"118545","operator":"Asda Stores Ltd"}}, "geometry":{"type":"MultiPolygon","coordinates":[[[[-2.08381,53.54829],[-2.08373,53.54817],[-2.08363,53.54819],[-2.08358,53.54811],[-2.08431,53.54796],[-2.08444,53.5482],[-2.08417,53.54825],[-2.08415,53.54821],[-2.08381,53.54829]]]]}},
{ "type":"Feature","properties":{"osm_way_id":"588736396","name":"Lidl","building":"yes","shop":"supermarket","other":{"addr:country":"GB","addr:postcode":"M34 3LJ","addr:street":"Ashworth Street","brand":"Lidl","brand:wikidata":"Q151954","brand:wikipedia":"en:Lidl","fhrs:id":"21311"}}, "geometry":{"type":"MultiPolygon","coordinates":[[[[-2.11585,53.45628],[-2.11625,53.45628],[-2.11625,53.45657],[-2.11654,53.45657],[-2.11654,53.45664],[-2.11649,53.45664],[-2.11649,53.45672],[-2.1164,53.45672],[-2.1164,53.45682],[-2.11585,53.45682],[-2.11585,53.45628]]]]}},
{ "type":"Feature","properties":{"osm_way_id":"589890861","name":"Spar","building":"yes","shop":"supermarket","other":{"addr:housenumber":"6","addr:postcode":"BL6 5EW","addr:street":"Blackhorse Street","brand":"Spar","brand:wikidata":"Q610492","brand:wikipedia":"en:Spar (retailer)","fhrs:id":"85477","source:addr":"FHRS Open Data"}}, "geometry":{"type":"MultiPolygon","coordinates":[[[[-2.58738,53.59476],[-2.58715,53.59492],[-2.58725,53.59497],[-2.58744,53.59484],[-2.58747,53.5948],[-2.58738,53.59476]]]]}},
{ "type":"Feature","properties":{"osm_way_id":"593692649","name":"Lidl","building":"yes","shop":"supermarket","other":{"addr:postcode":"BL5 3YY","addr:street":"The Fairways","brand":"Lidl","brand:wikidata":"Q151954","brand:wikipedia":"en:Lidl","fhrs:id":"66005","source:addr":"FHRS Open Data"}}, "geometry":{"type":"MultiPolygon","coordinates":[[[[-2.5284,53.5471],[-2.52839,53.5472],[-2.52835,53.54727],[-2.52826,53.54725],[-2.52819,53.54737],[-2.52783,53.5473],[-2.52781,53.54734],[-2.52756,53.54729],[-2.5277,53.54704],[-2.52791,53.54708],[-2.52794,53.54703],[-2.52809,53.54706],[-2.5281,53.54705],[-2.5284,53.5471]]]]}},
{ "type":"Feature","properties":{"osm_way_id":"593692656","name":"Sainsbury's","building":"yes","shop":"supermarket","other":{"brand":"Sainsbury's","brand:wikidata":"Q152096","brand:wikipedia":"en:Sainsbury's","website":"https:\/\/stores.sainsburys.co.uk\/2097\/westhoughton"}}, "geometry":{"type":"MultiPolygon","coordinates":[[[[-2.52296,53.54704],[-2.52296,53.54713],[-2.52295,53.54713],[-2.52279,53.54713],[-2.52274,53.54713],[-2.52274,53.54707],[-2.52274,53.54704],[-2.52296,53.54704]]]]}},
{ "type":"Feature","properties":{"osm_way_id":"624427812","name":"Tesco","building":"yes","shop":"supermarket","other":{"brand":"Tesco","brand:wikidata":"Q487494","brand:wikipedia":"en:Tesco"}}, "geometry":{"type":"MultiPolygon","coordinates":[[[[-2.14775,53.48092],[-2.14898,53.48099],[-2.14898,53.48092],[-2.14908,53.48092],[-2.14911,53.48071],[-2.14901,53.4807],[-2.149,53.48075],[-2.14882,53.48075],[-2.14883,53.48064],[-2.14886,53.48064],[-2.14886,53.4806],[-2.14864,53.48058],[-2.14864,53.48053],[-2.14857,53.48052],[-2.14857,53.4805],[-2.14843,53.4805],[-2.14842,53.48052],[-2.14813,53.4805],[-2.14812,53.48055],[-2.14782,53.48053],[-2.14775,53.48092]]]]}},
{ "type":"Feature","properties":{"osm_way_id":"654817482","name":"Asda","building":"retail","shop":"supermarket","other":{"addr:city":"Oldham","addr:country":"GB","addr:postcode":"OL8 4JZ","addr:street":"Hollins Road","brand":"Asda","brand:wikidata":"Q297410","brand:wikipedia":"en:Asda","contact:website":"https:\/\/storelocator.asda.com\/north-west\/oldham\/hollins-road","fhrs:id":"117624","old_name":"Netto","operator":"Asda Stores Ltd"}}, "geometry":{"type":"MultiPolygon","coordinates":[[[[-2.13501,53.52013],[-2.13475,53.52017],[-2.13474,53.52014],[-2.13448,53.52018],[-2.13442,53.52002],[-2.13432,53.51977],[-2.13474,53.51972],[-2.13485,53.52001],[-2.13496,53.52],[-2.13501,53.52013]]]]}},
{ "type":"Feature","properties":{"osm_way_id":"663130421","name":"Co-op Food","building":"yes","shop":"supermarket","other":{"addr:housenumber":"567","addr:postcode":"BL6 6JZ","addr:street":"Chorley New Road","brand":"Co-op Food","brand:wikidata":"Q3277439","brand:wikipedia":"en:Co-op Food","fhrs:id":"809595","source:addr":"FHRS Open Data"}}, "geometry":{"type":"MultiPolygon","coordinates":[[[[-2.5333,53.58937],[-2.53327,53.58939],[-2.53313,53.58952],[-2.5334,53.58962],[-2.53357,53.58947],[-2.5333,53.58937]]]]}},
{ "type":"Feature","properties":{"osm_way_id":"665247183","name":"Co-op Food","building":"yes","shop":"supermarket","other":{"addr:housenumber":"75-81","addr:postcode":"BL6 7PA","addr:street":"Winter Hey Lane","brand":"Co-op Food","brand:wikidata":"Q3277439","brand:wikipedia":"en:Co-op Food","fhrs:id":"89406","source:addr":"FHRS Open Data"}}, "geometry":{"type":"MultiPolygon","coordinates":[[[[-2.54878,53.59856],[-2.54875,53.59853],[-2.54865,53.59843],[-2.54846,53.59857],[-2.5486,53.59869],[-2.54878,53.59856]]]]}},
{ "type":"Feature","properties":{"osm_way_id":"671141147","name":"Bolton Superstore","building":"yes","shop":"supermarket"},"geometry":{"type":"MultiPolygon","coordinates":[[[[-2.4019,53.55461],[-2.40188,53.55464],[-2.40193,53.55465],[-2.40192,53.55467],[-2.40201,53.55468],[-2.40195,53.5548],[-2.40186,53.55478],[-2.40168,53.55475],[-2.40177,53.55458],[-2.4019,53.55461]]]]}},
{ "type":"Feature","properties":{"osm_way_id":"671503824","name":"Costcutter","building":"yes","shop":"supermarket","other":{"addr:city":"Farnworth","addr:housenumber":"166-168","addr:street":"Campbell Street","brand":"Costcutter","brand:wikidata":"Q5175072","brand:wikipedia":"en:Costcutter"}}, "geometry":{"type":"MultiPolygon","coordinates":[[[[-2.41506,53.55463],[-2.41504,53.55469],[-2.415,53.55468],[-2.41499,53.55482],[-2.41478,53.55481],[-2.41479,53.55462],[-2.41506,53.55463]]]]}},
{ "type":"Feature","properties":{"osm_way_id":"671767368","name":"Costcutter","building":"yes","shop":"supermarket","other":{"addr:housenumber":"159-161","addr:postcode":"BL4 0BT","addr:street":"Plodder Lane","brand":"Costcutter","brand:wikidata":"Q5175072","brand:wikipedia":"en:Costcutter","fhrs:id":"87423","source:addr":"FHRS Open Data"}}, "geometry":{"type":"MultiPolygon","coordinates":[[[[-2.41661,53.54896],[-2.41656,53.54883],[-2.41655,53.5488],[-2.41643,53.54881],[-2.41645,53.54887],[-2.41649,53.54897],[-2.41661,53.54896]]]]}},
{ "type":"Feature","properties":{"osm_way_id":"684998178","name":"Aldi","building":"retail","shop":"supermarket","other":{"brand":"ALDI","brand:wikidata":"Q41171672","brand:wikipedia":"en:Aldi"}}, "geometry":{"type":"MultiPolygon","coordinates":[[[[-2.2602,53.39727],[-2.26062,53.39739],[-2.26014,53.39792],[-2.25973,53.3978],[-2.2602,53.39727]]]]}},
{ "type":"Feature","properties":{"osm_way_id":"685303057","name":"Lidl","building":"yes","shop":"supermarket","other":{"brand":"Lidl","brand:wikidata":"Q151954","brand:wikipedia":"en:Lidl"}}, "geometry":{"type":"MultiPolygon","coordinates":[[[[-2.29602,53.39993],[-2.29605,53.40064],[-2.29549,53.40065],[-2.29548,53.40046],[-2.29555,53.40046],[-2.29553,53.39994],[-2.29602,53.39993]]]]}},
{ "type":"Feature","properties":{"osm_way_id":"693881531","name":"Aldi","building":"yes","shop":"supermarket","other":{"brand":"ALDI","brand:wikidata":"Q41171672","brand:wikipedia":"en:Aldi"}}, "geometry":{"type":"MultiPolygon","coordinates":[[[[-2.45291,53.54219],[-2.45322,53.54238],[-2.45295,53.54253],[-2.45301,53.54257],[-2.45289,53.54263],[-2.45284,53.5426],[-2.45258,53.54274],[-2.45223,53.54252],[-2.4525,53.54237],[-2.45253,53.54239],[-2.45291,53.54219]]]]}},
{ "type":"Feature","properties":{"osm_way_id":"697080061","name":"Costcutter","building":"yes","shop":"supermarket","other":{"brand":"Costcutter","brand:wikidata":"Q5175072","brand:wikipedia":"en:Costcutter"}}, "geometry":{"type":"MultiPolygon","coordinates":[[[[-2.52348,53.55503],[-2.52353,53.55517],[-2.52338,53.55519],[-2.52336,53.55515],[-2.52327,53.55516],[-2.52325,53.55512],[-2.52328,53.55512],[-2.52326,53.55508],[-2.52335,53.55507],[-2.52334,53.55504],[-2.52348,53.55503]]]]}},
{ "type":"Feature","properties":{"osm_way_id":"698963759","name":"Co-op Food","building":"yes","shop":"supermarket","other":{"addr:housenumber":"34-40","addr:postcode":"BL5 3AN","addr:street":"Market Street","brand":"Co-op Food","brand:wikidata":"Q3277439","brand:wikipedia":"en:Co-op Food","fhrs:id":"89623","operator":"The Co-operative Group","operator:wikidata":"Q117202","operator:wikipedia":"en:The Co-operative Group","source:addr":"FHRS Open Data"}}, "geometry":{"type":"MultiPolygon","coordinates":[[[[-2.52177,53.54893],[-2.52175,53.54901],[-2.52173,53.54906],[-2.52153,53.54904],[-2.52152,53.54907],[-2.52136,53.54905],[-2.52142,53.54889],[-2.52177,53.54893]]]]}},
{ "type":"Feature","properties":{"osm_way_id":"703931092","name":"Worldwide Superstore","building":"yes","shop":"supermarket","other":{"addr:housenumber":"43","addr:postcode":"OL4 1AR","addr:street":"Glodwick Road","phone":"0161 620 7215"}}, "geometry":{"type":"MultiPolygon","coordinates":[[[[-2.09588,53.53625],[-2.09566,53.53622],[-2.0957,53.53613],[-2.09541,53.53608],[-2.09549,53.5359],[-2.09597,53.53598],[-2.09592,53.5361],[-2.09594,53.53611],[-2.09588,53.53625]]]]}},
{ "type":"Feature","properties":{"osm_way_id":"704553270","name":"Asda","building":"yes","shop":"supermarket","other":{"addr:city":"Altrincham","addr:country":"GB","addr:housenumber":"90","addr:postcode":"WA14 5ZR","addr:street":"George Richards Way","brand":"Asda","brand:wikidata":"Q297410","brand:wikipedia":"en:Asda","contact:website":"https:\/\/storelocator.asda.com\/north-west\/altrincham\/90-george-richards-way-broadheath","fhrs:id":"778527","operator":"Asda Stores Ltd"}}, "geometry":{"type":"MultiPolygon","coordinates":[[[[-2.36391,53.39813],[-2.36313,53.3983],[-2.36305,53.39819],[-2.36281,53.39825],[-2.36274,53.39816],[-2.36223,53.39826],[-2.36216,53.39811],[-2.36231,53.39808],[-2.36228,53.39803],[-2.36261,53.39796],[-2.36237,53.39758],[-2.3633,53.39737],[-2.3634,53.39752],[-2.36344,53.39752],[-2.3636,53.39763],[-2.36391,53.39813]]]]}},
{ "type":"Feature","properties":{"osm_way_id":"707209068","name":"Halal Meat & Grocery","building":"yes","shop":"supermarket","other":{"addr:housenumber":"255","addr:postcode":"BL3 6LA","addr:street":"Derby Street","fhrs:id":"929379","source:addr":"FHRS Open Data"}}, "geometry":{"type":"MultiPolygon","coordinates":[[[[-2.44093,53.56857],[-2.44076,53.56849],[-2.44069,53.56846],[-2.4406,53.56852],[-2.44084,53.56864],[-2.44093,53.56857]]]]}},
{ "type":"Feature","properties":{"osm_way_id":"707209071","name":"Faisal Food Store","building":"yes","shop":"supermarket","other":{"addr:housenumber":"263-267","addr:postcode":"BL3 6LA","addr:street":"Derby Street","fhrs:id":"92493","source:addr":"FHRS Open Data"}}, "geometry":{"type":"MultiPolygon","coordinates":[[[[-2.44113,53.56822],[-2.44119,53.56825],[-2.4413,53.5683],[-2.44117,53.5684],[-2.44099,53.56831],[-2.44113,53.56822]]]]}},
{ "type":"Feature","properties":{"osm_way_id":"707209075","name":"Barkat","building":"yes","shop":"supermarket","other":{"addr:housenumber":"275","addr:postcode":"BL3 6LA","addr:street":"Derby Street","fhrs:id":"114592","source:addr":"FHRS Open Data"}}, "geometry":{"type":"MultiPolygon","coordinates":[[[[-2.44142,53.56821],[-2.44157,53.56811],[-2.44134,53.56803],[-2.44122,53.56812],[-2.44127,53.56814],[-2.44142,53.56821]]]]}},
{ "type":"Feature","properties":{"osm_way_id":"707209095","name":"Nasza BiedronkaPearl Gardens","building":"yes","shop":"supermarket","other":{"addr:housenumber":"313","addr:postcode":"BL3 6LH","addr:street":"Derby Street","fhrs:id":"1080040","source:addr":"FHRS Open Data"}}, "geometry":{"type":"MultiPolygon","coordinates":[[[[-2.44233,53.56742],[-2.44245,53.56748],[-2.44232,53.56757],[-2.44221,53.5675],[-2.44233,53.56742]]]]}},
{ "type":"Feature","properties":{"osm_way_id":"707227944","name":"Freeze 'N' Spice","building":"yes","shop":"supermarket"},"geometry":{"type":"MultiPolygon","coordinates":[[[[-2.44289,53.56701],[-2.44306,53.56711],[-2.44301,53.56714],[-2.44284,53.56704],[-2.44289,53.56701]]]]}},
{ "type":"Feature","properties":{"osm_way_id":"708784164","name":"Europa Taste","building":"yes","shop":"supermarket"},"geometry":{"type":"MultiPolygon","coordinates":[[[[-2.45242,53.56249],[-2.45253,53.56243],[-2.45243,53.56236],[-2.45241,53.56237],[-2.45234,53.56233],[-2.45228,53.56236],[-2.45236,53.56241],[-2.45232,53.56243],[-2.45242,53.56249]]]]}},
{ "type":"Feature","properties":{"osm_way_id":"733578192","name":"Heron Foods","building":"yes","shop":"supermarket","other":{"addr:city":"Bolton","addr:country":"GB","addr:housenumber":"18,20","addr:postcode":"BL1 1NB","addr:street":"Newport Street","brand":"Heron Foods","brand:wikidata":"Q5743472","brand:wikipedia":"en:Heron Foods","contact:website":"https:\/\/heronfoods.com\/storelocator\/store-details\/bolton","fhrs:id":"727938"}}, "geometry":{"type":"MultiPolygon","coordinates":[[[[-2.42999,53.5772],[-2.43003,53.57729],[-2.42961,53.57736],[-2.42957,53.57728],[-2.42959,53.57726],[-2.42999,53.5772]]]]}},
{ "type":"Feature","properties":{"osm_way_id":"737813601","name":"Al Noor Super Store","building":"yes","shop":"supermarket"},"geometry":{"type":"MultiPolygon","coordinates":[[[[-2.43691,53.5922],[-2.43681,53.59231],[-2.43677,53.5923],[-2.43679,53.59228],[-2.43676,53.59226],[-2.43674,53.59229],[-2.43668,53.59227],[-2.43672,53.59222],[-2.43679,53.59215],[-2.43691,53.5922]]]]}},
{ "type":"Feature","properties":{"osm_way_id":"742495934","name":"Aldi","building":"retail","shop":"supermarket","other":{"addr:housenumber":"90","addr:postcode":"OL12 6XD","addr:street":"Mellor Street","brand":"ALDI","brand:wikidata":"Q41171672","brand:wikipedia":"en:Aldi","fhrs:id":"860405","source:addr":"FHRS Open Data","source:geometry":"ESRI World Imagery","website":"https:\/\/www.aldi.co.uk\/store\/s-uk-E0953"}}, "geometry":{"type":"MultiPolygon","coordinates":[[[[-2.1679,53.61541],[-2.16765,53.61532],[-2.16759,53.61537],[-2.16748,53.61533],[-2.16753,53.61527],[-2.16713,53.61513],[-2.16721,53.61505],[-2.16726,53.61507],[-2.16743,53.6149],[-2.16815,53.61516],[-2.1679,53.61541]]]]}},
{ "type":"Feature","properties":{"osm_way_id":"746947333","name":"ALDI","building":"supermarket","shop":"supermarket","other":{"brand":"ALDI","brand:wikidata":"Q41171672","brand:wikipedia":"en:Aldi","building:levels":"1"}}, "geometry":{"type":"MultiPolygon","coordinates":[[[[-2.5208,53.5493],[-2.52056,53.54967],[-2.52001,53.54955],[-2.52007,53.54945],[-2.51983,53.5494],[-2.51998,53.54912],[-2.5208,53.5493]]]]}},
{ "type":"Feature","properties":{"osm_way_id":"763246404","name":"North Manchester Joinery","building":"retail","landuse":"retail","shop":"supermarket","other":{"addr:city":"Manchester","addr:housenumber":"31","addr:postcode":"M25 3BX","addr:street":"Poppythorn Lane","building:levels":"1","contact:email":"dan@northmanchesterjoinery.co.uk","contact:phone":"+44 7950 185 770","opening_hours":"24\/7","operator":"Kitchens, Summer houses, door and windows","payment:bitcoin":"yes","payment:cash":"yes","payment:electronic_purses":"yes","payment:ethereum":"yes","website":"www.northmanchesterjoinery.co.uk","website:map":"www.northmanchesterjoinery.co.uk"}}, "geometry":{"type":"MultiPolygon","coordinates":[[[[-2.28331,53.53475],[-2.28323,53.53475],[-2.28324,53.53482],[-2.28332,53.53482],[-2.28331,53.53475]]]]}},
{ "type":"Feature","properties":{"osm_way_id":"771124068","name":"Co-op Food","building":"yes","shop":"supermarket","other":{"addr:city":"Aspull","addr:housenumber":"134","addr:postcode":"WN2 1XH","addr:street":"Haigh Road","brand":"Co-op Food","brand:wikidata":"Q3277439","brand:wikipedia":"en:Co-op Food"}}, "geometry":{"type":"MultiPolygon","coordinates":[[[[-2.58613,53.56971],[-2.5862,53.56969],[-2.58631,53.56966],[-2.58616,53.56948],[-2.58598,53.56954],[-2.58586,53.56957],[-2.58591,53.56963],[-2.58603,53.5696],[-2.58613,53.56971]]]]}},
{ "type":"Feature","properties":{"osm_way_id":"792561652","name":"Co-op Food","building":"yes","shop":"supermarket","other":{"addr:postcode":"BL0 9SH","addr:street":"Longsight Road","brand":"Co-op Food","brand:wikidata":"Q3277439","brand:wikipedia":"en:Co-op Food","fhrs:id":"936723","source:addr":"FHRS Open Data"}}, "geometry":{"type":"MultiPolygon","coordinates":[[[[-2.33437,53.63272],[-2.33477,53.63274],[-2.3348,53.63261],[-2.33466,53.6326],[-2.33451,53.63259],[-2.3345,53.6326],[-2.33439,53.6326],[-2.33437,53.63272]]]]}},
{ "type":"Feature","properties":{"osm_way_id":"793635822","name":"Lidl","building":"yes","shop":"supermarket","other":{"addr:city":"Salford","addr:country":"GB","addr:housenumber":"2","addr:postcode":"M44 6NN","addr:street":"Woodrow Way","brand":"Lidl","brand:wikidata":"Q151954","brand:wikipedia":"en:Lidl","fhrs:id":"64277"}}, "geometry":{"type":"MultiPolygon","coordinates":[[[[-2.42501,53.43967],[-2.42472,53.43965],[-2.42472,53.43961],[-2.42467,53.43961],[-2.4247,53.43939],[-2.42463,53.43938],[-2.42465,53.43922],[-2.4247,53.43915],[-2.42476,53.43915],[-2.42508,53.43916],[-2.42501,53.43967]]]]}},
{ "type":"Feature","properties":{"osm_way_id":"795022030","name":"ALDI","building":"retail","shop":"supermarket","other":{"addr:city":"Salford","addr:postcode":"M6 5UJ","addr:street":"Heywood Way","brand":"ALDI","brand:wikidata":"Q41171672","brand:wikipedia":"en:Aldi","fhrs:id":"650845","opening_hours":"Mo-Sa 08:00-22:00"}}, "geometry":{"type":"MultiPolygon","coordinates":[[[[-2.28801,53.48789],[-2.28762,53.48777],[-2.28809,53.48726],[-2.2882,53.4873],[-2.28816,53.48734],[-2.28843,53.48743],[-2.28801,53.48789]]]]}},
{ "type":"Feature","properties":{"osm_way_id":"795535873","name":"Aldi","building":"retail","shop":"supermarket","other":{"addr:housenumber":"143","addr:postcode":"M14 7LA","addr:street":"Lloyd Street South","brand":"ALDI","brand:wikidata":"Q41171672","brand:wikipedia":"en:Aldi","opening_hours":"Mo-Sa 08:00-22:00; Su 11:00-17:00","wheelchair":"yes"}}, "geometry":{"type":"MultiPolygon","coordinates":[[[[-2.23932,53.44746],[-2.23934,53.44769],[-2.23861,53.44771],[-2.23849,53.44767],[-2.23849,53.44762],[-2.23857,53.44762],[-2.23856,53.44748],[-2.23932,53.44746]]]]}},
{ "type":"Feature","properties":{"osm_way_id":"796480853","name":"Asda","building":"yes","shop":"supermarket","other":{"brand":"Asda","brand:wikidata":"Q297410","brand:wikipedia":"en:Asda"}}, "geometry":{"type":"MultiPolygon","coordinates":[[[[-2.5197,53.49893],[-2.51976,53.49853],[-2.51942,53.49851],[-2.51936,53.49891],[-2.5197,53.49893]]]]}},
{ "type":"Feature","properties":{"osm_way_id":"831201796","name":"golocalextra","building":"yes","shop":"supermarket"},"geometry":{"type":"MultiPolygon","coordinates":[[[[-2.70343,53.53976],[-2.70328,53.53974],[-2.70335,53.5396],[-2.70349,53.53963],[-2.70343,53.53976]]]]}},
{ "type":"Feature","properties":{"osm_way_id":"842576736","name":"Spar","building":"yes","shop":"supermarket","other":{"addr:housenumber":"117-121","addr:postcode":"BL1 3BD","addr:street":"Chorley Old Road","brand":"Spar","brand:wikidata":"Q610492","brand:wikipedia":"en:Spar (retailer)","fhrs:id":"65686","source:addr":"FHRS Open Data","wheelchair":"yes"}}, "geometry":{"type":"MultiPolygon","coordinates":[[[[-2.44797,53.58455],[-2.44811,53.58462],[-2.44809,53.58464],[-2.44812,53.58465],[-2.44806,53.58469],[-2.44795,53.58478],[-2.44778,53.5847],[-2.44797,53.58455]]]]}},
{ "type":"Feature","properties":{"osm_way_id":"851428639","name":"M&S Foodhall","building":"yes","shop":"supermarket","other":{"brand":"M&S Foodhall","brand:wikidata":"Q714491","brand:wikipedia":"en:Marks & Spencer"}}, "geometry":{"type":"MultiPolygon","coordinates":[[[[-2.4008,53.52781],[-2.40085,53.52797],[-2.40041,53.52803],[-2.4001,53.52804],[-2.40006,53.52804],[-2.40002,53.52803],[-2.39999,53.52801],[-2.39997,53.52799],[-2.39994,53.52791],[-2.4008,53.52781]]]]}},
{ "type":"Feature","properties":{"osm_way_id":"851428644","name":"Aldi","building":"yes","shop":"supermarket","other":{"brand":"ALDI","brand:wikidata":"Q41171672","brand:wikipedia":"en:Aldi"}}, "geometry":{"type":"MultiPolygon","coordinates":[[[[-2.4006,53.5272],[-2.40051,53.52693],[-2.40046,53.52675],[-2.39991,53.52682],[-2.39996,53.52696],[-2.40004,53.52695],[-2.40014,53.52725],[-2.4006,53.5272]]]]}},
{ "type":"Feature","properties":{"osm_way_id":"852006026","name":"ALDI","building":"yes","shop":"supermarket","other":{"addr:city":"Wigan","addr:housenumber":"641","addr:postcode":"WN2 4SJ","addr:street":"Atherton Road","addr:suburb":"Hindley Green","brand":"ALDI","brand:wikidata":"Q41171672","brand:wikipedia":"en:Aldi","opening_hours":"Mo-Sa 08:00-22:00; Su 10:00-16:00","website":"https:\/\/www.aldi.co.uk\/store\/s-uk-E0779"}}, "geometry":{"type":"MultiPolygon","coordinates":[[[[-2.55265,53.52585],[-2.55252,53.52573],[-2.553,53.52555],[-2.55297,53.52552],[-2.55324,53.52542],[-2.55348,53.52564],[-2.55266,53.52596],[-2.55258,53.52588],[-2.55265,53.52585]]]]}},
{ "type":"Feature","properties":{"osm_way_id":"853037363","name":"Lidl","building":"yes","shop":"supermarket","other":{"addr:city":"Manchester","addr:postcode":"M26 1AB","addr:street":"Dale Street","brand":"Lidl","brand:wikidata":"Q151954","brand:wikipedia":"en:Lidl","fhrs:id":"1029115","opening_hours":"Mo-Sa 08:00-22:00; Su 10:00-16:00"}}, "geometry":{"type":"MultiPolygon","coordinates":[[[[-2.32601,53.5579],[-2.32594,53.55787],[-2.32604,53.55777],[-2.32611,53.55779],[-2.32615,53.55775],[-2.32705,53.55806],[-2.32681,53.55832],[-2.3259,53.55801],[-2.32601,53.5579]]]]}},
{ "type":"Feature","properties":{"osm_way_id":"853038420","name":"Lidl","building":"supermarket","shop":"supermarket","other":{"addr:city":"Wigan","addr:country":"GB","addr:housenumber":"91","addr:postcode":"WN6 0JF","addr:street":"Preston Road","addr:village":"Standish","brand":"Lidl","brand:wikidata":"Q151954","brand:wikipedia":"en:Lidl","fhrs:id":"816090","opening_hours":"Mo-Sa 08:00-22:00; Su 10:00-16:00"}}, "geometry":{"type":"MultiPolygon","coordinates":[[[[-2.66686,53.58892],[-2.66653,53.58867],[-2.66685,53.58852],[-2.66737,53.58893],[-2.66705,53.58907],[-2.66694,53.58898],[-2.66685,53.58902],[-2.66677,53.58896],[-2.66686,53.58892]]]]}},
{ "type":"Feature","properties":{"osm_way_id":"864137393","name":"ALDI","building":"yes","shop":"supermarket","other":{"brand":"ALDI","brand:wikidata":"Q41171672","brand:wikipedia":"en:Aldi","website":"https:\/\/www.aldi.co.uk\/store\/s-uk-E1004"}}, "geometry":{"type":"MultiPolygon","coordinates":[[[[-2.35998,53.46201],[-2.35986,53.462],[-2.35945,53.46197],[-2.35914,53.46194],[-2.35919,53.46172],[-2.35915,53.46171],[-2.35917,53.46165],[-2.35935,53.46166],[-2.35951,53.46167],[-2.35952,53.46162],[-2.3597,53.46163],[-2.35968,53.46168],[-2.36004,53.46171],[-2.35998,53.46201]]]]}},
{ "type":"Feature","properties":{"osm_way_id":"896173336","name":"Spar","building":"yes","shop":"supermarket","other":{"addr:city":"Aspull","addr:housenumber":"3","addr:postcode":"WN2 1YX","addr:street":"Scot Lane","brand":"Spar","brand:wikidata":"Q610492","brand:wikipedia":"en:Spar (retailer)"}}, "geometry":{"type":"MultiPolygon","coordinates":[[[[-2.58451,53.56918],[-2.58452,53.56908],[-2.58452,53.56907],[-2.58438,53.56907],[-2.58437,53.5691],[-2.58441,53.56911],[-2.58441,53.56916],[-2.5845,53.56918],[-2.58451,53.56918]]]]}},
{ "type":"Feature","properties":{"osm_way_id":"903404189","name":"The Food Warehouse","building":"yes","shop":"supermarket","other":{"brand":"The Food Warehouse","brand:wikidata":"Q87263899"}}, "geometry":{"type":"MultiPolygon","coordinates":[[[[-2.0829,53.45196],[-2.08273,53.4521],[-2.08278,53.45213],[-2.0826,53.45228],[-2.08247,53.45222],[-2.08231,53.45216],[-2.08266,53.45186],[-2.0827,53.45187],[-2.0829,53.45196]]]]}},
{ "type":"Feature","properties":{"osm_way_id":"922804186","name":"Appna","building":"yes","shop":"supermarket"},"geometry":{"type":"MultiPolygon","coordinates":[[[[-2.20218,53.45673],[-2.20237,53.45705],[-2.20197,53.45714],[-2.20185,53.45693],[-2.2014,53.45703],[-2.20133,53.45692],[-2.20218,53.45673]]]]}},
{ "type":"Feature","properties":{"osm_way_id":"926137313","name":"ALDI","building":"yes","shop":"supermarket","other":{"brand":"ALDI","brand:wikidata":"Q41171672","brand:wikipedia":"en:Aldi"}}, "geometry":{"type":"MultiPolygon","coordinates":[[[[-2.37747,53.47029],[-2.37762,53.47034],[-2.37764,53.47032],[-2.37773,53.47035],[-2.37774,53.47034],[-2.37793,53.4704],[-2.37797,53.47034],[-2.37801,53.47036],[-2.3784,53.4699],[-2.37806,53.46979],[-2.37808,53.46977],[-2.37795,53.46974],[-2.37747,53.47029]]]]}},
{ "type":"Feature","properties":{"osm_way_id":"954702989","name":"Co-op Food","building":"yes","shop":"supermarket","other":{"brand":"Co-op Food","brand:wikidata":"Q3277439","brand:wikipedia":"en:Co-op Food"}}, "geometry":{"type":"MultiPolygon","coordinates":[[[[-2.34108,53.61473],[-2.34087,53.61479],[-2.34089,53.61481],[-2.34091,53.61482],[-2.34089,53.61483],[-2.34113,53.61504],[-2.3411,53.61505],[-2.34114,53.61509],[-2.3412,53.61507],[-2.3412,53.61507],[-2.34131,53.61503],[-2.34134,53.61505],[-2.34143,53.61502],[-2.3413,53.6149],[-2.34127,53.61491],[-2.34108,53.61473]]]]}},
{ "type":"Feature","properties":{"osm_way_id":"957545922","name":"ALDI","building":"yes","shop":"supermarket","other":{"brand":"ALDI","brand:wikidata":"Q41171672","brand:wikipedia":"en:Aldi"}}, "geometry":{"type":"MultiPolygon","coordinates":[[[[-2.52491,53.50218],[-2.52476,53.50214],[-2.52469,53.50221],[-2.52454,53.50218],[-2.5245,53.50206],[-2.52485,53.50159],[-2.52526,53.50172],[-2.52515,53.50187],[-2.52491,53.50218]]]]}},
{ "type":"Feature","properties":{"osm_way_id":"962079823","name":"Lidl","building":"retail","shop":"supermarket","other":{"addr:country":"GB","addr:housenumber":"319","addr:postcode":"M30 8BW","addr:street":"Worsley Road","brand":"Lidl","brand:wikidata":"Q151954","brand:wikipedia":"en:Lidl","building:levels":"1","diet:kosher":"yes","fhrs:id":"91815","nohousenumber":"yes","opening_hours":"Mo-Sa 08:00-22:00; Su 10:00-16:00","roof:shape":"flat","wheelchair":"yes"}}, "geometry":{"type":"MultiPolygon","coordinates":[[[[-2.36987,53.48939],[-2.36965,53.48914],[-2.37064,53.48884],[-2.37085,53.48909],[-2.36987,53.48939]]]]}},
{ "type":"Feature","properties":{"osm_way_id":"988401568","name":"Go Local","building":"yes","shop":"supermarket"},"geometry":{"type":"MultiPolygon","coordinates":[[[[-2.57137,53.46964],[-2.57129,53.46954],[-2.57144,53.4695],[-2.57152,53.4696],[-2.57137,53.46964]]]]}},
{ "type":"Feature","properties":{"osm_way_id":"993232401","name":"Thai Food Market","building":"yes","shop":"supermarket"},"geometry":{"type":"MultiPolygon","coordinates":[[[[-2.64827,53.50206],[-2.64822,53.50202],[-2.64805,53.50211],[-2.64807,53.50213],[-2.64815,53.50209],[-2.64817,53.5021],[-2.64827,53.50206]]]]}},
{ "type":"Feature","properties":{"osm_way_id":"999448555","name":"ALDI","building":"yes","shop":"supermarket","other":{"brand":"ALDI","brand:wikidata":"Q41171672","brand:wikipedia":"en:Aldi"}}, "geometry":{"type":"MultiPolygon","coordinates":[[[[-2.35525,53.39807],[-2.35443,53.3982],[-2.35434,53.398],[-2.3543,53.39801],[-2.35426,53.39793],[-2.35527,53.39776],[-2.35531,53.39786],[-2.35527,53.39786],[-2.35535,53.39803],[-2.35524,53.39805],[-2.35525,53.39807]]]]}},
{ "type":"Feature","properties":{"osm_way_id":"1009383174","name":"Co-op Food","building":"yes","shop":"supermarket","other":{"brand":"Co-op Food","brand:wikidata":"Q3277439","brand:wikipedia":"en:Co-op Food","operator":"The Co-operative Group","operator:wikidata":"Q117202","operator:wikipedia":"en:The Co-operative Group"}}, "geometry":{"type":"MultiPolygon","coordinates":[[[[-2.59871,53.51823],[-2.5984,53.51835],[-2.59822,53.51818],[-2.59853,53.51806],[-2.59871,53.51823]]]]}},
{ "type":"Feature","properties":{"osm_way_id":"1020962744","name":"Londis","building":"yes","shop":"supermarket","other":{"brand":"Londis","brand:wikidata":"Q21008564","brand:wikipedia":"en:Londis (United Kingdom)"}}, "geometry":{"type":"MultiPolygon","coordinates":[[[[-2.42524,53.50629],[-2.42494,53.50634],[-2.4249,53.50628],[-2.42521,53.50623],[-2.42524,53.50629]]]]}},
{ "type":"Feature","properties":{"osm_way_id":"1040827411","name":"Heron Foods","building":"yes","shop":"supermarket","other":{"brand":"Heron Foods","brand:wikidata":"Q5743472","brand:wikipedia":"en:Heron Foods"}}, "geometry":{"type":"MultiPolygon","coordinates":[[[[-2.11312,53.5419],[-2.1129,53.54191],[-2.11288,53.54174],[-2.1131,53.54171],[-2.11312,53.5419]]]]}},
{ "type":"Feature","properties":{"osm_way_id":"1043621256","name":"Co-op Food","building":"yes","shop":"supermarket","other":{"addr:postcode":"M29 7BQ","addr:street":"Manchester Road","brand":"Co-op Food","brand:wikidata":"Q3277439","brand:wikipedia":"en:Co-op Food","opening_hours":"05:00-22:00","operator":"The Co-operative Group","operator:wikidata":"Q117202","operator:wikipedia":"en:The Co-operative Group","phone":"+44 1942 894444","website":"https:\/\/www.coop.co.uk\/store-finder\/M29-7BQ\/manchester-road"}}, "geometry":{"type":"MultiPolygon","coordinates":[[[[-2.44729,53.5021],[-2.44747,53.50207],[-2.44755,53.50224],[-2.44737,53.50227],[-2.44729,53.5021]]]]}}
]
}
