{
"type": "FeatureCollection",
"features": [
{ "type":"Feature","properties":{"osm_id":"1360406276","other":{"seamark:signal_station_traffic:category":"ipt","seamark:type":"signal_station_traffic"}}, "geometry":{"type":"Point","coordinates":[-0.33961,53.73599 ]}},
{ "type":"Feature","properties":{"osm_id":"1962441812","name":"The Etherow Centre","other":{"addr:housename":"The Etherow Centre","addr:postcode":"SK14 6AX","addr:street":"Market Street","building":"warehouse","leisure":"sports_centre","sport":"equestrian"}}, "geometry":{"type":"Point","coordinates":[-2.01429,53.44098 ]}},
{ "type":"Feature","properties":{"osm_id":"9383979201","other":{"natural":"tree"}}, "geometry":{"type":"Point","coordinates":[-1.46692,53.057 ]}},
{ "type":"Feature","properties":{"osm_id":"9383979221","other":{"natural":"tree"}}, "geometry":{"type":"Point","coordinates":[-1.45706,53.05754 ]}},
{ "type":"Feature","properties":{"osm_way_id":"27889678","building":"warehouse"},"geometry":{"type":"MultiPolygon","coordinates":[[[[-3.41888,55.93111],[-3.41747,55.93142],[-3.41713,55.93093],[-3.41854,55.93062],[-3.41888,55.93111]]]]}},
{ "type":"Feature","properties":{"osm_way_id":"27929448","building":"warehouse"},"geometry":{"type":"MultiPolygon","coordinates":[[[[-2.21728,53.47111],[-2.21654,53.47116],[-2.21654,53.4712],[-2.2166,53.4712],[-2.21664,53.47165],[-2.21602,53.47168],[-2.21588,53.47123],[-2.21586,53.47123],[-2.21587,53.47112],[-2.21632,53.47112],[-2.21629,53.47109],[-2.21629,53.47095],[-2.21622,53.47093],[-2.21728,53.47088],[-2.21728,53.47111]]]]}},
{ "type":"Feature","properties":{"osm_way_id":"28058021","building":"warehouse"},"geometry":{"type":"MultiPolygon","coordinates":[[[[-2.19911,53.49785],[-2.19916,53.49783],[-2.19993,53.49863],[-2.19988,53.49865],[-2.19996,53.49873],[-2.19998,53.49873],[-2.2001,53.49885],[-2.20012,53.49885],[-2.2002,53.49892],[-2.20017,53.49893],[-2.20018,53.49894],[-2.19943,53.49919],[-2.19945,53.49921],[-2.19931,53.49926],[-2.19914,53.49908],[-2.19916,53.49907],[-2.19822,53.49809],[-2.19863,53.49795],[-2.19858,53.4979],[-2.19902,53.49775],[-2.19911,53.49785]]]]}},
{ "type":"Feature","properties":{"osm_way_id":"28058121","building":"warehouse"},"geometry":{"type":"MultiPolygon","coordinates":[[[[-2.19262,53.49292],[-2.19344,53.493],[-2.19343,53.49303],[-2.19399,53.49308],[-2.19397,53.49316],[-2.19393,53.49327],[-2.1925,53.49314],[-2.19238,53.49361],[-2.19225,53.49367],[-2.1907,53.49352],[-2.19159,53.49427],[-2.19083,53.49458],[-2.18951,53.49349],[-2.18966,53.49343],[-2.18984,53.49267],[-2.19195,53.49285],[-2.19194,53.4929],[-2.19261,53.49296],[-2.19262,53.49292]]]]}},
{ "type":"Feature","properties":{"osm_way_id":"28252887","building":"warehouse","other":{"addr:housename":"BiG Trade Park","addr:postcode":"SK8 6PT","addr:street":"Earl Road"}}, "geometry":{"type":"MultiPolygon","coordinates":[[[[-2.2039,53.35588],[-2.2032,53.35628],[-2.20191,53.35548],[-2.20261,53.35508],[-2.2039,53.35588]]]]}},
{ "type":"Feature","properties":{"osm_way_id":"28252888","building":"warehouse"},"geometry":{"type":"MultiPolygon","coordinates":[[[[-2.20443,53.35491],[-2.20442,53.35545],[-2.20456,53.35545],[-2.20455,53.35561],[-2.20425,53.35561],[-2.20425,53.35555],[-2.20417,53.35555],[-2.20418,53.35536],[-2.20365,53.35536],[-2.20366,53.3549],[-2.20443,53.35491]]]]}},
{ "type":"Feature","properties":{"osm_way_id":"38417862","name":"Heinz","building":"warehouse"},"geometry":{"type":"MultiPolygon","coordinates":[[[[-2.68037,53.55547],[-2.68013,53.55545],[-2.68016,53.55532],[-2.67889,53.55519],[-2.67886,53.55533],[-2.67748,53.5552],[-2.67701,53.5569],[-2.67991,53.55716],[-2.68037,53.55547]]]]}},
{ "type":"Feature","properties":{"osm_way_id":"61123368","name":"XPO Logistics","building":"warehouse"},"geometry":{"type":"MultiPolygon","coordinates":[[[[-2.5076,53.48575],[-2.50728,53.48582],[-2.50737,53.48599],[-2.50718,53.48602],[-2.50746,53.48668],[-2.50754,53.48689],[-2.50812,53.48681],[-2.50768,53.48579],[-2.50763,53.48581],[-2.5076,53.48575]]]]}},
{ "type":"Feature","properties":{"osm_way_id":"87096522","building":"warehouse"},"geometry":{"type":"MultiPolygon","coordinates":[[[[-2.32729,53.43103],[-2.32728,53.43117],[-2.32678,53.43118],[-2.32678,53.43124],[-2.32662,53.43124],[-2.32659,53.43124],[-2.32659,53.43103],[-2.32729,53.43103]]]]}},
{ "type":"Feature","properties":{"osm_way_id":"93166515","name":"Leathams","building":"warehouse","other":{"addr:city":"Chelmsford","addr:country":"GB","addr:postcode":"CM2 6ZJ","addr:street":"Beaufort Road","addr:unit":"1-7","phone":"+44 20 7635 4000","website":"https:\/\/leathams.com\/"}}, "geometry":{"type":"MultiPolygon","coordinates":[[[[0.50493,51.74335],[0.50497,51.74357],[0.5052,51.74355],[0.50528,51.74394],[0.50502,51.74396],[0.50505,51.74412],[0.50585,51.74407],[0.5057,51.7433],[0.50493,51.74335]]]]}},
{ "type":"Feature","properties":{"osm_way_id":"93166518","name":"Woodland Group","building":"warehouse","other":{"addr:city":"Chelmsford","addr:housename":"Woodland House","addr:postcode":"CM2 6TE","addr:street":"Montrose Road","email":"web-emea@woodlandgroup.com","phone":"+44 1245 619900","website":"https:\/\/www.woodlandgroup.com\/"}}, "geometry":{"type":"MultiPolygon","coordinates":[[[[0.50225,51.74395],[0.50217,51.74276],[0.50258,51.74275],[0.5026,51.74307],[0.50291,51.74306],[0.50308,51.74306],[0.50307,51.74297],[0.50398,51.74295],[0.50406,51.74294],[0.50407,51.74303],[0.50417,51.74303],[0.5042,51.74352],[0.5041,51.74352],[0.5041,51.74363],[0.50412,51.7439],[0.50225,51.74395]]]]}},
{ "type":"Feature","properties":{"osm_way_id":"121543866","building":"warehouse"},"geometry":{"type":"MultiPolygon","coordinates":[[[[-0.34097,53.73583],[-0.34093,53.73584],[-0.34096,53.73588],[-0.33982,53.73621],[-0.33979,53.73618],[-0.33977,53.73618],[-0.33961,53.73599],[-0.34081,53.73564],[-0.34097,53.73583]]]]}},
{ "type":"Feature","properties":{"osm_way_id":"126384737","building":"warehouse","other":{"addr:city":"Salford","addr:housenumber":"319","addr:postcode":"M5 3FT","addr:street":"Ordsall Lane"}}, "geometry":{"type":"MultiPolygon","coordinates":[[[[-2.2749,53.4697],[-2.27484,53.46974],[-2.27492,53.46978],[-2.27446,53.47005],[-2.27439,53.47001],[-2.27386,53.46969],[-2.27437,53.46939],[-2.2749,53.4697]]]]}},
{ "type":"Feature","properties":{"osm_way_id":"126384738","building":"warehouse","other":{"building:colour":"white","building:levels":"2","building:material":"metal","roof:colour":"white","roof:levels":"1","roof:material":"metal","roof:shape":"gabled"}}, "geometry":{"type":"MultiPolygon","coordinates":[[[[-2.27498,53.46965],[-2.27432,53.46926],[-2.27465,53.46906],[-2.27532,53.46945],[-2.27514,53.46955],[-2.27503,53.46962],[-2.27498,53.46965]]]]}},
{ "type":"Feature","properties":{"osm_way_id":"145005319","building":"warehouse","other":{"building:levels":"2","building:material":"brick","roof:colour":"grey","roof:levels":"1","roof:material":"metal","roof:shape":"gabled"}}, "geometry":{"type":"MultiPolygon","coordinates":[[[[-2.29246,53.46686],[-2.29214,53.46682],[-2.29226,53.46639],[-2.29259,53.46643],[-2.29246,53.46686]]]]}},
{ "type":"Feature","properties":{"osm_way_id":"147861462","name":"Buck & Hickman","building":"warehouse","other":{"addr:city":"Manchester","addr:postcode":"M17 1WD","addr:street":"Waterside","addr:unit":"Unit 5","building:levels":"1","building:material":"metal","roof:colour":"grey","roof:levels":"1","roof:material":"metal","roof:shape":"gabled"}}, "geometry":{"type":"MultiPolygon","coordinates":[[[[-2.29432,53.46624],[-2.29377,53.46618],[-2.29385,53.4659],[-2.2944,53.46596],[-2.29439,53.46599],[-2.29432,53.46624]]]]}},
{ "type":"Feature","properties":{"osm_way_id":"147861474","name":"CDS Wilman","building":"warehouse","other":{"addr:city":"Manchester","addr:postcode":"M17 1WD","addr:street":"Waterside","addr:unit":"Unit 4","building:levels":"1","building:material":"metal","roof:colour":"grey","roof:levels":"1","roof:material":"metal","roof:shape":"gabled"}}, "geometry":{"type":"MultiPolygon","coordinates":[[[[-2.2933,53.46613],[-2.29274,53.46607],[-2.29282,53.46579],[-2.29339,53.46585],[-2.2933,53.46613]]]]}},
{ "type":"Feature","properties":{"osm_way_id":"147861475","building":"yes","other":{"building:levels":"3","building:material":"metal","roof:levels":"1","roof:material":"metal","roof:shape":"gabled"}}, "geometry":{"type":"MultiPolygon","coordinates":[[[[-2.3023,53.46891],[-2.30134,53.46866],[-2.30157,53.46835],[-2.30181,53.46804],[-2.30276,53.46829],[-2.30275,53.46831],[-2.30253,53.4686],[-2.3023,53.46891]]]]}},
{ "type":"Feature","properties":{"osm_way_id":"147861476","name":"Nelsons Labels","building":"warehouse","other":{"addr:city":"Manchester","addr:postcode":"M17 1WD","addr:street":"Waterside","addr:unit":"Unit 3","building:levels":"2","building:material":"metal","roof:colour":"grey","roof:levels":"1","roof:material":"metal","roof:shape":"gabled"}}, "geometry":{"type":"MultiPolygon","coordinates":[[[[-2.29218,53.46601],[-2.29153,53.46595],[-2.29162,53.46567],[-2.29227,53.46573],[-2.29218,53.46601]]]]}},
{ "type":"Feature","properties":{"osm_way_id":"147861478","name":"APC","building":"warehouse","other":{"addr:city":"Manchester","addr:postcode":"M17 1WD","addr:street":"Waterside","addr:unit":"Unit 2","building:levels":"2","building:material":"metal","roof:colour":"grey","roof:levels":"1","roof:material":"metal","roof:shape":"gabled"}}, "geometry":{"type":"MultiPolygon","coordinates":[[[[-2.29099,53.46576],[-2.2906,53.46572],[-2.29067,53.46549],[-2.29106,53.46553],[-2.29099,53.46576]]]]}},
{ "type":"Feature","properties":{"osm_way_id":"147861484","building":"warehouse","other":{"building:levels":"2","building:material":"brick","roof:colour":"grey","roof:levels":"1","roof:material":"metal","roof:shape":"gabled"}}, "geometry":{"type":"MultiPolygon","coordinates":[[[[-2.29156,53.46663],[-2.29155,53.46663],[-2.29153,53.46668],[-2.29132,53.46666],[-2.29134,53.46661],[-2.29071,53.46654],[-2.29003,53.46646],[-2.29008,53.4663],[-2.29006,53.4663],[-2.29007,53.46625],[-2.29009,53.46625],[-2.29016,53.46604],[-2.29169,53.4662],[-2.29156,53.46663]]]]}},
{ "type":"Feature","properties":{"osm_way_id":"147861487","building":"warehouse","other":{"addr:city":"Manchester","addr:postcode":"M17 1WD","addr:street":"Waterside","addr:unit":"Unit 1","building:levels":"2","building:material":"metal","roof:colour":"grey","roof:levels":"1","roof:material":"metal","roof:shape":"gabled"}}, "geometry":{"type":"MultiPolygon","coordinates":[[[[-2.29014,53.46567],[-2.28976,53.46563],[-2.28983,53.4654],[-2.2899,53.46541],[-2.29021,53.46545],[-2.29014,53.46567]]]]}},
{ "type":"Feature","properties":{"osm_way_id":"147861491","name":"Incom","building":"warehouse","other":{"building:levels":"2","building:material":"metal","roof:levels":"1","roof:material":"metal","roof:shape":"gabled"}}, "geometry":{"type":"MultiPolygon","coordinates":[[[[-2.29538,53.4673],[-2.29523,53.46728],[-2.29492,53.46725],[-2.29498,53.46704],[-2.29499,53.46699],[-2.29506,53.46676],[-2.29552,53.46681],[-2.29547,53.467],[-2.29538,53.4673]]]]}},
{ "type":"Feature","properties":{"osm_way_id":"147861497","building":"warehouse","other":{"building:levels":"2","building:material":"brick","roof:colour":"grey","roof:levels":"1","roof:material":"metal","roof:shape":"gabled"}}, "geometry":{"type":"MultiPolygon","coordinates":[[[[-2.29356,53.46675],[-2.29311,53.46671],[-2.29315,53.46655],[-2.29318,53.46655],[-2.29323,53.46656],[-2.29344,53.46658],[-2.29346,53.46658],[-2.29352,53.46659],[-2.2936,53.4666],[-2.29356,53.46675]]]]}},
{ "type":"Feature","properties":{"osm_way_id":"147861504","name":"Exova","building":"warehouse","other":{"building:levels":"2","building:material":"metal","roof:colour":"grey","roof:levels":"1","roof:material":"metal","roof:shape":"gabled"}}, "geometry":{"type":"MultiPolygon","coordinates":[[[[-2.29401,53.4673],[-2.29353,53.46725],[-2.2936,53.46702],[-2.29407,53.46707],[-2.29405,53.46717],[-2.29401,53.4673]]]]}},
{ "type":"Feature","properties":{"osm_way_id":"147861509","building":"warehouse","other":{"building:levels":"2","building:material":"metal","roof:colour":"grey","roof:levels":"1","roof:material":"metal","roof:shape":"gabled"}}, "geometry":{"type":"MultiPolygon","coordinates":[[[[-2.29415,53.4668],[-2.29401,53.46678],[-2.29371,53.46675],[-2.29368,53.46675],[-2.29375,53.46653],[-2.29375,53.46652],[-2.29422,53.46658],[-2.29419,53.46665],[-2.29419,53.46666],[-2.29419,53.46667],[-2.29419,53.46668],[-2.29415,53.4668]]]]}},
{ "type":"Feature","properties":{"osm_way_id":"163401453","building":"warehouse"},"geometry":{"type":"MultiPolygon","coordinates":[[[[-2.27471,53.47823],[-2.27481,53.47803],[-2.27394,53.47788],[-2.27384,53.47807],[-2.27438,53.47817],[-2.27471,53.47823]]]]}},
{ "type":"Feature","properties":{"osm_way_id":"163401463","name":"Felda Logistic","building":"warehouse","other":{"addr:postcode":"M5 3BQ"}}, "geometry":{"type":"MultiPolygon","coordinates":[[[[-2.27266,53.4781],[-2.27277,53.47787],[-2.27247,53.47781],[-2.27234,53.47805],[-2.27266,53.4781]]]]}},
{ "type":"Feature","properties":{"osm_way_id":"164974504","building":"warehouse"},"geometry":{"type":"MultiPolygon","coordinates":[[[[-2.29873,53.59962],[-2.2984,53.5997],[-2.29814,53.59928],[-2.29847,53.59921],[-2.29873,53.59962]]]]}},
{ "type":"Feature","properties":{"osm_way_id":"164974505","building":"warehouse"},"geometry":{"type":"MultiPolygon","coordinates":[[[[-2.30002,53.60123],[-2.2996,53.60129],[-2.29911,53.60024],[-2.29953,53.60018],[-2.30002,53.60123]]]]}},
{ "type":"Feature","properties":{"osm_way_id":"164974507","building":"warehouse"},"geometry":{"type":"MultiPolygon","coordinates":[[[[-2.29817,53.59904],[-2.29797,53.59905],[-2.29788,53.59864],[-2.29808,53.59862],[-2.29817,53.59904]]]]}},
{ "type":"Feature","properties":{"osm_way_id":"164974508","building":"warehouse"},"geometry":{"type":"MultiPolygon","coordinates":[[[[-2.30051,53.60136],[-2.29999,53.60169],[-2.29978,53.60157],[-2.3003,53.60124],[-2.30051,53.60136]]]]}},
{ "type":"Feature","properties":{"osm_way_id":"164974513","name":"Mayplas","building":"warehouse"},"geometry":{"type":"MultiPolygon","coordinates":[[[[-2.29963,53.5987],[-2.29905,53.59883],[-2.29858,53.59809],[-2.29916,53.59796],[-2.29963,53.5987]]]]}},
{ "type":"Feature","properties":{"osm_way_id":"164974514","building":"warehouse"},"geometry":{"type":"MultiPolygon","coordinates":[[[[-2.29819,53.59798],[-2.29782,53.59796],[-2.29784,53.5978],[-2.29821,53.59782],[-2.29819,53.59798]]]]}},
{ "type":"Feature","properties":{"osm_way_id":"164974517","building":"warehouse"},"geometry":{"type":"MultiPolygon","coordinates":[[[[-2.30065,53.60089],[-2.30029,53.60095],[-2.3001,53.60054],[-2.30045,53.60048],[-2.30065,53.60089]]]]}},
{ "type":"Feature","properties":{"osm_way_id":"164974518","building":"warehouse"},"geometry":{"type":"MultiPolygon","coordinates":[[[[-2.29864,53.59915],[-2.29821,53.59924],[-2.29817,53.59918],[-2.29825,53.59916],[-2.29819,53.59907],[-2.29854,53.599],[-2.29864,53.59915]]]]}},
{ "type":"Feature","properties":{"osm_way_id":"164974520","building":"warehouse"},"geometry":{"type":"MultiPolygon","coordinates":[[[[-2.29803,53.59853],[-2.29787,53.59853],[-2.29783,53.5982],[-2.29799,53.59819],[-2.29803,53.59853]]]]}},
{ "type":"Feature","properties":{"osm_way_id":"164974521","building":"warehouse"},"geometry":{"type":"MultiPolygon","coordinates":[[[[-2.29932,53.60013],[-2.29913,53.60019],[-2.29868,53.59972],[-2.29887,53.59966],[-2.29932,53.60013]]]]}},
{ "type":"Feature","properties":{"osm_way_id":"164978673","building":"warehouse"},"geometry":{"type":"MultiPolygon","coordinates":[[[[-2.22727,53.58643],[-2.22645,53.58651],[-2.22635,53.58615],[-2.22717,53.58606],[-2.22719,53.58614],[-2.22721,53.58621],[-2.22727,53.58643]]]]}},
{ "type":"Feature","properties":{"osm_way_id":"164978678","building":"warehouse"},"geometry":{"type":"MultiPolygon","coordinates":[[[[-2.17609,53.59441],[-2.17532,53.59516],[-2.17484,53.59499],[-2.17546,53.59439],[-2.17554,53.59442],[-2.1757,53.59427],[-2.17609,53.59441]]]]}},
{ "type":"Feature","properties":{"osm_way_id":"164978689","building":"warehouse"},"geometry":{"type":"MultiPolygon","coordinates":[[[[-2.22787,53.58713],[-2.22562,53.58735],[-2.22554,53.58707],[-2.22549,53.58688],[-2.22773,53.58665],[-2.22787,53.58713]]]]}},
{ "type":"Feature","properties":{"osm_way_id":"164978690","building":"warehouse"},"geometry":{"type":"MultiPolygon","coordinates":[[[[-2.23037,53.58671],[-2.22952,53.5868],[-2.22938,53.58635],[-2.22972,53.58631],[-2.23024,53.58626],[-2.23037,53.58671]]]]}},
{ "type":"Feature","properties":{"osm_way_id":"164978706","building":"warehouse"},"geometry":{"type":"MultiPolygon","coordinates":[[[[-2.22911,53.58684],[-2.22799,53.58695],[-2.22786,53.58651],[-2.22899,53.5864],[-2.22911,53.58684]]]]}},
{ "type":"Feature","properties":{"osm_way_id":"165030213","name":"Excalon","building":"warehouse"},"geometry":{"type":"MultiPolygon","coordinates":[[[[-2.27312,53.47872],[-2.27289,53.47871],[-2.27289,53.47875],[-2.27118,53.47866],[-2.27119,53.47855],[-2.27121,53.47834],[-2.27145,53.47835],[-2.27292,53.47843],[-2.27315,53.47844],[-2.27312,53.47872]]]]}},
{ "type":"Feature","properties":{"osm_way_id":"166300584","name":"Malta Mill (Safe Records)","building":"warehouse"},"geometry":{"type":"MultiPolygon","coordinates":[[[[-2.16878,53.54798],[-2.16958,53.54796],[-2.16965,53.54875],[-2.16957,53.54876],[-2.16957,53.5487],[-2.16952,53.5487],[-2.16936,53.5487],[-2.16936,53.54874],[-2.169,53.54875],[-2.16901,53.54884],[-2.16886,53.54885],[-2.16885,53.54875],[-2.16878,53.54798]]]]}},
{ "type":"Feature","properties":{"osm_way_id":"166423422","name":"Doric Anderton","building":"warehouse"},"geometry":{"type":"MultiPolygon","coordinates":[[[[-2.31378,53.46541],[-2.3138,53.46499],[-2.31257,53.46496],[-2.31255,53.46539],[-2.31264,53.46539],[-2.31263,53.46549],[-2.31271,53.4655],[-2.31271,53.46552],[-2.31288,53.46553],[-2.31288,53.4655],[-2.31296,53.4655],[-2.31296,53.4654],[-2.31378,53.46541]]]]}},
{ "type":"Feature","properties":{"osm_way_id":"166423512","name":"Palletower","building":"warehouse","other":{"building:levels":"1","building:part":"yes","roof:shape":"gabled"}}, "geometry":{"type":"MultiPolygon","coordinates":[[[[-2.31219,53.46345],[-2.31216,53.46389],[-2.31179,53.46388],[-2.31181,53.46344],[-2.31219,53.46345]]]]}},
{ "type":"Feature","properties":{"osm_way_id":"166423551","name":"Euro Car Parts","building":"warehouse","other":{"building:levels":"1","building:part":"yes","roof:shape":"gabled"}}, "geometry":{"type":"MultiPolygon","coordinates":[[[[-2.31086,53.46339],[-2.31083,53.4639],[-2.31036,53.46389],[-2.31038,53.46338],[-2.31086,53.46339]]]]}},
{ "type":"Feature","properties":{"osm_way_id":"166423559","name":"Showerdrape","building":"warehouse","other":{"building:levels":"1","building:part":"yes","roof:shape":"gabled"}}, "geometry":{"type":"MultiPolygon","coordinates":[[[[-2.31225,53.4628],[-2.31223,53.46332],[-2.31175,53.46332],[-2.31177,53.46279],[-2.31225,53.4628]]]]}},
{ "type":"Feature","properties":{"osm_way_id":"166530768","building":"warehouse","other":{"operator":"Kellogg's"}}, "geometry":{"type":"MultiPolygon","coordinates":[[[[-2.31098,53.45736],[-2.31049,53.45888],[-2.31075,53.45891],[-2.31068,53.45913],[-2.31042,53.4591],[-2.31038,53.45921],[-2.31031,53.4592],[-2.30927,53.45908],[-2.30931,53.45897],[-2.3082,53.45884],[-2.30877,53.4571],[-2.31098,53.45736]]]]}},
{ "type":"Feature","properties":{"osm_way_id":"166530779","name":"L’Oréal, Consumer Products Division","building":"warehouse","other":{"building:levels":"2","roof:shape":"flat"}}, "geometry":{"type":"MultiPolygon","coordinates":[[[[-2.30965,53.46062],[-2.30964,53.46077],[-2.31016,53.46078],[-2.31009,53.46209],[-2.30957,53.46208],[-2.30956,53.46229],[-2.3078,53.46226],[-2.30786,53.46114],[-2.30764,53.46113],[-2.30765,53.46097],[-2.30786,53.46097],[-2.30786,53.4609],[-2.30759,53.4609],[-2.3076,53.46071],[-2.30845,53.46073],[-2.30846,53.46067],[-2.30897,53.46065],[-2.30965,53.46062]]]]}},
{ "type":"Feature","properties":{"osm_way_id":"166530785","name":"Adidas Group","building":"warehouse"},"geometry":{"type":"MultiPolygon","coordinates":[[[[-2.31696,53.4611],[-2.31673,53.4611],[-2.31677,53.46038],[-2.31641,53.46037],[-2.31641,53.46041],[-2.31467,53.46039],[-2.31456,53.46244],[-2.31666,53.46248],[-2.3167,53.46179],[-2.31692,53.46179],[-2.31693,53.46152],[-2.31695,53.46152],[-2.31696,53.46138],[-2.31695,53.46138],[-2.31696,53.4611]]]]}},
{ "type":"Feature","properties":{"osm_way_id":"166530787","building":"warehouse","other":{"building:levels":"3","roof:shape":"flat"}}, "geometry":{"type":"MultiPolygon","coordinates":[[[[-2.30241,53.46],[-2.30235,53.46023],[-2.30234,53.46027],[-2.30209,53.46025],[-2.3021,53.46021],[-2.30074,53.4601],[-2.30051,53.46008],[-2.30029,53.46006],[-2.30033,53.45988],[-2.30056,53.4599],[-2.30057,53.45985],[-2.3008,53.45987],[-2.30081,53.45981],[-2.30116,53.45984],[-2.30116,53.4598],[-2.30186,53.45986],[-2.30185,53.4599],[-2.30219,53.45993],[-2.30218,53.45998],[-2.30241,53.46]]]]}},
{ "type":"Feature","properties":{"osm_way_id":"166530884","name":"TDG","building":"warehouse"},"geometry":{"type":"MultiPolygon","coordinates":[[[[-2.32476,53.45745],[-2.32786,53.45882],[-2.32684,53.45963],[-2.32374,53.45826],[-2.32476,53.45745]]]]}},
{ "type":"Feature","properties":{"osm_way_id":"167082027","name":"Finished Food Warehouse","building":"warehouse","other":{"operator":"Kellogg's"}}, "geometry":{"type":"MultiPolygon","coordinates":[[[[-2.31809,53.45566],[-2.31951,53.45542],[-2.31944,53.45528],[-2.32041,53.45511],[-2.32047,53.45505],[-2.32021,53.4545],[-2.3193,53.45401],[-2.31759,53.4543],[-2.31813,53.45542],[-2.31803,53.45552],[-2.31809,53.45566]]]]}},
{ "type":"Feature","properties":{"osm_way_id":"169495218","name":"Oakwood Distribution","building":"warehouse"},"geometry":{"type":"MultiPolygon","coordinates":[[[[-2.52961,53.55618],[-2.5316,53.55651],[-2.53168,53.55635],[-2.53241,53.55647],[-2.53199,53.55738],[-2.53221,53.55741],[-2.53206,53.55772],[-2.53181,53.55768],[-2.53172,53.55786],[-2.531,53.55774],[-2.53108,53.55758],[-2.52911,53.55726],[-2.52961,53.55618]]]]}},
{ "type":"Feature","properties":{"osm_way_id":"172190967","name":"Graystone Action Sports","building":"warehouse","other":{"addr:city":"Salford","addr:housenumber":"47","addr:postcode":"M5 4BE","addr:street":"Brunel Avenue","fhrs:id":"1088252"}}, "geometry":{"type":"MultiPolygon","coordinates":[[[[-2.2764,53.48344],[-2.27606,53.48396],[-2.27568,53.48387],[-2.27583,53.48366],[-2.27537,53.48355],[-2.2754,53.48351],[-2.27557,53.48325],[-2.2764,53.48344]]]]}},
{ "type":"Feature","properties":{"osm_way_id":"172190968","building":"warehouse"},"geometry":{"type":"MultiPolygon","coordinates":[[[[-2.27433,53.48202],[-2.27413,53.48231],[-2.27533,53.48261],[-2.27553,53.48232],[-2.27433,53.48202]]]]}},
{ "type":"Feature","properties":{"osm_way_id":"172190975","name":"Feb Logistics","building":"warehouse"},"geometry":{"type":"MultiPolygon","coordinates":[[[[-2.27598,53.48264],[-2.27578,53.48293],[-2.27564,53.48315],[-2.27561,53.48319],[-2.27561,53.4832],[-2.27643,53.4834],[-2.27675,53.48293],[-2.27657,53.48289],[-2.27663,53.48279],[-2.27598,53.48264]]]]}},
{ "type":"Feature","properties":{"osm_way_id":"172527493","building":"warehouse"},"geometry":{"type":"MultiPolygon","coordinates":[[[[-2.27794,53.58909],[-2.27723,53.58904],[-2.27716,53.5894],[-2.27788,53.58945],[-2.27794,53.58909]]]]}},
{ "type":"Feature","properties":{"osm_way_id":"187985296","building":"yes"},"geometry":{"type":"MultiPolygon","coordinates":[[[[-2.30096,53.4672],[-2.30083,53.46717],[-2.30071,53.46714],[-2.30055,53.46709],[-2.30078,53.46679],[-2.30094,53.46683],[-2.30106,53.46686],[-2.3009,53.46708],[-2.30103,53.46711],[-2.30096,53.4672]]]]}},
{ "type":"Feature","properties":{"osm_way_id":"188112567","building":"warehouse"},"geometry":{"type":"MultiPolygon","coordinates":[[[[-2.21534,53.4411],[-2.2149,53.44111],[-2.21491,53.44119],[-2.21535,53.44117],[-2.21534,53.4411]]]]}},
{ "type":"Feature","properties":{"osm_way_id":"188112577","building":"warehouse"},"geometry":{"type":"MultiPolygon","coordinates":[[[[-2.21605,53.44111],[-2.21606,53.44102],[-2.21579,53.44101],[-2.21578,53.44111],[-2.21605,53.44111]]]]}},
{ "type":"Feature","properties":{"osm_way_id":"188112592","building":"warehouse"},"geometry":{"type":"MultiPolygon","coordinates":[[[[-2.21555,53.44107],[-2.21556,53.44099],[-2.21577,53.44099],[-2.21576,53.44108],[-2.21555,53.44107]]]]}},
{ "type":"Feature","properties":{"osm_way_id":"188112593","building":"warehouse"},"geometry":{"type":"MultiPolygon","coordinates":[[[[-2.21535,53.44107],[-2.21535,53.44097],[-2.21489,53.44096],[-2.21489,53.44106],[-2.21535,53.44107]]]]}},
{ "type":"Feature","properties":{"osm_way_id":"189642009","name":"Whitworth Locke, Civic Quarter","building":"warehouse","tourism":"hotel","other":{"addr:city":"Manchester","addr:housenumber":"74","addr:postcode":"M1 6JD","addr:street":"Princess Street","architect":"Grzywinski + Pons","brand":"Locke","building:use":"hotel","listed_status":"Grade II","website":"https:\/\/www.lockeliving.com\/en\/manchester\/whitworth-locke","wikidata":"Q26539708"}}, "geometry":{"type":"MultiPolygon","coordinates":[[[[-2.23888,53.4755],[-2.23883,53.47549],[-2.23822,53.47569],[-2.23821,53.47572],[-2.23827,53.47578],[-2.23831,53.47579],[-2.23837,53.47577],[-2.23843,53.47584],[-2.23835,53.47587],[-2.2385,53.47601],[-2.23868,53.47594],[-2.23915,53.47581],[-2.23888,53.4755]]]]}},
{ "type":"Feature","properties":{"osm_way_id":"198933640","building":"warehouse"},"geometry":{"type":"MultiPolygon","coordinates":[[[[-2.34607,53.48611],[-2.34588,53.48611],[-2.3459,53.48639],[-2.34609,53.48639],[-2.34607,53.48611]]]]}},
{ "type":"Feature","properties":{"osm_way_id":"198933641","building":"warehouse"},"geometry":{"type":"MultiPolygon","coordinates":[[[[-2.34379,53.48563],[-2.34587,53.48558],[-2.34589,53.48582],[-2.3438,53.48587],[-2.34379,53.48563]]]]}},
{ "type":"Feature","properties":{"osm_way_id":"198933642","building":"warehouse"},"geometry":{"type":"MultiPolygon","coordinates":[[[[-2.34737,53.48634],[-2.3477,53.48648],[-2.34764,53.48653],[-2.34779,53.4866],[-2.34766,53.48671],[-2.34717,53.48651],[-2.34737,53.48634]]]]}},
{ "type":"Feature","properties":{"osm_way_id":"198933643","building":"warehouse"},"geometry":{"type":"MultiPolygon","coordinates":[[[[-2.34561,53.48612],[-2.34524,53.48614],[-2.34525,53.48627],[-2.34562,53.48625],[-2.34561,53.48612]]]]}},
{ "type":"Feature","properties":{"osm_way_id":"198933645","building":"warehouse"},"geometry":{"type":"MultiPolygon","coordinates":[[[[-2.35033,53.48574],[-2.3503,53.48544],[-2.35109,53.48541],[-2.35113,53.48571],[-2.35033,53.48574]]]]}},
{ "type":"Feature","properties":{"osm_way_id":"198933647","building":"warehouse"},"geometry":{"type":"MultiPolygon","coordinates":[[[[-2.34614,53.48639],[-2.34612,53.48618],[-2.34644,53.48617],[-2.34645,53.48627],[-2.34628,53.48628],[-2.3463,53.48638],[-2.34614,53.48639]]]]}},
{ "type":"Feature","properties":{"osm_way_id":"198933648","building":"warehouse"},"geometry":{"type":"MultiPolygon","coordinates":[[[[-2.34713,53.48557],[-2.34689,53.48579],[-2.34819,53.48628],[-2.34843,53.48606],[-2.34713,53.48557]]]]}},
{ "type":"Feature","properties":{"osm_way_id":"198933649","building":"warehouse"},"geometry":{"type":"MultiPolygon","coordinates":[[[[-2.34681,53.48557],[-2.34607,53.48558],[-2.34608,53.48581],[-2.34682,53.4858],[-2.34681,53.48557]]]]}},
{ "type":"Feature","properties":{"osm_way_id":"198933650","building":"warehouse"},"geometry":{"type":"MultiPolygon","coordinates":[[[[-2.35181,53.48609],[-2.3508,53.48716],[-2.35145,53.48738],[-2.35246,53.48631],[-2.35181,53.48609]]]]}},
{ "type":"Feature","properties":{"osm_way_id":"198933651","building":"warehouse"},"geometry":{"type":"MultiPolygon","coordinates":[[[[-2.35026,53.48557],[-2.34994,53.48545],[-2.34974,53.48563],[-2.35006,53.48575],[-2.35026,53.48557]]]]}},
{ "type":"Feature","properties":{"osm_way_id":"198933653","building":"warehouse"},"geometry":{"type":"MultiPolygon","coordinates":[[[[-2.34947,53.48577],[-2.34862,53.48658],[-2.34897,53.48672],[-2.34982,53.48591],[-2.34947,53.48577]]]]}},
{ "type":"Feature","properties":{"osm_way_id":"198933654","building":"warehouse"},"geometry":{"type":"MultiPolygon","coordinates":[[[[-2.34792,53.48553],[-2.3477,53.48573],[-2.3482,53.48592],[-2.34841,53.48572],[-2.34792,53.48553]]]]}},
{ "type":"Feature","properties":{"osm_way_id":"198933655","building":"warehouse"},"geometry":{"type":"MultiPolygon","coordinates":[[[[-2.34975,53.48605],[-2.34956,53.48622],[-2.35064,53.48664],[-2.35083,53.48647],[-2.34975,53.48605]]]]}},
{ "type":"Feature","properties":{"osm_way_id":"198933656","building":"warehouse"},"geometry":{"type":"MultiPolygon","coordinates":[[[[-2.34953,53.48626],[-2.35063,53.48665],[-2.35029,53.48698],[-2.3492,53.48658],[-2.34953,53.48626]]]]}},
{ "type":"Feature","properties":{"osm_way_id":"203625892","building":"warehouse","other":{"building:levels":"1","roof:levels":"0"}}, "geometry":{"type":"MultiPolygon","coordinates":[[[[-2.18836,53.39656],[-2.1879,53.39654],[-2.18789,53.39657],[-2.1871,53.39653],[-2.18711,53.39649],[-2.18641,53.39646],[-2.18643,53.39633],[-2.18633,53.39632],[-2.1864,53.39574],[-2.1865,53.39575],[-2.18656,53.39533],[-2.18851,53.39543],[-2.18836,53.39656]]]]}},
{ "type":"Feature","properties":{"osm_way_id":"203625894","building":"warehouse","other":{"building:levels":"2","roof:levels":"1","roof:shape":"gabled"}}, "geometry":{"type":"MultiPolygon","coordinates":[[[[-2.1832,53.39434],[-2.18256,53.3944],[-2.18249,53.39409],[-2.18313,53.39403],[-2.1832,53.39434]]]]}},
{ "type":"Feature","properties":{"osm_way_id":"203625896","building":"warehouse"},"geometry":{"type":"MultiPolygon","coordinates":[[[[-2.17957,53.39155],[-2.17908,53.3918],[-2.17967,53.39222],[-2.18016,53.39197],[-2.17957,53.39155]]]]}},
{ "type":"Feature","properties":{"osm_way_id":"203625905","building":"warehouse","other":{"building:levels":"1","roof:levels":"1","roof:shape":"gabled"}}, "geometry":{"type":"MultiPolygon","coordinates":[[[[-2.18191,53.39501],[-2.18148,53.39515],[-2.18195,53.39564],[-2.18236,53.39549],[-2.18191,53.39501]]]]}},
{ "type":"Feature","properties":{"osm_way_id":"203625910","building":"warehouse","other":{"building:levels":"2","roof:levels":"1","roof:shape":"gabled"}}, "geometry":{"type":"MultiPolygon","coordinates":[[[[-2.18238,53.39551],[-2.1818,53.39571],[-2.18198,53.39588],[-2.18257,53.39568],[-2.18238,53.39551]]]]}},
{ "type":"Feature","properties":{"osm_way_id":"203625913","name":"UK Biobank","building":"warehouse","other":{"building:levels":"2","roof:levels":"1","roof:shape":"gabled"}}, "geometry":{"type":"MultiPolygon","coordinates":[[[[-2.18126,53.39536],[-2.1813,53.39507],[-2.18023,53.39504],[-2.1802,53.39533],[-2.18126,53.39536]]]]}},
{ "type":"Feature","properties":{"osm_way_id":"203625916","building":"warehouse","other":{"building:levels":"2","roof:levels":"1","roof:shape":"gabled"}}, "geometry":{"type":"MultiPolygon","coordinates":[[[[-2.18324,53.39496],[-2.18303,53.39503],[-2.1829,53.3949],[-2.18298,53.39488],[-2.18301,53.3949],[-2.18314,53.39486],[-2.18324,53.39496]]]]}},
{ "type":"Feature","properties":{"osm_way_id":"203625919","building":"warehouse"},"geometry":{"type":"MultiPolygon","coordinates":[[[[-2.17934,53.39144],[-2.1792,53.39134],[-2.1788,53.39154],[-2.1781,53.39105],[-2.17855,53.39082],[-2.1791,53.3912],[-2.17919,53.39115],[-2.1795,53.39136],[-2.17934,53.39144]]]]}},
{ "type":"Feature","properties":{"osm_way_id":"203678134","building":"warehouse","other":{"building:levels":"2","roof:levels":"0"}}, "geometry":{"type":"MultiPolygon","coordinates":[[[[-2.18808,53.39245],[-2.18728,53.39251],[-2.18698,53.39128],[-2.18778,53.39121],[-2.18808,53.39245]]]]}},
{ "type":"Feature","properties":{"osm_way_id":"205670715","name":"Ashton Delivery Office","amenity":"post_depot","building":"warehouse","other":{"addr:city":"Ashton-under-Lyne","addr:housenumber":"35","addr:postcode":"OL6 7PW","addr:street":"Fleet Street","operator":"Royal Mail","operator:type":"private","operator:wikidata":"Q638098","operator:wikipedia":"en:Royal Mail"}}, "geometry":{"type":"MultiPolygon","coordinates":[[[[-2.09428,53.48645],[-2.09417,53.4863],[-2.09386,53.48638],[-2.09407,53.48667],[-2.09432,53.4866],[-2.09429,53.48655],[-2.09458,53.48647],[-2.09452,53.48638],[-2.09428,53.48645]]]]}},
{ "type":"Feature","properties":{"osm_way_id":"206644168","name":"Big Yellow Self-Store","building":"warehouse"},"geometry":{"type":"MultiPolygon","coordinates":[[[[-2.09923,53.48488],[-2.09916,53.48478],[-2.09946,53.48471],[-2.09953,53.48479],[-2.1,53.48467],[-2.10012,53.48483],[-2.09933,53.48503],[-2.09923,53.48488]]]]}},
{ "type":"Feature","properties":{"osm_way_id":"240375805","building":"warehouse"},"geometry":{"type":"MultiPolygon","coordinates":[[[[-2.21587,53.47112],[-2.21586,53.47095],[-2.21595,53.47095],[-2.21595,53.47096],[-2.21613,53.47096],[-2.21613,53.47095],[-2.21629,53.47095],[-2.21629,53.47109],[-2.21632,53.47112],[-2.21587,53.47112]]]]}},
{ "type":"Feature","properties":{"osm_way_id":"254827512","building":"warehouse"},"geometry":{"type":"MultiPolygon","coordinates":[[[[-2.26856,53.47265],[-2.2688,53.47255],[-2.26849,53.47228],[-2.26825,53.47237],[-2.26856,53.47265]]]]}},
{ "type":"Feature","properties":{"osm_way_id":"254827514","building":"warehouse"},"geometry":{"type":"MultiPolygon","coordinates":[[[[-2.26941,53.47222],[-2.26886,53.47244],[-2.26862,53.47222],[-2.26904,53.47206],[-2.26922,53.47222],[-2.26935,53.47217],[-2.26941,53.47222]]]]}},
{ "type":"Feature","properties":{"osm_way_id":"255962994","building":"warehouse"},"geometry":{"type":"MultiPolygon","coordinates":[[[[-2.27088,53.47124],[-2.27063,53.47106],[-2.27088,53.47095],[-2.2711,53.47086],[-2.27133,53.47106],[-2.27102,53.47118],[-2.27088,53.47124]]]]}},
{ "type":"Feature","properties":{"osm_way_id":"255962995","building":"warehouse"},"geometry":{"type":"MultiPolygon","coordinates":[[[[-2.27103,53.47203],[-2.27148,53.47178],[-2.27113,53.47155],[-2.27124,53.47149],[-2.27114,53.47142],[-2.27057,53.47173],[-2.27085,53.47191],[-2.27098,53.472],[-2.27103,53.47203]]]]}},
{ "type":"Feature","properties":{"osm_way_id":"255963207","name":"Zapp","building":"warehouse","other":{"addr:city":"Salford","addr:housenumber":"4","addr:postcode":"M5 4TH","addr:street":"Worrall Street","fhrs:id":"1391206"}}, "geometry":{"type":"MultiPolygon","coordinates":[[[[-2.27055,53.472],[-2.27077,53.47188],[-2.27056,53.47174],[-2.27048,53.47178],[-2.27045,53.47176],[-2.27037,53.4718],[-2.27042,53.47184],[-2.27047,53.47187],[-2.2704,53.4719],[-2.27055,53.472]]]]}},
{ "type":"Feature","properties":{"osm_way_id":"255963208","building":"warehouse"},"geometry":{"type":"MultiPolygon","coordinates":[[[[-2.27103,53.47203],[-2.27098,53.472],[-2.27085,53.47191],[-2.27067,53.47202],[-2.27085,53.47213],[-2.27103,53.47203]]]]}},
{ "type":"Feature","properties":{"osm_way_id":"255963209","building":"warehouse"},"geometry":{"type":"MultiPolygon","coordinates":[[[[-2.27037,53.47178],[-2.27052,53.4717],[-2.27035,53.47159],[-2.27024,53.47165],[-2.27033,53.47171],[-2.2703,53.47173],[-2.27037,53.47178]]]]}},
{ "type":"Feature","properties":{"osm_way_id":"301078197","building":"warehouse"},"geometry":{"type":"MultiPolygon","coordinates":[[[[-2.08236,53.46233],[-2.08266,53.46227],[-2.08253,53.46204],[-2.08244,53.46206],[-2.08242,53.46203],[-2.08213,53.46208],[-2.08223,53.46226],[-2.08236,53.46233]]]]}},
{ "type":"Feature","properties":{"osm_way_id":"303477353","building":"warehouse"},"geometry":{"type":"MultiPolygon","coordinates":[[[[-2.13977,53.52473],[-2.1394,53.52457],[-2.13987,53.52419],[-2.14023,53.52435],[-2.13977,53.52473]]]]}},
{ "type":"Feature","properties":{"osm_way_id":"303477357","name":"Safe Storage","building":"warehouse"},"geometry":{"type":"MultiPolygon","coordinates":[[[[-2.13621,53.52638],[-2.13553,53.52625],[-2.1357,53.52592],[-2.13563,53.52591],[-2.13571,53.52576],[-2.13669,53.52595],[-2.13661,53.52609],[-2.13649,53.52607],[-2.13642,53.5262],[-2.13632,53.52618],[-2.13621,53.52638]]]]}},
{ "type":"Feature","properties":{"osm_way_id":"304427345","name":"DHL","building":"warehouse","other":{"operator":"DHL"}}, "geometry":{"type":"MultiPolygon","coordinates":[[[[-2.29172,53.35737],[-2.29199,53.35753],[-2.29185,53.35762],[-2.29211,53.35777],[-2.29131,53.35825],[-2.29091,53.35802],[-2.29172,53.35753],[-2.29158,53.35746],[-2.29172,53.35737]]]]}},
{ "type":"Feature","properties":{"osm_way_id":"367011256","building":"warehouse"},"geometry":{"type":"MultiPolygon","coordinates":[[[[-2.08292,53.46278],[-2.08287,53.46279],[-2.08261,53.46264],[-2.08257,53.46257],[-2.08278,53.46252],[-2.08292,53.46278]]]]}},
{ "type":"Feature","properties":{"osm_way_id":"412346807","building":"warehouse","other":{"roof:shape":"gabled"}}, "geometry":{"type":"MultiPolygon","coordinates":[[[[-2.12292,53.47615],[-2.12287,53.47609],[-2.12258,53.47621],[-2.12264,53.47626],[-2.12292,53.47615]]]]}},
{ "type":"Feature","properties":{"osm_way_id":"462434069","building":"warehouse"},"geometry":{"type":"MultiPolygon","coordinates":[[[[-2.18234,53.43493],[-2.18222,53.43477],[-2.18236,53.43473],[-2.18227,53.43462],[-2.18214,53.43466],[-2.18201,53.43449],[-2.18157,53.43462],[-2.1819,53.43505],[-2.18234,53.43493]]]]}},
{ "type":"Feature","properties":{"osm_way_id":"468738646","name":"CHESHIRE SCAFFOLDS LIMITED","building":"warehouse","other":{"addr:city":"Stockport","addr:postcode":"SK4 1NU","addr:street":"Haigh Avenue"}}, "geometry":{"type":"MultiPolygon","coordinates":[[[[-2.1631,53.42943],[-2.16276,53.42942],[-2.16277,53.42928],[-2.16271,53.42928],[-2.16273,53.42915],[-2.16278,53.42915],[-2.16278,53.42914],[-2.16312,53.42915],[-2.1631,53.42943]]]]}},
{ "type":"Feature","properties":{"osm_way_id":"469798595","name":"Booles Tools and Pipe Fittings Ltd","building":"warehouse","other":{"addr:city":"Stockport","addr:postcode":"SK4 1NU","addr:street":"Haigh Avenue"}}, "geometry":{"type":"MultiPolygon","coordinates":[[[[-2.16327,53.42759],[-2.16266,53.42747],[-2.16293,53.42698],[-2.16356,53.42711],[-2.16327,53.42759]]]]}},
{ "type":"Feature","properties":{"osm_way_id":"506217164","building":"warehouse","other":{"addr:city":"Manchester","addr:housenumber":"2","addr:postcode":"M19 2JU","addr:street":"Davenhill Road","building:levels":"1","source:addr:postcode":"companies house open data"}}, "geometry":{"type":"MultiPolygon","coordinates":[[[[-2.19143,53.43871],[-2.19155,53.43861],[-2.19152,53.43849],[-2.19126,53.43846],[-2.19143,53.43871]]]]}},
{ "type":"Feature","properties":{"osm_way_id":"507024200","name":"Aldi Distribution Centre","building":"warehouse"},"geometry":{"type":"MultiPolygon","coordinates":[[[[-2.45501,53.53666],[-2.45363,53.53884],[-2.45389,53.5389],[-2.45329,53.53985],[-2.45307,53.5398],[-2.45335,53.53936],[-2.45328,53.53934],[-2.45325,53.53938],[-2.45082,53.53884],[-2.45206,53.53692],[-2.45284,53.53713],[-2.45319,53.53665],[-2.45286,53.53658],[-2.45309,53.53622],[-2.45501,53.53666]]]]}},
{ "type":"Feature","properties":{"osm_way_id":"514000302","building":"warehouse"},"geometry":{"type":"MultiPolygon","coordinates":[[[[-2.36048,53.39714],[-2.36125,53.39697],[-2.36119,53.39686],[-2.36129,53.39685],[-2.36115,53.39664],[-2.36022,53.39684],[-2.36034,53.39706],[-2.36041,53.39704],[-2.36048,53.39714]]]]}},
{ "type":"Feature","properties":{"osm_way_id":"542023321","name":"Amazon","building":"warehouse","other":{"addr:postcode":"BL5 1FH"}}, "geometry":{"type":"MultiPolygon","coordinates":[[[[-2.45993,53.53703],[-2.4595,53.53705],[-2.45951,53.53713],[-2.45846,53.53718],[-2.45847,53.53725],[-2.45833,53.53725],[-2.45832,53.53717],[-2.45797,53.53718],[-2.45796,53.53712],[-2.45782,53.53713],[-2.45779,53.5369],[-2.45798,53.5369],[-2.45774,53.53492],[-2.45966,53.53484],[-2.45993,53.53703]]]]}},
{ "type":"Feature","properties":{"osm_way_id":"547762739","building":"warehouse"},"geometry":{"type":"MultiPolygon","coordinates":[[[[-2.24757,53.3944],[-2.24764,53.39376],[-2.24706,53.39373],[-2.24702,53.39437],[-2.24757,53.3944]]]]}},
{ "type":"Feature","properties":{"osm_way_id":"547762740","building":"warehouse"},"geometry":{"type":"MultiPolygon","coordinates":[[[[-2.2492,53.39453],[-2.24925,53.39407],[-2.24856,53.39403],[-2.24849,53.3945],[-2.2492,53.39453]]]]}},
{ "type":"Feature","properties":{"osm_way_id":"547762741","building":"warehouse"},"geometry":{"type":"MultiPolygon","coordinates":[[[[-2.25022,53.39468],[-2.25028,53.39423],[-2.24968,53.39419],[-2.24961,53.39466],[-2.25022,53.39468]]]]}},
{ "type":"Feature","properties":{"osm_way_id":"547762742","building":"warehouse"},"geometry":{"type":"MultiPolygon","coordinates":[[[[-2.25119,53.39532],[-2.2513,53.39453],[-2.25049,53.3945],[-2.25043,53.39517],[-2.25103,53.3952],[-2.251,53.39531],[-2.25119,53.39532]]]]}},
{ "type":"Feature","properties":{"osm_way_id":"547762743","building":"warehouse"},"geometry":{"type":"MultiPolygon","coordinates":[[[[-2.24968,53.3955],[-2.24974,53.39509],[-2.24916,53.39507],[-2.24912,53.39549],[-2.24968,53.3955]]]]}},
{ "type":"Feature","properties":{"osm_way_id":"568382470","name":"Great Bear Port Salford","building":"warehouse"},"geometry":{"type":"MultiPolygon","coordinates":[[[[-2.39139,53.46355],[-2.39007,53.46409],[-2.39217,53.46585],[-2.39345,53.4653],[-2.39287,53.46481],[-2.39139,53.46355]]]]}},
{ "type":"Feature","properties":{"osm_way_id":"579458958","name":"Poundland","building":"warehouse"},"geometry":{"type":"MultiPolygon","coordinates":[[[[-2.63795,53.50317],[-2.6369,53.504],[-2.63358,53.50249],[-2.63464,53.50167],[-2.63795,53.50317]]]]}},
{ "type":"Feature","properties":{"osm_way_id":"605652333","building":"yes"},"geometry":{"type":"MultiPolygon","coordinates":[[[[-2.30243,53.46709],[-2.30198,53.46697],[-2.30189,53.4671],[-2.3018,53.46722],[-2.30137,53.46778],[-2.30158,53.46784],[-2.30162,53.46785],[-2.30181,53.4679],[-2.30225,53.46733],[-2.30234,53.46722],[-2.30243,53.46709]]]]}},
{ "type":"Feature","properties":{"osm_way_id":"611803867","name":"Apex Self Storage","building":"warehouse","other":{"phone":"+44 161 258 4939","website":"https:\/\/www.apexselfstorage.co.uk\/"}}, "geometry":{"type":"MultiPolygon","coordinates":[[[[-2.2457,53.45902],[-2.24544,53.45902],[-2.24537,53.45899],[-2.24536,53.45894],[-2.24534,53.45838],[-2.24564,53.45837],[-2.24565,53.45854],[-2.24569,53.45854],[-2.2457,53.45865],[-2.24565,53.45866],[-2.24566,53.45893],[-2.2457,53.45893],[-2.2457,53.45902]]]]}},
{ "type":"Feature","properties":{"osm_way_id":"617574378","building":"warehouse"},"geometry":{"type":"MultiPolygon","coordinates":[[[[-2.26318,53.46503],[-2.26323,53.46513],[-2.26358,53.46506],[-2.26354,53.46496],[-2.26318,53.46503]]]]}},
{ "type":"Feature","properties":{"osm_way_id":"617574379","building":"warehouse"},"geometry":{"type":"MultiPolygon","coordinates":[[[[-2.26358,53.46506],[-2.26323,53.46513],[-2.26327,53.4652],[-2.26362,53.46514],[-2.26358,53.46506]]]]}},
{ "type":"Feature","properties":{"osm_way_id":"620359892","building":"warehouse","other":{"building:levels":"3"}}, "geometry":{"type":"MultiPolygon","coordinates":[[[[-2.19094,53.44402],[-2.19081,53.44406],[-2.19081,53.44388],[-2.191,53.44388],[-2.191,53.44397],[-2.191,53.444],[-2.19094,53.44402]]]]}},
{ "type":"Feature","properties":{"osm_way_id":"620816366","building":"warehouse"},"geometry":{"type":"MultiPolygon","coordinates":[[[[-2.32007,53.4653],[-2.31919,53.46529],[-2.3183,53.46527],[-2.31837,53.46407],[-2.31822,53.46406],[-2.31823,53.46391],[-2.31838,53.46391],[-2.31838,53.46389],[-2.31823,53.46388],[-2.31825,53.46352],[-2.31825,53.46348],[-2.31931,53.4635],[-2.31931,53.46352],[-2.3193,53.46359],[-2.32017,53.46361],[-2.32007,53.4653]]]]}},
{ "type":"Feature","properties":{"osm_way_id":"679731141","name":"CAF Rail UK - Stockport Depot","building":"warehouse","other":{"addr:city":"Stockport","addr:housename":"Aurora Business Park","addr:housenumber":"Unit 10","addr:postcode":"SK3 0EF","addr:street":"Beacon Way"}}, "geometry":{"type":"MultiPolygon","coordinates":[[[[-2.19066,53.40512],[-2.18996,53.40513],[-2.18995,53.40431],[-2.19066,53.40431],[-2.19066,53.40512]]]]}},
{ "type":"Feature","properties":{"osm_way_id":"679731142","name":"Aeroco Group International","building":"warehouse","other":{"addr:city":"Stockport","addr:housename":"Aurora Business Park","addr:housenumber":"Units 6-9","addr:postcode":"SK3 0EF","addr:street":"Beacon Way"}}, "geometry":{"type":"MultiPolygon","coordinates":[[[[-2.18987,53.40512],[-2.18931,53.40513],[-2.1893,53.40429],[-2.18986,53.40429],[-2.18987,53.40512]]]]}},
{ "type":"Feature","properties":{"osm_way_id":"703944858","building":"warehouse"},"geometry":{"type":"MultiPolygon","coordinates":[[[[-2.27014,53.47148],[-2.27029,53.47158],[-2.27005,53.47171],[-2.2699,53.4716],[-2.27014,53.47148]]]]}},
{ "type":"Feature","properties":{"osm_way_id":"704572186","building":"warehouse"},"geometry":{"type":"MultiPolygon","coordinates":[[[[-2.43401,53.43386],[-2.43304,53.43405],[-2.43283,53.43372],[-2.43328,53.43363],[-2.43339,53.43382],[-2.43393,53.4337],[-2.43401,53.43386]]]]}},
{ "type":"Feature","properties":{"osm_way_id":"769113480","building":"warehouse"},"geometry":{"type":"MultiPolygon","coordinates":[[[[-2.61757,53.55193],[-2.61741,53.55206],[-2.61727,53.55202],[-2.6173,53.55193],[-2.61742,53.55198],[-2.61751,53.5519],[-2.61757,53.55193]]]]}},
{ "type":"Feature","properties":{"osm_way_id":"772437706","name":"R Gledhill Ltd.","building":"warehouse"},"geometry":{"type":"MultiPolygon","coordinates":[[[[-2.03201,53.5696],[-2.03178,53.56954],[-2.03196,53.56931],[-2.0324,53.56943],[-2.03229,53.56957],[-2.03208,53.56951],[-2.03201,53.5696]]]]}},
{ "type":"Feature","properties":{"osm_way_id":"797568873","building":"warehouse","other":{"addr:city":"Salford","addr:postcode":"M5 3EY","addr:street":"Hagley Road","addr:unit":"2","building:levels":"2","building:material":"brick","roof:colour":"grey","roof:levels":"1","roof:material":"metal","roof:shape":"gabled"}}, "geometry":{"type":"MultiPolygon","coordinates":[[[[-2.28088,53.46784],[-2.28066,53.46797],[-2.28051,53.46788],[-2.28041,53.46793],[-2.28028,53.46786],[-2.2806,53.46767],[-2.28088,53.46784]]]]}},
{ "type":"Feature","properties":{"osm_way_id":"797568874","building":"warehouse","other":{"addr:city":"Salford","addr:postcode":"M5 3EY","addr:street":"Hagley Road","addr:unit":"4","building:levels":"2","building:material":"brick","roof:colour":"grey","roof:levels":"1","roof:material":"metal","roof:orientation":"across","roof:shape":"gabled"}}, "geometry":{"type":"MultiPolygon","coordinates":[[[[-2.28111,53.4677],[-2.28088,53.46784],[-2.2806,53.46767],[-2.28083,53.46753],[-2.28111,53.4677]]]]}},
{ "type":"Feature","properties":{"osm_way_id":"797568875","building":"warehouse","other":{"addr:city":"Salford","addr:postcode":"M5 3EY","addr:street":"Hagley Road","addr:unit":"6","building:levels":"2","building:material":"brick","roof:colour":"grey","roof:levels":"1","roof:material":"metal","roof:orientation":"across","roof:shape":"gabled"}}, "geometry":{"type":"MultiPolygon","coordinates":[[[[-2.28134,53.46756],[-2.28111,53.4677],[-2.28083,53.46753],[-2.28106,53.4674],[-2.28121,53.46749],[-2.28134,53.46756]]]]}},
{ "type":"Feature","properties":{"osm_way_id":"797568876","building":"warehouse","other":{"addr:city":"Salford","addr:postcode":"M5 3EY","addr:street":"Hagley Road","addr:unit":"1","building:levels":"2","building:material":"brick","roof:colour":"grey","roof:levels":"1","roof:material":"metal","roof:orientation":"across","roof:shape":"gabled"}}, "geometry":{"type":"MultiPolygon","coordinates":[[[[-2.27984,53.46775],[-2.27977,53.46779],[-2.27962,53.46788],[-2.27941,53.46775],[-2.2793,53.46782],[-2.27913,53.46771],[-2.27946,53.46752],[-2.27984,53.46775]]]]}},
{ "type":"Feature","properties":{"osm_way_id":"797568877","building":"warehouse","other":{"addr:city":"Salford","addr:postcode":"M5 3EY","addr:street":"Hagley Road","addr:unit":"3","building:levels":"2","building:material":"brick","roof:colour":"grey","roof:levels":"1","roof:material":"metal","roof:orientation":"across","roof:shape":"gabled"}}, "geometry":{"type":"MultiPolygon","coordinates":[[[[-2.28006,53.46762],[-2.27984,53.46775],[-2.27946,53.46752],[-2.27969,53.46739],[-2.28006,53.46762]]]]}},
{ "type":"Feature","properties":{"osm_way_id":"797568878","building":"warehouse","other":{"addr:city":"Salford","addr:postcode":"M5 3EY","addr:street":"Hagley Road","addr:unit":"5","building:levels":"2","building:material":"brick","roof:colour":"grey","roof:levels":"1","roof:material":"metal","roof:orientation":"across","roof:shape":"gabled"}}, "geometry":{"type":"MultiPolygon","coordinates":[[[[-2.28028,53.46749],[-2.28006,53.46762],[-2.27969,53.46739],[-2.27991,53.46726],[-2.28028,53.46749]]]]}},
{ "type":"Feature","properties":{"osm_way_id":"797568879","building":"warehouse","other":{"addr:city":"Salford","addr:postcode":"M5 3EY","addr:street":"Hagley Road","addr:unit":"7","building:levels":"2","building:material":"brick","roof:colour":"grey","roof:levels":"1","roof:material":"metal","roof:orientation":"across","roof:shape":"gabled"}}, "geometry":{"type":"MultiPolygon","coordinates":[[[[-2.28051,53.46737],[-2.28028,53.46749],[-2.27991,53.46726],[-2.28013,53.46713],[-2.28051,53.46737]]]]}},
{ "type":"Feature","properties":{"osm_way_id":"797568880","building":"warehouse","other":{"addr:city":"Salford","addr:postcode":"M5 3EY","addr:street":"Hagley Road","addr:unit":"9","building:levels":"2","building:material":"brick","roof:colour":"grey","roof:levels":"1","roof:material":"metal","roof:orientation":"across","roof:shape":"gabled"}}, "geometry":{"type":"MultiPolygon","coordinates":[[[[-2.28073,53.46724],[-2.28051,53.46737],[-2.28013,53.46713],[-2.28035,53.46701],[-2.28073,53.46724]]]]}},
{ "type":"Feature","properties":{"osm_way_id":"799405263","building":"warehouse","other":{"addr:city":"Salford","addr:postcode":"M5 3EZ","addr:street":"Modwen Road","addr:unit":"8","building:levels":"2","building:material":"brick","roof:colour":"grey","roof:levels":"1","roof:material":"metal","roof:orientation":"across","roof:shape":"gabled"}}, "geometry":{"type":"MultiPolygon","coordinates":[[[[-2.27767,53.46769],[-2.27751,53.46779],[-2.27748,53.46777],[-2.27746,53.46776],[-2.27743,53.46774],[-2.2774,53.46772],[-2.27738,53.46771],[-2.27735,53.46769],[-2.27733,53.46768],[-2.2773,53.46766],[-2.27728,53.46765],[-2.27721,53.46761],[-2.27738,53.46751],[-2.27767,53.46769]]]]}},
{ "type":"Feature","properties":{"osm_way_id":"799405264","building":"warehouse","other":{"addr:city":"Salford","addr:postcode":"M5 3EZ","addr:street":"Modwen Road","addr:unit":"10","building:levels":"2","building:material":"brick","roof:colour":"grey","roof:levels":"1","roof:material":"metal","roof:orientation":"across","roof:shape":"gabled"}}, "geometry":{"type":"MultiPolygon","coordinates":[[[[-2.27784,53.46759],[-2.27767,53.46769],[-2.27738,53.46751],[-2.27755,53.46741],[-2.27784,53.46759]]]]}},
{ "type":"Feature","properties":{"osm_way_id":"799405265","building":"warehouse","other":{"addr:city":"Salford","addr:postcode":"M5 3EZ","addr:street":"Modwen Road","addr:unit":"12","building:levels":"2","building:material":"brick","roof:colour":"grey","roof:levels":"1","roof:material":"metal","roof:orientation":"across","roof:shape":"gabled"}}, "geometry":{"type":"MultiPolygon","coordinates":[[[[-2.27801,53.46749],[-2.27784,53.46759],[-2.27755,53.46741],[-2.27771,53.46732],[-2.27801,53.46749]]]]}},
{ "type":"Feature","properties":{"osm_way_id":"799405266","building":"warehouse","other":{"addr:city":"Salford","addr:postcode":"M5 3EZ","addr:street":"Modwen Road","addr:unit":"2","building:levels":"2","building:material":"brick","roof:colour":"grey","roof:levels":"1","roof:material":"metal","roof:orientation":"across","roof:shape":"gabled"}}, "geometry":{"type":"MultiPolygon","coordinates":[[[[-2.27807,53.46805],[-2.27785,53.46818],[-2.27756,53.468],[-2.27778,53.46788],[-2.27807,53.46805]]]]}},
{ "type":"Feature","properties":{"osm_way_id":"799405267","building":"warehouse","other":{"addr:city":"Salford","addr:postcode":"M5 3EZ","addr:street":"Modwen Road","addr:unit":"4","building:levels":"2","building:material":"brick","roof:colour":"grey","roof:levels":"1","roof:material":"metal","roof:orientation":"across","roof:shape":"gabled"}}, "geometry":{"type":"MultiPolygon","coordinates":[[[[-2.27829,53.46792],[-2.27807,53.46805],[-2.27778,53.46788],[-2.27799,53.46775],[-2.27829,53.46792]]]]}},
{ "type":"Feature","properties":{"osm_way_id":"799405268","building":"warehouse","other":{"addr:city":"Salford","addr:postcode":"M5 3EZ","addr:street":"Modwen Road","addr:unit":"6","building:levels":"2","building:material":"brick","roof:colour":"grey","roof:levels":"1","roof:material":"metal","roof:orientation":"across","roof:shape":"gabled"}}, "geometry":{"type":"MultiPolygon","coordinates":[[[[-2.2785,53.4678],[-2.27829,53.46792],[-2.27799,53.46775],[-2.27821,53.46762],[-2.2785,53.4678]]]]}},
{ "type":"Feature","properties":{"osm_way_id":"823976123","building":"warehouse","other":{"addr:city":"Manchester","addr:street":"Ladybarn Road","building:levels":"1","roof:shape":"gabled"}}, "geometry":{"type":"MultiPolygon","coordinates":[[[[-2.2167,53.44165],[-2.21651,53.44165],[-2.2165,53.44144],[-2.21669,53.44143],[-2.2167,53.44165]]]]}},
{ "type":"Feature","properties":{"osm_way_id":"839937461","building":"warehouse"},"geometry":{"type":"MultiPolygon","coordinates":[[[[-2.27088,53.47124],[-2.27106,53.47136],[-2.27116,53.47132],[-2.27102,53.47118],[-2.27088,53.47124]]]]}},
{ "type":"Feature","properties":{"osm_way_id":"878791553","building":"warehouse"},"geometry":{"type":"MultiPolygon","coordinates":[[[[-2.40184,53.45545],[-2.40218,53.45521],[-2.40245,53.45534],[-2.4021,53.45558],[-2.40184,53.45545]]]]}},
{ "type":"Feature","properties":{"osm_way_id":"884175054","building":"warehouse"},"geometry":{"type":"MultiPolygon","coordinates":[[[[-2.30192,53.47465],[-2.30163,53.4747],[-2.30153,53.47448],[-2.30182,53.47443],[-2.30192,53.47465]]]]}},
{ "type":"Feature","properties":{"osm_way_id":"884175055","building":"warehouse"},"geometry":{"type":"MultiPolygon","coordinates":[[[[-2.3015,53.47454],[-2.30121,53.47459],[-2.30111,53.47437],[-2.3011,53.47436],[-2.30139,53.47431],[-2.3015,53.47454]]]]}},
{ "type":"Feature","properties":{"osm_way_id":"884175056","building":"warehouse"},"geometry":{"type":"MultiPolygon","coordinates":[[[[-2.30107,53.47443],[-2.30078,53.47447],[-2.30067,53.47425],[-2.30097,53.4742],[-2.30107,53.47443]]]]}},
{ "type":"Feature","properties":{"osm_way_id":"884178549","building":"warehouse"},"geometry":{"type":"MultiPolygon","coordinates":[[[[-2.30107,53.47562],[-2.30102,53.47563],[-2.30103,53.47564],[-2.30104,53.47567],[-2.30093,53.47569],[-2.30094,53.47572],[-2.30073,53.47575],[-2.3007,53.47568],[-2.30053,53.47571],[-2.30041,53.47545],[-2.30038,53.47539],[-2.30092,53.4753],[-2.30107,53.47562]]]]}},
{ "type":"Feature","properties":{"osm_way_id":"884178550","building":"warehouse"},"geometry":{"type":"MultiPolygon","coordinates":[[[[-2.30003,53.47501],[-2.29986,53.47464],[-2.30056,53.47453],[-2.30073,53.4749],[-2.30018,53.47499],[-2.30003,53.47501]]]]}},
{ "type":"Feature","properties":{"osm_way_id":"884178551","building":"warehouse"},"geometry":{"type":"MultiPolygon","coordinates":[[[[-2.30111,53.47528],[-2.30092,53.47487],[-2.30091,53.47487],[-2.30091,53.47486],[-2.30145,53.47477],[-2.30164,53.4752],[-2.3016,53.4752],[-2.30153,53.47521],[-2.30141,53.47523],[-2.30111,53.47528]]]]}},
{ "type":"Feature","properties":{"osm_way_id":"885307385","building":"warehouse"},"geometry":{"type":"MultiPolygon","coordinates":[[[[-2.25048,53.36473],[-2.25049,53.36452],[-2.25066,53.36452],[-2.25065,53.36474],[-2.25048,53.36473]]]]}},
{ "type":"Feature","properties":{"osm_way_id":"885307389","building":"warehouse"},"geometry":{"type":"MultiPolygon","coordinates":[[[[-2.24973,53.36447],[-2.24974,53.36438],[-2.24955,53.36438],[-2.24955,53.36446],[-2.24973,53.36447]]]]}},
{ "type":"Feature","properties":{"osm_way_id":"885307396","building":"warehouse"},"geometry":{"type":"MultiPolygon","coordinates":[[[[-2.24858,53.36468],[-2.24875,53.36469],[-2.24876,53.36463],[-2.24872,53.36463],[-2.24872,53.36462],[-2.24859,53.36461],[-2.24859,53.36463],[-2.24858,53.36468]]]]}},
{ "type":"Feature","properties":{"osm_way_id":"946103711","building":"warehouse","other":{"building:levels":"2","roof:shape":"flat"}}, "geometry":{"type":"MultiPolygon","coordinates":[[[[-2.30289,53.45945],[-2.30291,53.45927],[-2.30336,53.45929],[-2.30338,53.45916],[-2.30501,53.45923],[-2.30504,53.45924],[-2.30503,53.45929],[-2.30501,53.45929],[-2.3049,53.46014],[-2.30493,53.46014],[-2.30492,53.4602],[-2.30489,53.4602],[-2.30335,53.46013],[-2.30336,53.46],[-2.30282,53.45997],[-2.30283,53.45992],[-2.30247,53.45991],[-2.30247,53.45989],[-2.30229,53.45988],[-2.3023,53.45977],[-2.30213,53.45976],[-2.30217,53.45942],[-2.30289,53.45945]]]]}},
{ "type":"Feature","properties":{"osm_way_id":"979877164","name":"Cash for Clothes","building":"warehouse"},"geometry":{"type":"MultiPolygon","coordinates":[[[[-2.63282,53.49016],[-2.63263,53.49005],[-2.63272,53.48999],[-2.63292,53.4901],[-2.63282,53.49016]]]]}},
{ "type":"Feature","properties":{"osm_way_id":"1009266601","name":"Hall's Storage","building":"warehouse"},"geometry":{"type":"MultiPolygon","coordinates":[[[[-2.59899,53.51753],[-2.59862,53.51732],[-2.59889,53.51715],[-2.59937,53.51742],[-2.59909,53.51759],[-2.59899,53.51753]]]]}},
{ "type":"Feature","properties":{"osm_way_id":"1010710453","leisure":"garden","other":{"access":"private"}}, "geometry":{"type":"MultiPolygon","coordinates":[[[[-2.08697,53.54023],[-2.08693,53.5402],[-2.08702,53.54014],[-2.08707,53.54016],[-2.08697,53.54023]]]]}},
{ "type":"Feature","properties":{"osm_way_id":"1021053073","name":"R Swain and Sons","building":"warehouse"},"geometry":{"type":"MultiPolygon","coordinates":[[[[-2.44247,53.50393],[-2.44175,53.50432],[-2.44242,53.50476],[-2.44313,53.50437],[-2.44274,53.50412],[-2.44265,53.50417],[-2.44256,53.50411],[-2.44266,53.50406],[-2.44247,53.50393]]]]}},
{ "type":"Feature","properties":{"osm_way_id":"1025269763","name":"The Fragrance Shop","building":"warehouse"},"geometry":{"type":"MultiPolygon","coordinates":[[[[-2.31991,53.46692],[-2.31805,53.46688],[-2.31813,53.46548],[-2.31997,53.46552],[-2.31991,53.46692]]]]}},
{ "type":"Feature","properties":{"osm_way_id":"1025276916","name":"Lineage Logistics","building":"warehouse"},"geometry":{"type":"MultiPolygon","coordinates":[[[[-2.22732,53.58192],[-2.22638,53.58174],[-2.22683,53.58101],[-2.22782,53.58124],[-2.22732,53.58192]]]]}},
{ "type":"Feature","properties":{"osm_way_id":"1033807863","building":"warehouse"},"geometry":{"type":"MultiPolygon","coordinates":[[[[-2.41665,53.42642],[-2.41651,53.42696],[-2.41552,53.42688],[-2.41543,53.42672],[-2.41555,53.42632],[-2.41665,53.42642]]]]}},
{ "type":"Feature","properties":{"osm_way_id":"1039558375","building":"warehouse"},"geometry":{"type":"MultiPolygon","coordinates":[[[[-2.18809,53.33628],[-2.1876,53.33643],[-2.18728,53.33608],[-2.18736,53.33605],[-2.18731,53.33599],[-2.18772,53.33586],[-2.1878,53.33594],[-2.18789,53.33591],[-2.18815,53.3362],[-2.18805,53.33623],[-2.18809,53.33628]]]]}},
{ "type":"Feature","properties":{"osm_way_id":"1039558376","building":"warehouse"},"geometry":{"type":"MultiPolygon","coordinates":[[[[-2.18737,53.33594],[-2.18711,53.33566],[-2.18727,53.3356],[-2.18754,53.33588],[-2.18737,53.33594]]]]}}
]
}
