{
"type": "FeatureCollection",
"features": [
{ "type":"Feature","properties":{"osm_id":"29791894","name":"ALDI","other":{"addr:city":"Redcar","addr:postcode":"TS10 4SD","addr:street":"Larkswood Road","brand":"ALDI","brand:wikidata":"Q41171672","brand:wikipedia":"en:Aldi","shop":"supermarket"}}, "geometry":{"type":"Point","coordinates":[-1.06881,54.59407 ]}},
{ "type":"Feature","properties":{"osm_id":"272056216","name":"Co-op Food","other":{"brand":"Co-op Food","brand:wikidata":"Q3277439","brand:wikipedia":"en:Co-op Food","operator":"Co-op","shop":"supermarket"}}, "geometry":{"type":"Point","coordinates":[-0.98346,54.56083 ]}},
{ "type":"Feature","properties":{"osm_id":"292354800","name":"Morrisons","other":{"addr:city":"Redcar","addr:country":"GB","addr:postcode":"TS10 3ER","addr:street":"Lord Street","alt_name":"Morrisons Redcar","brand":"Morrisons","brand:wikidata":"Q922344","brand:wikipedia":"en:Morrisons","contact:website":"https:\/\/my.morrisons.com\/storefinder\/80","shop":"supermarket"}}, "geometry":{"type":"Point","coordinates":[-1.06636,54.61678 ]}},
{ "type":"Feature","properties":{"osm_id":"363805858","name":"Co-op","other":{"shop":"supermarket","addr:city":"Marske-by-the-Sea","addr:street":"High Street","addr:housenumber":"69"}}, "geometry":{"type":"Point","coordinates":[-1.01973,54.5906 ]}},
{ "type":"Feature","properties":{"osm_id":"1560693872","man_made":"surveillance","other":{"camera:type":"dome","camera:mount":"building","surveillance:type":"camera"}}, "geometry":{"type":"Point","coordinates":[-0.97547,54.58372 ]}},
{ "type":"Feature","properties":{"osm_id":"1586024819","name":"The Cooperative Food","other":{"shop":"supermarket"}}, "geometry":{"type":"Point","coordinates":[-0.93934,54.56698 ]}},
{ "type":"Feature","properties":{"osm_id":"1686593830","name":"Asda","other":{"shop":"supermarket","brand":"Asda","fhrs:id":"273623","alt_name":"Asda Redcar","old_name":"Netto","operator":"Asda Stores Ltd","addr:city":"Redcar","addr:street":"Roseberry Road","addr:country":"GB","addr:postcode":"TS10 4NY","brand:wikidata":"Q297410","brand:wikipedia":"en:Asda","contact:twitter":"@asda","contact:website":"https:\/\/storelocator.asda.com\/north-east\/redcar\/the-courts-roseberry-road","contact:facebook":"https:\/\/www.facebook.com\/asda\/"}}, "geometry":{"type":"Point","coordinates":[-1.07556,54.60296 ]}},
{ "type":"Feature","properties":{"osm_id":"1736142117","name":"Tesco Extra","other":{"brand":"Tesco Extra","brand:wikidata":"Q25172225","brand:wikipedia":"en:Tesco Extra","opening_hours":"Mo-Sa 06:00-24:00; Su 10:00-16:00","shop":"supermarket","website":"https:\/\/www.tesco.com\/store-locator\/middlesbrough\/trunk-rd"}}, "geometry":{"type":"Point","coordinates":[-1.16387,54.57231 ]}},
{ "type":"Feature","properties":{"osm_id":"2642309313","name":"Co-operative Food","other":{"shop":"supermarket"}}, "geometry":{"type":"Point","coordinates":[-1.15594,54.55769 ]}},
{ "type":"Feature","properties":{"osm_id":"3089584111","name":"M&S Foodhall","other":{"shop":"supermarket","brand":"M&S Foodhall","brand:wikidata":"Q714491","brand:wikipedia":"en:Marks & Spencer"}}, "geometry":{"type":"Point","coordinates":[-1.18199,54.57092 ]}},
{ "type":"Feature","properties":{"osm_id":"5473833640","name":"M&S Foodhall","other":{"addr:city":"Guisborough","addr:country":"GB","addr:housename":"Cleveland Gate Retail Park","addr:postcode":"TS14 7FE","addr:street":"Rectory Lane","addr:unit":"4","brand":"M&S Foodhall","brand:wikidata":"Q714491","opening_hours":"Mo-Sa 08:00-21:00, Su 10:00-16:00","operator":"Marks & Spencer","payment:cash":"yes","payment:credit_cards":"yes","payment:debit_cards":"yes","phone":"+44 1287 599261","shop":"supermarket"}}, "geometry":{"type":"Point","coordinates":[-1.05656,54.53157 ]}},
{ "type":"Feature","properties":{"osm_id":"5473848831","name":"B&M Homestore","other":{"shop":"supermarket","phone":"+44 330 838 9084","addr:city":"Guisborough","addr:unit":"3","addr:street":"Rectory Lane","addr:country":"GB","payment:cash":"yes","addr:postcode":"TS14 7DL","opening_hours":"Mo-Sa 08:00-20:00, Su 10:00-16:00","addr:housename":"Cleveland Gate Retail Park","payment:debit_cards":"yes","payment:credit_cards":"yes"}}, "geometry":{"type":"Point","coordinates":[-1.05715,54.53144 ]}},
{ "type":"Feature","properties":{"osm_id":"5589806410","name":"Spar","other":{"brand":"Spar","brand:wikidata":"Q610492","shop":"supermarket"}}, "geometry":{"type":"Point","coordinates":[-1.0286,54.59129 ]}},
{ "type":"Feature","properties":{"osm_id":"7881857410","name":"Heron Foods","other":{"brand":"Heron Foods","brand:wikidata":"Q5743472","brand:wikipedia":"en:Heron Foods","shop":"supermarket"}}, "geometry":{"type":"Point","coordinates":[-1.05324,54.53554 ]}},
{ "type":"Feature","properties":{"osm_way_id":"89565588","name":"Sainsbury's","building":"yes","shop":"supermarket","other":{"addr:city":"Guisborough","addr:postcode":"TS14 7DH","addr:street":"Morgan Drive","branch":"Guisborough Superstore","brand":"Sainsbury's","brand:wikidata":"Q152096","opening_hours":"Mo-Sa 08:00-21:00; Su 10:00-16:00","operator":"Sainsbury's"}}, "geometry":{"type":"MultiPolygon","coordinates":[[[[-1.05845,54.53112],[-1.05822,54.5308],[-1.05786,54.53089],[-1.05773,54.5307],[-1.05738,54.53078],[-1.05759,54.53108],[-1.05754,54.53109],[-1.05769,54.5313],[-1.05845,54.53112]]]]}},
{ "type":"Feature","properties":{"osm_way_id":"90618088","name":"Morrisons","building":"yes","shop":"supermarket","other":{"addr:city":"Guisborough","addr:housenumber":"71-81","addr:postcode":"TS14 6AF","addr:street":"Westgate","branch":"Guisborough","brand":"Morrisons","brand:wikidata":"Q922344","brand:wikipedia":"en:Morrisons","opening_hours":"Mo-Sa 07:00-22:00; Su 10:00-16:00","operator":"Morrison Supermarkets PLC"}}, "geometry":{"type":"MultiPolygon","coordinates":[[[[-1.05354,54.53435],[-1.05357,54.53437],[-1.05349,54.5344],[-1.05363,54.53455],[-1.0537,54.53453],[-1.05386,54.53471],[-1.05401,54.53466],[-1.05404,54.5347],[-1.05417,54.53466],[-1.05459,54.53454],[-1.05457,54.53452],[-1.05424,54.53414],[-1.05354,54.53435]]]]}},
{ "type":"Feature","properties":{"osm_way_id":"97538827","name":"Asda","building":"retail","shop":"supermarket","other":{"brand":"Asda","fhrs:id":"272859","operator":"Asda Stores Ltd","addr:city":"South Bank","addr:street":"North Street","addr:country":"GB","addr:postcode":"TS6 6AB","brand:wikidata":"Q297410","brand:wikipedia":"en:Asda","contact:twitter":"@asda","contact:website":"https:\/\/storelocator.asda.com\/north-east\/middlesbrough\/2-north-street","addr:housenumber":"2","contact:facebook":"https:\/\/www.facebook.com\/asda\/"}}, "geometry":{"type":"MultiPolygon","coordinates":[[[[-1.17734,54.58168],[-1.17729,54.58153],[-1.1772,54.58154],[-1.17706,54.58107],[-1.17675,54.5811],[-1.17669,54.58089],[-1.17622,54.58093],[-1.17629,54.58114],[-1.17605,54.58117],[-1.17556,54.58122],[-1.17573,54.58175],[-1.17606,54.58172],[-1.17609,54.58181],[-1.17734,54.58168]]]]}},
{ "type":"Feature","properties":{"osm_way_id":"142608981","name":"Sainsbury's","building":"supermarket","shop":"supermarket","other":{"brand":"Sainsbury's","brand:wikidata":"Q152096","brand:wikipedia":"en:Sainsbury's","building:material":"brick","operator":"Sainsbury's","source:geometry":"Bing"}}, "geometry":{"type":"MultiPolygon","coordinates":[[[[-0.97422,54.58362],[-0.97425,54.58387],[-0.97548,54.58383],[-0.97547,54.58372],[-0.97505,54.58374],[-0.97503,54.58358],[-0.97422,54.58362]]]]}},
{ "type":"Feature","properties":{"osm_way_id":"143408709","name":"Lidl","building":"retail","shop":"supermarket","other":{"addr:city":"Guisborough","addr:country":"GB","addr:postcode":"TS14 7LG","addr:street":"Enfield Chase","branch":"Guisborough","brand":"Lidl","brand:wikidata":"Q151954","building:levels":"1","fhrs:id":"273510","nohousenumber":"yes","opening_hours":"Mo-Sa 08:00-21:00; Su 10:00-16:00","operator":"LIDL","source:geometry":"Bing","wheelchair":"yes"}}, "geometry":{"type":"MultiPolygon","coordinates":[[[[-1.0596,54.53017],[-1.05915,54.53029],[-1.05923,54.53039],[-1.05915,54.53041],[-1.05923,54.5305],[-1.0593,54.53048],[-1.05944,54.53065],[-1.05955,54.53062],[-1.05959,54.53068],[-1.05994,54.53058],[-1.0596,54.53017]]]]}},
{ "type":"Feature","properties":{"osm_way_id":"232073880","name":"Asda","building":"retail","shop":"supermarket","other":{"addr:city":"Skelton-In-Cleveland","addr:country":"GB","addr:postcode":"TS12 2LQ","addr:street":"Pheasant Fields Lane","brand":"Asda","brand:wikidata":"Q297410","brand:wikipedia":"en:Asda","contact:facebook":"https:\/\/www.facebook.com\/asda\/","contact:twitter":"@asda","contact:website":"https:\/\/storelocator.asda.com\/north-east\/saltburn-by-the-sea\/pheasant-fields-lane-skelton","fhrs:id":"547743","operator":"Asda Stores Ltd"}}, "geometry":{"type":"MultiPolygon","coordinates":[[[[-0.96612,54.56801],[-0.9652,54.56787],[-0.96549,54.56721],[-0.96559,54.56723],[-0.96566,54.56707],[-0.96572,54.56708],[-0.96568,54.56716],[-0.96585,54.56718],[-0.96589,54.56711],[-0.96625,54.56716],[-0.96618,54.56733],[-0.96624,54.56734],[-0.9663,54.56738],[-0.96625,54.56749],[-0.96635,54.5675],[-0.96612,54.56801]]]]}},
{ "type":"Feature","properties":{"osm_way_id":"475709531","name":"Iceland","building":"yes","shop":"supermarket","other":{"addr:city":"Guisborough","addr:housename":"Cleveland Gate Retail Park","addr:housenumber":"Unit 2","addr:postcode":"TS14 7FE","addr:street":"Spring Wood Road","branch":"Guisborough","brand":"Iceland","brand:wikidata":"Q721810","opening_hours":"Mo-Sa 08:00-20:00; Su 10:00-16:00"}}, "geometry":{"type":"MultiPolygon","coordinates":[[[[-1.05457,54.53185],[-1.05528,54.53166],[-1.05512,54.53145],[-1.0544,54.53164],[-1.05457,54.53185]]]]}},
{ "type":"Feature","properties":{"osm_way_id":"475709532","name":"ALDI","building":"yes","shop":"supermarket","other":{"addr:city":"Guisborough","addr:housenumber":"Unit 1","addr:postcode":"TS14 7FE","addr:street":"Hillview Road","branch":"Guisborough","brand":"ALDI","brand:wikidata":"Q41171672","brand:wikipedia":"en:Aldi","opening_hours":"Mo-Sa 08:00-21:00; Su 10:00-16:00"}}, "geometry":{"type":"MultiPolygon","coordinates":[[[[-1.05545,54.53187],[-1.05528,54.53166],[-1.05457,54.53185],[-1.05471,54.53203],[-1.05474,54.53206],[-1.05545,54.53187]]]]}},
{ "type":"Feature","properties":{"osm_way_id":"675493379","name":"Heron Foods","building":"yes","shop":"supermarket","other":{"brand":"Heron Foods","fhrs:id":"273726","addr:city":"Redcar","addr:street":"High Street","addr:country":"GB","addr:postcode":"TS10 3DE","brand:wikidata":"Q5743472","brand:wikipedia":"en:Heron Foods","contact:website":"https:\/\/heronfoods.com\/storelocator\/store-details\/redcar","addr:housenumber":"101"}}, "geometry":{"type":"MultiPolygon","coordinates":[[[[-1.06265,54.61801],[-1.06268,54.61796],[-1.06275,54.61781],[-1.06251,54.61777],[-1.06242,54.61798],[-1.06265,54.61801]]]]}},
{ "type":"Feature","properties":{"osm_way_id":"676301817","name":"Tesco Redcar Superstore","building":"yes","shop":"supermarket","other":{"addr:city":"Redcar","addr:postcode":"TS10 2AA","addr:street":"West Dyke Road","brand":"Tesco","brand:wikidata":"Q487494","brand:wikipedia":"en:Tesco","contact:website":"https:\/\/www.tesco.com\/store-locator\/redcar\/west-dyke-rd","operator":"Tesco"}}, "geometry":{"type":"MultiPolygon","coordinates":[[[[-1.06587,54.61383],[-1.06581,54.61352],[-1.06567,54.61352],[-1.06563,54.61324],[-1.06482,54.61329],[-1.06484,54.61339],[-1.06469,54.6134],[-1.0647,54.61343],[-1.06464,54.61343],[-1.06474,54.6139],[-1.06587,54.61383]]]]}},
{ "type":"Feature","properties":{"osm_way_id":"841502670","name":"Aldi","building":"retail","shop":"supermarket","other":{"addr:city":"Skelton-In-Cleveland","addr:postcode":"TS12 2ZL","addr:street":"Pheasant Fields Lane","brand":"ALDI","brand:wikidata":"Q41171672","brand:wikipedia":"en:Aldi","opening_hours":"Mo-Sa 08:00-22:00; Su 10:00-16:00","opening_hours:covid19":"same","payment:cash":"yes","payment:credit_cards":"yes","payment:debit_cards":"yes"}}, "geometry":{"type":"MultiPolygon","coordinates":[[[[-0.96561,54.56691],[-0.96476,54.56679],[-0.96485,54.56658],[-0.9648,54.56657],[-0.96483,54.5665],[-0.96522,54.56656],[-0.96524,54.56652],[-0.96547,54.56655],[-0.96545,54.56659],[-0.96573,54.56663],[-0.96561,54.56691]]]]}},
{ "type":"Feature","properties":{"osm_way_id":"972352361","name":"Aldi","building":"retail","shop":"supermarket","other":{"addr:city":"Eston, Middlesbrough","addr:street":"Trunk Road","brand":"ALDI","brand:wikidata":"Q41171672","brand:wikipedia":"en:Aldi","contact:website":"https:\/\/www.aldi.co.uk\/store\/s-uk-E1398"}}, "geometry":{"type":"MultiPolygon","coordinates":[[[[-1.15976,54.57289],[-1.16017,54.57331],[-1.15975,54.57345],[-1.15961,54.57331],[-1.15953,54.57334],[-1.15943,54.57323],[-1.15951,54.57321],[-1.15933,54.57303],[-1.15976,54.57289]]]]}}
]
}
