{
"type": "FeatureCollection",
"features": [
{ "type":"Feature","properties":{"osm_id":"1269325237","name":"Lidl","other":{"addr:city":"Blackpool","addr:postcode":"FY1 6JL","addr:street":"Bloomfield Road","brand":"Lidl","brand:wikidata":"Q151954","fhrs:id":"643484","shop":"supermarket"}}, "geometry":{"type":"Point","coordinates":[-3.04186,53.80489 ]}},
{ "type":"Feature","properties":{"osm_id":"1739595667","name":"Tesco Express","other":{"addr:postcode":"FY1 5DY","brand":"Tesco Express","brand:wikidata":"Q98456772","contact:website":"https:\/\/www.tesco.com\/store-locator\/blackpool\/130-132-central-dr","fhrs:id":"643463","shop":"supermarket"}}, "geometry":{"type":"Point","coordinates":[-3.04873,53.81152 ]}},
{ "type":"Feature","properties":{"osm_id":"3876051588","name":"Heron Foods","other":{"addr:city":"Blackpool","addr:housenumber":"65-67","addr:postcode":"FY1 1LL","addr:street":"Talbot Road","brand":"Heron Foods","brand:wikidata":"Q5743472","brand:wikipedia":"en:Heron Foods","shop":"supermarket"}}, "geometry":{"type":"Point","coordinates":[-3.0517,53.82014 ]}},
{ "type":"Feature","properties":{"osm_id":"4464865890","name":"Heron Foods","other":{"shop":"supermarket","brand":"Heron Foods","fhrs:id":"930051","addr:city":"Blackpool","addr:street":"Bank Hey Street","addr:postcode":"FY1 4PX","brand:wikidata":"Q5743472","brand:wikipedia":"en:Heron Foods","contact:website":"https:\/\/heronfoods.com\/storelocator\/store-details\/bank-hey"}}, "geometry":{"type":"Point","coordinates":[-3.0542,53.81487 ]}},
{ "type":"Feature","properties":{"osm_id":"4524368279","name":"Asda","other":{"shop":"supermarket","brand":"Asda","fhrs:id":"829126","operator":"Asda Stores Ltd","addr:country":"GB","addr:postcode":"FY4 4ES","brand:wikidata":"Q297410","brand:wikipedia":"en:Asda","contact:website":"https:\/\/storelocator.asda.com\/north-west\/blackpool\/1-welbeck-avenue"}}, "geometry":{"type":"Point","coordinates":[-3.02545,53.79861 ]}},
{ "type":"Feature","properties":{"osm_id":"4524368281","name":"Iceland","other":{"addr:postcode":"FY4 4ES","brand":"Iceland","brand:wikidata":"Q721810","fhrs:id":"643472","shop":"supermarket"}}, "geometry":{"type":"Point","coordinates":[-3.02581,53.79894 ]}},
{ "type":"Feature","properties":{"osm_id":"4524368791","name":"ALDI","other":{"addr:city":"Blackpool","addr:postcode":"FY4 4DP","addr:street":"Oxford Square","brand":"ALDI","brand:wikidata":"Q41171672","brand:wikipedia":"en:Aldi","fhrs:id":"836470","shop":"supermarket"}}, "geometry":{"type":"Point","coordinates":[-3.02759,53.80325 ]}},
{ "type":"Feature","properties":{"osm_id":"6345331675","name":"ALDI","other":{"addr:city":"Blackpool","addr:postcode":"FY2 0BQ","addr:street":"Holyoake Avenue","brand":"ALDI","brand:wikidata":"Q41171672","brand:wikipedia":"en:Aldi","fhrs:id":"1089010","shop":"supermarket"}}, "geometry":{"type":"Point","coordinates":[-3.02918,53.83632 ]}},
{ "type":"Feature","properties":{"osm_way_id":"89884183","name":"Tesco Extra","building":"retail","shop":"supermarket","other":{"addr:city":"Blackpool","addr:postcode":"FY4 4UJ","addr:street":"Sandhams Way","brand":"Tesco Extra","brand:wikidata":"Q25172225","brand:wikipedia":"en:Tesco Extra","fhrs:id":"805046","nohousenumber":"yes","opening_hours":"Mo-Sa 06:00-24:00; Su 10:00-16:00","wheelchair":"yes"}}, "geometry":{"type":"MultiPolygon","coordinates":[[[[-2.99142,53.79408],[-2.99121,53.79492],[-2.99226,53.79501],[-2.99258,53.79503],[-2.99258,53.79501],[-2.99364,53.7951],[-2.99379,53.79445],[-2.9932,53.79442],[-2.99323,53.79435],[-2.99306,53.79433],[-2.99305,53.79439],[-2.99292,53.79436],[-2.99293,53.79429],[-2.99255,53.79424],[-2.99256,53.79419],[-2.99142,53.79408]]]]}},
{ "type":"Feature","properties":{"osm_way_id":"165997996","name":"Booker Cash and Carry","building":"yes","shop":"supermarket","other":{"addr:postcode":"FY4 5ES"}}, "geometry":{"type":"MultiPolygon","coordinates":[[[[-3.00091,53.79385],[-3.00088,53.79325],[-3.0011,53.79324],[-2.99944,53.79388],[-3.00091,53.79385]]]]}},
{ "type":"Feature","properties":{"osm_way_id":"168808359","name":"Lidl","building":"yes","shop":"supermarket","other":{"addr:city":"Blackpool","addr:housenumber":"4","addr:postcode":"FY5 1LY","addr:street":"Anchorsholme Lane West","brand":"Lidl","brand:wikidata":"Q151954","fhrs:id":"643480"}}, "geometry":{"type":"MultiPolygon","coordinates":[[[[-3.04403,53.87291],[-3.04388,53.87291],[-3.04386,53.87284],[-3.04361,53.87285],[-3.04361,53.87281],[-3.04352,53.87281],[-3.04346,53.87238],[-3.04354,53.87237],[-3.04353,53.87234],[-3.04374,53.87233],[-3.04375,53.87236],[-3.04395,53.87235],[-3.04403,53.87291]]]]}},
{ "type":"Feature","properties":{"osm_way_id":"214405007","name":"ALDI","building":"yes","shop":"supermarket","other":{"addr:postcode":"FY4 2RP","brand":"ALDI","brand:wikidata":"Q41171672","brand:wikipedia":"en:Aldi","fhrs:id":"1098912","source:addr:postcode":"FHRS Open Data","website":"https:\/\/www.aldi.co.uk\/store\/s-uk-E0969"}}, "geometry":{"type":"MultiPolygon","coordinates":[[[[-3.03023,53.77958],[-3.03069,53.7795],[-3.03059,53.7793],[-3.03044,53.77901],[-3.02999,53.77909],[-3.03023,53.77958]]]]}},
{ "type":"Feature","properties":{"osm_way_id":"301684615","name":"Asda","building":"yes","shop":"supermarket","other":{"brand":"Asda","fhrs:id":"528503","operator":"Asda Stores Ltd","addr:city":"Blackpool","wheelchair":"yes","addr:street":"Cherry Tree Road","addr:country":"GB","addr:postcode":"FY4 4QH","brand:wikidata":"Q297410","brand:wikipedia":"en:Asda","contact:website":"https:\/\/storelocator.asda.com\/north-west\/blackpool\/cherry-tree-road","addr:housenumber":"160"}}, "geometry":{"type":"MultiPolygon","coordinates":[[[[-3.01748,53.79726],[-3.01808,53.79814],[-3.01818,53.79811],[-3.01827,53.79824],[-3.01922,53.798],[-3.01911,53.79785],[-3.01935,53.79779],[-3.01885,53.79709],[-3.01863,53.79714],[-3.01853,53.79701],[-3.01748,53.79726]]]]}},
{ "type":"Feature","properties":{"osm_way_id":"312610030","name":"Sainsbury's","building":"yes","shop":"supermarket","other":{"addr:postcode":"FY1 3AJ","atm":"yes","atm:fee":"no","brand":"Sainsbury's","brand:wikidata":"Q152096","brand:wikipedia":"en:Sainsbury's","fhrs:id":"706766"}}, "geometry":{"type":"MultiPolygon","coordinates":[[[[-3.0487,53.82096],[-3.04727,53.82055],[-3.04716,53.82053],[-3.04705,53.82054],[-3.04686,53.82063],[-3.04678,53.8207],[-3.04671,53.82068],[-3.04658,53.82073],[-3.04668,53.82081],[-3.04644,53.82111],[-3.04641,53.82115],[-3.04641,53.82121],[-3.04642,53.82124],[-3.04646,53.82131],[-3.04682,53.8216],[-3.04697,53.82153],[-3.0471,53.82157],[-3.04711,53.82155],[-3.04772,53.82173],[-3.04774,53.8217],[-3.0478,53.82163],[-3.0481,53.82171],[-3.04814,53.82149],[-3.04826,53.82129],[-3.04846,53.8211],[-3.0487,53.82096]]]]}},
{ "type":"Feature","properties":{"osm_way_id":"347262184","name":"Sainsbury's","building":"yes","shop":"supermarket","other":{"addr:city":"Blackpool","addr:housenumber":"80","addr:postcode":"FY2 9HH","addr:street":"Red Bank Road","atm":"yes","atm:fee":"no","brand:wikidata":"Q152096","fhrs:id":"930069"}}, "geometry":{"type":"MultiPolygon","coordinates":[[[[-3.04742,53.85002],[-3.04754,53.8502],[-3.0474,53.85029],[-3.04748,53.85036],[-3.04754,53.85037],[-3.04839,53.85013],[-3.04818,53.84985],[-3.04761,53.85001],[-3.04756,53.84995],[-3.04748,53.84998],[-3.04742,53.85002]]]]}},
{ "type":"Feature","properties":{"osm_way_id":"348512558","name":"Heron Foods","building":"retail","shop":"supermarket","other":{"brand":"Heron Foods","fhrs:id":"1083948","addr:city":"Blackpool","addr:street":"Red Bank Road","addr:suburb":"Bispham","addr:postcode":"FY2 0HJ","brand:wikidata":"Q5743472","brand:wikipedia":"en:Heron Foods","contact:website":"https:\/\/heronfoods.com\/storelocator\/store-details\/bispham","addr:housenumber":"216"}}, "geometry":{"type":"MultiPolygon","coordinates":[[[[-3.03976,53.85202],[-3.03994,53.85198],[-3.03986,53.85185],[-3.03996,53.85183],[-3.03988,53.8517],[-3.03962,53.85176],[-3.03976,53.85202]]]]}},
{ "type":"Feature","properties":{"osm_way_id":"373416694","name":"NISA Local Grange Park","shop":"supermarket","other":{"fhrs:id":"510549","addr:city":"Blackpool","addr:street":"Easington Crescent","addr:postcode":"FY3 7RD","addr:housenumber":"22-24"}}, "geometry":{"type":"MultiPolygon","coordinates":[[[[-3.01158,53.83316],[-3.01174,53.83312],[-3.01162,53.83291],[-3.01138,53.83296],[-3.01143,53.83305],[-3.01151,53.83303],[-3.01158,53.83316]]]]}},
{ "type":"Feature","properties":{"osm_way_id":"719473369","name":"Co-op","building":"yes","shop":"supermarket","other":{"fhrs:id":"1089017","website":"https:\/\/finder.coop.co.uk\/food\/store\/FY4-5AP\/highfield-gardens","operator":"The Co-operative Group","addr:city":"Blackpool","addr:street":"Highfield Gardens","addr:postcode":"FY4 5AP"}}, "geometry":{"type":"MultiPolygon","coordinates":[[[[-3.02291,53.78941],[-3.02298,53.78956],[-3.02299,53.78959],[-3.02253,53.78967],[-3.02245,53.78948],[-3.02291,53.78941]]]]}},
{ "type":"Feature","properties":{"osm_way_id":"882364864","name":"Lidl","building":"retail","shop":"supermarket","other":{"addr:city":"Blackpool","addr:housenumber":"127","addr:postcode":"FY3 8AX","addr:street":"Devonshire Road","brand":"Lidl","brand:wikidata":"Q151954","building:levels":"1","fhrs:id":"643460","opening_hours":"Mo-Sa 08:00-22:00; Su 10:00-16:00"}}, "geometry":{"type":"MultiPolygon","coordinates":[[[[-3.03876,53.82326],[-3.03884,53.82355],[-3.03801,53.82362],[-3.03797,53.82343],[-3.03788,53.82344],[-3.03785,53.82334],[-3.03876,53.82326]]]]}},
{ "type":"Feature","properties":{"osm_way_id":"998203981","name":"Lidl","building":"yes","shop":"supermarket","other":{"brand":"Lidl","brand:wikidata":"Q151954","brand:wikipedia":"en:Lidl"}}, "geometry":{"type":"MultiPolygon","coordinates":[[[[-3.04234,53.80495],[-3.04164,53.805],[-3.04166,53.80506],[-3.04147,53.80507],[-3.04146,53.80502],[-3.04145,53.80502],[-3.04139,53.80474],[-3.04167,53.80472],[-3.04167,53.80476],[-3.0423,53.80472],[-3.04234,53.80495]]]]}}
]
}
