{
"type": "FeatureCollection",
"features": [
{ "type":"Feature","properties":{"osm_id":"246116024","name":"Tesco","other":{"addr:city":"London","addr:housename":"South Clapham Hospital","addr:housenumber":"128","addr:postcode":"SW4 9DF","addr:street":"Clapham Common South Side","alt_name":"Tesco Clapham Superstore","brand":"Tesco","brand:wikidata":"Q487494","brand:wikipedia":"en:Tesco","contact:website":"https:\/\/www.tesco.com\/store-locator\/london\/128-clapham-common-south-side","fhrs:id":"483345","opening_hours":"Mo-Sa 08:00-22:00; Su 10:00-16:00","shop":"supermarket","source:addr":"FHRS Open Data","wheelchair":"yes"}}, "geometry":{"type":"Point","coordinates":[-0.14654,51.453 ]}},
{ "type":"Feature","properties":{"osm_id":"317182593","name":"Tesco Express","other":{"addr:city":"London","addr:housenumber":"1-5","addr:interpolation":"odd","addr:postcode":"SE21 8SZ","addr:street":"Croxted Road","brand":"Tesco Express","brand:wikidata":"Q98456772","contact:website":"https:\/\/www.tesco.com\/store-locator\/london\/1-5-croxted-rd","fhrs:id":"946746","name:fa":"تسکو اکسپرس","shop":"supermarket"}}, "geometry":{"type":"Point","coordinates":[-0.09072,51.43618 ]}},
{ "type":"Feature","properties":{"osm_id":"429254441","name":"Sainsbury's Local","other":{"brand":"Sainsbury's Local","brand:wikidata":"Q13218434","operator":"Sainsburys","shop":"supermarket"}}, "geometry":{"type":"Point","coordinates":[-0.10398,51.43408 ]}},
{ "type":"Feature","properties":{"osm_id":"429254603","name":"Tesco Express","other":{"addr:housenumber":"551","addr:postcode":"SE27 9DL","addr:street":"Norwood Road","brand":"Tesco Express","brand:wikidata":"Q98456772","contact:website":"https:\/\/www.tesco.com\/store-locator\/london\/551-norwood-rd","fhrs:id":"483349","name:fa":"تسکو اکسپرس","opening_hours":"Mo-Su 06:00-23:00","operator":"Tesco","shop":"supermarket"}}, "geometry":{"type":"Point","coordinates":[-0.10324,51.43384 ]}},
{ "type":"Feature","properties":{"osm_id":"506326945","name":"Spar","other":{"addr:housenumber":"131","addr:postcode":"SE1 7HR","addr:street":"Westminster Bridge Road","brand":"Spar","brand:wikidata":"Q610492","brand:wikipedia":"en:Spar (retailer)","fhrs:authority":"Lambeth","fhrs:id":"484705","fhrs:inspectiondate":"2013-10-31","fhrs:rating":"4","name:fa":"اسپار","shop":"supermarket","wheelchair":"yes"}}, "geometry":{"type":"Point","coordinates":[-0.11382,51.49933 ]}},
{ "type":"Feature","properties":{"osm_id":"587754776","name":"Greensmiths","other":{"addr:city":"London","addr:housenumber":"27","addr:postcode":"SE1 7RG","addr:street":"Lower Marsh","contact:twitter":"https:\/\/twitter.com\/greensmithsfood","fhrs:id":"484290","phone":"+44 20 7921 2970","shop":"supermarket","source:addr":"FHRS Open Data","website":"http:\/\/greensmithsfood.co.uk\/","wheelchair":"limited"}}, "geometry":{"type":"Point","coordinates":[-0.11234,51.50089 ]}},
{ "type":"Feature","properties":{"osm_id":"1169783092","name":"Costcutter","other":{"addr:housenumber":"63-69","addr:postcode":"SW2 4PB","addr:street":"Sternhold Avenue","opening_hours":"24\/7","shop":"supermarket"}}, "geometry":{"type":"Point","coordinates":[-0.12988,51.43913 ]}},
{ "type":"Feature","properties":{"osm_id":"1716477488","name":"Westbury","other":{"addr:housenumber":"90-92","addr:postcode":"SW16 1BS","addr:street":"Streatham High Road","alt_name":"Westbury Food & Wine","fhrs:authority":"Lambeth","fhrs:id":"483368","fhrs:inspectiondate":"2013-01-08","fhrs:rating":"3","opening_hours":"24\/7","shop":"supermarket"}}, "geometry":{"type":"Point","coordinates":[-0.12837,51.43514 ]}},
{ "type":"Feature","properties":{"osm_id":"1731473135","name":"Nisa","other":{"addr:city":"London","addr:housenumber":"104-106","addr:postcode":"SW2 1AH","addr:street":"Brixton Hill","fhrs:authority":"Lambeth","fhrs:id":"483177","fhrs:inspectiondate":"2013-03-11","fhrs:rating":"4","shop":"supermarket","website":"http:\/\/nisalocally.com\/"}}, "geometry":{"type":"Point","coordinates":[-0.12009,51.45438 ]}},
{ "type":"Feature","properties":{"osm_id":"1887555582","name":"Lidl","other":{"addr:housenumber":"222-224","addr:postcode":"SW16 1BB","addr:street":"Streatham High Road","brand":"Lidl","brand:wikidata":"Q151954","fhrs:authority":"Lambeth","fhrs:id":"483334","fhrs:inspectiondate":"2009-03-11","fhrs:rating":"5","name:fa":"لیدل","opening_hours":"Mo-Sa 08:00-10:00; Su 11:00-17:00","shop":"supermarket","wheelchair":"yes"}}, "geometry":{"type":"Point","coordinates":[-0.12954,51.431 ]}},
{ "type":"Feature","properties":{"osm_id":"2510680971","name":"Tesco Express","other":{"addr:city":"London","addr:housenumber":"30A","addr:postcode":"SW2 4QY","addr:street":"Streatham Place","brand":"Tesco Express","brand:wikidata":"Q98456772","contact:website":"https:\/\/www.tesco.com\/store-locator\/london\/30-streatham-place","fhrs:id":"1002574","name:fa":"تسکو اکسپرس","operator":"Tesco","shop":"supermarket","source:addr":"FHRS Open Data"}}, "geometry":{"type":"Point","coordinates":[-0.12792,51.4469 ]}},
{ "type":"Feature","properties":{"osm_id":"2672314316","name":"Tesco Express","other":{"addr:housenumber":"118A","addr:postcode":"SW9 6BD","addr:street":"Brixton Road","brand":"Tesco Express","brand:wikidata":"Q98456772","fhrs:authority":"Lambeth","fhrs:id":"483816","fhrs:inspectiondate":"2012-10-15","fhrs:rating":"5","name:fa":"تسکو اکسپرس","shop":"supermarket"}}, "geometry":{"type":"Point","coordinates":[-0.11282,51.47664 ]}},
{ "type":"Feature","properties":{"osm_id":"3749907547","name":"Co-op Food","other":{"brand":"Co-op Food","brand:wikidata":"Q3277439","brand:wikipedia":"en:Co-op Food","operator":"Coop","shop":"supermarket"}}, "geometry":{"type":"Point","coordinates":[-0.13923,51.45479 ]}},
{ "type":"Feature","properties":{"osm_id":"4346355395","name":"Brazilian Centre","other":{"shop":"supermarket"}}, "geometry":{"type":"Point","coordinates":[-0.12386,51.47141 ]}},
{ "type":"Feature","properties":{"osm_id":"4346373064","name":"Iceland","other":{"brand":"Iceland","brand:wikidata":"Q721810","name:fa":"ایسلند","shop":"supermarket"}}, "geometry":{"type":"Point","coordinates":[-0.12479,51.4706 ]}},
{ "type":"Feature","properties":{"osm_id":"4928975298","name":"Brixton Food & WIne","other":{"shop":"supermarket"}}, "geometry":{"type":"Point","coordinates":[-0.11312,51.45438 ]}},
{ "type":"Feature","properties":{"osm_id":"5052266454","name":"Phambra Food Store","other":{"phone":"+44 20 8674 2482","shop":"supermarket"}}, "geometry":{"type":"Point","coordinates":[-0.12657,51.45037 ]}},
{ "type":"Feature","properties":{"osm_id":"5418562421","name":"AP Food Express","other":{"shop":"supermarket"}}, "geometry":{"type":"Point","coordinates":[-0.11786,51.50092 ]}},
{ "type":"Feature","properties":{"osm_id":"5982044086","name":"Sainsbury's","other":{"addr:city":"London","addr:housenumber":"107","addr:postcode":"SE1 7HR","addr:street":"Westminster Bridge Road","brand":"Sainsbury's","brand:wikidata":"Q152096","brand:wikipedia":"en:Sainsbury's","fhrs:id":"988828","shop":"supermarket","source:addr":"FHRS Open Data","website":"https:\/\/stores.sainsburys.co.uk\/6213\/lambeth-north-station-local"}}, "geometry":{"type":"Point","coordinates":[-0.11317,51.49906 ]}},
{ "type":"Feature","properties":{"osm_id":"6429327324","name":"M&S Foodhall","other":{"brand":"M&S Foodhall","brand:wikidata":"Q714491","brand:wikipedia":"en:Marks & Spencer","shop":"supermarket"}}, "geometry":{"type":"Point","coordinates":[-0.11613,51.50309 ]}},
{ "type":"Feature","properties":{"osm_id":"7401798496","name":"Mieszko","other":{"addr:city":"London","addr:housename":"15-17","addr:postcode":"SW16 1DS","addr:street":"Streatham High Road","opening_hours":"Mo-Sa 08:00-22:00; Su 09:00-21:00","shop":"supermarket"}}, "geometry":{"type":"Point","coordinates":[-0.1276,51.43645 ]}},
{ "type":"Feature","properties":{"osm_id":"7947493943","name":"M&S","other":{"brand":"Marks & Spencer","brand:wikidata":"Q714491","shop":"supermarket"}}, "geometry":{"type":"Point","coordinates":[-0.13167,51.42603 ]}},
{ "type":"Feature","properties":{"osm_id":"7947493944","name":"Aldi","other":{"brand":"ALDI","brand:wikidata":"Q41171672","brand:wikipedia":"en:Aldi","shop":"supermarket"}}, "geometry":{"type":"Point","coordinates":[-0.13189,51.42593 ]}},
{ "type":"Feature","properties":{"osm_id":"9533980490","name":"Tesco Extra","other":{"addr:housenumber":"384","addr:postcode":"SW16 6HP","addr:street":"Streatham High Road","alt_name":"Tesco Streatham Extra","brand":"Tesco Extra","brand:wikidata":"Q25172225","brand:wikipedia":"en:Tesco Extra","layer":"1","name:fa":"تسکو اکسترا","shop":"supermarket","toilets:wheelchair":"yes","wheelchair":"yes"}}, "geometry":{"type":"Point","coordinates":[-0.13162,51.42491 ]}},
{ "type":"Feature","properties":{"osm_way_id":"4945244","name":"Sainsbury's","building":"retail","shop":"supermarket","other":{"addr:housenumber":"480-496","addr:postcode":"SW16 3PY","addr:street":"Streatham High Road","alt_name":"Sainsbury's Streatham Common Superstore","brand":"Sainsbury's","brand:wikidata":"Q152096","designation":"Streatham Common Superstore","fhrs:authority":"Lambeth","fhrs:id":"484534","fhrs:inspectiondate":"2011-01-08","fhrs:rating":"5"}}, "geometry":{"type":"MultiPolygon","coordinates":[[[[-0.12961,51.41924],[-0.12958,51.41925],[-0.13001,51.41957],[-0.12958,51.4198],[-0.12903,51.42004],[-0.12911,51.42014],[-0.12921,51.42028],[-0.12918,51.42029],[-0.12905,51.42036],[-0.12888,51.42023],[-0.12894,51.42021],[-0.12886,51.42014],[-0.12873,51.4202],[-0.12865,51.42014],[-0.12855,51.42006],[-0.12868,51.41999],[-0.12869,51.41999],[-0.12866,51.41997],[-0.12856,51.41989],[-0.12848,51.41983],[-0.12869,51.41972],[-0.12859,51.41964],[-0.12896,51.41945],[-0.12894,51.41943],[-0.12911,51.41934],[-0.12913,51.41936],[-0.12917,51.41934],[-0.12914,51.41931],[-0.12908,51.41925],[-0.12951,51.41908],[-0.1295,51.41907],[-0.1297,51.41901],[-0.12976,51.41908],[-0.1295,51.41916],[-0.12954,51.41919],[-0.12955,51.41919],[-0.12961,51.41924]]]]}},
{ "type":"Feature","properties":{"osm_way_id":"4976041","name":"Tesco","building":"yes","shop":"supermarket","other":{"addr:city":"London","addr:housenumber":"13","addr:postcode":"SW2 5RS","addr:street":"Acre Lane","branch":"Brixton Superstore","brand":"Tesco","brand:wikidata":"Q487494","brand:wikipedia":"en:Tesco","fhrs:authority":"Lambeth","fhrs:id":"482932","fhrs:inspectiondate":"2011-05-09","fhrs:rating":"3","name:fa":"تسکو","opening_hours":"Mo-Sa 06:00-23:00; Su 11:00-17:00","postal_code":"SW2 5RS","wheelchair":"yes"}}, "geometry":{"type":"MultiPolygon","coordinates":[[[[-0.12037,51.45992],[-0.12014,51.45953],[-0.11971,51.45963],[-0.11965,51.45954],[-0.11896,51.45971],[-0.11923,51.46018],[-0.12037,51.45992]]]]}},
{ "type":"Feature","properties":{"osm_way_id":"23081461","name":"Sainsbury's","building":"yes","shop":"supermarket","other":{"addr:city":"London","addr:housenumber":"133","addr:postcode":"SW4 7SL","addr:street":"Clapham High Street","branch":"Clapham Common Superstore","brand":"Sainsbury's","brand:wikidata":"Q152096","brand:wikipedia":"en:Sainsbury's","fhrs:authority":"Lambeth","fhrs:id":"483957","fhrs:inspectiondate":"2012-03-26","fhrs:rating":"5","opening_hours":"Mo-Sa 07:00-23:00; Su 11:00-17:00"}}, "geometry":{"type":"MultiPolygon","coordinates":[[[[-0.13575,51.46247],[-0.13566,51.46237],[-0.1356,51.46239],[-0.13551,51.46229],[-0.13556,51.46228],[-0.13545,51.46213],[-0.1354,51.46215],[-0.13533,51.46205],[-0.13524,51.46208],[-0.13517,51.46201],[-0.13537,51.46195],[-0.13531,51.46187],[-0.13597,51.46167],[-0.13606,51.4618],[-0.13611,51.46179],[-0.13615,51.46184],[-0.13625,51.46182],[-0.13633,51.46192],[-0.13658,51.46185],[-0.13669,51.46194],[-0.13613,51.46209],[-0.13615,51.46213],[-0.13599,51.46218],[-0.13602,51.46221],[-0.13609,51.46228],[-0.13609,51.46229],[-0.13614,51.46235],[-0.13575,51.46247]]]]}},
{ "type":"Feature","properties":{"osm_way_id":"25116657","name":"Sainsbury's","building":"commercial","shop":"supermarket","other":{"addr:city":"London","addr:housenumber":"2","addr:postcode":"SW2 2TP","addr:street":"Tulse Hill","branch":"Brixton Superstore","brand":"Sainsbury's","brand:wikidata":"Q152096","brand:wikipedia":"en:Sainsbury's","fhrs:authority":"Lambeth","fhrs:id":"665343","fhrs:inspectiondate":"2014-05-15","fhrs:rating":"5","opening_hours":"Mo-Sa 07:00-23:00; Su 11:00-17:00"}}, "geometry":{"type":"MultiPolygon","coordinates":[[[[-0.11427,51.45495],[-0.11377,51.45506],[-0.11355,51.45462],[-0.11405,51.45452],[-0.11427,51.45495]]]]}},
{ "type":"Feature","properties":{"osm_way_id":"30119850","name":"Tesco","building":"retail","shop":"supermarket","other":{"addr:city":"London","addr:country":"GB","addr:postcode":"SE11 5QU","addr:street":"Kennington Lane","alt_name":"Tesco Kennington Superstore","atm":"yes","brand":"Tesco","brand:wikidata":"Q487494","brand:wikipedia":"en:Tesco","demolished":"building","fhrs:authority":"Lambeth","fhrs:id":"484167","fhrs:inspectiondate":"2013-12-12","fhrs:rating":"4","name:fa":"تسکو","opening_hours":"Mo-Th 08:00-22:00; Fr-Sa 07:30-22:00; Su 10:00-16:00","operator":"Tesco","wheelchair":"yes"}}, "geometry":{"type":"MultiPolygon","coordinates":[[[[-0.11378,51.48658],[-0.11373,51.48619],[-0.11416,51.48617],[-0.11417,51.48626],[-0.1142,51.48647],[-0.11421,51.48655],[-0.11378,51.48658]]]]}},
{ "type":"Feature","properties":{"osm_way_id":"168241816","name":"Tesco Express","building":"yes","shop":"supermarket","other":{"addr:housenumber":"4","addr:postcode":"SW16 3JG","addr:street":"Crown Lane","brand":"Tesco Express","brand:wikidata":"Q98456772","fhrs:authority":"Lambeth","fhrs:id":"517199","fhrs:inspectiondate":"2013-02-20","fhrs:rating":"5","name:fa":"تسکو اکسپرس","opening_hours":"Mo-Su 08:00-22:00","phone":"+44 345 675 6853","source:addr:postcode":"FSA Food Hygiene Ratings Database","website":"https:\/\/www.tesco.com\/store-locator\/london\/4-crown-ln"}}, "geometry":{"type":"MultiPolygon","coordinates":[[[[-0.10683,51.423],[-0.10688,51.42283],[-0.10662,51.42279],[-0.1066,51.42287],[-0.10662,51.42292],[-0.1066,51.42297],[-0.10683,51.423]]]]}},
{ "type":"Feature","properties":{"osm_way_id":"189209053","name":"Iceland","building":"yes","shop":"supermarket","other":{"addr:housenumber":"19-21","addr:postcode":"SE19 1TQ","addr:street":"Westow Hill","alt_name":"Iceland Crystal Palace","brand":"Iceland","brand:wikidata":"Q721810"}}, "geometry":{"type":"MultiPolygon","coordinates":[[[[-0.0822,51.41985],[-0.0822,51.41999],[-0.08193,51.41998],[-0.08194,51.41984],[-0.0822,51.41985]]]]}},
{ "type":"Feature","properties":{"osm_way_id":"300037227","name":"Lidl","building":"retail","shop":"supermarket","other":{"addr:city":"London","addr:country":"GB","addr:housenumber":"189","addr:postcode":"SW9 0QE","addr:street":"Clapham Road","brand":"Lidl","brand:wikidata":"Q151954","fhrs:id":"830139","name:fa":"لیدل"}}, "geometry":{"type":"MultiPolygon","coordinates":[[[[-0.12073,51.47348],[-0.12017,51.47325],[-0.12002,51.47339],[-0.12058,51.47362],[-0.12073,51.47348]]]]}},
{ "type":"Feature","properties":{"osm_way_id":"300815350","name":"Lidl","building":"yes","shop":"supermarket","other":{"addr:city":"London","addr:country":"GB","addr:housenumber":"71-73","addr:postcode":"SW2 5TN","addr:street":"Acre Lane","branch":"Brixton","brand":"Lidl","brand:wikidata":"Q151954","fhrs:id":"483068","name:fa":"لیدل","opening_hours":"Mo-Sa 08:00-22:00; Su 10:00-16:00"}}, "geometry":{"type":"MultiPolygon","coordinates":[[[[-0.12412,51.45944],[-0.12405,51.45907],[-0.12402,51.45901],[-0.12387,51.45903],[-0.12388,51.45908],[-0.12366,51.45911],[-0.12374,51.45947],[-0.12412,51.45944]]]]}},
{ "type":"Feature","properties":{"osm_way_id":"322427541","name":"West Norword Co-op","building":"retail","shop":"supermarket","other":{"addr:housenumber":"539-541","addr:postcode":"SE27 9DL","addr:street":"Norwood Road","brand":"Co-op","fhrs:id":"981607","operator":"The Co-operative Group"}}, "geometry":{"type":"MultiPolygon","coordinates":[[[[-0.10368,51.43428],[-0.10371,51.43438],[-0.10327,51.43443],[-0.10324,51.43433],[-0.10368,51.43428]]]]}},
{ "type":"Feature","properties":{"osm_way_id":"492847908","name":"Sainsbury's","building":"yes","shop":"supermarket","other":{"brand":"Sainsbury's","brand:wikidata":"Q152096","brand:wikipedia":"en:Sainsbury's","opening_hours":"Mo-Sa 07:00-23:00, Su 11:00-17:00","wheelchair":"yes"}}, "geometry":{"type":"MultiPolygon","coordinates":[[[[-0.1279,51.48118],[-0.12803,51.48119],[-0.12838,51.48038],[-0.12833,51.48037],[-0.12836,51.4803],[-0.12826,51.48028],[-0.1279,51.48118]]]]}},
{ "type":"Feature","properties":{"osm_way_id":"843913435","name":"Co-op Food","building":"yes","shop":"supermarket","other":{"addr:city":"London","addr:housenumber":"178","addr:postcode":"SE27 9AU","addr:street":"Norwood Road","brand":"Co-op Food","brand:wikidata":"Q3277439","brand:wikipedia":"en:Co-op Food","building:levels":"1","layer":"0","operator":"The Co-operative Group","operator:wikidata":"Q117202","operator:wikipedia":"en:The Co-operative Group","website":"https:\/\/finder.coop.co.uk\/food\/store\/SE27-9AU\/178-norwood-road"}}, "geometry":{"type":"MultiPolygon","coordinates":[[[[-0.10696,51.44006],[-0.1066,51.44003],[-0.10654,51.44002],[-0.10652,51.44002],[-0.10643,51.44001],[-0.10641,51.44001],[-0.10643,51.4399],[-0.10644,51.43988],[-0.10654,51.43989],[-0.10664,51.4399],[-0.10669,51.43991],[-0.1067,51.43991],[-0.10697,51.43992],[-0.10696,51.43996],[-0.10698,51.43996],[-0.10696,51.44006]]]]}}
]
}
