{
"type": "FeatureCollection",
"features": [
{ "type":"Feature","properties":{"osm_id":"270551054","name":"Tesco","other":{"brand":"Tesco","brand:wikidata":"Q487494","brand:wikipedia":"en:Tesco","contact:website":"https:\/\/www.tesco.com\/store-locator\/aldershot\/5-wellington-ave","operator":"Tesco","shop":"supermarket","toilets":"yes","toilets:wheelchair":"yes","wheelchair":"yes"}}, "geometry":{"type":"Point","coordinates":[-0.77519,51.25112 ]}},
{ "type":"Feature","properties":{"osm_id":"444517770","name":"Co-op Food","other":{"brand":"Co-op Food","brand:wikidata":"Q3277439","brand:wikipedia":"en:Co-op Food","shop":"supermarket"}}, "geometry":{"type":"Point","coordinates":[-0.76264,51.24811 ]}},
{ "type":"Feature","properties":{"osm_id":"763208781","name":"Iceland","other":{"brand":"Iceland","brand:wikidata":"Q721810","shop":"supermarket","wheelchair":"yes"}}, "geometry":{"type":"Point","coordinates":[-0.75525,51.29053 ]}},
{ "type":"Feature","properties":{"osm_id":"955903642","name":"Today Extra","other":{"addr:city":"Farnborough","addr:country":"GB","addr:housenumber":"84","addr:postcode":"GU14 6JR","addr:street":"Queens Road","fhrs:id":"1107172","opening_hours":"Mo-Su 07:00-22:00","shop":"supermarket"}}, "geometry":{"type":"Point","coordinates":[-0.74494,51.27719 ]}},
{ "type":"Feature","properties":{"osm_id":"2023202898","other":{"amenity":"parking_entrance"}}, "geometry":{"type":"Point","coordinates":[-0.76977,51.25021 ]}},
{ "type":"Feature","properties":{"osm_id":"4711591152","name":"Worldwide Food Centre","other":{"addr:city":"Aldershot","addr:housenumber":"6-8","addr:postcode":"GU11 1HT","addr:street":"Station Road","description":"Food store with a very good selection of regional foods from all over the world","fhrs:id":"1042606","phone":"+44 1252 311533","shop":"supermarket"}}, "geometry":{"type":"Point","coordinates":[-0.76126,51.24735 ]}},
{ "type":"Feature","properties":{"osm_id":"9217210469","name":"Lidl","other":{"addr:country":"GB","addr:housenumber":"5","addr:place":"Wellington Centre","addr:postcode":"GU11 1DB","brand":"Lidl","brand:wikidata":"Q151954","brand:wikipedia":"en:Lidl","fhrs:id":"34821","shop":"supermarket","survey:date":"2019-11-19"}}, "geometry":{"type":"Point","coordinates":[-0.76579,51.24869 ]}},
{ "type":"Feature","properties":{"osm_way_id":"50160018","name":"Asda","shop":"supermarket","other":{"addr:country":"GB","addr:postcode":"GU14 7LT","addr:street":"Westmead","addr:town":"Farnborough","brand":"Asda","brand:wikidata":"Q297410","brand:wikipedia":"en:Asda","contact:facebook":"https:\/\/www.facebook.com\/asda\/","contact:twitter":"@asda","contact:website":"https:\/\/storelocator.asda.com\/south-east\/farnborough\/west-meade","fhrs:id":"12755","opening_hours":"Mo-Sa 00:00-24:00; Su off","operator":"Asda Stores Ltd","toilets:wheelchair":"yes","wheelchair":"yes"}}, "geometry":{"type":"MultiPolygon","coordinates":[[[[-0.75814,51.29054],[-0.7569,51.29067],[-0.75704,51.29112],[-0.75678,51.29115],[-0.7569,51.29154],[-0.75771,51.29145],[-0.75824,51.29139],[-0.75822,51.29129],[-0.75834,51.29127],[-0.75824,51.29088],[-0.75814,51.29054]]]]}},
{ "type":"Feature","properties":{"osm_way_id":"69972585","name":"Morrisons","building":"supermarket","shop":"supermarket","other":{"addr:postcode":"GU14 0NA","alt_name":"Morrisons Southwood","brand":"Morrisons","brand:wikidata":"Q922344","brand:wikipedia":"en:Morrisons","operator":"Morrisons","toilets:wheelchair":"yes","website":"https:\/\/my.morrisons.com\/storefinder\/351"}}, "geometry":{"type":"MultiPolygon","coordinates":[[[[-0.7883,51.29215],[-0.7883,51.29208],[-0.78832,51.29156],[-0.78816,51.29145],[-0.78752,51.29145],[-0.78743,51.29152],[-0.78742,51.29195],[-0.78761,51.29195],[-0.78764,51.29214],[-0.7883,51.29215]]]]}},
{ "type":"Feature","properties":{"osm_way_id":"191501903","name":"Morrisons","building":"yes","shop":"supermarket","other":{"addr:city":"Aldershot","addr:housenumber":"5","addr:place":"Westgate","addr:postcode":"GU11 1WG","brand":"Morrisons","brand:wikidata":"Q922344","brand:wikipedia":"en:Morrisons","fhrs:id":"482120","toilets:wheelchair":"yes","wheelchair":"yes"}}, "geometry":{"type":"MultiPolygon","coordinates":[[[[-0.76993,51.25037],[-0.77032,51.25041],[-0.77026,51.25062],[-0.77019,51.25084],[-0.77032,51.25086],[-0.77068,51.25068],[-0.77101,51.25051],[-0.77103,51.25043],[-0.7711,51.25044],[-0.77121,51.25003],[-0.77109,51.25001],[-0.77113,51.24989],[-0.77101,51.24987],[-0.77103,51.24981],[-0.77094,51.24975],[-0.77062,51.24971],[-0.77065,51.24961],[-0.77042,51.24958],[-0.77002,51.24954],[-0.76988,51.24952],[-0.76976,51.24996],[-0.76969,51.2502],[-0.76977,51.25021],[-0.76983,51.25021],[-0.7698,51.25029],[-0.76994,51.25031],[-0.76993,51.25037]]]]}},
{ "type":"Feature","properties":{"osm_way_id":"344211915","name":"Sainsbury's","building":"commercial","shop":"supermarket","other":{"brand:wikidata":"Q152096","operator":"Sainsburys","toilets:wheelchair":"yes","wheelchair":"yes"}}, "geometry":{"type":"MultiPolygon","coordinates":[[[[-0.75579,51.29335],[-0.75585,51.29334],[-0.75588,51.29336],[-0.75669,51.29327],[-0.75666,51.29318],[-0.7566,51.29318],[-0.75653,51.29295],[-0.75666,51.29293],[-0.75653,51.29248],[-0.75565,51.29258],[-0.75561,51.29259],[-0.75563,51.29265],[-0.75565,51.29265],[-0.75565,51.29268],[-0.75584,51.29329],[-0.75578,51.2933],[-0.75579,51.29335]]]]}},
{ "type":"Feature","properties":{"osm_way_id":"823089516","name":"Co-op Food","building":"retail","shop":"supermarket","other":{"addr:city":"Aldershot","addr:housenumber":"264","addr:postcode":"GU12 4TJ","addr:street":"North Lane","brand":"Co-op Food","brand:wikidata":"Q3277439","brand:wikipedia":"en:Co-op Food","building:levels":"2","fhrs:id":"767532","opening_hours":"PH,Mo-Su 07:00-23:00","roof:levels":"0","roof:shape":"hipped","source:addr":"fhrs opendata","was:amenity":"pub","was:name":"Heroes of Lucknow","wheelchair":"yes"}}, "geometry":{"type":"MultiPolygon","coordinates":[[[[-0.7427,51.25123],[-0.7427,51.2511],[-0.74253,51.2511],[-0.74253,51.25111],[-0.74246,51.25111],[-0.74246,51.25118],[-0.74254,51.25118],[-0.74254,51.25122],[-0.74241,51.25122],[-0.74241,51.25125],[-0.74244,51.25125],[-0.74244,51.25127],[-0.74254,51.25127],[-0.74254,51.25126],[-0.7426,51.25126],[-0.7426,51.25123],[-0.7427,51.25123]]]]}}
]
}
