{
"type": "FeatureCollection",
"features": [
{ "type":"Feature","properties":{"osm_id":"2458613938","name":"Tesco","other":{"addr:street":"Sewardstone Road","brand":"Tesco","brand:wikidata":"Q487494","brand:wikipedia":"en:Tesco","contact:website":"https:\/\/www.tesco.com\/store-locator\/waltham-abbey\/sewardstone-rd","operator":"Tesco Stores Ltd","shop":"supermarket"}}, "geometry":{"type":"Point","coordinates":[0.00255,51.68478 ]}},
{ "type":"Feature","properties":{"osm_id":"2892073547","name":"Lidl","other":{"addr:country":"GB","addr:housenumber":"118-126","addr:postcode":"EN9 1JD","addr:street":"Cartersfield Road","brand":"Lidl","brand:wikidata":"Q151954","brand:wikipedia":"en:Lidl","fhrs:id":"1030248","operator":"Lidl","shop":"supermarket"}}, "geometry":{"type":"Point","coordinates":[0.00088,51.68325 ]}},
{ "type":"Feature","properties":{"osm_id":"4299971820","name":"M&S Foodhall","other":{"brand":"M&S Foodhall","brand:wikidata":"Q714491","brand:wikipedia":"en:Marks & Spencer","shop":"supermarket"}}, "geometry":{"type":"Point","coordinates":[0.11198,51.69988 ]}},
{ "type":"Feature","properties":{"osm_id":"4736268882","name":"Co-op Food","other":{"addr:city":"Waltham Abbey","addr:housenumber":"7-9","addr:postcode":"EN9 1ER","addr:street":"Sun Street","brand":"Co-op Food","brand:wikidata":"Q3277439","brand:wikipedia":"en:Co-op Food","opening_hours":"7am to 10pm","operator":"Co-operative Group Limited","shop":"supermarket"}}, "geometry":{"type":"Point","coordinates":[-0.00195,51.68667 ]}},
{ "type":"Feature","properties":{"osm_id":"5793363648","name":"Co-Op","other":{"shop":"supermarket","operator":"Co-Op"}}, "geometry":{"type":"Point","coordinates":[0.03089,51.68938 ]}},
{ "type":"Feature","properties":{"osm_way_id":"23390511","name":"Sainsbury's","building":"supermarket","shop":"supermarket","other":{"brand":"Sainsbury's","brand:wikidata":"Q152096","brand:wikipedia":"en:Sainsbury's"}}, "geometry":{"type":"MultiPolygon","coordinates":[[[[0.24505,51.70489],[0.24489,51.7054],[0.24434,51.70534],[0.24448,51.7049],[0.24475,51.70493],[0.24477,51.70486],[0.24505,51.70489]]]]}},
{ "type":"Feature","properties":{"osm_way_id":"90069883","name":"Sainsbury's","building":"yes","shop":"supermarket","other":{"brand":"Sainsbury's","brand:wikidata":"Q152096"}}, "geometry":{"type":"MultiPolygon","coordinates":[[[[0.08192,51.64658],[0.08152,51.64643],[0.08187,51.64608],[0.08227,51.64624],[0.08225,51.64641],[0.08205,51.6466],[0.08192,51.64658]]]]}},
{ "type":"Feature","properties":{"osm_way_id":"105608385","name":"Sainsbury's","building":"yes","shop":"supermarket","other":{"brand":"Sainsbury's","wheelchair":"yes","brand:wikidata":"Q152096","brand:wikipedia":"en:Sainsbury's"}}, "geometry":{"type":"MultiPolygon","coordinates":[[[[0.05319,51.64342],[0.05323,51.64343],[0.05326,51.64343],[0.0533,51.64342],[0.05331,51.64339],[0.05332,51.64336],[0.05332,51.64334],[0.0533,51.64331],[0.05328,51.64328],[0.05324,51.64326],[0.05321,51.64325],[0.05317,51.64325],[0.05314,51.64328],[0.05312,51.64322],[0.05308,51.64317],[0.05299,51.6431],[0.05285,51.64305],[0.05271,51.64304],[0.05265,51.643],[0.05174,51.64353],[0.05184,51.64361],[0.05187,51.64366],[0.052,51.64375],[0.05223,51.64363],[0.05248,51.64377],[0.05258,51.64372],[0.05245,51.64363],[0.05282,51.64343],[0.05316,51.64339],[0.05319,51.64342]]]]}},
{ "type":"Feature","properties":{"osm_way_id":"172447802","name":"Morrisons","building":"yes","shop":"supermarket","other":{"addr:city":"Loughton","addr:country":"GB","addr:housenumber":"246-250","addr:postcode":"IG10 1HW","addr:street":"High Road","brand":"Morrisons","brand:wikidata":"Q922344","brand:wikipedia":"en:Morrisons","wheelchair":"yes"}}, "geometry":{"type":"MultiPolygon","coordinates":[[[[0.05529,51.64907],[0.05526,51.64912],[0.0555,51.64943],[0.05568,51.64938],[0.05624,51.6492],[0.0562,51.64914],[0.05633,51.6491],[0.05648,51.64905],[0.0565,51.64904],[0.05639,51.64891],[0.05622,51.64896],[0.05603,51.64874],[0.05555,51.64889],[0.05561,51.64897],[0.05529,51.64907]]]]}},
{ "type":"Feature","properties":{"osm_way_id":"184558484","name":"Tesco","building":"retail","shop":"supermarket","other":{"addr:housenumber":"77 - 79","addr:postcode":"CM16 4BA","addr:street":"HIGH STREET","brand":"Tesco","brand:wikidata":"Q487494","brand:wikipedia":"en:Tesco","operator":"Tesco Stores Ltd"}}, "geometry":{"type":"MultiPolygon","coordinates":[[[[0.10866,51.69713],[0.10821,51.69751],[0.10806,51.69767],[0.10798,51.69764],[0.10792,51.69754],[0.10804,51.69742],[0.10793,51.69737],[0.1078,51.69747],[0.10769,51.69743],[0.10779,51.69732],[0.10752,51.69721],[0.10761,51.69712],[0.10778,51.69707],[0.10806,51.69684],[0.10866,51.69713]]]]}},
{ "type":"Feature","properties":{"osm_way_id":"191306926","name":"M&S Foodhall","building":"yes","shop":"supermarket","other":{"brand":"M&S Foodhall","operator":"Marks & Spencer","brand:wikidata":"Q714491","brand:wikipedia":"en:Marks & Spencer"}}, "geometry":{"type":"MultiPolygon","coordinates":[[[[0.05312,51.64439],[0.05284,51.64454],[0.05277,51.64459],[0.05275,51.64463],[0.05273,51.64466],[0.05272,51.64471],[0.05272,51.64476],[0.05273,51.64481],[0.05276,51.64485],[0.0528,51.64489],[0.05288,51.64487],[0.05294,51.64485],[0.05327,51.64468],[0.05328,51.64467],[0.05328,51.64465],[0.05328,51.64463],[0.0533,51.64461],[0.05337,51.64457],[0.05336,51.64456],[0.05334,51.64455],[0.0533,51.64457],[0.05314,51.64445],[0.05318,51.64443],[0.05312,51.64439]]]]}},
{ "type":"Feature","properties":{"osm_way_id":"235168542","name":"Waitrose","building":"retail","shop":"supermarket","other":{"addr:postcode":"IG9 5EP","brand":"Waitrose","brand:wikidata":"Q771734","brand:wikipedia":"en:Waitrose","building:levels":"2","official_name":"Waitrose & Partners","operator":"Waitrose & Partners","roof:levels":"0"}}, "geometry":{"type":"MultiPolygon","coordinates":[[[[0.04456,51.62535],[0.04466,51.62569],[0.04529,51.62563],[0.04527,51.62553],[0.04561,51.62548],[0.04555,51.62529],[0.04548,51.62525],[0.04456,51.62535]]]]}},
{ "type":"Feature","properties":{"osm_way_id":"715176237","name":"M&S Simply Food","building":"yes","shop":"supermarket","other":{"brand":"M&S Simply Food","brand:wikidata":"Q714491"}}, "geometry":{"type":"MultiPolygon","coordinates":[[[[0.08196,51.64676],[0.08206,51.64666],[0.08232,51.64676],[0.0822,51.64686],[0.08217,51.64685],[0.082,51.64678],[0.08196,51.64676]]]]}},
{ "type":"Feature","properties":{"osm_way_id":"717845590","name":"Lidl","building":"retail","shop":"supermarket","other":{"addr:country":"GB","addr:housenumber":"140","addr:postcode":"IG10 1LH","addr:street":"Church Hill","brand":"Lidl","brand:wikidata":"Q151954","brand:wikipedia":"en:Lidl","fhrs:id":"1339335"}}, "geometry":{"type":"MultiPolygon","coordinates":[[[[0.06588,51.65606],[0.06644,51.65583],[0.06613,51.65556],[0.06559,51.65579],[0.06588,51.65606]]]]}},
{ "type":"Feature","properties":{"osm_way_id":"717846043","name":"Sainsbury's Local","building":"yes","shop":"supermarket","other":{"brand:wikidata":"Q13218434"}}, "geometry":{"type":"MultiPolygon","coordinates":[[[[0.0662,51.65505],[0.06607,51.65493],[0.06637,51.65479],[0.0665,51.65491],[0.0662,51.65505]]]]}},
{ "type":"Feature","properties":{"osm_way_id":"797911054","name":"Aldi","shop":"supermarket","other":{"brand":"ALDI","brand:wikidata":"Q41171672","brand:wikipedia":"en:Aldi","indoor":"room","level":"0"}}, "geometry":{"type":"MultiPolygon","coordinates":[[[[0.08608,51.64313],[0.08623,51.64286],[0.08582,51.64274],[0.08586,51.64268],[0.08571,51.64264],[0.08549,51.64299],[0.08608,51.64313]]]]}}
]
}
