{
"type": "FeatureCollection",
"features": [
{ "type":"Feature","properties":{"osm_id":"403310735","name":"Budgens","other":{"addr:city":"Milton Keynes","addr:country":"GB","addr:housenumber":"127","addr:postcode":"MK14 7QB","addr:street":"Downs Barn Boulevard","addr:suburb":"Downs Barn","brand":"Budgens","brand:wikidata":"Q4985016","brand:wikipedia":"en:Budgens","fhrs:authority":"Milton Keynes","fhrs:id":"199218","fhrs:local_authority_id":"63473","shop":"supermarket"}}, "geometry":{"type":"Point","coordinates":[-0.7477,52.05389 ]}},
{ "type":"Feature","properties":{"osm_id":"413277124","name":"The Co-operative Food","other":{"shop":"supermarket","fhrs:id":"199051","operator":"The Co-operative Group","addr:city":"Milton Keynes","addr:street":"Dunthorne Way","addr:suburb":"Grange Farm","addr:country":"GB","addr:postcode":"MK8 0LW","fhrs:authority":"Milton Keynes","addr:housenumber":"130","fhrs:local_authority_id":"71495"}}, "geometry":{"type":"Point","coordinates":[-0.80663,52.02206 ]}},
{ "type":"Feature","properties":{"osm_id":"515936290","name":"Budgens","other":{"shop":"supermarket","brand":"Budgens","fhrs:id":"198784","operator":"Budgens","addr:city":"Milton Keynes","addr:street":"Cofferidge Close","addr:suburb":"Stony Stratford","addr:country":"GB","addr:postcode":"MK11 1BY","brand:wikidata":"Q4985016","fhrs:authority":"Milton Keynes","brand:wikipedia":"en:Budgens","addr:housenumber":"5","fhrs:local_authority_id":"46585"}}, "geometry":{"type":"Point","coordinates":[-0.85224,52.05582 ]}},
{ "type":"Feature","properties":{"osm_id":"587676214","name":"Central Asian Grocery","other":{"shop":"supermarket","addr:city":"Milton Keynes","addr:street":"Alston Drive","addr:suburb":"Bradwell Abbey Industrial Estate","addr:country":"GB","addr:postcode":"MK13 9HG","addr:housename":"Central House"}}, "geometry":{"type":"Point","coordinates":[-0.79295,52.04469 ]}},
{ "type":"Feature","properties":{"osm_id":"598680179","name":"The Co-operative Food","other":{"shop":"supermarket","brand":"The Co-operative Food","fhrs:id":"199198","operator":"The Co-operative Group","addr:city":"Milton Keynes","addr:street":"Farthing Grove","addr:suburb":"Netherfield","addr:country":"GB","addr:postcode":"MK6 4JH","brand:wikidata":"Q3277439","fhrs:authority":"Milton Keynes","brand:wikipedia":"en:Co-op Food","addr:housenumber":"19","fhrs:local_authority_id":"40882"}}, "geometry":{"type":"Point","coordinates":[-0.73435,52.02275 ]}},
{ "type":"Feature","properties":{"osm_id":"2322401421","name":"Tesco Express","other":{"addr:city":"Milton Keynes","addr:country":"GB","addr:housenumber":"20-22","addr:postcode":"MK16 0JR","addr:street":"Elthorne Way","addr:suburb":"Newport Pagnell","brand":"Tesco Express","brand:wikidata":"Q98456772","contact:website":"https:\/\/www.tesco.com\/store-locator\/newport-pagnell\/20-22-elthorne-way","fhrs:id":"199164","shop":"supermarket"}}, "geometry":{"type":"Point","coordinates":[-0.72954,52.07844 ]}},
{ "type":"Feature","properties":{"osm_id":"2612892926","name":"Co-op","other":{"shop":"supermarket","fhrs:id":"199017","website":"http:\/\/www.co-operativefood.co.uk\/","operator":"The Co-operative Group","addr:city":"Woburn Sands","addr:street":"High Street","addr:country":"GB","addr:postcode":"MK17 8RF","opening_hours":"Mo-Su 06:00-23:00","fhrs:authority":"Milton Keynes","addr:housenumber":"25-27","fhrs:local_authority_id":"1019"}}, "geometry":{"type":"Point","coordinates":[-0.6468,52.01133 ]}},
{ "type":"Feature","properties":{"osm_id":"2612904130","name":"Tesco Express","other":{"addr:city":"Woburn Sands","addr:country":"GB","addr:housenumber":"5","addr:postcode":"MK17 8RQ","addr:street":"High Street","brand":"Tesco Express","brand:wikidata":"Q98456772","contact:website":"https:\/\/www.tesco.com\/store-locator\/woburn-sands\/5-high-st","fhrs:id":"375561","opening_hours":"Mo-Su 06:00-23:00","operator":"Tesco","shop":"supermarket"}}, "geometry":{"type":"Point","coordinates":[-0.64635,52.0106 ]}},
{ "type":"Feature","properties":{"osm_id":"2982603563","name":"ALDI","other":{"brand":"ALDI","brand:wikidata":"Q41171672","brand:wikipedia":"en:Aldi","shop":"supermarket"}}, "geometry":{"type":"Point","coordinates":[-0.77748,52.03771 ]}},
{ "type":"Feature","properties":{"osm_id":"3654089897","name":"The Co-operative Food","other":{"shop":"supermarket","operator":"The Co-operative Group","addr:city":"Milton Keynes","addr:street":"Church Street","addr:suburb":"Wolverton","addr:country":"GB","addr:postcode":"MK12 5LG"}}, "geometry":{"type":"Point","coordinates":[-0.81026,52.06206 ]}},
{ "type":"Feature","properties":{"osm_id":"4054241989","name":"Stratford Park Stores","other":{"addr:city":"Milton Keynes","addr:country":"GB","addr:housenumber":"1a-1b","addr:postcode":"MK12 5QA","addr:street":"Syward Row","addr:suburb":"Wolverton","fhrs:authority":"Milton Keynes","fhrs:id":"808647","fhrs:local_authority_id":"86469","shop":"supermarket"}}, "geometry":{"type":"Point","coordinates":[-0.82515,52.05812 ]}},
{ "type":"Feature","properties":{"osm_id":"4866257924","name":"Nasz Sklep","other":{"shop":"supermarket","fhrs:id":"485428","name:en":"Nasz Sklep","addr:city":"Milton Keynes","addr:street":"Buckingham Street","addr:suburb":"Wolverton","addr:country":"GB","addr:postcode":"MK12 5JA","fhrs:authority":"Milton Keynes","addr:housenumber":"25","fhrs:local_authority_id":"49711"}}, "geometry":{"type":"Point","coordinates":[-0.80979,52.06146 ]}},
{ "type":"Feature","properties":{"osm_id":"4866277724","name":"Wolverton Supermarket","other":{"shop":"supermarket","fhrs:id":"198707","name:en":"Wolverton Supermarket","addr:city":"Milton Keynes","addr:street":"Glyn Square","addr:suburb":"Wolverton","addr:country":"GB","addr:postcode":"MK12 5JQ","fhrs:authority":"Milton Keynes","addr:housenumber":"3","fhrs:local_authority_id":"76901"}}, "geometry":{"type":"Point","coordinates":[-0.80732,52.06315 ]}},
{ "type":"Feature","properties":{"osm_id":"4866277927","name":"Asda","other":{"shop":"supermarket","brand":"Asda","fhrs:id":"199290","operator":"Asda Stores Ltd","addr:city":"Milton Keynes","addr:street":"Glyn Square","addr:suburb":"Wolverton","addr:country":"GB","addr:postcode":"MK12 5JQ","brand:wikidata":"Q297410","brand:wikipedia":"en:Asda","contact:twitter":"@asda","contact:website":"https:\/\/storelocator.asda.com\/south-east\/wolverton\/1\/2-glyn-square-creed-street","addr:housenumber":"1-2","contact:facebook":"https:\/\/www.facebook.com\/asda\/"}}, "geometry":{"type":"Point","coordinates":[-0.8074,52.06328 ]}},
{ "type":"Feature","properties":{"osm_id":"6139518593","name":"Hoo Hing","other":{"addr:city":"Milton Keynes","addr:country":"GB","addr:housenumber":"1-3","addr:postcode":"MK1 1JA","addr:street":"Ward Road","addr:suburb":"Bletchley","fhrs:authority":"Milton Keynes","fhrs:id":"199010","fhrs:local_authority_id":"79491","shop":"supermarket"}}, "geometry":{"type":"Point","coordinates":[-0.71951,52.00635 ]}},
{ "type":"Feature","properties":{"osm_id":"6139727885","name":"Waitrose","other":{"addr:city":"Milton Keynes","addr:country":"GB","addr:postcode":"MK16 8DS","addr:street":"Little Linford Lane","addr:suburb":"Newport Pagnell","brand":"Waitrose & Partners","brand:wikidata":"Q771734","brand:wikipedia":"en:Waitrose & Partners","fhrs:authority":"Milton Keynes","fhrs:id":"485488","fhrs:local_authority_id":"82030","shop":"supermarket"}}, "geometry":{"type":"Point","coordinates":[-0.74882,52.08316 ]}},
{ "type":"Feature","properties":{"osm_id":"6139961362","name":"Co-op Food","other":{"addr:city":"Milton Keynes","addr:country":"GB","addr:postcode":"MK10 7DP","addr:street":"Bodmin Place","addr:suburb":"Broughton","brand":"Co-op Food","brand:wikidata":"Q3277439","brand:wikipedia":"en:Co-op Food","fhrs:authority":"Milton Keynes","fhrs:id":"735103","fhrs:local_authority_id":"85409","operator":"The Co-operative Group","operator:wikidata":"Q117202","operator:wikipedia":"en:The Co-operative Group","shop":"supermarket"}}, "geometry":{"type":"Point","coordinates":[-0.68474,52.04352 ]}},
{ "type":"Feature","properties":{"osm_id":"6141004895","name":"Co-op Food","other":{"addr:city":"Milton Keynes","addr:country":"GB","addr:housenumber":"54","addr:postcode":"MK10 9HB","addr:street":"Tanfield Lane","addr:suburb":"Broughton","brand":"Co-op Food","brand:wikidata":"Q3277439","brand:wikipedia":"en:Co-op Food","fhrs:authority":"Milton Keynes","fhrs:id":"199169","fhrs:local_authority_id":"72358","operator":"The Co-operative Group","shop":"supermarket"}}, "geometry":{"type":"Point","coordinates":[-0.69885,52.04759 ]}},
{ "type":"Feature","properties":{"osm_id":"6239390549","name":"The African Cash & Carry","other":{"shop":"supermarket","fhrs:id":"199050","addr:city":"Milton Keynes","addr:street":"North Row","addr:suburb":"Central Milton Keynes","addr:country":"GB","addr:postcode":"MK9 3AP","fhrs:authority":"Milton Keynes","addr:housenumber":"696","fhrs:local_authority_id":"70565"}}, "geometry":{"type":"Point","coordinates":[-0.75823,52.04544 ]}},
{ "type":"Feature","properties":{"osm_id":"6241997158","other":{"amenity":"bicycle_parking","capacity":"6","bicycle_parking":"stands"}}, "geometry":{"type":"Point","coordinates":[-0.68786,52.03626 ]}},
{ "type":"Feature","properties":{"osm_id":"6450793440","name":"Asda","other":{"shop":"supermarket","brand":"Asda","fhrs:id":"808646","operator":"Asda Stores Ltd","addr:city":"Milton Keynes","addr:country":"GB","addr:postcode":"MK3 5QW","brand:wikidata":"Q297410","brand:wikipedia":"en:Asda","contact:twitter":"@asda","contact:website":"https:\/\/storelocator.asda.com\/south-east\/newton-leys-milton-keynes\/islay-court-jersey-drive","contact:facebook":"https:\/\/www.facebook.com\/asda\/"}}, "geometry":{"type":"Point","coordinates":[-0.73207,51.97459 ]}},
{ "type":"Feature","properties":{"osm_id":"8826735017","name":"ALDI","other":{"addr:postcode":"MK14 6GU","addr:street":"Purbeck","brand":"ALDI","brand:wikidata":"Q41171672","brand:wikipedia":"en:Aldi","contact:website":"https:\/\/www.aldi.co.uk\/store\/s-uk-E1207","opening_hours":"Mo-Sa 08:00-22:00; Su 10:00-16:00","shop":"supermarket"}}, "geometry":{"type":"Point","coordinates":[-0.77419,52.06239 ]}},
{ "type":"Feature","properties":{"osm_id":"9452718705","name":"Plantbase","other":{"addr:city":"Milton Keynes","addr:housenumber":"1","addr:postcode":"MK13 8BF","addr:street":"Bradwell Common Boulevard","opening_hours":"Mo-Sa 10:00-21:00; Su 10:00-17:00","operator":"Longdan","organic":"only","phone":"+441908411001","shop":"supermarket"}}, "geometry":{"type":"Point","coordinates":[-0.77608,52.04289 ]}},
{ "type":"Feature","properties":{"osm_way_id":"34672953","name":"Lidl","building":"yes","shop":"supermarket","other":{"brand":"Lidl","fhrs:id":"199120","addr:city":"Milton Keynes","addr:street":"Oldbrook Boulevard","addr:suburb":"Oldbrook","addr:country":"GB","addr:postcode":"MK6 2YA","brand:wikidata":"Q151954","fhrs:authority":"Milton Keynes","brand:wikipedia":"en:Lidl","fhrs:local_authority_id":"43371"}}, "geometry":{"type":"MultiPolygon","coordinates":[[[[-0.76238,52.0303],[-0.76189,52.02989],[-0.7623,52.02973],[-0.76277,52.03015],[-0.76238,52.0303]]]]}},
{ "type":"Feature","properties":{"osm_way_id":"34997921","name":"Sainsbury's","building":"supermarket","shop":"supermarket","other":{"brand":"Sainsbury's","phone":"+44 1908 674154","fhrs:id":"199356","addr:city":"Milton Keynes","wheelchair":"limited","addr:street":"Witan Gate","addr:suburb":"Central Milton Keynes","addr:country":"GB","addr:postcode":"MK9 2FW","brand:wikidata":"Q152096","fhrs:authority":"Milton Keynes","brand:wikipedia":"en:Sainsbury's","addr:housenumber":"799","wheelchair:description":"Items unreacheable without assistance, cafe tables placed v close together, blocks egress. Wheelchair trolleys held at customer service desk, takes up to 20 minutes to sign for them.","fhrs:local_authority_id":"74120"}}, "geometry":{"type":"MultiPolygon","coordinates":[[[[-0.76258,52.0366],[-0.76183,52.03596],[-0.76176,52.0359],[-0.76153,52.0357],[-0.76142,52.03562],[-0.76082,52.03589],[-0.76177,52.03677],[-0.76193,52.03688],[-0.76235,52.0367],[-0.76258,52.0366]]]]}},
{ "type":"Feature","properties":{"osm_way_id":"54568695","name":"Asda","building":"yes","shop":"supermarket","other":{"brand":"Asda","fhrs:id":"198953","alt_name":"ASDA Milton Keynes Supercentre","operator":"Asda Stores Ltd","addr:city":"Milton Keynes","addr:street":"Bletcham Way","addr:suburb":"Bletchley","addr:country":"GB","addr:postcode":"MK1 1QB","brand:wikidata":"Q297410","fhrs:authority":"Milton Keynes","brand:wikipedia":"en:Asda","contact:twitter":"@asda","contact:website":"https:\/\/storelocator.asda.com\/south-east\/milton-keynes\/bletcham-way","contact:facebook":"https:\/\/www.facebook.com\/asda\/","fhrs:local_authority_id":"69620"}}, "geometry":{"type":"MultiPolygon","coordinates":[[[[-0.73129,52.00612],[-0.73209,52.00753],[-0.73073,52.0078],[-0.73052,52.00747],[-0.73022,52.00754],[-0.72988,52.00693],[-0.7302,52.00686],[-0.72993,52.00637],[-0.73129,52.00612]]]]}},
{ "type":"Feature","properties":{"osm_way_id":"85758777","name":"Co-op Food","building":"yes","shop":"supermarket","other":{"addr:city":"Milton Keynes","addr:country":"GB","addr:postcode":"MK6 2LA","addr:street":"Fishermead Boulevard","addr:suburb":"Fishermead","brand":"Co-op Food","brand:wikidata":"Q3277439","brand:wikipedia":"en:Co-op Food","fhrs:authority":"Milton Keynes","fhrs:id":"198699","fhrs:local_authority_id":"35932","operator":"The Co-operative Group","operator:wikidata":"Q117202","operator:wikipedia":"en:The Co-operative Group"}}, "geometry":{"type":"MultiPolygon","coordinates":[[[[-0.74618,52.03662],[-0.7464,52.03653],[-0.7466,52.03671],[-0.74638,52.0368],[-0.74618,52.03662]]]]}},
{ "type":"Feature","properties":{"osm_way_id":"88172098","name":"Aldi","building":"yes","shop":"supermarket","other":{"addr:city":"Milton Keynes","addr:country":"GB","addr:housenumber":"144","addr:postcode":"MK1 1YY","addr:street":"Watling Street","addr:suburb":"Bletchley","brand":"ALDI","brand:wikidata":"Q41171672","brand:wikipedia":"en:Aldi","fhrs:id":"1019025"}}, "geometry":{"type":"MultiPolygon","coordinates":[[[[-0.7282,52.00351],[-0.72797,52.00372],[-0.7272,52.00341],[-0.72743,52.00319],[-0.7282,52.00351]]]]}},
{ "type":"Feature","properties":{"osm_way_id":"88177325","name":"Tesco Extra","building":"yes","shop":"supermarket","other":{"addr:city":"Milton Keynes","addr:country":"GB","addr:postcode":"MK1 1DD","addr:street":"Watling Street","addr:suburb":"Bletchley","alt_name":"Tesco Milton Keynes Bletchley Extra","brand":"Tesco Extra","brand:wikidata":"Q25172225","brand:wikipedia":"en:Tesco Extra","fhrs:authority":"Milton Keynes","fhrs:id":"198976","fhrs:local_authority_id":"15425"}}, "geometry":{"type":"MultiPolygon","coordinates":[[[[-0.72613,52.00116],[-0.72558,52.00107],[-0.7245,52.00091],[-0.7245,52.00083],[-0.72481,52.00085],[-0.72488,52.00054],[-0.72453,52.00045],[-0.72466,52.00032],[-0.72596,52.00045],[-0.72594,52.00056],[-0.72617,52.00058],[-0.72608,52.00089],[-0.72619,52.00091],[-0.72613,52.00116]]]]}},
{ "type":"Feature","properties":{"osm_way_id":"89002515","name":"Tesco Extra","building":"yes","shop":"supermarket","other":{"brand":"Tesco Extra","fhrs:id":"199296","addr:city":"Milton Keynes","addr:street":"Winchester Circle","addr:suburb":"Kingston","addr:country":"GB","addr:postcode":"MK10 0AH","brand:wikidata":"Q25172225","fhrs:authority":"Milton Keynes","brand:wikipedia":"en:Tesco Extra","addr:housenumber":"1","fhrs:local_authority_id":"914"}}, "geometry":{"type":"MultiPolygon","coordinates":[[[[-0.68859,52.03678],[-0.68786,52.03626],[-0.68776,52.03619],[-0.68759,52.03608],[-0.68692,52.03563],[-0.68645,52.03587],[-0.68639,52.03658],[-0.68747,52.03734],[-0.68851,52.03682],[-0.68859,52.03678]]]]}},
{ "type":"Feature","properties":{"osm_way_id":"94348196","name":"Tesco Wolverton","building":"yes","shop":"supermarket","other":{"addr:city":"Milton Keynes","addr:country":"GB","addr:postcode":"MK12 5RJ","addr:street":"Stratford Road","addr:suburb":"Wolverton","brand":"Tesco","brand:wikidata":"Q487494","brand:wikipedia":"en:Tesco","fhrs:authority":"Milton Keynes","fhrs:id":"199083","fhrs:local_authority_id":"50207"}}, "geometry":{"type":"MultiPolygon","coordinates":[[[[-0.81006,52.06413],[-0.81005,52.06409],[-0.81004,52.06406],[-0.8104,52.06401],[-0.8103,52.06375],[-0.81021,52.06377],[-0.81019,52.06374],[-0.81002,52.06376],[-0.80994,52.06359],[-0.80992,52.0636],[-0.80988,52.06352],[-0.80986,52.06352],[-0.80983,52.06345],[-0.80986,52.06345],[-0.80985,52.0634],[-0.80944,52.06346],[-0.80944,52.06345],[-0.80949,52.06345],[-0.80949,52.06343],[-0.80947,52.06339],[-0.80941,52.0634],[-0.8094,52.06337],[-0.80903,52.06343],[-0.80883,52.06346],[-0.80886,52.06353],[-0.80901,52.0635],[-0.80903,52.06356],[-0.80907,52.06366],[-0.80902,52.06367],[-0.80912,52.0639],[-0.80917,52.06403],[-0.80933,52.064],[-0.80943,52.06423],[-0.80944,52.06423],[-0.81006,52.06413]]]]}},
{ "type":"Feature","properties":{"osm_way_id":"96712287","name":"Co-Op","building":"yes","shop":"supermarket","other":{"fhrs:id":"199230","addr:city":"Olney","addr:street":"Stanley Court","addr:country":"GB","addr:postcode":"MK46 5NH","fhrs:authority":"Milton Keynes","fhrs:local_authority_id":"1026"}}, "geometry":{"type":"MultiPolygon","coordinates":[[[[-0.70307,52.15262],[-0.70341,52.15263],[-0.70338,52.15296],[-0.70345,52.15296],[-0.70344,52.15311],[-0.70335,52.15311],[-0.70335,52.15316],[-0.70313,52.15315],[-0.70302,52.15315],[-0.70302,52.15315],[-0.70304,52.15292],[-0.70307,52.15262]]]]}},
{ "type":"Feature","properties":{"osm_way_id":"97090183","name":"Longdan","building":"yes","shop":"supermarket","other":{"addr:city":"Milton Keynes","addr:country":"GB","addr:housenumber":"1","addr:postcode":"MK13 8BF","addr:street":"Bradwell Common Boulevard","addr:suburb":"Bradwell Common","fhrs:id":"198738","opening_hours":"M0-Sa 10:00-21:00; Su 10:00-17:00","phone":"+441908411001","website":"https:\/\/longdan.co.uk\/"}}, "geometry":{"type":"MultiPolygon","coordinates":[[[[-0.77631,52.04273],[-0.7761,52.0428],[-0.77613,52.04283],[-0.7756,52.04304],[-0.77571,52.04313],[-0.77565,52.04316],[-0.77576,52.04325],[-0.77653,52.04295],[-0.77631,52.04273]]]]}},
{ "type":"Feature","properties":{"osm_way_id":"112172149","name":"Lidl","building":"yes","shop":"supermarket","other":{"brand":"Lidl","fhrs:id":"198735","alt_name":"LIDL Bletchley","addr:city":"Bletchley","addr:street":"Princes Way","addr:country":"GB","addr:postcode":"MK2 2EN","brand:wikidata":"Q151954","fhrs:authority":"Milton Keynes","brand:wikipedia":"en:Lidl","fhrs:local_authority_id":"29182"}}, "geometry":{"type":"MultiPolygon","coordinates":[[[[-0.73249,51.99763],[-0.73246,51.99735],[-0.73175,51.99738],[-0.73178,51.99766],[-0.73197,51.99765],[-0.73249,51.99763]]]]}},
{ "type":"Feature","properties":{"osm_way_id":"155787316","name":"Jey Stores","building":"yes","shop":"supermarket","other":{"fhrs:id":"199151","addr:city":"Milton Keynes","addr:street":"Wadesmill Lane","addr:suburb":"Walnut Tree","addr:country":"GB","addr:postcode":"MK7 7ED","fhrs:authority":"Milton Keynes","addr:housenumber":"1","fhrs:local_authority_id":"48477"}}, "geometry":{"type":"MultiPolygon","coordinates":[[[[-0.69521,52.01514],[-0.6953,52.01515],[-0.69538,52.01515],[-0.69537,52.01521],[-0.69536,52.01523],[-0.69536,52.01525],[-0.69519,52.01524],[-0.69521,52.01514]]]]}},
{ "type":"Feature","properties":{"osm_way_id":"209851983","name":"Morrisons","building":"yes","shop":"supermarket","other":{"addr:city":"Milton Keynes","addr:country":"GB","addr:housename":"Westcroft District Centre","addr:housenumber":"4","addr:postcode":"MK4 4DD","addr:street":"Barnsdale Drive","addr:suburb":"Westcroft","brand":"Morrisons","brand:wikidata":"Q922344","brand:wikipedia":"en:Morrisons","building:levels":"1","fhrs:authority":"Milton Keynes","fhrs:id":"198879","fhrs:local_authority_id":"66230","opening_hours":"Mo-Sa 06:00-23:00; Su 10:00-16:00","phone":"+44 1908 506015","toilets:wheelchair":"yes","website":"http:\/\/morrisons.co.uk","wheelchair":"yes"}}, "geometry":{"type":"MultiPolygon","coordinates":[[[[-0.79525,52.00338],[-0.79511,52.00329],[-0.79501,52.00335],[-0.7946,52.00308],[-0.79471,52.00302],[-0.79459,52.00294],[-0.79453,52.00295],[-0.79447,52.00299],[-0.79443,52.00297],[-0.79341,52.00355],[-0.79396,52.00392],[-0.79392,52.00395],[-0.79389,52.00397],[-0.79403,52.00406],[-0.79401,52.00407],[-0.79399,52.00408],[-0.79413,52.00417],[-0.79414,52.00418],[-0.79421,52.00423],[-0.79426,52.0042],[-0.79431,52.00417],[-0.7946,52.00401],[-0.79455,52.00397],[-0.79515,52.00363],[-0.79509,52.00359],[-0.79524,52.00351],[-0.79514,52.00344],[-0.79525,52.00338]]]]}},
{ "type":"Feature","properties":{"osm_way_id":"209853488","name":"The Co-operative Food","building":"yes","shop":"supermarket","other":{"fhrs:id":"199187","operator":"The Co-operative Group","addr:city":"Milton Keynes","addr:street":"Winfold Lane","addr:suburb":"Emerson Valley","addr:country":"GB","addr:postcode":"MK4 3DA","fhrs:authority":"Milton Keynes","addr:housenumber":"24","fhrs:local_authority_id":"62494"}}, "geometry":{"type":"MultiPolygon","coordinates":[[[[-0.77928,52.002],[-0.77919,52.00178],[-0.77885,52.00183],[-0.77891,52.00198],[-0.77898,52.00197],[-0.779,52.00204],[-0.77928,52.002]]]]}},
{ "type":"Feature","properties":{"osm_way_id":"209855460","name":"Aldi","building":"yes","shop":"supermarket","other":{"addr:city":"Milton Keynes","addr:country":"GB","addr:housenumber":"22b","addr:postcode":"MK4 4DD","addr:street":"Barnsdale Drive","addr:suburb":"Westcroft","brand":"ALDI","brand:wikidata":"Q41171672","brand:wikipedia":"en:Aldi","contact:website":"https:\/\/www.aldi.co.uk\/store\/s-uk-E1016","fhrs:id":"773775","opening_hours":"Mo-Sa 08:00-22:00; Su 10:00-16:00"}}, "geometry":{"type":"MultiPolygon","coordinates":[[[[-0.79443,52.00573],[-0.79429,52.00564],[-0.79384,52.00535],[-0.79379,52.00532],[-0.79353,52.00546],[-0.79359,52.0055],[-0.79418,52.00588],[-0.79443,52.00573]]]]}},
{ "type":"Feature","properties":{"osm_way_id":"223332358","name":"Co-op","building":"yes","shop":"supermarket","other":{"fhrs:id":"198733","addr:city":"Milton Keynes","addr:street":"High Street","addr:suburb":"Newport Pagnell","addr:country":"GB","addr:postcode":"MK16 8AQ","fhrs:authority":"Milton Keynes","addr:housenumber":"62","fhrs:local_authority_id":"1015"}}, "geometry":{"type":"MultiPolygon","coordinates":[[[[-0.72332,52.087],[-0.7232,52.08673],[-0.72305,52.08675],[-0.72317,52.08703],[-0.72332,52.087]]]]}},
{ "type":"Feature","properties":{"osm_way_id":"223332362","name":"Co-op","building":"yes","shop":"supermarket","other":{"fhrs:id":"199229","addr:city":"Milton Keynes","addr:street":"High Street","addr:suburb":"Newport Pagnell","addr:country":"GB","addr:postcode":"MK16 8AB","fhrs:authority":"Milton Keynes","addr:housenumber":"75-77","fhrs:local_authority_id":"63091"}}, "geometry":{"type":"MultiPolygon","coordinates":[[[[-0.72396,52.08646],[-0.72381,52.08614],[-0.72354,52.08619],[-0.72366,52.08646],[-0.72363,52.08646],[-0.72365,52.08651],[-0.72396,52.08646]]]]}},
{ "type":"Feature","properties":{"osm_way_id":"298165359","name":"Sala UK","building":"retail","shop":"supermarket","other":{"fhrs:id":"656116","addr:city":"Milton Keynes","addr:street":"Erica Road","addr:suburb":"Stacey Bushes","addr:country":"GB","addr:postcode":"MK12 6HS","fhrs:authority":"Milton Keynes","addr:housenumber":"15","fhrs:local_authority_id":"84199"}}, "geometry":{"type":"MultiPolygon","coordinates":[[[[-0.79758,52.05048],[-0.79749,52.05036],[-0.79786,52.05025],[-0.79796,52.05036],[-0.79758,52.05048]]]]}},
{ "type":"Feature","properties":{"osm_way_id":"360854292","name":"Co-op Food","building":"yes","shop":"supermarket","other":{"addr:city":"Milton Keynes","addr:country":"GB","addr:housenumber":"2","addr:postcode":"MK14 5HA","addr:street":"St Leger Court","addr:suburb":"Great Linford","brand":"Co-op Food","brand:wikidata":"Q3277439","brand:wikipedia":"en:Co-op Food","fhrs:authority":"Milton Keynes","fhrs:id":"198975","fhrs:local_authority_id":"1023","operator":"The Co-operative Group","operator:wikidata":"Q117202","operator:wikipedia":"en:The Co-operative Group"}}, "geometry":{"type":"MultiPolygon","coordinates":[[[[-0.76017,52.06571],[-0.75987,52.06583],[-0.75968,52.06565],[-0.75998,52.06553],[-0.76017,52.06571]]]]}},
{ "type":"Feature","properties":{"osm_way_id":"360854506","name":"Co-op Food","building":"yes","shop":"supermarket","other":{"addr:city":"Milton Keynes","addr:country":"GB","addr:housenumber":"6a","addr:postcode":"MK14 6JY","addr:street":"Tower Crescent","addr:suburb":"Neath Hill","brand":"Co-op Food","brand:wikidata":"Q3277439","brand:wikipedia":"en:Co-op Food","fhrs:authority":"Milton Keynes","fhrs:id":"199252","fhrs:local_authority_id":"64650","operator":"The Co-operative Group","operator:wikidata":"Q117202","operator:wikipedia":"en:The Co-operative Group"}}, "geometry":{"type":"MultiPolygon","coordinates":[[[[-0.74703,52.06013],[-0.747,52.06035],[-0.74666,52.06033],[-0.74669,52.06011],[-0.74703,52.06013]]]]}},
{ "type":"Feature","properties":{"osm_way_id":"367629541","name":"Martin McColl","building":"yes","shop":"supermarket","other":{"fhrs:id":"198935","addr:city":"Milton Keynes","addr:street":"Highgrove Hill","addr:suburb":"Great Holm","addr:country":"GB","addr:postcode":"MK8 9AQ","fhrs:authority":"Milton Keynes","addr:housenumber":"1-3","fhrs:local_authority_id":"37816"}}, "geometry":{"type":"MultiPolygon","coordinates":[[[[-0.7964,52.03224],[-0.7962,52.03238],[-0.79611,52.03234],[-0.79625,52.03223],[-0.79621,52.0322],[-0.79626,52.03217],[-0.7964,52.03224]]]]}},
{ "type":"Feature","properties":{"osm_way_id":"434708680","name":"Sainsbury's","building":"yes","shop":"supermarket","other":{"brand":"Sainsbury's","phone":"+44 1908 452200","fhrs:id":"629920","website":"https:\/\/stores.sainsburys.co.uk\/2323\/shenley-church-end","addr:city":"Milton Keynes","addr:street":"Engaine Drive","addr:suburb":"Shenley Church End","addr:country":"GB","addr:postcode":"MK5 6JU","brand:wikidata":"Q152096","fhrs:authority":"Milton Keynes","brand:wikipedia":"en:Sainsbury's","addr:housenumber":"2","fhrs:local_authority_id":"84053"}}, "geometry":{"type":"MultiPolygon","coordinates":[[[[-0.79045,52.02771],[-0.79062,52.02717],[-0.78982,52.02708],[-0.7898,52.02715],[-0.78972,52.0274],[-0.78966,52.02737],[-0.78955,52.0274],[-0.78989,52.02765],[-0.79019,52.02768],[-0.79045,52.02771]]]]}},
{ "type":"Feature","properties":{"osm_way_id":"437130983","name":"Morrisons","building":"yes","shop":"supermarket","other":{"addr:city":"Milton Keynes","addr:country":"GB","addr:postcode":"MK9 1PG","addr:street":"Elder Gate","addr:suburb":"Central Milton Keynes","brand":"Morrisons","brand:wikidata":"Q922344","brand:wikipedia":"en:Morrisons","fhrs:authority":"Milton Keynes","fhrs:id":"535447","fhrs:local_authority_id":"82471","operator":"Morrisons","phone":"+44 1908 828925"}}, "geometry":{"type":"MultiPolygon","coordinates":[[[[-0.77099,52.03182],[-0.76982,52.03232],[-0.76996,52.03244],[-0.76976,52.03252],[-0.76909,52.03192],[-0.77045,52.03134],[-0.7705,52.03138],[-0.77085,52.03169],[-0.77092,52.03176],[-0.77099,52.03182]]]]}},
{ "type":"Feature","properties":{"osm_way_id":"442168668","name":"Midcounties Co-op","building":"yes","shop":"supermarket","other":{"fhrs:id":"705600","addr:city":"Milton Keynes","addr:street":"Tattenhoe Lane","addr:suburb":"Bletchley","addr:country":"GB","addr:postcode":"MK3 7DJ","fhrs:authority":"Milton Keynes","fhrs:local_authority_id":"85019"}}, "geometry":{"type":"MultiPolygon","coordinates":[[[[-0.76232,51.9926],[-0.76216,51.9925],[-0.76211,51.99247],[-0.76219,51.99242],[-0.76216,51.99239],[-0.76219,51.99235],[-0.76223,51.99236],[-0.76225,51.99238],[-0.76228,51.99236],[-0.76246,51.99245],[-0.76244,51.99248],[-0.76247,51.9925],[-0.76232,51.9926]]]]}},
{ "type":"Feature","properties":{"osm_way_id":"446674738","name":"Waitrose & Partners","building":"retail","shop":"supermarket","other":{"addr:city":"Milton Keynes","addr:country":"GB","addr:housenumber":"3","addr:postcode":"MK10 9SU","addr:street":"Babbage Gate","addr:suburb":"Oakgrove","brand":"Waitrose","brand:wikidata":"Q771734","brand:wikipedia":"en:Waitrose & Partners","fhrs:authority":"Milton Keynes","fhrs:id":"516876","fhrs:local_authority_id":"82323","official_name":"Waitrose & Partners","opening_hours":"Mo-Sa 07:00-22:00; Su 11:00-17:00","operator":"Waitrose & Partners","phone":"+44 1908 230565","website":"http:\/\/waitrose.com"}}, "geometry":{"type":"MultiPolygon","coordinates":[[[[-0.71418,52.03805],[-0.71373,52.03808],[-0.71377,52.0384],[-0.71383,52.03891],[-0.71478,52.03885],[-0.71471,52.03849],[-0.71479,52.03849],[-0.71476,52.03837],[-0.71422,52.0384],[-0.71418,52.03805]]]]}},
{ "type":"Feature","properties":{"osm_way_id":"448139657","name":"Asda","building":"retail","shop":"supermarket","other":{"brand":"Asda","fhrs:id":"743377","operator":"Asda Stores Ltd","addr:city":"Milton Keynes","addr:place":"Oakridge Park","addr:street":"Texel Close","source:addr":"FHRS Open Data","addr:country":"GB","addr:postcode":"MK14 6GL","brand:wikidata":"Q297410","fhrs:authority":"Milton Keynes","brand:wikipedia":"en:Asda","contact:twitter":"@asda","contact:website":"https:\/\/storelocator.asda.com\/south-east\/milton-keynes\/oakridge-park-stantonbury","contact:facebook":"https:\/\/www.facebook.com\/asda\/","fhrs:local_authority_id":"85531"}}, "geometry":{"type":"MultiPolygon","coordinates":[[[[-0.77791,52.06794],[-0.77796,52.06828],[-0.77813,52.06827],[-0.77812,52.06822],[-0.77867,52.06818],[-0.77866,52.06811],[-0.77865,52.0679],[-0.77791,52.06794]]]]}},
{ "type":"Feature","properties":{"osm_way_id":"655261045","name":"The Food Warehouse by Iceland","building":"yes","shop":"supermarket","other":{"addr:city":"Milton Keynes","addr:country":"GB","addr:housenumber":"144","addr:postcode":"MK1 1YY","addr:street":"Watling Street","addr:suburb":"Bletchley","brand":"The Food Warehouse","brand:wikidata":"Q87263899","fhrs:authority":"Milton Keynes","fhrs:id":"1002383","fhrs:local_authority_id":"30620"}}, "geometry":{"type":"MultiPolygon","coordinates":[[[[-0.7272,52.00341],[-0.72696,52.00363],[-0.72773,52.00395],[-0.72797,52.00372],[-0.7272,52.00341]]]]}},
{ "type":"Feature","properties":{"osm_way_id":"672662917","name":"Lidl","building":"retail","shop":"supermarket","other":{"addr:city":"Milton Keynes","addr:country":"GB","addr:postcode":"MK10 7NP","addr:street":"Fen Street","addr:suburb":"Brooklands","brand":"Lidl","brand:wikidata":"Q151954","brand:wikipedia":"en:Lidl","fhrs:id":"1060817"}}, "geometry":{"type":"MultiPolygon","coordinates":[[[[-0.67769,52.04633],[-0.67772,52.04569],[-0.67722,52.04568],[-0.67718,52.04632],[-0.67769,52.04633]]]]}},
{ "type":"Feature","properties":{"osm_way_id":"692083007","name":"Sainsbury's","building":"retail","shop":"supermarket","other":{"brand":"Sainsbury's","operator":"Sainsburyâ€™s","addr:city":"Olney","wheelchair":"yes","addr:street":"Lavendon Road","addr:postcode":"MK46 4HH","opening_hours":"Mo-Sa 08:00-21:00; Su 10:00-16:00","brand:wikidata":"Q152096","brand:wikipedia":"en:Sainsbury's"}}, "geometry":{"type":"MultiPolygon","coordinates":[[[[-0.70059,52.16263],[-0.70044,52.1626],[-0.70062,52.1623],[-0.70021,52.16222],[-0.70004,52.16251],[-0.7,52.16259],[-0.6999,52.16276],[-0.70006,52.16279],[-0.70013,52.16281],[-0.70019,52.16282],[-0.70019,52.16282],[-0.7003,52.16284],[-0.70034,52.16277],[-0.70055,52.1628],[-0.70059,52.16263]]]]}},
{ "type":"Feature","properties":{"osm_way_id":"704802940","name":"Lidl","building":"yes","shop":"supermarket","other":{"brand":"Lidl","fhrs:id":"1113257","addr:street":"Stratford Road","source:addr":"FHRS Open Data","addr:postcode":"MK12 5NT","brand:wikidata":"Q151954","brand:wikipedia":"en:Lidl"}}, "geometry":{"type":"MultiPolygon","coordinates":[[[[-0.8114,52.0632],[-0.81171,52.06388],[-0.81124,52.06396],[-0.81093,52.06329],[-0.8114,52.0632]]]]}},
{ "type":"Feature","properties":{"osm_way_id":"1005837878","name":"Lidl","building":"yes","shop":"supermarket","other":{"brand":"Lidl","brand:wikidata":"Q151954","brand:wikipedia":"en:Lidl"}}, "geometry":{"type":"MultiPolygon","coordinates":[[[[-0.74573,52.08116],[-0.74586,52.08109],[-0.7458,52.08105],[-0.74596,52.08095],[-0.74573,52.08082],[-0.74578,52.0808],[-0.74525,52.08047],[-0.74492,52.08067],[-0.74573,52.08116]]]]}}
]
}
