{
"type": "FeatureCollection",
"features": [
{ "type":"Feature","properties":{"osm_id":"389046589","name":"The Cooperative Food","other":{"shop":"supermarket","fhrs:id":"203751","operator":"The Co-operative Group","addr:city":"Thatcham","addr:street":"Station Road","addr:postcode":"RG19 4YA","addr:housenumber":"4 The Burdwood Centre"}}, "geometry":{"type":"Point","coordinates":[-1.24825,51.39737 ]}},
{ "type":"Feature","properties":{"osm_id":"528750761","name":"The Co-operative Food","other":{"shop":"supermarket","brand":"The Co-operative Food","fhrs:id":"202793","operator":"The Co-operative Group","addr:city":"Thatcham","addr:street":"Bradley Moore Square","addr:postcode":"RG18 4QH","brand:wikidata":"Q3277439","brand:wikipedia":"en:Co-op Food"}}, "geometry":{"type":"Point","coordinates":[-1.24695,51.40852 ]}},
{ "type":"Feature","properties":{"osm_id":"1373188133","name":"Spar","other":{"brand":"Spar","brand:wikidata":"Q610492","shop":"supermarket"}}, "geometry":{"type":"Point","coordinates":[-1.28327,51.45249 ]}},
{ "type":"Feature","properties":{"osm_id":"6913053650","other":{"amenity":"loading_dock","manufacturer":"Assa Adloy"}}, "geometry":{"type":"Point","coordinates":[-1.02433,51.44346 ]}},
{ "type":"Feature","properties":{"osm_id":"6913053651","other":{"amenity":"loading_dock"}}, "geometry":{"type":"Point","coordinates":[-1.02392,51.44353 ]}},
{ "type":"Feature","properties":{"osm_id":"9217908587","name":"Lidl","other":{"addr:country":"GB","addr:housename":"Newbury Retail Park","addr:postcode":"RG14 7HU","addr:street":"Pinchington Lane","addr:unit":"9B","brand":"Lidl","brand:wikidata":"Q151954","brand:wikipedia":"en:Lidl","fhrs:id":"1288250","shop":"supermarket"}}, "geometry":{"type":"Point","coordinates":[-1.31741,51.38622 ]}},
{ "type":"Feature","properties":{"osm_way_id":"42487997","name":"Tesco","building":"retail","landuse":"retail","shop":"supermarket","other":{"brand":"Tesco","wheelchair":"yes","addr:street":"Everland Road","designation":"Hungerford Superstore","roof:levels":"0","addr:postcode":"RG17 0DX","opening_hours":"Mo-Sa 06:00-23:00, Su 10:00-16:00","brand:wikidata":"Q487494","brand:wikipedia":"en:Tesco","building:levels":"1"}}, "geometry":{"type":"MultiPolygon","coordinates":[[[[-1.51269,51.41556],[-1.51283,51.41529],[-1.51298,51.41532],[-1.51303,51.41522],[-1.51337,51.41528],[-1.51338,51.41528],[-1.5136,51.41532],[-1.51353,51.41545],[-1.51343,51.41544],[-1.51335,51.41559],[-1.51327,51.41558],[-1.51323,51.41567],[-1.51269,51.41556]]]]}},
{ "type":"Feature","properties":{"osm_way_id":"68649170","name":"Aldi","building":"retail","shop":"supermarket","other":{"addr:city":"Reading","air_conditioning":"yes","brand":"ALDI","brand:wikidata":"Q41171672","brand:wikipedia":"en:Aldi","source:building":"OS_OpenData_StreetView"}}, "geometry":{"type":"MultiPolygon","coordinates":[[[[-1.02421,51.444],[-1.02384,51.44405],[-1.02369,51.4436],[-1.02393,51.44357],[-1.02392,51.44353],[-1.02406,51.44352],[-1.02421,51.444]]]]}},
{ "type":"Feature","properties":{"osm_way_id":"70517058","name":"The Co-operative Food","building":"yes","shop":"supermarket","other":{"operator":"The Midcounties Co-operative Society","addr:city":"Reading","addr:street":"Overdown Road","addr:postcode":"RG31 6PR","opening_hours":"Mo-Sa 07:00-22:00; Su 08:00-22:00","addr:housename":"1 The Colonnade","source:building":"OS_OpenData_StreetView"}}, "geometry":{"type":"MultiPolygon","coordinates":[[[[-1.0449,51.46973],[-1.04468,51.46986],[-1.04462,51.46982],[-1.04471,51.46976],[-1.0446,51.46969],[-1.04445,51.4696],[-1.04457,51.46953],[-1.04483,51.46969],[-1.0449,51.46973]]]]}},
{ "type":"Feature","properties":{"osm_way_id":"96913707","name":"Lidl","building":"retail","shop":"supermarket","other":{"addr:city":"Reading","addr:country":"GB","addr:postcode":"RG30 2HB","addr:street":"Bath Road","air_conditioning":"yes","brand":"Lidl","brand:wikidata":"Q151954","brand:wikipedia":"en:Lidl","fhrs:id":"1036928","opening_hours":"Mo-Sa 08:00-22:00; Su 10:00-16:00; PH 08:00-20:00"}}, "geometry":{"type":"MultiPolygon","coordinates":[[[[-1.02431,51.44414],[-1.02413,51.44345],[-1.02432,51.44343],[-1.02433,51.44346],[-1.02461,51.44345],[-1.02431,51.44414]]]]}},
{ "type":"Feature","properties":{"osm_way_id":"133735950","name":"Sainsbury's","building":"yes","shop":"supermarket","other":{"brand":"Sainsbury's","brand:wikidata":"Q152096","brand:wikipedia":"en:Sainsbury's","toilets:wheelchair":"yes","wheelchair":"yes"}}, "geometry":{"type":"MultiPolygon","coordinates":[[[[-1.32046,51.39813],[-1.31998,51.39816],[-1.31998,51.39817],[-1.3195,51.39819],[-1.31952,51.39839],[-1.31848,51.39842],[-1.31853,51.39873],[-1.31872,51.39885],[-1.31874,51.399],[-1.32028,51.39893],[-1.32028,51.39889],[-1.32055,51.39888],[-1.32048,51.39835],[-1.32049,51.39835],[-1.32047,51.39821],[-1.32049,51.39821],[-1.32048,51.39815],[-1.32046,51.39815],[-1.32046,51.39813]]]]}},
{ "type":"Feature","properties":{"osm_way_id":"134235251","name":"Tesco Express","building":"yes","shop":"supermarket","other":{"addr:city":"Reading","addr:housename":"3 The Parade","addr:postcode":"RG31 6FA","addr:street":"Knowsley Road","brand":"Tesco Express","brand:wikidata":"Q98456772","opening_hours":"Mo-Su 07:00-22:00","operator":"Tesco","source:building":"OS_OpenData_StreetView"}}, "geometry":{"type":"MultiPolygon","coordinates":[[[[-1.04965,51.47342],[-1.04973,51.47351],[-1.04952,51.47358],[-1.04944,51.47348],[-1.04965,51.47342]]]]}},
{ "type":"Feature","properties":{"osm_way_id":"151890941","name":"Tesco","building":"yes","shop":"supermarket","other":{"brand":"Tesco","brand:wikidata":"Q487494","brand:wikipedia":"en:Tesco","contact:website":"https:\/\/www.tesco.com\/store-locator\/newbury\/london-rd?bID=6192","opening_hours":"Mo-Sa 00:00-24:00; Su 10:00-16:00","operator":"Tesco","toilets":"yes"}}, "geometry":{"type":"MultiPolygon","coordinates":[[[[-1.30933,51.40314],[-1.30882,51.40302],[-1.30838,51.40376],[-1.30889,51.40388],[-1.30933,51.40314]]]]}},
{ "type":"Feature","properties":{"osm_way_id":"151891665","name":"Tesco Extra","building":"yes","shop":"supermarket","other":{"brand":"Tesco Extra","brand:wikidata":"Q25172225"}}, "geometry":{"type":"MultiPolygon","coordinates":[[[[-1.31868,51.38239],[-1.31775,51.38245],[-1.31773,51.38245],[-1.31769,51.38215],[-1.31763,51.38216],[-1.31766,51.38237],[-1.31756,51.38238],[-1.31755,51.38236],[-1.3174,51.38236],[-1.31739,51.38232],[-1.31735,51.38232],[-1.31734,51.38226],[-1.31716,51.38219],[-1.31711,51.38223],[-1.31712,51.38233],[-1.31702,51.38234],[-1.31703,51.38243],[-1.31699,51.38243],[-1.31701,51.38255],[-1.31705,51.38255],[-1.31715,51.38318],[-1.31795,51.38313],[-1.31796,51.38318],[-1.31835,51.38315],[-1.31834,51.38309],[-1.3188,51.38306],[-1.31868,51.38239]]]]}},
{ "type":"Feature","properties":{"osm_way_id":"151893169","name":"Waitrose","building":"yes","shop":"supermarket","other":{"brand":"Waitrose","fhrs:id":"203018","alt_name":"Waitrose Thatcham","operator":"Waitrose & Partners","addr:city":"Thatcham","addr:street":"The Broadway","addr:postcode":"RG19 3HN","official_name":"Waitrose & Partners","brand:wikidata":"Q771734","brand:wikipedia":"en:Waitrose & Partners","addr:housenumber":"48-53"}}, "geometry":{"type":"MultiPolygon","coordinates":[[[[-1.25644,51.40242],[-1.25587,51.40242],[-1.25587,51.4025],[-1.2557,51.4025],[-1.25569,51.4029],[-1.25637,51.40291],[-1.25645,51.40285],[-1.25644,51.40267],[-1.25644,51.40264],[-1.25644,51.40247],[-1.25644,51.40242]]]]}},
{ "type":"Feature","properties":{"osm_way_id":"164920968","name":"Lidl","building":"yes","shop":"supermarket","other":{"addr:country":"GB","addr:housenumber":"121A","addr:postcode":"RG14 2BX","addr:street":"London Road","brand":"Lidl","brand:wikidata":"Q151954","brand:wikipedia":"en:Lidl","fhrs:id":"203267"}}, "geometry":{"type":"MultiPolygon","coordinates":[[[[-1.316,51.40587],[-1.3156,51.40574],[-1.31586,51.40538],[-1.31627,51.40549],[-1.316,51.40587]]]]}},
{ "type":"Feature","properties":{"osm_way_id":"171063265","name":"Waitrose","building":"yes","shop":"supermarket","other":{"brand":"Waitrose","operator":"Waitrose & Partners","roof:shape":"gabled","roof:colour":"#cacada","addr:postcode":"RG14 1NB","official_name":"Waitrose & Partners","opening_hours":"Mo-Fr 08:00-21:00; Sa 08:00-20:00; Su 10:00-16:00","brand:wikidata":"Q771734","brand:wikipedia":"en:Waitrose & Partners","building:levels":"1","building:material":"brick"}}, "geometry":{"type":"MultiPolygon","coordinates":[[[[-1.32935,51.40735],[-1.3288,51.40727],[-1.32874,51.40726],[-1.32876,51.40722],[-1.32894,51.40673],[-1.32959,51.40682],[-1.32955,51.40701],[-1.32957,51.40703],[-1.3296,51.40703],[-1.32958,51.40711],[-1.32985,51.40714],[-1.32993,51.40741],[-1.32971,51.40741],[-1.32955,51.4074],[-1.32939,51.40738],[-1.32939,51.40735],[-1.32935,51.40735]]]]}},
{ "type":"Feature","properties":{"osm_way_id":"171063478","name":"Co-op Food","building":"yes","shop":"supermarket","other":{"brand":"Co-op Food","fhrs:id":"203720","alt_name":"The Co-operative Food","operator":"The Co-operative Group","addr:city":"Thatcham","addr:street":"The Broadway","addr:postcode":"RG19 3HX","brand:wikidata":"Q3277439","brand:wikipedia":"en:Co-op Food","addr:housenumber":"54-55"}}, "geometry":{"type":"MultiPolygon","coordinates":[[[[-1.25769,51.40218],[-1.25777,51.40217],[-1.25777,51.4022],[-1.25818,51.40219],[-1.25817,51.40254],[-1.25767,51.40253],[-1.25769,51.40218]]]]}},
{ "type":"Feature","properties":{"osm_way_id":"221442519","name":"Tesco Express","building":"yes","shop":"supermarket","other":{"addr:city":"Burghfield Common","addr:postcode":"RG7 3JB","addr:street":"Reading Road","alt_name":"Tesco Burghfield Common Express","brand":"Tesco Express","brand:wikidata":"Q98456772","brand:wikipedia":"en:Tesco","opening_hours":"Mo-Su 06:00-23:00","operator":"Tesco","payment:all":"yes","payment:cash":"yes","payment:debit_cards":"yes","payment:visa":"yes","source:building":"OS_OpenData_StreetView"}}, "geometry":{"type":"MultiPolygon","coordinates":[[[[-1.06656,51.39339],[-1.06646,51.3934],[-1.06641,51.39329],[-1.06652,51.39326],[-1.06653,51.39329],[-1.06658,51.39328],[-1.06663,51.39323],[-1.06672,51.39327],[-1.06656,51.39339]]]]}},
{ "type":"Feature","properties":{"osm_way_id":"222728050","name":"Co-op","building":"yes","shop":"supermarket","other":{"addr:city":"Theale","addr:housenumber":"4","addr:postcode":"RG7 5JH","addr:street":"High Street","payment:cash":"yes","payment:coins":"yes","payment:credit_cards":"yes","payment:debit_cards":"yes","payment:notes":"yes","source:building":"OS_OpenData_StreetView"}}, "geometry":{"type":"MultiPolygon","coordinates":[[[[-1.0769,51.43691],[-1.0767,51.43695],[-1.07663,51.43681],[-1.0765,51.43683],[-1.07643,51.43669],[-1.07675,51.43663],[-1.0769,51.43691]]]]}},
{ "type":"Feature","properties":{"osm_way_id":"293902464","name":"ALDI","building":"yes","shop":"supermarket","other":{"addr:city":"Newbury","addr:housename":"Aldi","addr:postcode":"RG14 1LA","addr:street":"London Road","brand":"ALDI","brand:wikidata":"Q41171672","brand:wikipedia":"en:Aldi"}}, "geometry":{"type":"MultiPolygon","coordinates":[[[[-1.3213,51.4068],[-1.32126,51.40669],[-1.32116,51.4067],[-1.32111,51.40656],[-1.32044,51.40664],[-1.32051,51.40688],[-1.32118,51.4068],[-1.32119,51.40681],[-1.3213,51.4068]]]]}},
{ "type":"Feature","properties":{"osm_way_id":"300935163","name":"Sainsbury's","shop":"supermarket","other":{"brand":"Sainsbury's","indoor":"yes","alt_name":"Sainsbury's Calcot Superstore","addr:city":"Reading","addr:street":"Bath Road","addr:postcode":"RG31 7SA","opening_hours":"Mo-Fr 07:00-22:00; Sa 06:00-22:00; Su 10:00-16:00","brand:wikidata":"Q152096","brand:wikipedia":"en:Sainsbury's"}}, "geometry":{"type":"MultiPolygon","coordinates":[[[[-1.06109,51.44343],[-1.06065,51.44281],[-1.06138,51.4426],[-1.06171,51.4425],[-1.06195,51.44243],[-1.06199,51.44248],[-1.06219,51.44242],[-1.06225,51.44249],[-1.06237,51.44247],[-1.06259,51.44267],[-1.0629,51.4431],[-1.061,51.44364],[-1.06089,51.4435],[-1.06109,51.44343]]]]}},
{ "type":"Feature","properties":{"osm_way_id":"302819544","name":"Tesco Metro","building":"yes","shop":"supermarket","other":{"brand":"Tesco Metro","fhrs:id":"203456","addr:city":"Newbury","addr:street":"Northbrook Street","source:addr":"FHRS Open Data","addr:postcode":"RG14 1DJ","brand:wikidata":"Q57551648","addr:housenumber":"17-19"}}, "geometry":{"type":"MultiPolygon","coordinates":[[[[-1.32423,51.40277],[-1.32425,51.40289],[-1.32393,51.40292],[-1.32341,51.40297],[-1.32335,51.40282],[-1.32388,51.40276],[-1.32389,51.40279],[-1.32423,51.40277]]]]}},
{ "type":"Feature","properties":{"osm_way_id":"313323275","name":"Co-op Food","building":"yes","shop":"supermarket","other":{"brand":"Co-op Food","brand:wikidata":"Q3277439","brand:wikipedia":"en:Co-op Food"}}, "geometry":{"type":"MultiPolygon","coordinates":[[[[-1.51553,51.4157],[-1.51551,51.41576],[-1.51541,51.41575],[-1.51531,51.41572],[-1.51536,51.41567],[-1.5154,51.41562],[-1.51549,51.41564],[-1.51562,51.41565],[-1.51583,51.41567],[-1.51581,51.41572],[-1.51564,51.41571],[-1.51553,51.4157]]]]}},
{ "type":"Feature","properties":{"osm_way_id":"452564238","name":"The Co-operative Food","shop":"supermarket","other":{"addr:city":"Burghfield Common","addr:street":"Clay Hill Road","addr:postcode":"RG7 3HF","opening_hours":"Mo-Su 07:00-22:00","addr:housenumber":"31-33"}}, "geometry":{"type":"MultiPolygon","coordinates":[[[[-1.06513,51.40106],[-1.06529,51.40101],[-1.06539,51.40113],[-1.06524,51.40118],[-1.06513,51.40106]]]]}},
{ "type":"Feature","properties":{"osm_way_id":"503119879","name":"Co-Operative Food","building":"retail","shop":"supermarket","other":{"operator":"The Southern Co-Operative","addr:city":"Hungerford","addr:place":"Lambourn","addr:street":"High Street","addr:housename":"Co-Operative Food","addr:housenumber":"4"}}, "geometry":{"type":"MultiPolygon","coordinates":[[[[-1.53117,51.50783],[-1.53105,51.50777],[-1.53108,51.50775],[-1.5309,51.50766],[-1.53098,51.5076],[-1.53115,51.50768],[-1.5312,51.50765],[-1.53133,51.50772],[-1.53117,51.50783]]]]}}
]
}
