{
"type": "FeatureCollection",
"features": [
{ "type":"Feature","properties":{"osm_id":"29995625","name":"Tesco Express","other":{"brand":"Tesco Express","brand:wikidata":"Q98456772","contact:website":"https:\/\/www.tesco.com\/store-locator\/high-wycombe\/plomer-green-ln","operator":"Tesco Express","shop":"supermarket"}}, "geometry":{"type":"Point","coordinates":[-0.77728,51.64533 ]}},
{ "type":"Feature","properties":{"osm_id":"83430474","name":"Waitrose","other":{"addr:city":"Chesham","addr:street":"The Backs","brand":"Waitrose & Partners","brand:wikidata":"Q771734","brand:wikipedia":"en:Waitrose & Partners","operator":"Waitrose & Partners","phone":"+44 1494 791711","shop":"supermarket","website":"https:\/\/www.waitrose.com\/chesham","wheelchair":"yes"}}, "geometry":{"type":"Point","coordinates":[-0.61088,51.70696 ]}},
{ "type":"Feature","properties":{"osm_id":"84893438","name":"Sainsbury's","other":{"brand:wikidata":"Q152096","shop":"supermarket","wheelchair":"yes"}}, "geometry":{"type":"Point","coordinates":[-0.61194,51.70746 ]}},
{ "type":"Feature","properties":{"osm_id":"241772773","name":"The Co-Operative Food","other":{"shop":"supermarket","fhrs:id":"945173","operator":"The Co-Operative"}}, "geometry":{"type":"Point","coordinates":[-0.77376,51.64489 ]}},
{ "type":"Feature","properties":{"osm_id":"260017920","name":"Village Stores & Post Office","other":{"shop":"supermarket"}}, "geometry":{"type":"Point","coordinates":[-1.03536,51.93169 ]}},
{ "type":"Feature","properties":{"osm_id":"440823630","name":"Tesco","other":{"brand":"Tesco","brand:wikidata":"Q487494","brand:wikipedia":"en:Tesco","contact:website":"https:\/\/www.tesco.com\/store-locator\/high-wycombe\/newland-st","fhrs:id":"564486","shop":"supermarket"}}, "geometry":{"type":"Point","coordinates":[-0.75496,51.62997 ]}},
{ "type":"Feature","properties":{"osm_id":"632224307","name":"Walton Court Co-operative","other":{"shop":"supermarket"}}, "geometry":{"type":"Point","coordinates":[-0.82192,51.8021 ]}},
{ "type":"Feature","properties":{"osm_id":"992621709","name":"Coop","other":{"shop":"supermarket","fhrs:id":"553129"}}, "geometry":{"type":"Point","coordinates":[-0.71008,51.65866 ]}},
{ "type":"Feature","properties":{"osm_id":"2598799849","name":"The Co-Operative Food","other":{"shop":"supermarket","addr:housename":"Tabard Square"}}, "geometry":{"type":"Point","coordinates":[-0.58523,51.549 ]}},
{ "type":"Feature","properties":{"osm_id":"2774674082","name":"M&S Food","other":{"brand":"M&S Foodhall","brand:wikidata":"Q714491","fhrs:id":"536864","shop":"supermarket","website":"https:\/\/www.marksandspencer.com\/stores\/wycombe-marsh-simply-food-9331"}}, "geometry":{"type":"Point","coordinates":[-0.71876,51.61876 ]}},
{ "type":"Feature","properties":{"osm_id":"2861644402","name":"Nisa","other":{"shop":"supermarket","addr:city":"Aylesbury","addr:street":"Buckingham Road","addr:postcode":"HP19 9QN","addr:housenumber":"150-152"}}, "geometry":{"type":"Point","coordinates":[-0.81517,51.82711 ]}},
{ "type":"Feature","properties":{"osm_id":"2899118515","name":"Co-op Food","other":{"brand":"Co-op Food","brand:wikidata":"Q3277439","brand:wikipedia":"en:Co-op Food","shop":"supermarket"}}, "geometry":{"type":"Point","coordinates":[-0.71094,51.57891 ]}},
{ "type":"Feature","properties":{"osm_id":"3067253833","name":"Tesco Express","other":{"brand":"Tesco Express","brand:wikidata":"Q98456772","contact:website":"https:\/\/www.tesco.com\/store-locator\/high-wycombe\/hatters-ln","fhrs:id":"608634","shop":"supermarket"}}, "geometry":{"type":"Point","coordinates":[-0.72368,51.6334 ]}},
{ "type":"Feature","properties":{"osm_id":"3426731569","name":"Co-Operative","other":{"shop":"supermarket"}}, "geometry":{"type":"Point","coordinates":[-0.70205,51.64368 ]}},
{ "type":"Feature","properties":{"osm_id":"3516889990","name":"Budgens","other":{"brand":"Budgens","brand:wikidata":"Q4985016","brand:wikipedia":"en:Budgens","shop":"supermarket"}}, "geometry":{"type":"Point","coordinates":[-0.82023,51.83516 ]}},
{ "type":"Feature","properties":{"osm_id":"3723304550","name":"Waitrose","other":{"addr:city":"Aylesbury","addr:country":"GB","addr:county":"Buckinghamshire","addr:housename":"Waterside","addr:postcode":"HP20 1AL","addr:street":"Exchange Street","alt_name":"Waitrose Aylesbury","brand":"Waitrose","brand:wikidata":"Q771734","brand:wikipedia":"en:Waitrose","fhrs:id":"616469","official_name":"Waitrose & Partners","opening_hours":"Mo-Sa 07:00-22:00; Su 11:00-17:00","operator":"Waitrose & Partners","shop":"supermarket","website":"https:\/\/www.waitrose.com\/bf_home\/bf\/625.html"}}, "geometry":{"type":"Point","coordinates":[-0.80837,51.81481 ]}},
{ "type":"Feature","properties":{"osm_id":"5628760495","name":"Grosik Supermarket","other":{"shop":"supermarket","cuisine":"polish","fhrs:id":"616533","addr:street":"Castle Street","addr:postcode":"HP13 6RZ","addr:housename":"Thame House"}}, "geometry":{"type":"Point","coordinates":[-0.75028,51.63032 ]}},
{ "type":"Feature","properties":{"osm_id":"5628760530","name":"Delikatesy Smaczek","other":{"shop":"supermarket","cuisine":"polish","fhrs:id":"1027747","website":"http:\/\/delikatesysmaczek.co.uk\/nasze-sklepy\/","addr:street":"Queens Square","addr:postcode":"HP11 2BP","addr:housenumber":"7-8"}}, "geometry":{"type":"Point","coordinates":[-0.75246,51.6307 ]}},
{ "type":"Feature","properties":{"osm_id":"5711838339","name":"Cook","other":{"shop":"supermarket","fhrs:id":"777169","website":"https:\/\/www.cookfood.net\/shops\/Beaconsfield","addr:street":"Station Parade","addr:postcode":"HP9 2PB","addr:housenumber":"1"}}, "geometry":{"type":"Point","coordinates":[-0.64716,51.61162 ]}},
{ "type":"Feature","properties":{"osm_id":"5711841297","name":"M&S Simply Food","other":{"addr:housename":"Grove Court","addr:housenumber":"9-10","addr:postcode":"HP9 1QW","addr:street":"Station Road","brand":"M&S Simply Food","brand:wikidata":"Q714491","fhrs:id":"776945","shop":"supermarket","website":"https:\/\/www.marksandspencer.com\/MSStoreDetailsView?storeId=10151&langId=-24&SAPStoreId=8840"}}, "geometry":{"type":"Point","coordinates":[-0.64529,51.60974 ]}},
{ "type":"Feature","properties":{"osm_id":"5735211576","name":"Umma International Supermarket","other":{"shop":"supermarket"}}, "geometry":{"type":"Point","coordinates":[-0.75685,51.63235 ]}},
{ "type":"Feature","properties":{"osm_id":"5797017531","name":"The Co-operative Food","other":{"shop":"supermarket","fhrs:id":"456369"}}, "geometry":{"type":"Point","coordinates":[-0.78872,51.67409 ]}},
{ "type":"Feature","properties":{"osm_id":"5935210391","name":"Thara Supermarket","other":{"shop":"supermarket"}}, "geometry":{"type":"Point","coordinates":[-0.77311,51.63245 ]}},
{ "type":"Feature","properties":{"osm_id":"6723728618","name":"M&S Foodhall","other":{"addr:city":"Chalfont St Peter","addr:housename":"43-49 St Peters Court","addr:postcode":"SL9 9QQ","addr:street":"High Street","brand":"M&S Foodhall","brand:wikidata":"Q714491","brand:wikipedia":"en:Marks & Spencer","fhrs:id":"1040988","operator":"Marks & Spencer","shop":"supermarket"}}, "geometry":{"type":"Point","coordinates":[-0.55545,51.60713 ]}},
{ "type":"Feature","properties":{"osm_id":"7011212369","name":"Lidl","other":{"shop":"supermarket","brand":"Lidl","brand:wikidata":"Q151954","brand:wikipedia":"en:Lidl"}}, "geometry":{"type":"Point","coordinates":[-0.79055,51.81991 ]}},
{ "type":"Feature","properties":{"osm_id":"8725232012","name":"Tesco","other":{"addr:parentstreet":"Bath Road","addr:place":"The Bishop Centre","addr:postcode":"SL6 0NX","addr:village":"Taplow","brand":"Tesco","brand:wikidata":"Q487494","brand:wikipedia":"en:Tesco","contact:website":"https:\/\/www.tesco.com\/store-locator\/taplow\/bath-rd","fhrs:id":"777267","shop":"supermarket","source:addr":"FHRS Open Data"}}, "geometry":{"type":"Point","coordinates":[-0.67611,51.5228 ]}},
{ "type":"Feature","properties":{"osm_id":"8858545878","name":"Budgens","other":{"brand":"Budgens","brand:wikidata":"Q4985016","brand:wikipedia":"en:Budgens","shop":"supermarket"}}, "geometry":{"type":"Point","coordinates":[-0.65868,51.53495 ]}},
{ "type":"Feature","properties":{"osm_way_id":"24902097","name":"Waitrose","building":"retail","shop":"supermarket","other":{"addr:postcode":"HP9 2PW","addr:street":"Penn Road","brand":"Waitrose & Partners","brand:wikidata":"Q771734","brand:wikipedia":"en:Waitrose & Partners","fhrs:id":"777165","operator":"Waitrose & Partners","website":"https:\/\/www.waitrose.com\/bf_home\/bf\/177.html"}}, "geometry":{"type":"MultiPolygon","coordinates":[[[[-0.64691,51.61239],[-0.64699,51.6123],[-0.647,51.61209],[-0.64597,51.61207],[-0.64564,51.61206],[-0.64564,51.61213],[-0.64562,51.61237],[-0.64691,51.61239]]]]}},
{ "type":"Feature","properties":{"osm_way_id":"27069622","name":"Morrisons","building":"retail","shop":"supermarket","other":{"addr:city":"High Wycombe","addr:postcode":"HP13 5XX","addr:street":"Bellfield Road","brand":"Morrisons","brand:wikidata":"Q922344","brand:wikipedia":"en:Morrisons","fhrs:id":"578479"}}, "geometry":{"type":"MultiPolygon","coordinates":[[[[-0.75371,51.63437],[-0.75357,51.63465],[-0.75361,51.63466],[-0.75347,51.63492],[-0.75342,51.63491],[-0.75337,51.635],[-0.75342,51.63501],[-0.75341,51.63503],[-0.75368,51.63508],[-0.75369,51.63506],[-0.75427,51.63518],[-0.75428,51.63515],[-0.75438,51.63517],[-0.75442,51.63508],[-0.75453,51.63512],[-0.75458,51.6351],[-0.75474,51.63478],[-0.75489,51.63481],[-0.75498,51.63466],[-0.75424,51.6345],[-0.75425,51.63448],[-0.75371,51.63437]]]]}},
{ "type":"Feature","properties":{"osm_way_id":"27617447","name":"Asda","building":"supermarket","shop":"supermarket","other":{"brand":"Asda","fhrs:id":"584060","operator":"Asda Stores Ltd","addr:city":"High Wycombe","addr:street":"Crest Road","addr:country":"GB","addr:postcode":"HP12 4NT","brand:wikidata":"Q297410","brand:wikipedia":"en:Asda","contact:twitter":"@asda","contact:website":"https:\/\/storelocator.asda.com\/south-east\/high-wycombe\/holmers-farm-way","contact:facebook":"https:\/\/www.facebook.com\/asda\/"}}, "geometry":{"type":"MultiPolygon","coordinates":[[[[-0.78099,51.61107],[-0.781,51.61106],[-0.78037,51.61087],[-0.78034,51.61091],[-0.7802,51.61087],[-0.78008,51.61104],[-0.77993,51.61099],[-0.77988,51.61105],[-0.77991,51.61106],[-0.77977,51.61124],[-0.77974,51.61124],[-0.7797,51.61128],[-0.77959,51.61125],[-0.77956,51.61129],[-0.77968,51.61133],[-0.7796,51.61144],[-0.77959,51.61143],[-0.77953,51.61151],[-0.77954,51.61152],[-0.77947,51.6116],[-0.77963,51.61165],[-0.7796,51.61169],[-0.78035,51.61191],[-0.78049,51.61173],[-0.78063,51.61177],[-0.78066,51.61173],[-0.78101,51.61183],[-0.78128,51.61148],[-0.78117,51.61145],[-0.78131,51.61127],[-0.7811,51.61121],[-0.78117,51.61113],[-0.78099,51.61107]]]]}},
{ "type":"Feature","properties":{"osm_way_id":"27917978","name":"Lidl","building":"yes","shop":"supermarket","other":{"brand":"Lidl","brand:wikidata":"Q151954","brand:wikipedia":"en:Lidl","fhrs:id":"932873"}}, "geometry":{"type":"MultiPolygon","coordinates":[[[[-0.72836,51.62262],[-0.72838,51.62253],[-0.72842,51.62254],[-0.72844,51.62247],[-0.7284,51.62246],[-0.72846,51.62226],[-0.72861,51.62227],[-0.72864,51.62214],[-0.7285,51.62212],[-0.72851,51.62211],[-0.72763,51.62201],[-0.72757,51.6222],[-0.72785,51.62223],[-0.72775,51.62255],[-0.72836,51.62262]]]]}},
{ "type":"Feature","properties":{"osm_way_id":"46428396","name":"Sainsbury's","building":"yes","shop":"supermarket","other":{"brand":"Sainsbury's","brand:wikidata":"Q152096"}}, "geometry":{"type":"MultiPolygon","coordinates":[[[[-0.6685,51.5207],[-0.66952,51.52063],[-0.66951,51.52055],[-0.66966,51.52054],[-0.66963,51.52035],[-0.66986,51.52034],[-0.66985,51.52024],[-0.66959,51.52025],[-0.66954,51.51997],[-0.66831,51.52005],[-0.66836,51.52033],[-0.66843,51.52033],[-0.6685,51.5207]]]]}},
{ "type":"Feature","properties":{"osm_way_id":"62069053","name":"Aldi","building":"shop","shop":"supermarket","other":{"brand":"ALDI","brand:wikidata":"Q41171672","brand:wikipedia":"en:Aldi"}}, "geometry":{"type":"MultiPolygon","coordinates":[[[[-0.99081,51.98906],[-0.9906,51.9894],[-0.98975,51.9892],[-0.98996,51.98886],[-0.99081,51.98906]]]]}},
{ "type":"Feature","properties":{"osm_way_id":"75242440","name":"Tesco Amersham","building":"yes","shop":"supermarket","other":{"addr:city":"Amersham","addr:postcode":"HP7 0HA","addr:street":"London Road","brand":"Tesco","brand:wikidata":"Q487494","brand:wikipedia":"en:Tesco","fhrs:id":"355951","operator":"Tesco","source:addr":"fhrs opendata","toilets:wheelchair":"yes","wheelchair":"yes"}}, "geometry":{"type":"MultiPolygon","coordinates":[[[[-0.61195,51.66673],[-0.61108,51.66642],[-0.61105,51.66646],[-0.61091,51.66641],[-0.61094,51.66638],[-0.61058,51.66627],[-0.61068,51.66613],[-0.61076,51.66602],[-0.61075,51.666],[-0.61073,51.66595],[-0.61069,51.66587],[-0.61064,51.66577],[-0.61086,51.66573],[-0.61085,51.66572],[-0.61085,51.6657],[-0.61102,51.66568],[-0.61102,51.6657],[-0.61103,51.66571],[-0.61227,51.6661],[-0.61223,51.66614],[-0.61232,51.66617],[-0.6122,51.6663],[-0.61214,51.66628],[-0.612,51.66643],[-0.61217,51.66649],[-0.61195,51.66673]]]]}},
{ "type":"Feature","properties":{"osm_way_id":"88022619","name":"Tesco","building":"retail","shop":"supermarket","other":{"brand":"Tesco","alt_name":"Tesco Gerrards Cross Superstore","operator":"Tesco","addr:city":"Gerrards Cross","addr:street":"Packhorse Road","addr:postcode":"SL9 8ER","brand:wikidata":"Q487494","brand:wikipedia":"en:Tesco"}}, "geometry":{"type":"MultiPolygon","coordinates":[[[[-0.55312,51.58817],[-0.55344,51.58785],[-0.55213,51.58734],[-0.55201,51.58746],[-0.55218,51.58752],[-0.55196,51.58774],[-0.55263,51.588],[-0.55265,51.58798],[-0.55312,51.58817]]]]}},
{ "type":"Feature","properties":{"osm_way_id":"88305975","name":"The Co-operative Food","building":"yes","shop":"supermarket","other":{"fhrs:id":"356067","addr:city":"Great Missenden","wheelchair":"yes","addr:street":"Station Approach","source:addr":"FHRS Open Data","addr:postcode":"HP16 9AZ","addr:housenumber":"12-16","fhrs:local_authority_id":"09\/00062\/FSUPM"}}, "geometry":{"type":"MultiPolygon","coordinates":[[[[-0.70846,51.70407],[-0.7082,51.70377],[-0.7084,51.70371],[-0.70854,51.70387],[-0.70866,51.704],[-0.70846,51.70407]]]]}},
{ "type":"Feature","properties":{"osm_way_id":"89541601","name":"Sainsbury's","building":"yes","shop":"supermarket","other":{"addr:postcode":"HP9 1QH","addr:street":"Maxwell Road","brand":"Sainsbury's","brand:wikidata":"Q152096","fhrs:id":"777066","website":"https:\/\/stores.sainsburys.co.uk\/0739\/beaconsfield"}}, "geometry":{"type":"MultiPolygon","coordinates":[[[[-0.6436,51.60993],[-0.64352,51.61003],[-0.64264,51.61021],[-0.64263,51.61019],[-0.6426,51.61019],[-0.64252,51.61003],[-0.64255,51.61003],[-0.64243,51.6098],[-0.64248,51.60979],[-0.64241,51.60966],[-0.64238,51.60966],[-0.64232,51.60954],[-0.6425,51.60951],[-0.64247,51.60946],[-0.64342,51.60927],[-0.64379,51.60973],[-0.64364,51.60976],[-0.64363,51.60974],[-0.64351,51.60976],[-0.6436,51.60993]]]]}},
{ "type":"Feature","properties":{"osm_way_id":"93723134","name":"Co-op","building":"yes","shop":"supermarket","other":{"fhrs:id":"946760","website":"https:\/\/finder.coop.co.uk\/food\/store\/HP27-0DZ\/11-bell-street","addr:street":"Bell Street","addr:postcode":"HP27 0DZ","addr:housenumber":"11"}}, "geometry":{"type":"MultiPolygon","coordinates":[[[[-0.8327,51.7222],[-0.83237,51.72197],[-0.83221,51.72206],[-0.83254,51.72229],[-0.8327,51.7222]]]]}},
{ "type":"Feature","properties":{"osm_way_id":"98604502","name":"Sainsbury's","building":"retail","shop":"supermarket","other":{"addr:postcode":"HP11 2DN","addr:street":"Oxford Road","brand":"Sainsbury's","brand:wikidata":"Q152096","fhrs:id":"536867","website":"https:\/\/stores.sainsburys.co.uk\/2393\/high-wycombe"}}, "geometry":{"type":"MultiPolygon","coordinates":[[[[-0.7556,51.63283],[-0.75578,51.63273],[-0.75593,51.63255],[-0.75593,51.63242],[-0.75567,51.63216],[-0.75507,51.63159],[-0.75481,51.63172],[-0.75468,51.63169],[-0.75461,51.63171],[-0.75465,51.63175],[-0.75458,51.63178],[-0.75461,51.6318],[-0.75451,51.63186],[-0.75452,51.63187],[-0.75442,51.63192],[-0.75463,51.63209],[-0.75509,51.63247],[-0.75508,51.6325],[-0.75515,51.63251],[-0.75546,51.63282],[-0.7555,51.63286],[-0.7556,51.63283]]]]}},
{ "type":"Feature","properties":{"osm_way_id":"109161163","name":"Loudwater Tesco","building":"yes","shop":"supermarket","other":{"brand":"Tesco","brand:wikidata":"Q487494","brand:wikipedia":"en:Tesco","operator":"Tesco"}}, "geometry":{"type":"MultiPolygon","coordinates":[[[[-0.69304,51.6045],[-0.6923,51.60445],[-0.69228,51.60454],[-0.69217,51.60461],[-0.69214,51.6048],[-0.69236,51.60482],[-0.69229,51.60517],[-0.69281,51.6052],[-0.69277,51.60547],[-0.69291,51.60548],[-0.69303,51.60541],[-0.69304,51.60525],[-0.69309,51.60525],[-0.69325,51.6046],[-0.69303,51.60459],[-0.69304,51.6045]]]]}},
{ "type":"Feature","properties":{"osm_way_id":"131750389","name":"Tesco","building":"yes","shop":"supermarket","other":{"addr:city":"Aylesbury","addr:postcode":"HP20 1PQ","addr:street":"Tring Road","alt_name":"Tesco AYlesbury Tring Road Superstore","brand":"Tesco","brand:wikidata":"Q487494","brand:wikipedia":"en:Tesco","contact:website":"https:\/\/www.tesco.com\/store-locator\/aylesbury\/tring-rd","fhrs:id":"369231","opening_hours":"Mo 06 - Sa 24 Su 10:00-16:00"}}, "geometry":{"type":"MultiPolygon","coordinates":[[[[-0.79942,51.8162],[-0.79976,51.81612],[-0.79975,51.8161],[-0.79984,51.81607],[-0.79983,51.81606],[-0.79995,51.81603],[-0.79996,51.81604],[-0.80014,51.816],[-0.80019,51.816],[-0.80021,51.81605],[-0.80053,51.81597],[-0.80052,51.81595],[-0.80064,51.81593],[-0.80079,51.81617],[-0.80084,51.81616],[-0.80074,51.81602],[-0.80101,51.81595],[-0.80099,51.81594],[-0.80106,51.81592],[-0.80111,51.81599],[-0.80102,51.81601],[-0.80111,51.81614],[-0.80102,51.81617],[-0.80105,51.81622],[-0.80093,51.81625],[-0.80097,51.8163],[-0.80123,51.81623],[-0.80128,51.81631],[-0.80102,51.81637],[-0.80108,51.81647],[-0.80129,51.81642],[-0.80135,51.81651],[-0.80054,51.81671],[-0.80055,51.81672],[-0.80039,51.81677],[-0.80041,51.81679],[-0.80022,51.81683],[-0.80017,51.81677],[-0.7999,51.81684],[-0.79953,51.81629],[-0.79948,51.81627],[-0.79942,51.8162]]]]}},
{ "type":"Feature","properties":{"osm_way_id":"133744251","name":"Sainsbury's","building":"yes","shop":"supermarket","other":{"brand":"Sainsbury's","fhrs:id":"369244","website":"https:\/\/stores.sainsburys.co.uk\/0215\/aylesbury","alt_name":"Sainsbury's Aylesbury Superstore","addr:city":"Aylesbury","addr:street":"Buckingham Street","addr:postcode":"HP20 2LA","opening_hours":"Mo-Sa 07:00-20:00; Su 10:00-16:00","brand:wikidata":"Q152096","brand:wikipedia":"en:Sainsbury's","addr:housenumber":"13-19"}}, "geometry":{"type":"MultiPolygon","coordinates":[[[[-0.81274,51.81749],[-0.81266,51.8175],[-0.81241,51.81769],[-0.8122,51.81788],[-0.81237,51.81795],[-0.81232,51.818],[-0.81234,51.81801],[-0.81232,51.81803],[-0.81254,51.81813],[-0.81263,51.818],[-0.81274,51.81792],[-0.81291,51.81783],[-0.81298,51.81779],[-0.81274,51.81749]]]]}},
{ "type":"Feature","properties":{"osm_way_id":"133795996","name":"Morrisons","building":"supermarket","shop":"supermarket","other":{"ref":"291","brand":"Morrisons","fhrs:id":"369298","alt_name":"Morrisons Aylesbury","addr:city":"Aylesbury","wheelchair":"yes","addr:street":"Station Way","addr:country":"GB","addr:postcode":"HP20 2HX","contact:phone":"+44 1296 392 055","opening_hours":"Mo-Sa 07:00-22:00; Su 10:00-16:00","brand:wikidata":"Q922344","brand:wikipedia":"en:Morrisons","contact:twitter":"@Morrisons","contact:website":"https:\/\/my.morrisons.com\/storefinder\/291","contact:facebook":"http:\/\/www.facebook.com\/morrisons"}}, "geometry":{"type":"MultiPolygon","coordinates":[[[[-0.81735,51.81534],[-0.81758,51.81498],[-0.8175,51.81496],[-0.81757,51.81485],[-0.81756,51.81484],[-0.81757,51.81482],[-0.81747,51.8148],[-0.81744,51.81485],[-0.81696,51.81473],[-0.81699,51.81468],[-0.81662,51.81459],[-0.81659,51.81464],[-0.81655,51.81464],[-0.8165,51.81474],[-0.81652,51.81474],[-0.81632,51.81507],[-0.81638,51.81509],[-0.81628,51.81525],[-0.81695,51.81541],[-0.81735,51.81534]]]]}},
{ "type":"Feature","properties":{"osm_way_id":"173579146","name":"Tesco","building":"yes","shop":"supermarket","other":{"addr:postcode":"MK18 1AB","addr:street":"London Road","brand":"Tesco","brand:wikidata":"Q487494","brand:wikipedia":"en:Tesco","layer":"2"}}, "geometry":{"type":"MultiPolygon","coordinates":[[[[-0.98186,51.9891],[-0.9817,51.98886],[-0.98164,51.98888],[-0.9816,51.98882],[-0.98129,51.9889],[-0.98137,51.989],[-0.98105,51.98908],[-0.98103,51.98905],[-0.98059,51.98916],[-0.98064,51.98923],[-0.98053,51.98926],[-0.98081,51.98967],[-0.98098,51.98962],[-0.98104,51.98971],[-0.98242,51.98935],[-0.98234,51.98924],[-0.98196,51.98934],[-0.9818,51.98912],[-0.98186,51.9891]]]]}},
{ "type":"Feature","properties":{"osm_way_id":"173581052","name":"Waitrose","building":"yes","shop":"supermarket","other":{"addr:postcode":"MK18 1RS","addr:street":"Meadow Walk, High Street","brand":"Waitrose","brand:wikidata":"Q771734","brand:wikipedia":"en:Waitrose","official_name":"Waitrose & Partners","operator":"Waitrose & Partners","payment:cash":"yes","payment:credit_cards":"yes"}}, "geometry":{"type":"MultiPolygon","coordinates":[[[[-0.98521,52.00057],[-0.98503,52.0005],[-0.98521,52.00034],[-0.9849,52.0002],[-0.98448,52.00056],[-0.98497,52.00078],[-0.98505,52.00071],[-0.9852,52.00058],[-0.98521,52.00057]]]]}},
{ "type":"Feature","properties":{"osm_way_id":"175968075","name":"Lidl High Wycombe","building":"yes","shop":"supermarket","other":{"brand":"Lidl","brand:wikidata":"Q151954","brand:wikipedia":"en:Lidl","fhrs:id":"560398","source:building":"OS_OpenData_StreetView","wheelchair":"yes"}}, "geometry":{"type":"MultiPolygon","coordinates":[[[[-0.76368,51.63269],[-0.76351,51.633],[-0.7628,51.63285],[-0.76297,51.63254],[-0.76368,51.63269]]]]}},
{ "type":"Feature","properties":{"osm_way_id":"186271370","name":"Tesco","building":"retail","shop":"supermarket","other":{"addr:city":"Princes Risborough","addr:postcode":"HP27 9TS","addr:street":"Longwick Road","alt_name":"Tesco Princes Risborough Superstore","brand":"Tesco","brand:wikidata":"Q487494","brand:wikipedia":"en:Tesco","contact:website":"https:\/\/www.tesco.com\/store-locator\/princes-risborough\/longwick-rd","fhrs:id":"194864","opening_hours":"Mo-Sa 06:00-24:00; Su 10:00-16:00"}}, "geometry":{"type":"MultiPolygon","coordinates":[[[[-0.83427,51.72578],[-0.83386,51.72596],[-0.83372,51.72584],[-0.83368,51.72586],[-0.83346,51.72567],[-0.8335,51.72565],[-0.83334,51.72551],[-0.83356,51.72541],[-0.8335,51.72535],[-0.83368,51.72527],[-0.83427,51.72578]]]]}},
{ "type":"Feature","properties":{"osm_way_id":"186370789","name":"M&S Simply Food","building":"retail","shop":"supermarket","other":{"addr:city":"Princes Risborough","addr:housenumber":"2","addr:postcode":"HP27 0AN","addr:street":"Horns Lane","alt_name":"M&S Princes Risborough Simply Food","brand":"M&S Simply Food","brand:wikidata":"Q714491","fhrs:id":"499520","opening_hours":"Mo-Sa 08:00-20:00; Su 10:00-16:00","website":"https:\/\/www.marksandspencer.com\/stores\/princes-risborough-simply-food-4310"}}, "geometry":{"type":"MultiPolygon","coordinates":[[[[-0.8301,51.7228],[-0.82991,51.72289],[-0.82996,51.72293],[-0.82977,51.72302],[-0.82961,51.7229],[-0.82962,51.7229],[-0.82944,51.72275],[-0.82975,51.7226],[-0.8299,51.72272],[-0.82996,51.72269],[-0.8301,51.7228]]]]}},
{ "type":"Feature","properties":{"osm_way_id":"188149829","name":"Tesco Extra","building":"yes","shop":"supermarket","other":{"addr:housename":"Broadfields Retail Park","addr:postcode":"HP19 8BU","addr:street":"Bicester Road","brand":"Tesco Extra","brand:wikidata":"Q25172225","brand:wikipedia":"en:Tesco Extra","fhrs:id":"369364","layer":"1","operator":"Tesco","wheelchair":"yes"}}, "geometry":{"type":"MultiPolygon","coordinates":[[[[-0.83721,51.8219],[-0.83727,51.82192],[-0.83739,51.82196],[-0.8374,51.82193],[-0.83762,51.822],[-0.83785,51.82171],[-0.83771,51.82167],[-0.8379,51.82144],[-0.83763,51.82136],[-0.83773,51.82123],[-0.83631,51.82079],[-0.83622,51.8209],[-0.83597,51.82082],[-0.83589,51.82092],[-0.83559,51.82083],[-0.83551,51.8208],[-0.83561,51.82068],[-0.83551,51.82064],[-0.83536,51.82085],[-0.83539,51.82086],[-0.83536,51.8209],[-0.83548,51.82094],[-0.83553,51.8209],[-0.83591,51.82101],[-0.83604,51.82106],[-0.83581,51.82134],[-0.83636,51.82151],[-0.83633,51.82154],[-0.83654,51.82161],[-0.83657,51.82157],[-0.83717,51.82176],[-0.8371,51.82184],[-0.83719,51.82187],[-0.83717,51.82189],[-0.83721,51.8219]]]]}},
{ "type":"Feature","properties":{"osm_way_id":"188150193","name":"ALDI","building":"yes","shop":"supermarket","other":{"addr:city":"Aylesbury","addr:housenumber":"143","addr:postcode":"HP20 1BT","addr:street":"Cambridge Street","brand":"ALDI","brand:wikidata":"Q41171672","brand:wikipedia":"en:Aldi","fhrs:id":"370222","opening_hours":"Mo-Sa 08:00-22:00; Su 10:00-16:00","website":"https:\/\/www.aldi.co.uk\/store\/s-uk-E0524"}}, "geometry":{"type":"MultiPolygon","coordinates":[[[[-0.80802,51.81965],[-0.80757,51.81924],[-0.80737,51.81932],[-0.80733,51.81928],[-0.80729,51.81929],[-0.80726,51.81926],[-0.80719,51.81929],[-0.80772,51.81978],[-0.80802,51.81965]]]]}},
{ "type":"Feature","properties":{"osm_way_id":"188150239","name":"Lidl","building":"retail","shop":"supermarket","other":{"addr:city":"Aylesbury","addr:country":"GB","addr:housename":"Aylesbury Shopping Park","addr:postcode":"HP20 1DG","addr:street":"Cambridge Close","addr:unit":"13","brand":"Lidl","brand:wikidata":"Q151954","brand:wikipedia":"en:Lidl","fhrs:id":"370143","opening_hours":"Mo-Sa 08:00-22:00; Su 10:00-16:00"}}, "geometry":{"type":"MultiPolygon","coordinates":[[[[-0.80845,51.82037],[-0.80834,51.82025],[-0.80756,51.82053],[-0.80768,51.82065],[-0.80845,51.82037]]]]}},
{ "type":"Feature","properties":{"osm_way_id":"188150912","name":"Co-op","building":"yes","shop":"supermarket","other":{"fhrs:id":"369677","addr:street":"Oxford Road","addr:postcode":"HP17 8PB"}}, "geometry":{"type":"MultiPolygon","coordinates":[[[[-0.85802,51.80427],[-0.85804,51.80417],[-0.85777,51.80416],[-0.85775,51.80429],[-0.85785,51.8043],[-0.85785,51.80426],[-0.85802,51.80427]]]]}},
{ "type":"Feature","properties":{"osm_way_id":"222609995","name":"Sainsbury's","building":"retail","shop":"supermarket","other":{"addr:housenumber":"14-22","addr:postcode":"SL7 2NB","addr:street":"West Street","branch":"Marlow","brand":"Sainsbury's","brand:wikidata":"Q152096","brand:wikipedia":"en:Sainsbury's","building:colour":"white","building:levels":"1","fhrs:id":"540111","image":"https:\/\/archive.org\/details\/marlow-2019-05-24\/DSCN9607.JPG","old_end_date":"2011","old_name":"Waitrose","old_start_date":"1972","opening_hours":"Mo-Sa 07:00-22:00; Su 10:00-16:00","roof:colour":"grey","source:building":"Bing","start_date":"2011","toilets:wheelchair":"no","website":"https:\/\/stores.sainsburys.co.uk\/2270\/marlow","wheelchair":"yes","wheelchair:description":"Accessible public toilet just off parking area."}}, "geometry":{"type":"MultiPolygon","coordinates":[[[[-0.77845,51.57194],[-0.7784,51.57191],[-0.77833,51.57187],[-0.77815,51.57176],[-0.77807,51.5717],[-0.778,51.57166],[-0.77795,51.57166],[-0.77789,51.57163],[-0.77788,51.57163],[-0.77785,51.57163],[-0.77766,51.57151],[-0.77764,51.5715],[-0.77744,51.57164],[-0.77746,51.57165],[-0.7776,51.57173],[-0.77764,51.57176],[-0.77755,51.57182],[-0.77787,51.57201],[-0.77796,51.57195],[-0.77819,51.57209],[-0.77845,51.57194]]]]}},
{ "type":"Feature","properties":{"osm_way_id":"231737039","name":"Co-op","building":"yes","shop":"supermarket","other":{"fhrs:id":"369800","addr:city":"Winslow","addr:street":"High Street","addr:postcode":"MK18 3DQ","addr:housenumber":"60"}}, "geometry":{"type":"MultiPolygon","coordinates":[[[[-0.88125,51.94362],[-0.88126,51.94349],[-0.88103,51.94349],[-0.88103,51.94362],[-0.88125,51.94362]]]]}},
{ "type":"Feature","properties":{"osm_way_id":"231737042","name":"Budgens","building":"yes","shop":"supermarket","other":{"addr:housename":"Winslow Service Station","addr:postcode":"MK18 3DR","addr:street":"High Street","brand":"Budgens","brand:wikidata":"Q4985016","brand:wikipedia":"en:Budgens"}}, "geometry":{"type":"MultiPolygon","coordinates":[[[[-0.88245,51.94653],[-0.88264,51.94649],[-0.88281,51.94667],[-0.88274,51.94669],[-0.88278,51.94673],[-0.88261,51.9468],[-0.88254,51.94673],[-0.88264,51.9467],[-0.88253,51.94659],[-0.88251,51.9466],[-0.88245,51.94653]]]]}},
{ "type":"Feature","properties":{"osm_way_id":"284515568","name":"Tesco Express","building":"yes","shop":"supermarket","other":{"brand":"Tesco Express","brand:wikidata":"Q98456772","fhrs:id":"608635"}}, "geometry":{"type":"MultiPolygon","coordinates":[[[[-0.72116,51.62056],[-0.72095,51.62048],[-0.72107,51.62036],[-0.72124,51.62043],[-0.72121,51.62046],[-0.72125,51.62047],[-0.72116,51.62056]]]]}},
{ "type":"Feature","properties":{"osm_way_id":"294996990","name":"Asda","building":"retail","shop":"supermarket","other":{"brand":"Asda","fhrs:id":"636649","smoking":"no","operator":"Asda Stores Ltd","addr:city":"Aylesbury","wheelchair":"yes","addr:street":"Mandeville Road","addr:postcode":"HP21 8BD","brand:wikidata":"Q297410","brand:wikipedia":"en:Asda","contact:twitter":"@asda","contact:website":"https:\/\/storelocator.asda.com\/south-east\/aylesbury\/mandeville-road","contact:facebook":"https:\/\/www.facebook.com\/asda\/","toilets:wheelchair":"no"}}, "geometry":{"type":"MultiPolygon","coordinates":[[[[-0.80508,51.79714],[-0.805,51.79703],[-0.80492,51.79705],[-0.80459,51.79662],[-0.80412,51.79676],[-0.80427,51.79695],[-0.80451,51.79727],[-0.80483,51.79717],[-0.80485,51.7972],[-0.80508,51.79714]]]]}},
{ "type":"Feature","properties":{"osm_way_id":"296751843","name":"Budgens","building":"commercial","shop":"supermarket","other":{"addr:county":"Buckinghamshire","addr:postcode":"HP22 6EA","addr:street":"High Street","addr:town":"Wendover","brand":"Budgens","brand:wikidata":"Q4985016","brand:wikipedia":"en:Budgens","fhrs:id":"369733","source:addr":"FHRS Open Data"}}, "geometry":{"type":"MultiPolygon","coordinates":[[[[-0.74463,51.7625],[-0.74452,51.76255],[-0.74438,51.76243],[-0.74433,51.76245],[-0.74424,51.76237],[-0.74418,51.7624],[-0.74401,51.76225],[-0.74424,51.76215],[-0.74463,51.7625]]]]}},
{ "type":"Feature","properties":{"osm_way_id":"388486278","name":"Co-op Food","building":"yes","shop":"supermarket","other":{"brand":"Co-op Food","brand:wikidata":"Q3277439","brand:wikipedia":"en:Co-op Food"}}, "geometry":{"type":"MultiPolygon","coordinates":[[[[-0.71091,51.579],[-0.71108,51.57888],[-0.71083,51.57875],[-0.71074,51.57882],[-0.71079,51.57885],[-0.71076,51.57887],[-0.71082,51.5789],[-0.7108,51.57891],[-0.71082,51.57893],[-0.7108,51.57894],[-0.71091,51.579]]]]}},
{ "type":"Feature","properties":{"osm_way_id":"392490243","name":"Waitrose","building":"yes","shop":"supermarket","other":{"brand":"Waitrose","alt_name":"Waitrose Gerrards Cross","operator":"Waitrose & Partners","addr:city":"Gerrards Cross","addr:street":"Station Road","addr:postcode":"SL9 8ES","official_name":"Waitrose & Partners","brand:wikidata":"Q771734","brand:wikipedia":"en:Waitrose & Partners","addr:housenumber":"31-33"}}, "geometry":{"type":"MultiPolygon","coordinates":[[[[-0.55044,51.58823],[-0.55007,51.58806],[-0.55039,51.58779],[-0.55076,51.58796],[-0.55044,51.58823]]]]}},
{ "type":"Feature","properties":{"osm_way_id":"422439473","name":"Waitrose","building":"yes","shop":"supermarket","other":{"brand":"Waitrose","brand:wikidata":"Q771734","brand:wikipedia":"en:Waitrose","official_name":"Waitrose & Partners","opening_hours":"Mo-Sa 07:00-22:00; Su 10:00-16:00","operator":"Waitrose & Partners","website":"https:\/\/www.waitrose.com\/bf_home\/bf\/607.html"}}, "geometry":{"type":"MultiPolygon","coordinates":[[[[-0.76251,51.61436],[-0.76231,51.61396],[-0.76254,51.61392],[-0.76246,51.61375],[-0.76301,51.61365],[-0.76323,51.61407],[-0.76332,51.61405],[-0.76339,51.61419],[-0.76251,51.61436]]]]}},
{ "type":"Feature","properties":{"osm_way_id":"423224207","name":"Waitrose","building":"yes","shop":"supermarket","other":{"addr:housename":"Chapel House","addr:postcode":"SL7 1DD","addr:street":"Chapel Street","brand":"Waitrose","brand:wikidata":"Q771734","brand:wikipedia":"en:Waitrose & Partners","building:colour":"brown","building:levels":"2","building:material":"brick","fhrs:id":"631990","image":"https:\/\/archive.org\/details\/marlow-2019-05-24\/DSCN9511.JPG","official_name":"Waitrose & Partners","operator":"Waitrose & Partners","roof:colour":"grey","roof:levels":"1","toilets:wheelchair":"yes","website":"https:\/\/www.waitrose.com\/bf_home\/bf\/465.html","wheelchair":"yes"}}, "geometry":{"type":"MultiPolygon","coordinates":[[[[-0.77517,51.5734],[-0.77536,51.57332],[-0.77534,51.5733],[-0.77539,51.57328],[-0.7754,51.57329],[-0.77556,51.57322],[-0.77549,51.57317],[-0.77545,51.57314],[-0.77541,51.57315],[-0.77529,51.57305],[-0.77519,51.57309],[-0.77518,51.57308],[-0.77511,51.57311],[-0.77512,51.57312],[-0.77501,51.57318],[-0.77514,51.5733],[-0.77509,51.57332],[-0.77517,51.5734]]]]}},
{ "type":"Feature","properties":{"osm_way_id":"450075459","name":"Aldi","building":"yes","shop":"supermarket","other":{"brand":"ALDI","brand:wikidata":"Q41171672","brand:wikipedia":"en:Aldi"}}, "geometry":{"type":"MultiPolygon","coordinates":[[[[-0.83091,51.82375],[-0.83106,51.82357],[-0.83128,51.8233],[-0.83118,51.82327],[-0.83114,51.82331],[-0.83084,51.82322],[-0.83063,51.82347],[-0.8306,51.82346],[-0.83045,51.82364],[-0.8308,51.82375],[-0.83082,51.82372],[-0.83091,51.82375]]]]}},
{ "type":"Feature","properties":{"osm_way_id":"468665442","name":"Co-op Food","building":"yes","shop":"supermarket","other":{"brand":"Co-op Food","brand:wikidata":"Q3277439","brand:wikipedia":"en:Co-op Food"}}, "geometry":{"type":"MultiPolygon","coordinates":[[[[-0.71371,51.57959],[-0.71349,51.57969],[-0.71357,51.5798],[-0.71376,51.57975],[-0.71392,51.57974],[-0.71371,51.57959]]]]}},
{ "type":"Feature","properties":{"osm_way_id":"628646510","name":"Aldi","building":"retail","shop":"supermarket","other":{"addr:city":"High Wycombe","addr:country":"GB","addr:postcode":"HP11 2RX","addr:street":"Baker Street","brand":"ALDI","brand:wikidata":"Q41171672","brand:wikipedia":"en:Aldi","contact:website":"https:\/\/www.aldi.co.uk\/store\/s-uk-E1311","fhrs:id":"1070155","source:addr":"fhrs opendata"}}, "geometry":{"type":"MultiPolygon","coordinates":[[[[-0.76045,51.63254],[-0.75997,51.63243],[-0.75983,51.63273],[-0.75973,51.63291],[-0.76002,51.63298],[-0.76,51.63302],[-0.76015,51.63305],[-0.76045,51.63254]]]]}},
{ "type":"Feature","properties":{"osm_way_id":"706663605","name":"Co-op Food","building":"yes","shop":"supermarket","other":{"addr:city":"Chalfont St Peter, Gerrards Cross","addr:postcode":"SL9 9HE","addr:street":"Market Place","air_conditioning":"yes","brand":"Co-op Food","brand:wikidata":"Q3277439","brand:wikipedia":"en:Co-op Food","fhrs:id":"930659","opening_hours":"Mo-Fr 07:00-22:00; Su 10:00-16:00","operator":"The Co-operative Group","operator:wikidata":"Q117202","operator:wikipedia":"en:The Co-operative Group"}}, "geometry":{"type":"MultiPolygon","coordinates":[[[[-0.55791,51.6064],[-0.55774,51.60644],[-0.55758,51.60647],[-0.55766,51.60664],[-0.5576,51.60665],[-0.55763,51.60671],[-0.55753,51.60673],[-0.55757,51.6068],[-0.55762,51.60679],[-0.55769,51.60692],[-0.55813,51.60683],[-0.55791,51.6064]]]]}},
{ "type":"Feature","properties":{"osm_way_id":"793084290","building":"yes"},"geometry":{"type":"MultiPolygon","coordinates":[[[[-0.76389,51.57849],[-0.76385,51.57844],[-0.76397,51.57841],[-0.76401,51.57845],[-0.76389,51.57849]]]]}},
{ "type":"Feature","properties":{"osm_way_id":"853023148","name":"Lidl","building":"yes","shop":"supermarket","other":{"addr:country":"GB","addr:housenumber":"114","addr:postcode":"MK18 7RB","addr:street":"Needlepin Way","brand":"Lidl","brand:wikidata":"Q151954","brand:wikipedia":"en:Lidl","fhrs:id":"1111754"}}, "geometry":{"type":"MultiPolygon","coordinates":[[[[-0.97686,51.98956],[-0.97676,51.98946],[-0.97683,51.98944],[-0.97669,51.98928],[-0.97759,51.98897],[-0.97783,51.98923],[-0.97686,51.98956]]]]}},
{ "type":"Feature","properties":{"osm_way_id":"944795832","name":"M&S Food","building":"yes","shop":"supermarket","other":{"addr:city":"Aylesbury","addr:postcode":"HP19 8BU","addr:street":"Broadfields Retail Park","brand":"M&S Foodhall","brand:wikidata":"Q714491","brand:wikipedia":"en:Marks & Spencer","wheelchair":"yes"}}, "geometry":{"type":"MultiPolygon","coordinates":[[[[-0.83607,51.82399],[-0.83641,51.82357],[-0.83677,51.82367],[-0.83642,51.8241],[-0.83607,51.82399]]]]}}
]
}
