{
"type": "FeatureCollection",
"features": [
{ "type":"Feature","properties":{"osm_id":"2079929792","name":"Tesco Express","other":{"addr:city":"Winterton","addr:housenumber":"5","addr:postcode":"DN15 9RN","addr:street":"King Street","brand":"Tesco Express","brand:wikidata":"Q98456772","brand:wikipedia":"en:Tesco","contact:website":"https:\/\/www.tesco.com\/store-locator\/winterton\/7-king-st","fhrs:id":"705475","opening_hours":"Mo-Su 06:00-23:00","operator":"Tesco PLC","shop":"supermarket","wheelchair":"yes"}}, "geometry":{"type":"Point","coordinates":[-0.59698,53.65412 ]}},
{ "type":"Feature","properties":{"osm_id":"2440438902","name":"Lincolnshire Co-op","other":{"shop":"supermarket","operator":"The Lincolnshire Co-operative Society"}}, "geometry":{"type":"Point","coordinates":[-0.665,53.56189 ]}},
{ "type":"Feature","properties":{"osm_id":"3245865642","name":"The Co-operative Food","other":{"shop":"supermarket","operator":"The Co-operative Group"}}, "geometry":{"type":"Point","coordinates":[-0.3304,53.61792 ]}},
{ "type":"Feature","properties":{"osm_id":"3245885674","name":"Lincolnshire Co-op","other":{"shop":"supermarket"}}, "geometry":{"type":"Point","coordinates":[-0.84183,53.48955 ]}},
{ "type":"Feature","properties":{"osm_id":"3916887635","name":"Heron Foods","other":{"shop":"supermarket","brand":"Heron Foods","fhrs:id":"214471","addr:city":"Scunthorpe","addr:street":"Broadway","addr:country":"GB","addr:postcode":"DN16 2SN","brand:wikidata":"Q5743472","brand:wikipedia":"en:Heron Foods","contact:website":"https:\/\/heronfoods.com\/storelocator\/store-details\/ashby","addr:housenumber":"22"}}, "geometry":{"type":"Point","coordinates":[-0.64888,53.56654 ]}},
{ "type":"Feature","properties":{"osm_id":"4807858721","name":"Motyl","other":{"addr:city":"Scunthorpe","addr:postcode":"DN15 6LU","addr:street":"Robert Street","cuisine":"polish","fhrs:id":"984068","shop":"supermarket","source:addr":"FHRS Open Data"}}, "geometry":{"type":"Point","coordinates":[-0.65007,53.59089 ]}},
{ "type":"Feature","properties":{"osm_id":"7255144547","name":"Heron Foods","other":{"shop":"supermarket","brand":"Heron Foods","fhrs:id":"1197847","old_name":"Lidl","addr:city":"Barton Upon Humber","addr:street":"High Street","addr:country":"GB","addr:postcode":"DN18 5PU","brand:wikidata":"Q5743472","brand:wikipedia":"en:Heron Foods","contact:website":"https:\/\/heronfoods.com\/storelocator\/store-details\/barton-relocation"}}, "geometry":{"type":"Point","coordinates":[-0.44399,53.68564 ]}},
{ "type":"Feature","properties":{"osm_id":"8063535570","name":"Aldi","other":{"brand":"ALDI","brand:wikidata":"Q41171672","brand:wikipedia":"en:Aldi","contact:website":"https:\/\/www.aldi.co.uk\/store\/s-uk-E1191","shop":"supermarket"}}, "geometry":{"type":"Point","coordinates":[-0.50126,53.54974 ]}},
{ "type":"Feature","properties":{"osm_id":"9217224426","name":"Lidl","other":{"addr:country":"GB","addr:postcode":"DN16 1BA","addr:street":"Dudley Road","brand":"Lidl","brand:wikidata":"Q151954","brand:wikipedia":"en:Lidl","fhrs:id":"1245756","shop":"supermarket","survey:date":"2021-02-04"}}, "geometry":{"type":"Point","coordinates":[-0.62273,53.56699 ]}},
{ "type":"Feature","properties":{"osm_way_id":"26644624","name":"Morrisons","building":"supermarket","shop":"supermarket","other":{"brand":"Morrisons","wheelchair":"yes","brand:wikidata":"Q922344","brand:wikipedia":"en:Morrisons"}}, "geometry":{"type":"MultiPolygon","coordinates":[[[[-0.61308,53.56419],[-0.61311,53.56419],[-0.61424,53.56421],[-0.61423,53.56456],[-0.61431,53.56456],[-0.6143,53.56475],[-0.61438,53.56476],[-0.61437,53.56491],[-0.61444,53.56494],[-0.61443,53.56504],[-0.61432,53.5651],[-0.61416,53.5651],[-0.61408,53.56506],[-0.6137,53.56506],[-0.6137,53.56502],[-0.61363,53.56502],[-0.61364,53.56495],[-0.61342,53.56495],[-0.61343,53.5649],[-0.61324,53.5649],[-0.61324,53.56477],[-0.61309,53.56476],[-0.61311,53.56448],[-0.61307,53.56448],[-0.61283,53.56432],[-0.61308,53.56419]]]]}},
{ "type":"Feature","properties":{"osm_way_id":"26645095","name":"The Food Warehouse","building":"yes","shop":"supermarket","other":{"addr:city":"Scunthorpe","addr:housenumber":"D","addr:place":"Lakeside Retail Park","addr:postcode":"DN16 3UA","brand":"The Food Warehouse","brand:wikidata":"Q87263899","fhrs:id":"1221407","operator":"Iceland","website":"https:\/\/www.thefoodwarehouse.com\/store-locator\/scunthorpe","wheelchair":"yes"}}, "geometry":{"type":"MultiPolygon","coordinates":[[[[-0.61834,53.56451],[-0.61781,53.5645],[-0.6178,53.56459],[-0.61774,53.56459],[-0.61774,53.56468],[-0.61781,53.56468],[-0.61781,53.56478],[-0.61833,53.56479],[-0.61834,53.56451]]]]}},
{ "type":"Feature","properties":{"osm_way_id":"35392648","name":"Sainsbury's","building":"supermarket","shop":"supermarket","other":{"addr:city":"Scunthorpe","addr:postcode":"DN15 7RQ","addr:street":"Doncaster Road","brand":"Sainsbury's","brand:wikidata":"Q152096","brand:wikipedia":"en:Sainsbury's","fhrs:id":"213552","old_name":"Safeway's","source:addr":"FHRS Open Data","toilets:wheelchair":"yes","wheelchair":"yes"}}, "geometry":{"type":"MultiPolygon","coordinates":[[[[-0.66088,53.59161],[-0.66102,53.59219],[-0.66042,53.59224],[-0.66044,53.59236],[-0.65977,53.59241],[-0.65973,53.59225],[-0.65951,53.59227],[-0.65939,53.59173],[-0.66088,53.59161]]]]}},
{ "type":"Feature","properties":{"osm_way_id":"35819599","name":"Asda","building":"yes","shop":"supermarket","other":{"brand":"Asda","fhrs:id":"213403","operator":"Asda Stores Ltd","addr:city":"Scunthorpe","wheelchair":"yes","addr:street":"Burringham Road","source:addr":"FHRS Open Data","addr:country":"GB","addr:postcode":"DN17 2XF","brand:wikidata":"Q297410","brand:wikipedia":"en:Asda","contact:website":"https:\/\/storelocator.asda.com\/yorkshire-&-humber\/scunthorpe\/burringham-road"}}, "geometry":{"type":"MultiPolygon","coordinates":[[[[-0.6852,53.56579],[-0.68511,53.56578],[-0.68512,53.5656],[-0.68512,53.56557],[-0.68523,53.56556],[-0.68523,53.56571],[-0.68544,53.56571],[-0.68543,53.56528],[-0.68523,53.56528],[-0.68523,53.56521],[-0.68511,53.5652],[-0.68511,53.56498],[-0.68427,53.56498],[-0.68426,53.56534],[-0.6842,53.5654],[-0.68411,53.56541],[-0.68411,53.56547],[-0.68397,53.56548],[-0.68391,53.56554],[-0.68366,53.56554],[-0.68366,53.56576],[-0.68416,53.56576],[-0.68416,53.56595],[-0.68477,53.56595],[-0.68521,53.56595],[-0.6852,53.56579]]]]}},
{ "type":"Feature","properties":{"osm_way_id":"39704793","name":"Aldi","building":"yes","shop":"supermarket","other":{"addr:city":"Scunthorpe","addr:postcode":"DN16 2JU","addr:street":"Ashby High Street","brand":"ALDI","brand:wikidata":"Q41171672","brand:wikipedia":"en:Aldi","fhrs:id":"214215","source:addr":"FHRS Open Data"}}, "geometry":{"type":"MultiPolygon","coordinates":[[[[-0.64096,53.56655],[-0.64053,53.56654],[-0.64053,53.56602],[-0.64097,53.56603],[-0.64096,53.56655]]]]}},
{ "type":"Feature","properties":{"osm_way_id":"41422035","name":"Aldi","building":"retail","shop":"supermarket","other":{"addr:postcode":"DN15 8GR","brand":"ALDI","brand:wikidata":"Q41171672","brand:wikipedia":"en:Aldi","payment:cash":"yes","payment:contactless":"yes"}}, "geometry":{"type":"MultiPolygon","coordinates":[[[[-0.69357,53.59038],[-0.69356,53.59077],[-0.69442,53.59076],[-0.69442,53.5904],[-0.69357,53.59038]]]]}},
{ "type":"Feature","properties":{"osm_way_id":"41422036","name":"Tesco Extra","building":"yes","shop":"supermarket","other":{"brand":"Tesco Extra","operator":"Tesco","addr:city":"Scunthorpe","wheelchair":"yes","payment:cash":"yes","payment:visa":"yes","opening_hours":"24\/7","payment:coins":"yes","payment:notes":"yes","brand:wikidata":"Q25172225","brand:wikipedia":"en:Tesco Extra","payment:maestro":"yes","payment:mastercard":"yes","payment:debit_cards":"yes","payment:credit_cards":"yes","payment:electronic_purses":"yes"}}, "geometry":{"type":"MultiPolygon","coordinates":[[[[-0.69761,53.59102],[-0.69577,53.591],[-0.69574,53.59066],[-0.69572,53.5903],[-0.69765,53.59033],[-0.69761,53.59102]]]]}},
{ "type":"Feature","properties":{"osm_way_id":"114815583","name":"Co-op Food","building":"yes","shop":"supermarket","other":{"brand":"Co-op Food","wheelchair":"yes","brand:wikidata":"Q3277439","brand:wikipedia":"en:Co-op Food"}}, "geometry":{"type":"MultiPolygon","coordinates":[[[[-0.43825,53.68286],[-0.43822,53.68286],[-0.43818,53.68293],[-0.4382,53.68294],[-0.43816,53.68301],[-0.43807,53.68299],[-0.43805,53.68302],[-0.43788,53.68298],[-0.43806,53.68269],[-0.43832,53.68274],[-0.43825,53.68286]]]]}},
{ "type":"Feature","properties":{"osm_way_id":"157843180","name":"Iceland","building":"yes","shop":"supermarket","other":{"addr:city":"Scunthorpe","addr:postcode":"DN15 8NN","addr:street":"Holyrood Drive","addr:unit":"1a","brand":"Iceland","brand:wikidata":"Q721810","fhrs:id":"418959","source:addr":"FHRS Open Data"}}, "geometry":{"type":"MultiPolygon","coordinates":[[[[-0.6771,53.60897],[-0.67667,53.60899],[-0.6766,53.60867],[-0.67705,53.60864],[-0.6771,53.60897]]]]}},
{ "type":"Feature","properties":{"osm_way_id":"158204704","name":"Tesco","building":"supermarket","shop":"supermarket","other":{"brand":"Tesco","brand:wikidata":"Q487494","brand:wikipedia":"en:Tesco"}}, "geometry":{"type":"MultiPolygon","coordinates":[[[[-0.4934,53.55284],[-0.4931,53.5531],[-0.49307,53.55336],[-0.49385,53.55345],[-0.49392,53.55324],[-0.49397,53.55325],[-0.49399,53.5531],[-0.49395,53.5531],[-0.49402,53.5529],[-0.4934,53.55284]]]]}},
{ "type":"Feature","properties":{"osm_way_id":"161772114","name":"Asda","building":"yes","shop":"supermarket","other":{"brand":"Asda","fhrs:id":"214437","operator":"Asda Stores Ltd","addr:city":"Scunthorpe","addr:unit":"3","wheelchair":"yes","addr:street":"Carlton Street","source:addr":"FHRS Open Data","addr:country":"GB","addr:postcode":"DN15 6UD","brand:wikidata":"Q297410","brand:wikipedia":"en:Asda","contact:website":"https:\/\/storelocator.asda.com\/yorkshire-&-humber\/scunthorpe\/carlton-street"}}, "geometry":{"type":"MultiPolygon","coordinates":[[[[-0.64126,53.59057],[-0.64117,53.59033],[-0.64065,53.5904],[-0.64075,53.59064],[-0.64126,53.59057]]]]}},
{ "type":"Feature","properties":{"osm_way_id":"183272926","name":"Co-op","building":"yes","shop":"supermarket","other":{"fhrs:id":"214079","operator":"The Co-operative Group","addr:city":"Winterton","wheelchair":"yes","addr:street":"Market Street","designation":"The Co-operative Food","addr:postcode":"DN15 9PT","opening_hours":"Mo-Su 06:00-23:00","toilets:wheelchair":"no"}}, "geometry":{"type":"MultiPolygon","coordinates":[[[[-0.59766,53.65481],[-0.59731,53.65482],[-0.59729,53.65465],[-0.59743,53.65465],[-0.59743,53.65471],[-0.59765,53.65471],[-0.59766,53.65481]]]]}},
{ "type":"Feature","properties":{"osm_way_id":"186890529","name":"Aldi","building":"retail","shop":"supermarket","other":{"addr:city":"Scunthorpe","addr:postcode":"DN15 6AF","addr:street":"Glebe Road","brand":"ALDI","brand:wikidata":"Q41171672","brand:wikipedia":"en:Aldi","fhrs:id":"213837","source:addr":"FHRS Open Data"}}, "geometry":{"type":"MultiPolygon","coordinates":[[[[-0.6453,53.59629],[-0.6455,53.59587],[-0.64509,53.59582],[-0.64485,53.59625],[-0.6453,53.59629]]]]}},
{ "type":"Feature","properties":{"osm_way_id":"232834576","name":"Tesco","building":"store","shop":"supermarket","other":{"brand":"Tesco","fhrs:id":"213367","addr:city":"Barton Upon Humber","wheelchair":"yes","addr:street":"Maltkiln Road","source:addr":"FHRS Open Data","addr:postcode":"DN18 5JT","brand:wikidata":"Q487494","brand:wikipedia":"en:Tesco"}}, "geometry":{"type":"MultiPolygon","coordinates":[[[[-0.44212,53.69104],[-0.44176,53.69103],[-0.44177,53.69093],[-0.44134,53.69092],[-0.44136,53.69053],[-0.44213,53.69054],[-0.44211,53.69087],[-0.44219,53.69087],[-0.44219,53.69099],[-0.44212,53.69099],[-0.44212,53.69104]]]]}},
{ "type":"Feature","properties":{"osm_way_id":"235288525","name":"Lidl","building":"yes","shop":"supermarket","other":{"addr:country":"GB","addr:postcode":"DN20 8AR","addr:street":"Atherton Way","brand":"Lidl","brand:wikidata":"Q151954","brand:wikipedia":"en:Lidl","fhrs:id":"546288"}}, "geometry":{"type":"MultiPolygon","coordinates":[[[[-0.49732,53.55419],[-0.49696,53.55412],[-0.49675,53.55455],[-0.49711,53.55461],[-0.49732,53.55419]]]]}},
{ "type":"Feature","properties":{"osm_way_id":"295298417","name":"Lincolnshire Co-op","building":"yes","shop":"supermarket","other":{"addr:housenumber":"5","addr:postcode":"DN21 4LU","addr:street":"High Street","alt_name":"Kirton in Lindsey Food Store","brand":"Lincolnshire Co-op","brand:wikidata":"Q6551231","brand:wikipedia":"en:Lincolnshire Co-operative","operator":"Lincolnshire Co-operative"}}, "geometry":{"type":"MultiPolygon","coordinates":[[[[-0.58799,53.47676],[-0.58797,53.4767],[-0.58787,53.47671],[-0.58784,53.47662],[-0.58755,53.47665],[-0.58758,53.47677],[-0.58767,53.47677],[-0.58768,53.47683],[-0.58794,53.47681],[-0.58793,53.47677],[-0.58799,53.47676]]]]}},
{ "type":"Feature","properties":{"osm_way_id":"302118125","name":"The Co-operative Food","building":"yes","shop":"supermarket","other":{"operator":"The Co-operative Group"}}, "geometry":{"type":"MultiPolygon","coordinates":[[[[-0.5535,53.56562],[-0.55349,53.56576],[-0.55335,53.56575],[-0.55337,53.56561],[-0.5535,53.56562]]]]}},
{ "type":"Feature","properties":{"osm_way_id":"318189203","name":"Lincolnshire Co-op","building":"yes","shop":"supermarket","other":{"addr:city":"Messingham","addr:street":"High Street","brand":"Lincolnshire Co-op","brand:wikidata":"Q6551231","brand:wikipedia":"en:Lincolnshire Co-operative","operator":"Lincolnshire Co-operative Society"}}, "geometry":{"type":"MultiPolygon","coordinates":[[[[-0.65404,53.52934],[-0.65408,53.52948],[-0.65378,53.52951],[-0.65374,53.52937],[-0.65404,53.52934]]]]}},
{ "type":"Feature","properties":{"osm_way_id":"318192136","name":"The Co-operative Food","building":"yes","shop":"supermarket","other":{"operator":"The Co-operative Group"}}, "geometry":{"type":"MultiPolygon","coordinates":[[[[-0.82016,53.52471],[-0.82012,53.52482],[-0.82,53.52482],[-0.81982,53.52479],[-0.81986,53.52473],[-0.81999,53.52476],[-0.82002,53.5247],[-0.82016,53.52471]]]]}},
{ "type":"Feature","properties":{"osm_way_id":"319602954","name":"Lidl","building":"yes","shop":"supermarket","other":{"addr:country":"GB","addr:housenumber":"2-6","addr:postcode":"DN15 7DE","addr:street":"Doncaster Road","brand":"Lidl","brand:wikidata":"Q151954","brand:wikipedia":"en:Lidl","fhrs:id":"213911","wheelchair":"yes"}}, "geometry":{"type":"MultiPolygon","coordinates":[[[[-0.65527,53.59099],[-0.65538,53.59143],[-0.65496,53.59146],[-0.65485,53.59103],[-0.65527,53.59099]]]]}},
{ "type":"Feature","properties":{"osm_way_id":"435840563","name":"Lincolnshire Co-op","building":"yes","shop":"supermarket","other":{"brand":"Lincolnshire Co-op","brand:wikidata":"Q6551231","brand:wikipedia":"en:Lincolnshire Co-operative","opening_hours":"Mo-Sa 07:00-22:00","operator":"Lincolnshire Co-operative Society"}}, "geometry":{"type":"MultiPolygon","coordinates":[[[[-0.834,53.60677],[-0.834,53.60665],[-0.83395,53.60665],[-0.83395,53.60657],[-0.83364,53.60656],[-0.83364,53.6067],[-0.8338,53.6067],[-0.8338,53.60677],[-0.834,53.60677]]]]}},
{ "type":"Feature","properties":{"osm_way_id":"777475599","name":"Lidl","building":"yes","shop":"supermarket","other":{"addr:city":"Barton Upon Humber","addr:postcode":"DN18 5LQ","addr:street":"Ferriby Road","brand":"Lidl","brand:wikidata":"Q151954","brand:wikipedia":"en:Lidl","fhrs:id":"1105573","source:addr":"FHRS Open Data"}}, "geometry":{"type":"MultiPolygon","coordinates":[[[[-0.45431,53.68119],[-0.45379,53.6813],[-0.45337,53.68062],[-0.45383,53.68052],[-0.45414,53.68102],[-0.4542,53.681],[-0.45431,53.68119]]]]}},
{ "type":"Feature","properties":{"osm_way_id":"870464319","name":"Co-op Food","building":"yes","shop":"supermarket","other":{"addr:city":"Kirton In Lindsey","addr:street":"Station Road","brand":"Co-op Food","brand:wikidata":"Q3277439","brand:wikipedia":"en:Co-op Food","operator":"The Co-operative Group"}}, "geometry":{"type":"MultiPolygon","coordinates":[[[[-0.59494,53.47977],[-0.59472,53.47969],[-0.59493,53.47948],[-0.59507,53.47953],[-0.595,53.4796],[-0.59504,53.47961],[-0.59498,53.47967],[-0.59501,53.47969],[-0.59494,53.47977]]]]}},
{ "type":"Feature","properties":{"osm_way_id":"870466355","name":"Lincolnshire Co-op","building":"yes","shop":"supermarket","other":{"addr:city":"Goxhill","addr:postcode":"DN19 7HS","addr:street":"Howe Lane","brand":"Lincolnshire Co-op","brand:wikidata":"Q6551231","brand:wikipedia":"en:Lincolnshire Co-operative","fhrs:id":"958516","operator":"Lincolnshire Co-operative"}}, "geometry":{"type":"MultiPolygon","coordinates":[[[[-0.33729,53.67704],[-0.33704,53.67676],[-0.33683,53.67682],[-0.33699,53.677],[-0.33711,53.67697],[-0.3372,53.67707],[-0.33729,53.67704]]]]}},
{ "type":"Feature","properties":{"osm_way_id":"919672985","name":"Lincolnshire Co-op","building":"yes","shop":"supermarket","other":{"addr:city":"Scawby","addr:street":"West Street","brand":"Lincolnshire Co-op","brand:wikidata":"Q6551231","brand:wikipedia":"en:Lincolnshire Co-operative","opening_hours":"Mo-Su 07:00-22:00","operator":"Lincolnshire Co-operative"}}, "geometry":{"type":"MultiPolygon","coordinates":[[[[-0.53918,53.53505],[-0.53915,53.53498],[-0.53921,53.53498],[-0.53917,53.53489],[-0.53913,53.5349],[-0.5391,53.53483],[-0.53883,53.53487],[-0.53892,53.53509],[-0.53918,53.53505]]]]}},
{ "type":"Feature","properties":{"osm_way_id":"949756812","name":"Co-op Food","building":"yes","shop":"supermarket","other":{"brand":"Co-op Food","brand:wikidata":"Q3277439","brand:wikipedia":"en:Co-op Food","operator":"The Co-operative Group"}}, "geometry":{"type":"MultiPolygon","coordinates":[[[[-0.52806,53.50982],[-0.52802,53.50971],[-0.52764,53.50975],[-0.52768,53.50986],[-0.52806,53.50982]]]]}}
]
}
