{
"type": "FeatureCollection",
"features": [
{ "type":"Feature","properties":{"osm_id":"421440319","name":"Rose Farm Shop","other":{"shop":"supermarket","fhrs:id":"314806","organic":"only","addr:street":"John Street","source:addr":"FHRS Open Data","addr:postcode":"CW6 0LP"}}, "geometry":{"type":"Point","coordinates":[-2.67653,53.1814 ]}},
{ "type":"Feature","properties":{"osm_id":"461966524","name":"Spar","other":{"addr:postcode":"CH2 4QB","addr:street":"Ince Lane","brand":"Spar","brand:wikidata":"Q610492","brand:wikipedia":"en:SPAR (retailer)","fhrs:id":"1201318","shop":"supermarket","source:addr":"FHRS Open Data"}}, "geometry":{"type":"Point","coordinates":[-2.81264,53.27266 ]}},
{ "type":"Feature","properties":{"osm_id":"583068378","name":"Tesco","other":{"addr:city":"Chester","addr:housenumber":"40-44","addr:postcode":"CH1 3JS","addr:street":"Frodsham Street","alt_name":"Tesco Chester Superstore","brand":"Tesco","brand:wikidata":"Q487494","brand:wikipedia":"en:Tesco","contact:website":"https:\/\/www.tesco.com\/store-locator\/chester\/40-42-frodsham-square","fhrs:id":"315082","old_fhrs:id":"1003485","opening_hours":"Mo-Sa 07:00-23:00; Su 11:00-17:00","shop":"supermarket"}}, "geometry":{"type":"Point","coordinates":[-2.88745,53.19275 ]}},
{ "type":"Feature","properties":{"osm_id":"1760875167","other":{"amenity":"post_box","brand":"Royal Mail","brand:wikidata":"Q638098","brand:wikipedia":"en:Royal Mail","operator":"Royal Mail","operator:wikidata":"Q638098","operator:wikipedia":"en:Royal Mail"}}, "geometry":{"type":"Point","coordinates":[-2.50903,53.2633 ]}},
{ "type":"Feature","properties":{"osm_id":"2093349888","name":"Co-Op Supermarket","other":{"addr:city":"Chester","addr:housenumber":"2","addr:postcode":"CH3 8EF","addr:street":"By-Pass Road","fhrs:id":"1344853","shop":"supermarket","website":"https:\/\/www.coop.co.uk\/store-finder\/CH3-8EF\/2-bye-pass-road"}}, "geometry":{"type":"Point","coordinates":[-2.7652,53.1985 ]}},
{ "type":"Feature","properties":{"osm_id":"3824468558","name":"Netto","other":{"shop":"supermarket","website":"http:\/\/www.netto.co.uk\/","addr:city":"Ellesmere Port","addr:street":"Port Arcades","addr:postcode":"CH65 0AP","opening_hours":"Mo-Sa 08:00-22:00;Su 10:00-16:00"}}, "geometry":{"type":"Point","coordinates":[-2.90162,53.27688 ]}},
{ "type":"Feature","properties":{"osm_id":"5697093517","name":"Spar","other":{"addr:housenumber":"10-12","addr:postcode":"CW8 2NT","addr:street":"Fir Lane","brand":"Spar","brand:wikidata":"Q610492","brand:wikipedia":"en:SPAR (retailer)","fhrs:id":"314770","shop":"supermarket","source:addr":"FHRS Open Data"}}, "geometry":{"type":"Point","coordinates":[-2.60031,53.23391 ]}},
{ "type":"Feature","properties":{"osm_id":"8267501831","name":"Co-op Food","other":{"addr:city":"Chester","addr:housenumber":"142","addr:postcode":"CH3 5TD","addr:street":"Christleton Road","brand":"Co-op Food","brand:wikidata":"Q3277439","brand:wikipedia":"en:Co-op Food","fhrs:id":"946342","shop":"supermarket"}}, "geometry":{"type":"Point","coordinates":[-2.86452,53.18969 ]}},
{ "type":"Feature","properties":{"osm_id":"8904769751","name":"The Food Warehouse","other":{"addr:city":"Chester","addr:country":"GB","addr:housename":"Chester Retail Park","addr:postcode":"CH1 4RY","addr:street":"Old Seals Way","addr:unit":"4","brand":"The Food Warehouse","brand:wikidata":"Q87263899","contact:website":"https:\/\/www.thefoodwarehouse.com\/store-locator\/chester","fhrs:id":"1320075","shop":"supermarket"}}, "geometry":{"type":"Point","coordinates":[-2.91022,53.19648 ]}},
{ "type":"Feature","properties":{"osm_id":"9208521393","other":{"access":"customers","amenity":"bicycle_parking","bicycle_parking":"stands","capacity":"3","covered":"no","cyclestreets_id":"175223","fee":"no","operator":"Tesco","operator:type":"business"}}, "geometry":{"type":"Point","coordinates":[-2.91091,53.19508 ]}},
{ "type":"Feature","properties":{"osm_id":"9442862669","name":"Heron Foods","other":{"brand":"Heron Foods","brand:wikidata":"Q5743472","brand:wikipedia":"en:Heron Foods","shop":"supermarket"}}, "geometry":{"type":"Point","coordinates":[-2.93385,53.2016 ]}},
{ "type":"Feature","properties":{"osm_way_id":"10569061","name":"Morrisons","building":"yes","shop":"supermarket","other":{"addr:city":"Winsford","addr:housename":"Wharton Retail Park","addr:postcode":"CW7 3BS","addr:street":"Nat Lane","branch":"Winsford","brand":"Morrisons","brand:wikidata":"Q922344","brand:wikipedia":"en:Morrisons","fhrs:id":"290258","opening_hours":"Mo-Sa 07:00-22:00; Su 10:00-16:00","operator":"Morrisons","phone":"+44 1606 861895","website":"https:\/\/www.morrisons.com\/"}}, "geometry":{"type":"MultiPolygon","coordinates":[[[[-2.51265,53.19666],[-2.51345,53.19641],[-2.51351,53.19648],[-2.51404,53.19631],[-2.51412,53.19641],[-2.51419,53.19638],[-2.51428,53.19649],[-2.5144,53.19646],[-2.51443,53.1965],[-2.51446,53.19649],[-2.51465,53.19673],[-2.51476,53.19674],[-2.51474,53.1968],[-2.51484,53.19681],[-2.51478,53.19694],[-2.51468,53.19692],[-2.51466,53.19697],[-2.51454,53.19695],[-2.51429,53.19703],[-2.5142,53.19695],[-2.51361,53.19713],[-2.51352,53.19716],[-2.51341,53.1972],[-2.51319,53.19694],[-2.51297,53.197],[-2.51265,53.19666]]]]}},
{ "type":"Feature","properties":{"osm_way_id":"30912029","name":"Tesco","building":"retail","shop":"supermarket","other":{"addr:postcode":"WA6 0DJ","addr:street":"Chester Road","brand":"Tesco","brand:wikidata":"Q487494","brand:wikipedia":"en:Tesco","fhrs:id":"290364","source:addr":"FHRS Open Data","wheelchair":"yes"}}, "geometry":{"type":"MultiPolygon","coordinates":[[[[-2.77342,53.26754],[-2.77321,53.26791],[-2.77317,53.26799],[-2.77308,53.26797],[-2.77305,53.26803],[-2.77297,53.26802],[-2.77295,53.26806],[-2.77307,53.26809],[-2.77301,53.2682],[-2.77289,53.26817],[-2.77289,53.26818],[-2.77264,53.26825],[-2.77224,53.26776],[-2.77239,53.2675],[-2.77232,53.26748],[-2.77237,53.26738],[-2.77245,53.26739],[-2.77247,53.26735],[-2.77342,53.26754]]]]}},
{ "type":"Feature","properties":{"osm_way_id":"45791748","name":"Asda","building":"yes","shop":"supermarket","other":{"brand":"Asda","fhrs:id":"617571","operator":"Asda Stores Ltd","addr:city":"Chester","addr:street":"River Lane","addr:country":"GB","addr:postcode":"CH4 8RH","brand:wikidata":"Q297410","brand:wikipedia":"en:Asda","contact:website":"https:\/\/storelocator.asda.com\/north-west\/chester\/river-lane-saltney"}}, "geometry":{"type":"MultiPolygon","coordinates":[[[[-2.91895,53.17976],[-2.91899,53.17998],[-2.91963,53.17993],[-2.91959,53.17971],[-2.91895,53.17976]]]]}},
{ "type":"Feature","properties":{"osm_way_id":"46042396","name":"Sainsbury's","building":"yes","shop":"supermarket","other":{"brand":"Sainsbury's","fhrs:id":"290673","alt_name":"Sainsbury's Chester Superstore","addr:city":"Chester","addr:street":"Caldy Valley Road","addr:postcode":"CH3 5QJ","brand:wikidata":"Q152096","brand:wikipedia":"en:Sainsbury's"}}, "geometry":{"type":"MultiPolygon","coordinates":[[[[-2.85505,53.18259],[-2.85486,53.18271],[-2.85502,53.18329],[-2.85512,53.18328],[-2.85515,53.18339],[-2.85574,53.18332],[-2.85585,53.18325],[-2.85626,53.18321],[-2.85614,53.18274],[-2.85579,53.18261],[-2.85525,53.18267],[-2.85505,53.18259]]]]}},
{ "type":"Feature","properties":{"osm_way_id":"57046216","name":"Asda","building":"yes","shop":"supermarket","other":{"addr:city":"Wellington Road","addr:country":"GB","addr:postcode":"CH65 0BZ","addr:street":"Wellington Road","brand":"Asda","brand:wikidata":"Q297410","brand:wikipedia":"en:Asda","contact:website":"https:\/\/storelocator.asda.com\/north-west\/ellesmere-port\/grange-road","fhrs:id":"289919","operator":"Asda Stores Ltd"}}, "geometry":{"type":"MultiPolygon","coordinates":[[[[-2.8983,53.27599],[-2.8978,53.27621],[-2.89765,53.2761],[-2.89776,53.27596],[-2.89764,53.27593],[-2.89706,53.27653],[-2.8971,53.27655],[-2.89695,53.27662],[-2.89771,53.27719],[-2.89797,53.27705],[-2.89805,53.27709],[-2.89813,53.27705],[-2.89846,53.27689],[-2.89841,53.27684],[-2.89903,53.27655],[-2.8983,53.27599]]]]}},
{ "type":"Feature","properties":{"osm_way_id":"57932756","name":"Sainsbury's","building":"retail","shop":"supermarket","other":{"addr:postcode":"CH64 9AR","addr:street":"Brook Street","brand":"Sainsbury's","brand:wikidata":"Q152096","brand:wikipedia":"en:Sainsbury's","fhrs:id":"289979","noaddress":"yes","source:addr":"FHRS Open Data"}}, "geometry":{"type":"MultiPolygon","coordinates":[[[[-3.06332,53.29105],[-3.06317,53.29078],[-3.06336,53.2907],[-3.0633,53.29065],[-3.06326,53.29066],[-3.06313,53.29051],[-3.06303,53.29053],[-3.06292,53.29057],[-3.0625,53.29068],[-3.06281,53.29112],[-3.06306,53.29108],[-3.06332,53.29105]]]]}},
{ "type":"Feature","properties":{"osm_way_id":"88215481","name":"ALDI","building":"yes","shop":"supermarket","other":{"addr:postcode":"CH64 3RG","addr:street":"Ladies Walk","brand":"ALDI","brand:wikidata":"Q41171672","brand:wikipedia":"en:Aldi","fhrs:id":"289852","operator":"ALDI","source:addr":"FHRS Open Data"}}, "geometry":{"type":"MultiPolygon","coordinates":[[[[-3.06385,53.29209],[-3.06392,53.29219],[-3.06422,53.29257],[-3.06383,53.29267],[-3.06347,53.29225],[-3.06345,53.2922],[-3.06346,53.2922],[-3.06365,53.29215],[-3.06385,53.29209]]]]}},
{ "type":"Feature","properties":{"osm_way_id":"132036215","name":"Morrisons","building":"yes","shop":"supermarket","other":{"addr:city":"Chester","addr:postcode":"CH2 1BT","addr:street":"Mill Lane","brand":"Morrisons","brand:wikidata":"Q922344","brand:wikipedia":"en:Morrisons","fhrs:id":"290753"}}, "geometry":{"type":"MultiPolygon","coordinates":[[[[-2.89268,53.20814],[-2.8929,53.20849],[-2.89286,53.2085],[-2.89289,53.20856],[-2.89267,53.20889],[-2.89197,53.20903],[-2.89163,53.20844],[-2.89178,53.20841],[-2.89177,53.20838],[-2.89193,53.20835],[-2.89197,53.2083],[-2.89268,53.20814]]]]}},
{ "type":"Feature","properties":{"osm_way_id":"195206881","name":"Co-op","building":"retail","shop":"supermarket","other":{"addr:city":"Frodsham","addr:postcode":"WA6 8EF","addr:street":"Hollow Lane","addr:village":"Kingsley","fhrs:id":"1067473","operator":"The Co-operative Group"}}, "geometry":{"type":"MultiPolygon","coordinates":[[[[-2.67602,53.26902],[-2.67585,53.26896],[-2.67598,53.26882],[-2.67606,53.26884],[-2.67603,53.26887],[-2.67611,53.2689],[-2.67606,53.26896],[-2.67607,53.26896],[-2.67602,53.26902]]]]}},
{ "type":"Feature","properties":{"osm_way_id":"199395251","name":"ALDI","building":"yes","shop":"supermarket","other":{"addr:postcode":"CH65 0AR","addr:street":"Grange Road","brand":"ALDI","brand:wikidata":"Q41171672","brand:wikipedia":"en:Aldi","fhrs:id":"289969","source:addr":"FHRS Open Data"}}, "geometry":{"type":"MultiPolygon","coordinates":[[[[-2.89753,53.27881],[-2.8975,53.27883],[-2.89726,53.27904],[-2.89658,53.27875],[-2.89685,53.27852],[-2.89753,53.27881]]]]}},
{ "type":"Feature","properties":{"osm_way_id":"232307218","name":"ALDI","building":"retail","shop":"supermarket","other":{"addr:city":"Chester","addr:housenumber":"1-3","addr:postcode":"CH1 4NT","addr:street":"Bumpers Lane","alt_name":"ALDI Chester","brand":"ALDI","brand:wikidata":"Q41171672","brand:wikipedia":"en:Aldi","fhrs:id":"1246285","not:addr:postcode":"CH1 4RY","old_fhrs:id":"290818","opening_hours":"Mo-Sa 08:00-22:00; Su 10:00-16:00"}}, "geometry":{"type":"MultiPolygon","coordinates":[[[[-2.91265,53.19437],[-2.91236,53.19459],[-2.9124,53.19461],[-2.91232,53.19467],[-2.91165,53.19435],[-2.91196,53.19412],[-2.91202,53.19415],[-2.91209,53.1941],[-2.9125,53.19429],[-2.91265,53.19437]]]]}},
{ "type":"Feature","properties":{"osm_way_id":"256304691","name":"Tesco","building":"retail","shop":"supermarket","other":{"addr:city":"Chester","addr:housename":"Sealand Industrial Estate","addr:postcode":"CH1 4NT","addr:street":"Hartford Way","alt_name":"Tesco Sealand Road Superstore","brand":"Tesco","brand:wikidata":"Q487494","brand:wikipedia":"en:Tesco","fhrs:id":"290928","opening_hours:covid19":"restricted"}}, "geometry":{"type":"MultiPolygon","coordinates":[[[[-2.91135,53.1945],[-2.91084,53.19489],[-2.91082,53.1949],[-2.91079,53.19488],[-2.91074,53.19493],[-2.91063,53.19493],[-2.91064,53.19505],[-2.91077,53.19504],[-2.91083,53.19507],[-2.91085,53.19505],[-2.91091,53.19508],[-2.91122,53.19523],[-2.91133,53.19528],[-2.91149,53.19516],[-2.91169,53.19525],[-2.91216,53.19489],[-2.91224,53.19494],[-2.91231,53.19489],[-2.91231,53.19486],[-2.91214,53.19477],[-2.91211,53.1948],[-2.91202,53.19475],[-2.91197,53.19479],[-2.91135,53.1945]]]]}},
{ "type":"Feature","properties":{"osm_way_id":"256304854","name":"Lidl","building":"yes","shop":"supermarket","other":{"brand":"Lidl","fhrs:id":"1149743","addr:city":"Chester","addr:street":"Greyhound Park Road","addr:postcode":"CH1 4QG","addr:housename":"Unit 1A Greyhound Retail Park","brand:wikidata":"Q151954","brand:wikipedia":"en:Lidl"}}, "geometry":{"type":"MultiPolygon","coordinates":[[[[-2.91718,53.19637],[-2.91718,53.19607],[-2.91689,53.19607],[-2.91612,53.19607],[-2.91612,53.19626],[-2.91608,53.19626],[-2.91608,53.19632],[-2.91612,53.19633],[-2.91612,53.19636],[-2.91718,53.19637]]]]}},
{ "type":"Feature","properties":{"osm_way_id":"282379789","name":"Lidl","building":"retail","shop":"supermarket","other":{"addr:city":"Northwich","addr:housename":"Chester Way Retail Park","addr:postcode":"CW9 5JF","addr:street":"Chester Way","alt_name":"LIDL Northwich","brand":"Lidl","brand:wikidata":"Q151954","brand:wikipedia":"en:Lidl","fhrs:id":"290100","phone":"+44 870 444 1234","website":"https:\/\/www.lidl.co.uk\/"}}, "geometry":{"type":"MultiPolygon","coordinates":[[[[-2.50673,53.26117],[-2.50658,53.26139],[-2.50703,53.2615],[-2.50699,53.26155],[-2.50712,53.26159],[-2.50715,53.26155],[-2.50747,53.26163],[-2.50761,53.26143],[-2.50753,53.26142],[-2.50756,53.26138],[-2.50673,53.26117]]]]}},
{ "type":"Feature","properties":{"osm_way_id":"285768669","name":"Tesco","building":"yes","shop":"supermarket","other":{"addr:postcode":"CW9 5LY","addr:street":"Manchester Road","alt_name":"Tesco Northwich Superstore","brand":"Tesco","brand:wikidata":"Q487494","brand:wikipedia":"en:Tesco","fhrs:id":"290231"}}, "geometry":{"type":"MultiPolygon","coordinates":[[[[-2.49512,53.26253],[-2.49503,53.26235],[-2.49497,53.26233],[-2.4948,53.26236],[-2.49474,53.26225],[-2.49468,53.26215],[-2.49344,53.26239],[-2.49358,53.26264],[-2.49382,53.26259],[-2.49403,53.26296],[-2.49513,53.26273],[-2.49512,53.26265],[-2.49506,53.26261],[-2.49512,53.26253]]]]}},
{ "type":"Feature","properties":{"osm_way_id":"285768672","name":"Waitrose","building":"yes","shop":"supermarket","other":{"addr:housenumber":"22","addr:postcode":"CW9 5HD","addr:street":"London Road","alt_name":"Waitrose Northwich","brand":"Waitrose","brand:wikidata":"Q771734","brand:wikipedia":"en:Waitrose","fhrs:id":"617581","official_name":"Waitrose & Partners","operator":"Waitrose & Partners"}}, "geometry":{"type":"MultiPolygon","coordinates":[[[[-2.51488,53.25817],[-2.51464,53.25815],[-2.51463,53.2582],[-2.51431,53.25817],[-2.5143,53.25823],[-2.51409,53.25821],[-2.51408,53.25827],[-2.51398,53.25826],[-2.51396,53.25834],[-2.51402,53.25834],[-2.51401,53.25838],[-2.51407,53.25838],[-2.51405,53.25846],[-2.51409,53.25847],[-2.51405,53.25864],[-2.51383,53.25862],[-2.51382,53.25867],[-2.51404,53.25869],[-2.51402,53.25873],[-2.51417,53.25875],[-2.51419,53.25869],[-2.51475,53.25874],[-2.51488,53.25817]]]]}},
{ "type":"Feature","properties":{"osm_way_id":"285768674","name":"Sainsbury's","building":"yes","shop":"supermarket","other":{"addr:city":"Northwich","addr:postcode":"CW9 5RT","addr:street":"Venables Road","alt_name":"Sainsbury's Northwich Superstore","brand":"Sainsbury's","brand:wikidata":"Q152096","brand:wikipedia":"en:Sainsbury's","contact:website":"https:\/\/stores.sainsburys.co.uk\/0762\/northwich","fhrs:id":"290324","phone":"+44 1606 330092"}}, "geometry":{"type":"MultiPolygon","coordinates":[[[[-2.50791,53.26367],[-2.5078,53.26341],[-2.50755,53.26339],[-2.50766,53.26311],[-2.5086,53.26297],[-2.50858,53.26292],[-2.5087,53.2629],[-2.50881,53.26289],[-2.50882,53.26292],[-2.50887,53.26292],[-2.50895,53.26311],[-2.50903,53.2633],[-2.50905,53.26335],[-2.50896,53.26336],[-2.50902,53.2635],[-2.50791,53.26367]]]]}},
{ "type":"Feature","properties":{"osm_way_id":"288882375","name":"Sainsbury's","building":"supermarket","shop":"supermarket","other":{"addr:city":"Ellesmere Port","addr:postcode":"CH65 9HN","addr:street":"Kinsey Road","brand":"Sainsbury's","brand:wikidata":"Q152096","brand:wikipedia":"en:Sainsbury's","fhrs:id":"289960"}}, "geometry":{"type":"MultiPolygon","coordinates":[[[[-2.87998,53.26333],[-2.8792,53.26361],[-2.87916,53.26357],[-2.87899,53.26364],[-2.87901,53.26366],[-2.87873,53.26376],[-2.87834,53.26337],[-2.878,53.26349],[-2.87786,53.26336],[-2.8782,53.26324],[-2.87816,53.2632],[-2.8784,53.26312],[-2.87817,53.26289],[-2.87834,53.26283],[-2.8787,53.2627],[-2.87918,53.26253],[-2.87928,53.26263],[-2.87984,53.26318],[-2.87998,53.26333]]]]}},
{ "type":"Feature","properties":{"osm_way_id":"302936259","name":"The Co-operative Food","building":"yes","shop":"supermarket","other":{"fhrs:id":"290164","alt_name":"The Co-operative Food","addr:city":"Tarporley","addr:street":"HIgh Street","addr:postcode":"CW6 0DP","addr:housenumber":"53"}}, "geometry":{"type":"MultiPolygon","coordinates":[[[[-2.66872,53.15997],[-2.6687,53.15987],[-2.66826,53.15992],[-2.6683,53.16002],[-2.66859,53.15998],[-2.66872,53.15997]]]]}},
{ "type":"Feature","properties":{"osm_way_id":"317019573","name":"Asda","building":"yes","shop":"supermarket","other":{"brand":"Asda","branch":"Winsford Superstore","fhrs:id":"290184","smoking":"no","operator":"Asda Stores Ltd","addr:city":"Winsford","wheelchair":"yes","addr:street":"The Drumber","addr:country":"GB","addr:postcode":"CW7 1BD","contact:phone":"+44 1606 553617","opening_hours":"Mo 07:30-24:00; Tu-Fr 06:00-24:00; Sa 08:00-24:00; Su 10:00-16:00","brand:wikidata":"Q297410","brand:wikipedia":"en:Asda","building:levels":"2","contact:website":"https:\/\/storelocator.asda.com\/north-west\/winsford\/the-drumber"}}, "geometry":{"type":"MultiPolygon","coordinates":[[[[-2.52897,53.19066],[-2.52905,53.19084],[-2.52926,53.1908],[-2.52942,53.19078],[-2.52938,53.1907],[-2.52945,53.19063],[-2.52932,53.19038],[-2.52918,53.19034],[-2.52883,53.1904],[-2.52878,53.1903],[-2.52868,53.19032],[-2.52857,53.19028],[-2.52842,53.1903],[-2.52841,53.19026],[-2.5274,53.19042],[-2.52733,53.19049],[-2.52755,53.19092],[-2.52766,53.19095],[-2.52769,53.19092],[-2.52777,53.19094],[-2.5282,53.19087],[-2.52817,53.19079],[-2.52897,53.19066]]]]}},
{ "type":"Feature","properties":{"osm_way_id":"317026576","name":"B & M Bargains","building":"yes","shop":"supermarket","other":{"addr:city":"Winsford","addr:housenumber":"44","addr:postcode":"CW7 1BA","addr:street":"Dingle Walk","fhrs:id":"290131","phone":"+44 1606 596717","website":"https:\/\/www.bmstores.co.uk\/"}}, "geometry":{"type":"MultiPolygon","coordinates":[[[[-2.52681,53.19212],[-2.52676,53.192],[-2.52668,53.19184],[-2.52666,53.19178],[-2.52619,53.19186],[-2.52634,53.19219],[-2.52681,53.19212]]]]}},
{ "type":"Feature","properties":{"osm_way_id":"317027446","name":"Farmfoods","building":"yes","shop":"supermarket","other":{"addr:city":"Winsford","addr:postcode":"CW7 1AT","addr:street":"Dean Drive"}}, "geometry":{"type":"MultiPolygon","coordinates":[[[[-2.53158,53.19074],[-2.53157,53.19104],[-2.53133,53.19104],[-2.53068,53.19104],[-2.53069,53.19082],[-2.53088,53.19082],[-2.5309,53.19079],[-2.53133,53.1908],[-2.53133,53.19074],[-2.53158,53.19074]]]]}},
{ "type":"Feature","properties":{"osm_way_id":"317312214","name":"Co-op","building":"yes","shop":"supermarket","other":{"addr:postcode":"CW7 3AP","addr:street":"Wharton Road","fhrs:id":"290336","source:addr":"FHRS Open Data"}}, "geometry":{"type":"MultiPolygon","coordinates":[[[[-2.5079,53.19884],[-2.50768,53.19882],[-2.50771,53.19868],[-2.50773,53.19862],[-2.50795,53.19864],[-2.50791,53.1988],[-2.5079,53.19884]]]]}},
{ "type":"Feature","properties":{"osm_way_id":"319053135","name":"Quality Save","building":"yes","shop":"supermarket","other":{"phone":"+44 1606 334426","website":"http:\/\/www.qualitysave.co.uk\/","addr:city":"Northwich","addr:street":"Witton Street","addr:postcode":"CW9 5AH","addr:housenumber":"26 - 28"}}, "geometry":{"type":"MultiPolygon","coordinates":[[[[-2.51244,53.26145],[-2.51239,53.26135],[-2.51212,53.26139],[-2.51217,53.2615],[-2.51203,53.26152],[-2.51213,53.26175],[-2.51231,53.26172],[-2.51231,53.26174],[-2.5124,53.26174],[-2.51242,53.26185],[-2.51243,53.26192],[-2.51243,53.26197],[-2.51264,53.26195],[-2.51264,53.2619],[-2.51263,53.26185],[-2.51258,53.26172],[-2.51263,53.26172],[-2.51261,53.26166],[-2.51256,53.26166],[-2.51255,53.26164],[-2.51258,53.26164],[-2.51252,53.26152],[-2.51247,53.26152],[-2.51244,53.26145]]]]}},
{ "type":"Feature","properties":{"osm_way_id":"325651448","name":"Co-op Food","building":"yes","shop":"supermarket","other":{"addr:city":"Hartford, Northwich","addr:housenumber":"307","addr:postcode":"CW8 1QL","addr:street":"Chester Road","brand":"Co-op Food","brand:wikidata":"Q3277439","brand:wikipedia":"en:Co-op Food","fhrs:id":"290084","phone":"+44 1606 74089","website":"https:\/\/www.co-operative.coop\/store\/food\/CW8-1QL\/307-chester-road","wheelchair":"yes"}}, "geometry":{"type":"MultiPolygon","coordinates":[[[[-2.5463,53.24474],[-2.54612,53.24484],[-2.54609,53.24482],[-2.54604,53.24485],[-2.54597,53.2448],[-2.54602,53.24477],[-2.54593,53.24472],[-2.54603,53.24466],[-2.5461,53.2447],[-2.54617,53.24466],[-2.5463,53.24474]]]]}},
{ "type":"Feature","properties":{"osm_way_id":"326713984","name":"Morrisons","building":"supermarket","shop":"supermarket","other":{"addr:country":"GB","addr:postcode":"CH65 6RX","addr:street":"Chester Road","brand":"Morrisons","brand:wikidata":"Q922344","brand:wikipedia":"en:Morrisons","fhrs:id":"289820","source:addr":"FSA Food Hygiene Ratings Database"}}, "geometry":{"type":"MultiPolygon","coordinates":[[[[-2.91293,53.27294],[-2.91259,53.273],[-2.9127,53.27322],[-2.91195,53.27335],[-2.91187,53.27319],[-2.91172,53.27322],[-2.91153,53.27283],[-2.91147,53.27271],[-2.91157,53.2727],[-2.91155,53.27266],[-2.91253,53.27249],[-2.91256,53.27255],[-2.91264,53.27254],[-2.91268,53.27264],[-2.91278,53.27262],[-2.91293,53.27294]]]]}},
{ "type":"Feature","properties":{"osm_way_id":"327136348","name":"Spar","building":"yes","shop":"supermarket","other":{"addr:postcode":"CW9 6ED","addr:street":"Linnards Lane","brand":"Spar","brand:wikidata":"Q610492","brand:wikipedia":"en:Spar (retailer)","fhrs:id":"290210","source:addr":"FHRS Open Data"}}, "geometry":{"type":"MultiPolygon","coordinates":[[[[-2.46972,53.28355],[-2.46953,53.2835],[-2.46963,53.28336],[-2.46974,53.28339],[-2.46973,53.2834],[-2.46979,53.28342],[-2.46975,53.28347],[-2.46978,53.28348],[-2.46972,53.28355]]]]}},
{ "type":"Feature","properties":{"osm_way_id":"338463378","name":"Morrisons","building":"yes","shop":"supermarket","other":{"addr:country":"GB","addr:housenumber":"16","addr:postcode":"WA6 7EZ","addr:street":"High Street","brand":"Morrisons","brand:wikidata":"Q922344","brand:wikipedia":"en:Morrisons","fhrs:id":"290408","source:addr":"FHRS Open Data"}}, "geometry":{"type":"MultiPolygon","coordinates":[[[[-2.72517,53.29623],[-2.72468,53.29592],[-2.72421,53.29621],[-2.7246,53.29644],[-2.72469,53.29639],[-2.72476,53.29638],[-2.72483,53.29642],[-2.72517,53.29623]]]]}},
{ "type":"Feature","properties":{"osm_way_id":"380226254","name":"Waitrose","building":"yes","shop":"supermarket","other":{"addr:city":"Chester","addr:housenumber":"71","addr:postcode":"CH3 5AF","addr:street":"Broughton","alt_name":"Waitrose Chester","brand":"Waitrose","brand:wikidata":"Q771734","brand:wikipedia":"en:Waitrose","fhrs:id":"724423","official_name":"Waitrose & Partners","operator":"Waitrose & Partners"}}, "geometry":{"type":"MultiPolygon","coordinates":[[[[-2.87669,53.193],[-2.87719,53.19299],[-2.87735,53.19299],[-2.87779,53.19298],[-2.87778,53.19281],[-2.87795,53.1928],[-2.878,53.19353],[-2.8771,53.19355],[-2.87709,53.19339],[-2.87705,53.19339],[-2.87703,53.19319],[-2.8767,53.1932],[-2.87669,53.193]]]]}},
{ "type":"Feature","properties":{"osm_way_id":"451709458","name":"Co-op Food","building":"retail","shop":"supermarket","other":{"addr:postcode":"CW9 7UA","addr:street":"Cheshire Avenue","brand":"Co-op Food","brand:wikidata":"Q3277439","brand:wikipedia":"en:Co-op Food","fhrs:id":"869002","operator":"The Co-operative Group","operator:wikidata":"Q117202","operator:wikipedia":"en:The Co-operative Group","source:addr":"FHRS Open Data"}}, "geometry":{"type":"MultiPolygon","coordinates":[[[[-2.45629,53.27264],[-2.45643,53.27282],[-2.45609,53.27275],[-2.45629,53.27264]]]]}},
{ "type":"Feature","properties":{"osm_way_id":"451718488","name":"Co-op Food","building":"supermarket","shop":"supermarket","other":{"addr:housenumber":"249","addr:postcode":"CW9 7DR","addr:street":"Middlewich Road","brand":"Co-op Food","brand:wikidata":"Q3277439","brand:wikipedia":"en:Co-op Food","fhrs:id":"290252","source:addr":"FHRS Open Data"}}, "geometry":{"type":"MultiPolygon","coordinates":[[[[-2.48467,53.25721],[-2.48457,53.2572],[-2.48458,53.25721],[-2.48437,53.25719],[-2.48421,53.25718],[-2.48419,53.2573],[-2.48423,53.25731],[-2.48431,53.25732],[-2.48431,53.25737],[-2.48428,53.25736],[-2.48427,53.25739],[-2.48441,53.2574],[-2.48442,53.25736],[-2.48447,53.25736],[-2.48446,53.25746],[-2.48459,53.25748],[-2.48463,53.25726],[-2.48465,53.25726],[-2.48465,53.25723],[-2.48467,53.25723],[-2.48467,53.25721]]]]}},
{ "type":"Feature","properties":{"osm_way_id":"495194839","name":"Aldi","building":"yes","shop":"supermarket","other":{"addr:postcode":"CW9 5LG","addr:street":"Leicester Street","alt_name":"ALDI Northwich","brand":"ALDI","brand:wikidata":"Q41171672","brand:wikipedia":"en:Aldi","fhrs:id":"946351"}}, "geometry":{"type":"MultiPolygon","coordinates":[[[[-2.50748,53.26588],[-2.50661,53.26576],[-2.50664,53.26567],[-2.50668,53.26567],[-2.50678,53.26542],[-2.50717,53.26547],[-2.50716,53.26549],[-2.50753,53.26554],[-2.50744,53.26577],[-2.50752,53.26578],[-2.50748,53.26588]]]]}},
{ "type":"Feature","properties":{"osm_way_id":"585992839","name":"Asda","building":"yes","shop":"supermarket","other":{"brand":"Asda","fhrs:id":"718608","operator":"Asda Stores Ltd","addr:city":"Chester","addr:unit":"3","addr:street":"Greyhound Park Road","addr:country":"GB","addr:postcode":"CH1 4QG","addr:housename":"Greyhound Retail Park","brand:wikidata":"Q297410","brand:wikipedia":"en:Asda","contact:website":"https:\/\/storelocator.asda.com\/north-west\/chester\/greyhound-retail-park-sealand-road"}}, "geometry":{"type":"MultiPolygon","coordinates":[[[[-2.91521,53.19892],[-2.91518,53.19898],[-2.91517,53.19907],[-2.91548,53.19908],[-2.91551,53.19905],[-2.91645,53.19924],[-2.91652,53.19912],[-2.91674,53.19917],[-2.91673,53.1992],[-2.91684,53.19922],[-2.91692,53.19907],[-2.91681,53.19905],[-2.9168,53.19907],[-2.91669,53.19904],[-2.91671,53.199],[-2.91661,53.19898],[-2.91672,53.19879],[-2.91613,53.19867],[-2.91614,53.19864],[-2.91594,53.1986],[-2.91592,53.19863],[-2.91543,53.19853],[-2.91521,53.19892]]]]}},
{ "type":"Feature","properties":{"osm_way_id":"706205939","name":"Co-op","building":"yes","shop":"supermarket","other":{"fhrs:id":"290546","addr:street":"Chester Road","source:addr":"FHRS Open Data","addr:postcode":"CW6 0RT","not:addr:postcode":"CW6 4RT"}}, "geometry":{"type":"MultiPolygon","coordinates":[[[[-2.71592,53.20919],[-2.71605,53.20913],[-2.71581,53.20892],[-2.7156,53.209],[-2.71565,53.20905],[-2.71572,53.20902],[-2.71592,53.20919]]]]}},
{ "type":"Feature","properties":{"osm_way_id":"728365565","name":"Asda","building":"retail","shop":"supermarket","other":{"addr:country":"GB","addr:housenumber":"23-29","addr:postcode":"CW9 5LG","addr:street":"Leicester Street","brand":"Asda","brand:wikidata":"Q297410","brand:wikipedia":"en:Asda","contact:website":"https:\/\/storelocator.asda.com\/north-west\/northwich\/23-29-leicester-street-barons-quay","fhrs:id":"926769","operator":"Asda Stores Ltd"}}, "geometry":{"type":"MultiPolygon","coordinates":[[[[-2.51174,53.26305],[-2.51186,53.26309],[-2.51196,53.26297],[-2.51226,53.26307],[-2.51221,53.26312],[-2.51227,53.26314],[-2.51195,53.26348],[-2.51239,53.26363],[-2.51274,53.26375],[-2.51322,53.26391],[-2.51337,53.26395],[-2.51194,53.2642],[-2.51097,53.2639],[-2.51174,53.26305]]]]}},
{ "type":"Feature","properties":{"osm_way_id":"787204453","building":"residential","other":{"addr:city":"Northwich","addr:housenumber":"1","addr:postcode":"CW9 8XE","addr:street":"Bowfell Close"}}, "geometry":{"type":"MultiPolygon","coordinates":[[[[-2.52413,53.2362],[-2.52405,53.2362],[-2.52405,53.23619],[-2.52402,53.23619],[-2.52402,53.23612],[-2.52413,53.23612],[-2.52413,53.2362]]]]}},
{ "type":"Feature","properties":{"osm_way_id":"922837157","building":"semidetached_house","other":{"addr:city":"Chester","addr:housenumber":"15","addr:postcode":"CH2 3DL","addr:street":"Housesteads Drive","building:levels":"2"}}, "geometry":{"type":"MultiPolygon","coordinates":[[[[-2.86974,53.19761],[-2.8698,53.19754],[-2.86973,53.19751],[-2.86966,53.19758],[-2.86974,53.19761]]]]}},
{ "type":"Feature","properties":{"osm_way_id":"996021134","name":"ALDI","building":"yes","shop":"supermarket","other":{"brand":"ALDI","brand:wikidata":"Q41171672","brand:wikipedia":"en:Aldi"}}, "geometry":{"type":"MultiPolygon","coordinates":[[[[-2.90215,53.20529],[-2.90119,53.20532],[-2.90117,53.20505],[-2.90208,53.20502],[-2.9021,53.20523],[-2.90215,53.20522],[-2.90215,53.20529]]]]}},
{ "type":"Feature","properties":{"osm_way_id":"1001094224","name":"Aldi","building":"yes","shop":"supermarket","other":{"addr:city":"Winsford","addr:country":"GB","branch":"Winsford","brand":"ALDI","brand:wikidata":"Q41171672","brand:wikipedia":"en:Aldi","contact:phone":"+44 800 042 0800","contact:website":"https:\/\/www.aldi.co.uk\/store\/s-uk-E0174","fhrs:id":"290127","opening_hours":"Mo-Sa 08:00-22:00; Su 10:00-16:00"}}, "geometry":{"type":"MultiPolygon","coordinates":[[[[-2.53219,53.19177],[-2.53176,53.19202],[-2.53117,53.19166],[-2.53143,53.19151],[-2.53139,53.19149],[-2.53151,53.19142],[-2.53194,53.19169],[-2.532,53.19165],[-2.53219,53.19177]]]]}},
{ "type":"Feature","properties":{"osm_way_id":"1024538892","name":"ALDI","building":"supermarket","shop":"supermarket","other":{"addr:city":"Chester","addr:postcode":"CH3 5NA","addr:street":"Tarvin Road","alt_name":"ALDI Chester","brand":"ALDI","brand:wikidata":"Q41171672","brand:wikipedia":"en:Aldi","fhrs:id":"624475","height":"10.63","height:median":"8.51","operator":"Aldi","source:postcode":"FHRS data","website":"https:\/\/www.aldi.co.uk\/store\/s-uk-E0867"}}, "geometry":{"type":"MultiPolygon","coordinates":[[[[-2.86315,53.19354],[-2.86201,53.19339],[-2.86207,53.19324],[-2.86202,53.19323],[-2.8621,53.19303],[-2.86246,53.19308],[-2.86245,53.1931],[-2.86295,53.19317],[-2.86296,53.19314],[-2.86328,53.19318],[-2.86327,53.19321],[-2.86324,53.19329],[-2.86315,53.19354]]]]}}
]
}
