{
"type": "FeatureCollection",
"features": [
{ "type":"Feature","properties":{"osm_id":"629754174","name":"Premier Supermarket","other":{"shop":"supermarket","operator":"Premier"}}, "geometry":{"type":"Point","coordinates":[0.70373,51.54812 ]}},
{ "type":"Feature","properties":{"osm_id":"639153463","name":"Co-op Food","other":{"brand":"Co-op Food","brand:wikidata":"Q3277439","brand:wikipedia":"en:Co-op Food","operator":"The Co-operative Group","operator:wikidata":"Q117202","operator:wikipedia":"en:The Co-operative Group","shop":"supermarket","wheelchair":"yes","wheelchair:description":"Underground parking with lift, wide aisles and very helpful staff"}}, "geometry":{"type":"Point","coordinates":[0.69636,51.56286 ]}},
{ "type":"Feature","properties":{"osm_id":"664905763","name":"Londis","other":{"brand":"Londis","brand:wikidata":"Q21008564","brand:wikipedia":"en:Londis (United Kingdom)","operator":"Londis","shop":"supermarket"}}, "geometry":{"type":"Point","coordinates":[0.69421,51.54015 ]}},
{ "type":"Feature","properties":{"osm_id":"765719577","name":"Nick's Convenience Store","other":{"shop":"supermarket"}}, "geometry":{"type":"Point","coordinates":[0.72884,51.54053 ]}},
{ "type":"Feature","properties":{"osm_id":"4363803035","name":"Co-op","other":{"shop":"supermarket"}}, "geometry":{"type":"Point","coordinates":[0.6581,51.54793 ]}},
{ "type":"Feature","properties":{"osm_id":"4500724081","name":"Sainsbury's","other":{"addr:city":"Westcliff-On-Sea","addr:housenumber":"536","addr:postcode":"SS0 9HS","addr:street":"London Road","brand":"Sainsbury's","brand:wikidata":"Q152096","brand:wikipedia":"en:Sainsbury's","fhrs:id":"855984","shop":"supermarket","source:addr":"FHRS Open Data","website":"https:\/\/stores.sainsburys.co.uk\/4561\/westcliff-london-road-local"}}, "geometry":{"type":"Point","coordinates":[0.68763,51.54497 ]}},
{ "type":"Feature","properties":{"osm_id":"8470956630","name":"ALDI","other":{"addr:city":"Southend-On-Sea","addr:country":"GB","addr:housename":"Ecko Business Park","addr:postcode":"SS2 6AH","addr:street":"Priory Crescent","brand":"ALDI","brand:wikidata":"Q41171672","brand:wikipedia":"en:Aldi","fhrs:id":"1284896","shop":"supermarket"}}, "geometry":{"type":"Point","coordinates":[0.70722,51.5564 ]}},
{ "type":"Feature","properties":{"osm_id":"9186739837","name":"Lidl","other":{"addr:country":"GB","addr:postcode":"SS3 9FL","addr:street":"Campfield Road","addr:unit":"1-5","brand":"Lidl","brand:wikidata":"Q151954","brand:wikipedia":"en:Lidl","fhrs:id":"1334844","shop":"supermarket"}}, "geometry":{"type":"Point","coordinates":[0.7854,51.52968 ]}},
{ "type":"Feature","properties":{"osm_id":"9217878687","name":"Lidl","other":{"addr:country":"GB","addr:housename":"Greyhound Retail Park","addr:postcode":"SS2 5PY","addr:street":"Greyhound Way","addr:unit":"3C","brand":"Lidl","brand:wikidata":"Q151954","brand:wikipedia":"en:Lidl","fhrs:id":"512612","operator":"Lidl UK GmbH","shop":"supermarket","survey:date":"2017-11-17"}}, "geometry":{"type":"Point","coordinates":[0.71581,51.54462 ]}},
{ "type":"Feature","properties":{"osm_way_id":"89502543","name":"Sainsbury's","building":"yes","shop":"supermarket","other":{"brand":"Sainsbury's","wheelchair":"yes","addr:street":"London Road","addr:postcode":"SS1 1PL","brand:wikidata":"Q152096","brand:wikipedia":"en:Sainsbury's","addr:housenumber":"45"}}, "geometry":{"type":"MultiPolygon","coordinates":[[[[0.70947,51.54034],[0.70952,51.54037],[0.7096,51.54084],[0.70962,51.54084],[0.70962,51.54085],[0.70986,51.54089],[0.7099,51.54091],[0.70976,51.54101],[0.70964,51.54101],[0.70965,51.54105],[0.70871,51.54111],[0.70871,51.5411],[0.70869,51.541],[0.7087,51.541],[0.70868,51.5408],[0.7086,51.5408],[0.70854,51.54039],[0.70947,51.54034]]]]}},
{ "type":"Feature","properties":{"osm_way_id":"90523272","name":"Waitrose\/John Lewis","building":"yes","shop":"supermarket","other":{"brand":"Waitrose","brand:wikidata":"Q771734","brand:wikipedia":"en:Waitrose & Partners","official_name":"Waitrose & Partners","wheelchair":"yes"}}, "geometry":{"type":"MultiPolygon","coordinates":[[[[0.72364,51.55523],[0.72399,51.55532],[0.72399,51.55531],[0.724,51.5553],[0.7243,51.55538],[0.72429,51.55539],[0.7248,51.55552],[0.72481,51.55551],[0.72511,51.55558],[0.7251,51.5556],[0.72525,51.55563],[0.7253,51.55565],[0.72536,51.55567],[0.7254,51.5557],[0.72542,51.55573],[0.72544,51.55576],[0.72545,51.55579],[0.72544,51.55582],[0.7254,51.55589],[0.7252,51.5562],[0.72511,51.55617],[0.72502,51.5563],[0.7248,51.55624],[0.72481,51.55623],[0.72453,51.55616],[0.72452,51.55618],[0.72429,51.55612],[0.7243,51.5561],[0.72401,51.55602],[0.72404,51.55598],[0.724,51.55597],[0.72397,51.55601],[0.72353,51.5559],[0.72362,51.55576],[0.72345,51.55572],[0.72365,51.5554],[0.72354,51.55537],[0.72364,51.55523]]]]}},
{ "type":"Feature","properties":{"osm_way_id":"94208064","name":"Tesco Extra","building":"yes","shop":"supermarket","other":{"brand":"Tesco Extra","alt_name":"Tesco Southend Superstore","operator":"Tesco Stores Ltd","brand:wikidata":"Q25172225","brand:wikipedia":"en:Tesco Extra"}}, "geometry":{"type":"MultiPolygon","coordinates":[[[[0.68388,51.56162],[0.68362,51.56086],[0.68358,51.56073],[0.68502,51.56055],[0.68512,51.56092],[0.68524,51.56092],[0.68536,51.56122],[0.68513,51.56124],[0.68517,51.56135],[0.68425,51.56147],[0.68429,51.56156],[0.68388,51.56162]]]]}},
{ "type":"Feature","properties":{"osm_way_id":"137843323","name":"Asda","building":"retail","shop":"supermarket","other":{"brand":"Asda","fhrs:id":"512449","operator":"Asda Stores Ltd","addr:city":"Southend-On-Sea","addr:street":"North Shoebury Road","addr:country":"GB","addr:postcode":"SS3 8DA","contact:phone":"+44 1702 382500","brand:wikidata":"Q297410","brand:wikipedia":"en:Asda","contact:twitter":"@asda","contact:website":"https:\/\/storelocator.asda.com\/east-of-england\/shoeburyness\/north-shoebury-road","contact:facebook":"https:\/\/www.facebook.com\/asda\/","opening_hours:covid19":"Mo-Sa 08:00-22:00; Su 10:00-16:00"}}, "geometry":{"type":"MultiPolygon","coordinates":[[[[0.78044,51.53903],[0.78065,51.53906],[0.78068,51.53896],[0.78089,51.53898],[0.78086,51.53908],[0.78139,51.53914],[0.7813,51.53947],[0.78134,51.53948],[0.78133,51.53951],[0.78141,51.53952],[0.78131,51.53989],[0.7814,51.5399],[0.78136,51.54005],[0.78135,51.54008],[0.78134,51.54021],[0.78137,51.54023],[0.78145,51.54019],[0.78142,51.54017],[0.7816,51.54007],[0.78179,51.54021],[0.78181,51.5402],[0.78199,51.54033],[0.78218,51.54036],[0.78217,51.54042],[0.78214,51.54042],[0.7821,51.54053],[0.78204,51.54052],[0.78206,51.54047],[0.78195,51.54046],[0.78189,51.54049],[0.78162,51.5403],[0.7815,51.54037],[0.78183,51.54062],[0.78171,51.54068],[0.78173,51.54069],[0.78168,51.54072],[0.78166,51.54071],[0.78162,51.54073],[0.78114,51.54037],[0.78121,51.54033],[0.78115,51.54029],[0.78122,51.54026],[0.78123,51.54023],[0.78127,51.54021],[0.78128,51.54012],[0.78124,51.54012],[0.78123,51.54015],[0.78082,51.5401],[0.78084,51.54004],[0.7805,51.54],[0.7805,51.54001],[0.78049,51.54],[0.78049,51.54001],[0.78041,51.54],[0.78041,51.54],[0.78027,51.53998],[0.78028,51.53995],[0.78029,51.5399],[0.78015,51.53989],[0.78018,51.53981],[0.78002,51.53979],[0.7801,51.5395],[0.78032,51.53953],[0.78028,51.53967],[0.78038,51.53968],[0.78048,51.53931],[0.78046,51.53931],[0.78046,51.53929],[0.78027,51.53927],[0.78029,51.53922],[0.78039,51.53923],[0.78044,51.53903]]]]}},
{ "type":"Feature","properties":{"osm_way_id":"145581049","name":"Morrisons","shop":"supermarket","other":{"addr:postcode":"SS2 6SH","brand":"Morrisons","brand:wikidata":"Q922344","brand:wikipedia":"en:Morrisons","building:part":"supermarket","operator":"Morrisons"}}, "geometry":{"type":"MultiPolygon","coordinates":[[[[0.6714,51.57116],[0.67169,51.57118],[0.67171,51.57109],[0.67182,51.5711],[0.67189,51.57075],[0.67113,51.57068],[0.671,51.57114],[0.6711,51.57115],[0.6714,51.57116]]]]}},
{ "type":"Feature","properties":{"osm_way_id":"205000789","name":"Co-op Food","shop":"supermarket","other":{"addr:housenumber":"165-169","addr:postcode":"SS0 7EL","addr:street":"Hamlet Court Road","brand":"Co-op Food","brand:wikidata":"Q3277439","brand:wikipedia":"en:Co-op Food","operator":"The Co-operative Group","operator:wikidata":"Q117202","operator:wikipedia":"en:The Co-operative Group"}}, "geometry":{"type":"MultiPolygon","coordinates":[[[[0.69496,51.54097],[0.69515,51.54088],[0.69524,51.54084],[0.69539,51.54097],[0.69511,51.5411],[0.6951,51.54109],[0.69496,51.54097]]]]}},
{ "type":"Feature","properties":{"osm_way_id":"261762951","name":"Co-op Food","building":"retail","shop":"supermarket","other":{"addr:city":"Southend-on-Sea","addr:housenumber":"53-57","addr:postcode":"SS2 5PB","addr:street":"Sutton Road","brand":"Co-op Food","brand:wikidata":"Q3277439","brand:wikipedia":"en:Co-op Food","operator":"The Co-operative Group","operator:wikidata":"Q117202","operator:wikipedia":"en:The Co-operative Group"}}, "geometry":{"type":"MultiPolygon","coordinates":[[[[0.71845,51.54255],[0.71851,51.54222],[0.71795,51.54219],[0.71792,51.54252],[0.71845,51.54255]]]]}},
{ "type":"Feature","properties":{"osm_way_id":"364095426","name":"Morrisons","building":"yes","shop":"supermarket","other":{"branch":"Local","brand":"Morrisons","brand:wikidata":"Q922344","brand:wikipedia":"en:Morrisons"}}, "geometry":{"type":"MultiPolygon","coordinates":[[[[0.70136,51.54012],[0.702,51.54008],[0.702,51.54017],[0.70136,51.54012]]]]}},
{ "type":"Feature","properties":{"osm_way_id":"515970100","name":"Lidl","building":"yes","shop":"supermarket","other":{"addr:city":"Southend-on-Sea","addr:country":"GB","addr:housenumber":"141","addr:postcode":"SS1 2SE","addr:street":"Woodgrange Drive","brand":"Lidl","brand:wikidata":"Q151954","brand:wikipedia":"en:Lidl","fhrs:id":"512604","opening_hours":"Mo-Sa 08:00-22:00; Su 10:00-16:00","operator":"Lidl"}}, "geometry":{"type":"MultiPolygon","coordinates":[[[[0.72996,51.53526],[0.73049,51.53527],[0.73049,51.53526],[0.7305,51.53509],[0.73043,51.53509],[0.73045,51.53477],[0.72999,51.53476],[0.72996,51.53526]]]]}},
{ "type":"Feature","properties":{"osm_way_id":"558281423","name":"Lidl","building":"yes","shop":"supermarket","other":{"addr:country":"GB","addr:housenumber":"70","addr:postcode":"SS9 5PR","addr:street":"Progress Road","alt_name":"Lidl Eastwood","brand":"Lidl","brand:wikidata":"Q151954","brand:wikipedia":"en:Lidl","fhrs:id":"957752","operator":"Lidl"}}, "geometry":{"type":"MultiPolygon","coordinates":[[[[0.6456,51.57055],[0.64648,51.57032],[0.64631,51.57006],[0.64568,51.57022],[0.64572,51.57028],[0.64547,51.57035],[0.6456,51.57055]]]]}},
{ "type":"Feature","properties":{"osm_way_id":"632859239","name":"Lidl","building":"retail","shop":"supermarket","other":{"brand":"Lidl","brand:wikidata":"Q151954","brand:wikipedia":"en:Lidl","operator":"Lidl"}}, "geometry":{"type":"MultiPolygon","coordinates":[[[[0.70457,51.54234],[0.70536,51.54242],[0.70553,51.54178],[0.70474,51.5417],[0.70457,51.54234]]]]}},
{ "type":"Feature","properties":{"osm_way_id":"638840405","name":"Waitrose","building":"yes","shop":"supermarket","other":{"brand":"Waitrose","brand:wikidata":"Q771734","brand:wikipedia":"en:Waitrose","official_name":"Waitrose & Partners","operator":"Waitrose & Partners","wheelchair":"yes"}}, "geometry":{"type":"MultiPolygon","coordinates":[[[[0.65416,51.54861],[0.65415,51.54834],[0.65462,51.54826],[0.6549,51.54827],[0.65492,51.54854],[0.6552,51.54854],[0.6552,51.5486],[0.65462,51.5486],[0.65461,51.54858],[0.65448,51.54858],[0.65445,51.54861],[0.65416,51.54861]]]]}},
{ "type":"Feature","properties":{"osm_way_id":"882130160","name":"Aldi","building":"yes","shop":"supermarket","other":{"addr:city":"Westcliff-on-Sea","addr:housenumber":"684-686","addr:postcode":"SS0 9HQ","addr:street":"London Road","brand":"ALDI","brand:wikidata":"Q41171672","brand:wikipedia":"en:Aldi"}}, "geometry":{"type":"MultiPolygon","coordinates":[[[[0.68076,51.54551],[0.68162,51.54555],[0.6816,51.54543],[0.68156,51.54542],[0.68157,51.54533],[0.68155,51.54533],[0.68155,51.54527],[0.68121,51.54525],[0.68121,51.5452],[0.68108,51.5452],[0.68107,51.54525],[0.68079,51.54523],[0.68076,51.54551]]]]}}
]
}
