{
"type": "FeatureCollection",
"features": [
{ "type":"Feature","properties":{"osm_id":"269444579","name":"Spar","other":{"addr:city":"Durham","addr:housenumber":"7","addr:postcode":"DH1 1AR","addr:street":"Blue House Buildings","brand":"Spar","brand:wikidata":"Q610492","fhrs:id":"462697","shop":"supermarket"}}, "geometry":{"type":"Point","coordinates":[-1.5294,54.78762 ]}},
{ "type":"Feature","properties":{"osm_id":"269538945","name":"The Co-Operative","other":{"shop":"supermarket","fhrs:id":"303199","addr:city":"Sherburn","addr:street":"Front Street","addr:country":"GB","addr:postcode":"DH6 1HE"}}, "geometry":{"type":"Point","coordinates":[-1.5055,54.77467 ]}},
{ "type":"Feature","properties":{"osm_id":"287355248","name":"The Co-operative Food","other":{"shop":"supermarket"}}, "geometry":{"type":"Point","coordinates":[-1.52389,54.73962 ]}},
{ "type":"Feature","properties":{"osm_id":"300057771","other":{"fee":"no","operator":"Cashzone","razed:amenity":"atm"}}, "geometry":{"type":"Point","coordinates":[-1.5765,54.79946 ]}},
{ "type":"Feature","properties":{"osm_id":"440257717","name":"The Cooperative","other":{"operator":"Cooperative","shop":"supermarket"}}, "geometry":{"type":"Point","coordinates":[-1.47349,54.71956 ]}},
{ "type":"Feature","properties":{"osm_id":"510736332","name":"Eco Supermarket","other":{"shop":"supermarket","fhrs:id":"1181312","addr:city":"Langley Park","addr:street":"Front Street","addr:postcode":"DH7 9XE","addr:housename":"Old Co-operative Buildings","addr:housenumber":"Unit 1"}}, "geometry":{"type":"Point","coordinates":[-1.67083,54.79868 ]}},
{ "type":"Feature","properties":{"osm_id":"705356392","name":"Sacriston Londis","other":{"shop":"supermarket"}}, "geometry":{"type":"Point","coordinates":[-1.62665,54.81759 ]}},
{ "type":"Feature","properties":{"osm_id":"1574785183","man_made":"surveillance","other":{"dcc_strategic_2011":"yes","dcc_strategic_ref":"7","description":"Tesco Market Place","operator":"Durham County Council","surveillance":"public","surveillance:direction_changes":"yes"}}, "geometry":{"type":"Point","coordinates":[-1.57599,54.77673 ]}},
{ "type":"Feature","properties":{"osm_id":"1716291860","name":"The Co-operative Food","other":{"addr:city":"Barnard Castle","addr:housenumber":"17","addr:postcode":"DL12 8LY","addr:street":"Horsemarket","atm":"yes","fhrs:id":"305018","opening_hours":"Mo-Su 07:00-23:00","operator":"The Co-operative Group","shop":"supermarket"}}, "geometry":{"type":"Point","coordinates":[-1.92397,54.54402 ]}},
{ "type":"Feature","properties":{"osm_id":"1822205338","name":"The Co-operative Food","other":{"addr:city":"Durham","addr:postcode":"DH7 9JX","addr:street":"Newhouse Road","addr:village":"Esh Winning","fhrs:id":"303351","operator":"The Co-operative Group","shop":"supermarket","source:addr":"FHRS Open Data"}}, "geometry":{"type":"Point","coordinates":[-1.70479,54.77007 ]}},
{ "type":"Feature","properties":{"osm_id":"1822205427","name":"Nisa Local","other":{"addr:city":"Durham","addr:housenumber":"3","addr:postcode":"DH7 9HR","addr:street":"Station View","addr:village":"Esh Winning","fhrs:id":"303188","shop":"supermarket","source:addr":"FHRS Open Data"}}, "geometry":{"type":"Point","coordinates":[-1.70481,54.76922 ]}},
{ "type":"Feature","properties":{"osm_id":"1854995218","name":"Iceland","other":{"addr:city":"Spennymoor","addr:postcode":"DL16 6YQ","addr:street":"Oxford Road","brand":"Iceland","brand:wikidata":"Q721810","fhrs:id":"304151","shop":"supermarket","source:addr":"FHRS Open Data"}}, "geometry":{"type":"Point","coordinates":[-1.60008,54.70085 ]}},
{ "type":"Feature","properties":{"osm_id":"1854995240","name":"McColl's","other":{"shop":"supermarket"}}, "geometry":{"type":"Point","coordinates":[-1.59972,54.70101 ]}},
{ "type":"Feature","properties":{"osm_id":"1961602506","name":"Asda","other":{"shop":"supermarket","brand":"Asda","fhrs:id":"302196","operator":"Asda Stores Ltd","addr:city":"Seaham","addr:unit":"1","addr:street":"South Terrace","addr:country":"GB","addr:postcode":"SR7 7DR","addr:housename":"Byron Place Shopping Centre","brand:wikidata":"Q297410","brand:wikipedia":"en:Asda","contact:twitter":"@asda","contact:website":"https:\/\/storelocator.asda.com\/north-east\/seaham\/byron-place-south-terrace","contact:facebook":"https:\/\/www.facebook.com\/asda\/"}}, "geometry":{"type":"Point","coordinates":[-1.33078,54.83556 ]}},
{ "type":"Feature","properties":{"osm_id":"1961602509","name":"Aldi","other":{"addr:city":"Seaham","addr:country":"GB","addr:postcode":"SR7 7DA","addr:street":"North Railway Street","brand":"ALDI","brand:wikidata":"Q41171672","brand:wikipedia":"en:Aldi","fhrs:id":"301976","shop":"supermarket"}}, "geometry":{"type":"Point","coordinates":[-1.33348,54.8383 ]}},
{ "type":"Feature","properties":{"osm_id":"2409835838","name":"Aldi","other":{"addr:city":"Newton Aycliffe","addr:country":"GB","addr:postcode":"DL5 4DH","addr:street":"Greenwell Road","brand":"ALDI","brand:wikidata":"Q41171672","brand:wikipedia":"en:Aldi","contact:website":"https:\/\/www.aldi.co.uk\/store\/s-uk-E0798","fhrs:id":"466728","shop":"supermarket"}}, "geometry":{"type":"Point","coordinates":[-1.57023,54.62083 ]}},
{ "type":"Feature","properties":{"osm_id":"2625115113","name":"Marks & Spencer","other":{"addr:place":"Bishop Auckland Shopping Park","addr:postcode":"DL14 9FA","addr:unit":"4","brand":"Marks & Spencer","brand:wikidata":"Q714491","fhrs:id":"534637","shop":"supermarket"}}, "geometry":{"type":"Point","coordinates":[-1.69641,54.64077 ]}},
{ "type":"Feature","properties":{"osm_id":"2693420502","name":"The Co-operative Food","other":{"addr:city":"Shildon","addr:housenumber":"18","addr:postcode":"DL4 2JE","addr:street":"Redworth Road","fhrs:id":"682914","shop":"supermarket","source:addr":"FHRS Open Data"}}, "geometry":{"type":"Point","coordinates":[-1.64584,54.62505 ]}},
{ "type":"Feature","properties":{"osm_id":"3818433700","name":"Heron","other":{"addr:city":"Bishop Auckland","addr:housenumber":"34-34a","addr:postcode":"DL14 7EG","addr:street":"Newgate Street","brand":"Heron Foods","brand:wikidata":"Q5743472","brand:wikipedia":"en:Heron Foods","fhrs:id":"812550","shop":"supermarket","source:addr":"FHRS Open Data"}}, "geometry":{"type":"Point","coordinates":[-1.67484,54.66432 ]}},
{ "type":"Feature","properties":{"osm_id":"3828717579","name":"ALDI","other":{"addr:city":"Bishop Auckland","addr:housenumber":"149","addr:postcode":"DL14 9AU","addr:street":"Watling Road","brand":"ALDI","brand:wikidata":"Q41171672","brand:wikipedia":"en:Aldi","fhrs:id":"628435","shop":"supermarket","source:addr":"FHRS Open Data"}}, "geometry":{"type":"Point","coordinates":[-1.68189,54.64253 ]}},
{ "type":"Feature","properties":{"osm_id":"3828717580","name":"Iceland","other":{"addr:city":"Bishop Auckland","addr:housenumber":"151","addr:postcode":"DL14 9AU","addr:street":"Watling Road","brand":"Iceland","brand:wikidata":"Q721810","fhrs:id":"304785","shop":"supermarket","source:addr":"FHRS Open Data"}}, "geometry":{"type":"Point","coordinates":[-1.68229,54.64244 ]}},
{ "type":"Feature","properties":{"osm_id":"3834353578","name":"Heron Foods","other":{"shop":"supermarket","brand":"Heron Foods","fhrs:id":"728146","addr:city":"Barnard Castle","addr:street":"Market Place","addr:country":"GB","addr:postcode":"DL12 8NB","opening_hours":"Mo-Sa 08:00-18:00; Su 10:00-16:00","brand:wikidata":"Q5743472","brand:wikipedia":"en:Heron Foods","contact:website":"https:\/\/heronfoods.com\/storelocator\/store-details\/barnard-castle","addr:housenumber":"22"}}, "geometry":{"type":"Point","coordinates":[-1.92406,54.54308 ]}},
{ "type":"Feature","properties":{"osm_id":"4053252577","name":"Heron Foods","other":{"addr:city":"Chester-le-Street","addr:housenumber":"119","addr:postcode":"DH3 3BL","addr:street":"Front Street","brand":"Heron Foods","brand:wikidata":"Q5743472","brand:wikipedia":"en:Heron Foods","contact:website":"https:\/\/heronfoods.com\/storelocator\/store-details\/chester-le-street","fhrs:id":"728153","opening_hours":"Mo-Sa 08:00-18:00; Su 10:00-16:00","shop":"supermarket","wheelchair":"yes"}}, "geometry":{"type":"Point","coordinates":[-1.57384,54.85477 ]}},
{ "type":"Feature","properties":{"osm_id":"4073667086","name":"Co-op Food","other":{"shop":"supermarket","brand":"Co-op Food","addr:city":"Consett","addr:street":"Middle Street","brand:wikidata":"Q3277439","brand:wikipedia":"en:Co-op Food"}}, "geometry":{"type":"Point","coordinates":[-1.83294,54.85167 ]}},
{ "type":"Feature","properties":{"osm_id":"4149550203","name":"Ken Warne","other":{"addr:city":"Spennymoor","addr:housenumber":"53-57","addr:postcode":"DL16 7LF","addr:street":"Whitworth Terrace","fhrs:id":"304553","shop":"supermarket","source:addr":"FHRS Open Data"}}, "geometry":{"type":"Point","coordinates":[-1.61051,54.6949 ]}},
{ "type":"Feature","properties":{"osm_id":"4630282515","name":"DS & GK Dhanda","other":{"shop":"supermarket","fhrs:id":"301973","addr:city":"Seaham","addr:street":"Parkside Crescent","addr:country":"GB","addr:postcode":"SR7 7UQ","addr:housenumber":"54-55"}}, "geometry":{"type":"Point","coordinates":[-1.34306,54.82692 ]}},
{ "type":"Feature","properties":{"osm_id":"4754913136","name":"Home Bargains","other":{"addr:city":"Durham","addr:place":"Dragonville Retail Park","addr:postcode":"DH1 2WP","addr:street":"Dragon Lane","addr:unit":"7","fhrs:id":"642305","opening_hours":"Mo-Fr 08:00-20:00; Sa 08:00-19:00; Su 10:00-16:00","shop":"supermarket","source:addr":"FHRS Open Data"}}, "geometry":{"type":"Point","coordinates":[-1.54135,54.77643 ]}},
{ "type":"Feature","properties":{"osm_id":"6264615620","name":"One Stop","other":{"addr:city":"Crook","addr:housenumber":"16-17","addr:postcode":"DL15 9HS","addr:street":"Hope Street","fhrs:id":"696320","opening_hours":"Mo-Su 07:00-23:00","shop":"supermarket"}}, "geometry":{"type":"Point","coordinates":[-1.74699,54.71575 ]}},
{ "type":"Feature","properties":{"osm_id":"7019848798","name":"Sainsbury's Local","other":{"addr:city":"Seaham","addr:place":"Featherbed Court","addr:postcode":"SR7 7XR","brand":"Sainsbury's Local","brand:wikidata":"Q13218434","fhrs:id":"305262","shop":"supermarket","source:addr":"FHRS Open Data"}}, "geometry":{"type":"Point","coordinates":[-1.33895,54.84504 ]}},
{ "type":"Feature","properties":{"osm_id":"7620645081","ref":"Beryl","other":{"amenity":"vending_machine","operator":"Amazon","vending":"parcel_pickup"}}, "geometry":{"type":"Point","coordinates":[-1.57456,54.79916 ]}},
{ "type":"Feature","properties":{"osm_id":"8615402198","other":{"historic":"ruins","site_type":"lime_kiln"}}, "geometry":{"type":"Point","coordinates":[-2.24045,54.67305 ]}},
{ "type":"Feature","properties":{"osm_id":"9347520947","name":"Co-operative Food","other":{"addr:city":"Bishop Auckland","addr:housenumber":"47","addr:postcode":"DL13 4DH","addr:street":"High Street","addr:town":"Tow Law","fhrs:id":"302655","phone":"+44 1388 730275","shop":"supermarket"}}, "geometry":{"type":"Point","coordinates":[-1.81517,54.74613 ]}},
{ "type":"Feature","properties":{"osm_id":"9350766918","name":"Tesco Claypath Express","other":{"addr:postcode":"DH1 1RH","brand":"Tesco Express","brand:wikidata":"Q98456772","fhrs:id":"1426541","shop":"supermarket","source:addr":"FHRS Open Data","website":"https:\/\/www.tesco.com\/store-locator\/county-durham\/29-claypath"}}, "geometry":{"type":"Point","coordinates":[-1.57331,54.77819 ]}},
{ "type":"Feature","properties":{"osm_id":"44355609","waterway":"stream"},"geometry":{"type":"LineString","coordinates":[[-1.94629,54.85172],[-1.94714,54.85199],[-1.94821,54.85234],[-1.94913,54.85269],[-1.94927,54.85299]]}},
{ "type":"Feature","properties":{"osm_way_id":"26341889","name":"Tesco Extra","building":"retail","shop":"supermarket","other":{"addr:city":"Durham","addr:postcode":"DH1 2XQ","addr:street":"Dragon Lane","brand":"Tesco Extra","brand:wikidata":"Q25172225","fhrs:id":"303090","opening_hours":"Tu-Sa 00:00-24:00; Mo 06:00-24:00; Su 10:00-16:00","operator":"Tesco","source:postcode":"FHRS data","wheelchair":"yes"}}, "geometry":{"type":"MultiPolygon","coordinates":[[[[-1.5415,54.77765],[-1.5426,54.77755],[-1.54305,54.77909],[-1.5429,54.7791],[-1.54288,54.77903],[-1.54284,54.77904],[-1.54282,54.77899],[-1.54247,54.77903],[-1.54243,54.77894],[-1.54189,54.77899],[-1.5418,54.77869],[-1.54174,54.7787],[-1.54171,54.77858],[-1.54177,54.77858],[-1.5415,54.77765]]]]}},
{ "type":"Feature","properties":{"osm_way_id":"32935399","name":"Asda","building":"yes","shop":"supermarket","other":{"brand":"Asda","fhrs:id":"305112","operator":"Asda Stores Ltd","addr:city":"Peterlee","addr:street":"Surtees Road","addr:country":"GB","addr:postcode":"SR8 5HA","brand:wikidata":"Q297410","brand:wikipedia":"en:Asda","contact:twitter":"@asda","contact:website":"https:\/\/storelocator.asda.com\/north-east\/peterlee\/surtrees-road","contact:facebook":"https:\/\/www.facebook.com\/asda\/"}}, "geometry":{"type":"MultiPolygon","coordinates":[[[[-1.33487,54.76047],[-1.33392,54.76009],[-1.3338,54.7602],[-1.33311,54.76077],[-1.33405,54.76115],[-1.33421,54.76102],[-1.33439,54.76109],[-1.33473,54.76082],[-1.33454,54.76075],[-1.33487,54.76047]]]]}},
{ "type":"Feature","properties":{"osm_way_id":"35269900","name":"Sainsbury's","building":"retail","shop":"supermarket","other":{"addr:city":"Durham","addr:place":"Arnison Retail Centre","addr:postcode":"DH1 5GD","addr:suburb":"Pity Me","addr:unit":"K","brand":"Sainsbury's","brand:wikidata":"Q152096","brand:wikipedia":"en:Sainsbury's","fhrs:id":"302985","opening_hours":"Mo-Fr 08:00-22:00; Sa 08:00-21:00; Su 10:00-16:00","source:addr":"FHRS Open Data","website":"https:\/\/stores.sainsburys.co.uk\/0776\/durham"}}, "geometry":{"type":"MultiPolygon","coordinates":[[[[-1.57908,54.80718],[-1.57895,54.80663],[-1.57913,54.80662],[-1.57911,54.80655],[-1.57945,54.80652],[-1.57941,54.80635],[-1.57956,54.80634],[-1.58048,54.80626],[-1.58067,54.80705],[-1.57908,54.80718]]]]}},
{ "type":"Feature","properties":{"osm_way_id":"52995901","name":"Co-op","building":"yes","shop":"supermarket","other":{"fhrs:id":"304234","addr:street":"Quebec Street","addr:postcode":"DH7 9UU","addr:housenumber":"36-38"}}, "geometry":{"type":"MultiPolygon","coordinates":[[[[-1.67472,54.79889],[-1.67474,54.79898],[-1.67451,54.799],[-1.67447,54.79871],[-1.67468,54.7987],[-1.67472,54.79889]]]]}},
{ "type":"Feature","properties":{"osm_way_id":"60233372","name":"Asda","building":"yes","shop":"supermarket","other":{"brand":"Asda","fhrs:id":"305071","operator":"Asda Stores Ltd","addr:city":"Spennymoor","addr:street":"Saint Andrew's Lane","addr:country":"GB","addr:postcode":"DL16 6QB","brand:wikidata":"Q297410","brand:wikipedia":"en:Asda","contact:twitter":"@asda","contact:website":"https:\/\/storelocator.asda.com\/north-east\/spennymoor\/st-andrews-lane","contact:facebook":"https:\/\/www.facebook.com\/asda\/"}}, "geometry":{"type":"MultiPolygon","coordinates":[[[[-1.59729,54.69903],[-1.59831,54.69877],[-1.59838,54.69875],[-1.59872,54.69925],[-1.59766,54.69953],[-1.59729,54.69903]]]]}},
{ "type":"Feature","properties":{"osm_way_id":"81610481","name":"Tesco Extra","building":"supermarket","shop":"supermarket","other":{"addr:city":"Newton Aycliffe","addr:postcode":"DL5 4DH","addr:street":"Greenwell Road","brand":"Tesco Extra","brand:wikidata":"Q25172225","fhrs:id":"304947","opening_hours":"Mo-Fr 00:15-24:00; Sa 00:00-23:15; Su 11:15-16:30","source:addr":"FHRS Open Data"}}, "geometry":{"type":"MultiPolygon","coordinates":[[[[-1.56825,54.62203],[-1.56802,54.6219],[-1.56806,54.62188],[-1.56739,54.62149],[-1.56864,54.62077],[-1.56873,54.62082],[-1.56862,54.62088],[-1.5688,54.62099],[-1.56866,54.62107],[-1.56908,54.62131],[-1.56942,54.62111],[-1.56957,54.62119],[-1.56921,54.6214],[-1.56927,54.62143],[-1.56825,54.62203]]]]}},
{ "type":"Feature","properties":{"osm_way_id":"143920564","name":"Tesco Express","building":"retail","shop":"supermarket","other":{"addr:city":"Durham","addr:housenumber":"17","addr:postcode":"DH1 3NE","addr:street":"Market Place","brand":"Tesco Express","brand:wikidata":"Q98456772","contact:website":"https:\/\/www.tesco.com\/store-locator\/durham\/17-market-place","fhrs:id":"302409","old_name":"Woolworths","opening_hours":"Mo-Sa 07:00-22:00; Su 11:00-17:00","wheelchair":"yes"}}, "geometry":{"type":"MultiPolygon","coordinates":[[[[-1.57599,54.77673],[-1.57631,54.77662],[-1.57627,54.77651],[-1.57624,54.77651],[-1.5762,54.77645],[-1.57617,54.77645],[-1.57615,54.77641],[-1.57613,54.77637],[-1.57607,54.77639],[-1.57602,54.77632],[-1.57599,54.77615],[-1.57581,54.77616],[-1.57583,54.77627],[-1.57584,54.77632],[-1.57575,54.77633],[-1.57579,54.77655],[-1.57591,54.77653],[-1.57596,54.77666],[-1.57599,54.77673]]]]}},
{ "type":"Feature","properties":{"osm_way_id":"158236078","name":"The Co-operative Food","building":"yes","shop":"supermarket","other":{"addr:city":"Durham","addr:postcode":"DH7 7LQ","addr:street":"Durham Road","addr:village":"Ushaw Moor","brand":"The Co-operative Food","brand:wikidata":"Q107617274","fhrs:id":"303109","source:addr":"FHRS Open Data"}}, "geometry":{"type":"MultiPolygon","coordinates":[[[[-1.6446,54.77764],[-1.64419,54.77751],[-1.64425,54.77744],[-1.64428,54.77741],[-1.64456,54.7775],[-1.6446,54.77746],[-1.64457,54.77745],[-1.64459,54.77743],[-1.64475,54.77748],[-1.6446,54.77764]]]]}},
{ "type":"Feature","properties":{"osm_way_id":"159509348","name":"Sainsbury's","building":"yes","shop":"supermarket","other":{"architect":"HCD","brand":"Sainsbury's","brand:wikidata":"Q152096"}}, "geometry":{"type":"MultiPolygon","coordinates":[[[[-1.69622,54.63927],[-1.69635,54.6392],[-1.69484,54.6383],[-1.69402,54.63875],[-1.6945,54.63904],[-1.69447,54.63906],[-1.69468,54.63919],[-1.69471,54.63917],[-1.69482,54.63923],[-1.69479,54.63925],[-1.69507,54.63942],[-1.6951,54.6394],[-1.69535,54.63955],[-1.69541,54.63952],[-1.69539,54.6395],[-1.69602,54.63915],[-1.69622,54.63927]]]]}},
{ "type":"Feature","properties":{"osm_way_id":"159509349","name":"Tesco Extra","building":"yes","shop":"supermarket","other":{"addr:city":"Bishop Auckland","addr:postcode":"DL14 9AB","addr:suburb":"St Helen Auckland","brand":"Tesco Extra","brand:wikidata":"Q25172225","brand:wikipedia":"en:Tesco Extra","fhrs:id":"304837","opening_hours":"Mo-Fr 00:00-24:00; Sa 00:00-23:30; Su 11:00-16:00","source:addr":"FHRS Open Data"}}, "geometry":{"type":"MultiPolygon","coordinates":[[[[-1.69913,54.64081],[-1.69915,54.64056],[-1.69898,54.64046],[-1.69852,54.64019],[-1.69731,54.64079],[-1.69814,54.64134],[-1.69849,54.64117],[-1.69855,54.64121],[-1.69886,54.64106],[-1.69902,54.64117],[-1.69915,54.6411],[-1.69929,54.6412],[-1.69936,54.64117],[-1.69898,54.64091],[-1.69913,54.64081]]]]}},
{ "type":"Feature","properties":{"osm_way_id":"159519923","name":"Morrisons","building":"supermarket","shop":"supermarket","other":{"addr:city":"Barnard Castle","addr:housenumber":"23","addr:postcode":"DL12 8JJ","addr:street":"Galgate","branch":"Barnard Castle","brand":"Morrisons","brand:wikidata":"Q922344","brand:wikipedia":"en:Morrisons","fhrs:id":"302608","opening_hours":"Mo-Sa 07:00-22:00; Su 10:00-16:00","operator":"Morrisons"}}, "geometry":{"type":"MultiPolygon","coordinates":[[[[-1.92337,54.54487],[-1.92334,54.54489],[-1.92293,54.54466],[-1.92344,54.54436],[-1.92385,54.54459],[-1.92337,54.54487]]]]}},
{ "type":"Feature","properties":{"osm_way_id":"159530895","name":"Lidl","building":"yes","shop":"supermarket","other":{"addr:city":"Bishop Auckland","addr:postcode":"DL14 9AB","addr:street":"Tindale Crescent","addr:suburb":"St Helen Auckland","brand":"Lidl","brand:wikidata":"Q151954","fhrs:id":"304789","source:addr":"FHRS Open Data"}}, "geometry":{"type":"MultiPolygon","coordinates":[[[[-1.69393,54.64182],[-1.69413,54.64172],[-1.69391,54.64158],[-1.69397,54.64155],[-1.6935,54.64125],[-1.69311,54.64146],[-1.69379,54.64189],[-1.69381,54.64188],[-1.69388,54.64192],[-1.69399,54.64186],[-1.69393,54.64182]]]]}},
{ "type":"Feature","properties":{"osm_way_id":"172373133","name":"Aldi","building":"yes","shop":"supermarket","other":{"addr:city":"Consett","addr:postcode":"DH8 5RE","addr:street":"Front Street","alt_name":"ALDI Consett","brand":"ALDI","brand:wikidata":"Q41171672","brand:wikipedia":"en:Aldi","fhrs:id":"302482"}}, "geometry":{"type":"MultiPolygon","coordinates":[[[[-1.83475,54.84974],[-1.83419,54.84933],[-1.8338,54.84951],[-1.83393,54.84961],[-1.83436,54.84992],[-1.83475,54.84974]]]]}},
{ "type":"Feature","properties":{"osm_way_id":"174698972","name":"Aldi","building":"yes","shop":"supermarket","other":{"addr:city":"Spennymoor","addr:postcode":"DL16 6DF","addr:street":"Cambridge Street","brand":"ALDI","brand:wikidata":"Q41171672","brand:wikipedia":"en:Aldi","fhrs:id":"305074","source:addr":"FHRS Open Data"}}, "geometry":{"type":"MultiPolygon","coordinates":[[[[-1.60161,54.69868],[-1.60096,54.69891],[-1.60074,54.6987],[-1.6007,54.69866],[-1.60089,54.69859],[-1.60094,54.69863],[-1.60139,54.69847],[-1.60161,54.69868]]]]}},
{ "type":"Feature","properties":{"osm_way_id":"176156426","name":"Tesco","building":"retail","shop":"supermarket","other":{"addr:city":"Chester-le-Street","addr:postcode":"DH3 3TF","addr:street":"North Burns","brand":"Tesco","brand:wikidata":"Q487494","brand:wikipedia":"en:Tesco","fhrs:id":"302926","opening_hours":"Mo-Sa 06:00-24:00; Su 10:00-16:00","source:addr":"FHRS Open Data"}}, "geometry":{"type":"MultiPolygon","coordinates":[[[[-1.57805,54.85894],[-1.57798,54.85852],[-1.57746,54.85855],[-1.57699,54.85857],[-1.57701,54.85869],[-1.57663,54.85871],[-1.57668,54.85902],[-1.57805,54.85894]]]]}},
{ "type":"Feature","properties":{"osm_way_id":"179202717","name":"Co-op Food","building":"yes","shop":"supermarket","other":{"addr:city":"Easington Colliery","addr:street":"Seaside Lane","brand":"Co-op Food","brand:wikidata":"Q3277439","brand:wikipedia":"en:Co-op Food","fhrs:id":"502267","not:addr:postcode":"SR8 3PF","source:addr":"FHRS Open Data"}}, "geometry":{"type":"MultiPolygon","coordinates":[[[[-1.3297,54.78811],[-1.32935,54.78808],[-1.32926,54.78848],[-1.32934,54.78848],[-1.32935,54.78843],[-1.32962,54.78845],[-1.3297,54.78811]]]]}},
{ "type":"Feature","properties":{"osm_way_id":"210125983","name":"Spar","building":"yes","shop":"supermarket","other":{"addr:city":"Bishop Auckland","addr:housenumber":"2","addr:postcode":"DL13 3AF","addr:street":"Market Place","addr:town":"Wolsingham","alt_name":"G&E Wolsingham","brand":"Spar","brand:wikidata":"Q610492","brand:wikipedia":"en:Spar (retailer)","fhrs:id":"304818","phone":"+44 1388 526576"}}, "geometry":{"type":"MultiPolygon","coordinates":[[[[-1.88431,54.73042],[-1.88427,54.73023],[-1.88406,54.73025],[-1.8841,54.73042],[-1.88419,54.73041],[-1.8842,54.73043],[-1.88431,54.73042]]]]}},
{ "type":"Feature","properties":{"osm_way_id":"210126470","name":"Lakes & Dales Co-operative","building":"yes","shop":"supermarket","other":{"addr:city":"Bishop Auckland","addr:housename":"Belle View House","addr:housenumber":"35","addr:postcode":"DL13 2TS","addr:street":"Front Street","addr:town":"Stanhope","brand:wikidata":"Q110620660","fhrs:id":"304782","operator":"Scottish Midland Co-operative Society"}}, "geometry":{"type":"MultiPolygon","coordinates":[[[[-2.00604,54.74718],[-2.0058,54.74708],[-2.00571,54.74715],[-2.00576,54.74718],[-2.00567,54.74724],[-2.00572,54.74726],[-2.00567,54.7473],[-2.00581,54.74736],[-2.00604,54.74718]]]]}},
{ "type":"Feature","properties":{"osm_way_id":"227648721","name":"Asda","building":"yes","shop":"supermarket","other":{"addr:city":"Stanley","addr:country":"GB","addr:postcode":"DH9 0NB","addr:street":"Front Street","alt_name":"ASDA Stanley Superstore","brand":"Asda","brand:wikidata":"Q297410","brand:wikipedia":"en:Asda","contact:facebook":"https:\/\/www.facebook.com\/asda\/","contact:twitter":"@asda","contact:website":"https:\/\/storelocator.asda.com\/north-east\/stanley\/front-street","fhrs:id":"304240","operator":"Asda Stores Ltd"}}, "geometry":{"type":"MultiPolygon","coordinates":[[[[-1.7025,54.86755],[-1.70128,54.86825],[-1.70064,54.86787],[-1.70186,54.86718],[-1.7025,54.86755]]]]}},
{ "type":"Feature","properties":{"osm_way_id":"231155538","name":"Heron Foods","building":"yes","shop":"supermarket","other":{"brand":"Heron Foods","fhrs:id":"302485","alt_name":"Heron Foods Consett","addr:city":"Consett","addr:street":"Middle Street","addr:country":"GB","addr:postcode":"DH8 5QP","brand:wikidata":"Q5743472","brand:wikipedia":"en:Heron Foods","contact:website":"https:\/\/heronfoods.com\/storelocator\/store-details\/consett","addr:housenumber":"5,7"}}, "geometry":{"type":"MultiPolygon","coordinates":[[[[-1.83304,54.85149],[-1.83291,54.8514],[-1.83262,54.85153],[-1.83274,54.85162],[-1.83304,54.85149]]]]}},
{ "type":"Feature","properties":{"osm_way_id":"252668582","name":"Morrisons","building":"yes","shop":"supermarket","other":{"addr:city":"Consett","addr:place":"Hermiston Retail Park","addr:postcode":"DH8 5RE","addr:street":"Front Street","alt_name":"Morrisons Consett","brand":"Morrisons","brand:wikidata":"Q922344","brand:wikipedia":"en:Morrisons","fhrs:id":"680220"}}, "geometry":{"type":"MultiPolygon","coordinates":[[[[-1.83621,54.84805],[-1.83613,54.84799],[-1.83648,54.84784],[-1.83637,54.84776],[-1.83618,54.84784],[-1.83565,54.84744],[-1.83457,54.84792],[-1.83528,54.84846],[-1.83621,54.84805]]]]}},
{ "type":"Feature","properties":{"osm_way_id":"286645308","name":"Morrisons","building":"retail","shop":"supermarket","other":{"addr:city":"Chester-le-Street","addr:postcode":"DH3 3YQ","addr:street":"St Cuthberts Walk","brand":"Morrisons","brand:wikidata":"Q922344","brand:wikipedia":"en:Morrisons","fhrs:id":"302822","source:addr":"FHRS Open Data"}}, "geometry":{"type":"MultiPolygon","coordinates":[[[[-1.57545,54.85736],[-1.57533,54.85718],[-1.57521,54.85701],[-1.57526,54.857],[-1.57553,54.85694],[-1.57614,54.8568],[-1.57617,54.85684],[-1.57637,54.85714],[-1.57637,54.85715],[-1.57545,54.85736]]]]}},
{ "type":"Feature","properties":{"osm_way_id":"286645310","name":"Aldi","building":"retail","shop":"supermarket","other":{"addr:city":"Chester-le-Street","addr:housename":"Picktree Lane","addr:postcode":"DH3 3SN","addr:street":"Picktree Lane","brand":"ALDI","brand:wikidata":"Q41171672","brand:wikipedia":"en:Aldi","building:levels":"1","fhrs:id":"302674","opening_hours":"Mo-Sa 08:00-22:00; Su 10:00-16:00","roof:levels":"0","source:addr":"FHRS Open Data","source:postcode":"CodePoint Open","wheelchair":"yes"}}, "geometry":{"type":"MultiPolygon","coordinates":[[[[-1.57355,54.85988],[-1.57347,54.86022],[-1.57325,54.8602],[-1.57326,54.86015],[-1.57272,54.86011],[-1.57274,54.86004],[-1.5726,54.86003],[-1.57266,54.85981],[-1.57355,54.85988]]]]}},
{ "type":"Feature","properties":{"osm_way_id":"302941259","name":"McColls","building":"yes","shop":"supermarket","other":{"addr:city":"Stanley","addr:housenumber":"4-6","addr:postcode":"DH9 6PT","addr:street":"Tyne Road","addr:suburb":"South Stanley","alt_name":"The Co-operative Food","fhrs:id":"973341"}}, "geometry":{"type":"MultiPolygon","coordinates":[[[[-1.69816,54.86683],[-1.69829,54.86686],[-1.69839,54.86669],[-1.69826,54.86666],[-1.69816,54.86683]]]]}},
{ "type":"Feature","properties":{"osm_way_id":"336041150","name":"The Co-operative Food","building":"yes","shop":"supermarket","other":{"addr:city":"Consett","addr:housenumber":"34","addr:postcode":"DH8 7SB","addr:street":"Front Street","addr:village":"Leadgate","fhrs:id":"303879","operator":"The Co-operative Group","source:addr":"FHRS Open Data"}}, "geometry":{"type":"MultiPolygon","coordinates":[[[[-1.80656,54.8595],[-1.80657,54.85969],[-1.80632,54.8597],[-1.80631,54.8596],[-1.80631,54.8595],[-1.80656,54.8595]]]]}},
{ "type":"Feature","properties":{"osm_way_id":"336043660","name":"The Co-operative Food","building":"retail","shop":"supermarket","other":{"addr:city":"Crook","addr:housenumber":"5","addr:postcode":"DL15 9AZ","addr:street":"North Terrace","fhrs:id":"304715","opening_hours":"Mo-Su 07:00-23:00","operator":"The Co-operative Group","phone":"+44 1388 762874"}}, "geometry":{"type":"MultiPolygon","coordinates":[[[[-1.74603,54.71506],[-1.74606,54.71508],[-1.74616,54.71516],[-1.74614,54.71517],[-1.74619,54.71521],[-1.74612,54.71524],[-1.74603,54.71517],[-1.74597,54.71519],[-1.74587,54.71512],[-1.74603,54.71506]]]]}},
{ "type":"Feature","properties":{"osm_way_id":"336045429","name":"The Co-operative Food","building":"retail","shop":"supermarket","other":{"fhrs:id":"303295","not:addr:postcode":"DH7 8LL","operator":"The Co-operative Group"}}, "geometry":{"type":"MultiPolygon","coordinates":[[[[-1.63059,54.75151],[-1.63085,54.75177],[-1.63039,54.75192],[-1.63035,54.75188],[-1.63007,54.75197],[-1.62985,54.75175],[-1.63059,54.75151]]]]}},
{ "type":"Feature","properties":{"osm_way_id":"336046212","name":"The Co-operative Food","building":"yes","shop":"supermarket","other":{"addr:city":"Durham","addr:postcode":"DH6 4HA","addr:street":"Petterson Dale","addr:village":"Coxhoe","fhrs:id":"303404","operator":"The Co-operative Group","source:addr":"FHRS Open Data"}}, "geometry":{"type":"MultiPolygon","coordinates":[[[[-1.50303,54.71674],[-1.50325,54.71696],[-1.503,54.71705],[-1.50277,54.71682],[-1.50303,54.71674]]]]}},
{ "type":"Feature","properties":{"osm_way_id":"346837682","name":"Lakes & Dales Co-operative","building":"yes","shop":"supermarket","other":{"addr:city":"Bishop Auckland","addr:housenumber":"21","addr:postcode":"DL13 2QW","addr:street":"Front Street","addr:village":"Frosterley","brand:wikidata":"Q110620660","fhrs:id":"304804","operator":"Scottish Midland Co-operative Society","phone":"+44 1388 527321","source:addr":"FHRS Open Data"}}, "geometry":{"type":"MultiPolygon","coordinates":[[[[-1.96102,54.72781],[-1.96082,54.7279],[-1.96073,54.72783],[-1.96092,54.72774],[-1.96102,54.72781]]]]}},
{ "type":"Feature","properties":{"osm_way_id":"374487697","name":"Iceland","building":"retail","shop":"supermarket","other":{"addr:city":"Durham","addr:housenumber":"4","addr:postcode":"DH1 4SH","addr:street":"North Road","brand":"Iceland","brand:wikidata":"Q721810","brand:wikipedia":"en:Iceland (supermarket)","fhrs:id":"303364"}}, "geometry":{"type":"MultiPolygon","coordinates":[[[[-1.57973,54.77659],[-1.5799,54.77663],[-1.57995,54.77646],[-1.57974,54.77647],[-1.57973,54.77659]]]]}},
{ "type":"Feature","properties":{"osm_way_id":"374487720","name":"Sainsbury's Local","building":"retail","shop":"supermarket","other":{"addr:city":"Durham","addr:housenumber":"3","addr:postcode":"DH1 4SH","addr:street":"North Road","brand":"Sainsbury's Local","brand:wikidata":"Q13218434","brand:wikipedia":"en:Sainsbury's Local","fhrs:id":"705371","old_name":"Burger King","opening_hours":"Mo-Su 07:00-23:00"}}, "geometry":{"type":"MultiPolygon","coordinates":[[[[-1.57973,54.77659],[-1.57955,54.77651],[-1.57956,54.77645],[-1.57956,54.77637],[-1.57956,54.77632],[-1.57973,54.77632],[-1.57973,54.77634],[-1.57974,54.77647],[-1.57973,54.77659]]]]}},
{ "type":"Feature","properties":{"osm_way_id":"374487731","name":"Tesco Express","building":"retail","shop":"supermarket","other":{"addr:city":"Durham","addr:housenumber":"18","addr:postcode":"DH1 4SH","addr:street":"North Road","brand":"Tesco Express","brand:wikidata":"Q98456772","brand:wikipedia":"en:Tesco","fhrs:id":"303276","opening_hours":"06:00 - 23:00"}}, "geometry":{"type":"MultiPolygon","coordinates":[[[[-1.58095,54.77699],[-1.58107,54.77706],[-1.5811,54.77702],[-1.58112,54.77698],[-1.58116,54.77693],[-1.58119,54.77689],[-1.58106,54.77684],[-1.58095,54.77699]]]]}},
{ "type":"Feature","properties":{"osm_way_id":"378144225","name":"Asda","building":"yes","shop":"supermarket","other":{"brand":"Asda","fhrs:id":"304778","operator":"Asda Stores Ltd","addr:city":"Bishop Auckland","addr:street":"South Church Road","addr:country":"GB","addr:postcode":"DL14 7LB","brand:wikidata":"Q297410","brand:wikipedia":"en:Asda","contact:twitter":"@asda","contact:website":"https:\/\/storelocator.asda.com\/north-east\/bishop-auckland\/south-church-road","addr:housenumber":"6","contact:facebook":"https:\/\/www.facebook.com\/asda\/"}}, "geometry":{"type":"MultiPolygon","coordinates":[[[[-1.67326,54.65827],[-1.67478,54.65821],[-1.67469,54.65753],[-1.6744,54.65754],[-1.67439,54.6574],[-1.67431,54.65738],[-1.67383,54.6574],[-1.67371,54.65736],[-1.67374,54.65755],[-1.67333,54.65757],[-1.67339,54.65806],[-1.67324,54.65807],[-1.67326,54.65827]]]]}},
{ "type":"Feature","properties":{"osm_way_id":"378145835","name":"Morrisons","building":"yes","shop":"supermarket","other":{"addr:city":"Bishop Auckland","addr:postcode":"DL14 7TN","addr:street":"Bob Hardisty Drive","brand":"Morrisons","brand:wikidata":"Q922344","brand:wikipedia":"en:Morrisons","fhrs:id":"304833","source:addr":"FHRS Open Data"}}, "geometry":{"type":"MultiPolygon","coordinates":[[[[-1.67755,54.65937],[-1.67775,54.6594],[-1.67782,54.65922],[-1.67787,54.65923],[-1.6779,54.65911],[-1.6782,54.65914],[-1.67809,54.65945],[-1.6785,54.65917],[-1.67879,54.65834],[-1.67872,54.65826],[-1.67793,54.65817],[-1.67769,54.65897],[-1.6776,54.65896],[-1.67757,54.65903],[-1.67753,54.65903],[-1.67751,54.65908],[-1.67746,54.65908],[-1.67747,54.65914],[-1.67756,54.65917],[-1.67761,54.65922],[-1.67755,54.65937]]]]}},
{ "type":"Feature","properties":{"osm_way_id":"405087504","name":"Lidl","building":"retail","shop":"supermarket","other":{"addr:city":"Consett","addr:housename":"Lidl","addr:postcode":"DH8 7JZ","addr:street":"Delves Lane","brand":"Lidl","brand:wikidata":"Q151954","brand:wikipedia":"en:Lidl","fhrs:id":"1138011","opening_hours":"Mo-Sa 08:00-22:00, Su 10:00-16:00","operator":"Lidl","payment:cash":"yes","payment:coins":"yes","payment:credit_cards":"yes"}}, "geometry":{"type":"MultiPolygon","coordinates":[[[[-1.82735,54.84806],[-1.82721,54.84812],[-1.82717,54.84808],[-1.82691,54.84818],[-1.82645,54.84779],[-1.82639,54.84782],[-1.82621,54.84766],[-1.82666,54.84748],[-1.82735,54.84806]]]]}},
{ "type":"Feature","properties":{"osm_way_id":"405104262","name":"Tesco Extra","building":"yes","shop":"supermarket","other":{"addr:city":"Consett","addr:postcode":"DH8 5XT","addr:street":"Genesis Way","brand":"Tesco Extra","brand:wikidata":"Q25172225","brand:wikipedia":"en:Tesco Extra","fhrs:id":"642315","opening_hours":"Mo-Sa 06:00-24:00; Su 10:00-16:00","source:addr":"FHRS Open Data"}}, "geometry":{"type":"MultiPolygon","coordinates":[[[[-1.84017,54.8484],[-1.84052,54.84825],[-1.84119,54.84797],[-1.8414,54.84813],[-1.84161,54.84805],[-1.84176,54.84817],[-1.84153,54.84827],[-1.84215,54.84876],[-1.84148,54.84904],[-1.84154,54.84908],[-1.84127,54.84919],[-1.8412,54.84922],[-1.84082,54.84892],[-1.84021,54.84844],[-1.84017,54.8484]]]]}},
{ "type":"Feature","properties":{"osm_way_id":"413353167","name":"Lidl","building":"yes","shop":"supermarket","other":{"addr:city":"Spennymoor","addr:postcode":"DL16 6DF","addr:street":"Wesleyan Road","brand":"Lidl","brand:wikidata":"Q151954","fhrs:id":"421771","source:addr":"FHRS Open Data"}}, "geometry":{"type":"MultiPolygon","coordinates":[[[[-1.60155,54.69755],[-1.60156,54.69733],[-1.60148,54.69733],[-1.60148,54.6973],[-1.60057,54.69729],[-1.60056,54.69739],[-1.60065,54.69739],[-1.60064,54.69754],[-1.60155,54.69755]]]]}},
{ "type":"Feature","properties":{"osm_way_id":"419857503","name":"Tesco Metro","building":"retail","shop":"supermarket","other":{"addr:city":"Durham","addr:housenumber":"22","addr:postcode":"DH7 8JG","addr:street":"High Street North","addr:village":"Langley Moor","brand":"Tesco Metro","brand:wikidata":"Q57551648","fhrs:id":"302562","opening_hours":"Mo-Fr 07:00-22:00; Sa 07:00-20:00; Su 10:00-16:00","source:addr":"FHRS Open Data"}}, "geometry":{"type":"MultiPolygon","coordinates":[[[[-1.6087,54.75943],[-1.60897,54.75919],[-1.60913,54.75925],[-1.60946,54.75938],[-1.60933,54.75951],[-1.6092,54.75962],[-1.6087,54.75943]]]]}},
{ "type":"Feature","properties":{"osm_way_id":"444338205","name":"Lidl","building":"retail","shop":"supermarket","other":{"addr:city":"Durham","addr:housename":"High Street South","addr:postcode":"DH7 8EU","addr:village":"Langley Moor","brand":"Lidl","brand:wikidata":"Q151954","fhrs:id":"502278","source:addr":"FHRS Open Data"}}, "geometry":{"type":"MultiPolygon","coordinates":[[[[-1.60852,54.75795],[-1.60857,54.75785],[-1.60865,54.75786],[-1.60874,54.75769],[-1.60943,54.7578],[-1.60931,54.75804],[-1.6093,54.75808],[-1.60852,54.75795]]]]}},
{ "type":"Feature","properties":{"osm_way_id":"444729775","name":"Aldi","building":"retail","shop":"supermarket","other":{"addr:city":"Durham","addr:place":"Dragonville Retail Park","addr:postcode":"DH1 2WP","addr:street":"Dragon Lane","addr:unit":"8","brand":"ALDI","brand:wikidata":"Q41171672","brand:wikipedia":"en:Aldi","building:levels":"1","fhrs:id":"303091","opening_hours":"Mo-Sa 08:00-21:00; Su 10:00-16:00","source:addr":"FHRS Open Data","wheelchair":"yes"}}, "geometry":{"type":"MultiPolygon","coordinates":[[[[-1.54117,54.77707],[-1.54094,54.77708],[-1.5409,54.77685],[-1.54169,54.77681],[-1.54172,54.77704],[-1.54137,54.77706],[-1.54138,54.77711],[-1.54117,54.77712],[-1.54117,54.77707]]]]}},
{ "type":"Feature","properties":{"osm_way_id":"444729780","name":"Iceland","building":"retail","shop":"supermarket","other":{"addr:city":"Durham","addr:place":"Dragonville Retail Park","addr:postcode":"DH1 2WP","addr:street":"Dragon Lane","addr:unit":"9","brand":"Iceland","brand:wikidata":"Q721810","building:levels":"1","fhrs:id":"303586","opening_hours":"Mo-Sa 08:00-21:00; Su 10:00-16:00","source:addr":"FHRS Open Data"}}, "geometry":{"type":"MultiPolygon","coordinates":[[[[-1.54055,54.77715],[-1.53993,54.77717],[-1.5399,54.77695],[-1.54052,54.77692],[-1.54055,54.77715]]]]}},
{ "type":"Feature","properties":{"osm_way_id":"481647695","name":"The Co-operative Food","building":"yes","shop":"supermarket","other":{"addr:city":"Barnard Castle","addr:housenumber":"9-12","addr:postcode":"DL12 0SN","addr:street":"Chapel Row","addr:village":"Middleton In Teesdale","fhrs:id":"304321","opening_hours":"Mo-Su 07:00-22:00"}}, "geometry":{"type":"MultiPolygon","coordinates":[[[[-2.08078,54.62385],[-2.08078,54.62385],[-2.0808,54.62382],[-2.08087,54.62371],[-2.08053,54.62363],[-2.08031,54.62388],[-2.08045,54.62392],[-2.08053,54.62379],[-2.08061,54.62381],[-2.08078,54.62385]]]]}},
{ "type":"Feature","properties":{"osm_way_id":"502973272","name":"Aldi","building":"yes","shop":"supermarket","other":{"addr:city":"Crook","addr:postcode":"DL15 8QQ","addr:street":"Queen Street","brand":"ALDI","brand:wikidata":"Q41171672","brand:wikipedia":"en:Aldi","fhrs:id":"1242913","source:addr":"FHRS Open Data"}}, "geometry":{"type":"MultiPolygon","coordinates":[[[[-1.74851,54.71402],[-1.74814,54.71409],[-1.74811,54.71404],[-1.74773,54.71412],[-1.74758,54.71386],[-1.74844,54.7137],[-1.74859,54.71396],[-1.74848,54.71398],[-1.74851,54.71402]]]]}},
{ "type":"Feature","properties":{"osm_way_id":"503235263","name":"Lidl","building":"retail","shop":"supermarket","other":{"addr:postcode":"DH1 5GB","addr:street":"Wheatlands Way","brand":"Lidl","brand:wikidata":"Q151954","brand:wikipedia":"en:Lidl","fhrs:id":"302984","opening_hours":"Mo-Sa 08:00-21:00; Su 10:00-16:00"}}, "geometry":{"type":"MultiPolygon","coordinates":[[[[-1.57704,54.80708],[-1.57696,54.80728],[-1.57695,54.8073],[-1.57623,54.80721],[-1.57622,54.80726],[-1.57583,54.80721],[-1.57593,54.80694],[-1.57704,54.80708]]]]}},
{ "type":"Feature","properties":{"osm_way_id":"508519055","name":"Tesco","building":"yes","shop":"supermarket","other":{"addr:city":"Stanley","addr:postcode":"DH9 7UZ","addr:street":"Station Road","addr:town":"Annfield Plain","brand":"Tesco","brand:wikidata":"Q487494","brand:wikipedia":"en:Tesco","fhrs:id":"303875","source:addr":"FHRS Open Data"}}, "geometry":{"type":"MultiPolygon","coordinates":[[[[-1.73655,54.85709],[-1.7361,54.85681],[-1.73711,54.85627],[-1.7372,54.85632],[-1.73704,54.85641],[-1.73737,54.85662],[-1.73745,54.85658],[-1.73751,54.85661],[-1.73742,54.85666],[-1.73737,54.85664],[-1.73655,54.85709]]]]}},
{ "type":"Feature","properties":{"osm_way_id":"510304694","name":"Heron Foods","building":"yes","shop":"supermarket","other":{"addr:city":"Durham","addr:postcode":"DH7 6JT","addr:street":"Front Street","addr:village":"Sacriston","brand":"Heron Foods","brand:wikidata":"Q5743472","brand:wikipedia":"en:Heron Foods","fhrs:id":"502270","source:addr":"FHRS Open Data"}}, "geometry":{"type":"MultiPolygon","coordinates":[[[[-1.62883,54.81885],[-1.62868,54.8187],[-1.62815,54.81888],[-1.62831,54.81903],[-1.62883,54.81885]]]]}},
{ "type":"Feature","properties":{"osm_way_id":"560441546","name":"Sainsbury's","building":"yes","shop":"supermarket","other":{"addr:city":"Sedgefield","addr:postcode":"TS21 3EE","addr:street":"Salters Lane","brand":"Sainsbury's","brand:wikidata":"Q152096","brand:wikipedia":"en:Sainsbury's","building:levels":"2","fhrs:id":"635484","opening_hours":"Mo-Fr 08:00-22:00 , Sa 08:00-21:00, Su 10:00-16:00","operator":"Sainsbury's","website":"https:\/\/stores.sainsburys.co.uk\/2303\/sedgefield"}}, "geometry":{"type":"MultiPolygon","coordinates":[[[[-1.44655,54.66222],[-1.44607,54.66218],[-1.44605,54.66226],[-1.44549,54.66222],[-1.44534,54.66287],[-1.44542,54.66294],[-1.44552,54.66295],[-1.44554,54.66286],[-1.44639,54.66292],[-1.44655,54.66222]]]]}},
{ "type":"Feature","properties":{"osm_way_id":"560970356","name":"The Co-operative Food","building":"yes","shop":"supermarket","other":{"addr:city":"Sedgefield","addr:housenumber":"6","addr:postcode":"TS21 3AR","addr:street":"High Street","brand":"The Co-operative Food","brand:wikidata":"Q107617274","brand:wikipedia":"en:Co-op Food","building:levels":"2","fhrs:id":"304563","operator":"The Co-operative Group","operator:wikidata":"Q117202","operator:wikipedia":"en:The Co-operative Group"}}, "geometry":{"type":"MultiPolygon","coordinates":[[[[-1.45035,54.65362],[-1.45035,54.65369],[-1.45036,54.65379],[-1.45035,54.65393],[-1.45035,54.65401],[-1.45055,54.65401],[-1.45055,54.65372],[-1.45055,54.65368],[-1.45058,54.65361],[-1.45035,54.65362]]]]}},
{ "type":"Feature","properties":{"osm_way_id":"575852223","name":"The Co-operative Food","building":"yes","shop":"supermarket","other":{"addr:city":"Durham","addr:postcode":"DH6 5AT","addr:street":"Durham Road","addr:village":"Bowburn","brand":"The Co-operative Food","brand:wikidata":"Q3277439","brand:wikipedia":"en:Co-op Food","fhrs:id":"1017344","source:addr":"FHRS Open Data"}}, "geometry":{"type":"MultiPolygon","coordinates":[[[[-1.52344,54.73291],[-1.52362,54.73306],[-1.52336,54.73316],[-1.52319,54.73301],[-1.52324,54.73299],[-1.52318,54.73294],[-1.52335,54.73288],[-1.5234,54.73293],[-1.52344,54.73291]]]]}},
{ "type":"Feature","properties":{"osm_way_id":"634224600","name":"Aldi","building":"yes","shop":"supermarket","other":{"addr:city":"Stanley","addr:postcode":"DH9 0NQ","addr:street":"Front Street","brand":"ALDI","brand:wikidata":"Q41171672","brand:wikipedia":"en:Aldi","fhrs:id":"1138015","source:addr":"FHRS Open Data"}}, "geometry":{"type":"MultiPolygon","coordinates":[[[[-1.6986,54.86859],[-1.69911,54.86889],[-1.69928,54.86879],[-1.69878,54.86849],[-1.6986,54.86859]]]]}},
{ "type":"Feature","properties":{"osm_way_id":"680275333","name":"The Co-Operative Food","building":"retail","shop":"supermarket","other":{"addr:city":"Wingate","addr:postcode":"TS28 5HS","addr:street":"Durham Road","fhrs:id":"767859","opening_hours":"Mo-Su 07:00-22:00"}}, "geometry":{"type":"MultiPolygon","coordinates":[[[[-1.38132,54.7377],[-1.38107,54.73758],[-1.38111,54.73756],[-1.38108,54.73754],[-1.38118,54.73748],[-1.38121,54.73749],[-1.38126,54.73745],[-1.38143,54.73754],[-1.38151,54.73757],[-1.38132,54.7377]]]]}},
{ "type":"Feature","properties":{"osm_way_id":"717050003","name":"Lidl","building":"retail","shop":"supermarket","other":{"addr:city":"Crook","addr:country":"GB","addr:postcode":"DL15 8ND","addr:street":"New Road","brand":"Lidl","brand:wikidata":"Q151954","brand:wikipedia":"en:Lidl","building:levels":"1","fhrs:id":"917553","nohousenumber":"yes","opening_hours":"Mo-Sa 08:00-22:00; Su 10:00-16:00","operator":"Lidl","payment:cash":"yes","payment:credit_cards":"yes","payment:debit_cards":"yes","wheelchair":"yes"}}, "geometry":{"type":"MultiPolygon","coordinates":[[[[-1.74581,54.71358],[-1.74552,54.71353],[-1.7455,54.7136],[-1.74547,54.7136],[-1.74539,54.71353],[-1.7454,54.71352],[-1.7453,54.7135],[-1.74554,54.71296],[-1.74555,54.71296],[-1.74557,54.71292],[-1.74558,54.71288],[-1.74608,54.71295],[-1.74581,54.71358]]]]}},
{ "type":"Feature","properties":{"osm_way_id":"720003741","name":"The Co-operative Food","building":"retail","shop":"supermarket","other":{"addr:city":"Durham","addr:postcode":"DH1 5LT","addr:street":"Carr House Drive","addr:suburb":"Newton Hall","fhrs:id":"303042","source:addr":"FHRS Open Data"}}, "geometry":{"type":"MultiPolygon","coordinates":[[[[-1.57469,54.79946],[-1.57438,54.79949],[-1.57433,54.79931],[-1.5743,54.7992],[-1.5743,54.79919],[-1.57456,54.79916],[-1.57461,54.79916],[-1.57469,54.79946]]]]}},
{ "type":"Feature","properties":{"osm_way_id":"722869691","name":"The Co-operative Food","building":"yes","shop":"supermarket","other":{"addr:city":"Durham","addr:postcode":"DH6 2LW","addr:street":"Co-Operative Terrace","addr:village":"Shotton Colliery","brand":"The Co-operative Food","brand:wikidata":"Q3277439","brand:wikipedia":"en:Co-op Food","fhrs:id":"302195"}}, "geometry":{"type":"MultiPolygon","coordinates":[[[[-1.388,54.76153],[-1.38787,54.76156],[-1.38778,54.76139],[-1.38799,54.76134],[-1.38803,54.76141],[-1.38794,54.76143],[-1.388,54.76153]]]]}},
{ "type":"Feature","properties":{"osm_way_id":"758116702","name":"Heron Foods","building":"retail","shop":"supermarket","other":{"addr:city":"Durham","addr:housenumber":"2","addr:postcode":"DH1 5LX","addr:street":"Alnwick Road","addr:suburb":"Newton Hall","brand:wikidata":"Q5743472","fhrs:id":"1279436","old_name":"McColl's","source:postcode":"FHRS data","website":"https:\/\/heronfoods.com\/store\/newton-hall\/"}}, "geometry":{"type":"MultiPolygon","coordinates":[[[[-1.57668,54.79961],[-1.57642,54.79958],[-1.57647,54.79945],[-1.5765,54.79946],[-1.57673,54.79948],[-1.57668,54.79961]]]]}},
{ "type":"Feature","properties":{"osm_way_id":"772757890","name":"Aldi","building":"yes","shop":"supermarket","other":{"addr:city":"Peterlee","addr:postcode":"SR8 5AH","addr:street":"Yoden Way","brand":"ALDI","brand:wikidata":"Q41171672","brand:wikipedia":"en:Aldi","fhrs:id":"1096076","opening_hours":"Mo-Sa 08:00-22:00, Su 10:00-16:00"}}, "geometry":{"type":"MultiPolygon","coordinates":[[[[-1.31904,54.76078],[-1.31893,54.76074],[-1.31896,54.76072],[-1.31865,54.76061],[-1.31881,54.76046],[-1.31902,54.76026],[-1.31908,54.7602],[-1.31936,54.76029],[-1.31941,54.76025],[-1.31953,54.76029],[-1.31904,54.76078]]]]}},
{ "type":"Feature","properties":{"osm_way_id":"804755779","name":"Lidl","building":"yes","shop":"supermarket","other":{"addr:city":"Durham","addr:postcode":"DH1 2YN","addr:street":"Damson Way","addr:suburb":"Dragonville","brand":"Lidl","brand:wikidata":"Q151954","brand:wikipedia":"en:Lidl","fhrs:id":"1181317","opening_hours":"Mo-Sa 08:00-22:00; Su 10:00-16:00","source:addr":"FHRS Open Data","source:postcode":"CodePoint Open"}}, "geometry":{"type":"MultiPolygon","coordinates":[[[[-1.53827,54.77883],[-1.53772,54.77886],[-1.5377,54.77873],[-1.5378,54.77873],[-1.53772,54.77821],[-1.53826,54.77818],[-1.53828,54.77836],[-1.5382,54.77837],[-1.53827,54.77883]]]]}},
{ "type":"Feature","properties":{"osm_way_id":"873285323","name":"The Freezer Shop","building":"yes","shop":"supermarket","other":{"addr:city":"Crook","addr:housenumber":"10","addr:postcode":"DL15 9AZ","addr:street":"North Terrace","fhrs:id":"304830","opening_hours":"Mo-Sa 09:00-17:00","phone":"+441388 768075","wheelchair":"no"}}, "geometry":{"type":"MultiPolygon","coordinates":[[[[-1.74488,54.71584],[-1.7448,54.71574],[-1.74462,54.71555],[-1.74481,54.7155],[-1.74496,54.71568],[-1.74504,54.71581],[-1.74488,54.71584]]]]}},
{ "type":"Feature","properties":{"osm_way_id":"899569080","building":"semidetached_house","other":{"addr:city":"Chester-le-Street","addr:housenumber":"6","addr:postcode":"DH2 2DN","addr:street":"Sanders Memorial Homes","building:levels":"1","roof:levels":"0","roof:orientation":"along","roof:shape":"gabled","source:postcode":"CodePoint Open"}}, "geometry":{"type":"MultiPolygon","coordinates":[[[[-1.57904,54.85365],[-1.57903,54.85372],[-1.57894,54.85372],[-1.57894,54.85365],[-1.57904,54.85365]]]]}},
{ "type":"Feature","properties":{"osm_way_id":"908342677","name":"Lidl","building":"retail","shop":"supermarket","other":{"addr:city":"Peterlee","addr:country":"GB","addr:housename":"Peterlee Retail Park","addr:postcode":"SR8 5AR","addr:street":"Essington Way","addr:unit":"3","brand":"Lidl","brand:wikidata":"Q151954","brand:wikipedia":"en:Lidl","fhrs:id":"1339388","opening_hours":"Mo-Sa 08:00-19:00; Su 10:00-16:00","operator":"Lidl"}}, "geometry":{"type":"MultiPolygon","coordinates":[[[[-1.33768,54.75992],[-1.3381,54.75977],[-1.33867,54.7603],[-1.33839,54.7604],[-1.33845,54.76045],[-1.3383,54.7605],[-1.33768,54.75992]]]]}},
{ "type":"Feature","properties":{"osm_way_id":"947036338","name":"Morrisons","building":"yes","shop":"supermarket","other":{"addr:city":"Seaham","addr:housename":"Dalton Park","addr:postcode":"SR7 9HU","addr:village":"Murton","brand":"Morrisons","brand:wikidata":"Q922344","brand:wikipedia":"en:Morrisons","fhrs:id":"1301395","operator":"Morrisons","source:addr":"FHRS Open Data","source:outline":"Bing"}}, "geometry":{"type":"MultiPolygon","coordinates":[[[[-1.37483,54.8138],[-1.37458,54.813],[-1.3745,54.81301],[-1.37449,54.81297],[-1.37347,54.81308],[-1.37366,54.8137],[-1.37361,54.81371],[-1.3737,54.81397],[-1.37394,54.81394],[-1.37398,54.81409],[-1.37503,54.81398],[-1.37496,54.81378],[-1.37483,54.8138]]]]}},
{ "type":"Feature","properties":{"osm_way_id":"970599390","name":"The Co-operative Food","building":"yes","shop":"supermarket","other":{"addr:city":"Durham","addr:postcode":"DH6 3RF","addr:street":"Quilstyle Road","addr:village":"Wheatley Hill","brand":"The Co-operative Food","brand:wikidata":"Q107617274","brand:wikipedia":"en:Co-op Food","fhrs:id":"301943","opening_hours":"Mo-Su 06:00-22:00","operator":"The Co-operative Group","operator:wikidata":"Q117202","operator:wikipedia":"en:The Co-operative Group","phone":"+44 1429 820473","website":"https:\/\/www.coop.co.uk\/store-finder\/DH6-3RF\/quillstile-road"}}, "geometry":{"type":"MultiPolygon","coordinates":[[[[-1.41911,54.74514],[-1.41888,54.74509],[-1.41891,54.74502],[-1.41866,54.74509],[-1.41867,54.7451],[-1.41861,54.7452],[-1.41902,54.74528],[-1.41911,54.74514]]]]}},
{ "type":"Feature","properties":{"osm_way_id":"1013185126","name":"The Cooperative Food","building":"retail","shop":"supermarket","other":{"addr:city":"Chester-le-Street","addr:housename":"Allendale House","addr:postcode":"DH2 1DE","addr:street":"Front Street","addr:village":"Pelton","fhrs:id":"302829","source:addr":"FHRS Open Data"}}, "geometry":{"type":"MultiPolygon","coordinates":[[[[-1.60941,54.87312],[-1.60926,54.87315],[-1.60912,54.87294],[-1.60927,54.87291],[-1.60941,54.87312]]]]}},
{ "type":"Feature","properties":{"osm_way_id":"1019827370","name":"The Co-Operative Food","building":"commercial","shop":"supermarket","other":{"addr:housenumber":"1-2","addr:postcode":"DL15 0AD","addr:street":"Commercial Street","fhrs:id":"304781"}}, "geometry":{"type":"MultiPolygon","coordinates":[[[[-1.69241,54.71119],[-1.69212,54.71109],[-1.69227,54.71093],[-1.69261,54.71103],[-1.69241,54.71119]]]]}}
]
}
