{
"type": "FeatureCollection",
"features": [
{ "type":"Feature","properties":{"osm_id":"4640792660","name":"Kendrew Barracks Headquarters","other":{"shop":"supermarket"}}, "geometry":{"type":"Point","coordinates":[-0.65021,52.72612 ]}},
{ "type":"Feature","properties":{"osm_way_id":"73537676","name":"Tesco","building":"yes","shop":"supermarket","other":{"addr:city":"Oakham","addr:country":"GB","addr:housenumber":"96","addr:postcode":"LE15 6BQ","addr:street":"South Street","brand":"Tesco","brand:wikidata":"Q487494","brand:wikipedia":"en:Tesco","fhrs:authority":"Rutland","fhrs:id":"1153509","fhrs:local_authority_id":"100104"}}, "geometry":{"type":"MultiPolygon","coordinates":[[[[-0.73153,52.66809],[-0.73096,52.66811],[-0.73103,52.66878],[-0.73159,52.66876],[-0.73158,52.6687],[-0.7318,52.66869],[-0.73179,52.66865],[-0.73194,52.66864],[-0.73193,52.66856],[-0.73158,52.66857],[-0.73153,52.66809]]]]}},
{ "type":"Feature","properties":{"osm_way_id":"87198962","name":"The Co-operative Food","building":"yes","shop":"supermarket","other":{"addr:city":"Oakham","addr:country":"GB","addr:postcode":"LE15 7AA","addr:street":"Burley Road","brand":"The Co-operative Food","brand:wikidata":"Q107617274","brand:wikipedia":"en:The Co-operative Food","fhrs:authority":"Rutland","fhrs:id":"1153492","fhrs:local_authority_id":"100071","opening_hours":"Mo-Fr 07:30-21:00; Sa 07:30-20:00; Su 10:00-16:00","operator":"Central England Co-operative","operator:wikidata":"Q16986583"}}, "geometry":{"type":"MultiPolygon","coordinates":[[[[-0.71567,52.6797],[-0.71501,52.67962],[-0.71496,52.67959],[-0.71494,52.67957],[-0.71494,52.67955],[-0.71505,52.67948],[-0.71506,52.67945],[-0.71503,52.67944],[-0.71501,52.67943],[-0.715,52.67941],[-0.71501,52.67935],[-0.71512,52.67903],[-0.71605,52.67914],[-0.71604,52.67918],[-0.71616,52.67919],[-0.71609,52.6794],[-0.71584,52.67938],[-0.71581,52.67948],[-0.71574,52.67947],[-0.71567,52.6797]]]]}},
{ "type":"Feature","properties":{"osm_way_id":"189718586","name":"Co-op Food","building":"yes","shop":"supermarket","other":{"addr:city":"Uppingham","addr:country":"GB","addr:housenumber":"22","addr:postcode":"LE15 9QL","addr:street":"North Street East","brand":"Co-op Food","brand:wikidata":"Q3277439","brand:wikipedia":"en:Co-op Food","fhrs:authority":"Rutland","fhrs:id":"1153557","fhrs:local_authority_id":"100193","operator":"The Co-operative Group","operator:wikidata":"Q117202","operator:wikipedia":"en:The Co-operative Group"}}, "geometry":{"type":"MultiPolygon","coordinates":[[[[-0.72088,52.58854],[-0.72068,52.58854],[-0.72069,52.58884],[-0.72074,52.58884],[-0.72074,52.58891],[-0.72085,52.58891],[-0.72085,52.58885],[-0.72089,52.58885],[-0.72089,52.58879],[-0.72088,52.58854]]]]}},
{ "type":"Feature","properties":{"osm_way_id":"316798530","name":"The Co-operative Food","building":"yes","shop":"supermarket","other":{"addr:city":"Oakham","addr:housenumber":"83","addr:postcode":"LE15 6LE","addr:street":"Braunston Road","brand":"The Co-operative Food","brand:wikidata":"Q107617274","brand:wikipedia":"en:The Co-operative Food","fhrs:authority":"Rutland","fhrs:id":"1153530","fhrs:local_authority_id":"100146","opening_hours":"Mo-Su 07:00-22:00","operator":"Central England Co-operative","operator:wikidata":"Q16986583"}}, "geometry":{"type":"MultiPolygon","coordinates":[[[[-0.73754,52.66835],[-0.73783,52.66845],[-0.73784,52.66843],[-0.73797,52.66847],[-0.73785,52.6686],[-0.73743,52.66847],[-0.73754,52.66835]]]]}},
{ "type":"Feature","properties":{"osm_way_id":"494687388","name":"Aldi","building":"retail","shop":"supermarket","other":{"addr:city":"Oakham","addr:country":"GB","addr:place":"Barleythorpe","addr:postcode":"LE15 7FS","addr:street":"Hackamore Way","brand":"ALDI","brand:wikidata":"Q41171672","brand:wikipedia":"en:Aldi","fhrs:id":"1153706","not:addr:postcode":"LE15 7FU","source:addr":"FHRS Open Data","source:addr:postcode":"code-point_open","source:geometry":"wild guess"}}, "geometry":{"type":"MultiPolygon","coordinates":[[[[-0.73786,52.68277],[-0.73819,52.68222],[-0.73781,52.68214],[-0.73777,52.68213],[-0.73744,52.68267],[-0.73786,52.68277]]]]}},
{ "type":"Feature","properties":{"osm_way_id":"641829600","name":"Lidl","building":"retail","shop":"supermarket","other":{"addr:city":"Oakham","addr:country":"GB","addr:postcode":"LE15 6RB","addr:street":"Lands End Way","brand":"Lidl","brand:wikidata":"Q151954","brand:wikipedia":"en:Lidl","fhrs:authority":"Rutland","fhrs:id":"1153735","fhrs:local_authority_id":"102798","source:postcode":"FHRS Open Data"}}, "geometry":{"type":"MultiPolygon","coordinates":[[[[-0.73627,52.67475],[-0.73622,52.67476],[-0.73582,52.67484],[-0.73614,52.67543],[-0.73639,52.67538],[-0.73642,52.67544],[-0.73662,52.6754],[-0.73627,52.67475]]]]}}
]
}
