{
"type": "FeatureCollection",
"features": [
{ "type":"Feature","properties":{"osm_id":"279158","highway":"traffic_signals","other":{"traffic_signals:direction":"forward"}}, "geometry":{"type":"Point","coordinates":[-0.96874,51.4532 ]}},
{ "type":"Feature","properties":{"osm_id":"279169","highway":"traffic_signals"},"geometry":{"type":"Point","coordinates":[-0.97641,51.45075 ]}},
{ "type":"Feature","properties":{"osm_id":"279190","highway":"traffic_signals","other":{"traffic_signals:direction":"forward"}}, "geometry":{"type":"Point","coordinates":[-0.97703,51.45866 ]}},
{ "type":"Feature","properties":{"osm_id":"269804745","highway":"traffic_signals","other":{"traffic_signals:direction":"forward"}}, "geometry":{"type":"Point","coordinates":[-0.97226,51.45153 ]}},
{ "type":"Feature","properties":{"osm_id":"366339597","highway":"traffic_signals"},"geometry":{"type":"Point","coordinates":[-0.97619,51.45084 ]}},
{ "type":"Feature","properties":{"osm_id":"515974847","highway":"crossing","other":{"crossing":"marked","tactile_paving":"yes"}}, "geometry":{"type":"Point","coordinates":[-0.97566,51.46078 ]}},
{ "type":"Feature","properties":{"osm_id":"1525082446","highway":"traffic_signals"},"geometry":{"type":"Point","coordinates":[-0.97371,51.45054 ]}},
{ "type":"Feature","properties":{"osm_id":"1525082448","highway":"traffic_signals"},"geometry":{"type":"Point","coordinates":[-0.97365,51.45048 ]}},
{ "type":"Feature","properties":{"osm_id":"1956595148","highway":"traffic_signals"},"geometry":{"type":"Point","coordinates":[-0.97624,51.45069 ]}},
{ "type":"Feature","properties":{"osm_id":"1956595170","highway":"traffic_signals"},"geometry":{"type":"Point","coordinates":[-0.97648,51.451 ]}},
{ "type":"Feature","properties":{"osm_id":"3353026669","highway":"traffic_signals"},"geometry":{"type":"Point","coordinates":[-0.97495,51.45047 ]}},
{ "type":"Feature","properties":{"osm_id":"4374716957","highway":"crossing","other":{"button_operated":"yes","crossing":"traffic_signals","crossing_ref":"pelican","kerb":"lowered","sloped_curb":"yes","tactile_paving":"yes","traffic_signals:sound":"no","traffic_signals:vibration":"yes"}}, "geometry":{"type":"Point","coordinates":[-0.96853,51.45319 ]}},
{ "type":"Feature","properties":{"osm_id":"4374716969","highway":"crossing","other":{"button_operated":"yes","crossing":"traffic_signals","crossing_ref":"pelican","kerb":"lowered","sloped_curb":"yes","tactile_paving":"yes","traffic_signals:sound":"no","traffic_signals:vibration":"yes"}}, "geometry":{"type":"Point","coordinates":[-0.96868,51.45323 ]}},
{ "type":"Feature","properties":{"osm_id":"4376127568","highway":"crossing","other":{"button_operated":"yes","crossing":"traffic_signals","crossing_ref":"pelican","kerb":"lowered","sloped_curb":"yes","tactile_paving":"yes","traffic_signals:sound":"no","traffic_signals:vibration":"yes"}}, "geometry":{"type":"Point","coordinates":[-0.97222,51.45156 ]}},
{ "type":"Feature","properties":{"osm_id":"4376127569","highway":"crossing","other":{"button_operated":"yes","crossing":"traffic_signals","crossing_ref":"pelican","kerb":"lowered","sloped_curb":"yes","tactile_paving":"yes","traffic_signals:sound":"no","traffic_signals:vibration":"yes"}}, "geometry":{"type":"Point","coordinates":[-0.97196,51.45136 ]}},
{ "type":"Feature","properties":{"osm_id":"4376127570","highway":"traffic_signals","other":{"traffic_signals:direction":"forward"}}, "geometry":{"type":"Point","coordinates":[-0.97191,51.45138 ]}},
{ "type":"Feature","properties":{"osm_id":"6331741929","highway":"crossing","other":{"button_operated":"yes","crossing":"traffic_signals","crossing_ref":"pelican","kerb":"lowered","sloped_curb":"yes","tactile_paving":"yes","traffic_signals:sound":"no","traffic_signals:vibration":"yes"}}, "geometry":{"type":"Point","coordinates":[-0.9774,51.45828 ]}},
{ "type":"Feature","properties":{"osm_id":"6331741937","highway":"crossing","other":{"crossing":"traffic_signals","crossing_ref":"pelican","kerb":"lowered","sloped_curb":"yes","tactile_paving":"yes"}}, "geometry":{"type":"Point","coordinates":[-0.97704,51.45864 ]}},
{ "type":"Feature","properties":{"osm_id":"6331741948","highway":"crossing","other":{"crossing":"traffic_signals","crossing_ref":"pelican","kerb":"lowered","sloped_curb":"yes","tactile_paving":"yes"}}, "geometry":{"type":"Point","coordinates":[-0.97723,51.45832 ]}},
{ "type":"Feature","properties":{"osm_id":"6331741955","highway":"crossing","other":{"button_operated":"yes","crossing":"traffic_signals","crossing_ref":"pelican","kerb":"lowered","sloped_curb":"yes","tactile_paving":"yes","traffic_signals:sound":"no","traffic_signals:vibration":"yes"}}, "geometry":{"type":"Point","coordinates":[-0.97721,51.45858 ]}},
{ "type":"Feature","properties":{"osm_id":"6331786666","highway":"traffic_signals","other":{"traffic_signals:direction":"forward"}}, "geometry":{"type":"Point","coordinates":[-0.97742,51.45825 ]}},
{ "type":"Feature","properties":{"osm_id":"6331793189","highway":"traffic_signals","other":{"traffic_signals:direction":"forward"}}, "geometry":{"type":"Point","coordinates":[-0.97669,51.45916 ]}},
{ "type":"Feature","properties":{"osm_id":"7314651879","name":"Marathon Warehouse Distribution","other":{"office":"yes"}}, "geometry":{"type":"Point","coordinates":[-0.99708,51.46161 ]}},
{ "type":"Feature","properties":{"osm_id":"7601733095","highway":"traffic_signals","other":{"traffic_signals":"signal","traffic_signals:direction":"forward"}}, "geometry":{"type":"Point","coordinates":[-0.97568,51.46075 ]}},
{ "type":"Feature","properties":{"osm_id":"7601733096","highway":"crossing","other":{"crossing":"marked","tactile_paving":"yes"}}, "geometry":{"type":"Point","coordinates":[-0.97552,51.46081 ]}},
{ "type":"Feature","properties":{"osm_id":"7601733097","highway":"traffic_signals","other":{"traffic_signals":"signal","traffic_signals:direction":"forward"}}, "geometry":{"type":"Point","coordinates":[-0.97549,51.46084 ]}},
{ "type":"Feature","properties":{"osm_id":"2973023","name":"Inner Distribution Road","highway":"primary","z_order": 7, "other":{"lit":"yes","ref":"A329","lanes":"2","oneway":"yes","surface":"asphalt","maxspeed":"30 mph","sidewalk":"separate","short_name":"IDR","source:maxspeed":"Stats19"}}, "geometry":{"type":"LineString","coordinates":[[-0.96835,51.45327],[-0.96846,51.45323]]}},
{ "type":"Feature","properties":{"osm_id":"3220079","name":"Inner Distribution Road","highway":"primary","z_order": 7, "other":{"lit":"yes","ref":"A329","lanes":"2","oneway":"yes","surface":"asphalt","maxspeed":"40 mph","short_name":"IDR"}}, "geometry":{"type":"LineString","coordinates":[[-0.97733,51.45816],[-0.97738,51.45808],[-0.97746,51.45788],[-0.97754,51.45767]]}},
{ "type":"Feature","properties":{"osm_id":"3231058","name":"Inner Distribution Road","highway":"primary","z_order": 7, "other":{"cycleway:left":"track","cycleway:left:segregated":"no","lanes":"2","lit":"yes","maxspeed":"30 mph","oneway":"yes","ref":"A329","short_name":"IDR","sidewalk":"left","source:maxspeed":"Stats19","surface":"asphalt"}}, "geometry":{"type":"LineString","coordinates":[[-0.97462,51.46159],[-0.97484,51.46151],[-0.97499,51.46144],[-0.97511,51.46135],[-0.97523,51.46122],[-0.97549,51.46084],[-0.97552,51.46081],[-0.97578,51.46046]]}},
{ "type":"Feature","properties":{"osm_id":"8125860","name":"Inner Distribution Road","highway":"primary","z_order": 7, "other":{"cycleway:left":"no","incline":"up","lanes":"2","lit":"yes","maxspeed":"30 mph","oneway":"yes","ref":"A329","short_name":"IDR","sidewalk":"separate","source:maxspeed":"Stats19","surface":"asphalt"}}, "geometry":{"type":"LineString","coordinates":[[-0.97185,51.45142],[-0.97191,51.45138],[-0.97196,51.45136],[-0.97204,51.45131],[-0.97225,51.45119]]}},
{ "type":"Feature","properties":{"osm_id":"8125862","name":"Inner Distribution Road","highway":"primary","z_order": 27, "other":{"bridge":"yes","cycleway:left":"no","incline":"down","lanes":"2","layer":"1","lit":"yes","maxspeed":"40 mph","maxweight:signed":"no","oneway":"yes","ref":"A329","short_name":"IDR","source:maxspeed":"Stats19","surface":"asphalt"}}, "geometry":{"type":"LineString","coordinates":[[-0.97413,51.45055],[-0.97391,51.45065],[-0.97359,51.45079],[-0.97349,51.45084]]}},
{ "type":"Feature","properties":{"osm_id":"11134269","name":"Inner Distribution Road","highway":"primary","z_order": 7, "other":{"cycleway:left":"no","lanes":"2","lit":"yes","maxheight":"default","maxspeed":"40 mph","oneway":"yes","ref":"A329","short_name":"IDR","sidewalk":"separate","source:maxspeed":"Stats19","surface":"asphalt"}}, "geometry":{"type":"LineString","coordinates":[[-0.97754,51.45767],[-0.97766,51.45715],[-0.97771,51.45688],[-0.97777,51.45666],[-0.9779,51.45638],[-0.97807,51.45614],[-0.9783,51.45587],[-0.97851,51.45562],[-0.97862,51.45543],[-0.97871,51.45522],[-0.97875,51.45501],[-0.97877,51.45473],[-0.97876,51.45457],[-0.97871,51.4543],[-0.97862,51.45403],[-0.97853,51.45379],[-0.97836,51.45341],[-0.97818,51.45316]]}},
{ "type":"Feature","properties":{"osm_id":"11134270","name":"Inner Distribution Road","highway":"primary","z_order": 27, "other":{"bridge":"yes","cycleway:left":"no","lanes":"1","layer":"1","lit":"yes","maxspeed":"40 mph","maxweight:signed":"no","oneway":"yes","ref":"A329","short_name":"IDR","sidewalk":"separate","source:maxspeed":"Stats19","surface":"asphalt"}}, "geometry":{"type":"LineString","coordinates":[[-0.97213,51.45149],[-0.97167,51.45173],[-0.97091,51.45212]]}},
{ "type":"Feature","properties":{"osm_id":"11134271","name":"Inner Distribution Road","highway":"primary","z_order": 27, "other":{"bridge":"yes","cycleway:left":"no","lanes":"1","layer":"1","lit":"yes","maxspeed":"40 mph","maxweight:signed":"no","oneway":"yes","ref":"A329","short_name":"IDR","sidewalk":"left","source:maxspeed":"Stats19","surface":"asphalt"}}, "geometry":{"type":"LineString","coordinates":[[-0.97091,51.45212],[-0.97007,51.45252],[-0.96969,51.45271]]}},
{ "type":"Feature","properties":{"osm_id":"11134272","name":"Inner Distribution Road","highway":"primary","z_order": 27, "other":{"bridge":"yes","lanes":"2","layer":"1","lit":"yes","maxspeed":"40 mph","maxweight:signed":"no","oneway":"yes","ref":"A329","short_name":"IDR","sidewalk":"separate","source:maxspeed":"Stats19","surface":"asphalt"}}, "geometry":{"type":"LineString","coordinates":[[-0.97084,51.45204],[-0.9714,51.45176],[-0.97181,51.45154],[-0.97206,51.4514]]}},
{ "type":"Feature","properties":{"osm_id":"11134273","name":"Inner Distribution Road","highway":"primary","z_order": 27, "other":{"bridge":"yes","cycleway:left":"no","foot":"no","lanes":"2","layer":"1","lit":"yes","maxspeed":"40 mph","maxweight:signed":"no","oneway":"yes","ref":"A329","short_name":"IDR","sidewalk":"none","source:maxspeed":"Stats19","surface":"asphalt"}}, "geometry":{"type":"LineString","coordinates":[[-0.97206,51.4514],[-0.97249,51.45117],[-0.97291,51.45093],[-0.97331,51.45071],[-0.97353,51.45061],[-0.97371,51.45054],[-0.97389,51.45049],[-0.97405,51.45045],[-0.97416,51.4504]]}},
{ "type":"Feature","properties":{"osm_id":"11134274","name":"Inner Distribution Road","highway":"primary","z_order": 17, "other":{"bridge:ref":"4","cycleway:left":"no","foot":"no","lanes":"3","layer":"1","lit":"yes","maxspeed":"40 mph","oneway":"yes","ref":"A329","short_name":"IDR","sidewalk":"none","source:maxspeed":"Stats19","surface":"asphalt","turn:lanes":"left|through|through"}}, "geometry":{"type":"LineString","coordinates":[[-0.97462,51.45047],[-0.97457,51.45048]]}},
{ "type":"Feature","properties":{"osm_id":"11134276","name":"Inner Distribution Road","highway":"primary","z_order": 27, "other":{"bridge":"yes","cycleway:left":"no","lanes":"1","layer":"1","lit":"yes","maxspeed":"40 mph","maxweight:signed":"no","oneway":"yes","ref":"A329","short_name":"IDR","sidewalk":"separate","source:maxspeed":"Stats19","surface":"asphalt"}}, "geometry":{"type":"LineString","coordinates":[[-0.97387,51.4506],[-0.97372,51.45065],[-0.97358,51.45071],[-0.97333,51.45083],[-0.97301,51.451],[-0.97257,51.45125],[-0.97213,51.45149]]}},
{ "type":"Feature","properties":{"osm_id":"11134277","name":"Inner Distribution Road","highway":"primary","z_order": 27, "other":{"bridge":"yes","bridge:ref":"4","cycleway:left":"no","lanes":"3","layer":"1","lit":"yes","maxspeed":"40 mph","maxweight:signed":"no","oneway":"yes","ref":"A329","short_name":"IDR","sidewalk":"separate","source:maxspeed":"Stats19","surface":"asphalt"}}, "geometry":{"type":"LineString","coordinates":[[-0.97416,51.4504],[-0.97457,51.45034]]}},
{ "type":"Feature","properties":{"osm_id":"11134278","name":"Inner Distribution Road","highway":"primary","z_order": 7, "other":{"cycleway:left":"no","foot":"no","lanes":"2","lit":"yes","maxspeed":"40 mph","oneway":"yes","ref":"A329","short_name":"IDR","sidewalk":"none","source:maxspeed":"Stats19","surface":"asphalt"}}, "geometry":{"type":"LineString","coordinates":[[-0.97462,51.45034],[-0.97487,51.45035]]}},
{ "type":"Feature","properties":{"osm_id":"39254852","name":"Inner Distribution Road","highway":"unclassified","z_order": 3, "other":{"cycleway:left":"no","foot":"no","lane_markings":"no","lit":"yes","maxspeed":"30 mph","oneway":"yes","sidewalk":"none","surface":"asphalt"}}, "geometry":{"type":"LineString","coordinates":[[-0.97868,51.455],[-0.97864,51.45477],[-0.97863,51.45455],[-0.97859,51.45451],[-0.97855,51.45451]]}},
{ "type":"Feature","properties":{"osm_id":"39254854","name":"Inner Distribution Road","highway":"unclassified","z_order": 3, "other":{"cycleway:left":"no","foot":"yes","lane_markings":"no","lit":"yes","maxspeed":"30 mph","oneway":"yes","sidewalk":"none","surface":"asphalt"}}, "geometry":{"type":"LineString","coordinates":[[-0.97863,51.45455],[-0.97859,51.45438]]}},
{ "type":"Feature","properties":{"osm_id":"116222392","name":"Inner Distribution Road","highway":"primary","z_order": 7, "other":{"lit":"yes","ref":"A329","lanes":"2","oneway":"yes","surface":"asphalt","maxspeed":"30 mph","sidewalk":"separate","short_name":"IDR","source:maxspeed":"Stats19"}}, "geometry":{"type":"LineString","coordinates":[[-0.96932,51.45289],[-0.96874,51.4532],[-0.96868,51.45323],[-0.96864,51.45325],[-0.96847,51.45334]]}},
{ "type":"Feature","properties":{"osm_id":"129901549","name":"Inner Distribution Road","highway":"primary","z_order": 7, "other":{"cycleway:left":"no","lanes":"2","lit":"yes","maxspeed":"30 mph","ncn_name":"R60","oneway":"yes","ref":"A329","short_name":"IDR","source:maxspeed":"GB:urban; Stats19; GB:urban","surface":"asphalt","turn:lanes":"through|through"}}, "geometry":{"type":"LineString","coordinates":[[-0.97684,51.45891],[-0.97703,51.45866],[-0.97704,51.45864],[-0.97711,51.4585]]}},
{ "type":"Feature","properties":{"osm_id":"129901550","name":"Inner Distribution Road","highway":"primary","z_order": 7, "other":{"lit":"yes","ref":"A329","lanes":"2","oneway":"yes","surface":"asphalt","maxspeed":"30 mph","short_name":"IDR","source:maxspeed":"Stats19"}}, "geometry":{"type":"LineString","coordinates":[[-0.97749,51.45809],[-0.97742,51.45825],[-0.9774,51.45828],[-0.97734,51.45837]]}},
{ "type":"Feature","properties":{"osm_id":"215650789","name":"Inner Distribution Road","highway":"primary","z_order": 7, "other":{"cycleway:left":"no","lanes":"2","lit":"yes","maxspeed":"30 mph","oneway":"yes","ref":"A329","short_name":"IDR","sidewalk":"left","source:maxspeed":"Stats19","surface":"asphalt"}}, "geometry":{"type":"LineString","coordinates":[[-0.97664,51.45931],[-0.97663,51.45924],[-0.97665,51.45921],[-0.97669,51.45916],[-0.97684,51.45891]]}},
{ "type":"Feature","properties":{"osm_id":"215650792","name":"Inner Distribution Road","highway":"primary","z_order": 7, "other":{"cycleway:left":"no","lanes":"2","lit":"yes","maxspeed":"30 mph","oneway":"yes","ref":"A329","short_name":"IDR","sidewalk":"left","source:maxspeed":"Stats19","surface":"asphalt"}}, "geometry":{"type":"LineString","coordinates":[[-0.97578,51.46046],[-0.97568,51.46075],[-0.97566,51.46078],[-0.97553,51.46097],[-0.97493,51.46173]]}},
{ "type":"Feature","properties":{"osm_id":"225177073","name":"Inner Distribution Road","highway":"primary","z_order": 7, "other":{"lit":"yes","ref":"A329","lanes":"2","oneway":"yes","surface":"asphalt","maxspeed":"30 mph","short_name":"IDR","source:maxspeed":"Stats19"}}, "geometry":{"type":"LineString","coordinates":[[-0.97716,51.45844],[-0.97723,51.45832],[-0.97733,51.45816]]}},
{ "type":"Feature","properties":{"osm_id":"240456503","name":"Inner Distribution Road","highway":"primary","z_order": 27, "other":{"bridge":"yes","cycleway:left":"no","lanes":"2","layer":"1","lit":"yes","maxspeed":"40 mph","maxweight:signed":"no","oneway":"yes","ref":"A329","short_name":"IDR","sidewalk":"separate","source:maxspeed":"Stats19","surface":"asphalt"}}, "geometry":{"type":"LineString","coordinates":[[-0.96962,51.45261],[-0.97011,51.45237],[-0.97084,51.45204]]}},
{ "type":"Feature","properties":{"osm_id":"240456504","name":"Inner Distribution Road","highway":"primary","z_order": 7, "other":{"cycleway:left":"no","lanes":"2","lit":"yes","maxheight":"default","maxspeed":"40 mph","oneway":"yes","ref":"A329","short_name":"IDR","sidewalk":"separate","source:maxspeed":"Stats19","surface":"asphalt"}}, "geometry":{"type":"LineString","coordinates":[[-0.97688,51.45147],[-0.97659,51.45111],[-0.97648,51.451]]}},
{ "type":"Feature","properties":{"osm_id":"240456510","name":"Inner Distribution Road","highway":"primary","z_order": 7, "other":{"lanes":"2","lit":"yes","maxheight":"default","maxspeed":"40 mph","oneway":"yes","ref":"A329","short_name":"IDR","source:maxspeed":"Stats19","surface":"asphalt"}}, "geometry":{"type":"LineString","coordinates":[[-0.9783,51.45313],[-0.97849,51.45338],[-0.97871,51.45372],[-0.97882,51.45402],[-0.97889,51.45428],[-0.97894,51.45448],[-0.97896,51.45464],[-0.97898,51.45483],[-0.9789,51.45515],[-0.97883,51.45536],[-0.9787,51.45559],[-0.97855,51.45579],[-0.97835,51.45601],[-0.9782,51.45621],[-0.978,51.45649],[-0.9779,51.45669],[-0.97783,51.45692],[-0.9777,51.45752],[-0.97761,51.45783],[-0.97749,51.45809]]}},
{ "type":"Feature","properties":{"osm_id":"240456511","name":"Inner Distribution Road","highway":"primary","z_order": 7, "other":{"lit":"yes","ref":"A329","lanes":"2","oneway":"yes","incline":"up","surface":"asphalt","maxspeed":"40 mph","short_name":"IDR","source:maxspeed":"Stats19"}}, "geometry":{"type":"LineString","coordinates":[[-0.97225,51.45119],[-0.97245,51.45107],[-0.97295,51.4508],[-0.97324,51.45064]]}},
{ "type":"Feature","properties":{"osm_id":"240456512","name":"Inner Distribution Road","highway":"primary","z_order": 7, "other":{"lit":"yes","ref":"A329","lanes":"2","oneway":"yes","incline":"down","surface":"asphalt","maxspeed":"30 mph","short_name":"IDR","source:maxspeed":"Stats19"}}, "geometry":{"type":"LineString","coordinates":[[-0.97349,51.45084],[-0.97332,51.45093],[-0.97291,51.45115],[-0.97247,51.4514],[-0.97226,51.45153],[-0.97222,51.45156],[-0.97211,51.45165]]}},
{ "type":"Feature","properties":{"osm_id":"240456513","name":"Inner Distribution Road","highway":"primary","z_order": 7, "other":{"cutting":"yes","cycleway:left":"no","lanes":"2","lit":"yes","maxheight":"default","maxspeed":"40 mph","oneway":"yes","ref":"A329","short_name":"IDR","sidewalk":"separate","source:maxspeed":"Stats19","surface":"asphalt"}}, "geometry":{"type":"LineString","coordinates":[[-0.97818,51.45316],[-0.97798,51.45288],[-0.97749,51.45221],[-0.97688,51.45147]]}},
{ "type":"Feature","properties":{"osm_id":"240456514","name":"Inner Distribution Road","highway":"primary","z_order": 7, "other":{"cutting":"yes","lanes":"2","lit":"yes","maxheight":"default","maxspeed":"40 mph","oneway":"yes","ref":"A329","short_name":"IDR","source:maxspeed":"Stats19","surface":"asphalt"}}, "geometry":{"type":"LineString","coordinates":[[-0.977,51.45144],[-0.97743,51.452],[-0.97794,51.45265],[-0.9783,51.45313]]}},
{ "type":"Feature","properties":{"osm_id":"240456515","name":"Inner Distribution Road","highway":"primary","z_order": 7, "other":{"lit":"yes","ref":"A329","lanes":"2","oneway":"yes","surface":"asphalt","maxspeed":"30 mph","short_name":"IDR","source:maxspeed":"Stats19"}}, "geometry":{"type":"LineString","coordinates":[[-0.96969,51.45271],[-0.96932,51.45289]]}},
{ "type":"Feature","properties":{"osm_id":"289048309","name":"Inner Distribution Road","highway":"primary","z_order": 7, "other":{"lit":"yes","ref":"A329","lanes":"2","oneway":"yes","surface":"asphalt","maxspeed":"30 mph","short_name":"IDR","source:maxspeed":"Stats19"}}, "geometry":{"type":"LineString","coordinates":[[-0.97734,51.45837],[-0.97726,51.45851]]}},
{ "type":"Feature","properties":{"osm_id":"290446107","name":"Inner Distribution Road","highway":"primary","z_order": 7, "other":{"lanes":"2","lit":"yes","maxspeed":"30 mph","oneway":"yes","ref":"A329","short_name":"IDR","sidewalk":"separate","source:maxspeed":"Stats19","surface":"asphalt"}}, "geometry":{"type":"LineString","coordinates":[[-0.96846,51.45323],[-0.96853,51.45319],[-0.96857,51.45318],[-0.96875,51.45308],[-0.96909,51.45291],[-0.96962,51.45261]]}},
{ "type":"Feature","properties":{"osm_id":"344146891","name":"Inner Distribution Road","highway":"residential","z_order": 3, "other":{"bicycle":"yes","bus":"yes","lane_markings":"no","lit":"yes","maxspeed":"30 mph","motor_vehicle":"no","oneway":"yes","psv":"yes","surface":"asphalt"}}, "geometry":{"type":"LineString","coordinates":[[-0.97716,51.45844],[-0.97734,51.45837]]}},
{ "type":"Feature","properties":{"osm_id":"419215015","name":"Inner Distribution Road","highway":"primary","z_order": 27, "other":{"bridge":"yes","cycleway:left":"no","lanes":"2","layer":"1","lit":"yes","maxspeed":"40 mph","maxweight:signed":"no","oneway":"yes","ref":"A329","short_name":"IDR","source:maxspeed":"Stats19","surface":"asphalt"}}, "geometry":{"type":"LineString","coordinates":[[-0.97324,51.45064],[-0.97339,51.45057],[-0.97355,51.45051],[-0.97365,51.45048],[-0.97391,51.45041],[-0.97404,51.45039],[-0.97416,51.4504]]}},
{ "type":"Feature","properties":{"osm_id":"419215016","name":"Inner Distribution Road","highway":"primary","z_order": 17, "other":{"bridge:ref":"4","cycleway:left":"no","foot":"no","lanes":"2","layer":"1","lit":"yes","maxspeed":"40 mph","oneway":"yes","ref":"A329","short_name":"IDR","sidewalk":"none","source:maxspeed":"Stats19","surface":"asphalt"}}, "geometry":{"type":"LineString","coordinates":[[-0.97457,51.45034],[-0.97462,51.45034]]}},
{ "type":"Feature","properties":{"osm_id":"419215017","name":"Inner Distribution Road","highway":"primary","z_order": 27, "other":{"bridge":"yes","bridge:ref":"4","lanes":"3","layer":"1","lit":"yes","maxspeed":"40 mph","maxweight:signed":"no","oneway":"yes","ref":"A329","short_name":"IDR","source:maxspeed":"Stats19","surface":"asphalt","turn:lanes":"left|through|through"}}, "geometry":{"type":"LineString","coordinates":[[-0.97457,51.45048],[-0.97433,51.45051],[-0.97413,51.45055]]}},
{ "type":"Feature","properties":{"osm_id":"455483188","name":"Inner Distribution Road","highway":"primary","z_order": 7, "other":{"lit":"yes","ref":"A329","lanes":"2","oneway":"yes","surface":"asphalt","maxspeed":"30 mph","sidewalk":"separate","short_name":"IDR","source:maxspeed":"Stats19"}}, "geometry":{"type":"LineString","coordinates":[[-0.96847,51.45334],[-0.96834,51.45339]]}},
{ "type":"Feature","properties":{"osm_id":"564814846","name":"Inner Distribution Road","highway":"unclassified","z_order": 3, "other":{"lane_markings":"no","lit":"yes","maxspeed":"30 mph","oneway":"yes","surface":"asphalt"}}, "geometry":{"type":"LineString","coordinates":[[-0.97856,51.4544],[-0.97859,51.45438],[-0.97852,51.45416],[-0.97848,51.45404],[-0.97837,51.4538],[-0.97815,51.45342],[-0.97799,51.4532],[-0.9779,51.45307],[-0.97781,51.4529],[-0.97775,51.45278]]}},
{ "type":"Feature","properties":{"osm_id":"674124706","name":"Inner Distribution Road","highway":"primary","z_order": 7, "other":{"cycleway:left":"no","lanes":"2","lit":"yes","maxheight":"default","maxspeed":"40 mph","oneway":"yes","ref":"A329","short_name":"IDR","sidewalk":"separate","source:maxspeed":"Stats19","surface":"asphalt"}}, "geometry":{"type":"LineString","coordinates":[[-0.97657,51.45087],[-0.9767,51.45106],[-0.977,51.45144]]}},
{ "type":"Feature","properties":{"osm_id":"674124707","name":"Inner Distribution Road","highway":"primary","z_order": 7, "other":{"cycleway:left":"no","lanes":"2","lit":"yes","maxspeed":"40 mph","oneway":"yes","ref":"A329","short_name":"IDR","sidewalk":"separate","source:maxspeed":"Stats19","surface":"asphalt"}}, "geometry":{"type":"LineString","coordinates":[[-0.97641,51.45075],[-0.97647,51.4508],[-0.97657,51.45087]]}},
{ "type":"Feature","properties":{"osm_id":"674124710","name":"Inner Distribution Road","highway":"primary","z_order": 7, "other":{"cycleway:left":"no","lanes":"2","lit":"yes","maxspeed":"40 mph","oneway":"yes","ref":"A329","short_name":"IDR","sidewalk":"separate","source:maxspeed":"Stats19","surface":"asphalt"}}, "geometry":{"type":"LineString","coordinates":[[-0.97624,51.45069],[-0.97641,51.45075]]}},
{ "type":"Feature","properties":{"osm_id":"674124712","name":"Inner Distribution Road","highway":"primary","z_order": 7, "other":{"cycleway:left":"no","lanes":"2","lit":"yes","maxspeed":"40 mph","oneway":"yes","ref":"A329","short_name":"IDR","sidewalk":"separate","source:maxspeed":"Stats19","surface":"asphalt"}}, "geometry":{"type":"LineString","coordinates":[[-0.97648,51.451],[-0.97619,51.45084]]}},
{ "type":"Feature","properties":{"osm_id":"674124713","name":"Inner Distribution Road","highway":"primary","z_order": 7, "other":{"cycleway:left":"no","foot":"no","lanes":"3","lit":"yes","maxspeed":"40 mph","oneway":"yes","ref":"A329","short_name":"IDR","sidewalk":"none","source:maxspeed":"Stats19","surface":"asphalt","turn:lanes":"left|through|through"}}, "geometry":{"type":"LineString","coordinates":[[-0.97619,51.45084],[-0.97595,51.45071],[-0.97574,51.45062],[-0.97564,51.45059],[-0.97555,51.45056],[-0.97543,51.45053],[-0.97524,51.4505],[-0.97507,51.45048],[-0.97495,51.45047],[-0.97479,51.45046],[-0.97462,51.45047]]}},
{ "type":"Feature","properties":{"osm_id":"674124714","name":"Inner Distribution Road","highway":"primary","z_order": 7, "other":{"cycleway:left":"no","foot":"no","lanes":"2","lit":"yes","maxspeed":"40 mph","oneway":"yes","ref":"A329","short_name":"IDR","sidewalk":"none","source:maxspeed":"Stats19","surface":"asphalt"}}, "geometry":{"type":"LineString","coordinates":[[-0.97487,51.45035],[-0.97514,51.45037],[-0.97535,51.4504],[-0.97553,51.45044],[-0.97571,51.45048],[-0.97588,51.45053],[-0.97624,51.45069]]}},
{ "type":"Feature","properties":{"osm_id":"676104156","name":"Inner Distribution Road","highway":"primary","z_order": 7, "other":{"lanes":"2","lit":"yes","maxspeed":"30 mph","oneway":"yes","ref":"A329","short_name":"IDR","source:maxspeed":"Stats19","surface":"asphalt"}}, "geometry":{"type":"LineString","coordinates":[[-0.97726,51.45851],[-0.97721,51.45858],[-0.97702,51.45886],[-0.97673,51.45926],[-0.97664,51.45931]]}},
{ "type":"Feature","properties":{"osm_id":"868355791","name":"Inner Distribution Road","highway":"primary","z_order": 27, "other":{"bridge":"yes","lanes":"2","layer":"1","lit":"yes","maxspeed":"40 mph","maxweight:signed":"no","oneway":"yes","ref":"A329","short_name":"IDR","source:maxspeed":"Stats19","surface":"asphalt","turn:lanes":"none|merge_to_left"}}, "geometry":{"type":"LineString","coordinates":[[-0.97413,51.45055],[-0.97387,51.4506]]}},
{ "type":"Feature","properties":{"osm_id":"975562509","name":"Inner Distribution Road","highway":"primary","z_order": 7, "other":{"cycleway:left":"no","lanes":"2","lit":"yes","maxspeed":"30 mph","ncn_name":"R60","oneway":"yes","ref":"A329","short_name":"IDR","source:maxspeed":"GB:urban; Stats19; GB:urban","surface":"asphalt","turn:lanes":"through|through"}}, "geometry":{"type":"LineString","coordinates":[[-0.97711,51.4585],[-0.97716,51.45844]]}},
{ "type":"Feature","properties":{"osm_way_id":"112156995","name":"Tesco Distribution Centre","landuse":"industrial"},"geometry":{"type":"Polygon","coordinates":[[[ -0.97624,51.41661],[-0.97796,51.41492],[-0.9803,51.41568],[-0.981,51.41721],[-0.98194,51.41814],[-0.98306,51.41871],[-0.98118,51.42056],[-0.9808,51.4209],[-0.98036,51.42086],[-0.97925,51.42068],[-0.97849,51.42041],[-0.97802,51.42001],[-0.97762,51.41937],[-0.97691,51.4187],[-0.97664,51.41818],[-0.97724,51.4174],[-0.9771,51.41707],[-0.97686,51.41687],[-0.97624,51.41661]] ]}}
]
}
