{
"type": "FeatureCollection",
"features": [
{ "type":"Feature","properties":{"osm_way_id":"316609045","name":"The Open University Distribution Services","building":"warehouse","other":{"addr:city":"Wellingborough","addr:street":"Denington Road","addr:suburb":"Denington Industrial Estate","addr:country":"GB","addr:postcode":"NN8 2QH","addr:housenumber":"53\/63"}}, "geometry":{"type":"Polygon","coordinates":[[[ -0.69068,52.29135],[-0.6903,52.29048],[-0.69162,52.29026],[-0.69189,52.29087],[-0.69136,52.29096],[-0.69143,52.29112],[-0.69131,52.29114],[-0.69135,52.29124],[-0.69068,52.29135]] ]}},
{ "type":"Feature","properties":{"osm_way_id":"467058311","name":"Western Power Distribution","building":"yes"},"geometry":{"type":"Polygon","coordinates":[[[ -0.73745,52.4081],[-0.73688,52.40804],[-0.73698,52.40765],[-0.73684,52.40764],[-0.73688,52.4075],[-0.73703,52.40751],[-0.73712,52.40713],[-0.73746,52.40716],[-0.73753,52.4069],[-0.73768,52.40691],[-0.73767,52.40697],[-0.73781,52.40698],[-0.73773,52.4073],[-0.73759,52.40728],[-0.73751,52.4076],[-0.73758,52.40761],[-0.73745,52.4081]] ]}},
{ "type":"Feature","properties":{"osm_way_id":"680868506","name":"Primark Distribution Centre","building":"industrial","other":{"addr:city":"Kettering","addr:country":"GB","addr:postcode":"NN14 3JW","addr:street":"Kettering Road","addr:village":"Islip","fhrs:authority":"North Northamptonshire","fhrs:id":"915138","fhrs:local_authority_id":"16\/00028\/COM"}}, "geometry":{"type":"Polygon","coordinates":[[[ -0.57164,52.39384],[-0.57008,52.3938],[-0.57006,52.39409],[-0.56245,52.39388],[-0.56256,52.39237],[-0.57018,52.39258],[-0.57015,52.39289],[-0.5717,52.39293],[-0.57164,52.39384]] ]}},
{ "type":"Feature","properties":{"osm_way_id":"700114312","name":"BSH Distribution","building":"warehouse"},"geometry":{"type":"Polygon","coordinates":[[[ -0.66305,52.48217],[-0.66491,52.48099],[-0.6671,52.48228],[-0.66723,52.4822],[-0.66751,52.48236],[-0.66738,52.48244],[-0.6693,52.48356],[-0.66948,52.48345],[-0.66965,52.48355],[-0.66947,52.48367],[-0.66976,52.48383],[-0.66923,52.48417],[-0.66936,52.48424],[-0.66832,52.48491],[-0.6682,52.48484],[-0.66792,52.48502],[-0.66576,52.48376],[-0.66556,52.48388],[-0.66536,52.48377],[-0.66557,52.48364],[-0.66551,52.48361],[-0.66535,52.48371],[-0.66507,52.48354],[-0.66522,52.48344],[-0.66514,52.4834],[-0.66495,52.48352],[-0.66476,52.48341],[-0.66496,52.48329],[-0.66305,52.48217]] ]}}
]
}
