{
"type": "FeatureCollection",
"features": [
{ "type":"Feature","properties":{"osm_id":"412321780","name":"Co-op","other":{"addr:city":"Northampton","addr:country":"GB","addr:housenumber":"44","addr:postcode":"NN5 6JQ","addr:street":"Main Road","fhrs:authority":"Northampton","fhrs:id":"172782","fhrs:local_authority_id":"PI\/000023995","operator":"The Co-operative Group","shop":"supermarket"}}, "geometry":{"type":"Point","coordinates":[-0.9443,52.2433 ]}},
{ "type":"Feature","properties":{"osm_id":"540436000","name":"Co-op Food","other":{"addr:city":"Northampton","addr:country":"GB","addr:housenumber":"1","addr:postcode":"NN3 9AQ","addr:street":"Fieldmill Square","brand":"Co-op Food","brand:wikidata":"Q3277439","brand:wikipedia":"en:Co-op Food","fhrs:authority":"Northampton","fhrs:id":"163161","fhrs:local_authority_id":"PI\/000004273","opening_hours":"Su 07:00-22:00; Mo-Sa 06:30-22:00","operator":"The Co-operative Group","shop":"supermarket"}}, "geometry":{"type":"Point","coordinates":[-0.81366,52.2524 ]}},
{ "type":"Feature","properties":{"osm_id":"740843383","name":"Waitrose","other":{"addr:city":"Northampton","addr:country":"GB","addr:housenumber":"11","addr:postcode":"NN2 7BD","addr:street":"Kingsthorpe Centre","brand":"Waitrose","brand:wikidata":"Q771734","brand:wikipedia":"en:Waitrose","fhrs:authority":"Northampton","fhrs:id":"178494","fhrs:local_authority_id":"PI\/000047576","official_name":"Waitrose & Partners","operator":"Waitrose & Partners","shop":"supermarket","source:addr":"FHRS Open Data","website":"https:\/\/www.waitrose.com\/bf_home\/bf\/148.html"}}, "geometry":{"type":"Point","coordinates":[-0.90115,52.26257 ]}},
{ "type":"Feature","properties":{"osm_id":"786869139","name":"Tesco Express","other":{"addr:city":"Northampton","addr:country":"GB","addr:housenumber":"1-3","addr:postcode":"NN3 6ND","addr:street":"Coppice Drive","brand":"Tesco Express","brand:wikidata":"Q98456772","contact:website":"https:\/\/www.tesco.com\/store-locator\/northampton\/1-3-coppice-dr","fhrs:id":"166596","shop":"supermarket","source:addr":"FHRS Open Data","wheelchair":"yes"}}, "geometry":{"type":"Point","coordinates":[-0.86398,52.26659 ]}},
{ "type":"Feature","properties":{"osm_id":"798712447","name":"Costcutter","other":{"shop":"supermarket","brand":"Costcutter","fhrs:id":"163095","addr:city":"Northampton","addr:street":"Billing Brook Road","addr:country":"GB","addr:postcode":"NN3 8NQ","brand:wikidata":"Q5175072","fhrs:authority":"Northampton","brand:wikipedia":"en:Costcutter","addr:housenumber":"2","fhrs:local_authority_id":"PI\/000004184"}}, "geometry":{"type":"Point","coordinates":[-0.83484,52.26401 ]}},
{ "type":"Feature","properties":{"osm_id":"843259304","name":"Sainsbury's","other":{"shop":"supermarket","brand":"Sainsbury's","fhrs:id":"174718","addr:city":"Northampton","addr:place":"Grosvenor Centre","addr:street":"Princes Walk","source:addr":"FHRS Open Data","addr:country":"GB","addr:postcode":"NN1 2EL","brand:wikidata":"Q152096","fhrs:authority":"Northampton","brand:wikipedia":"en:Sainsbury's","addr:housenumber":"15","fhrs:local_authority_id":"PI\/000029864"}}, "geometry":{"type":"Point","coordinates":[-0.89583,52.23919 ]}},
{ "type":"Feature","properties":{"osm_id":"845428182","name":"Rectory Farm Supermarket","other":{"shop":"supermarket","fhrs:id":"173985","addr:city":"Northampton","addr:street":"Olden Road","addr:country":"GB","addr:postcode":"NN3 5DD","fhrs:authority":"Northampton","fhrs:local_authority_id":"PI\/000027664"}}, "geometry":{"type":"Point","coordinates":[-0.80925,52.26811 ]}},
{ "type":"Feature","properties":{"osm_id":"1084482429","name":"Tesco Extra","other":{"addr:city":"Northampton","addr:country":"GB","addr:housenumber":"1\/2","addr:postcode":"NN3 8JZ","addr:street":"Weston Favell Centre","brand":"Tesco Extra","brand:wikidata":"Q25172225","brand:wikipedia":"en:Tesco Extra","contact:website":"https:\/\/www.tesco.com\/store-locator\/northampton\/12-weston-favell-centre","fhrs:id":"177120","shop":"supermarket","source:addr":"FHRS Open Data"}}, "geometry":{"type":"Point","coordinates":[-0.83642,52.25715 ]}},
{ "type":"Feature","properties":{"osm_id":"3040481436","name":"Jeet Topshop","other":{"addr:city":"Milton Keynes","addr:country":"GB","addr:housenumber":"44","addr:postcode":"MK19 6JB","addr:street":"Puxley Road","addr:village":"Deanshanger","amenity":"post_office","fhrs:authority":"West Northamptonshire","fhrs:id":"452652","fhrs:local_authority_id":"PI\/000027729","ref:pol_id":"130630","shop":"supermarket"}}, "geometry":{"type":"Point","coordinates":[-0.89475,52.05456 ]}},
{ "type":"Feature","properties":{"osm_id":"3300623461","ref":"NN1 2","other":{"amenity":"post_box","operator":"Royal Mail","royal_cypher":"EIIR"}}, "geometry":{"type":"Point","coordinates":[-0.89205,52.24158 ]}},
{ "type":"Feature","properties":{"osm_id":"3461128036","name":"Heron Foods","other":{"addr:city":"Northampton","addr:country":"GB","addr:housenumber":"14","addr:postcode":"NN2 7BD","addr:street":"Kingsthorpe Centre","brand":"Heron Foods","brand:wikidata":"Q5743472","brand:wikipedia":"en:Heron Foods","contact:website":"https:\/\/heronfoods.com\/storelocator\/store-details\/kingsthorpe","fhrs:authority":"Northampton","fhrs:id":"734865","fhrs:local_authority_id":"PI\/000084290","shop":"supermarket"}}, "geometry":{"type":"Point","coordinates":[-0.90094,52.26303 ]}},
{ "type":"Feature","properties":{"osm_id":"3800105483","man_made":"surveillance","other":{"surveillance":"outdoor","surveillance:type":"camera"}}, "geometry":{"type":"Point","coordinates":[-0.90119,52.26147 ]}},
{ "type":"Feature","properties":{"osm_id":"4381911290","name":"Lidl","other":{"addr:city":"Northampton","addr:country":"GB","addr:postcode":"NN5 5DF","addr:street":"Weedon Road","brand":"Lidl","brand:wikidata":"Q151954","brand:wikipedia":"en:Lidl","contact:phone":"+44 8009 777766","fhrs:id":"1126690","shop":"supermarket"}}, "geometry":{"type":"Point","coordinates":[-0.93327,52.23942 ]}},
{ "type":"Feature","properties":{"osm_id":"4585481156","other":{"access":"yes","defibrillator:location":"On side of Supermarket facing Main Road","emergency":"defibrillator","indoor":"no"}}, "geometry":{"type":"Point","coordinates":[-1.13696,52.3465 ]}},
{ "type":"Feature","properties":{"osm_id":"4591564400","name":"Waitrose","other":{"addr:city":"Northampton","addr:country":"GB","addr:postcode":"NN4 6HP","addr:street":"Newport Pagnell Road","brand":"Waitrose","brand:wikidata":"Q771734","brand:wikipedia":"en:Waitrose","fhrs:authority":"Northampton","fhrs:id":"636063","fhrs:local_authority_id":"PI\/000080320","official_name":"Waitrose & Partners","operator":"Waitrose & Partners","shop":"supermarket"}}, "geometry":{"type":"Point","coordinates":[-0.89209,52.20923 ]}},
{ "type":"Feature","properties":{"osm_id":"4810604151","name":"The Co-operative Food","other":{"addr:city":"Towcester","addr:country":"GB","addr:housenumber":"92","addr:postcode":"NN12 6BT","addr:street":"Watling Street","fhrs:authority":"South Northamptonshire","fhrs:id":"172918","fhrs:local_authority_id":"PI\/000024448","operator":"Midcounties Co-operative","shop":"supermarket"}}, "geometry":{"type":"Point","coordinates":[-0.98857,52.13223 ]}},
{ "type":"Feature","properties":{"osm_id":"4894386131","name":"Heron Foods","other":{"shop":"supermarket","brand":"Heron Foods","fhrs:id":"695907","addr:city":"Daventry","addr:street":"High Street","addr:country":"GB","addr:postcode":"NN11 4HU","brand:wikidata":"Q5743472","brand:wikipedia":"en:Heron Foods","contact:website":"https:\/\/heronfoods.com\/storelocator\/store-details\/daventry","addr:housenumber":"76"}}, "geometry":{"type":"Point","coordinates":[-1.1639,52.25779 ]}},
{ "type":"Feature","properties":{"osm_id":"4921216180","name":"Moore & Son, Costcutter","other":{"shop":"supermarket","fhrs:id":"166518","addr:city":"Northampton","addr:place":"Long Buckby","addr:street":"Market Place","addr:country":"GB","addr:postcode":"NN6 7RR","fhrs:authority":"Daventry","addr:housenumber":"19","fhrs:local_authority_id":"PI\/000009710"}}, "geometry":{"type":"Point","coordinates":[-1.08144,52.30306 ]}},
{ "type":"Feature","properties":{"osm_id":"5148481647","name":"Iceland Frozen Foods","other":{"addr:city":"Northampton","addr:country":"GB","addr:housenumber":"14","addr:postcode":"NN1 1PS","addr:street":"St Peters Square","brand":"Iceland","brand:wikidata":"Q721810","fhrs:authority":"Northampton","fhrs:id":"176052","fhrs:local_authority_id":"PI\/000035176","shop":"supermarket"}}, "geometry":{"type":"Point","coordinates":[-0.89882,52.23543 ]}},
{ "type":"Feature","properties":{"osm_id":"5153723917","name":"Europe Supermarket","other":{"shop":"supermarket","fhrs:id":"1091042","addr:city":"Northampton","addr:street":"Abington Street","addr:country":"GB","addr:postcode":"NN1 2BP","fhrs:authority":"Northampton","addr:housenumber":"102a","fhrs:local_authority_id":"PI\/000089320"}}, "geometry":{"type":"Point","coordinates":[-0.89013,52.23928 ]}},
{ "type":"Feature","properties":{"osm_id":"5154169098","name":"Marco Polo Euro Market","other":{"addr:city":"Northampton","addr:country":"GB","addr:housenumber":"108","addr:postcode":"NN1 3EA","addr:street":"Baliff Street","fhrs:authority":"Northampton","fhrs:id":"1315760","fhrs:local_authority_id":"PI\/000093894","shop":"supermarket"}}, "geometry":{"type":"Point","coordinates":[-0.89331,52.24515 ]}},
{ "type":"Feature","properties":{"osm_id":"5154169104","name":"Continental Supermarket & Halal Butcher","other":{"shop":"supermarket","fhrs:id":"178818","addr:city":"Northampton","addr:street":"Earl Street","addr:country":"GB","addr:postcode":"NN1 3AX","fhrs:authority":"Northampton","addr:housenumber":"82","fhrs:local_authority_id":"PI\/000050426"}}, "geometry":{"type":"Point","coordinates":[-0.89121,52.24271 ]}},
{ "type":"Feature","properties":{"osm_id":"5158002219","name":"Al-Hamra Supermarket","other":{"shop":"supermarket","fhrs:id":"749748","addr:city":"Northampton","addr:street":"Kettering Road","addr:country":"GB","addr:postcode":"NN1 4BJ","fhrs:authority":"Northampton","addr:housenumber":"190-192","fhrs:local_authority_id":"PI\/000084907"}}, "geometry":{"type":"Point","coordinates":[-0.88315,52.24488 ]}},
{ "type":"Feature","properties":{"osm_id":"5158002523","name":"Euro Superstore","other":{"shop":"supermarket","fhrs:id":"181272","addr:city":"Northampton","addr:street":"Kettering Road","addr:country":"GB","addr:postcode":"NN1 4AZ","fhrs:authority":"Northampton","addr:housenumber":"111","fhrs:local_authority_id":"PI\/000069672"}}, "geometry":{"type":"Point","coordinates":[-0.88468,52.24299 ]}},
{ "type":"Feature","properties":{"osm_id":"5161695493","name":"Raj supermarket","other":{"shop":"supermarket","fhrs:id":"1039320","addr:city":"Northampton","addr:street":"Wellingborough Road","addr:country":"GB","addr:postcode":"NN1 4DL","fhrs:authority":"Northampton","addr:housenumber":"123","fhrs:local_authority_id":"PI\/000089482"}}, "geometry":{"type":"Point","coordinates":[-0.88359,52.24133 ]}},
{ "type":"Feature","properties":{"osm_id":"5161914615","name":"Europe Supermarket","other":{"shop":"supermarket","fhrs:id":"800029","addr:city":"Northampton","addr:street":"Wellingborough Road","addr:country":"GB","addr:postcode":"NN1 4ES","fhrs:authority":"Northampton","addr:housenumber":"340-344","fhrs:local_authority_id":"PI\/000083917"}}, "geometry":{"type":"Point","coordinates":[-0.87185,52.24364 ]}},
{ "type":"Feature","properties":{"osm_id":"5175497028","name":"The Co-operative Food","other":{"addr:city":"Northampton","addr:country":"GB","addr:housenumber":"18","addr:postcode":"NN2 7RE","addr:street":"Newnham Road","fhrs:authority":"Northampton","fhrs:id":"173641","fhrs:local_authority_id":"PI\/000026451","old_name":"Co-op Late Shop","operator":"The Co-operative Group","shop":"supermarket"}}, "geometry":{"type":"Point","coordinates":[-0.8881,52.2641 ]}},
{ "type":"Feature","properties":{"osm_id":"5180635376","name":"The Co-operative Food","other":{"addr:city":"Northampton","addr:country":"GB","addr:housenumber":"12\/14","addr:postcode":"NN3 2NS","addr:street":"Bushland Road","fhrs:authority":"Northampton","fhrs:id":"164770","fhrs:local_authority_id":"PI\/000006870","operator":"The Co-operative Group","shop":"supermarket"}}, "geometry":{"type":"Point","coordinates":[-0.85319,52.25936 ]}},
{ "type":"Feature","properties":{"osm_id":"5180771639","name":"Co-op","other":{"addr:city":"Northampton","addr:country":"GB","addr:housenumber":"231-233","addr:postcode":"NN3 2HG","addr:street":"Birchfield Road East","fhrs:authority":"Northampton","fhrs:id":"163331","fhrs:local_authority_id":"PI\/000004515","not:addr:postcode":"NN3 3HG","operator":"The Co-operative Group","shop":"supermarket"}}, "geometry":{"type":"Point","coordinates":[-0.86535,52.25241 ]}},
{ "type":"Feature","properties":{"osm_id":"5180851004","name":"Aldi","other":{"addr:city":"Northampton","addr:country":"GB","addr:housenumber":"582-590","addr:postcode":"NN3 3JB","addr:street":"Wellingborough Road","brand":"ALDI","brand:wikidata":"Q41171672","brand:wikipedia":"en:Aldi","fhrs:id":"434269","shop":"supermarket"}}, "geometry":{"type":"Point","coordinates":[-0.84795,52.25147 ]}},
{ "type":"Feature","properties":{"osm_id":"5186988179","name":"The Co-operative Food","other":{"addr:city":"Northampton","addr:country":"GB","addr:housenumber":"45-49","addr:postcode":"NN3 6EW","addr:street":"Oulton Rise","fhrs:authority":"Northampton","fhrs:id":"615634","fhrs:local_authority_id":"PI\/000079523","operator":"The Co-operative Group","shop":"supermarket"}}, "geometry":{"type":"Point","coordinates":[-0.87403,52.26725 ]}},
{ "type":"Feature","properties":{"osm_id":"5210861941","name":"The Co-operative Food","other":{"addr:city":"Northampton","addr:country":"GB","addr:housenumber":"237-245","addr:postcode":"NN5 6PR","addr:street":"Main Road","fhrs:authority":"Northampton","fhrs:id":"742242","fhrs:local_authority_id":"PI\/000080750","operator":"Central England Co-operative","shop":"supermarket"}}, "geometry":{"type":"Point","coordinates":[-0.95243,52.25456 ]}},
{ "type":"Feature","properties":{"osm_id":"5341538315","name":"Aldi","other":{"addr:city":"Northampton","addr:country":"GB","addr:postcode":"NN1 1BQ","addr:street":"Towcester Road","brand":"ALDI","brand:wikidata":"Q41171672","brand:wikipedia":"en:Aldi","fhrs:id":"1013071","shop":"supermarket"}}, "geometry":{"type":"Point","coordinates":[-0.90171,52.23139 ]}},
{ "type":"Feature","properties":{"osm_id":"5638540672","name":"Best Pol","other":{"shop":"supermarket"}}, "geometry":{"type":"Point","coordinates":[-0.88488,52.24285 ]}},
{ "type":"Feature","properties":{"osm_id":"5902156120","name":"Daily Bread Co-operative Ltd","other":{"shop":"supermarket","operator":"Daily Bread Co-operative Ltd","addr:city":"Northampton","addr:street":"Bedford Road","description":"Retailer of Wholefoods","payment:cash":"yes","addr:postcode":"NN4 7AD","opening_hours":"Mo-Fr 08:30-17:30; Sa 08:30-17:00","addr:housename":"The Old Laundry","payment:debit_cards":"yes","payment:credit_cards":"yes"}}, "geometry":{"type":"Point","coordinates":[-0.87322,52.23249 ]}},
{ "type":"Feature","properties":{"osm_id":"6315006841","name":"Co-op","other":{"addr:city":"Northampton","addr:postcode":"NN4 5DY","addr:street":"Williams Way","opening_hours":"06:00 - 23:00","operator":"The Co-operative Group","payment:apple_pay":"yes","payment:cash":"yes","payment:contactless":"yes","payment:credit_cards":"yes","payment:debit_cards":"yes","phone":"+44 1604 702358","shop":"supermarket","website":"https:\/\/finder.coop.co.uk\/food\/store\/NN4-5DY\/williams-way"}}, "geometry":{"type":"Point","coordinates":[-0.8876,52.18909 ]}},
{ "type":"Feature","properties":{"osm_id":"7918565293","other":{"emergency":"defibrillator"}}, "geometry":{"type":"Point","coordinates":[-0.84009,52.27179 ]}},
{ "type":"Feature","properties":{"osm_way_id":"35152185","name":"Sainsbury's","building":"yes","shop":"supermarket","other":{"addr:city":"Northampton","addr:country":"GB","addr:housename":"Westgate Industrial Estate","addr:housenumber":"20","addr:postcode":"NN5 5DG","addr:street":"Gambrel Road","alt_name":"Sainsbury's Weedon Road Superstore","brand":"Sainsbury's","brand:wikidata":"Q152096","brand:wikipedia":"en:Sainsbury's","fhrs:authority":"Northampton","fhrs:id":"169555","fhrs:local_authority_id":"PI\/000015351","source:addr":"FHRS Open Data","source:shape":"OS_OpenData_StreetView"}}, "geometry":{"type":"MultiPolygon","coordinates":[[[[-0.93795,52.23994],[-0.93794,52.23918],[-0.9375,52.23918],[-0.93751,52.23905],[-0.93662,52.23905],[-0.93662,52.23926],[-0.93674,52.23926],[-0.93674,52.23935],[-0.93672,52.23935],[-0.93673,52.23961],[-0.93691,52.23961],[-0.93692,52.23993],[-0.93795,52.23994]]]]}},
{ "type":"Feature","properties":{"osm_way_id":"59700685","name":"Asda","building":"yes","shop":"supermarket","other":{"brand":"Asda","image":"http:\/\/s0.geograph.org.uk\/geophotos\/03\/59\/47\/3594708_d93f8d91.jpg","fhrs:id":"179108","operator":"Asda Stores Ltd","addr:city":"Northampton","addr:street":"Harborough Road","addr:country":"GB","addr:postcode":"NN2 7AZ","contact:phone":"+44 1604 777600","brand:wikidata":"Q297410","brand:wikipedia":"en:Asda","contact:twitter":"@asda","contact:website":"https:\/\/storelocator.asda.com\/east-midlands\/kingsthorpe-northampton\/50-harborough-road-kingsthorpe","addr:housenumber":"50","contact:facebook":"https:\/\/www.facebook.com\/asda\/","not:addr:postcode":"NN2 7BA","opening_hours:covid19":"Mo-Sa 08:00-22:00; Su 10:00-16:00"}}, "geometry":{"type":"MultiPolygon","coordinates":[[[[-0.90139,52.26147],[-0.90168,52.26165],[-0.90182,52.26173],[-0.90177,52.26175],[-0.90171,52.2618],[-0.90176,52.26183],[-0.90171,52.26186],[-0.90181,52.26191],[-0.90192,52.26184],[-0.90196,52.26181],[-0.90209,52.26189],[-0.90163,52.26218],[-0.90093,52.26177],[-0.90091,52.26176],[-0.90099,52.2617],[-0.90102,52.2617],[-0.9012,52.26159],[-0.90119,52.26147],[-0.90139,52.26147]]]]}},
{ "type":"Feature","properties":{"osm_way_id":"67626593","name":"Morrisons","building":"yes","shop":"supermarket","other":{"addr:city":"Northampton","addr:country":"GB","addr:housenumber":"26","addr:postcode":"NN1 1HB","addr:street":"Victoria Promenade","alt_name":"Morrisons Northampton","brand":"Morrisons","brand:wikidata":"Q922344","brand:wikipedia":"en:Morrisons","designation":"Northampton","fhrs:id":"182287","not:addr:postcode":"NN1 1HH","operator":"Morrisons","wheelchair":"yes"}}, "geometry":{"type":"MultiPolygon","coordinates":[[[[-0.89467,52.2331],[-0.89462,52.2331],[-0.89471,52.23338],[-0.89565,52.23328],[-0.89562,52.23317],[-0.89589,52.23314],[-0.89584,52.23298],[-0.89608,52.23295],[-0.89592,52.23241],[-0.89564,52.23245],[-0.89567,52.23256],[-0.89454,52.23269],[-0.89457,52.2328],[-0.89467,52.2331]]]]}},
{ "type":"Feature","properties":{"osm_way_id":"90872296","name":"Morrisons","building":"yes","shop":"supermarket","other":{"brand":"Morrisons","fhrs:id":"177837","addr:city":"Northampton","addr:street":"Kettering Road","source:addr":"FHRS Open Data","addr:country":"GB","addr:postcode":"NN3 6AA","brand:wikidata":"Q922344","brand:wikipedia":"en:Morrisons","fhrs:local_authority_id":"PI\/000043864"}}, "geometry":{"type":"MultiPolygon","coordinates":[[[[-0.87333,52.25944],[-0.87341,52.25938],[-0.87346,52.2594],[-0.87369,52.25924],[-0.87349,52.25915],[-0.87371,52.25898],[-0.8739,52.25907],[-0.87416,52.25886],[-0.87313,52.25838],[-0.87222,52.25906],[-0.8726,52.25924],[-0.87271,52.25915],[-0.87333,52.25944]]]]}},
{ "type":"Feature","properties":{"osm_way_id":"93628604","name":"Lidl","building":"shop","shop":"supermarket","other":{"brand":"Lidl","fhrs:id":"181584","addr:city":"Northampton","addr:street":"Octagon Way","source:addr":"FHRS Open Data","addr:country":"GB","addr:postcode":"NN3 8JL","brand:wikidata":"Q151954","fhrs:authority":"Northampton","brand:wikipedia":"en:Lidl","fhrs:local_authority_id":"PI\/000070803"}}, "geometry":{"type":"MultiPolygon","coordinates":[[[[-0.83618,52.25579],[-0.83652,52.25567],[-0.83611,52.25522],[-0.83577,52.25533],[-0.83618,52.25579]]]]}},
{ "type":"Feature","properties":{"osm_way_id":"94817265","name":"Asda","building":"yes","shop":"supermarket","other":{"brand":"Asda","fhrs:id":"434277","operator":"Asda Stores Ltd","addr:city":"Northampton","addr:street":"London Road","designation":"Far Cotton Supermarket","addr:country":"GB","addr:postcode":"NN4 8ER","brand:wikidata":"Q297410","fhrs:authority":"Northampton","brand:wikipedia":"en:Asda","contact:twitter":"@asda","contact:website":"https:\/\/storelocator.asda.com\/east-midlands\/northampton\/london-road-far-cotton","contact:facebook":"https:\/\/www.facebook.com\/asda\/","fhrs:local_authority_id":"PI\/000075858"}}, "geometry":{"type":"MultiPolygon","coordinates":[[[[-0.89592,52.22883],[-0.89485,52.22884],[-0.89484,52.22852],[-0.89592,52.2285],[-0.89592,52.22883]]]]}},
{ "type":"Feature","properties":{"osm_way_id":"100603098","name":"Tesco","building":"yes","shop":"supermarket","other":{"addr:city":"Brackley","addr:country":"GB","addr:postcode":"NN13 7EF","addr:street":"Oxford Road","brand":"Tesco","brand:wikidata":"Q487494","brand:wikipedia":"en:Tesco","fhrs:authority":"South Northamptonshire","fhrs:id":"162122","fhrs:local_authority_id":"PI\/000002404","operator":"Tesco"}}, "geometry":{"type":"MultiPolygon","coordinates":[[[[-1.1523,52.02339],[-1.15167,52.02344],[-1.15167,52.02342],[-1.15136,52.02344],[-1.15134,52.02334],[-1.15145,52.02333],[-1.15137,52.02294],[-1.15223,52.02287],[-1.15224,52.02293],[-1.15226,52.02303],[-1.15232,52.02333],[-1.15229,52.02334],[-1.1523,52.02339]]]]}},
{ "type":"Feature","properties":{"osm_way_id":"114120434","name":"Tesco superstore","building":"yes","shop":"supermarket","other":{"addr:city":"Towcester","addr:country":"GB","addr:postcode":"NN12 6PF","addr:street":"Old Tiffield Road","brand":"Tesco","brand:wikidata":"Q487494","designation":"Towcester Superstore","fhrs:authority":"South Northamptonshire","fhrs:id":"169275","fhrs:local_authority_id":"PI\/000014804","operator":"Tesco"}}, "geometry":{"type":"MultiPolygon","coordinates":[[[[-0.99452,52.13898],[-0.99446,52.13894],[-0.99443,52.13896],[-0.99435,52.13891],[-0.99438,52.1389],[-0.99418,52.13878],[-0.99412,52.13875],[-0.9941,52.13874],[-0.99429,52.13861],[-0.99425,52.13859],[-0.99429,52.13857],[-0.99451,52.13842],[-0.99454,52.13844],[-0.99475,52.1383],[-0.99518,52.13854],[-0.99452,52.13898]]]]}},
{ "type":"Feature","properties":{"osm_way_id":"120081207","name":"Asda","building":"yes","shop":"supermarket","other":{"brand":"Asda","fhrs:id":"446076","operator":"Asda Stores Ltd","addr:city":"Northampton","addr:street":"Thornton Road","source:addr":"FHRS Open Data","addr:country":"GB","addr:postcode":"NN2 6LS","brand:wikidata":"Q297410","fhrs:authority":"Northampton","brand:wikipedia":"en:Asda","contact:twitter":"@asda","contact:website":"https:\/\/storelocator.asda.com\/east-midlands\/northampton\/thornton-road-kingsthorpe","contact:facebook":"https:\/\/www.facebook.com\/asda\/","fhrs:local_authority_id":"PI\/000075028"}}, "geometry":{"type":"MultiPolygon","coordinates":[[[[-0.90072,52.25416],[-0.90052,52.25398],[-0.90105,52.25376],[-0.90109,52.25381],[-0.90117,52.25377],[-0.90132,52.25391],[-0.90091,52.25408],[-0.90094,52.25411],[-0.9008,52.25417],[-0.90077,52.25414],[-0.90072,52.25416]]]]}},
{ "type":"Feature","properties":{"osm_way_id":"135283777","name":"Sing Long Oriental Supermarket","building":"yes","shop":"supermarket","other":{"fhrs:id":"618998","addr:city":"Northampton","addr:street":"The Drapery","addr:country":"GB","addr:postcode":"NN1 2ET","fhrs:authority":"Northampton","addr:housenumber":"25","fhrs:local_authority_id":"PI\/000080071"}}, "geometry":{"type":"MultiPolygon","coordinates":[[[[-0.89734,52.23776],[-0.89742,52.23775],[-0.89741,52.23769],[-0.89733,52.2377],[-0.89734,52.23776]]]]}},
{ "type":"Feature","properties":{"osm_way_id":"143024067","name":"Londis","building":"yes","shop":"supermarket","other":{"addr:city":"Northampton","addr:country":"GB","addr:housenumber":"59-61","addr:postcode":"NN4 6BZ","addr:street":"High Street","brand":"Londis","brand:wikidata":"Q21008564","brand:wikipedia":"en:Londis (United Kingdom)","fhrs:authority":"Northampton","fhrs:id":"170803","fhrs:local_authority_id":"PI\/000018717"}}, "geometry":{"type":"MultiPolygon","coordinates":[[[[-0.88576,52.21351],[-0.88543,52.21349],[-0.88546,52.21336],[-0.88579,52.21338],[-0.88576,52.21351]]]]}},
{ "type":"Feature","properties":{"osm_way_id":"149677006","name":"Aldi","building":"yes","shop":"supermarket","other":{"addr:city":"Northampton","addr:country":"GB","addr:housenumber":"39","addr:postcode":"NN5 7AE","addr:street":"Harlestone Road","brand":"ALDI","brand:wikidata":"Q41171672","brand:wikipedia":"en:Aldi","fhrs:id":"170546"}}, "geometry":{"type":"MultiPolygon","coordinates":[[[[-0.91503,52.24126],[-0.91549,52.24108],[-0.91512,52.24072],[-0.91472,52.24088],[-0.91497,52.24112],[-0.91492,52.24114],[-0.91503,52.24126]]]]}},
{ "type":"Feature","properties":{"osm_way_id":"151507677","name":"Waitrose","building":"yes","shop":"supermarket","other":{"addr:city":"Daventry","addr:country":"GB","addr:housenumber":"13","addr:postcode":"NN11 4DR","addr:street":"Bowen Square","brand":"Waitrose","brand:wikidata":"Q771734","brand:wikipedia":"en:Waitrose","fhrs:authority":"Daventry","fhrs:id":"162607","fhrs:local_authority_id":"PI\/000003236","official_name":"Waitrose & Partners","operator":"Waitrose & Partners"}}, "geometry":{"type":"MultiPolygon","coordinates":[[[[-1.16082,52.25735],[-1.16079,52.25729],[-1.16065,52.25725],[-1.16058,52.25723],[-1.16067,52.25714],[-1.16063,52.25707],[-1.16094,52.25689],[-1.16125,52.25683],[-1.16133,52.25684],[-1.16152,52.25718],[-1.16146,52.25721],[-1.16141,52.25722],[-1.16142,52.25723],[-1.16099,52.25732],[-1.16082,52.25735]]]]}},
{ "type":"Feature","properties":{"osm_way_id":"151507712","name":"ALDI","building":"yes","shop":"supermarket","other":{"addr:city":"Daventry","addr:country":"GB","addr:housenumber":"36-42","addr:postcode":"NN11 4AB","addr:street":"Sheaf Street","brand":"ALDI","brand:wikidata":"Q41171672","brand:wikipedia":"en:Aldi","fhrs:authority":"Daventry","fhrs:id":"170260","fhrs:local_authority_id":"PI\/000017115"}}, "geometry":{"type":"MultiPolygon","coordinates":[[[[-1.16328,52.25637],[-1.16407,52.25605],[-1.16418,52.25614],[-1.16402,52.25621],[-1.1641,52.25628],[-1.16401,52.25632],[-1.16405,52.25635],[-1.16394,52.25639],[-1.1635,52.25657],[-1.16328,52.25637]]]]}},
{ "type":"Feature","properties":{"osm_way_id":"158748008","name":"The Co-operative Food","building":"yes","shop":"supermarket","other":{"addr:city":"Brackley","addr:country":"GB","addr:housenumber":"11","addr:postcode":"NN13 7FA","addr:street":"Burgess Square","fhrs:authority":"South Northamptonshire","fhrs:id":"721889","fhrs:local_authority_id":"PI\/000031838","operator":"The Co-operative Group"}}, "geometry":{"type":"MultiPolygon","coordinates":[[[[-1.1482,52.02717],[-1.14806,52.02712],[-1.14818,52.02702],[-1.14837,52.02711],[-1.14833,52.02715],[-1.14826,52.02712],[-1.1482,52.02717]]]]}},
{ "type":"Feature","properties":{"osm_way_id":"176887193","name":"Co-op","building":"yes","shop":"supermarket","other":{"addr:city":"Northampton","addr:country":"GB","addr:postcode":"NN6 7RE","addr:street":"Church Street","addr:village":"Long Buckby","fhrs:authority":"Daventry","fhrs:id":"176794","fhrs:local_authority_id":"PI\/000038955","operator":"The Co-operative Group"}}, "geometry":{"type":"MultiPolygon","coordinates":[[[[-1.07983,52.30348],[-1.07992,52.30329],[-1.07996,52.30319],[-1.0798,52.30317],[-1.07982,52.30311],[-1.07972,52.3031],[-1.07957,52.30344],[-1.07973,52.30347],[-1.07983,52.30348]]]]}},
{ "type":"Feature","properties":{"osm_way_id":"180216026","name":"The Co-operative Food","building":"yes","shop":"supermarket","other":{"addr:city":"Northampton","addr:country":"GB","addr:housenumber":"3","addr:postcode":"NN6 9EL","addr:street":"Hunters Way","addr:town":"Brixworth","fhrs:authority":"Daventry","fhrs:id":"161217","fhrs:local_authority_id":"PI\/000001187","operator":"The Co-operative Group"}}, "geometry":{"type":"MultiPolygon","coordinates":[[[[-0.90616,52.32859],[-0.90599,52.3286],[-0.90597,52.32844],[-0.90596,52.32835],[-0.90613,52.32834],[-0.90615,52.32855],[-0.90616,52.32859]]]]}},
{ "type":"Feature","properties":{"osm_way_id":"194972224","name":"Tesco Extra","building":"yes","shop":"supermarket","other":{"brand":"Tesco Extra","fhrs:id":"177843","addr:city":"Northampton","addr:street":"Mereway","designation":"Northampton South Extra","addr:country":"GB","addr:postcode":"NN4 0JF","brand:wikidata":"Q25172225","fhrs:authority":"Northampton","brand:wikipedia":"en:Tesco Extra","fhrs:local_authority_id":"PI\/000043910"}}, "geometry":{"type":"MultiPolygon","coordinates":[[[[-0.91234,52.2154],[-0.91206,52.21532],[-0.91208,52.21529],[-0.91193,52.21524],[-0.91195,52.21521],[-0.91169,52.21513],[-0.91165,52.21519],[-0.9114,52.21512],[-0.9115,52.215],[-0.91157,52.21502],[-0.9117,52.21485],[-0.91143,52.21478],[-0.91135,52.2149],[-0.91127,52.21488],[-0.9111,52.2151],[-0.91088,52.21504],[-0.9111,52.21478],[-0.91101,52.21475],[-0.91098,52.21478],[-0.91091,52.21476],[-0.9107,52.21482],[-0.9106,52.21496],[-0.91047,52.21492],[-0.91013,52.21535],[-0.91018,52.21536],[-0.91015,52.2154],[-0.9102,52.21542],[-0.91037,52.21555],[-0.91042,52.21557],[-0.9103,52.21573],[-0.91077,52.21587],[-0.9108,52.21583],[-0.91125,52.21595],[-0.9113,52.21589],[-0.91123,52.21586],[-0.91126,52.21582],[-0.91151,52.21589],[-0.91147,52.21595],[-0.91151,52.21596],[-0.91186,52.21598],[-0.91234,52.2154]]]]}},
{ "type":"Feature","properties":{"osm_way_id":"204031268","name":"Co-op Food","building":"yes","shop":"supermarket","other":{"addr:city":"Daventry","addr:country":"GB","addr:housename":"Co-op Building","addr:postcode":"NN11 3TW","addr:street":"Phipps Road","addr:town":"Woodford Halse","brand":"Co-op Food","brand:wikidata":"Q3277439","brand:wikipedia":"en:Co-op Food","fhrs:authority":"Daventry","fhrs:id":"940219","fhrs:local_authority_id":"PI\/000052856","not:addr:postcode":"NN11 3HS","operator":"Midcounties Co-operative"}}, "geometry":{"type":"MultiPolygon","coordinates":[[[[-1.21381,52.16933],[-1.21389,52.1692],[-1.21359,52.16913],[-1.21358,52.16915],[-1.21352,52.16914],[-1.21346,52.16925],[-1.21381,52.16933]]]]}},
{ "type":"Feature","properties":{"osm_way_id":"204031633","name":"Tesco","building":"yes","shop":"supermarket","other":{"addr:city":"Daventry","addr:country":"GB","addr:housenumber":"15","addr:postcode":"NN11 4BT","addr:street":"New Street","brand":"Tesco","brand:wikidata":"Q487494","brand:wikipedia":"en:Tesco","fhrs:authority":"Daventry","fhrs:id":"163547","fhrs:local_authority_id":"PI\/000004901"}}, "geometry":{"type":"MultiPolygon","coordinates":[[[[-1.15994,52.25743],[-1.15948,52.25693],[-1.15859,52.25717],[-1.15913,52.25784],[-1.15936,52.25779],[-1.1593,52.25771],[-1.15956,52.25763],[-1.15956,52.25759],[-1.15953,52.25754],[-1.15994,52.25743]]]]}},
{ "type":"Feature","properties":{"osm_way_id":"204031970","name":"Waitrose","building":"yes","shop":"supermarket","other":{"addr:city":"Towcester","addr:country":"GB","addr:postcode":"NN12 6HZ","addr:street":"Richmond Road","brand":"Waitrose","brand:wikidata":"Q771734","brand:wikipedia":"en:Waitrose & Partners","designation":"Towcester","fhrs:authority":"South Northamptonshire","fhrs:id":"170449","fhrs:local_authority_id":"PI\/000017630","layer":"-1","official_name":"Waitrose & Partners","operator":"Waitrose & Partners"}}, "geometry":{"type":"MultiPolygon","coordinates":[[[[-0.98915,52.13054],[-0.989,52.1304],[-0.9888,52.13047],[-0.98847,52.13016],[-0.98873,52.13006],[-0.9888,52.13012],[-0.98922,52.12996],[-0.98922,52.12995],[-0.98935,52.1299],[-0.98947,52.13002],[-0.9895,52.13001],[-0.98959,52.1301],[-0.98956,52.13011],[-0.98963,52.13017],[-0.9897,52.13014],[-0.98974,52.13018],[-0.98975,52.13017],[-0.98984,52.13026],[-0.98974,52.1303],[-0.98963,52.13034],[-0.98964,52.13034],[-0.98951,52.13039],[-0.9895,52.13039],[-0.98923,52.1305],[-0.98924,52.1305],[-0.98915,52.13054]]]]}},
{ "type":"Feature","properties":{"osm_way_id":"204032085","name":"Aldi","building":"yes","shop":"supermarket","other":{"addr:city":"Towcester","addr:country":"GB","addr:postcode":"NN12 8AX","addr:street":"Old Greens Norton Road","brand":"ALDI","brand:wikidata":"Q41171672","brand:wikipedia":"en:Aldi","designation":"Towcester","fhrs:id":"209097","operator":"Aldi"}}, "geometry":{"type":"MultiPolygon","coordinates":[[[[-0.99671,52.13792],[-0.9967,52.13787],[-0.99576,52.13797],[-0.99578,52.13803],[-0.99585,52.13802],[-0.99589,52.13818],[-0.99595,52.13818],[-0.99667,52.1381],[-0.99663,52.13793],[-0.99671,52.13792]]]]}},
{ "type":"Feature","properties":{"osm_way_id":"204032725","name":"Waitrose","building":"yes","shop":"supermarket","other":{"addr:city":"Brackley","addr:country":"GB","addr:postcode":"NN13 6BE","addr:street":"Manor Road","brand":"Waitrose","brand:wikidata":"Q771734","brand:wikipedia":"en:Waitrose","fhrs:authority":"South Northamptonshire","fhrs:id":"172336","fhrs:local_authority_id":"PI\/000022838","official_name":"Waitrose & Partners","operator":"Waitrose & Partners"}}, "geometry":{"type":"MultiPolygon","coordinates":[[[[-1.15154,52.02663],[-1.15111,52.02654],[-1.15104,52.02667],[-1.15101,52.02667],[-1.15093,52.02682],[-1.15086,52.02693],[-1.15079,52.02705],[-1.15077,52.02704],[-1.15075,52.02709],[-1.15077,52.02709],[-1.15075,52.02712],[-1.15128,52.02725],[-1.1513,52.02721],[-1.15135,52.02722],[-1.15137,52.02717],[-1.15133,52.02717],[-1.15147,52.02694],[-1.15155,52.02679],[-1.15146,52.02676],[-1.15154,52.02663]]]]}},
{ "type":"Feature","properties":{"osm_way_id":"204899063","name":"The Co-operative Food","building":"yes","shop":"supermarket","other":{"fhrs:id":"165998","operator":"The Midcounties Co-operative","addr:city":"Kings Sutton","addr:street":"Richmond Street","addr:country":"GB","addr:postcode":"OX17 3RT","opening_hours":"Mo-Sa 07:00-22:00 Su 08:00-21:00","addr:housenumber":"45","fhrs:local_authority_id":"PI\/000008830"}}, "geometry":{"type":"MultiPolygon","coordinates":[[[[-1.27034,52.02402],[-1.27031,52.02384],[-1.27016,52.02385],[-1.27018,52.02403],[-1.27022,52.02403],[-1.27023,52.02409],[-1.27033,52.02409],[-1.27032,52.02402],[-1.27034,52.02402]]]]}},
{ "type":"Feature","properties":{"osm_way_id":"237122954","name":"Budgens","building":"yes","shop":"supermarket","other":{"addr:city":"Towcester","addr:country":"GB","addr:postcode":"NN12 7LQ","addr:street":"Watling Street","addr:village":"Paulerspury","brand":"Budgens","brand:wikidata":"Q4985016","brand:wikipedia":"en:Budgens"}}, "geometry":{"type":"MultiPolygon","coordinates":[[[[-0.93965,52.10475],[-0.93969,52.1047],[-0.93974,52.10464],[-0.93978,52.10459],[-0.93995,52.10464],[-0.93982,52.1048],[-0.93965,52.10475]]]]}},
{ "type":"Feature","properties":{"osm_way_id":"323268267","name":"Aldi","building":"yes","shop":"supermarket","other":{"addr:city":"Northampton","addr:country":"GB","addr:housenumber":"2","addr:postcode":"NN1 3AU","addr:street":"Earl Street","brand":"ALDI","brand:wikidata":"Q41171672","brand:wikipedia":"en:Aldi","fhrs:id":"1091081"}}, "geometry":{"type":"MultiPolygon","coordinates":[[[[-0.89205,52.24158],[-0.89253,52.24105],[-0.89202,52.24089],[-0.8916,52.24141],[-0.89205,52.24158]]]]}},
{ "type":"Feature","properties":{"osm_way_id":"326301106","name":"M&S Simply Food","building":"yes","shop":"supermarket","other":{"addr:city":"Northampton","addr:country":"GB","addr:housename":"Sixfields Retail Park","addr:postcode":"NN5 5DG","addr:street":"Gambrel Road","addr:unit":"D","alt_name":"M&S Sixfields Simply Food","brand":"M&S Simply Food","brand:wikidata":"Q714491","brand:wikipedia":"en:Marks & Spencer","fhrs:authority":"Northampton","fhrs:id":"581709","fhrs:local_authority_id":"PI\/000078751"}}, "geometry":{"type":"MultiPolygon","coordinates":[[[[-0.93419,52.24025],[-0.93456,52.23979],[-0.93421,52.23968],[-0.93384,52.24014],[-0.93419,52.24025]]]]}},
{ "type":"Feature","properties":{"osm_way_id":"358311648","name":"Co-op Food","building":"yes","shop":"supermarket","other":{"addr:city":"Daventry","addr:country":"GB","addr:housenumber":"2","addr:postcode":"NN11 4TQ","addr:street":"Westerburg Square","brand":"Co-op Food","brand:wikidata":"Q3277439","brand:wikipedia":"en:Co-op Food","operator":"Midcounties Co-operative Society"}}, "geometry":{"type":"MultiPolygon","coordinates":[[[[-1.16404,52.24999],[-1.16421,52.25003],[-1.16415,52.25012],[-1.16399,52.25008],[-1.16404,52.24999]]]]}},
{ "type":"Feature","properties":{"osm_way_id":"463262642","name":"The Co-operative Food","building":"retail","shop":"supermarket","other":{"addr:city":"Northampton","addr:country":"GB","addr:housenumber":"2","addr:postcode":"NN6 7TS","addr:street":"High Street","addr:village":"Crick","fhrs:authority":"Daventry","fhrs:id":"174152","fhrs:local_authority_id":"PI\/000028144","operator":"Heart of England Co-operative"}}, "geometry":{"type":"MultiPolygon","coordinates":[[[[-1.13692,52.34653],[-1.13696,52.3465],[-1.13708,52.34644],[-1.13693,52.34634],[-1.13697,52.34631],[-1.13686,52.34624],[-1.13672,52.34631],[-1.13682,52.34639],[-1.13677,52.34642],[-1.13692,52.34653]]]]}},
{ "type":"Feature","properties":{"osm_way_id":"463466859","name":"Aldi","building":"yes","shop":"supermarket","other":{"addr:city":"Northampton","addr:country":"GB","addr:postcode":"NN2 6NP","addr:street":"Kensington Close","brand":"ALDI","brand:wikidata":"Q41171672","brand:wikipedia":"en:Aldi","fhrs:id":"866346","not:addr:postcode":"NN2 6NJ"}}, "geometry":{"type":"MultiPolygon","coordinates":[[[[-0.90115,52.2557],[-0.90187,52.25571],[-0.90187,52.25588],[-0.90195,52.25588],[-0.90194,52.25597],[-0.90115,52.25597],[-0.90115,52.2557]]]]}},
{ "type":"Feature","properties":{"osm_way_id":"497905404","name":"Co-op Food","building":"yes","shop":"supermarket","other":{"addr:city":"Daventry","addr:country":"GB","addr:housenumber":"53","addr:postcode":"NN11 0QF","addr:street":"Ashby Road","brand":"Co-op Food","brand:wikidata":"Q3277439","brand:wikipedia":"en:Co-op Food","fhrs:authority":"Daventry","fhrs:id":"536502","fhrs:local_authority_id":"PI\/000047481","operator":"Midcounties Co-operative"}}, "geometry":{"type":"MultiPolygon","coordinates":[[[[-1.16662,52.26683],[-1.16624,52.26689],[-1.16628,52.26698],[-1.16632,52.26705],[-1.16662,52.267],[-1.16658,52.26692],[-1.16665,52.26691],[-1.16662,52.26683]]]]}},
{ "type":"Feature","properties":{"osm_way_id":"531249968","name":"Costcutter","building":"yes","shop":"supermarket","other":{"addr:city":"Northampton","addr:country":"GB","addr:housenumber":"37","addr:postcode":"NN3 8AJ","addr:street":"Farm Field Court","brand":"Costcutter","brand:wikidata":"Q5175072","brand:wikipedia":"en:Costcutter","fhrs:authority":"Northampton","fhrs:id":"168897","fhrs:local_authority_id":"PI\/000014070"}}, "geometry":{"type":"MultiPolygon","coordinates":[[[[-0.84026,52.27161],[-0.84024,52.27156],[-0.83988,52.27163],[-0.83997,52.27181],[-0.84009,52.27179],[-0.84011,52.27179],[-0.84005,52.27165],[-0.84026,52.27161]]]]}},
{ "type":"Feature","properties":{"osm_way_id":"599015939","name":"Lidl","shop":"supermarket","other":{"brand":"Lidl","fhrs:id":"990214","addr:city":"Northampton","addr:street":"Gaslight Road","addr:country":"GB","addr:postcode":"NN1 1FF","brand:wikidata":"Q151954","fhrs:authority":"Northampton","brand:wikipedia":"en:Lidl","fhrs:local_authority_id":"PI\/000087659"}}, "geometry":{"type":"MultiPolygon","coordinates":[[[[-0.90339,52.23328],[-0.90309,52.23345],[-0.90314,52.23349],[-0.90303,52.23357],[-0.90227,52.23308],[-0.90268,52.23284],[-0.90339,52.23328]]]]}},
{ "type":"Feature","properties":{"osm_way_id":"662867377","name":"Co-op Food","building":"retail","shop":"supermarket","other":{"addr:city":"Northampton","addr:postcode":"NN1 5JS","addr:street":"Barry Road","brand":"Co-op Food","brand:wikidata":"Q3277439","brand:wikipedia":"en:Co-op Food","fhrs:authority":"Northampton","fhrs:id":"162659","fhrs:local_authority_id":"PI\/000003346","opening_hours":"Mo-Sa 06:00-23:00; Su 10:00-16:00","operator":"The Co-operative Group","payment:cash":"yes","payment:coins":"yes","payment:debit_cards":"yes","payment:maestro":"yes","payment:visa":"yes"}}, "geometry":{"type":"MultiPolygon","coordinates":[[[[-0.87416,52.24256],[-0.87391,52.24261],[-0.87373,52.24222],[-0.87398,52.24218],[-0.87416,52.24256]]]]}},
{ "type":"Feature","properties":{"osm_way_id":"785717018","building":"yes"},"geometry":{"type":"MultiPolygon","coordinates":[[[[-0.77696,52.21315],[-0.77699,52.21306],[-0.77687,52.21305],[-0.77684,52.21313],[-0.77696,52.21315]]]]}},
{ "type":"Feature","properties":{"osm_way_id":"832185562","name":"Co-op Food","building":"retail","shop":"supermarket","other":{"addr:city":"Northampton","addr:country":"GB","addr:housenumber":"55","addr:postcode":"NN5 4GG","addr:street":"Latchet Lane","addr:suburb":"Upton","brand":"Co-op Food","brand:wikidata":"Q3277439","brand:wikipedia":"en:Co-op Food","fhrs:authority":"Northampton","fhrs:id":"1091083","fhrs:local_authority_id":"PI\/000090355","operator":"The Co-operative Group"}}, "geometry":{"type":"MultiPolygon","coordinates":[[[[-0.94589,52.23607],[-0.94555,52.23614],[-0.94543,52.23593],[-0.94578,52.23585],[-0.94589,52.23607]]]]}},
{ "type":"Feature","properties":{"osm_way_id":"886557364","name":"Sainsbury's","building":"yes","shop":"supermarket","other":{"addr:city":"Brackley","addr:country":"GB","addr:county":"Northamptonshire","addr:postcode":"NN13 6RE","addr:street":"Wellington Road","brand":"Sainsbury's","brand:wikidata":"Q152096","brand:wikipedia":"en:Sainsbury's","fhrs:id":"1315216","opening_hours":"Mo-Sa 07:00-22:00; Su 10:00-16:00","phone":"+44 1280 700618","website":"https:\/\/stores.sainsburys.co.uk\/2341\/brackley"}}, "geometry":{"type":"MultiPolygon","coordinates":[[[[-1.13839,52.04072],[-1.13906,52.03999],[-1.13795,52.03961],[-1.13728,52.04034],[-1.13839,52.04072]]]]}}
]
}
