{
"type": "FeatureCollection",
"features": [
{ "type":"Feature","properties":{"osm_id":"735468636","name":"Red Chilli Supermarket","other":{"shop":"supermarket","level":"0","addr:city":"York","addr:street":"George Hudson Street","supermarket":"chinese","addr:postcode":"YO1 6JL"}}, "geometry":{"type":"Point","coordinates":[-1.08693,53.95773 ]}},
{ "type":"Feature","properties":{"osm_id":"849975261","name":"The Co-operative Food","other":{"shop":"supermarket","operator":"The Co-operative Group","addr:city":"Haxby","addr:street":"The Village","addr:postcode":"YO32 3SA"}}, "geometry":{"type":"Point","coordinates":[-1.07376,54.01602 ]}},
{ "type":"Feature","properties":{"osm_id":"1000679294"},"geometry":{"type":"Point","coordinates":[-1.11536,53.93104 ]}},
{ "type":"Feature","properties":{"osm_id":"1280156121","name":"Sainsbury's","other":{"addr:city":"York","addr:housename":"Clark House","addr:housenumber":"35-39","addr:postcode":"YO32 2HU","addr:street":"The Village","addr:village":"Haxby","brand":"Sainsbury's","brand:wikidata":"Q152096","fhrs:id":"245142","shop":"supermarket","source:addr":"FHRS Open Data"}}, "geometry":{"type":"Point","coordinates":[-1.07632,54.01643 ]}},
{ "type":"Feature","properties":{"osm_id":"1430295836","name":"The Co-operative Food","other":{"addr:city":"York","addr:housenumber":"143-145","addr:postcode":"YO10 3SD","addr:street":"Tang Hall Lane","addr:suburb":"Tang Hall","brand":"The Co-operative Food","brand:wikidata":"Q3277439","brand:wikipedia":"en:Co-op Food","old_name":"Co-op","opening_hours":"Mo-Su 07:00-23:00","operator":"The Co-operative Group","shop":"supermarket"}}, "geometry":{"type":"Point","coordinates":[-1.04969,53.95901 ]}},
{ "type":"Feature","properties":{"osm_id":"1430613411","name":"The Co-operative Food","other":{"addr:city":"York","addr:housenumber":"47","addr:postcode":"YO23 2RA","addr:street":"Main Street","addr:suburb":"Bishopthorpe","fhrs:id":"246391","opening_hours":"Mo-Su 07:00-22:00","operator":"The Co-operative Group","shop":"supermarket","source:addr":"FHRS Open Data","wheelchair":"yes"}}, "geometry":{"type":"Point","coordinates":[-1.09667,53.92167 ]}},
{ "type":"Feature","properties":{"osm_id":"1503604789","name":"Tesco Express","other":{"addr:postcode":"YO24 3XN","addr:street":"Acomb Wood Drive","brand":"Tesco Express","brand:wikidata":"Q98456772","contact:website":"https:\/\/www.tesco.com\/store-locator\/york\/acomb-wood-dr","shop":"supermarket"}}, "geometry":{"type":"Point","coordinates":[-1.13383,53.93799 ]}},
{ "type":"Feature","properties":{"osm_id":"1880001729","name":"McColls","other":{"shop":"supermarket","addr:street":"Moorcroft Road","addr:postcode":"YO24 2RQ"}}, "geometry":{"type":"Point","coordinates":[-1.12379,53.93635 ]}},
{ "type":"Feature","properties":{"osm_id":"2108089076","name":"Co-op Food","other":{"addr:city":"York","addr:housenumber":"6","addr:postcode":"YO24 3JQ","addr:street":"Beagle Ridge Drive","brand":"Co-op Food","brand:wikidata":"Q3277439","brand:wikipedia":"en:Co-op Food","operator":"The Co-operative Group","shop":"supermarket"}}, "geometry":{"type":"Point","coordinates":[-1.13272,53.94335 ]}},
{ "type":"Feature","properties":{"osm_id":"2917294590","name":"M&S Foodhall","other":{"addr:city":"York","addr:postcode":"YO32 9AE","brand":"M&S Foodhall","brand:wikidata":"Q714491","brand:wikipedia":"en:Marks & Spencer","shop":"supermarket","website":"https:\/\/www.marksandspencer.com\/stores\/york-vangarde-retail-park-1292"}}, "geometry":{"type":"Point","coordinates":[-1.04984,53.98359 ]}},
{ "type":"Feature","properties":{"osm_id":"3203730605","name":"Heron Foods","other":{"atm":"yes","shop":"supermarket","brand":"Heron Foods","fhrs:id":"956955","old_name":"Corner House Pub","addr:city":"York","addr:street":"Burton Stone Lane","addr:country":"GB","addr:postcode":"YO30 6DG","opening_hours":"Mo-Sa 08:00-20:00; Su 09:00-17:00","brand:wikidata":"Q5743472","brand:wikipedia":"en:Heron Foods","contact:website":"https:\/\/heronfoods.com\/storelocator\/store-details\/burton-stone-lane","addr:housenumber":"165-167"}}, "geometry":{"type":"Point","coordinates":[-1.08833,53.9718 ]}},
{ "type":"Feature","properties":{"osm_id":"3235310402","name":"The Food Warehouse","other":{"addr:city":"York","addr:postcode":"YO30 4XU","addr:street":"Hurricane Way","brand":"The Food Warehouse","brand:wikidata":"Q87263899","old_name":"JJB Sports","operator":"Iceland","shop":"supermarket"}}, "geometry":{"type":"Point","coordinates":[-1.11039,53.99039 ]}},
{ "type":"Feature","properties":{"osm_id":"4351050835","name":"Co-op Food","other":{"addr:city":"York","addr:postcode":"YO10 4NT","addr:street":"Paragon Street","brand":"Co-op Food","brand:wikidata":"Q3277439","brand:wikipedia":"en:Co-op Food","fhrs:id":"936206","opening_hours":"Mo-Su 06:00-23:00","operator":"The Co-operative Group","shop":"supermarket"}}, "geometry":{"type":"Point","coordinates":[-1.07353,53.95376 ]}},
{ "type":"Feature","properties":{"osm_id":"5494285019","name":"Co-op Food","other":{"addr:city":"York","addr:postcode":"YO31 7ES","addr:street":"Clarence Street","brand":"Co-op Food","brand:wikidata":"Q3277439","brand:wikipedia":"en:Co-op Food","operator":"The Co-operative Group","shop":"supermarket","wheelchair":"yes"}}, "geometry":{"type":"Point","coordinates":[-1.08166,53.9681 ]}},
{ "type":"Feature","properties":{"osm_id":"6831792192","other":{"exit":"yes"}}, "geometry":{"type":"Point","coordinates":[-1.12597,53.95446 ]}},
{ "type":"Feature","properties":{"osm_id":"7392283139","other":{"indoor":"no","emergency":"defibrillator","defibrillator:location":"outside Strensall Services shop, Strensall Road, YO32 5TB"}}, "geometry":{"type":"Point","coordinates":[-1.04079,54.02759 ]}},
{ "type":"Feature","properties":{"osm_id":"7712117496","name":"Zam Zam","other":{"addr:city":"York","opening_hours":"-20:00","shop":"supermarket"}}, "geometry":{"type":"Point","coordinates":[-1.07341,53.96252 ]}},
{ "type":"Feature","properties":{"osm_id":"8221621053","name":"M&S Foodhall","other":{"brand":"M&S Foodhall","brand:wikidata":"Q714491","brand:wikipedia":"en:Marks & Spencer","shop":"supermarket","website":"https:\/\/www.marksandspencer.com\/stores\/york-0246"}}, "geometry":{"type":"Point","coordinates":[-1.07993,53.95876 ]}},
{ "type":"Feature","properties":{"osm_id":"8844715838","name":"The Range","other":{"shop":"supermarket"}}, "geometry":{"type":"Point","coordinates":[-1.05496,53.98832 ]}},
{ "type":"Feature","properties":{"osm_id":"9130731610","name":"Co-Op","other":{"shop":"supermarket"}}, "geometry":{"type":"Point","coordinates":[-1.07894,53.95918 ]}},
{ "type":"Feature","properties":{"osm_way_id":"23813780","name":"Morrisons","building":"supermarket","shop":"supermarket","other":{"addr:city":"York","addr:housename":"Foss Islands Retail Park","addr:postcode":"YO31 7UL","addr:street":"Foss Islands Road","alt_name":"Morrisons York","brand":"Morrisons","brand:wikidata":"Q922344","brand:wikipedia":"en:Morrisons","designation":"York","height":"6","opening_hours":"Mo-Sa 07:00-22:00; Su 10:00-16:00","website":"https:\/\/my.morrisons.com\/storefinder\/155","wheelchair":"yes"}}, "geometry":{"type":"MultiPolygon","coordinates":[[[[-1.07045,53.96116],[-1.07034,53.96105],[-1.07026,53.96105],[-1.07025,53.96099],[-1.07019,53.96099],[-1.07019,53.96095],[-1.07024,53.96094],[-1.07016,53.96048],[-1.07007,53.96049],[-1.07005,53.96034],[-1.0703,53.96032],[-1.0703,53.96036],[-1.07134,53.9603],[-1.07136,53.96041],[-1.07133,53.96042],[-1.07144,53.9611],[-1.07045,53.96116]]]]}},
{ "type":"Feature","properties":{"osm_way_id":"23825461","name":"Tesco York Extra","building":"supermarket","shop":"supermarket","other":{"addr:city":"York","addr:postcode":"YO30 4XZ","addr:street":"Stirling Road","brand":"Tesco Extra","brand:wikidata":"Q25172225","brand:wikipedia":"en:Tesco Extra","cafe":"yes","internet_access":"wlan","opening_hours":"Mo-Sa 00:00-24:00; Su 10:00-16:00","opening_hours:url":"http:\/\/www.tesco.com\/store-locator\/uk\/?bID=3480","operator":"Tesco","optician":"yes","phone":"+44 345 677 9753","toilets":"yes","website":"https:\/\/www.tesco.com\/store-locator\/york\/stirling-road"}}, "geometry":{"type":"MultiPolygon","coordinates":[[[[-1.10492,53.9907],[-1.10521,53.99111],[-1.10524,53.99111],[-1.1053,53.9912],[-1.10473,53.99134],[-1.10475,53.99138],[-1.10456,53.99143],[-1.10454,53.99139],[-1.10411,53.9915],[-1.10414,53.99154],[-1.10388,53.99161],[-1.10389,53.99162],[-1.10378,53.99165],[-1.10343,53.99174],[-1.10334,53.99162],[-1.10319,53.99142],[-1.10297,53.99113],[-1.10359,53.99097],[-1.10356,53.99092],[-1.10454,53.99068],[-1.10435,53.99042],[-1.1048,53.99031],[-1.10506,53.99067],[-1.10492,53.9907]]]]}},
{ "type":"Feature","properties":{"osm_way_id":"24286119","name":"The Co-operative Food","building":"supermarket","shop":"supermarket","other":{"addr:city":"York","addr:housenumber":"103-104","addr:postcode":"YO10 3LQ","addr:street":"Hull Road","brand":"The Co-operative Food","brand:wikidata":"Q3277439","brand:wikipedia":"en:Co-op Food","fhrs:id":"246137","operator":"The Co-operative Group","wheelchair":"yes"}}, "geometry":{"type":"MultiPolygon","coordinates":[[[[-1.0536,53.95338],[-1.0535,53.9534],[-1.05351,53.95343],[-1.05325,53.95347],[-1.05323,53.95344],[-1.05295,53.95349],[-1.05281,53.9532],[-1.05348,53.9531],[-1.0536,53.95338]]]]}},
{ "type":"Feature","properties":{"osm_way_id":"28750799","name":"Sainsbury's","building":"supermarket","shop":"supermarket","other":{"brand":"Sainsbury's","height":"6","fhrs:id":"245103","alt_name":"Sainsbury's York Superstore","addr:city":"York","wheelchair":"yes","addr:street":"Foss Bank","designation":"York Superstore","source:addr":"FHRS Open Data","addr:postcode":"YO31 7JB","opening_hours":"Mo-Sa 08:00-21:00; Su 11:00-17:00","brand:wikidata":"Q152096","brand:wikipedia":"en:Sainsbury's"}}, "geometry":{"type":"MultiPolygon","coordinates":[[[[-1.07406,53.96372],[-1.07427,53.96357],[-1.07447,53.96366],[-1.07461,53.96355],[-1.07475,53.96362],[-1.07529,53.96323],[-1.07493,53.96306],[-1.07501,53.963],[-1.0747,53.96285],[-1.07372,53.96355],[-1.07406,53.96372]]]]}},
{ "type":"Feature","properties":{"osm_way_id":"59267506","name":"Asda","building":"supermarket","shop":"supermarket","other":{"brand":"Asda","alt_name":"ASDA York Layerthorpe Supermarket","old_name":"Netto","operator":"Asda Stores Ltd","addr:city":"York","wheelchair":"yes","addr:street":"Layerthorpe","designation":"York Layerthorpe Supermarket","addr:country":"GB","addr:postcode":"YO31 7UZ","opening_hours":"Mo-Sa 07:00-23:00; Su 10:00-16:00","brand:wikidata":"Q297410","brand:wikipedia":"en:Asda","contact:website":"https:\/\/storelocator.asda.com\/yorkshire-&-humber\/york\/77-layerthorpe","addr:housenumber":"77"}}, "geometry":{"type":"MultiPolygon","coordinates":[[[[-1.07261,53.96298],[-1.07284,53.96282],[-1.07229,53.96255],[-1.07219,53.96281],[-1.07221,53.96279],[-1.07261,53.96298]]]]}},
{ "type":"Feature","properties":{"osm_way_id":"59294522","name":"Waitrose","building":"supermarket","shop":"supermarket","other":{"addr:city":"York","addr:postcode":"YO31 7UL","addr:street":"Foss Islands Road","alt_name":"Waitrose York","brand":"Waitrose","brand:wikidata":"Q771734","brand:wikipedia":"en:Waitrose & Partners","building:colour":"#F7E6C3","designation":"York","fhrs:id":"246118","official_name":"Waitrose & Partners","old_name":"MFI","opening_hours":"Mo-Fr 08:00-21:00; Sa 08:00-20:00; Su 11:00-17:00","operator":"Waitrose & Partners","source:addr":"FHRS Open Data","wheelchair":"yes"}}, "geometry":{"type":"MultiPolygon","coordinates":[[[[-1.07025,53.95638],[-1.06993,53.95637],[-1.06961,53.95636],[-1.06955,53.95711],[-1.06986,53.95712],[-1.06995,53.95712],[-1.06995,53.95717],[-1.07025,53.95718],[-1.07026,53.95705],[-1.07019,53.95705],[-1.07025,53.95638]]]]}},
{ "type":"Feature","properties":{"osm_way_id":"86204976","name":"Tesco Extra","building":"supermarket","shop":"supermarket","other":{"addr:city":"York","addr:postcode":"YO24 1LW","addr:street":"Tadcaster Road Dringhouses","brand":"Tesco Extra","brand:wikidata":"Q25172225","brand:wikipedia":"en:Tesco Extra","cafe":"yes","internet_access":"wlan","opening_hours":"Mo-Sa 00:00-24:00; Su 10:00-16:00","opening_hours:pharmacy":"Mo 08:00-22:30; Tu-Fr 06:30-22:30; Sa 06:30-22:00; Su 10:00-16:00","pharmacy":"yes","phone:pharmacy":"+44 1904 394123","toilets":"yes","wheelchair":"yes"}}, "geometry":{"type":"MultiPolygon","coordinates":[[[[-1.11557,53.93186],[-1.11553,53.93186],[-1.11537,53.93188],[-1.11536,53.93176],[-1.11529,53.93167],[-1.11533,53.93121],[-1.11527,53.93114],[-1.11536,53.93104],[-1.11535,53.93059],[-1.11557,53.93059],[-1.11556,53.93023],[-1.11587,53.93022],[-1.11588,53.93044],[-1.11618,53.93044],[-1.11618,53.9305],[-1.1164,53.9305],[-1.1164,53.93056],[-1.11644,53.93056],[-1.11648,53.93142],[-1.11649,53.93168],[-1.11637,53.93168],[-1.11637,53.93173],[-1.11605,53.93174],[-1.1157,53.93192],[-1.11557,53.93186]]]]}},
{ "type":"Feature","properties":{"osm_way_id":"123157145","name":"ALDI","building":"supermarket","shop":"supermarket","other":{"addr:city":"York","addr:postcode":"YO10 4PA","addr:street":"Fulford Road","alt_name":"ALDI York","brand":"ALDI","brand:wikidata":"Q41171672","brand:wikipedia":"en:Aldi","fhrs:id":"245442","opening_hours":"Mo-Sa 08:00-22:00; Su 10:00-16:00","source:addr":"FHRS Open Data"}}, "geometry":{"type":"MultiPolygon","coordinates":[[[[-1.07538,53.94349],[-1.0755,53.94349],[-1.07553,53.94351],[-1.07555,53.94395],[-1.07534,53.94396],[-1.07534,53.94391],[-1.07514,53.94392],[-1.07514,53.94384],[-1.07513,53.94363],[-1.07508,53.94363],[-1.07507,53.9435],[-1.07512,53.9435],[-1.07512,53.94344],[-1.07538,53.94343],[-1.07538,53.94349]]]]}},
{ "type":"Feature","properties":{"osm_way_id":"123157149","name":"Iceland","building":"supermarket","shop":"supermarket","other":{"addr:city":"York","addr:housenumber":"248","addr:postcode":"YO10 4PA","addr:street":"Fulford Road","alt_name":"Iceland York, Fulford Road","brand":"Iceland","brand:wikidata":"Q721810","fhrs:id":"246141","operator":"Iceland","source:addr":"FHRS Open Data","wheelchair":"yes"}}, "geometry":{"type":"MultiPolygon","coordinates":[[[[-1.07468,53.94397],[-1.07484,53.94396],[-1.07483,53.94385],[-1.07419,53.94386],[-1.0742,53.94403],[-1.07469,53.94402],[-1.07468,53.94397]]]]}},
{ "type":"Feature","properties":{"osm_way_id":"129480914","name":"Lidl","building":"supermarket","shop":"supermarket","other":{"addr:city":"York","addr:country":"GB","addr:postcode":"YO24 2PE","addr:street":"Thanet Road","brand":"Lidl","brand:wikidata":"Q151954","brand:wikipedia":"en:Lidl","fhrs:id":"245088","opening_hours":"Mo-Sa 08:00-22:00; Su 10:00-16:00; PH off"}}, "geometry":{"type":"MultiPolygon","coordinates":[[[[-1.12093,53.94392],[-1.12142,53.94422],[-1.1211,53.9444],[-1.12103,53.94436],[-1.1209,53.94443],[-1.12048,53.94416],[-1.12054,53.94413],[-1.12093,53.94392]]]]}},
{ "type":"Feature","properties":{"osm_way_id":"137063136","name":"The Co-operative Food","building":"supermarket","shop":"supermarket","other":{"addr:city":"York","addr:postcode":"YO26 5PW","addr:street":"Beckfield Lane","brand":"The Co-operative Food","brand:wikidata":"Q3277439","brand:wikipedia":"en:Co-op Food","operator":"The Co-operative Group"}}, "geometry":{"type":"MultiPolygon","coordinates":[[[[-1.1345,53.96281],[-1.13451,53.96266],[-1.13416,53.96264],[-1.13414,53.96278],[-1.1345,53.96281]]]]}},
{ "type":"Feature","properties":{"osm_way_id":"142594639","name":"Strensall Services","amenity":"post_office","building":"retail","shop":"supermarket","other":{"addr:city":"York","addr:country":"GB","addr:housenumber":"605","addr:postcode":"YO32 5TB","addr:street":"Strensall Road","addr:village":"Strensall","brand":"Londis","building:levels":"1","opening_hours":"Mo-Su 07:00-21:00","ref:pol_id":"134088"}}, "geometry":{"type":"MultiPolygon","coordinates":[[[[-1.04078,54.02761],[-1.04117,54.02767],[-1.04121,54.02759],[-1.0409,54.02754],[-1.04088,54.02757],[-1.0408,54.02756],[-1.04079,54.02759],[-1.04078,54.02761]]]]}},
{ "type":"Feature","properties":{"osm_way_id":"148258567","name":"Sainsbury's","building":"supermarket","shop":"supermarket","other":{"addr:city":"York","addr:postcode":"YO32 9LG","addr:street":"Jockey Lane","alt_name":"Sainsbury's Monks Cross Superstore","brand":"Sainsbury's","brand:wikidata":"Q152096","brand:wikipedia":"en:Sainsbury's","cafe":"yes","opening_hours":"Mo-Sa 07:00-22:00; Su 10:00-16:00","operator":"Sainsburys","pharmacy":"yes","toilets":"yes","website":"https:\/\/stores.sainsburys.co.uk\/0713\/monks-cross","wheelchair":"yes"}}, "geometry":{"type":"MultiPolygon","coordinates":[[[[-1.05028,53.98745],[-1.05044,53.98665],[-1.05021,53.98663],[-1.05025,53.98644],[-1.04931,53.98638],[-1.0493,53.98636],[-1.04906,53.98634],[-1.04904,53.98651],[-1.049,53.9865],[-1.04888,53.98718],[-1.04896,53.98718],[-1.04893,53.98735],[-1.05028,53.98745]]]]}},
{ "type":"Feature","properties":{"osm_way_id":"148259389","name":"Aldi","building":"supermarket","shop":"supermarket","other":{"addr:city":"York","addr:place":"Monks Cross","addr:postcode":"YO32 9JS","addr:street":"Kathryn Avenue","alt_name":"ALDI Huntington, York","brand":"ALDI","brand:wikidata":"Q41171672","brand:wikipedia":"en:Aldi","operator":"Aldi"}}, "geometry":{"type":"MultiPolygon","coordinates":[[[[-1.0485,53.98533],[-1.04853,53.98487],[-1.04797,53.98486],[-1.04795,53.98513],[-1.04802,53.98513],[-1.04801,53.98532],[-1.0485,53.98533]]]]}},
{ "type":"Feature","properties":{"osm_way_id":"175940151","name":"The Co-operative Food","building":"yes","shop":"supermarket","other":{"addr:city":"York","addr:postcode":"YO26 6DF","addr:street":"The Green","addr:village":"Upper Poppleton","brand":"The Co-operative Food","brand:wikidata":"Q3277439","brand:wikipedia":"en:Co-op Food","opening_hours":"Mo-Fr 07:00-22:00; Sa 06:30-22:00; Su 07:00-22:00","operator":"The Co-operative Group"}}, "geometry":{"type":"MultiPolygon","coordinates":[[[[-1.15267,53.98012],[-1.15276,53.98023],[-1.15255,53.98028],[-1.15247,53.98017],[-1.15267,53.98012]]]]}},
{ "type":"Feature","properties":{"osm_way_id":"179893376","name":"Morrisons","building":"supermarket","shop":"supermarket","other":{"ref":"230","brand":"Morrisons","operator":"Morrisons","addr:city":"York","wheelchair":"yes","addr:street":"Front Street","addr:suburb":"Acomb","addr:country":"GB","addr:postcode":"YO24 3BZ","contact:phone":"+44 1904 781 623","opening_hours":"Mo-Sa 07:00-22:00; Su 10:00-16:00","brand:wikidata":"Q922344","brand:wikipedia":"en:Morrisons","contact:twitter":"@Morrisons","contact:website":"https:\/\/my.morrisons.com\/storefinder\/230","addr:housenumber":"4","contact:facebook":"http:\/\/www.facebook.com\/morrisons"}}, "geometry":{"type":"MultiPolygon","coordinates":[[[[-1.126,53.95487],[-1.1257,53.95497],[-1.12563,53.9549],[-1.12555,53.95483],[-1.12542,53.95487],[-1.12525,53.95471],[-1.12528,53.95462],[-1.12516,53.9545],[-1.12579,53.95428],[-1.12597,53.95446],[-1.12616,53.95464],[-1.12615,53.9547],[-1.12595,53.95477],[-1.12594,53.95481],[-1.126,53.95487]]]]}},
{ "type":"Feature","properties":{"osm_way_id":"182860979","name":"The Food Warehouse","building":"retail","shop":"supermarket","other":{"addr:city":"York","addr:place":"Foss Islands Retail Park","addr:postcode":"YO31 7UL","addr:street":"Foss Islands Road","brand":"The Food Warehouse","brand:wikidata":"Q87263899","building:colour":"#aab7bb","height":"8","old_name":"HomeSense","roof:colour":"#ddd","roof:material":"metal","roof:shape":"flat"}}, "geometry":{"type":"MultiPolygon","coordinates":[[[[-1.06932,53.95929],[-1.0693,53.95951],[-1.07018,53.95954],[-1.0702,53.95932],[-1.06942,53.95929],[-1.06932,53.95929]]]]}},
{ "type":"Feature","properties":{"osm_way_id":"193676906","name":"Co-op","building":"yes","shop":"supermarket","other":{"addr:city":"York","addr:housenumber":"46-48","addr:postcode":"YO10 4JX","addr:street":"Broadway","brand":"The Co-operative Food","brand:wikidata":"Q3277439","brand:wikipedia":"en:Co-op Food","operator":"The Co-operative Group"}}, "geometry":{"type":"MultiPolygon","coordinates":[[[[-1.07002,53.94102],[-1.07004,53.94087],[-1.06994,53.94087],[-1.06994,53.94088],[-1.06988,53.94087],[-1.06988,53.94087],[-1.06984,53.94086],[-1.06983,53.94101],[-1.07002,53.94102]]]]}},
{ "type":"Feature","properties":{"osm_way_id":"319274634","name":"Co-op Food","building":"retail","shop":"supermarket","other":{"addr:city":"Copmanthorpe","addr:housename":"Co-op","addr:postcode":"YO23 3SE","addr:street":"Church Street","brand":"Co-op Food","brand:wikidata":"Q3277439","brand:wikipedia":"en:Co-op Food","building:part":"yes","operator":"The Co-operative Group","wheelchair":"yes"}}, "geometry":{"type":"MultiPolygon","coordinates":[[[[-1.14095,53.91503],[-1.14093,53.91508],[-1.14092,53.91514],[-1.14074,53.91512],[-1.14074,53.91513],[-1.14067,53.91512],[-1.14068,53.91511],[-1.14069,53.91508],[-1.14069,53.91506],[-1.14071,53.915],[-1.14072,53.91499],[-1.1408,53.915],[-1.14079,53.91501],[-1.14082,53.91502],[-1.14095,53.91503]]]]}},
{ "type":"Feature","properties":{"osm_way_id":"333499163","name":"The Co-operative Food","building":"semidetached_house","shop":"supermarket","other":{"addr:city":"York","addr:housenumber":"75","addr:postcode":"YO31 7YB","addr:street":"East Parade","brand":"The Co-operative Food","brand:wikidata":"Q3277439","brand:wikipedia":"en:Co-op Food","building:levels":"2","fhrs:authority":"York","fhrs:id":"245734","operator":"The Co-operative Group"}}, "geometry":{"type":"MultiPolygon","coordinates":[[[[-1.06403,53.96559],[-1.06389,53.96561],[-1.064,53.96583],[-1.06405,53.96582],[-1.06411,53.96592],[-1.06421,53.9659],[-1.0641,53.9657],[-1.06403,53.96559]]]]}},
{ "type":"Feature","properties":{"osm_way_id":"522143486","name":"Aldi","building":"retail","shop":"supermarket","other":{"addr:city":"York","addr:postcode":"YO30 6PQ","addr:street":"Water Lane","brand":"ALDI","brand:wikidata":"Q41171672","brand:wikipedia":"en:Aldi"}}, "geometry":{"type":"MultiPolygon","coordinates":[[[[-1.09545,53.98409],[-1.09578,53.98403],[-1.09579,53.98405],[-1.0959,53.98403],[-1.09564,53.98349],[-1.09547,53.98352],[-1.09549,53.98356],[-1.09521,53.9836],[-1.09545,53.98409]]]]}},
{ "type":"Feature","properties":{"osm_way_id":"576451921","name":"Spar","building":"retail","shop":"supermarket","other":{"addr:city":"York","addr:postcode":"YO31 9FD","addr:street":"Turner Close","brand":"Spar","brand:wikidata":"Q610492","brand:wikipedia":"en:Spar (retailer)","building:levels":"1"}}, "geometry":{"type":"MultiPolygon","coordinates":[[[[-1.07246,53.9763],[-1.07262,53.97614],[-1.07241,53.97606],[-1.07225,53.97622],[-1.07246,53.9763]]]]}},
{ "type":"Feature","properties":{"osm_way_id":"742503384","name":"Lidl","building":"supermarket","shop":"supermarket","other":{"addr:city":"York","addr:country":"GB","addr:postcode":"YO10 3DW","addr:street":"James Street","brand":"Lidl","brand:wikidata":"Q151954","brand:wikipedia":"en:Lidl","fhrs:id":"1297689","start_date":"2019-11-21"}}, "geometry":{"type":"MultiPolygon","coordinates":[[[[-1.06925,53.95807],[-1.06872,53.95808],[-1.06873,53.95826],[-1.06866,53.95826],[-1.06866,53.95851],[-1.06865,53.95858],[-1.06865,53.95869],[-1.06905,53.95868],[-1.06917,53.95868],[-1.06916,53.95862],[-1.06917,53.95816],[-1.06926,53.95816],[-1.06925,53.95807]]]]}},
{ "type":"Feature","properties":{"osm_way_id":"952384078","name":"Asda","building":"supermarket","shop":"supermarket","other":{"addr:city":"York","addr:country":"GB","addr:housename":"Monks Cross Shopping Park","addr:postcode":"YO32 9LF","addr:street":"Jockey Lane","alt_name":"ASDA York Superstore","brand":"Asda","brand:wikidata":"Q297410","brand:wikipedia":"en:Asda","cafe":"yes","contact:phone":"+44 1904 628107","contact:website":"https:\/\/storelocator.asda.com\/yorkshire-&-humber\/york\/jockey-lane-monks-cross","fhrs:id":"246426","opening_hours":"Mo 07:00-24:00; Tu-Fr 00:00-24:00; Sa 00:00-22:00; Su 10:00-16:00","opening_hours:pharmacy":"Mo-Sa 09:00-21:00; Su 10:00-16:00","opening_hours:url":"http:\/\/storelocator.asda.com\/store\/york","operator":"Asda Stores Ltd","pharmacy":"yes","toilets":"yes"}}, "geometry":{"type":"MultiPolygon","coordinates":[[[[-1.04328,53.98579],[-1.04312,53.98577],[-1.04298,53.98616],[-1.04282,53.98614],[-1.0427,53.98652],[-1.0429,53.98654],[-1.04287,53.98665],[-1.04277,53.98663],[-1.04274,53.98669],[-1.04271,53.98669],[-1.04269,53.98675],[-1.04282,53.98676],[-1.04278,53.9869],[-1.04299,53.98693],[-1.04299,53.98695],[-1.04387,53.98705],[-1.04393,53.98687],[-1.0441,53.98689],[-1.04422,53.98654],[-1.04423,53.98649],[-1.0443,53.98627],[-1.04432,53.98622],[-1.04435,53.98614],[-1.04419,53.98612],[-1.04422,53.98601],[-1.04352,53.98593],[-1.04328,53.98591],[-1.04327,53.98593],[-1.04324,53.98593],[-1.04328,53.98579]]]]}}
]
}
