{
"type": "FeatureCollection",
"features": [
{ "type":"Feature","properties":{"osm_id":"16015588","name":"Sainsbury's","other":{"addr:city":"Reading","addr:housenumber":"52-55","addr:postcode":"RG1 1DX","addr:street":"Friar Street","brand":"Sainsbury's","brand:wikidata":"Q152096","brand:wikipedia":"en:Sainsbury's","fhrs:id":"280629","opening_hours":"Mo-Sa 07:00-21:00; Su 11:00-17:00","operator:wikidata":"Q152096","phone":"+44118 959 0958","shop":"supermarket","source:addr":"FHRS Open Data"}}, "geometry":{"type":"Point","coordinates":[-0.97501,51.45677 ]}},
{ "type":"Feature","properties":{"osm_id":"320701928","name":"Waitrose","other":{"brand":"Waitrose & Partners","brand:wikidata":"Q771734","brand:wikipedia":"en:Waitrose & Partners","internet_access":"wlan","operator":"Waitrose & Partners","shop":"supermarket","wheelchair":"yes"}}, "geometry":{"type":"Point","coordinates":[-0.97369,51.46719 ]}},
{ "type":"Feature","properties":{"osm_id":"885656103","name":"Sainsbury's","other":{"shop":"supermarket","brand":"Sainsbury's","operator":"Sainsbury's","addr:city":"Reading","addr:street":"Broad Street","opening_hours":"Mo-Sa 07:00-22:00; Su 12:00-18:00","brand:wikidata":"Q152096","brand:wikipedia":"en:Sainsbury's","operator:wikidata":"Q13218434"}}, "geometry":{"type":"Point","coordinates":[-0.97038,51.45561 ]}},
{ "type":"Feature","properties":{"osm_id":"1311171775","name":"Co-op Food","other":{"brand":"Co-op Food","brand:wikidata":"Q3277439","brand:wikipedia":"en:Co-op Food","opening_hours":"Mo-Su 07:00-11:00","shop":"supermarket"}}, "geometry":{"type":"Point","coordinates":[-0.95955,51.41917 ]}},
{ "type":"Feature","properties":{"osm_id":"1743259594","name":"Iceland","other":{"brand":"Iceland","brand:wikidata":"Q721810","shop":"supermarket","wheelchair":"yes"}}, "geometry":{"type":"Point","coordinates":[-0.97474,51.46709 ]}},
{ "type":"Feature","properties":{"osm_id":"3329282535","name":"Budgens Emmer Green","other":{"addr:city":"Reading","addr:housenumber":"1-2","addr:postcode":"RG4 8XU","addr:street":"Cavendish Road","brand":"Budgens","brand:wikidata":"Q4985016","brand:wikipedia":"en:Budgens","opening_hours":"Mo-Sa 07:00-21:00, Su 10:00-16:00","phone":"+44 1189 478201","shop":"supermarket","toilets:wheelchair":"no","wheelchair":"yes","wheelchair:description":"Ramp to entrance, automatic sliding doors."}}, "geometry":{"type":"Point","coordinates":[-0.96288,51.48314 ]}},
{ "type":"Feature","properties":{"osm_id":"3339501748","name":"Reading Zabka","other":{"shop":"supermarket","wheelchair":"yes","opening_hours:signed":"no"}}, "geometry":{"type":"Point","coordinates":[-1.00112,51.45783 ]}},
{ "type":"Feature","properties":{"osm_id":"4753525324","name":"Co-op Food","other":{"addr:city":"Reading","addr:housenumber":"29-35","addr:postcode":"RG31 5AR","addr:street":"School Road","brand":"Co-op Food","brand:wikidata":"Q3277439","brand:wikipedia":"en:Co-op Food","opening_hours:signed":"no","operator":"The Co-operative Group","shop":"supermarket"}}, "geometry":{"type":"Point","coordinates":[-1.0371,51.4602 ]}},
{ "type":"Feature","properties":{"osm_id":"4808445622","name":"Candan Food Centre","other":{"shop":"supermarket"}}, "geometry":{"type":"Point","coordinates":[-0.99403,51.45649 ]}},
{ "type":"Feature","properties":{"osm_id":"4808445633","name":"KB Super Store","other":{"shop":"supermarket","wheelchair":"limited","addr:street":"Oxford Road","opening_hours":"Mo-Sa 08:00-23:00; Su 09:00-22:30","addr:housenumber":"337-339"}}, "geometry":{"type":"Point","coordinates":[-0.99358,51.45614 ]}},
{ "type":"Feature","properties":{"osm_id":"4808484089","name":"Lidl","other":{"addr:country":"GB","addr:housenumber":"289,291","addr:postcode":"RG30 1AS","addr:street":"Oxford Road","brand":"Lidl","brand:wikidata":"Q151954","fhrs:id":"280265","opening_hours":"Mo-Sa 08:00-22:00; Su 11:00-17:00","operator":"Lidl UK GmbH","shop":"supermarket","website":"https:\/\/www.lidl.co.uk\/","wheelchair":"yes"}}, "geometry":{"type":"Point","coordinates":[-0.99109,51.45526 ]}},
{ "type":"Feature","properties":{"osm_id":"4826866850","name":"Supermalt","other":{"shop":"supermarket","wheelchair":"yes"}}, "geometry":{"type":"Point","coordinates":[-0.99473,51.45664 ]}},
{ "type":"Feature","properties":{"osm_id":"4829122717","name":"Amazing Grace","other":{"shop":"supermarket","wheelchair":"limited","opening_hours:signed":"no"}}, "geometry":{"type":"Point","coordinates":[-0.99553,51.45658 ]}},
{ "type":"Feature","properties":{"osm_id":"4829122719","name":"Mama Africa","other":{"shop":"supermarket","wheelchair":"limited","opening_hours:signed":"no"}}, "geometry":{"type":"Point","coordinates":[-0.9952,51.45648 ]}},
{ "type":"Feature","properties":{"osm_id":"4860664649","name":"Tani Sklep","other":{"shop":"supermarket","wheelchair":"yes","opening_hours":"Mo 08:00-22:00, Tu-Sa 08:00-23:00, Su 09:00-24:00"}}, "geometry":{"type":"Point","coordinates":[-0.99738,51.45699 ]}},
{ "type":"Feature","properties":{"osm_id":"4917778875","name":"Oxford Road Supermarket","other":{"shop":"supermarket"}}, "geometry":{"type":"Point","coordinates":[-0.98921,51.45556 ]}},
{ "type":"Feature","properties":{"osm_id":"4934131002","name":"ATIF Superstore","other":{"shop":"supermarket","wheelchair":"yes","opening_hours:signed":"no"}}, "geometry":{"type":"Point","coordinates":[-0.9992,51.45738 ]}},
{ "type":"Feature","properties":{"osm_id":"5368468281","name":"Your Local Store","other":{"shop":"supermarket"}}, "geometry":{"type":"Point","coordinates":[-0.9761,51.46305 ]}},
{ "type":"Feature","properties":{"osm_id":"5480771372","name":"Exotic Mart","other":{"shop":"supermarket","wheelchair":"yes","opening_hours":"Mo-Sa 07:30-21:30, Su 12:00-18:00"}}, "geometry":{"type":"Point","coordinates":[-1.00795,51.45998 ]}},
{ "type":"Feature","properties":{"osm_id":"5586723756","name":"Best Foods","other":{"shop":"supermarket"}}, "geometry":{"type":"Point","coordinates":[-0.98176,51.45483 ]}},
{ "type":"Feature","properties":{"osm_id":"5586723757","name":"Bestfood Supermarket","other":{"opening_hours":"Mo-Su 08:00-22:00","shop":"supermarket"}}, "geometry":{"type":"Point","coordinates":[-0.98189,51.45483 ]}},
{ "type":"Feature","properties":{"osm_id":"6387796417","name":"Amma Convenience Store","other":{"shop":"supermarket","website":"https:\/\/www.premier-stores.co.uk\/","operator":"Premier Stores","opening_hours:signed":"no"}}, "geometry":{"type":"Point","coordinates":[-0.96641,51.45064 ]}},
{ "type":"Feature","properties":{"osm_id":"6535205921","name":"Todays Local","other":{"shop":"supermarket"}}, "geometry":{"type":"Point","coordinates":[-0.95546,51.44272 ]}},
{ "type":"Feature","properties":{"osm_id":"6987032865","other":{"amenity":"loading_dock"}}, "geometry":{"type":"Point","coordinates":[-1.01759,51.44875 ]}},
{ "type":"Feature","properties":{"osm_id":"8435138051","other":{"amenity":"loading_dock"}}, "geometry":{"type":"Point","coordinates":[-0.95722,51.46011 ]}},
{ "type":"Feature","properties":{"osm_way_id":"32723951","name":"Tesco Extra","building":"retail","shop":"supermarket","other":{"addr:city":"Reading","addr:housename":"Tesco Extra","addr:postcode":"RG1 8DF","addr:street":"Napier Road","branch":"Reading","brand":"Tesco Extra","brand:wikidata":"Q25172225","brand:wikipedia":"en:Tesco Extra","building:levels":"1","contact:website":"https:\/\/www.tesco.com\/store-locator\/reading\/napier-rd","opening_hours":"Mo-Sa 00:00-24:00; Su 10:00-16:00; PH 08:00-20:00","operator":"Tesco","phone":"+44 345 677 9573","source:name":"survey","wheelchair":"yes","wheelchair:description":"Many dedicated Blue Badge spaces near entrance. Step-free automatic doors. Wide checkouts. One till with no-working Hearing Loop (3\/2016)."}}, "geometry":{"type":"MultiPolygon","coordinates":[[[[-0.95713,51.4598],[-0.95674,51.45979],[-0.95674,51.45978],[-0.95656,51.45977],[-0.95656,51.45978],[-0.95653,51.45978],[-0.95621,51.45977],[-0.95621,51.45976],[-0.9561,51.45975],[-0.9561,51.45976],[-0.95592,51.45976],[-0.9559,51.45975],[-0.95588,51.45973],[-0.95582,51.45972],[-0.95582,51.45972],[-0.9557,51.45971],[-0.9557,51.45972],[-0.95565,51.45972],[-0.9556,51.45974],[-0.95549,51.45974],[-0.95516,51.45973],[-0.95515,51.45972],[-0.95514,51.45971],[-0.95477,51.45969],[-0.9547,51.4598],[-0.95467,51.45986],[-0.95475,51.4599],[-0.95468,51.46001],[-0.9547,51.46002],[-0.95494,51.46013],[-0.95497,51.46013],[-0.95496,51.46027],[-0.95526,51.46028],[-0.95526,51.46032],[-0.95538,51.46032],[-0.95538,51.46028],[-0.9555,51.46029],[-0.9555,51.46042],[-0.95605,51.46043],[-0.95605,51.46046],[-0.95627,51.46046],[-0.95627,51.4604],[-0.95686,51.46041],[-0.95739,51.46027],[-0.95739,51.46022],[-0.95721,51.46021],[-0.95722,51.46011],[-0.95722,51.46003],[-0.95721,51.46002],[-0.95721,51.45991],[-0.95716,51.45991],[-0.95717,51.45984],[-0.95712,51.45984],[-0.95713,51.4598]]]]}},
{ "type":"Feature","properties":{"osm_way_id":"55890686","name":"Tesco Extra","building":"yes","shop":"supermarket","other":{"addr:city":"Reading","addr:postcode":"RG30 1AW","addr:street":"Portman Road","branch":"Reading West","brand":"Tesco Extra","brand:wikidata":"Q25172225","brand:wikipedia":"en:Tesco Extra","level":"3","opening_hours":"Mo-Sa 00:00-24:00; Su 10:00-16:00","operator":"Tesco","phone":"+443450269558","source:building":"OS_OpenData_StreetView","wheelchair":"yes"}}, "geometry":{"type":"MultiPolygon","coordinates":[[[[-0.99963,51.45919],[-0.99936,51.45917],[-0.99913,51.459],[-0.99914,51.45894],[-0.99794,51.45888],[-0.99808,51.45801],[-0.99818,51.45802],[-0.99823,51.45793],[-0.99862,51.45802],[-0.99858,51.4581],[-0.99929,51.45816],[-0.99926,51.45831],[-0.99977,51.45835],[-0.99963,51.45919]]]]}},
{ "type":"Feature","properties":{"osm_way_id":"62236459","name":"See Woo","building":"retail","shop":"supermarket","other":{"addr:city":"Reading","addr:housenumber":"15","addr:street":"Cradock Road","cuisine":"chinese","source:building":"OS_OpenData_StreetView","url":"http:\/\/www.seewooreading.co.uk\/"}}, "geometry":{"type":"MultiPolygon","coordinates":[[[[-0.97515,51.43857],[-0.97477,51.43855],[-0.97482,51.43823],[-0.9752,51.43825],[-0.97515,51.43857]]]]}},
{ "type":"Feature","properties":{"osm_way_id":"62236470","name":"Morrisons","building":"retail","shop":"supermarket","other":{"addr:city":"Reading","addr:postcode":"RG2 0HB","addr:street":"Basingstoke Road","brand":"Morrisons","brand:wikidata":"Q922344","brand:wikipedia":"en:Morrisons","fhrs:id":"280119","opening_hours":"Mo-Sa 06:00-23:00; Su 10:00-16:00","phone":"+44118 9310356","source:building":"OS_OpenData_StreetView","website":"https:\/\/my.morrisons.com\/storefinder\/359"}}, "geometry":{"type":"MultiPolygon","coordinates":[[[[-0.97112,51.43441],[-0.97057,51.43443],[-0.97058,51.4345],[-0.97003,51.43452],[-0.97,51.43451],[-0.96996,51.43454],[-0.96985,51.43448],[-0.96988,51.43445],[-0.96985,51.43444],[-0.96985,51.4344],[-0.96975,51.4344],[-0.96973,51.43417],[-0.96994,51.43416],[-0.9699,51.43373],[-0.97031,51.43371],[-0.97032,51.43382],[-0.97064,51.43381],[-0.97063,51.4337],[-0.97104,51.43368],[-0.97106,51.43384],[-0.97137,51.43383],[-0.97142,51.43433],[-0.97111,51.43434],[-0.97112,51.43441]]]]}},
{ "type":"Feature","properties":{"osm_way_id":"62249227","building":"office","other":{"addr:city":"Reading","source:building":"OS_OpenData_StreetView"}}, "geometry":{"type":"MultiPolygon","coordinates":[[[[-0.9744,51.43788],[-0.97413,51.43786],[-0.97415,51.43771],[-0.97442,51.43773],[-0.9744,51.43788]]]]}},
{ "type":"Feature","properties":{"osm_way_id":"70463491","name":"The Co-operative food","building":"yes","shop":"supermarket","other":{"addr:city":"Reading","addr:postcode":"RG30 4RN","source:building":"OS_OpenData_StreetView"}}, "geometry":{"type":"MultiPolygon","coordinates":[[[[-1.0409,51.45779],[-1.04083,51.45784],[-1.04036,51.45755],[-1.04048,51.45747],[-1.04088,51.45771],[-1.04082,51.45775],[-1.0409,51.45779]]]]}},
{ "type":"Feature","properties":{"osm_way_id":"93978081","name":"Lidl","building":"retail","shop":"supermarket","other":{"addr:city":"Reading","addr:housenumber":"577","addr:postcode":"RG2 0SJ","addr:street":"Basingstoke Road","brand":"Lidl","brand:wikidata":"Q151954","brand:wikipedia":"en:Lidl","fhrs:id":"434490","opening_hours":"Mo-Sa 08:00-22:00; Su 11:00-17:00; PH 08:00-20:00","source:building":"OS_OpenData_StreetView","wheelchair":"yes"}}, "geometry":{"type":"MultiPolygon","coordinates":[[[[-0.96805,51.42065],[-0.96859,51.42066],[-0.96858,51.42073],[-0.96844,51.42072],[-0.96842,51.42107],[-0.96848,51.42107],[-0.96847,51.42119],[-0.96847,51.42124],[-0.96802,51.42123],[-0.96805,51.42065]]]]}},
{ "type":"Feature","properties":{"osm_way_id":"108692685","name":"Asda","building":"retail","shop":"supermarket","other":{"brand":"Asda","brand:wikidata":"Q297410","brand:wikipedia":"en:Asda","source:building":"OS_OpenData_StreetView;bing"}}, "geometry":{"type":"MultiPolygon","coordinates":[[[[-1.01776,51.44874],[-1.01779,51.44888],[-1.01785,51.44913],[-1.01786,51.44919],[-1.0172,51.44924],[-1.01722,51.44929],[-1.01667,51.44932],[-1.01665,51.44928],[-1.01655,51.44883],[-1.01759,51.44875],[-1.01776,51.44874]]]]}},
{ "type":"Feature","properties":{"osm_way_id":"119550208","name":"Waitrose","building":"retail","shop":"supermarket","other":{"addr:city":"Reading","addr:housenumber":"980","addr:postcode":"RG30 6WR","addr:street":"Oxford Road","alt_name":"Waitrose Reading","brand":"Waitrose & Partners","brand:wikidata":"Q771734","brand:wikipedia":"en:Waitrose & Partners","building:levels":"2","opening_hours":"Mo-Fr 07:30-21:00; Sa 07:30-20:00; Su 10:00-16:00","operator":"Waitrose & Partners","payment:cash":"yes","payment:coins":"yes","payment:credit_cards":"yes","payment:debit_cards":"yes","source:building":"OS_OpenData_StreetView","wheelchair":"yes"}}, "geometry":{"type":"MultiPolygon","coordinates":[[[[-1.01942,51.46614],[-1.01873,51.46583],[-1.0188,51.46577],[-1.01881,51.46578],[-1.01901,51.46559],[-1.01878,51.46549],[-1.01895,51.46533],[-1.01986,51.46573],[-1.01982,51.46576],[-1.01985,51.46577],[-1.01973,51.46588],[-1.01971,51.46587],[-1.01942,51.46614]]]]}},
{ "type":"Feature","properties":{"osm_way_id":"137733622","name":"The Co-operative","building":"retail","shop":"supermarket","other":{"addr:city":"Reading","addr:housenumber":"100","addr:postcode":"RG4 5BB","addr:street":"South View Avenue","opening_hours":"Mo-Su 06:00-22:00","source:building":"OS_OpenData_StreetView","website":"https:\/\/www.co-operative.coop\/"}}, "geometry":{"type":"MultiPolygon","coordinates":[[[[-0.95933,51.46815],[-0.95935,51.46832],[-0.95907,51.46833],[-0.95907,51.46826],[-0.95903,51.46827],[-0.95902,51.4682],[-0.95895,51.46821],[-0.95895,51.46816],[-0.95904,51.46816],[-0.95904,51.46818],[-0.95915,51.46818],[-0.95915,51.46819],[-0.95923,51.46819],[-0.95923,51.46816],[-0.95933,51.46815]]]]}},
{ "type":"Feature","properties":{"osm_way_id":"431511971","name":"Aldi","building":"retail","shop":"supermarket","other":{"addr:city":"Reading","addr:housenumber":"350","addr:postcode":"RG2 0NT","addr:street":"Basingstoke Road","brand":"ALDI","brand:wikidata":"Q41171672","brand:wikipedia":"en:Aldi","fhrs:id":"859305","opening_hours":"Mo-Sa 08:00-22:00; Su 10:00-16:00","operator:wikidata":"Q41171672","source:addr":"FHRS Open Data"}}, "geometry":{"type":"MultiPolygon","coordinates":[[[[-0.96925,51.43357],[-0.97011,51.43353],[-0.97011,51.43346],[-0.97001,51.43347],[-0.96999,51.43326],[-0.96922,51.43329],[-0.96925,51.43357]]]]}},
{ "type":"Feature","properties":{"osm_way_id":"548726582","name":"Spar","building":"retail","shop":"supermarket","other":{"addr:city":"Reading","addr:housenumber":"10","addr:postcode":"RG1 6JT","addr:street":"Berkeley Avenue","brand":"Spar","brand:wikidata":"Q610492","brand:wikipedia":"en:SPAR (retailer)","opening_hours":"24\/7","operator":"Euro Garages","website":"https:\/\/www.spar.co.uk\/store-locator\/afb17988-spar-euro-garages-berkeley"}}, "geometry":{"type":"MultiPolygon","coordinates":[[[[-0.97989,51.44815],[-0.97996,51.4483],[-0.97981,51.44833],[-0.97974,51.44818],[-0.97989,51.44815]]]]}},
{ "type":"Feature","properties":{"osm_way_id":"642850364","name":"Aldi","building":"retail","shop":"supermarket","other":{"addr:city":"Reading","addr:housenumber":"Unit 1A","addr:postcode":"RG1 8AL","addr:street":"Vastern Court","brand":"ALDI","brand:wikidata":"Q41171672","brand:wikipedia":"en:Aldi","opening_hours":"Mo-Sa 08:00-21:00; Su 10:00-16:00"}}, "geometry":{"type":"MultiPolygon","coordinates":[[[[-0.97313,51.46089],[-0.97266,51.46073],[-0.97274,51.46063],[-0.97292,51.46042],[-0.9734,51.46058],[-0.97313,51.46089]]]]}},
{ "type":"Feature","properties":{"osm_way_id":"959905152","building":"apartments","other":{"addr:city":"Reading","addr:housenumber":"18","addr:street":"Ruston Close"}}, "geometry":{"type":"MultiPolygon","coordinates":[[[[-0.97287,51.41937],[-0.97279,51.41941],[-0.97268,51.41934],[-0.97275,51.4193],[-0.97287,51.41937]]]]}}
]
}
