{
"type": "FeatureCollection",
"features": [
{ "type":"Feature","properties":{"osm_id":"1237890239","name":"Waitrose","other":{"addr:postcode":"SN12 6LP","addr:street":"Bath Road","brand":"Waitrose","brand:wikidata":"Q771734","brand:wikipedia":"en:Waitrose","official_name":"Waitrose & Partners","opening_hours":"Mo-Sa 08:00-20:00; Su 10:00-16:00","operator":"Waitrose & Partners","phone":"+44 1225 709294","shop":"supermarket","website":"https:\/\/www.waitrose.com\/","wheelchair":"yes"}}, "geometry":{"type":"Point","coordinates":[-2.13823,51.37537 ]}},
{ "type":"Feature","properties":{"osm_id":"1638950547","name":"The Co-operative Food","other":{"shop":"supermarket","operator":"The Co-operative Group"}}, "geometry":{"type":"Point","coordinates":[-1.97878,51.28691 ]}},
{ "type":"Feature","properties":{"osm_id":"1656843302","name":"Budgens","other":{"brand":"Budgens","brand:wikidata":"Q4985016","shop":"supermarket"}}, "geometry":{"type":"Point","coordinates":[-2.05482,51.16048 ]}},
{ "type":"Feature","properties":{"osm_id":"1928900413","name":"Co-op Food","other":{"addr:city":"Marlborough","addr:housenumber":"6","addr:locality":"Aldbourne","addr:postcode":"SN8 2DQ","addr:street":"Oxford Street","brand":"Co-op Food","brand:wikidata":"Q3277439","brand:wikipedia":"en:Co-op Food","operator":"The Co-operative Group","shop":"supermarket"}}, "geometry":{"type":"Point","coordinates":[-1.61888,51.47977 ]}},
{ "type":"Feature","properties":{"osm_id":"2676981570","name":"Waitrose","other":{"addr:city":"Warminster","addr:postcode":"BA12 9BR","addr:street":"Station Road","alt_name":"Waitrose Warminster","brand":"Waitrose","brand:wikidata":"Q771734","brand:wikipedia":"en:Waitrose","official_name":"Waitrose & Partners","operator":"Waitrose & Partners","shop":"supermarket"}}, "geometry":{"type":"Point","coordinates":[-2.17632,51.2046 ]}},
{ "type":"Feature","properties":{"osm_id":"3093686329","name":"Home Sense","other":{"shop":"supermarket","wheelchair":"yes","addr:street":"Churchill Way West","addr:postcode":"SP2 7TS","addr:housename":"Unit 2"}}, "geometry":{"type":"Point","coordinates":[-1.80208,51.07565 ]}},
{ "type":"Feature","properties":{"osm_id":"3226739751","name":"Home Bargains","other":{"shop":"supermarket","operator":"TJ Morris","addr:city":"Amesbury","addr:street":"Solstice Park Avenue","addr:postcode":"SP4 7SQ","addr:housename":"Home Bargains"}}, "geometry":{"type":"Point","coordinates":[-1.75425,51.17712 ]}},
{ "type":"Feature","properties":{"osm_id":"3545109518","name":"M&S Simply Food","other":{"brand":"M&S Simply Food","brand:wikidata":"Q714491","brand:wikipedia":"en:Marks & Spencer","shop":"supermarket"}}, "geometry":{"type":"Point","coordinates":[-2.15825,51.50975 ]}},
{ "type":"Feature","properties":{"osm_id":"3884731408","name":"The Co-operative Food","other":{"brand":"The Co-operative Food","brand:wikidata":"Q107617274","opening_hours":"08:00-22:00","shop":"supermarket"}}, "geometry":{"type":"Point","coordinates":[-1.82106,51.07484 ]}},
{ "type":"Feature","properties":{"osm_id":"4452252020","name":"New Polish Deli","other":{"shop":"supermarket","phone":"+44 1225 571334","fhrs:id":"655410","website":"http:\/\/www.newpolishdeli.co.uk\/","addr:city":"Trowbridge","addr:street":"Church Street","addr:country":"GB","addr:postcode":"BA14 8DN","addr:housenumber":"35"}}, "geometry":{"type":"Point","coordinates":[-2.20641,51.3214 ]}},
{ "type":"Feature","properties":{"osm_id":"5739854064","name":"Spar","other":{"brand":"Spar","brand:wikidata":"Q610492","shop":"supermarket"}}, "geometry":{"type":"Point","coordinates":[-1.66455,51.24282 ]}},
{ "type":"Feature","properties":{"osm_id":"5753455480","other":{"amenity":"post_box"}}, "geometry":{"type":"Point","coordinates":[-1.85614,51.64176 ]}},
{ "type":"Feature","properties":{"osm_id":"8349985061","other":{"generator:method":"photovoltaic","generator:output:electricity":"yes","generator:source":"solar","generator:type":"solar_photovoltaic_panel","location":"roof","power":"generator"}}, "geometry":{"type":"Point","coordinates":[-1.66197,51.22468 ]}},
{ "type":"Feature","properties":{"osm_id":"8349985199","other":{"generator:method":"photovoltaic","generator:output:electricity":"yes","generator:source":"solar","generator:type":"solar_photovoltaic_panel","location":"roof","power":"generator"}}, "geometry":{"type":"Point","coordinates":[-1.65896,51.23901 ]}},
{ "type":"Feature","properties":{"osm_way_id":"36817933","name":"Sainsbury's","building":"yes","shop":"supermarket","other":{"addr:postcode":"SN14 0BJ","addr:street":"Bath Road","brand":"Sainsbury's","brand:wikidata":"Q152096","brand:wikipedia":"en:Sainsbury's","operator":"Sainsbury","toilets:wheelchair":"yes","wheelchair":"yes"}}, "geometry":{"type":"MultiPolygon","coordinates":[[[[-2.14806,51.44862],[-2.14715,51.44868],[-2.14721,51.44902],[-2.14726,51.44938],[-2.1475,51.44937],[-2.14752,51.4495],[-2.14852,51.44944],[-2.14841,51.4487],[-2.1483,51.4487],[-2.14829,51.44865],[-2.14806,51.44866],[-2.14806,51.44862]]]]}},
{ "type":"Feature","properties":{"osm_way_id":"38333521","name":"Tesco","building":"yes","shop":"supermarket","other":{"addr:city":"Amesbury","addr:postcode":"SP4 7RT","addr:street":"London Road","alt_name":"Tesco Amesbury Superstore","brand":"Tesco","brand:wikidata":"Q487494","brand:wikipedia":"en:Tesco","opening_hours":"Mo-Sa 07:00-23:00 Su 10:00-16:00"}}, "geometry":{"type":"MultiPolygon","coordinates":[[[[-1.76663,51.17547],[-1.76657,51.17552],[-1.76663,51.17555],[-1.76612,51.17595],[-1.76607,51.17593],[-1.76604,51.17595],[-1.76537,51.17562],[-1.76543,51.17558],[-1.7652,51.17547],[-1.76542,51.17529],[-1.76565,51.17541],[-1.76598,51.17514],[-1.76663,51.17547]]]]}},
{ "type":"Feature","properties":{"osm_way_id":"38333523","name":"B&M Home Store","building":"retail","shop":"supermarket","other":{"phone":"+44 1980 625111","addr:city":"Amesbury","addr:street":"London Road","addr:postcode":"SP4 7EQ","opening_hours":"Mo-Sa 08:00-20:00 Su 10:30-16:30","addr:housenumber":"118-130"}}, "geometry":{"type":"MultiPolygon","coordinates":[[[[-1.77118,51.1764],[-1.77038,51.17646],[-1.77036,51.17634],[-1.77024,51.17635],[-1.7702,51.17615],[-1.77032,51.17614],[-1.77031,51.17608],[-1.77111,51.17601],[-1.77118,51.1764]]]]}},
{ "type":"Feature","properties":{"osm_way_id":"41215561","name":"Morrisons","building":"yes","shop":"supermarket","other":{"addr:city":"Westbury","addr:housenumber":"42","addr:postcode":"BA13 3BG","addr:street":"Edward Street","alt_name":"Morrisons Westbury","brand":"Morrisons","brand:wikidata":"Q922344","brand:wikipedia":"en:Morrisons","opening_hours":"Mo-We 08:00-20:00; Th-Fr 08:00-21:00; Sa 08:00-20:00; Su 10:00-16:00","operator":"Morrisons","url":"http:\/\/www.morrisons.co.uk\/Store-finder\/Store-Details\/?type=qs&value=BA13&recordid=1&lat=51.26068&lon=-2.18374"}}, "geometry":{"type":"MultiPolygon","coordinates":[[[[-2.18409,51.26034],[-2.18406,51.26025],[-2.18412,51.26024],[-2.18403,51.25996],[-2.18392,51.25998],[-2.18389,51.2599],[-2.18385,51.25988],[-2.18352,51.25992],[-2.18343,51.25997],[-2.18357,51.26041],[-2.18409,51.26034]]]]}},
{ "type":"Feature","properties":{"osm_way_id":"82606923","name":"Co-op","building":"yes","shop":"supermarket","other":{"addr:street":"High Street","designation":"The Co-operative Food - Pewsey","addr:postcode":"SN9 5AQ","addr:housenumber":"18"}}, "geometry":{"type":"MultiPolygon","coordinates":[[[[-1.76431,51.33883],[-1.76356,51.33906],[-1.76336,51.3388],[-1.76412,51.33858],[-1.76431,51.33883]]]]}},
{ "type":"Feature","properties":{"osm_way_id":"112659228","name":"Morrisons","building":"yes","shop":"supermarket","other":{"addr:city":"Warminster","addr:postcode":"BA12 9NT","addr:street":"Weymouth Street","alt_name":"Morrisons Warminster","brand":"Morrisons","brand:wikidata":"Q922344","brand:wikipedia":"en:Morrisons","toilets":"yes","toilets:wheelchair":"yes","wheelchair":"yes"}}, "geometry":{"type":"MultiPolygon","coordinates":[[[[-2.18273,51.20467],[-2.18336,51.20433],[-2.1831,51.20414],[-2.18317,51.2041],[-2.18291,51.20393],[-2.18296,51.2039],[-2.1829,51.20386],[-2.18277,51.20381],[-2.18271,51.20379],[-2.18266,51.20386],[-2.18274,51.20388],[-2.18279,51.20392],[-2.18277,51.20393],[-2.18271,51.20389],[-2.18252,51.204],[-2.18256,51.20404],[-2.18205,51.20432],[-2.18264,51.20474],[-2.18275,51.20468],[-2.18273,51.20467]]]]}},
{ "type":"Feature","properties":{"osm_way_id":"128678681","name":"Asda","building":"yes","shop":"supermarket","other":{"brand":"Asda","alt_name":"Asda Trowbridge","operator":"Asda Stores Ltd","addr:city":"Trowbridge","addr:street":"The Shires by the Sea Road","addr:postcode":"BA14 8AT","addr:housename":"The Shires Centre","brand:wikidata":"Q297410","brand:wikipedia":"en:Asda","contact:twitter":"@asda","contact:website":"https:\/\/storelocator.asda.com\/south-west\/trowbridge\/1-the-shires-by-the-sea-road","addr:housenumber":"1","contact:facebook":"https:\/\/www.facebook.com\/asda\/"}}, "geometry":{"type":"MultiPolygon","coordinates":[[[[-2.2112,51.31925],[-2.2104,51.31958],[-2.21001,51.31921],[-2.20996,51.31916],[-2.2101,51.3191],[-2.21007,51.31908],[-2.21026,51.319],[-2.2101,51.31886],[-2.21026,51.3188],[-2.21044,51.31871],[-2.21062,51.31889],[-2.21077,51.31883],[-2.2112,51.31925]]]]}},
{ "type":"Feature","properties":{"osm_way_id":"128679234","name":"Tesco Extra","building":"yes","shop":"supermarket","other":{"addr:city":"Trowbridge","addr:postcode":"BA14 7AQ","addr:street":"County Way","alt_name":"Tesco Trowbridge Extra","branch_ref":"3316","brand":"Tesco Extra","brand:wikidata":"Q25172225","brand:wikipedia":"en:Tesco Extra","fhrs:id":"630593","wheelchair":"yes"}}, "geometry":{"type":"MultiPolygon","coordinates":[[[[-2.20364,51.31653],[-2.20341,51.31653],[-2.20333,51.31657],[-2.20333,51.31669],[-2.20347,51.31679],[-2.20338,51.31684],[-2.20335,51.31681],[-2.20326,51.31681],[-2.20325,51.31694],[-2.20311,51.31702],[-2.20283,51.31702],[-2.20277,51.31707],[-2.20247,51.31708],[-2.20237,51.31702],[-2.20234,51.31702],[-2.20233,51.31707],[-2.20201,51.31707],[-2.20193,51.31702],[-2.20194,51.31623],[-2.20306,51.31623],[-2.20306,51.31616],[-2.20346,51.31617],[-2.20345,51.31623],[-2.20362,51.31624],[-2.20364,51.31653]]]]}},
{ "type":"Feature","properties":{"osm_way_id":"148562077","name":"Sainsbury's","building":"supermarket","shop":"supermarket","other":{"brand":"Sainsbury's","brand:wikidata":"Q152096","brand:wikipedia":"en:Sainsbury's"}}, "geometry":{"type":"MultiPolygon","coordinates":[[[[-2.20985,51.3233],[-2.2098,51.32327],[-2.20975,51.3233],[-2.20906,51.32283],[-2.2094,51.32263],[-2.2094,51.32229],[-2.20956,51.32219],[-2.20972,51.3222],[-2.21034,51.32261],[-2.21043,51.32272],[-2.21045,51.32276],[-2.21047,51.32278],[-2.21036,51.32285],[-2.21043,51.32289],[-2.21031,51.32296],[-2.21036,51.32301],[-2.21027,51.32306],[-2.21035,51.32312],[-2.21027,51.32316],[-2.21029,51.32318],[-2.21007,51.32331],[-2.21005,51.32329],[-2.20994,51.32336],[-2.20985,51.3233]]]]}},
{ "type":"Feature","properties":{"osm_way_id":"148948352","name":"Lidl","building":"supermarket","shop":"supermarket","other":{"addr:country":"GB","addr:postcode":"BA13 3XW","addr:street":"Kingfisher Drive","brand":"Lidl","brand:wikidata":"Q151954","brand:wikipedia":"en:Lidl","fhrs:id":"630867","opening_hours":"Mo-Sa 08:00-22:00; Su 10:00-16:00","operator":"Lidl"}}, "geometry":{"type":"MultiPolygon","coordinates":[[[[-2.18007,51.26612],[-2.18008,51.2661],[-2.18023,51.26613],[-2.18021,51.26616],[-2.18025,51.26616],[-2.18019,51.26627],[-2.18017,51.26627],[-2.18011,51.26639],[-2.17936,51.26623],[-2.17949,51.26601],[-2.18007,51.26612]]]]}},
{ "type":"Feature","properties":{"osm_way_id":"152913791","name":"Lidl","building":"retail","shop":"supermarket","other":{"addr:city":"Warminster","addr:country":"GB","addr:postcode":"BA12 9BR","addr:street":"Station Road","alt_name":"LIDL Warminster","brand":"Lidl","brand:wikidata":"Q151954","brand:wikipedia":"en:Lidl","fhrs:id":"630459"}}, "geometry":{"type":"MultiPolygon","coordinates":[[[[-2.1767,51.2065],[-2.17628,51.20638],[-2.17635,51.20628],[-2.17645,51.20631],[-2.17678,51.20586],[-2.1771,51.20595],[-2.1767,51.2065]]]]}},
{ "type":"Feature","properties":{"osm_way_id":"157112750","name":"Waitrose","building":"yes","shop":"supermarket","other":{"brand":"Waitrose","operator":"Waitrose & Partners","addr:street":"High Street","designation":"Marlborough","addr:postcode":"SN8 1AA","official_name":"Waitrose & Partners","brand:wikidata":"Q771734","brand:wikipedia":"en:Waitrose & Partners","addr:housenumber":"17"}}, "geometry":{"type":"MultiPolygon","coordinates":[[[[-1.73132,51.42033],[-1.73109,51.42049],[-1.73107,51.4205],[-1.73097,51.42044],[-1.73099,51.42043],[-1.73101,51.42042],[-1.73062,51.42019],[-1.73054,51.42025],[-1.7302,51.42005],[-1.73035,51.41996],[-1.73033,51.41995],[-1.73046,51.41986],[-1.73048,51.41987],[-1.7306,51.41978],[-1.73087,51.41994],[-1.73102,51.42003],[-1.73112,51.42008],[-1.73121,51.42014],[-1.73111,51.42021],[-1.73119,51.42025],[-1.73132,51.42033]]]]}},
{ "type":"Feature","properties":{"osm_way_id":"160649507","name":"The Co-operative Food","building":"yes","shop":"supermarket","other":{"operator":"The Co-operative Group","addr:street":"High Street","addr:postcode":"SP3 6HA"}}, "geometry":{"type":"MultiPolygon","coordinates":[[[[-2.08092,51.06307],[-2.08083,51.06298],[-2.08097,51.06293],[-2.08101,51.06297],[-2.08098,51.06299],[-2.08102,51.06303],[-2.08092,51.06307]]]]}},
{ "type":"Feature","properties":{"osm_way_id":"162116888","name":"Sainsbury's","building":"retail","shop":"supermarket","other":{"addr:city":"Devizes","addr:housenumber":"3","addr:postcode":"SN10 1DN","addr:street":"Monday Market Street","brand":"Sainsbury's","brand:wikidata":"Q152096","brand:wikipedia":"en:Sainsbury's","building:levels":"2","fhrs:id":"262125","opening_hours":"Mo-Sa 07:00-20:00; Su 10:00-16:00","roof:levels":"0","roof:shape":"flat"}}, "geometry":{"type":"MultiPolygon","coordinates":[[[[-1.99223,51.35247],[-1.99201,51.35219],[-1.99185,51.35196],[-1.99169,51.35193],[-1.99152,51.35197],[-1.99156,51.35204],[-1.99162,51.35213],[-1.99156,51.35214],[-1.99151,51.35215],[-1.99153,51.35217],[-1.99156,51.35223],[-1.99155,51.35223],[-1.99173,51.35248],[-1.99179,51.35247],[-1.99181,51.35249],[-1.99196,51.35245],[-1.99192,51.35239],[-1.99195,51.35238],[-1.99198,51.35241],[-1.992,51.35241],[-1.99205,51.35247],[-1.99204,51.35248],[-1.99207,51.35252],[-1.99223,51.35247]]]]}},
{ "type":"Feature","properties":{"osm_way_id":"162116889","name":"Morrisons","building":"retail","shop":"supermarket","other":{"addr:city":"Devizes","addr:housenumber":"30","addr:postcode":"SN10 1LA","addr:street":"Estcourt Street","brand":"Morrisons","brand:wikidata":"Q922344","brand:wikipedia":"en:Morrisons","building:levels":"1","fhrs:id":"261888","opening_hours":"Mo-Sa 07:00-22:00; Su 10:00-16:00","roof:levels":"0","roof:shape":"flat"}}, "geometry":{"type":"MultiPolygon","coordinates":[[[[-1.98964,51.35304],[-1.98953,51.3528],[-1.9894,51.35249],[-1.9888,51.3526],[-1.98884,51.35268],[-1.98873,51.3527],[-1.98878,51.3528],[-1.98852,51.35285],[-1.98872,51.35328],[-1.98887,51.35325],[-1.98886,51.35323],[-1.98925,51.35316],[-1.98922,51.35311],[-1.98964,51.35304]]]]}},
{ "type":"Feature","properties":{"osm_way_id":"165331362","name":"Lidl","building":"retail","shop":"supermarket","other":{"addr:city":"Devizes","addr:postcode":"SN10 2SD","addr:street":"North Arakan Road","brand":"Lidl","brand:wikidata":"Q151954","brand:wikipedia":"en:Lidl","building:levels":"1","fhrs:id":"261683","nohousenumber":"yes","opening_hours":"Mo-Sa 08:00-22:00; Su 10:00-16:00","roof:levels":"0"}}, "geometry":{"type":"MultiPolygon","coordinates":[[[[-1.97098,51.36474],[-1.97057,51.3645],[-1.97052,51.36454],[-1.97018,51.36434],[-1.97004,51.36444],[-1.96998,51.3644],[-1.96986,51.36448],[-1.97066,51.36495],[-1.97098,51.36474]]]]}},
{ "type":"Feature","properties":{"osm_way_id":"166854539","name":"Sainsbury's","building":"yes","shop":"supermarket","other":{"addr:city":"Calne","addr:postcode":"SN11 8JG","addr:street":"The Pippin","brand":"Sainsbury's","brand:wikidata":"Q152096","brand:wikipedia":"en:Sainsbury's","layer":"0","location":"surface","opening_hours":"Mo-Sa 07:00-21:00, Su 10:00-16:00","phone":"+44 1249 815 927","website":"https:\/\/stores.sainsburys.co.uk\/2003\/calne"}}, "geometry":{"type":"MultiPolygon","coordinates":[[[[-2.00368,51.43974],[-2.00363,51.43964],[-2.00361,51.43963],[-2.00359,51.43963],[-2.00344,51.43934],[-2.00346,51.43933],[-2.00348,51.43929],[-2.0033,51.43932],[-2.00319,51.4393],[-2.00314,51.43927],[-2.00312,51.43925],[-2.003,51.43927],[-2.00302,51.43935],[-2.00258,51.43941],[-2.00283,51.43981],[-2.0034,51.4397],[-2.00346,51.43979],[-2.00368,51.43974]]]]}},
{ "type":"Feature","properties":{"osm_way_id":"166854541","name":"Co-op","building":"yes","shop":"supermarket","other":{"phone":"+44 1249 813166","addr:city":"Calne","addr:street":"Mill Street","addr:postcode":"SN11 0HT","opening_hours":"Mo-Sa 07:00-23:00, Su 10:00-16:00","addr:housenumber":"1 - 3"}}, "geometry":{"type":"MultiPolygon","coordinates":[[[[-2.00343,51.43798],[-2.00299,51.43777],[-2.00282,51.43779],[-2.0028,51.43771],[-2.0025,51.43774],[-2.00262,51.43818],[-2.00284,51.43815],[-2.00301,51.43802],[-2.00326,51.43813],[-2.00343,51.43798]]]]}},
{ "type":"Feature","properties":{"osm_way_id":"168712029","name":"Lidl","building":"yes","shop":"supermarket","other":{"addr:country":"GB","addr:postcode":"SN12 8AB","addr:street":"Bath Road","brand":"Lidl","brand:wikidata":"Q151954","brand:wikipedia":"en:Lidl","building:levels":"1","fhrs:id":"630588","opening_hours":"Mo-Sa 08:00-22:00; Su 10:00-16:00","website":"https:\/\/www.lidl.co.uk\/","wheelchair":"yes"}}, "geometry":{"type":"MultiPolygon","coordinates":[[[[-2.14146,51.37692],[-2.14113,51.37671],[-2.14063,51.37701],[-2.14098,51.37723],[-2.14146,51.37692]]]]}},
{ "type":"Feature","properties":{"osm_way_id":"171864782","name":"Aldi","building":"yes","shop":"supermarket","other":{"addr:city":"Amesbury","addr:postcode":"SP4 7HD","addr:street":"Salisbury Road","brand":"ALDI","brand:wikidata":"Q41171672","brand:wikipedia":"en:Aldi","opening_hours":"Mo-Sa 08:00-22:00; Su 10:00-16:00"}}, "geometry":{"type":"MultiPolygon","coordinates":[[[[-1.77971,51.17131],[-1.77945,51.17127],[-1.77953,51.17102],[-1.77973,51.17105],[-1.77975,51.17098],[-1.78023,51.17104],[-1.78023,51.17101],[-1.78041,51.17104],[-1.7804,51.17108],[-1.78045,51.17109],[-1.78035,51.17139],[-1.78021,51.17137],[-1.78013,51.17136],[-1.77971,51.17131]]]]}},
{ "type":"Feature","properties":{"osm_way_id":"177637839","name":"Sainsbury's","building":"supermarket","shop":"supermarket","other":{"brand":"Sainsbury's","brand:wikidata":"Q152096"}}, "geometry":{"type":"MultiPolygon","coordinates":[[[[-2.25219,51.33677],[-2.25197,51.33683],[-2.25187,51.33669],[-2.25203,51.33664],[-2.25197,51.33656],[-2.25205,51.33653],[-2.25188,51.3363],[-2.25223,51.3362],[-2.25212,51.33604],[-2.25256,51.33592],[-2.25294,51.33645],[-2.25284,51.33648],[-2.25286,51.3365],[-2.25266,51.33655],[-2.25266,51.33654],[-2.25258,51.33656],[-2.25259,51.33657],[-2.2524,51.33663],[-2.25239,51.33661],[-2.25213,51.33668],[-2.25219,51.33677]]]]}},
{ "type":"Feature","properties":{"osm_way_id":"180424423","name":"Tesco Metro","building":"yes","shop":"supermarket","other":{"addr:housename":"Emery Gate","addr:housenumber":"Unit 1","addr:postcode":"SN15 3JP","brand":"Tesco Metro","brand:wikidata":"Q57551648","wheelchair":"yes"}}, "geometry":{"type":"MultiPolygon","coordinates":[[[[-2.11443,51.4598],[-2.11444,51.45971],[-2.11444,51.45965],[-2.11445,51.45957],[-2.11445,51.45952],[-2.1134,51.4595],[-2.11327,51.45941],[-2.11312,51.45952],[-2.11352,51.45977],[-2.11443,51.4598]]]]}},
{ "type":"Feature","properties":{"osm_way_id":"180424930","name":"Morrisons","building":"yes","shop":"supermarket","other":{"addr:housename":"Cepen Park North","addr:postcode":"SN14 6UZ","addr:street":"West Cepen Way","brand":"Morrisons","brand:wikidata":"Q922344","brand:wikipedia":"en:Morrisons","fhrs:id":"261636","source:addr:postcode":"FSA Food Hygiene Ratings Database","toilets:wheelchair":"yes","wheelchair":"yes"}}, "geometry":{"type":"MultiPolygon","coordinates":[[[[-2.13072,51.47654],[-2.13047,51.47644],[-2.13058,51.47633],[-2.13028,51.47621],[-2.12965,51.47685],[-2.13015,51.47703],[-2.13007,51.47712],[-2.13029,51.47721],[-2.13039,51.47719],[-2.13041,51.47724],[-2.13064,51.47721],[-2.13063,51.47717],[-2.13083,51.47725],[-2.13132,51.47673],[-2.13104,51.47662],[-2.13114,51.47655],[-2.13083,51.47642],[-2.13072,51.47654]]]]}},
{ "type":"Feature","properties":{"osm_way_id":"180425875","name":"Waitrose","building":"retail","shop":"supermarket","other":{"addr:housenumber":"Unit 32","addr:postcode":"SN15 3WL","addr:street":"Borough Parade","brand":"Waitrose","brand:wikidata":"Q771734","brand:wikipedia":"en:Waitrose & Partners","building:levels":"1","official_name":"Waitrose & Partners","opening_hours":"Mo-Sa 09:00-20:00; Su 10:00-18:00","operator":"Waitrose & Partners","roof:levels":"0","wheelchair":"yes"}}, "geometry":{"type":"MultiPolygon","coordinates":[[[[-2.117,51.45779],[-2.11678,51.45771],[-2.11676,51.4577],[-2.11647,51.45802],[-2.11649,51.45803],[-2.11671,51.4581],[-2.11675,51.45806],[-2.117,51.45779]]]]}},
{ "type":"Feature","properties":{"osm_way_id":"180426152","name":"Co-op Food","building":"yes","shop":"supermarket","other":{"addr:housenumber":"93","addr:postcode":"SN15 1DZ","addr:street":"Greenway Lane","brand":"Co-op Food","brand:wikidata":"Q3277439","brand:wikipedia":"en:Co-op Food","wheelchair":"yes"}}, "geometry":{"type":"MultiPolygon","coordinates":[[[[-2.11835,51.47093],[-2.11843,51.47092],[-2.11846,51.471],[-2.11826,51.47102],[-2.11825,51.47098],[-2.1182,51.47098],[-2.11815,51.47084],[-2.11822,51.47077],[-2.1183,51.47077],[-2.11835,51.47093]]]]}},
{ "type":"Feature","properties":{"osm_way_id":"180994299","name":"Tesco Metro","building":"yes","shop":"supermarket","other":{"addr:city":"Salisbury","addr:housenumber":"21-25","addr:postcode":"SP1 1TT","addr:street":"Castle Street","branch_name":"Salisbury Metro","brand":"Tesco Metro","brand:wikidata":"Q57551648","building:levels":"3","opening_hours":"Mo-Fr 06:00-24:00; Sa 06:00-22:00; Su 10:00-16:00"}}, "geometry":{"type":"MultiPolygon","coordinates":[[[[-1.79731,51.06986],[-1.79711,51.06984],[-1.79708,51.06993],[-1.79687,51.06991],[-1.7966,51.06988],[-1.79657,51.07],[-1.7965,51.07046],[-1.79679,51.07048],[-1.79689,51.07048],[-1.79697,51.07049],[-1.79695,51.07056],[-1.79695,51.07058],[-1.79726,51.0706],[-1.79731,51.07024],[-1.79731,51.06986]]]]}},
{ "type":"Feature","properties":{"osm_way_id":"180994545","name":"Tesco Extra","building":"yes","shop":"supermarket","other":{"addr:city":"Salisbury","addr:housename":"Bourne Centre","addr:postcode":"SP1 2NY","addr:street":"Southampton Road","brand":"Tesco Extra","brand:wikidata":"Q25172225","designation":"Salisbury Extra","opening_hours":"Mo 00:00-Sa 24:00 Su 10:00-16:00","wheelchair":"yes"}}, "geometry":{"type":"MultiPolygon","coordinates":[[[[-1.77404,51.06282],[-1.77355,51.06263],[-1.77352,51.06266],[-1.77262,51.06233],[-1.77197,51.06298],[-1.7719,51.06295],[-1.77182,51.06303],[-1.77176,51.06302],[-1.77171,51.06308],[-1.77241,51.06334],[-1.77249,51.06327],[-1.77232,51.0632],[-1.77241,51.06311],[-1.77337,51.06348],[-1.77404,51.06282]]]]}},
{ "type":"Feature","properties":{"osm_way_id":"180994619","name":"Sainsbury's","building":"yes","shop":"supermarket","other":{"addr:city":"Salisbury","addr:housenumber":"33","addr:postcode":"SP1 1BD","addr:street":"The Maltings","brand":"Sainsbury's","brand:wikidata":"Q152096","brand:wikipedia":"en:Sainsbury's","designation":"Salisbury Superstore","opening_hours":"Mo-Sa 07:00-22:00 Su 10:00-16:00"}}, "geometry":{"type":"MultiPolygon","coordinates":[[[[-1.7994,51.07049],[-1.79955,51.07003],[-1.79948,51.06994],[-1.79935,51.06992],[-1.79925,51.06976],[-1.79912,51.06974],[-1.79908,51.06989],[-1.79871,51.06985],[-1.79868,51.06996],[-1.79854,51.06998],[-1.79845,51.07025],[-1.7985,51.07026],[-1.79845,51.0704],[-1.79868,51.07044],[-1.7987,51.07039],[-1.7994,51.07049]]]]}},
{ "type":"Feature","properties":{"osm_way_id":"180994850","name":"Waitrose","building":"yes","shop":"supermarket","other":{"addr:city":"Salisbury","addr:postcode":"SP2 7TS","addr:street":"Churchill Way West","brand":"Waitrose","brand:wikidata":"Q771734","brand:wikipedia":"en:Waitrose & Partners","designation":"Salisbury","official_name":"Waitrose & Partners","opening_hours":"Mo-Fr 07:30-21:00 Sa 07:30-20:00 Su 10:00-16:00","operator":"Waitrose & Partners","phone":"+44 1722 329429","website":"https:\/\/www.waitrose.com\/bf_home\/bf\/226.html"}}, "geometry":{"type":"MultiPolygon","coordinates":[[[[-1.80154,51.07606],[-1.80122,51.07558],[-1.79997,51.0759],[-1.80004,51.07602],[-1.79984,51.07607],[-1.80004,51.07639],[-1.80018,51.07635],[-1.80031,51.07656],[-1.80082,51.07643],[-1.8009,51.07656],[-1.80111,51.07651],[-1.80101,51.07636],[-1.8011,51.07634],[-1.80101,51.07618],[-1.80154,51.07606]]]]}},
{ "type":"Feature","properties":{"osm_way_id":"180995354","name":"Lidl","building":"yes","shop":"supermarket","other":{"addr:city":"Salisbury","addr:country":"GB","addr:postcode":"SP1 2NZ","addr:street":"Hatches Lane","brand":"Lidl","brand:wikidata":"Q151954","designation":"Salisbury","fhrs:id":"263518","opening_hours":"Mo-Fr 08:00-21:00; Sa 07:00-21:00; Su 10:00-16:00"}}, "geometry":{"type":"MultiPolygon","coordinates":[[[[-1.77687,51.06275],[-1.7766,51.06258],[-1.77587,51.06302],[-1.77614,51.06319],[-1.77687,51.06275]]]]}},
{ "type":"Feature","properties":{"osm_way_id":"187951815","name":"Co-op","building":"yes","shop":"supermarket","other":{"addr:street":"High Street","addr:postcode":"SN16 9AU","addr:housenumber":"8"}}, "geometry":{"type":"MultiPolygon","coordinates":[[[[-2.09788,51.58346],[-2.09732,51.58353],[-2.09733,51.58358],[-2.09742,51.58357],[-2.09742,51.5836],[-2.09746,51.5836],[-2.09746,51.58363],[-2.09791,51.58355],[-2.09788,51.58346]]]]}},
{ "type":"Feature","properties":{"osm_way_id":"187951926","name":"Co-op","building":"yes","shop":"supermarket","other":{"addr:street":"Gloucester Road","addr:postcode":"SN16 9JS"}}, "geometry":{"type":"MultiPolygon","coordinates":[[[[-2.10175,51.58921],[-2.10147,51.58916],[-2.10148,51.58913],[-2.1013,51.5891],[-2.10125,51.5892],[-2.1013,51.58921],[-2.10116,51.5895],[-2.10127,51.58951],[-2.10125,51.58955],[-2.10149,51.58959],[-2.10151,51.58954],[-2.10159,51.58956],[-2.10175,51.58921]]]]}},
{ "type":"Feature","properties":{"osm_way_id":"189261910","name":"Sainsbury's","building":"yes","shop":"supermarket","other":{"addr:housename":"Borough Fields Shopping Centre","addr:postcode":"SN4 7AX","brand":"Sainsbury's","brand:wikidata":"Q152096","brand:wikipedia":"en:Sainsbury's"}}, "geometry":{"type":"MultiPolygon","coordinates":[[[[-1.90543,51.54274],[-1.90519,51.54261],[-1.90482,51.54284],[-1.90463,51.54295],[-1.90494,51.54313],[-1.90508,51.54304],[-1.90511,51.54306],[-1.90555,51.54277],[-1.90547,51.54272],[-1.90546,51.54272],[-1.90543,51.54274]]]]}},
{ "type":"Feature","properties":{"osm_way_id":"189263925","name":"Tesco Express","building":"yes","shop":"supermarket","other":{"addr:housenumber":"39-40","addr:postcode":"SN6 6BX","addr:street":"High Street","brand":"Tesco Express","brand:wikidata":"Q98456772","toilets:wheelchair":"no","wheelchair":"yes"}}, "geometry":{"type":"MultiPolygon","coordinates":[[[[-1.85615,51.64174],[-1.85614,51.64176],[-1.85607,51.64185],[-1.85618,51.64188],[-1.85643,51.64195],[-1.85651,51.64184],[-1.85626,51.64177],[-1.85615,51.64174]]]]}},
{ "type":"Feature","properties":{"osm_way_id":"194191684","name":"Co-op Food","building":"yes","shop":"supermarket","other":{"brand":"Co-op Food","brand:wikidata":"Q3277439","brand:wikipedia":"en:Co-op Food","operator":"The Co-operative Group","operator:wikidata":"Q117202","operator:wikipedia":"en:The Co-operative Group","wheelchair":"yes"}}, "geometry":{"type":"MultiPolygon","coordinates":[[[[-2.18701,51.43208],[-2.18661,51.43203],[-2.18659,51.43208],[-2.18653,51.43225],[-2.18649,51.43245],[-2.1868,51.43249],[-2.18687,51.43224],[-2.18696,51.43225],[-2.18701,51.43208]]]]}},
{ "type":"Feature","properties":{"osm_way_id":"195818978","name":"Tesco","building":"yes","shop":"supermarket","other":{"brand":"Tesco","toilets":"yes","addr:street":"Salisbury Road","designation":"Marlborough Superstore","addr:postcode":"SN8 4AE","opening_hours":"Mo-Sa 06:00-24:00;Su 10:00-16:00","addr:housename":"Marlborough Business Park","brand:wikidata":"Q487494","brand:wikipedia":"en:Tesco"}}, "geometry":{"type":"MultiPolygon","coordinates":[[[[-1.72171,51.41591],[-1.72168,51.41591],[-1.72168,51.41597],[-1.7213,51.41597],[-1.72115,51.41594],[-1.72104,51.41594],[-1.72101,51.41592],[-1.721,51.41546],[-1.72171,51.41545],[-1.72171,51.41549],[-1.72171,51.41591]]]]}},
{ "type":"Feature","properties":{"osm_way_id":"214766838","name":"Aldi","landuse":"commercial","shop":"supermarket","other":{"addr:city":"Trowbridge","addr:postcode":"BA14 0QT","addr:street":"Bradley Road","alt_name":"ALDI Trowbridge","brand":"ALDI","brand:wikidata":"Q41171672","brand:wikipedia":"en:Aldi"}}, "geometry":{"type":"MultiPolygon","coordinates":[[[[-2.2131,51.31109],[-2.21283,51.31078],[-2.21358,51.31054],[-2.21391,51.31095],[-2.21439,51.31079],[-2.21458,51.31104],[-2.21413,51.31118],[-2.21408,51.31113],[-2.21387,51.3112],[-2.21383,51.31132],[-2.21367,51.31137],[-2.21357,51.31115],[-2.21322,51.31126],[-2.2131,51.31109]]]]}},
{ "type":"Feature","properties":{"osm_way_id":"233756802","name":"Iceland","building":"yes","shop":"supermarket","other":{"addr:city":"Salisbury","addr:housenumber":"33-35","addr:postcode":"SP1 1TT","addr:street":"Castle Street","brand":"Iceland","brand:wikidata":"Q721810","designation":"Salisbury","opening_hours":"Mo-Sa 08:00-18:00 Su 10:00-16:00"}}, "geometry":{"type":"MultiPolygon","coordinates":[[[[-1.79646,51.07074],[-1.79648,51.07066],[-1.7968,51.07068],[-1.7968,51.07065],[-1.79686,51.07065],[-1.79703,51.07066],[-1.79702,51.0707],[-1.79713,51.07071],[-1.79711,51.07087],[-1.79678,51.07085],[-1.79679,51.07076],[-1.79669,51.07076],[-1.79646,51.07074]]]]}},
{ "type":"Feature","properties":{"osm_way_id":"233757652","name":"Co-op","building":"yes","shop":"supermarket","other":{"old_name":"Budgens + Wilton Post Office","addr:street":"North Street","designation":"The Co-operative Food","addr:postcode":"SP2 0HE","addr:housenumber":"19-21"}}, "geometry":{"type":"MultiPolygon","coordinates":[[[[-1.86338,51.08098],[-1.86291,51.08071],[-1.86273,51.08084],[-1.86309,51.08095],[-1.86312,51.08092],[-1.86322,51.08098],[-1.86324,51.08098],[-1.86334,51.08102],[-1.86338,51.08098]]]]}},
{ "type":"Feature","properties":{"osm_way_id":"235392621","name":"Lidl","shop":"supermarket","other":{"addr:city":"Trowbridge","addr:country":"GB","addr:postcode":"BA14 8QU","addr:street":"Canal Road","brand":"Lidl","brand:wikidata":"Q151954","brand:wikipedia":"en:Lidl","fhrs:id":"630666"}}, "geometry":{"type":"MultiPolygon","coordinates":[[[[-2.20482,51.32984],[-2.20567,51.33022],[-2.20628,51.3302],[-2.20632,51.33017],[-2.20629,51.32997],[-2.20619,51.32988],[-2.20531,51.32946],[-2.20482,51.32984]]]]}},
{ "type":"Feature","properties":{"osm_way_id":"237600447","name":"Asda","building":"supermarket","shop":"supermarket","other":{"brand":"Asda","operator":"Asda Stores Ltd","addr:city":"Melksham","addr:street":"Bradford Road","addr:postcode":"SN12 8LQ","contact:phone":"+44 1225 491400","opening_hours":"Mo 08:00-23:00; Tu-Fr 07:00-23:00; Sa 07:00-22:00; Su 10:00-16:00","addr:housename":"Asda Melksham Superstore","brand:wikidata":"Q297410","brand:wikipedia":"en:Asda","building:levels":"1","contact:twitter":"@asda","contact:website":"https:\/\/storelocator.asda.com\/south-west\/melksham\/bradford-road","contact:facebook":"https:\/\/www.facebook.com\/asda\/","opening_hours:covid19":"Mo-Sa 08:00-22:00; Su 10:00-16:00"}}, "geometry":{"type":"MultiPolygon","coordinates":[[[[-2.14667,51.37638],[-2.14687,51.37601],[-2.14683,51.376],[-2.14684,51.37598],[-2.14646,51.37575],[-2.14625,51.37588],[-2.14604,51.37584],[-2.14606,51.37579],[-2.14572,51.37571],[-2.14549,51.37613],[-2.14554,51.37614],[-2.14552,51.37618],[-2.14632,51.37635],[-2.14633,51.37631],[-2.14667,51.37638]]]]}},
{ "type":"Feature","properties":{"osm_way_id":"262020291","name":"Lime Polish Deli","building":"retail","shop":"supermarket","other":{"addr:city":"Devizes","addr:housenumber":"10","addr:postcode":"SN10 1AR","addr:street":"Little Brittox","building:levels":"3","fhrs:id":"809448","opening_hours":"Mo-Sa 09:00-19:00; Su 10:00-16:00","roof:shape":"hipped"}}, "geometry":{"type":"MultiPolygon","coordinates":[[[[-1.99503,51.35219],[-1.99505,51.35223],[-1.9949,51.35227],[-1.99486,51.35222],[-1.99497,51.35218],[-1.99499,51.3522],[-1.99503,51.35219]]]]}},
{ "type":"Feature","properties":{"osm_way_id":"262217924","name":"Lidl","building":"yes","shop":"supermarket","other":{"addr:city":"Amesbury","addr:country":"GB","addr:postcode":"SP4 7RT","addr:street":"London Road","alt_name":"LIDL Amesbury","brand":"Lidl","brand:wikidata":"Q151954","brand:wikipedia":"en:Lidl","fhrs:id":"261960","opening_hours":"Mo-Fr 08:00-22:00; Sa 07:00-22:00; Su 10:00-16:00"}}, "geometry":{"type":"MultiPolygon","coordinates":[[[[-1.76334,51.17681],[-1.76296,51.17697],[-1.76261,51.17663],[-1.76284,51.17652],[-1.76281,51.17647],[-1.76292,51.17643],[-1.76298,51.17648],[-1.76334,51.17681]]]]}},
{ "type":"Feature","properties":{"osm_way_id":"262526523","name":"ALDI","building":"retail","shop":"supermarket","other":{"brand":"ALDI","brand:wikidata":"Q41171672","brand:wikipedia":"en:Aldi","opening_hours":"Mo-Sa 08:00-22:00; Su 10:00-16:00","wheelchair":"yes"}}, "geometry":{"type":"MultiPolygon","coordinates":[[[[-1.89197,51.55059],[-1.89226,51.5505],[-1.89224,51.55047],[-1.89263,51.55034],[-1.89246,51.55014],[-1.89251,51.55012],[-1.89246,51.55008],[-1.89173,51.5503],[-1.89197,51.55059]]]]}},
{ "type":"Feature","properties":{"osm_way_id":"265955760","name":"M&S Foodhall","building":"yes","shop":"supermarket","other":{"brand":"M&S Foodhall","brand:wikidata":"Q714491","brand:wikipedia":"en:Marks & Spencer","wheelchair":"yes"}}, "geometry":{"type":"MultiPolygon","coordinates":[[[[-2.14797,51.44701],[-2.1481,51.4472],[-2.14699,51.44744],[-2.14688,51.44726],[-2.14797,51.44701]]]]}},
{ "type":"Feature","properties":{"osm_way_id":"276984216","name":"Aldi","shop":"supermarket","other":{"brand":"ALDI","brand:wikidata":"Q41171672","brand:wikipedia":"en:Aldi"}}, "geometry":{"type":"MultiPolygon","coordinates":[[[[-2.1433,51.38074],[-2.14337,51.38104],[-2.14341,51.38147],[-2.1429,51.38149],[-2.14282,51.38147],[-2.14277,51.38146],[-2.14225,51.38082],[-2.14248,51.38077],[-2.1433,51.38074]]]]}},
{ "type":"Feature","properties":{"osm_way_id":"277289888","name":"Sainsbury's","building":"retail","shop":"supermarket","other":{"brand":"Sainsbury's","brand:wikidata":"Q152096","brand:wikipedia":"en:Sainsbury's"}}, "geometry":{"type":"MultiPolygon","coordinates":[[[[-2.14159,51.37462],[-2.14025,51.37496],[-2.14013,51.37477],[-2.13988,51.37483],[-2.13981,51.37471],[-2.14008,51.37461],[-2.14137,51.37428],[-2.14159,51.37462]]]]}},
{ "type":"Feature","properties":{"osm_way_id":"291293683","name":"Waitrose","shop":"supermarket","other":{"brand":"Waitrose","brand:wikidata":"Q771734","brand:wikipedia":"en:Waitrose","official_name":"Waitrose & Partners","opening_hours":"Mo-Sa 07:30-21:00, Su 10:00-16:00","operator":"Waitrose & Partners","payment:card":"yes","payment:cash":"yes"}}, "geometry":{"type":"MultiPolygon","coordinates":[[[[-2.09308,51.58145],[-2.09153,51.58113],[-2.09233,51.58044],[-2.09303,51.57984],[-2.09345,51.57972],[-2.09387,51.57972],[-2.09404,51.57992],[-2.0941,51.58016],[-2.09408,51.58045],[-2.09308,51.58145]]]]}},
{ "type":"Feature","properties":{"osm_way_id":"317596306","name":"Co-op","building":"yes","shop":"supermarket","other":{"operator":"The Co-operative Group"}}, "geometry":{"type":"MultiPolygon","coordinates":[[[[-2.25044,51.34706],[-2.25031,51.34716],[-2.25058,51.34728],[-2.25068,51.34717],[-2.2506,51.34714],[-2.25054,51.34719],[-2.25046,51.34715],[-2.25052,51.34709],[-2.25044,51.34706]]]]}},
{ "type":"Feature","properties":{"osm_way_id":"352409178","name":"The co-operative food","building":"retail","shop":"supermarket","other":{"operator":"The Southern Co-operative"}}, "geometry":{"type":"MultiPolygon","coordinates":[[[[-2.25547,51.35075],[-2.25528,51.35078],[-2.25513,51.35038],[-2.25532,51.35035],[-2.25547,51.35075]]]]}},
{ "type":"Feature","properties":{"osm_way_id":"353293097","name":"The Co-operative Food","building":"supermarket","shop":"supermarket","other":{"brand":"The Co-operative Food","fhrs:id":"630552","operator":"The Co-operative Group","addr:city":"Melksham","addr:street":"Blackmore Road","addr:postcode":"SN12 7HU","brand:wikidata":"Q3277439","brand:wikipedia":"en:Co-op Food","addr:housenumber":"2"}}, "geometry":{"type":"MultiPolygon","coordinates":[[[[-2.12513,51.37642],[-2.12524,51.37667],[-2.12486,51.37674],[-2.12475,51.37649],[-2.12513,51.37642]]]]}},
{ "type":"Feature","properties":{"osm_way_id":"377436364","name":"Tesco","building":"yes","shop":"supermarket","other":{"addr:city":"Tidworth","addr:postcode":"SP9 7NR","addr:street":"Station Road","branch":"Tidworth Superstore","brand":"Tesco","brand:wikidata":"Q487494","brand:wikipedia":"en:Tesco","opening_hours":"Mo-Sa 06:00-24:00 Su 10:00-16:00","toilets:wheelchair":"yes","wheelchair":"yes"}}, "geometry":{"type":"MultiPolygon","coordinates":[[[[-1.66147,51.23447],[-1.66147,51.23449],[-1.66159,51.2345],[-1.6616,51.23446],[-1.66161,51.23441],[-1.66161,51.2344],[-1.66159,51.2344],[-1.66165,51.23402],[-1.66169,51.23402],[-1.6617,51.23398],[-1.66171,51.2339],[-1.66168,51.2339],[-1.66171,51.23377],[-1.66119,51.23373],[-1.66118,51.23376],[-1.6607,51.23372],[-1.66022,51.23399],[-1.66016,51.23436],[-1.66026,51.23437],[-1.66026,51.2344],[-1.66074,51.23443],[-1.66075,51.23442],[-1.66086,51.23443],[-1.66086,51.23445],[-1.66099,51.23446],[-1.661,51.23444],[-1.66111,51.23444],[-1.66111,51.23446],[-1.66125,51.23448],[-1.66126,51.23445],[-1.66147,51.23447]]]]}},
{ "type":"Feature","properties":{"osm_way_id":"380458621","name":"Co-op Food","building":"retail","shop":"supermarket","other":{"addr:city":"Ludgershall","addr:postcode":"SP11 9LU","addr:street":"Andover Road","brand":"Co-op Food","brand:wikidata":"Q3277439","brand:wikipedia":"en:Co-op Food","opening_hours":"Mo-Su 06:00-22:00","opening_hours:covid19":"Mo-Su 07:00-22:00","operator":"Co-operative Group Ltd","payment:cards":"yes","payment:cash":"yes","payment:contactless":"yes"}}, "geometry":{"type":"MultiPolygon","coordinates":[[[[-1.61962,51.25499],[-1.6197,51.2548],[-1.61902,51.25469],[-1.61899,51.25477],[-1.61907,51.25479],[-1.61904,51.25487],[-1.61945,51.25494],[-1.61945,51.25496],[-1.61962,51.25499]]]]}},
{ "type":"Feature","properties":{"osm_way_id":"423499908","name":"Lidl","building":"yes","shop":"supermarket","other":{"addr:city":"Tidworth","addr:country":"GB","addr:postcode":"SP9 7SU","addr:street":"Pennings Road","branch":"Tidworth","brand":"Lidl","brand:wikidata":"Q151954","fhrs:id":"262734","opening_hours":"Mo-Sa 08:00-21:00; Su 10:00-16:00"}}, "geometry":{"type":"MultiPolygon","coordinates":[[[[-1.66173,51.23538],[-1.66198,51.2354],[-1.66197,51.23544],[-1.6621,51.23545],[-1.6621,51.23541],[-1.66251,51.23544],[-1.66256,51.23519],[-1.66178,51.23512],[-1.66173,51.23538]]]]}},
{ "type":"Feature","properties":{"osm_way_id":"586593185","name":"Tesco","building":"yes","shop":"supermarket","other":{"brand":"Tesco","opening_hours":"Mo-Sa 06:00-23:00, Su 10:00-16:00","brand:wikidata":"Q487494","brand:wikipedia":"en:Tesco"}}, "geometry":{"type":"MultiPolygon","coordinates":[[[[-1.99416,51.45449],[-1.99347,51.45437],[-1.99348,51.45434],[-1.99338,51.45433],[-1.99327,51.45418],[-1.99348,51.45373],[-1.99343,51.45373],[-1.9935,51.45358],[-1.99354,51.45359],[-1.99368,51.45323],[-1.99406,51.45329],[-1.9939,51.45367],[-1.99444,51.45376],[-1.99417,51.45445],[-1.99416,51.45449]]]]}},
{ "type":"Feature","properties":{"osm_way_id":"667896456","name":"Lidl","building":"yes","shop":"supermarket","other":{"addr:country":"GB","addr:postcode":"SN14 0JW","addr:street":"Hungerdown Lane","brand":"Lidl","brand:wikidata":"Q151954","brand:wikipedia":"en:Lidl","fhrs:id":"1111771"}}, "geometry":{"type":"MultiPolygon","coordinates":[[[[-2.13789,51.46629],[-2.13835,51.46563],[-2.13822,51.46559],[-2.13819,51.46563],[-2.13792,51.46554],[-2.13786,51.46563],[-2.1376,51.46598],[-2.13754,51.46597],[-2.13742,51.46616],[-2.1378,51.46627],[-2.13789,51.46629]]]]}},
{ "type":"Feature","properties":{"osm_way_id":"688388398","name":"Aldi","building":"yes","shop":"supermarket","other":{"addr:postcode":"SN15 1JB","addr:street":"Foundry Lane","brand":"ALDI","brand:wikidata":"Q41171672","brand:wikipedia":"en:Aldi","source:addr:postcode":"code-point_open"}}, "geometry":{"type":"MultiPolygon","coordinates":[[[[-2.1132,51.4639],[-2.11327,51.46416],[-2.11336,51.46448],[-2.11337,51.46454],[-2.11354,51.46452],[-2.11353,51.46446],[-2.11383,51.46443],[-2.11373,51.4639],[-2.1132,51.4639]]]]}},
{ "type":"Feature","properties":{"osm_way_id":"725278180","name":"Aldi","building":"yes","shop":"supermarket","other":{"brand":"ALDI","brand:wikidata":"Q41171672","brand:wikipedia":"en:Aldi"}}, "geometry":{"type":"MultiPolygon","coordinates":[[[[-1.77819,51.08292],[-1.77781,51.08277],[-1.778,51.08258],[-1.77793,51.08256],[-1.77799,51.0825],[-1.77801,51.08251],[-1.77808,51.08244],[-1.77813,51.08246],[-1.7782,51.08239],[-1.77858,51.08254],[-1.77819,51.08292]]]]}},
{ "type":"Feature","properties":{"osm_way_id":"839936916","name":"Co-op Food","building":"retail","shop":"supermarket","other":{"brand":"Co-op Food","brand:wikidata":"Q3277439","brand:wikipedia":"en:Co-op Food","operator":"The Co-operative Group","operator:wikidata":"Q117202","operator:wikipedia":"en:The Co-operative Group","wikidata":"Q26669906"}}, "geometry":{"type":"MultiPolygon","coordinates":[[[[-2.21295,51.57179],[-2.2129,51.57188],[-2.21289,51.57187],[-2.21288,51.5719],[-2.21286,51.5719],[-2.21281,51.572],[-2.21277,51.57199],[-2.21258,51.57195],[-2.21263,51.57186],[-2.21271,51.57187],[-2.21274,51.57181],[-2.21262,51.57179],[-2.21265,51.57173],[-2.21273,51.57175],[-2.21277,51.57168],[-2.21295,51.57172],[-2.21292,51.57178],[-2.21295,51.57179]]]]}},
{ "type":"Feature","properties":{"osm_way_id":"870461187","name":"ALDI","building":"yes","shop":"supermarket","other":{"brand":"ALDI","brand:wikidata":"Q41171672","brand:wikipedia":"en:Aldi"}}, "geometry":{"type":"MultiPolygon","coordinates":[[[[-2.18539,51.2582],[-2.18524,51.25815],[-2.1853,51.25807],[-2.185,51.25798],[-2.18531,51.25757],[-2.18569,51.25768],[-2.18553,51.25789],[-2.18561,51.25791],[-2.18539,51.2582]]]]}},
{ "type":"Feature","properties":{"osm_way_id":"906212756","name":"M&S Simply Food","building":"retail","shop":"supermarket","other":{"addr:city":"Devizes","addr:postcode":"SN10 1DW","addr:street":"Maryport Street","brand":"M&S Simply Food","brand:wikidata":"Q714491","brand:wikipedia":"en:Marks & Spencer","building:levels":"3","fhrs:id":"263483","nohousenumber":"yes","opening_hours":"Mo-Sa 08:00-20:00; Su 10:00-16:00","roof:shape":"flat"}}, "geometry":{"type":"MultiPolygon","coordinates":[[[[-1.99337,51.35258],[-1.9934,51.35261],[-1.99338,51.35262],[-1.99347,51.35272],[-1.99354,51.3527],[-1.99354,51.3527],[-1.99355,51.35271],[-1.9936,51.35277],[-1.99351,51.3528],[-1.99355,51.35285],[-1.99334,51.35292],[-1.9933,51.35287],[-1.99319,51.35273],[-1.99315,51.35269],[-1.99328,51.35261],[-1.99337,51.35258]]]]}},
{ "type":"Feature","properties":{"osm_way_id":"964427447","name":"Lidl","building":"yes","shop":"supermarket","other":{"addr:country":"GB","addr:housename":"Magistrates Court","addr:street":"Pewsham Way","brand":"Lidl","brand:wikidata":"Q151954","brand:wikipedia":"en:Lidl","fhrs:id":"1408210"}}, "geometry":{"type":"MultiPolygon","coordinates":[[[[-2.11165,51.45262],[-2.11089,51.45267],[-2.11082,51.45232],[-2.11158,51.45226],[-2.11165,51.45262]]]]}},
{ "type":"Feature","properties":{"osm_way_id":"1009705421","name":"The Little Eco Shop","building":"yes","shop":"supermarket","other":{"addr:city":"Devizes","addr:street":"Couch Lane","building:levels":"1","opening_hours":"Tu-Sa 10:00-15:00","roof:shape":"gabled"}}, "geometry":{"type":"MultiPolygon","coordinates":[[[[-1.99472,51.35453],[-1.99476,51.35446],[-1.99465,51.35443],[-1.99461,51.3545],[-1.99472,51.35453]]]]}}
]
}
