{
"type": "FeatureCollection",
"features": [
{ "type":"Feature","properties":{"osm_id":"775307323","name":"Co-Op","other":{"shop":"supermarket"}}, "geometry":{"type":"Point","coordinates":[-0.77932,51.35265 ]}},
{ "type":"Feature","properties":{"osm_id":"2281813556","name":"Co-op Food","other":{"alt_name":"Co-op","brand":"Co-op Food","brand:wikidata":"Q3277439","brand:wikipedia":"en:Co-op Food","shop":"supermarket","wheelchair":"yes"}}, "geometry":{"type":"Point","coordinates":[-0.79301,51.36851 ]}},
{ "type":"Feature","properties":{"osm_id":"3080329829","name":"Coop","other":{"shop":"supermarket"}}, "geometry":{"type":"Point","coordinates":[-0.76432,51.42155 ]}},
{ "type":"Feature","properties":{"osm_id":"3132281283","name":"Aldi","other":{"addr:city":"Bracknell","addr:housenumber":"136","addr:postcode":"RG12 7DE","addr:street":"Liscombe","brand":"ALDI","brand:wikidata":"Q41171672","brand:wikipedia":"en:Aldi","fhrs:id":"985705","shop":"supermarket"}}, "geometry":{"type":"Point","coordinates":[-0.75246,51.392 ]}},
{ "type":"Feature","properties":{"osm_id":"4140456436","name":"The Co-operative Food","other":{"shop":"supermarket","addr:city":"Binfield","addr:street":"Oakmede Place","addr:postcode":"RG42 4JF","opening_hours":"Mo-Su 07:00-21:00","addr:housenumber":"6-7"}}, "geometry":{"type":"Point","coordinates":[-0.79055,51.43077 ]}},
{ "type":"Feature","properties":{"osm_id":"6780634892","name":"Co-Op Food","other":{"shop":"supermarket","website":"https:\/\/finder.coop.co.uk\/food\/store\/RG12-8QD\/falcon-way"}}, "geometry":{"type":"Point","coordinates":[-0.78282,51.40474 ]}},
{ "type":"Feature","properties":{"osm_id":"6780635426","name":"Co-Op Food","other":{"shop":"supermarket"}}, "geometry":{"type":"Point","coordinates":[-0.78978,51.43137 ]}},
{ "type":"Feature","properties":{"osm_way_id":"49713284","name":"Tesco","building":"yes","shop":"supermarket","other":{"brand":"Tesco","brand:wikidata":"Q487494","brand:wikipedia":"en:Tesco","layer":"-1","location":"surface","wheelchair":"yes"}}, "geometry":{"type":"MultiPolygon","coordinates":[[[[-0.72553,51.40841],[-0.72584,51.40786],[-0.72434,51.40754],[-0.72401,51.40805],[-0.72421,51.40809],[-0.72408,51.4083],[-0.72515,51.40853],[-0.7252,51.40844],[-0.72528,51.40846],[-0.72553,51.40841]]]]}},
{ "type":"Feature","properties":{"osm_way_id":"53568972","name":"Sainsbury's","building":"yes","shop":"supermarket","other":{"brand":"Sainsbury's","brand:wikidata":"Q152096","brand:wikipedia":"en:Sainsbury's","source:building":"OS_OpenData_StreetView","toilets:wheelchair":"yes","wheelchair":"yes"}}, "geometry":{"type":"MultiPolygon","coordinates":[[[[-0.74142,51.39261],[-0.74069,51.39313],[-0.74058,51.39309],[-0.74032,51.39326],[-0.73953,51.39277],[-0.74006,51.3924],[-0.73988,51.39231],[-0.7401,51.39216],[-0.74016,51.3922],[-0.74021,51.39217],[-0.74033,51.39224],[-0.74044,51.39217],[-0.74063,51.39228],[-0.74071,51.39222],[-0.74142,51.39261]]]]}},
{ "type":"Feature","properties":{"osm_way_id":"65620907","name":"Aldi","building":"yes","shop":"supermarket","other":{"brand":"ALDI","brand:wikidata":"Q41171672","brand:wikipedia":"en:Aldi","contact:website":"https:\/\/www.aldi.co.uk\/store\/s-uk-E1403"}}, "geometry":{"type":"MultiPolygon","coordinates":[[[[-0.77799,51.34049],[-0.77792,51.34054],[-0.77795,51.34057],[-0.77758,51.34086],[-0.777,51.34059],[-0.777,51.34054],[-0.7774,51.34022],[-0.7775,51.34022],[-0.77799,51.34049]]]]}},
{ "type":"Feature","properties":{"osm_way_id":"72351641","name":"Tesco Bracknell North","building":"yes","shop":"supermarket","other":{"addr:city":"Bracknell","addr:postcode":"RG42 3JP","addr:street":"County Lane","brand":"Tesco","brand:wikidata":"Q487494","brand:wikipedia":"en:Tesco"}}, "geometry":{"type":"MultiPolygon","coordinates":[[[[-0.73069,51.42744],[-0.73079,51.42688],[-0.73084,51.42689],[-0.73087,51.42674],[-0.73084,51.42674],[-0.73088,51.42655],[-0.73091,51.42655],[-0.73094,51.42641],[-0.7313,51.42643],[-0.73148,51.42645],[-0.73154,51.42645],[-0.73154,51.42642],[-0.73173,51.42643],[-0.73192,51.42657],[-0.73189,51.4267],[-0.73197,51.42671],[-0.73189,51.42712],[-0.73178,51.42712],[-0.73176,51.42721],[-0.73155,51.42719],[-0.7315,51.42746],[-0.7315,51.42746],[-0.73149,51.4275],[-0.73136,51.42749],[-0.73127,51.42748],[-0.73102,51.42747],[-0.73069,51.42744]]]]}},
{ "type":"Feature","properties":{"osm_way_id":"99338240","name":"Morrisons","building":"retail","shop":"supermarket","other":{"brand":"Morrisons","alt_name":"Morrisons Bracknell","operator":"Morrisons","addr:city":"Bracknell","addr:street":"Skimped Hill Lane","addr:postcode":"RG12 1EN","addr:housename":"The Peel Centre","brand:wikidata":"Q922344","brand:wikipedia":"en:Morrisons","addr:housenumber":"Unit 1"}}, "geometry":{"type":"MultiPolygon","coordinates":[[[[-0.75847,51.41433],[-0.75802,51.41394],[-0.75868,51.41366],[-0.75914,51.4137],[-0.75935,51.41391],[-0.759,51.41406],[-0.75903,51.41409],[-0.75847,51.41433]]]]}},
{ "type":"Feature","properties":{"osm_way_id":"175968074","name":"Lidl","building":"yes","shop":"supermarket","other":{"addr:city":"Crowthorne","addr:country":"GB","addr:housenumber":"80","addr:postcode":"RG45 7BE","addr:street":"High Street","brand":"Lidl","brand:wikidata":"Q151954","brand:wikipedia":"en:Lidl","fhrs:id":"985535","source:building":"OS_OpenData_StreetView","wheelchair":"yes"}}, "geometry":{"type":"MultiPolygon","coordinates":[[[[-0.79367,51.36906],[-0.79348,51.36931],[-0.79299,51.36916],[-0.79318,51.36891],[-0.79367,51.36906]]]]}},
{ "type":"Feature","properties":{"osm_way_id":"185801521","name":"Tesco Extra","building":"yes","shop":"supermarket","other":{"brand":"Tesco Extra","fhrs:id":"518140","wheelchair":"yes","addr:street":"Marshall Road","addr:postcode":"GU47 0FD","addr:housename":"The Meadows","brand:wikidata":"Q25172225","brand:wikipedia":"en:Tesco Extra","toilets:wheelchair":"yes","source:addr:postcode":"FSA Food Hygiene Ratings Database"}}, "geometry":{"type":"MultiPolygon","coordinates":[[[[-0.77554,51.33557],[-0.77449,51.33615],[-0.77245,51.33479],[-0.77243,51.33469],[-0.77248,51.33466],[-0.77286,51.33492],[-0.77303,51.33481],[-0.7729,51.33471],[-0.77303,51.33464],[-0.77324,51.33478],[-0.7737,51.33454],[-0.77512,51.33545],[-0.77534,51.33545],[-0.77554,51.33557]]]]}},
{ "type":"Feature","properties":{"osm_way_id":"369702333","name":"Waitrose","building":"retail","shop":"supermarket","other":{"addr:city":"Bracknell","addr:postcode":"RG12 1RQ","addr:street":"Bond Way","addr:unit":"1","alt_name":"Waitrose Bracknell","brand":"Waitrose","brand:wikidata":"Q771734","brand:wikipedia":"en:Waitrose & Partners","building:levels":"1","official_name":"Waitrose & Partners","operator":"Waitrose & Partners","payment:apple_pay":"yes","payment:card":"yes","payment:cash":"yes","payment:coins":"yes","roof:levels":"0"}}, "geometry":{"type":"MultiPolygon","coordinates":[[[[-0.7526,51.4186],[-0.75264,51.41799],[-0.75181,51.41796],[-0.75176,51.41858],[-0.7526,51.4186]]]]}},
{ "type":"Feature","properties":{"osm_way_id":"874952626","name":"Londis","building":"commercial","shop":"supermarket","other":{"addr:city":"Bracknell","addr:housenumber":"25A","addr:street":"Binfield Road","brand":"Londis","brand:wikidata":"Q21008564","brand:wikipedia":"en:Londis (United Kingdom)","smoking":"no"}}, "geometry":{"type":"MultiPolygon","coordinates":[[[[-0.75908,51.42127],[-0.75898,51.42132],[-0.75904,51.42136],[-0.75917,51.42146],[-0.75927,51.42141],[-0.75908,51.42127]]]]}}
]
}
