{
"type": "FeatureCollection",
"features": [
{ "type":"Feature","properties":{"osm_id":"2566365536","name":"ALDI","other":{"addr:city":"Swadlincote","addr:postcode":"DE11 9AA","addr:street":"Coppice Side","brand":"ALDI","brand:wikidata":"Q41171672","brand:wikipedia":"en:Aldi","fhrs:id":"611347","shop":"supermarket"}}, "geometry":{"type":"Point","coordinates":[-1.55526,52.77084 ]}},
{ "type":"Feature","properties":{"osm_id":"3481375348","name":"Select and Save","other":{"shop":"supermarket","fhrs:id":"769293","addr:city":"Swadlincote","addr:street":"Union Road","addr:postcode":"DE11 0QF","addr:housenumber":"17A"}}, "geometry":{"type":"Point","coordinates":[-1.56259,52.78104 ]}},
{ "type":"Feature","properties":{"osm_way_id":"58950015","name":"Morrisons","building":"yes","shop":"supermarket","other":{"addr:city":"Swadlincote","addr:postcode":"DE11 8JJ","addr:street":"Coppice Side","brand":"Morrisons","brand:wikidata":"Q922344","brand:wikipedia":"en:Morrisons","fhrs:id":"241281","not:addr:postcode":"DE11 9AA","operator":"Morrisons"}}, "geometry":{"type":"MultiPolygon","coordinates":[[[[-1.55659,52.77217],[-1.55628,52.7728],[-1.55548,52.77266],[-1.55542,52.77273],[-1.5552,52.77269],[-1.55548,52.7721],[-1.55548,52.77209],[-1.55552,52.7721],[-1.55556,52.77204],[-1.55575,52.77208],[-1.55576,52.77201],[-1.55659,52.77217]]]]}},
{ "type":"Feature","properties":{"osm_way_id":"86612691","name":"The Co-operative Food","building":"yes","shop":"supermarket","other":{"addr:city":"Hatton","addr:postcode":"DE65 5EL","addr:street":"Station Road","fhrs:id":"241268","operator":"Central England Co-operative Society"}}, "geometry":{"type":"MultiPolygon","coordinates":[[[[-1.68291,52.86434],[-1.68279,52.86468],[-1.68255,52.86465],[-1.68267,52.86431],[-1.68291,52.86434]]]]}},
{ "type":"Feature","properties":{"osm_way_id":"110186973","name":"The Co-operative Food","building":"yes","shop":"supermarket","other":{"addr:city":"Willington","addr:housenumber":"4","addr:postcode":"DE65 6BX","addr:street":"Repton Road","fhrs:id":"746295"}}, "geometry":{"type":"MultiPolygon","coordinates":[[[[-1.56556,52.85251],[-1.56503,52.85256],[-1.56499,52.85243],[-1.56517,52.85241],[-1.56517,52.85242],[-1.56552,52.85238],[-1.56556,52.85251]]]]}},
{ "type":"Feature","properties":{"osm_way_id":"152963308","name":"Sainsbury's","building":"commercial","shop":"supermarket","other":{"addr:city":"Swadlincote","addr:postcode":"DE11 0AD","addr:street":"Civic Way","brand":"Sainsbury's","brand:wikidata":"Q152096","brand:wikipedia":"en:Sainsbury's","contact:website":"https:\/\/stores.sainsburys.co.uk\/0753\/swadlincote","fhrs:id":"283276","opening_hours":"Mo-Sa 07:00-22:00, Su 09:00-16:00","operator":"J Sainsbury's PLC","phone":"+44 1283226792"}}, "geometry":{"type":"MultiPolygon","coordinates":[[[[-1.56514,52.7733],[-1.5652,52.77348],[-1.56524,52.77359],[-1.56452,52.7737],[-1.56454,52.77374],[-1.56424,52.77378],[-1.56422,52.77374],[-1.56407,52.77377],[-1.56402,52.77381],[-1.56394,52.77378],[-1.56383,52.7735],[-1.56376,52.77351],[-1.56369,52.77333],[-1.56386,52.7733],[-1.56384,52.77326],[-1.56391,52.77325],[-1.56389,52.7732],[-1.56418,52.77316],[-1.56414,52.77305],[-1.56424,52.77304],[-1.56497,52.77293],[-1.56514,52.7733]]]]}},
{ "type":"Feature","properties":{"osm_way_id":"261066084","name":"Lidl","building":"yes","shop":"supermarket","other":{"brand":"Lidl","fhrs:id":"234127","addr:city":"Swadlincote","addr:street":"Belmont Street","addr:postcode":"DE11 8JU","brand:wikidata":"Q151954","brand:wikipedia":"en:Lidl"}}, "geometry":{"type":"MultiPolygon","coordinates":[[[[-1.55567,52.77574],[-1.55662,52.77561],[-1.55693,52.77557],[-1.55685,52.77541],[-1.55663,52.77537],[-1.5566,52.77543],[-1.55635,52.77543],[-1.5559,52.77549],[-1.55589,52.77546],[-1.55557,52.7755],[-1.55567,52.77574]]]]}},
{ "type":"Feature","properties":{"osm_way_id":"435051002","name":"ALDI","building":"yes","shop":"supermarket","other":{"addr:city":"Hilton","addr:postcode":"DE65 5JR","addr:street":"Huntspill Road","brand":"ALDI","brand:wikidata":"Q41171672","brand:wikipedia":"en:Aldi","fhrs:id":"643770","opening_hours":"Mo-Sa 08:00-22:00; Su 10:00-16:00"}}, "geometry":{"type":"MultiPolygon","coordinates":[[[[-1.62929,52.8712],[-1.62918,52.87109],[-1.62905,52.87113],[-1.62897,52.87106],[-1.62854,52.87121],[-1.62852,52.87118],[-1.62821,52.8713],[-1.62841,52.87151],[-1.62929,52.8712]]]]}},
{ "type":"Feature","properties":{"osm_way_id":"633640675","name":"ALDI","building":"retail","shop":"supermarket","other":{"addr:city":"Derby","addr:postcode":"DE73 6WS","addr:street":"Riber Drive","brand":"ALDI","brand:wikidata":"Q41171672","brand:wikipedia":"en:Aldi","fhrs:id":"1170633"}}, "geometry":{"type":"MultiPolygon","coordinates":[[[[-1.43559,52.86107],[-1.43528,52.86105],[-1.43528,52.86101],[-1.4351,52.861],[-1.43501,52.86157],[-1.43515,52.86158],[-1.43515,52.86156],[-1.43554,52.86158],[-1.43558,52.86135],[-1.43554,52.86135],[-1.43559,52.86107]]]]}},
{ "type":"Feature","properties":{"osm_way_id":"670547352","name":"Co-op Food","building":"yes","shop":"supermarket","other":{"addr:city":"Derby","addr:postcode":"DE23 3AT","addr:street":"Tutbury Avenue","addr:unit":"2","brand":"Co-op Food","brand:wikidata":"Q3277439","brand:wikipedia":"en:Co-op Food","fhrs:id":"1080166","operator":"Central England Co-operative"}}, "geometry":{"type":"MultiPolygon","coordinates":[[[[-1.53,52.88807],[-1.52989,52.88794],[-1.52979,52.88781],[-1.52957,52.88787],[-1.52978,52.88813],[-1.53,52.88807]]]]}}
]
}
