{
"type": "FeatureCollection",
"features": [
{ "type":"Feature","properties":{"osm_id":"1585064711","ref":"LA23 95","other":{"amenity":"post_box","operator":"Royal Mail","royal_cypher":"VR","post_box:type":"wall","collection_times":"Mo-Fr 17:00; Sa 12:00"}}, "geometry":{"type":"Point","coordinates":[-2.90419,54.38021 ]}},
{ "type":"Feature","properties":{"osm_id":"2285564974","name":"Cartmel Cheeses","other":{"addr:city":"Cartmel","addr:housename":"Unsworth's Yard","addr:housenumber":"1","addr:postcode":"LA11 6PN","addr:street":"Unsworth's Yard","fhrs:id":"299072","phone":"+44 15395 58623","shop":"supermarket","website":"https:\/\/www.cartmelcheeses.co.uk\/"}}, "geometry":{"type":"Point","coordinates":[-2.95313,54.20058 ]}},
{ "type":"Feature","properties":{"osm_id":"2908529784","name":"Tesco Express","other":{"addr:city":"Ambleside","addr:postcode":"LA22 9BU","addr:street":"Market Place","alt_name":"Tesco Ambleside Express","brand":"Tesco Express","brand:wikidata":"Q98456772","contact:website":"https:\/\/www.tesco.com\/store-locator\/ambleside\/market-place","fhrs:id":"441595","opening_hours":"Mo-Su 07:00-23:00","phone":"+44 1539 879740","shop":"supermarket"}}, "geometry":{"type":"Point","coordinates":[-2.96248,54.43151 ]}},
{ "type":"Feature","properties":{"osm_id":"3030738875","other":{"disused:amenity":"atm"}}, "geometry":{"type":"Point","coordinates":[-2.90374,54.38003 ]}},
{ "type":"Feature","properties":{"osm_id":"4099719623","name":"Spar","other":{"addr:city":"Ulverston","addr:street":"Central Drive","brand":"Spar","brand:wikidata":"Q610492","brand:wikipedia":"en:SPAR (retailer)","shop":"supermarket"}}, "geometry":{"type":"Point","coordinates":[-3.09259,54.18249 ]}},
{ "type":"Feature","properties":{"osm_way_id":"45850679","name":"Booths","building":"yes","shop":"supermarket","other":{"addr:city":"Ulverston","addr:postcode":"LA12 7LY","addr:street":"Canal Street","brand":"Booths","brand:wikidata":"Q4943949","brand:wikipedia":"en:Booths","fhrs:id":"299767","website":"https:\/\/www.booths.co.uk\/store\/ulverston\/"}}, "geometry":{"type":"MultiPolygon","coordinates":[[[[-3.08296,54.19889],[-3.08289,54.19887],[-3.08287,54.19889],[-3.08271,54.19886],[-3.08266,54.19893],[-3.08238,54.19886],[-3.0824,54.19882],[-3.08219,54.19877],[-3.08255,54.19827],[-3.08301,54.19838],[-3.08296,54.19846],[-3.08321,54.19852],[-3.08309,54.19871],[-3.08316,54.19876],[-3.083,54.19883],[-3.08296,54.19889]]]]}},
{ "type":"Feature","properties":{"osm_way_id":"69724461","name":"Morrisons","building":"retail","shop":"supermarket","other":{"addr:city":"Kendal","addr:postcode":"LA9 6DU","addr:street":"Queen Katherines Avenue","brand":"Morrisons","brand:wikidata":"Q922344","brand:wikipedia":"en:Morrisons","building:levels":"1","fhrs:id":"299263","opening_hours":"Mo-Sa 07:00-22:00; Su 10:00-16:00","operator":"Wm Morrisons","phone":"+44 1539 734554","roof:levels":"1","website":"https:\/\/my.morrisons.com\/storefinder\/55"}}, "geometry":{"type":"MultiPolygon","coordinates":[[[[-2.73431,54.34121],[-2.73459,54.34113],[-2.73457,54.34111],[-2.73488,54.34102],[-2.7349,54.341],[-2.73496,54.34098],[-2.73501,54.34099],[-2.73504,54.34095],[-2.73522,54.34099],[-2.7352,54.34103],[-2.73524,54.34103],[-2.73529,54.34107],[-2.73528,54.34108],[-2.73541,54.34125],[-2.73526,54.34129],[-2.73559,54.34169],[-2.73471,54.34194],[-2.73474,54.34198],[-2.73444,54.34207],[-2.73432,54.34191],[-2.73445,54.34188],[-2.73407,54.34141],[-2.73405,54.34139],[-2.73438,54.3413],[-2.73431,54.34121]]]]}},
{ "type":"Feature","properties":{"osm_way_id":"69725089","name":"Aldi","building":"retail","shop":"supermarket","other":{"addr:city":"Kendal","addr:country":"GB","addr:postcode":"LA9 6DU","addr:street":"Queen Katherines Avenue","brand":"ALDI","brand:wikidata":"Q41171672","brand:wikipedia":"en:Aldi","contact:phone":"+44 800 042 0800","contact:website":"https:\/\/www.aldi.co.uk\/store\/s-uk-E0145","fhrs:id":"299748"}}, "geometry":{"type":"MultiPolygon","coordinates":[[[[-2.73472,54.33974],[-2.73516,54.33982],[-2.73499,54.34014],[-2.73506,54.34015],[-2.73499,54.34028],[-2.73448,54.34019],[-2.73472,54.33974]]]]}},
{ "type":"Feature","properties":{"osm_way_id":"71356711","name":"Booths","building":"yes","shop":"supermarket","other":{"addr:city":"Kendal","addr:housenumber":"11","addr:postcode":"LA9 4DP","addr:street":"Wainwright's Yard","brand:wikidata":"Q4943949","fhrs:id":"299857","operator":"Booths","phone":"+44 1539 742370","website":"https:\/\/www.booths.co.uk\/store\/kendal\/"}}, "geometry":{"type":"MultiPolygon","coordinates":[[[[-2.74906,54.32788],[-2.74906,54.32809],[-2.74906,54.3281],[-2.74906,54.32822],[-2.749,54.32822],[-2.749,54.32824],[-2.74851,54.32824],[-2.74851,54.32822],[-2.74846,54.32822],[-2.74846,54.32788],[-2.74906,54.32788]]]]}},
{ "type":"Feature","properties":{"osm_way_id":"83823098","name":"Asda","building":"yes","shop":"supermarket","other":{"brand":"Asda","fhrs:id":"299678","operator":"Asda Stores Ltd","addr:city":"Kendal","addr:street":"Burton Road","addr:country":"GB","addr:postcode":"LA9 7JA","contact:phone":"+44 1539 741416","opening_hours":"Mo 07:00-24:00, Tu-Fr 00:00-24:00, Sa 00:00-22:00, Su 10:00-16:00","brand:wikidata":"Q297410","brand:wikipedia":"en:Asda","contact:website":"https:\/\/storelocator.asda.com\/north-west\/kendal\/burton-road","opening_hours:covid19":"Mo-Sa 08:00-22:00; Su 10:00-16:00"}}, "geometry":{"type":"MultiPolygon","coordinates":[[[[-2.73502,54.30962],[-2.7348,54.3097],[-2.73488,54.30977],[-2.73476,54.30982],[-2.7348,54.30985],[-2.73462,54.30992],[-2.73458,54.30988],[-2.73419,54.31004],[-2.73413,54.30998],[-2.73373,54.31013],[-2.73367,54.31008],[-2.7336,54.31011],[-2.73319,54.30976],[-2.73326,54.30973],[-2.73316,54.30964],[-2.73382,54.30938],[-2.73376,54.30933],[-2.73409,54.3092],[-2.73405,54.30916],[-2.73435,54.30904],[-2.73502,54.30962]]]]}},
{ "type":"Feature","properties":{"osm_way_id":"121542267","name":"Booths","building":"retail","shop":"supermarket","other":{"addr:city":"Windermere","addr:housename":"The Old Station","addr:postcode":"LA23 1QA","addr:street":"Victoria Street","alt_name":"Booths Windermere","brand":"Booths","brand:wikidata":"Q4943949","brand:wikipedia":"en:Booths","fhrs:id":"299055","not:addr:postcode":"LA23 1AH","opening_hours":"Mo-Sa 08:00-21:00; Su 09:30-16:00","operator":"Booths","phone":"+44 15394 46114","website":"https:\/\/www.booths.co.uk\/store\/windermere\/"}}, "geometry":{"type":"MultiPolygon","coordinates":[[[[-2.9041,54.37958],[-2.90448,54.37987],[-2.90426,54.37996],[-2.90439,54.38006],[-2.90434,54.38008],[-2.90439,54.38012],[-2.90419,54.38021],[-2.90416,54.38023],[-2.90415,54.38022],[-2.90411,54.38019],[-2.90408,54.38017],[-2.90402,54.38019],[-2.90393,54.38012],[-2.90385,54.38006],[-2.90381,54.38008],[-2.90374,54.38003],[-2.90373,54.38003],[-2.90364,54.37996],[-2.90351,54.37986],[-2.90353,54.37985],[-2.90351,54.37984],[-2.9036,54.37979],[-2.90359,54.37978],[-2.90374,54.37972],[-2.90366,54.37966],[-2.90374,54.37962],[-2.90383,54.37969],[-2.90386,54.37968],[-2.9038,54.37964],[-2.90393,54.37958],[-2.90399,54.37962],[-2.9041,54.37958]]]]}},
{ "type":"Feature","properties":{"osm_way_id":"253463863","name":"Co-op Food","building":"yes","shop":"supermarket","other":{"addr:postcode":"LA11 7EY","addr:street":"Kents Bank Road","alt_name":"The Co-operative Food","brand":"Co-op Food","brand:wikidata":"Q3277439","brand:wikipedia":"en:Co-op Food","operator":"The Co-operative Group"}}, "geometry":{"type":"MultiPolygon","coordinates":[[[[-2.91242,54.19217],[-2.912,54.19214],[-2.91198,54.19225],[-2.91224,54.19227],[-2.91239,54.19228],[-2.91241,54.19222],[-2.91242,54.19217]]]]}},
{ "type":"Feature","properties":{"osm_way_id":"319616231","name":"Co-op Food","building":"yes","shop":"supermarket","other":{"addr:city":"Ulverston","addr:street":"Priory Road","brand":"Co-op Food","brand:wikidata":"Q3277439","brand:wikipedia":"en:Co-op Food","operator":"The Co-operative Group"}}, "geometry":{"type":"MultiPolygon","coordinates":[[[[-3.08812,54.18638],[-3.08817,54.18652],[-3.08787,54.18656],[-3.08782,54.18642],[-3.08812,54.18638]]]]}},
{ "type":"Feature","properties":{"osm_way_id":"336579904","name":"Booths","building":"commercial","shop":"supermarket","other":{"addr:city":"Kirkby Lonsdale","addr:postcode":"LA6 2HG","addr:street":"Dodgson Croft","alt_name":"Booths Kirkby Lonsdale","brand:wikidata":"Q4943949","fhrs:id":"298857","opening_hours":"Mo-Sa 08:00-21:00; Su 09:30-16:00","opening_hours:url":"http:\/\/www.booths.co.uk\/store\/kirkby-lonsdale\/","phone":"+44 15242 73443","website":"https:\/\/www.booths.co.uk\/store\/kirkby-lonsdale\/"}}, "geometry":{"type":"MultiPolygon","coordinates":[[[[-2.60098,54.2009],[-2.60097,54.20077],[-2.60045,54.20078],[-2.60045,54.20083],[-2.60036,54.20083],[-2.60034,54.2009],[-2.60027,54.20091],[-2.60025,54.20097],[-2.60021,54.20097],[-2.60023,54.20112],[-2.60094,54.2011],[-2.60093,54.20091],[-2.60098,54.2009]]]]}},
{ "type":"Feature","properties":{"osm_way_id":"361034914","name":"Booths","building":"yes","shop":"supermarket","other":{"addr:city":"Milnthorpe","addr:housename":"Houghtons Coachworks","addr:postcode":"LA7 7AD","addr:street":"Park Road","brand:wikidata":"Q4943949","contact:phone":"+44 15395 64217","contact:website":"https:\/\/www.booths.co.uk\/store\/milnthorpe\/","fhrs:id":"510924"}}, "geometry":{"type":"MultiPolygon","coordinates":[[[[-2.77547,54.22769],[-2.77608,54.22772],[-2.77613,54.22744],[-2.77552,54.22741],[-2.77547,54.22769]]]]}},
{ "type":"Feature","properties":{"osm_way_id":"381962617","name":"Spar","building":"yes","shop":"supermarket","other":{"addr:city":"Troutbeck Bridge","addr:postcode":"LA23 1HS","brand":"Spar","brand:wikidata":"Q610492","brand:wikipedia":"en:Spar (retailer)","fhrs:id":"299106","opening_hours":"07:00-22:30"}}, "geometry":{"type":"MultiPolygon","coordinates":[[[[-2.92086,54.39481],[-2.92097,54.39487],[-2.92136,54.39464],[-2.92117,54.39453],[-2.92102,54.39462],[-2.92102,54.39471],[-2.92086,54.39481]]]]}},
{ "type":"Feature","properties":{"osm_way_id":"586961718","name":"Sainsbury's","building":"retail","shop":"supermarket","other":{"brand":"Sainsbury's","phone":"+44 1539 871980","website":"https:\/\/stores.sainsburys.co.uk\/2336\/kendal","addr:city":"Kendal","addr:street":"Shap Road","addr:postcode":"LA9 6DL","opening_hours":"Mo-Sa 07:00-22:00; Su 11:00-17:00","brand:wikidata":"Q152096","brand:wikipedia":"en:Sainsbury's"}}, "geometry":{"type":"MultiPolygon","coordinates":[[[[-2.7408,54.34055],[-2.7393,54.34047],[-2.7392,54.34116],[-2.74076,54.34124],[-2.74104,54.34106],[-2.74105,54.341],[-2.74074,54.34099],[-2.7408,54.34055]]]]}},
{ "type":"Feature","properties":{"osm_way_id":"802259090","name":"ALDI","building":"retail","shop":"supermarket","other":{"addr:city":"Ulverston","addr:postcode":"LA12 7TW","addr:street":"Thomas Way","brand":"ALDI","brand:wikidata":"Q41171672","brand:wikipedia":"en:Aldi","opening_hours":"Mo-Sa 08:00-22:00; Su 10:00-16:00","website":"https:\/\/www.aldi.co.uk\/store\/s-uk-E1356"}}, "geometry":{"type":"MultiPolygon","coordinates":[[[[-3.10497,54.19157],[-3.10453,54.19168],[-3.10418,54.19177],[-3.10404,54.19157],[-3.10399,54.19159],[-3.10394,54.19152],[-3.10424,54.19144],[-3.1042,54.19139],[-3.10435,54.19135],[-3.10439,54.1914],[-3.10478,54.19131],[-3.10497,54.19157]]]]}}
]
}
