{
"type": "FeatureCollection",
"features": [
{ "type":"Feature","properties":{"osm_id":"506986035","name":"The Co-operative Food","other":{"shop":"supermarket","phone":"+441242 513585","fhrs:id":"17155","operator":"Midcounties Co-operative Society","addr:city":"Cheltenham","addr:street":"Leckhampton Road","addr:postcode":"GL53 0DQ","opening_hours":"Mo-Su 07:00-22:00","addr:housenumber":"143"}}, "geometry":{"type":"Point","coordinates":[-2.07737,51.87771 ]}},
{ "type":"Feature","properties":{"osm_id":"2171102727","name":"Cook","other":{"addr:city":"Cheltenham","addr:housenumber":"248","addr:postcode":"GL53 7NB","addr:street":"Bath Road","fhrs:id":"35369","shop":"supermarket","source:addr":"FHRS Open Data"}}, "geometry":{"type":"Point","coordinates":[-2.0802,51.88747 ]}},
{ "type":"Feature","properties":{"osm_id":"2171483908","name":"Nutrition Centre","other":{"addr:city":"Cheltenham","addr:housenumber":"133","addr:postcode":"GL53 7LT","addr:street":"Bath Road","fhrs:id":"2275","shop":"supermarket"}}, "geometry":{"type":"Point","coordinates":[-2.07854,51.89013 ]}},
{ "type":"Feature","properties":{"osm_way_id":"30695301","name":"Waitrose","building":"retail","shop":"supermarket","other":{"addr:postcode":"GL50 3QW","addr:street":"Honeybourne Way","brand":"Waitrose","brand:wikidata":"Q771734","brand:wikipedia":"en:Waitrose & Partners","designation":"Cheltenham","official_name":"Waitrose & Partners","opening_hours":"Mo-Sa 08:00-21:00; Su 10:00-16:00","operator":"Waitrose & Partners","operator:wikidata":"Q771734","website":"https:\/\/www.waitrose.com\/bf_home\/bf\/663.html","wikipedia":"en:Waitrose"}}, "geometry":{"type":"MultiPolygon","coordinates":[[[[-2.08337,51.90237],[-2.08312,51.90232],[-2.08326,51.90206],[-2.08331,51.90207],[-2.08336,51.90197],[-2.08338,51.90197],[-2.08347,51.9018],[-2.08353,51.90182],[-2.08371,51.9015],[-2.08365,51.90149],[-2.08375,51.90131],[-2.08394,51.90135],[-2.08396,51.9013],[-2.08407,51.90132],[-2.08439,51.90139],[-2.08451,51.90142],[-2.08449,51.90146],[-2.0845,51.90147],[-2.08444,51.90158],[-2.08447,51.90158],[-2.08427,51.90194],[-2.08424,51.90194],[-2.08398,51.9024],[-2.08397,51.90239],[-2.08394,51.90244],[-2.0838,51.90241],[-2.08378,51.90245],[-2.08348,51.90238],[-2.08351,51.90234],[-2.08339,51.90232],[-2.08337,51.90235],[-2.08338,51.90235],[-2.08337,51.90237]]]]}},
{ "type":"Feature","properties":{"osm_way_id":"71437275","name":"Sainsbury's","building":"retail","shop":"supermarket","other":{"addr:city":"Cheltenham","addr:postcode":"GL51 9RR","addr:street":"Gallagher Retail Park","brand":"Sainsbury's","brand:wikidata":"Q152096","brand:wikipedia":"en:Sainsbury's","fhrs:id":"32604","nohousenumber":"yes","opening_hours":"Mo-Sa 07:00-22:00; Su 10:00-16:00","operator":"Sainsbury's","operator:wikidata":"Q152096","phone":"+441242 222011"}}, "geometry":{"type":"MultiPolygon","coordinates":[[[[-2.10737,51.91786],[-2.10734,51.91788],[-2.10764,51.91801],[-2.10706,51.9185],[-2.10688,51.91843],[-2.10673,51.91858],[-2.10664,51.91854],[-2.1065,51.91867],[-2.10564,51.91827],[-2.10591,51.91805],[-2.10594,51.91806],[-2.10604,51.91799],[-2.10602,51.91798],[-2.10628,51.91777],[-2.10629,51.91777],[-2.1066,51.9175],[-2.10737,51.91786]]]]}},
{ "type":"Feature","properties":{"osm_way_id":"79141433","name":"The Food Warehouse","building":"yes","shop":"supermarket","other":{"addr:city":"Cheltenham","addr:housenumber":"Unit L","addr:postcode":"GL51 9RR","addr:street":"Gallagher Retail Park","addr:unit":"Unit N","brand:wikidata":"Q87263899","fhrs:id":"590063","opening_hours":"Mo-Sa 08:00-22:00; Su 10:00-16:00","phone":"+441242 239 380"}}, "geometry":{"type":"MultiPolygon","coordinates":[[[[-2.10459,51.91668],[-2.10409,51.91709],[-2.10338,51.91677],[-2.10367,51.91653],[-2.10382,51.9166],[-2.10403,51.91642],[-2.10459,51.91668]]]]}},
{ "type":"Feature","properties":{"osm_way_id":"166141136","name":"Lidl","building":"yes","shop":"supermarket","other":{"addr:country":"GB","addr:housenumber":"27","addr:postcode":"GL50 4AH","addr:street":"Swindon Road","brand":"Lidl","brand:wikidata":"Q151954","brand:wikipedia":"en:Lidl","fhrs:id":"1273223","opening_hours":"Mo-Sa 08:00-22:00; Su 10:00-16:00","roof:shape":"flat"}}, "geometry":{"type":"MultiPolygon","coordinates":[[[[-2.07729,51.90469],[-2.07688,51.90459],[-2.07669,51.90489],[-2.07632,51.90547],[-2.07673,51.90557],[-2.07729,51.90469]]]]}},
{ "type":"Feature","properties":{"osm_way_id":"167082889","name":"Asda","building":"yes","shop":"supermarket","other":{"addr:city":"Cheltenham","addr:country":"GB","addr:housename":"Asda","addr:postcode":"GL51 6PN","addr:street":"Hatherley Lane","brand":"Asda","brand:wikidata":"Q297410","brand:wikipedia":"en:Asda","contact:facebook":"https:\/\/www.facebook.com\/asda\/","contact:twitter":"@asda","contact:website":"https:\/\/storelocator.asda.com\/south-west\/cheltenham\/hatherley-lane","fhrs:id":"187618","operator":"Asda Stores Ltd","phone":"+44 1242 840300","website":"https:\/\/storelocator.asda.com\/south-west\/cheltenham\/hatherley-lane"}}, "geometry":{"type":"MultiPolygon","coordinates":[[[[-2.12953,51.89088],[-2.1297,51.89062],[-2.12963,51.8906],[-2.12971,51.8905],[-2.12996,51.89057],[-2.13002,51.89048],[-2.1299,51.89044],[-2.12993,51.89041],[-2.12979,51.89037],[-2.12982,51.89032],[-2.1299,51.89021],[-2.12878,51.88992],[-2.12833,51.89057],[-2.12906,51.89076],[-2.12953,51.89088]]]]}},
{ "type":"Feature","properties":{"osm_way_id":"168212889","name":"Orient-Asia","building":"retail","shop":"supermarket","other":{"phone":"+441242 520003","cuisine":"asian","addr:street":"High Street","addr:postcode":"GL50 3HQ","opening_hours":"Mo-Th,Sa 09:00-19:00; Fr 09:00-13:00,14:00-19:00; Su 10:00-18:30","addr:housenumber":"294"}}, "geometry":{"type":"MultiPolygon","coordinates":[[[[-2.07837,51.90284],[-2.07822,51.9028],[-2.07832,51.90265],[-2.07847,51.90269],[-2.07837,51.90284]]]]}},
{ "type":"Feature","properties":{"osm_way_id":"168842715","name":"Tesco","building":"retail","shop":"supermarket","other":{"brand":"Tesco","phone":"+44345 677 9161","operator":"Tesco","wheelchair":"yes","addr:street":"Colletts Drive","designation":"Cheltenham Superstore","addr:postcode":"GL51 8JQ","opening_hours":"Mo-Sa 06:00-00:00; Su 10:00-16:00","brand:wikidata":"Q487494","brand:wikipedia":"en:Tesco"}}, "geometry":{"type":"MultiPolygon","coordinates":[[[[-2.08744,51.90633],[-2.08736,51.90638],[-2.08721,51.9063],[-2.08704,51.90643],[-2.08702,51.90642],[-2.08697,51.90646],[-2.08682,51.90638],[-2.08681,51.90633],[-2.08677,51.90631],[-2.0867,51.90635],[-2.08625,51.90611],[-2.0862,51.90614],[-2.08602,51.90605],[-2.08581,51.90593],[-2.08632,51.90555],[-2.08629,51.90554],[-2.08646,51.90541],[-2.0865,51.90543],[-2.08659,51.90536],[-2.08686,51.90551],[-2.08702,51.90559],[-2.08704,51.90558],[-2.08714,51.90557],[-2.08736,51.90567],[-2.08737,51.90574],[-2.08749,51.90581],[-2.0875,51.90579],[-2.08776,51.90593],[-2.08746,51.90616],[-2.08743,51.90614],[-2.08729,51.90625],[-2.08744,51.90633]]]]}},
{ "type":"Feature","properties":{"osm_way_id":"169074420","name":"simplyfresh","building":"retail","shop":"supermarket","other":{"addr:city":"Cheltenham","addr:housenumber":"116","addr:postcode":"GL52 2DP","addr:street":"Prestbury Road","contact:phone":"+441242 851088","fhrs:id":"1004326","old_fhrs:id":"818022","opening_hours":"Mo-Sa 07:00-21:00; Su 08:00-21:00"}}, "geometry":{"type":"MultiPolygon","coordinates":[[[[-2.06135,51.90798],[-2.06119,51.90809],[-2.06116,51.90807],[-2.06111,51.9081],[-2.06113,51.90811],[-2.06108,51.90814],[-2.06099,51.90808],[-2.06103,51.90805],[-2.06099,51.90803],[-2.06116,51.90791],[-2.06128,51.90797],[-2.0613,51.90795],[-2.06135,51.90798]]]]}},
{ "type":"Feature","properties":{"osm_way_id":"172273027","name":"Sainsbury's","building":"yes","shop":"supermarket","other":{"addr:city":"Battledown","addr:postcode":"GL52 5AQ","addr:street":"Priors Road","alt_name":"Sainsbury's Oakley Superstore","branch":"Oakley","brand":"Sainsbury's","brand:wikidata":"Q152096","brand:wikipedia":"en:Sainsbury's","fhrs:id":"17929","opening_hours":"Mo-Sa 07:00-22:00; Su 11:00-17:00","operator":"Sainsbury's"}}, "geometry":{"type":"MultiPolygon","coordinates":[[[[-2.04966,51.90168],[-2.04868,51.90142],[-2.04864,51.90148],[-2.04842,51.90142],[-2.04829,51.9016],[-2.04864,51.90169],[-2.04851,51.90189],[-2.04847,51.90195],[-2.04915,51.90212],[-2.04914,51.90213],[-2.04945,51.90221],[-2.04957,51.90204],[-2.04953,51.90203],[-2.04959,51.90195],[-2.04949,51.90192],[-2.04966,51.90168]]]]}},
{ "type":"Feature","properties":{"osm_way_id":"180846074","name":"The Co-operative Food","building":"yes","shop":"supermarket","other":{"addr:housenumber":"229","addr:postcode":"GL52 6HZ","addr:street":"London Road","brand":"The Co-operative Food","brand:wikidata":"Q3277439","brand:wikipedia":"en:Co-op Food","opening_hours":"Mo-Su 07:00-22:00","operator":"Midcounties Co-operative Society"}}, "geometry":{"type":"MultiPolygon","coordinates":[[[[-2.05373,51.88836],[-2.05361,51.88832],[-2.05359,51.88831],[-2.05338,51.8885],[-2.05363,51.88861],[-2.05365,51.88854],[-2.05369,51.88842],[-2.0537,51.8884],[-2.05371,51.88839],[-2.05373,51.88836]]]]}},
{ "type":"Feature","properties":{"osm_way_id":"180849113","name":"The Co-operative Food","building":"yes","shop":"supermarket","other":{"addr:postcode":"GL53 8AR","addr:street":"Church Street","opening_hours":"Mo-Su 07:00-22:00","operator":"Midcounties Co-operative Society","phone":"+441242 235446"}}, "geometry":{"type":"MultiPolygon","coordinates":[[[[-2.05155,51.88205],[-2.05146,51.88191],[-2.05115,51.88198],[-2.05126,51.88214],[-2.0515,51.88208],[-2.05155,51.88205]]]]}},
{ "type":"Feature","properties":{"osm_way_id":"245095867","name":"Lidl","building":"yes","shop":"supermarket","other":{"addr:country":"GB","addr:postcode":"GL51 9FJ","addr:street":"Tewkesbury Road","addr:unit":"12","brand":"Lidl","brand:wikidata":"Q151954","brand:wikipedia":"en:Lidl","fhrs:id":"1097706","opening_hours":"Mo-Sa 08:00-22:00; Su 10:00-16:00","roof:direction":"across","roof:orientation":"along","roof:shape":"skillion"}}, "geometry":{"type":"MultiPolygon","coordinates":[[[[-2.10133,51.91566],[-2.10176,51.91582],[-2.10121,51.9164],[-2.10075,51.91623],[-2.10133,51.91566]]]]}},
{ "type":"Feature","properties":{"osm_way_id":"462992338","name":"Morrisons","building":"retail","shop":"supermarket","other":{"addr:country":"GB","addr:postcode":"GL51 3BW","addr:street":"Caernarvon Road","brand":"Morrisons","brand:wikidata":"Q922344","brand:wikipedia":"en:Morrisons","opening_hours":"Mo-Sa 07:00-23:00; Su 10:00-16:00","website":"https:\/\/my.morrisons.com\/storefinder\/326"}}, "geometry":{"type":"MultiPolygon","coordinates":[[[[-2.10823,51.88037],[-2.10836,51.8804],[-2.10827,51.88054],[-2.10848,51.88059],[-2.10856,51.88045],[-2.10872,51.88049],[-2.10905,51.88003],[-2.10903,51.87999],[-2.10881,51.87993],[-2.10896,51.87969],[-2.10839,51.87956],[-2.1083,51.87969],[-2.10826,51.87968],[-2.1082,51.87969],[-2.10796,51.88004],[-2.10798,51.88006],[-2.10796,51.88007],[-2.10793,51.88012],[-2.1079,51.88011],[-2.1078,51.88027],[-2.10798,51.88031],[-2.10795,51.88036],[-2.1082,51.88042],[-2.10823,51.88037]]]]}},
{ "type":"Feature","properties":{"osm_way_id":"945300677","name":"Co-op Food","building":"yes","shop":"supermarket","other":{"addr:city":"Cheltenham","addr:housenumber":"192;194","addr:postcode":"GL53 7NE","addr:street":"Bath Road","brand":"Co-op Food","brand:wikidata":"Q3277439","brand:wikipedia":"en:Co-op Food","fhrs:id":"2283","opening_hours":"Mo-Sa 07:00-22:00; Su 10:00-16:00","operator":"Midcounties Co-operative Society"}}, "geometry":{"type":"MultiPolygon","coordinates":[[[[-2.07919,51.88915],[-2.0791,51.88912],[-2.07909,51.88911],[-2.07909,51.88911],[-2.07894,51.88895],[-2.07911,51.88889],[-2.07918,51.88896],[-2.07921,51.88897],[-2.07933,51.88901],[-2.07919,51.88915]]]]}},
{ "type":"Feature","properties":{"osm_way_id":"966544340","name":"The Natural Grocery Store","building":"retail","shop":"supermarket","other":{"addr:city":"Cheltenham","addr:housenumber":"150-156","addr:postcode":"GL53 7NG","addr:street":"Bath Road","fhrs:id":"2277","opening_hours":"Mo-Su 08:00-22:00"}}, "geometry":{"type":"MultiPolygon","coordinates":[[[[-2.07832,51.88991],[-2.07844,51.88995],[-2.07828,51.89012],[-2.07817,51.89008],[-2.07817,51.89007],[-2.07832,51.88991]]]]}},
{ "type":"Feature","properties":{"osm_way_id":"997686658","name":"ALDI","building":"yes","shop":"supermarket","other":{"brand":"ALDI","brand:wikidata":"Q41171672","brand:wikipedia":"en:Aldi","opening_hours":"Mo-Sa 08:00-22:00; Su 10:00-16:00","roof:shape":"skillion"}}, "geometry":{"type":"MultiPolygon","coordinates":[[[[-2.13568,51.89107],[-2.13569,51.89074],[-2.13659,51.89074],[-2.13659,51.89085],[-2.13652,51.89085],[-2.13651,51.89107],[-2.13568,51.89107]]]]}}
]
}
