{
"type": "FeatureCollection",
"features": [
{ "type":"Feature","properties":{"osm_id":"1864888436","name":"Coop Local","other":{"shop":"supermarket","wheelchair":"yes","toilets:wheelchair":"no"}}, "geometry":{"type":"Point","coordinates":[-1.45993,51.20992 ]}},
{ "type":"Feature","properties":{"osm_id":"2091129557","name":"Aldi","other":{"addr:city":"Romsey","addr:housenumber":"35","addr:street":"The Hundred","brand":"ALDI","brand:wikidata":"Q41171672","brand:wikipedia":"en:Aldi","operator":"Aldi Stores Ltd","shop":"supermarket"}}, "geometry":{"type":"Point","coordinates":[-1.49717,50.9886 ]}},
{ "type":"Feature","properties":{"osm_id":"4896976014","name":"Tesco Express","other":{"brand":"Tesco Express","brand:wikidata":"Q98456772","contact:website":"https:\/\/www.tesco.com\/store-locator\/eastleigh\/6-pilgrims-close-valley-park","operator":"Tesco","shop":"supermarket"}}, "geometry":{"type":"Point","coordinates":[-1.4025,50.97784 ]}},
{ "type":"Feature","properties":{"osm_id":"9175493880","man_made":"flagpole","other":{"country":"UK","flag:name":"Union Jack","flag:type":"national","flag:wikidata":"Q83278","height":"4","lit":"no","operator":"Ampfield Golf & Country Club","subject":"United Kingdom","subject:wikidata":"Q145"}}, "geometry":{"type":"Point","coordinates":[-1.42944,51.00617 ]}},
{ "type":"Feature","properties":{"osm_id":"922971945","highway":"service","other":{"access":"private"}}, "geometry":{"type":"LineString","coordinates":[[-1.46711,50.9943],[-1.46711,50.99431],[-1.46712,50.99433],[-1.46713,50.99434],[-1.46715,50.99435],[-1.46717,50.99435],[-1.4672,50.99435],[-1.46722,50.99434],[-1.46724,50.99433],[-1.46725,50.99432],[-1.46726,50.9943],[-1.46725,50.99429],[-1.46724,50.99427],[-1.46722,50.99426],[-1.4672,50.99426],[-1.46717,50.99426],[-1.46717,50.99426],[-1.46715,50.99426],[-1.46713,50.99427],[-1.46711,50.99428],[-1.46711,50.9943]]}},
{ "type":"Feature","properties":{"osm_way_id":"59535018","name":"Tesco Extra","building":"yes","shop":"supermarket","other":{"addr:city":"Andover","addr:postcode":"SP10 1UZ","addr:street":"River Way","alt_name":"Tesco Andover Extra","brand":"Tesco Extra","brand:wikidata":"Q25172225","brand:wikipedia":"en:Tesco Extra","opening_hours":"Mo 06:00 - Sa 24:00 Su 10:00-16:00","toilets:wheelchair":"yes","wheelchair":"yes"}}, "geometry":{"type":"MultiPolygon","coordinates":[[[[-1.47416,51.21666],[-1.47416,51.21664],[-1.47447,51.21668],[-1.47467,51.21599],[-1.47445,51.21597],[-1.47445,51.21594],[-1.47369,51.21587],[-1.47289,51.21578],[-1.47288,51.21583],[-1.47266,51.21581],[-1.47261,51.21595],[-1.47267,51.21598],[-1.47283,51.21599],[-1.47282,51.21604],[-1.47294,51.21605],[-1.47288,51.21631],[-1.473,51.21633],[-1.47295,51.21653],[-1.47353,51.21659],[-1.47416,51.21666]]]]}},
{ "type":"Feature","properties":{"osm_way_id":"61845189","name":"Sainsbury's","building":"yes","shop":"supermarket","other":{"addr:city":"Andover","addr:postcode":"SP10 1DL","addr:street":"Shepherds Spring Lane","alt_name":"Sainsbury's Andover North Superstore","brand":"Sainsbury's","brand:wikidata":"Q152096","brand:wikipedia":"en:Sainsbury's","opening_hours":"Mo-Sa 07:00-22:00 Su 10:00-16:00","toilets:wheelchair":"yes","wheelchair":"yes"}}, "geometry":{"type":"MultiPolygon","coordinates":[[[[-1.47737,51.2145],[-1.47649,51.21483],[-1.47614,51.21446],[-1.47703,51.21413],[-1.47737,51.2145]]]]}},
{ "type":"Feature","properties":{"osm_way_id":"97482987","name":"Waitrose","building":"yes","shop":"supermarket","other":{"addr:city":"Romsey","brand":"Waitrose","brand:wikidata":"Q771734","brand:wikipedia":"en:Waitrose","official_name":"Waitrose & Partners","operator":"Waitrose & Partners","phone":"+441794523617","store_ref":"671","website":"https:\/\/www.waitrose.com\/romsey"}}, "geometry":{"type":"MultiPolygon","coordinates":[[[[-1.49653,50.99056],[-1.49636,50.9899],[-1.49721,50.98981],[-1.49722,50.98987],[-1.49728,50.99008],[-1.49729,50.99012],[-1.4973,50.99014],[-1.4973,50.99017],[-1.49698,50.9902],[-1.49699,50.99024],[-1.4968,50.99026],[-1.49687,50.99052],[-1.49653,50.99056]]]]}},
{ "type":"Feature","properties":{"osm_way_id":"102339771","name":"ASDA","building":"yes","shop":"supermarket","other":{"brand":"Asda","alt_name":"ASDA Andover Superstore","operator":"Asda Stores Ltd","addr:city":"Andover","wheelchair":"yes","addr:street":"Anton Mill Road","addr:postcode":"SP10 2RW","opening_hours":"Mo-Fr 06:00-24:00; Sa 06:00-22:00; Su 10:00-16:00","brand:wikidata":"Q297410","brand:wikipedia":"en:Asda","contact:twitter":"@asda","contact:website":"https:\/\/storelocator.asda.com\/south-east\/andover\/anton-mill-road","contact:facebook":"https:\/\/www.facebook.com\/asda\/"}}, "geometry":{"type":"MultiPolygon","coordinates":[[[[-1.48187,51.20388],[-1.48215,51.2037],[-1.48192,51.20357],[-1.48285,51.20307],[-1.48315,51.2033],[-1.48265,51.20357],[-1.48293,51.20377],[-1.48245,51.20407],[-1.48187,51.20388]]]]}},
{ "type":"Feature","properties":{"osm_way_id":"162197237","name":"Lidl","building":"yes","shop":"supermarket","other":{"addr:city":"Andover","addr:country":"GB","addr:postcode":"SP10 1BS","addr:street":"Western Avenue","alt_name":"LIDL Andover","brand":"Lidl","brand:wikidata":"Q151954","fhrs:id":"19176","opening_hours":"Mo-Sa 08:00-21:00; Su 10:00-16:00","wheelchair":"yes"}}, "geometry":{"type":"MultiPolygon","coordinates":[[[[-1.48277,51.20909],[-1.48235,51.20913],[-1.48234,51.2091],[-1.48206,51.20914],[-1.48214,51.20941],[-1.48295,51.20932],[-1.48292,51.20921],[-1.48281,51.20923],[-1.48277,51.20909]]]]}},
{ "type":"Feature","properties":{"osm_way_id":"162197238","name":"Iceland","building":"yes","shop":"supermarket","other":{"addr:city":"Andover","addr:housenumber":"37","addr:postcode":"SP10 1BE","addr:street":"Bridge Street","alt_name":"Iceland Andover","brand":"Iceland","brand:wikidata":"Q721810","opening_hours":"Mo-Sa 08:00-19:00 Su 10:00-16:00","toilets:wheelchair":"no","wheelchair":"yes"}}, "geometry":{"type":"MultiPolygon","coordinates":[[[[-1.48105,51.20613],[-1.48089,51.20592],[-1.48085,51.20581],[-1.48048,51.20596],[-1.48077,51.20625],[-1.48105,51.20613]]]]}},
{ "type":"Feature","properties":{"osm_way_id":"162197240","name":"Waitrose","building":"yes","shop":"supermarket","other":{"addr:city":"Andover","addr:housename":"The Chantry Centre","addr:housenumber":"67","addr:postcode":"SP10 1LY","addr:street":"Chantry Way","alt_name":"Waitrose Andover","brand":"Waitrose & Partners","brand:wikidata":"Q771734","brand:wikipedia":"en:Waitrose & Partners","opening_hours":"Mo-We,Sa 08:00-19:00; Th 08:00-20:00; Fr 08:00-21:00; Su 10:00-16:00","operator":"Waitrose & Partners","wheelchair":"yes"}}, "geometry":{"type":"MultiPolygon","coordinates":[[[[-1.48072,51.20859],[-1.48092,51.20856],[-1.48097,51.20868],[-1.48129,51.20862],[-1.48133,51.20871],[-1.48158,51.20867],[-1.48142,51.20829],[-1.48065,51.20842],[-1.48072,51.20859]]]]}},
{ "type":"Feature","properties":{"osm_way_id":"236480260","name":"Co-op Food","building":"yes","shop":"supermarket","other":{"brand":"Co-op Food","brand:wikidata":"Q3277439","brand:wikipedia":"en:Co-op Food"}}, "geometry":{"type":"MultiPolygon","coordinates":[[[[-1.44884,50.97625],[-1.44892,50.97624],[-1.44892,50.97626],[-1.44905,50.97625],[-1.44905,50.97623],[-1.44911,50.97623],[-1.44907,50.97606],[-1.44896,50.97606],[-1.44897,50.97609],[-1.44881,50.97611],[-1.44884,50.97625]]]]}},
{ "type":"Feature","properties":{"osm_way_id":"239921554","name":"Co-op Food","building":"yes","shop":"supermarket","other":{"brand":"Co-op Food","brand:wikidata":"Q3277439","brand:wikipedia":"en:Co-op Food","operator":"The Co-operative Group","operator:wikidata":"Q117202","operator:wikipedia":"en:The Co-operative Group"}}, "geometry":{"type":"MultiPolygon","coordinates":[[[[-1.48069,50.99348],[-1.48076,50.99352],[-1.48083,50.99355],[-1.48085,50.99353],[-1.48099,50.99359],[-1.48116,50.99344],[-1.48122,50.99348],[-1.4816,50.99344],[-1.48164,50.99341],[-1.48175,50.99327],[-1.48137,50.9931],[-1.48134,50.9931],[-1.48118,50.99324],[-1.48098,50.99341],[-1.48093,50.99345],[-1.48087,50.99342],[-1.4808,50.99339],[-1.48069,50.99348]]]]}},
{ "type":"Feature","properties":{"osm_way_id":"263657849","name":"Tesco Express","building":"yes","shop":"supermarket","other":{"brand":"Tesco Express","brand:wikidata":"Q98456772"}}, "geometry":{"type":"MultiPolygon","coordinates":[[[[-1.47081,51.22202],[-1.47087,51.22216],[-1.47064,51.2222],[-1.47057,51.22207],[-1.47081,51.22202]]]]}},
{ "type":"Feature","properties":{"osm_way_id":"415660643","name":"The Co-operative - Stockbridge","building":"yes","shop":"supermarket","other":{"addr:city":"Stockbridge","addr:country":"GB","addr:postcode":"SO20 6EU","addr:street":"High Street","opening_hours":"Mo-Su 07:00-23:00","operator":"The Southern Co-operative"}}, "geometry":{"type":"MultiPolygon","coordinates":[[[[-1.49064,51.1143],[-1.49068,51.11401],[-1.49046,51.114],[-1.49044,51.1142],[-1.49049,51.11421],[-1.49048,51.11429],[-1.49064,51.1143]]]]}},
{ "type":"Feature","properties":{"osm_way_id":"452777952","name":"ALDI","building":"retail","shop":"supermarket","other":{"brand":"ALDI","brand:wikidata":"Q41171672","brand:wikipedia":"en:Aldi"}}, "geometry":{"type":"MultiPolygon","coordinates":[[[[-1.51347,51.21119],[-1.51281,51.21097],[-1.51263,51.21118],[-1.51328,51.2114],[-1.51347,51.21119]]]]}},
{ "type":"Feature","properties":{"osm_way_id":"462643846","name":"McColls","shop":"supermarket","other":{"atm":"yes","addr:city":"Andover","wheelchair":"yes","addr:street":"Weyhill Road","addr:postcode":"SP10 3BH","opening_hours":"Mo-Su 06:00-22:00","addr:housenumber":"155","toilets:wheelchair":"no"}}, "geometry":{"type":"MultiPolygon","coordinates":[[[[-1.50643,51.20887],[-1.5062,51.20883],[-1.50616,51.20889],[-1.50614,51.20893],[-1.50638,51.20898],[-1.50643,51.20887]]]]}},
{ "type":"Feature","properties":{"osm_way_id":"802124502","name":"Lidl","building":"yes","shop":"supermarket","other":{"addr:country":"GB","addr:housename":"Walworth Business Park","addr:postcode":"SP10 5NP","addr:street":"Columbus Way","addr:unit":"D","brand":"Lidl","brand:wikidata":"Q151954","brand:wikipedia":"en:Lidl","fhrs:id":"1320379"}}, "geometry":{"type":"MultiPolygon","coordinates":[[[[-1.45419,51.21263],[-1.45335,51.213],[-1.45315,51.21281],[-1.45307,51.21285],[-1.453,51.21278],[-1.45391,51.21238],[-1.45419,51.21263]]]]}}
]
}
