{
"type": "FeatureCollection",
"features": [
{ "type":"Feature","properties":{"osm_id":"1223157839","name":"Co-op","other":{"shop":"supermarket","fhrs:id":"60884","operator":"The Co-operative Group","addr:city":"Pinxton","addr:street":"Wharf Road","addr:postcode":"NG16 6LQ","addr:housenumber":"146"}}, "geometry":{"type":"Point","coordinates":[-1.31767,53.08932 ]}},
{ "type":"Feature","properties":{"osm_id":"2928412013","name":"Fultons Foods","other":{"brand:wikidata":"Q6112633","shop":"supermarket"}}, "geometry":{"type":"Point","coordinates":[-1.2911,53.22924 ]}},
{ "type":"Feature","properties":{"osm_id":"3392801772","name":"The Co-operative Food","other":{"shop":"supermarket","brand":"The Co-operative Food","brand:wikidata":"Q3277439","brand:wikipedia":"en:Co-op Food"}}, "geometry":{"type":"Point","coordinates":[-1.21376,53.20395 ]}},
{ "type":"Feature","properties":{"osm_id":"4338345196","name":"Polo Market","other":{"shop":"supermarket"}}, "geometry":{"type":"Point","coordinates":[-1.21319,53.2029 ]}},
{ "type":"Feature","properties":{"osm_id":"4338356192","name":"Å»abka","other":{"shop":"supermarket"}}, "geometry":{"type":"Point","coordinates":[-1.21345,53.20358 ]}},
{ "type":"Feature","properties":{"osm_id":"4338393390","name":"Diana's Grocery Shop","other":{"shop":"supermarket"}}, "geometry":{"type":"Point","coordinates":[-1.21184,53.20312 ]}},
{ "type":"Feature","properties":{"osm_way_id":"147132675","name":"Tesco","building":"yes","shop":"supermarket","other":{"brand":"Tesco","brand:wikidata":"Q487494","brand:wikipedia":"en:Tesco","website":"https:\/\/www.tesco.com\/store-locator\/chesterfield\/mill-street"}}, "geometry":{"type":"MultiPolygon","coordinates":[[[[-1.26542,53.27413],[-1.26585,53.27462],[-1.26471,53.27498],[-1.26456,53.27481],[-1.26464,53.27478],[-1.26446,53.27457],[-1.26442,53.27458],[-1.26436,53.27452],[-1.26442,53.27444],[-1.26542,53.27413]]]]}},
{ "type":"Feature","properties":{"osm_way_id":"175789113","name":"South Normanton's Co-op","building":"yes","shop":"supermarket","other":{"fhrs:id":"24295","operator":"The Co-operative Group","addr:city":"South Normanton","addr:street":"Market Place","addr:postcode":"DE55 2BN","opening_hours":"Mo-Su 07:00-22:00; Su 10:00-16:00"}}, "geometry":{"type":"MultiPolygon","coordinates":[[[[-1.34465,53.10645],[-1.34431,53.10647],[-1.344,53.10649],[-1.34395,53.10623],[-1.3446,53.10619],[-1.34465,53.10645]]]]}},
{ "type":"Feature","properties":{"osm_way_id":"232589562","name":"The Co-operative Food","building":"yes","shop":"supermarket","other":{"operator":"The Co-operative Group"}}, "geometry":{"type":"MultiPolygon","coordinates":[[[[-1.29055,53.22912],[-1.29011,53.229],[-1.29033,53.22874],[-1.29045,53.22877],[-1.29076,53.22887],[-1.29055,53.22912]]]]}},
{ "type":"Feature","properties":{"osm_way_id":"277455279","name":"Heron Foods","shop":"supermarket","other":{"brand":"Heron Foods","fhrs:id":"911306","addr:street":"Market Street","addr:postcode":"DE55 2EJ","brand:wikidata":"Q5743472","brand:wikipedia":"en:Heron Foods","contact:website":"https:\/\/heronfoods.com\/storelocator\/store-details\/south-normanton","addr:housenumber":"128"}}, "geometry":{"type":"MultiPolygon","coordinates":[[[[-1.34228,53.10575],[-1.34228,53.10553],[-1.34221,53.10553],[-1.34197,53.10555],[-1.34194,53.10554],[-1.3419,53.10554],[-1.34177,53.10555],[-1.34183,53.10568],[-1.34189,53.10578],[-1.34228,53.10575]]]]}},
{ "type":"Feature","properties":{"osm_way_id":"288722054","name":"Aldi","building":"yes","shop":"supermarket","other":{"addr:city":"Clowne","addr:housenumber":"8","addr:postcode":"S43 4LJ","addr:street":"Mill Green Way","brand":"ALDI","brand:wikidata":"Q41171672","brand:wikipedia":"en:Aldi","opening_hours":"Mo-Sa 08:00-20:00","operator":"Aldi","phone":"+44 20 0137 8368","website":"https:\/\/www.aldi.co.uk\/store\/s-uk-E0604"}}, "geometry":{"type":"MultiPolygon","coordinates":[[[[-1.26382,53.27571],[-1.26381,53.27577],[-1.26362,53.27576],[-1.26362,53.27571],[-1.2634,53.2757],[-1.26339,53.27576],[-1.26311,53.27575],[-1.26311,53.27569],[-1.26313,53.27541],[-1.26417,53.27543],[-1.26416,53.27572],[-1.26382,53.27571]]]]}},
{ "type":"Feature","properties":{"osm_way_id":"317222000","name":"Aldi","building":"yes","shop":"supermarket","other":{"brand":"ALDI","brand:wikidata":"Q41171672","brand:wikipedia":"en:Aldi"}}, "geometry":{"type":"MultiPolygon","coordinates":[[[[-1.21472,53.20494],[-1.2145,53.20468],[-1.21388,53.20487],[-1.214,53.20502],[-1.21393,53.20504],[-1.21403,53.20515],[-1.21472,53.20494]]]]}},
{ "type":"Feature","properties":{"osm_way_id":"333518586","name":"Nisa Local","shop":"supermarket","other":{"addr:street":"High Street"}}, "geometry":{"type":"MultiPolygon","coordinates":[[[[-1.34134,53.10691],[-1.3416,53.1069],[-1.34181,53.10693],[-1.3418,53.10697],[-1.34187,53.10699],[-1.34178,53.10713],[-1.3417,53.10722],[-1.34165,53.1072],[-1.34147,53.10713],[-1.34139,53.1071],[-1.34133,53.10708],[-1.3412,53.10699],[-1.34115,53.10699],[-1.34113,53.10693],[-1.34121,53.10691],[-1.34134,53.10691]]]]}},
{ "type":"Feature","properties":{"osm_way_id":"358633967","name":"The Co-operative Food","building":"yes","shop":"supermarket","other":{"operator":"The Co-operative Group"}}, "geometry":{"type":"MultiPolygon","coordinates":[[[[-1.21856,53.26192],[-1.21879,53.2621],[-1.21869,53.26214],[-1.21857,53.26205],[-1.21847,53.26196],[-1.21856,53.26192]]]]}},
{ "type":"Feature","properties":{"osm_way_id":"376954714","name":"The Co-operative Food","building":"yes","shop":"supermarket","other":{"operator":"The Co-operative Group"}}, "geometry":{"type":"MultiPolygon","coordinates":[[[[-1.20558,53.28384],[-1.20543,53.28405],[-1.20511,53.28397],[-1.20526,53.28376],[-1.20558,53.28384]]]]}},
{ "type":"Feature","properties":{"osm_way_id":"740937135","name":"Lidl","building":"yes","shop":"supermarket","other":{"addr:country":"GB","addr:housenumber":"8","addr:postcode":"NG20 8TY","addr:street":"Portland Road","brand":"Lidl","brand:wikidata":"Q151954","brand:wikipedia":"en:Lidl","fhrs:id":"1038421"}}, "geometry":{"type":"MultiPolygon","coordinates":[[[[-1.20997,53.20229],[-1.21098,53.20209],[-1.21101,53.20213],[-1.21116,53.2024],[-1.21083,53.20246],[-1.21082,53.20243],[-1.21023,53.20255],[-1.21017,53.20245],[-1.21011,53.20235],[-1.21002,53.20237],[-1.20997,53.20229]]]]}}
]
}
