{
"type": "FeatureCollection",
"features": [
{ "type":"Feature","properties":{"osm_id":"528931171","name":"Tesco","other":{"brand":"Tesco","brand:wikidata":"Q487494","brand:wikipedia":"en:Tesco","contact:website":"https:\/\/www.tesco.com\/store-locator\/potters-bar\/mutton-ln","opening_hours":"Mo-Sa 00:00-00:00, Su 11:00-16:00","operator":"Tesco Stores Ltd","shop":"supermarket","wikimedia_commons":"File:Tesco - Potters Bar - geograph.org.uk - 239291.jpg"}}, "geometry":{"type":"Point","coordinates":[-0.18145,51.69399 ]}},
{ "type":"Feature","properties":{"osm_id":"3337645101","name":"Tesco Express","other":{"brand":"Tesco Express","brand:wikidata":"Q98456772","brand:wikipedia":"en:Tesco","contact:website":"https:\/\/www.tesco.com\/store-locator\/potters-bar\/15-17-orchard-parade","operator":"Tesco Stores Ltd","shop":"supermarket"}}, "geometry":{"type":"Point","coordinates":[-0.20791,51.7007 ]}},
{ "type":"Feature","properties":{"osm_id":"4046796890","name":"Coop","other":{"shop":"supermarket"}}, "geometry":{"type":"Point","coordinates":[-0.28278,51.66799 ]}},
{ "type":"Feature","properties":{"osm_id":"9217925618","name":"Lidl","other":{"addr:country":"GB","addr:housename":"Borehamwood Shopping Park","addr:postcode":"WD6 4PR","addr:unit":"3A","brand":"Lidl","brand:wikidata":"Q151954","brand:wikipedia":"en:Lidl","fhrs:id":"940585","shop":"supermarket","survey:date":"2016-07-01"}}, "geometry":{"type":"Point","coordinates":[-0.27772,51.65587 ]}},
{ "type":"Feature","properties":{"osm_way_id":"8045094","name":"Tesco Extra","building":"retail","shop":"supermarket","other":{"addr:postcode":"WD6 1JG","addr:street":"Shenley Road","alt_name":"Tesco Borehamwood Extra","brand":"Tesco Extra","brand:wikidata":"Q25172225","brand:wikipedia":"en:Tesco Extra","building:levels":"2","opening_hours":"Mo-Sa 00:00-24:00","operator":"Tesco Stores Ltd","phone":"+44 345 677 9069","roof:levels":"0","website":"https:\/\/www.tesco.com\/store-locator\/borehamwood\/shenley-rd","wheelchair":"yes"}}, "geometry":{"type":"MultiPolygon","coordinates":[[[[-0.27025,51.65572],[-0.26899,51.6564],[-0.2681,51.65577],[-0.26879,51.65541],[-0.26874,51.65537],[-0.26855,51.65523],[-0.26919,51.65489],[-0.26927,51.65495],[-0.26932,51.65492],[-0.2694,51.65499],[-0.26945,51.65496],[-0.26991,51.65529],[-0.26983,51.65534],[-0.26993,51.65541],[-0.26995,51.6554],[-0.27007,51.65549],[-0.27007,51.65548],[-0.27022,51.65558],[-0.27013,51.65563],[-0.27025,51.65572]]]]}},
{ "type":"Feature","properties":{"osm_way_id":"8902814","name":"Morrisons","building":"retail","landuse":"retail","shop":"supermarket","other":{"brand":"Morrisons","operator":"Morrisons","addr:city":"Borehamwood","wheelchair":"yes","addr:street":"Stirling Way","payment:cash":"yes","addr:postcode":"WD6 2RN","opening_hours":"Mo-Sa 07:00-23:00; Su 10:00-16:00","payment:cards":"yes","payment:coins":"yes","brand:wikidata":"Q922344","brand:wikipedia":"en:Morrisons","toilets:wheelchair":"yes"}}, "geometry":{"type":"MultiPolygon","coordinates":[[[[-0.25621,51.64377],[-0.2554,51.64463],[-0.2562,51.64492],[-0.25661,51.64452],[-0.25649,51.64448],[-0.25676,51.64418],[-0.25668,51.64414],[-0.2568,51.644],[-0.25621,51.64377]]]]}},
{ "type":"Feature","properties":{"osm_way_id":"44172229","name":"Sainsbury's","building":"yes","shop":"supermarket","other":{"brand":"Sainsbury's","brand:wikidata":"Q152096","brand:wikipedia":"en:Sainsbury's","building:levels":"1","building:material":"brick","wheelchair":"yes"}}, "geometry":{"type":"MultiPolygon","coordinates":[[[[-0.19294,51.69802],[-0.19279,51.69788],[-0.19278,51.69787],[-0.19246,51.69757],[-0.19204,51.69774],[-0.19237,51.69804],[-0.19225,51.69811],[-0.19228,51.69813],[-0.19261,51.69833],[-0.19276,51.69827],[-0.19269,51.6982],[-0.19273,51.69818],[-0.1927,51.69815],[-0.19279,51.69811],[-0.19291,51.69822],[-0.19308,51.69815],[-0.19296,51.69804],[-0.19295,51.69804],[-0.19293,51.69802],[-0.19294,51.69802]]]]}},
{ "type":"Feature","properties":{"osm_way_id":"286506025","name":"Budgens","building":"yes","shop":"supermarket","other":{"addr:housenumber":"361","addr:postcode":"WD7 7LB","addr:street":"Watling Street","alt_name":"Budgens of Radlett","brand":"Budgens","brand:wikidata":"Q4985016","brand:wikipedia":"en:Budgens"}}, "geometry":{"type":"MultiPolygon","coordinates":[[[[-0.31638,51.68257],[-0.31631,51.68243],[-0.316,51.68249],[-0.31589,51.68251],[-0.31595,51.68263],[-0.31617,51.68258],[-0.31618,51.68261],[-0.31638,51.68257]]]]}},
{ "type":"Feature","properties":{"osm_way_id":"286506281","name":"M&S Simply Food","building":"yes","shop":"supermarket","other":{"addr:housename":"Borehamwood Shopping Centre","addr:housenumber":"Unit 1","addr:postcode":"WD6 4PR","alt_name":"M&S Borehamwood Simply Food","brand":"M&S Simply Food","brand:wikidata":"Q714491","brand:wikipedia":"en:Marks & Spencer"}}, "geometry":{"type":"MultiPolygon","coordinates":[[[[-0.27911,51.65727],[-0.27922,51.65661],[-0.2789,51.65659],[-0.27879,51.65725],[-0.27911,51.65727]]]]}},
{ "type":"Feature","properties":{"osm_way_id":"403542848","name":"ALDI","building":"yes","shop":"supermarket","other":{"addr:city":"Borehamwood","addr:postcode":"WD6 4PR","addr:street":"Borehamwood Shopping Park","brand":"ALDI","brand:wikidata":"Q41171672","brand:wikipedia":"en:Aldi","opening_hours":"Mo-Sa 08:00-22:00; Su 10:00-16:00; PH 08:00-20:00","wheelchair":"yes"}}, "geometry":{"type":"MultiPolygon","coordinates":[[[[-0.27911,51.65727],[-0.27935,51.65728],[-0.27937,51.65712],[-0.2795,51.65713],[-0.27958,51.65664],[-0.27922,51.65661],[-0.27911,51.65727]]]]}},
{ "type":"Feature","properties":{"osm_way_id":"514289975","name":"Tesco Express","building":"yes","shop":"supermarket","other":{"brand":"Tesco Express","brand:wikidata":"Q98456772","brand:wikipedia":"en:Tesco","operator":"Tesco Stores Ltd"}}, "geometry":{"type":"MultiPolygon","coordinates":[[[[-0.28479,51.69441],[-0.28479,51.69421],[-0.28505,51.69421],[-0.28505,51.69441],[-0.28479,51.69441]]]]}}
]
}
