{
"type": "FeatureCollection",
"features": [
{ "type":"Feature","properties":{"osm_id":"482759741","name":"Budgens","other":{"addr:city":"Clanfield","addr:housenumber":"1-3","addr:postcode":"PO8 0JU","addr:street":"Green Lane","brand":"Budgens","brand:wikidata":"Q4985016","brand:wikipedia":"en:Budgens","opening_hours":"Mo-Sa 07:00-21:00; Su 08:00-21:00","pay_point":"yes","phone":"+44 2392 592265","shop":"supermarket"}}, "geometry":{"type":"Point","coordinates":[-0.99999,50.93579 ]}},
{ "type":"Feature","properties":{"osm_id":"1259408564","name":"M&S Foodhall","other":{"addr:city":"Petersfield","addr:housenumber":"21-25","addr:postcode":"GU32 3JT","addr:street":"High Street","brand":"Marks & Spencer","brand:wikidata":"Q714491","brand:wikipedia":"en:Marks & Spencer","fhrs:id":"77078","operator":"Marks and Spencer plc","phone":"+44 1730 261962","shop":"supermarket"}}, "geometry":{"type":"Point","coordinates":[-0.93562,51.00366 ]}},
{ "type":"Feature","properties":{"osm_id":"3464234837","name":"Aldi","other":{"addr:city":"Alton","addr:housename":"Alton Retail Park","addr:postcode":"GU34 2QS","addr:street":"Mill Lane","addr:unit":"1","brand":"ALDI","brand:wikidata":"Q41171672","brand:wikipedia":"en:Aldi","building":"retail","fhrs:id":"644310","shop":"supermarket"}}, "geometry":{"type":"Point","coordinates":[-0.95631,51.15734 ]}},
{ "type":"Feature","properties":{"osm_id":"4804811304","other":{"operator":"Clear Channel","advertising":"screen"}}, "geometry":{"type":"Point","coordinates":[-0.97508,51.14636 ]}},
{ "type":"Feature","properties":{"osm_id":"6457448259","name":"Oriental Shop","other":{"shop":"supermarket","addr:city":"Bordon","addr:street":"Woolmer Way","addr:postcode":"GU35 9QE","opening_hours":"Mo-Fr 09:00-18:00; Sa Off; Su 10:00-16:00","addr:housenumber":"29"}}, "geometry":{"type":"Point","coordinates":[-0.86784,51.10993 ]}},
{ "type":"Feature","properties":{"osm_id":"7081144599","other":{"shop":"supermarket"}}, "geometry":{"type":"Point","coordinates":[-0.8642,51.11371 ]}},
{ "type":"Feature","properties":{"osm_way_id":"5117252","name":"Morrisons","building":"yes","shop":"supermarket","other":{"addr:city":"Waterlooville","addr:country":"GB","addr:postcode":"PO8 9FB","addr:street":"Lakesmere Road","addr:suburb":"Horndean","alt_name":"Morrisons Horndean","atm":"yes","brand":"Morrisons","brand:wikidata":"Q922344","brand:wikipedia":"en:Morrisons","fhrs:id":"56608","opening_hours":"Mo-Sa 07:00-22:00; Su 10:00-16:00","phone":"+44 2392 598346"}}, "geometry":{"type":"MultiPolygon","coordinates":[[[[-1.00204,50.90853],[-1.00078,50.90854],[-1.00078,50.90837],[-1.001,50.90837],[-1.001,50.90824],[-1.00058,50.90825],[-1.00057,50.90801],[-1.0007,50.90801],[-1.0007,50.90792],[-1.00154,50.90791],[-1.00153,50.90781],[-1.00181,50.90781],[-1.00204,50.90795],[-1.00203,50.90813],[-1.00195,50.90813],[-1.00195,50.90823],[-1.00204,50.90823],[-1.00204,50.90853]]]]}},
{ "type":"Feature","properties":{"osm_way_id":"9930323","name":"Sainsbury's","building":"yes","shop":"supermarket","other":{"brand":"Sainsbury's","phone":"+44 1428 723124","fhrs:id":"129345","operator":"Sainsbury's Supermarkets Ltd","source_1":"receipt","addr:city":"Liphook","addr:street":"Midhurst Road","addr:country":"GB","addr:postcode":"GU30 7TW","opening_hours":"Mo-Sa 08:00-22:00; Su 10:00-16:00","brand:wikidata":"Q152096","brand:wikipedia":"en:Sainsbury's"}}, "geometry":{"type":"MultiPolygon","coordinates":[[[[-0.80042,51.07533],[-0.80043,51.07536],[-0.80031,51.07538],[-0.80039,51.07557],[-0.80031,51.07558],[-0.80039,51.07581],[-0.80114,51.07569],[-0.80115,51.07571],[-0.80145,51.07567],[-0.80124,51.0752],[-0.80042,51.07533]]]]}},
{ "type":"Feature","properties":{"osm_way_id":"40214338","name":"Tesco","building":"retail","shop":"supermarket","other":{"addr:postcode":"GU31 4JR","addr:street":"The Causeway","branch":"Petersfield","brand":"Tesco","brand:wikidata":"Q487494","brand:wikipedia":"en:Tesco","fhrs:id":"107893","layer":"1","opening_hours":"Mo-Fr 08:00-22:00; Sa 08:00-21:00; Sa 10:00-16:00","operator":"Tesco Stores Ltd"}}, "geometry":{"type":"MultiPolygon","coordinates":[[[[-0.93873,51.00187],[-0.93942,51.00191],[-0.93951,51.00117],[-0.93944,51.00116],[-0.9394,51.00121],[-0.93879,51.00117],[-0.93873,51.00187]]]]}},
{ "type":"Feature","properties":{"osm_way_id":"180930150","name":"Tesco","building":"yes","shop":"supermarket","other":{"brand":"Tesco","fhrs:id":"117777","alt_name":"Tesco Bordon Superstore","addr:city":"Bordon","addr:street":"High Street","addr:country":"GB","addr:postcode":"GU35 0AW","opening_hours":"Mo-Sa 07:00-22:00; Su 10:00-16:00","brand:wikidata":"Q487494","brand:wikipedia":"en:Tesco"}}, "geometry":{"type":"MultiPolygon","coordinates":[[[[-0.86469,51.10933],[-0.86467,51.10933],[-0.86425,51.10923],[-0.86397,51.10917],[-0.86369,51.1091],[-0.86393,51.10869],[-0.86417,51.10875],[-0.86428,51.10855],[-0.86435,51.10857],[-0.8642,51.10883],[-0.86489,51.10899],[-0.86469,51.10933]]]]}},
{ "type":"Feature","properties":{"osm_way_id":"180930416","name":"Lidl","building":"yes","shop":"supermarket","other":{"brand":"Lidl","fhrs:id":"1137418","alt_name":"LIDL Bordon","addr:city":"Bordon","addr:street":"Pinehill Road","addr:country":"GB","addr:postcode":"GU35 0TN","opening_hours":"Mo-Sa 08:00-21:00; Su 10:00-16:00","addr:housename":"The Forest Shopping Centre","brand:wikidata":"Q151954","brand:wikipedia":"en:Lidl"}}, "geometry":{"type":"MultiPolygon","coordinates":[[[[-0.85894,51.10904],[-0.859,51.10888],[-0.85897,51.10888],[-0.85907,51.10857],[-0.85867,51.10852],[-0.85855,51.10888],[-0.85852,51.10899],[-0.85894,51.10904]]]]}},
{ "type":"Feature","properties":{"osm_way_id":"180930606","name":"Co-op Food","building":"yes","shop":"supermarket","other":{"brand":"Co-op Food","phone":"+44 1428 722905","fhrs:id":"142281","operator":"The Southern Co-operative Limited","addr:city":"Liphook","pay_point":"yes","addr:street":"Headley Road","addr:postcode":"GU30 7NP","brand:wikidata":"Q3277439","brand:wikipedia":"en:Co-op Food","addr:housenumber":"64"}}, "geometry":{"type":"MultiPolygon","coordinates":[[[[-0.80464,51.0804],[-0.80457,51.08025],[-0.80434,51.08029],[-0.80434,51.0803],[-0.80415,51.08034],[-0.80419,51.08043],[-0.80442,51.08039],[-0.80444,51.08044],[-0.80464,51.0804]]]]}},
{ "type":"Feature","properties":{"osm_way_id":"220566982","name":"Waitrose","building":"yes","shop":"supermarket","other":{"brand":"Waitrose","phone":"+44 1730 233339","branch":"Petersfield","fhrs:id":"82776","toilets":"no","website":"https:\/\/www.waitrose.com\/petersfield","operator":"Waitrose & Partners","addr:city":"Petersfield","wikipedia":"en:Waitrose","wheelchair":"yes","addr:street":"Rams Walk","addr:country":"GB","addr:postcode":"GU32 3JA","official_name":"Waitrose & Partners","opening_hours":"Mo-Th 07:30-20:00; Fr 07:30-21:00; Sa 07:30-20:00; Su 10:00-16:00","brand:wikidata":"Q771734","brand:wikipedia":"en:Waitrose & Partners","addr:housenumber":"8"}}, "geometry":{"type":"MultiPolygon","coordinates":[[[[-0.9375,51.00499],[-0.93676,51.00491],[-0.93684,51.00458],[-0.9374,51.00463],[-0.93741,51.0046],[-0.93757,51.00462],[-0.93756,51.00464],[-0.93764,51.00464],[-0.93762,51.00473],[-0.93772,51.00474],[-0.9377,51.00481],[-0.93755,51.00479],[-0.9375,51.00499]]]]}},
{ "type":"Feature","properties":{"osm_way_id":"283103152","name":"Lidl","building":"yes","shop":"supermarket","other":{"brand":"Lidl","name_1":"The General Wine Company","shop_1":"wine","fhrs:id":"644305","addr:street":"Station Road","addr:postcode":"GU32 3EE","brand:wikidata":"Q151954","brand:wikipedia":"en:Lidl"}}, "geometry":{"type":"MultiPolygon","coordinates":[[[[-0.94226,51.00712],[-0.9418,51.00702],[-0.94199,51.00668],[-0.94241,51.00655],[-0.94258,51.00658],[-0.94226,51.00712]]]]}},
{ "type":"Feature","properties":{"osm_way_id":"330637456","name":"Co-op Food","shop":"supermarket","other":{"addr:city":"Alton","addr:housenumber":"34E","addr:postcode":"GU34 1BD","addr:street":"High Street","brand":"Co-op Food","brand:wikidata":"Q3277439","brand:wikipedia":"en:Co-op Food","check_date:opening_hours":"2022-02-02","fhrs:id":"114951","opening_hours":"Mo-Su 06:00-23:00","operator":"The Southern Co-operative","paypoint":"yes"}}, "geometry":{"type":"MultiPolygon","coordinates":[[[[-0.97557,51.14921],[-0.97546,51.14916],[-0.97536,51.1491],[-0.97525,51.14918],[-0.97544,51.14929],[-0.97557,51.14921]]]]}},
{ "type":"Feature","properties":{"osm_way_id":"439499736","name":"The Co-operative Food","building":"yes","shop":"supermarket","other":{"fhrs:id":"117714","addr:city":"Grayshott","addr:street":"Headley Road","addr:postcode":"GU26 6LG","opening_hours":"Mo-Su 07:00-22:00","addr:housenumber":"1 The Square"}}, "geometry":{"type":"MultiPolygon","coordinates":[[[[-0.75131,51.111],[-0.75115,51.111],[-0.75114,51.11075],[-0.75131,51.11075],[-0.75131,51.111]]]]}},
{ "type":"Feature","properties":{"osm_way_id":"486469333","name":"Sainsbury's","building":"supermarket","shop":"supermarket","other":{"brand":"Sainsbury's","branch":"Alton","fhrs:id":"96504","alt_name":"Sainsbury's Alton Superstore","addr:city":"Alton","wheelchair":"yes","addr:street":"Draymans Way","addr:country":"GB","addr:postcode":"GU34 1SS","opening_hours":"Mo-Sa 07:00-22:00; Su 10:00-16:00","brand:wikidata":"Q152096","brand:wikipedia":"en:Sainsbury's"}}, "geometry":{"type":"MultiPolygon","coordinates":[[[[-0.97466,51.14709],[-0.97462,51.14707],[-0.97467,51.14702],[-0.97461,51.147],[-0.97457,51.14704],[-0.97443,51.14698],[-0.97467,51.14674],[-0.97469,51.14674],[-0.97501,51.14641],[-0.97497,51.1464],[-0.97487,51.14636],[-0.97492,51.14631],[-0.97494,51.14629],[-0.97509,51.14635],[-0.97508,51.14636],[-0.97507,51.14636],[-0.97507,51.14637],[-0.97538,51.14649],[-0.9754,51.14647],[-0.97552,51.14652],[-0.97551,51.14653],[-0.97568,51.1466],[-0.97567,51.14662],[-0.97563,51.14665],[-0.97579,51.14671],[-0.97583,51.14673],[-0.97582,51.14674],[-0.9758,51.14676],[-0.97578,51.14676],[-0.9751,51.14744],[-0.97447,51.1472],[-0.97458,51.14709],[-0.97464,51.14711],[-0.97466,51.14709]]]]}},
{ "type":"Feature","properties":{"osm_way_id":"488651088","name":"M&S Foodhall","building":"yes","shop":"supermarket","other":{"brand":"M&S Foodhall","fhrs:id":"77574","alt_name":"M&S Alton Simply Food","operator":"Marks and Spencer","addr:city":"Alton","addr:street":"High Street","addr:postcode":"GU34 1LG","brand:wikidata":"Q714491","brand:wikipedia":"en:Marks & Spencer","building:colour":"brown","addr:housenumber":"79-85"}}, "geometry":{"type":"MultiPolygon","coordinates":[[[[-0.97766,51.14708],[-0.97726,51.14696],[-0.97729,51.14693],[-0.97717,51.14689],[-0.97706,51.14685],[-0.9771,51.14678],[-0.97706,51.14677],[-0.97714,51.14667],[-0.97748,51.14677],[-0.97755,51.14668],[-0.97765,51.14671],[-0.9778,51.14676],[-0.97782,51.14688],[-0.97775,51.14697],[-0.97766,51.14708]]]]}},
{ "type":"Feature","properties":{"osm_way_id":"496344852","name":"FillUp","building":"retail","shop":"supermarket","other":{"addr:city":"Alton","addr:housenumber":"15","addr:postcode":"GU34 1FG","addr:street":"High Street","building:levels":"2","opening_hours":"Mo 09:00-15:00; Tu-We 09:00-17:00; Th 11:00-17:00; Fr 09:00-17:00; Sa 10:00-16:00","opening_hours:covid19":"same","roof:material":"roof_tiles","website":"https:\/\/fillupalton.co.uk\/"}}, "geometry":{"type":"MultiPolygon","coordinates":[[[[-0.97446,51.14948],[-0.97447,51.14947],[-0.97447,51.14947],[-0.97433,51.14938],[-0.97439,51.14934],[-0.97454,51.14943],[-0.97458,51.14945],[-0.97458,51.14945],[-0.97452,51.14949],[-0.9745,51.14949],[-0.9745,51.14949],[-0.97449,51.1495],[-0.97446,51.14948]]]]}},
{ "type":"Feature","properties":{"osm_way_id":"687314391","name":"Tesco Express","building":"yes","shop":"supermarket","other":{"addr:city":"Alton","addr:housenumber":"55","addr:postcode":"GU34 5HG","addr:street":"Winchester Road","addr:suburb":"Four Marks","brand":"Tesco Express","brand:wikidata":"Q98456772","brand:wikipedia":"en:Tesco","fhrs:id":"54711"}}, "geometry":{"type":"MultiPolygon","coordinates":[[[[-1.04288,51.11193],[-1.04305,51.11184],[-1.04314,51.1119],[-1.04296,51.11199],[-1.04288,51.11193]]]]}},
{ "type":"Feature","properties":{"osm_way_id":"693400642","name":"The Co-operative Food","building":"yes","shop":"supermarket","other":{"fhrs:id":"632588","old_name":"The Windmill","addr:city":"Alton","addr:street":"Winchester Road","addr:suburb":"Four Marks","addr:postcode":"GU34 5HG","addr:housenumber":"30"}}, "geometry":{"type":"MultiPolygon","coordinates":[[[[-1.04247,51.11316],[-1.04231,51.11307],[-1.04264,51.11284],[-1.04275,51.1129],[-1.0426,51.11301],[-1.04271,51.11307],[-1.04258,51.11316],[-1.04252,51.11313],[-1.04247,51.11316]]]]}},
{ "type":"Feature","properties":{"osm_way_id":"703189800","name":"Waitrose","building":"yes","shop":"supermarket","other":{"brand":"Waitrose","brand:wikidata":"Q771734","brand:wikipedia":"en:Waitrose & Partners"}}, "geometry":{"type":"MultiPolygon","coordinates":[[[[-0.96765,51.15277],[-0.96751,51.15285],[-0.96771,51.15298],[-0.96724,51.15324],[-0.96651,51.15271],[-0.96692,51.1525],[-0.96724,51.1527],[-0.96742,51.15261],[-0.96765,51.15277]]]]}}
]
}
