{
"type": "FeatureCollection",
"features": [
{ "type":"Feature","properties":{"osm_way_id":"116480657","name":"Argos Ltd Distribution Centre","building":"yes","other":{"addr:city":"Bridgwater","addr:place":"Huntworth Business Park","addr:postcode":"TA6 6TS"}}, "geometry":{"type":"Polygon","coordinates":[[[ -2.99094,51.10858],[-2.99054,51.10899],[-2.99067,51.10905],[-2.99019,51.10954],[-2.98988,51.10984],[-2.98972,51.10977],[-2.98937,51.1101],[-2.98769,51.10941],[-2.98925,51.10789],[-2.99094,51.10858]] ]}},
{ "type":"Feature","properties":{"osm_way_id":"132050410","name":"Morrisons Regional Distribution Centre","building":"warehouse","other":{"addr:city":"Bridgwater","addr:country":"GB","addr:county":"Somerset","addr:postcode":"TA6 4FG","addr:street":"Kings Road","brand":"Morrisons","brand:wikidata":"Q922344","brand:wikipedia":"en:Morrisons"}}, "geometry":{"type":"Polygon","coordinates":[[[ -2.98489,51.15569],[-2.98443,51.15565],[-2.98397,51.15782],[-2.9832,51.15775],[-2.98327,51.15743],[-2.98281,51.15739],[-2.98284,51.15724],[-2.98275,51.15723],[-2.98278,51.15708],[-2.98293,51.15709],[-2.98326,51.15556],[-2.98289,51.15552],[-2.98341,51.1531],[-2.98413,51.15317],[-2.98426,51.15256],[-2.98554,51.15267],[-2.9854,51.15328],[-2.98541,51.15328],[-2.98489,51.15569]] ]}},
{ "type":"Feature","properties":{"osm_way_id":"150136138","name":"Deltaform Distribution Centre","building":"yes","other":{"addr:street":"Brue Avenue"}}, "geometry":{"type":"Polygon","coordinates":[[[ -2.99497,51.12129],[-2.99475,51.12065],[-2.9956,51.12053],[-2.99579,51.12119],[-2.99497,51.12129]] ]}}
]
}
