{
"type": "FeatureCollection",
"features": [
{ "type":"Feature","properties":{"osm_id":"1180840358","other":{"building":"exit"}}, "geometry":{"type":"Point","coordinates":[1.18459,52.65286 ]}},
{ "type":"Feature","properties":{"osm_id":"1390904295","other":{"fee":"no","demolished:amenity":"atm"}}, "geometry":{"type":"Point","coordinates":[1.2348,52.64771 ]}},
{ "type":"Feature","properties":{"osm_id":"3423584616","name":"The Co-operative Food","other":{"addr:housenumber":"25","addr:postcode":"NR14 6EX","addr:street":"Church Plain","check_date:opening_hours":"2020-11-29","fhrs:id":"647850","opening_hours":"Mo-Su 07:00-22:00","operator":"Central England Co-operative Society","shop":"supermarket","source:addr":"FHRS Open Data"}}, "geometry":{"type":"Point","coordinates":[1.4812,52.53565 ]}},
{ "type":"Feature","properties":{"osm_id":"3485291581","other":{"location":"On northern exterior wall of Co-op building on Sheffield Road","emergency":"defibrillator"}}, "geometry":{"type":"Point","coordinates":[1.1264,52.58022 ]}},
{ "type":"Feature","properties":{"osm_id":"4423417527","other":{"indoor":"no","demolished:emergency":"defibrillator"}}, "geometry":{"type":"Point","coordinates":[1.23479,52.64772 ]}},
{ "type":"Feature","properties":{"osm_id":"4692462681","other":{"emergency":"defibrillator","opening_hours":"24\/7"}}, "geometry":{"type":"Point","coordinates":[1.23352,52.55555 ]}},
{ "type":"Feature","properties":{"osm_id":"5549153454","other":{"location":"On exterior wall of CoOp store, to the right of the main entrance, facing the car park.","emergency":"defibrillator"}}, "geometry":{"type":"Point","coordinates":[1.23379,52.48749 ]}},
{ "type":"Feature","properties":{"osm_way_id":"32561164","name":"Sainsbury's Longwater","building":"shop","shop":"supermarket","other":{"addr:city":"Norwich","addr:country":"GB","addr:full":"Sainsbury's Longwater, William Frost Way, New Costessey, NORWICH, NR5 0JS","addr:postcode":"NR5 0JS","addr:street":"William Frost Way","brand":"Sainsbury's","brand:wikidata":"Q152096","brand:wikipedia":"en:Sainsbury's","fhrs:id":"648224","opening_hours":"Mo-Fr 08:00-22:00; Sa 07:30-22:00; Su 10:00-16:00","phone":"+44 1603 741655","ref":"706"}}, "geometry":{"type":"MultiPolygon","coordinates":[[[[1.18396,52.65263],[1.18396,52.65269],[1.18434,52.65268],[1.18434,52.65267],[1.18459,52.65266],[1.18459,52.65275],[1.18458,52.65276],[1.18459,52.65286],[1.18461,52.65324],[1.18417,52.65325],[1.18418,52.65344],[1.18273,52.65347],[1.18272,52.65327],[1.18256,52.65328],[1.18253,52.65272],[1.18379,52.65269],[1.18379,52.65264],[1.18396,52.65263]]]]}},
{ "type":"Feature","properties":{"osm_way_id":"32561177","name":"M&S Foodhall","building":"yes","shop":"supermarket","other":{"addr:city":"Norwich","addr:country":"GB","addr:housename":"Unit C","addr:parentstreet":"Alex Moorhouse Way","addr:place":"Longwater Retail Park","addr:postcode":"NR5 0JT","brand":"M&S Foodhall","brand:wikidata":"Q714491","brand:wikipedia":"en:Marks & Spencer","fhrs:id":"799227","layer":"1","opening_hours":"Mo-Sa 08:00-20:00; Su 10:00-16:30","ref":"Unit C","start_date":"2015-08-19T10:00+01:00","website":"https:\/\/www.marksandspencer.com\/"}}, "geometry":{"type":"MultiPolygon","coordinates":[[[[1.18061,52.65363],[1.18105,52.65391],[1.1813,52.65376],[1.18083,52.65346],[1.18074,52.65351],[1.18078,52.65353],[1.18061,52.65363]]]]}},
{ "type":"Feature","properties":{"osm_way_id":"122124614","name":"Tesco","building":"shop","shop":"supermarket","other":{"addr:city":"Norwich","addr:country":"GB","addr:postcode":"NR4 6DZ","addr:street":"Ipswich Road","brand":"Tesco","brand:wikidata":"Q487494","brand:wikipedia":"en:Tesco","contact:website":"https:\/\/www.tesco.com\/store-locator\/norwich\/ipswich-rd","fhrs:id":"648007;1011627","opening_hours":"Mo-Sa 06:00-24:00; Su 10:00-16:00; PH 09:00-18:00","operator":"Tesco Stores Ltd","phone":"+44 8456 779507","ref":"2962"}}, "geometry":{"type":"MultiPolygon","coordinates":[[[[1.27693,52.59556],[1.27735,52.59554],[1.27735,52.59552],[1.27757,52.59551],[1.27771,52.5955],[1.27773,52.59559],[1.27795,52.59558],[1.27794,52.59549],[1.27806,52.59549],[1.27806,52.59547],[1.27825,52.59546],[1.27818,52.59504],[1.27824,52.59504],[1.27819,52.59476],[1.27802,52.59477],[1.27801,52.59466],[1.27811,52.59466],[1.2781,52.59461],[1.27793,52.59454],[1.27774,52.59455],[1.27774,52.59456],[1.27751,52.59457],[1.27752,52.59465],[1.27753,52.59469],[1.27753,52.59471],[1.27694,52.59474],[1.27695,52.59481],[1.27697,52.59495],[1.27699,52.59506],[1.27686,52.59507],[1.27692,52.59535],[1.27703,52.59534],[1.27704,52.59541],[1.27691,52.59542],[1.27693,52.59556]]]]}},
{ "type":"Feature","properties":{"osm_way_id":"125167435","name":"COOP Daily","building":"yes","shop":"supermarket","other":{"brand":"Co-op","phone":"+44 1603 742088","fhrs:id":"647764","website":"https:\/\/www.eastofengland.coop\/foodstores\/costessey","operator":"East of England Co-Operative","addr:city":"Norwich","addr:street":"Norwich Road","addr:country":"GB","addr:postcode":"NR5 0EX","opening_hours":"Mo-Su,PH 07:00-22:00","addr:housenumber":"200"}}, "geometry":{"type":"MultiPolygon","coordinates":[[[[1.23505,52.64781],[1.23508,52.64775],[1.23481,52.64769],[1.2348,52.64771],[1.23479,52.64772],[1.23469,52.64791],[1.235,52.64797],[1.23508,52.64782],[1.23505,52.64781]]]]}},
{ "type":"Feature","properties":{"osm_way_id":"144197018","name":"Budgens","building":"yes","shop":"supermarket","other":{"addr:postcode":"NR14 7WB","addr:street":"Overtons Way","addr:village":"Poringland","brand":"Budgens","brand:wikidata":"Q4985016","brand:wikipedia":"en:Budgens","fhrs:id":"648416","source:addr":"FHRS Open Data"}}, "geometry":{"type":"MultiPolygon","coordinates":[[[[1.34447,52.57061],[1.34456,52.57036],[1.34399,52.57029],[1.34391,52.57053],[1.34447,52.57061]]]]}},
{ "type":"Feature","properties":{"osm_way_id":"148387773","name":"Waitrose","building":"shop","shop":"supermarket","other":{"brand":"Waitrose","phone":"+44 1953 607772","fhrs:id":"647969","website":"https:\/\/www.waitrose.com\/bf_home\/bf\/662.html","alt_name":"Waitrose Wymondham","operator":"Waitrose & Partners","addr:city":"Norwich","addr:street":"Norwich Road","addr:country":"GB","addr:postcode":"NR18 0SH","opening_hours":"Mo-Fr 07:30-21:00; Sa 07:30-20:00; Su 10:00-16:00","brand:wikidata":"Q771734","brand:wikipedia":"en:Waitrose & Partners"}}, "geometry":{"type":"MultiPolygon","coordinates":[[[[1.13592,52.57974],[1.13506,52.57951],[1.13515,52.57939],[1.13524,52.57942],[1.13552,52.57903],[1.13591,52.57914],[1.13593,52.5791],[1.13619,52.57914],[1.1363,52.57917],[1.13635,52.57922],[1.13629,52.5793],[1.13624,52.57929],[1.13592,52.57974]]]]}},
{ "type":"Feature","properties":{"osm_way_id":"162571364","name":"Co-op Food","building":"yes","shop":"supermarket","other":{"addr:city":"Norwich","addr:country":"GB","addr:postcode":"NR15 2XJ","addr:street":"The Street","alt_name":"East of England Co-operative Society","brand":"Co-op Food","brand:wikidata":"Q3277439","brand:wikipedia":"en:Co-op Food","fhrs:id":"648549"}}, "geometry":{"type":"MultiPolygon","coordinates":[[[[1.23348,52.48755],[1.23336,52.48731],[1.23351,52.48728],[1.23349,52.48723],[1.23388,52.48716],[1.23403,52.48747],[1.23393,52.48749],[1.23392,52.48747],[1.23379,52.48749],[1.23348,52.48755]]]]}},
{ "type":"Feature","properties":{"osm_way_id":"184185732","name":"Tesco","building":"yes","shop":"supermarket","other":{"addr:city":"Diss","addr:postcode":"IP22 4JN","addr:street":"Victoria Road","alt_name":"Tesco Diss Superstore","brand":"Tesco","brand:wikidata":"Q487494","brand:wikipedia":"en:Tesco","contact:website":"https:\/\/www.tesco.com\/store-locator\/diss\/victoria-rd","fhrs:id":"648561","operator":"Tesco Stores Ltd"}}, "geometry":{"type":"MultiPolygon","coordinates":[[[[1.11013,52.37204],[1.11022,52.37184],[1.11032,52.37179],[1.1113,52.37177],[1.11132,52.37218],[1.11135,52.37218],[1.11136,52.37234],[1.11087,52.37235],[1.11034,52.37235],[1.11034,52.3723],[1.11019,52.3723],[1.11028,52.37206],[1.11013,52.37204]]]]}},
{ "type":"Feature","properties":{"osm_way_id":"184185759","name":"Morrisons","building":"yes","shop":"supermarket","other":{"brand":"Morrisons","fhrs:id":"648023","website":"https:\/\/my.morrisons.com\/storefinder\/280","alt_name":"Morrisons Diss","addr:city":"Diss","addr:street":"Victoria Road","addr:postcode":"IP22 4XF","brand:wikidata":"Q922344","brand:wikipedia":"en:Morrisons"}}, "geometry":{"type":"MultiPolygon","coordinates":[[[[1.10996,52.3726],[1.11,52.37242],[1.10934,52.37237],[1.10933,52.3724],[1.10898,52.37238],[1.10899,52.37233],[1.10875,52.37231],[1.10872,52.37246],[1.10879,52.37246],[1.10869,52.37294],[1.10875,52.37294],[1.10874,52.37298],[1.10884,52.37299],[1.10883,52.37303],[1.10906,52.37305],[1.10905,52.37313],[1.10936,52.37315],[1.10938,52.37308],[1.10964,52.3731],[1.10978,52.37307],[1.10981,52.37291],[1.11013,52.37294],[1.11019,52.37264],[1.11005,52.37263],[1.11005,52.3726],[1.10996,52.3726]]]]}},
{ "type":"Feature","properties":{"osm_way_id":"184186372","name":"ALDI","building":"yes","shop":"supermarket","other":{"addr:city":"Diss","addr:housenumber":"37-38","addr:postcode":"IP22 4AG","addr:street":"Mere Street","alt_name":"ALDI Diss","brand":"ALDI","brand:wikidata":"Q41171672","brand:wikipedia":"en:Aldi","fhrs:id":"728223","website":"https:\/\/www.aldi.co.uk\/store\/s-uk-E0921"}}, "geometry":{"type":"MultiPolygon","coordinates":[[[[1.10829,52.3739],[1.10842,52.37389],[1.10841,52.37383],[1.10853,52.37382],[1.10855,52.37388],[1.10863,52.37388],[1.10865,52.374],[1.10868,52.374],[1.1087,52.37412],[1.10874,52.37412],[1.10876,52.37424],[1.10869,52.37425],[1.10871,52.37436],[1.10834,52.37439],[1.10831,52.37422],[1.10834,52.37421],[1.10829,52.3739]]]]}},
{ "type":"Feature","properties":{"osm_way_id":"189779646","name":"East of England Co-op","building":"retail","shop":"supermarket","other":{"addr:city":"Harleston","addr:country":"GB","addr:postcode":"IP20 9AT","addr:street":"Bullock Fair Close","fhrs:id":"1005752","layer":"1","opening_hours":"Mo-Sa 06:00-22:00; Su 10:00-16:00","operator":"East of England Co-operative","website":"https:\/\/www.eastofengland.coop\/harleston"}}, "geometry":{"type":"MultiPolygon","coordinates":[[[[1.29895,52.40407],[1.29886,52.40391],[1.29877,52.40393],[1.29856,52.40356],[1.29891,52.40349],[1.2992,52.40401],[1.29895,52.40407]]]]}},
{ "type":"Feature","properties":{"osm_way_id":"223755482","name":"Lidl","building":"shop","shop":"supermarket","other":{"addr:city":"Wymondham","addr:country":"GB","addr:housenumber":"1A-1B","addr:postcode":"NR18 0WF","addr:street":"Farrier Close","brand":"Lidl","brand:wikidata":"Q151954","brand:wikipedia":"en:Lidl","description":"Discount Supermarket","fhrs:id":"1067440","old_name":"Poundstretcher","opening_hours":"Mo-Sa 08:00-21:00; Su 10:00-16:00","source:addr:housenumber":"FHRS Open Data","start_date":"2018-06-28","website":"https:\/\/www.lidl.co.uk\/en\/index.htm"}}, "geometry":{"type":"MultiPolygon","coordinates":[[[[1.13978,52.578],[1.14051,52.57827],[1.14025,52.57853],[1.1403,52.57855],[1.14022,52.57864],[1.14015,52.57861],[1.14012,52.57864],[1.13977,52.57851],[1.13971,52.57856],[1.13936,52.57842],[1.13951,52.57827],[1.13943,52.57824],[1.13956,52.5781],[1.13965,52.57814],[1.13978,52.578]]]]}},
{ "type":"Feature","properties":{"osm_way_id":"230678243","name":"The Co-operative Food","building":"shop","shop":"supermarket","other":{"addr:city":"Norwich","addr:country":"GB","addr:postcode":"NR14 8BA","addr:street":"Cuckoofield Lane","brand":"Co-op Food","brand:wikidata":"Q3277439","brand:wikipedia":"en:Co-op Food","fhrs:id":"648058","opening_hours":"Mo-Sa 07:00-22:00; Su 10:00-16:00","operator":"Central England Co-operative","phone":"+44 1508 571348","website":"https:\/\/finder.coop.co.uk\/food\/store\/NR14-8BA\/cuckoofield-lane"}}, "geometry":{"type":"MultiPolygon","coordinates":[[[[1.23346,52.55556],[1.23352,52.55555],[1.23379,52.55553],[1.23375,52.55533],[1.23365,52.55534],[1.23364,52.5553],[1.23332,52.55532],[1.23336,52.55551],[1.23346,52.55556]]]]}},
{ "type":"Feature","properties":{"osm_way_id":"259733797","name":"Premier Express Grocery Shop","building":"yes","shop":"supermarket","other":{"fhrs:id":"647872","addr:city":"Norwich","addr:street":"Shotesham Road","source:addr":"FSA Food Hygiene Ratings Database","addr:village":"Poringland","addr:postcode":"NR14 7LE","addr:housenumber":"1"}}, "geometry":{"type":"MultiPolygon","coordinates":[[[[1.3499,52.5654],[1.34997,52.56552],[1.35018,52.56538],[1.35006,52.56531],[1.3499,52.5654]]]]}},
{ "type":"Feature","properties":{"osm_way_id":"341323996","name":"Co-op Foodstore","building":"yes","shop":"supermarket","other":{"addr:city":"Wymondham","addr:housenumber":"32","addr:postcode":"NR18 0HH","addr:street":"Lime Tree Avenue","brand":"Co-op Food","brand:wikidata":"Q3277439","brand:wikipedia":"en:Co-op Food","fhrs:id":"647994","operator":"East of England Co-operative","paypoint":"yes"}}, "geometry":{"type":"MultiPolygon","coordinates":[[[[1.12653,52.58003],[1.12632,52.58009],[1.12622,52.58012],[1.12631,52.58025],[1.1264,52.58022],[1.12649,52.5802],[1.1265,52.58021],[1.12663,52.58017],[1.12653,52.58003]]]]}},
{ "type":"Feature","properties":{"osm_way_id":"545060250","name":"Morrisons","building":"retail","shop":"supermarket","other":{"addr:city":"Wymondham","addr:country":"GB","addr:housenumber":"12","addr:postcode":"NR18 0NS","addr:street":"Postmill Close","brand":"Morrisons","brand:wikidata":"Q922344","brand:wikipedia":"en:Morrisons","fhrs:id":"691760","opening_hours":"Mo-Sa 07:00-22:00; Su 10:00-16:00","phone":"+44 1953 828879"}}, "geometry":{"type":"MultiPolygon","coordinates":[[[[1.11875,52.57144],[1.11877,52.57133],[1.11879,52.57133],[1.11881,52.57116],[1.11884,52.57116],[1.11887,52.57098],[1.1192,52.571],[1.11923,52.57075],[1.11941,52.57075],[1.11939,52.57087],[1.11967,52.57088],[1.11959,52.57148],[1.11915,52.57146],[1.11915,52.57146],[1.11915,52.57147],[1.11879,52.57145],[1.11879,52.57145],[1.11879,52.57144],[1.11875,52.57144]]]]}},
{ "type":"Feature","properties":{"osm_way_id":"673311299","name":"Budgens","building":"yes","shop":"supermarket","other":{"addr:city":"Harleston","addr:housename":"Harleston Service Station","addr:housenumber":"54-54A","addr:postcode":"IP20 9BZ","addr:street":"London Road","brand":"Budgens","brand:wikidata":"Q4985016","brand:wikipedia":"en:Budgens","fhrs:id":"647716","source:addr":"FHRS Open Data","website":"https:\/\/www.budgens.co.uk\/our-stores\/harleston"}}, "geometry":{"type":"MultiPolygon","coordinates":[[[[1.29607,52.39928],[1.29615,52.39939],[1.29589,52.39946],[1.29581,52.39936],[1.29585,52.39935],[1.29595,52.39932],[1.29599,52.39931],[1.29598,52.3993],[1.29607,52.39928]]]]}}
]
}
