{
"type": "FeatureCollection",
"features": [
{ "type":"Feature","properties":{"osm_id":"1655783940","name":"Costcutter","other":{"brand":"Costcutter","brand:wikidata":"Q5175072","brand:wikipedia":"en:Costcutter","shop":"supermarket"}}, "geometry":{"type":"Point","coordinates":[-1.89609,52.29593 ]}},
{ "type":"Feature","properties":{"osm_id":"4136177031","name":"Asda","other":{"shop":"supermarket","brand":"Asda","operator":"Asda Stores Ltd","addr:city":"Redditch","wheelchair":"yes","addr:street":"Jinnah Road","addr:country":"GB","addr:postcode":"B98 7ER","brand:wikidata":"Q297410","brand:wikipedia":"en:Asda","contact:twitter":"@asda","contact:website":"https:\/\/storelocator.asda.com\/west-midlands\/redditch\/jinnah-road","contact:facebook":"https:\/\/www.facebook.com\/asda\/"}}, "geometry":{"type":"Point","coordinates":[-1.93352,52.30105 ]}},
{ "type":"Feature","properties":{"osm_id":"6620623873","name":"Costcutter","other":{"shop":"supermarket","brand":"Costcutter","fhrs:id":"697297","addr:city":"Redditch","addr:street":"Woodrow Centre","addr:postcode":"B98 7RY","brand:wikidata":"Q5175072","brand:wikipedia":"en:Costcutter","addr:housenumber":"31"}}, "geometry":{"type":"Point","coordinates":[-1.91547,52.28773 ]}},
{ "type":"Feature","properties":{"osm_way_id":"26312490","name":"Sainsbury's","building":"yes","shop":"supermarket","other":{"addr:postcode":"B97 6RF","addr:street":"Abbey Trading Centre","brand":"Sainsbury's","brand:wikidata":"Q152096","brand:wikipedia":"en:Sainsbury's","internet_access:fee":"no","opening_hours":"Mo-Sa 07:00-22:00; Su 10:00-16:00","operator":"Sainsbury's","website":"https:\/\/stores.sainsburys.co.uk\/0604\/redditch","wheelchair":"yes"}}, "geometry":{"type":"MultiPolygon","coordinates":[[[[-1.93871,52.31356],[-1.93868,52.31351],[-1.93863,52.31351],[-1.93851,52.31326],[-1.93854,52.31326],[-1.93834,52.31284],[-1.93825,52.31263],[-1.9387,52.31255],[-1.93876,52.31271],[-1.93954,52.31258],[-1.93982,52.31322],[-1.93955,52.31326],[-1.93961,52.31341],[-1.93871,52.31356]]]]}},
{ "type":"Feature","properties":{"osm_way_id":"30423745","name":"B&M","building":"yes","shop":"supermarket","other":{"operator":"B&M Retail","wheelchair":"yes","addr:postcode":"B97 6RF"}}, "geometry":{"type":"MultiPolygon","coordinates":[[[[-1.93922,52.31411],[-1.93931,52.31433],[-1.93931,52.31433],[-1.93941,52.31458],[-1.93995,52.3145],[-1.93974,52.31403],[-1.93922,52.31411]]]]}},
{ "type":"Feature","properties":{"osm_way_id":"58995093","name":"Tesco Extra","building":"yes","shop":"supermarket","other":{"addr:city":"Redditch","addr:postcode":"B98 7RU","addr:street":"Coldfield Drive","brand":"Tesco Extra","brand:wikidata":"Q25172225","brand:wikipedia":"en:Tesco Extra","website":"https:\/\/www.tesco.com\/store-locator\/redditch\/coldfield-drive","wheelchair":"yes"}}, "geometry":{"type":"MultiPolygon","coordinates":[[[[-1.93808,52.28859],[-1.93732,52.28863],[-1.93699,52.28865],[-1.93699,52.28868],[-1.93684,52.28869],[-1.93684,52.2887],[-1.93656,52.28871],[-1.93657,52.28881],[-1.93647,52.28882],[-1.93646,52.28871],[-1.93632,52.28871],[-1.93633,52.28873],[-1.93608,52.28874],[-1.93585,52.28868],[-1.93583,52.28859],[-1.93593,52.28858],[-1.93589,52.28831],[-1.93569,52.28832],[-1.93565,52.28805],[-1.93564,52.28801],[-1.93564,52.28799],[-1.93614,52.28797],[-1.93613,52.28793],[-1.93627,52.28792],[-1.93627,52.28796],[-1.93692,52.28793],[-1.93713,52.28792],[-1.93727,52.28792],[-1.93742,52.28791],[-1.93751,52.28791],[-1.93751,52.28791],[-1.93755,52.28791],[-1.93757,52.28803],[-1.93752,52.28804],[-1.93756,52.28832],[-1.93774,52.28831],[-1.93781,52.2883],[-1.93778,52.28806],[-1.93785,52.28805],[-1.93803,52.2883],[-1.93808,52.28859]]]]}},
{ "type":"Feature","properties":{"osm_way_id":"148770915","name":"Lidl","building":"retail","shop":"supermarket","other":{"addr:country":"GB","addr:housename":"The Quadrant","addr:housenumber":"3","addr:postcode":"B97 4HL","addr:street":"Redditch Ringway","brand":"Lidl","brand:wikidata":"Q151954","brand:wikipedia":"en:Lidl","fhrs:id":"685204","wheelchair":"yes"}}, "geometry":{"type":"MultiPolygon","coordinates":[[[[-1.93595,52.30654],[-1.93528,52.3068],[-1.93521,52.30674],[-1.93519,52.30675],[-1.93512,52.30668],[-1.93514,52.30667],[-1.93509,52.30663],[-1.93575,52.30635],[-1.93582,52.30633],[-1.9359,52.3064],[-1.93583,52.30643],[-1.93595,52.30654]]]]}},
{ "type":"Feature","properties":{"osm_way_id":"152800751","name":"Morrisons","building":"supermarket","shop":"supermarket","other":{"addr:postcode":"B98 0SW","brand":"Morrisons","brand:wikidata":"Q922344","brand:wikipedia":"en:Morrisons","cafe":"yes","opening_hours":"Mo-Sa 07:00-22:00; Su 10:00-16:00","website":"https:\/\/my.morrisons.com\/storefinder\/257"}}, "geometry":{"type":"MultiPolygon","coordinates":[[[[-1.90802,52.30138],[-1.90797,52.30162],[-1.90777,52.3016],[-1.90773,52.30179],[-1.90793,52.30181],[-1.9079,52.302],[-1.9075,52.30197],[-1.90748,52.30207],[-1.90665,52.30201],[-1.90665,52.30198],[-1.90673,52.30162],[-1.90664,52.30162],[-1.90668,52.30143],[-1.90663,52.30143],[-1.90666,52.30129],[-1.90675,52.3013],[-1.90677,52.30121],[-1.90732,52.30125],[-1.90731,52.30133],[-1.90802,52.30138]]]]}},
{ "type":"Feature","properties":{"osm_way_id":"286527484","name":"ALDI","shop":"supermarket","other":{"addr:city":"Redditch","addr:postcode":"B98 7AH","addr:street":"Trescott Road","brand":"ALDI","brand:wikidata":"Q41171672","brand:wikipedia":"en:Aldi","fhrs:id":"685166","wheelchair":"yes"}}, "geometry":{"type":"MultiPolygon","coordinates":[[[[-1.93528,52.3038],[-1.9356,52.30437],[-1.93522,52.30446],[-1.9352,52.30442],[-1.93501,52.30409],[-1.93492,52.30393],[-1.93513,52.30388],[-1.93511,52.30383],[-1.93528,52.3038]]]]}},
{ "type":"Feature","properties":{"osm_way_id":"286613920","name":"Al-waris","building":"retail","shop":"supermarket"},"geometry":{"type":"MultiPolygon","coordinates":[[[[-1.93797,52.30427],[-1.93782,52.3043],[-1.93769,52.30405],[-1.93785,52.30402],[-1.93797,52.30427]]]]}}
]
}
