{
"type": "FeatureCollection",
"features": [
{ "type":"Feature","properties":{"osm_id":"15613922","name":"Sainsbury's Corey's Mill","other":{"designation":"0434","phone":"+44 1438 759602","shop":"supermarket"}}, "geometry":{"type":"Point","coordinates":[-0.21961,51.92449 ]}},
{ "type":"Feature","properties":{"osm_id":"534460562","name":"Tesco","other":{"addr:city":"Stevenage","addr:postcode":"SG2 8DT","addr:street":"London Road","alt_name":"Tesco Stevenage Broadwater Superstore","brand":"Tesco","brand:wikidata":"Q487494","brand:wikipedia":"en:Tesco","contact:website":"https:\/\/www.tesco.com\/store-locator\/stevenage\/london-road","fhrs:id":"349475","operator":"Tesco Stores Ltd","phone":"+44 345 6779114","shop":"supermarket","source:addr":"FHRS Open Data"}}, "geometry":{"type":"Point","coordinates":[-0.19323,51.8842 ]}},
{ "type":"Feature","properties":{"osm_id":"652802614","name":"The Co-Operative","other":{"shop":"supermarket","fhrs:id":"349245","addr:city":"Stevenage","addr:street":"The Oval","addr:country":"GB","addr:postcode":"SG1 5RB","addr:housenumber":"14-18"}}, "geometry":{"type":"Point","coordinates":[-0.17938,51.9184 ]}},
{ "type":"Feature","properties":{"osm_id":"2444853087","name":"Tesco Express","other":{"addr:city":"Stevenage","addr:housenumber":"50","addr:postcode":"SG1 3EF","addr:street":"High Street","brand":"Tesco Express","brand:wikidata":"Q98456772","brand:wikipedia":"en:Tesco","contact:website":"https:\/\/www.tesco.com\/store-locator\/stevenage\/50-high-st","designation":"6131","fhrs:id":"349276","operator":"Tesco Stores Ltd","phone":"+44 3456746462","shop":"supermarket","source:addr":"FHRS Open Data"}}, "geometry":{"type":"Point","coordinates":[-0.20901,51.91253 ]}},
{ "type":"Feature","properties":{"osm_id":"2874761451","name":"Martin`s","other":{"shop":"supermarket","operator":"Martins"}}, "geometry":{"type":"Point","coordinates":[-0.18309,51.92445 ]}},
{ "type":"Feature","properties":{"osm_id":"6700950146","name":"Londis","other":{"shop":"supermarket","brand":"Londis","brand:wikidata":"Q21008564","brand:wikipedia":"en:Londis (United Kingdom)"}}, "geometry":{"type":"Point","coordinates":[-0.20149,51.90106 ]}},
{ "type":"Feature","properties":{"osm_id":"8378253172","name":"Londis","other":{"addr:city":"Stevenage","addr:housenumber":"279","addr:postcode":"SG1 5HF","addr:street":"Archer Road","fhrs:id":"349285","operator":"Londis","shop":"supermarket","source:addr":"FHRS Open Data"}}, "geometry":{"type":"Point","coordinates":[-0.18357,51.90987 ]}},
{ "type":"Feature","properties":{"osm_id":"9272317601","other":{"noexit":"yes"}}, "geometry":{"type":"Point","coordinates":[-0.17607,51.92631 ]}},
{ "type":"Feature","properties":{"osm_way_id":"31354211","name":"Asda","building":"retail","shop":"supermarket","other":{"brand":"Asda","fhrs:id":"349152","operator":"Asda Stores Ltd","addr:city":"Stevenage","wheelchair":"yes","addr:street":"Monkswood Way","source:addr":"FHRS Open Data","addr:country":"GB","addr:postcode":"SG1 1LA","contact:phone":"+44 1438 744800","brand:wikidata":"Q297410","brand:wikipedia":"en:Asda","contact:twitter":"@asda","contact:website":"https:\/\/storelocator.asda.com\/east-of-england\/stevenage\/monkswood-way","contact:facebook":"https:\/\/www.facebook.com\/asda\/","opening_hours:covid19":"Mo-Sa 08:00-22:00; Su 10:00-16:00"}}, "geometry":{"type":"MultiPolygon","coordinates":[[[[-0.201,51.89869],[-0.20221,51.89859],[-0.20216,51.89833],[-0.20239,51.89832],[-0.20226,51.89767],[-0.20203,51.89769],[-0.20203,51.89766],[-0.20176,51.89768],[-0.20169,51.89736],[-0.20077,51.89743],[-0.201,51.89869]]]]}},
{ "type":"Feature","properties":{"osm_way_id":"93936625","name":"Sainsbury's","building":"yes","shop":"supermarket","other":{"brand:wikidata":"Q152096"}}, "geometry":{"type":"MultiPolygon","coordinates":[[[[-0.22036,51.92477],[-0.22029,51.92431],[-0.2205,51.9243],[-0.22049,51.92423],[-0.22055,51.92422],[-0.22054,51.92414],[-0.22027,51.92416],[-0.22027,51.92415],[-0.22017,51.92416],[-0.22016,51.9241],[-0.2202,51.92409],[-0.22019,51.924],[-0.22075,51.92397],[-0.22075,51.92394],[-0.21984,51.92398],[-0.21986,51.92413],[-0.21932,51.92416],[-0.21931,51.92405],[-0.21897,51.92407],[-0.21906,51.92469],[-0.2191,51.92469],[-0.21911,51.92473],[-0.21911,51.92475],[-0.21921,51.92475],[-0.21922,51.92484],[-0.21941,51.92483],[-0.2194,51.92482],[-0.22036,51.92477]]]]}},
{ "type":"Feature","properties":{"osm_way_id":"173989657","name":"Sainsbury's","building":"retail","shop":"supermarket","other":{"addr:city":"Stevenage","addr:postcode":"SG2 7DU","addr:street":"Magpie Crescent","branch":"Stevenage Superstore","brand":"Sainsbury's","brand:wikidata":"Q152096","fhrs:id":"349493","opening_hours":"Mo-Sa 07:00-22:00; Su 10:00-16:00"}}, "geometry":{"type":"MultiPolygon","coordinates":[[[[-0.15811,51.89427],[-0.15845,51.89442],[-0.15811,51.89471],[-0.15886,51.89504],[-0.15875,51.89515],[-0.15907,51.8953],[-0.15978,51.89468],[-0.15866,51.89419],[-0.15855,51.8943],[-0.15824,51.89416],[-0.15811,51.89427]]]]}},
{ "type":"Feature","properties":{"osm_way_id":"228397621","name":"Tesco Extra","building":"yes","shop":"supermarket","other":{"brand":"Tesco Extra","fhrs:id":"349604","operator":"Tesco Stores Ltd","addr:city":"Stevenage","wheelchair":"yes","addr:street":"The Forum","source:addr":"FHRS Open Data","addr:postcode":"SG1 1ES","brand:wikidata":"Q25172225","brand:wikipedia":"en:Tesco Extra"}}, "geometry":{"type":"MultiPolygon","coordinates":[[[[-0.20549,51.90412],[-0.20531,51.90414],[-0.20532,51.90416],[-0.20444,51.90426],[-0.20417,51.90429],[-0.20418,51.90433],[-0.20398,51.90435],[-0.20372,51.90438],[-0.20368,51.90427],[-0.20355,51.90385],[-0.20353,51.90379],[-0.20398,51.90374],[-0.20396,51.90366],[-0.2049,51.90355],[-0.20489,51.90353],[-0.20511,51.9035],[-0.20529,51.90348],[-0.20549,51.90412]]]]}},
{ "type":"Feature","properties":{"osm_way_id":"281583103","name":"Aldi","building":"yes","shop":"supermarket","other":{"addr:city":"Stevenage","addr:postcode":"SG1 1FZ","addr:street":"Fairlands Way","brand":"ALDI","brand:wikidata":"Q41171672","brand:wikipedia":"en:Aldi","fhrs:id":"349170","source:addr":"FHRS Open Data","wheelchair":"yes"}}, "geometry":{"type":"MultiPolygon","coordinates":[[[[-0.20427,51.90556],[-0.20353,51.90566],[-0.20347,51.90549],[-0.20421,51.90538],[-0.20427,51.90556]]]]}}
]
}
