{
"type": "FeatureCollection",
"features": [
{ "type":"Feature","properties":{"osm_id":"364788038","other":{"amenity":"parking"}}, "geometry":{"type":"Point","coordinates":[0.50547,51.29116 ]}},
{ "type":"Feature","properties":{"osm_id":"676308740","name":"Tesco","other":{"addr:city":"Weavering","addr:country":"GB","addr:housename":"Minor Centre","addr:postcode":"ME14 5TQ","addr:street":"Grovewood Drive North","brand":"Tesco","brand:wikidata":"Q487494","contact:website":"https:\/\/www.tesco.com\/store-locator\/maidstone\/grovewood-dr-north","fhrs:id":"720991","operator":"Tesco Stores Ltd","shop":"supermarket"}}, "geometry":{"type":"Point","coordinates":[0.5558,51.27665 ]}},
{ "type":"Feature","properties":{"osm_id":"2217644881","name":"Spar","other":{"shop":"supermarket","brand":"Spar","brand:wikidata":"Q610492","brand:wikipedia":"en:Spar (retailer)"}}, "geometry":{"type":"Point","coordinates":[0.50885,51.26823 ]}},
{ "type":"Feature","properties":{"osm_id":"4225461491","name":"The Co-operative Food","other":{"shop":"supermarket","level":"0","wheelchair":"yes"}}, "geometry":{"type":"Point","coordinates":[0.56426,51.26482 ]}},
{ "type":"Feature","properties":{"osm_id":"4920986685","name":"The Co-operative Lenham","other":{"shop":"supermarket","level":"0","fhrs:id":"928100","wheelchair":"yes","addr:street":"Faversham Road","fhrs:rating":"5","addr:postcode":"ME17 2PN","opening_hours":"Mo-Su 07:00-22:00","fhrs:authority":"Maidstone","addr:housenumber":"8","fhrs:inspectiondate":"2016-11-07"}}, "geometry":{"type":"Point","coordinates":[0.71906,51.23785 ]}},
{ "type":"Feature","properties":{"osm_id":"5955630389","name":"ALDI","other":{"addr:city":"Maidstone","addr:postcode":"ME17 3FW","addr:street":"Langley Park","brand":"ALDI","brand:wikidata":"Q41171672","brand:wikipedia":"en:Aldi","operator":"Aldi","shop":"supermarket"}}, "geometry":{"type":"Point","coordinates":[0.56892,51.23987 ]}},
{ "type":"Feature","properties":{"osm_id":"8280823536","name":"The Food Warehouse","other":{"brand":"The Food Warehouse","brand:wikidata":"Q87263899","shop":"supermarket"}}, "geometry":{"type":"Point","coordinates":[0.50952,51.27901 ]}},
{ "type":"Feature","properties":{"osm_id":"8375348936","highway":"street_lamp","other":{"direction":"-5","height":"2","lamp_mount":"wall","lamp_type":"electric"}}, "geometry":{"type":"Point","coordinates":[0.52669,51.26619 ]}},
{ "type":"Feature","properties":{"osm_id":"8631108464","name":"Morrisons","other":{"branch":"Daily","brand":"Morrisons","brand:wikidata":"Q922344","brand:wikipedia":"en:Morrisons","operator":"Morrisons","shop":"supermarket","website":"https:\/\/my.morrisons.com\/storefinder\/31335"}}, "geometry":{"type":"Point","coordinates":[0.55277,51.1551 ]}},
{ "type":"Feature","properties":{"osm_id":"9056099205","other":{"amenity":"loading_dock"}}, "geometry":{"type":"Point","coordinates":[0.49784,51.28627 ]}},
{ "type":"Feature","properties":{"osm_id":"9365513809","other":{"amenity":"parking_space","capacity":"1"}}, "geometry":{"type":"Point","coordinates":[0.52795,51.2726 ]}},
{ "type":"Feature","properties":{"osm_id":"9365513810","other":{"amenity":"parking_space","capacity":"1"}}, "geometry":{"type":"Point","coordinates":[0.52795,51.27263 ]}},
{ "type":"Feature","properties":{"osm_id":"9365513811","other":{"amenity":"parking_space","capacity":"1"}}, "geometry":{"type":"Point","coordinates":[0.52796,51.27267 ]}},
{ "type":"Feature","properties":{"osm_id":"9365513812","other":{"amenity":"parking_space","capacity":"1"}}, "geometry":{"type":"Point","coordinates":[0.52796,51.2727 ]}},
{ "type":"Feature","properties":{"osm_id":"9365513813","other":{"amenity":"parking_space","capacity":"1"}}, "geometry":{"type":"Point","coordinates":[0.52796,51.27273 ]}},
{ "type":"Feature","properties":{"osm_id":"9365513814","other":{"amenity":"parking_space","capacity":"1"}}, "geometry":{"type":"Point","coordinates":[0.52796,51.27276 ]}},
{ "type":"Feature","properties":{"osm_id":"9365513815","other":{"amenity":"parking_space","capacity":"1"}}, "geometry":{"type":"Point","coordinates":[0.52797,51.2728 ]}},
{ "type":"Feature","properties":{"osm_id":"9365513816","other":{"amenity":"parking_space","capacity":"1"}}, "geometry":{"type":"Point","coordinates":[0.52797,51.27283 ]}},
{ "type":"Feature","properties":{"osm_id":"9365513817","other":{"amenity":"parking_space","capacity":"1"}}, "geometry":{"type":"Point","coordinates":[0.52797,51.27286 ]}},
{ "type":"Feature","properties":{"osm_way_id":"55384078","name":"Morrisons","building":"yes","shop":"supermarket","other":{"addr:city":"Maidstone","addr:postcode":"ME15 9NN","addr:street":"Sutton Road","alt_name":"Morrisons Maidstone","brand":"Morrisons","brand:wikidata":"Q922344","brand:wikipedia":"en:Morrisons","dispensing":"yes","opening_hours":"Mo-Sa 07:00-23:00 Su 10:00-16:00"}}, "geometry":{"type":"MultiPolygon","coordinates":[[[[0.54681,51.24685],[0.54652,51.24651],[0.54664,51.24647],[0.54644,51.24622],[0.54727,51.24587],[0.54729,51.2459],[0.54744,51.24584],[0.54769,51.24615],[0.5479,51.24648],[0.54705,51.24677],[0.54681,51.24685]]]]}},
{ "type":"Feature","properties":{"osm_way_id":"298764167","name":"Sainsbury's","building":"yes","shop":"supermarket","other":{"addr:city":"Maidstone","addr:country":"GB","addr:county":"Kent","addr:housename":"Sainsburys Supermarket Limited","addr:postcode":"ME15 6SF","addr:street":"Romney Place","alt_name":"Sainsbury's Maidstone Superstore","brand":"Sainsbury's","brand:wikidata":"Q152096","brand:wikipedia":"en:Sainsbury's","fhrs:id":"720548","opening_hours":"Mo-Fr 07:00-22:00; Sa 07:00-21:00; Su 11:00-17:00","operator":"Sainsbury's"}}, "geometry":{"type":"MultiPolygon","coordinates":[[[[0.52686,51.27292],[0.52797,51.27289],[0.52797,51.27286],[0.52797,51.27283],[0.52797,51.2728],[0.52796,51.27276],[0.52796,51.27273],[0.52796,51.2727],[0.52796,51.27267],[0.52795,51.27263],[0.52795,51.2726],[0.52793,51.27233],[0.52743,51.27234],[0.52682,51.27236],[0.52686,51.27292]]]]}},
{ "type":"Feature","properties":{"osm_way_id":"318453956","name":"Sainsbury's Local","building":"retail","shop":"supermarket","other":{"addr:county":"Kent","addr:housenumber":"34","addr:place":"Headcorn","addr:postcode":"TN27 9NE","addr:street":"High Street","alt_name":"Sainsbury's Headcorn Local","brand:wikidata":"Q13218434","fhrs:authority":"Maidstone","fhrs:id":"721088","fhrs:inspectiondate":"2016-11-03","fhrs:rating":"5"}}, "geometry":{"type":"MultiPolygon","coordinates":[[[[0.62255,51.16772],[0.62248,51.16758],[0.62241,51.16747],[0.62265,51.16742],[0.62279,51.16767],[0.62255,51.16772]]]]}},
{ "type":"Feature","properties":{"osm_way_id":"406187449","name":"Tesco","building":"yes","shop":"supermarket","other":{"addr:city":"Tovil","addr:postcode":"ME15 6RQ","addr:street":"Farleigh Hill","alt_name":"Tesco Maidstone Tovil Superstore","brand":"Tesco","brand:wikidata":"Q487494","brand:wikipedia":"en:Tesco","opening_hours":"Mo-Sa 06:00-22:00 Su 10:00-16:00"}}, "geometry":{"type":"MultiPolygon","coordinates":[[[[0.51012,51.26174],[0.51077,51.26136],[0.51039,51.2611],[0.51013,51.26125],[0.51009,51.26123],[0.50992,51.26133],[0.50988,51.26142],[0.51004,51.26153],[0.50992,51.2616],[0.51012,51.26174]]]]}},
{ "type":"Feature","properties":{"osm_way_id":"440678420","name":"Waitrose","building":"retail","shop":"supermarket","other":{"addr:city":"Maidstone","addr:postcode":"ME16 0PX","addr:street":"Castle Road","brand":"Waitrose","brand:wikidata":"Q771734","brand:wikipedia":"en:Waitrose","official_name":"Waitrose & Partners","opening_hours":"Mo-Sa 08:00-20:00; Su 10:00-16:00","operator":"Waitrose & Partners"}}, "geometry":{"type":"MultiPolygon","coordinates":[[[[0.49759,51.28652],[0.49714,51.28624],[0.49746,51.28604],[0.49765,51.28616],[0.49784,51.28627],[0.49791,51.28632],[0.49759,51.28652]]]]}},
{ "type":"Feature","properties":{"osm_way_id":"447105105","name":"Lidl","building":"yes","shop":"supermarket","other":{"addr:city":"Tovil","addr:country":"GB","addr:housename":"Farleigh Hill Trading Estate","addr:postcode":"ME15 6RG","addr:street":"Farleigh Hill","addr:unit":"1A","brand":"Lidl","brand:wikidata":"Q151954","brand:wikipedia":"en:Lidl","fhrs:id":"721043","opening_hours":"Mo-Sa 08:00-21:00; Su 10:00-16:00"}}, "geometry":{"type":"MultiPolygon","coordinates":[[[[0.51082,51.26239],[0.51114,51.26221],[0.5116,51.26251],[0.51128,51.2627],[0.51082,51.26239]]]]}},
{ "type":"Feature","properties":{"osm_way_id":"791281466","name":"Aldi","building":"yes","shop":"supermarket","other":{"addr:city":"Maidstone","addr:country":"GB","addr:county":"Kent","addr:postcode":"ME14 2FE","addr:street":"Wheeler Street","brand":"ALDI","brand:wikidata":"Q41171672","brand:wikipedia":"en:Aldi","fhrs:id":"721452","operator":"Aldi Stores Ltd"}}, "geometry":{"type":"MultiPolygon","coordinates":[[[[0.52615,51.27918],[0.52682,51.27891],[0.52669,51.27878],[0.52674,51.27876],[0.52666,51.27868],[0.52651,51.27873],[0.52653,51.27875],[0.52623,51.27887],[0.52609,51.27893],[0.52597,51.27902],[0.52592,51.27908],[0.52594,51.27912],[0.52605,51.27906],[0.52615,51.27918]]]]}},
{ "type":"Feature","properties":{"osm_way_id":"837437477","name":"Spar","building":"yes","shop":"supermarket","other":{"brand":"Spar","brand:wikidata":"Q610492","brand:wikipedia":"en:Spar (retailer)","opening_hours":"Mo-Su 07:00-23:00"}}, "geometry":{"type":"MultiPolygon","coordinates":[[[[0.55188,51.1605],[0.55189,51.16054],[0.55167,51.16055],[0.55165,51.16037],[0.55195,51.16035],[0.55196,51.1605],[0.55188,51.1605]]]]}},
{ "type":"Feature","properties":{"osm_way_id":"880687308","name":"Tesco Express","building":"yes","shop":"supermarket","other":{"brand":"Tesco Express","brand:wikidata":"Q98456772","brand:wikipedia":"en:Tesco"}}, "geometry":{"type":"MultiPolygon","coordinates":[[[[0.52672,51.26619],[0.52674,51.26605],[0.52658,51.26604],[0.5265,51.26603],[0.52642,51.26603],[0.52632,51.26602],[0.52626,51.26614],[0.52663,51.26618],[0.52669,51.26619],[0.52672,51.26619]]]]}},
{ "type":"Feature","properties":{"osm_way_id":"923136664","name":"Sainsbury's","building":"yes","shop":"supermarket","other":{"brand":"Sainsbury's","brand:wikidata":"Q152096","brand:wikipedia":"en:Sainsbury's"}}, "geometry":{"type":"MultiPolygon","coordinates":[[[[0.5524,51.16976],[0.55243,51.16992],[0.55229,51.17005],[0.55204,51.17014],[0.55205,51.17016],[0.55172,51.17028],[0.55162,51.17027],[0.55159,51.17023],[0.55168,51.1702],[0.5514,51.16985],[0.55157,51.1698],[0.55154,51.16977],[0.55162,51.16974],[0.55165,51.16977],[0.55207,51.16964],[0.55204,51.1696],[0.55218,51.16956],[0.55221,51.16959],[0.55225,51.16957],[0.5524,51.16976]]]]}},
{ "type":"Feature","properties":{"osm_way_id":"1013813019","name":"Lidl","shop":"supermarket","other":{"addr:city":"Maidstone","addr:country":"GB","addr:housename":"The Broadway Shopping Centre","addr:postcode":"ME16 8PS","addr:street":"The Broadway","brand":"Lidl","brand:wikidata":"Q151954","brand:wikipedia":"en:Lidl","fhrs:id":"720939","level":"1","opening_hours":"Mo-Sa 08:00-22:00; Su 10:00-16:00"}}, "geometry":{"type":"MultiPolygon","coordinates":[[[[0.51641,51.2719],[0.51655,51.27143],[0.51713,51.27148],[0.51716,51.2715],[0.51718,51.27153],[0.51715,51.27166],[0.51714,51.2717],[0.51708,51.27189],[0.51703,51.27192],[0.51692,51.27189],[0.5165,51.27186],[0.51649,51.27191],[0.51641,51.2719]]]]}}
]
}
