{
"type": "FeatureCollection",
"features": [
{ "type":"Feature","properties":{"osm_id":"631477631","name":"Lidl","other":{"addr:country":"GB","addr:housenumber":"71-81","addr:postcode":"AL7 2BQ","addr:street":"Moors Walk","brand":"Lidl","brand:wikidata":"Q151954","brand:wikipedia":"en:Lidl","fhrs:id":"181950","operator":"Lidl","shop":"supermarket"}}, "geometry":{"type":"Point","coordinates":[-0.1723,51.80155 ]}},
{ "type":"Feature","properties":{"osm_id":"647222504","name":"Aldi","other":{"addr:city":"Hatfield","addr:country":"GB","addr:housenumber":"11","addr:postcode":"AL10 9RQ","addr:street":"Parkhouse Court","brand":"ALDI","brand:wikidata":"Q41171672","brand:wikipedia":"en:Aldi","opening_hours":"Mo-Sa 08:00-22:00, Su 11:00-17:00","shop":"supermarket","website":"https:\/\/www.aldi.co.uk\/store\/s-uk-E0563"}}, "geometry":{"type":"Point","coordinates":[-0.24079,51.76306 ]}},
{ "type":"Feature","properties":{"osm_id":"1135685204","name":"Co-operative","other":{"shop":"supermarket"}}, "geometry":{"type":"Point","coordinates":[-0.19522,51.79167 ]}},
{ "type":"Feature","properties":{"osm_id":"1199407679","name":"Co-operative Knightsfield","other":{"shop":"supermarket","addr:city":"Welwyn Garden City","addr:street":"Shoplands","addr:postcode":"AL8 7RH","opening_hours":"Mo-Su 06:00-22:00","addr:housenumber":"1-5"}}, "geometry":{"type":"Point","coordinates":[-0.20292,51.8153 ]}},
{ "type":"Feature","properties":{"osm_id":"1538290938","name":"Sainsbury's","other":{"shop":"supermarket","brand":"Sainsbury's","opening_hours":"Mo-Sa 07:00-22:00; Su 11:00-17:00","brand:wikidata":"Q152096","brand:wikipedia":"en:Sainsbury's"}}, "geometry":{"type":"Point","coordinates":[-0.20834,51.80078 ]}},
{ "type":"Feature","properties":{"osm_id":"2849980403","name":"Tesco Express","other":{"brand":"Tesco Express","brand:wikidata":"Q98456772","brand:wikipedia":"en:Tesco","contact:website":"https:\/\/www.tesco.com\/store-locator\/welwyn-garden-city\/moors-walk","operator":"Tesco Stores Ltd","shop":"supermarket"}}, "geometry":{"type":"Point","coordinates":[-0.17249,51.80188 ]}},
{ "type":"Feature","properties":{"osm_id":"6753134304","name":"Tesco Express","other":{"addr:city":"Welwyn Garden City","addr:postcode":"AL7 1TW","addr:street":"Falcon Way","brand":"Tesco Express","brand:wikidata":"Q98456772","brand:wikipedia":"en:Tesco","contact:website":"https:\/\/www.tesco.com\/store-locator\/welwyn-garden-city\/shirepark-falcon-way","opening_hours":"Mo-Fr 06:00-21:00","payment:credit_cards":"yes","payment:debit_cards":"yes","phone":"+44 345 610 6775","shop":"supermarket"}}, "geometry":{"type":"Point","coordinates":[-0.19487,51.80847 ]}},
{ "type":"Feature","properties":{"osm_way_id":"53063407","name":"Asda","building":"retail","shop":"supermarket","other":{"addr:city":"Hatfield","addr:country":"GB","addr:housenumber":"98","addr:postcode":"AL10 0JP","addr:street":"Town Centre","brand":"Asda","brand:wikidata":"Q297410","brand:wikipedia":"en:Asda","building:levels":"2","facebook":"https:\/\/www.facebook.com\/asda\/","fhrs:id":"181868","opening_hours":"Mo-Fr 07:00-00:00; Sa 07:00-22:00; Su 10:00-16:00","operator":"Asda Stores Ltd","phone":"+44 1707 630800","roof:levels":"1","roof:shape":"round","twitter":"@asda","website":"https:\/\/storelocator.asda.com\/east-of-england\/hatfield\/98-town-centre"}}, "geometry":{"type":"MultiPolygon","coordinates":[[[[-0.22954,51.7632],[-0.22931,51.76329],[-0.2285,51.76365],[-0.22847,51.76366],[-0.22843,51.76366],[-0.22839,51.76365],[-0.22836,51.76364],[-0.22819,51.76337],[-0.22817,51.76338],[-0.22815,51.76334],[-0.22784,51.7629],[-0.22783,51.76289],[-0.22843,51.76273],[-0.22838,51.76266],[-0.22907,51.76249],[-0.22907,51.7625],[-0.22908,51.76252],[-0.2291,51.76251],[-0.22913,51.7625],[-0.2292,51.76251],[-0.22922,51.76253],[-0.22923,51.76255],[-0.22926,51.76254],[-0.22942,51.76278],[-0.2293,51.76282],[-0.22954,51.7632]]]]}},
{ "type":"Feature","properties":{"osm_way_id":"161525872","name":"Waitrose","building":"retail","shop":"supermarket","other":{"brand":"Waitrose","operator":"Waitrose & Partners","addr:postcode":"AL8 6AB","official_name":"Waitrose & Partners","brand:wikidata":"Q771734","brand:wikipedia":"en:Waitrose & Partners"}}, "geometry":{"type":"MultiPolygon","coordinates":[[[[-0.20473,51.8036],[-0.20468,51.80359],[-0.20471,51.80354],[-0.2046,51.80352],[-0.20457,51.80357],[-0.20453,51.80356],[-0.20458,51.80346],[-0.20411,51.80336],[-0.20378,51.80395],[-0.20394,51.80399],[-0.20398,51.80391],[-0.2045,51.80401],[-0.20469,51.80367],[-0.20473,51.8036]]]]}},
{ "type":"Feature","properties":{"osm_way_id":"161527170","name":"Morrisons","building":"retail","shop":"supermarket","other":{"addr:postcode":"AL7 1RY","brand":"Morrisons","brand:wikidata":"Q922344","brand:wikipedia":"en:Morrisons","wheelchair":"yes"}}, "geometry":{"type":"MultiPolygon","coordinates":[[[[-0.18018,51.79918],[-0.17945,51.7989],[-0.17948,51.79886],[-0.17928,51.79879],[-0.17888,51.79923],[-0.17902,51.79928],[-0.17899,51.79932],[-0.17939,51.79961],[-0.17944,51.79955],[-0.17957,51.79959],[-0.17965,51.79952],[-0.17983,51.79958],[-0.18018,51.79918]]]]}},
{ "type":"Feature","properties":{"osm_way_id":"161528023","name":"Tesco Extra","building":"retail","shop":"supermarket","other":{"addr:city":"Hatfield","addr:housename":"Mount Pleasant","addr:street":"Oldings Corner","brand":"Tesco Extra","brand:wikidata":"Q25172225","brand:wikipedia":"en:Tesco Extra","contact:website":"https:\/\/www.tesco.com\/store-locator\/hatfield\/great-north-road","operator":"Tesco Stores Ltd"}}, "geometry":{"type":"MultiPolygon","coordinates":[[[[-0.21943,51.77604],[-0.21935,51.7761],[-0.21936,51.77613],[-0.21923,51.77614],[-0.21926,51.77628],[-0.2189,51.7763],[-0.21886,51.77632],[-0.21898,51.7764],[-0.21912,51.77639],[-0.21913,51.77646],[-0.2195,51.77643],[-0.21953,51.77656],[-0.21964,51.77656],[-0.21965,51.77663],[-0.21977,51.77669],[-0.22009,51.77667],[-0.2201,51.77672],[-0.22083,51.77668],[-0.22109,51.77678],[-0.22113,51.77675],[-0.22142,51.77651],[-0.2212,51.77639],[-0.22113,51.77593],[-0.2211,51.77592],[-0.21943,51.77604]]]]}},
{ "type":"Feature","properties":{"osm_way_id":"682155506","name":"Aldi","building":"yes","shop":"supermarket","other":{"addr:postcode":"AL7 1HH","addr:street":"Bessemer Road","brand":"ALDI","brand:wikidata":"Q41171672","brand:wikipedia":"en:Aldi","opening_hours":"Mo-Sa 08:00-22:00; Su 11:00-17:00"}}, "geometry":{"type":"MultiPolygon","coordinates":[[[[-0.197,51.80226],[-0.19653,51.80216],[-0.19643,51.80235],[-0.19633,51.80232],[-0.19627,51.80242],[-0.19638,51.80245],[-0.19632,51.80254],[-0.19624,51.80268],[-0.19657,51.80275],[-0.19668,51.80277],[-0.197,51.80226]]]]}}
]
}
