{
"type": "FeatureCollection",
"features": [
{ "type":"Feature","properties":{"osm_id":"316507756","name":"East of England Co-op","other":{"shop":"supermarket","fhrs:id":"533997","website":"https:\/\/www.eastofengland.coop\/foodstores\/ulster-avenue-ipswich","operator":"East of England Co-operative Society","addr:city":"Ipswich","addr:street":"Ulster Avenue","addr:postcode":"IP1 5JS","opening_hours":"Mo-Sa 07:00-22:00; Su 08:00-22:00","addr:housenumber":"19-21"}}, "geometry":{"type":"Point","coordinates":[1.11829,52.07448 ]}},
{ "type":"Feature","properties":{"osm_id":"1832151504","name":"Tesco Express","other":{"addr:city":"Ipswich","addr:housenumber":"47-57","addr:postcode":"IP1 3EW","addr:street":"St Matthew's Street","brand":"Tesco Express","brand:wikidata":"Q98456772","brand:wikipedia":"en:Tesco","contact:website":"https:\/\/www.tesco.com\/store-locator\/ipswich\/47-51-st-matthews-st","fhrs:id":"516967","operator":"Tesco Stores Ltd","shop":"supermarket"}}, "geometry":{"type":"Point","coordinates":[1.14744,52.05971 ]}},
{ "type":"Feature","properties":{"osm_id":"2904108125","name":"Lituanica","other":{"shop":"supermarket","fhrs:id":"209826","website":"https:\/\/lituanica.co.uk\/store-ipswich","addr:city":"Ipswich","addr:street":"Duke Street","addr:postcode":"IP3 0AQ","opening_hours":"Mo-Sa 09:00-20:00; Su 09:00-18:00","addr:housenumber":"12"}}, "geometry":{"type":"Point","coordinates":[1.16453,52.05187 ]}},
{ "type":"Feature","properties":{"osm_id":"3582243913","name":"International Food Store","other":{"shop":"supermarket","fhrs:id":"712031","addr:city":"Ipswich","addr:street":"Austin Street","addr:postcode":"IP2 8DF","addr:housenumber":"59"}}, "geometry":{"type":"Point","coordinates":[1.15512,52.04927 ]}},
{ "type":"Feature","properties":{"osm_id":"3594659318","name":"East of England Co-op","other":{"atm":"yes","shop":"supermarket","fhrs:id":"510367","website":"https:\/\/www.eastofengland.coop\/store-finder\/stores\/ipswich-fircroft-road-foodstore","paypoint":"yes","addr:city":"Ipswich","addr:street":"Fircroft Road","addr:postcode":"IP1 6PT","opening_hours":"Mo-Su 07:00-22:00","addr:housenumber":"147"}}, "geometry":{"type":"Point","coordinates":[1.14599,52.08269 ]}},
{ "type":"Feature","properties":{"osm_id":"3992502896","name":"WHSmith","other":{"shop":"supermarket","fhrs:id":"480141","addr:city":"Ipswich","addr:street":"Heath Road","source:addr":"FSA Food Hygiene Ratings Database","addr:locality":"Ipswich Hospital","addr:postcode":"IP4 5PD"}}, "geometry":{"type":"Point","coordinates":[1.19819,52.05633 ]}},
{ "type":"Feature","properties":{"osm_id":"3992503323","name":"WHSmith","other":{"shop":"supermarket"}}, "geometry":{"type":"Point","coordinates":[1.19828,52.05749 ]}},
{ "type":"Feature","properties":{"osm_id":"4518152880","name":"Ipswich Ripple Food Co-op","other":{"shop":"supermarket","fhrs:id":"563719","website":"http:\/\/ipswichripplefoodcoop.yolasite.com","addr:city":"Ipswich","addr:street":"Tower Street","addr:postcode":"IP1 3BE","opening_hours":"Sa 10:30-13:30; 'fortnightly; check website'","addr:housenumber":"19"}}, "geometry":{"type":"Point","coordinates":[1.15508,52.05881 ]}},
{ "type":"Feature","properties":{"osm_id":"4417072","name":"Atherton Road","highway":"residential","other":{"maxspeed":"30 mph","surface":"paved"}}, "geometry":{"type":"LineString","coordinates":[[1.11907,52.03892],[1.11869,52.03922],[1.1186,52.03935],[1.11855,52.03957],[1.11857,52.03975],[1.11865,52.03996],[1.11882,52.04016],[1.11872,52.04071]]}},
{ "type":"Feature","properties":{"osm_way_id":"23146916","name":"Asda","building":"yes","shop":"supermarket","other":{"addr:city":"Ipswich","addr:country":"GB","addr:housename":"Whitehouse Industrial Estate","addr:postcode":"IP1 5PD","addr:street":"Goddard Road","brand":"Asda","brand:wikidata":"Q297410","brand:wikipedia":"en:Asda","contact:facebook":"https:\/\/www.facebook.com\/asda\/","contact:phone":"+44 1473 240234","contact:twitter":"@asda","contact:website":"https:\/\/storelocator.asda.com\/east-of-england\/ipswich\/whitehouse-industrial-estate","designation":"Ipswich Superstore","fhrs:id":"493568","opening_hours":"Mo 07:00-24:00; Tu-Fr 00:00-24:00; Sa 00:00-22:00; Su 10:00-16:00","opening_hours:covid19":"Mo-Sa 08:00-22:00; Su 10:00-16:00","operator":"Asda Stores Ltd"}}, "geometry":{"type":"MultiPolygon","coordinates":[[[[1.11399,52.08458],[1.11453,52.08449],[1.11455,52.08453],[1.11477,52.0845],[1.11508,52.08445],[1.1151,52.08448],[1.1151,52.0845],[1.11515,52.08449],[1.11521,52.08448],[1.11525,52.08447],[1.11529,52.08444],[1.11533,52.08441],[1.11535,52.08437],[1.11536,52.08434],[1.11534,52.08425],[1.11532,52.08425],[1.11526,52.08426],[1.1152,52.0841],[1.11507,52.08381],[1.1149,52.08383],[1.11478,52.08357],[1.11469,52.08358],[1.11456,52.0836],[1.11453,52.08354],[1.11447,52.08355],[1.11447,52.08358],[1.11444,52.08359],[1.11445,52.08362],[1.11443,52.08363],[1.11419,52.08365],[1.11415,52.08358],[1.1134,52.08371],[1.11374,52.08446],[1.11379,52.08446],[1.11381,52.08451],[1.11394,52.08449],[1.11399,52.08458]]]]}},
{ "type":"Feature","properties":{"osm_way_id":"28943317","name":"Lidl","building":"retail","shop":"supermarket","other":{"brand":"Lidl","fhrs:id":"372243","website":"https:\/\/www.lidl.co.uk\/en\/785.htm","addr:city":"Ipswich","addr:street":"Handford Road","designation":"Ipswich Suffolk","addr:country":"GB","addr:postcode":"IP1 2EH","opening_hours":"Mo-Sa 08:00-21:00; Su 11:00-16:00","brand:wikidata":"Q151954","brand:wikipedia":"en:Lidl","addr:housenumber":"141"}}, "geometry":{"type":"MultiPolygon","coordinates":[[[[1.13668,52.05742],[1.13749,52.05747],[1.13748,52.05754],[1.13739,52.05753],[1.13737,52.05772],[1.13692,52.0577],[1.13692,52.05773],[1.13664,52.05771],[1.13668,52.05742]]]]}},
{ "type":"Feature","properties":{"osm_way_id":"105154401","name":"Sainsbury's","building":"retail","shop":"supermarket","other":{"addr:city":"Ipswich","addr:housenumber":"38-40","addr:postcode":"IP4 1DR","addr:street":"Upper Brook Street","brand":"Sainsbury's","brand:wikidata":"Q152096","brand:wikipedia":"en:Sainsbury's","designation":"Ipswich Superstore","fhrs:id":"521316","wheelchair":"yes"}}, "geometry":{"type":"MultiPolygon","coordinates":[[[[1.15611,52.05635],[1.15526,52.05631],[1.15524,52.05631],[1.15527,52.05599],[1.15575,52.05603],[1.15573,52.05616],[1.1561,52.05616],[1.15611,52.05635]]]]}},
{ "type":"Feature","properties":{"osm_way_id":"105885175","name":"Lidl","building":"retail","shop":"supermarket","other":{"addr:city":"Ipswich","addr:housenumber":"4-10","addr:postcode":"IP3 9QJ","addr:street":"Hening Avenue","brand":"Lidl","brand:wikidata":"Q151954","brand:wikipedia":"en:Lidl","building:levels":"1","fhrs:id":"384177","opening_hours":"Mo-Sa 08:00-22:00; Su 10:00-16:00"}}, "geometry":{"type":"MultiPolygon","coordinates":[[[[1.20063,52.03048],[1.2003,52.03027],[1.20073,52.03001],[1.20106,52.03023],[1.20063,52.03048]]]]}},
{ "type":"Feature","properties":{"osm_way_id":"105885220","name":"Co-op Food","building":"retail","shop":"supermarket","other":{"brand":"Co-op Food","fhrs:id":"509097","website":"https:\/\/www.eastofengland.coop\/foodstores\/ravenswood-ipswich","operator":"East of England Co-operative Society","addr:city":"Ipswich","addr:street":"Hening Avenue","addr:postcode":"IP3 9QF","opening_hours":"Mo-Sa 07:00-22:00; Su 10:00-16:00","addr:housename":"Unit A Greenways","brand:wikidata":"Q3277439","brand:wikipedia":"en:Co-op Food","addr:housenumber":"28"}}, "geometry":{"type":"MultiPolygon","coordinates":[[[[1.19924,52.03113],[1.19953,52.03097],[1.19977,52.03112],[1.19948,52.03128],[1.19924,52.03113]]]]}},
{ "type":"Feature","properties":{"osm_way_id":"105885228","name":"The Food Warehouse","building":"retail","shop":"supermarket","other":{"addr:city":"Ipswich","addr:housenumber":"18","addr:postcode":"IP3 9SN","addr:street":"The Sandlings","brand":"The Food Warehouse","brand:wikidata":"Q87263899","fhrs:id":"1154815","operator":"Iceland","source:addr":"FHRS Open Data","website":"https:\/\/www.thefoodwarehouse.com\/store-locator\/ipswich-euro"}}, "geometry":{"type":"MultiPolygon","coordinates":[[[[1.20832,52.03448],[1.20803,52.03456],[1.20777,52.03463],[1.2079,52.03481],[1.20845,52.03467],[1.20832,52.03448]]]]}},
{ "type":"Feature","properties":{"osm_way_id":"146958355","name":"Go East","building":"retail","shop":"supermarket","other":{"cuisine":"chinese","fhrs:id":"588735","wikidata":"Q26502693","addr:city":"Ipswich","addr:street":"Orwell Place","addr:postcode":"IP4 1BB","addr:housenumber":"14"}}, "geometry":{"type":"MultiPolygon","coordinates":[[[[1.15921,52.05535],[1.15932,52.05534],[1.1593,52.05526],[1.15918,52.05527],[1.15921,52.05535]]]]}},
{ "type":"Feature","properties":{"osm_way_id":"169781058","name":"Morrisons","building":"retail","shop":"supermarket","other":{"addr:city":"Ipswich","addr:postcode":"IP1 5AQ","addr:street":"Sproughton Road","alt_name":"Morrisons Ipswich","brand":"Morrisons","brand:wikidata":"Q922344","brand:wikipedia":"en:Morrisons","fhrs:id":"418128","opening_hours":"Mo-Sa 07:00-22:00; Su 10:00-16:00","website":"https:\/\/my.morrisons.com\/storefinder\/81"}}, "geometry":{"type":"MultiPolygon","coordinates":[[[[1.12069,52.06386],[1.12085,52.06385],[1.12085,52.06382],[1.12167,52.06326],[1.12102,52.0629],[1.12087,52.06299],[1.12102,52.06308],[1.12087,52.06318],[1.12039,52.06291],[1.11979,52.06332],[1.12069,52.06381],[1.12069,52.06386]]]]}},
{ "type":"Feature","properties":{"osm_way_id":"172296305","name":"Sainsbury's","building":"retailail","shop":"supermarket","other":{"addr:city":"Ipswich","addr:housenumber":"40","addr:postcode":"IP2 0BX","addr:street":"Hadleigh Road","brand":"Sainsbury's","brand:wikidata":"Q152096","designation":"Hadleigh Road Superstore","fhrs:id":"509096","opening_hours":"Mo-Fr 08:00-22:00; Sa 07:00-22:00; Su 10:00-16:00","website":"https:\/\/stores.sainsburys.co.uk\/0422\/hadleigh-road"}}, "geometry":{"type":"MultiPolygon","coordinates":[[[[1.13144,52.05926],[1.13141,52.05909],[1.13143,52.05909],[1.13142,52.05899],[1.13141,52.05886],[1.1312,52.05887],[1.13119,52.05881],[1.13117,52.05881],[1.13117,52.05878],[1.13107,52.05879],[1.13106,52.05872],[1.1314,52.0587],[1.13139,52.05864],[1.13145,52.05864],[1.13144,52.05862],[1.13151,52.05861],[1.13151,52.05863],[1.1316,52.05863],[1.1316,52.0586],[1.13166,52.0586],[1.13167,52.05862],[1.1317,52.05862],[1.13169,52.05855],[1.13219,52.05852],[1.13219,52.05852],[1.13253,52.0585],[1.13253,52.05851],[1.13259,52.05851],[1.13266,52.0585],[1.13269,52.05875],[1.13265,52.05875],[1.13267,52.05889],[1.13266,52.05889],[1.13268,52.05903],[1.13285,52.05902],[1.13288,52.0592],[1.1327,52.05925],[1.13257,52.05925],[1.13257,52.05929],[1.13244,52.0593],[1.13244,52.05928],[1.13176,52.05932],[1.13175,52.05924],[1.13144,52.05926]]]]}},
{ "type":"Feature","properties":{"osm_way_id":"172297028","name":"ALDI","building":"retail","shop":"supermarket","other":{"addr:city":"Ipswich","addr:housenumber":"14","addr:postcode":"IP1 6EB","addr:street":"Meredith Road","brand":"ALDI","brand:wikidata":"Q41171672","brand:wikipedia":"en:Aldi","designation":"Ipswich","fhrs:id":"515820","opening_hours":"Mo-Sa 08:00-22:00; Su 10:00-16:00","website":"https:\/\/www.aldi.co.uk\/store\/s-uk-E0290"}}, "geometry":{"type":"MultiPolygon","coordinates":[[[[1.12762,52.07866],[1.12775,52.07835],[1.12812,52.07841],[1.12794,52.07886],[1.12749,52.07879],[1.12755,52.07865],[1.12762,52.07866]]]]}},
{ "type":"Feature","properties":{"osm_way_id":"172297432","name":"Asda","building":"retail","shop":"supermarket","other":{"brand":"Asda","fhrs:id":"495792","operator":"Asda Stores Ltd","addr:city":"Ipswich","addr:street":"Stoke Park Drive","designation":"Stoke Park Superstore","addr:country":"GB","addr:postcode":"IP2 9TH","contact:phone":"+44 1473 556000","nohousenumber":"yes","opening_hours":"Mo-Sa 07:00-21:00;Th-Fr 07:00-22:00;Su 10:00-16:00","brand:wikidata":"Q297410","brand:wikipedia":"en:Asda","building:levels":"1","contact:twitter":"@asda","contact:website":"https:\/\/storelocator.asda.com\/east-of-england\/ipswich\/stoke-park-drive","contact:facebook":"https:\/\/www.facebook.com\/asda\/","source:addr:postcode":"FSA Food Hygiene Ratings Database"}}, "geometry":{"type":"MultiPolygon","coordinates":[[[[1.13592,52.03805],[1.13656,52.03828],[1.13702,52.03781],[1.13617,52.0375],[1.13598,52.0377],[1.13611,52.03775],[1.13603,52.03782],[1.13611,52.03785],[1.13592,52.03805]]]]}},
{ "type":"Feature","properties":{"osm_way_id":"190191426","name":"Waitrose","building":"retail","shop":"supermarket","other":{"addr:city":"Ipswich","addr:postcode":"IP3 9SQ","addr:street":"Crane Boulevard","alt_name":"Waitrose Ipswich","brand":"Waitrose","brand:wikidata":"Q771734","brand:wikipedia":"en:Waitrose & Partners","fhrs:id":"482018","official_name":"Waitrose & Partners","operator":"Waitrose & Partners","toilets":"yes","wheelchair":"yes"}}, "geometry":{"type":"MultiPolygon","coordinates":[[[[1.20412,52.03421],[1.20395,52.0343],[1.20403,52.03436],[1.20365,52.03456],[1.20424,52.03498],[1.20479,52.03469],[1.20412,52.03421]]]]}},
{ "type":"Feature","properties":{"osm_way_id":"196197658","name":"Co-op Daily","building":"yes","shop":"supermarket","other":{"fhrs:id":"225404","website":"https:\/\/www.eastofengland.coop\/store-finder\/stores\/ipswich-austin-street","operator":"East of England Co-operative Society","addr:city":"Ipswich","wheelchair":"yes","addr:street":"Austin Street","addr:postcode":"IP2 8DF","opening_hours":"Mo-Su 07:00-22:00","building:colour":"#C1BA76","building:levels":"2","addr:housenumber":"89","building:material":"brick"}}, "geometry":{"type":"MultiPolygon","coordinates":[[[[1.15523,52.04911],[1.15535,52.04907],[1.15546,52.04904],[1.15566,52.04911],[1.15557,52.04924],[1.15553,52.04923],[1.15552,52.04924],[1.15535,52.04927],[1.15523,52.04911]]]]}},
{ "type":"Feature","properties":{"osm_way_id":"232713590","name":"McColl's","building":"retail","shop":"supermarket","other":{"fhrs:id":"920490","website":"https:\/\/www.mccolls.co.uk\/store-locator.aspx?search=ip1+6ed","addr:city":"Ipswich","addr:street":"Meredith Road","addr:postcode":"IP1 6ED","opening_hours":"Mo-Sa 06:00-22:00; Su 07:00-22:00","addr:housenumber":"17-23"}}, "geometry":{"type":"MultiPolygon","coordinates":[[[[1.12698,52.07921],[1.12704,52.07908],[1.12708,52.07898],[1.12746,52.07904],[1.1274,52.07916],[1.12735,52.07927],[1.12698,52.07921]]]]}},
{ "type":"Feature","properties":{"osm_way_id":"343457539","name":"Co-Op","building":"commercial","shop":"supermarket"},"geometry":{"type":"MultiPolygon","coordinates":[[[[1.13787,52.08004],[1.13809,52.08004],[1.13808,52.07974],[1.13786,52.07974],[1.13787,52.08004]]]]}},
{ "type":"Feature","properties":{"osm_way_id":"353832236","name":"East of England Co-operative Foodstore","building":"yes","shop":"supermarket","other":{"fhrs:id":"504917","operator":"East of England Co-operative","addr:city":"Ipswich","addr:street":"Woodbridge Road","addr:postcode":"IP4 4AX","opening_hours":"Mo-Su 7:00-22:00","addr:housenumber":"377"}}, "geometry":{"type":"MultiPolygon","coordinates":[[[[1.17437,52.06175],[1.17427,52.06173],[1.17426,52.06176],[1.17452,52.0618],[1.17459,52.06156],[1.17444,52.06154],[1.17437,52.06175]]]]}},
{ "type":"Feature","properties":{"osm_way_id":"371313221","name":"East of England Co-op","building":"yes","shop":"supermarket","other":{"fhrs:id":"467546","website":"https:\/\/www.eastofengland.coop\/store-finder\/stores\/ipswich-34-foxhall-road","operator":"East of England Co-operative Society","addr:city":"Ipswich","addr:street":"Foxhall Road","addr:postcode":"IP3 8HL","opening_hours":"Mo-Su 07:00-22:00","addr:housenumber":"34"}}, "geometry":{"type":"MultiPolygon","coordinates":[[[[1.17305,52.05332],[1.17313,52.05344],[1.1732,52.05355],[1.17344,52.05349],[1.17329,52.05326],[1.17305,52.05332]]]]}},
{ "type":"Feature","properties":{"osm_way_id":"606477817","name":"Sainsbury's Local","building":"yes","shop":"supermarket","other":{"addr:city":"Ipswich","addr:housenumber":"438","addr:postcode":"IP4 4EN","addr:street":"Woodbridge Road","brand:wikidata":"Q13218434","fhrs:id":"633643","opening_hours":"Mo-Su 07:00-23:00","operator":"Sainsburys"}}, "geometry":{"type":"MultiPolygon","coordinates":[[[[1.18221,52.0616],[1.18221,52.06164],[1.18207,52.06164],[1.18208,52.0617],[1.18213,52.0617],[1.18213,52.06175],[1.18233,52.06174],[1.18232,52.06169],[1.18234,52.06169],[1.18234,52.06166],[1.18232,52.06166],[1.18232,52.0616],[1.18221,52.0616]]]]}},
{ "type":"Feature","properties":{"osm_way_id":"631635125","name":"Coop Daily","building":"retail","shop":"supermarket","other":{"addr:city":"Ipswich","addr:street":"Penshurst Road","building:levels":"2","opening_hours":"Mo-Su 07:00-22:00","operator":"East of England Coop","url":"https:\/\/www.eastofengland.coop\/foodstores\/penshurt-road-ipswich"}}, "geometry":{"type":"MultiPolygon","coordinates":[[[[1.20499,52.04569],[1.20498,52.04564],[1.20492,52.04564],[1.20489,52.0455],[1.20513,52.04548],[1.20514,52.04551],[1.2054,52.04549],[1.20542,52.04563],[1.20524,52.04564],[1.20525,52.04567],[1.20518,52.04568],[1.20519,52.04573],[1.205,52.04574],[1.20499,52.04569]]]]}},
{ "type":"Feature","properties":{"osm_way_id":"658313853","name":"Aldi","building":"retail","shop":"supermarket","other":{"addr:city":"Ipswich","addr:postcode":"IP3 9BG","addr:street":"Hines Road","brand":"ALDI","brand:wikidata":"Q41171672","brand:wikipedia":"en:Aldi","opening_hours":"Mo-Sa 08:00-22:00; Su 10:00-16:00","source:outline":"Bing","website":"https:\/\/www.aldi.co.uk\/store\/s-uk-E0412"}}, "geometry":{"type":"MultiPolygon","coordinates":[[[[1.1824,52.04806],[1.18239,52.04805],[1.18273,52.04796],[1.18295,52.04831],[1.18302,52.04841],[1.18269,52.04849],[1.1824,52.04806]]]]}},
{ "type":"Feature","properties":{"osm_way_id":"658313856","name":"East of England Coop","building":"retail","shop":"supermarket","other":{"fhrs:id":"352335","website":"https:\/\/www.eastofengland.coop\/supermarket\/rosehill-ipswich","operator":"East of England Coop","addr:city":"Ipswich","addr:street":"Hines Road","addr:postcode":"IP3 9BG","source:outline":"Bing"}}, "geometry":{"type":"MultiPolygon","coordinates":[[[[1.18289,52.04792],[1.18306,52.04788],[1.18335,52.04833],[1.18319,52.04837],[1.18289,52.04792]]]]}},
{ "type":"Feature","properties":{"osm_way_id":"929628213","name":"Aldi","building":"yes","shop":"supermarket","other":{"addr:city":"Ipswich","addr:postcode":"IP1 5DL","addr:street":"Europa Way","brand":"ALDI","brand:wikidata":"Q41171672","brand:wikipedia":"en:Aldi","opening_hours":"Mo-Sa 08:00-22:00; Su 10:00-16:00"}}, "geometry":{"type":"MultiPolygon","coordinates":[[[[1.11735,52.06521],[1.11702,52.06502],[1.11651,52.06536],[1.1168,52.06552],[1.11719,52.06526],[1.11723,52.06529],[1.11735,52.06521]]]]}}
]
}
