{
"type": "FeatureCollection",
"features": [
{ "type":"Feature","properties":{"osm_id":"2605877345","name":"The Co-operative Food","other":{"shop":"supermarket","operator":"Anglia Co-operative","wheelchair":"yes"}}, "geometry":{"type":"Point","coordinates":[0.29237,52.75705 ]}},
{ "type":"Feature","properties":{"osm_id":"3226055186","name":"Spar","other":{"addr:city":"King's Lynn","addr:housenumber":"47-49","addr:postcode":"PE31 6NA","addr:street":"Hunstanton Road","addr:village":"Dersingham","brand":"Spar","brand:wikidata":"Q610492","fhrs:id":"60655","shop":"supermarket","source:addr":"FHRS Open Data"}}, "geometry":{"type":"Point","coordinates":[0.50238,52.85059 ]}},
{ "type":"Feature","properties":{"osm_id":"4392723600","name":"Tesco Express","other":{"addr:city":"Kings Lynn","addr:housenumber":"301","addr:postcode":"PE30 3AR","addr:street":"Wootton Road","alt_name":"Tesco King's Lynn Wootton Rd Express","brand":"Tesco Express","brand:wikidata":"Q98456772","brand:wikipedia":"en:Tesco","contact:website":"https:\/\/www.tesco.com\/store-locator\/kings-lynn\/301-wootton-rd","description":"Includes petrol station.","fhrs:id":"40723","opening_hours":"06:00-24:00","operator":"Tesco Stores Ltd","phone":"+44 345 026 9894","shop":"supermarket"}}, "geometry":{"type":"Point","coordinates":[0.42966,52.76981 ]}},
{ "type":"Feature","properties":{"osm_id":"8006769400","name":"Ratinda Extra","other":{"shop":"supermarket"}}, "geometry":{"type":"Point","coordinates":[0.39956,52.76139 ]}},
{ "type":"Feature","properties":{"osm_id":"9017665380","name":"Nisa Local","other":{"opening_hours":"Mo-Su 08:00-20:00","shop":"supermarket"}}, "geometry":{"type":"Point","coordinates":[0.48175,52.93047 ]}},
{ "type":"Feature","properties":{"osm_way_id":"105665733","name":"Morrisons","building":"yes","shop":"supermarket","other":{"addr:city":"King's Lynn","addr:postcode":"PE30 1RX","addr:street":"Coburg Street","branch":"King's Lynn","brand":"Morrisons","brand:wikidata":"Q922344","brand:wikipedia":"en:Morrisons","opening_hours":"Mo-Sa 07:00-22:00, Su 10:00-16:00","website":"https:\/\/my.morrisons.com\/storefinder\/103","wheelchair":"yes"}}, "geometry":{"type":"MultiPolygon","coordinates":[[[[0.4064,52.75395],[0.40635,52.75382],[0.40723,52.75368],[0.40725,52.75371],[0.4074,52.75369],[0.40741,52.75372],[0.4075,52.75371],[0.40753,52.75377],[0.40756,52.75376],[0.40762,52.75389],[0.40763,52.75392],[0.40757,52.75393],[0.40768,52.75418],[0.40748,52.75421],[0.40754,52.75434],[0.40659,52.7545],[0.40661,52.75454],[0.40642,52.75457],[0.40637,52.75445],[0.40644,52.75444],[0.40623,52.75398],[0.4064,52.75395]]]]}},
{ "type":"Feature","properties":{"osm_way_id":"105831056","name":"Asda","building":"yes","shop":"supermarket","other":{"addr:city":"King's Lynn","addr:country":"GB","addr:housenumber":"5","addr:parentstreet":"Langley Road","addr:postcode":"PE30 3UG","addr:street":"Rainbow Centre","addr:village":"South Wootton","brand":"Asda","brand:wikidata":"Q297410","brand:wikipedia":"en:Asda","contact:facebook":"https:\/\/www.facebook.com\/asda\/","contact:phone":"+44 1553 731310","contact:twitter":"@asda","contact:website":"https:\/\/storelocator.asda.com\/east-of-england\/kings-lynn\/langley-road-south-wootton","fhrs:id":"78148","opening_hours:covid19":"Mo-Sa 08:00-22:00; Su 10:00-16:00","operator":"Asda Stores Ltd","source:addr":"FHRS Open Data"}}, "geometry":{"type":"MultiPolygon","coordinates":[[[[0.44719,52.77388],[0.44799,52.77401],[0.44803,52.77392],[0.44801,52.77392],[0.44805,52.77384],[0.44811,52.77369],[0.44807,52.77368],[0.44816,52.7735],[0.44795,52.77346],[0.448,52.77335],[0.44756,52.77327],[0.44757,52.77325],[0.44748,52.77324],[0.44719,52.77388]]]]}},
{ "type":"Feature","properties":{"osm_way_id":"122917029","name":"Tesco","building":"supermarket","shop":"supermarket","other":{"brand":"Tesco","fhrs:id":"138900","alt_name":"Tesco Downham Market Superstore","operator":"Tesco Stores Ltd","addr:city":"Downham Market","addr:street":"London Road","addr:postcode":"PE38 9AW","opening_hours":"Mo-Sa 06:00-24:00; Su 10:00-16:00","brand:wikidata":"Q487494","brand:wikipedia":"en:Tesco"}}, "geometry":{"type":"MultiPolygon","coordinates":[[[[0.37679,52.60103],[0.37732,52.60107],[0.37751,52.60108],[0.3775,52.60114],[0.37738,52.60113],[0.37737,52.60118],[0.37731,52.60118],[0.37722,52.60171],[0.37669,52.60168],[0.37673,52.60142],[0.37666,52.60141],[0.37668,52.60125],[0.37675,52.60125],[0.37679,52.60103]]]]}},
{ "type":"Feature","properties":{"osm_way_id":"157957819","name":"Tesco","building":"yes","shop":"supermarket","other":{"addr:city":"King's Lynn","addr:country":"GB","addr:postcode":"PE30 4PU","addr:street":"Saint Faith's Drive","branch":"King's Lynn Gaywood Superstore","brand":"Tesco","brand:wikidata":"Q487494","brand:wikipedia":"en:Tesco","contact:website":"https:\/\/www.tesco.com\/store-locator\/kings-lynn\/st-faiths-dr","fhrs:id":"139197","opening_hours":"Mo-Sa 06:00-00:00; Su 11:00-17:00","operator":"Tesco Stores Ltd"}}, "geometry":{"type":"MultiPolygon","coordinates":[[[[0.41687,52.75785],[0.41721,52.75772],[0.41732,52.75772],[0.41732,52.75747],[0.4179,52.75747],[0.4179,52.75786],[0.41803,52.75786],[0.41803,52.75794],[0.41806,52.75794],[0.41806,52.75804],[0.41797,52.75804],[0.41797,52.75813],[0.41807,52.75813],[0.41807,52.75825],[0.418,52.75825],[0.41799,52.75836],[0.41708,52.75835],[0.41709,52.75801],[0.41687,52.75801],[0.41687,52.75785]]]]}},
{ "type":"Feature","properties":{"osm_way_id":"158224350","name":"Sainsbury's","building":"yes","shop":"supermarket","other":{"addr:city":"Hunstanton","addr:housenumber":"76-90","addr:postcode":"PE36 5EP","addr:street":"Westgate","alt_name":"Sainsbury's Hunstanton Superstore","brand":"Sainsbury's","brand:wikidata":"Q152096","fhrs:id":"44222","source:addr":"FHRS Open Data"}}, "geometry":{"type":"MultiPolygon","coordinates":[[[[0.49157,52.93898],[0.49161,52.93865],[0.492,52.93866],[0.49199,52.93874],[0.49218,52.93875],[0.49216,52.93886],[0.49224,52.93886],[0.49223,52.93899],[0.49171,52.93897],[0.49171,52.93899],[0.49157,52.93898]]]]}},
{ "type":"Feature","properties":{"osm_way_id":"158224352","name":"Tesco","building":"yes","shop":"supermarket","other":{"addr:postcode":"PE36 5AR","addr:street":"Southend Road","alt_name":"Tesco Hunstanton Superstore","brand":"Tesco","brand:wikidata":"Q487494","brand:wikipedia":"en:Tesco","fhrs:id":"144244;144046","operator":"Tesco Stores Ltd"}}, "geometry":{"type":"MultiPolygon","coordinates":[[[[0.48588,52.93484],[0.48581,52.93452],[0.4868,52.93445],[0.48687,52.93478],[0.48671,52.93479],[0.48674,52.93495],[0.48654,52.93496],[0.48651,52.9348],[0.48588,52.93484]]]]}},
{ "type":"Feature","properties":{"osm_way_id":"192741915","name":"Sainsbury's","building":"yes","shop":"supermarket","other":{"addr:city":"King's Lynn","addr:postcode":"PE30 4LR","addr:street":"Scania Way","brand":"Sainsbury's","brand:wikidata":"Q152096","brand:wikipedia":"en:Sainsbury's","fhrs:id":"504707;480930","opened":"21 November 2012","payment:cash":"yes","payment:coins":"yes","payment:contactless":"yes","payment:credit_cards":"yes","payment:debit_cards":"yes","payment:mastercard":"yes","payment:notes":"yes","payment:visa":"yes"}}, "geometry":{"type":"MultiPolygon","coordinates":[[[[0.41953,52.73856],[0.41904,52.73837],[0.41907,52.73834],[0.41899,52.73831],[0.41896,52.73834],[0.41874,52.73825],[0.41876,52.73823],[0.41872,52.73822],[0.41871,52.73822],[0.41856,52.73816],[0.41847,52.73824],[0.41846,52.73824],[0.41842,52.73828],[0.41847,52.73829],[0.41825,52.73849],[0.41817,52.73846],[0.41805,52.73858],[0.41812,52.73861],[0.41766,52.73904],[0.41762,52.73903],[0.41758,52.73906],[0.41759,52.73907],[0.41746,52.73918],[0.41762,52.73924],[0.41761,52.73925],[0.41765,52.73927],[0.41766,52.73925],[0.41797,52.73937],[0.41846,52.73956],[0.41953,52.73856]]]]}},
{ "type":"Feature","properties":{"osm_way_id":"219680722","name":"Sainsbury's","building":"yes","shop":"supermarket","other":{"addr:city":"King's Lynn","addr:housename":"St Dominics Square","addr:postcode":"PE30 1DT","brand":"Sainsbury's","brand:wikidata":"Q152096","brand:wikipedia":"en:Sainsbury's","fhrs:id":"69019","source:addr":"FHRS Open Data"}}, "geometry":{"type":"MultiPolygon","coordinates":[[[[0.39848,52.75485],[0.39815,52.75477],[0.39835,52.75447],[0.39849,52.75423],[0.39854,52.75415],[0.39866,52.75418],[0.39861,52.75426],[0.39866,52.75427],[0.39882,52.75431],[0.39878,52.75437],[0.39854,52.75475],[0.39848,52.75485]]]]}},
{ "type":"Feature","properties":{"osm_way_id":"222707382","name":"Morrisons","building":"retail","shop":"supermarket","other":{"addr:city":"Downham Market","addr:country":"GB","addr:housename":"Maltings Mall","addr:postcode":"PE38 9DH","addr:street":"Bridge Street","alt_name":"Morrisons Downham Market","brand":"Morrisons","brand:wikidata":"Q922344","brand:wikipedia":"en:Morrisons","fhrs:id":"54348","opening_hours":"Mo-Sa 07:00-21:00; Su 10:00-16:00","phone":"+44 1366 385491","website":"https:\/\/my.morrisons.com\/storefinder\/491","wheelchair":"yes"}}, "geometry":{"type":"MultiPolygon","coordinates":[[[[0.37536,52.60355],[0.37551,52.60354],[0.3755,52.60332],[0.37556,52.60332],[0.37556,52.60323],[0.37615,52.60322],[0.37617,52.60352],[0.37582,52.60353],[0.37582,52.60363],[0.37536,52.60364],[0.37536,52.60355]]]]}},
{ "type":"Feature","properties":{"osm_way_id":"244395292","name":"The Co-operative Food","building":"shop","shop":"supermarket","other":{"phone":"+44 1485 544055","fhrs:id":"60133","operator":"Central England Co-operative","addr:city":"King's Lynn","addr:street":"Lynn Road","addr:country":"GB","addr:postcode":"PE31 6JX","opening_hours":"Mo-Fr 07:00-21:00; Sa 07:00-20:00; Su 10:00-16:00","addr:housenumber":"10"}}, "geometry":{"type":"MultiPolygon","coordinates":[[[[0.50167,52.84517],[0.5017,52.84492],[0.5015,52.84491],[0.5015,52.84492],[0.5012,52.84491],[0.5012,52.84489],[0.50108,52.84488],[0.50105,52.84507],[0.50097,52.84507],[0.50094,52.84507],[0.50093,52.84513],[0.50167,52.84517]]]]}},
{ "type":"Feature","properties":{"osm_way_id":"369505292","name":"Lidl","building":"yes","shop":"supermarket","other":{"addr:city":"King's Lynn","addr:housenumber":"80","addr:postcode":"PE30 1AS","addr:street":"Austin Street","branch":"King's Lynn","brand":"Lidl","brand:wikidata":"Q151954","brand:wikipedia":"en:Lidl","fhrs:id":"142507","opening_hours":"Mo-Sa 08:00-22:00; Su 10:00-16:00","wheelchair":"yes"}}, "geometry":{"type":"MultiPolygon","coordinates":[[[[0.40041,52.75623],[0.40051,52.75601],[0.40049,52.75601],[0.40052,52.75596],[0.40053,52.75596],[0.40053,52.75595],[0.40062,52.75597],[0.40061,52.75597],[0.40119,52.75607],[0.4012,52.75606],[0.40129,52.75607],[0.40128,52.75608],[0.40138,52.7561],[0.40135,52.75616],[0.40128,52.75615],[0.40121,52.75631],[0.40116,52.7563],[0.40114,52.75635],[0.40041,52.75623]]]]}},
{ "type":"Feature","properties":{"osm_way_id":"376747111","name":"Baltika","building":"yes","shop":"supermarket","other":{"fhrs:id":"540033","addr:city":"King's Lynn","addr:street":"North Street","source:name":"survey","addr:postcode":"PE30 1QW"}}, "geometry":{"type":"MultiPolygon","coordinates":[[[[0.39759,52.75848],[0.39781,52.75847],[0.39777,52.7583],[0.39768,52.75826],[0.39754,52.75827],[0.39759,52.75848]]]]}},
{ "type":"Feature","properties":{"osm_way_id":"391452800","name":"Co op Supermarket","building":"yes","shop":"supermarket","other":{"addr:postcode":"PE31 7LS"}}, "geometry":{"type":"MultiPolygon","coordinates":[[[[0.50327,52.87811],[0.50331,52.87826],[0.50343,52.87824],[0.50339,52.87809],[0.50327,52.87811]]]]}},
{ "type":"Feature","properties":{"osm_way_id":"415875434","name":"Morrisons","building":"shop","shop":"supermarket","other":{"addr:city":"Wisbech","addr:place":"The Peel Centre","addr:postcode":"PE14 0DQ","addr:street":"Elm High Road","alt_name":"Morrisons Wisbech","brand":"Morrisons","brand:wikidata":"Q922344","brand:wikipedia":"en:Morrisons","fhrs:id":"77999","source:addr":"FHRS Open Data"}}, "geometry":{"type":"MultiPolygon","coordinates":[[[[0.17456,52.64982],[0.17455,52.64969],[0.17486,52.64968],[0.17481,52.64927],[0.17388,52.6493],[0.17391,52.64961],[0.17385,52.64961],[0.17387,52.64975],[0.1739,52.64977],[0.17385,52.6498],[0.17394,52.64985],[0.17399,52.64981],[0.17404,52.64984],[0.17456,52.64982]]]]}},
{ "type":"Feature","properties":{"osm_way_id":"478468229","name":"Aldi","building":"yes","shop":"supermarket","other":{"addr:city":"King's Lynn","addr:postcode":"PE30 4QG","addr:street":"Queen Mary Road","branch":"King's Lynn","brand":"ALDI","brand:wikidata":"Q41171672","brand:wikipedia":"en:Aldi","opening_hours":"Mo-Sa 08:00-22:00; Su 10:00-16:00"}}, "geometry":{"type":"MultiPolygon","coordinates":[[[[0.42044,52.75694],[0.42045,52.75671],[0.42114,52.75672],[0.42114,52.75666],[0.42136,52.75666],[0.42136,52.75695],[0.42087,52.75694],[0.42087,52.75698],[0.42067,52.75697],[0.42067,52.75694],[0.42044,52.75694]]]]}},
{ "type":"Feature","properties":{"osm_way_id":"533194744","name":"The Food Warehouse","building":"yes","shop":"supermarket","other":{"addr:city":"King's Lynn","addr:country":"GB","addr:housename":"Unit 4","addr:place":"Hardwick Retail Park","addr:postcode":"PE30 4NA","addr:unit":"11","brand":"The Food Warehouse","brand:wikidata":"Q87263899","building:levels":"2","building:part":"yes","fhrs:id":"1106741","opening_hours":"Mo-Sa 08:00-21:00; Su 10:00-16:00","operator":"Iceland Foods Ltd","phone":"+44 1553 775436","roof:shape":"flat","website":"https:\/\/www.thefoodwarehouse.com\/store-locator\/kings-lynn","wheelchair":"yes"}}, "geometry":{"type":"MultiPolygon","coordinates":[[[[0.41562,52.73725],[0.4159,52.73721],[0.41571,52.73674],[0.41553,52.73677],[0.41543,52.73678],[0.41562,52.73725]]]]}},
{ "type":"Feature","properties":{"osm_way_id":"610285527","name":"Biedronka","building":"yes","shop":"supermarket","other":{"fhrs:id":"908961","addr:city":"King's Lynn","addr:street":"Tower Place","source:addr":"FHRS Open Data","addr:postcode":"PE30 5DF","addr:housenumber":"6"}}, "geometry":{"type":"MultiPolygon","coordinates":[[[[0.3984,52.75112],[0.39856,52.75112],[0.39856,52.75089],[0.39845,52.75089],[0.39844,52.75104],[0.3984,52.75104],[0.3984,52.75112]]]]}},
{ "type":"Feature","properties":{"osm_way_id":"670596717","name":"Lidl","building":"yes","shop":"supermarket","other":{"addr:city":"Heacham","addr:country":"GB","addr:housename":"Lidl","addr:housenumber":"43","addr:postcode":"PE31 7JF","addr:street":"Lynn Road","brand":"Lidl","brand:wikidata":"Q151954","brand:wikipedia":"en:Lidl","fhrs:id":"1061542","smoking":"outside"}}, "geometry":{"type":"MultiPolygon","coordinates":[[[[0.50262,52.90545],[0.50262,52.90533],[0.50269,52.90533],[0.50268,52.90515],[0.50374,52.90513],[0.50376,52.90543],[0.50262,52.90545]]]]}},
{ "type":"Feature","properties":{"osm_way_id":"690576674","name":"Co op Supermarket","building":"yes","shop":"supermarket","other":{"addr:postcode":"PE31 7PT"}}, "geometry":{"type":"MultiPolygon","coordinates":[[[[0.50339,52.87809],[0.50335,52.87795],[0.50323,52.87796],[0.50327,52.87811],[0.50339,52.87809]]]]}},
{ "type":"Feature","properties":{"osm_way_id":"866714738","name":"Europe Express","building":"yes","shop":"supermarket","other":{"addr:city":"King's Lynn","addr:housenumber":"59B-59C","addr:postcode":"PE30 4PR","addr:street":"Lynn Road","addr:suburb":"Gaywood","fhrs:id":"1106740","source:addr":"FHRS Open Data"}}, "geometry":{"type":"MultiPolygon","coordinates":[[[[0.41967,52.75739],[0.41967,52.7574],[0.41956,52.75742],[0.41949,52.75733],[0.41948,52.7573],[0.4196,52.75728],[0.41967,52.75739]]]]}},
{ "type":"Feature","properties":{"osm_way_id":"867498708","name":"Eastern European Supermarket","building":"yes","shop":"supermarket"},"geometry":{"type":"MultiPolygon","coordinates":[[[[0.39684,52.75197],[0.39685,52.75188],[0.39689,52.75188],[0.39689,52.75187],[0.39692,52.75187],[0.39693,52.75183],[0.3972,52.75182],[0.39719,52.75196],[0.3971,52.75196],[0.3971,52.75204],[0.39702,52.75204],[0.39701,52.75197],[0.39684,52.75197]]]]}},
{ "type":"Feature","properties":{"osm_way_id":"867870967","name":"Tesco Extra","building":"yes","shop":"supermarket","other":{"addr:city":"King's Lynn","addr:postcode":"PE30 4NA","addr:street":"Hardwick Road","brand":"Tesco Extra","brand:wikidata":"Q25172225","brand:wikipedia":"en:Tesco Extra","fhrs:id":"140104","source:addr":"FHRS Open Data","website":"https:\/\/www.tesco.com\/store-locator\/kings-lynn\/hardwick-rd"}}, "geometry":{"type":"MultiPolygon","coordinates":[[[[0.40928,52.73784],[0.41015,52.73755],[0.41006,52.73746],[0.40997,52.73748],[0.40995,52.73745],[0.41003,52.73742],[0.40994,52.73733],[0.41011,52.73727],[0.41007,52.73723],[0.41015,52.73719],[0.41037,52.73743],[0.41066,52.73733],[0.41138,52.73807],[0.411,52.7382],[0.41105,52.73825],[0.41086,52.73831],[0.41082,52.73826],[0.40995,52.73855],[0.40986,52.73845],[0.40975,52.73833],[0.40941,52.73798],[0.40928,52.73784]]]]}}
]
}
