{
"type": "FeatureCollection",
"features": [
{ "type":"Feature","properties":{"osm_id":"382398774","name":"The Co-operative Food","other":{"addr:city":"Dereham","addr:housenumber":"36","addr:postcode":"NR19 2AP","addr:street":"Market Place","fhrs:id":"832156","operator":"The Co-operative Group","shop":"supermarket","source:addr":"FHRS Open Data","website":"https:\/\/www.coop.co.uk\/store-finder\/NR19-2AP\/36-37-market-place"}}, "geometry":{"type":"Point","coordinates":[0.94102,52.68135 ]}},
{ "type":"Feature","properties":{"osm_id":"1123370856","man_made":"surveillance","other":{"surveillance":"public","surveillance:type":"camera"}}, "geometry":{"type":"Point","coordinates":[0.72157,52.40415 ]}},
{ "type":"Feature","properties":{"osm_id":"1230378169","name":"Thetford Supermarket Ltd","other":{"shop":"supermarket","addr:city":"Thetford","addr:street":"King Street","source:addr":"FSA Food Hygiene Ratings Database","addr:postcode":"IP24 2AN","addr:housenumber":"1"}}, "geometry":{"type":"Point","coordinates":[0.7495,52.41346 ]}},
{ "type":"Feature","properties":{"osm_id":"4310478238","other":{"location":"On exterior wall of Co-Op Daily, just to the right of the main entrance on Shipdam Road.","emergency":"defibrillator"}}, "geometry":{"type":"Point","coordinates":[0.94016,52.66295 ]}},
{ "type":"Feature","properties":{"osm_id":"6815884800","other":{"location":"on exterior wall of Morrison's Supermarket, just to the left of the main entrance.","emergency":"defibrillator"}}, "geometry":{"type":"Point","coordinates":[0.9464,52.6788 ]}},
{ "type":"Feature","properties":{"osm_id":"6821286674","other":{"location":"on exterior wall of Coop Daily store, to the right of the main entrance","emergency":"defibrillator"}}, "geometry":{"type":"Point","coordinates":[0.93515,52.68258 ]}},
{ "type":"Feature","properties":{"osm_id":"8792726837","other":{"emergency":"defibrillator"}}, "geometry":{"type":"Point","coordinates":[0.68692,52.65663 ]}},
{ "type":"Feature","properties":{"osm_way_id":"50883561","name":"Waitrose & Partners","building":"retail","shop":"supermarket","other":{"addr:city":"Swaffham","addr:postcode":"PE37 7HT","addr:street":"Castle Acre Road","branch":"Swaffham","brand":"Waitrose & Partners","brand:wikidata":"Q771734","brand:wikipedia":"en:Waitrose & Partners","fhrs:id":"832380","opening_hours":"Mo-Sa 07:30-20:00; Fr 07:30-21:00; Su 10:00-16:00","operator":"Waitrose & Partners","website":"https:\/\/www.waitrose.com\/bf_home\/bf\/686.html"}}, "geometry":{"type":"MultiPolygon","coordinates":[[[[0.6859,52.65669],[0.68638,52.65673],[0.68677,52.65676],[0.68676,52.65679],[0.68688,52.6568],[0.68692,52.65663],[0.68694,52.65655],[0.68676,52.65654],[0.68685,52.65613],[0.68625,52.65608],[0.68623,52.6562],[0.68601,52.65619],[0.6859,52.65669]]]]}},
{ "type":"Feature","properties":{"osm_way_id":"67241233","name":"Tesco","building":"retail","shop":"supermarket","other":{"addr:city":"Thetford","addr:postcode":"IP24 2RL","addr:street":"Kilverstone Road","brand":"Tesco","brand:wikidata":"Q487494","brand:wikipedia":"en:Tesco","fhrs:id":"832158","opening_hours":"Mo 06:00-24:00; Tu-Sa 00:00-24:00; Su 10:00-16:00","operator":"Tesco Stores Ltd","pharmacy":"yes","source:addr":"FSA Food Hygiene Ratings Database","website":"https:\/\/www.tesco.com\/store-locator\/thetford\/kilverstone"}}, "geometry":{"type":"MultiPolygon","coordinates":[[[[0.77072,52.42249],[0.77029,52.42221],[0.77034,52.42218],[0.77043,52.42224],[0.77053,52.42218],[0.77061,52.42214],[0.77054,52.42209],[0.77059,52.42207],[0.77051,52.42202],[0.77056,52.42199],[0.77049,52.42194],[0.7703,52.42205],[0.77037,52.42209],[0.77027,52.42215],[0.77003,52.42199],[0.76976,52.42215],[0.76967,52.42209],[0.76937,52.42226],[0.76954,52.42237],[0.76944,52.42243],[0.76941,52.42241],[0.76933,52.42246],[0.76932,52.42245],[0.76923,52.4225],[0.76915,52.42245],[0.76892,52.42258],[0.76933,52.42285],[0.7693,52.42286],[0.76965,52.42309],[0.76978,52.42302],[0.76988,52.42309],[0.77034,52.42282],[0.77063,52.42266],[0.77067,52.42269],[0.77076,52.42264],[0.77072,52.42261],[0.77073,52.4226],[0.77064,52.42254],[0.77072,52.42249]]]]}},
{ "type":"Feature","properties":{"osm_way_id":"96622834","name":"Aldi","building":"yes","shop":"supermarket","other":{"addr:city":"Thetford","addr:country":"GB","addr:postcode":"IP24 2BU","addr:street":"Lime Kiln Lane","brand":"ALDI","brand:wikidata":"Q41171672","brand:wikipedia":"en:Aldi","fhrs:id":"832413","source:addr":"FSA Food Hygiene Ratings Database","website":"https:\/\/www.aldi.co.uk\/store\/s-uk-E0267"}}, "geometry":{"type":"MultiPolygon","coordinates":[[[[0.75245,52.41615],[0.75155,52.41609],[0.75159,52.41591],[0.75172,52.41592],[0.75174,52.4158],[0.7518,52.41581],[0.75196,52.41582],[0.75195,52.41587],[0.75245,52.41591],[0.75244,52.41598],[0.75248,52.41599],[0.75245,52.41615]]]]}},
{ "type":"Feature","properties":{"osm_way_id":"96923218","name":"Roys","building":"yes","shop":"supermarket","other":{"addr:city":"Thetford","addr:postcode":"IP24 2DT","addr:street":"Guildhall Street","brand:wikidata":"Q7375233","fhrs:id":"832466","website":"https:\/\/www.roys.co.uk\/storelocator\/thetford"}}, "geometry":{"type":"MultiPolygon","coordinates":[[[[0.75133,52.41281],[0.75126,52.41274],[0.75141,52.41242],[0.75177,52.4125],[0.75186,52.41252],[0.75174,52.41273],[0.75186,52.41276],[0.75181,52.41285],[0.75166,52.41282],[0.75164,52.41287],[0.75133,52.41281]]]]}},
{ "type":"Feature","properties":{"osm_way_id":"96938707","name":"Sainsbury's","building":"yes","shop":"supermarket","other":{"addr:city":"Thetford","addr:parentstreet":"London Road","addr:postcode":"IP24 3QL","addr:street":"Forest Retail Park","brand":"Sainsbury's","brand:wikidata":"Q152096","brand:wikipedia":"en:Sainsbury's","fhrs:id":"832159","source:addr":"FSA Food Hygiene Ratings Database","website":"https:\/\/stores.sainsburys.co.uk\/0474\/thetford"}}, "geometry":{"type":"MultiPolygon","coordinates":[[[[0.72071,52.40368],[0.72022,52.40402],[0.71988,52.40404],[0.7199,52.40421],[0.7203,52.40418],[0.72049,52.40429],[0.72026,52.40444],[0.72044,52.40469],[0.7207,52.40482],[0.72094,52.40466],[0.72087,52.40463],[0.72157,52.40415],[0.72071,52.40368]]]]}},
{ "type":"Feature","properties":{"osm_way_id":"98956395","name":"Tesco","building":"yes","shop":"supermarket","other":{"addr:city":"Thetford","addr:housenumber":"3","addr:postcode":"IP25 6BQ","addr:street":"Thetford Road","addr:town":"Watton","brand":"Tesco","brand:wikidata":"Q487494","brand:wikipedia":"en:Tesco","fhrs:id":"832480","opening_hours":"Mo-Sa 06:00-00:00; Su 10:00-16:00","operator":"Tesco Stores Ltd","payment:cash":"yes","payment:contactless":"yes","payment:credit_cards":"yes","payment:debit_cards":"yes","source:addr":"FSA Food Hygiene Ratings Database"}}, "geometry":{"type":"MultiPolygon","coordinates":[[[[0.82823,52.57015],[0.82821,52.56956],[0.82834,52.56956],[0.82834,52.5696],[0.82861,52.5696],[0.82861,52.5697],[0.82889,52.5697],[0.8289,52.56978],[0.82899,52.56978],[0.829,52.57019],[0.82893,52.57019],[0.82893,52.57024],[0.82875,52.57024],[0.82875,52.57019],[0.82831,52.57019],[0.82831,52.57018],[0.82827,52.57018],[0.82827,52.57015],[0.82823,52.57015]]]]}},
{ "type":"Feature","properties":{"osm_way_id":"114552719","name":"Sainsbury's","building":"yes","shop":"supermarket","other":{"addr:city":"Attleborough","addr:postcode":"NR17 2EH","addr:street":"High Street","brand":"Sainsbury's","brand:wikidata":"Q152096","brand:wikipedia":"en:Sainsbury's","fhrs:id":"657830","source:addr":"FSA Food Hygiene Ratings Database","website":"https:\/\/stores.sainsburys.co.uk\/2022\/attleborough"}}, "geometry":{"type":"MultiPolygon","coordinates":[[[[1.01184,52.51678],[1.01216,52.5169],[1.01256,52.51694],[1.01259,52.51691],[1.01285,52.51662],[1.01292,52.51655],[1.01263,52.51645],[1.0126,52.51649],[1.01222,52.51637],[1.01184,52.51678]]]]}},
{ "type":"Feature","properties":{"osm_way_id":"158607268","name":"Morrisons","building":"yes","shop":"supermarket","other":{"brand":"Morrisons","fhrs:id":"832640","addr:city":"Dereham","addr:street":"Station Road","source:addr":"FSA Food Hygiene Ratings Database","addr:postcode":"NR19 1DF","brand:wikidata":"Q922344","brand:wikipedia":"en:Morrisons"}}, "geometry":{"type":"MultiPolygon","coordinates":[[[[0.94528,52.67888],[0.94611,52.67891],[0.94621,52.67897],[0.94644,52.67884],[0.94638,52.67881],[0.9464,52.6788],[0.94642,52.67879],[0.94644,52.67836],[0.94627,52.67836],[0.94628,52.67822],[0.94533,52.67819],[0.94531,52.67839],[0.94478,52.67839],[0.94477,52.67856],[0.94502,52.67856],[0.94502,52.67863],[0.94529,52.67863],[0.94528,52.67888]]]]}},
{ "type":"Feature","properties":{"osm_way_id":"222706946","name":"Asda","building":"yes","shop":"supermarket","other":{"addr:city":"Swaffham","addr:country":"GB","addr:postcode":"PE37 7AU","addr:street":"Lynn Street","branch":"Swaffham Supermarket","brand":"Asda","brand:wikidata":"Q297410","brand:wikipedia":"en:Asda","contact:facebook":"https:\/\/www.facebook.com\/asda\/","contact:twitter":"@asda","contact:website":"https:\/\/storelocator.asda.com\/east-of-england\/swaffham\/lynn-street","fhrs:id":"832155","opening_hours":"Mo-Sa 07:00-23:00; Su 10:00-16:00","operator":"Asda Stores Ltd","website":"https:\/\/storelocator.asda.com\/east-of-england\/swaffham\/lynn-street"}}, "geometry":{"type":"MultiPolygon","coordinates":[[[[0.68481,52.64874],[0.68502,52.64864],[0.68511,52.64871],[0.6852,52.64867],[0.68529,52.64874],[0.68532,52.64873],[0.68541,52.64879],[0.68542,52.64879],[0.68544,52.6488],[0.68545,52.6488],[0.68547,52.64881],[0.68549,52.64881],[0.68551,52.64883],[0.68554,52.64881],[0.68559,52.64885],[0.68556,52.64887],[0.68559,52.64889],[0.68522,52.64906],[0.68481,52.64874]]]]}},
{ "type":"Feature","properties":{"osm_way_id":"233084794","name":"Tesco Extra","building":"shop","shop":"supermarket","other":{"addr:city":"Norwich","addr:country":"GB","addr:postcode":"NR19 1WB","addr:street":"Kingston Road","brand":"Tesco Extra","brand:wikidata":"Q25172225","brand:wikipedia":"en:Tesco Extra","fhrs:id":"832362","opening_hours":"Mo-Sa 00:00-24:00; Su 10:00-16:00","operator":"Tesco Stores Ltd","ref":"2436","website":"https:\/\/www.tesco.com\/store-locator\/dereham\/kingston-rd"}}, "geometry":{"type":"MultiPolygon","coordinates":[[[[0.95526,52.67304],[0.95523,52.67241],[0.95513,52.67242],[0.95512,52.67231],[0.95522,52.67231],[0.9552,52.67212],[0.95638,52.67209],[0.95641,52.67248],[0.9565,52.67248],[0.95651,52.67272],[0.95647,52.67272],[0.95648,52.67287],[0.95664,52.67287],[0.95663,52.6729],[0.9567,52.6729],[0.9567,52.67296],[0.95651,52.67296],[0.95651,52.67313],[0.95678,52.67311],[0.95683,52.67315],[0.95684,52.67323],[0.9563,52.67324],[0.9559,52.67316],[0.95589,52.67307],[0.95555,52.67308],[0.95554,52.67311],[0.95526,52.67304]]]]}},
{ "type":"Feature","properties":{"osm_way_id":"233084798","name":"Lidl","building":"shop","shop":"supermarket","other":{"addr:city":"Norwich","addr:country":"GB","addr:postcode":"NR19 1WB","addr:street":"Kingston Road","brand":"Lidl","brand:wikidata":"Q151954","brand:wikipedia":"en:Lidl","fhrs:id":"832710","opening_hours":"Mo-Sa 08:00-21:00; Su 10:00-16:00","source:addr:postcode":"FSA Food Hygiene Ratings Database","website":"https:\/\/www.lidl.co.uk\/"}}, "geometry":{"type":"MultiPolygon","coordinates":[[[[0.95391,52.67131],[0.95387,52.67119],[0.95318,52.67129],[0.95322,52.67139],[0.95327,52.67154],[0.95352,52.67151],[0.9535,52.67147],[0.95386,52.67142],[0.95382,52.67133],[0.95391,52.67131]]]]}},
{ "type":"Feature","properties":{"osm_way_id":"283396360","name":"Tesco","building":"yes","shop":"supermarket","other":{"brand":"Tesco","fhrs:id":"833077","operator":"Tesco Stores Ltd","addr:city":"Swaffham","start_date":"2014-06","addr:street":"Brocks Road","source:addr":"FSA Food Hygiene Ratings Database","addr:postcode":"PE37 7XG","opening_hours":"Mo-Sa 06:00-24:00; Su 10:00-16:00","brand:wikidata":"Q487494","brand:wikipedia":"en:Tesco","addr:housenumber":"15"}}, "geometry":{"type":"MultiPolygon","coordinates":[[[[0.68645,52.6536],[0.68712,52.65364],[0.68722,52.653],[0.68655,52.65296],[0.68645,52.6536]]]]}},
{ "type":"Feature","properties":{"osm_way_id":"285864274","name":"Spar","building":"yes","shop":"supermarket","other":{"brand":"Spar","fhrs:id":"833055","addr:city":"Thetford","addr:town":"Watton","addr:street":"Vulcan Place","source:addr":"FSA Food Hygiene Ratings Database","addr:postcode":"IP25 6XU","brand:wikidata":"Q610492","brand:wikipedia":"en:Spar (retailer)","addr:housenumber":"4"}}, "geometry":{"type":"MultiPolygon","coordinates":[[[[0.85754,52.57009],[0.85756,52.57027],[0.85721,52.57028],[0.85719,52.5701],[0.85754,52.57009]]]]}},
{ "type":"Feature","properties":{"osm_way_id":"301209016","name":"Lidl","building":"yes","shop":"supermarket","other":{"addr:street":"London Road","brand":"Lidl","brand:wikidata":"Q151954","brand:wikipedia":"en:Lidl","fhrs:id":"833206","not:addr:postcode":"IP24 3RB","ref:GB:uprn":"100091497912","source:addr":"FSA Food Hygiene Ratings Database"}}, "geometry":{"type":"MultiPolygon","coordinates":[[[[0.7257,52.40433],[0.7253,52.40473],[0.72489,52.40458],[0.72524,52.40423],[0.72537,52.40428],[0.7254,52.40426],[0.72542,52.40423],[0.7257,52.40433]]]]}},
{ "type":"Feature","properties":{"osm_way_id":"333875423","name":"Co-op Daily","building":"retail","shop":"supermarket","other":{"fhrs:id":"832608","operator":"East of England Co-operative Society","addr:street":"Swaffham Road","source:addr":"FSA Food Hygiene Ratings Database","addr:postcode":"NR19 2AZ"}}, "geometry":{"type":"MultiPolygon","coordinates":[[[[0.93514,52.68257],[0.93515,52.68258],[0.93526,52.68265],[0.93558,52.68246],[0.93546,52.68238],[0.93531,52.68247],[0.93514,52.68257]]]]}},
{ "type":"Feature","properties":{"osm_way_id":"333875666","name":"Co-op Daily","building":"yes","shop":"supermarket","other":{"fhrs:id":"832580","operator":"East of England Co-operative Society","addr:street":"Shipdham Road","source:addr":"FSA Food Hygiene Ratings Database","addr:postcode":"NR19 1AH","addr:housenumber":"107"}}, "geometry":{"type":"MultiPolygon","coordinates":[[[[0.93997,52.66295],[0.94007,52.66308],[0.94009,52.66311],[0.9401,52.6631],[0.94018,52.66308],[0.94016,52.66305],[0.94022,52.66303],[0.94022,52.66303],[0.94016,52.66295],[0.94013,52.66291],[0.93997,52.66295]]]]}},
{ "type":"Feature","properties":{"osm_way_id":"338470541","name":"Roys","building":"yes","shop":"supermarket","other":{"fhrs:id":"832431","addr:street":"Yaxham Road","source:addr":"FSA Food Hygiene Ratings Database","addr:postcode":"NR19 1HD","addr:housenumber":"8"}}, "geometry":{"type":"MultiPolygon","coordinates":[[[[0.94736,52.67335],[0.94683,52.67282],[0.94728,52.67266],[0.94771,52.6731],[0.94779,52.67307],[0.94793,52.67321],[0.94771,52.67329],[0.94766,52.67324],[0.94736,52.67335]]]]}},
{ "type":"Feature","properties":{"osm_way_id":"441194683","name":"Lidl","building":"yes","shop":"supermarket","other":{"addr:postcode":"NR17 2AG","addr:street":"Queens Road","brand":"Lidl","brand:wikidata":"Q151954","brand:wikipedia":"en:Lidl","fhrs:id":"832679","source:addr":"FSA Food Hygiene Ratings Database"}}, "geometry":{"type":"MultiPolygon","coordinates":[[[[1.0148,52.51857],[1.01391,52.51831],[1.01408,52.51809],[1.01423,52.51813],[1.01414,52.51825],[1.01421,52.51827],[1.01431,52.51815],[1.01438,52.51817],[1.01441,52.51814],[1.01487,52.51827],[1.015,52.51831],[1.0148,52.51857]]]]}},
{ "type":"Feature","properties":{"osm_way_id":"501369350","name":"Aldi","building":"yes","shop":"supermarket","other":{"addr:city":"Dereham","addr:postcode":"NR19 1FS","addr:street":"Napier Way","brand":"ALDI","brand:wikidata":"Q41171672","brand:wikipedia":"en:Aldi","fhrs:id":"926909"}}, "geometry":{"type":"MultiPolygon","coordinates":[[[[0.9508,52.67066],[0.95124,52.67073],[0.95142,52.67025],[0.95098,52.67019],[0.9508,52.67066]]]]}},
{ "type":"Feature","properties":{"osm_way_id":"817906462","name":"Necton's Coop","building":"yes","shop":"supermarket","other":{"addr:city":"Swaffham","addr:country":"GB","addr:housenumber":"2","addr:postcode":"PE37 8FP","addr:street":"Rudge Way","building:levels":"1","fhrs:id":"1201000","official_name":"Petrol Necton Tuns Lane","opening_hours":"24\/7","phone":"+44 1760 723928","ref":"5494","source:addr:postcode":"code-point_open","toilets":"yes","toilets:access":"yes","toilets:fee":"no","website":"https:\/\/www.coop.co.uk\/store-finder\/PE37-8DQ\/2-rudge-way","wheelchair":"yes"}}, "geometry":{"type":"MultiPolygon","coordinates":[[[[0.77329,52.65621],[0.77332,52.65616],[0.77329,52.65615],[0.77338,52.65602],[0.77342,52.65603],[0.77347,52.65597],[0.77366,52.65602],[0.77348,52.65626],[0.77329,52.65621]]]]}}
]
}
