{
"type": "FeatureCollection",
"features": [
{ "type":"Feature","properties":{"osm_id":"844556521","name":"Co-op","other":{"shop":"supermarket"}}, "geometry":{"type":"Point","coordinates":[-2.40624,51.93133 ]}},
{ "type":"Feature","properties":{"osm_way_id":"59380458","name":"Tesco","building":"retail","shop":"supermarket","other":{"addr:city":"Lydney","addr:postcode":"GL15 5DN","addr:street":"High Street","brand":"Tesco","brand:wikidata":"Q487494","fhrs:id":"10755"}}, "geometry":{"type":"MultiPolygon","coordinates":[[[[-2.53601,51.72422],[-2.5352,51.7238],[-2.53486,51.72404],[-2.53493,51.72408],[-2.53491,51.7241],[-2.53564,51.72449],[-2.53601,51.72422]]]]}},
{ "type":"Feature","properties":{"osm_way_id":"59518679","name":"The Co-operative Food","building":"retail","landuse":"retail","shop":"supermarket","other":{"operator":"Midcounties Co-operative","wheelchair":"yes","addr:postcode":"GL15 5RB","opening_hours":"Mo-Sa 08:00-22:00, Su 10:00-16:00","building:levels":"1","addr:housenumber":"33"}}, "geometry":{"type":"MultiPolygon","coordinates":[[[[-2.53071,51.72747],[-2.53063,51.72751],[-2.53066,51.72753],[-2.53043,51.72763],[-2.53036,51.72757],[-2.53029,51.7276],[-2.53026,51.72757],[-2.53017,51.72762],[-2.52965,51.72718],[-2.52997,51.72703],[-2.52996,51.72702],[-2.53005,51.72698],[-2.5301,51.72702],[-2.53008,51.72703],[-2.53039,51.72729],[-2.53046,51.72726],[-2.53071,51.72747]]]]}},
{ "type":"Feature","properties":{"osm_way_id":"59518696","name":"Nisa Extra","building":"retail","shop":"supermarket","other":{"name:en":"B&M","operator":"Harry Tuffins","wheelchair":"yes","opening_hours":"'Nisa Extra now permanently CLOSED'","building:levels":"1","addr:housenumber":"3"}}, "geometry":{"type":"MultiPolygon","coordinates":[[[[-2.52791,51.72644],[-2.52745,51.72662],[-2.52713,51.72631],[-2.52729,51.72624],[-2.52724,51.72619],[-2.52747,51.72611],[-2.52753,51.72617],[-2.52762,51.72614],[-2.52791,51.72644]]]]}},
{ "type":"Feature","properties":{"osm_way_id":"105297863","name":"Co-operative","shop":"supermarket"},"geometry":{"type":"MultiPolygon","coordinates":[[[[-2.40516,51.92961],[-2.40566,51.92968],[-2.40576,51.9294],[-2.40526,51.92933],[-2.40516,51.92961]]]]}},
{ "type":"Feature","properties":{"osm_way_id":"184612089","name":"Co-op Food","building":"yes","shop":"supermarket","other":{"addr:housename":"The County Store","addr:postcode":"GL14 2AQ","addr:street":"Dockham Road","alt_name":"The Mid-Counties Co-operative Society","brand":"Co-op Food","brand:wikidata":"Q3277439","brand:wikipedia":"en:Co-op Food"}}, "geometry":{"type":"MultiPolygon","coordinates":[[[[-2.49678,51.82483],[-2.49692,51.82429],[-2.49695,51.8243],[-2.49699,51.82414],[-2.49695,51.8241],[-2.49654,51.82406],[-2.49645,51.82418],[-2.49635,51.82456],[-2.49631,51.82455],[-2.4963,51.82462],[-2.49636,51.82462],[-2.49635,51.82466],[-2.49632,51.82466],[-2.4963,51.82473],[-2.49633,51.82473],[-2.49632,51.82478],[-2.49639,51.82479],[-2.49657,51.8248],[-2.49669,51.82482],[-2.49672,51.82482],[-2.49678,51.82483]]]]}},
{ "type":"Feature","properties":{"osm_way_id":"328340456","name":"Lidl","building":"yes","shop":"supermarket","other":{"addr:country":"GB","addr:postcode":"GL14 2LY","addr:street":"Parragate Road","alt_name":"LIDL Cinderford","brand":"Lidl","brand:wikidata":"Q151954","brand:wikipedia":"en:Lidl","fhrs:id":"10000","wheelchair":"yes"}}, "geometry":{"type":"MultiPolygon","coordinates":[[[[-2.5014,51.82623],[-2.50142,51.82584],[-2.50099,51.82583],[-2.50097,51.82626],[-2.50122,51.82626],[-2.50122,51.82623],[-2.5014,51.82623]]]]}},
{ "type":"Feature","properties":{"osm_way_id":"328347599","name":"The Co-operative Food","building":"yes","shop":"supermarket","other":{"fhrs:id":"10285","alt_name":"The Mid-Counties Co-oeprative Society","addr:street":"Lord's Hill","source:addr":"FSA Food Hygiene Ratings Database","addr:postcode":"GL16 8BD"}}, "geometry":{"type":"MultiPolygon","coordinates":[[[[-2.6163,51.79275],[-2.6158,51.79245],[-2.61543,51.79269],[-2.61596,51.79301],[-2.6161,51.79292],[-2.61602,51.79288],[-2.61613,51.79281],[-2.61617,51.79284],[-2.6163,51.79275]]]]}},
{ "type":"Feature","properties":{"osm_way_id":"328347600","name":"Tesco Express","building":"yes","shop":"supermarket","other":{"addr:housenumber":"25","addr:postcode":"GL16 8HA","addr:street":"High Street","alt_name":"Tesco Coleford Gloucester Express","brand":"Tesco Express","brand:wikidata":"Q98456772","fhrs:id":"10688","source:addr":"FSA Food Hygiene Ratings Database"}}, "geometry":{"type":"MultiPolygon","coordinates":[[[[-2.61732,51.79247],[-2.61731,51.79231],[-2.6171,51.79231],[-2.61688,51.7924],[-2.61689,51.79249],[-2.61732,51.79247]]]]}},
{ "type":"Feature","properties":{"osm_way_id":"868603522","name":"Lidl","building":"yes","shop":"supermarket","other":{"addr:country":"GB","addr:postcode":"GL16 8SH","addr:street":"Old Station Way","brand":"Lidl","brand:wikidata":"Q151954","brand:wikipedia":"en:Lidl","fhrs:id":"1270539"}}, "geometry":{"type":"MultiPolygon","coordinates":[[[[-2.61559,51.79329],[-2.61592,51.79308],[-2.61561,51.79289],[-2.61555,51.79293],[-2.61526,51.79276],[-2.61499,51.79293],[-2.61559,51.79329]]]]}}
]
}
