{
"type": "FeatureCollection",
"features": [
{ "type":"Feature","properties":{"osm_id":"190918474","name":"Country Park Stores","other":{"shop":"supermarket","addr:city":"Filey"}}, "geometry":{"type":"Point","coordinates":[-0.28365,54.21642 ]}},
{ "type":"Feature","properties":{"osm_id":"967023640","name":"Sainsbury's Local","other":{"addr:city":"Scarborough","addr:postcode":"YO12 4BE","addr:street":"Edgehill Road","brand":"Sainsbury's Local","brand:wikidata":"Q13218434","old_name":"Jacksons","shop":"supermarket","toilets:wheelchair":"no","wheelchair":"yes"}}, "geometry":{"type":"Point","coordinates":[-0.4164,54.26372 ]}},
{ "type":"Feature","properties":{"osm_id":"1923812938","name":"Heron Foods","other":{"shop":"supermarket","brand":"Heron Foods","fhrs:id":"494150","addr:city":"Filey","addr:street":"Station Avenue","designation":"Freezer Centre","addr:country":"GB","addr:postcode":"YO14 9AQ","brand:wikidata":"Q5743472","brand:wikipedia":"en:Heron Foods","contact:website":"https:\/\/heronfoods.com\/storelocator\/store-details\/filey","addr:housenumber":"16"}}, "geometry":{"type":"Point","coordinates":[-0.29354,54.21033 ]}},
{ "type":"Feature","properties":{"osm_id":"2030889459","name":"Heron Foods","other":{"shop":"supermarket","brand":"Heron Foods","fhrs:id":"1092941","addr:city":"Whitby","addr:street":"Baxtergate","addr:country":"GB","addr:postcode":"YO21 1BL","brand:wikidata":"Q5743472","brand:wikipedia":"en:Heron Foods","contact:website":"https:\/\/heronfoods.com\/index.php\/storelocator\/store-details\/whitby","addr:housenumber":"52,53"}}, "geometry":{"type":"Point","coordinates":[-0.61581,54.48564 ]}},
{ "type":"Feature","properties":{"osm_id":"3256791305","name":"Co-op Food","other":{"addr:city":"Scarborough","addr:housenumber":"42-46","addr:postcode":"YO12 6DJ","addr:street":"Newlands Park Drive","brand":"Co-op Food","brand:wikidata":"Q3277439","brand:wikipedia":"en:Co-op Food","operator":"The Co-operative Group","shop":"supermarket"}}, "geometry":{"type":"Point","coordinates":[-0.42263,54.29371 ]}},
{ "type":"Feature","properties":{"osm_id":"3727444773","name":"Sainsbury's Local","other":{"addr:city":"Scarborough","addr:housenumber":"62-64","addr:postcode":"YO11 2QG","addr:street":"Ramshill Road","branch":"Ramshill Road Local","brand:wikidata":"Q13218434","opening_hours":"Mo-Su 07:00-23:00","shop":"supermarket","toilets:wheelchair":"no","wheelchair":"yes"}}, "geometry":{"type":"Point","coordinates":[-0.40268,54.27315 ]}},
{ "type":"Feature","properties":{"osm_id":"4238116781","name":"Proudfoot eco Store","other":{"addr:city":"Scarborough","addr:country":"GB","addr:housenumber":"68","addr:postcode":"YO12 4QD","addr:street":"Main Street","addr:village":"Seamer","amenity":"post_office","fhrs:id":"197195","opening_hours:post_office":"Mo-Fr 09:00-17:30; Sa 09:00-12:30","ref:pol_id":"5214","shop":"supermarket"}}, "geometry":{"type":"Point","coordinates":[-0.44401,54.23847 ]}},
{ "type":"Feature","properties":{"osm_id":"4238118000","ref":"YO12 130","other":{"amenity":"post_box","post_box:type":"wall","royal_cypher":"GVIR"}}, "geometry":{"type":"Point","coordinates":[-0.44393,54.23855 ]}},
{ "type":"Feature","properties":{"osm_id":"4784651292","name":"Lidl","other":{"addr:city":"Scarborough","addr:country":"GB","addr:postcode":"YO12 4HF","addr:street":"Seamer Road","brand":"Lidl","brand:wikidata":"Q151954","brand:wikipedia":"en:Lidl","fhrs:id":"987955","shop":"supermarket","toilets":"yes","toilets:access":"customers","toilets:wheelchair":"yes","wheelchair":"yes"}}, "geometry":{"type":"Point","coordinates":[-0.41781,54.26569 ]}},
{ "type":"Feature","properties":{"osm_id":"5996483709","name":"The Co-operative Food","other":{"shop":"supermarket","operator":"The Co-operative Group"}}, "geometry":{"type":"Point","coordinates":[-0.94117,54.46355 ]}},
{ "type":"Feature","properties":{"osm_way_id":"35102733","name":"The Co-operative Food","building":"yes","shop":"supermarket","other":{"addr:postcode":"YO21 1DH","addr:street":"Langborne Road","alt_name":"The Co-operative Food","operator":"Co-operative","website":"https:\/\/www.co-operative.coop\/food\/"}}, "geometry":{"type":"MultiPolygon","coordinates":[[[[-0.61412,54.48475],[-0.61461,54.48459],[-0.61423,54.4842],[-0.61425,54.48419],[-0.61406,54.48399],[-0.61411,54.48397],[-0.614,54.48385],[-0.61372,54.48395],[-0.61379,54.48401],[-0.61374,54.48403],[-0.61377,54.48407],[-0.61383,54.48405],[-0.61384,54.48406],[-0.61372,54.4841],[-0.61387,54.48426],[-0.61364,54.48434],[-0.61404,54.48474],[-0.61412,54.48475]]]]}},
{ "type":"Feature","properties":{"osm_way_id":"123225847","name":"Proudfoot","building":"retail","shop":"supermarket","other":{"addr:city":"Eastfield","addr:street":"High Street","addr:postcode":"YO11 3LJ"}}, "geometry":{"type":"MultiPolygon","coordinates":[[[[-0.39809,54.23958],[-0.39802,54.23953],[-0.39773,54.23925],[-0.39816,54.2391],[-0.3985,54.23943],[-0.39838,54.23948],[-0.39844,54.23953],[-0.39818,54.23962],[-0.39812,54.23956],[-0.39809,54.23958]]]]}},
{ "type":"Feature","properties":{"osm_way_id":"169547346","name":"Lidl","building":"yes","shop":"supermarket","other":{"addr:country":"GB","addr:postcode":"YO21 1HS","addr:street":"Stakesby Road","alt_name":"LIDL Whitby","brand":"Lidl","brand:wikidata":"Q151954","fhrs:id":"951307","website":"https:\/\/www.localstore.co.uk\/store\/306506\/lidl\/whitby\/"}}, "geometry":{"type":"MultiPolygon","coordinates":[[[[-0.63574,54.48616],[-0.63573,54.48599],[-0.63565,54.486],[-0.63564,54.4858],[-0.63562,54.48552],[-0.63525,54.48553],[-0.63531,54.48622],[-0.6354,54.48622],[-0.63549,54.48622],[-0.63548,54.48617],[-0.63574,54.48616]]]]}},
{ "type":"Feature","properties":{"osm_way_id":"174929005","name":"ALDI","building":"yes","shop":"supermarket","other":{"addr:city":"Scarborough","addr:postcode":"YO12 7AJ","addr:street":"Northway","branch":"Scarborough","brand":"ALDI","brand:wikidata":"Q41171672","brand:wikipedia":"en:Aldi","opening_hours":"Mo-Sa 08:00-22:00; Su 10:00-16:00","toilets:wheelchair":"no","wheelchair":"yes"}}, "geometry":{"type":"MultiPolygon","coordinates":[[[[-0.40737,54.28195],[-0.40701,54.28231],[-0.4074,54.28244],[-0.4075,54.28234],[-0.40745,54.28232],[-0.40771,54.28207],[-0.40737,54.28195]]]]}},
{ "type":"Feature","properties":{"osm_way_id":"179978773","name":"Tesco","building":"retail","shop":"supermarket","other":{"addr:city":"Filey","addr:country":"GB","addr:postcode":"YO14 9AH","addr:street":"Station Avenue","brand":"Tesco","brand:wikidata":"Q487494","brand:wikipedia":"en:Tesco","contact:website":"https:\/\/www.tesco.com\/store-locator\/filey\/station-ave","fhrs:id":"34901"}}, "geometry":{"type":"MultiPolygon","coordinates":[[[[-0.29252,54.20891],[-0.29179,54.20912],[-0.29196,54.20933],[-0.29204,54.20931],[-0.29216,54.20946],[-0.29256,54.20934],[-0.29265,54.20945],[-0.29278,54.20941],[-0.2927,54.20931],[-0.29282,54.20927],[-0.29252,54.20891]]]]}},
{ "type":"Feature","properties":{"osm_way_id":"204188788","name":"Tesco","building":"supermarket","shop":"supermarket","other":{"brand":"Tesco","branch":"Scarborough Superstore","addr:city":"Scarborough","wheelchair":"yes","addr:street":"Westwood","addr:postcode":"YO11 2PN","opening_hours":"Mo-Sa 06:00-24:00; Su 10:00-16:00","brand:wikidata":"Q487494","brand:wikipedia":"en:Tesco","toilets:wheelchair":"yes"}}, "geometry":{"type":"MultiPolygon","coordinates":[[[[-0.40563,54.2786],[-0.40555,54.27854],[-0.40547,54.27857],[-0.40535,54.27849],[-0.40555,54.2784],[-0.40541,54.27829],[-0.40549,54.27825],[-0.40523,54.27805],[-0.40508,54.27811],[-0.40507,54.27816],[-0.4048,54.27827],[-0.4048,54.27833],[-0.40433,54.27853],[-0.40457,54.27873],[-0.4044,54.2788],[-0.40448,54.27886],[-0.40465,54.27899],[-0.40472,54.27896],[-0.40476,54.27899],[-0.40563,54.2786]]]]}},
{ "type":"Feature","properties":{"osm_way_id":"204189661","name":"Proudfoot","building":"yes","shop":"supermarket","other":{"addr:city":"Scarborough","addr:street":"Scalby Road","addr:postcode":"YO12 6TQ","addr:housenumber":"401"}}, "geometry":{"type":"MultiPolygon","coordinates":[[[[-0.43967,54.29476],[-0.43934,54.29443],[-0.43927,54.29445],[-0.43929,54.29447],[-0.43891,54.2946],[-0.43922,54.29491],[-0.43967,54.29476]]]]}},
{ "type":"Feature","properties":{"osm_way_id":"209612339","name":"The Co-operative Food","building":"retail","shop":"supermarket","other":{"fhrs:id":"243858","addr:city":"Saltburn-by-the-Sea","addr:street":"Whitby Road","addr:country":"GB","addr:village":"Staithes","addr:postcode":"TS13 5AL","addr:housenumber":"5"}}, "geometry":{"type":"MultiPolygon","coordinates":[[[[-0.79142,54.55186],[-0.79107,54.55179],[-0.7911,54.55173],[-0.79121,54.55167],[-0.79127,54.55167],[-0.79129,54.55164],[-0.79157,54.55169],[-0.79153,54.55175],[-0.79148,54.55174],[-0.79142,54.55186]]]]}},
{ "type":"Feature","properties":{"osm_way_id":"308668080","name":"Heron Foods","shop":"supermarket","other":{"brand":"Heron Foods","level":"0","fhrs:id":"1110654","addr:city":"Scarborough","addr:street":"Newborough","addr:country":"GB","addr:postcode":"YO11 1ET","brand:wikidata":"Q5743472","brand:wikipedia":"en:Heron Foods","contact:website":"https:\/\/heronfoods.com\/storelocator\/store-details\/scarborough","addr:housenumber":"71"}}, "geometry":{"type":"MultiPolygon","coordinates":[[[[-0.39923,54.28296],[-0.39912,54.28299],[-0.39914,54.28301],[-0.39902,54.28304],[-0.39894,54.28292],[-0.39909,54.28289],[-0.39918,54.28291],[-0.39923,54.28296]]]]}},
{ "type":"Feature","properties":{"osm_way_id":"326071212","name":"Proudfoot Supermarkets","building":"yes","shop":"supermarket","other":{"addr:city":"Eastfield","addr:postcode":"YO11 3LA","addr:street":"Manham Hill","opening_hours":"07:00-22:00","operator":"Proudfoot Supermarkets","phone":"+441723 586694"}}, "geometry":{"type":"MultiPolygon","coordinates":[[[[-0.40913,54.23995],[-0.409,54.23992],[-0.40898,54.23995],[-0.40883,54.23992],[-0.40886,54.23987],[-0.40881,54.23986],[-0.40891,54.23971],[-0.40912,54.23976],[-0.40911,54.23979],[-0.40922,54.23981],[-0.40913,54.23995]]]]}},
{ "type":"Feature","properties":{"osm_way_id":"419599387","name":"Morrisons","building":"supermarket","shop":"supermarket","other":{"cafe":"yes","brand":"Morrisons","phone":"+44 1723 581820","fhrs:id":"161564","operator":"Wm Morrison Supermarkets plc","pharmacy":"yes","addr:city":"Eastfield","wheelchair":"yes","addr:street":"Market Lane","addr:country":"GB","payment:cash":"yes","payment:visa":"yes","addr:postcode":"YO11 3YN","opening_hours":"Mo-Sa 07:00-22:00, Su 10:00-16:00; PH off","payment:coins":"yes","payment:notes":"yes","brand:wikidata":"Q922344","brand:wikipedia":"en:Morrisons","payment:mastercard":"yes","payment:debit_cards":"yes","payment:credit_cards":"yes","payment:Morrisons_More_Card":"yes"}}, "geometry":{"type":"MultiPolygon","coordinates":[[[[-0.41719,54.23872],[-0.41705,54.23863],[-0.41684,54.23862],[-0.41668,54.2387],[-0.41668,54.23876],[-0.416,54.23874],[-0.41592,54.23974],[-0.41618,54.23975],[-0.41619,54.2396],[-0.41678,54.23962],[-0.41679,54.2395],[-0.41693,54.2395],[-0.41695,54.23925],[-0.41714,54.23926],[-0.41719,54.23872]]]]}},
{ "type":"Feature","properties":{"osm_way_id":"529498537","name":"Spar","building":"yes","shop":"supermarket","other":{"addr:city":"Filey","addr:country":"GB","addr:housenumber":"3","addr:postcode":"YO14 9DA","addr:street":"Murray Street","brand":"Spar","brand:wikidata":"Q610492","brand:wikipedia":"en:Spar (retailer)","fhrs:id":"370961","opening_hours":"Mo-Su 07:00-22:00","operator":"James Hall & Co Limited","payment:cash":"yes","payment:coins":"yes","payment:credit_cards":"yes","payment:debit_cards":"yes","payment:mastercard":"yes","payment:notes":"yes","payment:visa":"yes"}}, "geometry":{"type":"MultiPolygon","coordinates":[[[[-0.28863,54.20963],[-0.28843,54.20957],[-0.28834,54.20971],[-0.28826,54.20982],[-0.28846,54.20986],[-0.28857,54.20971],[-0.28863,54.20963]]]]}},
{ "type":"Feature","properties":{"osm_way_id":"572930242","name":"Sainsbury's","building":"supermarket","shop":"supermarket","other":{"addr:city":"Whitby","addr:postcode":"YO22 4NL","addr:street":"Stainsacre Lane","alt_name":"Sainsbury's Whitby Superstore","brand":"Sainsbury's","brand:wikidata":"Q152096","brand:wikipedia":"en:Sainsbury's","opening_hours":"Mo-Sa 08:00-22:00; Su 10:00-16:00"}}, "geometry":{"type":"MultiPolygon","coordinates":[[[[-0.59986,54.4709],[-0.59931,54.47139],[-0.59943,54.47143],[-0.59959,54.47143],[-0.59993,54.47161],[-0.60003,54.47152],[-0.60025,54.4716],[-0.60036,54.47159],[-0.60065,54.47134],[-0.60073,54.47137],[-0.60079,54.47133],[-0.60084,54.47134],[-0.60087,54.47131],[-0.59986,54.4709]]]]}},
{ "type":"Feature","properties":{"osm_way_id":"664938180","name":"Sainsbury's","building":"supermarket","shop":"supermarket","other":{"addr:city":"Scarborough","addr:postcode":"YO12 5EA","addr:street":"Falsgrave Road","branch":"Scarborough Superstore","brand":"Sainsbury's","brand:wikidata":"Q152096","cafe":"yes","opening_hours":"Mo-Sa 07:00-22:00; Su 10:00-16:00","pharmacy":"yes","toilets":"yes","toilets:wheelchair":"yes","wheelchair":"yes"}}, "geometry":{"type":"MultiPolygon","coordinates":[[[[-0.41243,54.2788],[-0.41243,54.27874],[-0.4119,54.27876],[-0.41194,54.27934],[-0.41247,54.27933],[-0.41247,54.27938],[-0.41261,54.27938],[-0.41261,54.27941],[-0.4127,54.27941],[-0.4127,54.27951],[-0.41354,54.2795],[-0.4135,54.27885],[-0.41349,54.27878],[-0.41243,54.2788]]]]}},
{ "type":"Feature","properties":{"osm_way_id":"956538933","name":"Proudfoot","building":"yes","shop":"supermarket"},"geometry":{"type":"MultiPolygon","coordinates":[[[[-0.44416,54.23859],[-0.44393,54.23856],[-0.44393,54.23855],[-0.44401,54.23837],[-0.44427,54.23838],[-0.44422,54.23848],[-0.44416,54.23859]]]]}},
{ "type":"Feature","properties":{"osm_way_id":"972872234","name":"ALDI","building":"yes","shop":"supermarket","other":{"brand":"ALDI","brand:wikidata":"Q41171672","brand:wikipedia":"en:Aldi"}}, "geometry":{"type":"MultiPolygon","coordinates":[[[[-0.59875,54.47061],[-0.59818,54.47099],[-0.59808,54.47093],[-0.59814,54.47089],[-0.59789,54.47077],[-0.59797,54.47072],[-0.59819,54.47057],[-0.59827,54.47061],[-0.59848,54.47047],[-0.59875,54.47061]]]]}}
]
}
