{
"type": "FeatureCollection",
"features": [
{ "type":"Feature","properties":{"osm_id":"31678212","name":"Sainsbury's","other":{"shop":"supermarket","brand":"Sainsbury's","operator":"Sainsbury's","addr:city":"Redhill","wheelchair":"yes","addr:street":"London Road","brand:wikidata":"Q152096","brand:wikipedia":"en:Sainsbury's","toilets:wheelchair":"yes","wheelchair:description":"Step-free street entrance, lifts from 30 Blue Badge spaces on upper level. Accessible and Changing Places Toilets on Cafe level [Tills with Hearing Loops often shut]"}}, "geometry":{"type":"Point","coordinates":[-0.16771,51.24148 ]}},
{ "type":"Feature","properties":{"osm_id":"1120467390","name":"M&S Foodhall","other":{"addr:city":"Reigate","addr:housenumber":"51","addr:postcode":"RH2 9AE","addr:street":"High Street","brand":"M&S Foodhall","brand:wikidata":"Q714491","brand:wikipedia":"en:Marks & Spencer","opening_hours":"Mo-Sa 08:30-19:00; Su 10:00-16:00","phone":"+44 1737 223372","shop":"supermarket","wheelchair":"yes","wheelchair:description":"Automatic powered sliding entry doors, and outward opening exit door. Wide aisles. Hearing Loops at customer service and one till - but both broken 25\/11\/2017"}}, "geometry":{"type":"Point","coordinates":[-0.20846,51.23762 ]}},
{ "type":"Feature","properties":{"osm_id":"3085789431","name":"Co-op Food","other":{"addr:city":"Redhill","addr:street":"Station Road","brand":"Co-op Food","brand:wikidata":"Q3277439","brand:wikipedia":"en:Co-op Food","opening_hours":"Mo,Tu,Th,Fr 09:00-17:00; We 10:00-17:00; Sa 09:00-13:00","phone":"+44 1737 766761","shop":"supermarket","wheelchair":"yes","wheelchair:description":"Ramped entrance, automatic sliding doors. Low tills. Hearing Loops at pay points (all 4) not working in September 2017."}}, "geometry":{"type":"Point","coordinates":[-0.16988,51.24056 ]}},
{ "type":"Feature","properties":{"osm_id":"4977234494","name":"Co-op Food","other":{"addr:city":"Redhill","addr:parentstreet":"Bletchingley Road","addr:postcode":"RH1 3HU","addr:street":"Quarrydene Parade","addr:unit":"1","addr:village":"Merstham","brand":"Co-op Food","brand:wikidata":"Q3277439","brand:wikipedia":"en:Co-op Food","fhrs:authority":"Reigate and Banstead","fhrs:id":"1019691","shop":"supermarket","wheelchair":"yes","wheelchair:description":"Automatic sliding doors, low counters at tills. (No working Hearing Loops 29\/11\/2017)  \r\nBlue Badge space nearby."}}, "geometry":{"type":"Point","coordinates":[-0.14576,51.26033 ]}},
{ "type":"Feature","properties":{"osm_id":"5996343886","name":"Tesco Express","other":{"addr:city":"Banstead","addr:housenumber":"98","addr:postcode":"SM7 2NN","addr:street":"High Street","atm":"yes","brand":"Tesco Express","brand:wikidata":"Q98456772","contact:website":"https:\/\/www.tesco.com\/store-locator\/banstead\/98-high-st","fhrs:id":"16670","opening_hours":"Mo-Su 07:00-23:00","shop":"supermarket","survey:date":"2018-10-18"}}, "geometry":{"type":"Point","coordinates":[-0.19956,51.32298 ]}},
{ "type":"Feature","properties":{"osm_id":"5998676039","name":"The Co-operative Food","other":{"shop":"supermarket","fhrs:id":"35334","addr:city":"Banstead","addr:street":"Nork Way","survey:date":"2018-10-18","addr:postcode":"SM7 1PB","fhrs:authority":"Reigate and Banstead","addr:housenumber":"1-3"}}, "geometry":{"type":"Point","coordinates":[-0.21526,51.32829 ]}},
{ "type":"Feature","properties":{"osm_id":"6391274339","name":"Budgens","other":{"shop":"supermarket","brand":"Budgens","fhrs:id":"1084721","addr:city":"Tadworth","addr:street":"Shelvers Hill","addr:postcode":"KT20 5PU","brand:wikidata":"Q4985016","fhrs:authority":"Reigate and Banstead","brand:wikipedia":"en:Budgens"}}, "geometry":{"type":"Point","coordinates":[-0.23777,51.29718 ]}},
{ "type":"Feature","properties":{"osm_id":"6391274346","name":"Tadworth Supermarket","other":{"shop":"supermarket","fhrs:id":"650226","addr:city":"Tadworth","addr:street":"Shelvers Hill","addr:postcode":"KT20 5PU","fhrs:authority":"Reigate and Banstead","addr:housenumber":"7-9"}}, "geometry":{"type":"Point","coordinates":[-0.23758,51.29667 ]}},
{ "type":"Feature","properties":{"osm_id":"7243183740","name":"The Co-operative Food","other":{"shop":"supermarket","brand":"The Co-operative Food","fhrs:id":"28059","addr:city":"Epsom","addr:street":"Tattenham Crescent","addr:postcode":"KT18 5QJ","brand:wikidata":"Q3277439","fhrs:authority":"Reigate and Banstead","brand:wikipedia":"en:Co-op Food","addr:housenumber":"29-31"}}, "geometry":{"type":"Point","coordinates":[-0.24008,51.31014 ]}},
{ "type":"Feature","properties":{"osm_way_id":"22999930","name":"Asda","building":"yes","shop":"supermarket","other":{"addr:city":"Tadworth","addr:country":"GB","addr:postcode":"KT20 5NZ","addr:street":"Reigate Road","brand":"Asda","brand:wikidata":"Q297410","brand:wikipedia":"en:Asda","contact:facebook":"https:\/\/www.facebook.com\/asda\/","contact:twitter":"@asda","contact:website":"https:\/\/storelocator.asda.com\/south-east\/tadworth\/reigate-road-burgh-heath","fhrs:authority":"Reigate and Banstead","fhrs:id":"75377","opening_hours":"Mo 07:00-24:00; Tu-Fr 00:00-24:00; Sa 00:00-22:00; Su 10:00-16:00","operator":"Asda Stores Ltd","toilets":"yes"}}, "geometry":{"type":"MultiPolygon","coordinates":[[[[-0.22281,51.30884],[-0.22275,51.3088],[-0.22283,51.30876],[-0.22271,51.30867],[-0.22275,51.30865],[-0.22229,51.30826],[-0.22178,51.30849],[-0.22177,51.30848],[-0.22148,51.3086],[-0.2214,51.30854],[-0.22131,51.30853],[-0.22101,51.30867],[-0.22121,51.30884],[-0.22124,51.30883],[-0.22136,51.30893],[-0.22127,51.30897],[-0.22178,51.30941],[-0.22196,51.30933],[-0.22201,51.30937],[-0.2221,51.30933],[-0.22219,51.30929],[-0.22214,51.30925],[-0.22252,51.30908],[-0.22244,51.30901],[-0.22264,51.30892],[-0.22281,51.30884]]]]}},
{ "type":"Feature","properties":{"osm_way_id":"26633961","name":"Waitrose","building":"retail","shop":"supermarket","other":{"addr:city":"Banstead","addr:housenumber":"102-104","addr:postcode":"SM7 2NB","addr:street":"High Street","brand":"Waitrose & Partners","brand:wikidata":"Q771734","brand:wikipedia":"en:Waitrose & Partners","fhrs:authority":"Reigate and Banstead","fhrs:id":"30898","operator":"Waitrose & Partners","survey:date":"2018-10-18"}}, "geometry":{"type":"MultiPolygon","coordinates":[[[[-0.19926,51.32317],[-0.19924,51.3231],[-0.19907,51.32311],[-0.19907,51.32308],[-0.19902,51.32308],[-0.19902,51.32293],[-0.19859,51.32292],[-0.1986,51.32289],[-0.19834,51.32288],[-0.1983,51.3233],[-0.19867,51.32329],[-0.19926,51.32317]]]]}},
{ "type":"Feature","properties":{"osm_way_id":"60094215","name":"Waitrose","building":"yes","shop":"supermarket","other":{"addr:city":"Horley","addr:housenumber":"26","addr:postcode":"RH6 7PZ","addr:street":"Victoria Road","brand":"Waitrose","brand:wikidata":"Q771734","brand:wikipedia":"en:Waitrose & Partners","cafe":"yes","official_name":"Waitrose & Partners","operator":"Waitrose & Partners","phone":"+44 1293 785646","toilets":"yes","wheelchair":"yes"}}, "geometry":{"type":"MultiPolygon","coordinates":[[[[-0.16183,51.16992],[-0.16179,51.16936],[-0.16178,51.16929],[-0.1614,51.1693],[-0.1614,51.16928],[-0.16129,51.16929],[-0.16129,51.16931],[-0.16123,51.16931],[-0.16125,51.16961],[-0.16118,51.16961],[-0.16119,51.16974],[-0.16114,51.16974],[-0.16116,51.16997],[-0.16131,51.16996],[-0.16131,51.16991],[-0.16166,51.1699],[-0.16166,51.16992],[-0.16183,51.16992]]]]}},
{ "type":"Feature","properties":{"osm_way_id":"68326701","name":"Lidl","building":"retail","shop":"supermarket","other":{"addr:city":"Horley","addr:country":"GB","addr:housenumber":"100","addr:postcode":"RH6 7AB","addr:street":"Victoria Road","brand":"Lidl","brand:wikidata":"Q151954","brand:wikipedia":"en:Lidl","fhrs:id":"50797","toilets:wheelchair":"yes","wheelchair":"yes","wheelchair:description":"Automatic doors from street. Ramp from car park with 5 Blue Badge spaces and automatic doors to rear of store. No hearing loops."}}, "geometry":{"type":"MultiPolygon","coordinates":[[[[-0.16505,51.17279],[-0.16535,51.17243],[-0.16503,51.17232],[-0.16479,51.17261],[-0.16491,51.17265],[-0.16485,51.17273],[-0.16501,51.17278],[-0.16505,51.17279]]]]}},
{ "type":"Feature","properties":{"osm_way_id":"465488139","name":"M&S Simply Food","building":"retail","shop":"supermarket","other":{"addr:city":"Banstead","addr:housenumber":"1-13","addr:postcode":"SM7 2NE","addr:street":"High Street","brand":"M&S Simply Food","brand:wikidata":"Q714491","building:levels":"3","fhrs:authority":"Reigate and Banstead","fhrs:id":"16681","survey:date":"2018-10-18"}}, "geometry":{"type":"MultiPolygon","coordinates":[[[[-0.20473,51.32247],[-0.20459,51.32221],[-0.20468,51.3222],[-0.20462,51.3221],[-0.20458,51.3221],[-0.20456,51.32208],[-0.20396,51.3222],[-0.20398,51.32223],[-0.2039,51.32225],[-0.20409,51.32264],[-0.20427,51.32261],[-0.20412,51.3223],[-0.20443,51.32224],[-0.20456,51.32251],[-0.20473,51.32247]]]]}},
{ "type":"Feature","properties":{"osm_way_id":"549996543","name":"Morrisons","building":"supermarket","shop":"supermarket","other":{"addr:city":"Reigate","brand":"Morrisons","brand:wikidata":"Q922344","brand:wikipedia":"en:Morrisons","currency:GBP":"yes","layer":"1","payment:cash":"yes","payment:coins":"yes","payment:contactless":"yes","payment:credit_cards":"yes","payment:debit_cards":"yes","payment:notes":"yes","toilets":"yes","toilets:wheelchair":"yes","website":"https:\/\/my.morrisons.com\/storefinder\/360","wheelchair":"yes","wheelchair:description":"Automatic doors. Blue Badge spaces near entrance. Customer toilet: RADAR Key only. Hearing Loop: Yes - one till, not reliable."}}, "geometry":{"type":"MultiPolygon","coordinates":[[[[-0.20743,51.23714],[-0.20762,51.23668],[-0.2076,51.23668],[-0.20763,51.23662],[-0.20772,51.23663],[-0.20773,51.23662],[-0.20782,51.23663],[-0.20781,51.23664],[-0.20844,51.23674],[-0.20872,51.2368],[-0.20868,51.2369],[-0.20867,51.2369],[-0.20864,51.23699],[-0.20871,51.237],[-0.2087,51.23702],[-0.20876,51.23703],[-0.20874,51.23708],[-0.20881,51.23709],[-0.20879,51.23714],[-0.20873,51.23713],[-0.2087,51.23718],[-0.20855,51.23716],[-0.20852,51.23722],[-0.20835,51.23719],[-0.20813,51.23722],[-0.20789,51.23718],[-0.20787,51.23721],[-0.20762,51.23721],[-0.2076,51.23725],[-0.20743,51.23722],[-0.20742,51.23724],[-0.20734,51.23723],[-0.20735,51.2372],[-0.20733,51.2372],[-0.20736,51.23712],[-0.20743,51.23714]]]]}},
{ "type":"Feature","properties":{"osm_way_id":"550483745","name":"Co-op Food","building":"yes","shop":"supermarket","other":{"addr:city":"Reigate","addr:housenumber":"40","addr:postcode":"RH2 8HX","addr:street":"Allingham Road","brand":"Co-op Food","brand:wikidata":"Q3277439","brand:wikipedia":"en:Co-op Food","fhrs:authority":"Reigate and Banstead","fhrs:id":"52525","source:fhrs":"https:\/\/ratings.food.gov.uk\/OpenDataFiles\/FHRS309en-GB.xml"}}, "geometry":{"type":"MultiPolygon","coordinates":[[[[-0.2091,51.22449],[-0.20933,51.22442],[-0.20944,51.22459],[-0.20928,51.22463],[-0.20921,51.22465],[-0.2091,51.22449]]]]}}
]
}
