{
"type": "FeatureCollection",
"features": [
{ "type":"Feature","properties":{"osm_id":"6515068004","name":"The Co-operative Food","other":{"addr:city":"Southwick","addr:street":"Southwick Square","brand":"The Co-operative Food","brand:wikidata":"Q3277439","brand:wikipedia":"en:Co-op Food","description":"This store is a 'blue' Coop and is called Southwick's Coop.","phone":"+44 1273 592208","shop":"supermarket"}}, "geometry":{"type":"Point","coordinates":[-0.23598,50.83461 ]}},
{ "type":"Feature","properties":{"osm_way_id":"119020509","name":"Co-op Food","building":"retail","shop":"supermarket","other":{"addr:postcode":"BN43 6PA","addr:street":"Ham Road","brand":"Co-op Food","brand:wikidata":"Q3277439","brand:wikipedia":"en:Co-op Food","designation":"The Co-operative Food","operator":"The Co-operative Group","operator:wikidata":"Q117202","operator:wikipedia":"en:The Co-operative Group"}}, "geometry":{"type":"MultiPolygon","coordinates":[[[[-0.2716,50.83374],[-0.27156,50.83383],[-0.27151,50.83382],[-0.2715,50.83385],[-0.27139,50.83383],[-0.27143,50.83374],[-0.27141,50.83368],[-0.27097,50.83361],[-0.27107,50.83338],[-0.27123,50.83341],[-0.27128,50.8333],[-0.27142,50.83325],[-0.27144,50.8332],[-0.27176,50.83325],[-0.27157,50.83374],[-0.2716,50.83374]]]]}},
{ "type":"Feature","properties":{"osm_way_id":"168318171","name":"Asda","building":"yes","shop":"supermarket","other":{"addr:city":"Lancing","addr:country":"GB","addr:postcode":"BN15 8AG","addr:street":"South Street","brand":"Asda","brand:wikidata":"Q297410","brand:wikipedia":"en:Asda","contact:facebook":"https:\/\/www.facebook.com\/asda\/","contact:phone":"+44 1903 855220","contact:twitter":"@asda","contact:website":"https:\/\/storelocator.asda.com\/south-east\/brighton\/south-street-lancing","fhrs:id":"175879","opening_hours":"Mo-Sa 07:00-23:00; Su 10:00-16:00","operator":"Asda Stores Ltd","pay_point":"yes","source:opening_hours":"shop visit","source:phone":"receipt from visit"}}, "geometry":{"type":"MultiPolygon","coordinates":[[[[-0.32521,50.82657],[-0.32519,50.82651],[-0.32509,50.82653],[-0.3251,50.82656],[-0.32464,50.82664],[-0.32463,50.82662],[-0.32466,50.82661],[-0.32463,50.82654],[-0.32459,50.82655],[-0.32453,50.8264],[-0.32372,50.82654],[-0.3238,50.82673],[-0.32372,50.82675],[-0.32375,50.82683],[-0.32521,50.82657]]]]}},
{ "type":"Feature","properties":{"osm_way_id":"168318173","name":"Co-op Food","building":"yes","shop":"supermarket","other":{"brand":"Co-op Food","brand:wikidata":"Q3277439","brand:wikipedia":"en:Co-op Food","operator":"The Co-operative Group","operator:wikidata":"Q117202","operator:wikipedia":"en:The Co-operative Group"}}, "geometry":{"type":"MultiPolygon","coordinates":[[[[-0.32253,50.82995],[-0.3226,50.82971],[-0.32231,50.82968],[-0.32232,50.82964],[-0.32212,50.82962],[-0.32199,50.82959],[-0.32194,50.8297],[-0.3219,50.8297],[-0.32185,50.82987],[-0.32253,50.82995]]]]}},
{ "type":"Feature","properties":{"osm_way_id":"235745828","name":"Tesco Extra","shop":"supermarket","other":{"addr:housename":"Holmbush Centre","addr:postcode":"BN43 6TD","addr:street":"Upper Shoreham Road","brand":"Tesco Extra","brand:wikidata":"Q25172225","designation":"Shoreham-By-Sea Extra","operator":"Tesco plc","phone":"+44 345 6779618"}}, "geometry":{"type":"MultiPolygon","coordinates":[[[[-0.24877,50.84469],[-0.24874,50.84466],[-0.24947,50.8444],[-0.25017,50.84415],[-0.25073,50.84481],[-0.24943,50.84525],[-0.24936,50.84516],[-0.24916,50.84522],[-0.24882,50.84486],[-0.24877,50.84469]]]]}},
{ "type":"Feature","properties":{"osm_way_id":"235745829","name":"Co-op Food","building":"retail","shop":"supermarket","other":{"addr:housenumber":"22-26","addr:postcode":"BN43 5DA","addr:street":"High Street","brand":"Co-op Food","brand:wikidata":"Q3277439","brand:wikipedia":"en:Co-op Food","building:levels":"1","designation":"The Co-operative Food","opening_hours":"Mo-Su 06:30-22:00","operator":"The Co-operative Group","operator:wikidata":"Q117202","operator:wikipedia":"en:The Co-operative Group"}}, "geometry":{"type":"MultiPolygon","coordinates":[[[[-0.2756,50.83205],[-0.27573,50.83184],[-0.27557,50.83179],[-0.27553,50.83186],[-0.27545,50.83202],[-0.27541,50.83201],[-0.27533,50.832],[-0.27529,50.83208],[-0.27551,50.83212],[-0.27552,50.8321],[-0.27554,50.83204],[-0.2756,50.83205]]]]}},
{ "type":"Feature","properties":{"osm_way_id":"235901497","name":"Lidl","building":"yes","shop":"supermarket","other":{"addr:housenumber":"1","addr:parentstreet":"Brighton Road","addr:place":"Malthouse Trading Estate","addr:postcode":"BN43 6RJ","brand":"Lidl","brand:wikidata":"Q151954","brand:wikipedia":"en:Lidl","fhrs:id":"942439","source:addr":"FHRS Open Data"}}, "geometry":{"type":"MultiPolygon","coordinates":[[[[-0.25689,50.83251],[-0.25688,50.83253],[-0.25619,50.83246],[-0.25625,50.83222],[-0.25653,50.83225],[-0.25654,50.83222],[-0.2571,50.83227],[-0.25703,50.83252],[-0.25689,50.83251]]]]}},
{ "type":"Feature","properties":{"osm_way_id":"239737923","name":"Yun Feng Foods","building":"retail","shop":"supermarket","other":{"addr:city":"Southwick, Brighton","addr:housenumber":"18","addr:postcode":"BN42 4FJ","addr:street":"Southwick Square","origin":"chinese"}}, "geometry":{"type":"MultiPolygon","coordinates":[[[[-0.23635,50.83437],[-0.23617,50.83435],[-0.23608,50.83463],[-0.23609,50.83463],[-0.23633,50.83466],[-0.23634,50.83461],[-0.23642,50.83462],[-0.23643,50.83458],[-0.2363,50.83456],[-0.23631,50.83452],[-0.23635,50.83437]]]]}},
{ "type":"Feature","properties":{"osm_way_id":"1009136822","name":"Co-op Food","building":"yes","shop":"supermarket","other":{"addr:city":"Lancing","addr:postcode":"BN15 0BU","brand":"Co-op Food","brand:wikidata":"Q3277439","brand:wikipedia":"en:Co-op Food","opening_hours":"07:00-22:00","operator":"The Co-operative Group","operator:wikidata":"Q117202","operator:wikipedia":"en:The Co-operative Group","pay_point":"yes"}}, "geometry":{"type":"MultiPolygon","coordinates":[[[[-0.3413,50.83139],[-0.34149,50.8313],[-0.34141,50.83123],[-0.34121,50.83132],[-0.34124,50.83134],[-0.3413,50.83139]]]]}},
{ "type":"Feature","properties":{"osm_way_id":"1013818473","name":"The Atlantic Store","building":"yes","shop":"supermarket","other":{"addr:city":"Shoreham By Sea","addr:housenumber":"13","addr:postcode":"BN43 5RA","addr:street":"Ferry Road","pay_point":"yes","payment:credit_cards":"minimum spend Â£3.00.","phone":"+44 1273 455481"}}, "geometry":{"type":"MultiPolygon","coordinates":[[[[-0.27194,50.82909],[-0.27193,50.82904],[-0.27167,50.82908],[-0.27169,50.82913],[-0.27194,50.82909]]]]}},
{ "type":"Feature","properties":{"osm_way_id":"1015075606","building":"house"},"geometry":{"type":"MultiPolygon","coordinates":[[[[-0.2662,50.82812],[-0.2662,50.82801],[-0.26609,50.82801],[-0.26609,50.82812],[-0.2662,50.82812]]]]}}
]
}
