{
"type": "FeatureCollection",
"features": [
{ "type":"Feature","properties":{"osm_id":"549797887","name":"Co-op Food","other":{"shop":"supermarket","brand":"Co-op Food","fhrs:id":"840530","operator":"The Co-operative Group","addr:street":"Fore Street","source:addr":"FHRS Open Data","addr:postcode":"PL20 7AD","brand:wikidata":"Q3277439","brand:wikipedia":"en:Co-op Food","addr:housenumber":"8-10"}}, "geometry":{"type":"Point","coordinates":[-4.18978,50.48034 ]}},
{ "type":"Feature","properties":{"osm_id":"1872878540","name":"Costcutter","other":{"addr:city":"Okehampton","addr:housenumber":"1","addr:postcode":"EX20 1QF","addr:street":"Stannay Court","brand":"Costcutter","brand:wikidata":"Q5175072","brand:wikipedia":"en:Costcutter","shop":"supermarket"}}, "geometry":{"type":"Point","coordinates":[-3.988,50.74132 ]}},
{ "type":"Feature","properties":{"osm_id":"3181807203","name":"Spar","other":{"addr:street":"Fore Street","brand":"Spar","brand:wikidata":"Q610492","shop":"supermarket"}}, "geometry":{"type":"Point","coordinates":[-4.18975,50.4802 ]}},
{ "type":"Feature","properties":{"osm_id":"861727216","highway":"service","other":{"access":"private","service":"driveway"}}, "geometry":{"type":"LineString","coordinates":[[-4.11415,50.7158],[-4.11421,50.71584],[-4.11457,50.71602],[-4.11456,50.71605],[-4.11444,50.71611],[-4.11412,50.71622],[-4.11406,50.71622],[-4.114,50.7162]]}},
{ "type":"Feature","properties":{"osm_way_id":"26491177","name":"Morrisons","building":"supermarket","shop":"supermarket","other":{"brand":"Morrisons","brand:wikidata":"Q922344","brand:wikipedia":"en:Morrisons"}}, "geometry":{"type":"MultiPolygon","coordinates":[[[[-4.14786,50.53744],[-4.14734,50.53703],[-4.1482,50.53658],[-4.14858,50.53688],[-4.14839,50.53699],[-4.14852,50.53709],[-4.14786,50.53744]]]]}},
{ "type":"Feature","properties":{"osm_way_id":"176798054","name":"Waitrose","building":"retail","shop":"supermarket","other":{"addr:city":"Okehampton","addr:housename":"Waitrose","addr:postcode":"EX20 1WL","addr:street":"School Way","alt_name":"Waitrose Okehampton","brand":"Waitrose","brand:wikidata":"Q771734","brand:wikipedia":"en:Waitrose & Partners","building:levels":"2","fhrs:id":"896053","official_name":"Waitrose & Partners","opening_hours":"Mo-Fr 08:00-21:00; Sa 08:00-20:00; Su 10:00-16:00","operator":"Waitrose & Partners"}}, "geometry":{"type":"MultiPolygon","coordinates":[[[[-4.00457,50.74054],[-4.00443,50.74033],[-4.00438,50.74034],[-4.00436,50.74031],[-4.00423,50.74035],[-4.0042,50.74031],[-4.00375,50.74043],[-4.00373,50.74039],[-4.00355,50.74044],[-4.00392,50.74099],[-4.00424,50.7409],[-4.0041,50.7407],[-4.00437,50.74063],[-4.00435,50.7406],[-4.00457,50.74054]]]]}},
{ "type":"Feature","properties":{"osm_way_id":"176798055","name":"Lidl","building":"yes","shop":"supermarket","other":{"brand":"Lidl","fhrs:id":"896054","alt_name":"LIDL Okehampton","addr:city":"Okehampton","addr:street":"School Way","addr:postcode":"EX20 1EU","brand:wikidata":"Q151954","brand:wikipedia":"en:Lidl"}}, "geometry":{"type":"MultiPolygon","coordinates":[[[[-4.00287,50.74161],[-4.00286,50.74157],[-4.00277,50.74158],[-4.00268,50.74128],[-4.00275,50.74127],[-4.0027,50.74112],[-4.00301,50.74108],[-4.00317,50.74157],[-4.00287,50.74161]]]]}},
{ "type":"Feature","properties":{"osm_way_id":"176798215","name":"Co-op Food","building":"retail","shop":"supermarket","other":{"addr:city":"Okehampton","addr:postcode":"EX20 1HN","addr:street":"Market Street","alt_name":"The Co-operative Food","brand":"Co-op Food","brand:wikidata":"Q3277439","brand:wikipedia":"en:Co-op Food","fhrs:id":"809146","opening_hours":"Mo-Sa 07:00-22:00; Su 10:00-16:00"}}, "geometry":{"type":"MultiPolygon","coordinates":[[[[-4.00527,50.73983],[-4.00478,50.73979],[-4.00471,50.74019],[-4.00478,50.74019],[-4.00477,50.74025],[-4.00503,50.74027],[-4.00497,50.74044],[-4.00506,50.74045],[-4.00514,50.74028],[-4.00517,50.74013],[-4.00521,50.74013],[-4.00527,50.73983]]]]}},
{ "type":"Feature","properties":{"osm_way_id":"183473440","name":"Strawberry Fields Farm Shop","building":"retail","shop":"supermarket","other":{"old_name":"Lifton Farm Shop"}}, "geometry":{"type":"MultiPolygon","coordinates":[[[[-4.2975,50.64556],[-4.29748,50.64579],[-4.29771,50.6458],[-4.29772,50.64556],[-4.2975,50.64556]]]]}},
{ "type":"Feature","properties":{"osm_way_id":"272180918","name":"Co-op","building":"yes","shop":"supermarket","other":{"fhrs:id":"1081775","alt_name":"The Co-operative Food","addr:street":"Bridge Street","addr:postcode":"EX20 3HY","addr:housenumber":"24"}}, "geometry":{"type":"MultiPolygon","coordinates":[[[[-4.07247,50.82049],[-4.07249,50.82026],[-4.07274,50.82026],[-4.07273,50.82033],[-4.07281,50.82034],[-4.0728,50.82041],[-4.07263,50.82041],[-4.07263,50.8205],[-4.07247,50.82049]]]]}},
{ "type":"Feature","properties":{"osm_way_id":"337990734","name":"The Co-operative Food","amenity":"parking","building":"yes","shop":"supermarket","other":{"fee":"yes","fhrs:id":"808993","parking":"multi-storey","operator":"The Co-operative Group","addr:street":"Brook Street","source:addr":"FHRS Open Data","addr:postcode":"PL19 0BJ","addr:housenumber":"20"}}, "geometry":{"type":"MultiPolygon","coordinates":[[[[-4.14246,50.55201],[-4.14196,50.55223],[-4.1417,50.55199],[-4.14176,50.55196],[-4.14173,50.55192],[-4.1421,50.55176],[-4.14215,50.55181],[-4.14221,50.55178],[-4.14246,50.55201]]]]}},
{ "type":"Feature","properties":{"osm_way_id":"362841951","name":"Co-op Food","building":"yes","shop":"supermarket","other":{"brand":"Co-op Food","fhrs:id":"840523","operator":"The Co-operative Group","addr:street":"Moorland Villas","source:addr":"FHRS Open Data","addr:postcode":"PL20 6DT","opening_hours":"Mo-Sa 07:00-22:00; Su,PH 10:00-16:00","brand:wikidata":"Q3277439","brand:wikipedia":"en:Co-op Food","addr:housenumber":"3-4"}}, "geometry":{"type":"MultiPolygon","coordinates":[[[[-4.08543,50.49169],[-4.08527,50.49176],[-4.08492,50.49143],[-4.08501,50.4914],[-4.08509,50.49136],[-4.0851,50.49137],[-4.08543,50.49169]]]]}},
{ "type":"Feature","properties":{"osm_way_id":"572449374","name":"Tesco","building":"supermarket","shop":"supermarket","other":{"brand":"Tesco","brand:wikidata":"Q487494","brand:wikipedia":"en:Tesco"}}, "geometry":{"type":"MultiPolygon","coordinates":[[[[-4.14489,50.53854],[-4.1445,50.53817],[-4.14511,50.53793],[-4.14549,50.53831],[-4.14489,50.53854]]]]}},
{ "type":"Feature","properties":{"osm_way_id":"622137641","name":"The Game Larder","building":"yes","shop":"supermarket","other":{"fhrs:id":"809026","addr:street":"Moorland Villas","source:addr":"FHRS Open Data","addr:postcode":"PL20 6DT","addr:housenumber":"6"}}, "geometry":{"type":"MultiPolygon","coordinates":[[[[-4.0857,50.49158],[-4.08563,50.49161],[-4.08542,50.49142],[-4.0855,50.49138],[-4.08556,50.49144],[-4.0857,50.49158]]]]}},
{ "type":"Feature","properties":{"osm_way_id":"661591306","name":"Lidl","building":"yes","shop":"supermarket","other":{"brand":"Lidl","fhrs:id":"1081663","operator":"Lidl","addr:city":"Tavistick","addr:street":"Plymouth Road","addr:postcode":"PL19 9DS","brand:wikidata":"Q151954","brand:wikipedia":"en:Lidl","addr:housenumber":"142-152"}}, "geometry":{"type":"MultiPolygon","coordinates":[[[[-4.1459,50.53757],[-4.14521,50.53724],[-4.1454,50.53707],[-4.14549,50.53711],[-4.14551,50.53709],[-4.14579,50.53723],[-4.14583,50.53719],[-4.14605,50.53729],[-4.14602,50.53732],[-4.14605,50.53734],[-4.14603,50.53736],[-4.1461,50.53739],[-4.1459,50.53757]]]]}}
]
}
