{
"type": "FeatureCollection",
"features": [
{ "type":"Feature","properties":{"osm_way_id":"119379297","name":"The Co-operative Food","building":"retail","shop":"supermarket","other":{"addr:city":"Alston","addr:postcode":"CA9 3HS","addr:street":"Market Place","branch":"Alston Co-operative Society","fhrs:id":"306904","opening_hours":"Mo-Su 07:00-22:00","operator":"The Co-operative Group","phone":"+44 1434 381231","source:addr":"FHRS Open Data","wheelchair":"yes"}}, "geometry":{"type":"MultiPolygon","coordinates":[[[[-2.43872,54.81253],[-2.43862,54.81253],[-2.43851,54.81249],[-2.4385,54.81244],[-2.43848,54.81244],[-2.43848,54.81239],[-2.43868,54.81238],[-2.43869,54.81245],[-2.43871,54.81245],[-2.43872,54.81253]]]]}},
{ "type":"Feature","properties":{"osm_way_id":"124063738","name":"Aldi","building":"yes","shop":"supermarket","other":{"addr:city":"Penrith","addr:housenumber":"Unit 1","addr:postcode":"CA11 7EH","addr:street":"Ullswater Road","alt_name":"ALDI Penrith","brand":"ALDI","brand:wikidata":"Q41171672","brand:wikipedia":"en:Aldi","old_name":"Shoprite","opening_hours":"Mo-Sa 08:00-21:00; Su 10:00-16:00"}}, "geometry":{"type":"MultiPolygon","coordinates":[[[[-2.7595,54.65986],[-2.75977,54.65953],[-2.75982,54.65948],[-2.76032,54.65962],[-2.76023,54.65972],[-2.76016,54.6597],[-2.75994,54.65998],[-2.7595,54.65986]]]]}},
{ "type":"Feature","properties":{"osm_way_id":"124406428","name":"Cranstons Cumbrian Food Hall","building":"retail","shop":"supermarket","other":{"addr:city":"Penrith","addr:postcode":"CA11 7EH","addr:street":"Ullswater Road","fhrs:id":"307269"}}, "geometry":{"type":"MultiPolygon","coordinates":[[[[-2.76114,54.65781],[-2.7606,54.6577],[-2.76056,54.65769],[-2.76047,54.65767],[-2.76039,54.65756],[-2.7607,54.65748],[-2.76074,54.65753],[-2.76092,54.65757],[-2.7611,54.65753],[-2.76117,54.65762],[-2.76124,54.65763],[-2.76114,54.65781]]]]}},
{ "type":"Feature","properties":{"osm_way_id":"127720670","building":"yes","shop":"supermarket"},"geometry":{"type":"MultiPolygon","coordinates":[[[[-2.83201,54.60019],[-2.83172,54.59997],[-2.83199,54.59986],[-2.83227,54.60008],[-2.83201,54.60019]]]]}},
{ "type":"Feature","properties":{"osm_way_id":"140976427","name":"Sainsbury's","building":"retail","shop":"supermarket","other":{"brand":"Sainsbury's","alt_name":"Sainsbury's Penrith Superstore","addr:city":"Penrith","addr:street":"Common Garden Square","addr:postcode":"CA11 7FG","opening_hours":"Mo-Sa 07:00-22:00; Su 10:00-16:00","brand:wikidata":"Q152096","brand:wikipedia":"en:Sainsbury's","addr:housenumber":"1"}}, "geometry":{"type":"MultiPolygon","coordinates":[[[[-2.7519,54.66158],[-2.75191,54.66171],[-2.75187,54.66171],[-2.75187,54.66173],[-2.75166,54.66174],[-2.75152,54.66166],[-2.75152,54.66158],[-2.75135,54.66158],[-2.75134,54.66137],[-2.75129,54.66137],[-2.75125,54.6609],[-2.75131,54.6609],[-2.7513,54.66087],[-2.75235,54.66084],[-2.75241,54.66149],[-2.75242,54.66156],[-2.75231,54.66157],[-2.7519,54.66158]]]]}},
{ "type":"Feature","properties":{"osm_way_id":"155604334","name":"M&S Foodhall","building":"yes","shop":"supermarket","other":{"addr:city":"Penrith","addr:country":"GB","addr:housenumber":"22-27","addr:postcode":"CA11 7AG","addr:street":"King Street","brand":"M&S Foodhall","brand:wikidata":"Q714491","old_name":"Co-operative Food, Somerfield, Kwik Save, Presto, Hintons","opening_hours":"Mo-Sa 08:00-20:00; Su 10:00-16:00","operator":"The Co-operative Group","phone":"+44 1768 239446","website":"https:\/\/www.marksandspencer.com\/stores\/penrith-simply-food-1888"}}, "geometry":{"type":"MultiPolygon","coordinates":[[[[-2.75031,54.66288],[-2.7505,54.66283],[-2.75012,54.66251],[-2.75001,54.66256],[-2.74966,54.66269],[-2.7499,54.66293],[-2.75004,54.66306],[-2.75033,54.66297],[-2.75027,54.6629],[-2.75031,54.66288]]]]}},
{ "type":"Feature","properties":{"osm_way_id":"220767887","name":"Spar","building":"yes","shop":"supermarket","other":{"addr:city":"Alston","addr:housename":"Townfoot Garage","addr:postcode":"CA9 3HY","addr:street":"Station Road","addr:suburb":"Townfoot","atm":"yes","branch":"Alston","brand":"Spar","brand:wikidata":"Q610492","brand:wikipedia":"en:Spar (retailer)","fhrs:id":"329013","opening_hours":"Mo-Sa 06:00-22:00; Su 06:00-23:00","source:addr":"FHRS Open Data"}}, "geometry":{"type":"MultiPolygon","coordinates":[[[[-2.44231,54.81116],[-2.44199,54.81114],[-2.44192,54.81147],[-2.44211,54.81148],[-2.44214,54.81135],[-2.44227,54.81136],[-2.44231,54.81116]]]]}},
{ "type":"Feature","properties":{"osm_way_id":"223185343","name":"The Co-operative Food","building":"yes","shop":"supermarket","other":{"atm":"yes","addr:city":"Kirby Stephen","addr:street":"Redmayne Road","addr:postcode":"CA17 4RL","opening_hours":"Mo-Sa 07:00-23:00; Su 10:00-16:00"}}, "geometry":{"type":"MultiPolygon","coordinates":[[[[-2.35102,54.47637],[-2.35062,54.47624],[-2.35047,54.47628],[-2.35031,54.47643],[-2.35085,54.47661],[-2.3509,54.47656],[-2.35085,54.47654],[-2.35102,54.47637]]]]}},
{ "type":"Feature","properties":{"osm_way_id":"231946258","name":"Lakes & Dales Co-operative","building":"yes","shop":"supermarket","other":{"addr:housename":"Henderson Buildings","addr:postcode":"CA10 1BG","brand:wikidata":"Q110620660","opening_hours:covid19":"open","operator":"Scottish Midland Co-operative Society","phone":"+44 1768 898210"}}, "geometry":{"type":"MultiPolygon","coordinates":[[[[-2.70402,54.74992],[-2.70397,54.74977],[-2.70353,54.74982],[-2.70358,54.74998],[-2.70402,54.74992]]]]}},
{ "type":"Feature","properties":{"osm_way_id":"286925599","name":"Lakes & Dales Co-operative","building":"yes","shop":"supermarket","other":{"addr:city":"Shap","addr:postcode":"CA10 3NG","addr:street":"Main Street","alt_name":"Penrith Co-operative Food Store (Shap)","brand:wikidata":"Q110620660","fhrs:id":"307135","operator":"Scottish Midland Co-operative Society"}}, "geometry":{"type":"MultiPolygon","coordinates":[[[[-2.67821,54.5321],[-2.67818,54.53198],[-2.67857,54.53195],[-2.6786,54.53206],[-2.67821,54.5321]]]]}},
{ "type":"Feature","properties":{"osm_way_id":"287033058","name":"Booths","building":"yes","shop":"supermarket","other":{"addr:city":"Penrith","addr:housename":"Westgate House","addr:postcode":"CA11 7JU","addr:street":"Brunswick Road","alt_name":"Booths Penrith","brand:wikidata":"Q4943949","contact:website":"https:\/\/www.booths.co.uk\/store\/penrith\/","opening_hours":"Mo-Sa 07:00-22:00; Su 10:00-16:00"}}, "geometry":{"type":"MultiPolygon","coordinates":[[[[-2.75802,54.6645],[-2.75777,54.66474],[-2.75769,54.66471],[-2.75761,54.66479],[-2.75838,54.66507],[-2.75856,54.66492],[-2.75852,54.6649],[-2.75847,54.66466],[-2.75838,54.66463],[-2.75802,54.6645]]]]}},
{ "type":"Feature","properties":{"osm_way_id":"290229470","name":"Morrisons","building":"retail","shop":"supermarket","other":{"brand":"Morrisons","alt_name":"Morrisons Penrith","old_name":"Safeway","addr:city":"Penrith","addr:street":"Brunswick Road","addr:postcode":"CA11 7LU","opening_hours":"Mo-Sa 07:00-22:00; Su 10:00-16:00","brand:wikidata":"Q922344","brand:wikipedia":"en:Morrisons"}}, "geometry":{"type":"MultiPolygon","coordinates":[[[[-2.75579,54.66414],[-2.75499,54.66382],[-2.75498,54.66382],[-2.75556,54.66329],[-2.75575,54.66336],[-2.75573,54.66338],[-2.75597,54.66348],[-2.75606,54.66347],[-2.75609,54.66343],[-2.75605,54.66342],[-2.75627,54.66328],[-2.75635,54.66325],[-2.75672,54.66338],[-2.75652,54.66357],[-2.75643,54.66354],[-2.75626,54.66368],[-2.75579,54.66414]]]]}}
]
}
