{
"type": "FeatureCollection",
"features": [
{ "type":"Feature","properties":{"osm_id":"244975062","name":"Aldershot Road's Co-op","other":{"addr:city":"Guildford","addr:country":"GB","addr:housenumber":"121B","addr:postcode":"GU2 8AQ","addr:street":"Aldershot Road","brand":"Co-op","fhrs:authority":"Guildford","fhrs:id":"649828","fhrs:local_authority_id":"4431","opening_hours":"Mo-Sa 07:00-22:00; Su 10:00-16:00","shop":"supermarket"}}, "geometry":{"type":"Point","coordinates":[-0.59763,51.25031 ]}},
{ "type":"Feature","properties":{"osm_id":"281465974","name":"Sainsbury's","other":{"addr:city":"Guildford","addr:country":"GB","addr:housenumber":"148-150","addr:postcode":"GU1 3HJ","addr:street":"High Street","brand":"Sainsbury's","brand:wikidata":"Q152096","brand:wikipedia":"en:Sainsbury's","fhrs:authority":"Guildford","fhrs:id":"649916","fhrs:local_authority_id":"4691","opening_hours":"Mo-Sa 07:00-21:00; Su 11:00-17:00","shop":"supermarket","wheelchair":"yes"}}, "geometry":{"type":"Point","coordinates":[-0.57148,51.23587 ]}},
{ "type":"Feature","properties":{"osm_id":"316960185","name":"Co-op Wharf Road","other":{"addr:city":"Ash Vale","addr:country":"GB","addr:housenumber":"14","addr:postcode":"GU12 5AS","addr:street":"Wharf Road","fhrs:authority":"Guildford","fhrs:id":"847160","fhrs:local_authority_id":"5825","shop":"supermarket"}}, "geometry":{"type":"Point","coordinates":[-0.7199,51.25745 ]}},
{ "type":"Feature","properties":{"osm_id":"767323890","name":"Tesco Express","other":{"addr:city":"Guildford","addr:country":"GB","addr:housenumber":"7-9","addr:postcode":"GU1 4RY","addr:street":"Bridge Street","brand":"Tesco Express","brand:wikidata":"Q98456772","brand:wikipedia":"en:Tesco","contact:website":"https:\/\/www.tesco.com\/store-locator\/guildford\/11-bridge-st","fhrs:id":"649646","opening_hours":"Mo-Su 07:00-23:00","operator":"Tesco","shop":"supermarket","wheelchair":"no"}}, "geometry":{"type":"Point","coordinates":[-0.57785,51.23682 ]}},
{ "type":"Feature","properties":{"osm_id":"5156748104","name":"Chinese Taste","other":{"addr:city":"Guildford","addr:country":"GB","addr:housenumber":"89E","addr:postcode":"GU1 4QD","addr:street":"Woodbridge Road","fhrs:authority":"Guildford","fhrs:id":"649330","fhrs:local_authority_id":"1581","name:en":"Chinese Taste","name:zh":"中国风味","shop":"supermarket"}}, "geometry":{"type":"Point","coordinates":[-0.57542,51.23805 ]}},
{ "type":"Feature","properties":{"osm_id":"5156748110","name":"Waitrose","other":{"addr:city":"Guildford","addr:country":"GB","addr:postcode":"GU1 4AT","addr:street":"York Road","brand":"Waitrose","brand:wikidata":"Q771734","brand:wikipedia":"en:Waitrose & Partners","cafe":"yes","fhrs:authority":"Guildford","fhrs:id":"993040","fhrs:local_authority_id":"9724","official_name":"Waitrose & Partners","opening_hours":"Mo-Fr 08:00-21:00; Sa 08:00-20:00; Su 10:30-16:30","operator":"Waitrose & Partners","phone":"+44 1483 453968","shop":"supermarket","toilets":"yes","website":"www.waitrose.com\/guildford"}}, "geometry":{"type":"Point","coordinates":[-0.57379,51.23857 ]}},
{ "type":"Feature","properties":{"osm_id":"6576808239","name":"Little Waitrose","other":{"addr:city":"Send","addr:country":"GB","addr:postcode":"GU23 7JY","addr:street":"Portsmouth Road","brand":"Waitrose & Partners","brand:wikidata":"Q771734","brand:wikipedia":"en:Waitrose & Partners","fhrs:authority":"Guildford","fhrs:id":"649913","fhrs:local_authority_id":"4678","shop":"supermarket"}}, "geometry":{"type":"Point","coordinates":[-0.51355,51.28178 ]}},
{ "type":"Feature","properties":{"osm_id":"7197110037","name":"OneStop","other":{"addr:city":"Guildford","addr:country":"GB","addr:housenumber":"119-121","addr:postcode":"GU1 2PF","addr:street":"Collingwood Crescent","fhrs:authority":"Guildford","fhrs:id":"649625","fhrs:local_authority_id":"3864","shop":"supermarket"}}, "geometry":{"type":"Point","coordinates":[-0.54612,51.24634 ]}},
{ "type":"Feature","properties":{"osm_way_id":"22991320","name":"Marks & Spencer","building":"yes","shop":"supermarket","other":{"addr:city":"Guildford","addr:country":"GB","addr:housenumber":"215-219","addr:postcode":"GU1 2RB","addr:street":"Epsom Road","brand":"Marks & Spencer","brand:wikidata":"Q714491","fhrs:authority":"Guildford","fhrs:id":"649521","fhrs:local_authority_id":"3280","operator":"Marks & Spencer","wheelchair":"yes","wheelchair:description":"Step-free from street and filling station forecourt, double sliding doors. Access to cash machines on outside wall obstructed by bollards and displays."}}, "geometry":{"type":"MultiPolygon","coordinates":[[[[-0.53051,51.2463],[-0.53036,51.24612],[-0.53016,51.24618],[-0.53031,51.24637],[-0.53051,51.2463]]]]}},
{ "type":"Feature","properties":{"osm_way_id":"22991605","name":"Sainsbury's Burpham Superstore","building":"yes","shop":"supermarket","other":{"addr:city":"Burpham, Guildford","addr:country":"GB","addr:postcode":"GU4 7JU","addr:street":"Clay Lane","brand":"Sainsbury's","brand:wikidata":"Q152096","brand:wikipedia":"en:Sainsbury's","fhrs:authority":"Guildford","fhrs:id":"649573","fhrs:local_authority_id":"3600","opening_hours":"Mo-Fr 07:00-22:00; Sa 07:00-21:00; Su 10:00-16:00","operator":"Sainsbury's Supermarkets Ltd","phone":"+44 1483 506767","website":"https:\/\/stores.sainsburys.co.uk\/0652\/burpham"}}, "geometry":{"type":"MultiPolygon","coordinates":[[[[-0.54411,51.26172],[-0.5449,51.26096],[-0.54393,51.26057],[-0.54383,51.26058],[-0.54306,51.26122],[-0.54327,51.26131],[-0.54338,51.2612],[-0.54348,51.26124],[-0.54333,51.26138],[-0.54411,51.26172]]]]}},
{ "type":"Feature","properties":{"osm_way_id":"57691499","name":"Lidl","building":"yes","shop":"supermarket","other":{"addr:city":"Guildford","addr:country":"GB","addr:postcode":"GU1 1EE","addr:street":"Woodbridge Road","brand":"Lidl","brand:wikidata":"Q151954","brand:wikipedia":"en:Lidl","fhrs:id":"1388613","opening_hours":"Mo-Sa 08:00-22:00; Su 10:00-16:00","toilets:wheelchair":"yes","website":"https:\/\/www.lidl.co.uk\/"}}, "geometry":{"type":"MultiPolygon","coordinates":[[[[-0.58308,51.24825],[-0.58237,51.24807],[-0.58214,51.24843],[-0.58219,51.2485],[-0.58282,51.24866],[-0.58308,51.24825]]]]}},
{ "type":"Feature","properties":{"osm_way_id":"60256398","name":"Tesco","building":"retail","shop":"supermarket","other":{"addr:city":"Guildford","addr:country":"GB","addr:postcode":"GU2 7XU","addr:street":"Egerton Road","brand":"Tesco","brand:wikidata":"Q487494","brand:wikipedia":"en:Tesco","fhrs:authority":"Guildford","fhrs:id":"649520","fhrs:local_authority_id":"3276","layer":"-1","location":"surface","opening_hours":"Mo 06:00-24:00; Tu-Sa 00:00-24:00; Su 10:00-16:00","wheelchair":"yes"}}, "geometry":{"type":"MultiPolygon","coordinates":[[[[-0.60415,51.24181],[-0.60414,51.24174],[-0.60369,51.24176],[-0.6037,51.24178],[-0.60357,51.24178],[-0.60359,51.24204],[-0.60368,51.24204],[-0.60371,51.2425],[-0.60447,51.24248],[-0.60446,51.24243],[-0.60523,51.24242],[-0.60522,51.24225],[-0.60496,51.24225],[-0.60495,51.24217],[-0.60481,51.2421],[-0.60479,51.24194],[-0.6051,51.24192],[-0.60509,51.24186],[-0.60529,51.24186],[-0.60529,51.24181],[-0.60478,51.24182],[-0.60478,51.24181],[-0.60467,51.24182],[-0.60467,51.24179],[-0.60415,51.24181]]]]}},
{ "type":"Feature","properties":{"osm_way_id":"60348659","name":"Budgens","building":"yes","shop":"supermarket","other":{"addr:city":"Fairlands, Guildford","addr:housenumber":"65","addr:postcode":"GU3 3NB","addr:street":"Fairlands Avenue","brand":"Budgens","brand:wikidata":"Q4985016","brand:wikipedia":"en:Budgens","description":"This Budgens store is the'Fairlands Avenue' store.","opening_hours":"Mo-Sa 07:00-21:00; Su & Bank Holidays 07:00-20:00","pay_point":"yes","phone":"+44 1483 889944","source_1":"shop leaflet from visit","source_2":"receipt from visit","website":"https:\/\/www.budgens.co.uk\/our-stores\/fairlands-avenue"}}, "geometry":{"type":"MultiPolygon","coordinates":[[[[-0.62019,51.26283],[-0.62016,51.26276],[-0.6203,51.26273],[-0.62029,51.26267],[-0.62036,51.26266],[-0.62042,51.26281],[-0.62019,51.26283]]]]}},
{ "type":"Feature","properties":{"osm_way_id":"69974086","building":"yes"},"geometry":{"type":"MultiPolygon","coordinates":[[[[-0.58162,51.25941],[-0.58149,51.25941],[-0.5815,51.25954],[-0.58162,51.25953],[-0.58162,51.25941]]]]}},
{ "type":"Feature","properties":{"osm_way_id":"545709010","name":"Tesco Express","building":"retail","shop":"supermarket","other":{"addr:city":"Ash Vale","addr:country":"GB","addr:postcode":"GU12 5QF","addr:street":"Lysons Avenue","brand":"Tesco Express","brand:wikidata":"Q98456772","fhrs:authority":"Guildford","fhrs:id":"650144","fhrs:local_authority_id":"5602"}}, "geometry":{"type":"MultiPolygon","coordinates":[[[[-0.72301,51.27246],[-0.72317,51.27227],[-0.723,51.27221],[-0.7228,51.27244],[-0.72302,51.27251],[-0.72305,51.27247],[-0.72301,51.27246]]]]}},
{ "type":"Feature","properties":{"osm_way_id":"667050346","name":"Co-op","building":"retail","shop":"supermarket","other":{"addr:city":"Ripley","addr:country":"GB","addr:housename":"Lovelace Works","addr:postcode":"GU23 6AF","addr:street":"High Street","fhrs:authority":"Guildford","fhrs:id":"909274","fhrs:local_authority_id":"9645"}}, "geometry":{"type":"MultiPolygon","coordinates":[[[[-0.49431,51.29967],[-0.49418,51.29975],[-0.49389,51.29958],[-0.49401,51.2995],[-0.49431,51.29967]]]]}},
{ "type":"Feature","properties":{"osm_way_id":"846396557","name":"ALDI","building":"yes","shop":"supermarket","other":{"addr:city":"Burpham, Guildford","addr:country":"GB","addr:housenumber":"93","addr:postcode":"GU1 1YT","addr:street":"London Road","brand":"ALDI","brand:wikidata":"Q41171672","brand:wikipedia":"en:Aldi","fhrs:authority":"Guildford","fhrs:id":"841680","fhrs:local_authority_id":"5813","opening_hours":"Mo-Sa 08:00-22:00; Su 10:00-16:00","operator":"Aldi Stores Limited","website":"https:\/\/www.aldi.co.uk\/store\/s-uk-E0612","wheelchair":"yes","wheelchair:description":"Automatic sliding doors at entrance & exit. 4 Blue Badge spaces near entrance. Step-free to nearby bus stops. No hearing loops at check-outs"}}, "geometry":{"type":"MultiPolygon","coordinates":[[[[-0.54558,51.25888],[-0.54552,51.25894],[-0.54547,51.25893],[-0.54543,51.25892],[-0.5454,51.25891],[-0.54537,51.25889],[-0.54536,51.25887],[-0.54535,51.25886],[-0.54535,51.25885],[-0.54535,51.25883],[-0.54535,51.25882],[-0.54536,51.2588],[-0.54541,51.25875],[-0.54538,51.25873],[-0.54574,51.25836],[-0.54607,51.25848],[-0.54567,51.25891],[-0.54558,51.25888]]]]}}
]
}
