{
"type": "FeatureCollection",
"features": [
{ "type":"Feature","properties":{"osm_id":"3626958631","name":"The Co-operative Food","other":{"shop":"supermarket","operator":"Radstock Co-operative Society","addr:city":"Glastonbury","addr:street":"High Street","addr:postcode":"BA6 9DX","opening_hours":"Mo-Th 07:00-21:00; Fr-Sa 07:00-22:00; Su 08:00-21:00","addr:housenumber":"32-34"}}, "geometry":{"type":"Point","coordinates":[-2.7158,51.1477 ]}},
{ "type":"Feature","properties":{"osm_id":"4472736089","name":"Aldi","other":{"addr:postcode":"BA6 9NS","addr:street":"Beckery New Road","brand":"ALDI","brand:wikidata":"Q41171672","brand:wikipedia":"en:Aldi","name:en":"Aldi","shop":"supermarket"}}, "geometry":{"type":"Point","coordinates":[-2.73378,51.14174 ]}},
{ "type":"Feature","properties":{"osm_id":"9120168006","name":"Co-op Food","other":{"brand":"Co-op Food","brand:wikidata":"Q3277439","brand:wikipedia":"en:Co-op Food","operator":"The Co-operative Group","operator:wikidata":"Q117202","operator:wikipedia":"en:The Co-operative Group","shop":"supermarket"}}, "geometry":{"type":"Point","coordinates":[-2.32783,51.23048 ]}},
{ "type":"Feature","properties":{"osm_way_id":"22887825","name":"Tesco","building":"yes","shop":"supermarket","other":{"addr:city":"Wells","addr:country":"GB","addr:county":"Somerset","addr:postcode":"BA5 2DZ","addr:street":"Tucker Street","alt_name":"Tesco Wells Superstore","brand":"Tesco","brand:wikidata":"Q487494","brand:wikipedia":"en:Tesco","contact:website":"https:\/\/www.tesco.com\/store-locator\/wells\/tucker-st","opening_hours":"Mo-Sa 06:00-23:00; Sa 10:00-16:00"}}, "geometry":{"type":"MultiPolygon","coordinates":[[[[-2.65191,51.20666],[-2.6515,51.2062],[-2.65253,51.20584],[-2.65269,51.20602],[-2.6525,51.20608],[-2.65262,51.20622],[-2.65243,51.20628],[-2.65256,51.20643],[-2.65191,51.20666]]]]}},
{ "type":"Feature","properties":{"osm_way_id":"85960983","name":"Waitrose","building":"yes","shop":"supermarket","other":{"addr:city":"Wells","addr:postcode":"BA5 2PJ","addr:street":"Whiting Way","alt_name":"Waitrose Wells","brand":"Waitrose","brand:wikidata":"Q771734","brand:wikipedia":"en:Waitrose & Partners","official_name":"Waitrose & Partners","operator":"Waitrose & Partners"}}, "geometry":{"type":"MultiPolygon","coordinates":[[[[-2.65096,51.20971],[-2.65095,51.2098],[-2.65093,51.20981],[-2.65094,51.20982],[-2.65085,51.20986],[-2.65085,51.20987],[-2.65081,51.20989],[-2.6508,51.20989],[-2.65078,51.2099],[-2.65079,51.2099],[-2.65069,51.20995],[-2.65039,51.20974],[-2.65074,51.20956],[-2.65096,51.20971]]]]}},
{ "type":"Feature","properties":{"osm_way_id":"87207762","name":"Asda","building":"yes","shop":"supermarket","other":{"brand":"Asda","alt_name":"ASDA Frome Superstore","operator":"Asda Stores Ltd","addr:street":"Warminster Road","addr:postcode":"BA11 5LA","brand:wikidata":"Q297410","brand:wikipedia":"en:Asda","contact:twitter":"@asda","contact:website":"https:\/\/storelocator.asda.com\/south-west\/frome\/warminster-road","contact:facebook":"https:\/\/www.facebook.com\/asda\/"}}, "geometry":{"type":"MultiPolygon","coordinates":[[[[-2.30333,51.22606],[-2.30327,51.22607],[-2.30323,51.22602],[-2.3032,51.22603],[-2.30268,51.2259],[-2.30214,51.22575],[-2.30219,51.22566],[-2.30227,51.22564],[-2.30241,51.22542],[-2.30265,51.22506],[-2.30313,51.22519],[-2.303,51.22538],[-2.30348,51.22551],[-2.30354,51.22549],[-2.30369,51.22553],[-2.30362,51.22563],[-2.30345,51.2259],[-2.30339,51.22598],[-2.30337,51.22599],[-2.3034,51.22604],[-2.30333,51.22606]]]]}},
{ "type":"Feature","properties":{"osm_way_id":"89761174","name":"Morrisons","building":"yes","shop":"supermarket","other":{"brand":"Morrisons","alt_name":"Morrisons Glastonbury","addr:city":"Glastonbury","wheelchair":"yes","addr:street":"Street Road","addr:country":"GB","addr:postcode":"BA6 9ED","opening_hours":"Mo-Sa 07:00-22:00; Su 10:00-16:00","brand:wikidata":"Q922344","brand:wikipedia":"en:Morrisons","toilets:wheelchair":"yes"}}, "geometry":{"type":"MultiPolygon","coordinates":[[[[-2.71905,51.14547],[-2.71926,51.14517],[-2.7192,51.14516],[-2.7193,51.14502],[-2.71932,51.14503],[-2.71934,51.14501],[-2.72021,51.14525],[-2.72015,51.14533],[-2.72021,51.14535],[-2.71999,51.14566],[-2.72006,51.14568],[-2.72002,51.14574],[-2.71905,51.14547]]]]}},
{ "type":"Feature","properties":{"osm_way_id":"91199045","name":"Lidl","building":"yes","shop":"supermarket","other":{"addr:country":"GB","addr:postcode":"BA11 1RX","addr:street":"Garsdale Road","alt_name":"LIDL Frome","brand":"Lidl","brand:wikidata":"Q151954","brand:wikipedia":"en:Lidl","fhrs:id":"164224"}}, "geometry":{"type":"MultiPolygon","coordinates":[[[[-2.31717,51.2292],[-2.31703,51.22937],[-2.31698,51.22936],[-2.31684,51.22953],[-2.31679,51.22959],[-2.31649,51.22949],[-2.31652,51.22946],[-2.31645,51.22943],[-2.31676,51.22906],[-2.31679,51.22907],[-2.31717,51.2292]]]]}},
{ "type":"Feature","properties":{"osm_way_id":"106747354","name":"Sainsbury's","building":"yes","shop":"supermarket","other":{"brand":"Sainsbury's","website":"https:\/\/stores.sainsburys.co.uk\/0685\/frome","alt_name":"Sainsbury's Frome Superstore","addr:county":"Somerset","addr:street":"Wessex Fields","addr:country":"GB","addr:postcode":"BA11 4DH","opening_hours":"Mo-Sa 07:00-22:00; Su 10:00-16:00","brand:wikidata":"Q152096","brand:wikipedia":"en:Sainsbury's"}}, "geometry":{"type":"MultiPolygon","coordinates":[[[[-2.33376,51.21625],[-2.33372,51.21623],[-2.33368,51.21621],[-2.33356,51.21628],[-2.33353,51.2163],[-2.33283,51.21588],[-2.33302,51.21576],[-2.33308,51.2158],[-2.33316,51.21575],[-2.33312,51.21572],[-2.33323,51.21565],[-2.3331,51.21557],[-2.33305,51.2156],[-2.33293,51.21553],[-2.33299,51.21549],[-2.33298,51.21548],[-2.33344,51.21519],[-2.33432,51.21572],[-2.33417,51.21582],[-2.33431,51.2159],[-2.33376,51.21625]]]]}},
{ "type":"Feature","properties":{"osm_way_id":"123225220","name":"Lidl","building":"yes","shop":"supermarket","other":{"addr:city":"Street","addr:postcode":"BA16 0HW","addr:street":"Gravenchon Way","brand":"Lidl","brand:wikidata":"Q151954","brand:wikipedia":"en:Lidl","fhrs:id":"585274"}}, "geometry":{"type":"MultiPolygon","coordinates":[[[[-2.75642,51.12632],[-2.75604,51.12625],[-2.75603,51.12627],[-2.75597,51.12625],[-2.75604,51.12607],[-2.75611,51.12608],[-2.75627,51.12568],[-2.75649,51.12572],[-2.75652,51.12567],[-2.75668,51.1257],[-2.75642,51.12632]]]]}},
{ "type":"Feature","properties":{"osm_way_id":"123226447","name":"Sainsbury's","building":"yes","shop":"supermarket","other":{"addr:city":"Street","addr:country":"GB","addr:county":"Somerset","addr:postcode":"BA16 0HS","addr:street":"Gravenchon Way","brand":"Sainsbury's","brand:wikidata":"Q152096","brand:wikipedia":"en:Sainsbury's","fhrs:id":"171683"}}, "geometry":{"type":"MultiPolygon","coordinates":[[[[-2.75476,51.12683],[-2.75468,51.12695],[-2.75453,51.12691],[-2.75443,51.12706],[-2.75451,51.12708],[-2.75433,51.12734],[-2.75449,51.12739],[-2.75447,51.12741],[-2.75536,51.12764],[-2.75563,51.12723],[-2.75541,51.12717],[-2.75551,51.12702],[-2.75476,51.12683]]]]}},
{ "type":"Feature","properties":{"osm_way_id":"137426230","name":"Tesco","building":"yes","shop":"supermarket","other":{"brand":"Tesco","fhrs:id":"847027","alt_name":"Tesco Glastonbury Superstore","addr:city":"Glastonbury","addr:street":"Wirral Park Road","addr:postcode":"BA6 9XE","opening_hours":"Mo-Sa 06:00- 24:00; Su 10:00-16:00","brand:wikidata":"Q487494","brand:wikipedia":"en:Tesco"}}, "geometry":{"type":"MultiPolygon","coordinates":[[[[-2.73118,51.14251],[-2.73048,51.14258],[-2.73061,51.14308],[-2.73096,51.14304],[-2.73096,51.14306],[-2.73113,51.14305],[-2.73114,51.14308],[-2.73154,51.14304],[-2.73152,51.14293],[-2.73158,51.14292],[-2.73155,51.14278],[-2.73126,51.14281],[-2.73118,51.14251]]]]}},
{ "type":"Feature","properties":{"osm_way_id":"148603346","name":"The Co-operative Food","building":"yes","shop":"supermarket","other":{"operator":"Radstock Co-operative Society"}}, "geometry":{"type":"MultiPolygon","coordinates":[[[[-2.7518,51.12354],[-2.75176,51.12344],[-2.75136,51.12349],[-2.75141,51.12365],[-2.75149,51.12364],[-2.75149,51.12367],[-2.75167,51.12365],[-2.75166,51.1236],[-2.75175,51.12359],[-2.75174,51.12357],[-2.7518,51.12356],[-2.7518,51.12354]]]]}},
{ "type":"Feature","properties":{"osm_way_id":"245486066","name":"Lidl","building":"yes","shop":"supermarket","other":{"addr:city":"Wells","addr:country":"GB","addr:county":"Somerset","addr:postcode":"BA5 2AZ","addr:street":"Strawberry Way South","alt_name":"LIDL Wells","brand":"Lidl","brand:wikidata":"Q151954","brand:wikipedia":"en:Lidl","fhrs:id":"170688","opening_hours":"Mo-Sa 08:00-21:00; Su 10:00-16:00; PH 08:00-20:00"}}, "geometry":{"type":"MultiPolygon","coordinates":[[[[-2.65326,51.20549],[-2.65271,51.20514],[-2.65285,51.20505],[-2.65291,51.20509],[-2.65305,51.205],[-2.65308,51.20502],[-2.65335,51.20519],[-2.65339,51.20517],[-2.65358,51.20529],[-2.65326,51.20549]]]]}},
{ "type":"Feature","properties":{"osm_way_id":"301399368","name":"The Co-operative Food","building":"yes","shop":"supermarket","other":{"atm":"yes","operator":"Radstock Co-operative Society","addr:city":"Chilcompton","addr:street":"Naish's Cross","addr:postcode":"BA3 4JN","opening_hours":"Mo-Su 07:00-21:00"}}, "geometry":{"type":"MultiPolygon","coordinates":[[[[-2.50952,51.25905],[-2.50925,51.259],[-2.50933,51.25884],[-2.5096,51.25889],[-2.50952,51.25905]]]]}},
{ "type":"Feature","properties":{"osm_way_id":"314768806","name":"Tesco","building":"yes","shop":"supermarket","other":{"addr:city":"Shepton Mallet","addr:country":"GB","addr:county":"Somerset","addr:parentstreet":"Townsend","addr:postcode":"BA4 5EG","addr:street":"Townsend Shopping Park","addr:unit":"6","alt_name":"Tesco Shepton Mallet Superstore","brand":"Tesco","brand:wikidata":"Q487494","brand:wikipedia":"en:Tesco","fhrs:id":"859801"}}, "geometry":{"type":"MultiPolygon","coordinates":[[[[-2.5492,51.18756],[-2.55045,51.18755],[-2.55045,51.18715],[-2.55016,51.18715],[-2.55014,51.18694],[-2.54912,51.18695],[-2.54894,51.18697],[-2.54869,51.18706],[-2.54864,51.18713],[-2.54887,51.18716],[-2.5488,51.18732],[-2.54877,51.18733],[-2.54878,51.18752],[-2.54908,51.18753],[-2.54908,51.18756],[-2.5492,51.18756]]]]}},
{ "type":"Feature","properties":{"osm_way_id":"314768807","name":"The Co-operative Food","building":"yes","shop":"supermarket","other":{"addr:city":"Shepton Mallet","addr:street":"High Street","addr:postcode":"BA4 5AN","addr:housenumber":"30"}}, "geometry":{"type":"MultiPolygon","coordinates":[[[[-2.54765,51.1901],[-2.54772,51.19001],[-2.54736,51.18988],[-2.54733,51.18989],[-2.54727,51.18999],[-2.54765,51.1901]]]]}},
{ "type":"Feature","properties":{"osm_way_id":"314768808","name":"Aldi","building":"yes","shop":"supermarket","other":{"addr:city":"Shepton Mallet","addr:postcode":"BA4 5SB","addr:street":"High Street","alt_name":"ALDI Shepton Mallet","brand":"ALDI","brand:wikidata":"Q41171672","brand:wikipedia":"en:Aldi"}}, "geometry":{"type":"MultiPolygon","coordinates":[[[[-2.54869,51.1889],[-2.54811,51.18883],[-2.548,51.18882],[-2.54811,51.18844],[-2.548,51.18843],[-2.54802,51.18834],[-2.54814,51.18836],[-2.54814,51.1884],[-2.54852,51.18845],[-2.54861,51.18848],[-2.5486,51.18854],[-2.54884,51.18857],[-2.54879,51.18874],[-2.54896,51.18876],[-2.54891,51.18893],[-2.54869,51.1889]]]]}},
{ "type":"Feature","properties":{"osm_way_id":"409594222","name":"Morrisons","building":"supermarket","shop":"supermarket","other":{"addr:city":"Wells","addr:postcode":"BA5 1SQ","addr:street":"Parkwood Estate","alt_name":"Morrisons Wells","brand":"Morrisons","brand:wikidata":"Q922344","brand:wikipedia":"en:Morrisons"}}, "geometry":{"type":"MultiPolygon","coordinates":[[[[-2.6488,51.20479],[-2.64801,51.2049],[-2.64803,51.20496],[-2.64786,51.20498],[-2.64783,51.20487],[-2.64792,51.20485],[-2.64782,51.20457],[-2.64771,51.20458],[-2.64767,51.20447],[-2.6476,51.20448],[-2.64753,51.20428],[-2.64771,51.20426],[-2.64772,51.20429],[-2.64834,51.20421],[-2.64835,51.20427],[-2.64842,51.20426],[-2.64843,51.2043],[-2.64851,51.20429],[-2.64855,51.20442],[-2.64873,51.20439],[-2.64877,51.20449],[-2.64871,51.2045],[-2.6488,51.20479]]]]}},
{ "type":"Feature","properties":{"osm_way_id":"420313536","name":"Co-op Food","building":"yes","shop":"supermarket","other":{"addr:city":"Coleford","addr:postcode":"BA3 5NJ","addr:street":"Highbury Street","brand":"Co-op Food","brand:wikidata":"Q3277439","brand:wikipedia":"en:Co-op Food","opening_hours":"Mo-Su 07:00-21:00"}}, "geometry":{"type":"MultiPolygon","coordinates":[[[[-2.45026,51.2433],[-2.45012,51.24325],[-2.44998,51.24338],[-2.45013,51.24344],[-2.45026,51.2433]]]]}},
{ "type":"Feature","properties":{"osm_way_id":"563897983","name":"Co-op","building":"yes","shop":"supermarket","other":{"addr:street":"Fortescue Street","addr:postcode":"BA2 7PE","opening_hours":"Mo-Su 07:00-22:00","addr:housenumber":"1"}}, "geometry":{"type":"MultiPolygon","coordinates":[[[[-2.32365,51.29993],[-2.32343,51.30004],[-2.32333,51.29997],[-2.32356,51.29986],[-2.32365,51.29993]]]]}},
{ "type":"Feature","properties":{"osm_way_id":"616129150","name":"The Food Warehouse","building":"yes","shop":"supermarket","other":{"addr:city":"Street","addr:postcode":"BA16 0GX","addr:street":"Gravenchon Way","addr:unit":"3","brand":"The Food Warehouse","brand:wikidata":"Q87263899","fhrs:id":"1047578","operator":"Iceland","website":"https:\/\/www.thefoodwarehouse.com\/store-locator\/street-glastonbury"}}, "geometry":{"type":"MultiPolygon","coordinates":[[[[-2.75553,51.1276],[-2.75583,51.12768],[-2.75592,51.12755],[-2.75608,51.1273],[-2.75578,51.12722],[-2.75553,51.1276]]]]}},
{ "type":"Feature","properties":{"osm_way_id":"620077621","name":"Budgens","building":"retail","shop":"supermarket","other":{"brand":"Budgens","brand:wikidata":"Q4985016","brand:wikipedia":"en:Budgens"}}, "geometry":{"type":"MultiPolygon","coordinates":[[[[-2.63482,51.21353],[-2.6348,51.21334],[-2.63479,51.21331],[-2.63498,51.2133],[-2.63499,51.21352],[-2.63482,51.21353]]]]}}
]
}
