{
"type": "FeatureCollection",
"features": [
{ "type":"Feature","properties":{"osm_id":"68329604","name":"Ancaster Stores","other":{"shop":"supermarket"}}, "geometry":{"type":"Point","coordinates":[-0.53662,52.9822 ]}},
{ "type":"Feature","properties":{"osm_id":"296186496","name":"Village Shop","other":{"shop":"supermarket"}}, "geometry":{"type":"Point","coordinates":[-0.6287,52.76277 ]}},
{ "type":"Feature","properties":{"osm_id":"502333100","name":"Bus Station","highway":"bus_stop","other":{"local_ref":"1","naptan:Street":"Wharf Road","naptan:AtcoCode":"270002701588","naptan:Landmark":"Bus Station","naptan:verified":"no","naptan:Indicator":"Stand 1","naptan:CommonName":"Bus Station","naptan:NaptanCode":"linadajd"}}, "geometry":{"type":"Point","coordinates":[-0.64216,52.90962 ]}},
{ "type":"Feature","properties":{"osm_id":"3664629638","name":"The Co-operative Food","other":{"shop":"supermarket","operator":"The Co-operative Group"}}, "geometry":{"type":"Point","coordinates":[-0.51987,52.81412 ]}},
{ "type":"Feature","properties":{"osm_id":"3857235000","name":"Lincolnshire Co-op","other":{"shop":"supermarket"}}, "geometry":{"type":"Point","coordinates":[-0.75896,52.99401 ]}},
{ "type":"Feature","properties":{"osm_id":"4338761793","name":"Biedronka","other":{"shop":"supermarket"}}, "geometry":{"type":"Point","coordinates":[-0.64151,52.90915 ]}},
{ "type":"Feature","properties":{"osm_id":"4632156773","name":"Heron Foods","other":{"shop":"supermarket","brand":"Heron Foods","fhrs:id":"237546","addr:city":"Bourne","addr:street":"North Street","addr:country":"GB","addr:postcode":"PE10 9AE","brand:wikidata":"Q5743472","brand:wikipedia":"en:Heron Foods","contact:website":"https:\/\/heronfoods.com\/storelocator\/store-details\/bourne","addr:housenumber":"13"}}, "geometry":{"type":"Point","coordinates":[-0.37736,52.76879 ]}},
{ "type":"Feature","properties":{"osm_id":"5808793021","name":"Customer Collection Point 1","other":{"shop":"supermarket"}}, "geometry":{"type":"Point","coordinates":[-0.68043,52.94605 ]}},
{ "type":"Feature","properties":{"osm_id":"5808793022","name":"Customer Collection Point 2","other":{"shop":"supermarket"}}, "geometry":{"type":"Point","coordinates":[-0.68019,52.94552 ]}},
{ "type":"Feature","properties":{"osm_id":"7045031624","name":"Sainsbury's","other":{"shop":"supermarket","brand":"Sainsbury's","phone":"+44  1780 427410","fhrs:id":"237980","operator":"Sainsbury's","addr:city":"Stamford","addr:unit":"1","addr:place":"Markham Retail Park","addr:street":"Ryhall Road","payment:cash":"yes","addr:postcode":"PE9 1UG","opening_hours":"Mo-Sa 08:00-21:00 Su 10:00-16:00","brand:wikidata":"Q152096","brand:wikipedia":"en:Sainsbury's","payment:contactless":"yes","payment:debit_cards":"yes","payment:credit_cards":"yes"}}, "geometry":{"type":"Point","coordinates":[-0.46498,52.66292 ]}},
{ "type":"Feature","properties":{"osm_id":"9111432435","name":"Costcutter","other":{"brand":"Costcutter","brand:wikidata":"Q5175072","brand:wikipedia":"en:Costcutter","shop":"supermarket"}}, "geometry":{"type":"Point","coordinates":[-0.66268,52.90268 ]}},
{ "type":"Feature","properties":{"osm_way_id":"77880672","name":"ALDI","building":"retail","shop":"supermarket","other":{"brand":"ALDI","brand:wikidata":"Q41171672","brand:wikipedia":"en:Aldi"}}, "geometry":{"type":"MultiPolygon","coordinates":[[[[-0.63594,52.90155],[-0.6359,52.90157],[-0.63596,52.90161],[-0.6358,52.90169],[-0.63575,52.90165],[-0.6356,52.90172],[-0.63508,52.90133],[-0.6353,52.90122],[-0.63537,52.90127],[-0.63549,52.90122],[-0.63594,52.90155]]]]}},
{ "type":"Feature","properties":{"osm_way_id":"93185005","name":"Tesco","building":"retail","shop":"supermarket","other":{"addr:city":"Bourne","addr:street":"South Road","brand":"Tesco","brand:wikidata":"Q487494","brand:wikipedia":"en:Tesco","operator":"Tesco"}}, "geometry":{"type":"MultiPolygon","coordinates":[[[[-0.36725,52.76016],[-0.36614,52.76021],[-0.36612,52.76007],[-0.36606,52.75998],[-0.36594,52.75978],[-0.36616,52.75977],[-0.36614,52.75957],[-0.36718,52.75951],[-0.36725,52.76016]]]]}},
{ "type":"Feature","properties":{"osm_way_id":"101203905","name":"Morrisons","building":"yes","shop":"supermarket","other":{"addr:postcode":"PE9 2FT","addr:street":"Uffington Road","alt_name":"Morrisons Stamford","brand":"Morrisons","brand:wikidata":"Q922344","brand:wikipedia":"en:Morrisons","operator":"Morrissons"}}, "geometry":{"type":"MultiPolygon","coordinates":[[[[-0.46509,52.65587],[-0.46503,52.65595],[-0.46474,52.65598],[-0.46475,52.65604],[-0.46476,52.65611],[-0.46478,52.65621],[-0.46483,52.6562],[-0.46496,52.65674],[-0.46632,52.65664],[-0.46628,52.65647],[-0.46651,52.65645],[-0.46652,52.65656],[-0.46668,52.65654],[-0.46666,52.65639],[-0.46658,52.65639],[-0.46655,52.65629],[-0.4664,52.6563],[-0.4664,52.65626],[-0.46625,52.65628],[-0.46623,52.65625],[-0.46634,52.65624],[-0.4663,52.65604],[-0.46601,52.65606],[-0.46554,52.65609],[-0.46551,52.65592],[-0.46522,52.65594],[-0.46509,52.65587]]]]}},
{ "type":"Feature","properties":{"osm_way_id":"101214255","name":"Lidl","building":"yes","shop":"supermarket","other":{"brand":"Lidl","fhrs:id":"238815","alt_name":"LIDL Stamford","addr:unit":"5","addr:place":"Markham Retail Park","addr:street":"Ryhall Road","addr:postcode":"PE9 1UG","brand:wikidata":"Q151954","brand:wikipedia":"en:Lidl"}}, "geometry":{"type":"MultiPolygon","coordinates":[[[[-0.46508,52.66217],[-0.46496,52.66184],[-0.46435,52.66192],[-0.46447,52.66225],[-0.46508,52.66217]]]]}},
{ "type":"Feature","properties":{"osm_way_id":"101268578","name":"Tesco","building":"yes","shop":"supermarket","other":{"addr:city":"Market Deeping","brand":"Tesco","brand:wikidata":"Q487494","brand:wikipedia":"en:Tesco","operator":"Tesco"}}, "geometry":{"type":"MultiPolygon","coordinates":[[[[-0.31328,52.68178],[-0.31318,52.68166],[-0.31325,52.68164],[-0.31308,52.68142],[-0.31302,52.68143],[-0.31278,52.68111],[-0.31211,52.6813],[-0.31222,52.68148],[-0.31235,52.68166],[-0.31258,52.68198],[-0.31328,52.68178]]]]}},
{ "type":"Feature","properties":{"osm_way_id":"125612897","name":"Asda","building":"yes","shop":"supermarket","other":{"brand":"Asda","toilets":"yes","operator":"Asda Stores Ltd","addr:city":"Grantham","wheelchair":"yes","addr:street":"Union Street","addr:country":"GB","addr:postcode":"NG31 6NZ","contact:phone":"+44 1476 581500","opening_hours":"Mo 07:00-00:00; Tu-Fr 00:00-24:00; Sa 00:00-22:00; Su 10:00-16:00","brand:wikidata":"Q297410","toilets:access":"customers","brand:wikipedia":"en:Asda","contact:twitter":"@asda","contact:website":"https:\/\/storelocator.asda.com\/east-midlands\/grantham\/union-street","contact:facebook":"https:\/\/www.facebook.com\/asda\/","toilets:wheelchair":"yes"}}, "geometry":{"type":"MultiPolygon","coordinates":[[[[-0.64762,52.9138],[-0.64758,52.91361],[-0.64744,52.9136],[-0.64746,52.91351],[-0.64695,52.91349],[-0.64693,52.91357],[-0.64618,52.91352],[-0.64613,52.91426],[-0.6466,52.91429],[-0.64729,52.91433],[-0.6473,52.91425],[-0.64758,52.91427],[-0.64762,52.9138]]]]}},
{ "type":"Feature","properties":{"osm_way_id":"125894082","name":"Sainsbury's","building":"yes","shop":"supermarket","other":{"addr:city":"Nottingham","addr:country":"GB","addr:postcode":"NG31 6HJ","addr:street":"London Road","brand":"Sainsbury's","brand:wikidata":"Q152096","brand:wikipedia":"en:Sainsbury's","opening_hours":"Mo-Sa 08:00-21:00; Su 10:00-16:00","phone":"+44 1476 592250"}}, "geometry":{"type":"MultiPolygon","coordinates":[[[[-0.63565,52.90692],[-0.63579,52.90719],[-0.63577,52.90719],[-0.63579,52.90723],[-0.63575,52.90724],[-0.63578,52.9073],[-0.63582,52.90729],[-0.63594,52.90751],[-0.63596,52.90751],[-0.63626,52.90745],[-0.63625,52.90743],[-0.63628,52.90742],[-0.63675,52.90733],[-0.63678,52.90739],[-0.63699,52.90735],[-0.63696,52.90731],[-0.63705,52.90729],[-0.63702,52.90724],[-0.6368,52.90685],[-0.63672,52.9067],[-0.63565,52.90692]]]]}},
{ "type":"Feature","properties":{"osm_way_id":"158196816","name":"M&S Foodhall","building":"yes","shop":"supermarket","other":{"brand":"M&S Foodhall","brand:wikidata":"Q714491","brand:wikipedia":"en:Marks & Spencer"}}, "geometry":{"type":"MultiPolygon","coordinates":[[[[-0.63847,52.90531],[-0.63825,52.90493],[-0.63778,52.90503],[-0.638,52.90541],[-0.63847,52.90531]]]]}},
{ "type":"Feature","properties":{"osm_way_id":"187068948","name":"M&S Foodhall","building":"yes","shop":"supermarket","other":{"addr:housenumber":"41","addr:postcode":"PE9 2BD","addr:street":"High Street","brand":"M&S Foodhall","brand:wikidata":"Q714491","brand:wikipedia":"en:Marks & Spencer"}}, "geometry":{"type":"MultiPolygon","coordinates":[[[[-0.47621,52.65303],[-0.47613,52.65294],[-0.47611,52.65295],[-0.47599,52.65283],[-0.47573,52.65292],[-0.47576,52.65298],[-0.47579,52.65301],[-0.47591,52.65311],[-0.47598,52.65316],[-0.47621,52.65303]]]]}},
{ "type":"Feature","properties":{"osm_way_id":"187077755","name":"Waitrose","building":"yes","shop":"supermarket","other":{"addr:city":"Stamford","addr:postcode":"PE9 2PR","addr:street":"West Street","alt_name":"Waitrose Stamford","brand":"Waitrose","brand:wikidata":"Q771734","brand:wikipedia":"en:Waitrose & Partners","official_name":"Waitrose & Partners","operator":"Waitrose & Partners","website":"https:\/\/www.waitrose.com\/bf_home\/bf\/484.html"}}, "geometry":{"type":"MultiPolygon","coordinates":[[[[-0.48561,52.6521],[-0.4851,52.65195],[-0.48475,52.6524],[-0.48526,52.65255],[-0.4855,52.65225],[-0.48558,52.65227],[-0.48569,52.65213],[-0.48561,52.6521]]]]}},
{ "type":"Feature","properties":{"osm_way_id":"194154989","name":"Downtown Superstore & Boundary Mill","building":"yes","shop":"supermarket","other":{"addr:city":"Grantham","addr:street":"Moto Grantham North Services","addr:postcode":"NG32 2AB","addr:housename":"A1 Gonerby Moor"}}, "geometry":{"type":"MultiPolygon","coordinates":[[[[-0.6807,52.94741],[-0.68127,52.94621],[-0.6805,52.94608],[-0.68025,52.94604],[-0.67968,52.94723],[-0.6807,52.94741]]]]}},
{ "type":"Feature","properties":{"osm_way_id":"220729100","name":"Lidl","building":"yes","shop":"supermarket","other":{"addr:country":"GB","addr:housenumber":"47-51","addr:postcode":"NG31 6NS","addr:street":"Watergate","brand":"Lidl","brand:wikidata":"Q151954","brand:wikipedia":"en:Lidl","fhrs:id":"237833"}}, "geometry":{"type":"MultiPolygon","coordinates":[[[[-0.64475,52.9143],[-0.64464,52.91429],[-0.6439,52.91445],[-0.64406,52.91472],[-0.64413,52.91471],[-0.64415,52.91473],[-0.64425,52.91471],[-0.64423,52.91468],[-0.6446,52.9146],[-0.64462,52.91465],[-0.64485,52.9146],[-0.64475,52.91443],[-0.64475,52.9143]]]]}},
{ "type":"Feature","properties":{"osm_way_id":"319027545","name":"Sainsbury's","building":"yes","shop":"supermarket","other":{"brand":"Sainsbury's","brand:wikidata":"Q152096","brand:wikipedia":"en:Sainsbury's","payment:apple_pay":"yes","payment:cards":"yes","payment:cash":"yes","payment:contactless":"yes","payment:credit_cards":"yes","payment:debit_cards":"yes","payment:google_pay":"yes","payment:maestro":"yes","payment:mastercard":"yes"}}, "geometry":{"type":"MultiPolygon","coordinates":[[[[-0.38281,52.76949],[-0.38283,52.77007],[-0.38275,52.77007],[-0.38275,52.77018],[-0.38254,52.77019],[-0.38253,52.77001],[-0.38243,52.77001],[-0.38243,52.76996],[-0.38233,52.76996],[-0.38233,52.77003],[-0.38198,52.77003],[-0.38198,52.77002],[-0.3818,52.77003],[-0.38176,52.76945],[-0.38215,52.76945],[-0.38215,52.76944],[-0.38236,52.76943],[-0.38236,52.76949],[-0.38281,52.76949]]]]}},
{ "type":"Feature","properties":{"osm_way_id":"362083589","name":"The Co-operative Food","building":"yes","shop":"supermarket","other":{"fhrs:id":"237801","operator":"The Co-operative Group","addr:street":"Dysart Road","source:addr":"FSA Food Hygiene Ratings Database","addr:postcode":"NG31 7DX","opening_hours":"07:00-22:00","addr:housenumber":"161"}}, "geometry":{"type":"MultiPolygon","coordinates":[[[[-0.65924,52.90971],[-0.65927,52.90984],[-0.65929,52.90992],[-0.65908,52.90994],[-0.65904,52.90977],[-0.65907,52.90972],[-0.65924,52.90971]]]]}},
{ "type":"Feature","properties":{"osm_way_id":"362084329","name":"The Co-operative Food","building":"yes","shop":"supermarket","other":{"operator":"The Co-operative Group"}}, "geometry":{"type":"MultiPolygon","coordinates":[[[[-0.62013,52.9199],[-0.62016,52.91991],[-0.62019,52.91998],[-0.62002,52.92001],[-0.62002,52.92002],[-0.61991,52.92003],[-0.61977,52.92005],[-0.61973,52.91996],[-0.61999,52.91992],[-0.62013,52.9199]]]]}},
{ "type":"Feature","properties":{"osm_way_id":"362085241","name":"The Co-operative Food","building":"yes","shop":"supermarket","other":{"operator":"The Co-operative Group"}}, "geometry":{"type":"MultiPolygon","coordinates":[[[[-0.62078,52.80608],[-0.62074,52.80617],[-0.62055,52.80615],[-0.62059,52.80606],[-0.62078,52.80608]]]]}},
{ "type":"Feature","properties":{"osm_way_id":"362085692","name":"The Co-operative Food","building":"yes","shop":"supermarket","other":{"operator":"The Co-operative Group"}}, "geometry":{"type":"MultiPolygon","coordinates":[[[[-0.34184,52.89368],[-0.34201,52.89369],[-0.342,52.89373],[-0.34224,52.89374],[-0.34224,52.89377],[-0.34239,52.89378],[-0.34238,52.89384],[-0.3418,52.89381],[-0.34184,52.89368]]]]}},
{ "type":"Feature","properties":{"osm_way_id":"468743214","name":"The Co-operative Food","building":"retail","shop":"supermarket","other":{"brand":"The Co-operative Food","brand:wikidata":"Q107617274"}}, "geometry":{"type":"MultiPolygon","coordinates":[[[[-0.39236,52.75876],[-0.39269,52.7587],[-0.39263,52.75855],[-0.39229,52.75861],[-0.39236,52.75876]]]]}},
{ "type":"Feature","properties":{"osm_way_id":"544846491","name":"Morrisons","building":"yes","shop":"supermarket","other":{"addr:country":"GB","addr:postcode":"NG31 6BQ","brand":"Morrisons","brand:wikidata":"Q922344","brand:wikipedia":"en:Morrisons","operator":"Morrisons"}}, "geometry":{"type":"MultiPolygon","coordinates":[[[[-0.64374,52.90998],[-0.64237,52.91026],[-0.6421,52.90988],[-0.64216,52.90962],[-0.64257,52.90955],[-0.64257,52.90934],[-0.64323,52.90936],[-0.64331,52.90947],[-0.64358,52.90987],[-0.64366,52.90985],[-0.64374,52.90998]]]]}},
{ "type":"Feature","properties":{"osm_way_id":"622684156","name":"Co-op Food","building":"yes","shop":"supermarket","other":{"brand":"Co-op Food","brand:wikidata":"Q3277439","brand:wikipedia":"en:Co-op Food"}}, "geometry":{"type":"MultiPolygon","coordinates":[[[[-0.30664,52.67342],[-0.30642,52.67344],[-0.30639,52.67329],[-0.30661,52.67327],[-0.30664,52.67342]]]]}},
{ "type":"Feature","properties":{"osm_way_id":"731865921","name":"Lidl","building":"yes","shop":"supermarket","other":{"brand":"Lidl","brand:wikidata":"Q151954","brand:wikipedia":"en:Lidl","operator":"Lidl"}}, "geometry":{"type":"MultiPolygon","coordinates":[[[[-0.36856,52.75482],[-0.36842,52.75428],[-0.36839,52.75419],[-0.36788,52.75424],[-0.36788,52.75427],[-0.36789,52.75431],[-0.36791,52.75431],[-0.36793,52.75435],[-0.36793,52.75438],[-0.36794,52.7544],[-0.36795,52.75442],[-0.36795,52.75445],[-0.36796,52.75447],[-0.36796,52.75449],[-0.36797,52.75451],[-0.36798,52.75454],[-0.36798,52.75456],[-0.36799,52.75458],[-0.36799,52.75459],[-0.368,52.75462],[-0.36801,52.75464],[-0.36801,52.75466],[-0.36802,52.75469],[-0.36803,52.75471],[-0.36803,52.75473],[-0.36804,52.75476],[-0.36805,52.75478],[-0.36807,52.75487],[-0.36839,52.75483],[-0.36856,52.75482]]]]}},
{ "type":"Feature","properties":{"osm_way_id":"830697809","name":"M&S Foodhall","building":"retail","shop":"supermarket","other":{"brand":"M&S Foodhall","brand:wikidata":"Q714491","brand:wikipedia":"en:Marks & Spencer","opening_hours:covid19":"open","website":"www.marksandspencer.com"}}, "geometry":{"type":"MultiPolygon","coordinates":[[[[-0.3763,52.76881],[-0.37632,52.76881],[-0.37634,52.76888],[-0.37631,52.76889],[-0.37634,52.76911],[-0.37634,52.76913],[-0.37623,52.76913],[-0.37625,52.76921],[-0.37587,52.76923],[-0.37585,52.76909],[-0.37583,52.76909],[-0.37581,52.76894],[-0.37577,52.76894],[-0.37576,52.76886],[-0.37576,52.76886],[-0.37576,52.76883],[-0.3759,52.76882],[-0.37598,52.76882],[-0.37598,52.76883],[-0.37619,52.76881],[-0.3763,52.76881]]]]}},
{ "type":"Feature","properties":{"osm_way_id":"854554787","name":"Co-op Food","building":"retail","shop":"supermarket","other":{"addr:housenumber":"139","addr:street":"Ermine Street","branch":"Ancaster - Ermine Street","brand":"Co-op Food","brand:wikidata":"Q3277439","brand:wikipedia":"en:Co-op Food","opening_hours":"Mo-Su 07:00-20:00","phone":"+44 1400 231579","website":"https:\/\/finder.coop.co.uk\/food\/store\/NG32-3QN\/139-ermine-street"}}, "geometry":{"type":"MultiPolygon","coordinates":[[[[-0.53263,52.98956],[-0.53224,52.98954],[-0.53225,52.98943],[-0.53264,52.98944],[-0.53263,52.98956]]]]}}
]
}
