{
"type": "FeatureCollection",
"features": [
{ "type":"Feature","properties":{"osm_id":"178886560","name":"Co-op Food","other":{"addr:city":"Bookham","addr:housenumber":"8","addr:postcode":"KT23 4AG","addr:street":"High Street","addr:suburb":"Great Bookham","brand":"Co-op Food","brand:wikidata":"Q3277439","brand:wikipedia":"en:Co-op Food","fhrs:id":"660379","fhrs:local_authority_id":"1176","shop":"supermarket","source:addr":"FHRS Open Data","wheelchair":"yes","wheelchair:description":"Automatic double sliding doors, step-free across High Street, and to car park at rear. (Hearing Loops not working 11\/17 & 5\/21)"}}, "geometry":{"type":"Point","coordinates":[-0.37394,51.27883 ]}},
{ "type":"Feature","properties":{"osm_id":"430593152","name":"Sainsbury's","other":{"addr:city":"Leatherhead","addr:street":"The Swan Centre","brand":"Sainsbury's","brand:wikidata":"Q152096","operator":"Sainsbury's","shop":"supermarket","toilets:wheelchair":"no","wheelchair":"yes","wheelchair:description":"Automatic doors. Step to WC. Lift from store to all car park levels. Dedicated Blue Badge spaces on level 2. ATM opposite tills. [Hearing Loops not working 8\/3\/2018]"}}, "geometry":{"type":"Point","coordinates":[-0.32772,51.29618 ]}},
{ "type":"Feature","properties":{"osm_id":"478623406","name":"Sainsbury's","other":{"addr:city":"Dorking","addr:housenumber":"32-38","addr:postcode":"RH4 1AY","addr:street":"High Street","alt_name":"Sainsbury's Dorking Superstore","brand":"Sainsbury's","brand:wikidata":"Q152096","brand:wikipedia":"en:Sainsbury's","opening_hours":"Mo-Sa 07:00-20:00 Su 10:00-16:00","shop":"supermarket","wheelchair":"yes","wheelchair:description":"Wide automatic double door entrance on High Street, 2 lifts to car park behind with Blue Badge parking spaces"}}, "geometry":{"type":"Point","coordinates":[-0.3324,51.23159 ]}},
{ "type":"Feature","properties":{"osm_id":"1146126950","name":"=VACANT=","other":{"addr:city":"Bookham","addr:housenumber":"57","addr:postcode":"KT23 4AD","addr:street":"High Street","addr:suburb":"Great Bookham","shop":"supermarket","wheelchair":"yes","wheelchair:description":"(2017) Fairly heavy entry and exit doors open away from user. Wide aisles and low counter at tills. (Loops not working 11\/2017)"}}, "geometry":{"type":"Point","coordinates":[-0.37271,51.27787 ]}},
{ "type":"Feature","properties":{"osm_id":"1279265161","name":"Argos","other":{"shop":"supermarket","addr:city":"Dorking","wheelchair":"yes","addr:street":"High Street","toilets:wheelchair":"no","wheelchair:description":"Step-free. Automatic sliding double doors."}}, "geometry":{"type":"Point","coordinates":[-0.32928,51.29535 ]}},
{ "type":"Feature","properties":{"osm_id":"4437571484","name":"Holland & Barrett","other":{"addr:city":"Leatherhead","addr:street":"The Swan Centre","brand:wikidata":"Q5880870","shop":"supermarket","wheelchair":"yes"}}, "geometry":{"type":"Point","coordinates":[-0.3284,51.29571 ]}},
{ "type":"Feature","properties":{"osm_id":"5119755821","name":"Waitrose","other":{"addr:postcode":"KT22 8DW","addr:street":"14-22 Church Street","brand":"Waitrose & Partners","brand:wikidata":"Q771734","brand:wikipedia":"en:Waitrose & Partners","operator":"Waitrose & Partners","shop":"supermarket","toilets":"yes","toilets:wheelchair":"yes","wheelchair":"yes"}}, "geometry":{"type":"Point","coordinates":[-0.32925,51.29472 ]}},
{ "type":"Feature","properties":{"osm_id":"8256013978","name":"Co-op Food","other":{"brand":"Co-op Food","brand:wikidata":"Q3277439","brand:wikipedia":"en:Co-op Food","shop":"supermarket"}}, "geometry":{"type":"Point","coordinates":[-0.30022,51.30901 ]}},
{ "type":"Feature","properties":{"osm_id":"8256013979","name":"M&S Foodhall","other":{"brand":"M&S Foodhall","brand:wikidata":"Q714491","brand:wikipedia":"en:Marks & Spencer","shop":"supermarket"}}, "geometry":{"type":"Point","coordinates":[-0.29839,51.31016 ]}},
{ "type":"Feature","properties":{"osm_way_id":"58156846","name":"Tesco Express","building":"yes","shop":"supermarket","other":{"addr:street":"Reigate Road","brand":"Tesco Express","brand:wikidata":"Q98456772","wheelchair":"yes"}}, "geometry":{"type":"MultiPolygon","coordinates":[[[[-0.31795,51.23637],[-0.31786,51.23617],[-0.31796,51.23616],[-0.31793,51.2361],[-0.31814,51.23606],[-0.31826,51.23631],[-0.31795,51.23637]]]]}},
{ "type":"Feature","properties":{"osm_way_id":"59945548","name":"Tesco Extra","building":"yes","shop":"supermarket","other":{"addr:postcode":"RH6 0AT","addr:street":"Reigate Road","addr:village":"Hookwood","brand":"Tesco Extra","brand:wikidata":"Q25172225","brand:wikipedia":"en:Tesco Extra","contact:website":"https:\/\/www.tesco.com\/store-locator\/horley\/reigate-rd","fhrs:id":"688438","opening_hours":"Mo-Sa 00:00-24:00; Su 10:00-16:00","operator":"Tesco","source:addr":"FHRS Open Data","toilets":"yes"}}, "geometry":{"type":"MultiPolygon","coordinates":[[[[-0.18667,51.16865],[-0.18596,51.16777],[-0.185,51.16807],[-0.18516,51.16827],[-0.18522,51.16825],[-0.18545,51.16856],[-0.18539,51.16858],[-0.18543,51.16863],[-0.18549,51.16861],[-0.18575,51.16892],[-0.18632,51.16875],[-0.18645,51.1689],[-0.18657,51.16886],[-0.18657,51.16878],[-0.1865,51.1687],[-0.18667,51.16865]]]]}},
{ "type":"Feature","properties":{"osm_way_id":"98341800","name":"Lidl","building":"yes","shop":"supermarket","other":{"addr:city":"Leatherhead","addr:country":"GB","addr:postcode":"KT22 7AX","addr:street":"North Street","brand":"Lidl","brand:wikidata":"Q151954","brand:wikipedia":"en:Lidl","fhrs:id":"660454","toilets:wheelchair":"no","wheelchair":"yes","wheelchair:description":"Dedicated Blue Badge spaces near entrance. Automatic doors. Lift to car park under store. No Hearing Loop."}}, "geometry":{"type":"MultiPolygon","coordinates":[[[[-0.33157,51.29593],[-0.33115,51.29586],[-0.33129,51.29568],[-0.33125,51.29564],[-0.33131,51.29557],[-0.3314,51.29559],[-0.33161,51.29533],[-0.33173,51.29537],[-0.33184,51.2954],[-0.33195,51.29544],[-0.33171,51.29573],[-0.33174,51.29574],[-0.33157,51.29593]]]]}},
{ "type":"Feature","properties":{"osm_way_id":"165339310","name":"Tesco","building":"yes","shop":"supermarket","other":{"brand":"Tesco","brand:wikidata":"Q487494","brand:wikipedia":"en:Tesco","toilets:wheelchair":"yes","wheelchair":"yes"}}, "geometry":{"type":"MultiPolygon","coordinates":[[[[-0.33617,51.31172],[-0.33596,51.31181],[-0.33589,51.31174],[-0.33535,51.31198],[-0.33537,51.31199],[-0.3353,51.31202],[-0.33545,51.31216],[-0.33553,51.31212],[-0.33587,51.31243],[-0.33599,51.31254],[-0.33605,51.31251],[-0.33614,51.31259],[-0.33627,51.31252],[-0.33639,51.31244],[-0.33638,51.31242],[-0.33641,51.31237],[-0.33645,51.31239],[-0.33652,51.31235],[-0.33658,51.31239],[-0.33665,51.31246],[-0.33679,51.31239],[-0.33683,51.31233],[-0.33669,51.31221],[-0.33671,51.31221],[-0.33666,51.31216],[-0.33663,51.31217],[-0.33641,51.31197],[-0.33637,51.31199],[-0.33633,51.31196],[-0.3364,51.31193],[-0.33617,51.31172]]]]}},
{ "type":"Feature","properties":{"osm_way_id":"241008938","name":"Lidl","building":"yes","shop":"supermarket","other":{"addr:city":"Dorking","addr:country":"GB","addr:postcode":"RH4 3JD","addr:street":"Vincent Lane","brand":"Lidl","brand:wikidata":"Q151954","brand:wikipedia":"en:Lidl","fhrs:id":"617956","opening_hours":"Mo-Sa 08:00-20:00; Su 10:00-16:00","start_date":"2013","wheelchair":"yes","wheelchair:description":"Step-free from street and bus stop. Automatic sliding doors, wheelchair adapted trolleys. 4 Blue Badge spaces to left of entrance."}}, "geometry":{"type":"MultiPolygon","coordinates":[[[[-0.33854,51.22908],[-0.33828,51.22914],[-0.33831,51.22919],[-0.33776,51.22931],[-0.33775,51.22929],[-0.3377,51.22921],[-0.33776,51.2292],[-0.33767,51.22904],[-0.33781,51.22901],[-0.33778,51.22896],[-0.33839,51.22882],[-0.33854,51.22908]]]]}},
{ "type":"Feature","properties":{"osm_way_id":"241008943","name":"Waitrose","building":"retail","shop":"supermarket","other":{"addr:city":"Dorking","addr:housenumber":"48","addr:postcode":"RH4 2HQ","addr:street":"South Street","alt_name":"Waitrose Dorking","brand":"Waitrose","brand:wikidata":"Q771734","brand:wikipedia":"en:Waitrose","official_name":"Waitrose & Partners","opening_hours":"Mo-Sa 08:00-21:00 Su10:00-16:00","operator":"Waitrose & Partners","wheelchair":"yes"}}, "geometry":{"type":"MultiPolygon","coordinates":[[[[-0.33457,51.23067],[-0.33446,51.23074],[-0.33447,51.23075],[-0.33422,51.23091],[-0.33427,51.23094],[-0.33426,51.23094],[-0.33429,51.23099],[-0.33431,51.23099],[-0.33433,51.23098],[-0.3344,51.23113],[-0.33461,51.23129],[-0.33469,51.23127],[-0.33475,51.23137],[-0.33486,51.23135],[-0.33514,51.23119],[-0.33513,51.23117],[-0.33501,51.23095],[-0.33508,51.23088],[-0.33487,51.23078],[-0.33464,51.23068],[-0.33462,51.23069],[-0.33457,51.23067]]]]}}
]
}
