{
"type": "FeatureCollection",
"features": [
{ "type":"Feature","properties":{"osm_id":"3413143940","name":"M&S Foodhall","other":{"addr:city":"Nottingham","addr:housenumber":"1A","addr:postcode":"NG4 2PE","addr:street":"Victoria Retail Park","addr:suburb":"Netherfield","brand":"M&S Foodhall","brand:wikidata":"Q714491","brand:wikipedia":"en:Marks & Spencer","fhrs:id":"743361","shop":"supermarket","source:addr":"FHRS Open Data"}}, "geometry":{"type":"Point","coordinates":[-1.0664,52.96305 ]}},
{ "type":"Feature","properties":{"osm_way_id":"54568409","name":"Morrisons","building":"retail","shop":"supermarket","other":{"addr:housenumber":"4","addr:postcode":"NG4 2HU","addr:street":"Victoria Park Way","alt_name":"Morrisons - Netherfield","brand":"Morrisons","brand:wikidata":"Q922344","brand:wikipedia":"en:Morrisons","source:addr":"FHRS Open Data"}}, "geometry":{"type":"MultiPolygon","coordinates":[[[[-1.06751,52.9588],[-1.06724,52.95903],[-1.06743,52.95911],[-1.06726,52.95926],[-1.06738,52.95932],[-1.06726,52.95941],[-1.06789,52.95969],[-1.0678,52.95977],[-1.068,52.95987],[-1.06804,52.95993],[-1.0681,52.95996],[-1.06817,52.95996],[-1.06818,52.95998],[-1.06839,52.95996],[-1.06839,52.95994],[-1.06845,52.95993],[-1.06851,52.95988],[-1.0685,52.95985],[-1.06869,52.95969],[-1.06864,52.95967],[-1.06873,52.95959],[-1.06861,52.95954],[-1.06882,52.95936],[-1.06751,52.9588]]]]}},
{ "type":"Feature","properties":{"osm_way_id":"128274735","name":"Lidl","building":"yes","shop":"supermarket","other":{"addr:housename":"Lidl","addr:housenumber":"2-8","addr:postcode":"NG4 2HD","addr:street":"Great Northern Way","addr:suburb":"Netherfield","brand":"Lidl","brand:wikidata":"Q151954","brand:wikipedia":"en:Lidl","fhrs:id":"648979"}}, "geometry":{"type":"MultiPolygon","coordinates":[[[[-1.06886,52.96251],[-1.06863,52.96246],[-1.06859,52.96251],[-1.06844,52.96247],[-1.06884,52.96183],[-1.0693,52.96193],[-1.06919,52.96208],[-1.06914,52.96207],[-1.06886,52.96251]]]]}},
{ "type":"Feature","properties":{"osm_way_id":"154316662","name":"Tesco","building":"retail","shop":"supermarket","other":{"brand":"Tesco","image":"https:\/\/www.mapillary.com\/map\/im\/52JjnPzBVGIXK1i3xqA2KQ","phone":"+44 345 677 9509","fhrs:id":"510867","operator":"Tesco","addr:city":"Nottingham","addr:street":"Carlton Hill","addr:suburb":"Carlton","source:addr":"FHRS Open Data","addr:postcode":"NG4 1EB","brand:wikidata":"Q487494","brand:wikipedia":"en:Tesco","addr:housenumber":"2"}}, "geometry":{"type":"MultiPolygon","coordinates":[[[[-1.09036,52.96686],[-1.09036,52.96693],[-1.09039,52.96693],[-1.0904,52.967],[-1.09048,52.967],[-1.09063,52.967],[-1.09062,52.96694],[-1.09123,52.96692],[-1.09122,52.96682],[-1.09123,52.96682],[-1.09173,52.9668],[-1.0917,52.96651],[-1.09161,52.96651],[-1.09159,52.96636],[-1.09116,52.96637],[-1.09116,52.96635],[-1.09044,52.96638],[-1.09047,52.96668],[-1.09048,52.96677],[-1.0904,52.96677],[-1.09041,52.96685],[-1.09036,52.96686]]]]}},
{ "type":"Feature","properties":{"osm_way_id":"174476095","name":"Sainsbury's","building":"retail","shop":"supermarket","other":{"brand":"Sainsbury's","fhrs:id":"528760","alt_name":"Sainsbury's Arnold Superstore","addr:city":"Nottingham","addr:street":"Sir John Robinson Way","roof:levels":"0","source:fhrs":"FHRS Open Data","addr:postcode":"NG5 6BN","brand:wikidata":"Q152096","brand:wikipedia":"en:Sainsbury's","building:levels":"1"}}, "geometry":{"type":"MultiPolygon","coordinates":[[[[-1.13465,52.99936],[-1.13453,52.99933],[-1.13448,52.99942],[-1.13398,52.99933],[-1.13402,52.99925],[-1.13387,52.99923],[-1.13386,52.9992],[-1.13376,52.99921],[-1.13373,52.99928],[-1.13352,52.99924],[-1.13332,52.99964],[-1.1332,52.99962],[-1.13315,52.99971],[-1.13312,52.99971],[-1.13308,52.99971],[-1.13304,52.99973],[-1.133,52.99977],[-1.13299,52.9998],[-1.13301,52.99983],[-1.13303,52.99985],[-1.13306,52.99987],[-1.13311,52.99988],[-1.13306,52.99999],[-1.13432,53.00021],[-1.13433,53.0002],[-1.13461,52.99967],[-1.1347,52.99947],[-1.13461,52.99945],[-1.13465,52.99936]]]]}},
{ "type":"Feature","properties":{"osm_way_id":"174478130","name":"Asda","building":"retail","shop":"supermarket","other":{"brand":"Asda","fhrs:id":"466754","alt_name":"ASDA Arnold Superstore","operator":"Asda Stores Ltd","wheelchair":"yes","addr:street":"Front Street","source:fhrs":"FHRS Open Data","addr:postcode":"NG5 7ED","contact:phone":"+44 115 920 4231","brand:wikidata":"Q297410","brand:wikipedia":"en:Asda","contact:twitter":"@asda","contact:website":"https:\/\/storelocator.asda.com\/east-midlands\/nottingham\/111-127-front-street-arnold","addr:housenumber":"111-127","contact:facebook":"https:\/\/www.facebook.com\/asda\/","opening_hours:covid19":"Mo-Th,Sa 08:00-22:00; Fr 09:00-20:00; Su 10:00-16:00"}}, "geometry":{"type":"MultiPolygon","coordinates":[[[[-1.12852,53.00459],[-1.12858,53.0046],[-1.12876,53.00462],[-1.12875,53.00468],[-1.12881,53.00468],[-1.12884,53.00468],[-1.12887,53.0046],[-1.12861,53.00454],[-1.12824,53.00444],[-1.12819,53.00451],[-1.12789,53.00444],[-1.12788,53.00446],[-1.12783,53.00453],[-1.12772,53.0045],[-1.1274,53.00444],[-1.12739,53.0045],[-1.12736,53.00463],[-1.12724,53.00511],[-1.12778,53.00516],[-1.12777,53.00519],[-1.12794,53.00521],[-1.12795,53.00518],[-1.12837,53.00521],[-1.12852,53.00459]]]]}},
{ "type":"Feature","properties":{"osm_way_id":"174480724","name":"Mapperley's Co-op","building":"retail","shop":"supermarket","other":{"image":"https:\/\/www.mapillary.com\/map\/im\/898nJwvnYNUyRxLrVzuXFw","fhrs:id":"558787","alt_name":"Co-op","old_name":"The Co-operative Food","operator":"The Co-operative Group","addr:city":"Nottingham","addr:street":"Woodborough Road","addr:suburb":"Mapperley","source:addr":"FHRS Open Data","addr:postcode":"NG3 5QS","opening_hours":"Mo-Sa 07:00-22:00; Su 10:00-16:00","addr:housenumber":"938-942"}}, "geometry":{"type":"MultiPolygon","coordinates":[[[[-1.1206,52.9847],[-1.12015,52.98445],[-1.1201,52.98449],[-1.12002,52.98445],[-1.11991,52.98452],[-1.12005,52.9846],[-1.12001,52.98463],[-1.12039,52.98484],[-1.1206,52.9847]]]]}},
{ "type":"Feature","properties":{"osm_way_id":"195215528","name":"The Co-operative Food","building":"yes","shop":"supermarket","other":{"alt_name":"The Co-operative Food","addr:street":"Collyer Road","addr:postcode":"NG14 6LZ","addr:housenumber":"109"}}, "geometry":{"type":"MultiPolygon","coordinates":[[[[-1.08899,53.03982],[-1.08903,53.0397],[-1.08859,53.03964],[-1.08855,53.03977],[-1.08899,53.03982]]]]}},
{ "type":"Feature","properties":{"osm_way_id":"227000875","name":"The Co-operative Food","building":"retail","shop":"supermarket","other":{"addr:housenumber":"36","addr:postcode":"NG14 5DZ","addr:street":"Main Street","brand":"The Co-operative Food","brand:wikidata":"Q107617274","fhrs:id":"543138","source:addr":"FHRS Open Data","wheelchair":"yes"}}, "geometry":{"type":"MultiPolygon","coordinates":[[[[-1.03684,52.98792],[-1.03666,52.988],[-1.03667,52.98801],[-1.0366,52.98804],[-1.03653,52.98799],[-1.03645,52.98803],[-1.0362,52.98783],[-1.03622,52.98782],[-1.0362,52.98781],[-1.03652,52.98766],[-1.03684,52.98792]]]]}},
{ "type":"Feature","properties":{"osm_way_id":"240385378","name":"The Co-operative Food","building":"yes","shop":"supermarket","other":{"addr:housenumber":"53-63","addr:postcode":"NG4 2NN","addr:street":"Victoria Road","brand":"The Co-operative Food","brand:wikidata":"Q107617274","operator":"The Co-operative Group","source:addr":"FHRS Open Data"}}, "geometry":{"type":"MultiPolygon","coordinates":[[[[-1.07801,52.96375],[-1.07799,52.96369],[-1.07758,52.96356],[-1.07747,52.96376],[-1.07746,52.96376],[-1.0775,52.96377],[-1.07749,52.96379],[-1.07751,52.96379],[-1.07747,52.96385],[-1.07751,52.96388],[-1.07748,52.9639],[-1.07753,52.96393],[-1.07756,52.96392],[-1.07761,52.96396],[-1.07801,52.96375]]]]}},
{ "type":"Feature","properties":{"osm_way_id":"353659677","name":"Lidl","building":"retail","shop":"supermarket","other":{"addr:city":"Nottingham","addr:postcode":"NG5 6HA","addr:street":"Mansfield Road","brand":"Lidl","brand:wikidata":"Q151954","brand:wikipedia":"en:Lidl","building:levels":"1","source:addr":"FHRS Open Data"}}, "geometry":{"type":"MultiPolygon","coordinates":[[[[-1.14057,53.00406],[-1.13981,53.00383],[-1.14003,53.00356],[-1.1408,53.00379],[-1.14057,53.00406]]]]}},
{ "type":"Feature","properties":{"osm_way_id":"355366280","name":"ALDI","building":"retail","shop":"supermarket","other":{"addr:housenumber":"97","addr:postcode":"NG5 6BH","addr:street":"Mansfield Road","brand":"ALDI","brand:wikidata":"Q41171672","brand:wikipedia":"en:Aldi","fhrs:id":"733106","opening_hours":"Mo-Sa 08:00-20:00, Su 10:00-16:00"}}, "geometry":{"type":"MultiPolygon","coordinates":[[[[-1.13991,52.9993],[-1.13938,52.99932],[-1.13942,52.99982],[-1.13995,52.9998],[-1.13991,52.9993]]]]}},
{ "type":"Feature","properties":{"osm_way_id":"600236239","name":"The Co-operative Food","shop":"supermarket","other":{"addr:city":"Nottingham","addr:postcode":"NG5 7GG","addr:street":"Coppice Road","brand":"The Co-operative Food","brand:wikidata":"Q107617274","check_date:opening_hours":"2021-05-29","description":"Supermarket chain selling groceries and household goods, with a focus on ethical practices.","opening_hours":"Mo-Su 07:00-22:00","wheelchair":"yes"}}, "geometry":{"type":"MultiPolygon","coordinates":[[[[-1.12003,53.00665],[-1.12007,53.00664],[-1.12012,53.00658],[-1.1202,53.00648],[-1.11971,53.00634],[-1.11965,53.00639],[-1.11953,53.00654],[-1.12003,53.00665]]]]}},
{ "type":"Feature","properties":{"osm_way_id":"783095917","building":"house","other":{"addr:city":"Nottingham","addr:street":"Killisick Road","addr:postcode":"NG5 8RD","building:levels":"2","addr:housenumber":"132","source:addr:postcode":"code-point_open"}}, "geometry":{"type":"MultiPolygon","coordinates":[[[[-1.11016,53.00975],[-1.11014,53.00975],[-1.11006,53.00971],[-1.11002,53.00974],[-1.11011,53.00979],[-1.11016,53.00975]]]]}}
]
}
