{
"type": "FeatureCollection",
"features": [
{ "type":"Feature","properties":{"osm_id":"956900593","name":"Morrison's","other":{"shop":"supermarket"}}, "geometry":{"type":"Point","coordinates":[-0.2062,51.09729 ]}},
{ "type":"Feature","properties":{"osm_id":"973160928","name":"The Co-operative","other":{"shop":"supermarket"}}, "geometry":{"type":"Point","coordinates":[-0.22264,51.10359 ]}},
{ "type":"Feature","properties":{"osm_id":"4849479083","name":"M&S Acorn Park Crawley Foodhall","other":{"addr:city":"CRAWLEY","addr:housename":"M&S Crawley Acorn Park Foodhall","addr:housenumber":"UNIT 1","addr:postcode":"RH10 9BN","addr:street":"Betts Way","brand":"M&S Foodhall","brand:wikidata":"Q714491","brand:wikipedia":"en:Marks & Spencer","fhrs:id":"910795","operator":"Marks and Spencers","shop":"supermarket"}}, "geometry":{"type":"Point","coordinates":[-0.18787,51.13479 ]}},
{ "type":"Feature","properties":{"osm_id":"4849479084","name":"Aldi","other":{"addr:city":"CRAWLEY","addr:housename":"ALDI","addr:housenumber":"Unit 2","addr:postcode":"RH10 9BN","addr:street":"Acorn Retail Park","brand":"ALDI","brand:wikidata":"Q41171672","brand:wikipedia":"en:Aldi","fhrs:id":"910796","operator":"ALDI","shop":"supermarket"}}, "geometry":{"type":"Point","coordinates":[-0.18815,51.13479 ]}},
{ "type":"Feature","properties":{"osm_id":"5046986717","name":"M&S Simply Food","other":{"addr:city":"Gatwick","addr:housename":"Gatwick Airport South Terminal Arrivals Hall (2nd Floor)","addr:postcode":"RH6 0NN","addr:unit":"15","brand":"M&S Simply Food","brand:wikidata":"Q714491","brand:wikipedia":"en:Marks & Spencer","fhrs:id":"331851","level":"1","phone":"+44 1293 568558","shop":"supermarket","source:addr:postcode":"FHRS Open Data","website":"https:\/\/www.marksandspencer.com\/stores\/gatwick-south-airport-simply-food-3751","wheelchair":"yes"}}, "geometry":{"type":"Point","coordinates":[-0.16216,51.15643 ]}},
{ "type":"Feature","properties":{"osm_id":"7006072585","name":"Coop","other":{"shop":"supermarket","opening_hours":"Mo-Su 07:00-22:00"}}, "geometry":{"type":"Point","coordinates":[-0.19772,51.12818 ]}},
{ "type":"Feature","properties":{"osm_way_id":"15461032","name":"Sainsbury's West Green","building":"retail","shop":"supermarket","other":{"addr:city":"Crawley","addr:country":"GB","addr:postcode":"RH10 8NF","addr:street":"Crawley Avenue","brand":"Sainsbury's","brand:wikidata":"Q152096","brand:wikipedia":"en:Sainsbury's","contact:phone":"+44 1293 616433","layer":"1","opening_hours":"Mo-Fr 07:00-22:00; Sa 07:00-21:00; Su 10:00-16:00","operator":"Sainsbury's"}}, "geometry":{"type":"MultiPolygon","coordinates":[[[[-0.19319,51.12351],[-0.19437,51.12317],[-0.19425,51.12302],[-0.19402,51.12271],[-0.19434,51.12261],[-0.19428,51.12254],[-0.19329,51.12238],[-0.19323,51.12239],[-0.19321,51.12236],[-0.19277,51.12231],[-0.19293,51.12253],[-0.19257,51.12264],[-0.19256,51.12265],[-0.19254,51.12265],[-0.19295,51.1232],[-0.19319,51.12351]]]]}},
{ "type":"Feature","properties":{"osm_way_id":"19207984","name":"Tesco Extra","building":"retail","shop":"supermarket","other":{"addr:city":"Crawley","addr:postcode":"RH10 1GY","addr:street":"Hazelwick Avenue","addr:suburb":"Three Bridges","brand":"Tesco Extra","brand:wikidata":"Q25172225","brand:wikipedia":"en:Tesco Extra","fhrs:id":"190126","opening_hours":"Mo-Fr 00:00-24:00; Su 10:00-16:00; Sa 00:00-23:59","operator":"Tesco","source:addr":"FHRS Open Data","website":"https:\/\/www.tesco.com\/store-locator\/crawley\/hazelwick-ave"}}, "geometry":{"type":"MultiPolygon","coordinates":[[[[-0.16377,51.12317],[-0.16274,51.12328],[-0.16263,51.12364],[-0.16275,51.12363],[-0.16272,51.12353],[-0.16285,51.12351],[-0.16292,51.12373],[-0.16289,51.12374],[-0.16288,51.12372],[-0.16283,51.12373],[-0.16283,51.12377],[-0.16285,51.12383],[-0.16287,51.12389],[-0.16271,51.12391],[-0.16269,51.12387],[-0.1626,51.12388],[-0.16259,51.12403],[-0.16264,51.12402],[-0.16266,51.12405],[-0.16406,51.12387],[-0.16405,51.12381],[-0.16399,51.12358],[-0.16402,51.12357],[-0.16395,51.12335],[-0.16395,51.12325],[-0.16392,51.12314],[-0.16377,51.12317]]]]}},
{ "type":"Feature","properties":{"osm_way_id":"20226406","name":"Asda","building":"retail","shop":"supermarket","other":{"brand":"Asda","fhrs:id":"190399","operator":"Asda Stores Ltd","addr:city":"Crawley","addr:street":"Pegler Way","addr:country":"GB","addr:postcode":"RH11 7AH","opening_hours":"Mo-Fr 00:00-24:00; Sa 00:00-22:00; Su 10:30-16:30","brand:wikidata":"Q297410","brand:wikipedia":"en:Asda","contact:twitter":"@asda","contact:website":"https:\/\/storelocator.asda.com\/south-east\/crawley\/pegler-way","contact:facebook":"https:\/\/www.facebook.com\/asda\/"}}, "geometry":{"type":"MultiPolygon","coordinates":[[[[-0.19227,51.11379],[-0.19225,51.11381],[-0.19222,51.11382],[-0.19219,51.11383],[-0.19216,51.11383],[-0.19195,51.11378],[-0.19197,51.11374],[-0.19144,51.11365],[-0.19145,51.11363],[-0.19122,51.11359],[-0.19123,51.11356],[-0.19114,51.11355],[-0.19118,51.11345],[-0.19115,51.11344],[-0.19114,51.11341],[-0.19116,51.11337],[-0.19121,51.11338],[-0.19124,51.11331],[-0.19117,51.1133],[-0.19118,51.11305],[-0.19139,51.11297],[-0.19147,51.11282],[-0.1926,51.113],[-0.19227,51.11379]]]]}},
{ "type":"Feature","properties":{"osm_way_id":"319896794","name":"Co-op Food","building":"retail","shop":"supermarket","other":{"addr:housenumber":"1","addr:street":"Tilgate Parade","brand":"Co-op Food","brand:wikidata":"Q3277439","brand:wikipedia":"en:Co-op Food"}}, "geometry":{"type":"MultiPolygon","coordinates":[[[[-0.18133,51.10187],[-0.18145,51.10195],[-0.18137,51.10199],[-0.18131,51.10203],[-0.1812,51.10194],[-0.18127,51.1019],[-0.18133,51.10187]]]]}},
{ "type":"Feature","properties":{"osm_way_id":"326061096","name":"Lidl","building":"yes","shop":"supermarket","other":{"addr:city":"Crawley","addr:country":"GB","addr:housenumber":"263-269","addr:postcode":"RH10 1NP","addr:street":"Haslett Avenue East","brand":"Lidl","brand:wikidata":"Q151954","brand:wikipedia":"en:Lidl","fhrs:id":"190515","operator":"Lidl","wheelchair":"yes","wheelchair:description":"Step free. Automatic doors. Blue Badge bays in shared Lidl and Iceland car park"}}, "geometry":{"type":"MultiPolygon","coordinates":[[[[-0.16294,51.11852],[-0.16262,51.11864],[-0.16235,51.11837],[-0.16266,51.11824],[-0.16294,51.11852]]]]}}
]
}
