{
"type": "FeatureCollection",
"features": [
{ "type":"Feature","properties":{"osm_id":"632220910","name":"Aldi","other":{"addr:housenumber":"1","addr:postcode":"BB6 7UA","addr:street":"Heys Lane","brand":"ALDI","brand:wikidata":"Q41171672","brand:wikipedia":"en:Aldi","fhrs:id":"111365","shop":"supermarket","source:addr":"FHRS Open Data"}}, "geometry":{"type":"Point","coordinates":[-2.39696,53.78575 ]}},
{ "type":"Feature","properties":{"osm_id":"658618241","name":"The Co-operative Food","other":{"shop":"supermarket","operator":"The Co-operative Group"}}, "geometry":{"type":"Point","coordinates":[-2.41565,53.76818 ]}},
{ "type":"Feature","properties":{"osm_id":"658625792","name":"Co-op Food","other":{"shop":"supermarket","brand":"Co-op Food","fhrs:id":"91263","operator":"The Co-operative Group","addr:street":"Pickup Street","source:addr":"FHRS Open Data","addr:postcode":"BB5 5NS","brand:wikidata":"Q3277439","brand:wikipedia":"en:Co-op Food","addr:housenumber":"19-21"}}, "geometry":{"type":"Point","coordinates":[-2.38433,53.77486 ]}},
{ "type":"Feature","properties":{"osm_id":"5955630035","name":"The Food Warehouse","ref":"1594","other":{"branch_name":"Hyndburn Food Warehouse","brand:wikidata":"Q87263899","operator":"Iceland","phone":"+44 1254 699554","shop":"supermarket"}}, "geometry":{"type":"Point","coordinates":[-2.44506,53.75875 ]}},
{ "type":"Feature","properties":{"osm_id":"5955630038","name":"Aldi","other":{"brand":"ALDI","brand:wikidata":"Q41171672","brand:wikipedia":"en:Aldi","shop":"supermarket"}}, "geometry":{"type":"Point","coordinates":[-2.44628,53.75869 ]}},
{ "type":"Feature","properties":{"osm_way_id":"39744373","name":"Lidl","building":"yes","shop":"supermarket","other":{"addr:postcode":"BB5 4ES","addr:street":"Hyndburn Road","brand":"Lidl","brand:wikidata":"Q151954","brand:wikipedia":"en:Lidl","fhrs:id":"1002287","source:addr":"FHRS Open Data","wheelchair":"yes"}}, "geometry":{"type":"MultiPolygon","coordinates":[[[[-2.38121,53.7559],[-2.38074,53.75582],[-2.38098,53.75533],[-2.3814,53.7554],[-2.38123,53.75574],[-2.38129,53.75575],[-2.38121,53.7559]]]]}},
{ "type":"Feature","properties":{"osm_way_id":"39754589","name":"Asda","building":"retail","shop":"supermarket","other":{"brand":"Asda","fhrs:id":"73207","addr:city":"Accrington","addr:street":"Hyndburn Road","source:addr":"FHRS data","addr:postcode":"BB5 1PY","brand:wikidata":"Q297410","brand:wikipedia":"en:Asda","contact:website":"https:\/\/storelocator.asda.com\/north-west\/accrington\/hyndburn-road"}}, "geometry":{"type":"MultiPolygon","coordinates":[[[[-2.37299,53.75607],[-2.37342,53.75603],[-2.3735,53.75668],[-2.37337,53.75669],[-2.37343,53.757],[-2.37244,53.75708],[-2.37237,53.75682],[-2.37218,53.75683],[-2.37205,53.7563],[-2.37272,53.75623],[-2.373,53.7562],[-2.37299,53.75607]]]]}},
{ "type":"Feature","properties":{"osm_way_id":"39754594","name":"Aldi","building":"yes","shop":"supermarket","other":{"addr:city":"Accrington","addr:postcode":"BB5 1DA","addr:street":"Argyle Street","brand":"ALDI","brand:wikidata":"Q41171672","brand:wikipedia":"en:Aldi","fhrs:id":"107814","wheelchair":"yes"}}, "geometry":{"type":"MultiPolygon","coordinates":[[[[-2.36794,53.75632],[-2.36727,53.75612],[-2.36741,53.7559],[-2.36813,53.7561],[-2.36794,53.75632]]]]}},
{ "type":"Feature","properties":{"osm_way_id":"50406654","name":"Morrisons","building":"yes","shop":"supermarket","other":{"brand":"Morrisons","fhrs:id":"111470","addr:street":"Queen Street","addr:postcode":"BB6 7AL","brand:wikidata":"Q922344","brand:wikipedia":"en:Morrisons"}}, "geometry":{"type":"MultiPolygon","coordinates":[[[[-2.40296,53.78709],[-2.40211,53.78695],[-2.40225,53.78664],[-2.40259,53.7867],[-2.40261,53.78664],[-2.40307,53.78671],[-2.40308,53.78669],[-2.40329,53.78672],[-2.40323,53.78686],[-2.40308,53.78683],[-2.40296,53.78709]]]]}},
{ "type":"Feature","properties":{"osm_way_id":"51341790","name":"Co-op Food","building":"yes","shop":"supermarket","other":{"brand":"Co-op Food","fhrs:id":"539659","operator":"The Co-operative Group","addr:city":"Rishton","wheelchair":"yes","addr:street":"Harwood Road","source:addr":"FHRS Open Data","addr:postcode":"BB1 4DJ","brand:wikidata":"Q3277439","brand:wikipedia":"en:Co-op Food","addr:housenumber":"2"}}, "geometry":{"type":"MultiPolygon","coordinates":[[[[-2.41815,53.76871],[-2.41765,53.76879],[-2.41757,53.76838],[-2.41799,53.76833],[-2.4181,53.76832],[-2.41815,53.76871]]]]}},
{ "type":"Feature","properties":{"osm_way_id":"92778263","name":"Tesco Extra","building":"yes","shop":"supermarket","other":{"addr:housenumber":"2","addr:postcode":"BB5 1LJ","addr:street":"Eagle Street","brand":"Tesco Extra","brand:wikidata":"Q25172225","brand:wikipedia":"en:Tesco Extra","fhrs:id":"111447","source:addr":"FHRS Open Data","wheelchair":"yes"}}, "geometry":{"type":"MultiPolygon","coordinates":[[[[-2.37025,53.75262],[-2.36934,53.75279],[-2.36928,53.75286],[-2.36844,53.75253],[-2.3684,53.75248],[-2.3684,53.75243],[-2.36843,53.75238],[-2.36906,53.75183],[-2.36921,53.75187],[-2.36934,53.75175],[-2.37024,53.75207],[-2.37035,53.75196],[-2.37043,53.75199],[-2.37053,53.75203],[-2.37078,53.75212],[-2.37025,53.75262]]]]}},
{ "type":"Feature","properties":{"osm_way_id":"334866931","name":"Tesco","building":"yes","shop":"supermarket","other":{"brand":"Tesco","fhrs:id":"418902","addr:street":"Queen Street","source:addr":"FHRS Open Data","addr:postcode":"BB6 7AT","brand:wikidata":"Q487494","brand:wikipedia":"en:Tesco"}}, "geometry":{"type":"MultiPolygon","coordinates":[[[[-2.40042,53.78703],[-2.40028,53.78704],[-2.39913,53.78711],[-2.39904,53.78673],[-2.39898,53.78673],[-2.39889,53.78645],[-2.39999,53.78637],[-2.40008,53.78692],[-2.40039,53.78691],[-2.40042,53.78703]]]]}},
{ "type":"Feature","properties":{"osm_way_id":"359732551","name":"McColl's","building":"yes","shop":"supermarket","other":{"operator":"McColl's"}}, "geometry":{"type":"MultiPolygon","coordinates":[[[[-2.39735,53.74261],[-2.39774,53.74283],[-2.39742,53.74302],[-2.39729,53.74294],[-2.39717,53.74301],[-2.39693,53.74287],[-2.39735,53.74261]]]]}}
]
}
