{
"type": "FeatureCollection",
"features": [
{ "type":"Feature","properties":{"osm_id":"3996123861","name":"Co-op Food","other":{"addr:city":"Aylsham","addr:housenumber":"21-22","addr:postcode":"NR11 6EL","addr:street":"Market Place","brand":"Co-op Food","brand:wikidata":"Q3277439","brand:wikipedia":"en:Co-op Food","fhrs:id":"95496","operator":"The Co-operative Group","shop":"supermarket"}}, "geometry":{"type":"Point","coordinates":[1.25115,52.79548 ]}},
{ "type":"Feature","properties":{"osm_id":"6188515961","name":"Lidl","other":{"addr:city":"Norwich","addr:postcode":"NR7 8AB","addr:street":"Blue Boar Lane","addr:suburb":"Sprowston","brand":"Lidl","brand:wikidata":"Q151954","brand:wikipedia":"en:Lidl","fhrs:id":"1092500","opening_hours":"Mo-Sa 08:00-22:00, Su 10:00-16:00","opening_hours:covid19":"same","shop":"supermarket","source:addr":"FHRS Open Data"}}, "geometry":{"type":"Point","coordinates":[1.33541,52.66191 ]}},
{ "type":"Feature","properties":{"osm_way_id":"32902690","name":"Asda","building":"retail","shop":"supermarket","other":{"brand":"Asda","fhrs:id":"95151","operator":"Asda Stores Ltd","addr:city":"Norwich","addr:street":"Drayton High Road","addr:country":"GB","addr:postcode":"NR6 5DT","contact:phone":"+44 1603 787384","opening_hours":"Mo-Fr 06:00-24:00; Sa 06:00-22:00; Su 10:00-16:00","brand:wikidata":"Q297410","brand:wikipedia":"en:Asda","contact:twitter":"@asda","contact:website":"https:\/\/storelocator.asda.com\/east-of-england\/hellesdon\/drayton-high-road","contact:facebook":"https:\/\/www.facebook.com\/asda\/","opening_hours:covid19":"Mo-Sa 08:00-22:00; Su 10:00-16:00"}}, "geometry":{"type":"MultiPolygon","coordinates":[[[[1.26251,52.6535],[1.26249,52.65349],[1.26237,52.65345],[1.26234,52.65349],[1.2623,52.65348],[1.2622,52.65361],[1.26209,52.65357],[1.26206,52.6536],[1.26146,52.65343],[1.26173,52.65309],[1.26118,52.65294],[1.26148,52.65255],[1.26191,52.65267],[1.26198,52.65258],[1.26211,52.65261],[1.2623,52.65237],[1.26243,52.65241],[1.26241,52.65244],[1.26239,52.65247],[1.26287,52.65261],[1.26281,52.65269],[1.26292,52.65272],[1.26265,52.65307],[1.2627,52.65308],[1.26262,52.65317],[1.2627,52.65319],[1.26258,52.65335],[1.2626,52.65336],[1.26262,52.65336],[1.26251,52.6535]]]]}},
{ "type":"Feature","properties":{"osm_way_id":"32947661","name":"Tesco Extra","building":"shop","shop":"supermarket","other":{"ref":"2955","brand":"Tesco Extra","fhrs:id":"95735","operator":"Tesco Stores Ltd","addr:city":"Norwich","wheelchair":"yes","addr:street":"Blue Boar Lane","addr:country":"GB","addr:postcode":"NR7 8AB","opening_hours":"Mo-Sa 06:00-00:00; Su 10:00-16:00","brand:wikidata":"Q25172225","brand:wikipedia":"en:Tesco Extra"}}, "geometry":{"type":"MultiPolygon","coordinates":[[[[1.33574,52.6593],[1.3352,52.65949],[1.33507,52.65936],[1.33434,52.65962],[1.33409,52.65971],[1.33414,52.65976],[1.33417,52.65975],[1.33461,52.66021],[1.33462,52.6602],[1.33469,52.66027],[1.33484,52.66021],[1.3349,52.66027],[1.33521,52.6606],[1.33543,52.66053],[1.33525,52.66033],[1.33537,52.66029],[1.33534,52.66026],[1.3354,52.66024],[1.33537,52.66021],[1.33531,52.66023],[1.33529,52.6602],[1.33536,52.66018],[1.33535,52.66017],[1.33573,52.66004],[1.33575,52.66006],[1.33588,52.66002],[1.33586,52.65999],[1.33601,52.65994],[1.33618,52.66012],[1.33621,52.66011],[1.33625,52.66015],[1.33657,52.66004],[1.33644,52.65991],[1.33635,52.65994],[1.33574,52.6593]]]]}},
{ "type":"Feature","properties":{"osm_way_id":"92804763","name":"Tesco Express","building":"yes","shop":"supermarket","other":{"addr:city":"Norwich","addr:country":"GB","addr:housenumber":"164","addr:postcode":"NR6 6XA","addr:street":"Cromer Road","brand":"Tesco Express","brand:wikidata":"Q98456772","brand:wikipedia":"en:Tesco","fhrs:id":"148028","operator":"Tesco Stores Ltd","phone":"+44 1603 426197"}}, "geometry":{"type":"MultiPolygon","coordinates":[[[[1.27317,52.66629],[1.27317,52.66632],[1.2732,52.66632],[1.2732,52.66643],[1.27328,52.66643],[1.27328,52.66649],[1.27328,52.66653],[1.27319,52.66653],[1.27319,52.66654],[1.273,52.66654],[1.273,52.66651],[1.27296,52.66649],[1.27293,52.66649],[1.27293,52.66642],[1.27296,52.66642],[1.27296,52.66639],[1.27298,52.66639],[1.27298,52.66628],[1.27317,52.66629]]]]}},
{ "type":"Feature","properties":{"osm_way_id":"114510992","name":"Sainsbury's","building":"yes","shop":"supermarket","other":{"addr:city":"Norwich","addr:country":"GB","addr:postcode":"NR7 0SR","addr:street":"Pound Lane","brand":"Sainsbury's","brand:wikidata":"Q152096","contact:website":"https:\/\/stores.sainsburys.co.uk\/0441\/pound-lane","fhrs:id":"95400","toilets":"yes","toilets:wheelchair":"yes","wheelchair":"yes"}}, "geometry":{"type":"MultiPolygon","coordinates":[[[[1.36153,52.6296],[1.36148,52.62989],[1.36162,52.6299],[1.36158,52.63016],[1.36149,52.63015],[1.36142,52.63015],[1.36136,52.63053],[1.36133,52.63053],[1.36131,52.63068],[1.36133,52.63068],[1.3613,52.63089],[1.36133,52.6309],[1.36132,52.63102],[1.3614,52.63102],[1.36141,52.63102],[1.36144,52.63102],[1.36145,52.63099],[1.36154,52.631],[1.36156,52.63092],[1.36158,52.63092],[1.36159,52.6308],[1.36183,52.63081],[1.36186,52.63071],[1.36232,52.63074],[1.3623,52.63089],[1.36253,52.6309],[1.36259,52.63063],[1.36267,52.63014],[1.36265,52.63012],[1.36237,52.6301],[1.36239,52.62994],[1.36231,52.62994],[1.36231,52.62991],[1.36165,52.62959],[1.36153,52.6296]]]]}},
{ "type":"Feature","properties":{"osm_way_id":"161633172","name":"Brundall Co-Op","building":"shop","shop":"supermarket","other":{"addr:city":"Norwich","addr:country":"GB","addr:housenumber":"49-53","addr:interpolation":"odd","addr:postcode":"NR13 5AA","addr:street":"The Street","fhrs:id":"97815","opening_hours":"08:00-21:00","operator":"Co-operative Group","phone":"+44 1603 713383","website":"https:\/\/finder.coop.co.uk\/food\/store\/NR13-5AA\/49-53-the-street"}}, "geometry":{"type":"MultiPolygon","coordinates":[[[[1.43384,52.62409],[1.4338,52.624],[1.43351,52.62404],[1.43351,52.62402],[1.43303,52.62409],[1.43308,52.62423],[1.43319,52.62421],[1.43319,52.62419],[1.4333,52.62417],[1.43339,52.62416],[1.4334,52.62416],[1.43345,52.62415],[1.43348,52.62415],[1.43384,52.62409]]]]}},
{ "type":"Feature","properties":{"osm_way_id":"166722750","name":"Tesco","building":"yes","shop":"supermarket","other":{"addr:city":"Norwich","addr:country":"GB","addr:housenumber":"28","addr:postcode":"NR11 6BW","addr:street":"Norwich Road","brand":"Tesco","brand:wikidata":"Q487494","brand:wikipedia":"en:Tesco","contact:website":"https:\/\/www.tesco.com\/store-locator\/aylesbury\/tring-rd","fhrs:id":"145709","opening_hours":"Mo-Sa 07:00-23:00; Su 10:00-16:00","operator":"Tesco Stores Ltd"}}, "geometry":{"type":"MultiPolygon","coordinates":[[[[1.25264,52.79168],[1.25324,52.79167],[1.25323,52.79118],[1.25267,52.79119],[1.25267,52.79121],[1.2526,52.79121],[1.2526,52.79126],[1.25257,52.79126],[1.25257,52.79139],[1.25264,52.79168]]]]}},
{ "type":"Feature","properties":{"osm_way_id":"179791173","name":"Morrisons","building":"retail","shop":"supermarket","other":{"addr:city":"Norwich","addr:country":"GB","addr:housenumber":"100","addr:postcode":"NR6 7HS","addr:street":"The Paddocks","brand":"Morrisons","brand:wikidata":"Q922344","brand:wikipedia":"en:Morrisons","building:levels":"1","fhrs:id":"95160","opening_hours":"Mo-Sa 08:00-21:00; Su 10:00-16:00","phone":"+44 1603 427665","website":"https:\/\/www.morrisons.co.uk\/","wheelchair":"yes"}}, "geometry":{"type":"MultiPolygon","coordinates":[[[[1.30683,52.66955],[1.30682,52.66951],[1.30679,52.66932],[1.30689,52.66931],[1.30688,52.66927],[1.30629,52.66931],[1.30626,52.66913],[1.30758,52.66905],[1.30764,52.66944],[1.30765,52.66947],[1.3075,52.66947],[1.30751,52.6695],[1.30683,52.66955]]]]}},
{ "type":"Feature","properties":{"osm_way_id":"204896384","name":"East of England Co-op","building":"yes","shop":"supermarket","other":{"fhrs:id":"93936","operator":"East of England Co-operative","addr:city":"Acle","addr:street":"Norwich Road","addr:postcode":"NR13 3BY"}}, "geometry":{"type":"MultiPolygon","coordinates":[[[[1.54659,52.63646],[1.54659,52.63639],[1.54659,52.63633],[1.54678,52.63633],[1.54678,52.63638],[1.54714,52.63638],[1.54713,52.63665],[1.54665,52.63664],[1.54665,52.63646],[1.54659,52.63646]]]]}},
{ "type":"Feature","properties":{"osm_way_id":"213191776","name":"Budgens","building":"yes","shop":"supermarket","other":{"addr:city":"Norwich","addr:country":"GB","addr:postcode":"NR11 6BN","addr:street":"Norwich Road","brand":"Budgens","brand:wikidata":"Q4985016","fhrs:id":"95578","opening_hours":"Mo-Sa 08:00-20:00; Su 10:00-16:00","operator":"CT Baker","phone":"+44 1263 733215","website":"https:\/\/www.budgens.co.uk\/our-stores\/aylsham"}}, "geometry":{"type":"MultiPolygon","coordinates":[[[[1.25153,52.79402],[1.25199,52.79401],[1.25204,52.79403],[1.25205,52.79426],[1.25145,52.79427],[1.25144,52.79414],[1.25154,52.79414],[1.25153,52.79402]]]]}},
{ "type":"Feature","properties":{"osm_way_id":"228993017","name":"East of England Co-op","building":"yes","shop":"supermarket","other":{"fhrs:id":"97826","addr:city":"Norwich","addr:street":"Crostwick Lane","addr:country":"GB","addr:postcode":"NR10 3AF","addr:housenumber":"115"}}, "geometry":{"type":"MultiPolygon","coordinates":[[[[1.32642,52.68772],[1.32667,52.68774],[1.32668,52.68773],[1.32682,52.68774],[1.32674,52.68801],[1.32666,52.68801],[1.32665,52.68805],[1.32651,52.68803],[1.32652,52.688],[1.32644,52.68799],[1.32646,52.68792],[1.32637,52.68791],[1.32642,52.68772]]]]}},
{ "type":"Feature","properties":{"osm_way_id":"324020975","name":"Tesco","building":"retail","shop":"supermarket","other":{"addr:city":"Norwich","addr:country":"GB","addr:postcode":"NR8 6PT","addr:street":"Fakenham Road","alt_name":"Tesco Norwich Drayton Express","brand":"Tesco","brand:wikidata":"Q487494","brand:wikipedia":"en:Tesco","contact:website":"https:\/\/www.tesco.com\/store-locator\/drayton\/fakenham-rd?bid=6634","dog":"guide_only","fhrs:id":"462872","internet_access":"wlan","opening_hours":"Mo-Sa 06:00-00:00; Su 10:00-16:00","operator":"Tesco Stores Ltd","phone":"+44 3456 719556","source:addr:postcode":"FSA Food Hygiene Ratings Database"}}, "geometry":{"type":"MultiPolygon","coordinates":[[[[1.21874,52.67723],[1.21879,52.67725],[1.21875,52.6773],[1.21881,52.67732],[1.21876,52.67738],[1.21885,52.67741],[1.21881,52.67745],[1.21912,52.67755],[1.21926,52.67759],[1.21931,52.67754],[1.21947,52.67758],[1.21944,52.67762],[1.21954,52.67765],[1.21976,52.67738],[1.21885,52.6771],[1.21874,52.67723]]]]}},
{ "type":"Feature","properties":{"osm_way_id":"340351927","name":"Co-op","building":"yes","shop":"supermarket","other":{"fhrs:id":"98034","addr:city":"Norwich","addr:street":"Holt Road","addr:country":"GB","addr:village":"Horsford","addr:postcode":"NR10 4WW","addr:housenumber":"149"}}, "geometry":{"type":"MultiPolygon","coordinates":[[[[1.24453,52.69763],[1.24427,52.69756],[1.2441,52.6978],[1.24433,52.69786],[1.24445,52.69767],[1.24446,52.69768],[1.24449,52.69768],[1.24453,52.69763]]]]}},
{ "type":"Feature","properties":{"osm_way_id":"384408832","name":"The Co-operative Food","building":"yes","shop":"supermarket","other":{"brand":"Co-op Food","brand:wikidata":"Q3277439","brand:wikipedia":"en:Co-op Food","fhrs:id":"80909","website":"https:\/\/stores.centralengland.coop\/the-co-operative-food-brundall-b09cd23d41b0"}}, "geometry":{"type":"MultiPolygon","coordinates":[[[[1.42604,52.62562],[1.42618,52.62562],[1.42619,52.62574],[1.42638,52.62574],[1.42637,52.62569],[1.42636,52.62557],[1.42629,52.62557],[1.42628,52.62548],[1.42603,52.62549],[1.42604,52.62562]]]]}},
{ "type":"Feature","properties":{"osm_way_id":"510409815","name":"M&S Simply Food","building":"yes","shop":"supermarket","other":{"addr:city":"Aylsham","addr:country":"GB","addr:postcode":"NR11 6TZ","addr:street":"Burgh Road","atm":"yes","brand":"M&S Simply Food","brand:wikidata":"Q714491","fee":"no","opening_hours":"24\/7","start_date":"2017-07-26","unisex":"yes","wheelchair":"yes"}}, "geometry":{"type":"MultiPolygon","coordinates":[[[[1.26634,52.79192],[1.26655,52.79186],[1.2664,52.79163],[1.26618,52.79169],[1.26634,52.79192]]]]}},
{ "type":"Feature","properties":{"osm_way_id":"854175398","name":"Co-op Food","building":"yes","shop":"supermarket","other":{"brand":"Co-op Food","brand:wikidata":"Q3277439","brand:wikipedia":"en:Co-op Food"}}, "geometry":{"type":"MultiPolygon","coordinates":[[[[1.30516,52.65283],[1.30509,52.65263],[1.30488,52.65266],[1.30495,52.65286],[1.30516,52.65283]]]]}},
{ "type":"Feature","properties":{"osm_way_id":"972116182","name":"Lidl","building":"retail","shop":"supermarket","other":{"addr:country":"GB","addr:postcode":"NR13 5HB","addr:street":"Maple Way","brand":"Lidl","brand:wikidata":"Q151954","brand:wikipedia":"en:Lidl","building:levels":"1","fhrs:id":"1402589","nohousenumber":"yes","opening_hours":"Mo-Sa 08:00-22:00; Su 10:00-16:00"}}, "geometry":{"type":"MultiPolygon","coordinates":[[[[1.3817,52.63082],[1.38214,52.63083],[1.38218,52.63013],[1.38174,52.63012],[1.3817,52.63082]]]]}},
{ "type":"Feature","properties":{"osm_way_id":"1005957802","name":"Co-op Food","building":"yes","shop":"supermarket","other":{"addr:city":"Norwich","addr:country":"GB","addr:housenumber":"135","addr:postcode":"NR10 4LJ","addr:street":"Station Road","brand":"Co-op Food","brand:wikidata":"Q3277439","brand:wikipedia":"en:Co-op Food","start_date":"2020"}}, "geometry":{"type":"MultiPolygon","coordinates":[[[[1.11408,52.7674],[1.11381,52.76751],[1.11403,52.76771],[1.1143,52.7676],[1.11408,52.7674]]]]}}
]
}
