{
"type": "FeatureCollection",
"features": [
{ "type":"Feature","properties":{"osm_id":"448577773","name":"ALDI","other":{"addr:city":"Dartford","addr:postcode":"DA1 1DN","addr:street":"Orchards Shopping Centre","brand":"ALDI","brand:wikidata":"Q41171672","brand:wikipedia":"en:Aldi","fhrs:id":"782178","shop":"supermarket"}}, "geometry":{"type":"Point","coordinates":[0.21896,51.44539 ]}},
{ "type":"Feature","properties":{"osm_id":"763901649","highway":"service"},"geometry":{"type":"LineString","coordinates":[[0.21365,51.44981],[0.21348,51.44989],[0.2134,51.44989],[0.21326,51.4499],[0.21294,51.44973],[0.21239,51.44977],[0.2121,51.4498]]}},
{ "type":"Feature","properties":{"osm_way_id":"28093786","name":"Asda","building":"yes","shop":"supermarket","other":{"brand":"Asda","fhrs:id":"21027","alt_name":"Asda Greenhithe Superstore","operator":"Asda Stores Ltd","addr:city":"Greenhithe","wheelchair":"yes","addr:street":"Crossways Boulevard","addr:country":"GB","addr:postcode":"DA9 9BT","opening_hours":"Mo 06:00-24:00; Tu-Fr 00:00-24:00; Sa 00:00-22:00; Su 10:30-17:00","brand:wikidata":"Q297410","brand:wikipedia":"en:Asda","contact:twitter":"@asda","contact:website":"https:\/\/storelocator.asda.com\/south-east\/greenhithe\/crossways-boulevard","contact:facebook":"https:\/\/www.facebook.com\/asda\/"}}, "geometry":{"type":"MultiPolygon","coordinates":[[[[0.27643,51.45272],[0.27634,51.45226],[0.27738,51.45217],[0.27736,51.45207],[0.27808,51.45202],[0.27813,51.45226],[0.2777,51.45229],[0.27776,51.45262],[0.27643,51.45272]]]]}},
{ "type":"Feature","properties":{"osm_way_id":"28671456","name":"Waitrose","building":"shop","shop":"supermarket","other":{"brand":"Waitrose","brand:wikidata":"Q771734","brand:wikipedia":"en:Waitrose & Partners","official_name":"Waitrose & Partners","operator":"Waitrose & Partners"}}, "geometry":{"type":"MultiPolygon","coordinates":[[[[0.29984,51.39689],[0.29969,51.39662],[0.29969,51.39653],[0.30006,51.39643],[0.30023,51.39667],[0.30053,51.39659],[0.30059,51.3967],[0.29984,51.39689]]]]}},
{ "type":"Feature","properties":{"osm_way_id":"28671493","name":"Co-op Food","shop":"supermarket","other":{"addr:housenumber":"14","addr:postcode":"DA3 7QD","addr:street":"Station Road","brand":"Co-op Food","brand:wikidata":"Q3277439","brand:wikipedia":"en:Co-op Food","website":"https:\/\/www.co-operative.coop\/find-us\/?q=da3%207"}}, "geometry":{"type":"MultiPolygon","coordinates":[[[[0.29972,51.3983],[0.29967,51.39816],[0.30004,51.39811],[0.30015,51.39845],[0.29997,51.39847],[0.2999,51.39828],[0.29972,51.3983]]]]}},
{ "type":"Feature","properties":{"osm_way_id":"38043298","name":"Sainsbury's","building":"yes","shop":"supermarket","other":{"addr:city":"Dartford","addr:postcode":"DA1 2HL","addr:street":"Instone Road","brand":"Sainsbury's","brand:wikidata":"Q152096","brand:wikipedia":"en:Sainsbury's","fhrs:id":"6822","height":"6","operator":"Sainsburys","roof:shape":"flat","source:addr":"FHRS Open Data"}}, "geometry":{"type":"MultiPolygon","coordinates":[[[[0.21437,51.44389],[0.21434,51.44376],[0.21431,51.44364],[0.21455,51.44361],[0.21486,51.44358],[0.21508,51.44356],[0.21511,51.44356],[0.21515,51.44353],[0.21525,51.4435],[0.21534,51.44346],[0.2153,51.44359],[0.21533,51.44393],[0.21534,51.44395],[0.21498,51.44398],[0.21471,51.44401],[0.21473,51.4441],[0.21443,51.44413],[0.21438,51.44393],[0.21436,51.44394],[0.21424,51.44395],[0.21422,51.4439],[0.21435,51.44389],[0.21437,51.44389]]]]}},
{ "type":"Feature","properties":{"osm_way_id":"833065612","name":"Maple Leaf","shop":"kitchen","other":{"level":"0","website":"https:\/\/www.maple-leaf-kitchens.co.uk\/"}}, "geometry":{"type":"MultiPolygon","coordinates":[[[[0.21677,51.44648],[0.21676,51.44643],[0.21692,51.44642],[0.21692,51.44643],[0.21703,51.44642],[0.21703,51.44645],[0.21677,51.44648]]]]}},
{ "type":"Feature","properties":{"osm_way_id":"948868537","name":"Lidl","building":"apartments","shop":"supermarket","other":{"addr:country":"GB","addr:postcode":"DA1 2AG","addr:street":"Instone Road","brand":"Lidl","brand:wikidata":"Q151954","brand:wikipedia":"en:Lidl","fhrs:id":"942393","opening_hours":"Mo-Sa 08:00-22:00; Su 11:00-17:00","wheelchair":"yes"}}, "geometry":{"type":"MultiPolygon","coordinates":[[[[0.21355,51.44243],[0.21356,51.44238],[0.21389,51.44242],[0.21389,51.44242],[0.21408,51.44245],[0.21415,51.44221],[0.21412,51.4422],[0.21399,51.44219],[0.2133,51.4421],[0.21321,51.44209],[0.21322,51.44214],[0.21329,51.44213],[0.2133,51.44216],[0.21325,51.44216],[0.21329,51.44238],[0.21333,51.44237],[0.21334,51.4424],[0.21355,51.44243]]]]}}
]
}
