{
"type": "FeatureCollection",
"features": [
{ "type":"Feature","properties":{"osm_id":"464811285","name":"B&M","other":{"shop":"supermarket"}}, "geometry":{"type":"Point","coordinates":[-2.17649,53.11607 ]}},
{ "type":"Feature","properties":{"osm_id":"1233631139","name":"Morrisons","other":{"branch":"Daily","brand":"Morrisons","brand:wikidata":"Q922344","brand:wikipedia":"en:Morrisons","shop":"supermarket"}}, "geometry":{"type":"Point","coordinates":[-1.9871,52.98169 ]}},
{ "type":"Feature","properties":{"osm_way_id":"62369252","name":"Morrisons","building":"yes","shop":"supermarket","other":{"brand":"Morrisons","brand:wikidata":"Q922344","brand:wikipedia":"en:Morrisons","old_name":"Somerfield","toilets:wheelchair":"yes","wheelchair:description":"yes"}}, "geometry":{"type":"MultiPolygon","coordinates":[[[[-1.98583,52.98753],[-1.98533,52.98763],[-1.98537,52.9877],[-1.98536,52.9877],[-1.98512,52.98776],[-1.98515,52.98781],[-1.98515,52.98781],[-1.98502,52.98785],[-1.98506,52.9879],[-1.98519,52.98788],[-1.98539,52.98818],[-1.98572,52.98809],[-1.98568,52.98803],[-1.98593,52.98799],[-1.9861,52.98794],[-1.98583,52.98753]]]]}},
{ "type":"Feature","properties":{"osm_way_id":"79045870","name":"Asda","building":"yes","shop":"supermarket","other":{"brand":"Asda","fhrs:id":"1259966","operator":"Asda Stores Ltd","addr:city":"Cheadle","addr:street":"Ashbourne Road","addr:country":"GB","addr:postcode":"ST10 1HF","brand:wikidata":"Q297410","brand:wikipedia":"en:Asda","contact:twitter":"@asda","contact:website":"https:\/\/storelocator.asda.com\/west-midlands\/cheadle-stoke-on-trent\/ashbourne-road","contact:facebook":"https:\/\/www.facebook.com\/asda\/"}}, "geometry":{"type":"MultiPolygon","coordinates":[[[[-1.98477,52.98597],[-1.98457,52.986],[-1.98438,52.98602],[-1.98425,52.98558],[-1.98437,52.98557],[-1.98439,52.98563],[-1.98452,52.98562],[-1.98462,52.9856],[-1.98469,52.98584],[-1.9847,52.98586],[-1.98474,52.98585],[-1.98477,52.98597]]]]}},
{ "type":"Feature","properties":{"osm_way_id":"93940321","name":"Morrisons","building":"retail","shop":"supermarket","other":{"brand":"Morrisons","brand:wikidata":"Q922344","brand:wikipedia":"en:Morrisons","toilets":"yes","toilets:wheelchair":"yes","wheelchair":"yes"}}, "geometry":{"type":"MultiPolygon","coordinates":[[[[-2.0319,53.10022],[-2.03262,53.09994],[-2.03249,53.09982],[-2.03255,53.09972],[-2.03209,53.09933],[-2.03186,53.09914],[-2.03154,53.09928],[-2.03145,53.09943],[-2.03151,53.09948],[-2.03128,53.09957],[-2.03161,53.09988],[-2.03156,53.0999],[-2.0319,53.10022]]]]}},
{ "type":"Feature","properties":{"osm_way_id":"173499192","name":"Asda","building":"yes","shop":"supermarket","other":{"brand":"Asda","fhrs:id":"1259962","operator":"Asda Stores Ltd","addr:city":"Leek","addr:street":"Springfield Road","addr:country":"GB","addr:postcode":"ST13 6EN","brand:wikidata":"Q297410","brand:wikipedia":"en:Asda","contact:twitter":"@asda","contact:website":"https:\/\/storelocator.asda.com\/west-midlands\/leek\/springfield-road","contact:facebook":"https:\/\/www.facebook.com\/asda\/"}}, "geometry":{"type":"MultiPolygon","coordinates":[[[[-2.01301,53.1067],[-2.01243,53.10664],[-2.0124,53.10676],[-2.01232,53.10675],[-2.01228,53.10687],[-2.01294,53.10694],[-2.01301,53.1067]]]]}},
{ "type":"Feature","properties":{"osm_way_id":"173499615","name":"Lidl","building":"retail","shop":"supermarket","other":{"addr:country":"GB","addr:postcode":"ST13 6AH","addr:street":"Portland Street North","brand":"Lidl","brand:wikidata":"Q151954","brand:wikipedia":"en:Lidl","fhrs:id":"1259573","old_name":"Co-op then Waitrose"}}, "geometry":{"type":"MultiPolygon","coordinates":[[[[-2.01927,53.10805],[-2.0184,53.10822],[-2.01821,53.10789],[-2.01852,53.10783],[-2.01872,53.10779],[-2.01869,53.10774],[-2.01914,53.10764],[-2.01922,53.10777],[-2.01912,53.10779],[-2.01927,53.10805]]]]}},
{ "type":"Feature","properties":{"osm_way_id":"173499915","name":"Aldi","building":"retail","shop":"supermarket","other":{"brand":"ALDI","brand:wikidata":"Q41171672","brand:wikipedia":"en:Aldi"}}, "geometry":{"type":"MultiPolygon","coordinates":[[[[-2.02294,53.10481],[-2.02245,53.10489],[-2.02248,53.10495],[-2.02253,53.10494],[-2.0227,53.10531],[-2.0229,53.10528],[-2.02288,53.10523],[-2.02305,53.1052],[-2.02304,53.10517],[-2.02293,53.10494],[-2.02299,53.10493],[-2.02294,53.10481]]]]}},
{ "type":"Feature","properties":{"osm_way_id":"323362435","name":"Sainsbury's","building":"yes","shop":"supermarket","other":{"brand":"Sainsbury's","fhrs:id":"1259958","addr:street":"Wharf Road","source:addr":"FHRS Open Data","addr:postcode":"ST8 6AJ","brand:wikidata":"Q152096","brand:wikipedia":"en:Sainsbury's"}}, "geometry":{"type":"MultiPolygon","coordinates":[[[[-2.17682,53.11753],[-2.17696,53.11687],[-2.17593,53.11679],[-2.17592,53.11687],[-2.17583,53.11686],[-2.17576,53.11719],[-2.17605,53.11722],[-2.1761,53.11722],[-2.17606,53.11747],[-2.17606,53.1176],[-2.17622,53.11762],[-2.17633,53.11763],[-2.17635,53.11755],[-2.17636,53.11749],[-2.17682,53.11753]]]]}},
{ "type":"Feature","properties":{"osm_way_id":"367872574","name":"The Co-operative Food","building":"yes","shop":"supermarket","other":{"operator":"The Co-operative Group"}}, "geometry":{"type":"MultiPolygon","coordinates":[[[[-2.00932,53.11174],[-2.00906,53.11168],[-2.00913,53.11156],[-2.00936,53.11161],[-2.00939,53.11164],[-2.00932,53.11174]]]]}},
{ "type":"Feature","properties":{"osm_way_id":"367875936","name":"The Co-operative Food","building":"yes","shop":"supermarket","other":{"operator":"The Co-operative Group"}}, "geometry":{"type":"MultiPolygon","coordinates":[[[[-2.05946,52.96662],[-2.0594,52.96674],[-2.05898,52.96665],[-2.05906,52.96654],[-2.05946,52.96662]]]]}},
{ "type":"Feature","properties":{"osm_way_id":"385554558","name":"Sainsbury's","building":"yes","shop":"supermarket","other":{"brand":"Sainsbury's","brand:wikidata":"Q152096","brand:wikipedia":"en:Sainsbury's","payment:cash":"yes","payment:coins":"yes","payment:credit_cards":"yes","payment:debit_cards":"yes","payment:mastercard":"yes","payment:notes":"yes","payment:visa":"yes","toilets:wheelchair":"yes","wheelchair":"yes"}}, "geometry":{"type":"MultiPolygon","coordinates":[[[[-2.03792,53.11179],[-2.03775,53.11167],[-2.0378,53.11165],[-2.03741,53.11141],[-2.03722,53.11135],[-2.03616,53.11195],[-2.03629,53.11205],[-2.03652,53.11219],[-2.03667,53.11228],[-2.03674,53.11224],[-2.03693,53.11237],[-2.03741,53.11209],[-2.03748,53.11213],[-2.03765,53.11208],[-2.03754,53.11201],[-2.03792,53.11179]]]]}},
{ "type":"Feature","properties":{"osm_way_id":"557447620","name":"Co-op","building":"retail","shop":"supermarket","other":{"operator":"Co-operative Food","addr:city":"Stoke on Trent","addr:street":"Leek Road","addr:postcode":"ST9 9EW","opening_hours":"06:00-22:00","addr:housenumber":"138-140"}}, "geometry":{"type":"MultiPolygon","coordinates":[[[[-2.11711,53.07047],[-2.11693,53.07069],[-2.11671,53.07063],[-2.11676,53.07041],[-2.11711,53.07047]]]]}}
]
}
