{
"type": "FeatureCollection",
"features": [
{ "type":"Feature","properties":{"osm_id":"1241225877","name":"Spar","other":{"brand":"Spar","brand:wikidata":"Q610492","brand:wikipedia":"en:Spar (retailer)","shop":"supermarket"}}, "geometry":{"type":"Point","coordinates":[-2.21758,52.06391 ]}},
{ "type":"Feature","properties":{"osm_id":"1241637551","name":"Co-op Food","other":{"brand":"Co-op Food","brand:wikidata":"Q3277439","brand:wikipedia":"en:Co-op Food","operator":"The Co-operative Group","shop":"supermarket"}}, "geometry":{"type":"Point","coordinates":[-2.21777,52.06281 ]}},
{ "type":"Feature","properties":{"osm_id":"2985003028","name":"Co-op Food","other":{"shop":"supermarket"}}, "geometry":{"type":"Point","coordinates":[-2.5953,52.30497 ]}},
{ "type":"Feature","properties":{"osm_way_id":"148623582","name":"Waitrose","building":"yes","shop":"supermarket","other":{"addr:postcode":"WR14 4WR","addr:street":"Edith Walk","alt_name":"Waitrose Great Malvern","brand":"Waitrose & Partners","brand:wikidata":"Q771734","brand:wikipedia":"en:Waitrose & Partners","fhrs:id":"684881","not:addr:postcode":"WR14 2HH","operator":"Waitrose & Partners"}}, "geometry":{"type":"MultiPolygon","coordinates":[[[[-2.32857,52.11226],[-2.32847,52.11226],[-2.32848,52.11234],[-2.32842,52.11238],[-2.32803,52.1124],[-2.32809,52.11295],[-2.32824,52.11294],[-2.32823,52.11289],[-2.32845,52.11288],[-2.32846,52.11293],[-2.32875,52.11292],[-2.32868,52.11225],[-2.32857,52.11226]]]]}},
{ "type":"Feature","properties":{"osm_way_id":"153422239","name":"Morrisons","building":"yes","shop":"supermarket","other":{"addr:postcode":"WR14 1PZ","addr:street":"Roman Way","alt_name":"Morrisons Malvern","brand":"Morrisons","brand:wikidata":"Q922344","brand:wikipedia":"en:Morrisons","fhrs:id":"672843","layer":"1"}}, "geometry":{"type":"MultiPolygon","coordinates":[[[[-2.30388,52.13205],[-2.30419,52.13201],[-2.30492,52.13192],[-2.30485,52.13161],[-2.30464,52.13164],[-2.30459,52.13146],[-2.3048,52.13143],[-2.30473,52.13122],[-2.30429,52.13128],[-2.30427,52.13121],[-2.30339,52.13132],[-2.30344,52.13151],[-2.3035,52.13151],[-2.30356,52.13172],[-2.30349,52.13173],[-2.30356,52.13193],[-2.30351,52.13194],[-2.30354,52.13204],[-2.30358,52.13204],[-2.30371,52.1321],[-2.30371,52.13211],[-2.30389,52.13209],[-2.30388,52.13205]]]]}},
{ "type":"Feature","properties":{"osm_way_id":"153429857","name":"The Co-operative Food","building":"yes","shop":"supermarket","other":{"addr:city":"Malvern","addr:housenumber":"162","addr:postcode":"WR14 1AA","addr:street":"Worcester Road","fhrs:id":"684879","operator":"The Co-operative Group","source:addr":"FHRS Open Data"}}, "geometry":{"type":"MultiPolygon","coordinates":[[[[-2.31356,52.12795],[-2.31368,52.12802],[-2.3137,52.12801],[-2.31373,52.12804],[-2.31381,52.12812],[-2.31394,52.12824],[-2.31422,52.12809],[-2.31407,52.12799],[-2.31403,52.12801],[-2.31386,52.12784],[-2.31356,52.12795]]]]}},
{ "type":"Feature","properties":{"osm_way_id":"299661459","name":"Lidl","building":"yes","shop":"supermarket","other":{"addr:country":"GB","addr:housenumber":"188","addr:postcode":"WR14 1AG","addr:street":"Worcester Road","alt_name":"LIDL Malvern","brand":"Lidl","brand:wikidata":"Q151954","fhrs:id":"684884"}}, "geometry":{"type":"MultiPolygon","coordinates":[[[[-2.31187,52.12877],[-2.31188,52.12862],[-2.31196,52.12862],[-2.31196,52.12855],[-2.31109,52.12855],[-2.31109,52.12882],[-2.31135,52.12882],[-2.31135,52.12877],[-2.31187,52.12877]]]]}},
{ "type":"Feature","properties":{"osm_way_id":"299661702","name":"Iceland","building":"yes","shop":"supermarket","other":{"addr:housenumber":"24-26","addr:postcode":"WR14 2AY","addr:street":"Church Street","alt_name":"Iceland Malvern","brand":"Iceland","brand:wikidata":"Q721810","fhrs:id":"684913","old_name":"Woolworths"}}, "geometry":{"type":"MultiPolygon","coordinates":[[[[-2.32719,52.11147],[-2.32715,52.11115],[-2.32696,52.11115],[-2.32698,52.11141],[-2.32701,52.11149],[-2.32719,52.11147]]]]}},
{ "type":"Feature","properties":{"osm_way_id":"400609001","name":"Sainsbury's Local","building":"retail","shop":"supermarket","other":{"brand:wikidata":"Q13218434","opening_hours":"Mo-Su 07:00-23:00"}}, "geometry":{"type":"MultiPolygon","coordinates":[[[[-2.33444,52.13296],[-2.33415,52.133],[-2.33406,52.13278],[-2.33434,52.13273],[-2.33444,52.13296]]]]}},
{ "type":"Feature","properties":{"osm_way_id":"518414364","name":"Tesco","building":"retail","shop":"supermarket","other":{"brand":"Tesco","brand:wikidata":"Q487494","brand:wikipedia":"en:Tesco","building:levels":"1","opening_hours":"Mo-Sa 07:00-22:00; Su 10:00-16:00","roof:levels":"0"}}, "geometry":{"type":"MultiPolygon","coordinates":[[[[-2.59304,52.313],[-2.59317,52.31335],[-2.59326,52.31334],[-2.59328,52.31338],[-2.59387,52.3133],[-2.59385,52.31325],[-2.59374,52.31298],[-2.5938,52.31296],[-2.59375,52.31287],[-2.59348,52.31291],[-2.59311,52.31291],[-2.59279,52.31292],[-2.5928,52.313],[-2.59304,52.313]]]]}}
]
}
