{
"type": "FeatureCollection",
"features": [
{ "type":"Feature","properties":{"osm_id":"298257643","name":"Costcutter","other":{"shop":"supermarket"}}, "geometry":{"type":"Point","coordinates":[0.69216,51.08455 ]}},
{ "type":"Feature","properties":{"osm_id":"1655350805","name":"Costcutter","other":{"shop":"supermarket","brand":"Costcutter","operator":"Costcutter","brand:wikidata":"Q5175072","brand:wikipedia":"en:Costcutter"}}, "geometry":{"type":"Point","coordinates":[0.89075,51.1335 ]}},
{ "type":"Feature","properties":{"osm_id":"1975616923","other":{"amenity":"bicycle_parking","covered":"yes","bicycle_parking":"stands"}}, "geometry":{"type":"Point","coordinates":[0.86406,51.1226 ]}},
{ "type":"Feature","properties":{"osm_id":"6159570550","other":{"amenity":"bicycle_parking","covered":"yes","bicycle_parking":"stands"}}, "geometry":{"type":"Point","coordinates":[0.86538,51.12347 ]}},
{ "type":"Feature","properties":{"osm_id":"7623400982","other":{"shop":"supermarket"}}, "geometry":{"type":"Point","coordinates":[0.87039,51.13991 ]}},
{ "type":"Feature","properties":{"osm_id":"9412888816","other":{"shop":"supermarket"}}, "geometry":{"type":"Point","coordinates":[0.8449,51.13832 ]}},
{ "type":"Feature","properties":{"osm_id":"878200567","highway":"path"},"geometry":{"type":"LineString","coordinates":[[0.83266,51.13526],[0.83264,51.13528],[0.83263,51.13529],[0.83254,51.13531],[0.83241,51.13539],[0.83233,51.13543],[0.8323,51.13547],[0.83223,51.1355],[0.83215,51.13555],[0.83214,51.13555],[0.8321,51.13562],[0.83201,51.13569],[0.8319,51.13575],[0.83179,51.13579],[0.83169,51.1358],[0.83165,51.13581]]}},
{ "type":"Feature","properties":{"osm_way_id":"55854168","name":"Sainsbury's","building":"yes","shop":"supermarket","other":{"addr:postcode":"TN24 8YN","addr:street":"Simone Weil Avenue","brand":"Sainsbury's","brand:wikidata":"Q152096","brand:wikipedia":"en:Sainsbury's"}}, "geometry":{"type":"MultiPolygon","coordinates":[[[[0.86636,51.15873],[0.86645,51.15883],[0.86637,51.15886],[0.86644,51.15894],[0.86657,51.15889],[0.86691,51.1593],[0.86712,51.15923],[0.86723,51.15937],[0.86842,51.15897],[0.86749,51.15786],[0.86665,51.15813],[0.86693,51.15847],[0.86667,51.15856],[0.86672,51.15861],[0.86636,51.15873]]]]}},
{ "type":"Feature","properties":{"osm_way_id":"97767300","name":"Aldi","building":"retail","shop":"supermarket","other":{"brand":"ALDI","brand:wikidata":"Q41171672","brand:wikipedia":"en:Aldi","website":"https:\/\/www.aldi.co.uk\/store\/s-uk-E1196"}}, "geometry":{"type":"MultiPolygon","coordinates":[[[[0.87128,51.14477],[0.87131,51.1448],[0.87114,51.14487],[0.87063,51.14438],[0.87106,51.1442],[0.87154,51.14466],[0.87128,51.14477]]]]}},
{ "type":"Feature","properties":{"osm_way_id":"109901235","name":"Argos Extra","building":"yes","shop":"supermarket","other":{"addr:city":"Ashford","addr:street":"Barrey Road","addr:country":"GB","addr:postcode":"TN24 0SG","addr:housenumber":"Unit 6, Ashford Business Park"}}, "geometry":{"type":"MultiPolygon","coordinates":[[[[0.9036,51.13],[0.90397,51.12983],[0.90427,51.13009],[0.9039,51.13026],[0.9036,51.13]]]]}},
{ "type":"Feature","properties":{"osm_way_id":"109938754","name":"Tesco Extra","building":"yes","shop":"supermarket","other":{"brand":"Tesco Extra","addr:street":"Hythe Road","postal_code":"TN24 0YE","addr:postcode":"TN24 0YE","brand:wikidata":"Q25172225","brand:wikipedia":"en:Tesco Extra"}}, "geometry":{"type":"MultiPolygon","coordinates":[[[[0.91495,51.13671],[0.91482,51.1366],[0.91479,51.13662],[0.91461,51.13644],[0.91463,51.13644],[0.91454,51.13636],[0.91459,51.13633],[0.91435,51.13611],[0.91421,51.13602],[0.91504,51.13564],[0.91501,51.13561],[0.91534,51.13546],[0.91544,51.13555],[0.91549,51.13554],[0.91559,51.13563],[0.91551,51.13566],[0.91556,51.13571],[0.9155,51.13572],[0.91561,51.1358],[0.91544,51.13587],[0.91547,51.13589],[0.91544,51.1359],[0.91554,51.13598],[0.91548,51.136],[0.91566,51.13615],[0.91571,51.13612],[0.91579,51.13619],[0.91582,51.13622],[0.91572,51.13627],[0.91581,51.13635],[0.91495,51.13671]]]]}},
{ "type":"Feature","properties":{"osm_way_id":"179096186","name":"Tesco Extra","building":"yes","shop":"supermarket","other":{"addr:city":"Ashford","addr:county":"Kent","addr:postcode":"TN23 3LU","addr:street":"Moat Field Meadow","addr:village":"Kingsnorth","branch":"Ashford Park Farn Extra","brand":"Tesco Extra","brand:wikidata":"Q25172225","brand:wikipedia":"en:Tesco Extra","fhrs:id":"265245","opening_hours":"Mo-Sa 07:00-22:00; Su 12:00-18:00","source:addr":"FHRS Open Data","website":"https:\/\/www.tesco.com\/store-locator\/ashford\/moat-field-meadow","wheelchair":"yes"}}, "geometry":{"type":"MultiPolygon","coordinates":[[[[0.86359,51.1228],[0.86406,51.1226],[0.86456,51.12239],[0.86502,51.1228],[0.86516,51.12292],[0.86522,51.1229],[0.86534,51.12302],[0.8653,51.12304],[0.86542,51.12315],[0.86531,51.1232],[0.86551,51.1234],[0.86538,51.12347],[0.86521,51.12354],[0.86518,51.12352],[0.8651,51.12356],[0.86476,51.12368],[0.86475,51.12365],[0.86456,51.12373],[0.86417,51.12335],[0.86416,51.12334],[0.86384,51.12305],[0.86388,51.12303],[0.86372,51.12289],[0.8637,51.1229],[0.86359,51.1228]]]]}},
{ "type":"Feature","properties":{"osm_way_id":"184336465","name":"Waitrose","building":"yes","shop":"supermarket","other":{"brand":"Waitrose","website":"https:\/\/www.waitrose.com\/","operator":"Waitrose & Partners","addr:street":"Sir Bernard Paget Avenue","payment:cash":"yes","addr:postcode":"TN23 3RT","brand:wikidata":"Q771734","brand:wikipedia":"en:Waitrose & Partners","payment:contactless":"yes","payment:debit_cards":"yes","payment:credit_cards":"yes"}}, "geometry":{"type":"MultiPolygon","coordinates":[[[[0.85719,51.15585],[0.85805,51.15563],[0.85792,51.15543],[0.858,51.15541],[0.85794,51.15529],[0.85778,51.15527],[0.85775,51.15527],[0.85776,51.15533],[0.85757,51.15538],[0.85752,51.15532],[0.85722,51.1554],[0.85721,51.15533],[0.85712,51.15536],[0.85694,51.15541],[0.85719,51.15585]]]]}},
{ "type":"Feature","properties":{"osm_way_id":"184350706","name":"Lidl","building":"yes","shop":"supermarket","other":{"brand":"Lidl","fhrs:id":"264804","addr:street":"New Street","addr:postcode":"TN24 8TT","brand:wikidata":"Q151954","brand:wikipedia":"en:Lidl","addr:housenumber":"41-51","source:housenumber":"FHRS Open Data"}}, "geometry":{"type":"MultiPolygon","coordinates":[[[[0.86773,51.15032],[0.86793,51.15014],[0.86854,51.15054],[0.86827,51.15067],[0.86812,51.15066],[0.8681,51.15064],[0.86806,51.15066],[0.86799,51.15061],[0.86805,51.15059],[0.86773,51.15032]]]]}},
{ "type":"Feature","properties":{"osm_way_id":"184350849","name":"Asda","building":"yes","shop":"supermarket","other":{"brand":"Asda","branch":"Ashford Superstore","fhrs:id":"264805","operator":"Asda Stores Ltd","addr:city":"Ashford","wheelchair":"yes","addr:street":"Kimberley Way","addr:country":"GB","addr:postcode":"TN24 0SE","opening_hours":"Mo-Sa 08:00-22:00; Su 10:00-16:00","brand:wikidata":"Q297410","brand:wikipedia":"en:Asda","contact:twitter":"@asda","contact:website":"https:\/\/storelocator.asda.com\/south-east\/ashford\/kimberley-way","contact:facebook":"https:\/\/www.facebook.com\/asda\/","toilets:wheelchair":"yes"}}, "geometry":{"type":"MultiPolygon","coordinates":[[[[0.87802,51.13396],[0.87908,51.13405],[0.87902,51.13434],[0.87915,51.13435],[0.87906,51.13481],[0.87786,51.13471],[0.87796,51.13422],[0.8779,51.13422],[0.8779,51.13421],[0.87793,51.13411],[0.87799,51.13411],[0.87802,51.13396]]]]}},
{ "type":"Feature","properties":{"osm_way_id":"199625561","name":"Tesco","building":"yes","shop":"supermarket","other":{"addr:housename":"Highbury Works","addr:postcode":"TN30 7LN","addr:street":"Tenterden Road","alt_name":"Tesco Tenderden Superstore","brand":"Tesco","brand:wikidata":"Q487494","brand:wikipedia":"en:Tesco"}}, "geometry":{"type":"MultiPolygon","coordinates":[[[[0.68521,51.0661],[0.68532,51.06548],[0.68543,51.06548],[0.68541,51.06561],[0.68544,51.06561],[0.68554,51.06576],[0.68596,51.06578],[0.68592,51.06599],[0.686,51.066],[0.68595,51.06631],[0.68527,51.06627],[0.6853,51.0661],[0.68521,51.0661]]]]}},
{ "type":"Feature","properties":{"osm_way_id":"199625562","name":"Waitrose","building":"yes","shop":"supermarket","other":{"addr:housenumber":"10","addr:postcode":"TN30 6BW","addr:street":"Sayers Lane","alt_name":"Waitrose Tenterden","brand":"Waitrose","brand:wikidata":"Q771734","brand:wikipedia":"en:Waitrose","official_name":"Waitrose & Partners","operator":"Waitrose & Partners"}}, "geometry":{"type":"MultiPolygon","coordinates":[[[[0.68841,51.06797],[0.68845,51.06791],[0.68852,51.0678],[0.6891,51.06794],[0.6892,51.06796],[0.68903,51.06824],[0.6889,51.06821],[0.68892,51.06818],[0.6887,51.06813],[0.68868,51.06816],[0.68836,51.06809],[0.68838,51.06805],[0.68832,51.06803],[0.68836,51.06796],[0.68841,51.06797]]]]}},
{ "type":"Feature","properties":{"osm_way_id":"203898912","name":"M&S Foodhall","building":"retail","shop":"supermarket","other":{"brand":"M&S Foodhall","operator":"Marks & Spencer Food Hall","brand:wikidata":"Q714491","brand:wikipedia":"en:Marks & Spencer"}}, "geometry":{"type":"MultiPolygon","coordinates":[[[[0.87237,51.15817],[0.87162,51.15819],[0.87161,51.15802],[0.87166,51.15802],[0.87236,51.158],[0.87237,51.15817]]]]}},
{ "type":"Feature","properties":{"osm_way_id":"256838150","name":"Co-op","building":"yes","shop":"supermarket"},"geometry":{"type":"MultiPolygon","coordinates":[[[[0.93692,51.18398],[0.93682,51.1838],[0.93702,51.18376],[0.93704,51.1838],[0.93712,51.18378],[0.93719,51.18392],[0.93692,51.18398]]]]}},
{ "type":"Feature","properties":{"osm_way_id":"887609487","building":"yes"},"geometry":{"type":"MultiPolygon","coordinates":[[[[0.69618,51.07173],[0.69623,51.07175],[0.69628,51.0717],[0.69623,51.07168],[0.69618,51.07173]]]]}},
{ "type":"Feature","properties":{"osm_way_id":"907811717","building":"house","other":{"addr:housenumber":"397","addr:street":"Hythe Road","building:levels":"2"}}, "geometry":{"type":"MultiPolygon","coordinates":[[[[0.90222,51.14164],[0.90221,51.14164],[0.90223,51.14167],[0.90213,51.1417],[0.90204,51.14159],[0.90215,51.14155],[0.90222,51.14164]]]]}}
]
}
