{
"type": "FeatureCollection",
"features": [
{ "type":"Feature","properties":{"osm_id":"519773392","name":"Co-op Food","other":{"addr:city":"Exeter","addr:housenumber":"61-63","addr:postcode":"EX1 2RJ","addr:street":"Fore Street","brand":"Co-op Food","brand:wikidata":"Q3277439","brand:wikipedia":"en:Co-op Food","fhrs:id":"752391","opening_hours":"Mo-Sa 07:00-23:00; Su 10:00-16:00","operator":"The Co-operative Group","phone":"+44 1392 276055","shop":"supermarket","toilets:wheelchair":"no","wheelchair":"yes"}}, "geometry":{"type":"Point","coordinates":[-3.50467,50.72144 ]}},
{ "type":"Feature","properties":{"osm_id":"537745174","name":"Co-op Food","other":{"addr:city":"Exeter","addr:postcode":"EX4 1AJ","addr:street":"Cowick Street","brand":"Co-op Food","brand:wikidata":"Q3277439","brand:wikipedia":"en:Co-op Food","operator":"Co-operative","shop":"supermarket","wheelchair":"yes"}}, "geometry":{"type":"Point","coordinates":[-3.54108,50.71729 ]}},
{ "type":"Feature","properties":{"osm_id":"639174733","name":"Tesco Express","other":{"addr:city":"Exeter","addr:housenumber":"5-9","addr:postcode":"EX4 2DQ","addr:street":"Winchester Avenue","brand":"Tesco Express","brand:wikidata":"Q98456772","contact:website":"https:\/\/www.tesco.com\/store-locator\/exeter\/5-9-winchester-ave","shop":"supermarket"}}, "geometry":{"type":"Point","coordinates":[-3.55013,50.72644 ]}},
{ "type":"Feature","properties":{"osm_id":"1488837368","name":"M&S Foodhall","other":{"brand":"M&S Foodhall","brand:wikidata":"Q714491","brand:wikipedia":"en:Marks & Spencer","shop":"supermarket"}}, "geometry":{"type":"Point","coordinates":[-3.53723,50.7168 ]}},
{ "type":"Feature","properties":{"osm_id":"2202301118","name":"Best One International Stores","other":{"shop":"supermarket","addr:city":"Exeter","addr:street":"Sidwell Street","addr:postcode":"EX4 6RY","addr:housenumber":"120-121"}}, "geometry":{"type":"Point","coordinates":[-3.52208,50.72797 ]}},
{ "type":"Feature","properties":{"osm_way_id":"36861691","name":"Aldi","building":"supermarket","shop":"supermarket","other":{"addr:city":"Exeter","addr:postcode":"EX4 8JD","addr:street":"Exhibition Way","alt_name":"ALDI Pinhoe","brand":"ALDI","brand:wikidata":"Q41171672","brand:wikipedia":"en:Aldi"}}, "geometry":{"type":"MultiPolygon","coordinates":[[[[-3.48008,50.73604],[-3.48045,50.73584],[-3.47983,50.73539],[-3.47947,50.73559],[-3.48008,50.73604]]]]}},
{ "type":"Feature","properties":{"osm_way_id":"40022293","name":"Sainsbury's","building":"yes","shop":"supermarket","other":{"addr:city":"Exeter","addr:postcode":"EX2 8NH","addr:street":"Alphington Road","alt_name":"Sainsbury's Alphington Road Superstore","brand":"Sainsbury's","brand:wikidata":"Q152096","brand:wikipedia":"en:Sainsbury's","operator":"Sainsbury's"}}, "geometry":{"type":"MultiPolygon","coordinates":[[[[-3.53682,50.70656],[-3.53682,50.70655],[-3.53683,50.70654],[-3.53683,50.70652],[-3.53682,50.7065],[-3.53678,50.70648],[-3.53673,50.70648],[-3.5367,50.70649],[-3.53668,50.7065],[-3.53636,50.70641],[-3.53626,50.70643],[-3.53617,50.70642],[-3.53615,50.70643],[-3.53573,50.70631],[-3.53572,50.70634],[-3.53566,50.70632],[-3.53544,50.70664],[-3.5353,50.70661],[-3.53516,50.70682],[-3.53545,50.7069],[-3.53546,50.70691],[-3.5361,50.70709],[-3.5361,50.70708],[-3.53625,50.70712],[-3.53627,50.7071],[-3.53641,50.70713],[-3.5368,50.70716],[-3.53699,50.70689],[-3.53702,50.70689],[-3.53707,50.70682],[-3.5371,50.70683],[-3.53721,50.70666],[-3.53682,50.70656]]]]}},
{ "type":"Feature","properties":{"osm_way_id":"50339209","name":"Aldi","building":"retail","shop":"supermarket","other":{"addr:city":"Exeter","addr:housename":"Aldi","addr:postcode":"EX2 8HG","addr:street":"Alphington Road","alt_name":"ALDI Exeter","brand":"ALDI","brand:wikidata":"Q41171672","brand:wikipedia":"en:Aldi"}}, "geometry":{"type":"MultiPolygon","coordinates":[[[[-3.53609,50.71386],[-3.53572,50.71427],[-3.5355,50.71419],[-3.53554,50.71414],[-3.53547,50.71411],[-3.53551,50.71406],[-3.5358,50.71375],[-3.53609,50.71386]]]]}},
{ "type":"Feature","properties":{"osm_way_id":"84235131","name":"Sainsbury's","building":"yes","shop":"supermarket","other":{"addr:city":"Exeter","addr:housenumber":"1","addr:postcode":"EX1 3PF","addr:street":"Hill Barton Road","alt_name":"Sainsbury's Pinhoe Road Superstore","brand":"Sainsbury's","brand:wikidata":"Q152096","brand:wikipedia":"en:Sainsbury's","fhrs:id":"164512","opening_hours":"Mo-Fr 7:00-23:00; Sa 7:00-22:00; Su 7:00-16:00","operator":"Sainsbury's Supermarkets Ltd.","phone":"+44 1392 460669","source:addr":"FHRS Open Data","wheelchair":"yes"}}, "geometry":{"type":"MultiPolygon","coordinates":[[[[-3.47994,50.73371],[-3.47978,50.73348],[-3.47959,50.7332],[-3.47965,50.73319],[-3.4796,50.73312],[-3.47951,50.73297],[-3.48062,50.73267],[-3.48082,50.73297],[-3.48077,50.73298],[-3.48087,50.73312],[-3.48102,50.73308],[-3.48112,50.73322],[-3.48088,50.73329],[-3.48098,50.73343],[-3.47994,50.73371]]]]}},
{ "type":"Feature","properties":{"osm_way_id":"114939177","name":"Tesco Extra","building":"retail","shop":"supermarket","other":{"addr:city":"Exeter","addr:housename":"Exeter Vale Shopping Centre","addr:postcode":"EX2 7EZ","addr:street":"Russell Way","alt_name":"Tesco Exeter Vale Extra","brand":"Tesco Extra","brand:wikidata":"Q25172225","brand:wikipedia":"en:Tesco Extra","fhrs:id":"167716","opening_hours":"Mo-Sa 06:00- 24:00; Su 10:00-16:00"}}, "geometry":{"type":"MultiPolygon","coordinates":[[[[-3.48256,50.70904],[-3.48158,50.70858],[-3.48203,50.70821],[-3.48167,50.70807],[-3.48175,50.708],[-3.48252,50.70796],[-3.48254,50.70807],[-3.48295,50.70828],[-3.48314,50.70813],[-3.48333,50.70822],[-3.48326,50.70827],[-3.48336,50.70832],[-3.48323,50.70842],[-3.48334,50.70847],[-3.48349,50.70835],[-3.48355,50.70835],[-3.48359,50.70837],[-3.48343,50.70851],[-3.48348,50.70854],[-3.48336,50.70866],[-3.48351,50.70873],[-3.48322,50.70897],[-3.48308,50.70889],[-3.48314,50.70884],[-3.48301,50.70878],[-3.48293,50.70885],[-3.48284,50.70881],[-3.48256,50.70904]]]]}},
{ "type":"Feature","properties":{"osm_way_id":"119621860","name":"Lidl","building":"retail","shop":"supermarket","other":{"addr:city":"Exeter","addr:postcode":"EX2 6NF","addr:street":"Burnthouse Lane","addr:suburb":"Wonford","brand":"Lidl","brand:wikidata":"Q151954","brand:wikipedia":"en:Lidl","fhrs:id":"941478","opening_hours":"Mo-Sa 07:00-22:00; Su 10:00-16:00; PH 08:00-20:00","toilets:wheelchair":"no","wheelchair":"yes"}}, "geometry":{"type":"MultiPolygon","coordinates":[[[[-3.49834,50.71393],[-3.49784,50.71344],[-3.49781,50.71345],[-3.49776,50.7134],[-3.49737,50.71356],[-3.49742,50.71361],[-3.49741,50.71361],[-3.49792,50.71411],[-3.49834,50.71393]]]]}},
{ "type":"Feature","properties":{"osm_way_id":"152407173","name":"Waitrose","building":"yes","shop":"supermarket","other":{"addr:city":"Exeter","addr:postcode":"EX1 2ED","addr:street":"Gladstone Road","alt_name":"Waitrose Exeter","brand":"Waitrose","brand:wikidata":"Q771734","brand:wikipedia":"en:Waitrose & Partners","official_name":"Waitrose & Partners","operator":"Waitrose & Partners","wheelchair":"yes"}}, "geometry":{"type":"MultiPolygon","coordinates":[[[[-3.51485,50.72445],[-3.51437,50.72406],[-3.51499,50.72377],[-3.51542,50.7241],[-3.51509,50.72427],[-3.51512,50.72429],[-3.51514,50.72439],[-3.51504,50.7244],[-3.51497,50.72439],[-3.51485,50.72445]]]]}},
{ "type":"Feature","properties":{"osm_way_id":"186341412","name":"Lidl","building":"yes","shop":"supermarket","other":{"addr:city":"Exeter","addr:postcode":"EX2 8TT","addr:street":"Powlesland Road","alt_name":"LIDL Alphington","brand":"Lidl","brand:wikidata":"Q151954","brand:wikipedia":"en:Lidl","fhrs:authority":"Exeter City","fhrs:businesstype":"Retailers - supermarkets\/hypermarkets","fhrs:id":"180804","fhrs:local_authority_id":"PI\/000067126","fhrs:rating":"5"}}, "geometry":{"type":"MultiPolygon","coordinates":[[[[-3.53181,50.7015],[-3.5311,50.70131],[-3.53089,50.70162],[-3.53129,50.70173],[-3.53135,50.70165],[-3.53166,50.70173],[-3.53181,50.7015]]]]}},
{ "type":"Feature","properties":{"osm_way_id":"192676156","name":"Morrisons","building":"yes","shop":"supermarket","other":{"addr:city":"Exeter","addr:postcode":"EX4 7BY","addr:street":"Prince Charles Road","brand":"Morrisons","brand:wikidata":"Q922344","brand:wikipedia":"en:Morrisons","fhrs:id":"172528","wheelchair":"yes"}}, "geometry":{"type":"MultiPolygon","coordinates":[[[[-3.50249,50.73361],[-3.50397,50.73369],[-3.50392,50.73399],[-3.50407,50.734],[-3.50406,50.73406],[-3.50406,50.73408],[-3.50405,50.7341],[-3.50405,50.73414],[-3.50392,50.73413],[-3.50391,50.73418],[-3.50356,50.73417],[-3.50283,50.73413],[-3.50285,50.734],[-3.50275,50.734],[-3.50276,50.73388],[-3.50264,50.73387],[-3.50265,50.73384],[-3.50246,50.73383],[-3.50249,50.73361]]]]}},
{ "type":"Feature","properties":{"osm_way_id":"249410908","name":"Co-op Food","building":"yes","shop":"supermarket","other":{"addr:city":"Exeter","addr:postcode":"EX4 1QT","addr:street":"Isleworth Road","brand":"Co-op Food","brand:wikidata":"Q3277439","brand:wikipedia":"en:Co-op Food","building:levels":"2","roof:shape":"gabled"}}, "geometry":{"type":"MultiPolygon","coordinates":[[[[-3.54975,50.72048],[-3.5497,50.72052],[-3.5496,50.72059],[-3.5497,50.72065],[-3.54977,50.72061],[-3.54981,50.72063],[-3.54984,50.72061],[-3.5499,50.72057],[-3.54975,50.72048]]]]}},
{ "type":"Feature","properties":{"osm_way_id":"288907761","name":"Tesco Express","building":"yes","shop":"supermarket","other":{"addr:city":"Exeter","addr:housenumber":"71-73","addr:postcode":"EX4 6PJ","addr:street":"Sidwell Street","brand":"Tesco Express","brand:wikidata":"Q98456772","brand:wikipedia":"en:Tesco","opening_hours":"06:00-23:00"}}, "geometry":{"type":"MultiPolygon","coordinates":[[[[-3.52234,50.72824],[-3.52211,50.72835],[-3.52224,50.72845],[-3.52233,50.7284],[-3.52251,50.7283],[-3.52248,50.72827],[-3.52243,50.7283],[-3.52234,50.72824]]]]}},
{ "type":"Feature","properties":{"osm_way_id":"449048785","name":"Aldi","building":"yes","shop":"supermarket","other":{"brand":"ALDI","brand:wikidata":"Q41171672","brand:wikipedia":"en:Aldi"}}, "geometry":{"type":"MultiPolygon","coordinates":[[[[-3.47858,50.69183],[-3.47883,50.69164],[-3.4788,50.69162],[-3.47902,50.69144],[-3.47881,50.69133],[-3.47885,50.69129],[-3.47873,50.69123],[-3.4782,50.69164],[-3.47858,50.69183]]]]}},
{ "type":"Feature","properties":{"osm_way_id":"538847877","name":"Sainsbury's","shop":"supermarket","other":{"addr:city":"Exeter","addr:housename":"Guildhall Shopping Centre","addr:postcode":"EX4 3HH","brand":"Sainsbury's","brand:wikidata":"Q152096","brand:wikipedia":"en:Sainsbury's","fhrs:id":"163827","indoor":"room","level":"0","room":"shop","source:addr":"FHRS Open Data","wheelchair":"yes"}}, "geometry":{"type":"MultiPolygon","coordinates":[[[[-3.5336,50.72324],[-3.53341,50.72335],[-3.53349,50.7234],[-3.53313,50.72364],[-3.53328,50.72372],[-3.53386,50.72341],[-3.53383,50.72339],[-3.5336,50.72324]]]]}}
]
}
