{
"type": "FeatureCollection",
"features": [
{ "type":"Feature","properties":{"osm_id":"340030769","name":"East of England Co-op","other":{"addr:city":"Sible Hedingham","addr:housenumber":"116","addr:postcode":"CO9 3HP","addr:street":"Swan Street","operator":"East of England Co-operative","shop":"supermarket","source:addr":"Food hygiene open data"}}, "geometry":{"type":"Point","coordinates":[0.59347,51.97671 ]}},
{ "type":"Feature","properties":{"osm_id":"428889293","name":"Sainsbury's","other":{"shop":"supermarket","brand":"Sainsbury's","brand:wikidata":"Q152096","brand:wikipedia":"en:Sainsbury's"}}, "geometry":{"type":"Point","coordinates":[0.6364,51.94442 ]}},
{ "type":"Feature","properties":{"osm_id":"974750593","name":"Co-op Food","other":{"addr:city":"Earls Colne","addr:housenumber":"37","addr:postcode":"CO6 2PA","addr:street":"High Street","brand":"Co-op Food","brand:wikidata":"Q3277439","brand:wikipedia":"en:Co-op Food","operator":"East Of England Co-op","shop":"supermarket","source:addr":"Food hygiene open data"}}, "geometry":{"type":"Point","coordinates":[0.69995,51.92799 ]}},
{ "type":"Feature","properties":{"osm_id":"1197722770","name":"The Co-operative Food","other":{"shop":"supermarket","brand":"The Co-operative Food","brand:wikidata":"Q3277439","brand:wikipedia":"en:Co-op Food"}}, "geometry":{"type":"Point","coordinates":[0.59786,51.77658 ]}},
{ "type":"Feature","properties":{"osm_id":"5141550427","name":"Iceland","other":{"brand":"Iceland","brand:wikidata":"Q721810","name:en":"Iceland","shop":"supermarket"}}, "geometry":{"type":"Point","coordinates":[0.63868,51.79999 ]}},
{ "type":"Feature","properties":{"osm_id":"8235149858","name":"Co-op Food","other":{"brand":"Co-op Food","brand:wikidata":"Q3277439","brand:wikipedia":"en:Co-op Food","shop":"supermarket"}}, "geometry":{"type":"Point","coordinates":[0.62533,51.80488 ]}},
{ "type":"Feature","properties":{"osm_way_id":"56975679","name":"East of England Co-op Supermarket","building":"yes","shop":"supermarket"},"geometry":{"type":"MultiPolygon","coordinates":[[[[0.63611,51.94346],[0.63581,51.9433],[0.63584,51.94328],[0.6357,51.94321],[0.63631,51.94274],[0.63663,51.94289],[0.63678,51.94297],[0.63611,51.94346]]]]}},
{ "type":"Feature","properties":{"osm_way_id":"59924608","name":"Lidl","building":"yes","shop":"supermarket","other":{"addr:country":"GB","addr:postcode":"CO9 1HL","addr:street":"Kings Road","brand":"Lidl","brand:wikidata":"Q151954","brand:wikipedia":"en:Lidl","fhrs:id":"1005736","survey:date":"2017-10-03"}}, "geometry":{"type":"MultiPolygon","coordinates":[[[[0.63376,51.94293],[0.63399,51.94305],[0.63413,51.94313],[0.63435,51.94297],[0.63429,51.94294],[0.6347,51.94264],[0.63439,51.94248],[0.63376,51.94293]]]]}},
{ "type":"Feature","properties":{"osm_way_id":"68419106","name":"Morrisons","building":"yes","shop":"supermarket","other":{"addr:postcode":"CM8 2BY","addr:street":"Braintree Road","brand":"Morrisons","brand:wikidata":"Q922344","brand:wikipedia":"en:Morrisons","designation":"Witham"}}, "geometry":{"type":"MultiPolygon","coordinates":[[[[0.6398,51.80939],[0.63968,51.80929],[0.63993,51.80917],[0.64005,51.80926],[0.64027,51.80916],[0.63983,51.8088],[0.63993,51.80875],[0.63963,51.80852],[0.63919,51.80873],[0.63926,51.80879],[0.6389,51.80896],[0.63957,51.8095],[0.6398,51.80939]]]]}},
{ "type":"Feature","properties":{"osm_way_id":"166715793","name":"Asda","building":"yes","shop":"supermarket","other":{"brand":"Asda","fhrs:id":"301164","operator":"Asda Stores Ltd","addr:city":"Witham","addr:street":"Highfields Road","designation":"Witham Highfields Road Supermarket","addr:country":"GB","addr:postcode":"CM8 2HJ","brand:wikidata":"Q297410","brand:wikipedia":"en:Asda","contact:twitter":"@asda","contact:website":"https:\/\/storelocator.asda.com\/east-of-england\/witham\/24-highfields-road","addr:housenumber":"24","contact:facebook":"https:\/\/www.facebook.com\/asda\/"}}, "geometry":{"type":"MultiPolygon","coordinates":[[[[0.63055,51.80095],[0.62985,51.80082],[0.62982,51.80089],[0.62971,51.80111],[0.63041,51.80124],[0.63055,51.80095]]]]}},
{ "type":"Feature","properties":{"osm_way_id":"166716364","name":"Tesco","building":"yes","shop":"supermarket","other":{"brand":"Tesco","operator":"Tesco Stores Ltd","designation":"Witham Superstore","addr:postcode":"CM8 2YT","addr:housename":"The Grove Centre","brand:wikidata":"Q487494","brand:wikipedia":"en:Tesco"}}, "geometry":{"type":"MultiPolygon","coordinates":[[[[0.6426,51.79928],[0.64305,51.79887],[0.64315,51.79892],[0.64322,51.79886],[0.64381,51.7991],[0.64377,51.79913],[0.64388,51.79918],[0.64368,51.79936],[0.64357,51.79931],[0.64341,51.79946],[0.64332,51.79947],[0.64318,51.79941],[0.64309,51.79949],[0.6426,51.79928]]]]}},
{ "type":"Feature","properties":{"osm_way_id":"177805719","name":"Tesco","building":"retail","shop":"supermarket","other":{"addr:city":"Braintree","addr:housename":"Marks Farm","addr:postcode":"CM77 8AA","addr:street":"Coggeshall Road","alt_name":"Tesco Braintree Marks Farm Superstore","brand":"Tesco","brand:wikidata":"Q487494","brand:wikipedia":"en:Tesco","check_date:opening_hours":"2021-06-18","opening_hours":"Mo-Sa 06:00-24:00; Su 12:00-18:00","operator":"Tesco Stores Ltd"}}, "geometry":{"type":"MultiPolygon","coordinates":[[[[0.58226,51.88128],[0.58337,51.88122],[0.58329,51.88064],[0.58335,51.88063],[0.58334,51.88054],[0.58295,51.88056],[0.58295,51.88051],[0.58255,51.88054],[0.58256,51.88058],[0.58214,51.8806],[0.58221,51.88107],[0.58211,51.88107],[0.58211,51.88104],[0.58193,51.88105],[0.58195,51.88115],[0.58232,51.88113],[0.58233,51.8812],[0.58225,51.8812],[0.58226,51.88128]]]]}},
{ "type":"Feature","properties":{"osm_way_id":"177805720","name":"Tesco","building":"yes","shop":"supermarket","other":{"addr:city":"Braintree","addr:postcode":"CM7 1ES","addr:street":"Market Place","alt_name":"Tesco Braintree Town Centre Superstore","brand":"Tesco","brand:wikidata":"Q487494","brand:wikipedia":"en:Tesco","contact:website":"https:\/\/www.tesco.com\/store-locator\/braintree\/market-place","opening_hours":"Mo-We,Sa 06:00-20:00; Th-Fr 06:00-21:00; Su 10:00-16:00","operator":"Tesco Stores Ltd","phone":"+44 345 677 9075","wheelchair":"yes"}}, "geometry":{"type":"MultiPolygon","coordinates":[[[[0.55189,51.878],[0.55189,51.87784],[0.55205,51.87784],[0.55205,51.87759],[0.55251,51.87758],[0.55251,51.87769],[0.55285,51.87768],[0.55286,51.8778],[0.55294,51.8778],[0.55294,51.87791],[0.55286,51.87791],[0.55286,51.87805],[0.5527,51.87804],[0.55268,51.87811],[0.55255,51.8781],[0.55256,51.87803],[0.55189,51.878]]]]}},
{ "type":"Feature","properties":{"osm_way_id":"177805980","name":"Tesco","building":"yes","shop":"supermarket","other":{"brand":"Tesco","operator":"Tesco Stores Ltd","addr:city":"Braintree","addr:street":"Notley Green","addr:postcode":"CM77 7WW","opening_hours":"Mo-Sa 00:00-23:59; Su 10:00-16:00","addr:housename":"1 The Square","brand:wikidata":"Q487494","brand:wikipedia":"en:Tesco","opening_hours:covid19":"Mo-Sa 08:00-22:00; Su 10:00-16:00"}}, "geometry":{"type":"MultiPolygon","coordinates":[[[[0.52234,51.85798],[0.52306,51.85778],[0.52316,51.85792],[0.52345,51.85784],[0.52318,51.85747],[0.52308,51.8575],[0.52294,51.85731],[0.52262,51.8574],[0.52253,51.85728],[0.52247,51.8572],[0.52189,51.85736],[0.52234,51.85798]]]]}},
{ "type":"Feature","properties":{"osm_way_id":"177806542","name":"Sainsbury's","building":"yes","shop":"supermarket","other":{"addr:city":"Braintree","addr:housenumber":"1","addr:postcode":"CM7 1XH","addr:street":"Tofts Walk","alt_name":"Sainsbury's Braintree Superstore","brand":"Sainsbury's","brand:wikidata":"Q152096","brand:wikipedia":"en:Sainsbury's","contact:website":"https:\/\/stores.sainsburys.co.uk\/0224\/braintree","opening_hours":"Mo-We,Sa 07:00-20:00; Th-Fr 07:00-21:00; Su 10:00-16:00","phone":"+44 1376 551308"}}, "geometry":{"type":"MultiPolygon","coordinates":[[[[0.55214,51.87886],[0.5522,51.87883],[0.55224,51.87886],[0.55234,51.87887],[0.55235,51.87884],[0.55252,51.87886],[0.55256,51.87873],[0.55312,51.87878],[0.55312,51.8788],[0.55314,51.8788],[0.55315,51.87878],[0.55323,51.87874],[0.55327,51.87875],[0.55327,51.87873],[0.55334,51.87873],[0.5534,51.87879],[0.55333,51.87903],[0.55328,51.87905],[0.55322,51.87905],[0.55318,51.87921],[0.55322,51.87921],[0.55324,51.87923],[0.55323,51.87926],[0.55319,51.87928],[0.55316,51.87927],[0.55314,51.87925],[0.55314,51.87923],[0.55281,51.87919],[0.5528,51.87921],[0.55273,51.8792],[0.55274,51.87914],[0.55229,51.87909],[0.55228,51.87913],[0.55206,51.87909],[0.5521,51.87897],[0.55216,51.87897],[0.55218,51.87889],[0.55214,51.87886]]]]}},
{ "type":"Feature","properties":{"osm_way_id":"212843795","name":"Lidl","building":"yes","shop":"supermarket","other":{"addr:city":"Braintree","addr:country":"GB","addr:postcode":"CM7 2QS","addr:street":"Rayne Road","brand":"Lidl","brand:wikidata":"Q151954","brand:wikipedia":"en:Lidl","fhrs:id":"301044","opening_hours":"Mo-Sa 07:00-22:00; Su 10:00-16:00"}}, "geometry":{"type":"MultiPolygon","coordinates":[[[[0.53636,51.87929],[0.53643,51.8791],[0.53653,51.87875],[0.53657,51.87867],[0.53705,51.87873],[0.53699,51.87891],[0.53693,51.8789],[0.5368,51.87928],[0.53659,51.87925],[0.53657,51.87932],[0.53636,51.87929]]]]}},
{ "type":"Feature","properties":{"osm_way_id":"274092862","name":"Co-op","building":"yes","shop":"supermarket","other":{"alt_name":"The Co-operative Food","addr:street":"Brook Street","addr:postcode":"CM7 4RQ","addr:housename":"1 St John's Terrace"}}, "geometry":{"type":"MultiPolygon","coordinates":[[[[0.43857,51.94823],[0.43857,51.94816],[0.43876,51.94816],[0.43876,51.94826],[0.4387,51.94827],[0.43869,51.94837],[0.43858,51.94836],[0.43857,51.94823]]]]}},
{ "type":"Feature","properties":{"osm_way_id":"380540807","name":"Aldi","building":"yes","shop":"supermarket","other":{"addr:city":"Witham","addr:street":"Gershwin Park","brand":"ALDI","brand:wikidata":"Q41171672","brand:wikipedia":"en:Aldi","opening_hours":"Mo-Sa 08:00-22:00; Su 10:00-16:00"}}, "geometry":{"type":"MultiPolygon","coordinates":[[[[0.62283,51.78792],[0.62337,51.78761],[0.62331,51.78757],[0.62325,51.7876],[0.62306,51.78747],[0.62257,51.78774],[0.62283,51.78792]]]]}},
{ "type":"Feature","properties":{"osm_way_id":"457095502","name":"The Co-operative Food","building":"yes","shop":"supermarket","other":{"addr:city":"Bocking Churchstreet","addr:street":"Church Street","addr:postcode":"CM7 5JY","opening_hours":"Mo-Su 07:00-22:00","addr:housenumber":"62"}}, "geometry":{"type":"MultiPolygon","coordinates":[[[[0.55426,51.90197],[0.5545,51.90184],[0.55463,51.90194],[0.55439,51.90207],[0.55426,51.90197]]]]}},
{ "type":"Feature","properties":{"osm_way_id":"468532910","name":"Co-op Daily","shop":"supermarket","other":{"addr:city":"Coggeshall","addr:housenumber":"62-66","addr:postcode":"CO6 1SJ","addr:street":"East Street","operator":"East of England Co-op","source:addr":"Food Hygiene Open Data"}}, "geometry":{"type":"MultiPolygon","coordinates":[[[[0.68993,51.87127],[0.69048,51.87118],[0.69111,51.8712],[0.69121,51.87077],[0.69087,51.87076],[0.69084,51.87085],[0.69039,51.87081],[0.69027,51.87088],[0.69002,51.87086],[0.68993,51.87127]]]]}},
{ "type":"Feature","properties":{"osm_way_id":"490481876","name":"M&S Simply Food","building":"yes","shop":"supermarket","other":{"brand":"M&S Simply Food","addr:city":"Braintree","addr:street":"Charter Way","addr:postcode":"CM77 8YJ","brand:wikidata":"Q714491","brand:wikipedia":"en:Marks & Spencer","addr:housenumber":"Unit 7"}}, "geometry":{"type":"MultiPolygon","coordinates":[[[[0.57439,51.86866],[0.57372,51.86853],[0.57386,51.86827],[0.57453,51.86841],[0.57439,51.86866]]]]}},
{ "type":"Feature","properties":{"osm_way_id":"853042046","name":"Lidl","building":"supermarket","shop":"supermarket","other":{"addr:country":"GB","addr:postcode":"CM8 1BT","addr:street":"Bridge Street","brand":"Lidl","brand:wikidata":"Q151954","brand:wikipedia":"en:Lidl","fhrs:id":"1197778","survey:date":"2019-10-21"}}, "geometry":{"type":"MultiPolygon","coordinates":[[[[0.63479,51.79733],[0.63506,51.79708],[0.63416,51.79671],[0.63397,51.7969],[0.6339,51.79688],[0.63383,51.79695],[0.63479,51.79733]]]]}},
{ "type":"Feature","properties":{"osm_way_id":"889263677","name":"Coop Foodstore","building":"retail","shop":"supermarket","other":{"brand":"Co-op Food","brand:wikidata":"Q3277439","brand:wikipedia":"en:Co-op Food"}}, "geometry":{"type":"MultiPolygon","coordinates":[[[[0.69939,51.83597],[0.69959,51.83614],[0.69934,51.83625],[0.69915,51.83609],[0.69939,51.83597]]]]}}
]
}
