{
"type": "FeatureCollection",
"features": [
{ "type":"Feature","properties":{"osm_id":"1659262468","name":"The Co-operative Food","other":{"shop":"supermarket","operator":"The Co-operative Group","addr:city":"Martock","addr:street":"North Street","addr:postcode":"TA12 6DL","addr:housename":"The Martlock Centre"}}, "geometry":{"type":"Point","coordinates":[-2.76588,50.97135 ]}},
{ "type":"Feature","properties":{"osm_id":"3634990613","name":"The Co-operative","other":{"shop":"supermarket"}}, "geometry":{"type":"Point","coordinates":[-2.62977,50.95734 ]}},
{ "type":"Feature","properties":{"osm_id":"3747395553","name":"Tesco Express","other":{"abandoned:amenity":"pub","brand":"Tesco Express","brand:wikidata":"Q98456772","contact:website":"https:\/\/www.tesco.com\/store-locator\/yeovil\/147-ilchester-rd","old_name":"Picketty Witch","shop":"supermarket"}}, "geometry":{"type":"Point","coordinates":[-2.6449,50.95259 ]}},
{ "type":"Feature","properties":{"osm_id":"4234615404","name":"Londis","other":{"addr:city":"Somerton","addr:housename":"Select And Save","addr:postcode":"TA11 6RT","addr:street":"Langport Road","brand":"Londis","brand:wikidata":"Q21008564","brand:wikipedia":"en:Londis (United Kingdom)","shop":"supermarket"}}, "geometry":{"type":"Point","coordinates":[-2.73702,51.05502 ]}},
{ "type":"Feature","properties":{"osm_id":"4680609619","name":"Spar","other":{"brand":"Spar","brand:wikidata":"Q610492","brand:wikipedia":"en:Spar (retailer)","shop":"supermarket"}}, "geometry":{"type":"Point","coordinates":[-2.62915,50.94399 ]}},
{ "type":"Feature","properties":{"osm_id":"5065082758","name":"Co-op Food","other":{"brand":"Co-op Food","brand:wikidata":"Q3277439","brand:wikipedia":"en:Co-op Food","operator":"The Co-operative Group","operator:wikidata":"Q117202","operator:wikipedia":"en:The Co-operative Group","shop":"supermarket"}}, "geometry":{"type":"Point","coordinates":[-2.51411,51.08881 ]}},
{ "type":"Feature","properties":{"osm_way_id":"39207565","name":"Tesco","building":"yes","shop":"supermarket","other":{"addr:city":"Chard","addr:postcode":"TA20 2LW","addr:street":"Tapstone Road","alt_name":"Tesco Chard Superstore","brand":"Tesco","brand:wikidata":"Q487494","brand:wikipedia":"en:Tesco","diet:kosher":"no","fhrs:id":"88707","opening_hours":"Mo-Sa 08:00-22:00; Su 10:00-16:00","ref:GB:uprn":"30070910","wheelchair":"yes"}}, "geometry":{"type":"MultiPolygon","coordinates":[[[[-2.95445,50.87448],[-2.95452,50.87439],[-2.95457,50.8744],[-2.95455,50.87443],[-2.9546,50.87445],[-2.95482,50.87446],[-2.95486,50.87446],[-2.95489,50.87442],[-2.95479,50.87439],[-2.95482,50.87435],[-2.95484,50.87435],[-2.95491,50.87425],[-2.95483,50.87422],[-2.95485,50.8742],[-2.9547,50.87416],[-2.9548,50.87403],[-2.95394,50.87375],[-2.95389,50.87381],[-2.95358,50.8742],[-2.95445,50.87448]]]]}},
{ "type":"Feature","properties":{"osm_way_id":"92931496","name":"Asda","building":"supermarket","shop":"supermarket","other":{"brand":"Asda","alt_name":"ASDA Yeovil Superstore","operator":"Asda Stores Ltd","addr:city":"Yeovil","addr:street":"Preston Road","addr:postcode":"BA20 2HB","brand:wikidata":"Q297410","brand:wikipedia":"en:Asda","contact:twitter":"@asda","contact:website":"https:\/\/storelocator.asda.com\/south-west\/yeovil\/preston-road","contact:facebook":"https:\/\/www.facebook.com\/asda\/"}}, "geometry":{"type":"MultiPolygon","coordinates":[[[[-2.66853,50.9434],[-2.66848,50.9434],[-2.66835,50.94349],[-2.66822,50.9434],[-2.6682,50.9434],[-2.6682,50.94341],[-2.66816,50.94343],[-2.66813,50.94341],[-2.66813,50.9434],[-2.66785,50.9434],[-2.66784,50.94347],[-2.6678,50.94361],[-2.66772,50.9436],[-2.6677,50.94366],[-2.66762,50.94366],[-2.66761,50.94358],[-2.66764,50.94358],[-2.66762,50.94264],[-2.66852,50.94263],[-2.66852,50.94264],[-2.66852,50.94269],[-2.66854,50.94269],[-2.66855,50.94286],[-2.66859,50.94286],[-2.6686,50.9431],[-2.66863,50.9431],[-2.66863,50.94335],[-2.66863,50.94339],[-2.66853,50.94339],[-2.66853,50.9434]]]]}},
{ "type":"Feature","properties":{"osm_way_id":"108690629","name":"Spar","building":"yes","shop":"supermarket","other":{"brand":"Spar","brand:wikidata":"Q610492"}}, "geometry":{"type":"MultiPolygon","coordinates":[[[[-2.57256,51.03023],[-2.57269,51.03026],[-2.57258,51.03045],[-2.57245,51.03042],[-2.57256,51.03023]]]]}},
{ "type":"Feature","properties":{"osm_way_id":"124705375","name":"Morrisons","building":"yes","shop":"supermarket","other":{"addr:city":"Yeovil","addr:postcode":"BA20 2AU","addr:street":"Lysander Road","alt_name":"Morrisons Yeovil","brand":"Morrisons","brand:wikidata":"Q922344","brand:wikipedia":"en:Morrisons"}}, "geometry":{"type":"MultiPolygon","coordinates":[[[[-2.64803,50.93475],[-2.648,50.93505],[-2.648,50.93508],[-2.64821,50.93509],[-2.64816,50.93555],[-2.64907,50.93559],[-2.64908,50.93548],[-2.6493,50.93549],[-2.64933,50.93528],[-2.64914,50.93528],[-2.64915,50.93515],[-2.64932,50.93516],[-2.64942,50.93511],[-2.64944,50.93499],[-2.64935,50.93498],[-2.64936,50.93489],[-2.64855,50.93486],[-2.64855,50.93481],[-2.64854,50.93481],[-2.64854,50.93477],[-2.64804,50.93475],[-2.64803,50.93475]]]]}},
{ "type":"Feature","properties":{"osm_way_id":"126043684","name":"Sainsbury's","building":"yes","shop":"supermarket","other":{"brand":"Sainsbury's","alt_name":"Sainsbury's Chard Superstore","operator":"Sainsbury's","addr:city":"Chard","addr:street":"Holyrood Street","addr:postcode":"TA20 2DN","opening_hours":"Mo-Fr 07:00-21:00; Sa 07:00-20:00; Su 10:00-16:00","brand:wikidata":"Q152096","brand:wikipedia":"en:Sainsbury's","addr:housenumber":"30"}}, "geometry":{"type":"MultiPolygon","coordinates":[[[[-2.96662,50.87165],[-2.96662,50.87159],[-2.96658,50.87159],[-2.96658,50.87157],[-2.96655,50.87157],[-2.96655,50.87153],[-2.96646,50.87154],[-2.96645,50.87144],[-2.96552,50.87147],[-2.96552,50.87146],[-2.96543,50.87147],[-2.96545,50.8715],[-2.96544,50.87151],[-2.96545,50.87152],[-2.96547,50.87152],[-2.96549,50.87155],[-2.96548,50.87156],[-2.9655,50.87159],[-2.96552,50.87159],[-2.96552,50.8716],[-2.96551,50.87161],[-2.96556,50.87168],[-2.96573,50.87168],[-2.96662,50.87165]]]]}},
{ "type":"Feature","properties":{"osm_way_id":"126213864","name":"Tesco","building":"yes","shop":"supermarket","other":{"brand":"Tesco","branch":"Ilminster Superstore","fhrs:id":"97297","addr:city":"Ilminster","addr:county":"Somerset","addr:street":"Shudrick Lane","addr:country":"GB","addr:postcode":"TA19 0BN","opening_hours":"Mo-Sa 07:00-23:00; Su 10:00-16:00","brand:wikidata":"Q487494","brand:wikipedia":"en:Tesco"}}, "geometry":{"type":"MultiPolygon","coordinates":[[[[-2.90958,50.92553],[-2.90968,50.92555],[-2.90965,50.92561],[-2.90956,50.92559],[-2.90952,50.92568],[-2.90975,50.92572],[-2.90971,50.92581],[-2.90948,50.92578],[-2.90945,50.92585],[-2.90944,50.92585],[-2.90943,50.92588],[-2.90935,50.92587],[-2.9093,50.92587],[-2.90926,50.92587],[-2.90921,50.92588],[-2.90917,50.92589],[-2.90914,50.9259],[-2.90911,50.92591],[-2.90901,50.92592],[-2.90901,50.92582],[-2.90894,50.92581],[-2.90882,50.92581],[-2.9084,50.92574],[-2.90855,50.92536],[-2.9086,50.92537],[-2.90859,50.92537],[-2.90958,50.92553]]]]}},
{ "type":"Feature","properties":{"osm_way_id":"153269464","name":"Tesco Extra","building":"retail","shop":"supermarket","other":{"addr:city":"Yeovil","addr:postcode":"BA20 1DL","addr:street":"Queensway","alt_name":"Tesco Yeovil Extra","brand":"Tesco Extra","brand:wikidata":"Q25172225","brand:wikipedia":"en:Tesco Extra"}}, "geometry":{"type":"MultiPolygon","coordinates":[[[[-2.63799,50.94265],[-2.63644,50.94248],[-2.63667,50.94162],[-2.63669,50.94162],[-2.6367,50.94157],[-2.63681,50.94158],[-2.63681,50.9416],[-2.63714,50.94162],[-2.63715,50.9416],[-2.63753,50.94165],[-2.63753,50.94168],[-2.63764,50.94169],[-2.63762,50.94175],[-2.63832,50.94182],[-2.63831,50.94189],[-2.63809,50.94186],[-2.63808,50.9419],[-2.63797,50.94194],[-2.63792,50.94194],[-2.63789,50.94207],[-2.63783,50.94207],[-2.6378,50.94217],[-2.63786,50.94217],[-2.63793,50.94218],[-2.63789,50.94235],[-2.63804,50.94237],[-2.6381,50.94213],[-2.63824,50.94215],[-2.63818,50.94241],[-2.63816,50.9424],[-2.63812,50.94256],[-2.63802,50.94255],[-2.63799,50.94265]]]]}},
{ "type":"Feature","properties":{"osm_way_id":"160473431","name":"Waitrose","building":"yes","shop":"supermarket","other":{"addr:city":"Crewkerne","addr:postcode":"TA18 8DA","addr:street":"South Street","branch":"Crewkerne","brand":"Waitrose & Partners","brand:wikidata":"Q771734","brand:wikipedia":"en:Waitrose & Partners","opening_hours":"Mo-Sa 08:00-20:00; Su 10:00-16:00","operator":"Waitrose & Partners"}}, "geometry":{"type":"MultiPolygon","coordinates":[[[[-2.79445,50.88385],[-2.79455,50.88349],[-2.79457,50.8835],[-2.7946,50.88342],[-2.79424,50.88338],[-2.79396,50.88339],[-2.79394,50.88337],[-2.79386,50.88336],[-2.79374,50.88346],[-2.79367,50.88373],[-2.79407,50.88377],[-2.79406,50.88381],[-2.79445,50.88385]]]]}},
{ "type":"Feature","properties":{"osm_way_id":"198810114","name":"Budgens","building":"yes","shop":"supermarket","other":{"brand":"Budgens","brand:wikidata":"Q4985016"}}, "geometry":{"type":"MultiPolygon","coordinates":[[[[-2.45894,51.10942],[-2.45907,51.1096],[-2.45933,51.10952],[-2.4592,51.10935],[-2.45894,51.10942]]]]}},
{ "type":"Feature","properties":{"osm_way_id":"202319022","name":"Lidl","building":"yes","shop":"supermarket","other":{"addr:city":"Crewkerne","addr:country":"GB","addr:housename":"The George Shopping Centre","addr:postcode":"TA18 7LU","addr:street":"George Lane","branch":"Crewkerne","brand":"Lidl","brand:wikidata":"Q151954","brand:wikipedia":"en:Lidl","fhrs:id":"109230","opening_hours":"Mo-Sa 08:00-21:00; Su 10:00-16:00","operator":"Lidl UK GmbH","survey:date":"2019-03-18"}}, "geometry":{"type":"MultiPolygon","coordinates":[[[[-2.79435,50.88443],[-2.79437,50.88432],[-2.79441,50.88433],[-2.79444,50.88422],[-2.7951,50.88429],[-2.79505,50.8845],[-2.79435,50.88443]]]]}},
{ "type":"Feature","properties":{"osm_way_id":"202319024","name":"Budgens","building":"yes","shop":"supermarket","other":{"addr:city":"Crewkerne","addr:housenumber":"16","addr:postcode":"TA18 7JS","addr:street":"Falkland Square","branch":"Crewkerne","brand":"Budgens","brand:wikidata":"Q4985016","old_name":"The Co-operative Food","opening_hours":"Mo-Sa 07:00-21:00; Su 10:00-16:00"}}, "geometry":{"type":"MultiPolygon","coordinates":[[[[-2.79498,50.88418],[-2.79499,50.88416],[-2.79499,50.8841],[-2.795,50.88405],[-2.79501,50.88396],[-2.79498,50.88393],[-2.79493,50.88391],[-2.79452,50.88389],[-2.7945,50.88411],[-2.79459,50.88412],[-2.79458,50.88415],[-2.79469,50.88416],[-2.79469,50.88414],[-2.79475,50.88414],[-2.79475,50.88417],[-2.79498,50.88418]]]]}},
{ "type":"Feature","properties":{"osm_way_id":"204961842","name":"Morrisons","building":"yes","shop":"supermarket","other":{"addr:city":"Wincanton","addr:country":"GB","addr:county":"Somerset","addr:postcode":"BA9 9EB","addr:street":"Southgate Road","brand":"Morrisons","brand:wikidata":"Q922344","brand:wikipedia":"en:Morrisons","fhrs:id":"115887"}}, "geometry":{"type":"MultiPolygon","coordinates":[[[[-2.41737,51.04942],[-2.41726,51.04915],[-2.4171,51.04917],[-2.41699,51.04888],[-2.41677,51.04891],[-2.41672,51.04879],[-2.4161,51.04889],[-2.41614,51.04898],[-2.4162,51.04897],[-2.41626,51.04912],[-2.41611,51.04914],[-2.41625,51.04951],[-2.41641,51.04949],[-2.41643,51.04953],[-2.41661,51.04951],[-2.41663,51.04954],[-2.41737,51.04942]]]]}},
{ "type":"Feature","properties":{"osm_way_id":"204961843","name":"Lidl","building":"yes","shop":"supermarket","other":{"addr:city":"Wincanton","addr:country":"GB","addr:county":"Somerset","addr:postcode":"BA9 9EB","addr:street":"Southgate Road","brand":"Lidl","brand:wikidata":"Q151954","brand:wikipedia":"en:Lidl","fhrs:id":"103101"}}, "geometry":{"type":"MultiPolygon","coordinates":[[[[-2.4162,51.05056],[-2.41613,51.05038],[-2.41608,51.05027],[-2.41521,51.05041],[-2.41531,51.05065],[-2.41592,51.05056],[-2.41593,51.0506],[-2.4162,51.05056]]]]}},
{ "type":"Feature","properties":{"osm_way_id":"205401090","name":"Tesco Metro","building":"yes","shop":"supermarket","other":{"brand":"Tesco Metro","operator":"Tesco","addr:city":"Langport","addr:county":"Somerset","addr:street":"North Street","addr:country":"GB","addr:postcode":"TA10 9RQ","opening_hours":"Mo-Sa 07:00-22:00; Su 10:00-16:00","brand:wikidata":"Q57551648"}}, "geometry":{"type":"MultiPolygon","coordinates":[[[[-2.82822,51.04007],[-2.82745,51.04001],[-2.82747,51.0399],[-2.82751,51.0399],[-2.82755,51.0397],[-2.82833,51.03975],[-2.82831,51.03986],[-2.82826,51.03986],[-2.82822,51.04007]]]]}},
{ "type":"Feature","properties":{"osm_way_id":"363309654","name":"The Co-operative Food","building":"yes","shop":"supermarket","other":{"operator":"The Co-operative Group"}}, "geometry":{"type":"MultiPolygon","coordinates":[[[[-2.72956,50.95297],[-2.72953,50.95319],[-2.72932,50.95318],[-2.72935,50.95296],[-2.72956,50.95297]]]]}},
{ "type":"Feature","properties":{"osm_way_id":"363310149","name":"The Co-operative Food","building":"yes","shop":"supermarket","other":{"operator":"The Co-operative Group"}}, "geometry":{"type":"MultiPolygon","coordinates":[[[[-2.6482,50.95119],[-2.64819,50.9514],[-2.64802,50.95139],[-2.64802,50.95135],[-2.64802,50.95131],[-2.64795,50.95131],[-2.64796,50.95118],[-2.6482,50.95119]]]]}},
{ "type":"Feature","properties":{"osm_way_id":"363311049","name":"The Co-operative Food","building":"yes","shop":"supermarket","other":{"operator":"The Co-operative Group"}}, "geometry":{"type":"MultiPolygon","coordinates":[[[[-2.79399,50.90637],[-2.79371,50.90645],[-2.79367,50.90639],[-2.79395,50.90631],[-2.79399,50.90637]]]]}},
{ "type":"Feature","properties":{"osm_way_id":"416524962","name":"Lidl","building":"yes","shop":"supermarket","other":{"addr:city":"Yeovil","addr:country":"GB","addr:postcode":"BA21 5DW","addr:street":"Lyde Road","alt_name":"LIDL Yeovil","brand":"Lidl","brand:wikidata":"Q151954","brand:wikipedia":"en:Lidl","fhrs:id":"96952"}}, "geometry":{"type":"MultiPolygon","coordinates":[[[[-2.61156,50.94666],[-2.61111,50.9464],[-2.61117,50.94636],[-2.61105,50.94629],[-2.61098,50.94634],[-2.61084,50.94626],[-2.61059,50.94645],[-2.61136,50.94687],[-2.61155,50.94674],[-2.6115,50.9467],[-2.61156,50.94666]]]]}},
{ "type":"Feature","properties":{"osm_way_id":"432466140","name":"The Co-operative Food","building":"yes","shop":"supermarket","other":{"operator":"The Co-operative Group","addr:city":"Wincanton","addr:unit":"1-8","wheelchair":"yes","addr:street":"Carrington Way","addr:postcode":"BA9 9JB","opening_hours":"Mo-Sa 07:00-22:00; Su 10:00-16:00","addr:housename":"Camelot Shopping Centre"}}, "geometry":{"type":"MultiPolygon","coordinates":[[[[-2.4091,51.05736],[-2.409,51.05707],[-2.40877,51.05709],[-2.40877,51.05713],[-2.40868,51.05717],[-2.40874,51.05723],[-2.40884,51.05718],[-2.40886,51.05723],[-2.40889,51.05723],[-2.40891,51.05725],[-2.40894,51.05732],[-2.40869,51.05735],[-2.40871,51.05741],[-2.4091,51.05736]]]]}},
{ "type":"Feature","properties":{"osm_way_id":"457976019","name":"Lidl","building":"yes","shop":"supermarket","other":{"addr:country":"GB","addr:postcode":"BA20 2AJ","addr:street":"West Hendford","brand":"Lidl","brand:wikidata":"Q151954","fhrs:id":"910715"}}, "geometry":{"type":"MultiPolygon","coordinates":[[[[-2.64265,50.93709],[-2.6427,50.93712],[-2.64254,50.93721],[-2.64186,50.93671],[-2.64226,50.9365],[-2.64289,50.93696],[-2.64265,50.93709]]]]}},
{ "type":"Feature","properties":{"osm_way_id":"462791451","name":"One Stop","building":"commercial","shop":"supermarket","other":{"phone":"+44 1458 251232","addr:city":"Langport","addr:county":"Somerset","addr:street":"High Street","addr:country":"GB","addr:village":"Curry Rivel","addr:postcode":"TA10 0ET","opening_hours":"Mo-Sa 07:00-22:00; Su 08:00-22:00"}}, "geometry":{"type":"MultiPolygon","coordinates":[[[[-2.86887,51.02273],[-2.86899,51.02272],[-2.86898,51.02263],[-2.86892,51.02264],[-2.86891,51.02257],[-2.86885,51.02258],[-2.86887,51.02273]]]]}},
{ "type":"Feature","properties":{"osm_way_id":"477129335","name":"The Co-operative Food","building":"yes","shop":"supermarket","other":{"addr:city":"South Petherton","addr:housenumber":"4","addr:postcode":"TA13 5BS","addr:street":"St James's Street","atm":"yes","branch":"South Petherton","brand":"The Co-operative Food","brand:wikidata":"Q3277439","brand:wikipedia":"en:Co-op Food","opening_hours":"Mo-Su 07:00-22:00"}}, "geometry":{"type":"MultiPolygon","coordinates":[[[[-2.80778,50.94864],[-2.8077,50.94848],[-2.8079,50.94849],[-2.80795,50.9486],[-2.80787,50.94862],[-2.80778,50.94864]]]]}},
{ "type":"Feature","properties":{"osm_way_id":"661172460","name":"One-Stop","building":"yes","shop":"supermarket","other":{"operator":"One-Stop","addr:city":"Langport","addr:street":"Parrett Close","addr:postcode":"TA10 9PG","opening_hours":"Mo-Su 06:00-23:00","addr:housenumber":"7-8"}}, "geometry":{"type":"MultiPolygon","coordinates":[[[[-2.82952,51.03713],[-2.82945,51.03699],[-2.82959,51.03697],[-2.82964,51.03706],[-2.82962,51.03706],[-2.82965,51.03711],[-2.82952,51.03713]]]]}},
{ "type":"Feature","properties":{"osm_way_id":"736649016","name":"Somerton Co-op","building":"yes","shop":"supermarket","other":{"addr:city":"Somerton","addr:country":"GB","addr:county":"Somerset","addr:postcode":"TA11 7PY","addr:street":"Brunel Shopping Precinct","addr:unit":"1","brand":"Co-op Food","brand:wikidata":"Q3277439","brand:wikipedia":"en:Co-op Food","fhrs:id":"107909","opening_hours":"Mo-Sa 07:00-20:00; Su 10:00-16:00","operator":"Williams","payment:cash":"yes","payment:coins":"yes","payment:contactless":"yes","payment:credit_cards":"yes","payment:notes":"yes"}}, "geometry":{"type":"MultiPolygon","coordinates":[[[[-2.73,51.05405],[-2.72999,51.05398],[-2.72992,51.05398],[-2.72996,51.0545],[-2.73008,51.05449],[-2.73006,51.0543],[-2.73037,51.05429],[-2.73035,51.05412],[-2.73033,51.05412],[-2.73033,51.05406],[-2.73023,51.05406],[-2.73022,51.05404],[-2.73,51.05405]]]]}},
{ "type":"Feature","properties":{"osm_way_id":"898071979","name":"Lidl","building":"yes","shop":"supermarket","other":{"addr:city":"Chard","addr:country":"GB","addr:county":"Somerset","addr:postcode":"TA20 2AX","addr:street":"Tapstone Road","brand":"Lidl","brand:wikidata":"Q151954","brand:wikipedia":"en:Lidl","fhrs:id":"1229483","ref:GB:uprn":"30134535"}}, "geometry":{"type":"MultiPolygon","coordinates":[[[[-2.95684,50.87332],[-2.95613,50.87371],[-2.95644,50.87393],[-2.95715,50.87353],[-2.95684,50.87332]]]]}},
{ "type":"Feature","properties":{"osm_way_id":"918406152","name":"Aldi","building":"yes","shop":"supermarket","other":{"addr:city":"Yeovil","addr:country":"GB","addr:county":"Somerset","addr:postcode":"BA21 4HA","addr:street":"Sherborne Road","brand":"ALDI","brand:wikidata":"Q41171672","brand:wikipedia":"en:Aldi","fhrs:id":"1242335","opening_hours":"Mo-Sa 08:00-22:00; Su 10:00-16:00","website":"https:\/\/www.aldi.co.uk\/store\/s-uk-E1390"}}, "geometry":{"type":"MultiPolygon","coordinates":[[[[-2.6234,50.94286],[-2.62338,50.94288],[-2.62351,50.94295],[-2.6229,50.94336],[-2.62275,50.94327],[-2.62272,50.94328],[-2.62263,50.94323],[-2.62329,50.94279],[-2.6234,50.94286]]]]}}
]
}
