{
"type": "FeatureCollection",
"features": [
{ "type":"Feature","properties":{"osm_id":"298658902","name":"Venus Supermarket","other":{"shop":"supermarket"}}, "geometry":{"type":"Point","coordinates":[-2.21175,53.45421 ]}},
{ "type":"Feature","properties":{"osm_id":"301413682","name":"Lidl","other":{"brand":"Lidl","brand:wikidata":"Q151954","brand:wikipedia":"en:Lidl","shop":"supermarket","wheelchair":"yes"}}, "geometry":{"type":"Point","coordinates":[-2.22685,53.45848 ]}},
{ "type":"Feature","properties":{"osm_id":"307748113","name":"Aldi","other":{"addr:city":"Manchester","addr:country":"GB","addr:housenumber":"850","addr:street":"Kingsway","brand":"ALDI","brand:wikidata":"Q41171672","brand:wikipedia":"en:Aldi","shop":"supermarket","source:addr":"til receipt"}}, "geometry":{"type":"Point","coordinates":[-2.20984,53.42701 ]}},
{ "type":"Feature","properties":{"osm_id":"307753149","name":"Wing Yip","other":{"shop":"supermarket","website":"https:\/\/wingyip.com\/","addr:city":"Manchester","wheelchair":"yes","addr:street":"Oldham Road","addr:postcode":"M4 5HU","opening_hours":"Mo-Sa 09:30-19:00; Su 11:00-17:00; easter off; Dec 25-26 off"}}, "geometry":{"type":"Point","coordinates":[-2.22905,53.48667 ]}},
{ "type":"Feature","properties":{"osm_id":"321854977","name":"M&S Foodhall","other":{"addr:city":"Manchester","addr:parentstreet":"Cheetham Hill Road","addr:place":"Manchester Fort Shopping Park","addr:postcode":"M8 8EP","brand":"M&S Foodhall","brand:wikidata":"Q714491","brand:wikipedia":"en:Marks & Spencer","shop":"supermarket","source:addr:postcode":"code-point_open"}}, "geometry":{"type":"Point","coordinates":[-2.23701,53.49711 ]}},
{ "type":"Feature","properties":{"osm_id":"377820551","name":"HomeÂ Bargains","other":{"shop":"supermarket"}}, "geometry":{"type":"Point","coordinates":[-2.20438,53.44393 ]}},
{ "type":"Feature","properties":{"osm_id":"393401969","name":"Iceland","other":{"brand":"Iceland","brand:wikidata":"Q721810","shop":"supermarket"}}, "geometry":{"type":"Point","coordinates":[-2.24502,53.51237 ]}},
{ "type":"Feature","properties":{"osm_id":"393401971","name":"Worldwide","other":{"shop":"supermarket"}}, "geometry":{"type":"Point","coordinates":[-2.24346,53.51204 ]}},
{ "type":"Feature","properties":{"osm_id":"738211414","name":"Friendly Shopper","other":{"shop":"supermarket","wheelchair":"yes"}}, "geometry":{"type":"Point","coordinates":[-2.27818,53.44571 ]}},
{ "type":"Feature","properties":{"osm_id":"1492350822","name":"ALDI","other":{"addr:city":"Manchester","addr:country":"GB","addr:floor":"1","addr:housename":"Manchester Arndale","addr:place":"Arndale Centre","addr:postcode":"M1 1WR","brand":"ALDI","brand:wikidata":"Q41171672","brand:wikipedia":"en:Aldi","fhrs:id":"855033","organic":"no","self_checkout":"yes","shop":"supermarket","source:addr":"FHRS Open Data","website":"https:\/\/www.aldi.co.uk\/store\/s-uk-E0647","wheelchair":"yes"}}, "geometry":{"type":"Point","coordinates":[-2.24042,53.4829 ]}},
{ "type":"Feature","properties":{"osm_id":"1508516282","name":"Manchester Superstore","other":{"shop":"supermarket"}}, "geometry":{"type":"Point","coordinates":[-2.24125,53.50822 ]}},
{ "type":"Feature","properties":{"osm_id":"1508516292","name":"Lidl","other":{"addr:city":"Manchester","addr:country":"GB","addr:postcode":"M8 0SN","addr:street":"Cheetham Hill Road","brand":"Lidl","brand:wikidata":"Q151954","brand:wikipedia":"en:Lidl","fhrs:id":"1337063","shop":"supermarket"}}, "geometry":{"type":"Point","coordinates":[-2.24085,53.50756 ]}},
{ "type":"Feature","properties":{"osm_id":"1520847891","name":"M&S Simply Food","other":{"addr:city":"Manchester","addr:country":"GB","addr:housenumber":"6A","addr:postcode":"M1 4AH","addr:street":"Piccadilly Plaza","brand":"M&S Simply Food","brand:wikidata":"Q714491","brand:wikipedia":"en:Marks & Spencer","shop":"supermarket","wheelchair":"limited"}}, "geometry":{"type":"Point","coordinates":[-2.23891,53.48074 ]}},
{ "type":"Feature","properties":{"osm_id":"1586865230","name":"Iceland","other":{"brand":"Iceland","brand:wikidata":"Q721810","shop":"supermarket"}}, "geometry":{"type":"Point","coordinates":[-2.20446,53.44366 ]}},
{ "type":"Feature","properties":{"osm_id":"2143946918","name":"Aldi","other":{"addr:city":"Manchester","addr:country":"GB","addr:housename":"Urban Exchange","addr:housenumber":"100","addr:postcode":"M4 6DE","addr:street":"Great Ancoats Street","brand":"ALDI","brand:wikidata":"Q41171672","brand:wikipedia":"en:Aldi","opening_hours":"Mo-Sa 08:00-22:00; Su 11:00-17:00","organic":"no","payment:cards":"yes","payment:cash":"yes","shop":"supermarket","website":"https:\/\/www.aldi.co.uk\/store\/s-uk-E0781","wheelchair":"yes"}}, "geometry":{"type":"Point","coordinates":[-2.22788,53.48176 ]}},
{ "type":"Feature","properties":{"osm_id":"2150791348","name":"Tesco Metro","other":{"addr:city":"Manchester","addr:country":"GB","addr:housenumber":"58-66","addr:postcode":"M1 1PW","addr:street":"Market Street","brand":"Tesco Metro","brand:wikidata":"Q57551648","description":"Manchester Metro","fhrs:id":"855004","shop":"supermarket","source:addr":"FHRS Open Data","wheelchair":"yes"}}, "geometry":{"type":"Point","coordinates":[-2.24192,53.48242 ]}},
{ "type":"Feature","properties":{"osm_id":"2150795570","name":"Co-op Food","other":{"addr:city":"Manchester","addr:country":"GB","addr:housenumber":"1","addr:postcode":"M60 4EP","addr:street":"Balloon Street","alt_name":"Co-op","brand":"Co-op Food","brand:wikidata":"Q3277439","brand:wikipedia":"en:Co-op Food","opening_hours":"Mo-Su 06:00-24:00","operator":"The Co-operative Group","shop":"supermarket","wheelchair":"yes"}}, "geometry":{"type":"Point","coordinates":[-2.24132,53.48564 ]}},
{ "type":"Feature","properties":{"osm_id":"2606363779","name":"W. H. Lung","other":{"shop":"supermarket","addr:city":"Manchester","wheelchair":"yes","addr:country":"GB"}}, "geometry":{"type":"Point","coordinates":[-2.22946,53.46756 ]}},
{ "type":"Feature","properties":{"osm_id":"2689448123","name":"Hang Won Hong","other":{"addr:city":"Manchester","addr:country":"GB","addr:housenumber":"60","addr:postcode":"M1 4HF","addr:street":"George Street","shop":"supermarket","wheelchair":"no"}}, "geometry":{"type":"Point","coordinates":[-2.24066,53.47883 ]}},
{ "type":"Feature","properties":{"osm_id":"2696670942","name":"Wing Fat","other":{"addr:city":"Manchester","addr:country":"GB","addr:housenumber":"51","addr:postcode":"M1 4EE","addr:street":"Faulkner Street","origin":"chinese","shop":"supermarket","wheelchair":"no"}}, "geometry":{"type":"Point","coordinates":[-2.23949,53.47851 ]}},
{ "type":"Feature","properties":{"osm_id":"2868820728","name":"Spar","other":{"brand":"Spar","brand:wikidata":"Q610492","brand:wikipedia":"en:SPAR (retailer)","shop":"supermarket"}}, "geometry":{"type":"Point","coordinates":[-2.22925,53.46149 ]}},
{ "type":"Feature","properties":{"osm_id":"3246620909","name":"Home Bargains","other":{"shop":"supermarket","website":"https:\/\/storelocator.homebargains.co.uk\/store\/A648\/Heaton+Park+Road,+Heaton+Park,+Manchester+","operator":"Home Bargains","addr:city":"Manchester","addr:street":"Heaton Park","addr:postcode":"M9 0QS","opening_hours":"Mo-Sa 08:00-20:00; Su 10:00-16:00"}}, "geometry":{"type":"Point","coordinates":[-2.23782,53.53816 ]}},
{ "type":"Feature","properties":{"osm_id":"3713426325","name":"Lameizi Super Store","other":{"shop":"supermarket","wheelchair":"yes","addr:street":"The Quadrangle, Chester Street","source:addr":"FHRS Open Data","addr:postcode":"M1 5QS"}}, "geometry":{"type":"Point","coordinates":[-2.24031,53.47242 ]}},
{ "type":"Feature","properties":{"osm_id":"3874519173","name":"Iceland","other":{"addr:city":"Manchester","addr:country":"GB","addr:housenumber":"962-968","addr:postcode":"M19 3NN","addr:street":"Stockport Road","brand":"Iceland","brand:wikidata":"Q721810","fhrs:id":"861071","shop":"supermarket","source:addr":"fhrs opendata"}}, "geometry":{"type":"Point","coordinates":[-2.1917,53.44342 ]}},
{ "type":"Feature","properties":{"osm_id":"4395300091","name":"Asda","other":{"shop":"supermarket","brand":"Asda","fhrs:id":"492989","operator":"Asda Stores Ltd","addr:city":"Manchester","addr:street":"Reddish Lane","addr:country":"GB","addr:postcode":"M18 7JH","brand:wikidata":"Q297410","brand:wikipedia":"en:Asda","contact:website":"https:\/\/storelocator.asda.com\/north-west\/manchester\/reddish-lane","addr:housenumber":"89-95"}}, "geometry":{"type":"Point","coordinates":[-2.15856,53.45538 ]}},
{ "type":"Feature","properties":{"osm_id":"4416702352","name":"Co-op Food","other":{"brand":"Co-op Food","brand:wikidata":"Q3277439","brand:wikipedia":"en:Co-op Food","operator":"The Co-operative Group","shop":"supermarket","wheelchair":"yes"}}, "geometry":{"type":"Point","coordinates":[-2.27871,53.44239 ]}},
{ "type":"Feature","properties":{"osm_id":"4564184011","name":"Hamza Cash and Carry","other":{"shop":"supermarket"}}, "geometry":{"type":"Point","coordinates":[-2.26967,53.4481 ]}},
{ "type":"Feature","properties":{"osm_id":"4564184013","name":"Manchester Superstore","other":{"shop":"supermarket"}}, "geometry":{"type":"Point","coordinates":[-2.26862,53.44774 ]}},
{ "type":"Feature","properties":{"osm_id":"4564184014","name":"Mughal General Stores","other":{"shop":"supermarket"}}, "geometry":{"type":"Point","coordinates":[-2.26878,53.44773 ]}},
{ "type":"Feature","properties":{"osm_id":"4564184015","name":"Chand Superstore","other":{"shop":"supermarket","fhrs:id":"902765","addr:city":"Manchester","addr:street":"Clarendon Road","addr:country":"GB","addr:postcode":"M16 0EH","addr:housenumber":"205"}}, "geometry":{"type":"Point","coordinates":[-2.26886,53.44774 ]}},
{ "type":"Feature","properties":{"osm_id":"4564184018","name":"Martco","other":{"shop":"supermarket"}}, "geometry":{"type":"Point","coordinates":[-2.26987,53.44771 ]}},
{ "type":"Feature","properties":{"osm_id":"4569209747","name":"Ahmad's Grocers","other":{"shop":"supermarket"}}, "geometry":{"type":"Point","coordinates":[-2.26408,53.44781 ]}},
{ "type":"Feature","properties":{"osm_id":"4632881164","name":"Costcutter","other":{"shop":"supermarket"}}, "geometry":{"type":"Point","coordinates":[-2.20009,53.44001 ]}},
{ "type":"Feature","properties":{"osm_id":"4687761495","name":"Tresco","other":{"shop":"supermarket","name:en":"Tresco"}}, "geometry":{"type":"Point","coordinates":[-2.23662,53.46992 ]}},
{ "type":"Feature","properties":{"osm_id":"4791269124","name":"Asda","other":{"shop":"supermarket","brand":"Asda","operator":"Asda Stores Ltd","addr:street":"Old Church Street","addr:country":"GB","addr:postcode":"M40 2JL","opening_hours":"Su 10:00-16:00; Mo-Sa 07:00-23:00","brand:wikidata":"Q297410","brand:wikipedia":"en:Asda","contact:website":"https:\/\/storelocator.asda.com\/north-west\/newton-heath\/old-church-street"}}, "geometry":{"type":"Point","coordinates":[-2.17882,53.5002 ]}},
{ "type":"Feature","properties":{"osm_id":"4802451721","name":"M&S Simply Food","other":{"addr:city":"Manchester","addr:country":"GB","addr:housenumber":"437","addr:postcode":"M21 8AU","addr:street":"Barlow Moor Road","brand":"M&S Simply Food","brand:wikidata":"Q714491","operator":"Marks & Spencer","shop":"supermarket"}}, "geometry":{"type":"Point","coordinates":[-2.2739,53.43596 ]}},
{ "type":"Feature","properties":{"osm_id":"4802451731","name":"The Co-Operative Food & Petrol","other":{"addr:city":"Manchester","addr:country":"GB","addr:housenumber":"849","addr:postcode":"M20 2ZF","addr:street":"Princess Road","opening_hours":"24\/7","shop":"supermarket"}}, "geometry":{"type":"Point","coordinates":[-2.25936,53.4201 ]}},
{ "type":"Feature","properties":{"osm_id":"5841871825","name":"Hulme Express","other":{"shop":"supermarket","addr:city":"Manchester","addr:street":"Stretford Road"}}, "geometry":{"type":"Point","coordinates":[-2.24304,53.46865 ]}},
{ "type":"Feature","properties":{"osm_id":"6111002737","name":"Co-op Food","other":{"addr:city":"Manchester","addr:country":"GB","addr:housename":"Unit 12","addr:housenumber":"12","addr:postcode":"M15 6PB","addr:street":"Manchester Business School","brand":"Co-op Food","brand:wikidata":"Q3277439","brand:wikipedia":"en:Co-op Food","opening_hours":"Mo-Su 06:00-23:00","operator":"The Co-operative Group","operator:wikidata":"Q117202","operator:wikipedia":"en:The Co-operative Group","shop":"supermarket"}}, "geometry":{"type":"Point","coordinates":[-2.23554,53.46815 ]}},
{ "type":"Feature","properties":{"osm_id":"6170351736","name":"Global African Ltd","other":{"addr:city":"Manchester","addr:country":"GB","addr:housenumber":"78","addr:postcode":"M15 5JP","addr:street":"Hulme High Street","shop":"supermarket"}}, "geometry":{"type":"Point","coordinates":[-2.24848,53.46094 ]}},
{ "type":"Feature","properties":{"osm_id":"6170351737","name":"Hulme Manchester Superstore","other":{"addr:city":"Manchester","addr:country":"GB","addr:housenumber":"110","addr:postcode":"M15 5JP","addr:street":"Hulme High Street","shop":"supermarket"}}, "geometry":{"type":"Point","coordinates":[-2.24848,53.46085 ]}},
{ "type":"Feature","properties":{"osm_id":"6206514204","name":"Co-op","other":{"addr:city":"Manchester","operator":"Co-Op","shop":"supermarket","wheelchair":"yes"}}, "geometry":{"type":"Point","coordinates":[-2.2556,53.41063 ]}},
{ "type":"Feature","properties":{"osm_id":"6284848953","name":"Tesco Express","other":{"addr:city":"Manchester","addr:country":"GB","addr:housenumber":"132-134","addr:postcode":"M20 1JQ","addr:street":"Burton Road","brand":"Tesco Express","brand:wikidata":"Q98456772","brand:wikipedia":"en:Tesco","contact:website":"https:\/\/www.tesco.com\/store-locator\/manchester\/132-134-burton-rd","opening_hours":"Mo-Su 7:00-23:00","shop":"supermarket"}}, "geometry":{"type":"Point","coordinates":[-2.24072,53.42859 ]}},
{ "type":"Feature","properties":{"osm_id":"6304435476","name":"M&S Foodhall","other":{"addr:city":"Manchester","addr:country":"GB","addr:housenumber":"Unit 1","addr:postcode":"M3 3EB","addr:street":"Spinningfields","brand":"M&S Foodhall","brand:wikidata":"Q714491","brand:wikipedia":"en:Marks & Spencer","phone":"+44 161 9336634","shop":"supermarket"}}, "geometry":{"type":"Point","coordinates":[-2.25283,53.4791 ]}},
{ "type":"Feature","properties":{"osm_id":"6391876501","name":"Morrisons","other":{"addr:city":"Manchester","addr:country":"GB","addr:housenumber":"19-25","addr:postcode":"M1 1LU","addr:street":"Piccadilly","brand":"Morrisons","brand:wikidata":"Q922344","brand:wikipedia":"en:Morrisons","shop":"supermarket"}}, "geometry":{"type":"Point","coordinates":[-2.23663,53.48153 ]}},
{ "type":"Feature","properties":{"osm_id":"6945231124","name":"Co-op Food","other":{"shop":"supermarket","brand":"Co-op Food","brand:wikidata":"Q3277439","brand:wikipedia":"en:Co-op Food"}}, "geometry":{"type":"Point","coordinates":[-2.23545,53.48733 ]}},
{ "type":"Feature","properties":{"osm_id":"8196598887","name":"Freshers","other":{"addr:city":"Manchester","addr:country":"GB","addr:housenumber":"129","addr:postcode":"M14 7DS","addr:street":"Wilbraham Road","payment:cash":"yes","payment:contactless":"yes","payment:credit_cards":"yes","payment:mastercard":"yes","payment:visa":"yes","phone":"+441612244218","shop":"supermarket"}}, "geometry":{"type":"Point","coordinates":[-2.23197,53.44354 ]}},
{ "type":"Feature","properties":{"osm_way_id":"32544342","name":"Asda","building":"yes","shop":"supermarket","other":{"brand":"Asda","fhrs:id":"331129","operator":"Asda Stores Ltd","addr:city":"Manchester","addr:street":"Rochdale Road","addr:country":"GB","addr:postcode":"M9 4DJ","addr:housename":"Harpurhey Shopping Centre","brand:wikidata":"Q297410","brand:wikipedia":"en:Asda","contact:website":"https:\/\/storelocator.asda.com\/north-west\/manchester\/harpurhey-shopping-centre"}}, "geometry":{"type":"MultiPolygon","coordinates":[[[[-2.21106,53.51262],[-2.21128,53.51226],[-2.21139,53.51228],[-2.21166,53.51185],[-2.21061,53.51162],[-2.2105,53.5118],[-2.21014,53.51172],[-2.20999,53.51197],[-2.20989,53.51212],[-2.21028,53.5122],[-2.21011,53.51249],[-2.21044,53.51256],[-2.21048,53.51249],[-2.21106,53.51262]]]]}},
{ "type":"Feature","properties":{"osm_way_id":"32547781","name":"Lidl","building":"yes","shop":"supermarket","other":{"addr:city":"Manchester","addr:postcode":"M9 4DA","addr:street":"Upper Conran Street","brand":"Lidl","brand:wikidata":"Q151954","brand:wikipedia":"en:Lidl","fhrs:id":"331264","source:addr":"FHRS Open Data"}}, "geometry":{"type":"MultiPolygon","coordinates":[[[[-2.20999,53.51197],[-2.20989,53.51212],[-2.2098,53.51227],[-2.20967,53.51224],[-2.2097,53.51219],[-2.20915,53.51207],[-2.20926,53.51188],[-2.20933,53.51178],[-2.20933,53.51178],[-2.20934,53.51177],[-2.20956,53.51181],[-2.20953,53.51187],[-2.20999,53.51197]]]]}},
{ "type":"Feature","properties":{"osm_way_id":"60756823","name":"Unicorn Grocery","building":"yes","shop":"supermarket","other":{"addr:city":"Manchester","addr:housenumber":"89","addr:postcode":"M21 0BN","addr:street":"Albany Road","diet:vegan":"yes","phone":"+44 161 861 0010","website":"https:\/\/www.unicorn-grocery.co.uk\/","wheelchair":"yes","wikipedia":"en:Unicorn Grocery"}}, "geometry":{"type":"MultiPolygon","coordinates":[[[[-2.27723,53.44681],[-2.27705,53.44652],[-2.27706,53.4465],[-2.27696,53.44649],[-2.27668,53.44676],[-2.27704,53.44683],[-2.27706,53.44678],[-2.27723,53.44681]]]]}},
{ "type":"Feature","properties":{"osm_way_id":"96336848","name":"Tesco Extra","building":"yes","shop":"supermarket","other":{"branch":"Baguley","brand":"Tesco Extra","brand:wikidata":"Q25172225","brand:wikipedia":"en:Tesco Extra"}}, "geometry":{"type":"MultiPolygon","coordinates":[[[[-2.29728,53.40016],[-2.29717,53.40016],[-2.29716,53.39989],[-2.29716,53.39987],[-2.29704,53.39987],[-2.29704,53.39983],[-2.29657,53.39984],[-2.29657,53.39979],[-2.29678,53.39979],[-2.29678,53.39977],[-2.2968,53.39977],[-2.2968,53.39976],[-2.29674,53.39976],[-2.29674,53.3997],[-2.29657,53.3997],[-2.29657,53.39968],[-2.29656,53.39968],[-2.29611,53.39969],[-2.29613,53.40022],[-2.29607,53.40022],[-2.29608,53.4004],[-2.29612,53.4004],[-2.29613,53.40069],[-2.29621,53.40068],[-2.29621,53.40078],[-2.29723,53.40077],[-2.29723,53.40066],[-2.2973,53.40066],[-2.29728,53.40016]]]]}},
{ "type":"Feature","properties":{"osm_way_id":"129561206","name":"Asda","building":"yes","shop":"supermarket","other":{"brand":"Asda","operator":"Asda Stores Ltd","wheelchair":"yes","addr:street":"Stockport Road","addr:country":"GB","addr:postcode":"M12 4QN","opening_hours":"Mo-Sa 08:00-20:00; Su 10:00-16:00","brand:wikidata":"Q297410","brand:wikipedia":"en:Asda","contact:website":"https:\/\/storelocator.asda.com\/north-west\/levenshulme\/701-stockport-road","addr:housenumber":"701"}}, "geometry":{"type":"MultiPolygon","coordinates":[[[[-2.19222,53.44946],[-2.19231,53.44964],[-2.19163,53.44977],[-2.19154,53.44959],[-2.19222,53.44946]]]]}},
{ "type":"Feature","properties":{"osm_way_id":"129834883","name":"Asda","building":"yes","shop":"supermarket","other":{"brand":"Asda","alt_name":"Asda Hulme Superstore","operator":"Asda Stores Ltd","addr:city":"Manchester","wheelchair":"yes","addr:street":"Princess Road","addr:country":"GB","addr:postcode":"M15 5AS","brand:wikidata":"Q297410","brand:wikipedia":"en:Asda","contact:website":"https:\/\/storelocator.asda.com\/north-west\/manchester\/100-princess-road","addr:housenumber":"100","toilets:wheelchair":"yes"}}, "geometry":{"type":"MultiPolygon","coordinates":[[[[-2.24553,53.46066],[-2.24598,53.46068],[-2.24599,53.4606],[-2.246,53.46058],[-2.2465,53.4606],[-2.2465,53.46069],[-2.24682,53.4607],[-2.24681,53.46082],[-2.24683,53.46082],[-2.24679,53.4611],[-2.24678,53.46134],[-2.24677,53.46146],[-2.24651,53.46146],[-2.24643,53.46145],[-2.24628,53.46145],[-2.24619,53.46145],[-2.24571,53.46144],[-2.24571,53.46132],[-2.24547,53.46131],[-2.24544,53.46131],[-2.24548,53.46078],[-2.24552,53.46078],[-2.24553,53.46068],[-2.24553,53.46066]]]]}},
{ "type":"Feature","properties":{"osm_way_id":"134636415","name":"Asda","building":"yes","shop":"supermarket","other":{"addr:city":"Manchester","addr:country":"GB","addr:postcode":"M22 5HZ","brand":"Asda","brand:wikidata":"Q297410","brand:wikipedia":"en:Asda","contact:website":"https:\/\/storelocator.asda.com\/north-west\/manchester\/1-swan-walk-civic-centre-wythenshawe","fhrs:id":"331284","layer":"-1","opening_hours":"Mo,Sa 07:00-22:00; Tu-Fr 06:00-22:00; Su 10:00-16:00","operator":"Asda Stores Ltd"}}, "geometry":{"type":"MultiPolygon","coordinates":[[[[-2.26271,53.37867],[-2.2617,53.37853],[-2.26159,53.37852],[-2.26154,53.37863],[-2.26142,53.37893],[-2.26138,53.37903],[-2.26252,53.37919],[-2.26271,53.37867]]]]}},
{ "type":"Feature","properties":{"osm_way_id":"135934691","name":"Sainsbury's","building":"yes","shop":"supermarket","other":{"brand:wikidata":"Q152096"}}, "geometry":{"type":"MultiPolygon","coordinates":[[[[-2.23821,53.53829],[-2.2362,53.53732],[-2.23548,53.53791],[-2.23583,53.53809],[-2.23548,53.53833],[-2.23592,53.53854],[-2.23627,53.53828],[-2.23686,53.53857],[-2.23793,53.53848],[-2.23821,53.53829]]]]}},
{ "type":"Feature","properties":{"osm_way_id":"137135025","name":"Tesco","building":"yes","shop":"supermarket","other":{"brand":"Tesco","brand:wikidata":"Q487494","brand:wikipedia":"en:Tesco"}}, "geometry":{"type":"MultiPolygon","coordinates":[[[[-2.24466,53.51359],[-2.24415,53.51285],[-2.24383,53.51292],[-2.2438,53.51293],[-2.2439,53.51307],[-2.24335,53.5132],[-2.24321,53.51303],[-2.243,53.51309],[-2.24315,53.51326],[-2.24304,53.51329],[-2.24346,53.51389],[-2.24466,53.51359]]]]}},
{ "type":"Feature","properties":{"osm_way_id":"139319162","name":"Sainsbury's","building":"retail","shop":"supermarket","other":{"addr:city":"Manchester","addr:housenumber":"347","addr:postcode":"M14 6SS","addr:street":"Wilmslow Road","brand":"Sainsbury's","brand:wikidata":"Q152096","brand:wikipedia":"en:Sainsbury's","contact:website":"https:\/\/stores.sainsburys.co.uk\/2014\/fallowfield","opening_hours":"Mo-Fr 08:00-23:00; Sa 08:00-22:00; Su 11:00-17:00","operator":"J Sainsbury plc","source:opening_hours":"survey"}}, "geometry":{"type":"MultiPolygon","coordinates":[[[[-2.21849,53.44114],[-2.21828,53.44107],[-2.21826,53.4411],[-2.21733,53.4408],[-2.21725,53.44088],[-2.21715,53.44088],[-2.21707,53.44085],[-2.21747,53.4404],[-2.21907,53.44091],[-2.21896,53.44101],[-2.21886,53.44114],[-2.21849,53.44114]]]]}},
{ "type":"Feature","properties":{"osm_way_id":"142434739","name":"Morrisons","shop":"supermarket","other":{"addr:city":"Manchester","addr:housenumber":"418B","addr:postcode":"M21 0SD","addr:street":"Wilbraham Road","brand":"Morrisons","brand:wikidata":"Q922344","brand:wikipedia":"en:Morrisons","opening_hours":"Mo-Sa 07:00-23:00; Su 10:00-16:00; easter off"}}, "geometry":{"type":"MultiPolygon","coordinates":[[[[-2.27463,53.44257],[-2.27342,53.44256],[-2.27339,53.44256],[-2.27339,53.44258],[-2.27352,53.44269],[-2.27349,53.4427],[-2.27375,53.44293],[-2.27379,53.443],[-2.27416,53.44333],[-2.27459,53.44378],[-2.27539,53.44361],[-2.27511,53.4432],[-2.2747,53.44261],[-2.27467,53.44259],[-2.27463,53.44257]]]]}},
{ "type":"Feature","properties":{"osm_way_id":"162034116","name":"Madina Stores","building":"yes","shop":"supermarket","other":{"fhrs:id":"530112","addr:city":"Manchester","addr:street":"Stockport Road","fhrs:rating":"2","source:addr":"fhrs opendata","addr:postcode":"M19 3BP","addr:housenumber":"876-878"}}, "geometry":{"type":"MultiPolygon","coordinates":[[[[-2.19181,53.44581],[-2.19164,53.44583],[-2.1916,53.44603],[-2.19186,53.44601],[-2.19181,53.44581]]]]}},
{ "type":"Feature","properties":{"osm_way_id":"163313158","name":"Aldi","building":"yes","shop":"supermarket","other":{"brand":"ALDI","brand:wikidata":"Q41171672","brand:wikipedia":"en:Aldi","operator":"Aldi"}}, "geometry":{"type":"MultiPolygon","coordinates":[[[[-2.17972,53.46261],[-2.17959,53.46284],[-2.17967,53.46285],[-2.17958,53.463],[-2.17905,53.46289],[-2.17908,53.46285],[-2.17902,53.46283],[-2.17921,53.4625],[-2.17972,53.46261]]]]}},
{ "type":"Feature","properties":{"osm_way_id":"165760184","name":"Tesco","building":"yes","shop":"supermarket","other":{"addr:postcode":"M20 5NP","addr:street":"Parrs Wood Lane","brand":"Tesco","brand:wikidata":"Q487494","brand:wikipedia":"en:Tesco","fhrs:id":"809428","wheelchair":"yes"}}, "geometry":{"type":"MultiPolygon","coordinates":[[[[-2.21882,53.41243],[-2.2192,53.41175],[-2.21964,53.41184],[-2.21971,53.41172],[-2.22034,53.41185],[-2.22024,53.41203],[-2.22011,53.41201],[-2.21988,53.41243],[-2.21951,53.41236],[-2.21947,53.41243],[-2.21927,53.41239],[-2.21921,53.41251],[-2.21882,53.41243]]]]}},
{ "type":"Feature","properties":{"osm_way_id":"167790347","name":"Asda","building":"yes","shop":"supermarket","other":{"brand":"Asda","branch":"Eastlands Supercentre","fhrs:id":"931825","operator":"Asda Stores Ltd","addr:city":"Manchester","wheelchair":"yes","addr:street":"Ashton New Road","addr:country":"GB","addr:postcode":"M11 4BD","opening_hours":"Mo 07:00-24:00; Tu-Th 00:00-24:00; Sa 00:00-22:00; Su 11:00-17:00","brand:wikidata":"Q297410","brand:wikipedia":"en:Asda","contact:website":"https:\/\/storelocator.asda.com\/north-west\/manchester\/asda-sportcity-ashton-new-road"}}, "geometry":{"type":"MultiPolygon","coordinates":[[[[-2.19488,53.48244],[-2.19433,53.48256],[-2.19467,53.48307],[-2.19165,53.48373],[-2.19153,53.48354],[-2.19126,53.4831],[-2.1919,53.48296],[-2.19178,53.48279],[-2.19259,53.48262],[-2.19251,53.48249],[-2.19332,53.48232],[-2.1934,53.48244],[-2.19388,53.48233],[-2.19436,53.48222],[-2.19456,53.48231],[-2.19488,53.48244]]]]}},
{ "type":"Feature","properties":{"osm_way_id":"187024466","name":"Morrisons","building":"supermarket","shop":"supermarket","other":{"brand":"Morrisons","wheelchair":"yes","brand:wikidata":"Q922344","brand:wikipedia":"en:Morrisons"}}, "geometry":{"type":"MultiPolygon","coordinates":[[[[-2.22918,53.46351],[-2.22975,53.46333],[-2.22974,53.46331],[-2.22978,53.4633],[-2.22967,53.46317],[-2.22905,53.46336],[-2.22918,53.46351]]]]}},
{ "type":"Feature","properties":{"osm_way_id":"188041918","name":"Manchester Superstores","building":"yes","shop":"supermarket","other":{"source:name":"survey"}}, "geometry":{"type":"MultiPolygon","coordinates":[[[[-2.22382,53.45269],[-2.22375,53.45247],[-2.22301,53.45255],[-2.22308,53.45278],[-2.22382,53.45269]]]]}},
{ "type":"Feature","properties":{"osm_way_id":"188335845","name":"Worldwide","building":"yes","shop":"supermarket","other":{"fhrs:id":"144731","addr:city":"Manchester","addr:street":"Great Western Street","source:addr":"FHRS Open Data","addr:postcode":"M14 4AH","addr:housenumber":"401"}}, "geometry":{"type":"MultiPolygon","coordinates":[[[[-2.22733,53.45737],[-2.22716,53.45715],[-2.22659,53.45731],[-2.22678,53.45756],[-2.22695,53.45752],[-2.22692,53.45748],[-2.22733,53.45737]]]]}},
{ "type":"Feature","properties":{"osm_way_id":"203678664","name":"Tesco","building":"supermarket","shop":"supermarket","other":{"brand":"Tesco","brand:wikidata":"Q487494","brand:wikipedia":"en:Tesco"}}, "geometry":{"type":"MultiPolygon","coordinates":[[[[-2.20687,53.53293],[-2.2072,53.53256],[-2.20771,53.53268],[-2.20777,53.53259],[-2.20774,53.53249],[-2.20759,53.53239],[-2.20654,53.53203],[-2.20599,53.53266],[-2.20687,53.53293]]]]}},
{ "type":"Feature","properties":{"osm_way_id":"206466383","name":"Tesco Metro","building":"yes","shop":"supermarket","other":{"addr:city":"Manchester","addr:housenumber":"404-406","addr:postcode":"M22 4JT","addr:street":"Palatine Road","brand":"Tesco Metro","brand:wikidata":"Q57551648","brand:wikipedia":"en:Tesco","fhrs:id":"88004","operator":"Tesco","website":"https:\/\/www.tesco.com\/store-locator\/manchester\/404-406-palatine-rd"}}, "geometry":{"type":"MultiPolygon","coordinates":[[[[-2.25994,53.4074],[-2.25958,53.40755],[-2.25933,53.40733],[-2.2597,53.40719],[-2.25994,53.4074]]]]}},
{ "type":"Feature","properties":{"osm_way_id":"209645924","name":"Tesco","building":"yes","shop":"supermarket","other":{"addr:postcode":"M19 1TF","addr:street":"Burnage Lane","brand":"Tesco","brand:wikidata":"Q487494","brand:wikipedia":"en:Tesco"}}, "geometry":{"type":"MultiPolygon","coordinates":[[[[-2.2106,53.42042],[-2.21033,53.42039],[-2.20927,53.42012],[-2.20972,53.41952],[-2.21117,53.4199],[-2.21111,53.41998],[-2.21129,53.42004],[-2.21127,53.42007],[-2.21131,53.42008],[-2.21121,53.42022],[-2.21079,53.42011],[-2.21068,53.42027],[-2.21093,53.42033],[-2.21148,53.42041],[-2.21184,53.42022],[-2.21197,53.4203],[-2.21164,53.42049],[-2.21157,53.42052],[-2.21152,53.42053],[-2.21147,53.42052],[-2.21073,53.42041],[-2.21075,53.42038],[-2.21065,53.42036],[-2.2106,53.42042]]]]}},
{ "type":"Feature","properties":{"osm_way_id":"209649029","name":"Co-op Food","building":"retail","shop":"supermarket","other":{"addr:postcode":"M20 3HE","addr:street":"Copson Street","brand":"Co-op Food","brand:wikidata":"Q3277439","brand:wikipedia":"en:Co-op Food","opening_hours":"Mo-Sa 07:00-23:00; Su 11:00-17:00","operator":"The Co-operative Group","wheelchair":"yes"}}, "geometry":{"type":"MultiPolygon","coordinates":[[[[-2.23105,53.43377],[-2.23077,53.43369],[-2.23052,53.434],[-2.2308,53.43408],[-2.23105,53.43377]]]]}},
{ "type":"Feature","properties":{"osm_way_id":"214220869","name":"Tesco Extra","building":"yes","shop":"supermarket","other":{"brand":"Tesco Extra","brand:wikidata":"Q25172225","brand:wikipedia":"en:Tesco Extra"}}, "geometry":{"type":"MultiPolygon","coordinates":[[[[-2.17454,53.46248],[-2.17349,53.46252],[-2.17335,53.46131],[-2.17343,53.46131],[-2.17463,53.46151],[-2.1747,53.46205],[-2.17451,53.46209],[-2.17454,53.46248]]]]}},
{ "type":"Feature","properties":{"osm_way_id":"255028595","name":"Aldi","building":"yes","shop":"supermarket","other":{"addr:city":"Manchester","addr:housenumber":"674","addr:postcode":"M20 2DN","addr:street":"Wilmslow Road","brand":"ALDI","brand:wikidata":"Q41171672","brand:wikipedia":"en:Aldi","fhrs:id":"106475"}}, "geometry":{"type":"MultiPolygon","coordinates":[[[[-2.23331,53.41926],[-2.23334,53.41897],[-2.23312,53.41896],[-2.23311,53.41901],[-2.23262,53.419],[-2.2326,53.41923],[-2.23331,53.41926]]]]}},
{ "type":"Feature","properties":{"osm_way_id":"255416005","name":"Lidl","building":"supermarket","shop":"supermarket","other":{"addr:country":"GB","addr:housenumber":"1270","addr:postcode":"M11 1JJ","addr:street":"Ashton Old Road","brand":"Lidl","brand:wikidata":"Q151954","brand:wikipedia":"en:Lidl","fhrs:id":"861084","wheelchair":"yes"}}, "geometry":{"type":"MultiPolygon","coordinates":[[[[-2.1647,53.47278],[-2.16577,53.47279],[-2.16578,53.47255],[-2.16516,53.47254],[-2.16516,53.47247],[-2.16471,53.47247],[-2.1647,53.47278]]]]}},
{ "type":"Feature","properties":{"osm_way_id":"255416006","name":"Morrisons","building":"supermarket","shop":"supermarket","other":{"addr:postcode":"M11 1DA","brand":"Morrisons","brand:wikidata":"Q922344","brand:wikipedia":"en:Morrisons"}}, "geometry":{"type":"MultiPolygon","coordinates":[[[[-2.16677,53.47378],[-2.16639,53.47427],[-2.16624,53.47423],[-2.1661,53.47441],[-2.16508,53.47413],[-2.16505,53.47416],[-2.16484,53.47411],[-2.16544,53.47334],[-2.16564,53.47339],[-2.16561,53.47343],[-2.16625,53.47361],[-2.16624,53.47363],[-2.16677,53.47378]]]]}},
{ "type":"Feature","properties":{"osm_way_id":"292982845","name":"Asda","building":"yes","shop":"supermarket","other":{"brand":"Asda","fhrs:id":"375164","operator":"Asda Stores Ltd","addr:city":"Manchester","addr:street":"Hollyhedge Road","addr:country":"GB","addr:postcode":"M22 4QN","brand:wikidata":"Q297410","brand:wikipedia":"en:Asda","contact:website":"https:\/\/storelocator.asda.com\/north-west\/wythenshawe\/214-hollyhedge-road","addr:housenumber":"214"}}, "geometry":{"type":"MultiPolygon","coordinates":[[[[-2.2534,53.38808],[-2.25346,53.38768],[-2.25316,53.38767],[-2.25309,53.38806],[-2.2534,53.38808]]]]}},
{ "type":"Feature","properties":{"osm_way_id":"307802081","name":"ALDI","building":"retail","shop":"supermarket","other":{"brand":"ALDI","brand:wikidata":"Q41171672","brand:wikipedia":"en:Aldi"}}, "geometry":{"type":"MultiPolygon","coordinates":[[[[-2.30079,53.40142],[-2.2998,53.40144],[-2.29978,53.40106],[-2.30077,53.40104],[-2.30079,53.40142]]]]}},
{ "type":"Feature","properties":{"osm_way_id":"353079318","name":"Spar","building":"supermarket","shop":"supermarket","other":{"brand":"Spar","brand:wikidata":"Q610492"}}, "geometry":{"type":"MultiPolygon","coordinates":[[[[-2.2142,53.53074],[-2.21427,53.53059],[-2.21405,53.53055],[-2.21398,53.5307],[-2.2142,53.53074]]]]}},
{ "type":"Feature","properties":{"osm_way_id":"366123608","name":"Co-Op Food","building":"retail","shop":"supermarket","other":{"wheelchair":"yes","addr:street":"Withington Road","addr:postcode":"M16 8EE","addr:housenumber":"135-141"}}, "geometry":{"type":"MultiPolygon","coordinates":[[[[-2.25745,53.45219],[-2.25744,53.45177],[-2.25717,53.45177],[-2.25719,53.45215],[-2.25732,53.45215],[-2.25733,53.45219],[-2.25742,53.45219],[-2.25745,53.45219]]]]}},
{ "type":"Feature","properties":{"osm_way_id":"444180799","name":"Co-op Food","building":"yes","shop":"supermarket","other":{"addr:city":"Manchester","addr:housenumber":"756","addr:postcode":"M20 2DW","addr:street":"Wilmslow Road","brand":"Co-op Food","brand:wikidata":"Q3277439","brand:wikipedia":"en:Co-op Food","fhrs:id":"90060","operator":"The Co-operative Group"}}, "geometry":{"type":"MultiPolygon","coordinates":[[[[-2.23186,53.41644],[-2.23205,53.41647],[-2.23236,53.41651],[-2.23243,53.41633],[-2.23239,53.41632],[-2.2324,53.41629],[-2.23232,53.41628],[-2.23231,53.41632],[-2.23221,53.41631],[-2.23193,53.41627],[-2.23186,53.41644]]]]}},
{ "type":"Feature","properties":{"osm_way_id":"444181707","name":"The Co-operative Food","building":"yes","shop":"supermarket","other":{"operator":"The Co-operative Group"}}, "geometry":{"type":"MultiPolygon","coordinates":[[[[-2.21346,53.43525],[-2.21326,53.4354],[-2.21311,53.43551],[-2.21304,53.43548],[-2.21306,53.43546],[-2.21287,53.43537],[-2.2132,53.43512],[-2.21346,53.43525]]]]}},
{ "type":"Feature","properties":{"osm_way_id":"444184384","name":"The Co-operative Food","building":"yes","shop":"supermarket","other":{"opening_hours":"Mo-Su 07:00-23:00","operator":"The Co-operative Group","roof:shape":"gabled"}}, "geometry":{"type":"MultiPolygon","coordinates":[[[[-2.27513,53.43821],[-2.27507,53.43807],[-2.27466,53.43814],[-2.27472,53.43827],[-2.27513,53.43821]]]]}},
{ "type":"Feature","properties":{"osm_way_id":"457099650","name":"Asda","building":"yes","shop":"supermarket","other":{"brand":"Asda","fhrs:id":"831576","operator":"Asda Stores Ltd","addr:city":"Manchester","wheelchair":"yes","addr:street":"Stanley Grove","source:addr":"fhrs opendata","addr:country":"GB","addr:postcode":"M12 4NH","brand:wikidata":"Q297410","brand:wikipedia":"en:Asda","contact:website":"https:\/\/storelocator.asda.com\/north-west\/manchester\/stanley-grove-longsight"}}, "geometry":{"type":"MultiPolygon","coordinates":[[[[-2.19916,53.45795],[-2.19929,53.45791],[-2.19933,53.45796],[-2.19962,53.45787],[-2.19958,53.45782],[-2.20009,53.45765],[-2.19994,53.45749],[-2.20016,53.45742],[-2.19978,53.457],[-2.19956,53.45708],[-2.19942,53.45692],[-2.19859,53.45719],[-2.19884,53.45747],[-2.19875,53.4575],[-2.19916,53.45795]]]]}},
{ "type":"Feature","properties":{"osm_way_id":"462653908","name":"Tesco Metro","building":"yes","shop":"supermarket","other":{"addr:city":"Manchester","addr:housenumber":"998-990","addr:postcode":"M19 3NN","addr:street":"Stockport Road","brand":"Tesco Metro","brand:wikidata":"Q57551648","contact:website":"https:\/\/www.tesco.com\/store-locator\/manchester\/998-990-stockport-rd","fhrs:id":"701668","opening_hours":"Mo-Sa 06:00-23:00; Su 11:00-17:00","operator":"Tesco PLC"}}, "geometry":{"type":"MultiPolygon","coordinates":[[[[-2.19056,53.4425],[-2.19065,53.44257],[-2.19075,53.44253],[-2.19077,53.44255],[-2.19078,53.44257],[-2.19091,53.44252],[-2.1909,53.44251],[-2.19093,53.44249],[-2.19098,53.44254],[-2.19121,53.44245],[-2.19106,53.4423],[-2.19095,53.4422],[-2.19103,53.44217],[-2.19097,53.44212],[-2.19089,53.44215],[-2.19088,53.44214],[-2.19078,53.44218],[-2.19065,53.44223],[-2.19052,53.44228],[-2.19049,53.44229],[-2.19045,53.44231],[-2.19062,53.44247],[-2.19056,53.4425]]]]}},
{ "type":"Feature","properties":{"osm_way_id":"463484601","name":"U Mart","building":"retail","shop":"supermarket","other":{"addr:street":"Upper Chorlton Road","addr:postcode":"M16 7RX","addr:housenumber":"99"}}, "geometry":{"type":"MultiPolygon","coordinates":[[[[-2.26258,53.45595],[-2.26243,53.45604],[-2.26241,53.45603],[-2.26231,53.45598],[-2.26234,53.45596],[-2.26184,53.45567],[-2.26197,53.45559],[-2.26258,53.45595]]]]}},
{ "type":"Feature","properties":{"osm_way_id":"478798249","name":"Lidl","building":"yes","shop":"supermarket","other":{"brand":"Lidl","brand:wikidata":"Q151954","opening_hours":"Mo-Sa 08:00-22:00; Su 10:00-16:00","payment:cash":"yes","payment:credit_cards":"yes"}}, "geometry":{"type":"MultiPolygon","coordinates":[[[[-2.19968,53.45646],[-2.19948,53.45653],[-2.19952,53.45657],[-2.19904,53.45674],[-2.19875,53.45646],[-2.19888,53.45642],[-2.19884,53.45638],[-2.19896,53.45634],[-2.19894,53.45632],[-2.19938,53.45616],[-2.19968,53.45646]]]]}},
{ "type":"Feature","properties":{"osm_way_id":"497737381","name":"Quality Save","building":"yes","shop":"supermarket","other":{"wheelchair":"yes"}}, "geometry":{"type":"MultiPolygon","coordinates":[[[[-2.27866,53.44337],[-2.2783,53.44336],[-2.27831,53.44325],[-2.27867,53.44325],[-2.27866,53.44337]]]]}},
{ "type":"Feature","properties":{"osm_way_id":"684998178","name":"Aldi","building":"retail","shop":"supermarket","other":{"brand":"ALDI","brand:wikidata":"Q41171672","brand:wikipedia":"en:Aldi"}}, "geometry":{"type":"MultiPolygon","coordinates":[[[[-2.2602,53.39727],[-2.26062,53.39739],[-2.26014,53.39792],[-2.25973,53.3978],[-2.2602,53.39727]]]]}},
{ "type":"Feature","properties":{"osm_way_id":"685303057","name":"Lidl","building":"yes","shop":"supermarket","other":{"brand":"Lidl","brand:wikidata":"Q151954","brand:wikipedia":"en:Lidl"}}, "geometry":{"type":"MultiPolygon","coordinates":[[[[-2.29602,53.39993],[-2.29605,53.40064],[-2.29549,53.40065],[-2.29548,53.40046],[-2.29555,53.40046],[-2.29553,53.39994],[-2.29602,53.39993]]]]}},
{ "type":"Feature","properties":{"osm_way_id":"795535873","name":"Aldi","building":"retail","shop":"supermarket","other":{"addr:housenumber":"143","addr:postcode":"M14 7LA","addr:street":"Lloyd Street South","brand":"ALDI","brand:wikidata":"Q41171672","brand:wikipedia":"en:Aldi","opening_hours":"Mo-Sa 08:00-22:00; Su 11:00-17:00","wheelchair":"yes"}}, "geometry":{"type":"MultiPolygon","coordinates":[[[[-2.23932,53.44746],[-2.23934,53.44769],[-2.23861,53.44771],[-2.23849,53.44767],[-2.23849,53.44762],[-2.23857,53.44762],[-2.23856,53.44748],[-2.23932,53.44746]]]]}},
{ "type":"Feature","properties":{"osm_way_id":"922804186","name":"Appna","building":"yes","shop":"supermarket"},"geometry":{"type":"MultiPolygon","coordinates":[[[[-2.20218,53.45673],[-2.20237,53.45705],[-2.20197,53.45714],[-2.20185,53.45693],[-2.2014,53.45703],[-2.20133,53.45692],[-2.20218,53.45673]]]]}}
]
}
