{
"type": "FeatureCollection",
"features": [
{ "type":"Feature","properties":{"osm_id":"269256560","name":"Nisa","other":{"shop":"supermarket"}}, "geometry":{"type":"Point","coordinates":[-2.13581,53.47855 ]}},
{ "type":"Feature","properties":{"osm_id":"974360165","name":"Morrisons","other":{"brand":"Morrisons","brand:wikidata":"Q922344","brand:wikipedia":"en:Morrisons","shop":"supermarket","wheelchair":"yes"}}, "geometry":{"type":"Point","coordinates":[-2.08083,53.47768 ]}},
{ "type":"Feature","properties":{"osm_id":"2714032586","name":"Wahib Grocers","other":{"shop":"supermarket"}}, "geometry":{"type":"Point","coordinates":[-2.08816,53.45792 ]}},
{ "type":"Feature","properties":{"osm_id":"4764798421","name":"Asda","other":{"shop":"supermarket","brand":"Asda","fhrs:id":"48048","operator":"Asda Stores Ltd","addr:city":"Ashton-Under-Lyne","addr:street":"Queens Road","addr:country":"GB","addr:postcode":"OL6 8ER","brand:wikidata":"Q297410","brand:wikipedia":"en:Asda","contact:website":"https:\/\/storelocator.asda.com\/north-west\/ashton-under-lyne\/queens-road-hurst"}}, "geometry":{"type":"Point","coordinates":[-2.07723,53.4997 ]}},
{ "type":"Feature","properties":{"osm_id":"5085132241","name":"A.S.M Indian Grocery","other":{"shop":"supermarket"}}, "geometry":{"type":"Point","coordinates":[-2.09935,53.48942 ]}},
{ "type":"Feature","properties":{"osm_way_id":"60966559","name":"Sainsbury's Ashton Moss","building":"yes","shop":"supermarket","other":{"addr:city":"Ashton-Under-Lyne","addr:housenumber":"2","addr:postcode":"OL6 7UB","addr:street":"Lord Sheldon Way","brand":"Sainsbury's","brand:wikidata":"Q152096","brand:wikipedia":"en:Sainsbury's","fhrs:id":"28387","opening_hours":"Mo-Fr 07:00-23:00, Sa 07:00-22:00, Su 11:00-17:00","source:addr":"FHRS Open Data","website":"https:\/\/stores.sainsburys.co.uk\/2054\/ashton-moss","wheelchair":"yes"}}, "geometry":{"type":"MultiPolygon","coordinates":[[[[-2.10657,53.49156],[-2.10662,53.49111],[-2.1052,53.49109],[-2.10514,53.49177],[-2.10654,53.49181],[-2.10657,53.49156]]]]}},
{ "type":"Feature","properties":{"osm_way_id":"78144699","name":"Asda","building":"retail","shop":"supermarket","other":{"addr:city":"Ashton-Under-Lyne","addr:country":"GB","addr:postcode":"OL6 7PF","addr:street":"Cavendish Street","brand":"Asda","brand:wikidata":"Q297410","brand:wikipedia":"en:Asda","contact:website":"https:\/\/storelocator.asda.com\/north-west\/ashton-under-lyne\/cavendish-street","fhrs:id":"4726","operator":"Asda Stores Ltd"}}, "geometry":{"type":"MultiPolygon","coordinates":[[[[-2.09587,53.4847],[-2.09563,53.48441],[-2.09453,53.48475],[-2.09457,53.48479],[-2.09439,53.48484],[-2.09429,53.48482],[-2.09418,53.48498],[-2.09426,53.48506],[-2.0942,53.48514],[-2.09426,53.48521],[-2.0943,53.48526],[-2.09443,53.48525],[-2.09463,53.48548],[-2.09482,53.48542],[-2.09476,53.48535],[-2.09479,53.48534],[-2.09512,53.4857],[-2.09579,53.48549],[-2.09591,53.48545],[-2.09583,53.48535],[-2.09599,53.4853],[-2.09568,53.48496],[-2.09581,53.48492],[-2.09586,53.48495],[-2.09594,53.48492],[-2.09578,53.48472],[-2.09587,53.4847]]]]}},
{ "type":"Feature","properties":{"osm_way_id":"78144702","name":"Lidl","building":"yes","shop":"supermarket","other":{"brand":"Lidl","brand:wikidata":"Q151954","brand:wikipedia":"en:Lidl"}}, "geometry":{"type":"MultiPolygon","coordinates":[[[[-2.09856,53.48639],[-2.09836,53.48612],[-2.09762,53.48632],[-2.09761,53.48635],[-2.09781,53.48663],[-2.09813,53.48654],[-2.09811,53.48651],[-2.09856,53.48639]]]]}},
{ "type":"Feature","properties":{"osm_way_id":"79499239","name":"Morrisons","building":"supermarket","shop":"supermarket","other":{"brand":"Morrisons","fhrs:id":"14054","addr:city":"Hyde","wheelchair":"yes","addr:street":"Mottram Road","source:addr":"FHRS Open Data","addr:postcode":"SK14 2NG","brand:wikidata":"Q922344","brand:wikipedia":"en:Morrisons"}}, "geometry":{"type":"MultiPolygon","coordinates":[[[[-2.07564,53.45224],[-2.07529,53.45203],[-2.07488,53.4521],[-2.07466,53.4517],[-2.07362,53.45187],[-2.07404,53.45271],[-2.07513,53.45251],[-2.07564,53.45224]]]]}},
{ "type":"Feature","properties":{"osm_way_id":"83674888","name":"Tesco","building":"retail","shop":"supermarket","other":{"brand":"Tesco","brand:wikidata":"Q487494","brand:wikipedia":"en:Tesco"}}, "geometry":{"type":"MultiPolygon","coordinates":[[[[-2.05395,53.48231],[-2.05373,53.48205],[-2.05361,53.48209],[-2.05358,53.48205],[-2.05216,53.48249],[-2.05212,53.48261],[-2.05226,53.48277],[-2.05233,53.48275],[-2.0524,53.48282],[-2.05245,53.4828],[-2.05253,53.4829],[-2.05262,53.48288],[-2.05263,53.48289],[-2.05394,53.48248],[-2.05383,53.48234],[-2.05395,53.48231]]]]}},
{ "type":"Feature","properties":{"osm_way_id":"102581144","name":"Co-op","building":"yes","shop":"supermarket","other":{"wheelchair":"yes"}}, "geometry":{"type":"MultiPolygon","coordinates":[[[[-2.04805,53.51864],[-2.0479,53.51852],[-2.0478,53.51856],[-2.04756,53.51848],[-2.0475,53.51854],[-2.04754,53.51855],[-2.04739,53.51872],[-2.04783,53.51886],[-2.04805,53.51864]]]]}},
{ "type":"Feature","properties":{"osm_way_id":"130205125","name":"Sainsbury's","building":"yes","shop":"supermarket","other":{"brand":"Sainsbury's","brand:wikidata":"Q152096","wheelchair":"yes"}}, "geometry":{"type":"MultiPolygon","coordinates":[[[[-2.1328,53.45519],[-2.13339,53.45457],[-2.13275,53.45434],[-2.13227,53.45433],[-2.13227,53.4545],[-2.13199,53.4545],[-2.13181,53.45468],[-2.13165,53.45464],[-2.13142,53.45486],[-2.13245,53.4552],[-2.13254,53.4551],[-2.1328,53.45519]]]]}},
{ "type":"Feature","properties":{"osm_way_id":"172211174","name":"ALDI","building":"yes","shop":"supermarket","other":{"addr:country":"GB","addr:postcode":"SK14 1BW","addr:street":"Great Norbury Street","brand":"ALDI","brand:wikidata":"Q41171672","brand:wikipedia":"en:Aldi","contact:website":"https:\/\/www.aldi.co.uk\/store\/s-uk-E0541"}}, "geometry":{"type":"MultiPolygon","coordinates":[[[[-2.08658,53.45217],[-2.08632,53.4517],[-2.08607,53.45174],[-2.0861,53.45179],[-2.08588,53.45183],[-2.08612,53.45226],[-2.08658,53.45217]]]]}},
{ "type":"Feature","properties":{"osm_way_id":"205288394","name":"ALDI","building":"retail","shop":"supermarket","other":{"addr:street":"Wellington Road","brand":"ALDI","brand:wikidata":"Q41171672","brand:wikipedia":"en:Aldi","building:levels":"1","roof:levels":"0","wheelchair":"yes"}}, "geometry":{"type":"MultiPolygon","coordinates":[[[[-2.09997,53.49014],[-2.09986,53.48983],[-2.09959,53.48978],[-2.09908,53.48991],[-2.09917,53.49022],[-2.09997,53.49014]]]]}},
{ "type":"Feature","properties":{"osm_way_id":"205679404","name":"Marks & Spencer","building":"yes","shop":"supermarket","other":{"addr:city":"Ashton-Under-Lyne","addr:postcode":"OL6 7UB","addr:street":"Lord Sheldon Way","brand":"Marks & Spencer","brand:wikidata":"Q714491","fhrs:id":"28296","source:addr":"FHRS Open Data","website":"https:\/\/www.marksandspencer.com\/stores\/ashton-moss-1190"}}, "geometry":{"type":"MultiPolygon","coordinates":[[[[-2.10657,53.49156],[-2.10794,53.49159],[-2.10796,53.49124],[-2.10796,53.49115],[-2.10662,53.49111],[-2.10657,53.49156]]]]}},
{ "type":"Feature","properties":{"osm_way_id":"206403432","name":"ALDI","building":"retail","shop":"supermarket","other":{"brand":"ALDI","brand:wikidata":"Q41171672","brand:wikipedia":"en:Aldi"}}, "geometry":{"type":"MultiPolygon","coordinates":[[[[-2.05858,53.48196],[-2.05933,53.48181],[-2.05939,53.48191],[-2.0595,53.48211],[-2.05876,53.48226],[-2.05858,53.48196]]]]}},
{ "type":"Feature","properties":{"osm_way_id":"238261966","name":"Asda","building":"yes","shop":"supermarket","other":{"brand":"Asda","fhrs:id":"28338","alt_name":"Asda Hyde Superstore","operator":"Asda Stores Ltd","wheelchair":"yes","addr:street":"Greenfield Street","addr:country":"GB","addr:postcode":"SK14 1BD","brand:wikidata":"Q297410","brand:wikipedia":"en:Asda","contact:website":"https:\/\/storelocator.asda.com\/north-west\/hyde\/greenfield-street"}}, "geometry":{"type":"MultiPolygon","coordinates":[[[[-2.08374,53.45092],[-2.08315,53.45116],[-2.08296,53.45099],[-2.08276,53.45107],[-2.08262,53.45095],[-2.0825,53.451],[-2.08193,53.45049],[-2.08284,53.45012],[-2.08374,53.45092]]]]}},
{ "type":"Feature","properties":{"osm_way_id":"286403404","name":"Morrisons","building":"yes","shop":"supermarket","other":{"brand":"Morrisons","brand:wikidata":"Q922344","brand:wikipedia":"en:Morrisons","operator":"Morrisons","wheelchair":"yes"}}, "geometry":{"type":"MultiPolygon","coordinates":[[[[-2.11111,53.45547],[-2.11089,53.45548],[-2.11089,53.45546],[-2.11027,53.45546],[-2.11027,53.45535],[-2.10972,53.45534],[-2.1097,53.45478],[-2.10951,53.45478],[-2.10951,53.45462],[-2.11024,53.4546],[-2.11025,53.4547],[-2.1104,53.4547],[-2.11041,53.45475],[-2.11091,53.45475],[-2.11092,53.45512],[-2.111,53.45512],[-2.111,53.45516],[-2.11109,53.45516],[-2.1111,53.45532],[-2.11119,53.45532],[-2.11119,53.45543],[-2.11111,53.45547]]]]}},
{ "type":"Feature","properties":{"osm_way_id":"529796457","name":"Tesco Extra","building":"yes","shop":"supermarket","other":{"brand":"Tesco Extra","brand:wikidata":"Q25172225","brand:wikipedia":"en:Tesco Extra"}}, "geometry":{"type":"MultiPolygon","coordinates":[[[[-2.02316,53.45433],[-2.02293,53.45303],[-2.02313,53.45302],[-2.02312,53.45295],[-2.02401,53.45289],[-2.02406,53.45316],[-2.02399,53.45316],[-2.02409,53.45371],[-2.02377,53.45373],[-2.02383,53.45405],[-2.02356,53.45407],[-2.0236,53.4543],[-2.02316,53.45433]]]]}},
{ "type":"Feature","properties":{"osm_way_id":"588736396","name":"Lidl","building":"yes","shop":"supermarket","other":{"addr:country":"GB","addr:postcode":"M34 3LJ","addr:street":"Ashworth Street","brand":"Lidl","brand:wikidata":"Q151954","brand:wikipedia":"en:Lidl","fhrs:id":"21311"}}, "geometry":{"type":"MultiPolygon","coordinates":[[[[-2.11585,53.45628],[-2.11625,53.45628],[-2.11625,53.45657],[-2.11654,53.45657],[-2.11654,53.45664],[-2.11649,53.45664],[-2.11649,53.45672],[-2.1164,53.45672],[-2.1164,53.45682],[-2.11585,53.45682],[-2.11585,53.45628]]]]}},
{ "type":"Feature","properties":{"osm_way_id":"624427812","name":"Tesco","building":"yes","shop":"supermarket","other":{"brand":"Tesco","brand:wikidata":"Q487494","brand:wikipedia":"en:Tesco"}}, "geometry":{"type":"MultiPolygon","coordinates":[[[[-2.14775,53.48092],[-2.14898,53.48099],[-2.14898,53.48092],[-2.14908,53.48092],[-2.14911,53.48071],[-2.14901,53.4807],[-2.149,53.48075],[-2.14882,53.48075],[-2.14883,53.48064],[-2.14886,53.48064],[-2.14886,53.4806],[-2.14864,53.48058],[-2.14864,53.48053],[-2.14857,53.48052],[-2.14857,53.4805],[-2.14843,53.4805],[-2.14842,53.48052],[-2.14813,53.4805],[-2.14812,53.48055],[-2.14782,53.48053],[-2.14775,53.48092]]]]}},
{ "type":"Feature","properties":{"osm_way_id":"903404189","name":"The Food Warehouse","building":"yes","shop":"supermarket","other":{"brand":"The Food Warehouse","brand:wikidata":"Q87263899"}}, "geometry":{"type":"MultiPolygon","coordinates":[[[[-2.0829,53.45196],[-2.08273,53.4521],[-2.08278,53.45213],[-2.0826,53.45228],[-2.08231,53.45216],[-2.08266,53.45186],[-2.0827,53.45187],[-2.0829,53.45196]]]]}}
]
}
