{
"type": "FeatureCollection",
"features": [
{ "type":"Feature","properties":{"osm_id":"1860373744","name":"Tesco","other":{"brand":"Tesco","brand:wikidata":"Q487494","brand:wikipedia":"en:Tesco","contact:website":"https:\/\/www.tesco.com\/store-locator\/rochdale\/silk-st","shop":"supermarket"}}, "geometry":{"type":"Point","coordinates":[-2.17407,53.60246 ]}},
{ "type":"Feature","properties":{"osm_id":"1960946639","name":"Spar","other":{"brand":"Spar","brand:wikidata":"Q610492","shop":"supermarket","wheelchair":"yes"}}, "geometry":{"type":"Point","coordinates":[-2.12072,53.63758 ]}},
{ "type":"Feature","properties":{"osm_id":"2116717119","name":"Aldi","other":{"brand":"ALDI","brand:wikidata":"Q41171672","brand:wikipedia":"en:Aldi","shop":"supermarket","wheelchair":"yes"}}, "geometry":{"type":"Point","coordinates":[-2.15012,53.61788 ]}},
{ "type":"Feature","properties":{"osm_id":"2116825976","name":"Lidl","other":{"addr:postcode":"OL12 6TS","addr:street":"Spotland Road","brand":"Lidl","brand:wikidata":"Q151954","fhrs:id":"149771","shop":"supermarket","source:addr":"FHRS Open Data","wheelchair":"yes"}}, "geometry":{"type":"Point","coordinates":[-2.16094,53.61961 ]}},
{ "type":"Feature","properties":{"osm_id":"2225553081","name":"The Co-operative Food","other":{"shop":"supermarket","operator":"The Co-operative Group"}}, "geometry":{"type":"Point","coordinates":[-2.19269,53.53742 ]}},
{ "type":"Feature","properties":{"osm_id":"4716376559","name":"Aldi","other":{"addr:postcode":"OL16 4GJ","addr:street":"Elizabethan Way","brand":"ALDI","brand:wikidata":"Q41171672","brand:wikipedia":"en:Aldi","shop":"supermarket","source:addr:postcode":"code-point_open"}}, "geometry":{"type":"Point","coordinates":[-2.11456,53.60953 ]}},
{ "type":"Feature","properties":{"osm_id":"5086260296","name":"Asda","other":{"shop":"supermarket","brand":"Asda","fhrs:id":"42822","operator":"Asda Stores Ltd","addr:unit":"2","addr:street":"Kingsway","source:addr":"FHRS Open Data","addr:country":"GB","addr:postcode":"OL16 5AF","addr:housename":"Kiingsway Retail Park","brand:wikidata":"Q297410","brand:wikipedia":"en:Asda","contact:website":"https:\/\/storelocator.asda.com\/north-west\/rochdale\/unit-2-kingsway-retail-park"}}, "geometry":{"type":"Point","coordinates":[-2.12841,53.61533 ]}},
{ "type":"Feature","properties":{"osm_way_id":"137171383","name":"Tesco Extra","building":"yes","shop":"supermarket","other":{"addr:city":"Manchester","addr:postcode":"M24 1HB","addr:street":"Park Road","addr:town":"Middleton","brand":"Tesco Extra","brand:wikidata":"Q25172225","brand:wikipedia":"en:Tesco Extra","contact:website":"https:\/\/www.tesco.com\/store-locator\/middleton-manchester\/barton-rd","fhrs:id":"56891","source:addr":"FHRS Open Data"}}, "geometry":{"type":"MultiPolygon","coordinates":[[[[-2.19743,53.54952],[-2.19676,53.54976],[-2.19663,53.5498],[-2.19641,53.54988],[-2.19562,53.54908],[-2.19665,53.54873],[-2.19743,53.54952]]]]}},
{ "type":"Feature","properties":{"osm_way_id":"154470005","name":"Asda","building":"retail","shop":"supermarket","other":{"brand":"Asda","fhrs:id":"144326","operator":"Asda Stores Ltd","addr:city":"Rochdale","addr:street":"Dane Street","addr:country":"GB","addr:postcode":"OL12 6XT","brand:wikidata":"Q297410","brand:wikipedia":"en:Asda","contact:website":"https:\/\/storelocator.asda.com\/north-west\/rochdale\/the-old-cricket-ground-dane-street"}}, "geometry":{"type":"MultiPolygon","coordinates":[[[[-2.16588,53.61616],[-2.16455,53.61645],[-2.16452,53.6164],[-2.16444,53.61642],[-2.16441,53.61636],[-2.16436,53.61638],[-2.16427,53.61624],[-2.16422,53.61625],[-2.16396,53.61583],[-2.1644,53.61573],[-2.16436,53.61567],[-2.16464,53.61561],[-2.16466,53.61564],[-2.16502,53.61556],[-2.16506,53.61564],[-2.1655,53.61554],[-2.16571,53.61588],[-2.16588,53.61616]]]]}},
{ "type":"Feature","properties":{"osm_way_id":"157057969","name":"Aldi","building":"yes","shop":"supermarket","other":{"brand":"ALDI","brand:wikidata":"Q41171672","brand:wikipedia":"en:Aldi"}}, "geometry":{"type":"MultiPolygon","coordinates":[[[[-2.19917,53.55095],[-2.19875,53.55081],[-2.19917,53.55038],[-2.19927,53.55041],[-2.19924,53.55044],[-2.19935,53.55048],[-2.19929,53.55054],[-2.19944,53.55059],[-2.19921,53.55082],[-2.19928,53.55084],[-2.19917,53.55095]]]]}},
{ "type":"Feature","properties":{"osm_way_id":"175665327","name":"Company Shop","building":"yes","shop":"supermarket","other":{"website":"https:\/\/www.companyshopgroup.co.uk\/home"}}, "geometry":{"type":"MultiPolygon","coordinates":[[[[-2.17036,53.5688],[-2.16955,53.56882],[-2.16953,53.56866],[-2.16981,53.56865],[-2.1698,53.5686],[-2.17007,53.56859],[-2.17006,53.56854],[-2.17033,53.56852],[-2.17036,53.5688]]]]}},
{ "type":"Feature","properties":{"osm_way_id":"175773411","name":"Morrisons","building":"yes","shop":"supermarket","other":{"addr:country":"GB","addr:postcode":"OL16 4AT","brand":"Morrisons","brand:wikidata":"Q922344","brand:wikipedia":"en:Morrisons"}}, "geometry":{"type":"MultiPolygon","coordinates":[[[[-2.13642,53.61226],[-2.1362,53.61236],[-2.13623,53.61239],[-2.1362,53.61242],[-2.13633,53.6125],[-2.13594,53.6127],[-2.1358,53.6127],[-2.13578,53.61273],[-2.13556,53.61271],[-2.13559,53.61268],[-2.13544,53.61266],[-2.13531,53.61257],[-2.13548,53.6125],[-2.13481,53.61203],[-2.13525,53.61179],[-2.13507,53.61167],[-2.13535,53.61152],[-2.1361,53.61209],[-2.13616,53.61207],[-2.13642,53.61226]]]]}},
{ "type":"Feature","properties":{"osm_way_id":"202374364","name":"Co-op Food","building":"yes","shop":"supermarket","other":{"brand":"Co-op Food","brand:wikidata":"Q3277439","brand:wikipedia":"en:Co-op Food"}}, "geometry":{"type":"MultiPolygon","coordinates":[[[[-2.09604,53.64269],[-2.09583,53.64252],[-2.09652,53.6422],[-2.09654,53.64222],[-2.09658,53.6422],[-2.09664,53.64225],[-2.09661,53.64226],[-2.09664,53.64229],[-2.09638,53.64241],[-2.09648,53.64248],[-2.09604,53.64269]]]]}},
{ "type":"Feature","properties":{"osm_way_id":"202797181","name":"Lidl","building":"yes","shop":"supermarket","other":{"addr:city":"Littleborough","addr:country":"GB","addr:postcode":"OL15 8YJ","addr:street":"Stockton Street","alt_name":"Lidl Littleborough","brand":"Lidl","brand:wikidata":"Q151954","brand:wikipedia":"en:Lidl","building:levels":"1","fhrs:id":"1107663","source:outline":"bing"}}, "geometry":{"type":"MultiPolygon","coordinates":[[[[-2.10303,53.64341],[-2.10314,53.64335],[-2.10247,53.64289],[-2.10205,53.6431],[-2.10226,53.64325],[-2.10231,53.64322],[-2.10272,53.6435],[-2.10298,53.64337],[-2.10303,53.64341]]]]}},
{ "type":"Feature","properties":{"osm_way_id":"263421117","name":"Morrisons","building":"supermarket","shop":"supermarket","other":{"addr:postcode":"OL10 4PU","brand":"Morrisons","brand:wikidata":"Q922344","brand:wikipedia":"en:Morrisons","website":"https:\/\/my.morrisons.com\/storefinder\/32"}}, "geometry":{"type":"MultiPolygon","coordinates":[[[[-2.22295,53.5948],[-2.22348,53.59477],[-2.22348,53.59482],[-2.22388,53.5948],[-2.22386,53.59461],[-2.22402,53.5946],[-2.22406,53.59493],[-2.22439,53.59491],[-2.2244,53.59496],[-2.22459,53.59495],[-2.22464,53.59534],[-2.22431,53.59536],[-2.22432,53.59546],[-2.22316,53.59551],[-2.22309,53.59499],[-2.22298,53.59499],[-2.22295,53.5948]]]]}},
{ "type":"Feature","properties":{"osm_way_id":"263421159","name":"Aldi","building":"yes","shop":"supermarket","other":{"brand":"ALDI","brand:wikidata":"Q41171672","brand:wikipedia":"en:Aldi"}}, "geometry":{"type":"MultiPolygon","coordinates":[[[[-2.20995,53.59342],[-2.20947,53.59357],[-2.20907,53.59311],[-2.20929,53.59304],[-2.20933,53.59309],[-2.20954,53.59303],[-2.20979,53.5933],[-2.20983,53.59329],[-2.20995,53.59342]]]]}},
{ "type":"Feature","properties":{"osm_way_id":"306532901","name":"Aldi","building":"supermarket","shop":"supermarket","other":{"brand":"ALDI","brand:wikidata":"Q41171672","brand:wikipedia":"en:Aldi"}}, "geometry":{"type":"MultiPolygon","coordinates":[[[[-2.20476,53.54766],[-2.20466,53.54769],[-2.20465,53.54767],[-2.20435,53.54775],[-2.20438,53.5478],[-2.20448,53.54793],[-2.20451,53.54792],[-2.20472,53.54822],[-2.20498,53.54815],[-2.20501,53.5482],[-2.20512,53.54817],[-2.20476,53.54766]]]]}},
{ "type":"Feature","properties":{"osm_way_id":"359733746","name":"The Co-operative Food","building":"yes","shop":"supermarket","other":{"operator":"The Co-operative Group"}}, "geometry":{"type":"MultiPolygon","coordinates":[[[[-2.18097,53.6261],[-2.18098,53.62625],[-2.18077,53.62625],[-2.18077,53.6262],[-2.18065,53.6262],[-2.18065,53.6261],[-2.18097,53.6261]]]]}},
{ "type":"Feature","properties":{"osm_way_id":"359734141","name":"The Co-operative Food","building":"yes","shop":"supermarket","other":{"operator":"The Co-operative Group"}}, "geometry":{"type":"MultiPolygon","coordinates":[[[[-2.18937,53.62221],[-2.1893,53.62256],[-2.18904,53.62254],[-2.18905,53.62245],[-2.18907,53.62233],[-2.18909,53.62226],[-2.18921,53.62227],[-2.18923,53.6222],[-2.18937,53.62221]]]]}},
{ "type":"Feature","properties":{"osm_way_id":"359734303","name":"The Co-operative Food","building":"yes","shop":"supermarket","other":{"operator":"The Co-operative Group"}}, "geometry":{"type":"MultiPolygon","coordinates":[[[[-2.19828,53.62213],[-2.19817,53.62229],[-2.19809,53.62228],[-2.19821,53.62211],[-2.19828,53.62213]]]]}},
{ "type":"Feature","properties":{"osm_way_id":"359734511","name":"The Co-operative Food","building":"yes","shop":"supermarket","other":{"operator":"The Co-operative Group","addr:city":"Rochdale","addr:street":"Edenfield Road","addr:postcode":"OL11 5XE","opening_hours":"07:00-22:00","addr:housenumber":"645"}}, "geometry":{"type":"MultiPolygon","coordinates":[[[[-2.21031,53.62659],[-2.21028,53.6267],[-2.20998,53.62667],[-2.21002,53.62656],[-2.21031,53.62659]]]]}},
{ "type":"Feature","properties":{"osm_way_id":"359734849","name":"The Co-operative Food","building":"yes","shop":"supermarket","other":{"operator":"The Co-operative Group"}}, "geometry":{"type":"MultiPolygon","coordinates":[[[[-2.13312,53.62181],[-2.13285,53.62192],[-2.1327,53.62179],[-2.13297,53.62169],[-2.13312,53.62181]]]]}},
{ "type":"Feature","properties":{"osm_way_id":"359735089","name":"The Co-operative Food","building":"yes","shop":"supermarket","other":{"operator":"The Co-operative Group","wheelchair":"yes"}}, "geometry":{"type":"MultiPolygon","coordinates":[[[[-2.11045,53.60966],[-2.11103,53.60989],[-2.11079,53.6101],[-2.1104,53.60976],[-2.11036,53.60974],[-2.11045,53.60966]]]]}},
{ "type":"Feature","properties":{"osm_way_id":"359735286","name":"The Co-operative Food","building":"yes","shop":"supermarket","other":{"operator":"The Co-operative Group"}}, "geometry":{"type":"MultiPolygon","coordinates":[[[[-2.17648,53.59004],[-2.17663,53.59009],[-2.17653,53.5902],[-2.17637,53.59015],[-2.17648,53.59004]]]]}},
{ "type":"Feature","properties":{"osm_way_id":"359735751","name":"The Co-operative Food","building":"yes","shop":"supermarket","other":{"operator":"The Co-operative Group"}}, "geometry":{"type":"MultiPolygon","coordinates":[[[[-2.20856,53.5813],[-2.20877,53.58137],[-2.20862,53.58153],[-2.20849,53.58149],[-2.20845,53.58143],[-2.20856,53.5813]]]]}},
{ "type":"Feature","properties":{"osm_way_id":"359735922","name":"The Co-operative Food","building":"yes","shop":"supermarket","other":{"operator":"The Co-operative Group"}}, "geometry":{"type":"MultiPolygon","coordinates":[[[[-2.25067,53.58816],[-2.25072,53.58831],[-2.25049,53.58834],[-2.25043,53.58818],[-2.25067,53.58816]]]]}},
{ "type":"Feature","properties":{"osm_way_id":"742495934","name":"Aldi","building":"retail","shop":"supermarket","other":{"addr:housenumber":"90","addr:postcode":"OL12 6XD","addr:street":"Mellor Street","brand":"ALDI","brand:wikidata":"Q41171672","brand:wikipedia":"en:Aldi","fhrs:id":"860405","source:addr":"FHRS Open Data","source:geometry":"ESRI World Imagery","website":"https:\/\/www.aldi.co.uk\/store\/s-uk-E0953"}}, "geometry":{"type":"MultiPolygon","coordinates":[[[[-2.1679,53.61541],[-2.16765,53.61532],[-2.16759,53.61537],[-2.16748,53.61533],[-2.16753,53.61527],[-2.16713,53.61513],[-2.16721,53.61505],[-2.16726,53.61507],[-2.16743,53.6149],[-2.16815,53.61516],[-2.1679,53.61541]]]]}}
]
}
