{
"type": "FeatureCollection",
"features": [
{ "type":"Feature","properties":{"osm_id":"27169436","name":"Tesco Express","other":{"addr:city":"Stockport","addr:housenumber":"63","addr:postcode":"SK8 4ES","addr:street":"Church Road","brand":"Tesco Express","brand:wikidata":"Q98456772","contact:website":"https:\/\/www.tesco.com\/store-locator\/gatley\/63-church-rd","fhrs:id":"101837","opening_hours":"Mo-Su 07:00-23:00","shop":"supermarket","source:addr":"fhrs opendata"}}, "geometry":{"type":"Point","coordinates":[-2.23937,53.39086 ]}},
{ "type":"Feature","properties":{"osm_id":"292666147","name":"Co-Op","other":{"shop":"supermarket"}}, "geometry":{"type":"Point","coordinates":[-2.15731,53.36534 ]}},
{ "type":"Feature","properties":{"osm_id":"297574222","name":"The co-operative food","other":{"shop":"supermarket"}}, "geometry":{"type":"Point","coordinates":[-2.14698,53.37833 ]}},
{ "type":"Feature","properties":{"osm_id":"369527066","name":"Co-Op","other":{"shop":"supermarket"}}, "geometry":{"type":"Point","coordinates":[-2.18996,53.36581 ]}},
{ "type":"Feature","properties":{"osm_id":"490081927","name":"Co-op Food","other":{"addr:city":"Stockport","addr:housenumber":"84","addr:postcode":"SK3 9AL","addr:street":"Castle Street","brand":"Co-op Food","brand:wikidata":"Q3277439","brand:wikipedia":"en:Co-op Food","opening_hours":"Mon-Sat 07:00--22:00, Sun 10:00--16:00","operator":"The Co-Operative Group","payment:cash":"yes","payment:credit_cards":"yes","payment:debit_cards":"yes","shop":"supermarket","wheelchair":"yes"}}, "geometry":{"type":"Point","coordinates":[-2.16739,53.40184 ]}},
{ "type":"Feature","properties":{"osm_id":"1782739528","name":"Co-op","other":{"shop":"supermarket"}}, "geometry":{"type":"Point","coordinates":[-2.10383,53.41571 ]}},
{ "type":"Feature","properties":{"osm_id":"2098007117","name":"ALDI","other":{"addr:postcode":"SK3 0LX","addr:street":"Stockport Road","brand":"ALDI","brand:wikidata":"Q41171672","brand:wikipedia":"en:Aldi","contact:website":"https:\/\/www.aldi.co.uk\/store\/s-uk-E0508","shop":"supermarket"}}, "geometry":{"type":"Point","coordinates":[-2.19284,53.40137 ]}},
{ "type":"Feature","properties":{"osm_id":"2197662944","other":{"amenity":"parking_entrance"}}, "geometry":{"type":"Point","coordinates":[-2.15553,53.41224 ]}},
{ "type":"Feature","properties":{"osm_id":"2298954320","name":"Lidl","other":{"addr:country":"GB","addr:postcode":"SK8 5NU","addr:street":"Councillor Lane","brand":"Lidl","brand:wikidata":"Q151954","brand:wikipedia":"en:Lidl","fhrs:id":"1152276","shop":"supermarket"}}, "geometry":{"type":"Point","coordinates":[-2.18479,53.38701 ]}},
{ "type":"Feature","properties":{"osm_id":"2694450082","name":"Co-operative","other":{"shop":"supermarket"}}, "geometry":{"type":"Point","coordinates":[-2.10744,53.39078 ]}},
{ "type":"Feature","properties":{"osm_id":"3308518062","name":"Co-op Great Moor","other":{"shop":"supermarket"}}, "geometry":{"type":"Point","coordinates":[-2.13576,53.3885 ]}},
{ "type":"Feature","properties":{"osm_id":"3379264164","name":"Asda","other":{"shop":"supermarket","brand":"Asda","fhrs:id":"716510","operator":"Asda Stores Ltd","addr:city":"Stockport","addr:street":"Manchester Road","addr:country":"GB","addr:postcode":"SK4 1TN","brand:wikidata":"Q297410","brand:wikipedia":"en:Asda","contact:website":"https:\/\/storelocator.asda.com\/north-west\/stockport\/manchester-road","addr:housenumber":"6"}}, "geometry":{"type":"Point","coordinates":[-2.16291,53.42097 ]}},
{ "type":"Feature","properties":{"osm_id":"4192290673","name":"The Co-operative Food","other":{"shop":"supermarket","fhrs:id":"127238","operator":"Co-operative Group Food Limitd","addr:city":"Manchester","addr:street":"Church Road","addr:postcode":"SK8 4NQ","addr:housenumber":"72"}}, "geometry":{"type":"Point","coordinates":[-2.23768,53.39144 ]}},
{ "type":"Feature","properties":{"osm_id":"4416687111","name":"The Co-operative Food","other":{"shop":"supermarket","operator":"The Co-operative Group"}}, "geometry":{"type":"Point","coordinates":[-2.20533,53.41233 ]}},
{ "type":"Feature","properties":{"osm_id":"4416698409","name":"Co-op","other":{"shop":"supermarket","old_name":"M Local","operator":"The Co-operative Group"}}, "geometry":{"type":"Point","coordinates":[-2.18147,53.41043 ]}},
{ "type":"Feature","properties":{"osm_id":"4552954247","name":"Asda","other":{"shop":"supermarket","brand":"Asda","fhrs:id":"552200","operator":"Asda Stores Ltd","addr:city":"Cheadle","addr:country":"GB","addr:postcode":"SK8 5BB","addr:housename":"Cheadle Hulme Shopping Centre","brand:wikidata":"Q297410","brand:wikipedia":"en:Asda","contact:website":"https:\/\/storelocator.asda.com\/north-west\/cheadle-hulme\/the-precinct"}}, "geometry":{"type":"Point","coordinates":[-2.18877,53.37798 ]}},
{ "type":"Feature","properties":{"osm_id":"4729369182","name":"Budgens","other":{"brand":"Budgens","brand:wikidata":"Q4985016","shop":"supermarket"}}, "geometry":{"type":"Point","coordinates":[-2.16238,53.3423 ]}},
{ "type":"Feature","properties":{"osm_id":"5271085221","name":"Costcutter","other":{"shop":"supermarket"}}, "geometry":{"type":"Point","coordinates":[-2.10704,53.39086 ]}},
{ "type":"Feature","properties":{"osm_id":"7449822779","name":"Asda","other":{"shop":"supermarket","brand":"Asda","fhrs:id":"102773","operator":"Asda Stores Ltd","addr:city":"Stockport","addr:street":"Hamilton Square","addr:country":"GB","addr:postcode":"SK4 1JG","brand:wikidata":"Q297410","brand:wikipedia":"en:Asda","contact:website":"https:\/\/storelocator.asda.com\/north-west\/stockport\/hamilton-square-belmont-shopping-centre","addr:housenumber":"23"}}, "geometry":{"type":"Point","coordinates":[-2.16564,53.416 ]}},
{ "type":"Feature","properties":{"osm_id":"9071200628","other":{"amenity":"parking_entrance"}}, "geometry":{"type":"Point","coordinates":[-2.15564,53.412 ]}},
{ "type":"Feature","properties":{"osm_id":"9115348830","other":{"amenity":"parking_entrance"}}, "geometry":{"type":"Point","coordinates":[-2.15385,53.41694 ]}},
{ "type":"Feature","properties":{"osm_id":"219405452","highway":"service","other":{"oneway":"yes"}}, "geometry":{"type":"LineString","coordinates":[[-2.16935,53.4124],[-2.16937,53.41243],[-2.16939,53.41246],[-2.16944,53.41247],[-2.16945,53.41248],[-2.16952,53.41246],[-2.16956,53.41244],[-2.1696,53.4124]]}},
{ "type":"Feature","properties":{"osm_way_id":"24718543","name":"ALDI","building":"yes","shop":"supermarket","other":{"addr:street":"Weybrook Road","brand":"ALDI","brand:wikidata":"Q41171672","brand:wikipedia":"en:Aldi","opening_hours":"Mo-Sa 08:00-21:00; Su 10:00-16:00","operator":"Aldi SÃ¼d"}}, "geometry":{"type":"MultiPolygon","coordinates":[[[[-2.18243,53.43395],[-2.18171,53.43419],[-2.18157,53.43404],[-2.1815,53.43406],[-2.18144,53.43401],[-2.18226,53.43375],[-2.18243,53.43395]]]]}},
{ "type":"Feature","properties":{"osm_way_id":"28028615","name":"Asda","building":"yes","shop":"supermarket","other":{"addr:city":"Stockport","addr:country":"GB","addr:postcode":"SK1 1UA","addr:street":"Warren Street","brand":"Asda","brand:wikidata":"Q297410","brand:wikipedia":"en:Asda","contact:phone":"+44 161 429 9599","contact:website":"https:\/\/storelocator.asda.com\/north-west\/stockport\/warren-street","fhrs:id":"80369","opening_hours":"Mo-Sa 07:00-22:00; Su 10:30-16:30","operator":"Asda Stores Ltd"}}, "geometry":{"type":"MultiPolygon","coordinates":[[[[-2.15667,53.41267],[-2.15659,53.4125],[-2.15642,53.41211],[-2.15633,53.41212],[-2.15629,53.41213],[-2.15627,53.41209],[-2.15592,53.41196],[-2.15579,53.41198],[-2.15564,53.412],[-2.15547,53.41202],[-2.15556,53.41224],[-2.15553,53.41224],[-2.15515,53.4123],[-2.15531,53.41267],[-2.15532,53.41269],[-2.15539,53.41286],[-2.15667,53.41267]]]]}},
{ "type":"Feature","properties":{"osm_way_id":"40549113","name":"Morrisons","building":"yes","shop":"supermarket","other":{"addr:postcode":"SK3 0RJ","addr:street":"Edgley Road","brand":"Morrisons","brand:wikidata":"Q922344","brand:wikipedia":"en:Morrisons","opening_hours":"Mo-Sa 07:00-11:00; Su 10:00-16:00","website":"https:\/\/my.morrisons.com\/storefinder\/122"}}, "geometry":{"type":"MultiPolygon","coordinates":[[[[-2.1896,53.40172],[-2.18908,53.4019],[-2.18917,53.40199],[-2.18899,53.40206],[-2.18816,53.40117],[-2.18922,53.40078],[-2.18941,53.40095],[-2.18932,53.40098],[-2.18968,53.40136],[-2.18951,53.40142],[-2.18957,53.40148],[-2.18952,53.40158],[-2.18949,53.40159],[-2.1896,53.40172]]]]}},
{ "type":"Feature","properties":{"osm_way_id":"80129127","name":"Tesco Extra","building":"yes","shop":"supermarket","other":{"addr:city":"Stockport","addr:housename":"Tesco Stores Ltd","addr:postcode":"SK1 2BT","addr:street":"Tiviot Way","branch":"Stockport","brand":"Tesco Extra","brand:wikidata":"Q25172225","brand:wikipedia":"en:Tesco Extra","wheelchair":"yes"}}, "geometry":{"type":"MultiPolygon","coordinates":[[[[-2.15396,53.41696],[-2.15385,53.41694],[-2.15376,53.41692],[-2.15372,53.41703],[-2.15287,53.41689],[-2.15291,53.41681],[-2.15262,53.41677],[-2.1527,53.4166],[-2.1529,53.41617],[-2.1528,53.41616],[-2.15276,53.41615],[-2.15277,53.41612],[-2.15274,53.41611],[-2.15281,53.41596],[-2.15284,53.41597],[-2.15286,53.41593],[-2.1529,53.41594],[-2.15299,53.41595],[-2.15303,53.41585],[-2.15431,53.41606],[-2.15405,53.41662],[-2.15411,53.41664],[-2.15396,53.41696]]]]}},
{ "type":"Feature","properties":{"osm_way_id":"114093753","name":"Morrisons","building":"yes","shop":"supermarket","other":{"brand":"Morrisons","brand:wikidata":"Q922344","brand:wikipedia":"en:Morrisons"}}, "geometry":{"type":"MultiPolygon","coordinates":[[[[-2.11993,53.42331],[-2.11969,53.42283],[-2.11981,53.4228],[-2.11967,53.42253],[-2.11911,53.42263],[-2.11915,53.42272],[-2.1185,53.42283],[-2.11862,53.42309],[-2.11876,53.42306],[-2.11885,53.42326],[-2.11873,53.42328],[-2.11884,53.4235],[-2.11993,53.42331]]]]}},
{ "type":"Feature","properties":{"osm_way_id":"116596689","name":"Co-op Food","building":"yes","shop":"supermarket","other":{"brand":"Co-op Food","brand:wikidata":"Q3277439","brand:wikipedia":"en:Co-op Food"}}, "geometry":{"type":"MultiPolygon","coordinates":[[[[-2.23379,53.3705],[-2.2338,53.37043],[-2.23385,53.37043],[-2.23388,53.37026],[-2.23383,53.37026],[-2.23384,53.37021],[-2.23354,53.37019],[-2.23349,53.37048],[-2.23379,53.3705]]]]}},
{ "type":"Feature","properties":{"osm_way_id":"116596694","name":"Sainsbury's","building":"retail","shop":"supermarket","other":{"brand":"Sainsbury's","brand:wikidata":"Q152096","brand:wikipedia":"en:Sainsbury's"}}, "geometry":{"type":"MultiPolygon","coordinates":[[[[-2.21517,53.37628],[-2.21526,53.37669],[-2.21523,53.37669],[-2.21526,53.37682],[-2.21529,53.37681],[-2.21529,53.37685],[-2.21555,53.37683],[-2.21554,53.37678],[-2.21637,53.37671],[-2.21636,53.37664],[-2.21687,53.3766],[-2.21684,53.37645],[-2.21675,53.37645],[-2.21677,53.37652],[-2.21669,53.37652],[-2.21662,53.37624],[-2.21646,53.37625],[-2.21639,53.37595],[-2.21661,53.37593],[-2.21657,53.37579],[-2.21523,53.3759],[-2.21519,53.37588],[-2.21518,53.37583],[-2.21506,53.37584],[-2.21506,53.37586],[-2.21494,53.37587],[-2.21497,53.37602],[-2.21501,53.37616],[-2.21502,53.37618],[-2.21504,53.37619],[-2.21507,53.37619],[-2.2151,53.37619],[-2.21512,53.37628],[-2.21517,53.37628]]]]}},
{ "type":"Feature","properties":{"osm_way_id":"135932131","name":"Asda","building":"yes","shop":"supermarket","other":{"brand":"Asda","fhrs:id":"98482","operator":"Asda Stores Ltd","addr:city":"Stockport","addr:street":"London Road","addr:country":"GB","addr:postcode":"SK7 4AG","brand:wikidata":"Q297410","brand:wikipedia":"en:Asda","contact:website":"https:\/\/storelocator.asda.com\/north-west\/stockport\/114-london-road","addr:housenumber":"114"}}, "geometry":{"type":"MultiPolygon","coordinates":[[[[-2.12486,53.3822],[-2.12473,53.3821],[-2.12468,53.38211],[-2.12433,53.38182],[-2.12435,53.38177],[-2.12432,53.38174],[-2.1244,53.38171],[-2.12447,53.38172],[-2.12489,53.38153],[-2.12523,53.38173],[-2.12556,53.38196],[-2.12535,53.38206],[-2.12523,53.38201],[-2.12486,53.3822]]]]}},
{ "type":"Feature","properties":{"osm_way_id":"135932135","name":"Sainsbury's","building":"yes","shop":"supermarket","other":{"brand":"Sainsbury's","brand:wikidata":"Q152096","brand:wikipedia":"en:Sainsbury's","wheelchair":"yes"}}, "geometry":{"type":"MultiPolygon","coordinates":[[[[-2.12599,53.38577],[-2.12526,53.38538],[-2.12523,53.38541],[-2.12504,53.3853],[-2.12517,53.38521],[-2.12494,53.38509],[-2.12486,53.38516],[-2.1246,53.38502],[-2.1252,53.38461],[-2.12526,53.38456],[-2.12594,53.38492],[-2.12589,53.38496],[-2.12598,53.38502],[-2.1261,53.38492],[-2.12616,53.38496],[-2.12672,53.38529],[-2.12599,53.38577]]]]}},
{ "type":"Feature","properties":{"osm_way_id":"139321455","name":"ALDI","building":"yes","shop":"supermarket","other":{"addr:city":"Stockport","addr:housename":"Aldi","addr:postcode":"SK1 2NA","addr:street":"Newbridge Lane","brand":"ALDI","brand:wikidata":"Q41171672","brand:wikipedia":"en:Aldi"}}, "geometry":{"type":"MultiPolygon","coordinates":[[[[-2.15323,53.41085],[-2.15317,53.4107],[-2.15325,53.41069],[-2.15323,53.41064],[-2.1533,53.41063],[-2.15327,53.41057],[-2.15321,53.41058],[-2.1532,53.41056],[-2.15242,53.41069],[-2.15246,53.41078],[-2.15253,53.41095],[-2.15313,53.41086],[-2.15322,53.41085],[-2.15323,53.41085]]]]}},
{ "type":"Feature","properties":{"osm_way_id":"144594360","name":"Waitrose","building":"yes","shop":"supermarket","other":{"addr:city":"Cheadle Hulme","addr:postcode":"SK8 5AE","addr:street":"Station Road","brand":"Waitrose & Partners","brand:wikidata":"Q771734","brand:wikipedia":"en:Waitrose & Partners","fhrs:id":"78124","operator":"Waitrose & Partners","roof:shape":"flat","source:addr":"fhrs opendata"}}, "geometry":{"type":"MultiPolygon","coordinates":[[[[-2.18983,53.37587],[-2.18921,53.37622],[-2.18925,53.37624],[-2.18917,53.37628],[-2.18916,53.37631],[-2.18924,53.37641],[-2.1893,53.37639],[-2.18932,53.37641],[-2.1894,53.37637],[-2.18942,53.37639],[-2.18945,53.37637],[-2.18959,53.37646],[-2.18968,53.3764],[-2.18971,53.37642],[-2.18974,53.3764],[-2.18983,53.37646],[-2.19033,53.37618],[-2.18983,53.37587]]]]}},
{ "type":"Feature","properties":{"osm_way_id":"219563520","name":"ALDI","building":"yes","shop":"supermarket","other":{"brand":"ALDI","brand:wikidata":"Q41171672","brand:wikipedia":"en:Aldi"}}, "geometry":{"type":"MultiPolygon","coordinates":[[[[-2.12421,53.38286],[-2.12351,53.38313],[-2.12372,53.38333],[-2.12462,53.38298],[-2.12451,53.38287],[-2.12436,53.38293],[-2.12439,53.38296],[-2.12434,53.38298],[-2.12421,53.38286]]]]}},
{ "type":"Feature","properties":{"osm_way_id":"237814823","name":"Blue Corn","building":"yes","shop":"supermarket","other":{"organic":"only","addr:city":"Stockport","addr:street":"Heaton Moor Road","addr:postcode":"SK4 4DU","addr:housenumber":"208"}}, "geometry":{"type":"MultiPolygon","coordinates":[[[[-2.18991,53.41744],[-2.18988,53.41748],[-2.18965,53.41742],[-2.18968,53.41738],[-2.18991,53.41744]]]]}},
{ "type":"Feature","properties":{"osm_way_id":"238202773","name":"ALDI","building":"yes","shop":"supermarket","other":{"brand":"ALDI","brand:wikidata":"Q41171672","brand:wikipedia":"en:Aldi"}}, "geometry":{"type":"MultiPolygon","coordinates":[[[[-2.09774,53.41247],[-2.09701,53.41248],[-2.097,53.41221],[-2.09773,53.4122],[-2.09774,53.41247]]]]}},
{ "type":"Feature","properties":{"osm_way_id":"321901931","name":"Morrisons","building":"yes","shop":"supermarket","other":{"addr:city":"Stockport","addr:housenumber":"408","addr:postcode":"SK5 7AA","addr:street":"Reddish Road","brand":"Morrisons","brand:wikidata":"Q922344","brand:wikipedia":"en:Morrisons","opening_hours":"Mo-Sa 07:00-22:00, Su 11:00-17:00","phone":"+44 161 4421144"}}, "geometry":{"type":"MultiPolygon","coordinates":[[[[-2.15826,53.43726],[-2.15727,53.43772],[-2.15746,53.43785],[-2.15741,53.43802],[-2.15718,53.43804],[-2.15705,53.43773],[-2.15701,53.43769],[-2.15714,53.43763],[-2.15666,53.43728],[-2.15758,53.43684],[-2.1579,53.43708],[-2.15797,53.43704],[-2.15826,53.43726]]]]}},
{ "type":"Feature","properties":{"osm_way_id":"439813963","name":"Lidl","building":"yes","shop":"supermarket","other":{"addr:city":"Stockport","addr:country":"GB","addr:housename":"Lidl GB","addr:housenumber":"14","addr:postcode":"SK1 4LG","addr:street":"Hempshaw Lane","brand":"Lidl","brand:wikidata":"Q151954","brand:wikipedia":"en:Lidl","fhrs:id":"1022691"}}, "geometry":{"type":"MultiPolygon","coordinates":[[[[-2.14885,53.40233],[-2.14837,53.40243],[-2.14803,53.40183],[-2.1485,53.40173],[-2.14885,53.40233]]]]}},
{ "type":"Feature","properties":{"osm_way_id":"547205827","name":"Asda","landuse":"retail","shop":"supermarket","other":{"brand":"Asda","fhrs:id":"756399","old_name":"The Co-operative Food","operator":"Asda Stores Ltd","addr:street":"Hollins Lane","source:addr":"FHRS Open Data","addr:country":"GB","addr:postcode":"SK6 6AU","addr:housename":"Ridgedale Centre","brand:wikidata":"Q297410","brand:wikipedia":"en:Asda","contact:website":"https:\/\/storelocator.asda.com\/north-west\/stockport\/the-ridgedale-centre"}}, "geometry":{"type":"MultiPolygon","coordinates":[[[[-2.06235,53.39486],[-2.06235,53.39501],[-2.06228,53.39502],[-2.06226,53.39522],[-2.06234,53.39538],[-2.06238,53.39543],[-2.06242,53.39563],[-2.06247,53.39589],[-2.06361,53.39583],[-2.06351,53.39527],[-2.06345,53.3949],[-2.0634,53.39487],[-2.06235,53.39486]]]]}}
]
}
