{
"type": "FeatureCollection",
"features": [
{ "type":"Feature","properties":{"osm_id":"416381278","name":"Waitrose","other":{"addr:city":"London","addr:housename":"Southside Shopping Centre","addr:housenumber":"66-67","addr:postcode":"SW18 4TG","alt_name":"Waitrose Wandsworth","brand":"Waitrose","brand:wikidata":"Q771734","brand:wikipedia":"en:Waitrose","fhrs:id":"298175","level":"0","official_name":"Waitrose & Partners","opening_hours":"Mo-Sa 08:00-20:00; Su 11:00-17:00","operator":"Waitrose & Partners","shop":"supermarket","toilets":"yes","toilets:wheelchair":"yes","website":"https:\/\/www.waitrose.com\/bf_home\/bf\/673.html","wheelchair":"yes"}}, "geometry":{"type":"Point","coordinates":[-0.19377,51.45435 ]}},
{ "type":"Feature","properties":{"osm_id":"1112173774","name":"Whole Foods Market","other":{"addr:housenumber":"305-311","addr:postcode":"SW11 1LN","addr:street":"Lavender Hill","brand":"Whole Foods Market","brand:wikidata":"Q1809448","brand:wikipedia":"en:Whole Foods Market","opening_hours":"Mo-Sa 7:30-21:30; Su 09:00-21:30","shop":"supermarket","website":"https:\/\/www.wholefoodsmarket.co.uk\/stores\/clapham\/","wheelchair":"limited"}}, "geometry":{"type":"Point","coordinates":[-0.16669,51.46376 ]}},
{ "type":"Feature","properties":{"osm_id":"1112279406","name":"Waitrose","other":{"brand":"Waitrose","brand:wikidata":"Q771734","brand:wikipedia":"en:Waitrose & Partners","official_name":"Waitrose & Partners","operator":"Waitrose & Partners","shop":"supermarket"}}, "geometry":{"type":"Point","coordinates":[-0.16779,51.46261 ]}},
{ "type":"Feature","properties":{"osm_id":"2026133641","name":"Foodways","other":{"shop":"supermarket"}}, "geometry":{"type":"Point","coordinates":[-0.16728,51.47911 ]}},
{ "type":"Feature","properties":{"osm_id":"2207345846","name":"St. Marcus","other":{"addr:city":"London","addr:housenumber":"1-3","addr:postcode":"SW15 5RW","addr:street":"Rockingham Close","fhrs:id":"296392","shop":"supermarket","source:addr":"FHRS Open Data","website":"http:\/\/www.stmarcus.co.uk\/"}}, "geometry":{"type":"Point","coordinates":[-0.25002,51.46328 ]}},
{ "type":"Feature","properties":{"osm_id":"2238113479","name":"The Co-operative Food","other":{"addr:city":"London","addr:country":"GB","addr:housenumber":"27-37","addr:postcode":"SW11 3BA","addr:street":"Battersea Bridge Road","contact:phone":"+44 20 7978 5091","fhrs:id":"297363","opening_hours":"07:00-22:00","operator":"Co-operative Group Ltd","shop":"supermarket","website":"https:\/\/www.co-operative.coop\/store\/food\/SW11-3BA\/27-37-battersea-bridge-road"}}, "geometry":{"type":"Point","coordinates":[-0.17048,51.47914 ]}},
{ "type":"Feature","properties":{"osm_id":"2429826564","name":"Londis","other":{"addr:housenumber":"4","addr:postcode":"SW17 9NA","addr:street":"Mitcham Road","fhrs:id":"297587","shop":"supermarket","source:addr":"FHRS Open Data"}}, "geometry":{"type":"Point","coordinates":[-0.16762,51.42756 ]}},
{ "type":"Feature","properties":{"osm_id":"2429828501","name":"Aldi","other":{"addr:city":"London","addr:housenumber":"33-35","addr:postcode":"SW17 0SP","addr:street":"Tooting High Street","brand":"ALDI","brand:wikidata":"Q41171672","brand:wikipedia":"en:Aldi","fhrs:id":"892276","name:fa":"آلدی","shop":"supermarket"}}, "geometry":{"type":"Point","coordinates":[-0.167,51.42876 ]}},
{ "type":"Feature","properties":{"osm_id":"3066007494","name":"Londis","other":{"shop":"supermarket","website":"http:\/\/supermarket.londis.co.uk\/38655-alfriston-post-office","addr:city":"London","addr:street":"Alfriston Road","addr:housenumber":"99"}}, "geometry":{"type":"Point","coordinates":[-0.15804,51.45558 ]}},
{ "type":"Feature","properties":{"osm_id":"3230191330","name":"Lidl","other":{"addr:country":"GB","addr:housenumber":"279-291","addr:postcode":"SW17 7BA","addr:street":"Balham High Road","alt_name":"LIDL Balham","brand":"Lidl","brand:wikidata":"Q151954","fhrs:id":"296946","shop":"supermarket"}}, "geometry":{"type":"Point","coordinates":[-0.15813,51.4363 ]}},
{ "type":"Feature","properties":{"osm_id":"3339528728","name":"Amazon Fresh","other":{"addr:city":"Wandsworth","addr:housename":"Unit R3 Southside Shopping Centre","addr:postcode":"SW18 4TF","addr:street":"Wandsworth High Street","brand":"Amazon Fresh","brand:wikidata":"Q4740834","brand:wikipedia":"en:Amazon Fresh","shop":"supermarket"}}, "geometry":{"type":"Point","coordinates":[-0.19289,51.45529 ]}},
{ "type":"Feature","properties":{"osm_id":"3586383895","name":"Planet Organic","other":{"addr:city":"Wandsworth","addr:housenumber":"52","addr:postcode":"SW18 4TF","addr:street":"Garratt Lane","amenity":"restaurant","brand:wikidata":"Q24298870","fhrs:id":"621224","shop":"supermarket","source:addr":"FHRS Open Data","website":"https:\/\/www.planetorganic.com\/pages\/wandsworth"}}, "geometry":{"type":"Point","coordinates":[-0.19292,51.45503 ]}},
{ "type":"Feature","properties":{"osm_id":"3760471134","name":"Tooting Arena","other":{"shop":"supermarket","addr:city":"London","addr:street":"Upper Tooting Road","addr:postcode":"SW17 7PG","addr:housenumber":"6-8"}}, "geometry":{"type":"Point","coordinates":[-0.16024,51.43553 ]}},
{ "type":"Feature","properties":{"osm_id":"3774627180","name":"Waitrose","other":{"brand":"Waitrose","brand:wikidata":"Q771734","brand:wikipedia":"en:Waitrose & Partners","official_name":"Waitrose & Partners","operator":"Waitrose & Partners","shop":"supermarket"}}, "geometry":{"type":"Point","coordinates":[-0.13453,51.48259 ]}},
{ "type":"Feature","properties":{"osm_id":"4307584366","name":"M&S Foodhall","other":{"addr:housenumber":"229","addr:postcode":"SW18 5RJ","addr:street":"Wimbledon Park Road","brand":"M&S Foodhall","brand:wikidata":"Q714491","fhrs:id":"854206","opening_hours":"Mo-Sa 7:30-22:00; Su 11:00-17:00","shop":"supermarket","source:addr":"FHRS Open Data"}}, "geometry":{"type":"Point","coordinates":[-0.2058,51.44536 ]}},
{ "type":"Feature","properties":{"osm_id":"4382519970","name":"Planet Organic","other":{"brand:wikidata":"Q24298870","shop":"supermarket","wheelchair":"yes"}}, "geometry":{"type":"Point","coordinates":[-0.15267,51.44392 ]}},
{ "type":"Feature","properties":{"osm_id":"4703290333","name":"Aldi","other":{"addr:city":"London","addr:housenumber":"163","addr:street":"Balham High Road","brand":"ALDI","brand:wikidata":"Q41171672","brand:wikipedia":"en:Aldi","name:fa":"آلدی","operator":"Aldi","shop":"supermarket","wheelchair":"yes"}}, "geometry":{"type":"Point","coordinates":[-0.15235,51.4436 ]}},
{ "type":"Feature","properties":{"osm_id":"5329694988","name":"Co-op Food","other":{"brand":"Co-op Food","brand:wikidata":"Q3277439","brand:wikipedia":"en:Co-op Food","opening_hours":"Mo-Su 07:00-22:00","shop":"supermarket","wheelchair":"yes"}}, "geometry":{"type":"Point","coordinates":[-0.14841,51.44865 ]}},
{ "type":"Feature","properties":{"osm_id":"5372752299","other":{"fee":"no","access":"customers","amenity":"bicycle_parking","capacity":"20"}}, "geometry":{"type":"Point","coordinates":[-0.16447,51.46524 ]}},
{ "type":"Feature","properties":{"osm_id":"5594703043","other":{"shop":"supermarket","opening_hours":"Mo-Sa 08:00-21:00, Su 08:00-17:00"}}, "geometry":{"type":"Point","coordinates":[-0.21748,51.44706 ]}},
{ "type":"Feature","properties":{"osm_id":"6344914483","name":"The Battersea General Store","other":{"addr:city":"London","addr:housenumber":"9-10","addr:postcode":"SW11 8EZ","addr:street":"Circus Road West","alt_website":"https:\/\/www.nisalocally.co.uk\/stores\/greater-london\/london\/units-9-&-10-circus-rd-west","contact:facebook":"https:\/\/www.facebook.com\/TBGeneralStore\/","contact:instagram":"TBGeneralStore","contact:twitter":"TBGeneralStore","email":"info@thebatterseageneralstore.co.uk","fhrs:id":"1010189","opening_hours":"Mo-Sa 07:00-23:00, Su 12:00-18:00","phone":"+44 20 3196 1300","shop":"supermarket","website":"http:\/\/thebatterseageneralstore.co.uk\/"}}, "geometry":{"type":"Point","coordinates":[-0.14612,51.48218 ]}},
{ "type":"Feature","properties":{"osm_id":"8185964230","name":"Store Park Central","other":{"addr:city":"London","addr:housenumber":"344","addr:postcode":"SW11 8BY","addr:street":"Queenstown Road","alt_website":"https:\/\/www.nisalocally.co.uk\/stores\/greater-london\/london\/344-queenstown-rd","contact:facebook":"https:\/\/www.facebook.com\/parkcentralldn\/","contact:instagram":"parkcentralldn","email":"hello@parkcentral.life","opening_hours":"Mo-Su 07:00-23:00","phone":"+44 20 7627 1688","shop":"supermarket","website":"http:\/\/www.parkcentral.life\/"}}, "geometry":{"type":"Point","coordinates":[-0.14868,51.47994 ]}},
{ "type":"Feature","properties":{"osm_id":"8185964231","name":"Market Place Store","other":{"addr:city":"London","addr:housename":"Horace Building","addr:housenumber":"364","addr:postcode":"SW8 4NH","addr:street":"Queenstown Road","contact:facebook":"https:\/\/www.facebook.com\/TMPlaceCBW\/","opening_hours":"Mo-Su 07:30-23:00","phone":"+44 20 7720 2585","shop":"supermarket","website":"https:\/\/www.nisalocally.co.uk\/stores\/greater-london\/london\/horace-building"}}, "geometry":{"type":"Point","coordinates":[-0.14859,51.48185 ]}},
{ "type":"Feature","properties":{"osm_id":"8577081916","name":"Lidl","other":{"addr:country":"GB","addr:housenumber":"180-214","addr:postcode":"SW17 7EW","addr:street":"Upper Tooting Road","brand":"Lidl","brand:wikidata":"Q151954","building":"yes","fhrs:id":"1353835","shop":"supermarket"}}, "geometry":{"type":"Point","coordinates":[-0.16471,51.43145 ]}},
{ "type":"Feature","properties":{"osm_way_id":"29402605","name":"Sainsbury's","building":"yes","shop":"supermarket","other":{"addr:city":"London","addr:housenumber":"2,4,6","addr:postcode":"SW15 2LJ","addr:street":"Werter Road","alt_name":"Sainsbury's Putney Superstore","brand":"Sainsbury's","brand:wikidata":"Q152096","brand:wikipedia":"en:Sainsbury's","fhrs:id":"296465","opening_hours":"Mo-Sa 07:00-22:00; Su 12:00-18:00"}}, "geometry":{"type":"MultiPolygon","coordinates":[[[[-0.21573,51.46245],[-0.21516,51.4623],[-0.21516,51.46228],[-0.21528,51.46208],[-0.21526,51.46206],[-0.21523,51.46202],[-0.21529,51.46192],[-0.21597,51.46203],[-0.21589,51.46222],[-0.21575,51.46219],[-0.21569,51.46232],[-0.21571,51.46235],[-0.2158,51.46237],[-0.21577,51.46244],[-0.21573,51.46245]]]]}},
{ "type":"Feature","properties":{"osm_way_id":"31563840","name":"Asda","building":"retail","shop":"supermarket","other":{"addr:city":"London","addr:country":"GB","addr:housenumber":"31","addr:postcode":"SW15 3DT","addr:street":"Roehampton Vale","addr:suburb":"Roehampton","branch":"Roehampton Superstore","brand":"Asda","brand:wikidata":"Q297410","brand:wikipedia":"en:Asda","contact:facebook":"https:\/\/www.facebook.com\/asda\/","contact:twitter":"@asda","contact:website":"https:\/\/storelocator.asda.com\/london\/roehampton\/31-roehampton-vale","fhrs:id":"297103","opening_hours":"Mo-Sa 07:30-22:00; Su 11:00-17:00","operator":"Asda Stores Ltd"}}, "geometry":{"type":"MultiPolygon","coordinates":[[[[-0.24676,51.43956],[-0.24674,51.43954],[-0.24634,51.43917],[-0.24624,51.43921],[-0.24615,51.43925],[-0.24604,51.43929],[-0.2458,51.43907],[-0.24546,51.43921],[-0.2455,51.43924],[-0.24521,51.43936],[-0.24527,51.43942],[-0.24476,51.43963],[-0.24532,51.44015],[-0.24676,51.43956]]]]}},
{ "type":"Feature","properties":{"osm_way_id":"35824042","name":"Asda","building":"yes","shop":"supermarket","other":{"atm":"yes","brand":"Asda","fhrs:id":"296481","toilets":"yes","operator":"Asda Stores Ltd","wheelchair":"yes","addr:street":"Lavender Hill","source:addr":"FHRS Open Data","addr:country":"GB","addr:postcode":"SW11 1JG","opening_hours":"Mo 07:30-24:00;Tu-Fr 00:00-24:00;Sa 00:00-22:00;Su 11:00-17:00","brand:wikidata":"Q297410","brand:wikipedia":"en:Asda","contact:twitter":"@asda","contact:website":"https:\/\/storelocator.asda.com\/london\/london\/204-lavender-hill-battersea","addr:housenumber":"204","contact:facebook":"https:\/\/www.facebook.com\/asda\/"}}, "geometry":{"type":"MultiPolygon","coordinates":[[[[-0.16564,51.46567],[-0.16551,51.46524],[-0.16553,51.46523],[-0.16561,51.46523],[-0.16558,51.46508],[-0.16483,51.46514],[-0.16483,51.4652],[-0.16447,51.46524],[-0.16428,51.46525],[-0.16449,51.46596],[-0.16518,51.4659],[-0.16532,51.46583],[-0.16531,51.46577],[-0.16542,51.46575],[-0.16542,51.46569],[-0.16564,51.46567]]]]}},
{ "type":"Feature","properties":{"osm_way_id":"35824055","name":"Lidl","building":"yes","shop":"supermarket","other":{"addr:city":"London","addr:country":"GB","addr:housenumber":"141","addr:postcode":"SW11 2PE","addr:street":"Falcon Lane","brand":"Lidl","brand:wikidata":"Q151954","brand:wikipedia":"en:Lidl","fhrs:id":"297686","opening_hours":"Mo-Fr 08:00-23:00; Sa 08:00-22:00; Su 11:00-17:00","website":"https:\/\/www.lidl.co.uk\/","wheelchair":"yes"}}, "geometry":{"type":"MultiPolygon","coordinates":[[[[-0.16741,51.46507],[-0.16723,51.46513],[-0.16727,51.46517],[-0.16713,51.46522],[-0.16678,51.46476],[-0.1671,51.46467],[-0.16741,51.46507]]]]}},
{ "type":"Feature","properties":{"osm_way_id":"95856853","name":"Sainsbury's","building":"yes","shop":"supermarket","other":{"addr:city":"London","addr:housenumber":"147-151","addr:postcode":"SW12 9AU","addr:street":"Balham High Road","alt_name":"Sainsbury's Balham Superstore","brand":"Sainsbury's","brand:wikidata":"Q152096","brand:wikipedia":"en:Sainsbury's","fhrs:id":"296476","opening_hours":"Mo-Sa 07:00-23:00; Su 11:00-17:00","wheelchair":"yes"}}, "geometry":{"type":"MultiPolygon","coordinates":[[[[-0.15213,51.4441],[-0.15212,51.4441],[-0.15113,51.44373],[-0.15118,51.44367],[-0.15111,51.44365],[-0.15113,51.44363],[-0.15093,51.44356],[-0.15069,51.44379],[-0.15066,51.44383],[-0.15069,51.44384],[-0.15194,51.44431],[-0.15213,51.4441]]]]}},
{ "type":"Feature","properties":{"osm_way_id":"95859531","name":"Waitrose","building":"yes","shop":"supermarket","other":{"addr:city":"London","addr:housenumber":"134-152","addr:postcode":"SW12 9BN","addr:street":"Balham High Road","alt_name":"Waitrose Balham","brand":"Waitrose","brand:wikidata":"Q771734","brand:wikipedia":"en:Waitrose & Partners","fhrs:id":"296475","official_name":"Waitrose & Partners","opening_hours":"Mo-Fr 08:00-22:00; Sa 08:00-21:00; Su 11:00-17:00","operator":"Waitrose & Partners","wheelchair":"yes"}}, "geometry":{"type":"MultiPolygon","coordinates":[[[[-0.15182,51.4454],[-0.15205,51.44576],[-0.15187,51.4458],[-0.15192,51.44589],[-0.15173,51.44594],[-0.15161,51.4459],[-0.15134,51.44553],[-0.15182,51.4454]]]]}},
{ "type":"Feature","properties":{"osm_way_id":"129098919","name":"Sainsbury's","shop":"supermarket","other":{"addr:housenumber":"71-77","addr:postcode":"SW17 0TQ","addr:street":"Tooting High Street","branch":"Tooting","brand":"Sainsbury's","brand:wikidata":"Q152096","building:levels":"1","building:part":"yes","fhrs:id":"297854","opening_hours":"Mo-Sa 07:00-23:00, Su 11:00-17:00","source:addr":"FHRS Open Data","wheelchair":"yes"}}, "geometry":{"type":"MultiPolygon","coordinates":[[[[-0.16782,51.42663],[-0.1676,51.42674],[-0.16756,51.42679],[-0.16757,51.42685],[-0.16759,51.42688],[-0.16764,51.42693],[-0.16757,51.42696],[-0.16754,51.42697],[-0.16799,51.42735],[-0.16788,51.42744],[-0.1681,51.42754],[-0.16813,51.42756],[-0.16818,51.42758],[-0.16822,51.42754],[-0.16829,51.42748],[-0.16835,51.42751],[-0.16851,51.42736],[-0.16838,51.42729],[-0.16835,51.42705],[-0.1679,51.42666],[-0.16786,51.42668],[-0.16782,51.42663]]]]}},
{ "type":"Feature","properties":{"osm_way_id":"182198831","name":"M&S Foodhall","building":"yes","shop":"supermarket","other":{"addr:city":"London","addr:housenumber":"2a","addr:postcode":"SW12 9EA","addr:street":"Balham Hill Road","alt_name":"M&S Balham Simply Food","brand":"M&S Foodhall","brand:wikidata":"Q714491","brand:wikipedia":"en:Marks & Spencer","opening_hours":"Mo-Sa 08:00-22:00; Su 12:00-18:00","wheelchair":"yes"}}, "geometry":{"type":"MultiPolygon","coordinates":[[[[-0.14816,51.45214],[-0.14797,51.45212],[-0.14802,51.45189],[-0.14827,51.45188],[-0.14825,51.45215],[-0.14816,51.45214]]]]}},
{ "type":"Feature","properties":{"osm_way_id":"225492022","name":"Londis","building":"yes","shop":"supermarket","other":{"addr:city":"London","addr:housenumber":"179-181","addr:postcode":"SW18 5EF","addr:street":"Merton Road","fhrs:id":"296390"}}, "geometry":{"type":"MultiPolygon","coordinates":[[[[-0.19914,51.45031],[-0.19898,51.45024],[-0.19888,51.45032],[-0.19904,51.4504],[-0.19914,51.45031]]]]}},
{ "type":"Feature","properties":{"osm_way_id":"234858364","name":"Iceland","building":"yes","shop":"supermarket","other":{"addr:housenumber":"25-27","addr:postcode":"SW17 0SN","addr:street":"Tooting High Street","brand":"Iceland","brand:wikidata":"Q721810","brand:wikipedia":"en:Iceland (supermarket)","fhrs:id":"297479","source:addr":"FHRS Open Data"}}, "geometry":{"type":"MultiPolygon","coordinates":[[[[-0.16687,51.42897],[-0.16676,51.42906],[-0.16636,51.4289],[-0.1663,51.42887],[-0.16636,51.42881],[-0.16657,51.42889],[-0.16659,51.42887],[-0.16679,51.4289],[-0.16682,51.42892],[-0.16679,51.42894],[-0.16687,51.42897]]]]}},
{ "type":"Feature","properties":{"osm_way_id":"327261692","name":"Tesco Metro","building":"retail","shop":"supermarket","other":{"addr:city":"London","addr:housenumber":"275-277","addr:postcode":"SW11 4NE","addr:street":"Battersea Park Road","alt_name":"Tesco Battersea Metro","brand":"Tesco Metro","brand:wikidata":"Q57551648","building:levels":"1","fhrs:id":"297200","fhrs:local_authority_id":"162618","name:fa":"تسکو مترو","opening_hours":"Mo-Sa 07:00-22:00; Su 11:00-16:00"}}, "geometry":{"type":"MultiPolygon","coordinates":[[[[-0.15285,51.47481],[-0.1522,51.47493],[-0.15203,51.47458],[-0.15268,51.47446],[-0.15275,51.4746],[-0.15285,51.47458],[-0.15288,51.47465],[-0.15278,51.47467],[-0.15285,51.47481]]]]}},
{ "type":"Feature","properties":{"osm_way_id":"330953398","name":"Co-operative Food","building":"yes","shop":"supermarket","other":{"addr:city":"London","addr:housenumber":"130-138","addr:postcode":"SW18 4EE","addr:street":"Garratt Lane","fhrs:id":"571918","source:addr":"FHRS Open Data"}}, "geometry":{"type":"MultiPolygon","coordinates":[[[[-0.19011,51.4501],[-0.18997,51.45012],[-0.19006,51.45048],[-0.19025,51.45044],[-0.19022,51.45036],[-0.19017,51.45037],[-0.19011,51.4501]]]]}},
{ "type":"Feature","properties":{"osm_way_id":"330953401","name":"Tesco Express","building":"yes","shop":"supermarket","other":{"addr:city":"London","addr:housenumber":"190-194","addr:postcode":"SW18 4ED","addr:street":"Garratt Lane","alt_name":"Tesco Earlsfield Garratt Lane Express","brand":"Tesco Express","brand:wikidata":"Q98456772","brand:wikipedia":"en:Tesco","fhrs:id":"297125","name:fa":"تسکو اکسپرس"}}, "geometry":{"type":"MultiPolygon","coordinates":[[[[-0.18967,51.44835],[-0.18965,51.4482],[-0.18977,51.4482],[-0.18977,51.44822],[-0.19026,51.44819],[-0.19028,51.44826],[-0.18988,51.44829],[-0.18989,51.44834],[-0.18967,51.44835]]]]}},
{ "type":"Feature","properties":{"osm_way_id":"679237767","name":"Sainsbury's","shop":"supermarket","other":{"addr:city":"London","addr:housenumber":"45","addr:postcode":"SW18 4AD","addr:street":"Garratt Lane","alt_name":"Sainsbury's Wandsworth Superstore","brand":"Sainsbury's","brand:wikidata":"Q152096","brand:wikipedia":"en:Sainsbury's","contact:website":"https:\/\/stores.sainsburys.co.uk\/0069\/wandsworth","fhrs:id":"296480","toilets":"yes","toilets:wheelchair":"yes","wheelchair":"yes"}}, "geometry":{"type":"MultiPolygon","coordinates":[[[[-0.19095,51.45425],[-0.19108,51.45421],[-0.19101,51.45412],[-0.19103,51.45407],[-0.1918,51.45382],[-0.19236,51.45448],[-0.19239,51.45447],[-0.19249,51.45458],[-0.19149,51.45491],[-0.19095,51.45425]]]]}},
{ "type":"Feature","properties":{"osm_way_id":"940172374","building":"yes","other":{"addr:housenumber":"40","addr:street":"Upper Tooting Road"}}, "geometry":{"type":"MultiPolygon","coordinates":[[[[-0.16171,51.43491],[-0.16177,51.43487],[-0.16163,51.43478],[-0.16157,51.43482],[-0.16171,51.43491]]]]}},
{ "type":"Feature","properties":{"osm_way_id":"1011224078","name":"Lidl","shop":"supermarket","other":{"addr:city":"London","addr:country":"GB","addr:housenumber":"64,66","addr:postcode":"SW15 1SF","addr:street":"Putney High Street","brand":"Lidl","brand:wikidata":"Q151954","brand:wikipedia":"en:Lidl","fhrs:id":"1353836"}}, "geometry":{"type":"MultiPolygon","coordinates":[[[[-0.21542,51.46421],[-0.21536,51.46432],[-0.21582,51.46451],[-0.21593,51.46427],[-0.21549,51.46418],[-0.21542,51.46421]]]]}},
{ "type":"Feature","properties":{"osm_way_id":"1011245207","name":"Waitrose","shop":"supermarket","other":{"addr:city":"London","addr:housename":"Putney Exchange Shopping Centre","addr:postcode":"SW15 1TW","addr:street":"Putney High Street","alt_name":"Waitrose Putney","brand":"Waitrose","brand:wikidata":"Q771734","brand:wikipedia":"en:Waitrose","fhrs:id":"296826","level":"0","official_name":"Waitrose & Partners","operator":"Waitrose & Partners"}}, "geometry":{"type":"MultiPolygon","coordinates":[[[[-0.2163,51.46423],[-0.21637,51.464],[-0.21643,51.46399],[-0.21645,51.46401],[-0.21655,51.46403],[-0.21665,51.464],[-0.21668,51.46393],[-0.21676,51.46375],[-0.21687,51.46377],[-0.2171,51.46381],[-0.21685,51.46433],[-0.2163,51.46423]]]]}}
]
}
