{
"type": "FeatureCollection",
"features": [
{ "type":"Feature","properties":{"osm_id":"560717334","name":"Tesco Metro","other":{"addr:city":"London","addr:housenumber":"80B","addr:postcode":"EC2V 6EE","addr:street":"Cheapside","brand":"Tesco Metro","brand:wikidata":"Q57551648","fhrs:id":"294431","name:fa":"تسکو مترو","operator":"Tesco","shop":"supermarket"}}, "geometry":{"type":"Point","coordinates":[-0.09153,51.51355 ]}},
{ "type":"Feature","properties":{"osm_id":"3660611628","name":"Geranium","other":{"addr:city":"London","addr:housename":"Lauderdale Tower","addr:postcode":"EC2Y 8BY","addr:street":"Lauderdale Place","addr:unit":"Retail Unit 2","fhrs:id":"430544","name:fa":"گرانیوم","organic":"only","shop":"supermarket"}}, "geometry":{"type":"Point","coordinates":[-0.09668,51.51977 ]}},
{ "type":"Feature","properties":{"osm_id":"8579751772","name":"Eataly","other":{"shop":"supermarket","website":"https:\/\/www.eataly.co.uk\/"}}, "geometry":{"type":"Point","coordinates":[-0.08016,51.51865 ]}},
{ "type":"Feature","properties":{"osm_way_id":"320420940","name":"M&S Simply Food","building":"yes","shop":"supermarket","other":{"brand":"M&S Simply Food","level":"-1","alt_name":"Marks and Spencer Simply Food","building:part":"yes","brand:wikidata":"Q714491","brand:wikipedia":"en:Marks & Spencer","building:levels:underground":"1"}}, "geometry":{"type":"MultiPolygon","coordinates":[[[[-0.09513,51.51379],[-0.09517,51.51379],[-0.09515,51.51381],[-0.09517,51.51385],[-0.09502,51.51385],[-0.09502,51.51386],[-0.09489,51.51384],[-0.09482,51.51399],[-0.09482,51.514],[-0.0948,51.51403],[-0.0948,51.51404],[-0.09476,51.51413],[-0.09469,51.51411],[-0.09459,51.51409],[-0.09464,51.51397],[-0.09467,51.5139],[-0.09469,51.51387],[-0.09469,51.51385],[-0.0947,51.51383],[-0.09473,51.51377],[-0.09477,51.51366],[-0.09482,51.51355],[-0.09491,51.51357],[-0.09488,51.51367],[-0.09515,51.5137],[-0.09513,51.51379]]]]}},
{ "type":"Feature","properties":{"osm_way_id":"326053787","name":"Tesco Metro","shop":"supermarket","other":{"addr:city":"London","addr:housenumber":"158-164","addr:postcode":"EC2M 4LX","addr:street":"Bishopsgate","brand":"Tesco Metro","brand:wikidata":"Q57551648","fhrs:id":"293655","name:fa":"تسکو مترو","opening_hours":"Mo-Sa 00:00-24:00, Su 12:00-18:00","wheelchair":"yes"}}, "geometry":{"type":"MultiPolygon","coordinates":[[[[-0.07965,51.51698],[-0.07971,51.51701],[-0.0798,51.51705],[-0.08,51.51712],[-0.08005,51.51714],[-0.08014,51.51717],[-0.08023,51.5172],[-0.08024,51.51719],[-0.08042,51.51725],[-0.08052,51.51715],[-0.08057,51.5171],[-0.08042,51.51705],[-0.07982,51.51684],[-0.07978,51.51689],[-0.07973,51.51687],[-0.07965,51.51698]]]]}},
{ "type":"Feature","properties":{"osm_way_id":"377595859","name":"M&S Simply Food","shop":"supermarket","other":{"addr:city":"London","addr:housename":"Liverpool Street Station","addr:postcode":"EC2M 7QA","addr:street":"Liverpool Street","addr:unit":"Retail Unit 9a West Mall","brand":"M&S Simply Food","brand:wikidata":"Q714491","brand:wikipedia":"en:Marks & Spencer","fhrs:id":"294765","indoor":"yes","level":"-1","wheelchair":"yes"}}, "geometry":{"type":"MultiPolygon","coordinates":[[[[-0.08302,51.51773],[-0.08295,51.51787],[-0.08308,51.51791],[-0.08302,51.518],[-0.08324,51.51805],[-0.0833,51.51796],[-0.08338,51.51782],[-0.08302,51.51773]]]]}},
{ "type":"Feature","properties":{"osm_way_id":"421386553","name":"M&S Simply Food","shop":"supermarket","other":{"brand":"M&S Simply Food","fhrs:id":"294553","alt_name":"Marks & Spencer Simply Food","addr:city":"London","addr:street":"High Holborn","addr:postcode":"WC1V 7PU","opening_hours":"Mo-Fr 07:00-22:00, Sa 08:00-21:00, Su 11:00-17:00","brand:wikidata":"Q714491","brand:wikipedia":"en:Marks & Spencer","addr:housenumber":"323-324"}}, "geometry":{"type":"MultiPolygon","coordinates":[[[[-0.11249,51.51798],[-0.11232,51.51797],[-0.11224,51.51801],[-0.11226,51.51813],[-0.11249,51.51798]]]]}},
{ "type":"Feature","properties":{"osm_way_id":"532325528","name":"M&S Foodhall","building":"no","shop":"supermarket","other":{"addr:city":"London","addr:housenumber":"15","addr:postcode":"EC2N 3AR","addr:street":"Bishopsgate","addr:unit":"Unit 1","brand":"M&S Foodhall","brand:wikidata":"Q714491","brand:wikipedia":"en:Marks & Spencer","fhrs:id":"999702"}}, "geometry":{"type":"MultiPolygon","coordinates":[[[[-0.08382,51.51488],[-0.08379,51.51486],[-0.08364,51.51478],[-0.08352,51.51486],[-0.08334,51.51476],[-0.08325,51.51482],[-0.0836,51.51503],[-0.08382,51.51488]]]]}}
]
}
