{
"type": "FeatureCollection",
"features": [
{ "type":"Feature","properties":{"osm_id":"414230664","name":"Lina Food Centre","other":{"addr:city":"London","addr:housenumber":"1","addr:postcode":"E15 3DD","addr:street":"Leywick Street","addr:suburb":"Stratford","alt_name":"Select & Save","fhrs:id":"996136","fhrs:local_authority_id":"17\/00481\/FOOD","long_name":"Lina Food Centre International","shop":"supermarket","source:addr:postcode":"FHRS Open Data"}}, "geometry":{"type":"Point","coordinates":[0.00596,51.53289 ]}},
{ "type":"Feature","properties":{"osm_id":"571285800","name":"Sainsbury's","other":{"addr:city":"London","addr:housenumber":"39-40","addr:postcode":"E15 1XE","addr:street":"The Mall","brand":"Sainsbury's","brand:wikidata":"Q152096","brand:wikipedia":"en:Sainsbury's","fhrs:id":"654119","fhrs:local_authority_id":"77650\/0038\/0\/000","opening_hours":"Mo-Fr 06:00-22:00; Sa 07:00-22:00; Su 11:00-17:00","shop":"supermarket","source:addr":"FHRS Open Data","wheelchair":"yes"}}, "geometry":{"type":"Point","coordinates":[-0.00134,51.5417 ]}},
{ "type":"Feature","properties":{"osm_id":"1321888824","name":"Lidl","other":{"addr:city":"London","addr:housenumber":"41-42","addr:postcode":"E15 1XE","addr:street":"The Mall","brand":"Lidl","brand:wikidata":"Q151954","brand:wikipedia":"en:Lidl","checkfirst:suggested:name":"Lidl","fhrs:id":"864084","fhrs:local_authority_id":"15\/00268\/FOOD","opening_hours":"Mo-Fr 07:00-22:00; Sa 07:00-22:00; Su 11:00-17:00","shop":"supermarket","source:addr":"FHRS Open Data","wheelchair":"yes"}}, "geometry":{"type":"Point","coordinates":[-0.00106,51.54171 ]}},
{ "type":"Feature","properties":{"osm_id":"1321939437","name":"Loon Fung","other":{"addr:city":"London","addr:housenumber":"33-34","addr:postcode":"E15 1XD","addr:street":"The Mall","cuisine":"chinese","fhrs:id":"746062","fhrs:local_authority_id":"14\/00540\/FOOD","shop":"supermarket","source:addr":"FHRS Open Data"}}, "geometry":{"type":"Point","coordinates":[-0.00123,51.54162 ]}},
{ "type":"Feature","properties":{"osm_id":"1333431580","name":"Lituanica","other":{"addr:city":"London","addr:housename":"Beckton Retail Park","addr:housenumber":"Unit 4C","addr:postcode":"E6 6LA","addr:street":"Alpine Way","alt_name":"Lituanika","shop":"supermarket","website":"www.lituanicaltd.com"}}, "geometry":{"type":"Point","coordinates":[0.06264,51.51647 ]}},
{ "type":"Feature","properties":{"osm_id":"1579157125","name":"Poundland","other":{"addr:city":"London","addr:housenumber":"22 - 26","addr:postcode":"E7 0QH","addr:street":"Woodgrange Road","addr:suburb":"Forest Gate","fhrs:id":"865840","old_name":"99p Store","shop":"supermarket","source:addr":"FHRS Open Data"}}, "geometry":{"type":"Point","coordinates":[0.02554,51.54734 ]}},
{ "type":"Feature","properties":{"osm_id":"1579157127","name":"Tesco Express","other":{"addr:city":"London","addr:housenumber":"28","addr:postcode":"E7 0QH","addr:street":"Woodgrange Road","addr:suburb":"Forest Gate","brand":"Tesco Express","brand:wikidata":"Q98456772","contact:website":"https:\/\/www.tesco.com\/store-locator\/london\/28-woodgrange-road","fhrs:id":"640281","shop":"supermarket"}}, "geometry":{"type":"Point","coordinates":[0.0255,51.54752 ]}},
{ "type":"Feature","properties":{"osm_id":"2142546835","name":"Tesco Express","other":{"addr:city":"London","addr:housenumber":"36-38","addr:postcode":"E6 3BP","addr:street":"Barking Road","addr:suburb":"East Ham","brand":"Tesco Express","brand:wikidata":"Q98456772","contact:website":"https:\/\/www.tesco.com\/store-locator\/london\/36-40-barking-rd","fhrs:id":"640326","shop":"supermarket","source:addr":"FHRS Open Data"}}, "geometry":{"type":"Point","coordinates":[0.03984,51.53039 ]}},
{ "type":"Feature","properties":{"osm_id":"4042751190","name":"Food Inn","other":{"shop":"supermarket","fhrs:id":"1047544","alt_name":"foodinn","addr:city":"London","addr:street":"Barking Road","addr:suburb":"Canning Town","addr:postcode":"E16 4HB","opening_hours":"24\/7","addr:housenumber":"95-99","fhrs:local_authority_id":"18\/00153\/FOOD"}}, "geometry":{"type":"Point","coordinates":[0.01024,51.51689 ]}},
{ "type":"Feature","properties":{"osm_id":"4532005547","name":"Off License - Mini-Market","other":{"addr:housenumber":"6","addr:street":"Mitre Road","shop":"supermarket"}}, "geometry":{"type":"Point","coordinates":[0.00624,51.53294 ]}},
{ "type":"Feature","properties":{"osm_id":"4534008526","name":"Aseda Trading","other":{"addr:city":"London","addr:housenumber":"66","addr:postcode":"E15 1SQ","addr:street":"Leytonstone Road","addr:suburb":"Maryland","fhrs:id":"1018847","fhrs:local_authority_id":"17\/00674\/FOOD","level":"0","old_name":"D-Olympics","phone":"+44 20 8536 0617","shop":"supermarket"}}, "geometry":{"type":"Point","coordinates":[0.00535,51.54924 ]}},
{ "type":"Feature","properties":{"osm_id":"4547336357","name":"Sri Supermarket","other":{"addr:city":"London","addr:housenumber":"522","addr:postcode":"E7 8AF","addr:street":"Romford Road","addr:suburb":"Forest Gate","fhrs:id":"1209851","fhrs:local_authority_id":"19\/01065\/FOOD","level":"0","shop":"supermarket"}}, "geometry":{"type":"Point","coordinates":[0.0396,51.5481 ]}},
{ "type":"Feature","properties":{"osm_id":"4604724956","name":"Maxi Groceries","other":{"addr:city":"London","addr:housenumber":"107","addr:postcode":"E15 1JA","addr:street":"Leytonstone Road","cuisine":"eastern_europe","fhrs:id":"919387","fhrs:local_authority_id":"11\/00140\/FOOD","long_name":"Maxi Eastern European Groceries","shop":"supermarket","source:addr":"FHRS Open Data"}}, "geometry":{"type":"Point","coordinates":[0.00544,51.54814 ]}},
{ "type":"Feature","properties":{"osm_id":"4606523434","name":"New New Chinese Supermarket","other":{"addr:city":"London","addr:housenumber":"125","addr:postcode":"E15 1EN","addr:street":"The Grove","addr:suburb":"Maryland","cuisine":"chinese","fhrs:id":"1231326","fhrs:local_authority_id":"20\/00115\/FOOD","level":"0","old_name":"Hua Run Chinese Supermarket","opening_hours":"Mo-Su 12:00-20:00","shop":"supermarket"}}, "geometry":{"type":"Point","coordinates":[0.00471,51.54534 ]}},
{ "type":"Feature","properties":{"osm_id":"4607932872","name":"Maryland Supermarket","other":{"addr:city":"London","addr:housenumber":"23-25","addr:postcode":"E15 1JA","addr:street":"Leytonstone Road","fhrs:id":"852737","fhrs:local_authority_id":"10\/00067\/FOOD","level":"0","opening_hours":"24\/7","shop":"supermarket","source:addr":"FHRS Open Data"}}, "geometry":{"type":"Point","coordinates":[0.00531,51.54623 ]}},
{ "type":"Feature","properties":{"osm_id":"4628031487","name":"Sainsbury's Online","other":{"addr:city":"London","addr:housenumber":"1","addr:postcode":"E6 6JF","addr:street":"Claps Gate Lane","delivery":"only","fhrs:id":"897398","fhrs:local_authority_id":"15\/00216\/FOOD","shop":"supermarket"}}, "geometry":{"type":"Point","coordinates":[0.06552,51.52099 ]}},
{ "type":"Feature","properties":{"osm_id":"5337276830","name":"Tesco Express","other":{"addr:city":"London","addr:housenumber":"849-853","addr:postcode":"E12 5JY","addr:street":"Romford Road","addr:suburb":"Manor Park","brand":"Tesco Express","brand:wikidata":"Q98456772","contact:website":"https:\/\/www.tesco.com\/store-locator\/london\/849-853-romford-rd","fhrs:id":"640274","opening_hours":"Mo-Su 06:00-24:00","shop":"supermarket","source:addr":"FHRS Open Data"}}, "geometry":{"type":"Point","coordinates":[0.05461,51.55332 ]}},
{ "type":"Feature","properties":{"osm_id":"5781791429","name":"Jessyca","other":{"addr:city":"London","addr:housenumber":"89B","addr:postcode":"E15 1JA","addr:street":"Leytonstone Road","cuisine":"romanian","level":"0","shop":"supermarket"}}, "geometry":{"type":"Point","coordinates":[0.00571,51.5476 ]}},
{ "type":"Feature","properties":{"osm_id":"5828193799","name":"As Nature Intended","other":{"addr:city":"London","addr:housename":"Westfield Stratford City","addr:postcode":"E20 1GP","addr:street":"Montfichet Road","addr:unit":"16 Great Eastern Market","branch":"Westfield Stratford City","brand:wikidata":"Q99200610","diet:vegan":"yes","diet:vegetarian":"yes","fhrs:id":"805335","fhrs:local_authority_id":"12\/00237\/FOOD","level":"-1","opening_hours":"Mo-Fr 10:00-21:00; Sa 09:00-21:00; Su 11:00-18:00","organic":"yes","shop":"supermarket","source:addr":"FHRS Open Data","website":"https:\/\/www.asnatureintended.uk.com\/stores\/westfield-stratford-city\/"}}, "geometry":{"type":"Point","coordinates":[-0.00863,51.54405 ]}},
{ "type":"Feature","properties":{"osm_id":"6119888179","name":"Co-op Food","other":{"addr:city":"London","addr:housenumber":"67-73","addr:postcode":"E7 0EL","addr:street":"Woodgrange Road","addr:suburb":"Forest Gate","branch":"Forest Gate","brand":"Co-op Food","brand:wikidata":"Q3277439","brand:wikipedia":"en:Co-op Food","fhrs:id":"746048","fhrs:local_authority_id":"11\/00391\/FOOD","shop":"supermarket","source:addr":"FHRS Open Data"}}, "geometry":{"type":"Point","coordinates":[0.02462,51.5492 ]}},
{ "type":"Feature","properties":{"osm_id":"6947977923","name":"Taupyk","other":{"addr:city":"London","addr:housenumber":"148","addr:postcode":"E6 3RW","addr:street":"High Street South","addr:suburb":"East Ham","contact:phone":"+44 20 8503 5272","fhrs:id":"640224","fhrs:local_authority_id":"07\/00220\/FOOD","level":"0","shop":"supermarket"}}, "geometry":{"type":"Point","coordinates":[0.05655,51.52582 ]}},
{ "type":"Feature","properties":{"osm_id":"6952421638","name":"SJV Cash & Carry","other":{"shop":"supermarket","fhrs:id":"864080","addr:city":"London","addr:street":"Barking Road","addr:suburb":"East Ham","addr:postcode":"E6 3BB","addr:housenumber":"254","fhrs:local_authority_id":"13\/00112\/FOOD"}}, "geometry":{"type":"Point","coordinates":[0.05025,51.53221 ]}},
{ "type":"Feature","properties":{"osm_id":"7661179394","name":"Morrisons","other":{"addr:city":"London","addr:postcode":"E16 1ED","addr:street":"Silvertown Way","brand":"Morrisons","brand:wikidata":"Q922344","brand:wikipedia":"en:Morrisons","shop":"supermarket"}}, "geometry":{"type":"Point","coordinates":[0.01042,51.515 ]}},
{ "type":"Feature","properties":{"osm_id":"8176629229","name":"Co-op Food","other":{"addr:city":"London","addr:housenumber":"1","addr:postcode":"E16 2UB","addr:street":"Atlantis Avenue","brand":"Co-op Food","brand:wikidata":"Q3277439","brand:wikipedia":"en:Co-op Food","opening_hours":"Mo-Fr 06:00-23:00; Sa-Su 07:00-22:00","shop":"supermarket"}}, "geometry":{"type":"Point","coordinates":[0.07229,51.50856 ]}},
{ "type":"Feature","properties":{"osm_id":"8866647023","name":"Al Medina","other":{"shop":"supermarket"}}, "geometry":{"type":"Point","coordinates":[0.06171,51.51677 ]}},
{ "type":"Feature","properties":{"osm_id":"8866647024","name":"Kacha Bazar Extra","other":{"shop":"supermarket"}}, "geometry":{"type":"Point","coordinates":[0.06177,51.51694 ]}},
{ "type":"Feature","properties":{"osm_id":"8866647026","name":"Food Bazar","other":{"shop":"supermarket"}}, "geometry":{"type":"Point","coordinates":[0.0619,51.51737 ]}},
{ "type":"Feature","properties":{"osm_way_id":"26503503","name":"Sainsbury's","building":"retail","shop":"supermarket","other":{"addr:city":"London","addr:housenumber":"1","addr:postcode":"E6 6JF","addr:street":"Claps Gate Lane","alt_name":"Sainsbury's Beckton Superstore","brand":"Sainsbury's","brand:wikidata":"Q152096","brand:wikipedia":"en:Sainsbury's","fhrs:authority":"Newham","fhrs:id":"640886","fhrs:local_authority_id":"63905\/0001\/0\/000","opening_hours":"Mo-Sa 08:00-22:00, Su 11:00-17:00"}}, "geometry":{"type":"MultiPolygon","coordinates":[[[[0.06515,51.52196],[0.06701,51.52171],[0.06666,51.52074],[0.0648,51.52098],[0.06515,51.52196]]]]}},
{ "type":"Feature","properties":{"osm_way_id":"26505373","name":"Asda","building":"yes","shop":"supermarket","other":{"addr:city":"London","addr:country":"GB","addr:postcode":"E6 5JP","addr:street":"Tollgate Road","addr:suburb":"Beckton","alt_name":"Mary Rose Mall","branch":"ASDA Beckton Superstore","brand":"Asda","brand:wikidata":"Q297410","brand:wikipedia":"en:Asda","contact:facebook":"https:\/\/www.facebook.com\/asda\/","contact:phone":"+44 20 7476 4800","contact:twitter":"@asda","contact:website":"https:\/\/storelocator.asda.com\/london\/beckton\/tollgate-road","fhrs:id":"641007","fhrs:local_authority_id":"70705\/0001\/0\/000","internet_access":"wlan","internet_access:fee":"customers","operator":"Asda Stores Ltd","ref:store":"04618"}}, "geometry":{"type":"MultiPolygon","coordinates":[[[[0.0574,51.51562],[0.05766,51.51553],[0.05778,51.51564],[0.05789,51.5156],[0.05794,51.5156],[0.05807,51.51555],[0.05806,51.51555],[0.05818,51.51549],[0.05819,51.51545],[0.05816,51.51542],[0.05865,51.51522],[0.05842,51.515],[0.05845,51.51499],[0.05847,51.51492],[0.05832,51.51478],[0.05827,51.51479],[0.05829,51.51474],[0.05831,51.51469],[0.05838,51.5147],[0.05852,51.51464],[0.05848,51.51461],[0.05847,51.51454],[0.05845,51.51453],[0.0584,51.51455],[0.05829,51.51445],[0.05823,51.51447],[0.05815,51.51439],[0.05782,51.51435],[0.05769,51.5144],[0.05765,51.51437],[0.05748,51.51444],[0.05743,51.5144],[0.05737,51.51447],[0.05731,51.51449],[0.05739,51.51456],[0.05735,51.5146],[0.05731,51.51463],[0.0572,51.51459],[0.05713,51.51454],[0.05708,51.51456],[0.05688,51.51456],[0.05688,51.51462],[0.05695,51.51461],[0.05695,51.51465],[0.05703,51.51471],[0.05722,51.51478],[0.0573,51.51479],[0.05732,51.51481],[0.05683,51.51501],[0.0569,51.51508],[0.05686,51.5151],[0.05713,51.51537],[0.05707,51.51539],[0.05725,51.51556],[0.05732,51.51554],[0.0574,51.51562]]]]}},
{ "type":"Feature","properties":{"osm_way_id":"132634767","name":"Waitrose","shop":"supermarket","other":{"addr:city":"London","addr:housename":"Westfield Stratford City","addr:postcode":"E20 1EH","addr:street":"Montfichet Road","addr:unit":"1 The Arcade","branch":"Stratford City","brand":"Waitrose","brand:wikidata":"Q771734","brand:wikipedia":"en:Waitrose","contact:phone":"+44 20 8534 3986","contact:website":"https:\/\/www.waitrose.com\/content\/waitrose\/en\/bf_home\/bf\/328.html","diet:vegan":"yes","diet:vegetarian":"yes","fhrs:id":"737494","fhrs:local_authority_id":"12\/00064\/FOOD","level":"-1","official_name":"Waitrose & Partners","opening_hours":"Mo-Sa 08:00-21:00; Su 12:00-18:00","operator":"Waitrose & Partners","ref":"328","source:addr":"FHRS Open Data","wheelchair":"yes"}}, "geometry":{"type":"MultiPolygon","coordinates":[[[[-0.01001,51.5437],[-0.00982,51.54381],[-0.00969,51.54389],[-0.00958,51.54396],[-0.00937,51.54384],[-0.00918,51.54372],[-0.00909,51.54367],[-0.00939,51.54349],[-0.0091,51.54332],[-0.00919,51.54326],[-0.00955,51.54304],[-0.0103,51.54354],[-0.01001,51.5437]]]]}},
{ "type":"Feature","properties":{"osm_way_id":"172292289","name":"Tesco Extra","building":"yes","shop":"supermarket","other":{"addr:city":"London","addr:housenumber":"1","addr:postcode":"E6 7ER","addr:street":"Armada Way","alt_name":"Tesco Gallions Reach Extra","branch":"Gallions Reach Extra","brand":"Tesco Extra","brand:wikidata":"Q25172225","brand:wikipedia":"en:Tesco Extra","contact:phone":"+44 345 677 9108","contact:website":"http:\/\/www.tesco.com\/store-locator\/uk\/?bID=2179","fhrs:id":"640808","internet_access":"wlan","internet_access:fee":"no","not:addr:postcode":"E6 7FD","ref":"2179","ref:NPLG:UPRN:1":"010008986218","website":"https:\/\/www.tesco.com\/store-locator\/london\/1-armada-way"}}, "geometry":{"type":"MultiPolygon","coordinates":[[[[0.07485,51.51809],[0.07659,51.51787],[0.07636,51.51713],[0.07461,51.51734],[0.07485,51.51809]]]]}},
{ "type":"Feature","properties":{"osm_way_id":"241551338","name":"Morrisons","building":"supermarket","shop":"supermarket","other":{"addr:city":"London","addr:housenumber":"112-118","addr:postcode":"E15 1EN","addr:street":"The Grove","branch":"Stratford","brand":"Morrisons","brand:wikidata":"Q922344","brand:wikipedia":"en:Morrisons","contact:website":"https:\/\/my.morrisons.com\/storefinder\/#!\/309","designation":"Stratford","fhrs:addr:postcode":"E15 4LJ","fhrs:id":"641135","fhrs:local_authority_id":"77640\/0091\/2\/000","not:addr:postcode":"E15 4LJ","opening_hours":"Mo-Sa 07:00-22:00; Su 11:00-17:00","ref":"309","source:addr":"FHRS Open Data","toilets:wheelchair":"yes","wheelchair":"yes"}}, "geometry":{"type":"MultiPolygon","coordinates":[[[[0.0046,51.54321],[0.0046,51.543],[0.0046,51.54284],[0.00462,51.54284],[0.00462,51.54278],[0.00463,51.54273],[0.00532,51.54274],[0.00533,51.54266],[0.00547,51.54266],[0.00547,51.54274],[0.00556,51.54274],[0.00555,51.54301],[0.00555,51.54302],[0.00556,51.54304],[0.00556,51.54305],[0.00555,51.54306],[0.00554,51.54308],[0.00554,51.54318],[0.00553,51.54341],[0.00553,51.54343],[0.00553,51.54351],[0.00553,51.54354],[0.00542,51.54354],[0.00542,51.54351],[0.00521,51.54351],[0.00463,51.54351],[0.00463,51.54345],[0.0046,51.54344],[0.00457,51.54343],[0.00456,51.54341],[0.00456,51.54339],[0.00457,51.54338],[0.00459,51.54336],[0.00461,51.54335],[0.0046,51.54323],[0.0046,51.54321]]]]}},
{ "type":"Feature","properties":{"osm_way_id":"428472703","name":"Lidl","building":"yes","shop":"supermarket","other":{"addr:city":"London","addr:housenumber":"198","addr:postcode":"E6 5YA","addr:street":"Tollgate Road","brand":"Lidl","brand:wikidata":"Q151954","brand:wikipedia":"en:Lidl","fhrs:id":"919728"}}, "geometry":{"type":"MultiPolygon","coordinates":[[[[0.05407,51.51604],[0.05459,51.51601],[0.05457,51.51585],[0.05443,51.51586],[0.05438,51.51556],[0.05413,51.51558],[0.05412,51.51554],[0.054,51.51555],[0.05407,51.51604]]]]}},
{ "type":"Feature","properties":{"osm_way_id":"460736255","name":"Sainsbury's","building":"retail","shop":"supermarket","other":{"addr:city":"London","addr:housenumber":"2-10","addr:postcode":"E6 1HU","addr:street":"Myrtle Road","branch":"East Ham Superstore","brand":"Sainsbury's","brand:wikidata":"Q152096","brand:wikipedia":"en:Sainsbury's","contact:phone":"+44 20 8503 4997","contact:website":"https:\/\/stores.sainsburys.co.uk\/0014\/east-ham","fhrs:id":"776181","opening_hours":"Mo-Sa 08:00-20:00; Su 11:00-17:00","ref":"14"}}, "geometry":{"type":"MultiPolygon","coordinates":[[[[0.05286,51.53428],[0.05306,51.53386],[0.0529,51.53383],[0.05296,51.5337],[0.05288,51.53369],[0.05289,51.53366],[0.05279,51.53364],[0.05255,51.53416],[0.0525,51.53415],[0.05247,51.53421],[0.05286,51.53428]]]]}},
{ "type":"Feature","properties":{"osm_way_id":"469976740","name":"SK Traders","building":"retail","shop":"supermarket","other":{"addr:city":"London","addr:housenumber":"135C","addr:postcode":"E13 9HH","addr:street":"High Street","addr:suburb":"Plaistow","building:levels":"1","fhrs:id":"951753","fhrs:local_authority_id":"17\/00196\/FOOD","old_name":"New Bangla Bazaar","source:addr":"FHRS Open Data","source:geometry":"bing"}}, "geometry":{"type":"MultiPolygon","coordinates":[[[[0.02571,51.52933],[0.02577,51.52927],[0.02593,51.52934],[0.02587,51.52939],[0.02571,51.52933]]]]}},
{ "type":"Feature","properties":{"osm_way_id":"564117878","name":"Co-op Food","building":"yes","shop":"supermarket","other":{"addr:city":"London","addr:housenumber":"24","addr:postcode":"E16 1EQ","addr:street":"Barking Road","branch":"Canning Town","brand":"Co-op Food","brand:wikidata":"Q3277439","brand:wikipedia":"en:Co-op Food","contact:facebook":"http:\/\/www.facebook.com\/TheCooperative","contact:phone":"+44 20 7511 1465","contact:twitter":"@TheCooperative","contact:website":"http:\/\/www.coop.co.uk\/store\/food\/E16-1EQ\/24-barking-road","fhrs:authority":"Newham","fhrs:id":"640416","fhrs:local_authority_id":"11\/00153\/FOOD","internet_access":"wlan","internet_access:fee":"customers","opening_hours":"Mo-Sa 07:00-23:00; Su 10:00-16:00","website":"http:\/\/www.coop.co.uk\/store\/food\/E16-1EQ\/24-barking-road"}}, "geometry":{"type":"MultiPolygon","coordinates":[[[[0.00896,51.51605],[0.00927,51.51619],[0.00925,51.5162],[0.00943,51.51628],[0.00958,51.51598],[0.00904,51.51588],[0.00896,51.51605]]]]}},
{ "type":"Feature","properties":{"osm_way_id":"597115332","name":"Tesco Metro","building":"yes","shop":"supermarket","other":{"addr:city":"London","addr:housenumber":"346-352","addr:postcode":"E13 9AP","addr:street":"Green Street","addr:suburb":"Upton Park","brand":"Tesco Metro","brand:wikidata":"Q57551648","fhrs:id":"837096","fhrs:local_authority_id":"68150\/0346\/0\/000","fhrs:name":"Tesco","operator":"Tesco","payment:cash":"yes","payment:coins":"yes","payment:mastercard":"yes","payment:visa":"yes","source:addr":"FHRS Open Data"}}, "geometry":{"type":"MultiPolygon","coordinates":[[[[0.03471,51.53671],[0.0348,51.53655],[0.03461,51.53651],[0.03397,51.53637],[0.03383,51.53662],[0.03387,51.53663],[0.03406,51.53667],[0.03424,51.53671],[0.03429,51.53662],[0.0345,51.53667],[0.03471,51.53671]]]]}},
{ "type":"Feature","properties":{"osm_way_id":"597115333","name":"Iceland","building":"yes","shop":"supermarket","other":{"addr:city":"London","addr:housenumber":"358-362","addr:postcode":"E13 9AP","addr:street":"Green Street","addr:suburb":"Upton Park","brand":"Iceland","brand:wikidata":"Q721810","fhrs:id":"813708","fhrs:local_authority_id":"68140\/0358\/0\/000","fhrs:name":"Iceland Frozen Foods","operator":"Iceland","source:addr":"FHRS Open Data"}}, "geometry":{"type":"MultiPolygon","coordinates":[[[[0.03484,51.53646],[0.03489,51.53633],[0.03449,51.53627],[0.0345,51.53624],[0.0341,51.53615],[0.03402,51.53629],[0.03443,51.53639],[0.03484,51.53646]]]]}},
{ "type":"Feature","properties":{"osm_way_id":"597368959","name":"Bharat Food Store","building":"yes","shop":"supermarket","other":{"addr:city":"London","addr:housenumber":"4-6","addr:parentstreet":"Green Street","addr:postcode":"E7 8LH","addr:street":"Carlton Terrace","addr:suburb":"Forest Gate","fhrs:id":"640642","fhrs:local_authority_id":"12\/00679\/FOOD","fhrs:name":"Bharat Food Store Roots","source:addr":"FHRS Open Data"}}, "geometry":{"type":"MultiPolygon","coordinates":[[[[0.03324,51.53894],[0.03332,51.53884],[0.03365,51.53893],[0.03357,51.53902],[0.03324,51.53894]]]]}},
{ "type":"Feature","properties":{"osm_way_id":"729685363","name":"Postoivoru","shop":"supermarket","other":{"addr:city":"London","addr:housenumber":"2","addr:postcode":"E15 1SE","addr:street":"Leytonstone Road","fhrs:id":"875033","fhrs:local_authority_id":"16\/00334\/FOOD","source:addr":"FHRS Open Data"}}, "geometry":{"type":"MultiPolygon","coordinates":[[[[0.00662,51.54656],[0.00666,51.54657],[0.00668,51.54657],[0.00674,51.54659],[0.00683,51.54661],[0.00688,51.54662],[0.00693,51.54654],[0.00682,51.54651],[0.00678,51.54651],[0.00667,51.54649],[0.00662,51.54656]]]]}},
{ "type":"Feature","properties":{"osm_way_id":"757877934","name":"Tesco Extra","building":"yes","shop":"supermarket","other":{"addr:city":"London","addr:postcode":"E6 7ER","addr:street":"Armada Way","brand":"Tesco Extra","brand:wikidata":"Q25172225","brand:wikipedia":"en:Tesco Extra","website":"https:\/\/www.tesco.com\/store-locator\/london\/1-armada-way"}}, "geometry":{"type":"MultiPolygon","coordinates":[[[[0.07848,51.51557],[0.07856,51.51556],[0.07852,51.51544],[0.07844,51.51545],[0.07848,51.51557]]]]}},
{ "type":"Feature","properties":{"osm_way_id":"872976404","name":"Davina Supermarket","building":"house","shop":"supermarket","other":{"addr:city":"London","addr:housenumber":"58","addr:postcode":"E7 9LN","addr:street":"Upton Lane","building:levels":"3","fhrs:id":"771887","fhrs:local_authority_id":"13\/01246\/FOOD","source:addr:housenumber":"FHRS opdendata","source:addr:postcode":"FHRS Open Data"}}, "geometry":{"type":"MultiPolygon","coordinates":[[[[0.02599,51.54464],[0.026,51.54459],[0.02586,51.54458],[0.02586,51.54459],[0.02572,51.54458],[0.02571,51.54462],[0.02599,51.54464]]]]}},
{ "type":"Feature","properties":{"osm_way_id":"874060442","name":"Greenland Supermarket","building":"house","shop":"supermarket","other":{"addr:city":"London","addr:housenumber":"323","addr:postcode":"E7 9HA","addr:street":"Romford Road","building:levels":"4","fhrs:authority":"Newham","fhrs:id":"1231329","fhrs:local_authority_id":"20\/00118\/FOOD","source:addr:postcode":"FHRS Open Data"}}, "geometry":{"type":"MultiPolygon","coordinates":[[[[0.02476,51.54662],[0.02484,51.54662],[0.02486,51.54654],[0.02478,51.54653],[0.02476,51.54662]]]]}},
{ "type":"Feature","properties":{"osm_way_id":"874060451","name":"Asona Ba","building":"house","shop":"supermarket","other":{"addr:city":"London","addr:housenumber":"305","addr:postcode":"E7 9HA","addr:street":"Romford Road","building:levels":"2","fhrs:id":"641100","fhrs:local_authority_id":"74760\/0305\/0\/000","roof:levels":"1","source:addr:postcode":"FHRS Open Data"}}, "geometry":{"type":"MultiPolygon","coordinates":[[[[0.02401,51.54658],[0.02407,51.54659],[0.02406,51.54662],[0.02408,51.54664],[0.0241,51.54655],[0.02412,51.54647],[0.02404,51.54646],[0.02401,51.54658]]]]}},
{ "type":"Feature","properties":{"osm_way_id":"874060467","name":"Woodgrange Supermarket","shop":"supermarket","other":{"addr:city":"London","addr:housenumber":"5","addr:postcode":"E7 8BA","addr:street":"Woodgrange Road","building:levels":"1","building:part":"yes","fhrs:id":"849267","fhrs:local_authority_id":"08\/00028\/FOOD","source:addr:postcode":"FHRS Open Data"}}, "geometry":{"type":"MultiPolygon","coordinates":[[[[0.02519,51.54693],[0.02517,51.54698],[0.02533,51.547],[0.02534,51.54695],[0.02519,51.54693]]]]}},
{ "type":"Feature","properties":{"osm_way_id":"874077899","name":"Pascheal Exotics","shop":"supermarket","other":{"addr:city":"London","addr:housenumber":"36-38","addr:postcode":"E7 9LN","addr:street":"Upton Lane","cuisine":"african","fhrs:id":"849349","fhrs:local_authority_id":"78210\/0036\/0\/000","operator":"Wesco Enterprises","source:addr:postcode":"FHRS Open Data"}}, "geometry":{"type":"MultiPolygon","coordinates":[[[[0.0259,51.54511],[0.0259,51.54506],[0.02577,51.54505],[0.0257,51.54504],[0.02568,51.54514],[0.02589,51.54515],[0.0259,51.54511]]]]}},
{ "type":"Feature","properties":{"osm_way_id":"874705206","name":"Aris Cnd Mini Market","building":"house","shop":"supermarket","other":{"addr:city":"London","addr:housenumber":"122","addr:postcode":"E7 9LW","addr:street":"Upton Lane","building:levels":"3","fhrs:id":"1214468","fhrs:local_authority_id":"19\/01118\/FOOD","source:addr:postcode":"FHRS Open Data"}}, "geometry":{"type":"MultiPolygon","coordinates":[[[[0.02612,51.5424],[0.02613,51.54235],[0.02591,51.54234],[0.0259,51.54239],[0.02599,51.54239],[0.02612,51.5424]]]]}},
{ "type":"Feature","properties":{"osm_way_id":"878928697","name":"Lidl","building":"yes","shop":"supermarket","other":{"addr:city":"London","addr:country":"GB","addr:housenumber":"4","addr:postcode":"E6 6LG","addr:street":"Claps Gate Lane","brand":"Lidl","brand:wikidata":"Q151954","brand:wikipedia":"en:Lidl","fhrs:id":"1274362","internet_access":"wlan","internet_access:fee":"customers","opening_hours":"Mo-Sa 07:00-22:00; Su 11:00-17:00","operator":"Lidl","website":"https:\/\/www.lidl.co.uk\/en"}}, "geometry":{"type":"MultiPolygon","coordinates":[[[[0.06983,51.52105],[0.06907,51.52105],[0.06899,51.52036],[0.06979,51.52035],[0.06983,51.52105]]]]}},
{ "type":"Feature","properties":{"osm_way_id":"923690202","name":"Lidl","building":"retail","shop":"supermarket","other":{"addr:city":"London","addr:housenumber":"182-184","addr:postcode":"E6 2JA","addr:street":"High Street North","brand":"Lidl","brand:wikidata":"Q151954","fhrs:id":"747715","operator":"Lidl","source:addr":"FHRS Open Data"}}, "geometry":{"type":"MultiPolygon","coordinates":[[[[0.05146,51.53872],[0.05163,51.53875],[0.05244,51.53887],[0.05244,51.53885],[0.05253,51.53886],[0.05257,51.53875],[0.05249,51.53874],[0.05253,51.53863],[0.05155,51.53849],[0.05146,51.53872]]]]}},
{ "type":"Feature","properties":{"osm_way_id":"1007818612","name":"Costcutter","shop":"supermarket","other":{"addr:city":"London","addr:housenumber":"191-197","addr:postcode":"E7 9PJ","addr:street":"Upton Lane","brand":"Costcutter","brand:wikidata":"Q5175072","brand:wikipedia":"en:Costcutter","fhrs:id":"922324"}}, "geometry":{"type":"MultiPolygon","coordinates":[[[[0.02318,51.54159],[0.02302,51.54167],[0.02313,51.54175],[0.02314,51.54176],[0.02316,51.54176],[0.02317,51.54175],[0.02318,51.54175],[0.0232,51.54176],[0.02325,51.54174],[0.02326,51.54165],[0.02318,51.54159]]]]}},
{ "type":"Feature","properties":{"osm_way_id":"1011500307","name":"Green Village","building":"yes","shop":"supermarket","other":{"addr:city":"London","addr:parentstreet":"Green Street","addr:postcode":"E7 8LH","addr:street":"Carlton Terrace","addr:suburb":"Forest Gate","fhrs:id":"860747","fhrs:local_authority_id":"68150\/1010\/A\/000","source:addr":"FHRS Open Data"}}, "geometry":{"type":"MultiPolygon","coordinates":[[[[0.0339,51.53857],[0.03386,51.53864],[0.03353,51.53856],[0.03359,51.53849],[0.0339,51.53857]]]]}},
{ "type":"Feature","properties":{"osm_way_id":"1011727900","name":"Aladdins Mahal","amenity":"restaurant","shop":"supermarket","other":{"addr:city":"London","addr:housenumber":"27-29","addr:postcode":"E6 1AD","addr:street":"Plashet Grove","cuisine":"indian","fhrs:id":"1256010","old_name":"A - Z Food Co","source:addr:postcode":"FHRS Opendata","takeaway":"yes"}}, "geometry":{"type":"MultiPolygon","coordinates":[[[[0.03569,51.53732],[0.03572,51.53742],[0.03579,51.53741],[0.03586,51.5374],[0.03583,51.53731],[0.03576,51.53731],[0.03569,51.53732]]]]}}
]
}
