{
"type": "FeatureCollection",
"features": [
{ "type":"Feature","properties":{"osm_id":"282618049","name":"Co-operative","other":{"addr:city":"London","addr:housenumber":"136","addr:postcode":"SE1 0DG","addr:street":"Southwark Bridge Road","fhrs:id":"776614","shop":"supermarket","source:addr":"FHRS Open Data"}}, "geometry":{"type":"Point","coordinates":[-0.09929,51.5005 ]}},
{ "type":"Feature","properties":{"osm_id":"388350087","name":"Express Supersave Food & Wine","other":{"shop":"supermarket","addr:city":"London","wheelchair":"yes","addr:street":"Blackfriars Road","addr:postcode":"SE1 8HW","opening_hours":"Mo-Su 07:00-23:00","addr:housenumber":"109-115","wheelchair:description":"easy for electric wheelchair but difficult to go up for manual wheelchairs. steep"}}, "geometry":{"type":"Point","coordinates":[-0.10493,51.50109 ]}},
{ "type":"Feature","properties":{"osm_id":"1873309077","other":{"shop":"supermarket"}}, "geometry":{"type":"Point","coordinates":[-0.07417,51.49908 ]}},
{ "type":"Feature","properties":{"osm_id":"1932320588","name":"Tesco Metro","other":{"addr:city":"London","addr:housenumber":"125","addr:postcode":"SE1 2RS","addr:street":"Tooley Street","brand":"Tesco Metro","brand:wikidata":"Q57551648","fhrs:id":"363897","name:fa":"تسکو مترو","opening_hours":"Mo-Sa 06:00-23:00, Su 12:00-18:00","shop":"supermarket","source:addr":"FHRS Open Data","wheelchair":"yes"}}, "geometry":{"type":"Point","coordinates":[-0.08174,51.50429 ]}},
{ "type":"Feature","properties":{"osm_id":"2327367004","name":"Longdan","other":{"addr:city":"London","addr:housename":"Dashwood Studios","addr:housenumber":"128-132","addr:postcode":"SE17 1JL","addr:street":"Walworth Road","fhrs:id":"550636","shop":"supermarket","source:addr":"FHRS Open Data"}}, "geometry":{"type":"Point","coordinates":[-0.09803,51.49148 ]}},
{ "type":"Feature","properties":{"osm_id":"2611039862","name":"Tesco Metro","other":{"shop":"supermarket","brand":"Tesco Metro","name:fa":"تسکو مترو","opening_hours":"Mo-Sa 07:00-23:00; Su 12:00-18:00","brand:wikidata":"Q57551648","payment:american_express":"yes"}}, "geometry":{"type":"Point","coordinates":[-0.06977,51.49835 ]}},
{ "type":"Feature","properties":{"osm_id":"4118379689","name":"Turkish Food Centre","other":{"addr:housenumber":"303","addr:street":"Camberwell New Road","opening_hours":"Mo-Su 08:00-21:00","parking_space":"customers","payment:cash":"yes","payment:coins":"yes","payment:credit_cards":"yes","payment:debit_cards":"yes","payment:mastercard":"yes","payment:notes":"yes","payment:visa":"yes","shop":"supermarket"}}, "geometry":{"type":"Point","coordinates":[-0.09529,51.47515 ]}},
{ "type":"Feature","properties":{"osm_id":"4478054555","name":"Co-op Food","other":{"addr:city":"London","addr:housenumber":"1-3","addr:postcode":"SE1 2DE","addr:street":"Mill Street","brand":"Co-op Food","brand:wikidata":"Q3277439","brand:wikipedia":"en:Co-op Food","opening_hours":"Mo-Su 07:00-23:00","shop":"supermarket"}}, "geometry":{"type":"Point","coordinates":[-0.073,51.50034 ]}},
{ "type":"Feature","properties":{"osm_id":"4741390850","name":"Afrikan Market","other":{"addr:housenumber":"160","addr:postcode":"SE5 0EE","addr:street":"Camberwell Road","fhrs:id":"1220594","shop":"supermarket","source:addr":"FHRS Open Data"}}, "geometry":{"type":"Point","coordinates":[-0.09439,51.47947 ]}},
{ "type":"Feature","properties":{"osm_id":"4881184046","name":"Sainsbury's","other":{"addr:city":"London","addr:housenumber":"40","addr:postcode":"SE1 6TJ","addr:street":"New Kent Road","brand":"Sainsbury's","brand:wikidata":"Q152096","brand:wikipedia":"en:Sainsbury's","fhrs:id":"1061966","opening_hours":"Mo-Sa 07:00-23:00; Su 11:00-17:00","phone":"+44 20 7530 1300","shop":"supermarket","wheelchair":"yes"}}, "geometry":{"type":"Point","coordinates":[-0.09763,51.49456 ]}},
{ "type":"Feature","properties":{"osm_id":"5100071656","name":"Hiep Phat Vietnamese Supermarket","other":{"shop":"supermarket"}}, "geometry":{"type":"Point","coordinates":[-0.09584,51.48882 ]}},
{ "type":"Feature","properties":{"osm_id":"6383492424","name":"Hao Wah Chinese Supermarket","other":{"shop":"supermarket"}}, "geometry":{"type":"Point","coordinates":[-0.07272,51.47351 ]}},
{ "type":"Feature","properties":{"osm_id":"6400858469","name":"Kim Lien Mini Market","other":{"addr:city":"London","addr:housenumber":"47","addr:postcode":"SE15 5EB","addr:street":"Peckham High Street","fhrs:id":"542859","shop":"supermarket","source:addr":"FHRS Open Data"}}, "geometry":{"type":"Point","coordinates":[-0.07117,51.47345 ]}},
{ "type":"Feature","properties":{"osm_id":"6457582588","name":"New Kumasi Market","other":{"addr:city":"London","addr:housenumber":"74","addr:postcode":"SE15 5ED","addr:street":"Peckham High Street","fhrs:id":"363999","phone":"+44 20 7732 9733","shop":"supermarket","source:addr":"FHRS Open Data"}}, "geometry":{"type":"Point","coordinates":[-0.06957,51.4735 ]}},
{ "type":"Feature","properties":{"osm_id":"8039470512","name":"Co-op Food","other":{"addr:city":"London","addr:housenumber":"156-164","addr:postcode":"SE17 1JL","addr:street":"Walworth Road","brand":"Co-op Food","brand:wikidata":"Q3277439","brand:wikipedia":"en:Co-op Food","opening_hours":"Mo-Su 06:00-23:00","phone":"+44 20 7703 8170","shop":"supermarket"}}, "geometry":{"type":"Point","coordinates":[-0.09737,51.4905 ]}},
{ "type":"Feature","properties":{"osm_id":"8882649149","other":{"cuisine":"thai","shop":"supermarket"}}, "geometry":{"type":"Point","coordinates":[-0.05896,51.49866 ]}},
{ "type":"Feature","properties":{"osm_id":"9238117983","name":"The Savanna","other":{"addr:city":"London","addr:housenumber":"69","addr:street":"St. Thomas Street","branch":"London Bridge","opening_hours":"Mo-Fr 08:00:20:00; Sa-Su 09:00-18:00; PH 09:00-18:00","phone":"+44 20 8549 6000","shop":"supermarket","website":"https:\/\/www.thesavanna.co.uk\/"}}, "geometry":{"type":"Point","coordinates":[-0.08347,51.50283 ]}},
{ "type":"Feature","properties":{"osm_id":"9400588770","name":"Planet Organic","other":{"addr:housenumber":"153","addr:postcode":"SE1 3LW","addr:street":"Tower Bridge Road","brand":"Planet Organic","brand:wikidata":"Q24298870","brand:wikipedia":"en:Planet Organic","opening_hours":"Mo-Sa 07:30-21:00; Su 09:00-21:00","organic":"only","phone":"+44 20 8159 9490","shop":"supermarket"}}, "geometry":{"type":"Point","coordinates":[-0.07939,51.499 ]}},
{ "type":"Feature","properties":{"osm_id":"9429521896","name":"River Supermarket","other":{"shop":"supermarket"}}, "geometry":{"type":"Point","coordinates":[-0.06093,51.4983 ]}},
{ "type":"Feature","properties":{"osm_id":"4629288"},"geometry":{"type":"LineString","coordinates":[[-0.08477,51.46253],[-0.08502,51.46242],[-0.08507,51.4624],[-0.08546,51.46223],[-0.08589,51.46204],[-0.08548,51.46166],[-0.08557,51.46162],[-0.08538,51.46146],[-0.08541,51.46144],[-0.08527,51.46132],[-0.08524,51.4613],[-0.08501,51.4614],[-0.08508,51.46147],[-0.08407,51.46193],[-0.08433,51.46216],[-0.08456,51.46235],[-0.08477,51.46253]]}},
{ "type":"Feature","properties":{"osm_id":"6438104","name":"Sainsbury's","type":"multipolygon","building":"supermarket","shop":"supermarket","other":{"addr:housenumber":"80","addr:postcode":"SE22 8BB","addr:street":"Dog Kennel Hill","alt_name":"Sainsbury's Dulwich Superstore","brand":"Sainsbury's","brand:wikidata":"Q152096","brand:wikipedia":"en:Sainsbury's","diet:vegan":"yes","fhrs:id":"364527","internet_access":"wlan","opening_hours":"Mo-Sa 07:00-00:00; Su 11:00-17:00","operator":"Sainsbury's"}}, "geometry":{"type":"MultiPolygon","coordinates":[[[[-0.08477,51.46253],[-0.08502,51.46242],[-0.08507,51.4624],[-0.08546,51.46223],[-0.08589,51.46204],[-0.08548,51.46166],[-0.08557,51.46162],[-0.08538,51.46146],[-0.08541,51.46144],[-0.08527,51.46132],[-0.08524,51.4613],[-0.08501,51.4614],[-0.08508,51.46147],[-0.08407,51.46193],[-0.08433,51.46216],[-0.08456,51.46235],[-0.08477,51.46253 ]],[[ -0.08484,51.46231],[-0.08469,51.46238],[-0.08462,51.46232],[-0.0844,51.46213],[-0.08455,51.46206],[-0.08484,51.46231 ]],[[ -0.08484,51.46231],[-0.08499,51.46243],[-0.08483,51.4625],[-0.08469,51.46238],[-0.08484,51.46231]]]]}},
{ "type":"Feature","properties":{"osm_way_id":"5112997","name":"Morrisons","building":"yes","shop":"supermarket","other":{"addr:city":"London","addr:housename":"Aylesham Centre","addr:postcode":"SE15 5EW","addr:street":"Rye Lane","addr:unit":"Unit 3 The Aylesham Centre","alt_name":"Morrisons Peckham","brand":"Morrisons","brand:wikidata":"Q922344","brand:wikipedia":"en:Morrisons","contact:phone":"+44 20 7732 3518","contact:website":"http:\/\/www.morrisons.co.uk","fhrs:id":"364536","opening_hours":"Mo-Sa 08:00-22:00; Su 10:00-16:00","roof:shape":"flat","source:addr":"FHRS Open Data","website":"http:\/\/www.morrisons.co.uk"}}, "geometry":{"type":"MultiPolygon","coordinates":[[[[-0.06908,51.47317],[-0.06906,51.47304],[-0.06904,51.47286],[-0.06889,51.47286],[-0.06888,51.47275],[-0.06862,51.47276],[-0.06854,51.47272],[-0.06851,51.47275],[-0.06845,51.47271],[-0.06781,51.47275],[-0.06782,51.47282],[-0.06784,51.47291],[-0.06788,51.47318],[-0.0683,51.47316],[-0.06832,51.47333],[-0.06848,51.47336],[-0.06891,51.47326],[-0.0689,51.47317],[-0.06908,51.47317]]]]}},
{ "type":"Feature","properties":{"osm_way_id":"5465511","name":"Tesco Express","building":"yes","shop":"supermarket","other":{"addr:housename":"5a-9","addr:postcode":"SE22 9BD","addr:street":"East Dulwich Road","brand":"Tesco Express","brand:wikidata":"Q98456772","diet:vegan":"yes","fhrs:id":"365040","name:fa":"تسکو اکسپرس","opening_hours":"Mo-Su 06:00-23:00"}}, "geometry":{"type":"MultiPolygon","coordinates":[[[[-0.06788,51.46195],[-0.06789,51.46202],[-0.06865,51.46192],[-0.06863,51.46186],[-0.06788,51.46195]]]]}},
{ "type":"Feature","properties":{"osm_way_id":"5548352","name":"Lidl","building":"yes","shop":"supermarket","other":{"addr:city":"London","addr:housenumber":"3","addr:postcode":"SE15 5BA","addr:street":"Bellenden Road","addr:unit":"Unit 3 Bellenden Road Retail","alt_name":"LIDL London","brand":"Lidl","brand:wikidata":"Q151954","brand:wikipedia":"en:Lidl","fhrs:id":"364761","source:addr":"FHRS Open Data"}}, "geometry":{"type":"MultiPolygon","coordinates":[[[[-0.07157,51.47266],[-0.07146,51.47219],[-0.07133,51.47221],[-0.07133,51.47222],[-0.07105,51.47225],[-0.07105,51.47228],[-0.07098,51.47228],[-0.07104,51.47254],[-0.07107,51.47254],[-0.0711,51.47266],[-0.07111,51.47271],[-0.07117,51.4727],[-0.07157,51.47266]]]]}},
{ "type":"Feature","properties":{"osm_way_id":"24829451","name":"Tesco","building":"shop","shop":"supermarket","other":{"addr:city":"London","addr:housenumber":"107","addr:postcode":"SE1 5HG","addr:street":"Dunton Road","brand":"Tesco","brand:wikidata":"Q487494","brand:wikipedia":"en:Tesco","contact:website":"https:\/\/www.tesco.com\/store-locator\/london\/107-dunton-rd","fhrs:id":"364518","name:fa":"تسکو","opening_hours":"Mo-Fr 07:00-22:00; Sa 07:00-00:00; Su 11:00-17:00","source:addr":"FHRS Open Data"}}, "geometry":{"type":"MultiPolygon","coordinates":[[[[-0.076,51.48925],[-0.07547,51.48901],[-0.07543,51.48904],[-0.07538,51.48902],[-0.07528,51.4891],[-0.0754,51.48916],[-0.07527,51.48921],[-0.07514,51.48915],[-0.07542,51.48877],[-0.0756,51.48861],[-0.07565,51.48864],[-0.07577,51.48854],[-0.07581,51.48856],[-0.07602,51.48838],[-0.0761,51.48842],[-0.07614,51.48839],[-0.07645,51.48853],[-0.07653,51.48846],[-0.07687,51.48861],[-0.0766,51.48884],[-0.07652,51.4888],[-0.076,51.48925]]]]}},
{ "type":"Feature","properties":{"osm_way_id":"27071098","name":"Lidl","building":"retail","shop":"supermarket","other":{"addr:city":"London","addr:housenumber":"96-120","addr:postcode":"SE1 4NY","addr:street":"Old Kent Road","brand":"Lidl","brand:wikidata":"Q151954","brand:wikipedia":"en:Lidl","building:levels":"1","fhrs:id":"364625","name:fa":"لیدل","opening_hours":"Mo-Sa 08:00-22:00; Su 11:00-17:00","roof:levels":"1","source:addr":"FHRS Open Data"}}, "geometry":{"type":"MultiPolygon","coordinates":[[[[-0.08335,51.49182],[-0.08362,51.49203],[-0.08369,51.49199],[-0.08377,51.49205],[-0.08373,51.49207],[-0.08381,51.49213],[-0.08346,51.49231],[-0.083,51.49196],[-0.08326,51.49183],[-0.08329,51.49185],[-0.08335,51.49182]]]]}},
{ "type":"Feature","properties":{"osm_way_id":"31178769","name":"The Food Warehouse","building":"retail","shop":"supermarket","other":{"brand:wikidata":"Q87263899","opening_hours":"Mo-Sa 08:00-21:00; Su 11:00-17:00","operator":"Iceland","phone":"+44 20 3632 9018","website":"https:\/\/www.thefoodwarehouse.com\/store-locator\/old-kent-road","wheelchair":"yes"}}, "geometry":{"type":"MultiPolygon","coordinates":[[[[-0.05777,51.4801],[-0.05745,51.48042],[-0.05707,51.48028],[-0.05739,51.47996],[-0.05777,51.4801]]]]}},
{ "type":"Feature","properties":{"osm_way_id":"31180155","name":"Aldi","building":"shop","shop":"supermarket","other":{"addr:city":"London","addr:housenumber":"840","addr:postcode":"SE15 1NQ","addr:street":"Old Kent Road","brand":"ALDI","brand:wikidata":"Q41171672","brand:wikipedia":"en:Aldi","fhrs:id":"364523","name:fa":"آلدی","opening_hours":"Mo-Sa, PH 08:00-22:00; Su 11:00-17:00","source:addr":"FHRS Open Data"}}, "geometry":{"type":"MultiPolygon","coordinates":[[[[-0.05598,51.47903],[-0.05562,51.4789],[-0.05564,51.47888],[-0.05526,51.47874],[-0.05549,51.47851],[-0.05566,51.47857],[-0.05561,51.47861],[-0.05618,51.47883],[-0.05598,51.47903]]]]}},
{ "type":"Feature","properties":{"osm_way_id":"61886901","name":"Franklins","building":"yes","shop":"supermarket","other":{"fhrs:id":"363036","organic":"only","addr:street":"Lordship Lane","addr:postcode":"SE22 8HX","addr:housenumber":"155"}}, "geometry":{"type":"MultiPolygon","coordinates":[[[[-0.076,51.4561],[-0.07598,51.45614],[-0.07583,51.45611],[-0.07585,51.45607],[-0.076,51.4561]]]]}},
{ "type":"Feature","properties":{"osm_way_id":"71571333","name":"Co-op Food","building":"yes","shop":"supermarket","other":{"brand":"Co-op Food","addr:city":"London","addr:street":"Denmark Hill","addr:postcode":"SE5 8RZ","brand:wikidata":"Q3277439","brand:wikipedia":"en:Co-op Food","addr:housenumber":"28-32"}}, "geometry":{"type":"MultiPolygon","coordinates":[[[[-0.09378,51.47351],[-0.09344,51.47351],[-0.09333,51.4735],[-0.09333,51.47338],[-0.09374,51.47338],[-0.09379,51.47338],[-0.09385,51.47341],[-0.09384,51.47349],[-0.09378,51.47351]]]]}},
{ "type":"Feature","properties":{"osm_way_id":"72031957","name":"Asda","building":"yes","shop":"supermarket","other":{"addr:city":"London","addr:country":"GB","addr:housenumber":"172-174","addr:postcode":"SE15 4NB","addr:street":"Rye Lane","brand":"Asda","brand:wikidata":"Q297410","brand:wikipedia":"en:Asda","contact:facebook":"https:\/\/www.facebook.com\/asda\/","contact:twitter":"@asda","contact:website":"https:\/\/storelocator.asda.com\/london\/peckham\/rye-lane","fhrs:id":"363899","operator":"Asda Stores Ltd","source:addr":"FHRS Open Data"}}, "geometry":{"type":"MultiPolygon","coordinates":[[[[-0.06782,51.4675],[-0.0673,51.46764],[-0.06708,51.46771],[-0.06695,51.46753],[-0.06758,51.46736],[-0.06769,51.46733],[-0.06782,51.4675]]]]}},
{ "type":"Feature","properties":{"osm_way_id":"73416687","name":"Crackerjack","building":"yes","shop":"supermarket","other":{"addr:city":"London","addr:street":"Peckham High Street","addr:country":"GB","addr:postcode":"SE15 5DP","addr:housenumber":"58-60"}}, "geometry":{"type":"MultiPolygon","coordinates":[[[[-0.07036,51.47323],[-0.07033,51.47296],[-0.07039,51.47296],[-0.07046,51.47296],[-0.07049,51.47323],[-0.07042,51.47323],[-0.07036,51.47323]]]]}},
{ "type":"Feature","properties":{"osm_way_id":"73813293","name":"Lidl","building":"retail","shop":"supermarket","other":{"addr:city":"London","addr:housenumber":"760","addr:postcode":"SE15 1NJ","addr:street":"Old Kent Road","brand":"Lidl","brand:wikidata":"Q151954","brand:wikipedia":"en:Lidl","fhrs:id":"1274660","name:fa":"لیدل","opening_hours":"Mo-Sa 08:00-22:00; Su 11:00-17:00; PH 08:00-22:00","source:addr":"FHRS Open Data"}}, "geometry":{"type":"MultiPolygon","coordinates":[[[[-0.05782,51.47988],[-0.058,51.47969],[-0.0581,51.47973],[-0.05832,51.47951],[-0.05887,51.47971],[-0.05877,51.47981],[-0.05883,51.47983],[-0.05861,51.48006],[-0.05855,51.48004],[-0.05847,51.48012],[-0.05782,51.47988]]]]}},
{ "type":"Feature","properties":{"osm_way_id":"78342504","name":"Khan's Bargain","building":"yes","shop":"supermarket","other":{"addr:city":"London","addr:country":"GB","addr:housenumber":"135","addr:postcode":"SE15 4ST","addr:street":"Rye Lane","fhrs:id":"362724","source:addr":"FHRS Open Data"}}, "geometry":{"type":"MultiPolygon","coordinates":[[[[-0.06808,51.46955],[-0.06822,51.46975],[-0.0678,51.4698],[-0.06759,51.46982],[-0.06756,51.46977],[-0.0675,51.46964],[-0.06808,51.46955]]]]}},
{ "type":"Feature","properties":{"osm_way_id":"79182809","name":"Tesco Express","building":"shop","shop":"supermarket","other":{"addr:housename":"Unit 1","addr:housenumber":"265","addr:postcode":"SE15 4UR","addr:street":"Rye Lane","brand":"Tesco Express","brand:wikidata":"Q98456772","brand:wikipedia":"en:Tesco","fhrs:id":"363249","name:fa":"تسکو اکسپرس"}}, "geometry":{"type":"MultiPolygon","coordinates":[[[[-0.06581,51.46649],[-0.06583,51.46634],[-0.0657,51.46634],[-0.06568,51.46648],[-0.06581,51.46649]]]]}},
{ "type":"Feature","properties":{"osm_way_id":"95223674","name":"Co-op Food","building":"yes","shop":"supermarket","other":{"addr:housenumber":"56-62","addr:postcode":"SE22 8HJ","addr:street":"Lordship Lane","brand":"Co-op Food","brand:wikidata":"Q3277439","brand:wikipedia":"en:Co-op Food","diet:vegan":"yes","fhrs:id":"363619","opening_hours":"Mo-Sa 07:00-23:00; Su 11:00-17:00","operator":"The Co-operative Group","operator:wikidata":"Q117202","operator:wikipedia":"en:The Co-operative Group"}}, "geometry":{"type":"MultiPolygon","coordinates":[[[[-0.0751,51.45884],[-0.07513,51.4586],[-0.07537,51.45861],[-0.07536,51.45864],[-0.07564,51.45865],[-0.07562,51.4588],[-0.0751,51.45884]]]]}},
{ "type":"Feature","properties":{"osm_way_id":"95223717","name":"M&S Foodhall","building":"yes","shop":"supermarket","other":{"addr:housenumber":"84-90","addr:postcode":"SE22 8HF","addr:street":"Lordship Lane","brand":"M&S Foodhall","brand:wikidata":"Q714491","fhrs:id":"1028965","not:addr:postcode":"SE22 8EW","operator":"Marks & Spencer"}}, "geometry":{"type":"MultiPolygon","coordinates":[[[[-0.07537,51.45793],[-0.07546,51.45771],[-0.07575,51.45775],[-0.07566,51.45798],[-0.07537,51.45793]]]]}},
{ "type":"Feature","properties":{"osm_way_id":"107953202","name":"Sainsbury's Local","building":"yes","shop":"supermarket","other":{"addr:housenumber":"357-361","addr:postcode":"SE22 8JJ","addr:street":"Lordship Lane","brand:wikidata":"Q13218434","contact:phone":"+44 20 8327 8400","fhrs:id":"362859","opening_hours":"Mo-Su 07:00-23:00"}}, "geometry":{"type":"MultiPolygon","coordinates":[[[[-0.07488,51.44995],[-0.07499,51.4499],[-0.0752,51.4501],[-0.07509,51.45015],[-0.07488,51.44995]]]]}},
{ "type":"Feature","properties":{"osm_way_id":"169690756","name":"Morrisons","building":"yes","shop":"supermarket","other":{"addr:city":"London","addr:country":"GB","addr:postcode":"SE5 8RW","addr:street":"Butterfly Walk","alt_name":"Morrisons Camberwell","atm":"yes","brand":"Morrisons","brand:wikidata":"Q922344","brand:wikipedia":"en:Morrisons","fhrs:id":"363257","opening_hours":"Mo-Sa 07:00-22:00;Su 10:00-16:00","phone":"+44 20 7703 3038","ref":"483","source:addr":"FHRS Open Data","website":"https:\/\/my.morrisons.com\/storefinder\/483"}}, "geometry":{"type":"MultiPolygon","coordinates":[[[[-0.09239,51.473],[-0.09237,51.47296],[-0.09212,51.47261],[-0.09195,51.47266],[-0.09156,51.47277],[-0.09183,51.47316],[-0.09184,51.47315],[-0.09201,51.47311],[-0.09233,51.47302],[-0.09237,51.47301],[-0.09239,51.473]]]]}},
{ "type":"Feature","properties":{"osm_way_id":"219880855","name":"Tesco Surrey Quays Extra","building":"retail","shop":"supermarket","other":{"brand":"Tesco Extra","wheelchair":"yes","addr:street":"Redroff Road","addr:postcode":"SE16 7LL","opening_hours":"Mo-Fr 06:00-01:00, Sa 06:00-24:00, Su 10:30-17:00","addr:housename":"Surrey Quays Centre","brand:wikidata":"Q25172225","brand:wikipedia":"en:Tesco Extra","building:levels":"1"}}, "geometry":{"type":"MultiPolygon","coordinates":[[[[-0.04551,51.495],[-0.04546,51.4949],[-0.0453,51.49493],[-0.04518,51.4947],[-0.04519,51.4947],[-0.04517,51.49467],[-0.04483,51.49457],[-0.04495,51.4944],[-0.045,51.49442],[-0.04507,51.49441],[-0.04516,51.49429],[-0.04519,51.49426],[-0.04524,51.49424],[-0.0453,51.49422],[-0.04572,51.49413],[-0.04611,51.49405],[-0.04617,51.49417],[-0.04668,51.49406],[-0.04698,51.49462],[-0.04701,51.49467],[-0.04605,51.49489],[-0.04551,51.495]]]]}},
{ "type":"Feature","properties":{"osm_way_id":"222694491","name":"Asda","building":"yes","shop":"supermarket","other":{"addr:city":"London","addr:country":"GB","addr:housenumber":"464-504","addr:postcode":"SE1 5EG","addr:street":"Old Kent Road","alt_name":"ASDA Old Kent Road Superstore","brand":"Asda","brand:wikidata":"Q297410","brand:wikipedia":"en:Asda","contact:facebook":"https:\/\/www.facebook.com\/asda\/","contact:phone":"+44 20 7500 7900","contact:twitter":"@asda","contact:website":"https:\/\/storelocator.asda.com\/london\/london\/464-504-old-kent-road","fhrs:id":"364944","opening_hours":"Tu-Fr 07:00-23:00, Mo 08:00-23:00, Su 11:00-17:00, Sa 07:00-22:00","operator":"Asda Stores Ltd","wheelchair":"yes"}}, "geometry":{"type":"MultiPolygon","coordinates":[[[[-0.07044,51.4843],[-0.07026,51.4843],[-0.07026,51.48418],[-0.06967,51.48417],[-0.06968,51.48403],[-0.06945,51.48403],[-0.06945,51.48417],[-0.0693,51.48417],[-0.06929,51.48433],[-0.06944,51.48433],[-0.06941,51.48508],[-0.07,51.48531],[-0.07001,51.48509],[-0.07056,51.48509],[-0.07053,51.4847],[-0.07042,51.48469],[-0.07044,51.4843]]]]}},
{ "type":"Feature","properties":{"osm_way_id":"224554617","name":"Morrisons","building":"yes","shop":"supermarket","other":{"addr:city":"London","addr:housenumber":"264-276","addr:postcode":"SE17 2TE","addr:street":"Walworth Road","brand":"Morrisons","brand:wikidata":"Q922344","brand:wikipedia":"en:Morrisons","fhrs:id":"363258","opening_hours":"Mo-Sa 07:00-22:00; Su 10:00-16:00","source:addr":"FHRS Open Data","verified":"no","website":"https:\/\/www.morrisons.co.uk\/"}}, "geometry":{"type":"MultiPolygon","coordinates":[[[[-0.0955,51.48738],[-0.09595,51.48731],[-0.09626,51.48725],[-0.09634,51.48744],[-0.09623,51.48746],[-0.0963,51.48764],[-0.09599,51.48769],[-0.09602,51.48775],[-0.09588,51.48777],[-0.09589,51.4878],[-0.09565,51.48784],[-0.09561,51.48774],[-0.09565,51.48773],[-0.0955,51.48738]]]]}},
{ "type":"Feature","properties":{"osm_way_id":"224554854","name":"Co-op Food","building":"yes","shop":"supermarket","other":{"addr:city":"London","addr:housenumber":"177-183","addr:postcode":"SE5 0TJ","addr:street":"Camberwell New Road","brand":"Co-op Food","brand:wikidata":"Q3277439","brand:wikipedia":"en:Co-op Food","massgis:ID":"5090","opening_hours":"Mo-Su 07:00-23:00","verified":"no"}}, "geometry":{"type":"MultiPolygon","coordinates":[[[[-0.10271,51.4782],[-0.10281,51.47812],[-0.10307,51.47822],[-0.1029,51.47834],[-0.10272,51.4784],[-0.10248,51.47828],[-0.10271,51.4782]]]]}},
{ "type":"Feature","properties":{"osm_way_id":"424816325","name":"Plus-One Oriental Centre","building":"yes","shop":"supermarket","other":{"origin":"asian"}}, "geometry":{"type":"MultiPolygon","coordinates":[[[[-0.04568,51.49201],[-0.04549,51.49215],[-0.04554,51.49218],[-0.04574,51.49204],[-0.04568,51.49201]]]]}},
{ "type":"Feature","properties":{"osm_way_id":"433225934","name":"Starbucks","amenity":"cafe","building":"yes","other":{"brand":"Starbucks","brand:wikidata":"Q37158","brand:wikipedia":"en:Starbucks","cuisine":"coffee_shop","official_name":"Starbucks Coffee","takeaway":"yes"}}, "geometry":{"type":"MultiPolygon","coordinates":[[[[-0.08484,51.46231],[-0.08469,51.46238],[-0.08462,51.46232],[-0.0844,51.46213],[-0.08455,51.46206],[-0.08484,51.46231]]]]}},
{ "type":"Feature","properties":{"osm_way_id":"434991782","amenity":"toilets","building":"yes","other":{"access":"permissive","changing_table":"yes","fee":"no"}}, "geometry":{"type":"MultiPolygon","coordinates":[[[[-0.08484,51.46231],[-0.08499,51.46243],[-0.08483,51.4625],[-0.08469,51.46238],[-0.08484,51.46231]]]]}},
{ "type":"Feature","properties":{"osm_way_id":"621494462","name":"Lidl","building":"shop","shop":"supermarket","other":{"addr:city":"London","addr:country":"GB","brand":"Lidl","brand:wikidata":"Q151954","brand:wikipedia":"en:Lidl","name:fa":"لیدل"}}, "geometry":{"type":"MultiPolygon","coordinates":[[[[-0.09326,51.47264],[-0.09329,51.4728],[-0.09352,51.47284],[-0.09358,51.47286],[-0.09359,51.47298],[-0.09359,51.47303],[-0.09359,51.47307],[-0.09374,51.47307],[-0.09374,51.47301],[-0.09378,51.47301],[-0.09378,51.47297],[-0.09384,51.47298],[-0.09387,51.47294],[-0.09379,51.47291],[-0.09378,51.47277],[-0.09377,51.47261],[-0.09371,51.47261],[-0.09356,51.47262],[-0.09339,51.47263],[-0.09326,51.47264]]]]}}
]
}
