{
"type": "FeatureCollection",
"features": [
{ "type":"Feature","properties":{"osm_id":"716665760","name":"Co-Op","other":{"addr:housenumber":"21","addr:postcode":"KA3 5BS","addr:street":"Main Street","fhrs:id":"538923","shop":"supermarket","source:addr":"FHRS Open Data"}}, "geometry":{"type":"Point","coordinates":[-4.5147,55.68047 ]}},
{ "type":"Feature","properties":{"osm_way_id":"98876151","name":"Co-op","building":"yes","shop":"supermarket","other":{"operator":"The Co-operative Group"}}, "geometry":{"type":"MultiPolygon","coordinates":[[[[-4.37834,55.60315],[-4.37841,55.60278],[-4.37781,55.60274],[-4.37774,55.6031],[-4.37762,55.60309],[-4.37761,55.60316],[-4.37766,55.60316],[-4.37825,55.6032],[-4.37826,55.60315],[-4.37834,55.60315]]]]}},
{ "type":"Feature","properties":{"osm_way_id":"123725747","name":"Tesco","building":"yes","shop":"supermarket","other":{"addr:city":"Kilmarnock","addr:housename":"Tesco Glasgow Rd.","addr:housenumber":"112","addr:postcode":"KA3 1UT","addr:street":"Glasgow Road","brand":"Tesco","brand:wikidata":"Q487494","brand:wikipedia":"en:Tesco","contact:website":"https:\/\/www.tesco.com\/store-locator\/kilmarnock\/112-glasgow-rd","fhrs:id":"538938","opening_hours":"Mo-Sa 08:00-22:00; Su 09:00-18:00","operator":"Tesco","phone":"+44 345 6779398"}}, "geometry":{"type":"MultiPolygon","coordinates":[[[[-4.4838,55.6312],[-4.48415,55.63062],[-4.48357,55.63052],[-4.48355,55.63049],[-4.48357,55.63046],[-4.48342,55.63043],[-4.4834,55.63047],[-4.48336,55.63046],[-4.48331,55.63056],[-4.48333,55.63058],[-4.48328,55.63067],[-4.48331,55.63068],[-4.4831,55.63107],[-4.48313,55.63108],[-4.4838,55.6312]]]]}},
{ "type":"Feature","properties":{"osm_way_id":"192606221","name":"Tesco","building":"yes","shop":"supermarket","other":{"addr:postcode":"KA18 2AA","addr:street":"Main Street","brand":"Tesco","brand:wikidata":"Q487494","brand:wikipedia":"en:Tesco","fhrs:id":"539132"}}, "geometry":{"type":"MultiPolygon","coordinates":[[[[-4.28985,55.46681],[-4.28942,55.46635],[-4.28931,55.46638],[-4.28875,55.46655],[-4.28889,55.46669],[-4.2888,55.46671],[-4.28887,55.46679],[-4.28869,55.46684],[-4.28891,55.46709],[-4.28985,55.46681]]]]}},
{ "type":"Feature","properties":{"osm_way_id":"192606737","name":"Asda","building":"yes","shop":"supermarket","other":{"brand":"Asda","fhrs:id":"539338","operator":"Asda Stores Ltd","addr:city":"Cumnock","addr:street":"Townhead Street","addr:country":"GB","addr:postcode":"KA18 1LG","brand:wikidata":"Q297410","brand:wikipedia":"en:Asda","contact:twitter":"@asda","contact:website":"https:\/\/storelocator.asda.com\/scotland\/cumnock\/townhead-street","source:postcode":"FHRS data","contact:facebook":"https:\/\/www.facebook.com\/asda\/"}}, "geometry":{"type":"MultiPolygon","coordinates":[[[[-4.26017,55.45388],[-4.26027,55.45349],[-4.25993,55.45346],[-4.25991,55.45356],[-4.25968,55.45354],[-4.25964,55.45369],[-4.25951,55.45368],[-4.25947,55.45383],[-4.26017,55.45388]]]]}},
{ "type":"Feature","properties":{"osm_way_id":"192606890","name":"Co-op Food","building":"yes","shop":"supermarket","other":{"brand":"Co-op Food","addr:street":"Church Street","addr:postcode":"KA18 2DY","brand:wikidata":"Q3277439","brand:wikipedia":"en:Co-op Food","addr:housenumber":"27"}}, "geometry":{"type":"MultiPolygon","coordinates":[[[[-4.29016,55.47282],[-4.28998,55.47269],[-4.29017,55.47261],[-4.29035,55.47273],[-4.29016,55.47282]]]]}},
{ "type":"Feature","properties":{"osm_way_id":"192607166","name":"Co-op","building":"yes","shop":"supermarket","other":{"addr:street":"Loudoun Street","addr:postcode":"KA5 5BE","addr:housenumber":"43-51"}}, "geometry":{"type":"MultiPolygon","coordinates":[[[[-4.38117,55.51513],[-4.38112,55.51509],[-4.38108,55.51505],[-4.38091,55.5151],[-4.38094,55.5152],[-4.38117,55.51513]]]]}},
{ "type":"Feature","properties":{"osm_way_id":"319114245","name":"Morrisons","building":"yes","landuse":"commercial","shop":"supermarket","other":{"addr:city":"Kilmarnock","addr:housename":"Morrison's Kilmarnock","addr:postcode":"KA1 2PY","addr:street":"West Langlands Street","brand":"Morrisons","brand:wikidata":"Q922344","brand:wikipedia":"en:Morrisons","fhrs:id":"539307","phone":"+44 1563 538764","website":"https:\/\/your.morrisons.com\/Store-Finder\/Store-Details\/?recordid=117","wheelchair":"yes"}}, "geometry":{"type":"MultiPolygon","coordinates":[[[[-4.50584,55.61277],[-4.50577,55.61263],[-4.50556,55.61267],[-4.50552,55.6126],[-4.50476,55.61275],[-4.50475,55.61273],[-4.5046,55.61276],[-4.50459,55.61274],[-4.50439,55.61278],[-4.50452,55.61299],[-4.50456,55.61298],[-4.50462,55.61308],[-4.5046,55.61308],[-4.50466,55.61319],[-4.50474,55.61317],[-4.50492,55.61345],[-4.50612,55.61321],[-4.50609,55.61317],[-4.50659,55.61307],[-4.50643,55.61282],[-4.50619,55.61287],[-4.5061,55.61271],[-4.50584,55.61277]]]]}},
{ "type":"Feature","properties":{"osm_way_id":"319613556","name":"Asda","building":"yes","shop":"supermarket","other":{"brand":"Asda","fhrs:id":"539171","operator":"Asda Stores Ltd","addr:city":"Kilmarnock","wheelchair":"yes","addr:street":"Queen's Drive","addr:country":"GB","addr:postcode":"KA1 3XF","contact:phone":"+44 1563 556200","opening_hours":"24\/7","brand:wikidata":"Q297410","brand:wikipedia":"en:Asda","contact:twitter":"@asda","contact:website":"https:\/\/storelocator.asda.com\/scotland\/kilmarnock\/10-queens-drive","addr:housenumber":"10","contact:facebook":"https:\/\/www.facebook.com\/asda\/"}}, "geometry":{"type":"MultiPolygon","coordinates":[[[[-4.49056,55.59864],[-4.49073,55.59855],[-4.49099,55.59872],[-4.49082,55.5988],[-4.49082,55.59881],[-4.49076,55.59884],[-4.4909,55.59893],[-4.49071,55.59902],[-4.49074,55.59903],[-4.49008,55.59936],[-4.48974,55.59914],[-4.48961,55.59921],[-4.48935,55.59904],[-4.48928,55.599],[-4.48925,55.59897],[-4.48918,55.59893],[-4.48903,55.59883],[-4.48917,55.59877],[-4.48915,55.59876],[-4.48981,55.59843],[-4.48982,55.59843],[-4.48999,55.59835],[-4.49039,55.5986],[-4.49045,55.59857],[-4.49056,55.59864]]]]}},
{ "type":"Feature","properties":{"osm_way_id":"322473108","name":"Tesco Extra","building":"yes","shop":"supermarket","other":{"addr:city":"Kilmarnock","addr:housenumber":"3","addr:postcode":"KA1 4BS","addr:street":"West Shaw Street","brand":"Tesco Extra","brand:wikidata":"Q25172225","brand:wikipedia":"en:Tesco Extra","contact:website":"https:\/\/www.tesco.com\/store-locator\/kilmarnock\/west-shaw-street","fhrs:id":"539320","wheelchair":"yes"}}, "geometry":{"type":"MultiPolygon","coordinates":[[[[-4.50036,55.60204],[-4.50038,55.6023],[-4.50041,55.6023],[-4.50042,55.60242],[-4.50039,55.60242],[-4.50039,55.60247],[-4.49936,55.60249],[-4.49937,55.60255],[-4.49916,55.60255],[-4.4991,55.60167],[-4.49921,55.60167],[-4.4992,55.60161],[-4.4998,55.6016],[-4.49978,55.60128],[-4.4999,55.60128],[-4.49998,55.60132],[-4.49998,55.60138],[-4.50011,55.60137],[-4.50012,55.60155],[-4.50033,55.60155],[-4.50033,55.60165],[-4.50033,55.60165],[-4.50035,55.60192],[-4.50039,55.60192],[-4.50039,55.60204],[-4.50036,55.60204]]]]}},
{ "type":"Feature","properties":{"osm_way_id":"623181039","name":"Tesco","building":"yes","shop":"supermarket","other":{"addr:postcode":"KA4 8HH","addr:street":"Polwarth Street","brand":"Tesco","brand:wikidata":"Q487494","brand:wikipedia":"en:Tesco","fhrs:id":"619685","operator":"Tesco","source:addr":"FHRS Open Data"}}, "geometry":{"type":"MultiPolygon","coordinates":[[[[-4.37915,55.60241],[-4.37821,55.60244],[-4.37818,55.60199],[-4.37799,55.60191],[-4.37803,55.60185],[-4.37907,55.60182],[-4.37908,55.60197],[-4.37912,55.60197],[-4.37915,55.60241]]]]}},
{ "type":"Feature","properties":{"osm_way_id":"623199109","name":"Sainsbury's","building":"retail","shop":"supermarket","other":{"addr:housenumber":"1","addr:postcode":"KA3 5LE","addr:street":"Rigg Street","brand":"Sainsbury's","brand:wikidata":"Q152096","brand:wikipedia":"en:Sainsbury's","building:levels":"1","fhrs:id":"538930","opening_hours":"Mo-Sa 08:00-21:00; Su 09:00-19:00","operator":"Sainsburys","source:addr":"FHRS Open Data"}}, "geometry":{"type":"MultiPolygon","coordinates":[[[[-4.51747,55.68051],[-4.51708,55.68064],[-4.51678,55.68034],[-4.51667,55.68037],[-4.51663,55.68033],[-4.51653,55.68036],[-4.51647,55.6803],[-4.51682,55.68018],[-4.51706,55.68011],[-4.51747,55.68051]]]]}},
{ "type":"Feature","properties":{"osm_way_id":"681457840","name":"Lidl","building":"yes","shop":"supermarket","other":{"addr:housenumber":"38","addr:postcode":"KA1 4AG","addr:street":"High Glencairn Street","brand":"Lidl","brand:wikidata":"Q151954","brand:wikipedia":"en:Lidl","fhrs:id":"539251","source:addr":"FHRS Open Data","wheelchair":"yes"}}, "geometry":{"type":"MultiPolygon","coordinates":[[[[-4.49639,55.6019],[-4.49637,55.60152],[-4.49645,55.60152],[-4.49644,55.60135],[-4.49594,55.60136],[-4.49597,55.6019],[-4.49639,55.6019]]]]}},
{ "type":"Feature","properties":{"osm_way_id":"700220105","name":"Co-op Food","building":"yes","shop":"supermarket","other":{"addr:housenumber":"2","addr:postcode":"KA6 7QP","addr:street":"Church Hill","brand":"Co-op Food","brand:wikidata":"Q3277439","brand:wikipedia":"en:Co-op Food","fhrs:id":"642397","operator":"The Co-operative Group","operator:wikidata":"Q117202","operator:wikipedia":"en:The Co-operative Group","source:addr":"FHRS Open Data"}}, "geometry":{"type":"MultiPolygon","coordinates":[[[[-4.39684,55.32415],[-4.39669,55.32417],[-4.39671,55.32421],[-4.39664,55.32422],[-4.39666,55.32426],[-4.39677,55.32424],[-4.39679,55.32428],[-4.39673,55.32428],[-4.39678,55.32438],[-4.39694,55.32435],[-4.39684,55.32415]]]]}},
{ "type":"Feature","properties":{"osm_way_id":"726576416","name":"Aldi","building":"retail","shop":"supermarket","other":{"brand":"ALDI","brand:wikidata":"Q41171672","brand:wikipedia":"en:Aldi","building:levels":"1","opening_hours":"Mo-Sa 08:00-22:00; Su 09:00-20:00"}}, "geometry":{"type":"MultiPolygon","coordinates":[[[[-4.49824,55.60381],[-4.49824,55.6037],[-4.49817,55.6037],[-4.49816,55.60352],[-4.49726,55.60353],[-4.49727,55.60382],[-4.49824,55.60381]]]]}},
{ "type":"Feature","properties":{"osm_way_id":"727683411","name":"Co-op","building":"yes","shop":"supermarket","other":{"addr:street":"Loudoun Street","addr:postcode":"KA5 5BE","addr:housenumber":"43-51"}}, "geometry":{"type":"MultiPolygon","coordinates":[[[[-4.38117,55.51513],[-4.38133,55.51507],[-4.38128,55.51503],[-4.38112,55.51509],[-4.38117,55.51513]]]]}}
]
}
