{
"type": "FeatureCollection",
"features": [
{ "type":"Feature","properties":{"osm_id":"29683629","name":"Sainsbury's","other":{"addr:postcode":"AB25 3SA","addr:street":"Berryden Road","brand":"Sainsbury's","brand:wikidata":"Q152096","brand:wikipedia":"en:Sainsbury's","fhrs:authority":"Aberdeen City","fhrs:id":"1347323","fhrs:local_authority_id":"1684","shop":"supermarket","source:addr":"fhrs"}}, "geometry":{"type":"Point","coordinates":[-2.11466,57.15875 ]}},
{ "type":"Feature","properties":{"osm_id":"290625008","name":"Co-op Food","other":{"addr:city":"Aberdeen","addr:housenumber":"15-17","addr:postcode":"AB15 4DX","addr:street":"Fountainhall Road","brand":"Co-op Food","brand:wikidata":"Q3277439","brand:wikipedia":"en:Co-op Food","fhrs:authority":"Aberdeen City","fhrs:id":"123339","fhrs:local_authority_id":"518","shop":"supermarket","source:addr":"fhrs"}}, "geometry":{"type":"Point","coordinates":[-2.12794,57.14413 ]}},
{ "type":"Feature","properties":{"osm_id":"864934598","name":"Co-op Food","other":{"addr:city":"Aberdeen","addr:housenumber":"293","addr:postcode":"AB25 2YB","addr:street":"Rosemount Place","brand":"Co-op Food","brand:wikidata":"Q3277439","brand:wikipedia":"en:Co-op Food","fhrs:authority":"Aberdeen City","fhrs:id":"1348198","fhrs:local_authority_id":"524","shop":"supermarket","source:addr":"fhrs","wheelchair":"yes"}}, "geometry":{"type":"Point","coordinates":[-2.12313,57.14927 ]}},
{ "type":"Feature","properties":{"osm_id":"1314114296","name":"Co-op Food","other":{"addr:city":"Aberdeen","addr:country":"GB","addr:housenumber":"204","addr:postcode":"AB10 1QS","addr:street":"Union Street","brand":"Co-op Food","brand:wikidata":"Q3277439","brand:wikipedia":"en:Co-op Food","contact:facebook":"https:\/\/www.facebook.com\/coopuk\/","contact:instagram":"https:\/\/www.instagram.com\/coopuk\/","contact:linkedin":"https:\/\/www.linkedin.com\/company\/the-co-op-group\/","contact:twitter":"https:\/\/twitter.com\/coopuk","contact:youtube":"https:\/\/www.youtube.com\/c\/TheCoopUk","fhrs:authority":"Aberdeen City","fhrs:id":"1348197","fhrs:local_authority_id":"523","old_fhrs:id":"42681","opening_hours":"Mo-Su 07:00-22:00","operator":"The Co-operative Group","operator:wikidata":"Q117202","operator:wikipedia":"en:The Co-operative Group","phone":"+44 1224 645583","shop":"supermarket","source:addr":"fhrs","website":"https:\/\/www.coop.co.uk\/"}}, "geometry":{"type":"Point","coordinates":[-2.10533,57.1449 ]}},
{ "type":"Feature","properties":{"osm_id":"2295453291","name":"Spar","other":{"addr:city":"Aberdeen","addr:housenumber":"80-84","addr:postcode":"AB11 9DT","brand":"Spar","brand:wikidata":"Q610492","brand:wikipedia":"en:Spar (retailer)","fhrs:authority":"Aberdeen City","fhrs:id":"1347475","fhrs:local_authority_id":"1834","shop":"supermarket"}}, "geometry":{"type":"Point","coordinates":[-2.07988,57.13681 ]}},
{ "type":"Feature","properties":{"osm_id":"3822987286","name":"Spar","other":{"addr:city":"Aberdeen","addr:housenumber":"43","addr:postcode":"AB10 6XL","addr:street":"St Swithin Street","brand":"Spar","brand:wikidata":"Q610492","brand:wikipedia":"en:Spar (retailer)","fhrs:authority":"Aberdeen City","fhrs:id":"1347465","fhrs:local_authority_id":"1822","shop":"supermarket"}}, "geometry":{"type":"Point","coordinates":[-2.12519,57.14019 ]}},
{ "type":"Feature","properties":{"osm_id":"5821635219","name":"Spar","other":{"addr:city":"Aberdeen","addr:country":"GB","addr:housenumber":"5-9","addr:postcode":"AB16 5PY","addr:street":"Greenfern Road","brand":"Spar","brand:wikidata":"Q610492","brand:wikipedia":"en:Spar (retailer)","fhrs:authority":"Aberdeen City","fhrs:id":"1347463","fhrs:local_authority_id":"1820","opening_hours":"Mo-Fr 07:00-22:00; Sa-Su 08:00-22:00","phone":"+44 1224 691589","shop":"supermarket","website":"https:\/\/www.spar.co.uk\/store-locator\/lan10810-spar-mastrick","wheelchair":"yes"}}, "geometry":{"type":"Point","coordinates":[-2.16149,57.15618 ]}},
{ "type":"Feature","properties":{"osm_id":"8901407012","name":"Taylor's Self Service","other":{"addr:city":"Aberdeen","addr:housenumber":"53","addr:postcode":"AB11 9LT","addr:street":"Victoria Road","fhrs:authority":"Aberdeen City","fhrs:id":"1347592","fhrs:local_authority_id":"1955","shop":"supermarket"}}, "geometry":{"type":"Point","coordinates":[-2.08824,57.13818 ]}},
{ "type":"Feature","properties":{"osm_id":"8948109269","other":{"generator:method":"photovoltaic","generator:output:electricity":"yes","generator:source":"solar","generator:type":"solar_photovoltaic_panel","location":"roof","power":"generator"}}, "geometry":{"type":"Point","coordinates":[-2.18937,57.21034 ]}},
{ "type":"Feature","properties":{"osm_id":"8948109270","other":{"generator:method":"photovoltaic","generator:output:electricity":"yes","generator:source":"solar","generator:type":"solar_photovoltaic_panel","location":"roof","power":"generator"}}, "geometry":{"type":"Point","coordinates":[-2.17453,57.20222 ]}},
{ "type":"Feature","properties":{"osm_id":"8948109272","other":{"generator:method":"photovoltaic","generator:output:electricity":"yes","generator:source":"solar","generator:type":"solar_photovoltaic_panel","location":"roof","power":"generator"}}, "geometry":{"type":"Point","coordinates":[-2.17931,57.2024 ]}},
{ "type":"Feature","properties":{"osm_id":"8948109273","other":{"generator:method":"photovoltaic","generator:output:electricity":"yes","generator:source":"solar","generator:type":"solar_photovoltaic_panel","location":"roof","power":"generator"}}, "geometry":{"type":"Point","coordinates":[-2.17952,57.2024 ]}},
{ "type":"Feature","properties":{"osm_id":"8948109275","other":{"generator:method":"photovoltaic","generator:output:electricity":"yes","generator:source":"solar","generator:type":"solar_photovoltaic_panel","location":"roof","power":"generator"}}, "geometry":{"type":"Point","coordinates":[-2.17893,57.20149 ]}},
{ "type":"Feature","properties":{"osm_id":"8948109277","other":{"generator:method":"photovoltaic","generator:output:electricity":"yes","generator:source":"solar","generator:type":"solar_photovoltaic_panel","location":"roof","power":"generator"}}, "geometry":{"type":"Point","coordinates":[-2.18511,57.20026 ]}},
{ "type":"Feature","properties":{"osm_id":"8948109278","other":{"generator:method":"photovoltaic","generator:output:electricity":"yes","generator:source":"solar","generator:type":"solar_photovoltaic_panel","location":"roof","power":"generator"}}, "geometry":{"type":"Point","coordinates":[-2.18828,57.20224 ]}},
{ "type":"Feature","properties":{"osm_id":"8948109280","other":{"generator:method":"photovoltaic","generator:output:electricity":"yes","generator:source":"solar","generator:type":"solar_photovoltaic_panel","location":"roof","power":"generator"}}, "geometry":{"type":"Point","coordinates":[-2.18978,57.20229 ]}},
{ "type":"Feature","properties":{"osm_id":"8948109282","other":{"generator:method":"photovoltaic","generator:output:electricity":"yes","generator:source":"solar","generator:type":"solar_photovoltaic_panel","location":"roof","power":"generator"}}, "geometry":{"type":"Point","coordinates":[-2.19108,57.20413 ]}},
{ "type":"Feature","properties":{"osm_id":"8948109284","other":{"generator:method":"photovoltaic","generator:output:electricity":"yes","generator:source":"solar","generator:type":"solar_photovoltaic_panel","location":"roof","power":"generator"}}, "geometry":{"type":"Point","coordinates":[-2.18807,57.21122 ]}},
{ "type":"Feature","properties":{"osm_id":"8948109286","other":{"generator:method":"photovoltaic","generator:output:electricity":"yes","generator:source":"solar","generator:type":"solar_photovoltaic_panel","location":"roof","power":"generator"}}, "geometry":{"type":"Point","coordinates":[-2.18312,57.21112 ]}},
{ "type":"Feature","properties":{"osm_id":"9094175553","name":"Co-op Food","other":{"addr:city":"Aberdeen","addr:country":"GB","addr:postcode":"AB16 6TU","addr:street":"Lewis Road","addr:unit":"2","brand":"Co-op Food","brand:wikidata":"Q3277439","brand:wikipedia":"en:Co-op Food","opening_hours":"Mo-Su 06:00-22:00","operator":"The Co-operative Group","operator:wikidata":"Q117202","operator:wikipedia":"en:The Co-operative Group","phone":"+44 1224 693310","shop":"supermarket"}}, "geometry":{"type":"Point","coordinates":[-2.17867,57.15467 ]}},
{ "type":"Feature","properties":{"osm_way_id":"9704058","name":"Asda","building":"supermarket","shop":"supermarket","other":{"brand":"Asda","operator":"Asda Stores Ltd","addr:city":"Aberdeen","addr:unit":"1","wheelchair":"yes","addr:country":"GB","addr:postcode":"AB11 5EJ","contact:phone":"+44 1224 282 010","opening_hours":"Mo-Su 08:00-22:00","addr:housename":"Beach Boulevard Retail Park","brand:wikidata":"Q297410","brand:wikipedia":"en:Asda","contact:twitter":"@asda","contact:website":"https:\/\/storelocator.asda.com\/store\/aberdeen-beach","contact:facebook":"https:\/\/www.facebook.com\/asda\/"}}, "geometry":{"type":"Polygon","coordinates":[[[ -2.08183,57.15106],[-2.08128,57.15048],[-2.08249,57.15013],[-2.08303,57.15072],[-2.08183,57.15106]] ]}},
{ "type":"Feature","properties":{"osm_way_id":"9718744","name":"Morrisons","building":"supermarket","shop":"supermarket","other":{"addr:city":"Aberdeen","addr:country":"GB","addr:housenumber":"215","addr:postcode":"AB24 5DA","addr:street":"King Street","brand":"Morrisons","brand:wikidata":"Q922344","brand:wikipedia":"en:Morrisons","contact:facebook":"http:\/\/www.facebook.com\/morrisons","contact:twitter":"@Morrisons","contact:website":"https:\/\/my.morrisons.com\/storefinder\/160","fhrs:authority":"Aberdeen City","fhrs:id":"1346983","fhrs:local_authority_id":"1342","opening_hours":"Mo-Sa 07:00-23:00; Su 08:00-20:00","ref":"160","source:addr":"fhrs","wheelchair":"yes"}}, "geometry":{"type":"Polygon","coordinates":[[[ -2.09611,57.15278],[-2.09595,57.15281],[-2.09588,57.15286],[-2.09539,57.15296],[-2.09526,57.15281],[-2.09502,57.15286],[-2.09467,57.1529],[-2.09453,57.15235],[-2.09545,57.15217],[-2.09542,57.15214],[-2.09575,57.15208],[-2.09585,57.15222],[-2.09577,57.15223],[-2.09597,57.15252],[-2.09593,57.15253],[-2.09611,57.15278]] ]}},
{ "type":"Feature","properties":{"osm_way_id":"100722724","name":"Co-op Food","building":"retail","shop":"supermarket","other":{"addr:housenumber":"74-78","addr:postcode":"AB15 7YJ","addr:street":"Countesswells Road","brand":"Co-op Food","brand:wikidata":"Q3277439","brand:wikipedia":"en:Co-op Food","fhrs:authority":"Aberdeen City","fhrs:id":"1348196","fhrs:local_authority_id":"522","source:addr":"fhrs"}}, "geometry":{"type":"Polygon","coordinates":[[[ -2.14759,57.13328],[-2.14748,57.13321],[-2.1477,57.13312],[-2.14777,57.13318],[-2.14781,57.13317],[-2.14788,57.13328],[-2.14766,57.13333],[-2.14759,57.13328]] ]}},
{ "type":"Feature","properties":{"osm_way_id":"115654530","name":"Asda","building":"supermarket","shop":"supermarket","other":{"addr:city":"Aberdeen","addr:country":"GB","addr:postcode":"AB10 7QA","addr:street":"Garthdee Road","alt_name":"Asda Bridge of Dee","brand":"Asda","brand:wikidata":"Q297410","brand:wikipedia":"en:Asda","contact:facebook":"https:\/\/www.facebook.com\/asda\/","contact:phone":"+44 1224 319 919","contact:twitter":"@asda","contact:website":"https:\/\/storelocator.asda.com\/scotland\/aberdeen\/garth-dee-road-bridge-of-dee-aberdeen","fhrs:authority":"Aberdeen City","fhrs:id":"1347247","fhrs:local_authority_id":"161","opening_hours":"24\/7","operator":"Asda Stores Ltd","source:addr":"fhrs","wheelchair":"yes"}}, "geometry":{"type":"Polygon","coordinates":[[[ -2.12406,57.1241],[-2.1242,57.12445],[-2.12412,57.12446],[-2.12415,57.12453],[-2.1241,57.12454],[-2.12413,57.12463],[-2.12403,57.12464],[-2.12423,57.12514],[-2.12409,57.12516],[-2.12423,57.12553],[-2.12383,57.12557],[-2.12375,57.12534],[-2.12326,57.1254],[-2.1228,57.1242],[-2.12339,57.12413],[-2.12335,57.12403],[-2.12375,57.12398],[-2.12383,57.12401],[-2.12406,57.1241]] ]}},
{ "type":"Feature","properties":{"osm_way_id":"115654561","name":"Sainsbury's","building":"retail","shop":"supermarket","other":{"addr:city":"Aberdeen","addr:postcode":"AB10 7AY","addr:street":"Garthdee Road","addr:unit":"Sainsburys Complex","brand":"Sainsbury's","brand:wikidata":"Q152096","brand:wikipedia":"en:Sainsbury's","fhrs:authority":"Aberdeen City","fhrs:id":"73492","fhrs:local_authority_id":"1690","source:addr":"fhrs"}}, "geometry":{"type":"Polygon","coordinates":[[[ -2.12445,57.1196],[-2.12453,57.11965],[-2.12463,57.11959],[-2.12479,57.11969],[-2.1249,57.11964],[-2.12574,57.12014],[-2.12449,57.12076],[-2.12444,57.12074],[-2.12458,57.12067],[-2.12445,57.12059],[-2.12449,57.12057],[-2.12394,57.12026],[-2.12385,57.1203],[-2.12357,57.12014],[-2.12418,57.11983],[-2.1241,57.11978],[-2.12445,57.1196]] ]}},
{ "type":"Feature","properties":{"osm_way_id":"132564662","name":"Lidl","building":"retail","shop":"supermarket","other":{"addr:city":"Aberdeen","addr:country":"GB","addr:postcode":"AB21 9LZ","addr:street":"Inverurie Road","brand":"Lidl","brand:wikidata":"Q151954","brand:wikipedia":"en:Lidl","fhrs:id":"696490","survey:date":"2018-04-11","wheelchair":"yes"}}, "geometry":{"type":"Polygon","coordinates":[[[ -2.17575,57.17938],[-2.1758,57.1794],[-2.17624,57.17954],[-2.17566,57.18008],[-2.17537,57.17999],[-2.17532,57.18004],[-2.17512,57.17998],[-2.17575,57.17938]] ]}},
{ "type":"Feature","properties":{"osm_way_id":"161813698","name":"Aldi","building":"yes","shop":"supermarket","other":{"addr:city":"Aberdeen","addr:postcode":"AB16 5UT","addr:street":"Cornhill Drive","addr:unit":"Cornhill Shopping Arcade","brand":"ALDI","brand:wikidata":"Q41171672","brand:wikipedia":"en:Aldi","fhrs:id":"1346691"}}, "geometry":{"type":"Polygon","coordinates":[[[ -2.14189,57.15958],[-2.14186,57.15956],[-2.14126,57.15976],[-2.1412,57.15971],[-2.14122,57.1597],[-2.1411,57.1596],[-2.14103,57.15962],[-2.14089,57.15961],[-2.14092,57.15953],[-2.14102,57.1595],[-2.14175,57.15924],[-2.14196,57.15942],[-2.14201,57.1594],[-2.14209,57.15947],[-2.14208,57.15948],[-2.1421,57.1595],[-2.14189,57.15958]] ]}},
{ "type":"Feature","properties":{"osm_way_id":"180330716","name":"Co-op Food","building":"supermarket","shop":"supermarket","other":{"addr:housenumber":"485","addr:postcode":"AB10 6NN","addr:street":"Great Western Road","brand":"Co-op Food","brand:wikidata":"Q3277439","brand:wikipedia":"en:Co-op Food","fhrs:authority":"Aberdeen City","fhrs:id":"1348199","fhrs:local_authority_id":"525","source:addr":"fhrs"}}, "geometry":{"type":"Polygon","coordinates":[[[ -2.13538,57.13219],[-2.13523,57.13204],[-2.13521,57.13202],[-2.13502,57.13208],[-2.13491,57.13198],[-2.13532,57.13186],[-2.13559,57.13212],[-2.13538,57.13219]] ]}},
{ "type":"Feature","properties":{"osm_way_id":"183320735","name":"Lidl","building":"yes","shop":"supermarket","other":{"addr:city":"Aberdeen","addr:country":"GB","addr:housenumber":"48-50","addr:postcode":"AB25 3TB","addr:street":"Hutcheon Street","addr:unit":"2","brand":"Lidl","brand:wikidata":"Q151954","brand:wikipedia":"en:Lidl","fhrs:id":"1178410"}}, "geometry":{"type":"Polygon","coordinates":[[[ -2.10434,57.15426],[-2.1043,57.15413],[-2.1049,57.15407],[-2.10494,57.15418],[-2.10509,57.15465],[-2.10449,57.1547],[-2.10439,57.15439],[-2.10431,57.15439],[-2.10429,57.15433],[-2.10427,57.15426],[-2.10434,57.15426]] ]}},
{ "type":"Feature","properties":{"osm_way_id":"220852968","name":"Lidl","building":"retail","shop":"supermarket","other":{"addr:city":"Aberdeen","addr:country":"GB","addr:housenumber":"771","addr:postcode":"AB24 1XZ","addr:street":"King Street","alt_name":"Lidl UK","branch":"Bridge of Don","brand":"Lidl","brand:wikidata":"Q151954","brand:wikipedia":"en:Lidl","fhrs:id":"593169","operator":"Lidl","source:geometry":"bing"}}, "geometry":{"type":"Polygon","coordinates":[[[ -2.09324,57.17359],[-2.09352,57.17334],[-2.09346,57.17332],[-2.09361,57.17319],[-2.09401,57.17333],[-2.094,57.17334],[-2.09404,57.17335],[-2.09388,57.1735],[-2.09389,57.1735],[-2.09359,57.17377],[-2.09344,57.17371],[-2.09348,57.17367],[-2.09324,57.17359]] ]}},
{ "type":"Feature","properties":{"osm_way_id":"237994862","name":"Asda","building":"supermarket","shop":"supermarket","other":{"addr:city":"Aberdeen","addr:country":"GB","addr:postcode":"AB21 7NG","addr:street":"Riverview Drive","alt_name":"Asda Dyce","brand":"Asda","brand:wikidata":"Q297410","brand:wikipedia":"en:Asda","contact:facebook":"https:\/\/www.facebook.com\/asda\/","contact:phone":"+44 1224 724 134","contact:twitter":"@asda","contact:website":"https:\/\/storelocator.asda.com\/scotland\/aberdeen\/riverview-drive-dyce","designation":"Dyce Superstore","fhrs:authority":"Aberdeen City","fhrs:id":"592902","fhrs:local_authority_id":"EHDC3197","opening_hours":"Mo-Su 08:00-22:00","operator":"Asda Stores Ltd","source:addr":"fhrs","wheelchair":"yes"}}, "geometry":{"type":"Polygon","coordinates":[[[ -2.17402,57.2045],[-2.17408,57.20428],[-2.1739,57.20427],[-2.17394,57.20411],[-2.17411,57.20412],[-2.17415,57.20396],[-2.17461,57.20399],[-2.17459,57.20409],[-2.17463,57.20409],[-2.17465,57.20399],[-2.17516,57.20402],[-2.17516,57.20404],[-2.17517,57.20404],[-2.17516,57.20409],[-2.17521,57.2041],[-2.17523,57.20399],[-2.1756,57.20402],[-2.17558,57.20412],[-2.17619,57.20416],[-2.17614,57.20438],[-2.17624,57.20439],[-2.17625,57.20435],[-2.17665,57.20438],[-2.17662,57.20452],[-2.17672,57.20452],[-2.17669,57.20464],[-2.17665,57.20464],[-2.1766,57.20484],[-2.17665,57.20485],[-2.1766,57.20506],[-2.17643,57.20505],[-2.17645,57.20498],[-2.17635,57.20497],[-2.17633,57.20504],[-2.17613,57.20503],[-2.17615,57.20496],[-2.17559,57.20492],[-2.17557,57.20501],[-2.17534,57.20499],[-2.17543,57.2046],[-2.17402,57.2045]] ]}},
{ "type":"Feature","properties":{"osm_way_id":"255780128","name":"Lidl","building":"supermarket","shop":"supermarket","other":{"addr:country":"GB","addr:postcode":"AB15 6HY","addr:street":"Lang Stracht","brand":"Lidl","brand:wikidata":"Q151954","brand:wikipedia":"en:Lidl","fhrs:id":"1337365"}}, "geometry":{"type":"Polygon","coordinates":[[[ -2.16171,57.15197],[-2.16171,57.15202],[-2.1616,57.15203],[-2.16155,57.15159],[-2.16207,57.15157],[-2.16209,57.15174],[-2.16204,57.15174],[-2.16205,57.15191],[-2.16205,57.15196],[-2.16171,57.15197]] ]}},
{ "type":"Feature","properties":{"osm_way_id":"256764362","name":"Tesco","building":"supermarket","landuse":"retail","shop":"supermarket","other":{"addr:city":"Aberdeen","addr:postcode":"AB15 6LT","addr:street":"Rousay Drive","brand":"Tesco","brand:wikidata":"Q487494","brand:wikipedia":"en:Tesco","fhrs:authority":"Aberdeen City","fhrs:id":"1347593","fhrs:local_authority_id":"1956","opening_hours":"Mo-Sa 06:00-00:00, Su 08:00-22:00"}}, "geometry":{"type":"Polygon","coordinates":[[[ -2.17185,57.15077],[-2.17053,57.15081],[-2.17049,57.15043],[-2.17045,57.14995],[-2.17057,57.14994],[-2.17072,57.14994],[-2.17162,57.14992],[-2.17178,57.14991],[-2.17182,57.1504],[-2.17185,57.15077]] ]}},
{ "type":"Feature","properties":{"osm_way_id":"259941642","name":"Co-Op","building":"retail","shop":"supermarket","other":{"addr:city":"Aberdeen","addr:postcode":"AB21 9QL","addr:street":"Sclattie Park","addr:unit":"Unit 1-2","fhrs:authority":"Aberdeen City","fhrs:id":"123152","fhrs:local_authority_id":"516","wheelchair":"limited"}}, "geometry":{"type":"Polygon","coordinates":[[[ -2.18653,57.17617],[-2.18695,57.17617],[-2.18695,57.17624],[-2.18673,57.17624],[-2.18653,57.17624],[-2.18653,57.17617]] ]}},
{ "type":"Feature","properties":{"osm_way_id":"326464608","name":"SPAR","building":"yes","shop":"supermarket","other":{"addr:city":"Aberdeen","addr:housenumber":"245-254","addr:postcode":"AB14 0UQ","addr:street":"North Deeside Road","alt_name":"SPAR, Peterculter","brand":"Spar","brand:wikidata":"Q610492","fhrs:authority":"Aberdeen City","fhrs:id":"1347469","fhrs:local_authority_id":"1827"}}, "geometry":{"type":"Polygon","coordinates":[[[ -2.27167,57.0967],[-2.27138,57.09663],[-2.27143,57.09657],[-2.27135,57.09655],[-2.27141,57.09648],[-2.27178,57.09657],[-2.27167,57.0967]] ]}},
{ "type":"Feature","properties":{"osm_way_id":"377070714","name":"萬富行 Matthew's Foods","building":"yes","shop":"supermarket","other":{"addr:city":"Aberdeen","addr:housenumber":"136-138","addr:postcode":"AB25 3TN","addr:street":"Causewayend","contact:website":"http:\/\/www.matthewsfoods.co.uk","fhrs:authority":"Aberdeen City","fhrs:id":"1346918","fhrs:local_authority_id":"1276","name:en":"Matthew's Foods","name:zh":"萬富行","source:addr":"fhrs","source:shape":"bing"}}, "geometry":{"type":"Polygon","coordinates":[[[ -2.10477,57.15608],[-2.10439,57.15638],[-2.10438,57.15638],[-2.10422,57.15624],[-2.10448,57.15603],[-2.10453,57.15599],[-2.10453,57.15599],[-2.10477,57.15608]] ]}},
{ "type":"Feature","properties":{"osm_way_id":"498368871","name":"Tesco Extra","building":"retail","shop":"supermarket","other":{"addr:city":"Aberdeen","addr:postcode":"AB22 8HB","addr:street":"Laurel Drive","brand":"Tesco Extra","brand:wikidata":"Q25172225","brand:wikipedia":"en:Tesco Extra","fhrs:authority":"Aberdeen City","fhrs:id":"1347599","fhrs:local_authority_id":"1961","opening_hours":"24\/7","wheelchair":"yes"}}, "geometry":{"type":"Polygon","coordinates":[[[ -2.14697,57.18022],[-2.14647,57.18024],[-2.14648,57.18027],[-2.14624,57.18028],[-2.14624,57.18025],[-2.1445,57.18031],[-2.14448,57.18018],[-2.14416,57.18019],[-2.14413,57.17998],[-2.14402,57.17998],[-2.14401,57.17989],[-2.14493,57.1797],[-2.14503,57.17965],[-2.14552,57.17964],[-2.14551,57.17957],[-2.14602,57.17956],[-2.14601,57.17944],[-2.14688,57.17941],[-2.14697,57.18022]] ]}},
{ "type":"Feature","properties":{"osm_way_id":"599979334","name":"M&S Foodhall","building":"yes","shop":"supermarket","other":{"addr:city":"Aberdeen","addr:country":"GB","addr:postcode":"AB21 9AZ","addr:street":"Beech Manor","brand":"M&S Foodhall","brand:wikidata":"Q714491","brand:wikipedia":"en:Marks & Spencer"}}, "geometry":{"type":"Polygon","coordinates":[[[ -2.17843,57.18837],[-2.17847,57.18856],[-2.17748,57.18862],[-2.17742,57.18837],[-2.17761,57.18835],[-2.17763,57.18842],[-2.17843,57.18837]] ]}},
{ "type":"Feature","properties":{"osm_way_id":"602535625","name":"Tesco","building":"retail","shop":"supermarket","other":{"addr:postcode":"AB12 3DN","addr:street":"Wellington Road","brand":"Tesco","brand:wikidata":"Q487494","brand:wikipedia":"en:Tesco","building:levels":"2","fhrs:id":"593655","opening_hours":"Mo-Sa 07:00-22:00; Su 07:00-19:00","source:addr":"fhrs"}}, "geometry":{"type":"Polygon","coordinates":[[[ -2.09464,57.13043],[-2.09401,57.13057],[-2.09373,57.13019],[-2.09437,57.13005],[-2.09464,57.13043]] ]}},
{ "type":"Feature","properties":{"osm_way_id":"620154712","name":"Co-op Food","building":"yes","shop":"supermarket","other":{"addr:city":"Aberdeen","addr:country":"GB","addr:postcode":"AB21 9AZ","addr:street":"Beech Manor","brand":"Co-op Food","brand:wikidata":"Q3277439","brand:wikipedia":"en:Co-op Food"}}, "geometry":{"type":"Polygon","coordinates":[[[ -2.17817,57.18908],[-2.17768,57.18911],[-2.17768,57.18908],[-2.17762,57.18908],[-2.1776,57.18897],[-2.17766,57.18897],[-2.17765,57.18892],[-2.17814,57.18889],[-2.17817,57.18908]] ]}},
{ "type":"Feature","properties":{"osm_way_id":"627871421","name":"Aldi","building":"yes","shop":"supermarket","other":{"addr:city":"Aberdeen","addr:postcode":"AB24 5EZ","addr:street":"Links Road","addr:unit":"Unit 9-10 Boulevard Retail Park","brand":"ALDI","brand:wikidata":"Q41171672","brand:wikipedia":"en:Aldi","fhrs:id":"1346702"}}, "geometry":{"type":"Polygon","coordinates":[[[ -2.08138,57.14874],[-2.08114,57.14861],[-2.08177,57.1483],[-2.08199,57.14843],[-2.08138,57.14874]] ]}},
{ "type":"Feature","properties":{"osm_way_id":"690425821","name":"Co-Op Food","building":"yes","shop":"supermarket","other":{"website":"https:\/\/finder.coop.co.uk\/food\/store\/AB14-0UL\/279-north-deeside-road","addr:city":"Aberdeen","addr:street":"North Deeside Road","addr:postcode":"AB14 0UL","opening_hours":"Mo-Su 07:00-21:00","addr:housenumber":"279"}}, "geometry":{"type":"Polygon","coordinates":[[[ -2.26931,57.09609],[-2.26899,57.09607],[-2.26903,57.09593],[-2.26935,57.09594],[-2.26931,57.09609]] ]}},
{ "type":"Feature","properties":{"osm_way_id":"709271469","name":"Lidl","building":"yes","shop":"supermarket","other":{"addr:city":"Aberdeen","addr:country":"GB","addr:housename":"East Tullos Industrial Estate","addr:postcode":"AB12 3DB","addr:street":"Greenwell Road","brand":"Lidl","brand:wikidata":"Q151954","brand:wikipedia":"en:Lidl","fhrs:id":"1178335","operator":"Lidl"}}, "geometry":{"type":"Polygon","coordinates":[[[ -2.09049,57.12767],[-2.09037,57.12749],[-2.09091,57.12738],[-2.09136,57.12805],[-2.09122,57.12807],[-2.09119,57.12803],[-2.09085,57.1281],[-2.09055,57.12766],[-2.09049,57.12767]] ]}},
{ "type":"Feature","properties":{"osm_way_id":"801890916","name":"Asda","building":"retail","shop":"supermarket","other":{"addr:city":"Aberdeen","addr:country":"GB","addr:postcode":"AB22 8WQ","addr:street":"Jesmond Drive","brand":"Asda","brand:wikidata":"Q297410","brand:wikipedia":"en:Asda","contact:facebook":"https:\/\/www.facebook.com\/asda\/","contact:phone":"+44 1224 822 000","contact:twitter":"@asda","contact:website":"https:\/\/storelocator.asda.com\/scotland\/aberdeen\/jesmond-drive-bridge-of-don","fhrs:authority":"Aberdeen City","fhrs:id":"1347226","fhrs:local_authority_id":"159","opening_hours":"Mo-Su 08:00-22:00","operator":"Asda Stores Ltd","wheelchair":"yes"}}, "geometry":{"type":"Polygon","coordinates":[[[ -2.12331,57.19154],[-2.12216,57.19174],[-2.12213,57.19169],[-2.12224,57.19167],[-2.12216,57.19154],[-2.12242,57.1915],[-2.12237,57.19141],[-2.12205,57.19147],[-2.12185,57.19114],[-2.12295,57.19094],[-2.12331,57.19154]] ]}},
{ "type":"Feature","properties":{"osm_way_id":"808957243","name":"Spar","building":"yes","shop":"supermarket","other":{"brand":"Spar","brand:wikidata":"Q610492","brand:wikipedia":"en:Spar (retailer)"}}, "geometry":{"type":"Polygon","coordinates":[[[ -2.0915,57.17379],[-2.09124,57.17375],[-2.09128,57.17368],[-2.09153,57.17372],[-2.0915,57.17379]] ]}},
{ "type":"Feature","properties":{"osm_way_id":"851920748","name":"Spar","building":"yes","shop":"supermarket","other":{"addr:city":"Aberdeen","addr:housenumber":"7-13","addr:postcode":"AB12 5BT","addr:street":"Provost Watt Drive","brand":"Spar","brand:wikidata":"Q610492","brand:wikipedia":"en:Spar (retailer)","fhrs:authority":"Aberdeen City","fhrs:id":"1347470","fhrs:local_authority_id":"1828","opening_hours":"Mo-Su 07:00-22:00","opening_hours:covid19":"same","operator":"Spar","payment:cash":"yes","payment:credit_cards":"yes","payment:debit_cards":"yes","phone":"+44 1224 874363"}}, "geometry":{"type":"Polygon","coordinates":[[[ -2.1027,57.12104],[-2.10287,57.12103],[-2.103,57.12102],[-2.10304,57.12128],[-2.10296,57.12128],[-2.10259,57.1213],[-2.10259,57.12127],[-2.10254,57.12127],[-2.10253,57.12121],[-2.10258,57.1212],[-2.10257,57.12115],[-2.10256,57.12116],[-2.10255,57.12111],[-2.10257,57.12111],[-2.10258,57.1211],[-2.10271,57.12109],[-2.1027,57.12105],[-2.1027,57.12104]] ]}},
{ "type":"Feature","properties":{"osm_way_id":"862548402","name":"Costcutter","building":"yes","shop":"supermarket","other":{"addr:city":"Aberdeen","addr:housenumber":"119","addr:postcode":"AB21 7BJ","addr:street":"Victoria Street","brand":"Costcutter","brand:wikidata":"Q5175072","brand:wikipedia":"en:Costcutter","fhrs:authority":"Aberdeen City","fhrs:id":"1348231","fhrs:local_authority_id":"561","operator":"Costcutter"}}, "geometry":{"type":"Polygon","coordinates":[[[ -2.18978,57.20615],[-2.18979,57.20608],[-2.19004,57.20608],[-2.19003,57.20606],[-2.19036,57.20605],[-2.19039,57.20616],[-2.18991,57.20615],[-2.18978,57.20615]] ]}},
{ "type":"Feature","properties":{"osm_way_id":"909013842","building":"garage","other":{"building:levels":"1","capacity":"1","roof:shape":"flat"}}, "geometry":{"type":"Polygon","coordinates":[[[ -2.09773,57.16916],[-2.09767,57.16915],[-2.0977,57.16909],[-2.09776,57.1691],[-2.09773,57.16916]] ]}},
{ "type":"Feature","properties":{"osm_way_id":"932603431","name":"Co-op Food","building":"retail","shop":"supermarket","other":{"addr:city":"Aberdeen","addr:housenumber":"93","addr:postcode":"AB24 4JS","addr:street":"Rosehill Drive","brand":"Co-op Food","brand:wikidata":"Q3277439","brand:wikipedia":"en:Co-op Food","fhrs:authority":"Aberdeen City","fhrs:id":"1348200","fhrs:local_authority_id":"526","operator":"Co-op","source:addr":"FHRS Open Data"}}, "geometry":{"type":"Polygon","coordinates":[[[ -2.13565,57.16348],[-2.13592,57.16326],[-2.13608,57.16332],[-2.13602,57.16337],[-2.13606,57.16338],[-2.13597,57.16346],[-2.13587,57.16342],[-2.13583,57.16345],[-2.13575,57.16352],[-2.13565,57.16348]] ]}}
]
}
