{
"type": "FeatureCollection",
"features": [
{ "type":"Feature","properties":{"osm_id":"25239704","name":"Sainsbury's","other":{"addr:city":"Glasgow","addr:housename":"Great Western Retail Park","addr:postcode":"G15 6RX","addr:street":"Allerdyce Road","brand":"Sainsbury's","brand:wikidata":"Q152096","brand:wikipedia":"en:Sainsbury's","contact:website":"https:\/\/stores.sainsburys.co.uk\/0523\/drumchapel","opening_hours":"Su-Fr 08:00-22:00; Sa 07:00-22:00","phone":"+441419442841","shop":"supermarket"}}, "geometry":{"type":"Point","coordinates":[-4.37428,55.90459 ]}},
{ "type":"Feature","properties":{"osm_id":"471827909","name":"Tesco Metro","other":{"shop":"supermarket","brand":"Tesco Metro","operator":"Tesco","brand:wikidata":"Q57551648"}}, "geometry":{"type":"Point","coordinates":[-4.35889,55.88568 ]}},
{ "type":"Feature","properties":{"osm_id":"601697571","name":"Co-op","other":{"shop":"supermarket","operator":"The Co-operative Group","addr:street":"Great Western Road","addr:postcode":"G12 8EW","addr:housenumber":"470"}}, "geometry":{"type":"Point","coordinates":[-4.28121,55.87535 ]}},
{ "type":"Feature","properties":{"osm_id":"602497861","name":"Asda","other":{"shop":"supermarket","brand":"Asda","operator":"Asda Stores Ltd","addr:city":"Glasgow","addr:street":"Duke Street","addr:country":"GB","addr:postcode":"G31 4EB","contact:phone":"+44 141 554 1830","opening_hours":"Mo-Su 08:00-22:00","brand:wikidata":"Q297410","brand:wikipedia":"en:Asda","contact:twitter":"@asda","contact:website":"https:\/\/storelocator.asda.com\/scotland\/glasgow\/1300-duke-street","addr:housenumber":"1300","contact:facebook":"https:\/\/www.facebook.com\/asda\/"}}, "geometry":{"type":"Point","coordinates":[-4.20009,55.85419 ]}},
{ "type":"Feature","properties":{"osm_id":"602520378","name":"Tesco Extra","other":{"brand":"Tesco Extra","brand:wikidata":"Q25172225","brand:wikipedia":"en:Tesco Extra","contact:website":"https:\/\/www.tesco.com\/store-locator\/central-scotland\/maryhill-road","opening_hours":"24\/7","shop":"supermarket","wheelchair":"yes"}}, "geometry":{"type":"Point","coordinates":[-4.28626,55.88714 ]}},
{ "type":"Feature","properties":{"osm_id":"721611119","name":"ALDI","other":{"addr:city":"Glasgow","addr:housenumber":"132","addr:postcode":"G1 1PQ","addr:street":"High Street","brand":"ALDI","brand:wikidata":"Q41171672","brand:wikipedia":"en:Aldi","fhrs:id":"22736","opening_hours":"Mo-Su 08:00-22:00","shop":"supermarket","source:addr":"FHRS Open Data"}}, "geometry":{"type":"Point","coordinates":[-4.24076,55.85931 ]}},
{ "type":"Feature","properties":{"osm_id":"780582047","name":"The Co-operative Food","other":{"shop":"supermarket","brand":"The Co-operative Food","operator":"CWS","addr:city":"Glasgow","addr:street":"Pollokshaws Road","addr:postcode":"G41 3EA","brand:wikidata":"Q3277439","brand:wikipedia":"en:Co-op Food","addr:housenumber":"1060-1078"}}, "geometry":{"type":"Point","coordinates":[-4.27995,55.83118 ]}},
{ "type":"Feature","properties":{"osm_id":"1069870666","name":"Co-op Food","other":{"atm":"yes","atm:fee":"no","brand":"Co-op Food","brand:wikidata":"Q3277439","brand:wikipedia":"en:Co-op Food","opening_hours":"Mo-Su 07:00-22:00","operator":"The Co-operative Group","operator:wikidata":"Q117202","operator:wikipedia":"en:The Co-operative Group","shop":"supermarket","wheelchair":"yes"}}, "geometry":{"type":"Point","coordinates":[-4.21964,55.86435 ]}},
{ "type":"Feature","properties":{"osm_id":"1178093896","name":"SeeWoo","other":{"shop":"supermarket","phone":"+44 845 078 8818","cuisine":"chinese","website":"http:\/\/www.seewoo.com\/contact-glasgow","addr:city":"Glasgow","addr:street":"Saracen Street","addr:postcode":"G22 5HT","opening_hours":"Mo-Su 09:30-19:00","addr:housenumber":"29"}}, "geometry":{"type":"Point","coordinates":[-4.25528,55.87819 ]}},
{ "type":"Feature","properties":{"osm_id":"1311975815","name":"Lidl","other":{"addr:country":"GB","addr:housenumber":"37","addr:postcode":"G1 4NN","addr:street":"Jamaica Street","brand":"Lidl","brand:wikidata":"Q151954","brand:wikipedia":"en:Lidl","fhrs:id":"29405","shop":"supermarket"}}, "geometry":{"type":"Point","coordinates":[-4.25692,55.85753 ]}},
{ "type":"Feature","properties":{"osm_id":"1311976163","name":"Tesco Metro","other":{"addr:city":"Glasgow","addr:housenumber":"63","addr:postcode":"G1 4DH","addr:street":"St Enoch Square","brand":"Tesco Metro","brand:wikidata":"Q57551648","brand:wikipedia":"en:Tesco","contact:website":"https:\/\/www.tesco.com\/store-locator\/glasgow\/205-st-enoch-square","fhrs:id":"36450","shop":"supermarket","source:addr":"FHRS Open Data"}}, "geometry":{"type":"Point","coordinates":[-4.25488,55.857 ]}},
{ "type":"Feature","properties":{"osm_id":"1657819925","name":"Co-op Food","other":{"brand":"Co-op Food","brand:wikidata":"Q3277439","brand:wikipedia":"en:Co-op Food","shop":"supermarket"}}, "geometry":{"type":"Point","coordinates":[-4.16724,55.85149 ]}},
{ "type":"Feature","properties":{"osm_id":"1689096860","name":"Locavore","other":{"shop":"supermarket"}}, "geometry":{"type":"Point","coordinates":[-4.26402,55.83789 ]}},
{ "type":"Feature","properties":{"osm_id":"1879559288","name":"Kinder Handl","other":{"atm":"yes","shop":"supermarket"}}, "geometry":{"type":"Point","coordinates":[-4.25684,55.82522 ]}},
{ "type":"Feature","properties":{"osm_id":"1929439191","name":"The Co-operative Food","other":{"shop":"supermarket"}}, "geometry":{"type":"Point","coordinates":[-4.20407,55.89119 ]}},
{ "type":"Feature","properties":{"osm_id":"2180437387","name":"Co-op Food","other":{"addr:city":"Glasgow","addr:housenumber":"132","addr:street":"Union Street","brand":"Co-op Food","brand:wikidata":"Q3277439","brand:wikipedia":"en:Co-op Food","opening_hours":"Mo-Sa 08:00-22:00; Su 08:00-22:00","operator":"The Co-operative Group","shop":"supermarket"}}, "geometry":{"type":"Point","coordinates":[-4.25676,55.8604 ]}},
{ "type":"Feature","properties":{"osm_id":"3122232353","name":"Everyday Oriental Supermarket","other":{"addr:city":"Glasgow","addr:housenumber":"154","addr:postcode":"G11 6XE","addr:street":"Dumbarton Road","shop":"supermarket"}}, "geometry":{"type":"Point","coordinates":[-4.29987,55.87067 ]}},
{ "type":"Feature","properties":{"osm_id":"4787047455","name":"Tesco Metro","other":{"addr:city":"Glasgow","addr:housenumber":"236","addr:postcode":"G2 3EQ","addr:street":"Sauchiehall Street","brand":"Tesco Metro","brand:wikidata":"Q57551648","fhrs:id":"495605","shop":"supermarket","source:addr":"FHRS Open Data"}}, "geometry":{"type":"Point","coordinates":[-4.26109,55.86527 ]}},
{ "type":"Feature","properties":{"osm_id":"4787047457","name":"Co-op Food","other":{"shop":"supermarket","brand":"Co-op Food","operator":"The Co-operative Group","brand:wikidata":"Q3277439","brand:wikipedia":"en:Co-op Food"}}, "geometry":{"type":"Point","coordinates":[-4.25794,55.86467 ]}},
{ "type":"Feature","properties":{"osm_id":"4797381480","name":"World Foods","other":{"shop":"supermarket","addr:street":"Nithsdale Street"}}, "geometry":{"type":"Point","coordinates":[-4.27056,55.83703 ]}},
{ "type":"Feature","properties":{"osm_id":"4870480699","name":"Lidl","other":{"addr:country":"GB","addr:housenumber":"19","addr:postcode":"G11 6DQ","addr:street":"Beith Street","brand":"Lidl","brand:wikidata":"Q151954","brand:wikipedia":"en:Lidl","fhrs:id":"946097","opening_hours":"Mo-Sa 08:00-22:00, Su 08:00-20:00","shop":"supermarket"}}, "geometry":{"type":"Point","coordinates":[-4.30554,55.86905 ]}},
{ "type":"Feature","properties":{"osm_id":"6945490932","name":"Nisa Extra","other":{"brand":"Nisa Extra","brand:wikidata":"Q16999069","brand:wikipedia":"en:Nisa (retailer)","shop":"supermarket"}}, "geometry":{"type":"Point","coordinates":[-4.24076,55.84777 ]}},
{ "type":"Feature","properties":{"osm_id":"7840688390","name":"The Food Warehouse","other":{"addr:postcode":"G5 0DP","brand":"The Food Warehouse","brand:wikidata":"Q87263899","operator":"Iceland","phone":"+441414297396","shop":"supermarket","website":"https:\/\/www.thefoodwarehouse.com\/store-locator\/crown-street-glasgow"}}, "geometry":{"type":"Point","coordinates":[-4.25189,55.84254 ]}},
{ "type":"Feature","properties":{"osm_id":"7840988385","name":"Aldi","other":{"brand":"ALDI","brand:wikidata":"Q41171672","brand:wikipedia":"en:Aldi","operator":"Aldi","shop":"supermarket","website":"https:\/\/www.aldi.co.uk\/store\/s-uk-E1293"}}, "geometry":{"type":"Point","coordinates":[-4.25168,55.84282 ]}},
{ "type":"Feature","properties":{"osm_id":"8176307532","name":"Co-op Food","other":{"addr:city":"Glasgow","addr:housenumber":"390-400","addr:postcode":"G51 1BG","addr:street":"Paisley Road West","brand":"Co-op Food","brand:wikidata":"Q3277439","brand:wikipedia":"en:Co-op Food","payment:cash":"yes","payment:contactless":"yes","payment:credit_cards":"yes","shop":"supermarket"}}, "geometry":{"type":"Point","coordinates":[-4.29598,55.8518 ]}},
{ "type":"Feature","properties":{"osm_id":"8264547009","name":"Taibah Supermarket","other":{"addr:city":"Glasgow","addr:housenumber":"25","addr:postcode":"G5 9JB","addr:street":"Bridge Street","opening_hours":"9:00 - 20:30","phone":"+44 141 237 968","shop":"supermarket"}}, "geometry":{"type":"Point","coordinates":[-4.25835,55.85358 ]}},
{ "type":"Feature","properties":{"osm_id":"9017246506","name":"萬富行 Matthew's Foods","other":{"name:en":"Matthew's Foods","name:zh":"萬富行","shop":"supermarket"}}, "geometry":{"type":"Point","coordinates":[-4.26074,55.8729 ]}},
{ "type":"Feature","properties":{"osm_id":"9217186642","name":"Lidl","other":{"addr:city":"Glasgow","addr:country":"GB","addr:housenumber":"11","addr:postcode":"G33 1AD","addr:street":"Monument Drive","brand":"Lidl","brand:wikidata":"Q151954","brand:wikipedia":"en:Lidl","fhrs:id":"1334367","shop":"supermarket","survey:date":"2021-01-30"}}, "geometry":{"type":"Point","coordinates":[-4.18276,55.89111 ]}},
{ "type":"Feature","properties":{"osm_id":"9434492990","name":"Scotmid","other":{"addr:city":"Glasgow","addr:housenumber":"111","addr:postcode":"G33 3QE","addr:street":"Edinburgh Road","brand":"Scotmid","brand:wikidata":"Q7435719","brand:wikipedia":"en:Scotmid","shop":"supermarket"}}, "geometry":{"type":"Point","coordinates":[-4.17254,55.86331 ]}},
{ "type":"Feature","properties":{"osm_id":"9439246555","name":"Asam","other":{"shop":"supermarket"}}, "geometry":{"type":"Point","coordinates":[-4.28871,55.85218 ]}},
{ "type":"Feature","properties":{"osm_id":"9461780997","name":"Kurdish Kobane","other":{"shop":"supermarket"}}, "geometry":{"type":"Point","coordinates":[-4.26442,55.8371 ]}},
{ "type":"Feature","properties":{"osm_id":"9461781003","name":"noor","other":{"shop":"supermarket"}}, "geometry":{"type":"Point","coordinates":[-4.26471,55.83745 ]}},
{ "type":"Feature","properties":{"osm_way_id":"13758518","name":"Lidl","building":"retail","shop":"supermarket","other":{"addr:city":"Glasgow","addr:country":"GB","addr:housenumber":"30-52","addr:postcode":"G3 8JU","addr:street":"Finnieston Street","brand":"Lidl","brand:wikidata":"Q151954","fhrs:id":"1350208","level":"0","survey:date":"2021-02-27"}}, "geometry":{"type":"Polygon","coordinates":[[[ -4.28165,55.86243],[-4.28167,55.86237],[-4.28223,55.86243],[-4.28209,55.86289],[-4.28189,55.86287],[-4.28188,55.8629],[-4.28171,55.86288],[-4.28172,55.86285],[-4.28153,55.86283],[-4.28165,55.86243]] ]}},
{ "type":"Feature","properties":{"osm_way_id":"15218448","name":"Tesco Extra","building":"supermarket","shop":"supermarket","other":{"brand":"Tesco Extra","brand:wikidata":"Q25172225","brand:wikipedia":"en:Tesco Extra","postal_code":"G53 6QR"}}, "geometry":{"type":"Polygon","coordinates":[[[ -4.34114,55.82331],[-4.34091,55.82329],[-4.34083,55.82339],[-4.34058,55.82336],[-4.34061,55.82325],[-4.34007,55.8232],[-4.33997,55.82332],[-4.3395,55.82327],[-4.33954,55.82314],[-4.33929,55.82312],[-4.33928,55.82316],[-4.33863,55.82312],[-4.33879,55.82281],[-4.33883,55.82282],[-4.33897,55.8224],[-4.33899,55.82241],[-4.33902,55.82234],[-4.34116,55.82254],[-4.34119,55.82254],[-4.34136,55.82256],[-4.34133,55.82269],[-4.34114,55.82331]] ]}},
{ "type":"Feature","properties":{"osm_way_id":"29305893","name":"Morrisons","building":"yes","shop":"supermarket","other":{"atm":"yes","brand":"Morrisons","brand:wikidata":"Q922344","brand:wikipedia":"en:Morrisons"}}, "geometry":{"type":"Polygon","coordinates":[[[ -4.32118,55.89096],[-4.32185,55.89114],[-4.32187,55.89112],[-4.32204,55.89116],[-4.32208,55.89111],[-4.3223,55.89117],[-4.32228,55.89119],[-4.32244,55.89123],[-4.32247,55.89127],[-4.32249,55.89131],[-4.32227,55.89158],[-4.32231,55.89159],[-4.3222,55.89172],[-4.32212,55.89169],[-4.32204,55.89179],[-4.32199,55.89178],[-4.32185,55.89194],[-4.32177,55.89192],[-4.32174,55.89196],[-4.32141,55.89201],[-4.32127,55.89198],[-4.32116,55.89211],[-4.32039,55.89191],[-4.32118,55.89096]] ]}},
{ "type":"Feature","properties":{"osm_way_id":"30742298","name":"Asda","building":"retail","shop":"supermarket","other":{"brand":"Asda","fhrs:id":"23200","operator":"Asda Stores Ltd","addr:city":"Glasgow","addr:street":"Monument Drive","addr:country":"GB","addr:postcode":"G33 1AD","brand:wikidata":"Q297410","brand:wikipedia":"en:Asda","contact:twitter":"@asda","contact:website":"https:\/\/storelocator.asda.com\/scotland\/glasgow\/1-monument-drive","addr:housenumber":"1","contact:facebook":"https:\/\/www.facebook.com\/asda\/"}}, "geometry":{"type":"Polygon","coordinates":[[[ -4.18738,55.89046],[-4.18784,55.89091],[-4.18805,55.89124],[-4.18789,55.89128],[-4.18797,55.89137],[-4.18801,55.89148],[-4.18777,55.8915],[-4.18776,55.89142],[-4.1872,55.89145],[-4.18704,55.89131],[-4.18651,55.89148],[-4.18584,55.89084],[-4.18683,55.89052],[-4.18692,55.8906],[-4.18738,55.89046]] ]}},
{ "type":"Feature","properties":{"osm_way_id":"32278104","name":"Sainsbury's","building":"yes","shop":"supermarket","other":{"brand":"Sainsbury's","brand:wikidata":"Q152096","brand:wikipedia":"en:Sainsbury's"}}, "geometry":{"type":"Polygon","coordinates":[[[ -4.27291,55.80954],[-4.27231,55.80942],[-4.27232,55.8094],[-4.27223,55.80938],[-4.27229,55.80929],[-4.27237,55.80931],[-4.27256,55.80901],[-4.27303,55.80911],[-4.27307,55.80903],[-4.27317,55.80914],[-4.27291,55.80954]] ]}},
{ "type":"Feature","properties":{"osm_way_id":"41782692","name":"Sainsbury's","building":"yes","shop":"supermarket","other":{"addr:city":"Glasgow","addr:housenumber":"10","addr:postcode":"G53 7RH","addr:street":"Darnley Mains Road","brand":"Sainsbury's","brand:wikidata":"Q152096","brand:wikipedia":"en:Sainsbury's","contact:website":"https:\/\/stores.sainsburys.co.uk\/0885\/darnley","fhrs:id":"93187"}}, "geometry":{"type":"Polygon","coordinates":[[[ -4.34559,55.80667],[-4.34506,55.8065],[-4.345,55.80656],[-4.34465,55.80654],[-4.34368,55.80624],[-4.34395,55.80595],[-4.34445,55.80545],[-4.34447,55.80542],[-4.34611,55.80592],[-4.34593,55.80612],[-4.34581,55.80608],[-4.34546,55.80644],[-4.34574,55.80652],[-4.34559,55.80667]] ]}},
{ "type":"Feature","properties":{"osm_way_id":"41852866","name":"Morrisons","building":"retail","shop":"supermarket","other":{"brand":"Morrisons","operator":"Morrisons","addr:street":"Merkland Court","designation":"Glasgow - Patrick","roof:levels":"0","addr:postcode":"G11 6BQ","opening_hours":"Mo-Sa 07:00-22:00, Su 08:00-20:00","brand:wikidata":"Q922344","brand:wikipedia":"en:Morrisons","building:levels":"2","addr:housenumber":"1-2"}}, "geometry":{"type":"Polygon","coordinates":[[[ -4.30671,55.86967],[-4.30715,55.86955],[-4.30725,55.86965],[-4.30736,55.86962],[-4.30743,55.86969],[-4.30759,55.86964],[-4.30768,55.86973],[-4.30816,55.8696],[-4.30835,55.86981],[-4.30787,55.86995],[-4.30722,55.87014],[-4.30711,55.87012],[-4.30671,55.86967]] ]}},
{ "type":"Feature","properties":{"osm_way_id":"42208196","name":"Aldi","building":"retail","shop":"supermarket","other":{"brand":"ALDI","brand:wikidata":"Q41171672","brand:wikipedia":"en:Aldi","building:levels":"1","opening_hours":"Mo-Sa 08:00-22:00; Su 09:00-20:00","roof:levels":"0"}}, "geometry":{"type":"Polygon","coordinates":[[[ -4.29737,55.82156],[-4.29688,55.8218],[-4.29642,55.82151],[-4.29692,55.82127],[-4.29737,55.82156]] ]}},
{ "type":"Feature","properties":{"osm_way_id":"44921696","name":"Aldi","building":"yes","shop":"supermarket","other":{"brand":"ALDI","brand:wikidata":"Q41171672","brand:wikipedia":"en:Aldi"}}, "geometry":{"type":"Polygon","coordinates":[[[ -4.36991,55.90782],[-4.36963,55.90729],[-4.37027,55.90719],[-4.37053,55.90772],[-4.36991,55.90782]] ]}},
{ "type":"Feature","properties":{"osm_way_id":"45342716","name":"Morrisons","building":"yes","shop":"supermarket","other":{"brand":"Morrisons","height":"15","operator":"Morrisons","building:use":"retail","brand:wikidata":"Q922344","brand:wikipedia":"en:Morrisons"}}, "geometry":{"type":"Polygon","coordinates":[[[ -4.12844,55.86936],[-4.12734,55.86891],[-4.12751,55.86879],[-4.12683,55.8685],[-4.1276,55.86791],[-4.12938,55.86865],[-4.12844,55.86936]] ]}},
{ "type":"Feature","properties":{"osm_way_id":"48520715","name":"Sainsbury's","building":"yes","shop":"supermarket","other":{"addr:city":"Glasgow","addr:housenumber":"80","addr:postcode":"G11 7RY","addr:street":"Crow Road","brand":"Sainsbury's","brand:wikidata":"Q152096","brand:wikipedia":"en:Sainsbury's","designation":"Patrick Superstore","opening_hours":"Mo-Fr 08:00-22:00; Sa 07:00-22:00; Su 08:00-22:00","payment:cash":"yes","payment:credit_cards":"yes"}}, "geometry":{"type":"Polygon","coordinates":[[[ -4.31281,55.87323],[-4.31221,55.87331],[-4.31205,55.87297],[-4.31201,55.87298],[-4.31198,55.87291],[-4.3121,55.87289],[-4.31204,55.87276],[-4.31256,55.87268],[-4.31281,55.87323]] ]}},
{ "type":"Feature","properties":{"osm_way_id":"51212554","name":"Waitrose","shop":"supermarket","other":{"addr:city":"Glasgow","addr:housenumber":"373","addr:postcode":"G12 8AU","addr:street":"Byres Road","brand":"Waitrose","brand:wikidata":"Q771734","brand:wikipedia":"en:Waitrose","designation":"Byres Road","level":"1","official_name":"Waitrose & Partners","opening_hours":"Mo-Fr 08:00-22:00; Sa 08:00-21:00; Su 09:00-20:00","operator":"Waitrose & Partners","website":"https:\/\/www.waitrose.com\/bf_home\/bf\/308.html","wheelchair":"yes"}}, "geometry":{"type":"Polygon","coordinates":[[[ -4.2916,55.87722],[-4.29175,55.87727],[-4.29179,55.87728],[-4.29179,55.87729],[-4.29193,55.87733],[-4.29182,55.87743],[-4.29191,55.87751],[-4.29197,55.87757],[-4.29207,55.87767],[-4.29213,55.87773],[-4.29198,55.87787],[-4.29124,55.87761],[-4.29123,55.87761],[-4.29111,55.87756],[-4.29106,55.87749],[-4.2916,55.87722]] ]}},
{ "type":"Feature","properties":{"osm_way_id":"71080095","name":"Morrisons","building":"yes","shop":"supermarket","other":{"brand":"Morrisons","brand:wikidata":"Q922344","brand:wikipedia":"en:Morrisons"}}, "geometry":{"type":"Polygon","coordinates":[[[ -4.34181,55.84671],[-4.34064,55.84676],[-4.34059,55.84647],[-4.34029,55.84649],[-4.34027,55.84638],[-4.34008,55.84639],[-4.34005,55.84622],[-4.34172,55.84613],[-4.34181,55.84671]] ]}},
{ "type":"Feature","properties":{"osm_way_id":"80367753","name":"Asda","building":"yes","shop":"supermarket","other":{"brand":"Asda","fhrs:id":"127653","operator":"Asda Stores Ltd","addr:city":"Glasgow","addr:street":"Rothes Drive","addr:country":"GB","addr:postcode":"G23 5EZ","brand:wikidata":"Q297410","brand:wikipedia":"en:Asda","contact:twitter":"@asda","contact:website":"https:\/\/storelocator.asda.com\/scotland\/glasgow\/20-rothes-drive","addr:housenumber":"20","contact:facebook":"https:\/\/www.facebook.com\/asda\/"}}, "geometry":{"type":"Polygon","coordinates":[[[ -4.29269,55.90014],[-4.29142,55.90018],[-4.2914,55.89981],[-4.29148,55.89981],[-4.29143,55.89931],[-4.29231,55.89929],[-4.29232,55.89939],[-4.29254,55.89939],[-4.29257,55.89967],[-4.29291,55.89966],[-4.29294,55.89995],[-4.29267,55.89996],[-4.29269,55.90014]] ]}},
{ "type":"Feature","properties":{"osm_way_id":"80621152","name":"Tesco Extra","building":"yes","shop":"supermarket","other":{"addr:city":"Glasgow","addr:housenumber":"601","addr:postcode":"G32 7JG","addr:street":"Old Shettleston Road","brand":"Tesco Extra","brand:wikidata":"Q25172225","brand:wikipedia":"en:Tesco Extra","contact:website":"https:\/\/www.tesco.com\/store-locator\/glasgow\/annick-st","fhrs:id":"807796","source:addr":"FHRS Open Data","wheelchair":"limited"}}, "geometry":{"type":"Polygon","coordinates":[[[ -4.16484,55.85323],[-4.16452,55.85323],[-4.16451,55.85354],[-4.1632,55.85351],[-4.16324,55.85261],[-4.16449,55.85263],[-4.16447,55.85286],[-4.16452,55.85286],[-4.1645,55.85309],[-4.16474,55.85309],[-4.16474,55.85302],[-4.16485,55.85302],[-4.16484,55.85323]] ]}},
{ "type":"Feature","properties":{"osm_way_id":"80925321","name":"Tesco Extra","building":"supermarket","shop":"supermarket","other":{"brand":"Tesco Extra","operator":"Tesco","brand:wikidata":"Q25172225","brand:wikipedia":"en:Tesco Extra"}}, "geometry":{"type":"Polygon","coordinates":[[[ -4.21229,55.85558],[-4.2129,55.85541],[-4.21341,55.85596],[-4.21208,55.85633],[-4.21216,55.85643],[-4.21192,55.8565],[-4.2117,55.8565],[-4.21166,55.85645],[-4.2114,55.85652],[-4.2109,55.85597],[-4.21193,55.85568],[-4.21189,55.85564],[-4.21226,55.85554],[-4.21229,55.85558]] ]}},
{ "type":"Feature","properties":{"osm_way_id":"80959030","name":"Lidl","building":"yes","shop":"supermarket","other":{"brand":"Lidl","brand:wikidata":"Q151954"}}, "geometry":{"type":"Polygon","coordinates":[[[ -4.18034,55.84344],[-4.18027,55.84348],[-4.18022,55.84346],[-4.17968,55.84381],[-4.17933,55.84365],[-4.17988,55.84329],[-4.18008,55.84339],[-4.18015,55.84335],[-4.18034,55.84344]] ]}},
{ "type":"Feature","properties":{"osm_way_id":"106406143","name":"Asda","building":"retail","shop":"supermarket","other":{"addr:city":"Glasgow","addr:country":"GB","addr:housenumber":"555","addr:postcode":"G42 0AE","addr:street":"Prospecthill Road","brand":"Asda","brand:wikidata":"Q297410","brand:wikipedia":"en:Asda","contact:facebook":"https:\/\/www.facebook.com\/asda\/","contact:twitter":"@asda","contact:website":"https:\/\/storelocator.asda.com\/scotland\/glasgow\/555-prospecthill-road","fhrs:id":"188115","opening_hours":"24\/7","operator":"Asda Stores Ltd"}}, "geometry":{"type":"Polygon","coordinates":[[[ -4.24761,55.83003],[-4.24738,55.83011],[-4.24745,55.83017],[-4.24693,55.83035],[-4.247,55.83045],[-4.24687,55.83046],[-4.24687,55.83048],[-4.24671,55.83049],[-4.24672,55.8305],[-4.2462,55.83053],[-4.24618,55.83052],[-4.2461,55.83055],[-4.24598,55.83044],[-4.24609,55.8304],[-4.24601,55.83033],[-4.24597,55.83034],[-4.24585,55.83023],[-4.24589,55.83022],[-4.24561,55.82996],[-4.24566,55.82994],[-4.24556,55.82985],[-4.2458,55.82977],[-4.2459,55.82974],[-4.24609,55.82967],[-4.2465,55.82953],[-4.24659,55.82961],[-4.24702,55.82947],[-4.24751,55.82992],[-4.24749,55.82993],[-4.24761,55.83003]] ]}},
{ "type":"Feature","properties":{"osm_way_id":"114871481","name":"Lidl","building":"yes","shop":"supermarket","other":{"addr:city":"Glasgow","addr:country":"GB","addr:housenumber":"263","addr:postcode":"G31 1HX","addr:street":"Duke Street","brand":"Lidl","brand:wikidata":"Q151954","brand:wikipedia":"en:Lidl","fhrs:id":"855695","opening_hours":"Mo-Sa 08:00-22:00","operator":"Lidl Stiftung & Co. KG","phone":"+44 800 977 7766","website":"http:\/\/www.lidl.co.uk\/","wheelchair":"yes"}}, "geometry":{"type":"Polygon","coordinates":[[[ -4.22517,55.85859],[-4.22544,55.85895],[-4.22549,55.85896],[-4.22545,55.85907],[-4.22501,55.85902],[-4.22508,55.85883],[-4.22517,55.85859]] ]}},
{ "type":"Feature","properties":{"osm_way_id":"117188448","name":"Morrisons","building":"yes","shop":"supermarket","other":{"brand":"Morrisons","brand:wikidata":"Q922344","brand:wikipedia":"en:Morrisons"}}, "geometry":{"type":"Polygon","coordinates":[[[ -4.10565,55.85142],[-4.10523,55.85143],[-4.10512,55.85137],[-4.1051,55.85132],[-4.10503,55.85132],[-4.10501,55.85086],[-4.10524,55.85085],[-4.10524,55.85079],[-4.10518,55.85079],[-4.10518,55.85071],[-4.10515,55.85071],[-4.10515,55.85063],[-4.1053,55.85063],[-4.1053,55.85067],[-4.10554,55.85067],[-4.10554,55.8507],[-4.10561,55.8507],[-4.10561,55.85078],[-4.10582,55.85078],[-4.10581,55.85072],[-4.10592,55.85072],[-4.10591,55.85066],[-4.10622,55.85066],[-4.10625,55.85135],[-4.10564,55.85136],[-4.10565,55.85142]] ]}},
{ "type":"Feature","properties":{"osm_way_id":"117190917","name":"Lidl","building":"supermarket","shop":"supermarket","other":{"addr:city":"Glasgow","addr:country":"GB","addr:housenumber":"180","addr:postcode":"G69 6AH","addr:street":"Main Street","brand":"Lidl","brand:wikidata":"Q151954","brand:wikipedia":"en:Lidl","fhrs:id":"22984"}}, "geometry":{"type":"Polygon","coordinates":[[[ -4.10762,55.8513],[-4.10761,55.85091],[-4.10761,55.85083],[-4.10805,55.85083],[-4.10806,55.8513],[-4.10797,55.8513],[-4.10762,55.8513]] ]}},
{ "type":"Feature","properties":{"osm_way_id":"123768739","name":"Tesco Extra","building":"yes","shop":"supermarket","other":{"brand":"Tesco Extra","brand:wikidata":"Q25172225","brand:wikipedia":"en:Tesco Extra","opening_hours":"24\/7"}}, "geometry":{"type":"Polygon","coordinates":[[[ -4.23155,55.87287],[-4.23203,55.87291],[-4.23199,55.87304],[-4.23171,55.87302],[-4.23154,55.87363],[-4.23156,55.87364],[-4.23157,55.87361],[-4.23163,55.87362],[-4.23162,55.87364],[-4.23163,55.87364],[-4.23164,55.87362],[-4.23171,55.87363],[-4.2317,55.87365],[-4.23173,55.87365],[-4.23172,55.87371],[-4.23171,55.87372],[-4.22999,55.87357],[-4.23004,55.87339],[-4.22994,55.87338],[-4.22997,55.87325],[-4.23008,55.87326],[-4.23026,55.8726],[-4.2316,55.87271],[-4.23155,55.87287]] ]}},
{ "type":"Feature","properties":{"osm_way_id":"128404141","name":"Lidl","building":"yes","shop":"supermarket","other":{"addr:city":"Glasgow","addr:country":"GB","addr:housenumber":"2","addr:postcode":"G20 7JN","addr:street":"Hopehill Road","brand":"Lidl","brand:wikidata":"Q151954","brand:wikipedia":"en:Lidl","fhrs:id":"108540","opening_hours":"Mo-Su 08:00-22:00","phone":"+44 800 9777766"}}, "geometry":{"type":"Polygon","coordinates":[[[ -4.2695,55.87469],[-4.26929,55.87485],[-4.26876,55.87465],[-4.26862,55.87459],[-4.26874,55.87449],[-4.26862,55.87445],[-4.26871,55.87438],[-4.2695,55.87469]] ]}},
{ "type":"Feature","properties":{"osm_way_id":"129857717","name":"Asda","building":"yes","shop":"supermarket","other":{"brand":"Asda","operator":"Asda Stores Ltd","addr:city":"Glasgow","addr:street":"Helen Street","addr:country":"GB","addr:postcode":"G51 3HR","brand:wikidata":"Q297410","brand:wikipedia":"en:Asda","contact:twitter":"@asda","contact:website":"https:\/\/storelocator.asda.com\/scotland\/glasgow\/500-helen-street","addr:housenumber":"500","contact:facebook":"https:\/\/www.facebook.com\/asda\/"}}, "geometry":{"type":"Polygon","coordinates":[[[ -4.32153,55.85294],[-4.32183,55.85232],[-4.32216,55.85237],[-4.32221,55.85226],[-4.32338,55.85244],[-4.32333,55.85253],[-4.32371,55.85259],[-4.32339,55.85323],[-4.32325,55.8532],[-4.32321,55.85329],[-4.32286,55.85323],[-4.32275,55.85317],[-4.32256,55.85328],[-4.32234,55.85315],[-4.32235,55.8531],[-4.32226,55.85306],[-4.32227,55.85305],[-4.32153,55.85294]] ]}},
{ "type":"Feature","properties":{"osm_way_id":"130877736","name":"Lidl","building":"yes","shop":"supermarket","other":{"addr:country":"GB","addr:housenumber":"2","addr:postcode":"G21 1YL","addr:street":"Cobden Road","brand":"Lidl","brand:wikidata":"Q151954","brand:wikipedia":"en:Lidl","fhrs:id":"87819"}}, "geometry":{"type":"Polygon","coordinates":[[[ -4.23169,55.87452],[-4.23174,55.87478],[-4.23131,55.87481],[-4.23121,55.87437],[-4.2317,55.87434],[-4.23173,55.87452],[-4.2317,55.87452],[-4.23169,55.87452]] ]}},
{ "type":"Feature","properties":{"osm_way_id":"132741027","name":"Co-op Food","building":"yes","shop":"supermarket","other":{"brand":"Co-op Food","brand:wikidata":"Q3277439","brand:wikipedia":"en:Co-op Food","building:levels":"2","operator":"The Co-operative Group"}}, "geometry":{"type":"Polygon","coordinates":[[[ -4.25182,55.84865],[-4.25141,55.84915],[-4.25085,55.84885],[-4.25115,55.84848],[-4.25182,55.84865]] ]}},
{ "type":"Feature","properties":{"osm_way_id":"132882610","name":"Aldi","building":"yes","shop":"supermarket","other":{"addr:city":"Glasgow","addr:housenumber":"J24","addr:postcode":"G51 3HR","addr:street":"Retail Park","brand":"Aldi","opening_hours":"Mo-Sa 08:00-22:00; Su 09:00-20:00"}}, "geometry":{"type":"Polygon","coordinates":[[[ -4.32028,55.85295],[-4.32012,55.8534],[-4.31992,55.85338],[-4.31984,55.85358],[-4.31953,55.85354],[-4.31977,55.8529],[-4.32028,55.85295]] ]}},
{ "type":"Feature","properties":{"osm_way_id":"133174306","name":"Lidl","building":"yes","shop":"supermarket","other":{"addr:country":"GB","addr:housenumber":"19","addr:postcode":"G51 4QL","addr:street":"Moss Road","brand":"Lidl","brand:wikidata":"Q151954","brand:wikipedia":"en:Lidl","fhrs:id":"121422"}}, "geometry":{"type":"Polygon","coordinates":[[[ -4.33415,55.86355],[-4.334,55.86379],[-4.33328,55.86365],[-4.33343,55.86341],[-4.33415,55.86355]] ]}},
{ "type":"Feature","properties":{"osm_way_id":"144136896","name":"Morrisons","building":"yes","shop":"supermarket","other":{"brand":"Morrisons","brand:wikidata":"Q922344","brand:wikipedia":"en:Morrisons","opening_hours":"Su 09:00-20:00;Mo-Sa 08:00-22:00"}}, "geometry":{"type":"Polygon","coordinates":[[[ -4.23334,55.85633],[-4.23334,55.85639],[-4.23314,55.85639],[-4.2331,55.85604],[-4.23315,55.85604],[-4.23314,55.8558],[-4.23421,55.85577],[-4.23425,55.85607],[-4.23427,55.85608],[-4.23443,55.85608],[-4.23443,55.85617],[-4.23426,55.85618],[-4.23426,55.85623],[-4.23414,55.85623],[-4.23414,55.85631],[-4.23334,55.85633]] ]}},
{ "type":"Feature","properties":{"osm_way_id":"156336654","name":"Lidl","building":"commercial","shop":"supermarket","other":{"addr:city":"Glasgow","addr:housenumber":"300","addr:postcode":"G42 7RW","addr:street":"Victoria Road","brand":"Lidl","brand:wikidata":"Q151954","brand:wikipedia":"en:Lidl","fhrs:id":"315893","source:addr":"FHRS Open Data"}}, "geometry":{"type":"Polygon","coordinates":[[[ -4.26475,55.83931],[-4.26401,55.83923],[-4.26414,55.83889],[-4.2642,55.8389],[-4.26442,55.83892],[-4.26489,55.83898],[-4.26487,55.83903],[-4.26475,55.83931]] ]}},
{ "type":"Feature","properties":{"osm_way_id":"184020645","name":"Morrisons","building":"retail","shop":"supermarket","other":{"addr:housenumber":"117","addr:postcode":"G43 1PU","addr:street":"Riverford Road","brand":"Morrisons","brand:wikidata":"Q922344","brand:wikipedia":"en:Morrisons","building:levels":"2","opening_hours":"Mo-Sa 07:00-22:00; Su 08:00-20:00","roof:levels":"0","roof:shape":"double_saltbox","wheelchair":"yes"}}, "geometry":{"type":"Polygon","coordinates":[[[ -4.29022,55.82334],[-4.28988,55.82345],[-4.29009,55.82366],[-4.2897,55.82381],[-4.28977,55.82388],[-4.28943,55.82398],[-4.28883,55.82342],[-4.28882,55.82341],[-4.28877,55.82336],[-4.28867,55.82328],[-4.28864,55.82325],[-4.28879,55.8232],[-4.28956,55.82294],[-4.28962,55.82292],[-4.28965,55.82291],[-4.28974,55.82289],[-4.29022,55.82334]] ]}},
{ "type":"Feature","properties":{"osm_way_id":"184020837","name":"Morrisons","building":"yes","shop":"supermarket","other":{"brand":"Morrisons","addr:street":"Titwood Road","addr:postcode":"G41 4DA","brand:wikidata":"Q922344","brand:wikipedia":"en:Morrisons"}}, "geometry":{"type":"Polygon","coordinates":[[[ -4.28631,55.83402],[-4.28624,55.83405],[-4.28624,55.83407],[-4.28613,55.8341],[-4.28608,55.83409],[-4.286,55.83412],[-4.28596,55.83409],[-4.28583,55.83412],[-4.28522,55.83411],[-4.28503,55.83392],[-4.28507,55.83385],[-4.28578,55.8336],[-4.28606,55.83386],[-4.28613,55.83384],[-4.28631,55.83402]] ]}},
{ "type":"Feature","properties":{"osm_way_id":"184021394","name":"Lidl","building":"retail","shop":"supermarket","other":{"addr:country":"GB","addr:housenumber":"32","addr:postcode":"G43 1QD","addr:street":"Riverford Road","brand":"Lidl","brand:wikidata":"Q151954","brand:wikipedia":"en:Lidl","building:levels":"1","fhrs:id":"127299","opening_hours":"Mo-Su 08:00-21:00","roof:levels":"0"}}, "geometry":{"type":"Polygon","coordinates":[[[ -4.29401,55.82338],[-4.29413,55.82352],[-4.29367,55.82365],[-4.29371,55.8237],[-4.29362,55.82372],[-4.29344,55.82377],[-4.29321,55.82352],[-4.29444,55.82316],[-4.29451,55.82324],[-4.29448,55.82324],[-4.29445,55.82325],[-4.29401,55.82338]] ]}},
{ "type":"Feature","properties":{"osm_way_id":"194012488","name":"ALDI","building":"yes","shop":"supermarket","other":{"addr:city":"Glasgow","addr:housenumber":"1305","addr:street":"Shettleston Road","brand":"ALDI","brand:wikidata":"Q41171672","brand:wikipedia":"en:Aldi"}}, "geometry":{"type":"Polygon","coordinates":[[[ -4.16167,55.85212],[-4.16162,55.85218],[-4.16162,55.85218],[-4.16146,55.85215],[-4.16144,55.85215],[-4.16128,55.85212],[-4.16128,55.85212],[-4.1613,55.85208],[-4.16112,55.85205],[-4.16104,55.85202],[-4.16109,55.85196],[-4.16114,55.85197],[-4.1613,55.85178],[-4.16134,55.8518],[-4.16159,55.85187],[-4.16202,55.85198],[-4.16186,55.85217],[-4.16167,55.85212]] ]}},
{ "type":"Feature","properties":{"osm_way_id":"203932795","name":"Lidl","building":"yes","shop":"supermarket","other":{"addr:city":"Glasgow","addr:housenumber":"10","addr:postcode":"G22 6AR","addr:street":"Stronend Street","brand":"Lidl","brand:wikidata":"Q151954","brand:wikipedia":"en:Lidl","fhrs:id":"18784"}}, "geometry":{"type":"Polygon","coordinates":[[[ -4.25751,55.88569],[-4.25827,55.88564],[-4.25836,55.88563],[-4.25839,55.88578],[-4.25848,55.88577],[-4.2585,55.88587],[-4.25727,55.88595],[-4.25726,55.88589],[-4.25721,55.88567],[-4.2575,55.88565],[-4.25751,55.88569]] ]}},
{ "type":"Feature","properties":{"osm_way_id":"224270831","name":"Lidl","building":"yes","shop":"supermarket","other":{"addr:country":"GB","addr:housenumber":"707","addr:postcode":"G53 7TA","addr:street":"Crookston Road","brand":"Lidl","brand:wikidata":"Q151954","fhrs:id":"91380"}}, "geometry":{"type":"Polygon","coordinates":[[[ -4.3624,55.83067],[-4.36285,55.8307],[-4.36282,55.8309],[-4.36291,55.8309],[-4.3629,55.83096],[-4.36281,55.83096],[-4.36279,55.83114],[-4.36233,55.83112],[-4.3624,55.83067]] ]}},
{ "type":"Feature","properties":{"osm_way_id":"225954946","name":"Aldi","building":"yes","shop":"supermarket","other":{"brand":"ALDI","brand:wikidata":"Q41171672","brand:wikipedia":"en:Aldi"}}, "geometry":{"type":"Polygon","coordinates":[[[ -4.1994,55.89789],[-4.19906,55.89802],[-4.19896,55.89801],[-4.19847,55.8976],[-4.19865,55.89753],[-4.19869,55.89756],[-4.19879,55.89752],[-4.19885,55.8975],[-4.1992,55.89779],[-4.19926,55.89777],[-4.1994,55.89789]] ]}},
{ "type":"Feature","properties":{"osm_way_id":"232707764","name":"M&S Simply Food","shop":"supermarket","other":{"brand":"M&S Simply Food","addr:street":"Crow Road","addr:postcode":"G11 7RY","addr:housename":"West End Retail Park","brand:wikidata":"Q714491","brand:wikipedia":"en:Marks & Spencer"}}, "geometry":{"type":"Polygon","coordinates":[[[ -4.31214,55.87144],[-4.31213,55.87141],[-4.31249,55.87136],[-4.31263,55.87169],[-4.31227,55.87174],[-4.31214,55.87144]] ]}},
{ "type":"Feature","properties":{"osm_way_id":"390017117","name":"Lidl","building":"supermarket","shop":"supermarket","other":{"addr:country":"GB","addr:housenumber":"585","addr:postcode":"G53 7RZ","addr:street":"Nitshill Road","brand":"Lidl","brand:wikidata":"Q151954","brand:wikipedia":"en:Lidl","fhrs:id":"123487","wheelchair":"yes"}}, "geometry":{"type":"Polygon","coordinates":[[[ -4.3543,55.81168],[-4.35371,55.81203],[-4.35363,55.81199],[-4.35368,55.81196],[-4.35345,55.81184],[-4.35358,55.81175],[-4.35378,55.81163],[-4.35373,55.81161],[-4.35393,55.81148],[-4.3543,55.81168]] ]}},
{ "type":"Feature","properties":{"osm_way_id":"395670070","name":"M&S Foodhall","building":"supermarket","shop":"supermarket","other":{"addr:city":"Glasgow","addr:housename":"Marks & Spencer","addr:housenumber":"8","addr:postcode":"G13 2TG","addr:street":"Knightscliffe Avenue","brand":"M&S Foodhall","brand:wikidata":"Q714491","brand:wikipedia":"en:Marks & Spencer","building:levels":"1","fhrs:id":"1100929","opening_hours":"Mo-Sa 08:00-20:00; Su 09:00-18:00; PH 10:00-18:00","source:addr":"FHRS Open Data"}}, "geometry":{"type":"Polygon","coordinates":[[[ -4.33339,55.89409],[-4.33354,55.89456],[-4.33316,55.89459],[-4.33307,55.89431],[-4.33284,55.89434],[-4.33279,55.89416],[-4.33339,55.89409]] ]}},
{ "type":"Feature","properties":{"osm_way_id":"395670091","name":"Aldi","building":"retail","shop":"supermarket","other":{"addr:city":"Glasgow","addr:housenumber":"4","addr:postcode":"G13 2TG","addr:street":"Knightscliffe Avenue","brand":"ALDI","brand:wikidata":"Q41171672","brand:wikipedia":"en:Aldi","fhrs:id":"30924","source:addr":"FHRS Open Data"}}, "geometry":{"type":"Polygon","coordinates":[[[ -4.33262,55.89417],[-4.33252,55.8939],[-4.33307,55.89384],[-4.33306,55.89382],[-4.33336,55.89378],[-4.33347,55.89408],[-4.33339,55.89409],[-4.33279,55.89416],[-4.33262,55.89417]] ]}},
{ "type":"Feature","properties":{"osm_way_id":"625318059","name":"The Food Warehouse","building":"yes","shop":"supermarket","other":{"brand":"The Food Warehouse","operator":"The Food Warehouse","roof:levels":"0","brand:wikidata":"Q87263899","building:levels":"1"}}, "geometry":{"type":"Polygon","coordinates":[[[ -4.29786,55.82043],[-4.29755,55.82058],[-4.29682,55.82009],[-4.29713,55.81995],[-4.29736,55.82009],[-4.29738,55.82011],[-4.29786,55.82043]] ]}},
{ "type":"Feature","properties":{"osm_way_id":"701132887","name":"Aldi","building":"yes","shop":"supermarket","other":{"brand":"ALDI","brand:wikidata":"Q41171672","brand:wikipedia":"en:Aldi"}}, "geometry":{"type":"Polygon","coordinates":[[[ -4.35399,55.8461],[-4.35364,55.84612],[-4.35361,55.84615],[-4.3534,55.84615],[-4.35348,55.846],[-4.35409,55.84598],[-4.35399,55.8461]] ]}},
{ "type":"Feature","properties":{"osm_way_id":"853036243","name":"Lidl","building":"yes","shop":"supermarket","other":{"brand":"Lidl","brand:wikidata":"Q151954","brand:wikipedia":"en:Lidl"}}, "geometry":{"type":"Polygon","coordinates":[[[ -4.38579,55.89139],[-4.38626,55.89159],[-4.38603,55.89175],[-4.38596,55.89172],[-4.38547,55.89208],[-4.38519,55.89196],[-4.38514,55.892],[-4.38502,55.89195],[-4.38579,55.89139]] ]}},
{ "type":"Feature","properties":{"osm_way_id":"854360014","name":"Co-op Food","building":"yes","shop":"supermarket","other":{"brand":"Co-op Food","brand:wikidata":"Q3277439","brand:wikipedia":"en:Co-op Food"}}, "geometry":{"type":"Polygon","coordinates":[[[ -4.2444,55.81108],[-4.24395,55.81114],[-4.2439,55.81097],[-4.24387,55.81085],[-4.24385,55.81075],[-4.24424,55.8107],[-4.2444,55.81108]] ]}},
{ "type":"Feature","properties":{"osm_way_id":"927290238","name":"Co-op Food","building":"retail","shop":"supermarket"},"geometry":{"type":"Polygon","coordinates":[[[ -4.33913,55.83151],[-4.33904,55.83151],[-4.33904,55.83153],[-4.33896,55.83153],[-4.33896,55.83145],[-4.33896,55.83143],[-4.33913,55.83143],[-4.33913,55.83151]] ]}},
{ "type":"Feature","properties":{"osm_way_id":"1022894441","name":"Spar","building":"yes","shop":"supermarket","other":{"brand":"Spar","brand:wikidata":"Q610492","brand:wikipedia":"en:SPAR (retailer)"}}, "geometry":{"type":"Polygon","coordinates":[[[ -4.30592,55.85284],[-4.30614,55.85288],[-4.30621,55.8529],[-4.30615,55.853],[-4.30587,55.85294],[-4.30586,55.85292],[-4.30592,55.85284]] ]}}
]
}
