{
"type": "FeatureCollection",
"features": [
{ "type":"Feature","properties":{"osm_id":"4713306407","name":"Birkmyre Stores","other":{"shop":"supermarket"}}, "geometry":{"type":"Point","coordinates":[-4.70393,55.93371 ]}},
{ "type":"Feature","properties":{"osm_id":"5645772254","name":"Aldi","other":{"brand":"ALDI","brand:wikidata":"Q41171672","brand:wikipedia":"en:Aldi","shop":"supermarket"}}, "geometry":{"type":"Point","coordinates":[-4.69906,55.93659 ]}},
{ "type":"Feature","properties":{"osm_way_id":"118607585","name":"Tesco Extra","building":"yes","shop":"supermarket","other":{"brand":"Tesco Extra","operator":"Tesco plc","addr:city":"Port Glasgow","addr:street":"Greenock Road","addr:postcode":"PA14 5BP","opening_hours":"24\/7","brand:wikidata":"Q25172225","brand:wikipedia":"en:Tesco Extra"}}, "geometry":{"type":"Polygon","coordinates":[[[ -4.69669,55.9355],[-4.69601,55.93638],[-4.69421,55.93595],[-4.69479,55.93519],[-4.69591,55.93546],[-4.69601,55.93533],[-4.69669,55.9355]] ]}},
{ "type":"Feature","properties":{"osm_way_id":"275935433","name":"Tesco Extra","building":"yes","shop":"supermarket","other":{"addr:city":"Greenock","addr:housenumber":"180","addr:postcode":"PA15 1LE","addr:street":"Dalrymple Street","brand":"Tesco Extra","brand:wikidata":"Q25172225","brand:wikipedia":"en:Tesco Extra","fhrs:id":"138","operator":"Tesco","source:addr":"FHRS Open Data","website":"https:\/\/www.tesco.com\/store-locator\/greenock\/dalrymple-street","wheelchair":"yes"}}, "geometry":{"type":"Polygon","coordinates":[[[ -4.75773,55.95017],[-4.75767,55.95013],[-4.75764,55.95015],[-4.75755,55.95009],[-4.75758,55.95007],[-4.75719,55.94981],[-4.75715,55.94983],[-4.75709,55.94979],[-4.75713,55.94977],[-4.75665,55.94946],[-4.75684,55.94937],[-4.757,55.94943],[-4.7572,55.94926],[-4.75736,55.94919],[-4.75733,55.94917],[-4.75731,55.94918],[-4.75719,55.94911],[-4.75704,55.94918],[-4.75696,55.94913],[-4.75714,55.94905],[-4.75712,55.94903],[-4.75717,55.94902],[-4.75724,55.94902],[-4.7573,55.94902],[-4.75735,55.94903],[-4.75742,55.94908],[-4.75744,55.94907],[-4.75756,55.94915],[-4.75761,55.94913],[-4.75858,55.94977],[-4.75773,55.95017]] ]}},
{ "type":"Feature","properties":{"osm_way_id":"390017110","name":"Lidl","building":"supermarket","shop":"supermarket","other":{"addr:country":"GB","addr:housenumber":"1","addr:postcode":"PA15 1EG","addr:street":"Customhouse Way","brand":"Lidl","brand:wikidata":"Q151954","brand:wikipedia":"en:Lidl","fhrs:id":"345","wheelchair":"yes"}}, "geometry":{"type":"Polygon","coordinates":[[[ -4.75352,55.94861],[-4.75307,55.94839],[-4.75373,55.94798],[-4.75418,55.9482],[-4.75352,55.94861]] ]}},
{ "type":"Feature","properties":{"osm_way_id":"390017112","name":"Lidl","building":"supermarket","shop":"supermarket","other":{"addr:country":"GB","addr:housenumber":"1","addr:postcode":"PA14 5PE","addr:street":"Newark Street","brand":"Lidl","brand:wikidata":"Q151954","fhrs:id":"446","wheelchair":"yes"}}, "geometry":{"type":"Polygon","coordinates":[[[ -4.67999,55.93275],[-4.68018,55.93248],[-4.68125,55.93273],[-4.68119,55.93281],[-4.68109,55.93279],[-4.68099,55.93293],[-4.68029,55.93277],[-4.68026,55.93281],[-4.67999,55.93275]] ]}},
{ "type":"Feature","properties":{"osm_way_id":"477765174","name":"Morrisons","building":"yes","shop":"supermarket","other":{"brand":"Morrisons","operator":"Morrisons","brand:wikidata":"Q922344","brand:wikipedia":"en:Morrisons"}}, "geometry":{"type":"Polygon","coordinates":[[[ -4.75092,55.94617],[-4.75017,55.94561],[-4.7509,55.94531],[-4.75164,55.94587],[-4.75092,55.94617]] ]}},
{ "type":"Feature","properties":{"osm_way_id":"609795220","name":"Co-op Food","building":"yes","shop":"supermarket","other":{"addr:housename":"Co-Op Eldon Street","brand":"Co-op Food","brand:wikidata":"Q3277439","brand:wikipedia":"en:Co-op Food","operator":"The Co-operative Group","operator:wikidata":"Q117202","operator:wikipedia":"en:The Co-operative Group"}}, "geometry":{"type":"Polygon","coordinates":[[[ -4.77239,55.95771],[-4.77212,55.95757],[-4.7723,55.95747],[-4.77257,55.95761],[-4.77239,55.95771]] ]}},
{ "type":"Feature","properties":{"osm_way_id":"728011874","name":"Aldi","building":"yes","shop":"supermarket","other":{"addr:street":"Patrick Street","brand":"ALDI","brand:wikidata":"Q41171672","brand:wikipedia":"en:Aldi","name:en":"Aldi","opening_hours":"Mo-Sa 08:00-22:00; Su 09:00-20:00"}}, "geometry":{"type":"Polygon","coordinates":[[[ -4.76367,55.95351],[-4.76342,55.95357],[-4.76346,55.95362],[-4.76331,55.95365],[-4.76289,55.95314],[-4.7633,55.95304],[-4.76333,55.95303],[-4.76348,55.95323],[-4.76345,55.95323],[-4.76367,55.95351]] ]}}
]
}
