{
"type": "FeatureCollection",
"features": [
{ "type":"Feature","properties":{"osm_id":"529460505","name":"Co-op Food","other":{"brand":"Co-op Food","brand:wikidata":"Q3277439","brand:wikipedia":"en:Co-op Food","shop":"supermarket"}}, "geometry":{"type":"Point","coordinates":[-4.57884,55.85728 ]}},
{ "type":"Feature","properties":{"osm_id":"836426964","name":"Co-op","other":{"shop":"supermarket","fhrs:id":"130134","operator":"The Co-operative Group","addr:city":"Paisley","addr:street":"Neilston Road","addr:postcode":"PA2 6NE","addr:housenumber":"60"}}, "geometry":{"type":"Point","coordinates":[-4.42362,55.8354 ]}},
{ "type":"Feature","properties":{"osm_id":"8850636125","name":"Co-op Food","other":{"brand":"Co-op Food","brand:wikidata":"Q3277439","brand:wikipedia":"en:Co-op Food","shop":"supermarket"}}, "geometry":{"type":"Point","coordinates":[-4.54116,55.86361 ]}},
{ "type":"Feature","properties":{"osm_way_id":"22569524","name":"Sainsbury's","building":"retail","shop":"supermarket","other":{"brand":"Sainsbury's","addr:street":"Kings Inch Drive","addr:postcode":"G51 4BT","brand:wikidata":"Q152096","brand:wikipedia":"en:Sainsbury's","addr:housenumber":"110"}}, "geometry":{"type":"Polygon","coordinates":[[[ -4.35759,55.87328],[-4.35684,55.87332],[-4.35686,55.87336],[-4.35688,55.87335],[-4.35701,55.87334],[-4.35703,55.87342],[-4.35697,55.87342],[-4.35682,55.87349],[-4.35672,55.87342],[-4.35669,55.87344],[-4.35654,55.87334],[-4.35646,55.87334],[-4.35623,55.8721],[-4.35737,55.87203],[-4.35759,55.87328]] ]}},
{ "type":"Feature","properties":{"osm_way_id":"54691165","name":"Morrisons","building":"yes","shop":"supermarket","other":{"addr:city":"Paisley","addr:street":"Falside Road","brand":"Morrisons","brand:wikidata":"Q922344","brand:wikipedia":"en:Morrisons","wheelchair":"yes"}}, "geometry":{"type":"Polygon","coordinates":[[[ -4.42405,55.82989],[-4.42384,55.82985],[-4.42375,55.83002],[-4.42285,55.82986],[-4.42311,55.82932],[-4.42413,55.82951],[-4.42414,55.82977],[-4.42405,55.82989]] ]}},
{ "type":"Feature","properties":{"osm_way_id":"54691166","name":"Morrisons","building":"yes","shop":"supermarket","other":{"brand":"Morrisons","brand:wikidata":"Q922344","brand:wikipedia":"en:Morrisons"}}, "geometry":{"type":"Polygon","coordinates":[[[ -4.41513,55.84144],[-4.41516,55.84153],[-4.41509,55.84154],[-4.41525,55.842],[-4.41533,55.84199],[-4.41535,55.84204],[-4.41509,55.84207],[-4.41512,55.84216],[-4.41455,55.84222],[-4.41417,55.84227],[-4.41412,55.84213],[-4.41386,55.84216],[-4.41368,55.84167],[-4.41394,55.84164],[-4.41392,55.84156],[-4.41422,55.84153],[-4.41423,55.84157],[-4.4144,55.84156],[-4.41439,55.84152],[-4.41478,55.84148],[-4.41479,55.84151],[-4.41496,55.84149],[-4.41495,55.84146],[-4.41513,55.84144]] ]}},
{ "type":"Feature","properties":{"osm_way_id":"104876837","name":"Morrisons","building":"yes","shop":"supermarket","other":{"brand":"Morrisons","is_in":"Johnstone","alt_name":"Morrisons Johnstone","addr:street":"Napier Street","addr:postcode":"PA5 8SF","brand:wikidata":"Q922344","brand:wikipedia":"en:Morrisons","addr:housenumber":"30"}}, "geometry":{"type":"Polygon","coordinates":[[[ -4.51397,55.83934],[-4.5131,55.83957],[-4.51318,55.83967],[-4.51295,55.83973],[-4.51285,55.83961],[-4.51269,55.83966],[-4.51259,55.83954],[-4.51272,55.83951],[-4.51265,55.83942],[-4.51288,55.83937],[-4.51256,55.83898],[-4.5132,55.83881],[-4.51317,55.83876],[-4.51337,55.83871],[-4.51359,55.83865],[-4.51406,55.83921],[-4.51411,55.8392],[-4.51422,55.83932],[-4.51401,55.83938],[-4.51397,55.83934]] ]}},
{ "type":"Feature","properties":{"osm_way_id":"118265922","name":"Tesco","building":"yes","shop":"supermarket","other":{"addr:postcode":"PA4 0NQ","addr:street":"Newmains Road","brand":"Tesco","brand:wikidata":"Q487494","brand:wikipedia":"en:Tesco"}}, "geometry":{"type":"Polygon","coordinates":[[[ -4.38548,55.86782],[-4.38466,55.86764],[-4.38461,55.86771],[-4.38425,55.86763],[-4.38461,55.86713],[-4.38578,55.86739],[-4.38548,55.86782]] ]}},
{ "type":"Feature","properties":{"osm_way_id":"118328532","name":"Morrisons","building":"yes","shop":"supermarket","other":{"brand":"Morrisons","brand:wikidata":"Q922344","brand:wikipedia":"en:Morrisons"}}, "geometry":{"type":"Polygon","coordinates":[[[ -4.4507,55.90435],[-4.45026,55.90409],[-4.45022,55.90411],[-4.45006,55.90401],[-4.45003,55.90402],[-4.44983,55.9039],[-4.44991,55.90385],[-4.44994,55.90387],[-4.45063,55.90351],[-4.4514,55.90399],[-4.4507,55.90435]] ]}},
{ "type":"Feature","properties":{"osm_way_id":"132516098","name":"Tesco","building":"yes","shop":"supermarket","other":{"brand":"Tesco","brand:wikidata":"Q487494","brand:wikipedia":"en:Tesco"}}, "geometry":{"type":"Polygon","coordinates":[[[ -4.40457,55.84614],[-4.4035,55.84614],[-4.4035,55.84572],[-4.40457,55.84572],[-4.40457,55.84614]] ]}},
{ "type":"Feature","properties":{"osm_way_id":"160727050","name":"Asda","building":"supermarket","shop":"supermarket","other":{"addr:city":"Paisley","addr:country":"GB","addr:housename":"Phoenix Retail Park","addr:postcode":"PA1 2AB","addr:street":"Griffin Avenue","addr:unit":"4","brand":"Asda","brand:wikidata":"Q297410","brand:wikipedia":"en:Asda","contact:facebook":"https:\/\/www.facebook.com\/asda\/","contact:twitter":"@asda","contact:website":"https:\/\/storelocator.asda.com\/scotland\/paisley\/phoenix-retail-park","fhrs:id":"114682","operator":"Asda Stores Ltd"}}, "geometry":{"type":"Polygon","coordinates":[[[ -4.46926,55.8433],[-4.46904,55.84321],[-4.46892,55.84329],[-4.46833,55.84303],[-4.46846,55.84295],[-4.46826,55.84286],[-4.46834,55.8428],[-4.46822,55.84274],[-4.46832,55.84267],[-4.46824,55.84263],[-4.46861,55.84237],[-4.46881,55.84246],[-4.46885,55.84243],[-4.46853,55.84229],[-4.46876,55.84212],[-4.46914,55.84229],[-4.46936,55.84213],[-4.47009,55.84245],[-4.46964,55.84277],[-4.46987,55.84287],[-4.46926,55.8433]] ]}},
{ "type":"Feature","properties":{"osm_way_id":"160728687","name":"Aldi","building":"supermarket","shop":"supermarket","other":{"brand":"ALDI","brand:wikidata":"Q41171672","brand:wikipedia":"en:Aldi"}}, "geometry":{"type":"Polygon","coordinates":[[[ -4.46285,55.83895],[-4.46203,55.83886],[-4.46213,55.83857],[-4.46284,55.83865],[-4.46304,55.83867],[-4.46299,55.8388],[-4.46291,55.83879],[-4.46285,55.83895]] ]}},
{ "type":"Feature","properties":{"osm_way_id":"228709930","name":"Aldi","building":"yes","shop":"supermarket","other":{"addr:housenumber":"41","addr:postcode":"PA4 8QP","addr:street":"High Street","brand":"ALDI","brand:wikidata":"Q41171672","brand:wikipedia":"en:Aldi","building:levels":"1"}}, "geometry":{"type":"Polygon","coordinates":[[[ -4.38601,55.87864],[-4.38574,55.87878],[-4.38523,55.87903],[-4.38506,55.87892],[-4.38514,55.87888],[-4.38491,55.87873],[-4.3856,55.87839],[-4.38601,55.87864]] ]}},
{ "type":"Feature","properties":{"osm_way_id":"257357212","name":"ALDI","building":"yes","shop":"supermarket","other":{"brand":"ALDI","brand:wikidata":"Q41171672","brand:wikipedia":"en:Aldi"}}, "geometry":{"type":"Polygon","coordinates":[[[ -4.44882,55.90417],[-4.44911,55.90403],[-4.44953,55.9043],[-4.44897,55.90458],[-4.44862,55.90436],[-4.44851,55.90441],[-4.44843,55.90436],[-4.44882,55.90417]] ]}},
{ "type":"Feature","properties":{"osm_way_id":"314618964","name":"Lidl","building":"yes","shop":"supermarket","other":{"addr:country":"GB","addr:housenumber":"10","addr:postcode":"PA5 8JX","addr:street":"High Street","alt_name":"LIDL Johnstone","brand":"Lidl","brand:wikidata":"Q151954","brand:wikipedia":"en:Lidl","fhrs:id":"138584"}}, "geometry":{"type":"Polygon","coordinates":[[[ -4.50829,55.8367],[-4.50807,55.83666],[-4.50809,55.83661],[-4.50787,55.83657],[-4.50804,55.83628],[-4.50797,55.83627],[-4.50807,55.83608],[-4.50858,55.83617],[-4.50831,55.83665],[-4.50829,55.8367]] ]}},
{ "type":"Feature","properties":{"osm_way_id":"577312726","name":"Aldi","building":"yes","shop":"supermarket","other":{"brand":"ALDI","brand:wikidata":"Q41171672","brand:wikipedia":"en:Aldi"}}, "geometry":{"type":"Polygon","coordinates":[[[ -4.42163,55.83026],[-4.42073,55.8304],[-4.42061,55.83015],[-4.42151,55.83001],[-4.42163,55.83026]] ]}},
{ "type":"Feature","properties":{"osm_way_id":"577312745","name":"Tesco","building":"yes","shop":"supermarket","other":{"addr:city":"Linwood","brand":"Tesco","brand:wikidata":"Q487494","brand:wikipedia":"en:Tesco"}}, "geometry":{"type":"Polygon","coordinates":[[[ -4.49104,55.84787],[-4.48971,55.84856],[-4.48895,55.84809],[-4.49064,55.84722],[-4.49109,55.8475],[-4.49073,55.84768],[-4.49104,55.84787]] ]}},
{ "type":"Feature","properties":{"osm_way_id":"723180695","name":"Co-op Food","building":"yes","shop":"supermarket","other":{"brand":"Co-op Food","brand:wikidata":"Q3277439","brand:wikipedia":"en:Co-op Food"}}, "geometry":{"type":"Polygon","coordinates":[[[ -4.50989,55.90968],[-4.50956,55.90957],[-4.50972,55.90941],[-4.51006,55.90953],[-4.50989,55.90968]] ]}},
{ "type":"Feature","properties":{"osm_way_id":"791541127","name":"Lidl","building":"yes","shop":"supermarket","other":{"addr:country":"GB","addr:housenumber":"1","addr:postcode":"PA3 4BF","addr:street":"Wallneuk Road","addr:unit":"3","brand":"Lidl","brand:wikidata":"Q151954","brand:wikipedia":"en:Lidl","fhrs:id":"1252404"}}, "geometry":{"type":"Polygon","coordinates":[[[ -4.41772,55.84959],[-4.41709,55.84957],[-4.41709,55.84952],[-4.41717,55.84952],[-4.41717,55.84942],[-4.41725,55.84942],[-4.41729,55.84891],[-4.41785,55.84893],[-4.41784,55.84912],[-4.41776,55.84912],[-4.41772,55.84959]] ]}}
]
}
