{
"type": "FeatureCollection",
"features": [
{ "type":"Feature","properties":{"osm_id":"444024926","name":"Co-Operative","other":{"shop":"supermarket"}}, "geometry":{"type":"Point","coordinates":[-4.05089,54.83767 ]}},
{ "type":"Feature","properties":{"osm_id":"1637749432","name":"Nisa","other":{"shop":"supermarket","brand":"Nisa","addr:city":"Dumfries","addr:street":"Calside Road","addr:postcode":"DG1 4HA","opening_hours":"Mo-Su 06:00-21:00","brand:wikidata":"Q16999069","brand:wikipedia":"en:Nisa (retailer)","addr:housenumber":"43"}}, "geometry":{"type":"Point","coordinates":[-3.58284,55.06214 ]}},
{ "type":"Feature","properties":{"osm_id":"4058088826","name":"Co-op Food","other":{"shop":"supermarket","brand":"Co-op Food","brand:wikidata":"Q3277439","brand:wikipedia":"en:Co-op Food"}}, "geometry":{"type":"Point","coordinates":[-3.92375,55.36779 ]}},
{ "type":"Feature","properties":{"osm_id":"7104754542","name":"Loch Arthur Farm Shop","other":{"shop":"supermarket","organic":"only","operator":"Loch Arthur Camphill Community","addr:city":"Beeswing","description":"Organic and locally produced foods: Artisan cheeses and dairy products; Breads and rolls baked fresh daily in the bakery; Organic meats from our own and locally reared animals; Extensive range of organic fruit and vegetables; Cakes, pies, biscuits,...","addr:postcode":"DG2 8JQ","opening_hours":"Mo-Fr 09:00-17:30, Sa 09:00-17:00","addr:housename":"Loch Arthur Farm Shop"}}, "geometry":{"type":"Point","coordinates":[-3.72893,55.00379 ]}},
{ "type":"Feature","properties":{"osm_id":"8721584793","name":"Co-op Food - Kelloholm","other":{"shop":"supermarket"}}, "geometry":{"type":"Point","coordinates":[-3.99662,55.38208 ]}},
{ "type":"Feature","properties":{"osm_id":"8891846851","other":{"natural":"tree"}}, "geometry":{"type":"Point","coordinates":[-5.02288,54.89619 ]}},
{ "type":"Feature","properties":{"osm_id":"8891847048","other":{"natural":"tree"}}, "geometry":{"type":"Point","coordinates":[-5.02192,54.89681 ]}},
{ "type":"Feature","properties":{"osm_id":"8891847056","other":{"natural":"tree"}}, "geometry":{"type":"Point","coordinates":[-5.02263,54.89717 ]}},
{ "type":"Feature","properties":{"osm_id":"8891847061","other":{"natural":"tree"}}, "geometry":{"type":"Point","coordinates":[-5.02291,54.89735 ]}},
{ "type":"Feature","properties":{"osm_way_id":"97951683","name":"Tesco Extra","building":"yes","shop":"supermarket","other":{"addr:city":"Dumfries","addr:housename":"Cuckoo Bridge Retail Park","addr:postcode":"DG2 9BF","addr:street":"Glasgow Road","brand":"Tesco Extra","brand:wikidata":"Q25172225","brand:wikipedia":"en:Tesco Extra","designation":"Dumfries Extra","fhrs:id":"955101","opening_hours":"24\/7","operator":"Tesco","wheelchair":"yes"}}, "geometry":{"type":"MultiPolygon","coordinates":[[[[-3.62792,55.07507],[-3.62798,55.07532],[-3.62786,55.07533],[-3.62787,55.07536],[-3.62643,55.07548],[-3.62639,55.07533],[-3.6262,55.07457],[-3.62712,55.07449],[-3.62715,55.07465],[-3.62741,55.07463],[-3.62756,55.07519],[-3.62783,55.07517],[-3.62781,55.07507],[-3.62792,55.07507]]]]}},
{ "type":"Feature","properties":{"osm_way_id":"98147332","name":"Morrisons","building":"yes","shop":"supermarket","other":{"brand":"Morrisons","wheelchair":"yes","addr:street":"Brooms Road","designation":"Dumfries","addr:postcode":"DG1 2SH","brand:wikidata":"Q922344","brand:wikipedia":"en:Morrisons"}}, "geometry":{"type":"MultiPolygon","coordinates":[[[[-3.60127,55.06927],[-3.60136,55.06883],[-3.60144,55.0685],[-3.60125,55.06849],[-3.60127,55.0684],[-3.601,55.06838],[-3.60098,55.06846],[-3.60005,55.06839],[-3.6,55.06864],[-3.60025,55.06865],[-3.60021,55.06885],[-3.59996,55.06884],[-3.59992,55.06905],[-3.60018,55.06907],[-3.60015,55.0692],[-3.60051,55.06922],[-3.60127,55.06927]]]]}},
{ "type":"Feature","properties":{"osm_way_id":"98150802","name":"Lidl","building":"yes","shop":"supermarket","other":{"brand":"Lidl","operator":"Lidl","addr:street":"Brooms Road","designation":"Dumfries","addr:postcode":"DG1 2DZ","brand:wikidata":"Q151954","brand:wikipedia":"en:Lidl"}}, "geometry":{"type":"MultiPolygon","coordinates":[[[[-3.60296,55.0667],[-3.6038,55.06637],[-3.60357,55.06617],[-3.60273,55.06651],[-3.60296,55.0667]]]]}},
{ "type":"Feature","properties":{"osm_way_id":"119050070","name":"Co-op Food","building":"retail","shop":"supermarket","other":{"atm":"yes","brand":"Co-op Food","addr:city":"Castle Douglas","addr:street":"Cotton Street","designation":"Castle Douglas Superstore","addr:postcode":"DG7 1AN","opening_hours":"Mo-Su 07:00-22:00","brand:wikidata":"Q3277439","brand:wikipedia":"en:Co-op Food"}}, "geometry":{"type":"MultiPolygon","coordinates":[[[[-3.93242,54.94117],[-3.9327,54.94096],[-3.93209,54.94069],[-3.93175,54.94093],[-3.93219,54.94113],[-3.93224,54.9411],[-3.93242,54.94117]]]]}},
{ "type":"Feature","properties":{"osm_way_id":"166482606","name":"Morrisons","building":"yes","shop":"supermarket","other":{"brand":"Morrisons","brand:wikidata":"Q922344","brand:wikipedia":"en:Morrisons"}}, "geometry":{"type":"MultiPolygon","coordinates":[[[[-5.02163,54.90442],[-5.02158,54.90415],[-5.02174,54.90414],[-5.02169,54.9039],[-5.02159,54.90391],[-5.02159,54.90387],[-5.02109,54.9039],[-5.02109,54.90394],[-5.02069,54.90396],[-5.02076,54.90432],[-5.02078,54.90447],[-5.02102,54.90445],[-5.02105,54.90457],[-5.02121,54.90456],[-5.02121,54.90459],[-5.02133,54.90458],[-5.02132,54.90456],[-5.02144,54.90455],[-5.02143,54.9045],[-5.02147,54.9045],[-5.02146,54.90443],[-5.02163,54.90442]]]]}},
{ "type":"Feature","properties":{"osm_way_id":"173293973","name":"Co-op Food","building":"yes","shop":"supermarket","other":{"brand":"Co-op Food","alt_name":"The Co-operative Food","addr:street":"Glenesk Road","addr:postcode":"DG13 0ES","brand:wikidata":"Q3277439","brand:wikipedia":"en:Co-op Food"}}, "geometry":{"type":"MultiPolygon","coordinates":[[[[-2.99547,55.14642],[-2.99528,55.14663],[-2.99478,55.14647],[-2.99497,55.14627],[-2.99547,55.14642]]]]}},
{ "type":"Feature","properties":{"osm_way_id":"177947669","name":"Aldi","building":"yes","shop":"supermarket","other":{"addr:postcode":"DG12 5AN","addr:street":"Butts Street","brand":"ALDI","brand:wikidata":"Q41171672","brand:wikipedia":"en:Aldi","designation":"The Co-operative Food"}}, "geometry":{"type":"MultiPolygon","coordinates":[[[[-3.2593,54.98783],[-3.25937,54.98836],[-3.25879,54.98838],[-3.25878,54.9883],[-3.25883,54.9883],[-3.25877,54.98785],[-3.2593,54.98783]]]]}},
{ "type":"Feature","properties":{"osm_way_id":"189864456","name":"Tesco Metro","building":"retail","shop":"supermarket","other":{"addr:city":"Kirkcudbright","addr:housenumber":"52","addr:postcode":"DG6 4DZ","addr:street":"St Cuthbert's Street","brand":"Tesco Metro","brand:wikidata":"Q57551648","brand:wikipedia":"en:Tesco","contact:website":"https:\/\/www.tesco.com\/store-locator\/kirkcudbright\/52-st-cuthbert-st","fhrs:id":"876384","source:addr":"FHRS Open Data"}}, "geometry":{"type":"MultiPolygon","coordinates":[[[[-4.0481,54.83672],[-4.04758,54.83672],[-4.04758,54.83645],[-4.04777,54.83645],[-4.04776,54.83648],[-4.04792,54.83648],[-4.04792,54.83654],[-4.0481,54.83654],[-4.0481,54.83672]]]]}},
{ "type":"Feature","properties":{"osm_way_id":"206319926","name":"Tesco","building":"yes","shop":"supermarket","other":{"addr:postcode":"DG1 3PF","addr:street":"Lockerbie Road","brand":"Tesco","brand:wikidata":"Q487494","brand:wikipedia":"en:Tesco","designation":"Dumfries Peel Centre Superstore"}}, "geometry":{"type":"MultiPolygon","coordinates":[[[[-3.58264,55.07536],[-3.58173,55.07479],[-3.58102,55.07516],[-3.58087,55.07507],[-3.58069,55.07516],[-3.58175,55.07582],[-3.58264,55.07536]]]]}},
{ "type":"Feature","properties":{"osm_way_id":"206321739","name":"Aldi","building":"retail","shop":"supermarket","other":{"addr:postcode":"DG1 3HB","addr:street":"Annan Road","brand":"ALDI","brand:wikidata":"Q41171672","brand:wikipedia":"en:Aldi","designation":"Dumfries","operator":"Aldi"}}, "geometry":{"type":"MultiPolygon","coordinates":[[[[-3.58507,55.06975],[-3.58451,55.06966],[-3.5843,55.07012],[-3.58451,55.07015],[-3.58453,55.0701],[-3.58483,55.07015],[-3.58496,55.06986],[-3.58501,55.06987],[-3.58507,55.06975]]]]}},
{ "type":"Feature","properties":{"osm_way_id":"206322229","name":"Co-op","building":"yes","shop":"supermarket","other":{"addr:street":"Troqueer Road","addr:postcode":"DG2 7DF","addr:housename":"Troqueer Mount"}}, "geometry":{"type":"MultiPolygon","coordinates":[[[[-3.60832,55.06051],[-3.60821,55.06041],[-3.608,55.06048],[-3.60806,55.06053],[-3.60818,55.06049],[-3.60823,55.06054],[-3.60832,55.06051]]]]}},
{ "type":"Feature","properties":{"osm_way_id":"222703435","name":"Co-op","building":"yes","shop":"supermarket","other":{"addr:street":"Holme Street, Station Yard","addr:postcode":"DG10 9EP"}}, "geometry":{"type":"MultiPolygon","coordinates":[[[[-3.44377,55.32996],[-3.44372,55.32965],[-3.44343,55.32966],[-3.44348,55.33],[-3.44367,55.33],[-3.44366,55.32997],[-3.44377,55.32996]]]]}},
{ "type":"Feature","properties":{"osm_way_id":"222704635","name":"Tesco","building":"yes","shop":"supermarket","other":{"brand":"Tesco","addr:street":"Goods Station Road","designation":"Lockerbie Superstore","addr:postcode":"DG11 2DB","brand:wikidata":"Q487494","brand:wikipedia":"en:Tesco"}}, "geometry":{"type":"MultiPolygon","coordinates":[[[[-3.3542,55.12008],[-3.35371,55.11959],[-3.35363,55.11951],[-3.3535,55.11955],[-3.35313,55.11967],[-3.35317,55.11971],[-3.35299,55.11977],[-3.35313,55.11991],[-3.35306,55.11993],[-3.3531,55.11997],[-3.35344,55.12052],[-3.35353,55.12049],[-3.35345,55.12042],[-3.35402,55.12023],[-3.35407,55.12021],[-3.35399,55.12013],[-3.35411,55.12009],[-3.35413,55.12011],[-3.3542,55.12008]]]]}},
{ "type":"Feature","properties":{"osm_way_id":"222918775","name":"Sainsbury's","building":"yes","shop":"supermarket","other":{"brand":"Sainsbury's","branch":"Newton Stewart Superstore","addr:city":"Newton Stewart","addr:street":"Goods Lane","addr:postcode":"DG8 6EH","opening_hours":"Mo-Sa 08:00-21:00; Su 09:00-19:00","brand:wikidata":"Q152096","brand:wikipedia":"en:Sainsbury's"}}, "geometry":{"type":"MultiPolygon","coordinates":[[[[-4.48251,54.95627],[-4.48197,54.95613],[-4.48187,54.95625],[-4.48178,54.95623],[-4.48171,54.9563],[-4.48174,54.95631],[-4.48171,54.95635],[-4.48184,54.95639],[-4.48178,54.95646],[-4.48226,54.95658],[-4.48251,54.95627]]]]}},
{ "type":"Feature","properties":{"osm_way_id":"222918776","name":"The Co-operative Food","building":"yes","shop":"supermarket","other":{"addr:city":"Newton Stewart","addr:street":"Victoria Street","addr:postcode":"DG8 6NL","opening_hours":"Mo-Su 07:00-22:00","addr:housenumber":"25"}}, "geometry":{"type":"MultiPolygon","coordinates":[[[[-4.48261,54.95831],[-4.48257,54.95819],[-4.48192,54.95826],[-4.48197,54.95838],[-4.482,54.95838],[-4.48261,54.95831]]]]}},
{ "type":"Feature","properties":{"osm_way_id":"222918777","name":"Aldi","building":"retail","shop":"supermarket","other":{"addr:city":"Newton Stewart","addr:postcode":"DG8 6EH","addr:street":"Goods Lane","branch":"Newton Stewart","brand":"ALDI","brand:wikidata":"Q41171672","brand:wikipedia":"en:Aldi","opening_hours":"Mo-Sa 08:00-22:00; Su 09:00-19:00"}}, "geometry":{"type":"MultiPolygon","coordinates":[[[[-4.48259,54.95556],[-4.4824,54.95524],[-4.48223,54.95528],[-4.48226,54.95534],[-4.48164,54.95546],[-4.48181,54.95575],[-4.48212,54.95569],[-4.4821,54.95566],[-4.48259,54.95556]]]]}},
{ "type":"Feature","properties":{"osm_way_id":"227519850","name":"Co-op","building":"yes","shop":"supermarket","other":{"alt_name":"The Co-operative Food","addr:street":"Drumlanrig Street","addr:postcode":"DG3 5LS","addr:housenumber":"125"}}, "geometry":{"type":"MultiPolygon","coordinates":[[[[-3.76622,55.24111],[-3.76616,55.24107],[-3.76597,55.24115],[-3.76584,55.2412],[-3.7659,55.24125],[-3.76622,55.24111]]]]}},
{ "type":"Feature","properties":{"osm_way_id":"227519852","name":"Spar","building":"yes","shop":"supermarket","other":{"addr:housenumber":"121-122","addr:postcode":"DG3 5LS","addr:street":"Drumlanrig Street","alt_name":"SPAR Thornhill","brand":"Spar","brand:wikidata":"Q610492","brand:wikipedia":"en:Spar (retailer)"}}, "geometry":{"type":"MultiPolygon","coordinates":[[[[-3.76612,55.24095],[-3.766,55.24086],[-3.76562,55.24103],[-3.76574,55.24112],[-3.76612,55.24095]]]]}},
{ "type":"Feature","properties":{"osm_way_id":"227521308","name":"Watsons Grocers","building":"yes","shop":"supermarket","other":{"addr:street":"High Street","addr:postcode":"DG3 4HW"}}, "geometry":{"type":"MultiPolygon","coordinates":[[[[-3.9203,55.19763],[-3.92035,55.19746],[-3.92017,55.19744],[-3.92014,55.19751],[-3.92014,55.19762],[-3.9203,55.19763]]]]}},
{ "type":"Feature","properties":{"osm_way_id":"233748402","name":"Tesco","building":"yes","shop":"supermarket","other":{"addr:postcode":"DG12 6JH","addr:street":"Scott Street","brand":"Tesco","brand:wikidata":"Q487494","brand:wikipedia":"en:Tesco","designation":"Annan Superstore"}}, "geometry":{"type":"MultiPolygon","coordinates":[[[[-3.2493,54.98565],[-3.24864,54.98509],[-3.24952,54.98475],[-3.24994,54.9851],[-3.25022,54.98508],[-3.25024,54.98528],[-3.2493,54.98565]]]]}},
{ "type":"Feature","properties":{"osm_way_id":"233748850","name":"Spar","building":"yes","shop":"supermarket","other":{"addr:housenumber":"53","addr:postcode":"DG12 5BD","addr:street":"Butts Street","brand":"Spar","brand:wikidata":"Q610492","brand:wikipedia":"en:SPAR (retailer)","designation":"Annan"}}, "geometry":{"type":"MultiPolygon","coordinates":[[[[-3.2599,54.99062],[-3.25955,54.99057],[-3.25967,54.99037],[-3.25996,54.99043],[-3.25989,54.99055],[-3.25995,54.99056],[-3.2599,54.99062]]]]}},
{ "type":"Feature","properties":{"osm_way_id":"239881953","name":"The Co-operative Food","building":"yes","shop":"supermarket","other":{"atm":"yes","brand":"The Co-operative Food","addr:city":"Dalbeattie","addr:street":"High Street","designation":"The Co-operative Food","addr:postcode":"DG5 4HA","opening_hours":"Mo-Su 07:00-22:00","brand:wikidata":"Q3277439","brand:wikipedia":"en:Co-op Food","addr:housenumber":"55"}}, "geometry":{"type":"MultiPolygon","coordinates":[[[[-3.82078,54.9322],[-3.82072,54.93206],[-3.82039,54.93211],[-3.82045,54.93225],[-3.82078,54.9322]]]]}},
{ "type":"Feature","properties":{"osm_way_id":"239883254","name":"Tesco","building":"retail","shop":"supermarket","other":{"atm":"yes","brand":"Tesco","addr:city":"Castle Douglas","addr:street":"Ernespie Road","designation":"Castle Douglas Superstore","addr:postcode":"DG7 1LD","opening_hours":"Mo-Sa 07:00-22:00; Su 08:00-22:00","brand:wikidata":"Q487494","brand:wikipedia":"en:Tesco"}}, "geometry":{"type":"MultiPolygon","coordinates":[[[[-3.92514,54.94466],[-3.92489,54.9445],[-3.92482,54.94453],[-3.92463,54.94441],[-3.92394,54.94478],[-3.92378,54.94469],[-3.92372,54.94471],[-3.92381,54.94487],[-3.92424,54.94514],[-3.92514,54.94466]]]]}},
{ "type":"Feature","properties":{"osm_way_id":"256948774","name":"Spar","building":"yes","shop":"supermarket","other":{"brand":"Spar","brand:wikidata":"Q610492"}}, "geometry":{"type":"MultiPolygon","coordinates":[[[[-4.1845,54.88157],[-4.18441,54.8816],[-4.18428,54.88146],[-4.18437,54.88144],[-4.1845,54.88157]]]]}},
{ "type":"Feature","properties":{"osm_way_id":"334524374","name":"Spar","building":"yes","shop":"supermarket","other":{"addr:city":"Eastriggs","addr:housenumber":"3","addr:postcode":"DG12 6PP","addr:street":"Melbourne Avenue","brand":"Spar","brand:wikidata":"Q610492","phone":"+44 1461 40600"}}, "geometry":{"type":"MultiPolygon","coordinates":[[[[-3.17794,54.98496],[-3.1781,54.98498],[-3.1782,54.98466],[-3.17804,54.98465],[-3.17794,54.98496]]]]}},
{ "type":"Feature","properties":{"osm_way_id":"402650830","name":"Lidl","building":"retail","shop":"supermarket","other":{"addr:country":"GB","addr:postcode":"DG9 7BT","addr:street":"Stoneykirk Road","brand":"Lidl","brand:wikidata":"Q151954","brand:wikipedia":"en:Lidl","fhrs:id":"1281352"}}, "geometry":{"type":"MultiPolygon","coordinates":[[[[-5.02461,54.89687],[-5.02461,54.89696],[-5.02453,54.89696],[-5.02452,54.89711],[-5.02412,54.8971],[-5.02412,54.89714],[-5.02377,54.89713],[-5.0235,54.89713],[-5.02352,54.89684],[-5.02461,54.89687]]]]}},
{ "type":"Feature","properties":{"osm_way_id":"484971856","name":"The Co-operative Food","building":"yes","shop":"supermarket","other":{"addr:city":"Wigtown","addr:street":"North Main Street","addr:postcode":"DG8 9HJ","opening_hours":"Mo-Su 07:00-22:00","addr:housenumber":"30"}}, "geometry":{"type":"MultiPolygon","coordinates":[[[[-4.44489,54.86772],[-4.44454,54.86752],[-4.44452,54.86752],[-4.44444,54.86747],[-4.44435,54.86753],[-4.44443,54.86757],[-4.44456,54.86763],[-4.4448,54.86777],[-4.44489,54.86772]]]]}},
{ "type":"Feature","properties":{"osm_way_id":"588223975","name":"Tesco","building":"retail","shop":"supermarket","other":{"addr:city":"Stranraer","addr:postcode":"DG9 7EF","addr:street":"Charlotte Street","brand":"Tesco","brand:wikidata":"Q487494","brand:wikipedia":"en:Tesco","building:levels":"2","contact:website":"https:\/\/www.tesco.com\/store-locator\/stranraer\/charlotte-st","phone":"+44 345 677 9637"}}, "geometry":{"type":"MultiPolygon","coordinates":[[[[-5.02475,54.90526],[-5.02395,54.90532],[-5.02393,54.90522],[-5.02385,54.90518],[-5.02395,54.90512],[-5.02421,54.90501],[-5.0247,54.90507],[-5.02475,54.90526]]]]}},
{ "type":"Feature","properties":{"osm_way_id":"746635394","name":"Aldi","building":"yes","shop":"supermarket","other":{"brand":"ALDI","brand:wikidata":"Q41171672","brand:wikipedia":"en:Aldi"}}, "geometry":{"type":"MultiPolygon","coordinates":[[[[-3.62702,55.07728],[-3.62637,55.07746],[-3.6264,55.07749],[-3.62628,55.07753],[-3.6261,55.07733],[-3.62608,55.07733],[-3.626,55.07725],[-3.62687,55.077],[-3.62694,55.07708],[-3.62686,55.0771],[-3.62702,55.07728]]]]}},
{ "type":"Feature","properties":{"osm_way_id":"747383238","name":"Spar","building":"yes","shop":"supermarket","other":{"brand":"Spar","brand:wikidata":"Q610492","brand:wikipedia":"en:Spar (retailer)"}}, "geometry":{"type":"MultiPolygon","coordinates":[[[[-3.61185,55.0669],[-3.61208,55.06712],[-3.61178,55.06724],[-3.61171,55.06716],[-3.61168,55.06718],[-3.61159,55.06721],[-3.61144,55.06707],[-3.61185,55.0669]]]]}}
]
}
