{
"type": "FeatureCollection",
"features": [
{ "type":"Feature","properties":{"osm_id":"2430963702","name":"Scotmid","other":{"addr:housenumber":"114-118","addr:postcode":"EH23 4TX","addr:street":"Hunterfield Road","brand":"Scotmid","brand:wikidata":"Q7435719","brand:wikipedia":"en:Scotmid","fhrs:id":"158870","opening_hours":"Mo-Su 07:00-22:00","shop":"supermarket","source:addr":"FHRS Open Data"}}, "geometry":{"type":"Point","coordinates":[-3.05354,55.84783 ]}},
{ "type":"Feature","properties":{"osm_id":"7091841624","name":"The Storehouse","other":{"addr:housenumber":"22","addr:postcode":"EH26 8HW","addr:street":"High Street","fhrs:id":"1170630","restaurant":"cafe","shop":"supermarket","source:addr:postcode":"FHRS Open Data"}}, "geometry":{"type":"Point","coordinates":[-3.22182,55.82647 ]}},
{ "type":"Feature","properties":{"osm_id":"9188452323","other":{"amenity":"loading_dock"}}, "geometry":{"type":"Point","coordinates":[-3.16959,55.87849 ]}},
{ "type":"Feature","properties":{"osm_id":"9207887566","name":"ALDI","other":{"addr:city":"Dalkeith","addr:postcode":"EH22 2NE","addr:street":"Thornybank Ind. Estate","brand":"ALDI","brand:wikidata":"Q41171672","brand:wikipedia":"en:Aldi","contact:website":"https:\/\/www.aldi.co.uk\/store\/s-uk-E1338","opening_hours":"Mo-Sa 08:00-22:00, Su 09:00 â€“ 20:00","shop":"supermarket"}}, "geometry":{"type":"Point","coordinates":[-3.04722,55.89759 ]}},
{ "type":"Feature","properties":{"osm_way_id":"4947298","name":"Tesco","building":"yes","shop":"supermarket","other":{"brand":"Tesco","fhrs:id":"159030","alt_name":"Tesco Dalkeith Hardengreen Superstore","addr:street":"Bonnyrigg Road","addr:postcode":"EH22 3PP","opening_hours":"24\/7","brand:wikidata":"Q487494","brand:wikipedia":"en:Tesco"}}, "geometry":{"type":"Polygon","coordinates":[[[ -3.08513,55.88252],[-3.08611,55.88295],[-3.08526,55.88355],[-3.08409,55.88304],[-3.0843,55.88289],[-3.0842,55.88284],[-3.08445,55.88266],[-3.08459,55.88272],[-3.08447,55.88281],[-3.08454,55.88284],[-3.08441,55.88293],[-3.08451,55.88297],[-3.08496,55.88264],[-3.08513,55.88252]] ]}},
{ "type":"Feature","properties":{"osm_way_id":"4956875","name":"Sainsbury's","building":"supermarket","shop":"supermarket","other":{"brand":"Sainsbury's","fhrs:id":"158902","wheelchair":"yes","addr:postcode":"EH20 9PW","opening_hours":"Mo-Sa 08:00-22:00; Su 08:00-20:00","brand:wikidata":"Q152096","brand:wikipedia":"en:Sainsbury's","source:addr:postcode":"FHRS Open Data"}}, "geometry":{"type":"Polygon","coordinates":[[[ -3.16399,55.88235],[-3.16417,55.88226],[-3.16522,55.88291],[-3.16464,55.88321],[-3.16452,55.88313],[-3.16432,55.88324],[-3.16412,55.88312],[-3.16394,55.88321],[-3.163,55.88263],[-3.16379,55.88223],[-3.16399,55.88235]] ]}},
{ "type":"Feature","properties":{"osm_way_id":"32530020","name":"Lidl","building":"yes","shop":"supermarket","other":{"brand":"Lidl","fhrs:id":"201449","alt_name":"LIDL Dalkeith","addr:street":"Newmills Road","addr:postcode":"EH22 1DU","brand:wikidata":"Q151954","brand:wikipedia":"en:Lidl","addr:housenumber":"5"}}, "geometry":{"type":"Polygon","coordinates":[[[ -3.068,55.89328],[-3.06764,55.89316],[-3.06805,55.89279],[-3.06827,55.89286],[-3.06818,55.89293],[-3.06831,55.89298],[-3.068,55.89328]] ]}},
{ "type":"Feature","properties":{"osm_way_id":"55078794","name":"Tesco","building":"retail","shop":"supermarket","other":{"addr:housenumber":"9-11","addr:postcode":"EH26 8NP","addr:street":"Edinburgh Road","brand":"Tesco","brand:wikidata":"Q487494","brand:wikipedia":"en:Tesco","fhrs:id":"158805","operator":"Tesco","source:addr":"FHRS Open Data"}}, "geometry":{"type":"Polygon","coordinates":[[[ -3.22033,55.83559],[-3.21958,55.83536],[-3.21961,55.83532],[-3.2194,55.83525],[-3.21954,55.83511],[-3.21949,55.83509],[-3.21959,55.83499],[-3.21964,55.835],[-3.21969,55.83495],[-3.21976,55.83497],[-3.2198,55.83493],[-3.22007,55.83502],[-3.2201,55.83498],[-3.22017,55.83501],[-3.22018,55.835],[-3.22033,55.83504],[-3.22035,55.83501],[-3.22078,55.83513],[-3.22033,55.83559]] ]}},
{ "type":"Feature","properties":{"osm_way_id":"72419455","name":"Morrisons","building":"yes","shop":"supermarket","other":{"addr:housenumber":"14","addr:postcode":"EH22 1HQ","addr:street":"Eskbank Road","brand":"Morrisons","brand:wikidata":"Q922344","brand:wikipedia":"en:Morrisons","fhrs:id":"733806","opening_hours":"Mo-Sa 07:00-22:00; Su 08:00-20:00","source:addr":"FHRS Open Data","wheelchair":"yes"}}, "geometry":{"type":"Polygon","coordinates":[[[ -3.07349,55.89239],[-3.07364,55.89244],[-3.07359,55.89248],[-3.07428,55.89269],[-3.07386,55.89311],[-3.07296,55.89283],[-3.07333,55.89246],[-3.07339,55.89248],[-3.07349,55.89239]] ]}},
{ "type":"Feature","properties":{"osm_way_id":"134516676","name":"Asda","building":"retail","shop":"supermarket","other":{"addr:country":"GB","addr:postcode":"EH20 9QH","brand":"Asda","brand:wikidata":"Q297410","brand:wikipedia":"en:Asda","contact:facebook":"https:\/\/www.facebook.com\/asda\/","contact:twitter":"@asda","contact:website":"https:\/\/storelocator.asda.com\/scotland\/loanhead\/pentland-road","opening_hours":"24\/7","operator":"Asda Stores Ltd","wheelchair":"yes"}}, "geometry":{"type":"Polygon","coordinates":[[[ -3.17127,55.87827],[-3.1711,55.87846],[-3.17099,55.87843],[-3.17057,55.87888],[-3.16986,55.8787],[-3.16979,55.87855],[-3.16959,55.87849],[-3.16939,55.87844],[-3.16942,55.87839],[-3.16929,55.87836],[-3.16969,55.87786],[-3.17127,55.87827]] ]}},
{ "type":"Feature","properties":{"osm_way_id":"156558910","name":"Scotmid","building":"yes","shop":"supermarket","other":{"addr:housenumber":"6","addr:postcode":"EH22 5JG","addr:street":"Mayfield Place","brand":"Scotmid","brand:wikidata":"Q7435719","brand:wikipedia":"en:Scotmid","fhrs:id":"158933","opening_hours":"07:00-22:00"}}, "geometry":{"type":"Polygon","coordinates":[[[ -3.04148,55.87378],[-3.04199,55.87375],[-3.04204,55.87402],[-3.04182,55.87403],[-3.04179,55.8739],[-3.04159,55.87391],[-3.04159,55.87394],[-3.04151,55.87395],[-3.04148,55.87378]] ]}},
{ "type":"Feature","properties":{"osm_way_id":"224698970","name":"The Food Warehouse","building":"retail","shop":"supermarket","other":{"brand":"The Food Warehouse","brand:wikidata":"Q87263899"}}, "geometry":{"type":"Polygon","coordinates":[[[ -3.16042,55.88529],[-3.16021,55.88515],[-3.1607,55.88492],[-3.16091,55.88506],[-3.16042,55.88529]] ]}},
{ "type":"Feature","properties":{"osm_way_id":"234985077","name":"Co-op Food","building":"yes","shop":"supermarket","other":{"brand":"Co-op Food","brand:wikidata":"Q3277439","brand:wikipedia":"en:Co-op Food","opening_hours":"Mo-Su 07:00-22:00","operator":"The Co-operative Group","operator:wikidata":"Q117202","operator:wikipedia":"en:The Co-operative Group"}}, "geometry":{"type":"Polygon","coordinates":[[[ -3.06751,55.86472],[-3.06772,55.86485],[-3.06767,55.86488],[-3.06778,55.86494],[-3.06724,55.86523],[-3.06691,55.86505],[-3.06751,55.86472]] ]}},
{ "type":"Feature","properties":{"osm_way_id":"245282243","name":"Co-op Food","building":"retail","shop":"supermarket","other":{"brand":"Co-op Food","fhrs:id":"158833","addr:street":"High Street","source:addr":"FHRS Open Data","addr:postcode":"EH19 2AE","opening_hours":"Mo-Su 07:00-22:00","brand:wikidata":"Q3277439","brand:wikipedia":"en:Co-op Food","addr:housenumber":"78"}}, "geometry":{"type":"Polygon","coordinates":[[[ -3.1082,55.87704],[-3.10832,55.8773],[-3.10765,55.8774],[-3.10755,55.8772],[-3.1078,55.87716],[-3.10777,55.8771],[-3.1082,55.87704]] ]}},
{ "type":"Feature","properties":{"osm_way_id":"289167124","name":"Lidl","building":"yes","shop":"supermarket","other":{"addr:city":"Penicuik","addr:housenumber":"7","addr:postcode":"EH26 8LE","addr:street":"St Kentigern Way","brand":"Lidl","brand:wikidata":"Q151954","brand:wikipedia":"en:Lidl","fhrs:id":"159113","source:addr":"FHRS Open Data"}}, "geometry":{"type":"Polygon","coordinates":[[[ -3.21966,55.8279],[-3.21956,55.82783],[-3.21964,55.82779],[-3.21958,55.82775],[-3.21985,55.82764],[-3.21997,55.82772],[-3.21992,55.82774],[-3.2203,55.82802],[-3.22001,55.82815],[-3.21997,55.82811],[-3.21976,55.82822],[-3.21943,55.828],[-3.21966,55.8279]] ]}}
]
}
