{
"type": "FeatureCollection",
"features": [
{ "type":"Feature","properties":{"osm_id":"605502435","name":"萬富行 Matthew's Foods","other":{"description":"oriential food store","name:en":"Matthew's Foods","name:zh":"萬富行","shop":"supermarket"}}, "geometry":{"type":"Point","coordinates":[-2.966,56.46189 ]}},
{ "type":"Feature","properties":{"osm_id":"610366295","name":"Spar","other":{"brand":"Spar","brand:wikidata":"Q610492","brand:wikipedia":"en:Spar (retailer)","shop":"supermarket"}}, "geometry":{"type":"Point","coordinates":[-3.01093,56.47338 ]}},
{ "type":"Feature","properties":{"osm_id":"794286250","name":"Goodness Me","other":{"shop":"supermarket","organic":"only"}}, "geometry":{"type":"Point","coordinates":[-2.87284,56.46723 ]}},
{ "type":"Feature","properties":{"osm_id":"1080379069","name":"Sainsbury's","other":{"brand":"Sainsbury's","brand:wikidata":"Q152096","brand:wikipedia":"en:Sainsbury's","shop":"supermarket","website":"https:\/\/stores.sainsburys.co.uk\/0549\/dundee"}}, "geometry":{"type":"Point","coordinates":[-2.88885,56.48034 ]}},
{ "type":"Feature","properties":{"osm_id":"2926361940","name":"Co-op Food","other":{"brand":"Co-op Food","brand:wikidata":"Q3277439","brand:wikipedia":"en:Co-op Food","operator":"The Co-operative Group","operator:wikidata":"Q117202","operator:wikipedia":"en:The Co-operative Group","shop":"supermarket"}}, "geometry":{"type":"Point","coordinates":[-2.85819,56.47435 ]}},
{ "type":"Feature","properties":{"osm_id":"3620259773","name":"Co-op Food","other":{"shop":"supermarket","brand":"Co-op Food","operator":"The Co-operative","brand:wikidata":"Q3277439","brand:wikipedia":"en:Co-op Food"}}, "geometry":{"type":"Point","coordinates":[-2.95718,56.47015 ]}},
{ "type":"Feature","properties":{"osm_id":"4991014645","name":"Global 1 trader & grocer","other":{"shop":"supermarket","level":"0"}}, "geometry":{"type":"Point","coordinates":[-2.98076,56.46105 ]}},
{ "type":"Feature","properties":{"osm_id":"4991014670","name":"Oriental foods & fresh & frozen foods","other":{"shop":"supermarket","level":"0"}}, "geometry":{"type":"Point","coordinates":[-2.96488,56.46213 ]}},
{ "type":"Feature","properties":{"osm_id":"8362760563","name":"M&S Foodhall","other":{"alt_name":"Broughty Ferry Marks & Spencer","brand":"M&S Foodhall","brand:wikidata":"Q714491","brand:wikipedia":"en:Marks & Spencer","shop":"supermarket"}}, "geometry":{"type":"Point","coordinates":[-2.87793,56.4675 ]}},
{ "type":"Feature","properties":{"osm_way_id":"37896520","name":"Tesco Extra","building":"retail","shop":"supermarket","other":{"addr:city":"Dundee","addr:postcode":"DD2 1UG","addr:street":"Riverside Drive","branch":"Dundee Riverside Extra","brand":"Tesco Extra","brand:wikidata":"Q25172225","brand:wikipedia":"en:Tesco Extra","opening_hours":"24\/7","wheelchair":"yes"}}, "geometry":{"type":"Polygon","coordinates":[[[ -2.97464,56.45454],[-2.9748,56.4545],[-2.97483,56.45441],[-2.97592,56.45416],[-2.97602,56.45412],[-2.97615,56.45415],[-2.97617,56.45416],[-2.97667,56.45403],[-2.97776,56.45375],[-2.97778,56.45372],[-2.97785,56.4537],[-2.97792,56.45371],[-2.97794,56.45373],[-2.97795,56.45375],[-2.97793,56.45379],[-2.97786,56.4538],[-2.97779,56.45379],[-2.97777,56.4538],[-2.9767,56.45407],[-2.97621,56.4542],[-2.97619,56.45425],[-2.97617,56.45429],[-2.9765,56.45467],[-2.97575,56.45486],[-2.97582,56.45496],[-2.97508,56.45515],[-2.97499,56.45503],[-2.97464,56.45513],[-2.97453,56.455],[-2.97427,56.45495],[-2.9744,56.45474],[-2.97449,56.45472],[-2.97443,56.45466],[-2.97459,56.45461],[-2.97464,56.45454]] ]}},
{ "type":"Feature","properties":{"osm_way_id":"46176828","name":"Tesco Extra","building":"yes","shop":"supermarket","other":{"addr:city":"Dundee","addr:housenumber":"467","addr:postcode":"DD3 8QB","addr:street":"Clepington Road","alt_name":"Tesco Dundee Extra;Kingsway Retail Park Tesco","brand":"Tesco Extra","brand:wikidata":"Q25172225","brand:wikipedia":"en:Tesco Extra","fhrs:id":"151445","loc_name":"Kingsway Retail Park Tesco","opening_hours":"24\/7","source:addr":"FHRS Open Data"}}, "geometry":{"type":"Polygon","coordinates":[[[ -2.9936,56.48324],[-2.99228,56.48347],[-2.9919,56.48281],[-2.99162,56.48286],[-2.99138,56.48244],[-2.99177,56.48237],[-2.9925,56.48225],[-2.99298,56.48216],[-2.9936,56.48324]] ]}},
{ "type":"Feature","properties":{"osm_way_id":"48979445","name":"Lidl","building":"yes","shop":"supermarket","other":{"addr:city":"Dundee","addr:housenumber":"16","addr:postcode":"DD1 1PX","addr:street":"South Ward Road","alt_name":"Lidl West Port","brand":"Lidl","brand:wikidata":"Q151954","brand:wikipedia":"en:Lidl","fhrs:id":"151153","loc_name":"West Port Lidl","opening_hours":"Mo-Sa 08:00-22:00; Su 08:00-20:00","operator":"LIDL","source:addr":"FHRS Open Data"}}, "geometry":{"type":"Polygon","coordinates":[[[ -2.97665,56.45994],[-2.97661,56.45998],[-2.97639,56.46002],[-2.97633,56.45994],[-2.97606,56.46],[-2.97602,56.45994],[-2.97596,56.45996],[-2.97592,56.45991],[-2.97599,56.45989],[-2.97596,56.45984],[-2.97623,56.45978],[-2.97619,56.45973],[-2.97648,56.45968],[-2.97651,56.45973],[-2.97665,56.45994]] ]}},
{ "type":"Feature","properties":{"osm_way_id":"89502141","name":"Aldi","building":"yes","shop":"supermarket","other":{"addr:city":"Dundee","addr:housename":"The Stack Retail Park","addr:postcode":"DD2 3XN","alt_name":"The Stack Aldi","brand":"ALDI","brand:wikidata":"Q41171672","brand:wikipedia":"en:Aldi","opening_hours":"Mo-Sa 08:00-22:00; Su 09:00-19:00"}}, "geometry":{"type":"Polygon","coordinates":[[[ -3.00542,56.47409],[-3.0047,56.4741],[-3.00468,56.47368],[-3.0054,56.47367],[-3.00542,56.47409]] ]}},
{ "type":"Feature","properties":{"osm_way_id":"111834274","name":"Morrisons","building":"yes","shop":"supermarket","other":{"brand":"Morrisons","brand:wikidata":"Q922344","brand:wikipedia":"en:Morrisons"}}, "geometry":{"type":"Polygon","coordinates":[[[ -2.94833,56.48452],[-2.9479,56.4845],[-2.94792,56.48442],[-2.94696,56.48436],[-2.94713,56.48351],[-2.9472,56.48351],[-2.94723,56.4834],[-2.94764,56.48343],[-2.94763,56.48354],[-2.9479,56.48356],[-2.9479,56.48357],[-2.94807,56.48357],[-2.94807,56.48366],[-2.94816,56.48366],[-2.94814,56.48376],[-2.94832,56.48378],[-2.94823,56.48428],[-2.94836,56.48429],[-2.94836,56.48432],[-2.94833,56.48452]] ]}},
{ "type":"Feature","properties":{"osm_way_id":"143465161","name":"M&S Foodhall","building":"yes","shop":"supermarket","other":{"alt_name":"Marks & Spencer Foodhall","brand":"M&S Foodhall","brand:wikidata":"Q714491","brand:wikipedia":"en:Marks & Spencer"}}, "geometry":{"type":"Polygon","coordinates":[[[ -2.96291,56.46455],[-2.96244,56.46463],[-2.96233,56.46443],[-2.96224,56.46425],[-2.96271,56.46417],[-2.96291,56.46455]] ]}},
{ "type":"Feature","properties":{"osm_way_id":"308420313","name":"Asda","building":"yes","shop":"supermarket","other":{"addr:city":"Dundee","addr:country":"GB","addr:housenumber":"61","addr:postcode":"DD2 4WB","addr:street":"Myrekirk Road","alt_name":"Myrekirk ASDA","brand":"Asda","brand:wikidata":"Q297410","brand:wikipedia":"en:Asda","contact:facebook":"https:\/\/www.facebook.com\/asda\/","contact:phone":"+44 1382 339308","contact:twitter":"@asda","contact:website":"https:\/\/storelocator.asda.com\/scotland\/dundee\/61-myrekirk-road","fhrs:id":"642448","opening_hours":"Mo-Su 08:00-20:00","operator":"Asda Stores Ltd"}}, "geometry":{"type":"Polygon","coordinates":[[[ -3.04826,56.4763],[-3.04825,56.47582],[-3.04846,56.47582],[-3.04845,56.47574],[-3.04958,56.47573],[-3.04959,56.47649],[-3.04878,56.47649],[-3.04878,56.4763],[-3.04826,56.4763]] ]}},
{ "type":"Feature","properties":{"osm_way_id":"332573378","name":"Lidl","building":"yes","shop":"supermarket","other":{"addr:city":"Dundee","addr:housenumber":"71","addr:postcode":"DD2 3EG","addr:street":"South Road","alt_name":"Lochee Lidl","brand":"Lidl","brand:wikidata":"Q151954","brand:wikipedia":"en:Lidl","fhrs:id":"151157","local_name":"Lidl South Road","opening_hours":"Mo-Sa 08:00-22:00; Su 08:00-20:00","source:addr":"FHRS Open Data","source:geometry":"Bing"}}, "geometry":{"type":"Polygon","coordinates":[[[ -3.01369,56.4727],[-3.01268,56.47269],[-3.01269,56.47237],[-3.013,56.47238],[-3.01299,56.47243],[-3.0136,56.47244],[-3.01359,56.47261],[-3.0137,56.47261],[-3.01369,56.4727]] ]}},
{ "type":"Feature","properties":{"osm_way_id":"356604709","name":"Lidl","building":"supermarket","shop":"supermarket","other":{"addr:country":"GB","addr:housenumber":"28A","addr:postcode":"DD4 6RX","addr:street":"Dura Street","brand":"Lidl","brand:wikidata":"Q151954","brand:wikipedia":"en:Lidl","fhrs:id":"151143","loc_name":"Stobswell Lidl","wheelchair":"yes"}}, "geometry":{"type":"Polygon","coordinates":[[[ -2.96014,56.47117],[-2.95961,56.47158],[-2.95922,56.47142],[-2.95955,56.47117],[-2.95949,56.47114],[-2.95968,56.47099],[-2.96014,56.47117]] ]}},
{ "type":"Feature","properties":{"osm_way_id":"451766004","name":"Tesco Extra","building":"yes","shop":"supermarket","other":{"addr:city":"Dundee","addr:postcode":"DD2 4SR","addr:street":"South Road","alt_name":"Tesco Dundee South Road Extra","brand":"Tesco Extra","brand:wikidata":"Q25172225","brand:wikipedia":"en:Tesco Extra","loc_name":"South Road Tesco","opening_hours":"Mo-Su 06:00-24:00","short_name":"Tesco South Road"}}, "geometry":{"type":"Polygon","coordinates":[[[ -3.04267,56.47146],[-3.04103,56.47151],[-3.04096,56.47084],[-3.04074,56.47085],[-3.04071,56.47059],[-3.04257,56.47053],[-3.04267,56.47146]] ]}},
{ "type":"Feature","properties":{"osm_way_id":"471986927","name":"Asda","building":"retail","shop":"supermarket","other":{"addr:city":"Dundee","addr:country":"GB","addr:housenumber":"7-9","addr:postcode":"DD3 0SZ","addr:street":"Derwent Avenue","alt_name":"ASDA Dundee Kirkton","brand":"Asda","brand:wikidata":"Q297410","brand:wikipedia":"en:Asda","contact:facebook":"https:\/\/www.facebook.com\/asda\/","contact:phone":"+441382818818","contact:twitter":"@asda","contact:website":"https:\/\/storelocator.asda.com\/scotland\/dundee\/7-9-derwent-avenue","fhrs:id":"151443","opening_hours":"Mo-Su 08:00-20:00","operator":"Asda Stores Ltd","payment:cash":"yes","payment:contactless":"yes","payment:credit_cards":"yes","payment:debit_cards":"yes","payment:visa":"yes","wheelchair":"yes"}}, "geometry":{"type":"Polygon","coordinates":[[[ -2.98571,56.488],[-2.98572,56.4882],[-2.98535,56.48821],[-2.98536,56.48832],[-2.98517,56.48833],[-2.98516,56.48822],[-2.98485,56.48822],[-2.98486,56.48844],[-2.98406,56.48845],[-2.98403,56.48777],[-2.98451,56.48777],[-2.98451,56.48768],[-2.9851,56.48767],[-2.9851,56.48774],[-2.98518,56.48774],[-2.98519,56.48801],[-2.98571,56.488]] ]}},
{ "type":"Feature","properties":{"osm_way_id":"484385654","name":"Aldi","building":"yes","shop":"supermarket","other":{"alt_name":"Arbroath Road Aldi","brand":"ALDI","brand:wikidata":"Q41171672","brand:wikipedia":"en:Aldi"}}, "geometry":{"type":"Polygon","coordinates":[[[ -2.93025,56.47355],[-2.93047,56.47382],[-2.92962,56.47404],[-2.92953,56.47393],[-2.92962,56.47391],[-2.92948,56.47375],[-2.93025,56.47355]] ]}},
{ "type":"Feature","properties":{"osm_way_id":"760912954","name":"Aldi","building":"yes","shop":"supermarket","other":{"addr:city":"Dundee","addr:housenumber":"55","addr:postcode":"DD2 4WB","addr:street":"Myrekirk Road","alt_name":"Myrekirk Aldi","brand":"ALDI","brand:wikidata":"Q41171672","brand:wikipedia":"en:Aldi"}}, "geometry":{"type":"Polygon","coordinates":[[[ -3.04702,56.47542],[-3.04639,56.47542],[-3.04639,56.47504],[-3.04647,56.47504],[-3.04647,56.47487],[-3.04701,56.47487],[-3.04702,56.47542]] ]}},
{ "type":"Feature","properties":{"osm_way_id":"761535497","name":"Lidl","building":"yes","shop":"supermarket","other":{"addr:country":"GB","addr:postcode":"DD3 9HU","addr:street":"Macalpine Road","alt_name":"Macalpine Road Lidl","brand":"Lidl","brand:wikidata":"Q151954","brand:wikipedia":"en:Lidl","fhrs:id":"151159"}}, "geometry":{"type":"Polygon","coordinates":[[[ -3.00718,56.49106],[-3.00708,56.49106],[-3.00708,56.49111],[-3.00661,56.49113],[-3.00659,56.49101],[-3.00651,56.49101],[-3.0065,56.49091],[-3.00658,56.49091],[-3.00653,56.49047],[-3.00711,56.49045],[-3.00718,56.49106]] ]}},
{ "type":"Feature","properties":{"osm_way_id":"985851502","name":"Lidl","building":"yes","shop":"supermarket","other":{"addr:country":"GB","addr:housename":"New Craigie Retail Park","addr:housenumber":"19","addr:postcode":"DD4 7FF","addr:street":"New Craigie Road","alt_name":"Mid-Craigie Lidl","brand":"Lidl","brand:wikidata":"Q151954","brand:wikipedia":"en:Lidl","fhrs:id":"1242492"}}, "geometry":{"type":"Polygon","coordinates":[[[ -2.93356,56.47707],[-2.93332,56.4773],[-2.93227,56.47697],[-2.93251,56.47674],[-2.93356,56.47707]] ]}},
{ "type":"Feature","properties":{"osm_way_id":"987739549","name":"Asda","building":"yes","shop":"supermarket","other":{"addr:city":"Dundee","addr:housename":"Asda","addr:postcode":"DD4 7RX","addr:street":"Milton of Craigie Rd S","brand":"Asda","brand:wikidata":"Q297410","brand:wikipedia":"en:Asda"}}, "geometry":{"type":"Polygon","coordinates":[[[ -2.9245,56.47746],[-2.92431,56.47746],[-2.9243,56.47739],[-2.92358,56.47741],[-2.92358,56.47749],[-2.92322,56.4775],[-2.92322,56.47744],[-2.92332,56.47744],[-2.92331,56.4773],[-2.92333,56.4773],[-2.9233,56.47704],[-2.9232,56.47704],[-2.92319,56.477],[-2.92307,56.477],[-2.92303,56.4767],[-2.92289,56.4767],[-2.92288,56.47657],[-2.92297,56.47656],[-2.92296,56.47654],[-2.92302,56.47654],[-2.92302,56.47651],[-2.92313,56.47651],[-2.92312,56.47642],[-2.92318,56.47639],[-2.9232,56.47639],[-2.92343,56.47638],[-2.92343,56.47636],[-2.92428,56.47633],[-2.9243,56.47648],[-2.92457,56.47647],[-2.92458,56.47657],[-2.92466,56.47657],[-2.92467,56.47663],[-2.92467,56.4767],[-2.9246,56.4767],[-2.92461,56.4768],[-2.92448,56.4768],[-2.92455,56.47738],[-2.92449,56.47738],[-2.9245,56.47746]] ]}}
]
}
