{
"type": "FeatureCollection",
"features": [
{ "type":"Feature","properties":{"osm_id":"3639457709","name":"Co-op Food","other":{"addr:city":"Kirkwall","addr:housenumber":"19","addr:postcode":"KW15 1HP","addr:street":"Albert Street","branch":"Kirkwall - Albert Street","brand":"Co-op Food","brand:wikidata":"Q3277439","brand:wikipedia":"en:Co-op Food","opening_hours":"Mo-Su 07:00-22:00","operator":"The Co-operative Group","shop":"supermarket"}}, "geometry":{"type":"Point","coordinates":[-2.95843,58.98356 ]}},
{ "type":"Feature","properties":{"osm_id":"4536676363","other":{"amenity":"post_box","post_box:type":"wall"}}, "geometry":{"type":"Point","coordinates":[-2.98834,59.32135 ]}},
{ "type":"Feature","properties":{"osm_id":"4986545874","name":"Frozen Food Center","other":{"shop":"supermarket","level":"0"}}, "geometry":{"type":"Point","coordinates":[-2.9576,58.98381 ]}},
{ "type":"Feature","properties":{"osm_id":"8361740725","man_made":"mast"},"geometry":{"type":"Point","coordinates":[-2.95967,58.95296 ]}},
{ "type":"Feature","properties":{"osm_way_id":"75038305","name":"Co-op Food","building":"yes","shop":"supermarket","other":{"addr:city":"Kirkwall","addr:postcode":"KW15 1RR","addr:street":"Pickaquoy Road","branch":"Kirkwall","brand":"Co-op Food","brand:wikidata":"Q3277439","brand:wikipedia":"en:Co-op Food","opening_hours":"Mo-Su 07:00-22:00","operator":"The Co-operative Group","wheelchair":"yes"}}, "geometry":{"type":"Polygon","coordinates":[[[ -2.96864,58.98073],[-2.96875,58.98057],[-2.96923,58.98066],[-2.96913,58.98082],[-2.96864,58.98073]] ]}},
{ "type":"Feature","properties":{"osm_way_id":"75038317","name":"Tesco","building":"yes","shop":"supermarket","other":{"addr:city":"Kirkwall","addr:housenumber":"18","addr:postcode":"KW15 1RP","addr:street":"Pickaquoy Road","branch":"Kirkwall Superstore","brand":"Tesco","brand:wikidata":"Q487494","brand:wikipedia":"en:Tesco","fhrs:id":"564997","opening_hours":"Mo-Sa 06:00-24:00; Su 08:00-22:00","operator":"Tesco","toilets:wheelchair":"yes","wheelchair":"yes"}}, "geometry":{"type":"Polygon","coordinates":[[[ -2.96695,58.98093],[-2.96739,58.98031],[-2.9685,58.98052],[-2.96842,58.98065],[-2.96835,58.98063],[-2.96831,58.98069],[-2.96822,58.98067],[-2.96819,58.98071],[-2.96809,58.98069],[-2.96781,58.98109],[-2.96695,58.98093]] ]}},
{ "type":"Feature","properties":{"osm_way_id":"75038318","name":"Lidl","building":"yes","shop":"supermarket","other":{"addr:city":"Kirkwall","addr:country":"GB","addr:postcode":"KW15 1RP","addr:street":"Pickaquoy Road","branch":"Kirkwall","brand":"Lidl","brand:wikidata":"Q151954","brand:wikipedia":"en:Lidl","fhrs:id":"1137324","opening_hours":"Mo-Sa 08:00-22:00; Su 08:00-20:00","operator":"Lidl UK"}}, "geometry":{"type":"Polygon","coordinates":[[[ -2.96515,58.98046],[-2.96526,58.98031],[-2.96534,58.98032],[-2.96557,58.98001],[-2.96589,58.98007],[-2.96593,58.98002],[-2.96617,58.98007],[-2.96578,58.98059],[-2.96515,58.98046]] ]}},
{ "type":"Feature","properties":{"osm_way_id":"199252080","name":"W I Rendall Store and Cafe","building":"retail","shop":"supermarket","other":{"addr:city":"Pierowall, Westray","addr:postcode":"KW17 2DH"}}, "geometry":{"type":"Polygon","coordinates":[[[ -2.98931,59.32126],[-2.98919,59.32123],[-2.98923,59.3212],[-2.98904,59.32114],[-2.98925,59.32097],[-2.98955,59.32106],[-2.98931,59.32126]] ]}},
{ "type":"Feature","properties":{"osm_way_id":"199252086","name":"J. C. Tulloch","building":"yes","shop":"supermarket","other":{"addr:city":"Pierowall, Westray","addr:postcode":"KW17 2DH"}}, "geometry":{"type":"Polygon","coordinates":[[[ -2.98811,59.32151],[-2.98801,59.3215],[-2.9879,59.32148],[-2.98791,59.32146],[-2.98799,59.32133],[-2.98803,59.32133],[-2.98822,59.32136],[-2.9883,59.32123],[-2.9884,59.32125],[-2.98834,59.32135],[-2.98826,59.32148],[-2.98814,59.32146],[-2.98811,59.32151]] ]}},
{ "type":"Feature","properties":{"osm_way_id":"204649648","name":"Marion's Shop","building":"yes","shop":"supermarket","other":{"addr:city":"Rousay, Orkney","addr:postcode":"KW17 2PR"}}, "geometry":{"type":"Polygon","coordinates":[[[ -2.98971,59.16721],[-2.98955,59.16725],[-2.98952,59.1672],[-2.98968,59.16717],[-2.98971,59.16721]] ]}},
{ "type":"Feature","properties":{"osm_way_id":"359189857","name":"Petrol Dounby","building":"yes","shop":"supermarket","other":{"operator":"The Co-operative Group","addr:city":"Kirkwall","addr:street":"Dounby","addr:postcode":"KW17 2HT","opening_hours":"Mo-Sa 08:00-22:00; Su 09:00-22:00"}}, "geometry":{"type":"Polygon","coordinates":[[[ -3.23176,59.06801],[-3.23198,59.06813],[-3.23162,59.0683],[-3.23149,59.06823],[-3.23144,59.06824],[-3.23136,59.0682],[-3.23176,59.06801]] ]}},
{ "type":"Feature","properties":{"osm_way_id":"584031336","name":"The Co-operative Food","building":"supermarket","shop":"supermarket","other":{"branch":"Stromness","operator":"The Co-operative Group","addr:city":"Stromness","addr:street":"Ferry Road","addr:postcode":"KW16 3AE","opening_hours":"Mo-Su,PH 07:00-22:00"}}, "geometry":{"type":"Polygon","coordinates":[[[ -3.2941,58.96806],[-3.29378,58.96802],[-3.2939,58.96779],[-3.29423,58.96784],[-3.2941,58.96806]] ]}},
{ "type":"Feature","properties":{"osm_way_id":"633498376","name":"B Doull & Son Self Service Store","building":"yes","shop":"supermarket","other":{"addr:city":"St Margaret's Hope","addr:postcode":"KW17 2SR","addr:street":"Church Road"}}, "geometry":{"type":"Polygon","coordinates":[[[ -2.95645,58.82536],[-2.95663,58.82531],[-2.95664,58.82533],[-2.95666,58.82532],[-2.95675,58.82542],[-2.95669,58.82543],[-2.95672,58.82546],[-2.95677,58.82544],[-2.9568,58.82547],[-2.95684,58.82552],[-2.95688,58.82557],[-2.95672,58.82561],[-2.95668,58.82556],[-2.95665,58.82557],[-2.95645,58.82536]] ]}}
]
}
