{
"type": "FeatureCollection",
"features": [
{ "type":"Feature","properties":{"osm_id":"420347123","ref":"TD1 4","other":{"amenity":"post_box","operator":"Royal Mail"}}, "geometry":{"type":"Point","coordinates":[-2.80448,55.61437 ]}},
{ "type":"Feature","properties":{"osm_id":"6727701621","name":"M&S Foodhall","other":{"addr:postcode":"TD1 3AP","addr:street":"Huddersfield Street","brand":"M&S Foodhall","brand:wikidata":"Q714491","brand:wikipedia":"en:Marks & Spencer","fhrs:id":"22939","opening_hours":"Mo,Tu 09:00-19:00, Tu-Th 08:00-20:00, Fr 08:00-20:00, Sa 08:00-19:00","shop":"supermarket","source:addr":"FHRS Open Data"}}, "geometry":{"type":"Point","coordinates":[-2.80273,55.61401 ]}},
{ "type":"Feature","properties":{"osm_way_id":"71331420","name":"Lidl","building":"yes","shop":"supermarket","other":{"addr:housenumber":"31-33","addr:postcode":"TD5 7AL","addr:street":"Sheddon Park Road","alt_name":"LIDL Kelso","brand":"Lidl","brand:wikidata":"Q151954","brand:wikipedia":"en:Lidl","fhrs:id":"10596"}}, "geometry":{"type":"Polygon","coordinates":[[[ -2.42841,55.59893],[-2.42817,55.59917],[-2.42734,55.59891],[-2.42741,55.59884],[-2.42749,55.59887],[-2.42762,55.59874],[-2.42816,55.59891],[-2.42821,55.59887],[-2.42841,55.59893]] ]}},
{ "type":"Feature","properties":{"osm_way_id":"105143193","name":"Sainsbury's","building":"yes","shop":"supermarket","other":{"addr:housenumber":"38","addr:postcode":"EH45 8RS","addr:street":"Northgate","brand":"Sainsbury's","brand:wikidata":"Q152096","brand:wikipedia":"en:Sainsbury's","fhrs:id":"19311"}}, "geometry":{"type":"Polygon","coordinates":[[[ -3.18857,55.6537],[-3.18813,55.6537],[-3.18813,55.65367],[-3.18802,55.65367],[-3.18802,55.65339],[-3.18795,55.65336],[-3.18795,55.6533],[-3.18875,55.6533],[-3.18883,55.6533],[-3.18883,55.65332],[-3.18883,55.65334],[-3.18883,55.65335],[-3.18884,55.65336],[-3.18867,55.65336],[-3.18867,55.65353],[-3.18857,55.65353],[-3.18857,55.6537]] ]}},
{ "type":"Feature","properties":{"osm_way_id":"107417986","name":"Tesco","building":"yes","shop":"supermarket","other":{"addr:postcode":"EH45 8EQ","addr:street":"Dovecot Road","brand":"Tesco","brand:wikidata":"Q487494","brand:wikipedia":"en:Tesco","fhrs:id":"30163"}}, "geometry":{"type":"Polygon","coordinates":[[[ -3.19244,55.65678],[-3.19249,55.65684],[-3.192,55.65696],[-3.19165,55.65653],[-3.192,55.65645],[-3.19195,55.65639],[-3.1921,55.65635],[-3.1921,55.65635],[-3.19212,55.65637],[-3.19219,55.65636],[-3.19228,55.65648],[-3.19222,55.65649],[-3.19241,55.65675],[-3.19245,55.65674],[-3.19248,55.65677],[-3.19244,55.65678]] ]}},
{ "type":"Feature","properties":{"osm_way_id":"115626648","name":"Co-op Food","building":"retail","shop":"supermarket","other":{"addr:housenumber":"26","addr:postcode":"TD5 7DH","addr:street":"Roxburgh Street","alt_name":"The Co-operative Food","brand":"Co-op Food","brand:wikidata":"Q3277439","brand:wikipedia":"en:Co-op Food","fhrs:id":"486505","old_name":"Haldanes, Somerfield, Morrisons, Safeway, Presto","operator":"The Co-operative Group","operator:wikidata":"Q117202","operator:wikipedia":"en:The Co-operative Group","source:addr":"FHRS Open Data"}}, "geometry":{"type":"Polygon","coordinates":[[[ -2.43541,55.59897],[-2.43553,55.59893],[-2.4356,55.5989],[-2.43546,55.59876],[-2.43562,55.59871],[-2.43578,55.59887],[-2.43581,55.59886],[-2.43588,55.59883],[-2.43606,55.59901],[-2.43562,55.59917],[-2.43559,55.59917],[-2.43541,55.59901],[-2.4354,55.599],[-2.43541,55.59897]] ]}},
{ "type":"Feature","properties":{"osm_way_id":"115912092","name":"Tesco Extra","building":"yes","shop":"supermarket","other":{"addr:city":"Galashiels","addr:postcode":"TD1 3AT","addr:street":"Paton Street","alt_name":"Tesco Galashiels Extra","brand":"Tesco Extra","brand:wikidata":"Q25172225","brand:wikipedia":"en:Tesco Extra","fhrs:id":"19217","layer":"1","operator":"Tesco","phone":"+44 845 026 9548"}}, "geometry":{"type":"Polygon","coordinates":[[[ -2.80564,55.61499],[-2.80461,55.6157],[-2.80442,55.61562],[-2.80457,55.61551],[-2.80462,55.61554],[-2.80474,55.61546],[-2.80444,55.61532],[-2.80449,55.61529],[-2.80386,55.615],[-2.80375,55.61488],[-2.80412,55.61462],[-2.8043,55.61449],[-2.80448,55.61437],[-2.80539,55.61479],[-2.80532,55.61484],[-2.80564,55.61499]] ]}},
{ "type":"Feature","properties":{"osm_way_id":"115912095","name":"Asda","building":"retail","shop":"supermarket","other":{"addr:city":"Galashiels","addr:country":"GB","addr:postcode":"TD1 2AG","addr:street":"Currie Road","alt_name":"ASDA Galashiels Superstore","brand":"Asda","brand:wikidata":"Q297410","brand:wikipedia":"en:Asda","building:levels":"2","contact:facebook":"https:\/\/www.facebook.com\/asda\/","contact:twitter":"@asda","contact:website":"https:\/\/storelocator.asda.com\/scotland\/galashiels\/currie-road","fhrs:id":"19041","opening_hours":"24\/7","operator":"Asda Stores Ltd"}}, "geometry":{"type":"Polygon","coordinates":[[[ -2.8023,55.6148],[-2.80217,55.61484],[-2.80116,55.61521],[-2.80052,55.61464],[-2.8006,55.61461],[-2.80056,55.61458],[-2.80063,55.61456],[-2.8005,55.61444],[-2.80082,55.61433],[-2.80067,55.6142],[-2.80091,55.61411],[-2.80112,55.6143],[-2.80144,55.61418],[-2.8015,55.61424],[-2.80162,55.6142],[-2.80169,55.61426],[-2.8023,55.6148]] ]}},
{ "type":"Feature","properties":{"osm_way_id":"118496298","name":"Aldi","building":"yes","shop":"supermarket","other":{"addr:city":"Galashiels","addr:postcode":"TD1 1PX","addr:street":"King Street","alt_name":"ALDI Galashiels","brand":"ALDI","brand:wikidata":"Q41171672","brand:wikipedia":"en:Aldi","fhrs:id":"14647","operator":"ALDI"}}, "geometry":{"type":"Polygon","coordinates":[[[ -2.82284,55.62264],[-2.82339,55.62237],[-2.82373,55.62259],[-2.82356,55.62267],[-2.82362,55.62271],[-2.82344,55.6228],[-2.82337,55.62275],[-2.82316,55.62285],[-2.82284,55.62264]] ]}},
{ "type":"Feature","properties":{"osm_way_id":"140955580","name":"The Co-operative Food","building":"yes","shop":"supermarket","other":{"addr:postcode":"TD5 7NB","addr:street":"Highcroft","brand":"The Co-operative Food","brand:wikidata":"Q107617274","operator":"The Co-operative Group"}}, "geometry":{"type":"Polygon","coordinates":[[[ -2.43624,55.6068],[-2.43592,55.60671],[-2.43613,55.60647],[-2.43644,55.60656],[-2.43624,55.6068]] ]}},
{ "type":"Feature","properties":{"osm_way_id":"148160996","name":"Sainsbury's","building":"yes","shop":"supermarket","other":{"addr:postcode":"TD5 8DW","addr:street":"Pinnacle Hill Industrial Estate","alt_name":"Sainsbury's Kelso Superstore","brand":"Sainsbury's","brand:wikidata":"Q152096","brand:wikipedia":"en:Sainsbury's","fhrs:id":"47833","old_name":"Former site of Keltek Electronics and Forbes Plastics"}}, "geometry":{"type":"Polygon","coordinates":[[[ -2.42736,55.59012],[-2.42739,55.5901],[-2.42748,55.59017],[-2.42744,55.59019],[-2.42747,55.59021],[-2.42728,55.59029],[-2.4273,55.59031],[-2.42733,55.59033],[-2.4273,55.59034],[-2.42719,55.59039],[-2.42715,55.59036],[-2.42687,55.59049],[-2.42691,55.59051],[-2.42677,55.59058],[-2.42673,55.59055],[-2.42655,55.59063],[-2.42649,55.59066],[-2.42646,55.59063],[-2.42641,55.59065],[-2.42632,55.59059],[-2.42637,55.59057],[-2.42585,55.59021],[-2.42602,55.59013],[-2.42616,55.59023],[-2.42681,55.58992],[-2.42665,55.58981],[-2.42681,55.58974],[-2.42736,55.59012]] ]}},
{ "type":"Feature","properties":{"osm_way_id":"158297256","name":"Co-op Food","building":"retail","shop":"supermarket","other":{"addr:housename":"Dickson's Yard","addr:housenumber":"30-40","addr:postcode":"TD14 5EU","addr:street":"High Street","brand":"Co-op Food","brand:wikidata":"Q3277439","brand:wikipedia":"en:Co-op Food","fhrs:id":"27514","opening_hours":"Mo-Su 07:00-23:00","operator":"The Co-operative Group","operator:wikidata":"Q117202","operator:wikipedia":"en:The Co-operative Group","wheelchair":"yes"}}, "geometry":{"type":"Polygon","coordinates":[[[ -2.09104,55.87299],[-2.09086,55.87314],[-2.09075,55.8731],[-2.09073,55.87311],[-2.09058,55.87305],[-2.09055,55.87307],[-2.09047,55.87304],[-2.09061,55.87292],[-2.09069,55.87286],[-2.09104,55.87299]] ]}},
{ "type":"Feature","properties":{"osm_way_id":"177944475","name":"The Co-operative food","building":"yes","shop":"supermarket","other":{"addr:city":"Duns","addr:postcode":"TD11 3DT","addr:street":"Newtown Street","atm":"yes","fhrs:id":"18709","opening_hours":"Mo-Su 07:00-22:00"}}, "geometry":{"type":"Polygon","coordinates":[[[ -2.34582,55.77829],[-2.34555,55.77843],[-2.34547,55.77838],[-2.34549,55.77836],[-2.34519,55.77817],[-2.34536,55.77809],[-2.34541,55.77812],[-2.34544,55.7781],[-2.34569,55.77825],[-2.34572,55.77823],[-2.34582,55.77829]] ]}},
{ "type":"Feature","properties":{"osm_way_id":"205990634","name":"The Co-operative Food","building":"yes","shop":"supermarket","other":{"addr:housenumber":"34","addr:postcode":"TD12 4AS","addr:street":"High Street","alt_name":"The Co-operative Food","brand":"The Co-operative Food","brand:wikidata":"Q107617274","fhrs:id":"27453","operator":"The Co-operative Group"}}, "geometry":{"type":"Polygon","coordinates":[[[ -2.25424,55.65065],[-2.2541,55.65057],[-2.25393,55.65047],[-2.2542,55.65032],[-2.25428,55.65037],[-2.25422,55.65041],[-2.25434,55.65048],[-2.25442,55.65044],[-2.25452,55.6505],[-2.25424,55.65065]] ]}},
{ "type":"Feature","properties":{"osm_way_id":"213940788","name":"Co-op","building":"retail","shop":"supermarket","other":{"addr:postcode":"TD11 3XR","addr:street":"Main Street","fhrs:id":"44122"}}, "geometry":{"type":"Polygon","coordinates":[[[ -2.20683,55.80224],[-2.20667,55.80225],[-2.20666,55.8021],[-2.20683,55.8021],[-2.20683,55.80224]] ]}},
{ "type":"Feature","properties":{"osm_way_id":"246556684","name":"Co-op Food","building":"yes","shop":"supermarket","other":{"addr:city":"Selkirk","addr:housenumber":"70","addr:postcode":"TD7 4DD","addr:street":"High Street","brand":"Co-op Food","brand:wikidata":"Q3277439","brand:wikipedia":"en:Co-op Food","fhrs:id":"27768","operator":"The Co-operative Group"}}, "geometry":{"type":"Polygon","coordinates":[[[ -2.83954,55.54827],[-2.83928,55.54839],[-2.83918,55.54838],[-2.83908,55.5483],[-2.83905,55.54825],[-2.83918,55.5482],[-2.83931,55.54827],[-2.83944,55.54821],[-2.83951,55.54825],[-2.83954,55.54827]] ]}},
{ "type":"Feature","properties":{"osm_way_id":"247011311","name":"Morrisons","building":"retail","shop":"supermarket","other":{"addr:city":"Hawick","addr:housename":"Morrisons supermarket","addr:postcode":"TD9 9NQ","addr:street":"Mart Street","branch":"Hawick","brand":"Morrisons","brand:wikidata":"Q922344","brand:wikipedia":"en:Morrisons","building:levels":"1","fhrs:id":"14924","opening_hours":"Mo-Sa 07:00-22:00; Su 08:00-20:00","wheelchair":"yes"}}, "geometry":{"type":"Polygon","coordinates":[[[ -2.78228,55.42775],[-2.78133,55.42793],[-2.78123,55.42774],[-2.78109,55.42777],[-2.78086,55.42736],[-2.78167,55.42721],[-2.78165,55.42717],[-2.78183,55.42713],[-2.78208,55.42721],[-2.78215,55.42733],[-2.78206,55.42735],[-2.78226,55.42771],[-2.78228,55.42775]] ]}},
{ "type":"Feature","properties":{"osm_way_id":"247192126","name":"Sainsbury's","building":"retail","shop":"supermarket","other":{"addr:city":"Hawick","addr:postcode":"TD9 7AD","addr:street":"Commercial Road","branch":"Hawick Superstore","brand":"Sainsbury's","brand:wikidata":"Q152096","brand:wikipedia":"en:Sainsbury's","opening_hours":"Mo-Sa 08:00-21:00; Su 08:00-20:00"}}, "geometry":{"type":"Polygon","coordinates":[[[ -2.79041,55.42503],[-2.79033,55.42513],[-2.79037,55.42514],[-2.79033,55.42519],[-2.79028,55.42517],[-2.78988,55.42565],[-2.78942,55.42553],[-2.78943,55.42551],[-2.78906,55.42542],[-2.78915,55.4253],[-2.78918,55.42531],[-2.78952,55.4249],[-2.79024,55.42509],[-2.79032,55.425],[-2.79041,55.42503]] ]}},
{ "type":"Feature","properties":{"osm_way_id":"288070204","name":"Lidl","building":"retail","shop":"supermarket","other":{"addr:city":"Hawick","addr:postcode":"TD9 7DS","addr:street":"Wilton Path","branch":"Hawick","brand":"Lidl","brand:wikidata":"Q151954","brand:wikipedia":"en:Lidl","fhrs:id":"954514"}}, "geometry":{"type":"Polygon","coordinates":[[[ -2.79078,55.42463],[-2.79061,55.42482],[-2.79072,55.42485],[-2.79062,55.42496],[-2.78967,55.4247],[-2.78994,55.4244],[-2.79078,55.42463]] ]}},
{ "type":"Feature","properties":{"osm_way_id":"437828397","name":"Co-op Food","building":"retail","shop":"supermarket","other":{"addr:city":"Jedburgh","addr:postcode":"TD8 6DQ","addr:street":"High Street","brand":"Co-op Food","brand:wikidata":"Q3277439","brand:wikipedia":"en:Co-op Food","fhrs:id":"27660","opening_hours":"Mo-Su 06:00-22:00","operator":"The Co-operative Group","operator:wikidata":"Q117202","operator:wikipedia":"en:The Co-operative Group","payment:coins":"yes","payment:contactless":"yes","payment:credit_cards":"yes","payment:debit_cards":"yes","payment:notes":"yes","website":"https:\/\/finder.coop.co.uk\/food\/store\/TD8-6DQ\/high-street"}}, "geometry":{"type":"Polygon","coordinates":[[[ -2.55461,55.47939],[-2.55411,55.47918],[-2.55436,55.47898],[-2.55486,55.47918],[-2.55461,55.47939]] ]}},
{ "type":"Feature","properties":{"osm_way_id":"480687322","name":"The Co-operative Food","building":"yes","shop":"supermarket","other":{"addr:city":"Innerleithen","addr:postcode":"EH44 6QZ","addr:street":"Peebles Road","branch":"Innerleithen","brand":"The Co-operative Food","brand:wikidata":"Q3277439","brand:wikipedia":"en:Co-op Food","opening_hours":"Mo-Su 07:00-22:00"}}, "geometry":{"type":"Polygon","coordinates":[[[ -3.06727,55.61743],[-3.06713,55.61749],[-3.0671,55.61747],[-3.06696,55.61752],[-3.06688,55.61745],[-3.06684,55.61747],[-3.06673,55.61739],[-3.06684,55.61734],[-3.06675,55.61727],[-3.06695,55.61719],[-3.06727,55.61743]] ]}},
{ "type":"Feature","properties":{"osm_way_id":"596388029","name":"Co-op Food","building":"retail","shop":"supermarket","other":{"addr:postcode":"TD4 6DL","addr:street":"Melrose Road","brand":"Co-op Food","brand:wikidata":"Q3277439","brand:wikipedia":"en:Co-op Food","fhrs:id":"847150","layer":"1","opening_hours":"Mo-Sa 05:00-12:00","operator":"The Co-operative Group","operator:wikidata":"Q117202","operator:wikipedia":"en:The Co-operative Group","source:addr":"FHRS Open Data","website":"https:\/\/www.coop.co.uk\/"}}, "geometry":{"type":"Polygon","coordinates":[[[ -2.68091,55.63607],[-2.68119,55.63611],[-2.68106,55.63638],[-2.68079,55.63634],[-2.68086,55.63619],[-2.68091,55.63607]] ]}},
{ "type":"Feature","properties":{"osm_way_id":"713814611","name":"Aldi","building":"yes","shop":"supermarket","other":{"addr:housenumber":"31-32","addr:postcode":"TD9 7AD","addr:street":"Commercial Road","brand":"ALDI","brand:wikidata":"Q41171672","brand:wikipedia":"en:Aldi","fhrs:id":"1051798","source:addr":"FHRS Open Data"}}, "geometry":{"type":"Polygon","coordinates":[[[ -2.78696,55.42771],[-2.78692,55.42773],[-2.78698,55.42776],[-2.78667,55.42791],[-2.78662,55.42788],[-2.78626,55.42805],[-2.78622,55.42803],[-2.78618,55.42805],[-2.78607,55.42798],[-2.78608,55.42797],[-2.78605,55.42795],[-2.78608,55.42794],[-2.78593,55.42784],[-2.7864,55.4276],[-2.78639,55.4276],[-2.7866,55.42749],[-2.78686,55.42766],[-2.78688,55.42765],[-2.78696,55.42771]] ]}},
{ "type":"Feature","properties":{"osm_way_id":"1020980097","name":"Co-op Food","building":"yes","shop":"supermarket","other":{"addr:postcode":"TD6 9PF","addr:street":"High Street","brand":"Co-op Food","brand:wikidata":"Q3277439","brand:wikipedia":"en:Co-op Food","fhrs:id":"975103","opening_hours":"Mo-Su 07:00-22:00","operator":"The Co-operative Group","operator:wikidata":"Q117202","operator:wikipedia":"en:The Co-operative Group","source:addr":"FHRS Open Data"}}, "geometry":{"type":"Polygon","coordinates":[[[ -2.72277,55.5985],[-2.72265,55.59846],[-2.72277,55.59834],[-2.72275,55.59833],[-2.72276,55.59832],[-2.72265,55.59829],[-2.72277,55.59815],[-2.7229,55.59819],[-2.72283,55.59826],[-2.72304,55.59832],[-2.72293,55.59844],[-2.72284,55.59842],[-2.72279,55.59848],[-2.72277,55.5985]] ]}}
]
}
