{
"type": "FeatureCollection",
"features": [
{ "type":"Feature","properties":{"osm_id":"2327511798","name":"Bay View Stores","other":{"shop":"supermarket","fhrs:id":"856396","addr:city":"Haverfordwest","addr:place":"Solva","addr:street":"Maes Ewan","addr:postcode":"SA62 6TX","addr:housenumber":"19"}}, "geometry":{"type":"Point","coordinates":[-5.20095,51.87457 ]}},
{ "type":"Feature","properties":{"osm_id":"3165122145","name":"Nisa Local","other":{"shop":"supermarket","operator":"Nisa Local","addr:city":"Haverfordwest","addr:street":"St. Peter's Road","addr:postcode":"SA62 3PR","opening_hours":"Mo-Su 07:00-22:00"}}, "geometry":{"type":"Point","coordinates":[-4.99667,51.75542 ]}},
{ "type":"Feature","properties":{"osm_id":"7055814711","name":"Asda","other":{"shop":"supermarket","brand":"Asda","fhrs:id":"857170","alt_name":"ASDA Pembroke Dock Supermarket","operator":"Asda Stores Ltd","addr:city":"Pembroke Dock","addr:street":"Gordon Street","addr:country":"GB","addr:postcode":"SA72 6DA","brand:wikidata":"Q297410","brand:wikipedia":"en:Asda","contact:twitter":"@asda","contact:website":"https:\/\/storelocator.asda.com\/wales\/pembroke-dock\/gordon-street","contact:facebook":"https:\/\/www.facebook.com\/asda\/"}}, "geometry":{"type":"Point","coordinates":[-4.94112,51.69521 ]}},
{ "type":"Feature","properties":{"osm_id":"7056547357","name":"Lidl","other":{"shop":"supermarket","brand":"Lidl","fhrs:id":"857012","alt_name":"LIDL Pembroke Dock","addr:city":"Pembroke Dock","addr:street":"Pier Road","addr:postcode":"SA72 6TR","brand:wikidata":"Q151954","brand:wikipedia":"en:Lidl"}}, "geometry":{"type":"Point","coordinates":[-4.94029,51.69697 ]}},
{ "type":"Feature","properties":{"osm_id":"7056547364","name":"Tesco","other":{"addr:city":"Pembroke Dock","addr:postcode":"SA72 6DS","addr:street":"London Road","alt_name":"Tesco Pembroke Dock Superstore","brand":"Tesco","brand:wikidata":"Q487494","brand:wikipedia":"en:Tesco","contact:website":"https:\/\/www.tesco.com\/store-locator\/pembroke-dock\/london-road","fhrs:id":"857047","shop":"supermarket","toilets":"yes","toilets:wheelchair":"yes","wheelchair":"yes"}}, "geometry":{"type":"Point","coordinates":[-4.93447,51.69392 ]}},
{ "type":"Feature","properties":{"osm_id":"8456161439","name":"Co-op Food","other":{"brand":"Co-op Food","brand:wikidata":"Q3277439","brand:wikipedia":"en:Co-op Food","shop":"supermarket"}}, "geometry":{"type":"Point","coordinates":[-4.70813,51.67487 ]}},
{ "type":"Feature","properties":{"osm_way_id":"209280545","name":"Tesco Extra","building":"yes","shop":"supermarket","other":{"brand":"Tesco Extra","fhrs:id":"856284","alt_name":"Tesco Haverfordwest Extra","addr:city":"Haverfordwest","wheelchair":"yes","addr:street":"Portfield Road","addr:postcode":"SA61 1BU","addr:housename":"Fenton Trading Estate","brand:wikidata":"Q25172225","brand:wikipedia":"en:Tesco Extra"}}, "geometry":{"type":"Polygon","coordinates":[[[ -4.97817,51.79826],[-4.97798,51.79823],[-4.97793,51.79838],[-4.97758,51.79833],[-4.97761,51.79825],[-4.97714,51.79819],[-4.97712,51.79825],[-4.9767,51.79819],[-4.97672,51.79813],[-4.97664,51.79812],[-4.97685,51.79753],[-4.97786,51.79766],[-4.97788,51.79761],[-4.97805,51.79763],[-4.97803,51.79768],[-4.97825,51.79771],[-4.97811,51.79811],[-4.97822,51.79812],[-4.97817,51.79826]] ]}},
{ "type":"Feature","properties":{"osm_way_id":"209280692","name":"Morrisons","building":"yes","shop":"supermarket","other":{"brand":"Morrisons","phone":"+44 1437 769440","fhrs:id":"856974","website":"https:\/\/my.morrisons.com\/storefinder\/273","alt_name":"Morrisons Haverfordwest","addr:city":"Haverfordwest","wheelchair":"yes","addr:street":"Bridge Meadow Lane","addr:country":"GB","addr:postcode":"SA61 2EX","opening_hours":"Mo-Sa 07:00-22:00; Su 10:00-16:00; PH Mo 08:00-19:00","payment:coins":"yes","payment:notes":"yes","brand:wikidata":"Q922344","brand:wikipedia":"en:Morrisons","payment:maestro":"yes","payment:bancomat":"yes","toilets:wheelchair":"yes"}}, "geometry":{"type":"Polygon","coordinates":[[[ -4.96969,51.80718],[-4.96934,51.80719],[-4.96933,51.80706],[-4.96904,51.80707],[-4.96905,51.80718],[-4.96869,51.80719],[-4.96865,51.8067],[-4.96849,51.8067],[-4.96847,51.80648],[-4.96865,51.80636],[-4.96903,51.80635],[-4.96904,51.80645],[-4.96964,51.80643],[-4.96969,51.80718]] ]}},
{ "type":"Feature","properties":{"osm_way_id":"209280854","name":"Aldi","building":"yes","shop":"supermarket","other":{"addr:city":"Haverfordwest","addr:postcode":"SA61 2LG","addr:street":"Salutation Square","alt_name":"ALDI Haverfordwest","brand":"ALDI","brand:wikidata":"Q41171672","brand:wikipedia":"en:Aldi"}}, "geometry":{"type":"Polygon","coordinates":[[[ -4.96357,51.80297],[-4.96278,51.80315],[-4.96271,51.80303],[-4.9628,51.80301],[-4.96274,51.8029],[-4.96344,51.80275],[-4.96357,51.80297]] ]}},
{ "type":"Feature","properties":{"osm_way_id":"209281054","name":"Lidl","building":"supermarket","shop":"supermarket","other":{"brand":"Lidl","fhrs:id":"857096","alt_name":"LIDL Haverfordwest","addr:city":"Haverfordwest","wheelchair":"yes","addr:street":"Perrots Road","addr:postcode":"SA61 2HD","opening_hours":"Mo-Sa 08:00-22:00; Su 10:00-16:00","brand:wikidata":"Q151954","brand:wikipedia":"en:Lidl"}}, "geometry":{"type":"Polygon","coordinates":[[[ -4.97302,51.8036],[-4.97268,51.80417],[-4.97219,51.80406],[-4.97253,51.80349],[-4.97302,51.8036]] ]}},
{ "type":"Feature","properties":{"osm_way_id":"229299094","name":"CK Supermarkets","building":"yes","shop":"supermarket","other":{"alt_name":"CK Narberth","addr:city":"Narberth","addr:street":"Spring Gardens","addr:postcode":"SA67 7BW","opening_hours":"Mo-Sa 07:00-22:00; Su 10:00-16:00","addr:housename":"Old Brewery Site"}}, "geometry":{"type":"Polygon","coordinates":[[[ -4.74307,51.8006],[-4.74348,51.80054],[-4.74359,51.80082],[-4.74318,51.80088],[-4.74307,51.8006]] ]}},
{ "type":"Feature","properties":{"osm_way_id":"232341727","name":"Sainsbury's","building":"yes","shop":"supermarket","other":{"addr:city":"Tenby","addr:postcode":"SA70 7LT","addr:street":"Upper Park Road","brand":"Sainsbury's","brand:wikidata":"Q152096","brand:wikipedia":"en:Sainsbury's","designation":"Tenby Superstore","fhrs:id":"856255"}}, "geometry":{"type":"Polygon","coordinates":[[[ -4.70451,51.67126],[-4.70399,51.6716],[-4.70398,51.67159],[-4.70388,51.67153],[-4.70383,51.6715],[-4.70379,51.67152],[-4.70373,51.67149],[-4.70366,51.67144],[-4.7037,51.67142],[-4.70422,51.67108],[-4.70424,51.6711],[-4.70443,51.67098],[-4.70456,51.67107],[-4.70449,51.67112],[-4.70449,51.6712],[-4.70444,51.67122],[-4.70451,51.67126]] ]}},
{ "type":"Feature","properties":{"osm_way_id":"232342302","name":"Co-op","building":"yes","shop":"supermarket","other":{"fhrs:id":"856077","wheelchair":"yes","addr:street":"Carmarthen Road","designation":"The Co-operative Food","addr:postcode":"SA68 0YA"}}, "geometry":{"type":"Polygon","coordinates":[[[ -4.71721,51.73209],[-4.71714,51.73181],[-4.71765,51.73176],[-4.71768,51.73183],[-4.71793,51.73181],[-4.71798,51.732],[-4.71721,51.73209]] ]}},
{ "type":"Feature","properties":{"osm_way_id":"315020702","name":"Tesco","building":"yes","shop":"supermarket","other":{"brand":"Tesco","fhrs:id":"856996","alt_name":"Tesco Milford Haven Superstore","addr:street":"The Docks","addr:postcode":"SA73 3AU","addr:housename":"Havens Head Park","brand:wikidata":"Q487494","brand:wikipedia":"en:Tesco"}}, "geometry":{"type":"Polygon","coordinates":[[[ -5.04269,51.71598],[-5.04249,51.71598],[-5.04248,51.7161],[-5.04218,51.7161],[-5.04219,51.71511],[-5.04276,51.71512],[-5.04269,51.71598]] ]}},
{ "type":"Feature","properties":{"osm_way_id":"315020703","name":"Lidl","building":"yes","shop":"supermarket","other":{"addr:postcode":"SA73 2NA","addr:street":"Great North Road","alt_name":"LIDL Milford Haven","brand":"Lidl","brand:wikidata":"Q151954","brand:wikipedia":"en:Lidl","fhrs:id":"856986"}}, "geometry":{"type":"Polygon","coordinates":[[[ -5.02942,51.7152],[-5.02925,51.71519],[-5.02925,51.71514],[-5.02904,51.71513],[-5.02909,51.71485],[-5.02903,51.71485],[-5.02907,51.71468],[-5.02951,51.71472],[-5.02942,51.7152]] ]}},
{ "type":"Feature","properties":{"osm_way_id":"315020704","name":"SPAR","building":"yes","shop":"supermarket","other":{"addr:housenumber":"55-57","addr:postcode":"SA73 2AA","addr:street":"Charles Street","alt_name":"EuroSPAR Milford Haven","brand":"Spar","brand:wikidata":"Q610492"}}, "geometry":{"type":"Polygon","coordinates":[[[ -5.03621,51.71352],[-5.03599,51.71349],[-5.03611,51.71316],[-5.03633,51.71319],[-5.03621,51.71352]] ]}},
{ "type":"Feature","properties":{"osm_way_id":"366841716","name":"Nisa Extra","building":"yes","shop":"supermarket","other":{"addr:city":"St David's","addr:housenumber":"53","addr:postcode":"SA62 6SW","addr:street":"New Street","alt_name":"Nisa Extra","brand":"Nisa Extra","brand:wikidata":"Q16999069","brand:wikipedia":"en:Nisa (retailer)","fhrs:id":"857035","opening_hours":"Mo-Sa 07:00-22:00; Su 10:00-16:00","operator":"Nisa"}}, "geometry":{"type":"Polygon","coordinates":[[[ -5.26303,51.88371],[-5.26267,51.88357],[-5.26295,51.88329],[-5.26321,51.8834],[-5.26328,51.88333],[-5.26341,51.88338],[-5.26336,51.88342],[-5.26341,51.88344],[-5.26337,51.88347],[-5.2633,51.88345],[-5.26303,51.88371]] ]}},
{ "type":"Feature","properties":{"osm_way_id":"369692624","name":"Co-op Food","building":"yes","shop":"supermarket","other":{"addr:city":"Fishguard","addr:housenumber":"32","addr:postcode":"SA65 9AR","addr:street":"High Street","brand":"Co-op Food","brand:wikidata":"Q3277439","brand:wikipedia":"en:Co-op Food","fhrs:id":"856101","opening_hours":"Mo-Sa 07:00-23:00, Su 10:00-16:00","operator":"The Co-operative Group","website":"https:\/\/finder.coop.co.uk\/food\/store\/SA65-9AR\/32-high-street"}}, "geometry":{"type":"Polygon","coordinates":[[[ -4.97872,51.99363],[-4.97831,51.99326],[-4.97859,51.99315],[-4.97867,51.99322],[-4.9786,51.99325],[-4.97884,51.99346],[-4.97887,51.99345],[-4.97895,51.99348],[-4.97893,51.9935],[-4.9789,51.99351],[-4.97893,51.99354],[-4.97872,51.99363]] ]}},
{ "type":"Feature","properties":{"osm_way_id":"395054777","name":"Nisa Extra","building":"yes","shop":"supermarket","other":{"addr:city":"Fishguard","addr:housenumber":"52-54","addr:postcode":"SA65 9NL","addr:street":"West Street","brand":"Nisa Extra","brand:wikidata":"Q16999069","brand:wikipedia":"en:Nisa (retailer)","building:levels":"1","fhrs:id":"856518","operator":"CK Foodstores"}}, "geometry":{"type":"Polygon","coordinates":[[[ -4.97952,51.99602],[-4.97942,51.99598],[-4.97935,51.99588],[-4.97939,51.99585],[-4.97953,51.99575],[-4.97964,51.99567],[-4.97984,51.99578],[-4.97984,51.9958],[-4.97952,51.99602]] ]}},
{ "type":"Feature","properties":{"osm_way_id":"441752154","name":"Spar","building":"yes","shop":"supermarket","other":{"addr:city":"Newport","addr:postcode":"SA42 0PH","addr:street":"Market Street","alt_name":"SPAR Newport Dyfed","brand":"Spar","brand:wikidata":"Q610492","brand:wikipedia":"en:SPAR (retailer)","fhrs:id":"856331","opening_hours":"Mo-Su 08:00-22:00"}}, "geometry":{"type":"Polygon","coordinates":[[[ -4.83263,52.01597],[-4.83249,52.01597],[-4.83249,52.01589],[-4.83236,52.01589],[-4.83236,52.01581],[-4.83263,52.01581],[-4.83263,52.01597]] ]}},
{ "type":"Feature","properties":{"osm_way_id":"459842534","name":"ALDI","building":"yes","shop":"supermarket","other":{"brand":"ALDI","brand:wikidata":"Q41171672","brand:wikipedia":"en:Aldi"}}, "geometry":{"type":"Polygon","coordinates":[[[ -4.92691,51.69402],[-4.92784,51.69411],[-4.92777,51.69439],[-4.92684,51.6943],[-4.92691,51.69402]] ]}},
{ "type":"Feature","properties":{"osm_way_id":"505619607","name":"Spar","building":"yes","shop":"supermarket","other":{"brand":"Spar","opening_hours":"Mo-Su 06:30-21:00","brand:wikidata":"Q610492","brand:wikipedia":"en:Spar (retailer)"}}, "geometry":{"type":"Polygon","coordinates":[[[ -5.13036,51.93772],[-5.1301,51.93777],[-5.13003,51.93763],[-5.13029,51.93758],[-5.13036,51.93772]] ]}},
{ "type":"Feature","properties":{"osm_way_id":"593047936","name":"Nisa CK Foostores Hakin","building":"shop","shop":"supermarket","other":{"url":"http:\/\/www.cksupermarkets.co.uk\/","fhrs:id":"856639","addr:city":"Milford Haven","addr:place":"Hakin","addr:street":"Gelliswick Road","addr:postcode":"SA73 3RD","addr:housenumber":"31"}}, "geometry":{"type":"Polygon","coordinates":[[[ -5.05546,51.71505],[-5.05532,51.71509],[-5.05531,51.71507],[-5.0552,51.71509],[-5.05507,51.71486],[-5.05532,51.7148],[-5.05546,51.71505]] ]}},
{ "type":"Feature","properties":{"osm_way_id":"593047943","name":"Co-Op","shop":"supermarket","other":{"fhrs:id":"856481","addr:city":"Milford Haven","addr:place":"Neyland","addr:street":"High Street","addr:postcode":"SA73 1TF","addr:housenumber":"44"}}, "geometry":{"type":"Polygon","coordinates":[[[ -4.94756,51.70838],[-4.94764,51.70832],[-4.94774,51.70836],[-4.94767,51.70843],[-4.94756,51.70838]] ]}}
]
}
