{
"type": "FeatureCollection",
"features": [
{ "type":"Feature","properties":{"osm_id":"59897119","name":"Tesco","other":{"addr:postcode":"LL55 2YG","addr:street":"LÃ´n Parc","brand":"Tesco","brand:wikidata":"Q487494","brand:wikipedia":"en:Tesco","contact:website":"https:\/\/www.tesco.com\/store-locator\/caernarfon\/south-rd","fhrs:id":"150570","shop":"supermarket","source:addr":"FHRS Open Data"}}, "geometry":{"type":"Point","coordinates":[-4.27075,53.13355 ]}},
{ "type":"Feature","properties":{"osm_id":"417393381","name":"Spar","other":{"brand":"Spar","brand:wikidata":"Q610492","brand:wikipedia":"en:SPAR (retailer)","shop":"supermarket","wheelchair":"yes"}}, "geometry":{"type":"Point","coordinates":[-4.12702,53.12007 ]}},
{ "type":"Feature","properties":{"osm_id":"1673407321","name":"Sainbury's On The Go","other":{"addr:city":"Bangor","addr:county":"Gwynedd","addr:place":"Bangor Services","addr:postcode":"LL57 4BG","brand":"Sainsbury's On the Go","brand:wikidata":"Q106860528","brand:wikipedia":"en:Sainsbury's","fhrs:id":"1181394","payment:cash":"yes","payment:credit_cards":"yes","shop":"supermarket","source:addr":"FHRS Open Data"}}, "geometry":{"type":"Point","coordinates":[-4.10706,53.20309 ]}},
{ "type":"Feature","properties":{"osm_id":"3408053095","name":"Shell Island Supermarket","other":{"shop":"supermarket","opening_hours":"Su-Th 08:00-20:00; Fr,Sa 08:00-21:00"}}, "geometry":{"type":"Point","coordinates":[-4.14371,52.81835 ]}},
{ "type":"Feature","properties":{"osm_id":"4057394983","name":"Iceland","other":{"addr:city":"Caernarfon","addr:postcode":"LL55 1NN","brand":"Iceland","brand:wikidata":"Q721810","fhrs:id":"591945","shop":"supermarket"}}, "geometry":{"type":"Point","coordinates":[-4.27318,53.14011 ]}},
{ "type":"Feature","properties":{"osm_way_id":"46160753","name":"M&S Simply Food","building":"yes","shop":"supermarket","other":{"brand":"M&S Simply Food","fhrs:id":"878083","alt_name":"M&S Menai Bangor Simply Food","addr:city":"Bangor","addr:street":"Ffordd Garth","addr:postcode":"LL57 1ED","addr:street:en":"Garth Road","brand:wikidata":"Q714491","brand:wikipedia":"en:Marks & Spencer","fhrs:local_authority_id":"14861"}}, "geometry":{"type":"Polygon","coordinates":[[[ -4.12634,53.22882],[-4.12609,53.22885],[-4.12596,53.22886],[-4.12594,53.22882],[-4.12574,53.22884],[-4.12567,53.22866],[-4.12585,53.22848],[-4.12621,53.22843],[-4.12626,53.22865],[-4.12634,53.22882]] ]}},
{ "type":"Feature","properties":{"osm_way_id":"46160754","name":"ALDI","building":"yes","shop":"supermarket","other":{"addr:city":"Bangor","addr:postcode":"LL57 2RW","addr:street":"Ffordd Garth","addr:street:en":"Garth Road","alt_name":"ALDI Bangor","brand":"ALDI","brand:wikidata":"Q41171672","brand:wikipedia":"en:Aldi","fhrs:id":"446863","fhrs:local_authority_id":"8697","operator":"Aldi Stores Ltd","payment:cash":"yes","payment:credit_cards":"yes"}}, "geometry":{"type":"Polygon","coordinates":[[[ -4.12591,53.22954],[-4.12563,53.22995],[-4.12519,53.22984],[-4.12523,53.22978],[-4.12517,53.22977],[-4.12521,53.2297],[-4.12535,53.22973],[-4.12554,53.22945],[-4.12591,53.22954]] ]}},
{ "type":"Feature","properties":{"osm_way_id":"46165611","name":"Morrisons","building":"yes","shop":"supermarket","other":{"addr:postcode":"LL57 2EE","addr:street":"Holyhead Road","alt_name":"Morrisons Bangor","brand":"Morrisons","brand:wikidata":"Q922344","brand:wikipedia":"en:Morrisons","fhrs:id":"65636"}}, "geometry":{"type":"Polygon","coordinates":[[[ -4.1345,53.22655],[-4.13442,53.22668],[-4.13401,53.2267],[-4.13349,53.2266],[-4.13355,53.2265],[-4.13368,53.22653],[-4.1339,53.22611],[-4.13383,53.22604],[-4.13395,53.226],[-4.13401,53.22604],[-4.1346,53.22615],[-4.13459,53.22618],[-4.13465,53.22619],[-4.13467,53.22622],[-4.1345,53.22655]] ]}},
{ "type":"Feature","properties":{"osm_way_id":"46263004","name":"Lidl","building":"yes","shop":"supermarket","other":{"addr:city":"Bangor","addr:country":"GB","addr:postcode":"LL57 1NP","addr:street":"High Street","alt_name":"LIDL Bangor Gwynedd","brand":"Lidl","brand:wikidata":"Q151954","brand:wikipedia":"en:Lidl","fhrs:id":"200821"}}, "geometry":{"type":"Polygon","coordinates":[[[ -4.13216,53.22274],[-4.13203,53.22259],[-4.13209,53.22257],[-4.1319,53.22233],[-4.13221,53.22224],[-4.13253,53.22263],[-4.13216,53.22274]] ]}},
{ "type":"Feature","properties":{"osm_way_id":"71762135","name":"The Co-operative","building":"retail","shop":"supermarket","other":{"addr:city":"Barmouth","addr:street":"Station Road","addr:postcode":"LL42 1PH"}}, "geometry":{"type":"Polygon","coordinates":[[[ -4.05692,52.72306],[-4.0572,52.72292],[-4.05763,52.72323],[-4.05735,52.72337],[-4.05692,52.72306]] ]}},
{ "type":"Feature","properties":{"osm_way_id":"89900298","name":"Asda","building":"yes","shop":"supermarket","other":{"brand":"Asda","alt_name":"ASDA Pwllheli Supermarket","operator":"Asda Stores Ltd","addr:street":"Sand Street","addr:country":"GB","addr:postcode":"LL53 5HY","contact:phone":"+44 1758 701318","brand:wikidata":"Q297410","brand:wikipedia":"en:Asda","contact:twitter":"@asda","contact:website":"https:\/\/storelocator.asda.com\/wales\/pwllheli\/sand-street","contact:facebook":"https:\/\/www.facebook.com\/asda\/"}}, "geometry":{"type":"Polygon","coordinates":[[[ -4.41592,52.89087],[-4.41539,52.89081],[-4.4154,52.89077],[-4.41535,52.89076],[-4.41547,52.89041],[-4.41552,52.89042],[-4.41555,52.89032],[-4.41565,52.89033],[-4.41567,52.89028],[-4.41606,52.89032],[-4.41605,52.89037],[-4.41608,52.89038],[-4.41592,52.89087]] ]}},
{ "type":"Feature","properties":{"osm_way_id":"99343563","name":"Tesco","building":"retail","shop":"supermarket","other":{"addr:city":"Porthmadog","addr:postcode":"LL49 9NU","addr:street":"High Street","alt_name":"Tesco Porthmadog Superstore","atm":"yes","brand":"Tesco","brand:wikidata":"Q487494","brand:wikipedia":"en:Tesco","fhrs:id":"60006","opening_hours":"Mo-Sa 06:00-24:00; Su 10:00-16:00","operator":"Tesco","wheelchair":"yes"}}, "geometry":{"type":"Polygon","coordinates":[[[ -4.13556,52.92948],[-4.13531,52.92949],[-4.13529,52.92939],[-4.13493,52.92941],[-4.13481,52.92874],[-4.13543,52.9287],[-4.13556,52.92948]] ]}},
{ "type":"Feature","properties":{"osm_way_id":"135109258","name":"The Co-operative Food","building":"retail","shop":"supermarket","other":{"addr:city":"Tywyn","addr:postcode":"LL36 9AH","addr:street":"Old Station Yard","brand":"The Co-operative Food","brand:wikidata":"Q107617274"}}, "geometry":{"type":"Polygon","coordinates":[[[ -4.0918,52.58468],[-4.09252,52.58504],[-4.09247,52.58508],[-4.0925,52.58509],[-4.09245,52.58513],[-4.09241,52.58512],[-4.09231,52.58519],[-4.09192,52.58499],[-4.0919,52.58501],[-4.09157,52.58484],[-4.0918,52.58468]] ]}},
{ "type":"Feature","properties":{"osm_way_id":"136927536","name":"SPAR","building":"yes","shop":"supermarket","other":{"addr:city":"Tywyn","addr:housenumber":"16","addr:postcode":"LL36 9AD","addr:street":"High Street","alt_name":"SPAR Tywyn","brand":"Spar","brand:wikidata":"Q610492"}}, "geometry":{"type":"Polygon","coordinates":[[[ -4.09107,52.58619],[-4.09105,52.58615],[-4.09136,52.5861],[-4.09148,52.58635],[-4.09152,52.58642],[-4.09123,52.58647],[-4.09119,52.58639],[-4.09116,52.58633],[-4.09114,52.58633],[-4.09107,52.58619]] ]}},
{ "type":"Feature","properties":{"osm_way_id":"140066979","name":"Aldi","building":"yes","shop":"supermarket","other":{"addr:city":"Porthmadog","addr:postcode":"LL49 9NY","addr:street":"Ffordd Penamser","alt_name":"ALDI Porthmadog","brand":"ALDI","brand:wikidata":"Q41171672","brand:wikipedia":"en:Aldi","opening_hours":"Mo-Sa 08:00-22:00, Su 10:00-16:00"}}, "geometry":{"type":"Polygon","coordinates":[[[ -4.13707,52.92882],[-4.13692,52.9288],[-4.13692,52.9288],[-4.13668,52.92877],[-4.1367,52.92871],[-4.13666,52.92871],[-4.13672,52.92851],[-4.13667,52.92851],[-4.13676,52.92827],[-4.13711,52.92832],[-4.13711,52.92834],[-4.13723,52.92836],[-4.13707,52.92882]] ]}},
{ "type":"Feature","properties":{"osm_way_id":"155792715","name":"Morrisons","building":"yes","shop":"supermarket","other":{"addr:city":"Caernarfon","addr:postcode":"LL55 1BA","addr:street":"Ffordd Y Gogledd","brand":"Morrisons","brand:wikidata":"Q922344","brand:wikipedia":"en:Morrisons","fhrs:id":"68732","phone":"+44 1286 676617"}}, "geometry":{"type":"Polygon","coordinates":[[[ -4.27286,53.14449],[-4.27237,53.14488],[-4.2719,53.14466],[-4.27182,53.14473],[-4.2716,53.14463],[-4.27165,53.14459],[-4.27154,53.14454],[-4.27168,53.14443],[-4.27174,53.14446],[-4.27181,53.14441],[-4.27188,53.14444],[-4.27233,53.14409],[-4.27275,53.14428],[-4.27273,53.14429],[-4.27278,53.14432],[-4.27267,53.1444],[-4.27286,53.14449]] ]}},
{ "type":"Feature","properties":{"osm_way_id":"155794057","name":"Asda","building":"yes","shop":"supermarket","other":{"brand":"Asda","fhrs:id":"85242","operator":"Asda Stores Ltd","addr:city":"Caernarfon","addr:street":"Bangor Street","addr:country":"GB","addr:postcode":"LL55 1AR","brand:wikidata":"Q297410","brand:wikipedia":"en:Asda","contact:twitter":"@asda","contact:website":"https:\/\/storelocator.asda.com\/wales\/caernarfon\/bangor-road","contact:facebook":"https:\/\/www.facebook.com\/asda\/"}}, "geometry":{"type":"Polygon","coordinates":[[[ -4.27384,53.14303],[-4.27363,53.14326],[-4.27355,53.14323],[-4.27346,53.14333],[-4.27304,53.1432],[-4.27315,53.14308],[-4.27324,53.14311],[-4.27343,53.1429],[-4.27384,53.14303]] ]}},
{ "type":"Feature","properties":{"osm_way_id":"157072315","name":"Co-op Food","building":"yes","shop":"supermarket","other":{"addr:housenumber":"78-86","addr:postcode":"LL23 7AD","addr:street":"Stryd Fawr","brand":"Co-op Food","brand:wikidata":"Q3277439","brand:wikipedia":"en:Co-op Food"}}, "geometry":{"type":"Polygon","coordinates":[[[ -3.59942,52.90976],[-3.59917,52.90961],[-3.59893,52.90947],[-3.59918,52.90932],[-3.59953,52.90955],[-3.59966,52.90963],[-3.59942,52.90976]] ]}},
{ "type":"Feature","properties":{"osm_way_id":"179183454","name":"The Co-operative Food","building":"yes","shop":"supermarket","other":{"addr:city":"Dolgellau","addr:street":"Maes Talaran","addr:postcode":"LL40 1HR","opening_hours":"Mo-Sa 07:00-22:00; Su 10:00-16:00","addr:housenumber":"14"}}, "geometry":{"type":"Polygon","coordinates":[[[ -3.88179,52.74321],[-3.88146,52.7432],[-3.88154,52.74256],[-3.88171,52.74257],[-3.88168,52.74278],[-3.88167,52.74291],[-3.88183,52.74292],[-3.88179,52.74321]] ]}},
{ "type":"Feature","properties":{"osm_way_id":"209879369","name":"Lidl","building":"yes","shop":"supermarket","other":{"addr:country":"GB","addr:postcode":"LL53 5NF","addr:street":"Lower Cardiff Road","alt_name":"LIDL Pwllheli","brand":"Lidl","brand:wikidata":"Q151954","fhrs:id":"74677"}}, "geometry":{"type":"Polygon","coordinates":[[[ -4.42095,52.88729],[-4.42086,52.8874],[-4.42093,52.88742],[-4.42087,52.88748],[-4.42017,52.88726],[-4.42034,52.88706],[-4.42079,52.8872],[-4.42076,52.88723],[-4.42095,52.88729]] ]}},
{ "type":"Feature","properties":{"osm_way_id":"209879370","name":"SPAR","building":"yes","shop":"supermarket","other":{"addr:postcode":"LL53 5HA","addr:street":"Y Maes","alt_name":"SPAR Pwllheli","brand":"Spar","brand:wikidata":"Q610492"}}, "geometry":{"type":"Polygon","coordinates":[[[ -4.41979,52.88734],[-4.41971,52.88744],[-4.41926,52.8873],[-4.41935,52.88721],[-4.41979,52.88734]] ]}},
{ "type":"Feature","properties":{"osm_way_id":"209879371","name":"Iceland","building":"yes","shop":"supermarket","other":{"addr:postcode":"LL53 5NF","addr:street":"Y Maes","alt_name":"Iceland Pwllheli","brand":"Iceland","brand:wikidata":"Q721810"}}, "geometry":{"type":"Polygon","coordinates":[[[ -4.41992,52.88714],[-4.41987,52.88724],[-4.41938,52.88713],[-4.41944,52.88704],[-4.41992,52.88714]] ]}},
{ "type":"Feature","properties":{"osm_way_id":"210136740","name":"Eurospar","building":"yes","shop":"supermarket","other":{"addr:city":"Dolgellau","addr:postcode":"LL40 1BB","addr:street":"Bala Road","brand":"Eurospar","brand:wikidata":"Q12309283","brand:wikipedia":"da:Eurospar","opening_hours":"Mo-Sa 07:00-22:00; Su 10:00-16:00"}}, "geometry":{"type":"Polygon","coordinates":[[[ -3.88161,52.74587],[-3.88098,52.7461],[-3.88081,52.74592],[-3.88105,52.74583],[-3.88107,52.74585],[-3.88134,52.74576],[-3.88132,52.74574],[-3.88144,52.7457],[-3.88161,52.74587]] ]}},
{ "type":"Feature","properties":{"osm_way_id":"222351962","name":"Spar","building":"yes","shop":"supermarket","other":{"addr:postcode":"LL57 3AE","addr:street":"High Street","brand":"Spar","brand:wikidata":"Q610492","brand:wikipedia":"en:SPAR (retailer)","fhrs:id":"200806","operator":"Tates Ltd. Bethesda"}}, "geometry":{"type":"Polygon","coordinates":[[[ -4.06074,53.17968],[-4.06059,53.17967],[-4.06052,53.17977],[-4.06039,53.17974],[-4.06053,53.17954],[-4.06063,53.17955],[-4.06063,53.17958],[-4.06075,53.17959],[-4.06074,53.17968]] ]}},
{ "type":"Feature","properties":{"osm_way_id":"222353358","name":"Tesco Extra","building":"yes","shop":"supermarket","other":{"brand":"Tesco Extra","fhrs:id":"200774","alt_name":"Tesco Bangor Extra","addr:city":"Bangor","addr:street":"Ffordd Caernarfon","addr:postcode":"LL57 4SU","addr:street:en":"Caernarfon Road","brand:wikidata":"Q25172225","brand:wikipedia":"en:Tesco Extra","fhrs:local_authority_id":"15303"}}, "geometry":{"type":"Polygon","coordinates":[[[ -4.15236,53.20719],[-4.15226,53.20713],[-4.15212,53.2072],[-4.15198,53.20711],[-4.15214,53.20702],[-4.15164,53.20669],[-4.15281,53.20606],[-4.15339,53.20645],[-4.15345,53.20641],[-4.15368,53.20657],[-4.15272,53.20708],[-4.15265,53.20704],[-4.15236,53.20719]] ]}},
{ "type":"Feature","properties":{"osm_way_id":"228558190","name":"Asda","building":"yes","shop":"supermarket","other":{"brand":"Asda","fhrs:id":"535685","alt_name":"ASDA Bangor Farrar Road Supermarket","operator":"Asda Stores Ltd","addr:city":"Bangor","addr:street":"Ffordd Farrar","addr:country":"GB","addr:postcode":"LL57 1LJ","addr:street:en":"Farrar Road","brand:wikidata":"Q297410","brand:wikipedia":"en:Asda","contact:twitter":"@asda","contact:website":"https:\/\/storelocator.asda.com\/wales\/bangor\/farrar-road","contact:facebook":"https:\/\/www.facebook.com\/asda\/"}}, "geometry":{"type":"Polygon","coordinates":[[[ -4.13177,53.22439],[-4.13122,53.2247],[-4.13114,53.22465],[-4.13094,53.22477],[-4.13043,53.22445],[-4.13118,53.22402],[-4.13177,53.22439]] ]}},
{ "type":"Feature","properties":{"osm_way_id":"230562196","name":"Londis","building":"yes","shop":"supermarket","other":{"addr:postcode":"LL41 3HW","addr:street":"New Market Square"}}, "geometry":{"type":"Polygon","coordinates":[[[ -3.94073,52.99347],[-3.94081,52.99314],[-3.94104,52.99315],[-3.94106,52.99316],[-3.94105,52.99321],[-3.94111,52.99321],[-3.94104,52.9935],[-3.94073,52.99347]] ]}},
{ "type":"Feature","properties":{"osm_way_id":"230562207","name":"The Co-operative","building":"yes","shop":"supermarket","other":{"wheelchair":"yes","addr:street":"High Street","designation":"The Co-operative Food","addr:postcode":"LL41 3AG","opening_hours":"Mo-Sa 07:00-23:00, Su 10:00-16:00"}}, "geometry":{"type":"Polygon","coordinates":[[[ -3.93457,52.99475],[-3.93416,52.9949],[-3.93409,52.99489],[-3.93397,52.99476],[-3.93367,52.99487],[-3.93358,52.99478],[-3.9338,52.9947],[-3.93382,52.99472],[-3.93386,52.99471],[-3.93389,52.99473],[-3.93391,52.99472],[-3.93393,52.99474],[-3.93398,52.99472],[-3.934,52.99474],[-3.93418,52.99468],[-3.93422,52.99471],[-3.93443,52.99464],[-3.93445,52.99463],[-3.93457,52.99475]] ]}},
{ "type":"Feature","properties":{"osm_way_id":"238005508","name":"Lidl","building":"yes","shop":"supermarket","other":{"addr:city":"Porthmadog","addr:postcode":"LL49 9NY","addr:street":"Ffordd Penamser","alt_name":"LIDL Porthmadog","brand":"Lidl","brand:wikidata":"Q151954","brand:wikipedia":"en:Lidl","fhrs:id":"591907","opening_hours":"Mo-Sa 08:00-22:00; Su 10:00-16:00"}}, "geometry":{"type":"Polygon","coordinates":[[[ -4.13746,52.92951],[-4.13737,52.92898],[-4.13785,52.92895],[-4.13788,52.92911],[-4.13781,52.92911],[-4.13786,52.92943],[-4.13762,52.92945],[-4.13763,52.9295],[-4.13746,52.92951]] ]}},
{ "type":"Feature","properties":{"osm_way_id":"238005701","name":"Spar","building":"yes","shop":"supermarket","other":{"addr:postcode":"LL44 2EN","addr:street":"High Street","brand":"Spar","brand:wikidata":"Q610492","brand:wikipedia":"en:Spar (retailer)","designation":"Dyffryn Ardudwy"}}, "geometry":{"type":"Polygon","coordinates":[[[ -4.0967,52.78586],[-4.09662,52.78586],[-4.09662,52.78584],[-4.09655,52.78584],[-4.09654,52.78573],[-4.0965,52.78569],[-4.09652,52.78568],[-4.09649,52.78565],[-4.09655,52.78562],[-4.09659,52.78567],[-4.09663,52.78566],[-4.09667,52.7857],[-4.09662,52.78572],[-4.09663,52.78579],[-4.09669,52.78579],[-4.0967,52.78586]] ]}},
{ "type":"Feature","properties":{"osm_way_id":"355803659","name":"Spar","building":"retail","shop":"supermarket","other":{"addr:city":"Barmouth","addr:postcode":"LL42 1PD","addr:street":"King Edward's Street","brand":"Spar","brand:wikidata":"Q610492","building:levels":"1","building:material":"brick","phone":"+44 1341 281314","roof:colour":"grey","roof:shape":"flat"}}, "geometry":{"type":"Polygon","coordinates":[[[ -4.05561,52.72251],[-4.05531,52.72269],[-4.05517,52.72261],[-4.0555,52.72243],[-4.05561,52.72251]] ]}},
{ "type":"Feature","properties":{"osm_way_id":"475472167","name":"Cooperative","building":"yes","shop":"supermarket","other":{"name:en":"Cooperative Food"}}, "geometry":{"type":"Polygon","coordinates":[[[ -4.28266,53.05315],[-4.28264,53.05308],[-4.2831,53.05304],[-4.2831,53.05305],[-4.28322,53.05303],[-4.28324,53.05309],[-4.28266,53.05315]] ]}}
]
}
