{
"type": "FeatureCollection",
"features": [
{ "type":"Feature","properties":{"osm_id":"297604216","name":"Co-op Food","other":{"brand":"Co-op Food","brand:wikidata":"Q3277439","brand:wikipedia":"en:Co-op Food","operator":"Co-Op","shop":"supermarket"}}, "geometry":{"type":"Point","coordinates":[-3.40093,52.1478 ]}},
{ "type":"Feature","properties":{"osm_id":"761507847","name":"Spar","other":{"brand":"Spar","brand:wikidata":"Q610492","brand:wikipedia":"en:Spar (retailer)","shop":"supermarket"}}, "geometry":{"type":"Point","coordinates":[-3.51065,52.30024 ]}},
{ "type":"Feature","properties":{"osm_id":"6391888791","name":"Camden Stores Farm Shop","other":{"shop":"supermarket"}}, "geometry":{"type":"Point","coordinates":[-3.37265,51.94154 ]}},
{ "type":"Feature","properties":{"osm_id":"6788114802","name":"Co-Op","other":{"shop":"supermarket"}}, "geometry":{"type":"Point","coordinates":[-3.5094,52.3008 ]}},
{ "type":"Feature","properties":{"osm_id":"8510228321","other":{"power":"pole"}}, "geometry":{"type":"Point","coordinates":[-3.43103,52.52767 ]}},
{ "type":"Feature","properties":{"osm_id":"8659113662","name":"Tuffins","other":{"addr:city":"Welshpool","shop":"supermarket","start_date":"2018"}}, "geometry":{"type":"Point","coordinates":[-3.1231,52.67148 ]}},
{ "type":"Feature","properties":{"osm_id":"8821387078","highway":"give_way","other":{"direction":"backward"}}, "geometry":{"type":"Point","coordinates":[-3.0509,52.69804 ]}},
{ "type":"Feature","properties":{"osm_way_id":"82514244","name":"Tesco","building":"supermarket","shop":"supermarket","other":{"brand":"Tesco","brand:wikidata":"Q487494","opening_hours":"07:00-23:00","website":"https:\/\/www.tesco.com\/store-locator\/llandrindod-wells\/waterloo-rd"}}, "geometry":{"type":"Polygon","coordinates":[[[ -3.37843,52.24457],[-3.37866,52.24397],[-3.37971,52.24414],[-3.37942,52.24473],[-3.37925,52.2447],[-3.37919,52.24483],[-3.379,52.2448],[-3.37906,52.24467],[-3.37843,52.24457]] ]}},
{ "type":"Feature","properties":{"osm_way_id":"82521227","name":"ALDI","building":"yes","shop":"supermarket","other":{"brand":"ALDI","brand:wikidata":"Q41171672","brand:wikipedia":"en:Aldi"}}, "geometry":{"type":"Polygon","coordinates":[[[ -3.37816,52.24292],[-3.37784,52.24288],[-3.37784,52.24286],[-3.37769,52.24284],[-3.37773,52.24272],[-3.37778,52.24273],[-3.37788,52.24242],[-3.37829,52.24247],[-3.37828,52.24249],[-3.37839,52.2425],[-3.37836,52.24261],[-3.37823,52.24259],[-3.37816,52.24281],[-3.37819,52.24282],[-3.37816,52.24292]] ]}},
{ "type":"Feature","properties":{"osm_way_id":"89051324","name":"Morrisons","building":"yes","shop":"supermarket","other":{"brand":"Morrisons","alt_name":"Morrisons Brecon","addr:city":"Brecon","wheelchair":"yes","addr:street":"Free Street","addr:postcode":"LD3 7SE","opening_hours":"Mo-Sa 07:00-22:00 Su 10:00-16:00","brand:wikidata":"Q922344","brand:wikipedia":"en:Morrisons"}}, "geometry":{"type":"Polygon","coordinates":[[[ -3.38856,51.94745],[-3.38827,51.94758],[-3.38829,51.9476],[-3.38817,51.94766],[-3.38804,51.94772],[-3.38796,51.94766],[-3.38792,51.94768],[-3.38782,51.9476],[-3.38784,51.94758],[-3.38765,51.94743],[-3.38769,51.94741],[-3.38759,51.94732],[-3.38769,51.94726],[-3.38763,51.94721],[-3.38784,51.9471],[-3.38781,51.94706],[-3.38789,51.94703],[-3.38792,51.94706],[-3.38802,51.94702],[-3.38809,51.947],[-3.38824,51.94713],[-3.38838,51.94705],[-3.38857,51.9472],[-3.38842,51.94727],[-3.38849,51.94732],[-3.38845,51.94735],[-3.38856,51.94745]] ]}},
{ "type":"Feature","properties":{"osm_way_id":"138942503","name":"Co-op","building":"yes","shop":"supermarket","other":{"addr:housenumber":"80-88","addr:postcode":"SY20 8EE","addr:street":"Meangwyn Street","alt_name":"The Co-operative Food"}}, "geometry":{"type":"Polygon","coordinates":[[[ -3.84803,52.59076],[-3.848,52.59076],[-3.84798,52.59078],[-3.84795,52.59078],[-3.84793,52.59076],[-3.84768,52.59076],[-3.84768,52.59033],[-3.84768,52.59031],[-3.84803,52.59031],[-3.84803,52.59076]] ]}},
{ "type":"Feature","properties":{"osm_way_id":"156845667","name":"Churchstoke Shopping Centre (Harry Tuffins)","building":"yes","shop":"supermarket","other":{"addr:city":"Churchstoke","addr:postcode":"SY15 6AR","operator":"The Midcounties Co-operative Society","phone":"+44 1588 620226"}}, "geometry":{"type":"Polygon","coordinates":[[[ -3.06439,52.53732],[-3.06434,52.53769],[-3.06427,52.53769],[-3.06425,52.53776],[-3.06407,52.53775],[-3.06405,52.53782],[-3.06372,52.5378],[-3.06373,52.53773],[-3.06321,52.53768],[-3.06324,52.53748],[-3.0632,52.53747],[-3.06324,52.53724],[-3.06333,52.53724],[-3.06424,52.53731],[-3.06439,52.53732]] ]}},
{ "type":"Feature","properties":{"osm_way_id":"199543699","name":"LIDL","building":"yes","shop":"supermarket","other":{"addr:city":"Newtown","addr:postcode":"SY16 1ET","addr:street":"Llanidloes Road","alt_name":"LIDL Newtown","brand":"Lidl","brand:wikidata":"Q151954","fhrs:id":"182526","opening_hours":"Mo-Sa 08:00-20:00; Su 10:00-16:00","source:addr:postcode":"FSA Food Hygiene Ratings Database"}}, "geometry":{"type":"Polygon","coordinates":[[[ -3.31988,52.51006],[-3.31892,52.5103],[-3.31879,52.51011],[-3.31885,52.51009],[-3.31882,52.51004],[-3.31956,52.50987],[-3.31952,52.50981],[-3.31969,52.50977],[-3.31988,52.51006]] ]}},
{ "type":"Feature","properties":{"osm_way_id":"199543700","name":"Morrisons","building":"yes","shop":"supermarket","other":{"addr:city":"Newtown","addr:postcode":"SY16 3AH","addr:street":"Pool Road","alt_name":"Morrisons Newtown","brand":"Morrisons","brand:wikidata":"Q922344","brand:wikipedia":"en:Morrisons","opening_hours":"Mo-Sa 07:00-22:00; Su 10:00-16:00"}}, "geometry":{"type":"Polygon","coordinates":[[[ -3.29963,52.51656],[-3.2987,52.51693],[-3.29867,52.5169],[-3.29847,52.5167],[-3.29857,52.51666],[-3.29825,52.51636],[-3.29908,52.51604],[-3.2994,52.51634],[-3.29963,52.51656]] ]}},
{ "type":"Feature","properties":{"osm_way_id":"199543701","name":"Tesco","building":"yes","shop":"supermarket","other":{"addr:city":"Newtown","addr:postcode":"SY16 1DW","addr:street":"Pool Road","alt_name":"Tesco Newtown Superstore","brand":"Tesco","brand:wikidata":"Q487494","brand:wikipedia":"en:Tesco","opening_hours":"Mo-Sa 07:00-22:00; Su 10:00-16:00"}}, "geometry":{"type":"Polygon","coordinates":[[[ -3.30566,52.51428],[-3.30525,52.51375],[-3.30668,52.51333],[-3.3068,52.51349],[-3.30656,52.51356],[-3.30666,52.51368],[-3.30658,52.51377],[-3.30651,52.51385],[-3.30648,52.51396],[-3.30645,52.51408],[-3.30622,52.51414],[-3.30566,52.51428]] ]}},
{ "type":"Feature","properties":{"osm_way_id":"236012251","name":"Tesco","building":"yes","shop":"supermarket","other":{"addr:postcode":"SY21 7BL","addr:street":"Smithfield Road","branch":"Superstore","brand":"Tesco","brand:wikidata":"Q487494","brand:wikipedia":"en:Tesco","operator":"Tesco","toilets:wheelchair":"yes","wheelchair":"yes"}}, "geometry":{"type":"Polygon","coordinates":[[[ -3.14162,52.65907],[-3.14059,52.65882],[-3.14055,52.65881],[-3.14092,52.65826],[-3.1412,52.65831],[-3.14125,52.65823],[-3.14159,52.65832],[-3.14158,52.65836],[-3.14167,52.65854],[-3.14191,52.65861],[-3.14186,52.65869],[-3.14162,52.65907]] ]}},
{ "type":"Feature","properties":{"osm_way_id":"236012252","name":"Morrisons","building":"retail","shop":"supermarket","other":{"addr:postcode":"SY21 7SQ","addr:street":"Berriew Street","brand":"Morrisons","brand:wikidata":"Q922344","brand:wikipedia":"en:Morrisons","designation":"Welshpool","toilets":"yes","toilets:wheelchair":"yes","wheelchair":"yes"}}, "geometry":{"type":"Polygon","coordinates":[[[ -3.14632,52.65837],[-3.14636,52.65833],[-3.14637,52.65832],[-3.14642,52.65828],[-3.14648,52.6583],[-3.14685,52.65791],[-3.14694,52.65788],[-3.14697,52.65787],[-3.14726,52.65823],[-3.14702,52.65848],[-3.14708,52.6585],[-3.14698,52.65858],[-3.14671,52.65854],[-3.14632,52.65837]] ]}},
{ "type":"Feature","properties":{"osm_way_id":"236012253","name":"Sainsbury's","building":"yes","shop":"supermarket","other":{"addr:city":"Welshpool","addr:postcode":"SY21 7NJ","addr:street":"Brook Street","brand":"Sainsbury's","brand:wikidata":"Q152096","brand:wikipedia":"en:Sainsbury's","designation":"Welshpool Superstore","fhrs:id":"441019","wheelchair":"yes","wheelchair:description":"ATM MACHINE HERE"}}, "geometry":{"type":"Polygon","coordinates":[[[ -3.1502,52.66156],[-3.14993,52.66154],[-3.15003,52.6611],[-3.1503,52.66112],[-3.1502,52.66156]] ]}},
{ "type":"Feature","properties":{"osm_way_id":"258009166","name":"SPAR","building":"yes","shop":"supermarket","other":{"addr:housename":"Eagle House","addr:postcode":"SY22 6AQ","alt_name":"Wynnstay Stores","brand":"Spar","brand:wikidata":"Q610492","designation":"Wynnstay-Llansantffraid"}}, "geometry":{"type":"Polygon","coordinates":[[[ -3.15349,52.77448],[-3.15316,52.7745],[-3.1531,52.77423],[-3.15343,52.77421],[-3.15349,52.77448]] ]}},
{ "type":"Feature","properties":{"osm_way_id":"281326099","name":"Harry Tuffins","building":"yes","shop":"supermarket","other":{"addr:country":"GB","addr:postcode":"LD7 1DA","alt_name":"Whitehall Supermarket","operator":"The Midcounties Co-operative Society"}}, "geometry":{"type":"Polygon","coordinates":[[[ -3.04722,52.3429],[-3.04693,52.34302],[-3.04677,52.34289],[-3.0467,52.34292],[-3.04657,52.34281],[-3.04693,52.34265],[-3.04712,52.34281],[-3.04721,52.34289],[-3.04722,52.3429]] ]}},
{ "type":"Feature","properties":{"osm_way_id":"281326104","name":"Costcutter","building":"yes","shop":"supermarket","other":{"addr:housenumber":"16-19","addr:postcode":"LD7 1BL","addr:street":"Broad Street","brand":"Costcutter","brand:wikidata":"Q5175072","brand:wikipedia":"en:Costcutter"}}, "geometry":{"type":"Polygon","coordinates":[[[ -3.04881,52.34437],[-3.04865,52.34429],[-3.049,52.34404],[-3.04929,52.34419],[-3.04918,52.34427],[-3.04905,52.3442],[-3.04881,52.34437]] ]}},
{ "type":"Feature","properties":{"osm_way_id":"305043830","name":"Co-op Food","building":"yes","shop":"supermarket","other":{"addr:postcode":"LD3 7HY","addr:street":"Lion Street","alt_name":"The Co-operative Food","brand":"Co-op Food","brand:wikidata":"Q3277439","brand:wikipedia":"en:Co-op Food"}}, "geometry":{"type":"Polygon","coordinates":[[[ -3.39076,51.94851],[-3.39063,51.94845],[-3.39066,51.94843],[-3.39038,51.94831],[-3.39037,51.94824],[-3.39067,51.94802],[-3.3911,51.94823],[-3.39076,51.94851]] ]}},
{ "type":"Feature","properties":{"osm_way_id":"305043831","name":"Aldi","building":"supermarket","shop":"supermarket","other":{"addr:postcode":"LD3 7ED","addr:street":"Rich Way","alt_name":"ALDI Brecon","brand":"ALDI","brand:wikidata":"Q41171672","brand:wikipedia":"en:Aldi"}}, "geometry":{"type":"Polygon","coordinates":[[[ -3.3886,51.94472],[-3.38827,51.94494],[-3.38833,51.94497],[-3.3882,51.94506],[-3.38786,51.94487],[-3.38803,51.94476],[-3.38786,51.94466],[-3.38799,51.94457],[-3.38816,51.94466],[-3.38831,51.94456],[-3.3886,51.94472]] ]}},
{ "type":"Feature","properties":{"osm_way_id":"350178668","name":"Tesco","building":"yes","shop":"supermarket","other":{"brand":"Tesco","brand:wikidata":"Q487494"}}, "geometry":{"type":"Polygon","coordinates":[[[ -3.77467,51.76901],[-3.77365,51.76877],[-3.77396,51.76825],[-3.774,51.76826],[-3.77403,51.76822],[-3.77499,51.76844],[-3.77496,51.76849],[-3.77498,51.76849],[-3.77467,51.76901]] ]}},
{ "type":"Feature","properties":{"osm_way_id":"356610212","name":"Spar","building":"yes","shop":"supermarket","other":{"brand":"Spar","brand:wikidata":"Q610492","brand:wikipedia":"en:SPAR (retailer)"}}, "geometry":{"type":"Polygon","coordinates":[[[ -3.20139,52.59926],[-3.20133,52.59922],[-3.2014,52.59917],[-3.20147,52.59922],[-3.20139,52.59926]] ]}},
{ "type":"Feature","properties":{"osm_way_id":"358525274","name":"Spar","building":"yes","shop":"supermarket","other":{"addr:city":"Newtown","addr:housenumber":"40-41","addr:postcode":"SY16 2NA","addr:street":"Broad Street","alt_name":"Blakemore Retail - Newtown","brand":"Spar","brand:wikidata":"Q610492","brand:wikipedia":"en:SPAR (retailer)","opening_hours":"Mo-Sa 07:00-23:00; Su 08:00-23:00"}}, "geometry":{"type":"Polygon","coordinates":[[[ -3.31538,52.51616],[-3.31529,52.5161],[-3.31568,52.51597],[-3.31575,52.51604],[-3.31538,52.51616]] ]}},
{ "type":"Feature","properties":{"osm_way_id":"403257724","name":"The Co-operative Food","building":"retail","shop":"supermarket","other":{"fhrs:id":"447522","addr:city":"Llanidloes","addr:street":"Llangurig Road","addr:postcode":"SY18 6ES"}}, "geometry":{"type":"Polygon","coordinates":[[[ -3.54272,52.44484],[-3.54232,52.44488],[-3.54232,52.44491],[-3.54218,52.44492],[-3.54216,52.44483],[-3.54221,52.44483],[-3.54218,52.44472],[-3.54267,52.44467],[-3.54272,52.44484]] ]}},
{ "type":"Feature","properties":{"osm_way_id":"440061236","name":"SPAR","building":"yes","shop":"supermarket","other":{"addr:city":"Caersws","addr:postcode":"SY17 5EQ","addr:street":"The Cross","alt_name":"SPAR Caersws","atm":"yes","brand":"Spar","brand:wikidata":"Q610492","opening_hours":"Mo-Sa 07:30-20:00; Su 08:00-18:30","website":"https:\/\/www.spar.co.uk\/store-locator\/afb19384-spar-caersws"}}, "geometry":{"type":"Polygon","coordinates":[[[ -3.42964,52.51602],[-3.42955,52.51605],[-3.42957,52.51607],[-3.42938,52.51613],[-3.42929,52.51605],[-3.4295,52.51597],[-3.42948,52.51595],[-3.42955,52.51592],[-3.42964,52.51602]] ]}},
{ "type":"Feature","properties":{"osm_way_id":"606342228","name":"ALDI","building":"yes","shop":"supermarket","other":{"addr:city":"Welshpool","addr:street":"Mill Lane","brand":"ALDI","brand:wikidata":"Q41171672","brand:wikipedia":"en:Aldi","operator":"Aldi","wheelchair":"yes"}}, "geometry":{"type":"Polygon","coordinates":[[[ -3.14228,52.66069],[-3.14189,52.66051],[-3.14232,52.66016],[-3.14231,52.66015],[-3.14244,52.66003],[-3.14287,52.66022],[-3.14228,52.66069]] ]}},
{ "type":"Feature","properties":{"osm_way_id":"707042443","name":"Co-op Food","building":"yes","shop":"supermarket","other":{"brand":"Co-op Food","brand:wikidata":"Q3277439","brand:wikipedia":"en:Co-op Food","wheelchair":"yes"}}, "geometry":{"type":"Polygon","coordinates":[[[ -3.4018,52.15224],[-3.40195,52.15241],[-3.40168,52.1525],[-3.40164,52.15246],[-3.40157,52.15238],[-3.40153,52.15234],[-3.4018,52.15224]] ]}},
{ "type":"Feature","properties":{"osm_way_id":"815713156","building":"house","other":{"addr:housename":"Doneraile","addr:housenumber":"6"}}, "geometry":{"type":"Polygon","coordinates":[[[ -3.36878,52.24164],[-3.3686,52.24169],[-3.3686,52.24169],[-3.36858,52.24169],[-3.36856,52.24167],[-3.36858,52.24166],[-3.36856,52.24163],[-3.36862,52.24161],[-3.36862,52.24161],[-3.36873,52.24158],[-3.36878,52.24164]] ]}},
{ "type":"Feature","properties":{"osm_way_id":"815713157","building":"house","other":{"addr:housename":"Cheriton","addr:housenumber":"8"}}, "geometry":{"type":"Polygon","coordinates":[[[ -3.36891,52.24161],[-3.36884,52.24154],[-3.36888,52.24153],[-3.36888,52.24152],[-3.36898,52.24148],[-3.36906,52.24156],[-3.36896,52.2416],[-3.36895,52.24159],[-3.36891,52.24161]] ]}}
]
}
