{
"type": "FeatureCollection",
"features": [
{ "type":"Feature","properties":{"osm_id":"260491765","name":"Co-op","other":{"shop":"supermarket","fhrs:id":"967263","addr:street":"Penybont Road","source:addr":"FHRS Open Data","addr:postcode":"CF35 5RA"}}, "geometry":{"type":"Point","coordinates":[-3.50011,51.52428 ]}},
{ "type":"Feature","properties":{"osm_id":"260610284","name":"Filco Foods","other":{"shop":"supermarket","fhrs:id":"967366","addr:street":"Merfield Close","source:addr":"FHRS Open Data","addr:postcode":"CF32 9SW"}}, "geometry":{"type":"Point","coordinates":[-3.58353,51.54076 ]}},
{ "type":"Feature","properties":{"osm_id":"701832221","name":"Co-op Food","other":{"shop":"supermarket","brand":"Co-op Food","fhrs:id":"967375","operator":"Co-Op","addr:street":"Lias Road","source:addr":"FHRS Open Data","addr:postcode":"CF36 3AH","brand:wikidata":"Q3277439","brand:wikipedia":"en:Co-op Food"}}, "geometry":{"type":"Point","coordinates":[-3.70491,51.47883 ]}},
{ "type":"Feature","properties":{"osm_id":"1070385854","name":"Co-op","other":{"shop":"supermarket","fhrs:id":"967437","addr:street":"Canolfan","source:addr":"FHRS Open Data","addr:housenumber":"10"}}, "geometry":{"type":"Point","coordinates":[-3.5611,51.5075 ]}},
{ "type":"Feature","properties":{"osm_id":"1531331941","name":"B&M Express","other":{"addr:city":"Bridgend","addr:housenumber":"21","addr:postcode":"CF31 1LL","addr:street":"Market Street","brand":"Heron Foods","brand:wikidata":"Q5743472","brand:wikipedia":"en:Heron Foods","fhrs:id":"991123","opening_hours":"Mo-Sa 08:00-18:00","payment:coins":"yes","payment:contactless":"yes","payment:credit_cards":"yes","payment:debit_cards":"yes","payment:notes":"yes","payment:visa":"yes","shop":"supermarket","source:addr":"FHRS Open Data","website":"https:\/\/heronfoods.com\/store\/bridgend-bm-express\/"}}, "geometry":{"type":"Point","coordinates":[-3.57891,51.50757 ]}},
{ "type":"Feature","properties":{"osm_id":"2622462829","name":"Spar","other":{"shop":"supermarket","brand":"Spar","fhrs:id":"967285","addr:street":"John Street","source:addr":"FHRS Open Data","addr:postcode":"CF36 3BD","brand:wikidata":"Q610492","brand:wikipedia":"en:Spar (retailer)","addr:housenumber":"66-68"}}, "geometry":{"type":"Point","coordinates":[-3.70396,51.47841 ]}},
{ "type":"Feature","properties":{"osm_id":"3200023508","name":"Lidl","other":{"addr:city":"Bridgend","addr:country":"GB","addr:place":"Bridgend Retail Park","addr:postcode":"CF31 3XX","addr:unit":"1","brand":"Lidl","brand:wikidata":"Q151954","brand:wikipedia":"en:Lidl","fhrs:id":"967397","opening_hours":"Mo-Sa 07:00-22:00; Su 10:00-16:00","operator":"Lidl UK","shop":"supermarket","wheelchair":"yes"}}, "geometry":{"type":"Point","coordinates":[-3.5658,51.49684 ]}},
{ "type":"Feature","properties":{"osm_id":"3340347387","name":"Spar","other":{"shop":"supermarket","brand":"Spar","fhrs:id":"968001","alt_name":"Cefn Glass Spar","operator":"Spar","addr:street":"Llangewydd Road","source:addr":"FHRS Open Data","payment:cash":"yes","addr:postcode":"CF31 4JR","opening_hours":"Mo-Su 08:00-20:00","brand:wikidata":"Q610492","brand:wikipedia":"en:Spar (retailer)","addr:housenumber":"44-52","payment:debit_cards":"yes","payment:credit_cards":"yes"}}, "geometry":{"type":"Point","coordinates":[-3.59283,51.51096 ]}},
{ "type":"Feature","properties":{"osm_id":"4795161587","name":"Aldi","other":{"addr:postcode":"CF34 9DS","addr:street":"Llynfi Road","brand":"ALDI","brand:wikidata":"Q41171672","brand:wikipedia":"en:Aldi","fhrs:id":"967431","shop":"supermarket","source:addr":"FHRS Open Data"}}, "geometry":{"type":"Point","coordinates":[-3.66075,51.61027 ]}},
{ "type":"Feature","properties":{"osm_id":"8197310804","name":"Tesco","other":{"opening_hours":"Mo-Sa 06:00-24:00; PH,Su 10:00-16:00","shop":"supermarket","wheelchair":"yes"}}, "geometry":{"type":"Point","coordinates":[-3.56855,51.49761 ]}},
{ "type":"Feature","properties":{"osm_way_id":"32198251","name":"Asda","building":"retail","shop":"supermarket","other":{"brand":"Asda","fhrs:id":"968146","operator":"Asda Stores Ltd","addr:city":"Bridgend","addr:street":"Ffald Road","addr:country":"GB","addr:postcode":"CF33 6BH","opening_hours":"Mo-Sa 07:00-22:00; Su 10:00-16:00","brand:wikidata":"Q297410","brand:wikipedia":"en:Asda","contact:twitter":"@asda","contact:website":"https:\/\/storelocator.asda.com\/wales\/bridgend\/pyle-industrial-estate-pyle-cross-pyle","contact:facebook":"https:\/\/www.facebook.com\/asda\/"}}, "geometry":{"type":"Polygon","coordinates":[[[ -3.69136,51.52815],[-3.6908,51.52823],[-3.69032,51.52696],[-3.69089,51.52687],[-3.69127,51.52788],[-3.6914,51.52786],[-3.69143,51.52793],[-3.69129,51.52795],[-3.69136,51.52815]] ]}},
{ "type":"Feature","properties":{"osm_way_id":"40077010","name":"Tesco Extra","building":"retail","shop":"supermarket","other":{"addr:postcode":"CF31 3SQ","addr:street":"Cowbridge Road","alt_name":"Tesco Extra, Pen-y-Bont","brand":"Tesco Extra","brand:wikidata":"Q25172225","brand:wikipedia":"en:Tesco Extra","building:levels":"2","fhrs:id":"967295","layer":"-1","location":"surface","nohousenumber":"yes","opening_hours":"Mo-Sa 06:00-24:00; PH,Su 10:00-16:00","operator":"Tesco","roof:levels":"1","roof:shape":"many","source:addr":"FHRS Open Data","toilets:wheelchair":"yes","wheelchair":"yes"}}, "geometry":{"type":"Polygon","coordinates":[[[ -3.56848,51.49819],[-3.56783,51.4979],[-3.56773,51.49783],[-3.56772,51.49768],[-3.56704,51.49771],[-3.56704,51.49766],[-3.56772,51.49762],[-3.56771,51.49756],[-3.5677,51.49745],[-3.56797,51.49728],[-3.56809,51.49727],[-3.56823,51.49735],[-3.56867,51.49702],[-3.56944,51.49745],[-3.56848,51.49819]] ]}},
{ "type":"Feature","properties":{"osm_way_id":"80651277","name":"Sainsbury's","building":"yes","shop":"supermarket","other":{"addr:postcode":"CF32 9ST","brand":"Sainsbury's","brand:wikidata":"Q152096","brand:wikipedia":"en:Sainsbury's","fhrs:id":"967245","source:addr:postcode":"FHRS Open Data"}}, "geometry":{"type":"Polygon","coordinates":[[[ -3.57523,51.53031],[-3.57518,51.53091],[-3.57365,51.53088],[-3.57365,51.53087],[-3.57361,51.53086],[-3.57361,51.5307],[-3.57372,51.5307],[-3.57374,51.53027],[-3.57399,51.53027],[-3.57399,51.53021],[-3.57404,51.53021],[-3.57404,51.53017],[-3.57396,51.53017],[-3.57396,51.53006],[-3.57482,51.53007],[-3.5748,51.5303],[-3.57523,51.53031]] ]}},
{ "type":"Feature","properties":{"osm_way_id":"124260429","name":"Tesco","building":"supermarket","shop":"supermarket","other":{"addr:postcode":"CF31 4AP","addr:street":"Brewery Lane","brand":"Tesco","brand:wikidata":"Q487494","brand:wikipedia":"en:Tesco","fhrs:id":"967363","internet_access":"yes","opening_hours":"Mo-Sa 06:00-22:00; Su 10:00-16:00","source:addr":"FHRS Open Data","website":"https:\/\/www.tesco.com\/store-locator\/bridgend\/brewery-ln"}}, "geometry":{"type":"Polygon","coordinates":[[[ -3.5801,51.50932],[-3.57913,51.50934],[-3.57908,51.50927],[-3.57896,51.50927],[-3.57896,51.5091],[-3.57905,51.50884],[-3.57903,51.50884],[-3.57906,51.50875],[-3.57912,51.5087],[-3.57983,51.50868],[-3.57983,51.50881],[-3.57998,51.5088],[-3.57998,51.50885],[-3.58004,51.50885],[-3.58006,51.50924],[-3.58009,51.50924],[-3.5801,51.50932]] ]}},
{ "type":"Feature","properties":{"osm_way_id":"161969347","name":"Filco","building":"retail","shop":"supermarket","other":{"fhrs:id":"967320","addr:street":"Hermon Road","source:addr":"FHRS Open Data","addr:postcode":"CF34 0SU"}}, "geometry":{"type":"Polygon","coordinates":[[[ -3.65709,51.6318],[-3.65679,51.63184],[-3.65665,51.63141],[-3.6568,51.63139],[-3.65679,51.63138],[-3.6569,51.63137],[-3.65698,51.63163],[-3.65703,51.63162],[-3.65709,51.6318]] ]}},
{ "type":"Feature","properties":{"osm_way_id":"184277532","name":"Tesco","building":"supermarket","shop":"supermarket","other":{"brand":"Tesco","fhrs:id":"967781","wheelchair":"yes","addr:street":"Castle Street","source:addr":"FHRS Open Data","addr:postcode":"CF34 9UY","brand:wikidata":"Q487494","brand:wikipedia":"en:Tesco"}}, "geometry":{"type":"Polygon","coordinates":[[[ -3.66348,51.61215],[-3.66335,51.6122],[-3.66318,51.61225],[-3.6628,51.61232],[-3.66302,51.61191],[-3.66307,51.61179],[-3.66303,51.61172],[-3.66314,51.61155],[-3.66373,51.6114],[-3.66409,51.61138],[-3.66444,51.6119],[-3.66348,51.61215]] ]}},
{ "type":"Feature","properties":{"osm_way_id":"251859832","name":"Co-op Food","building":"yes","shop":"supermarket","other":{"addr:postcode":"CF32 8NW","addr:street":"Victoria Street","brand":"Co-op Food","brand:wikidata":"Q3277439","brand:wikipedia":"en:Co-op Food","fhrs:id":"967715","operator":"The Co-operative Group","operator:wikidata":"Q117202","operator:wikipedia":"en:The Co-operative Group"}}, "geometry":{"type":"Polygon","coordinates":[[[ -3.58516,51.61225],[-3.58492,51.61233],[-3.58478,51.61215],[-3.58502,51.61207],[-3.58516,51.61225]] ]}},
{ "type":"Feature","properties":{"osm_way_id":"266542040","name":"Asda","building":"yes","shop":"supermarket","other":{"brand":"Asda","fhrs:id":"967769","operator":"Asda Stores Ltd","addr:city":"Bridgend","wheelchair":"yes","addr:street":"Coychurch Road","addr:country":"GB","addr:postcode":"CF31 3AG","brand:wikidata":"Q297410","brand:wikipedia":"en:Asda","contact:twitter":"@asda","contact:website":"https:\/\/storelocator.asda.com\/wales\/bridgend\/coychurch-road","contact:facebook":"https:\/\/www.facebook.com\/asda\/"}}, "geometry":{"type":"Polygon","coordinates":[[[ -3.57409,51.50428],[-3.57315,51.50469],[-3.57297,51.5046],[-3.57279,51.50443],[-3.57276,51.50444],[-3.57263,51.50445],[-3.57243,51.50434],[-3.57251,51.50429],[-3.57266,51.50437],[-3.57271,51.50435],[-3.57279,51.50418],[-3.57258,51.50399],[-3.57273,51.50392],[-3.57269,51.50389],[-3.57334,51.5036],[-3.57343,51.50368],[-3.57346,51.50367],[-3.57364,51.50383],[-3.57361,51.50384],[-3.57409,51.50428]] ]}},
{ "type":"Feature","properties":{"osm_way_id":"282081879","name":"Aldi","building":"yes","shop":"supermarket","other":{"addr:postcode":"CF31 1BZ","addr:street":"Cheapside","brand":"ALDI","brand:wikidata":"Q41171672","brand:wikipedia":"en:Aldi","fhrs:id":"967764","operator":"Aldi Süd","source:addr":"FHRS Open Data"}}, "geometry":{"type":"Polygon","coordinates":[[[ -3.57432,51.50478],[-3.57462,51.50501],[-3.57441,51.50511],[-3.57403,51.5053],[-3.57396,51.50524],[-3.57384,51.50514],[-3.57378,51.50517],[-3.57368,51.50509],[-3.57432,51.50478]] ]}},
{ "type":"Feature","properties":{"osm_way_id":"655992589","name":"Lidl","building":"yes","shop":"supermarket","other":{"brand":"Lidl","brand:wikidata":"Q151954","brand:wikipedia":"en:Lidl","opening_hours":"Mo-Sa 08:00-22:00; Su 10:00-16:00","operator":"LIDL","website":"https:\/\/www.lidl.co.uk\/"}}, "geometry":{"type":"Polygon","coordinates":[[[ -3.60093,51.54436],[-3.60078,51.54432],[-3.60082,51.54428],[-3.60054,51.54421],[-3.60082,51.54375],[-3.60125,51.54386],[-3.60093,51.54436]] ]}},
{ "type":"Feature","properties":{"osm_way_id":"700294852","name":"Spar","building":"yes","shop":"supermarket","other":{"brand":"Spar","brand:wikidata":"Q610492","brand:wikipedia":"en:Spar (retailer)"}}, "geometry":{"type":"Polygon","coordinates":[[[ -3.58793,51.52145],[-3.58797,51.52125],[-3.58814,51.52126],[-3.58812,51.52135],[-3.5881,51.52146],[-3.58806,51.52146],[-3.58793,51.52145]] ]}},
{ "type":"Feature","properties":{"osm_way_id":"713952719","name":"Londis","building":"shop","shop":"supermarket","other":{"brand":"Londis","brand:wikidata":"Q21008564","brand:wikipedia":"en:Londis (United Kingdom)"}}, "geometry":{"type":"Polygon","coordinates":[[[ -3.59703,51.54698],[-3.597,51.54703],[-3.5968,51.54698],[-3.59683,51.54694],[-3.59703,51.54698]] ]}},
{ "type":"Feature","properties":{"osm_way_id":"984412601","name":"Asda","building":"commercial","shop":"supermarket","other":{"addr:city":"Maesteg","addr:country":"GB","addr:postcode":"CF34 9UN","addr:street":"Castle Street","brand":"Asda","brand:wikidata":"Q297410","brand:wikipedia":"en:Asda","contact:facebook":"https:\/\/www.facebook.com\/asda\/","contact:twitter":"@asda","contact:website":"https:\/\/storelocator.asda.com\/wales\/maesteg\/castle-street","fhrs:id":"967903","operator":"Asda Stores Ltd","wheelchair":"yes"}}, "geometry":{"type":"Polygon","coordinates":[[[ -3.65648,51.60985],[-3.6566,51.60966],[-3.65672,51.60969],[-3.65726,51.60983],[-3.65714,51.61001],[-3.65711,51.61001],[-3.65704,51.61012],[-3.65703,51.61013],[-3.65685,51.61009],[-3.65686,51.61007],[-3.65641,51.60996],[-3.65648,51.60985]] ]}}
]
}
