{
"type": "FeatureCollection",
"features": [
{ "type":"Feature","properties":{"osm_id":"1692502548","name":"Aldi","other":{"addr:city":"Pontymister","addr:postcode":"NP11 6NP","addr:street":"B4591","brand":"ALDI","brand:wikidata":"Q41171672","brand:wikipedia":"en:Aldi","opening_hours":"Mo-Sa 08:00-21:00, Su 10:00-16:00","shop":"supermarket"}}, "geometry":{"type":"Point","coordinates":[-3.09263,51.60088 ]}},
{ "type":"Feature","properties":{"osm_id":"2578034129","name":"Morrisons","other":{"addr:city":"Bargoed","addr:postcode":"CF81 8NX","addr:street":"Bargoed Gateway","brand":"Morrisons","brand:wikidata":"Q922344","brand:wikipedia":"en:Morrisons","opening_hours":"Mo-Sa 07:00-22:00; Su 10:00-16:00","opening_hours:covid19":"Mo-Sa 07:00-22:00; Su 10:00-16:00","phone":"+44 1443 341 340","shop":"supermarket","website":"https:\/\/my.morrisons.com\/storefinder\/573","wheelchair":"yes"}}, "geometry":{"type":"Point","coordinates":[-3.2287,51.68805 ]}},
{ "type":"Feature","properties":{"osm_id":"2853478690","name":"Supersave","other":{"shop":"supermarket"}}, "geometry":{"type":"Point","coordinates":[-3.23066,51.60467 ]}},
{ "type":"Feature","properties":{"osm_id":"8526409007","name":"Co-op Food","other":{"addr:city":"Newbridge","addr:postcode":"NP11 4EZ","addr:street":"High Street","brand":"Co-op Food","brand:wikidata":"Q3277439","brand:wikipedia":"en:Co-op Food","name:cy":"Bwyd Co-op","opening_hours":"Mo-Sa 07:00-22:00; Su 10:00-16:00","opening_hours:covid19":"Mo-Sa 07:00-22:00; Su 10:00-16:00","operator":"The Co-operative Group","phone":"+44 1495 248 733","shop":"supermarket","website":"https:\/\/www.coop.co.uk\/store-finder\/NP11-4EZ\/high-street","wheelchair":"yes"}}, "geometry":{"type":"Point","coordinates":[-3.1435,51.66543 ]}},
{ "type":"Feature","properties":{"osm_way_id":"26320797","name":"Morrisons","building":"yes","shop":"supermarket","other":{"addr:city":"Caerphilly","addr:housenumber":"44","addr:postcode":"CF83 1XP","addr:street":"Castle Street","brand":"Morrisons","brand:wikidata":"Q922344","brand:wikipedia":"en:Morrisons","building:levels":"1","opening_hours":"Mo-Sa 07:00-22:00; Su 10:00-16:00","opening_hours:covid19":"Mo-Sa 07:00-22:00; Su 10:00-16:00","operator":"Morrisons","wheelchair":"yes"}}, "geometry":{"type":"Polygon","coordinates":[[[ -3.215,51.57752],[-3.21497,51.57748],[-3.21424,51.57763],[-3.21413,51.57742],[-3.21428,51.57739],[-3.21416,51.57717],[-3.21402,51.5772],[-3.21393,51.57705],[-3.21505,51.57681],[-3.21506,51.57684],[-3.21516,51.57701],[-3.21524,51.577],[-3.2153,51.57711],[-3.21535,51.5771],[-3.21547,51.57734],[-3.21543,51.57735],[-3.21547,51.57742],[-3.215,51.57752]] ]}},
{ "type":"Feature","properties":{"osm_way_id":"26764385","name":"Asda","building":"yes","shop":"supermarket","other":{"brand":"Asda","fhrs:id":"144337","operator":"Asda Stores Ltd","addr:city":"Caerphilly","addr:street":"Pontygwindy Road","source:name":"survey","addr:country":"GB","addr:postcode":"CF83 3SX","brand:wikidata":"Q297410","brand:wikipedia":"en:Asda","contact:twitter":"@asda","contact:website":"https:\/\/storelocator.asda.com\/wales\/caerphilly\/pontygwindy-road","contact:facebook":"https:\/\/www.facebook.com\/asda\/"}}, "geometry":{"type":"Polygon","coordinates":[[[ -3.22602,51.5859],[-3.22579,51.58593],[-3.22585,51.58618],[-3.22475,51.58628],[-3.22471,51.58611],[-3.22456,51.58612],[-3.22443,51.58547],[-3.22567,51.58537],[-3.22573,51.58563],[-3.22595,51.58562],[-3.22602,51.5859]] ]}},
{ "type":"Feature","properties":{"osm_way_id":"33104416","name":"Lidl","building":"yes","shop":"supermarket","other":{"addr:city":"Risca","addr:country":"GB","addr:postcode":"NP11 6YL","addr:street":"Commercial Street","brand":"Lidl","brand:wikidata":"Q151954","brand:wikipedia":"en:Lidl","fhrs:id":"401483","opening_hours":"Mo-Sa 08:00-21:00, Su 10:00-16:00"}}, "geometry":{"type":"Polygon","coordinates":[[[ -3.09987,51.60523],[-3.10017,51.60505],[-3.10075,51.60544],[-3.10044,51.60561],[-3.1004,51.60564],[-3.10019,51.6055],[-3.10024,51.60547],[-3.09987,51.60523]] ]}},
{ "type":"Feature","properties":{"osm_way_id":"37937181","name":"Tesco","building":"yes","shop":"supermarket","other":{"brand":"Tesco","brand:wikidata":"Q487494","brand:wikipedia":"en:Tesco"}}, "geometry":{"type":"Polygon","coordinates":[[[ -3.22931,51.64341],[-3.22906,51.64349],[-3.22904,51.64348],[-3.22879,51.64356],[-3.22858,51.6433],[-3.22873,51.64325],[-3.22878,51.64331],[-3.22889,51.64327],[-3.22896,51.64337],[-3.2292,51.64329],[-3.22898,51.643],[-3.22913,51.64296],[-3.2291,51.64293],[-3.22922,51.64289],[-3.22917,51.64285],[-3.22933,51.64266],[-3.22979,51.64252],[-3.22976,51.64248],[-3.22997,51.64242],[-3.23031,51.64285],[-3.23028,51.64286],[-3.23037,51.64297],[-3.23025,51.64301],[-3.23032,51.64311],[-3.22931,51.64341]] ]}},
{ "type":"Feature","properties":{"osm_way_id":"116532000","name":"Sainsbury's","building":"retail","shop":"supermarket","other":{"brand:wikidata":"Q152096","wheelchair":"yes"}}, "geometry":{"type":"Polygon","coordinates":[[[ -3.1746,51.65769],[-3.17354,51.65803],[-3.17313,51.65755],[-3.17333,51.65748],[-3.17345,51.65762],[-3.17431,51.65735],[-3.1746,51.65769]] ]}},
{ "type":"Feature","properties":{"osm_way_id":"118394765","name":"Asda","building":"retail","shop":"supermarket","other":{"brand":"Asda","fhrs:id":"148203","operator":"Asda Stores Ltd","addr:city":"Blackwood","wheelchair":"yes","addr:street":"Cliff Road","addr:country":"GB","addr:postcode":"NP12 0NT","brand:wikidata":"Q297410","brand:wikipedia":"en:Asda","contact:twitter":"@asda","contact:website":"https:\/\/storelocator.asda.com\/wales\/blackwood\/high-street","contact:facebook":"https:\/\/www.facebook.com\/asda\/"}}, "geometry":{"type":"Polygon","coordinates":[[[ -3.19532,51.66956],[-3.19512,51.67035],[-3.19449,51.67028],[-3.19445,51.67043],[-3.19393,51.67038],[-3.19416,51.66945],[-3.19532,51.66956]] ]}},
{ "type":"Feature","properties":{"osm_way_id":"127554673","name":"Tesco Extra","building":"supermarket","shop":"supermarket","other":{"brand":"Tesco Extra","brand:wikidata":"Q25172225"}}, "geometry":{"type":"Polygon","coordinates":[[[ -3.09569,51.60202],[-3.09583,51.60196],[-3.09603,51.60211],[-3.0964,51.60194],[-3.09617,51.60178],[-3.09631,51.60172],[-3.09652,51.60186],[-3.09701,51.60162],[-3.09736,51.60175],[-3.09803,51.60229],[-3.09676,51.6029],[-3.09569,51.60202]] ]}},
{ "type":"Feature","properties":{"osm_way_id":"248909785","name":"Lidl","building":"yes","shop":"supermarket","other":{"addr:city":"Ystrad Mynach","addr:country":"GB","addr:postcode":"CF82 8AA","addr:street":"Pengam Road","brand":"Lidl","brand:wikidata":"Q151954","brand:wikipedia":"en:Lidl","fhrs:id":"620970"}}, "geometry":{"type":"Polygon","coordinates":[[[ -3.23266,51.6424],[-3.23177,51.64268],[-3.23159,51.64246],[-3.23174,51.64241],[-3.23169,51.64235],[-3.23183,51.64231],[-3.23188,51.64237],[-3.23248,51.64218],[-3.23266,51.6424]] ]}},
{ "type":"Feature","properties":{"osm_way_id":"308421387","name":"Tesco","building":"yes","shop":"supermarket","other":{"addr:city":"Caerphilly","brand":"Tesco","brand:wikidata":"Q487494","brand:wikipedia":"en:Tesco"}}, "geometry":{"type":"Polygon","coordinates":[[[ -3.21206,51.58977],[-3.21158,51.58982],[-3.21159,51.58986],[-3.21147,51.58988],[-3.21146,51.58984],[-3.21106,51.58988],[-3.21094,51.58951],[-3.21158,51.58943],[-3.21194,51.58939],[-3.21206,51.58977]] ]}},
{ "type":"Feature","properties":{"osm_way_id":"308905102","name":"The Co-operative Food","building":"yes","shop":"supermarket"},"geometry":{"type":"Polygon","coordinates":[[[ -3.1996,51.59221],[-3.19935,51.59218],[-3.19939,51.59203],[-3.19973,51.59206],[-3.19969,51.5922],[-3.19961,51.59219],[-3.1996,51.59221]] ]}},
{ "type":"Feature","properties":{"osm_way_id":"309479041","name":"Spar","building":"yes","shop":"supermarket","other":{"brand":"Spar","brand:wikidata":"Q610492","brand:wikipedia":"en:Spar (retailer)"}}, "geometry":{"type":"Polygon","coordinates":[[[ -3.19073,51.59421],[-3.1909,51.59426],[-3.19093,51.5943],[-3.19085,51.59432],[-3.19091,51.5944],[-3.19084,51.59442],[-3.19063,51.59437],[-3.19073,51.59421]] ]}},
{ "type":"Feature","properties":{"osm_way_id":"525379387","name":"Aldi","building":"yes","shop":"supermarket","other":{"brand":"ALDI","brand:wikidata":"Q41171672","brand:wikipedia":"en:Aldi","building:levels":"1","height":"5"}}, "geometry":{"type":"Polygon","coordinates":[[[ -3.21654,51.5909],[-3.21591,51.59058],[-3.21612,51.59041],[-3.21607,51.59038],[-3.21616,51.59032],[-3.21685,51.59066],[-3.21654,51.5909]] ]}},
{ "type":"Feature","properties":{"osm_way_id":"853039085","name":"Lidl","building":"retail","shop":"supermarket","other":{"addr:country":"GB","addr:housename":"Castle Gate Development","addr:housenumber":"5","addr:postcode":"CF83 2AX","addr:street":"Beddau Way","brand":"Lidl","brand:wikidata":"Q151954","brand:wikipedia":"en:Lidl","fhrs:id":"210927","operator":"Lidl GB Ltd","survey:date":"2018-08-08"}}, "geometry":{"type":"Polygon","coordinates":[[[ -3.24524,51.57075],[-3.24516,51.57093],[-3.24509,51.57092],[-3.24508,51.57095],[-3.24439,51.57083],[-3.24441,51.57079],[-3.2445,51.57057],[-3.24457,51.57058],[-3.24459,51.57054],[-3.24537,51.57067],[-3.24532,51.57077],[-3.24524,51.57075]] ]}}
]
}
