{
"type": "FeatureCollection",
"features": [
{ "type":"Feature","properties":{"osm_id":"520896611","name":"Co-op Food","other":{"addr:city":"Aberystwyth","addr:postcode":"SY23 1RU","addr:street":"Penparcau Road","brand":"Co-op Food","brand:wikidata":"Q3277439","brand:wikipedia":"en:Co-op Food","fhrs:id":"863246","official_name":"The co-operative food","operator":"Co-operative Group Ltd","phone":"+44 1970 611181","shop":"supermarket","source:addr":"FHRS Open Data","website":"https:\/\/www.coop.co.uk"}}, "geometry":{"type":"Point","coordinates":[-4.0727,52.40127 ]}},
{ "type":"Feature","properties":{"osm_id":"559222978","name":"Siop Castell - Premier express","other":{"addr:housenumber":"61","addr:postcode":"SY23 1DW","addr:street":"Y Stryd Fawr \/ Great Darkgate Street","fhrs:id":"1042333","level":"0","opening_hours":"Mo-Sa 07:00-21:00; Su 07:00-18:00","shop":"supermarket","source:addr":"FHRS Open Data","wheelchair":"limited"}}, "geometry":{"type":"Point","coordinates":[-4.08684,52.41398 ]}},
{ "type":"Feature","properties":{"osm_id":"774072319","name":"Costcutter","other":{"addr:city":"Aberaeron","addr:country":"GB","addr:housenumber":"20-21","addr:postcode":"SA46 0AS","addr:street":"Market Street","amenity":"post_office","fhrs:id":"863136","opening_hours":"Mo-Sa 08:00-21:00; Su 11:00-17:00","ref:pol_id":"2988","shop":"supermarket","source:addr":"FHRS Open Data","toilets:wheelchair":"no","wheelchair":"yes"}}, "geometry":{"type":"Point","coordinates":[-4.25953,52.24259 ]}},
{ "type":"Feature","properties":{"osm_id":"1331033773","name":"Glanarthen Store","other":{"addr:postcode":"SY23 5NB","fhrs:id":"863760","shop":"supermarket","source:addr:postcode":"FHRS Open Data"}}, "geometry":{"type":"Point","coordinates":[-4.13532,52.25605 ]}},
{ "type":"Feature","properties":{"osm_id":"4579372192","name":"Tesco","other":{"addr:postcode":"SY23 1PB","addr:street":"Park Avenue","brand":"Tesco","brand:wikidata":"Q487494","brand:wikipedia":"en:Tesco","contact:website":"https:\/\/www.tesco.com\/store-locator\/aberystwyth\/park-avenue","fhrs:id":"933695","shop":"supermarket","source:addr":"FHRS Open Data","toilets":"yes","toilets:wheelchair":"yes","wheelchair":"yes"}}, "geometry":{"type":"Point","coordinates":[-4.08294,52.41252 ]}},
{ "type":"Feature","properties":{"osm_id":"4693838533","name":"Siop Penrhiwllan","other":{"shop":"supermarket"}}, "geometry":{"type":"Point","coordinates":[-4.37889,52.0519 ]}},
{ "type":"Feature","properties":{"osm_id":"4693886537","name":"Swyddfa Bost Croes-lan","other":{"shop":"supermarket"}}, "geometry":{"type":"Point","coordinates":[-4.36165,52.075 ]}},
{ "type":"Feature","properties":{"osm_id":"4693886538","name":"Garej Croeslan","other":{"shop":"supermarket"}}, "geometry":{"type":"Point","coordinates":[-4.36183,52.07549 ]}},
{ "type":"Feature","properties":{"osm_id":"4867982530","name":"Siop y Shed","other":{"shop":"supermarket"}}, "geometry":{"type":"Point","coordinates":[-4.21342,52.17946 ]}},
{ "type":"Feature","properties":{"osm_id":"7280329067","name":"Tŷ Coed \/ Treehouse","other":{"shop":"supermarket","name:cy":"Tŷ Coed","name:en":"Treehouse","organic":"only","website":"https:\/\/tcth.co.uk","addr:city":"Aberystwyth","addr:street":"Stryd y Popty \/ Baker Street","addr:postcode":"SY23 2BJ","opening_hours":"Mo-Fr 09:00-18:00; Sa 09:00-17:00","addr:housenumber":"14"}}, "geometry":{"type":"Point","coordinates":[-4.08448,52.41555 ]}},
{ "type":"Feature","properties":{"osm_id":"7285504988","name":"Treehouse Living","other":{"shop":"supermarket","organic":"only","website":"https:\/\/tcth.co.uk\/","opening_hours":"Mo-Sa 09:00-17:00"}}, "geometry":{"type":"Point","coordinates":[-4.08483,52.41558 ]}},
{ "type":"Feature","properties":{"osm_id":"7449053704","name":"Lidl","other":{"addr:postcode":"SY23 1LL","brand":"Lidl","brand:wikidata":"Q151954","brand:wikipedia":"en:Lidl","fhrs:id":"863657","operator":"Lidl","shop":"supermarket","source:addr:postcode":"FHRS Open Data","wheelchair":"yes"}}, "geometry":{"type":"Point","coordinates":[-4.08109,52.41414 ]}},
{ "type":"Feature","properties":{"osm_way_id":"55127941","name":"Co-op Food","building":"yes","shop":"supermarket","other":{"addr:city":"Lampeter","addr:country":"GB","addr:postcode":"SA48 7AF","addr:street":"Bridge Street","brand":"Co-op Food","brand:wikidata":"Q3277439","brand:wikipedia":"en:Co-op Food","fhrs:id":"863095","short_name":"Co-op","wheelchair":"yes"}}, "geometry":{"type":"Polygon","coordinates":[[[ -4.07469,52.10983],[-4.07435,52.10999],[-4.07443,52.11006],[-4.07433,52.1101],[-4.07421,52.11],[-4.07392,52.11013],[-4.07364,52.10989],[-4.07374,52.10984],[-4.07362,52.10975],[-4.0737,52.10971],[-4.07424,52.10946],[-4.07469,52.10983]] ]}},
{ "type":"Feature","properties":{"osm_way_id":"55212421","name":"Sainsbury's","building":"yes","shop":"supermarket","other":{"addr:postcode":"SA48 7DS","addr:street":"Market Street","brand":"Sainsbury's","brand:wikidata":"Q152096","brand:wikipedia":"en:Sainsbury's","fhrs:id":"863140","old_name":"Somerfield","source:addr":"FHRS Open Data","wheelchair":"yes"}}, "geometry":{"type":"Polygon","coordinates":[[[ -4.08079,52.11347],[-4.0808,52.11355],[-4.08093,52.11361],[-4.08094,52.11368],[-4.08075,52.11369],[-4.08076,52.11374],[-4.08015,52.11377],[-4.08014,52.11371],[-4.08004,52.11372],[-4.08002,52.11357],[-4.0801,52.11356],[-4.08009,52.1135],[-4.08079,52.11347]] ]}},
{ "type":"Feature","properties":{"osm_way_id":"55215103","name":"Morrisons","building":"yes","shop":"supermarket","other":{"addr:postcode":"SY23 3TL","brand":"Morrisons","brand:wikidata":"Q922344","brand:wikipedia":"en:Morrisons","fhrs:id":"864029","source:addr:postcode":"FHRS Open Data","wheelchair":"yes"}}, "geometry":{"type":"Polygon","coordinates":[[[ -4.06902,52.40459],[-4.06869,52.40475],[-4.06858,52.40466],[-4.06843,52.40473],[-4.06855,52.40483],[-4.0683,52.40495],[-4.06813,52.40482],[-4.06792,52.40492],[-4.06741,52.40452],[-4.06748,52.40449],[-4.06749,52.4043],[-4.06766,52.4043],[-4.06827,52.40401],[-4.06902,52.40459]] ]}},
{ "type":"Feature","properties":{"osm_way_id":"93074719","name":"CK's NISA","building":"yes","shop":"supermarket","other":{"addr:postcode":"SY23 3QH","addr:street":"Rhos Hendre","fhrs:id":"863556","source:addr":"FHRS Open Data"}}, "geometry":{"type":"Polygon","coordinates":[[[ -4.05941,52.4185],[-4.05931,52.41832],[-4.05955,52.41827],[-4.05957,52.41829],[-4.05966,52.41827],[-4.05988,52.41864],[-4.05975,52.41867],[-4.05971,52.41861],[-4.05949,52.41865],[-4.05941,52.4185]] ]}},
{ "type":"Feature","properties":{"osm_way_id":"217881199","name":"Tesco Superstore","building":"yes","shop":"supermarket","other":{"addr:city":"Cardigan \/ Aberteifi","addr:postcode":"SA43 1NA","addr:street":"Aberystwyth Road","brand":"Tesco Superstore","brand:wikidata":"Q487494","brand:wikipedia":"en:Tesco","fhrs:id":"863702","internet_access":"wlan","internet_access:fee":"no","opening_hours":"Mo-Sa 07:00-23:00; Su 10:00-16:00","phone":"+44 345 6779120","website":"https:\/\/www.tesco.com\/store-locator\/cardigan\/aberystwyth-road"}}, "geometry":{"type":"Polygon","coordinates":[[[ -4.64621,52.08906],[-4.64616,52.08904],[-4.64615,52.08904],[-4.64609,52.08901],[-4.64611,52.08899],[-4.64617,52.08893],[-4.64609,52.08891],[-4.6467,52.08837],[-4.64671,52.08837],[-4.64687,52.08823],[-4.64701,52.08829],[-4.64696,52.08833],[-4.64703,52.08836],[-4.64699,52.0884],[-4.64693,52.08837],[-4.64681,52.08846],[-4.64687,52.08852],[-4.64681,52.08857],[-4.64717,52.08873],[-4.64713,52.08876],[-4.64712,52.08876],[-4.64702,52.08885],[-4.64672,52.08911],[-4.64677,52.08913],[-4.64664,52.08925],[-4.64656,52.08922],[-4.64652,52.0892],[-4.64649,52.08918],[-4.6464,52.08915],[-4.64626,52.08908],[-4.64621,52.08906]] ]}},
{ "type":"Feature","properties":{"osm_way_id":"217882226","name":"Aldi","building":"yes","shop":"supermarket","other":{"addr:postcode":"SA43 1NA","addr:street":"Aberystwyth Road","brand":"ALDI","brand:wikidata":"Q41171672","brand:wikipedia":"en:Aldi","contact:website":"https:\/\/www.aldi.co.uk\/store\/s-uk-E0583","fhrs:id":"863715","internet_access":"wlan","internet_access:fee":"customers","opening_hours":"Mo-Sa 08:00-22:00; Su 10:00-16:00"}}, "geometry":{"type":"Polygon","coordinates":[[[ -4.6521,52.08768],[-4.65188,52.08776],[-4.6519,52.08778],[-4.65181,52.08782],[-4.65136,52.08732],[-4.65146,52.08729],[-4.65152,52.08735],[-4.65171,52.08729],[-4.6521,52.08768]] ]}}
]
}
