{
"type": "FeatureCollection",
"features": [
{ "type":"Feature","properties":{"osm_id":"3039701264","name":"Tesco","other":{"addr:city":"Ebbw Vale","addr:postcode":"NP23 6TS","brand":"Tesco","brand:wikidata":"Q487494","brand:wikipedia":"en:Tesco","contact:website":"https:\/\/www.tesco.com\/store-locator\/glynebwy\/north-west-approach","operator":"Tesco","shop":"supermarket"}}, "geometry":{"type":"Point","coordinates":[-3.21456,51.78641 ]}},
{ "type":"Feature","properties":{"osm_id":"4792509086","name":"Tesco","other":{"brand":"Tesco","brand:wikidata":"Q487494","brand:wikipedia":"en:Tesco","contact:website":"https:\/\/www.tesco.com\/store-locator\/abertillery\/castle-st","shop":"supermarket"}}, "geometry":{"type":"Point","coordinates":[-3.13726,51.72923 ]}},
{ "type":"Feature","properties":{"osm_way_id":"28730582","name":"Morrisons","building":"yes","shop":"supermarket","other":{"brand":"Morrisons","brand:wikidata":"Q922344","brand:wikipedia":"en:Morrisons"}}, "geometry":{"type":"Polygon","coordinates":[[[ -3.22329,51.79325],[-3.22255,51.79391],[-3.22202,51.79369],[-3.22227,51.79346],[-3.22173,51.79323],[-3.22222,51.79279],[-3.22329,51.79325]] ]}},
{ "type":"Feature","properties":{"osm_way_id":"531334062","name":"Asda","building":"yes","shop":"supermarket","other":{"addr:city":"Brynmawr","addr:country":"GB","addr:place":"Lakeside Retail Park","addr:postcode":"NP23 4SL","brand":"Asda","brand:wikidata":"Q297410","brand:wikipedia":"en:Asda","contact:facebook":"https:\/\/www.facebook.com\/asdabrynmawr\/","contact:phone":"+44 1495 314820","contact:twitter":"@asda","contact:website":"https:\/\/storelocator.asda.com\/wales\/ebbw-vale\/lakeside-retail-park-nantyglo","fhrs:id":"238922","operator":"Asda Stores Ltd"}}, "geometry":{"type":"Polygon","coordinates":[[[ -3.17748,51.79457],[-3.1774,51.795],[-3.17753,51.79502],[-3.17751,51.79512],[-3.17749,51.79524],[-3.17747,51.79523],[-3.17741,51.79523],[-3.17735,51.79522],[-3.17732,51.79534],[-3.1764,51.79527],[-3.17617,51.79525],[-3.17617,51.79523],[-3.17603,51.79521],[-3.17594,51.79519],[-3.17586,51.79515],[-3.17582,51.79511],[-3.17587,51.79467],[-3.1759,51.79467],[-3.17591,51.79462],[-3.17599,51.79463],[-3.17601,51.79459],[-3.17604,51.79456],[-3.17609,51.79454],[-3.17615,51.79451],[-3.1762,51.79451],[-3.17624,51.79451],[-3.17628,51.79453],[-3.17631,51.79454],[-3.17633,51.79456],[-3.17634,51.79459],[-3.1771,51.79465],[-3.17748,51.79457]] ]}},
{ "type":"Feature","properties":{"osm_way_id":"851922111","name":"ALDI","building":"yes","shop":"supermarket","other":{"brand":"ALDI","brand:wikidata":"Q41171672","brand:wikipedia":"en:Aldi"}}, "geometry":{"type":"Polygon","coordinates":[[[ -3.20577,51.77605],[-3.20561,51.77578],[-3.20605,51.77568],[-3.20603,51.77563],[-3.20622,51.77559],[-3.20641,51.7759],[-3.20577,51.77605]] ]}},
{ "type":"Feature","properties":{"osm_way_id":"927818968","building":"residential"},"geometry":{"type":"Polygon","coordinates":[[[ -3.20681,51.7736],[-3.20675,51.77344],[-3.20688,51.77343],[-3.20693,51.77358],[-3.20689,51.77359],[-3.20681,51.7736]] ]}},
{ "type":"Feature","properties":{"osm_way_id":"942915028","name":"Lidl","building":"retail","shop":"supermarket","other":{"addr:country":"GB","addr:postcode":"NP22 3RF","addr:street":"Gelli Road","brand":"Lidl","brand:wikidata":"Q151954","fhrs:id":"550620"}}, "geometry":{"type":"Polygon","coordinates":[[[ -3.24689,51.77612],[-3.2465,51.77618],[-3.24644,51.77601],[-3.24648,51.77601],[-3.24636,51.77573],[-3.2468,51.77566],[-3.24683,51.77573],[-3.24674,51.77575],[-3.24689,51.77612]] ]}}
]
}
