{
"type": "FeatureCollection",
"features": [
{ "type":"Feature","properties":{"osm_id":"612959355","name":"Tycroes Supermarket","other":{"addr:city":"Ammanford","addr:country":"GB","addr:housenumber":"17","addr:postcode":"SA18 3QJ","addr:street":"Ammanford Road","addr:village":"Tycroes","amenity":"post_office","fhrs:id":"631923","opening_hours:post_office":"Mo-Fr 09:00-17:30; Sa 09:00-12:30","ref:pol_id":"14711","shop":"supermarket"}}, "geometry":{"type":"Point","coordinates":[-4.02046,51.77917 ]}},
{ "type":"Feature","properties":{"osm_id":"1689922291","name":"Julian Graves","other":{"shop":"supermarket","organic":"only","addr:city":"Carmarthen","addr:street":"Lammas Street","addr:country":"GB","addr:postcode":"SA31 3AD","addr:housenumber":"3"}}, "geometry":{"type":"Point","coordinates":[-4.30892,51.85648 ]}},
{ "type":"Feature","properties":{"osm_id":"1703016041","name":"Spar","other":{"shop":"supermarket","brand":"Spar","brand:wikidata":"Q610492","brand:wikipedia":"en:Spar (retailer)"}}, "geometry":{"type":"Point","coordinates":[-4.16573,51.67281 ]}},
{ "type":"Feature","properties":{"osm_id":"1757692901","name":"The Co-operative Food","other":{"brand":"The Co-operative Food","brand:wikidata":"Q107617274","opening_hours":"Mo-Sa 06:00-23:00, Su 10:00-16:00","shop":"supermarket","wheelchair":"yes"}}, "geometry":{"type":"Point","coordinates":[-4.25015,51.68424 ]}},
{ "type":"Feature","properties":{"osm_id":"7810522624","name":"Lidl","other":{"shop":"supermarket","brand":"Lidl","phone":"+44 8009 777 766","fhrs:id":"631935","website":"https:\/\/www.lidl.co.uk\/","addr:city":"Ammanford","addr:street":"Foundry Road","source:addr":"FHRS Open Data","addr:postcode":"SA18 2LS","opening_hours":"Mo-Sa 08:00-21:00; Su 10:00-16:00","brand:wikidata":"Q151954","brand:wikipedia":"en:Lidl","opening_hours:covid19":"open"}}, "geometry":{"type":"Point","coordinates":[-3.98354,51.79137 ]}},
{ "type":"Feature","properties":{"osm_id":"7935405776","name":"Poundstretcher","other":{"addr:city":"Ammanford","addr:postcode":"SA18 3AB","addr:street":"College Street","brand":"Poundstretcher","brand:wikidata":"Q7235675","brand:wikipedia":"en:Poundstretcher","opening_hours":"Mo-Su 09:00-18:00","opening_hours:covid19":"Mo-Su 09:00-18:00","operator":"Poundstretcher","phone":"+44 1269 268569","shop":"supermarket","website":"https:\/\/www.poundstretcher.co.uk\/ammanford-253"}}, "geometry":{"type":"Point","coordinates":[-3.98858,51.7937 ]}},
{ "type":"Feature","properties":{"osm_id":"8184311667","name":"Co-op Food","other":{"brand":"Co-op Food","brand:wikidata":"Q3277439","brand:wikipedia":"en:Co-op Food","shop":"supermarket"}}, "geometry":{"type":"Point","coordinates":[-4.21854,51.75292 ]}},
{ "type":"Feature","properties":{"osm_id":"782045818","highway":"service","z_order": 0, "other":{"access":"private","service":"driveway"}}, "geometry":{"type":"LineString","coordinates":[[-4.59575,51.82595],[-4.59574,51.82598],[-4.59581,51.82616],[-4.59583,51.82624],[-4.59582,51.82633],[-4.59577,51.82642],[-4.59574,51.82646],[-4.59573,51.8265],[-4.59573,51.82653],[-4.59574,51.82656],[-4.59577,51.82659],[-4.59583,51.82662],[-4.59587,51.82666],[-4.59587,51.82673],[-4.59577,51.8269],[-4.59567,51.82707],[-4.59555,51.8272],[-4.59555,51.82722],[-4.59556,51.82723],[-4.59557,51.82724],[-4.59565,51.82727]]}},
{ "type":"Feature","properties":{"osm_way_id":"25829224","name":"Asda","building":"yes","shop":"supermarket","other":{"brand":"Asda","fhrs:id":"131173","alt_name":"ASDA Llanelli Murray Street Superstore","operator":"Asda Stores Ltd","wheelchair":"yes","addr:street":"Murray Street","addr:country":"GB","addr:postcode":"SA15 1BX","brand:wikidata":"Q297410","brand:wikipedia":"en:Asda","contact:twitter":"@asda","contact:website":"https:\/\/storelocator.asda.com\/wales\/llanelli\/murray-street","contact:facebook":"https:\/\/www.facebook.com\/asda\/"}}, "geometry":{"type":"Polygon","coordinates":[[[ -4.15856,51.68131],[-4.15841,51.68131],[-4.1584,51.68104],[-4.15867,51.68092],[-4.159,51.68091],[-4.159,51.681],[-4.15943,51.68098],[-4.15942,51.68092],[-4.15972,51.68091],[-4.15973,51.68099],[-4.15969,51.68099],[-4.15969,51.68104],[-4.1598,51.68114],[-4.1599,51.68123],[-4.15958,51.68137],[-4.15958,51.68141],[-4.15972,51.68153],[-4.15973,51.68171],[-4.15865,51.68174],[-4.15864,51.6817],[-4.15857,51.68166],[-4.15856,51.68154],[-4.15856,51.68131]] ]}},
{ "type":"Feature","properties":{"osm_way_id":"27688600","name":"Aldi","building":"yes","shop":"supermarket","other":{"addr:city":"Llanelli","addr:housename":"Aldi Supermarket","addr:postcode":"SA14 6RD","addr:street":"Heol Nantyreos","addr:suburb":"Cross Hands","brand":"ALDI","brand:wikidata":"Q41171672","brand:wikipedia":"en:Aldi","fhrs:id":"623189","source:addr":"FHRS Open Data","wheelchair":"yes"}}, "geometry":{"type":"Polygon","coordinates":[[[ -4.08427,51.79606],[-4.08397,51.79591],[-4.0844,51.79559],[-4.08434,51.79555],[-4.08448,51.79545],[-4.08484,51.79564],[-4.08427,51.79606]] ]}},
{ "type":"Feature","properties":{"osm_way_id":"54719058","name":"Co-op Food","building":"yes","shop":"supermarket","other":{"brand":"Co-op Food","brand:wikidata":"Q3277439","brand:wikipedia":"en:Co-op Food"}}, "geometry":{"type":"Polygon","coordinates":[[[ -4.30218,51.73521],[-4.30189,51.73504],[-4.30191,51.73503],[-4.30208,51.73492],[-4.30228,51.73479],[-4.30212,51.73469],[-4.30227,51.73459],[-4.30272,51.73486],[-4.30218,51.73521]] ]}},
{ "type":"Feature","properties":{"osm_way_id":"59150302","name":"Tesco Extra","building":"yes","shop":"supermarket","other":{"brand":"Tesco Extra","alt_name":"Tesco Llanelli Extra","addr:city":"Llanelli","wheelchair":"yes","addr:street":"Parc Trostre","addr:postcode":"SA14 9UY","addr:housename":"Parc Trostre","brand:wikidata":"Q25172225","brand:wikipedia":"en:Tesco Extra"}}, "geometry":{"type":"Polygon","coordinates":[[[ -4.13618,51.67724],[-4.13638,51.67721],[-4.13637,51.67719],[-4.13636,51.67716],[-4.13645,51.67714],[-4.13655,51.67713],[-4.13656,51.67716],[-4.13657,51.67718],[-4.13673,51.67716],[-4.13671,51.67712],[-4.13715,51.67706],[-4.1372,51.67716],[-4.13792,51.67707],[-4.13804,51.67705],[-4.13807,51.67712],[-4.13795,51.67713],[-4.13808,51.67753],[-4.13816,51.67752],[-4.13819,51.67759],[-4.13799,51.67762],[-4.13797,51.67756],[-4.13773,51.6776],[-4.13776,51.67767],[-4.13765,51.67769],[-4.13773,51.67792],[-4.13734,51.67798],[-4.1373,51.67788],[-4.13658,51.67798],[-4.13658,51.67801],[-4.13646,51.67802],[-4.13624,51.67741],[-4.13621,51.67742],[-4.13619,51.67738],[-4.13617,51.6773],[-4.1362,51.67729],[-4.13618,51.67724]] ]}},
{ "type":"Feature","properties":{"osm_way_id":"88609069","name":"Tesco Extra","building":"yes","shop":"supermarket","other":{"brand":"Tesco Extra","wheelchair":"yes","addr:street":"Mofra Lane","addr:postcode":"SA31 3AX","brand:wikidata":"Q25172225","brand:wikipedia":"en:Tesco Extra"}}, "geometry":{"type":"Polygon","coordinates":[[[ -4.31691,51.85292],[-4.31773,51.85284],[-4.31788,51.85282],[-4.31801,51.85334],[-4.31851,51.85328],[-4.31861,51.85366],[-4.31724,51.85388],[-4.31716,51.85366],[-4.31713,51.85358],[-4.31704,51.85329],[-4.31693,51.85298],[-4.31691,51.85292]] ]}},
{ "type":"Feature","properties":{"osm_way_id":"89249664","name":"The Co-operative Food","building":"yes","shop":"supermarket","other":{"addr:city":"Llandovery","addr:street":"High Street","addr:postcode":"SA20 0RA","opening_hours":"Mo-Sa 06:00-22:00; Su 10:00-16:00"}}, "geometry":{"type":"Polygon","coordinates":[[[ -3.78938,51.99542],[-3.789,51.99552],[-3.78873,51.99513],[-3.78883,51.99511],[-3.78879,51.99505],[-3.78901,51.99499],[-3.78904,51.99504],[-3.78909,51.99502],[-3.78938,51.99542]] ]}},
{ "type":"Feature","properties":{"osm_way_id":"89683660","name":"Co-op","building":"yes","shop":"supermarket","other":{"alt_name":"The Co-operative Food","addr:street":"Rhosmaen Street","addr:postcode":"SA19 6LU"}}, "geometry":{"type":"Polygon","coordinates":[[[ -3.9905,51.88799],[-3.98999,51.88793],[-3.99,51.88789],[-3.99004,51.88777],[-3.98998,51.88777],[-3.99,51.8877],[-3.99057,51.88777],[-3.9905,51.88799]] ]}},
{ "type":"Feature","properties":{"osm_way_id":"107642739","name":"Tesco","building":"yes","shop":"supermarket","other":{"addr:city":"Ammanford","addr:postcode":"SA18 2LR","addr:street":"Park Street","brand":"Tesco","brand:wikidata":"Q487494","brand:wikipedia":"en:Tesco","fhrs:id":"434408","source:addr":"FHRS Open Data"}}, "geometry":{"type":"Polygon","coordinates":[[[ -3.98927,51.7878],[-3.98878,51.7876],[-3.98872,51.78766],[-3.98842,51.78754],[-3.98909,51.78685],[-3.98989,51.78717],[-3.98927,51.7878]] ]}},
{ "type":"Feature","properties":{"osm_way_id":"131628666","name":"Aldi","building":"yes","shop":"supermarket","other":{"addr:postcode":"SA15 3PW","addr:street":"Swanfield Place","alt_name":"ALDI Llanelli","brand":"ALDI","brand:wikidata":"Q41171672","brand:wikipedia":"en:Aldi"}}, "geometry":{"type":"Polygon","coordinates":[[[ -4.15846,51.68468],[-4.15809,51.68485],[-4.15814,51.68489],[-4.15797,51.68496],[-4.15793,51.68493],[-4.15787,51.68495],[-4.15778,51.68487],[-4.15769,51.6848],[-4.15763,51.68476],[-4.15774,51.68471],[-4.15804,51.68457],[-4.15822,51.68448],[-4.15846,51.68468]] ]}},
{ "type":"Feature","properties":{"osm_way_id":"156840083","name":"Morrisons","building":"yes","shop":"supermarket","other":{"addr:housename":"Pemberton Retail Park","addr:postcode":"SA14 9DR","addr:street":"Trostre Roundabout","alt_name":"Morrisons Llanelli","brand":"Morrisons","brand:wikidata":"Q922344","brand:wikipedia":"en:Morrisons","website":"https:\/\/my.morrisons.com\/storefinder\/692","wheelchair":"yes"}}, "geometry":{"type":"Polygon","coordinates":[[[ -4.1329,51.6806],[-4.13353,51.68066],[-4.1335,51.68076],[-4.1336,51.68077],[-4.13343,51.68145],[-4.13311,51.68142],[-4.13309,51.68152],[-4.13283,51.6815],[-4.13286,51.6814],[-4.13256,51.68137],[-4.13259,51.68124],[-4.13233,51.68121],[-4.13247,51.68063],[-4.13243,51.68063],[-4.13239,51.68062],[-4.13241,51.68058],[-4.13245,51.68055],[-4.1325,51.68053],[-4.13257,51.68052],[-4.13265,51.68053],[-4.13269,51.68055],[-4.13277,51.68058],[-4.13284,51.6806],[-4.1329,51.6806]] ]}},
{ "type":"Feature","properties":{"osm_way_id":"177522296","name":"Morrisons","building":"yes","shop":"supermarket","other":{"brand":"Morrisons","addr:street":"Parc Pensam","addr:postcode":"SA31 2NF","brand:wikidata":"Q922344","brand:wikipedia":"en:Morrisons"}}, "geometry":{"type":"Polygon","coordinates":[[[ -4.30842,51.84619],[-4.3081,51.84696],[-4.3078,51.84691],[-4.30785,51.84679],[-4.30751,51.84674],[-4.30746,51.84685],[-4.30716,51.84681],[-4.30724,51.84662],[-4.30716,51.84661],[-4.3073,51.84628],[-4.30724,51.84627],[-4.30732,51.84609],[-4.30726,51.84608],[-4.30732,51.84595],[-4.3075,51.84598],[-4.30752,51.84595],[-4.30771,51.84598],[-4.30769,51.84601],[-4.30802,51.84606],[-4.308,51.84612],[-4.30842,51.84619]] ]}},
{ "type":"Feature","properties":{"osm_way_id":"177522540","name":"Aldi","building":"yes","shop":"supermarket","other":{"addr:housenumber":"16","addr:postcode":"SA31 2BG","addr:street":"Stephens Way","brand":"ALDI","brand:wikidata":"Q41171672","brand:wikipedia":"en:Aldi"}}, "geometry":{"type":"Polygon","coordinates":[[[ -4.30834,51.84921],[-4.30776,51.8496],[-4.30745,51.84943],[-4.30802,51.84904],[-4.30834,51.84921]] ]}},
{ "type":"Feature","properties":{"osm_way_id":"177522857","name":"Lidl","building":"yes","shop":"supermarket","other":{"addr:postcode":"SA31 1LS","addr:street":"Priory Street"}}, "geometry":{"type":"Polygon","coordinates":[[[ -4.30138,51.85823],[-4.30111,51.85843],[-4.30063,51.85817],[-4.30052,51.85825],[-4.3004,51.85818],[-4.30078,51.85791],[-4.30138,51.85823]] ]}},
{ "type":"Feature","properties":{"osm_way_id":"177531240","name":"Co-op Food","building":"yes","shop":"supermarket","other":{"addr:housenumber":"36","addr:postcode":"SA31 1BH","addr:street":"King Street","brand":"Co-op Food","brand:wikidata":"Q3277439","brand:wikipedia":"en:Co-op Food","opening_hours":"Mo-Su 07:00-22:00","operator":"The Co-operative Group","operator:wikidata":"Q117202","operator:wikipedia":"en:The Co-operative Group"}}, "geometry":{"type":"Polygon","coordinates":[[[ -4.30538,51.8574],[-4.30528,51.85747],[-4.3048,51.85717],[-4.30493,51.85709],[-4.30538,51.8574]] ]}},
{ "type":"Feature","properties":{"osm_way_id":"227207634","name":"CK's Supermarket","building":"yes","shop":"supermarket","other":{"phone":"+44 1554 774426","alt_name":"CK's Supermarket Llandeilo","operator":"Nisa","addr:street":"Rhosmaen Street","addr:postcode":"SA19 6HD","addr:housenumber":"77"}}, "geometry":{"type":"Polygon","coordinates":[[[ -3.99125,51.88469],[-3.99105,51.88488],[-3.99076,51.88477],[-3.99095,51.88457],[-3.99125,51.88469]] ]}},
{ "type":"Feature","properties":{"osm_way_id":"227234554","name":"Limes","building":"yes","shop":"supermarket","other":{"fhrs:id":"131061","addr:city":"Llangadog","addr:street":"Queens Square","source:addr":"FHRS Open Data","addr:postcode":"SA19 9BR","addr:housename":"Lime Tree Cottages"}}, "geometry":{"type":"Polygon","coordinates":[[[ -3.8829,51.93806],[-3.88275,51.93808],[-3.88272,51.93797],[-3.88286,51.93795],[-3.8829,51.93806]] ]}},
{ "type":"Feature","properties":{"osm_way_id":"300049869","name":"Lidl","building":"yes","shop":"supermarket","other":{"addr:country":"GB","addr:postcode":"SA15 2DP","addr:street":"The Avenue","alt_name":"LIDL Llanelli","brand":"Lidl","brand:wikidata":"Q151954","brand:wikipedia":"en:Lidl","fhrs:id":"115690","survey:date":"2018-01-02"}}, "geometry":{"type":"Polygon","coordinates":[[[ -4.15263,51.66659],[-4.15219,51.66599],[-4.15256,51.66589],[-4.15288,51.66633],[-4.15296,51.66631],[-4.15308,51.66646],[-4.15263,51.66659]] ]}},
{ "type":"Feature","properties":{"osm_way_id":"316279684","name":"CK Foodstore","building":"yes","shop":"supermarket","other":{"brand":"Nisa","phone":"+44 1559 364884","website":"https:\/\/ckfoodstores.co.uk\/","alt_name":"Nisa Extra","old_name":"CK's Supermarket","operator":"CK Foodstores","addr:city":"Pont-Tyweli","addr:street":"Pencader Road","addr:postcode":"SA44 4AE","opening_hours":"Mo-Sa 07:30-21:00; Su 10:00-16:00","brand:wikidata":"Q16999069","brand:wikipedia":"Nisa_(retailer)"}}, "geometry":{"type":"Polygon","coordinates":[[[ -4.31366,52.03735],[-4.313,52.03744],[-4.31292,52.03722],[-4.31359,52.03714],[-4.31366,52.03735]] ]}},
{ "type":"Feature","properties":{"osm_way_id":"334050888","name":"CK's Supermarket","building":"yes","shop":"supermarket","other":{"phone":"+44 1239 711 227","website":"http:\/\/www.cksupermarkets.co.uk","operator":"CK's","addr:city":"Castell Newydd Emlyn \/ Newcastle Emlyn","addr:street":"Heol yr Orsaf \/ Station Road","addr:postcode":"SA38 9BX"}}, "geometry":{"type":"Polygon","coordinates":[[[ -4.46147,52.03561],[-4.46123,52.03565],[-4.46109,52.03532],[-4.46115,52.03531],[-4.4611,52.03521],[-4.4612,52.0352],[-4.4612,52.03521],[-4.4613,52.0352],[-4.46147,52.03561]] ]}},
{ "type":"Feature","properties":{"osm_way_id":"390930541","name":"Spar","shop":"supermarket","other":{"brand":"Spar","addr:housename":"Unit 7b","brand:wikidata":"Q610492","brand:wikipedia":"en:Spar (retailer)"}}, "geometry":{"type":"Polygon","coordinates":[[[ -4.15686,51.68281],[-4.15688,51.68283],[-4.1569,51.68282],[-4.15693,51.68284],[-4.15697,51.68288],[-4.1569,51.6829],[-4.15681,51.68283],[-4.15686,51.68281]] ]}},
{ "type":"Feature","properties":{"osm_way_id":"553305563","name":"Co-operative","building":"yes","shop":"supermarket"},"geometry":{"type":"Polygon","coordinates":[[[ -4.1451,51.69833],[-4.14536,51.69842],[-4.14516,51.69862],[-4.1449,51.69853],[-4.1451,51.69833]] ]}},
{ "type":"Feature","properties":{"osm_way_id":"560555650","name":"Food Warehouse by Iceland","building":"yes","shop":"supermarket","other":{"addr:postcode":"SA14 6SY","brand":"The Food Warehouse","brand:wikidata":"Q87263899","source:addr:postcode":"code-point-open","website":"https:\/\/www.thefoodwarehouse.com\/store-locator\/cross-hands-llanelli"}}, "geometry":{"type":"Polygon","coordinates":[[[ -4.08608,51.79855],[-4.08635,51.79851],[-4.08653,51.79901],[-4.08626,51.79905],[-4.08608,51.79855]] ]}},
{ "type":"Feature","properties":{"osm_way_id":"762988391","name":"CO-OP","building":"yes","shop":"supermarket"},"geometry":{"type":"Polygon","coordinates":[[[ -4.32654,51.85453],[-4.3263,51.85468],[-4.32626,51.85466],[-4.32617,51.85472],[-4.32597,51.8546],[-4.3263,51.85439],[-4.32654,51.85453]] ]}},
{ "type":"Feature","properties":{"osm_way_id":"814846170","name":"Lidl","building":"supermarket","shop":"supermarket","other":{"addr:country":"GB","addr:postcode":"SA31 3AW","addr:street":"Friars Park","brand":"Lidl","brand:wikidata":"Q151954","building:levels":"1","fhrs:id":"1341777"}}, "geometry":{"type":"Polygon","coordinates":[[[ -4.31302,51.85508],[-4.31241,51.85471],[-4.31268,51.85454],[-4.31329,51.85491],[-4.31302,51.85508]] ]}},
{ "type":"Feature","properties":{"osm_way_id":"842254188","name":"Lidl","building":"yes","shop":"supermarket","other":{"addr:country":"GB","addr:housename":"Cross Hands West Retail Park","addr:postcode":"SA14 6SY","addr:unit":"1","brand":"Lidl","brand:wikidata":"Q151954","fhrs:id":"1374634","source:addr:postcode":"code-point_open","website":"https:\/\/www.lidl.co.uk\/"}}, "geometry":{"type":"Polygon","coordinates":[[[ -4.08539,51.79705],[-4.08556,51.79757],[-4.08564,51.79756],[-4.0857,51.79776],[-4.08519,51.79782],[-4.08499,51.79722],[-4.08493,51.79722],[-4.08489,51.79712],[-4.08539,51.79705]] ]}},
{ "type":"Feature","properties":{"osm_way_id":"1018690726","name":"Aldi","building":"yes","shop":"supermarket","other":{"brand":"ALDI","brand:wikidata":"Q41171672","brand:wikipedia":"en:Aldi","website":"https:\/\/www.aldi.co.uk\/store\/s-uk-E1361"}}, "geometry":{"type":"Polygon","coordinates":[[[ -4.13689,51.6787],[-4.137,51.67902],[-4.13613,51.67914],[-4.13602,51.67883],[-4.13689,51.6787]] ]}}
]
}
