{
"type": "FeatureCollection",
"features": [
{ "type":"Feature","properties":{"osm_id":"1710471010","name":"T Kirks Forestry","other":{"building":"warehouse"}}, "geometry":{"type":"Point","coordinates":[-1.7774,53.55823 ]}},
{ "type":"Feature","properties":{"osm_id":"1710545154","name":"Old Fieldhouse Lane Depot","other":{"amenity":"bus_station","building":"warehouse","bus":"yes","designation":"First Group","public_transport":"station"}}, "geometry":{"type":"Point","coordinates":[-1.76152,53.66392 ]}},
{ "type":"Feature","properties":{"osm_way_id":"51943312","name":"Marks & Spencer Distribution Centre","building":"warehouse"},"geometry":{"type":"MultiPolygon","coordinates":[[[[-1.74679,53.76735],[-1.74649,53.76743],[-1.74617,53.76698],[-1.74376,53.76756],[-1.74065,53.76332],[-1.74251,53.76284],[-1.74243,53.76267],[-1.743,53.76252],[-1.74611,53.76683],[-1.74636,53.76678],[-1.74679,53.76735]]]]}},
{ "type":"Feature","properties":{"osm_way_id":"56753455","building":"warehouse"},"geometry":{"type":"MultiPolygon","coordinates":[[[[-1.77836,53.79758],[-1.77837,53.79673],[-1.77837,53.79578],[-1.77538,53.79577],[-1.77539,53.79573],[-1.7723,53.79573],[-1.77229,53.79644],[-1.77307,53.79644],[-1.77307,53.79661],[-1.77332,53.79661],[-1.77331,53.79732],[-1.77425,53.79732],[-1.77425,53.79757],[-1.77836,53.79758]]]]}},
{ "type":"Feature","properties":{"osm_way_id":"57914276","building":"warehouse"},"geometry":{"type":"MultiPolygon","coordinates":[[[[-1.38518,53.70493],[-1.38304,53.70548],[-1.3823,53.70448],[-1.38445,53.70392],[-1.38454,53.70405],[-1.38472,53.704],[-1.38511,53.70453],[-1.38492,53.70458],[-1.38518,53.70493]]]]}},
{ "type":"Feature","properties":{"osm_way_id":"57914280","name":"Asda Distribution Centre","building":"warehouse","other":{"addr:city":"Wakefield","addr:housenumber":"3","addr:postcode":"WF6 1TN","addr:street":"Foxbridge Way","addr:suburb":"Normanton"}}, "geometry":{"type":"MultiPolygon","coordinates":[[[[-1.39299,53.70606],[-1.393,53.70632],[-1.39279,53.70632],[-1.39283,53.70748],[-1.3905,53.70751],[-1.3905,53.70729],[-1.38955,53.7073],[-1.38952,53.7062],[-1.39125,53.70618],[-1.39124,53.70604],[-1.39141,53.70604],[-1.39142,53.70617],[-1.39257,53.70616],[-1.39256,53.70607],[-1.39299,53.70606]]]]}},
{ "type":"Feature","properties":{"osm_way_id":"88527546","building":"warehouse"},"geometry":{"type":"MultiPolygon","coordinates":[[[[-1.7687,53.70002],[-1.76855,53.69997],[-1.76855,53.69996],[-1.7686,53.69989],[-1.76808,53.69974],[-1.76838,53.69937],[-1.76907,53.69956],[-1.7687,53.70002]]]]}},
{ "type":"Feature","properties":{"osm_way_id":"108954539","name":"Next","building":"warehouse"},"geometry":{"type":"MultiPolygon","coordinates":[[[[-1.27193,53.60391],[-1.27029,53.60244],[-1.27182,53.60179],[-1.27346,53.60331],[-1.27193,53.60391]]]]}},
{ "type":"Feature","properties":{"osm_way_id":"108954542","name":"Next","building":"warehouse"},"geometry":{"type":"MultiPolygon","coordinates":[[[[-1.27525,53.60064],[-1.27295,53.60106],[-1.27207,53.59933],[-1.27436,53.5989],[-1.27525,53.60064]]]]}},
{ "type":"Feature","properties":{"osm_way_id":"108954546","name":"Superdrug","building":"warehouse","other":{"addr:city":"Pontefract","addr:postcode":"WF9 2XP","addr:street":"Stadium Way","addr:suburb":"South Elmsall","addr:town":"Pontefract","fhrs:id":"284725"}}, "geometry":{"type":"MultiPolygon","coordinates":[[[[-1.27957,53.602],[-1.28088,53.60322],[-1.28116,53.60311],[-1.28139,53.60332],[-1.2819,53.60314],[-1.28183,53.60307],[-1.28292,53.60266],[-1.2814,53.60126],[-1.27957,53.602]]]]}},
{ "type":"Feature","properties":{"osm_way_id":"108954547","name":"Next","building":"warehouse"},"geometry":{"type":"MultiPolygon","coordinates":[[[[-1.27019,53.60234],[-1.26937,53.60159],[-1.27105,53.60094],[-1.27187,53.60169],[-1.27019,53.60234]]]]}},
{ "type":"Feature","properties":{"osm_way_id":"108954980","name":"Next","building":"warehouse"},"geometry":{"type":"MultiPolygon","coordinates":[[[[-1.26986,53.60432],[-1.26697,53.60322],[-1.26628,53.60268],[-1.26798,53.60203],[-1.26866,53.60261],[-1.26848,53.60267],[-1.26858,53.60273],[-1.26848,53.60281],[-1.27059,53.60362],[-1.26986,53.60432]]]]}},
{ "type":"Feature","properties":{"osm_way_id":"108954981","name":"Asda XDC","building":"warehouse","other":{"addr:city":"Pontefract","addr:postcode":"WF9 2XX","addr:street":"Elmsall Way","addr:suburb":"South Elmsall","addr:town":"Pontefract","fhrs:id":"1002165"}}, "geometry":{"type":"MultiPolygon","coordinates":[[[[-1.27593,53.60603],[-1.27539,53.60587],[-1.27536,53.6059],[-1.27238,53.60499],[-1.27296,53.60432],[-1.27323,53.60441],[-1.27333,53.60429],[-1.27337,53.60427],[-1.27605,53.60509],[-1.27592,53.60523],[-1.2771,53.6056],[-1.27669,53.60608],[-1.27607,53.60588],[-1.27593,53.60603]]]]}},
{ "type":"Feature","properties":{"osm_way_id":"129464998","name":"Joe Brown's","building":"warehouse","other":{"addr:housename":"Clyde Works","addr:postcode":"LS11 9RQ","addr:street":"Ingram Road"}}, "geometry":{"type":"MultiPolygon","coordinates":[[[[-1.56546,53.78267],[-1.56464,53.78267],[-1.56464,53.78194],[-1.56547,53.78194],[-1.56546,53.78267]]]]}},
{ "type":"Feature","properties":{"osm_way_id":"130332665","natural":"wood"},"geometry":{"type":"MultiPolygon","coordinates":[[[[0.67568,52.45913],[0.67567,52.4591],[0.67557,52.45879],[0.67558,52.45872],[0.6759,52.4584],[0.67589,52.45834],[0.67687,52.45742],[0.67682,52.45739],[0.67628,52.4566],[0.67615,52.45667],[0.67597,52.4568],[0.67577,52.45696],[0.67557,52.45712],[0.67526,52.45742],[0.67502,52.45763],[0.67489,52.45773],[0.67382,52.45841],[0.67385,52.45843],[0.67533,52.45905],[0.67568,52.45913]]]]}},
{ "type":"Feature","properties":{"osm_way_id":"140684055","building":"warehouse"},"geometry":{"type":"MultiPolygon","coordinates":[[[[-1.71906,53.87988],[-1.7187,53.87999],[-1.71857,53.87985],[-1.71865,53.87982],[-1.71893,53.87973],[-1.71906,53.87988]]]]}},
{ "type":"Feature","properties":{"osm_way_id":"144118343","building":"warehouse"},"geometry":{"type":"MultiPolygon","coordinates":[[[[-1.78297,53.78465],[-1.78285,53.78452],[-1.78313,53.78443],[-1.78304,53.78433],[-1.78323,53.78426],[-1.78314,53.78417],[-1.78352,53.78404],[-1.78344,53.78395],[-1.78375,53.78384],[-1.78392,53.78403],[-1.78549,53.78349],[-1.78615,53.78416],[-1.78342,53.7851],[-1.78297,53.78465]]]]}},
{ "type":"Feature","properties":{"osm_way_id":"144130650","name":"IKEA Warehouse","building":"warehouse"},"geometry":{"type":"MultiPolygon","coordinates":[[[[-1.65272,53.74537],[-1.65081,53.74569],[-1.65043,53.74491],[-1.65234,53.74458],[-1.65272,53.74537]]]]}},
{ "type":"Feature","properties":{"osm_way_id":"144130668","name":"Ocado","building":"warehouse","other":{"addr:city":"Birstall","addr:postcode":"WF17 9LW","addr:street":"Dark Lane"}}, "geometry":{"type":"MultiPolygon","coordinates":[[[[-1.65605,53.74214],[-1.65573,53.74211],[-1.65581,53.74173],[-1.65614,53.74176],[-1.65605,53.74214]]]]}},
{ "type":"Feature","properties":{"osm_way_id":"144659639","name":"Cassellie Bathrooms","building":"warehouse","other":{"building:levels":"0"}}, "geometry":{"type":"MultiPolygon","coordinates":[[[[-1.62559,53.74326],[-1.62522,53.74301],[-1.62497,53.74314],[-1.62534,53.74339],[-1.62559,53.74326]]]]}},
{ "type":"Feature","properties":{"osm_way_id":"149996066","building":"warehouse"},"geometry":{"type":"MultiPolygon","coordinates":[[[[-1.4149,53.7202],[-1.41479,53.7203],[-1.41415,53.72091],[-1.41403,53.72103],[-1.41419,53.72109],[-1.41403,53.72124],[-1.41318,53.72093],[-1.41305,53.72106],[-1.41226,53.72077],[-1.41238,53.72064],[-1.41234,53.72063],[-1.41225,53.72071],[-1.41212,53.72066],[-1.41221,53.72058],[-1.41178,53.72042],[-1.41173,53.72047],[-1.41164,53.72044],[-1.41169,53.72039],[-1.4116,53.72035],[-1.41263,53.71937],[-1.41291,53.71947],[-1.41299,53.7194],[-1.41377,53.71968],[-1.41369,53.71976],[-1.4149,53.7202]]]]}},
{ "type":"Feature","properties":{"osm_way_id":"150004142","name":"Hagen","building":"warehouse","other":{"addr:city":"Wakefield","addr:postcode":"WF10 5QH","addr:street":"California Drive","addr:town":"Castleford","fhrs:id":"284765"}}, "geometry":{"type":"MultiPolygon","coordinates":[[[[-1.39945,53.71102],[-1.40025,53.71158],[-1.39973,53.71184],[-1.3998,53.71189],[-1.39929,53.71214],[-1.39927,53.71213],[-1.39913,53.7122],[-1.39893,53.71206],[-1.399,53.71203],[-1.39835,53.71157],[-1.39945,53.71102]]]]}},
{ "type":"Feature","properties":{"osm_way_id":"150004148","building":"warehouse","other":{"addr:city":"Wakefield","addr:postcode":"WF10 5QH","addr:street":"California Drive","addr:town":"Castleford","fhrs:id":"284764","old_name":"Argos"}}, "geometry":{"type":"MultiPolygon","coordinates":[[[[-1.39391,53.7132],[-1.39417,53.71339],[-1.39423,53.71336],[-1.39496,53.71389],[-1.3949,53.71392],[-1.39503,53.71401],[-1.39513,53.71396],[-1.39528,53.71407],[-1.39517,53.71412],[-1.39548,53.71434],[-1.39558,53.7143],[-1.39569,53.71438],[-1.3956,53.71442],[-1.39589,53.71463],[-1.39572,53.71471],[-1.39569,53.71469],[-1.39542,53.71482],[-1.3952,53.71466],[-1.39437,53.71506],[-1.3945,53.71516],[-1.39436,53.71523],[-1.39429,53.71526],[-1.39415,53.71517],[-1.39374,53.71536],[-1.39356,53.71522],[-1.39349,53.71525],[-1.39275,53.71472],[-1.39281,53.71469],[-1.39274,53.71463],[-1.39261,53.7147],[-1.39249,53.71461],[-1.39195,53.71487],[-1.39179,53.71476],[-1.39189,53.71471],[-1.39144,53.71439],[-1.39391,53.7132]]]]}},
{ "type":"Feature","properties":{"osm_way_id":"151470651","name":"Leeds Mail Centre","amenity":"post_depot","building":"warehouse","other":{"addr:city":"Leeds","addr:housename":"Leodis House","addr:postcode":"LS10 1AZ","addr:street":"Leodis Way","addr:suburb":"Stourton","fhrs:id":"320984","operator":"Royal Mail","operator:wikidata":"Q638098","operator:wikipedia":"en:Royal Mail"}}, "geometry":{"type":"MultiPolygon","coordinates":[[[[-1.49914,53.76444],[-1.50203,53.76549],[-1.50127,53.76621],[-1.49839,53.76516],[-1.49914,53.76444]]]]}},
{ "type":"Feature","properties":{"osm_way_id":"152125226","name":"Bosch","building":"warehouse","other":{"addr:postcode":"IP14 1EY"}}, "geometry":{"type":"MultiPolygon","coordinates":[[[[1.00192,52.18525],[1.0021,52.18507],[1.00198,52.18502],[1.00249,52.18448],[1.00266,52.18455],[1.00333,52.18384],[1.0034,52.18387],[1.00353,52.18372],[1.00359,52.18374],[1.00372,52.18361],[1.00381,52.18349],[1.00476,52.18281],[1.00494,52.18292],[1.00423,52.18341],[1.00439,52.18349],[1.00415,52.18367],[1.00443,52.18376],[1.00422,52.18398],[1.00428,52.184],[1.00329,52.18506],[1.00335,52.18508],[1.00304,52.1854],[1.00316,52.18544],[1.0031,52.1855],[1.00316,52.18552],[1.00308,52.18559],[1.00318,52.18563],[1.00313,52.18568],[1.00192,52.18525]]]]}},
{ "type":"Feature","properties":{"osm_way_id":"155717616","name":"Longs of Leeds","building":"warehouse"},"geometry":{"type":"MultiPolygon","coordinates":[[[[-1.42768,53.80864],[-1.42757,53.80864],[-1.42673,53.8086],[-1.42679,53.80816],[-1.4268,53.8081],[-1.42774,53.80815],[-1.42775,53.80815],[-1.42768,53.80864]]]]}},
{ "type":"Feature","properties":{"osm_way_id":"155717617","building":"warehouse"},"geometry":{"type":"MultiPolygon","coordinates":[[[[-1.4295,53.80891],[-1.429,53.80889],[-1.42905,53.80854],[-1.42955,53.80856],[-1.4295,53.80891]]]]}},
{ "type":"Feature","properties":{"osm_way_id":"155717618","building":"warehouse"},"geometry":{"type":"MultiPolygon","coordinates":[[[[-1.42874,53.80849],[-1.42818,53.80847],[-1.42814,53.80879],[-1.4287,53.80882],[-1.42874,53.80849]]]]}},
{ "type":"Feature","properties":{"osm_way_id":"158935672","name":"Thongsbridge Tennis Club","building":"warehouse","leisure":"sports_centre","sport":"tennis","other":{"addr:city":"Holmfirth","addr:hamlet":"Thongsbridge","addr:postcode":"HD9 7RY","addr:street":"Miry Lane"}}, "geometry":{"type":"MultiPolygon","coordinates":[[[[-1.77731,53.58599],[-1.77676,53.58583],[-1.77647,53.58618],[-1.77622,53.58649],[-1.77676,53.58665],[-1.77731,53.58599]]]]}},
{ "type":"Feature","properties":{"osm_way_id":"159051184","building":"warehouse"},"geometry":{"type":"MultiPolygon","coordinates":[[[[-1.78448,53.55322],[-1.7842,53.55287],[-1.78321,53.55316],[-1.78333,53.55334],[-1.78366,53.55325],[-1.78381,53.55342],[-1.78448,53.55322]]]]}},
{ "type":"Feature","properties":{"osm_way_id":"167899040","name":"Drive In Service Centre","building":"warehouse"},"geometry":{"type":"MultiPolygon","coordinates":[[[[-1.77466,53.83348],[-1.77495,53.83339],[-1.77488,53.83331],[-1.77458,53.8334],[-1.77455,53.83336],[-1.77441,53.8334],[-1.77459,53.83361],[-1.77473,53.83357],[-1.77466,53.83348]]]]}},
{ "type":"Feature","properties":{"osm_way_id":"176823800","building":"warehouse"},"geometry":{"type":"MultiPolygon","coordinates":[[[[-1.7139,53.76495],[-1.71336,53.76572],[-1.71198,53.7654],[-1.71164,53.76592],[-1.71184,53.76597],[-1.71192,53.76585],[-1.71249,53.76599],[-1.7124,53.76616],[-1.71527,53.76683],[-1.71517,53.76702],[-1.71582,53.76717],[-1.71595,53.76703],[-1.71639,53.76714],[-1.71675,53.76662],[-1.71613,53.76647],[-1.71668,53.76569],[-1.71615,53.76559],[-1.71623,53.76548],[-1.7139,53.76495]]]]}},
{ "type":"Feature","properties":{"osm_way_id":"176823802","building":"warehouse"},"geometry":{"type":"MultiPolygon","coordinates":[[[[-1.70997,53.76376],[-1.70981,53.76399],[-1.70958,53.76393],[-1.70849,53.76548],[-1.70899,53.76561],[-1.70894,53.76567],[-1.70969,53.76585],[-1.70974,53.76578],[-1.71119,53.76614],[-1.71135,53.76592],[-1.71115,53.76588],[-1.71122,53.76578],[-1.71155,53.76586],[-1.71192,53.76534],[-1.71168,53.76528],[-1.71175,53.76519],[-1.71164,53.76516],[-1.71154,53.7653],[-1.7112,53.76522],[-1.71138,53.76496],[-1.71127,53.76493],[-1.71135,53.76481],[-1.71145,53.76484],[-1.71161,53.76461],[-1.7118,53.76434],[-1.71189,53.7642],[-1.71179,53.76418],[-1.71073,53.76392],[-1.71066,53.76401],[-1.71045,53.76396],[-1.7105,53.76389],[-1.70997,53.76376]]]]}},
{ "type":"Feature","properties":{"osm_way_id":"199123494","building":"warehouse"},"geometry":{"type":"MultiPolygon","coordinates":[[[[-1.40672,53.78649],[-1.40718,53.78654],[-1.40727,53.78628],[-1.40691,53.78624],[-1.40685,53.78645],[-1.40673,53.78643],[-1.40672,53.78649]]]]}},
{ "type":"Feature","properties":{"osm_way_id":"201078285","name":"Dowsing & Reynolds","building":"warehouse","other":{"addr:city":"Leeds","addr:place":"Hunslet Trading Estate","addr:postcode":"LS10 1BL","addr:street":"Severn Road","addr:suburb":"Hunslet","addr:unit":"7"}}, "geometry":{"type":"MultiPolygon","coordinates":[[[[-1.51923,53.7782],[-1.51902,53.77839],[-1.51811,53.77803],[-1.51832,53.77784],[-1.51923,53.7782]]]]}},
{ "type":"Feature","properties":{"osm_way_id":"201209760","building":"warehouse"},"geometry":{"type":"MultiPolygon","coordinates":[[[[-1.72341,53.77606],[-1.72179,53.77679],[-1.72184,53.77684],[-1.72155,53.77688],[-1.72146,53.77681],[-1.7214,53.77684],[-1.72055,53.77614],[-1.7206,53.77577],[-1.72101,53.77558],[-1.72129,53.77581],[-1.7212,53.77586],[-1.72153,53.77612],[-1.72278,53.77556],[-1.72341,53.77606]]]]}},
{ "type":"Feature","properties":{"osm_way_id":"201901921","building":"warehouse"},"geometry":{"type":"MultiPolygon","coordinates":[[[[-1.86276,53.6769],[-1.86258,53.67657],[-1.86232,53.67662],[-1.86249,53.67695],[-1.86276,53.6769]]]]}},
{ "type":"Feature","properties":{"osm_way_id":"202085253","name":"Suma","building":"warehouse"},"geometry":{"type":"MultiPolygon","coordinates":[[[[-1.82781,53.69502],[-1.82809,53.69474],[-1.82763,53.69458],[-1.82741,53.69479],[-1.82779,53.69493],[-1.82773,53.69499],[-1.82781,53.69502]]]]}},
{ "type":"Feature","properties":{"osm_way_id":"203728683","building":"warehouse"},"geometry":{"type":"MultiPolygon","coordinates":[[[[-1.35974,53.6798],[-1.35959,53.67922],[-1.35897,53.67927],[-1.35909,53.67975],[-1.35945,53.67972],[-1.35947,53.67982],[-1.35974,53.6798]]]]}},
{ "type":"Feature","properties":{"osm_way_id":"216670883","name":"Low Use Store","building":"warehouse"},"geometry":{"type":"MultiPolygon","coordinates":[[[[-1.3239,53.91809],[-1.32336,53.91831],[-1.32424,53.91907],[-1.32477,53.91884],[-1.3239,53.91809]]]]}},
{ "type":"Feature","properties":{"osm_way_id":"243763298","name":"Grafitech Web Ltd","building":"warehouse","other":{"addr:city":"Featherstone","addr:country":"GB","addr:housename":"Web House","addr:place":"Green Lane Industrial Park","addr:postcode":"WF7 6TA","email":"sales@grafitcweb.com","fax":"+44 (0)1977 708822","phone":"+44 1977 704466","website":"http:\/\/grafitecweb.com"}}, "geometry":{"type":"MultiPolygon","coordinates":[[[[-1.37607,53.68099],[-1.37591,53.68132],[-1.37546,53.68124],[-1.37562,53.68091],[-1.37607,53.68099]]]]}},
{ "type":"Feature","properties":{"osm_way_id":"243763299","name":"Aspray24","building":"warehouse","other":{"addr:city":"Featherstone","addr:country":"GB","addr:housenumber":"Unit 1A","addr:place":"Green Lane Industrial Park","addr:postcode":"WF7 6EP","addr:street":"Phoenix Avenue","phone":"+44 1977 700 371","website":"http:\/\/aspray24.com\/depots.html#yorkshire"}}, "geometry":{"type":"MultiPolygon","coordinates":[[[[-1.36884,53.67899],[-1.36878,53.67849],[-1.36872,53.67849],[-1.36872,53.67842],[-1.36725,53.67848],[-1.36726,53.67853],[-1.36718,53.67854],[-1.36724,53.67905],[-1.36884,53.67899]]]]}},
{ "type":"Feature","properties":{"osm_way_id":"243763316","name":"Snowden Seamless Floors Ltd","building":"warehouse","other":{"addr:city":"Featherstone","addr:country":"GB","addr:housenumber":"Unit 1","addr:place":"Green Lane Industrial Park","addr:postcode":"WF7 6EL","email":"info@snowdenflooring.com","phone":"+44 1977 695050","website":"http:\/\/www.snowdenflooring.com"}}, "geometry":{"type":"MultiPolygon","coordinates":[[[[-1.37318,53.68057],[-1.37305,53.68085],[-1.3726,53.68078],[-1.37273,53.68049],[-1.37318,53.68057]]]]}},
{ "type":"Feature","properties":{"osm_way_id":"243763320","name":"Healthcare at Home","building":"warehouse","other":{"addr:city":"Featherstone","addr:country":"GB","addr:place":"Green Lane Industrial Park","addr:postcode":"WF7 6ER","addr:street":"Junction Close"}}, "geometry":{"type":"MultiPolygon","coordinates":[[[[-1.3689,53.68024],[-1.36896,53.67953],[-1.3688,53.67952],[-1.3688,53.67947],[-1.36852,53.67946],[-1.36851,53.67951],[-1.36833,53.67951],[-1.36827,53.68022],[-1.3689,53.68024]]]]}},
{ "type":"Feature","properties":{"osm_way_id":"243763326","name":"Bobby's","building":"warehouse","other":{"addr:city":"Featherstone","addr:country":"GB","addr:place":"Green Lane Industrial Park","addr:postcode":"WF7 6RA","addr:street":"Boothroyds Way","addr:suburb":"Featherstone","addr:town":"Pontefect","addr:unit":"A1"}}, "geometry":{"type":"MultiPolygon","coordinates":[[[[-1.37544,53.68104],[-1.37537,53.68122],[-1.37494,53.68115],[-1.37502,53.68098],[-1.37544,53.68104]]]]}},
{ "type":"Feature","properties":{"osm_way_id":"276995673","building":"warehouse"},"geometry":{"type":"MultiPolygon","coordinates":[[[[-1.67106,53.55389],[-1.67032,53.55392],[-1.67029,53.55392],[-1.67028,53.55387],[-1.6706,53.55386],[-1.67059,53.55381],[-1.67105,53.5538],[-1.67106,53.55389]]]]}},
{ "type":"Feature","properties":{"osm_way_id":"311439080","building":"warehouse","other":{"operator":"McCarthy's Storage World"}}, "geometry":{"type":"MultiPolygon","coordinates":[[[[-1.54239,53.81175],[-1.54194,53.81187],[-1.5417,53.81156],[-1.54207,53.81147],[-1.54211,53.81146],[-1.54216,53.81153],[-1.54221,53.81152],[-1.54239,53.81175]]]]}},
{ "type":"Feature","properties":{"osm_way_id":"311439097","building":"warehouse"},"geometry":{"type":"MultiPolygon","coordinates":[[[[-1.5403,53.81199],[-1.54017,53.81182],[-1.54025,53.8118],[-1.54036,53.81177],[-1.54014,53.81149],[-1.54065,53.81135],[-1.54089,53.81136],[-1.54119,53.81175],[-1.54039,53.81197],[-1.5403,53.81199]]]]}},
{ "type":"Feature","properties":{"osm_way_id":"406155463","building":"warehouse","shop":"doityourself","other":{"brand":"Screwfix","building:use":"retail"}}, "geometry":{"type":"MultiPolygon","coordinates":[[[[-1.70542,53.86816],[-1.70508,53.86815],[-1.70506,53.86845],[-1.7054,53.86846],[-1.70542,53.86816]]]]}},
{ "type":"Feature","properties":{"osm_way_id":"406986168","name":"Manku Brothers Ltd","building":"warehouse","shop":"trade","other":{"addr:city":"Leeds","addr:postcode":"LS7 1AQ","addr:street":"Nortech Close","trade":"building_supplies;plumbing"}}, "geometry":{"type":"MultiPolygon","coordinates":[[[[-1.53427,53.80735],[-1.53428,53.80751],[-1.53361,53.80753],[-1.5336,53.80738],[-1.53427,53.80735]]]]}},
{ "type":"Feature","properties":{"osm_way_id":"406986178","name":"Howdens Joinery","building":"warehouse","shop":"trade","other":{"addr:city":"Leeds","addr:postcode":"LS7 1AQ","addr:street":"Nortech Close","addr:unit":"C1"}}, "geometry":{"type":"MultiPolygon","coordinates":[[[[-1.53363,53.8069],[-1.53405,53.80688],[-1.53406,53.807],[-1.53409,53.807],[-1.5341,53.80709],[-1.53396,53.80709],[-1.53395,53.80707],[-1.53365,53.80708],[-1.53363,53.8069]]]]}},
{ "type":"Feature","properties":{"osm_way_id":"409067777","building":"warehouse","other":{"addr:city":"Morley","addr:postcode":"LS27 0NQ","addr:street":"Scott Lane"}}, "geometry":{"type":"MultiPolygon","coordinates":[[[[-1.62275,53.74032],[-1.62271,53.74028],[-1.62266,53.74029],[-1.62223,53.7398],[-1.62231,53.73977],[-1.62227,53.73973],[-1.6226,53.73962],[-1.62265,53.73967],[-1.62275,53.73964],[-1.62322,53.74018],[-1.62275,53.74032]]]]}},
{ "type":"Feature","properties":{"osm_way_id":"433828112","name":"The Garage Door Company","building":"warehouse","other":{"addr:city":"Leeds","addr:housenumber":"87","addr:postcode":"LS8 5DT","addr:street":"Roseville Road","website":"https:\/\/www.thegaragedoorcompany.ltd.uk\/"}}, "geometry":{"type":"MultiPolygon","coordinates":[[[[-1.52869,53.80632],[-1.52916,53.80652],[-1.52897,53.80668],[-1.5285,53.80647],[-1.52869,53.80632]]]]}},
{ "type":"Feature","properties":{"osm_way_id":"435459066","name":"Screwfix","building":"warehouse","shop":"doityourself","other":{"brand":"Screwfix","brand:wikidata":"Q7439115","brand:wikipedia":"en:Screwfix"}}, "geometry":{"type":"MultiPolygon","coordinates":[[[[-1.51633,53.77609],[-1.51671,53.77576],[-1.51689,53.77584],[-1.51687,53.77586],[-1.51694,53.77589],[-1.51653,53.77624],[-1.51645,53.7762],[-1.5165,53.77616],[-1.51633,53.77609]]]]}},
{ "type":"Feature","properties":{"osm_way_id":"436877693","name":"Adams Fast Food Supplies","building":"warehouse","shop":"wholesale","other":{"addr:city":"Leeds","addr:housenumber":"40","addr:postcode":"LS8 5DR","addr:street":"Roseville Road","addr:suburb":"Sheepscar","wholesale":"food"}}, "geometry":{"type":"MultiPolygon","coordinates":[[[[-1.52618,53.80949],[-1.52668,53.80933],[-1.52687,53.80956],[-1.52638,53.80971],[-1.52618,53.80949]]]]}},
{ "type":"Feature","properties":{"osm_way_id":"439877162","name":"Whitwood Delivery Office","amenity":"post_depot","building":"warehouse","other":{"addr:city":"Castleford","addr:postcode":"WF10 5QA","addr:street":"Speedwell Road","operator":"Royal Mail"}}, "geometry":{"type":"MultiPolygon","coordinates":[[[[-1.39031,53.71665],[-1.3907,53.7164],[-1.39039,53.71623],[-1.39,53.71648],[-1.39031,53.71665]]]]}},
{ "type":"Feature","properties":{"osm_way_id":"440013206","name":"La Redoute","building":"warehouse","other":{"addr:city":"Wakefield","addr:postcode":"WF2 7YY","addr:street":"Standbridge Lane"}}, "geometry":{"type":"MultiPolygon","coordinates":[[[[-1.51805,53.64101],[-1.51903,53.64055],[-1.52039,53.64156],[-1.52016,53.64166],[-1.5194,53.64202],[-1.51805,53.64101]]]]}},
{ "type":"Feature","properties":{"osm_way_id":"448141518","name":"Howden's Joinery","building":"warehouse","shop":"trade"},"geometry":{"type":"MultiPolygon","coordinates":[[[[-1.51633,53.77609],[-1.5165,53.77616],[-1.51645,53.7762],[-1.5164,53.77624],[-1.51625,53.77618],[-1.51621,53.77622],[-1.51588,53.77608],[-1.51602,53.77596],[-1.51633,53.77609]]]]}},
{ "type":"Feature","properties":{"osm_way_id":"450630235","name":"West Yorkshire Police Learning & Development Centre","amenity":"police","building":"warehouse","other":{"addr:housename":"Learning & Development Centre","police":"training_area"}}, "geometry":{"type":"MultiPolygon","coordinates":[[[[-1.53815,53.71233],[-1.53825,53.71278],[-1.53829,53.71295],[-1.53832,53.71304],[-1.53983,53.71293],[-1.53968,53.71228],[-1.53848,53.71237],[-1.53846,53.71231],[-1.53815,53.71233]]]]}},
{ "type":"Feature","properties":{"osm_way_id":"471115433","building":"warehouse"},"geometry":{"type":"MultiPolygon","coordinates":[[[[-1.46262,53.66699],[-1.46282,53.66702],[-1.46274,53.66722],[-1.46246,53.66719],[-1.4625,53.66707],[-1.46259,53.66708],[-1.46262,53.66699]]]]}},
{ "type":"Feature","properties":{"osm_way_id":"478524684","building":"warehouse","other":{"addr:city":"Halifax","addr:country":"GB","addr:postcode":"HX4 8ED","addr:street":"Black Brook Way"}}, "geometry":{"type":"MultiPolygon","coordinates":[[[[-1.86294,53.68515],[-1.8611,53.68554],[-1.86093,53.68527],[-1.86277,53.68487],[-1.86294,53.68515]]]]}},
{ "type":"Feature","properties":{"osm_way_id":"494483158","building":"warehouse","other":{"addr:city":"Huddersfield","addr:country":"GB","addr:hamlet":"Slaithwaite","addr:postcode":"HD7 5JS"}}, "geometry":{"type":"MultiPolygon","coordinates":[[[[-1.88041,53.62111],[-1.88038,53.62119],[-1.88009,53.62116],[-1.88003,53.62115],[-1.88006,53.62106],[-1.88041,53.62111]]]]}},
{ "type":"Feature","properties":{"osm_way_id":"500241896","name":"Amazon Fulfillment and warehousing","building":"warehouse","other":{"wikidata":"Q27676059"}}, "geometry":{"type":"MultiPolygon","coordinates":[[[[-1.48298,53.78179],[-1.48128,53.7819],[-1.48118,53.78132],[-1.48286,53.78122],[-1.48298,53.78179]]]]}},
{ "type":"Feature","properties":{"osm_way_id":"500248063","name":"John Lewis","building":"warehouse","other":{"brand:wikidata":"Q1918981","brand:wikipedia":"ak:John Lewis & Partners"}}, "geometry":{"type":"MultiPolygon","coordinates":[[[[-1.48054,53.7838],[-1.48036,53.78283],[-1.47974,53.78287],[-1.47993,53.78384],[-1.48054,53.7838]]]]}},
{ "type":"Feature","properties":{"osm_way_id":"509385000","name":"Bramley Delivery Office","amenity":"post_depot","building":"warehouse","other":{"addr:city":"Leeds","addr:postcode":"LS13 2UB","addr:street":"Waterloo Way","operator":"Royal Mail"}}, "geometry":{"type":"MultiPolygon","coordinates":[[[[-1.62509,53.8134],[-1.6252,53.81347],[-1.62504,53.81356],[-1.62478,53.81341],[-1.62495,53.8133],[-1.62511,53.81339],[-1.62509,53.8134]]]]}},
{ "type":"Feature","properties":{"osm_way_id":"559678581","building":"warehouse"},"geometry":{"type":"MultiPolygon","coordinates":[[[[-1.93733,53.91604],[-1.93724,53.91605],[-1.93712,53.91593],[-1.93728,53.91591],[-1.93733,53.91604]]]]}},
{ "type":"Feature","properties":{"osm_way_id":"561280900","building":"warehouse"},"geometry":{"type":"MultiPolygon","coordinates":[[[[-1.94058,53.91552],[-1.94,53.91533],[-1.94004,53.91529],[-1.94018,53.91534],[-1.94021,53.9153],[-1.94016,53.91528],[-1.94018,53.91527],[-1.94053,53.91538],[-1.94051,53.91541],[-1.94059,53.91544],[-1.94058,53.91545],[-1.94063,53.91546],[-1.94058,53.91552]]]]}},
{ "type":"Feature","properties":{"osm_way_id":"561461971","building":"warehouse"},"geometry":{"type":"MultiPolygon","coordinates":[[[[-1.93902,53.91586],[-1.93892,53.91584],[-1.93903,53.91567],[-1.93915,53.9157],[-1.93908,53.9158],[-1.93907,53.9158],[-1.93902,53.91586]]]]}},
{ "type":"Feature","properties":{"osm_way_id":"561461973","building":"warehouse"},"geometry":{"type":"MultiPolygon","coordinates":[[[[-1.9388,53.91578],[-1.93864,53.91578],[-1.93864,53.91573],[-1.93855,53.91572],[-1.9386,53.91557],[-1.9387,53.91558],[-1.93872,53.91559],[-1.93887,53.9156],[-1.93886,53.91573],[-1.9388,53.91573],[-1.9388,53.91578]]]]}},
{ "type":"Feature","properties":{"osm_way_id":"561461984","building":"warehouse"},"geometry":{"type":"MultiPolygon","coordinates":[[[[-1.94028,53.91587],[-1.94017,53.91584],[-1.93993,53.91579],[-1.93996,53.91573],[-1.94,53.91567],[-1.94009,53.91569],[-1.94008,53.91571],[-1.94012,53.91572],[-1.94013,53.91571],[-1.94027,53.91574],[-1.94027,53.91573],[-1.94037,53.91575],[-1.94028,53.91587]]]]}},
{ "type":"Feature","properties":{"osm_way_id":"563078586","name":"Screwfix","building":"warehouse","shop":"doityourself","other":{"addr:city":"Leeds","addr:housename":"College Trade Park","addr:housenumber":"5","addr:postcode":"LS7 3AJ","addr:street":"Roundhay Road","addr:unit":"3","brand":"Screwfix","brand:wikidata":"Q7439115","brand:wikipedia":"en:Screwfix"}}, "geometry":{"type":"MultiPolygon","coordinates":[[[[-1.52991,53.80969],[-1.53024,53.8096],[-1.53037,53.80976],[-1.53005,53.80985],[-1.52991,53.80969]]]]}},
{ "type":"Feature","properties":{"osm_way_id":"563078587","name":"Toolstation","building":"warehouse","shop":"doityourself","other":{"addr:city":"Leeds","addr:housename":"College Trade Park","addr:housenumber":"5","addr:postcode":"LS7 3AJ","addr:street":"Roundhay Road","addr:unit":"4","brand":"Toolstation","brand:wikidata":"Q7824103","brand:wikipedia":"en:Toolstation"}}, "geometry":{"type":"MultiPolygon","coordinates":[[[[-1.52967,53.80976],[-1.52991,53.80969],[-1.53005,53.80985],[-1.52981,53.80992],[-1.52967,53.80976]]]]}},
{ "type":"Feature","properties":{"osm_way_id":"563078590","building":"warehouse","other":{"addr:city":"Leeds","addr:housename":"College Trade Park","addr:housenumber":"5","addr:postcode":"LS7 3AJ","addr:street":"Roundhay Road","addr:unit":"5"}}, "geometry":{"type":"MultiPolygon","coordinates":[[[[-1.52934,53.80985],[-1.52967,53.80976],[-1.52981,53.80992],[-1.52947,53.81002],[-1.52934,53.80985]]]]}},
{ "type":"Feature","properties":{"osm_way_id":"563078591","building":"warehouse","other":{"addr:city":"Leeds","addr:housename":"College Trade Park","addr:housenumber":"5","addr:postcode":"LS7 3AJ","addr:street":"Roundhay Road","addr:unit":"2"}}, "geometry":{"type":"MultiPolygon","coordinates":[[[[-1.53141,53.80922],[-1.53184,53.80974],[-1.53116,53.80994],[-1.53073,53.80941],[-1.53141,53.80922]]]]}},
{ "type":"Feature","properties":{"osm_way_id":"563078592","name":"Tobbell Electrical","building":"warehouse","shop":"trade","other":{"addr:city":"Leeds","addr:housename":"College Trade Park","addr:housenumber":"5","addr:postcode":"LS7 3AJ","addr:street":"Roundhay Road","addr:unit":"1","trade":"electrical"}}, "geometry":{"type":"MultiPolygon","coordinates":[[[[-1.53291,53.80879],[-1.53334,53.80928],[-1.53283,53.80943],[-1.5324,53.80894],[-1.53291,53.80879]]]]}},
{ "type":"Feature","properties":{"osm_way_id":"568112475","building":"warehouse"},"geometry":{"type":"MultiPolygon","coordinates":[[[[-1.93829,53.91275],[-1.9383,53.91265],[-1.93812,53.91264],[-1.93812,53.91271],[-1.93811,53.91271],[-1.9381,53.91274],[-1.93829,53.91275]]]]}},
{ "type":"Feature","properties":{"osm_way_id":"569375208","building":"warehouse"},"geometry":{"type":"MultiPolygon","coordinates":[[[[-1.93702,53.91299],[-1.93688,53.91299],[-1.93688,53.91297],[-1.93687,53.91297],[-1.93686,53.91294],[-1.93682,53.91294],[-1.93682,53.91291],[-1.93677,53.91291],[-1.93677,53.91292],[-1.93671,53.91292],[-1.93671,53.91293],[-1.93655,53.91293],[-1.93655,53.91291],[-1.93596,53.91291],[-1.93595,53.91281],[-1.93655,53.91281],[-1.93655,53.91283],[-1.9367,53.91282],[-1.93674,53.91282],[-1.93674,53.91283],[-1.93688,53.91283],[-1.93689,53.91286],[-1.93699,53.91286],[-1.93702,53.91299]]]]}},
{ "type":"Feature","properties":{"osm_way_id":"575656046","name":"McCarthy's Storage World","building":"warehouse","shop":"storage_rental","other":{"addr:city":"Wakefield","addr:housenumber":"2-4","addr:postcode":"WF1 1UW","addr:street":"Grove Road","email":"wakefield@mccarthysstorageworld.co.uk","opening_hours":"Mo-Fr 08:00-17:30; Sa 09:00-16:00","phone":"+44 1924 663 555","website":"https:\/\/www.mjmccarthy.co.uk\/self-storage-wakefield\/"}}, "geometry":{"type":"MultiPolygon","coordinates":[[[[-1.49285,53.67884],[-1.49236,53.67892],[-1.49237,53.67893],[-1.49231,53.67895],[-1.49226,53.67898],[-1.49223,53.67902],[-1.49222,53.67906],[-1.49219,53.67906],[-1.49227,53.67932],[-1.49301,53.67921],[-1.49285,53.67884]]]]}},
{ "type":"Feature","properties":{"osm_way_id":"587905474","building":"warehouse"},"geometry":{"type":"MultiPolygon","coordinates":[[[[-1.87193,53.79568],[-1.87185,53.79564],[-1.87216,53.79546],[-1.87223,53.7955],[-1.87234,53.79544],[-1.87267,53.79565],[-1.87259,53.79569],[-1.87256,53.79568],[-1.87237,53.79578],[-1.87233,53.79575],[-1.87218,53.79584],[-1.87193,53.79568]]]]}},
{ "type":"Feature","properties":{"osm_way_id":"589014945","building":"warehouse","other":{"addr:city":"Rastrick","addr:housenumber":"3","addr:street":"Dewsbury Road"}}, "geometry":{"type":"MultiPolygon","coordinates":[[[[-1.80788,53.68374],[-1.8082,53.68375],[-1.80822,53.68352],[-1.8079,53.68351],[-1.80788,53.68372],[-1.80788,53.68374]]]]}},
{ "type":"Feature","properties":{"osm_way_id":"589042343","building":"warehouse","other":{"addr:city":"Rastrick","addr:housenumber":"2","addr:street":"Dewsbury Road"}}, "geometry":{"type":"MultiPolygon","coordinates":[[[[-1.8084,53.68376],[-1.80843,53.68359],[-1.80823,53.68358],[-1.80821,53.68375],[-1.8084,53.68376]]]]}},
{ "type":"Feature","properties":{"osm_way_id":"589042344","building":"warehouse","other":{"addr:city":"Rastrick","addr:housenumber":"1","addr:street":"Dewsbury Road"}}, "geometry":{"type":"MultiPolygon","coordinates":[[[[-1.80857,53.68383],[-1.80841,53.68383],[-1.80843,53.68359],[-1.80859,53.6836],[-1.80857,53.68383]]]]}},
{ "type":"Feature","properties":{"osm_way_id":"590570515","name":"Hunslet Mill","building":"warehouse","other":{"building:levels":"3","listed_status":"Grade II"}}, "geometry":{"type":"MultiPolygon","coordinates":[[[[-1.52488,53.78462],[-1.52408,53.78472],[-1.5241,53.78475],[-1.52408,53.78477],[-1.52404,53.78478],[-1.524,53.78477],[-1.52399,53.78473],[-1.52377,53.78476],[-1.5237,53.78468],[-1.52484,53.78452],[-1.52488,53.78462]]]]}},
{ "type":"Feature","properties":{"osm_way_id":"590570516","name":"Hunslet Mill","building":"warehouse","other":{"building:levels":"7","listed_status":"Grade II"}}, "geometry":{"type":"MultiPolygon","coordinates":[[[[-1.52377,53.78476],[-1.52387,53.7849],[-1.52393,53.78488],[-1.52396,53.78489],[-1.52398,53.78492],[-1.52397,53.78495],[-1.52391,53.78496],[-1.52409,53.78523],[-1.52391,53.78527],[-1.5235,53.78471],[-1.5237,53.78468],[-1.52377,53.78476]]]]}},
{ "type":"Feature","properties":{"osm_way_id":"690465444","building":"warehouse","shop":"yes"},"geometry":{"type":"MultiPolygon","coordinates":[[[[-1.44315,53.81776],[-1.44318,53.81764],[-1.44297,53.81759],[-1.44292,53.81766],[-1.44309,53.8177],[-1.44306,53.81774],[-1.44315,53.81776]]]]}},
{ "type":"Feature","properties":{"osm_way_id":"704131851","building":"warehouse"},"geometry":{"type":"MultiPolygon","coordinates":[[[[-1.47972,53.78528],[-1.48081,53.78521],[-1.48074,53.78482],[-1.47965,53.78489],[-1.47972,53.78528]]]]}},
{ "type":"Feature","properties":{"osm_way_id":"704131852","building":"warehouse"},"geometry":{"type":"MultiPolygon","coordinates":[[[[-1.47994,53.78609],[-1.48094,53.78603],[-1.48086,53.78554],[-1.47985,53.7856],[-1.47994,53.78609]]]]}},
{ "type":"Feature","properties":{"osm_way_id":"704131853","building":"warehouse"},"geometry":{"type":"MultiPolygon","coordinates":[[[[-1.48015,53.78683],[-1.48107,53.78678],[-1.481,53.78635],[-1.48008,53.7864],[-1.48015,53.78683]]]]}},
{ "type":"Feature","properties":{"osm_way_id":"704131864","building":"warehouse"},"geometry":{"type":"MultiPolygon","coordinates":[[[[-1.45184,53.76918],[-1.45182,53.7689],[-1.45116,53.76892],[-1.45119,53.7692],[-1.45184,53.76918]]]]}},
{ "type":"Feature","properties":{"osm_way_id":"730795423","name":"TJX Distribution","building":"warehouse","other":{"addr:city":"Knottingley","addr:postcode":"WF11 0AB","addr:street":"Grovehall Lane"}}, "geometry":{"type":"MultiPolygon","coordinates":[[[[-1.27374,53.69507],[-1.27244,53.69262],[-1.27286,53.69254],[-1.27258,53.69201],[-1.27057,53.69239],[-1.27054,53.69233],[-1.27004,53.69242],[-1.27008,53.6925],[-1.26986,53.69254],[-1.27051,53.69374],[-1.27012,53.69382],[-1.27026,53.69408],[-1.27062,53.69401],[-1.27124,53.69516],[-1.27146,53.69512],[-1.27151,53.69521],[-1.27194,53.69513],[-1.27208,53.69538],[-1.27374,53.69507]]]]}},
{ "type":"Feature","properties":{"osm_way_id":"754698012","building":"warehouse"},"geometry":{"type":"MultiPolygon","coordinates":[[[[-1.52016,53.64166],[-1.5194,53.64202],[-1.51938,53.64203],[-1.51969,53.64227],[-1.51974,53.64224],[-1.5198,53.64229],[-1.52053,53.64195],[-1.52016,53.64166]]]]}},
{ "type":"Feature","properties":{"osm_way_id":"755618336","name":"Harrison Bathrooms","building":"warehouse","shop":"trade"},"geometry":{"type":"MultiPolygon","coordinates":[[[[-1.57287,53.78746],[-1.57193,53.78814],[-1.57126,53.78785],[-1.5716,53.7876],[-1.57173,53.78765],[-1.57233,53.78721],[-1.57255,53.78731],[-1.57287,53.78746]]]]}},
{ "type":"Feature","properties":{"osm_way_id":"756056702","name":"Puma","building":"warehouse","other":{"addr:housename":"Super G","addr:postcode":"WF10 5XY","addr:street":"Steamboat Way","addr:town":"Castleford","roof:colour":"grey"}}, "geometry":{"type":"MultiPolygon","coordinates":[[[[-1.34882,53.71034],[-1.34567,53.7094],[-1.34596,53.70902],[-1.34617,53.70909],[-1.34657,53.70857],[-1.34682,53.70864],[-1.34695,53.70849],[-1.34749,53.70865],[-1.34737,53.70882],[-1.34955,53.70947],[-1.34882,53.71034]]]]}},
{ "type":"Feature","properties":{"osm_way_id":"759460977","building":"warehouse"},"geometry":{"type":"MultiPolygon","coordinates":[[[[-1.48365,53.78849],[-1.48333,53.78737],[-1.48727,53.78698],[-1.48758,53.78809],[-1.48365,53.78849]]]]}},
{ "type":"Feature","properties":{"osm_way_id":"759460984","name":"Amazon","building":"warehouse","other":{"construction":"warehouse"}}, "geometry":{"type":"MultiPolygon","coordinates":[[[[-1.4854,53.78463],[-1.48359,53.78523],[-1.48192,53.78347],[-1.48373,53.78287],[-1.4854,53.78463]]]]}},
{ "type":"Feature","properties":{"osm_way_id":"759714365","building":"warehouse"},"geometry":{"type":"MultiPolygon","coordinates":[[[[-1.43068,53.80842],[-1.43025,53.8084],[-1.43029,53.80813],[-1.43073,53.80816],[-1.43071,53.80825],[-1.43076,53.80825],[-1.43073,53.80839],[-1.43068,53.80839],[-1.43068,53.80842]]]]}},
{ "type":"Feature","properties":{"osm_way_id":"759714367","building":"warehouse"},"geometry":{"type":"MultiPolygon","coordinates":[[[[-1.42956,53.80833],[-1.42935,53.80832],[-1.42934,53.80837],[-1.42911,53.80836],[-1.42914,53.80809],[-1.42959,53.80811],[-1.42956,53.80833]]]]}},
{ "type":"Feature","properties":{"osm_way_id":"759714368","building":"warehouse"},"geometry":{"type":"MultiPolygon","coordinates":[[[[-1.43073,53.80911],[-1.43034,53.80909],[-1.43039,53.80878],[-1.43077,53.8088],[-1.43073,53.80911]]]]}},
{ "type":"Feature","properties":{"osm_way_id":"783919309","building":"yes","other":{"addr:housenumber":"7","addr:street":"Albion Gardens"}}, "geometry":{"type":"MultiPolygon","coordinates":[[[[-1.85944,53.59252],[-1.85952,53.59252],[-1.85952,53.59251],[-1.8595,53.59237],[-1.85943,53.59237],[-1.85944,53.59252]]]]}},
{ "type":"Feature","properties":{"osm_way_id":"783947696","building":"house"},"geometry":{"type":"MultiPolygon","coordinates":[[[[-1.43666,53.80842],[-1.43674,53.80842],[-1.43671,53.80853],[-1.43663,53.80852],[-1.43666,53.80842]]]]}},
{ "type":"Feature","properties":{"osm_way_id":"783947697","building":"house"},"geometry":{"type":"MultiPolygon","coordinates":[[[[-1.4369,53.80848],[-1.43691,53.80845],[-1.43699,53.80846],[-1.43696,53.80856],[-1.43682,53.80855],[-1.43684,53.80847],[-1.4369,53.80848]]]]}},
{ "type":"Feature","properties":{"osm_way_id":"783947704","building":"garage"},"geometry":{"type":"MultiPolygon","coordinates":[[[[-1.43785,53.80832],[-1.43796,53.80833],[-1.43795,53.80837],[-1.43784,53.80836],[-1.43785,53.80832]]]]}},
{ "type":"Feature","properties":{"osm_way_id":"890917241","name":"Damart","building":"warehouse","other":{"alt_name":"Bradley Mill"}}, "geometry":{"type":"MultiPolygon","coordinates":[[[[-1.83785,53.85085],[-1.83792,53.85087],[-1.83784,53.85097],[-1.83836,53.85111],[-1.83802,53.85164],[-1.83802,53.85166],[-1.83796,53.85167],[-1.83783,53.85158],[-1.83735,53.85149],[-1.83785,53.85085]]]]}},
{ "type":"Feature","properties":{"osm_way_id":"892100017","name":"Suma","building":"warehouse"},"geometry":{"type":"MultiPolygon","coordinates":[[[[-1.8269,53.69583],[-1.8261,53.69596],[-1.8257,53.69513],[-1.82651,53.695],[-1.82688,53.69578],[-1.8269,53.69583]]]]}},
{ "type":"Feature","properties":{"osm_way_id":"897357045","name":"Harehills Delivery Office","amenity":"post_depot","building":"warehouse","other":{"addr:city":"Leeds","addr:postcode":"LS8 5RA","addr:street":"Gledhow Road","operator":"Royal Mail","operator:type":"private","operator:wikidata":"Q638098","operator:wikipedia":"en:Royal Mail"}}, "geometry":{"type":"MultiPolygon","coordinates":[[[[-1.5251,53.80736],[-1.52472,53.80721],[-1.52453,53.80739],[-1.52491,53.80754],[-1.5251,53.80736]]]]}},
{ "type":"Feature","properties":{"osm_way_id":"901738060","building":"warehouse"},"geometry":{"type":"MultiPolygon","coordinates":[[[[-1.87384,53.65704],[-1.87371,53.65695],[-1.87377,53.65693],[-1.87363,53.65683],[-1.8739,53.6567],[-1.87403,53.65679],[-1.87406,53.65678],[-1.87419,53.65687],[-1.87406,53.65694],[-1.87413,53.65699],[-1.87406,53.65702],[-1.87399,53.65697],[-1.87384,53.65704]]]]}},
{ "type":"Feature","properties":{"osm_way_id":"902093053","building":"warehouse","other":{"abandoned:building":"yes"}}, "geometry":{"type":"MultiPolygon","coordinates":[[[[-1.86772,53.65939],[-1.86759,53.65916],[-1.86785,53.65911],[-1.86778,53.65898],[-1.86821,53.6589],[-1.86829,53.65904],[-1.86801,53.65909],[-1.86813,53.65931],[-1.86772,53.65939]]]]}},
{ "type":"Feature","properties":{"osm_way_id":"945563051","building":"residential"},"geometry":{"type":"MultiPolygon","coordinates":[[[[-1.76662,53.76752],[-1.76653,53.76752],[-1.76653,53.76743],[-1.76662,53.76743],[-1.76662,53.76752]]]]}},
{ "type":"Feature","properties":{"osm_way_id":"954658830","building":"warehouse"},"geometry":{"type":"MultiPolygon","coordinates":[[[[-1.48144,53.7883],[-1.48214,53.78825],[-1.48224,53.78871],[-1.48154,53.78876],[-1.48144,53.7883]]]]}},
{ "type":"Feature","properties":{"osm_way_id":"954658831","building":"warehouse"},"geometry":{"type":"MultiPolygon","coordinates":[[[[-1.48125,53.78846],[-1.48033,53.78853],[-1.48042,53.78896],[-1.48134,53.78889],[-1.48125,53.78846]]]]}},
{ "type":"Feature","properties":{"osm_way_id":"977547059","building":"warehouse"},"geometry":{"type":"MultiPolygon","coordinates":[[[[-1.49717,53.78481],[-1.49783,53.78501],[-1.49773,53.78512],[-1.49831,53.7853],[-1.49897,53.78456],[-1.49912,53.78461],[-1.4992,53.78451],[-1.49854,53.78431],[-1.49846,53.7844],[-1.49838,53.78437],[-1.49828,53.7845],[-1.49769,53.78431],[-1.49766,53.78435],[-1.49825,53.78453],[-1.49806,53.78473],[-1.49742,53.78453],[-1.4974,53.78455],[-1.49805,53.78475],[-1.49785,53.78498],[-1.4972,53.78477],[-1.49717,53.78481]]]]}},
{ "type":"Feature","properties":{"osm_way_id":"977547060","building":"warehouse"},"geometry":{"type":"MultiPolygon","coordinates":[[[[-1.49738,53.78435],[-1.49698,53.78481],[-1.49574,53.78444],[-1.49614,53.78397],[-1.49738,53.78435]]]]}},
{ "type":"Feature","properties":{"osm_way_id":"977547061","building":"warehouse"},"geometry":{"type":"MultiPolygon","coordinates":[[[[-1.4961,53.78396],[-1.49576,53.78435],[-1.49486,53.78407],[-1.49521,53.78368],[-1.4961,53.78396]]]]}},
{ "type":"Feature","properties":{"osm_way_id":"977547062","building":"warehouse"},"geometry":{"type":"MultiPolygon","coordinates":[[[[-1.49339,53.78354],[-1.4944,53.78386],[-1.49413,53.78416],[-1.49428,53.78421],[-1.49414,53.78436],[-1.49399,53.78431],[-1.49401,53.78429],[-1.493,53.78397],[-1.49339,53.78354]]]]}},
{ "type":"Feature","properties":{"osm_way_id":"977547063","building":"warehouse"},"geometry":{"type":"MultiPolygon","coordinates":[[[[-1.49256,53.78339],[-1.49305,53.78353],[-1.4929,53.78371],[-1.49241,53.78356],[-1.49256,53.78339]]]]}},
{ "type":"Feature","properties":{"osm_way_id":"977547064","building":"warehouse"},"geometry":{"type":"MultiPolygon","coordinates":[[[[-1.49336,53.78327],[-1.49379,53.78305],[-1.49353,53.78287],[-1.4931,53.78309],[-1.49336,53.78327]]]]}},
{ "type":"Feature","properties":{"osm_way_id":"977792510","name":"Castlewater Bathrooms Warehouse","building":"warehouse","other":{"addr:postcode":"WF10 1PD","addr:street":"Savile Road"}}, "geometry":{"type":"MultiPolygon","coordinates":[[[[-1.35842,53.7277],[-1.3583,53.72773],[-1.3582,53.72776],[-1.35837,53.72797],[-1.35859,53.72791],[-1.35842,53.7277]]]]}},
{ "type":"Feature","properties":{"osm_way_id":"1002110285","building":"warehouse"},"geometry":{"type":"MultiPolygon","coordinates":[[[[-1.48476,53.7756],[-1.48766,53.77753],[-1.4855,53.77867],[-1.48422,53.77782],[-1.4848,53.77752],[-1.48317,53.77644],[-1.48476,53.7756]]]]}},
{ "type":"Feature","properties":{"osm_way_id":"1009499682","name":"Next","building":"warehouse"},"geometry":{"type":"MultiPolygon","coordinates":[[[[-1.26403,53.59747],[-1.26604,53.59698],[-1.2675,53.59911],[-1.26549,53.5996],[-1.26403,53.59747]]]]}},
{ "type":"Feature","properties":{"osm_way_id":"1032881615","building":"warehouse"},"geometry":{"type":"MultiPolygon","coordinates":[[[[-1.77979,53.6988],[-1.77966,53.69881],[-1.77965,53.69876],[-1.77977,53.69875],[-1.77979,53.6988]]]]}},
{ "type":"Feature","properties":{"osm_way_id":"1036044385","name":"Spares Plus Ltd","building":"warehouse","other":{"addr:city":"Brighouse","addr:housenumber":"Unit 3","addr:postcode":"HD6 1PW","addr:street":"Wood Street","website":"https:\/\/sparesplus.co.uk\/"}}, "geometry":{"type":"MultiPolygon","coordinates":[[[[-1.77596,53.70158],[-1.77599,53.70152],[-1.77548,53.7014],[-1.77545,53.70139],[-1.77542,53.70146],[-1.77596,53.70158]]]]}},
{ "type":"Feature","properties":{"osm_way_id":"1036070562","building":"warehouse","other":{"addr:city":"Brighouse","addr:street":"Grove Street"}}, "geometry":{"type":"MultiPolygon","coordinates":[[[[-1.77435,53.70155],[-1.7745,53.70135],[-1.77394,53.7012],[-1.77393,53.70121],[-1.77388,53.7012],[-1.77363,53.70136],[-1.77435,53.70155]]]]}},
{ "type":"Feature","properties":{"osm_way_id":"1036070563","building":"warehouse","other":{"addr:city":"Brighouse","addr:street":"Grove Street"}}, "geometry":{"type":"MultiPolygon","coordinates":[[[[-1.7745,53.70135],[-1.7746,53.70121],[-1.77408,53.70107],[-1.77389,53.70119],[-1.77394,53.7012],[-1.7745,53.70135]]]]}},
{ "type":"Feature","properties":{"osm_way_id":"1036337982","building":"warehouse"},"geometry":{"type":"MultiPolygon","coordinates":[[[[-1.77397,53.69999],[-1.77407,53.69987],[-1.77379,53.69978],[-1.77369,53.69991],[-1.77397,53.69999]]]]}},
{ "type":"Feature","properties":{"osm_way_id":"1036337983","building":"warehouse"},"geometry":{"type":"MultiPolygon","coordinates":[[[[-1.77409,53.69986],[-1.7742,53.6997],[-1.77397,53.69964],[-1.77403,53.69957],[-1.77394,53.69955],[-1.77389,53.69962],[-1.77391,53.69963],[-1.7738,53.69978],[-1.77409,53.69986]]]]}},
{ "type":"Feature","properties":{"osm_way_id":"1036337984","building":"warehouse"},"geometry":{"type":"MultiPolygon","coordinates":[[[[-1.77398,53.7],[-1.77409,53.69988],[-1.77422,53.69991],[-1.77411,53.70004],[-1.77398,53.7]]]]}},
{ "type":"Feature","properties":{"osm_way_id":"1036816806","building":"warehouse"},"geometry":{"type":"MultiPolygon","coordinates":[[[[-1.77023,53.70068],[-1.77007,53.70064],[-1.7702,53.70043],[-1.77056,53.70051],[-1.77074,53.70055],[-1.77074,53.70056],[-1.77068,53.70063],[-1.77066,53.70065],[-1.77041,53.7006],[-1.77029,53.70057],[-1.77023,53.70068]]]]}},
{ "type":"Feature","properties":{"osm_way_id":"1036816807","building":"warehouse"},"geometry":{"type":"MultiPolygon","coordinates":[[[[-1.77068,53.70063],[-1.7709,53.70069],[-1.77096,53.70062],[-1.77085,53.70059],[-1.77074,53.70056],[-1.77068,53.70063]]]]}},
{ "type":"Feature","properties":{"osm_way_id":"1036816808","building":"warehouse"},"geometry":{"type":"MultiPolygon","coordinates":[[[[-1.77085,53.70057],[-1.77094,53.70041],[-1.77066,53.70035],[-1.77056,53.70051],[-1.77074,53.70055],[-1.77085,53.70057]]]]}},
{ "type":"Feature","properties":{"osm_way_id":"1037285414","name":"The Climbing Hub","building":"warehouse","leisure":"sports_centre","sport":"climbing","other":{"addr:city":"Bradford","addr:housename":"The Climbing Hub","addr:housenumber":"Unit 10 - 13","addr:parentstreet":"Beckside Road","addr:place":"Beckside Business Park","addr:postcode":"BD7 2BR","climbing:boulder":"yes","climbing:toprope":"yes","description":"Indoor Climbing Wall & Gym","email":"info@theclimbinghub.co.uk","opening_hours":"Mo-Fr 10:00-22:00; Sa-Su 09:00-20:00","phone":"+44 1274 270123","website":"https:\/\/www.theclimbinghub.co.uk","wheelchair":"yes"}}, "geometry":{"type":"MultiPolygon","coordinates":[[[[-1.78266,53.78488],[-1.78278,53.78484],[-1.78268,53.78474],[-1.78297,53.78465],[-1.78342,53.7851],[-1.78312,53.7852],[-1.78305,53.78513],[-1.78294,53.78517],[-1.78266,53.78488]]]]}},
{ "type":"Feature","properties":{"osm_way_id":"1040864582","building":"warehouse"},"geometry":{"type":"MultiPolygon","coordinates":[[[[-1.75841,53.69659],[-1.75845,53.69655],[-1.75818,53.69647],[-1.75814,53.69651],[-1.75841,53.69659]]]]}}
]
}
