{
"type": "FeatureCollection",
"features": [
{ "type":"Feature","properties":{"osm_way_id":"4923396","name":"Sainsburys Distribution Depot","building":"yes","other":{"addr:city":"Bristol","addr:postcode":"BS16 7FE"}}, "geometry":{"type":"MultiPolygon","coordinates":[[[[-2.48099,51.50452],[-2.48056,51.50534],[-2.47904,51.50504],[-2.47895,51.50521],[-2.47861,51.50514],[-2.47863,51.5051],[-2.47677,51.50473],[-2.47683,51.50461],[-2.47591,51.50442],[-2.47635,51.50358],[-2.47768,51.50385],[-2.47772,51.50378],[-2.47785,51.5038],[-2.47781,51.50388],[-2.48031,51.50438],[-2.48033,51.50434],[-2.48045,51.50436],[-2.48043,51.50441],[-2.48099,51.50452]]]]}},
{ "type":"Feature","properties":{"osm_way_id":"164241672","name":"Tesco Distribution Warehouse","building":"warehouse","other":{"addr:city":"Bristol","addr:postcode":"BS35 4BR","source:name":"survey"}}, "geometry":{"type":"MultiPolygon","coordinates":[[[[-2.6419,51.55526],[-2.64044,51.55593],[-2.63809,51.55397],[-2.63838,51.55383],[-2.63749,51.55308],[-2.63865,51.55254],[-2.6419,51.55526]]]]}},
{ "type":"Feature","properties":{"osm_way_id":"201795579","name":"South West Distribution Centre","amenity":"post_depot","building":"warehouse","other":{"addr:city":"Bristol","addr:country":"GB","addr:place":"Western Approach Business Park","addr:postcode":"BS35 4GG","operator":"Royal Mail"}}, "geometry":{"type":"MultiPolygon","coordinates":[[[[-2.65181,51.55024],[-2.65041,51.54987],[-2.65116,51.54876],[-2.65256,51.54913],[-2.65181,51.55024]]]]}},
{ "type":"Feature","properties":{"osm_way_id":"296141354","name":"Central Park Distribution Park","landuse":"industrial","other":{"website":"http:\/\/www.centralparkbristol.co.uk\/"}}, "geometry":{"type":"MultiPolygon","coordinates":[[[[-2.65198,51.54256],[-2.65108,51.54357],[-2.65032,51.54388],[-2.65014,51.54383],[-2.64948,51.54482],[-2.64661,51.54532],[-2.64501,51.54489],[-2.64494,51.54487],[-2.64486,51.54503],[-2.64492,51.54578],[-2.6435,51.54605],[-2.642,51.54627],[-2.64018,51.54732],[-2.63942,51.54723],[-2.63904,51.5465],[-2.63878,51.54547],[-2.6409,51.54469],[-2.64098,51.54459],[-2.64107,51.5445],[-2.64158,51.54395],[-2.64198,51.54372],[-2.64219,51.54352],[-2.64206,51.54339],[-2.64131,51.54336],[-2.639,51.54271],[-2.63874,51.54084],[-2.63925,51.5401],[-2.64023,51.53942],[-2.64031,51.53937],[-2.6406,51.53915],[-2.64014,51.53887],[-2.64057,51.53814],[-2.64137,51.53734],[-2.64194,51.53697],[-2.6419,51.53653],[-2.646,51.53408],[-2.65174,51.53409],[-2.65346,51.53474],[-2.6538,51.53577],[-2.65387,51.53598],[-2.65391,51.53649],[-2.65422,51.53686],[-2.65457,51.53703],[-2.65599,51.53755],[-2.65754,51.53788],[-2.65708,51.53814],[-2.65524,51.53942],[-2.65502,51.53934],[-2.65474,51.53959],[-2.65488,51.53966],[-2.65337,51.54083],[-2.65243,51.54181],[-2.65221,51.54218],[-2.65213,51.54231],[-2.65198,51.54256]]]]}},
{ "type":"Feature","properties":{"osm_way_id":"306050278","name":"Eurosat Distribution","building":"yes","office":"company","other":{"addr:city":"Bristol","addr:housenumber":"1220","addr:postcode":"BS32 4SH","is_in":"Bristol","source:outline":"Bing"}}, "geometry":{"type":"MultiPolygon","coordinates":[[[[-2.57777,51.54116],[-2.57764,51.54102],[-2.57763,51.54102],[-2.57762,51.541],[-2.57745,51.54106],[-2.5776,51.54122],[-2.57777,51.54116]]]]}},
{ "type":"Feature","properties":{"osm_way_id":"335073095","name":"St Austell Distribution Centre","building":"industrial","other":{"addr:city":"Bristol","addr:postcode":"BS11 9YA"}}, "geometry":{"type":"MultiPolygon","coordinates":[[[[-2.68775,51.50348],[-2.68783,51.50284],[-2.68715,51.5028],[-2.68706,51.50344],[-2.68775,51.50348]]]]}},
{ "type":"Feature","properties":{"osm_way_id":"405918515","name":"Webb Distribution","building":"commercial"},"geometry":{"type":"MultiPolygon","coordinates":[[[[-2.53829,51.43098],[-2.53828,51.43088],[-2.53879,51.43085],[-2.53881,51.43096],[-2.53829,51.43098]]]]}},
{ "type":"Feature","properties":{"osm_way_id":"409843859","name":"The Co-operative Avonmouth Distribution Centre","landuse":"industrial"},"geometry":{"type":"MultiPolygon","coordinates":[[[[-2.67931,51.52207],[-2.67798,51.52134],[-2.67644,51.52028],[-2.67586,51.51977],[-2.67513,51.51976],[-2.67432,51.52029],[-2.67343,51.52075],[-2.67283,51.52097],[-2.67197,51.52174],[-2.67349,51.52248],[-2.67529,51.52338],[-2.67571,51.52289],[-2.67587,51.52292],[-2.67631,51.52303],[-2.67715,51.52323],[-2.67777,51.52349],[-2.67931,51.52207]]]]}},
{ "type":"Feature","properties":{"osm_way_id":"446562816","name":"DPD Parcel Distribution Centre","building":"industrial","other":{"addr:city":"Emersons Green","addr:postcode":"BS16 7LR","addr:street":"Oakwood Drive","building:levels":"2"}}, "geometry":{"type":"MultiPolygon","coordinates":[[[[-2.46773,51.50216],[-2.46779,51.50204],[-2.46762,51.50201],[-2.46772,51.50182],[-2.46789,51.50185],[-2.46792,51.50178],[-2.46574,51.50135],[-2.46568,51.50145],[-2.46563,51.50144],[-2.46552,51.50165],[-2.46558,51.50166],[-2.46556,51.5017],[-2.46739,51.50207],[-2.46738,51.50209],[-2.46773,51.50216]]]]}},
{ "type":"Feature","properties":{"osm_way_id":"472420413","name":"Western Power Distribution","building":"commercial"},"geometry":{"type":"MultiPolygon","coordinates":[[[[-2.46792,51.29114],[-2.46729,51.29121],[-2.46724,51.29104],[-2.46787,51.29097],[-2.46792,51.29114]]]]}},
{ "type":"Feature","properties":{"osm_way_id":"572860103","name":"Asda Distribution Centre","building":"warehouse","other":{"addr:city":"Bristol","addr:housename":"Angel Hill","addr:street":"Kings Weston Lane","addr:suburb":"Avonmouth","fhrs:id":"584130","source:addr":"FHRS Open Data"}}, "geometry":{"type":"MultiPolygon","coordinates":[[[[-2.69174,51.514],[-2.69148,51.51396],[-2.69154,51.5138],[-2.69057,51.51367],[-2.69052,51.51383],[-2.6902,51.51379],[-2.69023,51.51371],[-2.6901,51.51369],[-2.69012,51.51361],[-2.68834,51.51337],[-2.68829,51.51354],[-2.68796,51.51349],[-2.68802,51.51332],[-2.68706,51.5132],[-2.68746,51.51205],[-2.68748,51.51204],[-2.68749,51.51201],[-2.68822,51.51212],[-2.68827,51.51199],[-2.6887,51.51205],[-2.68865,51.51218],[-2.68839,51.51215],[-2.68838,51.51216],[-2.69045,51.51245],[-2.69048,51.51236],[-2.69067,51.51238],[-2.69069,51.5123],[-2.69104,51.51235],[-2.69098,51.51252],[-2.69193,51.51265],[-2.69195,51.51259],[-2.69222,51.51263],[-2.69174,51.514]]]]}},
{ "type":"Feature","properties":{"osm_way_id":"625064472","name":"Lidl Distribution Centre","building":"warehouse","other":{"addr:city":"Bristol","addr:postcode":"BS35 4DF","brand":"Lidl","brand:wikidata":"Q151954","brand:wikipedia":"en:Lidl"}}, "geometry":{"type":"MultiPolygon","coordinates":[[[[-2.64827,51.54168],[-2.6503,51.54225],[-2.64951,51.54336],[-2.64973,51.54343],[-2.64967,51.54351],[-2.64945,51.54345],[-2.64849,51.5448],[-2.64816,51.54484],[-2.64632,51.54433],[-2.64827,51.54168]]]]}},
{ "type":"Feature","properties":{"osm_way_id":"760407137","name":"Motorway Distribution Centre","landuse":"industrial"},"geometry":{"type":"MultiPolygon","coordinates":[[[[-2.69045,51.5029],[-2.69208,51.50298],[-2.69169,51.50415],[-2.69083,51.50405],[-2.6903,51.50401],[-2.6903,51.50399],[-2.69036,51.50353],[-2.69042,51.50312],[-2.69044,51.50294],[-2.69045,51.5029]]]]}},
{ "type":"Feature","properties":{"osm_way_id":"884158811","name":"Westgate Distribution Park","landuse":"commercial","other":{"website":"http:\/\/www.westgatebristol.com\/"}}, "geometry":{"type":"MultiPolygon","coordinates":[[[[-2.63907,51.55573],[-2.63667,51.55402],[-2.63633,51.55343],[-2.63651,51.55325],[-2.63676,51.55326],[-2.63698,51.55214],[-2.6373,51.5519],[-2.63815,51.55147],[-2.63871,51.55134],[-2.63899,51.55157],[-2.63969,51.55161],[-2.64025,51.5518],[-2.64123,51.55301],[-2.64143,51.55332],[-2.64228,51.55416],[-2.64282,51.55497],[-2.64328,51.55621],[-2.64284,51.55629],[-2.64203,51.55659],[-2.64148,51.55686],[-2.64089,51.55732],[-2.63907,51.55573]]]]}}
]
}
