{
"type": "FeatureCollection",
"features": [
{ "type":"Feature","properties":{"osm_id":"815625820","other":{"building":"entrance"}}, "geometry":{"type":"Point","coordinates":[-2.5326,51.47824 ]}},
{ "type":"Feature","properties":{"osm_id":"815625886","other":{"building":"entrance"}}, "geometry":{"type":"Point","coordinates":[-2.53258,51.47822 ]}},
{ "type":"Feature","properties":{"osm_id":"851130870","name":"Food City","other":{"shop":"supermarket"}}, "geometry":{"type":"Point","coordinates":[-2.11275,52.45703 ]}},
{ "type":"Feature","properties":{"osm_id":"869220426","other":{"amenity":"parking_entrance"}}, "geometry":{"type":"Point","coordinates":[-2.61099,51.46377 ]}},
{ "type":"Feature","properties":{"osm_id":"1043480520","name":"International Food Centre","other":{"addr:city":"Bristol","addr:housenumber":"585-587","addr:postcode":"BS16 3AA","addr:street":"Fishponds Road","addr:suburb":"Fishponds","fhrs:id":"1043745","shop":"supermarket","source:addr":"FHRS Open Data"}}, "geometry":{"type":"Point","coordinates":[-2.53726,51.47723 ]}},
{ "type":"Feature","properties":{"osm_id":"1157134821","other":{"amenity":"parking_entrance"}}, "geometry":{"type":"Point","coordinates":[-2.61079,51.4638 ]}},
{ "type":"Feature","properties":{"osm_id":"1360955049","name":"Tesco Express","other":{"addr:city":"Bristol","addr:housenumber":"2","addr:place":"Stoke Gifford","addr:postcode":"BS34 8UE","addr:street":"Ratcliffe Drive","brand":"Tesco Express","brand:wikidata":"Q98456772","contact:website":"https:\/\/www.tesco.com\/store-locator\/bristol\/hatchet-rd","fhrs:id":"951850","opening_hours":"Mo-Su 07:00-23:00","shop":"supermarket","wheelchair":"yes"}}, "geometry":{"type":"Point","coordinates":[-2.54673,51.51754 ]}},
{ "type":"Feature","properties":{"osm_id":"1666565067","name":"Waitrose","other":{"addr:housename":"The Podium","addr:postcode":"BA1 5AL","addr:street":"Northgate Street","alt_name":"Waitrose Bath","brand":"Waitrose","brand:wikidata":"Q771734","brand:wikipedia":"en:Waitrose & Partners","fhrs:id":"203988","official_name":"Waitrose & Partners","operator":"Waitrose & Partners","shop":"supermarket","website":"https:\/\/www.waitrose.com\/bf_home\/bf\/193.html","wheelchair":"yes"}}, "geometry":{"type":"Point","coordinates":[-2.35908,51.38337 ]}},
{ "type":"Feature","properties":{"osm_id":"2371628341","man_made":"surveillance","other":{"operator":"Asda"}}, "geometry":{"type":"Point","coordinates":[-2.59437,51.44402 ]}},
{ "type":"Feature","properties":{"osm_id":"2371628345","man_made":"surveillance","other":{"operator":"Asda"}}, "geometry":{"type":"Point","coordinates":[-2.59449,51.44408 ]}},
{ "type":"Feature","properties":{"osm_id":"2892269563","other":{"information":"board","tourism":"information"}}, "geometry":{"type":"Point","coordinates":[-2.61217,51.48053 ]}},
{ "type":"Feature","properties":{"osm_id":"3053838419","other":{"addr:city":"Edinburgh","addr:country":"GB","addr:housenumber":"76","addr:postcode":"EH6 8HL","addr:street":"Duke Street"}}, "geometry":{"type":"Point","coordinates":[-3.17022,55.97004 ]}},
{ "type":"Feature","properties":{"osm_id":"3750167918","name":"The Co-operative Food","other":{"addr:city":"Paulton","addr:postcode":"BS39 7QG","addr:street":"Hill Court","fhrs:id":"205119","opening_hours":"Mo-Su 07:00-22:00","operator":"Radstock Co-operative Society","shop":"supermarket","website":"http:\/\/www.radstockcoop.co.uk\/store\/paulton"}}, "geometry":{"type":"Point","coordinates":[-2.50172,51.30669 ]}},
{ "type":"Feature","properties":{"osm_id":"4338898677","other":{"artwork_type":"mural","tourism":"artwork"}}, "geometry":{"type":"Point","coordinates":[-2.6121,51.46671 ]}},
{ "type":"Feature","properties":{"osm_id":"4585828251","name":"The Harbourside Market","other":{"addr:city":"Bristol","addr:postcode":"BS1 4DA","amenity":"marketplace","opening_hours":"Sa-Su 11:00-16:00","shop":"supermarket","wheelchair":"yes"}}, "geometry":{"type":"Point","coordinates":[-2.59764,51.45223 ]}},
{ "type":"Feature","properties":{"osm_id":"4654615461","name":"Xin He","other":{"addr:city":"Bristol","addr:housenumber":"7a","addr:postcode":"BS1 3LN","addr:street":"Haymarket Walk","addr:suburb":"City Centre","cuisine":"chinese","level":"0","shop":"supermarket","source:addr":"FHRS Open Data"}}, "geometry":{"type":"Point","coordinates":[-2.59177,51.45938 ]}},
{ "type":"Feature","properties":{"osm_id":"5175242161","name":"The Co-operative","other":{"shop":"supermarket"}}, "geometry":{"type":"Point","coordinates":[-2.5596,51.49714 ]}},
{ "type":"Feature","properties":{"osm_id":"5415216047","name":"Kassam Ismail Majothi","other":{"historic":"memorial","memorial":"blue_plaque"}}, "geometry":{"type":"Point","coordinates":[-2.56459,51.46767 ]}},
{ "type":"Feature","properties":{"osm_id":"5900430627","other":{"artwork_type":"mural","tourism":"artwork"}}, "geometry":{"type":"Point","coordinates":[-2.5882,51.46588 ]}},
{ "type":"Feature","properties":{"osm_id":"6122076519","other":{"amenity":"loading_dock"}}, "geometry":{"type":"Point","coordinates":[-2.65633,51.5029 ]}},
{ "type":"Feature","properties":{"osm_id":"6300130386","name":"Brightbow Bridge","other":{"historic":"memorial","memorial":"plaque"}}, "geometry":{"type":"Point","coordinates":[-2.5946,51.44347 ]}},
{ "type":"Feature","properties":{"osm_id":"6797583343","name":"168 Oriental","other":{"shop":"supermarket"}}, "geometry":{"type":"Point","coordinates":[-2.59441,51.45654 ]}},
{ "type":"Feature","properties":{"osm_id":"6989545242","other":{"amenity":"waste_basket"}}, "geometry":{"type":"Point","coordinates":[-2.50858,51.5226 ]}},
{ "type":"Feature","properties":{"osm_id":"7024412366","name":"M&S Food","other":{"brand":"M&S Foodhall","brand:wikidata":"Q714491","level":"0","shop":"supermarket","website":"https:\/\/www.marksandspencer.com\/stores\/cribbs-causeway-6473"}}, "geometry":{"type":"Point","coordinates":[-2.59389,51.5236 ]}},
{ "type":"Feature","properties":{"osm_id":"7283355916","name":"Filton Town Council","other":{"information":"board","tourism":"information"}}, "geometry":{"type":"Point","coordinates":[-2.56994,51.50204 ]}},
{ "type":"Feature","properties":{"osm_id":"8736674510","other":{"amenity":"bicycle_parking","bicycle_parking":"stands","capacity":"2","covered":"no","fee":"no"}}, "geometry":{"type":"Point","coordinates":[-2.5536,51.45952 ]}},
{ "type":"Feature","properties":{"osm_id":"8917814135","other":{"amenity":"loading_dock"}}, "geometry":{"type":"Point","coordinates":[-2.61396,51.443 ]}},
{ "type":"Feature","properties":{"osm_way_id":"4225415","name":"Tesco","building":"shop","shop":"supermarket","other":{"addr:city":"Bristol","addr:postcode":"BS35 2BS","addr:street":"Midland Way","brand":"Tesco","brand:wikidata":"Q487494","brand:wikipedia":"en:Tesco","fhrs:id":"148469","source:outline":"Bing"}}, "geometry":{"type":"MultiPolygon","coordinates":[[[[-2.52488,51.60428],[-2.52465,51.60423],[-2.52455,51.60439],[-2.52429,51.60433],[-2.52426,51.60437],[-2.52401,51.60432],[-2.52438,51.60367],[-2.52496,51.6038],[-2.5252,51.60386],[-2.52506,51.60407],[-2.52496,51.60423],[-2.52492,51.60422],[-2.52488,51.60428]]]]}},
{ "type":"Feature","properties":{"osm_way_id":"4229379","name":"Tesco Extra","building":"retail","shop":"supermarket","other":{"addr:city":"Yate","addr:housenumber":"12","addr:postcode":"BS37 4AS","addr:street":"East Walk","brand":"Tesco Extra","brand:wikidata":"Q25172225","brand:wikipedia":"en:Tesco Extra","fhrs:id":"58296","layer":"1","level":"1","source:outline":"Bing;estimated from photos","start_date":"2011"}}, "geometry":{"type":"MultiPolygon","coordinates":[[[[-2.41202,51.54004],[-2.41197,51.54014],[-2.41179,51.54011],[-2.41161,51.54008],[-2.41143,51.54004],[-2.41088,51.53994],[-2.41029,51.53983],[-2.41081,51.53873],[-2.41199,51.53894],[-2.41185,51.53923],[-2.41215,51.53928],[-2.4121,51.53937],[-2.41232,51.53941],[-2.41202,51.54004]]]]}},
{ "type":"Feature","properties":{"osm_way_id":"4899408","name":"Morrisons","building":"supermarket","shop":"supermarket","other":{"addr:city":"Bristol","addr:postcode":"BS10 7UD","brand":"Morrisons","brand:wikidata":"Q922344","brand:wikipedia":"en:Morrisons","fhrs:id":"149662","wheelchair":"yes"}}, "geometry":{"type":"MultiPolygon","coordinates":[[[[-2.60676,51.52651],[-2.60627,51.52712],[-2.60624,51.52711],[-2.60623,51.52713],[-2.60604,51.52707],[-2.60604,51.52708],[-2.60586,51.52702],[-2.60588,51.527],[-2.60534,51.52683],[-2.6053,51.52688],[-2.60522,51.52685],[-2.60523,51.52684],[-2.60502,51.52677],[-2.60516,51.5266],[-2.60523,51.52662],[-2.60554,51.52623],[-2.60569,51.52628],[-2.60576,51.52619],[-2.60676,51.52651]]]]}},
{ "type":"Feature","properties":{"osm_way_id":"4917110","name":"Sainsbury's","building":"retail","shop":"supermarket","other":{"addr:city":"Bristol","addr:housenumber":"The Village","addr:postcode":"BS16 7AE","addr:street":"Emerson Way","alt_name":"Sainsbury's Emersons Green Superstore","brand":"Sainsbury's","brand:wikidata":"Q152096","brand:wikipedia":"en:Sainsbury's","building:levels":"1","check_date:opening_hours":"2021-08-11","fhrs:id":"51982","opening_hours":"Mo-Fr 07:00-23:00; Sa 07:00-22:00; Su 10:30-16:30","roof:shape":"flat","source:outline":"Bing"}}, "geometry":{"type":"MultiPolygon","coordinates":[[[[-2.47445,51.49215],[-2.4745,51.49216],[-2.47443,51.49233],[-2.47326,51.49277],[-2.47248,51.49197],[-2.47304,51.49176],[-2.4731,51.49183],[-2.47357,51.49165],[-2.47355,51.49162],[-2.47383,51.49151],[-2.47445,51.49215]]]]}},
{ "type":"Feature","properties":{"osm_way_id":"6946182","name":"Sainsbury's","building":"store","shop":"supermarket","other":{"addr:city":"Bristol","addr:postcode":"BS34 8SS","addr:street":"Fox Den Road","brand":"Sainsbury's","brand:wikidata":"Q152096","brand:wikipedia":"en:Sainsbury's","fhrs:id":"100124","toilets:wheelchair":"yes","website":"https:\/\/stores.sainsburys.co.uk\/0797\/east-filton","wheelchair":"yes","wheelchair:description":"Very accessible, sometimes have locked disabled toilets without suitable signs"}}, "geometry":{"type":"MultiPolygon","coordinates":[[[[-2.55269,51.50729],[-2.5527,51.5073],[-2.55272,51.50728],[-2.55336,51.50757],[-2.55327,51.50766],[-2.55376,51.50788],[-2.55307,51.50847],[-2.55222,51.50809],[-2.55235,51.50798],[-2.55241,51.50801],[-2.5525,51.50793],[-2.55213,51.50777],[-2.55269,51.50729]]]]}},
{ "type":"Feature","properties":{"osm_way_id":"10523297","name":"Aldi","building":"store","shop":"supermarket","other":{"addr:city":"Bristol","addr:postcode":"BS32 9DF","brand":"ALDI","brand:wikidata":"Q41171672","brand:wikipedia":"en:Aldi","fhrs:id":"45114"}}, "geometry":{"type":"MultiPolygon","coordinates":[[[[-2.55836,51.54141],[-2.55824,51.54138],[-2.55827,51.54134],[-2.55829,51.54129],[-2.55831,51.54125],[-2.55776,51.54113],[-2.5577,51.54112],[-2.55762,51.54118],[-2.55769,51.54122],[-2.55771,51.54122],[-2.55758,51.54146],[-2.55825,51.5416],[-2.55836,51.54141]]]]}},
{ "type":"Feature","properties":{"osm_way_id":"15659851","name":"Lidl","building":"yes","shop":"supermarket","other":{"addr:city":"Bristol","addr:postcode":"BS16 3UF","addr:street":"Fishponds Road","brand":"Lidl","brand:wikidata":"Q151954","brand:wikipedia":"en:Lidl","fhrs:id":"311767"}}, "geometry":{"type":"MultiPolygon","coordinates":[[[[-2.53172,51.47917],[-2.53103,51.4794],[-2.53082,51.47915],[-2.53104,51.47908],[-2.53107,51.47912],[-2.53143,51.479],[-2.53136,51.47891],[-2.53148,51.47888],[-2.53172,51.47917]]]]}},
{ "type":"Feature","properties":{"osm_way_id":"15659889","name":"Morrisons","building":"yes","shop":"supermarket","other":{"addr:city":"Bristol","addr:housenumber":"668-718","addr:postcode":"BS16 3US","addr:street":"Fishponds Road","brand":"Morrisons","brand:wikidata":"Q922344","brand:wikipedia":"en:Morrisons"}}, "geometry":{"type":"MultiPolygon","coordinates":[[[[-2.53254,51.47846],[-2.5328,51.47878],[-2.53281,51.47878],[-2.5329,51.47875],[-2.53295,51.47881],[-2.53286,51.47884],[-2.53269,51.47889],[-2.53214,51.47906],[-2.53211,51.47901],[-2.53199,51.47905],[-2.53201,51.47907],[-2.5319,51.4791],[-2.53191,51.47912],[-2.53178,51.47916],[-2.53131,51.47861],[-2.53148,51.47855],[-2.53151,51.47859],[-2.53184,51.47848],[-2.5318,51.47842],[-2.53238,51.47823],[-2.53241,51.47821],[-2.53256,51.47819],[-2.53258,51.47822],[-2.5326,51.47824],[-2.53268,51.47834],[-2.53265,51.47842],[-2.53254,51.47846]]]]}},
{ "type":"Feature","properties":{"osm_way_id":"18756305","name":"Lidl","building":"yes","shop":"supermarket","other":{"addr:city":"Bristol","addr:housenumber":"Unit A3","addr:postcode":"BS16 7AE","addr:street":"Emerson Way","brand":"Lidl","brand:wikidata":"Q151954","brand:wikipedia":"en:Lidl","fhrs:id":"143341","opening_hours":"Mo-Sa 08:00-20:00; Su 10:00-16:00; PH 08:00-20:00","source:outline":"Bing"}}, "geometry":{"type":"MultiPolygon","coordinates":[[[[-2.47531,51.49376],[-2.475,51.49388],[-2.47469,51.49356],[-2.475,51.49345],[-2.47531,51.49376]]]]}},
{ "type":"Feature","properties":{"osm_way_id":"20442350","name":"Tesco","building":"yes","shop":"supermarket","other":{"addr:city":"Bristol","addr:postcode":"BS6 7XW","addr:street":"Lime Trees Road","addr:suburb":"Henleaze","brand":"Tesco","brand:wikidata":"Q487494","brand:wikipedia":"en:Tesco","fhrs:id":"312163","operator":"Tesco"}}, "geometry":{"type":"MultiPolygon","coordinates":[[[[-2.59705,51.48593],[-2.59682,51.48581],[-2.59654,51.48602],[-2.59642,51.48595],[-2.59616,51.48614],[-2.59586,51.48598],[-2.5958,51.48603],[-2.5954,51.48582],[-2.59563,51.48564],[-2.59568,51.48567],[-2.59604,51.48541],[-2.59598,51.48538],[-2.59615,51.48526],[-2.59657,51.48548],[-2.59653,51.4855],[-2.59685,51.48567],[-2.59689,51.48564],[-2.59722,51.48581],[-2.59705,51.48593]]]]}},
{ "type":"Feature","properties":{"osm_way_id":"23166980","name":"Tesco","building":"yes","shop":"supermarket","other":{"addr:city":"Edinburgh","addr:housenumber":"76","addr:postcode":"EH6 8HL","addr:street":"Duke Street","alt_name":"Tesco Edinburgh Leith Superstore","brand":"Tesco","brand:wikidata":"Q487494","brand:wikipedia":"en:Tesco","operator":"Tesco"}}, "geometry":{"type":"MultiPolygon","coordinates":[[[[-3.16987,55.96993],[-3.17005,55.96973],[-3.16973,55.96964],[-3.16994,55.9694],[-3.17097,55.96972],[-3.17092,55.96977],[-3.17097,55.96981],[-3.17071,55.97009],[-3.17062,55.97009],[-3.17057,55.97015],[-3.17022,55.97004],[-3.16987,55.96993]]]]}},
{ "type":"Feature","properties":{"osm_way_id":"23757586","name":"Sainsbury's","building":"yes","shop":"supermarket","other":{"addr:city":"Bristol","addr:postcode":"BS4 3BD","addr:street":"Bloomfield Road Link","addr:suburb":"Brislington","brand":"Sainsbury's","brand:wikidata":"Q152096","fhrs:id":"312193","source:addr":"FHRS Open Data"}}, "geometry":{"type":"MultiPolygon","coordinates":[[[[-2.56007,51.44242],[-2.56017,51.44248],[-2.56029,51.44241],[-2.56049,51.44254],[-2.56036,51.44261],[-2.56076,51.44287],[-2.56034,51.44313],[-2.56038,51.44315],[-2.55966,51.44358],[-2.55958,51.44358],[-2.55938,51.44345],[-2.55948,51.44339],[-2.55953,51.44336],[-2.55911,51.44309],[-2.55909,51.44311],[-2.55901,51.44306],[-2.56007,51.44242]]]]}},
{ "type":"Feature","properties":{"osm_way_id":"25342047","name":"M&S Simply Food","building":"yes","shop":"supermarket","other":{"addr:city":"Bristol","addr:housenumber":"135","addr:postcode":"BS9 3JL","addr:street":"Falcondale Road","addr:suburb":"Westbury on Trym","brand":"M&S Simply Food","brand:wikidata":"Q714491"}}, "geometry":{"type":"MultiPolygon","coordinates":[[[[-2.62084,51.49551],[-2.62069,51.49547],[-2.62064,51.49545],[-2.62062,51.49549],[-2.62055,51.49547],[-2.62049,51.49556],[-2.62075,51.49563],[-2.62084,51.49551]]]]}},
{ "type":"Feature","properties":{"osm_way_id":"25762711","name":"The co-operative food","building":"yes","shop":"supermarket","other":{"addr:city":"Bristol","addr:housenumber":"12","addr:postcode":"BS16 2LE","addr:street":"Straits Parade","fhrs:id":"312026"}}, "geometry":{"type":"MultiPolygon","coordinates":[[[[-2.52571,51.48221],[-2.52568,51.48203],[-2.52567,51.48199],[-2.52515,51.482],[-2.52523,51.48224],[-2.52571,51.48221]]]]}},
{ "type":"Feature","properties":{"osm_way_id":"25873150","name":"ALDI","building":"yes","shop":"supermarket","other":{"brand":"ALDI","brand:wikidata":"Q41171672","brand:wikipedia":"en:Aldi","old_name":"B&Q"}}, "geometry":{"type":"MultiPolygon","coordinates":[[[[-2.57657,51.48169],[-2.57601,51.48157],[-2.57624,51.48117],[-2.5768,51.48129],[-2.57657,51.48169]]]]}},
{ "type":"Feature","properties":{"osm_way_id":"25873199","name":"Lidl","building":"supermarket","shop":"supermarket","other":{"addr:city":"Bristol","addr:postcode":"BS7 9RB","addr:street":"Muller Road","addr:suburb":"Horfield","brand":"Lidl","brand:wikidata":"Q151954","brand:wikipedia":"en:Lidl","building:levels":"1","fhrs:id":"1108863","operator":"Lidl Uk Gmbh","source:addr":"FHRS Open Data"}}, "geometry":{"type":"MultiPolygon","coordinates":[[[[-2.57894,51.48259],[-2.57797,51.48295],[-2.57791,51.48287],[-2.57797,51.48285],[-2.57784,51.48271],[-2.57783,51.48271],[-2.57781,51.48268],[-2.57846,51.48244],[-2.57843,51.48241],[-2.57868,51.48232],[-2.57894,51.48259]]]]}},
{ "type":"Feature","properties":{"osm_way_id":"26562596","name":"Co-op","building":"retail","shop":"supermarket","other":{"addr:city":"Bristol","addr:housename":"Avon Village Centre","addr:postcode":"BS4 4WW","addr:street":"Wyatts View","addr:suburb":"Saint Annes","fhrs:id":"312177","source:addr":"FHRS Open Data"}}, "geometry":{"type":"MultiPolygon","coordinates":[[[[-2.54522,51.45469],[-2.54498,51.45481],[-2.54471,51.45494],[-2.54503,51.45519],[-2.54552,51.45495],[-2.54533,51.4548],[-2.54537,51.45478],[-2.54526,51.4547],[-2.54524,51.45471],[-2.54522,51.45469]]]]}},
{ "type":"Feature","properties":{"osm_way_id":"31240507","name":"Sainsbury's","building":"shop","shop":"supermarket","other":{"addr:city":"Bristol","addr:postcode":"BS15 8LP","brand":"Sainsbury's","brand:wikidata":"Q152096","fhrs:id":"41912","source:outline":"Bing"}}, "geometry":{"type":"MultiPolygon","coordinates":[[[[-2.50817,51.46399],[-2.50792,51.46358],[-2.50824,51.4635],[-2.50846,51.46345],[-2.50871,51.46386],[-2.50851,51.46391],[-2.50817,51.46399]]]]}},
{ "type":"Feature","properties":{"osm_way_id":"32357395","name":"Aldi","building":"retail","shop":"supermarket","other":{"addr:city":"Bristol","addr:country":"GB","addr:postcode":"BS3 1JA","addr:street":"North Street","addr:suburb":"Bedminster","brand":"ALDI","brand:wikidata":"Q41171672","brand:wikipedia":"en:Aldi","building:levels":"1","fhrs:id":"312181","source:addr":"FHRS Open Data"}}, "geometry":{"type":"MultiPolygon","coordinates":[[[[-2.61455,51.44271],[-2.61423,51.44257],[-2.61408,51.4427],[-2.61384,51.44291],[-2.61399,51.44298],[-2.61396,51.443],[-2.61393,51.44302],[-2.61388,51.44306],[-2.61372,51.4432],[-2.61389,51.44327],[-2.61455,51.44271]]]]}},
{ "type":"Feature","properties":{"osm_way_id":"32846078","name":"Asda","building":"supermarket","shop":"supermarket","other":{"addr:city":"Bristol","addr:postcode":"BS30 7DY","brand":"Asda","brand:wikidata":"Q297410","brand:wikipedia":"en:Asda","contact:facebook":"https:\/\/www.facebook.com\/asda\/","contact:twitter":"@asda","contact:website":"https:\/\/storelocator.asda.com\/south-west\/bristol\/craven-way","fhrs:id":"41709","opening_hours":"Mo 08:00-24:00; Tu-Fr 00:00-24:00; Sa 00:00-22:00; Su 10:00-16:00","operator":"Asda Stores Ltd"}}, "geometry":{"type":"MultiPolygon","coordinates":[[[[-2.49748,51.4488],[-2.49808,51.4483],[-2.49788,51.4482],[-2.49784,51.44824],[-2.49772,51.44818],[-2.49786,51.44808],[-2.49771,51.448],[-2.49796,51.44781],[-2.49787,51.44766],[-2.49709,51.44727],[-2.49659,51.44767],[-2.49648,51.44762],[-2.49625,51.44781],[-2.49588,51.44812],[-2.49708,51.44872],[-2.49717,51.44867],[-2.49748,51.4488]]]]}},
{ "type":"Feature","properties":{"osm_way_id":"47272674","name":"Tesco Express","shop":"supermarket","other":{"addr:postcode":"BA2 2ER","brand":"Tesco Express","brand:wikidata":"Q98456772","contact:website":"https:\/\/www.tesco.com\/store-locator\/bath\/241-243-englishcombe-ln","fhrs:id":"204994"}}, "geometry":{"type":"MultiPolygon","coordinates":[[[[-2.39148,51.36657],[-2.39099,51.36605],[-2.39073,51.36613],[-2.39083,51.36626],[-2.39072,51.3663],[-2.39111,51.36671],[-2.39148,51.36657]]]]}},
{ "type":"Feature","properties":{"osm_way_id":"51801064","name":"Co-op Food","building":"supermarket","shop":"supermarket","other":{"addr:city":"Bath","addr:country":"GB","addr:housenumber":"110","addr:postcode":"BA2 1LN","addr:street":"Mount Road","brand":"Co-op Food","brand:wikidata":"Q3277439","brand:wikipedia":"en:Co-op Food","fhrs:id":"204393","opening_hours":"Mo-Su 06:00-22:00","operator":"Co-op","phone":"+44 1225 429666","toilets:wheelchair":"no","website":"https:\/\/www.coop.co.uk\/store\/food\/BA2-1LN\/110-mount-road","wheelchair":"yes"}}, "geometry":{"type":"MultiPolygon","coordinates":[[[[-2.3965,51.37198],[-2.39643,51.37215],[-2.39597,51.37207],[-2.39616,51.37192],[-2.3965,51.37198]]]]}},
{ "type":"Feature","properties":{"osm_way_id":"58216568","name":"Tesco Metro","building":"yes","shop":"supermarket","other":{"addr:city":"Bristol","addr:housenumber":"58","addr:place":"Staple Hill","addr:postcode":"BS16 5NP","addr:street":"Broad Street","brand":"Tesco Metro","brand:wikidata":"Q57551648","fhrs:id":"52878"}}, "geometry":{"type":"MultiPolygon","coordinates":[[[[-2.50354,51.48092],[-2.50355,51.48075],[-2.50339,51.48075],[-2.5034,51.48069],[-2.5033,51.48069],[-2.50331,51.48063],[-2.50335,51.48063],[-2.50335,51.48051],[-2.50354,51.48051],[-2.50354,51.48046],[-2.5036,51.48046],[-2.5036,51.48043],[-2.50384,51.48043],[-2.50384,51.48046],[-2.50386,51.48046],[-2.50386,51.4805],[-2.5039,51.4805],[-2.50391,51.48061],[-2.50395,51.48063],[-2.50394,51.48068],[-2.50398,51.48071],[-2.50397,51.48081],[-2.504,51.48083],[-2.504,51.48089],[-2.50392,51.48094],[-2.50354,51.48093],[-2.50354,51.48092]]]]}},
{ "type":"Feature","properties":{"osm_way_id":"60872151","name":"Waitrose","building":"retail","shop":"supermarket","other":{"addr:city":"Birmingham","addr:postcode":"B28 9EF","addr:street":"Stratford Road","brand":"Waitrose","brand:wikidata":"Q771734","brand:wikipedia":"en:Waitrose","official_name":"Waitrose & Partners","operator":"Waitrose & Partners"}}, "geometry":{"type":"MultiPolygon","coordinates":[[[[-1.84167,52.42816],[-1.84128,52.42823],[-1.84126,52.42819],[-1.84116,52.42821],[-1.84108,52.42805],[-1.84119,52.42803],[-1.84112,52.4279],[-1.84146,52.42784],[-1.84146,52.42782],[-1.84155,52.42781],[-1.84154,52.42778],[-1.84167,52.42776],[-1.84185,52.42812],[-1.84181,52.42813],[-1.84167,52.42816]]]]}},
{ "type":"Feature","properties":{"osm_way_id":"89042375","name":"Morrisons","building":"retail","shop":"supermarket","other":{"addr:city":"Bristol","addr:postcode":"BS37 5PW","brand":"Morrisons","brand:wikidata":"Q922344","brand:wikipedia":"en:Morrisons","fhrs:id":"100280","source:outline":"Bing"}}, "geometry":{"type":"MultiPolygon","coordinates":[[[[-2.41781,51.54165],[-2.41796,51.54181],[-2.41789,51.54183],[-2.41797,51.54192],[-2.41799,51.54191],[-2.41825,51.54221],[-2.41807,51.54227],[-2.41808,51.54228],[-2.41784,51.54236],[-2.41776,51.54228],[-2.41766,51.54231],[-2.41764,51.54228],[-2.4173,51.54239],[-2.41715,51.54239],[-2.41684,51.54203],[-2.41692,51.542],[-2.41685,51.54193],[-2.41679,51.54185],[-2.41702,51.54178],[-2.41704,51.54179],[-2.41706,51.54181],[-2.41744,51.54168],[-2.41748,51.54172],[-2.41755,51.5417],[-2.41751,51.54166],[-2.41762,51.54162],[-2.41761,51.5416],[-2.4175,51.54149],[-2.41757,51.54146],[-2.41768,51.5416],[-2.41775,51.54157],[-2.41776,51.54158],[-2.41779,51.54162],[-2.41783,51.54161],[-2.41779,51.54157],[-2.4179,51.54154],[-2.41792,51.54156],[-2.41803,51.54152],[-2.41807,51.54156],[-2.41783,51.54164],[-2.41781,51.54165]]]]}},
{ "type":"Feature","properties":{"osm_way_id":"89232048","name":"Sainsbury's","building":"retail","shop":"supermarket","other":{"addr:city":"Bath","addr:housename":"Green Park Station","addr:postcode":"BA1 2DR","addr:street":"Green Park Road","alt_name":"Sainsbury's Bath Superstore","atm":"yes","brand":"Sainsbury's","brand:wikidata":"Q152096","brand:wikipedia":"en:Sainsbury's","building:levels":"1","fhrs:id":"204575","layer":"1","opening_hours":"Mo-Sa 07:00-22:00; Su 11:00-17:00","roof:levels":"0","roof:shape":"flat","toilets:wheelchair":"yes","website":"https:\/\/stores.sainsburys.co.uk\/0005\/bath","wheelchair":"yes"}}, "geometry":{"type":"MultiPolygon","coordinates":[[[[-2.36925,51.38133],[-2.36915,51.38133],[-2.36915,51.38137],[-2.36911,51.38137],[-2.36831,51.3814],[-2.3683,51.3814],[-2.36827,51.38142],[-2.36823,51.38144],[-2.36813,51.38144],[-2.36808,51.38143],[-2.36805,51.38141],[-2.36785,51.38141],[-2.36785,51.38135],[-2.36772,51.38136],[-2.36772,51.38129],[-2.36789,51.38129],[-2.36789,51.38125],[-2.36806,51.38125],[-2.36805,51.38104],[-2.36803,51.38102],[-2.36828,51.38091],[-2.36838,51.38091],[-2.36838,51.38089],[-2.36922,51.38085],[-2.36925,51.38133]]]]}},
{ "type":"Feature","properties":{"osm_way_id":"94826687","name":"Tesco Express","landuse":"retail","shop":"supermarket","other":{"addr:postcode":"BA2 4SA","brand":"Tesco Express","brand:wikidata":"Q98456772","contact:website":"https:\/\/www.tesco.com\/store-locator\/bath\/52-wellsway","fhrs:id":"550915"}}, "geometry":{"type":"MultiPolygon","coordinates":[[[[-2.36645,51.37027],[-2.36602,51.37024],[-2.36601,51.3699],[-2.36642,51.36994],[-2.36636,51.37014],[-2.36648,51.37015],[-2.36645,51.37027]]]]}},
{ "type":"Feature","properties":{"osm_way_id":"98494839","name":"Co-op Food","building":"yes","shop":"supermarket","other":{"addr:city":"Bristol","addr:postcode":"BS2 8DD","addr:street":"Clarence Place","addr:suburb":"Kingsdown","brand":"Co-op Food","brand:wikidata":"Q3277439","brand:wikipedia":"en:Co-op Food","fhrs:id":"312033","old_name":"Somerfield","opening_hours":"Mo-Sa 07:00-23:00; Su 12:00-18:00","operator":"The Co-operative Group","operator:wikidata":"Q117202","operator:wikipedia":"en:The Co-operative Group","phone":"+44 117 929 8169"}}, "geometry":{"type":"MultiPolygon","coordinates":[[[[-2.60181,51.46152],[-2.60183,51.46152],[-2.60225,51.46137],[-2.60219,51.46131],[-2.60215,51.46127],[-2.60211,51.46123],[-2.6017,51.46138],[-2.60169,51.46139],[-2.60171,51.46141],[-2.60181,51.46152]]]]}},
{ "type":"Feature","properties":{"osm_way_id":"102327291","name":"Tesco Extra","building":"retail","shop":"supermarket","other":{"addr:city":"Bristol","addr:county":"South Gloucestershire","addr:housename":"Bradley Stoke District Centre","addr:postcode":"BS32 8EF","addr:suburb":"Bradley Stoke","brand":"Tesco Extra","brand:wikidata":"Q25172225","brand:wikipedia":"en:Tesco Extra","fhrs:id":"52383","source:outline":"Bing"}}, "geometry":{"type":"MultiPolygon","coordinates":[[[[-2.54842,51.53482],[-2.54846,51.53481],[-2.54841,51.53471],[-2.5485,51.53469],[-2.5486,51.5349],[-2.54882,51.53529],[-2.54893,51.5355],[-2.5472,51.53586],[-2.54687,51.53526],[-2.54689,51.53526],[-2.54684,51.53511],[-2.54682,51.53498],[-2.54691,51.53496],[-2.54693,51.53498],[-2.547,51.53496],[-2.54712,51.53516],[-2.54704,51.53518],[-2.54707,51.53522],[-2.54739,51.53516],[-2.54728,51.53495],[-2.54735,51.53494],[-2.54737,51.53497],[-2.54741,51.53496],[-2.54747,51.53506],[-2.54788,51.53497],[-2.54792,51.53504],[-2.54796,51.53503],[-2.54795,51.53502],[-2.54805,51.535],[-2.54804,51.53498],[-2.54819,51.53495],[-2.54819,51.53497],[-2.54834,51.53493],[-2.54835,51.53495],[-2.54847,51.53492],[-2.54842,51.53482]]]]}},
{ "type":"Feature","properties":{"osm_way_id":"103915339","name":"Tesco Express","building":"retail","shop":"supermarket","other":{"addr:city":"Yate","addr:postcode":"BS37 7PJ","addr:street":"Lark Rise","brand":"Tesco Express","brand:wikidata":"Q98456772"}}, "geometry":{"type":"MultiPolygon","coordinates":[[[[-2.41135,51.55184],[-2.4115,51.55183],[-2.41152,51.55194],[-2.41116,51.55197],[-2.41114,51.55186],[-2.41135,51.55184]]]]}},
{ "type":"Feature","properties":{"osm_way_id":"109246712","name":"Radford Mill Farm Shop","building":"yes","shop":"supermarket","other":{"addr:city":"Bristol","addr:housenumber":"41","addr:postcode":"BS6 5PZ","addr:street":"Picton Street","addr:suburb":"Montpelier","email":"richardrmf@hotmail.com","fhrs:id":"311789","organic":"only","phone":"+44 117 9426644","twitter":"RadfordMill","website":"http:\/\/www.radfordmillfarm.com"}}, "geometry":{"type":"MultiPolygon","coordinates":[[[[-2.58826,51.46589],[-2.5882,51.46588],[-2.58813,51.46588],[-2.58816,51.46583],[-2.58829,51.46584],[-2.58826,51.46589]]]]}},
{ "type":"Feature","properties":{"osm_way_id":"119261690","name":"Co-op Food","building":"retail","shop":"supermarket","other":{"addr:city":"Thornbury","addr:county":"South Gloucestershire","addr:housenumber":"9","addr:postcode":"BS35 2AE","addr:street":"High Street","brand":"Co-op Food","brand:wikidata":"Q3277439","brand:wikipedia":"en:Co-op Food","fhrs:id":"99916","opening_hours:post_office":"Mo-Fr 09:00-17:30; Sa 09:00-13:00","ref:pol_id":"12607","source:addr":"FHRS Open Data","source:outline":"Bing"}}, "geometry":{"type":"MultiPolygon","coordinates":[[[[-2.52587,51.6087],[-2.52587,51.60878],[-2.52569,51.60878],[-2.52552,51.60878],[-2.5254,51.60879],[-2.5254,51.6087],[-2.52587,51.6087]]]]}},
{ "type":"Feature","properties":{"osm_way_id":"119311378","name":"Aldi","building":"retail","shop":"supermarket","other":{"addr:city":"Thornbury","addr:housenumber":"3-5","addr:postcode":"BS35 2AZ","addr:street":"Horseshoe Lane","brand":"ALDI","brand:wikidata":"Q41171672","brand:wikipedia":"en:Aldi","fhrs:id":"51452","source:outline":"Bing"}}, "geometry":{"type":"MultiPolygon","coordinates":[[[[-2.52404,51.60768],[-2.5245,51.60768],[-2.5245,51.60774],[-2.5245,51.60797],[-2.52452,51.60797],[-2.52452,51.60801],[-2.52452,51.60817],[-2.52405,51.60817],[-2.52404,51.60817],[-2.52404,51.60775],[-2.52404,51.60768]]]]}},
{ "type":"Feature","properties":{"osm_way_id":"123271635","name":"Sainsbury's","building":"yes","shop":"supermarket","other":{"addr:city":"Bristol","addr:housenumber":"111","addr:postcode":"BS3 2NS","addr:street":"Winterstoke Road","addr:suburb":"Ashton Gate","brand":"Sainsbury's","brand:wikidata":"Q152096","brand:wikipedia":"en:Sainsbury's","fhrs:id":"311175","opening_hours":"Mo-Sa 07:00-22:00; Su 10:00-16:00"}}, "geometry":{"type":"MultiPolygon","coordinates":[[[[-2.62049,51.43342],[-2.62007,51.43305],[-2.61988,51.43313],[-2.61992,51.43317],[-2.61981,51.43322],[-2.61955,51.43299],[-2.61869,51.43336],[-2.61896,51.4336],[-2.61891,51.43362],[-2.61903,51.43373],[-2.61908,51.4337],[-2.61931,51.4339],[-2.61937,51.43387],[-2.6196,51.43407],[-2.62066,51.43361],[-2.62045,51.43343],[-2.62049,51.43342]]]]}},
{ "type":"Feature","properties":{"osm_way_id":"124114864","name":"M&S Foodhall","building":"retail","shop":"supermarket","other":{"addr:city":"Bristol","addr:housenumber":"78-82","addr:postcode":"BS1 3DS","addr:street":"Broadmead","addr:suburb":"City Centre","brand":"M&S Foodhall","brand:wikidata":"Q714491","fhrs:id":"312756"}}, "geometry":{"type":"MultiPolygon","coordinates":[[[[-2.59063,51.45734],[-2.59032,51.45743],[-2.59039,51.45751],[-2.59035,51.45753],[-2.59051,51.45772],[-2.59044,51.45774],[-2.5906,51.45793],[-2.59049,51.45797],[-2.59051,51.458],[-2.59054,51.45804],[-2.59057,51.45807],[-2.5906,51.45811],[-2.59062,51.45813],[-2.59129,51.45794],[-2.59111,51.45768],[-2.59105,51.45771],[-2.59092,51.45759],[-2.59084,51.45761],[-2.59063,51.45734]]]]}},
{ "type":"Feature","properties":{"osm_way_id":"125302531","name":"Asda","building":"yes","shop":"supermarket","other":{"addr:city":"Bristol","addr:postcode":"BS3 4JY","addr:street":"East Street","addr:suburb":"Bedminster","alt_name":"ASDA Bedminster Superstore","brand":"Asda","brand:wikidata":"Q297410","brand:wikipedia":"en:Asda","contact:facebook":"https:\/\/www.facebook.com\/asda\/","contact:twitter":"@asda","contact:website":"https:\/\/storelocator.asda.com\/south-west\/bristol\/east-street","fhrs:id":"312027","opening_hours":"Mo 08:00-00:00; Tu-Fr 00:00-00:00; Sa 00:00-22:00; Su 10:00-16:00","operator":"Asda Stores Ltd","wheelchair":"yes"}}, "geometry":{"type":"MultiPolygon","coordinates":[[[[-2.59628,51.44374],[-2.59559,51.44356],[-2.59514,51.44332],[-2.59493,51.44347],[-2.59474,51.44337],[-2.5946,51.44347],[-2.59446,51.44356],[-2.59459,51.44363],[-2.59444,51.44374],[-2.59431,51.44367],[-2.59429,51.44366],[-2.59404,51.44385],[-2.59411,51.44389],[-2.59437,51.44402],[-2.59449,51.44408],[-2.59456,51.44412],[-2.59459,51.44412],[-2.59457,51.44415],[-2.59458,51.44417],[-2.5946,51.44419],[-2.59463,51.44421],[-2.59475,51.44428],[-2.59486,51.44434],[-2.59491,51.44435],[-2.59496,51.44434],[-2.59498,51.44433],[-2.595,51.44432],[-2.59507,51.44435],[-2.59516,51.44428],[-2.59536,51.44439],[-2.59549,51.44429],[-2.59572,51.44442],[-2.59579,51.44437],[-2.5957,51.44432],[-2.59606,51.44405],[-2.596,51.44402],[-2.59605,51.44399],[-2.59605,51.44398],[-2.59612,51.44393],[-2.59614,51.44394],[-2.59629,51.4438],[-2.59628,51.44374]]]]}},
{ "type":"Feature","properties":{"osm_way_id":"125803501","name":"Iceland The Food Warehouse","building":"retail","shop":"supermarket","other":{"addr:city":"Bristol","addr:place":"Avon Meads Shopping Park","addr:postcode":"BS2 0SP","addr:street":"Saint Philips Causeway","addr:suburb":"St Philip's Marsh","addr:unit":"4","brand":"The Food Warehouse","brand:wikidata":"Q87263899","building:levels":"1","fhrs:id":"861995","source:addr":"FHRS Open Data","wheelchair":"yes"}}, "geometry":{"type":"MultiPolygon","coordinates":[[[[-2.55998,51.44753],[-2.55918,51.44777],[-2.55902,51.44758],[-2.55918,51.44753],[-2.55983,51.44733],[-2.55998,51.44753]]]]}},
{ "type":"Feature","properties":{"osm_way_id":"127961333","name":"Tesco","landuse":"retail","shop":"supermarket","other":{"addr:city":"Midsomer Norton","addr:postcode":"BS39 7SW","addr:street":"Old Mills","alt_name":"Tesco Midsomer Norton Superstore","brand":"Tesco","brand:wikidata":"Q487494","brand:wikipedia":"en:Tesco","contact:website":"https:\/\/www.tesco.com\/store-locator\/bristol\/old-mills","fhrs:id":"205749"}}, "geometry":{"type":"MultiPolygon","coordinates":[[[[-2.49987,51.29283],[-2.49969,51.29226],[-2.49968,51.29224],[-2.499,51.29223],[-2.49885,51.29217],[-2.49872,51.29209],[-2.4987,51.29169],[-2.49727,51.29171],[-2.49717,51.2918],[-2.49728,51.29312],[-2.49756,51.29311],[-2.49764,51.29315],[-2.49774,51.29319],[-2.4979,51.29322],[-2.49811,51.29324],[-2.49826,51.29323],[-2.49845,51.2932],[-2.49858,51.29318],[-2.4988,51.29314],[-2.49901,51.29308],[-2.49951,51.29293],[-2.49987,51.29283]]]]}},
{ "type":"Feature","properties":{"osm_way_id":"128069577","name":"Lidl","building":"retail","shop":"supermarket","other":{"addr:city":"Bristol","addr:postcode":"BS3 4EG","addr:street":"Sheene Road","addr:suburb":"Bedminster","brand":"Lidl","brand:wikidata":"Q151954","brand:wikipedia":"en:Lidl","fhrs:id":"1149295","opening_hours":"Mo-Sa 08:00-20:00; Su 10:00-16:00","source:addr":"FHRS Open Data"}}, "geometry":{"type":"MultiPolygon","coordinates":[[[[-2.60045,51.43832],[-2.60114,51.43825],[-2.60107,51.438],[-2.60066,51.43805],[-2.60065,51.43802],[-2.60041,51.43805],[-2.60037,51.43805],[-2.60045,51.43832]]]]}},
{ "type":"Feature","properties":{"osm_way_id":"140405298","name":"Aldi","building":"commercial","shop":"supermarket","other":{"addr:city":"Alnwick","addr:county":"Northumberland","addr:postcode":"NE66 2PA","addr:street":"South Road","branch":"Alnwick","brand":"ALDI","brand:wikidata":"Q41171672","brand:wikipedia":"en:Aldi","fhrs:id":"776816","opening_hours":"Mo-Sa 08:00-22:00; Su 10:00-16:00"}}, "geometry":{"type":"MultiPolygon","coordinates":[[[[-1.69397,55.40548],[-1.69406,55.40575],[-1.69321,55.40584],[-1.69312,55.40556],[-1.69397,55.40548]]]]}},
{ "type":"Feature","properties":{"osm_way_id":"144473708","name":"The Co-operative Food","building":"yes","shop":"supermarket","other":{"addr:postcode":"BA3 3RQ","fhrs:id":"204141","operator":"Radstock Co-operative Society","website":"http:\/\/www.radstockcoop.co.uk\/","wheelchair":"yes"}}, "geometry":{"type":"MultiPolygon","coordinates":[[[[-2.44905,51.29266],[-2.44826,51.29254],[-2.44816,51.29251],[-2.44813,51.29246],[-2.44811,51.29243],[-2.44812,51.29239],[-2.44846,51.29188],[-2.44849,51.29189],[-2.4486,51.29183],[-2.44897,51.29192],[-2.44889,51.29204],[-2.44905,51.29209],[-2.44913,51.29216],[-2.44905,51.29229],[-2.44916,51.29233],[-2.44908,51.29245],[-2.44917,51.29247],[-2.44905,51.29266]]]]}},
{ "type":"Feature","properties":{"osm_way_id":"145921347","name":"Istanbul Supermarket","building":"retail","shop":"supermarket","other":{"addr:city":"Bristol","addr:housenumber":"410-412","addr:postcode":"BS5 6NQ","addr:street":"Stapleton Road","addr:suburb":"Easton","fhrs:id":"914297","source:addr":"FHRS Open Data"}}, "geometry":{"type":"MultiPolygon","coordinates":[[[[-2.56603,51.46936],[-2.56596,51.46944],[-2.56593,51.46943],[-2.5657,51.46935],[-2.56578,51.46927],[-2.56603,51.46936]]]]}},
{ "type":"Feature","properties":{"osm_way_id":"160723555","name":"Lidl","building":"yes","shop":"supermarket","other":{"addr:city":"Bristol","addr:postcode":"BS5 0BT","addr:street":"Earl Russell Way","addr:suburb":"Lawrence Hill","brand":"Lidl","brand:wikidata":"Q151954","brand:wikipedia":"en:Lidl","fhrs:id":"311488","not:addr:postcode":"BS5 0BX","source:addr":"FHRS Open Data"}}, "geometry":{"type":"MultiPolygon","coordinates":[[[[-2.56447,51.45885],[-2.56504,51.45853],[-2.56481,51.45837],[-2.5643,51.45866],[-2.56435,51.4587],[-2.56429,51.45873],[-2.56447,51.45885]]]]}},
{ "type":"Feature","properties":{"osm_way_id":"163996068","name":"Aldi","building":"yes","shop":"supermarket","other":{"addr:city":"Bristol","addr:housenumber":"155","addr:postcode":"BS10 6AS","addr:street":"Greystoke Avenue","addr:suburb":"Southmead","brand":"ALDI","brand:wikidata":"Q41171672","brand:wikipedia":"en:Aldi","fhrs:id":"312213","wheelchair":"yes"}}, "geometry":{"type":"MultiPolygon","coordinates":[[[[-2.6036,51.50328],[-2.60368,51.50325],[-2.60357,51.50314],[-2.60349,51.50316],[-2.60335,51.50301],[-2.60302,51.50313],[-2.60337,51.50351],[-2.6037,51.5034],[-2.6036,51.50328]]]]}},
{ "type":"Feature","properties":{"osm_way_id":"171824442","name":"Stoke Lane's Co-op","building":"yes","shop":"supermarket","other":{"addr:city":"Bristol","addr:housenumber":"141-145","addr:postcode":"BS9 3RW","addr:street":"Stoke Lane","addr:suburb":"Westbury-on-Trym","fhrs:id":"312089"}}, "geometry":{"type":"MultiPolygon","coordinates":[[[[-2.62514,51.48805],[-2.62487,51.48796],[-2.62483,51.48802],[-2.62475,51.48799],[-2.62462,51.48815],[-2.62497,51.48826],[-2.62514,51.48805]]]]}},
{ "type":"Feature","properties":{"osm_way_id":"172279247","name":"Co-op","building":"retail","shop":"supermarket","other":{"addr:postcode":"BA2 5EH","fhrs:id":"205604","website":"https:\/\/www.coop.co.uk\/store\/food\/BA2-5EH\/the-avenue"}}, "geometry":{"type":"MultiPolygon","coordinates":[[[[-2.34701,51.35995],[-2.34685,51.35991],[-2.3468,51.3599],[-2.34675,51.35998],[-2.34697,51.36003],[-2.34701,51.35995]]]]}},
{ "type":"Feature","properties":{"osm_way_id":"172715330","name":"Stoke Bishop's Co-op","building":"retail","shop":"supermarket","other":{"addr:city":"Bristol","addr:housenumber":"55-57","addr:postcode":"BS9 2DW","addr:street":"Shirehampton Road","addr:suburb":"Sea Mills","building:levels":"2","fhrs:id":"312036","opening_hours":"PH,Mo-Su 06:00-22:00","toilets:wheelchair":"no","wheelchair":"yes"}}, "geometry":{"type":"MultiPolygon","coordinates":[[[[-2.64155,51.48594],[-2.64148,51.48592],[-2.6415,51.48589],[-2.64143,51.48587],[-2.64123,51.48609],[-2.64137,51.48614],[-2.64155,51.48594]]]]}},
{ "type":"Feature","properties":{"osm_way_id":"183157874","name":"Co-op Food","building":"retail","shop":"supermarket","other":{"addr:housenumber":"3A","addr:postcode":"BA1 2SQ","addr:street":"Burlington Place, Julian Road","brand":"Co-op Food","brand:wikidata":"Q3277439","brand:wikipedia":"en:Co-op Food","building:levels":"2","fhrs:id":"205153","toilets:wheelchair":"no","website":"https:\/\/www.coop.co.uk\/store\/food\/ba1-2sq\/3a-burlington-place","wheelchair":"yes","wheelchair:description":"may be a bit tight inside"}}, "geometry":{"type":"MultiPolygon","coordinates":[[[[-2.36489,51.38801],[-2.36508,51.38804],[-2.3651,51.388],[-2.36512,51.38796],[-2.36514,51.38792],[-2.36496,51.38788],[-2.36495,51.38791],[-2.36493,51.38791],[-2.36489,51.38801]]]]}},
{ "type":"Feature","properties":{"osm_way_id":"184191529","name":"The Co-operative Food","building":"yes","shop":"supermarket","other":{"addr:city":"Bristol","addr:housenumber":"138","addr:postcode":"BS7 8NT","addr:street":"Gloucester Road","addr:suburb":"Bishopston","brand":"The Co-operative Food","brand:wikidata":"Q107617274","opening_hours":"Mo-Su 07:00-23:00","phone":"+44 117 924 4984"}}, "geometry":{"type":"MultiPolygon","coordinates":[[[[-2.59085,51.47691],[-2.59087,51.47687],[-2.5908,51.47686],[-2.59084,51.47677],[-2.5905,51.47672],[-2.59045,51.47674],[-2.59041,51.47685],[-2.59085,51.47691]]]]}},
{ "type":"Feature","properties":{"osm_way_id":"186117466","name":"The co-operative food","building":"retail","shop":"supermarket","other":{"addr:city":"Bristol","addr:housenumber":"394","addr:postcode":"BS7 0LJ","addr:street":"Filton Avenue","addr:suburb":"Horfield","source:addr":"FHRS Open Data"}}, "geometry":{"type":"MultiPolygon","coordinates":[[[[-2.57372,51.49591],[-2.57381,51.49577],[-2.57395,51.4958],[-2.57417,51.49585],[-2.57408,51.49599],[-2.57395,51.49596],[-2.57372,51.49591]]]]}},
{ "type":"Feature","properties":{"osm_way_id":"186117471","name":"Tesco Express","building":"retail","shop":"supermarket","other":{"addr:city":"Bristol","addr:housenumber":"390","addr:postcode":"BS7 0LJ","addr:street":"Filton Avenue","addr:suburb":"Horfield","brand":"Tesco Express","brand:wikidata":"Q98456772","fhrs:id":"452550","opening_hours":"08:00-23:00","source:addr":"FHRS Open Data"}}, "geometry":{"type":"MultiPolygon","coordinates":[[[[-2.57387,51.49565],[-2.5739,51.49559],[-2.5739,51.49559],[-2.57392,51.49555],[-2.57393,51.49554],[-2.57395,51.49554],[-2.57397,51.49554],[-2.57423,51.49559],[-2.57424,51.49561],[-2.57441,51.49565],[-2.57435,51.49575],[-2.57423,51.49573],[-2.57425,51.4957],[-2.57417,51.49568],[-2.57417,51.49567],[-2.57413,51.49566],[-2.57412,51.49568],[-2.57411,51.49567],[-2.57409,51.4957],[-2.57387,51.49565]]]]}},
{ "type":"Feature","properties":{"osm_way_id":"186577071","name":"Aldi","building":"yes","shop":"supermarket","other":{"addr:city":"Bristol","addr:postcode":"BS10 7EN","addr:street":"Crow Lane","addr:suburb":"Henbury","brand":"ALDI","brand:wikidata":"Q41171672","brand:wikipedia":"en:Aldi","fhrs:id":"310641","wheelchair":"yes"}}, "geometry":{"type":"MultiPolygon","coordinates":[[[[-2.62552,51.50808],[-2.62564,51.508],[-2.62558,51.50797],[-2.62574,51.50787],[-2.62534,51.50763],[-2.62536,51.50761],[-2.62529,51.50757],[-2.62516,51.50749],[-2.62494,51.50763],[-2.62493,51.50762],[-2.62485,51.50767],[-2.62552,51.50808]]]]}},
{ "type":"Feature","properties":{"osm_way_id":"187530047","name":"Lidl","building":"yes","shop":"supermarket","other":{"addr:city":"Bristol","addr:postcode":"BS10 5NE","brand":"Lidl","brand:wikidata":"Q151954","fhrs:id":"312207","wheelchair":"yes"}}, "geometry":{"type":"MultiPolygon","coordinates":[[[[-2.5924,51.50063],[-2.59236,51.50063],[-2.5923,51.50081],[-2.59211,51.50075],[-2.59169,51.50069],[-2.59175,51.5005],[-2.59176,51.50049],[-2.59183,51.5005],[-2.59184,51.50046],[-2.59232,51.50051],[-2.59231,51.50055],[-2.59242,51.50057],[-2.5924,51.50063]]]]}},
{ "type":"Feature","properties":{"osm_way_id":"188083555","name":"Asda","building":"yes","shop":"supermarket","other":{"addr:city":"Bristol","addr:postcode":"BS14 0ST","addr:street":"Oatlands Avenue","addr:suburb":"Hengrove","brand":"Asda","brand:wikidata":"Q297410","brand:wikipedia":"en:Asda","contact:facebook":"https:\/\/www.facebook.com\/asda\/","contact:twitter":"@asda","contact:website":"https:\/\/storelocator.asda.com\/south-west\/bristol\/oatlands-avenue","fhrs:id":"310838","opening_hours":"Mo 08:00-23:00; Tu-Fr 07:00-23:00; Sa 07:00-22:00; Su 10:00-16:00","operator":"Asda Stores Ltd","source:addr":"FHRS Open Data","toilets":"yes","toilets:access":"customers","toilets:wheelchair":"yes","wheelchair":"yes"}}, "geometry":{"type":"MultiPolygon","coordinates":[[[[-2.57148,51.4137],[-2.57083,51.41358],[-2.57078,51.41366],[-2.5703,51.41357],[-2.57006,51.41406],[-2.57052,51.41415],[-2.57043,51.41435],[-2.57089,51.41444],[-2.57099,51.41424],[-2.5712,51.41428],[-2.57148,51.4137]]]]}},
{ "type":"Feature","properties":{"osm_way_id":"188083890","name":"Morrisons","building":"supermarket","shop":"supermarket","other":{"addr:city":"Bristol","addr:postcode":"BS13 0BE","addr:street":"Hareclive Road","brand":"Morrisons","brand:wikidata":"Q922344","brand:wikipedia":"en:Morrisons","building:levels":"1","fhrs:id":"312720"}}, "geometry":{"type":"MultiPolygon","coordinates":[[[[-2.60055,51.40534],[-2.60062,51.40535],[-2.60059,51.4054],[-2.60053,51.40538],[-2.60044,51.40557],[-2.60024,51.40554],[-2.60021,51.40561],[-2.599,51.40538],[-2.59897,51.40544],[-2.59879,51.4054],[-2.59884,51.40529],[-2.59894,51.40531],[-2.59916,51.40483],[-2.59933,51.40486],[-2.5994,51.4047],[-2.60027,51.40486],[-2.60018,51.40505],[-2.60033,51.40508],[-2.60025,51.40525],[-2.60056,51.4053],[-2.60055,51.40534]]]]}},
{ "type":"Feature","properties":{"osm_way_id":"188084124","name":"Lidl","building":"yes","shop":"supermarket","other":{"addr:city":"Bristol","addr:housenumber":"59","addr:postcode":"BS13 7TE","addr:street":"Whitchurch Lane","addr:suburb":"Bishopsworth","brand":"Lidl","brand:wikidata":"Q151954","fhrs:id":"310423"}}, "geometry":{"type":"MultiPolygon","coordinates":[[[[-2.61204,51.41454],[-2.61143,51.41459],[-2.61135,51.41425],[-2.61102,51.41428],[-2.61101,51.41424],[-2.61079,51.41426],[-2.61084,51.41449],[-2.61085,51.41453],[-2.61074,51.41454],[-2.61076,51.41462],[-2.61086,51.41461],[-2.61094,51.41496],[-2.61177,51.41489],[-2.61179,51.41498],[-2.61209,51.41495],[-2.61207,51.41486],[-2.61211,51.41486],[-2.61204,51.41454]]]]}},
{ "type":"Feature","properties":{"osm_way_id":"190054103","name":"168 Oriental","building":"yes","shop":"supermarket","other":{"addr:city":"Bristol","addr:country":"GB","addr:housenumber":"52","addr:postcode":"BS1 5JN","addr:street":"Park Street","addr:suburb":"City Centre","building:levels":"3","fhrs:id":"895621"}}, "geometry":{"type":"MultiPolygon","coordinates":[[[[-2.60253,51.45461],[-2.60246,51.45456],[-2.60259,51.45449],[-2.60266,51.45454],[-2.60253,51.45461]]]]}},
{ "type":"Feature","properties":{"osm_way_id":"190130974","name":"Westbury on Trym's Co-op","building":"yes","shop":"supermarket","other":{"addr:city":"Bristol","addr:housenumber":"12","addr:postcode":"BS9 3DF","addr:street":"Carlton Court","addr:suburb":"Westbury-on-Trym","fhrs:id":"311140"}}, "geometry":{"type":"MultiPolygon","coordinates":[[[[-2.61972,51.49338],[-2.61986,51.49338],[-2.61983,51.49311],[-2.61968,51.49312],[-2.61972,51.49338]]]]}},
{ "type":"Feature","properties":{"osm_way_id":"201247645","name":"Home Bargains","building":"yes","shop":"supermarket","other":{"addr:city":"Bristol","addr:housenumber":"57","addr:postcode":"BS13 7TE","addr:street":"Whitchurch Lane","addr:suburb":"Bishopsworth","fhrs:id":"385324"}}, "geometry":{"type":"MultiPolygon","coordinates":[[[[-2.61197,51.41424],[-2.61196,51.4142],[-2.61135,51.41425],[-2.61143,51.41459],[-2.61204,51.41454],[-2.61203,51.4145],[-2.61213,51.41449],[-2.61212,51.41442],[-2.61201,51.41443],[-2.61199,51.41434],[-2.61197,51.41424]]]]}},
{ "type":"Feature","properties":{"osm_way_id":"209331027","name":"Waitrose","landuse":"retail","shop":"supermarket","other":{"addr:city":"Bristol","addr:postcode":"BS31 1ST","addr:street":"Broadmead Lane","alt_name":"Waitrose Keynsham","brand":"Waitrose & Partners","brand:wikidata":"Q771734","brand:wikipedia":"en:Waitrose & Partners","fhrs:id":"764765","operator":"Waitrose & Partners","website":"https:\/\/www.waitrose.com\/content\/waitrose\/en\/bf_home\/bf\/557.html"}}, "geometry":{"type":"MultiPolygon","coordinates":[[[[-2.4849,51.41355],[-2.48459,51.41413],[-2.4845,51.41439],[-2.48423,51.41468],[-2.48354,51.41465],[-2.48316,51.4146],[-2.48299,51.41452],[-2.48291,51.41446],[-2.48291,51.41426],[-2.48292,51.414],[-2.4829,51.41374],[-2.48273,51.41316],[-2.48273,51.41307],[-2.48276,51.41299],[-2.48287,51.41294],[-2.48312,51.41296],[-2.4849,51.41355]]]]}},
{ "type":"Feature","properties":{"osm_way_id":"209646203","name":"Tesco Extra","building":"retail","shop":"supermarket","other":{"addr:city":"Bristol","addr:postcode":"BS5 6XU","addr:street":"Eastgate Road","addr:suburb":"Eastville","alt_name":"Tesco Bristol East Extra","brand":"Tesco Extra","brand:wikidata":"Q25172225","brand:wikipedia":"en:Tesco Extra","building:levels":"2","fhrs:id":"312030","height":"7"}}, "geometry":{"type":"MultiPolygon","coordinates":[[[[-2.56347,51.47393],[-2.56389,51.47348],[-2.56352,51.47334],[-2.5637,51.47315],[-2.56305,51.47291],[-2.56289,51.47307],[-2.56268,51.47299],[-2.56271,51.47297],[-2.56249,51.47289],[-2.56232,51.47308],[-2.56236,51.47309],[-2.56205,51.47341],[-2.56219,51.47346],[-2.56244,51.47355],[-2.56242,51.47357],[-2.56253,51.47361],[-2.56255,51.47359],[-2.56257,51.4736],[-2.56271,51.47365],[-2.5629,51.47372],[-2.56287,51.47376],[-2.56316,51.47387],[-2.56315,51.47388],[-2.56316,51.47389],[-2.56315,51.4739],[-2.56313,51.47392],[-2.56328,51.47398],[-2.5633,51.47396],[-2.56332,51.47394],[-2.56339,51.47397],[-2.5634,51.47396],[-2.56343,51.47392],[-2.56347,51.47393]]]]}},
{ "type":"Feature","properties":{"osm_way_id":"210367159","name":"Tesco Express","building":"yes","shop":"supermarket","other":{"addr:city":"Bristol","addr:housename":"The Paragon","addr:housenumber":"32-34","addr:postcode":"BS1 6BY","addr:street":"Victoria Street","brand":"Tesco Express","brand:wikidata":"Q98456772","fhrs:id":"310483","wheelchair":"limited"}}, "geometry":{"type":"MultiPolygon","coordinates":[[[[-2.5884,51.45275],[-2.58823,51.45267],[-2.58839,51.45253],[-2.58856,51.45261],[-2.5884,51.45275]]]]}},
{ "type":"Feature","properties":{"osm_way_id":"210367872","name":"Co-op Food","building":"yes","shop":"supermarket","other":{"addr:city":"Bristol","addr:housenumber":"108","addr:postcode":"BS1 6LT","addr:street":"Redcliffe Street","addr:suburb":"Redcliffe","brand":"Co-op Food","brand:wikidata":"Q3277439","brand:wikipedia":"en:Co-op Food","building:levels":"4","fhrs:id":"312941","loc_name":"The Square","operator":"The Southern Co-operative"}}, "geometry":{"type":"MultiPolygon","coordinates":[[[[-2.59026,51.4506],[-2.59038,51.45083],[-2.59052,51.45081],[-2.59048,51.45073],[-2.59056,51.45071],[-2.59049,51.45057],[-2.59044,51.45058],[-2.59044,51.45057],[-2.59026,51.4506]]]]}},
{ "type":"Feature","properties":{"osm_way_id":"211450581","name":"Tesco Extra","building":"supermarket","shop":"supermarket","other":{"addr:city":"Bristol","addr:postcode":"BS4 5AY","addr:street":"Callington Road","addr:suburb":"Brislington","brand":"Tesco Extra","brand:wikidata":"Q25172225","brand:wikipedia":"en:Tesco Extra","fhrs:id":"310835","source:addr":"FHRS Open Data","wheelchair":"yes"}}, "geometry":{"type":"MultiPolygon","coordinates":[[[[-2.55394,51.43283],[-2.55395,51.43276],[-2.55375,51.43275],[-2.55378,51.43251],[-2.55374,51.43251],[-2.55381,51.43193],[-2.55465,51.43197],[-2.55537,51.43201],[-2.55551,51.43202],[-2.55548,51.43215],[-2.55544,51.43215],[-2.55538,51.43261],[-2.55527,51.4326],[-2.55526,51.43269],[-2.55489,51.43267],[-2.55487,51.43283],[-2.55507,51.43284],[-2.55506,51.43289],[-2.55394,51.43283]]]]}},
{ "type":"Feature","properties":{"osm_way_id":"218420074","name":"ALDI","building":"yes","shop":"supermarket","other":{"addr:city":"Bristol","addr:housenumber":"273-279","addr:postcode":"BS5 9HT","addr:street":"Church Road","addr:suburb":"Redfield","brand":"ALDI","brand:wikidata":"Q41171672","brand:wikipedia":"en:Aldi","fhrs:id":"311507","source:addr":"FHRS Open Data"}}, "geometry":{"type":"MultiPolygon","coordinates":[[[[-2.55204,51.45969],[-2.55248,51.45961],[-2.55255,51.45977],[-2.55263,51.45976],[-2.55269,51.4599],[-2.55261,51.45991],[-2.55264,51.45998],[-2.55256,51.46],[-2.55258,51.46005],[-2.55229,51.4601],[-2.55221,51.46006],[-2.55204,51.45969]]]]}},
{ "type":"Feature","properties":{"osm_way_id":"224414421","name":"Waitrose","building":"retail","shop":"supermarket","other":{"addr:city":"Chipping Sodbury","addr:postcode":"BS37 6AU","addr:street":"Wickwar Road","brand":"Waitrose & Partners","brand:wikidata":"Q771734","brand:wikipedia":"en:Waitrose & Partners","fhrs:id":"1002831","operator":"Waitrose & Partners","phone":"+44 1454326512","start_date":"2013-10-10","website":"https:\/\/www.waitrose.com\/content\/waitrose\/en\/bf_home\/bf\/751.html"}}, "geometry":{"type":"MultiPolygon","coordinates":[[[[-2.39668,51.54055],[-2.39671,51.54068],[-2.39599,51.54072],[-2.39597,51.54059],[-2.396,51.54058],[-2.39593,51.54014],[-2.396,51.54013],[-2.39665,51.54009],[-2.39666,51.54018],[-2.39668,51.54017],[-2.39669,51.54027],[-2.39661,51.54028],[-2.39663,51.54043],[-2.39665,51.54055],[-2.39668,51.54055]]]]}},
{ "type":"Feature","properties":{"osm_way_id":"227778369","name":"Sainsbury's","building":"retail","shop":"supermarket","other":{"addr:city":"Bristol","addr:housenumber":"48-56","addr:postcode":"BS8 1RE","addr:street":"Queens Road","addr:suburb":"Clifton","brand":"Sainsbury's","brand:wikidata":"Q152096","brand:wikipedia":"en:Sainsbury's","fhrs:id":"312290","source:addr":"FHRS Open Data","wheelchair":"yes"}}, "geometry":{"type":"MultiPolygon","coordinates":[[[[-2.60675,51.45664],[-2.60696,51.45674],[-2.60684,51.45683],[-2.60682,51.45685],[-2.60687,51.45688],[-2.60663,51.45707],[-2.60637,51.45695],[-2.60675,51.45664]]]]}},
{ "type":"Feature","properties":{"osm_way_id":"228581822","name":"The Better Food Company","building":"yes","shop":"supermarket","other":{"addr:city":"Bristol","addr:housenumber":"94a","addr:postcode":"BS8 2QX","addr:street":"Whiteladies Road","addr:suburb":"Clifton","fhrs:id":"310495","organic":"only","phone":"+44 117 946 6957","shop:units":"2","website":"https:\/\/www.betterfood.co.uk\/"}}, "geometry":{"type":"MultiPolygon","coordinates":[[[[-2.61232,51.46675],[-2.61224,51.46666],[-2.6121,51.46671],[-2.61195,51.46676],[-2.61203,51.46685],[-2.61232,51.46675]]]]}},
{ "type":"Feature","properties":{"osm_way_id":"233184933","name":"Welcome Stoke Bishop","building":"yes","shop":"supermarket","other":{"addr:city":"Bristol","addr:housenumber":"5","addr:postcode":"BS9 1EW","addr:street":"Druid Hill","addr:suburb":"Stoke Bishop","brand":"southern co-op","fhrs:id":"1061729"}}, "geometry":{"type":"MultiPolygon","coordinates":[[[[-2.63472,51.48121],[-2.6348,51.48117],[-2.63472,51.4811],[-2.63464,51.48114],[-2.63472,51.48121]]]]}},
{ "type":"Feature","properties":{"osm_way_id":"233915799","name":"Londis","building":"retail","shop":"supermarket","other":{"addr:city":"Bristol","addr:postcode":"BS32 4HW","brand":"Londis","brand:wikidata":"Q21008564","brand:wikipedia":"en:Londis (United Kingdom)","fhrs:id":"106172"}}, "geometry":{"type":"MultiPolygon","coordinates":[[[[-2.55324,51.5656],[-2.55332,51.56551],[-2.55321,51.56547],[-2.5532,51.56549],[-2.55315,51.56548],[-2.55309,51.56555],[-2.5531,51.56555],[-2.55324,51.5656]]]]}},
{ "type":"Feature","properties":{"osm_way_id":"238794516","name":"Sainsbury's Odd Down","shop":"supermarket","other":{"addr:city":"Bath","addr:postcode":"BA2 5RF","addr:street":"Frome Road","brand":"Sainsbury's","brand:wikidata":"Q152096","brand:wikipedia":"en:Sainsbury's","fhrs:id":"204188","operator":"Sainsbury's","toilets:wheelchair":"yes","website":"https:\/\/stores.sainsburys.co.uk\/2166\/bath-odd-down","wheelchair":"yes"}}, "geometry":{"type":"MultiPolygon","coordinates":[[[[-2.37118,51.35675],[-2.37118,51.35667],[-2.37157,51.35625],[-2.37194,51.35585],[-2.37225,51.35551],[-2.37382,51.35607],[-2.37297,51.35702],[-2.37291,51.35707],[-2.37285,51.3571],[-2.37282,51.35713],[-2.37263,51.35701],[-2.3725,51.35705],[-2.37233,51.35709],[-2.37217,51.35709],[-2.37204,51.35706],[-2.37187,51.357],[-2.37118,51.35675]]]]}},
{ "type":"Feature","properties":{"osm_way_id":"245486696","name":"Sainsbury's","building":"supermarket","shop":"supermarket","other":{"addr:city":"Midsomer Norton","addr:housename":"The Hollies","addr:postcode":"BA3 2DT","addr:street":"High Street","alt_name":"Sainsbury's Midsomer Norton Superstore","brand":"Sainsbury's","brand:wikidata":"Q152096","brand:wikipedia":"en:Sainsbury's","fhrs:id":"205243","website":"https:\/\/stores.sainsburys.co.uk\/2125\/midsomer-norton"}}, "geometry":{"type":"MultiPolygon","coordinates":[[[[-2.4826,51.28659],[-2.48214,51.28625],[-2.48188,51.2864],[-2.48178,51.28633],[-2.48171,51.28637],[-2.48165,51.28633],[-2.4816,51.28635],[-2.48151,51.28641],[-2.48167,51.28651],[-2.48177,51.28659],[-2.48185,51.28664],[-2.48196,51.28672],[-2.48201,51.28669],[-2.48213,51.28677],[-2.48227,51.28677],[-2.4826,51.28659]]]]}},
{ "type":"Feature","properties":{"osm_way_id":"251087600","name":"Tesco Express","building":"yes","shop":"supermarket","other":{"addr:city":"Bristol","addr:housenumber":"77","addr:postcode":"BS9 3AD","addr:street":"Westbury Hill","addr:suburb":"Westbury on Trym","brand":"Tesco Express","brand:wikidata":"Q98456772","fhrs:id":"584158","old_name":"Foresters Arms","source:addr":"FHRS Open Data"}}, "geometry":{"type":"MultiPolygon","coordinates":[[[[-2.61802,51.49287],[-2.61817,51.49295],[-2.6182,51.49293],[-2.61823,51.49294],[-2.61826,51.49292],[-2.61835,51.49285],[-2.61818,51.49276],[-2.61811,51.49281],[-2.61802,51.49287]]]]}},
{ "type":"Feature","properties":{"osm_way_id":"256115361","name":"Asda","building":"retail","shop":"supermarket","other":{"addr:city":"Bristol","addr:postcode":"BS34 7JL","addr:street":"Abbey Wood Retail Park","brand":"Asda","brand:wikidata":"Q297410","brand:wikipedia":"en:Asda","contact:facebook":"https:\/\/www.facebook.com\/asda\/","contact:twitter":"@asda","contact:website":"https:\/\/storelocator.asda.com\/south-west\/filton\/abbeywood-retail-park","fhrs:id":"624216","operator":"Asda Stores Ltd","toilets":"yes","toilets:access":"customers","toilets:wheelchair":"yes","wheelchair":"limited","wheelchair:description":"Have a casual attitude towards it. Majority of tills too small for the wheelchair trolleys that they provide and sometimes they put out displays that block the more accessible tills. Toilet is good but has a grate in the door that you can see through"}}, "geometry":{"type":"MultiPolygon","coordinates":[[[[-2.5607,51.50553],[-2.5606,51.50586],[-2.56045,51.50584],[-2.56044,51.50588],[-2.56027,51.50586],[-2.56028,51.50582],[-2.56011,51.5058],[-2.5601,51.50585],[-2.55976,51.50581],[-2.55977,51.50576],[-2.55993,51.50521],[-2.55987,51.50521],[-2.5599,51.50511],[-2.56061,51.50518],[-2.5606,51.50523],[-2.56076,51.50524],[-2.56076,51.50528],[-2.56114,51.50532],[-2.56111,51.50542],[-2.56101,51.50541],[-2.56101,51.50539],[-2.56075,51.50536],[-2.5607,51.50553]]]]}},
{ "type":"Feature","properties":{"osm_way_id":"257140073","name":"Tesco Metro","building":"yes","shop":"supermarket","other":{"addr:city":"Bristol","addr:housenumber":"92-98","addr:postcode":"BS1 3DW","addr:street":"Broadmead","brand":"Tesco Metro","brand:wikidata":"Q57551648","brand:wikipedia":"en:3 (telecommunications)","fhrs:id":"312737","operator":"Tesco"}}, "geometry":{"type":"MultiPolygon","coordinates":[[[[-2.59135,51.45717],[-2.5913,51.45715],[-2.59127,51.45715],[-2.59097,51.45724],[-2.59118,51.45751],[-2.59121,51.4575],[-2.59125,51.45755],[-2.5916,51.45746],[-2.59142,51.45723],[-2.5914,51.45724],[-2.59135,51.45717]]]]}},
{ "type":"Feature","properties":{"osm_way_id":"261464050","name":"The Co-operative Food","building":"yes","shop":"supermarket","other":{"addr:city":"Bristol","addr:country":"GB","addr:housenumber":"93-95","addr:postcode":"BS8 2NT","addr:street":"Whiteladies Road","addr:suburb":"Clifton","brand":"The Co-operative Food","brand:wikidata":"Q107617274","fhrs:id":"914281"}}, "geometry":{"type":"MultiPolygon","coordinates":[[[[-2.60917,51.46368],[-2.60912,51.46354],[-2.60884,51.46358],[-2.60867,51.46361],[-2.60848,51.46364],[-2.60854,51.46381],[-2.60876,51.46377],[-2.60875,51.46374],[-2.60889,51.46372],[-2.60917,51.46368]]]]}},
{ "type":"Feature","properties":{"osm_way_id":"261963332","name":"Tesco Express","building":"yes","shop":"supermarket","other":{"addr:city":"Bristol","addr:housenumber":"1-2","addr:postcode":"BS9 2DP","addr:street":"Trymwood Parade","addr:suburb":"Sea Mills","brand":"Tesco Express","brand:wikidata":"Q98456772","fhrs:id":"642793","opening_hours":"Mo-Su 07:00-23:00","wheelchair":"yes"}}, "geometry":{"type":"MultiPolygon","coordinates":[[[[-2.64188,51.48633],[-2.64199,51.48622],[-2.64205,51.48616],[-2.64216,51.48604],[-2.64203,51.48599],[-2.64193,51.48609],[-2.64175,51.48628],[-2.64188,51.48633]]]]}},
{ "type":"Feature","properties":{"osm_way_id":"263295809","name":"Harvest","building":"yes","shop":"supermarket","other":{"addr:city":"Bristol","addr:housenumber":"11","addr:postcode":"BS7 8AA","addr:street":"Gloucester Road","email":"info@harvest-bristol.coop","fax":"+44 117 924 9073","fhrs:id":"311613","opening_hours":"Mo-Fr 09:00-18:30; Sa 09:30-17:30","operator":"Essential Trading Cooperative","operator:type":"cooperative","organic":"only","phone":"+44 117 942 5997","website":"http:\/\/www.harvest-bristol.coop\/"}}, "geometry":{"type":"MultiPolygon","coordinates":[[[[-2.59328,51.47065],[-2.59304,51.47055],[-2.59309,51.47052],[-2.59315,51.47054],[-2.59331,51.47061],[-2.59328,51.47065]]]]}},
{ "type":"Feature","properties":{"osm_way_id":"263435214","name":"La Ruca","amenity":"cafe","building":"yes","shop":"supermarket","other":{"addr:city":"Bristol","addr:housenumber":"89","addr:postcode":"BS7 8AS","addr:street":"Gloucester Road","email":"La_Ruca_shop@yahoo.co.uk","fhrs:id":"386093","opening_hours":"Mo-Sa 09:00-17:30","organic":"only","phone":"+44 117 944 6810","website":"http:\/\/www.laruca.co.uk\/"}}, "geometry":{"type":"MultiPolygon","coordinates":[[[[-2.59136,51.47242],[-2.59131,51.47246],[-2.59117,51.47241],[-2.59119,51.47239],[-2.59123,51.47241],[-2.59126,51.47238],[-2.59136,51.47242]]]]}},
{ "type":"Feature","properties":{"osm_way_id":"263437273","name":"Scoopaway","building":"yes","shop":"supermarket","other":{"addr:city":"Bristol","addr:housenumber":"113","addr:postcode":"BS7 8AT","addr:street":"Gloucester Road","fhrs:id":"312393","opening_hours":"Mo-Sa 09:00-17:30","organic":"only","phone":"+44 117 987 2199"}}, "geometry":{"type":"MultiPolygon","coordinates":[[[[-2.59094,51.47308],[-2.59068,51.47309],[-2.59069,51.47305],[-2.59066,51.47305],[-2.59066,51.47303],[-2.59093,51.47304],[-2.59094,51.47308]]]]}},
{ "type":"Feature","properties":{"osm_way_id":"263437277","name":"Co-op Food","building":"yes","shop":"supermarket","other":{"addr:city":"Bristol","addr:housenumber":"117-121","addr:postcode":"BS7 8AT","addr:street":"Gloucester Road","addr:suburb":"Bishopston","brand":"Co-op Food","brand:wikidata":"Q3277439","brand:wikipedia":"en:Co-op Food","fhrs:id":"312029","long_name":"Welcome to Bishopston's Co-op","opening_hours":"Mo-Sa 07:00-22:00; Su 12:00-18:00","operator":"The Co-operative Group","operator:wikidata":"Q117202","operator:wikipedia":"en:The Co-operative Group"}}, "geometry":{"type":"MultiPolygon","coordinates":[[[[-2.59094,51.47313],[-2.591,51.47326],[-2.59082,51.4733],[-2.5907,51.47333],[-2.59055,51.47331],[-2.59035,51.4733],[-2.59036,51.47327],[-2.59038,51.47327],[-2.5904,51.47322],[-2.59041,51.47322],[-2.59043,51.47317],[-2.59059,51.47318],[-2.5906,51.47316],[-2.59062,51.47315],[-2.59094,51.47313]]]]}},
{ "type":"Feature","properties":{"osm_way_id":"267305048","name":"Shirehampton Co-op","building":"yes","shop":"supermarket","other":{"addr:city":"Bristol","addr:housenumber":"45-49","addr:postcode":"BS11 0DW","addr:street":"High Street","addr:suburb":"Shirehampton","fhrs:id":"312091"}}, "geometry":{"type":"MultiPolygon","coordinates":[[[[-2.67764,51.48934],[-2.67729,51.48921],[-2.67719,51.48932],[-2.67714,51.4893],[-2.67704,51.48941],[-2.67736,51.48955],[-2.67749,51.48946],[-2.67757,51.4894],[-2.67764,51.48934]]]]}},
{ "type":"Feature","properties":{"osm_way_id":"267321549","name":"Henleaze Road's Co-op","building":"yes","shop":"supermarket","other":{"addr:city":"Bristol","addr:housenumber":"69-71","addr:postcode":"BS9 4JT","addr:street":"Henleaze Road","addr:suburb":"Henleaze","fhrs:id":"312037"}}, "geometry":{"type":"MultiPolygon","coordinates":[[[[-2.612,51.48546],[-2.61198,51.48547],[-2.61217,51.48555],[-2.61227,51.48547],[-2.61234,51.48549],[-2.61237,51.48547],[-2.6123,51.48544],[-2.61231,51.48544],[-2.61218,51.48539],[-2.61199,51.4853],[-2.61194,51.48534],[-2.61189,51.48537],[-2.6119,51.4854],[-2.61193,51.48542],[-2.612,51.48546]]]]}},
{ "type":"Feature","properties":{"osm_way_id":"267327528","name":"Waitrose","building":"yes","shop":"supermarket","other":{"addr:city":"Bristol","addr:housenumber":"51","addr:postcode":"BS9 4HN","addr:street":"Northumbria Drive","addr:suburb":"Westbury Park","alt_name":"Waitrose Westbury Park","brand":"Waitrose & Partners","brand:wikidata":"Q771734","brand:wikipedia":"en:Waitrose & Partners","fhrs:id":"310833","operator":"Waitrose & Partners"}}, "geometry":{"type":"MultiPolygon","coordinates":[[[[-2.6123,51.48062],[-2.61255,51.48054],[-2.61258,51.48056],[-2.61269,51.48053],[-2.61267,51.48051],[-2.61283,51.48045],[-2.61276,51.48037],[-2.6129,51.48032],[-2.61284,51.48025],[-2.61285,51.48025],[-2.61273,51.48013],[-2.61255,51.48022],[-2.61251,51.48018],[-2.61246,51.48019],[-2.61241,51.48015],[-2.61233,51.48019],[-2.6123,51.48016],[-2.61194,51.4803],[-2.61217,51.48053],[-2.61218,51.48054],[-2.6125,51.48043],[-2.61255,51.48049],[-2.61227,51.48059],[-2.6123,51.48062]]]]}},
{ "type":"Feature","properties":{"osm_way_id":"272145164","name":"Eastern European Food Store","building":"yes","shop":"supermarket","other":{"addr:city":"Bristol","addr:housenumber":"451-455","addr:postcode":"BS7 8TZ","addr:street":"Gloucester Road","fhrs:id":"655827"}}, "geometry":{"type":"MultiPolygon","coordinates":[[[[-2.58581,51.48553],[-2.58583,51.48548],[-2.58585,51.48543],[-2.58587,51.48539],[-2.5857,51.48535],[-2.58569,51.48538],[-2.58573,51.48539],[-2.58572,51.48541],[-2.58571,51.48543],[-2.58567,51.48542],[-2.58565,51.48548],[-2.58569,51.48549],[-2.58568,51.4855],[-2.58581,51.48553]]]]}},
{ "type":"Feature","properties":{"osm_way_id":"272145169","name":"7 Days Supermarket","building":"yes","shop":"supermarket","other":{"addr:city":"Bristol","addr:housenumber":"436-440","addr:postcode":"BS7 8TX","addr:street":"Gloucester Road","addr:suburb":"Horfield","fhrs:id":"1021613","source:addr":"FHRS Open Data"}}, "geometry":{"type":"MultiPolygon","coordinates":[[[[-2.58627,51.48536],[-2.58617,51.48534],[-2.58616,51.48533],[-2.58621,51.4852],[-2.58634,51.48522],[-2.58638,51.48523],[-2.58637,51.48526],[-2.58632,51.48525],[-2.5863,51.48529],[-2.58627,51.48536]]]]}},
{ "type":"Feature","properties":{"osm_way_id":"272161232","name":"ABC","building":"yes","shop":"supermarket","other":{"addr:city":"Bristol","addr:housenumber":"393-395","addr:postcode":"BS7 8TS","addr:street":"Gloucester Road","addr:suburb":"Horfield","fhrs:id":"1171195","source:addr":"FHRS Open Data"}}, "geometry":{"type":"MultiPolygon","coordinates":[[[[-2.58643,51.48384],[-2.58642,51.48386],[-2.58638,51.48385],[-2.58637,51.48388],[-2.58654,51.48392],[-2.58656,51.48386],[-2.58659,51.48381],[-2.58642,51.48378],[-2.5864,51.48381],[-2.58644,51.48381],[-2.58643,51.48384]]]]}},
{ "type":"Feature","properties":{"osm_way_id":"272484229","name":"The Co-operative Food","building":"yes","shop":"supermarket","other":{"addr:city":"Bristol","addr:housenumber":"335-337","addr:postcode":"BS7 8PE","addr:street":"Gloucester Road","addr:suburb":"Bishopston","brand":"The Co-operative Food","brand:wikidata":"Q107617274","fhrs:id":"312241","opening_hours":"Mo-Sa 07:00-23:00; Su 10:00-16:00","operator":"The Co-operative Group","phone":"+44 117 924 4573","toilets:wheelchair":"no","wheelchair":"yes"}}, "geometry":{"type":"MultiPolygon","coordinates":[[[[-2.58747,51.48209],[-2.58754,51.482],[-2.58757,51.48201],[-2.5876,51.48197],[-2.58742,51.48192],[-2.5874,51.48195],[-2.58713,51.48187],[-2.58714,51.48185],[-2.5871,51.48183],[-2.58697,51.48199],[-2.5872,51.48206],[-2.58721,51.48205],[-2.58745,51.48212],[-2.58747,51.48209]]]]}},
{ "type":"Feature","properties":{"osm_way_id":"272705883","name":"Wild Oats","building":"yes","shop":"supermarket","other":{"addr:city":"Bristol","addr:housenumber":"9-11","addr:postcode":"BS6 6TB","addr:street":"Lower Redland Road","addr:suburb":"Redland","fhrs:id":"312031","organic":"only","phone":"+44 117 973 1967","website":"https:\/\/www.woats.co.uk\/"}}, "geometry":{"type":"MultiPolygon","coordinates":[[[[-2.6135,51.4691],[-2.61344,51.46912],[-2.61339,51.46909],[-2.61336,51.46905],[-2.61326,51.4691],[-2.61322,51.46906],[-2.61334,51.46903],[-2.61335,51.46904],[-2.61344,51.46902],[-2.6135,51.4691]]]]}},
{ "type":"Feature","properties":{"osm_way_id":"275133709","name":"Malik's Supermarket","building":"yes","shop":"supermarket","other":{"addr:city":"Bristol","addr:housenumber":"3-5","addr:postcode":"BS2 9QN","addr:street":"Sussex Place","addr:suburb":"Montpelier","fhrs:id":"310396","source:addr":"FHRS Open Data"}}, "geometry":{"type":"MultiPolygon","coordinates":[[[[-2.58019,51.46658],[-2.58017,51.46658],[-2.58011,51.46658],[-2.58005,51.46658],[-2.58004,51.46665],[-2.58017,51.46666],[-2.58019,51.46658]]]]}},
{ "type":"Feature","properties":{"osm_way_id":"275380664","name":"Earthbound","building":"yes","shop":"supermarket","other":{"addr:city":"Bristol","addr:housenumber":"8","addr:postcode":"BS6 6HB","addr:street":"Abbotsford Road","addr:suburb":"Cotham","fhrs:id":"311494","organic":"only","source:addr":"FHRS Open Data"}}, "geometry":{"type":"MultiPolygon","coordinates":[[[[-2.60714,51.46381],[-2.60721,51.46377],[-2.60716,51.46372],[-2.60713,51.4637],[-2.60705,51.46375],[-2.60714,51.46381]]]]}},
{ "type":"Feature","properties":{"osm_way_id":"276148161","name":"The co-operative food","building":"yes","shop":"supermarket","other":{"addr:city":"Bristol","addr:housenumber":"139-145","addr:postcode":"BS10 7LZ","addr:street":"Station Road","addr:suburb":"Henbury","fhrs:id":"312286","source:addr":"FHRS Open Data"}}, "geometry":{"type":"MultiPolygon","coordinates":[[[[-2.62979,51.51126],[-2.62962,51.51123],[-2.6295,51.51152],[-2.62965,51.51154],[-2.62969,51.51145],[-2.62987,51.51147],[-2.62991,51.51137],[-2.62976,51.51135],[-2.62979,51.51126]]]]}},
{ "type":"Feature","properties":{"osm_way_id":"277906395","name":"Costcutter","building":"yes","shop":"supermarket","other":{"addr:city":"Bristol","addr:housenumber":"131","addr:postcode":"BS6 7SN","addr:street":"Coldharbour Road","addr:suburb":"Westbury Park","brand":"Costcutter","brand:wikidata":"Q5175072","brand:wikipedia":"en:Costcutter","fhrs:id":"310925","source:addr":"FHRS Open Data"}}, "geometry":{"type":"MultiPolygon","coordinates":[[[[-2.60775,51.47839],[-2.60773,51.47838],[-2.60763,51.47835],[-2.60773,51.47824],[-2.60785,51.47828],[-2.60775,51.47839]]]]}},
{ "type":"Feature","properties":{"osm_way_id":"277928414","name":"The Co-operative Food","building":"yes","shop":"supermarket","other":{"addr:city":"Bristol","addr:housenumber":"23-27","addr:postcode":"BS8 4BX","addr:street":"Princess Victoria Street","addr:suburb":"Clifton","brand":"The Co-operative Food","brand:wikidata":"Q107617274","fhrs:id":"310832","old_name":"Somerfield","old_name2":"The Co-operative Food","opening_hours":"mo-su 07:00-23:00","operator":"The Co-operative Group","phone":"+44 117 973 0963","website":"https:\/\/www.co-operative.coop\/food"}}, "geometry":{"type":"MultiPolygon","coordinates":[[[[-2.62036,51.45441],[-2.62018,51.45446],[-2.62022,51.45452],[-2.6204,51.45447],[-2.62036,51.45441]]]]}},
{ "type":"Feature","properties":{"osm_way_id":"281701942","name":"Spar","building":"yes","shop":"supermarket","other":{"addr:city":"Bristol","addr:housenumber":"538-540","addr:postcode":"BS7 0QG","addr:street":"Filton Avenue","brand":"Spar","brand:wikidata":"Q610492","fhrs:id":"100052","opening_hours":"Mo-Su 08:00-22:00","operator":"Blakemore Retail Filton"}}, "geometry":{"type":"MultiPolygon","coordinates":[[[[-2.56969,51.50208],[-2.56977,51.50212],[-2.5698,51.50209],[-2.56984,51.5021],[-2.56986,51.50209],[-2.5699,51.5021],[-2.56999,51.50206],[-2.56994,51.50204],[-2.56951,51.50189],[-2.56944,51.50196],[-2.56969,51.50208]]]]}},
{ "type":"Feature","properties":{"osm_way_id":"282512314","name":"Iceland","building":"yes","shop":"supermarket","other":{"addr:city":"Bristol","addr:housenumber":"11-13","addr:postcode":"BS10 6AT","addr:street":"Arnside Road","brand":"Iceland","brand:wikidata":"Q721810","fhrs:id":"312038"}}, "geometry":{"type":"MultiPolygon","coordinates":[[[[-2.60304,51.50367],[-2.60287,51.50373],[-2.60278,51.50363],[-2.60295,51.50357],[-2.60304,51.50367]]]]}},
{ "type":"Feature","properties":{"osm_way_id":"288991441","name":"the co-operative food","building":"yes","shop":"supermarket","other":{"addr:city":"Bristol","addr:housenumber":"206-208","addr:postcode":"BS3 1JF","addr:street":"North Street","addr:suburb":"Bedminster","fhrs:id":"310637"}}, "geometry":{"type":"MultiPolygon","coordinates":[[[[-2.61066,51.4406],[-2.61046,51.44051],[-2.61044,51.44054],[-2.61046,51.44055],[-2.61027,51.44074],[-2.61035,51.44077],[-2.61043,51.4408],[-2.61066,51.4406]]]]}},
{ "type":"Feature","properties":{"osm_way_id":"289453747","name":"Wah Yan Hong Oriental Food Specialist","building":"retail","shop":"supermarket","other":{"addr:city":"Bristol","addr:housenumber":"13","addr:postcode":"BS1 5DY","addr:street":"Denmark Street","addr:suburb":"City Centre","building:levels":"4","fhrs:id":"310724"}}, "geometry":{"type":"MultiPolygon","coordinates":[[[[-2.59991,51.45343],[-2.60004,51.45336],[-2.59995,51.45329],[-2.59986,51.45323],[-2.5997,51.45331],[-2.59981,51.45339],[-2.59984,51.45338],[-2.59991,51.45343]]]]}},
{ "type":"Feature","properties":{"osm_way_id":"291394511","name":"Tesco Metro","building":"yes","shop":"supermarket","other":{"addr:city":"Bristol","addr:housenumber":"241-249","addr:postcode":"BS5 9HT","addr:street":"Church Road","addr:suburb":"Redfield","brand":"Tesco Metro","brand:wikidata":"Q57551648","contact:website":"https:\/\/www.tesco.com\/store-locator\/bristol\/241-249-church-rd","fhrs:id":"310831","source:addr":"FHRS Open Data"}}, "geometry":{"type":"MultiPolygon","coordinates":[[[[-2.55374,51.45965],[-2.55371,51.45954],[-2.5537,51.45952],[-2.55369,51.45952],[-2.55367,51.45951],[-2.5536,51.45952],[-2.55333,51.45955],[-2.55338,51.45972],[-2.55367,51.45969],[-2.55366,51.45966],[-2.55374,51.45965]]]]}},
{ "type":"Feature","properties":{"osm_way_id":"291529864","name":"Albercik International Minimarket","building":"yes","shop":"supermarket","other":{"organic":"only"}}, "geometry":{"type":"MultiPolygon","coordinates":[[[[-2.56376,51.45797],[-2.56366,51.45797],[-2.56366,51.45806],[-2.56374,51.45807],[-2.56376,51.45797]]]]}},
{ "type":"Feature","properties":{"osm_way_id":"291696831","name":"Co-op Food","building":"retail","shop":"supermarket","other":{"addr:city":"Bristol","addr:housenumber":"40-42A","addr:postcode":"BS1 5SH","addr:street":"College Green","addr:suburb":"City Centre","brand":"Co-op Food","brand:wikidata":"Q3277439","brand:wikipedia":"en:Co-op Food","fhrs:id":"1092237","long_name":"College Green's Co-op","opening_hours":"Mo-Su 07:00-23:00","source:addr":"FHRS Open Data"}}, "geometry":{"type":"MultiPolygon","coordinates":[[[[-2.59884,51.45242],[-2.59882,51.45259],[-2.59905,51.4526],[-2.59906,51.45243],[-2.59884,51.45242]]]]}},
{ "type":"Feature","properties":{"osm_way_id":"293919428","name":"Filton Bargains Store","building":"yes","shop":"supermarket","other":{"addr:city":"Bristol","addr:postcode":"BS7 0PA","addr:street":"Filton Road"}}, "geometry":{"type":"MultiPolygon","coordinates":[[[[-2.58169,51.49513],[-2.58172,51.49508],[-2.58175,51.49503],[-2.58159,51.49499],[-2.58157,51.49502],[-2.58161,51.49503],[-2.58159,51.49507],[-2.58155,51.49506],[-2.58153,51.49509],[-2.58169,51.49513]]]]}},
{ "type":"Feature","properties":{"osm_way_id":"294081126","name":"Co-op","building":"yes","shop":"supermarket","other":{"addr:city":"Bristol","addr:housenumber":"60-64","addr:postcode":"BS7 0PB","addr:street":"Filton Road","addr:suburb":"Horfield","fhrs:id":"312146","opening_hours":"Mo-Su 06:00-23:00","source:addr":"FHRS Open Data"}}, "geometry":{"type":"MultiPolygon","coordinates":[[[[-2.58057,51.4967],[-2.58081,51.49675],[-2.58083,51.49671],[-2.58086,51.49667],[-2.58088,51.49662],[-2.58056,51.49655],[-2.58055,51.49658],[-2.58063,51.49659],[-2.58062,51.49661],[-2.58059,51.49666],[-2.58057,51.4967]]]]}},
{ "type":"Feature","properties":{"osm_way_id":"297341887","name":"Lidl","building":"yes","shop":"supermarket","other":{"addr:city":"Bristol","addr:housenumber":"135","addr:place":"Hanham","addr:postcode":"BS15 3QY","addr:street":"High Street","brand":"Lidl","brand:wikidata":"Q151954","brand:wikipedia":"en:Lidl","fhrs:id":"137665","operator":"Lidl"}}, "geometry":{"type":"MultiPolygon","coordinates":[[[[-2.51199,51.44833],[-2.5117,51.44823],[-2.51202,51.44786],[-2.5123,51.44796],[-2.51231,51.44796],[-2.51239,51.44798],[-2.51227,51.44812],[-2.5122,51.4481],[-2.51199,51.44833]]]]}},
{ "type":"Feature","properties":{"osm_way_id":"297351494","name":"Co-op Food","building":"yes","shop":"supermarket","other":{"addr:city":"Bristol","addr:housenumber":"33-37","addr:place":"Hanham","addr:postcode":"BS15 3DJ","addr:street":"High Street","brand":"Co-op Food","brand:wikidata":"Q3277439","brand:wikipedia":"en:Co-op Food","fhrs:id":"40809","operator":"Coop"}}, "geometry":{"type":"MultiPolygon","coordinates":[[[[-2.51786,51.4499],[-2.51802,51.45],[-2.51789,51.45002],[-2.51785,51.45004],[-2.5179,51.4501],[-2.51806,51.45002],[-2.51813,51.45],[-2.51817,51.44999],[-2.51819,51.45],[-2.5183,51.44993],[-2.51818,51.44985],[-2.51817,51.44986],[-2.51805,51.44978],[-2.51786,51.4499]]]]}},
{ "type":"Feature","properties":{"osm_way_id":"302511999","name":"Tesco Express","building":"yes","shop":"supermarket","other":{"addr:city":"Bristol","addr:housenumber":"33","addr:postcode":"BS3 4RJ","addr:street":"Oxford Street","addr:suburb":"Totterdown","brand":"Tesco Express","brand:wikidata":"Q98456772","brand:wikipedia":"en:Tesco","fhrs:id":"312021","source:addr":"FHRS Open Data"}}, "geometry":{"type":"MultiPolygon","coordinates":[[[[-2.57868,51.44212],[-2.57874,51.44212],[-2.57872,51.44196],[-2.57835,51.44198],[-2.57838,51.44214],[-2.57841,51.44214],[-2.57868,51.44212]]]]}},
{ "type":"Feature","properties":{"osm_way_id":"303152177","name":"Winterbourne Co-op","building":"retail","shop":"supermarket","other":{"addr:city":"Bristol","addr:housenumber":"6","addr:postcode":"BS36 1BQ","addr:street":"Dragon Road","fhrs:id":"100201"}}, "geometry":{"type":"MultiPolygon","coordinates":[[[[-2.50859,51.52267],[-2.50822,51.52268],[-2.50822,51.52267],[-2.5082,51.52267],[-2.50821,51.52256],[-2.50814,51.52256],[-2.50815,51.52249],[-2.50857,51.52248],[-2.50858,51.5226],[-2.50859,51.52267]]]]}},
{ "type":"Feature","properties":{"osm_way_id":"305129288","name":"ALDI","building":"supermarket","shop":"supermarket","other":{"addr:city":"Bristol","addr:housenumber":"106","addr:place":"Longwell Green","addr:postcode":"BS30 9DE","addr:street":"Bath Road","brand":"ALDI","brand:wikidata":"Q41171672","brand:wikipedia":"en:Aldi","fhrs:id":"692213"}}, "geometry":{"type":"MultiPolygon","coordinates":[[[[-2.49579,51.43791],[-2.49535,51.43807],[-2.49536,51.43808],[-2.49507,51.43819],[-2.49489,51.438],[-2.49492,51.43798],[-2.49487,51.43793],[-2.49521,51.4378],[-2.49517,51.43776],[-2.49543,51.43766],[-2.49544,51.43767],[-2.49553,51.43764],[-2.49579,51.43791]]]]}},
{ "type":"Feature","properties":{"osm_way_id":"305131863","name":"Tesco Express","building":"shop","shop":"supermarket","other":{"addr:city":"Bristol","addr:housenumber":"89A","addr:place":"Longwell Green","addr:postcode":"BS30 9DF","addr:street":"Bath Road","brand":"Tesco Express","brand:wikidata":"Q98456772","fhrs:id":"150489"}}, "geometry":{"type":"MultiPolygon","coordinates":[[[[-2.49343,51.43789],[-2.49346,51.43788],[-2.49351,51.43791],[-2.4935,51.43792],[-2.49351,51.43793],[-2.49353,51.43792],[-2.49357,51.43796],[-2.49329,51.43807],[-2.49322,51.438],[-2.49308,51.43805],[-2.49307,51.43796],[-2.4934,51.43784],[-2.49344,51.43787],[-2.49343,51.43788],[-2.49343,51.43789]]]]}},
{ "type":"Feature","properties":{"osm_way_id":"311927586","name":"ALDI","building":"retail","shop":"supermarket","other":{"brand":"ALDI","brand:wikidata":"Q41171672","brand:wikipedia":"en:Aldi"}}, "geometry":{"type":"MultiPolygon","coordinates":[[[[-1.84108,52.42707],[-1.8403,52.42729],[-1.84018,52.42714],[-1.84043,52.42707],[-1.84038,52.427],[-1.8405,52.42696],[-1.84047,52.42692],[-1.84067,52.42686],[-1.84071,52.42691],[-1.84092,52.42685],[-1.84108,52.42707]]]]}},
{ "type":"Feature","properties":{"osm_way_id":"326372660","name":"The Better Food Company","building":"yes","shop":"supermarket","other":{"addr:city":"Bristol","addr:housename":"Scrapstore House","addr:housenumber":"21","addr:postcode":"BS2 9LB","addr:street":"Sevier Street","addr:suburb":"St Werburghs","fhrs:id":"311389","organic":"yes","source:addr":"FHRS Open Data"}}, "geometry":{"type":"MultiPolygon","coordinates":[[[[-2.57835,51.46903],[-2.57825,51.46895],[-2.57833,51.46889],[-2.57847,51.4688],[-2.57862,51.46874],[-2.57874,51.46869],[-2.57882,51.46867],[-2.5789,51.46873],[-2.57835,51.46903]]]]}},
{ "type":"Feature","properties":{"osm_way_id":"332983391","name":"masala bazaar","building":"yes","shop":"supermarket","other":{"addr:city":"Bristol","addr:housenumber":"382-386","addr:postcode":"BS5 6NQ","addr:street":"Stapleton Road","addr:suburb":"Easton","fhrs:id":"310984","source:addr":"FHRS Open Data"}}, "geometry":{"type":"MultiPolygon","coordinates":[[[[-2.56687,51.46873],[-2.56667,51.46861],[-2.56639,51.46882],[-2.5665,51.46889],[-2.56658,51.46882],[-2.56668,51.46887],[-2.56687,51.46873]]]]}},
{ "type":"Feature","properties":{"osm_way_id":"335960632","name":"Co-op Food","building":"supermarket","shop":"supermarket","other":{"addr:postcode":"BA2 6AA","brand":"Co-op Food","brand:wikidata":"Q3277439","brand:wikipedia":"en:Co-op Food","fhrs:id":"914664","opening_hours":"Mo-Su 07:00-22:30","toilets:wheelchair":"no","website":"https:\/\/www.coop.co.uk\/store\/food\/BA2-6AA\/ground-floor-retail-unit","wheelchair":"yes"}}, "geometry":{"type":"MultiPolygon","coordinates":[[[[-2.35298,51.37664],[-2.35307,51.37652],[-2.35294,51.37649],[-2.35287,51.3766],[-2.35298,51.37664]]]]}},
{ "type":"Feature","properties":{"osm_way_id":"338067598","name":"Dino Supermarket","building":"yes","shop":"supermarket"},"geometry":{"type":"MultiPolygon","coordinates":[[[[-2.6206,51.50934],[-2.62066,51.50945],[-2.62071,51.50954],[-2.62079,51.50952],[-2.62086,51.5095],[-2.62084,51.50946],[-2.62075,51.50931],[-2.62068,51.50932],[-2.6206,51.50934]]]]}},
{ "type":"Feature","properties":{"osm_way_id":"338067611","name":"Iceland","building":"yes","shop":"supermarket","other":{"addr:city":"Bristol","addr:housenumber":"139-141","addr:postcode":"BS10 7DS","addr:street":"Crow Lane","addr:suburb":"Henbury","brand":"Iceland","brand:wikidata":"Q721810","fhrs:id":"310348","source:addr":"FHRS Open Data"}}, "geometry":{"type":"MultiPolygon","coordinates":[[[[-2.62213,51.50915],[-2.62217,51.50923],[-2.62221,51.50923],[-2.62222,51.50925],[-2.62218,51.50925],[-2.6222,51.50928],[-2.62205,51.50932],[-2.62197,51.50919],[-2.6219,51.50906],[-2.62189,51.50905],[-2.62194,51.50904],[-2.62194,51.50905],[-2.62198,51.50904],[-2.62197,51.50903],[-2.62201,51.50902],[-2.62201,51.50903],[-2.62205,51.50902],[-2.62213,51.50915]]]]}},
{ "type":"Feature","properties":{"osm_way_id":"338067619","name":"Co-op","building":"yes","shop":"supermarket","other":{"addr:city":"Bristol","addr:housenumber":"149","addr:postcode":"BS10 7DR","addr:street":"Crow Lane","addr:suburb":"Henbury","description":"Welcome to Crow Lane's Co-op","fhrs:id":"312090"}}, "geometry":{"type":"MultiPolygon","coordinates":[[[[-2.62177,51.50939],[-2.62143,51.50946],[-2.62135,51.50932],[-2.62128,51.50934],[-2.62128,51.50933],[-2.62121,51.5092],[-2.62161,51.50912],[-2.62169,51.50925],[-2.62177,51.50939]]]]}},
{ "type":"Feature","properties":{"osm_way_id":"346991207","name":"S.S.A. Wholesale Cash & Carry","building":"yes","shop":"supermarket"},"geometry":{"type":"MultiPolygon","coordinates":[[[[-2.55975,51.47228],[-2.55979,51.47223],[-2.55981,51.47224],[-2.55987,51.47217],[-2.55983,51.47216],[-2.55962,51.47209],[-2.55943,51.47218],[-2.55955,51.47221],[-2.55975,51.47228]]]]}},
{ "type":"Feature","properties":{"osm_way_id":"353721543","name":"The Food Warehouse","building":"retail","shop":"supermarket","other":{"addr:city":"Bristol","addr:postcode":"BS32 8BS","brand":"The Food Warehouse","brand:wikidata":"Q87263899","fhrs:id":"742136","operator":"Iceland","source:outline":"Bing"}}, "geometry":{"type":"MultiPolygon","coordinates":[[[[-2.54975,51.53617],[-2.55029,51.53586],[-2.55009,51.53573],[-2.55001,51.53577],[-2.54985,51.53586],[-2.54955,51.53603],[-2.54975,51.53617]]]]}},
{ "type":"Feature","properties":{"osm_way_id":"353951000","name":"Malik's","building":"retail","shop":"supermarket","other":{"addr:city":"Bristol","addr:housenumber":"20-26","addr:postcode":"BS5 0QX","addr:street":"Stapleton Road","addr:suburb":"Easton","building:levels":"2","fhrs:id":"509696","source:addr":"FHRS Open Data"}}, "geometry":{"type":"MultiPolygon","coordinates":[[[[-2.57636,51.45943],[-2.57643,51.45941],[-2.57649,51.45939],[-2.57657,51.45936],[-2.57668,51.45949],[-2.57669,51.4595],[-2.57661,51.45953],[-2.57656,51.45947],[-2.5765,51.45949],[-2.57643,51.45951],[-2.57636,51.45953],[-2.57638,51.45956],[-2.57635,51.45957],[-2.57636,51.45958],[-2.57631,51.4596],[-2.57627,51.45961],[-2.57625,51.4596],[-2.57623,51.45961],[-2.57621,51.45958],[-2.57614,51.4595],[-2.57621,51.45948],[-2.57629,51.45945],[-2.57636,51.45943]]]]}},
{ "type":"Feature","properties":{"osm_way_id":"361154348","name":"Tesco Express","building":"apartments","shop":"supermarket","other":{"addr:city":"Bristol","addr:postcode":"BS1 5JZ","addr:street":"Canons Way","addr:suburb":"City Centre","brand":"Tesco Express","brand:wikidata":"Q98456772","fhrs:id":"310456","source:addr":"FHRS Open Data"}}, "geometry":{"type":"MultiPolygon","coordinates":[[[[-2.60289,51.44987],[-2.6029,51.44994],[-2.60275,51.44995],[-2.60282,51.44987],[-2.60289,51.44987]]]]}},
{ "type":"Feature","properties":{"osm_way_id":"371019932","name":"The co-operative food","building":"yes","shop":"supermarket","other":{"addr:city":"Bristol","addr:housenumber":"174-178","addr:postcode":"BS4 2AL","addr:street":"Wells Road","addr:suburb":"Totterdown","fhrs:id":"310647","source:addr":"FHRS Open Data","wheelchair":"yes"}}, "geometry":{"type":"MultiPolygon","coordinates":[[[[-2.57346,51.43998],[-2.57366,51.44011],[-2.57364,51.44012],[-2.57351,51.4402],[-2.57339,51.44027],[-2.57319,51.44013],[-2.57346,51.43998]]]]}},
{ "type":"Feature","properties":{"osm_way_id":"372111939","name":"Co-op","building":"yes","shop":"supermarket","other":{"addr:city":"Bristol","addr:housenumber":"193-195","addr:postcode":"BS11 9EG","addr:street":"Avonmouth Road","addr:suburb":"Avonmouth","fhrs:id":"312028","long_name":"Avonmouth's Co-op"}}, "geometry":{"type":"MultiPolygon","coordinates":[[[[-2.69525,51.49916],[-2.69533,51.49919],[-2.69535,51.49916],[-2.69544,51.49905],[-2.6954,51.49904],[-2.69537,51.49908],[-2.69533,51.49907],[-2.6953,51.49906],[-2.69533,51.49902],[-2.69529,51.49901],[-2.69518,51.49914],[-2.69525,51.49916]]]]}},
{ "type":"Feature","properties":{"osm_way_id":"378764317","name":"The Food Warehouse","building":"yes","shop":"supermarket","other":{"addr:city":"Bristol","addr:country":"GB","addr:housename":"South Bristol Retail Park","addr:postcode":"BS3 2LQ","addr:street":"Winterstoke Road","addr:unit":"B","brand:wikidata":"Q87263899","contact:website":"https:\/\/www.thefoodwarehouse.com\/store-locator\/ashton-gate-south-bristol","opening_hours":"Mo-Sa 09:00-20:00; Su 10:30-16:30"}}, "geometry":{"type":"MultiPolygon","coordinates":[[[[-2.62011,51.43817],[-2.61943,51.43854],[-2.61964,51.43868],[-2.61987,51.43856],[-2.62032,51.43832],[-2.62011,51.43817]]]]}},
{ "type":"Feature","properties":{"osm_way_id":"390721995","name":"Sainsbury's","shop":"supermarket","other":{"addr:city":"Bristol","addr:housename":"Clifton Down Shopping Centre","addr:postcode":"BS8 2NN","addr:street":"Whiteladies Road","addr:suburb":"Clifton","addr:unit":"17","brand":"Sainsbury's","brand:wikidata":"Q152096","brand:wikipedia":"en:Sainsbury's","fhrs:id":"312034","indoor":"room","layer":"1","level":"0","phone":"+44 117 973 2348","room":"shop","source:addr":"FHRS Open Data","website":"https:\/\/stores.sainsburys.co.uk\/2202\/clifton-down"}}, "geometry":{"type":"MultiPolygon","coordinates":[[[[-2.61048,51.46385],[-2.61079,51.4638],[-2.61099,51.46377],[-2.6111,51.46375],[-2.61133,51.46431],[-2.6107,51.46441],[-2.61065,51.46427],[-2.61061,51.46418],[-2.61054,51.46399],[-2.61048,51.46385]]]]}},
{ "type":"Feature","properties":{"osm_way_id":"394676529","name":"M&S Foodhall","building":"retail","shop":"supermarket","other":{"addr:city":"Bristol","addr:housename":"Eastgate Retail Park","addr:postcode":"BS5 6XX","addr:street":"Eastgate Road","addr:suburb":"Eastville","brand":"M&S Foodhall","brand:wikidata":"Q714491","brand:wikipedia":"en:Marks & Spencer","building:levels":"1","height":"8"}}, "geometry":{"type":"MultiPolygon","coordinates":[[[[-2.56719,51.47238],[-2.56777,51.47266],[-2.5676,51.47279],[-2.56702,51.47251],[-2.56707,51.47248],[-2.56703,51.47246],[-2.56711,51.4724],[-2.56715,51.47242],[-2.56719,51.47238]]]]}},
{ "type":"Feature","properties":{"osm_way_id":"395171832","name":"Bristol Sweet Mart","building":"yes","shop":"supermarket","other":{"addr:city":"Bristol","addr:country":"GB","addr:housenumber":"71","addr:postcode":"BS5 6HX","addr:street":"Saint Marks Road","addr:suburb":"Easton","fhrs:id":"310439","source:addr":"FHRS Open Data"}}, "geometry":{"type":"MultiPolygon","coordinates":[[[[-2.56478,51.46769],[-2.56479,51.46762],[-2.56467,51.46762],[-2.56462,51.46762],[-2.56459,51.46765],[-2.56459,51.46767],[-2.56459,51.46768],[-2.56478,51.46769]]]]}},
{ "type":"Feature","properties":{"osm_way_id":"398985600","name":"Alfu International","building":"yes","shop":"supermarket"},"geometry":{"type":"MultiPolygon","coordinates":[[[[-2.53097,51.47963],[-2.53076,51.47969],[-2.53077,51.47971],[-2.53084,51.47979],[-2.53095,51.47994],[-2.531,51.47992],[-2.53103,51.47996],[-2.53106,51.47994],[-2.53114,51.48004],[-2.53126,51.48],[-2.53097,51.47963]]]]}},
{ "type":"Feature","properties":{"osm_way_id":"400335396","name":"Co-op Food","building":"yes","shop":"supermarket","other":{"addr:city":"Bristol","addr:postcode":"BS16 5UJ","brand":"Co-op Food","brand:wikidata":"Q3277439","brand:wikipedia":"en:Co-op Food","fhrs:id":"53866"}}, "geometry":{"type":"MultiPolygon","coordinates":[[[[-2.50451,51.48806],[-2.50431,51.48814],[-2.50455,51.48836],[-2.50457,51.48836],[-2.50475,51.48828],[-2.50451,51.48806]]]]}},
{ "type":"Feature","properties":{"osm_way_id":"401103364","name":"Bristol Sweet Mart","building":"yes","shop":"supermarket","other":{"addr:city":"Bristol","addr:country":"GB","addr:housenumber":"78-82","addr:postcode":"BS5 6JH","addr:street":"Saint Marks Road","addr:suburb":"Easton","fhrs:id":"385083"}}, "geometry":{"type":"MultiPolygon","coordinates":[[[[-2.56443,51.46769],[-2.56428,51.46769],[-2.56427,51.46774],[-2.56414,51.46773],[-2.56413,51.46781],[-2.5642,51.46781],[-2.5642,51.46784],[-2.56415,51.46784],[-2.56415,51.4679],[-2.56441,51.4679],[-2.56442,51.46786],[-2.56442,51.46782],[-2.56442,51.46778],[-2.56442,51.46774],[-2.56443,51.46769]]]]}},
{ "type":"Feature","properties":{"osm_way_id":"401508504","name":"Tesco Express","building":"yes","shop":"supermarket","other":{"addr:city":"Bristol","addr:housenumber":"314","addr:postcode":"BS16 3PQ","addr:street":"Lodge Causeway","addr:suburb":"Fishponds","brand":"Tesco Express","brand:wikidata":"Q98456772","fhrs:id":"312327","source:addr":"FHRS Open Data"}}, "geometry":{"type":"MultiPolygon","coordinates":[[[[-2.52384,51.47154],[-2.52365,51.47151],[-2.52362,51.47158],[-2.52356,51.4717],[-2.52371,51.47176],[-2.52374,51.47176],[-2.52384,51.47154]]]]}},
{ "type":"Feature","properties":{"osm_way_id":"402525827","name":"Londis","building":"yes","shop":"supermarket","other":{"addr:city":"Bristol","addr:housenumber":"56","addr:postcode":"BS4 1NL","addr:street":"Leinster Avenue","addr:suburb":"Knowle","fhrs:id":"1202349","source:addr":"FHRS Open Data"}}, "geometry":{"type":"MultiPolygon","coordinates":[[[[-2.59214,51.42587],[-2.59201,51.42593],[-2.59209,51.426],[-2.59222,51.42606],[-2.59225,51.42605],[-2.59228,51.42609],[-2.59236,51.42605],[-2.59231,51.42601],[-2.59214,51.42587]]]]}},
{ "type":"Feature","properties":{"osm_way_id":"405901696","name":"Lidl","building":"yes","shop":"supermarket","other":{"addr:city":"Bristol","addr:housename":"Brislington Retail Park","addr:housenumber":"800-802","addr:postcode":"BS4 5LQ","addr:street":"Bath Road","addr:suburb":"Brislington","brand":"Lidl","brand:wikidata":"Q151954","brand:wikipedia":"en:Lidl","fhrs:id":"312389"}}, "geometry":{"type":"MultiPolygon","coordinates":[[[[-2.54609,51.43115],[-2.54553,51.43061],[-2.5454,51.43066],[-2.54544,51.43071],[-2.54525,51.43079],[-2.54558,51.43112],[-2.54552,51.43114],[-2.54569,51.43131],[-2.54609,51.43115]]]]}},
{ "type":"Feature","properties":{"osm_way_id":"405940916","name":"The co-operative food","building":"yes","shop":"supermarket","other":{"addr:city":"Bristol","addr:housenumber":"68","addr:postcode":"BS4 4SD","addr:street":"Broomhill Road","addr:suburb":"Brislington","fhrs:id":"312024"}}, "geometry":{"type":"MultiPolygon","coordinates":[[[[-2.53828,51.44052],[-2.53811,51.44045],[-2.53793,51.44037],[-2.5377,51.44058],[-2.53806,51.44073],[-2.53828,51.44052]]]]}},
{ "type":"Feature","properties":{"osm_way_id":"409834068","name":"Rajani","building":"yes","shop":"supermarket","other":{"addr:city":"Bristol","addr:postcode":"BS5 7EW","addr:street":"Clay Hill","addr:suburb":"Saint George","building:levels":"2","fhrs:id":"585685","source:addr":"FHRS Open Data"}}, "geometry":{"type":"MultiPolygon","coordinates":[[[[-2.54338,51.47064],[-2.54334,51.47089],[-2.54334,51.4709],[-2.54328,51.47126],[-2.54289,51.47129],[-2.54251,51.47121],[-2.54258,51.47073],[-2.54261,51.47073],[-2.54263,51.4706],[-2.54338,51.47064]]]]}},
{ "type":"Feature","properties":{"osm_way_id":"422591722","name":"Wai Yee Hong ","building":"commercial","shop":"supermarket","other":{"addr:city":"Bristol","addr:country":"GB","addr:housename":"Eastgate Oriental City","addr:postcode":"BS5 6XX","addr:street":"Eastgate Road","addr:suburb":"Eastville","building:levels":"3","cuisine":"chinese","name:en":"Wai Yee Hong","name:zh":"","opening_hours":"Mo-Sa 10:30-18:00, Su 11:00-17:00","phone":"+44 117 952 4240","smoking":"outside","website":"https:\/\/www.waiyeehong.com"}}, "geometry":{"type":"MultiPolygon","coordinates":[[[[-2.56907,51.47287],[-2.56904,51.47286],[-2.56906,51.47285],[-2.56907,51.47284],[-2.56908,51.47284],[-2.56909,51.47284],[-2.56911,51.47283],[-2.56912,51.47283],[-2.56914,51.47283],[-2.56916,51.47283],[-2.56917,51.47283],[-2.56919,51.47283],[-2.5692,51.47284],[-2.56922,51.47284],[-2.56923,51.47285],[-2.56925,51.47285],[-2.56923,51.47287],[-2.56933,51.47292],[-2.56945,51.47294],[-2.56947,51.47292],[-2.56958,51.47297],[-2.56957,51.47298],[-2.56956,51.47299],[-2.56984,51.47313],[-2.56986,51.47315],[-2.56987,51.47316],[-2.56988,51.47317],[-2.56988,51.47318],[-2.56988,51.47318],[-2.56987,51.47319],[-2.56987,51.4732],[-2.56986,51.4732],[-2.56986,51.47321],[-2.56986,51.47321],[-2.56986,51.47322],[-2.56985,51.47321],[-2.56961,51.47341],[-2.56929,51.47325],[-2.56928,51.47325],[-2.56927,51.47325],[-2.56926,51.47325],[-2.56925,51.47325],[-2.56924,51.47325],[-2.56923,51.47325],[-2.56922,51.47325],[-2.56921,51.47325],[-2.5692,51.47325],[-2.56919,51.47325],[-2.56918,51.47325],[-2.56917,51.47324],[-2.56916,51.47324],[-2.56916,51.47324],[-2.56915,51.47324],[-2.56914,51.47323],[-2.56914,51.47323],[-2.56913,51.47322],[-2.56913,51.47322],[-2.56912,51.47321],[-2.56912,51.47321],[-2.56912,51.4732],[-2.56912,51.4732],[-2.56912,51.47319],[-2.56912,51.47319],[-2.56912,51.47318],[-2.56912,51.47318],[-2.56912,51.47317],[-2.56912,51.47317],[-2.56901,51.47312],[-2.56901,51.47312],[-2.569,51.47312],[-2.56899,51.47312],[-2.56898,51.47312],[-2.56897,51.47312],[-2.56896,51.47312],[-2.56894,51.47311],[-2.56892,51.4731],[-2.5689,51.4731],[-2.56889,51.47309],[-2.56887,51.47308],[-2.56886,51.47308],[-2.56889,51.47305],[-2.56892,51.47303],[-2.56894,51.47302],[-2.56896,51.473],[-2.56898,51.47298],[-2.569,51.47296],[-2.56902,51.47295],[-2.5691,51.47289],[-2.56907,51.47287]]]]}},
{ "type":"Feature","properties":{"osm_way_id":"440418932","name":"Tesco","shop":"supermarket","other":{"addr:city":"Keynsham","addr:postcode":"BS31 2BA","addr:street":"Bristol Road","alt_name":"Tesco Keynsham Superstore","brand":"Tesco","brand:wikidata":"Q487494","brand:wikipedia":"en:Tesco","contact:website":"https:\/\/www.tesco.com\/store-locator\/keynsham\/bristol-rd","fhrs:id":"204308"}}, "geometry":{"type":"MultiPolygon","coordinates":[[[[-2.50208,51.41672],[-2.50208,51.41672],[-2.50085,51.41708],[-2.50095,51.41723],[-2.50054,51.41734],[-2.49987,51.41641],[-2.50039,51.41627],[-2.50042,51.41631],[-2.50111,51.41618],[-2.50117,51.41621],[-2.50155,51.41618],[-2.50169,51.41638],[-2.50184,51.41634],[-2.50208,51.41672]]]]}},
{ "type":"Feature","properties":{"osm_way_id":"440526474","name":"Morrisons","shop":"supermarket","other":{"addr:postcode":"BA1 6AE","addr:street":"York Place, London Road","brand":"Morrisons","brand:wikidata":"Q922344","brand:wikipedia":"en:Morrisons","fhrs:id":"204981","toilets":"yes","toilets:wheelchair":"yes","website":"https:\/\/my.morrisons.com\/storefinder\/320","wheelchair":"yes"}}, "geometry":{"type":"MultiPolygon","coordinates":[[[[-2.34986,51.39218],[-2.34951,51.39171],[-2.34994,51.39164],[-2.34975,51.391],[-2.35129,51.39091],[-2.35198,51.39165],[-2.35167,51.39176],[-2.35175,51.39184],[-2.35155,51.39191],[-2.35172,51.392],[-2.35147,51.39211],[-2.35124,51.39187],[-2.35102,51.39196],[-2.35089,51.39181],[-2.34986,51.39218]]]]}},
{ "type":"Feature","properties":{"osm_way_id":"440528495","name":"Co-op Food","shop":"supermarket","other":{"addr:postcode":"BA2 3LH","brand":"Co-op Food","brand:wikidata":"Q3277439","brand:wikipedia":"en:Co-op Food","fhrs:id":"205397","opening_hours":"Mo-Sa 07:00-23:00; Su 10:00-16:00","website":"https:\/\/www.coop.co.uk\/store\/food\/BA2-3LH\/shaftsbury-road","wheelchair":"yes"}}, "geometry":{"type":"MultiPolygon","coordinates":[[[[-2.37823,51.37728],[-2.37762,51.37782],[-2.37755,51.37782],[-2.37733,51.37789],[-2.37734,51.37795],[-2.37723,51.37799],[-2.37703,51.37777],[-2.3774,51.37764],[-2.3772,51.37743],[-2.37761,51.37723],[-2.37729,51.37696],[-2.37758,51.37681],[-2.37771,51.37693],[-2.3778,51.3769],[-2.37823,51.37728]]]]}},
{ "type":"Feature","properties":{"osm_way_id":"440664666","name":"Lidl","shop":"supermarket","other":{"addr:city":"Midsomer Norton","addr:housenumber":"39","addr:postcode":"BA3 2DL","addr:street":"High Street","brand":"Lidl","brand:wikidata":"Q151954","brand:wikipedia":"en:Lidl","fhrs:id":"204825","website":"https:\/\/www.lidl.co.uk\/en\/index.htm"}}, "geometry":{"type":"MultiPolygon","coordinates":[[[[-2.47914,51.28834],[-2.47907,51.2883],[-2.47887,51.28822],[-2.47879,51.28821],[-2.47893,51.28804],[-2.47912,51.28787],[-2.47917,51.28785],[-2.47922,51.28785],[-2.47925,51.28788],[-2.47968,51.28816],[-2.47961,51.28819],[-2.4797,51.28827],[-2.4796,51.2883],[-2.47995,51.28867],[-2.47945,51.28879],[-2.47914,51.28834]]]]}},
{ "type":"Feature","properties":{"osm_way_id":"440674171","name":"The Co-operative Food","building":"supermarket","shop":"supermarket","other":{"addr:postcode":"BA3 3SX","fhrs:id":"203995","operator":"Radstock Co-operative Society","website":"https:\/\/www.coop.co.uk\/store\/food\/BA3-3SX\/elm-tree-avenue"}}, "geometry":{"type":"MultiPolygon","coordinates":[[[[-2.46523,51.28686],[-2.46515,51.28679],[-2.46505,51.28683],[-2.46513,51.28691],[-2.46523,51.28686]]]]}},
{ "type":"Feature","properties":{"osm_way_id":"440674831","name":"Iceland","building":"supermarket","shop":"supermarket","other":{"addr:city":"Bristol","addr:housenumber":"14-18","addr:place":"Keynsham","addr:postcode":"BS31 1EG","addr:street":"Temple Street","brand":"Iceland","brand:wikidata":"Q721810","brand:wikipedia":"en:Iceland (supermarket)","contact:website":"https:\/\/www.iceland.co.uk\/store-finder\/store?StoreID=376&StoreName=KEYNSHAM","fhrs:id":"204234","source:addr":"FHRS Open Data"}}, "geometry":{"type":"MultiPolygon","coordinates":[[[[-2.49788,51.41389],[-2.49781,51.41373],[-2.49789,51.41371],[-2.49802,51.41372],[-2.49822,51.41372],[-2.4983,51.4139],[-2.49803,51.41394],[-2.49788,51.41389]]]]}},
{ "type":"Feature","properties":{"osm_way_id":"440721225","name":"The Co-operative Food","building":"yes","shop":"supermarket","other":{"addr:city":"Chew Magna","addr:housenumber":"15","addr:postcode":"BS40 8RA","addr:street":"Harford Square","fhrs:id":"204501","opening_hours":"Mo-Su 07:00-22:00","operator":"Radstock Co-operative Society","website":"https:\/\/www.coop.co.uk\/store\/food\/BS40-8RA\/15-harford-square"}}, "geometry":{"type":"MultiPolygon","coordinates":[[[[-2.61099,51.3659],[-2.61095,51.36585],[-2.61097,51.36583],[-2.61103,51.36582],[-2.61137,51.3658],[-2.61138,51.36584],[-2.61104,51.36585],[-2.61106,51.36588],[-2.61099,51.3659]]]]}},
{ "type":"Feature","properties":{"osm_way_id":"440723052","name":"Co-op Food","shop":"supermarket","other":{"addr:city":"Bath","addr:country":"GB","addr:postcode":"BA1 6SA","addr:street":"Saint Saviour's Road","addr:suburb":"Larkhall","brand":"Co-op Food","brand:wikidata":"Q3277439","brand:wikipedia":"en:Co-op Food","fhrs:id":"204182","opening_hours":"Mo-Sa 07:00-22:00; Su 10:00-16:00","operator":"The Co-operative Group","operator:wikidata":"Q117202","operator:wikipedia":"en:The Co-operative Group","website":"https:\/\/www.coop.co.uk\/store\/food\/BA1-6RT\/st-saviours-road"}}, "geometry":{"type":"MultiPolygon","coordinates":[[[[-2.344,51.39776],[-2.34477,51.39793],[-2.34492,51.39765],[-2.34457,51.39757],[-2.34401,51.39774],[-2.344,51.39776]]]]}},
{ "type":"Feature","properties":{"osm_way_id":"442595170","name":"M&S Foodhall","building":"retail","shop":"supermarket","other":{"addr:city":"Yate","addr:housenumber":"39-41","addr:postcode":"BS37 4AS","addr:street":"East Walk","brand":"M&S Foodhall","brand:wikidata":"Q714491","brand:wikipedia":"en:Marks & Spencer","fhrs:id":"543234","opening_hours":"Mo-Sa 08:00-20:00; Su 10:00-16:00"}}, "geometry":{"type":"MultiPolygon","coordinates":[[[[-2.41155,51.54014],[-2.4114,51.54047],[-2.41137,51.54053],[-2.41101,51.54046],[-2.41119,51.54008],[-2.41155,51.54014]]]]}},
{ "type":"Feature","properties":{"osm_way_id":"445190991","name":"Asda","building":"retail","shop":"supermarket","other":{"addr:city":"Bristol","addr:postcode":"BS34 5TL","addr:street":"Highwood Lane","addr:suburb":"Patchway","brand":"Asda","brand:wikidata":"Q297410","brand:wikipedia":"en:Asda","contact:facebook":"https:\/\/www.facebook.com\/asda\/","contact:twitter":"@asda","contact:website":"https:\/\/storelocator.asda.com\/south-west\/bristol\/highwood-lane","fhrs:id":"100038","operator":"Asda Stores Ltd"}}, "geometry":{"type":"MultiPolygon","coordinates":[[[[-2.59592,51.53026],[-2.59591,51.53021],[-2.59605,51.53021],[-2.59605,51.53027],[-2.5979,51.53025],[-2.59789,51.53019],[-2.59804,51.53019],[-2.59804,51.53021],[-2.59804,51.53022],[-2.59804,51.53025],[-2.59822,51.53024],[-2.59857,51.53024],[-2.59858,51.53055],[-2.59858,51.5307],[-2.59849,51.5307],[-2.59849,51.53081],[-2.59841,51.53082],[-2.59841,51.53086],[-2.5983,51.53086],[-2.59737,51.53087],[-2.59738,51.53106],[-2.59677,51.53106],[-2.59677,51.53104],[-2.59616,51.53105],[-2.59616,51.53113],[-2.59594,51.53113],[-2.59592,51.53026]]]]}},
{ "type":"Feature","properties":{"osm_way_id":"450047259","name":"Aldi","building":"yes","shop":"supermarket","other":{"addr:city":"Bristol","addr:housenumber":"670-680","addr:postcode":"BS16 3HJ","addr:street":"Fishponds Road","addr:suburb":"Fishponds","brand":"ALDI","brand:wikidata":"Q41171672","brand:wikipedia":"en:Aldi","fhrs:id":"452543","source:addr":"FHRS Open Data"}}, "geometry":{"type":"MultiPolygon","coordinates":[[[[-2.53409,51.47834],[-2.5338,51.47795],[-2.53375,51.47797],[-2.53367,51.47787],[-2.53336,51.47796],[-2.5334,51.47801],[-2.53343,51.478],[-2.53362,51.47826],[-2.53358,51.47827],[-2.53371,51.47844],[-2.53373,51.47845],[-2.53409,51.47834]]]]}},
{ "type":"Feature","properties":{"osm_way_id":"450902253","name":"Marks & Spencer Foodhall","building":"supermarket","shop":"supermarket","other":{"addr:postcode":"BA2 1EP","brand":"M&S Foodhall","brand:wikidata":"Q714491","fhrs:id":"909470","toilets:wheelchair":"yes","website":"https:\/\/www.marksandspencer.com\/","wheelchair":"yes"}}, "geometry":{"type":"MultiPolygon","coordinates":[[[[-2.38886,51.3811],[-2.38877,51.38088],[-2.3895,51.38075],[-2.3896,51.38098],[-2.38886,51.3811]]]]}},
{ "type":"Feature","properties":{"osm_way_id":"466509525","name":"Ding Sing Oriental Supermarket","building":"retail","shop":"supermarket","other":{"addr:city":"Bristol","addr:country":"GB","addr:housenumber":"2-4","addr:postcode":"BS1 3DB","addr:street":"Fairfax Street","addr:suburb":"City Centre","cuisine":"asian;bubble_tea","fhrs:id":"731410","name:zh":"","opening_hours":"Mo-Su 11:00-20:00","source:addr":"FHRS Open Data"}}, "geometry":{"type":"MultiPolygon","coordinates":[[[[-2.59282,51.45654],[-2.59285,51.45659],[-2.5928,51.45661],[-2.59264,51.45651],[-2.5927,51.45646],[-2.59282,51.45654]]]]}},
{ "type":"Feature","properties":{"osm_way_id":"474676685","name":"The Co-operative Food","shop":"supermarket","other":{"addr:city":"Bristol","addr:postcode":"BS39 6TQ","fhrs:id":"688881","operator":"Radstock Co-operative Society"}}, "geometry":{"type":"MultiPolygon","coordinates":[[[[-2.53293,51.29987],[-2.53301,51.29955],[-2.53367,51.29952],[-2.53364,51.2997],[-2.53359,51.29995],[-2.53293,51.29987]]]]}},
{ "type":"Feature","properties":{"osm_way_id":"478445695","name":"The Co-Operative Fosseway","building":"retail","shop":"supermarket","other":{"addr:postcode":"BA3 4AX","fhrs:id":"462969","operator":"adstock Co-operative Society Ltd"}}, "geometry":{"type":"MultiPolygon","coordinates":[[[[-2.47349,51.2792],[-2.47337,51.27934],[-2.47309,51.27924],[-2.4732,51.27911],[-2.47349,51.2792]]]]}},
{ "type":"Feature","properties":{"osm_way_id":"478455426","name":"Central Convenience Stores","building":"retail","shop":"supermarket","other":{"addr:city":"Temple Cloud","addr:housename":"Temple Cloud Garage","addr:postcode":"BS39 5BZ","addr:street":"Main Road","fhrs:id":"1046933","website":"http:\/\/www.centralconveniencestores.co.uk\/"}}, "geometry":{"type":"MultiPolygon","coordinates":[[[[-2.54445,51.32062],[-2.54451,51.32073],[-2.5446,51.32071],[-2.54463,51.32075],[-2.54469,51.32074],[-2.5446,51.32059],[-2.54445,51.32062]]]]}},
{ "type":"Feature","properties":{"osm_way_id":"481334437","name":"Lidl","shop":"supermarket","other":{"addr:city":"Bath","addr:postcode":"BA2 1ES","addr:street":"Lower Bristol Road","brand":"Lidl","brand:wikidata":"Q151954","fhrs:id":"764769","opening_hours":"Mo-Sa 07:00-22:00; Su 10:00-16:00; PH 08:00-20:00","website":"https:\/\/www.lidl.co.uk\/en\/785.htm","wheelchair":"yes"}}, "geometry":{"type":"MultiPolygon","coordinates":[[[[-2.3873,51.38167],[-2.38702,51.381],[-2.38767,51.38079],[-2.38774,51.3808],[-2.38776,51.38082],[-2.38804,51.38117],[-2.38798,51.3812],[-2.38804,51.38128],[-2.38811,51.38131],[-2.38816,51.38134],[-2.38825,51.38139],[-2.38829,51.38143],[-2.38832,51.38151],[-2.3873,51.38167]]]]}},
{ "type":"Feature","properties":{"osm_way_id":"491788541","name":"Spar","building":"retail","shop":"supermarket","other":{"addr:housenumber":"6","addr:postcode":"BA1 3DU","addr:street":"Chelsea Road","brand":"Spar","brand:wikidata":"Q610492","fhrs:id":"205436","website":"https:\/\/www.spar.co.uk\/store-locator\/awl24238-spar-goss-chelsea-road","wheelchair":"yes"}}, "geometry":{"type":"MultiPolygon","coordinates":[[[[-2.38868,51.38504],[-2.38866,51.38494],[-2.38851,51.38495],[-2.38853,51.38505],[-2.38868,51.38504]]]]}},
{ "type":"Feature","properties":{"osm_way_id":"496706209","name":"The Co-operative Food","building":"yes","shop":"supermarket","other":{"addr:city":"Bristol","addr:housenumber":"347","addr:postcode":"BS5 8AA","addr:street":"Church Road","addr:suburb":"Saint George","brand":"The Co-operative Food","brand:wikidata":"Q107617274","fhrs:id":"429244","opening_hours":"Mo-Su 08:00-22:00","source:addr":"FHRS Open Data"}}, "geometry":{"type":"MultiPolygon","coordinates":[[[[-2.54804,51.45957],[-2.54782,51.45962],[-2.54789,51.45971],[-2.54797,51.45969],[-2.54796,51.45967],[-2.54794,51.45963],[-2.54805,51.45962],[-2.54804,51.45957]]]]}},
{ "type":"Feature","properties":{"osm_way_id":"497777169","name":"The co-operative food","building":"yes","shop":"supermarket","other":{"addr:city":"Bristol","addr:postcode":"BS15 3LH","addr:street":"Memorial Road"}}, "geometry":{"type":"MultiPolygon","coordinates":[[[[-2.51965,51.4401],[-2.5196,51.44005],[-2.51951,51.43996],[-2.51939,51.44001],[-2.5194,51.44003],[-2.51935,51.44005],[-2.51938,51.44008],[-2.51934,51.4401],[-2.51927,51.44013],[-2.51931,51.44017],[-2.51938,51.44014],[-2.51942,51.44019],[-2.51965,51.4401]]]]}},
{ "type":"Feature","properties":{"osm_way_id":"532096842","name":"owiczanka","building":"yes","shop":"supermarket","other":{"addr:city":"Yate","addr:housenumber":"28","addr:postcode":"BS37 4PW","addr:street":"Station Road","alt_name":"Lowiczanka","building:levels":"2","cuisine":"polish","fhrs:id":"934337"}}, "geometry":{"type":"MultiPolygon","coordinates":[[[[-2.42862,51.54065],[-2.42857,51.54065],[-2.42858,51.54058],[-2.42862,51.54058],[-2.42862,51.54065]]]]}},
{ "type":"Feature","properties":{"osm_way_id":"546310903","name":"Co-op Food","building":"yes","shop":"supermarket","other":{"brand":"Co-op Food","brand:wikidata":"Q3277439","brand:wikipedia":"en:Co-op Food","operator":"The Co-operative Group","operator:wikidata":"Q117202","operator:wikipedia":"en:The Co-operative Group"}}, "geometry":{"type":"MultiPolygon","coordinates":[[[[-2.39956,51.62862],[-2.3998,51.62885],[-2.39952,51.62896],[-2.39938,51.62881],[-2.39954,51.62875],[-2.39945,51.62866],[-2.39956,51.62862]]]]}},
{ "type":"Feature","properties":{"osm_way_id":"546927862","name":"Lidl","building":"yes","shop":"supermarket","other":{"addr:city":"Bristol","addr:postcode":"BS34 8SP","addr:street":"Fox Den Road","addr:suburb":"Stoke Gifford","addr:unit":"2a","brand":"Lidl","brand:wikidata":"Q151954","brand:wikipedia":"en:Lidl","fhrs:id":"1127486","source:addr":"FHRS Open Data"}}, "geometry":{"type":"MultiPolygon","coordinates":[[[[-2.54987,51.50729],[-2.54982,51.50727],[-2.55004,51.50707],[-2.55009,51.50709],[-2.55019,51.50701],[-2.55055,51.50716],[-2.55104,51.50737],[-2.55072,51.50766],[-2.54987,51.50729]]]]}},
{ "type":"Feature","properties":{"osm_way_id":"565994835","name":"Lidl","building":"retail","shop":"supermarket","other":{"addr:city":"Bristol","addr:postcode":"BS11 0PZ","addr:street":"Stile Acres","addr:suburb":"Lawrence Weston","brand":"Lidl","brand:wikidata":"Q151954","brand:wikipedia":"en:Lidl","building:levels":"1","fhrs:id":"1027597","source:addr":"FHRS Open Data"}}, "geometry":{"type":"MultiPolygon","coordinates":[[[[-2.65698,51.5034],[-2.65618,51.50298],[-2.6563,51.50289],[-2.65633,51.5029],[-2.65637,51.50292],[-2.65655,51.50279],[-2.65729,51.50317],[-2.65698,51.5034]]]]}},
{ "type":"Feature","properties":{"osm_way_id":"575147506","name":"M&S Simply Food","building":"yes","shop":"supermarket","other":{"addr:city":"Bristol","addr:housenumber":"40A","addr:postcode":"BS8 2AZ","addr:street":"Whiteladies Road","addr:suburb":"Clifton","brand":"M&S Simply Food","brand:wikidata":"Q714491","brand:wikipedia":"en:Marks & Spencer","fhrs:id":"1108859"}}, "geometry":{"type":"MultiPolygon","coordinates":[[[[-2.60892,51.46215],[-2.60889,51.4621],[-2.60898,51.46208],[-2.60899,51.46209],[-2.60908,51.46206],[-2.60924,51.46225],[-2.60919,51.46227],[-2.60921,51.4623],[-2.60919,51.46233],[-2.60899,51.46239],[-2.60894,51.46234],[-2.60888,51.46216],[-2.60892,51.46215]]]]}},
{ "type":"Feature","properties":{"osm_way_id":"628660810","name":"M&S Foodhall","building":"yes","shop":"supermarket","other":{"brand":"M&S Foodhall","brand:wikidata":"Q714491"}}, "geometry":{"type":"MultiPolygon","coordinates":[[[[-2.60155,51.41721],[-2.60172,51.41709],[-2.60113,51.41675],[-2.60096,51.41687],[-2.60155,51.41721]]]]}},
{ "type":"Feature","properties":{"osm_way_id":"629126623","name":"Lidl","building":"retail","shop":"supermarket","other":{"addr:city":"Yate","addr:postcode":"BS37 4BA","addr:street":"Kennedy Way","brand":"Lidl","brand:wikidata":"Q151954","fhrs:id":"145477","opening_hours":"Mo-Sa 08:00-20:00; Su 10:00-16:00"}}, "geometry":{"type":"MultiPolygon","coordinates":[[[[-2.41411,51.53875],[-2.41403,51.53878],[-2.41396,51.53869],[-2.41404,51.53867],[-2.4141,51.53853],[-2.41492,51.53867],[-2.41487,51.53878],[-2.41474,51.53876],[-2.4147,51.53886],[-2.41411,51.53875]]]]}},
{ "type":"Feature","properties":{"osm_way_id":"631336711","name":"International Food Centre","building":"yes","shop":"supermarket","other":{"addr:housenumber":"585-587","addr:street":"Fishponds Road"}}, "geometry":{"type":"MultiPolygon","coordinates":[[[[-2.53802,51.47702],[-2.53788,51.47708],[-2.53787,51.47707],[-2.5378,51.47701],[-2.53793,51.47695],[-2.53802,51.47702]]]]}},
{ "type":"Feature","properties":{"osm_way_id":"644590729","name":"Lidl","building":"retail","shop":"supermarket","other":{"addr:city":"Bristol","addr:place":"Avon Meads Shopping Park","addr:postcode":"BS2 0SP","addr:street":"St Philips Causeway","addr:suburb":"St Philip's Marsh","addr:unit":"3","brand":"Lidl","brand:wikidata":"Q151954","brand:wikipedia":"en:Lidl","building:levels":"1","wheelchair":"yes"}}, "geometry":{"type":"MultiPolygon","coordinates":[[[[-2.55963,51.44823],[-2.55941,51.44795],[-2.56014,51.44773],[-2.56036,51.44801],[-2.55963,51.44823]]]]}},
{ "type":"Feature","properties":{"osm_way_id":"672259788","name":"Iceland","building":"retail","shop":"supermarket","other":{"addr:city":"Bristol","addr:postcode":"BS13 0BE","addr:street":"Peterson Avenue","addr:unit":"1-3","brand":"Iceland","brand:wikidata":"Q721810","brand:wikipedia":"en:Iceland (supermarket)","building:levels":"1","fhrs:id":"310830","source:addr":"FHRS Open Data"}}, "geometry":{"type":"MultiPolygon","coordinates":[[[[-2.59813,51.40521],[-2.59781,51.40515],[-2.5979,51.40497],[-2.59822,51.40503],[-2.59813,51.40521]]]]}},
{ "type":"Feature","properties":{"osm_way_id":"672766236","name":"Iceland","building":"yes","shop":"supermarket","other":{"addr:city":"Bristol","addr:housenumber":"2-8","addr:postcode":"BS3 4HG","addr:street":"St Catherine's Place","addr:suburb":"Bedminster","alt_name":"Iceland Bedminster","brand":"Iceland","brand:wikidata":"Q721810","brand:wikipedia":"en:Iceland (supermarket)","fhrs:id":"310899"}}, "geometry":{"type":"MultiPolygon","coordinates":[[[[-2.59573,51.44155],[-2.59584,51.44166],[-2.59602,51.44185],[-2.59594,51.44188],[-2.59581,51.44193],[-2.59552,51.44164],[-2.59573,51.44155]]]]}},
{ "type":"Feature","properties":{"osm_way_id":"700157424","name":"Lidl","building":"yes","shop":"supermarket","other":{"addr:city":"Bristol","addr:postcode":"BS15 8JD","addr:street":"Halls Road","brand":"Lidl","brand:wikidata":"Q151954","brand:wikipedia":"en:Lidl","fhrs:id":"1040561"}}, "geometry":{"type":"MultiPolygon","coordinates":[[[[-2.51075,51.46105],[-2.50968,51.46116],[-2.50977,51.4615],[-2.51077,51.46139],[-2.51072,51.46123],[-2.51071,51.46118],[-2.51078,51.46117],[-2.51075,51.46105]]]]}},
{ "type":"Feature","properties":{"osm_way_id":"726980893","name":"Lidl","building":"yes","shop":"supermarket","other":{"addr:city":"Bristol","addr:postcode":"BS34 5WG","addr:street":"Ring Mead","brand":"Lidl","brand:wikidata":"Q151954","brand:wikipedia":"en:Lidl","fhrs:id":"1289103"}}, "geometry":{"type":"MultiPolygon","coordinates":[[[[-2.57619,51.52499],[-2.57524,51.52497],[-2.57517,51.52497],[-2.57518,51.52479],[-2.57509,51.52479],[-2.5751,51.52467],[-2.57625,51.5247],[-2.57625,51.52476],[-2.5762,51.52475],[-2.57619,51.52499]]]]}},
{ "type":"Feature","properties":{"osm_way_id":"753332580","name":"Frampton Cotterell Services","building":"retail","shop":"supermarket","other":{"operator":"Costcutter"}}, "geometry":{"type":"MultiPolygon","coordinates":[[[[-2.49105,51.53706],[-2.49098,51.53709],[-2.49108,51.53717],[-2.49127,51.53706],[-2.49117,51.53699],[-2.49105,51.53706]]]]}},
{ "type":"Feature","properties":{"osm_way_id":"767399077","name":"The Deal Depot","building":"retail","shop":"supermarket","other":{"addr:city":"Bristol","addr:postcode":"BS34 5TL","addr:street":"Highwood Lane","addr:suburb":"Patchway"}}, "geometry":{"type":"MultiPolygon","coordinates":[[[[-2.59594,51.53113],[-2.59572,51.53113],[-2.5957,51.53027],[-2.59592,51.53026],[-2.59594,51.53113]]]]}},
{ "type":"Feature","properties":{"osm_way_id":"769789622","name":"The Co-operative Food","building":"apartments","shop":"supermarket","other":{"addr:city":"Bristol","addr:housenumber":"171-178","addr:postcode":"BS3 1RF","addr:street":"Coronation Road","addr:suburb":"Southville","brand":"The Co-operative Food","brand:wikidata":"Q3277439","brand:wikipedia":"en:Co-op Food","fhrs:id":"1205213","source:addr":"FHRS Open Data"}}, "geometry":{"type":"MultiPolygon","coordinates":[[[[-2.61019,51.44576],[-2.6102,51.44579],[-2.61014,51.44579],[-2.61015,51.44587],[-2.61021,51.44589],[-2.61068,51.44585],[-2.61066,51.44578],[-2.61064,51.44579],[-2.61063,51.44575],[-2.61033,51.44577],[-2.61032,51.44575],[-2.61019,51.44576]]]]}},
{ "type":"Feature","properties":{"osm_way_id":"822257665","name":"Food Plus","building":"yes","shop":"supermarket","other":{"addr:street":"Two Mile Hill Road"}}, "geometry":{"type":"MultiPolygon","coordinates":[[[[-2.51436,51.46331],[-2.51416,51.4633],[-2.51415,51.46338],[-2.51413,51.46347],[-2.51433,51.46348],[-2.51435,51.46339],[-2.51436,51.46331]]]]}},
{ "type":"Feature","properties":{"osm_way_id":"844308378","name":"Co-op Food","building":"yes","shop":"supermarket","other":{"brand":"Co-op Food","brand:wikidata":"Q3277439","brand:wikipedia":"en:Co-op Food","operator":"Southern Co-operative"}}, "geometry":{"type":"MultiPolygon","coordinates":[[[[-2.52711,51.462],[-2.527,51.46178],[-2.52695,51.46179],[-2.52694,51.46178],[-2.52682,51.4618],[-2.52682,51.46181],[-2.52678,51.46182],[-2.52683,51.46193],[-2.52678,51.46194],[-2.52683,51.46205],[-2.52688,51.46204],[-2.52688,51.46204],[-2.52711,51.462]]]]}},
{ "type":"Feature","properties":{"osm_way_id":"900745069","building":"semidetached_house","other":{"addr:city":"Bristol","addr:housenumber":"4","addr:postcode":"BS16 2NX","addr:street":"Ella Close","building:levels":"2"}}, "geometry":{"type":"MultiPolygon","coordinates":[[[[-2.51936,51.48653],[-2.51929,51.4865],[-2.51937,51.48643],[-2.51944,51.48646],[-2.51936,51.48653]]]]}},
{ "type":"Feature","properties":{"osm_way_id":"908848020","name":"Aldi","building":"supermarket","shop":"supermarket","other":{"brand":"ALDI","brand:wikidata":"Q41171672","brand:wikipedia":"en:Aldi"}}, "geometry":{"type":"MultiPolygon","coordinates":[[[[-2.59696,51.41569],[-2.59667,51.41592],[-2.5959,51.41553],[-2.59619,51.4153],[-2.59696,51.41569]]]]}},
{ "type":"Feature","properties":{"osm_way_id":"919152461","name":"Perfecto","building":"retail","shop":"supermarket","other":{"addr:housename":"West Point","addr:housenumber":"Unit 2","addr:postcode":"BA1 1UN","addr:street":"Avon Street","fhrs:id":"1366001","toilets:wheelchair":"no","website":"https:\/\/perfectomarket.com\/","wheelchair":"yes"}}, "geometry":{"type":"MultiPolygon","coordinates":[[[[-2.36349,51.38071],[-2.36324,51.38063],[-2.36309,51.38061],[-2.36308,51.38072],[-2.36326,51.38076],[-2.36341,51.38082],[-2.36349,51.38071]]]]}},
{ "type":"Feature","properties":{"osm_way_id":"939527406","building":"yes"},"geometry":{"type":"MultiPolygon","coordinates":[[[[-2.48068,51.31616],[-2.48064,51.31617],[-2.48068,51.31621],[-2.48071,51.31619],[-2.48068,51.31616]]]]}},
{ "type":"Feature","properties":{"osm_way_id":"986915289","name":"Lidl","building":"yes","shop":"supermarket","other":{"addr:city":"Bristol","addr:postcode":"BS30 7TX","addr:street":"Aldermoor Way","brand":"Lidl","brand:wikidata":"Q151954","brand:wikipedia":"en:Lidl","fhrs:id":"1296514"}}, "geometry":{"type":"MultiPolygon","coordinates":[[[[-2.50036,51.4424],[-2.50007,51.44272],[-2.50059,51.44291],[-2.50088,51.44259],[-2.50036,51.4424]]]]}}
]
}
