{
"type": "FeatureCollection",
"features": [
{ "type":"Feature","properties":{"osm_id":"1309564744","other":{"power":"pole"}}, "geometry":{"type":"Point","coordinates":[-2.19892,52.14765 ]}},
{ "type":"Feature","properties":{"osm_id":"1309564749","name":"Saint Marys Church Kempsey","other":{"power":"pole","transformer":"distribution"}}, "geometry":{"type":"Point","coordinates":[-2.22215,52.13958 ]}},
{ "type":"Feature","properties":{"osm_id":"2195826245","other":{"building":"warehouse"}}, "geometry":{"type":"Point","coordinates":[-1.46295,51.37992 ]}},
{ "type":"Feature","properties":{"osm_id":"5556124875","ref":"1","other":{"amenity":"loading_dock"}}, "geometry":{"type":"Point","coordinates":[-1.07183,51.43482 ]}},
{ "type":"Feature","properties":{"osm_id":"5556124878","ref":"4","other":{"amenity":"loading_dock"}}, "geometry":{"type":"Point","coordinates":[-1.0716,51.43483 ]}},
{ "type":"Feature","properties":{"osm_id":"5556124887","ref":"3","other":{"amenity":"loading_dock"}}, "geometry":{"type":"Point","coordinates":[-1.07167,51.43483 ]}},
{ "type":"Feature","properties":{"osm_id":"5556124889","ref":"6","other":{"amenity":"loading_dock"}}, "geometry":{"type":"Point","coordinates":[-1.07109,51.43488 ]}},
{ "type":"Feature","properties":{"osm_id":"5556124896","ref":"2","other":{"amenity":"loading_dock"}}, "geometry":{"type":"Point","coordinates":[-1.07174,51.43482 ]}},
{ "type":"Feature","properties":{"osm_id":"5556124898","ref":"5","other":{"amenity":"loading_dock"}}, "geometry":{"type":"Point","coordinates":[-1.07115,51.43487 ]}},
{ "type":"Feature","properties":{"osm_way_id":"73862790","building":"warehouse"},"geometry":{"type":"MultiPolygon","coordinates":[[[[-1.11855,51.36705],[-1.11811,51.36665],[-1.11704,51.36711],[-1.11749,51.36751],[-1.11855,51.36705]]]]}},
{ "type":"Feature","properties":{"osm_way_id":"133318583","building":"warehouse","other":{"building:levels":"1"}}, "geometry":{"type":"MultiPolygon","coordinates":[[[[-1.072,51.43482],[-1.0719,51.43483],[-1.07189,51.43481],[-1.07183,51.43482],[-1.07174,51.43482],[-1.07167,51.43483],[-1.0716,51.43483],[-1.07154,51.43484],[-1.07155,51.43486],[-1.07138,51.43488],[-1.07138,51.43485],[-1.07115,51.43487],[-1.07109,51.43488],[-1.07103,51.43488],[-1.07103,51.4349],[-1.07094,51.43491],[-1.0711,51.43564],[-1.07216,51.43554],[-1.072,51.43482]]]]}},
{ "type":"Feature","properties":{"osm_way_id":"133318596","name":"Lockhart","building":"warehouse","office":"company","other":{"addr:postcode":"RG7 4XE"}}, "geometry":{"type":"MultiPolygon","coordinates":[[[[-1.07029,51.43449],[-1.07001,51.43452],[-1.07002,51.43455],[-1.06963,51.43458],[-1.06987,51.43572],[-1.07056,51.43566],[-1.07032,51.43452],[-1.0703,51.43453],[-1.07029,51.43449]]]]}},
{ "type":"Feature","properties":{"osm_way_id":"203678330","name":"DPD","building":"warehouse","office":"logistics","other":{"addr:city":"Newbury","addr:street":"Hambridge Lane"}}, "geometry":{"type":"MultiPolygon","coordinates":[[[[-1.28994,51.39796],[-1.28963,51.3979],[-1.28954,51.39806],[-1.2892,51.39799],[-1.28929,51.39783],[-1.28897,51.39777],[-1.28921,51.3973],[-1.29018,51.3975],[-1.28994,51.39796]]]]}},
{ "type":"Feature","properties":{"osm_way_id":"203695748","name":"Kuehne Nagel","building":"warehouse","other":{"addr:postcode":"RG19 4NJ"}}, "geometry":{"type":"MultiPolygon","coordinates":[[[[-1.23447,51.39621],[-1.23434,51.39521],[-1.2384,51.395],[-1.23842,51.39522],[-1.23876,51.3952],[-1.23886,51.39599],[-1.23447,51.39621]]]]}},
{ "type":"Feature","properties":{"osm_way_id":"203695773","building":"warehouse","other":{"addr:postcode":"RG19 4AL","operator":"Harrods"}}, "geometry":{"type":"MultiPolygon","coordinates":[[[[-1.23252,51.3965],[-1.22964,51.3967],[-1.22946,51.39569],[-1.23234,51.39549],[-1.23252,51.3965]]]]}},
{ "type":"Feature","properties":{"osm_way_id":"941043903","name":"Amazon UK Services","building":"warehouse","other":{"addr:city":"Reading","addr:postcode":"RG7 4BQ","addr:street":"Brunel Road"}}, "geometry":{"type":"MultiPolygon","coordinates":[[[[-1.06951,51.43457],[-1.06814,51.43468],[-1.06837,51.43576],[-1.06975,51.43565],[-1.06951,51.43457]]]]}},
{ "type":"Feature","properties":{"osm_way_id":"953930941","building":"warehouse"},"geometry":{"type":"MultiPolygon","coordinates":[[[[-1.32919,51.39705],[-1.32865,51.39708],[-1.32865,51.3971],[-1.32823,51.39711],[-1.32822,51.39704],[-1.32825,51.39704],[-1.32823,51.3969],[-1.32917,51.39686],[-1.32919,51.39705]]]]}},
{ "type":"Feature","properties":{"osm_way_id":"957433554","building":"warehouse"},"geometry":{"type":"MultiPolygon","coordinates":[[[[-1.55261,51.47068],[-1.5515,51.47069],[-1.5515,51.47036],[-1.55261,51.47035],[-1.55261,51.47068]]]]}},
{ "type":"Feature","properties":{"osm_way_id":"957433555","building":"warehouse"},"geometry":{"type":"MultiPolygon","coordinates":[[[[-1.55289,51.47107],[-1.55161,51.47107],[-1.55161,51.47074],[-1.55289,51.47074],[-1.55289,51.47107]]]]}},
{ "type":"Feature","properties":{"osm_way_id":"1031028356","name":"Butts Brewery","building":"warehouse","other":{"addr:city":"Great Shefford","addr:postcode":"RG17 7BY","addr:street":"Wantage Road","fax":"01488 648134","phone":"01488 648133","website":"http:\/\/www.buttsbrewery.com\/"}}, "geometry":{"type":"MultiPolygon","coordinates":[[[[-1.43765,51.48655],[-1.43768,51.48647],[-1.43735,51.48644],[-1.43733,51.48652],[-1.43765,51.48655]]]]}},
{ "type":"Feature","properties":{"osm_way_id":"1040002031","building":"warehouse"},"geometry":{"type":"MultiPolygon","coordinates":[[[[-1.33914,51.37712],[-1.33874,51.37711],[-1.33874,51.37698],[-1.33914,51.37698],[-1.33914,51.37712]]]]}},
{ "type":"Feature","properties":{"osm_way_id":"1040002032","building":"warehouse"},"geometry":{"type":"MultiPolygon","coordinates":[[[[-1.33921,51.37686],[-1.33867,51.37685],[-1.33868,51.37674],[-1.33922,51.37675],[-1.33921,51.37686]]]]}}
]
}
