{
"type": "FeatureCollection",
"features": [
{ "type":"Feature","properties":{"osm_id":"6173636299","name":"Epsom Food Express","other":{"addr:housenumber":"15","addr:postcode":"KT17 4QY","addr:street":"Upper High Street","fhrs:id":"1015409","shop":"supermarket","source:addr":"FHRS Open Data"}}, "geometry":{"type":"Point","coordinates":[-0.26293,51.33429 ]}},
{ "type":"Feature","properties":{"osm_id":"6173636301","name":"Co-op Food","other":{"addr:housenumber":"9","addr:postcode":"KT17 4QY","addr:street":"Upper High Street","brand":"Co-op Food","brand:wikidata":"Q3277439","brand:wikipedia":"en:Co-op Food","fhrs:id":"591152","operator":"The Co-operative Group","operator:wikidata":"Q117202","operator:wikipedia":"en:The Co-operative Group","shop":"supermarket","source:addr":"FHRS Open Data"}}, "geometry":{"type":"Point","coordinates":[-0.26319,51.33425 ]}},
{ "type":"Feature","properties":{"osm_id":"6187878848","name":"M&S Simply Food","other":{"brand":"M&S Simply Food","brand:wikidata":"Q714491","brand:wikipedia":"en:Marks & Spencer","shop":"supermarket"}}, "geometry":{"type":"Point","coordinates":[-0.27302,51.32617 ]}},
{ "type":"Feature","properties":{"osm_id":"6188558206","name":"Sainsbury's","other":{"branch":"Kiln Lane Click & Collect","brand":"Sainsbury's","brand:wikidata":"Q152096","brand:wikipedia":"en:Sainsbury's","shop":"supermarket"}}, "geometry":{"type":"Point","coordinates":[-0.25599,51.34063 ]}},
{ "type":"Feature","properties":{"osm_id":"9476422503","name":"Sainsbury's","other":{"branch":"Kiln Lane Superstore","brand":"Sainsbury's","brand:wikidata":"Q152096","brand:wikipedia":"en:Sainsbury's","shop":"supermarket"}}, "geometry":{"type":"Point","coordinates":[-0.25747,51.34141 ]}},
{ "type":"Feature","properties":{"osm_way_id":"4978336","name":"Sainsbury's","building":"yes","shop":"supermarket","other":{"addr:city":"Epsom","addr:postcode":"KT17 1EQ","addr:street":"Kiln Lane","alt_name":"Sainsbury's Kiln Lane Superstore","brand":"Sainsbury's","brand:wikidata":"Q152096","brand:wikipedia":"en:Sainsbury's","fhrs:id":"7713","opening_hours":"Mo-We 07:00-22:00; Th-Fr 07:00-24:00; Sa 07:00-22:00; Su 10:00-16:00","operator":"Sainsbury's Supermarkets Ltd","phone":"+44 1372 745240","toilets":"yes","wheelchair":"yes"}}, "geometry":{"type":"MultiPolygon","coordinates":[[[[-0.2586,51.34187],[-0.2585,51.34174],[-0.25878,51.34165],[-0.25884,51.34151],[-0.25863,51.34147],[-0.25872,51.34144],[-0.25856,51.34126],[-0.25838,51.34103],[-0.25807,51.34112],[-0.25781,51.3412],[-0.25779,51.34121],[-0.25776,51.34117],[-0.2576,51.34122],[-0.25764,51.34126],[-0.25705,51.34144],[-0.25708,51.34148],[-0.25663,51.34161],[-0.25668,51.34167],[-0.25712,51.34222],[-0.25736,51.34215],[-0.25745,51.34225],[-0.25798,51.34208],[-0.25798,51.34209],[-0.25842,51.34195],[-0.25841,51.34194],[-0.2586,51.34187]]]]}},
{ "type":"Feature","properties":{"osm_way_id":"266454639","name":"Sainsbury's Local","building":"yes","shop":"supermarket","other":{"addr:housename":"1 Mercury House","addr:housenumber":"4-8","addr:postcode":"KT17 1SN","addr:street":"Cheam Road","alt_name":"Sainsbury's Ewell Cheam Road Local","brand:wikidata":"Q13218434","fhrs:id":"486979"}}, "geometry":{"type":"MultiPolygon","coordinates":[[[[-0.24879,51.34881],[-0.24867,51.34869],[-0.24858,51.34863],[-0.2486,51.34862],[-0.24857,51.3486],[-0.24851,51.34854],[-0.24865,51.34843],[-0.24874,51.34849],[-0.24883,51.34854],[-0.24899,51.34843],[-0.24893,51.3484],[-0.24903,51.34834],[-0.24911,51.34839],[-0.24915,51.34836],[-0.24925,51.34842],[-0.24915,51.34849],[-0.24921,51.34852],[-0.24919,51.34853],[-0.24879,51.34881]]]]}},
{ "type":"Feature","properties":{"osm_way_id":"266454640","name":"Welcome","building":"commercial","shop":"supermarket","other":{"addr:country":"GB","addr:housenumber":"82-88","addr:postcode":"KT17 1RE","addr:street":"HIgh Street","fhrs:id":"9055","operator":"The Southern Co-operative Limited"}}, "geometry":{"type":"MultiPolygon","coordinates":[[[[-0.25045,51.34778],[-0.25031,51.3477],[-0.25016,51.34766],[-0.2501,51.34777],[-0.25015,51.34778],[-0.25029,51.34787],[-0.25045,51.34778]]]]}},
{ "type":"Feature","properties":{"osm_way_id":"557710806","name":"Aldi","building":"yes","shop":"supermarket","other":{"addr:housenumber":"379-393","addr:postcode":"KT19 0BS","addr:street":"Kingston Road","brand":"ALDI","brand:wikidata":"Q41171672","brand:wikipedia":"en:Aldi","building:colour":"brown","building:levels":"2","building:material":"brick","building:use":"commercial","changing_table":"no","fhrs:id":"800541","level":"0","opening_hours":"Mo-Sa 08:00-22:00; Su 10:00-16:00; PH closed","organic":"no","roof:orientation":"along","source:addr":"FHRS Open Data","toilets:access":"private","toilets:wheelchair":"no","wheelchair":"yes"}}, "geometry":{"type":"MultiPolygon","coordinates":[[[[-0.26392,51.36756],[-0.26431,51.36732],[-0.26461,51.36753],[-0.26475,51.36744],[-0.26444,51.36724],[-0.26441,51.36726],[-0.26413,51.36708],[-0.26364,51.36738],[-0.26392,51.36756]]]]}},
{ "type":"Feature","properties":{"osm_way_id":"676778032","name":"Co-op Food","building":"retail","shop":"supermarket","other":{"addr:housenumber":"138","addr:postcode":"KT19 9JS","addr:street":"Ruxley Lane","brand":"Co-op Food","brand:wikidata":"Q3277439","brand:wikipedia":"en:Co-op Food","fhrs:id":"680081","source:addr":"FHRS Open Data"}}, "geometry":{"type":"MultiPolygon","coordinates":[[[[-0.2749,51.36389],[-0.27466,51.36376],[-0.27461,51.36379],[-0.27442,51.36392],[-0.27459,51.36402],[-0.27461,51.364],[-0.27467,51.36403],[-0.27475,51.36398],[-0.27476,51.36398],[-0.2749,51.36389]]]]}},
{ "type":"Feature","properties":{"osm_way_id":"886517210","building":"detached","other":{"addr:housenumber":"1","addr:street":"St Normans Way","building:levels":"2"}}, "geometry":{"type":"MultiPolygon","coordinates":[[[[-0.24205,51.3457],[-0.2419,51.34563],[-0.24188,51.34565],[-0.24188,51.34567],[-0.24182,51.34572],[-0.24196,51.34578],[-0.24199,51.34576],[-0.242,51.34577],[-0.24204,51.34573],[-0.24202,51.34572],[-0.24205,51.3457]]]]}}
]
}
