{
"type": "FeatureCollection",
"features": [
{ "type":"Feature","properties":{"osm_id":"419161025","name":"Sainsbury's","other":{"addr:city":"Culcheth","addr:housenumber":"7","addr:postcode":"WA3 4EH","addr:street":"Common Lane","brand":"Sainsbury's","brand:wikidata":"Q152096","fhrs:id":"420962","shop":"supermarket"}}, "geometry":{"type":"Point","coordinates":[-2.52091,53.45249 ]}},
{ "type":"Feature","properties":{"osm_id":"444335961","name":"Asda","other":{"addr:city":"Warrington","addr:country":"GB","addr:housename":"Cockhedge Shopping Centre","addr:postcode":"WA1 2QA","addr:street":"Cockhedge Way","addr:unit":"6","brand":"Asda","brand:wikidata":"Q297410","brand:wikipedia":"en:Asda","contact:website":"https:\/\/storelocator.asda.com\/north-west\/warrington\/tilly-lane","fhrs:id":"420110","operator":"Asda Stores Ltd","shop":"supermarket"}}, "geometry":{"type":"Point","coordinates":[-2.59007,53.39145 ]}},
{ "type":"Feature","properties":{"osm_id":"3786003412","name":"Tesco Express","other":{"addr:housenumber":"194-196","addr:postcode":"WA4 2QJ","addr:street":"Knutsford Road","brand":"Tesco Express","brand:wikidata":"Q98456772","brand:wikipedia":"en:Tesco","contact:website":"https:\/\/www.tesco.com\/store-locator\/grappenhall\/194-196-knutsford-rd","fhrs:id":"421088","shop":"supermarket","source:addr":"FHRS Open Data"}}, "geometry":{"type":"Point","coordinates":[-2.54228,53.37694 ]}},
{ "type":"Feature","properties":{"osm_id":"3961612875","name":"ALDI","other":{"addr:housenumber":"29","addr:postcode":"WA4 6NJ","addr:street":"Walton Road","brand":"ALDI","brand:wikidata":"Q41171672","brand:wikipedia":"en:Aldi","fhrs:id":"419242","shop":"supermarket","source:addr":"FHRS Open Data"}}, "geometry":{"type":"Point","coordinates":[-2.58168,53.37018 ]}},
{ "type":"Feature","properties":{"osm_id":"3961619083","name":"M&S Foodhall","other":{"addr:postcode":"WA4 6HW","brand":"M&S Foodhall","brand:wikidata":"Q714491","brand:wikipedia":"en:Marks & Spencer","operator":"Marks and Spencer","shop":"supermarket"}}, "geometry":{"type":"Point","coordinates":[-2.58268,53.37115 ]}},
{ "type":"Feature","properties":{"osm_id":"4722212861","name":"Co-op Food","other":{"addr:city":"Warrington","addr:country":"GB","addr:housenumber":"96-98","addr:postcode":"WA2 9LN","addr:street":"Capesthorne Road","brand":"Co-op Food","brand:wikidata":"Q3277439","brand:wikipedia":"en:Co-op Food","fhrs:id":"420211","operator":"The Co-operative Group","operator:wikidata":"Q117202","operator:wikipedia":"en:The Co-operative Group","shop":"supermarket"}}, "geometry":{"type":"Point","coordinates":[-2.57613,53.41056 ]}},
{ "type":"Feature","properties":{"osm_id":"5214537125","name":"Asda","other":{"addr:city":"Warrington","addr:country":"GB","addr:postcode":"WA3 7PG","addr:street":"Dewhurst Road","brand":"Asda","brand:wikidata":"Q297410","brand:wikipedia":"en:Asda","contact:website":"https:\/\/storelocator.asda.com\/north-west\/warrington\/1-dewhurst-road","fhrs:id":"420115","opening_hours":"Mo-Sa 08:00-22:00; Su 10:30-16:30","operator":"Asda Stores Ltd","shop":"supermarket"}}, "geometry":{"type":"Point","coordinates":[-2.52929,53.41339 ]}},
{ "type":"Feature","properties":{"osm_id":"8583106550","name":"Aldi","other":{"brand":"ALDI","brand:wikidata":"Q41171672","brand:wikipedia":"en:Aldi","operator":"Aldi","shop":"supermarket"}}, "geometry":{"type":"Point","coordinates":[-2.52768,53.41518 ]}},
{ "type":"Feature","properties":{"osm_id":"8920196475","name":"Zabka Warrington","other":{"addr:city":"Warrington","addr:housenumber":"46","addr:postcode":"WA2 7TU","addr:street":"Winwick Street","phone":"+441925419917","shop":"supermarket"}}, "geometry":{"type":"Point","coordinates":[-2.59402,53.39262 ]}},
{ "type":"Feature","properties":{"osm_id":"9583569679","name":"Kurdistan Supermarket","other":{"addr:city":"Warrington","addr:housenumber":"109","addr:postcode":"WA2 7AR","addr:street":"Orford Lane","alt_name":"Halal Shop","diet:halal":"yes","fhrs:id":"1316926","phone":"+44 1925 572890","shop":"supermarket","website":"https:\/\/www.facebook.com\/halal.shop.warrington\/"}}, "geometry":{"type":"Point","coordinates":[-2.58853,53.39745 ]}},
{ "type":"Feature","properties":{"osm_id":"9583633930","name":"Wisla Polish Store","other":{"addr:city":"Warrington","addr:housenumber":"145","addr:postcode":"WA2 7AZ","addr:street":"Orford Lane","alt_name":"Wisla Intercontinental Food","fhrs:id":"576470","opening_hours":"Mo-Fr 09:00-20:00; Sa 09:00-21:00; Su 10:00-20:00","phone":"+44 1925 444 427","shop":"supermarket","website":"http:\/\/wislawarrington.co.uk\/en\/"}}, "geometry":{"type":"Point","coordinates":[-2.58742,53.39812 ]}},
{ "type":"Feature","properties":{"osm_way_id":"22948184","name":"Morrisons","building":"retail","shop":"supermarket","other":{"addr:postcode":"WA4 6RN","addr:street":"Greenall's Avenue","brand":"Morrisons","brand:wikidata":"Q922344","brand:wikipedia":"en:Morrisons","fhrs:id":"420329","website":"https:\/\/my.morrisons.com\/storefinder\/71"}}, "geometry":{"type":"MultiPolygon","coordinates":[[[[-2.58612,53.37303],[-2.58499,53.37326],[-2.58527,53.37374],[-2.58511,53.37377],[-2.5852,53.37394],[-2.58519,53.37395],[-2.58519,53.37396],[-2.58519,53.37397],[-2.58519,53.37399],[-2.58519,53.374],[-2.58519,53.37401],[-2.5852,53.37402],[-2.58521,53.37403],[-2.58523,53.37404],[-2.58524,53.37405],[-2.58526,53.37406],[-2.58528,53.37407],[-2.58531,53.37408],[-2.58533,53.37408],[-2.58536,53.37409],[-2.58538,53.37409],[-2.5854,53.37409],[-2.58543,53.37409],[-2.58545,53.37409],[-2.58547,53.37409],[-2.58549,53.37408],[-2.58551,53.37407],[-2.58553,53.37407],[-2.58554,53.37406],[-2.58554,53.37405],[-2.58555,53.37404],[-2.58606,53.37394],[-2.58601,53.37385],[-2.58631,53.37379],[-2.58619,53.37358],[-2.58641,53.37353],[-2.58612,53.37303]]]]}},
{ "type":"Feature","properties":{"osm_way_id":"22986261","name":"Lidl","building":"yes","shop":"supermarket","other":{"addr:city":"Warrington","addr:postcode":"WA4 1LW","addr:street":"Thelwall Lane","brand":"Lidl","brand:wikidata":"Q151954","brand:wikipedia":"en:Lidl","fhrs:id":"420536","opening_hours":"Mo-Sa 08:00-20:00, Su 10:00-16:00","phone":"+44 870 444 1234","source:addr:postcode":"FHRS Open Data","website":"https:\/\/www.lidl.co.uk\/"}}, "geometry":{"type":"MultiPolygon","coordinates":[[[[-2.56134,53.38175],[-2.56143,53.38222],[-2.561,53.38225],[-2.56091,53.38178],[-2.56134,53.38175]]]]}},
{ "type":"Feature","properties":{"osm_way_id":"27473892","name":"Asda","building":"yes","shop":"supermarket","other":{"addr:city":"Warrington","addr:country":"GB","addr:housename":"Westbrook House","addr:postcode":"WA5 8UH","addr:street":"Westbrook Centre","alt_name":"Asda Westbrook","brand":"Asda","brand:wikidata":"Q297410","brand:wikipedia":"en:Asda","contact:website":"https:\/\/storelocator.asda.com\/north-west\/warrington\/westbrook-shopping-centre","fhrs:id":"420112","operator":"Asda Stores Ltd","phone":"+44 1925 638633","toilets:wheelchair":"yes","website":"https:\/\/storelocator.asda.com\/north-west\/warrington\/westbrook-shopping-centre","wheelchair":"yes"}}, "geometry":{"type":"MultiPolygon","coordinates":[[[[-2.63025,53.40785],[-2.63025,53.40786],[-2.63025,53.40787],[-2.63025,53.40803],[-2.63028,53.40803],[-2.63028,53.40812],[-2.63029,53.40828],[-2.63049,53.40828],[-2.6305,53.40837],[-2.63089,53.40836],[-2.63095,53.40838],[-2.63099,53.40839],[-2.63101,53.40841],[-2.63102,53.40844],[-2.63102,53.40846],[-2.63114,53.40846],[-2.63115,53.40855],[-2.63102,53.40856],[-2.63102,53.40863],[-2.63084,53.40863],[-2.63084,53.40872],[-2.63075,53.40875],[-2.63055,53.40892],[-2.63033,53.40893],[-2.63033,53.40907],[-2.63011,53.40908],[-2.63011,53.40909],[-2.62988,53.40909],[-2.62988,53.40893],[-2.62962,53.40893],[-2.62962,53.40895],[-2.62947,53.40895],[-2.62943,53.40895],[-2.62942,53.40877],[-2.62943,53.40877],[-2.62943,53.40862],[-2.62943,53.40861],[-2.62942,53.40814],[-2.62941,53.40814],[-2.62941,53.40802],[-2.62956,53.40802],[-2.62956,53.40788],[-2.62956,53.40786],[-2.62957,53.40786],[-2.63025,53.40785]]]]}},
{ "type":"Feature","properties":{"osm_way_id":"27869155","name":"Tesco Extra","building":"yes","shop":"supermarket","other":{"addr:city":"Warrington","addr:postcode":"WA2 7NE","addr:street":"Winwick Road","brand":"Tesco Extra","brand:wikidata":"Q25172225","brand:wikipedia":"en:Tesco Extra","fhrs:id":"420730","operator":"Tesco","phone":"+443456779805","source:addr":"FHRS Open Data","website":"https:\/\/www.tesco.com\/store-locator\/warrington\/winwick-road"}}, "geometry":{"type":"MultiPolygon","coordinates":[[[[-2.59688,53.39745],[-2.59723,53.3974],[-2.59729,53.39755],[-2.59706,53.39759],[-2.59703,53.39753],[-2.59671,53.39758],[-2.5967,53.39769],[-2.5965,53.39772],[-2.59646,53.39761],[-2.59552,53.39775],[-2.59556,53.39784],[-2.59506,53.39791],[-2.595,53.39777],[-2.5947,53.39781],[-2.59441,53.39713],[-2.59664,53.3968],[-2.59671,53.39696],[-2.59668,53.39697],[-2.59688,53.39745]]]]}},
{ "type":"Feature","properties":{"osm_way_id":"30545458","name":"Co-Op","building":"yes","shop":"supermarket","other":{"addr:housenumber":"176-178","addr:postcode":"WA5 2LZ","addr:street":"Warrington Road","fhrs:id":"420162","old_name":"Somerfield","source:addr":"FHRS Open Data"}}, "geometry":{"type":"MultiPolygon","coordinates":[[[[-2.66027,53.38292],[-2.65955,53.38294],[-2.65947,53.38264],[-2.65999,53.38277],[-2.66024,53.38274],[-2.66027,53.38292]]]]}},
{ "type":"Feature","properties":{"osm_way_id":"30796267","name":"ALDI","building":"retail","shop":"supermarket","other":{"addr:city":"Warrington","addr:postcode":"WA1 1UD","addr:street":"Liverpool Road","brand":"ALDI","brand:wikidata":"Q41171672","brand:wikipedia":"en:Aldi","building:levels":"1","fhrs:id":"420843","phone":"+448000420800","source:addr":"FHRS Open Data","website":"https:\/\/www.aldi.co.uk\/store\/s-uk-E0074"}}, "geometry":{"type":"MultiPolygon","coordinates":[[[[-2.6036,53.38925],[-2.60321,53.38927],[-2.60313,53.38927],[-2.6031,53.38897],[-2.60309,53.38885],[-2.60316,53.38885],[-2.60335,53.38884],[-2.60334,53.38879],[-2.60356,53.38878],[-2.60356,53.38883],[-2.6036,53.38925]]]]}},
{ "type":"Feature","properties":{"osm_way_id":"31758923","name":"Sainsbury's","building":"yes","shop":"supermarket","other":{"addr:city":"Warrington","addr:housenumber":"100","addr:postcode":"WA1 2TN","addr:street":"Church Street","brand":"Sainsbury's","brand:wikidata":"Q152096","brand:wikipedia":"en:Sainsbury's","fhrs:id":"420108","phone":"+44 1925 650444","website":"https:\/\/stores.sainsburys.co.uk\/0851\/warrington"}}, "geometry":{"type":"MultiPolygon","coordinates":[[[[-2.58365,53.39187],[-2.58262,53.39231],[-2.58256,53.3923],[-2.58198,53.3917],[-2.58228,53.3916],[-2.58226,53.39158],[-2.58225,53.39158],[-2.58219,53.39152],[-2.583,53.39124],[-2.58296,53.39119],[-2.58321,53.39111],[-2.58325,53.39116],[-2.58336,53.39112],[-2.58343,53.3912],[-2.5834,53.39121],[-2.58348,53.39129],[-2.5834,53.39132],[-2.5837,53.39165],[-2.5835,53.39172],[-2.58365,53.39187]]]]}},
{ "type":"Feature","properties":{"osm_way_id":"37867725","name":"Lidl","building":"supermarket","shop":"supermarket","other":{"addr:city":"Warrington","addr:country":"GB","addr:postcode":"WA1 2PA","addr:street":"Fennel Street","brand":"Lidl","brand:wikidata":"Q151954","brand:wikipedia":"en:Lidl","fhrs:id":"420595","phone":"+448009777766","website":"https:\/\/www.lidl.co.uk\/"}}, "geometry":{"type":"MultiPolygon","coordinates":[[[[-2.5861,53.3908],[-2.58606,53.39081],[-2.58538,53.39103],[-2.5855,53.39115],[-2.58543,53.39118],[-2.58547,53.39123],[-2.58541,53.39125],[-2.58545,53.39129],[-2.5863,53.39103],[-2.5861,53.3908]]]]}},
{ "type":"Feature","properties":{"osm_way_id":"162599065","name":"Sainsbury's","building":"yes","shop":"supermarket","other":{"addr:city":"Warrington","addr:postcode":"WA5 3AG","addr:street":"Santa Rosa Boulevard","brand":"Sainsbury's","brand:wikidata":"Q152096","brand:wikipedia":"en:Sainsbury's","fhrs:id":"446721","source:addr":"FHRS Open Data"}}, "geometry":{"type":"MultiPolygon","coordinates":[[[[-2.64047,53.3978],[-2.63969,53.39803],[-2.63947,53.39776],[-2.63938,53.39764],[-2.63934,53.3976],[-2.6393,53.39755],[-2.63977,53.39741],[-2.63973,53.39736],[-2.63988,53.39732],[-2.64004,53.39728],[-2.64011,53.39736],[-2.64012,53.39738],[-2.6401,53.39738],[-2.64037,53.39772],[-2.6404,53.39771],[-2.64047,53.3978]]]]}},
{ "type":"Feature","properties":{"osm_way_id":"190126013","name":"Aldi","building":"yes","shop":"supermarket","other":{"addr:city":"South Croydon","addr:housenumber":"232-236","addr:postcode":"CR2 8LE","addr:street":"Addington Road","brand":"ALDI","brand:wikidata":"Q41171672","brand:wikipedia":"en:Aldi","fhrs:id":"22206"}}, "geometry":{"type":"MultiPolygon","coordinates":[[[[-0.05949,51.34495],[-0.05916,51.34468],[-0.059,51.34475],[-0.05894,51.3447],[-0.05868,51.34482],[-0.05873,51.34486],[-0.05907,51.34515],[-0.05949,51.34495]]]]}},
{ "type":"Feature","properties":{"osm_way_id":"538967635","name":"The Food Warehouse","building":"yes","shop":"supermarket","other":{"addr:city":"Warrington","addr:housenumber":"Junction NINE Retail Park","addr:postcode":"WA2 8TW","addr:street":"Winwick Road","brand":"The Food Warehouse","brand:wikidata":"Q87263899","phone":"+441925572290"}}, "geometry":{"type":"MultiPolygon","coordinates":[[[[-2.59861,53.41151],[-2.59865,53.41165],[-2.59926,53.41158],[-2.59922,53.41144],[-2.59861,53.41151]]]]}},
{ "type":"Feature","properties":{"osm_way_id":"554443876","name":"Lidl","building":"yes","shop":"supermarket","other":{"addr:city":"Warrington","addr:postcode":"WA5 1AP","addr:street":"Old Liverpool Road","brand":"Lidl","brand:wikidata":"Q151954","brand:wikipedia":"en:Lidl","fhrs:id":"925796","opening_hours":"Mo-Sa 08:00-22:00, Su 10:00-16:00","source:addr":"FHRS Open Data"}}, "geometry":{"type":"MultiPolygon","coordinates":[[[[-2.61066,53.38788],[-2.6105,53.38735],[-2.61008,53.38739],[-2.60988,53.38749],[-2.60993,53.38765],[-2.61001,53.38764],[-2.6101,53.38794],[-2.61066,53.38788]]]]}},
{ "type":"Feature","properties":{"osm_way_id":"569371086","name":"Sainsbury's","building":"yes","shop":"supermarket","other":{"addr:postcode":"WA13 9QP","addr:street":"Rushgreen Road","brand":"Sainsbury's","brand:wikidata":"Q152096","brand:wikipedia":"en:Sainsbury's","fhrs:id":"926261","old_name":"Netto","source:addr":"FHRS Open Data"}}, "geometry":{"type":"MultiPolygon","coordinates":[[[[-2.46843,53.38496],[-2.46836,53.38498],[-2.46843,53.38511],[-2.46771,53.38524],[-2.46761,53.38503],[-2.4684,53.38489],[-2.46843,53.38496]]]]}},
{ "type":"Feature","properties":{"osm_way_id":"764010497","name":"Co-op Food","building":"yes","shop":"supermarket","other":{"addr:city":"Warrington","addr:housenumber":"156","addr:postcode":"WA4 2QU","addr:street":"Knutsford Road","addr:suburb":"Grappenhall","brand":"Co-op Food","brand:wikidata":"Q3277439","brand:wikipedia":"en:Co-op Food","fhrs:id":"420180","operator":"The Co-operative Group","operator:wikidata":"Q117202","operator:wikipedia":"en:The Co-operative Group","source:addr":"FHRS Open Data"}}, "geometry":{"type":"MultiPolygon","coordinates":[[[[-2.54506,53.37723],[-2.54475,53.37723],[-2.54469,53.37708],[-2.54501,53.37704],[-2.54507,53.37723],[-2.54506,53.37723]]]]}},
{ "type":"Feature","properties":{"osm_way_id":"780638830","name":"Co-op Food","building":"yes","shop":"supermarket","other":{"addr:postcode":"WA4 1QZ","brand":"Co-op Food","brand:wikidata":"Q3277439","brand:wikipedia":"en:Co-op Food","operator":"The Co-operative Group","operator:wikidata":"Q117202","operator:wikipedia":"en:The Co-operative Group"}}, "geometry":{"type":"MultiPolygon","coordinates":[[[[-2.5623,53.385],[-2.56223,53.385],[-2.56221,53.38504],[-2.56224,53.38504],[-2.56222,53.38507],[-2.56225,53.38507],[-2.56224,53.3851],[-2.56244,53.38514],[-2.56254,53.38513],[-2.56269,53.38512],[-2.56262,53.385],[-2.5626,53.38496],[-2.56256,53.38497],[-2.56247,53.38498],[-2.5624,53.38498],[-2.56239,53.38501],[-2.56236,53.385],[-2.56235,53.38501],[-2.5623,53.385]]]]}},
{ "type":"Feature","properties":{"osm_way_id":"783633109","name":"Kraków Polski Sklep","building":"yes","shop":"supermarket","other":{"addr:city":"Warrington","addr:housenumber":"101","addr:postcode":"WA1 2NL","addr:street":"Buttermarket Street","phone":"+447912748635","website":"http:\/\/polskisklepkrakow.co.uk\/"}}, "geometry":{"type":"MultiPolygon","coordinates":[[[[-2.5888,53.39015],[-2.58868,53.39018],[-2.58855,53.39002],[-2.58867,53.38998],[-2.5888,53.39015]]]]}},
{ "type":"Feature","properties":{"osm_way_id":"783633265","name":"Sainsbury's","building":"yes","shop":"supermarket","other":{"brand":"Sainsbury's","brand:wikidata":"Q152096","brand:wikipedia":"en:Sainsbury's","website":"https:\/\/stores.sainsburys.co.uk\/0851\/warrington"}}, "geometry":{"type":"MultiPolygon","coordinates":[[[[-2.58243,53.39238],[-2.58228,53.39244],[-2.58223,53.39238],[-2.58217,53.39232],[-2.58215,53.3923],[-2.5823,53.39225],[-2.58243,53.39238]]]]}},
{ "type":"Feature","properties":{"osm_way_id":"786594832","name":"Heron Foods","building":"yes","shop":"supermarket","other":{"addr:city":"Warrington","addr:housenumber":"184","addr:postcode":"WA2 7BE","addr:street":"Orford Lane","brand":"Heron Foods","brand:wikidata":"Q5743472","brand:wikipedia":"en:Heron Foods","fhrs:id":"1136361","website":"https:\/\/heronfoods.com\/store\/orford\/"}}, "geometry":{"type":"MultiPolygon","coordinates":[[[[-2.5871,53.39868],[-2.58714,53.3987],[-2.58715,53.39869],[-2.58733,53.39879],[-2.58721,53.39887],[-2.58733,53.39889],[-2.58731,53.39893],[-2.58695,53.39887],[-2.58685,53.39883],[-2.5871,53.39868]]]]}},
{ "type":"Feature","properties":{"osm_way_id":"852011191","name":"ALDI","building":"yes","shop":"supermarket","other":{"addr:city":"Warrington","addr:housename":"Fordton Retail","addr:postcode":"WA2 9SA","addr:street":"Sandy Lane West","brand":"ALDI","brand:wikidata":"Q41171672","brand:wikipedia":"en:Aldi","fhrs:id":"629770","website":"https:\/\/www.aldi.co.uk\/store\/s-uk-E0896"}}, "geometry":{"type":"MultiPolygon","coordinates":[[[[-2.5969,53.41521],[-2.59702,53.41536],[-2.59695,53.41538],[-2.59704,53.41547],[-2.59719,53.41543],[-2.59717,53.41541],[-2.59785,53.4152],[-2.59779,53.41514],[-2.59783,53.41513],[-2.59768,53.41495],[-2.59735,53.41505],[-2.59737,53.41507],[-2.5969,53.41521]]]]}},
{ "type":"Feature","properties":{"osm_way_id":"865984514","name":"The Co-operative Food","building":"yes","shop":"supermarket","other":{"addr:city":"Warrington","addr:housenumber":"55","addr:postcode":"WA5 4PS","addr:street":"Chapel Lane","brand":"The Co-operative Food","brand:wikidata":"Q107617274","phone":"+44 1925 292620","website":"https:\/\/www.coop.co.uk\/store-finder\/WA5-4PS\/chapel-lane"}}, "geometry":{"type":"MultiPolygon","coordinates":[[[[-2.6551,53.43029],[-2.65513,53.43],[-2.65493,53.42999],[-2.6549,53.43029],[-2.6551,53.43029]]]]}},
{ "type":"Feature","properties":{"osm_way_id":"956676538","name":"Co-op Food","building":"yes","shop":"supermarket","other":{"addr:city":"Warrington","addr:housenumber":"278","addr:postcode":"WA4 1AZ","addr:street":"Knutsford Road","brand":"Co-op Food","brand:wikidata":"Q3277439","brand:wikipedia":"en:Co-op Food","fhrs:id":"421219","loc_name":"Latchford Co-op","operator":"The Co-operative Group","operator:wikidata":"Q117202","operator:wikipedia":"en:The Co-operative Group","source:addr":"FHRS Open Data"}}, "geometry":{"type":"MultiPolygon","coordinates":[[[[-2.57978,53.38368],[-2.57925,53.38355],[-2.57935,53.3834],[-2.57988,53.38353],[-2.57978,53.38368]]]]}},
{ "type":"Feature","properties":{"osm_way_id":"972947398","name":"Heron Foods","building":"yes","shop":"supermarket","other":{"addr:city":"Warrington","addr:housenumber":"11","addr:postcode":"WA1 2LY","addr:street":"Buttermarket Street","brand":"Heron Foods","brand:wikidata":"Q5743472","brand:wikipedia":"en:Heron Foods","fhrs:id":"551844","website":"https:\/\/heronfoods.com\/store\/warrington\/"}}, "geometry":{"type":"MultiPolygon","coordinates":[[[[-2.59284,53.38939],[-2.59291,53.38946],[-2.59307,53.38962],[-2.59295,53.38967],[-2.59277,53.38949],[-2.59271,53.38943],[-2.59284,53.38939]]]]}},
{ "type":"Feature","properties":{"osm_way_id":"973170665","name":"Food Plus","building":"yes","shop":"supermarket","other":{"addr:city":"Warrington","addr:housenumber":"29","addr:postcode":"WA1 1XG","addr:street":"Sankey Street","fhrs:id":"1004753","phone":"+447879813072","website":"https:\/\/www.foodplus.eu\/en\/map\/food-plus-polski-sklep-wa1-1xg-warrington"}}, "geometry":{"type":"MultiPolygon","coordinates":[[[[-2.59574,53.38861],[-2.59553,53.38862],[-2.59554,53.38867],[-2.59557,53.38884],[-2.59578,53.38883],[-2.59577,53.38873],[-2.59576,53.38867],[-2.59576,53.38865],[-2.59574,53.38861]]]]}},
{ "type":"Feature","properties":{"osm_way_id":"974855878","name":"Vcielka Maja Slovakian Grocery","building":"yes","shop":"supermarket","other":{"addr:city":"Warrington","addr:housenumber":"86","addr:postcode":"WA1 2NZ","addr:street":"Buttermarket Street","email":"vcielkamajawarrington@gmail.com","fhrs:id":"1218645","phone":"+447450270467","website":"http:\/\/www.vcielkamaja.co.uk\/"}}, "geometry":{"type":"MultiPolygon","coordinates":[[[[-2.58847,53.38973],[-2.58851,53.38974],[-2.5885,53.38987],[-2.58839,53.38986],[-2.58847,53.38973]]]]}},
{ "type":"Feature","properties":{"osm_way_id":"1009726900","name":"Pak World Supermarket","building":"yes","shop":"supermarket","other":{"addr:city":"Warrington","addr:housenumber":"111","addr:postcode":"WA5 0JT","addr:street":"Bewsey Road","addr:suburb":"Bewsey","email":"pakworldsupermarket@hotmail.com","opening_hours":"Mo-Sa 10:00-20:30; Su 10:00-20:00","phone":"+44 1925 231225","website":"https:\/\/www.facebook.com\/Pak-World-Supermarket-112468557102639\/"}}, "geometry":{"type":"MultiPolygon","coordinates":[[[[-2.60366,53.39608],[-2.60383,53.39597],[-2.60405,53.39607],[-2.60399,53.39611],[-2.60376,53.39615],[-2.60373,53.39614],[-2.60375,53.39613],[-2.60366,53.39608]]]]}},
{ "type":"Feature","properties":{"osm_way_id":"1011546678","name":"Co-op Food","shop":"supermarket","other":{"addr:city":"Warrington","addr:housenumber":"2","addr:postcode":"WA5 1RJ","addr:street":"Hawthorne Avenue","addr:suburb":"Great Sankey","brand":"Co-op Food","brand:wikidata":"Q3277439","brand:wikipedia":"en:Co-op Food","building:levels":"1.5","building:part":"yes","fhrs:id":"420160","operator":"The Co-operative Group","operator:wikidata":"Q117202","operator:wikipedia":"en:The Co-operative Group","source:addr":"FHRS Open Data"}}, "geometry":{"type":"MultiPolygon","coordinates":[[[[-2.64836,53.39209],[-2.64836,53.39208],[-2.64858,53.39207],[-2.64861,53.39228],[-2.6484,53.39229],[-2.64836,53.39209]]]]}},
{ "type":"Feature","properties":{"osm_way_id":"1026894234","building":"yes","shop":"supermarket"},"geometry":{"type":"MultiPolygon","coordinates":[[[[-2.44448,53.36981],[-2.4443,53.36978],[-2.44442,53.36955],[-2.44465,53.36959],[-2.44459,53.36971],[-2.44456,53.3697],[-2.44452,53.3698],[-2.44449,53.36979],[-2.44448,53.36981]]]]}},
{ "type":"Feature","properties":{"osm_way_id":"1027094684","name":"Co-op Food","building":"yes","shop":"supermarket","other":{"addr:city":"Warrington","addr:postcode":"WA1 4NB","addr:street":"Holes Lane","addr:suburb":"Woolston","brand":"Co-op Food","brand:wikidata":"Q3277439","brand:wikipedia":"en:Co-op Food","opening_hours":"Mo-Su 07:00-22:00","operator":"The Co-operative Group","operator:wikidata":"Q117202","operator:wikipedia":"en:The Co-operative Group","phone":"+44 1925 813928","website":"https:\/\/www.coop.co.uk\/store-finder\/WA1-4NB\/holes-lane"}}, "geometry":{"type":"MultiPolygon","coordinates":[[[[-2.54548,53.39899],[-2.54551,53.39885],[-2.54548,53.39885],[-2.54551,53.39872],[-2.54571,53.39875],[-2.54575,53.39869],[-2.54581,53.3986],[-2.54586,53.39862],[-2.54601,53.39877],[-2.54589,53.39882],[-2.54583,53.39884],[-2.54581,53.39884],[-2.54578,53.399],[-2.54548,53.39899]]]]}},
{ "type":"Feature","properties":{"osm_way_id":"1027127841","name":"Co-op Food","building":"yes","shop":"supermarket","other":{"addr:city":"Warrington","addr:housenumber":"2","addr:postcode":"WA3 4EG","addr:street":"Common Lane","addr:suburb":"Culcheth","brand":"Co-op Food","brand:wikidata":"Q3277439","brand:wikipedia":"en:Co-op Food","fhrs:id":"420172","operator":"The Co-operative Group","operator:wikidata":"Q117202","operator:wikipedia":"en:The Co-operative Group"}}, "geometry":{"type":"MultiPolygon","coordinates":[[[[-2.51897,53.45271],[-2.51904,53.45241],[-2.51911,53.45242],[-2.51924,53.45243],[-2.51923,53.45248],[-2.51918,53.45266],[-2.51917,53.45273],[-2.51897,53.45271]]]]}},
{ "type":"Feature","properties":{"osm_way_id":"1033660808","name":"Co-op Food","shop":"supermarket","other":{"addr:city":"Warrington","addr:housenumber":"138","addr:postcode":"WA2 7AY","addr:street":"Orford Lane","brand":"Co-op Food","brand:wikidata":"Q3277439","brand:wikipedia":"en:Co-op Food","fhrs:id":"420164","indoor":"retail","operator":"The Co-operative Group","operator:wikidata":"Q117202","operator:wikipedia":"en:The Co-operative Group"}}, "geometry":{"type":"MultiPolygon","coordinates":[[[[-2.58832,53.39806],[-2.58832,53.39809],[-2.58818,53.39817],[-2.58806,53.39811],[-2.58804,53.39812],[-2.58795,53.39807],[-2.58815,53.39795],[-2.58832,53.39806]]]]}}
]
}
