{
"type": "FeatureCollection",
"features": [
{ "type":"Feature","properties":{"osm_way_id":"38530845","building":"warehouse"},"geometry":{"type":"MultiPolygon","coordinates":[[[[-2.63165,53.3651],[-2.63164,53.36508],[-2.6317,53.36506],[-2.63168,53.36503],[-2.63161,53.36504],[-2.63123,53.36437],[-2.62964,53.36468],[-2.62975,53.36488],[-2.62884,53.36506],[-2.6288,53.36498],[-2.62867,53.36501],[-2.62861,53.3649],[-2.62703,53.36521],[-2.62744,53.36595],[-2.62903,53.36563],[-2.62897,53.36553],[-2.629,53.36552],[-2.62902,53.36556],[-2.62909,53.36555],[-2.62906,53.36551],[-2.63001,53.36532],[-2.63007,53.36542],[-2.63165,53.3651]]]]}},
{ "type":"Feature","properties":{"osm_way_id":"312357083","building":"warehouse"},"geometry":{"type":"MultiPolygon","coordinates":[[[[-2.5978,53.40748],[-2.59752,53.40749],[-2.59751,53.40745],[-2.59742,53.40745],[-2.5974,53.40734],[-2.59749,53.40733],[-2.59748,53.40729],[-2.59777,53.40728],[-2.5978,53.40748]]]]}},
{ "type":"Feature","properties":{"osm_way_id":"312357091","building":"warehouse"},"geometry":{"type":"MultiPolygon","coordinates":[[[[-2.59829,53.40724],[-2.59774,53.40727],[-2.59774,53.40728],[-2.59737,53.4073],[-2.59735,53.40719],[-2.59772,53.40717],[-2.59771,53.40709],[-2.59827,53.40706],[-2.59829,53.40724]]]]}},
{ "type":"Feature","properties":{"osm_way_id":"312357093","building":"warehouse"},"geometry":{"type":"MultiPolygon","coordinates":[[[[-2.59619,53.4063],[-2.59617,53.4062],[-2.59691,53.40617],[-2.59693,53.40627],[-2.59619,53.4063]]]]}},
{ "type":"Feature","properties":{"osm_way_id":"456264613","name":"Asda","building":"warehouse","other":{"addr:city":"Warrington","addr:postcode":"WA5 3TP","addr:street":"Skyline Drive"}}, "geometry":{"type":"MultiPolygon","coordinates":[[[[-2.66135,53.4129],[-2.66132,53.41149],[-2.65753,53.41152],[-2.65754,53.41181],[-2.65728,53.41181],[-2.65729,53.41213],[-2.65755,53.41213],[-2.65755,53.4124],[-2.6598,53.41239],[-2.65981,53.41275],[-2.65948,53.41275],[-2.65948,53.41299],[-2.65978,53.41299],[-2.65978,53.41291],[-2.66135,53.4129]]]]}},
{ "type":"Feature","properties":{"osm_way_id":"456264614","name":"The HUT Group","building":"warehouse","other":{"addr:city":"Warrington","addr:postcode":"WA5 3UG","addr:street":"Skyline Drive"}}, "geometry":{"type":"MultiPolygon","coordinates":[[[[-2.66478,53.41291],[-2.66977,53.41254],[-2.66981,53.41274],[-2.67041,53.4127],[-2.67014,53.41133],[-2.67037,53.41132],[-2.67032,53.41106],[-2.67009,53.41108],[-2.67008,53.41101],[-2.66447,53.41143],[-2.66478,53.41291]]]]}},
{ "type":"Feature","properties":{"osm_way_id":"479069421","name":"Brakes","building":"warehouse","other":{"addr:city":"Warrington","addr:housenumber":"3","addr:postcode":"WA5 4AH","addr:street":"Lockheed Road"}}, "geometry":{"type":"MultiPolygon","coordinates":[[[[-2.65983,53.41645],[-2.65931,53.41565],[-2.65706,53.41616],[-2.65733,53.4166],[-2.65712,53.41664],[-2.65739,53.41706],[-2.65757,53.41701],[-2.65754,53.41697],[-2.65983,53.41645]]]]}},
{ "type":"Feature","properties":{"osm_way_id":"479069422","name":"Travis Perkins","building":"warehouse","other":{"addr:city":"Warrington","addr:housenumber":"5","addr:postcode":"WA5 4AH","addr:street":"Lockheed Road"}}, "geometry":{"type":"MultiPolygon","coordinates":[[[[-2.66633,53.41816],[-2.66369,53.41822],[-2.66366,53.41792],[-2.66385,53.41791],[-2.66379,53.41728],[-2.66353,53.41729],[-2.66344,53.41633],[-2.66373,53.41632],[-2.66362,53.41503],[-2.66607,53.41497],[-2.66608,53.41502],[-2.66627,53.41501],[-2.66632,53.41561],[-2.66613,53.41561],[-2.66618,53.41625],[-2.66648,53.41624],[-2.66656,53.41721],[-2.66626,53.41722],[-2.66633,53.41816]]]]}},
{ "type":"Feature","properties":{"osm_way_id":"479069423","name":"Hermes","building":"warehouse","other":{"addr:city":"Warrington","addr:housenumber":"1","addr:postcode":"WA5 4AH","addr:street":"Lockheed Road"}}, "geometry":{"type":"MultiPolygon","coordinates":[[[[-2.65451,53.41662],[-2.65093,53.41708],[-2.65074,53.41653],[-2.65402,53.41611],[-2.65416,53.41651],[-2.65446,53.41647],[-2.65451,53.41662]]]]}},
{ "type":"Feature","properties":{"osm_way_id":"675783217","name":"StarPlan","building":"warehouse","shop":"furniture"},"geometry":{"type":"MultiPolygon","coordinates":[[[[-2.63616,53.4141],[-2.63588,53.41392],[-2.63642,53.41363],[-2.63733,53.41423],[-2.63703,53.4144],[-2.6364,53.41398],[-2.63616,53.4141]]]]}},
{ "type":"Feature","properties":{"osm_way_id":"691307581","name":"The Delivery Group","building":"warehouse","other":{"addr:city":"Warrington","addr:postcode":"WA5 3UY","addr:street":"Skyline Drive"}}, "geometry":{"type":"MultiPolygon","coordinates":[[[[-2.66944,53.4102],[-2.66814,53.40993],[-2.6682,53.40982],[-2.6684,53.40986],[-2.66912,53.40861],[-2.67023,53.40884],[-2.66944,53.4102]]]]}},
{ "type":"Feature","properties":{"osm_way_id":"691308652","name":"Domino's","building":"warehouse","other":{"addr:city":"Warrington","addr:postcode":"WA5 3TZ","addr:street":"Fairchild Road"}}, "geometry":{"type":"MultiPolygon","coordinates":[[[[-2.65598,53.41358],[-2.65598,53.41297],[-2.65383,53.41298],[-2.65383,53.4135],[-2.65375,53.4135],[-2.65375,53.41366],[-2.65443,53.41366],[-2.65443,53.41358],[-2.65598,53.41358]]]]}},
{ "type":"Feature","properties":{"osm_way_id":"709678239","name":"Gap Group Hire Solutions","building":"warehouse","other":{"addr:city":"Warrington","addr:housenumber":"530","addr:postcode":"WA5 7YE","addr:street":"Europa Boulevard"}}, "geometry":{"type":"MultiPolygon","coordinates":[[[[-2.61912,53.41816],[-2.61883,53.41807],[-2.61909,53.41778],[-2.61937,53.41788],[-2.61912,53.41816]]]]}},
{ "type":"Feature","properties":{"osm_way_id":"711658264","building":"warehouse"},"geometry":{"type":"MultiPolygon","coordinates":[[[[-2.59828,53.40642],[-2.59744,53.40647],[-2.59742,53.40637],[-2.59737,53.40637],[-2.59736,53.40631],[-2.59825,53.40626],[-2.59828,53.40642]]]]}},
{ "type":"Feature","properties":{"osm_way_id":"790225521","building":"warehouse"},"geometry":{"type":"MultiPolygon","coordinates":[[[[-2.51906,53.42896],[-2.51855,53.42908],[-2.51824,53.42861],[-2.51875,53.42849],[-2.51906,53.42896]]]]}},
{ "type":"Feature","properties":{"osm_way_id":"790225522","building":"warehouse"},"geometry":{"type":"MultiPolygon","coordinates":[[[[-2.51998,53.42862],[-2.51944,53.42875],[-2.51921,53.42843],[-2.51976,53.4283],[-2.51998,53.42862]]]]}},
{ "type":"Feature","properties":{"osm_way_id":"790225523","building":"warehouse"},"geometry":{"type":"MultiPolygon","coordinates":[[[[-2.52072,53.42844],[-2.52018,53.42857],[-2.51996,53.42826],[-2.5205,53.42812],[-2.52072,53.42844]]]]}},
{ "type":"Feature","properties":{"osm_way_id":"790225524","building":"warehouse"},"geometry":{"type":"MultiPolygon","coordinates":[[[[-2.52025,53.42988],[-2.51926,53.43012],[-2.51883,53.42949],[-2.51982,53.42925],[-2.52025,53.42988]]]]}},
{ "type":"Feature","properties":{"osm_way_id":"790225525","building":"warehouse"},"geometry":{"type":"MultiPolygon","coordinates":[[[[-2.52154,53.42958],[-2.52051,53.42983],[-2.52015,53.4293],[-2.52118,53.42905],[-2.52154,53.42958]]]]}},
{ "type":"Feature","properties":{"osm_way_id":"975310446","building":"warehouse"},"geometry":{"type":"MultiPolygon","coordinates":[[[[-2.67208,53.40815],[-2.67116,53.40973],[-2.67166,53.40984],[-2.67159,53.40996],[-2.66994,53.40962],[-2.67094,53.40791],[-2.67208,53.40815]]]]}},
{ "type":"Feature","properties":{"osm_way_id":"975310448","building":"warehouse"},"geometry":{"type":"MultiPolygon","coordinates":[[[[-2.67094,53.41451],[-2.67108,53.41512],[-2.66937,53.41526],[-2.66923,53.41465],[-2.67094,53.41451]]]]}}
]
}
