{
"type": "FeatureCollection",
"features": [
{ "type":"Feature","properties":{"osm_id":"7261494323","name":"Baltic Branch","other":{"opening_hours":"Mo-Th 09:00-20:00; Fr,Sa 09:00-20:00; Su 10:00-20:00","phone:signed":"no","shop":"supermarket","wheelchair":"limited"}}, "geometry":{"type":"Point","coordinates":[1.41835,51.3329 ]}},
{ "type":"Feature","properties":{"osm_way_id":"30453057","name":"Tesco Extra","building":"supermarket","shop":"supermarket","other":{"addr:city":"Broadstairs","addr:country":"GB","addr:county":"Kent","addr:district":"Thanet","addr:housenumber":"475","addr:postcode":"CT10 2QJ","addr:street":"Margate Road","addr:suburb":"Westwood","branch":"Broadstairs Extra","brand":"Tesco Extra","brand:wikidata":"Q25172225","brand:wikipedia":"en:Tesco Extra","diet:kosher":"yes","fhrs:id":"637667","opening_hours":"Mo-Sa 06:00-24:00; Su 10:00-16:00","opening_hours:covid19":"open","phone:signed":"no","ref":"2200","roof:levels":"0","roof:shape":"flat","source:addr":"FHRS Open Data","toilets":"yes","toilets:changing_table":"yes","toilets:fee":"no","toilets:wheelchair":"yes","wheelchair":"yes"}}, "geometry":{"type":"MultiPolygon","coordinates":[[[[1.39961,51.35839],[1.40057,51.35846],[1.40083,51.35848],[1.40076,51.35886],[1.40074,51.35898],[1.40117,51.35901],[1.40115,51.35912],[1.4009,51.3591],[1.40087,51.35928],[1.40081,51.35927],[1.40076,51.3595],[1.40064,51.35949],[1.40063,51.35952],[1.40063,51.35957],[1.40036,51.35955],[1.39963,51.3595],[1.39962,51.35957],[1.39929,51.35955],[1.39951,51.35838],[1.39961,51.35839]]]]}},
{ "type":"Feature","properties":{"osm_way_id":"79031830","name":"Asda","building":"retail","shop":"supermarket","other":{"addr:city":"Broadstairs","addr:country":"GB","addr:county":"Kent","addr:postcode":"CT10 2AL","addr:street":"Westwood Road","brand":"Asda","brand:wikidata":"Q297410","brand:wikipedia":"en:Asda","contact:facebook":"https:\/\/www.facebook.com\/asda\/","contact:twitter":"@asda","contact:website":"https:\/\/storelocator.asda.com\/south-east\/broadstairs\/westwood-road","fhrs:id":"620149","nohousenumber":"yes","opening_hours":"Mo 08:00-24:00; Tu-Fr 06:00-24:00; Sa 06:00-21:00; Su 09:00-16:00","operator":"Asda Stores Ltd","source:addr":"FHRS Open Data","wheelchair":"yes"}}, "geometry":{"type":"MultiPolygon","coordinates":[[[[1.41379,51.3605],[1.41345,51.36067],[1.41347,51.36068],[1.41336,51.36073],[1.41347,51.36082],[1.41344,51.36084],[1.41349,51.36088],[1.41362,51.36098],[1.41367,51.36102],[1.41371,51.36101],[1.41401,51.36124],[1.4141,51.3612],[1.41423,51.3613],[1.41488,51.36098],[1.41486,51.36096],[1.41501,51.36088],[1.41484,51.36074],[1.41505,51.36064],[1.41457,51.36026],[1.41454,51.36027],[1.41436,51.36037],[1.41426,51.36029],[1.41414,51.36034],[1.41407,51.36029],[1.41405,51.3603],[1.41395,51.36034],[1.41392,51.36032],[1.41388,51.36034],[1.41385,51.36031],[1.41367,51.3604],[1.41374,51.36045],[1.41373,51.36045],[1.41379,51.3605]]]]}},
{ "type":"Feature","properties":{"osm_way_id":"101835156","name":"Budgens","building":"retail","shop":"supermarket","other":{"addr:city":"Broadstairs","addr:housename":"Broadway Garage","addr:postcode":"CT10 2AY","addr:street":"St Peters Road","brand":"Budgens","brand:wikidata":"Q4985016","brand:wikipedia":"en:Budgens","fhrs:id":"1034375","source:addr":"FHRS Open Data"}}, "geometry":{"type":"MultiPolygon","coordinates":[[[[1.43148,51.36079],[1.43154,51.36091],[1.43177,51.36087],[1.43171,51.36075],[1.43148,51.36079]]]]}},
{ "type":"Feature","properties":{"osm_way_id":"103966152","name":"Tesco Express","building":"apartments","shop":"supermarket","other":{"addr:city":"Broadstairs","addr:country":"GB","addr:county":"Kent","addr:district":"Thanet","addr:housenumber":"8-12","addr:postcode":"CT10 1LN","addr:street":"High Street","branch":"Broadstairs High Street Express","brand":"Tesco Express","brand:wikidata":"Q98456772","check_date":"2021-04-18","opening_hours":"Mo-Su 06:00-23:00","phone":"+44 345 026 9056","source:addr:postcode":"https:\/\/www.tesco.com\/store-locator\/kent\/8-12-high-street","start_date":"2021-07-23","website":"https:\/\/www.tesco.com\/store-locator\/kent\/8-12-high-street"}}, "geometry":{"type":"MultiPolygon","coordinates":[[[[1.4414,51.35867],[1.44151,51.35882],[1.44156,51.35881],[1.44157,51.35883],[1.44161,51.35882],[1.44167,51.3588],[1.44166,51.35878],[1.44175,51.35876],[1.44174,51.35874],[1.44165,51.35862],[1.44159,51.35854],[1.44135,51.3586],[1.4414,51.35867]]]]}},
{ "type":"Feature","properties":{"osm_way_id":"150357602","name":"Aldi","building":"retail","shop":"supermarket","other":{"addr:city":"Margate","addr:country":"GB","addr:county":"Kent","addr:district":"Thanet","addr:postcode":"CT9 1RP","addr:street":"Zion Place","brand":"ALDI","brand:wikidata":"Q41171672","brand:wikipedia":"en:Aldi","building:levels":"1","fhrs:id":"608146","nohousenumber":"yes","opening_hours":"Mo-Sa 08:00-22:00; Su 10:00-16:00","roof:levels":"1","roof:shape":"gabled","source:addr":"FHRS Open Data","wheelchair":"yes"}}, "geometry":{"type":"MultiPolygon","coordinates":[[[[1.38766,51.39085],[1.38786,51.39084],[1.38786,51.39081],[1.38803,51.3908],[1.38803,51.39077],[1.38801,51.3905],[1.38806,51.3905],[1.38805,51.39039],[1.38805,51.39037],[1.38762,51.39038],[1.38766,51.39085]]]]}},
{ "type":"Feature","properties":{"osm_way_id":"280050176","name":"The Grain Grocer","building":"retail","shop":"supermarket","other":{"addr:city":"Margate","addr:county":"Kent","addr:housenumber":"218","addr:postcode":"CT9 2QU","addr:street":"Northdown Road","building:levels":"2","cuisine":"coffee_shop","diet:vegan":"yes","email":"info@thegraingrocer.co.uk","fhrs:id":"1372731","food":"yes","opening_hours":"Mo-Fr 09:00-17:00; Su 10:00-16:00","organic":"only","phone":"+44 1843 446789","roof:levels":"0","survey:date":"2021-08-28","takeaway":"only","website":"https:\/\/thegraingrocer.co.uk\/main\/","zero_waste":"yes"}}, "geometry":{"type":"MultiPolygon","coordinates":[[[[1.39731,51.3877],[1.39732,51.3877],[1.39737,51.38769],[1.39739,51.38766],[1.39733,51.38756],[1.39726,51.38758],[1.39727,51.3876],[1.39726,51.38761],[1.3972,51.38762],[1.39722,51.38765],[1.3972,51.38765],[1.39724,51.38772],[1.39731,51.38771],[1.39731,51.3877]]]]}},
{ "type":"Feature","properties":{"osm_way_id":"280060010","name":"Costcutter","building":"house","shop":"supermarket","other":{"addr:city":"Margate","addr:county":"Kent","addr:housenumber":"41-43","addr:postcode":"CT9 2RN","addr:street":"Northdown Road","brand":"Costcutter","brand:wikidata":"Q5175072","brand:wikipedia":"en:Costcutter","building:levels":"3","check_date:opening_hours":"2021-01-22","fhrs:id":"658612","opening_hours":"Mo-Su 08:00-02:00","payment:coins":"yes","payment:notes":"yes","payment:visa":"yes","roof:levels":"1","roof:shape":"gabled","source:addr":"FHRS Open Data","wheelchair":"yes"}}, "geometry":{"type":"MultiPolygon","coordinates":[[[[1.3892,51.39002],[1.38937,51.39],[1.38935,51.38993],[1.38918,51.38995],[1.3892,51.39002]]]]}},
{ "type":"Feature","properties":{"osm_way_id":"331218769","name":"Sainsbury's","building":"retail","shop":"supermarket","other":{"addr:city":"Ramsgate","addr:country":"GB","addr:county":"Kent","addr:district":"Thanet","addr:postcode":"CT12 5FJ","addr:street":"Dadson Way","addr:suburb":"Westwood","branch":"Thanet West Wood Cross Superstore","brand":"Sainsbury's","brand:wikidata":"Q152096","brand:wikipedia":"en:Sainsbury's","building:levels":"2","building:min_level":"1","check_date:opening_hours":"2020-12-16","diet:kosher":"yes","fhrs:id":"726592","layer":"1","nohousenumber":"yes","opening_hours":"Mo-Sa 06:00-22:00; Su 10:00-16:00","phone":"+44 1843 347220","ref":"2324","roof:levels":"0","roof:shape":"flat","toilets":"yes","toilets:wheelchair":"yes","website":"https:\/\/stores.sainsburys.co.uk\/2324\/thanet-west-wood-cross","wheelchair":"yes"}}, "geometry":{"type":"MultiPolygon","coordinates":[[[[1.39227,51.35595],[1.39271,51.35651],[1.39314,51.35638],[1.3932,51.35646],[1.39355,51.35636],[1.39437,51.35611],[1.3943,51.35602],[1.39454,51.35595],[1.39434,51.35569],[1.39407,51.35534],[1.39401,51.35527],[1.39325,51.3555],[1.39311,51.35532],[1.39298,51.35548],[1.39294,51.35551],[1.39295,51.35553],[1.39283,51.3557],[1.39256,51.35578],[1.39258,51.35581],[1.39261,51.35585],[1.39227,51.35595]]]]}},
{ "type":"Feature","properties":{"osm_way_id":"545896700","name":"The Food Warehouse","shop":"supermarket","other":{"addr:city":"Broadstairs","addr:country":"GB","addr:county":"Kent","addr:district":"Thanet","addr:postcode":"CT10 2RQ","addr:suburb":"Westwood","addr:unit":"B3","branch":"THANET FWH","brand":"The Food Warehouse","brand:wikidata":"Q87263899","fhrs:id":"943194","opening_hours":"Mo-Sa 08:00-20:00; Su 10:00-16:00","phone":"+44 1843 603674","ref":"1529","wheelchair":"yes"}}, "geometry":{"type":"MultiPolygon","coordinates":[[[[1.39856,51.36186],[1.39878,51.36169],[1.39873,51.36166],[1.39823,51.36141],[1.398,51.36158],[1.39856,51.36186]]]]}},
{ "type":"Feature","properties":{"osm_way_id":"545901272","name":"Asda","building":"supermarket","shop":"supermarket","other":{"addr:city":"Ramsgate","addr:country":"GB","addr:housenumber":"161","addr:postcode":"CT11 9TT","addr:street":"High Street","brand":"Asda","brand:wikidata":"Q297410","brand:wikipedia":"en:Asda","contact:facebook":"https:\/\/www.facebook.com\/asda\/","contact:twitter":"@asda","contact:website":"https:\/\/storelocator.asda.com\/south-east\/ramsgate\/161-high-street","fhrs:id":"352216","operator":"Asda Stores Ltd","source:addr":"FHRS Open Data"}}, "geometry":{"type":"MultiPolygon","coordinates":[[[[1.4142,51.33771],[1.41378,51.33728],[1.41418,51.33713],[1.41444,51.3374],[1.4146,51.33757],[1.41443,51.33763],[1.4142,51.33771]]]]}},
{ "type":"Feature","properties":{"osm_way_id":"545908702","name":"Morrisons","building":"retail","shop":"supermarket","other":{"addr:city":"Margate","addr:country":"GB","addr:county":"Kent","addr:district":"Thanet","addr:housenumber":"6","addr:postcode":"CT9 1PR","addr:street":"College Walk","branch":"Margate","brand":"Morrisons","brand:wikidata":"Q922344","brand:wikipedia":"en:Morrisons","building:levels":"2","fhrs:authority":"Thanet","fhrs:id":"637759","fhrs:local_authority_id":"PI\/000096605","opening_hours":"Mo-Sa 07:00-20:00; Su 10:00-16:00","payment:cash":"yes","payment:contactless":"yes","payment:mastercard":"yes","payment:visa":"yes","payment:visa_debit":"yes","ref":"643","source:addr":"FHRS Open Data","wheelchair":"yes"}}, "geometry":{"type":"MultiPolygon","coordinates":[[[[1.38372,51.38838],[1.3838,51.38847],[1.38363,51.38853],[1.38354,51.38856],[1.38344,51.38859],[1.38334,51.38863],[1.38332,51.38859],[1.38323,51.38862],[1.38326,51.38865],[1.38309,51.3887],[1.38312,51.38879],[1.38324,51.38883],[1.38331,51.3888],[1.38339,51.3889],[1.38345,51.38898],[1.38339,51.38901],[1.38352,51.38914],[1.38357,51.38912],[1.3836,51.38915],[1.38428,51.38892],[1.38408,51.38869],[1.38402,51.38861],[1.38408,51.38859],[1.38384,51.38833],[1.3838,51.38835],[1.38372,51.38838]]]]}},
{ "type":"Feature","properties":{"osm_way_id":"548987013","name":"Tesco Superstore","building":"retail","shop":"supermarket","other":{"addr:city":"Margate","addr:country":"GB","addr:county":"Kent","addr:district":"Thanet","addr:housenumber":"281","addr:postcode":"CT9 3PL","addr:street":"Northdown Road","addr:suburb":"Cliftonville","branch":"Margate Superstore","brand":"Tesco Superstore","brand:wikidata":"Q487494","brand:wikipedia":"en:Tesco","building:levels":"2","diet:kosher":"yes","fhrs:id":"608348","opening_hours":"Mo-Fr 07:00-22:00; Sa 07:00-20:00; Su 10:00-16:00","phone":"+44 345 677 9477","phone:signed":"no","ref":"2906","roof:levels":"0","roof:shape":"flat","source:addr":"FHRS Open Data","website":"https:\/\/www.tesco.com\/store-locator\/margate\/281-northdown-rd","wheelchair":"yes"}}, "geometry":{"type":"MultiPolygon","coordinates":[[[[1.40344,51.38652],[1.40344,51.38652],[1.40339,51.38654],[1.40341,51.38658],[1.40347,51.38656],[1.40349,51.3866],[1.40354,51.38669],[1.40356,51.38668],[1.40358,51.38671],[1.40364,51.3867],[1.40362,51.38667],[1.40392,51.3866],[1.40412,51.38656],[1.40411,51.38654],[1.40423,51.38651],[1.40415,51.38638],[1.40409,51.38639],[1.40408,51.38637],[1.40344,51.38652]]]]}},
{ "type":"Feature","properties":{"osm_way_id":"548989372","name":"Tesco","building":"retail","shop":"supermarket","other":{"addr:city":"Ramsgate","addr:country":"GB","addr:county":"Kent","addr:district":"Thanet","addr:postcode":"CT12 6NT","addr:street":"Manston Road","branch":"Ramsgate Manston Superstore","brand":"Tesco","brand:wikidata":"Q487494","brand:wikipedia":"en:Tesco","building:levels":"2","fhrs:id":"448849","opening_hours":"Mo-Sa 06:00-24:00; Su 10:00-16:00","opening_hours:covid19":"open","ref":"3112","roof:levels":"0","source:addr":"FHRS Open Data","website":"https:\/\/www.tesco.com\/store-locator\/ramsgate\/manston-road","wheelchair":"yes"}}, "geometry":{"type":"MultiPolygon","coordinates":[[[[1.38854,51.34086],[1.38784,51.3403],[1.38788,51.34028],[1.38778,51.3402],[1.38797,51.34011],[1.38806,51.34018],[1.3885,51.33997],[1.38855,51.33994],[1.38875,51.3401],[1.38885,51.34006],[1.38894,51.34013],[1.38897,51.34012],[1.38938,51.34046],[1.38854,51.34086]]]]}},
{ "type":"Feature","properties":{"osm_way_id":"553659245","name":"Lidl","building":"retail","shop":"supermarket","other":{"addr:city":"Ramsgate","addr:country":"GB","addr:county":"Kent","addr:housenumber":"416","addr:postcode":"CT12 6SJ","addr:street":"Margate Road","brand":"Lidl","brand:wikidata":"Q151954","brand:wikipedia":"en:Lidl","fhrs:id":"716495","opening_hours":"Mo-Sa 08:00-22:00; Su 10:00-16:00; PH 08:00-20:00","source:addr":"FHRS Open Data","wheelchair":"yes"}}, "geometry":{"type":"MultiPolygon","coordinates":[[[[1.39707,51.35702],[1.39718,51.35702],[1.39718,51.357],[1.39717,51.35698],[1.39749,51.35697],[1.39749,51.35692],[1.39756,51.35692],[1.39754,51.35668],[1.39747,51.35668],[1.39746,51.35657],[1.39746,51.35651],[1.39703,51.35653],[1.39707,51.35702]]]]}},
{ "type":"Feature","properties":{"osm_way_id":"778042936","name":"Waitrose","building":"retail","shop":"supermarket","other":{"addr:city":"Ramsgate","addr:postcode":"CT11 9EJ","addr:street":"Queen Street","brand":"Waitrose","brand:wikidata":"Q771734","brand:wikipedia":"en:Waitrose & Partners","fhrs:id":"716483","official_name":"Waitrose & Partners","operator":"Waitrose Ltd","wheelchair":"yes"}}, "geometry":{"type":"MultiPolygon","coordinates":[[[[1.41634,51.33286],[1.41635,51.33283],[1.41649,51.33267],[1.41649,51.33265],[1.41647,51.33264],[1.41653,51.33258],[1.41662,51.33248],[1.41626,51.33235],[1.41592,51.3327],[1.41634,51.33286]]]]}},
{ "type":"Feature","properties":{"osm_way_id":"882842414","name":"Aldi","building":"supermarket","shop":"supermarket","other":{"addr:city":"Ramsgate","addr:street":"Hardres Road","brand":"ALDI","brand:wikidata":"Q41171672","brand:wikipedia":"en:Aldi","opening_date":"2021-12-02","opening_hours":"Mo-Sa 08:00-22:00; Su 10:00-16:00"}}, "geometry":{"type":"MultiPolygon","coordinates":[[[[1.42151,51.33854],[1.42121,51.33864],[1.42118,51.33861],[1.42108,51.33864],[1.42117,51.33875],[1.42115,51.33876],[1.42111,51.33877],[1.4211,51.33878],[1.42131,51.33903],[1.42133,51.33902],[1.42138,51.339],[1.42147,51.33911],[1.42147,51.33911],[1.42188,51.33898],[1.42151,51.33854]]]]}}
]
}
