{
"type": "FeatureCollection",
"features": [
{ "type":"Feature","properties":{"osm_id":"271746017","name":"Market One","other":{"shop":"supermarket"}}, "geometry":{"type":"Point","coordinates":[-0.02298,52.04813 ]}},
{ "type":"Feature","properties":{"osm_id":"470672031","name":"Co-operative","other":{"shop":"supermarket"}}, "geometry":{"type":"Point","coordinates":[-0.18302,51.86589 ]}},
{ "type":"Feature","properties":{"osm_id":"967844429","name":"Costcutter","other":{"addr:city":"Baldock","addr:county":"Hertfordshire","addr:housenumber":"1","addr:postcode":"SG7 6AZ","addr:street":"High Street","fhrs:id":"961148","shop":"supermarket","source:addr":"FHRS Open Data"}}, "geometry":{"type":"Point","coordinates":[-0.18844,51.98967 ]}},
{ "type":"Feature","properties":{"osm_id":"1492512228","other":{"amenity":"parking_entrance"}}, "geometry":{"type":"Point","coordinates":[-0.23126,51.97869 ]}},
{ "type":"Feature","properties":{"osm_id":"1717756660","name":"Tesco Express","other":{"addr:city":"Hitchin","addr:postcode":"SG4 9SP","addr:street":"Station Approach","alt_name":"Tesco Hitchin Station Lyon Express","brand":"Tesco Express","brand:wikidata":"Q98456772","brand:wikipedia":"en:Tesco","contact:website":"https:\/\/www.tesco.com\/store-locator\/hitchin\/hitchin-station","operator":"Tesco Stores Ltd","shop":"supermarket"}}, "geometry":{"type":"Point","coordinates":[-0.26496,51.95313 ]}},
{ "type":"Feature","properties":{"osm_id":"3804621195","other":{"addr:housenumber":"30","shop":"supermarket"}}, "geometry":{"type":"Point","coordinates":[-0.02377,52.04686 ]}},
{ "type":"Feature","properties":{"osm_way_id":"30706713","name":"Sainsbury's","building":"yes","shop":"supermarket","other":{"addr:city":"Hitchin","addr:county":"Hertfordshire","addr:postcode":"SG5 1PU","addr:street":"Whinbush Road","alt_name":"Sainsbury's Hitchin Superstore;Sainsburys Supermarket","brand":"Sainsbury's","brand:wikidata":"Q152096","brand:wikipedia":"en:Sainsbury's","fhrs:id":"961390","source:addr":"FHRS Open Data"}}, "geometry":{"type":"MultiPolygon","coordinates":[[[[-0.27486,51.95096],[-0.27548,51.95102],[-0.2757,51.95093],[-0.27582,51.95104],[-0.27571,51.95151],[-0.27488,51.95142],[-0.27486,51.95151],[-0.2747,51.9515],[-0.27486,51.95096]]]]}},
{ "type":"Feature","properties":{"osm_way_id":"32206219","name":"Asda","building":"yes","shop":"supermarket","other":{"addr:city":"Hitchin","addr:country":"GB","addr:postcode":"SG4 9TY","addr:street":"Queen Street","alt_name":"ASDA Hitchin Supermarket","brand":"Asda","brand:wikidata":"Q297410","brand:wikipedia":"en:Asda","contact:facebook":"https:\/\/www.facebook.com\/asda\/","contact:twitter":"@asda","contact:website":"https:\/\/storelocator.asda.com\/east-of-england\/hitchin\/queen-street","fhrs:id":"961782","operator":"Asda Stores Ltd"}}, "geometry":{"type":"MultiPolygon","coordinates":[[[[-0.27633,51.94575],[-0.27655,51.94547],[-0.27664,51.9455],[-0.2768,51.94531],[-0.27701,51.94539],[-0.27663,51.94585],[-0.27633,51.94575]]]]}},
{ "type":"Feature","properties":{"osm_way_id":"83076057","name":"Al Halal Supermarket","building":"retail","shop":"supermarket","other":{"addr:city":"Birmingham","addr:housenumber":"7-13","addr:postcode":"B8 1LL","addr:street":"Alum Rock Road"}}, "geometry":{"type":"MultiPolygon","coordinates":[[[[-1.85898,52.49144],[-1.8586,52.49131],[-1.85882,52.49107],[-1.8592,52.4912],[-1.85898,52.49144]]]]}},
{ "type":"Feature","properties":{"osm_way_id":"83480798","name":"Waitrose","building":"yes","landuse":"retail","shop":"supermarket","other":{"addr:city":"Hitchin","addr:postcode":"SG5 1HF","addr:street":"Bedford Road","alt_name":"Waitrose Hitchin","brand":"Waitrose & Partners","brand:wikidata":"Q771734","brand:wikipedia":"en:Waitrose & Partners","operator":"Waitrose & Partners"}}, "geometry":{"type":"MultiPolygon","coordinates":[[[[-0.28141,51.95016],[-0.28177,51.94977],[-0.28263,51.95008],[-0.28227,51.95046],[-0.28141,51.95016]]]]}},
{ "type":"Feature","properties":{"osm_way_id":"85816569","name":"Tesco Extra","building":"yes","shop":"supermarket","other":{"addr:city":"Baldock","addr:country":"GB","addr:county":"Hertfordshire","addr:housenumber":"58","addr:postcode":"SG7 6BN","addr:street":"High Street","brand":"Tesco Extra","brand:wikidata":"Q25172225","brand:wikipedia":"en:Tesco Extra","fhrs:id":"965116","operator":"Tesco Stores Ltd","website":"https:\/\/www.tesco.com\/store-locator\/baldock\/58-high-st"}}, "geometry":{"type":"MultiPolygon","coordinates":[[[[-0.18524,51.9848],[-0.18618,51.98434],[-0.18625,51.9844],[-0.18624,51.98443],[-0.18604,51.98453],[-0.1862,51.98467],[-0.18629,51.98462],[-0.18646,51.98476],[-0.18655,51.98471],[-0.18636,51.98456],[-0.18647,51.9845],[-0.18657,51.98458],[-0.18659,51.98458],[-0.18679,51.98474],[-0.18672,51.98477],[-0.18674,51.98479],[-0.1867,51.98481],[-0.18688,51.98496],[-0.18677,51.98502],[-0.18701,51.98521],[-0.187,51.98529],[-0.18689,51.98534],[-0.18697,51.98541],[-0.18695,51.98555],[-0.18684,51.9856],[-0.18692,51.98567],[-0.18692,51.98572],[-0.1866,51.98587],[-0.18603,51.98544],[-0.186,51.98545],[-0.18576,51.98526],[-0.18579,51.98524],[-0.18524,51.9848]]]]}},
{ "type":"Feature","properties":{"osm_way_id":"91941933","name":"Morrisons","building":"yes","shop":"supermarket","other":{"addr:city":"Letchworth Garden City","addr:postcode":"SG6 3TS","addr:street":"Broadway","brand":"Morrisons","brand:wikidata":"Q922344","brand:wikipedia":"en:Morrisons","fhrs:id":"961409","layer":"1","source:addr":"FHRS Open Data"}}, "geometry":{"type":"MultiPolygon","coordinates":[[[[-0.23049,51.97794],[-0.23077,51.97797],[-0.23075,51.97804],[-0.23113,51.97809],[-0.23114,51.97805],[-0.2314,51.97809],[-0.23147,51.97812],[-0.2315,51.97815],[-0.23151,51.97819],[-0.2315,51.97822],[-0.23143,51.97839],[-0.23134,51.97838],[-0.23125,51.97862],[-0.23129,51.97863],[-0.23126,51.97869],[-0.2312,51.97886],[-0.23113,51.97885],[-0.23106,51.97904],[-0.23088,51.97902],[-0.23089,51.97898],[-0.23063,51.97895],[-0.23071,51.97876],[-0.23075,51.97867],[-0.23022,51.97861],[-0.23022,51.97862],[-0.23006,51.9786],[-0.23027,51.97802],[-0.23031,51.97799],[-0.23034,51.97797],[-0.23038,51.97795],[-0.23044,51.97794],[-0.23049,51.97794]]]]}},
{ "type":"Feature","properties":{"osm_way_id":"91959031","name":"Iceland","building":"yes","shop":"supermarket","other":{"addr:city":"Letchworth Garden City","addr:housenumber":"4","addr:place":"Cotton Brown Park","addr:postcode":"SG6 1UP","branch":"Letchworth Garden City","brand":"Iceland","brand:wikidata":"Q721810","fhrs:id":"961745","source:addr":"FHRS Open Data"}}, "geometry":{"type":"MultiPolygon","coordinates":[[[[-0.20292,51.98265],[-0.20271,51.98279],[-0.20234,51.98257],[-0.20255,51.98243],[-0.20292,51.98265]]]]}},
{ "type":"Feature","properties":{"osm_way_id":"91959037","name":"Lidl","building":"supermarket","shop":"supermarket","other":{"addr:city":"Letchworth Garden City","addr:postcode":"SG6 1WG","branch":"Letchworth Garden City","brand":"Lidl","brand:wikidata":"Q151954","fhrs:id":"961100"}}, "geometry":{"type":"MultiPolygon","coordinates":[[[[-0.20388,51.98397],[-0.20376,51.98386],[-0.20369,51.98388],[-0.20355,51.98375],[-0.2027,51.9841],[-0.20296,51.98434],[-0.20388,51.98397]]]]}},
{ "type":"Feature","properties":{"osm_way_id":"91959048","name":"Home Bargains","building":"yes","shop":"supermarket","other":{"addr:city":"Letchworth Garden City","addr:housenumber":"6","addr:place":"Cotton Brown Park","addr:postcode":"SG6 1UP","branch":"Letchworth Garden City","fhrs:id":"961972","source:addr":"FHRS Open Data"}}, "geometry":{"type":"MultiPolygon","coordinates":[[[[-0.20329,51.98261],[-0.20336,51.98266],[-0.20349,51.98258],[-0.20354,51.98261],[-0.20365,51.98254],[-0.20301,51.98215],[-0.20277,51.9823],[-0.20329,51.98261]]]]}},
{ "type":"Feature","properties":{"osm_way_id":"91959054","name":"Sainsbury's","building":"yes","shop":"supermarket","other":{"addr:city":"Letchworth Garden City","addr:postcode":"SG6 2HX","addr:street":"Third Avenue","alt_name":"J Sainsbury","branch":"Letchworth Garden City","brand:wikidata":"Q152096","fhrs:id":"965089","source:addr":"FHRS Open Data"}}, "geometry":{"type":"MultiPolygon","coordinates":[[[[-0.20443,51.982],[-0.20443,51.98199],[-0.2044,51.98198],[-0.20457,51.98187],[-0.20415,51.98161],[-0.20388,51.98145],[-0.203,51.982],[-0.20312,51.98207],[-0.20304,51.98212],[-0.20375,51.98255],[-0.20433,51.98244],[-0.20423,51.98226],[-0.2045,51.98209],[-0.20439,51.98202],[-0.20443,51.982]]]]}},
{ "type":"Feature","properties":{"osm_way_id":"154592140","name":"Tesco Extra","building":"retail","shop":"supermarket","other":{"addr:city":"Royston","addr:postcode":"SG8 5UA","addr:street":"Old North Road","alt_name":"Tesco Royston Extra","brand":"Tesco Extra","brand:wikidata":"Q25172225","brand:wikipedia":"en:Tesco Extra","designation":"3108","operator":"Tesco Stores Ltd","payment:cash":"yes","payment:credit_cards":"yes","payment:debit_cards":"yes","payment:nfc":"yes","phone":"+44 345 6779582"}}, "geometry":{"type":"MultiPolygon","coordinates":[[[[-0.03359,52.05891],[-0.03348,52.05869],[-0.03202,52.05897],[-0.03241,52.05975],[-0.03296,52.05964],[-0.03295,52.05962],[-0.03345,52.05953],[-0.03342,52.05947],[-0.03348,52.05946],[-0.03342,52.05935],[-0.03359,52.05931],[-0.03355,52.05924],[-0.03405,52.05914],[-0.03404,52.05911],[-0.03408,52.0591],[-0.03406,52.05907],[-0.03415,52.05906],[-0.03407,52.05891],[-0.03399,52.05892],[-0.03395,52.05884],[-0.03359,52.05891]]]]}},
{ "type":"Feature","properties":{"osm_way_id":"154592822","name":"Morrisons","building":"yes","shop":"supermarket","other":{"addr:postcode":"SG8 5BA","addr:street":"Baldock Street","alt_name":"Morrisons Royston","brand":"Morrisons","brand:wikidata":"Q922344","brand:wikipedia":"en:Morrisons"}}, "geometry":{"type":"MultiPolygon","coordinates":[[[[-0.02548,52.04799],[-0.02547,52.04803],[-0.02541,52.04807],[-0.02507,52.04806],[-0.02507,52.04793],[-0.02495,52.04793],[-0.02495,52.0479],[-0.02478,52.0479],[-0.02476,52.04782],[-0.02494,52.04779],[-0.02494,52.04768],[-0.02534,52.04768],[-0.02547,52.0477],[-0.02545,52.04799],[-0.02548,52.04799]]]]}},
{ "type":"Feature","properties":{"osm_way_id":"223283682","name":"M&S","building":"yes","shop":"supermarket","other":{"addr:city":"Hitchin","addr:housenumber":"121-123","addr:postcode":"SG5 1LS","addr:street":"Bancroft","alt_name":"M&S Hitchin Simply Food","brand":"Marks & Spencer","brand:wikidata":"Q714491","building:levels":"3"}}, "geometry":{"type":"MultiPolygon","coordinates":[[[[-0.27753,51.9491],[-0.27727,51.94904],[-0.27728,51.94902],[-0.27702,51.94895],[-0.27692,51.94893],[-0.27691,51.94894],[-0.27691,51.94893],[-0.27689,51.94892],[-0.27687,51.94892],[-0.27684,51.94897],[-0.27685,51.94898],[-0.27687,51.94899],[-0.27688,51.94898],[-0.27689,51.94899],[-0.27695,51.94904],[-0.27748,51.94918],[-0.27753,51.9491]]]]}},
{ "type":"Feature","properties":{"osm_way_id":"290519215","name":"Budgens","building":"retail","shop":"supermarket","other":{"addr:city":"Stevenage","addr:district":"Great Ashby","addr:housename":"Unit 6","addr:place":"The Neighbourhood Centre","addr:postcode":"SG1 6DQ","addr:street":"Whitehorse Lane","brand":"Budgens","brand:wikidata":"Q4985016","brand:wikipedia":"en:Budgens","building:levels":"2","fhrs:id":"961430","opening_hours":"Mo-Sa 08:00-22:00; Su 10:00-16:00","roof:levels":"0","roof:shape":"hipped","source:addr":"FHRS Open Data"}}, "geometry":{"type":"MultiPolygon","coordinates":[[[[-0.17044,51.92958],[-0.17026,51.92951],[-0.17062,51.92917],[-0.17098,51.92931],[-0.17078,51.9295],[-0.17072,51.92955],[-0.17067,51.92953],[-0.17054,51.92948],[-0.17044,51.92958]]]]}},
{ "type":"Feature","properties":{"osm_way_id":"569758571","name":"Sainsbury's Local","building":"retail","shop":"supermarket","other":{"addr:city":"Letchworth Garden City","addr:housenumber":"46-48","addr:postcode":"SG6 3DD","addr:street":"Eastcheap","brand:wikidata":"Q13218434","fhrs:id":"961694","opening_hours":"Mo-Fr 07:00-23:00; Sa 09:00-21:00; Su 07:00-23:00","phone":"+44 1462 486258","source:addr":"FHRS Open Data","website":"https:\/\/stores.sainsburys.co.uk\/4400\/letchworth-eastcheap-local"}}, "geometry":{"type":"MultiPolygon","coordinates":[[[[-0.22836,51.9777],[-0.22852,51.97773],[-0.22866,51.97748],[-0.22855,51.97745],[-0.22853,51.97748],[-0.22848,51.97747],[-0.22847,51.9775],[-0.22823,51.97745],[-0.2282,51.9775],[-0.22815,51.97749],[-0.22806,51.97764],[-0.22812,51.97765],[-0.22836,51.9777]]]]}},
{ "type":"Feature","properties":{"osm_way_id":"659993949","name":"Aldi","building":"yes","shop":"supermarket","other":{"addr:postcode":"SG8 5GX","brand":"ALDI","brand:wikidata":"Q41171672","brand:wikipedia":"en:Aldi"}}, "geometry":{"type":"MultiPolygon","coordinates":[[[[-0.04074,52.05492],[-0.04096,52.05505],[-0.04102,52.05501],[-0.04113,52.05508],[-0.04045,52.05549],[-0.04013,52.05529],[-0.04053,52.05505],[-0.04074,52.05492]]]]}},
{ "type":"Feature","properties":{"osm_way_id":"687865390","name":"M&S Foodhall","building":"yes","shop":"supermarket","other":{"addr:postcode":"SG8 5GX","brand":"M&S Foodhall","brand:wikidata":"Q714491"}}, "geometry":{"type":"MultiPolygon","coordinates":[[[[-0.04013,52.05529],[-0.03982,52.05509],[-0.04022,52.05485],[-0.04053,52.05505],[-0.04013,52.05529]]]]}},
{ "type":"Feature","properties":{"osm_way_id":"725160168","name":"Aldi","building":"yes","shop":"supermarket","other":{"addr:city":"Letchworth Garden City","addr:postcode":"SG6 2HB","addr:street":"Avenue One","branch":"Letchworth Garden City","brand":"ALDI","brand:wikidata":"Q41171672","brand:wikipedia":"en:Aldi","fhrs:id":"1175846","opening_date":"2019-09-26","opening_hours":"Mo-Sa 08:00-22:00; Su 10:00-16:00; PH 08:00-20:00","operator":"Aldi","toilets":"yes"}}, "geometry":{"type":"MultiPolygon","coordinates":[[[[-0.20785,51.97811],[-0.20789,51.97821],[-0.20781,51.97822],[-0.20788,51.97842],[-0.20702,51.97854],[-0.20691,51.97823],[-0.20785,51.97811]]]]}},
{ "type":"Feature","properties":{"osm_way_id":"731865921","name":"Lidl","building":"yes","shop":"supermarket","other":{"brand":"Lidl","brand:wikidata":"Q151954","brand:wikipedia":"en:Lidl","operator":"Lidl"}}, "geometry":{"type":"MultiPolygon","coordinates":[[[[-0.36856,52.75482],[-0.36842,52.75428],[-0.36839,52.75419],[-0.36788,52.75424],[-0.36788,52.75427],[-0.36789,52.75431],[-0.36791,52.75431],[-0.36793,52.75435],[-0.36793,52.75438],[-0.36794,52.7544],[-0.36795,52.75442],[-0.36795,52.75445],[-0.36796,52.75447],[-0.36796,52.75449],[-0.36797,52.75451],[-0.36798,52.75454],[-0.36798,52.75456],[-0.36799,52.75458],[-0.36799,52.75459],[-0.368,52.75462],[-0.36801,52.75464],[-0.36801,52.75466],[-0.36802,52.75469],[-0.36803,52.75471],[-0.36803,52.75473],[-0.36804,52.75476],[-0.36805,52.75478],[-0.36807,52.75487],[-0.36839,52.75483],[-0.36856,52.75482]]]]}}
]
}
