{
"type": "FeatureCollection",
"features": [
{ "type":"Feature","properties":{"osm_id":"529590568","name":"Lidl","other":{"addr:country":"GB","addr:postcode":"CF39 9BL","addr:street":"Cymmer Road","brand":"Lidl","brand:wikidata":"Q151954","fhrs:id":"460027","shop":"supermarket"}}, "geometry":{"type":"Point","coordinates":[-3.41772,51.6146 ]}},
{ "type":"Feature","properties":{"osm_id":"976825821","name":"Asda","other":{"addr:city":"Aberdare","addr:country":"GB","addr:postcode":"CF44 0AH","addr:street":"Ffordd Tirwaun","brand":"Asda","brand:wikidata":"Q297410","brand:wikipedia":"en:Asda","contact:facebook":"https:\/\/www.facebook.com\/asda\/","contact:twitter":"@asda","contact:website":"https:\/\/storelocator.asda.com\/wales\/aberdare\/riverside-retail-park","fhrs:id":"67899","operator":"Asda Stores Ltd","shop":"supermarket","wheelchair":"yes"}}, "geometry":{"type":"Point","coordinates":[-3.4225,51.70306 ]}},
{ "type":"Feature","properties":{"osm_id":"1103770820","name":"Co-op Food","other":{"addr:city":"Pontypridd","addr:postcode":"CF37 4TH","addr:street":"Taff Street","brand":"Co-op Food","brand:wikidata":"Q3277439","brand:wikipedia":"en:Co-op Food","shop":"supermarket"}}, "geometry":{"type":"Point","coordinates":[-3.33997,51.60448 ]}},
{ "type":"Feature","properties":{"osm_id":"1711930619","name":"Co-op Food","other":{"brand":"Co-op Food","brand:wikidata":"Q3277439","brand:wikipedia":"en:Co-op Food","shop":"supermarket"}}, "geometry":{"type":"Point","coordinates":[-3.35082,51.55858 ]}},
{ "type":"Feature","properties":{"osm_id":"1777074316","name":"Tesco Express","other":{"addr:postcode":"CF72 9EE","addr:street":"Cowbridge Road","addr:unit":"1","brand":"Tesco Express","brand:wikidata":"Q98456772","contact:website":"https:\/\/www.tesco.com\/store-locator\/pontyclun\/1-cowbridge-rd","shop":"supermarket"}}, "geometry":{"type":"Point","coordinates":[-3.39289,51.52198 ]}},
{ "type":"Feature","properties":{"osm_id":"1876675529","name":"Spar","other":{"brand":"Spar","brand:wikidata":"Q610492","shop":"supermarket"}}, "geometry":{"type":"Point","coordinates":[-3.3915,51.52253 ]}},
{ "type":"Feature","properties":{"osm_id":"3161874301","name":"Co-op","other":{"addr:city":"Hendreforgan","addr:postcode":"CF39 8TB","addr:street":"Cambrian avenue","operator":"The Co-operative Group","shop":"supermarket"}}, "geometry":{"type":"Point","coordinates":[-3.47155,51.5843 ]}},
{ "type":"Feature","properties":{"osm_id":"5837715991","name":"Spar","other":{"brand":"Spar","brand:wikidata":"Q610492","brand:wikipedia":"en:Spar (retailer)","opening_hours":"Mo-Sa 07:00-22:00; Su 08:00-22:00","shop":"supermarket"}}, "geometry":{"type":"Point","coordinates":[-3.53331,51.6736 ]}},
{ "type":"Feature","properties":{"osm_id":"5837736885","name":"Spar","other":{"brand":"Spar","brand:wikidata":"Q610492","brand:wikipedia":"en:Spar (retailer)","opening_hours":"Mo-Fr 05:30-23:00; Sa 06:30-23:00; Su 07:00-22:30","shop":"supermarket"}}, "geometry":{"type":"Point","coordinates":[-3.5093,51.66148 ]}},
{ "type":"Feature","properties":{"osm_id":"8121045262","name":"ALDI","other":{"brand":"ALDI","brand:wikidata":"Q41171672","brand:wikipedia":"en:Aldi","shop":"supermarket","website":"https:\/\/aldi.co.uk"}}, "geometry":{"type":"Point","coordinates":[-3.29048,51.57881 ]}},
{ "type":"Feature","properties":{"osm_way_id":"24515991","name":"Makro","building":"retail","shop":"supermarket","other":{"addr:postcode":"CF15 7QW","brand:wikidata":"Q704606","fhrs:id":"145598"}}, "geometry":{"type":"MultiPolygon","coordinates":[[[[-3.27692,51.56565],[-3.2783,51.56494],[-3.27756,51.56439],[-3.27618,51.5651],[-3.27692,51.56565]]]]}},
{ "type":"Feature","properties":{"osm_way_id":"58686264","name":"Tesco Extra","building":"yes","shop":"supermarket","other":{"brand":"Tesco Extra","brand:wikidata":"Q25172225","brand:wikipedia":"en:Tesco Extra"}}, "geometry":{"type":"MultiPolygon","coordinates":[[[[-3.37796,51.53473],[-3.37793,51.53443],[-3.37791,51.53443],[-3.37785,51.53393],[-3.37712,51.53397],[-3.37713,51.53399],[-3.37606,51.53405],[-3.37606,51.53408],[-3.37572,51.5341],[-3.37573,51.53414],[-3.37556,51.53415],[-3.37563,51.53444],[-3.37586,51.53443],[-3.37582,51.53426],[-3.37608,51.53424],[-3.37617,51.53475],[-3.37615,51.53475],[-3.37617,51.53485],[-3.37671,51.53481],[-3.37721,51.53478],[-3.37721,51.53485],[-3.37745,51.53483],[-3.37744,51.53476],[-3.37796,51.53473]]]]}},
{ "type":"Feature","properties":{"osm_way_id":"58689039","name":"Morrisons","building":"yes","shop":"supermarket","other":{"addr:postcode":"CF39 9BA","brand":"Morrisons","brand:wikidata":"Q922344","brand:wikipedia":"en:Morrisons","fhrs:id":"79574"}}, "geometry":{"type":"MultiPolygon","coordinates":[[[[-3.40667,51.60943],[-3.40611,51.60922],[-3.40606,51.60926],[-3.40573,51.60913],[-3.40562,51.60924],[-3.40564,51.60925],[-3.40548,51.60941],[-3.40563,51.60947],[-3.40554,51.60956],[-3.40569,51.60962],[-3.40562,51.60969],[-3.40613,51.60989],[-3.40604,51.60997],[-3.40629,51.61007],[-3.40646,51.60991],[-3.40626,51.60983],[-3.40667,51.60943]]]]}},
{ "type":"Feature","properties":{"osm_way_id":"80536484","name":"Tesco","building":"retail","shop":"supermarket","other":{"brand":"Tesco","brand:wikidata":"Q487494","brand:wikipedia":"en:Tesco"}}, "geometry":{"type":"MultiPolygon","coordinates":[[[[-3.4496,51.71792],[-3.44856,51.71851],[-3.44835,51.71837],[-3.44832,51.71839],[-3.44786,51.71808],[-3.44862,51.71765],[-3.44871,51.71771],[-3.4489,51.7176],[-3.44936,51.71791],[-3.44949,51.71784],[-3.4496,51.71792]]]]}},
{ "type":"Feature","properties":{"osm_way_id":"97310779","name":"Lidl","building":"yes","shop":"supermarket","other":{"addr:country":"GB","addr:postcode":"CF44 8AD","addr:street":"Gadlys Road","brand":"Lidl","brand:wikidata":"Q151954","fhrs:id":"64545","wheelchair":"yes"}}, "geometry":{"type":"MultiPolygon","coordinates":[[[[-3.45194,51.71683],[-3.45139,51.71703],[-3.45156,51.71721],[-3.4521,51.71701],[-3.45194,51.71683]]]]}},
{ "type":"Feature","properties":{"osm_way_id":"104418415","name":"The Co-operative Food","building":"yes","shop":"supermarket","other":{"name:cy":"The Co-operative Bwyd"}}, "geometry":{"type":"MultiPolygon","coordinates":[[[[-3.45142,51.61991],[-3.45102,51.62017],[-3.45153,51.62048],[-3.45164,51.62041],[-3.45194,51.62022],[-3.45142,51.61991]]]]}},
{ "type":"Feature","properties":{"osm_way_id":"104660674","name":"Asda","building":"supermarket","shop":"supermarket","other":{"addr:city":"Tonypandy","addr:country":"GB","addr:postcode":"CF40 2JQ","addr:street":"Llwynypia Road","brand":"Asda","brand:wikidata":"Q297410","brand:wikipedia":"en:Asda","contact:facebook":"https:\/\/www.facebook.com\/asda\/","contact:twitter":"@asda","contact:website":"https:\/\/storelocator.asda.com\/wales\/tonypandy\/colliers-way","fhrs:id":"318406","operator":"Asda Stores Ltd"}}, "geometry":{"type":"MultiPolygon","coordinates":[[[[-3.45385,51.6308],[-3.45365,51.63137],[-3.45493,51.63154],[-3.45515,51.63091],[-3.45481,51.63086],[-3.45474,51.63092],[-3.45385,51.6308]]]]}},
{ "type":"Feature","properties":{"osm_way_id":"169026664","name":"Sainsbury's","building":"yes","shop":"supermarket","other":{"addr:postcode":"CF37 4DA","brand":"Sainsbury's","brand:wikidata":"Q152096","brand:wikipedia":"en:Sainsbury's","fhrs:id":"460029"}}, "geometry":{"type":"MultiPolygon","coordinates":[[[[-3.33001,51.60164],[-3.33002,51.60103],[-3.3302,51.60103],[-3.3302,51.60098],[-3.33137,51.60099],[-3.33159,51.60106],[-3.33157,51.60165],[-3.33001,51.60164]]]]}},
{ "type":"Feature","properties":{"osm_way_id":"178875738","name":"Aldi","building":"shop","shop":"supermarket","other":{"addr:postcode":"CF72 8RP","brand":"ALDI","brand:wikidata":"Q41171672","brand:wikipedia":"en:Aldi","fhrs:id":"536026"}}, "geometry":{"type":"MultiPolygon","coordinates":[[[[-3.37679,51.53369],[-3.37678,51.53363],[-3.37697,51.53362],[-3.37697,51.53356],[-3.37692,51.53325],[-3.37691,51.53317],[-3.37653,51.53319],[-3.37661,51.5337],[-3.37679,51.53369]]]]}},
{ "type":"Feature","properties":{"osm_way_id":"317238487","name":"The Co-operative Food","building":"yes","shop":"supermarket","other":{"addr:city":"Treorchy","brand":"The Co-operative Food","brand:wikidata":"Q107617274"}}, "geometry":{"type":"MultiPolygon","coordinates":[[[[-3.50554,51.6577],[-3.50539,51.65764],[-3.50541,51.65762],[-3.50522,51.65755],[-3.50482,51.65795],[-3.50506,51.65804],[-3.50503,51.65808],[-3.50513,51.65811],[-3.50514,51.6581],[-3.5052,51.65812],[-3.50525,51.65807],[-3.5052,51.65805],[-3.50554,51.6577]]]]}},
{ "type":"Feature","properties":{"osm_way_id":"421155981","name":"Tesco Extra","building":"yes","shop":"supermarket","other":{"addr:city":"Pontypridd","addr:housename":"Gelli-Hirion IndustriaLEstate","addr:postcode":"CF37 5SN","brand":"Tesco Extra","brand:wikidata":"Q25172225","brand:wikipedia":"en:Tesco Extra","designation":"Pontypridd Extra","fhrs:id":"42374"}}, "geometry":{"type":"MultiPolygon","coordinates":[[[[-3.29589,51.58135],[-3.29586,51.58134],[-3.2956,51.58147],[-3.29536,51.58136],[-3.29555,51.5812],[-3.29534,51.5811],[-3.29544,51.58102],[-3.29537,51.58099],[-3.29514,51.58119],[-3.29488,51.58108],[-3.29502,51.58096],[-3.29477,51.58084],[-3.29487,51.58076],[-3.29471,51.58069],[-3.29501,51.58044],[-3.29491,51.58039],[-3.29508,51.58024],[-3.29501,51.58021],[-3.29523,51.58002],[-3.29651,51.5806],[-3.29645,51.58066],[-3.29662,51.58073],[-3.29621,51.58107],[-3.29589,51.58135]]]]}},
{ "type":"Feature","properties":{"osm_way_id":"421156564","name":"Co-op Food","building":"yes","shop":"supermarket","other":{"addr:city":"Church Village","addr:postcode":"CF38 1SB","addr:street":"The Precinct","brand":"Co-op Food","brand:wikidata":"Q3277439","brand:wikipedia":"en:Co-op Food","fhrs:id":"113901"}}, "geometry":{"type":"MultiPolygon","coordinates":[[[[-3.3138,51.56746],[-3.31329,51.56775],[-3.31314,51.56765],[-3.31344,51.56748],[-3.31338,51.56744],[-3.31343,51.56741],[-3.3133,51.56732],[-3.31353,51.56719],[-3.31373,51.56732],[-3.31366,51.56737],[-3.3138,51.56746]]]]}},
{ "type":"Feature","properties":{"osm_way_id":"429460023","name":"Lidl","building":"yes","shop":"supermarket","other":{"addr:country":"GB","addr:postcode":"CF43 3HJ","addr:street":"East Road","brand":"Lidl","brand:wikidata":"Q151954","fhrs:id":"58136"}}, "geometry":{"type":"MultiPolygon","coordinates":[[[[-3.43145,51.64608],[-3.43121,51.64604],[-3.43118,51.6461],[-3.43101,51.64607],[-3.43133,51.64543],[-3.43142,51.64545],[-3.4318,51.64552],[-3.43172,51.64569],[-3.43165,51.64568],[-3.43145,51.64608]]]]}},
{ "type":"Feature","properties":{"osm_way_id":"595780059","name":"Iceland","building":"yes","shop":"supermarket","other":{"brand":"Iceland","brand:wikidata":"Q721810","building:levels":"1"}}, "geometry":{"type":"MultiPolygon","coordinates":[[[[-3.37782,51.68171],[-3.37778,51.68169],[-3.37775,51.68166],[-3.37769,51.68163],[-3.37773,51.68159],[-3.37785,51.68148],[-3.37765,51.6814],[-3.37746,51.6816],[-3.37757,51.68166],[-3.37761,51.68169],[-3.37761,51.68169],[-3.37755,51.68168],[-3.37742,51.68174],[-3.37757,51.68185],[-3.37782,51.68171]]]]}},
{ "type":"Feature","properties":{"osm_way_id":"595780205","name":"Central Food Store","building":"yes","shop":"supermarket","other":{"addr:housenumber":"26B","addr:street":"Oxford Street","building:levels":"2"}}, "geometry":{"type":"MultiPolygon","coordinates":[[[[-3.37887,51.68253],[-3.37878,51.68242],[-3.37849,51.68251],[-3.37844,51.68247],[-3.37841,51.68245],[-3.37826,51.68252],[-3.37845,51.68267],[-3.37867,51.6826],[-3.37887,51.68253]]]]}},
{ "type":"Feature","properties":{"osm_way_id":"853038836","name":"Lidl","building":"yes","shop":"supermarket","other":{"addr:country":"GB","addr:postcode":"CF37 1HF","addr:street":"Rhondda Road","brand":"Lidl","brand:wikidata":"Q151954","brand:wikipedia":"en:Lidl","fhrs:id":"818603"}}, "geometry":{"type":"MultiPolygon","coordinates":[[[[-3.34597,51.6011],[-3.34593,51.60106],[-3.34536,51.60132],[-3.34508,51.60108],[-3.34529,51.60099],[-3.34534,51.60103],[-3.34586,51.6008],[-3.34593,51.60086],[-3.34596,51.60084],[-3.34606,51.60093],[-3.34614,51.60089],[-3.34629,51.60102],[-3.34615,51.60109],[-3.34609,51.60104],[-3.34597,51.6011]]]]}},
{ "type":"Feature","properties":{"osm_way_id":"853041231","name":"Lidl","building":"yes","shop":"supermarket","other":{"addr:country":"GB","addr:housename":"Riverside Yard","addr:postcode":"CF42 6EJ","addr:street":"High Street","brand":"Lidl","brand:wikidata":"Q151954","brand:wikipedia":"en:Lidl","fhrs:id":"556137"}}, "geometry":{"type":"MultiPolygon","coordinates":[[[[-3.49943,51.65729],[-3.49911,51.65717],[-3.49874,51.65704],[-3.49888,51.6569],[-3.49895,51.65692],[-3.499,51.65686],[-3.49932,51.65697],[-3.49936,51.65694],[-3.49966,51.65705],[-3.49943,51.65729]]]]}},
{ "type":"Feature","properties":{"osm_way_id":"938077712","name":"Family Shopper","building":"yes","shop":"supermarket"},"geometry":{"type":"MultiPolygon","coordinates":[[[[-3.44658,51.71376],[-3.44653,51.71362],[-3.44678,51.71359],[-3.44683,51.71373],[-3.44658,51.71376]]]]}},
{ "type":"Feature","properties":{"osm_way_id":"1002228008","name":"Co-op","building":"yes","shop":"supermarket"},"geometry":{"type":"MultiPolygon","coordinates":[[[[-3.51178,51.73839],[-3.51153,51.73849],[-3.5114,51.73837],[-3.51165,51.73827],[-3.51178,51.73839]]]]}}
]
}
