{
"type": "FeatureCollection",
"features": [
{ "type":"Feature","properties":{"osm_id":"5373124552","name":"Co-op Food","other":{"brand":"Co-op Food","brand:wikidata":"Q3277439","brand:wikipedia":"en:Co-op Food","shop":"supermarket"}}, "geometry":{"type":"Point","coordinates":[-1.44525,52.53615 ]}},
{ "type":"Feature","properties":{"osm_id":"5816705717","name":"Co-op Food","other":{"brand":"Co-op Food","brand:wikidata":"Q3277439","brand:wikipedia":"en:Co-op Food","shop":"supermarket"}}, "geometry":{"type":"Point","coordinates":[-1.50607,52.53138 ]}},
{ "type":"Feature","properties":{"osm_way_id":"65767213","name":"Aldi","building":"yes","shop":"supermarket","other":{"brand":"ALDI","brand:wikidata":"Q41171672","brand:wikipedia":"en:Aldi"}}, "geometry":{"type":"MultiPolygon","coordinates":[[[[-1.4761,52.47977],[-1.47599,52.47979],[-1.4756,52.47985],[-1.47556,52.47975],[-1.47542,52.47941],[-1.47592,52.47933],[-1.4761,52.47977]]]]}},
{ "type":"Feature","properties":{"osm_way_id":"66767078","name":"Co-op Food","building":"retail","shop":"supermarket","other":{"brand":"Co-op Food","brand:wikidata":"Q3277439","brand:wikipedia":"en:Co-op Food"}}, "geometry":{"type":"MultiPolygon","coordinates":[[[[-1.48286,52.46399],[-1.48252,52.46397],[-1.48255,52.4638],[-1.48288,52.46382],[-1.48286,52.46399]]]]}},
{ "type":"Feature","properties":{"osm_way_id":"150634352","name":"Tesco Extra","building":"yes","shop":"supermarket","other":{"brand":"Tesco Extra","brand:wikidata":"Q25172225","brand:wikipedia":"en:Tesco Extra"}}, "geometry":{"type":"MultiPolygon","coordinates":[[[[-1.47545,52.48143],[-1.47331,52.48166],[-1.47315,52.48111],[-1.47479,52.48094],[-1.47489,52.4813],[-1.47514,52.48127],[-1.47512,52.4812],[-1.47538,52.48117],[-1.47545,52.48143]]]]}},
{ "type":"Feature","properties":{"osm_way_id":"154900831","name":"Sainsbury's","building":"yes","shop":"supermarket","other":{"addr:postcode":"CV11 4XS","addr:street":"Vicarage Street","brand":"Sainsbury's","brand:wikidata":"Q152096","brand:wikipedia":"en:Sainsbury's","designation":"Nuneaton Superstore","wheelchair":"yes"}}, "geometry":{"type":"MultiPolygon","coordinates":[[[[-1.46452,52.52007],[-1.46421,52.52023],[-1.46419,52.52021],[-1.46415,52.52023],[-1.46376,52.52043],[-1.46371,52.5204],[-1.46355,52.52048],[-1.46297,52.52006],[-1.46395,52.51956],[-1.46417,52.51972],[-1.46407,52.51977],[-1.46422,52.51988],[-1.46425,52.51987],[-1.46452,52.52007]]]]}},
{ "type":"Feature","properties":{"osm_way_id":"256981764","name":"Lidl","building":"yes","shop":"supermarket","other":{"addr:country":"GB","addr:postcode":"CV11 5LD","addr:street":"Queen's Road","brand":"Lidl","brand:wikidata":"Q151954","brand:wikipedia":"en:Lidl","designation":"Nuneaton","fhrs:id":"638714"}}, "geometry":{"type":"MultiPolygon","coordinates":[[[[-1.47503,52.52258],[-1.475,52.52236],[-1.4742,52.52241],[-1.47424,52.52266],[-1.47481,52.52263],[-1.47481,52.52259],[-1.47503,52.52258]]]]}},
{ "type":"Feature","properties":{"osm_way_id":"307445977","name":"Co-op Food","building":"retail","shop":"supermarket","other":{"addr:city":"Bulkington","addr:postcode":"CV12 9JD","addr:street":"School Road","brand":"Co-op Food","brand:wikidata":"Q3277439","brand:wikipedia":"en:Co-op Food","fhrs:id":"235227","operator":"Heart of England Co-operative Society"}}, "geometry":{"type":"MultiPolygon","coordinates":[[[[-1.42375,52.47616],[-1.42335,52.47607],[-1.42325,52.47622],[-1.42327,52.47624],[-1.42354,52.4763],[-1.42379,52.47638],[-1.42381,52.47629],[-1.42372,52.47628],[-1.42375,52.47616]]]]}},
{ "type":"Feature","properties":{"osm_way_id":"307445980","name":"Spar","building":"yes","shop":"supermarket","other":{"brand":"Spar","brand:wikidata":"Q610492","brand:wikipedia":"en:Spar (retailer)"}}, "geometry":{"type":"MultiPolygon","coordinates":[[[[-1.42456,52.47599],[-1.4245,52.47615],[-1.42468,52.47616],[-1.42471,52.47601],[-1.42459,52.47599],[-1.42456,52.47599]]]]}},
{ "type":"Feature","properties":{"osm_way_id":"330042661","name":"Asda","shop":"supermarket","other":{"addr:city":"Nuneaton","addr:country":"GB","addr:postcode":"CV11 4FL","addr:street":"Newton Road","brand":"Asda","brand:wikidata":"Q297410","brand:wikipedia":"en:Asda","contact:facebook":"https:\/\/www.facebook.com\/asda\/","contact:twitter":"@asda","contact:website":"https:\/\/storelocator.asda.com\/west-midlands\/nuneaton\/newtown-road","designation":"Supermarket","fhrs:id":"362158","operator":"Asda Stores Ltd"}}, "geometry":{"type":"MultiPolygon","coordinates":[[[[-1.46661,52.52615],[-1.46652,52.52625],[-1.46565,52.52642],[-1.46591,52.5268],[-1.46593,52.52685],[-1.4661,52.52682],[-1.46617,52.52693],[-1.46603,52.52696],[-1.46623,52.52732],[-1.46723,52.52712],[-1.46702,52.5267],[-1.46688,52.52651],[-1.4668,52.52638],[-1.46677,52.52632],[-1.46684,52.52623],[-1.46661,52.52615]]]]}},
{ "type":"Feature","properties":{"osm_way_id":"358055227","name":"Co-op Food","building":"yes","shop":"supermarket","other":{"addr:postcode":"CV11 4LH","addr:street":"Kem Street","brand":"Co-op Food","brand:wikidata":"Q3277439","brand:wikipedia":"en:Co-op Food","operator":"Heart of England Co-operative Society"}}, "geometry":{"type":"MultiPolygon","coordinates":[[[[-1.45654,52.51257],[-1.45601,52.51271],[-1.45589,52.51254],[-1.45587,52.51251],[-1.45593,52.5125],[-1.45591,52.51246],[-1.45608,52.51241],[-1.45612,52.51248],[-1.45642,52.51241],[-1.45654,52.51257]]]]}},
{ "type":"Feature","properties":{"osm_way_id":"358055735","name":"Co-op Food","building":"yes","shop":"supermarket","other":{"addr:city":"Nuneaton","addr:postcode":"CV11 6GU","addr:street":"Camborne Drive","brand":"Co-op Food","brand:wikidata":"Q3277439","brand:wikipedia":"en:Co-op Food","fhrs:id":"362189","operator":"The Co-operative Group","source:addr":"FHRS Open Data"}}, "geometry":{"type":"MultiPolygon","coordinates":[[[[-1.43933,52.52662],[-1.43932,52.52698],[-1.43884,52.52697],[-1.43885,52.52662],[-1.43933,52.52662]]]]}},
{ "type":"Feature","properties":{"osm_way_id":"358085061","name":"Co-op Food","building":"yes","shop":"supermarket","other":{"brand":"Co-op Food","brand:wikidata":"Q3277439","brand:wikipedia":"en:Co-op Food","operator":"The Co-operative Group","operator:wikidata":"Q117202","operator:wikipedia":"en:The Co-operative Group"}}, "geometry":{"type":"MultiPolygon","coordinates":[[[[-1.47118,52.52289],[-1.47122,52.52316],[-1.47115,52.52326],[-1.47081,52.52328],[-1.47078,52.5231],[-1.47052,52.52312],[-1.47049,52.52293],[-1.47118,52.52289]]]]}},
{ "type":"Feature","properties":{"osm_way_id":"419959598","name":"Nisa S&K","building":"yes","shop":"supermarket"},"geometry":{"type":"MultiPolygon","coordinates":[[[[-1.49908,52.51537],[-1.49889,52.51537],[-1.49888,52.51513],[-1.49904,52.51513],[-1.49904,52.51522],[-1.49907,52.51522],[-1.49907,52.51527],[-1.49909,52.51527],[-1.49909,52.51534],[-1.49908,52.51534],[-1.49908,52.51537]]]]}},
{ "type":"Feature","properties":{"osm_way_id":"494214503","name":"Aldi","building":"retail","shop":"supermarket","other":{"brand":"ALDI","brand:wikidata":"Q41171672","brand:wikipedia":"en:Aldi"}}, "geometry":{"type":"MultiPolygon","coordinates":[[[[-1.51211,52.52238],[-1.51137,52.52255],[-1.51124,52.52233],[-1.51198,52.52216],[-1.51211,52.52238]]]]}},
{ "type":"Feature","properties":{"osm_way_id":"513611852","name":"ALDI","building":"yes","shop":"supermarket","other":{"brand":"ALDI","brand:wikidata":"Q41171672","brand:wikipedia":"en:Aldi"}}, "geometry":{"type":"MultiPolygon","coordinates":[[[[-1.46445,52.5298],[-1.46362,52.52999],[-1.46345,52.52971],[-1.46421,52.52956],[-1.46433,52.52973],[-1.46439,52.52971],[-1.46445,52.5298]]]]}},
{ "type":"Feature","properties":{"osm_way_id":"615402232","name":"Lidl","building":"yes","shop":"supermarket","other":{"addr:country":"GB","addr:postcode":"CV11 6LF","addr:street":"Hinckley Road","brand":"Lidl","brand:wikidata":"Q151954","brand:wikipedia":"en:Lidl","fhrs:id":"1009597"}}, "geometry":{"type":"MultiPolygon","coordinates":[[[[-1.45748,52.52832],[-1.45696,52.52852],[-1.45663,52.52822],[-1.45684,52.52815],[-1.45685,52.52811],[-1.45697,52.52806],[-1.45703,52.52807],[-1.45714,52.52801],[-1.45748,52.52832]]]]}}
]
}
