{
"type": "FeatureCollection",
"features": [
{ "type":"Feature","properties":{"osm_id":"357179110","name":"The Co-operative Food","other":{"shop":"supermarket","operator":"Central England Co-operative","addr:city":"Desford","addr:street":"High Street","addr:postcode":"LE9 9JF","addr:housenumber":"1"}}, "geometry":{"type":"Point","coordinates":[-1.29557,52.62544 ]}},
{ "type":"Feature","properties":{"osm_id":"357209259","name":"The Co-operative Food","other":{"shop":"supermarket","operator":"Central England Co-operative Society","addr:city":"Newbold Verdon","addr:street":"Main Street","addr:postcode":"LE9 9NP","addr:housenumber":"103"}}, "geometry":{"type":"Point","coordinates":[-1.33872,52.62984 ]}},
{ "type":"Feature","properties":{"osm_id":"3043510881","name":"The Co-operative Food","other":{"addr:city":"Market Bosworth","addr:housenumber":"1","addr:postcode":"CV13 0JN","addr:street":"Main Street","brand":"The Co-operative Food","brand:wikidata":"Q107617274","operator":"Heart of England Co-operative Society","shop":"supermarket","source:addr":"Food hygiene open data"}}, "geometry":{"type":"Point","coordinates":[-1.40183,52.62436 ]}},
{ "type":"Feature","properties":{"osm_id":"3639275002","name":"Co-op Food","other":{"brand":"Co-op Food","brand:wikidata":"Q3277439","brand:wikipedia":"en:Co-op Food","operator":"The Co-operative Group","shop":"supermarket"}}, "geometry":{"type":"Point","coordinates":[-1.39179,52.53876 ]}},
{ "type":"Feature","properties":{"osm_id":"7253172206","other":{"emergency":"defibrillator"}}, "geometry":{"type":"Point","coordinates":[-1.27839,52.68581 ]}},
{ "type":"Feature","properties":{"osm_way_id":"141277727","name":"Co-op Food","building":"yes","shop":"supermarket","other":{"addr:city":"Earl Shilton","addr:postcode":"LE9 7ND","addr:street":"Wood Street","brand":"Co-op Food","brand:wikidata":"Q3277439","brand:wikipedia":"en:Co-op Food","operator":"The Co-operative Group","operator:wikidata":"Q117202","operator:wikipedia":"en:The Co-operative Group"}}, "geometry":{"type":"MultiPolygon","coordinates":[[[[-1.3177,52.57501],[-1.3173,52.575],[-1.31733,52.57455],[-1.31773,52.57456],[-1.3177,52.57501]]]]}},
{ "type":"Feature","properties":{"osm_way_id":"146195202","name":"Tesco","building":"yes","shop":"supermarket","other":{"brand":"Tesco","wheelchair":"yes","brand:wikidata":"Q487494","brand:wikipedia":"en:Tesco"}}, "geometry":{"type":"MultiPolygon","coordinates":[[[[-1.37353,52.53549],[-1.37288,52.53561],[-1.37265,52.53514],[-1.37329,52.53502],[-1.37345,52.53533],[-1.37353,52.53549]]]]}},
{ "type":"Feature","properties":{"osm_way_id":"168989383","name":"Lidl","building":"yes","shop":"supermarket","other":{"brand":"Lidl","wheelchair":"yes","brand:wikidata":"Q151954","brand:wikipedia":"en:Lidl"}}, "geometry":{"type":"MultiPolygon","coordinates":[[[[-1.37638,52.53472],[-1.37643,52.53483],[-1.37632,52.53484],[-1.37635,52.53494],[-1.37585,52.53502],[-1.37586,52.53505],[-1.37566,52.53508],[-1.37556,52.53483],[-1.37638,52.53472]]]]}},
{ "type":"Feature","properties":{"osm_way_id":"183044940","name":"The Co-operative Food","building":"yes","shop":"supermarket","other":{"operator":"The Co-operative Group"}}, "geometry":{"type":"MultiPolygon","coordinates":[[[[-1.22437,52.65598],[-1.22429,52.65599],[-1.22429,52.65601],[-1.22415,52.65601],[-1.22415,52.65598],[-1.22406,52.65599],[-1.22403,52.65559],[-1.22412,52.65559],[-1.22412,52.65558],[-1.22425,52.65558],[-1.22425,52.65555],[-1.22441,52.65554],[-1.22442,52.65563],[-1.22435,52.65563],[-1.22437,52.65598]]]]}},
{ "type":"Feature","properties":{"osm_way_id":"279813302","name":"Asda","building":"yes","shop":"supermarket","other":{"brand":"Asda","fhrs:id":"225358","operator":"Asda Stores Ltd","addr:city":"Hinckley","addr:street":"Barwell Lane","addr:country":"GB","addr:postcode":"LE10 1SS","brand:wikidata":"Q297410","brand:wikipedia":"en:Asda","contact:twitter":"@asda","contact:website":"https:\/\/storelocator.asda.com\/east-midlands\/hinckley\/barwell-lane","contact:facebook":"https:\/\/www.facebook.com\/asda\/"}}, "geometry":{"type":"MultiPolygon","coordinates":[[[[-1.36416,52.55101],[-1.36345,52.55126],[-1.3634,52.55132],[-1.3636,52.55154],[-1.36367,52.55151],[-1.36384,52.5517],[-1.36391,52.55167],[-1.36414,52.55192],[-1.36437,52.55184],[-1.36455,52.55204],[-1.36475,52.55197],[-1.36466,52.55188],[-1.3649,52.5518],[-1.36416,52.55101]]]]}},
{ "type":"Feature","properties":{"osm_way_id":"279868559","name":"Morrisons","building":"yes","shop":"supermarket","other":{"brand":"Morrisons","brand:wikidata":"Q922344","brand:wikipedia":"en:Morrisons"}}, "geometry":{"type":"MultiPolygon","coordinates":[[[[-1.38326,52.55345],[-1.38293,52.55348],[-1.38297,52.55363],[-1.38267,52.55366],[-1.38263,52.5535],[-1.38223,52.55354],[-1.38225,52.55361],[-1.38199,52.55364],[-1.382,52.55368],[-1.3822,52.55437],[-1.38249,52.55434],[-1.3825,52.55439],[-1.38279,52.55436],[-1.38276,52.55427],[-1.38347,52.5542],[-1.38326,52.55345]]]]}},
{ "type":"Feature","properties":{"osm_way_id":"296434723","name":"The Co-operative Food","building":"yes","shop":"supermarket","other":{"operator":"Central England Co-operative Society"}}, "geometry":{"type":"MultiPolygon","coordinates":[[[[-1.22555,52.66319],[-1.22533,52.66315],[-1.22543,52.66294],[-1.22566,52.66298],[-1.22555,52.66319]]]]}},
{ "type":"Feature","properties":{"osm_way_id":"318105216","name":"The Co-operative Food","building":"yes","shop":"supermarket","other":{"operator":"Central England Co-operative Society"}}, "geometry":{"type":"MultiPolygon","coordinates":[[[[-1.36991,52.64714],[-1.36981,52.64718],[-1.36964,52.64702],[-1.36974,52.64698],[-1.36991,52.64714]]]]}},
{ "type":"Feature","properties":{"osm_way_id":"355296774","name":"The Co-operative Food","building":"yes","shop":"supermarket","other":{"operator":"Central England Co-operative Society","wheelchair":"yes","opening_hours":"Mo - Su 07:00 - 22:00"}}, "geometry":{"type":"MultiPolygon","coordinates":[[[[-1.2438,52.64625],[-1.24356,52.64623],[-1.24363,52.64595],[-1.24388,52.64598],[-1.2438,52.64625]]]]}},
{ "type":"Feature","properties":{"osm_way_id":"358517929","name":"The Co-operative Food","building":"yes","shop":"supermarket","other":{"operator":"Central England Co-operative Society"}}, "geometry":{"type":"MultiPolygon","coordinates":[[[[-1.27853,52.6857],[-1.27848,52.68582],[-1.27839,52.68581],[-1.27789,52.68573],[-1.27795,52.68561],[-1.27853,52.6857]]]]}},
{ "type":"Feature","properties":{"osm_way_id":"365335109","name":"ALDI","building":"yes","shop":"supermarket","other":{"brand":"ALDI","brand:wikidata":"Q41171672","brand:wikipedia":"en:Aldi","wheelchair":"yes"}}, "geometry":{"type":"MultiPolygon","coordinates":[[[[-1.41688,52.53678],[-1.41651,52.5367],[-1.41683,52.53616],[-1.41721,52.53625],[-1.41688,52.53678]]]]}},
{ "type":"Feature","properties":{"osm_way_id":"381755880","name":"Sainsbury's","building":"yes","shop":"supermarket","other":{"brand":"Sainsbury's","fhrs:id":"850528","addr:city":"Hinckley","wheelchair":"yes","addr:street":"Rugby Road","addr:postcode":"LE10 0QD","brand:wikidata":"Q152096","brand:wikipedia":"en:Sainsbury's","source:postcode":"FHRS data","toilets:wheelchair":"yes"}}, "geometry":{"type":"MultiPolygon","coordinates":[[[[-1.377,52.53853],[-1.37677,52.53835],[-1.37664,52.53794],[-1.37519,52.53812],[-1.37541,52.53889],[-1.37569,52.53903],[-1.37588,52.53897],[-1.37586,52.53891],[-1.37616,52.53886],[-1.37617,52.53889],[-1.377,52.53853]]]]}},
{ "type":"Feature","properties":{"osm_way_id":"389272696","name":"Co-op Food","building":"yes","shop":"supermarket","other":{"addr:city":"Barwell","addr:postcode":"LE9 8GT","addr:street":"Malt Mill Bank","brand":"Co-op Food","brand:wikidata":"Q3277439","brand:wikipedia":"en:Co-op Food","operator":"Heart of England Co-operative Society"}}, "geometry":{"type":"MultiPolygon","coordinates":[[[[-1.34611,52.56806],[-1.3461,52.56803],[-1.3461,52.568],[-1.3461,52.56797],[-1.34611,52.56795],[-1.34612,52.56792],[-1.34614,52.56789],[-1.34625,52.56791],[-1.34625,52.56792],[-1.34624,52.56794],[-1.34623,52.56795],[-1.34623,52.56797],[-1.34622,52.56799],[-1.34622,52.568],[-1.34622,52.56802],[-1.34621,52.56804],[-1.34621,52.56806],[-1.34611,52.56806]]]]}},
{ "type":"Feature","properties":{"osm_way_id":"663350983","name":"Piggly Wiggly","building":"yes","shop":"supermarket","other":{"brand":"Piggly Wiggly","brand:wikidata":"Q3388303","brand:wikipedia":"en:Piggly Wiggly"}}, "geometry":{"type":"MultiPolygon","coordinates":[[[[-1.34771,52.63064],[-1.34778,52.63059],[-1.34754,52.63049],[-1.34748,52.63054],[-1.34771,52.63064]]]]}},
{ "type":"Feature","properties":{"osm_way_id":"721212824","name":"ALDI","building":"yes","shop":"supermarket","other":{"brand":"ALDI","brand:wikidata":"Q41171672","brand:wikipedia":"en:Aldi"}}, "geometry":{"type":"MultiPolygon","coordinates":[[[[-1.37039,52.54375],[-1.37031,52.54377],[-1.37029,52.54375],[-1.37003,52.54381],[-1.36975,52.54331],[-1.36996,52.54327],[-1.36994,52.54323],[-1.37008,52.5432],[-1.37039,52.54375]]]]}},
{ "type":"Feature","properties":{"osm_way_id":"721224043","name":"Lidl","building":"retail","shop":"supermarket","other":{"addr:country":"GB","addr:housenumber":"57","addr:postcode":"LE10 0JR","addr:street":"Coventry Road","brand":"Lidl","brand:wikidata":"Q151954","brand:wikipedia":"en:Lidl","fhrs:id":"1193232","source:outline":"Maxar"}}, "geometry":{"type":"MultiPolygon","coordinates":[[[[-1.37898,52.5395],[-1.379,52.53954],[-1.37894,52.53955],[-1.37921,52.54016],[-1.379,52.54021],[-1.37898,52.54016],[-1.37876,52.5402],[-1.37856,52.53976],[-1.37849,52.53977],[-1.37842,52.53959],[-1.37898,52.5395]]]]}},
{ "type":"Feature","properties":{"osm_way_id":"755930534","name":"Co-op Food","building":"yes","shop":"supermarket","other":{"brand":"Co-op Food","brand:wikidata":"Q3277439","brand:wikipedia":"en:Co-op Food","opening_hours":"Mo-Su 07:00-22:00","operator":"Heart of England Co-operative","website":"https:\/\/heartofengland.coop\/food\/hinckley\/"}}, "geometry":{"type":"MultiPolygon","coordinates":[[[[-1.37586,52.5343],[-1.37553,52.5341],[-1.37535,52.53421],[-1.37559,52.53436],[-1.3757,52.53429],[-1.37579,52.53435],[-1.37586,52.5343]]]]}}
]
}
