{
"type": "FeatureCollection",
"features": [
{ "type":"Feature","properties":{"osm_id":"387432650","name":"Asda","other":{"shop":"supermarket","brand":"Asda","fhrs:id":"580849","operator":"Asda Stores Ltd","addr:city":"Kent","addr:street":"Crook Log","addr:country":"GB","addr:postcode":"DA6 8DZ","opening_hours":"Mo-Sa 07:00-22:00; Su 10:00-16:00","brand:wikidata":"Q297410","brand:wikipedia":"en:Asda","contact:twitter":"@asda","contact:website":"https:\/\/storelocator.asda.com\/london\/bexleyheath\/13\/15-crook-log","addr:housenumber":"13-15","contact:facebook":"https:\/\/www.facebook.com\/asda\/"}}, "geometry":{"type":"Point","coordinates":[0.13017,51.45825 ]}},
{ "type":"Feature","properties":{"osm_id":"763574976","name":"The Co-Operative","other":{"shop":"supermarket","fhrs:id":"709085","addr:city":"Kent","addr:street":"Falconwood Parade","addr:country":"GB","addr:postcode":"DA16 2PQ","addr:housenumber":"21,23"}}, "geometry":{"type":"Point","coordinates":[0.09365,51.45723 ]}},
{ "type":"Feature","properties":{"osm_id":"1728823903","name":"Sainsbury's","other":{"brand":"Sainsbury's","brand:wikidata":"Q152096","brand:wikipedia":"en:Sainsbury's","shop":"supermarket"}}, "geometry":{"type":"Point","coordinates":[0.14922,51.45619 ]}},
{ "type":"Feature","properties":{"osm_id":"8739952651","other":{"shop":"supermarket"}}, "geometry":{"type":"Point","coordinates":[0.17486,51.48416 ]}},
{ "type":"Feature","properties":{"osm_id":"9217926517","name":"Lidl","other":{"addr:country":"GB","addr:postcode":"DA17 6FD","addr:street":"Clydesdale Way","alt_name":"Lidl Belvedere","brand":"Lidl","brand:wikidata":"Q151954","brand:wikipedia":"en:Lidl","fhrs:id":"1104872","shop":"supermarket","survey:date":"2019-04-03"}}, "geometry":{"type":"Point","coordinates":[0.15652,51.49694 ]}},
{ "type":"Feature","properties":{"osm_way_id":"24281408","name":"Morrisons","building":"yes","shop":"supermarket","other":{"brand":"Morrisons","brand:wikidata":"Q922344","brand:wikipedia":"en:Morrisons","building:levels":"2"}}, "geometry":{"type":"MultiPolygon","coordinates":[[[[0.1841,51.4806],[0.18408,51.48057],[0.18406,51.48054],[0.18412,51.48052],[0.18414,51.48052],[0.18388,51.48006],[0.18375,51.48009],[0.18371,51.48002],[0.18375,51.48001],[0.18368,51.47989],[0.18388,51.47985],[0.18398,51.47982],[0.184,51.47985],[0.18479,51.47967],[0.18487,51.4798],[0.18502,51.47976],[0.18505,51.47981],[0.18554,51.4797],[0.18563,51.47984],[0.18566,51.47984],[0.18572,51.47995],[0.18573,51.47996],[0.1855,51.48001],[0.18551,51.48004],[0.1855,51.48004],[0.18555,51.48011],[0.18535,51.48016],[0.1854,51.48024],[0.1853,51.48026],[0.18534,51.48032],[0.1841,51.4806]]]]}},
{ "type":"Feature","properties":{"osm_way_id":"35215707","name":"Co-operative","building":"yes","shop":"supermarket","other":{"addr:city":"Blackfen","addr:postcode":"DA15 9PS","addr:street":"Westwood Lane"}}, "geometry":{"type":"MultiPolygon","coordinates":[[[[0.10443,51.45133],[0.10484,51.45125],[0.10492,51.45123],[0.10468,51.45077],[0.10441,51.4508],[0.10446,51.45089],[0.10424,51.45094],[0.10443,51.45133]]]]}},
{ "type":"Feature","properties":{"osm_way_id":"137459762","name":"Lidl","building":"yes","shop":"supermarket","other":{"addr:country":"GB","addr:housenumber":"46-60","addr:postcode":"DA16 3HF","addr:street":"Upper Wickham Lane","brand":"Lidl","brand:wikidata":"Q151954","brand:wikipedia":"en:Lidl","designation":"Welling","fhrs:id":"1009721","operator":"Lidl"}}, "geometry":{"type":"MultiPolygon","coordinates":[[[[0.10703,51.46453],[0.10692,51.46418],[0.10796,51.46406],[0.10799,51.46415],[0.10794,51.46416],[0.10801,51.46442],[0.10703,51.46453]]]]}},
{ "type":"Feature","properties":{"osm_way_id":"150233745","name":"Sainsbury's","building":"yes","shop":"supermarket","other":{"brand":"Sainsbury's","brand:wikidata":"Q152096","brand:wikipedia":"en:Sainsbury's","website":"https:\/\/stores.sainsburys.co.uk\/0017\/crayford"}}, "geometry":{"type":"MultiPolygon","coordinates":[[[[0.17844,51.44846],[0.17782,51.44915],[0.17883,51.4495],[0.1788,51.44954],[0.17914,51.44965],[0.17917,51.44962],[0.17974,51.44982],[0.18009,51.44944],[0.17991,51.44938],[0.18,51.44928],[0.17971,51.44918],[0.17973,51.44915],[0.17935,51.44901],[0.17955,51.44879],[0.17883,51.44853],[0.17878,51.44858],[0.17844,51.44846]]]]}},
{ "type":"Feature","properties":{"osm_way_id":"204911893","name":"Morrisons","building":"yes","shop":"supermarket","other":{"brand":"Morrisons","fhrs:id":"738289","addr:street":"Jenner Close","addr:postcode":"DA14 6BF","brand:wikidata":"Q922344","brand:wikipedia":"en:Morrisons","addr:housenumber":"1","not:addr:postcode":"DA14 6AF"}}, "geometry":{"type":"MultiPolygon","coordinates":[[[[0.10234,51.42478],[0.10256,51.42472],[0.10257,51.42471],[0.10258,51.42471],[0.10293,51.42462],[0.10294,51.42462],[0.10296,51.42461],[0.10308,51.42458],[0.1031,51.4246],[0.10314,51.42459],[0.10315,51.4246],[0.10319,51.42459],[0.10321,51.42458],[0.10323,51.42461],[0.10325,51.42461],[0.10334,51.42473],[0.10345,51.42489],[0.10359,51.42485],[0.10367,51.42498],[0.1028,51.42522],[0.10279,51.42521],[0.10275,51.42522],[0.10274,51.4252],[0.10272,51.42517],[0.10265,51.42519],[0.1026,51.42511],[0.10251,51.42499],[0.10242,51.42488],[0.10239,51.42488],[0.10238,51.42489],[0.10233,51.42483],[0.10231,51.42482],[0.1023,51.42481],[0.1023,51.42479],[0.10234,51.42478]]]]}},
{ "type":"Feature","properties":{"osm_way_id":"232841718","name":"Tesco","building":"yes","shop":"supermarket","other":{"addr:postcode":"DA16 1TH","addr:street":"Embassy Court","brand":"Tesco","brand:wikidata":"Q487494","brand:wikipedia":"en:Tesco","designation":"Welling Superstore","fhrs:id":"451404","opening_hours":"Mo-Sa 08:00-22:00; Su 11:00-17:00"}}, "geometry":{"type":"MultiPolygon","coordinates":[[[[0.10969,51.46208],[0.10961,51.46194],[0.11054,51.46173],[0.11061,51.46187],[0.10969,51.46208]]]]}},
{ "type":"Feature","properties":{"osm_way_id":"232841719","name":"Morrisons","building":"yes","shop":"supermarket","other":{"addr:city":"Welling","addr:housenumber":"71-79","addr:postcode":"DA16 1QL","addr:street":"Welling High Street","brand":"Morrisons","brand:wikidata":"Q922344","brand:wikipedia":"en:Morrisons","designation":"Welling"}}, "geometry":{"type":"MultiPolygon","coordinates":[[[[0.10948,51.46231],[0.11028,51.46218],[0.11044,51.46254],[0.11078,51.46249],[0.11084,51.46263],[0.11093,51.46284],[0.11052,51.46291],[0.10978,51.46303],[0.10964,51.4627],[0.10949,51.46273],[0.10946,51.46267],[0.10951,51.46266],[0.10945,51.46253],[0.10956,51.46251],[0.10948,51.46231]]]]}},
{ "type":"Feature","properties":{"osm_way_id":"367842882","name":"Londis","building":"yes","shop":"supermarket","other":{"brand":"Londis","brand:wikidata":"Q21008564","brand:wikipedia":"en:Londis (United Kingdom)"}}, "geometry":{"type":"MultiPolygon","coordinates":[[[[0.14132,51.47308],[0.14128,51.47319],[0.14142,51.47321],[0.14146,51.4731],[0.14132,51.47308]]]]}},
{ "type":"Feature","properties":{"osm_way_id":"384035748","name":"Asda","building":"retail","shop":"supermarket","other":{"addr:city":"Bexleyheath","addr:country":"GB","addr:housenumber":"160","addr:postcode":"DA6 7BN","addr:street":"Broadway","brand":"Asda","brand:wikidata":"Q297410","brand:wikipedia":"en:Asda","contact:facebook":"https:\/\/www.facebook.com\/asda\/","contact:twitter":"@asda","contact:website":"https:\/\/storelocator.asda.com\/london\/bexleyheath\/140-graham-road-broadway","fhrs:id":"329297","image":"https:\/\/archive.org\/details\/bexleyheath-2019-03-28\/Bexleyheath-2019-03-28\/DSCN9145.JPG","operator":"Asda Stores Ltd","roof:colour":"grey","roof:shape":"flat"}}, "geometry":{"type":"MultiPolygon","coordinates":[[[[0.14197,51.45711],[0.142,51.45719],[0.14203,51.45725],[0.14223,51.45775],[0.14239,51.45808],[0.14313,51.45797],[0.14307,51.45786],[0.14306,51.45778],[0.14306,51.45776],[0.14311,51.45762],[0.14311,51.45759],[0.14311,51.45755],[0.1431,51.45751],[0.14308,51.45748],[0.14305,51.45744],[0.14303,51.45742],[0.14301,51.4574],[0.1428,51.45723],[0.14272,51.45715],[0.14262,51.45709],[0.14259,51.45708],[0.14257,51.45707],[0.14254,51.45706],[0.14247,51.45705],[0.14242,51.45704],[0.14204,51.45711],[0.14203,51.45709],[0.14201,51.45708],[0.14198,51.45708],[0.14197,51.4571],[0.14197,51.45711]]]]}},
{ "type":"Feature","properties":{"osm_way_id":"455068144","name":"Lidl","building":"retail","shop":"supermarket","other":{"addr:country":"GB","addr:housenumber":"20","addr:postcode":"DA6 7LL","addr:street":"Broadway Road","brand":"Lidl","brand:wikidata":"Q151954","brand:wikipedia":"en:Lidl","fhrs:id":"984334"}}, "geometry":{"type":"MultiPolygon","coordinates":[[[[0.15185,51.45556],[0.15188,51.45569],[0.15191,51.45569],[0.15205,51.45617],[0.15242,51.45613],[0.15242,51.45616],[0.1526,51.45614],[0.15241,51.4555],[0.15185,51.45556]]]]}},
{ "type":"Feature","properties":{"osm_way_id":"520152560","name":"Lidl","building":"retail","shop":"supermarket","other":{"addr:housenumber":"23","addr:postcode":"DA14 5HJ","addr:street":"Foots Cray High Street","brand":"Lidl","brand:wikidata":"Q151954","fhrs:id":"329532","opening_hours":"Mo-Sa 08:00-21:00; Su 10:00-16:00","operator":"Lidl","source:addr":"FHRS Open Data"}}, "geometry":{"type":"MultiPolygon","coordinates":[[[[0.11889,51.41836],[0.11907,51.41853],[0.1193,51.41854],[0.11962,51.41843],[0.11956,51.41837],[0.11956,51.41836],[0.11945,51.41826],[0.11937,51.41817],[0.11926,51.41821],[0.11889,51.41836]]]]}},
{ "type":"Feature","properties":{"osm_way_id":"534942120","name":"ALDI","building":"yes","shop":"supermarket","other":{"brand":"ALDI","brand:wikidata":"Q41171672","brand:wikipedia":"en:Aldi","name:fa":"آلدی"}}, "geometry":{"type":"MultiPolygon","coordinates":[[[[0.17759,51.45087],[0.17765,51.45091],[0.17805,51.45114],[0.1788,51.45061],[0.17836,51.45037],[0.17787,51.45071],[0.17784,51.45069],[0.17759,51.45087]]]]}},
{ "type":"Feature","properties":{"osm_way_id":"649660060","name":"The Co-operative","building":"retail","shop":"supermarket","other":{"addr:housenumber":"131-135","addr:postcode":"DA7 5AE","addr:street":"Long Lane","fhrs:id":"329354","source:addr":"FHRS Open Data"}}, "geometry":{"type":"MultiPolygon","coordinates":[[[[0.14651,51.4656],[0.14671,51.46549],[0.14672,51.46534],[0.14669,51.46532],[0.14658,51.46538],[0.1465,51.46533],[0.14645,51.46536],[0.14642,51.46533],[0.14624,51.46543],[0.1464,51.46553],[0.14651,51.4656]]]]}},
{ "type":"Feature","properties":{"osm_way_id":"686284552","name":"Asda","building":"yes","shop":"supermarket","other":{"brand":"Asda","fhrs:id":"620280","operator":"Asda Stores Ltd","addr:city":"Kent","addr:street":"Lower Road","addr:country":"GB","addr:postcode":"DA17 6DF","brand:wikidata":"Q297410","brand:wikipedia":"en:Asda","contact:twitter":"@asda","contact:website":"https:\/\/storelocator.asda.com\/london\/belvedere\/station-road","addr:housenumber":"301","contact:facebook":"https:\/\/www.facebook.com\/asda\/"}}, "geometry":{"type":"MultiPolygon","coordinates":[[[[0.15445,51.49192],[0.1549,51.49188],[0.15492,51.49199],[0.15523,51.49196],[0.15519,51.49176],[0.15557,51.49173],[0.15542,51.49109],[0.15481,51.49114],[0.1548,51.49111],[0.15428,51.49116],[0.15445,51.49192]]]]}},
{ "type":"Feature","properties":{"osm_way_id":"765530620","name":"Nisa Extra","building":"retail","shop":"supermarket","other":{"brand":"Nisa Extra","brand:wikidata":"Q16999069","brand:wikipedia":"en:Nisa (retailer)"}}, "geometry":{"type":"MultiPolygon","coordinates":[[[[0.16189,51.47298],[0.16192,51.47311],[0.1622,51.47308],[0.16231,51.47307],[0.16228,51.47295],[0.16189,51.47298]]]]}}
]
}
