{
"type": "FeatureCollection",
"features": [
{ "type":"Feature","properties":{"osm_id":"1895220003","name":"Tesco Metro","other":{"brand":"Tesco Metro","brand:wikidata":"Q57551648","shop":"supermarket"}}, "geometry":{"type":"Point","coordinates":[-4.15768,55.93938 ]}},
{ "type":"Feature","properties":{"osm_id":"1929439164","name":"Scotmid","other":{"addr:housenumber":"120","addr:postcode":"G64 1NQ","addr:street":"Auchinairn Road","brand":"Scotmid","brand:wikidata":"Q7435719","brand:wikipedia":"en:Scotmid","opening_hours":"07:00-22:00","shop":"supermarket"}}, "geometry":{"type":"Point","coordinates":[-4.21537,55.89775 ]}},
{ "type":"Feature","properties":{"osm_id":"6139514490","name":"Co-op Food Lenzie","other":{"opening_hours":"Mo-Su 07:00-22:00","operator":"Co-op","shop":"supermarket"}}, "geometry":{"type":"Point","coordinates":[-4.15122,55.92086 ]}},
{ "type":"Feature","properties":{"osm_way_id":"86840771","name":"Sainsbury's","building":"yes","shop":"supermarket","other":{"brand":"Sainsbury's","brand:wikidata":"Q152096","brand:wikipedia":"en:Sainsbury's"}}, "geometry":{"type":"MultiPolygon","coordinates":[[[[-4.15482,55.9373],[-4.15565,55.93695],[-4.1552,55.93661],[-4.15506,55.93667],[-4.15492,55.93658],[-4.15438,55.9368],[-4.15444,55.93685],[-4.1543,55.93691],[-4.15482,55.9373]]]]}},
{ "type":"Feature","properties":{"osm_way_id":"86865097","name":"Tesco","building":"yes","shop":"supermarket","other":{"addr:city":"Milngavie","addr:housenumber":"7","addr:postcode":"G62 6NB","addr:street":"Gavin's Mill Road","brand":"Tesco","brand:wikidata":"Q487494","brand:wikipedia":"en:Tesco","opening_hours":"Mo-Sa 06:00-00:00; Su 08:00-22:00","operator":"Tesco"}}, "geometry":{"type":"MultiPolygon","coordinates":[[[[-4.31462,55.94021],[-4.31544,55.93978],[-4.31548,55.9398],[-4.31565,55.93991],[-4.31583,55.93982],[-4.31559,55.93967],[-4.31564,55.93965],[-4.31515,55.93935],[-4.31495,55.93936],[-4.31401,55.93983],[-4.31413,55.94003],[-4.31422,55.94002],[-4.31427,55.94011],[-4.3144,55.94008],[-4.31462,55.94021]]]]}},
{ "type":"Feature","properties":{"osm_way_id":"89632805","name":"Lidl","building":"supermarket","shop":"supermarket","other":{"addr:country":"GB","addr:housename":"Baljaffray Shopping Centre","addr:postcode":"G61 4RN","addr:street":"Grampian Way","addr:unit":"1","brand":"Lidl","brand:wikidata":"Q151954","fhrs:id":"552728"}}, "geometry":{"type":"MultiPolygon","coordinates":[[[[-4.3509,55.93258],[-4.35088,55.93253],[-4.35111,55.9325],[-4.35122,55.93283],[-4.35082,55.93297],[-4.3507,55.9326],[-4.3509,55.93258]]]]}},
{ "type":"Feature","properties":{"osm_way_id":"98147332","name":"Morrisons","building":"yes","shop":"supermarket","other":{"addr:postcode":"DG1 2SH","addr:street":"Brooms Road","brand":"Morrisons","brand:wikidata":"Q922344","brand:wikipedia":"en:Morrisons","designation":"Dumfries","wheelchair":"yes"}}, "geometry":{"type":"MultiPolygon","coordinates":[[[[-3.60127,55.06927],[-3.60136,55.06883],[-3.60144,55.0685],[-3.60125,55.06849],[-3.60127,55.0684],[-3.601,55.06838],[-3.60098,55.06846],[-3.60005,55.06839],[-3.6,55.06864],[-3.60025,55.06865],[-3.60021,55.06885],[-3.59996,55.06884],[-3.59992,55.06905],[-3.60018,55.06907],[-3.60015,55.0692],[-3.60051,55.06922],[-3.60127,55.06927]]]]}},
{ "type":"Feature","properties":{"osm_way_id":"146426690","name":"Asda","building":"yes","shop":"supermarket","other":{"addr:country":"GB","addr:housenumber":"80","addr:postcode":"G61 2TX","addr:street":"Milngavie Road","brand":"Asda","brand:wikidata":"Q297410","brand:wikipedia":"en:Asda","contact:facebook":"https:\/\/www.facebook.com\/asda\/","contact:twitter":"@asda","contact:website":"https:\/\/storelocator.asda.com\/scotland\/glasgow\/80-milngavie-road","operator":"Asda Stores Ltd"}}, "geometry":{"type":"MultiPolygon","coordinates":[[[[-4.31814,55.91681],[-4.31918,55.91674],[-4.31927,55.91714],[-4.31931,55.91729],[-4.31936,55.91749],[-4.31937,55.91753],[-4.31822,55.91762],[-4.31822,55.91765],[-4.31776,55.91763],[-4.31765,55.91755],[-4.31787,55.91675],[-4.31812,55.91674],[-4.31814,55.91681]]]]}},
{ "type":"Feature","properties":{"osm_way_id":"148601433","name":"M&S Foodhall","building":"yes","shop":"supermarket","other":{"addr:city":"Milngavie","addr:postcode":"G62 6BH","addr:street":"Main Street","addr:unit":"1","brand":"M&S Foodhall","brand:wikidata":"Q714491","brand:wikipedia":"en:Marks & Spencer","opening_hours":"Mo-Fr 08:00-20:00; Sa 08:00-19:00; Su 09:00-19:00","operator":"Marks & Spencer","phone":"+44 141 956 5029"}}, "geometry":{"type":"MultiPolygon","coordinates":[[[[-4.31818,55.94083],[-4.31771,55.94094],[-4.31771,55.94095],[-4.3177,55.94095],[-4.31769,55.94096],[-4.31767,55.94096],[-4.31765,55.94095],[-4.31764,55.94094],[-4.31762,55.94092],[-4.31723,55.941],[-4.31716,55.9409],[-4.31727,55.94088],[-4.31722,55.94081],[-4.31734,55.94076],[-4.31751,55.94071],[-4.31753,55.94074],[-4.31786,55.94067],[-4.31805,55.94063],[-4.31818,55.94083]]]]}},
{ "type":"Feature","properties":{"osm_way_id":"158451101","name":"Co-op Food","building":"retail","shop":"supermarket","other":{"addr:housenumber":"3","addr:postcode":"G61 4AN","addr:street":"Station Road","brand":"Co-op Food","brand:wikidata":"Q3277439","brand:wikipedia":"en:Co-op Food","opening_hours":"Mo-Su 07:00-22:00","opening_hours:covid19":"same","payment:cash":"yes","payment:contactless":"yes","payment:credit_cards":"yes","payment:debit_cards":"yes","phone":"+44 141 931 5493","website":"https:\/\/www.coop.co.uk\/"}}, "geometry":{"type":"MultiPolygon","coordinates":[[[[-4.33114,55.91684],[-4.33124,55.91694],[-4.33167,55.91683],[-4.33157,55.91672],[-4.33114,55.91684]]]]}},
{ "type":"Feature","properties":{"osm_way_id":"225954946","name":"Aldi","building":"yes","shop":"supermarket","other":{"brand":"ALDI","brand:wikidata":"Q41171672","brand:wikipedia":"en:Aldi"}}, "geometry":{"type":"MultiPolygon","coordinates":[[[[-4.1994,55.89789],[-4.199,55.89804],[-4.19847,55.8976],[-4.19865,55.89753],[-4.19869,55.89756],[-4.19879,55.89752],[-4.19885,55.8975],[-4.1992,55.89779],[-4.19926,55.89777],[-4.1994,55.89789]]]]}},
{ "type":"Feature","properties":{"osm_way_id":"245370077","name":"Co-op Food","building":"industrial","shop":"supermarket","other":{"addr:city":"Lennoxtown","addr:housenumber":"45","addr:postcode":"G66 7JJ","addr:street":"Main Street","brand":"Co-op Food","brand:wikidata":"Q3277439","brand:wikipedia":"en:Co-op Food","fhrs:id":"583615","opening_hours":"Mo-Su 07:00-22:00","operator":"The Co-operative Group","wheelchair":"yes"}}, "geometry":{"type":"MultiPolygon","coordinates":[[[[-4.20149,55.97451],[-4.20135,55.97442],[-4.2009,55.97465],[-4.20104,55.97474],[-4.20149,55.97451]]]]}},
{ "type":"Feature","properties":{"osm_way_id":"296352258","name":"Asda","building":"yes","shop":"supermarket","other":{"addr:city":"Glasgow","addr:country":"GB","addr:housenumber":"276","addr:postcode":"G64 2PT","addr:street":"Kirkkintilloch Road","alt_name":"ASDA Bishopbriggs Superstore","brand":"Asda","brand:wikidata":"Q297410","brand:wikipedia":"en:Asda","contact:facebook":"https:\/\/www.facebook.com\/asda\/","contact:twitter":"@asda","contact:website":"https:\/\/storelocator.asda.com\/scotland\/glasgow\/276-kirkintilloch-road","fhrs:id":"761724","operator":"Asda Stores Ltd"}}, "geometry":{"type":"MultiPolygon","coordinates":[[[[-4.21789,55.91317],[-4.21779,55.91328],[-4.21787,55.9133],[-4.21775,55.91341],[-4.21767,55.91339],[-4.21727,55.91379],[-4.21724,55.91379],[-4.21717,55.91385],[-4.21623,55.91356],[-4.21674,55.91305],[-4.2168,55.91307],[-4.21682,55.91306],[-4.21699,55.9131],[-4.21702,55.91308],[-4.21699,55.91307],[-4.21702,55.91304],[-4.21708,55.91305],[-4.21713,55.91299],[-4.2172,55.91301],[-4.21724,55.91297],[-4.21789,55.91317]]]]}},
{ "type":"Feature","properties":{"osm_way_id":"405610591","name":"Morrisons","shop":"supermarket","other":{"addr:city":"Glasgow","addr:postcode":"G64 2TR","addr:street":"Kirkintilloch Road","alt_name":"Morrisons Glasgow - Bishopbriggs","brand":"Morrisons","brand:wikidata":"Q922344","brand:wikipedia":"en:Morrisons"}}, "geometry":{"type":"MultiPolygon","coordinates":[[[[-4.22348,55.9051],[-4.22359,55.90519],[-4.22327,55.9053],[-4.22334,55.90537],[-4.223,55.90549],[-4.22275,55.90528],[-4.22284,55.90525],[-4.22279,55.9052],[-4.22249,55.90494],[-4.22325,55.90466],[-4.22333,55.90472],[-4.22338,55.9047],[-4.22374,55.90501],[-4.22365,55.90504],[-4.22348,55.9051]]]]}},
{ "type":"Feature","properties":{"osm_way_id":"498095224","name":"Waitrose","building":"retail","shop":"supermarket","other":{"brand":"Waitrose","brand:wikidata":"Q771734","brand:wikipedia":"en:Waitrose","building:levels":"1","nohousenumber":"yes","official_name":"Waitrose & Partners","opening_hours":"Mo-Sa 08:00-21:00","operator":"Waitrose & Partners","roof:levels":"0"}}, "geometry":{"type":"MultiPolygon","coordinates":[[[[-4.31546,55.93427],[-4.3154,55.93433],[-4.31538,55.93432],[-4.31486,55.93478],[-4.31407,55.93451],[-4.31468,55.93396],[-4.31487,55.93403],[-4.31484,55.93406],[-4.31546,55.93427]]]]}},
{ "type":"Feature","properties":{"osm_way_id":"642968010","name":"Lidl","building":"industrial","shop":"supermarket","other":{"addr:city":"Kirkintillock","addr:country":"GB","addr:postcode":"G66 1SY","addr:street":"Milton Road","addr:unit":"1A","brand":"Lidl","brand:wikidata":"Q151954","brand:wikipedia":"en:Lidl","fhrs:id":"761714","opening_hours":"Mo-Su 08:00-22:00"}}, "geometry":{"type":"MultiPolygon","coordinates":[[[[-4.15672,55.94385],[-4.15654,55.94389],[-4.15651,55.94385],[-4.15625,55.9439],[-4.15605,55.94355],[-4.15596,55.94357],[-4.15586,55.94341],[-4.15628,55.94333],[-4.15632,55.94339],[-4.15642,55.94337],[-4.15672,55.94385]]]]}},
{ "type":"Feature","properties":{"osm_way_id":"741332691","name":"Scotmid","building":"yes","shop":"supermarket","other":{"addr:city":"Milton of Campsie","addr:housenumber":"4","addr:postcode":"G66 8DB","addr:street":"Antermony Road","brand":"Scotmid","brand:wikidata":"Q7435719","brand:wikipedia":"en:Scotmid"}}, "geometry":{"type":"MultiPolygon","coordinates":[[[[-4.16006,55.96454],[-4.1601,55.96447],[-4.16035,55.96451],[-4.16031,55.96459],[-4.16006,55.96454]]]]}},
{ "type":"Feature","properties":{"osm_way_id":"741332693","name":"Co-operative food","building":"yes","shop":"supermarket","other":{"operator":"co-op"}}, "geometry":{"type":"MultiPolygon","coordinates":[[[[-4.15916,55.96421],[-4.15882,55.96411],[-4.15892,55.96399],[-4.15904,55.96401],[-4.15902,55.96405],[-4.15905,55.96406],[-4.15924,55.96412],[-4.15916,55.96421]]]]}},
{ "type":"Feature","properties":{"osm_way_id":"783842124","name":"Scotmid","building":"yes","shop":"supermarket","other":{"brand":"Scotmid","brand:wikidata":"Q7435719","brand:wikipedia":"en:Scotmid"}}, "geometry":{"type":"MultiPolygon","coordinates":[[[[-4.21134,55.93954],[-4.21119,55.93951],[-4.21125,55.93941],[-4.21137,55.93944],[-4.21141,55.93945],[-4.21134,55.93954]]]]}},
{ "type":"Feature","properties":{"osm_way_id":"839005123","name":"ALDI","building":"yes","shop":"supermarket","other":{"brand":"ALDI","brand:wikidata":"Q41171672","brand:wikipedia":"en:Aldi","website":"https:\/\/www.aldi.co.uk\/store\/s-uk-E1331"}}, "geometry":{"type":"MultiPolygon","coordinates":[[[[-4.31497,55.93302],[-4.31492,55.93243],[-4.31532,55.93242],[-4.31536,55.93302],[-4.31497,55.93302]]]]}}
]
}
