{
"type": "FeatureCollection",
"features": [
{ "type":"Feature","properties":{"osm_id":"662496593","name":"The Co-operative Food","other":{"addr:city":"Kettering","addr:country":"GB","addr:housenumber":"2","addr:postcode":"NN14 2QS","addr:street":"High Street","addr:town":"Desborough","fhrs:authority":"North Northamptonshire","fhrs:id":"65074","fhrs:local_authority_id":"14574","operator":"Central England Co-operative","shop":"supermarket"}}, "geometry":{"type":"Point","coordinates":[-0.82135,52.44162 ]}},
{ "type":"Feature","properties":{"osm_id":"1706129259","name":"Co-op","other":{"addr:city":"Rushden","addr:country":"GB","addr:postcode":"NN10 9JE","addr:street":"Grangeway","fhrs:authority":"North Northamptonshire","fhrs:id":"1087327","fhrs:local_authority_id":"18\/00055\/COM","operator":"The Co-operative Group","shop":"supermarket"}}, "geometry":{"type":"Point","coordinates":[-0.60923,52.28176 ]}},
{ "type":"Feature","properties":{"osm_id":"2482973771","name":"The Co-operative Food","other":{"addr:city":"Kettering","addr:country":"GB","addr:postcode":"NN14 6ET","addr:street":"Bell Hill","addr:town":"Rothwell","brand":"The Co-operative Food","brand:wikidata":"Q107617274","fhrs:authority":"North Northamptonshire","fhrs:id":"127515","fhrs:local_authority_id":"569","operator":"Central England Co-operative","shop":"supermarket"}}, "geometry":{"type":"Point","coordinates":[-0.79863,52.42284 ]}},
{ "type":"Feature","properties":{"osm_id":"2961924687","name":"Big Europe","other":{"addr:city":"Wellingborough","addr:country":"GB","addr:housenumber":"22-24","addr:postcode":"NN8 1LU","addr:street":"Midland Road","fhrs:authority":"North Northamptonshire","fhrs:id":"1005762","fhrs:local_authority_id":"17\/00083\/COM","shop":"supermarket"}}, "geometry":{"type":"Point","coordinates":[-0.69065,52.30151 ]}},
{ "type":"Feature","properties":{"osm_id":"3161300270","name":"The Cooperative Food","other":{"addr:city":"Wellingborough","addr:country":"GB","addr:housenumber":"23 - 25","addr:postcode":"NN29 7QN","addr:street":"Newton Road","addr:village":"Wollaston","fhrs:authority":"North Northamptonshire","fhrs:id":"164406","fhrs:local_authority_id":"PI\/000006237","opening_hours":"Mo-Su 06:00-23:00","operator":"The Co-operative Group","phone":"+44 1933 664565","shop":"supermarket","website":"https:\/\/www.co-operative.coop\/"}}, "geometry":{"type":"Point","coordinates":[-0.67155,52.25454 ]}},
{ "type":"Feature","properties":{"osm_id":"4522861460","name":"Spar","other":{"addr:city":"Wellingborough","addr:country":"GB","addr:postcode":"NN9 6HT","addr:street":"High Street","addr:town":"Raunds","brand":"Spar","brand:wikidata":"Q610492","fhrs:authority":"North Northamptonshire","fhrs:id":"20889","fhrs:local_authority_id":"06560\/0010\/2\/000","shop":"supermarket"}}, "geometry":{"type":"Point","coordinates":[-0.53612,52.34532 ]}},
{ "type":"Feature","properties":{"osm_id":"4553051226","name":"Heron Foods","other":{"addr:city":"Wellingborough","addr:country":"GB","addr:housenumber":"106A","addr:postcode":"NN8 4ES","addr:street":"Gold Street","brand":"Heron Foods","brand:wikidata":"Q5743472","brand:wikipedia":"en:Heron Foods","contact:website":"https:\/\/heronfoods.com\/storelocator\/store-details\/wellingborough","fhrs:authority":"North Northamptonshire","fhrs:id":"931911","fhrs:local_authority_id":"16\/00097\/COM","shop":"supermarket"}}, "geometry":{"type":"Point","coordinates":[-0.6926,52.3081 ]}},
{ "type":"Feature","properties":{"osm_id":"4593621898","name":"Budgens","other":{"addr:city":"Kettering","addr:country":"GB","addr:housenumber":"11-13","addr:postcode":"NN15 5DS","addr:street":"St Stephen's Road","brand":"Budgens","brand:wikidata":"Q4985016","fhrs:authority":"North Northamptonshire","fhrs:id":"149887","fhrs:local_authority_id":"9686","operator":"JPK Supermarkets Ltd","shop":"supermarket"}}, "geometry":{"type":"Point","coordinates":[-0.68983,52.39442 ]}},
{ "type":"Feature","properties":{"osm_id":"4593621923","name":"The Co-operative Food","other":{"addr:city":"Kettering","addr:country":"GB","addr:housenumber":"69","addr:postcode":"NN15 5AT","addr:street":"St John's Road","fhrs:authority":"North Northamptonshire","fhrs:id":"130686","fhrs:local_authority_id":"620","operator":"Central England Co-operative","shop":"supermarket"}}, "geometry":{"type":"Point","coordinates":[-0.70144,52.3935 ]}},
{ "type":"Feature","properties":{"osm_id":"4613147012","name":"Co-op Food","other":{"addr:city":"Kettering","addr:country":"GB","addr:housenumber":"60","addr:postcode":"NN16 8LL","addr:street":"Stamford Road","brand":"Co-op Food","brand:wikidata":"Q3277439","brand:wikipedia":"en:Co-op Food","fhrs:authority":"North Northamptonshire","fhrs:id":"130864","fhrs:local_authority_id":"622","opening_hours":"Mo-Sa 07:00-22:00; Su 08:00-22:00","operator":"Central England Co-operative","shop":"supermarket"}}, "geometry":{"type":"Point","coordinates":[-0.71516,52.40302 ]}},
{ "type":"Feature","properties":{"osm_id":"4613147030","name":"Kettering Food and Wine Centre","other":{"addr:city":"Kettering","addr:country":"GB","addr:housenumber":"36","addr:postcode":"NN16 8JS","addr:street":"Rockingham Road","shop":"supermarket"}}, "geometry":{"type":"Point","coordinates":[-0.72638,52.40348 ]}},
{ "type":"Feature","properties":{"osm_id":"4613147032","name":"Maja Sklep","other":{"addr:city":"Kettering","addr:country":"GB","addr:housenumber":"28a","addr:postcode":"NN16 8JS","addr:street":"Rockingham Road","fhrs:authority":"North Northamptonshire","fhrs:id":"696155","fhrs:local_authority_id":"19381","opening_hours":"Mo-Sa 08:00-22:00; Su 09:00-21:00","shop":"supermarket"}}, "geometry":{"type":"Point","coordinates":[-0.72634,52.40334 ]}},
{ "type":"Feature","properties":{"osm_id":"4613147033","name":"Rockingham Euro Market","other":{"addr:city":"Kettering","addr:country":"GB","addr:housenumber":"26-28","addr:postcode":"NN16 8JS","addr:street":"Rockingham Road","fhrs:authority":"North Northamptonshire","fhrs:id":"1015621","fhrs:local_authority_id":"21497","opening_hours":"Mo-Sa 08:00-22:00; Su 09:00-21:00","shop":"supermarket"}}, "geometry":{"type":"Point","coordinates":[-0.72633,52.40327 ]}},
{ "type":"Feature","properties":{"osm_id":"4622765832","name":"Poli Maxi Foods","other":{"addr:city":"Kettering","addr:country":"GB","addr:housename":"Acton House","addr:housenumber":"35-41","addr:postcode":"NN16 8RA","addr:street":"Montagu Street","fhrs:authority":"North Northamptonshire","fhrs:id":"1061515","fhrs:local_authority_id":"21783","shop":"supermarket"}}, "geometry":{"type":"Point","coordinates":[-0.72333,52.40148 ]}},
{ "type":"Feature","properties":{"osm_id":"4712395741","name":"Maxim Supermarket","other":{"addr:city":"Corby","addr:country":"GB","addr:housenumber":"51","addr:postcode":"NN17 1UU","addr:street":"High Street","fhrs:authority":"North Northamptonshire","fhrs:id":"684084","fhrs:local_authority_id":"14\/00001\/FOODHS","shop":"supermarket"}}, "geometry":{"type":"Point","coordinates":[-0.6824,52.49092 ]}},
{ "type":"Feature","properties":{"osm_id":"5808975600","name":"M&S Foodhall","other":{"addr:city":"Rushden","addr:housename":"Unit 6","addr:postcode":"NN10 6FH","addr:street":"South Terrace B","brand":"M&S Foodhall","brand:wikidata":"Q714491","brand:wikipedia":"en:Marks & Spencer","shop":"supermarket","website":"https:\/\/www.marksandspencer.com\/stores\/rushden-lakes-2071"}}, "geometry":{"type":"Point","coordinates":[-0.62078,52.30065 ]}},
{ "type":"Feature","properties":{"osm_id":"6444195922","other":{"emergency":"defibrillator"}}, "geometry":{"type":"Point","coordinates":[-0.71789,52.38997 ]}},
{ "type":"Feature","properties":{"osm_id":"6446681993","other":{"emergency":"defibrillator"}}, "geometry":{"type":"Point","coordinates":[-0.70907,52.50226 ]}},
{ "type":"Feature","properties":{"osm_id":"6446681995","other":{"emergency":"defibrillator"}}, "geometry":{"type":"Point","coordinates":[-0.69573,52.4961 ]}},
{ "type":"Feature","properties":{"osm_id":"8171098829","other":{"emergency":"defibrillator","indoor":"no"}}, "geometry":{"type":"Point","coordinates":[-0.60871,52.45841 ]}},
{ "type":"Feature","properties":{"osm_id":"8653316380","name":"Bar At Rushden Town Bowls Club","other":{"addr:city":"Rushden","addr:country":"GB","addr:housenumber":"144","addr:postcode":"NN10 6AN","addr:street":"Northampton Road","amenity":"bar","fhrs:authority":"North Northamptonshire","fhrs:id":"1049289","fhrs:local_authority_id":"18\/00017\/COM"}}, "geometry":{"type":"Point","coordinates":[-0.60962,52.302 ]}},
{ "type":"Feature","properties":{"osm_way_id":"42710618","name":"Co-op Food","building":"yes","shop":"supermarket","other":{"addr:city":"Oundle","addr:country":"GB","addr:housenumber":"5","addr:postcode":"PE8 4BG","addr:street":"St Osyths Lane","alt_name":"Central England Co-operative Food","brand":"Co-op Food","brand:wikidata":"Q3277439","brand:wikipedia":"en:Co-op Food","fhrs:authority":"North Northamptonshire","fhrs:id":"17118","fhrs:local_authority_id":"05340\/0011\/2\/000","opening_hours":"Mo-Sa 08:00-21:00; Su 10:00-16:00","phone":"+44 1832 275444","website":"https:\/\/www.co-operative.coop\/store\/food\/PE8-4BG\/st-osyths-lane\/"}}, "geometry":{"type":"MultiPolygon","coordinates":[[[[-0.46595,52.4806],[-0.46602,52.48057],[-0.46633,52.48044],[-0.46592,52.48008],[-0.46578,52.48014],[-0.46587,52.48022],[-0.46563,52.48032],[-0.46595,52.4806]]]]}},
{ "type":"Feature","properties":{"osm_way_id":"95132146","name":"The Co-operative Food","building":"yes","shop":"supermarket","other":{"addr:city":"Leicester","addr:country":"GB","addr:housenumber":"26-30","addr:postcode":"LE8 8AJ","addr:street":"High Street","addr:village":"Fleckney","fhrs:authority":"Harborough","fhrs:id":"355060","fhrs:local_authority_id":"06990\/2630\/0\/000","operator":"Central England Co-operative Society"}}, "geometry":{"type":"MultiPolygon","coordinates":[[[[-1.04482,52.53572],[-1.04537,52.53558],[-1.04544,52.53565],[-1.04523,52.53581],[-1.04529,52.53584],[-1.04495,52.53595],[-1.04482,52.53572]]]]}},
{ "type":"Feature","properties":{"osm_way_id":"98327886","name":"Waitrose","building":"yes","shop":"supermarket","other":{"addr:city":"Rushden","addr:country":"GB","addr:housenumber":"1","addr:postcode":"NN10 6AR","addr:street":"Crown Way","alt_name":"Waitrose Rushden","brand":"Waitrose","brand:wikidata":"Q771734","brand:wikipedia":"en:Waitrose & Partners","fhrs:authority":"North Northamptonshire","fhrs:id":"9564","fhrs:local_authority_id":"04\/00029\/COM","not:addr:postcode":"NN10 6AX","official_name":"Waitrose & Partners","operator":"Waitrose & Partners","website":"https:\/\/www.waitrose.com\/bf_home\/bf\/690.html"}}, "geometry":{"type":"MultiPolygon","coordinates":[[[[-0.62043,52.29937],[-0.62028,52.29931],[-0.62027,52.2993],[-0.61935,52.29895],[-0.61933,52.29897],[-0.6193,52.29895],[-0.61929,52.29896],[-0.61922,52.29897],[-0.61919,52.29901],[-0.61921,52.29905],[-0.61899,52.29927],[-0.61874,52.29953],[-0.61877,52.29956],[-0.61883,52.29958],[-0.61873,52.29968],[-0.61873,52.29969],[-0.61872,52.2997],[-0.61883,52.29976],[-0.61893,52.29978],[-0.61957,52.30002],[-0.61961,52.30001],[-0.61966,52.30003],[-0.62016,52.29995],[-0.62021,52.29991],[-0.62029,52.29994],[-0.62039,52.29984],[-0.62007,52.2997],[-0.62021,52.29955],[-0.62025,52.29956],[-0.62043,52.29937]]]]}},
{ "type":"Feature","properties":{"osm_way_id":"98333822","name":"Asda","building":"yes","shop":"supermarket","other":{"addr:city":"Rushden","addr:postcode":"NN10 6AA","addr:street":"Washbrook Road","alt_name":"ASDA Rushden Superstore","brand":"Asda","brand:wikidata":"Q297410","brand:wikipedia":"en:Asda","contact:facebook":"https:\/\/www.facebook.com\/asda\/","contact:phone":"+44 1933 417100","contact:twitter":"@asda","contact:website":"https:\/\/storelocator.asda.com\/east-midlands\/rushden\/washbrook-road","fhrs:authority":"North Northamptonshire","fhrs:id":"17855","fhrs:local_authority_id":"06\/00040\/COM","not:addr:postcode":"NN10 0PA","opening_hours:covid19":"Mo-Th,Sa 08:00-22:00; Fr 08:00-20:00; Su 10:00-16:00","operator":"Asda Stores Ltd"}}, "geometry":{"type":"MultiPolygon","coordinates":[[[[-0.60048,52.29434],[-0.60044,52.29513],[-0.59943,52.29512],[-0.59946,52.29455],[-0.59929,52.29454],[-0.59931,52.29424],[-0.59956,52.29424],[-0.59956,52.2942],[-0.60017,52.29422],[-0.60016,52.29427],[-0.60007,52.29427],[-0.60007,52.29433],[-0.60048,52.29434]]]]}},
{ "type":"Feature","properties":{"osm_way_id":"98364624","name":"Sainsbury's","building":"supermarket","shop":"supermarket","other":{"addr:city":"Wellingborough","addr:country":"GB","addr:housenumber":"260","addr:postcode":"NN8 3GZ","addr:street":"Northampton Road","brand":"Sainsbury's","brand:wikidata":"Q152096","brand:wikipedia":"en:Sainsbury's","building:levels":"1","fhrs:authority":"North Northamptonshire","fhrs:id":"169743","fhrs:local_authority_id":"PI\/000015848","wheelchair":"yes"}}, "geometry":{"type":"MultiPolygon","coordinates":[[[[-0.72109,52.29196],[-0.72063,52.29171],[-0.71997,52.29216],[-0.7201,52.29223],[-0.72001,52.2923],[-0.72087,52.29278],[-0.72117,52.29258],[-0.72142,52.29271],[-0.72151,52.29265],[-0.72145,52.29261],[-0.72151,52.29257],[-0.72132,52.29247],[-0.72149,52.29235],[-0.72096,52.29205],[-0.72109,52.29196]]]]}},
{ "type":"Feature","properties":{"osm_way_id":"98367175","name":"Tesco","building":"retail","shop":"supermarket","other":{"addr:city":"Wellingborough","addr:country":"GB","addr:housenumber":"27-35","addr:place":"Victoria Park","addr:postcode":"NN8 2EF","addr:street":"Whitworth Way","alt_name":"Tesco Wellingborough Victoria Park Superstore","brand":"Tesco","brand:wikidata":"Q487494","brand:wikipedia":"en:Tesco","building:levels":"1","contact:website":"https:\/\/www.tesco.com\/store-locator\/wellingborough\/turnells-mill-ln","fhrs:id":"171508","opening_hours":"Mo 06:00-24:00; Tu-Sa 00:00-24:00; Su 10:00-16:00","phone":"+44 345 6779707","toilets:wheelchair":"yes","wheelchair":"yes","wheelchair:description":"however staff often leave things in and at end of aisles making it difficult to manover and people often park illegally minimising the number of blue badge spaces available"}}, "geometry":{"type":"MultiPolygon","coordinates":[[[[-0.68548,52.29109],[-0.68467,52.29035],[-0.6841,52.29058],[-0.68405,52.29053],[-0.68332,52.29083],[-0.68397,52.29143],[-0.6842,52.29133],[-0.68418,52.29131],[-0.68452,52.29117],[-0.68456,52.2912],[-0.68473,52.29114],[-0.6847,52.29111],[-0.68499,52.29099],[-0.6852,52.29118],[-0.68531,52.29114],[-0.68533,52.29115],[-0.68548,52.29109]]]]}},
{ "type":"Feature","properties":{"osm_way_id":"106496923","name":"Lidl","building":"supermarket","shop":"supermarket","other":{"addr:city":"Rushden","addr:country":"GB","addr:postcode":"NN10 6EN","addr:street":"Brindley Close","alt_name":"LIDL Rushden","brand":"Lidl","brand:wikidata":"Q151954","brand:wikipedia":"en:Lidl","fhrs:authority":"North Northamptonshire","fhrs:id":"27977","fhrs:local_authority_id":"08425\/0001\/0\/000","fhrs:rating":"5","operator":"Lidl"}}, "geometry":{"type":"MultiPolygon","coordinates":[[[[-0.61403,52.30005],[-0.61379,52.30009],[-0.61376,52.30001],[-0.61359,52.30004],[-0.6138,52.30055],[-0.61427,52.30047],[-0.61419,52.3003],[-0.61414,52.30031],[-0.61403,52.30005]]]]}},
{ "type":"Feature","properties":{"osm_way_id":"128417335","name":"Tesco Extra","building":"yes","shop":"supermarket","other":{"addr:city":"Kettering","addr:country":"GB","addr:postcode":"NN15 6XB","addr:street":"Carina Road","addr:suburb":"Kettering Business Park","alt_name":"Tesco Kettering Extra","brand":"Tesco Extra","brand:wikidata":"Q25172225","fhrs:authority":"North Northamptonshire","fhrs:id":"82524","fhrs:local_authority_id":"2004","source:name":"survey","website":"https:\/\/www.tesco.com\/store-locator\/kettering\/carina-rd"}}, "geometry":{"type":"MultiPolygon","coordinates":[[[[-0.72219,52.37665],[-0.72215,52.37663],[-0.7219,52.3768],[-0.72198,52.37684],[-0.72187,52.37692],[-0.72178,52.37687],[-0.72142,52.3771],[-0.72135,52.37706],[-0.72111,52.37721],[-0.72093,52.37711],[-0.72117,52.37696],[-0.72068,52.37669],[-0.72131,52.37629],[-0.72124,52.37623],[-0.72154,52.37604],[-0.72158,52.37606],[-0.72187,52.37587],[-0.72266,52.37635],[-0.72219,52.37665]]]]}},
{ "type":"Feature","properties":{"osm_way_id":"159546653","name":"Sainsbury's","building":"yes","shop":"supermarket","other":{"addr:city":"Kettering","addr:country":"GB","addr:housenumber":"1-3","addr:postcode":"NN16 8JY","addr:street":"Rockingham Road","alt_name":"Sainsbury's Kettering Superstore","brand":"Sainsbury's","brand:wikidata":"Q152096","brand:wikipedia":"en:Sainsbury's","fhrs:authority":"North Northamptonshire","fhrs:id":"82556","fhrs:local_authority_id":"2005","opening_hours":"Mo-We 08:00-21:00; Th-Fr 08:00-22:00; Sa 07:30-22:00; Su 10:00-16:00","toilets:wheelchair":"yes","website":"https:\/\/stores.sainsburys.co.uk\/0628\/kettering","wheelchair":"yes"}}, "geometry":{"type":"MultiPolygon","coordinates":[[[[-0.72775,52.40308],[-0.72771,52.40287],[-0.72761,52.40288],[-0.72752,52.40247],[-0.72659,52.40256],[-0.72652,52.40262],[-0.72665,52.40318],[-0.72671,52.40317],[-0.72676,52.40335],[-0.72685,52.40334],[-0.72685,52.4033],[-0.72703,52.40328],[-0.72699,52.40312],[-0.72741,52.40308],[-0.72743,52.40319],[-0.72753,52.40318],[-0.72751,52.40311],[-0.72767,52.4031],[-0.72767,52.40308],[-0.72775,52.40308]]]]}},
{ "type":"Feature","properties":{"osm_way_id":"159546659","name":"Lidl","building":"retail","shop":"supermarket","other":{"addr:city":"Kettering","addr:country":"GB","addr:postcode":"NN16 8AR","addr:street":"Northfield Avenue","alt_name":"LIDL Kettering","brand":"Lidl","brand:wikidata":"Q151954","brand:wikipedia":"en:Lidl","fhrs:authority":"North Northamptonshire","fhrs:id":"102872","fhrs:local_authority_id":"3431","not:addr:postcode":"NN16 8AL","opening_hours":"Mo-Sa 08:00-22:00; Su 10:00-16:00"}}, "geometry":{"type":"MultiPolygon","coordinates":[[[[-0.73511,52.40012],[-0.73488,52.3996],[-0.73445,52.39968],[-0.73468,52.40019],[-0.73511,52.40012]]]]}},
{ "type":"Feature","properties":{"osm_way_id":"159546660","name":"Morrisons","building":"yes","shop":"supermarket","other":{"addr:city":"Corby","addr:country":"GB","addr:postcode":"NN18 8LH","addr:street":"Oakley Road","alt_name":"Morrisons Corby","brand":"Morrisons","brand:wikidata":"Q922344","brand:wikipedia":"en:Morrisons","fhrs:authority":"North Northamptonshire","fhrs:id":"11607","fhrs:local_authority_id":"04\/00757\/FOODHS"}}, "geometry":{"type":"MultiPolygon","coordinates":[[[[-0.72059,52.47098],[-0.72039,52.47079],[-0.72021,52.47085],[-0.72008,52.47071],[-0.72029,52.47063],[-0.72008,52.47045],[-0.71888,52.47088],[-0.71935,52.47136],[-0.71932,52.47143],[-0.71941,52.47148],[-0.71958,52.47151],[-0.71972,52.47145],[-0.71968,52.4714],[-0.71995,52.47131],[-0.71989,52.47125],[-0.72059,52.47098]]]]}},
{ "type":"Feature","properties":{"osm_way_id":"159546662","name":"Asda","building":"retail","shop":"supermarket","other":{"addr:city":"Kettering","addr:country":"GB","addr:postcode":"NN16 9HU","addr:street":"Cunliffe Drive, Northfield Avenue","alt_name":"ASDA Kettering Superstore","brand":"Asda","brand:wikidata":"Q297410","brand:wikipedia":"en:Asda","building:levels":"1","contact:facebook":"https:\/\/www.facebook.com\/asda\/","contact:twitter":"@asda","contact:website":"https:\/\/storelocator.asda.com\/east-midlands\/kettering\/cunliffe-drive-northfield-avenue","fhrs:authority":"North Northamptonshire","fhrs:id":"74748","fhrs:local_authority_id":"17296","opening_hours":"Mo 07:00-24:00; Tu-Fr 06:00-24:00; Sa 06:00-22:00; Su 10:00-16:00","operator":"Asda Stores Ltd"}}, "geometry":{"type":"MultiPolygon","coordinates":[[[[-0.73454,52.40925],[-0.73354,52.4092],[-0.73346,52.40979],[-0.73412,52.40983],[-0.7341,52.40999],[-0.73424,52.41],[-0.73423,52.4101],[-0.73421,52.41025],[-0.7342,52.41033],[-0.73466,52.41036],[-0.73472,52.40993],[-0.73464,52.40992],[-0.73467,52.4096],[-0.73464,52.4096],[-0.73465,52.40945],[-0.73451,52.40944],[-0.73454,52.40925]]]]}},
{ "type":"Feature","properties":{"osm_way_id":"159547563","name":"The Co-operative Food","building":"yes","shop":"supermarket","other":{"addr:city":"Kettering","addr:country":"GB","addr:postcode":"NN14 2QT","addr:street":"Gladstone Street","addr:town":"Desborough","fhrs:authority":"North Northamptonshire","fhrs:id":"55302","fhrs:local_authority_id":"12485","operator":"Central England Co-operative"}}, "geometry":{"type":"MultiPolygon","coordinates":[[[[-0.81797,52.44443],[-0.818,52.44418],[-0.81803,52.44419],[-0.81804,52.44413],[-0.8176,52.4441],[-0.81757,52.44442],[-0.81797,52.44443]]]]}},
{ "type":"Feature","properties":{"osm_way_id":"183088495","name":"The Food Warehouse","building":"yes","shop":"supermarket","other":{"addr:city":"Corby","addr:country":"GB","addr:postcode":"NN17 5DT","addr:street":"Peel Retail Park","brand":"The Food Warehouse","brand:wikidata":"Q87263899","fhrs:authority":"North Northamptonshire","fhrs:id":"1011271","fhrs:local_authority_id":"17\/00078\/FOODHS"}}, "geometry":{"type":"MultiPolygon","coordinates":[[[[-0.68275,52.49516],[-0.68264,52.49531],[-0.68208,52.49515],[-0.6822,52.495],[-0.68275,52.49516]]]]}},
{ "type":"Feature","properties":{"osm_way_id":"183088510","name":"Asda","building":"yes","shop":"supermarket","other":{"addr:city":"Corby","addr:country":"GB","addr:postcode":"NN17 5DT","addr:street":"Phoenix Park Way","alt_name":"ASDA Corby Superstore","brand":"Asda","brand:wikidata":"Q297410","brand:wikipedia":"en:Asda","contact:facebook":"https:\/\/www.facebook.com\/asda\/","contact:twitter":"@asda","contact:website":"https:\/\/storelocator.asda.com\/east-midlands\/corby\/phoenix-park-way","fhrs:authority":"North Northamptonshire","fhrs:id":"404312","fhrs:local_authority_id":"11\/00024\/FOODHS","opening_hours":"Mo 08:00-24:00; Tu-Fr 00:00-24:00; Sa 00:00-22:00; Su 10:00-16:00","operator":"Asda Stores Ltd"}}, "geometry":{"type":"MultiPolygon","coordinates":[[[[-0.68129,52.4972],[-0.68,52.49684],[-0.68073,52.49588],[-0.68177,52.49617],[-0.68181,52.49613],[-0.68221,52.49624],[-0.68188,52.49668],[-0.68172,52.49663],[-0.68129,52.4972]]]]}},
{ "type":"Feature","properties":{"osm_way_id":"279573992","name":"Co-op Food","building":"yes","shop":"supermarket","other":{"addr:city":"Kettering","addr:country":"GB","addr:postcode":"NN14 4PD","addr:street":"Oundle Road","addr:town":"Thrapston","fhrs:authority":"North Northamptonshire","fhrs:id":"51738","fhrs:local_authority_id":"11610\/0020\/2\/000","opening_hours":"Mo-Sa 08:00-20:00; Su 10:00-16:00","operator":"Central England Co-operative"}}, "geometry":{"type":"MultiPolygon","coordinates":[[[[-0.53507,52.39713],[-0.53496,52.3971],[-0.53437,52.39696],[-0.53441,52.39688],[-0.53453,52.39671],[-0.5348,52.39677],[-0.53478,52.3968],[-0.535,52.39686],[-0.53492,52.39699],[-0.53513,52.39704],[-0.53507,52.39713]]]]}},
{ "type":"Feature","properties":{"osm_way_id":"279579225","name":"ALDI","building":"yes","shop":"supermarket","other":{"addr:city":"Kettering","addr:country":"GB","addr:postcode":"NN15 6YA","addr:street":"Carina Road","addr:unit":"Unit 7","alt_name":"ALDI Kettering","brand":"ALDI","brand:wikidata":"Q41171672","brand:wikipedia":"en:Aldi","fhrs:id":"1363167"}}, "geometry":{"type":"MultiPolygon","coordinates":[[[[-0.71974,52.37521],[-0.72006,52.37478],[-0.71988,52.37473],[-0.71985,52.37477],[-0.71968,52.37472],[-0.71938,52.37511],[-0.71974,52.37521]]]]}},
{ "type":"Feature","properties":{"osm_way_id":"280860775","name":"Morrisons","building":"retail","shop":"supermarket","other":{"addr:city":"Wellingborough","addr:country":"GB","addr:housenumber":"2-5","addr:postcode":"NN8 4LL","addr:street":"Oxford Street","alt_name":"Morrisons Wellingborough","brand":"Morrisons","brand:wikidata":"Q922344","brand:wikipedia":"en:Morrisons","building:levels":"1","fhrs:authority":"North Northamptonshire","fhrs:id":"169942","fhrs:local_authority_id":"PI\/000016230","opening_hours":"Mo-Sa 08:00-21:00; Su 10:00-16:15","operator":"Morrisons","phone":"+44 1933 274045","website":"https:\/\/my.morrisons.com\/storefinder\/116"}}, "geometry":{"type":"MultiPolygon","coordinates":[[[[-0.69552,52.30142],[-0.69667,52.30096],[-0.69639,52.30071],[-0.69635,52.30066],[-0.69654,52.30059],[-0.69632,52.30039],[-0.69613,52.30047],[-0.69601,52.30044],[-0.69595,52.30046],[-0.69587,52.30039],[-0.69576,52.30043],[-0.69578,52.30046],[-0.69553,52.30056],[-0.6955,52.30053],[-0.69515,52.30066],[-0.69511,52.30062],[-0.69497,52.30068],[-0.69508,52.30078],[-0.6949,52.30085],[-0.69552,52.30142]]]]}},
{ "type":"Feature","properties":{"osm_way_id":"288050315","name":"Waitrose","building":"yes","shop":"supermarket","other":{"addr:city":"Oundle","addr:country":"GB","addr:housenumber":"66","addr:postcode":"PE8 4BZ","addr:street":"East Road","alt_name":"Waitrose Oundle","brand":"Waitrose & Partners","brand:wikidata":"Q771734","brand:wikipedia":"en:Waitrose & Partners","fhrs:authority":"North Northamptonshire","fhrs:id":"695781","fhrs:local_authority_id":"13\/00040\/COM","operator":"Waitrose & Partners"}}, "geometry":{"type":"MultiPolygon","coordinates":[[[[-0.46436,52.48468],[-0.46407,52.4844],[-0.46416,52.48437],[-0.46409,52.4843],[-0.464,52.48433],[-0.46399,52.48432],[-0.46362,52.48447],[-0.46356,52.48449],[-0.46352,52.48445],[-0.46333,52.48452],[-0.46351,52.48469],[-0.46375,52.4846],[-0.46398,52.48482],[-0.46436,52.48468]]]]}},
{ "type":"Feature","properties":{"osm_way_id":"292007308","name":"Morrisons","building":"retail","shop":"supermarket","other":{"addr:city":"Kettering","addr:country":"GB","addr:postcode":"NN16 8AN","addr:street":"Lower Street","alt_name":"Morrisons Kettering","brand":"Morrisons","brand:wikidata":"Q922344","brand:wikipedia":"en:Morrisons","opening_hours":"Mo-Sa 07:00-22:00; Su 10:00-16:00"}}, "geometry":{"type":"MultiPolygon","coordinates":[[[[-0.73198,52.40064],[-0.73175,52.40041],[-0.73141,52.40008],[-0.73021,52.40054],[-0.73051,52.40084],[-0.73072,52.40076],[-0.73102,52.40105],[-0.73119,52.40099],[-0.73128,52.40107],[-0.73131,52.40106],[-0.73194,52.40082],[-0.732,52.40086],[-0.73213,52.40087],[-0.73224,52.40084],[-0.73229,52.40079],[-0.7323,52.40073],[-0.73226,52.40069],[-0.73219,52.40065],[-0.73214,52.40064],[-0.73205,52.40063],[-0.73198,52.40064]]]]}},
{ "type":"Feature","properties":{"osm_way_id":"292054000","name":"Aldi","building":"retail","shop":"supermarket","other":{"addr:city":"Wellingborough","addr:country":"GB","addr:housenumber":"26-30","addr:postcode":"NN8 1HH","addr:street":"Victoria Road","alt_name":"ALDI Wellingborough","brand":"ALDI","brand:wikidata":"Q41171672","brand:wikipedia":"en:Aldi","building:levels":"1","fhrs:id":"171307","opening_hours":"Mo-Sa 08:00-22:00; Su 10:00-16:00"}}, "geometry":{"type":"MultiPolygon","coordinates":[[[[-0.6896,52.302],[-0.68962,52.30188],[-0.68877,52.30184],[-0.68874,52.3021],[-0.68896,52.30211],[-0.68896,52.30208],[-0.68951,52.30211],[-0.68952,52.302],[-0.6896,52.302]]]]}},
{ "type":"Feature","properties":{"osm_way_id":"323051545","name":"Co-op","building":"retail","shop":"supermarket","other":{"addr:city":"Northampton","addr:country":"GB","addr:housenumber":"6-10","addr:postcode":"NN6 0JG","addr:street":"High Street","addr:village":"Earls Barton","building:levels":"1","fhrs:authority":"North Northamptonshire","fhrs:id":"161301","fhrs:local_authority_id":"PI\/000001290","operator":"The Co-operative Group"}}, "geometry":{"type":"MultiPolygon","coordinates":[[[[-0.75163,52.2657],[-0.75154,52.26557],[-0.75123,52.26564],[-0.75111,52.26568],[-0.75126,52.2659],[-0.75158,52.26581],[-0.75166,52.26582],[-0.75172,52.26572],[-0.75163,52.2657]]]]}},
{ "type":"Feature","properties":{"osm_way_id":"326624815","name":"Aldi","building":"yes","shop":"supermarket","other":{"addr:city":"Corby","addr:country":"GB","addr:postcode":"NN17 4AE","addr:street":"Dalton Road","alt_name":"ALDI Corby","brand":"ALDI","brand:wikidata":"Q41171672","brand:wikipedia":"en:Aldi","fhrs:id":"10102"}}, "geometry":{"type":"MultiPolygon","coordinates":[[[[-0.70418,52.50724],[-0.70436,52.507],[-0.70375,52.50683],[-0.70353,52.5071],[-0.70373,52.50716],[-0.70376,52.50712],[-0.70418,52.50724]]]]}},
{ "type":"Feature","properties":{"osm_way_id":"326625477","name":"Lidl","building":"yes","shop":"supermarket","other":{"addr:city":"Corby","addr:country":"GB","addr:postcode":"NN18 0RG","addr:street":"Gainsborough Road","alt_name":"LIDL Corby","brand":"Lidl","brand:wikidata":"Q151954","brand:wikipedia":"en:Lidl","fhrs:authority":"North Northamptonshire","fhrs:id":"11202","fhrs:local_authority_id":"04\/00498\/FOODHS","opening_hours":"Mo-Sa 08:00-22:00; Su 10:00-16:00"}}, "geometry":{"type":"MultiPolygon","coordinates":[[[[-0.70088,52.48377],[-0.7,52.48373],[-0.70003,52.48348],[-0.70079,52.48352],[-0.70077,52.48366],[-0.70089,52.48366],[-0.70088,52.48377]]]]}},
{ "type":"Feature","properties":{"osm_way_id":"336749934","name":"Little Europe","building":"retail","shop":"supermarket","other":{"addr:city":"Wellingborough","addr:country":"GB","addr:housenumber":"15","addr:postcode":"NN8 1HA","addr:street":"Midland Road","building:levels":"3","fhrs:authority":"North Northamptonshire","fhrs:id":"174451","fhrs:local_authority_id":"PI\/000029109","phone":"+44 1933 222251"}}, "geometry":{"type":"MultiPolygon","coordinates":[[[[-0.69067,52.30171],[-0.69055,52.30168],[-0.69051,52.30174],[-0.69063,52.30177],[-0.69067,52.30171]]]]}},
{ "type":"Feature","properties":{"osm_way_id":"353913461","name":"M&S Simply Food","building":"retail","shop":"supermarket","other":{"addr:city":"Wellingborough","addr:country":"GB","addr:housenumber":"22","addr:postcode":"NN8 2DP","addr:street":"London Road","addr:suburb":"Castlefields Retail Park","alt_name":"Wellingborough Simply Food","brand":"M&S Simply Food","brand:wikidata":"Q714491","brand:wikipedia":"en:Marks & Spencer","building:levels":"1","fhrs:authority":"North Northamptonshire","fhrs:id":"401661","fhrs:local_authority_id":"PI\/000029817","opening_hours":"Mo-Sa 08:00-20:00; Su 10:00-16:00","phone":"+44 1933 271496","website":"https:\/\/www.marksandspencer.com\/stores\/wellingborough-simply-food-5345"}}, "geometry":{"type":"MultiPolygon","coordinates":[[[[-0.68649,52.29296],[-0.68674,52.29292],[-0.6867,52.29278],[-0.68588,52.29287],[-0.68593,52.29303],[-0.68649,52.29296]]]]}},
{ "type":"Feature","properties":{"osm_way_id":"360182200","name":"Sainsbury's","building":"yes","shop":"supermarket","other":{"addr:city":"Kettering","addr:country":"GB","addr:postcode":"NN15 5RL","addr:street":"High Street","addr:village":"Burton Latimer","alt_name":"Sainsbury's Burton Latimer Superstore","brand":"Sainsbury's","brand:wikidata":"Q152096","fhrs:authority":"North Northamptonshire","fhrs:id":"69217","fhrs:local_authority_id":"15545"}}, "geometry":{"type":"MultiPolygon","coordinates":[[[[-0.67847,52.36187],[-0.67807,52.36186],[-0.67791,52.36184],[-0.67793,52.36159],[-0.67858,52.36161],[-0.67857,52.36168],[-0.67849,52.36168],[-0.67847,52.36187]]]]}},
{ "type":"Feature","properties":{"osm_way_id":"362719350","name":"Co-op","building":"yes","shop":"supermarket","other":{"addr:city":"Rushden","addr:country":"GB","addr:housenumber":"26","addr:postcode":"NN10 8BL","addr:street":"High Street","addr:town":"Higham Ferrers","fhrs:authority":"North Northamptonshire","fhrs:id":"6717","fhrs:local_authority_id":"02440\/0026\/0\/000","operator":"The Co-operative Group"}}, "geometry":{"type":"MultiPolygon","coordinates":[[[[-0.59432,52.30499],[-0.59419,52.30511],[-0.5946,52.30523],[-0.59466,52.30524],[-0.59477,52.30511],[-0.59446,52.30503],[-0.59432,52.30499]]]]}},
{ "type":"Feature","properties":{"osm_way_id":"362719514","name":"The Co-operative Food","building":"yes","shop":"supermarket","other":{"addr:city":"Wellingborough","addr:country":"GB","addr:housenumber":"91-93","addr:postcode":"NN9 6LW","addr:street":"Brook Street","addr:town":"Raunds","fhrs:authority":"North Northamptonshire","fhrs:id":"20582","fhrs:local_authority_id":"06160\/0091\/2\/000","operator":"Central England Co-operative"}}, "geometry":{"type":"MultiPolygon","coordinates":[[[[-0.53926,52.34122],[-0.53942,52.34156],[-0.53904,52.34162],[-0.53896,52.34144],[-0.53876,52.3414],[-0.53889,52.34128],[-0.53926,52.34122]]]]}},
{ "type":"Feature","properties":{"osm_way_id":"362719741","name":"Co-op","building":"retail","shop":"supermarket","other":{"addr:city":"Wellingborough","addr:country":"GB","addr:housenumber":"3","addr:postcode":"NN8 4UF","addr:street":"Farm Road","building:levels":"1","fhrs:authority":"North Northamptonshire","fhrs:id":"172314","fhrs:local_authority_id":"PI\/000022790","operator":"The Co-operative Group"}}, "geometry":{"type":"MultiPolygon","coordinates":[[[[-0.70439,52.3174],[-0.70443,52.31754],[-0.70444,52.31758],[-0.70418,52.31761],[-0.70417,52.31758],[-0.70413,52.31743],[-0.70439,52.3174]]]]}},
{ "type":"Feature","properties":{"osm_way_id":"380568505","name":"ALDI","building":"retail","shop":"supermarket","other":{"addr:city":"Kettering","addr:housename":"Stanier Retail Park","addr:postcode":"NN16 9XW","addr:street":"Northfield Avenue","brand":"ALDI","brand:wikidata":"Q41171672","brand:wikipedia":"en:Aldi","building:levels":"1","fhrs:authority":"North Northamptonshire","fhrs:id":"839196","fhrs:local_authority_id":"20183","opening_hours":"Mo-Sa 08:00-22:00; Su 10:00-16:00; PH 08:00-20:00"}}, "geometry":{"type":"MultiPolygon","coordinates":[[[[-0.73598,52.40509],[-0.73598,52.40508],[-0.73614,52.4051],[-0.73608,52.40527],[-0.73532,52.40518],[-0.73537,52.40503],[-0.73588,52.40508],[-0.73598,52.40509]]]]}},
{ "type":"Feature","properties":{"osm_way_id":"380569145","name":"The Food Warehouse","building":"retail","shop":"supermarket","other":{"addr:city":"Kettering","addr:country":"GB","addr:housename":"Belgrave retail Park","addr:postcode":"NN16 9TS","addr:street":"Northfield Avenue","brand":"The Food Warehouse","brand:wikidata":"Q87263899","building:levels":"1","fhrs:authority":"North Northamptonshire","fhrs:id":"1219957","fhrs:local_authority_id":"22367","opening_hours":"Mo-Sa 08:00-20:00; Su 10:00-16:00","operator":"Iceland","roof:levels":"0","roof:shape":"round"}}, "geometry":{"type":"MultiPolygon","coordinates":[[[[-0.73585,52.40477],[-0.73542,52.40472],[-0.7354,52.40472],[-0.73544,52.40456],[-0.73553,52.40428],[-0.73599,52.40433],[-0.73585,52.40477]]]]}},
{ "type":"Feature","properties":{"osm_way_id":"402197750","name":"The Co-operative Food","building":"yes","shop":"supermarket","other":{"addr:city":"Kettering","addr:country":"GB","addr:housenumber":"1","addr:postcode":"NN14 3HA","addr:street":"High Street","addr:village":"Brigstock","fhrs:authority":"North Northamptonshire","fhrs:id":"2115","fhrs:local_authority_id":"00650\/0001\/2\/000","opening_hours":"Mo-Sa 07:00-22:00; Su 08:00-22:00","operator":"Central England Co-operative"}}, "geometry":{"type":"MultiPolygon","coordinates":[[[[-0.60912,52.45833],[-0.60885,52.4585],[-0.60871,52.45841],[-0.60869,52.4584],[-0.60895,52.45823],[-0.60912,52.45833]]]]}},
{ "type":"Feature","properties":{"osm_way_id":"408960191","name":"Medina Cash And Carry","building":"commercial","shop":"supermarket","other":{"addr:city":"Wellingborough","addr:country":"GB","addr:housenumber":"49-51","addr:postcode":"NN8 1EP","addr:street":"Gordon Road","building:levels":"1","fhrs:authority":"North Northamptonshire","fhrs:id":"1350569","fhrs:local_authority_id":"21\/00127\/COM"}}, "geometry":{"type":"MultiPolygon","coordinates":[[[[-0.68677,52.30536],[-0.68669,52.3053],[-0.68664,52.30526],[-0.68675,52.30521],[-0.68683,52.30516],[-0.68692,52.30522],[-0.6869,52.30529],[-0.68677,52.30536]]]]}},
{ "type":"Feature","properties":{"osm_way_id":"426010123","name":"Super Grocers","building":"retail","shop":"supermarket","other":{"addr:city":"Wellingborough","addr:country":"GB","addr:housenumber":"131","addr:postcode":"NN8 2LW","addr:street":"Doddington Road","building:levels":"2","fhrs:authority":"North Northamptonshire","fhrs:id":"166665","fhrs:local_authority_id":"PI\/000009979","phone":"+44 1933 223093"}}, "geometry":{"type":"MultiPolygon","coordinates":[[[[-0.69711,52.28996],[-0.6971,52.29003],[-0.69693,52.29002],[-0.69694,52.28995],[-0.69711,52.28996]]]]}},
{ "type":"Feature","properties":{"osm_way_id":"446404555","name":"Co-op","building":"retail","shop":"supermarket","other":{"addr:city":"Wellingborough","addr:country":"GB","addr:housenumber":"10","addr:postcode":"NN8 3QE","addr:street":"Olympic Way","building:levels":"1","fhrs:authority":"North Northamptonshire","fhrs:id":"172988","fhrs:local_authority_id":"PI\/000024622","old_name":"Co-op Welcome","operator":"The Co-operative Group"}}, "geometry":{"type":"MultiPolygon","coordinates":[[[[-0.71718,52.30557],[-0.71728,52.30548],[-0.71741,52.30535],[-0.71744,52.30532],[-0.71723,52.30524],[-0.71697,52.30549],[-0.71718,52.30557]]]]}},
{ "type":"Feature","properties":{"osm_way_id":"446651658","name":"K D Supermarket","building":"retail","shop":"supermarket","other":{"addr:city":"Wellingborough","addr:country":"GB","addr:housenumber":"109","addr:postcode":"NN8 4TU","addr:street":"Nest Farm Crescent","building:levels":"3","fhrs:authority":"North Northamptonshire","fhrs:id":"169573","fhrs:local_authority_id":"PI\/000015398"}}, "geometry":{"type":"MultiPolygon","coordinates":[[[[-0.68968,52.31555],[-0.68974,52.31561],[-0.68963,52.31565],[-0.68957,52.31559],[-0.68968,52.31555]]]]}},
{ "type":"Feature","properties":{"osm_way_id":"449012637","name":"Tesco Bushfield Centre Express","building":"retail","shop":"supermarket","other":{"addr:city":"Wellingborough","addr:country":"GB","addr:housenumber":"1-2","addr:postcode":"NN8 5WA","addr:street":"Grafton Close","brand":"Tesco Express","brand:wikidata":"Q98456772","building:levels":"1","fhrs:authority":"North Northamptonshire","fhrs:id":"167567","fhrs:rating":"5"}}, "geometry":{"type":"MultiPolygon","coordinates":[[[[-0.71436,52.31448],[-0.71468,52.31436],[-0.71458,52.31425],[-0.71435,52.31434],[-0.71427,52.31437],[-0.71431,52.31441],[-0.71429,52.31441],[-0.71436,52.31448]]]]}},
{ "type":"Feature","properties":{"osm_way_id":"450127228","name":"Co-op","building":"retail","shop":"supermarket","other":{"addr:city":"Wellingborough","addr:country":"GB","addr:postcode":"NN29 7AB","addr:street":"High Street","addr:village":"Irchester","building:levels":"2","fhrs:authority":"North Northamptonshire","fhrs:id":"162754","fhrs:local_authority_id":"PI\/000003572","operator":"The Co-operative Group"}}, "geometry":{"type":"MultiPolygon","coordinates":[[[[-0.64469,52.28106],[-0.64474,52.28097],[-0.64486,52.28098],[-0.64489,52.28093],[-0.64486,52.28092],[-0.64488,52.28089],[-0.64492,52.2809],[-0.64493,52.28088],[-0.64504,52.28089],[-0.64491,52.2811],[-0.64469,52.28106]]]]}},
{ "type":"Feature","properties":{"osm_way_id":"453733539","name":"Tesco Extra","building":"yes","shop":"supermarket","other":{"addr:city":"Corby","addr:country":"GB","addr:postcode":"NN18 8AL","addr:street":"Oakley Road","alt_name":"Corby Oakley Road Extra","brand":"Tesco Extra","brand:wikidata":"Q25172225","brand:wikipedia":"en:Tesco Extra","fhrs:authority":"North Northamptonshire","fhrs:id":"536967","fhrs:local_authority_id":"13\/00019\/FOODHS","not:addr:postcode":"NN18 8AN","opening_hours":"Mo-Sa 06:00-24:00; Su 10:00-16:00"}}, "geometry":{"type":"MultiPolygon","coordinates":[[[[-0.68604,52.48425],[-0.68569,52.48502],[-0.68742,52.48531],[-0.68781,52.48456],[-0.68604,52.48425]]]]}},
{ "type":"Feature","properties":{"osm_way_id":"463992349","name":"Budgens","shop":"supermarket","other":{"addr:city":"Kettering","addr:country":"GB","addr:housenumber":"57","addr:postcode":"NN15 6UF","addr:street":"Gotch Road","addr:village":"Barton Seagrave","brand":"Budgens","brand:wikidata":"Q4985016","brand:wikipedia":"en:Budgens","fhrs:authority":"North Northamptonshire","fhrs:id":"1298629","fhrs:local_authority_id":"23228"}}, "geometry":{"type":"MultiPolygon","coordinates":[[[[-0.69707,52.37572],[-0.69671,52.37577],[-0.69666,52.37563],[-0.69701,52.37557],[-0.69707,52.37572]]]]}},
{ "type":"Feature","properties":{"osm_way_id":"465923419","name":"Co-op Food","building":"retail","shop":"supermarket","other":{"addr:city":"Kettering","addr:country":"GB","addr:housenumber":"1-5","addr:postcode":"NN16 0NT","addr:street":"Grange Place","brand":"Co-op Food","brand:wikidata":"Q3277439","brand:wikipedia":"en:Co-op Food","fhrs:authority":"North Northamptonshire","fhrs:id":"129819","fhrs:local_authority_id":"608","operator":"Central England Co-operative"}}, "geometry":{"type":"MultiPolygon","coordinates":[[[[-0.70694,52.40751],[-0.70668,52.40771],[-0.70656,52.40765],[-0.70664,52.40759],[-0.70657,52.40755],[-0.70663,52.40751],[-0.70675,52.40742],[-0.70694,52.40751]]]]}},
{ "type":"Feature","properties":{"osm_way_id":"474497697","name":"Marks and Spencer Foodhall","building":"yes","shop":"supermarket","other":{"addr:city":"Corby","addr:country":"GB","addr:housename":"The Peel Centre","addr:housenumber":"6","addr:postcode":"NN17 5DT","addr:street":"Phoenix Parkway","brand":"Marks & Spencer","brand:wikidata":"Q714491","brand:wikipedia":"en:Marks & Spencer","fhrs:authority":"North Northamptonshire","fhrs:id":"941849","fhrs:local_authority_id":"16\/00066\/FOODHS"}}, "geometry":{"type":"MultiPolygon","coordinates":[[[[-0.68228,52.49577],[-0.68216,52.49592],[-0.68161,52.49576],[-0.68172,52.4956],[-0.68228,52.49577]]]]}},
{ "type":"Feature","properties":{"osm_way_id":"477211589","name":"The Co-operative Food","building":"retail","shop":"supermarket","other":{"addr:city":"Corby","addr:country":"GB","addr:housenumber":"57","addr:postcode":"NN17 1ED","addr:street":"Occupation Road","fhrs:authority":"North Northamptonshire","fhrs:id":"11517","fhrs:local_authority_id":"04\/00706\/FOODHS","operator":"Central England Co-operative"}}, "geometry":{"type":"MultiPolygon","coordinates":[[[[-0.69584,52.49606],[-0.6956,52.49584],[-0.6954,52.49591],[-0.69564,52.49614],[-0.69573,52.4961],[-0.69584,52.49606]]]]}},
{ "type":"Feature","properties":{"osm_way_id":"477352854","name":"B&M Express","building":"yes","shop":"supermarket","other":{"addr:city":"Corby","addr:country":"GB","addr:housenumber":"56-58","addr:postcode":"NN17 1NH","addr:street":"Corporation Street","brand":"B&M Express","brand:wikidata":"Q99640578","fhrs:authority":"North Northamptonshire","fhrs:id":"1047280","fhrs:local_authority_id":"18\/00025\/FOODHS"}}, "geometry":{"type":"MultiPolygon","coordinates":[[[[-0.70245,52.48785],[-0.70265,52.48785],[-0.70265,52.48786],[-0.70265,52.48803],[-0.70255,52.48803],[-0.70245,52.48803],[-0.70245,52.48785]]]]}},
{ "type":"Feature","properties":{"osm_way_id":"477352883","name":"Euro Express","building":"yes","shop":"supermarket","other":{"addr:city":"Corby","addr:country":"GB","addr:housenumber":"19","addr:postcode":"NN17 1PB","addr:street":"New Post Office Square","fhrs:authority":"North Northamptonshire","fhrs:id":"589426","fhrs:local_authority_id":"13\/00052\/FOODHS"}}, "geometry":{"type":"MultiPolygon","coordinates":[[[[-0.70048,52.48842],[-0.70056,52.48842],[-0.70058,52.48852],[-0.7005,52.48853],[-0.70048,52.48842]]]]}},
{ "type":"Feature","properties":{"osm_way_id":"477383934","name":"Euromarket","shop":"supermarket","other":{"addr:city":"Corby","addr:country":"GB","addr:housenumber":"80","addr:postcode":"NN17 1QE","addr:street":"George Street","fhrs:authority":"North Northamptonshire","fhrs:id":"894517","fhrs:local_authority_id":"15\/00036\/FOODHS"}}, "geometry":{"type":"MultiPolygon","coordinates":[[[[-0.70433,52.48956],[-0.70427,52.48946],[-0.70422,52.48947],[-0.70408,52.4895],[-0.70371,52.4896],[-0.70375,52.48966],[-0.70389,52.48963],[-0.70391,52.48967],[-0.70418,52.48961],[-0.70433,52.48956]]]]}},
{ "type":"Feature","properties":{"osm_way_id":"477965933","name":"The Co-operative Food","shop":"supermarket","other":{"addr:city":"Corby","addr:country":"GB","addr:housenumber":"121","addr:postcode":"NN17 2AW","addr:street":"Welland Vale Road","fhrs:authority":"North Northamptonshire","fhrs:id":"10933","fhrs:local_authority_id":"04\/00368\/FOODHS","operator":"Central England Co-operative"}}, "geometry":{"type":"MultiPolygon","coordinates":[[[[-0.70904,52.50224],[-0.70921,52.50214],[-0.70941,52.50227],[-0.70925,52.50237],[-0.70907,52.50226],[-0.70904,52.50224]]]]}},
{ "type":"Feature","properties":{"osm_way_id":"482334375","name":"Lidl","building":"retail","shop":"supermarket","other":{"addr:city":"Wellingborough","addr:country":"GB","addr:housenumber":"47","addr:postcode":"NN8 2DP","addr:street":"London Road","brand":"Lidl","brand:wikidata":"Q151954","brand:wikipedia":"en:Lidl","building:levels":"1","fhrs:authority":"North Northamptonshire","fhrs:id":"838672","fhrs:local_authority_id":"15\/00095\/COM","opening_hours":"Mo-Sa 08:00-22:00; Su 10:00-16:00","operator":"lidl","website":"https:\/\/lidl.co.uk\/"}}, "geometry":{"type":"MultiPolygon","coordinates":[[[[-0.68368,52.2948],[-0.68361,52.2947],[-0.6837,52.29466],[-0.68357,52.29449],[-0.68449,52.29422],[-0.68471,52.29451],[-0.68368,52.2948]]]]}},
{ "type":"Feature","properties":{"osm_way_id":"670965144","name":"Asda","building":"retail","shop":"supermarket","other":{"addr:city":"Wellingborough","addr:country":"GB","addr:postcode":"NN9 6GR","addr:street":"Michael Way","addr:town":"Raunds","brand":"Asda","brand:wikidata":"Q297410","brand:wikipedia":"en:Asda","building:levels":"1","contact:facebook":"https:\/\/www.facebook.com\/asda\/","contact:twitter":"@asda","contact:website":"https:\/\/storelocator.asda.com\/east-midlands\/raunds\/michael-way","fhrs:authority":"North Northamptonshire","fhrs:id":"975154","fhrs:local_authority_id":"17\/00024\/COM","operator":"Asda Stores Ltd"}}, "geometry":{"type":"MultiPolygon","coordinates":[[[[-0.54934,52.35167],[-0.54871,52.35174],[-0.54864,52.35149],[-0.54927,52.35142],[-0.54934,52.35167]]]]}},
{ "type":"Feature","properties":{"osm_way_id":"682116471","name":"Lidl","building":"retail","shop":"supermarket","other":{"addr:city":"Rushden","addr:country":"GB","addr:housenumber":"25","addr:postcode":"NN10 0HD","addr:street":"Newton Road","branch":"Uk","brand":"Lidl","brand:wikidata":"Q151954","brand:wikipedia":"en:Lidl","fhrs:authority":"North Northamptonshire","fhrs:id":"877029","fhrs:local_authority_id":"16\/00025\/COM"}}, "geometry":{"type":"MultiPolygon","coordinates":[[[[-0.59405,52.29021],[-0.59507,52.28993],[-0.59486,52.28965],[-0.59392,52.28992],[-0.59404,52.29008],[-0.59396,52.2901],[-0.59405,52.29021]]]]}},
{ "type":"Feature","properties":{"osm_way_id":"687468683","name":"The Co-operative Food","building":"retail","shop":"supermarket","other":{"addr:city":"Kettering","addr:country":"GB","addr:housenumber":"196","addr:postcode":"NN15 6DT","addr:street":"London Road","fhrs:authority":"North Northamptonshire","fhrs:id":"626778","fhrs:local_authority_id":"18539","opening_hours":"Mo-Su 07:00-22:00","operator":"Central England Co-operative","phone":"+44 1536 411796","website":"https:\/\/www.co-operative.coop\/store\/food\/NN15-6DT\/196-london-road"}}, "geometry":{"type":"MultiPolygon","coordinates":[[[[-0.71806,52.38988],[-0.71789,52.38997],[-0.71776,52.39003],[-0.71757,52.38989],[-0.71787,52.38974],[-0.71806,52.38988]]]]}},
{ "type":"Feature","properties":{"osm_way_id":"689386082","name":"Londis","building":"retail","shop":"supermarket","other":{"addr:city":"Wellingborough","addr:country":"GB","addr:housenumber":"83","addr:postcode":"NN9 5LG","addr:street":"Wellingborough Road","addr:village":"Finedon","brand":"Londis","brand:wikidata":"Q21008564","brand:wikipedia":"en:Londis (United Kingdom)","building:levels":"2","fhrs:authority":"North Northamptonshire","fhrs:id":"172157","fhrs:local_authority_id":"PI\/000022387"}}, "geometry":{"type":"MultiPolygon","coordinates":[[[[-0.65403,52.3374],[-0.65393,52.33732],[-0.65405,52.33725],[-0.65416,52.33734],[-0.65403,52.3374]]]]}},
{ "type":"Feature","properties":{"osm_way_id":"700114250","name":"Aldi","building":"yes","shop":"supermarket","other":{"addr:city":"Corby","addr:country":"GB","addr:postcode":"NN18 9EZ","addr:street":"Saxon Way West","brand":"ALDI","brand:wikidata":"Q41171672","brand:wikipedia":"en:Aldi","fhrs:id":"1105568"}}, "geometry":{"type":"MultiPolygon","coordinates":[[[[-0.73479,52.46117],[-0.73535,52.46079],[-0.73494,52.46055],[-0.73436,52.46095],[-0.73479,52.46117]]]]}},
{ "type":"Feature","properties":{"osm_way_id":"741277597","name":"The Cooperative","building":"retail","shop":"supermarket","other":{"addr:city":"Irthlingborough","addr:country":"GB","addr:housenumber":"3","addr:postcode":"NN9 5FT","addr:street":"Church Street","building:levels":"1","fhrs:authority":"North Northamptonshire","fhrs:id":"1211706","fhrs:local_authority_id":"19\/00084\/COM"}}, "geometry":{"type":"MultiPolygon","coordinates":[[[[-0.61042,52.32645],[-0.61007,52.32663],[-0.60991,52.32651],[-0.61026,52.32633],[-0.61042,52.32645]]]]}},
{ "type":"Feature","properties":{"osm_way_id":"810865406","building":"yes"},"geometry":{"type":"MultiPolygon","coordinates":[[[[-0.72544,52.28815],[-0.7254,52.28809],[-0.72545,52.28808],[-0.72539,52.28798],[-0.72531,52.288],[-0.72534,52.28805],[-0.72529,52.28806],[-0.72536,52.28817],[-0.72544,52.28815]]]]}},
{ "type":"Feature","properties":{"osm_way_id":"926880913","name":"ALDI","building":"retail","shop":"supermarket","other":{"addr:city":"Wellingborough","addr:country":"GB","addr:postcode":"NN9 5GF","addr:street":"Attley Way","addr:town":"Irthlingborough","brand":"ALDI","brand:wikidata":"Q41171672","brand:wikipedia":"en:Aldi","building:levels":"1","fhrs:id":"1106367","website":"https:\/\/www.aldi.co.uk\/store\/s-uk-E1048"}}, "geometry":{"type":"MultiPolygon","coordinates":[[[[-0.60195,52.32912],[-0.60225,52.3292],[-0.60221,52.32926],[-0.60237,52.3293],[-0.60277,52.32874],[-0.60264,52.32871],[-0.60262,52.32874],[-0.60229,52.32865],[-0.60195,52.32912]]]]}},
{ "type":"Feature","properties":{"osm_way_id":"937806525","name":"The Food Warehouse","building":"yes","shop":"supermarket","other":{"brand":"The Food Warehouse","brand:wikidata":"Q87263899"}}, "geometry":{"type":"MultiPolygon","coordinates":[[[[-1.3436,52.07344],[-1.34353,52.07368],[-1.34325,52.07365],[-1.34298,52.07361],[-1.34303,52.07338],[-1.34309,52.07338],[-1.34326,52.0734],[-1.3436,52.07344]]]]}}
]
}
