{
"type": "FeatureCollection",
"features": [
{ "type":"Feature","properties":{"osm_id":"5522638168","name":"The Salvation Army Trading Company","other":{"building":"warehouse"}}, "geometry":{"type":"Point","coordinates":[-0.66426,52.25267 ]}},
{ "type":"Feature","properties":{"osm_way_id":"86437443","name":"Oxford University Press","building":"warehouse","other":{"addr:city":"Kettering","addr:country":"GB","addr:postcode":"NN14 1UA","addr:street":"Hipwell Road","fhrs:authority":"North Northamptonshire","fhrs:id":"1010797","fhrs:local_authority_id":"21376","source:name":"survey"}}, "geometry":{"type":"MultiPolygon","coordinates":[[[[-0.73609,52.42303],[-0.73626,52.42297],[-0.73715,52.42397],[-0.73673,52.42411],[-0.7369,52.4243],[-0.73731,52.42417],[-0.73736,52.42423],[-0.73916,52.42364],[-0.73734,52.42161],[-0.73557,52.42221],[-0.73619,52.42291],[-0.73603,52.42296],[-0.73609,52.42303]]]]}},
{ "type":"Feature","properties":{"osm_way_id":"86437446","name":"Argos Wincanton","building":"warehouse","other":{"addr:city":"Kettering","addr:country":"GB","addr:postcode":"NN14 1QG","addr:street":"Glendon Road","addr:suburb":"North Kettering Business Park","fhrs:authority":"North Northamptonshire","fhrs:id":"74134","fhrs:local_authority_id":"17039"}}, "geometry":{"type":"MultiPolygon","coordinates":[[[[-0.73218,52.42617],[-0.73382,52.4275],[-0.73363,52.42759],[-0.73385,52.42776],[-0.73403,52.42768],[-0.73557,52.42893],[-0.73748,52.42805],[-0.73591,52.42682],[-0.73611,52.42671],[-0.73591,52.42655],[-0.73572,52.42664],[-0.73404,52.42529],[-0.73218,52.42617]]]]}},
{ "type":"Feature","properties":{"osm_way_id":"86438197","building":"warehouse"},"geometry":{"type":"MultiPolygon","coordinates":[[[[-0.73549,52.42166],[-0.73406,52.42082],[-0.73388,52.42093],[-0.73361,52.42077],[-0.73378,52.42066],[-0.7337,52.4206],[-0.73456,52.42006],[-0.73634,52.42112],[-0.73549,52.42166]]]]}},
{ "type":"Feature","properties":{"osm_way_id":"86438198","name":"BSH","building":"warehouse"},"geometry":{"type":"MultiPolygon","coordinates":[[[[-0.7315,52.42044],[-0.73315,52.42144],[-0.73183,52.42226],[-0.732,52.42236],[-0.73164,52.42258],[-0.73149,52.42249],[-0.73074,52.42296],[-0.72908,52.42196],[-0.72961,52.42163],[-0.72947,52.42155],[-0.73032,52.42102],[-0.73044,52.4211],[-0.7315,52.42044]]]]}},
{ "type":"Feature","properties":{"osm_way_id":"92405437","name":"Kuehne And Nagel","building":"warehouse","other":{"addr:city":"Wellingborough","addr:country":"GB","addr:housenumber":"15-23","addr:postcode":"NN8 2DH","addr:street":"Claudius Way","addr:village":"Irchester","fhrs:authority":"North Northamptonshire","fhrs:id":"849086","fhrs:local_authority_id":"16\/00008\/COM"}}, "geometry":{"type":"MultiPolygon","coordinates":[[[[-0.66914,52.28961],[-0.66913,52.29026],[-0.66906,52.29026],[-0.66906,52.29056],[-0.66912,52.29056],[-0.66911,52.29086],[-0.67147,52.29089],[-0.67147,52.29102],[-0.67171,52.29102],[-0.67172,52.29089],[-0.67409,52.29091],[-0.67409,52.29062],[-0.67428,52.29062],[-0.67429,52.28996],[-0.67412,52.28995],[-0.67413,52.28966],[-0.67215,52.28964],[-0.67215,52.28944],[-0.67184,52.28944],[-0.67183,52.28963],[-0.67176,52.28963],[-0.67176,52.2895],[-0.67151,52.2895],[-0.67151,52.28963],[-0.67144,52.28963],[-0.67144,52.28943],[-0.67112,52.28943],[-0.67112,52.28963],[-0.66914,52.28961]]]]}},
{ "type":"Feature","properties":{"osm_way_id":"92405440","name":"Homebase DHL","building":"warehouse","other":{"addr:city":"Wellingborough","addr:country":"GB","addr:housenumber":"1-5","addr:postcode":"NN8 2DH","addr:street":"Claudius Way","addr:village":"Irchester"}}, "geometry":{"type":"MultiPolygon","coordinates":[[[[-0.66599,52.28918],[-0.66267,52.28874],[-0.66245,52.28938],[-0.66231,52.28936],[-0.66213,52.28987],[-0.66227,52.28989],[-0.66225,52.28996],[-0.66369,52.29015],[-0.66363,52.29032],[-0.66433,52.29041],[-0.66436,52.2903],[-0.66459,52.29033],[-0.66461,52.29027],[-0.66557,52.29039],[-0.66599,52.28918]]]]}},
{ "type":"Feature","properties":{"osm_way_id":"92405441","name":"Monsoon Accessorize","building":"warehouse","other":{"addr:city":"Wellingborough","addr:country":"GB","addr:housenumber":"7-11","addr:postcode":"NN8 2DH","addr:street":"Claudius Way","addr:village":"Irchester"}}, "geometry":{"type":"MultiPolygon","coordinates":[[[[-0.66703,52.28928],[-0.66701,52.28991],[-0.66686,52.28991],[-0.66685,52.29002],[-0.66701,52.29002],[-0.66698,52.29092],[-0.66889,52.29095],[-0.66894,52.2893],[-0.66703,52.28928]]]]}},
{ "type":"Feature","properties":{"osm_way_id":"97744304","building":"warehouse"},"geometry":{"type":"MultiPolygon","coordinates":[[[[-0.67765,52.51036],[-0.67761,52.5103],[-0.67841,52.51007],[-0.67884,52.51062],[-0.67872,52.51064],[-0.67927,52.51135],[-0.67494,52.51259],[-0.67402,52.51141],[-0.67765,52.51036]]]]}},
{ "type":"Feature","properties":{"osm_way_id":"98369428","name":"Lok'nStore","building":"warehouse","shop":"storage_rental","other":{"addr:city":"Wellingborough","addr:country":"GB","addr:postcode":"NN8 2EF","addr:street":"Whitworth Way,","brand":"Lok'nStore","brand:wikidata":"Q6668484","brand:wikipedia":"en:Lok'nStore","building:levels":"4","fhrs:authority":"North Northamptonshire","fhrs:id":"1290594","fhrs:local_authority_id":"20\/00137\/COM"}}, "geometry":{"type":"MultiPolygon","coordinates":[[[[-0.68634,52.29066],[-0.68595,52.29082],[-0.68564,52.29053],[-0.68572,52.2905],[-0.68566,52.29044],[-0.68559,52.29043],[-0.6856,52.29039],[-0.68562,52.2904],[-0.68563,52.29034],[-0.68589,52.29024],[-0.68634,52.29066]]]]}},
{ "type":"Feature","properties":{"osm_way_id":"98459638","building":"warehouse"},"geometry":{"type":"MultiPolygon","coordinates":[[[[-0.65354,52.4891],[-0.65397,52.48739],[-0.65253,52.48725],[-0.65208,52.48896],[-0.65354,52.4891]]]]}},
{ "type":"Feature","properties":{"osm_way_id":"98459703","building":"warehouse"},"geometry":{"type":"MultiPolygon","coordinates":[[[[-0.64841,52.49245],[-0.64762,52.49118],[-0.64628,52.4915],[-0.64712,52.49278],[-0.64841,52.49245]]]]}},
{ "type":"Feature","properties":{"osm_way_id":"98459719","building":"warehouse"},"geometry":{"type":"MultiPolygon","coordinates":[[[[-0.65231,52.49153],[-0.65143,52.49008],[-0.6504,52.49032],[-0.64777,52.49093],[-0.64875,52.4924],[-0.65231,52.49153]]]]}},
{ "type":"Feature","properties":{"osm_way_id":"98459729","building":"warehouse"},"geometry":{"type":"MultiPolygon","coordinates":[[[[-0.64832,52.49002],[-0.6512,52.4893],[-0.6507,52.48853],[-0.64779,52.4893],[-0.64832,52.49002]]]]}},
{ "type":"Feature","properties":{"osm_way_id":"106498717","name":"Store First","building":"warehouse","other":{"addr:city":"Rushden","addr:country":"GB","addr:postcode":"NN10 6DB","addr:street":"Brindley Close"}}, "geometry":{"type":"MultiPolygon","coordinates":[[[[-0.61357,52.30076],[-0.61334,52.30022],[-0.61264,52.30033],[-0.61287,52.30087],[-0.61357,52.30076]]]]}},
{ "type":"Feature","properties":{"osm_way_id":"106498751","name":"Wm Morrisons Produce Ltd","building":"warehouse","other":{"addr:city":"Rushden","addr:country":"GB","addr:postcode":"NN10 6BS","addr:street":"Crown Way","fhrs:authority":"North Northamptonshire","fhrs:id":"17902","fhrs:local_authority_id":"06\/00045\/COM"}}, "geometry":{"type":"MultiPolygon","coordinates":[[[[-0.61556,52.29869],[-0.61532,52.29891],[-0.61518,52.29885],[-0.61522,52.29881],[-0.61345,52.29807],[-0.61396,52.29762],[-0.6144,52.2978],[-0.61448,52.29773],[-0.61485,52.29789],[-0.61477,52.29796],[-0.61577,52.29839],[-0.6158,52.2984],[-0.61575,52.29844],[-0.61551,52.29867],[-0.61556,52.29869]]]]}},
{ "type":"Feature","properties":{"osm_way_id":"118726556","building":"warehouse"},"geometry":{"type":"MultiPolygon","coordinates":[[[[-0.78661,52.30089],[-0.78731,52.30121],[-0.78944,52.29948],[-0.78931,52.29942],[-0.78929,52.29944],[-0.78881,52.29922],[-0.78873,52.29929],[-0.78863,52.29924],[-0.78798,52.29977],[-0.78778,52.29993],[-0.78661,52.30089]]]]}},
{ "type":"Feature","properties":{"osm_way_id":"118726557","building":"warehouse"},"geometry":{"type":"MultiPolygon","coordinates":[[[[-0.78568,52.30124],[-0.78558,52.30119],[-0.7855,52.30125],[-0.78543,52.30122],[-0.78551,52.30116],[-0.785,52.30092],[-0.78661,52.29961],[-0.78703,52.2998],[-0.78743,52.29947],[-0.78749,52.2995],[-0.78766,52.29936],[-0.78775,52.2994],[-0.78772,52.29942],[-0.78789,52.2995],[-0.78785,52.29953],[-0.78782,52.29951],[-0.78779,52.29954],[-0.78774,52.29952],[-0.78771,52.29954],[-0.78777,52.29957],[-0.78768,52.29964],[-0.78798,52.29977],[-0.78778,52.29993],[-0.78746,52.29979],[-0.78568,52.30124]]]]}},
{ "type":"Feature","properties":{"osm_way_id":"142904402","building":"warehouse"},"geometry":{"type":"MultiPolygon","coordinates":[[[[-0.46442,52.48327],[-0.4642,52.48333],[-0.46426,52.48341],[-0.46447,52.48336],[-0.46442,52.48327]]]]}},
{ "type":"Feature","properties":{"osm_way_id":"178083442","building":"warehouse"},"geometry":{"type":"MultiPolygon","coordinates":[[[[-0.50473,52.53773],[-0.50478,52.53751],[-0.50421,52.53747],[-0.50416,52.53768],[-0.50473,52.53773]]]]}},
{ "type":"Feature","properties":{"osm_way_id":"199744337","name":"IForce","building":"warehouse"},"geometry":{"type":"MultiPolygon","coordinates":[[[[-0.68588,52.48257],[-0.68751,52.48066],[-0.68622,52.48025],[-0.68459,52.48217],[-0.68588,52.48257]]]]}},
{ "type":"Feature","properties":{"osm_way_id":"199744348","name":"Wincanton Logistics","building":"warehouse","other":{"addr:city":"Corby","addr:country":"GB","addr:postcode":"NN18 8EY","addr:street":"Long Croft Road"}}, "geometry":{"type":"MultiPolygon","coordinates":[[[[-0.68996,52.48196],[-0.68831,52.48175],[-0.68903,52.47981],[-0.68919,52.47984],[-0.68924,52.47975],[-0.69036,52.47989],[-0.69035,52.47998],[-0.69094,52.48006],[-0.69083,52.48035],[-0.69052,52.4803],[-0.69032,52.48092],[-0.69055,52.48096],[-0.69048,52.48124],[-0.69022,52.4812],[-0.68996,52.48196]]]]}},
{ "type":"Feature","properties":{"osm_way_id":"199744349","name":"Wincanton","building":"warehouse"},"geometry":{"type":"MultiPolygon","coordinates":[[[[-0.68395,52.48212],[-0.68529,52.48063],[-0.68445,52.48036],[-0.68451,52.48029],[-0.6842,52.48019],[-0.68424,52.48014],[-0.68389,52.48002],[-0.68377,52.48015],[-0.68354,52.48007],[-0.68237,52.48137],[-0.68258,52.48143],[-0.68242,52.48161],[-0.68395,52.48212]]]]}},
{ "type":"Feature","properties":{"osm_way_id":"254557548","building":"warehouse"},"geometry":{"type":"MultiPolygon","coordinates":[[[[-0.82306,52.45267],[-0.82094,52.45213],[-0.82255,52.44978],[-0.82477,52.45036],[-0.82467,52.45053],[-0.82446,52.45048],[-0.82306,52.45267]]]]}},
{ "type":"Feature","properties":{"osm_way_id":"316609025","name":"Salvation Army Trading Company","building":"warehouse","other":{"addr:city":"Wellingborough","addr:country":"GB","addr:housenumber":"66-78","addr:postcode":"NN8 2QH","addr:street":"Denington Road","addr:suburb":"Denington Industrial Estate","fax":"+44 1933 445449","phone":"+44 1933 441807","website":"http:\/\/www.satradingco.org\/"}}, "geometry":{"type":"MultiPolygon","coordinates":[[[[-0.69228,52.29026],[-0.69219,52.29008],[-0.69215,52.29008],[-0.69199,52.28976],[-0.69222,52.28972],[-0.69207,52.2894],[-0.6927,52.28929],[-0.69286,52.28962],[-0.693,52.28959],[-0.6932,52.29002],[-0.69306,52.29005],[-0.69308,52.29009],[-0.69244,52.2902],[-0.69245,52.29023],[-0.69228,52.29026]]]]}},
{ "type":"Feature","properties":{"osm_way_id":"316609041","building":"warehouse"},"geometry":{"type":"MultiPolygon","coordinates":[[[[-0.69121,52.28917],[-0.69092,52.28858],[-0.69004,52.28874],[-0.69033,52.28934],[-0.69121,52.28917]]]]}},
{ "type":"Feature","properties":{"osm_way_id":"316609045","name":"The Open University Distribution Services","building":"warehouse","other":{"addr:city":"Wellingborough","addr:country":"GB","addr:housenumber":"53\/63","addr:postcode":"NN8 2QH","addr:street":"Denington Road","addr:suburb":"Denington Industrial Estate"}}, "geometry":{"type":"MultiPolygon","coordinates":[[[[-0.69068,52.29135],[-0.6903,52.29048],[-0.69162,52.29026],[-0.69189,52.29087],[-0.69136,52.29096],[-0.69143,52.29112],[-0.69131,52.29114],[-0.69135,52.29124],[-0.69068,52.29135]]]]}},
{ "type":"Feature","properties":{"osm_way_id":"326160163","building":"warehouse"},"geometry":{"type":"MultiPolygon","coordinates":[[[[-0.66875,52.29831],[-0.66885,52.29818],[-0.66804,52.29796],[-0.66794,52.29811],[-0.66875,52.29831]]]]}},
{ "type":"Feature","properties":{"osm_way_id":"333849487","name":"Whirlpool","building":"warehouse"},"geometry":{"type":"MultiPolygon","coordinates":[[[[-0.54994,52.34749],[-0.55055,52.34561],[-0.55107,52.3457],[-0.55109,52.34557],[-0.55157,52.34564],[-0.55154,52.34579],[-0.55198,52.34585],[-0.55206,52.34562],[-0.55244,52.34567],[-0.55237,52.34589],[-0.55299,52.346],[-0.55211,52.34838],[-0.55124,52.34826],[-0.55115,52.34846],[-0.55046,52.34837],[-0.55055,52.34819],[-0.55045,52.34817],[-0.55068,52.34762],[-0.55057,52.34761],[-0.55052,52.34775],[-0.54988,52.34766],[-0.54982,52.34764],[-0.54987,52.34748],[-0.54994,52.34749]]]]}},
{ "type":"Feature","properties":{"osm_way_id":"333849492","name":"exertis","building":"warehouse"},"geometry":{"type":"MultiPolygon","coordinates":[[[[-0.54836,52.35062],[-0.54836,52.35075],[-0.54887,52.35075],[-0.54887,52.35055],[-0.54866,52.35055],[-0.54865,52.3501],[-0.54892,52.3501],[-0.54892,52.34981],[-0.54867,52.34982],[-0.54866,52.34851],[-0.5489,52.34851],[-0.5489,52.34836],[-0.5474,52.34837],[-0.54742,52.35062],[-0.54751,52.35062],[-0.54836,52.35062]]]]}},
{ "type":"Feature","properties":{"osm_way_id":"380226291","name":"Corby Gymnastics Academy","building":"warehouse","leisure":"sports_centre","sport":"gymnastics","other":{"addr:city":"Corby","addr:housenumber":"8","addr:postcode":"NN17 4SW","addr:street":"Fleming Rd","website":"http:\/\/www.corbygymnastics.co.uk"}}, "geometry":{"type":"MultiPolygon","coordinates":[[[[-0.69003,52.50859],[-0.68986,52.50858],[-0.68929,52.50855],[-0.68931,52.50835],[-0.68935,52.50835],[-0.68995,52.50838],[-0.69005,52.50839],[-0.69003,52.50859]]]]}},
{ "type":"Feature","properties":{"osm_way_id":"396844613","building":"warehouse"},"geometry":{"type":"MultiPolygon","coordinates":[[[[-0.67895,52.49738],[-0.67858,52.49732],[-0.6785,52.49751],[-0.67887,52.49757],[-0.67895,52.49738]]]]}},
{ "type":"Feature","properties":{"osm_way_id":"420497407","name":"Planet Bounce Trampoline Park","building":"warehouse","other":{"addr:city":"Corby","addr:housename":"Rockingham Leisure Park","addr:postcode":"NN17 4AP","addr:street":"Princewood Road","phone":"+44 1536 216250","website":"http:\/\/www.planetbouncetrampolinepark.com"}}, "geometry":{"type":"MultiPolygon","coordinates":[[[[-0.70668,52.50823],[-0.70617,52.50864],[-0.70581,52.50848],[-0.70627,52.50811],[-0.70632,52.50807],[-0.70668,52.50823]]]]}},
{ "type":"Feature","properties":{"osm_way_id":"420503671","name":"Corby Gymnastics Academy","building":"warehouse","other":{"addr:city":"Corby","addr:housenumber":"8","addr:postcode":"NN17 4SW","addr:street":"Fleming Road"}}, "geometry":{"type":"MultiPolygon","coordinates":[[[[-0.68997,52.50817],[-0.68967,52.50816],[-0.68968,52.50811],[-0.68934,52.50809],[-0.68931,52.50824],[-0.68937,52.50825],[-0.68935,52.50835],[-0.68995,52.50838],[-0.68997,52.50817]]]]}},
{ "type":"Feature","properties":{"osm_way_id":"438891880","building":"warehouse"},"geometry":{"type":"MultiPolygon","coordinates":[[[[-0.82371,52.44921],[-0.8237,52.44903],[-0.82363,52.44903],[-0.82362,52.44886],[-0.82329,52.44885],[-0.8233,52.44903],[-0.82264,52.44903],[-0.82238,52.44915],[-0.82238,52.4492],[-0.82371,52.44921]]]]}},
{ "type":"Feature","properties":{"osm_way_id":"449012576","name":"Booker Retail Partners","building":"warehouse"},"geometry":{"type":"MultiPolygon","coordinates":[[[[-0.73437,52.30569],[-0.73463,52.30522],[-0.73451,52.3052],[-0.73457,52.30508],[-0.73426,52.30501],[-0.7342,52.30512],[-0.73305,52.30489],[-0.73279,52.30537],[-0.73437,52.30569]]]]}},
{ "type":"Feature","properties":{"osm_way_id":"449012595","name":"Hendrickson","building":"warehouse","other":{"addr:city":"Wellingborough","addr:country":"GB","addr:housenumber":"1-9","addr:postcode":"NN8 6GR","addr:street":"Booth Drive"}}, "geometry":{"type":"MultiPolygon","coordinates":[[[[-0.73634,52.30576],[-0.73652,52.30536],[-0.73492,52.30508],[-0.73473,52.30548],[-0.73634,52.30576]]]]}},
{ "type":"Feature","properties":{"osm_way_id":"449012597","name":"Homebase DHL","building":"warehouse","other":{"addr:city":"Wellingborough","addr:postcode":"NN8 6XA"}}, "geometry":{"type":"MultiPolygon","coordinates":[[[[-0.73469,52.30905],[-0.73472,52.30892],[-0.73396,52.30884],[-0.73401,52.30865],[-0.73463,52.30871],[-0.73471,52.30841],[-0.7345,52.30839],[-0.73477,52.30739],[-0.73189,52.3071],[-0.73155,52.30839],[-0.73372,52.3086],[-0.73371,52.30865],[-0.73379,52.30866],[-0.73374,52.30883],[-0.73366,52.30883],[-0.73362,52.30894],[-0.73469,52.30905]]]]}},
{ "type":"Feature","properties":{"osm_way_id":"449012598","building":"warehouse","other":{"addr:city":"Wellingborough","addr:postcode":"NN8 6BN"}}, "geometry":{"type":"MultiPolygon","coordinates":[[[[-0.73018,52.30856],[-0.73039,52.30695],[-0.72962,52.30691],[-0.72964,52.30676],[-0.72934,52.30674],[-0.72932,52.3069],[-0.72855,52.30686],[-0.72833,52.30847],[-0.73018,52.30856]]]]}},
{ "type":"Feature","properties":{"osm_way_id":"449012615","name":"Booker Retail Partners","building":"warehouse"},"geometry":{"type":"MultiPolygon","coordinates":[[[[-0.7322,52.3049],[-0.73309,52.30322],[-0.73155,52.30291],[-0.73111,52.30374],[-0.73091,52.3037],[-0.73045,52.30456],[-0.7322,52.3049]]]]}},
{ "type":"Feature","properties":{"osm_way_id":"449012638","name":"Co_op","building":"warehouse","other":{"addr:city":"Wellingborough","addr:country":"GB","addr:housenumber":"20-32","addr:postcode":"NN8 6AQ","addr:street":"Rutherford Drive","fhrs:authority":"North Northamptonshire","fhrs:id":"1251481","fhrs:local_authority_id":"20\/00032\/COM"}}, "geometry":{"type":"MultiPolygon","coordinates":[[[[-0.74058,52.30468],[-0.73909,52.30456],[-0.73961,52.30202],[-0.74065,52.3021],[-0.74067,52.30203],[-0.74081,52.30204],[-0.74085,52.30186],[-0.74116,52.30188],[-0.74058,52.30468]]]]}},
{ "type":"Feature","properties":{"osm_way_id":"463985811","name":"I V G White Ltd","building":"warehouse","other":{"addr:city":"Wellingborough","addr:country":"GB","addr:postcode":"NN9 5NQ","addr:street":"Finedon Road","addr:village":"Burton Latimer"}}, "geometry":{"type":"MultiPolygon","coordinates":[[[[-0.68399,52.35247],[-0.68399,52.35256],[-0.68391,52.35256],[-0.6839,52.35294],[-0.6844,52.35295],[-0.6844,52.3531],[-0.6849,52.3531],[-0.6849,52.35274],[-0.68512,52.35274],[-0.68513,52.35252],[-0.68504,52.35252],[-0.68505,52.35239],[-0.68483,52.35239],[-0.68483,52.35264],[-0.68451,52.35264],[-0.68451,52.35255],[-0.68463,52.35255],[-0.68463,52.35247],[-0.68399,52.35247]]]]}},
{ "type":"Feature","properties":{"osm_way_id":"464417444","name":"Knights of Old","building":"warehouse","other":{"addr:city":"Kettering","addr:country":"GB","addr:postcode":"NN15 6XR","addr:street":"Kettering Parkway"}}, "geometry":{"type":"MultiPolygon","coordinates":[[[[-0.7099,52.37405],[-0.71004,52.37371],[-0.70922,52.37359],[-0.70908,52.37392],[-0.7099,52.37405]]]]}},
{ "type":"Feature","properties":{"osm_way_id":"478526001","name":"Wincanton (Matalan)","building":"warehouse","other":{"addr:city":"Corby","addr:country":"GB","addr:postcode":"NN17 5XN","addr:street":"Curver Way","fhrs:authority":"North Northamptonshire","fhrs:id":"45490","fhrs:local_authority_id":"11\/00010\/FOODHS"}}, "geometry":{"type":"MultiPolygon","coordinates":[[[[-0.66732,52.50271],[-0.66598,52.50054],[-0.66534,52.50068],[-0.66605,52.50184],[-0.66369,52.50238],[-0.66362,52.50227],[-0.6632,52.50237],[-0.66328,52.50249],[-0.66352,52.50244],[-0.66369,52.50271],[-0.66395,52.50266],[-0.66414,52.50296],[-0.66389,52.50302],[-0.66384,52.50294],[-0.66359,52.503],[-0.66376,52.50328],[-0.66426,52.50317],[-0.66439,52.50338],[-0.66732,52.50271]]]]}},
{ "type":"Feature","properties":{"osm_way_id":"478526009","name":"Cheeky Monkees","building":"warehouse","tourism":"theme_park","other":{"addr:city":"Corby","addr:country":"GB","addr:housenumber":"2","addr:postcode":"NN17 5DU","addr:street":"Cockerell Road","fhrs:authority":"North Northamptonshire","fhrs:id":"14761","fhrs:local_authority_id":"05\/00049\/FOODC"}}, "geometry":{"type":"MultiPolygon","coordinates":[[[[-0.67858,52.49732],[-0.67821,52.49726],[-0.67813,52.49746],[-0.6785,52.49751],[-0.67858,52.49732]]]]}},
{ "type":"Feature","properties":{"osm_way_id":"479378774","name":"Joules Clothing","building":"warehouse","other":{"addr:city":"Corby","addr:country":"GB","addr:postcode":"NN18 9EZ","addr:street":"Saxon Way West","fhrs:authority":"Corby","fhrs:id":"11154","fhrs:local_authority_id":"04\/00469\/FOODC"}}, "geometry":{"type":"MultiPolygon","coordinates":[[[[-0.73746,52.4683],[-0.73738,52.46803],[-0.73583,52.4682],[-0.736,52.46876],[-0.73511,52.46886],[-0.73519,52.46912],[-0.73763,52.46885],[-0.73761,52.46878],[-0.73877,52.46865],[-0.73879,52.46871],[-0.73905,52.46868],[-0.73883,52.46797],[-0.73857,52.468],[-0.73862,52.46817],[-0.73746,52.4683]]]]}},
{ "type":"Feature","properties":{"osm_way_id":"515313177","building":"warehouse"},"geometry":{"type":"MultiPolygon","coordinates":[[[[-0.59317,52.28837],[-0.59337,52.28862],[-0.59345,52.28859],[-0.59351,52.28867],[-0.59316,52.28878],[-0.59304,52.28863],[-0.59299,52.28864],[-0.59285,52.28847],[-0.59317,52.28837]]]]}},
{ "type":"Feature","properties":{"osm_way_id":"542061641","name":"Steps and Stillages","building":"warehouse","other":{"addr:city":"Kettering","addr:postcode":"NN16 9HU","addr:street":"Brunel Close"}}, "geometry":{"type":"MultiPolygon","coordinates":[[[[-0.73596,52.40672],[-0.73606,52.4064],[-0.73581,52.40637],[-0.73573,52.40658],[-0.73572,52.40664],[-0.73565,52.40663],[-0.73563,52.40668],[-0.73596,52.40672]]]]}},
{ "type":"Feature","properties":{"osm_way_id":"588821687","name":"British Red Cross Emergency Response Unit Warehouse","building":"warehouse","other":{"addr:city":"Corby","addr:postcode":"NN17 3DY"}}, "geometry":{"type":"MultiPolygon","coordinates":[[[[-0.58791,52.5395],[-0.58753,52.53941],[-0.58776,52.53907],[-0.58813,52.53916],[-0.58791,52.5395]]]]}},
{ "type":"Feature","properties":{"osm_way_id":"591015140","building":"warehouse","other":{"operator":"Sir Robert McAlpine"}}, "geometry":{"type":"MultiPolygon","coordinates":[[[[-0.72663,52.38045],[-0.72756,52.38003],[-0.7268,52.3794],[-0.72592,52.37982],[-0.72663,52.38045]]]]}},
{ "type":"Feature","properties":{"osm_way_id":"619587264","building":"warehouse"},"geometry":{"type":"MultiPolygon","coordinates":[[[[-0.6663,52.26105],[-0.66632,52.26097],[-0.66635,52.26098],[-0.6666,52.25982],[-0.66677,52.25983],[-0.66686,52.25991],[-0.66683,52.26011],[-0.66706,52.26013],[-0.66706,52.26019],[-0.66715,52.26019],[-0.66705,52.26058],[-0.66697,52.26057],[-0.66687,52.26102],[-0.66656,52.261],[-0.66655,52.26107],[-0.6663,52.26105]]]]}},
{ "type":"Feature","properties":{"osm_way_id":"667508824","building":"warehouse"},"geometry":{"type":"MultiPolygon","coordinates":[[[[-0.39057,52.46892],[-0.39192,52.46884],[-0.39186,52.46838],[-0.3905,52.46846],[-0.39057,52.46892]]]]}},
{ "type":"Feature","properties":{"osm_way_id":"667508825","building":"warehouse"},"geometry":{"type":"MultiPolygon","coordinates":[[[[-0.38914,52.46825],[-0.38816,52.4686],[-0.38847,52.46892],[-0.38945,52.46858],[-0.38914,52.46825]]]]}},
{ "type":"Feature","properties":{"osm_way_id":"667508826","building":"warehouse"},"geometry":{"type":"MultiPolygon","coordinates":[[[[-0.38946,52.46858],[-0.38847,52.46893],[-0.38878,52.46925],[-0.38976,52.46891],[-0.38946,52.46858]]]]}},
{ "type":"Feature","properties":{"osm_way_id":"667508827","building":"warehouse"},"geometry":{"type":"MultiPolygon","coordinates":[[[[-0.38977,52.46893],[-0.38878,52.46927],[-0.38909,52.4696],[-0.39008,52.46925],[-0.38977,52.46893]]]]}},
{ "type":"Feature","properties":{"osm_way_id":"700114312","name":"BSH Distribution","building":"warehouse"},"geometry":{"type":"MultiPolygon","coordinates":[[[[-0.66305,52.48217],[-0.66491,52.48099],[-0.6671,52.48228],[-0.66723,52.4822],[-0.66751,52.48236],[-0.66738,52.48244],[-0.6693,52.48356],[-0.66948,52.48345],[-0.66965,52.48355],[-0.66947,52.48367],[-0.66976,52.48383],[-0.66923,52.48417],[-0.66936,52.48424],[-0.66832,52.48491],[-0.6682,52.48484],[-0.66792,52.48502],[-0.66576,52.48376],[-0.66556,52.48388],[-0.66536,52.48377],[-0.66557,52.48364],[-0.66551,52.48361],[-0.66535,52.48371],[-0.66507,52.48354],[-0.66522,52.48344],[-0.66514,52.4834],[-0.66495,52.48352],[-0.66476,52.48341],[-0.66496,52.48329],[-0.66305,52.48217]]]]}},
{ "type":"Feature","properties":{"osm_way_id":"700114313","name":"iForce","building":"warehouse"},"geometry":{"type":"MultiPolygon","coordinates":[[[[-0.67102,52.48123],[-0.67387,52.48111],[-0.67406,52.48282],[-0.67418,52.48282],[-0.6742,52.48297],[-0.67408,52.48298],[-0.67427,52.48464],[-0.67336,52.48468],[-0.67337,52.48481],[-0.67227,52.48486],[-0.67226,52.48471],[-0.67142,52.48475],[-0.67102,52.48123]]]]}},
{ "type":"Feature","properties":{"osm_way_id":"700120579","building":"warehouse"},"geometry":{"type":"MultiPolygon","coordinates":[[[[-0.75273,52.3903],[-0.75312,52.39068],[-0.75202,52.39111],[-0.75162,52.39073],[-0.75186,52.39064],[-0.75273,52.3903]]]]}},
{ "type":"Feature","properties":{"osm_way_id":"700120580","building":"warehouse"},"geometry":{"type":"MultiPolygon","coordinates":[[[[-0.75265,52.38973],[-0.753,52.38988],[-0.75343,52.39005],[-0.75315,52.39031],[-0.75236,52.38999],[-0.75265,52.38973]]]]}},
{ "type":"Feature","properties":{"osm_way_id":"700120582","building":"warehouse"},"geometry":{"type":"MultiPolygon","coordinates":[[[[-0.75496,52.39023],[-0.75509,52.3903],[-0.75618,52.3909],[-0.75636,52.391],[-0.75706,52.39052],[-0.75566,52.38975],[-0.75496,52.39023]]]]}},
{ "type":"Feature","properties":{"osm_way_id":"700120583","building":"warehouse"},"geometry":{"type":"MultiPolygon","coordinates":[[[[-0.75426,52.38947],[-0.75417,52.38941],[-0.75328,52.38874],[-0.75321,52.38868],[-0.75385,52.38837],[-0.75489,52.38915],[-0.75426,52.38947]]]]}},
{ "type":"Feature","properties":{"osm_way_id":"703422875","building":"warehouse"},"geometry":{"type":"MultiPolygon","coordinates":[[[[-0.6652,52.2531],[-0.66494,52.25244],[-0.6654,52.25237],[-0.66566,52.25304],[-0.6652,52.2531]]]]}},
{ "type":"Feature","properties":{"osm_way_id":"703422876","building":"warehouse"},"geometry":{"type":"MultiPolygon","coordinates":[[[[-0.66511,52.25154],[-0.6649,52.25156],[-0.66498,52.25184],[-0.66519,52.25181],[-0.66511,52.25154]]]]}},
{ "type":"Feature","properties":{"osm_way_id":"703422877","building":"warehouse"},"geometry":{"type":"MultiPolygon","coordinates":[[[[-0.66363,52.25172],[-0.66357,52.25158],[-0.6638,52.25154],[-0.66381,52.25158],[-0.66392,52.25156],[-0.66386,52.25142],[-0.66395,52.25141],[-0.664,52.25154],[-0.66405,52.25153],[-0.6641,52.25165],[-0.66363,52.25172]]]]}},
{ "type":"Feature","properties":{"osm_way_id":"703422878","building":"warehouse"},"geometry":{"type":"MultiPolygon","coordinates":[[[[-0.66589,52.25147],[-0.66596,52.25165],[-0.66632,52.25159],[-0.66625,52.25141],[-0.66589,52.25147]]]]}},
{ "type":"Feature","properties":{"osm_way_id":"703422879","building":"warehouse"},"geometry":{"type":"MultiPolygon","coordinates":[[[[-0.66653,52.2527],[-0.66614,52.25276],[-0.66591,52.25214],[-0.66549,52.2522],[-0.6658,52.25304],[-0.66661,52.25293],[-0.66653,52.2527]]]]}},
{ "type":"Feature","properties":{"osm_way_id":"703422880","building":"warehouse"},"geometry":{"type":"MultiPolygon","coordinates":[[[[-0.66491,52.25212],[-0.6647,52.25214],[-0.66461,52.25188],[-0.66483,52.25185],[-0.66491,52.25212]]]]}},
{ "type":"Feature","properties":{"osm_way_id":"703422881","building":"warehouse"},"geometry":{"type":"MultiPolygon","coordinates":[[[[-0.66726,52.25203],[-0.66696,52.25207],[-0.66691,52.25192],[-0.66721,52.25188],[-0.66726,52.25203]]]]}},
{ "type":"Feature","properties":{"osm_way_id":"703422882","building":"warehouse"},"geometry":{"type":"MultiPolygon","coordinates":[[[[-0.66467,52.25131],[-0.66469,52.25144],[-0.66438,52.25147],[-0.66424,52.25148],[-0.66421,52.25135],[-0.66467,52.25131]]]]}},
{ "type":"Feature","properties":{"osm_way_id":"703422883","building":"warehouse"},"geometry":{"type":"MultiPolygon","coordinates":[[[[-0.66585,52.25206],[-0.66543,52.25213],[-0.66519,52.25156],[-0.66561,52.25149],[-0.66585,52.25206]]]]}},
{ "type":"Feature","properties":{"osm_way_id":"703422884","building":"warehouse"},"geometry":{"type":"MultiPolygon","coordinates":[[[[-0.66374,52.25116],[-0.66379,52.25137],[-0.66353,52.2514],[-0.66348,52.25118],[-0.66374,52.25116]]]]}},
{ "type":"Feature","properties":{"osm_way_id":"703422885","building":"warehouse"},"geometry":{"type":"MultiPolygon","coordinates":[[[[-0.66618,52.25183],[-0.66624,52.25201],[-0.66658,52.25196],[-0.66652,52.25178],[-0.66618,52.25183]]]]}},
{ "type":"Feature","properties":{"osm_way_id":"703422886","building":"warehouse"},"geometry":{"type":"MultiPolygon","coordinates":[[[[-0.66754,52.25241],[-0.66679,52.25246],[-0.66673,52.25218],[-0.66714,52.25215],[-0.66715,52.25221],[-0.66732,52.2522],[-0.66733,52.25227],[-0.66741,52.25226],[-0.66743,52.25235],[-0.66753,52.25234],[-0.66754,52.25241]]]]}},
{ "type":"Feature","properties":{"osm_way_id":"703422887","building":"warehouse"},"geometry":{"type":"MultiPolygon","coordinates":[[[[-0.66454,52.25237],[-0.66465,52.25282],[-0.66399,52.25288],[-0.66388,52.25243],[-0.66454,52.25237]]]]}},
{ "type":"Feature","properties":{"osm_way_id":"703422888","building":"warehouse"},"geometry":{"type":"MultiPolygon","coordinates":[[[[-0.66436,52.2518],[-0.66444,52.25213],[-0.66379,52.25221],[-0.66369,52.25187],[-0.66436,52.2518]]]]}},
{ "type":"Feature","properties":{"osm_way_id":"703422889","building":"warehouse"},"geometry":{"type":"MultiPolygon","coordinates":[[[[-0.66526,52.25187],[-0.66503,52.2519],[-0.66512,52.25218],[-0.66535,52.25215],[-0.66526,52.25187]]]]}},
{ "type":"Feature","properties":{"osm_way_id":"703422890","building":"warehouse"},"geometry":{"type":"MultiPolygon","coordinates":[[[[-0.66679,52.25291],[-0.66788,52.25295],[-0.66788,52.25286],[-0.66779,52.25286],[-0.6678,52.25268],[-0.66733,52.25267],[-0.66734,52.25263],[-0.66718,52.25263],[-0.66718,52.25267],[-0.66681,52.25266],[-0.66679,52.25291]]]]}},
{ "type":"Feature","properties":{"osm_way_id":"710001093","building":"warehouse"},"geometry":{"type":"MultiPolygon","coordinates":[[[[-0.74433,52.31053],[-0.74392,52.3105],[-0.74393,52.31043],[-0.74222,52.3103],[-0.74223,52.31025],[-0.74198,52.31024],[-0.74202,52.31004],[-0.74228,52.31006],[-0.74244,52.30921],[-0.74223,52.3092],[-0.74226,52.30903],[-0.74248,52.30905],[-0.7427,52.30792],[-0.74458,52.30806],[-0.74456,52.30817],[-0.74481,52.30819],[-0.74477,52.30838],[-0.74454,52.30836],[-0.7444,52.30907],[-0.7446,52.30908],[-0.74457,52.30923],[-0.74436,52.30922],[-0.74414,52.31037],[-0.74435,52.31039],[-0.74433,52.31053]]]]}},
{ "type":"Feature","properties":{"osm_way_id":"766670230","building":"warehouse"},"geometry":{"type":"MultiPolygon","coordinates":[[[[-0.75343,52.39005],[-0.75386,52.39022],[-0.75421,52.39037],[-0.75393,52.39063],[-0.75315,52.39031],[-0.75343,52.39005]]]]}},
{ "type":"Feature","properties":{"osm_way_id":"813207309","building":"warehouse"},"geometry":{"type":"MultiPolygon","coordinates":[[[[-0.59688,52.29538],[-0.59673,52.29519],[-0.59654,52.29525],[-0.59668,52.29543],[-0.59688,52.29538]]]]}},
{ "type":"Feature","properties":{"osm_way_id":"813393031","building":"warehouse"},"geometry":{"type":"MultiPolygon","coordinates":[[[[-0.59721,52.2931],[-0.59697,52.29277],[-0.59638,52.29297],[-0.5965,52.29308],[-0.59673,52.29301],[-0.59684,52.29314],[-0.59704,52.29307],[-0.59708,52.29306],[-0.59713,52.29312],[-0.59721,52.2931]]]]}},
{ "type":"Feature","properties":{"osm_way_id":"813393041","building":"warehouse"},"geometry":{"type":"MultiPolygon","coordinates":[[[[-0.59731,52.2943],[-0.59648,52.2946],[-0.59634,52.29448],[-0.59671,52.29434],[-0.59671,52.29436],[-0.59718,52.29418],[-0.59731,52.2943]]]]}},
{ "type":"Feature","properties":{"osm_way_id":"938059538","name":"Bunzl Woodway","building":"warehouse","other":{"addr:city":"Burton Latimer","addr:housename":"Bunzl Woodway","addr:postcode":"NN15 5ZS"}}, "geometry":{"type":"MultiPolygon","coordinates":[[[[-0.67733,52.3762],[-0.6757,52.37646],[-0.67505,52.37491],[-0.67633,52.37471],[-0.67627,52.37457],[-0.67679,52.37449],[-0.67694,52.37483],[-0.67676,52.37486],[-0.67733,52.3762]]]]}},
{ "type":"Feature","properties":{"osm_way_id":"943342144","name":"Europa Logistics","building":"warehouse"},"geometry":{"type":"MultiPolygon","coordinates":[[[[-0.66948,52.48087],[-0.66792,52.48185],[-0.66455,52.47988],[-0.66516,52.47949],[-0.66503,52.47941],[-0.66587,52.47888],[-0.66601,52.47896],[-0.66611,52.47889],[-0.66765,52.4798],[-0.66774,52.47974],[-0.66786,52.47981],[-0.66777,52.47986],[-0.66839,52.48023],[-0.66856,52.48011],[-0.6687,52.4802],[-0.66853,52.48031],[-0.66948,52.48087]]]]}},
{ "type":"Feature","properties":{"osm_way_id":"952782904","name":"Higgins","building":"warehouse","shop":"trade"},"geometry":{"type":"MultiPolygon","coordinates":[[[[-0.60297,52.32776],[-0.60305,52.32764],[-0.60313,52.32766],[-0.60326,52.32747],[-0.60318,52.32745],[-0.6032,52.32742],[-0.60223,52.32717],[-0.60211,52.32736],[-0.60246,52.32745],[-0.60235,52.32761],[-0.60297,52.32776]]]]}},
{ "type":"Feature","properties":{"osm_way_id":"1006496398","building":"warehouse"},"geometry":{"type":"MultiPolygon","coordinates":[[[[-0.73301,52.42077],[-0.73116,52.41968],[-0.73182,52.41926],[-0.73171,52.4192],[-0.73204,52.41899],[-0.73225,52.41911],[-0.73207,52.41922],[-0.73382,52.42026],[-0.73301,52.42077]]]]}}
]
}
