{
"type": "FeatureCollection",
"features": [
{ "type":"Feature","properties":{"osm_id":"2432134727","name":"Sainsbury's","other":{"addr:city":"Wigston","addr:country":"GB","addr:housenumber":"22","addr:postcode":"LE18 1AD","addr:street":"Bell Street","brand":"Sainsbury's","brand:wikidata":"Q152096","brand:wikipedia":"en:Sainsbury's","fhrs:authority":"Oadby and Wigston","fhrs:id":"17658","fhrs:local_authority_id":"06\/00018\/COMM","shop":"supermarket"}}, "geometry":{"type":"Point","coordinates":[-1.10454,52.58588 ]}},
{ "type":"Feature","properties":{"osm_id":"2698275264","name":"M&S Simply Food","other":{"addr:city":"Oadby","addr:country":"GB","addr:housenumber":"29","addr:postcode":"LE2 5BB","addr:street":"The Parade","brand":"M&S Simply Food","brand:wikidata":"Q714491","brand:wikipedia":"en:Marks & Spencer","fhrs:authority":"Oadby and Wigston","fhrs:id":"24212","fhrs:local_authority_id":"07520\/0027\/0\/000","operator":"Marks and Spencer plc","shop":"supermarket","source:addr":"FHRS Open Data","wheelchair":"yes"}}, "geometry":{"type":"Point","coordinates":[-1.08354,52.59935 ]}},
{ "type":"Feature","properties":{"osm_id":"2776779300","other":{"amenity":"bicycle_parking"}}, "geometry":{"type":"Point","coordinates":[-1.08024,52.59917 ]}},
{ "type":"Feature","properties":{"osm_way_id":"68830968","name":"Asda","building":"yes","shop":"supermarket","other":{"addr:city":"Oadby, Leicester","addr:country":"GB","addr:postcode":"LE2 4AH","addr:street":"Leicester Road","alt_name":"ASDA Oadby Superstore","brand":"Asda","brand:wikidata":"Q297410","brand:wikipedia":"en:Asda","contact:facebook":"https:\/\/www.facebook.com\/asda\/","contact:phone":"+44 116 271 8341","contact:twitter":"@asda","contact:website":"https:\/\/storelocator.asda.com\/east-midlands\/leicester\/leicester-road-oadby-frith","fhrs:authority":"Oadby and Wigston","fhrs:id":"13888","fhrs:local_authority_id":"04510\/2004\/2\/000","opening_hours":"Mo 07:00-24:00; Tu-Fr 00:00-24:00; Sa 00:00-22:00; Su 10:00-16:00","opening_hours:covid19":"Mo-Sa 08:00-22:00; Su 10:00-16:00","operator":"Asda Stores Ltd","source:postcode":"FHRS Open Data"}}, "geometry":{"type":"MultiPolygon","coordinates":[[[[-1.08613,52.60293],[-1.08617,52.60293],[-1.08651,52.60339],[-1.08628,52.60345],[-1.08646,52.60369],[-1.08612,52.60379],[-1.08622,52.60391],[-1.08557,52.60409],[-1.08539,52.60384],[-1.0852,52.60385],[-1.08525,52.60313],[-1.08589,52.60296],[-1.08594,52.60303],[-1.08614,52.60297],[-1.08613,52.60293]]]]}},
{ "type":"Feature","properties":{"osm_way_id":"88311687","name":"Tesco","building":"yes","shop":"supermarket","other":{"addr:city":"Wigston","addr:country":"GB","addr:postcode":"LE18 4SE","addr:street":"Blaby Road","brand":"Tesco","brand:wikidata":"Q487494","brand:wikipedia":"en:Tesco","fhrs:authority":"Oadby and Wigston","fhrs:id":"14956","fhrs:local_authority_id":"05\/00076\/COMM","layer":"-1","location":"surface","source:addr":"FHRS Open Data"}}, "geometry":{"type":"MultiPolygon","coordinates":[[[[-1.12683,52.58085],[-1.12687,52.58094],[-1.12723,52.58172],[-1.12702,52.58176],[-1.12702,52.58174],[-1.12651,52.58183],[-1.12662,52.58207],[-1.12638,52.58211],[-1.12628,52.5819],[-1.12615,52.58192],[-1.12577,52.5811],[-1.12647,52.58097],[-1.12644,52.58092],[-1.12683,52.58085]]]]}},
{ "type":"Feature","properties":{"osm_way_id":"212721023","name":"Sainsbury's","building":"supermarket","shop":"supermarket","other":{"addr:city":"Oadby","addr:country":"GB","addr:postcode":"LE2 4PE","addr:street":"Glen Road","alt_name":"Sainsbury's Glen Road Superstore","brand":"Sainsbury's","brand:wikidata":"Q152096","brand:wikipedia":"en:Sainsbury's","fhrs:authority":"Oadby and Wigston","fhrs:id":"8621","fhrs:local_authority_id":"03100\/2001\/2\/000","other_fhrs:id":"21644;17558"}}, "geometry":{"type":"MultiPolygon","coordinates":[[[[-1.06838,52.59158],[-1.06823,52.59165],[-1.06819,52.59163],[-1.06773,52.59183],[-1.06768,52.59178],[-1.06748,52.59187],[-1.06756,52.59195],[-1.06746,52.592],[-1.06755,52.59207],[-1.06762,52.59204],[-1.06768,52.59209],[-1.06778,52.59205],[-1.06811,52.59233],[-1.06808,52.59234],[-1.06813,52.59239],[-1.06814,52.59238],[-1.06824,52.59248],[-1.06844,52.59242],[-1.06843,52.5924],[-1.0688,52.59224],[-1.06878,52.59222],[-1.06883,52.5922],[-1.06887,52.59197],[-1.06838,52.59158]]]]}},
{ "type":"Feature","properties":{"osm_way_id":"232420309","name":"Lidl","building":"yes","shop":"supermarket","other":{"addr:city":"Oadby, Leicester","addr:country":"GB","addr:housenumber":"36","addr:postcode":"LE2 4LA","addr:street":"Harborough Road","brand":"Lidl","brand:wikidata":"Q151954","brand:wikipedia":"en:Lidl","fhrs:id":"1295819","old_name":"Waitrose Oadby","toilets":"yes","wheelchair":"yes"}}, "geometry":{"type":"MultiPolygon","coordinates":[[[[-1.08018,52.5998],[-1.07972,52.5996],[-1.0797,52.59957],[-1.0797,52.59954],[-1.07972,52.59951],[-1.07975,52.59949],[-1.07978,52.59949],[-1.07982,52.59948],[-1.07979,52.59945],[-1.08002,52.59927],[-1.08003,52.59924],[-1.08005,52.59919],[-1.08007,52.59917],[-1.0801,52.59915],[-1.08015,52.59915],[-1.08018,52.59915],[-1.08021,52.59917],[-1.08022,52.59919],[-1.08024,52.59917],[-1.08025,52.59916],[-1.08037,52.59922],[-1.08033,52.59925],[-1.08067,52.5994],[-1.08065,52.59943],[-1.08069,52.59946],[-1.08056,52.59956],[-1.08059,52.59957],[-1.08055,52.59961],[-1.08047,52.59956],[-1.08018,52.5998]]]]}},
{ "type":"Feature","properties":{"osm_way_id":"232436254","name":"ALDI","building":"yes","shop":"supermarket","other":{"addr:city":"Wigston","addr:country":"GB","addr:postcode":"LE18 1PA","addr:street":"Bull Head Street","brand":"ALDI","brand:wikidata":"Q41171672","brand:wikipedia":"en:Aldi","fhrs:authority":"Oadby and Wigston","fhrs:id":"4587","fhrs:local_authority_id":"01210\/2002\/2\/000"}}, "geometry":{"type":"MultiPolygon","coordinates":[[[[-1.10447,52.58462],[-1.10362,52.58454],[-1.10367,52.58429],[-1.10455,52.58438],[-1.10447,52.58462]]]]}},
{ "type":"Feature","properties":{"osm_way_id":"316795753","name":"The Co-operative Food","building":"yes","shop":"supermarket","other":{"addr:city":"Oadby","addr:country":"GB","addr:housenumber":"150","addr:postcode":"LE2 4NW","addr:street":"Uplands Road","fhrs:authority":"Oadby and Wigston","fhrs:id":"715493","fhrs:local_authority_id":"14\/00038\/COMM","opening_hours":"Mo-Su 07:00-22:00","operator":"Central England Co-operative Society"}}, "geometry":{"type":"MultiPolygon","coordinates":[[[[-1.06298,52.59938],[-1.06295,52.59956],[-1.06252,52.59953],[-1.06255,52.59935],[-1.06298,52.59938]]]]}},
{ "type":"Feature","properties":{"osm_way_id":"317110628","name":"The Co-operative Food","building":"yes","shop":"supermarket","other":{"addr:city":"Wigston","addr:country":"GB","addr:postcode":"LE18 2GL","addr:street":"Launceston Road","fhrs:authority":"Oadby and Wigston","fhrs:id":"468178","fhrs:local_authority_id":"12\/00006\/COMM","operator":"Central England Co-operative Society"}}, "geometry":{"type":"MultiPolygon","coordinates":[[[[-1.11048,52.57561],[-1.11018,52.57586],[-1.10991,52.57574],[-1.10994,52.57572],[-1.11,52.57566],[-1.11008,52.57569],[-1.11029,52.57552],[-1.11048,52.57561]]]]}},
{ "type":"Feature","properties":{"osm_way_id":"330644609","name":"The Co-operative Food","building":"yes","shop":"supermarket","other":{"addr:city":"Wigston","addr:country":"GB","addr:housenumber":"79","addr:postcode":"LE18 4PB","addr:street":"Blaby Road","fhrs:authority":"Oadby and Wigston","fhrs:id":"2224","fhrs:local_authority_id":"00740\/0079\/0\/000","opening_hours":"Mo-Sa 07:00-22:00; Su 08:00-21:00","operator":"Central England Co-operative Society","source:addr":"FHRS Open Data"}}, "geometry":{"type":"MultiPolygon","coordinates":[[[[-1.13284,52.57977],[-1.13245,52.57981],[-1.13238,52.57957],[-1.13251,52.57955],[-1.13277,52.57953],[-1.13284,52.57977]]]]}},
{ "type":"Feature","properties":{"osm_way_id":"645780388","name":"Lidl","building":"retail","shop":"supermarket","other":{"addr:city":"Wigston","addr:country":"GB","addr:postcode":"LE18 4SE","addr:street":"Blaby Road","branch":"South Wigston","brand":"Lidl","brand:wikidata":"Q151954","brand:wikipedia":"en:Lidl","building:levels":"1","fhrs:authority":"Oadby and Wigston","fhrs:id":"1078950","fhrs:local_authority_id":"18\/00044\/COMM","nohousenumber":"yes","opening_hours":"Mo-Sa 08:00-22:00; Su 10:00-16:00","operator":"Lidl"}}, "geometry":{"type":"MultiPolygon","coordinates":[[[[-1.12477,52.58229],[-1.12509,52.58206],[-1.12514,52.58202],[-1.1244,52.58163],[-1.12435,52.5816],[-1.12403,52.58183],[-1.12467,52.58217],[-1.12462,52.58221],[-1.12477,52.58229]]]]}}
]
}
