{
"type": "FeatureCollection",
"features": [
{ "type":"Feature","properties":{"osm_id":"307737425","name":"Co-op","other":{"shop":"supermarket"}}, "geometry":{"type":"Point","coordinates":[-0.61539,51.48258 ]}},
{ "type":"Feature","properties":{"osm_id":"324160498","name":"Scoop Wholefoods","other":{"addr:city":"Shetland","addr:housenumber":"26","addr:postcode":"ZE1 0PE","addr:street":"North Road","fhrs:id":"391175","organic":"only","shop":"supermarket","website":"https:\/\/www.scoopwholefoods.co.uk\/"}}, "geometry":{"type":"Point","coordinates":[-1.15529,60.15844 ]}},
{ "type":"Feature","properties":{"osm_id":"374248799","name":"Budgens","other":{"addr:housenumber":"9-13","addr:postcode":"SL6 5AG","addr:street":"Highway Avenue","brand":"Budgens","brand:wikidata":"Q4985016","fhrs:id":"544162","shop":"supermarket","source:addr":"FHRS Open Data"}}, "geometry":{"type":"Point","coordinates":[-0.75505,51.51998 ]}},
{ "type":"Feature","properties":{"osm_id":"420333493","name":"Countrystore","other":{"addr:city":"Cookham Rise","addr:postcode":"SL6 9BT","addr:street":"Station Hill","opening_hours":"Mo-Fr 06:00-22:00; Sa,Su 07:00-21:00","phone":"+44 1628 522161","shop":"supermarket","website":"http:\/\/www.cstore.co.uk\/"}}, "geometry":{"type":"Point","coordinates":[-0.72165,51.55768 ]}},
{ "type":"Feature","properties":{"osm_id":"445515344","name":"Co-op Food","other":{"addr:housenumber":"1-7","addr:postcode":"SL6 7UA","addr:street":"Shifford Crescent","brand":"Co-op Food","brand:wikidata":"Q3277439","brand:wikipedia":"en:Co-op Food","fhrs:id":"543691","shop":"supermarket","source:addr":"FHRS Open Data"}}, "geometry":{"type":"Point","coordinates":[-0.73121,51.53891 ]}},
{ "type":"Feature","properties":{"osm_id":"462147145","name":"Sainsbury's","other":{"addr:housename":"Providence House","addr:postcode":"SL6 8AG","addr:street":"Providence Place","brand":"Sainsbury's","brand:wikidata":"Q152096","fhrs:id":"544317","shop":"supermarket","source:addr":"FHRS Open Data","wheelchair":"yes"}}, "geometry":{"type":"Point","coordinates":[-0.71853,51.52432 ]}},
{ "type":"Feature","properties":{"osm_id":"2324283530","name":"Iceland","other":{"addr:housenumber":"42-44","addr:postcode":"SL6 1LL","addr:street":"Nicholsons Walk","brand":"Iceland","brand:wikidata":"Q721810","fhrs:id":"544272","shop":"supermarket","source:addr":"FHRS Open Data"}}, "geometry":{"type":"Point","coordinates":[-0.72109,51.52198 ]}},
{ "type":"Feature","properties":{"osm_id":"2667896910","name":"Jessica's Food & Wine","other":{"opening_hours":"7am - 11pm","payment:cash":"yes","payment:coins":"yes","payment:credit_cards":"yes","shop":"supermarket"}}, "geometry":{"type":"Point","coordinates":[-0.62916,51.4796 ]}},
{ "type":"Feature","properties":{"osm_id":"3047982496","name":"Lidl","other":{"addr:country":"GB","addr:postcode":"SL6 1AB","addr:street":"Stafferton Way","brand":"Lidl","brand:wikidata":"Q151954","fhrs:id":"715955","shop":"supermarket"}}, "geometry":{"type":"Point","coordinates":[-0.71545,51.51785 ]}},
{ "type":"Feature","properties":{"osm_id":"9556168336","name":"Budget Superstore","other":{"shop":"supermarket"}}, "geometry":{"type":"Point","coordinates":[-0.579,51.45757 ]}},
{ "type":"Feature","properties":{"osm_way_id":"25002300","name":"Waitrose & Partners","building":"retail","shop":"supermarket","other":{"addr:housenumber":"48","addr:postcode":"SL6 8AF","addr:street":"Moorbridge Road","brand":"Waitrose & Partners","brand:wikidata":"Q771734","brand:wikipedia":"en:Waitrose & Partners","building:levels":"3","fhrs:id":"544268","opening_hours":"Mo-Fr 07:30-21:00; Sa 07:30-20:00; Su 10:00-16:00","operator":"Waitrose & Partners","roof:levels":"0","roof:shape":"hipped","source:addr":"FHRS Open Data","toilets:wheelchair":"yes","wheelchair":"yes"}}, "geometry":{"type":"MultiPolygon","coordinates":[[[[-0.71497,51.52334],[-0.71414,51.5234],[-0.71407,51.52312],[-0.714,51.52312],[-0.71398,51.52309],[-0.71389,51.5231],[-0.71387,51.52301],[-0.71481,51.52294],[-0.71482,51.52297],[-0.71482,51.523],[-0.71499,51.52299],[-0.71505,51.52327],[-0.71497,51.52334]]]]}},
{ "type":"Feature","properties":{"osm_way_id":"115982190","name":"Tesco","building":"commercial","shop":"supermarket","other":{"air_conditioning":"yes","brand":"Tesco","brand:wikidata":"Q487494","brand:wikipedia":"en:Tesco","building:levels":"1","roof:height":"3","wheelchair":"yes"}}, "geometry":{"type":"MultiPolygon","coordinates":[[[[-0.64942,51.47816],[-0.64949,51.4779],[-0.64942,51.47789],[-0.64949,51.47765],[-0.64948,51.47765],[-0.6495,51.47755],[-0.6489,51.47749],[-0.64892,51.47744],[-0.6487,51.47742],[-0.64868,51.47749],[-0.64854,51.47748],[-0.64852,51.47754],[-0.64839,51.47753],[-0.64836,51.47765],[-0.64843,51.47766],[-0.64847,51.47764],[-0.64858,51.47772],[-0.64848,51.47805],[-0.64942,51.47816]]]]}},
{ "type":"Feature","properties":{"osm_way_id":"160131274","name":"Waitrose","building":"retail","shop":"supermarket","other":{"addr:city":"Sunningdale","addr:postcode":"SL5 0HD","addr:street":"London Road","alt_name":"Waitrose Sunningdale","brand":"Waitrose & Partners","brand:wikidata":"Q771734","brand:wikipedia":"en:Waitrose & Partners","fhrs:id":"544228","opening_hours":"Mo-Fr 07:30-21:00; Sa 07:30-20:00; Sa 10:00-16:00","operator":"Waitrose & Partners","phone":"+44 1344 872770","website":"https:\/\/www.waitrose.com\/sunningdale"}}, "geometry":{"type":"MultiPolygon","coordinates":[[[[-0.63359,51.39189],[-0.63325,51.39164],[-0.6333,51.39158],[-0.63375,51.39132],[-0.63407,51.39155],[-0.63398,51.3916],[-0.63405,51.39165],[-0.63359,51.39189]]]]}},
{ "type":"Feature","properties":{"osm_way_id":"170606569","name":"Windsor Farm Shop","building":"yes","shop":"supermarket","other":{"addr:postcode":"SL4 2RQ","addr:street":"Datchet Road","website":"https:\/\/www.windsorfarmshop.co.uk\/"}}, "geometry":{"type":"MultiPolygon","coordinates":[[[[-0.58866,51.46786],[-0.58855,51.4677],[-0.58823,51.46779],[-0.58834,51.46794],[-0.58866,51.46786]]]]}},
{ "type":"Feature","properties":{"osm_way_id":"223197451","name":"Waitrose","building":"retail","shop":"supermarket","other":{"addr:city":"Windsor","addr:housenumber":"37","addr:postcode":"SL4 1TG","addr:street":"King Edward Court","alt_name":"Waitrose Windsor","brand":"Waitrose","brand:wikidata":"Q771734","brand:wikipedia":"en:Waitrose & Partners","building:levels":"2","building:material":"glass","layer":"-1","official_name":"Waitrose & Partners","opening_hours":"Mo-Fr 08:00-21:00; Sa 08:00-20:00; Su 11:00-17:00","operator":"Waitrose & Partners","phone":"+44 1753 860565","roof:colour":"grey","roof:shape":"flat","source:addr":"FHRS Open Data","source:building":"Bing","website":"waitrose.com\/windsor","wheelchair":"yes"}}, "geometry":{"type":"MultiPolygon","coordinates":[[[[-0.61102,51.48219],[-0.61092,51.48218],[-0.61092,51.48225],[-0.61078,51.48224],[-0.61072,51.48226],[-0.61059,51.48241],[-0.61053,51.48269],[-0.6106,51.48274],[-0.61115,51.48279],[-0.61129,51.4828],[-0.61132,51.4828],[-0.6114,51.48245],[-0.61137,51.4824],[-0.61135,51.48234],[-0.61131,51.48232],[-0.61112,51.48221],[-0.61115,51.48217],[-0.61111,51.48214],[-0.61102,51.48219]]]]}},
{ "type":"Feature","properties":{"osm_way_id":"278548249","name":"Tesco Express","building":"yes","shop":"supermarket","other":{"addr:housenumber":"134","addr:postcode":"SL3 9HW","addr:street":"Horton Road","alt_name":"Tesco Datchet Express","brand":"Tesco Express","brand:wikidata":"Q98456772"}}, "geometry":{"type":"MultiPolygon","coordinates":[[[[-0.56947,51.48127],[-0.56939,51.48124],[-0.56941,51.48121],[-0.56926,51.48117],[-0.56923,51.48121],[-0.56912,51.48124],[-0.56918,51.48132],[-0.5692,51.48135],[-0.56924,51.48136],[-0.56928,51.48137],[-0.56938,51.48135],[-0.56942,51.48136],[-0.56947,51.48127]]]]}},
{ "type":"Feature","properties":{"osm_way_id":"840604603","name":"Co-op Food","building":"yes","shop":"supermarket","other":{"brand":"Co-op Food","brand:wikidata":"Q3277439","brand:wikipedia":"en:Co-op Food"}}, "geometry":{"type":"MultiPolygon","coordinates":[[[[-0.63491,51.47887],[-0.63474,51.47889],[-0.63483,51.47918],[-0.635,51.47916],[-0.63491,51.47887]]]]}}
]
}
