{
"type": "FeatureCollection",
"features": [
{ "type":"Feature","properties":{"osm_way_id":"94817174","name":"Carlsberg Tetley Distribution Centre","building":"warehouse","other":{"addr:city":"Northampton","addr:country":"GB","addr:place":"Swan Valley","addr:postcode":"NN4 9BA","addr:street":"Tithe Barn Way","fhrs:authority":"Northampton","fhrs:id":"782735","fhrs:local_authority_id":"PI\/000083750"}}, "geometry":{"type":"MultiPolygon","coordinates":[[[[-0.95505,52.21377],[-0.95829,52.21521],[-0.95742,52.21594],[-0.95661,52.21557],[-0.95641,52.21573],[-0.95467,52.21495],[-0.95486,52.21478],[-0.9542,52.21449],[-0.95505,52.21377]]]]}},
{ "type":"Feature","properties":{"osm_way_id":"94817359","name":"Howdens Joinery Limited, Northampton Distribution Centre","building":"warehouse","other":{"addr:city":"Northampton","addr:country":"GB","addr:place":"Brackmills","addr:postcode":"NN4 7DT","addr:street":"Liliput Road","fhrs:authority":"Northampton","fhrs:id":"181206","fhrs:local_authority_id":"PI\/000069128"}}, "geometry":{"type":"MultiPolygon","coordinates":[[[[-0.85663,52.22683],[-0.86149,52.22627],[-0.86084,52.22414],[-0.86049,52.22418],[-0.86045,52.22403],[-0.85991,52.2241],[-0.85986,52.22394],[-0.85588,52.2244],[-0.85663,52.22683]]]]}},
{ "type":"Feature","properties":{"osm_way_id":"95565514","name":"Ford Parts Distribution Centre","building":"yes","other":{"addr:city":"Daventry","addr:country":"GB","addr:postcode":"NN11 8NT","addr:street":"Royal Oak Way South"}}, "geometry":{"type":"MultiPolygon","coordinates":[[[[-1.18315,52.2579],[-1.18656,52.25727],[-1.18911,52.26252],[-1.18826,52.26268],[-1.18832,52.26278],[-1.18783,52.26287],[-1.18777,52.26277],[-1.18652,52.263],[-1.18692,52.26379],[-1.18609,52.26395],[-1.18497,52.26164],[-1.18389,52.26183],[-1.18372,52.26149],[-1.1848,52.26129],[-1.18315,52.2579]]]]}},
{ "type":"Feature","properties":{"osm_way_id":"108858851","name":"John Lewis Distribution Centre","building":"warehouse","other":{"addr:city":"Northampton","addr:country":"GB","addr:housenumber":"2","addr:postcode":"NN4 7PN","addr:street":"Mercury Drive","fhrs:authority":"Northampton","fhrs:id":"173134","fhrs:local_authority_id":"PI\/000025027"}}, "geometry":{"type":"MultiPolygon","coordinates":[[[[-0.87097,52.22195],[-0.87009,52.2217],[-0.87093,52.2206],[-0.87181,52.22086],[-0.87177,52.2209],[-0.87427,52.22162],[-0.87345,52.22269],[-0.87137,52.2221],[-0.87191,52.2214],[-0.87149,52.22128],[-0.87097,52.22195]]]]}},
{ "type":"Feature","properties":{"osm_way_id":"108858901","name":"Western Power Distribution","building":"yes"},"geometry":{"type":"MultiPolygon","coordinates":[[[[-0.8642,52.22101],[-0.86323,52.22072],[-0.86348,52.22039],[-0.86419,52.2206],[-0.8643,52.22045],[-0.86457,52.22053],[-0.8642,52.22101]]]]}},
{ "type":"Feature","properties":{"osm_way_id":"197941576","name":"Sainsburys Distribution Centre","building":"warehouse","other":{"addr:city":"Northampton","addr:country":"GB","addr:place":"Swan Valley","addr:postcode":"NN4 9BX","addr:street":"Nectar Way","fhrs:authority":"Northampton","fhrs:id":"932598","fhrs:local_authority_id":"PI\/000083969"}}, "geometry":{"type":"MultiPolygon","coordinates":[[[[-0.96257,52.21923],[-0.96354,52.22014],[-0.96372,52.22007],[-0.96387,52.22021],[-0.96369,52.22028],[-0.96438,52.22092],[-0.96456,52.22085],[-0.96471,52.221],[-0.96475,52.22098],[-0.96561,52.22179],[-0.96538,52.22188],[-0.96542,52.22191],[-0.96375,52.22258],[-0.96242,52.22132],[-0.96228,52.22138],[-0.96209,52.22121],[-0.96224,52.22115],[-0.96165,52.2206],[-0.96104,52.22085],[-0.96086,52.22067],[-0.96147,52.22043],[-0.9609,52.2199],[-0.96257,52.21923]]]]}},
{ "type":"Feature","properties":{"osm_way_id":"238820804","name":"Tesco Grocery (Storage & Distribution warehouse)","building":"industrial","other":{"addr:postcode":"CV23 8YH"}}, "geometry":{"type":"MultiPolygon","coordinates":[[[[-1.17819,52.3535],[-1.17462,52.35226],[-1.17456,52.35224],[-1.17295,52.35168],[-1.17425,52.35028],[-1.17617,52.35094],[-1.17634,52.35075],[-1.17666,52.35086],[-1.17647,52.35107],[-1.17948,52.35211],[-1.17819,52.3535]]]]}},
{ "type":"Feature","properties":{"osm_way_id":"280532063","name":"99 Stores Distribution Centre","building":"commercial"},"geometry":{"type":"MultiPolygon","coordinates":[[[[-1.18326,52.27628],[-1.18211,52.27595],[-1.18314,52.27463],[-1.18429,52.27497],[-1.18326,52.27628]]]]}},
{ "type":"Feature","properties":{"osm_way_id":"280532311","name":"Weatherspoon Distribution Centre","building":"commercial"},"geometry":{"type":"MultiPolygon","coordinates":[[[[-1.18095,52.27846],[-1.18227,52.27726],[-1.18109,52.27677],[-1.18004,52.27773],[-1.17985,52.27765],[-1.17958,52.2779],[-1.18095,52.27846]]]]}},
{ "type":"Feature","properties":{"osm_way_id":"498952601","name":"DMP Sales & Distribution","building":"yes"},"geometry":{"type":"MultiPolygon","coordinates":[[[[-1.18588,52.26863],[-1.18534,52.26866],[-1.18529,52.26834],[-1.18583,52.2683],[-1.18588,52.26863]]]]}},
{ "type":"Feature","properties":{"osm_way_id":"617667791","name":"Costco Distribution Centre","landuse":"industrial","other":{"industrial":"distributor"}}, "geometry":{"type":"MultiPolygon","coordinates":[[[[-1.13988,52.35157],[-1.13965,52.35171],[-1.14027,52.3533],[-1.14066,52.35324],[-1.14177,52.35607],[-1.14413,52.35572],[-1.14446,52.35568],[-1.14434,52.35538],[-1.14561,52.35519],[-1.14481,52.35313],[-1.14497,52.35295],[-1.14503,52.35269],[-1.14468,52.3518],[-1.14456,52.35182],[-1.14422,52.35096],[-1.14286,52.35118],[-1.14252,52.35119],[-1.13988,52.35157]]]]}}
]
}
