{
"type": "FeatureCollection",
"features": [
{ "type":"Feature","properties":{"osm_id":"355416895","name":"Smithfield Car Park","other":{"amenity":"parking"}}, "geometry":{"type":"Point","coordinates":[-0.10131,51.51867 ]}},
{ "type":"Feature","properties":{"osm_id":"368044118","name":"Baynard House Car Park","other":{"amenity":"parking","capacity":"233","capacity:disabled":"5","covered":"yes","fee":"yes","maxheight":"1.85","operator":"City of London Corporation","website":"https:\/\/www.cityoflondon.gov.uk\/services\/transport-and-streets\/parking\/where-to-park\/car-parks\/Pages\/Baynard-House-car-park.aspx"}}, "geometry":{"type":"Point","coordinates":[-0.1001,51.51185 ]}},
{ "type":"Feature","properties":{"osm_id":"688688992","name":"Brasserie Blanc","other":{"addr:city":"London","addr:housenumber":"14","addr:postcode":"EC3N 4AA","addr:street":"Trinity Square","amenity":"restaurant","cuisine":"french","fhrs:id":"409475","opening_hours":"Mo-Fr 12:00-22:00,09:00-18:00; Sa 12:00-21:00","phone":"+44 20 7480 5500","website":"https:\/\/brasserieblanc.com\/"}}, "geometry":{"type":"Point","coordinates":[-0.07838,51.50976 ]}},
{ "type":"Feature","properties":{"osm_id":"710656926","name":"Smithfield Car Park","other":{"amenity":"parking","level":"-1","parking":"underground"}}, "geometry":{"type":"Point","coordinates":[-0.10096,51.51872 ]}},
{ "type":"Feature","properties":{"osm_id":"761831040","name":"Bouverie Street Car Park","ref":"2858","other":{"amenity":"parking","operator":"Mid-Park","staffed":"yes"}}, "geometry":{"type":"Point","coordinates":[-0.10812,51.51301 ]}},
{ "type":"Feature","properties":{"osm_id":"1203623751","name":"Tower Hill Car & Coach Park","other":{"addr:city":"London","addr:housenumber":"50","addr:postcode":"EC3R 6DT","addr:street":"Lower Thames Street","amenity":"parking","capacity":"110","capacity:coach":"16","capacity:disabled":"13","covered":"yes","fee":"yes","parking":"multi-storey","website":"https:\/\/www.cityoflondon.gov.uk\/services\/transport-and-streets\/parking\/where-to-park\/car-parks\/Pages\/Tower-Hill-car-and-coach-park.aspx"}}, "geometry":{"type":"Point","coordinates":[-0.08011,51.50883 ]}},
{ "type":"Feature","properties":{"osm_id":"1233353613","other":{"traffic_calming":"hump"}}, "geometry":{"type":"Point","coordinates":[-0.07451,51.51219 ]}},
{ "type":"Feature","properties":{"osm_id":"1590148307","name":"Minories Car Park","other":{"addr:city":"London","addr:housenumber":"1","addr:street":"Shorter Street","amenity":"parking","capacity":"401","capacity:disabled":"5","covered":"yes","fee":"yes","operator":"City of London Corporation","parking":"multi-storey","website":"https:\/\/www.cityoflondon.gov.uk\/services\/transport-and-streets\/parking\/where-to-park\/car-parks\/Pages\/Minories-car-park.aspx"}}, "geometry":{"type":"Point","coordinates":[-0.07316,51.51031 ]}},
{ "type":"Feature","properties":{"osm_id":"1723388900","name":"Barbican Centre","other":{"amenity":"parking","fee":"yes","level":"0"}}, "geometry":{"type":"Point","coordinates":[-0.09387,51.5206 ]}},
{ "type":"Feature","properties":{"osm_id":"1853439290","other":{"railway":"switch"}}, "geometry":{"type":"Point","coordinates":[-1.15388,53.51149 ]}},
{ "type":"Feature","properties":{"osm_id":"1853439295","other":{"railway":"switch"}}, "geometry":{"type":"Point","coordinates":[-1.15554,53.51064 ]}},
{ "type":"Feature","properties":{"osm_id":"1990694632","name":"Vintry (Thames Exchange)","other":{"addr:city":"London","addr:postcode":"EC4R 3TB","addr:street":"Bell Wharf Lane","amenity":"parking","capacity":"466","layer":"-1","operator":"NCP","parking":"underground"}}, "geometry":{"type":"Point","coordinates":[-0.09269,51.5102 ]}},
{ "type":"Feature","properties":{"osm_id":"2135411292","other":{"access":"yes","amenity":"parking","fee":"yes","layer":"-1","operator":"NCP","parking":"underground"}}, "geometry":{"type":"Point","coordinates":[-0.09739,51.51845 ]}},
{ "type":"Feature","properties":{"osm_id":"2502516624","other":{"addr:housenumber":"23","addr:street":"London Wall","amenity":"parking","capacity:disabled":"6","capacity:motorcycle":"128","fee":"yes","layer":"-1","parking":"underground","website":"https:\/\/www.cityoflondon.gov.uk\/services\/transport-and-streets\/parking\/where-to-park\/car-parks\/Pages\/London-Wall-car-park.aspx"}}, "geometry":{"type":"Point","coordinates":[-0.09539,51.51749 ]}},
{ "type":"Feature","properties":{"osm_id":"5768339778","other":{"amenity":"parking"}}, "geometry":{"type":"Point","coordinates":[-0.0772,51.51593 ]}},
{ "type":"Feature","properties":{"osm_id":"5925628364","highway":"crossing","other":{"crossing":"traffic_signals","crossing_ref":"pelican"}}, "geometry":{"type":"Point","coordinates":[-0.07936,51.51901 ]}},
{ "type":"Feature","properties":{"osm_id":"5929540797","name":"Liverpool Street Station","other":{"bus":"yes","public_transport":"stop_position"}}, "geometry":{"type":"Point","coordinates":[-0.07934,51.51906 ]}},
{ "type":"Feature","properties":{"osm_id":"8238436191","other":{"amenity":"parking"}}, "geometry":{"type":"Point","coordinates":[-1.57557,54.62705 ]}},
{ "type":"Feature","properties":{"osm_way_id":"60856565","amenity":"parking","other":{"access":"private","parking":"surface","surface":"asphalt"}}, "geometry":{"type":"MultiPolygon","coordinates":[[[[-0.10917,51.51218],[-0.10878,51.51216],[-0.10875,51.51256],[-0.10876,51.51305],[-0.10924,51.51304],[-0.10922,51.51296],[-0.1092,51.51283],[-0.1092,51.51271],[-0.1092,51.51264],[-0.1092,51.51262],[-0.10924,51.51252],[-0.10926,51.51249],[-0.10917,51.51218]]]]}},
{ "type":"Feature","properties":{"osm_way_id":"65086093","name":"Crescent","amenity":"parking","other":{"access":"permissive"}}, "geometry":{"type":"MultiPolygon","coordinates":[[[[-0.07556,51.51052],[-0.07552,51.51035],[-0.07563,51.51034],[-0.07569,51.51034],[-0.07574,51.51035],[-0.07579,51.51037],[-0.07583,51.5104],[-0.07587,51.51044],[-0.07589,51.51048],[-0.07591,51.51053],[-0.0759,51.51059],[-0.07586,51.51063],[-0.07581,51.51067],[-0.07571,51.5107],[-0.0756,51.51072],[-0.07556,51.51052]]]]}},
{ "type":"Feature","properties":{"osm_way_id":"107278851","amenity":"parking","other":{"access":"private","parking":"surface"}}, "geometry":{"type":"MultiPolygon","coordinates":[[[[-0.07515,51.51225],[-0.07509,51.51204],[-0.07498,51.51205],[-0.07485,51.51207],[-0.0747,51.51208],[-0.07471,51.51214],[-0.07473,51.51214],[-0.07476,51.51228],[-0.07515,51.51225]]]]}},
{ "type":"Feature","properties":{"osm_way_id":"107278859","amenity":"parking","other":{"layer":"1"}}, "geometry":{"type":"MultiPolygon","coordinates":[[[[-0.07413,51.51263],[-0.07421,51.51262],[-0.07453,51.51259],[-0.07449,51.51246],[-0.07461,51.51244],[-0.07463,51.51244],[-0.07456,51.51219],[-0.07451,51.51219],[-0.07446,51.5122],[-0.07447,51.51224],[-0.07449,51.51231],[-0.07449,51.51233],[-0.07445,51.51233],[-0.07436,51.51235],[-0.07431,51.51235],[-0.07406,51.51238],[-0.07413,51.51263]]]]}},
{ "type":"Feature","properties":{"osm_way_id":"107756300","amenity":"parking"},"geometry":{"type":"MultiPolygon","coordinates":[[[[-0.07417,51.5137],[-0.07412,51.51371],[-0.07415,51.51375],[-0.07421,51.51382],[-0.07433,51.51379],[-0.07424,51.51369],[-0.07417,51.5137]]]]}},
{ "type":"Feature","properties":{"osm_way_id":"114082278","amenity":"parking"},"geometry":{"type":"MultiPolygon","coordinates":[[[[-0.08506,51.51555],[-0.08496,51.51554],[-0.0849,51.51566],[-0.08506,51.51569],[-0.08512,51.51557],[-0.08506,51.51555]]]]}},
{ "type":"Feature","properties":{"osm_way_id":"128459715","name":"Essex Court","amenity":"parking","other":{"parking":"surface"}}, "geometry":{"type":"MultiPolygon","coordinates":[[[[-0.11144,51.51305],[-0.11199,51.51293],[-0.1119,51.51282],[-0.11185,51.51274],[-0.11141,51.51284],[-0.11144,51.51305]]]]}},
{ "type":"Feature","properties":{"osm_way_id":"172306219","amenity":"parking","other":{"access":"private"}}, "geometry":{"type":"MultiPolygon","coordinates":[[[[-0.10669,51.51717],[-0.10671,51.51713],[-0.10672,51.51708],[-0.10669,51.51705],[-0.10656,51.51703],[-0.10652,51.51714],[-0.10669,51.51717]]]]}},
{ "type":"Feature","properties":{"osm_way_id":"172357798","amenity":"parking","other":{"access":"private"}}, "geometry":{"type":"MultiPolygon","coordinates":[[[[-0.11349,51.51782],[-0.11325,51.51791],[-0.11316,51.51791],[-0.11298,51.51792],[-0.11292,51.51786],[-0.11337,51.51769],[-0.11349,51.51782]]]]}},
{ "type":"Feature","properties":{"osm_way_id":"193099594","amenity":"parking","other":{"access":"private"}}, "geometry":{"type":"MultiPolygon","coordinates":[[[[-0.09596,51.52229],[-0.09564,51.52235],[-0.09548,51.52203],[-0.09555,51.52202],[-0.09552,51.52197],[-0.09567,51.52193],[-0.09576,51.5221],[-0.09585,51.52208],[-0.09596,51.52229]]]]}},
{ "type":"Feature","properties":{"osm_way_id":"230188925","amenity":"parking","other":{"access":"private","capacity":"6","parking":"surface"}}, "geometry":{"type":"MultiPolygon","coordinates":[[[[-0.09276,51.5126],[-0.09325,51.51249],[-0.09324,51.51247],[-0.09275,51.51258],[-0.09276,51.5126]]]]}},
{ "type":"Feature","properties":{"osm_way_id":"412951755","amenity":"parking"},"geometry":{"type":"MultiPolygon","coordinates":[[[[-0.10115,51.51718],[-0.10065,51.51691],[-0.10036,51.51691],[-0.10042,51.51682],[-0.10043,51.51668],[-0.10079,51.51666],[-0.10085,51.51666],[-0.10089,51.51666],[-0.10136,51.51677],[-0.10115,51.51718]]]]}},
{ "type":"Feature","properties":{"osm_way_id":"419452549","amenity":"parking"},"geometry":{"type":"MultiPolygon","coordinates":[[[[-0.09423,51.51814],[-0.09431,51.51816],[-0.09436,51.51817],[-0.09457,51.51785],[-0.09411,51.51773],[-0.09401,51.5177],[-0.09397,51.51779],[-0.09398,51.51784],[-0.09384,51.51806],[-0.0939,51.51807],[-0.09398,51.51809],[-0.09411,51.51785],[-0.09424,51.51788],[-0.09436,51.51791],[-0.09423,51.51814]]]]}},
{ "type":"Feature","properties":{"osm_way_id":"445073519","name":"Minories Car Park","amenity":"parking","building":"yes","other":{"parking":"multi-storey"}}, "geometry":{"type":"MultiPolygon","coordinates":[[[[-0.07389,51.51025],[-0.07387,51.51054],[-0.07299,51.51052],[-0.073,51.51023],[-0.07389,51.51025]]]]}},
{ "type":"Feature","properties":{"osm_way_id":"629773753","name":"Marlyn Lodge","amenity":"parking","other":{"access":"private","parking":"surface"}}, "geometry":{"type":"MultiPolygon","coordinates":[[[[-0.07361,51.51209],[-0.07355,51.51179],[-0.0738,51.51177],[-0.07385,51.51207],[-0.07361,51.51209]]]]}},
{ "type":"Feature","properties":{"osm_way_id":"778797458","amenity":"parking","other":{"motor_vehicle":"private"}}, "geometry":{"type":"MultiPolygon","coordinates":[[[[-0.10925,51.51365],[-0.10925,51.51367],[-0.10901,51.5137],[-0.10898,51.51359],[-0.10922,51.51356],[-0.10923,51.51359],[-0.10925,51.51365]]]]}},
{ "type":"Feature","properties":{"osm_way_id":"885990912","amenity":"parking"},"geometry":{"type":"MultiPolygon","coordinates":[[[[-1.57557,54.62709],[-1.57587,54.62709],[-1.57587,54.62689],[-1.57587,54.62678],[-1.57537,54.62677],[-1.57537,54.62683],[-1.57571,54.62684],[-1.57571,54.62704],[-1.57557,54.62705],[-1.57557,54.62709]]]]}},
{ "type":"Feature","properties":{"osm_way_id":"1019647764","amenity":"parking"},"geometry":{"type":"MultiPolygon","coordinates":[[[[-1.38745,53.0416],[-1.38745,53.04158],[-1.38746,53.04157],[-1.38748,53.04156],[-1.3875,53.04156],[-1.38753,53.04155],[-1.38755,53.04155],[-1.38783,53.04133],[-1.38779,53.04132],[-1.38779,53.04132],[-1.38757,53.04121],[-1.38753,53.04126],[-1.38749,53.04129],[-1.38745,53.04131],[-1.38746,53.04132],[-1.3876,53.04138],[-1.38739,53.04154],[-1.38737,53.04156],[-1.38745,53.0416]]]]}}
]
}
