{
"type": "FeatureCollection",
"features": [
{ "type":"Feature","properties":{"osm_id":"2758329166","name":"Meden Vale Convenience Store","other":{"addr:housenumber":"11","addr:street":"Ossington Close","shop":"supermarket"}}, "geometry":{"type":"Point","coordinates":[-1.13454,53.21997 ]}},
{ "type":"Feature","properties":{"osm_id":"6813085546","name":"Heron Foods","other":{"addr:city":"Mansfield","addr:country":"GB","addr:housenumber":"40","addr:postcode":"NG18 1RS","addr:street":"West Gate","brand":"Heron Foods","brand:wikidata":"Q5743472","brand:wikipedia":"en:Heron Foods","contact:website":"https:\/\/heronfoods.com\/storelocator\/store-details\/mansfield","fhrs:id":"223276","shop":"supermarket"}}, "geometry":{"type":"Point","coordinates":[-1.19802,53.14568 ]}},
{ "type":"Feature","properties":{"osm_id":"6855681976","name":"Nisa Extra","other":{"brand":"Nisa Extra","brand:wikidata":"Q16999069","brand:wikipedia":"en:Nisa (retailer)","shop":"supermarket"}}, "geometry":{"type":"Point","coordinates":[-1.1965,53.16422 ]}},
{ "type":"Feature","properties":{"osm_id":"8818300703","other":{"emergency":"defibrillator","indoor":"no"}}, "geometry":{"type":"Point","coordinates":[-1.0719,53.57723 ]}},
{ "type":"Feature","properties":{"osm_way_id":"116305949","name":"Sainsbury's","building":"retail","shop":"supermarket","other":{"brand":"Sainsbury's","brand:wikidata":"Q152096","brand:wikipedia":"en:Sainsbury's","building:levels":"1","nohousenumber":"yes","opening_hours":"Mo-Sa 07:00-22:30; Su 10:00-16:00","roof:levels":"1"}}, "geometry":{"type":"MultiPolygon","coordinates":[[[[-1.19815,53.13444],[-1.19818,53.13439],[-1.1975,53.13424],[-1.19763,53.13403],[-1.19786,53.13368],[-1.19831,53.13376],[-1.19856,53.13377],[-1.19954,53.13401],[-1.19942,53.13419],[-1.19911,53.13467],[-1.19847,53.13452],[-1.19815,53.13444]]]]}},
{ "type":"Feature","properties":{"osm_way_id":"116935727","name":"Tesco Extra","building":"yes","shop":"supermarket","other":{"brand":"Tesco Extra","brand:wikidata":"Q25172225","brand:wikipedia":"en:Tesco Extra","opening_hours":"Mo-Sa 00:00-24:00; Su 00:00-16:00","operator":"Tesco","toilets:wheelchair":"yes","website":"https:\/\/www.tesco.com\/store-locator\/mansfield\/jubilee-way-south","wheelchair":"yes"}}, "geometry":{"type":"MultiPolygon","coordinates":[[[[-1.15331,53.13483],[-1.15323,53.13472],[-1.15295,53.1343],[-1.15256,53.13374],[-1.15252,53.13367],[-1.15248,53.13368],[-1.15143,53.13394],[-1.15221,53.13508],[-1.15261,53.13498],[-1.15294,53.1349],[-1.15297,53.13495],[-1.15299,53.13495],[-1.15303,53.13494],[-1.15326,53.13488],[-1.15331,53.13483]]]]}},
{ "type":"Feature","properties":{"osm_way_id":"172990534","name":"Tesco Extra","building":"yes","shop":"supermarket","other":{"addr:city":"Mansfield","addr:postcode":"NG19 7TS","addr:street":"Chesterfield Road South","brand":"Tesco Extra","brand:wikidata":"Q25172225","brand:wikipedia":"en:Tesco Extra","contact:website":"https:\/\/www.tesco.com\/store-locator\/mansfield\/chesterfield-road-south","opening_hours":"Mo-Sa 06:00-24:00, Su 10:00-16:00","operator":"Tesco","phone":"+443456779451"}}, "geometry":{"type":"MultiPolygon","coordinates":[[[[-1.20235,53.15042],[-1.20264,53.15029],[-1.20277,53.1504],[-1.20301,53.1503],[-1.20288,53.15019],[-1.2038,53.14979],[-1.20376,53.14975],[-1.20346,53.14951],[-1.20339,53.14945],[-1.20335,53.14947],[-1.20304,53.14924],[-1.2018,53.14979],[-1.20167,53.14985],[-1.20235,53.15042]]]]}},
{ "type":"Feature","properties":{"osm_way_id":"245720683","name":"Morrisons","building":"yes","shop":"supermarket","other":{"brand":"Morrisons","brand:wikidata":"Q922344","brand:wikipedia":"en:Morrisons","website":"https:\/\/my.morrisons.com\/storefinder\/472"}}, "geometry":{"type":"MultiPolygon","coordinates":[[[[-1.191,53.16511],[-1.19122,53.16504],[-1.19133,53.16501],[-1.19158,53.16494],[-1.19164,53.16486],[-1.19165,53.16481],[-1.19126,53.16436],[-1.1908,53.16451],[-1.19053,53.16459],[-1.19087,53.16497],[-1.19089,53.16499],[-1.19092,53.16502],[-1.191,53.16511]]]]}},
{ "type":"Feature","properties":{"osm_way_id":"257356551","name":"Aldi","building":"yes","shop":"supermarket","other":{"addr:housename":"Aldi Supermarket","addr:postcode":"NG18 1BW","addr:street":"Nottingham Road","brand":"ALDI","brand:wikidata":"Q41171672","brand:wikipedia":"en:Aldi"}}, "geometry":{"type":"MultiPolygon","coordinates":[[[[-1.19978,53.13427],[-1.19946,53.13475],[-1.19916,53.13468],[-1.19911,53.13467],[-1.19942,53.13419],[-1.19978,53.13427]]]]}},
{ "type":"Feature","properties":{"osm_way_id":"261424929","name":"Asda","building":"retail","shop":"supermarket","other":{"addr:housenumber":"7","addr:postcode":"NG18 5LG","addr:street":"Bancroft Lane","brand":"Asda","brand:wikidata":"Q297410","brand:wikipedia":"en:Asda","contact:facebook":"https:\/\/www.facebook.com\/asda\/","contact:twitter":"@asda","contact:website":"https:\/\/storelocator.asda.com\/east-midlands\/mansfield\/7-bancroft-lane","fhrs:id":"223427","old_name":"Netto","operator":"Asda Stores Ltd","source:address":"FHRS Open Data","source:name":"OSM Note 118028"}}, "geometry":{"type":"MultiPolygon","coordinates":[[[[-1.20458,53.14289],[-1.20444,53.14272],[-1.20389,53.14287],[-1.20391,53.14289],[-1.20388,53.1429],[-1.20395,53.14299],[-1.20398,53.14298],[-1.20403,53.14304],[-1.20448,53.14292],[-1.20458,53.14289]]]]}},
{ "type":"Feature","properties":{"osm_way_id":"262127540","name":"Morrisons","building":"retail","shop":"supermarket","other":{"brand":"Morrisons","brand:wikidata":"Q922344","brand:wikipedia":"en:Morrisons","opening_hours":"Mo-Sa 07:00-22:00; Su 10:00-16:00"}}, "geometry":{"type":"MultiPolygon","coordinates":[[[[-1.23051,53.13584],[-1.23017,53.13523],[-1.22939,53.13538],[-1.22935,53.1353],[-1.22859,53.13546],[-1.22865,53.13555],[-1.22868,53.13562],[-1.22881,53.13584],[-1.2289,53.13582],[-1.22896,53.13593],[-1.22912,53.1359],[-1.22918,53.136],[-1.22923,53.13609],[-1.23051,53.13584]]]]}},
{ "type":"Feature","properties":{"osm_way_id":"733324130","name":"Aldi","building":"yes","shop":"supermarket","other":{"brand":"ALDI","brand:wikidata":"Q41171672","brand:wikipedia":"en:Aldi"}}, "geometry":{"type":"MultiPolygon","coordinates":[[[[-1.19141,53.15697],[-1.19089,53.15653],[-1.19126,53.15637],[-1.19178,53.15681],[-1.19141,53.15697]]]]}},
{ "type":"Feature","properties":{"osm_way_id":"793801247","name":"Asda","building":"supermarket","shop":"supermarket","other":{"addr:city":"Forest Town","addr:country":"GB","addr:postcode":"NG19 0HA","addr:street":"Old Mill Lane","brand":"Asda","brand:wikidata":"Q297410","brand:wikipedia":"en:Asda","contact:facebook":"https:\/\/www.facebook.com\/asda\/","contact:phone":"+44 1623 676700","contact:twitter":"@asda","contact:website":"https:\/\/storelocator.asda.com\/east-midlands\/mansfield\/old-mill-lane","fhrs:id":"223381","opening_hours:covid19":"Mo-Th,Sa 08:00-22:00; Fr 08:00-20:00; Su 10:00-16:00","operator":"Asda Stores Ltd"}}, "geometry":{"type":"MultiPolygon","coordinates":[[[[-1.16972,53.15616],[-1.16968,53.15622],[-1.16963,53.15621],[-1.16949,53.1564],[-1.16945,53.15639],[-1.16936,53.15652],[-1.1691,53.15688],[-1.16912,53.15688],[-1.16903,53.157],[-1.16951,53.15713],[-1.16941,53.15727],[-1.16993,53.1574],[-1.17003,53.15726],[-1.17032,53.15733],[-1.17074,53.15673],[-1.17019,53.15659],[-1.17034,53.15639],[-1.17027,53.15637],[-1.17031,53.15632],[-1.17013,53.15627],[-1.17011,53.1563],[-1.16988,53.15624],[-1.1699,53.15621],[-1.16972,53.15616]]]]}},
{ "type":"Feature","properties":{"osm_way_id":"809927625","name":"Aldi","building":"retail","shop":"supermarket","other":{"addr:postcode":"NG18 4GH","addr:street":"Oakleaf Close","brand":"ALDI","brand:wikidata":"Q41171672","brand:wikipedia":"en:Aldi","fhrs:id":"1048905","source:addr":"FHRS Open Data"}}, "geometry":{"type":"MultiPolygon","coordinates":[[[[-1.14839,53.12681],[-1.14873,53.12638],[-1.14874,53.12638],[-1.14879,53.12632],[-1.14875,53.12631],[-1.14832,53.12619],[-1.14812,53.12644],[-1.14804,53.12642],[-1.14785,53.12665],[-1.14839,53.12681]]]]}},
{ "type":"Feature","properties":{"osm_way_id":"836364688","name":"Heron Foods","building":"yes","shop":"supermarket","other":{"brand":"Heron Foods","brand:wikidata":"Q5743472","brand:wikipedia":"en:Heron Foods"}}, "geometry":{"type":"MultiPolygon","coordinates":[[[[-1.22031,53.14467],[-1.22048,53.14455],[-1.22016,53.14438],[-1.21998,53.1445],[-1.22031,53.14467]]]]}},
{ "type":"Feature","properties":{"osm_way_id":"928657843","name":"Lidl","building":"yes","shop":"supermarket","other":{"addr:country":"GB","addr:postcode":"NG19 9AQ","addr:street":"Leeming Lane South","brand":"Lidl","brand:wikidata":"Q151954","brand:wikipedia":"en:Lidl","fhrs:id":"1297575"}}, "geometry":{"type":"MultiPolygon","coordinates":[[[[-1.18977,53.1575],[-1.1896,53.15768],[-1.18944,53.15762],[-1.18937,53.15769],[-1.19034,53.15804],[-1.19062,53.15774],[-1.18983,53.15746],[-1.18977,53.1575]]]]}},
{ "type":"Feature","properties":{"osm_way_id":"952719995","name":"The Co-operative Food","building":"yes","shop":"supermarket","other":{"addr:city":"Barnby Dun","addr:street":"High Street","opening_hours":"Mo-Su 07:00-22:00","operator":"Central England Co-operative","toilets":"yes","toilets:access":"permissive","toilets:wheelchair":"yes"}}, "geometry":{"type":"MultiPolygon","coordinates":[[[[-1.07211,53.57731],[-1.07194,53.57721],[-1.0719,53.57723],[-1.07174,53.57732],[-1.07186,53.5774],[-1.07192,53.57736],[-1.07197,53.57739],[-1.07211,53.57731]]]]}}
]
}
