{
"type": "FeatureCollection",
"features": [
{ "type":"Feature","properties":{"osm_id":"1234581921","name":"The Co-operative Food","other":{"operator":"Central England Co-operative","shop":"supermarket"}}, "geometry":{"type":"Point","coordinates":[-1.77846,52.71177 ]}},
{ "type":"Feature","properties":{"osm_id":"9376484048","other":{"defibrillator:location":"outside Curborough Road Co-op store","emergency":"defibrillator","indoor":"no"}}, "geometry":{"type":"Point","coordinates":[-1.82739,52.69341 ]}},
{ "type":"Feature","properties":{"osm_id":"9376484051","other":{"advertising":"board"}}, "geometry":{"type":"Point","coordinates":[-1.82734,52.69324 ]}},
{ "type":"Feature","properties":{"osm_way_id":"36738610","name":"Waitrose","building":"yes","shop":"supermarket","other":{"addr:postcode":"WS13 6RX","addr:street":"Stonneyland Drive","brand":"Waitrose","brand:wikidata":"Q771734","brand:wikipedia":"en:Waitrose","fhrs:id":"1248882","official_name":"Waitrose & Partners","operator":"Waitrose & Partners","source:addr":"FHRS Open Data","website":"https:\/\/www.waitrose.com\/branches\/branchdetails.aspx?uid=699"}}, "geometry":{"type":"MultiPolygon","coordinates":[[[[-1.84323,52.67437],[-1.84305,52.67456],[-1.84307,52.67457],[-1.84309,52.67458],[-1.84279,52.67491],[-1.84372,52.67523],[-1.84395,52.67498],[-1.84417,52.67475],[-1.84405,52.67471],[-1.84407,52.67469],[-1.84409,52.67467],[-1.84323,52.67437]]]]}},
{ "type":"Feature","properties":{"osm_way_id":"58528313","name":"Tesco Extra","building":"yes","shop":"supermarket","other":{"addr:city":"Lichfield","addr:postcode":"WS13 6DZ","addr:street":"Church Street","brand":"Tesco Extra","brand:wikidata":"Q25172225","brand:wikipedia":"en:Tesco Extra","fhrs:id":"1248783","fhrs:local_authority_id":"3291","operator":"Tesco","source:addr":"FHRS Open Data","website":"https:\/\/www.tesco.com\/store-locator\/lichfield\/church-st"}}, "geometry":{"type":"MultiPolygon","coordinates":[[[[-1.82122,52.68592],[-1.82078,52.68576],[-1.82091,52.68562],[-1.82006,52.68532],[-1.82069,52.68467],[-1.82084,52.68472],[-1.82089,52.68467],[-1.82163,52.68492],[-1.82158,52.68497],[-1.82193,52.6851],[-1.82199,52.68512],[-1.82122,52.68592]]]]}},
{ "type":"Feature","properties":{"osm_way_id":"58528316","name":"ALDI","building":"yes","shop":"supermarket","other":{"addr:city":"Lichfield","addr:postcode":"WS13 6EB","addr:street":"Church Street","brand":"ALDI","brand:wikidata":"Q41171672","brand:wikipedia":"en:Aldi","fhrs:id":"1248781","fhrs:local_authority_id":"4942","operator":"Aldi","source:addr":"FHRS Open Data"}}, "geometry":{"type":"MultiPolygon","coordinates":[[[[-1.81964,52.68464],[-1.81946,52.6847],[-1.81947,52.68471],[-1.81931,52.68477],[-1.81887,52.68431],[-1.81925,52.68418],[-1.81934,52.68428],[-1.81931,52.68429],[-1.81964,52.68464]]]]}},
{ "type":"Feature","properties":{"osm_way_id":"58709623","name":"The Co-operative Food","building":"yes","shop":"supermarket","other":{"operator":"Central England Co-operative Society"}}, "geometry":{"type":"MultiPolygon","coordinates":[[[[-1.80613,52.67977],[-1.80583,52.68002],[-1.80562,52.6802],[-1.80559,52.68023],[-1.8063,52.68054],[-1.80685,52.68009],[-1.80613,52.67977]]]]}},
{ "type":"Feature","properties":{"osm_way_id":"145770349","name":"The Co-operative Food","building":"yes","shop":"supermarket","other":{"addr:city":"Lichfield","addr:county":"Staffordshire","addr:housenumber":"17A","addr:postcode":"WS14 9JR","addr:street":"Main Street","addr:village":"Whittington","brand:wikidata":"Q3277439","fhrs:id":"1249213","source:addr":"FHRS Open Data"}}, "geometry":{"type":"MultiPolygon","coordinates":[[[[-1.76297,52.6734],[-1.76289,52.67344],[-1.76284,52.6734],[-1.76277,52.67344],[-1.76257,52.67329],[-1.76272,52.67321],[-1.76297,52.6734]]]]}},
{ "type":"Feature","properties":{"osm_way_id":"146964216","name":"Morrisons","building":"retail","shop":"supermarket","other":{"brand":"Morrisons","brand:wikidata":"Q922344","brand:wikipedia":"en:Morrisons"}}, "geometry":{"type":"MultiPolygon","coordinates":[[[[-1.84172,52.68789],[-1.84227,52.68726],[-1.84151,52.68702],[-1.84137,52.68718],[-1.84128,52.68715],[-1.841,52.68745],[-1.84097,52.68744],[-1.84083,52.6876],[-1.84172,52.68789]]]]}},
{ "type":"Feature","properties":{"osm_way_id":"205386357","name":"Shokar Supermarket","building":"retail","shop":"supermarket","other":{"brand":"Lifestyle Express"}}, "geometry":{"type":"MultiPolygon","coordinates":[[[[-1.86506,52.73998],[-1.86498,52.73997],[-1.86502,52.73987],[-1.8651,52.73988],[-1.86518,52.73989],[-1.86514,52.73999],[-1.86506,52.73998]]]]}},
{ "type":"Feature","properties":{"osm_way_id":"303207249","name":"Co-op Food","building":"supermarket","shop":"supermarket","other":{"brand":"Co-op Food","brand:wikidata":"Q3277439","brand:wikipedia":"en:Co-op Food"}}, "geometry":{"type":"MultiPolygon","coordinates":[[[[-1.82739,52.69342],[-1.82739,52.69341],[-1.82734,52.69324],[-1.82733,52.69321],[-1.82755,52.69319],[-1.82768,52.69318],[-1.82772,52.69333],[-1.82759,52.69334],[-1.8276,52.6934],[-1.82739,52.69342]]]]}},
{ "type":"Feature","properties":{"osm_way_id":"303983921","name":"The Co-operative Food","building":"yes","shop":"supermarket","other":{"operator":"Tamworth Co-operative Society"}}, "geometry":{"type":"MultiPolygon","coordinates":[[[[-1.83674,52.69624],[-1.83658,52.69628],[-1.83651,52.69616],[-1.83653,52.69615],[-1.83651,52.69612],[-1.83664,52.69609],[-1.83674,52.69624]]]]}},
{ "type":"Feature","properties":{"osm_way_id":"310368377","name":"Morrisons","building":"yes","shop":"supermarket","other":{"brand":"Morrisons","brand:wikidata":"Q922344","brand:wikipedia":"en:Morrisons"}}, "geometry":{"type":"MultiPolygon","coordinates":[[[[-1.93929,52.67887],[-1.93888,52.67835],[-1.93765,52.67872],[-1.93803,52.67918],[-1.9381,52.67921],[-1.93817,52.6792],[-1.93929,52.67887]]]]}},
{ "type":"Feature","properties":{"osm_way_id":"310372452","name":"ALDI","building":"supermarket","shop":"supermarket","other":{"brand":"ALDI","brand:wikidata":"Q41171672","brand:wikipedia":"en:Aldi"}}, "geometry":{"type":"MultiPolygon","coordinates":[[[[-1.93312,52.68096],[-1.93312,52.6804],[-1.93273,52.6804],[-1.93273,52.6809],[-1.93299,52.6809],[-1.93299,52.68096],[-1.93312,52.68096]]]]}},
{ "type":"Feature","properties":{"osm_way_id":"357824324","name":"The Co-operative Food","building":"yes","shop":"supermarket","other":{"operator":"The Co-operative Group"}}, "geometry":{"type":"MultiPolygon","coordinates":[[[[-1.91971,52.6809],[-1.92017,52.681],[-1.9201,52.68113],[-1.91987,52.68108],[-1.91964,52.68103],[-1.91971,52.6809]]]]}},
{ "type":"Feature","properties":{"osm_way_id":"357824566","name":"The Co-operative Food","building":"yes","shop":"supermarket","other":{"operator":"The Co-operative Group"}}, "geometry":{"type":"MultiPolygon","coordinates":[[[[-1.90687,52.67766],[-1.9068,52.67781],[-1.90667,52.67779],[-1.90668,52.67776],[-1.90644,52.67772],[-1.90651,52.67757],[-1.90669,52.6776],[-1.90668,52.67763],[-1.90687,52.67766]]]]}},
{ "type":"Feature","properties":{"osm_way_id":"357825286","name":"The Co-operative Food","building":"yes","shop":"supermarket","other":{"addr:housename":"Unit 1","addr:housenumber":"8","addr:postcode":"WS7 4QU","addr:street":"Highfields Road","operator":"Central England Co-operative"}}, "geometry":{"type":"MultiPolygon","coordinates":[[[[-1.93437,52.66889],[-1.93422,52.66911],[-1.93395,52.66903],[-1.93394,52.66906],[-1.93375,52.66902],[-1.9338,52.66892],[-1.93399,52.66896],[-1.9341,52.66881],[-1.93437,52.66889]]]]}},
{ "type":"Feature","properties":{"osm_way_id":"939537992","name":"The Food Warehouse","shop":"supermarket","other":{"addr:city":"Lichfield","addr:country":"GB","addr:housename":"Imperial Retail Park","addr:postcode":"WS13 6UB","addr:street":"Eastern Avenue","addr:unit":"A","brand":"The Food Warehouse","brand:wikidata":"Q87263899","building:part":"retail","contact:website":"https:\/\/www.thefoodwarehouse.com\/store-locator\/lichfield","fhrs:id":"1272908"}}, "geometry":{"type":"MultiPolygon","coordinates":[[[[-1.81126,52.69305],[-1.81161,52.69276],[-1.81121,52.69258],[-1.81085,52.69286],[-1.81126,52.69305]]]]}},
{ "type":"Feature","properties":{"osm_way_id":"962660942","name":"Lidl","shop":"supermarket","other":{"addr:city":"Lichfield","addr:country":"GB","addr:housename":"Imperial Retail Park","addr:postcode":"WS13 6UB","addr:street":"Eastern Avenue","addr:unit":"E","brand":"Lidl","brand:wikidata":"Q151954","brand:wikipedia":"en:Lidl","building:part":"retail","fhrs:id":"1249406"}}, "geometry":{"type":"MultiPolygon","coordinates":[[[[-1.81076,52.6921],[-1.81052,52.69199],[-1.81037,52.69193],[-1.811,52.69142],[-1.81139,52.69159],[-1.81076,52.6921]]]]}}
]
}
