{
"type": "FeatureCollection",
"features": [
{ "type":"Feature","properties":{"osm_id":"266665703","name":"Tesco Metro","ref":"2437","other":{"addr:postcode":"KY11 9UY","addr:street":"Regents Way","brand":"Tesco Metro","brand:wikidata":"Q57551648","fhrs:id":"131707","shop":"supermarket","wheelchair":"yes"}}, "geometry":{"type":"Point","coordinates":[-3.35702,56.03677 ]}},
{ "type":"Feature","properties":{"osm_id":"3894168567","name":"Co-op Food","other":{"addr:city":"Burntisland","addr:housenumber":"255-257","addr:postcode":"KY3 9AQ","addr:street":"High Street","brand":"Co-op Food","brand:wikidata":"Q3277439","brand:wikipedia":"en:Co-op Food","fhrs:id":"109958","opening_hours":"Mo-Su 07:00-22:00","operator":"The Co-operative Group","operator:wikidata":"Q117202","operator:wikipedia":"en:The Co-operative Group","shop":"supermarket","website":"https:\/\/www.coop.co.uk\/store-finder\/KY3-9AQ\/255-high-street","wheelchair":"yes"}}, "geometry":{"type":"Point","coordinates":[-3.23118,56.05983 ]}},
{ "type":"Feature","properties":{"osm_id":"4107688588","name":"Scotmid","other":{"addr:city":"Inverkeithing","addr:housenumber":"45","addr:postcode":"KY11 1NL","addr:street":"High Street","brand":"Scotmid","brand:wikidata":"Q7435719","brand:wikipedia":"en:Scotmid","fhrs:id":"110015","shop":"supermarket","source:addr":"FHRS Open Data"}}, "geometry":{"type":"Point","coordinates":[-3.39825,56.03069 ]}},
{ "type":"Feature","properties":{"osm_id":"6254405867","name":"White Eagle","other":{"shop":"supermarket"}}, "geometry":{"type":"Point","coordinates":[-3.46443,56.07107 ]}},
{ "type":"Feature","properties":{"osm_id":"6288597742","name":"The Food Warehouse","other":{"brand":"The Food Warehouse","brand:wikidata":"Q87263899","operator":"Iceland","shop":"supermarket"}}, "geometry":{"type":"Point","coordinates":[-3.1728,56.1973 ]}},
{ "type":"Feature","properties":{"osm_id":"7446478834","other":{"ford":"yes"}}, "geometry":{"type":"Point","coordinates":[-3.20598,56.21557 ]}},
{ "type":"Feature","properties":{"osm_id":"8878055470","name":"萬富行 Matthew's Foods","other":{"addr:city":"Kirkcaldy","addr:housenumber":"8","addr:postcode":"KY1 2NL","addr:street":"Millie Street","cuisine":"chinese","name:en":"Matthew's Foods","name:zh":"萬富行","phone":"+441592 809888","shop":"supermarket","website":"https:\/\/www.matthewsfoods.co.uk\/"}}, "geometry":{"type":"Point","coordinates":[-3.14509,56.12222 ]}},
{ "type":"Feature","properties":{"osm_way_id":"23713662","name":"Sainsbury's","building":"retail","shop":"supermarket","other":{"addr:city":"Morecambe","addr:postcode":"LA4 5TJ","addr:street":"Lancaster Road","brand":"Sainsbury's","brand:wikidata":"Q152096","brand:wikipedia":"en:Sainsbury's","fhrs:id":"117695","int_name":"Sainsburys","roof:levels":"0","roof:shape":"flat"}}, "geometry":{"type":"MultiPolygon","coordinates":[[[[-2.84743,54.0686],[-2.84764,54.06835],[-2.84798,54.06826],[-2.84795,54.0682],[-2.84799,54.06819],[-2.84805,54.0681],[-2.84803,54.06807],[-2.84816,54.06805],[-2.8481,54.06797],[-2.84826,54.06793],[-2.84794,54.06753],[-2.84721,54.06771],[-2.84718,54.06767],[-2.84693,54.06774],[-2.84696,54.06778],[-2.8467,54.06785],[-2.84704,54.06835],[-2.84719,54.06848],[-2.84743,54.0686]]]]}},
{ "type":"Feature","properties":{"osm_way_id":"39704793","name":"Aldi","building":"yes","shop":"supermarket","other":{"addr:city":"Scunthorpe","addr:postcode":"DN16 2JU","addr:street":"Ashby High Street","brand":"ALDI","brand:wikidata":"Q41171672","brand:wikipedia":"en:Aldi","fhrs:id":"214215","source:addr":"FHRS Open Data"}}, "geometry":{"type":"MultiPolygon","coordinates":[[[[-0.64096,53.56655],[-0.64053,53.56654],[-0.64053,53.56602],[-0.64097,53.56603],[-0.64096,53.56655]]]]}},
{ "type":"Feature","properties":{"osm_way_id":"59699957","name":"Lidl","building":"retail","shop":"supermarket","other":{"addr:country":"GB","addr:postcode":"KY7 5PS","addr:street":"Leslie Road","brand":"Lidl","brand:wikidata":"Q151954","brand:wikipedia":"en:Lidl","fhrs:id":"117812","opening_hours":"Mo-Sa 08:00-22:00; Su 08:00-21:00"}}, "geometry":{"type":"MultiPolygon","coordinates":[[[[-3.17331,56.19856],[-3.17337,56.19831],[-3.17338,56.19828],[-3.17342,56.19828],[-3.17347,56.19812],[-3.17297,56.19808],[-3.17282,56.19866],[-3.17327,56.1987],[-3.17331,56.19856]]]]}},
{ "type":"Feature","properties":{"osm_way_id":"59700159","name":"Morrisons","building":"yes","shop":"supermarket","other":{"addr:postcode":"KY7 5QF","brand":"Morrisons","brand:wikidata":"Q922344","brand:wikipedia":"en:Morrisons","operator":"Morrisons"}}, "geometry":{"type":"MultiPolygon","coordinates":[[[[-3.16252,56.19807],[-3.16271,56.19737],[-3.16231,56.19734],[-3.16231,56.19733],[-3.16191,56.19729],[-3.16193,56.19721],[-3.16143,56.19717],[-3.16122,56.19726],[-3.1612,56.19733],[-3.16133,56.19734],[-3.16129,56.1975],[-3.16149,56.19752],[-3.16144,56.19771],[-3.16123,56.19769],[-3.16118,56.19789],[-3.16167,56.19793],[-3.16169,56.19795],[-3.16166,56.19807],[-3.16225,56.19812],[-3.16227,56.19804],[-3.16252,56.19807]]]]}},
{ "type":"Feature","properties":{"osm_way_id":"60360060","name":"Aldi","building":"yes","shop":"supermarket","other":{"brand":"ALDI","brand:wikidata":"Q41171672","brand:wikipedia":"en:Aldi","operator":"Aldi"}}, "geometry":{"type":"MultiPolygon","coordinates":[[[[-3.16252,56.19891],[-3.16262,56.19851],[-3.16208,56.19847],[-3.16197,56.19892],[-3.16221,56.19893],[-3.16222,56.19888],[-3.16252,56.19891]]]]}},
{ "type":"Feature","properties":{"osm_way_id":"69975996","name":"Asda","building":"retail","shop":"supermarket","other":{"addr:city":"Dunfermline","addr:country":"GB","addr:postcode":"KY11 3AY","addr:street":"St Leonards Street","brand":"Asda","brand:wikidata":"Q297410","brand:wikipedia":"en:Asda","contact:facebook":"https:\/\/www.facebook.com\/asda\/","contact:twitter":"@asda","contact:website":"https:\/\/storelocator.asda.com\/scotland\/dunfermline\/st-leonards-street","fhrs:id":"135400","operator":"Asda Stores Ltd"}}, "geometry":{"type":"MultiPolygon","coordinates":[[[[-3.45115,56.06491],[-3.45119,56.06459],[-3.45122,56.06459],[-3.45124,56.06445],[-3.45033,56.06441],[-3.45033,56.06443],[-3.4501,56.06442],[-3.4501,56.06441],[-3.44992,56.0644],[-3.44992,56.06442],[-3.4497,56.06441],[-3.44968,56.06455],[-3.44949,56.06454],[-3.44944,56.06483],[-3.44964,56.06484],[-3.44964,56.06484],[-3.45115,56.06491]]]]}},
{ "type":"Feature","properties":{"osm_way_id":"84950917","name":"Morrisons","building":"retail","shop":"supermarket","other":{"addr:city":"St Andrews","addr:housenumber":"45","addr:postcode":"KY16 8PJ","addr:street":"Largo Road","branch":"St Andrews","brand":"Morrisons","brand:wikidata":"Q922344","brand:wikipedia":"en:Morrisons","fhrs:id":"117247","opening_hours":"Mo-Fr 08:00-22:00; Sa 07:00-22:00; Su 08:00-20:00","wheelchair":"yes"}}, "geometry":{"type":"MultiPolygon","coordinates":[[[[-2.8074,56.32752],[-2.80801,56.32764],[-2.80776,56.32804],[-2.80781,56.32807],[-2.80773,56.32821],[-2.80768,56.32822],[-2.80761,56.32824],[-2.80725,56.32817],[-2.80727,56.32814],[-2.80672,56.32804],[-2.80702,56.32757],[-2.80734,56.32763],[-2.8074,56.32752]]]]}},
{ "type":"Feature","properties":{"osm_way_id":"91000142","name":"Asda","building":"yes","shop":"supermarket","other":{"addr:city":"Dunfermline","addr:country":"GB","addr:postcode":"KY11 4LP","addr:street":"Halbeath Retail Park","brand":"Asda","brand:wikidata":"Q297410","brand:wikipedia":"en:Asda","contact:facebook":"https:\/\/www.facebook.com\/asda\/","contact:twitter":"@asda","contact:website":"https:\/\/storelocator.asda.com\/scotland\/fife\/halbeath-road-retail-park","operator":"Asda Stores Ltd"}}, "geometry":{"type":"MultiPolygon","coordinates":[[[[-3.41484,56.08064],[-3.41465,56.08069],[-3.41462,56.08063],[-3.41384,56.0808],[-3.41376,56.08069],[-3.41352,56.08075],[-3.41357,56.08082],[-3.41345,56.08084],[-3.41343,56.0808],[-3.41327,56.08084],[-3.41331,56.0809],[-3.41286,56.081],[-3.4129,56.08105],[-3.41285,56.08106],[-3.41317,56.08149],[-3.41363,56.08139],[-3.41376,56.08158],[-3.41366,56.0816],[-3.41364,56.08157],[-3.41347,56.08161],[-3.41349,56.08165],[-3.41325,56.08167],[-3.41326,56.08169],[-3.41351,56.08167],[-3.41352,56.08168],[-3.41347,56.08169],[-3.4135,56.08173],[-3.41371,56.08168],[-3.41372,56.08169],[-3.41463,56.08149],[-3.41458,56.08143],[-3.41463,56.08142],[-3.4146,56.08138],[-3.41483,56.08133],[-3.41479,56.08127],[-3.4152,56.08118],[-3.41484,56.08064]]]]}},
{ "type":"Feature","properties":{"osm_way_id":"98066918","name":"Tesco","building":"yes","shop":"supermarket","other":{"addr:city":"Rosyth","addr:housenumber":"174","addr:postcode":"KY11 2JF","addr:street":"Queensferry Road","brand":"Tesco","brand:wikidata":"Q487494","brand:wikipedia":"en:Tesco","opening_hours":"Mo-Sa 08:00-22:00; Su 09:00-20:00"}}, "geometry":{"type":"MultiPolygon","coordinates":[[[[-3.42674,56.04357],[-3.42625,56.04375],[-3.42637,56.04385],[-3.4264,56.04384],[-3.42672,56.0441],[-3.42699,56.044],[-3.42689,56.04393],[-3.42708,56.04386],[-3.42674,56.04357]]]]}},
{ "type":"Feature","properties":{"osm_way_id":"99944528","name":"Tesco","building":"yes","shop":"supermarket","other":{"addr:city":"Cupar","addr:postcode":"KY15 5JE","addr:street":"South Road","alt_name":"Tesco Cupar Superstore","brand":"Tesco","brand:wikidata":"Q487494","brand:wikipedia":"en:Tesco","layer":"1","operator":"Tesco"}}, "geometry":{"type":"MultiPolygon","coordinates":[[[[-3.0075,56.3154],[-3.00751,56.31557],[-3.00757,56.31557],[-3.00758,56.31566],[-3.00758,56.31581],[-3.00752,56.31581],[-3.00754,56.31597],[-3.00754,56.31598],[-3.00696,56.31599],[-3.00693,56.31599],[-3.00693,56.3159],[-3.00685,56.3159],[-3.00684,56.31584],[-3.00693,56.31584],[-3.00692,56.31565],[-3.00691,56.31541],[-3.0075,56.3154]]]]}},
{ "type":"Feature","properties":{"osm_way_id":"100913753","name":"Tesco Extra","building":"yes","shop":"supermarket","other":{"brand":"Tesco Extra","brand:wikidata":"Q25172225","brand:wikipedia":"en:Tesco Extra"}}, "geometry":{"type":"MultiPolygon","coordinates":[[[[-3.40409,56.0612],[-3.40407,56.06028],[-3.40224,56.06029],[-3.40225,56.06056],[-3.40225,56.06066],[-3.40251,56.06066],[-3.40251,56.06062],[-3.40261,56.06062],[-3.40261,56.06068],[-3.40267,56.06068],[-3.40268,56.06121],[-3.40409,56.0612]]]]}},
{ "type":"Feature","properties":{"osm_way_id":"124185120","name":"Co-op Food","building":"yes","shop":"supermarket","other":{"addr:postcode":"KY10 3JS","addr:street":"St Andrews Road","alt_name":"The Co-operative Food","brand":"Co-op Food","brand:wikidata":"Q3277439","brand:wikipedia":"en:Co-op Food","operator":"The Co-operative Group","operator:wikidata":"Q117202","operator:wikipedia":"en:The Co-operative Group"}}, "geometry":{"type":"MultiPolygon","coordinates":[[[[-2.70785,56.22509],[-2.70746,56.22532],[-2.707,56.22505],[-2.70702,56.22504],[-2.70697,56.22501],[-2.70714,56.22492],[-2.7072,56.22496],[-2.70744,56.22482],[-2.70785,56.22506],[-2.70782,56.22507],[-2.70785,56.22509]]]]}},
{ "type":"Feature","properties":{"osm_way_id":"132221753","name":"Lidl","building":"yes","shop":"supermarket","other":{"addr:city":"Cupar","addr:country":"GB","addr:postcode":"KY15 5HX","addr:street":"Station Road","alt_name":"LIDL Cupar","brand":"Lidl","brand:wikidata":"Q151954","brand:wikipedia":"en:Lidl","fhrs:id":"17843","operator":"LIDL"}}, "geometry":{"type":"MultiPolygon","coordinates":[[[[-3.00958,56.31843],[-3.0086,56.31878],[-3.00831,56.31852],[-3.00832,56.31852],[-3.00883,56.31834],[-3.00888,56.31838],[-3.00926,56.31824],[-3.0094,56.31837],[-3.00948,56.31834],[-3.00958,56.31843]]]]}},
{ "type":"Feature","properties":{"osm_way_id":"133730626","name":"Lidl","building":"yes","shop":"supermarket","other":{"addr:country":"GB","addr:postcode":"KY8 4HJ","addr:street":"Mitchell Street","alt_name":"LIDL Leven","brand":"Lidl","brand:wikidata":"Q151954","brand:wikipedia":"en:Lidl","fhrs:id":"125447"}}, "geometry":{"type":"MultiPolygon","coordinates":[[[[-2.99399,56.19599],[-2.99429,56.19614],[-2.99425,56.19617],[-2.99452,56.1963],[-2.99514,56.19594],[-2.99483,56.19579],[-2.99468,56.19587],[-2.99471,56.19589],[-2.99446,56.19603],[-2.99426,56.19593],[-2.99422,56.19591],[-2.99417,56.19589],[-2.99399,56.19599]]]]}},
{ "type":"Feature","properties":{"osm_way_id":"161896747","name":"Asda","building":"yes","shop":"supermarket","other":{"addr:city":"Glenrothes","addr:country":"GB","addr:postcode":"KY7 5QA","addr:street":"Queensgate","brand":"Asda","brand:wikidata":"Q297410","brand:wikipedia":"en:Asda","contact:facebook":"https:\/\/www.facebook.com\/asda\/","contact:twitter":"@asda","contact:website":"https:\/\/storelocator.asda.com\/scotland\/glenrothes\/fullerton-road","fhrs:id":"28992","opening_hours":"24\/7","operator":"Asda Stores Ltd"}}, "geometry":{"type":"MultiPolygon","coordinates":[[[[-3.16324,56.20008],[-3.16323,56.19925],[-3.16202,56.19926],[-3.16202,56.19933],[-3.1618,56.19933],[-3.1618,56.19941],[-3.16159,56.19941],[-3.1616,56.19962],[-3.16183,56.19962],[-3.16184,56.19975],[-3.16206,56.19975],[-3.16207,56.20009],[-3.16324,56.20008]]]]}},
{ "type":"Feature","properties":{"osm_way_id":"186829658","name":"Asda","building":"yes","shop":"supermarket","other":{"addr:country":"GB","addr:postcode":"KY11 9JX","addr:street":"Fulmar Way","brand":"Asda","brand:wikidata":"Q297410","brand:wikipedia":"en:Asda","contact:facebook":"https:\/\/www.facebook.com\/asda\/","contact:twitter":"@asda","contact:website":"https:\/\/storelocator.asda.com\/scotland\/dalgety-bay\/fulmar-way","fhrs:id":"25673","operator":"Asda Stores Ltd","wheelchair":"yes","wheelchair:description":"Entrance has automatic doors. Staff will assist with your shopping if you ask. Scooter and wheelchair trolleys are available for loan in store."}}, "geometry":{"type":"MultiPolygon","coordinates":[[[[-3.35926,56.04057],[-3.35889,56.04017],[-3.35852,56.04028],[-3.35858,56.04034],[-3.35804,56.0405],[-3.35807,56.04054],[-3.35775,56.04063],[-3.35804,56.04094],[-3.35819,56.04089],[-3.35823,56.04093],[-3.35836,56.04089],[-3.35846,56.04089],[-3.35856,56.04087],[-3.35863,56.04084],[-3.3587,56.04079],[-3.35876,56.04077],[-3.35917,56.04065],[-3.35913,56.04061],[-3.35926,56.04057]]]]}},
{ "type":"Feature","properties":{"osm_way_id":"186829927","name":"Co-op Food","building":"yes","shop":"supermarket","other":{"addr:city":"Dalgety Bay","addr:housenumber":"28","addr:postcode":"KY11 9GB","addr:street":"Lt Sales Avenue","brand":"Co-op Food","brand:wikidata":"Q3277439","brand:wikipedia":"en:Co-op Food","fhrs:id":"852268","opening_hours":"Mo-Fr 06:00-23:00","operator":"The Co-operative Group","operator:wikidata":"Q117202","operator:wikipedia":"en:The Co-operative Group"}}, "geometry":{"type":"MultiPolygon","coordinates":[[[[-3.36673,56.03553],[-3.36648,56.03545],[-3.36631,56.0356],[-3.36655,56.03569],[-3.36671,56.03555],[-3.36673,56.03553]]]]}},
{ "type":"Feature","properties":{"osm_way_id":"201432174","name":"Asda","building":"retail","shop":"supermarket","other":{"addr:city":"Kirkcaldy","addr:country":"GB","addr:postcode":"KY1 3NG","addr:street":"Carberry Place","brand":"Asda","brand:wikidata":"Q297410","brand:wikipedia":"en:Asda","contact:facebook":"https:\/\/www.facebook.com\/asda\/","contact:twitter":"@asda","contact:website":"https:\/\/storelocator.asda.com\/scotland\/kirkcaldy\/carberry-road","fhrs:id":"125527","operator":"Asda Stores Ltd","pharmacy":"yes"}}, "geometry":{"type":"MultiPolygon","coordinates":[[[[-3.1453,56.13456],[-3.14556,56.13467],[-3.14577,56.13465],[-3.14595,56.13529],[-3.14471,56.13539],[-3.14466,56.13523],[-3.14371,56.13531],[-3.14355,56.13473],[-3.14378,56.13471],[-3.14375,56.13458],[-3.14503,56.13447],[-3.1452,56.13434],[-3.14546,56.13445],[-3.1453,56.13456]]]]}},
{ "type":"Feature","properties":{"osm_way_id":"204917430","name":"Co-op Food","building":"yes","shop":"supermarket","other":{"addr:city":"Cupar","addr:housenumber":"99","addr:postcode":"KY15 4LG","addr:street":"Bonnygate","brand":"Co-op Food","brand:wikidata":"Q3277439","brand:wikipedia":"en:Co-op Food","opening_hours":"Mo-Su 06:00-22:00","operator":"The Co-operative Group","operator:wikidata":"Q117202","operator:wikipedia":"en:The Co-operative Group"}}, "geometry":{"type":"MultiPolygon","coordinates":[[[[-3.01749,56.3194],[-3.01748,56.31919],[-3.0182,56.31912],[-3.01823,56.31924],[-3.01825,56.31924],[-3.01829,56.31948],[-3.0181,56.31949],[-3.0181,56.31949],[-3.01808,56.31949],[-3.01813,56.3196],[-3.01803,56.31961],[-3.01795,56.31939],[-3.01789,56.3194],[-3.01788,56.31936],[-3.01784,56.31936],[-3.01784,56.31937],[-3.01773,56.31938],[-3.01773,56.31937],[-3.01767,56.31938],[-3.01749,56.3194]]]]}},
{ "type":"Feature","properties":{"osm_way_id":"204938454","name":"Tesco Metro","building":"yes","shop":"supermarket","other":{"addr:city":"St Andrews","addr:housenumber":"138-140","addr:postcode":"KY16 9PD","addr:street":"Market Street","branch":"St Andrews Metro","brand":"Tesco Metro","brand:wikidata":"Q57551648","opening_hours":"Mo-Sa 06:00-24:00; Su 09:00-24:00","toilets:wheelchair":"no","wheelchair":"yes"}}, "geometry":{"type":"MultiPolygon","coordinates":[[[[-2.79849,56.34027],[-2.79846,56.34019],[-2.79837,56.33991],[-2.79825,56.33991],[-2.79821,56.33978],[-2.79815,56.33979],[-2.79796,56.3398],[-2.79801,56.34003],[-2.79804,56.34017],[-2.7979,56.34018],[-2.79791,56.34029],[-2.79849,56.34027]]]]}},
{ "type":"Feature","properties":{"osm_way_id":"204940229","name":"Aldi","building":"yes","shop":"supermarket","other":{"addr:city":"St Andrews","addr:postcode":"KY16 8YB","addr:street":"Tom Stewart Lane","branch":"St Andrews","brand":"ALDI","brand:wikidata":"Q41171672","brand:wikipedia":"en:Aldi","fhrs:id":"138135","opening_hours":"Mo-Sa 08:00-22:00; Su 09:00-19:00","wheelchair":"yes"}}, "geometry":{"type":"MultiPolygon","coordinates":[[[[-2.80478,56.33062],[-2.8039,56.33044],[-2.80382,56.33055],[-2.80392,56.33057],[-2.80384,56.33069],[-2.80463,56.33085],[-2.80478,56.33062]]]]}},
{ "type":"Feature","properties":{"osm_way_id":"232428130","name":"Aldi","building":"yes","shop":"supermarket","other":{"brand":"ALDI","brand:wikidata":"Q41171672","brand:wikipedia":"en:Aldi"}}, "geometry":{"type":"MultiPolygon","coordinates":[[[[-3.4045,56.06183],[-3.40448,56.06154],[-3.40366,56.06156],[-3.40367,56.06173],[-3.40357,56.06173],[-3.40357,56.06185],[-3.4045,56.06183]]]]}},
{ "type":"Feature","properties":{"osm_way_id":"232950938","name":"Sainsbury's","building":"retail","shop":"supermarket","other":{"addr:city":"Kirkcaldy","addr:housename":"Unit 1","addr:postcode":"KY2 6QL","brand":"Sainsbury's","brand:wikidata":"Q152096","brand:wikipedia":"en:Sainsbury's","fhrs:id":"88240"}}, "geometry":{"type":"MultiPolygon","coordinates":[[[[-3.19836,56.13444],[-3.1983,56.13445],[-3.19829,56.13441],[-3.19797,56.13443],[-3.19795,56.13433],[-3.19687,56.13439],[-3.19677,56.13386],[-3.19717,56.13384],[-3.19716,56.1338],[-3.19801,56.13375],[-3.19802,56.13381],[-3.19824,56.1338],[-3.19836,56.13444]]]]}},
{ "type":"Feature","properties":{"osm_way_id":"307160485","name":"Sainsbury's","building":"yes","shop":"supermarket","other":{"addr:postcode":"KY8 4LQ","addr:street":"Riverside Road","alt_name":"Sainsbury's Leven Superstore","brand":"Sainsbury's","brand:wikidata":"Q152096","brand:wikipedia":"en:Sainsbury's"}}, "geometry":{"type":"MultiPolygon","coordinates":[[[[-3.00399,56.19343],[-3.00338,56.19316],[-3.00341,56.19314],[-3.00263,56.19281],[-3.00219,56.19312],[-3.00254,56.19327],[-3.00259,56.19324],[-3.003,56.19341],[-3.00295,56.19345],[-3.00308,56.19351],[-3.00312,56.19348],[-3.0034,56.1936],[-3.00352,56.19352],[-3.00363,56.19357],[-3.00381,56.19344],[-3.00394,56.19349],[-3.00396,56.19347],[-3.00399,56.19343]]]]}},
{ "type":"Feature","properties":{"osm_way_id":"311645626","name":"Co-op Food","building":"commercial","shop":"supermarket","other":{"addr:city":"Rosyth","addr:postcode":"KY11 2PZ","addr:street":"Castlandhill Road","brand":"Co-op Food","brand:wikidata":"Q3277439","brand:wikipedia":"en:Co-op Food","fhrs:id":"86681","operator":"The Co-operative Group","operator:wikidata":"Q117202","operator:wikipedia":"en:The Co-operative Group"}}, "geometry":{"type":"MultiPolygon","coordinates":[[[[-3.41572,56.03567],[-3.41553,56.03576],[-3.4153,56.03574],[-3.41531,56.03571],[-3.41516,56.03569],[-3.41524,56.03541],[-3.41529,56.03538],[-3.41572,56.03567]]]]}},
{ "type":"Feature","properties":{"osm_way_id":"313313922","name":"M&S Foodhall","building":"retail","shop":"supermarket","other":{"addr:city":"Kirkcaldy","addr:housename":"Unit 4","addr:postcode":"KY2 6QL","addr:street":"Chapel Park","brand":"M&S Foodhall","brand:wikidata":"Q714491","brand:wikipedia":"en:Marks & Spencer","toilets:wheelchair":"yes","wheelchair":"yes"}}, "geometry":{"type":"MultiPolygon","coordinates":[[[[-3.19989,56.13507],[-3.19941,56.1351],[-3.19947,56.13545],[-3.19995,56.13543],[-3.19989,56.13507]]]]}},
{ "type":"Feature","properties":{"osm_way_id":"317738212","name":"The Food Warehouse","building":"yes","shop":"supermarket","other":{"addr:city":"Kirkcaldy","addr:postcode":"KY1 1RF","addr:street":"Esplanade","brand":"The Food Warehouse","brand:wikidata":"Q87263899","roof:shape":"gabled"}}, "geometry":{"type":"MultiPolygon","coordinates":[[[[-3.15948,56.10578],[-3.1596,56.10525],[-3.15911,56.10521],[-3.15907,56.10537],[-3.15916,56.10538],[-3.15908,56.1057],[-3.15931,56.10572],[-3.1593,56.10576],[-3.15948,56.10578]]]]}},
{ "type":"Feature","properties":{"osm_way_id":"355813167","name":"M&S Foodhall","building":"yes","shop":"supermarket","other":{"addr:city":"St Andrews","addr:housenumber":"23","addr:postcode":"KY16 8NH","addr:street":"Largo Road","branch":"St Andrews Simply Food","brand":"M&S Foodhall","brand:wikidata":"Q714491","brand:wikipedia":"en:Marks & Spencer","opening_hours":"Mo-Fr 09:00-20:00; Sa 09:00-19:00; Su 09:00-18:00"}}, "geometry":{"type":"MultiPolygon","coordinates":[[[[-2.80403,56.33191],[-2.80458,56.33203],[-2.80442,56.33225],[-2.80387,56.33213],[-2.80403,56.33191]]]]}},
{ "type":"Feature","properties":{"osm_way_id":"370619251","name":"Co-op Food","building":"yes","shop":"supermarket","other":{"brand":"Co-op Food","brand:wikidata":"Q3277439","brand:wikipedia":"en:Co-op Food","operator":"The Co-operative Group","operator:wikidata":"Q117202","operator:wikipedia":"en:The Co-operative Group"}}, "geometry":{"type":"MultiPolygon","coordinates":[[[[-3.15883,56.19001],[-3.15875,56.19005],[-3.15852,56.18991],[-3.15876,56.18979],[-3.15898,56.18993],[-3.15883,56.19001]]]]}},
{ "type":"Feature","properties":{"osm_way_id":"387444412","name":"Aldi","building":"retail","shop":"supermarket","other":{"addr:city":"Kirkcaldy","addr:postcode":"KY2 5RY","addr:street":"Ferrard Road","brand":"ALDI","brand:wikidata":"Q41171672","brand:wikipedia":"en:Aldi","building:levels":"1","fhrs:id":"25520","opening_hours":"Mo-Sa 08:00-22:00; Su 09:00-20:00"}}, "geometry":{"type":"MultiPolygon","coordinates":[[[[-3.16981,56.11317],[-3.16928,56.11318],[-3.16945,56.11271],[-3.16978,56.1127],[-3.16981,56.11317]]]]}},
{ "type":"Feature","properties":{"osm_way_id":"395910191","name":"Morrisons","building":"retail","shop":"supermarket","other":{"addr:city":"Kirkcaldy","addr:housenumber":"439","addr:postcode":"KY1 1SL","addr:street":"Esplanade","alt_name":"Morrisons Kirkcaldy","brand":"Morrisons","brand:wikidata":"Q922344","brand:wikipedia":"en:Morrisons","fhrs:id":"852284","toilets:wheelchair":"yes","website":"https:\/\/my.morrisons.com\/storefinder\/582","wheelchair":"yes"}}, "geometry":{"type":"MultiPolygon","coordinates":[[[[-3.16253,56.09675],[-3.16144,56.09689],[-3.16117,56.09624],[-3.16132,56.09622],[-3.1613,56.09617],[-3.16128,56.09613],[-3.16142,56.09611],[-3.16209,56.09603],[-3.16213,56.09614],[-3.16237,56.09611],[-3.16261,56.09671],[-3.16252,56.09672],[-3.16253,56.09675]]]]}},
{ "type":"Feature","properties":{"osm_way_id":"406018323","name":"Aldi","building":"yes","shop":"supermarket","other":{"addr:city":"Kirkcaldy","addr:housenumber":"20","addr:postcode":"KY1 2DJ","addr:street":"McKenzie Street","brand":"ALDI","brand:wikidata":"Q41171672","brand:wikipedia":"en:Aldi","fhrs:id":"123805","opening_hours":"Mo-Sa 08:00-22:00; Su 09:00-19:00","source:addr":"FHRS Open Data","wheelchair":"yes"}}, "geometry":{"type":"MultiPolygon","coordinates":[[[[-3.14245,56.12696],[-3.142,56.12681],[-3.14173,56.12673],[-3.14194,56.12652],[-3.14266,56.12675],[-3.14245,56.12696]]]]}},
{ "type":"Feature","properties":{"osm_way_id":"415306551","name":"Morrisons","building":"yes","shop":"supermarket","other":{"addr:city":"Cowdenbeath","addr:housename":"9 Raith Centre","addr:postcode":"KY4 9QJ","addr:street":"High Street","brand":"Morrisons","brand:wikidata":"Q922344","brand:wikipedia":"en:Morrisons","fhrs:id":"110297","source:addr":"FHRS Open Data"}}, "geometry":{"type":"MultiPolygon","coordinates":[[[[-3.34091,56.10948],[-3.34082,56.10925],[-3.34079,56.10916],[-3.3417,56.10904],[-3.34176,56.10918],[-3.34181,56.1093],[-3.34183,56.10936],[-3.34091,56.10948]]]]}},
{ "type":"Feature","properties":{"osm_way_id":"426349262","name":"Aldi","building":"yes","shop":"supermarket","other":{"brand":"ALDI","brand:wikidata":"Q41171672","brand:wikipedia":"en:Aldi"}}, "geometry":{"type":"MultiPolygon","coordinates":[[[[-3.44397,56.07543],[-3.44384,56.07521],[-3.44332,56.07531],[-3.44357,56.07574],[-3.44394,56.07567],[-3.44382,56.07546],[-3.44397,56.07543]]]]}},
{ "type":"Feature","properties":{"osm_way_id":"429477152","name":"Tesco","building":"yes","shop":"supermarket","other":{"brand":"Tesco","brand:wikidata":"Q487494","brand:wikipedia":"en:Tesco"}}, "geometry":{"type":"MultiPolygon","coordinates":[[[[-3.46498,56.07347],[-3.46434,56.07357],[-3.46357,56.07368],[-3.46352,56.07369],[-3.46344,56.07371],[-3.46327,56.07373],[-3.46313,56.07375],[-3.46304,56.07356],[-3.46318,56.07354],[-3.46303,56.07326],[-3.46297,56.07315],[-3.46292,56.07304],[-3.4641,56.07286],[-3.46412,56.07291],[-3.4644,56.07286],[-3.46448,56.07285],[-3.46455,56.07285],[-3.46462,56.07286],[-3.46466,56.07288],[-3.46471,56.07291],[-3.46474,56.07297],[-3.46479,56.07308],[-3.46471,56.07309],[-3.46473,56.07313],[-3.4648,56.07327],[-3.46487,56.0734],[-3.46489,56.07343],[-3.46496,56.07342],[-3.46498,56.07347]]]]}},
{ "type":"Feature","properties":{"osm_way_id":"434775396","name":"Co-op Food","building":"yes","shop":"supermarket","other":{"addr:city":"Kirkcaldy","addr:housenumber":"193-195","addr:postcode":"KY2 6LE","addr:street":"Dunearn Drive","brand":"Co-op Food","brand:wikidata":"Q3277439","brand:wikipedia":"en:Co-op Food"}}, "geometry":{"type":"MultiPolygon","coordinates":[[[[-3.18427,56.12599],[-3.18419,56.12599],[-3.18397,56.12597],[-3.18388,56.12633],[-3.18409,56.12635],[-3.1841,56.12631],[-3.18419,56.12631],[-3.18427,56.12599]]]]}},
{ "type":"Feature","properties":{"osm_way_id":"434800812","name":"Aldi","building":"yes","shop":"supermarket","other":{"addr:postcode":"KY8 4FW","addr:street":"Turpie Road","alt_name":"Aldi Leven","brand":"ALDI","brand:wikidata":"Q41171672","brand:wikipedia":"en:Aldi"}}, "geometry":{"type":"MultiPolygon","coordinates":[[[[-3.02115,56.19828],[-3.02112,56.19797],[-3.02122,56.19797],[-3.02121,56.19783],[-3.02155,56.19782],[-3.02158,56.19827],[-3.02125,56.19828],[-3.02115,56.19828]]]]}},
{ "type":"Feature","properties":{"osm_way_id":"473673327","name":"Loco","building":"yes","shop":"supermarket","other":{"opening_hours":"Mo-Sa 06:00-22:00; Su 07:00-19:00"}}, "geometry":{"type":"MultiPolygon","coordinates":[[[[-3.13927,56.12641],[-3.13905,56.12633],[-3.13925,56.12616],[-3.13947,56.12624],[-3.13927,56.12641]]]]}},
{ "type":"Feature","properties":{"osm_way_id":"492570472","name":"ALDI","building":"yes","shop":"supermarket","other":{"addr:city":"Cowdenbeath","addr:housenumber":"167","addr:postcode":"KY4 9DG","addr:street":"Stenhouse Street","brand":"ALDI","brand:wikidata":"Q41171672","brand:wikipedia":"en:Aldi","opening_hours":"Mo-Sa 08:00-22:00; Su 09:00-20:00"}}, "geometry":{"type":"MultiPolygon","coordinates":[[[[-3.34853,56.11061],[-3.34869,56.1111],[-3.34857,56.11111],[-3.34821,56.11115],[-3.34815,56.11098],[-3.34806,56.1107],[-3.34842,56.11066],[-3.34841,56.11062],[-3.34853,56.11061]]]]}},
{ "type":"Feature","properties":{"osm_way_id":"548463940","name":"Co-op Food","building":"retail","shop":"supermarket","other":{"addr:city":"Kirkcaldy","addr:housenumber":"95","addr:postcode":"KY2 5RB","addr:street":"Bennochy Road","brand":"Co-op Food","brand:wikidata":"Q3277439","brand:wikipedia":"en:Co-op Food","building:levels":"1","fhrs:id":"867810","opening_hours":"Mo-Su 06:00-22:00","operator":"The Co-operative Group","operator:wikidata":"Q117202","operator:wikipedia":"en:The Co-operative Group","roof:levels":"0"}}, "geometry":{"type":"MultiPolygon","coordinates":[[[[-3.17745,56.11733],[-3.17705,56.11734],[-3.17703,56.11721],[-3.17744,56.1172],[-3.17745,56.11733]]]]}},
{ "type":"Feature","properties":{"osm_way_id":"559268655","name":"ALDI","building":"yes","shop":"supermarket","other":{"addr:city":"Cupar","addr:postcode":"KY15 5JE","addr:street":"Ceres Road","brand":"ALDI","brand:wikidata":"Q41171672","brand:wikipedia":"en:Aldi"}}, "geometry":{"type":"MultiPolygon","coordinates":[[[[-3.00812,56.31442],[-3.00812,56.3144],[-3.00811,56.31418],[-3.00806,56.31418],[-3.00806,56.31412],[-3.00783,56.31412],[-3.00783,56.31406],[-3.0077,56.31406],[-3.0077,56.31412],[-3.00724,56.31412],[-3.00725,56.31441],[-3.00775,56.3144],[-3.00775,56.31442],[-3.00812,56.31442]]]]}},
{ "type":"Feature","properties":{"osm_way_id":"671544119","name":"M&S Foodhall","building":"yes","shop":"supermarket","other":{"brand":"M&S Foodhall","brand:wikidata":"Q714491","brand:wikipedia":"en:Marks & Spencer","operator":"Marks and Spencer plc"}}, "geometry":{"type":"MultiPolygon","coordinates":[[[[-3.1742,56.19792],[-3.17358,56.19791],[-3.17359,56.19767],[-3.17421,56.19768],[-3.1742,56.19792]]]]}},
{ "type":"Feature","properties":{"osm_way_id":"711817863","name":"Aldi","building":"yes","shop":"supermarket","other":{"addr:city":"Dalgety Bay","addr:housenumber":"7","addr:postcode":"KY11 9AB","addr:street":"Ridge Way","brand":"ALDI","brand:wikidata":"Q41171672","brand:wikipedia":"en:Aldi","fhrs:id":"1180813","operator":"Aldi"}}, "geometry":{"type":"MultiPolygon","coordinates":[[[[-3.36094,56.04253],[-3.36086,56.04245],[-3.36093,56.04243],[-3.36077,56.04226],[-3.36151,56.04204],[-3.36175,56.04228],[-3.36094,56.04253]]]]}},
{ "type":"Feature","properties":{"osm_way_id":"713733733","name":"Lidl","building":"yes","shop":"supermarket","other":{"brand":"Lidl","brand:wikidata":"Q151954","brand:wikipedia":"en:Lidl"}}, "geometry":{"type":"MultiPolygon","coordinates":[[[[-3.34262,56.115],[-3.34225,56.11496],[-3.34223,56.11502],[-3.34208,56.115],[-3.34228,56.11439],[-3.34286,56.11445],[-3.3428,56.11464],[-3.34273,56.11464],[-3.34273,56.11466],[-3.34264,56.11493],[-3.34262,56.115]]]]}},
{ "type":"Feature","properties":{"osm_way_id":"724095454","name":"The Co-operative Food","building":"yes","shop":"supermarket","other":{"addr:city":"Lochgelly","addr:housenumber":"46","addr:street":"Bank Street","brand":"The Co-operative Food","brand:wikidata":"Q107617274","brand:wikipedia":"en:Co-op Food","operator":"The Co-operative Group","operator:wikidata":"Q117202","operator:wikipedia":"en:The Co-operative Group"}}, "geometry":{"type":"MultiPolygon","coordinates":[[[[-3.3094,56.12796],[-3.30916,56.12798],[-3.309,56.12799],[-3.30872,56.12802],[-3.30864,56.12802],[-3.30859,56.12782],[-3.30867,56.12782],[-3.30935,56.12776],[-3.3094,56.12796]]]]}},
{ "type":"Feature","properties":{"osm_way_id":"938214082","name":"Lidl","building":"yes","shop":"supermarket","other":{"addr:city":"Kirkcaldy","addr:country":"GB","addr:postcode":"KY1 1SL","addr:street":"Esplanade","brand":"Lidl","brand:wikidata":"Q151954","brand:wikipedia":"en:Lidl","fhrs:id":"143969"}}, "geometry":{"type":"MultiPolygon","coordinates":[[[[-3.16351,56.09869],[-3.16328,56.09802],[-3.16269,56.09808],[-3.16275,56.09825],[-3.1628,56.09824],[-3.16283,56.09824],[-3.16291,56.09852],[-3.163,56.09851],[-3.16307,56.09869],[-3.16325,56.09866],[-3.16328,56.09872],[-3.16351,56.09869]]]]}},
{ "type":"Feature","properties":{"osm_way_id":"957855168","name":"Scotmid","building":"yes","shop":"supermarket","other":{"brand":"Scotmid","brand:wikidata":"Q7435719","brand:wikipedia":"en:Scotmid"}}, "geometry":{"type":"MultiPolygon","coordinates":[[[[-3.18601,56.19267],[-3.18595,56.19288],[-3.18571,56.19286],[-3.18576,56.19265],[-3.18601,56.19267]]]]}}
]
}
