{
"type": "FeatureCollection",
"features": [
{ "type":"Feature","properties":{"osm_id":"5339747648","other":{"emergency":"defibrillator","location:ref":"AAA30"}}, "geometry":{"type":"Point","coordinates":[-1.28136,53.00615 ]}},
{ "type":"Feature","properties":{"osm_id":"8744850351","name":"M&S Simply Food","other":{"addr:place":"M1 Trowell Services Southbound","addr:postcode":"NG9 3PL","brand":"M&S Simply Food","brand:wikidata":"Q714491","brand:wikipedia":"en:Marks & Spencer","fhrs:id":"983943","shop":"supermarket"}}, "geometry":{"type":"Point","coordinates":[-1.26771,52.96136 ]}},
{ "type":"Feature","properties":{"osm_way_id":"16202318","name":"Sainsbury's","building":"retail","shop":"supermarket","other":{"addr:postcode":"NG9 2LA","addr:street":"Stoney Street","brand":"Sainsbury's","brand:wikidata":"Q152096","brand:wikipedia":"en:Sainsbury's","fhrs:id":"566507","is_in":"Nottingham,Nottinghamshire,United Kingdom","is_in:city":"Nottingham","is_in:county":"Nottinghamshire","wheelchair":"yes"}}, "geometry":{"type":"MultiPolygon","coordinates":[[[[-1.21419,52.92853],[-1.21411,52.92858],[-1.21413,52.92859],[-1.2141,52.92861],[-1.21413,52.92863],[-1.21416,52.92861],[-1.21417,52.92862],[-1.21405,52.92869],[-1.21409,52.92877],[-1.21419,52.92883],[-1.2141,52.92888],[-1.2141,52.92894],[-1.21444,52.92914],[-1.21452,52.92914],[-1.21463,52.92907],[-1.21488,52.92921],[-1.21518,52.92903],[-1.21524,52.92906],[-1.21546,52.92893],[-1.21449,52.92835],[-1.21437,52.92842],[-1.21419,52.92853]]]]}},
{ "type":"Feature","properties":{"osm_way_id":"29381331","name":"M&S Foodhall","building":"retail","shop":"supermarket","other":{"addr:city":"Nottingham","addr:place":"Chilwell Retail Park","addr:postcode":"NG9 6DS","addr:street":"Barton Lane","addr:suburb":"Attenborough","addr:unit":"5C","brand":"M&S Foodhall","brand:wikidata":"Q714491","brand:wikipedia":"en:Marks & Spencer","fhrs:id":"951481","old_name":"Wickes","old_shop":"doityourself","source:postcode":"ONS"}}, "geometry":{"type":"MultiPolygon","coordinates":[[[[-1.24484,52.90252],[-1.24462,52.90242],[-1.24423,52.90276],[-1.24418,52.9028],[-1.24441,52.9029],[-1.24484,52.90252]]]]}},
{ "type":"Feature","properties":{"osm_way_id":"29381552","name":"Lidl","building":"retail","shop":"supermarket","other":{"addr:city":"Nottingham","addr:housename":"West Point Shopping Centre","addr:postcode":"NG9 6DX","addr:street":"Ranson Road","addr:suburb":"Chilwell","brand":"Lidl","brand:wikidata":"Q151954","brand:wikipedia":"en:Lidl","fhrs:id":"566092","opening_hours":"Mo-Sa 08:00-21:00; Su 10:00-16:00; PH 08:00-20:00"}}, "geometry":{"type":"MultiPolygon","coordinates":[[[[-1.24209,52.90518],[-1.24182,52.90526],[-1.24138,52.90537],[-1.24131,52.90528],[-1.24123,52.9053],[-1.24115,52.90519],[-1.24195,52.90497],[-1.24209,52.90518]]]]}},
{ "type":"Feature","properties":{"osm_way_id":"70971827","name":"Morrisons","building":"retail","shop":"supermarket","other":{"addr:postcode":"NG16 3SG","addr:street":"Kelham Way","brand":"Morrisons","brand:wikidata":"Q922344","brand:wikipedia":"en:Morrisons","fhrs:id":"566760","source:addr":"Food hygiene opendata"}}, "geometry":{"type":"MultiPolygon","coordinates":[[[[-1.31067,53.01892],[-1.31072,53.01891],[-1.31069,53.01887],[-1.31086,53.01882],[-1.31088,53.01885],[-1.31095,53.01883],[-1.31098,53.01884],[-1.31096,53.01886],[-1.31114,53.0189],[-1.31112,53.01895],[-1.31159,53.01903],[-1.3116,53.01901],[-1.31179,53.01904],[-1.31172,53.01917],[-1.31181,53.01919],[-1.31165,53.0195],[-1.31148,53.01947],[-1.31135,53.01973],[-1.31107,53.01968],[-1.31113,53.01957],[-1.31097,53.01954],[-1.31092,53.01965],[-1.31045,53.01957],[-1.31064,53.01918],[-1.31066,53.01915],[-1.31061,53.01914],[-1.3107,53.01896],[-1.31066,53.01895],[-1.31067,53.01892]]]]}},
{ "type":"Feature","properties":{"osm_way_id":"84037800","name":"Tesco Extra","building":"yes","shop":"supermarket","other":{"addr:city":"Nottingham","addr:housenumber":"1","addr:postcode":"NG9 2WJ","addr:street":"Station Road","addr:suburb":"Beeston","brand":"Tesco Extra","brand:wikidata":"Q25172225","brand:wikipedia":"en:Tesco Extra","building:levels":"2","fhrs:id":"566633","source:area":"gps;approximate","source:postcode":"ONS","wheelchair":"yes"}}, "geometry":{"type":"MultiPolygon","coordinates":[[[[-1.2123,52.92617],[-1.21298,52.9257],[-1.21322,52.92567],[-1.21387,52.92598],[-1.21392,52.92595],[-1.21401,52.92602],[-1.214,52.92603],[-1.21442,52.92629],[-1.21431,52.92634],[-1.21392,52.9261],[-1.21377,52.92619],[-1.21362,52.92633],[-1.21356,52.92638],[-1.21345,52.92646],[-1.2135,52.92648],[-1.21345,52.92653],[-1.21341,52.92657],[-1.21335,52.92655],[-1.21332,52.92658],[-1.21335,52.92659],[-1.2133,52.92662],[-1.21317,52.92656],[-1.21318,52.92654],[-1.2128,52.92639],[-1.21275,52.92642],[-1.21271,52.92639],[-1.21259,52.92647],[-1.21257,52.92649],[-1.21251,52.92645],[-1.21253,52.92643],[-1.21247,52.9264],[-1.21252,52.92636],[-1.21241,52.92629],[-1.21247,52.92625],[-1.2124,52.92622],[-1.2123,52.92617]]]]}},
{ "type":"Feature","properties":{"osm_way_id":"97704176","name":"Tesco","building":"retail","shop":"supermarket","other":{"addr:city":"Billingham","addr:postcode":"TS23 3TA","addr:street":"Leeholme Road","brand":"Tesco","brand:wikidata":"Q487494","brand:wikipedia":"en:Tesco","building:levels":"1","fhrs:id":"251090","opening_hours":"Tu-Fr 06:00-24:00; Sa 06:00-22:00; Su 10:00-16:00","operator":"Tesco","roof:shape":"flat","source:addr":"FHRS Open Data"}}, "geometry":{"type":"MultiPolygon","coordinates":[[[[-1.27949,54.60706],[-1.27867,54.60747],[-1.27888,54.60761],[-1.27879,54.60765],[-1.27878,54.60773],[-1.27909,54.60793],[-1.27924,54.60786],[-1.27937,54.60794],[-1.2801,54.60757],[-1.28015,54.6076],[-1.28035,54.6075],[-1.28023,54.60743],[-1.28017,54.60746],[-1.27962,54.60709],[-1.27957,54.60711],[-1.27949,54.60706]]]]}},
{ "type":"Feature","properties":{"osm_way_id":"158572551","name":"Lidl","building":"yes","shop":"supermarket","other":{"addr:housenumber":"69-87","addr:postcode":"NG9 2NG","addr:street":"Wollaton Road","brand":"Lidl","brand:wikidata":"Q151954","brand:wikipedia":"en:Lidl","fhrs:id":"566240","source:addr":"FSA Food Hygiene Open Data Broxtowe","source:area":"approx","wheelchair":"yes"}}, "geometry":{"type":"MultiPolygon","coordinates":[[[[-1.21817,52.92911],[-1.21911,52.92863],[-1.21922,52.9287],[-1.2191,52.92876],[-1.21929,52.9289],[-1.21913,52.92898],[-1.21909,52.92896],[-1.21867,52.92917],[-1.2187,52.9292],[-1.21846,52.92932],[-1.21817,52.92911]]]]}},
{ "type":"Feature","properties":{"osm_way_id":"199276094","name":"Sainsbury's","building":"retail","shop":"supermarket","other":{"addr:postcode":"NG16 2LY","addr:street":"Greens Lane","brand":"Sainsbury's","brand:wikidata":"Q152096","brand:wikipedia":"en:Sainsbury's","fhrs:id":"566419","source:addr":"Food Hygiene Open Data"}}, "geometry":{"type":"MultiPolygon","coordinates":[[[[-1.25517,52.99633],[-1.25514,52.99633],[-1.2552,52.99622],[-1.25511,52.9962],[-1.25517,52.9961],[-1.25459,52.99598],[-1.25453,52.99597],[-1.25449,52.99604],[-1.25435,52.99601],[-1.25433,52.99605],[-1.25419,52.99602],[-1.25386,52.9966],[-1.25417,52.99666],[-1.25418,52.99665],[-1.25483,52.99678],[-1.25501,52.99647],[-1.2551,52.99649],[-1.25519,52.99634],[-1.25517,52.99633]]]]}},
{ "type":"Feature","properties":{"osm_way_id":"218905449","name":"Tesco Extra","building":"yes","shop":"supermarket","other":{"addr:city":"Nottingham","addr:postcode":"NG9 6GX","addr:street":"Swiney Way","addr:suburb":"Toton","brand":"Tesco Extra","brand:wikidata":"Q25172225","brand:wikipedia":"en:Tesco Extra","fhrs:id":"566709","opening_hours":"Mo-Sa 06:00-00:00; Su, PH 10:00-16:00","source:addr":"FSA Food Hygiene Open Data Broxtowe"}}, "geometry":{"type":"MultiPolygon","coordinates":[[[[-1.25497,52.90888],[-1.25503,52.90886],[-1.25518,52.90907],[-1.25668,52.90869],[-1.2567,52.90872],[-1.25685,52.90868],[-1.25684,52.90865],[-1.25696,52.90862],[-1.25691,52.90855],[-1.25697,52.90854],[-1.25664,52.90807],[-1.25605,52.90822],[-1.25607,52.90824],[-1.25536,52.90842],[-1.25541,52.90848],[-1.25488,52.90862],[-1.25491,52.90866],[-1.25484,52.90868],[-1.25497,52.90888]]]]}},
{ "type":"Feature","properties":{"osm_way_id":"326022856","name":"Heron Foods","building":"retail","shop":"supermarket","other":{"addr:city":"Nottingham","addr:housenumber":"43","addr:postcode":"NG16 2PB","addr:street":"Greens Lane","addr:suburb":"Kimberley","brand":"Heron Foods","brand:wikidata":"Q5743472","brand:wikipedia":"en:Heron Foods","contact:website":"https:\/\/heronfoods.com\/storelocator\/store-details\/kimberley","fhrs:id":"566680","source:addr":"Food Hygiene Open Data"}}, "geometry":{"type":"MultiPolygon","coordinates":[[[[-1.25601,52.99698],[-1.25585,52.99689],[-1.25569,52.997],[-1.25593,52.99713],[-1.25598,52.9971],[-1.25609,52.99702],[-1.25601,52.99698]]]]}},
{ "type":"Feature","properties":{"osm_way_id":"327339637","name":"Heron Foods","building":"retail","shop":"supermarket","other":{"addr:city":"Nottingham","addr:housenumber":"101","addr:postcode":"NG16 3AJ","addr:street":"Nottingham Road","addr:suburb":"Eastwood","brand":"Heron Foods","brand:wikidata":"Q5743472","brand:wikipedia":"en:Heron Foods","contact:website":"https:\/\/heronfoods.com\/storelocator\/store-details\/eastwood","fhrs:id":"566337","source:addr":"FSA Food Hygiene Open Data","source:area":"Bing"}}, "geometry":{"type":"MultiPolygon","coordinates":[[[[-1.30245,53.01744],[-1.30261,53.01748],[-1.30251,53.01762],[-1.30241,53.01775],[-1.30239,53.01777],[-1.30222,53.01773],[-1.30245,53.01744]]]]}},
{ "type":"Feature","properties":{"osm_way_id":"328673355","name":"Co-op Food","building":"pub","shop":"supermarket","other":{"addr:city":"Nottingham","addr:housenumber":"111","addr:postcode":"NG16 2JE","addr:street":"Maws Lane","addr:suburb":"Kimberley","alt_name":"Maws Lane's Co-op","brand":"Co-op Food","brand:wikidata":"Q3277439","brand:wikipedia":"en:Co-op Food","fhrs:id":"1334767","old_amenity":"pub","old_name":"Golden Guinea","operator":"The Co-operative Group","operator:wikidata":"Q117202","operator:wikipedia":"en:The Co-operative Group","source:addr":"Food Hygiene Open Data"}}, "geometry":{"type":"MultiPolygon","coordinates":[[[[-1.26615,53.00211],[-1.2661,53.00208],[-1.26604,53.00212],[-1.266,53.0021],[-1.26599,53.00212],[-1.26593,53.00208],[-1.26595,53.00206],[-1.26586,53.00202],[-1.26592,53.00198],[-1.2659,53.00196],[-1.26596,53.00193],[-1.26597,53.00193],[-1.26603,53.00189],[-1.26629,53.00204],[-1.26626,53.00206],[-1.26624,53.00205],[-1.26615,53.00211]]]]}},
{ "type":"Feature","properties":{"osm_way_id":"553135608","name":"The Co-operative Food","shop":"supermarket","other":{"addr:city":"Nottingham","addr:housenumber":"519","addr:postcode":"NG16 2GS","addr:street":"Nottingham Road","addr:suburb":"Giltbrook","brand":"The Co-operative Food","brand:wikidata":"Q107617274","brand:wikipedia":"en:Co-op Food","fhrs:id":"950430","operator":"The Co-operative Group","operator:wikidata":"Q117202","operator:wikipedia":"en:The Co-operative Group"}}, "geometry":{"type":"MultiPolygon","coordinates":[[[[-1.28109,53.00619],[-1.28122,53.00628],[-1.28126,53.00631],[-1.28145,53.00621],[-1.28136,53.00615],[-1.2813,53.00611],[-1.28122,53.00616],[-1.28119,53.00614],[-1.28109,53.00619]]]]}},
{ "type":"Feature","properties":{"osm_way_id":"741346616","name":"ALDI","building":"retail","shop":"supermarket","other":{"addr:city":"Nottingham","addr:postcode":"NG9 8AD","addr:street":"Nottingham Road","addr:suburb":"Stapleford","brand":"ALDI","brand:wikidata":"Q41171672","brand:wikipedia":"en:Aldi","fhrs:id":"1193079","start_date":"2019-11-28"}}, "geometry":{"type":"MultiPolygon","coordinates":[[[[-1.27074,52.93147],[-1.27133,52.93114],[-1.27171,52.93137],[-1.27137,52.93156],[-1.27131,52.93153],[-1.27102,52.9317],[-1.27092,52.93163],[-1.27096,52.93161],[-1.27074,52.93147]]]]}}
]
}
