{
"type": "FeatureCollection",
"features": [
{ "type":"Feature","properties":{"osm_id":"7805023344","other":{"amenity":"grit_bin"}}, "geometry":{"type":"Point","coordinates":[-1.24508,52.92945 ]}},
{ "type":"Feature","properties":{"osm_way_id":"23571754","building":"warehouse"},"geometry":{"type":"MultiPolygon","coordinates":[[[[-0.13305,51.3859],[-0.13291,51.38572],[-0.13248,51.38586],[-0.13243,51.38579],[-0.13184,51.38598],[-0.13211,51.38623],[-0.13305,51.3859]]]]}},
{ "type":"Feature","properties":{"osm_way_id":"23571755","building":"warehouse"},"geometry":{"type":"MultiPolygon","coordinates":[[[[-0.13294,51.38558],[-0.1328,51.38542],[-0.13335,51.38522],[-0.13351,51.38538],[-0.13294,51.38558]]]]}},
{ "type":"Feature","properties":{"osm_way_id":"23571756","building":"warehouse"},"geometry":{"type":"MultiPolygon","coordinates":[[[[-0.13307,51.38503],[-0.13283,51.38479],[-0.13171,51.38518],[-0.13194,51.38543],[-0.13307,51.38503]]]]}},
{ "type":"Feature","properties":{"osm_way_id":"23571757","building":"warehouse"},"geometry":{"type":"MultiPolygon","coordinates":[[[[-0.13328,51.38367],[-0.13282,51.38386],[-0.13327,51.38427],[-0.13374,51.38408],[-0.13328,51.38367]]]]}},
{ "type":"Feature","properties":{"osm_way_id":"23571758","building":"warehouse"},"geometry":{"type":"MultiPolygon","coordinates":[[[[-0.13207,51.38418],[-0.13132,51.3845],[-0.13185,51.38498],[-0.13262,51.38466],[-0.13207,51.38418]]]]}},
{ "type":"Feature","properties":{"osm_way_id":"34551207","name":"Sainsbury's Argos Nottingham LFC","building":"warehouse","other":{"addr:city":"Nottingham","addr:housenumber":"101","addr:postcode":"NG9 1PF","addr:street":"Lilac Grove","addr:suburb":"Beeston Rylands","fhrs:id":"1413129","old_name":"HayssenSandiacre","old_name:2":"Hayssen Flexible Systems","old_website":"http:\/\/www.hayssen.com\/","source:addr":"website"}}, "geometry":{"type":"MultiPolygon","coordinates":[[[[-1.20018,52.92469],[-1.19945,52.92516],[-1.19912,52.92497],[-1.19901,52.92505],[-1.19855,52.92479],[-1.19866,52.92472],[-1.19858,52.92468],[-1.19931,52.9242],[-1.20018,52.92469]]]]}},
{ "type":"Feature","properties":{"osm_way_id":"154328005","building":"warehouse"},"geometry":{"type":"MultiPolygon","coordinates":[[[[-1.21587,52.92602],[-1.21599,52.92609],[-1.21601,52.92608],[-1.21604,52.92609],[-1.21606,52.92608],[-1.21591,52.92599],[-1.21587,52.92602]]]]}},
{ "type":"Feature","properties":{"osm_way_id":"154328015","building":"warehouse"},"geometry":{"type":"MultiPolygon","coordinates":[[[[-1.21614,52.92613],[-1.21612,52.92614],[-1.21604,52.92609],[-1.21606,52.92608],[-1.21614,52.92613]]]]}},
{ "type":"Feature","properties":{"osm_way_id":"220442824","name":"Natgraph","building":"warehouse","other":{"addr:city":"Nottingham","addr:postcode":"NG6 8WA","addr:street":"Dabell Avenue","source:addr":"Companies House Registered Companies","source:building":"Bing"}}, "geometry":{"type":"MultiPolygon","coordinates":[[[[-1.22242,53.00736],[-1.22246,53.00736],[-1.22246,53.00734],[-1.22309,53.00735],[-1.22308,53.0076],[-1.22246,53.0076],[-1.22246,53.00742],[-1.22242,53.00742],[-1.22242,53.00759],[-1.22196,53.00759],[-1.22196,53.00704],[-1.22243,53.00704],[-1.22242,53.00736]]]]}},
{ "type":"Feature","properties":{"osm_way_id":"220442834","building":"warehouse"},"geometry":{"type":"MultiPolygon","coordinates":[[[[-1.22162,53.00764],[-1.221,53.00764],[-1.22101,53.00736],[-1.22103,53.00736],[-1.22103,53.00692],[-1.22163,53.00692],[-1.22162,53.00764]]]]}},
{ "type":"Feature","properties":{"osm_way_id":"220442840","name":"Asiana","building":"warehouse","other":{"addr:city":"Nottingham","addr:housenumber":"4","addr:postcode":"NG6 8WA","addr:street":"Dabell Avenue","addr:unit":"1","old_fhrs:id":"216743","source:addr":"FHRS Open Data","source:building":"Bing","website":"https:\/\/www.asianaltd.com\/"}}, "geometry":{"type":"MultiPolygon","coordinates":[[[[-1.21995,53.00763],[-1.21935,53.00763],[-1.21935,53.00691],[-1.21995,53.00691],[-1.21995,53.00763]]]]}},
{ "type":"Feature","properties":{"osm_way_id":"263280151","building":"warehouse"},"geometry":{"type":"MultiPolygon","coordinates":[[[[-1.24904,53.00423],[-1.24888,53.00397],[-1.24862,53.00403],[-1.24878,53.00429],[-1.24904,53.00423]]]]}},
{ "type":"Feature","properties":{"osm_way_id":"263280153","building":"warehouse"},"geometry":{"type":"MultiPolygon","coordinates":[[[[-1.24775,53.00382],[-1.24768,53.00367],[-1.24732,53.00374],[-1.2474,53.00388],[-1.24775,53.00382]]]]}},
{ "type":"Feature","properties":{"osm_way_id":"263280155","building":"warehouse"},"geometry":{"type":"MultiPolygon","coordinates":[[[[-1.26402,52.9985],[-1.26397,52.99837],[-1.26333,52.99845],[-1.26338,52.99858],[-1.26402,52.9985]]]]}},
{ "type":"Feature","properties":{"osm_way_id":"263280173","building":"warehouse"},"geometry":{"type":"MultiPolygon","coordinates":[[[[-1.2482,53.00375],[-1.24816,53.00367],[-1.24801,53.00371],[-1.24796,53.00364],[-1.24774,53.00369],[-1.24782,53.00383],[-1.2482,53.00375]]]]}},
{ "type":"Feature","properties":{"osm_way_id":"263280179","building":"warehouse"},"geometry":{"type":"MultiPolygon","coordinates":[[[[-1.24848,53.00435],[-1.2483,53.00406],[-1.2482,53.00408],[-1.24818,53.00406],[-1.24806,53.00409],[-1.24807,53.00411],[-1.24805,53.00411],[-1.24823,53.00441],[-1.24848,53.00435]]]]}},
{ "type":"Feature","properties":{"osm_way_id":"263280180","building":"warehouse"},"geometry":{"type":"MultiPolygon","coordinates":[[[[-1.24939,53.00416],[-1.24929,53.00399],[-1.24913,53.00403],[-1.24909,53.00401],[-1.24901,53.00403],[-1.24903,53.00405],[-1.24895,53.00407],[-1.24904,53.00423],[-1.24939,53.00416]]]]}},
{ "type":"Feature","properties":{"osm_way_id":"263280181","building":"warehouse"},"geometry":{"type":"MultiPolygon","coordinates":[[[[-1.24956,53.0037],[-1.24953,53.00365],[-1.24894,53.00378],[-1.24904,53.00394],[-1.24963,53.00382],[-1.2496,53.00378],[-1.24956,53.0037]]]]}},
{ "type":"Feature","properties":{"osm_way_id":"263280183","building":"warehouse"},"geometry":{"type":"MultiPolygon","coordinates":[[[[-1.24876,53.00429],[-1.24857,53.004],[-1.24848,53.00402],[-1.24847,53.004],[-1.24833,53.00403],[-1.24834,53.00405],[-1.24833,53.00406],[-1.24851,53.00435],[-1.24876,53.00429]]]]}},
{ "type":"Feature","properties":{"osm_way_id":"263280203","building":"warehouse"},"geometry":{"type":"MultiPolygon","coordinates":[[[[-1.24794,53.00416],[-1.24786,53.00418],[-1.24785,53.00416],[-1.24767,53.0042],[-1.24764,53.00416],[-1.24754,53.00418],[-1.24751,53.00414],[-1.24762,53.00412],[-1.2476,53.0041],[-1.24786,53.00404],[-1.24794,53.00416]]]]}},
{ "type":"Feature","properties":{"osm_way_id":"815745461","building":"industrial"},"geometry":{"type":"MultiPolygon","coordinates":[[[[-1.26331,52.99826],[-1.26339,52.99823],[-1.26325,52.99809],[-1.26317,52.99812],[-1.26331,52.99826]]]]}}
]
}
