{
"type": "FeatureCollection",
"features": [
{ "type":"Feature","properties":{"osm_id":"2648133765","name":"Aldi","other":{"brand":"ALDI","brand:wikidata":"Q41171672","brand:wikipedia":"en:Aldi","shop":"supermarket"}}, "geometry":{"type":"Point","coordinates":[-2.82994,53.36082 ]}},
{ "type":"Feature","properties":{"osm_id":"4795819559","name":"Home Bargains","other":{"shop":"supermarket"}}, "geometry":{"type":"Point","coordinates":[-2.8033,53.42875 ]}},
{ "type":"Feature","properties":{"osm_id":"5415950921","name":"OLYMPIC OILS (WHOLESALE)","other":{"shop":"supermarket","name:en":"OLYMPIC OILS (WHOLESALE)"}}, "geometry":{"type":"Point","coordinates":[-2.80907,53.40375 ]}},
{ "type":"Feature","properties":{"osm_id":"5415950922","name":"ALFRED PRICES FRUIT IMPORTERS","other":{"shop":"supermarket","name:en":"ALFRED PRICES FRUIT IMPORTERS"}}, "geometry":{"type":"Point","coordinates":[-2.86261,53.46156 ]}},
{ "type":"Feature","properties":{"osm_id":"6397063121","name":"Heron Foods","other":{"shop":"supermarket","brand":"Heron Foods","fhrs:id":"220778","addr:city":"Huyton","addr:street":"Derby Road","addr:country":"GB","addr:postcode":"L36 9UQ","brand:wikidata":"Q5743472","brand:wikipedia":"en:Heron Foods","contact:website":"https:\/\/heronfoods.com\/storelocator\/store-details\/huyton","addr:housenumber":"63,65"}}, "geometry":{"type":"Point","coordinates":[-2.83907,53.41112 ]}},
{ "type":"Feature","properties":{"osm_id":"6415134286","name":"Wilko","other":{"brand:wikidata":"Q8002536","contact:website":"https:\/\/stores.wilko.com\/gb\/huyton\/unit-20","shop":"supermarket"}}, "geometry":{"type":"Point","coordinates":[-2.83855,53.41285 ]}},
{ "type":"Feature","properties":{"osm_way_id":"27151093","name":"Asda","building":"yes","shop":"supermarket","other":{"brand":"Asda","fhrs:id":"221183","operator":"Asda Stores Ltd","addr:city":"Liverpool","addr:street":"Huyton Lane","addr:country":"GB","addr:postcode":"L36 7TX","brand:wikidata":"Q297410","brand:wikipedia":"en:Asda","contact:website":"https:\/\/storelocator.asda.com\/north-west\/liverpool\/huyton-lane"}}, "geometry":{"type":"MultiPolygon","coordinates":[[[[-2.83784,53.41325],[-2.83765,53.41233],[-2.83763,53.41227],[-2.83636,53.41237],[-2.83621,53.41253],[-2.83639,53.41336],[-2.83647,53.41335],[-2.83681,53.41333],[-2.83686,53.41332],[-2.83701,53.41331],[-2.83706,53.41331],[-2.83769,53.41326],[-2.83784,53.41325]]]]}},
{ "type":"Feature","properties":{"osm_way_id":"438207540","name":"M.P. Food, News & Wine Store","building":"yes","shop":"supermarket"},"geometry":{"type":"MultiPolygon","coordinates":[[[[-2.78672,53.41317],[-2.78635,53.41319],[-2.78633,53.41305],[-2.78637,53.41305],[-2.78636,53.41303],[-2.78647,53.41303],[-2.78647,53.41301],[-2.78657,53.41301],[-2.78658,53.41307],[-2.78661,53.41307],[-2.78661,53.41311],[-2.78671,53.4131],[-2.78672,53.41317]]]]}},
{ "type":"Feature","properties":{"osm_way_id":"454345520","name":"Tesco Extra","building":"yes","shop":"supermarket","other":{"brand":"Tesco Extra","brand:wikidata":"Q25172225","brand:wikipedia":"en:Tesco Extra"}}, "geometry":{"type":"MultiPolygon","coordinates":[[[[-2.80423,53.42683],[-2.80409,53.4269],[-2.80405,53.42686],[-2.80388,53.42689],[-2.80391,53.42694],[-2.8035,53.42701],[-2.80348,53.42696],[-2.80313,53.42702],[-2.8027,53.42708],[-2.80265,53.42696],[-2.80242,53.427],[-2.8024,53.42695],[-2.80237,53.42695],[-2.80227,53.42673],[-2.80252,53.42669],[-2.80295,53.42663],[-2.80283,53.42636],[-2.80279,53.42627],[-2.80354,53.42615],[-2.80404,53.42607],[-2.80454,53.42599],[-2.80482,53.42657],[-2.80477,53.42658],[-2.80483,53.42672],[-2.80423,53.42683]]]]}},
{ "type":"Feature","properties":{"osm_way_id":"456427113","name":"Heron Foods","building":"yes","shop":"supermarket","other":{"brand":"Heron Foods","fhrs:id":"858267","addr:city":"Prescot","addr:street":"Eccleston Street","addr:country":"GB","addr:postcode":"L34 5QA","brand:wikidata":"Q5743472","brand:wikipedia":"en:Heron Foods","contact:website":"https:\/\/heronfoods.com\/storelocator\/store-details\/prescot","addr:housenumber":"43"}}, "geometry":{"type":"MultiPolygon","coordinates":[[[[-2.80422,53.42936],[-2.80401,53.42942],[-2.80395,53.42935],[-2.80388,53.42926],[-2.80372,53.42931],[-2.8038,53.42942],[-2.80394,53.4296],[-2.80427,53.42952],[-2.80429,53.42949],[-2.80428,53.42944],[-2.80425,53.42942],[-2.8042,53.4294],[-2.80424,53.4294],[-2.80424,53.42938],[-2.80422,53.42936]]]]}},
{ "type":"Feature","properties":{"osm_way_id":"474845024","name":"Home Bargains","building":"yes","shop":"supermarket"},"geometry":{"type":"MultiPolygon","coordinates":[[[[-2.80404,53.42288],[-2.80304,53.42289],[-2.80302,53.42249],[-2.80357,53.42249],[-2.80404,53.42248],[-2.80404,53.42288]]]]}},
{ "type":"Feature","properties":{"osm_way_id":"916578808","name":"ALDI","building":"yes","shop":"supermarket","other":{"brand":"ALDI","brand:wikidata":"Q41171672","brand:wikipedia":"en:Aldi"}}, "geometry":{"type":"MultiPolygon","coordinates":[[[[-2.81451,53.39829],[-2.81436,53.39852],[-2.81438,53.39853],[-2.81422,53.39877],[-2.81387,53.39869],[-2.81386,53.39871],[-2.81373,53.39868],[-2.81388,53.39844],[-2.81381,53.39842],[-2.81387,53.39834],[-2.81394,53.39836],[-2.81406,53.39818],[-2.81451,53.39829]]]]}},
{ "type":"Feature","properties":{"osm_way_id":"983045150","name":"Lidl","building":"yes","shop":"supermarket","other":{"addr:city":"Knowsley","addr:postcode":"L36 3YB","addr:street":"Liverpool Road","brand":"Lidl","brand:wikidata":"Q151954","brand:wikipedia":"en:Lidl","fhrs:id":"220832","source:addr":"FHRS Open Data","website":"https:\/\/www.lidl.co.uk\/"}}, "geometry":{"type":"MultiPolygon","coordinates":[[[[-2.86224,53.42218],[-2.86293,53.42203],[-2.86299,53.42213],[-2.86297,53.42213],[-2.86308,53.42232],[-2.86207,53.42253],[-2.86203,53.42247],[-2.86212,53.42245],[-2.86202,53.42228],[-2.86227,53.42222],[-2.86224,53.42218]]]]}}
]
}
