{
"type": "FeatureCollection",
"features": [
{ "type":"Feature","properties":{"osm_way_id":"23687338","name":"Cover Security Gates","building":"warehouse"},"geometry":{"type":"MultiPolygon","coordinates":[[[[-0.17184,51.13426],[-0.1717,51.13429],[-0.17138,51.13436],[-0.17146,51.1345],[-0.17127,51.13454],[-0.1714,51.13477],[-0.17204,51.13463],[-0.17184,51.13426]]]]}},
{ "type":"Feature","properties":{"osm_way_id":"23687339","name":"SIG Manuafacturing","building":"warehouse"},"geometry":{"type":"MultiPolygon","coordinates":[[[[-0.17028,51.13453],[-0.16926,51.13475],[-0.16949,51.13517],[-0.17051,51.13495],[-0.17028,51.13453]]]]}},
{ "type":"Feature","properties":{"osm_way_id":"23687410","name":"Eezehaul Ltd","building":"warehouse","other":{"addr:city":"crawley","addr:housename":"Unit 3 The Drive","addr:postcode":"RH10 9AN","addr:street":"Gatwick Road","building:levels":"1"}}, "geometry":{"type":"MultiPolygon","coordinates":[[[[-0.16627,51.13445],[-0.16625,51.13424],[-0.16566,51.13427],[-0.16561,51.13377],[-0.16395,51.13383],[-0.16393,51.13388],[-0.16357,51.13389],[-0.16356,51.1341],[-0.16357,51.13434],[-0.16395,51.13433],[-0.16401,51.13438],[-0.16567,51.13432],[-0.16568,51.13441],[-0.16597,51.1344],[-0.16598,51.13446],[-0.16627,51.13445]]]]}},
{ "type":"Feature","properties":{"osm_way_id":"23687449","name":"Ocado","building":"warehouse","other":{"addr:city":"Crawley","addr:housename":"Unit 1","addr:postcode":"RH11 7SS","addr:street":"Whitworth Road","building:levels":"2"}}, "geometry":{"type":"MultiPolygon","coordinates":[[[[-0.19014,51.13669],[-0.18927,51.13661],[-0.18942,51.13596],[-0.18954,51.13597],[-0.19006,51.13601],[-0.19029,51.13604],[-0.19024,51.13626],[-0.19014,51.13669]]]]}},
{ "type":"Feature","properties":{"osm_way_id":"427346493","building":"warehouse"},"geometry":{"type":"MultiPolygon","coordinates":[[[[-0.17785,51.13733],[-0.1778,51.13726],[-0.17733,51.13651],[-0.17736,51.1365],[-0.17731,51.13642],[-0.17568,51.13683],[-0.17618,51.13762],[-0.17657,51.13752],[-0.17662,51.13759],[-0.17689,51.13753],[-0.17685,51.13745],[-0.17701,51.13741],[-0.17767,51.13724],[-0.17774,51.13736],[-0.17785,51.13733]]]]}},
{ "type":"Feature","properties":{"osm_way_id":"982278247","building":"warehouse"},"geometry":{"type":"MultiPolygon","coordinates":[[[[-0.14296,51.15571],[-0.14291,51.15538],[-0.14264,51.15539],[-0.14269,51.15572],[-0.14287,51.15571],[-0.14296,51.15571]]]]}},
{ "type":"Feature","properties":{"osm_way_id":"982278267","building":"warehouse"},"geometry":{"type":"MultiPolygon","coordinates":[[[[-0.13948,51.14997],[-0.13946,51.14993],[-0.13938,51.14994],[-0.13939,51.14998],[-0.13948,51.14997]]]]}}
]
}
