{
"type": "FeatureCollection",
"features": [
{ "type":"Feature","properties":{"osm_id":"3255358752","name":"Aldi","other":{"addr:city":"Sunderland","addr:postcode":"SR5 3XG","addr:street":"Timber Beach Road","brand":"ALDI","brand:wikidata":"Q41171672","brand:wikipedia":"en:Aldi","shop":"supermarket"}}, "geometry":{"type":"Point","coordinates":[-1.43185,54.91788 ]}},
{ "type":"Feature","properties":{"osm_id":"3733291809","name":"The Co-operative Food","other":{"operator":"The Co-operative Group","shop":"supermarket"}}, "geometry":{"type":"Point","coordinates":[-1.52191,54.9126 ]}},
{ "type":"Feature","properties":{"osm_id":"3860754056","name":"Jacky White's Market","other":{"addr:city":"Sunderland","addr:street":"South Street","shop":"supermarket","website":"http:\/\/www.jackywhitesmarket.co.uk\/"}}, "geometry":{"type":"Point","coordinates":[-1.38365,54.90624 ]}},
{ "type":"Feature","properties":{"osm_id":"3860777487","name":"Tesco Metro","other":{"addr:city":"Sunderland","addr:housenumber":"80","addr:postcode":"SR1 3LE","addr:street":"The Bridges Shopping Centre","brand":"Tesco Metro","brand:wikidata":"Q57551648","fhrs:id":"651859","shop":"supermarket"}}, "geometry":{"type":"Point","coordinates":[-1.38519,54.90687 ]}},
{ "type":"Feature","properties":{"osm_id":"3891454596","name":"Morrisons","other":{"addr:city":"Sunderland","addr:street":"Castle View","shop":"supermarket","wheelchair":"no"}}, "geometry":{"type":"Point","coordinates":[-1.4362,54.91818 ]}},
{ "type":"Feature","properties":{"osm_id":"3974100314","name":"M&S Simply Food","other":{"addr:city":"Washington","addr:postcode":"NE38 7SD","addr:street":"Galleries Shopping Centre","brand":"M&S Simply Food","brand:wikidata":"Q714491","brand:wikipedia":"en:Marks & Spencer","shop":"supermarket"}}, "geometry":{"type":"Point","coordinates":[-1.53327,54.9027 ]}},
{ "type":"Feature","properties":{"osm_id":"3974106067","name":"Aldi","other":{"addr:city":"Washington","addr:place":"Galleries Retail Park","addr:postcode":"NE38 7RW","addr:unit":"C","brand":"ALDI","brand:wikidata":"Q41171672","brand:wikipedia":"en:Aldi","fhrs:id":"652259","shop":"supermarket","source:addr":"FHRS Open Data"}}, "geometry":{"type":"Point","coordinates":[-1.53009,54.90402 ]}},
{ "type":"Feature","properties":{"osm_id":"4036562899","name":"Asda","other":{"addr:city":"Sunderland","addr:country":"GB","addr:housename":"Pennywell Shopping Centre","addr:postcode":"SR4 9AS","addr:street":"Parkhurst Road","addr:unit":"2","brand":"Asda","brand:wikidata":"Q297410","brand:wikipedia":"en:Asda","contact:facebook":"https:\/\/www.facebook.com\/asda\/","contact:twitter":"@asda","contact:website":"https:\/\/storelocator.asda.com\/north-east\/sunderland\/portsmouth-road-pennywell","fhrs:id":"652245","operator":"Asda Stores Ltd","shop":"supermarket"}}, "geometry":{"type":"Point","coordinates":[-1.43979,54.89692 ]}},
{ "type":"Feature","properties":{"osm_id":"4045772053","name":"Heron Foods","other":{"addr:city":"Sunderland","addr:country":"GB","addr:housename":"Arndale House","addr:postcode":"NE37 2SY","addr:street":"Victoria Road","addr:unit":"9","brand":"Heron Foods","brand:wikidata":"Q5743472","brand:wikipedia":"en:Heron Foods","contact:website":"https:\/\/heronfoods.com\/storelocator\/store-details\/concord","fhrs:id":"652090","shop":"supermarket"}}, "geometry":{"type":"Point","coordinates":[-1.52204,54.91303 ]}},
{ "type":"Feature","properties":{"osm_id":"4286036511","name":"Sainsbury's Local","other":{"brand:wikidata":"Q13218434","shop":"supermarket"}}, "geometry":{"type":"Point","coordinates":[-1.49415,54.89428 ]}},
{ "type":"Feature","properties":{"osm_id":"4290534402","name":"The Co-operative","other":{"addr:city":"Washington","addr:street":"The Drive","shop":"supermarket"}}, "geometry":{"type":"Point","coordinates":[-1.53065,54.91619 ]}},
{ "type":"Feature","properties":{"osm_id":"6534231060","other":{"amenity":"parking_entrance"}}, "geometry":{"type":"Point","coordinates":[-1.38094,54.9167 ]}},
{ "type":"Feature","properties":{"osm_id":"6534231068","other":{"amenity":"parking_entrance"}}, "geometry":{"type":"Point","coordinates":[-1.38139,54.91657 ]}},
{ "type":"Feature","properties":{"osm_id":"6534231077","other":{"amenity":"parking_entrance"}}, "geometry":{"type":"Point","coordinates":[-1.38188,54.91643 ]}},
{ "type":"Feature","properties":{"osm_id":"6534458218","other":{"amenity":"parking_entrance"}}, "geometry":{"type":"Point","coordinates":[-1.38287,54.9174 ]}},
{ "type":"Feature","properties":{"osm_id":"6534458234","other":{"amenity":"parking_entrance"}}, "geometry":{"type":"Point","coordinates":[-1.38279,54.91757 ]}},
{ "type":"Feature","properties":{"osm_id":"6534458239","other":{"amenity":"parking_entrance"}}, "geometry":{"type":"Point","coordinates":[-1.38188,54.91781 ]}},
{ "type":"Feature","properties":{"osm_id":"6534458241","other":{"amenity":"parking_entrance"}}, "geometry":{"type":"Point","coordinates":[-1.38233,54.91769 ]}},
{ "type":"Feature","properties":{"osm_id":"7120513152","name":"Heron Foods","other":{"addr:city":"Houghton-le-Spring","addr:country":"GB","addr:housenumber":"54,56,58","addr:postcode":"DH4 4AF","addr:street":"Newbottle Street","brand":"Heron Foods","brand:wikidata":"Q5743472","brand:wikipedia":"en:Heron Foods","contact:website":"https:\/\/heronfoods.com\/storelocator\/store-details\/houghton-le-spring","fhrs:id":"652696","opening_hours":"Mo-Sa 08:00-19:00; Su 10:00-15:00","shop":"supermarket"}}, "geometry":{"type":"Point","coordinates":[-1.47209,54.84444 ]}},
{ "type":"Feature","properties":{"osm_way_id":"31453340","name":"Asda","building":"yes","shop":"supermarket","other":{"addr:city":"Washington","addr:country":"GB","addr:postcode":"NE38 7NF","addr:street":"The Galleries","brand":"Asda","brand:wikidata":"Q297410","brand:wikipedia":"en:Asda","contact:facebook":"https:\/\/www.facebook.com\/asda\/","contact:twitter":"@asda","contact:website":"https:\/\/storelocator.asda.com\/north-east\/washington\/the-galleries","fhrs:id":"652113","opening_hours":"Mo-Fr 06:00-00:00; Sa 06:00-22:00; Su 10:00-16:00","operator":"Asda Stores Ltd","phone":"+44 191 416 3838","website":"https:\/\/storelocator.asda.com\/north-east\/washington\/the-galleries"}}, "geometry":{"type":"MultiPolygon","coordinates":[[[[-1.5325,54.89814],[-1.53155,54.89829],[-1.53172,54.89865],[-1.53178,54.89879],[-1.53205,54.89934],[-1.53301,54.89918],[-1.5325,54.89814]]]]}},
{ "type":"Feature","properties":{"osm_way_id":"62089120","name":"Sainsbury's","building":"yes","shop":"supermarket","other":{"addr:city":"Sunderland","addr:postcode":"SR3 1PD","addr:street":"Silksworth Lane","brand":"Sainsbury's","brand:wikidata":"Q152096","brand:wikipedia":"en:Sainsbury's","fhrs:id":"652187","source:addr":"FHRS Open Data"}}, "geometry":{"type":"MultiPolygon","coordinates":[[[[-1.40878,54.88474],[-1.40842,54.88485],[-1.40865,54.88508],[-1.40785,54.88533],[-1.4076,54.88507],[-1.40743,54.88513],[-1.40672,54.88438],[-1.40735,54.88418],[-1.40733,54.88415],[-1.40747,54.88411],[-1.4075,54.88414],[-1.40762,54.8841],[-1.40791,54.8844],[-1.40833,54.88426],[-1.40878,54.88474]]]]}},
{ "type":"Feature","properties":{"osm_way_id":"62214309","name":"Morrisons","building":"yes","shop":"supermarket","other":{"addr:city":"Sunderland","addr:place":"William Doxford Centre","addr:postcode":"SR3 2NE","brand":"Morrisons","brand:wikidata":"Q922344","brand:wikipedia":"en:Morrisons","fhrs:id":"652327","source:addr":"FHRS Open Data"}}, "geometry":{"type":"MultiPolygon","coordinates":[[[[-1.41752,54.86742],[-1.41753,54.86687],[-1.41726,54.86687],[-1.41726,54.86671],[-1.41709,54.86671],[-1.41635,54.86671],[-1.41624,54.86671],[-1.41623,54.86741],[-1.41615,54.8674],[-1.41614,54.86754],[-1.41614,54.86757],[-1.41641,54.86757],[-1.41641,54.86768],[-1.41676,54.86768],[-1.41677,54.86757],[-1.41686,54.86757],[-1.41686,54.86747],[-1.41715,54.86747],[-1.41715,54.86742],[-1.41752,54.86742]]]]}},
{ "type":"Feature","properties":{"osm_way_id":"62330863","name":"Sainsbury's","building":"yes","shop":"supermarket","other":{"addr:city":"Sunderland","addr:postcode":"SR5 3JG","addr:street":"Riverside Road","alt_name":"Sainsbury's Sunderland North Superstore","brand":"Sainsbury's","brand:wikidata":"Q152096","brand:wikipedia":"en:Sainsbury's","contact:website":"https:\/\/stores.sainsburys.co.uk\/2297\/sunderland-north","fhrs:id":"653118"}}, "geometry":{"type":"MultiPolygon","coordinates":[[[[-1.42528,54.92048],[-1.42526,54.91965],[-1.42284,54.91966],[-1.42285,54.91997],[-1.42346,54.91997],[-1.42347,54.92048],[-1.4244,54.92048],[-1.4244,54.92053],[-1.42459,54.92053],[-1.42459,54.92048],[-1.42528,54.92048]]]]}},
{ "type":"Feature","properties":{"osm_way_id":"64853558","name":"Asda","building":"yes","shop":"supermarket","other":{"addr:city":"Sunderland","addr:country":"GB","addr:postcode":"SR2 9TT","addr:street":"Leechmere Road","brand":"Asda","brand:wikidata":"Q297410","brand:wikipedia":"en:Asda","contact:facebook":"https:\/\/www.facebook.com\/asda\/","contact:twitter":"@asda","contact:website":"https:\/\/storelocator.asda.com\/north-east\/sunderland\/leechmere-road-industrial-estate","fhrs:id":"651841","operator":"Asda Stores Ltd"}}, "geometry":{"type":"MultiPolygon","coordinates":[[[[-1.37422,54.88139],[-1.37295,54.8817],[-1.37235,54.88092],[-1.37242,54.88091],[-1.37239,54.88084],[-1.37365,54.88053],[-1.37392,54.88085],[-1.3738,54.88089],[-1.37422,54.88139]]]]}},
{ "type":"Feature","properties":{"osm_way_id":"64864282","building":"yes","shop":"supermarket","other":{"operator":"Lidl"}}, "geometry":{"type":"MultiPolygon","coordinates":[[[[-1.36076,54.87872],[-1.35996,54.87889],[-1.35983,54.87869],[-1.36063,54.87853],[-1.36076,54.87872]]]]}},
{ "type":"Feature","properties":{"osm_way_id":"77893122","name":"Green Halal Supermarket","building":"yes","shop":"supermarket"},"geometry":{"type":"MultiPolygon","coordinates":[[[[-1.84657,52.49595],[-1.84636,52.49596],[-1.84619,52.49597],[-1.84609,52.49602],[-1.846,52.49603],[-1.8459,52.49602],[-1.84582,52.49595],[-1.84578,52.49582],[-1.84584,52.4958],[-1.84577,52.49566],[-1.84562,52.49571],[-1.84559,52.49567],[-1.84551,52.49569],[-1.84533,52.49554],[-1.84537,52.49552],[-1.84536,52.4955],[-1.84568,52.49538],[-1.84599,52.49503],[-1.84628,52.4952],[-1.84639,52.49551],[-1.84652,52.49583],[-1.84657,52.49595]]]]}},
{ "type":"Feature","properties":{"osm_way_id":"163559486","name":"Morrisons","building":"yes","shop":"supermarket","other":{"addr:city":"Sunderland","addr:postcode":"SR6 8AA","addr:street":"Whitburn Road","brand":"Morrisons","brand:wikidata":"Q922344","brand:wikipedia":"en:Morrisons","building:material":"brick","fhrs:id":"651589","toilets":"yes","website":"https:\/\/my.morrisons.com\/storefinder\/47"}}, "geometry":{"type":"MultiPolygon","coordinates":[[[[-1.37025,54.93787],[-1.36997,54.93787],[-1.36996,54.93813],[-1.36979,54.93814],[-1.36979,54.93824],[-1.36841,54.93822],[-1.3684,54.9381],[-1.36856,54.9381],[-1.36855,54.93771],[-1.36864,54.93763],[-1.36867,54.93754],[-1.36886,54.93754],[-1.36885,54.93762],[-1.36892,54.93762],[-1.36959,54.93762],[-1.3696,54.93757],[-1.37012,54.93756],[-1.37023,54.93749],[-1.37037,54.93758],[-1.37024,54.93764],[-1.37026,54.93767],[-1.37025,54.93787]]]]}},
{ "type":"Feature","properties":{"osm_way_id":"369552835","name":"Co-op","building":"yes","shop":"supermarket","other":{"addr:city":"Washington","addr:street":"Parsons Road","opening_hours":"Mo-Su 00:00-23:59","operator":"The Co-operative Group","toilets":"yes"}}, "geometry":{"type":"MultiPolygon","coordinates":[[[[-1.53875,54.90914],[-1.53881,54.90918],[-1.53896,54.90931],[-1.53889,54.90934],[-1.53866,54.90934],[-1.53853,54.90922],[-1.53875,54.90914]]]]}},
{ "type":"Feature","properties":{"osm_way_id":"395231457","name":"Sainsbury's","building":"retail","shop":"supermarket","other":{"addr:city":"Washington","addr:place":"The Galleries","addr:postcode":"NE38 7RU","addr:street":"The Galleries","brand":"Sainsbury's","brand:wikidata":"Q152096","brand:wikipedia":"en:Sainsbury's","fhrs:id":"652114","opening_hours":"mo-fr 08:00-22:00; sa 08:00-21:00; su 10:00-16:00","phone":"+44 191 5414050","source:addr":"FHRS Open Data","website":"https:\/\/stores.sainsburys.co.uk\/0555\/washington","wheelchair":"yes"}}, "geometry":{"type":"MultiPolygon","coordinates":[[[[-1.5336,54.90075],[-1.53369,54.90094],[-1.53398,54.90089],[-1.53418,54.90131],[-1.53409,54.90132],[-1.53411,54.90138],[-1.53386,54.90165],[-1.53381,54.90165],[-1.53383,54.90171],[-1.53313,54.90182],[-1.53314,54.90185],[-1.53302,54.90188],[-1.53301,54.90185],[-1.53291,54.90186],[-1.53276,54.90181],[-1.53239,54.90109],[-1.53252,54.90094],[-1.5336,54.90075]]]]}},
{ "type":"Feature","properties":{"osm_way_id":"400743624","name":"The Co-operative Food","building":"yes","shop":"supermarket","other":{"addr:city":"Sunderland","addr:housename":"The Co-Operative Food","addr:postcode":"SR3 1TJ","addr:street":"North Moor Road","brand":"The Co-operative Food","brand:wikidata":"Q3277439","brand:wikipedia":"en:Co-op Food","fhrs:id":"652715","source:addr":"FHRS Open Data"}}, "geometry":{"type":"MultiPolygon","coordinates":[[[[-1.423,54.8813],[-1.42313,54.88146],[-1.42345,54.88136],[-1.42331,54.8812],[-1.423,54.8813]]]]}},
{ "type":"Feature","properties":{"osm_way_id":"400807886","name":"Lidl","building":"yes","shop":"supermarket","other":{"addr:city":"Sunderland","addr:postcode":"SR3 4DF","addr:street":"Durham Road","brand":"Lidl","brand:wikidata":"Q151954","brand:wikipedia":"en:Lidl","fhrs:id":"651655","source:addr":"FHRS Open Data"}}, "geometry":{"type":"MultiPolygon","coordinates":[[[[-1.41835,54.88905],[-1.41917,54.88906],[-1.41918,54.88875],[-1.41881,54.88875],[-1.41881,54.88876],[-1.41845,54.88876],[-1.41844,54.88894],[-1.41835,54.88894],[-1.41835,54.88905]]]]}},
{ "type":"Feature","properties":{"osm_way_id":"401009640","name":"Heron Foods","building":"yes","shop":"supermarket","other":{"addr:city":"Sunderland","addr:postcode":"SR4 8AB","addr:street":"Hylton Road","brand":"Heron Foods","brand:wikidata":"Q5743472","brand:wikipedia":"en:Heron Foods","contact:website":"https:\/\/heronfoods.com\/storelocator\/store-details\/ford"}}, "geometry":{"type":"MultiPolygon","coordinates":[[[[-1.42872,54.90153],[-1.42899,54.90155],[-1.42901,54.9015],[-1.42896,54.90149],[-1.42899,54.90137],[-1.4289,54.90136],[-1.42891,54.90129],[-1.42878,54.90128],[-1.42872,54.90153]]]]}},
{ "type":"Feature","properties":{"osm_way_id":"429657691","name":"Aldi","building":"shop","shop":"supermarket","other":{"brand":"ALDI","brand:wikidata":"Q41171672","brand:wikipedia":"en:Aldi"}}, "geometry":{"type":"MultiPolygon","coordinates":[[[[-1.54379,54.90819],[-1.54417,54.90802],[-1.54414,54.908],[-1.54448,54.90784],[-1.54429,54.9077],[-1.54435,54.90767],[-1.54424,54.90759],[-1.54415,54.90763],[-1.54412,54.90761],[-1.54396,54.90768],[-1.54399,54.9077],[-1.54345,54.90796],[-1.5435,54.90799],[-1.54361,54.90807],[-1.54379,54.90819]]]]}},
{ "type":"Feature","properties":{"osm_way_id":"429691134","name":"Lidl","building":"yes","shop":"supermarket","other":{"addr:city":"Washington","addr:housename":"Peel Centre","addr:postcode":"NE37 2PA","brand":"Lidl","brand:wikidata":"Q151954","brand:wikipedia":"en:Lidl","building:levels":"1","opening_hours":"Mo-Sa 07:00-22:00; Su 10:00-16:00; PH 08:00-20:00","payment:american_express":"yes","payment:cash":"yes","payment:contactless":"yes","payment:maestro":"yes","payment:mastercard":"yes","payment:visa":"yes","smoking":"no","website":"https:\/\/www.lidl.co.uk"}}, "geometry":{"type":"MultiPolygon","coordinates":[[[[-1.50257,54.90705],[-1.50256,54.90738],[-1.50274,54.90738],[-1.50274,54.90732],[-1.5036,54.90733],[-1.50362,54.90701],[-1.50299,54.90701],[-1.50299,54.90706],[-1.50257,54.90705]]]]}},
{ "type":"Feature","properties":{"osm_way_id":"429691137","name":"The Food Warehouse","building":"yes","shop":"supermarket","other":{"addr:city":"Washington","addr:country":"GB","addr:place":"The Peel Centre","addr:postcode":"NE37 2PA","addr:unit":"2","brand":"The Food Warehouse","brand:wikidata":"Q87263899","opening_hours":"Mo-Sa 08:00-21:00; Su 10:00-16:00","phone":"+44 191 4192476","website":"https:\/\/www.thefoodwarehouse.com\/store-locator\/washington"}}, "geometry":{"type":"MultiPolygon","coordinates":[[[[-1.50411,54.90742],[-1.50464,54.90742],[-1.50463,54.90704],[-1.50415,54.90704],[-1.50411,54.90707],[-1.50411,54.90742]]]]}},
{ "type":"Feature","properties":{"osm_way_id":"438410370","name":"ALDI","building":"yes","shop":"supermarket","other":{"addr:city":"Sunderland","addr:postcode":"SR3 2UD","addr:street":"Knollside Close","brand":"ALDI","brand:wikidata":"Q41171672","brand:wikipedia":"en:Aldi","fhrs:id":"1095695","source:addr":"FHRS Open Data"}}, "geometry":{"type":"MultiPolygon","coordinates":[[[[-1.41374,54.86518],[-1.41334,54.86518],[-1.41334,54.86515],[-1.41333,54.8647],[-1.41333,54.86462],[-1.41373,54.86462],[-1.41374,54.86518]]]]}},
{ "type":"Feature","properties":{"osm_way_id":"443149111","name":"Aldi","shop":"supermarket","other":{"brand":"ALDI","brand:wikidata":"Q41171672","brand:wikipedia":"en:Aldi"}}, "geometry":{"type":"MultiPolygon","coordinates":[[[[-1.40165,54.90663],[-1.40236,54.90638],[-1.40212,54.90615],[-1.40149,54.90637],[-1.40163,54.9065],[-1.40155,54.90653],[-1.40165,54.90663]]]]}},
{ "type":"Feature","properties":{"osm_way_id":"577658800","name":"Aldi","building":"yes","shop":"supermarket","other":{"addr:postcode":"SR5 2EX","addr:street":"Carley Hill Road","brand":"ALDI","brand:wikidata":"Q41171672","brand:wikipedia":"en:Aldi","source:addr:postcode":"code-point_open"}}, "geometry":{"type":"MultiPolygon","coordinates":[[[[-1.39768,54.92306],[-1.39767,54.92361],[-1.39753,54.92361],[-1.39753,54.92356],[-1.39727,54.92356],[-1.39727,54.92306],[-1.39768,54.92306]]]]}},
{ "type":"Feature","properties":{"osm_way_id":"616807033","name":"Lidl","building":"yes","shop":"supermarket","other":{"addr:country":"GB","addr:postcode":"SR2 9TB","addr:street":"Ryhope Road","brand":"Lidl","brand:wikidata":"Q151954","brand:wikipedia":"en:Lidl","fhrs:id":"652513"}}, "geometry":{"type":"MultiPolygon","coordinates":[[[[-1.36006,54.87974],[-1.35987,54.87913],[-1.35935,54.87918],[-1.35954,54.87979],[-1.36006,54.87974]]]]}},
{ "type":"Feature","properties":{"osm_way_id":"665501648","name":"Tesco Extra","building":"yes","shop":"supermarket","other":{"addr:city":"Sunderland","addr:place":"Sunderland Retail Park","addr:postcode":"SR6 0BT","brand":"Tesco Extra","brand:wikidata":"Q25172225","brand:wikipedia":"en:Tesco Extra","fhrs:id":"653152","opening_hours":"Mo-Sa 06:00-23:00; su 10:00-16:00","operator":"Tesco","source:addr":"FHRS Open Data"}}, "geometry":{"type":"MultiPolygon","coordinates":[[[[-1.38175,54.91785],[-1.38109,54.91741],[-1.38137,54.91733],[-1.38102,54.91693],[-1.38062,54.91705],[-1.38033,54.91686],[-1.38094,54.9167],[-1.38102,54.91668],[-1.38098,54.91663],[-1.38114,54.91658],[-1.38117,54.91663],[-1.38139,54.91657],[-1.38147,54.91655],[-1.38142,54.91649],[-1.3816,54.91644],[-1.38165,54.9165],[-1.38188,54.91643],[-1.38224,54.91634],[-1.38289,54.91715],[-1.38271,54.9172],[-1.38287,54.9174],[-1.38297,54.91752],[-1.38279,54.91757],[-1.38255,54.91763],[-1.38258,54.91767],[-1.38246,54.9177],[-1.38244,54.91766],[-1.38233,54.91769],[-1.3821,54.91775],[-1.38188,54.91781],[-1.38175,54.91785]]]]}},
{ "type":"Feature","properties":{"osm_way_id":"665724079","name":"Lidl","building":"yes","shop":"supermarket","other":{"addr:city":"Sunderland","addr:postcode":"SR6 0BN","addr:street":"Roker Avenue","brand":"Lidl","brand:wikidata":"Q151954","brand:wikipedia":"en:Lidl","fhrs:id":"652909","operator":"Lidl","source:addr":"FHRS Open Data"}}, "geometry":{"type":"MultiPolygon","coordinates":[[[[-1.37877,54.91612],[-1.37833,54.91618],[-1.37832,54.91615],[-1.37821,54.91617],[-1.37806,54.91582],[-1.3786,54.91574],[-1.37877,54.91612]]]]}},
{ "type":"Feature","properties":{"osm_way_id":"709232231","name":"Lidl","building":"yes","shop":"supermarket","other":{"brand":"Lidl","brand:wikidata":"Q151954","brand:wikipedia":"en:Lidl","fhrs:id":"973167","opening_hours":"Mo-Sa 08:00-22:00; Su 10:00-16:00"}}, "geometry":{"type":"MultiPolygon","coordinates":[[[[-1.42894,54.92187],[-1.42784,54.92192],[-1.42779,54.92156],[-1.42889,54.9215],[-1.42894,54.92187]]]]}},
{ "type":"Feature","properties":{"osm_way_id":"754022003","name":"The Co-operative Food","building":"yes","shop":"supermarket","other":{"addr:city":"Houghton-le-Spring","addr:housenumber":"1-3","addr:postcode":"DH4 4RS","addr:street":"Grangewood Court","brand":"The Co-operative Food","brand:wikidata":"Q3277439","brand:wikipedia":"en:Co-op Food","fhrs:id":"652533","source:addr":"FHRS Open Data"}}, "geometry":{"type":"MultiPolygon","coordinates":[[[[-1.49776,54.86711],[-1.4975,54.86692],[-1.49731,54.86701],[-1.49758,54.86719],[-1.49776,54.86711]]]]}},
{ "type":"Feature","properties":{"osm_way_id":"762113618","name":"Lidl","building":"yes","shop":"supermarket","other":{"addr:city":"Houghton-le-Spring","addr:postcode":"DH4 4BJ","addr:street":"Mautland Street","brand":"Lidl","brand:wikidata":"Q151954","brand:wikipedia":"en:Lidl","fhrs:id":"929546","fixme:addr:1":"Mautland Square","opening_hours":"Mo-Sa 08:00-22:00, Su 10:00-16:00","payment:cash":"yes","payment:credit_cards":"yes","payment:debit_cards":"yes","source:addr":"FHRS Open Data"}}, "geometry":{"type":"MultiPolygon","coordinates":[[[[-1.471,54.84431],[-1.47044,54.84447],[-1.47,54.84394],[-1.4702,54.84387],[-1.47024,54.84392],[-1.47058,54.84382],[-1.471,54.84431]]]]}},
{ "type":"Feature","properties":{"osm_way_id":"794915027","name":"Asda","building":"yes","shop":"supermarket","other":{"brand":"Asda","brand:wikidata":"Q297410","brand:wikipedia":"en:Asda","contact:facebook":"https:\/\/www.facebook.com\/asda\/","contact:twitter":"@asda","contact:website":"https:\/\/storelocator.asda.com\/north-east\/ryhope\/92-ryhope-street-south","operator":"Asda Stores Ltd"}}, "geometry":{"type":"MultiPolygon","coordinates":[[[[-1.37034,54.87058],[-1.36996,54.87057],[-1.36993,54.87098],[-1.37035,54.87099],[-1.37036,54.87087],[-1.37031,54.87087],[-1.37033,54.87065],[-1.37034,54.87058]]]]}},
{ "type":"Feature","properties":{"osm_way_id":"815947703","name":"Heron Foods","building":"yes","shop":"supermarket","other":{"addr:city":"Houghton-le-Spring","addr:country":"GB","addr:housenumber":"15","addr:postcode":"DH5 9PF","addr:street":"Front Street","addr:town":"Hetton-le-Hole","brand":"Heron Foods","brand:wikidata":"Q5743472","brand:wikipedia":"en:Heron Foods","contact:website":"https:\/\/heronfoods.com\/storelocator\/store-details\/hetton-le-hole","fhrs:id":"709572","not:addr:postcode":"DH5 9PA","source:addr:postcode":"code-point_open"}}, "geometry":{"type":"MultiPolygon","coordinates":[[[[-1.4524,54.82105],[-1.45241,54.82086],[-1.45247,54.82086],[-1.45247,54.82083],[-1.4526,54.82083],[-1.45259,54.8209],[-1.45279,54.8209],[-1.45279,54.82104],[-1.4524,54.82105]]]]}},
{ "type":"Feature","properties":{"osm_way_id":"846661229","name":"Sainsbury's","building":"yes","shop":"supermarket","other":{"brand":"Sainsbury's","brand:wikidata":"Q152096","brand:wikipedia":"en:Sainsbury's","operator":"J Sainsbury"}}, "geometry":{"type":"MultiPolygon","coordinates":[[[[-1.38275,54.92928],[-1.3827,54.929],[-1.38264,54.92878],[-1.38242,54.9288],[-1.38247,54.92903],[-1.38234,54.92904],[-1.38239,54.92929],[-1.38275,54.92928]]]]}}
]
}
