{
"type": "FeatureCollection",
"features": [
{ "type":"Feature","properties":{"osm_id":"1117457117","man_made":"surveillance","other":{"camera:type":"dome","camera:mount":"roof","surveillance:type":"camera"}}, "geometry":{"type":"Point","coordinates":[-1.51855,55.03259 ]}},
{ "type":"Feature","properties":{"osm_id":"1117457257","man_made":"surveillance","other":{"camera:type":"dome","camera:mount":"roof","surveillance:type":"camera"}}, "geometry":{"type":"Point","coordinates":[-1.51852,55.03323 ]}},
{ "type":"Feature","properties":{"osm_id":"5291386583","name":"Co-op Food","other":{"addr:city":"Whitley Bay","addr:housename":"Berkeley Tavern","addr:postcode":"NE26 1LY","addr:street":"Marine Avenue","brand":"Co-op Food","brand:wikidata":"Q3277439","brand:wikipedia":"en:Co-op Food","fhrs:id":"945484","level":"0","opening_hours":"Mo-Su 06:00-23:00","operator":"The Co-operative Group","operator:wikidata":"Q117202","operator:wikipedia":"en:The Co-operative Group","payment:cash":"yes","payment:debit_cards":"yes","shop":"supermarket"}}, "geometry":{"type":"Point","coordinates":[-1.44955,55.04769 ]}},
{ "type":"Feature","properties":{"osm_id":"6241463595","man_made":"surveillance","other":{"camera:type":"dome","camera:mount":"building","surveillance:type":"camera"}}, "geometry":{"type":"Point","coordinates":[-1.47961,55.04414 ]}},
{ "type":"Feature","properties":{"osm_id":"7193575848","name":"Heron Foods","other":{"addr:city":"Longbenton","addr:housename":"Boulevard Shopping Centre","addr:postcode":"NE12 8GA","addr:street":"West Farm Avenue","addr:unit":"8","brand":"Heron Foods","brand:wikidata":"Q5743472","brand:wikipedia":"en:Heron Foods","fhrs:id":"23097","not:addr:postcode":"NE12 8GA","opening_hours":"Mo-Sa 08:00-19:00; Su 10:00-17:00","shop":"supermarket","website":"https:\/\/heronfoods.com\/store\/longbenton\/"}}, "geometry":{"type":"Point","coordinates":[-1.59101,55.01131 ]}},
{ "type":"Feature","properties":{"osm_id":"7193575873","name":"Heron Foods","other":{"addr:city":"Wallsend","addr:postcode":"NE28 7DB","addr:street":"Churchill Street","addr:unit":"2","brand":"Heron Foods","brand:wikidata":"Q5743472","brand:wikipedia":"en:Heron Foods","fhrs:id":"1038356","opening_hours":"Mo-Sa 08:00-20:00; Su 10:00-16:00","shop":"supermarket","website":"https:\/\/heronfoods.com\/store\/high-howdon\/"}}, "geometry":{"type":"Point","coordinates":[-1.50299,54.99712 ]}},
{ "type":"Feature","properties":{"osm_id":"7206639838","name":"Tuk Tuk Market","other":{"shop":"supermarket","disused:shop":"yes"}}, "geometry":{"type":"Point","coordinates":[-1.44687,55.04311 ]}},
{ "type":"Feature","properties":{"osm_id":"8084713899","name":"Buy The Kilo","other":{"shop":"supermarket","website":"https:\/\/www.buy-the-kilo.com\/","zero_waste":"only"}}, "geometry":{"type":"Point","coordinates":[-1.42908,55.01712 ]}},
{ "type":"Feature","properties":{"osm_way_id":"27571713","name":"Morrisons","building":"retail","shop":"supermarket","other":{"addr:city":"North Shields","addr:housename":"Collingwood Centre","addr:postcode":"NE29 9QR","addr:street":"Preston North Road","brand":"Morrisons","brand:wikidata":"Q922344","brand:wikipedia":"en:Morrisons","fhrs:id":"370703","opening_hours":"mo-sa 07:00-22:00; su 11:00-17:00","operator":"Morrisons","toilets":"yes","toilets:female":"yes","toilets:male":"yes","website":"https:\/\/my.morrisons.com\/storefinder\/64"}}, "geometry":{"type":"MultiPolygon","coordinates":[[[[-1.45714,55.02351],[-1.45759,55.02425],[-1.45751,55.02427],[-1.45765,55.02448],[-1.45761,55.02454],[-1.45745,55.02457],[-1.45737,55.02443],[-1.45694,55.02452],[-1.45686,55.02439],[-1.45664,55.02444],[-1.45663,55.02443],[-1.45631,55.0239],[-1.4563,55.02387],[-1.45611,55.0239],[-1.45602,55.02375],[-1.45598,55.02376],[-1.45596,55.02372],[-1.45588,55.02373],[-1.45583,55.02364],[-1.45591,55.02363],[-1.45588,55.02359],[-1.45596,55.02357],[-1.45593,55.02353],[-1.45608,55.0235],[-1.4561,55.02354],[-1.45626,55.02351],[-1.45628,55.02354],[-1.45663,55.02347],[-1.45664,55.02349],[-1.45673,55.02347],[-1.45676,55.02353],[-1.45694,55.02349],[-1.45697,55.02354],[-1.45714,55.02351]]]]}},
{ "type":"Feature","properties":{"osm_way_id":"35544498","name":"Tesco Extra","building":"yes","shop":"supermarket","other":{"addr:city":"North Shields","addr:postcode":"NE29 7UJ","addr:street":"Norham Road","brand":"Tesco Extra","brand:wikidata":"Q25172225","brand:wikipedia":"en:Tesco Extra","changing_table":"yes","contact:website":"https:\/\/www.tesco.com\/store-locator\/north-shields\/norham-road","fhrs:id":"865212","internet_access":"wlan","internet_access:fee":"no","opening_hours":"Mo-Sa 00:00-24:00; Su 10:00-16:00","operator":"Tesco","toilets":"yes","toilets:fee":"no","toilets:wheelchair":"yes","wheelchair":"yes"}}, "geometry":{"type":"MultiPolygon","coordinates":[[[[-1.48633,55.01105],[-1.48444,55.01149],[-1.48403,55.01091],[-1.48543,55.01058],[-1.48541,55.01056],[-1.4855,55.01053],[-1.48552,55.01056],[-1.48592,55.01047],[-1.48606,55.01068],[-1.48615,55.01066],[-1.48622,55.01077],[-1.48614,55.01078],[-1.48633,55.01105]]]]}},
{ "type":"Feature","properties":{"osm_way_id":"41137628","name":"Lidl","building":"retail","shop":"supermarket","other":{"addr:city":"Wallsend","addr:postcode":"NE28 9EN","addr:street":"Battle Hill Drive","brand":"Lidl","brand:wikidata":"Q151954","brand:wikipedia":"en:Lidl","fhrs:id":"34829","opening_hours":"Mo-Sa 08:00-22:00; Su 10:00-16:00; PH 08:00-20:00","operator":"Lidl"}}, "geometry":{"type":"MultiPolygon","coordinates":[[[[-1.52109,55.00505],[-1.52101,55.00507],[-1.52022,55.00524],[-1.52007,55.005],[-1.52032,55.00495],[-1.52029,55.00489],[-1.52041,55.00487],[-1.52045,55.00492],[-1.52093,55.00482],[-1.52109,55.00505]]]]}},
{ "type":"Feature","properties":{"osm_way_id":"61845924","name":"Sainsbury's","building":"retail","shop":"supermarket","other":{"brand":"Sainsbury's","phone":"+44 191 297 1522","fhrs:id":"98708","toilets":"yes","operator":"Sainsbury's Supermarkets LTD","addr:city":"Whitley Bay","wheelchair":"yes","addr:street":"Newsteads Drive","addr:suburb":"Monkseaton","addr:country":"GB","payment:cash":"yes","toilets:male":"yes","addr:postcode":"NE25 9EX","opening_hours":"Mo-Fr 08:00-22:00, Sa 08:00-21:00; Su 10:00-16:00","brand:wikidata":"Q152096","toilets:female":"yes","brand:wikipedia":"en:Sainsbury's","building:levels":"2","toilets:disposal":"flush","toilets:position":"seated;urinal","payment:contactless":"yes","payment:debit_cards":"yes","toilets:handwashing":"yes","payment:credit_cards":"yes"}}, "geometry":{"type":"MultiPolygon","coordinates":[[[[-1.48022,55.04345],[-1.48128,55.04378],[-1.48118,55.04388],[-1.48112,55.04387],[-1.48074,55.04427],[-1.48064,55.04437],[-1.4805,55.04433],[-1.48028,55.04456],[-1.47974,55.04439],[-1.4797,55.04443],[-1.47946,55.04436],[-1.47949,55.04432],[-1.47944,55.0443],[-1.4794,55.04429],[-1.47949,55.0442],[-1.47954,55.04422],[-1.47961,55.04414],[-1.48002,55.04371],[-1.47999,55.0437],[-1.48008,55.0436],[-1.48004,55.04359],[-1.48014,55.04348],[-1.48018,55.04349],[-1.48022,55.04345]]]]}},
{ "type":"Feature","properties":{"osm_way_id":"72056691","name":"Asda","building":"yes","shop":"supermarket","other":{"brand":"Asda","fhrs:id":"198573","operator":"Asda Stores Ltd","addr:city":"Benton","addr:street":"Whitley Road","addr:country":"GB","payment:cash":"yes","addr:postcode":"NE12 9SJ","contact:phone":"+44 191 270 5700","opening_hours":"mo 06:00-24:00; tu-fr 00:00-24:00; sa 00:00-22:00; su 10:00-16:00","brand:wikidata":"Q297410","brand:wikipedia":"en:Asda","contact:twitter":"@asda","contact:website":"https:\/\/storelocator.asda.com\/north-east\/newcastle-upon-tyne\/whitley-road","contact:facebook":"https:\/\/www.facebook.com\/asda\/","payment:apple_pay":"yes","payment:google_pay":"yes","payment:visa_debit":"yes","payment:credit_cards":"yes","payment:cryptocurrencies":"no"}}, "geometry":{"type":"MultiPolygon","coordinates":[[[[-1.53786,55.02036],[-1.53677,55.01988],[-1.53558,55.02078],[-1.53666,55.02126],[-1.53755,55.02059],[-1.53761,55.02062],[-1.53782,55.02046],[-1.53776,55.02043],[-1.53786,55.02036]]]]}},
{ "type":"Feature","properties":{"osm_way_id":"96429049","name":"Sainsbury's","building":"retail","shop":"supermarket","other":{"brand":"Sainsbury's","fhrs:id":"258083","addr:city":"Shiremoor","addr:street":"Earsdon Road","addr:postcode":"NE27 0SJ","opening_hours":"mo-fr 07:00-10:00; sa 07:00-21:00; su 10:00-16:00","brand:wikidata":"Q152096","brand:wikipedia":"en:Sainsbury's"}}, "geometry":{"type":"MultiPolygon","coordinates":[[[[-1.51798,55.03293],[-1.51855,55.03259],[-1.51909,55.0329],[-1.51852,55.03323],[-1.51798,55.03293]]]]}},
{ "type":"Feature","properties":{"osm_way_id":"117167304","name":"Asda","building":"yes","shop":"supermarket","other":{"brand":"Asda","fhrs:id":"760642","operator":"Asda Stores Ltd","addr:city":"Wallsend","addr:street":"Hadrian Road","addr:country":"GB","addr:postcode":"NE28 6HH","contact:phone":"+44 191 210 6940","opening_hours":"mo-sa 07:00-22:00; su 10:00-16:00","brand:wikidata":"Q297410","brand:wikipedia":"en:Asda","contact:twitter":"@asda","contact:website":"https:\/\/storelocator.asda.com\/north-east\/wallsend\/hadrian-road","contact:facebook":"https:\/\/www.facebook.com\/asda\/","not:addr:postcode":"NE28 6NX"}}, "geometry":{"type":"MultiPolygon","coordinates":[[[[-1.53005,54.98958],[-1.53,54.98951],[-1.5301,54.98949],[-1.52999,54.98935],[-1.52931,54.98951],[-1.52949,54.98974],[-1.53005,54.98958]]]]}},
{ "type":"Feature","properties":{"osm_way_id":"150401803","name":"Morrisons","building":"yes","shop":"supermarket","other":{"brand":"Morrisons","phone":"+44 191 297 1966","fhrs:id":"370701","toilets":"yes","website":"https:\/\/my.morrisons.com\/storefinder\/207","operator":"Morrisons","addr:city":"Whitley Bay","addr:street":"Hillheads Road","addr:postcode":"NE25 8HN","opening_hours":"Mo-Sa 07:00-22:00; Su 10:00-16:00","brand:wikidata":"Q922344","brand:wikipedia":"en:Morrisons","building:levels":"1","building:material":"brick","not:addr:postcode":"NE25 8HJ"}}, "geometry":{"type":"MultiPolygon","coordinates":[[[[-1.45307,55.04029],[-1.45295,55.04019],[-1.45268,55.04031],[-1.45259,55.04023],[-1.45254,55.04025],[-1.45204,55.03987],[-1.45276,55.03956],[-1.45285,55.03963],[-1.45298,55.03957],[-1.45361,55.04006],[-1.45307,55.04029]]]]}},
{ "type":"Feature","properties":{"osm_way_id":"287561570","name":"Spar","building":"yes","shop":"supermarket","other":{"addr:city":"Whitley Bay","addr:housename":"Corner House","addr:postcode":"NE25 8AQ","addr:street":"Front Street","brand":"Spar","brand:wikidata":"Q610492","brand:wikipedia":"en:SPAR (retailer)","fhrs:id":"77654","opening_hours":"Mo-Sa 07:00-22:30; Su 08:00-22:30","operator":"Spar","payment:apple_pay":"yes","payment:cash":"yes","payment:contactless":"yes","payment:debit_cards":"yes","website":"https:\/\/www.spar.co.uk\/store-locator\/hal10685-spar-monkseaton"}}, "geometry":{"type":"MultiPolygon","coordinates":[[[[-1.46356,55.04087],[-1.46307,55.0409],[-1.46303,55.04079],[-1.46346,55.04076],[-1.46345,55.04071],[-1.46353,55.0407],[-1.46356,55.04087]]]]}},
{ "type":"Feature","properties":{"osm_way_id":"386536553","name":"Co-op Food","building":"retail","shop":"supermarket","other":{"addr:city":"Newcastle Upon Tyne","addr:country":"GB","addr:postcode":"NE13 6LN","addr:street":"Great North Road","addr:suburb":"Wideopen","brand":"Co-op Food","brand:wikidata":"Q3277439","brand:wikipedia":"en:Co-op Food","fhrs:id":"82827","not:addr:postcode":"NE13 6PL","opening_hours":"Mo-Sa 07:00-22:00; Su 10:00-16:00","phone":"+44 191 236 4956","website":"https:\/\/finder.coop.co.uk\/food\/store\/NE13-6LN\/great-north-road"}}, "geometry":{"type":"MultiPolygon","coordinates":[[[[-1.62479,55.04826],[-1.62475,55.04827],[-1.62475,55.04829],[-1.62472,55.04829],[-1.62435,55.04836],[-1.62433,55.04836],[-1.62425,55.04822],[-1.62442,55.04819],[-1.6244,55.04815],[-1.62466,55.04809],[-1.62468,55.04814],[-1.62472,55.04814],[-1.62479,55.04826]]]]}},
{ "type":"Feature","properties":{"osm_way_id":"395077330","name":"Asda","building":"retail","shop":"supermarket","other":{"brand":"Asda","fhrs:id":"745638","alt_name":"ASDA North Shields Supermarket","operator":"Asda Stores Ltd","addr:city":"North Shields","addr:street":"Saville Street","addr:country":"GB","addr:postcode":"NE30 1NT","contact:phone":"+44 191 210 6950","opening_hours":"Mo-Sa 08:00-22:00; Su 10:00-16:00","brand:wikidata":"Q297410","brand:wikipedia":"en:Asda","contact:twitter":"@asda","contact:website":"https:\/\/storelocator.asda.com\/north-east\/north-shields\/saville-street","contact:facebook":"https:\/\/www.facebook.com\/asda\/"}}, "geometry":{"type":"MultiPolygon","coordinates":[[[[-1.44485,55.00805],[-1.44443,55.00821],[-1.44394,55.0078],[-1.44405,55.00775],[-1.44409,55.00779],[-1.44418,55.00776],[-1.44428,55.00785],[-1.44442,55.00779],[-1.44466,55.008],[-1.44475,55.00797],[-1.44485,55.00805]]]]}},
{ "type":"Feature","properties":{"osm_way_id":"395077335","name":"Co-op Food","building":"yes","shop":"supermarket","other":{"brand":"Co-op Food","fhrs:id":"467496","addr:city":"North Shields","addr:street":"Bedford Street","addr:postcode":"NE29 6QF","brand:wikidata":"Q3277439","brand:wikipedia":"en:Co-op Food","addr:housenumber":"86"}}, "geometry":{"type":"MultiPolygon","coordinates":[[[[-1.44746,55.00874],[-1.44744,55.00872],[-1.44721,55.00855],[-1.4471,55.0086],[-1.44708,55.00861],[-1.44734,55.0088],[-1.44746,55.00874]]]]}},
{ "type":"Feature","properties":{"osm_way_id":"406195144","name":"The Co-operative Food","building":"yes","shop":"supermarket","other":{"addr:city":"Whitley Bay","addr:postcode":"NE25 9SX","addr:street":"Earsdon Road","brand":"The Co-operative Food","brand:wikidata":"Q3277439","brand:wikipedia":"en:Co-op Food","fhrs:id":"953678","opening_hours":"Mo-Su 06:00-23:00","payment:apple_pay":"yes","payment:cash":"yes","payment:contactless":"yes","payment:debit_cards":"yes","payment:google_pay":"yes","phone":"+44 191 252 5347","website":"https:\/\/finder.coop.co.uk\/food\/store\/NE25-9SX\/earsdon-road","wheelchair":"yes"}}, "geometry":{"type":"MultiPolygon","coordinates":[[[[-1.473,55.03822],[-1.47276,55.03807],[-1.47276,55.03807],[-1.47299,55.03795],[-1.47323,55.03809],[-1.47305,55.03819],[-1.473,55.03822]]]]}},
{ "type":"Feature","properties":{"osm_way_id":"453281318","name":"The Co-operative Food","building":"residential","shop":"supermarket","other":{"brand":"The Co-operative Food","fhrs:id":"493418","operator":"The Co-operative Group","addr:city":"Cullercoats","addr:street":"John Street","addr:postcode":"NE30 4PJ","brand:wikidata":"Q3277439","brand:wikipedia":"en:Co-op Food"}}, "geometry":{"type":"MultiPolygon","coordinates":[[[[-1.4354,55.03745],[-1.43532,55.0375],[-1.43522,55.03749],[-1.43505,55.03732],[-1.43521,55.03726],[-1.4354,55.03745]]]]}},
{ "type":"Feature","properties":{"osm_way_id":"454212159","name":"Aldi","building":"yes","shop":"supermarket","other":{"addr:city":"Whitley Bay","addr:postcode":"NE25 8UG","addr:street":"Foxhunters Road","brand":"ALDI","brand:wikidata":"Q41171672","brand:wikipedia":"en:Aldi","fhrs:id":"945493","operator":"ALDI"}}, "geometry":{"type":"MultiPolygon","coordinates":[[[[-1.45689,55.03364],[-1.45661,55.03393],[-1.45635,55.03384],[-1.45637,55.03382],[-1.45586,55.03365],[-1.45613,55.03338],[-1.45648,55.03349],[-1.45646,55.03351],[-1.45681,55.03363],[-1.45682,55.03362],[-1.45689,55.03364]]]]}},
{ "type":"Feature","properties":{"osm_way_id":"458141210","name":"Co-op Food","building":"yes","shop":"supermarket","other":{"brand":"Co-op Food","phone":"+44 191 258 5151","website":"http:\/\/www.tnscars.com\/","addr:city":"North Shields","addr:street":"Queen Alexandra Road","addr:postcode":"NE29 9AL","brand:wikidata":"Q3277439","brand:wikipedia":"en:Co-op Food"}}, "geometry":{"type":"MultiPolygon","coordinates":[[[[-1.45717,55.01452],[-1.45699,55.01453],[-1.45699,55.01441],[-1.45713,55.01432],[-1.45732,55.01433],[-1.45741,55.01438],[-1.45717,55.01452]]]]}},
{ "type":"Feature","properties":{"osm_way_id":"458914906","name":"Heron Foods","building":"yes","shop":"supermarket","other":{"addr:city":"North Shields","addr:housenumber":"78-80","addr:postcode":"NE29 6QF","addr:street":"Bedford Street","brand":"Heron Foods","brand:wikidata":"Q5743472","brand:wikipedia":"en:Heron Foods","fhrs:id":"708924","opening_hours":"Mo-Sa 08:00-18:00; Su 10:00-16:00","website":"https:\/\/heronfoods.com\/store\/north-shields\/"}}, "geometry":{"type":"MultiPolygon","coordinates":[[[[-1.44782,55.00918],[-1.44815,55.00904],[-1.44822,55.00909],[-1.44818,55.00911],[-1.44822,55.00914],[-1.44817,55.00917],[-1.4482,55.00919],[-1.44817,55.0092],[-1.44822,55.00924],[-1.44813,55.00928],[-1.44802,55.00933],[-1.44782,55.00918]]]]}},
{ "type":"Feature","properties":{"osm_way_id":"465642809","name":"Aldi","building":"retail","shop":"supermarket","other":{"addr:city":"Wallsend","addr:postcode":"NE28 0EB","addr:street":"Tynemouth Road","brand":"ALDI","brand:wikidata":"Q41171672","brand:wikipedia":"en:Aldi","fhrs:id":"1030582","opening_hours":"Mo-Sa 08:00-22:00; Su 10:00-16:00","website":"https:\/\/www.aldi.co.uk\/store\/s-uk-E0348"}}, "geometry":{"type":"MultiPolygon","coordinates":[[[[-1.49487,54.99855],[-1.49409,54.99871],[-1.49402,54.99859],[-1.4941,54.99858],[-1.49404,54.99847],[-1.49489,54.9983],[-1.49498,54.99846],[-1.49483,54.99849],[-1.49487,54.99855]]]]}},
{ "type":"Feature","properties":{"osm_way_id":"468507786","name":"Heron Foods","building":"yes","shop":"supermarket","other":{"addr:city":"Wallsend","addr:housenumber":"2-4","addr:postcode":"NE28 8PQ","addr:street":"High Street East","brand":"Heron Foods","brand:wikidata":"Q5743472","brand:wikipedia":"en:Heron Foods","fhrs:id":"457056","opening_hours":"Mo-Sa 08:00-18:00; Su 10:00-16:00","website":"https:\/\/heronfoods.com\/store\/wallsend\/"}}, "geometry":{"type":"MultiPolygon","coordinates":[[[[-1.53291,54.99087],[-1.53318,54.99078],[-1.53346,54.99107],[-1.53338,54.99109],[-1.53324,54.99112],[-1.5332,54.99106],[-1.53316,54.99101],[-1.53301,54.99099],[-1.533,54.99095],[-1.53291,54.99087]]]]}},
{ "type":"Feature","properties":{"osm_way_id":"471464342","name":"Aldi","building":"retail","shop":"supermarket","other":{"addr:city":"Wallsend","addr:housenumber":"113","addr:postcode":"NE28 8JD","addr:street":"High Street West","brand":"ALDI","brand:wikidata":"Q41171672","brand:wikipedia":"en:Aldi","fhrs:id":"945494","opening_hours":"Mo-Sa 08:00-22:00; Su 10:00-16:00","website":"https:\/\/www.aldi.co.uk\/store\/s-uk-E1152"}}, "geometry":{"type":"MultiPolygon","coordinates":[[[[-1.53885,54.99036],[-1.53873,54.99037],[-1.53874,54.9904],[-1.53838,54.99044],[-1.53854,54.99093],[-1.53886,54.9909],[-1.53888,54.99094],[-1.53903,54.99092],[-1.53885,54.99036]]]]}},
{ "type":"Feature","properties":{"osm_way_id":"526080198","name":"Lidl","landuse":"retail","shop":"supermarket","other":{"addr:city":"Newcastle","addr:country":"GB","addr:postcode":"NE12 6EN","addr:street":"Southgate","addr:suburb":"Killingworth","brand":"Lidl","brand:wikidata":"Q151954","brand:wikipedia":"en:Lidl","fhrs:id":"1023668","opening_hours":"Mo-Sa 08:00-22:00, Su 10:00-16:00","operator":"LIDL"}}, "geometry":{"type":"MultiPolygon","coordinates":[[[[-1.57413,55.02876],[-1.57426,55.0288],[-1.57444,55.02891],[-1.57509,55.02897],[-1.5754,55.02795],[-1.57512,55.02789],[-1.57481,55.02786],[-1.57443,55.02794],[-1.57438,55.02797],[-1.57431,55.02802],[-1.57421,55.02829],[-1.57417,55.02842],[-1.57406,55.02869],[-1.57413,55.02876]]]]}},
{ "type":"Feature","properties":{"osm_way_id":"526083304","name":"Aldi","landuse":"retail","shop":"supermarket","other":{"addr:city":"Newcastle Upon Tyne","addr:country":"GB","addr:postcode":"NE12 9EW","addr:street":"Great Lime Road","addr:suburb":"Forest Hall","alt_name":"ALDI - Great Lime Road","brand":"ALDI","brand:wikidata":"Q41171672","brand:wikipedia":"en:Aldi","fhrs:id":"727997","website":"https:\/\/www.aldi.co.uk\/store\/s-uk-E0819"}}, "geometry":{"type":"MultiPolygon","coordinates":[[[[-1.55318,55.02511],[-1.55299,55.02556],[-1.55459,55.02576],[-1.55465,55.02548],[-1.55433,55.02545],[-1.55445,55.02517],[-1.55318,55.02511]]]]}},
{ "type":"Feature","properties":{"osm_way_id":"579544977","name":"Morrisons","building":"retail","shop":"supermarket","other":{"addr:postcode":"NE12 6YT","brand":"Morrisons","brand:wikidata":"Q922344","brand:wikipedia":"en:Morrisons","fhrs:id":"200708"}}, "geometry":{"type":"MultiPolygon","coordinates":[[[[-1.56732,55.03591],[-1.56839,55.03618],[-1.56818,55.03645],[-1.56842,55.03651],[-1.56828,55.03669],[-1.56844,55.03673],[-1.56829,55.03693],[-1.56805,55.03687],[-1.56801,55.03692],[-1.56799,55.03692],[-1.56798,55.03693],[-1.56704,55.03669],[-1.56696,55.03679],[-1.56682,55.03676],[-1.56668,55.03672],[-1.56732,55.03591]]]]}},
{ "type":"Feature","properties":{"osm_way_id":"662530488","name":"Aldi","building":"retail","shop":"supermarket","other":{"addr:city":"Backworth","addr:postcode":"NE27 0FS","addr:street":"Northumberland Park Way","brand":"ALDI","brand:wikidata":"Q41171672","brand:wikipedia":"en:Aldi","fhrs:id":"1154791","opening_hours":"Mo-Sa 08:00-22:00; Su 10:00-16:00"}}, "geometry":{"type":"MultiPolygon","coordinates":[[[[-1.52299,55.03108],[-1.52327,55.03131],[-1.52306,55.0314],[-1.52311,55.03144],[-1.52289,55.03153],[-1.52285,55.03149],[-1.52251,55.03163],[-1.52243,55.03156],[-1.52248,55.03154],[-1.52228,55.03137],[-1.52299,55.03108]]]]}},
{ "type":"Feature","properties":{"osm_way_id":"695745274","name":"Heron Foods","building":"yes","shop":"supermarket","other":{"brand":"Heron Foods","fhrs:id":"1084503","addr:city":"Shiremoor","addr:unit":"7","addr:street":"Earsdon Road","addr:postcode":"NE27 0SJ","brand:wikidata":"Q5743472","brand:wikipedia":"en:Heron Foods","contact:website":"https:\/\/heronfoods.com\/storelocator\/store-details\/shiremoor"}}, "geometry":{"type":"MultiPolygon","coordinates":[[[[-1.51676,55.03392],[-1.51711,55.03372],[-1.51717,55.03375],[-1.5172,55.03377],[-1.51739,55.03388],[-1.51705,55.03406],[-1.51676,55.03392]]]]}},
{ "type":"Feature","properties":{"osm_way_id":"767361682","name":"The Food Warehouse","building":"yes","shop":"supermarket","other":{"addr:city":"North Shields","addr:postcode":"NE29 7UJ","addr:street":"Coast Road Retail Park","addr:unit":"6","brand":"The Food Warehouse","brand:wikidata":"Q87263899","fhrs:id":"1084509","opening_hours":"Mo-Sa 08:00-21:00; Su 10:00-22:00","phone":"+44 191 259 1098","website":"https:\/\/www.thefoodwarehouse.com\/store-locator\/north-shields-newcastle","wheelchair":"yes"}}, "geometry":{"type":"MultiPolygon","coordinates":[[[[-1.48441,55.01149],[-1.48371,55.01165],[-1.48368,55.01165],[-1.48366,55.01164],[-1.48365,55.01162],[-1.48367,55.0116],[-1.48369,55.01159],[-1.48362,55.01148],[-1.4842,55.01135],[-1.48422,55.01134],[-1.4843,55.01133],[-1.48441,55.01149]]]]}},
{ "type":"Feature","properties":{"osm_way_id":"913514832","name":"Lidl","landuse":"retail","shop":"supermarket","other":{"addr:postcode":"NE29 9QS","addr:province":"North Tyneside","addr:street":"Rake Lane","addr:suburb":"Preston Grange","brand":"Lidl","brand:wikidata":"Q151954","brand:wikipedia":"en:Lidl","opening_hours":"Mo-Sa 08:00-22:00; Su 10:00-16:00; PH 08:00-20:00"}}, "geometry":{"type":"MultiPolygon","coordinates":[[[[-1.46425,55.02725],[-1.46444,55.02736],[-1.46436,55.0274],[-1.46433,55.02739],[-1.46427,55.02742],[-1.46418,55.02747],[-1.4641,55.02752],[-1.46406,55.02757],[-1.46405,55.02763],[-1.46418,55.02772],[-1.46434,55.02783],[-1.46436,55.02783],[-1.4644,55.02784],[-1.46444,55.02783],[-1.46451,55.02779],[-1.46463,55.02788],[-1.46468,55.02791],[-1.46527,55.02759],[-1.46545,55.0275],[-1.46556,55.0274],[-1.46563,55.02733],[-1.46569,55.02726],[-1.46568,55.02718],[-1.46564,55.02711],[-1.46547,55.02699],[-1.46517,55.02672],[-1.46507,55.02664],[-1.46415,55.02705],[-1.46411,55.02709],[-1.4641,55.02713],[-1.46413,55.02717],[-1.46425,55.02725]]]]}}
]
}
