{
"type": "FeatureCollection",
"features": [
{ "type":"Feature","properties":{"osm_id":"121821244","name":"Spar","other":{"brand":"Spar","brand:wikidata":"Q610492","brand:wikipedia":"en:SPAR (retailer)","shop":"supermarket"}}, "geometry":{"type":"Point","coordinates":[-3.00391,53.341 ]}},
{ "type":"Feature","properties":{"osm_id":"262417792","name":"Tesco Metro","other":{"addr:city":"Rock Ferry","addr:housenumber":"212a","addr:postcode":"CH42 4QF","addr:street":"Bebington Road","brand":"Tesco Metro","brand:wikidata":"Q57551648","fhrs:id":"394111","shop":"supermarket","source:addr":"FHRS Open Data"}}, "geometry":{"type":"Point","coordinates":[-3.01693,53.36527 ]}},
{ "type":"Feature","properties":{"osm_id":"444850799","name":"ALDI","other":{"brand":"ALDI","brand:wikidata":"Q41171672","brand:wikipedia":"en:Aldi","shop":"supermarket"}}, "geometry":{"type":"Point","coordinates":[-3.18442,53.37426 ]}},
{ "type":"Feature","properties":{"osm_id":"450636787","name":"ALDI","other":{"addr:housenumber":"8","addr:postcode":"CH60 5RA","addr:street":"May Road","brand":"ALDI","brand:wikidata":"Q41171672","brand:wikipedia":"en:Aldi","fhrs:id":"839610","shop":"supermarket","source:addr":"FHRS Open Data"}}, "geometry":{"type":"Point","coordinates":[-3.09675,53.3292 ]}},
{ "type":"Feature","properties":{"osm_id":"528813843","name":"ALDI","other":{"brand":"ALDI","brand:wikidata":"Q41171672","brand:wikipedia":"en:Aldi","operator":"Aldi","shop":"supermarket","source:name":"photograph"}}, "geometry":{"type":"Point","coordinates":[-3.04903,53.37392 ]}},
{ "type":"Feature","properties":{"osm_id":"695879172","name":"Lidl","other":{"addr:country":"GB","addr:housenumber":"2A","addr:postcode":"CH42 3UZ","addr:street":"St Pauls Road","brand":"Lidl","brand:wikidata":"Q151954","brand:wikipedia":"en:Lidl","fhrs:id":"394619","shop":"supermarket"}}, "geometry":{"type":"Point","coordinates":[-3.01461,53.37465 ]}},
{ "type":"Feature","properties":{"osm_id":"963856304","name":"COOP","other":{"shop":"supermarket"}}, "geometry":{"type":"Point","coordinates":[-3.11545,53.40012 ]}},
{ "type":"Feature","properties":{"osm_id":"1126197372","name":"Asda","other":{"shop":"supermarket","brand":"Asda","fhrs:id":"395712","operator":"Asda Stores Ltd","addr:city":"Birkenhead","addr:street":"Grange Road","addr:country":"GB","addr:postcode":"CH41 6ED","brand:wikidata":"Q297410","brand:wikipedia":"en:Asda","contact:website":"https:\/\/storelocator.asda.com\/north-west\/birkenhead\/222-grange-road","addr:housenumber":"222"}}, "geometry":{"type":"Point","coordinates":[-3.02921,53.38992 ]}},
{ "type":"Feature","properties":{"osm_id":"2137467867","name":"Morrisons Daily","other":{"brand":"Morrisons Daily","brand:wikidata":"Q99752411","shop":"supermarket","website":"https:\/\/my.morrisons.com\/storefinder\/34787"}}, "geometry":{"type":"Point","coordinates":[-3.0284,53.36963 ]}},
{ "type":"Feature","properties":{"osm_id":"2439247635","name":"Morrisons","other":{"brand":"Morrisons","brand:wikidata":"Q922344","brand:wikipedia":"en:Morrisons","shop":"supermarket"}}, "geometry":{"type":"Point","coordinates":[-3.02098,53.41039 ]}},
{ "type":"Feature","properties":{"osm_id":"2447565196","name":"Sainsbury's","other":{"brand":"Sainsbury's","brand:wikidata":"Q152096","brand:wikipedia":"en:Sainsbury's","shop":"supermarket"}}, "geometry":{"type":"Point","coordinates":[-3.10337,53.38011 ]}},
{ "type":"Feature","properties":{"osm_id":"2472154668","name":"The Co-operative Food","other":{"addr:housenumber":"83-85","addr:postcode":"CH45 3LG","addr:street":"Wallasey Village","brand":"The Co-operative Food","brand:wikidata":"Q107617274","old_name":"Kwik-Save","shop":"supermarket","source:addr":"FHRS Open Data","source:old_name":"NaPTAN"}}, "geometry":{"type":"Point","coordinates":[-3.06467,53.42244 ]}},
{ "type":"Feature","properties":{"osm_id":"2478996404","name":"Lidl","other":{"addr:housenumber":"189","addr:postcode":"CH45 8LN","addr:street":"Leasowe Road","brand":"Lidl","brand:wikidata":"Q151954","brand:wikipedia":"en:Lidl","fhrs:id":"805248","shop":"supermarket","source:addr":"FHRS Open Data"}}, "geometry":{"type":"Point","coordinates":[-3.07628,53.42077 ]}},
{ "type":"Feature","properties":{"osm_id":"2488248480","name":"ALDI","other":{"brand":"ALDI","brand:wikidata":"Q41171672","brand:wikipedia":"en:Aldi","shop":"supermarket"}}, "geometry":{"type":"Point","coordinates":[-3.0995,53.40401 ]}},
{ "type":"Feature","properties":{"osm_id":"2591695483","name":"Co-op Food","other":{"brand":"Co-op Food","brand:wikidata":"Q3277439","brand:wikipedia":"en:Co-op Food","shop":"supermarket","wheelchair":"yes"}}, "geometry":{"type":"Point","coordinates":[-3.08365,53.38655 ]}},
{ "type":"Feature","properties":{"osm_id":"2620735538","name":"RaanThai","other":{"shop":"supermarket","website":"https:\/\/www.raanthai.co.uk\/","addr:postcode":"CH43 3DU","addr:housename":"Unit A2"}}, "geometry":{"type":"Point","coordinates":[-3.06797,53.36716 ]}},
{ "type":"Feature","properties":{"osm_id":"2631001651","name":"ALDI","other":{"brand":"ALDI","brand:wikidata":"Q41171672","brand:wikipedia":"en:Aldi","payment:cash":"yes","payment:credit_cards":"yes","payment:debit_cards":"yes","shop":"supermarket"}}, "geometry":{"type":"Point","coordinates":[-3.04868,53.39862 ]}},
{ "type":"Feature","properties":{"osm_id":"5124271021","name":"Co-op Food","other":{"shop":"supermarket","brand":"Co-op Food","brand:wikidata":"Q3277439","brand:wikipedia":"en:Co-op Food"}}, "geometry":{"type":"Point","coordinates":[-3.02439,53.38091 ]}},
{ "type":"Feature","properties":{"osm_id":"6067564723","name":"Asda","other":{"shop":"supermarket","brand":"Asda","fhrs:id":"569880","operator":"Asda Stores Ltd","addr:street":"Stanley Road","source:addr":"FHRS Open Data","addr:country":"GB","addr:postcode":"CH41 7BG","brand:wikidata":"Q297410","brand:wikipedia":"en:Asda","contact:website":"https:\/\/storelocator.asda.com\/north-west\/birkenhead\/unit-1-stanley-road","addr:housenumber":"5"}}, "geometry":{"type":"Point","coordinates":[-3.05996,53.40331 ]}},
{ "type":"Feature","properties":{"osm_way_id":"42422078","name":"Asda","building":"retail","shop":"supermarket","other":{"brand":"Asda","layer":"1","fhrs:id":"395165","operator":"Asda Stores Ltd","addr:city":"Woodchurch","addr:street":"Woodchurch Road","addr:country":"GB","addr:postcode":"CH49 5PD","brand:wikidata":"Q297410","brand:wikipedia":"en:Asda","contact:website":"https:\/\/storelocator.asda.com\/north-west\/birkenhead\/woodchurch-road"}}, "geometry":{"type":"MultiPolygon","coordinates":[[[[-3.07669,53.37024],[-3.07658,53.37058],[-3.07544,53.37044],[-3.07559,53.36998],[-3.07588,53.37002],[-3.07596,53.36979],[-3.07691,53.3699],[-3.07687,53.37],[-3.07708,53.37003],[-3.07703,53.37017],[-3.07683,53.37015],[-3.07679,53.37025],[-3.07669,53.37024]]]]}},
{ "type":"Feature","properties":{"osm_way_id":"143276889","name":"Asda","building":"retail","shop":"supermarket","other":{"addr:city":"Bromborough","addr:country":"GB","addr:postcode":"CH62 3QP","addr:street":"Welton Road","brand":"Asda","brand:wikidata":"Q297410","brand:wikipedia":"en:Asda","fhrs:id":"394784","opening_hours":"24\/7","opening_hours:covid19":"open","operator":"Asda Stores Ltd","toilets":"yes","toilets:access":"customers","toilets:wheelchair":"yes","website":"https:\/\/storelocator.asda.com\/north-west\/bromborough\/welton-road-croft-business-park","wheelchair":"yes"}}, "geometry":{"type":"MultiPolygon","coordinates":[[[[-2.9765,53.3394],[-2.97579,53.33957],[-2.97565,53.33955],[-2.97549,53.33959],[-2.97557,53.3397],[-2.97548,53.33972],[-2.97544,53.33979],[-2.97555,53.33995],[-2.97564,53.33993],[-2.97577,53.34012],[-2.97591,53.34008],[-2.9762,53.34051],[-2.9766,53.34041],[-2.97662,53.34044],[-2.97689,53.34037],[-2.97691,53.3404],[-2.97705,53.34036],[-2.97701,53.34031],[-2.97712,53.34028],[-2.97695,53.34003],[-2.97701,53.34001],[-2.97684,53.33977],[-2.97683,53.33975],[-2.97681,53.33972],[-2.97691,53.3397],[-2.9768,53.33954],[-2.9767,53.33957],[-2.97668,53.33953],[-2.97661,53.33955],[-2.9765,53.3394]]]]}},
{ "type":"Feature","properties":{"osm_way_id":"154013803","name":"ALDI","building":"yes","shop":"supermarket","other":{"brand":"ALDI","brand:wikidata":"Q41171672","brand:wikipedia":"en:Aldi"}}, "geometry":{"type":"MultiPolygon","coordinates":[[[[-3.0023,53.35826],[-3.00218,53.35834],[-3.00225,53.35838],[-3.00219,53.35842],[-3.00215,53.35845],[-3.00194,53.35834],[-3.0019,53.35837],[-3.00137,53.3581],[-3.00166,53.3579],[-3.00181,53.35797],[-3.00178,53.35799],[-3.0023,53.35826]]]]}},
{ "type":"Feature","properties":{"osm_way_id":"154477177","name":"Asda","building":"yes","shop":"supermarket","other":{"brand":"Asda","fhrs:id":"394603","operator":"Asda Stores Ltd","addr:street":"Seaview Road","addr:country":"GB","addr:postcode":"CH45 4NZ","brand:wikidata":"Q297410","brand:wikipedia":"en:Asda","contact:website":"https:\/\/storelocator.asda.com\/north-west\/wallasey\/sea-view-road","source:postcode":"FHRS Open Data"}}, "geometry":{"type":"MultiPolygon","coordinates":[[[[-3.0505,53.42417],[-3.04971,53.42438],[-3.05001,53.42476],[-3.04987,53.42479],[-3.05016,53.42516],[-3.05032,53.42512],[-3.05036,53.42516],[-3.05101,53.42498],[-3.05084,53.42476],[-3.05095,53.42473],[-3.05082,53.42457],[-3.05104,53.42451],[-3.05093,53.42439],[-3.05107,53.42435],[-3.05096,53.4242],[-3.05093,53.42416],[-3.05118,53.42409],[-3.05076,53.42383],[-3.05069,53.42388],[-3.05082,53.42395],[-3.05062,53.42401],[-3.05068,53.42408],[-3.05054,53.42412],[-3.0506,53.42419],[-3.05053,53.42421],[-3.0505,53.42417]]]]}},
{ "type":"Feature","properties":{"osm_way_id":"194464580","name":"Sainsbury's","building":"yes","shop":"supermarket","other":{"brand":"Sainsbury's","brand:wikidata":"Q152096","brand:wikipedia":"en:Sainsbury's","operator":"Sainsbury's","source:name":"photograph"}}, "geometry":{"type":"MultiPolygon","coordinates":[[[[-3.04735,53.37397],[-3.0469,53.37402],[-3.04694,53.37414],[-3.04677,53.37416],[-3.04673,53.37405],[-3.04653,53.37407],[-3.04641,53.3737],[-3.0464,53.37367],[-3.04722,53.37358],[-3.04735,53.37397]]]]}},
{ "type":"Feature","properties":{"osm_way_id":"236560561","name":"Tesco Extra","building":"yes","shop":"supermarket","other":{"addr:postcode":"CH43 7AA","addr:street":"Bidston Link Road","brand":"Tesco Extra","brand:wikidata":"Q25172225","brand:wikipedia":"en:Tesco Extra","fhrs:id":"394119","source:addr":"FHRS Open Data"}}, "geometry":{"type":"MultiPolygon","coordinates":[[[[-3.07136,53.40806],[-3.07145,53.40789],[-3.07078,53.40777],[-3.07077,53.4078],[-3.07039,53.40773],[-3.07041,53.40769],[-3.07031,53.40767],[-3.07029,53.40771],[-3.06951,53.40757],[-3.06946,53.40766],[-3.06932,53.40794],[-3.0691,53.4079],[-3.06898,53.40814],[-3.0698,53.40829],[-3.06981,53.40827],[-3.07011,53.40832],[-3.0701,53.40835],[-3.07027,53.40838],[-3.07028,53.40835],[-3.07074,53.40843],[-3.07079,53.40832],[-3.07083,53.40833],[-3.07081,53.40837],[-3.07084,53.40838],[-3.07082,53.40843],[-3.07101,53.40846],[-3.07104,53.4084],[-3.07122,53.40843],[-3.07124,53.40838],[-3.07106,53.40835],[-3.07109,53.40829],[-3.07113,53.4083],[-3.07118,53.40819],[-3.07126,53.40804],[-3.07136,53.40806]]]]}},
{ "type":"Feature","properties":{"osm_way_id":"247903220","name":"Heron Foods","building":"yes","shop":"supermarket","other":{"brand":"Heron Foods","fhrs:id":"796388","addr:city":"Wirral","addr:town":"Moreton","addr:street":"Hoylake Road","addr:country":"GB","addr:postcode":"CH46 6AD","brand:wikidata":"Q5743472","brand:wikipedia":"en:Heron Foods","contact:website":"https:\/\/heronfoods.com\/storelocator\/store-details\/moreton","addr:housenumber":"220"}}, "geometry":{"type":"MultiPolygon","coordinates":[[[[-3.11284,53.40126],[-3.11298,53.40168],[-3.11277,53.4017],[-3.11269,53.40145],[-3.11264,53.40128],[-3.11284,53.40126]]]]}},
{ "type":"Feature","properties":{"osm_way_id":"248477637","name":"Co-op Food","building":"yes","shop":"supermarket","other":{"brand":"Co-op Food","operator":"The Co-operative Group","brand:wikidata":"Q3277439","brand:wikipedia":"en:Co-op Food"}}, "geometry":{"type":"MultiPolygon","coordinates":[[[[-2.97868,53.33086],[-2.97817,53.33087],[-2.97818,53.33118],[-2.97857,53.33117],[-2.97857,53.3312],[-2.97869,53.3312],[-2.97869,53.33113],[-2.97868,53.33086]]]]}},
{ "type":"Feature","properties":{"osm_way_id":"257130388","name":"Morrisons","building":"yes","shop":"supermarket","other":{"addr:housenumber":"11","addr:postcode":"CH48 0QA","addr:street":"Dee Lane","brand":"Morrisons","brand:wikidata":"Q922344","brand:wikipedia":"en:Morrisons","fhrs:id":"394975","source:addr":"FHRS Open Data"}}, "geometry":{"type":"MultiPolygon","coordinates":[[[[-3.18658,53.37235],[-3.1865,53.37222],[-3.18643,53.37224],[-3.18616,53.37182],[-3.18604,53.37185],[-3.18603,53.37184],[-3.18505,53.37207],[-3.18518,53.37238],[-3.18539,53.37233],[-3.18549,53.37248],[-3.18577,53.37241],[-3.18582,53.37249],[-3.18634,53.37236],[-3.18637,53.3724],[-3.18658,53.37235]]]]}},
{ "type":"Feature","properties":{"osm_way_id":"288478302","name":"The Co-operative Food","building":"yes","shop":"supermarket","other":{"addr:city":"Bromborough","addr:housenumber":"116","addr:postcode":"CH62 6AQ","addr:street":"Allport Road","brand":"The Co-operative Food","brand:wikidata":"Q107617274","fhrs:id":"394040","operator":"The Co-operative Group","source:addr:postcode":"FSA Food Hygiene Ratings Database"}}, "geometry":{"type":"MultiPolygon","coordinates":[[[[-2.98307,53.32263],[-2.9828,53.32269],[-2.98277,53.32272],[-2.98283,53.32282],[-2.98314,53.32275],[-2.98307,53.32263]]]]}},
{ "type":"Feature","properties":{"osm_way_id":"323240114","name":"Co-op","building":"yes","shop":"supermarket","other":{"addr:city":"Newton","addr:street":"Frankby Road"}}, "geometry":{"type":"MultiPolygon","coordinates":[[[[-3.15172,53.3725],[-3.1516,53.37259],[-3.15128,53.37244],[-3.15139,53.37235],[-3.15172,53.3725]]]]}},
{ "type":"Feature","properties":{"osm_way_id":"323540001","name":"The Co-operative Food Store","building":"retail","shop":"supermarket","other":{"addr:street":"Market Street","source:geometry":"Bing"}}, "geometry":{"type":"MultiPolygon","coordinates":[[[[-3.17408,53.3948],[-3.17395,53.39491],[-3.17375,53.39483],[-3.17366,53.39492],[-3.17364,53.39494],[-3.17376,53.39498],[-3.17371,53.39503],[-3.17388,53.39509],[-3.17416,53.39483],[-3.17408,53.3948]]]]}},
{ "type":"Feature","properties":{"osm_way_id":"324983154","name":"M&S Simply Food","building":"yes","shop":"supermarket","other":{"addr:housenumber":"126-128","addr:postcode":"CH60 0AH","addr:street":"Telegraph Road","brand":"M&S Simply Food","brand:wikidata":"Q714491","brand:wikipedia":"en:Marks & Spencer","fhrs:id":"395361","source:addr":"FHRS Open Data"}}, "geometry":{"type":"MultiPolygon","coordinates":[[[[-3.0946,53.32665],[-3.09432,53.32686],[-3.09403,53.32671],[-3.09431,53.32651],[-3.0946,53.32665]]]]}},
{ "type":"Feature","properties":{"osm_way_id":"324983157","name":"Tesco","building":"yes","shop":"supermarket","other":{"brand":"Tesco","brand:wikidata":"Q487494","brand:wikipedia":"en:Tesco"}}, "geometry":{"type":"MultiPolygon","coordinates":[[[[-3.10371,53.32862],[-3.10364,53.32855],[-3.10339,53.32841],[-3.10321,53.32831],[-3.10317,53.32834],[-3.10299,53.32824],[-3.10303,53.32821],[-3.10292,53.32816],[-3.1028,53.32824],[-3.10266,53.32816],[-3.10246,53.32821],[-3.10225,53.32834],[-3.10203,53.32848],[-3.10266,53.32883],[-3.10274,53.32877],[-3.10307,53.32893],[-3.1032,53.32884],[-3.1033,53.32889],[-3.1035,53.32876],[-3.10347,53.32867],[-3.10371,53.32862]]]]}},
{ "type":"Feature","properties":{"osm_way_id":"545331669","name":"Morrisons","building":"yes","shop":"supermarket","other":{"brand":"Morrisons","fhrs:id":"395690","addr:city":"New Brighton","wheelchair":"yes","addr:street":"Marine Point","source:addr":"FHRS Open Data","addr:postcode":"CH45 2PB","opening_hours":"Mo-Sa 07:00-22:00; Su 10:00-16:00","brand:wikidata":"Q922344","brand:wikipedia":"en:Morrisons","addr:housenumber":"22"}}, "geometry":{"type":"MultiPolygon","coordinates":[[[[-3.0458,53.44059],[-3.04698,53.44045],[-3.04698,53.44047],[-3.04733,53.44043],[-3.0473,53.44032],[-3.04717,53.44034],[-3.04707,53.44005],[-3.04701,53.44006],[-3.04695,53.43989],[-3.04562,53.44004],[-3.04563,53.4401],[-3.0458,53.44059]]]]}},
{ "type":"Feature","properties":{"osm_way_id":"585886861","name":"ALDI","building":"yes","shop":"supermarket","other":{"brand":"ALDI","brand:wikidata":"Q41171672","brand:wikipedia":"en:Aldi"}}, "geometry":{"type":"MultiPolygon","coordinates":[[[[-2.98498,53.34728],[-2.98451,53.34739],[-2.98488,53.34793],[-2.98503,53.34789],[-2.985,53.34784],[-2.98532,53.34777],[-2.98498,53.34728]]]]}},
{ "type":"Feature","properties":{"osm_way_id":"661393345","name":"Lidl","building":"supermarket","shop":"supermarket","other":{"addr:country":"GB","addr:postcode":"CH41 2TN","addr:street":"Oxton Road","brand":"Lidl","brand:wikidata":"Q151954","brand:wikipedia":"en:Lidl","fhrs:id":"1072887"}}, "geometry":{"type":"MultiPolygon","coordinates":[[[[-3.03537,53.38564],[-3.03431,53.38554],[-3.03436,53.38537],[-3.03429,53.38536],[-3.03432,53.38524],[-3.03544,53.38534],[-3.03537,53.38564]]]]}}
]
}
