{
"type": "FeatureCollection",
"features": [
{ "type":"Feature","properties":{"osm_id":"4172457589","name":"Wolstenholme Machine Knives ","other":{"addr:street":"Downgate Drive","building":"warehouse"}}, "geometry":{"type":"Point","coordinates":[-1.43245,53.40511 ]}},
{ "type":"Feature","properties":{"osm_id":"7609275142","other":{"amenity":"loading_dock"}}, "geometry":{"type":"Point","coordinates":[-1.43688,53.38498 ]}},
{ "type":"Feature","properties":{"osm_id":"9466341","name":"Ocado","type":"multipolygon","building":"warehouse","other":{"addr:city":"Sheffield","addr:housenumber":"10","addr:postcode":"S4 8DA","addr:street":"Chambers Lane","building:levels":"1"}}, "geometry":{"type":"MultiPolygon","coordinates":[[[[-1.43552,53.40588],[-1.43561,53.40581],[-1.43526,53.40565],[-1.43517,53.40572],[-1.43524,53.40575],[-1.43522,53.40577],[-1.43526,53.40579],[-1.43528,53.40577],[-1.43552,53.40588]]],[[[-1.43569,53.40547],[-1.43586,53.40533],[-1.4354,53.40513],[-1.43522,53.40527],[-1.4353,53.40531],[-1.43523,53.40536],[-1.43536,53.40542],[-1.43544,53.40536],[-1.43569,53.40547]]]]}},
{ "type":"Feature","properties":{"osm_way_id":"71868183","name":"Makro","building":"warehouse","shop":"wholesale","other":{"brand":"Makro","brand:wikidata":"Q704606","brand:wikipedia":"en:Makro"}}, "geometry":{"type":"MultiPolygon","coordinates":[[[[-1.43013,53.38349],[-1.42881,53.38418],[-1.42983,53.3849],[-1.43115,53.38419],[-1.43013,53.38349]]]]}},
{ "type":"Feature","properties":{"osm_way_id":"93368007","name":"Armadillo Self Storage","building":"warehouse","shop":"storage_rental","other":{"addr:city":"Sheffield","addr:housenumber":"8","addr:postcode":"S9 4WA","addr:street":"Parkway Avenue","alt_name":"Armadillo Sheffield Parkway"}}, "geometry":{"type":"MultiPolygon","coordinates":[[[[-1.43694,53.385],[-1.43688,53.38498],[-1.43643,53.38481],[-1.43584,53.38537],[-1.43634,53.38556],[-1.43694,53.385]]]]}},
{ "type":"Feature","properties":{"osm_way_id":"93916543","name":"Peter Ward Engineering","building":"warehouse","other":{"addr:city":"Sheffield","addr:postcode":"S2 3DA","addr:street":"Sheaf Bank"}}, "geometry":{"type":"MultiPolygon","coordinates":[[[[-1.47154,53.36205],[-1.47133,53.36207],[-1.47136,53.36227],[-1.47158,53.36226],[-1.47154,53.36205]]]]}},
{ "type":"Feature","properties":{"osm_way_id":"93916545","building":"warehouse","other":{"addr:city":"Sheffield","addr:housenumber":"21","addr:postcode":"S2 3AA","addr:street":"Gleadless Road"}}, "geometry":{"type":"MultiPolygon","coordinates":[[[[-1.47175,53.36204],[-1.47159,53.36205],[-1.47161,53.36218],[-1.47177,53.36217],[-1.47175,53.36204]]]]}},
{ "type":"Feature","properties":{"osm_way_id":"95688902","building":"warehouse","other":{"addr:city":"Sheffield","addr:country":"GB","addr:county":"South Yorkshire"}}, "geometry":{"type":"MultiPolygon","coordinates":[[[[-1.45968,53.35548],[-1.45976,53.3554],[-1.45955,53.35533],[-1.45947,53.3554],[-1.45968,53.35548]]]]}},
{ "type":"Feature","properties":{"osm_way_id":"96740537","building":"warehouse","other":{"addr:housename":"The Don Cinema","wikidata":"Q39419980"}}, "geometry":{"type":"MultiPolygon","coordinates":[[[[-1.46993,53.38488],[-1.46991,53.38519],[-1.46988,53.38521],[-1.46969,53.38521],[-1.46969,53.38516],[-1.46964,53.38516],[-1.46968,53.38492],[-1.46968,53.38488],[-1.46993,53.38488]]]]}},
{ "type":"Feature","properties":{"osm_way_id":"97856593","building":"warehouse"},"geometry":{"type":"MultiPolygon","coordinates":[[[[-1.48446,53.35162],[-1.48459,53.35159],[-1.48453,53.3515],[-1.48441,53.35153],[-1.48445,53.3516],[-1.48446,53.35162]]]]}},
{ "type":"Feature","properties":{"osm_way_id":"97856607","building":"warehouse"},"geometry":{"type":"MultiPolygon","coordinates":[[[[-1.48427,53.35147],[-1.48412,53.35152],[-1.48412,53.35153],[-1.48406,53.35155],[-1.484,53.35154],[-1.48397,53.35152],[-1.48407,53.35148],[-1.48407,53.35147],[-1.48423,53.35142],[-1.48427,53.35147]]]]}},
{ "type":"Feature","properties":{"osm_way_id":"106899152","building":"warehouse"},"geometry":{"type":"MultiPolygon","coordinates":[[[[-1.47646,53.38828],[-1.47617,53.38806],[-1.47625,53.38803],[-1.4762,53.38799],[-1.47628,53.38794],[-1.47661,53.38818],[-1.47646,53.38828]]]]}},
{ "type":"Feature","properties":{"osm_way_id":"115888969","name":"South Yorkshre Police OPERATIONS COMPLEX","amenity":"polling_station","building":"warehouse","other":{"operator":"South Yorkshre Police"}}, "geometry":{"type":"MultiPolygon","coordinates":[[[[-1.3984,53.39603],[-1.39844,53.39568],[-1.3974,53.39563],[-1.39736,53.39598],[-1.3984,53.39603]]]]}},
{ "type":"Feature","properties":{"osm_way_id":"137519117","building":"warehouse","other":{"addr:city":"Sheffield","addr:housenumber":"15","addr:postcode":"S2 4HG","addr:street":"Guernsey Road","old_name":"Comet","website":"https:\/\/www.furniture-barn.co.uk\/Home\/Sheffield_Store"}}, "geometry":{"type":"MultiPolygon","coordinates":[[[[-1.47036,53.36422],[-1.47005,53.36443],[-1.4697,53.36424],[-1.47001,53.36403],[-1.47036,53.36422]]]]}},
{ "type":"Feature","properties":{"osm_way_id":"171957976","building":"warehouse"},"geometry":{"type":"MultiPolygon","coordinates":[[[[-1.47629,53.3616],[-1.47638,53.36149],[-1.47648,53.36151],[-1.47667,53.36126],[-1.47679,53.3613],[-1.47682,53.36126],[-1.477,53.36131],[-1.477,53.36132],[-1.47699,53.36133],[-1.47695,53.36133],[-1.47693,53.36135],[-1.47685,53.36143],[-1.47675,53.36141],[-1.47673,53.36143],[-1.4768,53.36145],[-1.4767,53.36158],[-1.47655,53.36154],[-1.47648,53.36152],[-1.4764,53.36163],[-1.47629,53.3616]]]]}},
{ "type":"Feature","properties":{"osm_way_id":"171958002","building":"warehouse"},"geometry":{"type":"MultiPolygon","coordinates":[[[[-1.47655,53.36154],[-1.47665,53.36141],[-1.47673,53.36143],[-1.4768,53.36145],[-1.4767,53.36158],[-1.47655,53.36154]]]]}},
{ "type":"Feature","properties":{"osm_way_id":"230458507","building":"warehouse"},"geometry":{"type":"MultiPolygon","coordinates":[[[[-1.46539,53.38831],[-1.46518,53.38839],[-1.46505,53.38824],[-1.46527,53.38817],[-1.46539,53.38831]]]]}},
{ "type":"Feature","properties":{"osm_way_id":"266463258","name":"Remar UK","building":"warehouse"},"geometry":{"type":"MultiPolygon","coordinates":[[[[-1.46697,53.37435],[-1.46665,53.37422],[-1.46643,53.37442],[-1.46635,53.37438],[-1.46631,53.37442],[-1.46623,53.37439],[-1.46619,53.37442],[-1.46627,53.37445],[-1.46626,53.37446],[-1.46672,53.37465],[-1.4668,53.37457],[-1.46673,53.37455],[-1.46682,53.37448],[-1.46697,53.37435]]]]}},
{ "type":"Feature","properties":{"osm_way_id":"883836601","name":"DBL Logistics","building":"warehouse"},"geometry":{"type":"MultiPolygon","coordinates":[[[[-1.4125,53.39862],[-1.41327,53.39852],[-1.4134,53.39885],[-1.41364,53.39882],[-1.41376,53.39918],[-1.41297,53.39928],[-1.41291,53.39911],[-1.41269,53.39914],[-1.4125,53.39862]]]]}}
]
}
