{
"type": "FeatureCollection",
"features": [
{ "type":"Feature","properties":{"osm_id":"364836104","name":"The Co-operative Food","other":{"shop":"supermarket"}}, "geometry":{"type":"Point","coordinates":[-1.40007,53.43955 ]}},
{ "type":"Feature","properties":{"osm_id":"455919268","name":"Heron Foods","other":{"addr:city":"Rotherham","addr:country":"GB","addr:housenumber":"72","addr:postcode":"S66 7BN","addr:street":"High Street","brand":"Heron Foods","brand:wikidata":"Q5743472","brand:wikipedia":"en:Heron Foods","contact:website":"https:\/\/heronfoods.com\/storelocator\/store-details\/maltby","fhrs:id":"582721","shop":"supermarket"}}, "geometry":{"type":"Point","coordinates":[-1.19934,53.42359 ]}},
{ "type":"Feature","properties":{"osm_id":"469172002","name":"Asda","other":{"addr:city":"Parkgate","addr:country":"GB","addr:postcode":"S62 6EE","addr:street":"Taylors Lane","brand":"Asda","brand:wikidata":"Q297410","brand:wikipedia":"en:Asda","contact:website":"https:\/\/storelocator.asda.com\/yorkshire-&-humber\/rotherham\/taylors-lane-parkgate","fhrs:id":"460785","operator":"Asda Stores Ltd","shop":"supermarket"}}, "geometry":{"type":"Point","coordinates":[-1.3454,53.4506 ]}},
{ "type":"Feature","properties":{"osm_id":"469776557","name":"McColl's","other":{"shop":"supermarket"}}, "geometry":{"type":"Point","coordinates":[-1.40334,53.44776 ]}},
{ "type":"Feature","properties":{"osm_id":"1705929109","name":"Co-op","other":{"shop":"supermarket"}}, "geometry":{"type":"Point","coordinates":[-1.37373,53.45332 ]}},
{ "type":"Feature","properties":{"osm_id":"2081226276","name":"ALDI","other":{"addr:city":"Sheffield","addr:country":"GB","addr:housename":"ALDI","addr:postcode":"S25 2AF","addr:street":"Littlefield Road","addr:town":"Dinnington","brand":"ALDI","brand:wikidata":"Q41171672","brand:wikipedia":"en:Aldi","contact:website":"https:\/\/www.aldi.co.uk\/store\/s-uk-E0786","fhrs:id":"461278","shop":"supermarket"}}, "geometry":{"type":"Point","coordinates":[-1.21192,53.36818 ]}},
{ "type":"Feature","properties":{"osm_id":"3392793599","name":"The Co-operative Food","other":{"shop":"supermarket"}}, "geometry":{"type":"Point","coordinates":[-1.27594,53.34081 ]}},
{ "type":"Feature","properties":{"osm_id":"3635375798","name":"The Co-operative Food","other":{"operator":"The Co-operative Group","shop":"supermarket"}}, "geometry":{"type":"Point","coordinates":[-1.23164,53.37842 ]}},
{ "type":"Feature","properties":{"osm_id":"4067606493","name":"Aldi","other":{"brand":"ALDI","brand:wikidata":"Q41171672","brand:wikipedia":"en:Aldi","operator":"Aldi","shop":"supermarket"}}, "geometry":{"type":"Point","coordinates":[-1.345,53.4374 ]}},
{ "type":"Feature","properties":{"osm_id":"6763838349","name":"Heron Foods","other":{"addr:city":"Rotherham","addr:country":"GB","addr:housenumber":"2,4","addr:postcode":"S60 1QU","addr:street":"Howard Street","brand":"Heron Foods","brand:wikidata":"Q5743472","brand:wikipedia":"en:Heron Foods","contact:website":"https:\/\/heronfoods.com\/storelocator\/store-details\/rotherham","fhrs:id":"462272","shop":"supermarket"}}, "geometry":{"type":"Point","coordinates":[-1.35625,53.43271 ]}},
{ "type":"Feature","properties":{"osm_id":"7123466686","name":"Heron Foods","other":{"addr:city":"Rotherham","addr:country":"GB","addr:housenumber":"53","addr:postcode":"S25 2PN","addr:street":"Laughton Road","brand":"Heron Foods","brand:wikidata":"Q5743472","brand:wikipedia":"en:Heron Foods","contact:website":"https:\/\/heronfoods.com\/storelocator\/store-details\/dinnington","fhrs:id":"460898","shop":"supermarket"}}, "geometry":{"type":"Point","coordinates":[-1.2104,53.36876 ]}},
{ "type":"Feature","properties":{"osm_id":"7447273463","name":"Asda","other":{"addr:city":"Rotherham","addr:country":"GB","addr:housenumber":"107-111","addr:postcode":"S63 7PX","addr:street":"High Street","brand":"Asda","brand:wikidata":"Q297410","brand:wikipedia":"en:Asda","contact:website":"https:\/\/storelocator.asda.com\/yorkshire-&-humber\/wath-upon-dearne\/107-111-high-street","fhrs:id":"462066","operator":"Asda Stores Ltd","shop":"supermarket"}}, "geometry":{"type":"Point","coordinates":[-1.34137,53.50305 ]}},
{ "type":"Feature","properties":{"osm_id":"7653583953","name":"ALDI","other":{"addr:city":"Maltby","addr:postcode":"S66 7JU","addr:street":"Muglet Lane","brand":"ALDI","brand:wikidata":"Q41171672","brand:wikipedia":"en:Aldi","opening_hours":"Mo-Sa 08:00-20:00; Su 10:00-16:00","phone":"+44 20 3137 8268","shop":"supermarket","website":"https:\/\/www.aldi.co.uk\/store\/s-uk-E0981"}}, "geometry":{"type":"Point","coordinates":[-1.19329,53.41992 ]}},
{ "type":"Feature","properties":{"osm_id":"8308628083","name":"Heron Foods","other":{"brand":"Heron Foods","brand:wikidata":"Q5743472","brand:wikipedia":"en:Heron Foods","shop":"supermarket"}}, "geometry":{"type":"Point","coordinates":[-1.33014,53.43784 ]}},
{ "type":"Feature","properties":{"osm_id":"8635160495","name":"Co-op","other":{"shop":"supermarket"}}, "geometry":{"type":"Point","coordinates":[-1.27882,53.43555 ]}},
{ "type":"Feature","properties":{"osm_way_id":"30910751","name":"Tesco","building":"retail","shop":"supermarket","other":{"addr:city":"Rotherham","addr:country":"GB","addr:postcode":"S66 8LG","addr:street":"High Street","brand":"Tesco","brand:wikidata":"Q487494","brand:wikipedia":"en:Tesco","opening_hours":"Mo-Fr 08:00-22:00; Sa 08:00-20:00; Su 10:00-16:00","operator":"Tesco","payment:cards":"yes","payment:cash":"yes","payment:contactless":"yes"}}, "geometry":{"type":"MultiPolygon","coordinates":[[[[-1.20232,53.42244],[-1.20207,53.42268],[-1.20184,53.42259],[-1.20168,53.42273],[-1.20145,53.42265],[-1.20182,53.42227],[-1.20232,53.42244]]]]}},
{ "type":"Feature","properties":{"osm_way_id":"41820579","name":"Morrisons","building":"yes","shop":"supermarket","other":{"addr:city":"Sheffield","addr:country":"GB","addr:street":"Poplar Way","addr:town":"Rotherham","addr:village":"Catcliffe","brand":"Morrisons","brand:wikidata":"Q922344","brand:wikipedia":"en:Morrisons","fhrs:id":"460802","opening_hours":"Mo-Sa 06:00-23:00; Su 10:00-16:00"}}, "geometry":{"type":"MultiPolygon","coordinates":[[[[-1.37473,53.3908],[-1.37461,53.3908],[-1.37452,53.39075],[-1.37436,53.39083],[-1.3731,53.39079],[-1.37307,53.39124],[-1.37314,53.39124],[-1.37313,53.39141],[-1.37473,53.39144],[-1.37472,53.39103],[-1.37473,53.3908]]]]}},
{ "type":"Feature","properties":{"osm_way_id":"59409230","name":"The Co-operative Food","building":"yes","shop":"supermarket","other":{"addr:city":"Sheffield","addr:country":"GB","addr:postcode":"S26 6QU","addr:street":"Chapel Way","addr:village":"Kiveton Park","fhrs:id":"461524"}}, "geometry":{"type":"MultiPolygon","coordinates":[[[[-1.27065,53.34026],[-1.27028,53.34029],[-1.27018,53.33986],[-1.27055,53.33982],[-1.27065,53.34026]]]]}},
{ "type":"Feature","properties":{"osm_way_id":"70058893","name":"Morrisons","building":"retail","shop":"supermarket","other":{"addr:city":"Rotherham","addr:country":"GB","addr:housename":"Retail World","addr:postcode":"S60 1TG","addr:street":"Stadium Way","addr:suburb":"Parkgate","addr:unit":"19","brand":"Morrisons","brand:wikidata":"Q922344","brand:wikipedia":"en:Morrisons"}}, "geometry":{"type":"MultiPolygon","coordinates":[[[[-1.34354,53.44529],[-1.34308,53.44549],[-1.34305,53.44547],[-1.34269,53.44563],[-1.34327,53.44609],[-1.34331,53.44607],[-1.34387,53.44653],[-1.34429,53.44634],[-1.34432,53.44636],[-1.34457,53.44626],[-1.34439,53.44611],[-1.3445,53.44606],[-1.34354,53.44529]]]]}},
{ "type":"Feature","properties":{"osm_way_id":"84508981","name":"Asda","building":"yes","shop":"supermarket","other":{"addr:city":"Rotherham","addr:country":"GB","addr:postcode":"S65 3SW","addr:street":"Aldwarke Lane","brand":"Asda","brand:wikidata":"Q297410","brand:wikipedia":"en:Asda","contact:website":"https:\/\/storelocator.asda.com\/yorkshire-&-humber\/rotherham\/alwdarke-lane-off-doncaster-road","fhrs:id":"460552","operator":"Asda Stores Ltd"}}, "geometry":{"type":"MultiPolygon","coordinates":[[[[-1.31916,53.44294],[-1.31832,53.44336],[-1.31847,53.44347],[-1.31833,53.44355],[-1.31851,53.44367],[-1.31848,53.44369],[-1.31869,53.44382],[-1.31867,53.44392],[-1.31889,53.44407],[-1.319,53.44401],[-1.31921,53.44416],[-1.32001,53.44374],[-1.3198,53.44359],[-1.31996,53.44351],[-1.31978,53.44338],[-1.31983,53.44336],[-1.31967,53.44325],[-1.31963,53.44327],[-1.31916,53.44294]]]]}},
{ "type":"Feature","properties":{"osm_way_id":"113159787","name":"Morrisons","building":"retail","shop":"supermarket","other":{"addr:city":"Rotherham","addr:housename":"Morrisons","addr:postcode":"S66 1YZ","addr:street":"Bawtry Road","brand":"Morrisons","brand:wikidata":"Q922344","brand:wikipedia":"en:Morrisons","building:levels":"1","opening_hours":"Mo-Sa 07:00-23:00","operator":"Morrisons","payment:cards":"yes","payment:cash":"yes","payment:contactless":"yes","phone":"+44 1709 540681","roof:levels":"0","website":"https:\/\/my.morrisons.com\/storefinder\/39"}}, "geometry":{"type":"MultiPolygon","coordinates":[[[[-1.2575,53.42362],[-1.2578,53.42364],[-1.25784,53.4235],[-1.25755,53.42348],[-1.2576,53.42324],[-1.25756,53.42324],[-1.2576,53.42309],[-1.2574,53.42307],[-1.25744,53.42294],[-1.25701,53.4229],[-1.25702,53.42286],[-1.25691,53.42285],[-1.25686,53.4228],[-1.25671,53.42278],[-1.25646,53.42289],[-1.2564,53.42323],[-1.25654,53.42334],[-1.25665,53.42335],[-1.25656,53.42377],[-1.25661,53.42377],[-1.25664,53.42377],[-1.25662,53.42385],[-1.25728,53.4239],[-1.25732,53.42373],[-1.25747,53.42374],[-1.2575,53.42362]]]]}},
{ "type":"Feature","properties":{"osm_way_id":"151251603","name":"Morrisons","building":"yes","shop":"supermarket","other":{"addr:postcode":"S73 0SX","brand":"Morrisons","brand:wikidata":"Q922344","brand:wikipedia":"en:Morrisons"}}, "geometry":{"type":"MultiPolygon","coordinates":[[[[-1.39137,53.5073],[-1.39126,53.50723],[-1.39144,53.50712],[-1.39138,53.50709],[-1.39149,53.50702],[-1.39127,53.50688],[-1.39115,53.50694],[-1.39097,53.50683],[-1.39089,53.50688],[-1.39083,53.50685],[-1.39071,53.50692],[-1.39068,53.5069],[-1.3898,53.50741],[-1.39041,53.50777],[-1.3903,53.50783],[-1.39059,53.50801],[-1.39089,53.50784],[-1.39079,53.50778],[-1.39126,53.50751],[-1.39114,53.50743],[-1.39137,53.5073]]]]}},
{ "type":"Feature","properties":{"osm_way_id":"152836105","name":"Tesco Superstore","building":"yes","shop":"supermarket","other":{"brand":"Tesco","brand:wikidata":"Q487494","brand:wikipedia":"en:Tesco"}}, "geometry":{"type":"MultiPolygon","coordinates":[[[[-1.21156,53.37049],[-1.21134,53.37042],[-1.21139,53.37036],[-1.21119,53.37031],[-1.21115,53.37036],[-1.2108,53.37026],[-1.21045,53.3707],[-1.21119,53.37092],[-1.21156,53.37049]]]]}},
{ "type":"Feature","properties":{"osm_way_id":"153562168","name":"Lidl","building":"shop","shop":"supermarket","other":{"addr:country":"GB","addr:housenumber":"17","addr:postcode":"S60 1EX","addr:street":"Masbrough Street","brand":"Lidl","brand:wikidata":"Q151954","brand:wikipedia":"en:Lidl","fhrs:id":"460809"}}, "geometry":{"type":"MultiPolygon","coordinates":[[[[-1.36334,53.43197],[-1.36327,53.43178],[-1.36318,53.43179],[-1.36317,53.43175],[-1.36308,53.43177],[-1.36306,53.43172],[-1.36292,53.43173],[-1.36294,53.43179],[-1.36238,53.43186],[-1.36247,53.43209],[-1.36334,53.43197]]]]}},
{ "type":"Feature","properties":{"osm_way_id":"226960722","name":"Aldi","building":"commercial","shop":"supermarket","other":{"brand":"ALDI","brand:wikidata":"Q41171672","brand:wikipedia":"en:Aldi"}}, "geometry":{"type":"MultiPolygon","coordinates":[[[[-1.37362,53.43349],[-1.37363,53.43341],[-1.37376,53.43342],[-1.37378,53.43325],[-1.37292,53.4332],[-1.37289,53.43332],[-1.37279,53.43331],[-1.37277,53.43344],[-1.37362,53.43349]]]]}},
{ "type":"Feature","properties":{"osm_way_id":"316645253","name":"Tesco Extra","building":"yes","shop":"supermarket","other":{"addr:city":"Rotherham","addr:postcode":"S65 1HY","addr:street":"Drummond Street","alt_name":"Tesco Rotherham Extra","brand":"Tesco Extra","brand:wikidata":"Q25172225","brand:wikipedia":"en:Tesco Extra","operator":"Tesco Stores Ltd"}}, "geometry":{"type":"MultiPolygon","coordinates":[[[[-1.35441,53.43393],[-1.35359,53.43452],[-1.35323,53.43458],[-1.3521,53.43402],[-1.35302,53.43332],[-1.35354,53.43356],[-1.35358,53.43353],[-1.35441,53.43393]]]]}},
{ "type":"Feature","properties":{"osm_way_id":"325202522","name":"The Co-operative Food","building":"yes","shop":"supermarket","other":{"operator":"The Co-operative Group"}}, "geometry":{"type":"MultiPolygon","coordinates":[[[[-1.31325,53.4865],[-1.31293,53.48679],[-1.31271,53.48671],[-1.31267,53.48674],[-1.31229,53.4866],[-1.31243,53.48647],[-1.31246,53.48649],[-1.31269,53.48628],[-1.31325,53.4865]]]]}},
{ "type":"Feature","properties":{"osm_way_id":"357278392","name":"Sainsbury's","building":"yes","shop":"supermarket","other":{"addr:city":"London","addr:housenumber":"1","addr:postcode":"SW19 1DD","addr:street":"Merton High Street","alt_name":"Sainsbury's Merton Superstore","brand":"Sainsbury's","brand:wikidata":"Q152096","brand:wikipedia":"en:Sainsbury's","fhrs:id":"455446","layer":"1","opening_hours":"Mo-Sa 07:00-23:00; Su 11:00-17:00","website":"https:\/\/stores.sainsburys.co.uk\/0566\/merton","wheelchair":"yes"}}, "geometry":{"type":"MultiPolygon","coordinates":[[[[-0.18252,51.4147],[-0.18246,51.41471],[-0.18243,51.41472],[-0.18222,51.41475],[-0.18219,51.41475],[-0.18204,51.41443],[-0.18187,51.41446],[-0.18165,51.4145],[-0.18163,51.4145],[-0.18142,51.41454],[-0.18119,51.41458],[-0.18097,51.41461],[-0.18074,51.41466],[-0.18052,51.41469],[-0.18034,51.41472],[-0.18045,51.41496],[-0.18074,51.41565],[-0.18086,51.41591],[-0.18102,51.41588],[-0.18127,51.41584],[-0.18147,51.41581],[-0.1817,51.41577],[-0.18172,51.41582],[-0.18174,51.41582],[-0.18189,51.41579],[-0.182,51.41577],[-0.18203,51.41585],[-0.18216,51.41583],[-0.18228,51.41581],[-0.18225,51.41573],[-0.18241,51.4157],[-0.18255,51.41551],[-0.18261,51.41543],[-0.18261,51.41539],[-0.18259,51.41534],[-0.18278,51.41531],[-0.18252,51.4147]]]]}},
{ "type":"Feature","properties":{"osm_way_id":"358625674","name":"The Co-operative Food","building":"yes","shop":"supermarket","other":{"opening_hours":"Mo-Sa 07:00-22:00; Su 10:00-16:00","operator":"The Co-operative Group"}}, "geometry":{"type":"MultiPolygon","coordinates":[[[[-1.32192,53.36313],[-1.32236,53.36335],[-1.32222,53.36345],[-1.32232,53.3635],[-1.32222,53.36357],[-1.32168,53.3633],[-1.32192,53.36313]]]]}},
{ "type":"Feature","properties":{"osm_way_id":"358626994","name":"The Co-operative Food","building":"yes","shop":"supermarket","other":{"opening_hours":"Mo-Su 07:00-22:00","operator":"The Co-operative Group"}}, "geometry":{"type":"MultiPolygon","coordinates":[[[[-1.30563,53.36346],[-1.30565,53.36354],[-1.30562,53.36355],[-1.30538,53.36357],[-1.30528,53.36359],[-1.30523,53.36344],[-1.30541,53.36342],[-1.30563,53.36346]]]]}},
{ "type":"Feature","properties":{"osm_way_id":"358636899","name":"The Co-operative Food","building":"yes","shop":"supermarket","other":{"operator":"The Co-operative Group"}}, "geometry":{"type":"MultiPolygon","coordinates":[[[[-1.25821,53.39694],[-1.25814,53.39706],[-1.25783,53.39699],[-1.2579,53.39687],[-1.25821,53.39694]]]]}},
{ "type":"Feature","properties":{"osm_way_id":"358637686","name":"Morrisons Daily","building":"yes","shop":"supermarket"},"geometry":{"type":"MultiPolygon","coordinates":[[[[-1.28511,53.42824],[-1.28502,53.42831],[-1.28465,53.42813],[-1.28474,53.42806],[-1.28492,53.42815],[-1.28511,53.42824]]]]}},
{ "type":"Feature","properties":{"osm_way_id":"385906128","name":"Pak Supermarket","building":"yes","shop":"supermarket"},"geometry":{"type":"MultiPolygon","coordinates":[[[[-1.35035,53.42718],[-1.35073,53.42693],[-1.35068,53.4269],[-1.35065,53.42692],[-1.35044,53.42681],[-1.35039,53.42685],[-1.35027,53.42679],[-1.34998,53.42698],[-1.35035,53.42718]]]]}},
{ "type":"Feature","properties":{"osm_way_id":"389952288","name":"Tesco Express","building":"yes","shop":"supermarket","other":{"addr:city":"Rotherham","addr:postcode":"S60 2AY","addr:street":"Moorgate Road","alt_name":"tesco Rotherham Moorgate Road Express","brand":"Tesco Express","brand:wikidata":"Q98456772","opening_hours":"Mo-Su 07:00-23:00"}}, "geometry":{"type":"MultiPolygon","coordinates":[[[[-1.34992,53.42079],[-1.34999,53.4208],[-1.35003,53.42084],[-1.35017,53.42079],[-1.34999,53.42065],[-1.34995,53.42066],[-1.34991,53.42063],[-1.3496,53.42075],[-1.3497,53.42084],[-1.34972,53.42083],[-1.34975,53.42086],[-1.34992,53.42079]]]]}},
{ "type":"Feature","properties":{"osm_way_id":"569921568","name":"Co-op","building":"yes","shop":"supermarket"},"geometry":{"type":"MultiPolygon","coordinates":[[[[-1.28552,53.42056],[-1.28534,53.42038],[-1.28528,53.4204],[-1.28525,53.42037],[-1.28519,53.42039],[-1.28541,53.4206],[-1.28552,53.42056]]]]}},
{ "type":"Feature","properties":{"osm_way_id":"657213910","name":"Tesco Express","building":"yes","shop":"supermarket","other":{"brand":"Tesco Express","brand:wikidata":"Q98456772","brand:wikipedia":"en:Tesco"}}, "geometry":{"type":"MultiPolygon","coordinates":[[[[-1.3438,53.45984],[-1.34378,53.46008],[-1.34407,53.4601],[-1.34409,53.45986],[-1.3438,53.45984]]]]}},
{ "type":"Feature","properties":{"osm_way_id":"684674535","name":"Del's","building":"yes","shop":"supermarket","other":{"addr:city":"Sheffield","addr:country":"GB","addr:housenumber":"37","addr:postcode":"S26 4TT","addr:street":"High Street","addr:village":"Swallownest","fhrs:id":"461964"}}, "geometry":{"type":"MultiPolygon","coordinates":[[[[-1.32141,53.3637],[-1.32165,53.36352],[-1.32159,53.3635],[-1.32162,53.36348],[-1.3215,53.36342],[-1.3212,53.36365],[-1.32129,53.36369],[-1.32133,53.36366],[-1.32141,53.3637]]]]}},
{ "type":"Feature","properties":{"osm_way_id":"701353667","name":"Heron Foods","building":"yes","shop":"supermarket","other":{"addr:city":"Rawmarsh","addr:country":"GB","addr:housename":"Rawmarsh Shopping Centre","addr:postcode":"S62 6NG","addr:street":"Bellows Road","addr:unit":"B","brand":"Heron Foods","brand:wikidata":"Q5743472","brand:wikipedia":"en:Heron Foods","contact:website":"https:\/\/heronfoods.com\/storelocator\/store-details\/rawmarsh","fhrs:id":"699406"}}, "geometry":{"type":"MultiPolygon","coordinates":[[[[-1.34374,53.46009],[-1.34375,53.45999],[-1.34344,53.45998],[-1.34343,53.46008],[-1.34374,53.46009]]]]}},
{ "type":"Feature","properties":{"osm_way_id":"712311311","name":"Co-Op","building":"yes","shop":"supermarket"},"geometry":{"type":"MultiPolygon","coordinates":[[[[-1.32077,53.41272],[-1.3209,53.41283],[-1.32116,53.41273],[-1.32118,53.41266],[-1.32107,53.41258],[-1.32077,53.41272]]]]}},
{ "type":"Feature","properties":{"osm_way_id":"747277006","name":"Aldi","building":"yes","shop":"supermarket","other":{"addr:city":"Rotherham","addr:housename":"Aldi","addr:housenumber":"97","addr:postcode":"S66 2TW","addr:street":"Bawtry Road","brand":"ALDI","brand:wikidata":"Q41171672","brand:wikipedia":"en:Aldi","opening_hours":"Mo-Su 08:00-22:00","operator":"ALDI","payment:card":"yes","payment:cash":"yes","payment:contactless":"yes"}}, "geometry":{"type":"MultiPolygon","coordinates":[[[[-1.26361,53.42467],[-1.26343,53.42415],[-1.26293,53.42422],[-1.26312,53.42479],[-1.26331,53.42476],[-1.26329,53.42472],[-1.26361,53.42467]]]]}},
{ "type":"Feature","properties":{"osm_way_id":"751537929","name":"Aldi","building":"yes","shop":"supermarket","other":{"addr:city":"Rotherham","addr:housename":"Aldi","addr:postcode":"S62 6FT","addr:street":"Great Eastern Way","brand":"ALDI","brand:wikidata":"Q41171672","brand:wikipedia":"en:Aldi","opening_hours":"Mo-Sa 08:00-21:00","operator":"Aldi","payment:cards":"yes","payment:cash":"yes","payment:contactless":"yes","website":"https:\/\/www.aldi.co.uk\/store\/s-uk-E0944"}}, "geometry":{"type":"MultiPolygon","coordinates":[[[[-1.34418,53.45112],[-1.34406,53.45111],[-1.34408,53.45105],[-1.34375,53.451],[-1.34378,53.45092],[-1.34393,53.45057],[-1.34438,53.45064],[-1.34418,53.45112]]]]}},
{ "type":"Feature","properties":{"osm_way_id":"853020647","name":"Lidl","building":"retail","shop":"supermarket","other":{"addr:country":"GB","addr:postcode":"S65 3ET","addr:street":"Doncaster Road","brand":"Lidl","brand:wikidata":"Q151954","fhrs:id":"1170657"}}, "geometry":{"type":"MultiPolygon","coordinates":[[[[-1.31515,53.44386],[-1.31525,53.44382],[-1.31525,53.44381],[-1.31555,53.44371],[-1.3156,53.44369],[-1.31576,53.44384],[-1.31571,53.44386],[-1.31613,53.44427],[-1.31583,53.44437],[-1.31588,53.44442],[-1.31577,53.44446],[-1.31515,53.44386]]]]}},
{ "type":"Feature","properties":{"osm_way_id":"854982232","name":"Tesco Extra","building":"yes","shop":"supermarket","other":{"addr:city":"Rotherham","addr:housename":"Tesco Stores","addr:postcode":"S63 7DA","addr:street":"Biscay Way","addr:town":"Wath-Upon-Dearne","brand":"Tesco Extra","brand:wikidata":"Q25172225","brand:wikipedia":"en:Tesco Extra","contact:website":"https:\/\/www.tesco.com\/store-locator\/rotherham\/biscay-way","fhrs:id":"988974","source:addr":"FHRS Open Data","toilets":"yes","toilets:wheelchair":"yes","wheelchair":"yes"}}, "geometry":{"type":"MultiPolygon","coordinates":[[[[-1.345,53.50457],[-1.34491,53.50393],[-1.34488,53.50393],[-1.34486,53.50375],[-1.34493,53.50375],[-1.34497,53.50367],[-1.34608,53.50361],[-1.3462,53.50383],[-1.34624,53.50413],[-1.34601,53.50414],[-1.34607,53.50458],[-1.34573,53.5046],[-1.34572,53.50451],[-1.34513,53.50453],[-1.34514,53.50457],[-1.345,53.50457]]]]}}
]
}
