{
"type": "FeatureCollection",
"features": [
{ "type":"Feature","properties":{"osm_id":"8013969864","other":{"access":"customers","door":"hinged","entrance":"main"}}, "geometry":{"type":"Point","coordinates":[-1.98866,52.58328 ]}},
{ "type":"Feature","properties":{"osm_way_id":"271258247","name":"Car Spares Distribution","building":"yes","shop":"car_parts","other":{"addr:city":"Walsall","addr:housename":"Alpine House","addr:postcode":"WS2 9DY","addr:street":"Long Street","building:levels":"2","opening_hours":"Mo-Fr 08:00-17:30; Sa 09:00-16:00","operator":"Car Spares Distribution Limited","phone":"+44 345 2089241","ref:GB:uprn":"10090067756","website":"http:\/\/www.carsparesltd.com\/"}}, "geometry":{"type":"MultiPolygon","coordinates":[[[[-1.98886,52.58332],[-1.98884,52.58331],[-1.98884,52.58331],[-1.98866,52.58328],[-1.98846,52.58325],[-1.98847,52.58321],[-1.98845,52.58321],[-1.98848,52.58314],[-1.98856,52.58306],[-1.98856,52.58305],[-1.98874,52.58308],[-1.98881,52.58309],[-1.98894,52.58311],[-1.98886,52.58332]]]]}},
{ "type":"Feature","properties":{"osm_way_id":"859826907","amenity":"parking_space","other":{"access":"customers","capacity":"1","parking_space":"normal"}}, "geometry":{"type":"MultiPolygon","coordinates":[[[[-1.98858,52.58334],[-1.98855,52.58333],[-1.98856,52.58329],[-1.98856,52.58329],[-1.9886,52.58329],[-1.98858,52.58334]]]]}},
{ "type":"Feature","properties":{"osm_way_id":"859826908","amenity":"parking_space","other":{"access":"customers","capacity":"1","parking_space":"normal"}}, "geometry":{"type":"MultiPolygon","coordinates":[[[[-1.98862,52.58334],[-1.98858,52.58334],[-1.9886,52.58329],[-1.98863,52.58329],[-1.98863,52.5833],[-1.98862,52.58334]]]]}},
{ "type":"Feature","properties":{"osm_way_id":"859826909","amenity":"parking_space","other":{"access":"customers","capacity":"1","parking_space":"normal"}}, "geometry":{"type":"MultiPolygon","coordinates":[[[[-1.98869,52.58335],[-1.98865,52.58335],[-1.98867,52.5833],[-1.98871,52.58331],[-1.98869,52.58335]]]]}},
{ "type":"Feature","properties":{"osm_way_id":"859826910","amenity":"parking_space","other":{"access":"customers","capacity":"1","parking_space":"normal"}}, "geometry":{"type":"MultiPolygon","coordinates":[[[[-1.98873,52.58336],[-1.98869,52.58335],[-1.98871,52.58331],[-1.98874,52.58331],[-1.98874,52.58331],[-1.98873,52.58336]]]]}},
{ "type":"Feature","properties":{"osm_way_id":"859826911","amenity":"parking_space","other":{"access":"customers","capacity":"1","parking_space":"normal"}}, "geometry":{"type":"MultiPolygon","coordinates":[[[[-1.98876,52.58336],[-1.98873,52.58336],[-1.98874,52.58331],[-1.98875,52.58331],[-1.98877,52.58332],[-1.98878,52.58332],[-1.98876,52.58336]]]]}}
]
}
