{
"type": "FeatureCollection",
"features": [
{ "type":"Feature","properties":{"osm_id":"469764881","name":"Co-op Food","other":{"brand":"Co-op Food","brand:wikidata":"Q3277439","brand:wikipedia":"en:Co-op Food","shop":"supermarket","wheelchair":"yes"}}, "geometry":{"type":"Point","coordinates":[-3.97295,55.73792 ]}},
{ "type":"Feature","properties":{"osm_id":"869309162","name":"Lidl","other":{"addr:country":"GB","addr:postcode":"G72 0TH","addr:street":"Whistleberry Road","brand":"Lidl","brand:wikidata":"Q151954","brand:wikipedia":"en:Lidl","fhrs:id":"677243","shop":"supermarket"}}, "geometry":{"type":"Point","coordinates":[-4.07905,55.79062 ]}},
{ "type":"Feature","properties":{"osm_id":"969970160","name":"Co-op Food","other":{"brand":"Co-op Food","brand:wikidata":"Q3277439","brand:wikipedia":"en:Co-op Food","shop":"supermarket"}}, "geometry":{"type":"Point","coordinates":[-3.9835,55.69781 ]}},
{ "type":"Feature","properties":{"osm_id":"1262360719","name":"Scotmid","other":{"addr:city":"Strathaven","addr:housenumber":"15","addr:postcode":"ML10 6AQ","addr:street":"Common Green","brand":"Scotmid","brand:wikidata":"Q7435719","brand:wikipedia":"en:Scotmid","shop":"supermarket"}}, "geometry":{"type":"Point","coordinates":[-4.06597,55.67628 ]}},
{ "type":"Feature","properties":{"osm_id":"2018089024","name":"M&S Foodhall","other":{"brand":"M&S Foodhall","brand:wikidata":"Q714491","brand:wikipedia":"en:Marks & Spencer","shop":"supermarket"}}, "geometry":{"type":"Point","coordinates":[-4.16864,55.78418 ]}},
{ "type":"Feature","properties":{"osm_id":"4020039942","name":"Aldi","other":{"brand":"ALDI","brand:wikidata":"Q41171672","brand:wikipedia":"en:Aldi","shop":"supermarket"}}, "geometry":{"type":"Point","coordinates":[-4.2119,55.76453 ]}},
{ "type":"Feature","properties":{"osm_id":"7947510403","name":"Aldi","other":{"brand":"ALDI","brand:wikidata":"Q41171672","brand:wikipedia":"en:Aldi","shop":"supermarket"}}, "geometry":{"type":"Point","coordinates":[-4.06494,55.67811 ]}},
{ "type":"Feature","properties":{"osm_id":"8942176174","name":"Scotmid","other":{"addr:postcode":"G74 3BQ","brand":"Scotmid","brand:wikidata":"Q7435719","brand:wikipedia":"en:Scotmid","shop":"supermarket"}}, "geometry":{"type":"Point","coordinates":[-4.15673,55.77225 ]}},
{ "type":"Feature","properties":{"osm_way_id":"10160117","name":"Tesco","building":"yes","shop":"supermarket","other":{"addr:city":"East Kilbride","addr:housename":"St. Leonards Square","addr:postcode":"G74 2AU","addr:street":"St Leonards Road","brand":"Tesco","brand:wikidata":"Q487494","brand:wikipedia":"en:Tesco","fhrs:id":"677029","operator":"Tesco","phone":"+44 345 6719533","website":"https:\/\/www.tesco.com\/store-locator\/east-kilbride\/st-leonards-rd"}}, "geometry":{"type":"MultiPolygon","coordinates":[[[[-4.15274,55.76381],[-4.15271,55.7642],[-4.15315,55.76421],[-4.15315,55.76416],[-4.15322,55.76416],[-4.15322,55.76412],[-4.15328,55.76412],[-4.15329,55.76407],[-4.15325,55.76406],[-4.15327,55.76382],[-4.15274,55.76381]]]]}},
{ "type":"Feature","properties":{"osm_way_id":"45040412","name":"Tesco","building":"yes","shop":"supermarket","other":{"brand":"Tesco","brand:wikidata":"Q487494","brand:wikipedia":"en:Tesco","building:levels":"1","height":"5","operator":"Tesco"}}, "geometry":{"type":"MultiPolygon","coordinates":[[[[-4.08336,55.8163],[-4.0833,55.81596],[-4.08226,55.81602],[-4.08234,55.81642],[-4.08264,55.81641],[-4.08262,55.81634],[-4.08336,55.8163]]]]}},
{ "type":"Feature","properties":{"osm_way_id":"67241233","name":"Tesco","building":"retail","shop":"supermarket","other":{"addr:city":"Thetford","addr:postcode":"IP24 2RL","addr:street":"Kilverstone Road","brand":"Tesco","brand:wikidata":"Q487494","brand:wikipedia":"en:Tesco","fhrs:id":"832158","opening_hours":"Mo 06:00-24:00; Tu-Sa 00:00-24:00; Su 10:00-16:00","operator":"Tesco Stores Ltd","pharmacy":"yes","source:addr":"FSA Food Hygiene Ratings Database","website":"https:\/\/www.tesco.com\/store-locator\/thetford\/kilverstone"}}, "geometry":{"type":"MultiPolygon","coordinates":[[[[0.77072,52.42249],[0.77029,52.42221],[0.77034,52.42218],[0.77043,52.42224],[0.77053,52.42218],[0.77061,52.42214],[0.77054,52.42209],[0.77059,52.42207],[0.77051,52.42202],[0.77056,52.42199],[0.77049,52.42194],[0.7703,52.42205],[0.77037,52.42209],[0.77027,52.42215],[0.77003,52.42199],[0.76976,52.42215],[0.76967,52.42209],[0.76937,52.42226],[0.76954,52.42237],[0.76944,52.42243],[0.76941,52.42241],[0.76933,52.42246],[0.76932,52.42245],[0.76923,52.4225],[0.76915,52.42245],[0.76892,52.42258],[0.76933,52.42285],[0.7693,52.42286],[0.76965,52.42309],[0.76978,52.42302],[0.76988,52.42309],[0.77034,52.42282],[0.77063,52.42266],[0.77067,52.42269],[0.77076,52.42264],[0.77072,52.42261],[0.77073,52.4226],[0.77064,52.42254],[0.77072,52.42249]]]]}},
{ "type":"Feature","properties":{"osm_way_id":"71056817","name":"Lidl","building":"house","shop":"supermarket","other":{"addr:country":"GB","addr:postcode":"G71 7HA","addr:street":"Bothwell Road","brand":"Lidl","brand:wikidata":"Q151954","brand:wikipedia":"en:Lidl","fhrs:id":"677252"}}, "geometry":{"type":"MultiPolygon","coordinates":[[[[-4.0788,55.81435],[-4.07847,55.81441],[-4.07851,55.81447],[-4.07842,55.81449],[-4.07813,55.81403],[-4.07855,55.81394],[-4.0788,55.81435]]]]}},
{ "type":"Feature","properties":{"osm_way_id":"83017948","name":"Morrisons","building":"yes","shop":"supermarket","other":{"brand":"Morrisons","brand:wikidata":"Q922344","brand:wikipedia":"en:Morrisons","wheelchair":"yes"}}, "geometry":{"type":"MultiPolygon","coordinates":[[[[-4.19617,55.74193],[-4.19627,55.74152],[-4.19636,55.74152],[-4.19639,55.74142],[-4.19641,55.74142],[-4.19644,55.74132],[-4.19642,55.74132],[-4.19645,55.74119],[-4.19636,55.74118],[-4.19637,55.74115],[-4.19529,55.74106],[-4.1953,55.741],[-4.19512,55.74098],[-4.1949,55.74183],[-4.19617,55.74193]]]]}},
{ "type":"Feature","properties":{"osm_way_id":"86112645","name":"Sainsbury's","building":"yes","shop":"supermarket","other":{"brand":"Sainsbury's","brand:wikidata":"Q152096","brand:wikipedia":"en:Sainsbury's"}}, "geometry":{"type":"MultiPolygon","coordinates":[[[[-4.17189,55.78313],[-4.1721,55.78256],[-4.17149,55.78249],[-4.17157,55.78225],[-4.17121,55.78221],[-4.17058,55.78214],[-4.17017,55.78324],[-4.17067,55.7833],[-4.17124,55.78337],[-4.17135,55.78307],[-4.17189,55.78313]]]]}},
{ "type":"Feature","properties":{"osm_way_id":"86119851","name":"Morrisons","building":"yes","shop":"supermarket","other":{"addr:housenumber":"2","addr:postcode":"G74 4TT","addr:street":"MacNeish Way","brand":"Morrisons","brand:wikidata":"Q922344","brand:wikipedia":"en:Morrisons"}}, "geometry":{"type":"MultiPolygon","coordinates":[[[[-4.20377,55.77483],[-4.20405,55.7743],[-4.20418,55.77432],[-4.20424,55.7742],[-4.20411,55.77418],[-4.20418,55.77406],[-4.20377,55.77399],[-4.20368,55.77415],[-4.2034,55.77411],[-4.20349,55.77394],[-4.20308,55.77387],[-4.20285,55.77431],[-4.20267,55.77428],[-4.20251,55.77459],[-4.20262,55.77471],[-4.20272,55.77475],[-4.20273,55.77473],[-4.203,55.77477],[-4.20305,55.77469],[-4.20377,55.77483]]]]}},
{ "type":"Feature","properties":{"osm_way_id":"93870208","name":"Asda","building":"retail","shop":"supermarket","other":{"addr:city":"Hamilton","addr:country":"GB","addr:postcode":"ML3 6AD","addr:street":"Palace Grounds Road","brand":"Asda","brand:wikidata":"Q297410","brand:wikipedia":"en:Asda","contact:facebook":"https:\/\/www.facebook.com\/asda\/","contact:twitter":"@asda","contact:website":"https:\/\/storelocator.asda.com\/scotland\/hamilton\/palace-grounds-road","fhrs:id":"677235","operator":"Asda Stores Ltd","wheelchair":"yes"}}, "geometry":{"type":"MultiPolygon","coordinates":[[[[-4.03279,55.7776],[-4.03174,55.7779],[-4.03218,55.77839],[-4.03209,55.77842],[-4.03228,55.77863],[-4.03242,55.77858],[-4.03253,55.7787],[-4.03275,55.77864],[-4.03296,55.77887],[-4.03372,55.77866],[-4.03279,55.7776]]]]}},
{ "type":"Feature","properties":{"osm_way_id":"93934620","name":"Sainsbury's","building":"yes","shop":"supermarket","other":{"brand":"Sainsbury's","brand:wikidata":"Q152096","brand:wikipedia":"en:Sainsbury's"}}, "geometry":{"type":"MultiPolygon","coordinates":[[[[-4.05787,55.78097],[-4.05775,55.78104],[-4.05783,55.78108],[-4.05764,55.7812],[-4.05718,55.78132],[-4.05694,55.7812],[-4.05681,55.78128],[-4.0565,55.78112],[-4.05644,55.78116],[-4.05621,55.78104],[-4.05627,55.78101],[-4.05603,55.78088],[-4.05594,55.78093],[-4.05585,55.78089],[-4.05581,55.78081],[-4.05584,55.78075],[-4.05589,55.78069],[-4.05654,55.78029],[-4.05787,55.78097]]]]}},
{ "type":"Feature","properties":{"osm_way_id":"97882356","name":"Morrisons","building":"yes","shop":"supermarket","other":{"addr:postcode":"ML11 7LA","addr:street":"St Vincent Place","brand":"Morrisons","brand:wikidata":"Q922344","brand:wikipedia":"en:Morrisons"}}, "geometry":{"type":"MultiPolygon","coordinates":[[[[-3.77014,55.67305],[-3.77111,55.67319],[-3.77123,55.67286],[-3.77052,55.67277],[-3.77023,55.67281],[-3.77014,55.67305]]]]}},
{ "type":"Feature","properties":{"osm_way_id":"106496923","name":"Lidl","building":"supermarket","shop":"supermarket","other":{"addr:city":"Rushden","addr:country":"GB","addr:postcode":"NN10 6EN","addr:street":"Brindley Close","alt_name":"LIDL Rushden","brand":"Lidl","brand:wikidata":"Q151954","brand:wikipedia":"en:Lidl","fhrs:authority":"North Northamptonshire","fhrs:id":"27977","fhrs:local_authority_id":"08425\/0001\/0\/000","fhrs:rating":"5","operator":"Lidl"}}, "geometry":{"type":"MultiPolygon","coordinates":[[[[-0.61403,52.30005],[-0.61379,52.30009],[-0.61376,52.30001],[-0.61359,52.30004],[-0.6138,52.30055],[-0.61427,52.30047],[-0.61419,52.3003],[-0.61414,52.30031],[-0.61403,52.30005]]]]}},
{ "type":"Feature","properties":{"osm_way_id":"152343260","name":"Tesco","building":"yes","shop":"supermarket","other":{"addr:postcode":"ML11 7AG","addr:street":"Gallowhill Road","brand":"Tesco","brand:wikidata":"Q487494","brand:wikipedia":"en:Tesco"}}, "geometry":{"type":"MultiPolygon","coordinates":[[[[-3.77745,55.67539],[-3.77757,55.67511],[-3.77747,55.6751],[-3.77749,55.67504],[-3.77757,55.67506],[-3.77768,55.6748],[-3.77759,55.67479],[-3.77772,55.67447],[-3.77699,55.67438],[-3.7767,55.67506],[-3.77681,55.67508],[-3.77671,55.67513],[-3.77669,55.67518],[-3.77671,55.67524],[-3.77675,55.67529],[-3.77691,55.67533],[-3.77745,55.67539]]]]}},
{ "type":"Feature","properties":{"osm_way_id":"152386196","name":"Lidl","building":"yes","shop":"supermarket","other":{"addr:country":"GB","addr:housenumber":"17","addr:postcode":"ML11 9DZ","addr:street":"Castlegate","brand":"Lidl","brand:wikidata":"Q151954","brand:wikipedia":"en:Lidl","fhrs:id":"677258"}}, "geometry":{"type":"MultiPolygon","coordinates":[[[[-3.78028,55.67311],[-3.77984,55.67293],[-3.78004,55.67279],[-3.78016,55.67278],[-3.78023,55.67272],[-3.7803,55.67272],[-3.78067,55.67288],[-3.78068,55.67296],[-3.7804,55.67317],[-3.78031,55.67314],[-3.78026,55.67311],[-3.78028,55.67311]]]]}},
{ "type":"Feature","properties":{"osm_way_id":"190801717","name":"Lidl","building":"yes","shop":"supermarket","other":{"addr:country":"GB","addr:postcode":"G74 5QD","addr:street":"St James Avenue","brand":"Lidl","brand:wikidata":"Q151954","brand:wikipedia":"en:Lidl","fhrs:id":"1152508"}}, "geometry":{"type":"MultiPolygon","coordinates":[[[[-4.22748,55.7597],[-4.22768,55.76001],[-4.22761,55.76002],[-4.22771,55.76018],[-4.22827,55.76006],[-4.22808,55.75979],[-4.22816,55.75977],[-4.22804,55.75958],[-4.22748,55.7597]]]]}},
{ "type":"Feature","properties":{"osm_way_id":"195393745","name":"Tesco Extra","building":"commercial","shop":"supermarket","other":{"addr:city":"Glasgow","addr:postcode":"G73 1NY","addr:street":"Dalmarnock Road","brand":"Tesco Extra","brand:wikidata":"Q25172225","opening_hours":"24\/7","operator":"Tesco"}}, "geometry":{"type":"MultiPolygon","coordinates":[[[[-4.21064,55.83496],[-4.21025,55.8339],[-4.2117,55.83373],[-4.21172,55.83377],[-4.21177,55.83392],[-4.21178,55.83393],[-4.21165,55.83395],[-4.21166,55.83397],[-4.21195,55.83393],[-4.21202,55.83412],[-4.21172,55.83415],[-4.21197,55.83481],[-4.21064,55.83496]]]]}},
{ "type":"Feature","properties":{"osm_way_id":"195410948","name":"Aldi","building":"yes","shop":"supermarket","other":{"brand":"ALDI","brand:wikidata":"Q41171672","brand:wikipedia":"en:Aldi"}}, "geometry":{"type":"MultiPolygon","coordinates":[[[[-4.21934,55.82661],[-4.21894,55.82665],[-4.21886,55.82613],[-4.2193,55.8261],[-4.21939,55.82637],[-4.21928,55.82638],[-4.21934,55.82661]]]]}},
{ "type":"Feature","properties":{"osm_way_id":"202488665","name":"Asda","building":"yes","shop":"supermarket","other":{"addr:city":"Blantyre","addr:country":"GB","addr:housenumber":"11","addr:place":"Clydeview Shopping Centre","addr:postcode":"G72 0AQ","brand":"Asda","brand:wikidata":"Q297410","brand:wikipedia":"en:Asda","contact:facebook":"https:\/\/www.facebook.com\/asda\/","contact:twitter":"@asda","contact:website":"https:\/\/storelocator.asda.com\/scotland\/blantyre\/glasgow-road","fhrs:id":"677062","operator":"Asda Stores Ltd"}}, "geometry":{"type":"MultiPolygon","coordinates":[[[[-4.08992,55.79248],[-4.09021,55.79221],[-4.08988,55.7921],[-4.09013,55.79182],[-4.08929,55.79159],[-4.08901,55.79189],[-4.08887,55.79188],[-4.08856,55.79221],[-4.08861,55.79232],[-4.08857,55.79238],[-4.08864,55.79246],[-4.08887,55.79249],[-4.08896,55.79236],[-4.08947,55.79249],[-4.08959,55.79239],[-4.08992,55.79248]]]]}},
{ "type":"Feature","properties":{"osm_way_id":"203359504","name":"Tesco","building":"yes","shop":"supermarket","other":{"brand":"Tesco","brand:wikidata":"Q487494","brand:wikipedia":"en:Tesco","source:building":"Bing"}}, "geometry":{"type":"MultiPolygon","coordinates":[[[[-4.20132,55.81893],[-4.20118,55.81864],[-4.20105,55.81866],[-4.20101,55.81858],[-4.20206,55.81841],[-4.20225,55.81878],[-4.20176,55.81886],[-4.20157,55.81889],[-4.20132,55.81893]]]]}},
{ "type":"Feature","properties":{"osm_way_id":"203480754","name":"Nisa Extra","building":"commercial","shop":"supermarket","other":{"addr:city":"Glasgow","addr:country":"GB","addr:housenumber":"151","addr:postcode":"G72 8PE","addr:street":"Western Road","brand":"Nisa Extra","brand:wikidata":"Q16999069","brand:wikipedia":"en:Nisa (retailer)","fhrs:id":"678271"}}, "geometry":{"type":"MultiPolygon","coordinates":[[[[-4.18028,55.80924],[-4.18025,55.80923],[-4.17971,55.80922],[-4.17974,55.80879],[-4.1805,55.80881],[-4.18049,55.80903],[-4.1803,55.80903],[-4.18028,55.80924]]]]}},
{ "type":"Feature","properties":{"osm_way_id":"219829636","name":"Sainsbury's Local","building":"yes","shop":"supermarket","other":{"addr:housenumber":"60","addr:postcode":"ML12 6BJ","addr:street":"High Street","brand:wikidata":"Q13218434"}}, "geometry":{"type":"MultiPolygon","coordinates":[[[[-3.52537,55.62368],[-3.5252,55.62353],[-3.52509,55.62357],[-3.52513,55.6236],[-3.52507,55.62362],[-3.52519,55.62376],[-3.52537,55.62368]]]]}},
{ "type":"Feature","properties":{"osm_way_id":"219830552","name":"Co-op","building":"yes","shop":"supermarket","other":{"addr:housename":"Old Auction Market","addr:postcode":"ML12 6BW","addr:street":"Old Station Road"}}, "geometry":{"type":"MultiPolygon","coordinates":[[[[-3.52365,55.62327],[-3.52363,55.6231],[-3.52313,55.62311],[-3.52315,55.62328],[-3.52365,55.62327]]]]}},
{ "type":"Feature","properties":{"osm_way_id":"249248617","name":"Morrisons","building":"yes","shop":"supermarket","other":{"brand":"Morrisons","brand:wikidata":"Q922344","brand:wikipedia":"en:Morrisons"}}, "geometry":{"type":"MultiPolygon","coordinates":[[[[-4.05595,55.78191],[-4.05586,55.78182],[-4.05625,55.78171],[-4.05703,55.78259],[-4.05604,55.78286],[-4.05608,55.78291],[-4.0559,55.78295],[-4.05583,55.78287],[-4.05592,55.78285],[-4.05549,55.78234],[-4.05565,55.7823],[-4.05558,55.78221],[-4.05575,55.78216],[-4.05562,55.782],[-4.05595,55.78191]]]]}},
{ "type":"Feature","properties":{"osm_way_id":"256501686","name":"Morrisons","building":"commercial","shop":"supermarket","other":{"addr:postcode":"G72 7EA","brand":"Morrisons","brand:wikidata":"Q922344","brand:wikipedia":"en:Morrisons","operator":"Morrisons","website":"https:\/\/my.morrisons.com\/storefinder\/182"}}, "geometry":{"type":"MultiPolygon","coordinates":[[[[-4.168,55.82157],[-4.16801,55.82228],[-4.16854,55.82229],[-4.16854,55.82233],[-4.16908,55.82232],[-4.16907,55.82197],[-4.16902,55.82197],[-4.16901,55.8217],[-4.16906,55.8217],[-4.16916,55.82164],[-4.16901,55.82156],[-4.168,55.82157]]]]}},
{ "type":"Feature","properties":{"osm_way_id":"292438008","name":"Tesco","building":"yes","shop":"supermarket","other":{"addr:city":"Lesmahagow","addr:housename":"Tesco Lesmahagow","addr:postcode":"ML11 0HY","addr:street":"Teiglum Road","brand":"Tesco","brand:wikidata":"Q487494","brand:wikipedia":"en:Tesco","operator":"Tesco"}}, "geometry":{"type":"MultiPolygon","coordinates":[[[[-3.89414,55.65011],[-3.89333,55.64982],[-3.89366,55.64953],[-3.89348,55.64946],[-3.89351,55.64944],[-3.89299,55.64925],[-3.8932,55.64906],[-3.89466,55.64958],[-3.89451,55.64971],[-3.89455,55.64973],[-3.89414,55.65011]]]]}},
{ "type":"Feature","properties":{"osm_way_id":"314629987","name":"Sainsbury's","building":"yes","shop":"supermarket","other":{"brand":"Sainsbury's","brand:wikidata":"Q152096","brand:wikipedia":"en:Sainsbury's"}}, "geometry":{"type":"MultiPolygon","coordinates":[[[[-4.06741,55.67444],[-4.06702,55.67424],[-4.06786,55.67367],[-4.06842,55.67395],[-4.06833,55.67401],[-4.06828,55.674],[-4.06791,55.67425],[-4.06775,55.67431],[-4.06766,55.67427],[-4.06741,55.67444]]]]}},
{ "type":"Feature","properties":{"osm_way_id":"320240494","name":"Aldi","building":"yes","shop":"supermarket","other":{"brand":"ALDI","brand:wikidata":"Q41171672","brand:wikipedia":"en:Aldi","operator":"Aldi"}}, "geometry":{"type":"MultiPolygon","coordinates":[[[[-3.83946,55.73197],[-3.84019,55.7317],[-3.8405,55.73197],[-3.83977,55.73224],[-3.83946,55.73197]]]]}},
{ "type":"Feature","properties":{"osm_way_id":"320729395","name":"Tesco","building":"yes","shop":"supermarket","other":{"brand":"Tesco","brand:wikidata":"Q487494"}}, "geometry":{"type":"MultiPolygon","coordinates":[[[[-3.83873,55.7291],[-3.83865,55.72895],[-3.83778,55.72906],[-3.8376,55.72862],[-3.83752,55.72843],[-3.83854,55.7283],[-3.83888,55.72908],[-3.83873,55.7291]]]]}},
{ "type":"Feature","properties":{"osm_way_id":"357821199","name":"Blackwood Coop","building":"retail","shop":"supermarket","other":{"addr:city":"Blackwood","addr:housenumber":"75","addr:postcode":"ML11 9RZ","addr:street":"Carlisle Road","brand":"Coop","operator":"Coop","phone":"+44 1555 895386"}}, "geometry":{"type":"MultiPolygon","coordinates":[[[[-3.9254,55.67354],[-3.92545,55.6736],[-3.92571,55.67353],[-3.92574,55.67357],[-3.92586,55.67354],[-3.92575,55.67341],[-3.92564,55.67343],[-3.92567,55.67347],[-3.9254,55.67354]]]]}},
{ "type":"Feature","properties":{"osm_way_id":"449610011","name":"Asda","building":"yes","shop":"supermarket","other":{"addr:city":"Larkhall","addr:country":"GB","addr:postcode":"ML9 1QP","addr:street":"Broomhill Road","brand":"Asda","brand:wikidata":"Q297410","brand:wikipedia":"en:Asda","contact:facebook":"https:\/\/www.facebook.com\/asda\/","contact:twitter":"@asda","contact:website":"https:\/\/storelocator.asda.com\/scotland\/larkhall\/broomhill-drive","fhrs:id":"678884","opening_hours":"06:00-23:00","operator":"Asda Stores Ltd"}}, "geometry":{"type":"MultiPolygon","coordinates":[[[[-3.97912,55.73394],[-3.97855,55.73356],[-3.97791,55.73386],[-3.97849,55.73424],[-3.97912,55.73394]]]]}},
{ "type":"Feature","properties":{"osm_way_id":"531782150","name":"Aldi","building":"yes","shop":"supermarket","other":{"brand":"ALDI","brand:wikidata":"Q41171672","brand:wikipedia":"en:Aldi","opening_hours":"Mo-Sa 08:00-22:00; Su 09:00-19:00"}}, "geometry":{"type":"MultiPolygon","coordinates":[[[[-4.15703,55.81545],[-4.15654,55.81589],[-4.1561,55.81573],[-4.1566,55.8153],[-4.15703,55.81545]]]]}},
{ "type":"Feature","properties":{"osm_way_id":"531782164","name":"Lidl","building":"yes","shop":"supermarket","other":{"addr:country":"GB","addr:housenumber":"200","addr:postcode":"G73 3BA","addr:street":"Cambuslang Road","brand":"Lidl","brand:wikidata":"Q151954","brand:wikipedia":"en:Lidl","fhrs:id":"734227"}}, "geometry":{"type":"MultiPolygon","coordinates":[[[[-4.19555,55.82746],[-4.19496,55.82702],[-4.19452,55.8272],[-4.19521,55.82773],[-4.1954,55.82766],[-4.19534,55.82761],[-4.19553,55.82753],[-4.19547,55.82749],[-4.19555,55.82746]]]]}},
{ "type":"Feature","properties":{"osm_way_id":"552238400","name":"Lidl","building":"yes","shop":"supermarket","other":{"addr:country":"GB","addr:housenumber":"32","addr:postcode":"ML3 6BH","addr:street":"Muir Street","brand":"Lidl","brand:wikidata":"Q151954","brand:wikipedia":"en:Lidl","fhrs:id":"877230","operator":"Lidl Great Britain Ltd"}}, "geometry":{"type":"MultiPolygon","coordinates":[[[[-4.0428,55.77951],[-4.04266,55.77978],[-4.04156,55.77961],[-4.04161,55.77951],[-4.04168,55.77952],[-4.04175,55.77938],[-4.04217,55.77945],[-4.04219,55.7794],[-4.0428,55.77951]]]]}},
{ "type":"Feature","properties":{"osm_way_id":"552701921","name":"Co-op Food","building":"yes","shop":"supermarket","other":{"brand":"Co-op Food","brand:wikidata":"Q3277439","brand:wikipedia":"en:Co-op Food"}}, "geometry":{"type":"MultiPolygon","coordinates":[[[[-4.04838,55.76337],[-4.04857,55.7637],[-4.04816,55.76378],[-4.04794,55.76345],[-4.04838,55.76337]]]]}},
{ "type":"Feature","properties":{"osm_way_id":"563135734","name":"M&S Foodhall","building":"yes","shop":"supermarket","other":{"brand":"M&S Foodhall","brand:wikidata":"Q714491","brand:wikipedia":"en:Marks & Spencer"}}, "geometry":{"type":"MultiPolygon","coordinates":[[[[-4.08006,55.81356],[-4.07974,55.8133],[-4.07933,55.81346],[-4.07949,55.81359],[-4.07965,55.81372],[-4.08006,55.81356]]]]}},
{ "type":"Feature","properties":{"osm_way_id":"605078424","name":"Aldi","building":"yes","shop":"supermarket","other":{"brand":"ALDI","brand:wikidata":"Q41171672","brand:wikipedia":"en:Aldi"}}, "geometry":{"type":"MultiPolygon","coordinates":[[[[-4.06863,55.77269],[-4.06801,55.77236],[-4.06766,55.77257],[-4.06828,55.7729],[-4.06863,55.77269]]]]}},
{ "type":"Feature","properties":{"osm_way_id":"607974837","name":"Scotmid","building":"yes","shop":"supermarket","other":{"addr:city":"Law","addr:housenumber":"53-55","addr:postcode":"ML8 5LN","addr:street":"Station Road","brand":"Scotmid","brand:wikidata":"Q7435719","brand:wikipedia":"en:Scotmid"}}, "geometry":{"type":"MultiPolygon","coordinates":[[[[-3.88078,55.75266],[-3.88045,55.75248],[-3.88064,55.75237],[-3.88097,55.75255],[-3.88078,55.75266]]]]}},
{ "type":"Feature","properties":{"osm_way_id":"670321638","name":"Essentials","building":"yes","shop":"supermarket","other":{"addr:city":"Glasgow","addr:housenumber":"22-24","addr:postcode":"G72 7UW","addr:street":"Newton Brae","operator":"Newton Arms","payment:cash":"yes","payment:credit_cards":"yes","payment:debit_cards":"yes"}}, "geometry":{"type":"MultiPolygon","coordinates":[[[[-4.12552,55.81955],[-4.12533,55.8196],[-4.12528,55.81954],[-4.12547,55.81949],[-4.12552,55.81955]]]]}},
{ "type":"Feature","properties":{"osm_way_id":"834758382","name":"Co-op Food","building":"yes","shop":"supermarket","other":{"brand":"Co-op Food","brand:wikidata":"Q3277439","brand:wikipedia":"en:Co-op Food","operator":"The Co-operative Group","operator:wikidata":"Q117202","operator:wikipedia":"en:The Co-operative Group"}}, "geometry":{"type":"MultiPolygon","coordinates":[[[[-4.0672,55.80294],[-4.06694,55.80289],[-4.06704,55.80272],[-4.06731,55.80278],[-4.0672,55.80294]]]]}},
{ "type":"Feature","properties":{"osm_way_id":"854663609","name":"Lidl","building":"retail","shop":"supermarket","other":{"addr:country":"GB","addr:housenumber":"5","addr:postcode":"G74 1BX","addr:street":"Churchill Avenue","brand":"Lidl","brand:wikidata":"Q151954","brand:wikipedia":"en:Lidl","fhrs:id":"1410003"}}, "geometry":{"type":"MultiPolygon","coordinates":[[[[-4.17269,55.76312],[-4.17259,55.7631],[-4.17236,55.76305],[-4.17233,55.7631],[-4.17169,55.76298],[-4.17156,55.76319],[-4.17148,55.76318],[-4.17143,55.76326],[-4.17247,55.76347],[-4.17269,55.76312]]]]}},
{ "type":"Feature","properties":{"osm_way_id":"942471689","name":"Aldi","building":"yes","shop":"supermarket","other":{"brand":"ALDI","brand:wikidata":"Q41171672","brand:wikipedia":"en:Aldi","operator":"Aldi"}}, "geometry":{"type":"MultiPolygon","coordinates":[[[[-4.1701,55.77979],[-4.16917,55.77989],[-4.16914,55.77982],[-4.16908,55.77963],[-4.16992,55.77954],[-4.16999,55.77971],[-4.17009,55.7797],[-4.1701,55.77979]]]]}}
]
}
