{
"type": "FeatureCollection",
"features": [
{ "type":"Feature","properties":{"osm_way_id":"87427860","name":"Amazon","building":"warehouse","other":{"addr:housenumber":"Unit 2","addr:postcode":"PE2 9EN","addr:street":"Flaxley Road"}}, "geometry":{"type":"MultiPolygon","coordinates":[[[[-0.24132,52.5444],[-0.24055,52.54439],[-0.24069,52.54057],[-0.24303,52.5406],[-0.24302,52.54066],[-0.24326,52.54066],[-0.24325,52.54089],[-0.243,52.54088],[-0.24288,52.54415],[-0.2433,52.54416],[-0.2433,52.54431],[-0.24286,52.54431],[-0.24285,52.54455],[-0.24131,52.54453],[-0.24132,52.5444]]]]}},
{ "type":"Feature","properties":{"osm_way_id":"87427870","name":"Amazon","building":"warehouse","other":{"addr:housenumber":"Unit 1","addr:postcode":"PE2 9EN","addr:street":"Flaxley Road"}}, "geometry":{"type":"MultiPolygon","coordinates":[[[[-0.23732,52.54034],[-0.23721,52.54334],[-0.23754,52.54334],[-0.23754,52.54345],[-0.23885,52.54347],[-0.23886,52.54335],[-0.23941,52.54336],[-0.23947,52.54179],[-0.23967,52.54179],[-0.23968,52.54164],[-0.23947,52.54163],[-0.23952,52.54037],[-0.23732,52.54034]]]]}},
{ "type":"Feature","properties":{"osm_way_id":"87616433","name":"Carl F Groupco","building":"warehouse"},"geometry":{"type":"MultiPolygon","coordinates":[[[[-0.32397,52.5399],[-0.32295,52.53997],[-0.32288,52.53965],[-0.3239,52.53957],[-0.32397,52.5399]]]]}},
{ "type":"Feature","properties":{"osm_way_id":"89165229","name":"Ocado","building":"warehouse","other":{"addr:city":"Peterborough","addr:housenumber":"3","addr:postcode":"PE1 5BF","addr:street":"Whitehead Drove","building:levels":"2"}}, "geometry":{"type":"MultiPolygon","coordinates":[[[[-0.21185,52.56965],[-0.2119,52.56978],[-0.21194,52.56988],[-0.21198,52.56996],[-0.21207,52.57019],[-0.21176,52.57024],[-0.21105,52.57035],[-0.21093,52.57006],[-0.21083,52.5698],[-0.21127,52.56974],[-0.21185,52.56965]]]]}},
{ "type":"Feature","properties":{"osm_way_id":"168501733","building":"warehouse"},"geometry":{"type":"MultiPolygon","coordinates":[[[[-0.23866,52.5461],[-0.23801,52.54436],[-0.23671,52.54452],[-0.23738,52.54627],[-0.23866,52.5461]]]]}},
{ "type":"Feature","properties":{"osm_way_id":"628684686","name":"Eureka Building","building":"warehouse"},"geometry":{"type":"MultiPolygon","coordinates":[[[[-0.30187,52.53478],[-0.29958,52.5357],[-0.29863,52.53483],[-0.30094,52.53389],[-0.30187,52.53478]]]]}},
{ "type":"Feature","properties":{"osm_way_id":"628684699","name":"Lidl Distribution Centre","building":"warehouse","other":{"addr:postcode":"PE7 3AG","addr:street":"waterworth road","brand":"Lidl","brand:wikidata":"Q151954","brand:wikipedia":"en:Lidl"}}, "geometry":{"type":"MultiPolygon","coordinates":[[[[-0.31357,52.53104],[-0.31047,52.5322],[-0.3099,52.53165],[-0.30961,52.53176],[-0.3095,52.53165],[-0.30982,52.53153],[-0.30896,52.53068],[-0.31203,52.52953],[-0.31357,52.53104]]]]}},
{ "type":"Feature","properties":{"osm_way_id":"830164487","building":"warehouse"},"geometry":{"type":"MultiPolygon","coordinates":[[[[1.59229,52.15775],[1.59228,52.15741],[1.59249,52.15741],[1.5925,52.15774],[1.59229,52.15775]]]]}}
]
}
